<?xml version="1.0" encoding="UTF-8"?>
<osm version="0.6" generator="osmapis">
	<node lat="62.717358329990645" lon="10.771675005097345" id="-39377">
		<tag k="name" v="Håmmårtjønna" />
		<tag k="natural" v="water" />
		<tag k="ssr:stedsnr" v="11008" />
	</node>
	<node lat="62.68923333567982" lon="10.656816661170426" id="-39379">
		<tag k="name" v="Dølbutjønna" />
		<tag k="natural" v="water" />
		<tag k="ssr:stedsnr" v="11401" />
	</node>
	<node lat="62.733847226484116" lon="10.6761249913551" id="-39380">
		<tag k="name" v="Bua" />
		<tag k="ssr:stedsnr" v="11380" />
		<tag k="waterway" v="river" />
	</node>
	<node lat="62.73806110769721" lon="10.706386112471787" id="-39381">
		<tag k="name" v="Storbekken" />
		<tag k="ssr:stedsnr" v="11383" />
		<tag k="waterway" v="stream" />
	</node>
	<node lat="62.67089999878363" lon="10.587600002800723" id="-39383">
		<tag k="alt_name" v="Ensjøen, store" />
		<tag k="name" v="Storensjøen" />
		<tag k="natural" v="water" />
		<tag k="ssr:stedsnr" v="11392" />
		<tag k="water" v="lake" />
	</node>
	<node lat="62.795216665860764" lon="10.730202777940502" id="-39384">
		<tag k="name" v="Nyhaugtjønna" />
		<tag k="natural" v="water" />
		<tag k="ssr:stedsnr" v="12008" />
	</node>
	<node lat="63.06519166259492" lon="10.837000005168612" id="-39386">
		<tag k="name" v="Julfisktjønna" />
		<tag k="natural" v="water" />
		<tag k="ssr:stedsnr" v="12189" />
	</node>
	<node lat="62.77191944164886" lon="10.501763898060242" id="-39391">
		<tag k="name" v="Fisktjønna" />
		<tag k="natural" v="water" />
		<tag k="ssr:stedsnr" v="12273" />
	</node>
	<node lat="62.96424166437606" lon="10.189588885779772" id="-39393">
		<tag k="name" v="Sokna" />
		<tag k="ssr:stedsnr" v="12780" />
		<tag k="waterway" v="river" />
	</node>
	<node lat="63.06178610855034" lon="10.371555546122318" id="-39396">
		<tag k="name" v="Skomakertjønna" />
		<tag k="natural" v="water" />
		<tag k="ssr:stedsnr" v="12904" />
	</node>
	<node lat="62.94458611450748" lon="10.321958331936697" id="-39402">
		<tag k="name" v="Søstubekken" />
		<tag k="ssr:stedsnr" v="33014" />
		<tag k="waterway" v="stream" />
	</node>
	<node lat="62.838375001357925" lon="10.45649165870078" id="-39406">
		<tag k="name" v="Vassmyrbekken" />
		<tag k="ssr:stedsnr" v="33166" />
		<tag k="waterway" v="stream" />
	</node>
	<node lat="62.828499995939346" lon="10.44822777900901" id="-39407">
		<tag k="name" v="Garmakerbekken" />
		<tag k="ssr:stedsnr" v="33170" />
		<tag k="waterway" v="stream" />
	</node>
	<node lat="62.992252778707616" lon="10.261427775320307" id="-39415">
		<tag k="name" v="Kvennbekken" />
		<tag k="ssr:stedsnr" v="33323" />
		<tag k="waterway" v="stream" />
	</node>
	<node lat="62.927680557377506" lon="10.175588882648478" id="-39424">
		<tag k="name" v="Vindåslibekken" />
		<tag k="ssr:stedsnr" v="33419" />
		<tag k="waterway" v="stream" />
	</node>
	<node lat="62.83580277521947" lon="10.548308325568811" id="-39427">
		<tag k="name" v="Kvernbekken" />
		<tag k="ssr:stedsnr" v="33572" />
		<tag k="waterway" v="stream" />
	</node>
	<node lat="62.898272218589405" lon="10.69997222474375" id="-39433">
		<tag k="name" v="Stofossen" />
		<tag k="natural" v="waterfall" />
		<tag k="ssr:stedsnr" v="33705" />
	</node>
	<node lat="63.0002083376263" lon="10.185311110073727" id="-39435">
		<tag k="name" v="Dambekken" />
		<tag k="ssr:stedsnr" v="33713" />
		<tag k="waterway" v="stream" />
	</node>
	<node lat="62.912530551624805" lon="10.053575006317278" id="-39449">
		<tag k="name" v="Lomtjønna" />
		<tag k="natural" v="water" />
		<tag k="ssr:stedsnr" v="33678" />
	</node>
	<node lat="63.038463884823734" lon="10.364711111956423" id="-39454">
		<tag k="name" v="Synner Langvatnet" />
		<tag k="natural" v="water" />
		<tag k="ssr:stedsnr" v="33823" />
		<tag k="water" v="lake" />
	</node>
	<node lat="62.755424999915526" lon="10.855797221195486" id="-39469">
		<tag k="name" v="Langtjønna" />
		<tag k="natural" v="water" />
		<tag k="ssr:stedsnr" v="73218" />
	</node>
	<node lat="62.925002775014576" lon="10.74363334159319" id="-39471">
		<tag k="name" v="Stryptjønna" />
		<tag k="natural" v="water" />
		<tag k="ssr:stedsnr" v="73404" />
	</node>
	<node lat="63.050802781255065" lon="10.185011114420917" id="-39474">
		<tag k="name" v="Godlovtjønna" />
		<tag k="natural" v="water" />
		<tag k="ssr:stedsnr" v="73602" />
	</node>
	<node lat="62.989708329956954" lon="10.928877772820334" id="-39487">
		<tag k="name" v="Svekka" />
		<tag k="ssr:stedsnr" v="81290" />
		<tag k="waterway" v="stream" />
	</node>
	<node lat="62.91379167061205" lon="10.264605555771242" id="-39502">
		<tag k="name" v="Svartåsbekken" />
		<tag k="ssr:stedsnr" v="94022" />
		<tag k="waterway" v="stream" />
	</node>
	<node lat="63.00154722095518" lon="10.305538887524795" id="-39506">
		<tag k="name" v="Nygardsbekken" />
		<tag k="ssr:stedsnr" v="94078" />
		<tag k="waterway" v="stream" />
	</node>
	<node lat="62.894025003477914" lon="10.460216670338355" id="-39520">
		<tag k="name" v="Håmmårstubekken" />
		<tag k="ssr:stedsnr" v="94406" />
		<tag k="waterway" v="stream" />
	</node>
	<node lat="63.0380611095112" lon="10.618938882227486" id="-39529">
		<tag k="name" v="Rødsløkkjbekken" />
		<tag k="ssr:stedsnr" v="94814" />
		<tag k="waterway" v="stream" />
	</node>
	<node lat="63.00615278171323" lon="10.692783336768546" id="-39530">
		<tag k="name" v="Kjølbekken" />
		<tag k="ssr:stedsnr" v="94816" />
		<tag k="waterway" v="stream" />
	</node>
	<node lat="62.98905277790767" lon="10.961638881368724" id="-39548">
		<tag k="name" v="Storløbekken" />
		<tag k="ssr:stedsnr" v="94917" />
		<tag k="waterway" v="stream" />
	</node>
	<node lat="62.97393055665327" lon="10.886308339335915" id="-39550">
		<tag k="name" v="Kvernbekken" />
		<tag k="ssr:stedsnr" v="94924" />
		<tag k="waterway" v="stream" />
	</node>
	<node lat="62.867866667207174" lon="10.777766670728619" id="-39562">
		<tag k="name" v="Råbekken" />
		<tag k="ssr:stedsnr" v="133106" />
		<tag k="waterway" v="stream" />
	</node>
	<node lat="62.78723055859602" lon="10.263855560290947" id="-39569">
		<tag k="name" v="Lensmannsbekken" />
		<tag k="ssr:stedsnr" v="133256" />
		<tag k="waterway" v="stream" />
	</node>
	<node lat="63.06339444349128" lon="10.429591660238641" id="-39579">
		<tag k="name" v="Gråvvåtjønna" />
		<tag k="natural" v="water" />
		<tag k="ssr:stedsnr" v="133905" />
	</node>
	<node lat="62.895574997548046" lon="10.955230547439564" id="-39585">
		<tag k="name" v="Korsfonntjønna" />
		<tag k="natural" v="water" />
		<tag k="ssr:stedsnr" v="254074" />
	</node>
	<node lat="62.96642499805351" lon="10.743274995705343" id="-39587">
		<tag k="name" v="Ringåa" />
		<tag k="ssr:stedsnr" v="254440" />
		<tag k="waterway" v="stream" />
	</node>
	<node lat="63.0539166622463" lon="10.20912778215279" id="-39588">
		<tag k="alt_name" v="Bjørbekken" />
		<tag k="name" v="Bjørgbekken" />
		<tag k="ssr:stedsnr" v="254571" />
		<tag k="waterway" v="stream" />
	</node>
	<node lat="62.843911108331945" lon="10.818024997265681" id="-39590">
		<tag k="name" v="Storbekken" />
		<tag k="ssr:stedsnr" v="255095" />
		<tag k="waterway" v="stream" />
	</node>
	<node lat="62.8015500032228" lon="10.44039445198286" id="-39594">
		<tag k="name" v="Fiskbekken" />
		<tag k="ssr:stedsnr" v="255297" />
		<tag k="waterway" v="stream" />
	</node>
	<node lat="63.08980000443202" lon="10.823991666663005" id="-39595">
		<tag k="name" v="Svarttjønna" />
		<tag k="natural" v="water" />
		<tag k="ssr:stedsnr" v="255143" />
	</node>
	<node lat="63.07994634008751" lon="10.793867983157623" id="-39596">
		<tag k="name" v="Ørtsjøen" />
		<tag k="natural" v="water" />
		<tag k="ssr:stedsnr" v="255147" />
		<tag k="water" v="lake" />
	</node>
	<node lat="62.83379722672438" lon="10.29110277334242" id="-39600">
		<tag k="name" v="Stavillvatnet" />
		<tag k="natural" v="water" />
		<tag k="ssr:stedsnr" v="255350" />
	</node>
	<node lat="62.92730277981417" lon="10.924602782348252" id="-39604">
		<tag k="name" v="Skjulungen" />
		<tag k="natural" v="water" />
		<tag k="ssr:stedsnr" v="255400" />
		<tag k="water" v="lake" />
	</node>
	<node lat="62.87099721934154" lon="10.55440000609959" id="-39610">
		<tag k="name" v="Syndre Tåvåa" />
		<tag k="ssr:stedsnr" v="255694" />
		<tag k="waterway" v="stream" />
	</node>
	<node lat="63.01027500358436" lon="10.05237500027853" id="-39620">
		<tag k="name" v="Lorttjønna" />
		<tag k="natural" v="water" />
		<tag k="ssr:stedsnr" v="255647" />
	</node>
	<node lat="62.79138055700176" lon="10.675138887815951" id="-39621">
		<tag k="name" v="Storbekken" />
		<tag k="ssr:stedsnr" v="255657" />
		<tag k="waterway" v="river" />
	</node>
	<node lat="62.88494999935983" lon="10.204550003502264" id="-39628">
		<tag k="alt_name" v="Brandåa" />
		<tag k="name" v="Brannåa" />
		<tag k="ssr:stedsnr" v="255925" />
		<tag k="waterway" v="river" />
	</node>
	<node lat="63.06536388645366" lon="10.33422222645163" id="-39629">
		<tag k="alt_name" v="Gølløvtjønna" />
		<tag k="name" v="Gullaugtjønna" />
		<tag k="natural" v="water" />
		<tag k="ssr:stedsnr" v="255926" />
	</node>
	<node lat="63.10443611551196" lon="10.661708332505228" id="-39630">
		<tag k="name" v="Litjholmen" />
		<tag k="place" v="islet" />
		<tag k="ssr:stedsnr" v="255933" />
	</node>
	<node lat="63.03033611525221" lon="10.235152781426724" id="-39632">
		<tag k="name" v="Djupdalsbekken" />
		<tag k="ssr:stedsnr" v="255953" />
		<tag k="waterway" v="stream" />
	</node>
	<node lat="63.04250833298011" lon="10.595150002842455" id="-39640">
		<tag k="name" v="Søla" />
		<tag k="ssr:stedsnr" v="255999" />
		<tag k="waterway" v="stream" />
	</node>
	<node lat="62.84358055817066" lon="10.336486117125492" id="-39653">
		<tag k="name" v="Langøya" />
		<tag k="natural" v="cape" />
		<tag k="ssr:stedsnr" v="154331" />
	</node>
	<node lat="62.847033331060686" lon="10.494027780415127" id="-39654">
		<tag k="name" v="Litlåstjønna" />
		<tag k="natural" v="water" />
		<tag k="ssr:stedsnr" v="154334" />
	</node>
	<node lat="63.07264722615989" lon="10.329286103233711" id="-39716">
		<tag k="name" v="Fremmer Svarttjønna" />
		<tag k="natural" v="water" />
		<tag k="ssr:stedsnr" v="154908" />
	</node>
	<node lat="62.90418055421218" lon="10.498569436355407" id="-39729">
		<tag k="name" v="Sagbekken" />
		<tag k="ssr:stedsnr" v="263555" />
		<tag k="waterway" v="stream" />
	</node>
	<node lat="62.86675555357052" lon="10.381641668082846" id="-39733">
		<tag k="name" v="Endbekken" />
		<tag k="ssr:stedsnr" v="202556" />
		<tag k="waterway" v="stream" />
	</node>
	<node lat="62.82713888824659" lon="10.817330551315349" id="-39739">
		<tag k="name" v="Høyfossen" />
		<tag k="natural" v="waterfall" />
		<tag k="ssr:stedsnr" v="215184" />
	</node>
	<node lat="62.83300833103822" lon="10.784991673697" id="-39740">
		<tag k="name" v="Lerbekken" />
		<tag k="ssr:stedsnr" v="215185" />
		<tag k="waterway" v="stream" />
	</node>
	<node lat="62.80818055526675" lon="10.299536111862487" id="-39760">
		<tag k="name" v="Tverrbekken" />
		<tag k="ssr:stedsnr" v="215290" />
		<tag k="waterway" v="stream" />
	</node>
	<node lat="62.90795277394794" lon="10.432202779218638" id="-39761">
		<tag k="name" v="Løkkjbekken" />
		<tag k="ssr:stedsnr" v="215403" />
		<tag k="waterway" v="stream" />
	</node>
	<node lat="62.99859721982003" lon="10.157241663717853" id="-39779">
		<tag k="name" v="Fremmer Koltjønna" />
		<tag k="natural" v="water" />
		<tag k="ssr:stedsnr" v="215708" />
	</node>
	<node lat="62.952949997470554" lon="10.850683340631127" id="-39810">
		<tag k="name" v="Kvernlibekken" />
		<tag k="ssr:stedsnr" v="215877" />
		<tag k="waterway" v="stream" />
	</node>
	<node lat="63.0669472226469" lon="10.34973612071276" id="-39821">
		<tag k="name" v="Landvassbekken" />
		<tag k="ssr:stedsnr" v="215785" />
		<tag k="waterway" v="stream" />
	</node>
	<node lat="62.79744722236106" lon="10.372444449142423" id="-39824">
		<tag k="name" v="Litlbekken" />
		<tag k="ssr:stedsnr" v="215912" />
		<tag k="waterway" v="stream" />
	</node>
	<node lat="62.87526666426961" lon="10.398924990697768" id="-39830">
		<tag k="name" v="Litltjønna" />
		<tag k="natural" v="water" />
		<tag k="ssr:stedsnr" v="215987" />
	</node>
	<node lat="62.69239721867519" lon="10.448174992847385" id="-39835">
		<tag k="name" v="Stiftsvardtjønna" />
		<tag k="natural" v="water" />
		<tag k="ssr:stedsnr" v="453533" />
	</node>
	<node lat="62.797105556006635" lon="10.798463880429278" id="-39836">
		<tag k="name" v="Lomtjønna" />
		<tag k="natural" v="water" />
		<tag k="ssr:stedsnr" v="254004" />
	</node>
	<node lat="63.00953611456626" lon="10.339863886682622" id="-39837">
		<tag k="alt_name" v="Hansbakkbekken" />
		<tag k="name" v="Havsbakkbekken" />
		<tag k="ssr:stedsnr" v="254028" />
		<tag k="waterway" v="stream" />
	</node>
	<node lat="62.6897694435476" lon="10.74059167549884" id="-39842">
		<tag k="name" v="Tverrelva" />
		<tag k="ssr:stedsnr" v="254332" />
		<tag k="waterway" v="river" />
	</node>
	<node lat="62.70206388567925" lon="10.46371945233577" id="-39843">
		<tag k="name" v="Blåurdtjønna" />
		<tag k="natural" v="water" />
		<tag k="ssr:stedsnr" v="254371" />
	</node>
	<node lat="62.686924996341865" lon="10.502744453245976" id="-39844">
		<tag k="name" v="Grytbekken" />
		<tag k="ssr:stedsnr" v="254376" />
		<tag k="waterway" v="stream" />
	</node>
	<node lat="63.005819441988876" lon="10.483319443692432" id="-39847">
		<tag k="name" v="Litjtjønna" />
		<tag k="natural" v="water" />
		<tag k="ssr:stedsnr" v="255034" />
	</node>
	<node lat="62.8308722204328" lon="10.723683330777789" id="-39848">
		<tag k="name" v="Nyåa" />
		<tag k="ssr:stedsnr" v="255104" />
		<tag k="waterway" v="stream" />
	</node>
	<node lat="62.862336114347414" lon="10.536233327580064" id="-39856">
		<tag k="name" v="Storbekken" />
		<tag k="ssr:stedsnr" v="255363" />
		<tag k="waterway" v="stream" />
	</node>
	<node lat="62.814088886635844" lon="10.192786120282525" id="-39862">
		<tag k="name" v="Stavilla" />
		<tag k="ssr:stedsnr" v="255582" />
		<tag k="waterway" v="river" />
	</node>
	<node lat="63.019555552194845" lon="10.15465832506643" id="-39869">
		<tag k="name" v="Lomtjønna" />
		<tag k="natural" v="water" />
		<tag k="ssr:stedsnr" v="255673" />
	</node>
	<node lat="63.08253055985972" lon="10.335619437285086" id="-39870">
		<tag k="alt_name" v="Rea" />
		<tag k="name" v="Ræa" />
		<tag k="ssr:stedsnr" v="255903" />
		<tag k="waterway" v="river" />
	</node>
	<node lat="63.07069721841467" lon="10.556711117457205" id="-39871">
		<tag k="name" v="Sandtjønna" />
		<tag k="natural" v="water" />
		<tag k="ssr:stedsnr" v="255919" />
	</node>
	<node lat="62.879186107421184" lon="10.374069436216619" id="-39890">
		<tag k="name" v="Litlbekken" />
		<tag k="ssr:stedsnr" v="458987" />
		<tag k="waterway" v="stream" />
	</node>
	<node lat="62.73661388648239" lon="10.671713891898763" id="-39894">
		<tag k="name" v="Fløtbekken" />
		<tag k="ssr:stedsnr" v="458242" />
		<tag k="waterway" v="stream" />
	</node>
	<node lat="63.023558330999364" lon="10.428705551655556" id="-39897">
		<tag k="name" v="Tøftbekken" />
		<tag k="ssr:stedsnr" v="458330" />
		<tag k="waterway" v="stream" />
	</node>
	<node lat="62.97771666991848" lon="10.154230550378601" id="-39904">
		<tag k="name" v="Havåa" />
		<tag k="ssr:stedsnr" v="458351" />
		<tag k="waterway" v="stream" />
	</node>
	<node lat="62.897100001030424" lon="10.435474997516648" id="-39916">
		<tag k="name" v="Gråskalltjønna" />
		<tag k="natural" v="water" />
		<tag k="ssr:stedsnr" v="458398" />
	</node>
	<node lat="62.98843055801809" lon="10.007188892653417" id="-39929">
		<tag k="name" v="Holtjønna" />
		<tag k="natural" v="water" />
		<tag k="ssr:stedsnr" v="458676" />
	</node>
	<node lat="62.900461115207435" lon="10.683425000213488" id="-39930">
		<tag k="name" v="Dambekken" />
		<tag k="ssr:stedsnr" v="458682" />
		<tag k="waterway" v="stream" />
	</node>
	<node lat="62.921872218835865" lon="10.071911118978058" id="-39937">
		<tag k="name" v="Synner Storkjølfloen" />
		<tag k="natural" v="water" />
		<tag k="ssr:stedsnr" v="458689" />
	</node>
	<node lat="62.924355559034616" lon="10.049691667225053" id="-39939">
		<tag k="name" v="Pungtjønna" />
		<tag k="natural" v="water" />
		<tag k="ssr:stedsnr" v="458691" />
	</node>
	<node lat="62.8176305545976" lon="10.274291669796762" id="-39942">
		<tag k="name" v="Oppgardstjønna" />
		<tag k="natural" v="water" />
		<tag k="ssr:stedsnr" v="458758" />
	</node>
	<node lat="62.81551111088019" lon="10.241191663953565" id="-39944">
		<tag k="name" v="Trondsbekken" />
		<tag k="ssr:stedsnr" v="458770" />
		<tag k="waterway" v="stream" />
	</node>
	<node lat="62.95948332933588" lon="10.709502768109536" id="-39953">
		<tag k="name" v="Hongbekken" />
		<tag k="ssr:stedsnr" v="458732" />
		<tag k="waterway" v="stream" />
	</node>
	<node lat="62.93774166723767" lon="10.891847229019803" id="-39970">
		<tag k="name" v="Storbekken" />
		<tag k="ssr:stedsnr" v="458882" />
		<tag k="waterway" v="stream" />
	</node>
	<node lat="62.851130551629375" lon="10.179233331694606" id="-39974">
		<tag k="name" v="Brandåkroken" />
		<tag k="ssr:stedsnr" v="458894" />
		<tag k="waterway" v="stream" />
	</node>
	<node lat="62.874891666109214" lon="10.171625007785373" id="-39975">
		<tag k="name" v="Hestsprengbekken" />
		<tag k="ssr:stedsnr" v="458900" />
		<tag k="waterway" v="stream" />
	</node>
	<node lat="62.91440555388753" lon="10.39132222772769" id="-39977">
		<tag k="name" v="Svarttjønna" />
		<tag k="natural" v="water" />
		<tag k="ssr:stedsnr" v="458949" />
	</node>
	<node lat="62.710586109297004" lon="10.425211114457873" id="-39979">
		<tag k="name" v="Vardbekktjønna" />
		<tag k="natural" v="water" />
		<tag k="ssr:stedsnr" v="271579" />
	</node>
	<node lat="62.90618055448264" lon="10.359724992913614" id="-39981">
		<tag k="name" v="Blesterbekken" />
		<tag k="ssr:stedsnr" v="458997" />
		<tag k="waterway" v="stream" />
	</node>
	<node lat="62.941147218010585" lon="10.293702772531882" id="-40007">
		<tag k="name" v="Merkesbekken" />
		<tag k="ssr:stedsnr" v="276077" />
		<tag k="waterway" v="stream" />
	</node>
	<node lat="62.978130554679666" lon="10.28422499670615" id="-40010">
		<tag k="name" v="Kvernbekken" />
		<tag k="ssr:stedsnr" v="276082" />
		<tag k="waterway" v="stream" />
	</node>
	<node lat="62.91020833070516" lon="10.32308888276388" id="-40021">
		<tag k="name" v="Rimsetbekken" />
		<tag k="ssr:stedsnr" v="276290" />
		<tag k="waterway" v="stream" />
	</node>
	<node lat="62.90211388552812" lon="10.448902779085994" id="-40024">
		<tag k="name" v="Svarttjønna" />
		<tag k="natural" v="water" />
		<tag k="ssr:stedsnr" v="276418" />
	</node>
	<node lat="62.971497221597" lon="10.534388879386642" id="-40032">
		<tag k="name" v="Kanisbekken" />
		<tag k="ssr:stedsnr" v="276576" />
		<tag k="waterway" v="stream" />
	</node>
	<node lat="62.84468333053041" lon="10.424263894738052" id="-40039">
		<tag k="name" v="Kvernbekken" />
		<tag k="ssr:stedsnr" v="276687" />
		<tag k="waterway" v="stream" />
	</node>
	<node lat="63.00236944127924" lon="10.60456666363892" id="-40047">
		<tag k="name" v="Storlibekken" />
		<tag k="ssr:stedsnr" v="276814" />
		<tag k="waterway" v="stream" />
	</node>
	<node lat="62.89642222068801" lon="10.71199443459555" id="-40051">
		<tag k="name" v="Litlsandåa" />
		<tag k="ssr:stedsnr" v="276705" />
		<tag k="waterway" v="stream" />
	</node>
	<node lat="63.00577778194341" lon="10.121252780969813" id="-40052">
		<tag k="name" v="Seterbekken" />
		<tag k="ssr:stedsnr" v="276711" />
		<tag k="waterway" v="stream" />
	</node>
	<node lat="62.79549444397783" lon="10.376466660355565" id="-40057">
		<tag k="name" v="Storbekken" />
		<tag k="ssr:stedsnr" v="276780" />
		<tag k="waterway" v="stream" />
	</node>
	<node lat="62.99189167080875" lon="10.83120554877987" id="-40063">
		<tag k="name" v="Brubekken" />
		<tag k="ssr:stedsnr" v="276909" />
		<tag k="waterway" v="stream" />
	</node>
	<node lat="63.00888333081792" lon="10.011308341728967" id="-40069">
		<tag k="name" v="Storholmen" />
		<tag k="place" v="islet" />
		<tag k="ssr:stedsnr" v="276873" />
	</node>
	<node lat="62.78622500407491" lon="10.861927778619577" id="-40077">
		<tag k="name" v="Litlnekkjåa" />
		<tag k="ssr:stedsnr" v="315022" />
		<tag k="waterway" v="river" />
	</node>
	<node lat="63.005936108900706" lon="10.492744445517038" id="-40079">
		<tag k="name" v="Stortjønna" />
		<tag k="natural" v="water" />
		<tag k="ssr:stedsnr" v="315024" />
	</node>
	<node lat="62.72405277881743" lon="10.381905561141544" id="-40082">
		<tag k="name" v="Hauktjønnan" />
		<tag k="natural" v="water" />
		<tag k="ssr:stedsnr" v="315352" />
	</node>
	<node lat="62.719988890360746" lon="10.695875002927453" id="-40083">
		<tag k="name" v="Rønningsbekken" />
		<tag k="ssr:stedsnr" v="315356" />
		<tag k="waterway" v="stream" />
	</node>
	<node lat="62.78879722230445" lon="10.578650009539652" id="-40086">
		<tag k="name" v="Bjørbekken" />
		<tag k="ssr:stedsnr" v="315272" />
		<tag k="waterway" v="stream" />
	</node>
	<node lat="62.907525003525954" lon="10.497066671040528" id="-40092">
		<tag k="name" v="Smedbubekken" />
		<tag k="ssr:stedsnr" v="315608" />
		<tag k="waterway" v="stream" />
	</node>
	<node lat="62.818322226485776" lon="10.783136115037298" id="-40097">
		<tag k="name" v="Vedtjønnan" />
		<tag k="natural" v="water" />
		<tag k="ssr:stedsnr" v="316050" />
	</node>
	<node lat="62.87396389174076" lon="10.700097224766765" id="-40105">
		<tag k="name" v="Nyåa" />
		<tag k="ssr:stedsnr" v="316717" />
		<tag k="waterway" v="river" />
	</node>
	<node lat="62.87215833714572" lon="10.434769438172749" id="-40107">
		<tag k="name" v="Enlibekken" />
		<tag k="ssr:stedsnr" v="316721" />
		<tag k="waterway" v="stream" />
	</node>
	<node lat="63.102458332409824" lon="10.679227777946242" id="-40111">
		<tag k="name" v="Langodden" />
		<tag k="natural" v="cape" />
		<tag k="ssr:stedsnr" v="316948" />
	</node>
	<node lat="63.09577775437017" lon="10.669137392155687" id="-40112">
		<tag k="name" v="Samsjøen" />
		<tag k="natural" v="water" />
		<tag k="ssr:stedsnr" v="316956" />
		<tag k="water" v="lake" />
	</node>
	<node lat="63.00993889062109" lon="10.291613891598091" id="-40113">
		<tag k="name" v="Langmyrbekken" />
		<tag k="ssr:stedsnr" v="336115" />
		<tag k="waterway" v="stream" />
	</node>
	<node lat="62.90087778065855" lon="10.283513888414188" id="-40130">
		<tag k="name" v="Lomtjønna" />
		<tag k="natural" v="water" />
		<tag k="ssr:stedsnr" v="336028" />
	</node>
	<node lat="62.946549999847065" lon="10.49023611428494" id="-40144">
		<tag k="name" v="Hyllbekken" />
		<tag k="ssr:stedsnr" v="336392" />
		<tag k="waterway" v="stream" />
	</node>
	<node lat="63.02606667099459" lon="10.424163880267432" id="-40156">
		<tag k="name" v="Litlbekken" />
		<tag k="ssr:stedsnr" v="336294" />
		<tag k="waterway" v="stream" />
	</node>
	<node lat="62.892113891694244" lon="10.240302781236771" id="-40158">
		<tag k="name" v="Søkkvatnet" />
		<tag k="natural" v="water" />
		<tag k="ssr:stedsnr" v="336300" />
	</node>
	<node lat="62.912516665410934" lon="10.67545278640314" id="-40170">
		<tag k="name" v="Halvfarbekken" />
		<tag k="ssr:stedsnr" v="336658" />
		<tag k="waterway" v="stream" />
	</node>
	<node lat="62.99383055676858" lon="10.812661109474494" id="-40177">
		<tag k="name" v="Storalvora" />
		<tag k="ssr:stedsnr" v="336858" />
		<tag k="waterway" v="stream" />
	</node>
	<node lat="62.85821389057641" lon="10.225525008182297" id="-40183">
		<tag k="name" v="Tangen" />
		<tag k="natural" v="cape" />
		<tag k="ssr:stedsnr" v="336749" />
	</node>
	<node lat="62.743658329190225" lon="10.434588890858432" id="-40188">
		<tag k="name" v="Storhiåa" />
		<tag k="ssr:stedsnr" v="336904" />
		<tag k="waterway" v="river" />
	</node>
	<node lat="62.741300002226" lon="10.26400277311526" id="-40194">
		<tag k="name" v="Løbudalsbekken" />
		<tag k="ssr:stedsnr" v="375380" />
		<tag k="waterway" v="stream" />
	</node>
	<node lat="62.94793055204012" lon="10.342105559549362" id="-40209">
		<tag k="name" v="Verma" />
		<tag k="ssr:stedsnr" v="384522" />
		<tag k="waterway" v="river" />
	</node>
	<node lat="63.00964722508235" lon="10.295736119851115" id="-40217">
		<tag k="name" v="Kvennbekken" />
		<tag k="ssr:stedsnr" v="397132" />
		<tag k="waterway" v="stream" />
	</node>
	<node lat="62.82305833254015" lon="10.446063879918453" id="-40219">
		<tag k="name" v="Fremstuvollbekken" />
		<tag k="ssr:stedsnr" v="397179" />
		<tag k="waterway" v="stream" />
	</node>
	<node lat="62.82803611115721" lon="10.811591670153994" id="-40221">
		<tag k="name" v="Hundåholen" />
		<tag k="place" v="locality" />
		<tag k="ssr:stedsnr" v="397198" />
	</node>
	<node lat="63.067858336659675" lon="10.639249993160414" id="-40227">
		<tag k="name" v="Langskora" />
		<tag k="ssr:stedsnr" v="397235" />
		<tag k="waterway" v="stream" />
	</node>
	<node lat="62.90356389224693" lon="10.457902778438992" id="-40233">
		<tag k="name" v="Granåsbekken" />
		<tag k="ssr:stedsnr" v="397390" />
		<tag k="waterway" v="stream" />
	</node>
	<node lat="63.00535833728018" lon="10.272005563952428" id="-40236">
		<tag k="name" v="Lektjønna" />
		<tag k="natural" v="water" />
		<tag k="ssr:stedsnr" v="397395" />
	</node>
	<node lat="62.91314722222437" lon="10.50527777901064" id="-40245">
		<tag k="name" v="Bjørnbekken" />
		<tag k="ssr:stedsnr" v="397440" />
		<tag k="waterway" v="stream" />
	</node>
	<node lat="62.88563610992998" lon="10.492291662684233" id="-40249">
		<tag k="name" v="Gammelbrufossen" />
		<tag k="natural" v="waterfall" />
		<tag k="ssr:stedsnr" v="397492" />
	</node>
	<node lat="63.00375277474951" lon="10.517730564437603" id="-40256">
		<tag k="name" v="Lomtjønna" />
		<tag k="natural" v="water" />
		<tag k="ssr:stedsnr" v="397635" />
	</node>
	<node lat="62.99680555791824" lon="10.340188889713597" id="-40269">
		<tag k="name" v="Djupdalsbekken" />
		<tag k="ssr:stedsnr" v="397794" />
		<tag k="waterway" v="stream" />
	</node>
	<node lat="62.988466663302916" lon="10.848072225602841" id="-40273">
		<tag k="name" v="Krokstjønna" />
		<tag k="natural" v="water" />
		<tag k="ssr:stedsnr" v="397907" />
	</node>
	<node lat="62.97079444417975" lon="10.919480552466842" id="-40284">
		<tag k="name" v="Ropartjønna" />
		<tag k="natural" v="water" />
		<tag k="ssr:stedsnr" v="397877" />
	</node>
	<node lat="62.8228888927148" lon="10.84182776944572" id="-40299">
		<tag k="name" v="Nekkjosen" />
		<tag k="natural" v="bay" />
		<tag k="ssr:stedsnr" v="437059" />
	</node>
	<node lat="62.823508337003815" lon="10.875180552264553" id="-40300">
		<tag k="name" v="Vassbekken" />
		<tag k="ssr:stedsnr" v="437064" />
		<tag k="waterway" v="stream" />
	</node>
	<node lat="62.78609444019933" lon="10.304794440672579" id="-40304">
		<tag k="name" v="Tvertovertjønna" />
		<tag k="natural" v="water" />
		<tag k="ssr:stedsnr" v="437318" />
	</node>
	<node lat="62.93459166968535" lon="10.447202781458582" id="-40309">
		<tag k="name" v="Storbekken" />
		<tag k="ssr:stedsnr" v="437649" />
		<tag k="waterway" v="stream" />
	</node>
	<node lat="63.004777774127206" lon="10.058355552988182" id="-40310">
		<tag k="name" v="Glømsefossen" />
		<tag k="natural" v="waterfall" />
		<tag k="ssr:stedsnr" v="437651" />
	</node>
	<node lat="63.01206110907565" lon="10.544361108949978" id="-40321">
		<tag k="name" v="Storburu" />
		<tag k="ssr:stedsnr" v="437965" />
		<tag k="waterway" v="river" />
	</node>
	<node lat="62.94208611137594" lon="10.311794449190185" id="-40328">
		<tag k="name" v="Odalsbekken" />
		<tag k="ssr:stedsnr" v="458070" />
		<tag k="waterway" v="stream" />
	</node>
	<node lat="63.02865278131575" lon="10.330411103828983" id="-40339">
		<tag k="name" v="Gråndalsbekken" />
		<tag k="ssr:stedsnr" v="458119" />
		<tag k="waterway" v="stream" />
	</node>
	<node lat="62.84139166937636" lon="10.460208333635622" id="-40342">
		<tag k="name" v="Bjørbekken" />
		<tag k="ssr:stedsnr" v="458177" />
		<tag k="waterway" v="stream" />
	</node>
	<node lat="62.91055000109909" lon="10.415930557973693" id="-40353">
		<tag k="name" v="Merkjesbekken" />
		<tag k="ssr:stedsnr" v="458422" />
		<tag k="waterway" v="stream" />
	</node>
	<node lat="62.84345555113366" lon="10.528649998033668" id="-40367">
		<tag k="name" v="Loken" />
		<tag k="natural" v="water" />
		<tag k="ssr:stedsnr" v="458565" />
	</node>
	<node lat="62.841249996525335" lon="10.537658334520648" id="-40368">
		<tag k="name" v="Midtbekken" />
		<tag k="ssr:stedsnr" v="458567" />
		<tag k="waterway" v="stream" />
	</node>
	<node lat="62.932986108848944" lon="10.681424995584763" id="-40371">
		<tag k="name" v="Høgfossen" />
		<tag k="natural" v="waterfall" />
		<tag k="ssr:stedsnr" v="458705" />
	</node>
	<node lat="63.016805559846894" lon="10.031716676224017" id="-40373">
		<tag k="name" v="Storgodtjønna" />
		<tag k="natural" v="water" />
		<tag k="ssr:stedsnr" v="458715" />
	</node>
	<node lat="62.91224999913643" lon="10.731138880290368" id="-40383">
		<tag k="name" v="Kvernmyrfossen" />
		<tag k="natural" v="waterfall" />
		<tag k="ssr:stedsnr" v="458811" />
	</node>
	<node lat="63.01375833600732" lon="10.011805558870526" id="-40386">
		<tag k="name" v="Godtjønnfjelltjønna" />
		<tag k="natural" v="water" />
		<tag k="ssr:stedsnr" v="458861" />
	</node>
	<node lat="62.95868611483376" lon="10.948947220264243" id="-40390">
		<tag k="name" v="Bekkrokbekken" />
		<tag k="ssr:stedsnr" v="458872" />
		<tag k="waterway" v="stream" />
	</node>
	<node lat="62.912024998971646" lon="10.4018472229693" id="-40400">
		<tag k="name" v="Merkesbekken" />
		<tag k="ssr:stedsnr" v="458944" />
		<tag k="waterway" v="stream" />
	</node>
	<node lat="62.833777774986224" lon="10.347055555644197" id="-40406">
		<tag k="alt_name" v="Kjøtrødsbekken" />
		<tag k="name" v="Kjøttrødsbekken" />
		<tag k="ssr:stedsnr" v="458981" />
		<tag k="waterway" v="stream" />
	</node>
	<node lat="62.74379722286325" lon="10.607725002320928" id="-40409">
		<tag k="name" v="Rognesbekken" />
		<tag k="ssr:stedsnr" v="678452" />
		<tag k="waterway" v="stream" />
	</node>
	<node lat="63.006672217855" lon="10.388138887748742" id="-40414">
		<tag k="name" v="Plassbekken" />
		<tag k="ssr:stedsnr" v="679039" />
		<tag k="waterway" v="stream" />
	</node>
	<node lat="62.87620555228386" lon="10.795575006834676" id="-40416">
		<tag k="name" v="Lerbekken" />
		<tag k="ssr:stedsnr" v="679113" />
		<tag k="waterway" v="stream" />
	</node>
	<node lat="63.050127776568495" lon="10.726280557941688" id="-40417">
		<tag k="name" v="Nognilltjønna" />
		<tag k="natural" v="water" />
		<tag k="ssr:stedsnr" v="679153" />
	</node>
	<node lat="63.0677666693185" lon="10.814024999292744" id="-40418">
		<tag k="name" v="Merraholmen" />
		<tag k="place" v="islet" />
		<tag k="ssr:stedsnr" v="679170" />
	</node>
	<node lat="62.825169446107495" lon="10.485183337662832" id="-40425">
		<tag k="name" v="Djupdalsbekken" />
		<tag k="ssr:stedsnr" v="679294" />
		<tag k="waterway" v="stream" />
	</node>
	<node lat="62.95661666810578" lon="10.800880556088483" id="-40429">
		<tag k="name" v="Hendøya" />
		<tag k="place" v="locality" />
		<tag k="ssr:stedsnr" v="679419" />
	</node>
	<node lat="63.03495833057044" lon="10.128086108918646" id="-40433">
		<tag k="fixme" v="multiple name tags, choose one and add the other to alt_name" />
		<tag k="name" v="Mysmørtjønna;Ørnåstjønna" />
		<tag k="natural" v="water" />
		<tag k="ssr:stedsnr" v="679528" />
	</node>
	<node lat="62.968319443533666" lon="10.02810556001038" id="-40434">
		<tag k="name" v="Krokuttjønna" />
		<tag k="natural" v="water" />
		<tag k="ssr:stedsnr" v="679750" />
	</node>
	<node lat="62.95640278000152" lon="10.11249999378257" id="-40436">
		<tag k="name" v="Gynnilda" />
		<tag k="old_name" v="Gtjønnølda" />
		<tag k="ssr:stedsnr" v="679753" />
		<tag k="waterway" v="river" />
	</node>
	<node lat="62.97835833082911" lon="10.04094723069065" id="-40437">
		<tag k="name" v="Vardtjønna" />
		<tag k="natural" v="water" />
		<tag k="ssr:stedsnr" v="679781" />
	</node>
	<node lat="62.98452499695834" lon="10.722550002383311" id="-40446">
		<tag k="name" v="Gåstjønna" />
		<tag k="natural" v="water" />
		<tag k="ssr:stedsnr" v="680564" />
	</node>
	<node lat="62.99052778213712" lon="10.618472220105954" id="-40449">
		<tag k="name" v="Malma" />
		<tag k="ssr:stedsnr" v="680574" />
		<tag k="waterway" v="stream" />
	</node>
	<node lat="62.87789722020751" lon="10.456386107060545" id="-40453">
		<tag k="name" v="Kvernbekken" />
		<tag k="ssr:stedsnr" v="680702" />
		<tag k="waterway" v="stream" />
	</node>
	<node lat="63.10704166543533" lon="10.701988882348195" id="-40457">
		<tag k="name" v="Roppa" />
		<tag k="ssr:stedsnr" v="680943" />
		<tag k="waterway" v="river" />
	</node>
	<node lat="63.038849998733355" lon="10.679802772011495" id="-40461">
		<tag k="name" v="Sevilltjønna" />
		<tag k="natural" v="water" />
		<tag k="ssr:stedsnr" v="680997" />
	</node>
	<node lat="62.73070833679329" lon="10.448836112939173" id="-40462">
		<tag k="alt_name" v="Blåorbekken" />
		<tag k="name" v="Blåurdbekken" />
		<tag k="ssr:stedsnr" v="496422" />
		<tag k="waterway" v="stream" />
	</node>
	<node lat="62.74127222458887" lon="10.360652774866862" id="-40463">
		<tag k="name" v="Hauka" />
		<tag k="ssr:stedsnr" v="496458" />
		<tag k="waterway" v="river" />
	</node>
	<node lat="62.86535278039526" lon="10.760491663316323" id="-40466">
		<tag k="name" v="Trollhaugtjønnan" />
		<tag k="natural" v="water" />
		<tag k="ssr:stedsnr" v="497112" />
	</node>
	<node lat="62.80355832954103" lon="10.672555547555232" id="-40471">
		<tag k="name" v="Tverrbekken" />
		<tag k="ssr:stedsnr" v="497298" />
		<tag k="waterway" v="stream" />
	</node>
	<node lat="62.81918333646399" lon="10.630855553880023" id="-40476">
		<tag k="name" v="Syndre Nysæterbekken" />
		<tag k="ssr:stedsnr" v="497316" />
		<tag k="waterway" v="stream" />
	</node>
	<node lat="62.97570833616712" lon="10.231841658568028" id="-40477">
		<tag k="name" v="Eggabekken" />
		<tag k="ssr:stedsnr" v="497510" />
		<tag k="waterway" v="stream" />
	</node>
	<node lat="62.889113884575394" lon="10.241938897073075" id="-40485">
		<tag k="name" v="Holtvatna" />
		<tag k="natural" v="water" />
		<tag k="ssr:stedsnr" v="497620" />
		<tag k="water" v="lake" />
	</node>
	<node lat="63.04791666746242" lon="10.334847231770233" id="-40493">
		<tag k="name" v="Blukkutjønna" />
		<tag k="natural" v="water" />
		<tag k="ssr:stedsnr" v="497995" />
	</node>
	<node lat="62.93735833711778" lon="10.313797216992127" id="-40510">
		<tag k="name" v="Dolpbekken" />
		<tag k="ssr:stedsnr" v="518065" />
		<tag k="waterway" v="stream" />
	</node>
	<node lat="63.059963886339474" lon="10.603127776781639" id="-40514">
		<tag k="name" v="Langvika" />
		<tag k="natural" v="bay" />
		<tag k="ssr:stedsnr" v="518206" />
	</node>
	<node lat="62.75990833122717" lon="10.6431916710686" id="-40515">
		<tag k="name" v="Torpdalsbekken" />
		<tag k="ssr:stedsnr" v="518211" />
		<tag k="waterway" v="stream" />
	</node>
	<node lat="62.9219111136029" lon="10.451794436945821" id="-40530">
		<tag k="name" v="Båsbekken" />
		<tag k="ssr:stedsnr" v="518349" />
		<tag k="waterway" v="stream" />
	</node>
	<node lat="62.91381111040598" lon="10.471055548487337" id="-40532">
		<tag k="name" v="Litlåsbekken" />
		<tag k="ssr:stedsnr" v="518405" />
		<tag k="waterway" v="stream" />
	</node>
	<node lat="62.920111107759936" lon="10.547316666089484" id="-40534">
		<tag k="name" v="Kroktjønna" />
		<tag k="natural" v="water" />
		<tag k="ssr:stedsnr" v="518416" />
	</node>
	<node lat="63.04440277550676" lon="10.37081111224423" id="-40554">
		<tag k="name" v="Vassvika" />
		<tag k="natural" v="bay" />
		<tag k="ssr:stedsnr" v="518752" />
	</node>
	<node lat="63.000277777436075" lon="10.612869443764854" id="-40557">
		<tag k="name" v="Skjerpbekken" />
		<tag k="ssr:stedsnr" v="518769" />
		<tag k="waterway" v="stream" />
	</node>
	<node lat="63.05285555636423" lon="10.336122217792179" id="-40565">
		<tag k="name" v="Høstvollbekken" />
		<tag k="ssr:stedsnr" v="518866" />
		<tag k="waterway" v="stream" />
	</node>
	<node lat="63.06883333555993" lon="10.317969439485637" id="-40568">
		<tag k="name" v="Svartbekken" />
		<tag k="ssr:stedsnr" v="518881" />
		<tag k="waterway" v="stream" />
	</node>
	<node lat="62.86671666397707" lon="10.362472228578312" id="-40576">
		<tag k="name" v="Merkesbekken" />
		<tag k="ssr:stedsnr" v="518973" />
		<tag k="waterway" v="stream" />
	</node>
	<node lat="62.73266666988985" lon="10.726974997046923" id="-40582">
		<tag k="name" v="Busettjønna" />
		<tag k="natural" v="water" />
		<tag k="ssr:stedsnr" v="557014" />
	</node>
	<node lat="62.652975002719394" lon="10.741597213857249" id="-40583">
		<tag k="name" v="Budalstjønnin" />
		<tag k="natural" v="water" />
		<tag k="ssr:stedsnr" v="557211" />
	</node>
	<node lat="63.05262222087767" lon="10.179783334194939" id="-40586">
		<tag k="name" v="Løvtjønnan" />
		<tag k="natural" v="water" />
		<tag k="ssr:stedsnr" v="557559" />
	</node>
	<node lat="63.097550003734185" lon="10.738825002095025" id="-40590">
		<tag k="name" v="Ropptjønnin" />
		<tag k="natural" v="water" />
		<tag k="ssr:stedsnr" v="558149" />
	</node>
	<node lat="63.00789999610207" lon="10.574797214624" id="-40591">
		<tag k="name" v="Arsåstjønna" />
		<tag k="natural" v="water" />
		<tag k="ssr:stedsnr" v="558012" />
	</node>
	<node lat="62.84397222270941" lon="10.296419443599031" id="-40593">
		<tag k="name" v="Merraåstjønna" />
		<tag k="natural" v="water" />
		<tag k="ssr:stedsnr" v="558351" />
	</node>
	<node lat="62.91543333637019" lon="10.807899997497332" id="-40595">
		<tag k="alt_name" v="Nyvoll-libekken" />
		<tag k="name" v="Nyvollibekken" />
		<tag k="ssr:stedsnr" v="558399" />
		<tag k="waterway" v="stream" />
	</node>
	<node lat="62.97672777525323" lon="10.825897226969062" id="-40598">
		<tag k="name" v="Alvora" />
		<tag k="ssr:stedsnr" v="558510" />
		<tag k="waterway" v="stream" />
	</node>
	<node lat="63.02576944347746" lon="10.113836105326685" id="-40605">
		<tag k="alt_name" v="Kvennbekken" />
		<tag k="name" v="Kvernbekken" />
		<tag k="ssr:stedsnr" v="558702" />
		<tag k="waterway" v="stream" />
	</node>
	<node lat="63.043644441026224" lon="10.430994452001555" id="-40610">
		<tag k="name" v="Krokbekken" />
		<tag k="ssr:stedsnr" v="558991" />
		<tag k="waterway" v="stream" />
	</node>
	<node lat="62.95573611247146" lon="10.496325004083085" id="-40619">
		<tag k="name" v="Rønningsbekken" />
		<tag k="ssr:stedsnr" v="579044" />
		<tag k="waterway" v="stream" />
	</node>
	<node lat="62.73786110823021" lon="10.66942777573836" id="-40624">
		<tag k="name" v="Nørder Fløtbekken" />
		<tag k="ssr:stedsnr" v="579210" />
		<tag k="waterway" v="stream" />
	</node>
	<node lat="62.80246944079122" lon="10.431283325534322" id="-40626">
		<tag k="name" v="Fiskbekkodden" />
		<tag k="natural" v="cape" />
		<tag k="ssr:stedsnr" v="579249" />
	</node>
	<node lat="62.79478888749012" lon="10.426227774557884" id="-40627">
		<tag k="name" v="Svardalsfossen" />
		<tag k="natural" v="waterfall" />
		<tag k="ssr:stedsnr" v="579250" />
	</node>
	<node lat="62.861891670183056" lon="10.241305563670393" id="-40637">
		<tag k="name" v="Fagerbekken" />
		<tag k="ssr:stedsnr" v="579320" />
		<tag k="waterway" v="stream" />
	</node>
	<node lat="63.004252774962914" lon="10.55908054840401" id="-40644">
		<tag k="name" v="Lomtjønna" />
		<tag k="natural" v="water" />
		<tag k="ssr:stedsnr" v="579643" />
	</node>
	<node lat="62.857352777122465" lon="10.477636112212918" id="-40653">
		<tag k="name" v="Damtjønna" />
		<tag k="natural" v="water" />
		<tag k="ssr:stedsnr" v="579547" />
	</node>
	<node lat="62.854261109460275" lon="10.548577780281638" id="-40655">
		<tag k="name" v="Holbekken" />
		<tag k="ssr:stedsnr" v="579557" />
		<tag k="waterway" v="stream" />
	</node>
	<node lat="62.91908610767262" lon="10.612455561630386" id="-40666">
		<tag k="name" v="Djupbekken" />
		<tag k="ssr:stedsnr" v="579699" />
		<tag k="waterway" v="stream" />
	</node>
	<node lat="62.90936666322999" lon="10.186847219615483" id="-40668">
		<tag k="name" v="Kjøldalsbekken" />
		<tag k="ssr:stedsnr" v="579841" />
		<tag k="waterway" v="stream" />
	</node>
	<node lat="62.935400002126656" lon="10.13844999854564" id="-40669">
		<tag k="name" v="Hefnåa" />
		<tag k="ssr:stedsnr" v="579842" />
		<tag k="waterway" v="stream" />
	</node>
	<node lat="62.93841389120815" lon="10.066475000256059" id="-40671">
		<tag k="name" v="Svarttjønnbekken" />
		<tag k="ssr:stedsnr" v="579845" />
		<tag k="waterway" v="stream" />
	</node>
	<node lat="62.9882750004467" lon="10.7076861110329" id="-40695">
		<tag k="name" v="Gåstjønnbekken" />
		<tag k="ssr:stedsnr" v="700735" />
		<tag k="waterway" v="stream" />
	</node>
	<node lat="62.960747225939265" lon="10.325450002851245" id="-40696">
		<tag k="name" v="Svarttjønna" />
		<tag k="natural" v="water" />
		<tag k="ssr:stedsnr" v="700736" />
	</node>
	<node lat="62.97057777932852" lon="10.334622229319022" id="-40707">
		<tag k="name" v="Nord-Ramstadbekken" />
		<tag k="ssr:stedsnr" v="700058" />
		<tag k="waterway" v="stream" />
	</node>
	<node lat="62.92025000313313" lon="10.925691659657875" id="-40713">
		<tag k="name" v="Storbekken" />
		<tag k="ssr:stedsnr" v="700200" />
		<tag k="waterway" v="stream" />
	</node>
	<node lat="62.90982222054199" lon="10.300844445218315" id="-40724">
		<tag k="name" v="Nordre Steinbekken" />
		<tag k="ssr:stedsnr" v="700248" />
		<tag k="waterway" v="stream" />
	</node>
	<node lat="62.979244442153906" lon="10.432511102977978" id="-40729">
		<tag k="name" v="Bjørntjønna" />
		<tag k="natural" v="water" />
		<tag k="ssr:stedsnr" v="700343" />
	</node>
	<node lat="62.89098055773515" lon="10.219466675025398" id="-40733">
		<tag k="name" v="Brandåosen" />
		<tag k="natural" v="bay" />
		<tag k="ssr:stedsnr" v="700287" />
	</node>
	<node lat="62.988863889901666" lon="10.215594437276883" id="-40738">
		<tag k="name" v="Merkesbekken" />
		<tag k="ssr:stedsnr" v="700307" />
		<tag k="waterway" v="stream" />
	</node>
	<node lat="62.87708055484336" lon="10.24989443993797" id="-40740">
		<tag k="name" v="Kvernåa" />
		<tag k="ssr:stedsnr" v="700310" />
		<tag k="waterway" v="stream" />
	</node>
	<node lat="62.93294166763025" lon="10.513972218000646" id="-40741">
		<tag k="name" v="Høgkjettiltjønna" />
		<tag k="natural" v="water" />
		<tag k="ssr:stedsnr" v="700425" />
	</node>
	<node lat="62.8993222210345" lon="10.517063881657297" id="-40756">
		<tag k="name" v="Stålbogååstjønna" />
		<tag k="natural" v="water" />
		<tag k="ssr:stedsnr" v="700439" />
	</node>
	<node lat="62.928383336297394" lon="10.696180556099014" id="-40775">
		<tag k="name" v="Sagdammen" />
		<tag k="natural" v="water" />
		<tag k="ssr:stedsnr" v="700683" />
		<tag k="water" v="lake" />
	</node>
	<node lat="63.00194722268997" lon="10.347180547560615" id="-40794">
		<tag k="name" v="Seterdalsbekken" />
		<tag k="ssr:stedsnr" v="700779" />
		<tag k="waterway" v="stream" />
	</node>
	<node lat="62.91138055636414" lon="10.226480545966032" id="-40801">
		<tag k="name" v="Bjønnbekken" />
		<tag k="ssr:stedsnr" v="700738" />
		<tag k="waterway" v="stream" />
	</node>
	<node lat="63.07151111337614" lon="10.36132778569165" id="-40805">
		<tag k="name" v="Nørder Lomtjønna" />
		<tag k="natural" v="water" />
		<tag k="ssr:stedsnr" v="700753" />
	</node>
	<node lat="63.06953055927663" lon="10.346977782479543" id="-40806">
		<tag k="name" v="Fossan" />
		<tag k="natural" v="waterfall" />
		<tag k="ssr:stedsnr" v="700755" />
	</node>
	<node lat="62.822347217743996" lon="10.180119447504252" id="-40813">
		<tag k="name" v="Synner Skoftbekken" />
		<tag k="ssr:stedsnr" v="700846" />
		<tag k="waterway" v="stream" />
	</node>
	<node lat="62.9923277743241" lon="10.959322219523878" id="-40817">
		<tag k="name" v="Øybekken" />
		<tag k="old_name" v="Øibekken" />
		<tag k="ssr:stedsnr" v="700890" />
		<tag k="waterway" v="stream" />
	</node>
	<node lat="62.98872500287355" lon="10.954675007483669" id="-40818">
		<tag k="name" v="Hyllbekken" />
		<tag k="ssr:stedsnr" v="700894" />
		<tag k="waterway" v="stream" />
	</node>
	<node lat="63.02444166944468" lon="10.217347213711733" id="-40823">
		<tag k="name" v="Kropia" />
		<tag k="ssr:stedsnr" v="700937" />
		<tag k="waterway" v="stream" />
	</node>
	<node lat="62.91418055517018" lon="10.357505555883181" id="-40825">
		<tag k="name" v="Sagbekken" />
		<tag k="ssr:stedsnr" v="700948" />
		<tag k="waterway" v="stream" />
	</node>
	<node lat="62.7538194486486" lon="10.425505561322165" id="-40832">
		<tag k="name" v="Rødbekken" />
		<tag k="ssr:stedsnr" v="700907" />
		<tag k="waterway" v="stream" />
	</node>
	<node lat="62.685433334526735" lon="10.5311138896975" id="-40838">
		<tag k="alt_name" v="Ensjøen, litle" />
		<tag k="name" v="Litlensjøen" />
		<tag k="natural" v="water" />
		<tag k="ssr:stedsnr" v="618380" />
	</node>
	<node lat="63.00391389325223" lon="10.177224992347357" id="-40839">
		<tag k="alt_name" v="Skjeftlitjønna" />
		<tag k="name" v="Skjetlitjønna" />
		<tag k="natural" v="water" />
		<tag k="ssr:stedsnr" v="618609" />
	</node>
	<node lat="63.07086944189478" lon="10.361433334884088" id="-40843">
		<tag k="name" v="Lomtjønnin" />
		<tag k="natural" v="water" />
		<tag k="ssr:stedsnr" v="618875" />
	</node>
	<node lat="62.75651666360012" lon="10.620969448882036" id="-40846">
		<tag k="name" v="Halstjønnbekken" />
		<tag k="ssr:stedsnr" v="619287" />
		<tag k="waterway" v="stream" />
	</node>
	<node lat="62.94920277645902" lon="10.374774998105691" id="-40856">
		<tag k="name" v="Krokbekken" />
		<tag k="ssr:stedsnr" v="619711" />
		<tag k="waterway" v="stream" />
	</node>
	<node lat="62.95386388938795" lon="10.605227770381191" id="-40857">
		<tag k="name" v="Oksøya" />
		<tag k="place" v="islet" />
		<tag k="ssr:stedsnr" v="619720" />
	</node>
	<node lat="63.052552778558116" lon="10.678652787655508" id="-40864">
		<tag k="name" v="Okstjønna" />
		<tag k="natural" v="water" />
		<tag k="ssr:stedsnr" v="619989" />
	</node>
	<node lat="63.050066663656985" lon="10.616611102427134" id="-40865">
		<tag k="name" v="Hundodden" />
		<tag k="natural" v="cape" />
		<tag k="ssr:stedsnr" v="619991" />
	</node>
	<node lat="62.771505557012816" lon="10.645163895580378" id="-40885">
		<tag k="name" v="Nørder Rognesbekken" />
		<tag k="ssr:stedsnr" v="639227" />
		<tag k="waterway" v="stream" />
	</node>
	<node lat="63.0648388887313" lon="10.617172213145851" id="-40886">
		<tag k="name" v="Sandvika" />
		<tag k="natural" v="bay" />
		<tag k="ssr:stedsnr" v="639232" />
	</node>
	<node lat="62.90591110732966" lon="10.44968888023698" id="-40898">
		<tag k="name" v="Styggdalsbekken" />
		<tag k="ssr:stedsnr" v="639379" />
		<tag k="waterway" v="stream" />
	</node>
	<node lat="62.89384999745764" lon="10.448944442912627" id="-40899">
		<tag k="name" v="Bjørklibekken" />
		<tag k="ssr:stedsnr" v="639385" />
		<tag k="waterway" v="stream" />
	</node>
	<node lat="63.02415833482955" lon="10.357383327633851" id="-40916">
		<tag k="name" v="Styggedalsbekken" />
		<tag k="ssr:stedsnr" v="639804" />
		<tag k="waterway" v="stream" />
	</node>
	<node lat="62.9665833305051" lon="10.13138888159879" id="-40922">
		<tag k="name" v="Fjellbekken" />
		<tag k="ssr:stedsnr" v="639822" />
		<tag k="waterway" v="stream" />
	</node>
	<node lat="62.93543611005145" lon="10.040205554361771" id="-40925">
		<tag k="name" v="Kalvhåggåbekken" />
		<tag k="ssr:stedsnr" v="639834" />
		<tag k="waterway" v="stream" />
	</node>
	<node lat="62.94070833014966" lon="10.66290554778773" id="-40926">
		<tag k="name" v="Storøya" />
		<tag k="place" v="islet" />
		<tag k="ssr:stedsnr" v="639703" />
	</node>
	<node lat="62.94641666443289" lon="10.65559443779297" id="-40928">
		<tag k="name" v="Kvernbekken" />
		<tag k="ssr:stedsnr" v="639706" />
		<tag k="waterway" v="stream" />
	</node>
	<node lat="62.7512388897151" lon="10.428508337030639" id="-40937">
		<tag k="name" v="Vidbekken" />
		<tag k="ssr:stedsnr" v="639915" />
		<tag k="waterway" v="stream" />
	</node>
	<node lat="62.73028055797313" lon="10.745641669254706" id="-40944">
		<tag k="name" v="Grøthaugtjønna" />
		<tag k="natural" v="water" />
		<tag k="ssr:stedsnr" v="678033" />
	</node>
	<node lat="62.87173055424274" lon="10.839049999749388" id="-40947">
		<tag k="name" v="Lortfjelltjønna" />
		<tag k="natural" v="water" />
		<tag k="ssr:stedsnr" v="679107" />
	</node>
	<node lat="62.765430552861226" lon="10.253147230938826" id="-40959">
		<tag k="name" v="Sandfjellbekken" />
		<tag k="ssr:stedsnr" v="680308" />
		<tag k="waterway" v="stream" />
	</node>
	<node lat="62.9473194421156" lon="10.446530565179666" id="-40964">
		<tag k="name" v="Blukku" />
		<tag k="ssr:stedsnr" v="680738" />
		<tag k="waterway" v="stream" />
	</node>
	<node lat="63.11728888643201" lon="10.663069450857442" id="-40967">
		<tag k="name" v="Ballbekken" />
		<tag k="ssr:stedsnr" v="680871" />
		<tag k="waterway" v="stream" />
	</node>
	<node lat="62.73955277540838" lon="10.665016658070751" id="-40985">
		<tag k="name" v="Vassbekken" />
		<tag k="ssr:stedsnr" v="700224" />
		<tag k="waterway" v="stream" />
	</node>
	<node lat="62.85204999599433" lon="10.431655549462988" id="-40989">
		<tag k="name" v="Merkjesbekken" />
		<tag k="ssr:stedsnr" v="700163" />
		<tag k="waterway" v="stream" />
	</node>
	<node lat="62.84038055762926" lon="10.456519447066686" id="-40990">
		<tag k="name" v="Litlfloen" />
		<tag k="natural" v="water" />
		<tag k="ssr:stedsnr" v="700169" />
	</node>
	<node lat="63.021613886098756" lon="10.445172212551318" id="-40993">
		<tag k="name" v="Laugbekken" />
		<tag k="ssr:stedsnr" v="700314" />
		<tag k="waterway" v="stream" />
	</node>
	<node lat="62.85583611005277" lon="10.261938898471424" id="-40994">
		<tag k="name" v="Svarttjønna" />
		<tag k="natural" v="water" />
		<tag k="ssr:stedsnr" v="700316" />
	</node>
	<node lat="62.87097777705661" lon="10.51226389672826" id="-41002">
		<tag k="name" v="Svarttjønna" />
		<tag k="natural" v="water" />
		<tag k="ssr:stedsnr" v="700465" />
	</node>
	<node lat="62.85517222087829" lon="10.525230563109062" id="-41004">
		<tag k="name" v="Sagbakkbekken" />
		<tag k="ssr:stedsnr" v="700484" />
		<tag k="waterway" v="stream" />
	</node>
	<node lat="62.897516668616824" lon="10.10009721942194" id="-41008">
		<tag k="name" v="Gjelbekken" />
		<tag k="ssr:stedsnr" v="700613" />
		<tag k="waterway" v="stream" />
	</node>
	<node lat="62.958897224027766" lon="10.49219166986613" id="-41015">
		<tag k="name" v="Setrengsbekken" />
		<tag k="ssr:stedsnr" v="700571" />
		<tag k="waterway" v="stream" />
	</node>
	<node lat="62.960911108884666" lon="10.680316660637589" id="-41016">
		<tag k="name" v="Lerbekken" />
		<tag k="ssr:stedsnr" v="700705" />
		<tag k="waterway" v="stream" />
	</node>
	<node lat="62.96474166630955" lon="10.678930547918084" id="-41017">
		<tag k="name" v="Vollbekken" />
		<tag k="ssr:stedsnr" v="700707" />
		<tag k="waterway" v="stream" />
	</node>
	<node lat="62.96299444838382" lon="10.604283327201648" id="-41018">
		<tag k="name" v="Kvernbekken" />
		<tag k="ssr:stedsnr" v="700717" />
		<tag k="waterway" v="stream" />
	</node>
	<node lat="62.74838333488043" lon="10.430977778377011" id="-41030">
		<tag k="name" v="Hiåvollbekken" />
		<tag k="ssr:stedsnr" v="700915" />
		<tag k="waterway" v="stream" />
	</node>
	<node lat="62.82377777458656" lon="10.342430560189152" id="-41038">
		<tag k="name" v="Kråkbekken" />
		<tag k="ssr:stedsnr" v="700970" />
		<tag k="waterway" v="stream" />
	</node>
	<node lat="62.71037500058135" lon="10.771683338335837" id="-41044">
		<tag k="name" v="Grønlibekken" />
		<tag k="ssr:stedsnr" v="739009" />
		<tag k="waterway" v="stream" />
	</node>
	<node lat="62.802725001216665" lon="10.869030547109137" id="-41051">
		<tag k="name" v="Litlsjøen" />
		<tag k="natural" v="water" />
		<tag k="ssr:stedsnr" v="740053" />
	</node>
	<node lat="62.95680277763448" lon="10.365844436425244" id="-41062">
		<tag k="name" v="Litlvatnet" />
		<tag k="natural" v="water" />
		<tag k="ssr:stedsnr" v="740549" />
	</node>
	<node lat="62.78690555757961" lon="10.546988895273984" id="-41063">
		<tag k="name" v="Tverrbekken" />
		<tag k="ssr:stedsnr" v="740638" />
		<tag k="waterway" v="stream" />
	</node>
	<node lat="63.018127774309136" lon="10.117400000134042" id="-41065">
		<tag k="alt_name" v="Litholsjøen" />
		<tag k="name" v="Litlholsjøen" />
		<tag k="natural" v="water" />
		<tag k="ssr:stedsnr" v="740642" />
	</node>
	<node lat="62.88777222006865" lon="10.534199994021694" id="-41066">
		<tag k="name" v="Nørdre Tåvåa" />
		<tag k="ssr:stedsnr" v="740648" />
		<tag k="waterway" v="stream" />
	</node>
	<node lat="63.069055551435305" lon="10.692602783985338" id="-41070">
		<tag k="name" v="Langbekken" />
		<tag k="ssr:stedsnr" v="740899" />
		<tag k="waterway" v="stream" />
	</node>
	<node lat="63.032475002969136" lon="10.50886667086471" id="-41072">
		<tag k="alt_name" v="Tverr-Rogga" />
		<tag k="name" v="Tverrogga" />
		<tag k="ssr:stedsnr" v="740992" />
		<tag k="waterway" v="stream" />
	</node>
	<node lat="63.03791944070752" lon="10.665488890426142" id="-41073">
		<tag k="name" v="Merrabekken" />
		<tag k="ssr:stedsnr" v="740994" />
		<tag k="waterway" v="stream" />
	</node>
	<node lat="62.90442777857029" lon="10.108875001402769" id="-41098">
		<tag k="name" v="Bredbekken" />
		<tag k="ssr:stedsnr" v="761355" />
		<tag k="waterway" v="stream" />
	</node>
	<node lat="63.06823333332517" lon="10.885630546702943" id="-41102">
		<tag k="name" v="Gullbustbekken" />
		<tag k="ssr:stedsnr" v="761205" />
		<tag k="waterway" v="stream" />
	</node>
	<node lat="63.052308335394606" lon="10.601783334479704" id="-41103">
		<tag k="name" v="Marittangen" />
		<tag k="natural" v="cape" />
		<tag k="ssr:stedsnr" v="761245" />
	</node>
	<node lat="62.9157527754202" lon="10.204572219989744" id="-41107">
		<tag k="name" v="Øfsthusbekken" />
		<tag k="ssr:stedsnr" v="761295" />
		<tag k="waterway" v="stream" />
	</node>
	<node lat="62.985338891535086" lon="10.560900002505141" id="-41120">
		<tag k="name" v="Stor-Malma" />
		<tag k="ssr:stedsnr" v="761606" />
		<tag k="waterway" v="stream" />
	</node>
	<node lat="63.00027777600204" lon="10.262205549281868" id="-41123">
		<tag k="name" v="Myrbekken" />
		<tag k="ssr:stedsnr" v="761611" />
		<tag k="waterway" v="stream" />
	</node>
	<node lat="62.897022224858446" lon="10.374011111712418" id="-41151">
		<tag k="name" v="Tåmåsbekken" />
		<tag k="ssr:stedsnr" v="761997" />
		<tag k="waterway" v="stream" />
	</node>
	<node lat="63.04878889282482" lon="10.314600002040445" id="-41158">
		<tag k="name" v="Kvennvassbekken" />
		<tag k="ssr:stedsnr" v="761901" />
		<tag k="waterway" v="stream" />
	</node>
	<node lat="62.71746389174598" lon="10.827616664843896" id="-41163">
		<tag k="name" v="Svartbekken" />
		<tag k="ssr:stedsnr" v="800007" />
		<tag k="waterway" v="stream" />
	</node>
	<node lat="62.724258329180856" lon="10.574458329844017" id="-41166">
		<tag k="name" v="Tverrbekken" />
		<tag k="ssr:stedsnr" v="800378" />
		<tag k="waterway" v="stream" />
	</node>
	<node lat="62.82925555693856" lon="10.852516659532709" id="-41168">
		<tag k="name" v="Klokkarbekken" />
		<tag k="ssr:stedsnr" v="801032" />
		<tag k="waterway" v="stream" />
	</node>
	<node lat="62.880311114541826" lon="10.82057499961689" id="-41169">
		<tag k="name" v="Sauskørrutjønna" />
		<tag k="natural" v="water" />
		<tag k="ssr:stedsnr" v="801116" />
	</node>
	<node lat="62.971308335363396" lon="10.28653334087785" id="-41174">
		<tag k="name" v="Amdalfossen" />
		<tag k="natural" v="waterfall" />
		<tag k="ssr:stedsnr" v="801516" />
	</node>
	<node lat="62.78055277336873" lon="10.479880554654201" id="-41178">
		<tag k="name" v="Klumpbekken" />
		<tag k="ssr:stedsnr" v="801285" />
		<tag k="waterway" v="stream" />
	</node>
	<node lat="63.09497795115076" lon="10.587125237534176" id="-41181">
		<tag k="name" v="Svarttjønna" />
		<tag k="natural" v="water" />
		<tag k="ssr:stedsnr" v="801924" />
	</node>
	<node lat="63.07367500163466" lon="10.369125004099308" id="-41185">
		<tag k="name" v="Råsjøen" />
		<tag k="natural" v="water" />
		<tag k="ssr:stedsnr" v="801879" />
		<tag k="water" v="lake" />
	</node>
	<node lat="62.83880832972653" lon="10.299816663577952" id="-41189">
		<tag k="name" v="Merraåsbekken" />
		<tag k="ssr:stedsnr" v="808532" />
		<tag k="waterway" v="stream" />
	</node>
	<node lat="63.01076110951822" lon="10.825033324838607" id="-41190">
		<tag k="name" v="Granåsbekken" />
		<tag k="ssr:stedsnr" v="809403" />
		<tag k="waterway" v="stream" />
	</node>
	<node lat="63.00404722535886" lon="10.828430561584408" id="-41201">
		<tag k="name" v="Kjølbekken" />
		<tag k="ssr:stedsnr" v="822209" />
		<tag k="waterway" v="stream" />
	</node>
	<node lat="63.052425001613194" lon="10.606272213411154" id="-41205">
		<tag k="name" v="Båthusholmen" />
		<tag k="place" v="islet" />
		<tag k="ssr:stedsnr" v="822183" />
	</node>
	<node lat="63.00888611291353" lon="10.23406110658075" id="-41217">
		<tag k="name" v="Litlbekken" />
		<tag k="ssr:stedsnr" v="822614" />
		<tag k="waterway" v="stream" />
	</node>
	<node lat="62.958180557821336" lon="10.526247228785211" id="-41233">
		<tag k="name" v="Litltjønna" />
		<tag k="natural" v="water" />
		<tag k="ssr:stedsnr" v="822588" />
	</node>
	<node lat="63.01451944723888" lon="10.03920833409687" id="-41235">
		<tag k="name" v="Litlgodtjønna" />
		<tag k="natural" v="water" />
		<tag k="ssr:stedsnr" v="822709" />
	</node>
	<node lat="63.0665611103592" lon="10.359977781093457" id="-41239">
		<tag k="name" v="Synner Lomtjønna" />
		<tag k="natural" v="water" />
		<tag k="ssr:stedsnr" v="822768" />
	</node>
	<node lat="62.9064416646299" lon="10.195613880864803" id="-41253">
		<tag k="name" v="Måssåtjønna" />
		<tag k="natural" v="water" />
		<tag k="ssr:stedsnr" v="822895" />
	</node>
	<node lat="62.98290555534941" lon="10.833361108543047" id="-41255">
		<tag k="name" v="Ebbslættbekken" />
		<tag k="ssr:stedsnr" v="822899" />
		<tag k="waterway" v="stream" />
	</node>
	<node lat="63.04638888914886" lon="10.329938887592846" id="-41256">
		<tag k="name" v="Litlvatnet" />
		<tag k="natural" v="water" />
		<tag k="ssr:stedsnr" v="822906" />
	</node>
	<node lat="62.718102776903514" lon="10.647675001177559" id="-41259">
		<tag k="name" v="Krigsvollbekken" />
		<tag k="ssr:stedsnr" v="921406" />
		<tag k="waterway" v="stream" />
	</node>
	<node lat="62.67697221992515" lon="10.697341670954668" id="-41260">
		<tag k="name" v="Nørdre Ytjønna" />
		<tag k="natural" v="water" />
		<tag k="ssr:stedsnr" v="921421" />
	</node>
	<node lat="62.87301666329545" lon="10.757922226360403" id="-41261">
		<tag k="name" v="Litlråbekken" />
		<tag k="ssr:stedsnr" v="922106" />
		<tag k="waterway" v="stream" />
	</node>
	<node lat="62.80778055931998" lon="10.843041667061682" id="-41262">
		<tag k="alt_name" v="Nekjåa" />
		<tag k="name" v="Nekkjåa" />
		<tag k="ssr:stedsnr" v="922065" />
		<tag k="waterway" v="river" />
	</node>
	<node lat="62.78741944133831" lon="10.456797217684496" id="-41269">
		<tag k="name" v="Summulbekken" />
		<tag k="ssr:stedsnr" v="922268" />
		<tag k="waterway" v="stream" />
	</node>
	<node lat="62.796533330808444" lon="10.324041659063361" id="-41271">
		<tag k="name" v="Flottabekken" />
		<tag k="ssr:stedsnr" v="922291" />
		<tag k="waterway" v="stream" />
	</node>
	<node lat="62.81617500322056" lon="10.480647219857318" id="-41273">
		<tag k="name" v="Bjørbekken" />
		<tag k="ssr:stedsnr" v="922299" />
		<tag k="waterway" v="stream" />
	</node>
	<node lat="62.952836108110354" lon="10.416799994158849" id="-41277">
		<tag k="name" v="Bjørntjønna" />
		<tag k="natural" v="water" />
		<tag k="ssr:stedsnr" v="922525" />
	</node>
	<node lat="63.03832500086075" lon="10.148244439436343" id="-41278">
		<tag k="name" v="Vollatjønna" />
		<tag k="natural" v="water" />
		<tag k="ssr:stedsnr" v="922533" />
	</node>
	<node lat="62.897825002562556" lon="10.711436115552914" id="-41279">
		<tag k="name" v="Sandåa" />
		<tag k="ssr:stedsnr" v="922619" />
		<tag k="waterway" v="stream" />
	</node>
	<node lat="63.05149999791976" lon="10.46285278542508" id="-41286">
		<tag k="name" v="Roggtjønna" />
		<tag k="natural" v="water" />
		<tag k="ssr:stedsnr" v="922964" />
	</node>
	<node lat="62.98858610817721" lon="10.731863893983713" id="-41291">
		<tag k="name" v="Nervollbekken" />
		<tag k="ssr:stedsnr" v="923539" />
		<tag k="waterway" v="stream" />
	</node>
	<node lat="62.86584167051412" lon="10.336733331338795" id="-41296">
		<tag k="name" v="Gåstjønna" />
		<tag k="natural" v="water" />
		<tag k="ssr:stedsnr" v="923689" />
	</node>
	<node lat="62.8748444465288" lon="10.412113886106532" id="-41298">
		<tag k="name" v="Vollstjønna" />
		<tag k="natural" v="water" />
		<tag k="ssr:stedsnr" v="923703" />
	</node>
	<node lat="63.0097166711022" lon="9.998669446952844" id="-41299">
		<tag k="name" v="Holsjøen" />
		<tag k="natural" v="water" />
		<tag k="ssr:stedsnr" v="923662" />
		<tag k="water" v="lake" />
	</node>
	<node lat="62.94048333327007" lon="10.546872229795074" id="-41301">
		<tag k="name" v="Nøkksjøen" />
		<tag k="natural" v="water" />
		<tag k="ssr:stedsnr" v="923735" />
		<tag k="water" v="lake" />
	</node>
	<node lat="63.046683330452964" lon="10.384369452846688" id="-41308">
		<tag k="name" v="Tildra" />
		<tag k="ssr:stedsnr" v="923994" />
		<tag k="waterway" v="river" />
	</node>
	<node lat="63.123694446870076" lon="10.679883335480604" id="-41311">
		<tag k="name" v="Djuptjønna" />
		<tag k="natural" v="water" />
		<tag k="ssr:stedsnr" v="923850" />
	</node>
	<node lat="62.80063056004342" lon="10.80928888166199" id="-41315">
		<tag k="name" v="Manndrapstjønna" />
		<tag k="natural" v="water" />
		<tag k="ssr:stedsnr" v="862003" />
	</node>
	<node lat="62.7811388909814" lon="10.300713897022698" id="-41321">
		<tag k="name" v="Vasstjønna" />
		<tag k="natural" v="water" />
		<tag k="ssr:stedsnr" v="862313" />
	</node>
	<node lat="62.98144722309634" lon="10.370725005787637" id="-41322">
		<tag k="name" v="Ølshavdtjønnan" />
		<tag k="natural" v="water" />
		<tag k="ssr:stedsnr" v="862507" />
	</node>
	<node lat="62.97963333251189" lon="10.522913890612648" id="-41330">
		<tag k="name" v="Marbekken" />
		<tag k="ssr:stedsnr" v="862500" />
		<tag k="waterway" v="stream" />
	</node>
	<node lat="63.07236110898858" lon="10.56951110721053" id="-41336">
		<tag k="name" v="Litjsandtjønna" />
		<tag k="natural" v="water" />
		<tag k="ssr:stedsnr" v="862904" />
	</node>
	<node lat="63.020616662970866" lon="10.225474991882063" id="-41341">
		<tag k="name" v="Grøvja" />
		<tag k="ssr:stedsnr" v="862962" />
		<tag k="waterway" v="stream" />
	</node>
	<node lat="62.8094972213064" lon="10.616341668867957" id="-41346">
		<tag k="name" v="Bjørnholbekken" />
		<tag k="ssr:stedsnr" v="869576" />
		<tag k="waterway" v="stream" />
	</node>
	<node lat="62.81768333185831" lon="10.526516660822299" id="-41347">
		<tag k="name" v="Bjørkåsbekken" />
		<tag k="ssr:stedsnr" v="869577" />
		<tag k="waterway" v="stream" />
	</node>
	<node lat="63.01189444480612" lon="10.32097500037749" id="-41362">
		<tag k="name" v="Sandbekken" />
		<tag k="ssr:stedsnr" v="883122" />
		<tag k="waterway" v="stream" />
	</node>
	<node lat="62.91678888603371" lon="10.308288880623227" id="-41366">
		<tag k="name" v="Bjørkåsbekken" />
		<tag k="ssr:stedsnr" v="883016" />
		<tag k="waterway" v="stream" />
	</node>
	<node lat="62.90306111344139" lon="10.286025004266314" id="-41368">
		<tag k="name" v="Lomtjønna" />
		<tag k="natural" v="water" />
		<tag k="ssr:stedsnr" v="883019" />
	</node>
	<node lat="62.73827500176608" lon="10.68373612083957" id="-41378">
		<tag k="name" v="Synner Fløtbekken" />
		<tag k="ssr:stedsnr" v="883220" />
		<tag k="waterway" v="stream" />
	</node>
	<node lat="62.88857777344181" lon="10.241658332574817" id="-41385">
		<tag k="name" v="Holtvatnet" />
		<tag k="natural" v="water" />
		<tag k="ssr:stedsnr" v="883362" />
		<tag k="water" v="lake" />
	</node>
	<node lat="63.08304166996719" lon="10.611619436097339" id="-41388">
		<tag k="name" v="Tibordtjønna" />
		<tag k="natural" v="water" />
		<tag k="ssr:stedsnr" v="883247" />
	</node>
	<node lat="62.86246388820165" lon="10.334805546186294" id="-41390">
		<tag k="name" v="Svarttjønna" />
		<tag k="natural" v="water" />
		<tag k="ssr:stedsnr" v="883298" />
	</node>
	<node lat="62.930283336845974" lon="10.409502775317037" id="-41393">
		<tag k="name" v="Strypbekken" />
		<tag k="ssr:stedsnr" v="883417" />
		<tag k="waterway" v="stream" />
	</node>
	<node lat="62.899461113801834" lon="10.45985277827726" id="-41395">
		<tag k="name" v="Vassbekken" />
		<tag k="ssr:stedsnr" v="883449" />
		<tag k="waterway" v="stream" />
	</node>
	<node lat="63.0011583376428" lon="10.186297227147033" id="-41408">
		<tag k="name" v="Damtjønna" />
		<tag k="natural" v="water" />
		<tag k="ssr:stedsnr" v="883721" />
	</node>
	<node lat="62.81825555997942" lon="10.337547231839144" id="-41419">
		<tag k="name" v="Hestskotjønna" />
		<tag k="natural" v="water" />
		<tag k="ssr:stedsnr" v="883814" />
	</node>
	<node lat="62.79578610815881" lon="10.932566666868494" id="-41433">
		<tag k="name" v="Sølbekken" />
		<tag k="ssr:stedsnr" v="922010" />
		<tag k="waterway" v="stream" />
	</node>
	<node lat="63.00099166388018" lon="10.051230556918267" id="-41446">
		<tag k="name" v="Svarttjønna" />
		<tag k="natural" v="water" />
		<tag k="ssr:stedsnr" v="922629" />
	</node>
	<node lat="63.004633336616685" lon="10.058427771822663" id="-41448">
		<tag k="alt_name" v="Glømsåa" />
		<tag k="name" v="Glømsa" />
		<tag k="ssr:stedsnr" v="922593" />
		<tag k="waterway" v="stream" />
	</node>
	<node lat="62.83083889211844" lon="10.204397215826512" id="-41450">
		<tag k="name" v="Midtstavilla" />
		<tag k="ssr:stedsnr" v="922904" />
		<tag k="waterway" v="stream" />
	</node>
	<node lat="63.048958332836385" lon="10.325063889321926" id="-41452">
		<tag k="alt_name" v="Refsvatnet" />
		<tag k="name" v="Røssvatnet" />
		<tag k="natural" v="water" />
		<tag k="old_name" v="Røsvatnet" />
		<tag k="ssr:stedsnr" v="922978" />
	</node>
	<node lat="62.759430555651264" lon="10.511822224089743" id="-41454">
		<tag k="name" v="Langtjønna" />
		<tag k="natural" v="water" />
		<tag k="ssr:stedsnr" v="923280" />
	</node>
	<node lat="62.97667222048778" lon="10.844505553559467" id="-41457">
		<tag k="name" v="Ørta" />
		<tag k="ssr:stedsnr" v="923532" />
		<tag k="waterway" v="river" />
	</node>
	<node lat="62.99717777586074" lon="10.041638890692253" id="-41461">
		<tag k="name" v="Vertjønna" />
		<tag k="natural" v="water" />
		<tag k="ssr:stedsnr" v="923772" />
	</node>
	<node lat="63.0726788209286" lon="10.896213045951628" id="-41463">
		<tag k="name" v="Litlhukkelvatnet" />
		<tag k="natural" v="water" />
		<tag k="ssr:stedsnr" v="931430" />
		<tag k="water" v="lake" />
	</node>
	<node lat="62.90604467829071" lon="10.788793838928026" id="-41469">
		<tag k="name" v="Grisbudalstjønna" />
		<tag k="natural" v="water" />
		<tag k="ssr:stedsnr" v="971552" />
	</node>
	<node lat="63.01526199706235" lon="10.07786255093632" id="-41477">
		<tag k="name" v="Storgrasmyrtjønna" />
		<tag k="natural" v="water" />
		<tag k="ssr:stedsnr" v="981804" />
	</node>
	<node lat="63.085430557086276" lon="10.628477778222685" id="-41487">
		<tag k="name" v="Litjburusjøen" />
		<tag k="natural" v="water" />
		<tag k="ssr:stedsnr" v="12872" />
		<tag k="water" v="lake" />
	</node>
	<node lat="62.68507500246369" lon="10.609808330504091" id="-41493">
		<tag k="name" v="Dølbubekken" />
		<tag k="ssr:stedsnr" v="11404" />
		<tag k="waterway" v="stream" />
	</node>
	<node lat="62.743569440065315" lon="10.516825004578438" id="-41494">
		<tag k="name" v="Gråtjønna" />
		<tag k="natural" v="water" />
		<tag k="ssr:stedsnr" v="11422" />
	</node>
	<node lat="62.8583138881163" lon="10.870538897049725" id="-41500">
		<tag k="name" v="Herjåtjønnan" />
		<tag k="natural" v="water" />
		<tag k="ssr:stedsnr" v="12068" />
	</node>
	<node lat="63.04759194565911" lon="10.989287191719246" id="-41505">
		<tag k="name" v="Auntjønnan" />
		<tag k="natural" v="water" />
		<tag k="ssr:stedsnr" v="12163" />
	</node>
	<node lat="63.04938608527432" lon="10.84362440138994" id="-41506">
		<tag k="name" v="Ørttjønna" />
		<tag k="natural" v="water" />
		<tag k="ssr:stedsnr" v="12164" />
	</node>
	<node lat="62.93547222133164" lon="10.73050000426838" id="-41514">
		<tag k="name" v="Svartåsbekken" />
		<tag k="ssr:stedsnr" v="12398" />
		<tag k="waterway" v="stream" />
	</node>
	<node lat="63.00157777739588" lon="10.148613882074224" id="-41515">
		<tag k="alt_name" v="Skora" />
		<tag k="name" v="Skårbekken" />
		<tag k="ssr:stedsnr" v="12621" />
		<tag k="waterway" v="stream" />
	</node>
	<node lat="63.003177773596526" lon="10.133336114850911" id="-41516">
		<tag k="name" v="Koltjønna" />
		<tag k="natural" v="water" />
		<tag k="ssr:stedsnr" v="12628" />
	</node>
	<node lat="63.01433889220541" lon="10.018227771526" id="-41518">
		<tag k="name" v="Godtjønnan" />
		<tag k="natural" v="water" />
		<tag k="ssr:stedsnr" v="12643" />
	</node>
	<node lat="62.830897221319475" lon="10.849416658268861" id="-41520">
		<tag k="name" v="Storbekken" />
		<tag k="ssr:stedsnr" v="12656" />
		<tag k="waterway" v="stream" />
	</node>
	<node lat="63.01618332958028" lon="10.09239445355888" id="-41521">
		<tag k="name" v="Litlholsjøtjønna" />
		<tag k="natural" v="water" />
		<tag k="ssr:stedsnr" v="12660" />
	</node>
	<node lat="62.87059166877566" lon="10.423488888844753" id="-41527">
		<tag k="name" v="Enlitjønna" />
		<tag k="natural" v="water" />
		<tag k="ssr:stedsnr" v="12686" />
	</node>
	<node lat="63.10390833451626" lon="10.708861101370866" id="-41536">
		<tag k="name" v="Tverroppa" />
		<tag k="ssr:stedsnr" v="12922" />
		<tag k="waterway" v="stream" />
	</node>
	<node lat="63.02902778117814" lon="10.420511102968899" id="-41538">
		<tag k="name" v="Grytbekken" />
		<tag k="ssr:stedsnr" v="12943" />
		<tag k="waterway" v="stream" />
	</node>
	<node lat="63.05268333384334" lon="10.360005546725771" id="-41542">
		<tag k="name" v="Langvatnet" />
		<tag k="natural" v="water" />
		<tag k="ssr:stedsnr" v="12974" />
		<tag k="water" v="lake" />
	</node>
	<node lat="62.95422777408905" lon="10.864705558796206" id="-41555">
		<tag k="name" v="Skjula" />
		<tag k="ssr:stedsnr" v="21292" />
		<tag k="waterway" v="stream" />
	</node>
</osm>
