<?xml version="1.0" encoding="UTF-8"?>
<osm version="0.6" generator="osmapis">
	<node lat="62.85664166846153" lon="10.266830561294187" id="-84217">
		<tag k="name" v="Soknedal statsalmenning" />
		<tag k="place" v="locality" />
		<tag k="ssr:stedsnr" v="215325" />
	</node>
	<node lat="63.068191668732325" lon="10.30826667327492" id="-85791">
		<tag k="fixme" v="consider boundary=protected_area and relevant protect_class if not nature reserve" />
		<tag k="leisure" v="nature_reserve" />
		<tag k="loc_name" v="Redalen verneområde;Gullaugtjønnberga verneområde" />
		<tag k="name" v="Rædalen verneområde" />
		<tag k="ssr:stedsnr" v="849575" />
	</node>
	<node lat="62.75873611048183" lon="10.187905554567344" id="-85944">
		<tag k="historic" v="boundary_stone" />
		<tag k="man_made" v="cairn" />
		<tag k="name" v="Kongsvarden" />
		<tag k="place" v="locality" />
		<tag k="ssr:stedsnr" v="969535" />
	</node>
	<node lat="63.06774136269741" lon="10.327234087385051" id="-85951">
		<tag k="fixme" v="consider boundary=protected_area and relevant protect_class if not nature reserve" />
		<tag k="leisure" v="nature_reserve" />
		<tag k="name" v="Gullaugtjønnberga naturreservat" />
		<tag k="ssr:stedsnr" v="976004" />
	</node>
	<node lat="63.05555833391854" lon="10.267738891267602" id="-86169">
		<tag k="fixme" v="specify shooting=range, clay_pigeon etc" />
		<tag k="leisure" v="pitch" />
		<tag k="name" v="Furukollen skyteanlegg" />
		<tag k="sport" v="shooting" />
		<tag k="ssr:stedsnr" v="59237" />
	</node>
	<node lat="62.936547220668906" lon="10.268699998570114" id="-87075">
		<tag k="fixme" v="specify shooting=range, clay_pigeon etc" />
		<tag k="leisure" v="pitch" />
		<tag k="name" v="Bjørnåsen leirduebane" />
		<tag k="sport" v="shooting" />
		<tag k="ssr:stedsnr" v="362257" />
	</node>
	<node lat="62.89061388940081" lon="10.241430558767881" id="-87175">
		<tag k="fixme" v="consider boundary=protected_area and relevant protect_class if not nature reserve" />
		<tag k="leisure" v="nature_reserve" />
		<tag k="name" v="Holtvatn Naturreservat" />
		<tag k="ssr:stedsnr" v="397364" />
	</node>
	<node lat="62.88797499954933" lon="10.496516671443151" id="-87691">
		<tag k="fixme" v="specify shooting=range, clay_pigeon etc" />
		<tag k="leisure" v="pitch" />
		<tag k="name" v="Budalen skyteanlegg" />
		<tag k="sport" v="shooting" />
		<tag k="ssr:stedsnr" v="604245" />
	</node>
	<node lat="62.93575833538591" lon="10.195852771388461" id="-87875">
		<tag k="fixme" v="specify shooting=range, clay_pigeon etc" />
		<tag k="leisure" v="pitch" />
		<tag k="name" v="Dalheim skytebane" />
		<tag k="sport" v="shooting" />
		<tag k="ssr:stedsnr" v="726251" />
	</node>
	<node lat="62.98617500340859" lon="10.952663889042016" id="-88647">
		<tag k="fixme" v="consider boundary=protected_area and relevant protect_class if not nature reserve" />
		<tag k="leisure" v="nature_reserve" />
		<tag k="name" v="Dragåsvollan naturreservat" />
		<tag k="ssr:stedsnr" v="970634" />
	</node>
</osm>
