<?xml version="1.0" encoding="UTF-8"?>
<osm version="0.6" generator="osmapis">
	<node lat="62.70236666590824" lon="10.721588884865687" id="-39378">
		<tag k="name" v="Bjørndalen" />
		<tag k="natural" v="valley" />
		<tag k="place" v="locality" />
		<tag k="ssr:stedsnr" v="11014" />
	</node>
	<node lat="62.96859166521518" lon="10.352647225272372" id="-39388">
		<tag k="name" v="Ramstadhøgda" />
		<tag k="natural" v="hill" />
		<tag k="place" v="locality" />
		<tag k="ssr:stedsnr" v="12518" />
	</node>
	<node lat="62.86006389219685" lon="10.416177769100774" id="-39398">
		<tag k="name" v="Storhøgda" />
		<tag k="natural" v="hill" />
		<tag k="place" v="locality" />
		<tag k="ssr:stedsnr" v="13411" />
	</node>
	<node lat="62.943938887308605" lon="10.327702782142653" id="-39399">
		<tag k="name" v="Litllia" />
		<tag k="natural" v="slope" />
		<tag k="place" v="locality" />
		<tag k="ssr:stedsnr" v="33001" />
	</node>
	<node lat="62.84057777431348" lon="10.454500004200339" id="-39408">
		<tag k="name" v="Haugen" />
		<tag k="natural" v="hill" />
		<tag k="place" v="locality" />
		<tag k="ssr:stedsnr" v="33177" />
	</node>
	<node lat="62.823400004234244" lon="10.568272219540676" id="-39412">
		<tag k="name" v="Budalslia" />
		<tag k="natural" v="slope" />
		<tag k="place" v="locality" />
		<tag k="ssr:stedsnr" v="33304" />
	</node>
	<node lat="62.988099997041594" lon="10.17669722722438" id="-39413">
		<tag k="name" v="Hårråbakken" />
		<tag k="natural" v="slope" />
		<tag k="place" v="locality" />
		<tag k="ssr:stedsnr" v="33307" />
	</node>
	<node lat="62.9250305568752" lon="10.188483335649115" id="-39414">
		<tag k="name" v="Holberga" />
		<tag k="natural" v="hill" />
		<tag k="place" v="locality" />
		<tag k="ssr:stedsnr" v="33316" />
	</node>
	<node lat="62.9868638879777" lon="10.44747777849237" id="-39416">
		<tag k="name" v="Svartdalen" />
		<tag k="natural" v="valley" />
		<tag k="place" v="locality" />
		<tag k="ssr:stedsnr" v="33368" />
	</node>
	<node lat="62.78486388610517" lon="10.459236107976256" id="-39417">
		<tag k="fixme" v="consider natural=peak for the most distinct mountains in the district" />
		<tag k="name" v="Radden" />
		<tag k="natural" v="hill" />
		<tag k="place" v="locality" />
		<tag k="ssr:stedsnr" v="33272" />
	</node>
	<node lat="62.87992777453413" lon="10.266222229651651" id="-39423">
		<tag k="fixme" v="consider natural=peak for the most distinct mountains in the district" />
		<tag k="name" v="Brattegga" />
		<tag k="natural" v="hill" />
		<tag k="place" v="locality" />
		<tag k="ssr:stedsnr" v="33413" />
	</node>
	<node lat="62.878308332562035" lon="10.476519434596261" id="-39426">
		<tag k="name" v="Smågranbakkan" />
		<tag k="natural" v="slope" />
		<tag k="place" v="locality" />
		<tag k="ssr:stedsnr" v="33515" />
	</node>
	<node lat="62.95991944675641" lon="10.578955564710164" id="-39429">
		<tag k="name" v="Litlbekkdalen" />
		<tag k="natural" v="valley" />
		<tag k="place" v="locality" />
		<tag k="ssr:stedsnr" v="33586" />
	</node>
	<node lat="62.971725001036205" lon="10.569047227875174" id="-39431">
		<tag k="name" v="Ratøya" />
		<tag k="place" v="locality" />
		<tag k="ssr:stedsnr" v="33591" />
	</node>
	<node lat="62.927758334451205" lon="10.712369445274424" id="-39437">
		<tag k="name" v="Gjetbergdalen" />
		<tag k="natural" v="valley" />
		<tag k="place" v="locality" />
		<tag k="ssr:stedsnr" v="33723" />
	</node>
	<node lat="62.98033610930872" lon="10.526791658930014" id="-39438">
		<tag k="name" v="Kammen" />
		<tag k="natural" v="ridge" />
		<tag k="place" v="locality" />
		<tag k="ssr:stedsnr" v="33611" />
	</node>
	<node lat="62.98813888889294" lon="10.246763896689577" id="-39442">
		<tag k="name" v="Gurrubakken" />
		<tag k="natural" v="slope" />
		<tag k="place" v="locality" />
		<tag k="ssr:stedsnr" v="33627" />
	</node>
	<node lat="62.802930556039854" lon="10.623997227239656" id="-39446">
		<tag k="fixme" v="consider natural=peak for the most distinct mountains in the district" />
		<tag k="name" v="Vollaåsen" />
		<tag k="natural" v="hill" />
		<tag k="place" v="locality" />
		<tag k="ssr:stedsnr" v="33664" />
	</node>
	<node lat="62.883169448765585" lon="10.665886110322822" id="-39447">
		<tag k="name" v="Langdalen" />
		<tag k="natural" v="valley" />
		<tag k="place" v="locality" />
		<tag k="ssr:stedsnr" v="33673" />
	</node>
	<node lat="62.80585833629895" lon="10.62559165950776" id="-39448">
		<tag k="fixme" v="consider natural=peak for the most distinct mountains in the district" />
		<tag k="name" v="Traståsen" />
		<tag k="natural" v="hill" />
		<tag k="place" v="locality" />
		<tag k="ssr:stedsnr" v="33676" />
	</node>
	<node lat="62.98827777724534" lon="10.385774997253781" id="-39452">
		<tag k="fixme" v="consider natural=peak for the most distinct mountains in the district" />
		<tag k="name" v="Brattrena" />
		<tag k="natural" v="hill" />
		<tag k="place" v="locality" />
		<tag k="ssr:stedsnr" v="33814" />
	</node>
	<node lat="62.93013333658076" lon="10.732108324303592" id="-39453">
		<tag k="name" v="Kjerringslættkjølen" />
		<tag k="place" v="locality" />
		<tag k="ssr:stedsnr" v="33815" />
	</node>
	<node lat="62.8145833292526" lon="10.253252780544075" id="-39455">
		<tag k="name" v="Husmannsdalen" />
		<tag k="natural" v="valley" />
		<tag k="place" v="locality" />
		<tag k="ssr:stedsnr" v="33763" />
	</node>
	<node lat="63.054350003442515" lon="10.33121944572426" id="-39458">
		<tag k="name" v="Furumoen" />
		<tag k="place" v="locality" />
		<tag k="ssr:stedsnr" v="33925" />
	</node>
	<node lat="62.88776111545422" lon="10.1563250015021" id="-39463">
		<tag k="name" v="Presthuskvernlia" />
		<tag k="natural" v="slope" />
		<tag k="place" v="locality" />
		<tag k="ssr:stedsnr" v="33867" />
	</node>
	<node lat="62.85327500082829" lon="10.2694805532229" id="-39472">
		<tag k="fixme" v="consider natural=peak for the most distinct mountains in the district" />
		<tag k="name" v="Hafsåsen" />
		<tag k="natural" v="hill" />
		<tag k="place" v="locality" />
		<tag k="ssr:stedsnr" v="73377" />
	</node>
	<node lat="62.99222222161018" lon="10.138202777254088" id="-39482">
		<tag k="fixme" v="consider natural=peak for the most distinct mountains in the district" />
		<tag k="name" v="Burufjellet" />
		<tag k="natural" v="hill" />
		<tag k="place" v="locality" />
		<tag k="ssr:stedsnr" v="73757" />
	</node>
	<node lat="62.826444448343594" lon="10.493033324163642" id="-39489">
		<tag k="name" v="Åsvollråa" />
		<tag k="natural" v="slope" />
		<tag k="place" v="locality" />
		<tag k="ssr:stedsnr" v="93202" />
	</node>
	<node lat="62.81964166684277" lon="10.485747226755072" id="-39493">
		<tag k="name" v="Småliin" />
		<tag k="natural" v="slope" />
		<tag k="place" v="locality" />
		<tag k="ssr:stedsnr" v="93224" />
	</node>
	<node lat="62.987066665582276" lon="10.205549996147013" id="-39495">
		<tag k="name" v="Moldbakken" />
		<tag k="natural" v="slope" />
		<tag k="place" v="locality" />
		<tag k="ssr:stedsnr" v="93282" />
	</node>
	<node lat="62.95900833533989" lon="10.209516661785614" id="-39496">
		<tag k="name" v="Furuhaugen" />
		<tag k="natural" v="hill" />
		<tag k="place" v="locality" />
		<tag k="ssr:stedsnr" v="93284" />
	</node>
	<node lat="62.941849998553515" lon="10.319902776193947" id="-39500">
		<tag k="name" v="Stenbrudalen" />
		<tag k="natural" v="valley" />
		<tag k="place" v="locality" />
		<tag k="ssr:stedsnr" v="94007" />
	</node>
	<node lat="62.94591389194048" lon="10.316186108142983" id="-39501">
		<tag k="name" v="Panna" />
		<tag k="natural" v="slope" />
		<tag k="place" v="locality" />
		<tag k="ssr:stedsnr" v="94009" />
	</node>
	<node lat="62.90989166516193" lon="10.292694436922304" id="-39504">
		<tag k="name" v="Kjerkberget" />
		<tag k="natural" v="hill" />
		<tag k="place" v="locality" />
		<tag k="ssr:stedsnr" v="94025" />
	</node>
	<node lat="62.95597222287016" lon="10.586833324610106" id="-39505">
		<tag k="name" v="Vindsnesbakken" />
		<tag k="natural" v="slope" />
		<tag k="place" v="locality" />
		<tag k="ssr:stedsnr" v="94068" />
	</node>
	<node lat="62.99635277521658" lon="10.295622220250076" id="-39507">
		<tag k="fixme" v="consider natural=peak for the most distinct mountains in the district" />
		<tag k="name" v="Løvåsen" />
		<tag k="natural" v="hill" />
		<tag k="place" v="locality" />
		<tag k="ssr:stedsnr" v="94081" />
	</node>
	<node lat="62.95509166530889" lon="10.248705554880376" id="-39509">
		<tag k="name" v="Gammelhaugen" />
		<tag k="natural" v="hill" />
		<tag k="place" v="locality" />
		<tag k="ssr:stedsnr" v="94105" />
	</node>
	<node lat="62.96643055150539" lon="10.238216660272862" id="-39510">
		<tag k="name" v="Bakkhaugen" />
		<tag k="natural" v="hill" />
		<tag k="place" v="locality" />
		<tag k="ssr:stedsnr" v="94108" />
	</node>
	<node lat="62.85803055962825" lon="10.433244436292517" id="-39514">
		<tag k="name" v="Liin" />
		<tag k="natural" v="slope" />
		<tag k="place" v="locality" />
		<tag k="ssr:stedsnr" v="94174" />
	</node>
	<node lat="62.822911112565485" lon="10.419983329327467" id="-39515">
		<tag k="name" v="Litlskarddalen" />
		<tag k="natural" v="valley" />
		<tag k="place" v="locality" />
		<tag k="ssr:stedsnr" v="94211" />
	</node>
	<node lat="62.94677222002242" lon="10.546163892548359" id="-39521">
		<tag k="name" v="Storslættet" />
		<tag k="place" v="locality" />
		<tag k="ssr:stedsnr" v="94463" />
	</node>
	<node lat="62.91089722065275" lon="10.518158329213648" id="-39523">
		<tag k="fixme" v="consider natural=peak for the most distinct mountains in the district" />
		<tag k="name" v="Olaslættåsen" />
		<tag k="natural" v="hill" />
		<tag k="place" v="locality" />
		<tag k="ssr:stedsnr" v="94502" />
	</node>
	<node lat="62.8802500027648" lon="10.49951666601896" id="-39525">
		<tag k="name" v="Tågåmoen" />
		<tag k="place" v="locality" />
		<tag k="ssr:stedsnr" v="94524" />
	</node>
	<node lat="62.8771972189492" lon="10.71890555524484" id="-39528">
		<tag k="name" v="Burshåmmårflata" />
		<tag k="natural" v="hill" />
		<tag k="place" v="locality" />
		<tag k="ssr:stedsnr" v="94803" />
	</node>
	<node lat="62.923333332366035" lon="10.730694449140618" id="-39533">
		<tag k="name" v="Blæterhaugdalen" />
		<tag k="natural" v="valley" />
		<tag k="place" v="locality" />
		<tag k="ssr:stedsnr" v="94827" />
	</node>
	<node lat="63.04694166376447" lon="10.393880560618513" id="-39535">
		<tag k="name" v="Vargdalen" />
		<tag k="natural" v="valley" />
		<tag k="place" v="locality" />
		<tag k="ssr:stedsnr" v="94834" />
	</node>
	<node lat="62.90935832962674" lon="10.750505558038542" id="-39536">
		<tag k="name" v="Ørtslættmoan" />
		<tag k="place" v="locality" />
		<tag k="ssr:stedsnr" v="94838" />
	</node>
	<node lat="63.001441670499624" lon="10.034991672338187" id="-39543">
		<tag k="name" v="Stordalen" />
		<tag k="natural" v="valley" />
		<tag k="place" v="locality" />
		<tag k="ssr:stedsnr" v="94708" />
	</node>
	<node lat="62.99854999793384" lon="10.066225006633871" id="-39544">
		<tag k="fixme" v="consider natural=peak for the most distinct mountains in the district" />
		<tag k="name" v="Svartgjartrud" />
		<tag k="natural" v="hill" />
		<tag k="place" v="locality" />
		<tag k="ssr:stedsnr" v="94711" />
	</node>
	<node lat="63.012269445857676" lon="10.055977776474524" id="-39545">
		<tag k="name" v="Langdalen" />
		<tag k="natural" v="valley" />
		<tag k="place" v="locality" />
		<tag k="ssr:stedsnr" v="94713" />
	</node>
	<node lat="62.98045277574293" lon="10.867019449426424" id="-39549">
		<tag k="name" v="Kåsin" />
		<tag k="natural" v="slope" />
		<tag k="place" v="locality" />
		<tag k="ssr:stedsnr" v="94922" />
	</node>
	<node lat="62.70221388669344" lon="10.772836112257236" id="-39558">
		<tag k="fixme" v="consider natural=peak for the most distinct mountains in the district" />
		<tag k="name" v="Storsalen" />
		<tag k="natural" v="hill" />
		<tag k="place" v="locality" />
		<tag k="ssr:stedsnr" v="132009" />
	</node>
	<node lat="62.66567778171734" lon="10.749524990533484" id="-39559">
		<tag k="fixme" v="consider natural=peak for the most distinct mountains in the district" />
		<tag k="name" v="Storfjellet" />
		<tag k="natural" v="hill" />
		<tag k="place" v="locality" />
		<tag k="ssr:stedsnr" v="132207" />
	</node>
	<node lat="62.76268055649556" lon="10.384772224434968" id="-39560">
		<tag k="alt_name" v="Risknappen" />
		<tag k="fixme" v="consider natural=peak for the most distinct mountains in the district" />
		<tag k="name" v="Risknappan" />
		<tag k="natural" v="hill" />
		<tag k="place" v="locality" />
		<tag k="ssr:stedsnr" v="132412" />
	</node>
	<node lat="63.00542500444804" lon="10.250666668871402" id="-39564">
		<tag k="fixme" v="consider natural=peak for the most distinct mountains in the district" />
		<tag k="name" v="Storskaråsen" />
		<tag k="natural" v="hill" />
		<tag k="place" v="locality" />
		<tag k="ssr:stedsnr" v="133020" />
	</node>
	<node lat="63.00025000347331" lon="10.361752778931569" id="-39565">
		<tag k="name" v="Gammelsæterlia" />
		<tag k="natural" v="slope" />
		<tag k="place" v="locality" />
		<tag k="ssr:stedsnr" v="133022" />
	</node>
	<node lat="62.79580000275075" lon="10.580986109741458" id="-39571">
		<tag k="name" v="Sæterlia" />
		<tag k="natural" v="slope" />
		<tag k="place" v="locality" />
		<tag k="ssr:stedsnr" v="133270" />
	</node>
	<node lat="63.117580554601695" lon="10.6758777728429" id="-39577">
		<tag k="fixme" v="consider natural=peak for the most distinct mountains in the district" />
		<tag k="name" v="Ballknippen" />
		<tag k="natural" v="hill" />
		<tag k="place" v="locality" />
		<tag k="ssr:stedsnr" v="133820" />
	</node>
	<node lat="62.919861113582634" lon="10.274744448332848" id="-39582">
		<tag k="fixme" v="consider natural=peak for the most distinct mountains in the district" />
		<tag k="name" v="Åseldkamben" />
		<tag k="natural" v="hill" />
		<tag k="place" v="locality" />
		<tag k="ssr:stedsnr" v="134757" />
	</node>
	<node lat="63.00506944821088" lon="10.36394999294573" id="-39583">
		<tag k="name" v="Kalvberget" />
		<tag k="natural" v="hill" />
		<tag k="place" v="locality" />
		<tag k="ssr:stedsnr" v="254030" />
	</node>
	<node lat="62.7408611108302" lon="10.804830557830083" id="-39584">
		<tag k="name" v="Tullhøgdin" />
		<tag k="natural" v="hill" />
		<tag k="place" v="locality" />
		<tag k="ssr:stedsnr" v="254040" />
	</node>
	<node lat="62.84315277834904" lon="10.747816676326137" id="-39589">
		<tag k="name" v="Storsnøfonna" />
		<tag k="natural" v="valley" />
		<tag k="place" v="locality" />
		<tag k="ssr:stedsnr" v="255093" />
	</node>
	<node lat="62.825155551624526" lon="10.779288885445533" id="-39591">
		<tag k="fixme" v="consider natural=peak for the most distinct mountains in the district" />
		<tag k="name" v="Sømmulkneppen" />
		<tag k="natural" v="hill" />
		<tag k="place" v="locality" />
		<tag k="ssr:stedsnr" v="255046" />
	</node>
	<node lat="62.761166666773796" lon="10.516552774424042" id="-39592">
		<tag k="name" v="Skarvdalen" />
		<tag k="natural" v="valley" />
		<tag k="place" v="locality" />
		<tag k="ssr:stedsnr" v="255292" />
	</node>
	<node lat="62.789547218279715" lon="10.22831388967911" id="-39593">
		<tag k="name" v="Løbudalen" />
		<tag k="natural" v="valley" />
		<tag k="place" v="locality" />
		<tag k="ssr:stedsnr" v="255295" />
	</node>
	<node lat="62.84805000229684" lon="10.49885278209034" id="-39598">
		<tag k="fixme" v="consider natural=peak for the most distinct mountains in the district" />
		<tag k="name" v="Litlåsen" />
		<tag k="natural" v="hill" />
		<tag k="place" v="locality" />
		<tag k="ssr:stedsnr" v="255344" />
	</node>
	<node lat="62.83719444645035" lon="10.405908339838241" id="-39599">
		<tag k="fixme" v="consider natural=peak for the most distinct mountains in the district" />
		<tag k="name" v="Maureggfjellet" />
		<tag k="natural" v="hill" />
		<tag k="place" v="locality" />
		<tag k="ssr:stedsnr" v="255348" />
	</node>
	<node lat="62.85638055472215" lon="10.625233327325521" id="-39601">
		<tag k="fixme" v="consider natural=peak for the most distinct mountains in the district" />
		<tag k="name" v="Tåvåfjellet" />
		<tag k="natural" v="hill" />
		<tag k="place" v="locality" />
		<tag k="ssr:stedsnr" v="255358" />
	</node>
	<node lat="62.91184721833287" lon="10.734500000547067" id="-39603">
		<tag k="name" v="Herjådalen" />
		<tag k="natural" v="valley" />
		<tag k="place" v="locality" />
		<tag k="ssr:stedsnr" v="255383" />
	</node>
	<node lat="62.94960277953617" lon="10.920136117422022" id="-39605">
		<tag k="fixme" v="consider natural=peak for the most distinct mountains in the district" />
		<tag k="name" v="Høgåsen" />
		<tag k="natural" v="hill" />
		<tag k="place" v="locality" />
		<tag k="ssr:stedsnr" v="255433" />
	</node>
	<node lat="62.96674722373435" lon="10.523941670290798" id="-39613">
		<tag k="fixme" v="consider natural=peak for the most distinct mountains in the district" />
		<tag k="name" v="Liaåsen" />
		<tag k="natural" v="hill" />
		<tag k="place" v="locality" />
		<tag k="ssr:stedsnr" v="255539" />
	</node>
	<node lat="62.99595833666125" lon="10.260611102930355" id="-39617">
		<tag k="name" v="Haukdalen" />
		<tag k="natural" v="valley" />
		<tag k="place" v="locality" />
		<tag k="ssr:stedsnr" v="255629" />
	</node>
	<node lat="62.896455557992844" lon="10.535580547886449" id="-39622">
		<tag k="fixme" v="consider natural=peak for the most distinct mountains in the district" />
		<tag k="name" v="Beggåsen" />
		<tag k="natural" v="hill" />
		<tag k="place" v="locality" />
		<tag k="ssr:stedsnr" v="255660" />
	</node>
	<node lat="62.9185722224362" lon="10.532641676441749" id="-39627">
		<tag k="name" v="Kjølslættet" />
		<tag k="place" v="locality" />
		<tag k="ssr:stedsnr" v="255759" />
	</node>
	<node lat="62.84468055292525" lon="10.158633341145345" id="-39631">
		<tag k="fixme" v="consider natural=peak for the most distinct mountains in the district" />
		<tag k="name" v="Svartåsen" />
		<tag k="natural" v="hill" />
		<tag k="place" v="locality" />
		<tag k="ssr:stedsnr" v="255940" />
	</node>
	<node lat="63.00201944165998" lon="10.252708333434075" id="-39643">
		<tag k="fixme" v="consider natural=peak for the most distinct mountains in the district" />
		<tag k="name" v="Kvitbergåsen" />
		<tag k="natural" v="hill" />
		<tag k="place" v="locality" />
		<tag k="ssr:stedsnr" v="153375" />
	</node>
	<node lat="62.95092499623337" lon="10.326813889261988" id="-39644">
		<tag k="name" v="Aunlidalen" />
		<tag k="natural" v="valley" />
		<tag k="place" v="locality" />
		<tag k="ssr:stedsnr" v="154003" />
	</node>
	<node lat="62.89481666438227" lon="10.30916388291175" id="-39649">
		<tag k="name" v="Killingmoan" />
		<tag k="place" v="locality" />
		<tag k="ssr:stedsnr" v="154313" />
	</node>
	<node lat="62.79120833742599" lon="10.44189444082108" id="-39651">
		<tag k="name" v="Skansgrubbon" />
		<tag k="natural" v="hill" />
		<tag k="place" v="locality" />
		<tag k="ssr:stedsnr" v="154320" />
	</node>
	<node lat="62.97758611467762" lon="10.234063897395679" id="-39656">
		<tag k="name" v="Berghammaren" />
		<tag k="natural" v="hill" />
		<tag k="place" v="locality" />
		<tag k="ssr:stedsnr" v="154342" />
	</node>
	<node lat="62.93079444590725" lon="10.959691672685292" id="-39661">
		<tag k="name" v="Sønnerdalen" />
		<tag k="natural" v="valley" />
		<tag k="place" v="locality" />
		<tag k="ssr:stedsnr" v="154248" />
	</node>
	<node lat="62.736188891511866" lon="10.685161105715949" id="-39662">
		<tag k="name" v="Skrøbakkan" />
		<tag k="natural" v="slope" />
		<tag k="place" v="locality" />
		<tag k="ssr:stedsnr" v="154256" />
	</node>
	<node lat="62.87454444800133" lon="10.444505556619172" id="-39663">
		<tag k="name" v="Sætermoen" />
		<tag k="place" v="locality" />
		<tag k="ssr:stedsnr" v="154449" />
	</node>
	<node lat="62.99107222196154" lon="10.51364444416347" id="-39676">
		<tag k="name" v="Kjellklevan" />
		<tag k="natural" v="valley" />
		<tag k="place" v="locality" />
		<tag k="ssr:stedsnr" v="154630" />
	</node>
	<node lat="62.977049997569345" lon="10.54912778257836" id="-39679">
		<tag k="name" v="Rognlia" />
		<tag k="natural" v="slope" />
		<tag k="place" v="locality" />
		<tag k="ssr:stedsnr" v="154635" />
	</node>
	<node lat="62.99616388877202" lon="10.552991658217133" id="-39683">
		<tag k="name" v="Hegglia" />
		<tag k="natural" v="slope" />
		<tag k="place" v="locality" />
		<tag k="ssr:stedsnr" v="154659" />
	</node>
	<node lat="62.91098611224498" lon="10.105502778482867" id="-39684">
		<tag k="name" v="Storlia" />
		<tag k="natural" v="slope" />
		<tag k="place" v="locality" />
		<tag k="ssr:stedsnr" v="154664" />
	</node>
	<node lat="62.99969999659095" lon="10.488930553703872" id="-39685">
		<tag k="name" v="Storlia" />
		<tag k="natural" v="slope" />
		<tag k="place" v="locality" />
		<tag k="ssr:stedsnr" v="154667" />
	</node>
	<node lat="62.83373610783391" lon="10.510586112856304" id="-39687">
		<tag k="fixme" v="consider natural=peak for the most distinct mountains in the district" />
		<tag k="name" v="Kjønnåsåsen" />
		<tag k="natural" v="hill" />
		<tag k="place" v="locality" />
		<tag k="ssr:stedsnr" v="154348" />
	</node>
	<node lat="62.88381944661161" lon="10.51952499613198" id="-39689">
		<tag k="name" v="Fjølabuslættet" />
		<tag k="place" v="locality" />
		<tag k="ssr:stedsnr" v="154512" />
	</node>
	<node lat="62.85585278173846" lon="10.475844437033281" id="-39691">
		<tag k="fixme" v="consider natural=peak for the most distinct mountains in the district" />
		<tag k="name" v="Bjørnvollåsen" />
		<tag k="natural" v="hill" />
		<tag k="place" v="locality" />
		<tag k="ssr:stedsnr" v="154550" />
	</node>
	<node lat="62.85354444634342" lon="10.48838055680892" id="-39692">
		<tag k="name" v="Bergholsletta" />
		<tag k="place" v="locality" />
		<tag k="ssr:stedsnr" v="154553" />
	</node>
	<node lat="62.788744443831135" lon="10.636894447217102" id="-39695">
		<tag k="name" v="Løengbua" />
		<tag k="natural" v="slope" />
		<tag k="place" v="locality" />
		<tag k="ssr:stedsnr" v="154702" />
	</node>
	<node lat="62.89384444314232" lon="10.453338891997463" id="-39696">
		<tag k="name" v="Bjørklia" />
		<tag k="natural" v="slope" />
		<tag k="place" v="locality" />
		<tag k="ssr:stedsnr" v="154707" />
	</node>
	<node lat="62.90818888724576" lon="10.683430561374513" id="-39698">
		<tag k="name" v="Skavlia" />
		<tag k="natural" v="slope" />
		<tag k="place" v="locality" />
		<tag k="ssr:stedsnr" v="154711" />
	</node>
	<node lat="62.89956111559788" lon="10.665733335361562" id="-39699">
		<tag k="fixme" v="consider natural=peak for the most distinct mountains in the district" />
		<tag k="name" v="Tjønnåsen" />
		<tag k="natural" v="hill" />
		<tag k="place" v="locality" />
		<tag k="ssr:stedsnr" v="154712" />
	</node>
	<node lat="62.90444167087054" lon="10.673352774522646" id="-39701">
		<tag k="fixme" v="consider natural=peak for the most distinct mountains in the district" />
		<tag k="name" v="Storvollåsen" />
		<tag k="natural" v="hill" />
		<tag k="place" v="locality" />
		<tag k="ssr:stedsnr" v="154715" />
	</node>
	<node lat="62.93201111496134" lon="10.631386119879851" id="-39702">
		<tag k="name" v="Litlvolldalan" />
		<tag k="natural" v="valley" />
		<tag k="place" v="locality" />
		<tag k="ssr:stedsnr" v="154722" />
	</node>
	<node lat="62.87476666852841" lon="10.677947219373085" id="-39703">
		<tag k="name" v="Ravåslættet" />
		<tag k="natural" v="slope" />
		<tag k="place" v="locality" />
		<tag k="ssr:stedsnr" v="154699" />
	</node>
	<node lat="62.93971111509076" lon="10.050122212848706" id="-39705">
		<tag k="name" v="Saltlia" />
		<tag k="natural" v="slope" />
		<tag k="place" v="locality" />
		<tag k="ssr:stedsnr" v="154855" />
	</node>
	<node lat="62.95881944019415" lon="10.90947500037089" id="-39709">
		<tag k="name" v="Kjelldalen" />
		<tag k="natural" v="valley" />
		<tag k="place" v="locality" />
		<tag k="ssr:stedsnr" v="154861" />
	</node>
	<node lat="62.81393888578762" lon="10.209613898254897" id="-39710">
		<tag k="name" v="Johansdalen" />
		<tag k="natural" v="valley" />
		<tag k="place" v="locality" />
		<tag k="ssr:stedsnr" v="154867" />
	</node>
	<node lat="62.85460833513875" lon="10.761394436666592" id="-39713">
		<tag k="name" v="Rabben" />
		<tag k="natural" v="ridge" />
		<tag k="place" v="locality" />
		<tag k="ssr:stedsnr" v="154799" />
	</node>
	<node lat="62.86811666501595" lon="10.239263895899786" id="-39714">
		<tag k="name" v="Moshaugen" />
		<tag k="natural" v="hill" />
		<tag k="place" v="locality" />
		<tag k="ssr:stedsnr" v="154800" />
	</node>
	<node lat="63.04006597787694" lon="10.285456777271751" id="-39718">
		<tag k="name" v="Svartøymoen" />
		<tag k="place" v="locality" />
		<tag k="ssr:stedsnr" v="154921" />
	</node>
	<node lat="63.02722500108015" lon="10.236700004762627" id="-39719">
		<tag k="name" v="Nyløkkjbakkan" />
		<tag k="natural" v="slope" />
		<tag k="place" v="locality" />
		<tag k="ssr:stedsnr" v="154952" />
	</node>
	<node lat="62.969770736222735" lon="10.196265594816957" id="-39727">
		<tag k="name" v="Sokndalen" />
		<tag k="natural" v="valley" />
		<tag k="place" v="locality" />
		<tag k="ssr:stedsnr" v="179971" />
	</node>
	<node lat="62.99776666824184" lon="10.962905546776279" id="-39728">
		<tag k="fixme" v="consider natural=peak for the most distinct mountains in the district" />
		<tag k="name" v="Mortenfjellet" />
		<tag k="natural" v="hill" />
		<tag k="place" v="locality" />
		<tag k="ssr:stedsnr" v="263413" />
	</node>
	<node lat="62.932158330165215" lon="10.552777774850183" id="-39730">
		<tag k="fixme" v="consider natural=peak for the most distinct mountains in the district" />
		<tag k="name" v="Vindtjønnåsen" />
		<tag k="natural" v="hill" />
		<tag k="place" v="locality" />
		<tag k="ssr:stedsnr" v="195731" />
	</node>
	<node lat="65.11002777597567" lon="13.085422216082504" id="-39731">
		<tag k="fixme" v="consider natural=peak for the most distinct mountains in the district" />
		<tag k="name" v="Kløftfjellet - Sloeptjenguevtele" />
		<tag k="name:no" v="Kløftfjellet" />
		<tag k="name:sma" v="Sloeptjenguevtele" />
		<tag k="natural" v="hill" />
		<tag k="place" v="locality" />
		<tag k="ssr:stedsnr" v="196523" />
	</node>
	<node lat="62.87852778193358" lon="10.700766669240325" id="-39732">
		<tag k="fixme" v="consider natural=peak for the most distinct mountains in the district" />
		<tag k="name" v="Foroddåsen" />
		<tag k="natural" v="hill" />
		<tag k="place" v="locality" />
		<tag k="ssr:stedsnr" v="202555" />
	</node>
	<node lat="62.91421389100485" lon="10.252369444888147" id="-39736">
		<tag k="name" v="Høløhaugen" />
		<tag k="natural" v="hill" />
		<tag k="place" v="locality" />
		<tag k="ssr:stedsnr" v="215013" />
	</node>
	<node lat="63.038161107103384" lon="10.329863894469604" id="-39737">
		<tag k="name" v="Aunberga" />
		<tag k="natural" v="hill" />
		<tag k="place" v="locality" />
		<tag k="ssr:stedsnr" v="215109" />
	</node>
	<node lat="62.84437222283017" lon="10.46149445250999" id="-39738">
		<tag k="name" v="Klopphaugen" />
		<tag k="natural" v="hill" />
		<tag k="place" v="locality" />
		<tag k="ssr:stedsnr" v="215176" />
	</node>
	<node lat="62.97685555566218" lon="10.217738889026766" id="-39742">
		<tag k="name" v="Løkkjplassen" />
		<tag k="place" v="locality" />
		<tag k="ssr:stedsnr" v="215305" />
	</node>
	<node lat="62.784008330633334" lon="10.571102774464538" id="-39744">
		<tag k="name" v="Gruvdalen" />
		<tag k="natural" v="valley" />
		<tag k="place" v="locality" />
		<tag k="ssr:stedsnr" v="215324" />
	</node>
	<node lat="62.81936388954533" lon="10.511902774765494" id="-39746">
		<tag k="name" v="Stakkstolia" />
		<tag k="natural" v="slope" />
		<tag k="place" v="locality" />
		<tag k="ssr:stedsnr" v="215331" />
	</node>
	<node lat="62.92222777493264" lon="10.119566673771017" id="-39747">
		<tag k="name" v="Åkerlilia" />
		<tag k="natural" v="slope" />
		<tag k="place" v="locality" />
		<tag k="ssr:stedsnr" v="215332" />
	</node>
	<node lat="62.92583055344953" lon="10.262749991302774" id="-39748">
		<tag k="fixme" v="consider natural=peak for the most distinct mountains in the district" />
		<tag k="name" v="Hømnløkkjåsen" />
		<tag k="natural" v="hill" />
		<tag k="place" v="locality" />
		<tag k="ssr:stedsnr" v="215023" />
	</node>
	<node lat="62.964947226603115" lon="10.21617222093077" id="-39750">
		<tag k="name" v="Innleggberga" />
		<tag k="natural" v="hill" />
		<tag k="place" v="locality" />
		<tag k="ssr:stedsnr" v="215084" />
	</node>
	<node lat="62.959122220424845" lon="10.224558338637271" id="-39751">
		<tag k="name" v="Holtbrautsberga" />
		<tag k="natural" v="hill" />
		<tag k="place" v="locality" />
		<tag k="ssr:stedsnr" v="215088" />
	</node>
	<node lat="62.9613083322916" lon="10.239227773571885" id="-39752">
		<tag k="name" v="Løkkjlia" />
		<tag k="natural" v="slope" />
		<tag k="place" v="locality" />
		<tag k="ssr:stedsnr" v="215091" />
	</node>
	<node lat="62.73625555173442" lon="10.681716664177372" id="-39755">
		<tag k="name" v="Kvilplassen" />
		<tag k="natural" v="slope" />
		<tag k="place" v="locality" />
		<tag k="ssr:stedsnr" v="215215" />
	</node>
	<node lat="62.85857499600928" lon="10.301163886906668" id="-39758">
		<tag k="fixme" v="consider natural=peak for the most distinct mountains in the district" />
		<tag k="name" v="Seteråsen V" />
		<tag k="natural" v="hill" />
		<tag k="place" v="locality" />
		<tag k="ssr:stedsnr" v="215277" />
	</node>
	<node lat="62.98491944847" lon="10.403555550202206" id="-39762">
		<tag k="name" v="Ølshavdliin" />
		<tag k="natural" v="slope" />
		<tag k="place" v="locality" />
		<tag k="ssr:stedsnr" v="215375" />
	</node>
	<node lat="62.90188611438928" lon="10.241997212908899" id="-39763">
		<tag k="name" v="Jenshaugen" />
		<tag k="natural" v="hill" />
		<tag k="place" v="locality" />
		<tag k="ssr:stedsnr" v="215383" />
	</node>
	<node lat="62.87154722674826" lon="10.55364443553283" id="-39764">
		<tag k="name" v="Tågåtangen" />
		<tag k="natural" v="ridge" />
		<tag k="place" v="locality" />
		<tag k="ssr:stedsnr" v="215508" />
	</node>
	<node lat="62.881308334646384" lon="10.533391673783067" id="-39765">
		<tag k="name" v="Tørshaugen" />
		<tag k="natural" v="hill" />
		<tag k="place" v="locality" />
		<tag k="ssr:stedsnr" v="215509" />
	</node>
	<node lat="62.87362499846887" lon="10.475499996510882" id="-39766">
		<tag k="fixme" v="consider natural=peak for the most distinct mountains in the district" />
		<tag k="name" v="Høgåsen" />
		<tag k="natural" v="hill" />
		<tag k="place" v="locality" />
		<tag k="ssr:stedsnr" v="215525" />
	</node>
	<node lat="62.94910277715092" lon="10.57287222349019" id="-39769">
		<tag k="name" v="Haugen" />
		<tag k="natural" v="hill" />
		<tag k="place" v="locality" />
		<tag k="ssr:stedsnr" v="215574" />
	</node>
	<node lat="62.973974998014995" lon="10.574769439019748" id="-39772">
		<tag k="fixme" v="consider natural=peak for the most distinct mountains in the district" />
		<tag k="name" v="Brennan" />
		<tag k="natural" v="hill" />
		<tag k="place" v="locality" />
		<tag k="ssr:stedsnr" v="215579" />
	</node>
	<node lat="62.98288889076787" lon="10.46716388986767" id="-39776">
		<tag k="name" v="Storrønningen" />
		<tag k="natural" v="slope" />
		<tag k="place" v="locality" />
		<tag k="ssr:stedsnr" v="215585" />
	</node>
	<node lat="62.96623889046595" lon="10.519472214556632" id="-39777">
		<tag k="name" v="Lyngdalen" />
		<tag k="natural" v="valley" />
		<tag k="place" v="locality" />
		<tag k="ssr:stedsnr" v="215590" />
	</node>
	<node lat="62.91694722196161" lon="10.640955554546286" id="-39780">
		<tag k="name" v="Krokøyan" />
		<tag k="natural" v="slope" />
		<tag k="place" v="locality" />
		<tag k="ssr:stedsnr" v="215709" />
	</node>
	<node lat="63.00107778110145" lon="10.195691666746363" id="-39781">
		<tag k="fixme" v="consider natural=peak for the most distinct mountains in the district" />
		<tag k="name" v="Brennfjellet" />
		<tag k="natural" v="hill" />
		<tag k="place" v="locality" />
		<tag k="ssr:stedsnr" v="215712" />
	</node>
	<node lat="63.00206388844278" lon="10.0645333424005" id="-39782">
		<tag k="name" v="Klevslættet" />
		<tag k="natural" v="slope" />
		<tag k="place" v="locality" />
		<tag k="ssr:stedsnr" v="215715" />
	</node>
	<node lat="63.02056666578641" lon="10.190774995146858" id="-39783">
		<tag k="fixme" v="consider natural=peak for the most distinct mountains in the district" />
		<tag k="name" v="Nørder Fjelløkkja" />
		<tag k="natural" v="hill" />
		<tag k="place" v="locality" />
		<tag k="ssr:stedsnr" v="215723" />
	</node>
	<node lat="63.02286666484919" lon="10.188394439010338" id="-39784">
		<tag k="name" v="Skardet" />
		<tag k="natural" v="valley" />
		<tag k="place" v="locality" />
		<tag k="ssr:stedsnr" v="215727" />
	</node>
	<node lat="62.95093610783768" lon="10.65980556266417" id="-39785">
		<tag k="fixme" v="consider natural=peak for the most distinct mountains in the district" />
		<tag k="name" v="Håmmåråsen" />
		<tag k="natural" v="hill" />
		<tag k="place" v="locality" />
		<tag k="ssr:stedsnr" v="215728" />
	</node>
	<node lat="63.034000001800756" lon="10.174116659359823" id="-39786">
		<tag k="name" v="Snøansdalen" />
		<tag k="natural" v="valley" />
		<tag k="place" v="locality" />
		<tag k="ssr:stedsnr" v="215730" />
	</node>
	<node lat="62.993680555006826" lon="10.265227787110303" id="-39788">
		<tag k="name" v="Småberga" />
		<tag k="natural" v="hill" />
		<tag k="place" v="locality" />
		<tag k="ssr:stedsnr" v="215423" />
	</node>
	<node lat="62.910427778843875" lon="10.50628333869728" id="-39791">
		<tag k="fixme" v="consider natural=peak for the most distinct mountains in the district" />
		<tag k="name" v="Buslættåsen" />
		<tag k="natural" v="hill" />
		<tag k="place" v="locality" />
		<tag k="ssr:stedsnr" v="215481" />
	</node>
	<node lat="62.98794166254289" lon="10.48620832981893" id="-39796">
		<tag k="fixme" v="consider natural=peak for the most distinct mountains in the district" />
		<tag k="name" v="Langåsen" />
		<tag k="natural" v="hill" />
		<tag k="place" v="locality" />
		<tag k="ssr:stedsnr" v="215603" />
	</node>
	<node lat="62.983963886947286" lon="10.546783329402897" id="-39799">
		<tag k="name" v="Gauldalssletta" />
		<tag k="place" v="locality" />
		<tag k="ssr:stedsnr" v="215614" />
	</node>
	<node lat="63.02772778116332" lon="10.587636117604593" id="-39800">
		<tag k="name" v="Lebrandhaugen" />
		<tag k="natural" v="hill" />
		<tag k="place" v="locality" />
		<tag k="ssr:stedsnr" v="215625" />
	</node>
	<node lat="63.01842778111099" lon="10.2513916748468" id="-39801">
		<tag k="fixme" v="consider natural=peak for the most distinct mountains in the district" />
		<tag k="name" v="Kamben" />
		<tag k="natural" v="hill" />
		<tag k="place" v="locality" />
		<tag k="ssr:stedsnr" v="215626" />
	</node>
	<node lat="62.908758335026214" lon="10.123894454036922" id="-39802">
		<tag k="name" v="Fagerlia" />
		<tag k="natural" v="slope" />
		<tag k="place" v="locality" />
		<tag k="ssr:stedsnr" v="215630" />
	</node>
	<node lat="62.894469444276055" lon="10.660119436779816" id="-39804">
		<tag k="name" v="Fjell-lia" />
		<tag k="natural" v="slope" />
		<tag k="place" v="locality" />
		<tag k="ssr:stedsnr" v="215681" />
	</node>
	<node lat="62.898627778806734" lon="10.634261103562586" id="-39805">
		<tag k="name" v="Klevslåtten" />
		<tag k="natural" v="slope" />
		<tag k="place" v="locality" />
		<tag k="ssr:stedsnr" v="215688" />
	</node>
	<node lat="62.91495555270036" lon="10.734674997458518" id="-39807">
		<tag k="name" v="Håggådalen" />
		<tag k="natural" v="valley" />
		<tag k="place" v="locality" />
		<tag k="ssr:stedsnr" v="215822" />
	</node>
	<node lat="62.92756944162417" lon="10.730880556779763" id="-39808">
		<tag k="name" v="Gjetberget" />
		<tag k="natural" v="hill" />
		<tag k="place" v="locality" />
		<tag k="ssr:stedsnr" v="215829" />
	</node>
	<node lat="62.957827780957935" lon="10.93961388024276" id="-39809">
		<tag k="name" v="Langåsdalen" />
		<tag k="natural" v="valley" />
		<tag k="place" v="locality" />
		<tag k="ssr:stedsnr" v="215873" />
	</node>
	<node lat="62.942400001963755" lon="10.884052771149854" id="-39812">
		<tag k="name" v="Spranget" />
		<tag k="place" v="locality" />
		<tag k="ssr:stedsnr" v="215880" />
	</node>
	<node lat="62.88006944608441" lon="10.169924994825159" id="-39814">
		<tag k="name" v="Lia" />
		<tag k="natural" v="slope" />
		<tag k="place" v="locality" />
		<tag k="ssr:stedsnr" v="215885" />
	</node>
	<node lat="62.91017499640719" lon="10.191966670449519" id="-39816">
		<tag k="name" v="Ulvstuu" />
		<tag k="natural" v="hill" />
		<tag k="place" v="locality" />
		<tag k="ssr:stedsnr" v="215887" />
	</node>
	<node lat="63.002802778772974" lon="10.663922225221324" id="-39818">
		<tag k="name" v="Vollslættet" />
		<tag k="place" v="locality" />
		<tag k="ssr:stedsnr" v="215780" />
	</node>
	<node lat="62.909900002808946" lon="10.718058330626908" id="-39819">
		<tag k="fixme" v="consider natural=peak for the most distinct mountains in the district" />
		<tag k="name" v="Vollåsen" />
		<tag k="natural" v="hill" />
		<tag k="place" v="locality" />
		<tag k="ssr:stedsnr" v="215782" />
	</node>
	<node lat="62.87503333626127" lon="10.775905548707238" id="-39820">
		<tag k="name" v="Hermolian" />
		<tag k="natural" v="slope" />
		<tag k="place" v="locality" />
		<tag k="ssr:stedsnr" v="215783" />
	</node>
	<node lat="62.8707222250307" lon="10.731224996036065" id="-39822">
		<tag k="name" v="Moan" />
		<tag k="place" v="locality" />
		<tag k="ssr:stedsnr" v="215788" />
	</node>
	<node lat="62.97319999805739" lon="10.38485278558232" id="-39827">
		<tag k="name" v="Sløgda" />
		<tag k="natural" v="valley" />
		<tag k="place" v="locality" />
		<tag k="ssr:stedsnr" v="215973" />
	</node>
	<node lat="62.842988892231126" lon="10.827430553724094" id="-39849">
		<tag k="name" v="Storbekkdalen" />
		<tag k="natural" v="valley" />
		<tag k="place" v="locality" />
		<tag k="ssr:stedsnr" v="255107" />
	</node>
	<node lat="62.87439722156495" lon="10.746449994938555" id="-39850">
		<tag k="fixme" v="consider natural=peak for the most distinct mountains in the district" />
		<tag k="name" v="Skarpkneppen" />
		<tag k="natural" v="hill" />
		<tag k="place" v="locality" />
		<tag k="ssr:stedsnr" v="255118" />
	</node>
	<node lat="62.803511112397025" lon="10.585244435786274" id="-39851">
		<tag k="fixme" v="consider natural=peak for the most distinct mountains in the district" />
		<tag k="name" v="Sæteråsen" />
		<tag k="natural" v="hill" />
		<tag k="place" v="locality" />
		<tag k="ssr:stedsnr" v="255309" />
	</node>
	<node lat="62.75304444805435" lon="10.361097217183099" id="-39853">
		<tag k="fixme" v="consider natural=peak for the most distinct mountains in the district" />
		<tag k="name" v="Haukfjellet" />
		<tag k="natural" v="hill" />
		<tag k="place" v="locality" />
		<tag k="ssr:stedsnr" v="255268" />
	</node>
	<node lat="62.92836666291396" lon="10.767172217834297" id="-39855">
		<tag k="fixme" v="consider natural=peak for the most distinct mountains in the district" />
		<tag k="name" v="Tovåsen" />
		<tag k="natural" v="hill" />
		<tag k="place" v="locality" />
		<tag k="ssr:stedsnr" v="255414" />
	</node>
	<node lat="62.980394441278904" lon="10.383402774402175" id="-39860">
		<tag k="name" v="Ølshavden" />
		<tag k="natural" v="hill" />
		<tag k="place" v="locality" />
		<tag k="ssr:stedsnr" v="255518" />
	</node>
	<node lat="62.87645277618195" lon="10.417480549382761" id="-39864">
		<tag k="name" v="Tjønnlihøgda" />
		<tag k="natural" v="hill" />
		<tag k="place" v="locality" />
		<tag k="ssr:stedsnr" v="255663" />
	</node>
	<node lat="63.019424998978494" lon="10.01257776920657" id="-39865">
		<tag k="fixme" v="consider natural=peak for the most distinct mountains in the district" />
		<tag k="name" v="Godtjønnfjellet" />
		<tag k="natural" v="hill" />
		<tag k="place" v="locality" />
		<tag k="ssr:stedsnr" v="255664" />
	</node>
	<node lat="62.88651111016924" lon="10.428725005972979" id="-39866">
		<tag k="fixme" v="consider natural=peak for the most distinct mountains in the district" />
		<tag k="name" v="Svarfjellet" />
		<tag k="natural" v="hill" />
		<tag k="place" v="locality" />
		<tag k="ssr:stedsnr" v="255667" />
	</node>
	<node lat="63.02093055907383" lon="10.628038886554377" id="-39873">
		<tag k="fixme" v="consider natural=peak for the most distinct mountains in the district" />
		<tag k="name" v="Litjburufjellet" />
		<tag k="natural" v="hill" />
		<tag k="place" v="locality" />
		<tag k="ssr:stedsnr" v="255963" />
	</node>
	<node lat="63.01545555594768" lon="10.510005565421848" id="-39875">
		<tag k="alt_name" v="Stordalskamben" />
		<tag k="fixme" v="consider natural=peak for the most distinct mountains in the district" />
		<tag k="name" v="Stordalskammen" />
		<tag k="natural" v="hill" />
		<tag k="place" v="locality" />
		<tag k="ssr:stedsnr" v="255968" />
	</node>
	<node lat="62.97399166441328" lon="10.277758326214432" id="-39876">
		<tag k="name" v="Revhaugen" />
		<tag k="natural" v="hill" />
		<tag k="place" v="locality" />
		<tag k="ssr:stedsnr" v="458038" />
	</node>
	<node lat="62.98867222437689" lon="10.301738887023133" id="-39877">
		<tag k="fixme" v="consider natural=peak for the most distinct mountains in the district" />
		<tag k="name" v="Øver Brannhaugan" />
		<tag k="natural" v="hill" />
		<tag k="place" v="locality" />
		<tag k="ssr:stedsnr" v="458084" />
	</node>
	<node lat="62.96562777873659" lon="10.310527773971907" id="-39881">
		<tag k="fixme" v="consider natural=peak for the most distinct mountains in the district" />
		<tag k="name" v="Vassåsen" />
		<tag k="natural" v="hill" />
		<tag k="place" v="locality" />
		<tag k="ssr:stedsnr" v="458057" />
	</node>
	<node lat="62.84578611184218" lon="10.437822223698094" id="-39885">
		<tag k="name" v="Furruhaugen" />
		<tag k="natural" v="hill" />
		<tag k="place" v="locality" />
		<tag k="ssr:stedsnr" v="458145" />
	</node>
	<node lat="62.83053333705808" lon="10.439666662290204" id="-39886">
		<tag k="name" v="Hytthaugen" />
		<tag k="natural" v="hill" />
		<tag k="place" v="locality" />
		<tag k="ssr:stedsnr" v="458147" />
	</node>
	<node lat="62.88318333230301" lon="10.295780559442237" id="-39893">
		<tag k="name" v="Blæsterlia" />
		<tag k="natural" v="slope" />
		<tag k="place" v="locality" />
		<tag k="ssr:stedsnr" v="458269" />
	</node>
	<node lat="62.93309444349334" lon="10.958447227677814" id="-39895">
		<tag k="fixme" v="consider natural=peak for the most distinct mountains in the district" />
		<tag k="name" v="Kvernmovollpiken" />
		<tag k="natural" v="hill" />
		<tag k="place" v="locality" />
		<tag k="ssr:stedsnr" v="266732" />
	</node>
	<node lat="62.818158332949274" lon="10.588969443301057" id="-39896">
		<tag k="name" v="Lerbekkgrubba" />
		<tag k="natural" v="hill" />
		<tag k="place" v="locality" />
		<tag k="ssr:stedsnr" v="458329" />
	</node>
	<node lat="63.02541110885121" lon="10.439211105252621" id="-39899">
		<tag k="fixme" v="consider natural=peak for the most distinct mountains in the district" />
		<tag k="name" v="Ospåsen" />
		<tag k="natural" v="hill" />
		<tag k="place" v="locality" />
		<tag k="ssr:stedsnr" v="458335" />
	</node>
	<node lat="62.945880554295044" lon="10.55686944304539" id="-39905">
		<tag k="name" v="Gammelvoll-lia" />
		<tag k="natural" v="slope" />
		<tag k="place" v="locality" />
		<tag k="ssr:stedsnr" v="458426" />
	</node>
	<node lat="62.93624166584462" lon="10.56231388387057" id="-39906">
		<tag k="name" v="Vindtjønnbua" />
		<tag k="natural" v="hill" />
		<tag k="place" v="locality" />
		<tag k="ssr:stedsnr" v="458431" />
	</node>
	<node lat="62.98851666938372" lon="10.421186107241915" id="-39910">
		<tag k="name" v="Vakkerlia" />
		<tag k="natural" v="slope" />
		<tag k="place" v="locality" />
		<tag k="ssr:stedsnr" v="458378" />
	</node>
	<node lat="62.87395555408912" lon="10.256541672037413" id="-39911">
		<tag k="fixme" v="consider natural=peak for the most distinct mountains in the district" />
		<tag k="name" v="Saukamben" />
		<tag k="natural" v="hill" />
		<tag k="place" v="locality" />
		<tag k="ssr:stedsnr" v="458382" />
	</node>
	<node lat="62.85710000044225" lon="10.239325002850325" id="-39913">
		<tag k="name" v="Tjønnbakken" />
		<tag k="natural" v="slope" />
		<tag k="place" v="locality" />
		<tag k="ssr:stedsnr" v="458392" />
	</node>
	<node lat="62.95745277481761" lon="10.466908335518378" id="-39918">
		<tag k="name" v="Sagbakkan" />
		<tag k="natural" v="slope" />
		<tag k="place" v="locality" />
		<tag k="ssr:stedsnr" v="458584" />
	</node>
	<node lat="62.964852773554284" lon="10.467661120576913" id="-39920">
		<tag k="name" v="Brennon" />
		<tag k="natural" v="slope" />
		<tag k="place" v="locality" />
		<tag k="ssr:stedsnr" v="458586" />
	</node>
	<node lat="62.85302221792189" lon="10.499741670491716" id="-39921">
		<tag k="name" v="Løkkjlia" />
		<tag k="natural" v="slope" />
		<tag k="place" v="locality" />
		<tag k="ssr:stedsnr" v="458553" />
	</node>
	<node lat="62.889652773952896" lon="10.662600009476472" id="-39928">
		<tag k="fixme" v="consider natural=peak for the most distinct mountains in the district" />
		<tag k="name" v="Litlfjellet" />
		<tag k="natural" v="hill" />
		<tag k="place" v="locality" />
		<tag k="ssr:stedsnr" v="458675" />
	</node>
	<node lat="63.020091663318965" lon="10.581577773528696" id="-39931">
		<tag k="name" v="Nyseterlia" />
		<tag k="natural" v="slope" />
		<tag k="place" v="locality" />
		<tag k="ssr:stedsnr" v="458643" />
	</node>
	<node lat="62.98127777477708" lon="10.570591663945077" id="-39932">
		<tag k="name" v="Brottet" />
		<tag k="natural" v="slope" />
		<tag k="place" v="locality" />
		<tag k="ssr:stedsnr" v="458647" />
	</node>
	<node lat="63.02498610771762" lon="10.134880545970557" id="-39935">
		<tag k="name" v="Skjeftlia" />
		<tag k="natural" v="slope" />
		<tag k="place" v="locality" />
		<tag k="ssr:stedsnr" v="458686" />
	</node>
	<node lat="62.89415555325309" lon="10.650666674055104" id="-39938">
		<tag k="name" v="Saufloin" />
		<tag k="natural" v="slope" />
		<tag k="place" v="locality" />
		<tag k="ssr:stedsnr" v="458690" />
	</node>
	<node lat="62.90413055718537" lon="10.621052784508146" id="-39940">
		<tag k="name" v="Litlråa" />
		<tag k="place" v="locality" />
		<tag k="ssr:stedsnr" v="458692" />
	</node>
	<node lat="62.933011111263056" lon="10.640388893352391" id="-39941">
		<tag k="name" v="Styggdalen" />
		<tag k="natural" v="valley" />
		<tag k="place" v="locality" />
		<tag k="ssr:stedsnr" v="458696" />
	</node>
	<node lat="62.98592777353804" lon="10.607374993725603" id="-39943">
		<tag k="name" v="Åsvollen" />
		<tag k="natural" v="hill" />
		<tag k="place" v="locality" />
		<tag k="ssr:stedsnr" v="458760" />
	</node>
	<node lat="62.87535278227274" lon="10.723638890641253" id="-39946">
		<tag k="fixme" v="consider natural=peak for the most distinct mountains in the district" />
		<tag k="name" v="Bratteggin" />
		<tag k="natural" v="hill" />
		<tag k="place" v="locality" />
		<tag k="ssr:stedsnr" v="458777" />
	</node>
	<node lat="62.87288333609824" lon="10.74126665730441" id="-39947">
		<tag k="fixme" v="consider natural=peak for the most distinct mountains in the district" />
		<tag k="name" v="Brandåsen" />
		<tag k="natural" v="hill" />
		<tag k="place" v="locality" />
		<tag k="ssr:stedsnr" v="458780" />
	</node>
	<node lat="62.879900002837736" lon="10.720516659017557" id="-39948">
		<tag k="name" v="Småtovåsberga" />
		<tag k="natural" v="hill" />
		<tag k="place" v="locality" />
		<tag k="ssr:stedsnr" v="458781" />
	</node>
	<node lat="63.05688888900986" lon="10.367238889851796" id="-39949">
		<tag k="fixme" v="consider natural=peak for the most distinct mountains in the district" />
		<tag k="name" v="Langvassåsen" />
		<tag k="natural" v="hill" />
		<tag k="place" v="locality" />
		<tag k="ssr:stedsnr" v="458782" />
	</node>
	<node lat="62.86648552013762" lon="10.256718913759226" id="-39950">
		<tag k="name" v="Sommarvollbakken" />
		<tag k="natural" v="slope" />
		<tag k="place" v="locality" />
		<tag k="ssr:stedsnr" v="458792" />
	</node>
	<node lat="63.00616666861547" lon="10.606319443890282" id="-39952">
		<tag k="name" v="Storlia" />
		<tag k="natural" v="slope" />
		<tag k="place" v="locality" />
		<tag k="ssr:stedsnr" v="458799" />
	</node>
	<node lat="62.985744448214135" lon="10.69118610801755" id="-39958">
		<tag k="name" v="Brennon" />
		<tag k="place" v="locality" />
		<tag k="ssr:stedsnr" v="458751" />
	</node>
	<node lat="62.9434388886139" lon="10.147291676250639" id="-39961">
		<tag k="name" v="Ulvstuhaugan" />
		<tag k="natural" v="hill" />
		<tag k="place" v="locality" />
		<tag k="ssr:stedsnr" v="458843" />
	</node>
	<node lat="62.968519446892394" lon="10.831088884924352" id="-39962">
		<tag k="name" v="Storalvordalen" />
		<tag k="natural" v="valley" />
		<tag k="place" v="locality" />
		<tag k="ssr:stedsnr" v="458847" />
	</node>
	<node lat="63.01199166501943" lon="10.019725002372496" id="-39964">
		<tag k="fixme" v="consider natural=peak for the most distinct mountains in the district" />
		<tag k="name" v="Okskåsa" />
		<tag k="natural" v="hill" />
		<tag k="place" v="locality" />
		<tag k="ssr:stedsnr" v="458850" />
	</node>
	<node lat="62.94081666955714" lon="10.746461101992189" id="-39965">
		<tag k="name" v="Vassdalen" />
		<tag k="natural" v="valley" />
		<tag k="place" v="locality" />
		<tag k="ssr:stedsnr" v="458852" />
	</node>
	<node lat="62.938888887523476" lon="10.039700003475868" id="-39966">
		<tag k="fixme" v="consider natural=peak for the most distinct mountains in the district" />
		<tag k="name" v="Vassberga" />
		<tag k="natural" v="hill" />
		<tag k="place" v="locality" />
		<tag k="ssr:stedsnr" v="458853" />
	</node>
	<node lat="62.83284444666482" lon="10.207874992706264" id="-39969">
		<tag k="name" v="Øyadalen" />
		<tag k="natural" v="valley" />
		<tag k="place" v="locality" />
		<tag k="ssr:stedsnr" v="458881" />
	</node>
	<node lat="62.88626388871739" lon="10.162547227152075" id="-39972">
		<tag k="name" v="Seterhøgda" />
		<tag k="natural" v="hill" />
		<tag k="place" v="locality" />
		<tag k="ssr:stedsnr" v="458888" />
	</node>
	<node lat="62.978813890548686" lon="10.756183324866674" id="-39973">
		<tag k="name" v="Meslættet" />
		<tag k="place" v="locality" />
		<tag k="ssr:stedsnr" v="458893" />
	</node>
	<node lat="62.979761109974014" lon="10.912500005485624" id="-39976">
		<tag k="name" v="Branden" />
		<tag k="natural" v="slope" />
		<tag k="place" v="locality" />
		<tag k="ssr:stedsnr" v="458903" />
	</node>
	<node lat="62.976247220088084" lon="10.22668055619271" id="-39984">
		<tag k="name" v="Oddan" />
		<tag k="natural" v="slope" />
		<tag k="place" v="locality" />
		<tag k="ssr:stedsnr" v="275323" />
	</node>
	<node lat="62.914297221769196" lon="10.215274990470643" id="-39993">
		<tag k="name" v="Træningan" />
		<tag k="natural" v="slope" />
		<tag k="place" v="locality" />
		<tag k="ssr:stedsnr" v="276010" />
	</node>
	<node lat="62.901122219398125" lon="10.286241675697202" id="-40000">
		<tag k="name" v="Lomhaugan" />
		<tag k="natural" v="hill" />
		<tag k="place" v="locality" />
		<tag k="ssr:stedsnr" v="276038" />
	</node>
	<node lat="62.90906944610119" lon="10.281586111991347" id="-40004">
		<tag k="fixme" v="consider natural=peak for the most distinct mountains in the district" />
		<tag k="name" v="Svartåskjølen" />
		<tag k="natural" v="hill" />
		<tag k="place" v="locality" />
		<tag k="ssr:stedsnr" v="276044" />
	</node>
	<node lat="62.94860833353969" lon="10.29009722958449" id="-40009">
		<tag k="name" v="Kås-Odalen" />
		<tag k="natural" v="valley" />
		<tag k="place" v="locality" />
		<tag k="ssr:stedsnr" v="276080" />
	</node>
	<node lat="62.96026111520706" lon="10.227619442005516" id="-40012">
		<tag k="name" v="Kalvhåggåhøgda" />
		<tag k="natural" v="hill" />
		<tag k="place" v="locality" />
		<tag k="ssr:stedsnr" v="276107" />
	</node>
	<node lat="62.82991667037822" lon="10.795227773410183" id="-40016">
		<tag k="name" v="Rundhaugen" />
		<tag k="natural" v="hill" />
		<tag k="place" v="locality" />
		<tag k="ssr:stedsnr" v="276204" />
	</node>
	<node lat="62.77826388977379" lon="10.636549999149475" id="-40018">
		<tag k="fixme" v="consider natural=peak for the most distinct mountains in the district" />
		<tag k="name" v="Svartisgrubba" />
		<tag k="natural" v="hill" />
		<tag k="place" v="locality" />
		<tag k="ssr:stedsnr" v="276275" />
	</node>
	<node lat="62.800752780749164" lon="10.503502782277877" id="-40022">
		<tag k="name" v="Byrbekkdalen" />
		<tag k="natural" v="valley" />
		<tag k="place" v="locality" />
		<tag k="ssr:stedsnr" v="276292" />
	</node>
	<node lat="62.991216664902204" lon="10.272608332689598" id="-40023">
		<tag k="name" v="Pålshaugen" />
		<tag k="natural" v="hill" />
		<tag k="place" v="locality" />
		<tag k="ssr:stedsnr" v="276414" />
	</node>
	<node lat="62.8608361085064" lon="10.443608335601619" id="-40025">
		<tag k="name" v="Langdalen" />
		<tag k="natural" v="valley" />
		<tag k="place" v="locality" />
		<tag k="ssr:stedsnr" v="276423" />
	</node>
	<node lat="62.95963333580597" lon="10.527508342088744" id="-40034">
		<tag k="fixme" v="consider natural=peak for the most distinct mountains in the district" />
		<tag k="name" v="Liasnøåsen" />
		<tag k="natural" v="hill" />
		<tag k="place" v="locality" />
		<tag k="ssr:stedsnr" v="276607" />
	</node>
	<node lat="62.99631389264191" lon="10.536752786249519" id="-40035">
		<tag k="name" v="Abjørndalen" />
		<tag k="natural" v="valley" />
		<tag k="place" v="locality" />
		<tag k="ssr:stedsnr" v="276620" />
	</node>
	<node lat="63.0015305520971" lon="10.467952778608026" id="-40037">
		<tag k="fixme" v="consider natural=peak for the most distinct mountains in the district" />
		<tag k="name" v="Kleva" />
		<tag k="natural" v="hill" />
		<tag k="place" v="locality" />
		<tag k="ssr:stedsnr" v="276669" />
	</node>
	<node lat="62.870402776494586" lon="10.68895000119241" id="-40041">
		<tag k="name" v="Storslættet" />
		<tag k="natural" v="slope" />
		<tag k="place" v="locality" />
		<tag k="ssr:stedsnr" v="276691" />
	</node>
	<node lat="63.04400555880056" lon="10.398575001915972" id="-40042">
		<tag k="fixme" v="consider natural=peak for the most distinct mountains in the district" />
		<tag k="name" v="Hamran" />
		<tag k="natural" v="hill" />
		<tag k="place" v="locality" />
		<tag k="ssr:stedsnr" v="276802" />
	</node>
	<node lat="62.87728333222503" lon="10.73175833334963" id="-40043">
		<tag k="name" v="Ormhaugen" />
		<tag k="natural" v="hill" />
		<tag k="place" v="locality" />
		<tag k="ssr:stedsnr" v="276804" />
	</node>
	<node lat="62.85490000396751" lon="10.784624990766456" id="-40045">
		<tag k="name" v="Sandrødsslættet" />
		<tag k="place" v="locality" />
		<tag k="ssr:stedsnr" v="276807" />
	</node>
	<node lat="62.827619445536534" lon="10.248500003026441" id="-40046">
		<tag k="name" v="Ersgrøvdalen" />
		<tag k="natural" v="valley" />
		<tag k="place" v="locality" />
		<tag k="ssr:stedsnr" v="276810" />
	</node>
	<node lat="62.91421944562509" lon="10.754497223832256" id="-40048">
		<tag k="name" v="Kjølvoll-lia" />
		<tag k="natural" v="slope" />
		<tag k="place" v="locality" />
		<tag k="ssr:stedsnr" v="276819" />
	</node>
	<node lat="62.995947223812784" lon="10.339711112689113" id="-40049">
		<tag k="name" v="Djupdalen" />
		<tag k="natural" v="valley" />
		<tag k="place" v="locality" />
		<tag k="ssr:stedsnr" v="276820" />
	</node>
	<node lat="63.00337222648315" lon="10.115736116686776" id="-40053">
		<tag k="name" v="Litlløkkjhaugen" />
		<tag k="natural" v="hill" />
		<tag k="place" v="locality" />
		<tag k="ssr:stedsnr" v="276712" />
	</node>
	<node lat="62.984758335405544" lon="10.642750005831566" id="-40059">
		<tag k="fixme" v="consider natural=peak for the most distinct mountains in the district" />
		<tag k="name" v="Storkjølåsen" />
		<tag k="natural" v="hill" />
		<tag k="place" v="locality" />
		<tag k="ssr:stedsnr" v="276785" />
	</node>
	<node lat="62.87922222237297" lon="10.745838890864865" id="-40060">
		<tag k="fixme" v="consider natural=peak for the most distinct mountains in the district" />
		<tag k="name" v="Tovåskinna" />
		<tag k="natural" v="hill" />
		<tag k="place" v="locality" />
		<tag k="ssr:stedsnr" v="276788" />
	</node>
	<node lat="62.877652781360645" lon="10.734727770936058" id="-40061">
		<tag k="name" v="Hauglaushogsterdalen" />
		<tag k="natural" v="valley" />
		<tag k="place" v="locality" />
		<tag k="ssr:stedsnr" v="276789" />
	</node>
	<node lat="62.98405278135032" lon="10.907422214057112" id="-40064">
		<tag k="name" v="Fagerhaugen" />
		<tag k="natural" v="hill" />
		<tag k="place" v="locality" />
		<tag k="ssr:stedsnr" v="276910" />
	</node>
	<node lat="62.982413884625394" lon="10.898175004107665" id="-40065">
		<tag k="name" v="Sandbakken" />
		<tag k="natural" v="slope" />
		<tag k="place" v="locality" />
		<tag k="ssr:stedsnr" v="276914" />
	</node>
	<node lat="63.04903610815118" lon="10.237427784521469" id="-40066">
		<tag k="fixme" v="consider natural=peak for the most distinct mountains in the district" />
		<tag k="name" v="Jo-fjellet" />
		<tag k="natural" v="hill" />
		<tag k="place" v="locality" />
		<tag k="ssr:stedsnr" v="276920" />
	</node>
	<node lat="62.973483329790746" lon="10.781847219736418" id="-40068">
		<tag k="fixme" v="consider natural=peak for the most distinct mountains in the district" />
		<tag k="name" v="Høgliåsen" />
		<tag k="natural" v="hill" />
		<tag k="place" v="locality" />
		<tag k="ssr:stedsnr" v="276871" />
	</node>
	<node lat="63.00869166516505" lon="10.562352770423395" id="-40078">
		<tag k="fixme" v="consider natural=peak for the most distinct mountains in the district" />
		<tag k="name" v="Huskjølen" />
		<tag k="natural" v="hill" />
		<tag k="place" v="locality" />
		<tag k="ssr:stedsnr" v="315023" />
	</node>
	<node lat="63.05705555885279" lon="10.752869448783128" id="-40081">
		<tag k="fixme" v="consider natural=peak for the most distinct mountains in the district" />
		<tag k="name" v="Annfinnfjellet" />
		<tag k="natural" v="hill" />
		<tag k="place" v="locality" />
		<tag k="ssr:stedsnr" v="315172" />
	</node>
	<node lat="62.909977775862544" lon="10.245694435160773" id="-40094">
		<tag k="name" v="Innleggberga" />
		<tag k="natural" v="hill" />
		<tag k="place" v="locality" />
		<tag k="ssr:stedsnr" v="315623" />
	</node>
	<node lat="63.053261113508505" lon="10.353369439407565" id="-40100">
		<tag k="alt_name" v="Rauåsen" />
		<tag k="fixme" v="consider natural=peak for the most distinct mountains in the district" />
		<tag k="name" v="Raudåsen" />
		<tag k="natural" v="hill" />
		<tag k="old_name" v="Rødåsane" />
		<tag k="place" v="locality" />
		<tag k="ssr:stedsnr" v="315966" />
	</node>
	<node lat="62.854258337622575" lon="10.700000004597133" id="-40103">
		<tag k="name" v="Nyådalen" />
		<tag k="natural" v="valley" />
		<tag k="place" v="locality" />
		<tag k="ssr:stedsnr" v="316417" />
	</node>
	<node lat="62.92439722213896" lon="10.469369441139065" id="-40109">
		<tag k="name" v="Budalen" />
		<tag k="natural" v="valley" />
		<tag k="place" v="locality" />
		<tag k="ssr:stedsnr" v="316753" />
	</node>
	<node lat="63.016472223619395" lon="10.336311119070016" id="-40114">
		<tag k="name" v="Hansbakken" />
		<tag k="natural" v="slope" />
		<tag k="place" v="locality" />
		<tag k="ssr:stedsnr" v="336119" />
	</node>
	<node lat="62.856280555097634" lon="10.441274995302537" id="-40118">
		<tag k="name" v="Høylølia" />
		<tag k="natural" v="slope" />
		<tag k="place" v="locality" />
		<tag k="ssr:stedsnr" v="336152" />
	</node>
	<node lat="62.918183332463975" lon="10.291949999397968" id="-40124">
		<tag k="name" v="Sandbakken" />
		<tag k="natural" v="slope" />
		<tag k="place" v="locality" />
		<tag k="ssr:stedsnr" v="336017" />
	</node>
	<node lat="62.920933335097914" lon="10.296061118384376" id="-40126">
		<tag k="name" v="Beggen" />
		<tag k="natural" v="slope" />
		<tag k="place" v="locality" />
		<tag k="ssr:stedsnr" v="336020" />
	</node>
	<node lat="62.92122499720226" lon="10.246400007560986" id="-40128">
		<tag k="name" v="Glisjbakkan" />
		<tag k="natural" v="slope" />
		<tag k="place" v="locality" />
		<tag k="ssr:stedsnr" v="336023" />
	</node>
	<node lat="62.906325001849304" lon="10.289430550594517" id="-40129">
		<tag k="name" v="Ulvstudalen" />
		<tag k="natural" v="valley" />
		<tag k="place" v="locality" />
		<tag k="ssr:stedsnr" v="336026" />
	</node>
	<node lat="62.903661114293314" lon="10.291902778986366" id="-40131">
		<tag k="name" v="Kjøl-lia" />
		<tag k="natural" v="slope" />
		<tag k="place" v="locality" />
		<tag k="ssr:stedsnr" v="336029" />
	</node>
	<node lat="62.96494444223596" lon="10.307275008198374" id="-40134">
		<tag k="name" v="Blåberga" />
		<tag k="natural" v="hill" />
		<tag k="place" v="locality" />
		<tag k="ssr:stedsnr" v="336047" />
	</node>
	<node lat="62.94835277763572" lon="10.311902770614084" id="-40136">
		<tag k="name" v="Stenråa" />
		<tag k="natural" v="slope" />
		<tag k="place" v="locality" />
		<tag k="ssr:stedsnr" v="336058" />
	</node>
	<node lat="62.970216667880266" lon="10.245994443528131" id="-40137">
		<tag k="name" v="Hustufthaugen" />
		<tag k="natural" v="hill" />
		<tag k="place" v="locality" />
		<tag k="ssr:stedsnr" v="336094" />
	</node>
	<node lat="62.93439721920089" lon="10.417258332456294" id="-40141">
		<tag k="name" v="Skreddarlia" />
		<tag k="natural" v="slope" />
		<tag k="place" v="locality" />
		<tag k="ssr:stedsnr" v="336351" />
	</node>
	<node lat="62.9396722250212" lon="10.497466675114259" id="-40145">
		<tag k="name" v="Tjønnbakken" />
		<tag k="natural" v="slope" />
		<tag k="place" v="locality" />
		<tag k="ssr:stedsnr" v="336393" />
	</node>
	<node lat="62.91752500193826" lon="10.476313894181752" id="-40146">
		<tag k="fixme" v="consider natural=peak for the most distinct mountains in the district" />
		<tag k="name" v="Litlåsen" />
		<tag k="natural" v="hill" />
		<tag k="place" v="locality" />
		<tag k="ssr:stedsnr" v="336400" />
	</node>
	<node lat="62.983302779468936" lon="10.498588881913822" id="-40149">
		<tag k="name" v="Glenna" />
		<tag k="natural" v="valley" />
		<tag k="place" v="locality" />
		<tag k="ssr:stedsnr" v="336521" />
	</node>
	<node lat="63.026300000700424" lon="10.439386116622497" id="-40155">
		<tag k="fixme" v="consider natural=peak for the most distinct mountains in the district" />
		<tag k="name" v="Gråntoppen" />
		<tag k="natural" v="hill" />
		<tag k="place" v="locality" />
		<tag k="ssr:stedsnr" v="336293" />
	</node>
	<node lat="63.021413886245114" lon="10.419974996316943" id="-40157">
		<tag k="name" v="Klevberga" />
		<tag k="natural" v="hill" />
		<tag k="place" v="locality" />
		<tag k="ssr:stedsnr" v="336296" />
	</node>
	<node lat="62.91056111241712" lon="10.483102770047442" id="-40160">
		<tag k="name" v="Rundhaugen" />
		<tag k="natural" v="hill" />
		<tag k="place" v="locality" />
		<tag k="ssr:stedsnr" v="336416" />
	</node>
	<node lat="62.86917222292311" lon="10.473650005614891" id="-40164">
		<tag k="name" v="Bergløkkjberga" />
		<tag k="natural" v="hill" />
		<tag k="place" v="locality" />
		<tag k="ssr:stedsnr" v="336441" />
	</node>
	<node lat="62.86640833173729" lon="10.519247218833854" id="-40165">
		<tag k="name" v="Hogsterhaugen" />
		<tag k="natural" v="hill" />
		<tag k="place" v="locality" />
		<tag k="ssr:stedsnr" v="336454" />
	</node>
	<node lat="62.92142777778129" lon="10.680327779616936" id="-40167">
		<tag k="name" v="Skarddalen" />
		<tag k="natural" v="valley" />
		<tag k="place" v="locality" />
		<tag k="ssr:stedsnr" v="336652" />
	</node>
	<node lat="62.92273611504997" lon="10.698605550980396" id="-40168">
		<tag k="fixme" v="consider natural=peak for the most distinct mountains in the district" />
		<tag k="name" v="Stormyråsen" />
		<tag k="natural" v="hill" />
		<tag k="place" v="locality" />
		<tag k="ssr:stedsnr" v="336654" />
	</node>
	<node lat="62.91957499686221" lon="10.677383328917207" id="-40169">
		<tag k="fixme" v="consider natural=peak for the most distinct mountains in the district" />
		<tag k="name" v="Elgdansen" />
		<tag k="natural" v="hill" />
		<tag k="place" v="locality" />
		<tag k="ssr:stedsnr" v="336657" />
	</node>
	<node lat="62.98374721905704" lon="10.673758327547331" id="-40171">
		<tag k="name" v="Langslættet" />
		<tag k="place" v="locality" />
		<tag k="ssr:stedsnr" v="336701" />
	</node>
	<node lat="62.97111111492689" lon="10.80679167404459" id="-40173">
		<tag k="name" v="Kvasshaugen" />
		<tag k="natural" v="hill" />
		<tag k="place" v="locality" />
		<tag k="ssr:stedsnr" v="336805" />
	</node>
	<node lat="62.99659166315868" lon="10.721816663530278" id="-40176">
		<tag k="name" v="Bjørnåsslættet" />
		<tag k="natural" v="slope" />
		<tag k="place" v="locality" />
		<tag k="ssr:stedsnr" v="336849" />
	</node>
	<node lat="62.989513890395045" lon="10.304780556812196" id="-40180">
		<tag k="name" v="Brannhaugdalen" />
		<tag k="natural" v="valley" />
		<tag k="place" v="locality" />
		<tag k="ssr:stedsnr" v="336707" />
	</node>
	<node lat="63.043047221370536" lon="10.307741674275524" id="-40181">
		<tag k="name" v="Litlmoen" />
		<tag k="place" v="locality" />
		<tag k="ssr:stedsnr" v="336716" />
	</node>
	<node lat="63.03243055245053" lon="10.617275002113784" id="-40184">
		<tag k="name" v="Råbekkdalen" />
		<tag k="natural" v="valley" />
		<tag k="place" v="locality" />
		<tag k="ssr:stedsnr" v="336756" />
	</node>
	<node lat="62.96034166901885" lon="10.724197214829267" id="-40186">
		<tag k="name" v="Likammen" />
		<tag k="natural" v="ridge" />
		<tag k="place" v="locality" />
		<tag k="ssr:stedsnr" v="336794" />
	</node>
	<node lat="62.7456944472132" lon="10.294338889327696" id="-40196">
		<tag k="alt_name" v="Sandfjell, nordre" />
		<tag k="fixme" v="consider natural=peak for the most distinct mountains in the district" />
		<tag k="name" v="Nørdre Sandfjellet" />
		<tag k="natural" v="hill" />
		<tag k="place" v="locality" />
		<tag k="ssr:stedsnr" v="375389" />
	</node>
	<node lat="62.88536111417733" lon="10.313677785267386" id="-40208">
		<tag k="name" v="Hårråhaugen" />
		<tag k="natural" v="hill" />
		<tag k="place" v="locality" />
		<tag k="ssr:stedsnr" v="384520" />
	</node>
	<node lat="62.90275833528109" lon="10.2655472164063" id="-40212">
		<tag k="name" v="Storhaugen" />
		<tag k="natural" v="hill" />
		<tag k="place" v="locality" />
		<tag k="ssr:stedsnr" v="396338" />
	</node>
	<node lat="62.97855000372133" lon="10.260261109936623" id="-40213">
		<tag k="fixme" v="consider natural=peak for the most distinct mountains in the district" />
		<tag k="name" v="Blokkåsen" />
		<tag k="natural" v="hill" />
		<tag k="place" v="locality" />
		<tag k="ssr:stedsnr" v="396279" />
	</node>
	<node lat="62.99390277409506" lon="10.189961119026004" id="-40222">
		<tag k="name" v="Bjørklia" />
		<tag k="natural" v="slope" />
		<tag k="place" v="locality" />
		<tag k="ssr:stedsnr" v="397304" />
	</node>
	<node lat="62.918827777216634" lon="10.161386107217469" id="-40224">
		<tag k="name" v="Dørhammerberga" />
		<tag k="natural" v="hill" />
		<tag k="place" v="locality" />
		<tag k="ssr:stedsnr" v="397307" />
	</node>
	<node lat="62.84522499851857" lon="10.79226944476644" id="-40226">
		<tag k="fixme" v="consider natural=peak for the most distinct mountains in the district" />
		<tag k="name" v="Endåsen" />
		<tag k="natural" v="hill" />
		<tag k="place" v="locality" />
		<tag k="ssr:stedsnr" v="397207" />
	</node>
	<node lat="62.83591111530365" lon="10.474419443062411" id="-40228">
		<tag k="name" v="Sæterhaugen" />
		<tag k="natural" v="hill" />
		<tag k="place" v="locality" />
		<tag k="ssr:stedsnr" v="397289" />
	</node>
	<node lat="62.898019443017816" lon="10.456200004025561" id="-40234">
		<tag k="name" v="Litl-lia" />
		<tag k="natural" v="slope" />
		<tag k="place" v="locality" />
		<tag k="ssr:stedsnr" v="397391" />
	</node>
	<node lat="62.97656944663099" lon="10.271830565382357" id="-40235">
		<tag k="name" v="Kongen" />
		<tag k="natural" v="slope" />
		<tag k="place" v="locality" />
		<tag k="ssr:stedsnr" v="397392" />
	</node>
	<node lat="62.88355000350211" lon="10.45306666607241" id="-40237">
		<tag k="name" v="Åsløenget" />
		<tag k="natural" v="slope" />
		<tag k="place" v="locality" />
		<tag k="ssr:stedsnr" v="397398" />
	</node>
	<node lat="62.82993333410223" lon="10.507002779503667" id="-40238">
		<tag k="name" v="Vass-slættet" />
		<tag k="place" v="locality" />
		<tag k="ssr:stedsnr" v="397533" />
	</node>
	<node lat="62.98006666656195" lon="10.518811114893163" id="-40240">
		<tag k="fixme" v="consider natural=peak for the most distinct mountains in the district" />
		<tag k="name" v="Øveråsen" />
		<tag k="natural" v="hill" />
		<tag k="place" v="locality" />
		<tag k="ssr:stedsnr" v="397580" />
	</node>
	<node lat="62.9877611066927" lon="10.163022226644848" id="-40252">
		<tag k="name" v="Koltjønnliin" />
		<tag k="natural" v="slope" />
		<tag k="place" v="locality" />
		<tag k="ssr:stedsnr" v="397605" />
	</node>
	<node lat="63.017244445168174" lon="10.466430555008724" id="-40253">
		<tag k="name" v="Roggdalen" />
		<tag k="natural" v="valley" />
		<tag k="place" v="locality" />
		<tag k="ssr:stedsnr" v="397609" />
	</node>
	<node lat="62.993241665061824" lon="10.550155558975321" id="-40254">
		<tag k="name" v="Litlvollen" />
		<tag k="natural" v="slope" />
		<tag k="place" v="locality" />
		<tag k="ssr:stedsnr" v="397612" />
	</node>
	<node lat="63.04040555746354" lon="10.474972229439539" id="-40257">
		<tag k="fixme" v="consider natural=peak for the most distinct mountains in the district" />
		<tag k="name" v="Kamban" />
		<tag k="natural" v="hill" />
		<tag k="place" v="locality" />
		<tag k="ssr:stedsnr" v="397638" />
	</node>
	<node lat="63.01707221784497" lon="10.181613887254423" id="-40259">
		<tag k="fixme" v="consider natural=peak for the most distinct mountains in the district" />
		<tag k="name" v="Synner Fjelløkkja" />
		<tag k="natural" v="hill" />
		<tag k="place" v="locality" />
		<tag k="ssr:stedsnr" v="397680" />
	</node>
	<node lat="63.00725555224159" lon="10.056891660842075" id="-40261">
		<tag k="name" v="Litldalen" />
		<tag k="natural" v="valley" />
		<tag k="place" v="locality" />
		<tag k="ssr:stedsnr" v="397686" />
	</node>
	<node lat="62.95930833739282" lon="10.597644452567133" id="-40262">
		<tag k="fixme" v="consider natural=peak for the most distinct mountains in the district" />
		<tag k="name" v="Aunåsen" />
		<tag k="natural" v="hill" />
		<tag k="place" v="locality" />
		<tag k="ssr:stedsnr" v="397729" />
	</node>
	<node lat="62.92054999983318" lon="10.737638880928937" id="-40267">
		<tag k="name" v="Stenen" />
		<tag k="natural" v="hill" />
		<tag k="place" v="locality" />
		<tag k="ssr:stedsnr" v="397787" />
	</node>
	<node lat="63.05010278143131" lon="10.24932221413332" id="-40271">
		<tag k="name" v="Bjørndalen" />
		<tag k="natural" v="valley" />
		<tag k="place" v="locality" />
		<tag k="ssr:stedsnr" v="397902" />
	</node>
	<node lat="63.06326111483014" lon="10.302899991007939" id="-40272">
		<tag k="name" v="Rædalen" />
		<tag k="natural" v="valley" />
		<tag k="place" v="locality" />
		<tag k="ssr:stedsnr" v="397905" />
	</node>
	<node lat="62.9816361076649" lon="10.354916670276443" id="-40280">
		<tag k="name" v="Vakkerlia" />
		<tag k="natural" v="slope" />
		<tag k="place" v="locality" />
		<tag k="ssr:stedsnr" v="397802" />
	</node>
	<node lat="62.970591668116384" lon="10.140902781990306" id="-40281">
		<tag k="name" v="Skorberga" />
		<tag k="natural" v="hill" />
		<tag k="place" v="locality" />
		<tag k="ssr:stedsnr" v="397826" />
	</node>
	<node lat="62.98623055278383" lon="10.735627785141489" id="-40285">
		<tag k="name" v="Nervollbresten" />
		<tag k="natural" v="slope" />
		<tag k="place" v="locality" />
		<tag k="ssr:stedsnr" v="397882" />
	</node>
	<node lat="62.9861361111718" lon="10.800552775832905" id="-40286">
		<tag k="name" v="Storslættet" />
		<tag k="natural" v="slope" />
		<tag k="place" v="locality" />
		<tag k="ssr:stedsnr" v="397893" />
	</node>
	<node lat="62.98508333358455" lon="10.92509721515163" id="-40287">
		<tag k="name" v="Svikkbakken" />
		<tag k="natural" v="slope" />
		<tag k="place" v="locality" />
		<tag k="ssr:stedsnr" v="397896" />
	</node>
	<node lat="62.73498333043104" lon="10.667677778076168" id="-40296">
		<tag k="alt_name" v="Søstuøya" />
		<tag k="name" v="Sørstuøya" />
		<tag k="place" v="locality" />
		<tag k="ssr:stedsnr" v="436365" />
	</node>
	<node lat="62.83827222118966" lon="10.812311112792079" id="-40301">
		<tag k="name" v="Kistskarven" />
		<tag k="natural" v="hill" />
		<tag k="place" v="locality" />
		<tag k="ssr:stedsnr" v="437108" />
	</node>
	<node lat="62.78976388857093" lon="10.486791669446108" id="-40303">
		<tag k="fixme" v="consider natural=peak for the most distinct mountains in the district" />
		<tag k="name" v="Tangen" />
		<tag k="natural" v="hill" />
		<tag k="place" v="locality" />
		<tag k="ssr:stedsnr" v="437311" />
	</node>
	<node lat="62.91955277900328" lon="10.757638891297706" id="-40305">
		<tag k="name" v="Snølia" />
		<tag k="natural" v="slope" />
		<tag k="place" v="locality" />
		<tag k="ssr:stedsnr" v="437420" />
	</node>
	<node lat="62.812022217901585" lon="10.668130562950816" id="-40306">
		<tag k="name" v="Storbekklihøgda" />
		<tag k="natural" v="hill" />
		<tag k="place" v="locality" />
		<tag k="ssr:stedsnr" v="437349" />
	</node>
	<node lat="63.01520277411151" lon="10.45619444455649" id="-40320">
		<tag k="fixme" v="consider natural=peak for the most distinct mountains in the district" />
		<tag k="name" v="Rødstenen" />
		<tag k="natural" v="hill" />
		<tag k="place" v="locality" />
		<tag k="ssr:stedsnr" v="437964" />
	</node>
	<node lat="62.941711110928104" lon="10.334955557575476" id="-40325">
		<tag k="name" v="Småløkkjen" />
		<tag k="natural" v="slope" />
		<tag k="place" v="locality" />
		<tag k="ssr:stedsnr" v="458011" />
	</node>
	<node lat="62.94461667053516" lon="10.31152777614175" id="-40327">
		<tag k="name" v="Seter-Odalen" />
		<tag k="natural" v="valley" />
		<tag k="place" v="locality" />
		<tag k="ssr:stedsnr" v="458067" />
	</node>
	<node lat="62.933994442071295" lon="10.308513886454188" id="-40329">
		<tag k="fixme" v="consider natural=peak for the most distinct mountains in the district" />
		<tag k="name" v="Gjelåsen" />
		<tag k="natural" v="hill" />
		<tag k="place" v="locality" />
		<tag k="ssr:stedsnr" v="458074" />
	</node>
	<node lat="62.81938333380433" lon="10.82998055843217" id="-40332">
		<tag k="name" v="Skredalen" />
		<tag k="natural" v="valley" />
		<tag k="place" v="locality" />
		<tag k="ssr:stedsnr" v="458206" />
	</node>
	<node lat="62.81297778100691" lon="10.437880552413098" id="-40333">
		<tag k="name" v="Finnskjeggmoen" />
		<tag k="place" v="locality" />
		<tag k="ssr:stedsnr" v="458211" />
	</node>
	<node lat="62.82353333097176" lon="10.423250001680909" id="-40334">
		<tag k="name" v="Vasskjølbakken" />
		<tag k="natural" v="slope" />
		<tag k="place" v="locality" />
		<tag k="ssr:stedsnr" v="458215" />
	</node>
	<node lat="62.95955555960631" lon="10.252852773403808" id="-40335">
		<tag k="name" v="Kjøtrødsløkkja" />
		<tag k="natural" v="hill" />
		<tag k="place" v="locality" />
		<tag k="ssr:stedsnr" v="458102" />
	</node>
	<node lat="63.028341662582406" lon="10.32471111757234" id="-40337">
		<tag k="name" v="Follstadbakken" />
		<tag k="natural" v="slope" />
		<tag k="place" v="locality" />
		<tag k="ssr:stedsnr" v="458116" />
	</node>
	<node lat="62.871038890700916" lon="10.274497224591972" id="-40343">
		<tag k="name" v="Kvernhushaugen" />
		<tag k="natural" v="hill" />
		<tag k="place" v="locality" />
		<tag k="ssr:stedsnr" v="458306" />
	</node>
	<node lat="62.79862777484838" lon="10.544908324656419" id="-40346">
		<tag k="name" v="Skiftbakken" />
		<tag k="natural" v="slope" />
		<tag k="place" v="locality" />
		<tag k="ssr:stedsnr" v="458317" />
	</node>
	<node lat="62.816730555513296" lon="10.510611119943063" id="-40348">
		<tag k="name" v="Vakkerlia" />
		<tag k="natural" v="slope" />
		<tag k="place" v="locality" />
		<tag k="ssr:stedsnr" v="458325" />
	</node>
	<node lat="62.9460416709354" lon="10.18404999928572" id="-40349">
		<tag k="name" v="Fagerlia" />
		<tag k="natural" v="slope" />
		<tag k="place" v="locality" />
		<tag k="ssr:stedsnr" v="458402" />
	</node>
	<node lat="62.873261112520574" lon="10.268994443142411" id="-40350">
		<tag k="name" v="Høglia" />
		<tag k="natural" v="slope" />
		<tag k="place" v="locality" />
		<tag k="ssr:stedsnr" v="458405" />
	</node>
	<node lat="62.92036667105096" lon="10.497011114824257" id="-40354">
		<tag k="fixme" v="consider natural=peak for the most distinct mountains in the district" />
		<tag k="name" v="Trekkåsen" />
		<tag k="natural" v="hill" />
		<tag k="place" v="locality" />
		<tag k="ssr:stedsnr" v="458469" />
	</node>
	<node lat="62.98938888726378" lon="10.518330549335131" id="-40361">
		<tag k="fixme" v="consider natural=peak for the most distinct mountains in the district" />
		<tag k="name" v="Åsan" />
		<tag k="natural" v="hill" />
		<tag k="place" v="locality" />
		<tag k="ssr:stedsnr" v="458621" />
	</node>
	<node lat="62.86126944749749" lon="10.473522218202149" id="-40366">
		<tag k="name" v="Litl-slættet" />
		<tag k="place" v="locality" />
		<tag k="ssr:stedsnr" v="458561" />
	</node>
	<node lat="63.00090555104034" lon="10.469233342168227" id="-40375">
		<tag k="name" v="Mannhaugen" />
		<tag k="natural" v="hill" />
		<tag k="place" v="locality" />
		<tag k="ssr:stedsnr" v="458663" />
	</node>
	<node lat="63.005988891712896" lon="10.509163886202357" id="-40377">
		<tag k="name" v="Saghaugen" />
		<tag k="natural" v="hill" />
		<tag k="place" v="locality" />
		<tag k="ssr:stedsnr" v="458668" />
	</node>
	<node lat="63.00974721813477" lon="10.364894439285534" id="-40380">
		<tag k="name" v="Kalvberga" />
		<tag k="natural" v="hill" />
		<tag k="place" v="locality" />
		<tag k="ssr:stedsnr" v="458804" />
	</node>
	<node lat="62.91673888736788" lon="10.749588881876761" id="-40381">
		<tag k="name" v="Rotåskåsin" />
		<tag k="natural" v="slope" />
		<tag k="place" v="locality" />
		<tag k="ssr:stedsnr" v="458807" />
	</node>
	<node lat="62.916225003305044" lon="10.757002778125885" id="-40382">
		<tag k="fixme" v="consider natural=peak for the most distinct mountains in the district" />
		<tag k="name" v="Rotåsen" />
		<tag k="natural" v="hill" />
		<tag k="place" v="locality" />
		<tag k="ssr:stedsnr" v="458809" />
	</node>
	<node lat="62.98168611279811" lon="10.350130565259239" id="-40384">
		<tag k="name" v="Småslættmoan" />
		<tag k="place" v="locality" />
		<tag k="ssr:stedsnr" v="458814" />
	</node>
	<node lat="62.98186666797497" lon="10.34080556202737" id="-40385">
		<tag k="name" v="Ramstadlia" />
		<tag k="natural" v="slope" />
		<tag k="place" v="locality" />
		<tag k="ssr:stedsnr" v="458816" />
	</node>
	<node lat="63.019149997414104" lon="10.845369454014708" id="-40393">
		<tag k="name" v="Pålslættet" />
		<tag k="place" v="locality" />
		<tag k="ssr:stedsnr" v="458908" />
	</node>
	<node lat="63.02120277973236" lon="10.286127786131406" id="-40396">
		<tag k="fixme" v="consider natural=peak for the most distinct mountains in the district" />
		<tag k="name" v="Ratåsen" />
		<tag k="natural" v="hill" />
		<tag k="place" v="locality" />
		<tag k="ssr:stedsnr" v="458921" />
	</node>
	<node lat="63.053136108764214" lon="10.304758340404694" id="-40402">
		<tag k="name" v="Bratthåmmåren" />
		<tag k="natural" v="hill" />
		<tag k="place" v="locality" />
		<tag k="ssr:stedsnr" v="458902" />
	</node>
	<node lat="62.93448888884861" lon="10.370627771050021" id="-40404">
		<tag k="name" v="Varghaugen" />
		<tag k="natural" v="hill" />
		<tag k="place" v="locality" />
		<tag k="ssr:stedsnr" v="458968" />
	</node>
	<node lat="62.94038055170681" lon="10.352358333862188" id="-40405">
		<tag k="name" v="Storlia" />
		<tag k="natural" v="slope" />
		<tag k="place" v="locality" />
		<tag k="ssr:stedsnr" v="458972" />
	</node>
	<node lat="63.011108330218406" lon="10.346555550589661" id="-40413">
		<tag k="fixme" v="consider natural=peak for the most distinct mountains in the district" />
		<tag k="name" v="Midkveldåsen" />
		<tag k="natural" v="hill" />
		<tag k="old_name" v="Mekveldsåsen" />
		<tag k="place" v="locality" />
		<tag k="ssr:stedsnr" v="679036" />
	</node>
	<node lat="62.899822221712725" lon="10.899380553115742" id="-40422">
		<tag k="name" v="Nåvårskaftfonna" />
		<tag k="natural" v="valley" />
		<tag k="place" v="locality" />
		<tag k="ssr:stedsnr" v="679346" />
	</node>
	<node lat="63.059008337482275" lon="10.250174991949748" id="-40438">
		<tag k="fixme" v="consider natural=peak for the most distinct mountains in the district" />
		<tag k="name" v="Åsan" />
		<tag k="natural" v="hill" />
		<tag k="place" v="locality" />
		<tag k="ssr:stedsnr" v="679899" />
	</node>
	<node lat="63.11893055535734" lon="10.786658341649376" id="-40442">
		<tag k="loc_name" v="Skrøvelskardet" />
		<tag k="name" v="Grøvelskardet" />
		<tag k="natural" v="valley" />
		<tag k="place" v="locality" />
		<tag k="ssr:stedsnr" v="680159" />
	</node>
	<node lat="62.757655551595114" lon="10.483766673544723" id="-40443">
		<tag k="fixme" v="consider natural=peak for the most distinct mountains in the district" />
		<tag k="name" v="Klumpen" />
		<tag k="natural" v="hill" />
		<tag k="place" v="locality" />
		<tag k="ssr:stedsnr" v="680276" />
	</node>
	<node lat="62.987547222533166" lon="10.456791675883506" id="-40447">
		<tag k="name" v="Blåberga" />
		<tag k="natural" v="hill" />
		<tag k="place" v="locality" />
		<tag k="ssr:stedsnr" v="680566" />
	</node>
	<node lat="62.98725833516307" lon="10.459600003178906" id="-40448">
		<tag k="name" v="Glennberget" />
		<tag k="natural" v="hill" />
		<tag k="place" v="locality" />
		<tag k="ssr:stedsnr" v="680567" />
	</node>
	<node lat="62.94413888817617" lon="10.69531944973865" id="-40452">
		<tag k="name" v="Engesberga" />
		<tag k="natural" v="hill" />
		<tag k="place" v="locality" />
		<tag k="ssr:stedsnr" v="680744" />
	</node>
	<node lat="62.923711113612946" lon="10.616852783636856" id="-40454">
		<tag k="fixme" v="consider natural=peak for the most distinct mountains in the district" />
		<tag k="name" v="Forsetåsen" />
		<tag k="natural" v="hill" />
		<tag k="place" v="locality" />
		<tag k="ssr:stedsnr" v="680789" />
	</node>
	<node lat="62.78975833150475" lon="10.289683333453588" id="-40472">
		<tag k="fixme" v="consider natural=peak for the most distinct mountains in the district" />
		<tag k="name" v="Litlfjellet" />
		<tag k="natural" v="hill" />
		<tag k="place" v="locality" />
		<tag k="ssr:stedsnr" v="497306" />
	</node>
	<node lat="62.81700277538077" lon="10.70668056254893" id="-40475">
		<tag k="fixme" v="consider natural=peak for the most distinct mountains in the district" />
		<tag k="name" v="Nyåfjellet" />
		<tag k="natural" v="hill" />
		<tag k="place" v="locality" />
		<tag k="ssr:stedsnr" v="497315" />
	</node>
	<node lat="63.06024722318037" lon="10.30850278182929" id="-40490">
		<tag k="fixme" v="consider natural=peak for the most distinct mountains in the district" />
		<tag k="name" v="Lihåmmåren" />
		<tag k="natural" v="hill" />
		<tag k="place" v="locality" />
		<tag k="ssr:stedsnr" v="497907" />
	</node>
	<node lat="63.06049166471999" lon="10.4836027790809" id="-40491">
		<tag k="name" v="Vedløyset" />
		<tag k="natural" v="hill" />
		<tag k="place" v="locality" />
		<tag k="ssr:stedsnr" v="497912" />
	</node>
	<node lat="62.84507777828652" lon="10.305955546691077" id="-40496">
		<tag k="fixme" v="consider natural=peak for the most distinct mountains in the district" />
		<tag k="name" v="Merraåsen" />
		<tag k="natural" v="hill" />
		<tag k="place" v="locality" />
		<tag k="ssr:stedsnr" v="498429" />
	</node>
	<node lat="62.983616670317254" lon="10.471336102602235" id="-40497">
		<tag k="name" v="Boneskleva" />
		<tag k="natural" v="valley" />
		<tag k="place" v="locality" />
		<tag k="ssr:stedsnr" v="498555" />
	</node>
	<node lat="62.9923111129716" lon="10.286844438547975" id="-40499">
		<tag k="name" v="Nedre Brandhaugen" />
		<tag k="natural" v="hill" />
		<tag k="place" v="locality" />
		<tag k="ssr:stedsnr" v="498558" />
	</node>
	<node lat="62.98220833495372" lon="10.282174990543831" id="-40511">
		<tag k="fixme" v="consider natural=peak for the most distinct mountains in the district" />
		<tag k="name" v="Helvetet" />
		<tag k="natural" v="hill" />
		<tag k="place" v="locality" />
		<tag k="ssr:stedsnr" v="518068" />
	</node>
	<node lat="62.73998611314193" lon="10.656452768966856" id="-40516">
		<tag k="name" v="Storøya" />
		<tag k="place" v="locality" />
		<tag k="ssr:stedsnr" v="518213" />
	</node>
	<node lat="62.7552583344686" lon="10.64647500299188" id="-40517">
		<tag k="fixme" v="consider natural=peak for the most distinct mountains in the district" />
		<tag k="name" v="Ytteråsen" />
		<tag k="natural" v="hill" />
		<tag k="place" v="locality" />
		<tag k="ssr:stedsnr" v="518215" />
	</node>
	<node lat="62.74955833189611" lon="10.637608329686595" id="-40518">
		<tag k="name" v="Fossøylia" />
		<tag k="natural" v="slope" />
		<tag k="place" v="locality" />
		<tag k="ssr:stedsnr" v="518217" />
	</node>
	<node lat="62.92762500058508" lon="10.093216666532271" id="-40520">
		<tag k="name" v="Trongdalen" />
		<tag k="natural" v="valley" />
		<tag k="place" v="locality" />
		<tag k="ssr:stedsnr" v="518304" />
	</node>
	<node lat="63.005611115066344" lon="10.416122217945484" id="-40521">
		<tag k="name" v="Seterdalen" />
		<tag k="natural" v="valley" />
		<tag k="place" v="locality" />
		<tag k="ssr:stedsnr" v="518309" />
	</node>
	<node lat="62.92704444686573" lon="10.087991661760459" id="-40525">
		<tag k="name" v="Synner Dalløkkja" />
		<tag k="place" v="locality" />
		<tag k="ssr:stedsnr" v="518319" />
	</node>
	<node lat="62.97625277340407" lon="10.461852786289667" id="-40527">
		<tag k="fixme" v="consider natural=peak for the most distinct mountains in the district" />
		<tag k="name" v="Tortliåsen" />
		<tag k="natural" v="hill" />
		<tag k="place" v="locality" />
		<tag k="ssr:stedsnr" v="518331" />
	</node>
	<node lat="62.99158888521421" lon="10.195922221608694" id="-40528">
		<tag k="name" v="Hafella" />
		<tag k="natural" v="slope" />
		<tag k="place" v="locality" />
		<tag k="ssr:stedsnr" v="518334" />
	</node>
	<node lat="62.959038888305514" lon="10.48129167513547" id="-40539">
		<tag k="name" v="Haugaliin" />
		<tag k="natural" v="slope" />
		<tag k="place" v="locality" />
		<tag k="ssr:stedsnr" v="518614" />
	</node>
	<node lat="62.894730553389344" lon="10.682136112761778" id="-40542">
		<tag k="name" v="Strypberga" />
		<tag k="natural" v="hill" />
		<tag k="place" v="locality" />
		<tag k="ssr:stedsnr" v="518621" />
	</node>
	<node lat="62.94922500001869" lon="10.588138895289628" id="-40543">
		<tag k="name" v="Gjetberget" />
		<tag k="natural" v="hill" />
		<tag k="place" v="locality" />
		<tag k="ssr:stedsnr" v="518502" />
	</node>
	<node lat="62.998297222208905" lon="10.54606388130522" id="-40546">
		<tag k="name" v="Reppdalen" />
		<tag k="natural" v="valley" />
		<tag k="place" v="locality" />
		<tag k="ssr:stedsnr" v="518559" />
	</node>
	<node lat="62.97973610875191" lon="10.696724997640287" id="-40547">
		<tag k="name" v="Sevillslættet" />
		<tag k="place" v="locality" />
		<tag k="ssr:stedsnr" v="518714" />
	</node>
	<node lat="62.98671111150365" lon="10.699447225630925" id="-40548">
		<tag k="name" v="Storkjøldalen" />
		<tag k="natural" v="valley" />
		<tag k="place" v="locality" />
		<tag k="ssr:stedsnr" v="518720" />
	</node>
	<node lat="62.97847499864407" lon="10.708025003305668" id="-40549">
		<tag k="name" v="Storkjølbakkin" />
		<tag k="natural" v="slope" />
		<tag k="place" v="locality" />
		<tag k="ssr:stedsnr" v="518721" />
	</node>
	<node lat="62.90940277770575" lon="10.18591389463701" id="-40551">
		<tag k="name" v="Kjøldalen" />
		<tag k="natural" v="valley" />
		<tag k="place" v="locality" />
		<tag k="ssr:stedsnr" v="518729" />
	</node>
	<node lat="62.97997500364404" lon="10.634597219085551" id="-40552">
		<tag k="name" v="Langslættet" />
		<tag k="place" v="locality" />
		<tag k="ssr:stedsnr" v="518735" />
	</node>
	<node lat="62.87866111362633" lon="10.767222214703382" id="-40553">
		<tag k="name" v="Engeslia" />
		<tag k="natural" v="slope" />
		<tag k="place" v="locality" />
		<tag k="ssr:stedsnr" v="518741" />
	</node>
	<node lat="62.851247226718755" lon="10.773069435088443" id="-40555">
		<tag k="name" v="Litlslættet" />
		<tag k="natural" v="slope" />
		<tag k="place" v="locality" />
		<tag k="ssr:stedsnr" v="518753" />
	</node>
	<node lat="62.863219448605" lon="10.747608333325585" id="-40556">
		<tag k="name" v="Trollhaugkjellan" />
		<tag k="natural" v="slope" />
		<tag k="place" v="locality" />
		<tag k="ssr:stedsnr" v="518763" />
	</node>
	<node lat="63.04394722010242" lon="10.31928333190803" id="-40564">
		<tag k="name" v="Bordbakken" />
		<tag k="natural" v="slope" />
		<tag k="place" v="locality" />
		<tag k="ssr:stedsnr" v="518863" />
	</node>
	<node lat="63.0668166700024" lon="10.303550001635307" id="-40567">
		<tag k="fixme" v="consider natural=peak for the most distinct mountains in the district" />
		<tag k="name" v="Brentåsen" />
		<tag k="natural" v="hill" />
		<tag k="place" v="locality" />
		<tag k="ssr:stedsnr" v="518877" />
	</node>
	<node lat="62.99966389007279" lon="10.885524999524087" id="-40571">
		<tag k="name" v="Bjørbekkdalen" />
		<tag k="natural" v="valley" />
		<tag k="place" v="locality" />
		<tag k="ssr:stedsnr" v="518913" />
	</node>
	<node lat="62.95197499585361" lon="10.347258338471542" id="-40572">
		<tag k="name" v="Gauldøllia" />
		<tag k="natural" v="slope" />
		<tag k="place" v="locality" />
		<tag k="ssr:stedsnr" v="518959" />
	</node>
	<node lat="62.77214444461964" lon="10.73221388029356" id="-40581">
		<tag k="fixme" v="consider natural=peak for the most distinct mountains in the district" />
		<tag k="name" v="Flohøgdin" />
		<tag k="natural" v="hill" />
		<tag k="place" v="locality" />
		<tag k="ssr:stedsnr" v="688236" />
	</node>
	<node lat="63.011638886222414" lon="10.275605547170306" id="-40588">
		<tag k="fixme" v="consider natural=peak for the most distinct mountains in the district" />
		<tag k="name" v="Lekåsen" />
		<tag k="natural" v="hill" />
		<tag k="place" v="locality" />
		<tag k="ssr:stedsnr" v="557955" />
	</node>
	<node lat="62.88019722663397" lon="10.77027500188521" id="-40589">
		<tag k="fixme" v="consider natural=peak for the most distinct mountains in the district" />
		<tag k="name" v="Råseterfjellet" />
		<tag k="natural" v="hill" />
		<tag k="place" v="locality" />
		<tag k="ssr:stedsnr" v="558120" />
	</node>
	<node lat="62.98463889172019" lon="10.071244452140663" id="-40602">
		<tag k="fixme" v="consider natural=peak for the most distinct mountains in the district" />
		<tag k="name" v="Svartåsen" />
		<tag k="natural" v="hill" />
		<tag k="place" v="locality" />
		<tag k="ssr:stedsnr" v="558802" />
	</node>
	<node lat="62.98401110991536" lon="10.086436109090357" id="-40603">
		<tag k="fixme" v="consider natural=peak for the most distinct mountains in the district" />
		<tag k="name" v="Gynnildfjellet" />
		<tag k="natural" v="hill" />
		<tag k="place" v="locality" />
		<tag k="ssr:stedsnr" v="558804" />
	</node>
	<node lat="63.03644166310477" lon="10.132944446918703" id="-40604">
		<tag k="alt_name" v="Ørnåsen" />
		<tag k="fixme" v="consider natural=peak for the most distinct mountains in the district" />
		<tag k="name" v="Storørnåsen" />
		<tag k="natural" v="hill" />
		<tag k="place" v="locality" />
		<tag k="ssr:stedsnr" v="558599" />
	</node>
	<node lat="62.97936666830053" lon="10.165841671463236" id="-40613">
		<tag k="fixme" v="consider natural=peak for the most distinct mountains in the district" />
		<tag k="name" v="Åsløkkjåsen" />
		<tag k="natural" v="hill" />
		<tag k="place" v="locality" />
		<tag k="ssr:stedsnr" v="578552" />
	</node>
	<node lat="62.987188886854746" lon="10.259997217180418" id="-40614">
		<tag k="name" v="Heimbakken" />
		<tag k="natural" v="slope" />
		<tag k="place" v="locality" />
		<tag k="ssr:stedsnr" v="578295" />
	</node>
	<node lat="62.991886109030396" lon="10.376413888102563" id="-40616">
		<tag k="name" v="Storslættet" />
		<tag k="natural" v="slope" />
		<tag k="place" v="locality" />
		<tag k="ssr:stedsnr" v="578750" />
	</node>
	<node lat="62.94849444876699" lon="10.26693889639392" id="-40621">
		<tag k="fixme" v="consider natural=peak for the most distinct mountains in the district" />
		<tag k="name" v="Sørliegga" />
		<tag k="natural" v="hill" />
		<tag k="place" v="locality" />
		<tag k="ssr:stedsnr" v="579049" />
	</node>
	<node lat="62.90406666852543" lon="10.30483332794638" id="-40625">
		<tag k="name" v="Solemsliin" />
		<tag k="natural" v="slope" />
		<tag k="place" v="locality" />
		<tag k="ssr:stedsnr" v="579240" />
	</node>
	<node lat="62.81256666947076" lon="10.469750001867038" id="-40635">
		<tag k="name" v="Kolmilråin" />
		<tag k="natural" v="slope" />
		<tag k="place" v="locality" />
		<tag k="ssr:stedsnr" v="579304" />
	</node>
	<node lat="62.98489166730987" lon="10.270766657420692" id="-40638">
		<tag k="name" v="Arnsbakkan" />
		<tag k="natural" v="slope" />
		<tag k="place" v="locality" />
		<tag k="ssr:stedsnr" v="579403" />
	</node>
	<node lat="62.881258336674584" lon="10.44857778380515" id="-40639">
		<tag k="name" v="Viskoglia" />
		<tag k="natural" v="slope" />
		<tag k="place" v="locality" />
		<tag k="ssr:stedsnr" v="579406" />
	</node>
	<node lat="62.96477222578104" lon="10.509002771191103" id="-40640">
		<tag k="fixme" v="consider natural=peak for the most distinct mountains in the district" />
		<tag k="name" v="Setrengsåsen" />
		<tag k="natural" v="hill" />
		<tag k="place" v="locality" />
		<tag k="ssr:stedsnr" v="579602" />
	</node>
	<node lat="62.985675003142504" lon="10.502449998489295" id="-40642">
		<tag k="fixme" v="consider natural=peak for the most distinct mountains in the district" />
		<tag k="name" v="Klevåsen" />
		<tag k="natural" v="hill" />
		<tag k="place" v="locality" />
		<tag k="ssr:stedsnr" v="579612" />
	</node>
	<node lat="62.98400833756983" lon="10.482180552503253" id="-40643">
		<tag k="name" v="Nordliin" />
		<tag k="natural" v="slope" />
		<tag k="place" v="locality" />
		<tag k="ssr:stedsnr" v="579625" />
	</node>
	<node lat="63.00320277374396" lon="10.580636102350852" id="-40645">
		<tag k="name" v="Gjelhaugen" />
		<tag k="natural" v="hill" />
		<tag k="place" v="locality" />
		<tag k="ssr:stedsnr" v="579646" />
	</node>
	<node lat="62.996366668253465" lon="10.558741665020039" id="-40646">
		<tag k="fixme" v="consider natural=peak for the most distinct mountains in the district" />
		<tag k="name" v="Kneppen" />
		<tag k="natural" v="hill" />
		<tag k="place" v="locality" />
		<tag k="ssr:stedsnr" v="579647" />
	</node>
	<node lat="62.99427777534948" lon="10.549563885114024" id="-40647">
		<tag k="name" v="Litlbrua" />
		<tag k="natural" v="ridge" />
		<tag k="place" v="locality" />
		<tag k="ssr:stedsnr" v="579648" />
	</node>
	<node lat="63.00359999837373" lon="10.49643610287089" id="-40648">
		<tag k="fixme" v="consider natural=peak for the most distinct mountains in the district" />
		<tag k="name" v="Vårvollåsen" />
		<tag k="natural" v="hill" />
		<tag k="place" v="locality" />
		<tag k="ssr:stedsnr" v="579652" />
	</node>
	<node lat="63.010436112544" lon="10.489769436331464" id="-40649">
		<tag k="fixme" v="consider natural=peak for the most distinct mountains in the district" />
		<tag k="name" v="Koddelåsen" />
		<tag k="natural" v="hill" />
		<tag k="place" v="locality" />
		<tag k="ssr:stedsnr" v="579654" />
	</node>
	<node lat="62.88515555652306" lon="10.493702772572883" id="-40650">
		<tag k="name" v="Mannen" />
		<tag k="natural" v="slope" />
		<tag k="place" v="locality" />
		<tag k="ssr:stedsnr" v="579517" />
	</node>
	<node lat="62.878616664413094" lon="10.46969166630171" id="-40652">
		<tag k="fixme" v="consider natural=peak for the most distinct mountains in the district" />
		<tag k="name" v="Gråtaregga" />
		<tag k="natural" v="hill" />
		<tag k="place" v="locality" />
		<tag k="ssr:stedsnr" v="579525" />
	</node>
	<node lat="62.85341944024581" lon="10.530813891203218" id="-40654">
		<tag k="name" v="Storhaugen" />
		<tag k="natural" v="hill" />
		<tag k="place" v="locality" />
		<tag k="ssr:stedsnr" v="579555" />
	</node>
	<node lat="63.00570555515576" lon="10.04496110234708" id="-40659">
		<tag k="fixme" v="consider natural=peak for the most distinct mountains in the district" />
		<tag k="name" v="Kåsan" />
		<tag k="natural" v="hill" />
		<tag k="place" v="locality" />
		<tag k="ssr:stedsnr" v="579708" />
	</node>
	<node lat="62.94065277646806" lon="10.72146389423075" id="-40670">
		<tag k="name" v="Gråberget" />
		<tag k="natural" v="hill" />
		<tag k="place" v="locality" />
		<tag k="ssr:stedsnr" v="579844" />
	</node>
	<node lat="62.86596110905942" lon="10.748861111409125" id="-40676">
		<tag k="name" v="Soleikåsa" />
		<tag k="natural" v="hill" />
		<tag k="place" v="locality" />
		<tag k="ssr:stedsnr" v="579794" />
	</node>
	<node lat="63.07422221946395" lon="10.329347212273664" id="-40678">
		<tag k="name" v="Langdalen" />
		<tag k="natural" v="valley" />
		<tag k="place" v="locality" />
		<tag k="ssr:stedsnr" v="579903" />
	</node>
	<node lat="62.907311108693634" lon="10.348722215891563" id="-40686">
		<tag k="fixme" v="consider natural=peak for the most distinct mountains in the district" />
		<tag k="name" v="Kalvhåggåberga" />
		<tag k="natural" v="hill" />
		<tag k="place" v="locality" />
		<tag k="ssr:stedsnr" v="579949" />
	</node>
	<node lat="62.91552221817818" lon="10.392469437639859" id="-40687">
		<tag k="fixme" v="consider natural=peak for the most distinct mountains in the district" />
		<tag k="name" v="Slettåsen" />
		<tag k="natural" v="hill" />
		<tag k="place" v="locality" />
		<tag k="ssr:stedsnr" v="579956" />
	</node>
	<node lat="62.89500555774412" lon="10.368066666933569" id="-40691">
		<tag k="name" v="Litl-løkkja" />
		<tag k="place" v="locality" />
		<tag k="ssr:stedsnr" v="579999" />
	</node>
	<node lat="62.98961111019841" lon="10.25377778736538" id="-40693">
		<tag k="name" v="Fremstuubakkan" />
		<tag k="natural" v="slope" />
		<tag k="place" v="locality" />
		<tag k="ssr:stedsnr" v="699344" />
	</node>
	<node lat="62.926116663519714" lon="10.298925007362486" id="-40703">
		<tag k="name" v="Kjellarberga" />
		<tag k="natural" v="hill" />
		<tag k="place" v="locality" />
		<tag k="ssr:stedsnr" v="700042" />
	</node>
	<node lat="62.9833944457147" lon="10.33567777860785" id="-40709">
		<tag k="name" v="Gråberget" />
		<tag k="natural" v="hill" />
		<tag k="place" v="locality" />
		<tag k="ssr:stedsnr" v="700096" />
	</node>
	<node lat="63.044933333863334" lon="10.591263896540493" id="-40710">
		<tag k="name" v="Utsikten" />
		<tag k="natural" v="slope" />
		<tag k="place" v="locality" />
		<tag k="ssr:stedsnr" v="700192" />
	</node>
	<node lat="63.02576388457974" lon="10.326425008250652" id="-40714">
		<tag k="fixme" v="consider natural=peak for the most distinct mountains in the district" />
		<tag k="name" v="Husåsen" />
		<tag k="natural" v="hill" />
		<tag k="place" v="locality" />
		<tag k="ssr:stedsnr" v="700123" />
	</node>
	<node lat="63.015186109018124" lon="10.324619452266937" id="-40717">
		<tag k="name" v="Brannhaugan" />
		<tag k="natural" v="hill" />
		<tag k="place" v="locality" />
		<tag k="ssr:stedsnr" v="700138" />
	</node>
	<node lat="62.763286114113754" lon="10.648627777537262" id="-40720">
		<tag k="name" v="Rundhøgda" />
		<tag k="natural" v="hill" />
		<tag k="place" v="locality" />
		<tag k="ssr:stedsnr" v="700227" />
	</node>
	<node lat="63.066294443754025" lon="10.631322224100742" id="-40721">
		<tag k="name" v="Skorbekkdalen" />
		<tag k="natural" v="valley" />
		<tag k="place" v="locality" />
		<tag k="ssr:stedsnr" v="700231" />
	</node>
	<node lat="62.885936107551935" lon="10.297255546762072" id="-40723">
		<tag k="name" v="Baklia" />
		<tag k="natural" v="slope" />
		<tag k="place" v="locality" />
		<tag k="ssr:stedsnr" v="700247" />
	</node>
	<node lat="62.901636107623446" lon="10.309086105964711" id="-40725">
		<tag k="name" v="Varghaugen" />
		<tag k="natural" v="hill" />
		<tag k="place" v="locality" />
		<tag k="ssr:stedsnr" v="700249" />
	</node>
	<node lat="62.78501388966647" lon="10.46422778446661" id="-40726">
		<tag k="fixme" v="consider natural=peak for the most distinct mountains in the district" />
		<tag k="name" v="Snadden" />
		<tag k="natural" v="hill" />
		<tag k="place" v="locality" />
		<tag k="ssr:stedsnr" v="700257" />
	</node>
	<node lat="62.92139722048739" lon="10.168019443572797" id="-40727">
		<tag k="name" v="Vindåsliberga" />
		<tag k="natural" v="hill" />
		<tag k="place" v="locality" />
		<tag k="ssr:stedsnr" v="700340" />
	</node>
	<node lat="62.97926111490931" lon="10.185705557169939" id="-40728">
		<tag k="name" v="Svenskhaugen" />
		<tag k="natural" v="hill" />
		<tag k="place" v="locality" />
		<tag k="ssr:stedsnr" v="700341" />
	</node>
	<node lat="62.83705555232555" lon="10.501363882442474" id="-40731">
		<tag k="name" v="Åsløa" />
		<tag k="natural" v="slope" />
		<tag k="place" v="locality" />
		<tag k="ssr:stedsnr" v="700273" />
	</node>
	<node lat="62.99245278205243" lon="10.25076665999811" id="-40732">
		<tag k="name" v="Nordstuubakken" />
		<tag k="natural" v="slope" />
		<tag k="place" v="locality" />
		<tag k="ssr:stedsnr" v="700280" />
	</node>
	<node lat="62.864805555203354" lon="10.251630548843709" id="-40735">
		<tag k="fixme" v="consider natural=peak for the most distinct mountains in the district" />
		<tag k="name" v="Holtåsen" />
		<tag k="natural" v="hill" />
		<tag k="place" v="locality" />
		<tag k="ssr:stedsnr" v="700294" />
	</node>
	<node lat="62.983658336367355" lon="10.18846389488722" id="-40736">
		<tag k="name" v="Havdin" />
		<tag k="natural" v="hill" />
		<tag k="place" v="locality" />
		<tag k="ssr:stedsnr" v="700299" />
	</node>
	<node lat="63.02207777409907" lon="10.402911114114378" id="-40739">
		<tag k="name" v="Liin" />
		<tag k="natural" v="slope" />
		<tag k="place" v="locality" />
		<tag k="ssr:stedsnr" v="700308" />
	</node>
	<node lat="62.91378333145351" lon="10.41414166804559" id="-40743">
		<tag k="fixme" v="consider natural=peak for the most distinct mountains in the district" />
		<tag k="name" v="Kneppen" />
		<tag k="natural" v="hill" />
		<tag k="place" v="locality" />
		<tag k="ssr:stedsnr" v="700348" />
	</node>
	<node lat="62.8723972180646" lon="10.254236104458759" id="-40744">
		<tag k="name" v="Fagerlia" />
		<tag k="natural" v="slope" />
		<tag k="place" v="locality" />
		<tag k="ssr:stedsnr" v="700350" />
	</node>
	<node lat="62.928752774509725" lon="10.457472223453859" id="-40749">
		<tag k="name" v="Litlhusmyrberget" />
		<tag k="natural" v="hill" />
		<tag k="place" v="locality" />
		<tag k="ssr:stedsnr" v="700359" />
	</node>
	<node lat="62.94182777453094" lon="10.58511111393688" id="-40759">
		<tag k="fixme" v="consider natural=peak for the most distinct mountains in the district" />
		<tag k="name" v="Litlvollkåsin" />
		<tag k="natural" v="hill" />
		<tag k="place" v="locality" />
		<tag k="ssr:stedsnr" v="700534" />
	</node>
	<node lat="62.85899999583436" lon="10.49323055327299" id="-40763">
		<tag k="name" v="Middagsgrubba" />
		<tag k="place" v="locality" />
		<tag k="ssr:stedsnr" v="700498" />
	</node>
	<node lat="62.86393333204684" lon="10.49255000632657" id="-40764">
		<tag k="name" v="Gjelbakkan" />
		<tag k="natural" v="slope" />
		<tag k="place" v="locality" />
		<tag k="ssr:stedsnr" v="700499" />
	</node>
	<node lat="62.86690277753075" lon="10.496686117115358" id="-40765">
		<tag k="name" v="Vollabakkan" />
		<tag k="natural" v="slope" />
		<tag k="place" v="locality" />
		<tag k="ssr:stedsnr" v="700501" />
	</node>
	<node lat="62.85455833049742" lon="10.217405549518235" id="-40767">
		<tag k="name" v="Litlslættet" />
		<tag k="place" v="locality" />
		<tag k="ssr:stedsnr" v="700588" />
	</node>
	<node lat="62.94971667097667" lon="10.156580550481113" id="-40770">
		<tag k="fixme" v="consider natural=peak for the most distinct mountains in the district" />
		<tag k="name" v="Litlåsen" />
		<tag k="natural" v="hill" />
		<tag k="place" v="locality" />
		<tag k="ssr:stedsnr" v="700601" />
	</node>
	<node lat="63.003952781938786" lon="10.04398610393763" id="-40772">
		<tag k="fixme" v="consider natural=peak for the most distinct mountains in the district" />
		<tag k="name" v="Svekneppen" />
		<tag k="natural" v="hill" />
		<tag k="place" v="locality" />
		<tag k="ssr:stedsnr" v="700675" />
	</node>
	<node lat="63.002800000128666" lon="10.055266675181405" id="-40774">
		<tag k="name" v="Brekk-kleva" />
		<tag k="natural" v="hill" />
		<tag k="place" v="locality" />
		<tag k="ssr:stedsnr" v="700679" />
	</node>
	<node lat="63.02431666461618" lon="10.488230547677235" id="-40779">
		<tag k="fixme" v="consider natural=peak for the most distinct mountains in the district" />
		<tag k="name" v="Ratholet" />
		<tag k="natural" v="hill" />
		<tag k="place" v="locality" />
		<tag k="ssr:stedsnr" v="700637" />
	</node>
	<node lat="62.82574722500399" lon="10.613513893924036" id="-40781">
		<tag k="fixme" v="consider natural=peak for the most distinct mountains in the district" />
		<tag k="name" v="Lerbekkfjellet" />
		<tag k="natural" v="hill" />
		<tag k="place" v="locality" />
		<tag k="ssr:stedsnr" v="700640" />
	</node>
	<node lat="62.993619446277464" lon="10.02136943850053" id="-40782">
		<tag k="name" v="Hyllslettet" />
		<tag k="place" v="locality" />
		<tag k="ssr:stedsnr" v="700641" />
	</node>
	<node lat="62.87060277850191" lon="10.701638886577467" id="-40783">
		<tag k="fixme" v="consider natural=peak for the most distinct mountains in the district" />
		<tag k="name" v="Kallkåsa" />
		<tag k="natural" v="hill" />
		<tag k="place" v="locality" />
		<tag k="ssr:stedsnr" v="700642" />
	</node>
	<node lat="62.98573055489088" lon="10.480238893797633" id="-40784">
		<tag k="fixme" v="consider natural=peak for the most distinct mountains in the district" />
		<tag k="name" v="Hestgårdfjellet" />
		<tag k="natural" v="hill" />
		<tag k="place" v="locality" />
		<tag k="ssr:stedsnr" v="700643" />
	</node>
	<node lat="62.878758337543296" lon="10.695761103086173" id="-40786">
		<tag k="fixme" v="consider natural=peak for the most distinct mountains in the district" />
		<tag k="name" v="Oddgrubbon" />
		<tag k="natural" v="hill" />
		<tag k="place" v="locality" />
		<tag k="ssr:stedsnr" v="700646" />
	</node>
	<node lat="62.897586108368905" lon="10.708238882838238" id="-40788">
		<tag k="name" v="Bråten" />
		<tag k="natural" v="slope" />
		<tag k="place" v="locality" />
		<tag k="ssr:stedsnr" v="700656" />
	</node>
	<node lat="62.9138194416003" lon="10.720280558297981" id="-40795">
		<tag k="name" v="Snørruhaugen" />
		<tag k="natural" v="hill" />
		<tag k="place" v="locality" />
		<tag k="ssr:stedsnr" v="700784" />
	</node>
	<node lat="62.98763889294963" lon="10.396099995696908" id="-40796">
		<tag k="name" v="Liavolldalen" />
		<tag k="natural" v="valley" />
		<tag k="place" v="locality" />
		<tag k="ssr:stedsnr" v="700788" />
	</node>
	<node lat="63.01216666502702" lon="10.336202781752066" id="-40804">
		<tag k="name" v="Saglia" />
		<tag k="natural" v="slope" />
		<tag k="place" v="locality" />
		<tag k="ssr:stedsnr" v="700746" />
	</node>
	<node lat="62.94629444076877" lon="10.056486101818544" id="-40807">
		<tag k="name" v="Høgkamben" />
		<tag k="natural" v="hill" />
		<tag k="place" v="locality" />
		<tag k="ssr:stedsnr" v="700830" />
	</node>
	<node lat="62.96077778118444" lon="10.93338055952575" id="-40808">
		<tag k="fixme" v="consider natural=peak for the most distinct mountains in the district" />
		<tag k="name" v="Langåsen" />
		<tag k="natural" v="hill" />
		<tag k="place" v="locality" />
		<tag k="ssr:stedsnr" v="700834" />
	</node>
	<node lat="62.905966669674754" lon="10.774827774065539" id="-40814">
		<tag k="name" v="Litlslættet" />
		<tag k="place" v="locality" />
		<tag k="ssr:stedsnr" v="700796" />
	</node>
	<node lat="63.019188892353945" lon="10.260133341269247" id="-40822">
		<tag k="fixme" v="consider natural=peak for the most distinct mountains in the district" />
		<tag k="name" v="Våttan" />
		<tag k="natural" v="hill" />
		<tag k="place" v="locality" />
		<tag k="ssr:stedsnr" v="700932" />
	</node>
	<node lat="62.904422220648335" lon="10.346944444334387" id="-40824">
		<tag k="name" v="Kolmoen" />
		<tag k="place" v="locality" />
		<tag k="ssr:stedsnr" v="700943" />
	</node>
	<node lat="62.90633333304952" lon="10.385302784412351" id="-40829">
		<tag k="name" v="Vollaegga" />
		<tag k="natural" v="ridge" />
		<tag k="place" v="locality" />
		<tag k="ssr:stedsnr" v="700994" />
	</node>
	<node lat="62.9772750031664" lon="10.856286106716023" id="-40830">
		<tag k="name" v="Finnherbangen" />
		<tag k="place" v="locality" />
		<tag k="ssr:stedsnr" v="700901" />
	</node>
	<node lat="63.06372500085289" lon="10.31608611275722" id="-40831">
		<tag k="name" v="Jarndalen" />
		<tag k="natural" v="valley" />
		<tag k="place" v="locality" />
		<tag k="ssr:stedsnr" v="700904" />
	</node>
	<node lat="62.745477775714534" lon="10.733419450682307" id="-40833">
		<tag k="fixme" v="consider natural=peak for the most distinct mountains in the district" />
		<tag k="name" v="Hamran" />
		<tag k="natural" v="hill" />
		<tag k="place" v="locality" />
		<tag k="ssr:stedsnr" v="618034" />
	</node>
	<node lat="62.68048333688623" lon="10.46507500162104" id="-40837">
		<tag k="name" v="Stiftsvardhøgda" />
		<tag k="natural" v="hill" />
		<tag k="place" v="locality" />
		<tag k="ssr:stedsnr" v="618379" />
	</node>
	<node lat="62.96937499959417" lon="10.632808327113398" id="-40842">
		<tag k="name" v="Haustaslætthaugen" />
		<tag k="natural" v="hill" />
		<tag k="place" v="locality" />
		<tag k="ssr:stedsnr" v="618535" />
	</node>
	<node lat="62.75329999706212" lon="10.672608328025929" id="-40847">
		<tag k="fixme" v="consider natural=peak for the most distinct mountains in the district" />
		<tag k="name" v="Grøndalshøgda" />
		<tag k="natural" v="hill" />
		<tag k="place" v="locality" />
		<tag k="ssr:stedsnr" v="619291" />
	</node>
	<node lat="62.91024166838039" lon="10.772752772232876" id="-40849">
		<tag k="fixme" v="consider natural=peak for the most distinct mountains in the district" />
		<tag k="name" v="Nyseteråsen" />
		<tag k="natural" v="hill" />
		<tag k="place" v="locality" />
		<tag k="ssr:stedsnr" v="619424" />
	</node>
	<node lat="62.886497225476226" lon="10.287577773102552" id="-40852">
		<tag k="alt_name" v="Byadalen" />
		<tag k="name" v="Byådalen" />
		<tag k="natural" v="valley" />
		<tag k="place" v="locality" />
		<tag k="ssr:stedsnr" v="619672" />
	</node>
	<node lat="62.955013892369834" lon="10.56749444307442" id="-40859">
		<tag k="fixme" v="consider natural=peak for the most distinct mountains in the district" />
		<tag k="name" v="Storåsen" />
		<tag k="natural" v="hill" />
		<tag k="place" v="locality" />
		<tag k="ssr:stedsnr" v="619725" />
	</node>
	<node lat="63.022413889585216" lon="10.304650006003877" id="-40860">
		<tag k="fixme" v="consider natural=peak for the most distinct mountains in the district" />
		<tag k="name" v="Kamnebben" />
		<tag k="natural" v="hill" />
		<tag k="place" v="locality" />
		<tag k="ssr:stedsnr" v="619975" />
	</node>
	<node lat="63.05136666636424" lon="10.415527773829965" id="-40862">
		<tag k="name" v="Hamran" />
		<tag k="natural" v="hill" />
		<tag k="place" v="locality" />
		<tag k="ssr:stedsnr" v="619983" />
	</node>
	<node lat="63.046430557910625" lon="10.551775008491015" id="-40866">
		<tag k="name" v="Larsliknippen" />
		<tag k="natural" v="hill" />
		<tag k="place" v="locality" />
		<tag k="ssr:stedsnr" v="619992" />
	</node>
	<node lat="63.02755277600448" lon="10.978291663358084" id="-40868">
		<tag k="fixme" v="consider natural=peak for the most distinct mountains in the district" />
		<tag k="name" v="Bjørkåsen" />
		<tag k="natural" v="hill" />
		<tag k="place" v="locality" />
		<tag k="ssr:stedsnr" v="627345" />
	</node>
	<node lat="63.01634166370229" lon="10.302130553940547" id="-40873">
		<tag k="name" v="Kambdalen" />
		<tag k="natural" v="valley" />
		<tag k="place" v="locality" />
		<tag k="ssr:stedsnr" v="639125" />
	</node>
	<node lat="62.914900003535905" lon="10.810691672849355" id="-40875">
		<tag k="name" v="Nyvoll-lian" />
		<tag k="natural" v="slope" />
		<tag k="place" v="locality" />
		<tag k="ssr:stedsnr" v="639176" />
	</node>
	<node lat="62.94485278007661" lon="10.32565555248765" id="-40877">
		<tag k="name" v="Bonnråbakkan" />
		<tag k="natural" v="slope" />
		<tag k="place" v="locality" />
		<tag k="ssr:stedsnr" v="639011" />
	</node>
	<node lat="62.978030556220055" lon="10.293283334221096" id="-40882">
		<tag k="fixme" v="consider natural=peak for the most distinct mountains in the district" />
		<tag k="name" v="Flangenborg" />
		<tag k="natural" v="hill" />
		<tag k="place" v="locality" />
		<tag k="ssr:stedsnr" v="639086" />
	</node>
	<node lat="62.985758337244285" lon="10.295444450109763" id="-40883">
		<tag k="fixme" v="consider natural=peak for the most distinct mountains in the district" />
		<tag k="name" v="Åsen" />
		<tag k="natural" v="hill" />
		<tag k="place" v="locality" />
		<tag k="ssr:stedsnr" v="639089" />
	</node>
	<node lat="63.01282500265809" lon="10.823758338717546" id="-40884">
		<tag k="name" v="Slipstenslættet" />
		<tag k="place" v="locality" />
		<tag k="ssr:stedsnr" v="639207" />
	</node>
	<node lat="62.8917194464455" lon="10.250097217706283" id="-40889">
		<tag k="name" v="Felles" />
		<tag k="natural" v="slope" />
		<tag k="place" v="locality" />
		<tag k="ssr:stedsnr" v="639283" />
	</node>
	<node lat="62.90940833367076" lon="10.24813333351146" id="-40890">
		<tag k="name" v="Innlegghaugen" />
		<tag k="natural" v="hill" />
		<tag k="place" v="locality" />
		<tag k="ssr:stedsnr" v="639284" />
	</node>
	<node lat="62.8174999987228" lon="10.489516660382856" id="-40891">
		<tag k="name" v="Kolbotndalen" />
		<tag k="natural" v="valley" />
		<tag k="place" v="locality" />
		<tag k="ssr:stedsnr" v="639290" />
	</node>
	<node lat="62.93835555801126" lon="10.560666657946019" id="-40894">
		<tag k="name" v="Flåkkåslættet" />
		<tag k="place" v="locality" />
		<tag k="ssr:stedsnr" v="639403" />
	</node>
	<node lat="62.87600555847625" lon="10.269902771026958" id="-40896">
		<tag k="name" v="Djupdalen" />
		<tag k="natural" v="valley" />
		<tag k="place" v="locality" />
		<tag k="ssr:stedsnr" v="639308" />
	</node>
	<node lat="62.969599997481154" lon="10.200011117709742" id="-40897">
		<tag k="name" v="Hovsmoen" />
		<tag k="place" v="locality" />
		<tag k="ssr:stedsnr" v="639313" />
	</node>
	<node lat="62.88865833415067" lon="10.45957222405932" id="-40901">
		<tag k="name" v="Purklia" />
		<tag k="natural" v="slope" />
		<tag k="place" v="locality" />
		<tag k="ssr:stedsnr" v="639391" />
	</node>
	<node lat="62.865127780343904" lon="10.55588056525005" id="-40905">
		<tag k="name" v="Litlslættet" />
		<tag k="place" v="locality" />
		<tag k="ssr:stedsnr" v="639527" />
	</node>
	<node lat="63.01557221871775" lon="10.495474993508637" id="-40907">
		<tag k="name" v="Fuggelleken" />
		<tag k="place" v="locality" />
		<tag k="ssr:stedsnr" v="639611" />
	</node>
	<node lat="62.927225003275005" lon="10.1302833256576" id="-40908">
		<tag k="name" v="Kvitberga" />
		<tag k="natural" v="hill" />
		<tag k="place" v="locality" />
		<tag k="ssr:stedsnr" v="639614" />
	</node>
	<node lat="63.01346944325316" lon="10.504372214782576" id="-40909">
		<tag k="name" v="Stordalen" />
		<tag k="natural" v="valley" />
		<tag k="place" v="locality" />
		<tag k="ssr:stedsnr" v="639615" />
	</node>
	<node lat="63.03943055633899" lon="10.49314166581496" id="-40910">
		<tag k="name" v="Romslættet" />
		<tag k="place" v="locality" />
		<tag k="ssr:stedsnr" v="639623" />
	</node>
	<node lat="62.919463889586694" lon="10.690211105634091" id="-40912">
		<tag k="fixme" v="consider natural=peak for the most distinct mountains in the district" />
		<tag k="name" v="Bakåsan" />
		<tag k="natural" v="hill" />
		<tag k="place" v="locality" />
		<tag k="ssr:stedsnr" v="639690" />
	</node>
	<node lat="62.919075001613365" lon="10.665122216687628" id="-40913">
		<tag k="name" v="Langbakken" />
		<tag k="natural" v="slope" />
		<tag k="place" v="locality" />
		<tag k="ssr:stedsnr" v="639692" />
	</node>
	<node lat="63.00486667011022" lon="10.05975277587426" id="-40914">
		<tag k="fixme" v="consider natural=peak for the most distinct mountains in the district" />
		<tag k="name" v="Kleva" />
		<tag k="natural" v="hill" />
		<tag k="place" v="locality" />
		<tag k="ssr:stedsnr" v="639696" />
	</node>
	<node lat="63.02191666335659" lon="10.371505561514802" id="-40917">
		<tag k="fixme" v="consider natural=peak for the most distinct mountains in the district" />
		<tag k="name" v="Eriksåsen" />
		<tag k="natural" v="hill" />
		<tag k="place" v="locality" />
		<tag k="ssr:stedsnr" v="639806" />
	</node>
	<node lat="63.040522226044175" lon="10.371611120201385" id="-40919">
		<tag k="name" v="Vasslia" />
		<tag k="natural" v="slope" />
		<tag k="place" v="locality" />
		<tag k="ssr:stedsnr" v="639810" />
	</node>
	<node lat="62.94743889283129" lon="10.1179055655002" id="-40920">
		<tag k="name" v="Høløslættet" />
		<tag k="place" v="locality" />
		<tag k="ssr:stedsnr" v="639817" />
	</node>
	<node lat="62.946822222335804" lon="10.655383326441681" id="-40927">
		<tag k="name" v="Kletten" />
		<tag k="place" v="locality" />
		<tag k="ssr:stedsnr" v="639704" />
	</node>
	<node lat="62.963583332292124" lon="10.700530547683721" id="-40929">
		<tag k="name" v="Synnergjardsberga" />
		<tag k="natural" v="hill" />
		<tag k="place" v="locality" />
		<tag k="ssr:stedsnr" v="639719" />
	</node>
	<node lat="62.99172777791529" lon="10.931894453608079" id="-40931">
		<tag k="name" v="Lian" />
		<tag k="natural" v="slope" />
		<tag k="place" v="locality" />
		<tag k="ssr:stedsnr" v="639903" />
	</node>
	<node lat="62.74890555479088" lon="10.454816665607527" id="-40932">
		<tag k="name" v="Svartlia" />
		<tag k="natural" v="slope" />
		<tag k="place" v="locality" />
		<tag k="ssr:stedsnr" v="639904" />
	</node>
	<node lat="63.066724997540554" lon="10.32333610874579" id="-40933">
		<tag k="alt_name" v="Gølløvtjønnberget" />
		<tag k="name" v="Gullaugtjønnberget" />
		<tag k="natural" v="hill" />
		<tag k="place" v="locality" />
		<tag k="ssr:stedsnr" v="639906" />
	</node>
	<node lat="62.76611944059469" lon="10.41033888563038" id="-40936">
		<tag k="name" v="Risknappliin" />
		<tag k="natural" v="slope" />
		<tag k="place" v="locality" />
		<tag k="ssr:stedsnr" v="639912" />
	</node>
	<node lat="62.72608333737454" lon="10.749538894090172" id="-40945">
		<tag k="name" v="Grøthaugen" />
		<tag k="natural" v="hill" />
		<tag k="place" v="locality" />
		<tag k="ssr:stedsnr" v="678036" />
	</node>
	<node lat="62.70938055761906" lon="10.75979445296679" id="-40948">
		<tag k="fixme" v="consider natural=peak for the most distinct mountains in the district" />
		<tag k="name" v="Litlesalen" />
		<tag k="natural" v="hill" />
		<tag k="place" v="locality" />
		<tag k="ssr:stedsnr" v="679021" />
	</node>
	<node lat="63.07131388543689" lon="10.585088891067299" id="-40953">
		<tag k="name" v="Rognesdalen" />
		<tag k="natural" v="valley" />
		<tag k="place" v="locality" />
		<tag k="ssr:stedsnr" v="679871" />
	</node>
	<node lat="62.85015833281712" lon="10.736969442903918" id="-40957">
		<tag k="fixme" v="consider natural=peak for the most distinct mountains in the district" />
		<tag k="name" v="Styggfjellet" />
		<tag k="natural" v="hill" />
		<tag k="place" v="locality" />
		<tag k="ssr:stedsnr" v="680095" />
	</node>
	<node lat="63.0295249962164" lon="10.201041666184642" id="-40961">
		<tag k="fixme" v="consider natural=peak for the most distinct mountains in the district" />
		<tag k="name" v="Urdskneppen" />
		<tag k="natural" v="hill" />
		<tag k="place" v="locality" />
		<tag k="ssr:stedsnr" v="680719" />
	</node>
	<node lat="62.93819999692963" lon="10.536447230670529" id="-40965">
		<tag k="name" v="Brentrya" />
		<tag k="natural" v="hill" />
		<tag k="place" v="locality" />
		<tag k="ssr:stedsnr" v="680776" />
	</node>
	<node lat="62.99088611076599" lon="10.76325832525833" id="-40971">
		<tag k="fixme" v="consider natural=peak for the most distinct mountains in the district" />
		<tag k="name" v="Litlfjellet" />
		<tag k="natural" v="hill" />
		<tag k="place" v="locality" />
		<tag k="ssr:stedsnr" v="688290" />
	</node>
	<node lat="62.889763887379246" lon="10.662069442501606" id="-40972">
		<tag k="name" v="Høsryggen" />
		<tag k="natural" v="ridge" />
		<tag k="place" v="locality" />
		<tag k="ssr:stedsnr" v="688536" />
	</node>
	<node lat="62.9500166645469" lon="10.314955548486799" id="-40975">
		<tag k="fixme" v="consider natural=peak for the most distinct mountains in the district" />
		<tag k="name" v="Stenbruåsen" />
		<tag k="natural" v="hill" />
		<tag k="place" v="locality" />
		<tag k="ssr:stedsnr" v="700007" />
	</node>
	<node lat="62.91629444871648" lon="10.912355556257213" id="-40980">
		<tag k="name" v="Haltberget" />
		<tag k="natural" v="hill" />
		<tag k="place" v="locality" />
		<tag k="ssr:stedsnr" v="700204" />
	</node>
	<node lat="63.01525555153815" lon="10.831163879423798" id="-40981">
		<tag k="name" v="Tjønnslættet" />
		<tag k="place" v="locality" />
		<tag k="ssr:stedsnr" v="700207" />
	</node>
	<node lat="62.74158333445534" lon="10.676541672764017" id="-40983">
		<tag k="fixme" v="consider natural=peak for the most distinct mountains in the district" />
		<tag k="name" v="Skjeftgrøbba" />
		<tag k="natural" v="hill" />
		<tag k="place" v="locality" />
		<tag k="ssr:stedsnr" v="700215" />
	</node>
	<node lat="62.73666389029457" lon="10.661972226694868" id="-40984">
		<tag k="name" v="Bekkløa" />
		<tag k="place" v="locality" />
		<tag k="ssr:stedsnr" v="700218" />
	</node>
	<node lat="62.816483329171746" lon="10.306505547329333" id="-40986">
		<tag k="name" v="Våss-dalen" />
		<tag k="natural" v="valley" />
		<tag k="place" v="locality" />
		<tag k="ssr:stedsnr" v="700265" />
	</node>
	<node lat="62.959977779056196" lon="10.2313277807482" id="-40988">
		<tag k="name" v="Hammerdalsberga" />
		<tag k="natural" v="hill" />
		<tag k="place" v="locality" />
		<tag k="ssr:stedsnr" v="700104" />
	</node>
	<node lat="62.83635555581006" lon="10.451644442754208" id="-40991">
		<tag k="name" v="Tjønnhaugen" />
		<tag k="natural" v="hill" />
		<tag k="place" v="locality" />
		<tag k="ssr:stedsnr" v="700170" />
	</node>
	<node lat="63.01005555447143" lon="10.402647220445123" id="-40996">
		<tag k="name" v="Bjørndalen" />
		<tag k="natural" v="valley" />
		<tag k="place" v="locality" />
		<tag k="ssr:stedsnr" v="700322" />
	</node>
	<node lat="62.93510000200564" lon="10.446049998248826" id="-40998">
		<tag k="name" v="Kalvhåggåslættet" />
		<tag k="place" v="locality" />
		<tag k="ssr:stedsnr" v="700331" />
	</node>
	<node lat="62.902497225148075" lon="10.42823334167061" id="-40999">
		<tag k="name" v="Slættlia" />
		<tag k="natural" v="slope" />
		<tag k="place" v="locality" />
		<tag k="ssr:stedsnr" v="700368" />
	</node>
	<node lat="62.87936389244215" lon="10.537913892769295" id="-41000">
		<tag k="name" v="Fjerdingsbakken" />
		<tag k="natural" v="slope" />
		<tag k="place" v="locality" />
		<tag k="ssr:stedsnr" v="700461" />
	</node>
	<node lat="62.874002776291384" lon="10.539383336856215" id="-41001">
		<tag k="name" v="Koiehaugen" />
		<tag k="natural" v="hill" />
		<tag k="place" v="locality" />
		<tag k="ssr:stedsnr" v="700462" />
	</node>
	<node lat="62.87628889264188" lon="10.498802787575622" id="-41003">
		<tag k="name" v="Krigsvoll-løkkja" />
		<tag k="place" v="locality" />
		<tag k="ssr:stedsnr" v="700466" />
	</node>
	<node lat="63.013933334433474" lon="10.251549996393724" id="-41005">
		<tag k="name" v="Tangbakken" />
		<tag k="natural" v="slope" />
		<tag k="place" v="locality" />
		<tag k="ssr:stedsnr" v="700606" />
	</node>
	<node lat="62.97795277452685" lon="10.580674994287236" id="-41007">
		<tag k="fixme" v="consider natural=peak for the most distinct mountains in the district" />
		<tag k="name" v="Bjøllyåsen" />
		<tag k="natural" v="hill" />
		<tag k="place" v="locality" />
		<tag k="ssr:stedsnr" v="700612" />
	</node>
	<node lat="62.92615555860659" lon="10.131977772589405" id="-41009">
		<tag k="name" v="Massmyrhaugen" />
		<tag k="natural" v="hill" />
		<tag k="place" v="locality" />
		<tag k="ssr:stedsnr" v="700621" />
	</node>
	<node lat="62.85095833571693" lon="10.533319447458434" id="-41012">
		<tag k="name" v="Litlkjølhaugen" />
		<tag k="natural" v="hill" />
		<tag k="place" v="locality" />
		<tag k="ssr:stedsnr" v="700514" />
	</node>
	<node lat="62.97631944766943" lon="10.486591668355508" id="-41014">
		<tag k="name" v="Storløhaugen" />
		<tag k="natural" v="hill" />
		<tag k="place" v="locality" />
		<tag k="ssr:stedsnr" v="700564" />
	</node>
	<node lat="62.967663886652765" lon="10.817941659699724" id="-41022">
		<tag k="name" v="Litlbrennhaugen" />
		<tag k="natural" v="hill" />
		<tag k="place" v="locality" />
		<tag k="ssr:stedsnr" v="700813" />
	</node>
	<node lat="62.9453611082282" lon="10.74043889768258" id="-41023">
		<tag k="fixme" v="consider natural=peak for the most distinct mountains in the district" />
		<tag k="name" v="Litlåsen" />
		<tag k="natural" v="hill" />
		<tag k="place" v="locality" />
		<tag k="ssr:stedsnr" v="700820" />
	</node>
	<node lat="63.009125003209014" lon="10.076772229378888" id="-41024">
		<tag k="name" v="Bløtmyrskardet" />
		<tag k="natural" v="valley" />
		<tag k="place" v="locality" />
		<tag k="ssr:stedsnr" v="700822" />
	</node>
	<node lat="62.962916671116965" lon="10.102102784060737" id="-41025">
		<tag k="name" v="Småslætthøgda" />
		<tag k="natural" v="hill" />
		<tag k="place" v="locality" />
		<tag k="ssr:stedsnr" v="700826" />
	</node>
	<node lat="62.9338722189288" lon="10.79229167531088" id="-41026">
		<tag k="name" v="Råslættet" />
		<tag k="place" v="locality" />
		<tag k="ssr:stedsnr" v="700827" />
	</node>
	<node lat="62.99596944193894" lon="10.82368888132317" id="-41027">
		<tag k="fixme" v="consider natural=peak for the most distinct mountains in the district" />
		<tag k="name" v="Sildbuåsan" />
		<tag k="natural" v="hill" />
		<tag k="place" v="locality" />
		<tag k="ssr:stedsnr" v="700863" />
	</node>
	<node lat="62.9767805577376" lon="10.903494448935168" id="-41028">
		<tag k="name" v="Gammelplassen" />
		<tag k="natural" v="slope" />
		<tag k="place" v="locality" />
		<tag k="ssr:stedsnr" v="700877" />
	</node>
	<node lat="62.80187500262953" lon="10.231538885821381" id="-41029">
		<tag k="fixme" v="consider natural=peak for the most distinct mountains in the district" />
		<tag k="name" v="Kamben" />
		<tag k="natural" v="hill" />
		<tag k="place" v="locality" />
		<tag k="ssr:stedsnr" v="700761" />
	</node>
	<node lat="63.02646944380467" lon="10.295858329496133" id="-41032">
		<tag k="name" v="Skårvollmoan" />
		<tag k="place" v="locality" />
		<tag k="ssr:stedsnr" v="700919" />
	</node>
	<node lat="63.03698055899418" lon="10.30069167237003" id="-41034">
		<tag k="fixme" v="consider natural=peak for the most distinct mountains in the district" />
		<tag k="name" v="Hundhåmmåren" />
		<tag k="natural" v="hill" />
		<tag k="place" v="locality" />
		<tag k="ssr:stedsnr" v="700924" />
	</node>
	<node lat="62.86758888484676" lon="10.370030552974315" id="-41039">
		<tag k="name" v="Grønlia" />
		<tag k="natural" v="slope" />
		<tag k="place" v="locality" />
		<tag k="ssr:stedsnr" v="700974" />
	</node>
	<node lat="62.859413885491314" lon="10.356725004511512" id="-41040">
		<tag k="name" v="Skrødmelen" />
		<tag k="natural" v="slope" />
		<tag k="place" v="locality" />
		<tag k="ssr:stedsnr" v="700976" />
	</node>
	<node lat="62.858761108868194" lon="10.355224997044473" id="-41041">
		<tag k="name" v="Lappen" />
		<tag k="natural" v="slope" />
		<tag k="place" v="locality" />
		<tag k="ssr:stedsnr" v="700978" />
	</node>
	<node lat="63.0106250032289" lon="10.478225000370408" id="-41047">
		<tag k="fixme" v="consider natural=peak for the most distinct mountains in the district" />
		<tag k="name" v="Styggåsen" />
		<tag k="natural" v="hill" />
		<tag k="place" v="locality" />
		<tag k="ssr:stedsnr" v="740021" />
	</node>
	<node lat="62.80760833391101" lon="10.760377786332928" id="-41050">
		<tag k="name" v="Nyhaugen" />
		<tag k="natural" v="hill" />
		<tag k="place" v="locality" />
		<tag k="ssr:stedsnr" v="740050" />
	</node>
	<node lat="62.840005557601636" lon="10.90031111509516" id="-41052">
		<tag k="name" v="Romundhaugsdalen" />
		<tag k="natural" v="valley" />
		<tag k="place" v="locality" />
		<tag k="ssr:stedsnr" v="740093" />
	</node>
	<node lat="62.76454444054132" lon="10.695616666216553" id="-41053">
		<tag k="fixme" v="consider natural=peak for the most distinct mountains in the district" />
		<tag k="name" v="Tangen" />
		<tag k="natural" v="hill" />
		<tag k="place" v="locality" />
		<tag k="ssr:stedsnr" v="740243" />
	</node>
	<node lat="62.80913055558318" lon="10.509288886741095" id="-41057">
		<tag k="name" v="Sandhaugen" />
		<tag k="natural" v="hill" />
		<tag k="place" v="locality" />
		<tag k="ssr:stedsnr" v="740298" />
	</node>
	<node lat="63.032624995873135" lon="10.393549993970256" id="-41071">
		<tag k="alt_name" v="Grånåsen" />
		<tag k="fixme" v="consider natural=peak for the most distinct mountains in the district" />
		<tag k="name" v="Granåsen" />
		<tag k="natural" v="hill" />
		<tag k="place" v="locality" />
		<tag k="ssr:stedsnr" v="740990" />
	</node>
	<node lat="62.9281277750005" lon="10.569936101532951" id="-41077">
		<tag k="fixme" v="consider natural=peak for the most distinct mountains in the district" />
		<tag k="name" v="Fjellslætta" />
		<tag k="natural" v="hill" />
		<tag k="place" v="locality" />
		<tag k="ssr:stedsnr" v="741785" />
	</node>
	<node lat="62.759716669782286" lon="10.821555553157879" id="-41079">
		<tag k="fixme" v="consider natural=peak for the most distinct mountains in the district" />
		<tag k="name" v="Storskarven" />
		<tag k="natural" v="hill" />
		<tag k="place" v="locality" />
		<tag k="ssr:stedsnr" v="748213" />
	</node>
	<node lat="62.937972223369684" lon="10.318613892877766" id="-41082">
		<tag k="fixme" v="consider natural=peak for the most distinct mountains in the district" />
		<tag k="name" v="Svartåsen" />
		<tag k="natural" v="hill" />
		<tag k="place" v="locality" />
		<tag k="ssr:stedsnr" v="761004" />
	</node>
	<node lat="62.959344441677096" lon="10.303255563899178" id="-41087">
		<tag k="name" v="Hongrødsmoen" />
		<tag k="place" v="locality" />
		<tag k="ssr:stedsnr" v="761043" />
	</node>
	<node lat="62.98472777831832" lon="10.286580547779673" id="-41089">
		<tag k="name" v="Klevberget" />
		<tag k="natural" v="hill" />
		<tag k="place" v="locality" />
		<tag k="ssr:stedsnr" v="761146" />
	</node>
	<node lat="62.81926944265723" lon="10.83736110246273" id="-41090">
		<tag k="fixme" v="consider natural=peak for the most distinct mountains in the district" />
		<tag k="name" v="Skarven" />
		<tag k="natural" v="hill" />
		<tag k="place" v="locality" />
		<tag k="ssr:stedsnr" v="761194" />
	</node>
	<node lat="62.8321416686179" lon="10.508708328288447" id="-41091">
		<tag k="name" v="Kåsin" />
		<tag k="natural" v="slope" />
		<tag k="place" v="locality" />
		<tag k="ssr:stedsnr" v="761306" />
	</node>
	<node lat="62.84223055211064" lon="10.520230548340537" id="-41092">
		<tag k="name" v="Grandalen" />
		<tag k="natural" v="valley" />
		<tag k="place" v="locality" />
		<tag k="ssr:stedsnr" v="761309" />
	</node>
	<node lat="62.8839694456164" lon="10.234383343131807" id="-41093">
		<tag k="fixme" v="consider natural=peak for the most distinct mountains in the district" />
		<tag k="name" v="Åsen" />
		<tag k="natural" v="hill" />
		<tag k="place" v="locality" />
		<tag k="ssr:stedsnr" v="761310" />
	</node>
	<node lat="62.902324997140404" lon="10.254549999806276" id="-41094">
		<tag k="name" v="Pelbakken" />
		<tag k="natural" v="slope" />
		<tag k="place" v="locality" />
		<tag k="ssr:stedsnr" v="761319" />
	</node>
	<node lat="62.98254166281033" lon="10.18405833288032" id="-41095">
		<tag k="name" v="Burruhaugen" />
		<tag k="natural" v="hill" />
		<tag k="place" v="locality" />
		<tag k="ssr:stedsnr" v="761346" />
	</node>
	<node lat="63.03161944200899" lon="10.421952783685356" id="-41096">
		<tag k="name" v="Bolia" />
		<tag k="natural" v="slope" />
		<tag k="place" v="locality" />
		<tag k="ssr:stedsnr" v="761347" />
	</node>
	<node lat="63.00490833458978" lon="10.430174994881781" id="-41097">
		<tag k="name" v="Mellomberga" />
		<tag k="natural" v="hill" />
		<tag k="place" v="locality" />
		<tag k="ssr:stedsnr" v="761349" />
	</node>
	<node lat="63.014433332439914" lon="10.445733330509551" id="-41099">
		<tag k="name" v="Fætta" />
		<tag k="place" v="locality" />
		<tag k="ssr:stedsnr" v="761358" />
	</node>
	<node lat="62.96371666513499" lon="10.215416665459047" id="-41100">
		<tag k="name" v="Bjønnlia" />
		<tag k="natural" v="slope" />
		<tag k="place" v="locality" />
		<tag k="ssr:stedsnr" v="761094" />
	</node>
	<node lat="62.95819444092263" lon="10.238036113089859" id="-41101">
		<tag k="fixme" v="consider natural=peak for the most distinct mountains in the district" />
		<tag k="name" v="Åsen" />
		<tag k="natural" v="hill" />
		<tag k="place" v="locality" />
		<tag k="ssr:stedsnr" v="761101" />
	</node>
	<node lat="62.87319166653496" lon="10.299775007250677" id="-41105">
		<tag k="name" v="Styggdalen" />
		<tag k="natural" v="valley" />
		<tag k="place" v="locality" />
		<tag k="ssr:stedsnr" v="761259" />
	</node>
	<node lat="62.82747499752001" lon="10.337533338120352" id="-41106">
		<tag k="name" v="Eggaøya" />
		<tag k="place" v="locality" />
		<tag k="ssr:stedsnr" v="761291" />
	</node>
	<node lat="62.87718055345546" lon="10.517022214527431" id="-41109">
		<tag k="name" v="Sagslættet" />
		<tag k="place" v="locality" />
		<tag k="ssr:stedsnr" v="761507" />
	</node>
	<node lat="62.88990277519346" lon="10.483274997511304" id="-41110">
		<tag k="name" v="Sløbakkan" />
		<tag k="natural" v="slope" />
		<tag k="place" v="locality" />
		<tag k="ssr:stedsnr" v="761513" />
	</node>
	<node lat="62.86116111118577" lon="10.532686107645914" id="-41111">
		<tag k="name" v="Tullhaugan" />
		<tag k="natural" v="hill" />
		<tag k="place" v="locality" />
		<tag k="ssr:stedsnr" v="761542" />
	</node>
	<node lat="62.957205556722684" lon="10.56615276799656" id="-41112">
		<tag k="fixme" v="consider natural=peak for the most distinct mountains in the district" />
		<tag k="name" v="Åsvollen" />
		<tag k="natural" v="hill" />
		<tag k="place" v="locality" />
		<tag k="ssr:stedsnr" v="761555" />
	</node>
	<node lat="62.99015555230729" lon="10.478052777044795" id="-41113">
		<tag k="fixme" v="consider natural=peak for the most distinct mountains in the district" />
		<tag k="name" v="Kyldan" />
		<tag k="natural" v="hill" />
		<tag k="place" v="locality" />
		<tag k="ssr:stedsnr" v="761591" />
	</node>
	<node lat="62.88309722675427" lon="10.505919442435086" id="-41118">
		<tag k="fixme" v="consider natural=peak for the most distinct mountains in the district" />
		<tag k="name" v="Småvollåsen" />
		<tag k="natural" v="hill" />
		<tag k="place" v="locality" />
		<tag k="ssr:stedsnr" v="761497" />
	</node>
	<node lat="62.98650277639799" lon="10.53615278342473" id="-41124">
		<tag k="fixme" v="consider natural=peak for the most distinct mountains in the district" />
		<tag k="name" v="Sveåsen" />
		<tag k="natural" v="hill" />
		<tag k="place" v="locality" />
		<tag k="ssr:stedsnr" v="761612" />
	</node>
	<node lat="63.00738055497282" lon="10.587055553907605" id="-41125">
		<tag k="fixme" v="consider natural=peak for the most distinct mountains in the district" />
		<tag k="name" v="Litlfjellet" />
		<tag k="natural" v="hill" />
		<tag k="place" v="locality" />
		<tag k="ssr:stedsnr" v="761614" />
	</node>
	<node lat="62.947786114204206" lon="10.19156110681144" id="-41126">
		<tag k="name" v="Moan" />
		<tag k="place" v="locality" />
		<tag k="ssr:stedsnr" v="761615" />
	</node>
	<node lat="62.91945555204517" lon="10.109222222217069" id="-41128">
		<tag k="name" v="Haugaløkkja" />
		<tag k="place" v="locality" />
		<tag k="ssr:stedsnr" v="761641" />
	</node>
	<node lat="63.00668055393547" lon="10.15160832943882" id="-41134">
		<tag k="name" v="Blomlia" />
		<tag k="natural" v="slope" />
		<tag k="place" v="locality" />
		<tag k="ssr:stedsnr" v="761698" />
	</node>
	<node lat="62.92539722105497" lon="10.655919444260034" id="-41135">
		<tag k="name" v="Gjelbakken" />
		<tag k="natural" v="slope" />
		<tag k="place" v="locality" />
		<tag k="ssr:stedsnr" v="761702" />
	</node>
	<node lat="62.80957777806403" lon="10.254299998099134" id="-41136">
		<tag k="fixme" v="consider natural=peak for the most distinct mountains in the district" />
		<tag k="name" v="Sommervollåsen" />
		<tag k="natural" v="hill" />
		<tag k="place" v="locality" />
		<tag k="ssr:stedsnr" v="761805" />
	</node>
	<node lat="62.99594444506991" lon="10.371175004507892" id="-41138">
		<tag k="fixme" v="consider natural=peak for the most distinct mountains in the district" />
		<tag k="name" v="Langåsen" />
		<tag k="natural" v="hill" />
		<tag k="place" v="locality" />
		<tag k="ssr:stedsnr" v="761813" />
	</node>
	<node lat="62.990427778995496" lon="10.369219446955135" id="-41140">
		<tag k="name" v="Skardet" />
		<tag k="natural" v="valley" />
		<tag k="place" v="locality" />
		<tag k="ssr:stedsnr" v="761817" />
	</node>
	<node lat="62.98822222467217" lon="10.946966662154257" id="-41142">
		<tag k="name" v="Johanslættet" />
		<tag k="natural" v="slope" />
		<tag k="place" v="locality" />
		<tag k="ssr:stedsnr" v="761909" />
	</node>
	<node lat="63.05871666431811" lon="10.299874993210594" id="-41156">
		<tag k="name" v="Liin" />
		<tag k="natural" v="slope" />
		<tag k="place" v="locality" />
		<tag k="ssr:stedsnr" v="761899" />
	</node>
	<node lat="62.71807778194746" lon="10.77717500316587" id="-41164">
		<tag k="fixme" v="consider natural=peak for the most distinct mountains in the district" />
		<tag k="name" v="Steinfjellet" />
		<tag k="natural" v="hill" />
		<tag k="place" v="locality" />
		<tag k="ssr:stedsnr" v="800009" />
	</node>
	<node lat="63.00774444759139" lon="10.402391676416794" id="-41167">
		<tag k="fixme" v="consider natural=peak for the most distinct mountains in the district" />
		<tag k="name" v="Vårvollåsen" />
		<tag k="natural" v="hill" />
		<tag k="place" v="locality" />
		<tag k="ssr:stedsnr" v="801030" />
	</node>
	<node lat="62.8621305545015" lon="10.903297225601204" id="-41170">
		<tag k="name" v="Litlromundhaugen" />
		<tag k="natural" v="hill" />
		<tag k="place" v="locality" />
		<tag k="ssr:stedsnr" v="801125" />
	</node>
	<node lat="62.82107777804901" lon="10.673883327209017" id="-41171">
		<tag k="fixme" v="consider natural=peak for the most distinct mountains in the district" />
		<tag k="name" v="Rundfjellet" />
		<tag k="natural" v="hill" />
		<tag k="place" v="locality" />
		<tag k="ssr:stedsnr" v="801308" />
	</node>
	<node lat="62.97187545051285" lon="10.496771025840383" id="-41175">
		<tag k="fixme" v="consider natural=peak for the most distinct mountains in the district" />
		<tag k="name" v="Litlåsen" />
		<tag k="natural" v="hill" />
		<tag k="place" v="locality" />
		<tag k="ssr:stedsnr" v="801524" />
	</node>
	<node lat="62.7871000004312" lon="10.612808333850761" id="-41177">
		<tag k="fixme" v="consider natural=peak for the most distinct mountains in the district" />
		<tag k="name" v="Litlfjellet" />
		<tag k="natural" v="hill" />
		<tag k="place" v="locality" />
		<tag k="ssr:stedsnr" v="801277" />
	</node>
	<node lat="62.944083331293896" lon="10.614094437533835" id="-41180">
		<tag k="name" v="Bratthaugpiken" />
		<tag k="natural" v="hill" />
		<tag k="place" v="locality" />
		<tag k="ssr:stedsnr" v="801707" />
	</node>
	<node lat="63.07067499746321" lon="10.65132499506085" id="-41186">
		<tag k="fixme" v="consider natural=peak for the most distinct mountains in the district" />
		<tag k="name" v="Samsjøvola" />
		<tag k="natural" v="hill" />
		<tag k="place" v="locality" />
		<tag k="ssr:stedsnr" v="801886" />
	</node>
	<node lat="62.93692499974862" lon="10.655572231206676" id="-41188">
		<tag k="alt_name" v="Våttåsen" />
		<tag k="fixme" v="consider natural=peak for the most distinct mountains in the district" />
		<tag k="name" v="Vattåsen" />
		<tag k="natural" v="hill" />
		<tag k="place" v="locality" />
		<tag k="ssr:stedsnr" v="802772" />
	</node>
	<node lat="63.00253055841765" lon="10.24684166312553" id="-41192">
		<tag k="name" v="Skardet" />
		<tag k="natural" v="valley" />
		<tag k="place" v="locality" />
		<tag k="ssr:stedsnr" v="821314" />
	</node>
	<node lat="62.922613892796186" lon="10.230583342425279" id="-41197">
		<tag k="name" v="Erikshaugan" />
		<tag k="natural" v="hill" />
		<tag k="place" v="locality" />
		<tag k="ssr:stedsnr" v="822019" />
	</node>
	<node lat="62.98864166410122" lon="10.316588882376651" id="-41199">
		<tag k="name" v="Råppådalen" />
		<tag k="natural" v="valley" />
		<tag k="place" v="locality" />
		<tag k="ssr:stedsnr" v="822074" />
	</node>
	<node lat="62.73623333454632" lon="10.679041662999067" id="-41202">
		<tag k="name" v="Møssmørholet" />
		<tag k="natural" v="valley" />
		<tag k="place" v="locality" />
		<tag k="ssr:stedsnr" v="822211" />
	</node>
	<node lat="62.83896666836968" lon="10.782661116308882" id="-41203">
		<tag k="name" v="Storslættet" />
		<tag k="place" v="locality" />
		<tag k="ssr:stedsnr" v="822175" />
	</node>
	<node lat="62.843547218878065" lon="10.78129166057717" id="-41204">
		<tag k="name" v="Vondbekklia" />
		<tag k="natural" v="slope" />
		<tag k="place" v="locality" />
		<tag k="ssr:stedsnr" v="822179" />
	</node>
	<node lat="62.83995555244451" lon="10.503411116965593" id="-41208">
		<tag k="fixme" v="consider natural=peak for the most distinct mountains in the district" />
		<tag k="name" v="Litlvollåsen" />
		<tag k="natural" v="hill" />
		<tag k="place" v="locality" />
		<tag k="ssr:stedsnr" v="822309" />
	</node>
	<node lat="62.85630555120811" lon="10.232019438174838" id="-41210">
		<tag k="name" v="Ivelikjølen" />
		<tag k="natural" v="hill" />
		<tag k="place" v="locality" />
		<tag k="ssr:stedsnr" v="822322" />
	</node>
	<node lat="62.92943333063056" lon="10.420055554351434" id="-41212">
		<tag k="name" v="Storslætthøgda" />
		<tag k="natural" v="hill" />
		<tag k="place" v="locality" />
		<tag k="ssr:stedsnr" v="822372" />
	</node>
	<node lat="62.89217499898999" lon="10.246969453552614" id="-41213">
		<tag k="name" v="Dalaplassen" />
		<tag k="natural" v="hill" />
		<tag k="place" v="locality" />
		<tag k="ssr:stedsnr" v="822377" />
	</node>
	<node lat="63.013752779639866" lon="10.583391662337743" id="-41218">
		<tag k="name" v="Svarttjønndalen" />
		<tag k="natural" v="valley" />
		<tag k="place" v="locality" />
		<tag k="ssr:stedsnr" v="822622" />
	</node>
	<node lat="63.012466664055665" lon="10.469341661195532" id="-41219">
		<tag k="name" v="Haugen" />
		<tag k="natural" v="hill" />
		<tag k="place" v="locality" />
		<tag k="ssr:stedsnr" v="822624" />
	</node>
	<node lat="63.018788891821885" lon="10.512755547780339" id="-41221">
		<tag k="name" v="Litlslættet" />
		<tag k="place" v="locality" />
		<tag k="ssr:stedsnr" v="822639" />
	</node>
	<node lat="62.786813886012" lon="10.628641674409016" id="-41225">
		<tag k="name" v="Hersekåsøya" />
		<tag k="natural" v="slope" />
		<tag k="place" v="locality" />
		<tag k="ssr:stedsnr" v="822652" />
	</node>
	<node lat="62.9954138900964" lon="10.47728610865998" id="-41232">
		<tag k="name" v="Melan" />
		<tag k="natural" v="slope" />
		<tag k="place" v="locality" />
		<tag k="ssr:stedsnr" v="822583" />
	</node>
	<node lat="63.03638055966126" lon="10.200705560732802" id="-41234">
		<tag k="name" v="Fjelliin" />
		<tag k="natural" v="slope" />
		<tag k="place" v="locality" />
		<tag k="ssr:stedsnr" v="822705" />
	</node>
	<node lat="62.95301111083742" lon="10.644544447116964" id="-41237">
		<tag k="name" v="Stenråa" />
		<tag k="natural" v="valley" />
		<tag k="place" v="locality" />
		<tag k="ssr:stedsnr" v="822722" />
	</node>
	<node lat="63.06659444560599" lon="10.371105553644481" id="-41240">
		<tag k="name" v="Råsjodalen" />
		<tag k="natural" v="valley" />
		<tag k="place" v="locality" />
		<tag k="ssr:stedsnr" v="822771" />
	</node>
	<node lat="63.06925833263044" lon="10.398777781118396" id="-41241">
		<tag k="name" v="Tilderberga" />
		<tag k="natural" v="hill" />
		<tag k="place" v="locality" />
		<tag k="ssr:stedsnr" v="822772" />
	</node>
	<node lat="62.88003611484198" lon="10.733658338969791" id="-41242">
		<tag k="name" v="Nerberga" />
		<tag k="natural" v="hill" />
		<tag k="place" v="locality" />
		<tag k="ssr:stedsnr" v="822775" />
	</node>
	<node lat="63.036421902951666" lon="10.593150387404515" id="-41245">
		<tag k="name" v="Huldra" />
		<tag k="place" v="locality" />
		<tag k="ssr:stedsnr" v="822786" />
	</node>
	<node lat="62.86814721848577" lon="10.739924992912846" id="-41246">
		<tag k="name" v="Trollhaugbakkan" />
		<tag k="natural" v="slope" />
		<tag k="place" v="locality" />
		<tag k="ssr:stedsnr" v="822787" />
	</node>
	<node lat="62.925563889397786" lon="10.725049991842914" id="-41250">
		<tag k="name" v="Lian" />
		<tag k="natural" v="slope" />
		<tag k="place" v="locality" />
		<tag k="ssr:stedsnr" v="822811" />
	</node>
	<node lat="63.05488055813417" lon="10.95395833854772" id="-41263">
		<tag k="fixme" v="consider natural=peak for the most distinct mountains in the district" />
		<tag k="name" v="Storlifjellet" />
		<tag k="natural" v="hill" />
		<tag k="place" v="locality" />
		<tag k="ssr:stedsnr" v="922156" />
	</node>
	<node lat="62.8879138904274" lon="10.934002783935005" id="-41265">
		<tag k="fixme" v="consider natural=peak for the most distinct mountains in the district" />
		<tag k="name" v="Korsfonnfjellet" />
		<tag k="natural" v="hill" />
		<tag k="place" v="locality" />
		<tag k="ssr:stedsnr" v="922115" />
	</node>
	<node lat="62.67895555548531" lon="10.720561107299563" id="-41266">
		<tag k="fixme" v="consider natural=peak for the most distinct mountains in the district" />
		<tag k="name" v="Gråkneppa" />
		<tag k="natural" v="hill" />
		<tag k="place" v="locality" />
		<tag k="ssr:stedsnr" v="922219" />
	</node>
	<node lat="62.84654444734028" lon="10.601569449460706" id="-41274">
		<tag k="name" v="Ytre Tåvåhøgda" />
		<tag k="natural" v="hill" />
		<tag k="place" v="locality" />
		<tag k="ssr:stedsnr" v="922333" />
	</node>
	<node lat="63.03199999591608" lon="10.206855559709922" id="-41281">
		<tag k="alt_name" v="Vardfjellet" />
		<tag k="fixme" v="consider natural=peak for the most distinct mountains in the district" />
		<tag k="name" v="Vardefjellet" />
		<tag k="natural" v="hill" />
		<tag k="place" v="locality" />
		<tag k="ssr:stedsnr" v="922666" />
	</node>
	<node lat="62.916274999363324" lon="10.404736118174208" id="-41282">
		<tag k="fixme" v="consider natural=peak for the most distinct mountains in the district" />
		<tag k="name" v="Sæteråsen" />
		<tag k="natural" v="hill" />
		<tag k="place" v="locality" />
		<tag k="ssr:stedsnr" v="922722" />
	</node>
	<node lat="62.76733055252843" lon="10.308725002463936" id="-41287">
		<tag k="name" v="Portdalen" />
		<tag k="natural" v="valley" />
		<tag k="place" v="locality" />
		<tag k="ssr:stedsnr" v="923309" />
	</node>
	<node lat="62.8771666686216" lon="10.609333338740239" id="-41297">
		<tag k="name" v="Medhøgda" />
		<tag k="natural" v="hill" />
		<tag k="place" v="locality" />
		<tag k="ssr:stedsnr" v="923695" />
	</node>
	<node lat="63.01045833348436" lon="10.207449991472181" id="-41300">
		<tag k="name" v="Vindberget" />
		<tag k="natural" v="hill" />
		<tag k="place" v="locality" />
		<tag k="ssr:stedsnr" v="923663" />
	</node>
	<node lat="63.04283889179462" lon="10.572169454024849" id="-41307">
		<tag k="fixme" v="consider natural=peak for the most distinct mountains in the district" />
		<tag k="name" v="Hyllbekkfjellet" />
		<tag k="natural" v="hill" />
		<tag k="place" v="locality" />
		<tag k="ssr:stedsnr" v="923991" />
	</node>
	<node lat="63.04538333291769" lon="10.4212305468232" id="-41309">
		<tag k="name" v="Kattvola" />
		<tag k="natural" v="hill" />
		<tag k="place" v="locality" />
		<tag k="ssr:stedsnr" v="923995" />
	</node>
	<node lat="62.79480277871915" lon="10.840525006306068" id="-41316">
		<tag k="name" v="Nekkjådalen" />
		<tag k="natural" v="valley" />
		<tag k="place" v="locality" />
		<tag k="ssr:stedsnr" v="862007" />
	</node>
	<node lat="62.84911389022217" lon="10.818891669938505" id="-41318">
		<tag k="name" v="Grønlia" />
		<tag k="natural" v="slope" />
		<tag k="place" v="locality" />
		<tag k="ssr:stedsnr" v="862085" />
	</node>
	<node lat="62.79536111185443" lon="10.559275001633312" id="-41320">
		<tag k="name" v="Kvernbekkøya" />
		<tag k="place" v="locality" />
		<tag k="ssr:stedsnr" v="862307" />
	</node>
	<node lat="62.76646944380857" lon="10.299050007195275" id="-41325">
		<tag k="name" v="Snødalen" />
		<tag k="natural" v="valley" />
		<tag k="place" v="locality" />
		<tag k="ssr:stedsnr" v="862299" />
	</node>
	<node lat="62.92255277618215" lon="10.861813879671487" id="-41326">
		<tag k="name" v="Lerdalen" />
		<tag k="natural" v="valley" />
		<tag k="place" v="locality" />
		<tag k="ssr:stedsnr" v="862406" />
	</node>
	<node lat="62.92971388813941" lon="10.74244999970646" id="-41327">
		<tag k="name" v="Vassdalen" />
		<tag k="natural" v="valley" />
		<tag k="place" v="locality" />
		<tag k="ssr:stedsnr" v="862419" />
	</node>
	<node lat="62.93793611378627" lon="10.845136118709299" id="-41328">
		<tag k="name" v="Kvernlia" />
		<tag k="natural" v="slope" />
		<tag k="place" v="locality" />
		<tag k="ssr:stedsnr" v="862422" />
	</node>
	<node lat="62.89621666634652" lon="10.347186119006647" id="-41333">
		<tag k="name" v="Kolmoen" />
		<tag k="natural" v="hill" />
		<tag k="place" v="locality" />
		<tag k="ssr:stedsnr" v="862607" />
	</node>
	<node lat="62.95271944524191" lon="10.643766666551938" id="-41337">
		<tag k="fixme" v="consider natural=peak for the most distinct mountains in the district" />
		<tag k="name" v="Bjørga" />
		<tag k="natural" v="hill" />
		<tag k="place" v="locality" />
		<tag k="ssr:stedsnr" v="862698" />
	</node>
	<node lat="62.96474821976442" lon="9.98813616643595" id="-41339">
		<tag k="fixme" v="consider natural=peak for the most distinct mountains in the district" />
		<tag k="name" v="Råhetta" />
		<tag k="natural" v="hill" />
		<tag k="place" v="locality" />
		<tag k="ssr:stedsnr" v="862813" />
	</node>
	<node lat="63.018355555554365" lon="10.307158338435569" id="-41342">
		<tag k="name" v="Rødberget" />
		<tag k="natural" v="hill" />
		<tag k="place" v="locality" />
		<tag k="ssr:stedsnr" v="862965" />
	</node>
	<node lat="62.86363333460402" lon="10.424733341778916" id="-41349">
		<tag k="fixme" v="consider natural=peak for the most distinct mountains in the district" />
		<tag k="name" v="Søtfjellet" />
		<tag k="natural" v="hill" />
		<tag k="place" v="locality" />
		<tag k="ssr:stedsnr" v="930570" />
	</node>
	<node lat="62.98346944697198" lon="10.352163883789691" id="-41353">
		<tag k="name" v="Høylia" />
		<tag k="natural" v="slope" />
		<tag k="place" v="locality" />
		<tag k="ssr:stedsnr" v="882712" />
	</node>
	<node lat="62.90041110739104" lon="10.289008331620872" id="-41369">
		<tag k="name" v="Anshusliin" />
		<tag k="natural" v="slope" />
		<tag k="place" v="locality" />
		<tag k="ssr:stedsnr" v="883020" />
	</node>
	<node lat="62.95340555186192" lon="10.294499999591723" id="-41372">
		<tag k="name" v="Moabakkan" />
		<tag k="natural" v="slope" />
		<tag k="place" v="locality" />
		<tag k="ssr:stedsnr" v="883051" />
	</node>
	<node lat="62.94187221779679" lon="10.28945833860131" id="-41374">
		<tag k="name" v="Klevdalen" />
		<tag k="natural" v="valley" />
		<tag k="place" v="locality" />
		<tag k="ssr:stedsnr" v="883059" />
	</node>
	<node lat="62.944361107898814" lon="10.28932221448448" id="-41375">
		<tag k="name" v="Tømmerlundbakken" />
		<tag k="natural" v="slope" />
		<tag k="place" v="locality" />
		<tag k="ssr:stedsnr" v="883060" />
	</node>
	<node lat="62.92499721937164" lon="10.111711113704752" id="-41383">
		<tag k="name" v="Holbekkslættet" />
		<tag k="place" v="locality" />
		<tag k="ssr:stedsnr" v="883349" />
	</node>
	<node lat="62.97010000335236" lon="10.434391657732101" id="-41386">
		<tag k="name" v="Damslættet" />
		<tag k="place" v="locality" />
		<tag k="ssr:stedsnr" v="883399" />
	</node>
	<node lat="62.91858889000679" lon="10.495211118778725" id="-41387">
		<tag k="name" v="Grubbslættet" />
		<tag k="place" v="locality" />
		<tag k="ssr:stedsnr" v="883509" />
	</node>
	<node lat="62.742858330853814" lon="10.652961119175561" id="-41389">
		<tag k="name" v="Nybuslættet" />
		<tag k="place" v="locality" />
		<tag k="ssr:stedsnr" v="883256" />
	</node>
	<node lat="62.96611944566723" lon="10.439324999007205" id="-41391">
		<tag k="name" v="Storlia" />
		<tag k="natural" v="slope" />
		<tag k="place" v="locality" />
		<tag k="ssr:stedsnr" v="883403" />
	</node>
	<node lat="62.87224166637348" lon="10.441758328899196" id="-41396">
		<tag k="name" v="Sæterlia" />
		<tag k="natural" v="slope" />
		<tag k="place" v="locality" />
		<tag k="ssr:stedsnr" v="883457" />
	</node>
	<node lat="62.887555552975236" lon="10.46134165950012" id="-41398">
		<tag k="name" v="Branngrøft-dalen" />
		<tag k="natural" v="valley" />
		<tag k="place" v="locality" />
		<tag k="ssr:stedsnr" v="883465" />
	</node>
	<node lat="62.93767777359864" lon="10.48216945144704" id="-41400">
		<tag k="name" v="Seterlibakkan" />
		<tag k="natural" v="slope" />
		<tag k="place" v="locality" />
		<tag k="ssr:stedsnr" v="883501" />
	</node>
	<node lat="62.945125000310234" lon="10.586072227618365" id="-41402">
		<tag k="fixme" v="consider natural=peak for the most distinct mountains in the district" />
		<tag k="name" v="Vårvollåsen" />
		<tag k="natural" v="hill" />
		<tag k="place" v="locality" />
		<tag k="ssr:stedsnr" v="883599" />
	</node>
	<node lat="62.950469446693205" lon="10.571236115957532" id="-41403">
		<tag k="name" v="Gammelvolltronget" />
		<tag k="natural" v="valley" />
		<tag k="place" v="locality" />
		<tag k="ssr:stedsnr" v="883602" />
	</node>
	<node lat="62.92665278090327" lon="10.643569441693705" id="-41405">
		<tag k="fixme" v="consider natural=peak for the most distinct mountains in the district" />
		<tag k="name" v="Såttå-åsen" />
		<tag k="natural" v="hill" />
		<tag k="place" v="locality" />
		<tag k="ssr:stedsnr" v="883713" />
	</node>
	<node lat="62.94775833059875" lon="10.601219438103733" id="-41409">
		<tag k="fixme" v="consider natural=peak for the most distinct mountains in the district" />
		<tag k="name" v="Granåsen" />
		<tag k="natural" v="hill" />
		<tag k="place" v="locality" />
		<tag k="ssr:stedsnr" v="883747" />
	</node>
	<node lat="62.9742888895817" lon="10.612313883320246" id="-41411">
		<tag k="fixme" v="consider natural=peak for the most distinct mountains in the district" />
		<tag k="name" v="Litltverråsen" />
		<tag k="natural" v="hill" />
		<tag k="place" v="locality" />
		<tag k="ssr:stedsnr" v="883767" />
	</node>
	<node lat="62.878652775153675" lon="10.742622230505106" id="-41412">
		<tag k="name" v="Saulia" />
		<tag k="natural" v="slope" />
		<tag k="place" v="locality" />
		<tag k="ssr:stedsnr" v="883798" />
	</node>
	<node lat="62.99584999554499" lon="10.54093333806558" id="-41413">
		<tag k="name" v="Skavlia" />
		<tag k="natural" v="slope" />
		<tag k="place" v="locality" />
		<tag k="ssr:stedsnr" v="883648" />
	</node>
	<node lat="62.988058333486634" lon="10.581924990672432" id="-41414">
		<tag k="name" v="Hegglia" />
		<tag k="natural" v="slope" />
		<tag k="place" v="locality" />
		<tag k="ssr:stedsnr" v="883657" />
	</node>
	<node lat="62.87674444840102" lon="10.692083330806781" id="-41415">
		<tag k="name" v="Smågardålian" />
		<tag k="natural" v="slope" />
		<tag k="place" v="locality" />
		<tag k="ssr:stedsnr" v="883700" />
	</node>
	<node lat="62.88135277736004" lon="10.739500006355627" id="-41416">
		<tag k="name" v="Øverberga" />
		<tag k="natural" v="hill" />
		<tag k="place" v="locality" />
		<tag k="ssr:stedsnr" v="883804" />
	</node>
	<node lat="63.07481944662169" lon="10.396130553749845" id="-41418">
		<tag k="name" v="Klokkardalen" />
		<tag k="natural" v="valley" />
		<tag k="place" v="locality" />
		<tag k="ssr:stedsnr" v="883807" />
	</node>
	<node lat="62.84896666532716" lon="10.78427499311928" id="-41420">
		<tag k="name" v="Vondbekklia" />
		<tag k="natural" v="slope" />
		<tag k="place" v="locality" />
		<tag k="ssr:stedsnr" v="883817" />
	</node>
	<node lat="62.868416663332326" lon="10.761222222430753" id="-41421">
		<tag k="name" v="Trollhaugen" />
		<tag k="natural" v="hill" />
		<tag k="place" v="locality" />
		<tag k="ssr:stedsnr" v="883820" />
	</node>
	<node lat="62.93285277804928" lon="10.71864444371125" id="-41422">
		<tag k="fixme" v="consider natural=peak for the most distinct mountains in the district" />
		<tag k="name" v="Storåsen" />
		<tag k="natural" v="hill" />
		<tag k="place" v="locality" />
		<tag k="ssr:stedsnr" v="883849" />
	</node>
	<node lat="62.9323555586376" lon="10.724536111063836" id="-41424">
		<tag k="name" v="Løvlia" />
		<tag k="natural" v="slope" />
		<tag k="place" v="locality" />
		<tag k="ssr:stedsnr" v="883851" />
	</node>
	<node lat="63.00393055899858" lon="10.902869437737698" id="-41430">
		<tag k="fixme" v="consider natural=peak for the most distinct mountains in the district" />
		<tag k="name" v="Småvollåsen" />
		<tag k="natural" v="hill" />
		<tag k="place" v="locality" />
		<tag k="ssr:stedsnr" v="883956" />
	</node>
	<node lat="62.89639722600837" lon="10.9236388984198" id="-41434">
		<tag k="fixme" v="consider natural=peak for the most distinct mountains in the district" />
		<tag k="name" v="Storfjellet" />
		<tag k="natural" v="hill" />
		<tag k="place" v="locality" />
		<tag k="ssr:stedsnr" v="922098" />
	</node>
	<node lat="62.9658611116073" lon="10.370291664744165" id="-41442">
		<tag k="name" v="Østerdalen" />
		<tag k="natural" v="valley" />
		<tag k="place" v="locality" />
		<tag k="ssr:stedsnr" v="922482" />
	</node>
	<node lat="62.89124444783041" lon="10.277752770728174" id="-41445">
		<tag k="name" v="Kverndalen" />
		<tag k="natural" v="valley" />
		<tag k="place" v="locality" />
		<tag k="ssr:stedsnr" v="922615" />
	</node>
	<node lat="62.897636112180116" lon="10.392508326780884" id="-41447">
		<tag k="fixme" v="consider natural=peak for the most distinct mountains in the district" />
		<tag k="name" v="Åsen" />
		<tag k="natural" v="hill" />
		<tag k="place" v="locality" />
		<tag k="ssr:stedsnr" v="922630" />
	</node>
	<node lat="62.84112777359929" lon="10.83741110785263" id="-41453">
		<tag k="fixme" v="consider natural=peak for the most distinct mountains in the district" />
		<tag k="name" v="Nekkjåfjellet" />
		<tag k="natural" v="hill" />
		<tag k="place" v="locality" />
		<tag k="ssr:stedsnr" v="923112" />
	</node>
	<node lat="63.01618611391708" lon="10.173191674476424" id="-41458">
		<tag k="alt_name" v="Skjerlifjellet" />
		<tag k="fixme" v="consider natural=peak for the most distinct mountains in the district" />
		<tag k="name" v="Skjærlifjellet" />
		<tag k="natural" v="hill" />
		<tag k="place" v="locality" />
		<tag k="ssr:stedsnr" v="923678" />
	</node>
	<node lat="62.93990833153911" lon="10.70059166855882" id="-41459">
		<tag k="fixme" v="consider natural=peak for the most distinct mountains in the district" />
		<tag k="name" v="Skavliåsen" />
		<tag k="natural" v="hill" />
		<tag k="place" v="locality" />
		<tag k="ssr:stedsnr" v="923729" />
	</node>
	<node lat="63.01787152883759" lon="10.069098038099774" id="-41476">
		<tag k="name" v="Langdalen" />
		<tag k="natural" v="valley" />
		<tag k="place" v="locality" />
		<tag k="ssr:stedsnr" v="981802" />
	</node>
	<node lat="62.67155000410057" lon="10.759088888522884" id="-41484">
		<tag k="name" v="Langeriksdalen" />
		<tag k="natural" v="valley" />
		<tag k="place" v="locality" />
		<tag k="ssr:stedsnr" v="11214" />
	</node>
	<node lat="62.777958337783296" lon="10.676769441291372" id="-41485">
		<tag k="fixme" v="consider natural=peak for the most distinct mountains in the district" />
		<tag k="name" v="Rogneskletten" />
		<tag k="natural" v="hill" />
		<tag k="place" v="locality" />
		<tag k="ssr:stedsnr" v="12264" />
	</node>
	<node lat="63.083424998882904" lon="10.52236110389126" id="-41488">
		<tag k="name" v="Skilbreivola" />
		<tag k="natural" v="hill" />
		<tag k="place" v="locality" />
		<tag k="ssr:stedsnr" v="12881" />
	</node>
	<node lat="63.070486114151564" lon="10.302366673341165" id="-41489">
		<tag k="fixme" v="consider natural=peak for the most distinct mountains in the district" />
		<tag k="name" v="Nyryddåsen" />
		<tag k="natural" v="hill" />
		<tag k="place" v="locality" />
		<tag k="ssr:stedsnr" v="12889" />
	</node>
	<node lat="62.88177777801587" lon="10.166486116467249" id="-41490">
		<tag k="name" v="Vagnillhøgda" />
		<tag k="natural" v="hill" />
		<tag k="place" v="locality" />
		<tag k="ssr:stedsnr" v="12900" />
	</node>
	<node lat="62.94831666567941" lon="10.061105550767131" id="-41491">
		<tag k="fixme" v="consider natural=peak for the most distinct mountains in the district" />
		<tag k="name" v="Slettfjellet" />
		<tag k="natural" v="hill" />
		<tag k="place" v="locality" />
		<tag k="ssr:stedsnr" v="12970" />
	</node>
	<node lat="63.04854444200666" lon="10.519213897637357" id="-41492">
		<tag k="fixme" v="consider natural=peak for the most distinct mountains in the district" />
		<tag k="name" v="Røttumsvola" />
		<tag k="natural" v="hill" />
		<tag k="place" v="locality" />
		<tag k="ssr:stedsnr" v="12971" />
	</node>
	<node lat="63.00945277366258" lon="10.38029443997394" id="-41497">
		<tag k="name" v="Åbitsmundberget" />
		<tag k="natural" v="hill" />
		<tag k="place" v="locality" />
		<tag k="ssr:stedsnr" v="12035" />
	</node>
	<node lat="62.81042500344828" lon="10.826058330073558" id="-41499">
		<tag k="name" v="Hestlia" />
		<tag k="natural" v="slope" />
		<tag k="place" v="locality" />
		<tag k="ssr:stedsnr" v="12058" />
	</node>
	<node lat="62.778802774922745" lon="10.514577768566635" id="-41502">
		<tag k="name" v="Fisktjønnhøgda" />
		<tag k="natural" v="hill" />
		<tag k="place" v="locality" />
		<tag k="ssr:stedsnr" v="12300" />
	</node>
	<node lat="62.808686111573074" lon="10.384027769052434" id="-41503">
		<tag k="fixme" v="consider natural=peak for the most distinct mountains in the district" />
		<tag k="name" v="Kufjellet" />
		<tag k="natural" v="hill" />
		<tag k="place" v="locality" />
		<tag k="ssr:stedsnr" v="12308" />
	</node>
	<node lat="62.75873333319787" lon="10.187902779529333" id="-41526">
		<tag k="alt_name" v="Knappen" />
		<tag k="fixme" v="consider natural=peak for the most distinct mountains in the district" />
		<tag k="name" v="Kongsvarden" />
		<tag k="natural" v="hill" />
		<tag k="place" v="locality" />
		<tag k="ssr:stedsnr" v="12614" />
	</node>
	<node lat="62.997180552941586" lon="10.195372225470534" id="-41533">
		<tag k="fixme" v="consider natural=peak for the most distinct mountains in the district" />
		<tag k="name" v="Lauvåsen" />
		<tag k="natural" v="hill" />
		<tag k="place" v="locality" />
		<tag k="ssr:stedsnr" v="12748" />
	</node>
	<node lat="63.030627782239634" lon="10.365402773203389" id="-41540">
		<tag k="fixme" v="consider natural=peak for the most distinct mountains in the district" />
		<tag k="name" v="Egga" />
		<tag k="natural" v="hill" />
		<tag k="place" v="locality" />
		<tag k="ssr:stedsnr" v="12953" />
	</node>
	<node lat="63.05780000046697" lon="10.661480548450381" id="-41543">
		<tag k="fixme" v="consider natural=peak for the most distinct mountains in the district" />
		<tag k="name" v="Storfjellet" />
		<tag k="natural" v="hill" />
		<tag k="place" v="locality" />
		<tag k="ssr:stedsnr" v="12979" />
	</node>
	<node lat="63.05587500188248" lon="10.53261111782673" id="-41544">
		<tag k="name" v="Skarhøgda" />
		<tag k="natural" v="hill" />
		<tag k="place" v="locality" />
		<tag k="ssr:stedsnr" v="12986" />
	</node>
	<node lat="63.04080833339353" lon="10.302486119212645" id="-41547">
		<tag k="name" v="Hundberga" />
		<tag k="natural" v="hill" />
		<tag k="place" v="locality" />
		<tag k="ssr:stedsnr" v="12994" />
	</node>
	<node lat="62.95003055700762" lon="10.479680561182137" id="-41556">
		<tag k="name" v="Hallgutu" />
		<tag k="natural" v="slope" />
		<tag k="place" v="locality" />
		<tag k="ssr:stedsnr" v="33451" />
	</node>
	<node lat="62.887202782075086" lon="10.481391657298046" id="-41558">
		<tag k="name" v="Kvernhuslia" />
		<tag k="natural" v="slope" />
		<tag k="place" v="locality" />
		<tag k="ssr:stedsnr" v="33535" />
	</node>
</osm>
