<?xml version="1.0" encoding="UTF-8"?>
<osm generator="osmapis" version="0.6">
	<node id="-741376" lat="62.8562722223" lon="10.500580564">
		<tag k="name" v="Bangan" />
		<tag k="place" v="locality" />
		<tag k="ssr:stedsnr" v="639495" />
	</node>
	<node id="-741373" lat="62.8821694431" lon="10.5533166617">
		<tag k="name" v="Tågåmarka" />
		<tag k="natural" v="wetland" />
		<tag k="ssr:stedsnr" v="639464" />
	</node>
	<node id="-741369" lat="62.9058222264" lon="10.4980527805">
		<tag k="name" v="Gammellømyra" />
		<tag k="natural" v="wetland" />
		<tag k="ssr:stedsnr" v="639452" />
	</node>
	<node id="-741365" lat="62.9198444458" lon="10.4882444502">
		<tag k="name" v="Trekkåsmyran" />
		<tag k="natural" v="wetland" />
		<tag k="ssr:stedsnr" v="639441" />
	</node>
	<node id="-741364" lat="62.9132027816" lon="10.4875138801">
		<tag k="name" v="Litlslettet" />
		<tag k="natural" v="wetland" />
		<tag k="ssr:stedsnr" v="639436" />
	</node>
	<node id="-741363" lat="62.9298416672" lon="10.4936499933">
		<tag k="name" v="Livollan" />
		<tag k="place" v="locality" />
		<tag k="ssr:stedsnr" v="639432" />
	</node>
	<node id="-737266" lat="62.939736112" lon="10.5054305511">
		<tag k="name" v="Løkkj-kjølen" />
		<tag k="natural" v="wetland" />
		<tag k="ssr:stedsnr" v="73712" />
	</node>
	<node id="-741361" lat="62.9481833293" lon="10.5593333247">
		<tag k="historic" v="shieling" />
		<tag k="name" v="Gammelvollen" />
		<tag k="place" v="locality" />
		<tag k="ssr:stedsnr" v="639401" />
	</node>
	<node id="-741360" lat="62.8756083303" lon="10.4477027758">
		<tag k="name" v="Enlikjølen" />
		<tag k="natural" v="wetland" />
		<tag k="ssr:stedsnr" v="639394" />
	</node>
	<node id="-739311" lat="62.7926777799" lon="10.3711749975">
		<tag k="name" v="Finnløkkja" />
		<tag k="place" v="locality" />
		<tag k="ssr:stedsnr" v="943887" />
	</node>
	<node id="-741358" lat="62.9225500012" lon="10.1938277811">
		<tag k="name" v="Tjønnmyran" />
		<tag k="natural" v="wetland" />
		<tag k="ssr:stedsnr" v="639388" />
	</node>
	<node id="-739325" lat="62.9423972189" lon="10.3418777681">
		<tag k="name" v="Koiplassen" />
		<tag k="place" v="locality" />
		<tag k="ssr:stedsnr" v="943953" />
	</node>
	<node id="-739308" lat="63.0462638905" lon="10.2650611073">
		<tag k="name" v="Prestmarka" />
		<tag k="place" v="locality" />
		<tag k="ssr:stedsnr" v="943876" />
	</node>
	<node id="-739305" lat="62.9919749994" lon="10.9177833328">
		<tag k="name" v="Jyskholmyra" />
		<tag k="natural" v="wetland" />
		<tag k="ssr:stedsnr" v="943867" />
	</node>
	<node id="-739304" lat="62.979877778" lon="10.9180611099">
		<tag k="name" v="Almåsbrua" />
		<tag k="place" v="locality" />
		<tag k="ssr:stedsnr" v="943862" />
	</node>
	<node id="-739303" lat="62.977180553" lon="10.8362027756">
		<tag k="name" v="Storkjølen" />
		<tag k="natural" v="wetland" />
		<tag k="ssr:stedsnr" v="943861" />
	</node>
	<node id="-741350" lat="62.9869055553" lon="10.2456916661">
		<tag k="name" v="Sagplassen" />
		<tag k="place" v="locality" />
		<tag k="ssr:stedsnr" v="639349" />
	</node>
	<node id="-739301" lat="62.8765722241" lon="10.2032694352">
		<tag k="name" v="Småslætta" />
		<tag k="place" v="locality" />
		<tag k="ssr:stedsnr" v="943857" />
	</node>
	<node id="-737252" lat="63.0277333368" lon="10.3201388973">
		<tag k="name" v="Kjøldenget" />
		<tag k="place" v="locality" />
		<tag k="ssr:stedsnr" v="33123" />
	</node>
	<node id="-741347" lat="62.9737777782" lon="10.4577361067">
		<tag k="name" v="Stormyra" />
		<tag k="natural" v="wetland" />
		<tag k="ssr:stedsnr" v="639343" />
	</node>
	<node id="-739298" lat="62.8487111101" lon="10.2093305586">
		<tag k="name" v="Bredfoss-slættet" />
		<tag k="place" v="locality" />
		<tag k="ssr:stedsnr" v="943853" />
	</node>
	<node id="-741345" lat="62.97739722" lon="10.2497583338">
		<tag k="name" v="Eggløkkjmyra" />
		<tag k="natural" v="wetland" />
		<tag k="ssr:stedsnr" v="639301" />
	</node>
	<node id="-741343" lat="62.8165666711" lon="10.518516669">
		<tag k="landuse" v="meadow" />
		<tag k="name" v="Donaslættet" />
		<tag k="ssr:stedsnr" v="639291" />
	</node>
	<node id="-739294" lat="62.9451222194" lon="10.8642833234">
		<tag k="historic" v="shieling" />
		<tag k="name" v="Almannsvollen" />
		<tag k="place" v="locality" />
		<tag k="ssr:stedsnr" v="943835" />
	</node>
	<node id="-741339" lat="62.8935138908" lon="10.2531694467">
		<tag k="name" v="Kleva" />
		<tag k="place" v="locality" />
		<tag k="ssr:stedsnr" v="639281" />
	</node>
	<node id="-741338" lat="62.9820166655" lon="10.2720833392">
		<tag k="name" v="Klaraenget" />
		<tag k="place" v="locality" />
		<tag k="ssr:stedsnr" v="639274" />
	</node>
	<node id="-739285" lat="62.9761222258" lon="10.7332305611">
		<tag k="name" v="Brennmyra" />
		<tag k="natural" v="wetland" />
		<tag k="ssr:stedsnr" v="943798" />
	</node>
	<node id="-739284" lat="62.9055027772" lon="10.7293611183">
		<tag k="name" v="Sagkjølen" />
		<tag k="natural" v="wetland" />
		<tag k="ssr:stedsnr" v="943775" />
	</node>
	<node id="-741331" lat="63.0001666678" lon="10.8387555479">
		<tag k="name" v="Bikkj-kjølen" />
		<tag k="natural" v="wetland" />
		<tag k="ssr:stedsnr" v="639211" />
	</node>
	<node id="-739280" lat="62.9753361075" lon="10.3445500084">
		<tag k="name" v="Ebben" />
		<tag k="place" v="locality" />
		<tag k="ssr:stedsnr" v="943761" />
	</node>
	<node id="-739279" lat="62.9989638885" lon="10.3425055459">
		<tag k="name" v="Seterløkkja" />
		<tag k="place" v="locality" />
		<tag k="ssr:stedsnr" v="943757" />
	</node>
	<node id="-739277" lat="62.886144444" lon="10.7244722179">
		<tag k="name" v="Hestmyran" />
		<tag k="natural" v="wetland" />
		<tag k="ssr:stedsnr" v="943745" />
	</node>
	<node id="-739276" lat="62.8612944422" lon="10.2321555495">
		<tag k="name" v="Innleggløkkja" />
		<tag k="place" v="locality" />
		<tag k="ssr:stedsnr" v="943744" />
	</node>
	<node id="-739275" lat="62.881475001" lon="10.7262250055">
		<tag k="name" v="Løvrødskjølen" />
		<tag k="natural" v="wetland" />
		<tag k="ssr:stedsnr" v="943738" />
	</node>
	<node id="-739273" lat="62.8228611137" lon="10.2667527789">
		<tag k="name" v="Djupdalsegga" />
		<tag k="place" v="locality" />
		<tag k="ssr:stedsnr" v="943727" />
	</node>
	<node id="-741317" lat="63.0325999963" lon="10.3159749988">
		<tag k="name" v="Sagplassen" />
		<tag k="place" v="locality" />
		<tag k="ssr:stedsnr" v="639115" />
	</node>
	<node id="-741315" lat="62.9583500036" lon="10.234122231">
		<tag k="name" v="Skjetningsmyra" />
		<tag k="natural" v="wetland" />
		<tag k="ssr:stedsnr" v="639105" />
	</node>
	<node id="-741314" lat="62.9569833319" lon="10.2496777787">
		<tag k="name" v="Gammelhaugmyra" />
		<tag k="natural" v="wetland" />
		<tag k="ssr:stedsnr" v="639102" />
	</node>
	<node id="-741313" lat="62.9696166687" lon="10.2245333396">
		<tag k="name" v="Moen" />
		<tag k="place" v="locality" />
		<tag k="ssr:stedsnr" v="639100" />
	</node>
	<node id="-739263" lat="62.964841669" lon="10.6050527699">
		<tag k="historic" v="shieling" />
		<tag k="name" v="Litlvollen" />
		<tag k="place" v="locality" />
		<tag k="ssr:stedsnr" v="943692" />
	</node>
	<node id="-741308" lat="62.9336944418" lon="10.3052027781">
		<tag k="name" v="Gjelåsmyra" />
		<tag k="natural" v="wetland" />
		<tag k="ssr:stedsnr" v="639080" />
	</node>
	<node id="-739258" lat="62.9294083378" lon="10.6720666727">
		<tag k="name" v="Mørsetmyra" />
		<tag k="natural" v="wetland" />
		<tag k="ssr:stedsnr" v="943657" />
	</node>
	<node id="-739257" lat="62.9262750012" lon="10.6661638965">
		<tag k="name" v="Rønningan" />
		<tag k="place" v="locality" />
		<tag k="ssr:stedsnr" v="943654" />
	</node>
	<node id="-739255" lat="62.9260916654" lon="10.6480249996">
		<tag k="name" v="Såttån" />
		<tag k="place" v="locality" />
		<tag k="ssr:stedsnr" v="943648" />
	</node>
	<node id="-739254" lat="63.0008472208" lon="10.2106611099">
		<tag k="name" v="Stormyra" />
		<tag k="natural" v="wetland" />
		<tag k="ssr:stedsnr" v="943645" />
	</node>
	<node id="-741300" lat="62.973688891" lon="10.2630888828">
		<tag k="name" v="Flåkkåmyra" />
		<tag k="natural" v="wetland" />
		<tag k="ssr:stedsnr" v="639055" />
	</node>
	<node id="-739250" lat="62.9021138893" lon="10.083513884">
		<tag k="name" v="Gammelløkkja" />
		<tag k="place" v="locality" />
		<tag k="ssr:stedsnr" v="943628" />
	</node>
	<node id="-739238" lat="62.9632444408" lon="10.1924472133">
		<tag k="name" v="Tolvgrøva" />
		<tag k="place" v="locality" />
		<tag k="ssr:stedsnr" v="943580" />
	</node>
	<node id="-739236" lat="63.010474998" lon="10.2414916732">
		<tag k="name" v="Kalvhåggån" />
		<tag k="place" v="locality" />
		<tag k="ssr:stedsnr" v="943577" />
	</node>
	<node id="-739235" lat="62.9761333342" lon="10.2058638801">
		<tag k="name" v="Grånøya" />
		<tag k="place" v="locality" />
		<tag k="ssr:stedsnr" v="943572" />
	</node>
	<node id="-739231" lat="62.9862472216" lon="10.4936611126">
		<tag k="name" v="Kjelløyan" />
		<tag k="place" v="locality" />
		<tag k="ssr:stedsnr" v="943566" />
	</node>
	<node id="-737585" lat="63.008019443" lon="10.8752555459">
		<tag k="name" v="Åsslåtten" />
		<tag k="place" v="locality" />
		<tag k="ssr:stedsnr" v="215938" />
	</node>
	<node id="-739222" lat="62.9630972266" lon="10.5728388964">
		<tag k="name" v="Litlhogstret" />
		<tag k="place" v="locality" />
		<tag k="ssr:stedsnr" v="943531" />
	</node>
	<node id="-739651" lat="62.9049527755" lon="10.1673138854">
		<tag k="name" v="Ytter Vagnilløkkja" />
		<tag k="place" v="locality" />
		<tag k="ssr:stedsnr" v="33838" />
	</node>
	<node id="-739216" lat="62.8354166694" lon="10.5409638842">
		<tag k="name" v="Stormyra" />
		<tag k="natural" v="wetland" />
		<tag k="ssr:stedsnr" v="943509" />
	</node>
	<node id="-739215" lat="62.8527333374" lon="10.4963916623">
		<tag k="name" v="Høgåsbrottet" />
		<tag k="place" v="locality" />
		<tag k="ssr:stedsnr" v="943494" />
	</node>
	<node id="-739214" lat="62.8594055513" lon="10.489491661">
		<tag k="name" v="Dammen" />
		<tag k="natural" v="wetland" />
		<tag k="ssr:stedsnr" v="943483" />
	</node>
	<node id="-739212" lat="62.8891694479" lon="10.490108335">
		<tag k="name" v="Skillingsekra" />
		<tag k="place" v="locality" />
		<tag k="ssr:stedsnr" v="943471" />
	</node>
	<node id="-739208" lat="62.9484805541" lon="10.4660055532">
		<tag k="name" v="Kattfjellmyra" />
		<tag k="natural" v="wetland" />
		<tag k="ssr:stedsnr" v="943420" />
	</node>
	<node id="-739206" lat="62.9477277765" lon="10.5141999956">
		<tag k="historic" v="shieling" />
		<tag k="name" v="Gammelvollen" />
		<tag k="place" v="locality" />
		<tag k="ssr:stedsnr" v="943410" />
	</node>
	<node id="-739649" lat="62.8943138923" lon="10.184397224">
		<tag k="name" v="Kjølbrona" />
		<tag k="place" v="locality" />
		<tag k="ssr:stedsnr" v="33834" />
	</node>
	<node id="-739203" lat="62.9524055564" lon="10.5385666748">
		<tag k="historic" v="shieling" />
		<tag k="name" v="Grytdalsvollan" />
		<tag k="place" v="locality" />
		<tag k="ssr:stedsnr" v="943403" />
	</node>
	<node id="-739202" lat="62.9428249999" lon="10.5392833275">
		<tag k="name" v="Øyaløkkja" />
		<tag k="place" v="locality" />
		<tag k="ssr:stedsnr" v="943400" />
	</node>
	<node id="-739201" lat="62.9414944474" lon="10.5667166657">
		<tag k="name" v="Kringletmyra" />
		<tag k="natural" v="wetland" />
		<tag k="ssr:stedsnr" v="943396" />
	</node>
	<node id="-739198" lat="62.9043388908" lon="10.4643638942">
		<tag k="name" v="Stormyra" />
		<tag k="natural" v="wetland" />
		<tag k="ssr:stedsnr" v="943373" />
	</node>
	<node id="-739194" lat="62.9958972235" lon="10.2192750095">
		<tag k="name" v="Grånløkkja" />
		<tag k="place" v="locality" />
		<tag k="ssr:stedsnr" v="943356" />
	</node>
	<node id="-739193" lat="62.9640111149" lon="10.4591749953">
		<tag k="name" v="Trettenget" />
		<tag k="place" v="locality" />
		<tag k="ssr:stedsnr" v="943335" />
	</node>
	<node id="-739191" lat="63.0143222194" lon="10.4484499919">
		<tag k="name" v="Stensvollen" />
		<tag k="place" v="locality" />
		<tag k="ssr:stedsnr" v="943326" />
	</node>
	<node id="-740259" lat="62.8213722218" lon="10.2371972285">
		<tag k="alt_name" v="Hardbakk-kjølan" />
		<tag k="name" v="Hardbakkjølan" />
		<tag k="natural" v="wetland" />
		<tag k="ssr:stedsnr" v="194287" />
	</node>
	<node id="-739185" lat="62.8612152235" lon="10.2334064259">
		<tag k="landuse" v="meadow" />
		<tag k="name" v="Innleggløkkja" />
		<tag k="ssr:stedsnr" v="943293" />
	</node>
	<node id="-739183" lat="62.9934361112" lon="10.2692805652">
		<tag k="name" v="Trøplassen" />
		<tag k="place" v="locality" />
		<tag k="ssr:stedsnr" v="943273" />
	</node>
	<node id="-739182" lat="62.8358027776" lon="10.4827305558">
		<tag k="name" v="Ropphaugkjølen" />
		<tag k="natural" v="wetland" />
		<tag k="ssr:stedsnr" v="943271" />
	</node>
	<node id="-739181" lat="62.8442500042" lon="10.2781944442">
		<tag k="name" v="Grønsetkjølan" />
		<tag k="natural" v="wetland" />
		<tag k="ssr:stedsnr" v="943257" />
	</node>
	<node id="-739180" lat="62.7863500004" lon="10.436433332">
		<tag k="name" v="Langrena" />
		<tag k="place" v="locality" />
		<tag k="ssr:stedsnr" v="943250" />
	</node>
	<node id="-739179" lat="62.8862999956" lon="10.3073638885">
		<tag k="name" v="Eggakjølen" />
		<tag k="natural" v="wetland" />
		<tag k="ssr:stedsnr" v="943244" />
	</node>
	<node id="-739176" lat="63.0002527748" lon="10.8288416718">
		<tag k="name" v="Sildbumyran" />
		<tag k="natural" v="wetland" />
		<tag k="ssr:stedsnr" v="943211" />
	</node>
	<node id="-739302" lat="62.9776472246" lon="10.840236117">
		<tag k="name" v="Fremgårdshogstret" />
		<tag k="place" v="locality" />
		<tag k="ssr:stedsnr" v="943859" />
	</node>
	<node id="-739169" lat="62.8485944436" lon="10.4415583299">
		<tag k="name" v="Råa" />
		<tag k="place" v="locality" />
		<tag k="ssr:stedsnr" v="943161" />
	</node>
	<node id="-741216" lat="62.8464999998" lon="10.3458944506">
		<tag k="name" v="Olderøya" />
		<tag k="place" v="locality" />
		<tag k="ssr:stedsnr" v="579984" />
	</node>
	<node id="-741215" lat="62.9619361152" lon="10.3646638813">
		<tag k="name" v="Grånløkkja" />
		<tag k="place" v="locality" />
		<tag k="ssr:stedsnr" v="579979" />
	</node>
	<node id="-739166" lat="62.9919999978" lon="10.2774861019">
		<tag k="name" v="Nordpå" />
		<tag k="place" v="locality" />
		<tag k="ssr:stedsnr" v="943137" />
	</node>
	<node id="-739165" lat="62.9904999973" lon="10.28509167">
		<tag k="name" v="Nyløkkja" />
		<tag k="place" v="locality" />
		<tag k="ssr:stedsnr" v="943136" />
	</node>
	<node id="-738618" lat="62.8569972187" lon="10.1954305555">
		<tag k="name" v="Skinnaråskjølan" />
		<tag k="natural" v="wetland" />
		<tag k="ssr:stedsnr" v="579861" />
	</node>
	<node id="-741210" lat="62.9124472235" lon="10.3975611148">
		<tag k="name" v="Kårmarka" />
		<tag k="place" v="locality" />
		<tag k="ssr:stedsnr" v="579957" />
	</node>
	<node id="-739160" lat="62.9601361103" lon="10.2155388822">
		<tag k="name" v="Stimyra" />
		<tag k="place" v="locality" />
		<tag k="ssr:stedsnr" v="943088" />
	</node>
	<node id="-741348" lat="62.9970638865" lon="10.4304222269">
		<tag k="name" v="Aunrønningan" />
		<tag k="place" v="locality" />
		<tag k="ssr:stedsnr" v="639344" />
	</node>
	<node id="-741205" lat="62.9988500044" lon="10.8899416679">
		<tag k="name" v="Bjørbekkøyan" />
		<tag k="natural" v="wetland" />
		<tag k="ssr:stedsnr" v="579932" />
	</node>
	<node id="-741203" lat="63.0246861129" lon="10.2789166747">
		<tag k="name" v="Småplassen" />
		<tag k="place" v="locality" />
		<tag k="ssr:stedsnr" v="579920" />
	</node>
	<node id="-741202" lat="62.8199944409" lon="10.3709944391">
		<tag k="landuse" v="quarry" />
		<tag k="name" v="Håkkådalsgruva" />
		<tag k="ssr:stedsnr" v="579914" />
	</node>
	<node id="-741201" lat="62.991991665" lon="10.8967500078">
		<tag k="name" v="Storbergsskjølen" />
		<tag k="natural" v="wetland" />
		<tag k="ssr:stedsnr" v="579913" />
	</node>
	<node id="-741200" lat="62.9855166705" lon="10.8600722235">
		<tag k="name" v="Svartkjølen" />
		<tag k="natural" v="wetland" />
		<tag k="ssr:stedsnr" v="579911" />
	</node>
	<node id="-741199" lat="62.9975138875" lon="10.8444611113">
		<tag k="name" v="Sagkjølen" />
		<tag k="natural" v="wetland" />
		<tag k="ssr:stedsnr" v="579909" />
	</node>
	<node id="-741198" lat="62.9845583377" lon="10.9548055501">
		<tag k="name" v="Stakkstenget" />
		<tag k="place" v="locality" />
		<tag k="ssr:stedsnr" v="579901" />
	</node>
	<node id="-741195" lat="63.0588638913" lon="10.3280111166">
		<tag k="name" v="Kringlemyra" />
		<tag k="natural" v="wetland" />
		<tag k="ssr:stedsnr" v="579891" />
	</node>
	<node id="-739146" lat="62.8290777816" lon="10.1892833306">
		<tag k="name" v="Storslættet" />
		<tag k="place" v="locality" />
		<tag k="ssr:stedsnr" v="822867" />
	</node>
	<node id="-739145" lat="62.8396111068" lon="10.1882972283">
		<tag k="name" v="Øfsthus-slættet" />
		<tag k="place" v="locality" />
		<tag k="ssr:stedsnr" v="822866" />
	</node>
	<node id="-739143" lat="62.9067861122" lon="10.7722805544">
		<tag k="name" v="Bakkøya" />
		<tag k="place" v="locality" />
		<tag k="ssr:stedsnr" v="822815" />
	</node>
	<node id="-741189" lat="62.9678944409" lon="10.8085166625">
		<tag k="name" v="Slåttmyra" />
		<tag k="natural" v="wetland" />
		<tag k="ssr:stedsnr" v="579840" />
	</node>
	<node id="-741188" lat="62.8923833363" lon="10.1844888971">
		<tag k="name" v="Lomkjølen" />
		<tag k="natural" v="wetland" />
		<tag k="ssr:stedsnr" v="579836" />
	</node>
	<node id="-739137" lat="62.9401861109" lon="10.3474833277">
		<tag k="name" v="Halsetmyra" />
		<tag k="natural" v="wetland" />
		<tag k="ssr:stedsnr" v="822969" />
	</node>
	<node id="-741184" lat="62.8996694489" lon="10.723877776">
		<tag k="name" v="Vass-slættet" />
		<tag k="natural" v="wetland" />
		<tag k="ssr:stedsnr" v="579821" />
	</node>
	<node id="-739135" lat="62.9420555578" lon="10.3702833354">
		<tag k="name" v="Hogseggmarka" />
		<tag k="place" v="locality" />
		<tag k="ssr:stedsnr" v="822963" />
	</node>
	<node id="-739153" lat="62.9707277748" lon="10.3202499997">
		<tag k="name" v="Kåsmyra" />
		<tag k="natural" v="wetland" />
		<tag k="ssr:stedsnr" v="943053" />
	</node>
	<node id="-737734" lat="62.9017416672" lon="10.6700555621">
		<tag k="name" v="Seteråsmyran" />
		<tag k="natural" v="wetland" />
		<tag k="ssr:stedsnr" v="458688" />
	</node>
	<node id="-741180" lat="62.91233611" lon="10.7527944449">
		<tag k="name" v="Storkjølen" />
		<tag k="natural" v="wetland" />
		<tag k="ssr:stedsnr" v="579806" />
	</node>
	<node id="-739131" lat="62.9882083351" lon="10.8725583306">
		<tag k="name" v="Tvartformyra" />
		<tag k="natural" v="wetland" />
		<tag k="ssr:stedsnr" v="822922" />
	</node>
	<node id="-739129" lat="62.996830555" lon="10.9041833408">
		<tag k="name" v="Svartkjølen" />
		<tag k="natural" v="wetland" />
		<tag k="ssr:stedsnr" v="822917" />
	</node>
	<node id="-739125" lat="63.0548749956" lon="10.3809583353">
		<tag k="name" v="Svarttjønnkjølen" />
		<tag k="natural" v="wetland" />
		<tag k="ssr:stedsnr" v="822776" />
	</node>
	<node id="-741172" lat="63.0442972217" lon="10.3542194474">
		<tag k="name" v="Brentet" />
		<tag k="place" v="locality" />
		<tag k="ssr:stedsnr" v="579782" />
	</node>
	<node id="-741170" lat="63.0431861146" lon="10.3560638801">
		<tag k="historic" v="shieling" />
		<tag k="name" v="Gammelvollen" />
		<tag k="place" v="locality" />
		<tag k="ssr:stedsnr" v="579780" />
	</node>
	<node id="-741164" lat="62.9933972261" lon="10.6892361196">
		<tag k="name" v="Koislåtten" />
		<tag k="place" v="locality" />
		<tag k="ssr:stedsnr" v="579759" />
	</node>
	<node id="-739111" lat="62.9796055575" lon="10.547616668">
		<tag k="name" v="Løkkja" />
		<tag k="place" v="locality" />
		<tag k="ssr:stedsnr" v="822609" />
	</node>
	<node id="-739110" lat="62.9917722244" lon="10.5003388852">
		<tag k="name" v="Trøin" />
		<tag k="place" v="locality" />
		<tag k="ssr:stedsnr" v="822607" />
	</node>
	<node id="-741157" lat="62.9806638885" lon="10.7190638928">
		<tag k="name" v="Buslættkjølen" />
		<tag k="natural" v="wetland" />
		<tag k="ssr:stedsnr" v="579877" />
	</node>
	<node id="-739108" lat="62.8930777784" lon="10.5033777833">
		<tag k="landuse" v="meadow" />
		<tag k="name" v="Bursløenget" />
		<tag k="ssr:stedsnr" v="822474" />
	</node>
	<node id="-739291" lat="62.9381944462" lon="10.8102166645">
		<tag k="name" v="Storkjølen" />
		<tag k="natural" v="wetland" />
		<tag k="ssr:stedsnr" v="943815" />
	</node>
	<node id="-739104" lat="62.95090556" lon="10.4764083325">
		<tag k="name" v="Litlflotten" />
		<tag k="place" v="locality" />
		<tag k="ssr:stedsnr" v="822453" />
	</node>
	<node id="-739103" lat="62.8799444442" lon="10.4513694484">
		<tag k="name" v="Kløftløkjølen" />
		<tag k="natural" v="wetland" />
		<tag k="ssr:stedsnr" v="822414" />
	</node>
	<node id="-739102" lat="62.9698722265" lon="10.5548138837">
		<tag k="name" v="Verkjesmyran" />
		<tag k="natural" v="wetland" />
		<tag k="ssr:stedsnr" v="822573" />
	</node>
	<node id="-739101" lat="62.9736222184" lon="10.5815555551">
		<tag k="historic" v="shieling" />
		<tag k="name" v="Litlvollen" />
		<tag k="place" v="locality" />
		<tag k="ssr:stedsnr" v="822572" />
	</node>
	<node id="-739290" lat="62.9543444478" lon="10.7840805487">
		<tag k="historic" v="shieling" />
		<tag k="name" v="Nesvollen" />
		<tag k="place" v="locality" />
		<tag k="ssr:stedsnr" v="943814" />
	</node>
	<node id="-739098" lat="62.9713222229" lon="10.5422861158">
		<tag k="name" v="Tavla" />
		<tag k="place" v="locality" />
		<tag k="ssr:stedsnr" v="822559" />
	</node>
	<node id="-739097" lat="62.9614499989" lon="10.5374055491">
		<tag k="name" v="Skurstokkløkkja" />
		<tag k="place" v="locality" />
		<tag k="ssr:stedsnr" v="822557" />
	</node>
	<node id="-739095" lat="62.8617138866" lon="10.4996472157">
		<tag k="name" v="Egga" />
		<tag k="place" v="locality" />
		<tag k="ssr:stedsnr" v="822515" />
	</node>
	<node id="-741142" lat="62.9803777781" lon="10.5233249932">
		<tag k="name" v="Kammyra" />
		<tag k="natural" v="wetland" />
		<tag k="ssr:stedsnr" v="579608" />
	</node>
	<node id="-741140" lat="62.974072219" lon="10.5112444528">
		<tag k="name" v="Busetmarka" />
		<tag k="place" v="locality" />
		<tag k="ssr:stedsnr" v="579601" />
	</node>
	<node id="-737528" lat="63.0161222236" lon="10.3063583278">
		<tag k="name" v="Bakkløkkja" />
		<tag k="place" v="locality" />
		<tag k="ssr:stedsnr" v="215115" />
	</node>
	<node id="-739088" lat="63.0185333342" lon="10.4583805532">
		<tag k="name" v="Oppå Rønninga" />
		<tag k="place" v="locality" />
		<tag k="ssr:stedsnr" v="822356" />
	</node>
	<node id="-739086" lat="63.0099611132" lon="10.2815055646">
		<tag k="name" v="Enamyra" />
		<tag k="natural" v="wetland" />
		<tag k="ssr:stedsnr" v="822115" />
	</node>
	<node id="-740653" lat="62.9933277746" lon="10.9125361023">
		<tag k="name" v="Blæsterrompon" />
		<tag k="place" v="locality" />
		<tag k="ssr:stedsnr" v="336874" />
	</node>
	<node id="-739081" lat="62.9833638898" lon="10.3002722203">
		<tag k="name" v="Inbrektslættet" />
		<tag k="place" v="locality" />
		<tag k="ssr:stedsnr" v="822067" />
	</node>
	<node id="-741128" lat="62.8750694402" lon="10.467661116">
		<tag k="name" v="Kvernhusløkkja" />
		<tag k="place" v="locality" />
		<tag k="ssr:stedsnr" v="579524" />
	</node>
	<node id="-739074" lat="62.9210944472" lon="10.1964527724">
		<tag k="name" v="Omnen" />
		<tag k="place" v="locality" />
		<tag k="ssr:stedsnr" v="821312" />
	</node>
	<node id="-737578" lat="62.848067836" lon="10.217319662">
		<tag k="name" v="Storkjølen" />
		<tag k="natural" v="wetland" />
		<tag k="ssr:stedsnr" v="215803" />
	</node>
	<node id="-741114" lat="62.8766166679" lon="10.1277388918">
		<tag k="name" v="Håggåskjølen" />
		<tag k="natural" v="wetland" />
		<tag k="ssr:stedsnr" v="579400" />
	</node>
	<node id="-741113" lat="62.8543805527" lon="10.4548333316">
		<tag k="landuse" v="meadow" />
		<tag k="name" v="Moan" />
		<tag k="ssr:stedsnr" v="579397" />
	</node>
	<node id="-739063" lat="62.9982249989" lon="10.2600361156">
		<tag k="name" v="Moamyra" />
		<tag k="natural" v="wetland" />
		<tag k="ssr:stedsnr" v="801607" />
	</node>
	<node id="-741110" lat="62.9074083295" lon="10.4447638912">
		<tag k="name" v="Hogstret" />
		<tag k="place" v="locality" />
		<tag k="ssr:stedsnr" v="579389" />
	</node>
	<node id="-741109" lat="62.907908337" lon="10.2654916744">
		<tag k="name" v="Åskåsin" />
		<tag k="natural" v="wetland" />
		<tag k="ssr:stedsnr" v="579387" />
	</node>
	<node id="-741108" lat="62.9184222264" lon="10.4238999932">
		<tag k="name" v="Stormyra" />
		<tag k="natural" v="wetland" />
		<tag k="ssr:stedsnr" v="579367" />
	</node>
	<node id="-741107" lat="62.9276527782" lon="10.4275166645">
		<tag k="name" v="Storslættkjølen" />
		<tag k="natural" v="wetland" />
		<tag k="ssr:stedsnr" v="579363" />
	</node>
	<node id="-741106" lat="63.019116668" lon="10.4446250026">
		<tag k="name" v="Nyløkkjon" />
		<tag k="place" v="locality" />
		<tag k="ssr:stedsnr" v="579345" />
	</node>
	<node id="-741414" lat="62.9214555593" lon="10.5996916758">
		<tag k="landuse" v="meadow" />
		<tag k="name" v="Os-slåtten" />
		<tag k="ssr:stedsnr" v="639683" />
	</node>
	<node id="-741098" lat="62.813483336" lon="10.4153888908">
		<tag k="name" v="Jamtløkkja" />
		<tag k="place" v="locality" />
		<tag k="ssr:stedsnr" v="579187" />
	</node>
	<node id="-741095" lat="62.878336107" lon="10.7834305631">
		<tag k="name" v="Fjellslættet" />
		<tag k="place" v="locality" />
		<tag k="ssr:stedsnr" v="579164" />
	</node>
	<node id="-741094" lat="62.8741000028" lon="10.7995916574">
		<tag k="name" v="Hopslættet" />
		<tag k="place" v="locality" />
		<tag k="ssr:stedsnr" v="579162" />
	</node>
	<node id="-741093" lat="62.8613361091" lon="10.4340138916">
		<tag k="name" v="Høgsetslættet" />
		<tag k="place" v="locality" />
		<tag k="ssr:stedsnr" v="579145" />
	</node>
	<node id="-741092" lat="62.8223416665" lon="10.4597277715">
		<tag k="name" v="Smimyra" />
		<tag k="natural" v="wetland" />
		<tag k="ssr:stedsnr" v="579140" />
	</node>
	<node id="-741088" lat="62.9752777749" lon="10.2269916708">
		<tag k="name" v="Oddan" />
		<tag k="place" v="locality" />
		<tag k="ssr:stedsnr" v="579078" />
	</node>
	<node id="-741087" lat="62.9543416688" lon="10.2627249912">
		<tag k="name" v="Synner Høstmyra" />
		<tag k="natural" v="wetland" />
		<tag k="ssr:stedsnr" v="579050" />
	</node>
	<node id="-738596" lat="62.9849777808" lon="10.9156944414">
		<tag k="name" v="Kjellhogstret" />
		<tag k="place" v="locality" />
		<tag k="ssr:stedsnr" v="579676" />
	</node>
	<node id="-741077" lat="62.9497694409" lon="10.3350583385">
		<tag k="historic" v="shieling" />
		<tag k="name" v="Aunvollen" />
		<tag k="place" v="locality" />
		<tag k="ssr:stedsnr" v="579012" />
	</node>
	<node id="-741076" lat="62.9211972192" lon="10.2246361131">
		<tag k="name" v="Merkjesegga" />
		<tag k="place" v="locality" />
		<tag k="ssr:stedsnr" v="579008" />
	</node>
	<node id="-738595" lat="63.0045250003" lon="10.5180472244">
		<tag k="name" v="Lomtjønnmyra" />
		<tag k="natural" v="wetland" />
		<tag k="ssr:stedsnr" v="579670" />
	</node>
	<node id="-739367" lat="62.8834583337" lon="10.4335055567">
		<tag k="name" v="Fjellslættet" />
		<tag k="place" v="locality" />
		<tag k="ssr:stedsnr" v="883460" />
	</node>
	<node id="-741069" lat="62.9508583344" lon="10.3057027771">
		<tag k="name" v="Moagjerdet" />
		<tag k="place" v="locality" />
		<tag k="ssr:stedsnr" v="579060" />
	</node>
	<node id="-739618" lat="62.9652944437" lon="10.7036083306">
		<tag k="name" v="Brenthogstermyra" />
		<tag k="natural" v="wetland" />
		<tag k="ssr:stedsnr" v="33736" />
	</node>
	<node id="-741066" lat="62.911236108" lon="10.1919916653">
		<tag k="name" v="Smørlåva" />
		<tag k="place" v="locality" />
		<tag k="ssr:stedsnr" v="578595" />
	</node>
	<node id="-741064" lat="62.9009500042" lon="10.0982833244">
		<tag k="name" v="Gjelmyra" />
		<tag k="natural" v="wetland" />
		<tag k="ssr:stedsnr" v="578575" />
	</node>
	<node id="-739008" lat="62.9727194402" lon="10.2696111202">
		<tag k="name" v="Nordlimyran" />
		<tag k="natural" v="wetland" />
		<tag k="ssr:stedsnr" v="922491" />
	</node>
	<node id="-739613" lat="62.9204222187" lon="10.6862361066">
		<tag k="name" v="Langmyra" />
		<tag k="natural" v="wetland" />
		<tag k="ssr:stedsnr" v="33716" />
	</node>
	<node id="-738978" lat="62.9523805563" lon="10.7719777748">
		<tag k="name" v="Nesskogen" />
		<tag k="place" v="locality" />
		<tag k="ssr:stedsnr" v="761854" />
	</node>
	<node id="-738976" lat="62.9220749956" lon="10.6324055496">
		<tag k="name" v="Langmyra" />
		<tag k="natural" v="wetland" />
		<tag k="ssr:stedsnr" v="761705" />
	</node>
	<node id="-738973" lat="62.8990777803" lon="10.7166749948">
		<tag k="name" v="Bergvollmyra" />
		<tag k="natural" v="wetland" />
		<tag k="ssr:stedsnr" v="761686" />
	</node>
	<node id="-738972" lat="62.9252249999" lon="10.0399666631">
		<tag k="historic" v="shieling" />
		<tag k="name" v="Rønningsvollen" />
		<tag k="place" v="locality" />
		<tag k="ssr:stedsnr" v="761684" />
	</node>
	<node id="-738586" lat="63.0255388864" lon="10.4237666661">
		<tag k="name" v="Litlløkkja" />
		<tag k="place" v="locality" />
		<tag k="ssr:stedsnr" v="579321" />
	</node>
	<node id="-738970" lat="62.9037583365" lon="10.0861361097">
		<tag k="name" v="Kløftet" />
		<tag k="place" v="locality" />
		<tag k="ssr:stedsnr" v="761677" />
	</node>
	<node id="-738967" lat="62.8926499976" lon="10.4580333315">
		<tag k="name" v="Øverløkkja" />
		<tag k="place" v="locality" />
		<tag k="ssr:stedsnr" v="761671" />
	</node>
	<node id="-738966" lat="62.8342999998" lon="10.5546666734">
		<tag k="name" v="Brandeggløkkja" />
		<tag k="place" v="locality" />
		<tag k="ssr:stedsnr" v="761670" />
	</node>
	<node id="-738965" lat="62.8599583304" lon="10.5387583418">
		<tag k="name" v="Storbekkmyran" />
		<tag k="natural" v="wetland" />
		<tag k="ssr:stedsnr" v="761669" />
	</node>
	<node id="-739706" lat="63.0332972208" lon="10.9250111029">
		<tag k="historic" v="shieling" />
		<tag k="name" v="Nyvollen" />
		<tag k="place" v="locality" />
		<tag k="ssr:stedsnr" v="73170" />
	</node>
	<node id="-739267" lat="62.800550001" lon="10.4690972151">
		<tag k="name" v="Gjelkoia" />
		<tag k="place" v="locality" />
		<tag k="ssr:stedsnr" v="943708" />
	</node>
	<node id="-738960" lat="62.9224722212" lon="10.4838305544">
		<tag k="name" v="Storkjølen" />
		<tag k="natural" v="wetland" />
		<tag k="ssr:stedsnr" v="761465" />
	</node>
	<node id="-738956" lat="62.8552972201" lon="10.4885416649">
		<tag k="name" v="Kåsin" />
		<tag k="natural" v="wetland" />
		<tag k="ssr:stedsnr" v="761540" />
	</node>
	<node id="-739266" lat="62.9722499989" lon="10.6385194389">
		<tag k="name" v="Toralvkjølan" />
		<tag k="natural" v="wetland" />
		<tag k="ssr:stedsnr" v="943700" />
	</node>
	<node id="-738619" lat="62.8519916693" lon="10.19946667">
		<tag k="name" v="Vagnillfloan" />
		<tag k="natural" v="wetland" />
		<tag k="ssr:stedsnr" v="579863" />
	</node>
	<node id="-738952" lat="62.8895972183" lon="10.4738722179">
		<tag k="name" v="Kloppmyra" />
		<tag k="natural" v="wetland" />
		<tag k="ssr:stedsnr" v="761523" />
	</node>
	<node id="-738944" lat="62.9019083337" lon="10.2993388928">
		<tag k="name" v="Anshuskjølen" />
		<tag k="natural" v="wetland" />
		<tag k="ssr:stedsnr" v="761266" />
	</node>
	<node id="-738942" lat="62.8708888859" lon="10.2791138925">
		<tag k="name" v="Varggrubba" />
		<tag k="place" v="locality" />
		<tag k="ssr:stedsnr" v="761255" />
	</node>
	<node id="-740984" lat="63.0700972248" lon="10.4482111177">
		<tag k="name" v="Bredkjølen" />
		<tag k="natural" v="wetland" />
		<tag k="ssr:stedsnr" v="437869" />
	</node>
	<node id="-739921" lat="63.0300444413" lon="10.3744638841">
		<tag k="name" v="Kjellslættet" />
		<tag k="place" v="locality" />
		<tag k="ssr:stedsnr" v="94851" />
	</node>
	<node id="-738930" lat="62.9689722209" lon="10.3118666707">
		<tag k="name" v="Vassåsløkkja" />
		<tag k="place" v="locality" />
		<tag k="ssr:stedsnr" v="761058" />
	</node>
	<node id="-738929" lat="62.9624055584" lon="10.305922218">
		<tag k="name" v="Blåbergmyra" />
		<tag k="natural" v="wetland" />
		<tag k="ssr:stedsnr" v="761057" />
	</node>
	<node id="-739260" lat="62.926666665" lon="10.6883944538">
		<tag k="historic" v="shieling" />
		<tag k="name" v="Litlvollen" />
		<tag k="place" v="locality" />
		<tag k="ssr:stedsnr" v="943663" />
	</node>
	<node id="-738577" lat="62.8442611136" lon="10.5050638865">
		<tag k="name" v="Langmyrløa" />
		<tag k="place" v="locality" />
		<tag k="ssr:stedsnr" v="579266" />
	</node>
	<node id="-738916" lat="63.0140388918" lon="10.6866888895">
		<tag k="landuse" v="meadow" />
		<tag k="name" v="Rødåsslættet" />
		<tag k="ssr:stedsnr" v="740960" />
	</node>
	<node id="-740957" lat="63.0324250034" lon="10.1688444449">
		<tag k="historic" v="shieling" />
		<tag k="name" v="Snøansætra" />
		<tag k="place" v="locality" />
		<tag k="ssr:stedsnr" v="437575" />
	</node>
	<node id="-738907" lat="62.8670194408" lon="10.3212777834">
		<tag k="alt_name" v="Langkjølen" />
		<tag k="name" v="Kakukjølen" />
		<tag k="natural" v="wetland" />
		<tag k="ssr:stedsnr" v="740660" />
	</node>
	<node id="-739598" lat="63.0103638919" lon="10.4793555586">
		<tag k="name" v="Rønningan" />
		<tag k="place" v="locality" />
		<tag k="ssr:stedsnr" v="33653" />
	</node>
	<node id="-737891" lat="62.9081222201" lon="10.3772972256">
		<tag k="name" v="Hildbrandsråa" />
		<tag k="place" v="locality" />
		<tag k="ssr:stedsnr" v="458996" />
	</node>
	<node id="-740943" lat="62.846719448" lon="10.5091944407">
		<tag k="name" v="Storkjølen" />
		<tag k="natural" v="wetland" />
		<tag k="ssr:stedsnr" v="437366" />
	</node>
	<node id="-738573" lat="63.0238749977" lon="10.3257916659">
		<tag k="name" v="Litlløkkja" />
		<tag k="place" v="locality" />
		<tag k="ssr:stedsnr" v="579106" />
	</node>
	<node id="-740939" lat="62.8777944445" lon="10.8838611021">
		<tag k="name" v="Syndre Herjøyan" />
		<tag k="natural" v="wetland" />
		<tag k="ssr:stedsnr" v="437144" />
	</node>
	<node id="-740936" lat="62.861277777" lon="10.777583326">
		<tag k="name" v="Hermokjølan" />
		<tag k="natural" v="wetland" />
		<tag k="ssr:stedsnr" v="437086" />
	</node>
	<node id="-737794" lat="62.8508222197" lon="10.2059666662">
		<tag k="name" v="Skulgjærdslættet" />
		<tag k="place" v="locality" />
		<tag k="ssr:stedsnr" v="458876" />
	</node>
	<node id="-737716" lat="62.9589416634" lon="10.515680552">
		<tag k="historic" v="shieling" />
		<tag k="name" v="Litlvollen" />
		<tag k="place" v="locality" />
		<tag k="ssr:stedsnr" v="458609" />
	</node>
	<node id="-738876" lat="62.8771722204" lon="10.1716583241">
		<tag k="name" v="Sjurbergslættmyra" />
		<tag k="natural" v="wetland" />
		<tag k="ssr:stedsnr" v="700856" />
	</node>
	<node id="-738875" lat="62.8745000036" lon="10.177513887">
		<tag k="name" v="Hestsprengløkkja" />
		<tag k="place" v="locality" />
		<tag k="ssr:stedsnr" v="700854" />
	</node>
	<node id="-738874" lat="62.8610888861" lon="10.7576333258">
		<tag k="name" v="Fjellslættet" />
		<tag k="place" v="locality" />
		<tag k="ssr:stedsnr" v="700769" />
	</node>
	<node id="-738873" lat="62.8891166706" lon="10.7185055638">
		<tag k="name" v="Langmyra" />
		<tag k="natural" v="wetland" />
		<tag k="ssr:stedsnr" v="700766" />
	</node>
	<node id="-738872" lat="62.8647972239" lon="10.2340194511">
		<tag k="name" v="Moshaugløkkja" />
		<tag k="place" v="locality" />
		<tag k="ssr:stedsnr" v="700762" />
	</node>
	<node id="-739593" lat="62.9376972215" lon="10.1735416574">
		<tag k="name" v="Nerløkkjon" />
		<tag k="place" v="locality" />
		<tag k="ssr:stedsnr" v="33645" />
	</node>
	<node id="-740916" lat="62.9063388926" lon="10.3965694504">
		<tag k="name" v="Trøin" />
		<tag k="place" v="locality" />
		<tag k="ssr:stedsnr" v="397991" />
	</node>
	<node id="-738866" lat="62.9277944436" lon="10.6899888913">
		<tag k="name" v="Kloppmyra" />
		<tag k="natural" v="wetland" />
		<tag k="ssr:stedsnr" v="700676" />
	</node>
	<node id="-738864" lat="62.9145527746" lon="10.6493861015">
		<tag k="name" v="Litlslættet" />
		<tag k="place" v="locality" />
		<tag k="ssr:stedsnr" v="700669" />
	</node>
	<node id="-738863" lat="63.0011027757" lon="10.0887750006">
		<tag k="name" v="Langløftin" />
		<tag k="natural" v="wetland" />
		<tag k="ssr:stedsnr" v="700659" />
	</node>
	<node id="-738861" lat="62.987472222" lon="10.1687638851">
		<tag k="name" v="Torvmyra" />
		<tag k="natural" v="wetland" />
		<tag k="ssr:stedsnr" v="700625" />
	</node>
	<node id="-738860" lat="62.913644444" lon="10.1021166649">
		<tag k="name" v="Dragsetslættet" />
		<tag k="natural" v="wetland" />
		<tag k="ssr:stedsnr" v="700622" />
	</node>
	<node id="-740906" lat="62.9329083378" lon="10.3448722229">
		<tag k="name" v="Nyløenget" />
		<tag k="place" v="locality" />
		<tag k="ssr:stedsnr" v="397965" />
	</node>
	<node id="-738856" lat="62.9769444471" lon="10.5741305569">
		<tag k="historic" v="shieling" />
		<tag k="name" v="Litlvollen" />
		<tag k="place" v="locality" />
		<tag k="ssr:stedsnr" v="700610" />
	</node>
	<node id="-740900" lat="63.0375805562" lon="10.2806722209">
		<tag k="name" v="Soknesgrinda" />
		<tag k="place" v="locality" />
		<tag k="ssr:stedsnr" v="397936" />
	</node>
	<node id="-740898" lat="62.9911750028" lon="10.9028638902">
		<tag k="name" v="Vedhogstret" />
		<tag k="place" v="locality" />
		<tag k="ssr:stedsnr" v="397915" />
	</node>
	<node id="-740897" lat="62.9839722202" lon="10.9022500038">
		<tag k="name" v="Langåshogstret" />
		<tag k="place" v="locality" />
		<tag k="ssr:stedsnr" v="397913" />
	</node>
	<node id="-740896" lat="62.99333889" lon="10.8870083426">
		<tag k="name" v="Limyra" />
		<tag k="natural" v="wetland" />
		<tag k="ssr:stedsnr" v="397910" />
	</node>
	<node id="-740894" lat="63.0646833305" lon="10.3185305479">
		<tag k="name" v="Hestkosan" />
		<tag k="place" v="locality" />
		<tag k="ssr:stedsnr" v="397908" />
	</node>
	<node id="-738843" lat="62.8833361141" lon="10.233127787">
		<tag k="name" v="Gammelgardshølen" />
		<tag k="place" v="locality" />
		<tag k="ssr:stedsnr" v="700358" />
	</node>
	<node id="-740890" lat="62.9829944471" lon="10.9002805557">
		<tag k="name" v="Litlhogstra" />
		<tag k="place" v="locality" />
		<tag k="ssr:stedsnr" v="397898" />
	</node>
	<node id="-738839" lat="62.9217638864" lon="10.1123444459">
		<tag k="name" v="Mussmørdylla" />
		<tag k="natural" v="wetland" />
		<tag k="ssr:stedsnr" v="700272" />
	</node>
	<node id="-738838" lat="62.8431805572" lon="10.5048416697">
		<tag k="name" v="Langmyra" />
		<tag k="natural" v="wetland" />
		<tag k="ssr:stedsnr" v="700268" />
	</node>
	<node id="-740885" lat="62.9515833299" lon="10.9153666645">
		<tag k="historic" v="shieling" />
		<tag k="name" v="Serrivollen" />
		<tag k="place" v="locality" />
		<tag k="ssr:stedsnr" v="397876" />
	</node>
	<node id="-740883" lat="62.8527527768" lon="10.2115222176">
		<tag k="name" v="Hølløenget" />
		<tag k="place" v="locality" />
		<tag k="ssr:stedsnr" v="397871" />
	</node>
	<node id="-740880" lat="62.9518444449" lon="10.8349388921">
		<tag k="name" v="Stormyra" />
		<tag k="natural" v="wetland" />
		<tag k="ssr:stedsnr" v="397862" />
	</node>
	<node id="-740878" lat="62.9356888852" lon="10.7623472155">
		<tag k="name" v="Gjetbergmyra" />
		<tag k="natural" v="wetland" />
		<tag k="ssr:stedsnr" v="397852" />
	</node>
	<node id="-738828" lat="62.9539277769" lon="10.2577361035">
		<tag k="name" v="Frostmyra" />
		<tag k="natural" v="wetland" />
		<tag k="ssr:stedsnr" v="700067" />
	</node>
	<node id="-737538" lat="62.9234027762" lon="10.3367388915">
		<tag k="name" v="Sagøya" />
		<tag k="place" v="locality" />
		<tag k="ssr:stedsnr" v="215029" />
	</node>
	<node id="-740874" lat="62.9451638851" lon="10.1353833381">
		<tag k="name" v="Slåstongskjølen" />
		<tag k="natural" v="wetland" />
		<tag k="ssr:stedsnr" v="397841" />
	</node>
	<node id="-740873" lat="62.9687777775" lon="10.8105666639">
		<tag k="name" v="Skoddhesja" />
		<tag k="place" v="locality" />
		<tag k="ssr:stedsnr" v="397832" />
	</node>
	<node id="-738823" lat="62.8458749983" lon="10.7746583292">
		<tag k="historic" v="shieling" />
		<tag k="name" v="Vondbekkvollen" />
		<tag k="place" v="locality" />
		<tag k="ssr:stedsnr" v="700175" />
	</node>
	<node id="-740869" lat="62.9132666654" lon="10.7331277711">
		<tag k="name" v="Kvernmyran" />
		<tag k="natural" v="wetland" />
		<tag k="ssr:stedsnr" v="397798" />
	</node>
	<node id="-737878" lat="63.0239638892" lon="10.1422638949">
		<tag k="historic" v="shieling" />
		<tag k="name" v="Finnskjeggvollen" />
		<tag k="place" v="locality" />
		<tag k="ssr:stedsnr" v="276719" />
	</node>
	<node id="-740865" lat="62.8199027805" lon="10.2255305653">
		<tag k="name" v="Løkkjløkkja" />
		<tag k="place" v="locality" />
		<tag k="ssr:stedsnr" v="397781" />
	</node>
	<node id="-740864" lat="63.0079416702" lon="10.6810444485">
		<tag k="name" v="Vilmannsfloan" />
		<tag k="natural" v="wetland" />
		<tag k="ssr:stedsnr" v="397780" />
	</node>
	<node id="-740863" lat="62.8408194487" lon="10.235986115">
		<tag k="name" v="Sommarvoll-høløenget" />
		<tag k="place" v="locality" />
		<tag k="ssr:stedsnr" v="397778" />
	</node>
	<node id="-739925" lat="62.9602472179" lon="10.7613527853">
		<tag k="landuse" v="peat_cutting" />
		<tag k="name" v="Øver-torvtaket" />
		<tag k="ssr:stedsnr" v="94861" />
	</node>
	<node id="-740859" lat="62.9945972263" lon="10.616119435">
		<tag k="name" v="Løkkja" />
		<tag k="place" v="locality" />
		<tag k="ssr:stedsnr" v="397754" />
	</node>
	<node id="-738810" lat="62.8572999971" lon="10.3708944419">
		<tag k="historic" v="shieling" />
		<tag k="name" v="Små-Haukdalsvollan" />
		<tag k="place" v="locality" />
		<tag k="ssr:stedsnr" v="883991" />
	</node>
	<node id="-740856" lat="62.9843611074" lon="10.6003749975">
		<tag k="name" v="Gammelvollmyra" />
		<tag k="natural" v="wetland" />
		<tag k="ssr:stedsnr" v="397749" />
	</node>
	<node id="-738801" lat="62.9075222236" lon="10.1737305524">
		<tag k="name" v="Vagnilløkkja" />
		<tag k="place" v="locality" />
		<tag k="ssr:stedsnr" v="883875" />
	</node>
	<node id="-740847" lat="62.9144388917" lon="10.6596472301">
		<tag k="name" v="Floan" />
		<tag k="natural" v="wetland" />
		<tag k="ssr:stedsnr" v="397688" />
	</node>
	<node id="-740843" lat="62.9983000029" lon="10.1880638879">
		<tag k="name" v="Haldoslættet" />
		<tag k="place" v="locality" />
		<tag k="ssr:stedsnr" v="397678" />
	</node>
	<node id="-738793" lat="62.9918972222" lon="10.8870527756">
		<tag k="name" v="Kringlemyra" />
		<tag k="natural" v="wetland" />
		<tag k="ssr:stedsnr" v="883940" />
	</node>
	<node id="-738792" lat="63.0530722187" lon="10.2220499968">
		<tag k="name" v="Knoppskogen" />
		<tag k="place" v="locality" />
		<tag k="ssr:stedsnr" v="883937" />
	</node>
	<node id="-737532" lat="62.811830559" lon="10.4565388872">
		<tag k="name" v="Valan" />
		<tag k="place" v="locality" />
		<tag k="ssr:stedsnr" v="215146" />
	</node>
	<node id="-740838" lat="62.9036750032" lon="10.5978555611">
		<tag k="historic" v="shieling" />
		<tag k="name" v="Hervollan" />
		<tag k="place" v="locality" />
		<tag k="ssr:stedsnr" v="397664" />
	</node>
	<node id="-740837" lat="62.9216277735" lon="10.0658388916">
		<tag k="name" v="Storkjølen" />
		<tag k="natural" v="wetland" />
		<tag k="ssr:stedsnr" v="397662" />
	</node>
	<node id="-740836" lat="62.9072555514" lon="10.6496055481">
		<tag k="name" v="Vassfallet" />
		<tag k="natural" v="wetland" />
		<tag k="ssr:stedsnr" v="397661" />
	</node>
	<node id="-740834" lat="63.0570472191" lon="10.1652499992">
		<tag k="name" v="Storveltesmyra" />
		<tag k="natural" v="wetland" />
		<tag k="ssr:stedsnr" v="397659" />
	</node>
	<node id="-740833" lat="62.8970611102" lon="10.6600083331">
		<tag k="name" v="Fjell-limyran" />
		<tag k="natural" v="wetland" />
		<tag k="ssr:stedsnr" v="397657" />
	</node>
	<node id="-740831" lat="62.9362194421" lon="10.5767111033">
		<tag k="name" v="Stormyra" />
		<tag k="natural" v="wetland" />
		<tag k="ssr:stedsnr" v="397653" />
	</node>
	<node id="-740830" lat="62.9303944437" lon="10.6018777827">
		<tag k="name" v="Vindkløftvollen" />
		<tag k="place" v="locality" />
		<tag k="ssr:stedsnr" v="397640" />
	</node>
	<node id="-738781" lat="63.0369388911" lon="10.3465944353">
		<tag k="name" v="Eian" />
		<tag k="place" v="locality" />
		<tag k="ssr:stedsnr" v="883850" />
	</node>
	<node id="-738779" lat="62.9260722182" lon="10.7283611202">
		<tag k="name" v="Storhogstret" />
		<tag k="place" v="locality" />
		<tag k="ssr:stedsnr" v="883846" />
	</node>
	<node id="-740824" lat="63.0003749959" lon="10.500691662">
		<tag k="name" v="Bururønningen" />
		<tag k="place" v="locality" />
		<tag k="ssr:stedsnr" v="397621" />
	</node>
	<node id="-740823" lat="62.8969333329" lon="10.1496972234">
		<tag k="historic" v="shieling" />
		<tag k="name" v="Hanshusvollen" />
		<tag k="place" v="locality" />
		<tag k="ssr:stedsnr" v="397617" />
	</node>
	<node id="-737529" lat="63.0018861083" lon="10.2878666722">
		<tag k="name" v="Trømyra" />
		<tag k="natural" v="wetland" />
		<tag k="ssr:stedsnr" v="215116" />
	</node>
	<node id="-740819" lat="62.9975472185" lon="10.5464861041">
		<tag k="name" v="Reppløkkjon" />
		<tag k="place" v="locality" />
		<tag k="ssr:stedsnr" v="397604" />
	</node>
	<node id="-740818" lat="62.9760944475" lon="10.1502833282">
		<tag k="name" v="Beslingskora" />
		<tag k="natural" v="wetland" />
		<tag k="ssr:stedsnr" v="397603" />
	</node>
	<node id="-740817" lat="62.9790666653" lon="10.564050005">
		<tag k="name" v="Tyholtet" />
		<tag k="place" v="locality" />
		<tag k="ssr:stedsnr" v="397600" />
	</node>
	<node id="-738767" lat="62.9787861078" lon="10.5371222234">
		<tag k="name" v="Talsneshogstret" />
		<tag k="place" v="locality" />
		<tag k="ssr:stedsnr" v="883635" />
	</node>
	<node id="-737869" lat="62.9694333308" lon="10.8195833302">
		<tag k="name" v="Brennhaugmyran" />
		<tag k="natural" v="wetland" />
		<tag k="ssr:stedsnr" v="276859" />
	</node>
	<node id="-739563" lat="62.9150055591" lon="10.1177694442">
		<tag k="name" v="Skimyra" />
		<tag k="natural" v="wetland" />
		<tag k="ssr:stedsnr" v="33404" />
	</node>
	<node id="-740807" lat="62.960205555" lon="10.5552055576">
		<tag k="historic" v="shieling" />
		<tag k="name" v="Sagvollen" />
		<tag k="place" v="locality" />
		<tag k="ssr:stedsnr" v="397559" />
	</node>
	<node id="-738209" lat="62.9296305533" lon="10.7041750087">
		<tag k="name" v="Korsvegen" />
		<tag k="place" v="locality" />
		<tag k="ssr:stedsnr" v="518659" />
	</node>
	<node id="-738754" lat="62.8868861116" lon="10.4685361091">
		<tag k="name" v="Purkkjølen" />
		<tag k="natural" v="wetland" />
		<tag k="ssr:stedsnr" v="883557" />
	</node>
	<node id="-740801" lat="62.8356111097" lon="10.5445638906">
		<tag k="name" v="Hestmyra" />
		<tag k="natural" v="wetland" />
		<tag k="ssr:stedsnr" v="397535" />
	</node>
	<node id="-740798" lat="62.8643750006" lon="10.5040138901">
		<tag k="name" v="Øyan" />
		<tag k="place" v="locality" />
		<tag k="ssr:stedsnr" v="397509" />
	</node>
	<node id="-738749" lat="62.9084222207" lon="10.5375333359">
		<tag k="name" v="Øverøyan" />
		<tag k="natural" v="wetland" />
		<tag k="ssr:stedsnr" v="883539" />
	</node>
	<node id="-740796" lat="62.8794305595" lon="10.5060555624">
		<tag k="name" v="Stampinga" />
		<tag k="place" v="locality" />
		<tag k="ssr:stedsnr" v="397487" />
	</node>
	<node id="-740795" lat="62.8719083365" lon="10.5648361058">
		<tag k="name" v="Moltgrubba" />
		<tag k="natural" v="wetland" />
		<tag k="ssr:stedsnr" v="397479" />
	</node>
	<node id="-738746" lat="62.9827472232" lon="10.272894447">
		<tag k="name" v="Sigridenget" />
		<tag k="place" v="locality" />
		<tag k="ssr:stedsnr" v="883440" />
	</node>
	<node id="-738745" lat="62.9429444476" lon="10.1762361184">
		<tag k="name" v="Flottaløkkja" />
		<tag k="place" v="locality" />
		<tag k="ssr:stedsnr" v="883434" />
	</node>
	<node id="-740792" lat="62.9227555588" lon="10.4721916745">
		<tag k="landuse" v="meadow" />
		<tag k="name" v="Bjørnbekkenget" />
		<tag k="ssr:stedsnr" v="397446" />
	</node>
	<node id="-737721" lat="62.9490305521" lon="10.1739055515">
		<tag k="name" v="Nyhusløkkja" />
		<tag k="place" v="locality" />
		<tag k="ssr:stedsnr" v="458638" />
	</node>
	<node id="-740788" lat="62.9481055579" lon="10.4744027855">
		<tag k="name" v="Trøin" />
		<tag k="place" v="locality" />
		<tag k="ssr:stedsnr" v="397430" />
	</node>
	<node id="-740787" lat="62.9375000007" lon="10.4952527727">
		<tag k="name" v="Nyløkkja" />
		<tag k="place" v="locality" />
		<tag k="ssr:stedsnr" v="397422" />
	</node>
	<node id="-740786" lat="62.9545777788" lon="10.5251277868">
		<tag k="name" v="Storkjølen" />
		<tag k="natural" v="wetland" />
		<tag k="ssr:stedsnr" v="397409" />
	</node>
	<node id="-738737" lat="62.9151444487" lon="10.1516083259">
		<tag k="historic" v="shieling" />
		<tag k="name" v="Bakkvollen" />
		<tag k="place" v="locality" />
		<tag k="ssr:stedsnr" v="883345" />
	</node>
	<node id="-738736" lat="62.8085861116" lon="10.547991669">
		<tag k="name" v="Slåttmyra" />
		<tag k="natural" v="wetland" />
		<tag k="ssr:stedsnr" v="883339" />
	</node>
	<node id="-738733" lat="62.7939388931" lon="10.4430611126">
		<tag k="name" v="Fiskbekkmyra" />
		<tag k="natural" v="wetland" />
		<tag k="ssr:stedsnr" v="883294" />
	</node>
	<node id="-738732" lat="62.8436944477" lon="10.5101694354">
		<tag k="name" v="Nyløa" />
		<tag k="place" v="locality" />
		<tag k="ssr:stedsnr" v="883329" />
	</node>
	<node id="-738731" lat="62.9793666627" lon="10.2632472128">
		<tag k="name" v="Haugaløkken" />
		<tag k="place" v="locality" />
		<tag k="ssr:stedsnr" v="883324" />
	</node>
	<node id="-740778" lat="62.9342472182" lon="10.1733499903">
		<tag k="name" v="Litlløkkja" />
		<tag k="place" v="locality" />
		<tag k="ssr:stedsnr" v="397383" />
	</node>
	<node id="-740777" lat="62.8790777821" lon="10.1401222293">
		<tag k="historic" v="shieling" />
		<tag k="name" v="Aunvollen" />
		<tag k="place" v="locality" />
		<tag k="ssr:stedsnr" v="397380" />
	</node>
	<node id="-740773" lat="62.9854777788" lon="10.262455547">
		<tag k="name" v="Grobakken" />
		<tag k="place" v="locality" />
		<tag k="ssr:stedsnr" v="397296" />
	</node>
	<node id="-740771" lat="63.0058916629" lon="10.2633166735">
		<tag k="name" v="Synnermyran" />
		<tag k="natural" v="wetland" />
		<tag k="ssr:stedsnr" v="397275" />
	</node>
	<node id="-738722" lat="62.8307611107" lon="10.4289916595">
		<tag k="name" v="Holmslættet" />
		<tag k="place" v="locality" />
		<tag k="ssr:stedsnr" v="883145" />
	</node>
	<node id="-740768" lat="62.879641665" lon="10.2843555498">
		<tag k="name" v="Vivoll-løkkja" />
		<tag k="place" v="locality" />
		<tag k="ssr:stedsnr" v="397254" />
	</node>
	<node id="-740767" lat="62.8919527765" lon="10.2775583403">
		<tag k="name" v="Hømna" />
		<tag k="place" v="locality" />
		<tag k="ssr:stedsnr" v="397251" />
	</node>
	<node id="-738715" lat="63.0328416636" lon="10.3366916736">
		<tag k="name" v="Brannmyra" />
		<tag k="natural" v="wetland" />
		<tag k="ssr:stedsnr" v="883112" />
	</node>
	<node id="-737720" lat="62.9824361144" lon="10.5289194355">
		<tag k="name" v="Kamhogstret" />
		<tag k="place" v="locality" />
		<tag k="ssr:stedsnr" v="458633" />
	</node>
	<node id="-740759" lat="62.8368138884" lon="10.4274305495">
		<tag k="name" v="Røvedslættet" />
		<tag k="place" v="locality" />
		<tag k="ssr:stedsnr" v="397164" />
	</node>
	<node id="-738710" lat="62.971547218" lon="10.2432722285">
		<tag k="name" v="Smimyra" />
		<tag k="place" v="locality" />
		<tag k="ssr:stedsnr" v="883093" />
	</node>
	<node id="-740757" lat="62.9962555549" lon="10.2758444393">
		<tag k="name" v="Vassåsplassen" />
		<tag k="place" v="locality" />
		<tag k="ssr:stedsnr" v="397145" />
	</node>
	<node id="-738707" lat="62.9806555557" lon="10.3104750044">
		<tag k="name" v="Musdalslikkjølen" />
		<tag k="natural" v="wetland" />
		<tag k="ssr:stedsnr" v="883079" />
	</node>
	<node id="-738706" lat="62.984628252" lon="10.3059156924">
		<tag k="name" v="Toppskårgangen" />
		<tag k="place" v="locality" />
		<tag k="ssr:stedsnr" v="883066" />
	</node>
	<node id="-738699" lat="62.9586527739" lon="10.3199944475">
		<tag k="name" v="Synner Skardmyra" />
		<tag k="natural" v="wetland" />
		<tag k="ssr:stedsnr" v="883036" />
	</node>
	<node id="-738697" lat="62.9565638904" lon="10.2655472203">
		<tag k="name" v="Nørder Høstmyra" />
		<tag k="natural" v="wetland" />
		<tag k="ssr:stedsnr" v="883028" />
	</node>
	<node id="-740739" lat="62.948833335" lon="10.3316416673">
		<tag k="name" v="Auntjønnmyra" />
		<tag k="natural" v="wetland" />
		<tag k="ssr:stedsnr" v="397006" />
	</node>
	<node id="-741611" lat="62.8342916654" lon="10.4317833312">
		<tag k="name" v="Litlslættet" />
		<tag k="place" v="locality" />
		<tag k="ssr:stedsnr" v="761161" />
	</node>
	<node id="-738688" lat="62.9449055584" lon="10.3322277683">
		<tag k="name" v="Hage" />
		<tag k="place" v="locality" />
		<tag k="ssr:stedsnr" v="883002" />
	</node>
	<node id="-738675" lat="63.0734194447" lon="10.3216166713">
		<tag k="name" v="Slætta" />
		<tag k="natural" v="wetland" />
		<tag k="ssr:stedsnr" v="882858" />
	</node>
	<node id="-740712" lat="62.9099805562" lon="10.6092249908">
		<tag k="name" v="Forsetkjølen" />
		<tag k="natural" v="wetland" />
		<tag k="ssr:stedsnr" v="376633" />
	</node>
	<node id="-737510" lat="62.9804388852" lon="10.7205472243">
		<tag k="name" v="Storkjølen" />
		<tag k="natural" v="wetland" />
		<tag k="ssr:stedsnr" v="194426" />
	</node>
	<node id="-738649" lat="62.9125472233" lon="10.1558194496">
		<tag k="historic" v="shieling" />
		<tag k="name" v="Bortstuvollen" />
		<tag k="place" v="locality" />
		<tag k="ssr:stedsnr" v="882279" />
	</node>
	<node id="-737786" lat="62.8905916696" lon="10.1019499981">
		<tag k="name" v="Garlimoen" />
		<tag k="place" v="locality" />
		<tag k="ssr:stedsnr" v="275559" />
	</node>
	<node id="-738644" lat="62.916027778" lon="10.1036166648">
		<tag k="name" v="Råvvån" />
		<tag k="natural" v="wetland" />
		<tag k="ssr:stedsnr" v="639320" />
	</node>
	<node id="-738643" lat="62.9252055588" lon="10.1321333367">
		<tag k="name" v="Massmyra" />
		<tag k="natural" v="wetland" />
		<tag k="ssr:stedsnr" v="639318" />
	</node>
	<node id="-739555" lat="62.9393777736" lon="10.430125001">
		<tag k="name" v="Granslættkjølen" />
		<tag k="natural" v="wetland" />
		<tag k="ssr:stedsnr" v="33359" />
	</node>
	<node id="-738633" lat="62.9951777823" lon="10.2874250003">
		<tag k="alt_name" v="Langmyra" />
		<tag k="name" v="Postmyra" />
		<tag k="natural" v="wetland" />
		<tag k="ssr:stedsnr" v="619543" />
	</node>
	<node id="-740667" lat="62.8855861096" lon="10.3594027746">
		<tag k="name" v="Sundliløkkja" />
		<tag k="place" v="locality" />
		<tag k="ssr:stedsnr" v="336988" />
	</node>
	<node id="-740666" lat="62.8735694489" lon="10.3667888898">
		<tag k="name" v="Øverenget" />
		<tag k="place" v="locality" />
		<tag k="ssr:stedsnr" v="336984" />
	</node>
	<node id="-738616" lat="62.9820055561" lon="10.8752555467">
		<tag k="name" v="Rundmyra" />
		<tag k="natural" v="wetland" />
		<tag k="ssr:stedsnr" v="579905" />
	</node>
	<node id="-738614" lat="62.9689611091" lon="10.5920500036">
		<tag k="name" v="Glenna" />
		<tag k="place" v="locality" />
		<tag k="ssr:stedsnr" v="579745" />
	</node>
	<node id="-738613" lat="62.9744361144" lon="10.7007555511">
		<tag k="name" v="Jonsverkjet" />
		<tag k="place" v="locality" />
		<tag k="ssr:stedsnr" v="579739" />
	</node>
	<node id="-740659" lat="63.0195444425" lon="10.2387666714">
		<tag k="name" v="Kvilvangen" />
		<tag k="place" v="locality" />
		<tag k="ssr:stedsnr" v="336930" />
	</node>
	<node id="-738610" lat="62.9348888848" lon="10.6835611118">
		<tag k="name" v="Småmyran" />
		<tag k="natural" v="wetland" />
		<tag k="ssr:stedsnr" v="579728" />
	</node>
	<node id="-737843" lat="63.0048305558" lon="10.2554972166">
		<tag k="name" v="Bærmyra" />
		<tag k="natural" v="wetland" />
		<tag k="ssr:stedsnr" v="276305" />
	</node>
	<node id="-740656" lat="62.989311114" lon="10.9465138848">
		<tag k="name" v="Herdalsmyran" />
		<tag k="natural" v="wetland" />
		<tag k="ssr:stedsnr" v="336882" />
	</node>
	<node id="-738606" lat="62.949444445" lon="10.6688666685">
		<tag k="historic" v="shieling" />
		<tag k="name" v="Litlvollen" />
		<tag k="place" v="locality" />
		<tag k="ssr:stedsnr" v="579714" />
	</node>
	<node id="-738605" lat="62.9125638919" lon="10.6656750001">
		<tag k="name" v="Vollmyra" />
		<tag k="natural" v="wetland" />
		<tag k="ssr:stedsnr" v="579711" />
	</node>
	<node id="-738603" lat="63.0330694441" lon="10.1681972204">
		<tag k="historic" v="shieling" />
		<tag k="name" v="Gjerdavollen" />
		<tag k="place" v="locality" />
		<tag k="ssr:stedsnr" v="579698" />
	</node>
	<node id="-740650" lat="62.9791305594" lon="10.9283333244">
		<tag k="name" v="Stuggumyra" />
		<tag k="natural" v="wetland" />
		<tag k="ssr:stedsnr" v="336870" />
	</node>
	<node id="-740649" lat="62.8804555541" lon="10.1789999923">
		<tag k="historic" v="shieling" />
		<tag k="name" v="Lavplassvollen" />
		<tag k="place" v="locality" />
		<tag k="ssr:stedsnr" v="336862" />
	</node>
	<node id="-740645" lat="62.9734555573" lon="10.8540444409">
		<tag k="name" v="Sagmyran" />
		<tag k="natural" v="wetland" />
		<tag k="ssr:stedsnr" v="336839" />
	</node>
	<node id="-740644" lat="62.8543305514" lon="10.2087027764">
		<tag k="name" v="Negårdslættet" />
		<tag k="place" v="locality" />
		<tag k="ssr:stedsnr" v="336836" />
	</node>
	<node id="-740643" lat="62.9612861067" lon="10.9458750006">
		<tag k="name" v="Sandåfloan" />
		<tag k="natural" v="wetland" />
		<tag k="ssr:stedsnr" v="336829" />
	</node>
	<node id="-738593" lat="62.9987888879" lon="10.4743944522">
		<tag k="name" v="Hestflotten" />
		<tag k="place" v="locality" />
		<tag k="ssr:stedsnr" v="579663" />
	</node>
	<node id="-740640" lat="62.9656444422" lon="10.8065833318">
		<tag k="name" v="Djupmyra" />
		<tag k="natural" v="wetland" />
		<tag k="ssr:stedsnr" v="336807" />
	</node>
	<node id="-740638" lat="62.9696388907" lon="10.7633333416">
		<tag k="name" v="Hundsmyra" />
		<tag k="natural" v="wetland" />
		<tag k="ssr:stedsnr" v="336802" />
	</node>
	<node id="-738522" lat="63.012088888" lon="10.8512305493">
		<tag k="name" v="Hukkelslåtten" />
		<tag k="natural" v="wetland" />
		<tag k="ssr:stedsnr" v="700885" />
	</node>
	<node id="-740634" lat="62.8924749982" lon="10.7240361128">
		<tag k="name" v="Sandåkjølen" />
		<tag k="natural" v="wetland" />
		<tag k="ssr:stedsnr" v="336788" />
	</node>
	<node id="-738584" lat="63.0387861092" lon="10.4589694418">
		<tag k="name" v="Skarvslættet" />
		<tag k="natural" v="wetland" />
		<tag k="ssr:stedsnr" v="579316" />
	</node>
	<node id="-740631" lat="62.9055750023" lon="10.7775583373">
		<tag k="historic" v="shieling" />
		<tag k="name" v="Ramnåsvollen" />
		<tag k="place" v="locality" />
		<tag k="ssr:stedsnr" v="336779" />
	</node>
	<node id="-738582" lat="62.8138611113" lon="10.5827611197">
		<tag k="name" v="Langkloppmyra" />
		<tag k="natural" v="wetland" />
		<tag k="ssr:stedsnr" v="579302" />
	</node>
	<node id="-738579" lat="62.8297555518" lon="10.4951861198">
		<tag k="name" v="Småtjønnkjølen" />
		<tag k="natural" v="wetland" />
		<tag k="ssr:stedsnr" v="579271" />
	</node>
	<node id="-740625" lat="62.8598027775" lon="10.7875805611">
		<tag k="name" v="Storøyan" />
		<tag k="place" v="locality" />
		<tag k="ssr:stedsnr" v="336747" />
	</node>
	<node id="-740623" lat="63.0748333341" lon="10.3474805506">
		<tag k="name" v="Svarttjønnskogen" />
		<tag k="place" v="locality" />
		<tag k="ssr:stedsnr" v="336729" />
	</node>
	<node id="-738574" lat="63.0160944404" lon="10.33233055">
		<tag k="name" v="Kvennhusråa" />
		<tag k="place" v="locality" />
		<tag k="ssr:stedsnr" v="579113" />
	</node>
	<node id="-740621" lat="62.85769167" lon="10.215213896">
		<tag k="name" v="Høløenget" />
		<tag k="place" v="locality" />
		<tag k="ssr:stedsnr" v="336720" />
	</node>
	<node id="-740615" lat="62.9437444479" lon="10.6077638818">
		<tag k="name" v="Svea" />
		<tag k="place" v="locality" />
		<tag k="ssr:stedsnr" v="336671" />
	</node>
	<node id="-740608" lat="62.9588" lon="10.5105583335">
		<tag k="name" v="Tømmeråslimyra" />
		<tag k="natural" v="wetland" />
		<tag k="ssr:stedsnr" v="336531" />
	</node>
	<node id="-740604" lat="62.9468277805" lon="10.5838055553">
		<tag k="name" v="Litlkloppmyra" />
		<tag k="natural" v="wetland" />
		<tag k="ssr:stedsnr" v="336502" />
	</node>
	<node id="-740602" lat="62.9589194442" lon="10.5607527768">
		<tag k="name" v="Snørrumyra" />
		<tag k="natural" v="wetland" />
		<tag k="ssr:stedsnr" v="336496" />
	</node>
	<node id="-740601" lat="62.8316444414" lon="10.5399611068">
		<tag k="name" v="Egga" />
		<tag k="place" v="locality" />
		<tag k="ssr:stedsnr" v="336490" />
	</node>
	<node id="-740599" lat="62.8563388891" lon="10.4698722296">
		<tag k="landuse" v="meadow" />
		<tag k="name" v="Åsløenget" />
		<tag k="ssr:stedsnr" v="336459" />
	</node>
	<node id="-740596" lat="62.8769916645" lon="10.4789638855">
		<tag k="name" v="Kåsin" />
		<tag k="place" v="locality" />
		<tag k="ssr:stedsnr" v="336437" />
	</node>
	<node id="-740595" lat="62.8789611087" lon="10.4834666638">
		<tag k="name" v="Verkjesmyra" />
		<tag k="natural" v="wetland" />
		<tag k="ssr:stedsnr" v="336432" />
	</node>
	<node id="-739538" lat="62.8358916638" lon="10.5198888792">
		<tag k="name" v="Kalvhuskjølen" />
		<tag k="natural" v="wetland" />
		<tag k="ssr:stedsnr" v="33292" />
	</node>
	<node id="-740582" lat="62.9255666703" lon="10.6420027853">
		<tag k="name" v="Litlverkjesmyra" />
		<tag k="natural" v="wetland" />
		<tag k="ssr:stedsnr" v="336633" />
	</node>
	<node id="-738513" lat="62.9678027744" lon="10.8535499923">
		<tag k="name" v="Holin" />
		<tag k="place" v="locality" />
		<tag k="ssr:stedsnr" v="700843" />
	</node>
	<node id="-740577" lat="62.9888138856" lon="10.219930562">
		<tag k="name" v="Nyløkkja" />
		<tag k="place" v="locality" />
		<tag k="ssr:stedsnr" v="336249" />
	</node>
	<node id="-738528" lat="63.0254527799" lon="10.2998166601">
		<tag k="name" v="Mosløkkja" />
		<tag k="place" v="locality" />
		<tag k="ssr:stedsnr" v="700918" />
	</node>
	<node id="-740575" lat="62.9067500015" lon="10.3322749959">
		<tag k="name" v="Gjerdarimseten" />
		<tag k="place" v="locality" />
		<tag k="ssr:stedsnr" v="336233" />
	</node>
	<node id="-740573" lat="62.8781916672" lon="10.2885750075">
		<tag k="name" v="Kjølen" />
		<tag k="natural" v="wetland" />
		<tag k="ssr:stedsnr" v="336223" />
	</node>
	<node id="-740570" lat="62.7385499971" lon="10.6652749904">
		<tag k="landuse" v="meadow" />
		<tag k="name" v="Gammelbuslættet" />
		<tag k="ssr:stedsnr" v="336202" />
	</node>
	<node id="-738191" lat="62.8815500016" lon="10.700252782">
		<tag k="name" v="Oddmyra" />
		<tag k="natural" v="wetland" />
		<tag k="ssr:stedsnr" v="518613" />
	</node>
	<node id="-740567" lat="62.8635583373" lon="10.437030563">
		<tag k="name" v="Storslættet" />
		<tag k="place" v="locality" />
		<tag k="ssr:stedsnr" v="336154" />
	</node>
	<node id="-740565" lat="62.8161638918" lon="10.4507611208">
		<tag k="name" v="Blæstermyra" />
		<tag k="natural" v="wetland" />
		<tag k="ssr:stedsnr" v="336148" />
	</node>
	<node id="-740564" lat="62.8064277769" lon="10.4631499992">
		<tag k="name" v="Øverkjølan" />
		<tag k="natural" v="wetland" />
		<tag k="ssr:stedsnr" v="336144" />
	</node>
	<node id="-740563" lat="62.9900916677" lon="10.2776055654">
		<tag k="name" v="Pålsplassen" />
		<tag k="place" v="locality" />
		<tag k="ssr:stedsnr" v="336132" />
	</node>
	<node id="-740561" lat="62.9943027762" lon="10.2774333298">
		<tag k="name" v="Grøvin" />
		<tag k="place" v="locality" />
		<tag k="ssr:stedsnr" v="336126" />
	</node>
	<node id="-740557" lat="62.8763111111" lon="10.4305250083">
		<tag k="name" v="Lislåtten" />
		<tag k="place" v="locality" />
		<tag k="ssr:stedsnr" v="336372" />
	</node>
	<node id="-740555" lat="62.8934000014" lon="10.4366055583">
		<tag k="landuse" v="quarry" />
		<tag k="name" v="Svartdalsgruva" />
		<tag k="ssr:stedsnr" v="336358" />
	</node>
	<node id="-740554" lat="62.9370111101" lon="10.4241027831">
		<tag k="name" v="Granslættet" />
		<tag k="place" v="locality" />
		<tag k="ssr:stedsnr" v="336353" />
	</node>
	<node id="-740552" lat="62.9228999998" lon="10.4572388793">
		<tag k="name" v="Plassen" />
		<tag k="place" v="locality" />
		<tag k="ssr:stedsnr" v="336344" />
	</node>
	<node id="-738503" lat="62.9691083373" lon="10.7699305541">
		<tag k="name" v="Stormyra" />
		<tag k="natural" v="wetland" />
		<tag k="ssr:stedsnr" v="700807" />
	</node>
	<node id="-738502" lat="62.9596222217" lon="10.1415944351">
		<tag k="name" v="Skjærlitjlan" />
		<tag k="place" v="locality" />
		<tag k="ssr:stedsnr" v="700805" />
	</node>
	<node id="-738501" lat="63.0229638889" lon="10.3671916582">
		<tag k="name" v="Rødet" />
		<tag k="place" v="locality" />
		<tag k="ssr:stedsnr" v="700797" />
	</node>
	<node id="-740548" lat="62.9562111145" lon="10.4612722151">
		<tag k="name" v="Setermyra" />
		<tag k="natural" v="wetland" />
		<tag k="ssr:stedsnr" v="336334" />
	</node>
	<node id="-739626" lat="62.8170583363" lon="10.3341583389">
		<tag k="name" v="Åsenhusøya" />
		<tag k="place" v="locality" />
		<tag k="ssr:stedsnr" v="33759" />
	</node>
	<node id="-740545" lat="62.9687388845" lon="10.4213166683">
		<tag k="name" v="Skjeftslættryin" />
		<tag k="natural" v="wetland" />
		<tag k="ssr:stedsnr" v="336320" />
	</node>
	<node id="-740544" lat="63.027911107" lon="10.4020111072">
		<tag k="name" v="Øvergjerdet" />
		<tag k="place" v="locality" />
		<tag k="ssr:stedsnr" v="336319" />
	</node>
	<node id="-738848" lat="62.8271805539" lon="10.52092223">
		<tag k="name" v="Rennlemyra" />
		<tag k="natural" v="wetland" />
		<tag k="ssr:stedsnr" v="700521" />
	</node>
	<node id="-740542" lat="62.9106777733" lon="10.2164638874">
		<tag k="historic" v="shieling" />
		<tag k="name" v="Storhøløvollen" />
		<tag k="place" v="locality" />
		<tag k="ssr:stedsnr" v="336301" />
	</node>
	<node id="-738493" lat="62.9779027739" lon="10.7061444463">
		<tag k="name" v="Kringletmyra" />
		<tag k="natural" v="wetland" />
		<tag k="ssr:stedsnr" v="700740" />
	</node>
	<node id="-738489" lat="62.963252775" lon="10.6423861088">
		<tag k="name" v="Bjørnåsløkkja" />
		<tag k="place" v="locality" />
		<tag k="ssr:stedsnr" v="700727" />
	</node>
	<node id="-738483" lat="63.0255805564" lon="10.2096277815">
		<tag k="historic" v="shieling" />
		<tag k="name" v="Skrivarvollen" />
		<tag k="place" v="locality" />
		<tag k="ssr:stedsnr" v="700684" />
	</node>
	<node id="-738480" lat="62.9026972192" lon="10.6636861083">
		<tag k="name" v="Brunskogen" />
		<tag k="place" v="locality" />
		<tag k="ssr:stedsnr" v="700650" />
	</node>
	<node id="-739528" lat="62.8212361114" lon="10.4231194507">
		<tag k="name" v="Sørhallmyran" />
		<tag k="natural" v="wetland" />
		<tag k="ssr:stedsnr" v="33198" />
	</node>
	<node id="-740523" lat="62.9385416644" lon="10.2649166568">
		<tag k="name" v="Bredmyran" />
		<tag k="natural" v="wetland" />
		<tag k="ssr:stedsnr" v="316747" />
	</node>
	<node id="-738470" lat="62.8023166632" lon="10.6135972271">
		<tag k="name" v="Vollan" />
		<tag k="place" v="locality" />
		<tag k="ssr:stedsnr" v="700633" />
	</node>
	<node id="-738468" lat="62.9400222266" lon="10.1609694495">
		<tag k="name" v="Øverløkkjon" />
		<tag k="place" v="locality" />
		<tag k="ssr:stedsnr" v="700599" />
	</node>
	<node id="-738465" lat="62.9851555553" lon="10.2068611135">
		<tag k="name" v="Ulvhuset" />
		<tag k="place" v="locality" />
		<tag k="ssr:stedsnr" v="700587" />
	</node>
	<node id="-738463" lat="62.915894446" lon="10.481966674">
		<tag k="name" v="Bergmyra" />
		<tag k="natural" v="wetland" />
		<tag k="ssr:stedsnr" v="700431" />
	</node>
	<node id="-738461" lat="62.9379277743" lon="10.5405472178">
		<tag k="name" v="Nøkksjøslættet" />
		<tag k="place" v="locality" />
		<tag k="ssr:stedsnr" v="700401" />
	</node>
	<node id="-738460" lat="62.9887472238" lon="10.1836055535">
		<tag k="name" v="Brotthaugmyra" />
		<tag k="natural" v="wetland" />
		<tag k="ssr:stedsnr" v="700395" />
	</node>
	<node id="-738842" lat="62.9289166626" lon="10.4532472297">
		<tag k="name" v="Husmyran" />
		<tag k="natural" v="wetland" />
		<tag k="ssr:stedsnr" v="700357" />
	</node>
	<node id="-738448" lat="62.9181305585" lon="10.4265777823">
		<tag k="historic" v="shieling" />
		<tag k="name" v="Setervoll" />
		<tag k="place" v="locality" />
		<tag k="ssr:stedsnr" v="700351" />
	</node>
	<node id="-738445" lat="62.9205916683" lon="10.4160694503">
		<tag k="name" v="Øverløkkja" />
		<tag k="natural" v="wetland" />
		<tag k="ssr:stedsnr" v="700346" />
	</node>
	<node id="-741570" lat="63.0150277785" lon="10.2876361142">
		<tag k="name" v="Tjønnmyra" />
		<tag k="natural" v="wetland" />
		<tag k="ssr:stedsnr" v="761128" />
	</node>
	<node id="-738440" lat="62.9940611105" lon="10.1673805521">
		<tag k="name" v="Langmyra" />
		<tag k="natural" v="wetland" />
		<tag k="ssr:stedsnr" v="700328" />
	</node>
	<node id="-738438" lat="63.0271305595" lon="10.424666662">
		<tag k="name" v="Gammelløkkja" />
		<tag k="place" v="locality" />
		<tag k="ssr:stedsnr" v="700317" />
	</node>
	<node id="-738433" lat="62.859572225" lon="10.4630805594">
		<tag k="name" v="Gammelbjørnvoll" />
		<tag k="place" v="locality" />
		<tag k="ssr:stedsnr" v="700379" />
	</node>
	<node id="-738496" lat="62.9984138891" lon="10.352747217">
		<tag k="name" v="Hogstret" />
		<tag k="place" v="locality" />
		<tag k="ssr:stedsnr" v="700777" />
	</node>
	<node id="-738429" lat="62.8760694479" lon="10.2827194462">
		<tag k="name" v="Vivollan" />
		<tag k="place" v="locality" />
		<tag k="ssr:stedsnr" v="700244" />
	</node>
	<node id="-740473" lat="62.9065500022" lon="10.1886361023">
		<tag k="name" v="Storkjølen" />
		<tag k="natural" v="wetland" />
		<tag k="ssr:stedsnr" v="215886" />
	</node>
	<node id="-738424" lat="62.8178611108" lon="10.4441277747">
		<tag k="name" v="Kvernhusmyran" />
		<tag k="natural" v="wetland" />
		<tag k="ssr:stedsnr" v="700194" />
	</node>
	<node id="-740471" lat="62.8728361119" lon="10.1605055494">
		<tag k="historic" v="shieling" />
		<tag k="name" v="Gammelvollen" />
		<tag k="place" v="locality" />
		<tag k="ssr:stedsnr" v="215883" />
	</node>
	<node id="-738422" lat="62.9611055587" lon="10.3111833302">
		<tag k="name" v="Skardløkkja" />
		<tag k="place" v="locality" />
		<tag k="ssr:stedsnr" v="700051" />
	</node>
	<node id="-740469" lat="62.8345861095" lon="10.203272214">
		<tag k="name" v="Teigaøya" />
		<tag k="place" v="locality" />
		<tag k="ssr:stedsnr" v="215879" />
	</node>
	<node id="-738494" lat="62.8440000039" lon="10.4273111057">
		<tag k="name" v="Gaddslættet" />
		<tag k="place" v="locality" />
		<tag k="ssr:stedsnr" v="700741" />
	</node>
	<node id="-740466" lat="62.9719722205" lon="10.109561113">
		<tag k="name" v="Stakkenget" />
		<tag k="place" v="locality" />
		<tag k="ssr:stedsnr" v="215867" />
	</node>
	<node id="-740465" lat="62.9552944417" lon="10.1038611084">
		<tag k="name" v="Krokan" />
		<tag k="place" v="locality" />
		<tag k="ssr:stedsnr" v="215865" />
	</node>
	<node id="-740464" lat="62.9674972244" lon="10.0900777803">
		<tag k="name" v="Brekkslættet" />
		<tag k="place" v="locality" />
		<tag k="ssr:stedsnr" v="215864" />
	</node>
	<node id="-738413" lat="62.9249777799" lon="10.1517249917">
		<tag k="name" v="Saghaugen" />
		<tag k="place" v="locality" />
		<tag k="ssr:stedsnr" v="700302" />
	</node>
	<node id="-740460" lat="62.9619388932" lon="10.1381805654">
		<tag k="name" v="Klevløkkja" />
		<tag k="place" v="locality" />
		<tag k="ssr:stedsnr" v="215850" />
	</node>
	<node id="-738151" lat="62.9158777777" lon="10.0943055469">
		<tag k="name" v="Lekmyran" />
		<tag k="natural" v="wetland" />
		<tag k="ssr:stedsnr" v="518329" />
	</node>
	<node id="-738407" lat="62.9922055585" lon="10.288991671">
		<tag k="name" v="Kuvollmyra" />
		<tag k="natural" v="wetland" />
		<tag k="ssr:stedsnr" v="700142" />
	</node>
	<node id="-740453" lat="63.022491668" lon="10.3558722253">
		<tag k="landuse" v="meadow" />
		<tag k="name" v="Dalaplassen" />
		<tag k="ssr:stedsnr" v="215834" />
	</node>
	<node id="-740451" lat="62.8954749971" lon="10.3669472147">
		<tag k="name" v="Høyvollen" />
		<tag k="place" v="locality" />
		<tag k="ssr:stedsnr" v="215999" />
	</node>
	<node id="-740449" lat="62.8729888892" lon="10.3814527862">
		<tag k="name" v="Vollsløkkja" />
		<tag k="place" v="locality" />
		<tag k="ssr:stedsnr" v="215994" />
	</node>
	<node id="-738832" lat="63.0014138893" lon="10.8353972201">
		<tag k="name" v="Langkjølen" />
		<tag k="natural" v="wetland" />
		<tag k="ssr:stedsnr" v="700213" />
	</node>
	<node id="-740442" lat="62.9347666639" lon="10.3516555556">
		<tag k="name" v="Pershaugmyra" />
		<tag k="natural" v="wetland" />
		<tag k="ssr:stedsnr" v="215965" />
	</node>
	<node id="-737807" lat="62.9244638926" lon="10.2302388891">
		<tag k="name" v="Oppi" />
		<tag k="place" v="locality" />
		<tag k="ssr:stedsnr" v="276018" />
	</node>
	<node id="-738391" lat="62.9805777813" lon="10.5161111031">
		<tag k="historic" v="shieling" />
		<tag k="name" v="Storvollen" />
		<tag k="place" v="locality" />
		<tag k="ssr:stedsnr" v="518532" />
	</node>
	<node id="-738390" lat="62.9937583364" lon="10.4717250041">
		<tag k="name" v="Bonesøyan" />
		<tag k="place" v="locality" />
		<tag k="ssr:stedsnr" v="518524" />
	</node>
	<node id="-738389" lat="62.9698527745" lon="10.5263861085">
		<tag k="name" v="Liakjølen" />
		<tag k="natural" v="wetland" />
		<tag k="ssr:stedsnr" v="518523" />
	</node>
	<node id="-740436" lat="63.0281388867" lon="10.2339944377">
		<tag k="name" v="Nyløkkja" />
		<tag k="place" v="locality" />
		<tag k="ssr:stedsnr" v="215952" />
	</node>
	<node id="-740433" lat="62.8555083307" lon="10.2327750082">
		<tag k="name" v="Ivelikjølen" />
		<tag k="natural" v="wetland" />
		<tag k="ssr:stedsnr" v="215801" />
	</node>
	<node id="-738382" lat="62.9516555531" lon="10.5582000083">
		<tag k="name" v="Gammeltorvmyra" />
		<tag k="natural" v="wetland" />
		<tag k="ssr:stedsnr" v="518504" />
	</node>
	<node id="-738375" lat="62.8752476274" lon="10.5312875984">
		<tag k="historic" v="shieling" />
		<tag k="name" v="Bjørklivollen" />
		<tag k="place" v="locality" />
		<tag k="ssr:stedsnr" v="498710" />
	</node>
	<node id="-740419" lat="63.0371944405" lon="10.1867277763">
		<tag k="historic" v="shieling" />
		<tag k="name" v="Liøyvollen" />
		<tag k="place" v="locality" />
		<tag k="ssr:stedsnr" v="215731" />
	</node>
	<node id="-739851" lat="62.9605527758" lon="10.4383722144">
		<tag k="name" v="Bjørklikvølva" />
		<tag k="place" v="locality" />
		<tag k="ssr:stedsnr" v="94388" />
	</node>
	<node id="-739382" lat="63.0071305562" lon="10.4702750038">
		<tag k="name" v="Andersløkkja" />
		<tag k="place" v="locality" />
		<tag k="ssr:stedsnr" v="883665" />
	</node>
	<node id="-739168" lat="62.8475333346" lon="10.4299388822">
		<tag k="name" v="Høyløenget" />
		<tag k="place" v="locality" />
		<tag k="ssr:stedsnr" v="943159" />
	</node>
	<node id="-737461" lat="62.8133222183" lon="10.3506722239">
		<tag k="historic" v="shieling" />
		<tag k="name" v="Gammel Sundliseter" />
		<tag k="place" v="locality" />
		<tag k="ssr:stedsnr" v="276777" />
	</node>
	<node id="-740411" lat="62.9759777789" lon="10.5229749923">
		<tag k="name" v="Dammyra" />
		<tag k="natural" v="wetland" />
		<tag k="ssr:stedsnr" v="215591" />
	</node>
	<node id="-740408" lat="62.984205559" lon="10.4776638837">
		<tag k="name" v="Markkjellan" />
		<tag k="place" v="locality" />
		<tag k="ssr:stedsnr" v="215584" />
	</node>
	<node id="-740407" lat="62.961250002" lon="10.5543666582">
		<tag k="historic" v="shieling" />
		<tag k="name" v="Litlvollen" />
		<tag k="place" v="locality" />
		<tag k="ssr:stedsnr" v="215583" />
	</node>
	<node id="-740401" lat="62.9916749993" lon="10.3438305624">
		<tag k="landuse" v="quarry" />
		<tag k="name" v="Rogstadgruva" />
		<tag k="ssr:stedsnr" v="215815" />
	</node>
	<node id="-739848" lat="62.9989083363" lon="10.2590638984">
		<tag k="name" v="Røstmyra" />
		<tag k="natural" v="wetland" />
		<tag k="ssr:stedsnr" v="94375" />
	</node>
	<node id="-740398" lat="62.9304555582" lon="10.6791833389">
		<tag k="name" v="Småmyran" />
		<tag k="natural" v="wetland" />
		<tag k="ssr:stedsnr" v="215701" />
	</node>
	<node id="-740396" lat="62.9247027807" lon="10.0646138851">
		<tag k="name" v="Storstakkstoenget" />
		<tag k="natural" v="wetland" />
		<tag k="ssr:stedsnr" v="215691" />
	</node>
	<node id="-740393" lat="62.8732638857" lon="10.6962194484">
		<tag k="name" v="Slættmyran" />
		<tag k="natural" v="wetland" />
		<tag k="ssr:stedsnr" v="215678" />
	</node>
	<node id="-738140" lat="63.0236555561" lon="10.4165527795">
		<tag k="landuse" v="meadow" />
		<tag k="name" v="Høløenget" />
		<tag k="ssr:stedsnr" v="518288" />
	</node>
	<node id="-738336" lat="62.8824027786" lon="10.7911555567">
		<tag k="name" v="Fjellslettfloen" />
		<tag k="natural" v="wetland" />
		<tag k="ssr:stedsnr" v="497108" />
	</node>
	<node id="-740383" lat="62.9989888909" lon="10.4804500056">
		<tag k="name" v="Strypflotten" />
		<tag k="place" v="locality" />
		<tag k="ssr:stedsnr" v="215650" />
	</node>
	<node id="-740381" lat="62.8950527749" lon="10.4997944384">
		<tag k="name" v="Malmkåsa" />
		<tag k="place" v="locality" />
		<tag k="ssr:stedsnr" v="215491" />
	</node>
	<node id="-740380" lat="62.8988972263" lon="10.4964638963">
		<tag k="name" v="Nyrønningen" />
		<tag k="place" v="locality" />
		<tag k="ssr:stedsnr" v="215484" />
	</node>
	<node id="-739162" lat="63.040494444" lon="10.3316555629">
		<tag k="name" v="Homyra" />
		<tag k="natural" v="wetland" />
		<tag k="ssr:stedsnr" v="943112" />
	</node>
	<node id="-740378" lat="62.9542805542" lon="10.5563055615">
		<tag k="historic" v="shieling" />
		<tag k="name" v="Hervollen" />
		<tag k="place" v="locality" />
		<tag k="ssr:stedsnr" v="215575" />
	</node>
	<node id="-740375" lat="62.967827777" lon="10.5443527723">
		<tag k="name" v="Korsvollmyra" />
		<tag k="natural" v="wetland" />
		<tag k="ssr:stedsnr" v="215569" />
	</node>
	<node id="-738137" lat="62.9262388906" lon="10.1363055627">
		<tag k="name" v="Litlløkkja" />
		<tag k="place" v="locality" />
		<tag k="ssr:stedsnr" v="518282" />
	</node>
	<node id="-740372" lat="62.8525138927" lon="10.4870638984">
		<tag k="name" v="Froskholmyra" />
		<tag k="natural" v="wetland" />
		<tag k="ssr:stedsnr" v="215553" />
	</node>
	<node id="-740371" lat="62.8498972182" lon="10.5163611071">
		<tag k="name" v="Litlkjølen" />
		<tag k="natural" v="wetland" />
		<tag k="ssr:stedsnr" v="215543" />
	</node>
	<node id="-740370" lat="62.9074444451" lon="10.1258888895">
		<tag k="name" v="Øyan" />
		<tag k="place" v="locality" />
		<tag k="ssr:stedsnr" v="215400" />
	</node>
	<node id="-740367" lat="62.8890361082" lon="10.2187333372">
		<tag k="name" v="Flåttåhølen" />
		<tag k="place" v="locality" />
		<tag k="ssr:stedsnr" v="215391" />
	</node>
	<node id="-740363" lat="62.969716667" lon="10.4320472292">
		<tag k="name" v="Kvølva" />
		<tag k="natural" v="wetland" />
		<tag k="ssr:stedsnr" v="215363" />
	</node>
	<node id="-740360" lat="62.9771194463" lon="10.2656722178">
		<tag k="name" v="Grånslættmyra" />
		<tag k="natural" v="wetland" />
		<tag k="ssr:stedsnr" v="215343" />
	</node>
	<node id="-738525" lat="63.0453499981" lon="10.2749916643">
		<tag k="name" v="Bussugrava" />
		<tag k="place" v="locality" />
		<tag k="ssr:stedsnr" v="700895" />
	</node>
	<node id="-740358" lat="62.9160611096" lon="10.4919333273">
		<tag k="name" v="Storslættet" />
		<tag k="natural" v="wetland" />
		<tag k="ssr:stedsnr" v="215466" />
	</node>
	<node id="-740357" lat="62.9492499956" lon="10.4699138881">
		<tag k="name" v="Kalvhåggån" />
		<tag k="place" v="locality" />
		<tag k="ssr:stedsnr" v="215458" />
	</node>
	<node id="-740355" lat="62.9438111096" lon="10.5549611107">
		<tag k="name" v="Grytlikjølen" />
		<tag k="natural" v="wetland" />
		<tag k="ssr:stedsnr" v="215436" />
	</node>
	<node id="-740354" lat="62.9284944482" lon="10.1240750046">
		<tag k="name" v="Killingkjølen" />
		<tag k="natural" v="wetland" />
		<tag k="ssr:stedsnr" v="215432" />
	</node>
	<node id="-740353" lat="62.8322361124" lon="10.5003638878">
		<tag k="name" v="Vass-slættet" />
		<tag k="natural" v="wetland" />
		<tag k="ssr:stedsnr" v="215300" />
	</node>
	<node id="-740351" lat="62.8490527778" lon="10.3255749937">
		<tag k="name" v="Skarpløkkja" />
		<tag k="place" v="locality" />
		<tag k="ssr:stedsnr" v="215282" />
	</node>
	<node id="-740348" lat="62.8705388922" lon="10.3153972263">
		<tag k="name" v="Hanshusveltet" />
		<tag k="place" v="locality" />
		<tag k="ssr:stedsnr" v="215249" />
	</node>
	<node id="-740347" lat="62.7738777738" lon="10.6380777852">
		<tag k="name" v="Rognesmyran" />
		<tag k="natural" v="wetland" />
		<tag k="ssr:stedsnr" v="215247" />
	</node>
	<node id="-739839" lat="62.8952611154" lon="10.2269888884">
		<tag k="name" v="Børsethåggån" />
		<tag k="place" v="locality" />
		<tag k="ssr:stedsnr" v="94327" />
	</node>
	<node id="-740340" lat="62.8406333354" lon="10.5131583413">
		<tag k="name" v="Gammelløa" />
		<tag k="place" v="locality" />
		<tag k="ssr:stedsnr" v="215316" />
	</node>
	<node id="-740339" lat="62.8400083346" lon="10.5106361056">
		<tag k="name" v="Kårskurrukåsa" />
		<tag k="natural" v="wetland" />
		<tag k="ssr:stedsnr" v="215315" />
	</node>
	<node id="-740334" lat="62.8473638883" lon="10.4234250011">
		<tag k="name" v="Sjurslættet" />
		<tag k="place" v="locality" />
		<tag k="ssr:stedsnr" v="215170" />
	</node>
	<node id="-740333" lat="62.8507944477" lon="10.4328388842">
		<tag k="name" v="Bekkslættet" />
		<tag k="place" v="locality" />
		<tag k="ssr:stedsnr" v="215165" />
	</node>
	<node id="-738282" lat="62.8584249974" lon="10.3619472244">
		<tag k="name" v="Presthusøya" />
		<tag k="place" v="locality" />
		<tag k="ssr:stedsnr" v="518971" />
	</node>
	<node id="-740329" lat="62.9605722217" lon="10.2393194446">
		<tag k="name" v="Gammelløkkja" />
		<tag k="place" v="locality" />
		<tag k="ssr:stedsnr" v="215095" />
	</node>
	<node id="-737788" lat="62.9424250012" lon="10.1817611046">
		<tag k="name" v="Valan" />
		<tag k="place" v="locality" />
		<tag k="ssr:stedsnr" v="275567" />
	</node>
	<node id="-740325" lat="62.9694388872" lon="10.2335305587">
		<tag k="name" v="Plassen" />
		<tag k="place" v="locality" />
		<tag k="ssr:stedsnr" v="215081" />
	</node>
	<node id="-740324" lat="62.9845222255" lon="10.2970333393">
		<tag k="name" v="Hansenget" />
		<tag k="place" v="locality" />
		<tag k="ssr:stedsnr" v="215072" />
	</node>
	<node id="-738275" lat="62.9472111073" lon="10.3467611029">
		<tag k="name" v="Vermløkkja" />
		<tag k="place" v="locality" />
		<tag k="ssr:stedsnr" v="518958" />
	</node>
	<node id="-738270" lat="62.9468111117" lon="10.396447218">
		<tag k="name" v="Prestslættet" />
		<tag k="place" v="locality" />
		<tag k="ssr:stedsnr" v="518945" />
	</node>
	<node id="-738268" lat="62.9227305591" lon="10.3901972153">
		<tag k="name" v="Kringlemyra" />
		<tag k="natural" v="wetland" />
		<tag k="ssr:stedsnr" v="518940" />
	</node>
	<node id="-739834" lat="62.8642638929" lon="10.28031111">
		<tag k="name" v="Langkjølen" />
		<tag k="natural" v="wetland" />
		<tag k="ssr:stedsnr" v="94273" />
	</node>
	<node id="-739151" lat="62.9243138923" lon="10.3087277858">
		<tag k="name" v="Neverbuløkkja" />
		<tag k="place" v="locality" />
		<tag k="ssr:stedsnr" v="943041" />
	</node>
	<node id="-738258" lat="62.9925805515" lon="10.8823972163">
		<tag k="name" v="Langmyra" />
		<tag k="natural" v="wetland" />
		<tag k="ssr:stedsnr" v="518895" />
	</node>
	<node id="-740305" lat="63.0121166648" lon="10.2632611105">
		<tag k="alt_name" v="Haukadalsmyra" />
		<tag k="name" v="Haukdalsmyra" />
		<tag k="natural" v="wetland" />
		<tag k="ssr:stedsnr" v="195975" />
	</node>
	<node id="-737396" lat="62.9325527816" lon="10.3352250011">
		<tag k="name" v="Flaknløenget" />
		<tag k="place" v="locality" />
		<tag k="ssr:stedsnr" v="276040" />
	</node>
	<node id="-738251" lat="63.0083722234" lon="10.8489083243">
		<tag k="name" v="N. Holtvollkjølen" />
		<tag k="natural" v="wetland" />
		<tag k="ssr:stedsnr" v="518868" />
	</node>
	<node id="-738244" lat="62.8390083365" lon="10.2082888976">
		<tag k="name" v="Langrumpa" />
		<tag k="place" v="locality" />
		<tag k="ssr:stedsnr" v="518839" />
	</node>
	<node id="-738243" lat="62.8627750035" lon="10.1891944436">
		<tag k="name" v="Ormslættet" />
		<tag k="place" v="locality" />
		<tag k="ssr:stedsnr" v="518835" />
	</node>
	<node id="-738242" lat="62.9711361084" lon="10.8792750013">
		<tag k="name" v="Reitkjølen" />
		<tag k="natural" v="wetland" />
		<tag k="ssr:stedsnr" v="518833" />
	</node>
	<node id="-738241" lat="62.8275722221" lon="10.1671499906">
		<tag k="name" v="Skoftkjølan" />
		<tag k="natural" v="wetland" />
		<tag k="ssr:stedsnr" v="518832" />
	</node>
	<node id="-738240" lat="62.9356888929" lon="10.0704166725">
		<tag k="name" v="Bløtkjølen" />
		<tag k="natural" v="wetland" />
		<tag k="ssr:stedsnr" v="518821" />
	</node>
	<node id="-738239" lat="62.9732361127" lon="10.8087944509">
		<tag k="name" v="Litlslættet" />
		<tag k="natural" v="wetland" />
		<tag k="ssr:stedsnr" v="518808" />
	</node>
	<node id="-738238" lat="62.9632444424" lon="10.1461249998">
		<tag k="name" v="Lilt-løkkja" />
		<tag k="place" v="locality" />
		<tag k="ssr:stedsnr" v="518806" />
	</node>
	<node id="-739750" lat="63.010325002" lon="10.2849249927">
		<tag k="historic" v="shieling" />
		<tag k="name" v="Gammelvollen" />
		<tag k="place" v="locality" />
		<tag k="ssr:stedsnr" v="93089" />
	</node>
	<node id="-738234" lat="62.9184805519" lon="10.7279583421">
		<tag k="name" v="Øyahogstret" />
		<tag k="place" v="locality" />
		<tag k="ssr:stedsnr" v="518779" />
	</node>
	<node id="-738233" lat="62.9173416652" lon="10.7221694416">
		<tag k="name" v="Fjesethogstret" />
		<tag k="place" v="locality" />
		<tag k="ssr:stedsnr" v="518778" />
	</node>
	<node id="-737780" lat="63.0069666683" lon="10.0286944369">
		<tag k="name" v="Stormyra" />
		<tag k="natural" v="wetland" />
		<tag k="ssr:stedsnr" v="458848" />
	</node>
	<node id="-738113" lat="62.9895055551" lon="10.2945166757">
		<tag k="name" v="Hammermyra" />
		<tag k="natural" v="wetland" />
		<tag k="ssr:stedsnr" v="518072" />
	</node>
	<node id="-738221" lat="62.9911499993" lon="10.5985166759">
		<tag k="name" v="Malmhogstret" />
		<tag k="place" v="locality" />
		<tag k="ssr:stedsnr" v="518723" />
	</node>
	<node id="-737777" lat="62.9587777797" lon="10.127730563">
		<tag k="name" v="Bogen" />
		<tag k="place" v="locality" />
		<tag k="ssr:stedsnr" v="458837" />
	</node>
	<node id="-738212" lat="62.9445722204" lon="10.592916676">
		<tag k="name" v="Hogstret" />
		<tag k="place" v="locality" />
		<tag k="ssr:stedsnr" v="518674" />
	</node>
	<node id="-738211" lat="62.9528527735" lon="10.7143472281">
		<tag k="landuse" v="meadow" />
		<tag k="name" v="Isakløenget" />
		<tag k="ssr:stedsnr" v="518668" />
	</node>
	<node id="-738210" lat="62.9211944439" lon="10.6995722242">
		<tag k="name" v="Stormyra" />
		<tag k="natural" v="wetland" />
		<tag k="ssr:stedsnr" v="518662" />
	</node>
	<node id="-738459" lat="62.873972225" lon="10.4193749913">
		<tag k="name" v="Enlihaugbua" />
		<tag k="place" v="locality" />
		<tag k="ssr:stedsnr" v="700383" />
	</node>
	<node id="-738207" lat="62.9539527773" lon="10.6650444451">
		<tag k="name" v="Verkjesmyran" />
		<tag k="natural" v="wetland" />
		<tag k="ssr:stedsnr" v="518655" />
	</node>
	<node id="-738206" lat="62.912941663" lon="10.7111416664">
		<tag k="historic" v="shieling" />
		<tag k="name" v="Hermovollen" />
		<tag k="place" v="locality" />
		<tag k="ssr:stedsnr" v="518654" />
	</node>
	<node id="-739141" lat="62.9265722266" lon="10.7358361091">
		<tag k="landuse" v="peat_cutting" />
		<tag k="name" v="Torvtaket" />
		<tag k="ssr:stedsnr" v="822810" />
	</node>
	<node id="-738201" lat="62.924044442" lon="10.6827416653">
		<tag k="name" v="Hogstret" />
		<tag k="place" v="locality" />
		<tag k="ssr:stedsnr" v="518647" />
	</node>
	<node id="-739140" lat="62.9238444411" lon="10.7191861172">
		<tag k="name" v="Gjartrudmyra" />
		<tag k="natural" v="wetland" />
		<tag k="ssr:stedsnr" v="822808" />
	</node>
	<node id="-738197" lat="62.9155611115" lon="10.6095666728">
		<tag k="landuse" v="meadow" />
		<tag k="name" v="Bråtta" />
		<tag k="ssr:stedsnr" v="518635" />
	</node>
	<node id="-738194" lat="62.9169333329" lon="10.0566888822">
		<tag k="name" v="Skjennstøa" />
		<tag k="place" v="locality" />
		<tag k="ssr:stedsnr" v="518620" />
	</node>
	<node id="-738193" lat="62.9087638859" lon="10.5101305605">
		<tag k="name" v="Synner Buslættet" />
		<tag k="natural" v="wetland" />
		<tag k="ssr:stedsnr" v="518615" />
	</node>
	<node id="-740239" lat="63.0576916664" lon="10.8889833368">
		<tag k="name" v="Flomyran" />
		<tag k="natural" v="wetland" />
		<tag k="ssr:stedsnr" v="194174" />
	</node>
	<node id="-738189" lat="62.8076444434" lon="10.6023027821">
		<tag k="name" v="Vollafloan" />
		<tag k="place" v="locality" />
		<tag k="ssr:stedsnr" v="518608" />
	</node>
	<node id="-738187" lat="63.0304305533" lon="10.4992194529">
		<tag k="name" v="Raumyra" />
		<tag k="natural" v="wetland" />
		<tag k="ssr:stedsnr" v="518599" />
	</node>
	<node id="-740229" lat="62.9112833289" lon="10.3839666694">
		<tag k="historic" v="shieling" />
		<tag k="name" v="Jensvollen" />
		<tag k="place" v="locality" />
		<tag k="ssr:stedsnr" v="154994" />
	</node>
	<node id="-738180" lat="62.9199305592" lon="10.1043027708">
		<tag k="name" v="Buslættkjølen" />
		<tag k="natural" v="wetland" />
		<tag k="ssr:stedsnr" v="518580" />
	</node>
	<node id="-738179" lat="62.9210972235" lon="10.1013666656">
		<tag k="name" v="Bløtslættet" />
		<tag k="natural" v="wetland" />
		<tag k="ssr:stedsnr" v="518569" />
	</node>
	<node id="-740225" lat="62.8867027768" lon="10.3680805588">
		<tag k="name" v="Støverløkkja" />
		<tag k="place" v="locality" />
		<tag k="ssr:stedsnr" v="154980" />
	</node>
	<node id="-739136" lat="62.9341361133" lon="10.3641027863">
		<tag k="landuse" v="meadow" />
		<tag k="name" v="Randiekra" />
		<tag k="ssr:stedsnr" v="822966" />
	</node>
	<node id="-738173" lat="62.9337527812" lon="10.5795416664">
		<tag k="name" v="Verkjesmyran" />
		<tag k="natural" v="wetland" />
		<tag k="ssr:stedsnr" v="518501" />
	</node>
	<node id="-738172" lat="62.8669055535" lon="10.4800361094">
		<tag k="name" v="Storkjølen" />
		<tag k="natural" v="wetland" />
		<tag k="ssr:stedsnr" v="518487" />
	</node>
	<node id="-738170" lat="62.8591055561" lon="10.508105565">
		<tag k="name" v="Engesmoen" />
		<tag k="place" v="locality" />
		<tag k="ssr:stedsnr" v="518462" />
	</node>
	<node id="-738168" lat="62.8740361083" lon="10.4942805633">
		<tag k="name" v="Buløkkja" />
		<tag k="place" v="locality" />
		<tag k="ssr:stedsnr" v="518447" />
	</node>
	<node id="-740215" lat="63.0395527781" lon="10.260463897">
		<tag k="name" v="Nordlivollen" />
		<tag k="place" v="locality" />
		<tag k="ssr:stedsnr" v="154948" />
	</node>
	<node id="-738166" lat="62.8894138887" lon="10.5516805596">
		<tag k="name" v="Stormoltholet" />
		<tag k="natural" v="wetland" />
		<tag k="ssr:stedsnr" v="518434" />
	</node>
	<node id="-740212" lat="63.0017249956" lon="10.8492416715">
		<tag k="name" v="Holtvollkjølen" />
		<tag k="natural" v="wetland" />
		<tag k="ssr:stedsnr" v="154942" />
	</node>
	<node id="-738163" lat="62.9178749963" lon="10.478411104">
		<tag k="name" v="Litlåsmyra" />
		<tag k="natural" v="wetland" />
		<tag k="ssr:stedsnr" v="518414" />
	</node>
	<node id="-740210" lat="63.0011555593" lon="10.8799611118">
		<tag k="name" v="Risslåtten" />
		<tag k="natural" v="wetland" />
		<tag k="ssr:stedsnr" v="154938" />
	</node>
	<node id="-738156" lat="62.8853777799" lon="10.2371944436">
		<tag k="name" v="Holtløkkja" />
		<tag k="place" v="locality" />
		<tag k="ssr:stedsnr" v="518353" />
	</node>
	<node id="-740203" lat="63.0472500042" lon="10.2749611117">
		<tag k="name" v="Klokkarmyra" />
		<tag k="place" v="locality" />
		<tag k="ssr:stedsnr" v="154903" />
	</node>
	<node id="-740202" lat="62.9926416622" lon="10.945444453">
		<tag k="historic" v="shieling" />
		<tag k="name" v="Dragåsvollen" />
		<tag k="place" v="locality" />
		<tag k="ssr:stedsnr" v="154899" />
	</node>
	<node id="-740199" lat="62.8850277783" lon="10.208058331">
		<tag k="name" v="Litlbekktangen" />
		<tag k="place" v="locality" />
		<tag k="ssr:stedsnr" v="154882" />
	</node>
	<node id="-740197" lat="62.8380138892" lon="10.2016138805">
		<tag k="name" v="Mosvollan" />
		<tag k="place" v="locality" />
		<tag k="ssr:stedsnr" v="154871" />
	</node>
	<node id="-738148" lat="63.0095055596" lon="10.4538805481">
		<tag k="name" v="Kalvhåggån" />
		<tag k="place" v="locality" />
		<tag k="ssr:stedsnr" v="518317" />
	</node>
	<node id="-738147" lat="62.908858337" lon="10.2348888837">
		<tag k="name" v="Løkkjmyran" />
		<tag k="natural" v="wetland" />
		<tag k="ssr:stedsnr" v="518314" />
	</node>
	<node id="-740194" lat="62.845497225" lon="10.1887472225">
		<tag k="name" v="Grubbslættet" />
		<tag k="place" v="locality" />
		<tag k="ssr:stedsnr" v="154860" />
	</node>
	<node id="-740193" lat="62.9409694443" lon="10.0536249918">
		<tag k="historic" v="shieling" />
		<tag k="name" v="Litlvollen" />
		<tag k="place" v="locality" />
		<tag k="ssr:stedsnr" v="154858" />
	</node>
	<node id="-738144" lat="62.9997083368" lon="10.4348555496">
		<tag k="name" v="Granvollen" />
		<tag k="place" v="locality" />
		<tag k="ssr:stedsnr" v="518299" />
	</node>
	<node id="-740190" lat="62.9411722218" lon="10.7217361113">
		<tag k="name" v="Brattbakkmyra" />
		<tag k="natural" v="wetland" />
		<tag k="ssr:stedsnr" v="154845" />
	</node>
	<node id="-740189" lat="62.906147224" lon="10.1780555483">
		<tag k="name" v="Fremmer Hølbekkløkja" />
		<tag k="place" v="locality" />
		<tag k="ssr:stedsnr" v="154843" />
	</node>
	<node id="-740188" lat="62.9708861091" lon="10.8299555511">
		<tag k="name" v="Alvormyran" />
		<tag k="natural" v="wetland" />
		<tag k="ssr:stedsnr" v="154842" />
	</node>
	<node id="-740186" lat="62.9446694479" lon="10.1043083339">
		<tag k="name" v="Hammervassløkkja" />
		<tag k="place" v="locality" />
		<tag k="ssr:stedsnr" v="154840" />
	</node>
	<node id="-740185" lat="62.9614583326" lon="10.7551916739">
		<tag k="historic" v="shieling" />
		<tag k="name" v="Blæstervollen" />
		<tag k="place" v="locality" />
		<tag k="ssr:stedsnr" v="154839" />
	</node>
	<node id="-738136" lat="62.9612583377" lon="10.1935416589">
		<tag k="name" v="Toretrøa" />
		<tag k="place" v="locality" />
		<tag k="ssr:stedsnr" v="518279" />
	</node>
	<node id="-738135" lat="62.8179611111" lon="10.5398861195">
		<tag k="name" v="Skalmyra" />
		<tag k="natural" v="wetland" />
		<tag k="ssr:stedsnr" v="518269" />
	</node>
	<node id="-738134" lat="62.8132083347" lon="10.5391138874">
		<tag k="name" v="Floen" />
		<tag k="natural" v="wetland" />
		<tag k="ssr:stedsnr" v="518263" />
	</node>
	<node id="-738133" lat="62.8357833323" lon="10.5027638825">
		<tag k="name" v="Kjønnkjølen" />
		<tag k="natural" v="wetland" />
		<tag k="ssr:stedsnr" v="518258" />
	</node>
	<node id="-738132" lat="62.982963893" lon="10.2535722303">
		<tag k="name" v="Øverløkkja" />
		<tag k="place" v="locality" />
		<tag k="ssr:stedsnr" v="518246" />
	</node>
	<node id="-738130" lat="62.8983166704" lon="10.3278027695">
		<tag k="historic" v="shieling" />
		<tag k="name" v="Hustøftvollen" />
		<tag k="place" v="locality" />
		<tag k="ssr:stedsnr" v="518227" />
	</node>
	<node id="-737763" lat="62.9201722178" lon="10.7553111202">
		<tag k="name" v="Rotåsfloan" />
		<tag k="natural" v="wetland" />
		<tag k="ssr:stedsnr" v="458803" />
	</node>
	<node id="-740173" lat="63.0012166654" lon="10.6707416708">
		<tag k="historic" v="shieling" />
		<tag k="name" v="Åsvollen" />
		<tag k="place" v="locality" />
		<tag k="ssr:stedsnr" v="154777" />
	</node>
	<node id="-740172" lat="62.8657450523" lon="10.2172644892">
		<tag k="name" v="Løkkja" />
		<tag k="place" v="locality" />
		<tag k="ssr:stedsnr" v="154774" />
	</node>
	<node id="-740171" lat="62.9915833348" lon="10.6668916752">
		<tag k="name" v="Øykjølen" />
		<tag k="natural" v="wetland" />
		<tag k="ssr:stedsnr" v="154766" />
	</node>
	<node id="-738122" lat="62.853916664" lon="10.4244277771">
		<tag k="name" v="Donaslættet" />
		<tag k="place" v="locality" />
		<tag k="ssr:stedsnr" v="518159" />
	</node>
	<node id="-740169" lat="63.0273000012" lon="10.2081333264">
		<tag k="name" v="Skottlimyra" />
		<tag k="natural" v="wetland" />
		<tag k="ssr:stedsnr" v="154744" />
	</node>
	<node id="-740164" lat="62.9286861128" lon="10.6254777695">
		<tag k="name" v="Kårmyra" />
		<tag k="natural" v="wetland" />
		<tag k="ssr:stedsnr" v="154723" />
	</node>
	<node id="-740161" lat="62.90030833" lon="10.6725916681">
		<tag k="name" v="Kvernbekkråa" />
		<tag k="place" v="locality" />
		<tag k="ssr:stedsnr" v="154713" />
	</node>
	<node id="-738112" lat="62.9796333332" lon="10.2998972141">
		<tag k="historic" v="shieling" />
		<tag k="name" v="Storvollan" />
		<tag k="place" v="locality" />
		<tag k="ssr:stedsnr" v="518070" />
	</node>
	<node id="-739808" lat="62.9641055567" lon="10.2223083328">
		<tag k="name" v="Plassen" />
		<tag k="place" v="locality" />
		<tag k="ssr:stedsnr" v="94093" />
	</node>
	<node id="-740158" lat="62.8985638923" lon="10.6800666705">
		<tag k="name" v="Gammelhansmyran" />
		<tag k="natural" v="wetland" />
		<tag k="ssr:stedsnr" v="154710" />
	</node>
	<node id="-738107" lat="62.9605027776" lon="10.3195305565">
		<tag k="name" v="Storliløkkja" />
		<tag k="place" v="locality" />
		<tag k="ssr:stedsnr" v="518044" />
	</node>
	<node id="-738106" lat="62.9655083337" lon="10.2634000061">
		<tag k="name" v="Brennmyra" />
		<tag k="natural" v="wetland" />
		<tag k="ssr:stedsnr" v="518038" />
	</node>
	<node id="-738783" lat="62.8456611098" lon="10.1988666748">
		<tag k="name" v="Stensåsvollan" />
		<tag k="place" v="locality" />
		<tag k="ssr:stedsnr" v="883909" />
	</node>
	<node id="-740152" lat="63.0061305537" lon="10.5055027846">
		<tag k="name" v="Gammelvollmyra" />
		<tag k="natural" v="wetland" />
		<tag k="ssr:stedsnr" v="154692" />
	</node>
	<node id="-740151" lat="62.8028222261" lon="10.6269694503">
		<tag k="name" v="Traståskjølen" />
		<tag k="natural" v="wetland" />
		<tag k="ssr:stedsnr" v="154689" />
	</node>
	<node id="-740149" lat="63.0028111071" lon="10.4927999964">
		<tag k="name" v="Vårvollen" />
		<tag k="place" v="locality" />
		<tag k="ssr:stedsnr" v="154668" />
	</node>
	<node id="-740142" lat="62.8984805525" lon="10.0929444355">
		<tag k="name" v="Stormyra" />
		<tag k="natural" v="wetland" />
		<tag k="ssr:stedsnr" v="154640" />
	</node>
	<node id="-740141" lat="62.9775694471" lon="10.2452861038">
		<tag k="name" v="Eggløkkja" />
		<tag k="place" v="locality" />
		<tag k="ssr:stedsnr" v="154637" />
	</node>
	<node id="-740140" lat="62.9817805583" lon="10.5468944403">
		<tag k="name" v="Svartholet" />
		<tag k="place" v="locality" />
		<tag k="ssr:stedsnr" v="154636" />
	</node>
	<node id="-740138" lat="62.9908249986" lon="10.4989777796">
		<tag k="name" v="Litlkjellen" />
		<tag k="place" v="locality" />
		<tag k="ssr:stedsnr" v="154634" />
	</node>
	<node id="-738087" lat="62.9118111075" lon="10.1881888969">
		<tag k="name" v="Litlkjølen" />
		<tag k="natural" v="wetland" />
		<tag k="ssr:stedsnr" v="397337" />
	</node>
	<node id="-740133" lat="62.983780559" lon="10.5205833408">
		<tag k="name" v="Tjønnmyra" />
		<tag k="natural" v="wetland" />
		<tag k="ssr:stedsnr" v="154624" />
	</node>
	<node id="-738084" lat="63.0318777806" lon="10.4286194439">
		<tag k="name" v="Nyløkkja" />
		<tag k="place" v="locality" />
		<tag k="ssr:stedsnr" v="397330" />
	</node>
	<node id="-740131" lat="62.9883083292" lon="10.5247277803">
		<tag k="name" v="Åstrøa" />
		<tag k="place" v="locality" />
		<tag k="ssr:stedsnr" v="154621" />
	</node>
	<node id="-740129" lat="62.9721333321" lon="10.4851333351">
		<tag k="name" v="Bløtmyra" />
		<tag k="natural" v="wetland" />
		<tag k="ssr:stedsnr" v="154617" />
	</node>
	<node id="-740128" lat="62.9794249982" lon="10.4998305577">
		<tag k="name" v="Skardmyra" />
		<tag k="natural" v="wetland" />
		<tag k="ssr:stedsnr" v="154605" />
	</node>
	<node id="-740126" lat="62.9790000038" lon="10.4820194389">
		<tag k="name" v="Svea" />
		<tag k="place" v="locality" />
		<tag k="ssr:stedsnr" v="154603" />
	</node>
	<node id="-738077" lat="62.8943861124" lon="10.8614138867">
		<tag k="name" v="Fremre Herjøyan" />
		<tag k="natural" v="wetland" />
		<tag k="ssr:stedsnr" v="385226" />
	</node>
	<node id="-739540" lat="62.8715138853" lon="10.2326083359">
		<tag k="name" v="Krokløkkja" />
		<tag k="place" v="locality" />
		<tag k="ssr:stedsnr" v="33301" />
	</node>
	<node id="-740114" lat="62.834205557" lon="10.5217194473">
		<tag k="name" v="Kalvhågån" />
		<tag k="place" v="locality" />
		<tag k="ssr:stedsnr" v="154568" />
	</node>
	<node id="-740111" lat="62.8626222263" lon="10.4886805483">
		<tag k="name" v="Torvmyra" />
		<tag k="natural" v="wetland" />
		<tag k="ssr:stedsnr" v="154545" />
	</node>
	<node id="-740110" lat="62.8548555518" lon="10.4953888904">
		<tag k="name" v="Rennlekjølen" />
		<tag k="natural" v="wetland" />
		<tag k="ssr:stedsnr" v="154543" />
	</node>
	<node id="-740105" lat="62.8757944427" lon="10.5156944511">
		<tag k="name" v="Tågåkjølen" />
		<tag k="natural" v="wetland" />
		<tag k="ssr:stedsnr" v="154522" />
	</node>
	<node id="-740103" lat="62.88774722" lon="10.5476055508">
		<tag k="name" v="Grubbon" />
		<tag k="natural" v="wetland" />
		<tag k="ssr:stedsnr" v="154510" />
	</node>
	<node id="-738789" lat="63.0053638912" lon="10.8607777803">
		<tag k="name" v="Holtvollmyran" />
		<tag k="natural" v="wetland" />
		<tag k="ssr:stedsnr" v="883925" />
	</node>
	<node id="-740095" lat="62.9434472223" lon="10.5156472303">
		<tag k="name" v="Torvmyran" />
		<tag k="natural" v="wetland" />
		<tag k="ssr:stedsnr" v="154463" />
	</node>
	<node id="-740093" lat="62.8855777808" lon="10.4514638906">
		<tag k="name" v="Torliløkkja" />
		<tag k="place" v="locality" />
		<tag k="ssr:stedsnr" v="154444" />
	</node>
	<node id="-740092" lat="62.900402776" lon="10.4507583358">
		<tag k="name" v="Kolmil-lotten" />
		<tag k="place" v="locality" />
		<tag k="ssr:stedsnr" v="154437" />
	</node>
	<node id="-738090" lat="62.8914166712" lon="10.0939083297">
		<tag k="name" v="Nyrønningen" />
		<tag k="place" v="locality" />
		<tag k="ssr:stedsnr" v="397346" />
	</node>
	<node id="-740090" lat="62.9015916696" lon="10.4338777827">
		<tag k="name" v="Løkkja" />
		<tag k="place" v="locality" />
		<tag k="ssr:stedsnr" v="154428" />
	</node>
	<node id="-740085" lat="62.99071111" lon="10.2288972273">
		<tag k="name" v="Rønningsmyra" />
		<tag k="natural" v="wetland" />
		<tag k="ssr:stedsnr" v="154396" />
	</node>
	<node id="-740082" lat="63.022300002" lon="10.4354944458">
		<tag k="name" v="Litlrønningen" />
		<tag k="place" v="locality" />
		<tag k="ssr:stedsnr" v="154370" />
	</node>
	<node id="-737747" lat="62.9686944461" lon="10.5996805532">
		<tag k="name" v="Kammyra" />
		<tag k="natural" v="wetland" />
		<tag k="ssr:stedsnr" v="458737" />
	</node>
	<node id="-740078" lat="62.9880027768" lon="10.2626583374">
		<tag k="name" v="Dålån" />
		<tag k="place" v="locality" />
		<tag k="ssr:stedsnr" v="154347" />
	</node>
	<node id="-740076" lat="62.9195666703" lon="10.098494446">
		<tag k="name" v="Strokkslættet" />
		<tag k="natural" v="wetland" />
		<tag k="ssr:stedsnr" v="154338" />
	</node>
	<node id="-740073" lat="62.835672222" lon="10.2882583382">
		<tag k="alt_name" v="Stavill-løkkjon" />
		<tag k="name" v="Stavill-løkkja" />
		<tag k="place" v="locality" />
		<tag k="ssr:stedsnr" v="154330" />
	</node>
	<node id="-740069" lat="62.8581833333" lon="10.2824444473">
		<tag k="name" v="Trettkjølen" />
		<tag k="natural" v="wetland" />
		<tag k="ssr:stedsnr" v="154306" />
	</node>
	<node id="-738788" lat="63.0112333294" lon="10.8442638901">
		<tag k="name" v="Holtvollkjølen" />
		<tag k="natural" v="wetland" />
		<tag k="ssr:stedsnr" v="883924" />
	</node>
	<node id="-738015" lat="62.898972224" lon="10.2797222188">
		<tag k="name" v="Hovkjølen" />
		<tag k="natural" v="wetland" />
		<tag k="ssr:stedsnr" v="497600" />
	</node>
	<node id="-739109" lat="62.8971250042" lon="10.4980888883">
		<tag k="landuse" v="meadow" />
		<tag k="name" v="Badstuløenget" />
		<tag k="ssr:stedsnr" v="822476" />
	</node>
	<node id="-738009" lat="62.8230777804" lon="10.2873750027">
		<tag k="name" v="Stavillkjølan" />
		<tag k="natural" v="wetland" />
		<tag k="ssr:stedsnr" v="497310" />
	</node>
	<node id="-740056" lat="62.8394777779" lon="10.4367166598">
		<tag k="name" v="Kringla" />
		<tag k="place" v="locality" />
		<tag k="ssr:stedsnr" v="154154" />
	</node>
	<node id="-738425" lat="62.8159666691" lon="10.4191583408">
		<tag k="name" v="Sætermomyran" />
		<tag k="natural" v="wetland" />
		<tag k="ssr:stedsnr" v="700195" />
	</node>
	<node id="-737872" lat="62.8558333307" lon="10.5303138923">
		<tag k="name" v="Storkjølen" />
		<tag k="natural" v="wetland" />
		<tag k="ssr:stedsnr" v="276552" />
	</node>
	<node id="-737486" lat="62.8308222232" lon="10.2004305487">
		<tag k="name" v="Storvollan" />
		<tag k="place" v="locality" />
		<tag k="ssr:stedsnr" v="276888" />
	</node>
	<node id="-740045" lat="62.9656111084" lon="10.2436972174">
		<tag k="name" v="Skulstugjerdet" />
		<tag k="place" v="locality" />
		<tag k="ssr:stedsnr" v="154100" />
	</node>
	<node id="-740042" lat="62.9818972255" lon="10.2932555511">
		<tag k="name" v="Hansmarka" />
		<tag k="place" v="locality" />
		<tag k="ssr:stedsnr" v="154065" />
	</node>
	<node id="-740040" lat="62.9505916631" lon="10.2319416597">
		<tag k="name" v="Skainsmyra" />
		<tag k="natural" v="wetland" />
		<tag k="ssr:stedsnr" v="154049" />
	</node>
	<node id="-737740" lat="62.932202778" lon="10.6461611119">
		<tag k="name" v="Litlmoen" />
		<tag k="place" v="locality" />
		<tag k="ssr:stedsnr" v="458702" />
	</node>
	<node id="-738081" lat="62.800611109" lon="10.555500006">
		<tag k="name" v="Myrgrubba" />
		<tag k="natural" v="wetland" />
		<tag k="ssr:stedsnr" v="397305" />
	</node>
	<node id="-740033" lat="62.9140388878" lon="10.2290999921">
		<tag k="name" v="Børsetgjerdet" />
		<tag k="place" v="locality" />
		<tag k="ssr:stedsnr" v="154009" />
	</node>
	<node id="-737982" lat="62.9031888915" lon="10.4940750004">
		<tag k="name" v="Firvekjesmyra" />
		<tag k="natural" v="wetland" />
		<tag k="ssr:stedsnr" v="336611" />
	</node>
	<node id="-737977" lat="62.8943888859" lon="10.1051722139">
		<tag k="name" v="Garligrubba" />
		<tag k="place" v="locality" />
		<tag k="ssr:stedsnr" v="336583" />
	</node>
	<node id="-737976" lat="63.0002611118" lon="10.4853722201">
		<tag k="name" v="Litl-løkkja" />
		<tag k="place" v="locality" />
		<tag k="ssr:stedsnr" v="336579" />
	</node>
	<node id="-737975" lat="62.9892416628" lon="10.575188897">
		<tag k="name" v="Rødshåggån" />
		<tag k="place" v="locality" />
		<tag k="ssr:stedsnr" v="336578" />
	</node>
	<node id="-737974" lat="62.9124027734" lon="10.2014361052">
		<tag k="name" v="Gjelflotten" />
		<tag k="place" v="locality" />
		<tag k="ssr:stedsnr" v="336577" />
	</node>
	<node id="-739785" lat="62.9335638929" lon="10.3575555518">
		<tag k="name" v="Hogseggmyran" />
		<tag k="natural" v="wetland" />
		<tag k="ssr:stedsnr" v="93933" />
	</node>
	<node id="-737972" lat="62.9134222217" lon="10.1468305621">
		<tag k="historic" v="shieling" />
		<tag k="name" v="Oppstuvollen" />
		<tag k="place" v="locality" />
		<tag k="ssr:stedsnr" v="336571" />
	</node>
	<node id="-737971" lat="63.0177166623" lon="10.2485750042">
		<tag k="name" v="Løytnantøya" />
		<tag k="place" v="locality" />
		<tag k="ssr:stedsnr" v="336568" />
	</node>
	<node id="-741446" lat="62.8972027769" lon="10.1543611137">
		<tag k="name" v="Råløkkja" />
		<tag k="place" v="locality" />
		<tag k="ssr:stedsnr" v="639825" />
	</node>
	<node id="-737968" lat="62.984877777" lon="10.5457583411">
		<tag k="name" v="Grøtet" />
		<tag k="place" v="locality" />
		<tag k="ssr:stedsnr" v="336561" />
	</node>
	<node id="-737967" lat="62.8960305563" lon="10.216091665">
		<tag k="name" v="Taraldsplassen" />
		<tag k="place" v="locality" />
		<tag k="ssr:stedsnr" v="336554" />
	</node>
	<node id="-737965" lat="62.824024996" lon="10.4894111173">
		<tag k="name" v="Raphaugløkkja" />
		<tag k="place" v="locality" />
		<tag k="ssr:stedsnr" v="336278" />
	</node>
	<node id="-737955" lat="62.9526861093" lon="10.2476500021">
		<tag k="name" v="Låvmyra" />
		<tag k="natural" v="wetland" />
		<tag k="ssr:stedsnr" v="336055" />
	</node>
	<node id="-741147" lat="62.9909055565" lon="10.5392500017">
		<tag k="name" v="Granøylandet" />
		<tag k="place" v="locality" />
		<tag k="ssr:stedsnr" v="579636" />
	</node>
	<node id="-737951" lat="62.9197611145" lon="10.3223999965">
		<tag k="name" v="Øgarden" />
		<tag k="place" v="locality" />
		<tag k="ssr:stedsnr" v="336032" />
	</node>
	<node id="-739781" lat="63.0623555582" lon="10.2988749946">
		<tag k="name" v="Fossplassen" />
		<tag k="place" v="locality" />
		<tag k="ssr:stedsnr" v="93849" />
	</node>
	<node id="-737946" lat="62.9225000031" lon="10.2675944414">
		<tag k="name" v="Storkjølen" />
		<tag k="natural" v="wetland" />
		<tag k="ssr:stedsnr" v="336022" />
	</node>
	<node id="-741485" lat="62.8951083361" lon="10.3596388863">
		<tag k="name" v="Myra" />
		<tag k="natural" v="wetland" />
		<tag k="ssr:stedsnr" v="640000" />
	</node>
	<node id="-738103" lat="62.9233611117" lon="10.29187777">
		<tag k="name" v="Barntjønnkjølen" />
		<tag k="natural" v="wetland" />
		<tag k="ssr:stedsnr" v="518017" />
	</node>
	<node id="-739094" lat="62.8854638871" lon="10.4725027775">
		<tag k="name" v="Nyløkkja" />
		<tag k="place" v="locality" />
		<tag k="ssr:stedsnr" v="822511" />
	</node>
	<node id="-739603" lat="62.9150777789" lon="10.0736555465">
		<tag k="name" v="Grønslættkjølen" />
		<tag k="natural" v="wetland" />
		<tag k="ssr:stedsnr" v="33679" />
	</node>
	<node id="-739092" lat="62.8772777795" lon="10.4767027864">
		<tag k="name" v="Halla" />
		<tag k="place" v="locality" />
		<tag k="ssr:stedsnr" v="822503" />
	</node>
	<node id="-739813" lat="62.9681555532" lon="10.253230554">
		<tag k="name" v="Egga" />
		<tag k="place" v="locality" />
		<tag k="ssr:stedsnr" v="94113" />
	</node>
	<node id="-737905" lat="62.9690527773" lon="10.5107055493">
		<tag k="name" v="Svartmyran" />
		<tag k="natural" v="wetland" />
		<tag k="ssr:stedsnr" v="315523" />
	</node>
	<node id="-737725" lat="62.8907861077" lon="10.121255549">
		<tag k="name" v="Bjønnsplassen" />
		<tag k="place" v="locality" />
		<tag k="ssr:stedsnr" v="458662" />
	</node>
	<node id="-739807" lat="62.984802781" lon="10.3334277822">
		<tag k="name" v="Kua" />
		<tag k="natural" v="stone" />
		<tag k="ssr:stedsnr" v="94092" />
	</node>
	<node id="-739946" lat="62.9922055578" lon="10.8725722164">
		<tag k="name" v="Kothogstret" />
		<tag k="place" v="locality" />
		<tag k="ssr:stedsnr" v="94927" />
	</node>
	<node id="-739942" lat="62.9789416631" lon="10.9023694509">
		<tag k="name" v="Hogstret" />
		<tag k="place" v="locality" />
		<tag k="ssr:stedsnr" v="94912" />
	</node>
	<node id="-739941" lat="62.8885611094" lon="10.1802055556">
		<tag k="name" v="Seterkjølen" />
		<tag k="natural" v="wetland" />
		<tag k="ssr:stedsnr" v="94908" />
	</node>
	<node id="-741987" lat="62.8677777762" lon="10.5428777711">
		<tag k="name" v="Tåvåkjølen" />
		<tag k="natural" v="wetland" />
		<tag k="ssr:stedsnr" v="870555" />
	</node>
	<node id="-741986" lat="62.849708337" lon="10.3808416573">
		<tag k="landuse" v="meadow" />
		<tag k="name" v="Fjelløkkja" />
		<tag k="ssr:stedsnr" v="870554" />
	</node>
	<node id="-739936" lat="62.9723861124" lon="10.9071416681">
		<tag k="name" v="Hestmyra" />
		<tag k="natural" v="wetland" />
		<tag k="ssr:stedsnr" v="94895" />
	</node>
	<node id="-739935" lat="62.8222694483" lon="10.1934666587">
		<tag k="name" v="Nordløkkjslættet" />
		<tag k="place" v="locality" />
		<tag k="ssr:stedsnr" v="94894" />
	</node>
	<node id="-737381" lat="62.941747226" lon="10.3227249957">
		<tag k="historic" v="shieling" />
		<tag k="name" v="Stenbruvollen" />
		<tag k="place" v="locality" />
		<tag k="ssr:stedsnr" v="276001" />
	</node>
	<node id="-739931" lat="62.8338472196" lon="10.1953055624">
		<tag k="name" v="Stakkenget" />
		<tag k="place" v="locality" />
		<tag k="ssr:stedsnr" v="94885" />
	</node>
	<node id="-737881" lat="62.8498611149" lon="10.2087722227">
		<tag k="name" v="Vangillslættet" />
		<tag k="place" v="locality" />
		<tag k="ssr:stedsnr" v="276902" />
	</node>
	<node id="-737880" lat="62.992938887" lon="10.7051055583">
		<tag k="name" v="Hestkåsin" />
		<tag k="place" v="locality" />
		<tag k="ssr:stedsnr" v="276770" />
	</node>
	<node id="-739926" lat="62.966163887" lon="10.7594666663">
		<tag k="name" v="Snørrumyra" />
		<tag k="natural" v="wetland" />
		<tag k="ssr:stedsnr" v="94864" />
	</node>
	<node id="-737877" lat="63.0046333372" lon="10.1397694471">
		<tag k="name" v="Vindmyra" />
		<tag k="natural" v="wetland" />
		<tag k="ssr:stedsnr" v="276714" />
	</node>
	<node id="-739923" lat="62.9071638923" lon="10.7261916641">
		<tag k="historic" v="shieling" />
		<tag k="name" v="Mørsetvollen" />
		<tag k="place" v="locality" />
		<tag k="ssr:stedsnr" v="94853" />
	</node>
	<node id="-737873" lat="62.9054500027" lon="10.6129666625">
		<tag k="name" v="Trøkåskjølen" />
		<tag k="natural" v="wetland" />
		<tag k="ssr:stedsnr" v="276703" />
	</node>
	<node id="-739920" lat="62.9018638906" lon="10.7376833327">
		<tag k="name" v="Romslættkjølen" />
		<tag k="natural" v="wetland" />
		<tag k="ssr:stedsnr" v="94847" />
	</node>
	<node id="-739919" lat="63.032172224" lon="10.3576638819">
		<tag k="name" v="Bremyra" />
		<tag k="natural" v="wetland" />
		<tag k="ssr:stedsnr" v="94846" />
	</node>
	<node id="-739918" lat="62.8943777774" lon="10.7432333334">
		<tag k="name" v="Djupkåsa" />
		<tag k="natural" v="wetland" />
		<tag k="ssr:stedsnr" v="94844" />
	</node>
	<node id="-739917" lat="63.0219416695" lon="10.3572611192">
		<tag k="name" v="Haugadalen" />
		<tag k="place" v="locality" />
		<tag k="ssr:stedsnr" v="94843" />
	</node>
	<node id="-739916" lat="63.0202583341" lon="10.354469439">
		<tag k="name" v="Ellingsvea" />
		<tag k="place" v="locality" />
		<tag k="ssr:stedsnr" v="94840" />
	</node>
	<node id="-739515" lat="62.9205638871" lon="10.2843916679">
		<tag k="name" v="Langmyra" />
		<tag k="natural" v="wetland" />
		<tag k="ssr:stedsnr" v="33024" />
	</node>
	<node id="-737865" lat="62.917861109" lon="10.7466611028">
		<tag k="name" v="Bekkdalsmyra" />
		<tag k="natural" v="wetland" />
		<tag k="ssr:stedsnr" v="276817" />
	</node>
	<node id="-739533" lat="62.8101194405" lon="10.2801888819">
		<tag k="name" v="Fjellslættet" />
		<tag k="place" v="locality" />
		<tag k="ssr:stedsnr" v="33276" />
	</node>
	<node id="-739910" lat="62.9126805533" lon="10.7529166598">
		<tag k="historic" v="shieling" />
		<tag k="name" v="Kjølvollen" />
		<tag k="place" v="locality" />
		<tag k="ssr:stedsnr" v="94821" />
	</node>
	<node id="-737861" lat="62.860616667" lon="10.7811833424">
		<tag k="name" v="Gurrupullen" />
		<tag k="natural" v="wetland" />
		<tag k="ssr:stedsnr" v="276805" />
	</node>
	<node id="-739906" lat="63.0453055536" lon="10.3802277803">
		<tag k="historic" v="shieling" />
		<tag k="name" v="Tildervollen" />
		<tag k="place" v="locality" />
		<tag k="ssr:stedsnr" v="94801" />
	</node>
	<node id="-737857" lat="63.0032722187" lon="10.483674995">
		<tag k="name" v="Mathaugmyra" />
		<tag k="natural" v="wetland" />
		<tag k="ssr:stedsnr" v="276667" />
	</node>
	<node id="-739902" lat="62.9895833312" lon="10.631624997">
		<tag k="name" v="Østerøyan" />
		<tag k="natural" v="wetland" />
		<tag k="ssr:stedsnr" v="94781" />
	</node>
	<node id="-737853" lat="62.9782694476" lon="10.4830166595">
		<tag k="name" v="Bjørnsåttån" />
		<tag k="place" v="locality" />
		<tag k="ssr:stedsnr" v="276604" />
	</node>
	<node id="-737849" lat="62.8825222178" lon="10.5292888965">
		<tag k="name" v="Gammel-løenget" />
		<tag k="place" v="locality" />
		<tag k="ssr:stedsnr" v="276505" />
	</node>
	<node id="-737848" lat="62.9710999976" lon="10.4529416625">
		<tag k="name" v="Sørstuløkkja" />
		<tag k="place" v="locality" />
		<tag k="ssr:stedsnr" v="276372" />
	</node>
	<node id="-738740" lat="63.0026805578" lon="10.2498833395">
		<tag k="name" v="Kyllmyra" />
		<tag k="natural" v="wetland" />
		<tag k="ssr:stedsnr" v="883387" />
	</node>
	<node id="-739891" lat="62.9329666684" lon="10.7136916619">
		<tag k="name" v="Isakhogstret" />
		<tag k="place" v="locality" />
		<tag k="ssr:stedsnr" v="94718" />
	</node>
	<node id="-739890" lat="62.9141472207" lon="10.7043583293">
		<tag k="historic" v="shieling" />
		<tag k="name" v="Bakåsvollen" />
		<tag k="place" v="locality" />
		<tag k="ssr:stedsnr" v="94714" />
	</node>
	<node id="-737841" lat="62.9247805593" lon="10.3842444508">
		<tag k="name" v="Strypløkkja" />
		<tag k="place" v="locality" />
		<tag k="ssr:stedsnr" v="458948" />
	</node>
	<node id="-737840" lat="62.926436109" lon="10.3767333259">
		<tag k="name" v="Gråtarmyra" />
		<tag k="natural" v="wetland" />
		<tag k="ssr:stedsnr" v="458947" />
	</node>
	<node id="-737839" lat="62.9111111077" lon="10.3402416595">
		<tag k="name" v="Kjørkgrinda" />
		<tag k="place" v="locality" />
		<tag k="ssr:stedsnr" v="458945" />
	</node>
	<node id="-737837" lat="63.0054083335" lon="10.8866972194">
		<tag k="name" v="Slåttbuslåtten" />
		<tag k="natural" v="wetland" />
		<tag k="ssr:stedsnr" v="458933" />
	</node>
	<node id="-737832" lat="62.8717805542" lon="10.2861611118">
		<tag k="name" v="Innlegget" />
		<tag k="place" v="locality" />
		<tag k="ssr:stedsnr" v="276278" />
	</node>
	<node id="-741926" lat="62.853241667" lon="10.7747222186">
		<tag k="name" v="Høskjølan" />
		<tag k="natural" v="wetland" />
		<tag k="ssr:stedsnr" v="862083" />
	</node>
	<node id="-739877" lat="62.8765333371" lon="10.6982722192">
		<tag k="historic" v="shieling" />
		<tag k="name" v="Lermovollen" />
		<tag k="place" v="locality" />
		<tag k="ssr:stedsnr" v="94665" />
	</node>
	<node id="-739875" lat="63.0191583289" lon="10.4999222254">
		<tag k="alt_name" v="Storvoll-løkkja" />
		<tag k="name" v="Storvolløkkja" />
		<tag k="place" v="locality" />
		<tag k="ssr:stedsnr" v="94629" />
	</node>
	<node id="-739874" lat="62.9767666709" lon="10.5706083362">
		<tag k="name" v="Svea" />
		<tag k="place" v="locality" />
		<tag k="ssr:stedsnr" v="94623" />
	</node>
	<node id="-737823" lat="63.035033333" lon="10.3238222144">
		<tag k="name" v="Bakkplassen" />
		<tag k="place" v="locality" />
		<tag k="ssr:stedsnr" v="276122" />
	</node>
	<node id="-737822" lat="62.9683861145" lon="10.2462944438">
		<tag k="name" v="Kalvhåggån" />
		<tag k="place" v="locality" />
		<tag k="ssr:stedsnr" v="276111" />
	</node>
	<node id="-739869" lat="62.8518361154" lon="10.5334166592">
		<tag k="name" v="Litlkjølen" />
		<tag k="natural" v="wetland" />
		<tag k="ssr:stedsnr" v="94560" />
	</node>
	<node id="-737819" lat="62.9922499969" lon="10.8571972214">
		<tag k="name" v="Bløtkjølen" />
		<tag k="natural" v="wetland" />
		<tag k="ssr:stedsnr" v="458912" />
	</node>
	<node id="-739866" lat="62.8696055545" lon="10.4668499941">
		<tag k="historic" v="shieling" />
		<tag k="name" v="Pottvollan" />
		<tag k="place" v="locality" />
		<tag k="ssr:stedsnr" v="94535" />
	</node>
	<node id="-739865" lat="62.8761111157" lon="10.5282444374">
		<tag k="name" v="Rødmelen" />
		<tag k="place" v="locality" />
		<tag k="ssr:stedsnr" v="94528" />
	</node>
	<node id="-741912" lat="62.9103916627" lon="10.3952833376">
		<tag k="name" v="Hildbrandsløkkja" />
		<tag k="place" v="locality" />
		<tag k="ssr:stedsnr" v="822992" />
	</node>
	<node id="-739863" lat="62.8826972219" lon="10.543586116">
		<tag k="name" v="Liabrottet" />
		<tag k="place" v="locality" />
		<tag k="ssr:stedsnr" v="94512" />
	</node>
	<node id="-737814" lat="62.9471305559" lon="10.2508083353">
		<tag k="name" v="Nørder Holtet" />
		<tag k="place" v="locality" />
		<tag k="ssr:stedsnr" v="276069" />
	</node>
	<node id="-741909" lat="62.8834916634" lon="10.3859805484">
		<tag k="name" v="Stormyra" />
		<tag k="natural" v="wetland" />
		<tag k="ssr:stedsnr" v="822986" />
	</node>
	<node id="-739859" lat="62.9518222261" lon="10.5308027762">
		<tag k="name" v="Avundsløkkja" />
		<tag k="place" v="locality" />
		<tag k="ssr:stedsnr" v="94464" />
	</node>
	<node id="-739856" lat="62.8501722181" lon="10.2278472187">
		<tag k="name" v="Litlhøløenget" />
		<tag k="place" v="locality" />
		<tag k="ssr:stedsnr" v="94452" />
	</node>
	<node id="-739855" lat="62.9942055535" lon="10.2636694493">
		<tag k="name" v="Botnan" />
		<tag k="place" v="locality" />
		<tag k="ssr:stedsnr" v="94448" />
	</node>
	<node id="-741900" lat="62.9655333355" lon="10.7671305569">
		<tag k="name" v="Jo-myra" />
		<tag k="natural" v="wetland" />
		<tag k="ssr:stedsnr" v="822842" />
	</node>
	<node id="-741899" lat="62.9589166628" lon="10.7642222146">
		<tag k="landuse" v="peat_cutting" />
		<tag k="name" v="Ner-torvtaket" />
		<tag k="ssr:stedsnr" v="822838" />
	</node>
	<node id="-741896" lat="62.9050944428" lon="10.7344722286">
		<tag k="historic" v="shieling" />
		<tag k="name" v="Sagvollen" />
		<tag k="place" v="locality" />
		<tag k="ssr:stedsnr" v="822830" />
	</node>
	<node id="-737799" lat="62.8737972181" lon="10.1600083383">
		<tag k="name" v="Storløkkja" />
		<tag k="place" v="locality" />
		<tag k="ssr:stedsnr" v="458886" />
	</node>
	<node id="-741894" lat="62.9910111142" lon="10.3564555525">
		<tag k="name" v="Gammelvollmyran" />
		<tag k="natural" v="wetland" />
		<tag k="ssr:stedsnr" v="822802" />
	</node>
	<node id="-739844" lat="62.8782194481" lon="10.2358805586">
		<tag k="name" v="Grånåmyran" />
		<tag k="natural" v="wetland" />
		<tag k="ssr:stedsnr" v="94349" />
	</node>
	<node id="-741891" lat="62.8088666676" lon="10.2489750038">
		<tag k="name" v="Persløkkja" />
		<tag k="place" v="locality" />
		<tag k="ssr:stedsnr" v="822793" />
	</node>
	<node id="-741890" lat="62.8179083341" lon="10.2296472214">
		<tag k="name" v="Åsløkkja" />
		<tag k="place" v="locality" />
		<tag k="ssr:stedsnr" v="822792" />
	</node>
	<node id="-739841" lat="62.9841277747" lon="10.1758888864">
		<tag k="name" v="Moldbakkløkkja" />
		<tag k="place" v="locality" />
		<tag k="ssr:stedsnr" v="94331" />
	</node>
	<node id="-737792" lat="62.9429249976" lon="10.7260166592">
		<tag k="historic" v="shieling" />
		<tag k="name" v="Melavollen" />
		<tag k="place" v="locality" />
		<tag k="ssr:stedsnr" v="458871" />
	</node>
	<node id="-741887" lat="62.8646138885" lon="10.7599805631">
		<tag k="name" v="Trollhaugmyran" />
		<tag k="natural" v="wetland" />
		<tag k="ssr:stedsnr" v="822783" />
	</node>
	<node id="-737790" lat="62.933899997" lon="10.7836333394">
		<tag k="name" v="Bergslåtten" />
		<tag k="place" v="locality" />
		<tag k="ssr:stedsnr" v="458864" />
	</node>
	<node id="-739837" lat="62.8114027794" lon="10.3380944452">
		<tag k="name" v="Flottaøya" />
		<tag k="place" v="locality" />
		<tag k="ssr:stedsnr" v="94290" />
	</node>
	<node id="-739836" lat="62.8788027749" lon="10.279711113">
		<tag k="name" v="Nyløkkja" />
		<tag k="place" v="locality" />
		<tag k="ssr:stedsnr" v="94285" />
	</node>
	<node id="-737787" lat="62.9240999959" lon="10.0991472279">
		<tag k="name" v="Kaldslættkjølen" />
		<tag k="natural" v="wetland" />
		<tag k="ssr:stedsnr" v="275560" />
	</node>
	<node id="-741882" lat="62.9784944446" lon="10.8301027838">
		<tag k="name" v="Torvmyran" />
		<tag k="natural" v="wetland" />
		<tag k="ssr:stedsnr" v="822897" />
	</node>
	<node id="-741880" lat="62.8994916683" lon="10.2050555574">
		<tag k="name" v="Røsløkkja" />
		<tag k="place" v="locality" />
		<tag k="ssr:stedsnr" v="822888" />
	</node>
	<node id="-738388" lat="62.9802138924" lon="10.4813472301">
		<tag k="name" v="Olderøya" />
		<tag k="place" v="locality" />
		<tag k="ssr:stedsnr" v="518520" />
	</node>
	<node id="-741878" lat="62.9769888912" lon="10.6635388803">
		<tag k="name" v="Porsskogen" />
		<tag k="place" v="locality" />
		<tag k="ssr:stedsnr" v="822746" />
	</node>
	<node id="-739829" lat="63.0046111124" lon="10.8250055491">
		<tag k="name" v="Barbumyran" />
		<tag k="natural" v="wetland" />
		<tag k="ssr:stedsnr" v="94227" />
	</node>
	<node id="-741876" lat="62.9648361156" lon="10.5979611068">
		<tag k="name" v="Myra" />
		<tag k="natural" v="wetland" />
		<tag k="ssr:stedsnr" v="822736" />
	</node>
	<node id="-741874" lat="62.9721638846" lon="10.7118472131">
		<tag k="name" v="Stormyra" />
		<tag k="natural" v="wetland" />
		<tag k="ssr:stedsnr" v="822731" />
	</node>
	<node id="-741873" lat="62.9349749968" lon="10.6231361167">
		<tag k="name" v="Torvmyra" />
		<tag k="natural" v="wetland" />
		<tag k="ssr:stedsnr" v="822723" />
	</node>
	<node id="-739824" lat="62.8466527799" lon="10.4379666612">
		<tag k="name" v="Øver Bekkøyan" />
		<tag k="place" v="locality" />
		<tag k="ssr:stedsnr" v="94155" />
	</node>
	<node id="-739823" lat="62.9905027767" lon="10.2903138845">
		<tag k="name" v="Litlslættet" />
		<tag k="place" v="locality" />
		<tag k="ssr:stedsnr" v="94150" />
	</node>
	<node id="-739822" lat="62.9898500016" lon="10.2819638803">
		<tag k="name" v="Grånhøløenget" />
		<tag k="place" v="locality" />
		<tag k="ssr:stedsnr" v="94148" />
	</node>
	<node id="-741868" lat="63.0037388922" lon="10.1447444418">
		<tag k="historic" v="shieling" />
		<tag k="name" v="Myrsetervollen" />
		<tag k="place" v="locality" />
		<tag k="ssr:stedsnr" v="822690" />
	</node>
	<node id="-737771" lat="62.8986249962" lon="10.2605750022">
		<tag k="name" v="Rønningan" />
		<tag k="place" v="locality" />
		<tag k="ssr:stedsnr" v="275317" />
	</node>
	<node id="-739818" lat="62.9910222194" lon="10.2787166587">
		<tag k="name" v="Sørpå" />
		<tag k="place" v="locality" />
		<tag k="ssr:stedsnr" v="94139" />
	</node>
	<node id="-741861" lat="62.9573805587" lon="10.0816277701">
		<tag k="name" v="Fjellslættet" />
		<tag k="place" v="locality" />
		<tag k="ssr:stedsnr" v="822667" />
	</node>
	<node id="-741860" lat="62.8664833312" lon="10.4688694348">
		<tag k="landuse" v="meadow" />
		<tag k="name" v="Aunenget" />
		<tag k="ssr:stedsnr" v="822545" />
	</node>
	<node id="-741859" lat="62.8517861133" lon="10.541741667">
		<tag k="name" v="Floen" />
		<tag k="natural" v="wetland" />
		<tag k="ssr:stedsnr" v="822543" />
	</node>
	<node id="-741858" lat="62.8513861073" lon="10.4755916674">
		<tag k="landuse" v="meadow" />
		<tag k="name" v="Storstakkenget" />
		<tag k="ssr:stedsnr" v="822527" />
	</node>
	<node id="-739809" lat="62.9639555572" lon="10.2266972168">
		<tag k="name" v="Ingebrikthaugen" />
		<tag k="place" v="locality" />
		<tag k="ssr:stedsnr" v="94095" />
	</node>
	<node id="-741856" lat="62.7924083308" lon="10.6280999906">
		<tag k="name" v="Hersekåsmyran" />
		<tag k="natural" v="wetland" />
		<tag k="ssr:stedsnr" v="822650" />
	</node>
	<node id="-741855" lat="63.0012861149" lon="10.4714194534">
		<tag k="name" v="Sveløkkja" />
		<tag k="place" v="locality" />
		<tag k="ssr:stedsnr" v="822644" />
	</node>
	<node id="-738725" lat="62.8459027818" lon="10.4633611194">
		<tag k="name" v="Dalslættmyran" />
		<tag k="natural" v="wetland" />
		<tag k="ssr:stedsnr" v="883175" />
	</node>
	<node id="-741852" lat="62.9115527796" lon="10.1470611182">
		<tag k="historic" v="shieling" />
		<tag k="name" v="Ershusvollen" />
		<tag k="place" v="locality" />
		<tag k="ssr:stedsnr" v="822627" />
	</node>
	<node id="-737755" lat="63.0484555563" lon="10.3529138837">
		<tag k="name" v="Storstensmyra" />
		<tag k="natural" v="wetland" />
		<tag k="ssr:stedsnr" v="458775" />
	</node>
	<node id="-739800" lat="62.9727388894" lon="10.2470250022">
		<tag k="name" v="Langmyra" />
		<tag k="natural" v="wetland" />
		<tag k="ssr:stedsnr" v="94044" />
	</node>
	<node id="-737751" lat="62.9818722252" lon="10.7141916712">
		<tag k="name" v="Midtikjølen" />
		<tag k="natural" v="wetland" />
		<tag k="ssr:stedsnr" v="458756" />
	</node>
	<node id="-737749" lat="62.9885555598" lon="10.6732388824">
		<tag k="name" v="Sagkjølen" />
		<tag k="natural" v="wetland" />
		<tag k="ssr:stedsnr" v="458745" />
	</node>
	<node id="-737748" lat="62.9721888874" lon="10.6158638839">
		<tag k="name" v="Storvollkjølen" />
		<tag k="natural" v="wetland" />
		<tag k="ssr:stedsnr" v="458739" />
	</node>
	<node id="-741843" lat="62.9370083301" lon="10.5001527828">
		<tag k="historic" v="shieling" />
		<tag k="name" v="Eggavollen" />
		<tag k="place" v="locality" />
		<tag k="ssr:stedsnr" v="822445" />
	</node>
	<node id="-741842" lat="62.9336166652" lon="10.5006055484">
		<tag k="historic" v="shieling" />
		<tag k="name" v="Livollan" />
		<tag k="place" v="locality" />
		<tag k="ssr:stedsnr" v="822444" />
	</node>
	<node id="-741840" lat="62.9362222224" lon="10.5378888939">
		<tag k="name" v="Høgkjettilslættet" />
		<tag k="place" v="locality" />
		<tag k="ssr:stedsnr" v="822427" />
	</node>
	<node id="-741839" lat="63.01387222" lon="10.2554527822">
		<tag k="historic" v="shieling" />
		<tag k="name" v="Litlvollen" />
		<tag k="place" v="locality" />
		<tag k="ssr:stedsnr" v="822402" />
	</node>
	<node id="-737742" lat="62.9168638916" lon="10.6637694542">
		<tag k="name" v="Stormyra" />
		<tag k="natural" v="wetland" />
		<tag k="ssr:stedsnr" v="458713" />
	</node>
	<node id="-739789" lat="62.9105027795" lon="10.3819000059">
		<tag k="historic" v="shieling" />
		<tag k="name" v="Ivavollen" />
		<tag k="place" v="locality" />
		<tag k="ssr:stedsnr" v="93990" />
	</node>
	<node id="-739788" lat="62.8745972209" lon="10.3701944346">
		<tag k="name" v="Nytrøa" />
		<tag k="place" v="locality" />
		<tag k="ssr:stedsnr" v="93975" />
	</node>
	<node id="-741833" lat="62.8830416652" lon="10.5460555625">
		<tag k="name" v="Vassfloan" />
		<tag k="natural" v="wetland" />
		<tag k="ssr:stedsnr" v="822477" />
	</node>
	<node id="-739784" lat="62.928536111" lon="10.340411102">
		<tag k="name" v="Langdansen" />
		<tag k="place" v="locality" />
		<tag k="ssr:stedsnr" v="93927" />
	</node>
	<node id="-739782" lat="63.026169443" lon="10.2251833342">
		<tag k="name" v="Høstvollen" />
		<tag k="place" v="locality" />
		<tag k="ssr:stedsnr" v="93895" />
	</node>
	<node id="-741829" lat="62.8853361112" lon="10.2262194535">
		<tag k="name" v="Kroken" />
		<tag k="place" v="locality" />
		<tag k="ssr:stedsnr" v="822312" />
	</node>
	<node id="-739780" lat="63.0657222222" lon="10.2972111088">
		<tag k="name" v="Flottan" />
		<tag k="place" v="locality" />
		<tag k="ssr:stedsnr" v="93847" />
	</node>
	<node id="-741826" lat="62.99090556" lon="10.2210444414">
		<tag k="name" v="Rønningen" />
		<tag k="place" v="locality" />
		<tag k="ssr:stedsnr" v="822300" />
	</node>
	<node id="-741825" lat="62.8023138859" lon="10.4445055543">
		<tag k="name" v="Langkjølen" />
		<tag k="natural" v="wetland" />
		<tag k="ssr:stedsnr" v="822281" />
	</node>
	<node id="-741824" lat="62.9053111087" lon="10.4168972225">
		<tag k="name" v="Lesykåsa" />
		<tag k="natural" v="wetland" />
		<tag k="ssr:stedsnr" v="822388" />
	</node>
	<node id="-738720" lat="62.9938166702" lon="10.2771138825">
		<tag k="name" v="Grøvmyra" />
		<tag k="natural" v="wetland" />
		<tag k="ssr:stedsnr" v="883129" />
	</node>
	<node id="-741822" lat="62.9187527741" lon="10.4524111085">
		<tag k="name" v="Grindaplassen" />
		<tag k="place" v="locality" />
		<tag k="ssr:stedsnr" v="822384" />
	</node>
	<node id="-741821" lat="62.8710777775" lon="10.3038638899">
		<tag k="name" v="Oppgardsløkkja" />
		<tag k="place" v="locality" />
		<tag k="ssr:stedsnr" v="822246" />
	</node>
	<node id="-737724" lat="63.0091833312" lon="10.4685500081">
		<tag k="name" v="Flottan" />
		<tag k="place" v="locality" />
		<tag k="ssr:stedsnr" v="458656" />
	</node>
	<node id="-741817" lat="62.8070222188" lon="10.4202472228">
		<tag k="name" v="Sætermomyran" />
		<tag k="natural" v="wetland" />
		<tag k="ssr:stedsnr" v="822187" />
	</node>
	<node id="-741816" lat="62.8063166684" lon="10.4274527798">
		<tag k="name" v="Sætermoløkkja" />
		<tag k="place" v="locality" />
		<tag k="ssr:stedsnr" v="822186" />
	</node>
	<node id="-737719" lat="62.9863083317" lon="10.4909999912">
		<tag k="name" v="Litløya" />
		<tag k="place" v="locality" />
		<tag k="ssr:stedsnr" v="458623" />
	</node>
	<node id="-741812" lat="62.9484722243" lon="10.2825972153">
		<tag k="name" v="Synner Jelmyra" />
		<tag k="natural" v="wetland" />
		<tag k="ssr:stedsnr" v="822048" />
	</node>
	<node id="-739763" lat="62.9797722196" lon="10.233566657">
		<tag k="name" v="Sagflata" />
		<tag k="place" v="locality" />
		<tag k="ssr:stedsnr" v="93286" />
	</node>
	<node id="-737714" lat="62.9630972225" lon="10.5010805458">
		<tag k="name" v="Setrengsmyran" />
		<tag k="natural" v="wetland" />
		<tag k="ssr:stedsnr" v="458606" />
	</node>
	<node id="-741809" lat="62.9549111103" lon="10.275388886">
		<tag k="name" v="Sy" />
		<tag k="place" v="locality" />
		<tag k="ssr:stedsnr" v="822037" />
	</node>
	<node id="-739760" lat="62.9484055588" lon="10.4479222181">
		<tag k="name" v="Sagløkkja" />
		<tag k="place" v="locality" />
		<tag k="ssr:stedsnr" v="93274" />
	</node>
	<node id="-738846" lat="62.8570833362" lon="10.4450805544">
		<tag k="name" v="Langenget" />
		<tag k="place" v="locality" />
		<tag k="ssr:stedsnr" v="700375" />
	</node>
	<node id="-739758" lat="63.0090638895" lon="10.4329499918">
		<tag k="name" v="Brottet" />
		<tag k="place" v="locality" />
		<tag k="ssr:stedsnr" v="93258" />
	</node>
	<node id="-741805" lat="62.9524999972" lon="10.3356555505">
		<tag k="name" v="Sjøliløkkja" />
		<tag k="place" v="locality" />
		<tag k="ssr:stedsnr" v="822018" />
	</node>
	<node id="-741804" lat="62.9358555525" lon="10.3204499935">
		<tag k="historic" v="shieling" />
		<tag k="name" v="Blestervollen" />
		<tag k="place" v="locality" />
		<tag k="ssr:stedsnr" v="822002" />
	</node>
	<node id="-739754" lat="62.8161583348" lon="10.530513895">
		<tag k="name" v="Heststøa" />
		<tag k="place" v="locality" />
		<tag k="ssr:stedsnr" v="93219" />
	</node>
	<node id="-739753" lat="62.8418750014" lon="10.5095888892">
		<tag k="name" v="Vinterveikåsa" />
		<tag k="place" v="locality" />
		<tag k="ssr:stedsnr" v="93211" />
	</node>
	<node id="-741800" lat="62.9941972266" lon="10.281158326">
		<tag k="name" v="Nilsmyra" />
		<tag k="natural" v="wetland" />
		<tag k="ssr:stedsnr" v="822130" />
	</node>
	<node id="-741798" lat="62.9695472211" lon="10.2419666579">
		<tag k="name" v="Hustøftsmyra" />
		<tag k="place" v="locality" />
		<tag k="ssr:stedsnr" v="822096" />
	</node>
	<node id="-737699" lat="62.8724166653" lon="10.5429750084">
		<tag k="historic" v="shieling" />
		<tag k="name" v="Bakkvoll" />
		<tag k="place" v="locality" />
		<tag k="ssr:stedsnr" v="458524" />
	</node>
	<node id="-737698" lat="62.8710777762" lon="10.5323361155">
		<tag k="name" v="Myrsnipmyra" />
		<tag k="natural" v="wetland" />
		<tag k="ssr:stedsnr" v="458522" />
	</node>
	<node id="-737697" lat="62.8971833324" lon="10.511758335">
		<tag k="landuse" v="meadow" />
		<tag k="name" v="Stakksenget" />
		<tag k="ssr:stedsnr" v="458494" />
	</node>
	<node id="-737695" lat="62.9355138896" lon="10.5571444408">
		<tag k="name" v="Vindtjønnkjølen" />
		<tag k="natural" v="wetland" />
		<tag k="ssr:stedsnr" v="458433" />
	</node>
	<node id="-739742" lat="63.1195638912" lon="10.6988583266">
		<tag k="name" v="Vandsettøyan" />
		<tag k="natural" v="wetland" />
		<tag k="ssr:stedsnr" v="73831" />
	</node>
	<node id="-737691" lat="62.8796111071" lon="10.4344694456">
		<tag k="name" v="Geiteggslættet" />
		<tag k="place" v="locality" />
		<tag k="ssr:stedsnr" v="458413" />
	</node>
	<node id="-737690" lat="62.8798527786" lon="10.4389666589">
		<tag k="name" v="Granin" />
		<tag k="place" v="locality" />
		<tag k="ssr:stedsnr" v="458411" />
	</node>
	<node id="-741783" lat="62.8281666624" lon="10.1615361166">
		<tag k="alt_name" v="Flognan" />
		<tag k="name" v="Flonan" />
		<tag k="natural" v="wetland" />
		<tag k="ssr:stedsnr" v="801900" />
	</node>
	<node id="-737686" lat="62.9005750009" lon="10.1305250062">
		<tag k="historic" v="shieling" />
		<tag k="name" v="Hovsvollen" />
		<tag k="place" v="locality" />
		<tag k="ssr:stedsnr" v="458396" />
	</node>
	<node id="-737685" lat="62.952897226" lon="10.4245361188">
		<tag k="name" v="Grindakjølen" />
		<tag k="natural" v="wetland" />
		<tag k="ssr:stedsnr" v="458393" />
	</node>
	<node id="-737683" lat="62.9307833303" lon="10.448952782">
		<tag k="name" v="Husmyrkåsa" />
		<tag k="place" v="locality" />
		<tag k="ssr:stedsnr" v="458387" />
	</node>
	<node id="-737680" lat="62.9952972235" lon="10.1926944515">
		<tag k="name" v="Aspeggløkkja" />
		<tag k="place" v="locality" />
		<tag k="ssr:stedsnr" v="458375" />
	</node>
	<node id="-737678" lat="62.9729333308" lon="10.4094777709">
		<tag k="name" v="Refsetkjølen" />
		<tag k="natural" v="wetland" />
		<tag k="ssr:stedsnr" v="458364" />
	</node>
	<node id="-737676" lat="63.0261805579" lon="10.4263166758">
		<tag k="name" v="Nerløkkja" />
		<tag k="place" v="locality" />
		<tag k="ssr:stedsnr" v="458350" />
	</node>
	<node id="-737675" lat="62.867683781" lon="10.2269242414">
		<tag k="name" v="Fossgjerdet" />
		<tag k="place" v="locality" />
		<tag k="ssr:stedsnr" v="458348" />
	</node>
	<node id="-741770" lat="62.9435000029" lon="10.5532194537">
		<tag k="name" v="Nøkksjøkjølen" />
		<tag k="natural" v="wetland" />
		<tag k="ssr:stedsnr" v="801701" />
	</node>
	<node id="-737673" lat="63.0262666662" lon="10.4151055522">
		<tag k="name" v="Rønningsløkkjon" />
		<tag k="place" v="locality" />
		<tag k="ssr:stedsnr" v="458338" />
	</node>
	<node id="-741680" lat="63.0500833339" lon="10.3174777871">
		<tag k="name" v="Tromyran" />
		<tag k="natural" v="wetland" />
		<tag k="ssr:stedsnr" v="761900" />
	</node>
	<node id="-737671" lat="63.0241527796" lon="10.4278305545">
		<tag k="name" v="Trøa" />
		<tag k="place" v="locality" />
		<tag k="ssr:stedsnr" v="458334" />
	</node>
	<node id="-737667" lat="62.9640000024" lon="10.1503666762">
		<tag k="name" v="Litlløkkja" />
		<tag k="place" v="locality" />
		<tag k="ssr:stedsnr" v="458323" />
	</node>
	<node id="-737665" lat="62.8242416694" lon="10.5372333249">
		<tag k="name" v="Blautmyra" />
		<tag k="natural" v="wetland" />
		<tag k="ssr:stedsnr" v="458314" />
	</node>
	<node id="-738709" lat="62.9718111139" lon="10.2351333334">
		<tag k="name" v="Kvernhusløkkja" />
		<tag k="place" v="locality" />
		<tag k="ssr:stedsnr" v="883092" />
	</node>
	<node id="-737658" lat="62.8315944425" lon="10.7996166616">
		<tag k="landuse" v="meadow" />
		<tag k="name" v="Hundåslåtten" />
		<tag k="ssr:stedsnr" v="458189" />
	</node>
	<node id="-737656" lat="62.8533305564" lon="10.4386888908">
		<tag k="name" v="Kåsin" />
		<tag k="place" v="locality" />
		<tag k="ssr:stedsnr" v="458164" />
	</node>
	<node id="-737655" lat="62.8254083375" lon="10.4356527752">
		<tag k="name" v="Garmakermyran" />
		<tag k="natural" v="wetland" />
		<tag k="ssr:stedsnr" v="458156" />
	</node>
	<node id="-737654" lat="62.8199749968" lon="10.4628444456">
		<tag k="name" v="Stormyra" />
		<tag k="natural" v="wetland" />
		<tag k="ssr:stedsnr" v="458154" />
	</node>
	<node id="-737653" lat="62.828666666" lon="10.4381361069">
		<tag k="name" v="Ølflata" />
		<tag k="place" v="locality" />
		<tag k="ssr:stedsnr" v="458148" />
	</node>
	<node id="-737650" lat="62.9875666658" lon="10.2868694512">
		<tag k="name" v="Hammerslættet" />
		<tag k="place" v="locality" />
		<tag k="ssr:stedsnr" v="458138" />
	</node>
	<node id="-739693" lat="62.8795916701" lon="10.3641111128">
		<tag k="name" v="Heggvolløkkja" />
		<tag k="place" v="locality" />
		<tag k="ssr:stedsnr" v="33981" />
	</node>
	<node id="-739692" lat="62.8864416699" lon="10.3878055496">
		<tag k="name" v="Kjølmyra" />
		<tag k="natural" v="wetland" />
		<tag k="ssr:stedsnr" v="33979" />
	</node>
	<node id="-737642" lat="62.9551083359" lon="10.2258444437">
		<tag k="name" v="Oldervollen" />
		<tag k="place" v="locality" />
		<tag k="ssr:stedsnr" v="458097" />
	</node>
	<node id="-739686" lat="62.9588194433" lon="10.3652861209">
		<tag k="name" v="Krokan" />
		<tag k="place" v="locality" />
		<tag k="ssr:stedsnr" v="33966" />
	</node>
	<node id="-737634" lat="62.9733138899" lon="10.311663898">
		<tag k="name" v="Amdalløkkja" />
		<tag k="place" v="locality" />
		<tag k="ssr:stedsnr" v="458051" />
	</node>
	<node id="-737633" lat="62.9633722252" lon="10.3138000035">
		<tag k="name" v="Nørder Skardmyra" />
		<tag k="natural" v="wetland" />
		<tag k="ssr:stedsnr" v="458048" />
	</node>
	<node id="-738775" lat="62.9220583332" lon="10.7400361204">
		<tag k="name" v="Blåmyra" />
		<tag k="natural" v="wetland" />
		<tag k="ssr:stedsnr" v="883826" />
	</node>
	<node id="-739674" lat="62.9094444482" lon="10.3468250015">
		<tag k="name" v="Gammelgjelan" />
		<tag k="place" v="locality" />
		<tag k="ssr:stedsnr" v="33934" />
	</node>
	<node id="-738816" lat="62.9530777774" lon="10.3207638828">
		<tag k="name" v="Moaløkkja" />
		<tag k="place" v="locality" />
		<tag k="ssr:stedsnr" v="700005" />
	</node>
	<node id="-739670" lat="63.0089999965" lon="10.901902768">
		<tag k="name" v="Storslåtten" />
		<tag k="place" v="locality" />
		<tag k="ssr:stedsnr" v="33919" />
	</node>
	<node id="-739666" lat="62.9887444413" lon="10.882997223">
		<tag k="name" v="Stormyra" />
		<tag k="natural" v="wetland" />
		<tag k="ssr:stedsnr" v="33898" />
	</node>
	<node id="-739664" lat="62.9719388856" lon="10.8868749941">
		<tag k="name" v="Hestmyra" />
		<tag k="natural" v="wetland" />
		<tag k="ssr:stedsnr" v="33893" />
	</node>
	<node id="-741708" lat="62.9145750038" lon="10.3581916672">
		<tag k="name" v="Grindaplassen" />
		<tag k="place" v="locality" />
		<tag k="ssr:stedsnr" v="761960" />
	</node>
	<node id="-739659" lat="62.9828444481" lon="10.9119444412">
		<tag k="name" v="Storhogstret" />
		<tag k="place" v="locality" />
		<tag k="ssr:stedsnr" v="33879" />
	</node>
	<node id="-739657" lat="62.9792388923" lon="10.8101055542">
		<tag k="name" v="Enmyra" />
		<tag k="natural" v="wetland" />
		<tag k="ssr:stedsnr" v="33870" />
	</node>
	<node id="-739653" lat="62.9353583339" lon="10.7375805622">
		<tag k="name" v="Fuggelkåsmyra" />
		<tag k="natural" v="wetland" />
		<tag k="ssr:stedsnr" v="33841" />
	</node>
	<node id="-741700" lat="62.9672166698" lon="10.7496166716">
		<tag k="name" v="Vollmyra" />
		<tag k="natural" v="wetland" />
		<tag k="ssr:stedsnr" v="761839" />
	</node>
	<node id="-741699" lat="62.9354611085" lon="10.1066916693">
		<tag k="name" v="Granslættet" />
		<tag k="place" v="locality" />
		<tag k="ssr:stedsnr" v="761836" />
	</node>
	<node id="-740793" lat="62.9110333355" lon="10.4848416738">
		<tag k="name" v="Hestkjølen" />
		<tag k="natural" v="wetland" />
		<tag k="ssr:stedsnr" v="397462" />
	</node>
	<node id="-741696" lat="62.9220555556" lon="10.7354138941">
		<tag k="name" v="Verkjesmyra" />
		<tag k="natural" v="wetland" />
		<tag k="ssr:stedsnr" v="761816" />
	</node>
	<node id="-739647" lat="62.8976277774" lon="10.7492472307">
		<tag k="name" v="Tovåsmyra" />
		<tag k="natural" v="wetland" />
		<tag k="ssr:stedsnr" v="33824" />
	</node>
	<node id="-741694" lat="63.0067999982" lon="10.3930416633">
		<tag k="name" v="Dammyra" />
		<tag k="natural" v="wetland" />
		<tag k="ssr:stedsnr" v="761812" />
	</node>
	<node id="-741692" lat="62.8869944431" lon="10.7288388797">
		<tag k="historic" v="shieling" />
		<tag k="name" v="Sandrødsvollen" />
		<tag k="place" v="locality" />
		<tag k="ssr:stedsnr" v="761787" />
	</node>
	<node id="-741691" lat="62.8786944464" lon="10.7506250072">
		<tag k="name" v="Skardmyra" />
		<tag k="natural" v="wetland" />
		<tag k="ssr:stedsnr" v="761781" />
	</node>
	<node id="-741688" lat="62.9742416687" lon="10.635916661">
		<tag k="name" v="Storkjølen" />
		<tag k="natural" v="wetland" />
		<tag k="ssr:stedsnr" v="761759" />
	</node>
	<node id="-739638" lat="62.8688500036" lon="10.7473972138">
		<tag k="name" v="Avundmyran" />
		<tag k="natural" v="wetland" />
		<tag k="ssr:stedsnr" v="33790" />
	</node>
	<node id="-741684" lat="62.9792944474" lon="10.8496416651">
		<tag k="name" v="Kantetmyran" />
		<tag k="natural" v="wetland" />
		<tag k="ssr:stedsnr" v="761915" />
	</node>
	<node id="-739635" lat="62.8658222198" lon="10.7775666721">
		<tag k="name" v="Nyvollmyran" />
		<tag k="natural" v="wetland" />
		<tag k="ssr:stedsnr" v="33785" />
	</node>
	<node id="-741682" lat="62.9893055548" lon="10.9212527705">
		<tag k="name" v="Amdalshogstret" />
		<tag k="place" v="locality" />
		<tag k="ssr:stedsnr" v="761905" />
	</node>
	<node id="-739633" lat="62.861452781" lon="10.2153777774">
		<tag k="name" v="Innlegget" />
		<tag k="place" v="locality" />
		<tag k="ssr:stedsnr" v="33779" />
	</node>
	<node id="-737584" lat="63.0157388881" lon="10.8613249951">
		<tag k="name" v="Sagkjølen" />
		<tag k="natural" v="wetland" />
		<tag k="ssr:stedsnr" v="215937" />
	</node>
	<node id="-737583" lat="63.0030638933" lon="10.8947277767">
		<tag k="name" v="Blæsterslåtten" />
		<tag k="natural" v="wetland" />
		<tag k="ssr:stedsnr" v="215933" />
	</node>
	<node id="-741678" lat="62.8785944421" lon="10.175466664">
		<tag k="name" v="Sjurbergslættet" />
		<tag k="place" v="locality" />
		<tag k="ssr:stedsnr" v="761896" />
	</node>
	<node id="-739629" lat="63.0706833377" lon="10.3831305466">
		<tag k="name" v="Storslættet" />
		<tag k="place" v="locality" />
		<tag k="ssr:stedsnr" v="33767" />
	</node>
	<node id="-737579" lat="62.995224998" lon="10.8758194426">
		<tag k="name" v="Bløtkjølen" />
		<tag k="natural" v="wetland" />
		<tag k="ssr:stedsnr" v="215909" />
	</node>
	<node id="-741674" lat="62.9542805517" lon="10.8091055565">
		<tag k="name" v="Hogstret" />
		<tag k="place" v="locality" />
		<tag k="ssr:stedsnr" v="761863" />
	</node>
	<node id="-741673" lat="62.962836107" lon="10.8028472185">
		<tag k="name" v="Nyhåggån" />
		<tag k="place" v="locality" />
		<tag k="ssr:stedsnr" v="761858" />
	</node>
	<node id="-739624" lat="62.9790749959" lon="10.6897194413">
		<tag k="name" v="Hesjekåsin" />
		<tag k="place" v="locality" />
		<tag k="ssr:stedsnr" v="33754" />
	</node>
	<node id="-739622" lat="62.9899305581" lon="10.6578611183">
		<tag k="name" v="Lislættet" />
		<tag k="natural" v="wetland" />
		<tag k="ssr:stedsnr" v="33745" />
	</node>
	<node id="-738353" lat="63.039724999" lon="10.2010277867">
		<tag k="name" v="Stormyran" />
		<tag k="natural" v="wetland" />
		<tag k="ssr:stedsnr" v="497539" />
	</node>
	<node id="-737572" lat="62.8716250044" lon="10.4719472161">
		<tag k="historic" v="shieling" />
		<tag k="name" v="Bonesvollan" />
		<tag k="place" v="locality" />
		<tag k="ssr:stedsnr" v="215530" />
	</node>
	<node id="-739619" lat="62.968824996" lon="10.7001500048">
		<tag k="name" v="Sevillhogstret" />
		<tag k="place" v="locality" />
		<tag k="ssr:stedsnr" v="33737" />
	</node>
	<node id="-741666" lat="63.009461112" lon="10.4983222282">
		<tag k="name" v="Stordalsmyra" />
		<tag k="natural" v="wetland" />
		<tag k="ssr:stedsnr" v="761634" />
	</node>
	<node id="-741665" lat="62.8762805531" lon="10.1474277718">
		<tag k="name" v="Finnslættet" />
		<tag k="place" v="locality" />
		<tag k="ssr:stedsnr" v="761632" />
	</node>
	<node id="-739616" lat="62.9462055599" lon="10.6050250051">
		<tag k="name" v="Follmyra" />
		<tag k="natural" v="wetland" />
		<tag k="ssr:stedsnr" v="33729" />
	</node>
	<node id="-737567" lat="62.9176694463" lon="10.1265055562">
		<tag k="name" v="Bjønnråa" />
		<tag k="place" v="locality" />
		<tag k="ssr:stedsnr" v="215641" />
	</node>
	<node id="-741661" lat="63.0136972232" lon="10.4749694354">
		<tag k="name" v="Refsemyra" />
		<tag k="natural" v="wetland" />
		<tag k="ssr:stedsnr" v="761619" />
	</node>
	<node id="-739611" lat="62.9301694407" lon="10.6596305489">
		<tag k="name" v="Brattegga" />
		<tag k="place" v="locality" />
		<tag k="ssr:stedsnr" v="33711" />
	</node>
	<node id="-741656" lat="62.9622305538" lon="10.176416667">
		<tag k="landuse" v="meadow" />
		<tag k="name" v="Torengan" />
		<tag k="ssr:stedsnr" v="761610" />
	</node>
	<node id="-741655" lat="62.9110083318" lon="10.2351222218">
		<tag k="name" v="Åsmyran" />
		<tag k="natural" v="wetland" />
		<tag k="ssr:stedsnr" v="761609" />
	</node>
	<node id="-737558" lat="63.0163750014" lon="10.2275916757">
		<tag k="name" v="Blestret" />
		<tag k="place" v="locality" />
		<tag k="ssr:stedsnr" v="215612" />
	</node>
	<node id="-739605" lat="62.8761944402" lon="10.5250888933">
		<tag k="name" v="Langkåsa" />
		<tag k="natural" v="wetland" />
		<tag k="ssr:stedsnr" v="33690" />
	</node>
	<node id="-741651" lat="62.983455554" lon="10.5230944523">
		<tag k="name" v="Bratthogstret" />
		<tag k="place" v="locality" />
		<tag k="ssr:stedsnr" v="761593" />
	</node>
	<node id="-741646" lat="62.963452776" lon="10.5674694459">
		<tag k="name" v="Rønningen" />
		<tag k="place" v="locality" />
		<tag k="ssr:stedsnr" v="761585" />
	</node>
	<node id="-739597" lat="63.0114999964" lon="10.5097555471">
		<tag k="name" v="Kåskletten" />
		<tag k="place" v="locality" />
		<tag k="ssr:stedsnr" v="33652" />
	</node>
	<node id="-739594" lat="63.0040694486" lon="10.493208325">
		<tag k="name" v="Raumyra" />
		<tag k="natural" v="wetland" />
		<tag k="ssr:stedsnr" v="33647" />
	</node>
	<node id="-741641" lat="62.9713888859" lon="10.528644445">
		<tag k="name" v="Hogstret" />
		<tag k="place" v="locality" />
		<tag k="ssr:stedsnr" v="761561" />
	</node>
	<node id="-739592" lat="63.0099833313" lon="10.2324833408">
		<tag k="name" v="Øyaaunet" />
		<tag k="place" v="locality" />
		<tag k="ssr:stedsnr" v="33638" />
	</node>
	<node id="-737542" lat="62.9790944419" lon="10.2323888911">
		<tag k="name" v="Olasøya" />
		<tag k="place" v="locality" />
		<tag k="ssr:stedsnr" v="215302" />
	</node>
	<node id="-739588" lat="62.9713944444" lon="10.2078722243">
		<tag k="name" v="Haukdølsplassen" />
		<tag k="place" v="locality" />
		<tag k="ssr:stedsnr" v="33622" />
	</node>
	<node id="-739587" lat="62.9773222191" lon="10.508111108">
		<tag k="name" v="Løkkjmyran" />
		<tag k="natural" v="wetland" />
		<tag k="ssr:stedsnr" v="33612" />
	</node>
	<node id="-739756" lat="63.0210694454" lon="10.4420749964">
		<tag k="name" v="Plassen" />
		<tag k="place" v="locality" />
		<tag k="ssr:stedsnr" v="93248" />
	</node>
	<node id="-739580" lat="62.958388892" lon="10.5690916688">
		<tag k="name" v="Langmyra" />
		<tag k="natural" v="wetland" />
		<tag k="ssr:stedsnr" v="33588" />
	</node>
	<node id="-737531" lat="62.8060388872" lon="10.4571416613">
		<tag k="name" v="Bjørklikjølen" />
		<tag k="natural" v="wetland" />
		<tag k="ssr:stedsnr" v="215142" />
	</node>
	<node id="-739578" lat="62.944908331" lon="10.5706333412">
		<tag k="name" v="Brennmyra" />
		<tag k="natural" v="wetland" />
		<tag k="ssr:stedsnr" v="33578" />
	</node>
	<node id="-741625" lat="62.9266027795" lon="10.1188777785">
		<tag k="name" v="Innleggkjølen" />
		<tag k="natural" v="wetland" />
		<tag k="ssr:stedsnr" v="761419" />
	</node>
	<node id="-741624" lat="62.9844249991" lon="10.2263638831">
		<tag k="name" v="Lappen" />
		<tag k="place" v="locality" />
		<tag k="ssr:stedsnr" v="761402" />
	</node>
	<node id="-739574" lat="62.870541668" lon="10.4762277848">
		<tag k="name" v="Bergløkkj-kjølen" />
		<tag k="natural" v="wetland" />
		<tag k="ssr:stedsnr" v="33527" />
	</node>
	<node id="-741621" lat="62.9853888911" lon="10.2388027751">
		<tag k="name" v="Stenan" />
		<tag k="place" v="locality" />
		<tag k="ssr:stedsnr" v="761387" />
	</node>
	<node id="-741619" lat="62.8962944406" lon="10.5043194456">
		<tag k="name" v="Grytdalskjølen" />
		<tag k="natural" v="wetland" />
		<tag k="ssr:stedsnr" v="761494" />
	</node>
	<node id="-741617" lat="62.9110833347" lon="10.5063527842">
		<tag k="name" v="Nørder Buslættet" />
		<tag k="natural" v="wetland" />
		<tag k="ssr:stedsnr" v="761487" />
	</node>
	<node id="-739520" lat="62.9809111143" lon="10.3204833383">
		<tag k="name" v="Almanngrinda" />
		<tag k="place" v="locality" />
		<tag k="ssr:stedsnr" v="33089" />
	</node>
	<node id="-739565" lat="62.8864138918" lon="10.4450500058">
		<tag k="name" v="Nyløenget" />
		<tag k="place" v="locality" />
		<tag k="ssr:stedsnr" v="33411" />
	</node>
	<node id="-737515" lat="62.8936111138" lon="10.2336305532">
		<tag k="name" v="Trøssmyra" />
		<tag k="natural" v="wetland" />
		<tag k="ssr:stedsnr" v="194607" />
	</node>
	<node id="-741610" lat="62.8369333292" lon="10.4358333344">
		<tag k="name" v="Langkjølen" />
		<tag k="natural" v="wetland" />
		<tag k="ssr:stedsnr" v="761160" />
	</node>
	<node id="-739561" lat="62.909213892" lon="10.4346472234">
		<tag k="name" v="Småmyran" />
		<tag k="natural" v="wetland" />
		<tag k="ssr:stedsnr" v="33396" />
	</node>
	<node id="-741607" lat="62.9164000035" lon="10.1638777819">
		<tag k="historic" v="shieling" />
		<tag k="name" v="Flaknvollen" />
		<tag k="place" v="locality" />
		<tag k="ssr:stedsnr" v="761376" />
	</node>
	<node id="-741606" lat="62.9598805557" lon="10.4568611106">
		<tag k="historic" v="shieling" />
		<tag k="name" v="Gammelvollen" />
		<tag k="place" v="locality" />
		<tag k="ssr:stedsnr" v="761372" />
	</node>
	<node id="-739557" lat="62.916480552" lon="10.4355666597">
		<tag k="name" v="Vassmyra" />
		<tag k="natural" v="wetland" />
		<tag k="ssr:stedsnr" v="33377" />
	</node>
	<node id="-741603" lat="62.9253361105" lon="10.1582055464">
		<tag k="name" v="Hestvollan" />
		<tag k="place" v="locality" />
		<tag k="ssr:stedsnr" v="761362" />
	</node>
	<node id="-741602" lat="63.0094833294" lon="10.460599994">
		<tag k="name" v="Litlvollen" />
		<tag k="place" v="locality" />
		<tag k="ssr:stedsnr" v="761360" />
	</node>
	<node id="-739552" lat="63.0288388847" lon="10.4043972243">
		<tag k="name" v="Bangan" />
		<tag k="place" v="locality" />
		<tag k="ssr:stedsnr" v="33346" />
	</node>
	<node id="-739550" lat="62.9131583303" lon="10.1088666609">
		<tag k="name" v="Litlslættet" />
		<tag k="natural" v="wetland" />
		<tag k="ssr:stedsnr" v="33337" />
	</node>
	<node id="-739547" lat="63.0231027734" lon="10.4533916661">
		<tag k="name" v="Vårvollan" />
		<tag k="place" v="locality" />
		<tag k="ssr:stedsnr" v="33328" />
	</node>
	<node id="-739546" lat="62.8692027783" lon="10.217536111">
		<tag k="name" v="Fossmarka" />
		<tag k="place" v="locality" />
		<tag k="ssr:stedsnr" v="33326" />
	</node>
	<node id="-741593" lat="62.8211000041" lon="10.4823138824">
		<tag k="name" v="Smålikjølen" />
		<tag k="natural" v="wetland" />
		<tag k="ssr:stedsnr" v="761327" />
	</node>
	<node id="-739541" lat="62.8411166647" lon="10.5095944531">
		<tag k="name" v="Eldhuskjølen" />
		<tag k="natural" v="wetland" />
		<tag k="ssr:stedsnr" v="33302" />
	</node>
	<node id="-741588" lat="62.975522224" lon="10.2693444519">
		<tag k="name" v="Britmyra" />
		<tag k="natural" v="wetland" />
		<tag k="ssr:stedsnr" v="761048" />
	</node>
	<node id="-739539" lat="62.9877222211" lon="10.2559972141">
		<tag k="name" v="Tedningsøya" />
		<tag k="place" v="locality" />
		<tag k="ssr:stedsnr" v="33294" />
	</node>
	<node id="-741586" lat="62.9549888899" lon="10.3068916678">
		<tag k="name" v="Trøddimyra" />
		<tag k="natural" v="wetland" />
		<tag k="ssr:stedsnr" v="761042" />
	</node>
	<node id="-737489" lat="62.9836694416" lon="10.8765472224">
		<tag k="name" v="Sagtømmermyran" />
		<tag k="natural" v="wetland" />
		<tag k="ssr:stedsnr" v="276926" />
	</node>
	<node id="-739536" lat="62.8359416636" lon="10.4989194462">
		<tag k="name" v="Litlvollmyra" />
		<tag k="natural" v="wetland" />
		<tag k="ssr:stedsnr" v="33285" />
	</node>
	<node id="-739535" lat="62.8416027746" lon="10.4863694527">
		<tag k="name" v="Floen" />
		<tag k="natural" v="wetland" />
		<tag k="ssr:stedsnr" v="33284" />
	</node>
	<node id="-739534" lat="62.8726722195" lon="10.1229861201">
		<tag k="name" v="Dragsetkjølen" />
		<tag k="natural" v="wetland" />
		<tag k="ssr:stedsnr" v="33282" />
	</node>
	<node id="-741581" lat="62.9144027778" lon="10.2564249996">
		<tag k="name" v="Oppgardsinnlegget" />
		<tag k="place" v="locality" />
		<tag k="ssr:stedsnr" v="761028" />
	</node>
	<node id="-739532" lat="62.8579361143" lon="10.2879305643">
		<tag k="historic" v="shieling" />
		<tag k="name" v="Gammelvollen" />
		<tag k="place" v="locality" />
		<tag k="ssr:stedsnr" v="33274" />
	</node>
	<node id="-741579" lat="62.9178333357" lon="10.2908555549">
		<tag k="name" v="Purkråa" />
		<tag k="natural" v="wetland" />
		<tag k="ssr:stedsnr" v="761023" />
	</node>
	<node id="-741577" lat="62.9308583326" lon="10.2308194517">
		<tag k="name" v="Oppstuu" />
		<tag k="place" v="locality" />
		<tag k="ssr:stedsnr" v="761017" />
	</node>
	<node id="-741576" lat="62.9120805576" lon="10.2283333427">
		<tag k="name" v="Almannmyra" />
		<tag k="natural" v="wetland" />
		<tag k="ssr:stedsnr" v="761014" />
	</node>
	<node id="-741575" lat="62.9351583341" lon="10.3317833432">
		<tag k="historic" v="shieling" />
		<tag k="name" v="Kjøtrødsvollen" />
		<tag k="place" v="locality" />
		<tag k="ssr:stedsnr" v="761006" />
	</node>
	<node id="-739526" lat="62.8369361067" lon="10.4508833302">
		<tag k="name" v="Vassmyra" />
		<tag k="natural" v="wetland" />
		<tag k="ssr:stedsnr" v="33179" />
	</node>
	<node id="-739522" lat="62.8657361128" lon="10.4376527828">
		<tag k="name" v="Fjellslættet" />
		<tag k="place" v="locality" />
		<tag k="ssr:stedsnr" v="33162" />
	</node>
	<node id="-739521" lat="62.8405111137" lon="10.4289444493">
		<tag k="name" v="Kvithåmmårslættet" />
		<tag k="place" v="locality" />
		<tag k="ssr:stedsnr" v="33145" />
	</node>
	<node id="-737472" lat="62.9073111091" lon="10.7589416585">
		<tag k="historic" v="shieling" />
		<tag k="name" v="Herjåvollen" />
		<tag k="place" v="locality" />
		<tag k="ssr:stedsnr" v="276836" />
	</node>
	<node id="-737471" lat="62.9116527753" lon="10.7684194373">
		<tag k="name" v="Snølifloan" />
		<tag k="natural" v="wetland" />
		<tag k="ssr:stedsnr" v="276835" />
	</node>
	<node id="-737470" lat="62.903416668" lon="10.7600333429">
		<tag k="name" v="Kåsin" />
		<tag k="place" v="locality" />
		<tag k="ssr:stedsnr" v="276831" />
	</node>
	<node id="-737474" lat="62.9063388892" lon="10.7376583353">
		<tag k="name" v="Fjølbukjølen" />
		<tag k="natural" v="wetland" />
		<tag k="ssr:stedsnr" v="276838" />
	</node>
	<node id="-739516" lat="62.9189305554" lon="10.2688361084">
		<tag k="name" v="Åseldan" />
		<tag k="place" v="locality" />
		<tag k="ssr:stedsnr" v="33031" />
	</node>
	<node id="-737467" lat="62.8738333293" lon="10.7197472259">
		<tag k="historic" v="shieling" />
		<tag k="name" v="Svalavollen" />
		<tag k="place" v="locality" />
		<tag k="ssr:stedsnr" v="276794" />
	</node>
	<node id="-737463" lat="62.9824749984" lon="10.6085361079">
		<tag k="name" v="Brenthogstret" />
		<tag k="place" v="locality" />
		<tag k="ssr:stedsnr" v="276781" />
	</node>
	<node id="-741557" lat="62.9464055552" lon="10.4938000072">
		<tag k="historic" v="shieling" />
		<tag k="name" v="Seterlivollen" />
		<tag k="place" v="locality" />
		<tag k="ssr:stedsnr" v="747526" />
	</node>
	<node id="-739508" lat="62.7564083325" lon="10.3745194486">
		<tag k="name" v="Kvilingøyan" />
		<tag k="natural" v="wetland" />
		<tag k="ssr:stedsnr" v="20558" />
	</node>
	<node id="-739507" lat="62.9274611112" lon="10.5026833352">
		<tag k="historic" v="shieling" />
		<tag k="name" v="Dalvollan" />
		<tag k="place" v="locality" />
		<tag k="ssr:stedsnr" v="20557" />
	</node>
	<node id="-741554" lat="62.985674998" lon="10.6236111183">
		<tag k="name" v="Svemyran" />
		<tag k="natural" v="wetland" />
		<tag k="ssr:stedsnr" v="741600" />
	</node>
	<node id="-737455" lat="62.966363892" lon="10.676494454">
		<tag k="name" v="Langmyra" />
		<tag k="natural" v="wetland" />
		<tag k="ssr:stedsnr" v="276745" />
	</node>
	<node id="-737454" lat="62.9479666697" lon="10.6446833431">
		<tag k="name" v="Osøysvea" />
		<tag k="place" v="locality" />
		<tag k="ssr:stedsnr" v="276742" />
	</node>
	<node id="-737448" lat="62.8737944489" lon="10.6867972139">
		<tag k="name" v="Løenget" />
		<tag k="place" v="locality" />
		<tag k="ssr:stedsnr" v="276690" />
	</node>
	<node id="-737446" lat="63.0180833336" lon="10.47706944">
		<tag k="name" v="Langmyra" />
		<tag k="natural" v="wetland" />
		<tag k="ssr:stedsnr" v="276649" />
	</node>
	<node id="-737445" lat="63.009602777" lon="10.5403888936">
		<tag k="name" v="Raubekkslættet" />
		<tag k="place" v="locality" />
		<tag k="ssr:stedsnr" v="276647" />
	</node>
	<node id="-737443" lat="62.9970611123" lon="10.490069446">
		<tag k="name" v="Brønnøya" />
		<tag k="place" v="locality" />
		<tag k="ssr:stedsnr" v="276628" />
	</node>
	<node id="-737442" lat="62.984086113" lon="10.5171555492">
		<tag k="name" v="Nonsrota" />
		<tag k="place" v="locality" />
		<tag k="ssr:stedsnr" v="276624" />
	</node>
	<node id="-739355" lat="62.8289027804" lon="10.5003722257">
		<tag k="name" v="Kjønnkjølen" />
		<tag k="natural" v="wetland" />
		<tag k="ssr:stedsnr" v="883317" />
	</node>
	<node id="-737440" lat="62.9947055576" lon="10.5336166736">
		<tag k="name" v="Branden" />
		<tag k="place" v="locality" />
		<tag k="ssr:stedsnr" v="276618" />
	</node>
	<node id="-737437" lat="62.9755999962" lon="10.5349194427">
		<tag k="name" v="Øvergjardet" />
		<tag k="place" v="locality" />
		<tag k="ssr:stedsnr" v="276575" />
	</node>
	<node id="-739354" lat="62.8471666635" lon="10.4899472241">
		<tag k="name" v="Litløya" />
		<tag k="place" v="locality" />
		<tag k="ssr:stedsnr" v="883313" />
	</node>
	<node id="-737434" lat="62.8641472225" lon="10.5209722133">
		<tag k="name" v="Trekk-kåsa" />
		<tag k="natural" v="wetland" />
		<tag k="ssr:stedsnr" v="276538" />
	</node>
	<node id="-737431" lat="62.9092277759" lon="10.4960472199">
		<tag k="name" v="Mevoll-løkkja" />
		<tag k="place" v="locality" />
		<tag k="ssr:stedsnr" v="276489" />
	</node>
	<node id="-737430" lat="62.8995472259" lon="10.5055500089">
		<tag k="landuse" v="meadow" />
		<tag k="name" v="Bergløenget" />
		<tag k="ssr:stedsnr" v="276487" />
	</node>
	<node id="-737429" lat="62.894302775" lon="10.509541657">
		<tag k="name" v="Granslættet" />
		<tag k="place" v="locality" />
		<tag k="ssr:stedsnr" v="276484" />
	</node>
	<node id="-737428" lat="62.8962777738" lon="10.5160611172">
		<tag k="name" v="Langfloan" />
		<tag k="natural" v="wetland" />
		<tag k="ssr:stedsnr" v="276483" />
	</node>
	<node id="-737427" lat="62.980388886" lon="10.4445750031">
		<tag k="name" v="Rypvollmyra" />
		<tag k="natural" v="wetland" />
		<tag k="ssr:stedsnr" v="276345" />
	</node>
	<node id="-737424" lat="62.9106166707" lon="10.4170861175">
		<tag k="name" v="Storløenget" />
		<tag k="place" v="locality" />
		<tag k="ssr:stedsnr" v="276442" />
	</node>
	<node id="-737423" lat="62.8486249961" lon="10.2242722267">
		<tag k="name" v="Skjetvelta" />
		<tag k="place" v="locality" />
		<tag k="ssr:stedsnr" v="276437" />
	</node>
	<node id="-737422" lat="62.9837416679" lon="10.2705027764">
		<tag k="name" v="Seterplassen" />
		<tag k="place" v="locality" />
		<tag k="ssr:stedsnr" v="276431" />
	</node>
	<node id="-737421" lat="62.9837722256" lon="10.2658416756">
		<tag k="name" v="Bergvollen" />
		<tag k="place" v="locality" />
		<tag k="ssr:stedsnr" v="276430" />
	</node>
	<node id="-737419" lat="62.9102749992" lon="10.1052833398">
		<tag k="name" v="Gammelgarden" />
		<tag k="place" v="locality" />
		<tag k="ssr:stedsnr" v="276401" />
	</node>
	<node id="-737418" lat="62.927688887" lon="10.4389138939">
		<tag k="name" v="Trollkallkjølen" />
		<tag k="natural" v="wetland" />
		<tag k="ssr:stedsnr" v="276388" />
	</node>
	<node id="-737413" lat="62.843877777" lon="10.7901666681">
		<tag k="landuse" v="meadow" />
		<tag k="name" v="Danielslåtten" />
		<tag k="ssr:stedsnr" v="276211" />
	</node>
	<node id="-737410" lat="62.9099722203" lon="10.3262111169">
		<tag k="name" v="Flottarrimseten" />
		<tag k="place" v="locality" />
		<tag k="ssr:stedsnr" v="276289" />
	</node>
	<node id="-737813" lat="62.9416166623" lon="10.2519694383">
		<tag k="name" v="Holtet" />
		<tag k="place" v="locality" />
		<tag k="ssr:stedsnr" v="276068" />
	</node>
	<node id="-737408" lat="63.0230555514" lon="10.3338194403">
		<tag k="name" v="Rommet" />
		<tag k="place" v="locality" />
		<tag k="ssr:stedsnr" v="276133" />
	</node>
	<node id="-737406" lat="63.0151277819" lon="10.2933111044">
		<tag k="name" v="Dammyra" />
		<tag k="natural" v="wetland" />
		<tag k="ssr:stedsnr" v="276130" />
	</node>
	<node id="-737403" lat="62.9878944428" lon="10.3084611107">
		<tag k="name" v="Råvvåkjølan" />
		<tag k="natural" v="wetland" />
		<tag k="ssr:stedsnr" v="276093" />
	</node>
	<node id="-737402" lat="62.8396555594" lon="10.4610888985">
		<tag k="name" v="Nilsenget" />
		<tag k="place" v="locality" />
		<tag k="ssr:stedsnr" v="276185" />
	</node>
	<node id="-737401" lat="62.8446583339" lon="10.4396722201">
		<tag k="name" v="Ner Bekkøyan" />
		<tag k="place" v="locality" />
		<tag k="ssr:stedsnr" v="276156" />
	</node>
	<node id="-739444" lat="62.8959333372" lon="10.7638999943">
		<tag k="name" v="Vassdalsfloen" />
		<tag k="natural" v="wetland" />
		<tag k="ssr:stedsnr" v="12113" />
	</node>
	<node id="-737395" lat="62.926491669" lon="10.330958332">
		<tag k="name" v="Stuuplassen" />
		<tag k="place" v="locality" />
		<tag k="ssr:stedsnr" v="276039" />
	</node>
	<node id="-741490" lat="62.7837305577" lon="10.7651277861">
		<tag k="name" v="Hundåfloan" />
		<tag k="natural" v="wetland" />
		<tag k="ssr:stedsnr" v="740007" />
	</node>
	<node id="-738664" lat="62.8850805523" lon="10.8703388873">
		<tag k="name" v="Herjfloan" />
		<tag k="natural" v="wetland" />
		<tag k="ssr:stedsnr" v="679105" />
	</node>
	<node id="-739790" lat="62.8913444431" lon="10.3699277686">
		<tag k="historic" v="shieling" />
		<tag k="name" v="Gammelvollen" />
		<tag k="place" v="locality" />
		<tag k="ssr:stedsnr" v="94000" />
	</node>
	<node id="-741484" lat="62.9085000021" lon="10.3938111083">
		<tag k="name" v="Snurruegga" />
		<tag k="place" v="locality" />
		<tag k="ssr:stedsnr" v="639996" />
	</node>
	<node id="-741480" lat="62.9431527735" lon="10.339747219">
		<tag k="name" v="Haugaplassen" />
		<tag k="place" v="locality" />
		<tag k="ssr:stedsnr" v="639971" />
	</node>
	<node id="-741479" lat="62.9487138891" lon="10.3618527752">
		<tag k="name" v="Blestermyra" />
		<tag k="natural" v="wetland" />
		<tag k="ssr:stedsnr" v="639963" />
	</node>
	<node id="-739517" lat="62.9267666694" lon="10.2770555615">
		<tag k="name" v="Sørstukjølen" />
		<tag k="natural" v="wetland" />
		<tag k="ssr:stedsnr" v="33032" />
	</node>
	<node id="-741477" lat="62.9129777782" lon="10.3728416645">
		<tag k="name" v="Gauldalsgrinda" />
		<tag k="place" v="locality" />
		<tag k="ssr:stedsnr" v="639955" />
	</node>
	<node id="-737380" lat="63.0046027772" lon="10.2183694514">
		<tag k="name" v="Øyaløkkja" />
		<tag k="place" v="locality" />
		<tag k="ssr:stedsnr" v="275549" />
	</node>
	<node id="-741472" lat="63.025111108" lon="10.2807361025">
		<tag k="name" v="Ringen" />
		<tag k="place" v="locality" />
		<tag k="ssr:stedsnr" v="639932" />
	</node>
	<node id="-741470" lat="63.0279749991" lon="10.3024472194">
		<tag k="name" v="Kroken" />
		<tag k="place" v="locality" />
		<tag k="ssr:stedsnr" v="639919" />
	</node>
	<node id="-739420" lat="62.9123861144" lon="10.2921805584">
		<tag k="name" v="Gjerdakjølen" />
		<tag k="natural" v="wetland" />
		<tag k="ssr:stedsnr" v="943026" />
	</node>
	<node id="-741467" lat="62.9862083305" lon="10.8855611084">
		<tag k="name" v="Brubakkmyra" />
		<tag k="natural" v="wetland" />
		<tag k="ssr:stedsnr" v="639910" />
	</node>
	<node id="-741466" lat="63.0683388872" lon="10.3329472148">
		<tag k="alt_name" v="Gølløvtjønnslættet" />
		<tag k="name" v="Gullaugtjønnslættet" />
		<tag k="natural" v="wetland" />
		<tag k="ssr:stedsnr" v="639907" />
	</node>
	<node id="-739412" lat="62.9371027802" lon="10.3354583317">
		<tag k="historic" v="shieling" />
		<tag k="name" v="Solemsvollen" />
		<tag k="place" v="locality" />
		<tag k="ssr:stedsnr" v="943008" />
	</node>
	<node id="-741459" lat="62.8785444471" lon="10.1824750044">
		<tag k="name" v="Seterløkkja" />
		<tag k="place" v="locality" />
		<tag k="ssr:stedsnr" v="639887" />
	</node>
	<node id="-739410" lat="62.9348499965" lon="10.3178055522">
		<tag k="name" v="Blestervollmyra" />
		<tag k="natural" v="wetland" />
		<tag k="ssr:stedsnr" v="943004" />
	</node>
	<node id="-741456" lat="62.9611944487" lon="10.7673527814">
		<tag k="name" v="Vindstadmyra" />
		<tag k="natural" v="wetland" />
		<tag k="ssr:stedsnr" v="639877" />
	</node>
	<node id="-741455" lat="62.9037749978" lon="10.2083555552">
		<tag k="name" v="Langmyran" />
		<tag k="natural" v="wetland" />
		<tag k="ssr:stedsnr" v="639871" />
	</node>
	<node id="-741453" lat="62.8416527818" lon="10.2090416717">
		<tag k="name" v="Henrikfloen" />
		<tag k="natural" v="wetland" />
		<tag k="ssr:stedsnr" v="639865" />
	</node>
	<node id="-737353" lat="63.0015833307" lon="10.5702694493">
		<tag k="name" v="Eggesvollen" />
		<tag k="place" v="locality" />
		<tag k="ssr:stedsnr" v="133019" />
	</node>
	<node id="-741447" lat="62.9747250033" lon="10.8161750063">
		<tag k="name" v="Bakkmyra" />
		<tag k="natural" v="wetland" />
		<tag k="ssr:stedsnr" v="639828" />
	</node>
	<node id="-739632" lat="62.8775666686" lon="10.7561388956">
		<tag k="landuse" v="meadow" />
		<tag k="name" v="Skardslåtten" />
		<tag k="ssr:stedsnr" v="33771" />
	</node>
	<node id="-739681" lat="62.9306833372" lon="10.3883361041">
		<tag k="name" v="Buddkjølen" />
		<tag k="natural" v="wetland" />
		<tag k="ssr:stedsnr" v="33951" />
	</node>
	<node id="-741444" lat="62.9748583304" lon="10.7500444398">
		<tag k="name" v="Kistmyra" />
		<tag k="natural" v="wetland" />
		<tag k="ssr:stedsnr" v="639820" />
	</node>
	<node id="-739394" lat="62.8292805565" lon="10.2112277733">
		<tag k="name" v="Holsslættet" />
		<tag k="place" v="locality" />
		<tag k="ssr:stedsnr" v="883907" />
	</node>
	<node id="-741441" lat="63.0202500018" lon="10.3419888966">
		<tag k="name" v="Stenløkkja" />
		<tag k="place" v="locality" />
		<tag k="ssr:stedsnr" v="639807" />
	</node>
	<node id="-739391" lat="62.9754638913" lon="10.7053222307">
		<tag k="name" v="Litlkjølen" />
		<tag k="natural" v="wetland" />
		<tag k="ssr:stedsnr" v="883755" />
	</node>
	<node id="-739389" lat="62.9227250003" lon="10.6433055478">
		<tag k="name" v="Øverbakkmyra" />
		<tag k="natural" v="wetland" />
		<tag k="ssr:stedsnr" v="883720" />
	</node>
	<node id="-739388" lat="62.9188249983" lon="10.6474527817">
		<tag k="name" v="Småmyran" />
		<tag k="natural" v="wetland" />
		<tag k="ssr:stedsnr" v="883719" />
	</node>
	<node id="-739338" lat="62.9069583315" lon="10.3692333354">
		<tag k="name" v="Stakksengmyra" />
		<tag k="natural" v="wetland" />
		<tag k="ssr:stedsnr" v="943994" />
	</node>
	<node id="-739386" lat="62.9118305591" lon="10.6819222211">
		<tag k="name" v="Eggslåtten" />
		<tag k="place" v="locality" />
		<tag k="ssr:stedsnr" v="883708" />
	</node>
	<node id="-741433" lat="62.9162861093" lon="10.728772213">
		<tag k="name" v="Hårråkåsmyra" />
		<tag k="natural" v="wetland" />
		<tag k="ssr:stedsnr" v="639786" />
	</node>
	<node id="-741431" lat="62.8526499985" lon="10.225677773">
		<tag k="name" v="Litlkjølen" />
		<tag k="natural" v="wetland" />
		<tag k="ssr:stedsnr" v="639768" />
	</node>
	<node id="-741430" lat="63.0575916668" lon="10.381699998">
		<tag k="name" v="Kjemslættet" />
		<tag k="natural" v="wetland" />
		<tag k="ssr:stedsnr" v="639760" />
	</node>
	<node id="-737674" lat="63.0222888905" lon="10.430072221">
		<tag k="name" v="Holrønningen" />
		<tag k="place" v="locality" />
		<tag k="ssr:stedsnr" v="458344" />
	</node>
	<node id="-741426" lat="62.9840777746" lon="10.6552416658">
		<tag k="name" v="Litlkjølen" />
		<tag k="natural" v="wetland" />
		<tag k="ssr:stedsnr" v="639733" />
	</node>
	<node id="-739377" lat="63.0023999995" lon="10.3514833378">
		<tag k="name" v="Langmyra" />
		<tag k="natural" v="wetland" />
		<tag k="ssr:stedsnr" v="883861" />
	</node>
	<node id="-739376" lat="62.9035555589" lon="10.7188527842">
		<tag k="name" v="Storkjølen" />
		<tag k="natural" v="wetland" />
		<tag k="ssr:stedsnr" v="883860" />
	</node>
	<node id="-737326" lat="62.9568333315" lon="10.2602083238">
		<tag k="name" v="Svinkumkjølen" />
		<tag k="natural" v="wetland" />
		<tag k="ssr:stedsnr" v="255546" />
	</node>
	<node id="-741420" lat="62.9132499982" lon="10.7155749927">
		<tag k="name" v="Vollmyra" />
		<tag k="natural" v="wetland" />
		<tag k="ssr:stedsnr" v="639699" />
	</node>
	<node id="-739370" lat="62.8715333343" lon="10.7245222301">
		<tag k="name" v="Litlslættet" />
		<tag k="place" v="locality" />
		<tag k="ssr:stedsnr" v="883805" />
	</node>
	<node id="-741415" lat="62.9246500035" lon="10.6759888862">
		<tag k="name" v="Skardvollen" />
		<tag k="place" v="locality" />
		<tag k="ssr:stedsnr" v="639686" />
	</node>
	<node id="-737469" lat="63.055305559" lon="10.391072224">
		<tag k="name" v="Svarttjønnslættet" />
		<tag k="natural" v="wetland" />
		<tag k="ssr:stedsnr" v="276830" />
	</node>
	<node id="-739365" lat="62.9239888874" lon="10.4467250031">
		<tag k="name" v="Langmyran" />
		<tag k="natural" v="wetland" />
		<tag k="ssr:stedsnr" v="883424" />
	</node>
	<node id="-739363" lat="62.9151222186" lon="10.4243611125">
		<tag k="name" v="Nyløenget" />
		<tag k="place" v="locality" />
		<tag k="ssr:stedsnr" v="883416" />
	</node>
	<node id="-741408" lat="62.928647225" lon="10.0594527771">
		<tag k="name" v="Kroan" />
		<tag k="natural" v="wetland" />
		<tag k="ssr:stedsnr" v="639669" />
	</node>
	<node id="-741407" lat="62.9061472201" lon="10.0712166708">
		<tag k="historic" v="shieling" />
		<tag k="name" v="Nevervollen" />
		<tag k="place" v="locality" />
		<tag k="ssr:stedsnr" v="639658" />
	</node>
	<node id="-739356" lat="63.0200833344" lon="10.412583331">
		<tag k="name" v="Storvollen" />
		<tag k="place" v="locality" />
		<tag k="ssr:stedsnr" v="883360" />
	</node>
	<node id="-741403" lat="62.9535083304" lon="10.5051583429">
		<tag k="name" v="Limyra" />
		<tag k="natural" v="wetland" />
		<tag k="ssr:stedsnr" v="639647" />
	</node>
	<node id="-741402" lat="62.8396750014" lon="10.5078527851">
		<tag k="name" v="Sagtømmermyra" />
		<tag k="natural" v="wetland" />
		<tag k="ssr:stedsnr" v="639642" />
	</node>
	<node id="-739353" lat="62.8139527784" lon="10.2901861111">
		<tag k="name" v="Børsetløkkja" />
		<tag k="place" v="locality" />
		<tag k="ssr:stedsnr" v="883305" />
	</node>
	<node id="-739378" lat="62.9591638878" lon="10.1394361177">
		<tag k="alt_name" v="Skjærlitjlvollen" />
		<tag k="historic" v="shieling" />
		<tag k="name" v="Skjærlitjvollen" />
		<tag k="place" v="locality" />
		<tag k="ssr:stedsnr" v="883868" />
	</node>
	<node id="-739351" lat="62.9040611069" lon="10.2937583284">
		<tag k="name" v="Kjølen" />
		<tag k="natural" v="wetland" />
		<tag k="ssr:stedsnr" v="862608" />
	</node>
	<node id="-741397" lat="63.0039305545" lon="10.4703916695">
		<tag k="name" v="Kringletmyra" />
		<tag k="natural" v="wetland" />
		<tag k="ssr:stedsnr" v="639617" />
	</node>
	<node id="-741391" lat="62.9457277767" lon="10.1761416702">
		<tag k="name" v="Negardsløkkja" />
		<tag k="place" v="locality" />
		<tag k="ssr:stedsnr" v="639592" />
	</node>
	<node id="-741390" lat="62.9974277786" lon="10.540383337">
		<tag k="name" v="Storskrøda" />
		<tag k="place" v="locality" />
		<tag k="ssr:stedsnr" v="639590" />
	</node>
	<node id="-739330" lat="62.8815222237" lon="10.3949250054">
		<tag k="name" v="Halguttuløkkja" />
		<tag k="place" v="locality" />
		<tag k="ssr:stedsnr" v="943972" />
	</node>
	<node id="-741386" lat="62.974852782" lon="10.4898666695">
		<tag k="name" v="Storlømyra" />
		<tag k="natural" v="wetland" />
		<tag k="ssr:stedsnr" v="639569" />
	</node>
	<node id="-741383" lat="62.9586277807" lon="10.5846555652">
		<tag k="name" v="Langtrøa" />
		<tag k="place" v="locality" />
		<tag k="ssr:stedsnr" v="639552" />
	</node>
	<node id="-741380" lat="62.9566999956" lon="10.5554749982">
		<tag k="name" v="Litlløkkja" />
		<tag k="place" v="locality" />
		<tag k="ssr:stedsnr" v="639532" />
	</node>
	<node id="-741378" lat="62.8594499987" lon="10.5351638887">
		<tag k="name" v="Hopmyran" />
		<tag k="natural" v="wetland" />
		<tag k="ssr:stedsnr" v="639511" />
	</node>
	<node id="-741377" lat="62.853788893" lon="10.4916083275">
		<tag k="name" v="Heggvollmyra" />
		<tag k="natural" v="wetland" />
		<tag k="ssr:stedsnr" v="639507" />
	</node>
</osm>
