<?xml version="1.0" encoding="UTF-8"?>
<osm generator="osmapis" version="0.6">
	<node id="-875392" lat="62.988597224" lon="10.3445083249">
		<tag k="highway" v="path" />
		<tag k="name" v="Kjølvegen" />
		<tag k="ssr:stedsnr" v="578752" />
	</node>
	<node id="-870976" lat="62.9364527808" lon="10.7274916637">
		<tag k="bridge" v="yes" />
		<tag k="layer" v="1" />
		<tag k="name" v="Langkloppa" />
		<tag k="ssr:stedsnr" v="215857" />
	</node>
	<node id="-871286" lat="63.0391027779" lon="10.2850638917">
		<tag k="junction" v="yes" />
		<tag k="name" v="Korsen" />
		<tag k="place" v="locality" />
		<tag k="ssr:stedsnr" v="215924" />
	</node>
	<node id="-875637" lat="62.9628749974" lon="10.2036917968">
		<tag k="layer" v="-1" />
		<tag k="name" v="Soknedalstunnelen" />
		<tag k="ssr:stedsnr" v="990948" />
		<tag k="tunnel" v="yes" />
	</node>
	<node id="-874610" lat="63.0048111077" lon="10.4584194463">
		<tag k="name" v="Rognes stasjon" />
		<tag k="railway" v="halt" />
		<tag k="ssr:stedsnr" v="276353" />
		<tag k="train" v="yes" />
	</node>
	<node id="-873712" lat="62.9550000018" lon="10.1777305583">
		<tag k="name" v="Soknedal stasjon" />
		<tag k="railway" v="station" />
		<tag k="ssr:stedsnr" v="275310" />
		<tag k="train" v="yes" />
	</node>
	<node id="-874217" lat="62.9898111152" lon="10.5480083419">
		<tag k="highway" v="path" />
		<tag k="name" v="Korsvegen" />
		<tag k="ssr:stedsnr" v="336562" />
	</node>
	<node id="-874855" lat="62.925894444" lon="10.710513882">
		<tag k="highway" v="path" />
		<tag k="name" v="Vollvegen" />
		<tag k="ssr:stedsnr" v="336664" />
	</node>
	<node id="-875108" lat="62.9103277758" lon="10.7364000031">
		<tag k="ford" v="yes" />
		<tag k="name" v="Fremmervadet" />
		<tag k="place" v="locality" />
		<tag k="ssr:stedsnr" v="336728" />
	</node>
	<node id="-871774" lat="62.8111111124" lon="10.5591555512">
		<tag k="ford" v="yes" />
		<tag k="name" v="Kolmilvadet" />
		<tag k="place" v="locality" />
		<tag k="ssr:stedsnr" v="700288" />
	</node>
	<node id="-871497" lat="63.0213250019" lon="10.1696972214">
		<tag k="highway" v="path" />
		<tag k="name" v="Snøansvegen" />
		<tag k="ssr:stedsnr" v="822702" />
	</node>
	<node id="-874055" lat="62.9711999982" lon="10.461822223">
		<tag k="fixme" v="consider highway=path" />
		<tag k="highway" v="track" />
		<tag k="name" v="Klevvegen" />
		<tag k="ssr:stedsnr" v="397353" />
	</node>
	<node id="-874438" lat="62.9900000035" lon="10.5004333245">
		<tag k="fixme" v="consider highway=path" />
		<tag k="highway" v="track" />
		<tag k="name" v="Kjellvollvegen" />
		<tag k="ssr:stedsnr" v="336599" />
	</node>
	<node id="-872005" lat="62.9303944408" lon="10.7009333258">
		<tag k="name" v="Veltet" />
		<tag k="place" v="locality" />
		<tag k="ssr:stedsnr" v="883736" />
	</node>
	<node id="-872260" lat="62.9887166647" lon="10.670850009">
		<tag k="ford" v="yes" />
		<tag k="name" v="Sevillvadet" />
		<tag k="place" v="locality" />
		<tag k="ssr:stedsnr" v="883776" />
	</node>
	<node id="-871488" lat="63.034891671" lon="10.2208805644">
		<tag k="name" v="Veltet" />
		<tag k="place" v="locality" />
		<tag k="ssr:stedsnr" v="215945" />
	</node>
	<node id="-871997" lat="62.9825952164" lon="10.2900004803">
		<tag k="fixme" v="consider highway=path" />
		<tag k="highway" v="track" />
		<tag k="name" v="Hallguttu" />
		<tag k="ssr:stedsnr" v="255505" />
	</node>
	<node id="-874043" lat="62.9685333311" lon="10.6029305601">
		<tag k="highway" v="path" />
		<tag k="name" v="Korsvegen" />
		<tag k="ssr:stedsnr" v="458735" />
	</node>
	<node id="-872249" lat="62.956183332" lon="10.7278499933">
		<tag k="name" v="Singsås stasjon" />
		<tag k="railway" v="station" />
		<tag k="ssr:stedsnr" v="822835" />
		<tag k="train" v="yes" />
	</node>
	<node id="-873009" lat="62.977180552" lon="10.3200444473">
		<tag k="name" v="Veltet" />
		<tag k="place" v="locality" />
		<tag k="ssr:stedsnr" v="822077" />
	</node>
	<node id="-871212" lat="63.0087472216" lon="10.1946888971">
		<tag k="highway" v="path" />
		<tag k="name" v="Snøansvegen" />
		<tag k="ssr:stedsnr" v="397681" />
	</node>
	<node id="-873799" lat="62.9479027774" lon="10.6709249921">
		<tag k="highway" v="path" />
		<tag k="name" v="Vollvegen" />
		<tag k="ssr:stedsnr" v="700689" />
	</node>
	<node id="-871717" lat="62.9074916682" lon="10.7475666743">
		<tag k="ford" v="yes" />
		<tag k="name" v="Synnervadet" />
		<tag k="place" v="locality" />
		<tag k="ssr:stedsnr" v="579819" />
	</node>
	<node id="-875369" lat="62.9440694439" lon="10.5020166686">
		<tag k="fixme" v="consider highway=path" />
		<tag k="highway" v="track" />
		<tag k="name" v="Markavegen" />
		<tag k="ssr:stedsnr" v="883490" />
	</node>
	<node id="-871081" lat="62.9191694402" lon="10.4821277772">
		<tag k="highway" v="path" />
		<tag k="name" v="Langkåsa" />
		<tag k="ssr:stedsnr" v="33471" />
	</node>
	<node id="-875461" lat="62.960288885" lon="10.7364944471">
		<tag k="highway" v="path" />
		<tag k="name" v="Vollvegen" />
		<tag k="ssr:stedsnr" v="336796" />
	</node>
	<node id="-871578" lat="63.0522361068" lon="10.2849749937">
		<tag k="alt_name" v="Støren stasjon" />
		<tag k="name" v="Støren" />
		<tag k="railway" v="station" />
		<tag k="ssr:stedsnr" v="133968" />
		<tag k="train" v="yes" />
	</node>
	<node id="-874135" lat="62.9258044685" lon="10.1538010034">
		<tag k="bridge" v="yes" />
		<tag k="layer" v="1" />
		<tag k="name" v="Hefnåbrua" />
		<tag k="ssr:stedsnr" v="450495" />
	</node>
	<node id="-873233" lat="62.9627472241" lon="10.8671166627">
		<tag k="name" v="Reitstøa" />
		<tag k="railway" v="halt" />
		<tag k="ssr:stedsnr" v="497445" />
		<tag k="train" v="yes" />
	</node>
	<node id="-870926" lat="63.0072305565" lon="10.3447916755">
		<tag k="ford" v="yes" />
		<tag k="name" v="Kubrua" />
		<tag k="place" v="locality" />
		<tag k="ssr:stedsnr" v="215842" />
	</node>
	<node id="-871052" lat="62.8739694443" lon="10.3261805622">
		<tag k="bridge" v="yes" />
		<tag k="layer" v="1" />
		<tag k="name" v="Lerbrukloppa" />
		<tag k="ssr:stedsnr" v="94276" />
	</node>
	<node id="-874121" lat="62.959180558" lon="10.7015055526">
		<tag k="landuse" v="industrial" />
		<tag k="name" v="Digre trafo" />
		<tag k="power" v="plant" />
		<tag k="ssr:stedsnr" v="458730" />
	</node>
	<node id="-874371" lat="62.9765000012" lon="10.5612527837">
		<tag k="name" v="Kotsøy jernbanestasjon" />
		<tag k="railway" v="station" />
		<tag k="ssr:stedsnr" v="215581" />
		<tag k="train" v="yes" />
	</node>
	<node id="-872450" lat="62.8895222267" lon="10.105522224">
		<tag k="alt_name" v="Garli stasjon" />
		<tag k="name" v="Garli" />
		<tag k="railway" v="station" />
		<tag k="ssr:stedsnr" v="498914" />
		<tag k="train" v="yes" />
	</node>
	<node id="-871063" lat="63.0067472261" lon="10.4652111078">
		<tag k="highway" v="path" />
		<tag k="name" v="Litlgrubbstien" />
		<tag k="ssr:stedsnr" v="943596" />
	</node>
</osm>
