<?xml version="1.0" encoding="UTF-8"?>
<osm generator="osmapis" version="0.6">
	<node id="-860287" lat="62.9570611093" lon="10.717986107">
		<tag k="amenity" v="place_of_worship" />
		<tag k="fixme" v="specify religion=*, denomination=*, building=* etc" />
		<tag k="name" v="Singsås bedehus" />
		<tag k="ssr:stedsnr" v="397820" />
	</node>
	<node id="-863355" lat="62.964038886" lon="10.8682638912">
		<tag k="alt_name" v="Granheim ungdomshus" />
		<tag k="amenity" v="community_centre" />
		<tag k="name" v="Granheim forsamlingshus" />
		<tag k="ssr:stedsnr" v="94890" />
	</node>
	<node id="-862713" lat="62.9393694437" lon="10.6589888987">
		<tag k="amenity" v="community_centre" />
		<tag k="name" v="Våttåsheim" />
		<tag k="ssr:stedsnr" v="406216" />
	</node>
	<node id="-863351" lat="63.0361583289" lon="10.2934138911">
		<tag k="name" v="Gaula natursenter" />
		<tag k="ssr:stedsnr" v="665277" />
		<tag k="tourism" v="museum" />
	</node>
	<node id="-860520" lat="62.9413388933" lon="10.347944449">
		<tag k="amenity" v="community_centre" />
		<tag k="name" v="Haugtun fors.hus" />
		<tag k="ssr:stedsnr" v="215969" />
	</node>
	<node id="-863844" lat="63.004911112" lon="10.4543638801">
		<tag k="amenity" v="community_centre" />
		<tag k="name" v="Berghall forsamlingshus" />
		<tag k="ssr:stedsnr" v="466221" />
	</node>
	<node id="-862049" lat="63.0286861147" lon="10.2961888815">
		<tag k="name" v="Skårvoll gård og museum" />
		<tag k="ssr:stedsnr" v="908256" />
		<tag k="tourism" v="museum" />
	</node>
	<node id="-862941" lat="62.7959611128" lon="10.6229027867">
		<tag k="name" v="Storbekkøya setermuseum" />
		<tag k="ssr:stedsnr" v="119208" />
		<tag k="tourism" v="museum" />
	</node>
	<node id="-859989" lat="62.9265500044" lon="10.228613885">
		<tag k="amenity" v="community_centre" />
		<tag k="name" v="Folkets Hus" />
		<tag k="ssr:stedsnr" v="518014" />
	</node>
	<node id="-861268" lat="62.9150249961" lon="10.3233527729">
		<tag k="amenity" v="community_centre" />
		<tag k="name" v="Hauka skole" />
		<tag k="ssr:stedsnr" v="276045" />
	</node>
	<node id="-864210" lat="62.9418055537" lon="10.6505861188">
		<tag k="alt_name" v="Singsås" />
		<tag k="amenity" v="place_of_worship" />
		<tag k="denomination" v="lutheran" />
		<tag k="name" v="Singsås kirke" />
		<tag k="religion" v="christian" />
		<tag k="ssr:stedsnr" v="194693" />
	</node>
	<node id="-863139" lat="62.8985527781" lon="10.7190388849">
		<tag k="name" v="Fløttumsgruva" />
		<tag k="ssr:stedsnr" v="423256" />
		<tag k="tourism" v="museum" />
	</node>
	<node id="-862926" lat="62.8346000009" lon="10.5326805568">
		<tag k="amenity" v="community_centre" />
		<tag k="name" v="Klettheim forsamlingshus" />
		<tag k="ssr:stedsnr" v="648231" />
	</node>
	<node id="-860490" lat="62.9024944464" lon="10.7028805597">
		<tag k="amenity" v="community_centre" />
		<tag k="name" v="Forbygda grendahus" />
		<tag k="old_name" v="Fordbygda bedehus" />
		<tag k="ssr:stedsnr" v="276681" />
	</node>
	<node id="-862920" lat="62.949338888" lon="10.1905250015">
		<tag k="amenity" v="community_centre" />
		<tag k="name" v="Soknahall samfunnshus" />
		<tag k="ssr:stedsnr" v="648229" />
	</node>
	<node id="-864071" lat="62.9547999966" lon="10.1924166596">
		<tag k="amenity" v="place_of_worship" />
		<tag k="denomination" v="lutheran" />
		<tag k="name" v="Soknedal kirke" />
		<tag k="religion" v="christian" />
		<tag k="ssr:stedsnr" v="483262" />
	</node>
	<node id="-864198" lat="63.0358951712" lon="10.2870390969">
		<tag k="name" v="Midtre Gauldal folkebibliotek" />
		<tag k="ssr:stedsnr" v="483267" />
		<tag k="tourism" v="museum" />
	</node>
	<node id="-862661" lat="62.9402638915" lon="10.6518000086">
		<tag k="amenity" v="community_centre" />
		<tag k="name" v="Singsås menighetshus" />
		<tag k="ssr:stedsnr" v="952242" />
	</node>
	<node id="-859830" lat="62.9431194429" lon="10.4708805493">
		<tag k="alt_name" v="Åsheim" />
		<tag k="amenity" v="community_centre" />
		<tag k="name" v="Åsheim forsamlingshus" />
		<tag k="ssr:stedsnr" v="437696" />
	</node>
	<node id="-862914" lat="63.0314333329" lon="10.2916138835">
		<tag k="alt_name" v="Støren" />
		<tag k="amenity" v="place_of_worship" />
		<tag k="denomination" v="lutheran" />
		<tag k="name" v="Støren kirke" />
		<tag k="religion" v="christian" />
		<tag k="ssr:stedsnr" v="316969" />
	</node>
	<node id="-861885" lat="62.9413388867" lon="10.347899992">
		<tag k="amenity" v="community_centre" />
		<tag k="name" v="Hauka forsamlingshus" />
		<tag k="ssr:stedsnr" v="848228" />
	</node>
	<node id="-862390" lat="62.9056388852" lon="10.1205666719">
		<tag k="amenity" v="community_centre" />
		<tag k="name" v="Skogheim forsamlingshus" />
		<tag k="ssr:stedsnr" v="215399" />
	</node>
	<node id="-862900" lat="63.0357500019" lon="10.2885388902">
		<tag k="name" v="Støren museum" />
		<tag k="ssr:stedsnr" v="848236" />
		<tag k="tourism" v="museum" />
	</node>
	<node id="-863154" lat="62.9572833375" lon="10.7153472135">
		<tag k="name" v="Singsås bygdemuseum" />
		<tag k="ssr:stedsnr" v="848275" />
		<tag k="tourism" v="museum" />
	</node>
	<node id="-861896" lat="62.955488893" lon="10.7223055648">
		<tag k="alt_name" v="Singsås samfunnshus" />
		<tag k="amenity" v="community_centre" />
		<tag k="name" v="Singsås kulturarena" />
		<tag k="ssr:stedsnr" v="831205" />
	</node>
	<node id="-861102" lat="62.9590027772" lon="10.4982500002">
		<tag k="alt_name" v="Buheim" />
		<tag k="amenity" v="community_centre" />
		<tag k="name" v="Buheim forsamlingshus" />
		<tag k="ssr:stedsnr" v="579031" />
	</node>
	<node id="-863143" lat="62.9432472216" lon="10.2023944393">
		<tag k="name" v="Soknedal bygdemuseum" />
		<tag k="ssr:stedsnr" v="665273" />
		<tag k="tourism" v="museum" />
	</node>
	<node id="-863907" lat="62.8850236878" lon="10.4837566142">
		<tag k="alt_name" v="Budal" />
		<tag k="amenity" v="place_of_worship" />
		<tag k="denomination" v="lutheran" />
		<tag k="name" v="Budal kirke" />
		<tag k="religion" v="christian" />
		<tag k="ssr:stedsnr" v="194656" />
	</node>
	<node id="-863648" lat="62.9660749984" lon="10.2438972268">
		<tag k="amenity" v="community_centre" />
		<tag k="name" v="Kjøttrød grendahus" />
		<tag k="ssr:stedsnr" v="102240" />
	</node>
	<node id="-861592" lat="62.8995583358" lon="10.247597213">
		<tag k="amenity" v="community_centre" />
		<tag k="name" v="Sørbygda bedehus" />
		<tag k="ssr:stedsnr" v="284209" />
	</node>
	<node id="-861203" lat="62.9742805539" lon="10.5593416738">
		<tag k="amenity" v="community_centre" />
		<tag k="name" v="Kotsøy samfunnshus" />
		<tag k="ssr:stedsnr" v="770189" />
	</node>
	<node id="-862610" lat="62.8830333339" lon="10.4819694505">
		<tag k="amenity" v="community_centre" />
		<tag k="name" v="Budal flerbrukshus" />
		<tag k="ssr:stedsnr" v="952236" />
	</node>
	<node id="-860168" lat="62.9360888873" lon="10.2152249918">
		<tag k="alt_name" v="Myrvang bedehus" />
		<tag k="amenity" v="community_centre" />
		<tag k="name" v="Myrvang grendahus" />
		<tag k="ssr:stedsnr" v="761061" />
	</node>
	<node id="-862087" lat="62.9848833354" lon="10.5491638881">
		<tag k="name" v="Krigsminnebautaen" />
		<tag k="place" v="locality" />
		<tag k="ssr:stedsnr" v="241242" />
	</node>
	<node id="-860038" lat="63.0856583361" lon="10.6642361186">
		<tag k="name" v="Fjesetvollen" />
		<tag k="place" v="locality" />
		<tag k="ssr:stedsnr" v="12871" />
	</node>
	<node id="-862341" lat="62.9348277734" lon="10.2112749981">
		<tag k="amenity" v="community_centre" />
		<tag k="name" v="Åsenhus grendehus" />
		<tag k="old_name" v="Grendehus" />
		<tag k="ssr:stedsnr" v="215404" />
	</node>
	<node id="-861315" lat="62.9468555568" lon="10.1883638845">
		<tag k="amenity" v="community_centre" />
		<tag k="name" v="Soknedal misjonshus" />
		<tag k="ssr:stedsnr" v="770191" />
	</node>
</osm>
