<?xml version="1.0" encoding="UTF-8"?>
<osm version="0.6" generator="osmapis">
	<node lat="62.713997225936986" lon="10.730188881987997" id="-50597">
		<tag k="historic" v="shieling" />
		<tag k="name" v="Budalsøya" />
		<tag k="place" v="isolated_dwelling" />
		<tag k="ssr:stedsnr" v="11001" />
	</node>
	<node lat="62.72951388544505" lon="10.702863884346256" id="-50603">
		<tag k="alt_name" v="Øyavoll" />
		<tag k="historic" v="shieling" />
		<tag k="name" v="Øyavollen" />
		<tag k="place" v="isolated_dwelling" />
		<tag k="ssr:stedsnr" v="11390" />
	</node>
	<node lat="62.81284444017181" lon="10.290283337147413" id="-50608">
		<tag k="historic" v="shieling" />
		<tag k="name" v="Flottahaugvollen" />
		<tag k="place" v="isolated_dwelling" />
		<tag k="ssr:stedsnr" v="12302" />
	</node>
	<node lat="62.9684216041805" lon="10.464414528342557" id="-50610">
		<tag k="fixme" v="consider place=hamlet" />
		<tag k="name" v="Bonesvollen" />
		<tag k="place" v="farm" />
		<tag k="ssr:stedsnr" v="12519" />
	</node>
	<node lat="62.95373888704717" lon="10.282902785185293" id="-50611">
		<tag k="name" v="Kåsa" />
		<tag k="place" v="farm" />
		<tag k="ssr:stedsnr" v="12567" />
	</node>
	<node lat="62.89040031988921" lon="10.482022163884313" id="-50613">
		<tag k="fixme" v="consider place=hamlet" />
		<tag k="name" v="Hestflåttan" />
		<tag k="old_name" v="Hestflott Søndre" />
		<tag k="place" v="farm" />
		<tag k="ssr:stedsnr" v="12665" />
	</node>
	<node lat="62.95096110829954" lon="10.188066663125513" id="-50615">
		<tag k="fixme" v="consider place=hamlet" />
		<tag k="name" v="Soknedal" />
		<tag k="place" v="village" />
		<tag k="ssr:stedsnr" v="12784" />
	</node>
	<node lat="62.95772499736047" lon="10.173375007184072" id="-50616">
		<tag k="name" v="Bangan" />
		<tag k="place" v="farm" />
		<tag k="ssr:stedsnr" v="12788" />
	</node>
	<node lat="63.09959444439025" lon="10.689430549215613" id="-50618">
		<tag k="historic" v="shieling" />
		<tag k="name" v="Kjørkvollvollen" />
		<tag k="place" v="isolated_dwelling" />
		<tag k="ssr:stedsnr" v="12921" />
	</node>
	<node lat="62.942483336295226" lon="10.678288888562946" id="-50621">
		<tag k="name" v="Snipen" />
		<tag k="place" v="farm" />
		<tag k="ssr:stedsnr" v="33002" />
	</node>
	<node lat="62.95026944886874" lon="10.595616670939867" id="-50622">
		<tag k="name" v="Sagtrøa" />
		<tag k="place" v="farm" />
		<tag k="ssr:stedsnr" v="33009" />
	</node>
	<node lat="62.93979444834716" lon="10.655397232008674" id="-50624">
		<tag k="name" v="Hermomoen" />
		<tag k="place" v="farm" />
		<tag k="ssr:stedsnr" v="33020" />
	</node>
	<node lat="62.95515833196386" lon="10.779713884671922" id="-50625">
		<tag k="name" v="Nord-Hindbjørga" />
		<tag k="place" v="farm" />
		<tag k="ssr:stedsnr" v="33115" />
	</node>
	<node lat="62.91229722306616" lon="10.061588890067624" id="-50653">
		<tag k="historic" v="shieling" />
		<tag k="name" v="Vollumsvollen" />
		<tag k="place" v="isolated_dwelling" />
		<tag k="ssr:stedsnr" v="33704" />
	</node>
	<node lat="62.97144416097904" lon="10.207648989619491" id="-50661">
		<tag k="name" v="Haukdølsplassen" />
		<tag k="place" v="locality" />
		<tag k="ssr:stedsnr" v="33622" />
	</node>
	<node lat="62.98182777706719" lon="10.211438879142136" id="-50662">
		<tag k="alt_name" v="Estenstad, Sørstuu" />
		<tag k="name" v="Sørstuu Estenstad" />
		<tag k="place" v="locality" />
		<tag k="ssr:stedsnr" v="33625" />
	</node>
	<node lat="62.97728055998018" lon="10.560391672138138" id="-50664">
		<tag k="building" v="commercial" />
		<tag k="name" v="Singsås meieri" />
		<tag k="ssr:stedsnr" v="33629" />
	</node>
	<node lat="62.91477777688897" lon="10.743436113025652" id="-50672">
		<tag k="name" v="Engeshåggån" />
		<tag k="place" v="locality" />
		<tag k="ssr:stedsnr" v="33803" />
	</node>
	<node lat="63.03484444194107" lon="10.270330547570827" id="-50677">
		<tag k="name" v="Nordstuu" />
		<tag k="place" v="hamlet" />
		<tag k="ssr:stedsnr" v="33918" />
	</node>
	<node lat="62.847849996412315" lon="10.44700554714877" id="-50682">
		<tag k="name" v="Møregga" />
		<tag k="place" v="farm" />
		<tag k="ssr:stedsnr" v="33982" />
	</node>
	<node lat="63.03361667073702" lon="10.286494454429638" id="-50686">
		<tag k="amenity" v="school" />
		<tag k="name" v="Støren barneskole" />
		<tag k="ssr:stedsnr" v="239920" />
	</node>
	<node lat="63.03605599946187" lon="10.28723906243553" id="-50687">
		<tag k="amenity" v="school" />
		<tag k="name" v="Gauldal skole- og kultursenter" />
		<tag k="ssr:stedsnr" v="59204" />
	</node>
	<node lat="63.03457499980882" lon="10.288516666727123" id="-50689">
		<tag k="amenity" v="kindergarten" />
		<tag k="name" v="Støren barnehage" />
		<tag k="ssr:stedsnr" v="241261" />
	</node>
	<node lat="62.92721388895023" lon="10.93651667072508" id="-50691">
		<tag k="historic" v="shieling" />
		<tag k="name" v="Nesvollen" />
		<tag k="place" v="isolated_dwelling" />
		<tag k="ssr:stedsnr" v="73414" />
	</node>
	<node lat="62.8494912398028" lon="10.248130381541518" id="-50694">
		<tag k="fixme" v="consider place=hamlet" />
		<tag k="name" v="Såmmårvollen" />
		<tag k="place" v="farm" />
		<tag k="ssr:stedsnr" v="73380" />
	</node>
	<node lat="62.80450277570967" lon="10.201144453422176" id="-50696">
		<tag k="alt_name" v="Øfsthusvollen" />
		<tag k="historic" v="shieling" />
		<tag k="name" v="Øvsthussætra" />
		<tag k="place" v="isolated_dwelling" />
		<tag k="ssr:stedsnr" v="73603" />
	</node>
	<node lat="62.95266388560068" lon="10.728755546842049" id="-50697">
		<tag k="name" v="Aunøya" />
		<tag k="place" v="farm" />
		<tag k="ssr:stedsnr" v="73460" />
	</node>
	<node lat="63.02157500267337" lon="10.20283055340588" id="-50698">
		<tag k="historic" v="shieling" />
		<tag k="name" v="Nerøyvollen" />
		<tag k="place" v="isolated_dwelling" />
		<tag k="ssr:stedsnr" v="73665" />
	</node>
	<node lat="62.89465257438543" lon="10.353921755842244" id="-50699">
		<tag k="fixme" v="consider place=hamlet" />
		<tag k="name" v="Skainvollen" />
		<tag k="place" v="farm" />
		<tag k="ssr:stedsnr" v="73671" />
	</node>
	<node lat="62.89150555862898" lon="10.412283339588772" id="-50700">
		<tag k="historic" v="shieling" />
		<tag k="name" v="Vollamovollen" />
		<tag k="place" v="isolated_dwelling" />
		<tag k="ssr:stedsnr" v="73674" />
	</node>
	<node lat="62.947178878230574" lon="10.716834192758045" id="-50701">
		<tag k="fixme" v="consider place=hamlet" />
		<tag k="name" v="Tilderåsan" />
		<tag k="place" v="farm" />
		<tag k="ssr:stedsnr" v="73707" />
	</node>
	<node lat="63.0600249959275" lon="10.28049721596379" id="-50704">
		<tag k="name" v="Kvasshyllan" />
		<tag k="place" v="farm" />
		<tag k="ssr:stedsnr" v="73902" />
	</node>
	<node lat="63.025258332446434" lon="10.484224991176081" id="-50705">
		<tag k="name" v="Røttumsvollen" />
		<tag k="place" v="locality" />
		<tag k="ssr:stedsnr" v="73956" />
	</node>
	<node lat="62.95716607599081" lon="10.203318133493019" id="-50706">
		<tag k="name" v="Støvran" />
		<tag k="old_name" v="Vingelen" />
		<tag k="place" v="farm" />
		<tag k="ssr:stedsnr" v="73964" />
	</node>
	<node lat="63.0198776810763" lon="10.430383474862314" id="-50707">
		<tag k="name" v="Røttum" />
		<tag k="place" v="hamlet" />
		<tag k="ssr:stedsnr" v="73966" />
	</node>
	<node lat="62.96221228815896" lon="10.866292615336057" id="-50709">
		<tag k="name" v="Reitstøa" />
		<tag k="place" v="farm" />
		<tag k="ssr:stedsnr" v="86923" />
	</node>
	<node lat="62.833530556070166" lon="10.518108335558468" id="-50711">
		<tag k="name" v="Storløa" />
		<tag k="place" v="locality" />
		<tag k="ssr:stedsnr" v="93203" />
	</node>
	<node lat="62.886072219912336" lon="10.260869445138628" id="-50718">
		<tag k="name" v="Fløttumskalvhåggån" />
		<tag k="place" v="farm" />
		<tag k="ssr:stedsnr" v="93614" />
	</node>
	<node lat="62.88553888980208" lon="10.255594446672765" id="-50719">
		<tag k="name" v="Ekran" />
		<tag k="place" v="farm" />
		<tag k="ssr:stedsnr" v="93616" />
	</node>
	<node lat="62.950977782186" lon="10.60443332446224" id="-50720">
		<tag k="name" v="Fremgården" />
		<tag k="place" v="farm" />
		<tag k="ssr:stedsnr" v="94004" />
	</node>
	<node lat="62.94879722309383" lon="10.63851111467254" id="-50724">
		<tag k="name" v="Osøykjellen" />
		<tag k="place" v="farm" />
		<tag k="ssr:stedsnr" v="94023" />
	</node>
	<node lat="62.96225277356618" lon="10.72170555193447" id="-50733">
		<tag k="name" v="Osplia" />
		<tag k="place" v="isolated_dwelling" />
		<tag k="ssr:stedsnr" v="94122" />
	</node>
	<node lat="62.965986110347735" lon="10.819086110172549" id="-50734">
		<tag k="name" v="Hindsverk Bortstu" />
		<tag k="place" v="farm" />
		<tag k="ssr:stedsnr" v="94123" />
	</node>
	<node lat="62.922177777654845" lon="10.72037500856237" id="-50753">
		<tag k="historic" v="shieling" />
		<tag k="name" v="Småvollen" />
		<tag k="place" v="isolated_dwelling" />
		<tag k="ssr:stedsnr" v="94826" />
	</node>
	<node lat="63.03611111074339" lon="10.341747215149672" id="-50755">
		<tag k="name" v="Høydalsråa" />
		<tag k="place" v="locality" />
		<tag k="ssr:stedsnr" v="94831" />
	</node>
	<node lat="63.00953610710277" lon="10.044116660020254" id="-50763">
		<tag k="historic" v="shieling" />
		<tag k="name" v="Dalavollen" />
		<tag k="place" v="isolated_dwelling" />
		<tag k="ssr:stedsnr" v="94705" />
	</node>
	<node lat="62.99471666702548" lon="10.879408331027472" id="-50773">
		<tag k="name" v="Kvernberget" />
		<tag k="place" v="hamlet" />
		<tag k="ssr:stedsnr" v="94931" />
	</node>
	<node lat="62.93643888672949" lon="10.363922221293937" id="-50774">
		<tag k="loc_name" v="Litjstuu" />
		<tag k="name" v="Listuu" />
		<tag k="place" v="farm" />
		<tag k="ssr:stedsnr" v="94937" />
	</node>
	<node lat="63.034313889577305" lon="10.27637778262164" id="-50775">
		<tag k="name" v="Oppstuu" />
		<tag k="place" v="farm" />
		<tag k="ssr:stedsnr" v="94939" />
	</node>
	<node lat="62.852054845218696" lon="10.248135658178487" id="-50776">
		<tag k="name" v="Grøva" />
		<tag k="place" v="farm" />
		<tag k="ssr:stedsnr" v="94948" />
	</node>
	<node lat="62.9366027741936" lon="10.229361114443028" id="-50777">
		<tag k="loc_name" v="Knutshaugen" />
		<tag k="name" v="Frøsetkalvhåggån" />
		<tag k="place" v="farm" />
		<tag k="ssr:stedsnr" v="94953" />
	</node>
	<node lat="62.94238889064211" lon="10.147772218941622" id="-50778">
		<tag k="leisure" v="pitch" />
		<tag k="name" v="Ulvstuhaugen motorbane" />
		<tag k="ssr:stedsnr" v="119226" />
	</node>
	<node lat="62.74679444840351" lon="10.64997777353379" id="-50782">
		<tag k="alt_name" v="Brandeggvoll" />
		<tag k="fixme" v="multiple name tags, choose one and add the other to alt_name" />
		<tag k="historic" v="shieling" />
		<tag k="name" v="Brandeggvoll;Brandeggvola" />
		<tag k="place" v="isolated_dwelling" />
		<tag k="ssr:stedsnr" v="132403" />
	</node>
	<node lat="63.02223055418224" lon="10.884180548780945" id="-50787">
		<tag k="historic" v="shieling" />
		<tag k="name" v="Øyvollen" />
		<tag k="place" v="isolated_dwelling" />
		<tag k="ssr:stedsnr" v="133159" />
	</node>
	<node lat="62.83729721992403" lon="10.357999993666908" id="-50788">
		<tag k="historic" v="shieling" />
		<tag k="name" v="Frøsetvollen" />
		<tag k="place" v="isolated_dwelling" />
		<tag k="ssr:stedsnr" v="133321" />
	</node>
	<node lat="62.955434329388915" lon="10.275632757841333" id="-50789">
		<tag k="fixme" v="consider place=hamlet" />
		<tag k="name" v="Støverlykkja" />
		<tag k="place" v="farm" />
		<tag k="ssr:stedsnr" v="133515" />
	</node>
	<node lat="62.806974997154775" lon="10.495094440084035" id="-50791">
		<tag k="alt_name" v="Solemsvoll" />
		<tag k="historic" v="shieling" />
		<tag k="name" v="Solemsvollen" />
		<tag k="place" v="isolated_dwelling" />
		<tag k="ssr:stedsnr" v="133262" />
	</node>
	<node lat="62.96632222668128" lon="10.74496388209679" id="-50793">
		<tag k="historic" v="shieling" />
		<tag k="name" v="Singsåsvollen" />
		<tag k="place" v="isolated_dwelling" />
		<tag k="ssr:stedsnr" v="133415" />
	</node>
	<node lat="62.966947220713855" lon="10.873536115030022" id="-50794">
		<tag k="alt_name" v="Lundheim" />
		<tag k="name" v="Lunheim" />
		<tag k="place" v="farm" />
		<tag k="ssr:stedsnr" v="133419" />
	</node>
	<node lat="62.97187778018244" lon="10.23079166205025" id="-50795">
		<tag k="name" v="Hovsløkkja" />
		<tag k="place" v="farm" />
		<tag k="ssr:stedsnr" v="133464" />
	</node>
	<node lat="62.89685210189388" lon="10.249756587953598" id="-50796">
		<tag k="name" v="Holtan" />
		<tag k="place" v="farm" />
		<tag k="ssr:stedsnr" v="133607" />
	</node>
	<node lat="62.9466077307875" lon="10.320962794926054" id="-50797">
		<tag k="fixme" v="consider place=hamlet" />
		<tag k="name" v="Stenbrua" />
		<tag k="place" v="farm" />
		<tag k="ssr:stedsnr" v="133673" />
	</node>
	<node lat="62.9694587710057" lon="10.186444846558762" id="-50799">
		<tag k="fixme" v="consider place=hamlet" />
		<tag k="name" v="Bordal" />
		<tag k="old_name" v="Berdalen" />
		<tag k="place" v="farm" />
		<tag k="ssr:stedsnr" v="133771" />
	</node>
	<node lat="62.8951843739722" lon="10.215669229329563" id="-50802">
		<tag k="alt_name" v="Sørlykkja" />
		<tag k="fixme" v="consider place=hamlet" />
		<tag k="name" v="Sørløkkja" />
		<tag k="place" v="farm" />
		<tag k="ssr:stedsnr" v="133971" />
	</node>
	<node lat="62.71818889140868" lon="10.713902770904562" id="-50807">
		<tag k="alt_name" v="Øverlivoll" />
		<tag k="historic" v="shieling" />
		<tag k="name" v="Øverlivollen" />
		<tag k="place" v="isolated_dwelling" />
		<tag k="ssr:stedsnr" v="254347" />
	</node>
	<node lat="62.76144722123377" lon="10.643255564596398" id="-50818">
		<tag k="alt_name" v="Storliløkkjvoll" />
		<tag k="historic" v="shieling" />
		<tag k="loc_name" v="Storlilykkvollen" />
		<tag k="name" v="Storlilykkjevollen" />
		<tag k="place" v="isolated_dwelling" />
		<tag k="ssr:stedsnr" v="255258" />
	</node>
	<node lat="62.859463892065115" lon="10.447808334017203" id="-50823">
		<tag k="name" v="Einabu" />
		<tag k="place" v="farm" />
		<tag k="ssr:stedsnr" v="255374" />
	</node>
	<node lat="62.95011634900326" lon="10.72004669882997" id="-50827">
		<tag k="fixme" v="consider place=hamlet" />
		<tag k="name" v="Aunbakken" />
		<tag k="place" v="farm" />
		<tag k="ssr:stedsnr" v="255438" />
	</node>
	<node lat="62.968588893067356" lon="10.336214848114615" id="-50828">
		<tag k="fixme" v="consider place=hamlet" />
		<tag k="name" v="Nord-Ramstad" />
		<tag k="place" v="farm" />
		<tag k="ssr:stedsnr" v="255525" />
	</node>
	<node lat="62.97129868309136" lon="10.562387651135507" id="-50829">
		<tag k="fixme" v="consider place=hamlet" />
		<tag k="name" v="Troøyan" />
		<tag k="place" v="farm" />
		<tag k="ssr:stedsnr" v="255529" />
	</node>
	<node lat="62.97032500018967" lon="10.518583338521022" id="-50830">
		<tag k="name" v="Storvollen" />
		<tag k="place" v="farm" />
		<tag k="ssr:stedsnr" v="255534" />
	</node>
	<node lat="62.87040555421222" lon="10.560780563179762" id="-50832">
		<tag k="historic" v="shieling" />
		<tag k="name" v="Tåvåvollen" />
		<tag k="place" v="isolated_dwelling" />
		<tag k="ssr:stedsnr" v="255698" />
	</node>
	<node lat="62.97211666407063" lon="10.514811109716668" id="-50833">
		<tag k="alt_name" v="Sørli" />
		<tag k="name" v="Sørlia" />
		<tag k="place" v="farm" />
		<tag k="ssr:stedsnr" v="255538" />
	</node>
	<node lat="62.95775395932886" lon="10.651713028142195" id="-50835">
		<tag k="historic" v="shieling" />
		<tag k="name" v="Osøyvollen" />
		<tag k="place" v="isolated_dwelling" />
		<tag k="ssr:stedsnr" v="255543" />
	</node>
	<node lat="62.96480278217538" lon="10.58823610618802" id="-50837">
		<tag k="name" v="Grindbakken" />
		<tag k="place" v="farm" />
		<tag k="ssr:stedsnr" v="255552" />
	</node>
	<node lat="62.905041669556624" lon="10.700461105534933" id="-50839">
		<tag k="alt_name" v="Midttun" />
		<tag k="name" v="Midtun" />
		<tag k="place" v="farm" />
		<tag k="ssr:stedsnr" v="255636" />
	</node>
	<node lat="62.908836668887105" lon="10.463103273597213" id="-50840">
		<tag k="fixme" v="consider place=hamlet" />
		<tag k="name" v="Sværdalen" />
		<tag k="place" v="farm" />
		<tag k="ssr:stedsnr" v="255637" />
	</node>
	<node lat="62.93168363409128" lon="10.229125180492904" id="-50844">
		<tag k="fixme" v="consider place=hamlet" />
		<tag k="name" v="Sør-Solberg" />
		<tag k="place" v="farm" />
		<tag k="ssr:stedsnr" v="255738" />
	</node>
	<node lat="62.93347500312649" lon="10.65125832734615" id="-50845">
		<tag k="name" v="Sagtun" />
		<tag k="place" v="farm" />
		<tag k="ssr:stedsnr" v="255744" />
	</node>
	<node lat="62.92958332899525" lon="10.6606916688534" id="-50846">
		<tag k="name" v="Lauvli" />
		<tag k="place" v="farm" />
		<tag k="ssr:stedsnr" v="255749" />
	</node>
	<node lat="62.91343055934007" lon="10.629280564600396" id="-50847">
		<tag k="historic" v="shieling" />
		<tag k="loc_name" v="Gammalvollen" />
		<tag k="name" v="Gammelvollen" />
		<tag k="place" v="isolated_dwelling" />
		<tag k="ssr:stedsnr" v="255757" />
	</node>
	<node lat="63.03033889327989" lon="10.396936108556938" id="-50854">
		<tag k="name" v="Tyssråa" />
		<tag k="place" v="isolated_dwelling" />
		<tag k="ssr:stedsnr" v="255956" />
	</node>
	<node lat="63.020132706913024" lon="10.338183055942489" id="-50855">
		<tag k="name" v="Follstadøya" />
		<tag k="place" v="farm" />
		<tag k="ssr:stedsnr" v="255960" />
	</node>
	<node lat="62.9076083687504" lon="10.118014295516643" id="-50856">
		<tag k="fixme" v="consider place=hamlet" />
		<tag k="name" v="Vollan" />
		<tag k="place" v="farm" />
		<tag k="ssr:stedsnr" v="255988" />
	</node>
	<node lat="62.90907923702356" lon="10.130834901997378" id="-50857">
		<tag k="fixme" v="consider place=hamlet" />
		<tag k="name" v="Løklia" />
		<tag k="place" v="farm" />
		<tag k="ssr:stedsnr" v="255989" />
	</node>
	<node lat="63.03647679142554" lon="10.30748898774182" id="-50858">
		<tag k="fixme" v="consider place=hamlet" />
		<tag k="name" v="Frøset" />
		<tag k="place" v="farm" />
		<tag k="ssr:stedsnr" v="255993" />
	</node>
	<node lat="63.039358335770245" lon="10.297083342719818" id="-50859">
		<tag k="alt_name" v="Frøsetøran" />
		<tag k="name" v="Frøsetøya" />
		<tag k="place" v="farm" />
		<tag k="ssr:stedsnr" v="255994" />
	</node>
	<node lat="63.037756212954626" lon="10.216824122933012" id="-50860">
		<tag k="alt_name" v="Soknesvollan" />
		<tag k="name" v="Soknesvollen" />
		<tag k="place" v="locality" />
		<tag k="ssr:stedsnr" v="255998" />
	</node>
	<node lat="62.9207070581297" lon="10.212193756185393" id="-50862">
		<tag k="fixme" v="consider place=hamlet" />
		<tag k="name" v="Aunet" />
		<tag k="place" v="farm" />
		<tag k="ssr:stedsnr" v="256000" />
	</node>
	<node lat="62.92627499708851" lon="10.701722220954027" id="-50866">
		<tag k="name" v="Ramnåsgjerdet" />
		<tag k="place" v="farm" />
		<tag k="ssr:stedsnr" v="154006" />
	</node>
	<node lat="62.79012777441938" lon="10.443486112235025" id="-50871">
		<tag k="historic" v="shieling" />
		<tag k="name" v="Eggavoll" />
		<tag k="place" v="isolated_dwelling" />
		<tag k="ssr:stedsnr" v="154319" />
	</node>
	<node lat="62.98885555560042" lon="10.547497223247358" id="-50879">
		<tag k="name" v="Kalvhåggån" />
		<tag k="place" v="farm" />
		<tag k="ssr:stedsnr" v="154054" />
	</node>
	<node lat="62.99447500145711" lon="10.267550003077966" id="-50886">
		<tag k="name" v="Nilsplassen" />
		<tag k="place" v="isolated_dwelling" />
		<tag k="ssr:stedsnr" v="154602" />
	</node>
	<node lat="62.93865833740529" lon="10.185836108720041" id="-50888">
		<tag k="name" v="Nordbakken" />
		<tag k="place" v="farm" />
		<tag k="ssr:stedsnr" v="154604" />
	</node>
	<node lat="62.8896499961657" lon="10.246947222857175" id="-50891">
		<tag k="name" v="Holtøya" />
		<tag k="place" v="farm" />
		<tag k="ssr:stedsnr" v="154620" />
	</node>
	<node lat="62.996658330840845" lon="10.234772231878875" id="-50893">
		<tag k="name" v="Skjærliløkkja" />
		<tag k="place" v="farm" />
		<tag k="ssr:stedsnr" v="154623" />
	</node>
	<node lat="62.97966944737553" lon="10.22808333770422" id="-50895">
		<tag k="name" v="Bakken" />
		<tag k="place" v="farm" />
		<tag k="ssr:stedsnr" v="154626" />
	</node>
	<node lat="62.90714607016177" lon="10.239390682301103" id="-50896">
		<tag k="name" v="Løkkja" />
		<tag k="place" v="farm" />
		<tag k="ssr:stedsnr" v="154628" />
	</node>
	<node lat="62.86810000078122" lon="10.238269444349978" id="-50898">
		<tag k="name" v="Moshaugen" />
		<tag k="place" v="farm" />
		<tag k="ssr:stedsnr" v="154631" />
	</node>
	<node lat="62.98954166652272" lon="10.26619166353735" id="-50915">
		<tag k="name" v="Haugen" />
		<tag k="place" v="farm" />
		<tag k="ssr:stedsnr" v="154601" />
	</node>
	<node lat="62.83768888867799" lon="10.27372222855228" id="-50925">
		<tag k="historic" v="shieling" />
		<tag k="name" v="Grønset" />
		<tag k="place" v="isolated_dwelling" />
		<tag k="ssr:stedsnr" v="154804" />
	</node>
	<node lat="62.95323333559125" lon="10.727886107828112" id="-50927">
		<tag k="name" v="Singsåsaunet" />
		<tag k="place" v="hamlet" />
		<tag k="ssr:stedsnr" v="154856" />
	</node>
	<node lat="62.93210278187713" lon="10.163249992519292" id="-50933">
		<tag k="name" v="Nordpå" />
		<tag k="place" v="farm" />
		<tag k="ssr:stedsnr" v="154752" />
	</node>
	<node lat="62.91970555380655" lon="10.368469449482358" id="-50938">
		<tag k="name" v="Grindatrøa" />
		<tag k="place" v="farm" />
		<tag k="ssr:stedsnr" v="154918" />
	</node>
	<node lat="62.944388890886025" lon="10.334350003035183" id="-50941">
		<tag k="name" v="Vollen" />
		<tag k="place" v="farm" />
		<tag k="ssr:stedsnr" v="154955" />
	</node>
	<node lat="62.9231694472716" lon="10.228269437699138" id="-50942">
		<tag k="name" v="Bakken" />
		<tag k="place" v="farm" />
		<tag k="ssr:stedsnr" v="154956" />
	</node>
	<node lat="62.9287416683629" lon="10.243241662208321" id="-50943">
		<tag k="name" v="Sundlihaugen" />
		<tag k="place" v="farm" />
		<tag k="ssr:stedsnr" v="154957" />
	</node>
	<node lat="62.82346111392425" lon="10.55214722156528" id="-50944">
		<tag k="name" v="Ellevsgården" />
		<tag k="place" v="farm" />
		<tag k="ssr:stedsnr" v="154968" />
	</node>
	<node lat="62.82198611259529" lon="10.556847228768103" id="-50945">
		<tag k="alt_name" v="Storbudalen" />
		<tag k="name" v="Nyrønningen" />
		<tag k="place" v="farm" />
		<tag k="ssr:stedsnr" v="154969" />
	</node>
	<node lat="62.99987777648066" lon="10.462825007460198" id="-50946">
		<tag k="name" v="Øran" />
		<tag k="place" v="farm" />
		<tag k="ssr:stedsnr" v="154970" />
	</node>
	<node lat="63.01821944365271" lon="10.44481110235926" id="-50947">
		<tag k="name" v="Søgarden" />
		<tag k="place" v="farm" />
		<tag k="ssr:stedsnr" v="155000" />
	</node>
	<node lat="62.927627776710786" lon="10.658725006861467" id="-50955">
		<tag k="name" v="Kvernrød, Utstu" />
		<tag k="place" v="farm" />
		<tag k="ssr:stedsnr" v="215008" />
	</node>
	<node lat="62.91895277531389" lon="10.234813880927279" id="-50956">
		<tag k="name" v="Bjørkset" />
		<tag k="place" v="hamlet" />
		<tag k="ssr:stedsnr" v="215009" />
	</node>
	<node lat="62.73938889199959" lon="10.672827787266119" id="-50978">
		<tag k="name" v="Moaløa" />
		<tag k="place" v="locality" />
		<tag k="ssr:stedsnr" v="215232" />
	</node>
	<node lat="62.93784166702901" lon="10.18581666090496" id="-50989">
		<tag k="name" v="Sørbakken" />
		<tag k="place" v="farm" />
		<tag k="ssr:stedsnr" v="215573" />
	</node>
	<node lat="62.89784444155365" lon="10.139949993882654" id="-50992">
		<tag k="name" v="Presthusvollen" />
		<tag k="place" v="farm" />
		<tag k="ssr:stedsnr" v="215576" />
	</node>
	<node lat="62.99061666493408" lon="10.264802784561834" id="-51010">
		<tag k="name" v="Haukdalgrenda" />
		<tag k="place" v="hamlet" />
		<tag k="ssr:stedsnr" v="215425" />
	</node>
	<node lat="62.897269448733404" lon="10.502211112510935" id="-51015">
		<tag k="name" v="Grytdalsløa" />
		<tag k="place" v="locality" />
		<tag k="ssr:stedsnr" v="215496" />
	</node>
	<node lat="62.98533610738557" lon="10.241133333699569" id="-51016">
		<tag k="name" v="Stentrøa" />
		<tag k="place" v="farm" />
		<tag k="ssr:stedsnr" v="215602" />
	</node>
	<node lat="62.99155555458966" lon="10.49767500426336" id="-51018">
		<tag k="building" v="industrial" />
		<tag k="name" v="Kjellen mølle" />
		<tag k="ssr:stedsnr" v="215606" />
	</node>
	<node lat="62.864297225967995" lon="10.182838883387717" id="-51038">
		<tag k="alt_name" v="Gml. Øfsthusvollen" />
		<tag k="historic" v="shieling" />
		<tag k="name" v="Gamle Øfsthusvollen" />
		<tag k="place" v="isolated_dwelling" />
		<tag k="ssr:stedsnr" v="215891" />
	</node>
	<node lat="63.02274722659411" lon="10.233175000375805" id="-51047">
		<tag k="name" v="Liløkkja" />
		<tag k="place" v="farm" />
		<tag k="ssr:stedsnr" v="215930" />
	</node>
	<node lat="62.874447225240694" lon="10.493469437040709" id="-51049">
		<tag k="name" v="Kjelløenget" />
		<tag k="place" v="farm" />
		<tag k="ssr:stedsnr" v="215978" />
	</node>
	<node lat="62.88534074431706" lon="10.486090615414971" id="-51050">
		<tag k="fixme" v="consider place=hamlet" />
		<tag k="name" v="Enodden" />
		<tag k="place" v="farm" />
		<tag k="ssr:stedsnr" v="215980" />
	</node>
	<node lat="62.91509166675056" lon="10.329227769146737" id="-51052">
		<tag k="name" v="Bjørkåshaugen" />
		<tag k="place" v="farm" />
		<tag k="ssr:stedsnr" v="215993" />
	</node>
	<node lat="62.966819445771065" lon="10.198763891633089" id="-51055">
		<tag k="leisure" v="pitch" />
		<tag k="name" v="Hovsmoen stadion" />
		<tag k="ssr:stedsnr" v="241228" />
	</node>
	<node lat="62.82013888975332" lon="10.55199165910147" id="-51059">
		<tag k="name" v="Lyngen" />
		<tag k="place" v="farm" />
		<tag k="ssr:stedsnr" v="254297" />
	</node>
	<node lat="62.817199996396425" lon="10.56594445285409" id="-51060">
		<tag k="name" v="Budalsøya" />
		<tag k="place" v="farm" />
		<tag k="ssr:stedsnr" v="254298" />
	</node>
	<node lat="62.96274002021242" lon="10.719556952156518" id="-51061">
		<tag k="name" v="Singsåsbakk" />
		<tag k="old_name" v="Singsåsbakken" />
		<tag k="place" v="farm" />
		<tag k="ssr:stedsnr" v="254427" />
	</node>
	<node lat="62.82047236001554" lon="10.469872925030637" id="-51062">
		<tag k="alt_name" v="Jakobsvoll" />
		<tag k="fixme" v="consider place=hamlet" />
		<tag k="name" v="Jakopsvollen" />
		<tag k="place" v="farm" />
		<tag k="ssr:stedsnr" v="254302" />
	</node>
	<node lat="62.73587778004413" lon="10.653769445468665" id="-51066">
		<tag k="alt_name" v="Krigsvollvollen" />
		<tag k="historic" v="shieling" />
		<tag k="name" v="Krigsvollvoll" />
		<tag k="place" v="isolated_dwelling" />
		<tag k="ssr:stedsnr" v="254393" />
	</node>
	<node lat="63.00695277365983" lon="10.45805556267871" id="-51067">
		<tag k="name" v="Bortstu" />
		<tag k="place" v="farm" />
		<tag k="ssr:stedsnr" v="255033" />
	</node>
	<node lat="62.75415277752876" lon="10.63599722413361" id="-51073">
		<tag k="historic" v="shieling" />
		<tag k="name" v="Ellevsøya" />
		<tag k="place" v="isolated_dwelling" />
		<tag k="ssr:stedsnr" v="255266" />
	</node>
	<node lat="62.99250555413632" lon="10.954561110747665" id="-51075">
		<tag k="name" v="Dragåsvollan" />
		<tag k="place" v="isolated_dwelling" />
		<tag k="ssr:stedsnr" v="255276" />
	</node>
	<node lat="62.99209444047312" lon="10.653127782611106" id="-51079">
		<tag k="name" v="Livollen" />
		<tag k="place" v="locality" />
		<tag k="ssr:stedsnr" v="255507" />
	</node>
	<node lat="62.986886111598174" lon="10.586711106870982" id="-51080">
		<tag k="historic" v="shieling" />
		<tag k="name" v="Kotsvollan" />
		<tag k="place" v="isolated_dwelling" />
		<tag k="ssr:stedsnr" v="255511" />
	</node>
	<node lat="62.9697951139498" lon="10.48106800997918" id="-51082">
		<tag k="fixme" v="consider place=hamlet" />
		<tag k="name" v="Nordløkkja" />
		<tag k="place" v="farm" />
		<tag k="ssr:stedsnr" v="255523" />
	</node>
	<node lat="62.9547472211697" lon="10.611941671919427" id="-51084">
		<tag k="name" v="Kolbotnen" />
		<tag k="place" v="farm" />
		<tag k="ssr:stedsnr" v="255714" />
	</node>
	<node lat="63.01647222556183" lon="10.039561119275756" id="-51088">
		<tag k="alt_name" v="Aspeggvollen" />
		<tag k="historic" v="shieling" />
		<tag k="name" v="Aspeggsætra" />
		<tag k="old_name" v="Aspaggsætra" />
		<tag k="place" v="isolated_dwelling" />
		<tag k="ssr:stedsnr" v="255671" />
	</node>
	<node lat="63.02024444186414" lon="10.143658341542055" id="-51089">
		<tag k="alt_name" v="Solemsvollen" />
		<tag k="historic" v="shieling" />
		<tag k="name" v="Solemvollen" />
		<tag k="place" v="isolated_dwelling" />
		<tag k="ssr:stedsnr" v="255672" />
	</node>
	<node lat="63.06590277859309" lon="10.623744435405506" id="-51093">
		<tag k="historic" v="shieling" />
		<tag k="name" v="Kotsvollen" />
		<tag k="place" v="isolated_dwelling" />
		<tag k="ssr:stedsnr" v="255921" />
	</node>
	<node lat="62.95511557577332" lon="10.215181082687126" id="-51095">
		<tag k="fixme" v="consider place=hamlet" />
		<tag k="name" v="Holtbrauta" />
		<tag k="place" v="farm" />
		<tag k="ssr:stedsnr" v="255967" />
	</node>
	<node lat="62.972161110041135" lon="10.873738883068826" id="-51103">
		<tag k="name" v="Reiten Sørstu" />
		<tag k="place" v="farm" />
		<tag k="ssr:stedsnr" v="458134" />
	</node>
	<node lat="62.850850001554846" lon="10.447372225140905" id="-51112">
		<tag k="name" v="Møreggløkkja" />
		<tag k="place" v="farm" />
		<tag k="ssr:stedsnr" v="458988" />
	</node>
	<node lat="63.018113887027404" lon="10.420155552545936" id="-51113">
		<tag k="name" v="Aunegjerdet" />
		<tag k="place" v="farm" />
		<tag k="ssr:stedsnr" v="458990" />
	</node>
	<node lat="62.97609444292593" lon="10.46354443612597" id="-51129">
		<tag k="historic" v="shieling" />
		<tag k="name" v="Fremstuvollen" />
		<tag k="place" v="isolated_dwelling" />
		<tag k="ssr:stedsnr" v="458373" />
	</node>
	<node lat="62.99246111490803" lon="10.267822223728539" id="-51145">
		<tag k="name" v="Brandhaugen" />
		<tag k="place" v="farm" />
		<tag k="ssr:stedsnr" v="458592" />
	</node>
	<node lat="62.91429166342824" lon="10.137627769684501" id="-51146">
		<tag k="name" v="Haugagjerdet" />
		<tag k="place" v="farm" />
		<tag k="ssr:stedsnr" v="458593" />
	</node>
	<node lat="62.920774998988485" lon="10.144102777323228" id="-51147">
		<tag k="name" v="Djupdal" />
		<tag k="place" v="farm" />
		<tag k="ssr:stedsnr" v="458594" />
	</node>
	<node lat="62.94098888777255" lon="10.187974992382674" id="-51148">
		<tag k="name" v="Flåtten" />
		<tag k="old_name" v="Flotten" />
		<tag k="place" v="farm" />
		<tag k="ssr:stedsnr" v="458599" />
	</node>
	<node lat="62.83400555339679" lon="10.269980563162324" id="-51172">
		<tag k="historic" v="shieling" />
		<tag k="name" v="Grønset" />
		<tag k="place" v="isolated_dwelling" />
		<tag k="ssr:stedsnr" v="458798" />
	</node>
	<node lat="62.93047500120757" lon="10.229297216509853" id="-51199">
		<tag k="name" v="Søstuu" />
		<tag k="place" v="farm" />
		<tag k="ssr:stedsnr" v="458952" />
	</node>
	<node lat="62.9146138898782" lon="10.130616665933315" id="-51206">
		<tag k="name" v="Nordistuu" />
		<tag k="place" v="farm" />
		<tag k="ssr:stedsnr" v="275509" />
	</node>
	<node lat="62.86292499847565" lon="10.221611120817634" id="-51207">
		<tag k="name" v="Stensåsen" />
		<tag k="place" v="farm" />
		<tag k="ssr:stedsnr" v="275515" />
	</node>
	<node lat="62.93936944849204" lon="10.189388898231018" id="-51208">
		<tag k="fixme" v="multiple name tags, choose one and add the other to alt_name" />
		<tag k="name" v="Nedgarden;Fossem Nedgarden" />
		<tag k="place" v="farm" />
		<tag k="ssr:stedsnr" v="275473" />
	</node>
	<node lat="62.911305554938146" lon="10.126808332021477" id="-51209">
		<tag k="name" v="Systuu" />
		<tag k="place" v="farm" />
		<tag k="ssr:stedsnr" v="275475" />
	</node>
	<node lat="62.92290833438664" lon="10.210408331942189" id="-51210">
		<tag k="name" v="Nordi" />
		<tag k="place" v="farm" />
		<tag k="ssr:stedsnr" v="275481" />
	</node>
	<node lat="62.98186666519599" lon="10.201233331265328" id="-51211">
		<tag k="alt_name" v="Solem nordre" />
		<tag k="name" v="Nordre Solem" />
		<tag k="place" v="farm" />
		<tag k="ssr:stedsnr" v="275488" />
	</node>
	<node lat="62.916766668796036" lon="10.141963883890684" id="-51212">
		<tag k="name" v="Øyan" />
		<tag k="place" v="farm" />
		<tag k="ssr:stedsnr" v="275589" />
	</node>
	<node lat="62.94338888722064" lon="10.681658326354572" id="-51213">
		<tag k="name" v="Engesrønningen" />
		<tag k="place" v="farm" />
		<tag k="ssr:stedsnr" v="276002" />
	</node>
	<node lat="62.94297500191295" lon="10.669827782810724" id="-51215">
		<tag k="fixme" v="multiple name tags, choose one and add the other to alt_name" />
		<tag k="name" v="Sørgården;Fjeset" />
		<tag k="place" v="farm" />
		<tag k="ssr:stedsnr" v="276011" />
	</node>
	<node lat="62.938413890888874" lon="10.670441662755676" id="-51216">
		<tag k="name" v="Sørstu" />
		<tag k="place" v="farm" />
		<tag k="ssr:stedsnr" v="276015" />
	</node>
	<node lat="62.95968333299453" lon="10.695088897747276" id="-51218">
		<tag k="name" v="Digregrinda" />
		<tag k="place" v="farm" />
		<tag k="ssr:stedsnr" v="276020" />
	</node>
	<node lat="62.957858336217946" lon="10.713130556579268" id="-51219">
		<tag k="name" v="Bortstu" />
		<tag k="place" v="farm" />
		<tag k="ssr:stedsnr" v="276033" />
	</node>
	<node lat="62.944288886393615" lon="10.637561111326619" id="-51220">
		<tag k="name" v="Osøya Nordgården" />
		<tag k="place" v="farm" />
		<tag k="ssr:stedsnr" v="276035" />
	</node>
	<node lat="62.93960555663618" lon="10.645863895601154" id="-51224">
		<tag k="name" v="Forset Sørgården" />
		<tag k="place" v="farm" />
		<tag k="ssr:stedsnr" v="276041" />
	</node>
	<node lat="62.97885833021501" lon="10.559450003126962" id="-51229">
		<tag k="name" v="Nordstuøya" />
		<tag k="place" v="farm" />
		<tag k="ssr:stedsnr" v="276079" />
	</node>
	<node lat="62.837330559231546" lon="10.790686109816958" id="-51238">
		<tag k="historic" v="shieling" />
		<tag k="name" v="Litlflottvollen" />
		<tag k="place" v="isolated_dwelling" />
		<tag k="ssr:stedsnr" v="276206" />
	</node>
	<node lat="62.97471389270478" lon="10.456069436042208" id="-51249">
		<tag k="historic" v="shieling" />
		<tag k="name" v="Sørstuvollen" />
		<tag k="place" v="isolated_dwelling" />
		<tag k="ssr:stedsnr" v="276377" />
	</node>
	<node lat="62.96118889246741" lon="10.090283343120122" id="-51291">
		<tag k="fixme" v="consider tourism=alpine_hut or tourism=chalet" />
		<tag k="name" v="Iglbu" />
		<tag k="ssr:stedsnr" v="282019" />
		<tag k="tourism" v="wilderness_hut" />
	</node>
	<node lat="62.95602358179297" lon="10.189327446963757" id="-51294">
		<tag k="amenity" v="school" />
		<tag k="name" v="Soknedal skole" />
		<tag k="ssr:stedsnr" v="285828" />
	</node>
	<node lat="63.019582803586566" lon="10.432048721898157" id="-51295">
		<tag k="name" v="Nordgarden Røttum" />
		<tag k="old_name" v="Nordgarden Røttem" />
		<tag k="place" v="farm" />
		<tag k="ssr:stedsnr" v="290395" />
	</node>
	<node lat="63.028724998758165" lon="10.26036667612928" id="-51296">
		<tag k="name" v="Gifstad" />
		<tag k="place" v="farm" />
		<tag k="ssr:stedsnr" v="296979" />
	</node>
	<node lat="62.79487164446861" lon="10.922716927433417" id="-51297">
		<tag k="historic" v="shieling" />
		<tag k="name" v="Fjesetvollen" />
		<tag k="place" v="isolated_dwelling" />
		<tag k="ssr:stedsnr" v="315012" />
	</node>
	<node lat="63.01258611378165" lon="10.807316674279868" id="-51301">
		<tag k="historic" v="shieling" />
		<tag k="name" v="Granåsvollen" />
		<tag k="place" v="isolated_dwelling" />
		<tag k="ssr:stedsnr" v="315160" />
	</node>
	<node lat="62.735266663076686" lon="10.65997777470192" id="-51305">
		<tag k="alt_name" v="Bekkvollen" />
		<tag k="historic" v="shieling" />
		<tag k="name" v="Bekkvoll" />
		<tag k="place" v="isolated_dwelling" />
		<tag k="ssr:stedsnr" v="315362" />
	</node>
	<node lat="62.76172777774648" lon="10.435766674447237" id="-51306">
		<tag k="alt_name" v="Solemsøya" />
		<tag k="historic" v="shieling" />
		<tag k="name" v="Solemsvollen" />
		<tag k="place" v="isolated_dwelling" />
		<tag k="ssr:stedsnr" v="315259" />
	</node>
	<node lat="62.73981944328827" lon="10.65226943953814" id="-51308">
		<tag k="alt_name" v="Bjørkåsvollen" />
		<tag k="historic" v="shieling" />
		<tag k="name" v="Bjørkåsvoll" />
		<tag k="place" v="isolated_dwelling" />
		<tag k="ssr:stedsnr" v="315403" />
	</node>
	<node lat="62.736958331934886" lon="10.46608888164932" id="-51309">
		<tag k="alt_name" v="Gjelvoll" />
		<tag k="historic" v="shieling" />
		<tag k="name" v="Gjelvollen" />
		<tag k="place" v="isolated_dwelling" />
		<tag k="ssr:stedsnr" v="315408" />
	</node>
	<node lat="62.95062500121559" lon="10.494458324536403" id="-51310">
		<tag k="name" v="Rønningsgrinda" />
		<tag k="place" v="farm" />
		<tag k="ssr:stedsnr" v="315708" />
	</node>
	<node lat="62.90312222406627" lon="10.694958340676248" id="-51311">
		<tag k="name" v="Litlflotten" />
		<tag k="place" v="farm" />
		<tag k="ssr:stedsnr" v="315603" />
	</node>
	<node lat="62.909119443185034" lon="10.4745500086962" id="-51312">
		<tag k="name" v="Bakkløkkja" />
		<tag k="place" v="farm" />
		<tag k="ssr:stedsnr" v="315606" />
	</node>
	<node lat="62.91224721926177" lon="10.35020832508327" id="-51314">
		<tag k="alt_name" v="Økdalsholtet" />
		<tag k="name" v="Økdalsmoen" />
		<tag k="place" v="farm" />
		<tag k="ssr:stedsnr" v="315619" />
	</node>
	<node lat="62.896802904928194" lon="10.48627170673232" id="-51316">
		<tag k="fixme" v="consider place=hamlet" />
		<tag k="name" v="Bjørklia" />
		<tag k="place" v="farm" />
		<tag k="ssr:stedsnr" v="315638" />
	</node>
	<node lat="62.88943139923935" lon="10.705705426692434" id="-51317">
		<tag k="fixme" v="consider place=hamlet" />
		<tag k="name" v="Løvrød" />
		<tag k="place" v="farm" />
		<tag k="ssr:stedsnr" v="315655" />
	</node>
	<node lat="63.0673416681312" lon="10.714236110193506" id="-51319">
		<tag k="name" v="Melavollen" />
		<tag k="place" v="isolated_dwelling" />
		<tag k="ssr:stedsnr" v="315903" />
	</node>
	<node lat="62.9521333323167" lon="10.211650001277366" id="-51320">
		<tag k="name" v="Solem" />
		<tag k="place" v="farm" />
		<tag k="ssr:stedsnr" v="315955" />
	</node>
	<node lat="62.8447443555275" lon="10.449983758362174" id="-51322">
		<tag k="fixme" v="consider place=hamlet" />
		<tag k="name" v="Melen" />
		<tag k="place" v="farm" />
		<tag k="ssr:stedsnr" v="316405" />
	</node>
	<node lat="62.849469447704564" lon="10.523872227455467" id="-51323">
		<tag k="name" v="Moen" />
		<tag k="place" v="farm" />
		<tag k="ssr:stedsnr" v="316407" />
	</node>
	<node lat="62.885983336388314" lon="10.717436107867197" id="-51325">
		<tag k="name" v="Vollen" />
		<tag k="place" v="farm" />
		<tag k="ssr:stedsnr" v="316704" />
	</node>
	<node lat="62.870625664733076" lon="10.267519270499209" id="-51327">
		<tag k="fixme" v="consider place=hamlet" />
		<tag k="name" v="Holmen" />
		<tag k="place" v="farm" />
		<tag k="ssr:stedsnr" v="316720" />
	</node>
	<node lat="62.98187777942676" lon="10.22138610357344" id="-51331">
		<tag k="name" v="Estenstad" />
		<tag k="place" v="farm" />
		<tag k="ssr:stedsnr" v="316907" />
	</node>
	<node lat="62.96970000286948" lon="10.886055545978229" id="-51336">
		<tag k="name" v="Løsetøya" />
		<tag k="place" v="farm" />
		<tag k="ssr:stedsnr" v="336120" />
	</node>
	<node lat="62.954041670876464" lon="10.702938888293108" id="-51341">
		<tag k="name" v="Bortstu" />
		<tag k="place" v="farm" />
		<tag k="ssr:stedsnr" v="336002" />
	</node>
	<node lat="62.91291389095168" lon="10.63230000749925" id="-51342">
		<tag k="name" v="Brunhytta" />
		<tag k="place" v="isolated_dwelling" />
		<tag k="ssr:stedsnr" v="336006" />
	</node>
	<node lat="62.92785000170915" lon="10.704855558985647" id="-51343">
		<tag k="name" v="Ramnåsen" />
		<tag k="place" v="farm" />
		<tag k="ssr:stedsnr" v="336007" />
	</node>
	<node lat="62.9443805570686" lon="10.656261117692567" id="-51344">
		<tag k="name" v="Solli" />
		<tag k="place" v="farm" />
		<tag k="ssr:stedsnr" v="336009" />
	</node>
	<node lat="62.96360555661038" lon="10.693811111894783" id="-51346">
		<tag k="name" v="Utstu" />
		<tag k="place" v="farm" />
		<tag k="ssr:stedsnr" v="336018" />
	</node>
	<node lat="62.973450003929315" lon="10.559569451605268" id="-51354">
		<tag k="name" v="Troøybakken" />
		<tag k="place" v="isolated_dwelling" />
		<tag k="ssr:stedsnr" v="336039" />
	</node>
	<node lat="62.89643439207641" lon="10.25016668909031" id="-51360">
		<tag k="fixme" v="consider place=hamlet" />
		<tag k="name" v="Holtan" />
		<tag k="place" v="farm" />
		<tag k="ssr:stedsnr" v="336342" />
	</node>
	<node lat="62.96141388675216" lon="10.558055556489984" id="-51369">
		<tag k="historic" v="shieling" />
		<tag k="name" v="Øyahogstret" />
		<tag k="place" v="isolated_dwelling" />
		<tag k="ssr:stedsnr" v="336513" />
	</node>
	<node lat="62.93140904835755" lon="10.174138945492206" id="-51371">
		<tag k="fixme" v="consider place=hamlet" />
		<tag k="name" v="Bjørga" />
		<tag k="place" v="farm" />
		<tag k="ssr:stedsnr" v="336526" />
	</node>
	<node lat="62.937322219318624" lon="10.208358333997754" id="-51373">
		<tag k="name" v="Bakkhåggån" />
		<tag k="place" v="farm" />
		<tag k="ssr:stedsnr" v="336533" />
	</node>
	<node lat="62.925263892492346" lon="10.141411104818888" id="-51374">
		<tag k="name" v="Bjørklund" />
		<tag k="place" v="farm" />
		<tag k="ssr:stedsnr" v="336538" />
	</node>
	<node lat="62.99011156601176" lon="10.242110155248337" id="-51375">
		<tag k="fixme" v="consider place=hamlet" />
		<tag k="name" v="Skjærlia" />
		<tag k="place" v="farm" />
		<tag k="ssr:stedsnr" v="336542" />
	</node>
	<node lat="62.86896666910978" lon="10.50132221300602" id="-51382">
		<tag k="name" v="Krigsvollvoll" />
		<tag k="place" v="locality" />
		<tag k="ssr:stedsnr" v="336429" />
	</node>
	<node lat="62.954394441334806" lon="10.930549994254035" id="-51396">
		<tag k="name" v="Bollingmoløkkja" />
		<tag k="place" v="locality" />
		<tag k="ssr:stedsnr" v="336842" />
	</node>
	<node lat="62.84923055444668" lon="10.24838889455681" id="-51399">
		<tag k="name" v="Uti" />
		<tag k="place" v="farm" />
		<tag k="ssr:stedsnr" v="336592" />
	</node>
	<node lat="63.023416666086526" lon="10.380708330617047" id="-51406">
		<tag k="historic" v="shieling" />
		<tag k="name" v="Aunslættet" />
		<tag k="place" v="isolated_dwelling" />
		<tag k="ssr:stedsnr" v="336792" />
	</node>
	<node lat="62.90587499894346" lon="10.402841662704386" id="-51410">
		<tag k="name" v="Gjerdet" />
		<tag k="place" v="farm" />
		<tag k="ssr:stedsnr" v="336907" />
	</node>
	<node lat="63.01489999850487" lon="10.439083334898578" id="-51411">
		<tag k="name" v="Uttun" />
		<tag k="place" v="farm" />
		<tag k="ssr:stedsnr" v="336994" />
	</node>
	<node lat="62.95649080137555" lon="10.204121870337843" id="-51412">
		<tag k="name" v="Støvran" />
		<tag k="place" v="farm" />
		<tag k="ssr:stedsnr" v="344201" />
	</node>
	<node lat="62.90507158351121" lon="10.21889212684676" id="-51413">
		<tag k="fixme" v="consider place=hamlet" />
		<tag k="name" v="Gillset" />
		<tag k="place" v="farm" />
		<tag k="ssr:stedsnr" v="350206" />
	</node>
	<node lat="62.94541397889328" lon="10.196295670957694" id="-51414">
		<tag k="fixme" v="consider place=hamlet" />
		<tag k="name" v="Hanshus" />
		<tag k="place" v="farm" />
		<tag k="ssr:stedsnr" v="475057" />
	</node>
	<node lat="62.73770833165333" lon="10.467416669853488" id="-51416">
		<tag k="alt_name" v="Enmovoll" />
		<tag k="historic" v="shieling" />
		<tag k="name" v="Enmovollen" />
		<tag k="place" v="isolated_dwelling" />
		<tag k="ssr:stedsnr" v="375384" />
	</node>
	<node lat="62.812108331131164" lon="10.440125009377986" id="-51418">
		<tag k="alt_name" v="Refsetvoll" />
		<tag k="name" v="Refsetvollen" />
		<tag k="place" v="isolated_dwelling" />
		<tag k="ssr:stedsnr" v="376303" />
	</node>
	<node lat="62.76996666977103" lon="10.63877500366991" id="-51419">
		<tag k="alt_name" v="Rognesvoll" />
		<tag k="historic" v="shieling" />
		<tag k="name" v="Rognesvollen" />
		<tag k="place" v="isolated_dwelling" />
		<tag k="ssr:stedsnr" v="376274" />
	</node>
	<node lat="62.77311666876062" lon="10.619472220977594" id="-51420">
		<tag k="historic" v="shieling" />
		<tag k="name" v="Vollavollen" />
		<tag k="place" v="isolated_dwelling" />
		<tag k="ssr:stedsnr" v="376276" />
	</node>
	<node lat="62.78864999948221" lon="10.422588886859852" id="-51421">
		<tag k="historic" v="shieling" />
		<tag k="name" v="Mosvollen" />
		<tag k="place" v="isolated_dwelling" />
		<tag k="ssr:stedsnr" v="376288" />
	</node>
	<node lat="62.818508545432536" lon="10.458714916344352" id="-51422">
		<tag k="fixme" v="consider place=hamlet" />
		<tag k="loc_name" v="Sønmoen" />
		<tag k="name" v="Endalen" />
		<tag k="place" v="farm" />
		<tag k="ssr:stedsnr" v="376326" />
	</node>
	<node lat="62.97993200601098" lon="10.897091020423375" id="-51423">
		<tag k="alt_name" v="Sørstu" />
		<tag k="fixme" v="consider place=hamlet" />
		<tag k="name" v="Almås" />
		<tag k="place" v="farm" />
		<tag k="ssr:stedsnr" v="376504" />
	</node>
	<node lat="62.97603894247083" lon="10.545879759084825" id="-51424">
		<tag k="fixme" v="consider place=hamlet" />
		<tag k="name" v="Hetling" />
		<tag k="place" v="farm" />
		<tag k="ssr:stedsnr" v="376522" />
	</node>
	<node lat="62.9785347323438" lon="10.569783995980178" id="-51425">
		<tag k="fixme" v="consider place=hamlet" />
		<tag k="name" v="Kot" />
		<tag k="place" v="farm" />
		<tag k="ssr:stedsnr" v="376517" />
	</node>
	<node lat="62.98091944563403" lon="10.247808331114385" id="-51426">
		<tag k="name" v="Sæterhaugen" />
		<tag k="place" v="farm" />
		<tag k="ssr:stedsnr" v="376526" />
	</node>
	<node lat="62.975874998108104" lon="10.236622223690253" id="-51427">
		<tag k="name" v="Bergan" />
		<tag k="place" v="farm" />
		<tag k="ssr:stedsnr" v="376533" />
	</node>
	<node lat="62.96177222303051" lon="10.829497231021353" id="-51428">
		<tag k="name" v="Osan" />
		<tag k="place" v="farm" />
		<tag k="ssr:stedsnr" v="376475" />
	</node>
	<node lat="62.90809588458371" lon="10.344704391952197" id="-51431">
		<tag k="fixme" v="consider place=hamlet" />
		<tag k="name" v="Bakkan" />
		<tag k="place" v="farm" />
		<tag k="ssr:stedsnr" v="385856" />
	</node>
	<node lat="62.95669166305377" lon="10.789469451486735" id="-51432">
		<tag k="name" v="Sør-Hindbjørga" />
		<tag k="place" v="farm" />
		<tag k="ssr:stedsnr" v="482887" />
	</node>
	<node lat="62.95409999875305" lon="10.703725005881953" id="-51435">
		<tag k="name" v="Utstu" />
		<tag k="place" v="farm" />
		<tag k="ssr:stedsnr" v="397002" />
	</node>
	<node lat="62.95550555487413" lon="10.738588880575247" id="-51437">
		<tag k="name" v="Moan" />
		<tag k="place" v="farm" />
		<tag k="ssr:stedsnr" v="397112" />
	</node>
	<node lat="62.99968055921918" lon="10.327572215683416" id="-51439">
		<tag k="historic" v="shieling" />
		<tag k="name" v="Sandvollen" />
		<tag k="place" v="isolated_dwelling" />
		<tag k="ssr:stedsnr" v="397137" />
	</node>
	<node lat="62.859300001880484" lon="10.441241660739314" id="-51441">
		<tag k="historic" v="shieling" />
		<tag k="name" v="Gammelvoll" />
		<tag k="place" v="isolated_dwelling" />
		<tag k="ssr:stedsnr" v="397181" />
	</node>
	<node lat="62.91360046501818" lon="10.128422579292515" id="-51446">
		<tag k="fixme" v="consider place=hamlet" />
		<tag k="name" v="Haugen" />
		<tag k="place" v="farm" />
		<tag k="ssr:stedsnr" v="397311" />
	</node>
	<node lat="62.88701388655642" lon="10.24913333069352" id="-51462">
		<tag k="name" v="Holtmoen" />
		<tag k="place" v="farm" />
		<tag k="ssr:stedsnr" v="397584" />
	</node>
	<node lat="62.997849395526735" lon="10.525550512216144" id="-51463">
		<tag k="alt_name" v="Rødsbjørga" />
		<tag k="loc_name" v="Røsbjørgan" />
		<tag k="name" v="Røsbjørga" />
		<tag k="place" v="hamlet" />
		<tag k="ssr:stedsnr" v="397589" />
	</node>
	<node lat="63.00565738988022" lon="10.237820199698284" id="-51464">
		<tag k="fixme" v="consider place=hamlet" />
		<tag k="name" v="Øverøyan" />
		<tag k="place" v="farm" />
		<tag k="ssr:stedsnr" v="397594" />
	</node>
	<node lat="62.96815445334201" lon="10.168496450465724" id="-51465">
		<tag k="name" v="Kåsan" />
		<tag k="place" v="farm" />
		<tag k="ssr:stedsnr" v="397598" />
	</node>
	<node lat="62.98774493638308" lon="10.236853601218076" id="-51476">
		<tag k="alt_name" v="Snøan" />
		<tag k="fixme" v="consider place=hamlet" />
		<tag k="name" v="Snøa" />
		<tag k="place" v="farm" />
		<tag k="ssr:stedsnr" v="397628" />
	</node>
	<node lat="62.864830557660476" lon="10.75672222770956" id="-51484">
		<tag k="historic" v="shieling" />
		<tag k="name" v="Trollhaugvollen" />
		<tag k="place" v="isolated_dwelling" />
		<tag k="ssr:stedsnr" v="397777" />
	</node>
	<node lat="62.98986666791794" lon="10.343822228128852" id="-51489">
		<tag k="historic" v="shieling" />
		<tag k="name" v="Nordistuvollen" />
		<tag k="place" v="isolated_dwelling" />
		<tag k="ssr:stedsnr" v="397792" />
	</node>
	<node lat="62.79146388946497" lon="10.348430549898115" id="-51496">
		<tag k="historic" v="shieling" />
		<tag k="name" v="Osphaugvollen" />
		<tag k="place" v="isolated_dwelling" />
		<tag k="ssr:stedsnr" v="397909" />
	</node>
	<node lat="63.00320278098263" lon="10.462819453363574" id="-51499">
		<tag k="alt_name" v="Sørstuu" />
		<tag k="name" v="Sørstu" />
		<tag k="place" v="farm" />
		<tag k="ssr:stedsnr" v="397976" />
	</node>
	<node lat="62.9533722218364" lon="10.479816666552093" id="-51500">
		<tag k="name" v="Haugen" />
		<tag k="place" v="farm" />
		<tag k="ssr:stedsnr" v="397980" />
	</node>
	<node lat="62.88114721859876" lon="10.706238880864744" id="-51511">
		<tag k="loc_name" v="Odden" />
		<tag k="name" v="Forodden" />
		<tag k="place" v="farm" />
		<tag k="ssr:stedsnr" v="421899" />
	</node>
	<node lat="62.883911112414836" lon="10.698844447610186" id="-51512">
		<tag k="alt_name" v="Forodden" />
		<tag k="name" v="Oddryggen" />
		<tag k="place" v="farm" />
		<tag k="ssr:stedsnr" v="421901" />
	</node>
	<node lat="63.01743888889773" lon="10.437522224959498" id="-51513">
		<tag k="leisure" v="pitch" />
		<tag k="name" v="Storøra stadion" />
		<tag k="ssr:stedsnr" v="423243" />
	</node>
	<node lat="62.726517101674325" lon="10.70724392378137" id="-51515">
		<tag k="historic" v="shieling" />
		<tag k="name" v="Setrengsvollen" />
		<tag k="place" v="isolated_dwelling" />
		<tag k="ssr:stedsnr" v="436358" />
	</node>
	<node lat="62.72161944634839" lon="10.511569442098633" id="-51516">
		<tag k="alt_name" v="Jakobsvollen;Jakobsvollvoll" />
		<tag k="historic" v="shieling" />
		<tag k="name" v="Jakobsvollvollen" />
		<tag k="place" v="isolated_dwelling" />
		<tag k="ssr:stedsnr" v="436359" />
	</node>
	<node lat="62.73102777966117" lon="10.474249990338194" id="-51518">
		<tag k="fixme" v="multiple name tags, choose one and add the other to alt_name" />
		<tag k="historic" v="shieling" />
		<tag k="name" v="Enmovollan;Nordenmovollen" />
		<tag k="place" v="isolated_dwelling" />
		<tag k="ssr:stedsnr" v="436367" />
	</node>
	<node lat="62.820322222388654" lon="10.87115000097984" id="-51519">
		<tag k="historic" v="shieling" />
		<tag k="name" v="Fløttavollan" />
		<tag k="place" v="isolated_dwelling" />
		<tag k="ssr:stedsnr" v="437056" />
	</node>
	<node lat="62.792311108710635" lon="10.449177770446134" id="-51523">
		<tag k="historic" v="shieling" />
		<tag k="name" v="Dalavollen" />
		<tag k="place" v="isolated_dwelling" />
		<tag k="ssr:stedsnr" v="437310" />
	</node>
	<node lat="62.97239721916739" lon="10.831161114256062" id="-51528">
		<tag k="name" v="Husmyra" />
		<tag k="place" v="locality" />
		<tag k="ssr:stedsnr" v="437508" />
	</node>
	<node lat="62.935581417906896" lon="10.36316833103319" id="-51529">
		<tag k="fixme" v="consider place=hamlet" />
		<tag k="name" v="Høksegga" />
		<tag k="place" v="farm" />
		<tag k="ssr:stedsnr" v="437711" />
	</node>
	<node lat="62.880414122810414" lon="10.38343145749999" id="-51532">
		<tag k="alt_name" v="Amdalvollen Lyset" />
		<tag k="fixme" v="consider place=hamlet" />
		<tag k="name" v="Lyset" />
		<tag k="place" v="farm" />
		<tag k="ssr:stedsnr" v="437659" />
	</node>
	<node lat="62.88470061638354" lon="10.257931490992492" id="-51533">
		<tag k="alt_name" v="Fløttum" />
		<tag k="fixme" v="consider place=hamlet" />
		<tag k="name" v="Flottom" />
		<tag k="place" v="farm" />
		<tag k="ssr:stedsnr" v="437662" />
	</node>
	<node lat="62.88540833210584" lon="10.277794452543171" id="-51534">
		<tag k="name" v="Øver-Egga" />
		<tag k="place" v="farm" />
		<tag k="ssr:stedsnr" v="437663" />
	</node>
	<node lat="62.8930444483802" lon="10.480174991210044" id="-51535">
		<tag k="name" v="Håggån" />
		<tag k="place" v="farm" />
		<tag k="ssr:stedsnr" v="437667" />
	</node>
	<node lat="62.86286388742135" lon="10.17410833349203" id="-51536">
		<tag k="alt_name" v="Åsagjerdvollen" />
		<tag k="historic" v="shieling" />
		<tag k="name" v="Innsetsætra" />
		<tag k="place" v="isolated_dwelling" />
		<tag k="ssr:stedsnr" v="437851" />
	</node>
	<node lat="62.91933010212877" lon="10.313662632809475" id="-51537">
		<tag k="fixme" v="consider place=hamlet" />
		<tag k="name" v="Gorset" />
		<tag k="place" v="farm" />
		<tag k="ssr:stedsnr" v="437750" />
	</node>
	<node lat="63.01747222553863" lon="10.38213887982896" id="-51538">
		<tag k="name" v="Granøya" />
		<tag k="place" v="farm" />
		<tag k="ssr:stedsnr" v="437950" />
	</node>
	<node lat="63.02286111453964" lon="10.26838888442924" id="-51539">
		<tag k="name" v="Hallrånnån" />
		<tag k="place" v="farm" />
		<tag k="ssr:stedsnr" v="437956" />
	</node>
	<node lat="63.00549444850823" lon="10.236430549028379" id="-51540">
		<tag k="name" v="Øverøyan" />
		<tag k="place" v="farm" />
		<tag k="ssr:stedsnr" v="437959" />
	</node>
	<node lat="63.017155555913185" lon="10.569661102123302" id="-51543">
		<tag k="alt_name" v="Rødsbjørgsetra" />
		<tag k="historic" v="shieling" />
		<tag k="name" v="Røsbjørgvollen" />
		<tag k="place" v="isolated_dwelling" />
		<tag k="ssr:stedsnr" v="437966" />
	</node>
	<node lat="62.81893611198819" lon="10.557755555914753" id="-51544">
		<tag k="name" v="Plasshaugan" />
		<tag k="place" v="farm" />
		<tag k="ssr:stedsnr" v="445338" />
	</node>
	<node lat="62.913233335703275" lon="10.68947500935587" id="-51545">
		<tag k="name" v="Kosberggrinda" />
		<tag k="place" v="farm" />
		<tag k="ssr:stedsnr" v="458009" />
	</node>
	<node lat="62.938691662624706" lon="10.666827782518967" id="-51547">
		<tag k="name" v="Nordstu" />
		<tag k="place" v="farm" />
		<tag k="ssr:stedsnr" v="458015" />
	</node>
	<node lat="62.98127777751196" lon="10.555513887814215" id="-51551">
		<tag k="name" v="Småøyan" />
		<tag k="place" v="farm" />
		<tag k="ssr:stedsnr" v="458076" />
	</node>
	<node lat="62.976858332825806" lon="10.56228333830464" id="-51552">
		<tag k="name" v="Marheim" />
		<tag k="place" v="isolated_dwelling" />
		<tag k="ssr:stedsnr" v="458078" />
	</node>
	<node lat="62.959108333153054" lon="10.726775009374112" id="-51557">
		<tag k="name" v="Sørgården" />
		<tag k="place" v="farm" />
		<tag k="ssr:stedsnr" v="458106" />
	</node>
	<node lat="62.94959999907278" lon="10.754655546196188" id="-51559">
		<tag k="name" v="Nymoen" />
		<tag k="place" v="farm" />
		<tag k="ssr:stedsnr" v="458117" />
	</node>
	<node lat="62.95605555509299" lon="10.60122222022062" id="-51561">
		<tag k="name" v="Nordkjellan" />
		<tag k="place" v="farm" />
		<tag k="ssr:stedsnr" v="458121" />
	</node>
	<node lat="62.82064721889582" lon="10.555152777150537" id="-51565">
		<tag k="building" v="industrial" />
		<tag k="name" v="Plasshaugsaga" />
		<tag k="ssr:stedsnr" v="458310" />
	</node>
	<node lat="62.95169444166908" lon="10.183849993407389" id="-51576">
		<tag k="name" v="Nordstuu" />
		<tag k="place" v="farm" />
		<tag k="ssr:stedsnr" v="458603" />
	</node>
	<node lat="62.94121666336701" lon="10.198144443280414" id="-51577">
		<tag k="name" v="Anshus" />
		<tag k="place" v="farm" />
		<tag k="ssr:stedsnr" v="458604" />
	</node>
	<node lat="62.955493759750766" lon="10.190496923191256" id="-51579">
		<tag k="fixme" v="consider place=hamlet" />
		<tag k="name" v="Hov" />
		<tag k="place" v="farm" />
		<tag k="ssr:stedsnr" v="458608" />
	</node>
	<node lat="62.98924722335837" lon="10.504483329517223" id="-51581">
		<tag k="historic" v="shieling" />
		<tag k="name" v="Litlvollen" />
		<tag k="place" v="isolated_dwelling" />
		<tag k="ssr:stedsnr" v="458617" />
	</node>
	<node lat="62.86273888529721" lon="10.244830553468612" id="-51590">
		<tag k="name" v="Frem" />
		<tag k="place" v="farm" />
		<tag k="ssr:stedsnr" v="458569" />
	</node>
	<node lat="62.958913885770755" lon="10.177702770336802" id="-51597">
		<tag k="name" v="Bergsgjerdet" />
		<tag k="place" v="farm" />
		<tag k="ssr:stedsnr" v="458664" />
	</node>
	<node lat="62.987100001447864" lon="10.223336107888993" id="-51599">
		<tag k="name" v="Sollia" />
		<tag k="place" v="farm" />
		<tag k="ssr:stedsnr" v="458670" />
	</node>
	<node lat="62.954680559250974" lon="10.73763332503462" id="-51609">
		<tag k="name" v="Moabakken" />
		<tag k="place" v="farm" />
		<tag k="ssr:stedsnr" v="458868" />
	</node>
	<node lat="62.93673611451587" lon="10.925363897058542" id="-51613">
		<tag k="historic" v="shieling" />
		<tag k="name" v="Basmovollen" />
		<tag k="place" v="isolated_dwelling" />
		<tag k="ssr:stedsnr" v="458878" />
	</node>
	<node lat="62.74202499841492" lon="10.461572231590813" id="-51616">
		<tag k="name" v="Knausen" />
		<tag k="place" v="isolated_dwelling" />
		<tag k="ssr:stedsnr" v="458918" />
	</node>
	<node lat="62.93290121260424" lon="10.361629104165468" id="-51618">
		<tag k="name" v="Kalvhåggån" />
		<tag k="place" v="farm" />
		<tag k="ssr:stedsnr" v="458925" />
	</node>
	<node lat="63.030669444617864" lon="10.292825007264788" id="-51619">
		<tag k="name" v="Ekserplassen" />
		<tag k="place" v="farm" />
		<tag k="ssr:stedsnr" v="458930" />
	</node>
	<node lat="63.02999999929671" lon="10.300686103625742" id="-51624">
		<tag k="name" v="Mo" />
		<tag k="place" v="farm" />
		<tag k="ssr:stedsnr" v="458963" />
	</node>
	<node lat="62.965816663458895" lon="10.568044451617938" id="-51628">
		<tag k="alt_name" v="Grytdal, Nygården" />
		<tag k="fixme" v="multiple name tags, choose one and add the other to alt_name" />
		<tag k="name" v="Nygården;Nygården Grytdal" />
		<tag k="place" v="farm" />
		<tag k="ssr:stedsnr" v="458986" />
	</node>
	<node lat="63.0034502462143" lon="10.460425887162256" id="-51633">
		<tag k="name" v="Rognes" />
		<tag k="place" v="hamlet" />
		<tag k="ssr:stedsnr" v="679030" />
	</node>
	<node lat="63.01268055246737" lon="10.438286102770432" id="-51636">
		<tag k="alt_name" v="Auneråa" />
		<tag k="name" v="Aune" />
		<tag k="place" v="farm" />
		<tag k="ssr:stedsnr" v="679041" />
	</node>
	<node lat="62.80826388494705" lon="10.237708340552567" id="-51640">
		<tag k="historic" v="shieling" />
		<tag k="name" v="Fagerbekkvollan" />
		<tag k="place" v="isolated_dwelling" />
		<tag k="ssr:stedsnr" v="679269" />
	</node>
	<node lat="62.824280551322296" lon="10.37280832379028" id="-51641">
		<tag k="historic" v="shieling" />
		<tag k="name" v="Hustøftvollen" />
		<tag k="place" v="isolated_dwelling" />
		<tag k="ssr:stedsnr" v="679271" />
	</node>
	<node lat="62.834222218270185" lon="10.24984999684343" id="-51642">
		<tag k="historic" v="shieling" />
		<tag k="name" v="Løkkjvollan" />
		<tag k="place" v="isolated_dwelling" />
		<tag k="ssr:stedsnr" v="679282" />
	</node>
	<node lat="62.82309166766556" lon="10.54390277507157" id="-51644">
		<tag k="name" v="Brua" />
		<tag k="place" v="farm" />
		<tag k="ssr:stedsnr" v="679289" />
	</node>
	<node lat="62.831234337514054" lon="10.48754035159028" id="-51645">
		<tag k="fixme" v="consider place=hamlet" />
		<tag k="name" v="Ropphaugen" />
		<tag k="place" v="farm" />
		<tag k="ssr:stedsnr" v="679293" />
	</node>
	<node lat="62.8277333307718" lon="10.378583334770562" id="-51647">
		<tag k="historic" v="shieling" />
		<tag k="name" v="Solemsvollen" />
		<tag k="place" v="isolated_dwelling" />
		<tag k="ssr:stedsnr" v="679297" />
	</node>
	<node lat="62.82634166918548" lon="10.384091673774316" id="-51648">
		<tag k="historic" v="shieling" />
		<tag k="name" v="Sørlivollen" />
		<tag k="place" v="isolated_dwelling" />
		<tag k="ssr:stedsnr" v="679298" />
	</node>
	<node lat="62.745324998983726" lon="10.650833328859985" id="-51649">
		<tag k="historic" v="shieling" />
		<tag k="name" v="Skarpmoen" />
		<tag k="place" v="isolated_dwelling" />
		<tag k="ssr:stedsnr" v="679386" />
	</node>
	<node lat="62.969977781338265" lon="10.88462223217383" id="-51651">
		<tag k="name" v="Løset" />
		<tag k="place" v="farm" />
		<tag k="ssr:stedsnr" v="679428" />
	</node>
	<node lat="62.906050002593496" lon="10.46823333229643" id="-51652">
		<tag k="name" v="Svarmoen" />
		<tag k="place" v="farm" />
		<tag k="ssr:stedsnr" v="679593" />
	</node>
	<node lat="62.959748176263346" lon="10.299240337577672" id="-51653">
		<tag k="fixme" v="consider place=hamlet" />
		<tag k="name" v="Hongrød" />
		<tag k="place" v="farm" />
		<tag k="ssr:stedsnr" v="679498" />
	</node>
	<node lat="62.96627752069866" lon="10.13453638565169" id="-51656">
		<tag k="fixme" v="multiple name tags, choose one and add the other to alt_name" />
		<tag k="historic" v="shieling" />
		<tag k="name" v="Gynnildsætra;Gynnildvollen" />
		<tag k="place" v="isolated_dwelling" />
		<tag k="ssr:stedsnr" v="679751" />
	</node>
	<node lat="62.94019247327539" lon="10.199989873581666" id="-51660">
		<tag k="fixme" v="consider place=hamlet" />
		<tag k="name" v="Anshus" />
		<tag k="place" v="farm" />
		<tag k="ssr:stedsnr" v="679939" />
	</node>
	<node lat="62.94477873035739" lon="10.21407058081922" id="-51661">
		<tag k="fixme" v="consider place=hamlet" />
		<tag k="name" v="Håvåsen" />
		<tag k="place" v="farm" />
		<tag k="ssr:stedsnr" v="679942" />
	</node>
	<node lat="62.84896110894103" lon="10.796563895273266" id="-51662">
		<tag k="historic" v="shieling" />
		<tag k="name" v="Holvollen" />
		<tag k="place" v="isolated_dwelling" />
		<tag k="ssr:stedsnr" v="680083" />
	</node>
	<node lat="62.84282221814451" lon="10.373397225293633" id="-51666">
		<tag k="historic" v="shieling" />
		<tag k="name" v="Stenbruvollan" />
		<tag k="place" v="isolated_dwelling" />
		<tag k="ssr:stedsnr" v="680390" />
	</node>
	<node lat="62.976711108976424" lon="10.884366662808585" id="-51671">
		<tag k="alt_name" v="Grøfset" />
		<tag k="name" v="Brennbakk" />
		<tag k="place" v="farm" />
		<tag k="ssr:stedsnr" v="680536" />
	</node>
	<node lat="62.97957222327126" lon="10.89248054625827" id="-51672">
		<tag k="name" v="Almåsgjardet" />
		<tag k="place" v="farm" />
		<tag k="ssr:stedsnr" v="680553" />
	</node>
	<node lat="62.954356938621395" lon="10.625413827630728" id="-51676">
		<tag k="fixme" v="consider place=hamlet" />
		<tag k="name" v="Melan" />
		<tag k="place" v="farm" />
		<tag k="ssr:stedsnr" v="680749" />
	</node>
	<node lat="62.95068333052115" lon="10.635666673565801" id="-51677">
		<tag k="name" v="Bjørga" />
		<tag k="place" v="farm" />
		<tag k="ssr:stedsnr" v="680750" />
	</node>
	<node lat="62.91561389120101" lon="10.21297499117047" id="-51679">
		<tag k="alt_name" v="Øfsthus" />
		<tag k="fixme" v="consider place=hamlet" />
		<tag k="name" v="Øvsthus" />
		<tag k="place" v="farm" />
		<tag k="ssr:stedsnr" v="680992" />
	</node>
	<node lat="63.04384895774545" lon="10.30320995757977" id="-51680">
		<tag k="alt_name" v="Kleva" />
		<tag k="name" v="Kleiva" />
		<tag k="place" v="locality" />
		<tag k="ssr:stedsnr" v="680995" />
	</node>
	<node lat="63.03291666242901" lon="10.272224992163908" id="-51681">
		<tag k="alt_name" v="Teigen" />
		<tag k="name" v="Soknesteigen" />
		<tag k="place" v="farm" />
		<tag k="ssr:stedsnr" v="680996" />
	</node>
	<node lat="62.87070555547879" lon="10.766788887685776" id="-51686">
		<tag k="alt_name" v="Sandrødsråa" />
		<tag k="historic" v="shieling" />
		<tag k="name" v="Råa" />
		<tag k="place" v="isolated_dwelling" />
		<tag k="ssr:stedsnr" v="497111" />
	</node>
	<node lat="62.81591666433109" lon="10.840077774660982" id="-51688">
		<tag k="historic" v="shieling" />
		<tag k="name" v="Morsetvollen" />
		<tag k="place" v="isolated_dwelling" />
		<tag k="ssr:stedsnr" v="497046" />
	</node>
	<node lat="62.77764166962944" lon="10.297580551672114" id="-51689">
		<tag k="historic" v="shieling" />
		<tag k="name" v="Tørnessætra" />
		<tag k="place" v="isolated_dwelling" />
		<tag k="ssr:stedsnr" v="497258" />
	</node>
	<node lat="62.771955555427766" lon="10.615058339078438" id="-51690">
		<tag k="historic" v="shieling" />
		<tag k="name" v="Råvollen" />
		<tag k="place" v="isolated_dwelling" />
		<tag k="ssr:stedsnr" v="497261" />
	</node>
	<node lat="62.800241662333185" lon="10.269452776590347" id="-51691">
		<tag k="historic" v="shieling" />
		<tag k="name" v="Såmmårvollvollen" />
		<tag k="place" v="isolated_dwelling" />
		<tag k="ssr:stedsnr" v="497295" />
	</node>
	<node lat="62.7934138913563" lon="10.27290277108139" id="-51694">
		<tag k="historic" v="shieling" />
		<tag k="name" v="Holsvollen" />
		<tag k="place" v="isolated_dwelling" />
		<tag k="ssr:stedsnr" v="497308" />
	</node>
	<node lat="62.96776550610577" lon="10.584353070227877" id="-51699">
		<tag k="fixme" v="consider place=hamlet" />
		<tag k="name" v="Talsnes" />
		<tag k="place" v="farm" />
		<tag k="ssr:stedsnr" v="497513" />
	</node>
	<node lat="62.96086891509104" lon="10.614905993779763" id="-51700">
		<tag k="historic" v="shieling" />
		<tag k="name" v="Melavollen" />
		<tag k="place" v="isolated_dwelling" />
		<tag k="ssr:stedsnr" v="497530" />
	</node>
	<node lat="62.90755277837338" lon="10.6969833315444" id="-51702">
		<tag k="name" v="Bjørnli" />
		<tag k="place" v="farm" />
		<tag k="ssr:stedsnr" v="497606" />
	</node>
	<node lat="62.90497600782295" lon="10.480792714452878" id="-51703">
		<tag k="fixme" v="consider place=hamlet" />
		<tag k="name" v="Bakken" />
		<tag k="place" v="farm" />
		<tag k="ssr:stedsnr" v="497607" />
	</node>
	<node lat="62.91054722156316" lon="10.438675002764386" id="-51704">
		<tag k="name" v="Egga" />
		<tag k="place" v="farm" />
		<tag k="ssr:stedsnr" v="497614" />
	</node>
	<node lat="62.90931111396975" lon="10.320072228967982" id="-51705">
		<tag k="name" v="Rimset" />
		<tag k="place" v="farm" />
		<tag k="ssr:stedsnr" v="497615" />
	</node>
	<node lat="62.894091715154474" lon="10.698630126015836" id="-51707">
		<tag k="fixme" v="consider place=hamlet" />
		<tag k="name" v="Sandrød" />
		<tag k="place" v="farm" />
		<tag k="ssr:stedsnr" v="497622" />
	</node>
	<node lat="62.90167777736737" lon="10.704230547527793" id="-51708">
		<tag k="fixme" v="consider place=hamlet" />
		<tag k="name" v="Forbygda" />
		<tag k="place" v="village" />
		<tag k="ssr:stedsnr" v="497624" />
	</node>
	<node lat="62.89931303493618" lon="10.474458757828693" id="-51709">
		<tag k="fixme" v="consider place=hamlet" />
		<tag k="name" v="Dyrvoll" />
		<tag k="place" v="farm" />
		<tag k="ssr:stedsnr" v="497628" />
	</node>
	<node lat="62.82348611054247" lon="10.850227787456747" id="-51713">
		<tag k="historic" v="shieling" />
		<tag k="name" v="Lauvrødsvollan" />
		<tag k="place" v="isolated_dwelling" />
		<tag k="ssr:stedsnr" v="498050" />
	</node>
	<node lat="62.84915555186396" lon="10.528730553174887" id="-51715">
		<tag k="name" v="Storliløkkja" />
		<tag k="place" v="farm" />
		<tag k="ssr:stedsnr" v="498407" />
	</node>
	<node lat="62.84499423166236" lon="10.540364246567286" id="-51716">
		<tag k="fixme" v="consider place=hamlet" />
		<tag k="name" v="Storlia" />
		<tag k="place" v="farm" />
		<tag k="ssr:stedsnr" v="498415" />
	</node>
	<node lat="62.994122218310906" lon="10.445866658970976" id="-51719">
		<tag k="name" v="Refsetkjellen" />
		<tag k="place" v="farm" />
		<tag k="ssr:stedsnr" v="498557" />
	</node>
	<node lat="62.99208611365093" lon="10.224319454150322" id="-51721">
		<tag k="name" v="Rønningen" />
		<tag k="place" v="farm" />
		<tag k="ssr:stedsnr" v="498561" />
	</node>
	<node lat="62.993287672525305" lon="10.475128381665243" id="-51722">
		<tag k="name" v="Bones" />
		<tag k="place" v="hamlet" />
		<tag k="ssr:stedsnr" v="498656" />
	</node>
	<node lat="62.933804401998316" lon="10.226805395262133" id="-51723">
		<tag k="fixme" v="consider place=hamlet" />
		<tag k="name" v="Frøset" />
		<tag k="place" v="farm" />
		<tag k="ssr:stedsnr" v="498746" />
	</node>
	<node lat="62.9310119641133" lon="10.66751910498095" id="-51724">
		<tag k="fixme" v="consider place=hamlet" />
		<tag k="name" v="Mørset" />
		<tag k="place" v="farm" />
		<tag k="ssr:stedsnr" v="498756" />
	</node>
	<node lat="62.904994445744045" lon="10.140780555159498" id="-51725">
		<tag k="alt_name" v="Røstvoll" />
		<tag k="name" v="Røstvollan" />
		<tag k="place" v="farm" />
		<tag k="ssr:stedsnr" v="498993" />
	</node>
	<node lat="62.91478610993475" lon="10.127500004051932" id="-51726">
		<tag k="name" v="Nordistu" />
		<tag k="place" v="farm" />
		<tag k="ssr:stedsnr" v="498995" />
	</node>
	<node lat="62.92332222059258" lon="10.134305552554855" id="-51727">
		<tag k="name" v="Råa" />
		<tag k="place" v="farm" />
		<tag k="ssr:stedsnr" v="498997" />
	</node>
	<node lat="62.989508333083464" lon="10.536588886228493" id="-51730">
		<tag k="name" v="Bogen nordre" />
		<tag k="place" v="farm" />
		<tag k="ssr:stedsnr" v="518061" />
	</node>
	<node lat="62.931941663404835" lon="10.161805561838854" id="-51745">
		<tag k="name" v="Dragset" />
		<tag k="place" v="hamlet" />
		<tag k="ssr:stedsnr" v="518318" />
	</node>
	<node lat="62.88227500223094" lon="10.262044447884106" id="-51750">
		<tag k="name" v="Eggalia" />
		<tag k="place" v="hamlet" />
		<tag k="ssr:stedsnr" v="518338" />
	</node>
	<node lat="62.87444999991762" lon="10.711252770322464" id="-51758">
		<tag k="historic" v="shieling" />
		<tag k="name" v="Oddvollen" />
		<tag k="place" v="isolated_dwelling" />
		<tag k="ssr:stedsnr" v="518611" />
	</node>
	<node lat="62.89358010748803" lon="10.134736368206896" id="-51766">
		<tag k="fixme" v="consider place=hamlet" />
		<tag k="name" v="Liin" />
		<tag k="place" v="farm" />
		<tag k="ssr:stedsnr" v="518507" />
	</node>
	<node lat="62.92013888486846" lon="10.37000554781819" id="-51790">
		<tag k="name" v="Moatrøa" />
		<tag k="place" v="farm" />
		<tag k="ssr:stedsnr" v="518903" />
	</node>
	<node lat="63.0226861088226" lon="10.240188896297747" id="-51791">
		<tag k="name" v="Sagmoløkkja" />
		<tag k="place" v="farm" />
		<tag k="ssr:stedsnr" v="518909" />
	</node>
	<node lat="63.02594722521224" lon="10.40737500751186" id="-51794">
		<tag k="name" v="Vollplassen" />
		<tag k="place" v="farm" />
		<tag k="ssr:stedsnr" v="518963" />
	</node>
	<node lat="62.93103328007977" lon="10.46581769079422" id="-51795">
		<tag k="fixme" v="consider place=hamlet" />
		<tag k="name" v="Storrød" />
		<tag k="place" v="farm" />
		<tag k="ssr:stedsnr" v="518967" />
	</node>
	<node lat="62.96310000327071" lon="10.563294448851053" id="-51798">
		<tag k="name" v="Grytbakken" />
		<tag k="place" v="farm" />
		<tag k="ssr:stedsnr" v="518974" />
	</node>
	<node lat="62.97625833505875" lon="10.5424027768661" id="-51799">
		<tag k="name" v="Hetlinggjardet" />
		<tag k="place" v="farm" />
		<tag k="ssr:stedsnr" v="518976" />
	</node>
	<node lat="62.91188333221247" lon="10.334200009025041" id="-51800">
		<tag k="name" v="Moen" />
		<tag k="place" v="farm" />
		<tag k="ssr:stedsnr" v="518977" />
	</node>
	<node lat="62.94203055215292" lon="10.65151943720647" id="-51801">
		<tag k="amenity" v="kindergarten" />
		<tag k="name" v="Singsås barnehage" />
		<tag k="ssr:stedsnr" v="544270" />
	</node>
	<node lat="62.8203388921408" lon="10.454344437788322" id="-51805">
		<tag k="alt_name" v="Gjelan" />
		<tag k="name" v="Endalsvollen" />
		<tag k="place" v="farm" />
		<tag k="ssr:stedsnr" v="557304" />
	</node>
	<node lat="62.71842778017726" lon="10.5234333395675" id="-51806">
		<tag k="alt_name" v="Maureggvoll" />
		<tag k="historic" v="shieling" />
		<tag k="name" v="Maureggvollen" />
		<tag k="place" v="isolated_dwelling" />
		<tag k="ssr:stedsnr" v="557366" />
	</node>
	<node lat="62.96760661699167" lon="10.719995048736076" id="-51808">
		<tag k="fixme" v="consider place=hamlet" />
		<tag k="name" v="Høggås" />
		<tag k="old_name" v="Høggas" />
		<tag k="place" v="farm" />
		<tag k="ssr:stedsnr" v="557452" />
	</node>
	<node lat="62.79372584422247" lon="10.651397691725315" id="-51813">
		<tag k="alt_name" v="Tangvollan" />
		<tag k="historic" v="shieling" />
		<tag k="name" v="Tangvollen" />
		<tag k="place" v="isolated_dwelling" />
		<tag k="ssr:stedsnr" v="558305" />
	</node>
	<node lat="62.84459166517157" lon="10.340541662412127" id="-51815">
		<tag k="historic" v="shieling" />
		<tag k="name" v="Holtbrautssætra" />
		<tag k="place" v="isolated_dwelling" />
		<tag k="ssr:stedsnr" v="558352" />
	</node>
	<node lat="62.97225032202619" lon="10.893710721180215" id="-51817">
		<tag k="fixme" v="multiple name tags, choose one and add the other to alt_name; consider place=hamlet" />
		<tag k="name" v="Dragåsøya;Petteran" />
		<tag k="place" v="farm" />
		<tag k="ssr:stedsnr" v="558507" />
	</node>
	<node lat="62.979131743451504" lon="10.93685181261988" id="-51818">
		<tag k="fixme" v="multiple name tags, choose one and add the other to alt_name; consider place=hamlet" />
		<tag k="name" v="Dragåshaugen;Serrian" />
		<tag k="place" v="farm" />
		<tag k="ssr:stedsnr" v="558509" />
	</node>
	<node lat="62.978830551030185" lon="10.891013895807726" id="-51820">
		<tag k="name" v="Almåsbakken" />
		<tag k="place" v="farm" />
		<tag k="ssr:stedsnr" v="558513" />
	</node>
	<node lat="62.79643610801388" lon="10.353980546931213" id="-51821">
		<tag k="historic" v="shieling" />
		<tag k="name" v="Sundsetsætra" />
		<tag k="place" v="isolated_dwelling" />
		<tag k="ssr:stedsnr" v="558297" />
	</node>
	<node lat="62.79437777912215" lon="10.447277785633073" id="-51822">
		<tag k="historic" v="shieling" />
		<tag k="name" v="Oddvollan" />
		<tag k="place" v="isolated_dwelling" />
		<tag k="ssr:stedsnr" v="558300" />
	</node>
	<node lat="62.874413795711135" lon="10.245182549415079" id="-51827">
		<tag k="fixme" v="consider place=hamlet" />
		<tag k="name" v="Moen" />
		<tag k="place" v="farm" />
		<tag k="ssr:stedsnr" v="558714" />
	</node>
	<node lat="62.94712778093578" lon="10.528655558876553" id="-51828">
		<tag k="historic" v="shieling" />
		<tag k="name" v="Bogavollan" />
		<tag k="place" v="isolated_dwelling" />
		<tag k="ssr:stedsnr" v="558746" />
	</node>
	<node lat="62.946918953472846" lon="10.629302188840223" id="-51829">
		<tag k="fixme" v="consider place=hamlet" />
		<tag k="name" v="Hostad" />
		<tag k="place" v="farm" />
		<tag k="ssr:stedsnr" v="558748" />
	</node>
	<node lat="62.921938892766846" lon="10.320169453918373" id="-51830">
		<tag k="name" v="Gorsethaugen" />
		<tag k="place" v="farm" />
		<tag k="ssr:stedsnr" v="558791" />
	</node>
	<node lat="62.99704722109708" lon="10.582799997717466" id="-51832">
		<tag k="name" v="Storvollen" />
		<tag k="place" v="farm" />
		<tag k="ssr:stedsnr" v="692018" />
	</node>
	<node lat="62.95685373393148" lon="10.80877060595683" id="-51833">
		<tag k="fixme" v="consider place=hamlet" />
		<tag k="loc_name" v="Hendøya" />
		<tag k="name" v="Hindøya" />
		<tag k="place" v="farm" />
		<tag k="ssr:stedsnr" v="692983" />
	</node>
	<node lat="62.93815277562398" lon="10.18066389408918" id="-51836">
		<tag k="name" v="Larshusløkkja" />
		<tag k="place" v="farm" />
		<tag k="ssr:stedsnr" v="578495" />
	</node>
	<node lat="62.9513888920072" lon="10.698605561156523" id="-51839">
		<tag k="name" v="Kjerkvolløyan" />
		<tag k="place" v="farm" />
		<tag k="ssr:stedsnr" v="579002" />
	</node>
	<node lat="62.96780277490621" lon="10.58611389189918" id="-51841">
		<tag k="alt_name" v="Talsnes" />
		<tag k="name" v="Sørgården" />
		<tag k="place" v="farm" />
		<tag k="ssr:stedsnr" v="579046" />
	</node>
	<node lat="62.89407499812145" lon="10.688655547001376" id="-51844">
		<tag k="name" v="Nyrydd" />
		<tag k="place" v="farm" />
		<tag k="ssr:stedsnr" v="579056" />
	</node>
	<node lat="62.950662028815124" lon="10.723961143399372" id="-51849">
		<tag k="fixme" v="consider place=hamlet" />
		<tag k="name" v="Aungrinda" />
		<tag k="place" v="farm" />
		<tag k="ssr:stedsnr" v="579102" />
	</node>
	<node lat="62.85011388991224" lon="10.793188889779993" id="-51850">
		<tag k="name" v="Bjørkli" />
		<tag k="place" v="isolated_dwelling" />
		<tag k="ssr:stedsnr" v="579103" />
	</node>
	<node lat="62.92668888885065" lon="10.93544445428318" id="-51854">
		<tag k="historic" v="shieling" />
		<tag k="name" v="Skjulungdalen" />
		<tag k="place" v="isolated_dwelling" />
		<tag k="ssr:stedsnr" v="579194" />
	</node>
</osm>
