<?xml version="1.0" encoding="UTF-8"?>
<osm version="0.6" generator="osmapis">
	<node lat="59.9469361133218" lon="10.221141666731016" id="-33898">
		<tag k="fixme" v="consider natural=peak for the most distinct mountains in the district" />
		<tag k="name" v="Furudamsåsen" />
		<tag k="natural" v="hill" />
		<tag k="place" v="locality" />
		<tag k="ssr:stedsnr" v="21645" />
	</node>
	<node lat="59.897816666385445" lon="10.316052772458358" id="-33901">
		<tag k="fixme" v="consider natural=peak for the most distinct mountains in the district" />
		<tag k="name" v="Høgåsen" />
		<tag k="natural" v="hill" />
		<tag k="place" v="locality" />
		<tag k="ssr:stedsnr" v="21987" />
	</node>
	<node lat="59.868119446491654" lon="10.255777783284602" id="-33917">
		<tag k="name" v="Iledalen" />
		<tag k="natural" v="valley" />
		<tag k="place" v="locality" />
		<tag k="ssr:stedsnr" v="65253" />
	</node>
	<node lat="59.88665277373988" lon="10.32322500546415" id="-33943">
		<tag k="fixme" v="consider natural=saddle" />
		<tag k="name" v="Buttedalsholen" />
		<tag k="natural" v="valley" />
		<tag k="place" v="locality" />
		<tag k="ssr:stedsnr" v="83287" />
	</node>
	<node lat="59.883588892991376" lon="10.349050005518453" id="-33944">
		<tag k="fixme" v="consider natural=peak for the most distinct mountains in the district" />
		<tag k="name" v="Lågbrenna" />
		<tag k="natural" v="hill" />
		<tag k="place" v="locality" />
		<tag k="ssr:stedsnr" v="83288" />
	</node>
	<node lat="59.83956667071599" lon="10.281591669765817" id="-33958">
		<tag k="fixme" v="consider natural=peak for the most distinct mountains in the district" />
		<tag k="name" v="Glasåsen" />
		<tag k="natural" v="hill" />
		<tag k="place" v="locality" />
		<tag k="ssr:stedsnr" v="125306" />
	</node>
	<node lat="59.900505552748804" lon="10.187388888207636" id="-33961">
		<tag k="name" v="Borkebrenna" />
		<tag k="natural" v="hill" />
		<tag k="place" v="locality" />
		<tag k="ssr:stedsnr" v="125352" />
	</node>
	<node lat="59.93578611361225" lon="10.24780555995437" id="-33962">
		<tag k="name" v="Høgbråtan" />
		<tag k="natural" v="hill" />
		<tag k="place" v="locality" />
		<tag k="ssr:stedsnr" v="125402" />
	</node>
	<node lat="59.92421388951031" lon="10.368897219086593" id="-33964">
		<tag k="name" v="Damefallet" />
		<tag k="place" v="locality" />
		<tag k="ssr:stedsnr" v="125952" />
	</node>
	<node lat="59.91161111397039" lon="10.257166670031506" id="-33974">
		<tag k="name" v="Ollehaugen" />
		<tag k="natural" v="hill" />
		<tag k="place" v="locality" />
		<tag k="ssr:stedsnr" v="142511" />
	</node>
	<node lat="59.75882499986387" lon="10.214122229044646" id="-33978">
		<tag k="fixme" v="consider natural=peak for the most distinct mountains in the district" />
		<tag k="name" v="Stoppenåsen" />
		<tag k="natural" v="hill" />
		<tag k="place" v="locality" />
		<tag k="ssr:stedsnr" v="142884" />
	</node>
	<node lat="59.921874998409606" lon="10.135324996305664" id="-33982">
		<tag k="name" v="Eftasmyrhaugen" />
		<tag k="natural" v="hill" />
		<tag k="place" v="locality" />
		<tag k="ssr:stedsnr" v="142928" />
	</node>
	<node lat="59.94021666964652" lon="10.118502772930729" id="-33983">
		<tag k="fixme" v="consider natural=peak for the most distinct mountains in the district" />
		<tag k="name" v="Tomåsen" />
		<tag k="natural" v="hill" />
		<tag k="place" v="locality" />
		<tag k="ssr:stedsnr" v="142937" />
	</node>
	<node lat="59.84696079105566" lon="10.127668713022949" id="-33988">
		<tag k="name" v="Kapiteldalen" />
		<tag k="natural" v="valley" />
		<tag k="place" v="locality" />
		<tag k="ssr:stedsnr" v="143905" />
	</node>
	<node lat="59.89615277580088" lon="10.14888888039788" id="-33993">
		<tag k="fixme" v="consider natural=peak for the most distinct mountains in the district" />
		<tag k="name" v="Kardåsen" />
		<tag k="natural" v="hill" />
		<tag k="place" v="locality" />
		<tag k="ssr:stedsnr" v="246318" />
	</node>
	<node lat="59.93151110712305" lon="10.216936103939029" id="-34003">
		<tag k="alt_name" v="Enhesthaugane" />
		<tag k="name" v="Endeløshaugen" />
		<tag k="natural" v="ridge" />
		<tag k="place" v="locality" />
		<tag k="ssr:stedsnr" v="247400" />
	</node>
	<node lat="59.913838885115304" lon="10.254277771759543" id="-34017">
		<tag k="name" v="Svenskehaugen" />
		<tag k="natural" v="hill" />
		<tag k="place" v="locality" />
		<tag k="ssr:stedsnr" v="186461" />
	</node>
	<node lat="59.86902777949032" lon="10.126630552164524" id="-34021">
		<tag k="name" v="Svenskehaugene" />
		<tag k="natural" v="hill" />
		<tag k="place" v="locality" />
		<tag k="ssr:stedsnr" v="203005" />
	</node>
	<node lat="59.85973889327845" lon="10.18804444850848" id="-34025">
		<tag k="fixme" v="consider natural=peak for the most distinct mountains in the district" />
		<tag k="name" v="Jonsrudåsen" />
		<tag k="natural" v="hill" />
		<tag k="place" v="locality" />
		<tag k="ssr:stedsnr" v="203274" />
	</node>
	<node lat="59.779455559645406" lon="10.318238880496166" id="-34033">
		<tag k="fixme" v="consider natural=peak for the most distinct mountains in the district" />
		<tag k="name" v="Klunken" />
		<tag k="natural" v="hill" />
		<tag k="place" v="locality" />
		<tag k="ssr:stedsnr" v="203610" />
	</node>
	<node lat="59.950158337577754" lon="10.344955554359263" id="-34041">
		<tag k="fixme" v="consider natural=peak for the most distinct mountains in the district" />
		<tag k="name" v="Hulderåsen" />
		<tag k="natural" v="hill" />
		<tag k="place" v="locality" />
		<tag k="ssr:stedsnr" v="204253" />
	</node>
	<node lat="59.952408334560644" lon="10.261338895655193" id="-34047">
		<tag k="fixme" v="consider natural=peak for the most distinct mountains in the district" />
		<tag k="name" v="Siljuåsen" />
		<tag k="natural" v="hill" />
		<tag k="place" v="locality" />
		<tag k="ssr:stedsnr" v="204571" />
	</node>
	<node lat="59.92807222269681" lon="10.345494442115895" id="-34048">
		<tag k="name" v="Bringebærkastet" />
		<tag k="natural" v="slope" />
		<tag k="place" v="locality" />
		<tag k="ssr:stedsnr" v="204920" />
	</node>
	<node lat="59.91249722470583" lon="10.339305556026877" id="-34051">
		<tag k="name" v="Hitomdit" />
		<tag k="natural" v="hill" />
		<tag k="place" v="locality" />
		<tag k="ssr:stedsnr" v="204875" />
	</node>
	<node lat="59.93552499585884" lon="10.151391662449333" id="-34054">
		<tag k="fixme" v="consider natural=peak for the most distinct mountains in the district" />
		<tag k="name" v="Tverråsen" />
		<tag k="natural" v="hill" />
		<tag k="place" v="locality" />
		<tag k="ssr:stedsnr" v="246378" />
	</node>
	<node lat="59.84196666535301" lon="10.336358333480968" id="-34062">
		<tag k="fixme" v="consider natural=peak for the most distinct mountains in the district" />
		<tag k="name" v="Rognekollen" />
		<tag k="natural" v="hill" />
		<tag k="place" v="locality" />
		<tag k="ssr:stedsnr" v="445181" />
	</node>
	<node lat="59.80630555384163" lon="10.179419441514174" id="-34063">
		<tag k="fixme" v="consider natural=peak for the most distinct mountains in the district" />
		<tag k="name" v="Mellemåsen" />
		<tag k="natural" v="hill" />
		<tag k="place" v="locality" />
		<tag k="ssr:stedsnr" v="445724" />
	</node>
	<node lat="59.837530555588515" lon="10.274927776734835" id="-34072">
		<tag k="fixme" v="consider natural=peak for the most distinct mountains in the district" />
		<tag k="name" v="Gyllentopp" />
		<tag k="natural" v="hill" />
		<tag k="place" v="locality" />
		<tag k="ssr:stedsnr" v="446118" />
	</node>
	<node lat="59.83415555579053" lon="10.278880547856414" id="-34073">
		<tag k="alt_name" v="Torishaugen" />
		<tag k="name" v="Toreshaugen" />
		<tag k="natural" v="hill" />
		<tag k="place" v="locality" />
		<tag k="ssr:stedsnr" v="446119" />
	</node>
	<node lat="59.85172221805744" lon="10.132827779225941" id="-34081">
		<tag k="fixme" v="consider natural=peak for the most distinct mountains in the district" />
		<tag k="name" v="Kastadåsen" />
		<tag k="natural" v="hill" />
		<tag k="place" v="locality" />
		<tag k="ssr:stedsnr" v="446463" />
	</node>
	<node lat="59.77654167033381" lon="10.305213881368127" id="-34086">
		<tag k="name" v="Bullekippen" />
		<tag k="natural" v="slope" />
		<tag k="place" v="locality" />
		<tag k="ssr:stedsnr" v="446600" />
	</node>
	<node lat="59.73591111469603" lon="10.300816671324254" id="-34098">
		<tag k="name" v="Berget" />
		<tag k="natural" v="hill" />
		<tag k="place" v="locality" />
		<tag k="ssr:stedsnr" v="446867" />
	</node>
	<node lat="59.87383333002594" lon="10.3106499981139" id="-34103">
		<tag k="name" v="Asdøljuvet" />
		<tag k="natural" v="gorge" />
		<tag k="ssr:stedsnr" v="446930" />
	</node>
	<node lat="59.88618611334007" lon="10.326391664421608" id="-34106">
		<tag k="name" v="Svangseterdalen" />
		<tag k="natural" v="valley" />
		<tag k="place" v="locality" />
		<tag k="ssr:stedsnr" v="446980" />
	</node>
	<node lat="59.86049444332839" lon="10.282974995132294" id="-34110">
		<tag k="name" v="Skonarudkleiva" />
		<tag k="natural" v="slope" />
		<tag k="place" v="locality" />
		<tag k="ssr:stedsnr" v="447260" />
	</node>
	<node lat="59.953563891815385" lon="10.338005549240242" id="-34112">
		<tag k="fixme" v="consider natural=saddle" />
		<tag k="name" v="Dybla" />
		<tag k="natural" v="valley" />
		<tag k="place" v="locality" />
		<tag k="ssr:stedsnr" v="447560" />
	</node>
	<node lat="59.92908456297875" lon="10.335720303732776" id="-34113">
		<tag k="name" v="Elvenesletta" />
		<tag k="old_name" v="Elvene" />
		<tag k="place" v="locality" />
		<tag k="ssr:stedsnr" v="447573" />
	</node>
	<node lat="59.8559000039869" lon="10.113766670477247" id="-34119">
		<tag k="name" v="Streikebryterlia" />
		<tag k="natural" v="slope" />
		<tag k="place" v="locality" />
		<tag k="ssr:stedsnr" v="447917" />
	</node>
	<node lat="59.8367000040979" lon="10.198066664554673" id="-34122">
		<tag k="fixme" v="consider natural=peak for the most distinct mountains in the district" />
		<tag k="name" v="Dambekkåsen" />
		<tag k="natural" v="hill" />
		<tag k="place" v="locality" />
		<tag k="ssr:stedsnr" v="264418" />
	</node>
	<node lat="59.83846388825689" lon="10.114977777281625" id="-34123">
		<tag k="fixme" v="consider natural=peak for the most distinct mountains in the district" />
		<tag k="name" v="Ormtjernåsen" />
		<tag k="natural" v="hill" />
		<tag k="place" v="locality" />
		<tag k="ssr:stedsnr" v="264455" />
	</node>
	<node lat="59.94931111260582" lon="10.279902778717485" id="-34127">
		<tag k="fixme" v="consider natural=peak for the most distinct mountains in the district" />
		<tag k="name" v="Tømte" />
		<tag k="natural" v="hill" />
		<tag k="place" v="locality" />
		<tag k="ssr:stedsnr" v="264519" />
	</node>
	<node lat="59.948658335043326" lon="10.21549444035766" id="-34132">
		<tag k="name" v="St. Hanshaugen" />
		<tag k="natural" v="hill" />
		<tag k="place" v="locality" />
		<tag k="ssr:stedsnr" v="264662" />
	</node>
	<node lat="59.862813888472516" lon="10.265238896021101" id="-34138">
		<tag k="name" v="Haugen" />
		<tag k="natural" v="hill" />
		<tag k="place" v="locality" />
		<tag k="ssr:stedsnr" v="264908" />
	</node>
	<node lat="59.92376944158309" lon="10.357558325575267" id="-34140">
		<tag k="loc_name" v="Monken" />
		<tag k="name" v="Munken" />
		<tag k="natural" v="hill" />
		<tag k="place" v="locality" />
		<tag k="ssr:stedsnr" v="265923" />
	</node>
	<node lat="59.865361108153856" lon="10.100511111924721" id="-34142">
		<tag k="fixme" v="consider natural=peak for the most distinct mountains in the district" />
		<tag k="name" v="Lahølbrenna" />
		<tag k="natural" v="hill" />
		<tag k="place" v="locality" />
		<tag k="ssr:stedsnr" v="265925" />
	</node>
	<node lat="59.785086111036286" lon="10.309536108374637" id="-34147">
		<tag k="alt_name" v="Børkusåsen" />
		<tag k="fixme" v="consider natural=peak for the most distinct mountains in the district" />
		<tag k="name" v="Borkhusåsen" />
		<tag k="natural" v="hill" />
		<tag k="place" v="locality" />
		<tag k="ssr:stedsnr" v="307169" />
	</node>
	<node lat="59.909838889657294" lon="10.230133327382534" id="-34153">
		<tag k="fixme" v="consider natural=peak for the most distinct mountains in the district" />
		<tag k="name" v="Solbergåsen" />
		<tag k="natural" v="hill" />
		<tag k="place" v="locality" />
		<tag k="ssr:stedsnr" v="307420" />
	</node>
	<node lat="59.913551047276044" lon="10.356148465252558" id="-34154">
		<tag k="name" v="Gampen" />
		<tag k="place" v="locality" />
		<tag k="ssr:stedsnr" v="307912" />
	</node>
	<node lat="59.94290555893302" lon="10.35072777018002" id="-34156">
		<tag k="fixme" v="consider natural=peak for the most distinct mountains in the district" />
		<tag k="name" v="Høgbrennåsen" />
		<tag k="natural" v="hill" />
		<tag k="place" v="locality" />
		<tag k="ssr:stedsnr" v="307979" />
	</node>
	<node lat="59.78138203667668" lon="10.325447475921731" id="-34158">
		<tag k="name" v="Åsmyrbakkane" />
		<tag k="natural" v="slope" />
		<tag k="place" v="locality" />
		<tag k="ssr:stedsnr" v="324604" />
	</node>
	<node lat="59.835086108613105" lon="10.292261114770312" id="-34168">
		<tag k="fixme" v="consider natural=peak for the most distinct mountains in the district" />
		<tag k="name" v="Guttåsen" />
		<tag k="natural" v="hill" />
		<tag k="place" v="locality" />
		<tag k="ssr:stedsnr" v="325112" />
	</node>
	<node lat="59.838288892456234" lon="10.149722216224244" id="-34176">
		<tag k="fixme" v="consider natural=peak for the most distinct mountains in the district" />
		<tag k="name" v="Kruttjernåsen" />
		<tag k="natural" v="hill" />
		<tag k="place" v="locality" />
		<tag k="ssr:stedsnr" v="325433" />
	</node>
	<node lat="59.868952780548746" lon="10.302786114582142" id="-34184">
		<tag k="alt_name" v="Steinbråten" />
		<tag k="name" v="Steinbråtan" />
		<tag k="natural" v="hill" />
		<tag k="place" v="locality" />
		<tag k="ssr:stedsnr" v="325897" />
	</node>
	<node lat="59.872838892295" lon="10.171250007116974" id="-34201">
		<tag k="name" v="Laukedalen" />
		<tag k="natural" v="valley" />
		<tag k="place" v="locality" />
		<tag k="ssr:stedsnr" v="368301" />
	</node>
	<node lat="59.85382778109292" lon="10.091127768983288" id="-34203">
		<tag k="fixme" v="consider natural=peak for the most distinct mountains in the district" />
		<tag k="name" v="Grasåsen" />
		<tag k="natural" v="hill" />
		<tag k="place" v="locality" />
		<tag k="ssr:stedsnr" v="368543" />
	</node>
	<node lat="59.8685305528916" lon="10.137636117872631" id="-34206">
		<tag k="name" v="Vestkollen" />
		<tag k="natural" v="ridge" />
		<tag k="place" v="locality" />
		<tag k="ssr:stedsnr" v="385005" />
	</node>
	<node lat="59.87030277907401" lon="10.178736112864186" id="-34212">
		<tag k="alt_name" v="Veslevasshagen" />
		<tag k="name" v="Veslevannshagan" />
		<tag k="natural" v="ridge" />
		<tag k="place" v="locality" />
		<tag k="ssr:stedsnr" v="385263" />
	</node>
	<node lat="59.87368610850113" lon="10.124744452899336" id="-34230">
		<tag k="fixme" v="consider natural=peak for the most distinct mountains in the district" />
		<tag k="name" v="Sagåsen" />
		<tag k="natural" v="hill" />
		<tag k="place" v="locality" />
		<tag k="ssr:stedsnr" v="429322" />
	</node>
	<node lat="59.89946944605795" lon="10.319641666560262" id="-34258">
		<tag k="fixme" v="consider natural=saddle" />
		<tag k="loc_name" v="Klemgjota" />
		<tag k="name" v="Klemjota" />
		<tag k="natural" v="valley" />
		<tag k="place" v="locality" />
		<tag k="ssr:stedsnr" v="447540" />
	</node>
	<node lat="59.913669441284426" lon="10.366730546550766" id="-34260">
		<tag k="name" v="Rennardalen" />
		<tag k="natural" v="valley" />
		<tag k="place" v="locality" />
		<tag k="ssr:stedsnr" v="447884" />
	</node>
	<node lat="59.85524166350376" lon="10.101575000264049" id="-34271">
		<tag k="name" v="Skrangledalen" />
		<tag k="natural" v="valley" />
		<tag k="place" v="locality" />
		<tag k="ssr:stedsnr" v="489298" />
	</node>
	<node lat="59.876419441837" lon="10.149994451571535" id="-34279">
		<tag k="alt_name" v="Vikeråsen" />
		<tag k="fixme" v="consider natural=peak for the most distinct mountains in the district" />
		<tag k="name" v="Vikerås" />
		<tag k="natural" v="hill" />
		<tag k="place" v="locality" />
		<tag k="ssr:stedsnr" v="489358" />
	</node>
	<node lat="59.87002777867707" lon="10.1500861023318" id="-34292">
		<tag k="fixme" v="consider natural=peak for the most distinct mountains in the district" />
		<tag k="name" v="Neverkollen" />
		<tag k="natural" v="hill" />
		<tag k="place" v="locality" />
		<tag k="ssr:stedsnr" v="671279" />
	</node>
	<node lat="59.94674166350933" lon="10.333005552930839" id="-34295">
		<tag k="name" v="Tverrbergkastet" />
		<tag k="natural" v="cliff" />
		<tag k="ssr:stedsnr" v="671368" />
	</node>
	<node lat="59.80204999853926" lon="10.277441660378976" id="-34299">
		<tag k="fixme" v="consider natural=peak for the most distinct mountains in the district" />
		<tag k="name" v="Damåsen" />
		<tag k="natural" v="hill" />
		<tag k="place" v="locality" />
		<tag k="ssr:stedsnr" v="506675" />
	</node>
	<node lat="59.751038887887745" lon="10.226869444909303" id="-34303">
		<tag k="name" v="Tomineborgdalen" />
		<tag k="natural" v="valley" />
		<tag k="place" v="locality" />
		<tag k="ssr:stedsnr" v="506886" />
	</node>
	<node lat="59.81630000251912" lon="10.206500008934924" id="-34308">
		<tag k="name" v="Stokkaruddalen" />
		<tag k="natural" v="valley" />
		<tag k="place" v="locality" />
		<tag k="ssr:stedsnr" v="507106" />
	</node>
	<node lat="59.83345277571175" lon="10.091477772168638" id="-34312">
		<tag k="fixme" v="consider natural=peak for the most distinct mountains in the district" />
		<tag k="name" v="Hølbekkåsen" />
		<tag k="natural" v="hill" />
		<tag k="place" v="locality" />
		<tag k="ssr:stedsnr" v="507418" />
	</node>
	<node lat="59.91414999635889" lon="10.348688885350153" id="-34314">
		<tag k="name" v="Toverudbonn" />
		<tag k="natural" v="valley" />
		<tag k="place" v="locality" />
		<tag k="ssr:stedsnr" v="507571" />
	</node>
	<node lat="59.821177776432435" lon="10.096308340852683" id="-34321">
		<tag k="name" v="Skorpeberget" />
		<tag k="natural" v="hill" />
		<tag k="place" v="locality" />
		<tag k="ssr:stedsnr" v="507911" />
	</node>
	<node lat="59.887830557906895" lon="10.09132222178376" id="-34325">
		<tag k="fixme" v="consider natural=peak for the most distinct mountains in the district" />
		<tag k="name" v="Elgtjernsbrenna" />
		<tag k="natural" v="hill" />
		<tag k="place" v="locality" />
		<tag k="ssr:stedsnr" v="672335" />
	</node>
	<node lat="59.88010000234715" lon="10.175486119855952" id="-34326">
		<tag k="fixme" v="consider natural=peak for the most distinct mountains in the district" />
		<tag k="name" v="Lurtopp" />
		<tag k="natural" v="hill" />
		<tag k="place" v="locality" />
		<tag k="ssr:stedsnr" v="672341" />
	</node>
	<node lat="59.90242499879341" lon="10.33904721350609" id="-34335">
		<tag k="name" v="Nordbråtan" />
		<tag k="natural" v="hill" />
		<tag k="place" v="locality" />
		<tag k="ssr:stedsnr" v="549323" />
	</node>
	<node lat="59.812894441014386" lon="10.179544447317697" id="-34339">
		<tag k="fixme" v="consider natural=peak for the most distinct mountains in the district" />
		<tag k="name" v="Askfjellet" />
		<tag k="natural" v="hill" />
		<tag k="place" v="locality" />
		<tag k="ssr:stedsnr" v="549215" />
	</node>
	<node lat="59.784944443937995" lon="10.291197216483248" id="-34341">
		<tag k="fixme" v="consider natural=peak for the most distinct mountains in the district" />
		<tag k="name" v="Reistadåsen" />
		<tag k="natural" v="hill" />
		<tag k="place" v="locality" />
		<tag k="ssr:stedsnr" v="550164" />
	</node>
	<node lat="59.895978609256126" lon="10.333213298836087" id="-34342">
		<tag k="name" v="Vestergyllen" />
		<tag k="natural" v="hill" />
		<tag k="place" v="locality" />
		<tag k="ssr:stedsnr" v="550302" />
	</node>
	<node lat="59.88544722423337" lon="10.147358337610799" id="-34345">
		<tag k="alt_name" v="Slettfjell;Slettefjell" />
		<tag k="fixme" v="consider natural=peak for the most distinct mountains in the district" />
		<tag k="name" v="Slettfjella" />
		<tag k="natural" v="hill" />
		<tag k="place" v="locality" />
		<tag k="ssr:stedsnr" v="550359" />
	</node>
	<node lat="59.80581110765058" lon="10.161913884413103" id="-34348">
		<tag k="name" v="Storehei" />
		<tag k="natural" v="hill" />
		<tag k="place" v="locality" />
		<tag k="ssr:stedsnr" v="566706" />
	</node>
	<node lat="59.83728333093053" lon="10.283733329005557" id="-34349">
		<tag k="fixme" v="consider natural=saddle" />
		<tag k="name" v="Bjønndalen" />
		<tag k="natural" v="valley" />
		<tag k="place" v="locality" />
		<tag k="ssr:stedsnr" v="567116" />
	</node>
	<node lat="59.84255555378561" lon="10.200127772256257" id="-34352">
		<tag k="fixme" v="consider natural=peak for the most distinct mountains in the district" />
		<tag k="name" v="Høgåsen" />
		<tag k="natural" v="hill" />
		<tag k="place" v="locality" />
		<tag k="ssr:stedsnr" v="567406" />
	</node>
	<node lat="59.84731388811613" lon="10.174166664467" id="-34353">
		<tag k="name" v="Seterdalen" />
		<tag k="natural" v="valley" />
		<tag k="place" v="locality" />
		<tag k="ssr:stedsnr" v="567408" />
	</node>
	<node lat="59.84652777474554" lon="10.155441665446197" id="-34354">
		<tag k="alt_name" v="Harestokken" />
		<tag k="name" v="Harastokken" />
		<tag k="natural" v="ridge" />
		<tag k="place" v="locality" />
		<tag k="ssr:stedsnr" v="567420" />
	</node>
	<node lat="59.79210555245964" lon="10.20180555049537" id="-34361">
		<tag k="name" v="Saueberga" />
		<tag k="natural" v="hill" />
		<tag k="place" v="locality" />
		<tag k="ssr:stedsnr" v="567684" />
	</node>
	<node lat="59.78009999702758" lon="10.29740278048529" id="-34364">
		<tag k="name" v="Løksekollen" />
		<tag k="natural" v="hill" />
		<tag k="place" v="locality" />
		<tag k="ssr:stedsnr" v="567574" />
	</node>
	<node lat="59.859066669845475" lon="10.094472216707928" id="-34377">
		<tag k="fixme" v="consider natural=peak for the most distinct mountains in the district" />
		<tag k="name" v="Gampåsen" />
		<tag k="natural" v="hill" />
		<tag k="place" v="locality" />
		<tag k="ssr:stedsnr" v="610305" />
	</node>
	<node lat="59.89054444784901" lon="10.095099995825194" id="-34390">
		<tag k="name" v="Trollmyrhaugen" />
		<tag k="natural" v="hill" />
		<tag k="place" v="locality" />
		<tag k="ssr:stedsnr" v="689030" />
	</node>
	<node lat="59.903430554331145" lon="10.150749999745353" id="-34404">
		<tag k="fixme" v="consider natural=peak for the most distinct mountains in the district" />
		<tag k="loc_name" v="Damvannsåsen" />
		<tag k="name" v="Damvassåsen" />
		<tag k="natural" v="hill" />
		<tag k="place" v="locality" />
		<tag k="ssr:stedsnr" v="689497" />
	</node>
	<node lat="59.9542027809172" lon="10.273480548644121" id="-34407">
		<tag k="name" v="Fuglestokka" />
		<tag k="natural" v="slope" />
		<tag k="place" v="locality" />
		<tag k="ssr:stedsnr" v="689559" />
	</node>
	<node lat="59.898605558978076" lon="10.345969446334857" id="-34414">
		<tag k="name" v="Toppenhaug" />
		<tag k="natural" v="hill" />
		<tag k="place" v="locality" />
		<tag k="ssr:stedsnr" v="689529" />
	</node>
	<node lat="59.91260000328998" lon="10.367938888975791" id="-34415">
		<tag k="fixme" v="consider natural=peak for the most distinct mountains in the district" />
		<tag k="name" v="Furubrenna" />
		<tag k="natural" v="hill" />
		<tag k="place" v="locality" />
		<tag k="ssr:stedsnr" v="689530" />
	</node>
	<node lat="59.86397777823653" lon="10.326869452020315" id="-34423">
		<tag k="fixme" v="consider natural=peak for the most distinct mountains in the district" />
		<tag k="name" v="Vassåsen" />
		<tag k="natural" v="hill" />
		<tag k="place" v="locality" />
		<tag k="ssr:stedsnr" v="689964" />
	</node>
	<node lat="59.85571110796541" lon="10.07419443753724" id="-34433">
		<tag k="name" v="Gampedalen" />
		<tag k="natural" v="valley" />
		<tag k="place" v="locality" />
		<tag k="ssr:stedsnr" v="628023" />
	</node>
	<node lat="59.95618055552223" lon="10.344538880506544" id="-34448">
		<tag k="name" v="Brekoll" />
		<tag k="natural" v="hill" />
		<tag k="place" v="locality" />
		<tag k="ssr:stedsnr" v="628567" />
	</node>
	<node lat="59.96412221831896" lon="10.236472226217392" id="-34450">
		<tag k="fixme" v="consider natural=peak for the most distinct mountains in the district" />
		<tag k="name" v="Tjernsåsen" />
		<tag k="natural" v="hill" />
		<tag k="place" v="locality" />
		<tag k="ssr:stedsnr" v="628724" />
	</node>
	<node lat="59.77800000192453" lon="10.169388894548735" id="-34451">
		<tag k="fixme" v="consider natural=peak for the most distinct mountains in the district" />
		<tag k="name" v="Veslehei" />
		<tag k="natural" v="hill" />
		<tag k="place" v="locality" />
		<tag k="ssr:stedsnr" v="628650" />
	</node>
	<node lat="59.854858334095425" lon="10.288330561214567" id="-34456">
		<tag k="alt_name" v="Opsalkleiva" />
		<tag k="name" v="Oppsalkleiva" />
		<tag k="natural" v="slope" />
		<tag k="place" v="locality" />
		<tag k="ssr:stedsnr" v="628898" />
	</node>
	<node lat="59.92541667087261" lon="10.12318888814459" id="-34457">
		<tag k="name" v="Hvalskollen" />
		<tag k="natural" v="hill" />
		<tag k="place" v="locality" />
		<tag k="ssr:stedsnr" v="628903" />
	</node>
	<node lat="59.862302779545296" lon="10.324694451416716" id="-34460">
		<tag k="name" v="Bøgapet" />
		<tag k="place" v="locality" />
		<tag k="ssr:stedsnr" v="628947" />
	</node>
	<node lat="59.82547500393426" lon="10.159355552015064" id="-34463">
		<tag k="fixme" v="consider natural=peak for the most distinct mountains in the district" />
		<tag k="name" v="Storkollen" />
		<tag k="natural" v="hill" />
		<tag k="place" v="locality" />
		<tag k="ssr:stedsnr" v="671207" />
	</node>
	<node lat="59.93481591036741" lon="10.352859443748567" id="-34477">
		<tag k="fixme" v="consider natural=peak for the most distinct mountains in the district" />
		<tag k="name" v="Øvre Brennhogget" />
		<tag k="natural" v="hill" />
		<tag k="old_name" v="Brennhoggfjellet;Brennhogget" />
		<tag k="place" v="locality" />
		<tag k="ssr:stedsnr" v="671975" />
	</node>
	<node lat="59.96564166470555" lon="10.257163897006397" id="-34489">
		<tag k="fixme" v="consider natural=peak for the most distinct mountains in the district" />
		<tag k="name" v="Haukedalsåsen" />
		<tag k="natural" v="hill" />
		<tag k="place" v="locality" />
		<tag k="ssr:stedsnr" v="689705" />
	</node>
	<node lat="59.922113888481014" lon="10.12888055130124" id="-34504">
		<tag k="fixme" v="consider natural=saddle" />
		<tag k="name" v="Valsstuen" />
		<tag k="natural" v="valley" />
		<tag k="place" v="locality" />
		<tag k="ssr:stedsnr" v="690741" />
	</node>
	<node lat="59.91502221957196" lon="10.290583335534466" id="-34528">
		<tag k="fixme" v="consider natural=peak for the most distinct mountains in the district" />
		<tag k="name" v="Brekkeåsen" />
		<tag k="natural" v="hill" />
		<tag k="place" v="locality" />
		<tag k="ssr:stedsnr" v="732430" />
	</node>
	<node lat="59.925980558050576" lon="10.253750008822024" id="-34531">
		<tag k="name" v="Bollen" />
		<tag k="natural" v="hill" />
		<tag k="place" v="locality" />
		<tag k="ssr:stedsnr" v="732459" />
	</node>
	<node lat="59.88649487325035" lon="10.317111985571286" id="-34534">
		<tag k="fixme" v="consider natural=peak for the most distinct mountains in the district" />
		<tag k="name" v="Nordåsen" />
		<tag k="natural" v="hill" />
		<tag k="place" v="locality" />
		<tag k="ssr:stedsnr" v="748178" />
	</node>
	<node lat="59.80107221962961" lon="10.191208329785521" id="-34535">
		<tag k="fixme" v="consider natural=peak for the most distinct mountains in the district" />
		<tag k="name" v="Brann" />
		<tag k="natural" v="hill" />
		<tag k="place" v="locality" />
		<tag k="ssr:stedsnr" v="748718" />
	</node>
	<node lat="59.86116944180307" lon="10.100277771452241" id="-34538">
		<tag k="name" v="Dølahallene" />
		<tag k="place" v="locality" />
		<tag k="ssr:stedsnr" v="749018" />
	</node>
	<node lat="59.888869447893846" lon="10.158461108386975" id="-34545">
		<tag k="alt_name" v="Svartvassholen" />
		<tag k="fixme" v="consider natural=peak for the most distinct mountains in the district" />
		<tag k="name" v="Svartvannsholen" />
		<tag k="natural" v="hill" />
		<tag k="place" v="locality" />
		<tag k="ssr:stedsnr" v="749276" />
	</node>
	<node lat="59.96259444059501" lon="10.258955559230008" id="-34555">
		<tag k="name" v="Furumoen" />
		<tag k="place" v="locality" />
		<tag k="ssr:stedsnr" v="749774" />
	</node>
	<node lat="59.827750002250994" lon="10.19966389111726" id="-34559">
		<tag k="fixme" v="consider natural=peak for the most distinct mountains in the district" />
		<tag k="name" v="Øksnekollen" />
		<tag k="natural" v="hill" />
		<tag k="place" v="locality" />
		<tag k="ssr:stedsnr" v="750906" />
	</node>
	<node lat="59.861949997452136" lon="10.137713882434886" id="-34560">
		<tag k="name" v="Kollelia" />
		<tag k="natural" v="slope" />
		<tag k="place" v="locality" />
		<tag k="ssr:stedsnr" v="750919" />
	</node>
	<node lat="59.82641110955777" lon="10.17283611365624" id="-34566">
		<tag k="fixme" v="consider natural=peak for the most distinct mountains in the district" />
		<tag k="name" v="Eggekollane" />
		<tag k="natural" v="hill" />
		<tag k="place" v="locality" />
		<tag k="ssr:stedsnr" v="792203" />
	</node>
	<node lat="59.94626388972758" lon="10.21195278024935" id="-34569">
		<tag k="fixme" v="consider natural=peak for the most distinct mountains in the district" />
		<tag k="name" v="Flagret" />
		<tag k="natural" v="hill" />
		<tag k="place" v="locality" />
		<tag k="ssr:stedsnr" v="792384" />
	</node>
	<node lat="59.77724722151282" lon="10.312783330567441" id="-34570">
		<tag k="fixme" v="consider natural=peak for the most distinct mountains in the district" />
		<tag k="name" v="Kaperåsen" />
		<tag k="natural" v="hill" />
		<tag k="place" v="locality" />
		<tag k="ssr:stedsnr" v="793177" />
	</node>
	<node lat="59.9242388865106" lon="10.284422223730836" id="-34590">
		<tag k="fixme" v="consider natural=peak for the most distinct mountains in the district" />
		<tag k="name" v="Skarpåsen" />
		<tag k="natural" v="hill" />
		<tag k="place" v="locality" />
		<tag k="ssr:stedsnr" v="810497" />
	</node>
	<node lat="59.903158335913986" lon="10.242311115518676" id="-34592">
		<tag k="loc_name" v="Veslevannsdalen" />
		<tag k="name" v="Veslevassdalen" />
		<tag k="natural" v="valley" />
		<tag k="place" v="locality" />
		<tag k="ssr:stedsnr" v="810535" />
	</node>
	<node lat="59.85511110851694" lon="10.167205555246172" id="-34595">
		<tag k="fixme" v="consider natural=peak for the most distinct mountains in the district" />
		<tag k="name" v="Tømmerlundåsen" />
		<tag k="natural" v="hill" />
		<tag k="place" v="locality" />
		<tag k="ssr:stedsnr" v="811674" />
	</node>
	<node lat="59.90991944676163" lon="10.335961118408214" id="-34596">
		<tag k="name" v="Brenninga" />
		<tag k="natural" v="slope" />
		<tag k="place" v="locality" />
		<tag k="ssr:stedsnr" v="811553" />
	</node>
	<node lat="59.93776796562157" lon="10.335737892537853" id="-34598">
		<tag k="alt_name" v="Dypdalen" />
		<tag k="name" v="Djupdalen" />
		<tag k="natural" v="gorge" />
		<tag k="ssr:stedsnr" v="811583" />
	</node>
	<node lat="59.800919448825034" lon="10.14936666663241" id="-34601">
		<tag k="name" v="Skimtheia" />
		<tag k="natural" v="hill" />
		<tag k="place" v="locality" />
		<tag k="ssr:stedsnr" v="853211" />
	</node>
	<node lat="59.85043333199424" lon="10.160199994649393" id="-34602">
		<tag k="fixme" v="consider natural=peak for the most distinct mountains in the district" />
		<tag k="name" v="Barlindåsen" />
		<tag k="natural" v="hill" />
		<tag k="place" v="locality" />
		<tag k="ssr:stedsnr" v="853219" />
	</node>
	<node lat="59.88476110877464" lon="10.048702771474533" id="-34612">
		<tag k="name" v="Finnemarka" />
		<tag k="natural" v="wood" />
		<tag k="ssr:stedsnr" v="854346" />
	</node>
	<node lat="59.8886422114369" lon="10.14736771557019" id="-34614">
		<tag k="fixme" v="consider natural=peak for the most distinct mountains in the district" />
		<tag k="name" v="Knausen" />
		<tag k="natural" v="hill" />
		<tag k="place" v="locality" />
		<tag k="ssr:stedsnr" v="854351" />
	</node>
	<node lat="59.88496666484891" lon="10.113374993228112" id="-34615">
		<tag k="alt_name" v="Kvigeberga" />
		<tag k="fixme" v="consider natural=peak for the most distinct mountains in the district" />
		<tag k="name" v="Kvibergåsen" />
		<tag k="natural" v="hill" />
		<tag k="place" v="locality" />
		<tag k="ssr:stedsnr" v="854352" />
	</node>
	<node lat="59.83803889104802" lon="10.08225832520849" id="-34617">
		<tag k="fixme" v="consider natural=peak for the most distinct mountains in the district" />
		<tag k="name" v="Trettekollen" />
		<tag k="natural" v="hill" />
		<tag k="place" v="locality" />
		<tag k="ssr:stedsnr" v="854269" />
	</node>
	<node lat="59.79397499862664" lon="10.189061105827506" id="-34632">
		<tag k="fixme" v="consider natural=peak for the most distinct mountains in the district" />
		<tag k="name" v="Veslehei" />
		<tag k="natural" v="hill" />
		<tag k="place" v="locality" />
		<tag k="ssr:stedsnr" v="870705" />
	</node>
	<node lat="59.919141665704295" lon="10.229047231006342" id="-34645">
		<tag k="name" v="Brennhusdalen" />
		<tag k="natural" v="valley" />
		<tag k="place" v="locality" />
		<tag k="ssr:stedsnr" v="871512" />
	</node>
	<node lat="59.82833888763117" lon="10.114999995204963" id="-34665">
		<tag k="fixme" v="consider natural=peak for the most distinct mountains in the district" />
		<tag k="name" v="Høgståsen" />
		<tag k="natural" v="hill" />
		<tag k="place" v="locality" />
		<tag k="ssr:stedsnr" v="914291" />
	</node>
	<node lat="59.91040555705302" lon="10.224844436362932" id="-34684">
		<tag k="name" v="Dypedal" />
		<tag k="natural" v="valley" />
		<tag k="place" v="locality" />
		<tag k="ssr:stedsnr" v="932511" />
	</node>
	<node lat="59.92577222209713" lon="10.207313886381378" id="-34685">
		<tag k="name" v="Seterkollen" />
		<tag k="natural" v="hill" />
		<tag k="place" v="locality" />
		<tag k="ssr:stedsnr" v="932513" />
	</node>
	<node lat="59.93413055811239" lon="10.339038880968673" id="-34687">
		<tag k="fixme" v="multiple name tags, choose one and add the other to alt_name" />
		<tag k="loc_name" v="Djupedalssletta" />
		<tag k="name" v="Nygardsletta;Djupdalssletta" />
		<tag k="place" v="locality" />
		<tag k="ssr:stedsnr" v="932550" />
	</node>
	<node lat="59.960272224030746" lon="10.239733326837344" id="-34690">
		<tag k="fixme" v="consider natural=peak for the most distinct mountains in the district" />
		<tag k="name" v="Seteråsen" />
		<tag k="natural" v="hill" />
		<tag k="place" v="locality" />
		<tag k="ssr:stedsnr" v="932598" />
	</node>
	<node lat="59.95917222172867" lon="10.231477786686767" id="-34691">
		<tag k="fixme" v="consider natural=peak for the most distinct mountains in the district" />
		<tag k="name" v="Grasåsen" />
		<tag k="natural" v="hill" />
		<tag k="place" v="locality" />
		<tag k="ssr:stedsnr" v="932599" />
	</node>
	<node lat="59.89223316671684" lon="10.346930404142453" id="-34724">
		<tag k="fixme" v="consider natural=peak for the most distinct mountains in the district" />
		<tag k="name" v="Engerbrenna" />
		<tag k="natural" v="hill" />
		<tag k="place" v="locality" />
		<tag k="ssr:stedsnr" v="4884" />
	</node>
	<node lat="59.92036389094451" lon="10.346652769122135" id="-34725">
		<tag k="fixme" v="consider natural=peak for the most distinct mountains in the district" />
		<tag k="name" v="Himåsen" />
		<tag k="natural" v="hill" />
		<tag k="place" v="locality" />
		<tag k="ssr:stedsnr" v="4938" />
	</node>
	<node lat="59.80311944057629" lon="10.249238884361745" id="-34734">
		<tag k="name" v="Tronbergfjella" />
		<tag k="natural" v="slope" />
		<tag k="place" v="locality" />
		<tag k="ssr:stedsnr" v="20762" />
	</node>
	<node lat="59.799975000586926" lon="10.196374992836189" id="-34737">
		<tag k="name" v="Torshaugen" />
		<tag k="natural" v="hill" />
		<tag k="place" v="locality" />
		<tag k="ssr:stedsnr" v="20721" />
	</node>
	<node lat="59.86105241585239" lon="10.125680749072547" id="-34754">
		<tag k="fixme" v="consider natural=peak for the most distinct mountains in the district" />
		<tag k="name" v="Seteråsen" />
		<tag k="natural" v="hill" />
		<tag k="place" v="locality" />
		<tag k="ssr:stedsnr" v="21477" />
	</node>
	<node lat="59.96150833616141" lon="10.28511111321089" id="-34756">
		<tag k="name" v="Ulbråtan" />
		<tag k="natural" v="hill" />
		<tag k="place" v="locality" />
		<tag k="ssr:stedsnr" v="21614" />
	</node>
	<node lat="59.93670833307416" lon="10.20371110429617" id="-34771">
		<tag k="name" v="Monsetjerndalen" />
		<tag k="natural" v="valley" />
		<tag k="place" v="locality" />
		<tag k="ssr:stedsnr" v="22526" />
	</node>
	<node lat="59.86698333705782" lon="10.096447224325397" id="-34778">
		<tag k="name" v="Damdalen" />
		<tag k="natural" v="valley" />
		<tag k="place" v="locality" />
		<tag k="ssr:stedsnr" v="22924" />
	</node>
	<node lat="59.83476388966742" lon="10.286969440490148" id="-34795">
		<tag k="fixme" v="consider natural=peak for the most distinct mountains in the district" />
		<tag k="name" v="Kraftkollen" />
		<tag k="natural" v="hill" />
		<tag k="place" v="locality" />
		<tag k="ssr:stedsnr" v="65270" />
	</node>
	<node lat="59.837955558263104" lon="10.177163885485697" id="-34796">
		<tag k="fixme" v="consider natural=peak for the most distinct mountains in the district" />
		<tag k="name" v="Overskylda" />
		<tag k="natural" v="hill" />
		<tag k="place" v="locality" />
		<tag k="ssr:stedsnr" v="65282" />
	</node>
	<node lat="59.88569999904149" lon="10.104274997655804" id="-34806">
		<tag k="fixme" v="consider natural=peak for the most distinct mountains in the district" />
		<tag k="name" v="Nyseterbrenna" />
		<tag k="natural" v="hill" />
		<tag k="place" v="locality" />
		<tag k="ssr:stedsnr" v="82027" />
	</node>
	<node lat="59.7751916665978" lon="10.173030547079737" id="-34826">
		<tag k="fixme" v="consider natural=saddle" />
		<tag k="name" v="Kjerringræva" />
		<tag k="natural" v="valley" />
		<tag k="place" v="locality" />
		<tag k="ssr:stedsnr" v="82645" />
	</node>
	<node lat="59.95893333507153" lon="10.192283325033477" id="-34827">
		<tag k="name" v="Hornsenka" />
		<tag k="natural" v="hill" />
		<tag k="place" v="locality" />
		<tag k="ssr:stedsnr" v="82672" />
	</node>
	<node lat="59.91060277452407" lon="10.270552777357258" id="-34837">
		<tag k="fixme" v="consider natural=saddle" />
		<tag k="name" v="Bjørneleina" />
		<tag k="natural" v="valley" />
		<tag k="place" v="locality" />
		<tag k="ssr:stedsnr" v="83711" />
	</node>
	<node lat="59.92651666723674" lon="10.371152772066992" id="-34838">
		<tag k="name" v="Buråsen" />
		<tag k="natural" v="hill" />
		<tag k="place" v="locality" />
		<tag k="ssr:stedsnr" v="83923" />
	</node>
	<node lat="59.88696389170454" lon="10.133222224670382" id="-34855">
		<tag k="name" v="Brenneriet" />
		<tag k="natural" v="hill" />
		<tag k="place" v="locality" />
		<tag k="ssr:stedsnr" v="142048" />
	</node>
	<node lat="59.84927222254864" lon="10.194044453097149" id="-34863">
		<tag k="name" v="Trollhaugen" />
		<tag k="natural" v="hill" />
		<tag k="place" v="locality" />
		<tag k="ssr:stedsnr" v="142406" />
	</node>
	<node lat="59.86782778154479" lon="10.166599991783876" id="-34865">
		<tag k="fixme" v="consider natural=peak for the most distinct mountains in the district" />
		<tag k="name" v="Sporhaugane" />
		<tag k="natural" v="hill" />
		<tag k="place" v="locality" />
		<tag k="ssr:stedsnr" v="142255" />
	</node>
	<node lat="59.95367777437993" lon="10.257313896126202" id="-34867">
		<tag k="fixme" v="consider natural=peak for the most distinct mountains in the district" />
		<tag k="name" v="Siljuåsen" />
		<tag k="natural" v="hill" />
		<tag k="place" v="locality" />
		<tag k="ssr:stedsnr" v="142620" />
	</node>
	<node lat="59.90676707785681" lon="10.334104950859725" id="-34873">
		<tag k="name" v="Husdalen" />
		<tag k="natural" v="valley" />
		<tag k="place" v="locality" />
		<tag k="ssr:stedsnr" v="143559" />
	</node>
	<node lat="59.92271388803766" lon="10.238472217375055" id="-34883">
		<tag k="fixme" v="consider natural=peak for the most distinct mountains in the district" />
		<tag k="name" v="Gruveåsen" />
		<tag k="natural" v="hill" />
		<tag k="place" v="locality" />
		<tag k="ssr:stedsnr" v="186457" />
	</node>
	<node lat="59.832158334502324" lon="10.160169451303307" id="-34905">
		<tag k="fixme" v="consider natural=peak for the most distinct mountains in the district" />
		<tag k="name" v="Kleggern" />
		<tag k="natural" v="hill" />
		<tag k="place" v="locality" />
		<tag k="ssr:stedsnr" v="203446" />
	</node>
	<node lat="59.8545388845193" lon="10.30087500072146" id="-34910">
		<tag k="name" v="Folaberga" />
		<tag k="natural" v="hill" />
		<tag k="place" v="locality" />
		<tag k="ssr:stedsnr" v="203896" />
	</node>
	<node lat="59.8658388919861" lon="10.310405553159079" id="-34912">
		<tag k="name" v="Klippedalen" />
		<tag k="natural" v="valley" />
		<tag k="place" v="locality" />
		<tag k="ssr:stedsnr" v="203933" />
	</node>
	<node lat="59.934127774171344" lon="10.249752771172771" id="-34915">
		<tag k="alt_name" v="Røinehaugen" />
		<tag k="name" v="Røynehaugen" />
		<tag k="natural" v="hill" />
		<tag k="place" v="locality" />
		<tag k="ssr:stedsnr" v="204483" />
	</node>
	<node lat="59.85182222358196" lon="10.309994445608424" id="-34929">
		<tag k="alt_name" v="Tangane" />
		<tag k="fixme" v="consider natural=peak for the most distinct mountains in the district" />
		<tag k="name" v="Tangene" />
		<tag k="natural" v="hill" />
		<tag k="place" v="locality" />
		<tag k="ssr:stedsnr" v="264093" />
	</node>
	<node lat="59.82611110765288" lon="10.313697224042272" id="-34933">
		<tag k="name" v="Grøstaddalsberget" />
		<tag k="natural" v="ridge" />
		<tag k="place" v="locality" />
		<tag k="ssr:stedsnr" v="264046" />
	</node>
	<node lat="59.83541667085492" lon="10.296644436885831" id="-34935">
		<tag k="fixme" v="consider natural=peak for the most distinct mountains in the district" />
		<tag k="name" v="Rotuåsen" />
		<tag k="natural" v="hill" />
		<tag k="place" v="locality" />
		<tag k="ssr:stedsnr" v="264111" />
	</node>
	<node lat="59.93125833057001" lon="10.228402782628086" id="-34945">
		<tag k="fixme" v="consider natural=peak for the most distinct mountains in the district" />
		<tag k="name" v="Røynelihøgda" />
		<tag k="natural" v="hill" />
		<tag k="old_name" v="Røinelihøgda" />
		<tag k="place" v="locality" />
		<tag k="ssr:stedsnr" v="264538" />
	</node>
	<node lat="59.95653611154069" lon="10.215408331144012" id="-34948">
		<tag k="name" v="Flisemyrhaugen" />
		<tag k="natural" v="hill" />
		<tag k="place" v="locality" />
		<tag k="ssr:stedsnr" v="264618" />
	</node>
	<node lat="59.963825002277886" lon="10.21952222385311" id="-34951">
		<tag k="name" v="Kjerringmyrhaugane" />
		<tag k="natural" v="hill" />
		<tag k="place" v="locality" />
		<tag k="ssr:stedsnr" v="264734" />
	</node>
	<node lat="59.963816668780716" lon="10.212594441079256" id="-34952">
		<tag k="name" v="Maidalen" />
		<tag k="natural" v="valley" />
		<tag k="place" v="locality" />
		<tag k="ssr:stedsnr" v="264739" />
	</node>
	<node lat="59.952169444114524" lon="10.283838886736579" id="-34955">
		<tag k="fixme" v="consider natural=peak for the most distinct mountains in the district" />
		<tag k="name" v="Sagåsen" />
		<tag k="natural" v="hill" />
		<tag k="place" v="locality" />
		<tag k="ssr:stedsnr" v="264586" />
	</node>
	<node lat="59.79270555764992" lon="10.194316665746703" id="-34960">
		<tag k="fixme" v="consider natural=peak for the most distinct mountains in the district" />
		<tag k="name" v="Grindene" />
		<tag k="natural" v="hill" />
		<tag k="place" v="locality" />
		<tag k="ssr:stedsnr" v="265098" />
	</node>
	<node lat="59.88943055434738" lon="10.120925004122988" id="-34987">
		<tag k="alt_name" v="Kløftetangane" />
		<tag k="name" v="Kluftetangene" />
		<tag k="place" v="locality" />
		<tag k="ssr:stedsnr" v="308347" />
	</node>
	<node lat="59.899749997852155" lon="10.286661114626364" id="-34988">
		<tag k="fixme" v="consider natural=peak for the most distinct mountains in the district" />
		<tag k="name" v="Altanåsen" />
		<tag k="natural" v="hill" />
		<tag k="place" v="locality" />
		<tag k="ssr:stedsnr" v="323173" />
	</node>
	<node lat="59.79131638759789" lon="10.299439544975174" id="-34989">
		<tag k="fixme" v="consider natural=peak for the most distinct mountains in the district" />
		<tag k="name" v="Stormyråsen" />
		<tag k="natural" v="hill" />
		<tag k="place" v="locality" />
		<tag k="ssr:stedsnr" v="324672" />
	</node>
	<node lat="59.79333333145515" lon="10.3156138882264" id="-34990">
		<tag k="fixme" v="consider natural=peak for the most distinct mountains in the district" />
		<tag k="name" v="Lyfjell" />
		<tag k="natural" v="hill" />
		<tag k="place" v="locality" />
		<tag k="ssr:stedsnr" v="324673" />
	</node>
	<node lat="59.79535277437859" lon="10.233533341950404" id="-34991">
		<tag k="loc_name" v="Renskaudalen" />
		<tag k="name" v="Renskaugdalen" />
		<tag k="natural" v="valley" />
		<tag k="place" v="locality" />
		<tag k="ssr:stedsnr" v="324724" />
	</node>
	<node lat="59.82580833503795" lon="10.093886109878829" id="-34997">
		<tag k="alt_name" v="Svarthavndalen" />
		<tag k="name" v="Svarthamndalen" />
		<tag k="natural" v="valley" />
		<tag k="place" v="locality" />
		<tag k="ssr:stedsnr" v="325448" />
	</node>
	<node lat="59.924434263958304" lon="10.357044794714831" id="-34999">
		<tag k="alt_name" v="Kveisebotten;Kvisebonn" />
		<tag k="name" v="Kveisebonn" />
		<tag k="natural" v="valley" />
		<tag k="place" v="locality" />
		<tag k="ssr:stedsnr" v="325557" />
	</node>
	<node lat="59.903583329279606" lon="10.351422230710474" id="-35000">
		<tag k="name" v="Dragsbonn" />
		<tag k="natural" v="valley" />
		<tag k="place" v="locality" />
		<tag k="ssr:stedsnr" v="325572" />
	</node>
	<node lat="59.83910555660098" lon="10.294188896335948" id="-35008">
		<tag k="name" v="Lyarhorn" />
		<tag k="natural" v="slope" />
		<tag k="place" v="locality" />
		<tag k="ssr:stedsnr" v="325848" />
	</node>
	<node lat="59.90985278079985" lon="10.331205555283292" id="-35018">
		<tag k="name" v="Brennengkastet" />
		<tag k="natural" v="cliff" />
		<tag k="ssr:stedsnr" v="326877" />
	</node>
	<node lat="59.845576174508075" lon="10.130152323139923" id="-35036">
		<tag k="fixme" v="consider natural=peak for the most distinct mountains in the district" />
		<tag k="name" v="Kapitelen" />
		<tag k="natural" v="hill" />
		<tag k="place" v="locality" />
		<tag k="ssr:stedsnr" v="368279" />
	</node>
	<node lat="59.823874995869005" lon="10.30008888734467" id="-35045">
		<tag k="name" v="Grøstadmarka" />
		<tag k="natural" v="hill" />
		<tag k="old_name" v="Grøstadmarken" />
		<tag k="place" v="locality" />
		<tag k="ssr:stedsnr" v="385055" />
	</node>
	<node lat="59.842583332063676" lon="10.287047224016307" id="-35047">
		<tag k="fixme" v="consider natural=saddle" />
		<tag k="name" v="Myssmørkleiva" />
		<tag k="natural" v="valley" />
		<tag k="place" v="locality" />
		<tag k="ssr:stedsnr" v="385130" />
	</node>
	<node lat="59.84012499867342" lon="10.145125008401616" id="-35059">
		<tag k="name" v="Almedalen" />
		<tag k="natural" v="valley" />
		<tag k="place" v="locality" />
		<tag k="ssr:stedsnr" v="385464" />
	</node>
	<node lat="59.768225000637884" lon="10.18491666632252" id="-35064">
		<tag k="name" v="Trappesteinberget" />
		<tag k="natural" v="hill" />
		<tag k="place" v="locality" />
		<tag k="ssr:stedsnr" v="385674" />
	</node>
	<node lat="59.9211805531511" lon="10.299225007011287" id="-35073">
		<tag k="fixme" v="consider natural=peak for the most distinct mountains in the district" />
		<tag k="name" v="Dragsåsen" />
		<tag k="natural" v="hill" />
		<tag k="place" v="locality" />
		<tag k="ssr:stedsnr" v="385491" />
	</node>
	<node lat="59.940624999038874" lon="10.215688885807378" id="-35075">
		<tag k="name" v="Veslemoen" />
		<tag k="natural" v="hill" />
		<tag k="place" v="locality" />
		<tag k="ssr:stedsnr" v="385639" />
	</node>
	<node lat="59.80204722229104" lon="10.295305547790674" id="-35081">
		<tag k="fixme" v="consider natural=peak for the most distinct mountains in the district" />
		<tag k="name" v="Gunnaråsen" />
		<tag k="natural" v="hill" />
		<tag k="place" v="locality" />
		<tag k="ssr:stedsnr" v="385687" />
	</node>
	<node lat="59.73616944315576" lon="10.306122216987761" id="-35092">
		<tag k="fixme" v="consider natural=peak for the most distinct mountains in the district" />
		<tag k="name" v="Gullaugfjellet" />
		<tag k="natural" v="hill" />
		<tag k="place" v="locality" />
		<tag k="ssr:stedsnr" v="385860" />
	</node>
	<node lat="59.85948333405962" lon="10.321833337855105" id="-35100">
		<tag k="name" v="Bødalen" />
		<tag k="natural" v="valley" />
		<tag k="place" v="locality" />
		<tag k="ssr:stedsnr" v="385969" />
	</node>
	<node lat="59.9171083376532" lon="10.197813881174007" id="-35124">
		<tag k="fixme" v="consider natural=peak for the most distinct mountains in the district" />
		<tag k="name" v="Grasåsen" />
		<tag k="natural" v="hill" />
		<tag k="place" v="locality" />
		<tag k="ssr:stedsnr" v="429398" />
	</node>
	<node lat="59.79985555656303" lon="10.175838888798015" id="-35127">
		<tag k="fixme" v="consider natural=peak for the most distinct mountains in the district" />
		<tag k="name" v="Rødsåsen" />
		<tag k="natural" v="hill" />
		<tag k="place" v="locality" />
		<tag k="ssr:stedsnr" v="429489" />
	</node>
	<node lat="59.82783610735657" lon="10.144730554836148" id="-35133">
		<tag k="name" v="Sauekollen" />
		<tag k="natural" v="hill" />
		<tag k="place" v="locality" />
		<tag k="ssr:stedsnr" v="489233" />
	</node>
	<node lat="59.80117499651114" lon="10.187074991613686" id="-35145">
		<tag k="fixme" v="consider natural=peak for the most distinct mountains in the district" />
		<tag k="name" v="Ravnefjell" />
		<tag k="natural" v="hill" />
		<tag k="place" v="locality" />
		<tag k="ssr:stedsnr" v="506694" />
	</node>
	<node lat="59.84158333353988" lon="10.327458335608345" id="-35148">
		<tag k="fixme" v="consider natural=peak for the most distinct mountains in the district" />
		<tag k="name" v="Bøåsen" />
		<tag k="natural" v="hill" />
		<tag k="place" v="locality" />
		<tag k="ssr:stedsnr" v="507068" />
	</node>
	<node lat="59.76828055802826" lon="10.295541669327482" id="-35163">
		<tag k="name" v="Andreasbråtan" />
		<tag k="natural" v="slope" />
		<tag k="place" v="locality" />
		<tag k="ssr:stedsnr" v="507593" />
	</node>
	<node lat="59.775972219919474" lon="10.17221944490148" id="-35166">
		<tag k="name" v="Grønnlia" />
		<tag k="natural" v="slope" />
		<tag k="place" v="locality" />
		<tag k="ssr:stedsnr" v="507674" />
	</node>
	<node lat="59.94103333511086" lon="10.231461110440595" id="-35175">
		<tag k="fixme" v="consider natural=peak for the most distinct mountains in the district" />
		<tag k="name" v="Hullbekkåsen" />
		<tag k="natural" v="hill" />
		<tag k="place" v="locality" />
		<tag k="ssr:stedsnr" v="508934" />
	</node>
	<node lat="59.75878055894342" lon="10.317725000814118" id="-35180">
		<tag k="fixme" v="consider natural=peak for the most distinct mountains in the district" />
		<tag k="name" v="Gyriåsen" />
		<tag k="natural" v="hill" />
		<tag k="place" v="locality" />
		<tag k="ssr:stedsnr" v="549081" />
	</node>
	<node lat="59.94555555715532" lon="10.258161113742144" id="-35182">
		<tag k="alt_name" v="Rogneholtet" />
		<tag k="fixme" v="consider natural=peak for the most distinct mountains in the district" />
		<tag k="name" v="Rognholtet" />
		<tag k="natural" v="hill" />
		<tag k="place" v="locality" />
		<tag k="ssr:stedsnr" v="549395" />
	</node>
	<node lat="59.853175001612684" lon="10.16943333127134" id="-35197">
		<tag k="name" v="Gravdal" />
		<tag k="natural" v="valley" />
		<tag k="place" v="locality" />
		<tag k="ssr:stedsnr" v="567242" />
	</node>
	<node lat="59.81849166704554" lon="10.105305551369689" id="-35209">
		<tag k="name" v="Snaret" />
		<tag k="natural" v="hill" />
		<tag k="place" v="locality" />
		<tag k="ssr:stedsnr" v="567438" />
	</node>
	<node lat="59.961080556711636" lon="10.246774999688913" id="-35215">
		<tag k="fixme" v="consider natural=peak for the most distinct mountains in the district" />
		<tag k="loc_name" v="Almedalsfjellet" />
		<tag k="name" v="Almdalsfjellet" />
		<tag k="natural" v="hill" />
		<tag k="place" v="locality" />
		<tag k="ssr:stedsnr" v="567732" />
	</node>
	<node lat="59.87366944044551" lon="10.306724997698453" id="-35219">
		<tag k="name" v="Bjønnekastet" />
		<tag k="natural" v="cliff" />
		<tag k="ssr:stedsnr" v="567934" />
	</node>
	<node lat="59.88721388594829" lon="10.348705555518341" id="-35220">
		<tag k="fixme" v="consider natural=peak for the most distinct mountains in the district" />
		<tag k="name" v="Høgbrenna" />
		<tag k="natural" v="hill" />
		<tag k="place" v="locality" />
		<tag k="ssr:stedsnr" v="568287" />
	</node>
	<node lat="59.94781388641785" lon="10.343605550631878" id="-35221">
		<tag k="fixme" v="consider natural=peak for the most distinct mountains in the district" />
		<tag k="name" v="Langmyrhogget" />
		<tag k="natural" v="hill" />
		<tag k="place" v="locality" />
		<tag k="ssr:stedsnr" v="568296" />
	</node>
	<node lat="59.92206110880795" lon="10.372630560422682" id="-35222">
		<tag k="alt_name" v="Møllerbotten" />
		<tag k="name" v="Møllerbonn" />
		<tag k="natural" v="valley" />
		<tag k="place" v="locality" />
		<tag k="ssr:stedsnr" v="568541" />
	</node>
	<node lat="59.93159722054282" lon="10.367433327702019" id="-35227">
		<tag k="name" v="Langbakken" />
		<tag k="natural" v="slope" />
		<tag k="place" v="locality" />
		<tag k="ssr:stedsnr" v="568578" />
	</node>
	<node lat="59.813969440998626" lon="10.151316664740332" id="-35240">
		<tag k="fixme" v="multiple name tags, choose one and add the other to alt_name; consider natural=peak for the most distinct mountains in the district" />
		<tag k="name" v="Eikheia;Eikheiane" />
		<tag k="natural" v="hill" />
		<tag k="place" v="locality" />
		<tag k="ssr:stedsnr" v="610265" />
	</node>
	<node lat="59.87009722168061" lon="10.131127781355138" id="-35255">
		<tag k="name" v="Mastedalen" />
		<tag k="natural" v="valley" />
		<tag k="place" v="locality" />
		<tag k="ssr:stedsnr" v="628024" />
	</node>
	<node lat="59.885338888922085" lon="10.346422220246863" id="-35260">
		<tag k="name" v="Midtengerbonn" />
		<tag k="natural" v="valley" />
		<tag k="place" v="locality" />
		<tag k="ssr:stedsnr" v="628282" />
	</node>
	<node lat="59.868352781198226" lon="10.268127772691095" id="-35262">
		<tag k="name" v="Byttingen" />
		<tag k="natural" v="valley" />
		<tag k="place" v="locality" />
		<tag k="ssr:stedsnr" v="628287" />
	</node>
	<node lat="59.95213333030816" lon="10.344397213510327" id="-35264">
		<tag k="fixme" v="consider natural=peak for the most distinct mountains in the district" />
		<tag k="name" v="Korpåsen" />
		<tag k="natural" v="hill" />
		<tag k="place" v="locality" />
		<tag k="ssr:stedsnr" v="628290" />
	</node>
	<node lat="59.88234722554749" lon="10.306580558807024" id="-35267">
		<tag k="name" v="Tveitebakken" />
		<tag k="natural" v="slope" />
		<tag k="place" v="locality" />
		<tag k="ssr:stedsnr" v="628679" />
	</node>
	<node lat="59.792516666062994" lon="10.182102777230504" id="-35270">
		<tag k="name" v="Gladbakk" />
		<tag k="natural" v="slope" />
		<tag k="place" v="locality" />
		<tag k="ssr:stedsnr" v="628687" />
	</node>
	<node lat="59.908994443793134" lon="10.34719166013274" id="-35281">
		<tag k="name" v="Bakkebonn" />
		<tag k="natural" v="valley" />
		<tag k="place" v="locality" />
		<tag k="ssr:stedsnr" v="629889" />
	</node>
	<node lat="59.92168611135042" lon="10.334749995275802" id="-35282">
		<tag k="name" v="Svarteberget" />
		<tag k="natural" v="slope" />
		<tag k="place" v="locality" />
		<tag k="ssr:stedsnr" v="629938" />
	</node>
	<node lat="59.920166665529855" lon="10.356025008159396" id="-35283">
		<tag k="name" v="Seterbakken" />
		<tag k="natural" v="slope" />
		<tag k="place" v="locality" />
		<tag k="ssr:stedsnr" v="629941" />
	</node>
	<node lat="59.89283888769808" lon="10.18665556059475" id="-35293">
		<tag k="fixme" v="consider natural=peak for the most distinct mountains in the district" />
		<tag k="name" v="Gjevlekollen" />
		<tag k="natural" v="hill" />
		<tag k="place" v="locality" />
		<tag k="ssr:stedsnr" v="731283" />
	</node>
	<node lat="59.76772221863845" lon="10.305888891433037" id="-35296">
		<tag k="fixme" v="consider natural=peak for the most distinct mountains in the district" />
		<tag k="name" v="Sørumåsen" />
		<tag k="natural" v="hill" />
		<tag k="old_name" v="Sørumsåsen" />
		<tag k="place" v="locality" />
		<tag k="ssr:stedsnr" v="731146" />
	</node>
	<node lat="59.87338333085708" lon="10.090399992707926" id="-35314">
		<tag k="fixme" v="consider natural=peak for the most distinct mountains in the district" />
		<tag k="name" v="Korpåsen" />
		<tag k="natural" v="hill" />
		<tag k="place" v="locality" />
		<tag k="ssr:stedsnr" v="733477" />
	</node>
	<node lat="59.86279166858225" lon="10.199041673160032" id="-35330">
		<tag k="fixme" v="consider natural=peak for the most distinct mountains in the district" />
		<tag k="name" v="Øverbyåsen" />
		<tag k="natural" v="hill" />
		<tag k="place" v="locality" />
		<tag k="ssr:stedsnr" v="749260" />
	</node>
	<node lat="59.94840555724594" lon="10.242016660110002" id="-35336">
		<tag k="name" v="Kluften" />
		<tag k="natural" v="valley" />
		<tag k="place" v="locality" />
		<tag k="ssr:stedsnr" v="749635" />
	</node>
	<node lat="59.936505558462535" lon="10.209275000132063" id="-35339">
		<tag k="name" v="Festningen" />
		<tag k="natural" v="slope" />
		<tag k="place" v="locality" />
		<tag k="ssr:stedsnr" v="749529" />
	</node>
	<node lat="59.91676111323667" lon="10.20972499457294" id="-35341">
		<tag k="loc_name" v="Kårevannslia" />
		<tag k="name" v="Kårevasslia" />
		<tag k="natural" v="slope" />
		<tag k="place" v="locality" />
		<tag k="ssr:stedsnr" v="749556" />
	</node>
	<node lat="59.79355278025589" lon="10.270202771994189" id="-35344">
		<tag k="fixme" v="consider natural=peak for the most distinct mountains in the district" />
		<tag k="name" v="Fosskollen" />
		<tag k="natural" v="hill" />
		<tag k="place" v="locality" />
		<tag k="ssr:stedsnr" v="749698" />
	</node>
	<node lat="59.94083055169153" lon="10.137925003841586" id="-35354">
		<tag k="name" v="Damtjernhallen" />
		<tag k="natural" v="slope" />
		<tag k="place" v="locality" />
		<tag k="ssr:stedsnr" v="749944" />
	</node>
	<node lat="59.8177277810854" lon="10.338505548754302" id="-35356">
		<tag k="name" v="Heiatoppen" />
		<tag k="natural" v="hill" />
		<tag k="place" v="locality" />
		<tag k="ssr:stedsnr" v="750846" />
	</node>
	<node lat="59.94639167007257" lon="10.34543055072225" id="-35358">
		<tag k="name" v="Langmyrdalen" />
		<tag k="natural" v="valley" />
		<tag k="place" v="locality" />
		<tag k="ssr:stedsnr" v="750577" />
	</node>
	<node lat="59.85647221900232" lon="10.133047218510356" id="-35366">
		<tag k="name" v="Seterbrenna" />
		<tag k="natural" v="hill" />
		<tag k="place" v="locality" />
		<tag k="ssr:stedsnr" v="792258" />
	</node>
	<node lat="59.81017778091507" lon="10.171263881023782" id="-35370">
		<tag k="fixme" v="consider natural=peak for the most distinct mountains in the district" />
		<tag k="name" v="Storsteinsfjell" />
		<tag k="natural" v="hill" />
		<tag k="place" v="locality" />
		<tag k="ssr:stedsnr" v="792231" />
	</node>
	<node lat="59.9515555588732" lon="10.248736103963862" id="-35373">
		<tag k="fixme" v="consider natural=peak for the most distinct mountains in the district" />
		<tag k="name" v="Vindfallåsen" />
		<tag k="natural" v="hill" />
		<tag k="place" v="locality" />
		<tag k="ssr:stedsnr" v="792379" />
	</node>
	<node lat="59.958552777517184" lon="10.202725004035477" id="-35374">
		<tag k="name" v="Rassballhaugane" />
		<tag k="natural" v="hill" />
		<tag k="place" v="locality" />
		<tag k="ssr:stedsnr" v="792380" />
	</node>
	<node lat="59.91106944311612" lon="10.265702771336095" id="-35376">
		<tag k="fixme" v="consider natural=peak for the most distinct mountains in the district" />
		<tag k="name" v="Hørtekollen" />
		<tag k="natural" v="hill" />
		<tag k="place" v="locality" />
		<tag k="ssr:stedsnr" v="793437" />
	</node>
	<node lat="59.908131800002224" lon="10.367392098268073" id="-35386">
		<tag k="alt_name" v="Butterudbotn" />
		<tag k="name" v="Butterudbonn" />
		<tag k="natural" v="valley" />
		<tag k="place" v="locality" />
		<tag k="ssr:stedsnr" v="793932" />
	</node>
	<node lat="59.80799444183751" lon="10.183380557019328" id="-35391">
		<tag k="name" v="Bekkedalen" />
		<tag k="natural" v="valley" />
		<tag k="place" v="locality" />
		<tag k="ssr:stedsnr" v="809723" />
	</node>
	<node lat="59.89770833654441" lon="10.350808328852136" id="-35415">
		<tag k="name" v="Brenna" />
		<tag k="natural" v="slope" />
		<tag k="place" v="locality" />
		<tag k="ssr:stedsnr" v="810577" />
	</node>
	<node lat="59.951572224492296" lon="10.23638888049143" id="-35424">
		<tag k="fixme" v="consider natural=peak for the most distinct mountains in the district" />
		<tag k="name" v="Seteråsen" />
		<tag k="natural" v="hill" />
		<tag k="place" v="locality" />
		<tag k="ssr:stedsnr" v="810631" />
	</node>
	<node lat="59.93593888844348" lon="10.18587221349808" id="-35426">
		<tag k="fixme" v="consider natural=peak for the most distinct mountains in the district" />
		<tag k="name" v="Svartåsen" />
		<tag k="natural" v="hill" />
		<tag k="place" v="locality" />
		<tag k="ssr:stedsnr" v="810694" />
	</node>
	<node lat="59.93351111261245" lon="10.14033889756008" id="-35435">
		<tag k="name" v="Tverråsaksla" />
		<tag k="natural" v="hill" />
		<tag k="place" v="locality" />
		<tag k="ssr:stedsnr" v="810930" />
	</node>
	<node lat="59.91371666318014" lon="10.360563891267594" id="-35441">
		<tag k="fixme" v="consider natural=peak for the most distinct mountains in the district" />
		<tag k="name" v="Vesle Rennaren" />
		<tag k="natural" v="hill" />
		<tag k="place" v="locality" />
		<tag k="ssr:stedsnr" v="811851" />
	</node>
	<node lat="59.91754166735221" lon="10.357930560156989" id="-35442">
		<tag k="loc_name" v="Sververhøla" />
		<tag k="name" v="Svervehøla" />
		<tag k="natural" v="valley" />
		<tag k="place" v="locality" />
		<tag k="ssr:stedsnr" v="811880" />
	</node>
	<node lat="59.920316664876474" lon="10.372005546908904" id="-35444">
		<tag k="name" v="Møllerbonnhaugane" />
		<tag k="natural" v="hill" />
		<tag k="place" v="locality" />
		<tag k="ssr:stedsnr" v="811926" />
	</node>
	<node lat="59.94992222416414" lon="10.202113883195974" id="-35457">
		<tag k="fixme" v="consider natural=peak for the most distinct mountains in the district" />
		<tag k="name" v="Stormoen" />
		<tag k="natural" v="hill" />
		<tag k="place" v="locality" />
		<tag k="ssr:stedsnr" v="854373" />
	</node>
	<node lat="59.89534167113355" lon="10.350883329986678" id="-35461">
		<tag k="name" v="Kjennerhaugen" />
		<tag k="natural" v="hill" />
		<tag k="place" v="locality" />
		<tag k="ssr:stedsnr" v="854867" />
	</node>
	<node lat="59.883863885948685" lon="10.21200000800638" id="-35469">
		<tag k="name" v="Vefferstadholene" />
		<tag k="natural" v="ridge" />
		<tag k="place" v="locality" />
		<tag k="ssr:stedsnr" v="871154" />
	</node>
	<node lat="59.91010277347807" lon="10.345874991233565" id="-35482">
		<tag k="name" v="Hørtebonn" />
		<tag k="natural" v="valley" />
		<tag k="place" v="locality" />
		<tag k="ssr:stedsnr" v="871545" />
	</node>
	<node lat="59.902783336837125" lon="10.357627777407446" id="-35483">
		<tag k="fixme" v="consider natural=peak for the most distinct mountains in the district" />
		<tag k="name" v="Bjønnåsen" />
		<tag k="natural" v="hill" />
		<tag k="place" v="locality" />
		<tag k="ssr:stedsnr" v="871546" />
	</node>
	<node lat="59.82932777424313" lon="10.131280562677096" id="-35485">
		<tag k="fixme" v="consider natural=peak for the most distinct mountains in the district" />
		<tag k="name" v="Vallevollåsen" />
		<tag k="natural" v="hill" />
		<tag k="place" v="locality" />
		<tag k="ssr:stedsnr" v="871434" />
	</node>
	<node lat="59.940058332866904" lon="10.218313891453546" id="-35487">
		<tag k="name" v="Smørseterdalen" />
		<tag k="natural" v="valley" />
		<tag k="place" v="locality" />
		<tag k="ssr:stedsnr" v="871607" />
	</node>
	<node lat="59.94093055587109" lon="10.222086109482536" id="-35488">
		<tag k="alt_name" v="Svartvssåsen" />
		<tag k="fixme" v="consider natural=peak for the most distinct mountains in the district" />
		<tag k="name" v="Svartvannsåsen" />
		<tag k="natural" v="hill" />
		<tag k="place" v="locality" />
		<tag k="ssr:stedsnr" v="871611" />
	</node>
	<node lat="59.89486110788855" lon="10.320755564051158" id="-35495">
		<tag k="loc_name" v="Engerkleivene" />
		<tag k="name" v="Engerkleiva" />
		<tag k="natural" v="slope" />
		<tag k="place" v="locality" />
		<tag k="ssr:stedsnr" v="871960" />
	</node>
	<node lat="59.85890277505662" lon="10.315027770944084" id="-35501">
		<tag k="alt_name" v="Opsalhaugbånn" />
		<tag k="loc_name" v="Opsalhaugbonn" />
		<tag k="name" v="Oppsalhaugbonn" />
		<tag k="natural" v="slope" />
		<tag k="place" v="locality" />
		<tag k="ssr:stedsnr" v="871871" />
	</node>
	<node lat="59.8876111147326" lon="10.299494448182333" id="-35502">
		<tag k="alt_name" v="Tvetendalen" />
		<tag k="name" v="Tveitendalen" />
		<tag k="natural" v="valley" />
		<tag k="place" v="locality" />
		<tag k="ssr:stedsnr" v="871989" />
	</node>
	<node lat="59.89753333062853" lon="10.341319435596237" id="-35505">
		<tag k="name" v="Grisebonn" />
		<tag k="natural" v="valley" />
		<tag k="place" v="locality" />
		<tag k="ssr:stedsnr" v="872601" />
	</node>
	<node lat="59.93512777714644" lon="10.336469437074646" id="-35507">
		<tag k="name" v="Rennekastet" />
		<tag k="natural" v="cliff" />
		<tag k="ssr:stedsnr" v="872935" />
	</node>
	<node lat="59.86894166595334" lon="10.30636666916378" id="-35511">
		<tag k="fixme" v="consider natural=peak for the most distinct mountains in the district" />
		<tag k="name" v="Furuåsen" />
		<tag k="natural" v="hill" />
		<tag k="place" v="locality" />
		<tag k="ssr:stedsnr" v="930177" />
	</node>
	<node lat="59.851047223263166" lon="10.306044436225525" id="-35516">
		<tag k="name" v="Rotudalen" />
		<tag k="natural" v="valley" />
		<tag k="place" v="locality" />
		<tag k="ssr:stedsnr" v="932089" />
	</node>
	<node lat="59.86016666854223" lon="10.158611102783698" id="-35517">
		<tag k="fixme" v="consider natural=peak for the most distinct mountains in the district" />
		<tag k="name" v="Bjørnåsen" />
		<tag k="natural" v="hill" />
		<tag k="place" v="locality" />
		<tag k="ssr:stedsnr" v="932238" />
	</node>
	<node lat="59.86062777608889" lon="10.07581666963908" id="-35524">
		<tag k="name" v="Rabergrenna" />
		<tag k="natural" v="slope" />
		<tag k="place" v="locality" />
		<tag k="ssr:stedsnr" v="932027" />
	</node>
	<node lat="59.77508055692962" lon="10.310480562807877" id="-35537">
		<tag k="name" v="Melkebakken" />
		<tag k="natural" v="slope" />
		<tag k="old_name" v="Mjelkebakken" />
		<tag k="place" v="locality" />
		<tag k="ssr:stedsnr" v="932567" />
	</node>
	<node lat="59.91654999735542" lon="10.13746943809131" id="-35544">
		<tag k="fixme" v="consider natural=saddle" />
		<tag k="name" v="Kringlehølsstuen" />
		<tag k="natural" v="valley" />
		<tag k="place" v="locality" />
		<tag k="ssr:stedsnr" v="932667" />
	</node>
	<node lat="59.93564444183589" lon="10.347463885933594" id="-35551">
		<tag k="name" v="Djupdalsberga" />
		<tag k="natural" v="ridge" />
		<tag k="place" v="locality" />
		<tag k="ssr:stedsnr" v="933934" />
	</node>
	<node lat="59.929147217945015" lon="10.35184722730168" id="-35552">
		<tag k="name" v="Lindebergkleiva" />
		<tag k="natural" v="slope" />
		<tag k="place" v="locality" />
		<tag k="ssr:stedsnr" v="933936" />
	</node>
	<node lat="59.93488703982324" lon="10.348922095703292" id="-35677">
		<tag k="fixme" v="consider natural=peak for the most distinct mountains in the district" />
		<tag k="name" v="Nedre Brennhogget" />
		<tag k="natural" v="hill" />
		<tag k="place" v="locality" />
		<tag k="ssr:stedsnr" v="1085166" />
	</node>
	<node lat="59.91177427608868" lon="10.364778778359977" id="-35687">
		<tag k="fixme" v="consider natural=peak for the most distinct mountains in the district" />
		<tag k="name" v="Rennaren" />
		<tag k="natural" v="hill" />
		<tag k="place" v="locality" />
		<tag k="ssr:stedsnr" v="1085181" />
	</node>
	<node lat="59.7911063460092" lon="10.299291501376507" id="-35692">
		<tag k="fixme" v="consider natural=peak for the most distinct mountains in the district" />
		<tag k="name" v="Skakkleivås" />
		<tag k="natural" v="hill" />
		<tag k="place" v="locality" />
		<tag k="ssr:stedsnr" v="1085514" />
	</node>
</osm>
