<?xml version="1.0" encoding="UTF-8"?>
<osm version="0.6" generator="osmapis">
	<node lat="59.94445555887475" lon="10.182047225586617" id="-14089">
		<tag k="ford" v="yes" />
		<tag k="name" v="Fallet" />
		<tag k="place" v="locality" />
		<tag k="ssr:stedsnr" v="21753" />
	</node>
	<node lat="59.88255278068388" lon="10.241966673629124" id="-14161">
		<tag k="bridge" v="yes" />
		<tag k="layer" v="1" />
		<tag k="name" v="Tronstad" />
		<tag k="ssr:stedsnr" v="168926" />
	</node>
	<node lat="59.763319943662296" lon="10.290204686556983" id="-14265">
		<tag k="name" v="Lier holdeplass" />
		<tag k="railway" v="halt" />
		<tag k="ssr:stedsnr" v="307208" />
		<tag k="train" v="yes" />
	</node>
	<node lat="59.847363889507925" lon="10.281533339792345" id="-14272">
		<tag k="alt_name" v="Søkastet" />
		<tag k="name" v="Sørkastet" />
		<tag k="place" v="locality" />
		<tag k="ssr:stedsnr" v="325105" />
	</node>
	<node lat="59.86598333235766" lon="10.292219441238231" id="-14283">
		<tag k="alt_name" v="Skonnarudkleiva" />
		<tag k="highway" v="path" />
		<tag k="name" v="Skonarudkleiva" />
		<tag k="ssr:stedsnr" v="325903" />
	</node>
	<node lat="59.769530556585096" lon="10.260519445159503" id="-14332">
		<tag k="bridge" v="yes" />
		<tag k="layer" v="1" />
		<tag k="name" v="Vikerholmen" />
		<tag k="ssr:stedsnr" v="410938" />
	</node>
	<node lat="59.78993333690568" lon="10.247911119095582" id="-14333">
		<tag k="bridge" v="yes" />
		<tag k="layer" v="1" />
		<tag k="name" v="Elvevegen" />
		<tag k="ssr:stedsnr" v="410939" />
	</node>
	<node lat="59.76070277734051" lon="10.251752780583052" id="-14334">
		<tag k="bridge" v="yes" />
		<tag k="layer" v="1" />
		<tag k="name" v="Drag" />
		<tag k="ssr:stedsnr" v="410940" />
	</node>
	<node lat="59.91436110815117" lon="10.152041672120358" id="-14372">
		<tag k="highway" v="path" />
		<tag k="name" v="Bachestien" />
		<tag k="ssr:stedsnr" v="446534" />
	</node>
	<node lat="59.786519446842114" lon="10.23073889087995" id="-14429">
		<tag k="fixme" v="consider highway=path" />
		<tag k="highway" v="track" />
		<tag k="name" v="Saueveien" />
		<tag k="ssr:stedsnr" v="506722" />
	</node>
	<node lat="59.74775555564619" lon="10.254922229161437" id="-14447">
		<tag k="man_made" v="quay" />
		<tag k="name" v="Tømmerterminalen AS" />
		<tag k="place" v="locality" />
		<tag k="ssr:stedsnr" v="525306" />
	</node>
	<node lat="59.949638887265124" lon="10.2915277699596" id="-14507">
		<tag k="bridge" v="yes" />
		<tag k="layer" v="1" />
		<tag k="name" v="Horn" />
		<tag k="ssr:stedsnr" v="592952" />
	</node>
	<node lat="59.818691666415184" lon="10.329969436982573" id="-14536">
		<tag k="bridge" v="yes" />
		<tag k="layer" v="1" />
		<tag k="name" v="Avstikkeren" />
		<tag k="ssr:stedsnr" v="653938" />
	</node>
	<node lat="59.804902774174316" lon="10.273663892024292" id="-14758">
		<tag k="bridge" v="yes" />
		<tag k="layer" v="1" />
		<tag k="name" v="Skjeggerusta" />
		<tag k="ssr:stedsnr" v="957908" />
	</node>
	<node lat="59.889805560011986" lon="10.298874996698077" id="-14825">
		<tag k="junction" v="yes" />
		<tag k="name" v="Engerkrysset" />
		<tag k="place" v="locality" />
		<tag k="ssr:stedsnr" v="22687" />
	</node>
	<node lat="59.79044999568642" lon="10.271983329258461" id="-14836">
		<tag k="bridge" v="yes" />
		<tag k="layer" v="1" />
		<tag k="name" v="Fossbekken" />
		<tag k="ssr:stedsnr" v="46940" />
	</node>
	<node lat="59.766024999111345" lon="10.236549998169206" id="-14912">
		<tag k="bridge" v="yes" />
		<tag k="layer" v="1" />
		<tag k="name" v="Sandaker" />
		<tag k="ssr:stedsnr" v="168932" />
	</node>
	<node lat="59.860158330557304" lon="10.214502777218069" id="-14958">
		<tag k="bridge" v="yes" />
		<tag k="layer" v="1" />
		<tag k="name" v="Hammer" />
		<tag k="ssr:stedsnr" v="289965" />
	</node>
	<node lat="59.8182361098667" lon="10.33435278324142" id="-14959">
		<tag k="bridge" v="yes" />
		<tag k="layer" v="1" />
		<tag k="name" v="Heia" />
		<tag k="ssr:stedsnr" v="289967" />
	</node>
	<node lat="59.7815111082864" lon="10.171522215361037" id="-15050">
		<tag k="highway" v="path" />
		<tag k="name" v="Saueseterkleiva" />
		<tag k="ssr:stedsnr" v="385676" />
	</node>
	<node lat="59.78503610680085" lon="10.240347221812366" id="-15059">
		<tag k="bridge" v="yes" />
		<tag k="layer" v="1" />
		<tag k="name" v="Vinderenvegen" />
		<tag k="ssr:stedsnr" v="410936" />
	</node>
	<node lat="59.8160305595227" lon="10.247969450224709" id="-15112">
		<tag k="junction" v="yes" />
		<tag k="name" v="Lyngåskrysset" />
		<tag k="place" v="locality" />
		<tag k="ssr:stedsnr" v="447894" />
	</node>
	<node lat="59.824255560009576" lon="10.267802773291105" id="-15115">
		<tag k="junction" v="yes" />
		<tag k="loc_name" v="Hennumstorget" />
		<tag k="name" v="Hennumtorget" />
		<tag k="place" v="locality" />
		<tag k="ssr:stedsnr" v="507041" />
	</node>
	<node lat="59.76566944721225" lon="10.280147223867898" id="-15140">
		<tag k="bridge" v="yes" />
		<tag k="layer" v="1" />
		<tag k="name" v="Sørum" />
		<tag k="ssr:stedsnr" v="532903" />
	</node>
	<node lat="59.86390833542953" lon="10.218683339618664" id="-15141">
		<tag k="bridge" v="yes" />
		<tag k="layer" v="1" />
		<tag k="name" v="Stampe" />
		<tag k="ssr:stedsnr" v="532904" />
	</node>
	<node lat="59.780527778797136" lon="10.27567221969268" id="-15142">
		<tag k="bridge" v="yes" />
		<tag k="layer" v="1" />
		<tag k="name" v="Skajem" />
		<tag k="ssr:stedsnr" v="532906" />
	</node>
	<node lat="59.85967777530341" lon="10.213694437566057" id="-15190">
		<tag k="bridge" v="yes" />
		<tag k="layer" v="1" />
		<tag k="name" v="Sjåstad" />
		<tag k="ssr:stedsnr" v="592946" />
	</node>
	<node lat="59.91173889052123" lon="10.33606110502872" id="-15241">
		<tag k="bridge" v="yes" />
		<tag k="layer" v="1" />
		<tag k="name" v="St. Olafs" />
		<tag k="ssr:stedsnr" v="653920" />
	</node>
	<node lat="59.78854444635089" lon="10.242630560222462" id="-15242">
		<tag k="bridge" v="yes" />
		<tag k="layer" v="1" />
		<tag k="name" v="Lier" />
		<tag k="ssr:stedsnr" v="653928" />
	</node>
	<node lat="59.88231111171485" lon="10.245475006793203" id="-15243">
		<tag k="bridge" v="yes" />
		<tag k="layer" v="1" />
		<tag k="name" v="Skjeggerud" />
		<tag k="ssr:stedsnr" v="714921" />
	</node>
	<node lat="59.80996944881154" lon="10.298550005721493" id="-15244">
		<tag k="bridge" v="yes" />
		<tag k="layer" v="1" />
		<tag k="name" v="Gjellebekk" />
		<tag k="ssr:stedsnr" v="714932" />
	</node>
	<node lat="59.78445000355628" lon="10.27295833952427" id="-15245">
		<tag k="bridge" v="yes" />
		<tag k="layer" v="1" />
		<tag k="name" v="Brastad" />
		<tag k="ssr:stedsnr" v="714935" />
	</node>
	<node lat="59.87622222367313" lon="10.299502776513242" id="-15246">
		<tag k="bridge" v="yes" />
		<tag k="layer" v="1" />
		<tag k="name" v="Asdøla" />
		<tag k="ssr:stedsnr" v="714950" />
	</node>
	<node lat="59.93046388526115" lon="10.170080553340439" id="-15268">
		<tag k="bridge" v="yes" />
		<tag k="layer" v="1" />
		<tag k="name" v="Bråtavadet" />
		<tag k="ssr:stedsnr" v="732441" />
	</node>
	<node lat="59.778708329784514" lon="10.230594437902523" id="-15280">
		<tag k="junction" v="yes" />
		<tag k="name" v="Gluggen" />
		<tag k="place" v="locality" />
		<tag k="ssr:stedsnr" v="748344" />
	</node>
	<node lat="59.80737221843161" lon="10.274027778969362" id="-15318">
		<tag k="bridge" v="yes" />
		<tag k="layer" v="1" />
		<tag k="name" v="Bjørkesvingen" />
		<tag k="ssr:stedsnr" v="775922" />
	</node>
	<node lat="59.818550003056004" lon="10.327469452735103" id="-15319">
		<tag k="bridge" v="yes" />
		<tag k="layer" v="1" />
		<tag k="name" v="Lierskogen" />
		<tag k="ssr:stedsnr" v="775925" />
	</node>
	<node lat="59.929277776153995" lon="10.34699721687474" id="-15320">
		<tag k="bridge" v="yes" />
		<tag k="layer" v="1" />
		<tag k="name" v="Nordelv" />
		<tag k="ssr:stedsnr" v="775926" />
	</node>
	<node lat="59.76818611513744" lon="10.244802775843478" id="-15321">
		<tag k="bridge" v="yes" />
		<tag k="layer" v="1" />
		<tag k="name" v="Kjellstad" />
		<tag k="ssr:stedsnr" v="775930" />
	</node>
</osm>
