<?xml version="1.0" encoding="UTF-8"?>
<<<<<<< HEAD
<osm version="0.6" generator="osmapis">
	<node lat="59.81297777342321" lon="10.120038883083259" id="-14087">
		<tag k="name" v="Vakkertjernsbekken" />
		<tag k="ssr:stedsnr" v="21500" />
		<tag k="waterway" v="stream" />
	</node>
	<node lat="59.87671944540275" lon="10.345272225018869" id="-14099">
		<tag k="alt_name" v="Engerfløyta" />
		<tag k="name" v="Engerfløyten" />
		<tag k="place" v="locality" />
		<tag k="ssr:stedsnr" v="64847" />
	</node>
	<node lat="59.82310277565702" lon="10.142388880714265" id="-14100">
		<tag k="alt_name" v="Damvatnet" />
		<tag k="name" v="Damvannet" />
		<tag k="natural" v="water" />
		<tag k="ssr:stedsnr" v="65205" />
	</node>
	<node lat="59.7945777733113" lon="10.171630559905665" id="-14101">
		<tag k="name" v="Eikdambekken" />
		<tag k="ssr:stedsnr" v="65119" />
		<tag k="waterway" v="stream" />
	</node>
	<node lat="59.906311108258045" lon="10.200269437038529" id="-14102">
		<tag k="name" v="Solbergelva" />
		<tag k="ssr:stedsnr" v="65306" />
		<tag k="waterway" v="river" />
	</node>
	<node lat="59.7965472203169" lon="10.222024996053602" id="-14106">
		<tag k="name" v="Helgerudbekken" />
		<tag k="ssr:stedsnr" v="81383" />
		<tag k="waterway" v="stream" />
	</node>
	<node lat="59.890154374863855" lon="10.178630182241305" id="-14110">
		<tag k="name" v="Sjutjern" />
		<tag k="natural" v="water" />
		<tag k="ssr:stedsnr" v="82243" />
	</node>
	<node lat="59.89968888801204" lon="10.292375006743715" id="-14117">
		<tag k="name" v="Sagvika" />
		<tag k="natural" v="bay" />
		<tag k="ssr:stedsnr" v="83700" />
	</node>
	<node lat="59.76406909860693" lon="10.309967709158185" id="-14122">
		<tag k="name" v="Skapertjern" />
		<tag k="natural" v="water" />
		<tag k="ssr:stedsnr" v="246187" />
	</node>
	<node lat="59.929036112554705" lon="10.34040277704587" id="-14131">
		<tag k="name" v="Nordelva" />
		<tag k="ssr:stedsnr" v="247944" />
		<tag k="waterway" v="stream" />
	</node>
	<node lat="59.93047222347839" lon="10.328225004261862" id="-14134">
		<tag k="name" v="Holsfjorden" />
		<tag k="natural" v="water" />
		<tag k="ssr:stedsnr" v="124411" />
	</node>
	<node lat="59.92733610698457" lon="10.120436108846318" id="-14137">
		<tag k="alt_name" v="Lille Nykjua" />
		<tag k="name" v="Vesle Nykjua" />
		<tag k="natural" v="water" />
		<tag k="ssr:stedsnr" v="125446" />
		<tag k="water" v="lake" />
	</node>
	<node lat="59.76676111315607" lon="10.200191673714185" id="-14138">
=======
<osm generator="osmapis" version="0.6">
	<node id="-290304" lat="59.8281583322" lon="10.2139749936">
		<tag k="name" v="Øksnebekken" />
		<tag k="ssr:stedsnr" v="568900" />
		<tag k="waterway" v="stream" />
	</node>
	<node id="-290300" lat="59.890827779" lon="10.246177779">
		<tag k="alt_name" v="Veslevannsbekken" />
		<tag k="name" v="Veslevassbekken" />
		<tag k="ssr:stedsnr" v="568687" />
		<tag k="waterway" v="stream" />
	</node>
	<node id="-290299" lat="59.9032694487" lon="10.2679361064">
		<tag k="name" v="Sjektedalsbekken" />
		<tag k="ssr:stedsnr" v="568676" />
		<tag k="waterway" v="stream" />
	</node>
	<node id="-289786" lat="59.8987194444" lon="10.1556472308">
		<tag k="alt_name" v="Damtjern" />
		<tag k="name" v="Øvre Damtjern" />
		<tag k="natural" v="water" />
		<tag k="ssr:stedsnr" v="853319" />
	</node>
	<node id="-289272" lat="59.7723749992" lon="10.187733332">
		<tag k="name" v="Hvalsbekken" />
		<tag k="ssr:stedsnr" v="264639" />
		<tag k="waterway" v="stream" />
	</node>
	<node id="-289777" lat="59.8203777789" lon="10.2684222174">
		<tag k="name" v="Buttedalsbekken" />
		<tag k="ssr:stedsnr" v="932897" />
		<tag k="waterway" v="stream" />
	</node>
	<node id="-289775" lat="59.7942444425" lon="10.2350611143">
		<tag k="name" v="Vellingbekken" />
		<tag k="ssr:stedsnr" v="932845" />
		<tag k="waterway" v="stream" />
	</node>
	<node id="-289773" lat="59.9105666679" lon="10.2871555555">
		<tag k="name" v="Hørtebekken" />
		<tag k="ssr:stedsnr" v="932670" />
		<tag k="waterway" v="stream" />
	</node>
	<node id="-289383" lat="59.7943055579" lon="10.3219972222">
		<tag k="name" v="Heggsjø" />
		<tag k="natural" v="water" />
		<tag k="ssr:stedsnr" v="489151" />
	</node>
	<node id="-290281" lat="59.9045611127" lon="10.1608416614">
		<tag k="name" v="Nedre Damtjern" />
		<tag k="natural" v="water" />
		<tag k="ssr:stedsnr" v="567520" />
	</node>
	<node id="-290280" lat="59.9337527764" lon="10.2119305497">
>>>>>>> e1d4bc35ff8a6074a6f2e91616a996b547c36f15
		<tag k="name" v="Svarttjern" />
		<tag k="natural" v="water" />
		<tag k="ssr:stedsnr" v="567516" />
	</node>
<<<<<<< HEAD
	<node lat="59.837299997747444" lon="10.100105552835748" id="-14142">
		<tag k="name" v="Lelangen" />
		<tag k="natural" v="water" />
		<tag k="ssr:stedsnr" v="125313" />
		<tag k="water" v="lake" />
	</node>
	<node lat="59.89121944260283" lon="10.121197216253247" id="-14146">
		<tag k="name" v="Fjellbekken" />
		<tag k="ssr:stedsnr" v="125365" />
		<tag k="waterway" v="stream" />
	</node>
	<node lat="59.81302545460928" lon="10.177775201817171" id="-14162">
		<tag k="alt_name" v="Øvre Svarttjern;Nedre Svarttjern" />
		<tag k="name" v="Svarttjerna" />
		<tag k="natural" v="water" />
		<tag k="ssr:stedsnr" v="185200" />
		<tag k="water" v="lake" />
	</node>
	<node lat="59.94929167101347" lon="10.20306666913457" id="-14193">
		<tag k="name" v="Urtjern" />
		<tag k="natural" v="water" />
		<tag k="ssr:stedsnr" v="265924" />
	</node>
	<node lat="59.87048333663071" lon="10.089458331665154" id="-14196">
		<tag k="name" v="Damvika" />
		<tag k="natural" v="bay" />
		<tag k="ssr:stedsnr" v="203041" />
	</node>
	<node lat="59.746633332575584" lon="10.272566662256697" id="-14212">
		<tag k="name" v="Møysund" />
		<tag k="natural" v="water" />
		<tag k="ssr:stedsnr" v="203890" />
		<tag k="water" v="pond" />
	</node>
	<node lat="59.82804444576981" lon="10.330827771794189" id="-14234">
		<tag k="name" v="Ekebergelva" />
		<tag k="ssr:stedsnr" v="264079" />
		<tag k="waterway" v="river" />
	</node>
	<node lat="59.958636112390266" lon="10.212191660592184" id="-14242">
		<tag k="alt_name" v="Grynteputt" />
		<tag k="name" v="Krynteputt" />
		<tag k="natural" v="water" />
		<tag k="ssr:stedsnr" v="264617" />
		<tag k="water" v="pond" />
	</node>
	<node lat="59.77237499915871" lon="10.187733332042207" id="-14244">
		<tag k="name" v="Hvalsbekken" />
		<tag k="ssr:stedsnr" v="264639" />
		<tag k="waterway" v="stream" />
	</node>
	<node lat="59.816474998544386" lon="10.109675000578761" id="-14266">
		<tag k="name" v="Lisbekken" />
		<tag k="ssr:stedsnr" v="307252" />
		<tag k="waterway" v="stream" />
	</node>
	<node lat="59.91669166553656" lon="10.375600002776793" id="-14268">
		<tag k="alt_name" v="Kalvemyrsputten" />
		<tag k="name" v="Kalvemyrputten" />
		<tag k="natural" v="water" />
		<tag k="ssr:stedsnr" v="307920" />
		<tag k="water" v="pond" />
	</node>
	<node lat="59.82073611477443" lon="10.256066659103661" id="-14275">
		<tag k="name" v="Buttedalsbekken" />
		<tag k="ssr:stedsnr" v="325117" />
		<tag k="waterway" v="stream" />
	</node>
	<node lat="59.94599721857068" lon="10.29255278190996" id="-14280">
		<tag k="name" v="Bryggebekken" />
		<tag k="ssr:stedsnr" v="325508" />
		<tag k="waterway" v="stream" />
	</node>
	<node lat="59.905850002757326" lon="10.290597229407735" id="-14281">
		<tag k="name" v="Sandsbekken" />
		<tag k="ssr:stedsnr" v="325672" />
		<tag k="waterway" v="stream" />
	</node>
	<node lat="59.83611110769167" lon="10.116749994741477" id="-14299">
		<tag k="alt_name" v="Ormtjern" />
		<tag k="name" v="Ormetjern" />
		<tag k="natural" v="water" />
		<tag k="ssr:stedsnr" v="368305" />
	</node>
	<node lat="59.8443999967875" lon="10.29911666039181" id="-14306">
		<tag k="name" v="Pyntebekk" />
		<tag k="ssr:stedsnr" v="385119" />
		<tag k="waterway" v="stream" />
	</node>
	<node lat="59.94384722615569" lon="10.190430560873448" id="-14318">
		<tag k="name" v="Ovnstjern" />
=======
	<node id="-290277" lat="59.9316777769" lon="10.3001361073">
		<tag k="name" v="Dragbekken" />
		<tag k="ssr:stedsnr" v="567484" />
		<tag k="waterway" v="stream" />
	</node>
	<node id="-289761" lat="59.8753853246" lon="10.2040089391">
		<tag k="name" v="Klostertjern" />
		<tag k="natural" v="water" />
		<tag k="ssr:stedsnr" v="932182" />
	</node>
	<node id="-289756" lat="59.8564083298" lon="10.1197750074">
		<tag k="name" v="Atalstadfløyten" />
		<tag k="place" v="locality" />
		<tag k="ssr:stedsnr" v="932031" />
	</node>
	<node id="-290265" lat="59.8291555548" lon="10.1487027856">
		<tag k="name" v="Ormetjern" />
		<tag k="natural" v="water" />
		<tag k="ssr:stedsnr" v="550499" />
	</node>
	<node id="-289240" lat="59.7773861069" lon="10.2970444434">
		<tag k="name" v="Stuvstjernbekken" />
		<tag k="ssr:stedsnr" v="82576" />
		<tag k="waterway" v="stream" />
	</node>
	<node id="-289239" lat="59.8042416675" lon="10.31687222">
		<tag k="name" v="Småvannsbekken" />
		<tag k="ssr:stedsnr" v="82553" />
		<tag k="waterway" v="stream" />
	</node>
	<node id="-290262" lat="59.9366749969" lon="10.2832555609">
		<tag k="name" v="Holmenelva" />
		<tag k="ssr:stedsnr" v="550373" />
		<tag k="waterway" v="stream" />
	</node>
	<node id="-290258" lat="59.9019777818" lon="10.1386916706">
		<tag k="alt_name" v="Kroktjernet" />
		<tag k="name" v="Kroktjern" />
		<tag k="natural" v="water" />
		<tag k="ssr:stedsnr" v="550313" />
	</node>
	<node id="-289743" lat="59.9095361128" lon="10.3040777825">
		<tag k="alt_name" v="Midtøy" />
		<tag k="name" v="Midtøya" />
		<tag k="place" v="island" />
		<tag k="ssr:stedsnr" v="930156" />
	</node>
	<node id="-289506" lat="59.8721055577" lon="10.2765916701">
		<tag k="name" v="Gåsebekken" />
		<tag k="ssr:stedsnr" v="672322" />
		<tag k="waterway" v="stream" />
	</node>
	<node id="-290253" lat="59.7999416659" lon="10.1433972211">
		<tag k="alt_name" v="Skimtvannet" />
		<tag k="name" v="Skimten" />
		<tag k="natural" v="water" />
		<tag k="ssr:stedsnr" v="550143" />
	</node>
	<node id="-290244" lat="59.8114722184" lon="10.21406666">
		<tag k="name" v="Sogna" />
		<tag k="ssr:stedsnr" v="549208" />
		<tag k="waterway" v="stream" />
	</node>
	<node id="-289219" lat="59.7640690986" lon="10.3099677092">
		<tag k="name" v="Skapertjern" />
		<tag k="natural" v="water" />
		<tag k="ssr:stedsnr" v="246187" />
	</node>
	<node id="-289214" lat="59.9063111083" lon="10.200269437">
		<tag k="name" v="Solbergelva" />
		<tag k="ssr:stedsnr" v="65306" />
		<tag k="waterway" v="river" />
	</node>
	<node id="-290235" lat="59.9278250012" lon="10.1667972285">
		<tag k="fixme" v="multiple name tags, choose one and add the other to alt_name" />
		<tag k="name" v="Elgstjernelva;Fallsbekken;Tverrelva" />
		<tag k="ssr:stedsnr" v="429488" />
		<tag k="waterway" v="stream" />
	</node>
	<node id="-290233" lat="59.8851611137" lon="10.1002833312">
		<tag k="alt_name" v="Snikeputten" />
		<tag k="name" v="Snikeputt" />
>>>>>>> e1d4bc35ff8a6074a6f2e91616a996b547c36f15
		<tag k="natural" v="water" />
		<tag k="ssr:stedsnr" v="429348" />
	</node>
<<<<<<< HEAD
	<node lat="59.925497221214265" lon="10.185094450632342" id="-14322">
		<tag k="name" v="Blekkhusbekken" />
		<tag k="ssr:stedsnr" v="385700" />
		<tag k="waterway" v="stream" />
	</node>
	<node lat="59.75063055892296" lon="10.30852221570921" id="-14324">
		<tag k="name" v="Sprengstoffdammen" />
		<tag k="ssr:stedsnr" v="385857" />
		<tag k="waterway" v="dam" />
	</node>
	<node lat="59.81679999837502" lon="10.119844446943327" id="-14328">
		<tag k="name" v="Heiabekken" />
		<tag k="ssr:stedsnr" v="386911" />
		<tag k="waterway" v="stream" />
	</node>
	<node lat="59.80314722589308" lon="10.156524997597103" id="-14346">
		<tag k="name" v="Eikdammen" />
		<tag k="natural" v="water" />
		<tag k="ssr:stedsnr" v="489273" />
	</node>
	<node lat="59.88703610782074" lon="10.172763887981125" id="-14351">
		<tag k="name" v="Gampetjern" />
		<tag k="natural" v="water" />
		<tag k="ssr:stedsnr" v="490359" />
	</node>
	<node lat="59.94890555377604" lon="10.248702773089267" id="-14355">
=======
	<node id="-289208" lat="59.8767194454" lon="10.345272225">
		<tag k="alt_name" v="Engerfløyta" />
		<tag k="name" v="Engerfløyten" />
		<tag k="place" v="locality" />
		<tag k="ssr:stedsnr" v="64847" />
	</node>
	<node id="-289719" lat="59.840897222" lon="10.1168416716">
		<tag k="name" v="Svarttjern" />
		<tag k="natural" v="water" />
		<tag k="ssr:stedsnr" v="914305" />
	</node>
	<node id="-290230" lat="59.8228055512" lon="10.1220194504">
		<tag k="name" v="Garsjø" />
		<tag k="natural" v="water" />
		<tag k="ssr:stedsnr" v="429192" />
		<tag k="water" v="lake" />
	</node>
	<node id="-289203" lat="59.8601388845" lon="10.1106027826">
		<tag k="name" v="Lahølen" />
		<tag k="place" v="locality" />
		<tag k="ssr:stedsnr" v="22925" />
	</node>
	<node id="-290170" lat="59.922074998" lon="10.1872222154">
		<tag k="alt_name" v="Svartvasselva" />
		<tag k="name" v="Svartvannselva" />
		<tag k="ssr:stedsnr" v="368452" />
		<tag k="waterway" v="stream" />
	</node>
	<node id="-290225" lat="59.9489055538" lon="10.2487027731">
>>>>>>> e1d4bc35ff8a6074a6f2e91616a996b547c36f15
		<tag k="name" v="Sagelva" />
		<tag k="ssr:stedsnr" v="428360" />
		<tag k="waterway" v="stream" />
	</node>
<<<<<<< HEAD
	<node lat="59.822787771263464" lon="10.122036170076713" id="-14357">
		<tag k="name" v="Garsjø" />
		<tag k="natural" v="water" />
		<tag k="ssr:stedsnr" v="429192" />
		<tag k="water" v="lake" />
	</node>
	<node lat="59.87181941236662" lon="10.328805276172321" id="-14358">
		<tag k="name" v="Asdøltjern" />
		<tag k="natural" v="water" />
		<tag k="ssr:stedsnr" v="429310" />
	</node>
	<node lat="59.91308055263553" lon="10.210277776473816" id="-14360">
		<tag k="name" v="Kårevannet" />
		<tag k="natural" v="water" />
		<tag k="ssr:stedsnr" v="429402" />
	</node>
	<node lat="59.87760555362141" lon="10.16702778391147" id="-14368">
		<tag k="name" v="Laukedalsbekken" />
		<tag k="ssr:stedsnr" v="446277" />
		<tag k="waterway" v="stream" />
	</node>
	<node lat="59.8763974013005" lon="10.176530969866374" id="-14369">
		<tag k="name" v="Karussputten" />
		<tag k="natural" v="water" />
		<tag k="ssr:stedsnr" v="446278" />
	</node>
	<node lat="59.89300602084203" lon="10.165291892058775" id="-14370">
		<tag k="name" v="Nedre Høymyrtjern" />
		<tag k="natural" v="water" />
		<tag k="old_name" v="Nedre Høgmyrtjern" />
		<tag k="ssr:stedsnr" v="446282" />
	</node>
	<node lat="59.94403101439052" lon="10.218418154473891" id="-14373">
		<tag k="alt_name" v="Svinetjernet" />
		<tag k="name" v="Svinetjern" />
		<tag k="natural" v="water" />
		<tag k="ssr:stedsnr" v="446641" />
	</node>
	<node lat="59.8771666648834" lon="10.33814166101093" id="-14379">
		<tag k="name" v="Kjemmelibekken" />
		<tag k="ssr:stedsnr" v="446978" />
		<tag k="waterway" v="stream" />
	</node>
	<node lat="59.903661107483636" lon="10.208747213959327" id="-14383">
		<tag k="name" v="Kårefoss" />
		<tag k="natural" v="waterfall" />
		<tag k="ssr:stedsnr" v="447681" />
	</node>
	<node lat="59.86569444169522" lon="10.124280563902209" id="-14389">
		<tag k="alt_name" v="Rotåa" />
		<tag k="name" v="Rotua" />
		<tag k="ssr:stedsnr" v="671275" />
		<tag k="waterway" v="river" />
	</node>
	<node lat="59.85467222171375" lon="10.138413885189257" id="-14392">
		<tag k="name" v="Egga" />
		<tag k="ssr:stedsnr" v="671280" />
		<tag k="waterway" v="stream" />
	</node>
	<node lat="59.79102777747198" lon="10.32485000497903" id="-14394">
		<tag k="name" v="Sagelva" />
		<tag k="ssr:stedsnr" v="671154" />
		<tag k="waterway" v="stream" />
	</node>
	<node lat="59.84893888913893" lon="10.08256666415944" id="-14397">
		<tag k="name" v="Himmerikstjern" />
		<tag k="natural" v="water" />
		<tag k="ssr:stedsnr" v="671260" />
	</node>
	<node lat="59.9026444477829" lon="10.146880547164804" id="-14399">
		<tag k="alt_name" v="Langvatnet" />
		<tag k="name" v="Langvannet" />
		<tag k="natural" v="water" />
		<tag k="ssr:stedsnr" v="671326" />
	</node>
	<node lat="59.94385555655787" lon="10.224744441358407" id="-14403">
		<tag k="name" v="Furudammen" />
		<tag k="natural" v="water" />
		<tag k="ssr:stedsnr" v="671382" />
	</node>
	<node lat="59.914293599646825" lon="10.120509740995544" id="-14404">
		<tag k="fixme" v="multiple name tags, choose one and add the other to alt_name" />
		<tag k="loc_name" v="Storsneisa;Nordsneisa" />
		<tag k="name" v="Nordre Sneisa;Damsneisa" />
		<tag k="natural" v="water" />
		<tag k="old_name" v="St Snejsa" />
		<tag k="ssr:stedsnr" v="671401" />
		<tag k="water" v="lake" />
	</node>
	<node lat="59.88931389060206" lon="10.10887499875474" id="-14408">
		<tag k="alt_name" v="Karusstjernet" />
		<tag k="name" v="Karusstjern" />
		<tag k="natural" v="water" />
		<tag k="ssr:stedsnr" v="672333" />
	</node>
	<node lat="59.794305557896486" lon="10.321997222181134" id="-14414">
		<tag k="name" v="Heggsjø" />
		<tag k="natural" v="water" />
		<tag k="ssr:stedsnr" v="489151" />
	</node>
	<node lat="59.758061112916" lon="10.211108332861354" id="-14415">
		<tag k="alt_name" v="Kloptjern" />
		<tag k="name" v="Klopptjern" />
		<tag k="natural" v="water" />
		<tag k="ssr:stedsnr" v="489096" />
	</node>
	<node lat="59.93729285002225" lon="10.219988032964622" id="-14421">
		<tag k="alt_name" v="Svartvatnet" />
		<tag k="name" v="Svartvannet" />
		<tag k="natural" v="water" />
		<tag k="ssr:stedsnr" v="489399" />
	</node>
	<node lat="59.81948888525071" lon="10.099869441754189" id="-14443">
		<tag k="name" v="Stenbekken" />
		<tag k="ssr:stedsnr" v="507915" />
		<tag k="waterway" v="stream" />
	</node>
	<node lat="59.89758889140222" lon="10.287558331733305" id="-14445">
		<tag k="name" v="Svangbekken" />
		<tag k="ssr:stedsnr" v="750673" />
		<tag k="waterway" v="stream" />
	</node>
	<node lat="59.894925000857235" lon="10.157502786419062" id="-14446">
		<tag k="name" v="Svartvannsbekken" />
		<tag k="ssr:stedsnr" v="750675" />
		<tag k="waterway" v="stream" />
	</node>
	<node lat="59.811472218434375" lon="10.214066659958009" id="-14451">
		<tag k="name" v="Sogna" />
		<tag k="ssr:stedsnr" v="549208" />
		<tag k="waterway" v="stream" />
	</node>
	<node lat="59.901977781761204" lon="10.138691670595838" id="-14461">
		<tag k="alt_name" v="Kroktjernet" />
		<tag k="name" v="Kroktjern" />
		<tag k="natural" v="water" />
		<tag k="ssr:stedsnr" v="550313" />
	</node>
	<node lat="59.82915555475714" lon="10.148702785588817" id="-14462">
		<tag k="name" v="Ormetjern" />
		<tag k="natural" v="water" />
		<tag k="ssr:stedsnr" v="550499" />
	</node>
	<node lat="59.89326471353156" lon="10.109027676013522" id="-14468">
		<tag k="name" v="Karussputten" />
		<tag k="natural" v="water" />
		<tag k="ssr:stedsnr" v="689027" />
		<tag k="water" v="pond" />
	</node>
	<node lat="59.821619440072645" lon="10.250386104122963" id="-14473">
		<tag k="name" v="Sagdalsbekken" />
		<tag k="ssr:stedsnr" v="689121" />
		<tag k="waterway" v="stream" />
	</node>
	<node lat="59.87123611014478" lon="10.187769444657253" id="-14475">
		<tag k="loc_name" v="Veslevannsbekken" />
		<tag k="name" v="Veslevassbekken" />
		<tag k="ssr:stedsnr" v="689259" />
		<tag k="waterway" v="stream" />
	</node>
	<node lat="59.93375277639386" lon="10.211930549735518" id="-14495">
		<tag k="name" v="Svarttjern" />
		<tag k="natural" v="water" />
		<tag k="ssr:stedsnr" v="567516" />
	</node>
	<node lat="59.90456111271678" lon="10.160841661354068" id="-14496">
		<tag k="name" v="Nedre Damtjern" />
		<tag k="natural" v="water" />
		<tag k="ssr:stedsnr" v="567520" />
	</node>
	<node lat="59.93818610781461" lon="10.130363894451733" id="-14511">
		<tag k="name" v="Nedre Damtjern" />
		<tag k="natural" v="water" />
		<tag k="ssr:stedsnr" v="610405" />
	</node>
	<node lat="59.89140555761327" lon="10.097327785895954" id="-14518">
		<tag k="name" v="Trollmyrputten" />
		<tag k="natural" v="water" />
		<tag k="ssr:stedsnr" v="628020" />
		<tag k="water" v="pond" />
	</node>
	<node lat="59.94729167071971" lon="10.214905560410228" id="-14523">
		<tag k="loc_name" v="Flagerputten" />
		<tag k="name" v="Flaggerputten" />
		<tag k="natural" v="water" />
		<tag k="ssr:stedsnr" v="628610" />
		<tag k="water" v="pond" />
	</node>
	<node lat="59.77945000388464" lon="10.153694439894034" id="-14526">
=======
	<node id="-289712" lat="59.8577277782" lon="10.1144444362">
		<tag k="name" v="Glitra" />
		<tag k="ssr:stedsnr" v="914277" />
		<tag k="waterway" v="river" />
	</node>
	<node id="-289539" lat="59.8932647135" lon="10.109027676">
		<tag k="name" v="Karussputten" />
		<tag k="natural" v="water" />
		<tag k="ssr:stedsnr" v="689027" />
		<tag k="water" v="pond" />
	</node>
	<node id="-290217" lat="59.8496194475" lon="10.1781277692">
		<tag k="name" v="Lundsbekken" />
		<tag k="ssr:stedsnr" v="428230" />
		<tag k="waterway" v="stream" />
	</node>
	<node id="-289702" lat="59.8427111086" lon="10.2458055604">
		<tag k="name" v="Lierelva" />
		<tag k="ssr:stedsnr" v="914162" />
		<tag k="waterway" v="river" />
	</node>
	<node id="-289179" lat="59.873586114" lon="10.0825749942">
		<tag k="name" v="Elgtjernsbekken" />
		<tag k="ssr:stedsnr" v="21025" />
		<tag k="waterway" v="stream" />
	</node>
	<node id="-289691" lat="59.9430472219" lon="10.2420222274">
		<tag k="name" v="Steinarbekken" />
		<tag k="ssr:stedsnr" v="749631" />
		<tag k="waterway" v="stream" />
	</node>
	<node id="-290199" lat="59.9254972212" lon="10.1850944506">
		<tag k="name" v="Blekkhusbekken" />
		<tag k="ssr:stedsnr" v="385700" />
		<tag k="waterway" v="stream" />
	</node>
	<node id="-290194" lat="59.903133337" lon="10.3551249935">
		<tag k="name" v="Bukkebekken" />
		<tag k="ssr:stedsnr" v="385575" />
		<tag k="waterway" v="stream" />
	</node>
	<node id="-289673" lat="59.8246746169" lon="10.1080088031">
		<tag k="alt_name" v="Grunnvatnet" />
		<tag k="name" v="Grunnvannet" />
		<tag k="natural" v="water" />
		<tag k="ssr:stedsnr" v="671203" />
	</node>
	<node id="-289670" lat="59.9026444478" lon="10.1468805472">
		<tag k="alt_name" v="Langvatnet" />
		<tag k="name" v="Langvannet" />
		<tag k="natural" v="water" />
		<tag k="ssr:stedsnr" v="671326" />
	</node>
	<node id="-290180" lat="59.8173277742" lon="10.3343916664">
		<tag k="name" v="Grobruelva" />
		<tag k="ssr:stedsnr" v="385087" />
		<tag k="waterway" v="river" />
	</node>
	<node id="-290174" lat="59.8672916685" lon="10.0989750077">
		<tag k="name" v="Svarthølen" />
		<tag k="place" v="locality" />
		<tag k="ssr:stedsnr" v="385040" />
	</node>
	<node id="-289661" lat="59.9055570839" lon="10.3621768863">
		<tag k="name" v="Damvann" />
		<tag k="natural" v="water" />
		<tag k="ssr:stedsnr" v="732864" />
	</node>
	<node id="-289660" lat="59.8932714074" lon="10.362459031">
		<tag k="name" v="Øyevann" />
		<tag k="natural" v="water" />
		<tag k="ssr:stedsnr" v="732859" />
	</node>
	<node id="-289658" lat="59.9281777799" lon="10.2406444519">
		<tag k="name" v="Pålstjern" />
		<tag k="natural" v="water" />
		<tag k="ssr:stedsnr" v="732457" />
	</node>
	<node id="-290169" lat="59.9224388929" lon="10.2268250006">
		<tag k="alt_name" v="Nedre Øyentjern" />
		<tag k="name" v="Øyetjern" />
		<tag k="natural" v="water" />
		<tag k="ssr:stedsnr" v="368442" />
	</node>
	<node id="-289655" lat="59.9309138897" lon="10.2396583303">
		<tag k="alt_name" v="Damvannet" />
		<tag k="name" v="Damtjern" />
		<tag k="natural" v="water" />
		<tag k="ssr:stedsnr" v="732443" />
	</node>
	<node id="-289769" lat="59.8126833362" lon="10.1306305572">
		<tag k="name" v="Starrmyrbekken" />
		<tag k="ssr:stedsnr" v="932434" />
		<tag k="waterway" v="stream" />
	</node>
	<node id="-290162" lat="59.8361111077" lon="10.1167499947">
		<tag k="alt_name" v="Ormtjern" />
		<tag k="name" v="Ormetjern" />
		<tag k="natural" v="water" />
		<tag k="ssr:stedsnr" v="368305" />
	</node>
	<node id="-289649" lat="59.9342833291" lon="10.1223833398">
		<tag k="alt_name" v="Bomlebekken" />
		<tag k="name" v="Bumlebekken" />
		<tag k="ssr:stedsnr" v="732386" />
		<tag k="waterway" v="stream" />
	</node>
	<node id="-290536" lat="59.9375277746" lon="10.2086888973">
		<tag k="name" v="Katteputt" />
		<tag k="natural" v="water" />
		<tag k="ssr:stedsnr" v="872729" />
		<tag k="water" v="pond" />
	</node>
	<node id="-289316" lat="59.8763974013" lon="10.1765309699">
		<tag k="name" v="Karussputten" />
		<tag k="natural" v="water" />
		<tag k="ssr:stedsnr" v="446278" />
	</node>
	<node id="-289645" lat="59.879330557" lon="10.0972333355">
		<tag k="alt_name" v="Grunnvatnet" />
		<tag k="name" v="Grunnvannet" />
		<tag k="natural" v="water" />
		<tag k="ssr:stedsnr" v="732351" />
	</node>
	<node id="-290155" lat="59.8027999996" lon="10.2838944451">
		<tag k="name" v="Damtjern" />
		<tag k="natural" v="water" />
		<tag k="ssr:stedsnr" v="368267" />
	</node>
	<node id="-289595" lat="59.8984972217" lon="10.29346111">
		<tag k="name" v="Svangstrand" />
		<tag k="natural" v="beach" />
		<tag k="ssr:stedsnr" v="610371" />
	</node>
	<node id="-290144" lat="59.9058500028" lon="10.2905972294">
		<tag k="name" v="Sandsbekken" />
		<tag k="ssr:stedsnr" v="325672" />
		<tag k="waterway" v="stream" />
	</node>
	<node id="-290143" lat="59.9218111121" lon="10.1497138961">
		<tag k="alt_name" v="Småvatna" />
		<tag k="name" v="Småvanna" />
		<tag k="natural" v="water" />
		<tag k="ssr:stedsnr" v="325666" />
		<tag k="water" v="lake" />
	</node>
	<node id="-289253" lat="59.8280444458" lon="10.3308277718">
		<tag k="name" v="Ekebergelva" />
		<tag k="ssr:stedsnr" v="264079" />
		<tag k="waterway" v="river" />
	</node>
	<node id="-290136" lat="59.9459972186" lon="10.2925527819">
		<tag k="name" v="Bryggebekken" />
		<tag k="ssr:stedsnr" v="325508" />
		<tag k="waterway" v="stream" />
	</node>
	<node id="-289623" lat="59.8975666681" lon="10.125833328">
		<tag k="name" v="Sneisebekken" />
		<tag k="ssr:stedsnr" v="731281" />
		<tag k="waterway" v="stream" />
	</node>
	<node id="-290131" lat="59.8770249972" lon="10.348302781">
		<tag k="name" v="Fløyten" />
		<tag k="place" v="locality" />
		<tag k="ssr:stedsnr" v="325303" />
	</node>
	<node id="-289616" lat="59.7794500039" lon="10.1536944399">
>>>>>>> e1d4bc35ff8a6074a6f2e91616a996b547c36f15
		<tag k="name" v="Myrseterbekken" />
		<tag k="ssr:stedsnr" v="628655" />
		<tag k="waterway" v="stream" />
	</node>
<<<<<<< HEAD
	<node lat="59.82467461688235" lon="10.10800880307373" id="-14542">
		<tag k="alt_name" v="Grunnvatnet" />
		<tag k="name" v="Grunnvannet" />
		<tag k="natural" v="water" />
		<tag k="ssr:stedsnr" v="671203" />
	</node>
	<node lat="59.87210555767643" lon="10.276591670071648" id="-14550">
		<tag k="name" v="Gåsebekken" />
		<tag k="ssr:stedsnr" v="672322" />
		<tag k="waterway" v="stream" />
	</node>
	<node lat="59.834327779418224" lon="10.3188583384822" id="-14555">
		<tag k="name" v="Rotuelva" />
		<tag k="ssr:stedsnr" v="689104" />
		<tag k="waterway" v="river" />
	</node>
	<node lat="59.95396110730745" lon="10.293711113178217" id="-14558">
		<tag k="name" v="Åsodden" />
		<tag k="natural" v="cape" />
		<tag k="ssr:stedsnr" v="689479" />
	</node>
	<node lat="59.95530277670567" lon="10.22600555402685" id="-14562">
		<tag k="name" v="Rømmebekken" />
		<tag k="ssr:stedsnr" v="689590" />
		<tag k="waterway" v="stream" />
	</node>
	<node lat="59.726227781041665" lon="10.315436111782166" id="-14566">
		<tag k="name" v="Lahelldammen" />
		<tag k="natural" v="water" />
		<tag k="ssr:stedsnr" v="689835" />
	</node>
	<node lat="59.89756666809656" lon="10.12583332803262" id="-14576">
		<tag k="name" v="Sneisebekken" />
		<tag k="ssr:stedsnr" v="731281" />
		<tag k="waterway" v="stream" />
	</node>
	<node lat="59.80327499761426" lon="10.187041658501842" id="-14580">
		<tag k="name" v="Eriksrudtjern" />
		<tag k="natural" v="water" />
		<tag k="ssr:stedsnr" v="732259" />
	</node>
	<node lat="59.95492778156189" lon="10.223650008308672" id="-14583">
		<tag k="alt_name" v="Grytevatnet" />
		<tag k="name" v="Grytevannet" />
		<tag k="natural" v="water" />
		<tag k="ssr:stedsnr" v="732418" />
	</node>
	<node lat="59.87933055695654" lon="10.09723333546469" id="-14588">
		<tag k="alt_name" v="Grunnvatnet" />
		<tag k="name" v="Grunnvannet" />
		<tag k="natural" v="water" />
		<tag k="ssr:stedsnr" v="732351" />
	</node>
	<node lat="59.87198055452679" lon="10.187436109466287" id="-14590">
		<tag k="name" v="Veslevannet" />
		<tag k="natural" v="water" />
		<tag k="ssr:stedsnr" v="732360" />
	</node>
	<node lat="59.83489444271511" lon="10.086975006720996" id="-14597">
		<tag k="name" v="Hølbekken" />
		<tag k="ssr:stedsnr" v="749461" />
		<tag k="waterway" v="stream" />
	</node>
	<node lat="59.84146666882551" lon="10.135880563414029" id="-14598">
		<tag k="name" v="Meriputten" />
		<tag k="natural" v="water" />
		<tag k="ssr:stedsnr" v="749484" />
		<tag k="water" v="pond" />
	</node>
	<node lat="59.769172224826356" lon="10.230438882773097" id="-14604">
		<tag k="name" v="Sandakerelva" />
		<tag k="ssr:stedsnr" v="749927" />
		<tag k="waterway" v="river" />
	</node>
	<node lat="59.84271110863867" lon="10.245805560386497" id="-14627">
		<tag k="name" v="Lierelva" />
		<tag k="ssr:stedsnr" v="914162" />
		<tag k="waterway" v="river" />
	</node>
	<node lat="59.959402780403046" lon="10.28909443786057" id="-14640">
		<tag k="name" v="Hornsvika" />
		<tag k="natural" v="bay" />
		<tag k="ssr:stedsnr" v="810511" />
	</node>
	<node lat="59.898719444389094" lon="10.155647230814306" id="-14653">
		<tag k="alt_name" v="Damtjern" />
		<tag k="name" v="Øvre Damtjern" />
=======
	<node id="-290127" lat="59.8207361148" lon="10.2560666591">
		<tag k="name" v="Buttedalsbekken" />
		<tag k="ssr:stedsnr" v="325117" />
		<tag k="waterway" v="stream" />
	</node>
	<node id="-290018" lat="59.9374194487" lon="10.2446444526">
		<tag k="name" v="Svarteputt" />
		<tag k="natural" v="water" />
		<tag k="ssr:stedsnr" v="186419" />
	</node>
	<node id="-289604" lat="59.8914055576" lon="10.0973277859">
		<tag k="name" v="Trollmyrputten" />
		<tag k="natural" v="water" />
		<tag k="ssr:stedsnr" v="628020" />
		<tag k="water" v="pond" />
	</node>
	<node id="-290112" lat="59.8751527777" lon="10.3104694424">
		<tag k="name" v="Høgfossen" />
		<tag k="natural" v="waterfall" />
		<tag k="ssr:stedsnr" v="325993" />
	</node>
	<node id="-289596" lat="59.8709583357" lon="10.324788891">
		<tag k="name" v="Asdøla" />
		<tag k="ssr:stedsnr" v="610386" />
		<tag k="waterway" v="river" />
	</node>
	<node id="-290107" lat="59.9166916655" lon="10.3756000028">
		<tag k="alt_name" v="Kalvemyrsputten" />
		<tag k="name" v="Kalvemyrputten" />
		<tag k="natural" v="water" />
		<tag k="ssr:stedsnr" v="307920" />
		<tag k="water" v="pond" />
	</node>
	<node id="-289594" lat="59.9628749968" lon="10.244133341">
		<tag k="alt_name" v="Hornstjern;Hornstjernet" />
		<tag k="name" v="Horntjern" />
		<tag k="natural" v="water" />
		<tag k="ssr:stedsnr" v="610521" />
	</node>
	<node id="-290104" lat="59.9425222245" lon="10.1979833381">
		<tag k="name" v="Gråtjern" />
		<tag k="natural" v="water" />
		<tag k="ssr:stedsnr" v="307390" />
	</node>
	<node id="-290102" lat="59.8918138884" lon="10.1541777819">
		<tag k="name" v="Svartvannet" />
		<tag k="natural" v="water" />
		<tag k="ssr:stedsnr" v="307339" />
	</node>
	<node id="-289331" lat="59.9482999981" lon="10.1997000002">
		<tag k="name" v="Uleputten" />
		<tag k="natural" v="water" />
		<tag k="ssr:stedsnr" v="446699" />
		<tag k="water" v="pond" />
	</node>
	<node id="-290096" lat="59.8512444423" lon="10.0770638872">
		<tag k="name" v="Gampedalsbekken" />
		<tag k="ssr:stedsnr" v="307299" />
		<tag k="waterway" v="stream" />
	</node>
	<node id="-290093" lat="59.8164749985" lon="10.1096750006">
		<tag k="name" v="Lisbekken" />
		<tag k="ssr:stedsnr" v="307252" />
		<tag k="waterway" v="stream" />
	</node>
	<node id="-290092" lat="59.8146722265" lon="10.0984250027">
		<tag k="name" v="Løken" />
		<tag k="natural" v="water" />
		<tag k="ssr:stedsnr" v="307249" />
	</node>
	<node id="-289566" lat="59.726227781" lon="10.3154361118">
		<tag k="name" v="Lahelldammen" />
		<tag k="natural" v="water" />
		<tag k="ssr:stedsnr" v="689835" />
	</node>
	<node id="-290076" lat="59.7359277802" lon="10.3204722234">
		<tag k="name" v="Dauerudbekken" />
		<tag k="ssr:stedsnr" v="306351" />
		<tag k="waterway" v="stream" />
	</node>
	<node id="-289562" lat="59.9553027767" lon="10.226005554">
		<tag k="name" v="Rømmebekken" />
		<tag k="ssr:stedsnr" v="689590" />
		<tag k="waterway" v="stream" />
	</node>
	<node id="-289753" lat="59.8769527784" lon="10.1090611153">
		<tag k="alt_name" v="Grunnvassbekken" />
		<tag k="name" v="Grunnvannsbekken" />
		<tag k="ssr:stedsnr" v="932024" />
		<tag k="waterway" v="stream" />
	</node>
	<node id="-290067" lat="59.9532972202" lon="10.2178666708">
		<tag k="name" v="Knivtjernet" />
>>>>>>> e1d4bc35ff8a6074a6f2e91616a996b547c36f15
		<tag k="natural" v="water" />
		<tag k="ssr:stedsnr" v="204610" />
	</node>
<<<<<<< HEAD
	<node lat="59.86372914194516" lon="10.06215142058356" id="-14659">
		<tag k="alt_name" v="Glitrevann;Glitrevatnet" />
		<tag k="name" v="Glitre" />
		<tag k="natural" v="water" />
		<tag k="ssr:stedsnr" v="854319" />
		<tag k="water" v="lake" />
	</node>
	<node lat="59.88408610891427" lon="10.188438896327476" id="-14661">
		<tag k="alt_name" v="Skjærsvatnet;Skjersvannet" />
		<tag k="name" v="Skjærsvannet" />
		<tag k="natural" v="water" />
		<tag k="old_name" v="Skjærsvandet" />
		<tag k="ssr:stedsnr" v="854348" />
	</node>
	<node lat="59.93906829075407" lon="10.138678392050691" id="-14664">
		<tag k="name" v="Øvre Damtjern" />
		<tag k="natural" v="water" />
		<tag k="ssr:stedsnr" v="854358" />
	</node>
	<node lat="59.849619447516105" lon="10.17812776923976" id="-14669">
		<tag k="loc_name" v="De hvite bekkane" />
		<tag k="name" v="Kvitbekken" />
		<tag k="ssr:stedsnr" v="871230" />
		<tag k="waterway" v="stream" />
	</node>
	<node lat="59.91225833674803" lon="10.157386118453156" id="-14673">
		<tag k="name" v="Briskemyrbekken" />
		<tag k="ssr:stedsnr" v="871507" />
		<tag k="waterway" v="stream" />
	</node>
	<node lat="59.92673333548301" lon="10.235641659219054" id="-14675">
		<tag k="name" v="Øvre Øyentjern" />
		<tag k="natural" v="water" />
		<tag k="ssr:stedsnr" v="871517" />
	</node>
	<node lat="59.94697222614339" lon="10.200166658743006" id="-14678">
		<tag k="name" v="Skustadsetertjern" />
		<tag k="natural" v="water" />
		<tag k="ssr:stedsnr" v="871662" />
	</node>
	<node lat="59.86431388639368" lon="10.210791667817574" id="-14681">
		<tag k="name" v="Stampebekken" />
		<tag k="ssr:stedsnr" v="871791" />
		<tag k="waterway" v="stream" />
	</node>
	<node lat="59.80756595686949" lon="10.162910069386678" id="-14686">
		<tag k="loc_name" v="Eggedammane" />
		<tag k="name" v="Eggedammene" />
		<tag k="natural" v="water" />
		<tag k="ssr:stedsnr" v="931728" />
		<tag k="water" v="lake" />
	</node>
	<node lat="59.87695277837328" lon="10.1090611153443" id="-14689">
		<tag k="alt_name" v="Grunnvassbekken" />
		<tag k="name" v="Grunnvannsbekken" />
		<tag k="ssr:stedsnr" v="932024" />
		<tag k="waterway" v="stream" />
	</node>
	<node lat="59.8564083298152" lon="10.119775007399229" id="-14691">
		<tag k="name" v="Atalstadfløyten" />
		<tag k="place" v="locality" />
		<tag k="ssr:stedsnr" v="932031" />
	</node>
	<node lat="59.87538532456905" lon="10.204008939109425" id="-14693">
		<tag k="name" v="Klostertjern" />
		<tag k="natural" v="water" />
		<tag k="ssr:stedsnr" v="932182" />
	</node>
	<node lat="59.81268333615927" lon="10.130630557175683" id="-14697">
		<tag k="name" v="Starrmyrbekken" />
		<tag k="ssr:stedsnr" v="932434" />
		<tag k="waterway" v="stream" />
	</node>
	<node lat="59.82037777891481" lon="10.26842221742955" id="-14707">
		<tag k="name" v="Buttedalsbekken" />
		<tag k="ssr:stedsnr" v="932897" />
		<tag k="waterway" v="stream" />
	</node>
	<node lat="59.91056666789706" lon="10.287155555514596" id="-14713">
		<tag k="name" v="Hørtebekken" />
		<tag k="ssr:stedsnr" v="932670" />
		<tag k="waterway" v="stream" />
	</node>
	<node lat="59.840897221977045" lon="10.116841671642453" id="-14731">
		<tag k="name" v="Svarttjern" />
=======
	<node id="-289554" lat="59.9539611073" lon="10.2937111132">
		<tag k="name" v="Åsodden" />
		<tag k="natural" v="cape" />
		<tag k="ssr:stedsnr" v="689479" />
	</node>
	<node id="-289550" lat="59.8712361101" lon="10.1877694447">
		<tag k="loc_name" v="Veslevannsbekken" />
		<tag k="name" v="Veslevassbekken" />
		<tag k="ssr:stedsnr" v="689259" />
		<tag k="waterway" v="stream" />
	</node>
	<node id="-289547" lat="59.8216194401" lon="10.2503861041">
		<tag k="name" v="Sagdalsbekken" />
		<tag k="ssr:stedsnr" v="689121" />
		<tag k="waterway" v="stream" />
	</node>
	<node id="-289546" lat="59.8343277794" lon="10.3188583385">
		<tag k="name" v="Rotuelva" />
		<tag k="ssr:stedsnr" v="689104" />
		<tag k="waterway" v="river" />
	</node>
	<node id="-290053" lat="59.7466333326" lon="10.2725666623">
		<tag k="name" v="Møysund" />
		<tag k="natural" v="water" />
		<tag k="ssr:stedsnr" v="203890" />
		<tag k="water" v="pond" />
	</node>
	<node id="-289238" lat="59.8922277752" lon="10.2330388951">
		<tag k="name" v="Solbergdammen" />
		<tag k="ssr:stedsnr" v="82161" />
		<tag k="waterway" v="dam" />
	</node>
	<node id="-290562" lat="59.7580611129" lon="10.2111083329">
		<tag k="alt_name" v="Kloptjern" />
		<tag k="name" v="Klopptjern" />
		<tag k="natural" v="water" />
		<tag k="ssr:stedsnr" v="489096" />
	</node>
	<node id="-290561" lat="59.8637291419" lon="10.0621514206">
		<tag k="alt_name" v="Glitrevann;Glitrevatnet" />
		<tag k="name" v="Glitre" />
		<tag k="natural" v="water" />
		<tag k="ssr:stedsnr" v="854319" />
		<tag k="water" v="lake" />
	</node>
	<node id="-290048" lat="59.9400138866" lon="10.2085611116">
		<tag k="alt_name" v="Kattepytten" />
		<tag k="name" v="Katteputten" />
		<tag k="natural" v="water" />
		<tag k="ssr:stedsnr" v="203637" />
		<tag k="water" v="pond" />
	</node>
	<node id="-289530" lat="59.8834222193" lon="10.1357138951">
		<tag k="name" v="Brenneriputt" />
		<tag k="natural" v="water" />
		<tag k="ssr:stedsnr" v="507935" />
		<tag k="water" v="pond" />
	</node>
	<node id="-289529" lat="59.8194888853" lon="10.0998694418">
		<tag k="name" v="Stenbekken" />
		<tag k="ssr:stedsnr" v="507915" />
		<tag k="waterway" v="stream" />
	</node>
	<node id="-289209" lat="59.7945777733" lon="10.1716305599">
		<tag k="name" v="Eikdambekken" />
		<tag k="ssr:stedsnr" v="65119" />
		<tag k="waterway" v="stream" />
	</node>
	<node id="-289524" lat="59.8585611129" lon="10.2841611068">
		<tag k="name" v="Torsrudbekken" />
		<tag k="ssr:stedsnr" v="507275" />
		<tag k="waterway" v="stream" />
	</node>
	<node id="-289746" lat="59.8075659569" lon="10.1629100694">
		<tag k="loc_name" v="Eggedammane" />
		<tag k="name" v="Eggedammene" />
>>>>>>> e1d4bc35ff8a6074a6f2e91616a996b547c36f15
		<tag k="natural" v="water" />
		<tag k="ssr:stedsnr" v="914305" />
	</node>
	<node lat="59.85772777824307" lon="10.114444436195063" id="-14735">
		<tag k="name" v="Glitra" />
		<tag k="ssr:stedsnr" v="914277" />
		<tag k="waterway" v="river" />
	</node>
<<<<<<< HEAD
	<node lat="59.90953611277463" lon="10.304077782534176" id="-14742">
		<tag k="alt_name" v="Midtøy" />
		<tag k="name" v="Midtøya" />
		<tag k="place" v="island" />
		<tag k="ssr:stedsnr" v="930156" />
	</node>
	<node lat="59.79424444245763" lon="10.235061114326141" id="-14754">
		<tag k="name" v="Vellingbekken" />
		<tag k="ssr:stedsnr" v="932845" />
		<tag k="waterway" v="stream" />
	</node>
	<node lat="59.85537499678907" lon="10.130691663265935" id="-14769">
		<tag k="name" v="Fløyten" />
		<tag k="place" v="locality" />
		<tag k="ssr:stedsnr" v="3233" />
	</node>
	<node lat="59.95721666853376" lon="10.34881389065573" id="-14772">
		<tag k="alt_name" v="Tjernslitjern" />
		<tag k="name" v="Tjernslitjernet" />
		<tag k="natural" v="water" />
		<tag k="ssr:stedsnr" v="4058" />
	</node>
	<node lat="59.83623332917644" lon="10.153913896109481" id="-14777">
		<tag k="name" v="Kruttjern" />
		<tag k="natural" v="water" />
		<tag k="ssr:stedsnr" v="4271" />
	</node>
	<node lat="59.949974998691815" lon="10.33740554820452" id="-14784">
		<tag k="name" v="Dupla" />
		<tag k="place" v="locality" />
		<tag k="ssr:stedsnr" v="4363" />
	</node>
	<node lat="59.8140111148029" lon="10.351291659707812" id="-14787">
		<tag k="alt_name" v="Ulvenvannet" />
		<tag k="name" v="Ulvenvatnet" />
		<tag k="natural" v="water" />
		<tag k="ssr:stedsnr" v="5741" />
	</node>
	<node lat="59.873586113953166" lon="10.082574994193811" id="-14800">
		<tag k="name" v="Elgtjernsbekken" />
		<tag k="ssr:stedsnr" v="21025" />
		<tag k="waterway" v="stream" />
	</node>
	<node lat="59.83311944530348" lon="10.20640832633729" id="-14812">
		<tag k="name" v="Øksnebekken" />
		<tag k="ssr:stedsnr" v="21455" />
		<tag k="waterway" v="stream" />
	</node>
	<node lat="59.92853611363849" lon="10.351408336760612" id="-14817">
		<tag k="name" v="Bringebærbekken" />
		<tag k="ssr:stedsnr" v="22590" />
		<tag k="waterway" v="stream" />
	</node>
	<node lat="59.90236944839149" lon="10.26460555203522" id="-14824">
		<tag k="name" v="Teigenbekken" />
		<tag k="ssr:stedsnr" v="22682" />
		<tag k="waterway" v="stream" />
	</node>
	<node lat="59.909624997779815" lon="10.29512222380362" id="-14826">
		<tag k="name" v="Hørtevika" />
		<tag k="natural" v="bay" />
		<tag k="ssr:stedsnr" v="22697" />
	</node>
	<node lat="59.95696666669773" lon="10.203233332330585" id="-14828">
		<tag k="name" v="Sjutjern" />
		<tag k="natural" v="water" />
		<tag k="ssr:stedsnr" v="22919" />
	</node>
	<node lat="59.86013888452861" lon="10.11060278260813" id="-14830">
		<tag k="name" v="Lahølen" />
		<tag k="place" v="locality" />
		<tag k="ssr:stedsnr" v="22925" />
	</node>
	<node lat="59.89222777519376" lon="10.233038895064452" id="-14866">
		<tag k="name" v="Solbergdammen" />
		<tag k="ssr:stedsnr" v="82161" />
		<tag k="waterway" v="dam" />
	</node>
	<node lat="59.906558335250544" lon="10.210469451495616" id="-14869">
		<tag k="loc_name" v="Kårevannsbekken" />
		<tag k="name" v="Kårevassbekken" />
		<tag k="ssr:stedsnr" v="82545" />
		<tag k="waterway" v="stream" />
	</node>
	<node lat="59.788458335512175" lon="10.174244451515987" id="-14871">
		<tag k="name" v="Brokebekk" />
		<tag k="ssr:stedsnr" v="82690" />
		<tag k="waterway" v="stream" />
	</node>
	<node lat="59.80424166746242" lon="10.316872219952797" id="-14872">
		<tag k="name" v="Småvannsbekken" />
		<tag k="ssr:stedsnr" v="82553" />
		<tag k="waterway" v="stream" />
	</node>
	<node lat="59.777386106911884" lon="10.297044443351599" id="-14873">
		<tag k="name" v="Stuvstjernbekken" />
		<tag k="ssr:stedsnr" v="82576" />
		<tag k="waterway" v="stream" />
	</node>
	<node lat="59.783836113430425" lon="10.303694447994769" id="-14885">
		<tag k="name" v="Stuvstjern" />
		<tag k="natural" v="water" />
		<tag k="ssr:stedsnr" v="125163" />
	</node>
	<node lat="59.803666669604375" lon="10.304691669251552" id="-14888">
		<tag k="name" v="Småvanna" />
		<tag k="natural" v="water" />
		<tag k="ssr:stedsnr" v="125269" />
		<tag k="water" v="lake" />
	</node>
	<node lat="59.880080556114336" lon="10.14352222727824" id="-14896">
		<tag k="alt_name" v="Justad-Svartvatnet" />
		<tag k="name" v="Justad-Svartvannet" />
		<tag k="natural" v="water" />
		<tag k="ssr:stedsnr" v="142049" />
		<tag k="water" v="lake" />
	</node>
	<node lat="59.87640555264919" lon="10.176580561441092" id="-14899">
		<tag k="name" v="Skjærsvannsbekken" />
		<tag k="natural" v="water" />
		<tag k="ssr:stedsnr" v="142259" />
	</node>
	<node lat="59.89049999623631" lon="10.24615833758" id="-14903">
		<tag k="name" v="Veslevassbekken" />
		<tag k="ssr:stedsnr" v="142200" />
		<tag k="waterway" v="stream" />
	</node>
	<node lat="59.88484444400033" lon="10.223386117959516" id="-14904">
		<tag k="name" v="Fjellheimbekken" />
		<tag k="ssr:stedsnr" v="142210" />
		<tag k="waterway" v="stream" />
	</node>
	<node lat="59.89568888677528" lon="10.131191663016489" id="-14919">
		<tag k="alt_name" v="Sneiseholene" />
		<tag k="name" v="Sneiseholane" />
		<tag k="natural" v="water" />
		<tag k="ssr:stedsnr" v="185311" />
		<tag k="water" v="pond" />
	</node>
	<node lat="59.9374194486716" lon="10.244644452569416" id="-14926">
		<tag k="name" v="Svarteputt" />
		<tag k="natural" v="water" />
		<tag k="ssr:stedsnr" v="186419" />
	</node>
	<node lat="59.953261108079744" lon="10.203505557305851" id="-14928">
		<tag k="name" v="Ormetjern" />
		<tag k="natural" v="water" />
		<tag k="ssr:stedsnr" v="186433" />
	</node>
	<node lat="59.908113889499845" lon="10.16916388152451" id="-14931">
		<tag k="name" v="Nykjua" />
		<tag k="ssr:stedsnr" v="186463" />
		<tag k="waterway" v="river" />
	</node>
	<node lat="59.90884444636192" lon="10.196066660265947" id="-14932">
		<tag k="name" v="Dammyrdammen" />
		<tag k="natural" v="water" />
		<tag k="ssr:stedsnr" v="186464" />
		<tag k="water" v="lake" />
	</node>
	<node lat="59.940013886561694" lon="10.208561111555898" id="-14943">
		<tag k="alt_name" v="Kattepytten" />
		<tag k="name" v="Katteputten" />
		<tag k="natural" v="water" />
		<tag k="ssr:stedsnr" v="203637" />
		<tag k="water" v="pond" />
	</node>
	<node lat="59.953297220167045" lon="10.217866670787414" id="-14950">
		<tag k="name" v="Knivtjernet" />
=======
	<node id="-290026" lat="59.8704833366" lon="10.0894583317">
		<tag k="name" v="Damvika" />
		<tag k="natural" v="bay" />
		<tag k="ssr:stedsnr" v="203041" />
	</node>
	<node id="-290024" lat="59.9088444464" lon="10.1960666603">
		<tag k="name" v="Dammyrdammen" />
		<tag k="natural" v="water" />
		<tag k="ssr:stedsnr" v="186464" />
		<tag k="water" v="lake" />
	</node>
	<node id="-290023" lat="59.9081138895" lon="10.1691638815">
		<tag k="name" v="Nykjua" />
		<tag k="ssr:stedsnr" v="186463" />
		<tag k="waterway" v="river" />
	</node>
	<node id="-290534" lat="59.924102779" lon="10.3645666689">
		<tag k="name" v="Lamyrbekken" />
		<tag k="ssr:stedsnr" v="872596" />
		<tag k="waterway" v="stream" />
	</node>
	<node id="-289508" lat="59.8893138906" lon="10.1088749988">
		<tag k="alt_name" v="Karusstjernet" />
		<tag k="name" v="Karusstjern" />
		<tag k="natural" v="water" />
		<tag k="ssr:stedsnr" v="672333" />
	</node>
	<node id="-290530" lat="59.8643138864" lon="10.2107916678">
		<tag k="name" v="Stampebekken" />
		<tag k="ssr:stedsnr" v="871791" />
		<tag k="waterway" v="stream" />
	</node>
	<node id="-290528" lat="59.8218027811" lon="10.1823416713">
		<tag k="name" v="Kleivdammen" />
		<tag k="natural" v="water" />
		<tag k="ssr:stedsnr" v="871397" />
	</node>
	<node id="-289501" lat="59.9142935996" lon="10.120509741">
		<tag k="fixme" v="multiple name tags, choose one and add the other to alt_name" />
		<tag k="loc_name" v="Storsneisa;Nordsneisa" />
		<tag k="name" v="Damsneisa;Nordre Sneisa" />
		<tag k="natural" v="water" />
		<tag k="old_name" v="St Snejsa" />
		<tag k="ssr:stedsnr" v="671401" />
		<tag k="water" v="lake" />
	</node>
	<node id="-289500" lat="59.9438555566" lon="10.2247444414">
		<tag k="name" v="Furudammen" />
		<tag k="natural" v="water" />
		<tag k="ssr:stedsnr" v="671382" />
	</node>
	<node id="-290523" lat="59.8496194475" lon="10.1781277692">
		<tag k="loc_name" v="De hvite bekkane" />
		<tag k="name" v="Kvitbekken" />
		<tag k="ssr:stedsnr" v="871230" />
		<tag k="waterway" v="stream" />
	</node>
	<node id="-290008" lat="59.8956888868" lon="10.131191663">
		<tag k="alt_name" v="Sneiseholene" />
		<tag k="name" v="Sneiseholane" />
		<tag k="natural" v="water" />
		<tag k="ssr:stedsnr" v="185311" />
		<tag k="water" v="pond" />
	</node>
	<node id="-289495" lat="59.8546722217" lon="10.1384138852">
		<tag k="name" v="Egga" />
		<tag k="ssr:stedsnr" v="671280" />
		<tag k="waterway" v="stream" />
	</node>
	<node id="-290005" lat="59.8130254546" lon="10.1777752018">
		<tag k="alt_name" v="Øvre Svarttjern;Nedre Svarttjern" />
		<tag k="name" v="Svarttjerna" />
		<tag k="natural" v="water" />
		<tag k="ssr:stedsnr" v="185200" />
		<tag k="water" v="lake" />
	</node>
	<node id="-289492" lat="59.8656944417" lon="10.1242805639">
		<tag k="alt_name" v="Rotåa" />
		<tag k="name" v="Rotua" />
		<tag k="ssr:stedsnr" v="671275" />
		<tag k="waterway" v="river" />
	</node>
	<node id="-289490" lat="59.8489388891" lon="10.0825666642">
		<tag k="name" v="Himmerikstjern" />
		<tag k="natural" v="water" />
		<tag k="ssr:stedsnr" v="671260" />
	</node>
	<node id="-289485" lat="59.7910277775" lon="10.324850005">
		<tag k="name" v="Sagelva" />
		<tag k="ssr:stedsnr" v="671154" />
		<tag k="waterway" v="stream" />
	</node>
	<node id="-290506" lat="59.9089119743" lon="10.1232211847">
		<tag k="alt_name" v="Lillesneisa" />
		<tag k="fixme" v="multiple name tags, choose one and add the other to alt_name" />
		<tag k="loc_name" v="Midtsneisa;Veslesneisa" />
		<tag k="name" v="Lille Sneisa;Mellomsneisa" />
		<tag k="natural" v="water" />
		<tag k="old_name" v="L Snejsa" />
		<tag k="ssr:stedsnr" v="854400" />
		<tag k="water" v="lake" />
	</node>
	<node id="-290505" lat="59.9100499984" lon="10.2417666603">
		<tag k="name" v="Veslevannet" />
		<tag k="natural" v="water" />
		<tag k="ssr:stedsnr" v="854397" />
	</node>
	<node id="-290504" lat="59.9387984863" lon="10.2054067536">
		<tag k="name" v="Monsetjern" />
		<tag k="natural" v="water" />
		<tag k="ssr:stedsnr" v="854378" />
	</node>
	<node id="-290502" lat="59.9390682908" lon="10.1386783921">
		<tag k="name" v="Øvre Damtjern" />
		<tag k="natural" v="water" />
		<tag k="ssr:stedsnr" v="854358" />
	</node>
	<node id="-289476" lat="59.9440310144" lon="10.2184181545">
		<tag k="alt_name" v="Svinetjernet" />
		<tag k="name" v="Svinetjern" />
		<tag k="natural" v="water" />
		<tag k="ssr:stedsnr" v="446641" />
	</node>
	<node id="-290499" lat="59.8840861089" lon="10.1884388963">
		<tag k="alt_name" v="Skjærsvatnet;Skjersvannet" />
		<tag k="name" v="Skjærsvannet" />
		<tag k="natural" v="water" />
		<tag k="old_name" v="Skjærsvandet" />
		<tag k="ssr:stedsnr" v="854348" />
	</node>
	<node id="-289985" lat="59.884844444" lon="10.223386118">
		<tag k="name" v="Fjellheimbekken" />
		<tag k="ssr:stedsnr" v="142210" />
		<tag k="waterway" v="stream" />
	</node>
	<node id="-289984" lat="59.8904999962" lon="10.2461583376">
		<tag k="name" v="Veslevassbekken" />
		<tag k="ssr:stedsnr" v="142200" />
		<tag k="waterway" v="stream" />
	</node>
	<node id="-289470" lat="59.8718194124" lon="10.3288052762">
		<tag k="name" v="Asdøltjern" />
		<tag k="natural" v="water" />
		<tag k="ssr:stedsnr" v="429310" />
	</node>
	<node id="-289653" lat="59.9241722254" lon="10.1196333371">
		<tag k="name" v="Hvalsputten" />
		<tag k="natural" v="water" />
		<tag k="ssr:stedsnr" v="732434" />
	</node>
	<node id="-289978" lat="59.8800805561" lon="10.1435222273">
		<tag k="alt_name" v="Justad-Svartvatnet" />
		<tag k="name" v="Justad-Svartvannet" />
		<tag k="natural" v="water" />
		<tag k="ssr:stedsnr" v="142049" />
		<tag k="water" v="lake" />
	</node>
	<node id="-289971" lat="59.927336107" lon="10.1204361088">
		<tag k="alt_name" v="Lille Nykjua" />
		<tag k="name" v="Vesle Nykjua" />
		<tag k="natural" v="water" />
		<tag k="ssr:stedsnr" v="125446" />
		<tag k="water" v="lake" />
	</node>
	<node id="-289967" lat="59.8912194426" lon="10.1211972163">
		<tag k="name" v="Fjellbekken" />
		<tag k="ssr:stedsnr" v="125365" />
		<tag k="waterway" v="stream" />
	</node>
	<node id="-290478" lat="59.9114499993" lon="10.337030556">
		<tag k="name" v="Olavsbekken" />
		<tag k="ssr:stedsnr" v="811554" />
		<tag k="waterway" v="stream" />
	</node>
	<node id="-290476" lat="59.9436361112" lon="10.2956861043">
		<tag k="name" v="Holmenvika" />
		<tag k="natural" v="bay" />
		<tag k="ssr:stedsnr" v="811278" />
	</node>
	<node id="-289650" lat="59.9549277816" lon="10.2236500083">
		<tag k="alt_name" v="Grytevatnet" />
		<tag k="name" v="Grytevannet" />
>>>>>>> e1d4bc35ff8a6074a6f2e91616a996b547c36f15
		<tag k="natural" v="water" />
		<tag k="ssr:stedsnr" v="204610" />
	</node>
<<<<<<< HEAD
	<node lat="59.95337778178122" lon="10.187466660702695" id="-14960">
		<tag k="name" v="Djupombekken" />
		<tag k="ssr:stedsnr" v="300118" />
		<tag k="waterway" v="stream" />
	</node>
	<node lat="59.73592778019098" lon="10.320472223357125" id="-14970">
		<tag k="name" v="Dauerudbekken" />
		<tag k="ssr:stedsnr" v="306351" />
		<tag k="waterway" v="stream" />
	</node>
	<node lat="59.81467222653396" lon="10.09842500272925" id="-14975">
		<tag k="name" v="Løken" />
		<tag k="natural" v="water" />
		<tag k="ssr:stedsnr" v="307249" />
	</node>
	<node lat="59.851244442266164" lon="10.077063887154546" id="-14976">
		<tag k="name" v="Gampedalsbekken" />
		<tag k="ssr:stedsnr" v="307299" />
		<tag k="waterway" v="stream" />
	</node>
	<node lat="59.891813888448254" lon="10.154177781907016" id="-14977">
		<tag k="name" v="Svartvannet" />
		<tag k="natural" v="water" />
		<tag k="ssr:stedsnr" v="307339" />
	</node>
	<node lat="59.94252222454731" lon="10.197983338115325" id="-14981">
		<tag k="name" v="Gråtjern" />
		<tag k="natural" v="water" />
		<tag k="ssr:stedsnr" v="307390" />
	</node>
	<node lat="59.87702499724214" lon="10.34830278100845" id="-14995">
		<tag k="name" v="Fløyten" />
		<tag k="place" v="locality" />
		<tag k="ssr:stedsnr" v="325303" />
	</node>
	<node lat="59.881788886123054" lon="10.144330547331046" id="-15002">
		<tag k="name" v="Kulbergmyrputt" />
		<tag k="natural" v="water" />
		<tag k="ssr:stedsnr" v="325920" />
		<tag k="water" v="pond" />
	</node>
	<node lat="59.92181111214198" lon="10.14971389610306" id="-15006">
		<tag k="alt_name" v="Småvatna" />
		<tag k="name" v="Småvanna" />
		<tag k="natural" v="water" />
		<tag k="ssr:stedsnr" v="325666" />
		<tag k="water" v="lake" />
	</node>
	<node lat="59.87515277773084" lon="10.310469442438363" id="-15009">
		<tag k="name" v="Høgfossen" />
		<tag k="natural" v="waterfall" />
		<tag k="ssr:stedsnr" v="325993" />
	</node>
	<node lat="59.80279999961046" lon="10.283894445074775" id="-15023">
		<tag k="name" v="Damtjern" />
		<tag k="natural" v="water" />
		<tag k="ssr:stedsnr" v="368267" />
	</node>
	<node lat="59.92243889285567" lon="10.226825000604377" id="-15025">
		<tag k="alt_name" v="Nedre Øyentjern" />
		<tag k="name" v="Øyetjern" />
		<tag k="natural" v="water" />
		<tag k="ssr:stedsnr" v="368442" />
	</node>
	<node lat="59.922074998012306" lon="10.187222215367878" id="-15026">
		<tag k="alt_name" v="Svartvasselva" />
		<tag k="name" v="Svartvannselva" />
		<tag k="ssr:stedsnr" v="368452" />
		<tag k="waterway" v="stream" />
	</node>
	<node lat="59.86729166846876" lon="10.0989750077448" id="-15032">
		<tag k="name" v="Svarthølen" />
		<tag k="place" v="locality" />
		<tag k="ssr:stedsnr" v="385040" />
	</node>
	<node lat="59.81732777417269" lon="10.334391666352714" id="-15037">
		<tag k="name" v="Grobruelva" />
		<tag k="ssr:stedsnr" v="385087" />
		<tag k="waterway" v="river" />
	</node>
	<node lat="59.903133337017564" lon="10.3551249934776" id="-15043">
		<tag k="name" v="Bukkebekken" />
		<tag k="ssr:stedsnr" v="385575" />
		<tag k="waterway" v="stream" />
	</node>
	<node lat="59.849619447516105" lon="10.17812776923976" id="-15062">
		<tag k="name" v="Lundsbekken" />
		<tag k="ssr:stedsnr" v="428230" />
		<tag k="waterway" v="stream" />
	</node>
	<node lat="59.8851611136543" lon="10.100283331224546" id="-15074">
		<tag k="alt_name" v="Snikeputten" />
		<tag k="name" v="Snikeputt" />
		<tag k="natural" v="water" />
		<tag k="ssr:stedsnr" v="429348" />
	</node>
	<node lat="59.92782500117333" lon="10.16679722846674" id="-15075">
		<tag k="fixme" v="multiple name tags, choose one and add the other to alt_name" />
		<tag k="name" v="Tverrelva;Elgstjernelva;Fallsbekken" />
		<tag k="ssr:stedsnr" v="429488" />
		<tag k="waterway" v="stream" />
	</node>
	<node lat="59.81658610699273" lon="10.099191664545682" id="-15092">
		<tag k="name" v="Lorttjern" />
		<tag k="natural" v="water" />
		<tag k="ssr:stedsnr" v="446456" />
	</node>
	<node lat="59.85274722425249" lon="10.12506666839959" id="-15093">
		<tag k="name" v="Svarttjernsbekken" />
		<tag k="ssr:stedsnr" v="446462" />
		<tag k="waterway" v="stream" />
	</node>
	<node lat="59.96276389076774" lon="10.28464721751805" id="-15098">
		<tag k="name" v="Storrvika" />
		<tag k="natural" v="bay" />
		<tag k="ssr:stedsnr" v="446599" />
	</node>
	<node lat="59.94829999808571" lon="10.199700000231443" id="-15105">
		<tag k="name" v="Uleputten" />
		<tag k="natural" v="water" />
		<tag k="ssr:stedsnr" v="446699" />
		<tag k="water" v="pond" />
	</node>
	<node lat="59.939911108193975" lon="10.297972218882407" id="-15109">
		<tag k="name" v="Holmenelva" />
		<tag k="ssr:stedsnr" v="447266" />
		<tag k="waterway" v="stream" />
	</node>
	<node lat="59.91060277907476" lon="10.303547220169348" id="-15117">
		<tag k="alt_name" v="Nordøya" />
		<tag k="name" v="Storøya" />
		<tag k="place" v="island" />
		<tag k="ssr:stedsnr" v="505164" />
	</node>
	<node lat="59.827158335565926" lon="10.118830554677437" id="-15118">
		<tag k="name" v="Eggefløyten" />
		<tag k="ssr:stedsnr" v="507430" />
		<tag k="waterway" v="river" />
	</node>
	<node lat="59.838002773421685" lon="10.208605557371502" id="-15128">
		<tag k="name" v="Treffenbekken" />
		<tag k="ssr:stedsnr" v="507351" />
		<tag k="waterway" v="stream" />
	</node>
	<node lat="59.85856111294173" lon="10.284161106827103" id="-15129">
		<tag k="name" v="Torsrudbekken" />
		<tag k="ssr:stedsnr" v="507275" />
		<tag k="waterway" v="stream" />
	</node>
	<node lat="59.94470277770917" lon="10.232605551512005" id="-15133">
		<tag k="name" v="Furudambekken" />
		<tag k="ssr:stedsnr" v="507627" />
		<tag k="waterway" v="stream" />
	</node>
	<node lat="59.88342221930487" lon="10.135713895076544" id="-15134">
		<tag k="name" v="Brenneriputt" />
=======
	<node id="-289448" lat="59.8380027734" lon="10.2086055574">
		<tag k="name" v="Treffenbekken" />
		<tag k="ssr:stedsnr" v="507351" />
		<tag k="waterway" v="stream" />
	</node>
	<node id="-289959" lat="59.8036666696" lon="10.3046916693">
		<tag k="name" v="Småvanna" />
		<tag k="natural" v="water" />
		<tag k="ssr:stedsnr" v="125269" />
		<tag k="water" v="lake" />
	</node>
	<node id="-289956" lat="59.7667611132" lon="10.2001916737">
		<tag k="name" v="Svarttjern" />
		<tag k="natural" v="water" />
		<tag k="ssr:stedsnr" v="125189" />
	</node>
	<node id="-289953" lat="59.7838361134" lon="10.303694448">
		<tag k="name" v="Stuvstjern" />
		<tag k="natural" v="water" />
		<tag k="ssr:stedsnr" v="125163" />
	</node>
	<node id="-289951" lat="59.9304722235" lon="10.3282250043">
		<tag k="name" v="Holsfjorden" />
		<tag k="natural" v="water" />
		<tag k="ssr:stedsnr" v="124411" />
	</node>
	<node id="-290462" lat="59.9594027804" lon="10.2890944379">
		<tag k="name" v="Hornsvika" />
		<tag k="natural" v="bay" />
		<tag k="ssr:stedsnr" v="810511" />
	</node>
	<node id="-289945" lat="59.899688888" lon="10.2923750067">
		<tag k="name" v="Sagvika" />
		<tag k="natural" v="bay" />
		<tag k="ssr:stedsnr" v="83700" />
	</node>
	<node id="-290454" lat="59.8631777758" lon="10.2614333264">
		<tag k="name" v="Nordelva" />
		<tag k="ssr:stedsnr" v="810250" />
		<tag k="waterway" v="river" />
	</node>
	<node id="-289429" lat="59.9106027791" lon="10.3035472202">
		<tag k="alt_name" v="Nordøya" />
		<tag k="name" v="Storøya" />
		<tag k="place" v="island" />
		<tag k="ssr:stedsnr" v="505164" />
	</node>
	<node id="-289428" lat="59.8167999984" lon="10.1198444469">
		<tag k="name" v="Heiabekken" />
		<tag k="ssr:stedsnr" v="386911" />
		<tag k="waterway" v="stream" />
	</node>
	<node id="-289938" lat="59.7884583355" lon="10.1742444515">
		<tag k="name" v="Brokebekk" />
		<tag k="ssr:stedsnr" v="82690" />
		<tag k="waterway" v="stream" />
	</node>
	<node id="-289987" lat="59.8764055526" lon="10.1765805614">
		<tag k="name" v="Skjærsvannsbekken" />
		<tag k="natural" v="water" />
		<tag k="ssr:stedsnr" v="142259" />
	</node>
	<node id="-289936" lat="59.9065583353" lon="10.2104694515">
		<tag k="loc_name" v="Kårevannsbekken" />
		<tag k="name" v="Kårevassbekken" />
		<tag k="ssr:stedsnr" v="82545" />
		<tag k="waterway" v="stream" />
	</node>
	<node id="-289421" lat="59.9438472262" lon="10.1904305609">
		<tag k="name" v="Ovnstjern" />
		<tag k="natural" v="water" />
		<tag k="ssr:stedsnr" v="385707" />
	</node>
	<node id="-289932" lat="59.8901543749" lon="10.1786301822">
		<tag k="name" v="Sjutjern" />
		<tag k="natural" v="water" />
		<tag k="ssr:stedsnr" v="82243" />
	</node>
	<node id="-290441" lat="59.9082777776" lon="10.3031277781">
		<tag k="alt_name" v="Kråkøy" />
		<tag k="name" v="Kavringen" />
		<tag k="place" v="island" />
		<tag k="ssr:stedsnr" v="809162" />
	</node>
	<node id="-289926" lat="59.7965472203" lon="10.2220249961">
		<tag k="name" v="Helgerudbekken" />
		<tag k="ssr:stedsnr" v="81383" />
		<tag k="waterway" v="stream" />
	</node>
	<node id="-289413" lat="59.8443999968" lon="10.2991166604">
		<tag k="name" v="Pyntebekk" />
		<tag k="ssr:stedsnr" v="385119" />
		<tag k="waterway" v="stream" />
	</node>
	<node id="-289398" lat="59.8870361078" lon="10.172763888">
		<tag k="name" v="Gampetjern" />
		<tag k="natural" v="water" />
		<tag k="ssr:stedsnr" v="490359" />
	</node>
	<node id="-289395" lat="59.93729285" lon="10.219988033">
		<tag k="alt_name" v="Svartvatnet" />
		<tag k="name" v="Svartvannet" />
		<tag k="natural" v="water" />
		<tag k="ssr:stedsnr" v="489399" />
	</node>
	<node id="-290509" lat="59.9079000008" lon="10.3579638975">
		<tag k="name" v="Sørelva" />
		<tag k="ssr:stedsnr" v="854913" />
		<tag k="waterway" v="stream" />
	</node>
	<node id="-289469" lat="59.9130805526" lon="10.2102777765">
		<tag k="name" v="Kårevannet" />
		<tag k="natural" v="water" />
		<tag k="ssr:stedsnr" v="429402" />
	</node>
	<node id="-289426" lat="59.7506305589" lon="10.3085222157">
		<tag k="name" v="Sprengstoffdammen" />
		<tag k="ssr:stedsnr" v="385857" />
		<tag k="waterway" v="dam" />
	</node>
	<node id="-289897" lat="59.9096249978" lon="10.2951222238">
		<tag k="name" v="Hørtevika" />
		<tag k="natural" v="bay" />
		<tag k="ssr:stedsnr" v="22697" />
	</node>
	<node id="-289895" lat="59.9023694484" lon="10.264605552">
		<tag k="name" v="Teigenbekken" />
		<tag k="ssr:stedsnr" v="22682" />
		<tag k="waterway" v="stream" />
	</node>
	<node id="-289894" lat="59.9285361136" lon="10.3514083368">
		<tag k="name" v="Bringebærbekken" />
		<tag k="ssr:stedsnr" v="22590" />
		<tag k="waterway" v="stream" />
	</node>
	<node id="-290405" lat="59.9148555521" lon="10.1360888952">
		<tag k="name" v="Kringlehølen" />
		<tag k="place" v="locality" />
		<tag k="ssr:stedsnr" v="750685" />
	</node>
	<node id="-290404" lat="59.8949250009" lon="10.1575027864">
		<tag k="name" v="Svartvannsbekken" />
		<tag k="ssr:stedsnr" v="750675" />
		<tag k="waterway" v="stream" />
	</node>
	<node id="-290403" lat="59.8975888914" lon="10.2875583317">
		<tag k="name" v="Svangbekken" />
		<tag k="ssr:stedsnr" v="750673" />
		<tag k="waterway" v="stream" />
	</node>
	<node id="-289378" lat="59.8817888861" lon="10.1443305473">
		<tag k="name" v="Kulbergmyrputt" />
		<tag k="natural" v="water" />
		<tag k="ssr:stedsnr" v="325920" />
		<tag k="water" v="pond" />
	</node>
	<node id="-289211" lat="59.8231027757" lon="10.1423888807">
		<tag k="alt_name" v="Damvatnet" />
		<tag k="name" v="Damvannet" />
		<tag k="natural" v="water" />
		<tag k="ssr:stedsnr" v="65205" />
	</node>
	<node id="-290398" lat="59.7691722248" lon="10.2304388828">
		<tag k="name" v="Sandakerelva" />
		<tag k="ssr:stedsnr" v="749927" />
		<tag k="waterway" v="river" />
	</node>
	<node id="-289885" lat="59.8129777734" lon="10.1200388831">
		<tag k="name" v="Vakkertjernsbekken" />
		<tag k="ssr:stedsnr" v="21500" />
		<tag k="waterway" v="stream" />
	</node>
	<node id="-289883" lat="59.8331194453" lon="10.2064083263">
		<tag k="name" v="Øksnebekken" />
		<tag k="ssr:stedsnr" v="21455" />
		<tag k="waterway" v="stream" />
	</node>
	<node id="-289370" lat="59.9533777818" lon="10.1874666607">
		<tag k="name" v="Djupombekken" />
		<tag k="ssr:stedsnr" v="300118" />
		<tag k="waterway" v="stream" />
	</node>
	<node id="-289647" lat="59.8719805545" lon="10.1874361095">
		<tag k="name" v="Veslevannet" />
		<tag k="natural" v="water" />
		<tag k="ssr:stedsnr" v="732360" />
	</node>
	<node id="-289365" lat="59.949291671" lon="10.2030666691">
		<tag k="name" v="Urtjern" />
		<tag k="natural" v="water" />
		<tag k="ssr:stedsnr" v="265924" />
	</node>
	<node id="-289357" lat="59.9290361126" lon="10.340402777">
		<tag k="name" v="Nordelva" />
		<tag k="ssr:stedsnr" v="247944" />
		<tag k="waterway" v="stream" />
	</node>
	<node id="-289362" lat="59.9586361124" lon="10.2121916606">
		<tag k="alt_name" v="Grynteputt" />
		<tag k="name" v="Krynteputt" />
		<tag k="natural" v="water" />
		<tag k="ssr:stedsnr" v="264617" />
		<tag k="water" v="pond" />
	</node>
	<node id="-290385" lat="59.8414666688" lon="10.1358805634">
		<tag k="name" v="Meriputten" />
		<tag k="natural" v="water" />
		<tag k="ssr:stedsnr" v="749484" />
		<tag k="water" v="pond" />
	</node>
	<node id="-290381" lat="59.8348944427" lon="10.0869750067">
		<tag k="name" v="Hølbekken" />
		<tag k="ssr:stedsnr" v="749461" />
		<tag k="waterway" v="stream" />
	</node>
	<node id="-290377" lat="59.8884292281" lon="10.1704104776">
		<tag k="name" v="Øvre Høymyrtjern" />
		<tag k="natural" v="water" />
		<tag k="ssr:stedsnr" v="749274" />
	</node>
	<node id="-290376" lat="59.8553861126" lon="10.1302388804">
		<tag k="name" v="Fløyten" />
		<tag k="natural" v="water" />
		<tag k="ssr:stedsnr" v="749019" />
		<tag k="water" v="lake" />
	</node>
	<node id="-289863" lat="59.8140111148" lon="10.3512916597">
		<tag k="alt_name" v="Ulvenvannet" />
		<tag k="name" v="Ulvenvatnet" />
>>>>>>> e1d4bc35ff8a6074a6f2e91616a996b547c36f15
		<tag k="natural" v="water" />
		<tag k="ssr:stedsnr" v="5741" />
	</node>
<<<<<<< HEAD
	<node lat="59.799845726263" lon="10.143093627025209" id="-15149">
		<tag k="alt_name" v="Skimtvannet" />
		<tag k="name" v="Skimten" />
		<tag k="natural" v="water" />
		<tag k="ssr:stedsnr" v="550143" />
	</node>
	<node lat="59.93667499687188" lon="10.283255560869263" id="-15154">
		<tag k="name" v="Holmenelva" />
		<tag k="ssr:stedsnr" v="550373" />
		<tag k="waterway" v="stream" />
	</node>
	<node lat="59.93167777694557" lon="10.300136107307985" id="-15169">
		<tag k="name" v="Dragbekken" />
		<tag k="ssr:stedsnr" v="567484" />
		<tag k="waterway" v="stream" />
	</node>
	<node lat="59.90326944868436" lon="10.267936106373977" id="-15180">
		<tag k="name" v="Sjektedalsbekken" />
		<tag k="ssr:stedsnr" v="568676" />
		<tag k="waterway" v="stream" />
	</node>
	<node lat="59.890827779037075" lon="10.24617777904794" id="-15182">
		<tag k="alt_name" v="Veslevannsbekken" />
		<tag k="name" v="Veslevassbekken" />
		<tag k="ssr:stedsnr" v="568687" />
		<tag k="waterway" v="stream" />
	</node>
	<node lat="59.82815833217076" lon="10.213974993631162" id="-15184">
		<tag k="name" v="Øksnebekken" />
		<tag k="ssr:stedsnr" v="568900" />
		<tag k="waterway" v="stream" />
	</node>
	<node lat="59.869597225302215" lon="10.117605548941677" id="-15187">
		<tag k="name" v="Tjurujelshølen" />
		<tag k="place" v="locality" />
		<tag k="ssr:stedsnr" v="568925" />
	</node>
	<node lat="59.93381666364669" lon="10.110483335510953" id="-15189">
		<tag k="name" v="Grukkedøla" />
		<tag k="ssr:stedsnr" v="586159" />
		<tag k="waterway" v="stream" />
	</node>
	<node lat="59.8984972217376" lon="10.293461110014075" id="-15203">
		<tag k="name" v="Svangstrand" />
		<tag k="natural" v="beach" />
		<tag k="ssr:stedsnr" v="610371" />
	</node>
	<node lat="59.870958335724595" lon="10.324788891039853" id="-15204">
		<tag k="name" v="Asdøla" />
		<tag k="ssr:stedsnr" v="610386" />
		<tag k="waterway" v="river" />
	</node>
	<node lat="59.96287499684642" lon="10.244133340960072" id="-15205">
		<tag k="alt_name" v="Hornstjern;Hornstjernet" />
		<tag k="name" v="Horntjern" />
		<tag k="natural" v="water" />
		<tag k="ssr:stedsnr" v="610521" />
	</node>
	<node lat="59.88512778231145" lon="10.177724997641086" id="-15217">
		<tag k="alt_name" v="Kjakatjernet" />
		<tag k="name" v="Kjakatjern" />
		<tag k="natural" v="water" />
		<tag k="ssr:stedsnr" v="628232" />
	</node>
	<node lat="59.886013886889074" lon="10.249419445876269" id="-15221">
		<tag k="name" v="Skuggebekken" />
		<tag k="ssr:stedsnr" v="628152" />
		<tag k="waterway" v="stream" />
	</node>
	<node lat="59.79889999751202" lon="10.195266674121063" id="-15233">
		<tag k="name" v="Eriksrudbekken" />
		<tag k="ssr:stedsnr" v="628681" />
		<tag k="waterway" v="stream" />
	</node>
	<node lat="59.91157221939202" lon="10.1343583347946" id="-15234">
		<tag k="name" v="Sjåstadflåren" />
		<tag k="natural" v="water" />
		<tag k="ssr:stedsnr" v="628685" />
	</node>
	<node lat="59.92417222539309" lon="10.119633337051514" id="-15267">
		<tag k="name" v="Hvalsputten" />
		<tag k="natural" v="water" />
		<tag k="ssr:stedsnr" v="732434" />
	</node>
	<node lat="59.930913889726504" lon="10.239658330321491" id="-15269">
		<tag k="alt_name" v="Damvannet" />
		<tag k="name" v="Damtjern" />
		<tag k="natural" v="water" />
		<tag k="ssr:stedsnr" v="732443" />
	</node>
	<node lat="59.93428332910388" lon="10.122383339773863" id="-15271">
		<tag k="alt_name" v="Bomlebekken" />
		<tag k="name" v="Bumlebekken" />
		<tag k="ssr:stedsnr" v="732386" />
		<tag k="waterway" v="stream" />
	</node>
	<node lat="59.928177779861024" lon="10.240644451887743" id="-15273">
		<tag k="name" v="Pålstjern" />
		<tag k="natural" v="water" />
		<tag k="ssr:stedsnr" v="732457" />
	</node>
	<node lat="59.89327140736553" lon="10.362459030968378" id="-15275">
		<tag k="name" v="Øyevann" />
		<tag k="natural" v="water" />
		<tag k="ssr:stedsnr" v="732859" />
	</node>
	<node lat="59.90555708393198" lon="10.362176886311884" id="-15276">
		<tag k="name" v="Damvann" />
		<tag k="natural" v="water" />
		<tag k="ssr:stedsnr" v="732864" />
	</node>
	<node lat="59.85538611262107" lon="10.130238880394248" id="-15288">
		<tag k="name" v="Fløyten" />
		<tag k="natural" v="water" />
		<tag k="ssr:stedsnr" v="749019" />
		<tag k="water" v="lake" />
	</node>
	<node lat="59.862702777215205" lon="10.133383337460659" id="-15292">
		<tag k="alt_name" v="Rotfossen" />
		<tag k="loc_name" v="Rotefossen;Rotofossen" />
		<tag k="name" v="Rotufossen" />
		<tag k="natural" v="waterfall" />
		<tag k="ssr:stedsnr" v="749001" />
	</node>
	<node lat="59.888429228056914" lon="10.170410477585039" id="-15293">
		<tag k="name" v="Øvre Høymyrtjern" />
		<tag k="natural" v="water" />
		<tag k="ssr:stedsnr" v="749274" />
	</node>
	<node lat="59.94304722187616" lon="10.2420222274119" id="-15304">
		<tag k="name" v="Steinarbekken" />
		<tag k="ssr:stedsnr" v="749631" />
		<tag k="waterway" v="stream" />
	</node>
	<node lat="59.91485555213149" lon="10.136088895202192" id="-15312">
		<tag k="name" v="Kringlehølen" />
		<tag k="place" v="locality" />
		<tag k="ssr:stedsnr" v="750685" />
=======
	<node id="-290374" lat="59.8627027772" lon="10.1333833375">
		<tag k="alt_name" v="Rotfossen" />
		<tag k="loc_name" v="Rotefossen;Rotofossen" />
		<tag k="name" v="Rotufossen" />
		<tag k="natural" v="waterfall" />
		<tag k="ssr:stedsnr" v="749001" />
	</node>
	<node id="-289347" lat="59.9036611075" lon="10.208747214">
		<tag k="name" v="Kårefoss" />
		<tag k="natural" v="waterfall" />
		<tag k="ssr:stedsnr" v="447681" />
	</node>
	<node id="-289858" lat="59.9499749987" lon="10.3374055482">
		<tag k="name" v="Dupla" />
		<tag k="place" v="locality" />
		<tag k="ssr:stedsnr" v="4363" />
	</node>
	<node id="-289632" lat="59.8032749976" lon="10.1870416585">
		<tag k="name" v="Eriksrudtjern" />
		<tag k="natural" v="water" />
		<tag k="ssr:stedsnr" v="732259" />
	</node>
	<node id="-289341" lat="59.9399111082" lon="10.2979722189">
		<tag k="name" v="Holmenelva" />
		<tag k="ssr:stedsnr" v="447266" />
		<tag k="waterway" v="stream" />
	</node>
	<node id="-289852" lat="59.8362333292" lon="10.1539138961">
		<tag k="name" v="Kruttjern" />
		<tag k="natural" v="water" />
		<tag k="ssr:stedsnr" v="4271" />
	</node>
	<node id="-289338" lat="59.8771666649" lon="10.338141661">
		<tag k="name" v="Kjemmelibekken" />
		<tag k="ssr:stedsnr" v="446978" />
		<tag k="waterway" v="stream" />
	</node>
	<node id="-289846" lat="59.9572166685" lon="10.3488138907">
		<tag k="alt_name" v="Tjernslitjern" />
		<tag k="name" v="Tjernslitjernet" />
		<tag k="natural" v="water" />
		<tag k="ssr:stedsnr" v="4058" />
	</node>
	<node id="-290357" lat="59.9115722194" lon="10.1343583348">
		<tag k="name" v="Sjåstadflåren" />
		<tag k="natural" v="water" />
		<tag k="ssr:stedsnr" v="628685" />
	</node>
	<node id="-290356" lat="59.7988999975" lon="10.1952666741">
		<tag k="name" v="Eriksrudbekken" />
		<tag k="ssr:stedsnr" v="628681" />
		<tag k="waterway" v="stream" />
	</node>
	<node id="-289843" lat="59.8553749968" lon="10.1306916633">
		<tag k="name" v="Fløyten" />
		<tag k="place" v="locality" />
		<tag k="ssr:stedsnr" v="3233" />
	</node>
	<node id="-289459" lat="59.9447027777" lon="10.2326055515">
		<tag k="name" v="Furudambekken" />
		<tag k="ssr:stedsnr" v="507627" />
		<tag k="waterway" v="stream" />
	</node>
	<node id="-289327" lat="59.9627638908" lon="10.2846472175">
		<tag k="name" v="Storrvika" />
		<tag k="natural" v="bay" />
		<tag k="ssr:stedsnr" v="446599" />
	</node>
	<node id="-290350" lat="59.9472916707" lon="10.2149055604">
		<tag k="loc_name" v="Flagerputten" />
		<tag k="name" v="Flaggerputten" />
		<tag k="natural" v="water" />
		<tag k="ssr:stedsnr" v="628610" />
		<tag k="water" v="pond" />
	</node>
	<node id="-289321" lat="59.8527472243" lon="10.1250666684">
		<tag k="name" v="Svarttjernsbekken" />
		<tag k="ssr:stedsnr" v="446462" />
		<tag k="waterway" v="stream" />
	</node>
	<node id="-289320" lat="59.816586107" lon="10.0991916645">
		<tag k="name" v="Lorttjern" />
		<tag k="natural" v="water" />
		<tag k="ssr:stedsnr" v="446456" />
	</node>
	<node id="-290342" lat="59.8860138869" lon="10.2494194459">
		<tag k="name" v="Skuggebekken" />
		<tag k="ssr:stedsnr" v="628152" />
		<tag k="waterway" v="stream" />
	</node>
	<node id="-289317" lat="59.8930060208" lon="10.1652918921">
		<tag k="name" v="Nedre Høymyrtjern" />
		<tag k="natural" v="water" />
		<tag k="old_name" v="Nedre Høgmyrtjern" />
		<tag k="ssr:stedsnr" v="446282" />
	</node>
	<node id="-290340" lat="59.8851277823" lon="10.1777249976">
		<tag k="alt_name" v="Kjakatjernet" />
		<tag k="name" v="Kjakatjern" />
		<tag k="natural" v="water" />
		<tag k="ssr:stedsnr" v="628232" />
	</node>
	<node id="-289315" lat="59.8776055536" lon="10.1670277839">
		<tag k="name" v="Laukedalsbekken" />
		<tag k="ssr:stedsnr" v="446277" />
		<tag k="waterway" v="stream" />
	</node>
	<node id="-290020" lat="59.9532611081" lon="10.2035055573">
		<tag k="name" v="Ormetjern" />
		<tag k="natural" v="water" />
		<tag k="ssr:stedsnr" v="186433" />
	</node>
	<node id="-289455" lat="59.8271583356" lon="10.1188305547">
		<tag k="name" v="Eggefløyten" />
		<tag k="ssr:stedsnr" v="507430" />
		<tag k="waterway" v="river" />
	</node>
	<node id="-289816" lat="59.7922416699" lon="10.2299805561">
		<tag k="name" v="Berfløtbekken" />
		<tag k="ssr:stedsnr" v="872867" />
		<tag k="waterway" v="stream" />
	</node>
	<node id="-289389" lat="59.8031472259" lon="10.1565249976">
		<tag k="name" v="Eikdammen" />
		<tag k="natural" v="water" />
		<tag k="ssr:stedsnr" v="489273" />
	</node>
	<node id="-290322" lat="59.9381861078" lon="10.1303638945">
		<tag k="name" v="Nedre Damtjern" />
		<tag k="natural" v="water" />
		<tag k="ssr:stedsnr" v="610405" />
	</node>
	<node id="-289809" lat="59.9469722261" lon="10.2001666587">
		<tag k="name" v="Skustadsetertjern" />
		<tag k="natural" v="water" />
		<tag k="ssr:stedsnr" v="871662" />
	</node>
	<node id="-289804" lat="59.9267333355" lon="10.2356416592">
		<tag k="name" v="Øvre Øyentjern" />
		<tag k="natural" v="water" />
		<tag k="ssr:stedsnr" v="871517" />
	</node>
	<node id="-289802" lat="59.9122583367" lon="10.1573861185">
		<tag k="name" v="Briskemyrbekken" />
		<tag k="ssr:stedsnr" v="871507" />
		<tag k="waterway" v="stream" />
	</node>
	<node id="-289800" lat="59.836277782" lon="10.1040666658">
		<tag k="name" v="Lelangsbekken" />
		<tag k="ssr:stedsnr" v="871414" />
		<tag k="waterway" v="stream" />
	</node>
	<node id="-289799" lat="59.8922666686" lon="10.2098861029">
		<tag k="name" v="Tomasbekken" />
		<tag k="ssr:stedsnr" v="871160" />
		<tag k="waterway" v="river" />
	</node>
	<node id="-289201" lat="59.9569666667" lon="10.2032333323">
		<tag k="name" v="Sjutjern" />
		<tag k="natural" v="water" />
		<tag k="ssr:stedsnr" v="22919" />
	</node>
	<node id="-290309" lat="59.9338166636" lon="10.1104833355">
		<tag k="name" v="Grukkedøla" />
		<tag k="ssr:stedsnr" v="586159" />
		<tag k="waterway" v="stream" />
	</node>
	<node id="-290307" lat="59.8695972253" lon="10.1176055489">
		<tag k="name" v="Tjurujelshølen" />
		<tag k="place" v="locality" />
		<tag k="ssr:stedsnr" v="568925" />
	</node>
	<node id="-289963" lat="59.8372999977" lon="10.1001055528">
		<tag k="name" v="Lelangen" />
		<tag k="natural" v="water" />
		<tag k="ssr:stedsnr" v="125313" />
		<tag k="water" v="lake" />
>>>>>>> e1d4bc35ff8a6074a6f2e91616a996b547c36f15
	</node>
</osm>
