<?xml version="1.0" encoding="UTF-8"?>
<<<<<<< HEAD
<osm version="0.6" generator="osmapis">
	<node lat="59.737941669367046" lon="10.289849995009336" id="-14159">
		<tag k="name" v="Gullaugodden" />
		<tag k="natural" v="cape" />
		<tag k="ssr:stedsnr" v="161665" />
	</node>
	<node lat="59.74752777979435" lon="10.266122215479943" id="-14163">
=======
<osm generator="osmapis" version="0.6">
	<node id="-289947" lat="59.7485416546" lon="10.2610338755">
		<tag k="name" v="Gilhusbukta" />
		<tag k="natural" v="bay" />
		<tag k="ssr:stedsnr" v="85683" />
	</node>
	<node id="-290009" lat="59.7475277798" lon="10.2661222155">
>>>>>>> e1d4bc35ff8a6074a6f2e91616a996b547c36f15
		<tag k="name" v="Gilhusodden" />
		<tag k="natural" v="cape" />
		<tag k="ssr:stedsnr" v="185330" />
	</node>
<<<<<<< HEAD
	<node lat="59.72517777404986" lon="10.305469447925136" id="-14387">
		<tag k="name" v="Salbutangen" />
		<tag k="natural" v="cape" />
		<tag k="ssr:stedsnr" v="449606" />
	</node>
	<node lat="59.748955551757156" lon="10.282075003799115" id="-14412">
		<tag k="name" v="Linnesstranda" />
		<tag k="natural" v="beach" />
		<tag k="ssr:stedsnr" v="488318" />
	</node>
	<node lat="59.7370261819983" lon="10.298112923050706" id="-14487">
=======
	<node id="-289290" lat="59.7379416694" lon="10.289849995">
		<tag k="name" v="Gullaugodden" />
		<tag k="natural" v="cape" />
		<tag k="ssr:stedsnr" v="161665" />
	</node>
	<node id="-289334" lat="59.7238145866" lon="10.3083994284">
		<tag k="name" v="Lahellbukta" />
		<tag k="natural" v="bay" />
		<tag k="ssr:stedsnr" v="446864" />
	</node>
	<node id="-290417" lat="59.666666669" lon="10.3916666621">
		<tag k="bay" v="fjord" />
		<tag k="name" v="Drammensfjorden" />
		<tag k="natural" v="bay" />
		<tag k="ssr:stedsnr" v="792266" />
	</node>
	<node id="-289679" lat="59.737026182" lon="10.2981129231">
>>>>>>> e1d4bc35ff8a6074a6f2e91616a996b547c36f15
		<tag k="name" v="Engersandbukta" />
		<tag k="natural" v="bay" />
		<tag k="ssr:stedsnr" v="692706" />
	</node>
<<<<<<< HEAD
	<node lat="59.7475499974213" lon="10.251494441893755" id="-14608">
=======
	<node id="-290414" lat="59.7475499974" lon="10.2514944419">
>>>>>>> e1d4bc35ff8a6074a6f2e91616a996b547c36f15
		<tag k="name" v="Lierstranda" />
		<tag k="natural" v="beach" />
		<tag k="ssr:stedsnr" v="791328" />
	</node>
<<<<<<< HEAD
	<node lat="59.74854165461574" lon="10.26103387546948" id="-14879">
		<tag k="name" v="Gilhusbukta" />
		<tag k="natural" v="bay" />
		<tag k="ssr:stedsnr" v="85683" />
	</node>
	<node lat="59.72381458663259" lon="10.308399428389045" id="-15079">
		<tag k="name" v="Lahellbukta" />
		<tag k="natural" v="bay" />
		<tag k="ssr:stedsnr" v="446864" />
=======
	<node id="-290538" lat="59.7462861084" lon="10.2796000028">
		<tag k="name" v="Gullaugbukta" />
		<tag k="natural" v="bay" />
		<tag k="ssr:stedsnr" v="874732" />
	</node>
	<node id="-289481" lat="59.725177774" lon="10.3054694479">
		<tag k="name" v="Salbutangen" />
		<tag k="natural" v="cape" />
		<tag k="ssr:stedsnr" v="449606" />
	</node>
	<node id="-289380" lat="59.7489555518" lon="10.2820750038">
		<tag k="name" v="Linnesstranda" />
		<tag k="natural" v="beach" />
		<tag k="place" v="locality" />
		<tag k="ssr:stedsnr" v="488318" />
>>>>>>> e1d4bc35ff8a6074a6f2e91616a996b547c36f15
	</node>
</osm>
