<?xml version="1.0" encoding="UTF-8"?>
<<<<<<< HEAD
<osm version="0.6" generator="osmapis">
	<node lat="59.85543889060977" lon="10.19124166818825" id="-14574">
		<tag k="fixme" v="consider boundary=protected_area and relevant protect_class if not nature reserve" />
		<tag k="leisure" v="nature_reserve" />
		<tag k="name" v="Glitra naturreservat" />
		<tag k="ssr:stedsnr" v="727479" />
	</node>
	<node lat="59.910999950360214" lon="10.303357588484438" id="-14761">
=======
<osm generator="osmapis" version="0.6">
	<node id="-290544" lat="59.8852842813" lon="10.247800233">
		<tag k="fixme" v="consider boundary=protected_area and relevant protect_class if not nature reserve" />
		<tag k="leisure" v="nature_reserve" />
		<tag k="name" v="Tronstad naturreservat" />
		<tag k="ssr:stedsnr" v="989137" />
	</node>
	<node id="-289609" lat="59.8554388906" lon="10.1912416682">
>>>>>>> e1d4bc35ff8a6074a6f2e91616a996b547c36f15
		<tag k="fixme" v="consider boundary=protected_area and relevant protect_class if not nature reserve" />
		<tag k="leisure" v="nature_reserve" />
		<tag k="name" v="Storøya biotopvernområde" />
		<tag k="ssr:stedsnr" v="985418" />
	</node>
<<<<<<< HEAD
	<node lat="59.88528428132287" lon="10.247800233012965" id="-14762">
=======
	<node id="-289836" lat="59.9109999504" lon="10.3033575885">
>>>>>>> e1d4bc35ff8a6074a6f2e91616a996b547c36f15
		<tag k="fixme" v="consider boundary=protected_area and relevant protect_class if not nature reserve" />
		<tag k="leisure" v="nature_reserve" />
		<tag k="name" v="Storøya biotopvernområde" />
		<tag k="ssr:stedsnr" v="985418" />
	</node>
<<<<<<< HEAD
	<node lat="59.937560426140315" lon="10.120999429638925" id="-14763">
=======
	<node id="-290545" lat="59.9375604261" lon="10.1209994296">
>>>>>>> e1d4bc35ff8a6074a6f2e91616a996b547c36f15
		<tag k="fixme" v="consider boundary=protected_area and relevant protect_class if not nature reserve" />
		<tag k="leisure" v="nature_reserve" />
		<tag k="name" v="Finnemarka naturreservat" />
		<tag k="ssr:stedsnr" v="989147" />
	</node>
</osm>
