<?xml version="1.0" encoding="UTF-8"?>
<osm version="0.6" generator="osmapis">
	<node lat="59.93582777734767" lon="10.295661109854532" id="-19181">
		<tag k="name" v="Øvre Eik" />
		<tag k="place" v="farm" />
		<tag k="ssr:stedsnr" v="4420" />
	</node>
	<node lat="59.78214999988442" lon="10.25929167355823" id="-19183">
		<tag k="alt_name" v="Ila" />
		<tag k="loc_name" v="Ilabråtan" />
		<tag k="name" v="Ilabråten" />
		<tag k="place" v="farm" />
		<tag k="ssr:stedsnr" v="20749" />
	</node>
	<node lat="59.76719999723851" lon="10.226199997662118" id="-19184">
		<tag k="name" v="Nordre Lian" />
		<tag k="place" v="farm" />
		<tag k="ssr:stedsnr" v="20750" />
	</node>
	<node lat="59.894344445992346" lon="10.249888886061417" id="-19187">
		<tag k="name" v="Østre Solberg" />
		<tag k="place" v="farm" />
		<tag k="ssr:stedsnr" v="21205" />
	</node>
	<node lat="59.81038889213548" lon="10.319130557213233" id="-19188">
		<tag k="name" v="Myra" />
		<tag k="place" v="farm" />
		<tag k="ssr:stedsnr" v="21105" />
	</node>
	<node lat="59.822519441320004" lon="10.235397226449566" id="-19189">
		<tag k="name" v="Linnesvollen" />
		<tag k="place" v="locality" />
		<tag k="ssr:stedsnr" v="21139" />
	</node>
	<node lat="59.93249999999299" lon="10.277658339914366" id="-19191">
		<tag k="name" v="Nedre Skustad" />
		<tag k="place" v="farm" />
		<tag k="ssr:stedsnr" v="21538" />
	</node>
	<node lat="59.948605552246875" lon="10.29159722475083" id="-19192">
		<tag k="name" v="Solvang" />
		<tag k="place" v="isolated_dwelling" />
		<tag k="ssr:stedsnr" v="21542" />
	</node>
	<node lat="59.812230559233605" lon="10.202572217796758" id="-19193">
		<tag k="name" v="Askgrenda" />
		<tag k="place" v="hamlet" />
		<tag k="ssr:stedsnr" v="21408" />
	</node>
	<node lat="59.84834444605363" lon="10.249791667627925" id="-19194">
		<tag k="alt_name" v="Nedre Opsal;Opsal" />
		<tag k="name" v="Nedre Oppsal" />
		<tag k="place" v="farm" />
		<tag k="ssr:stedsnr" v="21409" />
	</node>
	<node lat="59.86222499703827" lon="10.280569446123499" id="-19199">
		<tag k="name" v="Bjørnsrud" />
		<tag k="place" v="farm" />
		<tag k="ssr:stedsnr" v="21891" />
	</node>
	<node lat="59.93630000259034" lon="10.2680027807025" id="-19201">
		<tag k="alt_name" v="Midt-Røine;Midtre Røyne" />
		<tag k="name" v="Midt-Røyne" />
		<tag k="old_name" v="Midtrøine;Midtre Røine" />
		<tag k="place" v="farm" />
		<tag k="ssr:stedsnr" v="38527" />
	</node>
	<node lat="59.76138889101474" lon="10.239100003402907" id="-19202">
		<tag k="amenity" v="school" />
		<tag k="name" v="Høvik skole" />
		<tag k="old_name" v="Stoppen skole" />
		<tag k="ssr:stedsnr" v="240926" />
	</node>
	<node lat="59.75625401838608" lon="10.227088015936873" id="-19203">
		<tag k="fixme" v="consider place=hamlet" />
		<tag k="name" v="Stoppen" />
		<tag k="place" v="farm" />
		<tag k="ssr:stedsnr" v="64061" />
	</node>
	<node lat="59.824852122237644" lon="10.251393960330164" id="-19204">
		<tag k="fixme" v="consider place=hamlet" />
		<tag k="name" v="Funnesdal" />
		<tag k="place" v="farm" />
		<tag k="ssr:stedsnr" v="64201" />
	</node>
	<node lat="59.81806388981605" lon="10.290955560294437" id="-19205">
		<tag k="name" v="Svenskerud" />
		<tag k="place" v="farm" />
		<tag k="ssr:stedsnr" v="64208" />
	</node>
	<node lat="59.96529166781365" lon="10.275752785950328" id="-19206">
		<tag k="name" v="Pålsrud" />
		<tag k="place" v="farm" />
		<tag k="ssr:stedsnr" v="64459" />
	</node>
	<node lat="59.9099176192008" lon="10.29441356697233" id="-19211">
		<tag k="name" v="Røykås" />
		<tag k="place" v="farm" />
		<tag k="ssr:stedsnr" v="65317" />
	</node>
	<node lat="59.93425277945683" lon="10.300277781109301" id="-19212">
		<tag k="alt_name" v="Nordre Drag" />
		<tag k="name" v="Drag" />
		<tag k="place" v="farm" />
		<tag k="ssr:stedsnr" v="65415" />
	</node>
	<node lat="59.76336110850506" lon="10.293124991852428" id="-19213">
		<tag k="name" v="Sørumlia" />
		<tag k="place" v="quarter" />
		<tag k="ssr:stedsnr" v="81191" />
	</node>
	<node lat="59.8047055535283" lon="10.207327770274079" id="-19215">
		<tag k="name" v="Eriksrud" />
		<tag k="place" v="farm" />
		<tag k="ssr:stedsnr" v="81746" />
	</node>
	<node lat="59.82552777945516" lon="10.32453611948465" id="-19217">
		<tag k="name" v="Ovenstad" />
		<tag k="place" v="farm" />
		<tag k="ssr:stedsnr" v="82094" />
	</node>
	<node lat="59.96287500048253" lon="10.21746111724446" id="-19219">
		<tag k="name" v="Maidalshytta" />
		<tag k="place" v="isolated_dwelling" />
		<tag k="ssr:stedsnr" v="82727" />
	</node>
	<node lat="59.74533610956506" lon="10.232552785031988" id="-19221">
		<tag k="leisure" v="pitch" />
		<tag k="name" v="Brakerøya idrettsplass" />
		<tag k="ssr:stedsnr" v="82917" />
	</node>
	<node lat="59.759413889752686" lon="10.288163893532507" id="-19228">
		<tag k="name" v="Tuverud" />
		<tag k="place" v="farm" />
		<tag k="ssr:stedsnr" v="246066" />
	</node>
	<node lat="59.76843611398806" lon="10.251847228627932" id="-19229">
		<tag k="name" v="Linnesvollen" />
		<tag k="place" v="farm" />
		<tag k="ssr:stedsnr" v="246177" />
	</node>
	<node lat="59.85642242529668" lon="10.270113985262455" id="-19231">
		<tag k="fixme" v="consider place=hamlet" />
		<tag k="name" v="Torsrud" />
		<tag k="place" v="farm" />
		<tag k="ssr:stedsnr" v="246255" />
	</node>
	<node lat="59.858161110729036" lon="10.139491663420731" id="-19232">
		<tag k="historic" v="shieling" />
		<tag k="name" v="Veslesetra" />
		<tag k="place" v="isolated_dwelling" />
		<tag k="ssr:stedsnr" v="246259" />
	</node>
	<node lat="59.90639166427505" lon="10.267047213604691" id="-19233">
		<tag k="name" v="Rundsvoll" />
		<tag k="place" v="farm" />
		<tag k="ssr:stedsnr" v="246329" />
	</node>
	<node lat="59.833680551895334" lon="10.223894446030688" id="-19234">
		<tag k="name" v="Utenga" />
		<tag k="place" v="farm" />
		<tag k="ssr:stedsnr" v="247185" />
	</node>
	<node lat="59.82936623108758" lon="10.279091045714901" id="-19235">
		<tag k="fixme" v="consider place=hamlet" />
		<tag k="name" v="Kraft" />
		<tag k="place" v="farm" />
		<tag k="ssr:stedsnr" v="247187" />
	</node>
	<node lat="59.87126944525719" lon="10.283850004077879" id="-19237">
		<tag k="name" v="Østenga" />
		<tag k="place" v="farm" />
		<tag k="ssr:stedsnr" v="247320" />
	</node>
	<node lat="59.883316664346474" lon="10.345161103159086" id="-19238">
		<tag k="name" v="Engerhytta" />
		<tag k="place" v="isolated_dwelling" />
		<tag k="ssr:stedsnr" v="247830" />
	</node>
	<node lat="59.89309444634379" lon="10.229352784395136" id="-19240">
		<tag k="name" v="Nordhagen" />
		<tag k="place" v="farm" />
		<tag k="ssr:stedsnr" v="102730" />
	</node>
	<node lat="59.820218592541146" lon="10.205173435256782" id="-19241">
		<tag k="fixme" v="consider place=hamlet" />
		<tag k="name" v="Torstad" />
		<tag k="place" v="farm" />
		<tag k="ssr:stedsnr" v="124173" />
	</node>
	<node lat="59.80922500373081" lon="10.218058337027113" id="-19243">
		<tag k="name" v="Landfall" />
		<tag k="place" v="farm" />
		<tag k="ssr:stedsnr" v="125252" />
	</node>
	<node lat="59.84226666347471" lon="10.314588885924998" id="-19247">
		<tag k="name" v="Brenna" />
		<tag k="place" v="farm" />
		<tag k="ssr:stedsnr" v="125305" />
	</node>
	<node lat="59.843936109055086" lon="10.147966674766197" id="-19249">
		<tag k="name" v="Hestemyr" />
		<tag k="place" v="farm" />
		<tag k="ssr:stedsnr" v="125311" />
	</node>
	<node lat="59.847136113747794" lon="10.221855554413231" id="-19251">
		<tag k="name" v="Steinberg" />
		<tag k="place" v="farm" />
		<tag k="ssr:stedsnr" v="125329" />
	</node>
	<node lat="59.84551943999385" lon="10.216975008195748" id="-19252">
		<tag k="name" v="Åsen" />
		<tag k="place" v="farm" />
		<tag k="ssr:stedsnr" v="125332" />
	</node>
	<node lat="59.87518611268456" lon="10.24385833858358" id="-19255">
		<tag k="alt_name" v="Broengen" />
		<tag k="name" v="Bruenga" />
		<tag k="place" v="farm" />
		<tag k="ssr:stedsnr" v="125376" />
	</node>
	<node lat="59.78197777526358" lon="10.215983338282655" id="-19256">
		<tag k="name" v="Søndre Eik" />
		<tag k="place" v="farm" />
		<tag k="ssr:stedsnr" v="141693" />
	</node>
	<node lat="59.78061944797482" lon="10.243044451385742" id="-19257">
		<tag k="fixme" v="consider place=suburb, village or hamlet" />
		<tag k="name" v="Heggtoppen" />
		<tag k="old_name" v="Hegg" />
		<tag k="place" v="quarter" />
		<tag k="ssr:stedsnr" v="141697" />
	</node>
	<node lat="59.85074722673932" lon="10.249258331736604" id="-19259">
		<tag k="loc_name" v="Nedre Åmot" />
		<tag k="name" v="Åmot" />
		<tag k="place" v="farm" />
		<tag k="ssr:stedsnr" v="142386" />
	</node>
	<node lat="59.7598027775442" lon="10.237611115984782" id="-19261">
		<tag k="amenity" v="sports_centre" />
		<tag k="name" v="Lierhallen" />
		<tag k="ssr:stedsnr" v="142914" />
	</node>
	<node lat="59.74957429058791" lon="10.230344117033395" id="-19262">
		<tag k="fixme" v="consider place=hamlet" />
		<tag k="name" v="Vestre Nøste" />
		<tag k="place" v="farm" />
		<tag k="ssr:stedsnr" v="142919" />
	</node>
	<node lat="59.77990202010729" lon="10.20452496084962" id="-19268">
		<tag k="fixme" v="consider place=hamlet" />
		<tag k="name" v="Stein" />
		<tag k="place" v="farm" />
		<tag k="ssr:stedsnr" v="163270" />
	</node>
	<node lat="59.86857500088915" lon="10.094811107859892" id="-19272">
		<tag k="name" v="Dammen" />
		<tag k="place" v="isolated_dwelling" />
		<tag k="ssr:stedsnr" v="186276" />
	</node>
	<node lat="59.808492911479476" lon="10.350211874707519" id="-19273">
		<tag k="fixme" v="consider place=hamlet" />
		<tag k="name" v="Ulven" />
		<tag k="place" v="farm" />
		<tag k="ssr:stedsnr" v="187726" />
	</node>
	<node lat="59.80680277517987" lon="10.246480548805245" id="-19274">
		<tag k="alt_name" v="Tranby-Utengen" />
		<tag k="name" v="Tranby-utenga" />
		<tag k="place" v="farm" />
		<tag k="ssr:stedsnr" v="263748" />
	</node>
	<node lat="59.80466944453373" lon="10.261261111559284" id="-19275">
		<tag k="name" v="Båhus" />
		<tag k="place" v="farm" />
		<tag k="ssr:stedsnr" v="263750" />
	</node>
	<node lat="59.7924555530752" lon="10.249336118858245" id="-19276">
		<tag k="name" v="Søndre Haskoll" />
		<tag k="place" v="farm" />
		<tag k="ssr:stedsnr" v="263752" />
	</node>
	<node lat="59.82191389108593" lon="10.276977773181677" id="-19277">
		<tag k="name" v="Vennerød" />
		<tag k="place" v="farm" />
		<tag k="ssr:stedsnr" v="264022" />
	</node>
	<node lat="59.84071388874305" lon="10.237594438262219" id="-19278">
		<tag k="name" v="Årdal" />
		<tag k="place" v="farm" />
		<tag k="ssr:stedsnr" v="264395" />
	</node>
	<node lat="59.8466694403372" lon="10.19473056356395" id="-19280">
		<tag k="name" v="Syversløkka" />
		<tag k="place" v="farm" />
		<tag k="ssr:stedsnr" v="264425" />
	</node>
	<node lat="59.816205557774396" lon="10.296533336326688" id="-19282">
		<tag k="name" v="Lierskogen pukkverk" />
		<tag k="place" v="quarter" />
		<tag k="ssr:stedsnr" v="264044" />
	</node>
	<node lat="59.861452773985675" lon="10.222086113806386" id="-19284">
		<tag k="name" v="Vestby" />
		<tag k="place" v="isolated_dwelling" />
		<tag k="ssr:stedsnr" v="264138" />
	</node>
	<node lat="59.83232500099518" lon="10.210327783185564" id="-19286">
		<tag k="alt_name" v="Øksne" />
		<tag k="name" v="Mellom-Øksne" />
		<tag k="place" v="farm" />
		<tag k="ssr:stedsnr" v="264369" />
	</node>
	<node lat="59.81422777952925" lon="10.1964027858036" id="-19287">
		<tag k="loc_name" v="Engebråtan" />
		<tag k="name" v="Engebråten" />
		<tag k="place" v="farm" />
		<tag k="ssr:stedsnr" v="264377" />
	</node>
	<node lat="59.812855553779734" lon="10.202952770677621" id="-19288">
		<tag k="name" v="Ytre Justad" />
		<tag k="place" v="farm" />
		<tag k="ssr:stedsnr" v="264379" />
	</node>
	<node lat="59.888755553580175" lon="10.233447213560103" id="-19289">
		<tag k="name" v="Runterud" />
		<tag k="place" v="farm" />
		<tag k="ssr:stedsnr" v="264169" />
	</node>
	<node lat="59.760719448388215" lon="10.237455563639765" id="-19290">
		<tag k="amenity" v="school" />
		<tag k="name" v="St. Hallvard videregående skole" />
		<tag k="ssr:stedsnr" v="264814" />
	</node>
	<node lat="59.76296944401544" lon="10.23199445110479" id="-19291">
		<tag k="alt_name" v="Mellom Lian" />
		<tag k="name" v="Mellom-Lian" />
		<tag k="place" v="farm" />
		<tag k="ssr:stedsnr" v="264910" />
	</node>
	<node lat="59.78914166914888" lon="10.269169446044563" id="-19292">
		<tag k="name" v="Nedre Stokke" />
		<tag k="place" v="farm" />
		<tag k="ssr:stedsnr" v="264657" />
	</node>
	<node lat="59.80974375164928" lon="10.312708989349556" id="-19293">
		<tag k="fixme" v="consider place=hamlet" />
		<tag k="name" v="Kjenner" />
		<tag k="place" v="farm" />
		<tag k="ssr:stedsnr" v="264660" />
	</node>
	<node lat="59.75098701330194" lon="10.282582379443399" id="-19297">
		<tag k="amenity" v="school" />
		<tag k="name" v="Gullaug skole" />
		<tag k="ssr:stedsnr" v="264873" />
	</node>
	<node lat="59.87802500157284" lon="10.283036109908986" id="-19298">
		<tag k="name" v="Kopperudstua" />
		<tag k="place" v="locality" />
		<tag k="ssr:stedsnr" v="264982" />
	</node>
	<node lat="59.818752778854865" lon="10.309280548163406" id="-19305">
		<tag k="name" v="Jordet" />
		<tag k="place" v="isolated_dwelling" />
		<tag k="ssr:stedsnr" v="203062" />
	</node>
	<node lat="59.82199722320399" lon="10.340880554682657" id="-19306">
		<tag k="alt_name" v="Øgarden" />
		<tag k="name" v="Øgården" />
		<tag k="place" v="farm" />
		<tag k="ssr:stedsnr" v="203098" />
	</node>
	<node lat="59.86892499572671" lon="10.19568889371599" id="-19308">
		<tag k="name" v="Gifstadhytta" />
		<tag k="place" v="isolated_dwelling" />
		<tag k="ssr:stedsnr" v="203279" />
	</node>
	<node lat="59.821966669936636" lon="10.203088897663488" id="-19309">
		<tag k="name" v="Torstad" />
		<tag k="place" v="farm" />
		<tag k="ssr:stedsnr" v="203402" />
	</node>
	<node lat="59.81027272765361" lon="10.20287405516303" id="-19310">
		<tag k="fixme" v="consider place=hamlet" />
		<tag k="name" v="Nordre Ask" />
		<tag k="place" v="farm" />
		<tag k="ssr:stedsnr" v="203404" />
	</node>
	<node lat="59.81350000278902" lon="10.194416668779393" id="-19311">
		<tag k="name" v="Fjellberg" />
		<tag k="place" v="farm" />
		<tag k="ssr:stedsnr" v="203406" />
	</node>
	<node lat="59.84006110973281" lon="10.25535000580746" id="-19312">
		<tag k="name" v="Nordre Nedre Sørsdal" />
		<tag k="place" v="farm" />
		<tag k="ssr:stedsnr" v="203410" />
	</node>
	<node lat="59.848586109776384" lon="10.216074993076672" id="-19314">
		<tag k="name" v="Østre Lia" />
		<tag k="place" v="farm" />
		<tag k="ssr:stedsnr" v="203398" />
	</node>
	<node lat="59.809805551473374" lon="10.307805560717066" id="-19316">
		<tag k="alt_name" v="Kjenner" />
		<tag k="name" v="Vestre Kjenner" />
		<tag k="place" v="farm" />
		<tag k="ssr:stedsnr" v="203695" />
	</node>
	<node lat="59.75428888942458" lon="10.248866672303933" id="-19317">
		<tag k="alt_name" v="Høvik" />
		<tag k="name" v="Jensvoll" />
		<tag k="place" v="farm" />
		<tag k="ssr:stedsnr" v="203905" />
	</node>
	<node lat="59.859672220421835" lon="10.263194438032416" id="-19318">
		<tag k="name" v="Korsrud" />
		<tag k="place" v="farm" />
		<tag k="ssr:stedsnr" v="203907" />
	</node>
	<node lat="59.88471111090527" lon="10.293924999351304" id="-19319">
		<tag k="name" v="Storbråtan" />
		<tag k="place" v="farm" />
		<tag k="ssr:stedsnr" v="203989" />
	</node>
	<node lat="59.761796704300146" lon="10.218426438203997" id="-19321">
		<tag k="name" v="Flåtan" />
		<tag k="place" v="hamlet" />
		<tag k="ssr:stedsnr" v="203895" />
	</node>
	<node lat="59.94436944009668" lon="10.279691670305844" id="-19323">
		<tag k="name" v="Fuglerud" />
		<tag k="place" v="farm" />
		<tag k="ssr:stedsnr" v="204455" />
	</node>
	<node lat="59.81485200923332" lon="10.30038961138093" id="-19330">
		<tag k="fixme" v="consider place=hamlet" />
		<tag k="name" v="Gjellebekk" />
		<tag k="place" v="farm" />
		<tag k="ssr:stedsnr" v="246226" />
	</node>
	<node lat="59.949341666589795" lon="10.236788885167858" id="-19333">
		<tag k="historic" v="shieling" />
		<tag k="name" v="Breviksetra" />
		<tag k="place" v="isolated_dwelling" />
		<tag k="ssr:stedsnr" v="246384" />
	</node>
	<node lat="59.9050277808171" lon="10.26379999364225" id="-19334">
		<tag k="name" v="Kirketeigen" />
		<tag k="place" v="isolated_dwelling" />
		<tag k="ssr:stedsnr" v="246527" />
	</node>
	<node lat="59.79399261739512" lon="10.21296568185294" id="-19335">
		<tag k="fixme" v="consider place=hamlet" />
		<tag k="name" v="Nordby" />
		<tag k="place" v="farm" />
		<tag k="ssr:stedsnr" v="247122" />
	</node>
	<node lat="59.79330537959094" lon="10.219663817243537" id="-19336">
		<tag k="fixme" v="consider place=hamlet" />
		<tag k="name" v="Helgerud" />
		<tag k="place" v="farm" />
		<tag k="ssr:stedsnr" v="247125" />
	</node>
	<node lat="59.83798888493266" lon="10.321758328818333" id="-19337">
		<tag k="name" v="Bøhagan" />
		<tag k="place" v="farm" />
		<tag k="ssr:stedsnr" v="247262" />
	</node>
	<node lat="59.84403889156421" lon="10.209499995127304" id="-19338">
		<tag k="name" v="Hansebråtan" />
		<tag k="place" v="farm" />
		<tag k="ssr:stedsnr" v="247271" />
	</node>
	<node lat="59.842705556283825" lon="10.215661113021888" id="-19339">
		<tag k="name" v="Skrovle" />
		<tag k="place" v="isolated_dwelling" />
		<tag k="ssr:stedsnr" v="247275" />
	</node>
	<node lat="59.85229722417966" lon="10.301180546997287" id="-19340">
		<tag k="alt_name" v="Opsalsetra" />
		<tag k="historic" v="shieling" />
		<tag k="name" v="Oppsalsetra" />
		<tag k="place" v="isolated_dwelling" />
		<tag k="ssr:stedsnr" v="247282" />
	</node>
	<node lat="59.85201111081933" lon="10.256575005948042" id="-19341">
		<tag k="name" v="Tamburhaugen" />
		<tag k="place" v="farm" />
		<tag k="ssr:stedsnr" v="247285" />
	</node>
	<node lat="59.852393831935146" lon="10.26997682344878" id="-19344">
		<tag k="alt_name" v="Øvre Oppsal" />
		<tag k="name" v="Sørli" />
		<tag k="place" v="locality" />
		<tag k="ssr:stedsnr" v="264099" />
	</node>
	<node lat="59.85165555254173" lon="10.266686112693062" id="-19345">
		<tag k="name" v="Libråtan" />
		<tag k="old_name" v="Nedre Oppsal;Nedre Opsal" />
		<tag k="place" v="farm" />
		<tag k="ssr:stedsnr" v="264101" />
	</node>
	<node lat="59.82736111265349" lon="10.12975277743388" id="-19347">
		<tag k="historic" v="shieling" />
		<tag k="name" v="Vallevollen" />
		<tag k="place" v="isolated_dwelling" />
		<tag k="ssr:stedsnr" v="264451" />
	</node>
	<node lat="59.80055555520769" lon="10.288858326235083" id="-19353">
		<tag k="name" v="Leirdalen" />
		<tag k="place" v="isolated_dwelling" />
		<tag k="ssr:stedsnr" v="264653" />
	</node>
	<node lat="59.75642222057105" lon="10.245469446791875" id="-19357">
		<tag k="amenity" v="school" />
		<tag k="name" v="Lier videregående skole" />
		<tag k="ssr:stedsnr" v="264903" />
	</node>
	<node lat="59.80170000404777" lon="10.172349994152398" id="-19359">
		<tag k="name" v="Fjellstup" />
		<tag k="place" v="isolated_dwelling" />
		<tag k="ssr:stedsnr" v="265096" />
	</node>
	<node lat="59.832941664213685" lon="10.23053888917768" id="-19361">
		<tag k="name" v="Nordalholmen" />
		<tag k="place" v="farm" />
		<tag k="ssr:stedsnr" v="265934" />
	</node>
	<node lat="59.723997223838666" lon="10.311541670812572" id="-19363">
		<tag k="name" v="Søndre Lahell" />
		<tag k="place" v="farm" />
		<tag k="ssr:stedsnr" v="464734" />
	</node>
	<node lat="59.76678562628746" lon="10.254193199110894" id="-19364">
		<tag k="fixme" v="consider place=hamlet" />
		<tag k="name" v="Åby" />
		<tag k="place" v="farm" />
		<tag k="ssr:stedsnr" v="307193" />
	</node>
	<node lat="59.772232313982975" lon="10.278443640205234" id="-19365">
		<tag k="fixme" v="consider place=hamlet" />
		<tag k="name" v="Viker" />
		<tag k="place" v="farm" />
		<tag k="ssr:stedsnr" v="307198" />
	</node>
	<node lat="59.76624444892084" lon="10.269122216489407" id="-19366">
		<tag k="name" v="Børreshaugen" />
		<tag k="place" v="farm" />
		<tag k="ssr:stedsnr" v="307200" />
	</node>
	<node lat="59.86886719329574" lon="10.233542953406031" id="-19367">
		<tag k="fixme" v="consider place=hamlet" />
		<tag k="name" v="Brurberg" />
		<tag k="place" v="farm" />
		<tag k="ssr:stedsnr" v="307303" />
	</node>
	<node lat="59.83398389052242" lon="10.144071147991987" id="-19368">
		<tag k="name" v="Myra" />
		<tag k="place" v="locality" />
		<tag k="ssr:stedsnr" v="307314" />
	</node>
	<node lat="59.85147499642933" lon="10.23950834158787" id="-19370">
		<tag k="name" v="Helgerud" />
		<tag k="place" v="farm" />
		<tag k="ssr:stedsnr" v="307328" />
	</node>
	<node lat="59.90736666547118" lon="10.292802784529716" id="-19371">
		<tag k="alt_name" v="Sanden" />
		<tag k="name" v="Sand" />
		<tag k="place" v="farm" />
		<tag k="ssr:stedsnr" v="307333" />
	</node>
	<node lat="59.77210228024745" lon="10.202328138221763" id="-19372">
		<tag k="fixme" v="consider place=hamlet" />
		<tag k="name" v="Tormodsrud" />
		<tag k="place" v="farm" />
		<tag k="ssr:stedsnr" v="307202" />
	</node>
	<node lat="59.828227780780765" lon="10.260258341582423" id="-19382">
		<tag k="fixme" v="multiple name tags, choose one and add the other to alt_name" />
		<tag k="name" v="Nedre Hennum;Klinkenberghagen" />
		<tag k="old_name" v="Rødenga" />
		<tag k="place" v="farm" />
		<tag k="ssr:stedsnr" v="325114" />
	</node>
	<node lat="59.842572221952764" lon="10.215677773332924" id="-19384">
		<tag k="name" v="Bakke" />
		<tag k="place" v="farm" />
		<tag k="ssr:stedsnr" v="325123" />
	</node>
	<node lat="59.8627361094018" lon="10.223888887677317" id="-19385">
		<tag k="name" v="Østenga" />
		<tag k="place" v="isolated_dwelling" />
		<tag k="ssr:stedsnr" v="325126" />
	</node>
	<node lat="59.89383888485052" lon="10.23898054898699" id="-19386">
		<tag k="name" v="Trolldalen" />
		<tag k="place" v="quarter" />
		<tag k="ssr:stedsnr" v="325151" />
	</node>
	<node lat="59.95037778217002" lon="10.290588889397608" id="-19387">
		<tag k="name" v="Saga" />
		<tag k="place" v="isolated_dwelling" />
		<tag k="ssr:stedsnr" v="325507" />
	</node>
	<node lat="59.80468888573305" lon="10.203494439917565" id="-19390">
		<tag k="name" v="Eriksrud" />
		<tag k="place" v="farm" />
		<tag k="ssr:stedsnr" v="325681" />
	</node>
	<node lat="59.86963889265498" lon="10.229352770741004" id="-19393">
		<tag k="name" v="Askelund" />
		<tag k="place" v="isolated_dwelling" />
		<tag k="ssr:stedsnr" v="325781" />
	</node>
	<node lat="59.74881110944794" lon="10.315408329858304" id="-19394">
		<tag k="loc_name" v="Steinberg" />
		<tag k="name" v="Stenberg" />
		<tag k="place" v="farm" />
		<tag k="ssr:stedsnr" v="325836" />
	</node>
	<node lat="59.855311114594485" lon="10.273800002998742" id="-19395">
		<tag k="alt_name" v="Nordhagen" />
		<tag k="name" v="Nordhagan" />
		<tag k="place" v="farm" />
		<tag k="ssr:stedsnr" v="325875" />
	</node>
	<node lat="59.86809348088812" lon="10.228130963245269" id="-19396">
		<tag k="name" v="Nedre Svere" />
		<tag k="place" v="farm" />
		<tag k="ssr:stedsnr" v="344717" />
	</node>
	<node lat="59.75274999890864" lon="10.266927781188324" id="-19397">
		<tag k="name" v="Gilhus" />
		<tag k="place" v="farm" />
		<tag k="ssr:stedsnr" v="358653" />
	</node>
	<node lat="59.81599489075781" lon="10.2507330863143" id="-19398">
		<tag k="fixme" v="consider place=hamlet" />
		<tag k="name" v="Lyngås" />
		<tag k="place" v="farm" />
		<tag k="ssr:stedsnr" v="367176" />
	</node>
	<node lat="59.81005555721927" lon="10.318877770089266" id="-19399">
		<tag k="name" v="Myra" />
		<tag k="place" v="farm" />
		<tag k="ssr:stedsnr" v="367180" />
	</node>
	<node lat="59.83552222427272" lon="10.163838882069228" id="-19401">
		<tag k="name" v="Lamyr" />
		<tag k="place" v="farm" />
		<tag k="ssr:stedsnr" v="368210" />
	</node>
	<node lat="59.805005555030625" lon="10.254716674807785" id="-19402">
		<tag k="name" v="Haverstad" />
		<tag k="place" v="farm" />
		<tag k="ssr:stedsnr" v="368270" />
	</node>
	<node lat="59.85662777642799" lon="10.227708325072031" id="-19404">
		<tag k="name" v="Nærstad" />
		<tag k="place" v="farm" />
		<tag k="ssr:stedsnr" v="368288" />
	</node>
	<node lat="59.78616254988574" lon="10.199096586783217" id="-19405">
		<tag k="fixme" v="consider place=hamlet" />
		<tag k="name" v="Undersrud" />
		<tag k="place" v="farm" />
		<tag k="ssr:stedsnr" v="368172" />
	</node>
	<node lat="59.77586388686515" lon="10.212083336745666" id="-19406">
		<tag k="name" v="Bjørndalen" />
		<tag k="place" v="farm" />
		<tag k="ssr:stedsnr" v="368190" />
	</node>
	<node lat="59.842011109841025" lon="10.193580548408008" id="-19408">
		<tag k="fixme" v="multiple name tags, choose one and add the other to alt_name" />
		<tag k="name" v="Siljuseter;Stensrud" />
		<tag k="place" v="farm" />
		<tag k="ssr:stedsnr" v="368309" />
	</node>
	<node lat="59.84269444764331" lon="10.133324991431454" id="-19409">
		<tag k="name" v="Kasta" />
		<tag k="place" v="isolated_dwelling" />
		<tag k="ssr:stedsnr" v="368315" />
	</node>
	<node lat="59.843629550081985" lon="10.10692405430756" id="-19410">
		<tag k="alt_name" v="Lelangen" />
		<tag k="fixme" v="consider tourism=alpine_hut or tourism=chalet" />
		<tag k="name" v="Lelangsplassen" />
		<tag k="ssr:stedsnr" v="368317" />
		<tag k="tourism" v="wilderness_hut" />
	</node>
	<node lat="59.87698333203516" lon="10.257047220217158" id="-19411">
		<tag k="name" v="Nylendet" />
		<tag k="place" v="farm" />
		<tag k="ssr:stedsnr" v="368377" />
	</node>
	<node lat="59.83384722174298" lon="10.320488887294761" id="-19413">
		<tag k="building" v="industrial" />
		<tag k="name" v="Ekebergsaga" />
		<tag k="ssr:stedsnr" v="385106" />
	</node>
	<node lat="59.82171389323929" lon="10.263449994510939" id="-19417">
		<tag k="name" v="Vestre Hennum" />
		<tag k="place" v="farm" />
		<tag k="ssr:stedsnr" v="385064" />
	</node>
	<node lat="59.82398333744272" lon="10.257697217722697" id="-19418">
		<tag k="name" v="Dalenga" />
		<tag k="place" v="farm" />
		<tag k="ssr:stedsnr" v="385145" />
	</node>
	<node lat="59.856877776616145" lon="10.208719444821403" id="-19419">
		<tag k="name" v="Kjåkadalen" />
		<tag k="place" v="farm" />
		<tag k="ssr:stedsnr" v="385152" />
	</node>
	<node lat="59.846274975873975" lon="10.229258557791281" id="-19420">
		<tag k="fixme" v="consider place=hamlet" />
		<tag k="name" v="Bakkemeren" />
		<tag k="place" v="farm" />
		<tag k="ssr:stedsnr" v="385399" />
	</node>
	<node lat="59.934525003274054" lon="10.261052784887912" id="-19421">
		<tag k="name" v="Åsegård" />
		<tag k="place" v="farm" />
		<tag k="ssr:stedsnr" v="385505" />
	</node>
	<node lat="59.86143333602659" lon="10.252961104278711" id="-19422">
		<tag k="name" v="Kulberg" />
		<tag k="place" v="farm" />
		<tag k="ssr:stedsnr" v="385248" />
	</node>
	<node lat="59.86419167030094" lon="10.243766668063964" id="-19423">
		<tag k="name" v="Kulberg" />
		<tag k="place" v="farm" />
		<tag k="ssr:stedsnr" v="385250" />
	</node>
	<node lat="59.84264722179387" lon="10.220194439178014" id="-19424">
		<tag k="name" v="Vestre Meren" />
		<tag k="old_name" v="Bygningen" />
		<tag k="place" v="farm" />
		<tag k="ssr:stedsnr" v="385402" />
	</node>
	<node lat="59.79556666906378" lon="10.204022223793665" id="-19427">
		<tag k="name" v="Åsen" />
		<tag k="place" v="farm" />
		<tag k="ssr:stedsnr" v="385719" />
	</node>
	<node lat="59.86369721873827" lon="10.216250003763394" id="-19431">
		<tag k="loc_name" v="Gifstadbråtan" />
		<tag k="name" v="Gifstadbråten" />
		<tag k="place" v="isolated_dwelling" />
		<tag k="ssr:stedsnr" v="385818" />
	</node>
	<node lat="59.85820555484982" lon="10.274866672710901" id="-19434">
		<tag k="name" v="Torsrud" />
		<tag k="place" v="farm" />
		<tag k="ssr:stedsnr" v="385894" />
	</node>
	<node lat="59.756811114309066" lon="10.272438886608148" id="-19438">
		<tag k="name" v="Huseby" />
		<tag k="place" v="isolated_dwelling" />
		<tag k="ssr:stedsnr" v="404282" />
	</node>
	<node lat="59.73090277758498" lon="10.303255549600873" id="-19439">
		<tag k="name" v="Engersand havn" />
		<tag k="place" v="neighbourhood" />
		<tag k="ssr:stedsnr" v="404591" />
	</node>
	<node lat="59.79343725649198" lon="10.248889977772556" id="-19443">
		<tag k="alt_name" v="Nordre Haskoll" />
		<tag k="name" v="Haskoll" />
		<tag k="place" v="hamlet" />
		<tag k="ssr:stedsnr" v="489136" />
	</node>
	<node lat="59.788347915508965" lon="10.251070555835675" id="-19444">
		<tag k="fixme" v="consider place=hamlet" />
		<tag k="name" v="Ila" />
		<tag k="place" v="farm" />
		<tag k="ssr:stedsnr" v="489158" />
	</node>
	<node lat="59.78743611161544" lon="10.198472224039852" id="-19445">
		<tag k="name" v="Grinda" />
		<tag k="place" v="farm" />
		<tag k="ssr:stedsnr" v="489163" />
	</node>
	<node lat="59.78108254925687" lon="10.247120172244166" id="-19446">
		<tag k="name" v="Hegg" />
		<tag k="place" v="locality" />
		<tag k="ssr:stedsnr" v="489177" />
	</node>
	<node lat="59.77651944292423" lon="10.180936118649706" id="-19447">
		<tag k="name" v="Hvalsvollen" />
		<tag k="place" v="isolated_dwelling" />
		<tag k="ssr:stedsnr" v="489181" />
	</node>
	<node lat="59.78260452400261" lon="10.217421304360059" id="-19448">
		<tag k="alt_name" v="Nordre Eik" />
		<tag k="name" v="Eik" />
		<tag k="place" v="hamlet" />
		<tag k="ssr:stedsnr" v="489182" />
	</node>
	<node lat="59.84265445388999" lon="10.229534361570103" id="-19451">
		<tag k="alt_name" v="Nordre Meren" />
		<tag k="name" v="Meren" />
		<tag k="place" v="hamlet" />
		<tag k="ssr:stedsnr" v="489317" />
	</node>
	<node lat="59.841250004385465" lon="10.164636116453813" id="-19452">
		<tag k="name" v="Kvistås" />
		<tag k="place" v="farm" />
		<tag k="ssr:stedsnr" v="489319" />
	</node>
	<node lat="59.75184722099127" lon="10.252511112123742" id="-19453">
		<tag k="name" v="Høvik" />
		<tag k="place" v="quarter" />
		<tag k="ssr:stedsnr" v="422307" />
	</node>
	<node lat="59.803418616892216" lon="10.256205844821503" id="-19455">
		<tag k="alt_name" v="Overn" />
		<tag k="fixme" v="consider place=hamlet" />
		<tag k="name" v="Overen" />
		<tag k="place" v="farm" />
		<tag k="ssr:stedsnr" v="489278" />
	</node>
	<node lat="59.853190206657146" lon="10.223356586531944" id="-19457">
		<tag k="fixme" v="multiple name tags, choose one and add the other to alt_name; consider place=hamlet" />
		<tag k="name" v="Rød;Øvre Rød" />
		<tag k="place" v="farm" />
		<tag k="ssr:stedsnr" v="489326" />
	</node>
	<node lat="59.87221666920995" lon="10.244311117632478" id="-19458">
		<tag k="name" v="Rønningen" />
		<tag k="place" v="farm" />
		<tag k="ssr:stedsnr" v="489367" />
	</node>
	<node lat="59.759233332724854" lon="10.261336107683997" id="-19460">
		<tag k="name" v="Bærø" />
		<tag k="place" v="farm" />
		<tag k="ssr:stedsnr" v="428070" />
	</node>
	<node lat="59.811061108941544" lon="10.31541666472244" id="-19461">
		<tag k="name" v="Haugen" />
		<tag k="place" v="farm" />
		<tag k="ssr:stedsnr" v="428204" />
	</node>
	<node lat="59.90484166894756" lon="10.324133327408866" id="-19462">
		<tag k="name" v="Kvisla" />
		<tag k="place" v="isolated_dwelling" />
		<tag k="ssr:stedsnr" v="428310" />
	</node>
	<node lat="59.80098888610435" lon="10.231008337242738" id="-19464">
		<tag k="alt_name" v="Nordre Renskaug" />
		<tag k="name" v="Nordre Renskog" />
		<tag k="place" v="farm" />
		<tag k="ssr:stedsnr" v="429124" />
	</node>
	<node lat="59.8350250036001" lon="10.150669441805391" id="-19467">
		<tag k="alt_name" v="Avdal" />
		<tag k="name" v="Avdalen" />
		<tag k="place" v="farm" />
		<tag k="ssr:stedsnr" v="429255" />
	</node>
	<node lat="59.859730554685854" lon="10.140866662761495" id="-19471">
		<tag k="name" v="Vesleløkka" />
		<tag k="old_name" v="Vesleløkken" />
		<tag k="place" v="farm" />
		<tag k="ssr:stedsnr" v="446007" />
	</node>
	<node lat="59.834150000996736" lon="10.30293334066225" id="-19472">
		<tag k="name" v="Rotuløkkene" />
		<tag k="place" v="locality" />
		<tag k="ssr:stedsnr" v="446123" />
	</node>
	<node lat="59.81207777920252" lon="10.328763890084472" id="-19474">
		<tag k="name" v="Nordli" />
		<tag k="place" v="isolated_dwelling" />
		<tag k="ssr:stedsnr" v="446084" />
	</node>
	<node lat="59.86944444540061" lon="10.254647223542015" id="-19475">
		<tag k="name" v="Granli" />
		<tag k="place" v="isolated_dwelling" />
		<tag k="ssr:stedsnr" v="446274" />
	</node>
	<node lat="59.85089999883597" lon="10.22474165914532" id="-19479">
		<tag k="name" v="Sole" />
		<tag k="place" v="farm" />
		<tag k="ssr:stedsnr" v="446399" />
	</node>
	<node lat="59.752661111098476" lon="10.242997224346404" id="-19485">
		<tag k="name" v="Høvik" />
		<tag k="place" v="farm" />
		<tag k="ssr:stedsnr" v="446908" />
	</node>
	<node lat="59.7987654807289" lon="10.206577866455097" id="-19494">
		<tag k="fixme" v="consider place=hamlet" />
		<tag k="name" v="Berfløtt" />
		<tag k="place" v="farm" />
		<tag k="ssr:stedsnr" v="671132" />
	</node>
	<node lat="59.82772777790621" lon="10.253169444037102" id="-19496">
		<tag k="alt_name" v="Ånnerud" />
		<tag k="name" v="Ånerud" />
		<tag k="place" v="farm" />
		<tag k="ssr:stedsnr" v="671197" />
	</node>
	<node lat="59.8688083295491" lon="10.218280562244537" id="-19498">
		<tag k="alt_name" v="Svarthavna" />
		<tag k="name" v="Svarthamna" />
		<tag k="place" v="isolated_dwelling" />
		<tag k="ssr:stedsnr" v="671277" />
	</node>
	<node lat="59.8402000022724" lon="10.30790832884776" id="-19501">
		<tag k="name" v="Gulliksrud" />
		<tag k="place" v="farm" />
		<tag k="ssr:stedsnr" v="671290" />
	</node>
	<node lat="59.80175891081765" lon="10.26697781793864" id="-19504">
		<tag k="fixme" v="consider place=hamlet" />
		<tag k="name" v="Skjeggerud" />
		<tag k="place" v="farm" />
		<tag k="ssr:stedsnr" v="671248" />
	</node>
	<node lat="59.938363891559405" lon="10.283233333500583" id="-19506">
		<tag k="name" v="Myrbråtan" />
		<tag k="place" v="farm" />
		<tag k="ssr:stedsnr" v="671375" />
	</node>
	<node lat="59.90325000201038" lon="10.257588885873384" id="-19508">
		<tag k="name" v="Flittig" />
		<tag k="place" v="isolated_dwelling" />
		<tag k="ssr:stedsnr" v="671328" />
	</node>
	<node lat="59.906561115319526" lon="10.272966658007595" id="-19509">
		<tag k="alt_name" v="Stendike" />
		<tag k="name" v="Åsli" />
		<tag k="place" v="farm" />
		<tag k="ssr:stedsnr" v="671331" />
	</node>
	<node lat="59.93986388783197" lon="10.283875002293117" id="-19510">
		<tag k="name" v="Skjeggerud" />
		<tag k="place" v="isolated_dwelling" />
		<tag k="ssr:stedsnr" v="671378" />
	</node>
	<node lat="59.89783055735096" lon="10.30645832852243" id="-19513">
		<tag k="name" v="Skjæret" />
		<tag k="place" v="farm" />
		<tag k="ssr:stedsnr" v="672284" />
	</node>
	<node lat="59.88962777728042" lon="10.3065083384264" id="-19515">
		<tag k="name" v="Bakkerud" />
		<tag k="place" v="farm" />
		<tag k="ssr:stedsnr" v="672331" />
	</node>
	<node lat="59.82355555537162" lon="10.266724999131974" id="-19519">
		<tag k="name" v="Hennum" />
		<tag k="place" v="farm" />
		<tag k="ssr:stedsnr" v="464671" />
	</node>
	<node lat="59.75323907460101" lon="10.266738061026244" id="-19521">
		<tag k="fixme" v="consider place=hamlet" />
		<tag k="name" v="Gilhus" />
		<tag k="place" v="farm" />
		<tag k="ssr:stedsnr" v="489109" />
	</node>
	<node lat="59.76639241377208" lon="10.288771905260646" id="-19524">
		<tag k="name" v="Sørum" />
		<tag k="place" v="hamlet" />
		<tag k="ssr:stedsnr" v="489207" />
	</node>
	<node lat="59.8326444481762" lon="10.24211666149067" id="-19525">
		<tag k="name" v="Trollerud" />
		<tag k="place" v="farm" />
		<tag k="ssr:stedsnr" v="489216" />
	</node>
	<node lat="59.83287652314508" lon="10.255852799696255" id="-19526">
		<tag k="fixme" v="consider place=hamlet" />
		<tag k="name" v="Rød" />
		<tag k="place" v="farm" />
		<tag k="ssr:stedsnr" v="489218" />
	</node>
	<node lat="59.87248624905594" lon="10.298713169037187" id="-19528">
		<tag k="name" v="Haukelia" />
		<tag k="place" v="locality" />
		<tag k="ssr:stedsnr" v="489351" />
	</node>
	<node lat="59.96202221961354" lon="10.325202782342737" id="-19530">
		<tag k="name" v="Vefsrud" />
		<tag k="place" v="farm" />
		<tag k="ssr:stedsnr" v="489504" />
	</node>
	<node lat="59.86091483783556" lon="10.213689970952291" id="-19531">
		<tag k="fixme" v="consider place=hamlet" />
		<tag k="name" v="Justad" />
		<tag k="place" v="farm" />
		<tag k="ssr:stedsnr" v="489296" />
	</node>
	<node lat="59.95903888652933" lon="10.245513891526166" id="-19533">
		<tag k="historic" v="shieling" />
		<tag k="name" v="Hornsetra" />
		<tag k="place" v="isolated_dwelling" />
		<tag k="ssr:stedsnr" v="489408" />
	</node>
	<node lat="59.901622226631915" lon="10.215211102884277" id="-19534">
		<tag k="building" v="industrial" />
		<tag k="industrial" v="factory" />
		<tag k="name" v="Grytefoss" />
		<tag k="ssr:stedsnr" v="505167" />
	</node>
	<node lat="59.78540277606536" lon="10.223288894957497" id="-19535">
		<tag k="fixme" v="multiple name tags, choose one and add the other to alt_name" />
		<tag k="loc_name" v="Lund" />
		<tag k="name" v="Haugen;Vestre Haugerud" />
		<tag k="place" v="farm" />
		<tag k="ssr:stedsnr" v="506375" />
	</node>
	<node lat="59.776784591375026" lon="10.207247521130236" id="-19538">
		<tag k="name" v="Stein" />
		<tag k="place" v="farm" />
		<tag k="ssr:stedsnr" v="506729" />
	</node>
	<node lat="59.8306361070297" lon="10.32047222974024" id="-19540">
		<tag k="name" v="Ovenstadhagan" />
		<tag k="place" v="isolated_dwelling" />
		<tag k="ssr:stedsnr" v="507074" />
	</node>
	<node lat="59.84609444301967" lon="10.271249996347974" id="-19542">
		<tag k="name" v="Bråten" />
		<tag k="place" v="isolated_dwelling" />
		<tag k="ssr:stedsnr" v="507110" />
	</node>
	<node lat="59.84865000067352" lon="10.209308328838059" id="-19543">
		<tag k="name" v="Fisker" />
		<tag k="place" v="farm" />
		<tag k="ssr:stedsnr" v="507359" />
	</node>
	<node lat="59.84650277754766" lon="10.224655548099859" id="-19544">
		<tag k="name" v="Bakkemeren" />
		<tag k="place" v="farm" />
		<tag k="ssr:stedsnr" v="507360" />
	</node>
	<node lat="59.815286114909526" lon="10.20504444290443" id="-19545">
		<tag k="loc_name" v="Justad" />
		<tag k="name" v="Ytre Justad" />
		<tag k="place" v="farm" />
		<tag k="ssr:stedsnr" v="507378" />
	</node>
	<node lat="59.89211944659383" lon="10.22798333492753" id="-19556">
		<tag k="alt_name" v="Nordhagen" />
		<tag k="name" v="Søndre Nordhagen" />
		<tag k="place" v="farm" />
		<tag k="ssr:stedsnr" v="526168" />
	</node>
	<node lat="59.750176533510235" lon="10.318352691268023" id="-19557">
		<tag k="fixme" v="consider place=hamlet" />
		<tag k="name" v="Dauerud" />
		<tag k="place" v="farm" />
		<tag k="ssr:stedsnr" v="549102" />
	</node>
	<node lat="59.753202778219325" lon="10.316066666974233" id="-19558">
		<tag k="name" v="Myrvoll" />
		<tag k="place" v="farm" />
		<tag k="ssr:stedsnr" v="549105" />
	</node>
	<node lat="59.823180300942795" lon="10.268531051888992" id="-19560">
		<tag k="name" v="Hennum" />
		<tag k="place" v="hamlet" />
		<tag k="ssr:stedsnr" v="549209" />
	</node>
	<node lat="59.82336489037977" lon="10.248531438010586" id="-19561">
		<tag k="fixme" v="consider place=hamlet" />
		<tag k="name" v="Klemmetsdal" />
		<tag k="place" v="farm" />
		<tag k="ssr:stedsnr" v="549210" />
	</node>
	<node lat="59.85306580026323" lon="10.212639321198047" id="-19563">
		<tag k="fixme" v="consider place=hamlet" />
		<tag k="loc_name" v="Skjåstad" />
		<tag k="name" v="Sjåstad" />
		<tag k="old_name" v="Skjaastad;Sjaastad" />
		<tag k="place" v="farm" />
		<tag k="ssr:stedsnr" v="549313" />
	</node>
	<node lat="59.74499278017661" lon="10.315561763319085" id="-19564">
		<tag k="name" v="Enga" />
		<tag k="place" v="farm" />
		<tag k="ssr:stedsnr" v="549362" />
	</node>
	<node lat="59.89448055792053" lon="10.262447215129537" id="-19565">
		<tag k="alt_name" v="Stokkerinen" />
		<tag k="name" v="Stokkerinden" />
		<tag k="place" v="farm" />
		<tag k="ssr:stedsnr" v="550296" />
	</node>
	<node lat="59.89765277602716" lon="10.271258338377896" id="-19566">
		<tag k="name" v="Vestre Sylling" />
		<tag k="place" v="farm" />
		<tag k="ssr:stedsnr" v="550298" />
	</node>
	<node lat="59.89620833443713" lon="10.337591672112703" id="-19568">
		<tag k="historic" v="shieling" />
		<tag k="name" v="Engersetra" />
		<tag k="place" v="isolated_dwelling" />
		<tag k="ssr:stedsnr" v="550303" />
	</node>
	<node lat="59.77014525683391" lon="10.25679057838013" id="-19571">
		<tag k="fixme" v="consider place=hamlet" />
		<tag k="name" v="Kors-Valle" />
		<tag k="place" v="farm" />
		<tag k="ssr:stedsnr" v="688378" />
	</node>
	<node lat="59.80634166882774" lon="10.238208341877158" id="-19574">
		<tag k="name" v="Hellumsand" />
		<tag k="place" v="farm" />
		<tag k="ssr:stedsnr" v="688746" />
	</node>
	<node lat="59.80818333666176" lon="10.24690277330294" id="-19575">
		<tag k="name" v="Hellum" />
		<tag k="place" v="farm" />
		<tag k="ssr:stedsnr" v="688747" />
	</node>
	<node lat="59.815130552532196" lon="10.269813895359501" id="-19578">
		<tag k="amenity" v="nursing_home" />
		<tag k="name" v="Hallingstadtunet" />
		<tag k="ssr:stedsnr" v="689055" />
	</node>
	<node lat="59.81907222385303" lon="10.278316668278727" id="-19579">
		<tag k="alt_name" v="Hansebråten" />
		<tag k="name" v="Hansebråtan" />
		<tag k="place" v="isolated_dwelling" />
		<tag k="ssr:stedsnr" v="689060" />
	</node>
	<node lat="59.81739999630488" lon="10.218663888858675" id="-19582">
		<tag k="alt_name" v="Mellom Egge" />
		<tag k="name" v="Mellom-Egge" />
		<tag k="place" v="farm" />
		<tag k="ssr:stedsnr" v="689125" />
	</node>
	<node lat="59.84688055680576" lon="10.213941668392577" id="-19584">
		<tag k="name" v="Sjemmedal" />
		<tag k="place" v="farm" />
		<tag k="ssr:stedsnr" v="689369" />
	</node>
	<node lat="59.83931389001642" lon="10.257597216129676" id="-19585">
		<tag k="alt_name" v="Øvre Søre Sørsdal" />
		<tag k="name" v="Øvre Søndre Sørsdal" />
		<tag k="place" v="farm" />
		<tag k="ssr:stedsnr" v="689373" />
	</node>
	<node lat="59.76905833518423" lon="10.281027769191327" id="-19588">
		<tag k="name" v="Sommerrosletta" />
		<tag k="place" v="farm" />
		<tag k="ssr:stedsnr" v="689573" />
	</node>
	<node lat="59.78500361968759" lon="10.323716099066731" id="-19589">
		<tag k="name" v="Lille Reistadvollen" />
		<tag k="place" v="locality" />
		<tag k="ssr:stedsnr" v="689577" />
	</node>
	<node lat="59.94475833716794" lon="10.187302783249987" id="-19590">
		<tag k="name" v="Dragshytta" />
		<tag k="place" v="isolated_dwelling" />
		<tag k="ssr:stedsnr" v="689646" />
	</node>
	<node lat="59.76154444453156" lon="10.257461113123538" id="-19591">
		<tag k="name" v="Huseby" />
		<tag k="place" v="farm" />
		<tag k="ssr:stedsnr" v="689870" />
	</node>
	<node lat="59.88022222156867" lon="10.306416668739356" id="-19592">
		<tag k="alt_name" v="Kornerudbråten" />
		<tag k="name" v="Kornerudbråtan" />
		<tag k="place" v="isolated_dwelling" />
		<tag k="ssr:stedsnr" v="689954" />
	</node>
	<node lat="59.85564721864033" lon="10.324608339686856" id="-19594">
		<tag k="name" v="Heiahytta" />
		<tag k="place" v="isolated_dwelling" />
		<tag k="ssr:stedsnr" v="689965" />
	</node>
	<node lat="59.85269722422013" lon="10.222897230780497" id="-19601">
		<tag k="name" v="Øvre Rød" />
		<tag k="place" v="farm" />
		<tag k="ssr:stedsnr" v="567363" />
	</node>
	<node lat="59.83335833123569" lon="10.256316657776088" id="-19602">
		<tag k="alt_name" v="Østre Rød" />
		<tag k="name" v="Rød" />
		<tag k="place" v="farm" />
		<tag k="ssr:stedsnr" v="567371" />
	</node>
	<node lat="59.77556110732548" lon="10.194713885427937" id="-19607">
		<tag k="name" v="Årkvisla" />
		<tag k="place" v="farm" />
		<tag k="ssr:stedsnr" v="567662" />
	</node>
	<node lat="59.75767777450992" lon="10.252763888436652" id="-19608">
		<tag k="name" v="Vitbank" />
		<tag k="place" v="farm" />
		<tag k="ssr:stedsnr" v="567904" />
	</node>
	<node lat="59.75996111405162" lon="10.239227785495238" id="-19609">
		<tag k="amenity" v="school" />
		<tag k="name" v="Høvik skole" />
		<tag k="ssr:stedsnr" v="567917" />
	</node>
	<node lat="59.82875832948192" lon="10.257236107226312" id="-19612">
		<tag k="amenity" v="school" />
		<tag k="name" v="Nordal skole" />
		<tag k="ssr:stedsnr" v="568904" />
	</node>
	<node lat="59.79000833628822" lon="10.235019448598186" id="-19613">
		<tag k="fixme" v="consider place=suburb, village or hamlet" />
		<tag k="name" v="Eikenga" />
		<tag k="place" v="quarter" />
		<tag k="ssr:stedsnr" v="568855" />
	</node>
	<node lat="59.77168333224925" lon="10.228875002783932" id="-19614">
		<tag k="alt_name" v="Nordre Vivelstad" />
		<tag k="name" v="Nordre Viulstad" />
		<tag k="place" v="farm" />
		<tag k="ssr:stedsnr" v="587717" />
	</node>
	<node lat="59.771952987689225" lon="10.228965832569052" id="-19617">
		<tag k="alt_name" v="Vivelstad" />
		<tag k="fixme" v="consider place=hamlet" />
		<tag k="name" v="Viulstad" />
		<tag k="place" v="farm" />
		<tag k="ssr:stedsnr" v="610212" />
	</node>
	<node lat="59.8354638885533" lon="10.211936102494805" id="-19618">
		<tag k="name" v="Ødegården" />
		<tag k="place" v="farm" />
		<tag k="ssr:stedsnr" v="610230" />
	</node>
	<node lat="59.89640833665247" lon="10.256755552937452" id="-19620">
		<tag k="alt_name" v="Rinen" />
		<tag k="name" v="Rinden" />
		<tag k="place" v="farm" />
		<tag k="ssr:stedsnr" v="611309" />
	</node>
	<node lat="59.8930249971609" lon="10.291047220647277" id="-19621">
		<tag k="name" v="Sylling" />
		<tag k="place" v="village" />
		<tag k="ssr:stedsnr" v="611311" />
	</node>
	<node lat="59.881741666937096" lon="10.320663891565918" id="-19622">
		<tag k="alt_name" v="Tveitasetra" />
		<tag k="historic" v="shieling" />
		<tag k="name" v="Tveitsetra" />
		<tag k="place" v="isolated_dwelling" />
		<tag k="ssr:stedsnr" v="611377" />
	</node>
	<node lat="59.74425555997016" lon="10.290733332353009" id="-19623">
		<tag k="alt_name" v="Mellom Gullaug;Gullaug" />
		<tag k="name" v="Mellom-Gullaug" />
		<tag k="old_name" v="Gullaug mellem" />
		<tag k="place" v="farm" />
		<tag k="ssr:stedsnr" v="627650" />
	</node>
	<node lat="59.78613333349224" lon="10.210038886765966" id="-19624">
		<tag k="name" v="Gåserud" />
		<tag k="place" v="farm" />
		<tag k="ssr:stedsnr" v="627745" />
	</node>
	<node lat="59.82963055491376" lon="10.284327781173257" id="-19625">
		<tag k="name" v="Hagan" />
		<tag k="place" v="farm" />
		<tag k="ssr:stedsnr" v="628014" />
	</node>
	<node lat="59.818547218550925" lon="10.303983341545408" id="-19627">
		<tag k="name" v="Storjordet" />
		<tag k="place" v="farm" />
		<tag k="ssr:stedsnr" v="628043" />
	</node>
	<node lat="59.86367777338786" lon="10.221427781190508" id="-19628">
		<tag k="name" v="Alfstad" />
		<tag k="place" v="isolated_dwelling" />
		<tag k="ssr:stedsnr" v="628106" />
	</node>
	<node lat="59.82115555791866" lon="10.111797225407075" id="-19629">
		<tag k="historic" v="shieling" />
		<tag k="name" v="Eiksetra" />
		<tag k="place" v="isolated_dwelling" />
		<tag k="ssr:stedsnr" v="628447" />
	</node>
	<node lat="59.94851389313411" lon="10.293133333622412" id="-19630">
		<tag k="name" v="Tangen" />
		<tag k="place" v="isolated_dwelling" />
		<tag k="ssr:stedsnr" v="628504" />
	</node>
	<node lat="59.905447224058676" lon="10.266958325822085" id="-19635">
		<tag k="name" v="Poverudbyen" />
		<tag k="place" v="quarter" />
		<tag k="ssr:stedsnr" v="628546" />
	</node>
	<node lat="59.90440277666651" lon="10.268991672667948" id="-19636">
		<tag k="name" v="Hørte" />
		<tag k="place" v="farm" />
		<tag k="ssr:stedsnr" v="628548" />
	</node>
	<node lat="59.965983335286126" lon="10.243447213366057" id="-19637">
		<tag k="name" v="Christensenhytta" />
		<tag k="place" v="isolated_dwelling" />
		<tag k="ssr:stedsnr" v="628715" />
	</node>
	<node lat="59.868397219325" lon="10.296094439363856" id="-19639">
		<tag k="name" v="Kubbeløkka" />
		<tag k="place" v="isolated_dwelling" />
		<tag k="ssr:stedsnr" v="628896" />
	</node>
	<node lat="59.848616665387006" lon="10.26880555828701" id="-19645">
		<tag k="alt_name" v="Øvre Opsal" />
		<tag k="name" v="Øvre Oppsal" />
		<tag k="place" v="farm" />
		<tag k="ssr:stedsnr" v="709656" />
	</node>
	<node lat="59.892635743009954" lon="10.22848705478517" id="-19646">
		<tag k="name" v="Nordhagen" />
		<tag k="place" v="locality" />
		<tag k="ssr:stedsnr" v="709657" />
	</node>
	<node lat="59.75088889288368" lon="10.295830547941835" id="-19647">
		<tag k="name" v="Linneslia" />
		<tag k="place" v="quarter" />
		<tag k="ssr:stedsnr" v="671068" />
	</node>
	<node lat="59.76989656532469" lon="10.239908477954895" id="-19649">
		<tag k="alt_name" v="Østre Sandaker" />
		<tag k="name" v="Sandaker" />
		<tag k="place" v="hamlet" />
		<tag k="ssr:stedsnr" v="671171" />
	</node>
	<node lat="59.819811113741075" lon="10.330925002383383" id="-19652">
		<tag k="fixme" v="consider place=hamlet" />
		<tag k="name" v="Lierskogen" />
		<tag k="place" v="village" />
		<tag k="ssr:stedsnr" v="671211" />
	</node>
	<node lat="59.86157777350797" lon="10.187211112672548" id="-19653">
		<tag k="name" v="Vestbråtan" />
		<tag k="place" v="farm" />
		<tag k="ssr:stedsnr" v="671267" />
	</node>
	<node lat="59.939163892828894" lon="10.298052782857493" id="-19654">
		<tag k="name" v="Nedre Eik" />
		<tag k="place" v="farm" />
		<tag k="ssr:stedsnr" v="671413" />
	</node>
	<node lat="59.84790529308128" lon="10.267054553296779" id="-19655">
		<tag k="name" v="Oppsal" />
		<tag k="place" v="hamlet" />
		<tag k="ssr:stedsnr" v="671307" />
	</node>
	<node lat="59.80008611323125" lon="10.172941664425663" id="-19660">
		<tag k="name" v="Skogly" />
		<tag k="place" v="isolated_dwelling" />
		<tag k="ssr:stedsnr" v="688713" />
	</node>
	<node lat="59.82313889308698" lon="10.346630558162746" id="-19661">
		<tag k="name" v="Solbekk" />
		<tag k="old_name" v="Solbakk" />
		<tag k="place" v="isolated_dwelling" />
		<tag k="ssr:stedsnr" v="689094" />
	</node>
	<node lat="59.82637222271332" lon="10.324516668173242" id="-19662">
		<tag k="name" v="Fredheim" />
		<tag k="place" v="isolated_dwelling" />
		<tag k="ssr:stedsnr" v="689097" />
	</node>
	<node lat="59.86183333563376" lon="10.22739721829628" id="-19664">
		<tag k="name" v="Fagerheim" />
		<tag k="place" v="isolated_dwelling" />
		<tag k="ssr:stedsnr" v="689137" />
	</node>
	<node lat="59.778572220676644" lon="10.204866666842845" id="-19672">
		<tag k="name" v="Stein" />
		<tag k="place" v="farm" />
		<tag k="ssr:stedsnr" v="689628" />
	</node>
	<node lat="59.73420278079083" lon="10.311850003986002" id="-19673">
		<tag k="name" v="Ytre Mørk" />
		<tag k="place" v="farm" />
		<tag k="ssr:stedsnr" v="689834" />
	</node>
	<node lat="59.762869443200024" lon="10.236855558265392" id="-19675">
		<tag k="leisure" v="pitch" />
		<tag k="name" v="Lier stadion" />
		<tag k="ssr:stedsnr" v="689900" />
	</node>
	<node lat="59.86569721822968" lon="10.22180832632201" id="-19676">
		<tag k="amenity" v="nursing_home" />
		<tag k="name" v="Gifstad sykehjem" />
		<tag k="ssr:stedsnr" v="689785" />
	</node>
	<node lat="59.874455553079656" lon="10.294894440055758" id="-19677">
		<tag k="name" v="Salerud" />
		<tag k="place" v="farm" />
		<tag k="ssr:stedsnr" v="689906" />
	</node>
	<node lat="59.89503333523403" lon="10.293166666080177" id="-19678">
		<tag k="name" v="Østbråtan" />
		<tag k="place" v="farm" />
		<tag k="ssr:stedsnr" v="689989" />
	</node>
	<node lat="59.928861111591964" lon="10.356888886055831" id="-19679">
		<tag k="name" v="Rolighet" />
		<tag k="place" v="isolated_dwelling" />
		<tag k="ssr:stedsnr" v="690603" />
	</node>
	<node lat="59.72752500114796" lon="10.302388892288397" id="-19683">
		<tag k="name" v="Engersand" />
		<tag k="place" v="isolated_dwelling" />
		<tag k="ssr:stedsnr" v="731210" />
	</node>
	<node lat="59.81883656929026" lon="10.213743587070311" id="-19686">
		<tag k="alt_name" v="Øvre Egge" />
		<tag k="name" v="Egge" />
		<tag k="place" v="hamlet" />
		<tag k="ssr:stedsnr" v="731163" />
	</node>
	<node lat="59.736397224201625" lon="10.31644167300479" id="-19687">
		<tag k="name" v="Hval" />
		<tag k="place" v="farm" />
		<tag k="ssr:stedsnr" v="731317" />
	</node>
	<node lat="59.853222222239054" lon="10.201333339381684" id="-19689">
		<tag k="name" v="Nordbråtan" />
		<tag k="place" v="farm" />
		<tag k="ssr:stedsnr" v="732267" />
	</node>
	<node lat="59.83698888708533" lon="10.213608329139031" id="-19690">
		<tag k="name" v="Treffen" />
		<tag k="place" v="farm" />
		<tag k="ssr:stedsnr" v="732300" />
	</node>
	<node lat="59.94302828213908" lon="10.27737034728371" id="-19692">
		<tag k="fixme" v="consider place=hamlet" />
		<tag k="name" v="Fuglerud" />
		<tag k="place" v="farm" />
		<tag k="ssr:stedsnr" v="732422" />
	</node>
	<node lat="59.926835240741326" lon="10.299150397486423" id="-19693">
		<tag k="alt_name" v="Søndre Drag" />
		<tag k="name" v="Drag" />
		<tag k="place" v="hamlet" />
		<tag k="ssr:stedsnr" v="732451" />
	</node>
	<node lat="59.847008335675646" lon="10.24246666375591" id="-19695">
		<tag k="name" v="Rønningen" />
		<tag k="place" v="farm" />
		<tag k="ssr:stedsnr" v="732314" />
	</node>
	<node lat="59.87370759702816" lon="10.253363437692185" id="-19697">
		<tag k="fixme" v="consider place=hamlet" />
		<tag k="name" v="Guransrud" />
		<tag k="place" v="farm" />
		<tag k="ssr:stedsnr" v="732356" />
	</node>
	<node lat="59.88220555780883" lon="10.243333331924413" id="-19699">
		<tag k="fixme" v="consider place=hamlet" />
		<tag k="name" v="Tronstad" />
		<tag k="place" v="village" />
		<tag k="ssr:stedsnr" v="732367" />
	</node>
	<node lat="59.82106389332203" lon="10.280536112012683" id="-19701">
		<tag k="amenity" v="school" />
		<tag k="name" v="Hennummarka skole" />
		<tag k="ssr:stedsnr" v="749011" />
	</node>
	<node lat="59.81514722209079" lon="10.210838895532577" id="-19703">
		<tag k="building" v="industrial" />
		<tag k="industrial" v="factory" />
		<tag k="name" v="Egge meieri" />
		<tag k="ssr:stedsnr" v="749111" />
	</node>
	<node lat="59.87527777697453" lon="10.259830557637542" id="-19704">
		<tag k="name" v="Bråten" />
		<tag k="place" v="isolated_dwelling" />
		<tag k="ssr:stedsnr" v="749171" />
	</node>
	<node lat="59.7850166674097" lon="10.283077785938609" id="-19707">
		<tag k="name" v="Solstadhagan" />
		<tag k="place" v="locality" />
		<tag k="ssr:stedsnr" v="749605" />
	</node>
	<node lat="59.77581388969769" lon="10.266947216404905" id="-19708">
		<tag k="name" v="Stokkeholmen" />
		<tag k="place" v="farm" />
		<tag k="ssr:stedsnr" v="749624" />
	</node>
	<node lat="59.805141668238015" lon="10.353497215081104" id="-19709">
		<tag k="name" v="Ulvegløtt" />
		<tag k="place" v="isolated_dwelling" />
		<tag k="ssr:stedsnr" v="749575" />
	</node>
	<node lat="59.80884167075213" lon="10.32630000388472" id="-19710">
		<tag k="name" v="Fjellheim" />
		<tag k="place" v="isolated_dwelling" />
		<tag k="ssr:stedsnr" v="749577" />
	</node>
	<node lat="59.76463531040199" lon="10.245483464735209" id="-19711">
		<tag k="fixme" v="consider place=hamlet" />
		<tag k="name" v="Kjellstad" />
		<tag k="place" v="farm" />
		<tag k="ssr:stedsnr" v="749924" />
	</node>
	<node lat="59.87355156762995" lon="10.293089742027387" id="-19715">
		<tag k="alt_name" v="Kittelsrud" />
		<tag k="fixme" v="consider place=hamlet" />
		<tag k="name" v="Kittilsrud" />
		<tag k="place" v="farm" />
		<tag k="ssr:stedsnr" v="904827" />
	</node>
	<node lat="59.90482222176687" lon="10.273166660269842" id="-19719">
		<tag k="name" v="Enga" />
		<tag k="place" v="isolated_dwelling" />
		<tag k="ssr:stedsnr" v="792322" />
	</node>
	<node lat="59.960225003756705" lon="10.274763884900542" id="-19720">
		<tag k="alt_name" v="Løvlia" />
		<tag k="name" v="Lauvlia" />
		<tag k="place" v="farm" />
		<tag k="ssr:stedsnr" v="792378" />
	</node>
	<node lat="59.78691666582035" lon="10.276819439622676" id="-19724">
		<tag k="alt_name" v="Nordre Brastad" />
		<tag k="name" v="Brastad" />
		<tag k="place" v="farm" />
		<tag k="ssr:stedsnr" v="793146" />
	</node>
	<node lat="59.7861086285274" lon="10.218085809582785" id="-19725">
		<tag k="fixme" v="consider place=hamlet" />
		<tag k="name" v="Haugerud" />
		<tag k="place" v="farm" />
		<tag k="ssr:stedsnr" v="793150" />
	</node>
	<node lat="59.82765963197736" lon="10.25516572876447" id="-19726">
		<tag k="alt_name" v="Nordal" />
		<tag k="fixme" v="consider place=hamlet" />
		<tag k="name" v="Norddal" />
		<tag k="place" v="farm" />
		<tag k="ssr:stedsnr" v="793203" />
	</node>
	<node lat="59.83465177631084" lon="10.323525323957387" id="-19727">
		<tag k="fixme" v="consider place=hamlet" />
		<tag k="name" v="Ekeberg" />
		<tag k="place" v="farm" />
		<tag k="ssr:stedsnr" v="793212" />
	</node>
	<node lat="59.84784444401529" lon="10.27728611592741" id="-19728">
		<tag k="alt_name" v="Opsalåsen" />
		<tag k="historic" v="shieling" />
		<tag k="name" v="Oppsalåsen" />
		<tag k="place" v="isolated_dwelling" />
		<tag k="ssr:stedsnr" v="793321" />
	</node>
	<node lat="59.879954840997065" lon="10.250686386943912" id="-19729">
		<tag k="fixme" v="consider place=hamlet" />
		<tag k="name" v="Hvam" />
		<tag k="place" v="farm" />
		<tag k="ssr:stedsnr" v="793373" />
	</node>
	<node lat="59.93684703170799" lon="10.266126090580663" id="-19730">
		<tag k="name" v="Røyne" />
		<tag k="place" v="hamlet" />
		<tag k="ssr:stedsnr" v="793398" />
	</node>
	<node lat="59.83982326733252" lon="10.257967530946932" id="-19731">
		<tag k="alt_name" v="Øvre nordre Sørsdal" />
		<tag k="name" v="Sørsdal" />
		<tag k="place" v="hamlet" />
		<tag k="ssr:stedsnr" v="914299" />
	</node>
	<node lat="59.834902775446345" lon="10.277266675324023" id="-19732">
		<tag k="name" v="Fjell" />
		<tag k="place" v="farm" />
		<tag k="ssr:stedsnr" v="914302" />
	</node>
	<node lat="59.78960612062605" lon="10.20610338119474" id="-19733">
		<tag k="fixme" v="consider place=hamlet" />
		<tag k="name" v="Rød" />
		<tag k="place" v="farm" />
		<tag k="ssr:stedsnr" v="914151" />
	</node>
	<node lat="59.77538889202716" lon="10.238113893502096" id="-19734">
		<tag k="name" v="Grette" />
		<tag k="place" v="farm" />
		<tag k="ssr:stedsnr" v="914161" />
	</node>
	<node lat="59.77632792642364" lon="10.29028295715766" id="-19736">
		<tag k="name" v="Reistad" />
		<tag k="place" v="village" />
		<tag k="ssr:stedsnr" v="914174" />
	</node>
	<node lat="59.810425003581514" lon="10.274955551994355" id="-19737">
		<tag k="name" v="Høgda" />
		<tag k="place" v="farm" />
		<tag k="ssr:stedsnr" v="914249" />
	</node>
	<node lat="59.8119444415791" lon="10.314283333199292" id="-19738">
		<tag k="name" v="Kjenner" />
		<tag k="place" v="farm" />
		<tag k="ssr:stedsnr" v="914251" />
	</node>
	<node lat="59.80153055269683" lon="10.217461106786264" id="-19739">
		<tag k="name" v="Jordbru" />
		<tag k="place" v="farm" />
		<tag k="ssr:stedsnr" v="914265" />
	</node>
	<node lat="59.787572221989514" lon="10.25927221990313" id="-19741">
		<tag k="name" v="Haslum" />
		<tag k="place" v="farm" />
		<tag k="ssr:stedsnr" v="809746" />
	</node>
	<node lat="59.80720833761156" lon="10.245188896337538" id="-19742">
		<tag k="name" v="Hellumbråtan" />
		<tag k="place" v="farm" />
		<tag k="ssr:stedsnr" v="809753" />
	</node>
	<node lat="59.84269444561077" lon="10.264213892222145" id="-19745">
		<tag k="name" v="Storenga" />
		<tag k="place" v="farm" />
		<tag k="ssr:stedsnr" v="810141" />
	</node>
	<node lat="59.81190000239864" lon="10.21103333731036" id="-19746">
		<tag k="name" v="Ytre Justad" />
		<tag k="place" v="farm" />
		<tag k="ssr:stedsnr" v="810381" />
	</node>
	<node lat="59.93184166674124" lon="10.268744437403086" id="-19747">
		<tag k="name" v="Nordset" />
		<tag k="place" v="farm" />
		<tag k="ssr:stedsnr" v="810507" />
	</node>
	<node lat="59.89863055481451" lon="10.257533336557039" id="-19749">
		<tag k="name" v="Rydningen" />
		<tag k="place" v="isolated_dwelling" />
		<tag k="ssr:stedsnr" v="810532" />
	</node>
	<node lat="59.92832500293913" lon="10.299736119529015" id="-19751">
		<tag k="name" v="Drag" />
		<tag k="place" v="farm" />
		<tag k="ssr:stedsnr" v="810494" />
	</node>
	<node lat="59.809619444317995" lon="10.311102780900208" id="-19757">
		<tag k="name" v="Kjenner" />
		<tag k="place" v="farm" />
		<tag k="ssr:stedsnr" v="829165" />
	</node>
	<node lat="59.754727778189874" lon="10.220172227132455" id="-19758">
		<tag k="name" v="Fagerhøy" />
		<tag k="place" v="farm" />
		<tag k="ssr:stedsnr" v="848790" />
	</node>
	<node lat="59.76218888575467" lon="10.277647226011947" id="-19759">
		<tag k="name" v="Øgården" />
		<tag k="place" v="farm" />
		<tag k="ssr:stedsnr" v="853055" />
	</node>
	<node lat="59.82414999630956" lon="10.222611104301008" id="-19760">
		<tag k="alt_name" v="Utenga" />
		<tag k="name" v="Øvre Egge" />
		<tag k="place" v="farm" />
		<tag k="ssr:stedsnr" v="853175" />
	</node>
	<node lat="59.795468263681634" lon="10.237197579081347" id="-19764">
		<tag k="alt_name" v="Søndre Renskaug" />
		<tag k="name" v="Søndre Renskog" />
		<tag k="place" v="farm" />
		<tag k="ssr:stedsnr" v="854112" />
	</node>
	<node lat="59.77341666765394" lon="10.266694439486415" id="-19765">
		<tag k="name" v="Vinbekk" />
		<tag k="place" v="farm" />
		<tag k="ssr:stedsnr" v="854154" />
	</node>
	<node lat="59.8759494170368" lon="10.281514634260974" id="-19766">
		<tag k="fixme" v="consider place=hamlet" />
		<tag k="name" v="Kopperud" />
		<tag k="place" v="farm" />
		<tag k="ssr:stedsnr" v="854316" />
	</node>
	<node lat="59.85196388673234" lon="10.208130560906511" id="-19775">
		<tag k="name" v="Kokstad" />
		<tag k="place" v="isolated_dwelling" />
		<tag k="ssr:stedsnr" v="871109" />
	</node>
	<node lat="59.85200555919873" lon="10.205597229762867" id="-19776">
		<tag k="name" v="Murerstua" />
		<tag k="place" v="isolated_dwelling" />
		<tag k="ssr:stedsnr" v="871110" />
	</node>
	<node lat="59.813766668638124" lon="10.215744450037093" id="-19778">
		<tag k="name" v="Øvre Egge" />
		<tag k="place" v="farm" />
		<tag k="ssr:stedsnr" v="871365" />
	</node>
	<node lat="59.84853888823584" lon="10.206544449941097" id="-19779">
		<tag k="alt_name" v="Sørbråten" />
		<tag k="loc_name" v="Sørbråtan" />
		<tag k="name" v="Søbråtan" />
		<tag k="place" v="farm" />
		<tag k="ssr:stedsnr" v="871370" />
	</node>
	<node lat="59.83032222266096" lon="10.228544447853013" id="-19780">
		<tag k="name" v="Søndre Meren" />
		<tag k="old_name" v="Søndre Mære" />
		<tag k="place" v="farm" />
		<tag k="ssr:stedsnr" v="871374" />
	</node>
	<node lat="59.888566670643115" lon="10.310800008591858" id="-19787">
		<tag k="name" v="Sjåhit" />
		<tag k="place" v="isolated_dwelling" />
		<tag k="ssr:stedsnr" v="871870" />
	</node>
	<node lat="59.7817744160148" lon="10.203248013473987" id="-19790">
		<tag k="name" v="Stein" />
		<tag k="place" v="farm" />
		<tag k="ssr:stedsnr" v="931676" />
	</node>
	<node lat="59.783083332608626" lon="10.250511108116456" id="-19791">
		<tag k="name" v="Elvebakken" />
		<tag k="place" v="farm" />
		<tag k="ssr:stedsnr" v="931754" />
	</node>
	<node lat="59.7727444423493" lon="10.252125000637445" id="-19792">
		<tag k="name" v="Lille Valle" />
		<tag k="place" v="farm" />
		<tag k="ssr:stedsnr" v="931768" />
	</node>
	<node lat="59.80812222476236" lon="10.221572223644237" id="-19793">
		<tag k="name" v="Enga" />
		<tag k="place" v="farm" />
		<tag k="ssr:stedsnr" v="931780" />
	</node>
	<node lat="59.76238889049503" lon="10.24474443995193" id="-19795">
		<tag k="name" v="Kjellbo" />
		<tag k="place" v="farm" />
		<tag k="ssr:stedsnr" v="931925" />
	</node>
	<node lat="59.761411114169384" lon="10.232783326345704" id="-19796">
		<tag k="name" v="Søndre Lian" />
		<tag k="place" v="farm" />
		<tag k="ssr:stedsnr" v="931927" />
	</node>
	<node lat="59.81985555295028" lon="10.251569451032633" id="-19800">
		<tag k="name" v="Buttedal" />
		<tag k="place" v="farm" />
		<tag k="ssr:stedsnr" v="932107" />
	</node>
	<node lat="59.849222224992715" lon="10.218469444001888" id="-19802">
		<tag k="alt_name" v="Hakavoll" />
		<tag k="name" v="Hakaval" />
		<tag k="place" v="farm" />
		<tag k="ssr:stedsnr" v="932360" />
	</node>
	<node lat="59.84728888838848" lon="10.161841670919046" id="-19804">
		<tag k="name" v="Sjåstadhytta" />
		<tag k="place" v="isolated_dwelling" />
		<tag k="ssr:stedsnr" v="932416" />
	</node>
	<node lat="59.849269440480136" lon="10.211136102433287" id="-19808">
		<tag k="name" v="Nordlia" />
		<tag k="place" v="farm" />
		<tag k="ssr:stedsnr" v="932384" />
	</node>
	<node lat="59.9319555582693" lon="10.225369450206294" id="-19811">
		<tag k="name" v="Øverbyhytta" />
		<tag k="place" v="isolated_dwelling" />
		<tag k="ssr:stedsnr" v="932516" />
	</node>
	<node lat="59.85425278013537" lon="10.265500002944925" id="-19814">
		<tag k="alt_name" v="Opsal;Nedre Oppsal" />
		<tag k="name" v="Nordhagen" />
		<tag k="place" v="farm" />
		<tag k="ssr:stedsnr" v="932887" />
	</node>
	<node lat="59.87418888707187" lon="10.192061119664094" id="-19818">
		<tag k="name" v="Høgli" />
		<tag k="place" v="isolated_dwelling" />
		<tag k="ssr:stedsnr" v="932658" />
	</node>
	<node lat="59.80834182648045" lon="10.201955662061078" id="-19819">
		<tag k="fixme" v="consider place=hamlet" />
		<tag k="name" v="Søndre Ask" />
		<tag k="place" v="farm" />
		<tag k="ssr:stedsnr" v="932665" />
	</node>
	<node lat="59.86840833608122" lon="10.22153055043908" id="-19822">
		<tag k="name" v="Bråtenåsen" />
		<tag k="place" v="isolated_dwelling" />
		<tag k="ssr:stedsnr" v="932775" />
	</node>
	<node lat="59.74761111138919" lon="10.30465278244271" id="-19823">
		<tag k="name" v="Fagerhaug" />
		<tag k="place" v="farm" />
		<tag k="ssr:stedsnr" v="932835" />
	</node>
	<node lat="59.88448888704757" lon="10.262013889310625" id="-19825">
		<tag k="name" v="Gunnerud" />
		<tag k="place" v="farm" />
		<tag k="ssr:stedsnr" v="932969" />
	</node>
	<node lat="59.892324999362906" lon="10.291236103598244" id="-19826">
		<tag k="amenity" v="school" />
		<tag k="name" v="Sylling skole" />
		<tag k="ssr:stedsnr" v="932987" />
	</node>
	<node lat="59.81120000372412" lon="10.30554167100973" id="-19828">
		<tag k="building" v="commercial" />
		<tag k="name" v="Liertoppen kjøpesenter" />
		<tag k="ssr:stedsnr" v="877857" />
	</node>
	<node lat="59.746872223572645" lon="10.312783331614417" id="-19831">
		<tag k="name" v="Tronerud" />
		<tag k="place" v="farm" />
		<tag k="ssr:stedsnr" v="913339" />
	</node>
	<node lat="59.79426388821068" lon="10.277605552901958" id="-19832">
		<tag k="name" v="Bråtan" />
		<tag k="place" v="hamlet" />
		<tag k="ssr:stedsnr" v="914131" />
	</node>
	<node lat="59.77086667039504" lon="10.216327786250806" id="-19834">
		<tag k="alt_name" v="Dambråten" />
		<tag k="name" v="Dambråtan" />
		<tag k="place" v="farm" />
		<tag k="ssr:stedsnr" v="914188" />
	</node>
	<node lat="59.833743465593" lon="10.212185339659822" id="-19835">
		<tag k="name" v="Øksne" />
		<tag k="place" v="hamlet" />
		<tag k="ssr:stedsnr" v="914194" />
	</node>
	<node lat="59.83272222247518" lon="10.180938892347655" id="-19836">
		<tag k="name" v="Sørsetra" />
		<tag k="place" v="farm" />
		<tag k="ssr:stedsnr" v="914198" />
	</node>
	<node lat="59.82805278125381" lon="10.208055562372623" id="-19837">
		<tag k="name" v="Åserud" />
		<tag k="place" v="farm" />
		<tag k="ssr:stedsnr" v="914200" />
	</node>
	<node lat="59.84116388611681" lon="10.218627769177623" id="-19838">
		<tag k="name" v="Olstad" />
		<tag k="place" v="farm" />
		<tag k="ssr:stedsnr" v="914303" />
	</node>
	<node lat="59.853147513506755" lon="10.251015998180323" id="-19840">
		<tag k="fixme" v="consider place=hamlet" />
		<tag k="name" v="Åmot" />
		<tag k="place" v="farm" />
		<tag k="ssr:stedsnr" v="914312" />
	</node>
	<node lat="59.758952781425975" lon="10.230925004396836" id="-19841">
		<tag k="name" v="Risenga" />
		<tag k="place" v="farm" />
		<tag k="ssr:stedsnr" v="914081" />
	</node>
	<node lat="59.817581748892714" lon="10.307048748142943" id="-19842">
		<tag k="alt_name" v="Vestre Grøstad" />
		<tag k="name" v="Grøstad" />
		<tag k="place" v="hamlet" />
		<tag k="ssr:stedsnr" v="914232" />
	</node>
	<node lat="59.86795000335288" lon="10.24323055352339" id="-19844">
		<tag k="name" v="Linløkka" />
		<tag k="place" v="farm" />
		<tag k="ssr:stedsnr" v="914284" />
	</node>
	<node lat="59.833525004209974" lon="10.329138890882971" id="-19846">
		<tag k="name" v="Nedre Bø" />
		<tag k="place" v="farm" />
		<tag k="ssr:stedsnr" v="914293" />
	</node>
	<node lat="59.92468888529409" lon="10.266086118484345" id="-19847">
		<tag k="name" v="Skustadenga" />
		<tag k="place" v="farm" />
		<tag k="ssr:stedsnr" v="914410" />
	</node>
	<node lat="59.93027500408371" lon="10.28276667256652" id="-19848">
		<tag k="alt_name" v="Nedre Skustad" />
		<tag k="name" v="Nerskustad" />
		<tag k="place" v="farm" />
		<tag k="ssr:stedsnr" v="914427" />
	</node>
	<node lat="59.94484722642639" lon="10.287455282930788" id="-19849">
		<tag k="fixme" v="consider place=hamlet" />
		<tag k="name" v="Brevik" />
		<tag k="place" v="farm" />
		<tag k="ssr:stedsnr" v="914378" />
	</node>
	<node lat="59.788738885605" lon="10.27437499803905" id="-19852">
		<tag k="name" v="Nordre Stokke" />
		<tag k="place" v="farm" />
		<tag k="ssr:stedsnr" v="931714" />
	</node>
	<node lat="59.743180484429715" lon="10.310101457669521" id="-19853">
		<tag k="fixme" v="consider place=hamlet" />
		<tag k="name" v="Kovestad" />
		<tag k="place" v="farm" />
		<tag k="ssr:stedsnr" v="931649" />
	</node>
	<node lat="59.76618611369923" lon="10.275886119924749" id="-19854">
		<tag k="name" v="Stavsenga" />
		<tag k="place" v="farm" />
		<tag k="ssr:stedsnr" v="931894" />
	</node>
	<node lat="59.81190278073223" lon="10.268663891938681" id="-19855">
		<tag k="amenity" v="nursing_home" />
		<tag k="name" v="Liertun" />
		<tag k="ssr:stedsnr" v="932052" />
	</node>
	<node lat="59.83473996043959" lon="10.269455846049256" id="-19858">
		<tag k="fixme" v="multiple name tags, choose one and add the other to alt_name" />
		<tag k="name" v="Knipen;Sørsdalsbråten" />
		<tag k="place" v="farm" />
		<tag k="ssr:stedsnr" v="932099" />
	</node>
	<node lat="59.86818888964316" lon="10.240311116515892" id="-19859">
		<tag k="name" v="Nordhagan" />
		<tag k="place" v="farm" />
		<tag k="ssr:stedsnr" v="932141" />
	</node>
	<node lat="59.74981667044358" lon="10.233483337296756" id="-19865">
		<tag k="name" v="Vestre Nøste" />
		<tag k="place" v="isolated_dwelling" />
		<tag k="ssr:stedsnr" v="951912" />
	</node>
	<node lat="59.86363611396963" lon="10.282319436469077" id="-19867">
		<tag k="alt_name" v="Skogen;Kittelsrud" />
		<tag k="fixme" v="multiple name tags, choose one and add the other to alt_name" />
		<tag k="name" v="Skaugen;Kittilsrud" />
		<tag k="place" v="farm" />
		<tag k="ssr:stedsnr" v="963296" />
	</node>
	<node lat="59.77513055607112" lon="10.201163891987303" id="-19868">
		<tag k="name" v="Steinli" />
		<tag k="place" v="isolated_dwelling" />
		<tag k="ssr:stedsnr" v="965395" />
	</node>
	<node lat="59.75511448057691" lon="10.240338204613842" id="-19872">
		<tag k="name" v="Høvik" />
		<tag k="place" v="hamlet" />
		<tag k="ssr:stedsnr" v="3080" />
	</node>
	<node lat="59.76792499726844" lon="10.248030550963431" id="-19873">
		<tag k="name" v="Kjellstad" />
		<tag k="place" v="hamlet" />
		<tag k="ssr:stedsnr" v="3155" />
	</node>
	<node lat="59.82414999585027" lon="10.23908333377257" id="-19874">
		<tag k="name" v="Rundtom" />
		<tag k="place" v="farm" />
		<tag k="ssr:stedsnr" v="3182" />
	</node>
	<node lat="59.81028531099748" lon="10.245860049784486" id="-19875">
		<tag k="fixme" v="consider place=hamlet" />
		<tag k="name" v="Hellum" />
		<tag k="place" v="farm" />
		<tag k="ssr:stedsnr" v="3195" />
	</node>
	<node lat="59.809239676590074" lon="10.255497350604953" id="-19876">
		<tag k="fixme" v="consider place=hamlet" />
		<tag k="name" v="Tranby" />
		<tag k="place" v="farm" />
		<tag k="ssr:stedsnr" v="3196" />
	</node>
	<node lat="59.900858332104434" lon="10.25924722619042" id="-19878">
		<tag k="name" v="Fagerli" />
		<tag k="place" v="farm" />
		<tag k="ssr:stedsnr" v="3295" />
	</node>
	<node lat="59.873188889996676" lon="10.292905556238473" id="-19879">
		<tag k="alt_name" v="Kittelsrud" />
		<tag k="name" v="Kittilsrud" />
		<tag k="place" v="farm" />
		<tag k="ssr:stedsnr" v="3307" />
	</node>
	<node lat="59.785712884185806" lon="10.227670934631856" id="-19881">
		<tag k="name" v="Saue" />
		<tag k="place" v="hamlet" />
		<tag k="ssr:stedsnr" v="4145" />
	</node>
	<node lat="59.83086388655219" lon="10.31002222135179" id="-19882">
		<tag k="name" v="Langeland" />
		<tag k="place" v="farm" />
		<tag k="ssr:stedsnr" v="4196" />
	</node>
	<node lat="59.866561107473416" lon="10.241483331521241" id="-19883">
		<tag k="name" v="Muggerud" />
		<tag k="place" v="farm" />
		<tag k="ssr:stedsnr" v="4269" />
	</node>
	<node lat="59.873586113953166" lon="10.082574994193811" id="-19884">
		<tag k="alt_name" v="Damhagen" />
		<tag k="name" v="Damhagan" />
		<tag k="place" v="isolated_dwelling" />
		<tag k="ssr:stedsnr" v="4270" />
	</node>
	<node lat="59.83720277492308" lon="10.316525003759926" id="-19886">
		<tag k="name" v="Slåttebråtan" />
		<tag k="place" v="farm" />
		<tag k="ssr:stedsnr" v="4286" />
	</node>
	<node lat="59.85110833278279" lon="10.242866672109823" id="-19887">
		<tag k="alt_name" v="Kåtarud" />
		<tag k="name" v="Kåterud" />
		<tag k="place" v="farm" />
		<tag k="ssr:stedsnr" v="4304" />
	</node>
	<node lat="59.88991666820369" lon="10.271708326039436" id="-19888">
		<tag k="name" v="Gjerstad" />
		<tag k="place" v="farm" />
		<tag k="ssr:stedsnr" v="4309" />
	</node>
	<node lat="59.85392499760737" lon="10.229497217850003" id="-19889">
		<tag k="name" v="Søhagan" />
		<tag k="place" v="farm" />
		<tag k="ssr:stedsnr" v="4259" />
	</node>
	<node lat="59.88414722653275" lon="10.291466667789816" id="-19890">
		<tag k="alt_name" v="Labråtan" />
		<tag k="name" v="Labråten" />
		<tag k="place" v="farm" />
		<tag k="ssr:stedsnr" v="4341" />
	</node>
	<node lat="59.885753618183884" lon="10.265315093538739" id="-19891">
		<tag k="fixme" v="consider place=hamlet" />
		<tag k="name" v="Gunnerud" />
		<tag k="place" v="farm" />
		<tag k="ssr:stedsnr" v="4345" />
	</node>
	<node lat="59.94069444028496" lon="10.27458055156843" id="-19893">
		<tag k="name" v="Lybråtan" />
		<tag k="place" v="farm" />
		<tag k="ssr:stedsnr" v="4373" />
	</node>
	<node lat="59.92655000033086" lon="10.12334722202265" id="-19896">
		<tag k="name" v="Nykjua" />
		<tag k="place" v="isolated_dwelling" />
		<tag k="ssr:stedsnr" v="20161" />
	</node>
	<node lat="59.89256944510712" lon="10.307205564007871" id="-19897">
		<tag k="alt_name" v="St. Hallvards kloster" />
		<tag k="name" v="Klosteret" />
		<tag k="place" v="isolated_dwelling" />
		<tag k="ssr:stedsnr" v="20164" />
	</node>
	<node lat="59.77198610980405" lon="10.221627774534584" id="-19898">
		<tag k="alt_name" v="Nordre Viulstad;Viulstad" />
		<tag k="fixme" v="multiple name tags, choose one and add the other to alt_name" />
		<tag k="name" v="Nordre Vivelstad;Vivelstad" />
		<tag k="place" v="farm" />
		<tag k="ssr:stedsnr" v="20339" />
	</node>
	<node lat="59.80125000222024" lon="10.224361115142019" id="-19899">
		<tag k="name" v="Vestre Renskaug" />
		<tag k="place" v="farm" />
		<tag k="ssr:stedsnr" v="20352" />
	</node>
	<node lat="59.806391668755694" lon="10.223927776704203" id="-19900">
		<tag k="name" v="Landfallenga" />
		<tag k="place" v="farm" />
		<tag k="ssr:stedsnr" v="20354" />
	</node>
	<node lat="59.91146110903634" lon="10.249327772773563" id="-19902">
		<tag k="name" v="Fagerlihytta" />
		<tag k="place" v="isolated_dwelling" />
		<tag k="ssr:stedsnr" v="21560" />
	</node>
	<node lat="59.901422219393865" lon="10.26235832827588" id="-19903">
		<tag k="name" v="Østre Solberg" />
		<tag k="place" v="farm" />
		<tag k="ssr:stedsnr" v="21577" />
	</node>
	<node lat="59.79368055802079" lon="10.225791668724069" id="-19905">
		<tag k="name" v="Østdal" />
		<tag k="place" v="farm" />
		<tag k="ssr:stedsnr" v="20774" />
	</node>
	<node lat="59.81249722182759" lon="10.256658336329366" id="-19909">
		<tag k="alt_name" v="Kimmerud" />
		<tag k="name" v="Kimerud" />
		<tag k="place" v="farm" />
		<tag k="ssr:stedsnr" v="21134" />
	</node>
	<node lat="59.89237222535276" lon="10.235377770870167" id="-19910">
		<tag k="name" v="Damli" />
		<tag k="place" v="farm" />
		<tag k="ssr:stedsnr" v="21191" />
	</node>
	<node lat="59.88071389164205" lon="10.235494441155607" id="-19911">
		<tag k="name" v="Rinen" />
		<tag k="place" v="isolated_dwelling" />
		<tag k="ssr:stedsnr" v="21223" />
	</node>
	<node lat="59.886530556551314" lon="10.229361102601944" id="-19912">
		<tag k="name" v="Fjellheim" />
		<tag k="place" v="farm" />
		<tag k="ssr:stedsnr" v="21225" />
	</node>
	<node lat="59.81770760041748" lon="10.31103124216679" id="-19913">
		<tag k="fixme" v="consider place=hamlet" />
		<tag k="name" v="Østre Grøstad" />
		<tag k="place" v="farm" />
		<tag k="ssr:stedsnr" v="21059" />
	</node>
	<node lat="59.81754722172805" lon="10.323091664579653" id="-19914">
		<tag k="name" v="Solvang" />
		<tag k="place" v="farm" />
		<tag k="ssr:stedsnr" v="21082" />
	</node>
	<node lat="59.87381389024482" lon="10.23041111199805" id="-19915">
		<tag k="name" v="Bråtan" />
		<tag k="place" v="isolated_dwelling" />
		<tag k="ssr:stedsnr" v="21161" />
	</node>
	<node lat="59.856024996671" lon="10.232124996266526" id="-19916">
		<tag k="name" v="Øvre Mørk" />
		<tag k="place" v="farm" />
		<tag k="ssr:stedsnr" v="21174" />
	</node>
	<node lat="59.81821389115672" lon="10.209741659805061" id="-19918">
		<tag k="name" v="Vestre Egge" />
		<tag k="place" v="farm" />
		<tag k="ssr:stedsnr" v="21416" />
	</node>
	<node lat="59.850538884949785" lon="10.236833326890915" id="-19919">
		<tag k="name" v="Roaldsrud" />
		<tag k="place" v="farm" />
		<tag k="ssr:stedsnr" v="21425" />
	</node>
	<node lat="59.77893888884951" lon="10.269894438294774" id="-19923">
		<tag k="name" v="Søndre Stokke" />
		<tag k="place" v="farm" />
		<tag k="ssr:stedsnr" v="21629" />
	</node>
	<node lat="59.794336108286885" lon="10.259841668948075" id="-19928">
		<tag k="alt_name" v="Lier" />
		<tag k="amenity" v="nursing_home" />
		<tag k="name" v="Lier sykehus" />
		<tag k="ssr:stedsnr" v="22122" />
	</node>
	<node lat="59.7463527812637" lon="10.290841664702063" id="-19929">
		<tag k="name" v="Nordre Gullaug" />
		<tag k="place" v="farm" />
		<tag k="ssr:stedsnr" v="21878" />
	</node>
	<node lat="59.8898333342873" lon="10.312436102346444" id="-19930">
		<tag k="name" v="Øvre Bakkerud" />
		<tag k="place" v="farm" />
		<tag k="ssr:stedsnr" v="21958" />
	</node>
	<node lat="59.757977780016446" lon="10.279677785142956" id="-19939">
		<tag k="name" v="Huseby" />
		<tag k="place" v="farm" />
		<tag k="ssr:stedsnr" v="22869" />
	</node>
	<node lat="59.78283611171859" lon="10.170094445810408" id="-19945">
		<tag k="name" v="Saueseterhytta" />
		<tag k="place" v="isolated_dwelling" />
		<tag k="ssr:stedsnr" v="59248" />
	</node>
	<node lat="59.817468654780086" lon="10.332926040211214" id="-19946">
		<tag k="fixme" v="consider place=hamlet" />
		<tag k="name" v="Sagvollen" />
		<tag k="place" v="farm" />
		<tag k="ssr:stedsnr" v="64227" />
	</node>
	<node lat="59.808572222952264" lon="10.208966661216571" id="-19947">
		<tag k="alt_name" v="Askvang" />
		<tag k="name" v="Ask" />
		<tag k="place" v="farm" />
		<tag k="ssr:stedsnr" v="64233" />
	</node>
	<node lat="59.80013055754289" lon="10.247108325603705" id="-19948">
		<tag k="alt_name" v="Overn-Utenga" />
		<tag k="name" v="Overnutenga" />
		<tag k="place" v="farm" />
		<tag k="ssr:stedsnr" v="64237" />
	</node>
	<node lat="59.84538610776333" lon="10.193899999041276" id="-19949">
		<tag k="fixme" v="multiple name tags, choose one and add the other to alt_name" />
		<tag k="name" v="Kokopp;Øvre Kokopp" />
		<tag k="place" v="farm" />
		<tag k="ssr:stedsnr" v="64244" />
	</node>
	<node lat="59.86037500142742" lon="10.28495834046038" id="-19950">
		<tag k="name" v="Rundtomåsen" />
		<tag k="place" v="farm" />
		<tag k="ssr:stedsnr" v="64254" />
	</node>
	<node lat="59.76139431965704" lon="10.270642156536875" id="-19951">
		<tag k="fixme" v="consider place=hamlet" />
		<tag k="name" v="Huseby" />
		<tag k="place" v="farm" />
		<tag k="ssr:stedsnr" v="64051" />
	</node>
	<node lat="59.775795681600194" lon="10.26508136308844" id="-19952">
		<tag k="fixme" v="consider place=hamlet" />
		<tag k="name" v="Stillesholmen" />
		<tag k="place" v="farm" />
		<tag k="ssr:stedsnr" v="65155" />
	</node>
	<node lat="59.796624998467315" lon="10.320811118137527" id="-19953">
		<tag k="name" v="Heggsjøbakken" />
		<tag k="place" v="isolated_dwelling" />
		<tag k="ssr:stedsnr" v="65129" />
	</node>
	<node lat="59.784382016062956" lon="10.27472026103869" id="-19954">
		<tag k="alt_name" v="Søndre Stokke" />
		<tag k="name" v="Stokke" />
		<tag k="place" v="hamlet" />
		<tag k="ssr:stedsnr" v="65135" />
	</node>
	<node lat="59.78650832914137" lon="10.244475007126065" id="-19955">
		<tag k="name" v="Lierbyen" />
		<tag k="place" v="village" />
		<tag k="ssr:stedsnr" v="65140" />
	</node>
	<node lat="59.78666983963195" lon="10.209413135603548" id="-19956">
		<tag k="fixme" v="consider place=hamlet" />
		<tag k="name" v="Gåserud" />
		<tag k="place" v="farm" />
		<tag k="ssr:stedsnr" v="65141" />
	</node>
	<node lat="59.8685101308846" lon="10.225521564710538" id="-19957">
		<tag k="name" v="Svere" />
		<tag k="place" v="hamlet" />
		<tag k="ssr:stedsnr" v="65251" />
	</node>
	<node lat="59.88111056853607" lon="10.303303944022737" id="-19961">
		<tag k="fixme" v="consider place=hamlet" />
		<tag k="name" v="Kornerud" />
		<tag k="place" v="farm" />
		<tag k="ssr:stedsnr" v="65338" />
	</node>
	<node lat="59.89706110803343" lon="10.317963893622943" id="-19963">
		<tag k="name" v="Setrang" />
		<tag k="place" v="isolated_dwelling" />
		<tag k="ssr:stedsnr" v="81159" />
	</node>
	<node lat="59.77969576319312" lon="10.22281334796" id="-19964">
		<tag k="fixme" v="consider place=hamlet" />
		<tag k="name" v="Frogner prestegård" />
		<tag k="place" v="farm" />
		<tag k="ssr:stedsnr" v="81376" />
	</node>
	<node lat="59.768813888149815" lon="10.212905551733645" id="-19965">
		<tag k="name" v="Reksla" />
		<tag k="place" v="isolated_dwelling" />
		<tag k="ssr:stedsnr" v="81377" />
	</node>
	<node lat="59.78562221996066" lon="10.226375003364112" id="-19966">
		<tag k="name" v="Saue" />
		<tag k="place" v="farm" />
		<tag k="ssr:stedsnr" v="81378" />
	</node>
	<node lat="59.80553611448967" lon="10.222438888466675" id="-19967">
		<tag k="name" v="Landfall" />
		<tag k="place" v="farm" />
		<tag k="ssr:stedsnr" v="81381" />
	</node>
	<node lat="59.818990861959385" lon="10.341062195346057" id="-19969">
		<tag k="fixme" v="consider place=hamlet" />
		<tag k="name" v="Heia" />
		<tag k="place" v="farm" />
		<tag k="ssr:stedsnr" v="82066" />
	</node>
	<node lat="59.83803332896488" lon="10.263866671568111" id="-19971">
		<tag k="name" v="Bakkeløkka" />
		<tag k="place" v="isolated_dwelling" />
		<tag k="ssr:stedsnr" v="82114" />
	</node>
	<node lat="59.81963888733512" lon="10.240075007720382" id="-19972">
		<tag k="leisure" v="pitch" />
		<tag k="name" v="Lyngåsbanen" />
		<tag k="ssr:stedsnr" v="82130" />
	</node>
	<node lat="59.870588889800295" lon="10.245674994217355" id="-19973">
		<tag k="name" v="Roaldsrud" />
		<tag k="place" v="locality" />
		<tag k="ssr:stedsnr" v="82151" />
	</node>
	<node lat="59.84187777568409" lon="10.229783339580019" id="-19975">
		<tag k="name" v="Søndre Meren" />
		<tag k="old_name" v="Søndre Mære" />
		<tag k="place" v="farm" />
		<tag k="ssr:stedsnr" v="82383" />
	</node>
	<node lat="59.81479444326567" lon="10.221744452567581" id="-19976">
		<tag k="name" v="Egge" />
		<tag k="place" v="farm" />
		<tag k="ssr:stedsnr" v="82372" />
	</node>
	<node lat="59.77270555375587" lon="10.283497216179212" id="-19978">
		<tag k="name" v="Sommerro" />
		<tag k="place" v="farm" />
		<tag k="ssr:stedsnr" v="82592" />
	</node>
	<node lat="59.87122518514149" lon="10.228031636581488" id="-19983">
		<tag k="fixme" v="consider place=hamlet" />
		<tag k="name" v="Vefferstad" />
		<tag k="place" v="farm" />
		<tag k="ssr:stedsnr" v="82820" />
	</node>
	<node lat="59.755955553649635" lon="10.284830547476405" id="-19984">
		<tag k="name" v="Hestebråtan" />
		<tag k="place" v="locality" />
		<tag k="ssr:stedsnr" v="82892" />
	</node>
	<node lat="59.72730527618766" lon="10.31146937874754" id="-19985">
		<tag k="fixme" v="consider place=hamlet" />
		<tag k="name" v="Lahell" />
		<tag k="place" v="farm" />
		<tag k="ssr:stedsnr" v="82876" />
	</node>
	<node lat="59.90302665838713" lon="10.266212688919985" id="-19989">
		<tag k="fixme" v="consider place=hamlet" />
		<tag k="name" v="Kirketeigen" />
		<tag k="place" v="farm" />
		<tag k="ssr:stedsnr" v="124282" />
	</node>
	<node lat="59.75372145480159" lon="10.258316811846534" id="-19990">
		<tag k="fixme" v="consider place=hamlet" />
		<tag k="name" v="Frydenlund" />
		<tag k="place" v="farm" />
		<tag k="ssr:stedsnr" v="125099" />
	</node>
	<node lat="59.830777781239355" lon="10.33206111524128" id="-19991">
		<tag k="name" v="Vestenga" />
		<tag k="place" v="farm" />
		<tag k="ssr:stedsnr" v="125219" />
	</node>
	<node lat="59.8885722208641" lon="10.23006110651751" id="-19992">
		<tag k="name" v="Kanada" />
		<tag k="place" v="hamlet" />
		<tag k="ssr:stedsnr" v="125388" />
	</node>
	<node lat="59.774347776756166" lon="10.252576139864514" id="-19994">
		<tag k="alt_name" v="Store Valle" />
		<tag k="name" v="Valle" />
		<tag k="place" v="hamlet" />
		<tag k="ssr:stedsnr" v="125167" />
	</node>
	<node lat="59.777931691793846" lon="10.194324104213186" id="-19995">
		<tag k="fixme" v="consider place=hamlet" />
		<tag k="name" v="Årkvisla" />
		<tag k="place" v="farm" />
		<tag k="ssr:stedsnr" v="125174" />
	</node>
	<node lat="59.82567499969578" lon="10.349305553915716" id="-19999">
		<tag k="name" v="Vestli" />
		<tag k="place" v="isolated_dwelling" />
		<tag k="ssr:stedsnr" v="142116" />
	</node>
	<node lat="59.799983337444594" lon="10.205408325903143" id="-20000">
		<tag k="amenity" v="nursing_home" />
		<tag k="name" v="Bergfløtt Behandlingssenter" />
		<tag k="ssr:stedsnr" v="141672" />
	</node>
	<node lat="59.78717499807261" lon="10.25304444273121" id="-20001">
		<tag k="name" v="Ila" />
		<tag k="place" v="farm" />
		<tag k="ssr:stedsnr" v="141704" />
	</node>
	<node lat="59.79105000021635" lon="10.223547219860302" id="-20002">
		<tag k="name" v="Helgerud" />
		<tag k="place" v="farm" />
		<tag k="ssr:stedsnr" v="141719" />
	</node>
	<node lat="59.82659722198843" lon="10.23113055619803" id="-20009">
		<tag k="loc_name" v="Buttedalsand" />
		<tag k="name" v="Lamyra" />
		<tag k="place" v="farm" />
		<tag k="ssr:stedsnr" v="142143" />
	</node>
	<node lat="59.85756388945891" lon="10.235938886871" id="-20010">
		<tag k="name" v="Årvoll" />
		<tag k="place" v="isolated_dwelling" />
		<tag k="ssr:stedsnr" v="142167" />
	</node>
	<node lat="59.817591665173204" lon="10.218249992931748" id="-20017">
		<tag k="fixme" v="consider place=hamlet" />
		<tag k="name" v="Egge" />
		<tag k="place" v="village" />
		<tag k="ssr:stedsnr" v="145835" />
	</node>
	<node lat="59.73837777735537" lon="10.303172214501515" id="-20018">
		<tag k="name" v="Huser" />
		<tag k="place" v="locality" />
		<tag k="ssr:stedsnr" v="161686" />
	</node>
	<node lat="59.7854538211804" lon="10.226268542188723" id="-20019">
		<tag k="name" v="Saue" />
		<tag k="place" v="farm" />
		<tag k="ssr:stedsnr" v="162718" />
	</node>
	<node lat="59.80037692511567" lon="10.263587958841185" id="-20021">
		<tag k="name" v="Auvi" />
		<tag k="place" v="hamlet" />
		<tag k="ssr:stedsnr" v="186125" />
	</node>
	<node lat="59.76707499743694" lon="10.21666667018528" id="-20023">
		<tag k="alt_name" v="Øgarden;Ødegården" />
		<tag k="fixme" v="multiple name tags, choose one and add the other to alt_name" />
		<tag k="name" v="Nordre Lian;Øgården" />
		<tag k="place" v="farm" />
		<tag k="ssr:stedsnr" v="185152" />
	</node>
	<node lat="59.8151086615666" lon="10.202659968462614" id="-20024">
		<tag k="fixme" v="consider place=hamlet" />
		<tag k="name" v="Justad" />
		<tag k="place" v="farm" />
		<tag k="ssr:stedsnr" v="185202" />
	</node>
	<node lat="59.81673333316427" lon="10.253413895791459" id="-20025">
		<tag k="name" v="Tallaksrud" />
		<tag k="place" v="farm" />
		<tag k="ssr:stedsnr" v="185208" />
	</node>
	<node lat="59.96788889200989" lon="10.279152777632921" id="-20026">
		<tag k="name" v="Hornstua" />
		<tag k="place" v="locality" />
		<tag k="ssr:stedsnr" v="185429" />
	</node>
	<node lat="59.77968610937543" lon="10.23748332686475" id="-20028">
		<tag k="alt_name" v="Nedre Frogner" />
		<tag k="name" v="Frogner" />
		<tag k="place" v="farm" />
		<tag k="ssr:stedsnr" v="186152" />
	</node>
	<node lat="59.78015771888863" lon="10.203367029195311" id="-20029">
		<tag k="name" v="Stein" />
		<tag k="place" v="farm" />
		<tag k="ssr:stedsnr" v="186156" />
	</node>
	<node lat="59.87772517350204" lon="10.297348053354906" id="-20030">
		<tag k="fixme" v="consider place=hamlet" />
		<tag k="name" v="Asdøl" />
		<tag k="place" v="farm" />
		<tag k="ssr:stedsnr" v="186354" />
	</node>
	<node lat="59.876113782882584" lon="10.269108656350689" id="-20031">
		<tag k="fixme" v="consider place=hamlet" />
		<tag k="name" v="Holtsmark" />
		<tag k="place" v="farm" />
		<tag k="ssr:stedsnr" v="186363" />
	</node>
	<node lat="59.947633337580946" lon="10.280497223444108" id="-20032">
		<tag k="name" v="Øverby" />
		<tag k="place" v="farm" />
		<tag k="ssr:stedsnr" v="186404" />
	</node>
	<node lat="59.93331944230305" lon="10.257933339533412" id="-20033">
		<tag k="name" v="Øverskogen" />
		<tag k="place" v="hamlet" />
		<tag k="ssr:stedsnr" v="186409" />
	</node>
	<node lat="59.95802813865838" lon="10.280922929666298" id="-20035">
		<tag k="fixme" v="consider place=hamlet" />
		<tag k="name" v="Horn" />
		<tag k="place" v="farm" />
		<tag k="ssr:stedsnr" v="186424" />
	</node>
	<node lat="59.78467222314046" lon="10.261108338303398" id="-20041">
		<tag k="name" v="Nordre Brastad" />
		<tag k="place" v="farm" />
		<tag k="ssr:stedsnr" v="202743" />
	</node>
	<node lat="59.80175000293259" lon="10.248083325479309" id="-20042">
		<tag k="name" v="Utenga" />
		<tag k="place" v="farm" />
		<tag k="ssr:stedsnr" v="202745" />
	</node>
	<node lat="59.852236114446804" lon="10.264688897218532" id="-20044">
		<tag k="alt_name" v="Opsalhaugen;Øvre Opsal;Øvre Oppsal" />
		<tag k="name" v="Oppsalhaugen" />
		<tag k="place" v="farm" />
		<tag k="ssr:stedsnr" v="203124" />
	</node>
	<node lat="59.824430559644036" lon="10.328605552355612" id="-20046">
		<tag k="name" v="Ekeberg" />
		<tag k="place" v="farm" />
		<tag k="ssr:stedsnr" v="203088" />
	</node>
	<node lat="59.8570138872836" lon="10.239836113279036" id="-20047">
		<tag k="name" v="Øvre Mørk" />
		<tag k="place" v="farm" />
		<tag k="ssr:stedsnr" v="203179" />
	</node>
	<node lat="59.86111666550556" lon="10.23408333575591" id="-20048">
		<tag k="name" v="Fagernes" />
		<tag k="place" v="farm" />
		<tag k="ssr:stedsnr" v="203182" />
	</node>
	<node lat="59.743926757658734" lon="10.291976073008096" id="-20050">
		<tag k="name" v="Gullaug" />
		<tag k="place" v="hamlet" />
		<tag k="ssr:stedsnr" v="203633" />
	</node>
	<node lat="59.870247221304446" lon="10.22581111616976" id="-20052">
		<tag k="name" v="Vestenga" />
		<tag k="place" v="isolated_dwelling" />
		<tag k="ssr:stedsnr" v="203824" />
	</node>
	<node lat="59.78543611499337" lon="10.184541659042848" id="-20053">
		<tag k="name" v="Pantegutten" />
		<tag k="place" v="isolated_dwelling" />
		<tag k="ssr:stedsnr" v="203683" />
	</node>
	<node lat="59.95054999586572" lon="10.26480000171987" id="-20059">
		<tag k="name" v="Elvehytta" />
		<tag k="place" v="isolated_dwelling" />
		<tag k="ssr:stedsnr" v="204570" />
	</node>
	<node lat="59.78084166759761" lon="10.248219439281398" id="-20064">
		<tag k="name" v="Nedre Hegg" />
		<tag k="place" v="farm" />
		<tag k="ssr:stedsnr" v="222669" />
	</node>
	<node lat="59.75568611226694" lon="10.226694453348125" id="-20065">
		<tag k="alt_name" v="Stoppen" />
		<tag k="name" v="Øvre Stoppen" />
		<tag k="place" v="farm" />
		<tag k="ssr:stedsnr" v="280644" />
	</node>
	<node lat="59.78865680272707" lon="10.267350855990278" id="-20069">
		<tag k="fixme" v="consider place=hamlet" />
		<tag k="name" v="Haslum" />
		<tag k="place" v="farm" />
		<tag k="ssr:stedsnr" v="307152" />
	</node>
	<node lat="59.784200000463585" lon="10.246977783529575" id="-20070">
		<tag k="name" v="Holmen" />
		<tag k="place" v="farm" />
		<tag k="ssr:stedsnr" v="307155" />
	</node>
	<node lat="59.790347665281324" lon="10.21896501186033" id="-20071">
		<tag k="fixme" v="consider place=hamlet" />
		<tag k="name" v="Jaren" />
		<tag k="place" v="farm" />
		<tag k="ssr:stedsnr" v="307158" />
	</node>
	<node lat="59.78314166309666" lon="10.207091669486534" id="-20072">
		<tag k="name" v="Eikhagan" />
		<tag k="place" v="farm" />
		<tag k="ssr:stedsnr" v="307159" />
	</node>
	<node lat="59.77582778022768" lon="10.230863892199446" id="-20074">
		<tag k="name" v="Hval" />
		<tag k="place" v="farm" />
		<tag k="ssr:stedsnr" v="307179" />
	</node>
	<node lat="59.780682683432026" lon="10.27709638252599" id="-20075">
		<tag k="fixme" v="consider place=hamlet" />
		<tag k="name" v="Solstad" />
		<tag k="place" v="farm" />
		<tag k="ssr:stedsnr" v="307183" />
	</node>
	<node lat="59.80848055633732" lon="10.328936110474391" id="-20076">
		<tag k="name" v="Kjenner" />
		<tag k="place" v="farm" />
		<tag k="ssr:stedsnr" v="307286" />
	</node>
	<node lat="59.848391669790914" lon="10.1919722223366" id="-20077">
		<tag k="name" v="Flåret" />
		<tag k="place" v="farm" />
		<tag k="ssr:stedsnr" v="307292" />
	</node>
	<node lat="59.725697222030156" lon="10.3138111049939" id="-20079">
		<tag k="name" v="Lahell" />
		<tag k="place" v="hamlet" />
		<tag k="ssr:stedsnr" v="306253" />
	</node>
	<node lat="59.76357929499978" lon="10.2512510333396" id="-20080">
		<tag k="fixme" v="consider place=hamlet" />
		<tag k="name" v="Moserud" />
		<tag k="place" v="farm" />
		<tag k="ssr:stedsnr" v="307078" />
	</node>
	<node lat="59.81940616843146" lon="10.268111884397518" id="-20081">
		<tag k="fixme" v="consider place=hamlet" />
		<tag k="name" v="Haugerud" />
		<tag k="place" v="farm" />
		<tag k="ssr:stedsnr" v="307233" />
	</node>
	<node lat="59.82027499819868" lon="10.328500005148532" id="-20082">
		<tag k="fixme" v="consider place=suburb, village or hamlet" />
		<tag k="name" v="Heia" />
		<tag k="place" v="quarter" />
		<tag k="ssr:stedsnr" v="307241" />
	</node>
	<node lat="59.9350151806582" lon="10.269139950477594" id="-20087">
		<tag k="alt_name" v="Søndre Røine" />
		<tag k="fixme" v="consider place=hamlet" />
		<tag k="name" v="Søndre Røyne" />
		<tag k="place" v="farm" />
		<tag k="ssr:stedsnr" v="307443" />
	</node>
	<node lat="59.93973947808303" lon="10.263214774243705" id="-20088">
		<tag k="alt_name" v="Røyne, vestre;Nordre Røine;Nordre Røyne" />
		<tag k="name" v="Vestre Røyne" />
		<tag k="place" v="farm" />
		<tag k="ssr:stedsnr" v="307385" />
	</node>
	<node lat="59.82583615638975" lon="10.345990553905168" id="-20091">
		<tag k="alt_name" v="Øvre Stabekk" />
		<tag k="name" v="Stabekk" />
		<tag k="place" v="hamlet" />
		<tag k="ssr:stedsnr" v="308711" />
	</node>
	<node lat="59.76496667092838" lon="10.235613892114166" id="-20093">
		<tag k="name" v="Sandaker" />
		<tag k="place" v="farm" />
		<tag k="ssr:stedsnr" v="324914" />
	</node>
	<node lat="59.7554527745828" lon="10.233333330921829" id="-20094">
		<tag k="alt_name" v="Stoppen" />
		<tag k="name" v="Nedre Stoppen" />
		<tag k="place" v="farm" />
		<tag k="ssr:stedsnr" v="324918" />
	</node>
	<node lat="59.83040000227866" lon="10.274869449694386" id="-20100">
		<tag k="name" v="Enga" />
		<tag k="place" v="farm" />
		<tag k="ssr:stedsnr" v="325034" />
	</node>
	<node lat="59.8268888889664" lon="10.333777769003287" id="-20101">
		<tag k="name" v="Rypebråtan" />
		<tag k="place" v="isolated_dwelling" />
		<tag k="ssr:stedsnr" v="325051" />
	</node>
	<node lat="59.88810555949771" lon="10.308174994223869" id="-20111">
		<tag k="name" v="Søndre Bakkerud" />
		<tag k="place" v="farm" />
		<tag k="ssr:stedsnr" v="325948" />
	</node>
	<node lat="59.937849415860036" lon="10.267877648188632" id="-20119">
		<tag k="alt_name" v="Nordre Røine" />
		<tag k="fixme" v="consider place=hamlet" />
		<tag k="name" v="Nordre Røyne" />
		<tag k="place" v="farm" />
		<tag k="ssr:stedsnr" v="341820" />
	</node>
	<node lat="59.764083331877266" lon="10.224269452494173" id="-20121">
		<tag k="name" v="Nordre Lian" />
		<tag k="place" v="farm" />
		<tag k="ssr:stedsnr" v="367059" />
	</node>
	<node lat="59.82907920528228" lon="10.239690079742255" id="-20122">
		<tag k="alt_name" v="Ytre Fuglerud" />
		<tag k="fixme" v="consider place=hamlet" />
		<tag k="name" v="Fuglerud" />
		<tag k="place" v="farm" />
		<tag k="ssr:stedsnr" v="368217" />
	</node>
	<node lat="59.86673721931847" lon="10.222567978247696" id="-20123">
		<tag k="fixme" v="consider place=hamlet" />
		<tag k="name" v="Gifstad" />
		<tag k="place" v="farm" />
		<tag k="ssr:stedsnr" v="368296" />
	</node>
	<node lat="59.86317406864744" lon="10.250966297863709" id="-20124">
		<tag k="fixme" v="consider place=hamlet" />
		<tag k="name" v="Kulberg" />
		<tag k="place" v="farm" />
		<tag k="ssr:stedsnr" v="368298" />
	</node>
	<node lat="59.883363887455445" lon="10.234330547649934" id="-20126">
		<tag k="name" v="Delekant" />
		<tag k="place" v="farm" />
		<tag k="ssr:stedsnr" v="368385" />
	</node>
	<node lat="59.78281666412536" lon="10.170144444466068" id="-20127">
		<tag k="historic" v="shieling" />
		<tag k="name" v="Sauesetra" />
		<tag k="place" v="isolated_dwelling" />
		<tag k="ssr:stedsnr" v="368155" />
	</node>
	<node lat="59.78124586344978" lon="10.271377970583078" id="-20128">
		<tag k="alt_name" v="Øvre Brastad" />
		<tag k="name" v="Brastad" />
		<tag k="place" v="hamlet" />
		<tag k="ssr:stedsnr" v="368163" />
	</node>
	<node lat="59.80253347441367" lon="10.199993563521247" id="-20129">
		<tag k="fixme" v="consider place=hamlet" />
		<tag k="name" v="Eriksrud" />
		<tag k="place" v="farm" />
		<tag k="ssr:stedsnr" v="368261" />
	</node>
	<node lat="59.80680277887462" lon="10.235591658547017" id="-20130">
		<tag k="name" v="Haslenes" />
		<tag k="place" v="farm" />
		<tag k="ssr:stedsnr" v="368266" />
	</node>
	<node lat="59.92174444292504" lon="10.289961111468518" id="-20132">
		<tag k="name" v="Steglehaugen" />
		<tag k="place" v="farm" />
		<tag k="ssr:stedsnr" v="368438" />
	</node>
	<node lat="59.93379721777663" lon="10.284652778784231" id="-20135">
		<tag k="name" v="Slutten" />
		<tag k="place" v="isolated_dwelling" />
		<tag k="ssr:stedsnr" v="368463" />
	</node>
	<node lat="59.7769086647137" lon="10.225623513854826" id="-20137">
		<tag k="fixme" v="consider place=hamlet" />
		<tag k="name" v="Hval" />
		<tag k="place" v="farm" />
		<tag k="ssr:stedsnr" v="384367" />
	</node>
	<node lat="59.78159444327546" lon="10.226211109866071" id="-20138">
		<tag k="name" v="Frognerlia" />
		<tag k="place" v="quarter" />
		<tag k="ssr:stedsnr" v="384369" />
	</node>
	<node lat="59.879783329325114" lon="10.302219445319594" id="-20139">
		<tag k="name" v="Kornerud" />
		<tag k="place" v="farm" />
		<tag k="ssr:stedsnr" v="385990" />
	</node>
	<node lat="59.83813055594158" lon="10.289938889152513" id="-20142">
		<tag k="alt_name" v="Søsetra" />
		<tag k="name" v="Sørsetra" />
		<tag k="place" v="locality" />
		<tag k="ssr:stedsnr" v="385131" />
	</node>
	<node lat="59.820163890829896" lon="10.336927771148982" id="-20143">
		<tag k="name" v="Solvang" />
		<tag k="old_name" v="Østre Solvang" />
		<tag k="place" v="farm" />
		<tag k="ssr:stedsnr" v="385083" />
	</node>
	<node lat="59.8315666695648" lon="10.34135833468811" id="-20144">
		<tag k="name" v="Rypeløkka" />
		<tag k="place" v="farm" />
		<tag k="ssr:stedsnr" v="385084" />
	</node>
	<node lat="59.84400278015092" lon="10.267661108471078" id="-20147">
		<tag k="name" v="Liverud" />
		<tag k="place" v="farm" />
		<tag k="ssr:stedsnr" v="385143" />
	</node>
	<node lat="59.83228610918558" lon="10.223505548585932" id="-20149">
		<tag k="name" v="Utenga" />
		<tag k="place" v="farm" />
		<tag k="ssr:stedsnr" v="385386" />
	</node>
	<node lat="59.93095833413923" lon="10.259616671189303" id="-20150">
		<tag k="name" v="Øvre Skustad" />
		<tag k="place" v="farm" />
		<tag k="ssr:stedsnr" v="385552" />
	</node>
	<node lat="59.920319448070195" lon="10.288405555891355" id="-20153">
		<tag k="name" v="Granum" />
		<tag k="place" v="isolated_dwelling" />
		<tag k="ssr:stedsnr" v="385490" />
	</node>
	<node lat="59.771661108678444" lon="10.190391675473117" id="-20156">
		<tag k="name" v="Arka" />
		<tag k="place" v="isolated_dwelling" />
		<tag k="ssr:stedsnr" v="385668" />
	</node>
	<node lat="59.76343888979778" lon="10.207458330085153" id="-20159">
		<tag k="fixme" v="consider tourism=alpine_hut or tourism=chalet" />
		<tag k="name" v="Stronghytta" />
		<tag k="ssr:stedsnr" v="385884" />
		<tag k="tourism" v="wilderness_hut" />
	</node>
	<node lat="59.76584406637514" lon="10.278059630161982" id="-20160">
		<tag k="fixme" v="consider place=hamlet" />
		<tag k="name" v="Hvalsenga" />
		<tag k="place" v="farm" />
		<tag k="ssr:stedsnr" v="385887" />
	</node>
	<node lat="59.891758334320436" lon="10.30497499769359" id="-20163">
		<tag k="name" v="Østre Enger" />
		<tag k="place" v="farm" />
		<tag k="ssr:stedsnr" v="385988" />
	</node>
	<node lat="59.76617222381661" lon="10.24844445053477" id="-20165">
		<tag k="name" v="Kjellstad" />
		<tag k="place" v="farm" />
		<tag k="ssr:stedsnr" v="385915" />
	</node>
	<node lat="59.82191466624568" lon="10.256785868169267" id="-20168">
		<tag k="fixme" v="consider place=hamlet" />
		<tag k="name" v="Buttedal" />
		<tag k="place" v="farm" />
		<tag k="ssr:stedsnr" v="428185" />
	</node>
	<node lat="59.81601111164836" lon="10.227669452180034" id="-20169">
		<tag k="name" v="Grøtte" />
		<tag k="place" v="isolated_dwelling" />
		<tag k="ssr:stedsnr" v="428196" />
	</node>
	<node lat="59.846141668597745" lon="10.21038333122198" id="-20171">
		<tag k="alt_name" v="Pettersbråtan" />
		<tag k="name" v="Petersrud" />
		<tag k="place" v="farm" />
		<tag k="ssr:stedsnr" v="428234" />
	</node>
	<node lat="59.84779722480333" lon="10.20949999676463" id="-20172">
		<tag k="name" v="Lia" />
		<tag k="place" v="farm" />
		<tag k="ssr:stedsnr" v="428236" />
	</node>
	<node lat="59.85888055418327" lon="10.296949999465461" id="-20174">
		<tag k="name" v="Moldkastet" />
		<tag k="place" v="isolated_dwelling" />
		<tag k="ssr:stedsnr" v="428242" />
	</node>
	<node lat="59.734488863916354" lon="10.312572867594413" id="-20175">
		<tag k="alt_name" v="Mellom Mørk" />
		<tag k="fixme" v="consider place=hamlet" />
		<tag k="name" v="Mørk" />
		<tag k="place" v="farm" />
		<tag k="ssr:stedsnr" v="428243" />
	</node>
	<node lat="59.83828838693731" lon="10.220836858205816" id="-20177">
		<tag k="fixme" v="consider place=hamlet" />
		<tag k="name" v="Øksnevoll" />
		<tag k="place" v="farm" />
		<tag k="ssr:stedsnr" v="429268" />
	</node>
	<node lat="59.88983610930828" lon="10.229036118395557" id="-20178">
		<tag k="name" v="Tomas" />
		<tag k="place" v="farm" />
		<tag k="ssr:stedsnr" v="429289" />
	</node>
	<node lat="59.87683949257805" lon="10.239034806317832" id="-20180">
		<tag k="alt_name" v="Ellevog" />
		<tag k="fixme" v="consider place=hamlet" />
		<tag k="name" v="Ellevåg" />
		<tag k="place" v="farm" />
		<tag k="ssr:stedsnr" v="429331" />
	</node>
	<node lat="59.88405821367795" lon="10.308350056107779" id="-20181">
		<tag k="fixme" v="consider place=hamlet" />
		<tag k="name" v="Tveiten" />
		<tag k="place" v="farm" />
		<tag k="ssr:stedsnr" v="429345" />
	</node>
	<node lat="59.916872218564954" lon="10.349480555311079" id="-20185">
		<tag k="alt_name" v="Toverud sæter" />
		<tag k="historic" v="shieling" />
		<tag k="name" v="Toverudsetra" />
		<tag k="place" v="isolated_dwelling" />
		<tag k="ssr:stedsnr" v="429937" />
	</node>
	<node lat="59.814469443593175" lon="10.314680548219698" id="-20192">
		<tag k="alt_name" v="Ytre Tveten" />
		<tag k="name" v="Ytre Tveiten" />
		<tag k="place" v="farm" />
		<tag k="ssr:stedsnr" v="446052" />
	</node>
	<node lat="59.82429721961687" lon="10.268947215674256" id="-20193">
		<tag k="alt_name" v="Hennumtorget" />
		<tag k="name" v="Hennumskroken" />
		<tag k="place" v="hamlet" />
		<tag k="ssr:stedsnr" v="446069" />
	</node>
	<node lat="59.830147219318675" lon="10.235400007529496" id="-20195">
		<tag k="name" v="Follestad" />
		<tag k="place" v="farm" />
		<tag k="ssr:stedsnr" v="446132" />
	</node>
	<node lat="59.8474749979539" lon="10.271880558678554" id="-20196">
		<tag k="name" v="Linløkka" />
		<tag k="place" v="farm" />
		<tag k="ssr:stedsnr" v="446147" />
	</node>
	<node lat="59.847497218867026" lon="10.264663883902443" id="-20197">
		<tag k="alt_name" v="Nedre Opsal" />
		<tag k="name" v="Nedre Oppsal" />
		<tag k="place" v="farm" />
		<tag k="ssr:stedsnr" v="446148" />
	</node>
	<node lat="59.82412221990631" lon="10.254333329577756" id="-20198">
		<tag k="name" v="Skjønhaug" />
		<tag k="place" v="isolated_dwelling" />
		<tag k="ssr:stedsnr" v="446153" />
	</node>
	<node lat="59.8403361108924" lon="10.25390833174047" id="-20203">
		<tag k="alt_name" v="Søre Nedre Sørsdal" />
		<tag k="name" v="Søndre Nedre Sørsdal" />
		<tag k="place" v="farm" />
		<tag k="ssr:stedsnr" v="446405" />
	</node>
	<node lat="59.81031111393437" lon="10.222602781563593" id="-20204">
		<tag k="fixme" v="multiple name tags, choose one and add the other to alt_name" />
		<tag k="name" v="Solum;Solhaug" />
		<tag k="place" v="farm" />
		<tag k="ssr:stedsnr" v="446418" />
	</node>
	<node lat="59.76828333592445" lon="10.29219444299015" id="-20205">
		<tag k="name" v="Nordvestre Sørum" />
		<tag k="place" v="farm" />
		<tag k="ssr:stedsnr" v="446595" />
	</node>
	<node lat="59.774722218889096" lon="10.270344441546529" id="-20208">
		<tag k="name" v="Reistadholmen" />
		<tag k="place" v="farm" />
		<tag k="ssr:stedsnr" v="446615" />
	</node>
	<node lat="59.72460149086532" lon="10.306591629525276" id="-20209">
		<tag k="name" v="Wilhelmsborg" />
		<tag k="place" v="farm" />
		<tag k="ssr:stedsnr" v="446860" />
	</node>
	<node lat="59.744502775320356" lon="10.290491673798819" id="-20210">
		<tag k="name" v="Ytre Mørk" />
		<tag k="place" v="farm" />
		<tag k="ssr:stedsnr" v="446862" />
	</node>
	<node lat="59.79006111178396" lon="10.275299995496113" id="-20212">
		<tag k="alt_name" v="Utsikten" />
		<tag k="name" v="Lierutsikten" />
		<tag k="place" v="isolated_dwelling" />
		<tag k="ssr:stedsnr" v="446691" />
	</node>
	<node lat="59.81697353726161" lon="10.303311620766237" id="-20222">
		<tag k="fixme" v="consider place=hamlet" />
		<tag k="name" v="Vestre Grøstad" />
		<tag k="place" v="farm" />
		<tag k="ssr:stedsnr" v="507034" />
	</node>
	<node lat="59.824874997188196" lon="10.286197220379394" id="-20224">
		<tag k="name" v="Hennummarka" />
		<tag k="place" v="quarter" />
		<tag k="ssr:stedsnr" v="505193" />
	</node>
	<node lat="59.776358337275596" lon="10.198544438965799" id="-20227">
		<tag k="name" v="Årkvisla" />
		<tag k="place" v="farm" />
		<tag k="ssr:stedsnr" v="506683" />
	</node>
	<node lat="59.778469440298636" lon="10.249072228421612" id="-20229">
		<tag k="name" v="Valle" />
		<tag k="place" v="farm" />
		<tag k="ssr:stedsnr" v="506731" />
	</node>
	<node lat="59.795494442812384" lon="10.236130547720016" id="-20230">
		<tag k="alt_name" v="Mellom Renskaug" />
		<tag k="name" v="Mellom-Renskaug" />
		<tag k="place" v="farm" />
		<tag k="ssr:stedsnr" v="506744" />
	</node>
	<node lat="59.76459444324189" lon="10.278074994099873" id="-20231">
		<tag k="alt_name" v="Homleskauen" />
		<tag k="name" v="Humleskauen" />
		<tag k="place" v="farm" />
		<tag k="ssr:stedsnr" v="506883" />
	</node>
	<node lat="59.83230277878349" lon="10.26539166428432" id="-20234">
		<tag k="name" v="Kleiva" />
		<tag k="place" v="isolated_dwelling" />
		<tag k="ssr:stedsnr" v="507090" />
	</node>
	<node lat="59.820949995627394" lon="10.25003888175442" id="-20235">
		<tag k="name" v="Bråten" />
		<tag k="place" v="farm" />
		<tag k="ssr:stedsnr" v="507099" />
	</node>
	<node lat="59.811122225457474" lon="10.151097220039146" id="-20238">
		<tag k="name" v="Jarenhytta" />
		<tag k="place" v="isolated_dwelling" />
		<tag k="ssr:stedsnr" v="507398" />
	</node>
	<node lat="59.90831666862856" lon="10.282127786565177" id="-20239">
		<tag k="name" v="Hørte" />
		<tag k="place" v="farm" />
		<tag k="ssr:stedsnr" v="507537" />
	</node>
	<node lat="59.77793333766072" lon="10.282991665201653" id="-20240">
		<tag k="alt_name" v="Reistad" />
		<tag k="name" v="Store Reistad" />
		<tag k="place" v="farm" />
		<tag k="ssr:stedsnr" v="507595" />
	</node>
	<node lat="59.8228055571355" lon="10.322950002568097" id="-20243">
		<tag k="fixme" v="consider place=suburb, village or hamlet" />
		<tag k="name" v="Ovenstadlia" />
		<tag k="place" v="quarter" />
		<tag k="ssr:stedsnr" v="507876" />
	</node>
	<node lat="59.888905553588444" lon="10.305819445432048" id="-20244">
		<tag k="name" v="Solli" />
		<tag k="place" v="locality" />
		<tag k="ssr:stedsnr" v="507958" />
	</node>
	<node lat="59.89217222635876" lon="10.296555560511607" id="-20245">
		<tag k="name" v="Vestre Enger" />
		<tag k="place" v="farm" />
		<tag k="ssr:stedsnr" v="507994" />
	</node>
	<node lat="59.90678055947967" lon="10.200425004187176" id="-20247">
		<tag k="name" v="Damstua" />
		<tag k="place" v="isolated_dwelling" />
		<tag k="ssr:stedsnr" v="508944" />
	</node>
	<node lat="59.77098610964903" lon="10.26717222176468" id="-20252">
		<tag k="name" v="Vikerholmen" />
		<tag k="place" v="farm" />
		<tag k="ssr:stedsnr" v="549180" />
	</node>
	<node lat="59.89891081384171" lon="10.283344861400876" id="-20254">
		<tag k="fixme" v="consider place=hamlet" />
		<tag k="name" v="Kirkerud" />
		<tag k="place" v="farm" />
		<tag k="ssr:stedsnr" v="549343" />
	</node>
	<node lat="59.92042499950568" lon="10.29546666327957" id="-20256">
		<tag k="name" v="Gampedalen" />
		<tag k="place" v="farm" />
		<tag k="ssr:stedsnr" v="550398" />
	</node>
	<node lat="59.87650555240945" lon="10.113336110022846" id="-20259">
		<tag k="name" v="Saga" />
		<tag k="place" v="isolated_dwelling" />
		<tag k="ssr:stedsnr" v="550340" />
	</node>
	<node lat="59.889252774681886" lon="10.264161117418684" id="-20260">
		<tag k="name" v="Sørli" />
		<tag k="place" v="farm" />
		<tag k="ssr:stedsnr" v="550349" />
	</node>
	<node lat="59.92577777988117" lon="10.274852779870765" id="-20263">
		<tag k="name" v="Sørbråtan" />
		<tag k="place" v="farm" />
		<tag k="ssr:stedsnr" v="550421" />
	</node>
	<node lat="59.7913388911355" lon="10.260461106556226" id="-20265">
		<tag k="name" v="Foss" />
		<tag k="place" v="farm" />
		<tag k="ssr:stedsnr" v="566755" />
	</node>
	<node lat="59.824977774464536" lon="10.338136118114747" id="-20267">
		<tag k="name" v="Skogli" />
		<tag k="place" v="isolated_dwelling" />
		<tag k="ssr:stedsnr" v="567090" />
	</node>
	<node lat="59.827050000746155" lon="10.267477779330958" id="-20268">
		<tag k="name" v="Øvre Hennum" />
		<tag k="place" v="farm" />
		<tag k="ssr:stedsnr" v="567049" />
	</node>
	<node lat="59.81569721906265" lon="10.269983329597308" id="-20269">
		<tag k="name" v="Haugerudbråtan" />
		<tag k="place" v="isolated_dwelling" />
		<tag k="ssr:stedsnr" v="567050" />
	</node>
	<node lat="59.81816667023299" lon="10.26524443577676" id="-20270">
		<tag k="alt_name" v="Stustad" />
		<tag k="name" v="Søndre Hennum" />
		<tag k="place" v="farm" />
		<tag k="ssr:stedsnr" v="567051" />
	</node>
	<node lat="59.82288611022349" lon="10.137288888361558" id="-20274">
		<tag k="name" v="Myrvang" />
		<tag k="place" v="farm" />
		<tag k="ssr:stedsnr" v="567445" />
	</node>
	<node lat="59.89730833031864" lon="10.278308328223233" id="-20276">
		<tag k="name" v="Østre Sylling" />
		<tag k="place" v="farm" />
		<tag k="ssr:stedsnr" v="567534" />
	</node>
	<node lat="59.94590000102356" lon="10.285638893782659" id="-20278">
		<tag k="name" v="Nordre Brevik" />
		<tag k="place" v="farm" />
		<tag k="ssr:stedsnr" v="567496" />
	</node>
	<node lat="59.9460083291774" lon="10.277477780706935" id="-20279">
		<tag k="name" v="Kleivbråtan" />
		<tag k="place" v="isolated_dwelling" />
		<tag k="ssr:stedsnr" v="567500" />
	</node>
	<node lat="59.75235833303146" lon="10.269474993071787" id="-20283">
		<tag k="name" v="Gilhus" />
		<tag k="place" v="farm" />
		<tag k="ssr:stedsnr" v="567887" />
	</node>
	<node lat="59.85931666364466" lon="10.32848611879737" id="-20284">
		<tag k="name" v="Kipen" />
		<tag k="place" v="isolated_dwelling" />
		<tag k="ssr:stedsnr" v="567972" />
	</node>
	<node lat="59.893191666852005" lon="10.27375555053056" id="-20285">
		<tag k="name" v="Grønlund" />
		<tag k="place" v="farm" />
		<tag k="ssr:stedsnr" v="567987" />
	</node>
	<node lat="59.79193888651477" lon="10.25870000316154" id="-20293">
		<tag k="amenity" v="school" />
		<tag k="name" v="Lierbyen skole" />
		<tag k="old_name" v="Foss skole" />
		<tag k="ssr:stedsnr" v="568852" />
	</node>
	<node lat="59.75663333307848" lon="10.293416658463341" id="-20296">
		<tag k="name" v="Kunterud" />
		<tag k="place" v="isolated_dwelling" />
		<tag k="ssr:stedsnr" v="585435" />
	</node>
	<node lat="59.867808331070414" lon="10.282766669479601" id="-20299">
		<tag k="alt_name" v="Nuen;Kittilsrud" />
		<tag k="name" v="Nuven" />
		<tag k="place" v="farm" />
		<tag k="ssr:stedsnr" v="599243" />
	</node>
	<node lat="59.821802780698135" lon="10.115566675359819" id="-20300">
		<tag k="fixme" v="consider tourism=alpine_hut or tourism=chalet" />
		<tag k="name" v="Garsjøkoia" />
		<tag k="ssr:stedsnr" v="606279" />
		<tag k="tourism" v="wilderness_hut" />
	</node>
	<node lat="59.792302776226244" lon="10.26475278446382" id="-20301">
		<tag k="fixme" v="consider place=hamlet" />
		<tag k="name" v="Lier" />
		<tag k="place" v="village" />
		<tag k="ssr:stedsnr" v="610144" />
	</node>
	<node lat="59.80798333018745" lon="10.22896388873011" id="-20302">
		<tag k="name" v="Snarum" />
		<tag k="place" v="farm" />
		<tag k="ssr:stedsnr" v="610285" />
	</node>
	<node lat="59.858870331691044" lon="10.255014452268972" id="-20303">
		<tag k="fixme" v="consider place=hamlet" />
		<tag k="name" v="Korsrud" />
		<tag k="place" v="farm" />
		<tag k="ssr:stedsnr" v="610297" />
	</node>
	<node lat="59.861136109631055" lon="10.278558334555976" id="-20304">
		<tag k="alt_name" v="Skonnarud" />
		<tag k="name" v="Skonarud" />
		<tag k="place" v="farm" />
		<tag k="ssr:stedsnr" v="610299" />
	</node>
	<node lat="59.866775003369234" lon="10.210280563538296" id="-20306">
		<tag k="name" v="Løkka" />
		<tag k="place" v="farm" />
		<tag k="ssr:stedsnr" v="610314" />
	</node>
	<node lat="59.797858401732576" lon="10.25140371638077" id="-20307">
		<tag k="fixme" v="consider place=hamlet" />
		<tag k="name" v="Gommerud" />
		<tag k="place" v="farm" />
		<tag k="ssr:stedsnr" v="610149" />
	</node>
	<node lat="59.81960555212564" lon="10.117030557529016" id="-20308">
		<tag k="fixme" v="consider tourism=alpine_hut or tourism=chalet" />
		<tag k="name" v="Solvang" />
		<tag k="ssr:stedsnr" v="610243" />
		<tag k="tourism" v="wilderness_hut" />
	</node>
	<node lat="59.849955556568574" lon="10.256463882910598" id="-20310">
		<tag k="name" v="Nerenga" />
		<tag k="place" v="isolated_dwelling" />
		<tag k="ssr:stedsnr" v="610344" />
	</node>
	<node lat="59.88187590442993" lon="10.255195637121155" id="-20314">
		<tag k="fixme" v="consider place=hamlet" />
		<tag k="name" v="Skjeggerud" />
		<tag k="place" v="farm" />
		<tag k="ssr:stedsnr" v="611368" />
	</node>
	<node lat="59.776547225499435" lon="10.266047223777312" id="-20315">
		<tag k="name" v="Bikkjeholmen" />
		<tag k="place" v="farm" />
		<tag k="ssr:stedsnr" v="627634" />
	</node>
	<node lat="59.78766111497744" lon="10.210405549214926" id="-20316">
		<tag k="name" v="Gåserud" />
		<tag k="place" v="farm" />
		<tag k="ssr:stedsnr" v="627743" />
	</node>
	<node lat="59.78104167070456" lon="10.19578610541248" id="-20317">
		<tag k="name" v="Finnebråtan" />
		<tag k="place" v="farm" />
		<tag k="ssr:stedsnr" v="627676" />
	</node>
	<node lat="59.786469442214184" lon="10.190463881302373" id="-20318">
		<tag k="name" v="Steinsbråtan" />
		<tag k="place" v="farm" />
		<tag k="ssr:stedsnr" v="627677" />
	</node>
	<node lat="59.75785833224438" lon="10.246036115742575" id="-20319">
		<tag k="name" v="Jensvoll" />
		<tag k="place" v="farm" />
		<tag k="ssr:stedsnr" v="627931" />
	</node>
	<node lat="59.766302781242516" lon="10.245008332884144" id="-20320">
		<tag k="name" v="Kjellstad" />
		<tag k="place" v="farm" />
		<tag k="ssr:stedsnr" v="627938" />
	</node>
	<node lat="59.94148333168835" lon="10.28514167468016" id="-20326">
		<tag k="name" v="Nygård" />
		<tag k="place" v="isolated_dwelling" />
		<tag k="ssr:stedsnr" v="628502" />
	</node>
	<node lat="59.821005554199694" lon="10.329947213942743" id="-20327">
		<tag k="amenity" v="school" />
		<tag k="name" v="Heia skole" />
		<tag k="ssr:stedsnr" v="628070" />
	</node>
	<node lat="59.8499833327766" lon="10.272352777657456" id="-20328">
		<tag k="name" v="Fagerbakken" />
		<tag k="place" v="isolated_dwelling" />
		<tag k="ssr:stedsnr" v="628088" />
	</node>
	<node lat="59.887749995760714" lon="10.239111118793984" id="-20330">
		<tag k="name" v="Ringen" />
		<tag k="place" v="isolated_dwelling" />
		<tag k="ssr:stedsnr" v="628153" />
	</node>
	<node lat="59.89327222590583" lon="10.245958341089604" id="-20331">
		<tag k="name" v="Bekkom" />
		<tag k="place" v="isolated_dwelling" />
		<tag k="ssr:stedsnr" v="628158" />
	</node>
	<node lat="59.77628333414075" lon="10.31412499321092" id="-20339">
		<tag k="name" v="Sørumvollen" />
		<tag k="place" v="locality" />
		<tag k="ssr:stedsnr" v="628586" />
	</node>
	<node lat="59.86971666592137" lon="10.216338884794375" id="-20344">
		<tag k="name" v="Bergan" />
		<tag k="place" v="isolated_dwelling" />
		<tag k="ssr:stedsnr" v="628782" />
	</node>
	<node lat="59.860131446027175" lon="10.307072169010501" id="-20345">
		<tag k="name" v="Haukelisetra" />
		<tag k="place" v="locality" />
		<tag k="ssr:stedsnr" v="628869" />
	</node>
	<node lat="59.747575000979296" lon="10.235108327234434" id="-20348">
		<tag k="name" v="Østre Nøste" />
		<tag k="place" v="isolated_dwelling" />
		<tag k="ssr:stedsnr" v="647924" />
	</node>
	<node lat="59.756038884812305" lon="10.262175001927579" id="-20355">
		<tag k="name" v="Huseby" />
		<tag k="place" v="isolated_dwelling" />
		<tag k="ssr:stedsnr" v="725295" />
	</node>
	<node lat="59.75566247157661" lon="10.241056287491551" id="-20356">
		<tag k="name" v="Høvik" />
		<tag k="place" v="farm" />
		<tag k="ssr:stedsnr" v="725855" />
	</node>
	<node lat="59.768319445567776" lon="10.224816672276617" id="-20357">
		<tag k="name" v="Haug" />
		<tag k="place" v="farm" />
		<tag k="ssr:stedsnr" v="731140" />
	</node>
	<node lat="59.904908333901034" lon="10.26599443578631" id="-20359">
		<tag k="alt_name" v="Skogli" />
		<tag k="name" v="Myrabråten" />
		<tag k="place" v="farm" />
		<tag k="ssr:stedsnr" v="731286" />
	</node>
	<node lat="59.96239722035549" lon="10.279799997788661" id="-20360">
		<tag k="alt_name" v="Horn" />
		<tag k="name" v="Nordre Horn" />
		<tag k="place" v="farm" />
		<tag k="ssr:stedsnr" v="731440" />
	</node>
	<node lat="59.780019440963365" lon="10.268047219432033" id="-20361">
		<tag k="name" v="Enga" />
		<tag k="place" v="farm" />
		<tag k="ssr:stedsnr" v="732181" />
	</node>
	<node lat="59.759405552976844" lon="10.25443055044366" id="-20362">
		<tag k="name" v="Solli" />
		<tag k="place" v="farm" />
		<tag k="ssr:stedsnr" v="732089" />
	</node>
	<node lat="59.8562843477073" lon="10.239797918432817" id="-20363">
		<tag k="alt_name" v="Øvre Mørk" />
		<tag k="fixme" v="consider place=hamlet" />
		<tag k="name" v="Mørk" />
		<tag k="place" v="farm" />
		<tag k="ssr:stedsnr" v="732274" />
	</node>
	<node lat="59.857191669609826" lon="10.195061102507136" id="-20364">
		<tag k="name" v="Grønfoss" />
		<tag k="place" v="isolated_dwelling" />
		<tag k="ssr:stedsnr" v="732281" />
	</node>
	<node lat="59.78808055880907" lon="10.184919448180427" id="-20366">
		<tag k="loc_name" v="Eikbråtan" />
		<tag k="name" v="Purkebråten" />
		<tag k="place" v="farm" />
		<tag k="ssr:stedsnr" v="732148" />
	</node>
	<node lat="59.82732927845743" lon="10.32117559566864" id="-20367">
		<tag k="alt_name" v="Ovenstad" />
		<tag k="fixme" v="consider place=hamlet" />
		<tag k="name" v="Onstad" />
		<tag k="place" v="farm" />
		<tag k="ssr:stedsnr" v="732229" />
	</node>
	<node lat="59.814624996778086" lon="10.238969448475695" id="-20368">
		<tag k="name" v="Sand" />
		<tag k="place" v="farm" />
		<tag k="ssr:stedsnr" v="732236" />
	</node>
	<node lat="59.89302417887181" lon="10.239202092793784" id="-20369">
		<tag k="alt_name" v="Vestre Solberg" />
		<tag k="name" v="Solberg" />
		<tag k="place" v="hamlet" />
		<tag k="ssr:stedsnr" v="732317" />
	</node>
	<node lat="59.89104444535846" lon="10.257813888833347" id="-20370">
		<tag k="alt_name" v="Østvoll Rinen" />
		<tag k="name" v="Østvoll" />
		<tag k="place" v="farm" />
		<tag k="ssr:stedsnr" v="732320" />
	</node>
	<node lat="59.89677473307165" lon="10.291224873932986" id="-20371">
		<tag k="fixme" v="consider place=hamlet" />
		<tag k="name" v="Svang" />
		<tag k="place" v="farm" />
		<tag k="ssr:stedsnr" v="732321" />
	</node>
	<node lat="59.891977750394304" lon="10.30146381471589" id="-20372">
		<tag k="alt_name" v="Midtre Enger" />
		<tag k="name" v="Enger" />
		<tag k="place" v="hamlet" />
		<tag k="ssr:stedsnr" v="732325" />
	</node>
	<node lat="59.91586666826832" lon="10.337105550410811" id="-20373">
		<tag k="alt_name" v="Ødegården" />
		<tag k="name" v="Øgarden" />
		<tag k="place" v="locality" />
		<tag k="ssr:stedsnr" v="732337" />
	</node>
	<node lat="59.83659722382569" lon="10.329455553721544" id="-20378">
		<tag k="alt_name" v="Bø øvre" />
		<tag k="name" v="Øvre Bø" />
		<tag k="place" v="farm" />
		<tag k="ssr:stedsnr" v="732294" />
	</node>
	<node lat="59.93224721801551" lon="10.285191661622331" id="-20380">
		<tag k="name" v="Langeland" />
		<tag k="place" v="farm" />
		<tag k="ssr:stedsnr" v="732455" />
	</node>
	<node lat="59.93129722396133" lon="10.359872229511804" id="-20385">
		<tag k="name" v="Lindeberget" />
		<tag k="place" v="isolated_dwelling" />
		<tag k="ssr:stedsnr" v="732945" />
	</node>
	<node lat="59.904152778378275" lon="10.26235555313805" id="-20387">
		<tag k="name" v="Fagerliåsen" />
		<tag k="place" v="quarter" />
		<tag k="ssr:stedsnr" v="748161" />
	</node>
	<node lat="59.77497499858837" lon="10.21271944697936" id="-20389">
		<tag k="name" v="Hvalsdalen" />
		<tag k="place" v="isolated_dwelling" />
		<tag k="ssr:stedsnr" v="748352" />
	</node>
	<node lat="59.887241670009885" lon="10.307591663892964" id="-20390">
		<tag k="name" v="Lappen" />
		<tag k="place" v="farm" />
		<tag k="ssr:stedsnr" v="749973" />
	</node>
	<node lat="59.795747221689645" lon="10.18123055475506" id="-20392">
		<tag k="name" v="Knutesetra" />
		<tag k="place" v="locality" />
		<tag k="ssr:stedsnr" v="748728" />
	</node>
	<node lat="59.76756110761973" lon="10.240808336995299" id="-20393">
		<tag k="name" v="Steinset" />
		<tag k="place" v="farm" />
		<tag k="ssr:stedsnr" v="748741" />
	</node>
	<node lat="59.80139722293858" lon="10.237380550194004" id="-20394">
		<tag k="name" v="Kikut" />
		<tag k="place" v="farm" />
		<tag k="ssr:stedsnr" v="748752" />
	</node>
	<node lat="59.83111944031646" lon="10.276266658306895" id="-20397">
		<tag k="name" v="Nordenga" />
		<tag k="place" v="farm" />
		<tag k="ssr:stedsnr" v="749040" />
	</node>
	<node lat="59.86161666269733" lon="10.229544435872512" id="-20398">
		<tag k="name" v="Østby" />
		<tag k="place" v="isolated_dwelling" />
		<tag k="ssr:stedsnr" v="749135" />
	</node>
	<node lat="59.872933335717306" lon="10.231161107271147" id="-20399">
		<tag k="name" v="Bergli" />
		<tag k="place" v="isolated_dwelling" />
		<tag k="ssr:stedsnr" v="749138" />
	</node>
	<node lat="59.842694441401804" lon="10.22249167525801" id="-20403">
		<tag k="name" v="Vestgård" />
		<tag k="place" v="farm" />
		<tag k="ssr:stedsnr" v="749427" />
	</node>
	<node lat="59.811616662323466" lon="10.218983334776649" id="-20404">
		<tag k="amenity" v="nursing_home" />
		<tag k="name" v="Frogner sykehjem" />
		<tag k="ssr:stedsnr" v="749430" />
	</node>
	<node lat="59.7903749964454" lon="10.269136114746567" id="-20407">
		<tag k="name" v="Fosshaugen" />
		<tag k="place" v="isolated_dwelling" />
		<tag k="ssr:stedsnr" v="749702" />
	</node>
	<node lat="59.926569441955436" lon="10.272963889857149" id="-20410">
		<tag k="name" v="Søndre Skustad" />
		<tag k="place" v="farm" />
		<tag k="ssr:stedsnr" v="749553" />
	</node>
	<node lat="59.8677861107461" lon="10.22554444840896" id="-20414">
		<tag k="name" v="Øvre Svere" />
		<tag k="place" v="farm" />
		<tag k="ssr:stedsnr" v="749840" />
	</node>
	<node lat="59.865372220069254" lon="10.298638894544471" id="-20415">
		<tag k="name" v="Tyrigløtt" />
		<tag k="place" v="isolated_dwelling" />
		<tag k="ssr:stedsnr" v="749936" />
	</node>
	<node lat="59.75313055199081" lon="10.227086115203688" id="-20417">
		<tag k="leisure" v="park" />
		<tag k="name" v="Parken" />
		<tag k="ssr:stedsnr" v="749896" />
	</node>
	<node lat="59.74917221855097" lon="10.317600001760141" id="-20421">
		<tag k="name" v="Askerud" />
		<tag k="place" v="farm" />
		<tag k="ssr:stedsnr" v="750836" />
	</node>
	<node lat="59.73878055930411" lon="10.288591666866816" id="-20430">
		<tag k="alt_name" v="Gullaug søndre" />
		<tag k="name" v="Søndre Gullaug" />
		<tag k="place" v="farm" />
		<tag k="ssr:stedsnr" v="783257" />
	</node>
	<node lat="59.816463893151145" lon="10.214869444407029" id="-20431">
		<tag k="alt_name" v="Egge mellom;Mellom Egge" />
		<tag k="name" v="Mellom-Egge" />
		<tag k="place" v="farm" />
		<tag k="ssr:stedsnr" v="787439" />
	</node>
	<node lat="59.75350127740001" lon="10.28662435061081" id="-20432">
		<tag k="alt_name" v="Søndre Linnes" />
		<tag k="name" v="Linnes" />
		<tag k="place" v="hamlet" />
		<tag k="ssr:stedsnr" v="792100" />
	</node>
	<node lat="59.760874999527516" lon="10.255780563581267" id="-20433">
		<tag k="name" v="Haga" />
		<tag k="place" v="farm" />
		<tag k="ssr:stedsnr" v="792079" />
	</node>
	<node lat="59.82250000105781" lon="10.208872218906421" id="-20434">
		<tag k="name" v="Myra" />
		<tag k="place" v="farm" />
		<tag k="ssr:stedsnr" v="792202" />
	</node>
	<node lat="59.81877893089744" lon="10.314700405981649" id="-20435">
		<tag k="fixme" v="consider place=hamlet" />
		<tag k="name" v="Gravdal" />
		<tag k="place" v="farm" />
		<tag k="ssr:stedsnr" v="792211" />
	</node>
	<node lat="59.81288280840628" lon="10.249660212634604" id="-20436">
		<tag k="fixme" v="consider place=hamlet" />
		<tag k="name" v="Hårberg" />
		<tag k="place" v="farm" />
		<tag k="ssr:stedsnr" v="792219" />
	</node>
	<node lat="59.83700555122368" lon="10.239788893219412" id="-20439">
		<tag k="name" v="Kortnes" />
		<tag k="place" v="farm" />
		<tag k="ssr:stedsnr" v="793301" />
	</node>
	<node lat="59.835038910230224" lon="10.192680360435086" id="-20441">
		<tag k="name" v="Dambekk" />
		<tag k="place" v="farm" />
		<tag k="ssr:stedsnr" v="793201" />
	</node>
	<node lat="59.82906891100728" lon="10.338151948827585" id="-20442">
		<tag k="fixme" v="consider place=hamlet" />
		<tag k="name" v="Rype" />
		<tag k="place" v="farm" />
		<tag k="ssr:stedsnr" v="793213" />
	</node>
	<node lat="59.819217950346406" lon="10.127687813400113" id="-20443">
		<tag k="fixme" v="consider tourism=alpine_hut or tourism=chalet" />
		<tag k="name" v="Eiksetra" />
		<tag k="ssr:stedsnr" v="793214" />
		<tag k="tourism" v="wilderness_hut" />
	</node>
	<node lat="59.908255603827435" lon="10.284595200909326" id="-20444">
		<tag k="fixme" v="consider place=hamlet" />
		<tag k="name" v="Hørte" />
		<tag k="place" v="farm" />
		<tag k="ssr:stedsnr" v="793352" />
	</node>
	<node lat="59.91959520796131" lon="10.339971400233" id="-20445">
		<tag k="fixme" v="consider place=hamlet" />
		<tag k="name" v="Toverud" />
		<tag k="place" v="farm" />
		<tag k="ssr:stedsnr" v="793431" />
	</node>
	<node lat="59.917326100940116" lon="10.263526617261093" id="-20446">
		<tag k="fixme" v="consider place=hamlet" />
		<tag k="name" v="Svarteberg" />
		<tag k="place" v="farm" />
		<tag k="ssr:stedsnr" v="793435" />
	</node>
	<node lat="59.92548348746844" lon="10.178789131637195" id="-20447">
		<tag k="alt_name" v="Rustan;Rudstaden" />
		<tag k="fixme" v="consider place=hamlet" />
		<tag k="name" v="Rustaden" />
		<tag k="place" v="farm" />
		<tag k="ssr:stedsnr" v="793436" />
	</node>
	<node lat="59.91571111292347" lon="10.284086117451135" id="-20449">
		<tag k="alt_name" v="Nordre Hørtebråtan" />
		<tag k="name" v="Svingen" />
		<tag k="place" v="farm" />
		<tag k="ssr:stedsnr" v="793438" />
	</node>
	<node lat="59.94108826022644" lon="10.297173530134478" id="-20450">
		<tag k="fixme" v="consider place=hamlet" />
		<tag k="name" v="Holmen" />
		<tag k="place" v="farm" />
		<tag k="ssr:stedsnr" v="793453" />
	</node>
	<node lat="59.92946656828737" lon="10.266606021626318" id="-20451">
		<tag k="name" v="Skustad" />
		<tag k="place" v="hamlet" />
		<tag k="ssr:stedsnr" v="793469" />
	</node>
	<node lat="59.767552774028886" lon="10.258463888564648" id="-20455">
		<tag k="name" v="Vestre Linnes" />
		<tag k="place" v="farm" />
		<tag k="ssr:stedsnr" v="809736" />
	</node>
	<node lat="59.81556111498224" lon="10.196808340610186" id="-20456">
		<tag k="name" v="Solspillet" />
		<tag k="place" v="farm" />
		<tag k="ssr:stedsnr" v="810375" />
	</node>
	<node lat="59.815013889650984" lon="10.282950006592479" id="-20457">
		<tag k="building" v="industrial" />
		<tag k="industrial" v="factory" />
		<tag k="name" v="Kværner Eureka" />
		<tag k="ssr:stedsnr" v="810057" />
	</node>
	<node lat="59.825511114074985" lon="10.263505549120357" id="-20458">
		<tag k="name" v="Nedre Hennum" />
		<tag k="place" v="farm" />
		<tag k="ssr:stedsnr" v="810066" />
	</node>
	<node lat="59.82169166863847" lon="10.272702780300408" id="-20459">
		<tag k="name" v="Søndre Hennum" />
		<tag k="place" v="farm" />
		<tag k="ssr:stedsnr" v="810069" />
	</node>
	<node lat="59.900288888598325" lon="10.311947226173364" id="-20460">
		<tag k="name" v="Tangen" />
		<tag k="place" v="isolated_dwelling" />
		<tag k="ssr:stedsnr" v="810545" />
	</node>
	<node lat="59.821688887089195" lon="10.279313882458398" id="-20462">
		<tag k="amenity" v="kindergarten" />
		<tag k="name" v="Hennumhagan barnehage" />
		<tag k="ssr:stedsnr" v="810027" />
	</node>
	<node lat="59.862274997439506" lon="10.21782499186116" id="-20463">
		<tag k="alt_name" v="Oddevall" />
		<tag k="amenity" v="school" />
		<tag k="name" v="Oddevall skole" />
		<tag k="old_name" v="Oddevald skole" />
		<tag k="ssr:stedsnr" v="810160" />
	</node>
	<node lat="59.855524997413646" lon="10.230222222328917" id="-20465">
		<tag k="name" v="Solhaug" />
		<tag k="place" v="isolated_dwelling" />
		<tag k="ssr:stedsnr" v="810164" />
	</node>
	<node lat="59.86684722521517" lon="10.238641660209057" id="-20466">
		<tag k="name" v="Brurberg" />
		<tag k="place" v="farm" />
		<tag k="ssr:stedsnr" v="810244" />
	</node>
	<node lat="59.85438888581074" lon="10.189897219638985" id="-20467">
		<tag k="name" v="Lund" />
		<tag k="place" v="locality" />
		<tag k="ssr:stedsnr" v="810248" />
	</node>
	<node lat="59.81988889217895" lon="10.132102783277192" id="-20471">
		<tag k="name" v="Garsjøbråtan" />
		<tag k="place" v="isolated_dwelling" />
		<tag k="ssr:stedsnr" v="810464" />
	</node>
	<node lat="59.778476132621" lon="10.284810614643245" id="-20473">
		<tag k="fixme" v="consider place=hamlet" />
		<tag k="name" v="Store Reistad" />
		<tag k="place" v="farm" />
		<tag k="ssr:stedsnr" v="810596" />
	</node>
	<node lat="59.81049999624295" lon="10.260827769292792" id="-20474">
		<tag k="name" v="Tranby" />
		<tag k="place" v="village" />
		<tag k="ssr:stedsnr" v="810684" />
	</node>
	<node lat="59.761036109263884" lon="10.24125833610298" id="-20477">
		<tag k="loc_name" v="Kjellstadhagan" />
		<tag k="name" v="Kjellstadhagen" />
		<tag k="place" v="farm" />
		<tag k="ssr:stedsnr" v="810899" />
	</node>
	<node lat="59.86501111156406" lon="10.314088888712584" id="-20478">
		<tag k="name" v="Klunken" />
		<tag k="place" v="isolated_dwelling" />
		<tag k="ssr:stedsnr" v="810900" />
	</node>
	<node lat="59.948197223494496" lon="10.349327780227574" id="-20482">
		<tag k="name" v="Dovrehytta" />
		<tag k="place" v="isolated_dwelling" />
		<tag k="ssr:stedsnr" v="811576" />
	</node>
	<node lat="59.75579166282613" lon="10.233205564166377" id="-20487">
		<tag k="alt_name" v="Stoppen" />
		<tag k="name" v="Nordre Stoppen" />
		<tag k="place" v="farm" />
		<tag k="ssr:stedsnr" v="829935" />
	</node>
	<node lat="59.75591388996958" lon="10.285202774387352" id="-20491">
		<tag k="name" v="Tuverud" />
		<tag k="place" v="locality" />
		<tag k="ssr:stedsnr" v="844945" />
	</node>
	<node lat="59.82170555576157" lon="10.228866672428335" id="-20492">
		<tag k="alt_name" v="Elverhøi" />
		<tag k="name" v="Elvehøy" />
		<tag k="place" v="farm" />
		<tag k="ssr:stedsnr" v="853181" />
	</node>
	<node lat="59.81476981882135" lon="10.263026569668941" id="-20493">
		<tag k="fixme" v="consider place=hamlet" />
		<tag k="name" v="Hallingstad" />
		<tag k="place" v="farm" />
		<tag k="ssr:stedsnr" v="853198" />
	</node>
	<node lat="59.81335555997716" lon="10.28938611251067" id="-20494">
		<tag k="name" v="Griserud" />
		<tag k="place" v="farm" />
		<tag k="ssr:stedsnr" v="853199" />
	</node>
	<node lat="59.774252782144316" lon="10.299561112122317" id="-20497">
		<tag k="name" v="Åsen" />
		<tag k="place" v="isolated_dwelling" />
		<tag k="ssr:stedsnr" v="854164" />
	</node>
	<node lat="59.82778333773789" lon="10.217261106005811" id="-20498">
		<tag k="name" v="Elvestad" />
		<tag k="place" v="farm" />
		<tag k="ssr:stedsnr" v="854176" />
	</node>
	<node lat="59.83139444524461" lon="10.291238888794199" id="-20499">
		<tag k="name" v="Snekkerstua" />
		<tag k="place" v="farm" />
		<tag k="ssr:stedsnr" v="854178" />
	</node>
	<node lat="59.891494383491114" lon="10.282687043211928" id="-20501">
		<tag k="fixme" v="consider place=hamlet" />
		<tag k="name" v="Valstad" />
		<tag k="place" v="farm" />
		<tag k="ssr:stedsnr" v="854291" />
	</node>
	<node lat="59.778197223137724" lon="10.23339167335712" id="-20509">
		<tag k="name" v="Solbakken" />
		<tag k="place" v="isolated_dwelling" />
		<tag k="ssr:stedsnr" v="870369" />
	</node>
	<node lat="59.78456666588734" lon="10.206536107215753" id="-20510">
		<tag k="name" v="Gåserud" />
		<tag k="place" v="farm" />
		<tag k="ssr:stedsnr" v="870735" />
	</node>
	<node lat="59.80160277729303" lon="10.213291675178523" id="-20511">
		<tag k="name" v="Langbråten" />
		<tag k="place" v="farm" />
		<tag k="ssr:stedsnr" v="870746" />
	</node>
	<node lat="59.84670833404257" lon="10.195625005148006" id="-20513">
		<tag k="name" v="Nedre Kokopp" />
		<tag k="place" v="farm" />
		<tag k="ssr:stedsnr" v="871400" />
	</node>
	<node lat="59.809122225158625" lon="10.324511118591108" id="-20514">
		<tag k="name" v="Skogli" />
		<tag k="place" v="farm" />
		<tag k="ssr:stedsnr" v="870574" />
	</node>
	<node lat="59.807822223968856" lon="10.148113884853458" id="-20515">
		<tag k="historic" v="shieling" />
		<tag k="name" v="Setervang" />
		<tag k="place" v="isolated_dwelling" />
		<tag k="ssr:stedsnr" v="870697" />
	</node>
	<node lat="59.81725833665781" lon="10.213444443149431" id="-20516">
		<tag k="name" v="Østre Grøstad" />
		<tag k="place" v="farm" />
		<tag k="ssr:stedsnr" v="871036" />
	</node>
	<node lat="59.81885833313024" lon="10.321544445443793" id="-20517">
		<tag k="name" v="Gravdal" />
		<tag k="place" v="farm" />
		<tag k="ssr:stedsnr" v="871063" />
	</node>
	<node lat="59.81862221820969" lon="10.346569441158506" id="-20518">
		<tag k="name" v="Nedre Stabekk" />
		<tag k="place" v="farm" />
		<tag k="ssr:stedsnr" v="871064" />
	</node>
	<node lat="59.82167499858165" lon="10.324491673417905" id="-20520">
		<tag k="alt_name" v="Onstad" />
		<tag k="name" v="Ovenstad" />
		<tag k="place" v="farm" />
		<tag k="ssr:stedsnr" v="871069" />
	</node>
	<node lat="59.81954444143669" lon="10.326616666799701" id="-20521">
		<tag k="building" v="industrial" />
		<tag k="industrial" v="factory" />
		<tag k="name" v="Tangen" />
		<tag k="ssr:stedsnr" v="871071" />
	</node>
	<node lat="59.82210555361431" lon="10.347030559586194" id="-20522">
		<tag k="name" v="Nedre Stabekk" />
		<tag k="place" v="farm" />
		<tag k="ssr:stedsnr" v="871076" />
	</node>
	<node lat="59.807219446477504" lon="10.195672224749723" id="-20530">
		<tag k="name" v="Søndre Ask" />
		<tag k="old_name" v="Aasen" />
		<tag k="place" v="farm" />
		<tag k="ssr:stedsnr" v="871673" />
	</node>
	<node lat="59.78940000373437" lon="10.197991669849054" id="-20532">
		<tag k="name" v="Plassløkka" />
		<tag k="place" v="locality" />
		<tag k="ssr:stedsnr" v="871679" />
	</node>
	<node lat="59.771611108071816" lon="10.290827783888801" id="-20533">
		<tag k="alt_name" v="Sørum" />
		<tag k="name" v="Østre Sørum" />
		<tag k="place" v="locality" />
		<tag k="ssr:stedsnr" v="871564" />
	</node>
	<node lat="59.87538888680221" lon="10.297277780610017" id="-20536">
		<tag k="fixme" v="multiple name tags, choose one and add the other to alt_name" />
		<tag k="name" v="Kittilsrud;Asdøldalen" />
		<tag k="place" v="farm" />
		<tag k="ssr:stedsnr" v="871952" />
	</node>
	<node lat="59.83060461159133" lon="10.314226982915347" id="-20550">
		<tag k="fixme" v="consider place=hamlet" />
		<tag k="name" v="Tømte" />
		<tag k="place" v="farm" />
		<tag k="ssr:stedsnr" v="1072712" />
	</node>
	<node lat="59.83423717811783" lon="10.32907519227808" id="-20551">
		<tag k="fixme" v="consider place=hamlet" />
		<tag k="name" v="Bø" />
		<tag k="place" v="farm" />
		<tag k="ssr:stedsnr" v="1072714" />
	</node>
	<node lat="59.81476495262542" lon="10.314589801599896" id="-20552">
		<tag k="fixme" v="consider place=hamlet" />
		<tag k="name" v="Tveiten" />
		<tag k="place" v="farm" />
		<tag k="ssr:stedsnr" v="1072715" />
	</node>
	<node lat="59.89753990106277" lon="10.274851798799212" id="-20553">
		<tag k="name" v="Sylling" />
		<tag k="place" v="hamlet" />
		<tag k="ssr:stedsnr" v="1072725" />
	</node>
	<node lat="59.90186335605534" lon="10.263732549383596" id="-20554">
		<tag k="name" v="Kyllerud" />
		<tag k="place" v="farm" />
		<tag k="ssr:stedsnr" v="1072726" />
	</node>
	<node lat="59.93638476381577" lon="10.297172574871716" id="-20555">
		<tag k="fixme" v="consider place=hamlet" />
		<tag k="name" v="Eik" />
		<tag k="place" v="farm" />
		<tag k="ssr:stedsnr" v="1072727" />
	</node>
	<node lat="59.93372590174602" lon="10.267176690845991" id="-20556">
		<tag k="name" v="Roa" />
		<tag k="place" v="farm" />
		<tag k="ssr:stedsnr" v="1072165" />
	</node>
	<node lat="59.749778365138745" lon="10.230985802765007" id="-20557">
		<tag k="name" v="Nøste" />
		<tag k="place" v="hamlet" />
		<tag k="ssr:stedsnr" v="1072688" />
	</node>
	<node lat="59.76424809136775" lon="10.224925785501389" id="-20558">
		<tag k="name" v="Lian" />
		<tag k="place" v="hamlet" />
		<tag k="ssr:stedsnr" v="1072700" />
	</node>
	<node lat="59.79626219000081" lon="10.235515195974795" id="-20559">
		<tag k="name" v="Renskog" />
		<tag k="place" v="hamlet" />
		<tag k="ssr:stedsnr" v="1072702" />
	</node>
	<node lat="59.82398900005078" lon="10.206422827002951" id="-20560">
		<tag k="fixme" v="consider place=hamlet" />
		<tag k="name" v="Ringstad" />
		<tag k="place" v="farm" />
		<tag k="ssr:stedsnr" v="1072703" />
	</node>
	<node lat="59.90929248016646" lon="10.25775939944839" id="-20563">
		<tag k="name" v="Kirketeigen" />
		<tag k="place" v="farm" />
		<tag k="ssr:stedsnr" v="1078081" />
	</node>
	<node lat="59.81958394900421" lon="10.12765279821361" id="-20565">
		<tag k="name" v="Gamlevollen" />
		<tag k="place" v="locality" />
		<tag k="ssr:stedsnr" v="1077913" />
	</node>
	<node lat="59.82183572038285" lon="10.133341324661293" id="-20566">
		<tag k="leisure" v="pitch" />
		<tag k="name" v="Martinsløkka" />
		<tag k="ssr:stedsnr" v="1077916" />
	</node>
	<node lat="59.86100238524737" lon="10.300781520735526" id="-20568">
		<tag k="name" v="Haukeliskogen" />
		<tag k="place" v="farm" />
		<tag k="ssr:stedsnr" v="1078680" />
	</node>
</osm>
