<?xml version="1.0" encoding="UTF-8"?>
<osm generator="osmapis" version="0.6">
	<node id="-204543" lat="58.9490722224" lon="10.0681055529">
		<tag k="name" v="Rakkebåene" />
		<tag k="old_name" v="Rakkebåane lydbøye" />
		<tag k="ssr:date" v="2018-01-09" />
		<tag k="ssr:gruppe" v="navigasjon" />
		<tag k="ssr:hovedgruppe" v="infrastruktur" />
		<tag k="ssr:stedsnr" v="183989" />
		<tag k="ssr:type" v="fyrlykt" />
	</node>
	<node id="-200699" lat="59.4209256697" lon="9.96475390473">
		<tag k="name" v="Brandsrudveien" />
		<tag k="ssr:date" v="2019-05-31" />
		<tag k="ssr:gruppe" v="veg" />
		<tag k="ssr:hovedgruppe" v="infrastruktur" />
		<tag k="ssr:stedsnr" v="1054327" />
		<tag k="ssr:type" v="adressenavn" />
	</node>
	<node id="-200698" lat="59.400982285" lon="9.95620688453">
		<tag k="name" v="Lågaveien" />
		<tag k="ssr:date" v="2019-05-31" />
		<tag k="ssr:gruppe" v="veg" />
		<tag k="ssr:hovedgruppe" v="infrastruktur" />
		<tag k="ssr:stedsnr" v="1054374" />
		<tag k="ssr:type" v="adressenavn" />
	</node>
	<node id="-200697" lat="59.3996536391" lon="9.96832134487">
		<tag k="name" v="Danmarksveien" />
		<tag k="ssr:date" v="2019-05-31" />
		<tag k="ssr:gruppe" v="veg" />
		<tag k="ssr:hovedgruppe" v="infrastruktur" />
		<tag k="ssr:stedsnr" v="1054372" />
		<tag k="ssr:type" v="adressenavn" />
	</node>
	<node id="-200696" lat="59.3990217385" lon="9.97177975433">
		<tag k="name" v="Karen Sogns vei" />
		<tag k="ssr:date" v="2019-05-31" />
		<tag k="ssr:gruppe" v="veg" />
		<tag k="ssr:hovedgruppe" v="infrastruktur" />
		<tag k="ssr:stedsnr" v="1054370" />
		<tag k="ssr:type" v="adressenavn" />
	</node>
	<node id="-200695" lat="59.401004386" lon="9.96175532828">
		<tag k="name" v="Sognsveien" />
		<tag k="ssr:date" v="2019-05-31" />
		<tag k="ssr:gruppe" v="veg" />
		<tag k="ssr:hovedgruppe" v="infrastruktur" />
		<tag k="ssr:stedsnr" v="1054360" />
		<tag k="ssr:type" v="adressenavn" />
	</node>
	<node id="-202486" lat="59.0075896678" lon="9.77448766866">
		<tag k="alt_name" v="Kjørtingen, sørvestre" />
		<tag k="name" v="Kjørtingen" />
		<tag k="ssr:date" v="2019-01-15" />
		<tag k="ssr:gruppe" v="navigasjon" />
		<tag k="ssr:hovedgruppe" v="infrastruktur" />
		<tag k="ssr:stedsnr" v="365311" />
		<tag k="ssr:type" v="fyrlykt" />
	</node>
	<node id="-203637" lat="59.0083670366" lon="9.77586889613">
		<tag k="alt_name" v="Kjørtingen, sørøstre" />
		<tag k="name" v="Kjørtingen" />
		<tag k="ssr:date" v="2019-01-15" />
		<tag k="ssr:gruppe" v="navigasjon" />
		<tag k="ssr:hovedgruppe" v="infrastruktur" />
		<tag k="ssr:stedsnr" v="889234" />
		<tag k="ssr:type" v="fyrlykt" />
	</node>
	<node id="-200692" lat="58.9750464259" lon="9.94832654551">
		<tag k="name" v="Bakkestien" />
		<tag k="ssr:date" v="2019-05-31" />
		<tag k="ssr:gruppe" v="veg" />
		<tag k="ssr:hovedgruppe" v="infrastruktur" />
		<tag k="ssr:stedsnr" v="1051554" />
		<tag k="ssr:type" v="adressenavn" />
	</node>
	<node id="-200691" lat="59.0502254958" lon="9.84064799003">
		<tag k="name" v="Mørjevegen" />
		<tag k="ssr:date" v="2019-05-31" />
		<tag k="ssr:gruppe" v="veg" />
		<tag k="ssr:hovedgruppe" v="infrastruktur" />
		<tag k="ssr:stedsnr" v="1051560" />
		<tag k="ssr:type" v="adressenavn" />
	</node>
	<node id="-203122" lat="59.0092310235" lon="9.77377624694">
		<tag k="alt_name" v="Kjørtingen, nordøstre" />
		<tag k="name" v="Kjørtingen" />
		<tag k="ssr:date" v="2019-01-15" />
		<tag k="ssr:gruppe" v="navigasjon" />
		<tag k="ssr:hovedgruppe" v="infrastruktur" />
		<tag k="ssr:stedsnr" v="828191" />
		<tag k="ssr:type" v="fyrlykt" />
	</node>
	<node id="-200689" lat="58.9841075525" lon="9.9950166901">
		<tag k="name" v="Hyttesone C" />
		<tag k="ssr:date" v="2019-05-31" />
		<tag k="ssr:gruppe" v="veg" />
		<tag k="ssr:hovedgruppe" v="infrastruktur" />
		<tag k="ssr:stedsnr" v="1051507" />
		<tag k="ssr:type" v="adressenavn" />
	</node>
	<node id="-200688" lat="58.9781414346" lon="9.98948673973">
		<tag k="name" v="Hyttesone B" />
		<tag k="ssr:date" v="2019-05-31" />
		<tag k="ssr:gruppe" v="veg" />
		<tag k="ssr:hovedgruppe" v="infrastruktur" />
		<tag k="ssr:stedsnr" v="1051506" />
		<tag k="ssr:type" v="adressenavn" />
	</node>
	<node id="-200687" lat="58.9973534429" lon="9.80668927232">
		<tag k="name" v="Hyttesone H" />
		<tag k="ssr:date" v="2019-05-31" />
		<tag k="ssr:gruppe" v="veg" />
		<tag k="ssr:hovedgruppe" v="infrastruktur" />
		<tag k="ssr:stedsnr" v="1051505" />
		<tag k="ssr:type" v="adressenavn" />
	</node>
	<node id="-202478" lat="59.0086990033" lon="9.77160513084">
		<tag k="alt_name" v="Kjørtingen, nordvestre" />
		<tag k="name" v="Kjørtingen" />
		<tag k="ssr:date" v="2019-01-15" />
		<tag k="ssr:gruppe" v="navigasjon" />
		<tag k="ssr:hovedgruppe" v="infrastruktur" />
		<tag k="ssr:stedsnr" v="707255" />
		<tag k="ssr:type" v="fyrlykt" />
	</node>
	<node id="-200685" lat="58.9781796819" lon="9.90610081925">
		<tag k="name" v="Hyttesone J" />
		<tag k="ssr:date" v="2019-05-31" />
		<tag k="ssr:gruppe" v="veg" />
		<tag k="ssr:hovedgruppe" v="infrastruktur" />
		<tag k="ssr:stedsnr" v="1051503" />
		<tag k="ssr:type" v="adressenavn" />
	</node>
	<node id="-200684" lat="58.963529948" lon="9.85724821927">
		<tag k="name" v="Hyttesone I" />
		<tag k="ssr:date" v="2019-05-31" />
		<tag k="ssr:gruppe" v="veg" />
		<tag k="ssr:hovedgruppe" v="infrastruktur" />
		<tag k="ssr:stedsnr" v="1051502" />
		<tag k="ssr:type" v="adressenavn" />
	</node>
	<node id="-202091" lat="58.9916888877" lon="9.83758611717">
		<tag k="name" v="Åmlirogna" />
		<tag k="ssr:date" v="2018-01-09" />
		<tag k="ssr:gruppe" v="navigasjon" />
		<tag k="ssr:hovedgruppe" v="infrastruktur" />
		<tag k="ssr:stedsnr" v="450265" />
		<tag k="ssr:type" v="fyrlykt" />
	</node>
	<node id="-200682" lat="58.9845871236" lon="9.96607831645">
		<tag k="name" v="Hyttesone K" />
		<tag k="ssr:date" v="2019-05-31" />
		<tag k="ssr:gruppe" v="veg" />
		<tag k="ssr:hovedgruppe" v="infrastruktur" />
		<tag k="ssr:stedsnr" v="1051500" />
		<tag k="ssr:type" v="adressenavn" />
	</node>
	<node id="-202601" lat="59.0082499965" lon="9.77210277578">
		<tag k="name" v="Geiterøy" />
		<tag k="ssr:date" v="2018-01-09" />
		<tag k="ssr:gruppe" v="navigasjon" />
		<tag k="ssr:hovedgruppe" v="infrastruktur" />
		<tag k="ssr:stedsnr" v="365314" />
		<tag k="ssr:type" v="fyrlykt" />
	</node>
	<node id="-200680" lat="59.0457294246" lon="10.0439459289">
		<tag k="name" v="Glassverktunet" />
		<tag k="ssr:date" v="2019-05-31" />
		<tag k="ssr:gruppe" v="veg" />
		<tag k="ssr:hovedgruppe" v="infrastruktur" />
		<tag k="ssr:stedsnr" v="1048706" />
		<tag k="ssr:type" v="adressenavn" />
	</node>
	<node id="-200679" lat="59.3040847562" lon="10.0137766072">
		<tag k="name" v="Heiaveien" />
		<tag k="ssr:date" v="2019-05-31" />
		<tag k="ssr:gruppe" v="veg" />
		<tag k="ssr:hovedgruppe" v="infrastruktur" />
		<tag k="ssr:stedsnr" v="1047213" />
		<tag k="ssr:type" v="adressenavn" />
	</node>
	<node id="-200678" lat="59.1642309755" lon="10.0348564397">
		<tag k="name" v="Allumveien" />
		<tag k="ssr:date" v="2019-05-31" />
		<tag k="ssr:gruppe" v="veg" />
		<tag k="ssr:hovedgruppe" v="infrastruktur" />
		<tag k="ssr:stedsnr" v="1047209" />
		<tag k="ssr:type" v="adressenavn" />
	</node>
	<node id="-200677" lat="59.1685296926" lon="9.899152001">
		<tag k="name" v="Bonnegolt hyttefelt" />
		<tag k="ssr:date" v="2019-05-31" />
		<tag k="ssr:gruppe" v="veg" />
		<tag k="ssr:hovedgruppe" v="infrastruktur" />
		<tag k="ssr:stedsnr" v="1047206" />
		<tag k="ssr:type" v="adressenavn" />
	</node>
	<node id="-200676" lat="59.0202085925" lon="10.1154687544">
		<tag k="name" v="Sandholmen" />
		<tag k="ssr:date" v="2019-05-31" />
		<tag k="ssr:gruppe" v="veg" />
		<tag k="ssr:hovedgruppe" v="infrastruktur" />
		<tag k="ssr:stedsnr" v="1046045" />
		<tag k="ssr:type" v="adressenavn" />
	</node>
	<node id="-200675" lat="59.0285457058" lon="10.101752596">
		<tag k="name" v="Kaupangholmen" />
		<tag k="ssr:date" v="2019-05-31" />
		<tag k="ssr:gruppe" v="veg" />
		<tag k="ssr:hovedgruppe" v="infrastruktur" />
		<tag k="ssr:stedsnr" v="1046051" />
		<tag k="ssr:type" v="adressenavn" />
	</node>
	<node id="-200674" lat="59.0304841652" lon="10.062125916">
		<tag k="name" v="Oterøya" />
		<tag k="ssr:date" v="2019-05-31" />
		<tag k="ssr:gruppe" v="veg" />
		<tag k="ssr:hovedgruppe" v="infrastruktur" />
		<tag k="ssr:stedsnr" v="1046049" />
		<tag k="ssr:type" v="adressenavn" />
	</node>
	<node id="-203105" lat="58.9982861137" lon="9.79256111266">
		<tag k="name" v="Arøy" />
		<tag k="ssr:date" v="2018-01-09" />
		<tag k="ssr:gruppe" v="navigasjon" />
		<tag k="ssr:hovedgruppe" v="infrastruktur" />
		<tag k="ssr:stedsnr" v="828193" />
		<tag k="ssr:type" v="fyrlykt" />
	</node>
	<node id="-200672" lat="59.0835441258" lon="10.184200605">
		<tag k="name" v="Haneholmveien" />
		<tag k="ssr:date" v="2019-05-31" />
		<tag k="ssr:gruppe" v="veg" />
		<tag k="ssr:hovedgruppe" v="infrastruktur" />
		<tag k="ssr:stedsnr" v="1045996" />
		<tag k="ssr:type" v="adressenavn" />
	</node>
	<node id="-200671" lat="59.0187763385" lon="10.1209522176">
		<tag k="name" v="Langøya" />
		<tag k="ssr:date" v="2019-05-31" />
		<tag k="ssr:gruppe" v="veg" />
		<tag k="ssr:hovedgruppe" v="infrastruktur" />
		<tag k="ssr:stedsnr" v="1045995" />
		<tag k="ssr:type" v="adressenavn" />
	</node>
	<node id="-200670" lat="59.0964036047" lon="10.1751249546">
		<tag k="name" v="Jåberggrenda" />
		<tag k="ssr:date" v="2019-05-31" />
		<tag k="ssr:gruppe" v="veg" />
		<tag k="ssr:hovedgruppe" v="infrastruktur" />
		<tag k="ssr:stedsnr" v="1045993" />
		<tag k="ssr:type" v="adressenavn" />
	</node>
	<node id="-200669" lat="59.050221074" lon="10.2216694671">
		<tag k="name" v="Spetalåsen" />
		<tag k="ssr:date" v="2019-05-31" />
		<tag k="ssr:gruppe" v="veg" />
		<tag k="ssr:hovedgruppe" v="infrastruktur" />
		<tag k="ssr:stedsnr" v="1045974" />
		<tag k="ssr:type" v="adressenavn" />
	</node>
	<node id="-200668" lat="59.0143538277" lon="10.1207509039">
		<tag k="name" v="Hoppøya" />
		<tag k="ssr:date" v="2019-05-31" />
		<tag k="ssr:gruppe" v="veg" />
		<tag k="ssr:hovedgruppe" v="infrastruktur" />
		<tag k="ssr:stedsnr" v="1046017" />
		<tag k="ssr:type" v="adressenavn" />
	</node>
	<node id="-200667" lat="59.0440611245" lon="10.094106063">
		<tag k="name" v="Guriskogen" />
		<tag k="ssr:date" v="2019-05-31" />
		<tag k="ssr:gruppe" v="veg" />
		<tag k="ssr:hovedgruppe" v="infrastruktur" />
		<tag k="ssr:stedsnr" v="1045902" />
		<tag k="ssr:type" v="adressenavn" />
	</node>
	<node id="-200666" lat="59.0198535665" lon="10.0991024211">
		<tag k="name" v="Malmøya" />
		<tag k="ssr:date" v="2019-05-31" />
		<tag k="ssr:gruppe" v="veg" />
		<tag k="ssr:hovedgruppe" v="infrastruktur" />
		<tag k="ssr:stedsnr" v="1045950" />
		<tag k="ssr:type" v="adressenavn" />
	</node>
	<node id="-200673" lat="59.025438398" lon="10.1017228973">
		<tag k="name" v="Tørbergholmen" />
		<tag k="ssr:date" v="2019-05-31" />
		<tag k="ssr:gruppe" v="veg" />
		<tag k="ssr:hovedgruppe" v="infrastruktur" />
		<tag k="ssr:stedsnr" v="1046048" />
		<tag k="ssr:type" v="adressenavn" />
	</node>
	<node id="-201686" lat="58.9859138878" lon="9.8032722197">
		<tag k="name" v="Fugløyskjær" />
		<tag k="ssr:date" v="2018-01-09" />
		<tag k="ssr:gruppe" v="navigasjon" />
		<tag k="ssr:hovedgruppe" v="infrastruktur" />
		<tag k="ssr:stedsnr" v="480520" />
		<tag k="ssr:type" v="lanterne" />
	</node>
	<node id="-202835" lat="58.9691540635" lon="10.1478382825">
		<tag k="alt_name" v="Svenner fyr" />
		<tag k="name" v="Svenner" />
		<tag k="old_name" v="Svenner Fyr" />
		<tag k="ssr:date" v="2018-10-18" />
		<tag k="ssr:gruppe" v="navigasjon" />
		<tag k="ssr:hovedgruppe" v="infrastruktur" />
		<tag k="ssr:stedsnr" v="911997" />
		<tag k="ssr:type" v="fyrstasjon" />
	</node>
	<node id="-201935" lat="59.0363888865" lon="10.064166665">
		<tag k="name" v="Østre Halsen" />
		<tag k="ssr:date" v="2018-01-09" />
		<tag k="ssr:gruppe" v="administrativeIndelinger" />
		<tag k="ssr:hovedgruppe" v="offentligAdministrasjon" />
		<tag k="ssr:stedsnr" v="815297" />
		<tag k="ssr:type" v="poststed" />
	</node>
	<node id="-200681" lat="59.0831828602" lon="9.98635122949">
		<tag k="name" v="Hyttesone M" />
		<tag k="ssr:date" v="2019-05-31" />
		<tag k="ssr:gruppe" v="veg" />
		<tag k="ssr:hovedgruppe" v="infrastruktur" />
		<tag k="ssr:stedsnr" v="1051499" />
		<tag k="ssr:type" v="adressenavn" />
	</node>
	<node id="-204357" lat="59.0291666645" lon="10.0626861179">
		<tag k="name" v="Oterøya" />
		<tag k="ssr:date" v="2018-01-09" />
		<tag k="ssr:gruppe" v="navigasjon" />
		<tag k="ssr:hovedgruppe" v="infrastruktur" />
		<tag k="ssr:stedsnr" v="43081" />
		<tag k="ssr:type" v="fyrlykt" />
	</node>
	<node id="-200694" lat="59.4007739658" lon="9.95889565249">
		<tag k="name" v="Storenga" />
		<tag k="ssr:date" v="2019-05-31" />
		<tag k="ssr:gruppe" v="veg" />
		<tag k="ssr:hovedgruppe" v="infrastruktur" />
		<tag k="ssr:stedsnr" v="1054358" />
		<tag k="ssr:type" v="adressenavn" />
	</node>
	<node id="-204225" lat="58.9962777775" lon="10.0615138873">
		<tag k="name" v="Ramsholmflu" />
		<tag k="ssr:date" v="2018-01-09" />
		<tag k="ssr:gruppe" v="navigasjon" />
		<tag k="ssr:hovedgruppe" v="infrastruktur" />
		<tag k="ssr:stedsnr" v="766881" />
		<tag k="ssr:type" v="lanterne" />
	</node>
	<node id="-203838" lat="58.9380805599" lon="9.93630832492">
		<tag k="alt_name" v="Tvistein fyr" />
		<tag k="name" v="Tvistein" />
		<tag k="ssr:date" v="2018-01-09" />
		<tag k="ssr:gruppe" v="navigasjon" />
		<tag k="ssr:hovedgruppe" v="infrastruktur" />
		<tag k="ssr:stedsnr" v="121921" />
		<tag k="ssr:type" v="fyrstasjon" />
	</node>
	<node id="-200693" lat="58.9979161243" lon="10.0353756854">
		<tag k="name" v="Stavern torg" />
		<tag k="ssr:date" v="2019-05-31" />
		<tag k="ssr:gruppe" v="veg" />
		<tag k="ssr:hovedgruppe" v="infrastruktur" />
		<tag k="ssr:stedsnr" v="1052847" />
		<tag k="ssr:type" v="adressenavn" />
	</node>
	<node id="-203067" lat="59.0168000039" lon="9.79434165907">
		<tag k="alt_name" v="Brudeskjer" />
		<tag k="name" v="Brudeskjær" />
		<tag k="ssr:date" v="2018-01-09" />
		<tag k="ssr:gruppe" v="navigasjon" />
		<tag k="ssr:hovedgruppe" v="infrastruktur" />
		<tag k="ssr:stedsnr" v="426255" />
		<tag k="ssr:type" v="lanterne" />
	</node>
	<node id="-200690" lat="59.0294440829" lon="9.90444375834">
		<tag k="name" v="Hyttesone A" />
		<tag k="ssr:date" v="2019-05-31" />
		<tag k="ssr:gruppe" v="veg" />
		<tag k="ssr:hovedgruppe" v="infrastruktur" />
		<tag k="ssr:stedsnr" v="1051509" />
		<tag k="ssr:type" v="adressenavn" />
	</node>
	<node id="-204586" lat="58.9932638874" lon="10.0446027724">
		<tag k="name" v="Vadholmen" />
		<tag k="ssr:date" v="2018-01-09" />
		<tag k="ssr:gruppe" v="navigasjon" />
		<tag k="ssr:hovedgruppe" v="infrastruktur" />
		<tag k="ssr:stedsnr" v="600937" />
		<tag k="ssr:type" v="fyrlykt" />
	</node>
	<node id="-203177" lat="59.0491277737" lon="10.0210027846">
		<tag k="name" v="Larvik havn" />
		<tag k="ssr:date" v="2018-01-09" />
		<tag k="ssr:gruppe" v="navigasjon" />
		<tag k="ssr:hovedgruppe" v="infrastruktur" />
		<tag k="ssr:stedsnr" v="87220" />
		<tag k="ssr:type" v="fyrlykt" />
	</node>
	<node id="-201119" lat="58.9873872218" lon="10.0522832593">
		<tag k="name" v="Stavernsodden" />
		<tag k="ssr:date" v="2018-12-05" />
		<tag k="ssr:gruppe" v="navigasjon" />
		<tag k="ssr:hovedgruppe" v="infrastruktur" />
		<tag k="ssr:stedsnr" v="850986" />
		<tag k="ssr:type" v="fyrstasjon" />
	</node>
	<node id="-201108" lat="58.9651305518" lon="9.86900555342">
		<tag k="name" v="Nevlunghavn" />
		<tag k="ssr:date" v="2018-01-09" />
		<tag k="ssr:gruppe" v="navigasjon" />
		<tag k="ssr:hovedgruppe" v="infrastruktur" />
		<tag k="ssr:stedsnr" v="223214" />
		<tag k="ssr:type" v="fyrlykt" />
	</node>
	<node id="-200686" lat="59.0645630463" lon="9.86720964303">
		<tag k="name" v="Hyttesone G" />
		<tag k="ssr:date" v="2019-05-31" />
		<tag k="ssr:gruppe" v="veg" />
		<tag k="ssr:hovedgruppe" v="infrastruktur" />
		<tag k="ssr:stedsnr" v="1051504" />
		<tag k="ssr:type" v="adressenavn" />
	</node>
	<node id="-201223" lat="59.0523361103" lon="10.0270083326">
		<tag k="loc_name" v="Larvik" />
		<tag k="name" v="Larvik kommune" />
		<tag k="ssr:date" v="2018-01-09" />
		<tag k="ssr:gruppe" v="administrativeIndelinger" />
		<tag k="ssr:hovedgruppe" v="offentligAdministrasjon" />
		<tag k="ssr:stedsnr" v="752263" />
		<tag k="ssr:type" v="kommune" />
	</node>
	<node id="-204929" lat="60.5908609473" lon="9.63819281559">
		<tag k="fixme" v="multiple name tags, choose one and add the other to alt_name" />
		<tag k="name" v="Austlandet;Østlandet" />
		<tag k="ssr:date" v="2018-01-09" />
		<tag k="ssr:gruppe" v="administrativeIndelinger" />
		<tag k="ssr:hovedgruppe" v="offentligAdministrasjon" />
		<tag k="ssr:stedsnr" v="974775" />
		<tag k="ssr:type" v="annenAdministrativInndeling" />
	</node>
	<node id="-200683" lat="59.0500228803" lon="9.92677632812">
		<tag k="name" v="Hyttesone L" />
		<tag k="ssr:date" v="2019-05-31" />
		<tag k="ssr:gruppe" v="veg" />
		<tag k="ssr:hovedgruppe" v="infrastruktur" />
		<tag k="ssr:stedsnr" v="1051501" />
		<tag k="ssr:type" v="adressenavn" />
	</node>
</osm>
