<?xml version="1.0" encoding="UTF-8"?>
<<<<<<< HEAD
<osm version="0.6" generator="osmapis">
	<node lat="65.28413888823594" lon="12.19100833771848" id="-4265">
=======
<osm generator="osmapis" version="0.6">
	<node id="-121596" lat="65.3228055532" lon="12.3167722122">
		<tag k="name" v="Frilstadstranda" />
		<tag k="natural" v="beach" />
		<tag k="ssr:stedsnr" v="56167" />
	</node>
	<node id="-121722" lat="65.42113889" lon="12.3335194552">
		<tag k="alt_name" v="Botnelva" />
		<tag k="name" v="Nordbotnelva" />
		<tag k="ssr:stedsnr" v="136427" />
		<tag k="waterway" v="river" />
	</node>
	<node id="-121593" lat="65.3604694449" lon="12.344205559">
		<tag k="name" v="Tjønna" />
		<tag k="natural" v="water" />
		<tag k="ssr:stedsnr" v="56115" />
	</node>
	<node id="-121591" lat="65.4086972216" lon="12.310841663">
		<tag k="name" v="Aunelva" />
		<tag k="ssr:stedsnr" v="55885" />
		<tag k="waterway" v="river" />
	</node>
	<node id="-121078" lat="65.2565666646" lon="12.1379527672">
		<tag k="name" v="Båtneset" />
		<tag k="natural" v="cape" />
		<tag k="ssr:stedsnr" v="481744" />
	</node>
	<node id="-122098" lat="65.3843666623" lon="12.3525055562">
		<tag k="name" v="Heimgårdselva" />
		<tag k="ssr:stedsnr" v="785006" />
		<tag k="waterway" v="stream" />
	</node>
	<node id="-121456" lat="65.3443666635" lon="12.214705562">
		<tag k="name" v="Leirbekken" />
		<tag k="ssr:stedsnr" v="786406" />
		<tag k="waterway" v="stream" />
	</node>
	<node id="-121199" lat="65.3724083338" lon="12.3629861182">
		<tag k="name" v="Almibekken" />
		<tag k="ssr:stedsnr" v="663028" />
		<tag k="waterway" v="stream" />
	</node>
	<node id="-121277" lat="65.2839666699" lon="12.2519999911">
		<tag k="name" v="Kjørsvikelva" />
		<tag k="ssr:stedsnr" v="541617" />
		<tag k="waterway" v="stream" />
	</node>
	<node id="-121452" lat="65.3422972183" lon="12.1990416755">
		<tag k="name" v="Keila" />
		<tag k="natural" v="water" />
		<tag k="ssr:stedsnr" v="908432" />
	</node>
	<node id="-121618" lat="65.3452972253" lon="12.2210472146">
		<tag k="name" v="Bøpøla" />
		<tag k="natural" v="water" />
		<tag k="ssr:stedsnr" v="58421" />
	</node>
	<node id="-122090" lat="65.3927749962" lon="12.3126444479">
		<tag k="name" v="Bjønndalsbekken" />
		<tag k="ssr:stedsnr" v="783590" />
		<tag k="waterway" v="stream" />
	</node>
	<node id="-120980" lat="65.3920361068" lon="12.3556305573">
		<tag k="name" v="Nordgårdsbekken" />
		<tag k="ssr:stedsnr" v="178874" />
		<tag k="waterway" v="stream" />
	</node>
	<node id="-121574" lat="65.2841388882" lon="12.1910083377">
>>>>>>> e1d4bc35ff8a6074a6f2e91616a996b547c36f15
		<tag k="name" v="Steinsvatnet" />
		<tag k="natural" v="water" />
		<tag k="ssr:stedsnr" v="15356" />
	</node>
<<<<<<< HEAD
	<node lat="65.35158055712768" lon="12.385469443728487" id="-4270">
		<tag k="name" v="Bjørklibekken" />
		<tag k="ssr:stedsnr" v="238119" />
		<tag k="waterway" v="stream" />
	</node>
	<node lat="65.36046944490734" lon="12.344205559008971" id="-4290">
		<tag k="name" v="Tjønna" />
=======
	<node id="-121352" lat="65.3603861094" lon="12.3671166557">
		<tag k="name" v="Elvan" />
		<tag k="ssr:stedsnr" v="663132" />
		<tag k="waterway" v="stream" />
	</node>
	<node id="-120931" lat="65.4065166686" lon="12.3494666583">
		<tag k="alt_name" v="Svarttjørna" />
		<tag k="name" v="Svartjønna" />
		<tag k="natural" v="water" />
		<tag k="ssr:stedsnr" v="257463" />
	</node>
	<node id="-121826" lat="65.3097472178" lon="12.4314888894">
		<tag k="name" v="Sildvikodden" />
		<tag k="natural" v="cape" />
		<tag k="ssr:stedsnr" v="357511" />
	</node>
	<node id="-121313" lat="65.3666416696" lon="12.4372888998">
		<tag k="name" v="Langnesodden" />
		<tag k="natural" v="cape" />
		<tag k="ssr:stedsnr" v="722040" />
	</node>
	<node id="-121360" lat="65.2160638918" lon="12.0535833413">
		<tag k="name" v="Storvikbekken" />
		<tag k="ssr:stedsnr" v="663853" />
		<tag k="waterway" v="stream" />
	</node>
	<node id="-122075" lat="65.3713055594" lon="12.4260111067">
		<tag k="alt_name" v="Svadbekken" />
		<tag k="name" v="Svabekken" />
		<tag k="ssr:stedsnr" v="743446" />
		<tag k="waterway" v="stream" />
	</node>
	<node id="-121580" lat="65.3671888916" lon="12.3228083372">
		<tag k="name" v="Kvernhusvatnet" />
		<tag k="natural" v="water" />
		<tag k="ssr:stedsnr" v="15476" />
	</node>
	<node id="-121173" lat="65.3448499999" lon="12.2881361006">
		<tag k="name" v="Lessfjellgrovelva" />
		<tag k="ssr:stedsnr" v="421029" />
		<tag k="waterway" v="stream" />
	</node>
	<node id="-121242" lat="65.4092277789" lon="12.3467833299">
		<tag k="name" v="Fjellelva" />
		<tag k="ssr:stedsnr" v="500488" />
		<tag k="waterway" v="stream" />
	</node>
	<node id="-121297" lat="65.286711114" lon="12.17067223">
		<tag k="name" v="Steinselva" />
		<tag k="ssr:stedsnr" v="560311" />
		<tag k="waterway" v="stream" />
	</node>
	<node id="-121679" lat="65.3577555599" lon="12.3794055549">
		<tag k="name" v="Svartbekken" />
		<tag k="ssr:stedsnr" v="117155" />
		<tag k="waterway" v="stream" />
	</node>
	<node id="-121549" lat="65.3481916694" lon="12.249205564">
		<tag k="name" v="Holandselva" />
		<tag k="ssr:stedsnr" v="968420" />
		<tag k="waterway" v="stream" />
	</node>
	<node id="-121804" lat="65.2642333344" lon="12.1854500026">
		<tag k="alt_name" v="Nedre Vågsvatnet" />
		<tag k="name" v="Nedrevågsvatnet" />
		<tag k="natural" v="water" />
		<tag k="ssr:stedsnr" v="318357" />
	</node>
	<node id="-122187" lat="65.3696027777" lon="12.439411117">
		<tag k="alt_name" v="Skardtjørna" />
		<tag k="name" v="Skardtjønna" />
		<tag k="natural" v="water" />
		<tag k="ssr:stedsnr" v="864462" />
	</node>
	<node id="-121034" lat="65.3458305568" lon="12.4586250055">
		<tag k="alt_name" v="Kromvatnet" />
		<tag k="name" v="Krumvatnet" />
		<tag k="natural" v="water" />
		<tag k="ssr:stedsnr" v="257404" />
	</node>
	<node id="-121673" lat="65.3597416654" lon="12.3768277685">
		<tag k="name" v="Teisdalselva" />
		<tag k="ssr:stedsnr" v="117133" />
		<tag k="waterway" v="stream" />
	</node>
	<node id="-121292" lat="65.3253694448" lon="12.2213583241">
		<tag k="name" v="Malmsvatnet" />
		<tag k="natural" v="water" />
		<tag k="ssr:stedsnr" v="560261" />
	</node>
	<node id="-121156" lat="65.3773666634" lon="12.2657583381">
		<tag k="name" v="Reinfjordbekken" />
		<tag k="ssr:stedsnr" v="299011" />
		<tag k="waterway" v="stream" />
	</node>
	<node id="-121155" lat="65.3779222267" lon="12.3377111039">
		<tag k="name" v="Aunfossen" />
		<tag k="natural" v="waterfall" />
		<tag k="ssr:stedsnr" v="299004" />
	</node>
	<node id="-121154" lat="65.3817638904" lon="12.3303972161">
		<tag k="name" v="Manndreperfossen" />
		<tag k="natural" v="waterfall" />
		<tag k="ssr:stedsnr" v="299003" />
	</node>
	<node id="-121281" lat="65.3395944451" lon="12.2782527739">
		<tag k="name" v="Langsanden" />
		<tag k="natural" v="beach" />
		<tag k="ssr:stedsnr" v="542164" />
	</node>
	<node id="-121662" lat="65.3888888856" lon="12.3062166619">
		<tag k="alt_name" v="Dalaelva" />
		<tag k="name" v="Dalelva" />
		<tag k="ssr:stedsnr" v="76492" />
		<tag k="waterway" v="river" />
	</node>
	<node id="-121661" lat="65.3602888912" lon="12.2736027781">
		<tag k="name" v="Grøttemselva" />
		<tag k="ssr:stedsnr" v="76422" />
		<tag k="waterway" v="river" />
	</node>
	<node id="-121147" lat="65.3440027811" lon="12.2679638934">
		<tag k="name" v="Holandsvatnet" />
		<tag k="natural" v="water" />
		<tag k="ssr:stedsnr" v="500425" />
		<tag k="water" v="lake" />
	</node>
	<node id="-121786" lat="65.4110250027" lon="12.315836103">
		<tag k="name" v="Forselva" />
		<tag k="ssr:stedsnr" v="317387" />
		<tag k="waterway" v="stream" />
	</node>
	<node id="-121913" lat="65.2483416661" lon="12.1393388958">
		<tag k="name" v="Skrapvika" />
		<tag k="natural" v="bay" />
		<tag k="ssr:stedsnr" v="421746" />
	</node>
	<node id="-121912" lat="65.2455777792" lon="12.1278111136">
		<tag k="name" v="Klakken" />
		<tag k="natural" v="shoal" />
		<tag k="place" v="locality" />
		<tag k="ssr:stedsnr" v="421745" />
	</node>
	<node id="-121911" lat="65.2408833372" lon="12.1312555566">
		<tag k="name" v="Djupdalsbekken" />
		<tag k="ssr:stedsnr" v="421730" />
		<tag k="waterway" v="stream" />
	</node>
	<node id="-121143" lat="65.2657055587" lon="12.1959444411">
		<tag k="name" v="Øvervågsvatnet" />
>>>>>>> e1d4bc35ff8a6074a6f2e91616a996b547c36f15
		<tag k="natural" v="water" />
		<tag k="ssr:stedsnr" v="56115" />
	</node>
<<<<<<< HEAD
	<node lat="65.32280555324051" lon="12.316772212242478" id="-4296">
		<tag k="name" v="Frilstadstranda" />
		<tag k="natural" v="beach" />
		<tag k="ssr:stedsnr" v="56167" />
	</node>
	<node lat="65.25718333312153" lon="12.146361116397795" id="-4300">
		<tag k="name" v="Mølnhusvika" />
		<tag k="natural" v="bay" />
		<tag k="ssr:stedsnr" v="56768" />
	</node>
	<node lat="65.4211388900108" lon="12.333519455163582" id="-4343">
		<tag k="alt_name" v="Botnelva" />
		<tag k="name" v="Nordbotnelva" />
		<tag k="ssr:stedsnr" v="136427" />
		<tag k="waterway" v="river" />
	</node>
	<node lat="65.37037222460155" lon="12.34589721896888" id="-4365">
		<tag k="name" v="Fjelldalsbekken" />
		<tag k="ssr:stedsnr" v="178007" />
		<tag k="waterway" v="stream" />
	</node>
	<node lat="65.3246194475084" lon="12.411327773040998" id="-4386">
		<tag k="name" v="Jonet" />
=======
	<node id="-120969" lat="65.3703722246" lon="12.345897219">
		<tag k="name" v="Fjelldalsbekken" />
		<tag k="ssr:stedsnr" v="178007" />
		<tag k="waterway" v="stream" />
	</node>
	<node id="-121012" lat="65.3754833304" lon="12.34017778">
		<tag k="name" v="Aunelva" />
		<tag k="ssr:stedsnr" v="439386" />
		<tag k="waterway" v="stream" />
	</node>
	<node id="-122163" lat="65.3787583301" lon="12.3035972111">
		<tag k="name" v="Skiftesbekken" />
		<tag k="ssr:stedsnr" v="846040" />
		<tag k="waterway" v="stream" />
	</node>
	<node id="-122034" lat="65.3953055585" lon="12.3009694369">
		<tag k="name" v="Røyrmarkelva" />
		<tag k="ssr:stedsnr" v="621478" />
		<tag k="waterway" v="river" />
	</node>
	<node id="-122161" lat="65.3649444483" lon="12.2785888835">
		<tag k="name" v="Grøttemsbekken" />
		<tag k="ssr:stedsnr" v="846035" />
		<tag k="waterway" v="stream" />
	</node>
	<node id="-121776" lat="65.3316805589" lon="12.2901638994">
		<tag k="name" v="Frillstadelva" />
		<tag k="ssr:stedsnr" v="197395" />
		<tag k="waterway" v="stream" />
	</node>
	<node id="-121748" lat="65.2610361107" lon="12.1505500047">
		<tag k="name" v="Sotbekken" />
		<tag k="ssr:stedsnr" v="178733" />
		<tag k="waterway" v="stream" />
	</node>
	<node id="-121134" lat="65.3538583375" lon="12.3924305499">
		<tag k="fixme" v="multiple name tags, choose one and add the other to alt_name" />
		<tag k="name" v="Halsvatnet;Ner Teisdalsvatnet" />
>>>>>>> e1d4bc35ff8a6074a6f2e91616a996b547c36f15
		<tag k="natural" v="water" />
		<tag k="ssr:stedsnr" v="197312" />
	</node>
<<<<<<< HEAD
	<node lat="65.34583055677041" lon="12.4586250054903" id="-4424">
		<tag k="alt_name" v="Kromvatnet" />
		<tag k="name" v="Krumvatnet" />
		<tag k="natural" v="water" />
		<tag k="ssr:stedsnr" v="257404" />
	</node>
	<node lat="65.40651666863306" lon="12.349466658338995" id="-4435">
		<tag k="alt_name" v="Svarttjørna" />
		<tag k="name" v="Svartjønna" />
=======
	<node id="-121771" lat="65.3046249967" lon="12.3651666559">
		<tag k="name" v="Olderbakkelva" />
		<tag k="ssr:stedsnr" v="197349" />
		<tag k="waterway" v="stream" />
	</node>
	<node id="-122026" lat="65.303236111" lon="12.2153916698">
		<tag k="alt_name" v="Gjerdevatnet" />
		<tag k="name" v="Gjerdvatnet" />
>>>>>>> e1d4bc35ff8a6074a6f2e91616a996b547c36f15
		<tag k="natural" v="water" />
		<tag k="ssr:stedsnr" v="257463" />
	</node>
<<<<<<< HEAD
	<node lat="65.38176389038816" lon="12.33039721611615" id="-4444">
		<tag k="name" v="Manndreperfossen" />
		<tag k="natural" v="waterfall" />
		<tag k="ssr:stedsnr" v="299003" />
	</node>
	<node lat="65.37792222674533" lon="12.33771110391693" id="-4445">
		<tag k="name" v="Aunfossen" />
		<tag k="natural" v="waterfall" />
		<tag k="ssr:stedsnr" v="299004" />
	</node>
	<node lat="65.37736666342069" lon="12.265758338108618" id="-4446">
		<tag k="name" v="Reinfjordbekken" />
		<tag k="ssr:stedsnr" v="299011" />
		<tag k="waterway" v="stream" />
	</node>
	<node lat="65.30974721778813" lon="12.431488889389266" id="-4477">
		<tag k="name" v="Sildvikodden" />
		<tag k="natural" v="cape" />
		<tag k="ssr:stedsnr" v="357511" />
	</node>
	<node lat="65.25599999851426" lon="12.177402773387186" id="-4500">
		<tag k="name" v="Svartvatnet" />
=======
	<node id="-120872" lat="65.3515805571" lon="12.3854694437">
		<tag k="name" v="Bjørklibekken" />
		<tag k="ssr:stedsnr" v="238119" />
		<tag k="waterway" v="stream" />
	</node>
	<node id="-121383" lat="65.3560805596" lon="12.3845333446">
		<tag k="alt_name" v="Øver-Teisdalsvatnet" />
		<tag k="name" v="Teistdalsvatnet" />
		<tag k="natural" v="water" />
		<tag k="ssr:stedsnr" v="682355" />
	</node>
	<node id="-120870" lat="65.2571833331" lon="12.1463611164">
		<tag k="name" v="Mølnhusvika" />
		<tag k="natural" v="bay" />
		<tag k="ssr:stedsnr" v="56768" />
	</node>
	<node id="-122021" lat="65.2549277755" lon="12.1217916592">
		<tag k="name" v="Straumen" />
		<tag k="ssr:stedsnr" v="621269" />
		<tag k="waterway" v="stream" />
	</node>
	<node id="-122148" lat="65.3621083343" lon="12.223752788">
		<tag k="name" v="Øyvatnet" />
>>>>>>> e1d4bc35ff8a6074a6f2e91616a996b547c36f15
		<tag k="natural" v="water" />
		<tag k="ssr:stedsnr" v="378268" />
	</node>
<<<<<<< HEAD
	<node lat="65.25656666463051" lon="12.137952767224116" id="-4511">
		<tag k="name" v="Båtneset" />
		<tag k="natural" v="cape" />
		<tag k="ssr:stedsnr" v="481744" />
	</node>
	<node lat="65.24557777918787" lon="12.127811113571587" id="-4540">
		<tag k="name" v="Klakken" />
		<tag k="natural" v="shoal" />
=======
	<node id="-121889" lat="65.4226861119" lon="11.2416416714">
		<tag k="alt_name" v="Vestbrøtrøra" />
		<tag k="name" v="Vestbrotrøyra" />
>>>>>>> e1d4bc35ff8a6074a6f2e91616a996b547c36f15
		<tag k="place" v="locality" />
		<tag k="ssr:stedsnr" v="421745" />
	</node>
<<<<<<< HEAD
	<node lat="65.24834166609405" lon="12.139338895814058" id="-4541">
		<tag k="name" v="Skrapvika" />
		<tag k="natural" v="bay" />
		<tag k="ssr:stedsnr" v="421746" />
	</node>
	<node lat="65.25235277464671" lon="12.132002787382566" id="-4568">
		<tag k="alt_name" v="Hopen" />
		<tag k="name" v="Sundshopen" />
		<tag k="natural" v="water" />
		<tag k="ssr:stedsnr" v="681250" />
		<tag k="water" v="lake" />
	</node>
	<node lat="65.40378889081245" lon="12.368419439818028" id="-4589">
		<tag k="name" v="Mellomskardvatnet" />
=======
	<node id="-121248" lat="65.2284916625" lon="11.9938555565">
		<tag k="name" v="Tindskardvatnet" />
		<tag k="natural" v="water" />
		<tag k="ssr:stedsnr" v="500870" />
	</node>
	<node id="-121119" lat="65.3456749981" lon="12.1800277712">
		<tag k="name" v="Vallaråa" />
		<tag k="ssr:stedsnr" v="500175" />
		<tag k="waterway" v="stream" />
	</node>
	<node id="-121373" lat="65.2128805548" lon="12.0029888856">
		<tag k="name" v="Less-Urdskardvatnet" />
>>>>>>> e1d4bc35ff8a6074a6f2e91616a996b547c36f15
		<tag k="natural" v="water" />
		<tag k="ssr:stedsnr" v="500486" />
	</node>
<<<<<<< HEAD
	<node lat="65.40922777890582" lon="12.346783329937123" id="-4590">
		<tag k="name" v="Fjellelva" />
		<tag k="ssr:stedsnr" v="500488" />
		<tag k="waterway" v="stream" />
	</node>
	<node lat="65.36090555379363" lon="12.325886103222544" id="-4591">
=======
	<node id="-121243" lat="65.3609055538" lon="12.3258861032">
>>>>>>> e1d4bc35ff8a6074a6f2e91616a996b547c36f15
		<tag k="alt_name" v="Lessvatnet" />
		<tag k="name" v="Lislvatnet" />
		<tag k="natural" v="water" />
		<tag k="ssr:stedsnr" v="500490" />
	</node>
<<<<<<< HEAD
	<node lat="65.35385833745275" lon="12.392430549889825" id="-4592">
		<tag k="fixme" v="multiple name tags, choose one and add the other to alt_name" />
		<tag k="name" v="Halsvatnet;Ner Teisdalsvatnet" />
=======
	<node id="-121370" lat="65.2250305554" lon="11.9955888929">
		<tag k="name" v="Langvatnet" />
>>>>>>> e1d4bc35ff8a6074a6f2e91616a996b547c36f15
		<tag k="natural" v="water" />
		<tag k="ssr:stedsnr" v="500383" />
		<tag k="water" v="lake" />
	</node>
<<<<<<< HEAD
	<node lat="65.35608055956732" lon="12.384533344577173" id="-4602">
		<tag k="alt_name" v="Øver-Teisdalsvatnet" />
		<tag k="name" v="Teistdalsvatnet" />
=======
	<node id="-121241" lat="65.4037888908" lon="12.3684194398">
		<tag k="name" v="Mellomskardvatnet" />
>>>>>>> e1d4bc35ff8a6074a6f2e91616a996b547c36f15
		<tag k="natural" v="water" />
		<tag k="ssr:stedsnr" v="682355" />
	</node>
<<<<<<< HEAD
	<node lat="65.28396666988066" lon="12.251999991116444" id="-4632">
		<tag k="name" v="Kjørsvikelva" />
		<tag k="ssr:stedsnr" v="541617" />
		<tag k="waterway" v="stream" />
	</node>
	<node lat="65.33959444507656" lon="12.278252773857002" id="-4633">
		<tag k="name" v="Langsanden" />
		<tag k="natural" v="beach" />
		<tag k="ssr:stedsnr" v="542164" />
	</node>
	<node lat="65.3253694447807" lon="12.221358324091184" id="-4645">
		<tag k="name" v="Malmsvatnet" />
=======
	<node id="-121011" lat="65.2642249997" lon="12.1679749978">
		<tag k="name" v="Vågselva" />
		<tag k="ssr:stedsnr" v="439334" />
		<tag k="waterway" v="stream" />
	</node>
	<node id="-121540" lat="65.3739833363" lon="12.3297583426">
		<tag k="name" v="Vassdalsbekken" />
		<tag k="ssr:stedsnr" v="967007" />
		<tag k="waterway" v="stream" />
	</node>
	<node id="-120985" lat="65.3246194475" lon="12.411327773">
		<tag k="name" v="Jonet" />
		<tag k="natural" v="water" />
		<tag k="ssr:stedsnr" v="197312" />
	</node>
	<node id="-121620" lat="65.3477777799" lon="12.222908329">
		<tag k="name" v="Selta" />
		<tag k="place" v="islet" />
		<tag k="ssr:stedsnr" v="58428" />
	</node>
	<node id="-121235" lat="65.2523527746" lon="12.1320027874">
		<tag k="alt_name" v="Hopen" />
		<tag k="name" v="Sundshopen" />
>>>>>>> e1d4bc35ff8a6074a6f2e91616a996b547c36f15
		<tag k="natural" v="water" />
		<tag k="ssr:stedsnr" v="560261" />
	</node>
<<<<<<< HEAD
	<node lat="65.25492777549867" lon="12.121791659232033" id="-4675">
		<tag k="name" v="Straumen" />
		<tag k="ssr:stedsnr" v="621269" />
		<tag k="waterway" v="stream" />
	</node>
	<node lat="65.39530555850473" lon="12.30096943687903" id="-4678">
		<tag k="name" v="Røyrmarkelva" />
		<tag k="ssr:stedsnr" v="621478" />
		<tag k="waterway" v="river" />
	</node>
	<node lat="65.38361388922814" lon="12.323388879249144" id="-4690">
		<tag k="name" v="Vihola" />
		<tag k="place" v="locality" />
		<tag k="ssr:stedsnr" v="663003" />
	</node>
	<node lat="65.36038610941824" lon="12.367116655722494" id="-4694">
		<tag k="name" v="Elvan" />
		<tag k="ssr:stedsnr" v="663132" />
		<tag k="waterway" v="stream" />
	</node>
	<node lat="65.3422972183154" lon="12.199041675512726" id="-4780">
		<tag k="name" v="Keila" />
		<tag k="natural" v="water" />
		<tag k="ssr:stedsnr" v="908432" />
	</node>
	<node lat="65.3843666623466" lon="12.352505556153545" id="-4784">
		<tag k="name" v="Heimgårdselva" />
		<tag k="ssr:stedsnr" v="785006" />
		<tag k="waterway" v="stream" />
	</node>
	<node lat="65.34436666347175" lon="12.21470556200212" id="-4793">
		<tag k="name" v="Leirbekken" />
		<tag k="ssr:stedsnr" v="786406" />
		<tag k="waterway" v="stream" />
	</node>
	<node lat="65.35776389272104" lon="12.309113894086043" id="-4808">
		<tag k="name" v="Fjelldalsvatnet" />
=======
	<node id="-122130" lat="65.2906388888" lon="12.1650083424">
		<tag k="name" v="Gunnarsengbekken" />
		<tag k="ssr:stedsnr" v="803326" />
		<tag k="waterway" v="stream" />
	</node>
	<node id="-122128" lat="65.4130527803" lon="12.3361750017">
		<tag k="alt_name" v="Sæterfjellvatnet" />
		<tag k="name" v="Røyrmarkvatnet" />
		<tag k="natural" v="water" />
		<tag k="ssr:stedsnr" v="803447" />
	</node>
	<node id="-120974" lat="65.374805554" lon="12.2523277825">
		<tag k="name" v="Stavaldsgjerdsbekken" />
		<tag k="ssr:stedsnr" v="178324" />
		<tag k="waterway" v="stream" />
	</node>
	<node id="-120971" lat="65.370008337" lon="12.296875002">
		<tag k="name" v="Rotåsbekken" />
		<tag k="ssr:stedsnr" v="178054" />
		<tag k="waterway" v="stream" />
	</node>
	<node id="-121737" lat="65.3119472259" lon="12.2261333354">
		<tag k="name" v="Vasskarbekken" />
		<tag k="ssr:stedsnr" v="178476" />
		<tag k="waterway" v="stream" />
	</node>
	<node id="-122248" lat="65.2259777809" lon="11.9984527827">
		<tag k="name" v="Kvaløyvatnet" />
>>>>>>> e1d4bc35ff8a6074a6f2e91616a996b547c36f15
		<tag k="natural" v="water" />
		<tag k="ssr:stedsnr" v="804435" />
	</node>
<<<<<<< HEAD
	<node lat="65.36210833433641" lon="12.223752787995792" id="-4810">
		<tag k="name" v="Øyvatnet" />
		<tag k="natural" v="water" />
		<tag k="ssr:stedsnr" v="804447" />
	</node>
	<node lat="65.2847805581653" lon="12.175405555611155" id="-4831">
		<tag k="name" v="Lomtjønnan" />
		<tag k="natural" v="water" />
		<tag k="ssr:stedsnr" v="925370" />
	</node>
	<node lat="65.36494444828882" lon="12.278588883499767" id="-4836">
		<tag k="name" v="Grøttemsbekken" />
		<tag k="ssr:stedsnr" v="846035" />
		<tag k="waterway" v="stream" />
	</node>
	<node lat="65.37398333626818" lon="12.329758342595253" id="-4902">
		<tag k="name" v="Vassdalsbekken" />
		<tag k="ssr:stedsnr" v="967007" />
		<tag k="waterway" v="stream" />
	</node>
	<node lat="65.36718889158774" lon="12.322808337173422" id="-4944">
		<tag k="name" v="Kvernhusvatnet" />
		<tag k="natural" v="water" />
		<tag k="ssr:stedsnr" v="15476" />
	</node>
	<node lat="65.40869722159006" lon="12.310841662991843" id="-4955">
		<tag k="name" v="Aunelva" />
		<tag k="ssr:stedsnr" v="55885" />
		<tag k="waterway" v="river" />
	</node>
	<node lat="65.34529722528185" lon="12.221047214631854" id="-4975">
		<tag k="name" v="Bøpøla" />
		<tag k="natural" v="water" />
		<tag k="ssr:stedsnr" v="58421" />
	</node>
	<node lat="65.34777777990199" lon="12.222908329019635" id="-4977">
		<tag k="name" v="Selta" />
		<tag k="place" v="islet" />
		<tag k="ssr:stedsnr" v="58428" />
	</node>
	<node lat="65.36028889118418" lon="12.273602778055716" id="-5004">
		<tag k="name" v="Grøttemselva" />
		<tag k="ssr:stedsnr" v="76422" />
		<tag k="waterway" v="river" />
	</node>
	<node lat="65.38888888560538" lon="12.306216661911831" id="-5006">
		<tag k="alt_name" v="Dalaelva" />
		<tag k="name" v="Dalelva" />
		<tag k="ssr:stedsnr" v="76492" />
		<tag k="waterway" v="river" />
	</node>
	<node lat="65.35974166542938" lon="12.376827768478366" id="-5016">
		<tag k="name" v="Teisdalselva" />
		<tag k="ssr:stedsnr" v="117133" />
		<tag k="waterway" v="stream" />
	</node>
	<node lat="65.35775555992332" lon="12.379405554860286" id="-5022">
		<tag k="name" v="Svartbekken" />
		<tag k="ssr:stedsnr" v="117155" />
		<tag k="waterway" v="stream" />
	</node>
	<node lat="65.37480555403545" lon="12.252327782492275" id="-5080">
		<tag k="name" v="Stavaldsgjerdsbekken" />
		<tag k="ssr:stedsnr" v="178324" />
		<tag k="waterway" v="stream" />
	</node>
	<node lat="65.3700083369699" lon="12.296875002041938" id="-5082">
		<tag k="name" v="Rotåsbekken" />
		<tag k="ssr:stedsnr" v="178054" />
		<tag k="waterway" v="stream" />
	</node>
	<node lat="65.31194722594161" lon="12.22613333541064" id="-5084">
		<tag k="name" v="Vasskarbekken" />
		<tag k="ssr:stedsnr" v="178476" />
		<tag k="waterway" v="stream" />
	</node>
	<node lat="65.39203610678847" lon="12.355630557325666" id="-5090">
		<tag k="name" v="Nordgårdsbekken" />
		<tag k="ssr:stedsnr" v="178874" />
		<tag k="waterway" v="stream" />
	</node>
	<node lat="65.26103611072494" lon="12.150550004660449" id="-5094">
		<tag k="name" v="Sotbekken" />
		<tag k="ssr:stedsnr" v="178733" />
		<tag k="waterway" v="stream" />
	</node>
	<node lat="65.33168055888142" lon="12.290163899411885" id="-5106">
		<tag k="name" v="Frillstadelva" />
		<tag k="ssr:stedsnr" v="197395" />
		<tag k="waterway" v="stream" />
	</node>
	<node lat="65.30462499670085" lon="12.365166655895129" id="-5112">
		<tag k="name" v="Olderbakkelva" />
		<tag k="ssr:stedsnr" v="197349" />
		<tag k="waterway" v="stream" />
	</node>
	<node lat="65.22503055540267" lon="11.995588892941866" id="-5147">
		<tag k="name" v="Langvatnet" />
		<tag k="natural" v="water" />
		<tag k="ssr:stedsnr" v="299839" />
	</node>
	<node lat="65.21288055478215" lon="12.002988885584394" id="-5150">
		<tag k="name" v="Less-Urdskardvatnet" />
		<tag k="natural" v="water" />
		<tag k="ssr:stedsnr" v="299847" />
	</node>
	<node lat="65.41102500267901" lon="12.315836103005081" id="-5157">
		<tag k="name" v="Forselva" />
		<tag k="ssr:stedsnr" v="317387" />
		<tag k="waterway" v="stream" />
	</node>
	<node lat="65.26423333439521" lon="12.185450002619323" id="-5170">
		<tag k="alt_name" v="Nedre Vågsvatnet" />
		<tag k="name" v="Nedrevågsvatnet" />
		<tag k="natural" v="water" />
		<tag k="ssr:stedsnr" v="318357" />
	</node>
	<node lat="65.42268611192823" lon="11.24164167140996" id="-5242">
		<tag k="alt_name" v="Vestbrøtrøra" />
		<tag k="name" v="Vestbrotrøyra" />
		<tag k="place" v="locality" />
		<tag k="ssr:stedsnr" v="379972" />
	</node>
	<node lat="65.34484999990605" lon="12.28813610062451" id="-5254">
		<tag k="name" v="Lessfjellgrovelva" />
		<tag k="ssr:stedsnr" v="421029" />
		<tag k="waterway" v="stream" />
	</node>
	<node lat="65.24088333717462" lon="12.131255556621708" id="-5264">
		<tag k="name" v="Djupdalsbekken" />
		<tag k="ssr:stedsnr" v="421730" />
		<tag k="waterway" v="stream" />
	</node>
	<node lat="65.2642249997458" lon="12.167974997805683" id="-5276">
		<tag k="name" v="Vågselva" />
		<tag k="ssr:stedsnr" v="439334" />
		<tag k="waterway" v="stream" />
	</node>
	<node lat="65.37548333038289" lon="12.340177780016528" id="-5282">
		<tag k="name" v="Aunelva" />
		<tag k="ssr:stedsnr" v="439386" />
		<tag k="waterway" v="stream" />
	</node>
	<node lat="65.26570555871173" lon="12.195944441068667" id="-5302">
		<tag k="name" v="Øvervågsvatnet" />
		<tag k="natural" v="water" />
		<tag k="ssr:stedsnr" v="500416" />
	</node>
	<node lat="65.34400278107447" lon="12.267963893419482" id="-5306">
		<tag k="name" v="Holandsvatnet" />
		<tag k="natural" v="water" />
		<tag k="ssr:stedsnr" v="500425" />
		<tag k="water" v="lake" />
	</node>
	<node lat="65.34567499806847" lon="12.180027771151268" id="-5314">
		<tag k="name" v="Vallaråa" />
		<tag k="ssr:stedsnr" v="500175" />
		<tag k="waterway" v="stream" />
	</node>
	<node lat="65.22849166248633" lon="11.993855556538254" id="-5327">
		<tag k="name" v="Tindskardvatnet" />
		<tag k="natural" v="water" />
		<tag k="ssr:stedsnr" v="500870" />
	</node>
	<node lat="65.28671111397473" lon="12.170672230038713" id="-5369">
		<tag k="name" v="Steinselva" />
		<tag k="ssr:stedsnr" v="560311" />
		<tag k="waterway" v="stream" />
	</node>
	<node lat="65.3032361109532" lon="12.21539166981961" id="-5416">
		<tag k="alt_name" v="Gjerdevatnet" />
		<tag k="name" v="Gjerdvatnet" />
		<tag k="natural" v="water" />
		<tag k="ssr:stedsnr" v="621352" />
	</node>
	<node lat="65.3724083338326" lon="12.362986118235364" id="-5441">
		<tag k="name" v="Almibekken" />
		<tag k="ssr:stedsnr" v="663028" />
		<tag k="waterway" v="stream" />
	</node>
	<node lat="65.21606389179391" lon="12.053583341260483" id="-5452">
		<tag k="name" v="Storvikbekken" />
		<tag k="ssr:stedsnr" v="663853" />
		<tag k="waterway" v="stream" />
	</node>
	<node lat="65.36664166961043" lon="12.437288899772737" id="-5458">
		<tag k="name" v="Langnesodden" />
		<tag k="natural" v="cape" />
		<tag k="ssr:stedsnr" v="722040" />
	</node>
	<node lat="65.34237222278522" lon="12.192769453114373" id="-5482">
		<tag k="name" v="Baustadelva" />
		<tag k="ssr:stedsnr" v="726427" />
		<tag k="waterway" v="stream" />
	</node>
	<node lat="65.36317777520841" lon="12.306352771029468" id="-5488">
		<tag k="fixme" v="multiple name tags, choose one and add the other to alt_name" />
		<tag k="name" v="Engelva;Grønmoelva" />
		<tag k="ssr:stedsnr" v="743423" />
		<tag k="waterway" v="stream" />
	</node>
	<node lat="65.37130555944903" lon="12.426011106707668" id="-5508">
		<tag k="alt_name" v="Svadbekken" />
		<tag k="name" v="Svabekken" />
		<tag k="ssr:stedsnr" v="743446" />
		<tag k="waterway" v="stream" />
	</node>
	<node lat="65.39277499620839" lon="12.312644447883427" id="-5523">
		<tag k="name" v="Bjønndalsbekken" />
		<tag k="ssr:stedsnr" v="783590" />
		<tag k="waterway" v="stream" />
	</node>
	<node lat="65.29063888881622" lon="12.16500834241008" id="-5550">
		<tag k="name" v="Gunnarsengbekken" />
		<tag k="ssr:stedsnr" v="803326" />
		<tag k="waterway" v="stream" />
	</node>
	<node lat="65.41305278034615" lon="12.336175001711084" id="-5554">
		<tag k="alt_name" v="Sæterfjellvatnet" />
		<tag k="name" v="Røyrmarkvatnet" />
		<tag k="natural" v="water" />
		<tag k="ssr:stedsnr" v="803447" />
	</node>
	<node lat="65.37875833006656" lon="12.303597211089022" id="-5577">
		<tag k="name" v="Skiftesbekken" />
		<tag k="ssr:stedsnr" v="846040" />
		<tag k="waterway" v="stream" />
	</node>
	<node lat="65.3696027777003" lon="12.439411116969632" id="-5623">
		<tag k="alt_name" v="Skardtjørna" />
		<tag k="name" v="Skardtjønna" />
		<tag k="natural" v="water" />
		<tag k="ssr:stedsnr" v="864462" />
	</node>
	<node lat="65.22597778090196" lon="11.998452782676702" id="-5654">
		<tag k="name" v="Kvaløyvatnet" />
		<tag k="natural" v="water" />
		<tag k="ssr:stedsnr" v="966963" />
	</node>
	<node lat="65.34819166935436" lon="12.24920556402706" id="-5657">
		<tag k="name" v="Holandselva" />
		<tag k="ssr:stedsnr" v="968420" />
		<tag k="waterway" v="stream" />
=======
	<node id="-121196" lat="65.3836138892" lon="12.3233888792">
		<tag k="name" v="Vihola" />
		<tag k="place" v="locality" />
		<tag k="ssr:stedsnr" v="663003" />
	</node>
	<node id="-122143" lat="65.3577638927" lon="12.3091138941">
		<tag k="name" v="Fjelldalsvatnet" />
		<tag k="natural" v="water" />
		<tag k="ssr:stedsnr" v="804435" />
	</node>
	<node id="-121435" lat="65.3631777752" lon="12.306352771">
		<tag k="fixme" v="multiple name tags, choose one and add the other to alt_name" />
		<tag k="name" v="Engelva;Grønmoelva" />
		<tag k="ssr:stedsnr" v="743423" />
		<tag k="waterway" v="stream" />
	</node>
	<node id="-121475" lat="65.2847805582" lon="12.1754055556">
		<tag k="name" v="Lomtjønnan" />
		<tag k="natural" v="water" />
		<tag k="ssr:stedsnr" v="925370" />
	</node>
	<node id="-121346" lat="65.3423722228" lon="12.1927694531">
		<tag k="name" v="Baustadelva" />
		<tag k="ssr:stedsnr" v="726427" />
		<tag k="waterway" v="stream" />
	</node>
	<node id="-121857" lat="65.2559999985" lon="12.1774027734">
		<tag k="name" v="Svartvatnet" />
		<tag k="natural" v="water" />
		<tag k="ssr:stedsnr" v="378268" />
>>>>>>> e1d4bc35ff8a6074a6f2e91616a996b547c36f15
	</node>
</osm>
