<?xml version="1.0" encoding="UTF-8"?>
<osm generator="osmapis" version="0.6">
	<node id="-14237" lat="65.3611083302" lon="12.3112833283">
		<tag k="highway" v="path" />
		<tag k="name" v="Fjelldalsstia" />
		<tag k="ssr:stedsnr" v="906047" />
	</node>
	<node id="-13688" lat="65.3229194427" lon="12.2471111155">
		<tag k="highway" v="path" />
		<tag k="name" v="Steinstien" />
		<tag k="ssr:stedsnr" v="238477" />
	</node>
	<node id="-14935" lat="65.3442277753" lon="12.381074991">
		<tag k="highway" v="path" />
		<tag k="name" v="Åsstigen" />
		<tag k="ssr:stedsnr" v="803365" />
	</node>
	<node id="-14158" lat="65.4195833318" lon="12.3308527686">
		<tag k="ford" v="yes" />
		<tag k="name" v="Tømmervaet" />
		<tag k="place" v="locality" />
		<tag k="ssr:stedsnr" v="661916" />
	</node>
	<node id="-14794" lat="65.3540888852" lon="12.3983638851">
		<tag k="highway" v="path" />
		<tag k="name" v="Skånvikstien" />
		<tag k="ssr:stedsnr" v="599642" />
	</node>
	<node id="-13865" lat="65.3044527746" lon="12.1424166594">
		<tag k="man_made" v="quay" />
		<tag k="name" v="Viksjøen" />
		<tag k="place" v="locality" />
		<tag k="ssr:stedsnr" v="299953" />
	</node>
	<node id="-14915" lat="65.3072305563" lon="12.2318222267">
		<tag k="highway" v="path" />
		<tag k="name" v="Bjønnstien" />
		<tag k="ssr:stedsnr" v="785437" />
	</node>
</osm>
