<?xml version="1.0" encoding="UTF-8"?>
<osm generator="osmapis" version="0.6">
	<node id="-10752" lat="65.2809277741" lon="12.1401666557">
		<tag k="name" v="Sjøstrand" />
		<tag k="place" v="farm" />
		<tag k="ssr:stedsnr" v="542572" />
	</node>
	<node id="-11260" lat="65.2168083301" lon="12.0445583242">
		<tag k="name" v="Vennesund" />
		<tag k="place" v="hamlet" />
		<tag k="ssr:stedsnr" v="317759" />
	</node>
	<node id="-11178" lat="65.3831888873" lon="12.3290583235">
		<tag k="alt_name" v="Nermo" />
		<tag k="name" v="Nedremoen" />
		<tag k="place" v="farm" />
		<tag k="ssr:stedsnr" v="135393" />
	</node>
	<node id="-11255" lat="65.2519305514" lon="12.114708328">
		<tag k="name" v="Risvika" />
		<tag k="place" v="farm" />
		<tag k="ssr:stedsnr" v="317248" />
	</node>
	<node id="-11251" lat="65.258030556" lon="12.1199083386">
		<tag k="name" v="Strømmen" />
		<tag k="place" v="isolated_dwelling" />
		<tag k="ssr:stedsnr" v="210101" />
	</node>
	<node id="-10738" lat="65.3929777792" lon="12.2922055468">
		<tag k="name" v="Trælnesvadet" />
		<tag k="place" v="farm" />
		<tag k="ssr:stedsnr" v="682496" />
	</node>
	<node id="-11247" lat="65.3940944465" lon="12.3062249977">
		<tag k="name" v="Dalheim" />
		<tag k="place" v="farm" />
		<tag k="ssr:stedsnr" v="197486" />
	</node>
	<node id="-11245" lat="65.3281361114" lon="12.2273888898">
		<tag k="name" v="Brekkneset" />
		<tag k="place" v="farm" />
		<tag k="ssr:stedsnr" v="197392" />
	</node>
	<node id="-10730" lat="65.2660750003" lon="12.1147444378">
		<tag k="name" v="Buvika" />
		<tag k="place" v="farm" />
		<tag k="ssr:stedsnr" v="682378" />
	</node>
	<node id="-10729" lat="65.3724666697" lon="12.3111611057">
		<tag k="name" v="Jønnmoen" />
		<tag k="place" v="farm" />
		<tag k="ssr:stedsnr" v="682485" />
	</node>
	<node id="-10728" lat="65.3034950987" lon="12.22882244">
		<tag k="fixme" v="consider place=hamlet" />
		<tag k="name" v="Amundsgjerdet" />
		<tag k="place" v="farm" />
		<tag k="ssr:stedsnr" v="682340" />
	</node>
	<node id="-10727" lat="65.3214638883" lon="12.2864111198">
		<tag k="alt_name" v="Moberg" />
		<tag k="name" v="Moberget" />
		<tag k="place" v="farm" />
		<tag k="ssr:stedsnr" v="682299" />
	</node>
	<node id="-11089" lat="65.3479777746" lon="12.2344138793">
		<tag k="name" v="Nordenget" />
		<tag k="place" v="farm" />
		<tag k="ssr:stedsnr" v="58424" />
	</node>
	<node id="-10723" lat="65.3071944416" lon="12.1186194431">
		<tag k="name" v="Aspenvika" />
		<tag k="place" v="farm" />
		<tag k="ssr:stedsnr" v="682199" />
	</node>
	<node id="-10722" lat="65.3126913182" lon="12.1994383049">
		<tag k="fixme" v="consider place=hamlet" />
		<tag k="name" v="Bjøru" />
		<tag k="place" v="farm" />
		<tag k="ssr:stedsnr" v="682197" />
	</node>
	<node id="-11232" lat="65.2845833302" lon="12.2475416735">
		<tag k="name" v="Elvegården" />
		<tag k="place" v="farm" />
		<tag k="ssr:stedsnr" v="197219" />
	</node>
	<node id="-10791" lat="65.3656583338" lon="12.1942444548">
		<tag k="name" v="Buskhammaren" />
		<tag k="place" v="farm" />
		<tag k="ssr:stedsnr" v="724322" />
	</node>
	<node id="-11228" lat="65.3436805515" lon="12.2256888915">
		<tag k="name" v="Bø" />
		<tag k="place" v="farm" />
		<tag k="ssr:stedsnr" v="196284" />
	</node>
	<node id="-11172" lat="65.332250004" lon="12.1774277778">
		<tag k="name" v="Bråten" />
		<tag k="place" v="farm" />
		<tag k="ssr:stedsnr" v="135163" />
	</node>
	<node id="-11733" lat="65.3550650234" lon="12.245783443">
		<tag k="name" v="Grøtheim" />
		<tag k="place" v="farm" />
		<tag k="ssr:stedsnr" v="1071912" />
	</node>
	<node id="-11732" lat="65.3523819452" lon="12.2483441077">
		<tag k="name" v="Grøtheim" />
		<tag k="place" v="farm" />
		<tag k="ssr:stedsnr" v="1071911" />
	</node>
	<node id="-11731" lat="65.3096161448" lon="11.6315592996">
		<tag k="fixme" v="consider place=hamlet" />
		<tag k="name" v="Sørhorsvær" />
		<tag k="place" v="farm" />
		<tag k="ssr:stedsnr" v="989362" />
	</node>
	<node id="-10706" lat="65.2555444417" lon="12.1253694532">
		<tag k="name" v="Skjønberg" />
		<tag k="place" v="farm" />
		<tag k="ssr:stedsnr" v="681252" />
	</node>
	<node id="-10703" lat="65.3071972218" lon="12.1144555458">
		<tag k="alt_name" v="Storviken" />
		<tag k="name" v="Storvika" />
		<tag k="place" v="farm" />
		<tag k="ssr:stedsnr" v="681172" />
	</node>
	<node id="-11170" lat="65.3421972223" lon="12.2092472153">
		<tag k="name" v="Baustad indre" />
		<tag k="place" v="farm" />
		<tag k="ssr:stedsnr" v="119426" />
	</node>
	<node id="-11722" lat="65.2393388891" lon="12.1041972318">
		<tag k="name" v="Skaret" />
		<tag k="place" v="farm" />
		<tag k="ssr:stedsnr" v="966846" />
	</node>
	<node id="-10487" lat="65.3999138899" lon="12.3001722234">
		<tag k="name" v="Leitet" />
		<tag k="place" v="farm" />
		<tag k="ssr:stedsnr" v="439434" />
	</node>
	<node id="-11720" lat="65.2363777802" lon="12.1158916632">
		<tag k="name" v="Flåten" />
		<tag k="place" v="farm" />
		<tag k="ssr:stedsnr" v="966838" />
	</node>
	<node id="-11205" lat="65.3096694472" lon="12.2303361114">
		<tag k="name" v="Mattisplassen" />
		<tag k="place" v="locality" />
		<tag k="ssr:stedsnr" v="178474" />
	</node>
	<node id="-11203" lat="65.3846527741" lon="12.3323222255">
		<tag k="name" v="Dalhaugen" />
		<tag k="place" v="locality" />
		<tag k="ssr:stedsnr" v="178001" />
	</node>
	<node id="-11202" lat="65.3956472262" lon="12.2765722263">
		<tag k="name" v="Seljeskaret" />
		<tag k="place" v="farm" />
		<tag k="ssr:stedsnr" v="176588" />
	</node>
	<node id="-10689" lat="65.3767055564" lon="12.2747916758">
		<tag k="name" v="Reinfjord store" />
		<tag k="place" v="farm" />
		<tag k="ssr:stedsnr" v="481010" />
	</node>
	<node id="-11703" lat="65.2481527801" lon="12.1011916745">
		<tag k="fixme" v="multiple name tags, choose one and add the other to alt_name" />
		<tag k="name" v="Fjellvik;Åsvika" />
		<tag k="place" v="farm" />
		<tag k="ssr:stedsnr" v="864860" />
	</node>
	<node id="-11702" lat="65.2495722246" lon="12.1636472197">
		<tag k="name" v="Sjøbakken" />
		<tag k="place" v="farm" />
		<tag k="ssr:stedsnr" v="864851" />
	</node>
	<node id="-11189" lat="65.3649611107" lon="12.4436277741">
		<tag k="alt_name" v="Storviken" />
		<tag k="name" v="Storvika" />
		<tag k="place" v="farm" />
		<tag k="ssr:stedsnr" v="136379" />
	</node>
	<node id="-11188" lat="65.2873000037" lon="12.1492916626">
		<tag k="name" v="Nyrud" />
		<tag k="place" v="farm" />
		<tag k="ssr:stedsnr" v="136362" />
	</node>
	<node id="-10739" lat="65.3850149667" lon="12.2666341662">
		<tag k="fixme" v="consider place=hamlet" />
		<tag k="name" v="Arnes" />
		<tag k="place" v="farm" />
		<tag k="ssr:stedsnr" v="682498" />
	</node>
	<node id="-10371" lat="65.2326694459" lon="12.0175194414">
		<tag k="name" v="Kjempestrand" />
		<tag k="place" v="farm" />
		<tag k="ssr:stedsnr" v="239859" />
	</node>
	<node id="-11181" lat="65.2209521386" lon="12.0664731935">
		<tag k="alt_name" v="Skår" />
		<tag k="fixme" v="consider place=hamlet" />
		<tag k="name" v="Skåren" />
		<tag k="place" v="farm" />
		<tag k="ssr:stedsnr" v="135799" />
	</node>
	<node id="-11692" lat="65.2782510586" lon="12.137257881">
		<tag k="fixme" v="consider place=hamlet" />
		<tag k="name" v="Hussanda" />
		<tag k="place" v="farm" />
		<tag k="ssr:stedsnr" v="864389" />
	</node>
	<node id="-11690" lat="65.2680805539" lon="12.1592805619">
		<tag k="name" v="Elvestad" />
		<tag k="place" v="farm" />
		<tag k="ssr:stedsnr" v="864374" />
	</node>
	<node id="-10363" lat="65.3633194448" lon="12.2729111008">
		<tag k="name" v="Løvset" />
		<tag k="place" v="isolated_dwelling" />
		<tag k="ssr:stedsnr" v="239054" />
	</node>
	<node id="-11164" lat="65.2947833293" lon="12.1830499908">
		<tag k="name" v="Luren" />
		<tag k="place" v="farm" />
		<tag k="ssr:stedsnr" v="117951" />
	</node>
	<node id="-11174" lat="65.3458109126" lon="12.2447163641">
		<tag k="fixme" v="consider place=hamlet" />
		<tag k="name" v="Holand" />
		<tag k="place" v="farm" />
		<tag k="ssr:stedsnr" v="135341" />
	</node>
	<node id="-11684" lat="65.2813711559" lon="12.1482154681">
		<tag k="fixme" v="consider place=hamlet" />
		<tag k="name" v="Sande" />
		<tag k="place" v="farm" />
		<tag k="ssr:stedsnr" v="864334" />
	</node>
	<node id="-11682" lat="65.299949457" lon="12.3538854635">
		<tag k="fixme" v="consider place=hamlet" />
		<tag k="name" v="Olderbakkan" />
		<tag k="place" v="farm" />
		<tag k="ssr:stedsnr" v="864308" />
	</node>
	<node id="-11168" lat="65.2439138883" lon="12.1209694509">
		<tag k="name" v="Solberg" />
		<tag k="place" v="farm" />
		<tag k="ssr:stedsnr" v="117873" />
	</node>
	<node id="-11677" lat="65.2508888918" lon="12.1221722262">
		<tag k="name" v="Sundshopen" />
		<tag k="place" v="hamlet" />
		<tag k="ssr:stedsnr" v="864276" />
	</node>
	<node id="-11676" lat="65.3221631963" lon="12.2220138916">
		<tag k="alt_name" v="Malm øvre" />
		<tag k="fixme" v="consider place=hamlet" />
		<tag k="loc_name" v="Malm" />
		<tag k="name" v="Øvremalm" />
		<tag k="place" v="farm" />
		<tag k="ssr:stedsnr" v="864273" />
	</node>
	<node id="-10651" lat="65.3611650382" lon="12.2163778359">
		<tag k="name" v="Øyan" />
		<tag k="place" v="farm" />
		<tag k="ssr:stedsnr" v="439109" />
	</node>
	<node id="-10650" lat="65.3011027738" lon="12.1836583328">
		<tag k="fixme" v="consider place=hamlet" />
		<tag k="name" v="Ølsås" />
		<tag k="place" v="farm" />
		<tag k="ssr:stedsnr" v="421526" />
	</node>
	<node id="-10991" lat="65.3749638932" lon="12.2601055646">
		<tag k="name" v="Kleiven" />
		<tag k="place" v="farm" />
		<tag k="ssr:stedsnr" v="906006" />
	</node>
	<node id="-11671" lat="65.2766472204" lon="12.2656583287">
		<tag k="name" v="Tornvika" />
		<tag k="place" v="farm" />
		<tag k="ssr:stedsnr" v="864206" />
	</node>
	<node id="-10942" lat="65.2873555545" lon="12.1405861018">
		<tag k="name" v="Smågjerdsvollan" />
		<tag k="place" v="farm" />
		<tag k="ssr:stedsnr" v="925361" />
	</node>
	<node id="-11155" lat="65.3364388909" lon="12.1986472179">
		<tag k="name" v="Blesan" />
		<tag k="place" v="farm" />
		<tag k="ssr:stedsnr" v="117459" />
	</node>
	<node id="-11666" lat="65.3125461583" lon="12.1673594289">
		<tag k="name" v="Vik" />
		<tag k="place" v="village" />
		<tag k="ssr:stedsnr" v="864164" />
	</node>
	<node id="-10641" lat="65.2720250037" lon="12.1272944492">
		<tag k="name" v="Osbakken" />
		<tag k="place" v="isolated_dwelling" />
		<tag k="ssr:stedsnr" v="420633" />
	</node>
	<node id="-10904" lat="65.3528722185" lon="12.2216194539">
		<tag k="alt_name" v="Skarsmo" />
		<tag k="name" v="Skardsmoen" />
		<tag k="place" v="farm" />
		<tag k="ssr:stedsnr" v="743371" />
	</node>
	<node id="-10733" lat="65.2796833336" lon="12.1668888866">
		<tag k="name" v="Fjellrud" />
		<tag k="place" v="farm" />
		<tag k="ssr:stedsnr" v="682394" />
	</node>
	<node id="-11159" lat="65.2365305532" lon="12.1585138875">
		<tag k="name" v="Nymo" />
		<tag k="place" v="farm" />
		<tag k="ssr:stedsnr" v="117721" />
	</node>
	<node id="-11654" lat="65.3538611089" lon="12.2164694409">
		<tag k="name" v="Skarsve" />
		<tag k="place" v="isolated_dwelling" />
		<tag k="ssr:stedsnr" v="847415" />
	</node>
	<node id="-10629" lat="65.3593527805" lon="12.2680027782">
		<tag k="name" v="Granhaug" />
		<tag k="place" v="farm" />
		<tag k="ssr:stedsnr" v="299055" />
	</node>
	<node id="-11138" lat="65.4026694451" lon="12.3065694341">
		<tag k="name" v="Bakken" />
		<tag k="place" v="farm" />
		<tag k="ssr:stedsnr" v="115391" />
	</node>
	<node id="-11648" lat="65.2652166695" lon="12.1445138976">
		<tag k="name" v="Asphaug" />
		<tag k="place" v="isolated_dwelling" />
		<tag k="ssr:stedsnr" v="846758" />
	</node>
	<node id="-11135" lat="65.3415368442" lon="12.199091597">
		<tag k="name" v="Baustad" />
		<tag k="place" v="hamlet" />
		<tag k="ssr:stedsnr" v="112364" />
	</node>
	<node id="-11133" lat="65.2596111082" lon="12.1398583418">
		<tag k="alt_name" v="Båtneslia" />
		<tag k="name" v="Li" />
		<tag k="place" v="isolated_dwelling" />
		<tag k="ssr:stedsnr" v="88071" />
	</node>
	<node id="-11644" lat="65.2911527809" lon="12.1587999911">
		<tag k="name" v="Aunebakken" />
		<tag k="place" v="farm" />
		<tag k="ssr:stedsnr" v="846589" />
	</node>
	<node id="-11642" lat="65.3138638906" lon="12.1400805551">
		<tag k="name" v="Kjella" />
		<tag k="place" v="isolated_dwelling" />
		<tag k="ssr:stedsnr" v="846530" />
	</node>
	<node id="-10616" lat="65.2744868791" lon="12.1317466684">
		<tag k="fixme" v="consider place=hamlet" />
		<tag k="name" v="Enge" />
		<tag k="place" v="farm" />
		<tag k="ssr:stedsnr" v="500423" />
	</node>
	<node id="-10615" lat="65.2717388881" lon="12.0290388976">
		<tag k="fixme" v="consider place=hamlet" />
		<tag k="name" v="Lyngværet" />
		<tag k="place" v="farm" />
		<tag k="ssr:stedsnr" v="500421" />
	</node>
	<node id="-11637" lat="65.2816722252" lon="12.2647694511">
		<tag k="name" v="Nygård" />
		<tag k="place" v="farm" />
		<tag k="ssr:stedsnr" v="846172" />
	</node>
	<node id="-11124" lat="65.2419194422" lon="12.0939027864">
		<tag k="alt_name" v="Mellemvik" />
		<tag k="name" v="Mellomvika" />
		<tag k="place" v="farm" />
		<tag k="ssr:stedsnr" v="75875" />
	</node>
	<node id="-10558" lat="65.3851249977" lon="12.3005361163">
		<tag k="name" v="Myrset" />
		<tag k="place" v="isolated_dwelling" />
		<tag k="ssr:stedsnr" v="360005" />
	</node>
	<node id="-11122" lat="65.2279305515" lon="12.0721750088">
		<tag k="alt_name" v="Båtvik" />
		<tag k="name" v="Båtsvika" />
		<tag k="place" v="farm" />
		<tag k="ssr:stedsnr" v="75870" />
	</node>
	<node id="-11121" lat="65.2194777785" lon="12.0326138876">
		<tag k="alt_name" v="Holmstranda" />
		<tag k="name" v="Holmstrand" />
		<tag k="place" v="farm" />
		<tag k="ssr:stedsnr" v="75862" />
	</node>
	<node id="-11120" lat="65.223150038" lon="12.0246677596">
		<tag k="alt_name" v="Kvaløya, indre;Kvaløy;Sør-Kvaløy" />
		<tag k="fixme" v="consider place=hamlet" />
		<tag k="name" v="Indre Kvaløya" />
		<tag k="place" v="farm" />
		<tag k="ssr:stedsnr" v="75861" />
	</node>
	<node id="-11626" lat="65.2309361106" lon="12.0183083282">
		<tag k="name" v="Sjømyra" />
		<tag k="place" v="isolated_dwelling" />
		<tag k="ssr:stedsnr" v="817136" />
	</node>
	<node id="-11113" lat="65.2787805555" lon="12.1510944533">
		<tag k="name" v="Sørgård" />
		<tag k="place" v="farm" />
		<tag k="ssr:stedsnr" v="75376" />
	</node>
	<node id="-11622" lat="65.3875111106" lon="12.273969447">
		<tag k="name" v="Arneshaugen" />
		<tag k="place" v="farm" />
		<tag k="ssr:stedsnr" v="804506" />
	</node>
	<node id="-11621" lat="65.3907619991" lon="12.3102749043">
		<tag k="alt_name" v="Dale nedre" />
		<tag k="fixme" v="consider place=hamlet" />
		<tag k="name" v="Nedredala" />
		<tag k="place" v="farm" />
		<tag k="ssr:stedsnr" v="804502" />
	</node>
	<node id="-11620" lat="65.3938861097" lon="12.2775583433">
		<tag k="fixme" v="multiple name tags, choose one and add the other to alt_name" />
		<tag k="name" v="Arnes;Solbakken" />
		<tag k="place" v="farm" />
		<tag k="ssr:stedsnr" v="804465" />
	</node>
	<node id="-11107" lat="65.3353111133" lon="12.2315388959">
		<tag k="name" v="Brekklia" />
		<tag k="place" v="farm" />
		<tag k="ssr:stedsnr" v="75357" />
	</node>
	<node id="-11106" lat="65.3349249972" lon="12.3521638864">
		<tag k="alt_name" v="Trøen" />
		<tag k="name" v="Trøa" />
		<tag k="place" v="farm" />
		<tag k="ssr:stedsnr" v="75351" />
	</node>
	<node id="-11617" lat="65.3678305381" lon="12.2239955447">
		<tag k="fixme" v="consider place=hamlet" />
		<tag k="name" v="Øyan" />
		<tag k="place" v="farm" />
		<tag k="ssr:stedsnr" v="804683" />
	</node>
	<node id="-11104" lat="65.3028111153" lon="12.1790027834">
		<tag k="name" v="Tverråsen" />
		<tag k="place" v="farm" />
		<tag k="ssr:stedsnr" v="75344" />
	</node>
	<node id="-11614" lat="65.3634760809" lon="12.4291317605">
		<tag k="fixme" v="consider place=hamlet" />
		<tag k="name" v="Skardet" />
		<tag k="place" v="farm" />
		<tag k="ssr:stedsnr" v="804438" />
	</node>
	<node id="-11100" lat="65.2845499979" lon="12.1135861101">
		<tag k="name" v="Krokvika" />
		<tag k="place" v="farm" />
		<tag k="ssr:stedsnr" v="75322" />
	</node>
	<node id="-10565" lat="65.233336113" lon="12.0177027765">
		<tag k="name" v="Nordstranden" />
		<tag k="place" v="farm" />
		<tag k="ssr:stedsnr" v="360825" />
	</node>
	<node id="-11096" lat="65.3210209845" lon="12.2272892844">
		<tag k="alt_name" v="Malm nedre" />
		<tag k="fixme" v="consider place=hamlet" />
		<tag k="name" v="Nedremalm" />
		<tag k="place" v="farm" />
		<tag k="ssr:stedsnr" v="75273" />
	</node>
	<node id="-11091" lat="65.324149999" lon="12.1753694432">
		<tag k="name" v="Vang" />
		<tag k="place" v="farm" />
		<tag k="ssr:stedsnr" v="75158" />
	</node>
	<node id="-11602" lat="65.3327351301" lon="12.2284457438">
		<tag k="fixme" v="consider place=hamlet" />
		<tag k="name" v="Brekk" />
		<tag k="place" v="farm" />
		<tag k="ssr:stedsnr" v="803346" />
	</node>
	<node id="-11601" lat="65.2941784672" lon="12.1571571721">
		<tag k="fixme" v="consider place=hamlet" />
		<tag k="name" v="Steine" />
		<tag k="place" v="farm" />
		<tag k="ssr:stedsnr" v="803339" />
	</node>
	<node id="-11086" lat="65.3621388933" lon="12.2069527798">
		<tag k="name" v="Saltneset" />
		<tag k="place" v="hamlet" />
		<tag k="ssr:stedsnr" v="58402" />
	</node>
	<node id="-10573" lat="65.3844972265" lon="12.2828277838">
		<tag k="name" v="Dalbotnan" />
		<tag k="place" v="hamlet" />
		<tag k="ssr:stedsnr" v="499338" />
	</node>
	<node id="-10572" lat="65.3609916662" lon="12.2123499955">
		<tag k="name" v="Strand" />
		<tag k="place" v="farm" />
		<tag k="ssr:stedsnr" v="361408" />
	</node>
	<node id="-11451" lat="65.2687083307" lon="12.1285027712">
		<tag k="alt_name" v="Einskar" />
		<tag k="name" v="Einskaret" />
		<tag k="place" v="isolated_dwelling" />
		<tag k="ssr:stedsnr" v="573086" />
	</node>
	<node id="-11589" lat="65.3543055544" lon="12.2543500061">
		<tag k="name" v="Konggårdshaugen" />
		<tag k="place" v="farm" />
		<tag k="ssr:stedsnr" v="786397" />
	</node>
	<node id="-11588" lat="65.3529916647" lon="12.2412083265">
		<tag k="name" v="Gjersbuvollen" />
		<tag k="place" v="isolated_dwelling" />
		<tag k="ssr:stedsnr" v="786395" />
	</node>
	<node id="-10562" lat="65.324683329" lon="12.3370722274">
		<tag k="name" v="Granheim" />
		<tag k="place" v="isolated_dwelling" />
		<tag k="ssr:stedsnr" v="360153" />
	</node>
	<node id="-10561" lat="65.3332166655" lon="12.2333777812">
		<tag k="name" v="Øverbøen" />
		<tag k="place" v="farm" />
		<tag k="ssr:stedsnr" v="360416" />
	</node>
	<node id="-11070" lat="65.2736027768" lon="12.1442583249">
		<tag k="name" v="Brunbergsvollen" />
		<tag k="place" v="isolated_dwelling" />
		<tag k="ssr:stedsnr" v="56619" />
	</node>
	<node id="-10557" lat="65.2834000017" lon="12.2611583282">
		<tag k="name" v="Kjøssvika" />
		<tag k="place" v="hamlet" />
		<tag k="ssr:stedsnr" v="485192" />
	</node>
	<node id="-11067" lat="65.3734514112" lon="12.2130501815">
		<tag k="fixme" v="consider place=hamlet" />
		<tag k="name" v="Vestaberget" />
		<tag k="place" v="farm" />
		<tag k="ssr:stedsnr" v="56337" />
	</node>
	<node id="-10554" lat="65.3200750011" lon="12.1800361102">
		<tag k="name" v="Haglund" />
		<tag k="place" v="farm" />
		<tag k="ssr:stedsnr" v="483393" />
	</node>
	<node id="-11575" lat="65.3364249976" lon="12.3540250027">
		<tag k="historic" v="shieling" />
		<tag k="name" v="Bekkevold" />
		<tag k="place" v="locality" />
		<tag k="ssr:stedsnr" v="785172" />
	</node>
	<node id="-10549" lat="65.2457611116" lon="12.1211694394">
		<tag k="name" v="Nordset" />
		<tag k="place" v="farm" />
		<tag k="ssr:stedsnr" v="481878" />
	</node>
	<node id="-11058" lat="65.3484805586" lon="12.4296999978">
		<tag k="name" v="Klubben" />
		<tag k="place" v="farm" />
		<tag k="ssr:stedsnr" v="36850" />
	</node>
	<node id="-11055" lat="65.2983055513" lon="12.1383277863">
		<tag k="name" v="Jutvika" />
		<tag k="place" v="isolated_dwelling" />
		<tag k="ssr:stedsnr" v="28106" />
	</node>
	<node id="-11566" lat="65.2988999999" lon="12.1573527696">
		<tag k="name" v="Steine" />
		<tag k="place" v="isolated_dwelling" />
		<tag k="ssr:stedsnr" v="784957" />
	</node>
	<node id="-11051" lat="65.3983944451" lon="12.3045722201">
		<tag k="name" v="Myrmo" />
		<tag k="place" v="farm" />
		<tag k="ssr:stedsnr" v="15485" />
	</node>
	<node id="-11562" lat="65.36413056" lon="12.2059527797">
		<tag k="name" v="Øysjøhola" />
		<tag k="place" v="isolated_dwelling" />
		<tag k="ssr:stedsnr" v="784379" />
	</node>
	<node id="-11049" lat="65.3599000024" lon="12.3808277803">
		<tag k="alt_name" v="Teigsdalen" />
		<tag k="name" v="Teistdalen" />
		<tag k="place" v="locality" />
		<tag k="ssr:stedsnr" v="15459" />
	</node>
	<node id="-11048" lat="65.3245749995" lon="12.3308361085">
		<tag k="name" v="Frillstadstranda" />
		<tag k="place" v="farm" />
		<tag k="ssr:stedsnr" v="15296" />
	</node>
	<node id="-11047" lat="65.3186666709" lon="12.2723722304">
		<tag k="alt_name" v="Frilstadodden" />
		<tag k="name" v="Odden" />
		<tag k="place" v="farm" />
		<tag k="ssr:stedsnr" v="15288" />
	</node>
	<node id="-11142" lat="65.3554277754" lon="12.2616138961">
		<tag k="name" v="Ljøshaugen" />
		<tag k="place" v="farm" />
		<tag k="ssr:stedsnr" v="117057" />
	</node>
	<node id="-10530" lat="65.3300134267" lon="12.1322757341">
		<tag k="fixme" v="consider place=hamlet" />
		<tag k="name" v="Mardal" />
		<tag k="place" v="farm" />
		<tag k="ssr:stedsnr" v="317156" />
	</node>
	<node id="-11553" lat="65.2392277817" lon="12.0993333415">
		<tag k="alt_name" v="Sjøstrand" />
		<tag k="name" v="Sjøstranden" />
		<tag k="place" v="isolated_dwelling" />
		<tag k="ssr:stedsnr" v="756117" />
	</node>
	<node id="-11552" lat="65.25131944" lon="12.1248361196">
		<tag k="fixme" v="multiple name tags, choose one and add the other to alt_name" />
		<tag k="name" v="Strauman;Strømstad" />
		<tag k="place" v="isolated_dwelling" />
		<tag k="ssr:stedsnr" v="756082" />
	</node>
	<node id="-11039" lat="65.2332193195" lon="12.1110586475">
		<tag k="fixme" v="consider place=hamlet" />
		<tag k="name" v="Sund" />
		<tag k="place" v="farm" />
		<tag k="ssr:stedsnr" v="14799" />
	</node>
	<node id="-11038" lat="65.2216439278" lon="12.1121443008">
		<tag k="alt_name" v="Gangstøa" />
		<tag k="name" v="Gongstøa" />
		<tag k="place" v="locality" />
		<tag k="ssr:stedsnr" v="14790" />
	</node>
	<node id="-10525" lat="65.2997805524" lon="12.1551305642">
		<tag k="name" v="Strupen" />
		<tag k="place" v="isolated_dwelling" />
		<tag k="ssr:stedsnr" v="299952" />
	</node>
	<node id="-10522" lat="65.3080861091" lon="12.1434277776">
		<tag k="name" v="Moen" />
		<tag k="place" v="isolated_dwelling" />
		<tag k="ssr:stedsnr" v="299553" />
	</node>
	<node id="-10543" lat="65.3632222185" lon="12.2134888857">
		<tag k="name" v="Sollid" />
		<tag k="place" v="farm" />
		<tag k="ssr:stedsnr" v="481349" />
	</node>
	<node id="-11030" lat="65.3557421613" lon="12.3924008853">
		<tag k="fixme" v="consider place=hamlet" />
		<tag k="name" v="Halsen" />
		<tag k="place" v="farm" />
		<tag k="ssr:stedsnr" v="14244" />
	</node>
	<node id="-11029" lat="65.3156472219" lon="12.1947555548">
		<tag k="name" v="Leitåkeren" />
		<tag k="place" v="farm" />
		<tag k="ssr:stedsnr" v="14154" />
	</node>
	<node id="-11027" lat="65.3362361152" lon="12.1983111038">
		<tag k="name" v="Blessa" />
		<tag k="place" v="farm" />
		<tag k="ssr:stedsnr" v="14145" />
	</node>
	<node id="-10883" lat="65.3097444488" lon="12.1309416612">
		<tag k="name" v="Kvalvika" />
		<tag k="place" v="farm" />
		<tag k="ssr:stedsnr" v="742163" />
	</node>
	<node id="-11024" lat="65.3228773148" lon="12.184279005">
		<tag k="fixme" v="consider place=hamlet" />
		<tag k="name" v="Knyk" />
		<tag k="place" v="farm" />
		<tag k="ssr:stedsnr" v="14138" />
	</node>
	<node id="-10456" lat="65.3432994272" lon="12.4374077218">
		<tag k="fixme" v="consider place=hamlet" />
		<tag k="name" v="Tømmeråsvika" />
		<tag k="place" v="farm" />
		<tag k="ssr:stedsnr" v="197408" />
	</node>
	<node id="-11022" lat="65.3460506462" lon="11.987458039">
		<tag k="fixme" v="consider place=hamlet" />
		<tag k="name" v="Sandværet" />
		<tag k="place" v="farm" />
		<tag k="ssr:stedsnr" v="989369" />
	</node>
	<node id="-11021" lat="65.3081566939" lon="12.1651703672">
		<tag k="fixme" v="consider place=hamlet" />
		<tag k="name" v="Vik" />
		<tag k="place" v="farm" />
		<tag k="ssr:stedsnr" v="989368" />
	</node>
	<node id="-11020" lat="65.3246287579" lon="11.6332140795">
		<tag k="fixme" v="consider place=hamlet" />
		<tag k="name" v="Nordhorsvær" />
		<tag k="place" v="farm" />
		<tag k="ssr:stedsnr" v="989363" />
	</node>
	<node id="-10370" lat="65.2886055591" lon="12.1552166776">
		<tag k="name" v="Myrvang" />
		<tag k="place" v="isolated_dwelling" />
		<tag k="ssr:stedsnr" v="239599" />
	</node>
	<node id="-10506" lat="65.3380166688" lon="12.2310499902">
		<tag k="name" v="Bøvollen" />
		<tag k="place" v="farm" />
		<tag k="ssr:stedsnr" v="257411" />
	</node>
	<node id="-11527" lat="65.2629944414" lon="12.155627773">
		<tag k="name" v="Reitan" />
		<tag k="place" v="farm" />
		<tag k="ssr:stedsnr" v="742242" />
	</node>
	<node id="-11470" lat="65.2268666699" lon="12.0185111216">
		<tag k="name" v="Gjerdet" />
		<tag k="place" v="farm" />
		<tag k="ssr:stedsnr" v="602837" />
	</node>
	<node id="-11522" lat="65.3069058616" lon="12.0910937497">
		<tag k="fixme" v="consider place=hamlet" />
		<tag k="name" v="Skålvika" />
		<tag k="place" v="farm" />
		<tag k="ssr:stedsnr" v="742168" />
	</node>
	<node id="-10795" lat="65.2897444458" lon="12.1524500052">
		<tag k="name" v="Bakketun" />
		<tag k="place" v="farm" />
		<tag k="ssr:stedsnr" v="724596" />
	</node>
	<node id="-10368" lat="65.3161777797" lon="12.1703416742">
		<tag k="name" v="Sjøvollen" />
		<tag k="place" v="farm" />
		<tag k="ssr:stedsnr" v="239524" />
	</node>
	<node id="-10709" lat="65.3674972182" lon="12.1977499931">
		<tag k="name" v="Berg" />
		<tag k="place" v="village" />
		<tag k="ssr:stedsnr" v="500252" />
	</node>
	<node id="-11000" lat="65.298527777" lon="12.2219444505">
		<tag k="name" v="Fjellheim" />
		<tag k="place" v="isolated_dwelling" />
		<tag k="ssr:stedsnr" v="906615" />
	</node>
	<node id="-11511" lat="65.2445833352" lon="12.102541669">
		<tag k="name" v="Heståsen" />
		<tag k="place" v="farm" />
		<tag k="ssr:stedsnr" v="621865" />
	</node>
	<node id="-10484" lat="65.4042785167" lon="12.3103441837">
		<tag k="alt_name" v="Røyrmarken" />
		<tag k="fixme" v="consider place=hamlet" />
		<tag k="name" v="Røyrmarka" />
		<tag k="place" v="farm" />
		<tag k="ssr:stedsnr" v="439398" />
	</node>
	<node id="-10483" lat="65.3749901535" lon="12.2676205837">
		<tag k="fixme" v="consider place=hamlet" />
		<tag k="name" v="Kleiva" />
		<tag k="place" v="farm" />
		<tag k="ssr:stedsnr" v="439390" />
	</node>
	<node id="-11506" lat="65.3851022021" lon="12.2748215394">
		<tag k="fixme" v="consider place=hamlet" />
		<tag k="name" v="Kvitle" />
		<tag k="place" v="farm" />
		<tag k="ssr:stedsnr" v="621538" />
	</node>
	<node id="-10480" lat="65.330352223" lon="12.3538308267">
		<tag k="fixme" v="consider place=hamlet" />
		<tag k="name" v="Homborneset" />
		<tag k="place" v="farm" />
		<tag k="ssr:stedsnr" v="439329" />
	</node>
	<node id="-11503" lat="65.3712138921" lon="12.3063138887">
		<tag k="name" v="Daleng" />
		<tag k="place" v="farm" />
		<tag k="ssr:stedsnr" v="621473" />
	</node>
	<node id="-10478" lat="65.2995305544" lon="12.1510111196">
		<tag k="name" v="Haraldsvika" />
		<tag k="place" v="farm" />
		<tag k="ssr:stedsnr" v="439316" />
	</node>
	<node id="-11501" lat="65.3781857282" lon="12.2658941111">
		<tag k="fixme" v="consider place=hamlet" />
		<tag k="name" v="Reinfjord" />
		<tag k="place" v="farm" />
		<tag k="ssr:stedsnr" v="621429" />
	</node>
	<node id="-10987" lat="65.2913222234" lon="12.1545361182">
		<tag k="name" v="Steinsdalen" />
		<tag k="place" v="isolated_dwelling" />
		<tag k="ssr:stedsnr" v="877090" />
	</node>
	<node id="-10986" lat="65.3010194481" lon="12.1622666692">
		<tag k="name" v="Grønåsen" />
		<tag k="place" v="isolated_dwelling" />
		<tag k="ssr:stedsnr" v="877088" />
	</node>
	<node id="-10473" lat="65.3903694477" lon="12.2820305646">
		<tag k="name" v="Nygård" />
		<tag k="place" v="farm" />
		<tag k="ssr:stedsnr" v="297595" />
	</node>
	<node id="-10983" lat="65.2172527745" lon="12.0461583247">
		<tag k="name" v="Skårstad" />
		<tag k="place" v="isolated_dwelling" />
		<tag k="ssr:stedsnr" v="846842" />
	</node>
	<node id="-10508" lat="65.3392322452" lon="12.1924831465">
		<tag k="fixme" v="consider place=hamlet" />
		<tag k="name" v="Ytterbaustad" />
		<tag k="place" v="farm" />
		<tag k="ssr:stedsnr" v="257155" />
	</node>
	<node id="-10875" lat="65.2294166679" lon="12.1099611108">
		<tag k="name" v="Sund" />
		<tag k="place" v="farm" />
		<tag k="ssr:stedsnr" v="906865" />
	</node>
	<node id="-11487" lat="65.2877944443" lon="12.2669472161">
		<tag k="alt_name" v="Arnesstranden" />
		<tag k="name" v="Stranda" />
		<tag k="place" v="farm" />
		<tag k="ssr:stedsnr" v="621196" />
	</node>
	<node id="-11486" lat="65.2861527762" lon="12.2453638794">
		<tag k="name" v="Moen" />
		<tag k="place" v="farm" />
		<tag k="ssr:stedsnr" v="621192" />
	</node>
	<node id="-10973" lat="65.3516083319" lon="12.2338916567">
		<tag k="name" v="Nylandet" />
		<tag k="place" v="farm" />
		<tag k="ssr:stedsnr" v="804369" />
	</node>
	<node id="-10972" lat="65.3396146389" lon="12.2055477946">
		<tag k="fixme" v="consider place=hamlet" />
		<tag k="name" v="Innerbaustad" />
		<tag k="place" v="farm" />
		<tag k="ssr:stedsnr" v="804181" />
	</node>
	<node id="-11483" lat="65.3236611139" lon="12.1353638861">
		<tag k="name" v="Fagerheim" />
		<tag k="place" v="farm" />
		<tag k="ssr:stedsnr" v="621162" />
	</node>
	<node id="-10970" lat="65.3512027781" lon="12.1805444524">
		<tag k="name" v="Myrvoll" />
		<tag k="place" v="farm" />
		<tag k="ssr:stedsnr" v="804155" />
	</node>
	<node id="-11215" lat="65.3028861069" lon="12.1889277787">
		<tag k="name" v="Dalen" />
		<tag k="place" v="farm" />
		<tag k="ssr:stedsnr" v="178499" />
	</node>
	<node id="-11480" lat="65.2845638923" lon="12.2614888941">
		<tag k="name" v="Kjørsvik" />
		<tag k="place" v="farm" />
		<tag k="ssr:stedsnr" v="606234" />
	</node>
	<node id="-10967" lat="65.3797166631" lon="12.2913944348">
		<tag k="name" v="Engan" />
		<tag k="place" v="farm" />
		<tag k="ssr:stedsnr" v="803412" />
	</node>
	<node id="-10966" lat="65.299893152" lon="12.2350909058">
		<tag k="fixme" v="consider place=hamlet" />
		<tag k="name" v="Ånnvika" />
		<tag k="old_name" v="Ånvik" />
		<tag k="place" v="farm" />
		<tag k="ssr:stedsnr" v="803305" />
	</node>
	<node id="-10452" lat="65.3551277813" lon="12.2144">
		<tag k="name" v="Søreng" />
		<tag k="place" v="farm" />
		<tag k="ssr:stedsnr" v="179374" />
	</node>
	<node id="-11475" lat="65.2443333356" lon="12.1145111196">
		<tag k="name" v="Løkås" />
		<tag k="place" v="farm" />
		<tag k="ssr:stedsnr" v="602864" />
	</node>
	<node id="-11474" lat="65.2307416629" lon="12.0842222286">
		<tag k="name" v="Mariavik" />
		<tag k="place" v="locality" />
		<tag k="ssr:stedsnr" v="602851" />
	</node>
	<node id="-11473" lat="65.2312305519" lon="12.0872805615">
		<tag k="name" v="Solhaug" />
		<tag k="place" v="isolated_dwelling" />
		<tag k="ssr:stedsnr" v="602850" />
	</node>
	<node id="-10446" lat="65.2822222233" lon="12.1418277728">
		<tag k="name" v="Fløttum" />
		<tag k="place" v="farm" />
		<tag k="ssr:stedsnr" v="178568" />
	</node>
	<node id="-10955" lat="65.384997218" lon="12.3006166769">
		<tag k="name" v="Flatåsen" />
		<tag k="place" v="farm" />
		<tag k="ssr:stedsnr" v="925530" />
	</node>
	<node id="-10953" lat="65.3609888885" lon="12.4154027733">
		<tag k="name" v="Floget" />
		<tag k="place" v="farm" />
		<tag k="ssr:stedsnr" v="925459" />
	</node>
	<node id="-11464" lat="65.2881111107" lon="12.1299694465">
		<tag k="name" v="Skogstrand" />
		<tag k="place" v="isolated_dwelling" />
		<tag k="ssr:stedsnr" v="602611" />
	</node>
	<node id="-11463" lat="65.2971722217" lon="12.1886583359">
		<tag k="name" v="Trangen" />
		<tag k="place" v="isolated_dwelling" />
		<tag k="ssr:stedsnr" v="602604" />
	</node>
	<node id="-10529" lat="65.3309944428" lon="12.1994138914">
		<tag k="name" v="Veråsen" />
		<tag k="place" v="farm" />
		<tag k="ssr:stedsnr" v="317155" />
	</node>
	<node id="-10436" lat="65.341222223" lon="12.2139333316">
		<tag k="name" v="Bø" />
		<tag k="place" v="farm" />
		<tag k="ssr:stedsnr" v="145862" />
	</node>
	<node id="-10947" lat="65.334814107" lon="12.4248630808">
		<tag k="fixme" v="consider place=hamlet" />
		<tag k="name" v="Sellimarka" />
		<tag k="place" v="farm" />
		<tag k="ssr:stedsnr" v="925387" />
	</node>
	<node id="-10699" lat="65.3242555521" lon="12.1867166719">
		<tag k="name" v="Knyk" />
		<tag k="place" v="farm" />
		<tag k="ssr:stedsnr" v="483421" />
	</node>
	<node id="-10969" lat="65.3440263407" lon="12.3737441263">
		<tag k="alt_name" v="Indremarka" />
		<tag k="fixme" v="consider place=hamlet" />
		<tag k="name" v="Innermarkja" />
		<tag k="place" v="farm" />
		<tag k="ssr:stedsnr" v="803364" />
	</node>
	<node id="-10430" lat="65.3056611104" lon="12.2349694532">
		<tag k="alt_name" v="Joten" />
		<tag k="name" v="Gjøta" />
		<tag k="place" v="farm" />
		<tag k="ssr:stedsnr" v="136341" />
	</node>
	<node id="-10429" lat="65.3232861073" lon="12.2510805559">
		<tag k="fixme" v="multiple name tags, choose one and add the other to alt_name" />
		<tag k="name" v="Bakkely;Brekkmarka" />
		<tag k="place" v="farm" />
		<tag k="ssr:stedsnr" v="136313" />
	</node>
	<node id="-11210" lat="65.3407416665" lon="12.1998750096">
		<tag k="name" v="Hammaren" />
		<tag k="place" v="isolated_dwelling" />
		<tag k="ssr:stedsnr" v="178429" />
	</node>
	<node id="-10426" lat="65.2825751271" lon="12.2607724902">
		<tag k="fixme" v="consider place=hamlet" />
		<tag k="name" v="Kjørsvika" />
		<tag k="old_name" v="Kjøssvika" />
		<tag k="place" v="farm" />
		<tag k="ssr:stedsnr" v="136228" />
	</node>
	<node id="-10527" lat="65.3600833307" lon="12.2173916759">
		<tag k="name" v="Brekka" />
		<tag k="place" v="locality" />
		<tag k="ssr:stedsnr" v="301359" />
	</node>
	<node id="-10936" lat="65.3515111111" lon="12.1912527745">
		<tag k="alt_name" v="Småenget" />
		<tag k="name" v="Småengan" />
		<tag k="place" v="farm" />
		<tag k="ssr:stedsnr" v="925168" />
	</node>
	<node id="-10612" lat="65.2621833353" lon="12.1102333407">
		<tag k="name" v="Sørvika" />
		<tag k="place" v="farm" />
		<tag k="ssr:stedsnr" v="500415" />
	</node>
	<node id="-11446" lat="65.3886555273" lon="12.3393032005">
		<tag k="alt_name" v="Dala øvre" />
		<tag k="fixme" v="consider place=hamlet" />
		<tag k="loc_name" v="Dala" />
		<tag k="name" v="Øvredala" />
		<tag k="place" v="farm" />
		<tag k="ssr:stedsnr" v="560488" />
	</node>
	<node id="-10415" lat="65.3058361147" lon="12.1044999957">
		<tag k="name" v="Bjørnvika" />
		<tag k="place" v="farm" />
		<tag k="ssr:stedsnr" v="135306" />
	</node>
	<node id="-10925" lat="65.2433416634" lon="12.1238611167">
		<tag k="name" v="Svennes" />
		<tag k="place" v="locality" />
		<tag k="ssr:stedsnr" v="784749" />
	</node>
	<node id="-11190" lat="65.3497416655" lon="12.2546305659">
		<tag k="name" v="Åshaugen" />
		<tag k="place" v="farm" />
		<tag k="ssr:stedsnr" v="136385" />
	</node>
	<node id="-11435" lat="65.3730166671" lon="12.2323111115">
		<tag k="name" v="Øystrand" />
		<tag k="place" v="farm" />
		<tag k="ssr:stedsnr" v="560391" />
	</node>
	<node id="-11434" lat="65.2727500012" lon="12.2481722213">
		<tag k="name" v="Olsvika" />
		<tag k="place" v="farm" />
		<tag k="ssr:stedsnr" v="560209" />
	</node>
	<node id="-11433" lat="65.3116583371" lon="12.161113882">
		<tag k="name" v="Jarmunnan" />
		<tag k="place" v="farm" />
		<tag k="ssr:stedsnr" v="560165" />
	</node>
	<node id="-10915" lat="65.3293333372" lon="12.210491663">
		<tag k="name" v="Nytun" />
		<tag k="place" v="farm" />
		<tag k="ssr:stedsnr" v="906488" />
	</node>
	<node id="-10610" lat="65.289863891" lon="12.1232111151">
		<tag k="name" v="Risholmen" />
		<tag k="place" v="farm" />
		<tag k="ssr:stedsnr" v="500412" />
	</node>
	<node id="-10400" lat="65.3586694466" lon="12.2599999991">
		<tag k="alt_name" v="Granlien" />
		<tag k="name" v="Granli" />
		<tag k="place" v="farm" />
		<tag k="ssr:stedsnr" v="257461" />
	</node>
	<node id="-10352" lat="65.2815722227" lon="12.2561166706">
		<tag k="name" v="Haugen" />
		<tag k="place" v="farm" />
		<tag k="ssr:stedsnr" v="238617" />
	</node>
	<node id="-10437" lat="65.2432555544" lon="12.1109833254">
		<tag k="name" v="Bausbakk" />
		<tag k="place" v="farm" />
		<tag k="ssr:stedsnr" v="299866" />
	</node>
	<node id="-10395" lat="65.291566665" lon="12.1345416598">
		<tag k="name" v="Steinssjøen" />
		<tag k="place" v="farm" />
		<tag k="ssr:stedsnr" v="257376" />
	</node>
	<node id="-10394" lat="65.2946555561" lon="12.1380833303">
		<tag k="name" v="Steinsvika" />
		<tag k="place" v="farm" />
		<tag k="ssr:stedsnr" v="257372" />
	</node>
	<node id="-10393" lat="65.3906944464" lon="12.3016111188">
		<tag k="name" v="Vollan" />
		<tag k="place" v="farm" />
		<tag k="ssr:stedsnr" v="257537" />
	</node>
	<node id="-11416" lat="65.285094448" lon="12.11858889">
		<tag k="name" v="Steinvik" />
		<tag k="place" v="isolated_dwelling" />
		<tag k="ssr:stedsnr" v="542701" />
	</node>
	<node id="-10391" lat="65.3519491472" lon="12.2448034156">
		<tag k="fixme" v="consider place=hamlet" />
		<tag k="name" v="Grøttem" />
		<tag k="place" v="farm" />
		<tag k="ssr:stedsnr" v="257370" />
	</node>
	<node id="-10390" lat="65.3505027821" lon="12.2294000034">
		<tag k="name" v="Ås" />
		<tag k="old_name" v="Åsen" />
		<tag k="place" v="farm" />
		<tag k="ssr:stedsnr" v="257366" />
	</node>
	<node id="-10521" lat="65.3085861133" lon="12.1856166715">
		<tag k="name" v="Yttereng" />
		<tag k="place" v="isolated_dwelling" />
		<tag k="ssr:stedsnr" v="299552" />
	</node>
	<node id="-10900" lat="65.3247388927" lon="12.3339805629">
		<tag k="name" v="Strand" />
		<tag k="place" v="farm" />
		<tag k="ssr:stedsnr" v="906176" />
	</node>
	<node id="-11410" lat="65.3401027785" lon="12.2222555651">
		<tag k="name" v="Hauan" />
		<tag k="place" v="isolated_dwelling" />
		<tag k="ssr:stedsnr" v="542435" />
	</node>
	<node id="-10691" lat="65.3398427797" lon="12.2275239837">
		<tag k="fixme" v="consider place=hamlet" />
		<tag k="name" v="Bø" />
		<tag k="place" v="farm" />
		<tag k="ssr:stedsnr" v="481462" />
	</node>
	<node id="-10895" lat="65.2431277806" lon="12.1311277885">
		<tag k="name" v="Brattbakken" />
		<tag k="place" v="farm" />
		<tag k="ssr:stedsnr" v="742814" />
	</node>
	<node id="-10380" lat="65.2821194489" lon="12.2597694441">
		<tag k="name" v="Kjørsvik" />
		<tag k="place" v="farm" />
		<tag k="ssr:stedsnr" v="242224" />
	</node>
	<node id="-10379" lat="65.3471027803" lon="12.2280666656">
		<tag k="name" v="Elvebakk" />
		<tag k="place" v="farm" />
		<tag k="ssr:stedsnr" v="240428" />
	</node>
	<node id="-10890" lat="65.3740527817" lon="12.2524194477">
		<tag k="alt_name" v="Stavaldsgjerdet" />
		<tag k="name" v="Stavelsgjerdet" />
		<tag k="place" v="farm" />
		<tag k="ssr:stedsnr" v="742373" />
	</node>
	<node id="-10372" lat="65.2167166625" lon="12.0249999983">
		<tag k="name" v="Bjønnhågen" />
		<tag k="place" v="isolated_dwelling" />
		<tag k="ssr:stedsnr" v="239870" />
	</node>
	<node id="-11542" lat="65.3828111085" lon="12.2900583301">
		<tag k="name" v="Dalmoen" />
		<tag k="place" v="farm" />
		<tag k="ssr:stedsnr" v="743493" />
	</node>
	<node id="-10882" lat="65.3976638865" lon="12.2903222146">
		<tag k="name" v="Staulan" />
		<tag k="place" v="farm" />
		<tag k="ssr:stedsnr" v="904589" />
	</node>
	<node id="-10880" lat="65.3877722185" lon="12.2960361062">
		<tag k="name" v="Vollan" />
		<tag k="place" v="farm" />
		<tag k="ssr:stedsnr" v="904584" />
	</node>
	<node id="-10365" lat="65.3498472218" lon="12.2612166646">
		<tag k="name" v="Fjelltun" />
		<tag k="place" v="farm" />
		<tag k="ssr:stedsnr" v="239061" />
	</node>
	<node id="-10364" lat="65.3535111133" lon="12.2548527832">
		<tag k="name" v="Haugen" />
		<tag k="place" v="farm" />
		<tag k="ssr:stedsnr" v="239060" />
	</node>
	<node id="-11387" lat="65.2298361085" lon="12.0750666696">
		<tag k="name" v="Jægtvik" />
		<tag k="place" v="locality" />
		<tag k="ssr:stedsnr" v="421931" />
	</node>
	<node id="-10943" lat="65.2815861072" lon="12.1634916583">
		<tag k="name" v="Berglund" />
		<tag k="place" v="farm" />
		<tag k="ssr:stedsnr" v="925365" />
	</node>
	<node id="-10870" lat="65.3780861076" lon="12.3335111125">
		<tag k="name" v="Vangen" />
		<tag k="place" v="isolated_dwelling" />
		<tag k="ssr:stedsnr" v="724005" />
	</node>
	<node id="-10345" lat="65.3286277805" lon="12.2175611122">
		<tag k="name" v="Åsheim" />
		<tag k="place" v="locality" />
		<tag k="ssr:stedsnr" v="57431" />
	</node>
	<node id="-11380" lat="65.2376666707" lon="12.1680083385">
		<tag k="name" v="Moen" />
		<tag k="place" v="farm" />
		<tag k="ssr:stedsnr" v="421723" />
	</node>
	<node id="-10867" lat="65.2191527787" lon="12.0266861059">
		<tag k="name" v="Dalen" />
		<tag k="place" v="farm" />
		<tag k="ssr:stedsnr" v="906858" />
	</node>
	<node id="-10864" lat="65.2389805545" lon="12.0026222274">
		<tag k="name" v="Lillevik" />
		<tag k="place" v="isolated_dwelling" />
		<tag k="ssr:stedsnr" v="906847" />
	</node>
	<node id="-11375" lat="65.3672777817" lon="12.1663861046">
		<tag k="name" v="Opland" />
		<tag k="place" v="isolated_dwelling" />
		<tag k="ssr:stedsnr" v="421348" />
	</node>
	<node id="-10347" lat="65.3671361111" lon="12.192347215">
		<tag k="name" v="Sømnesåsen" />
		<tag k="place" v="quarter" />
		<tag k="ssr:stedsnr" v="238354" />
	</node>
	<node id="-11369" lat="65.3289333311" lon="12.2070944446">
		<tag k="name" v="Sørheim" />
		<tag k="place" v="locality" />
		<tag k="ssr:stedsnr" v="421452" />
	</node>
	<node id="-10854" lat="65.3488194455" lon="12.262819448">
		<tag k="name" v="Lysingen" />
		<tag k="place" v="farm" />
		<tag k="ssr:stedsnr" v="682357" />
	</node>
	<node id="-11025" lat="65.325022219" lon="12.1276472287">
		<tag k="name" v="Haugvika" />
		<tag k="place" v="farm" />
		<tag k="ssr:stedsnr" v="14140" />
	</node>
	<node id="-10339" lat="65.2619555514" lon="12.1550305596">
		<tag k="name" v="Reitan" />
		<tag k="place" v="isolated_dwelling" />
		<tag k="ssr:stedsnr" v="56767" />
	</node>
	<node id="-10427" lat="65.2755749988" lon="12.1393555549">
		<tag k="name" v="Solheim" />
		<tag k="place" v="farm" />
		<tag k="ssr:stedsnr" v="136413" />
	</node>
	<node id="-10676" lat="65.2410944472" lon="12.1668472313">
		<tag k="name" v="Furrulund" />
		<tag k="place" v="farm" />
		<tag k="ssr:stedsnr" v="663727" />
	</node>
	<node id="-10846" lat="65.2510444445" lon="12.1208444375">
		<tag k="alt_name" v="Strømvoll" />
		<tag k="name" v="Straumvollen" />
		<tag k="place" v="farm" />
		<tag k="ssr:stedsnr" v="681253" />
	</node>
	<node id="-11356" lat="65.3622317801" lon="12.4174660611">
		<tag k="fixme" v="consider place=hamlet" />
		<tag k="name" v="Skånvika" />
		<tag k="place" v="farm" />
		<tag k="ssr:stedsnr" v="379397" />
	</node>
	<node id="-11352" lat="65.3397361125" lon="12.2123250079">
		<tag k="name" v="Brekkeidet" />
		<tag k="place" v="farm" />
		<tag k="ssr:stedsnr" v="379146" />
	</node>
	<node id="-10471" lat="65.3855472183" lon="12.3031361002">
		<tag k="name" v="Flatås" />
		<tag k="place" v="farm" />
		<tag k="ssr:stedsnr" v="297569" />
	</node>
	<node id="-11347" lat="65.2269000011" lon="12.0250083423">
		<tag k="name" v="Porsvika" />
		<tag k="place" v="farm" />
		<tag k="ssr:stedsnr" v="378850" />
	</node>
	<node id="-10322" lat="65.2390668327" lon="12.1572691826">
		<tag k="fixme" v="consider place=hamlet" />
		<tag k="name" v="Hjelmset" />
		<tag k="place" v="farm" />
		<tag k="ssr:stedsnr" v="14806" />
	</node>
	<node id="-10321" lat="65.2520166665" lon="12.1054805603">
		<tag k="name" v="Vestvika" />
		<tag k="place" v="farm" />
		<tag k="ssr:stedsnr" v="14213" />
	</node>
	<node id="-11343" lat="65.3802444479" lon="12.2976055576">
		<tag k="fixme" v="multiple name tags, choose one and add the other to alt_name" />
		<tag k="name" v="Bjørklund;Langåsen" />
		<tag k="place" v="farm" />
		<tag k="ssr:stedsnr" v="378426" />
	</node>
	<node id="-11342" lat="65.3750417033" lon="12.3100773343">
		<tag k="fixme" v="consider place=hamlet" />
		<tag k="name" v="Grønmoen" />
		<tag k="place" v="farm" />
		<tag k="ssr:stedsnr" v="378423" />
	</node>
	<node id="-10509" lat="65.3259583289" lon="12.2153666721">
		<tag k="name" v="Malmsåsen" />
		<tag k="place" v="farm" />
		<tag k="ssr:stedsnr" v="257170" />
	</node>
	<node id="-10588" lat="65.3426750028" lon="12.2168138965">
		<tag k="name" v="Trøan" />
		<tag k="place" v="farm" />
		<tag k="ssr:stedsnr" v="500164" />
	</node>
	<node id="-11447" lat="65.2400527813" lon="12.1082083409">
		<tag k="name" v="Sjøgjerdet" />
		<tag k="place" v="farm" />
		<tag k="ssr:stedsnr" v="560840" />
	</node>
	<node id="-11532" lat="65.2169944442" lon="11.9818999981">
		<tag k="alt_name" v="Kvaløya, yt" />
		<tag k="fixme" v="consider place=hamlet" />
		<tag k="name" v="Ytre Kvaløya" />
		<tag k="place" v="farm" />
		<tag k="ssr:stedsnr" v="742800" />
	</node>
	<node id="-11105" lat="65.2952859616" lon="12.1774832209">
		<tag k="fixme" v="consider place=hamlet" />
		<tag k="name" v="Steinsgjerdet" />
		<tag k="place" v="farm" />
		<tag k="ssr:stedsnr" v="75348" />
	</node>
	<node id="-11332" lat="65.2875194417" lon="12.1214222125">
		<tag k="name" v="Sandholmen" />
		<tag k="place" v="farm" />
		<tag k="ssr:stedsnr" v="378318" />
	</node>
	<node id="-11448" lat="65.2371990455" lon="12.0064023546">
		<tag k="alt_name" v="Rosvik" />
		<tag k="fixme" v="consider place=hamlet" />
		<tag k="name" v="Rossvika" />
		<tag k="place" v="farm" />
		<tag k="ssr:stedsnr" v="560848" />
	</node>
	<node id="-10818" lat="65.2445972202" lon="12.099458333">
		<tag k="name" v="Tausvika" />
		<tag k="place" v="isolated_dwelling" />
		<tag k="ssr:stedsnr" v="634109" />
	</node>
	<node id="-10817" lat="65.2392277817" lon="12.0993333415">
		<tag k="name" v="Sandekren" />
		<tag k="place" v="isolated_dwelling" />
		<tag k="ssr:stedsnr" v="634107" />
	</node>
	<node id="-10351" lat="65.2825166649" lon="12.1378500091">
		<tag k="name" v="Tungen" />
		<tag k="place" v="farm" />
		<tag k="ssr:stedsnr" v="238610" />
	</node>
	<node id="-10759" lat="65.300897223" lon="12.177513893">
		<tag k="name" v="Åsvang" />
		<tag k="place" v="farm" />
		<tag k="ssr:stedsnr" v="299550" />
	</node>
	<node id="-11320" lat="65.3184474123" lon="12.1510027988">
		<tag k="fixme" v="consider place=hamlet" />
		<tag k="name" v="Sømhovd" />
		<tag k="place" v="farm" />
		<tag k="ssr:stedsnr" v="378148" />
	</node>
	<node id="-11319" lat="65.3027805566" lon="12.3540805654">
		<tag k="name" v="Olderbakkplassen" />
		<tag k="place" v="isolated_dwelling" />
		<tag k="ssr:stedsnr" v="361979" />
	</node>
	<node id="-10761" lat="65.3189740395" lon="12.4483981915">
		<tag k="fixme" v="consider place=hamlet" />
		<tag k="name" v="Smedvika" />
		<tag k="place" v="farm" />
		<tag k="ssr:stedsnr" v="560256" />
	</node>
	<node id="-10804" lat="65.2433361143" lon="12.1194305506">
		<tag k="name" v="Bergli" />
		<tag k="place" v="farm" />
		<tag k="ssr:stedsnr" v="724880" />
	</node>
	<node id="-10802" lat="65.230486111" lon="12.0812611086">
		<tag k="name" v="Skåren" />
		<tag k="place" v="isolated_dwelling" />
		<tag k="ssr:stedsnr" v="724861" />
	</node>
	<node id="-11309" lat="65.2240250003" lon="11.9717972188">
		<tag k="name" v="Einvika" />
		<tag k="place" v="isolated_dwelling" />
		<tag k="ssr:stedsnr" v="360901" />
	</node>
	<node id="-11307" lat="65.3865000043" lon="12.3337444395">
		<tag k="name" v="Duehaugen" />
		<tag k="place" v="farm" />
		<tag k="ssr:stedsnr" v="360881" />
	</node>
	<node id="-11306" lat="65.2373944457" lon="12.1665027854">
		<tag k="name" v="Nygård" />
		<tag k="place" v="farm" />
		<tag k="ssr:stedsnr" v="360701" />
	</node>
	<node id="-11305" lat="65.2398722229" lon="12.1668083309">
		<tag k="name" v="Almestad" />
		<tag k="place" v="farm" />
		<tag k="ssr:stedsnr" v="360698" />
	</node>
	<node id="-11303" lat="65.3146388886" lon="12.1618888977">
		<tag k="name" v="Kleiva" />
		<tag k="place" v="isolated_dwelling" />
		<tag k="ssr:stedsnr" v="360498" />
	</node>
	<node id="-11697" lat="65.386452779" lon="12.3221861068">
		<tag k="name" v="Dala" />
		<tag k="place" v="farm" />
		<tag k="ssr:stedsnr" v="864530" />
	</node>
	<node id="-11300" lat="65.2987111091" lon="12.2215944376">
		<tag k="name" v="Fjellheim" />
		<tag k="place" v="farm" />
		<tag k="ssr:stedsnr" v="360430" />
	</node>
	<node id="-10690" lat="65.3630916627" lon="12.2722722218">
		<tag k="name" v="Østli" />
		<tag k="place" v="isolated_dwelling" />
		<tag k="ssr:stedsnr" v="481056" />
	</node>
	<node id="-11297" lat="65.3930277756" lon="12.2926305636">
		<tag k="name" v="Heimdal" />
		<tag k="place" v="farm" />
		<tag k="ssr:stedsnr" v="358643" />
	</node>
	<node id="-10784" lat="65.2221499966" lon="12.0255666586">
		<tag k="name" v="Moen" />
		<tag k="place" v="isolated_dwelling" />
		<tag k="ssr:stedsnr" v="723949" />
	</node>
	<node id="-11389" lat="65.3445083319" lon="12.1968305533">
		<tag k="name" v="Solbakken" />
		<tag k="place" v="farm" />
		<tag k="ssr:stedsnr" v="422374" />
	</node>
	<node id="-11269" lat="65.3011194408" lon="12.2248388796">
		<tag k="name" v="Godgjerdet" />
		<tag k="place" v="farm" />
		<tag k="ssr:stedsnr" v="318302" />
	</node>
	<node id="-10778" lat="65.3656805516" lon="12.2003472211">
		<tag k="name" v="Lyngmo" />
		<tag k="place" v="isolated_dwelling" />
		<tag k="ssr:stedsnr" v="602353" />
	</node>
	<node id="-11439" lat="65.3464611089" lon="12.2288638799">
		<tag k="alt_name" v="Bøenget" />
		<tag k="name" v="Bøengan" />
		<tag k="place" v="farm" />
		<tag k="ssr:stedsnr" v="560326" />
	</node>
	<node id="-10574" lat="65.3805671272" lon="12.3282081581">
		<tag k="fixme" v="consider place=hamlet" />
		<tag k="name" v="Aunet" />
		<tag k="place" v="farm" />
		<tag k="ssr:stedsnr" v="499339" />
	</node>
	<node id="-11185" lat="65.3626231839" lon="12.1682214925">
		<tag k="fixme" v="consider place=hamlet" />
		<tag k="name" v="Sømnes" />
		<tag k="place" v="farm" />
		<tag k="ssr:stedsnr" v="136274" />
	</node>
	<node id="-10769" lat="65.2715036626" lon="12.1345919277">
		<tag k="alt_name" v="Åssletta;Åssletten" />
		<tag k="name" v="Åsletta" />
		<tag k="place" v="farm" />
		<tag k="ssr:stedsnr" v="560352" />
	</node>
	<node id="-10328" lat="65.3241296573" lon="12.2946245819">
		<tag k="fixme" v="consider place=hamlet" />
		<tag k="name" v="Frilstad" />
		<tag k="place" v="farm" />
		<tag k="ssr:stedsnr" v="15301" />
	</node>
	<node id="-10765" lat="65.3634507031" lon="12.2345502221">
		<tag k="fixme" v="consider place=hamlet" />
		<tag k="name" v="Dyngeset" />
		<tag k="place" v="farm" />
		<tag k="ssr:stedsnr" v="560418" />
	</node>
	<node id="-11273" lat="65.2659583338" lon="12.1466555602">
		<tag k="name" v="Våg" />
		<tag k="place" v="farm" />
		<tag k="ssr:stedsnr" v="318352" />
	</node>
	<node id="-11208" lat="65.36783333" lon="12.1664083276">
		<tag k="name" v="Engstad" />
		<tag k="place" v="farm" />
		<tag k="ssr:stedsnr" v="178329" />
	</node>
	<node id="-10758" lat="65.2989861119" lon="12.1771805475">
		<tag k="name" v="Nyhaug" />
		<tag k="place" v="isolated_dwelling" />
		<tag k="ssr:stedsnr" v="299548" />
	</node>
	<node id="-11730" lat="65.3423063563" lon="12.3779798603">
		<tag k="fixme" v="consider place=hamlet" />
		<tag k="name" v="Åsen" />
		<tag k="place" v="farm" />
		<tag k="ssr:stedsnr" v="989328" />
	</node>
	<node id="-11041" lat="65.2345055528" lon="12.0170722178">
		<tag k="alt_name" v="Langstranden" />
		<tag k="name" v="Langstranda" />
		<tag k="place" v="farm" />
		<tag k="ssr:stedsnr" v="14817" />
	</node>
	<node id="-10754" lat="65.2969805537" lon="12.1765972155">
		<tag k="name" v="Halsen" />
		<tag k="place" v="isolated_dwelling" />
		<tag k="ssr:stedsnr" v="542588" />
	</node>
	<node id="-10833" lat="65.2687085332" lon="12.1439650161">
		<tag k="fixme" v="consider place=hamlet" />
		<tag k="name" v="Våg" />
		<tag k="place" v="farm" />
		<tag k="ssr:stedsnr" v="906776" />
	</node>
</osm>
