<?xml version="1.0" encoding="UTF-8"?>
<osm version="0.6" generator="osmapis">
	<node lat="65.3242083371088" lon="11.632775006495011" id="-11745">
		<tag k="name" v="Heimlandet" />
		<tag k="place" v="islet" />
		<tag k="ssr:stedsnr" v="14909" />
	</node>
	<node lat="65.27071944320168" lon="12.03205278689732" id="-11748">
		<tag k="name" v="Heimøya" />
		<tag k="place" v="island" />
		<tag k="ssr:stedsnr" v="15407" />
	</node>
	<node lat="65.28599721775065" lon="11.641825009481812" id="-11752">
		<tag k="alt_name" v="Sørjøvan" />
		<tag k="name" v="Sørgjøvan" />
		<tag k="place" v="islet" />
		<tag k="ssr:stedsnr" v="15917" />
	</node>
	<node lat="65.22593889170972" lon="11.955922220370088" id="-11763">
		<tag k="name" v="Vardskjæret" />
		<tag k="place" v="islet" />
		<tag k="ssr:stedsnr" v="238922" />
	</node>
	<node lat="65.23356944041261" lon="11.96374167166261" id="-11764">
		<tag k="name" v="Hasselskjæret" />
		<tag k="place" v="islet" />
		<tag k="ssr:stedsnr" v="238925" />
	</node>
	<node lat="65.31856944076175" lon="12.425580549072164" id="-11769">
		<tag k="name" v="Ursholmodden" />
		<tag k="natural" v="cape" />
		<tag k="ssr:stedsnr" v="53608" />
	</node>
	<node lat="65.34504444319049" lon="12.429741656186495" id="-11772">
		<tag k="name" v="Lauvvika" />
		<tag k="natural" v="bay" />
		<tag k="ssr:stedsnr" v="54611" />
	</node>
	<node lat="65.37956389131682" lon="12.247486108742754" id="-11782">
		<tag k="name" v="Nordbotnet" />
		<tag k="natural" v="bay" />
		<tag k="ssr:stedsnr" v="56320" />
	</node>
	<node lat="65.27491944401024" lon="12.018763881812953" id="-11787">
		<tag k="fixme" v="consider seamark:type=rock or natural=shoal" />
		<tag k="name" v="Nipøykalven" />
		<tag k="place" v="islet" />
		<tag k="ssr:stedsnr" v="57868" />
	</node>
	<node lat="65.25413332948713" lon="12.108022230188066" id="-11788">
		<tag k="name" v="Risvikholmen" />
		<tag k="place" v="islet" />
		<tag k="ssr:stedsnr" v="57872" />
	</node>
	<node lat="65.35176388492421" lon="12.214077769750443" id="-11791">
		<tag k="name" v="Bøsjøen" />
		<tag k="natural" v="beach" />
		<tag k="ssr:stedsnr" v="58407" />
	</node>
	<node lat="65.33468611350025" lon="11.951550000537104" id="-11793">
		<tag k="fixme" v="consider seamark:type=rock or natural=shoal" />
		<tag k="name" v="Svartoksen" />
		<tag k="place" v="islet" />
		<tag k="ssr:stedsnr" v="75153" />
	</node>
	<node lat="65.31196944132502" lon="12.091069451817454" id="-11795">
		<tag k="name" v="Kåvika" />
		<tag k="natural" v="bay" />
		<tag k="ssr:stedsnr" v="75179" />
	</node>
	<node lat="65.29244166272571" lon="12.337725001733697" id="-11798">
		<tag k="name" v="Mulingen" />
		<tag k="natural" v="cape" />
		<tag k="ssr:stedsnr" v="75299" />
	</node>
	<node lat="65.37795000195169" lon="12.252894440878812" id="-11799">
		<tag k="name" v="Kleivvika" />
		<tag k="natural" v="bay" />
		<tag k="ssr:stedsnr" v="75417" />
	</node>
	<node lat="65.32620000036019" lon="11.634922212164236" id="-11804">
		<tag k="name" v="Mellomholmen" />
		<tag k="place" v="islet" />
		<tag k="ssr:stedsnr" v="75949" />
	</node>
	<node lat="65.32803055266207" lon="11.635427783655075" id="-11805">
		<tag k="name" v="Fagerholmen" />
		<tag k="place" v="islet" />
		<tag k="ssr:stedsnr" v="75952" />
	</node>
	<node lat="65.36108333156415" lon="11.494300000534139" id="-11806">
		<tag k="name" v="Djupbåen" />
		<tag k="natural" v="shoal" />
		<tag k="place" v="locality" />
		<tag k="ssr:stedsnr" v="75964" />
	</node>
	<node lat="65.22975000422454" lon="12.068505565656091" id="-11812">
		<tag k="name" v="Lessholmen" />
		<tag k="natural" v="cape" />
		<tag k="ssr:stedsnr" v="117915" />
	</node>
	<node lat="65.28876388822309" lon="11.936200008345708" id="-11819">
		<tag k="fixme" v="consider seamark:type=rock or natural=shoal" />
		<tag k="name" v="Nordstabben" />
		<tag k="place" v="islet" />
		<tag k="ssr:stedsnr" v="135313" />
	</node>
	<node lat="65.23166389201813" lon="12.068813888302891" id="-11823">
		<tag k="fixme" v="multiple name tags, choose one and add the other to alt_name" />
		<tag k="name" v="Sundsholmen;Storholmen" />
		<tag k="place" v="islet" />
		<tag k="ssr:stedsnr" v="135802" />
	</node>
	<node lat="65.39594167087051" lon="11.389361101275163" id="-11824">
		<tag k="alt_name" v="Kjelsgrunnen" />
		<tag k="name" v="Kjellsgrunnen" />
		<tag k="natural" v="shoal" />
		<tag k="place" v="locality" />
		<tag k="ssr:stedsnr" v="135955" />
	</node>
	<node lat="65.316749996658" lon="12.441091669199448" id="-11825">
		<tag k="name" v="Storvikodden" />
		<tag k="natural" v="cape" />
		<tag k="ssr:stedsnr" v="136298" />
	</node>
	<node lat="65.38965833073145" lon="11.396697231226531" id="-11832">
		<tag k="name" v="Lykkeryggen" />
		<tag k="natural" v="shoal" />
		<tag k="place" v="locality" />
		<tag k="ssr:stedsnr" v="146668" />
	</node>
	<node lat="65.32358611185666" lon="11.744027780954594" id="-11833">
		<tag k="name" v="Troll" />
		<tag k="natural" v="shoal" />
		<tag k="place" v="locality" />
		<tag k="ssr:stedsnr" v="149875" />
	</node>
	<node lat="65.31756666596316" lon="12.30095001004896" id="-11836">
		<tag k="name" v="Naustholmen" />
		<tag k="place" v="islet" />
		<tag k="ssr:stedsnr" v="257284" />
	</node>
	<node lat="65.2628611072414" lon="11.992224990005004" id="-11837">
		<tag k="alt_name" v="Lislvågøya" />
		<tag k="name" v="Less-Vågøya" />
		<tag k="place" v="islet" />
		<tag k="ssr:stedsnr" v="257379" />
	</node>
	<node lat="65.30732499856502" lon="12.365638894925992" id="-11839">
		<tag k="name" v="Ørnvikodden" />
		<tag k="natural" v="cape" />
		<tag k="ssr:stedsnr" v="257333" />
	</node>
	<node lat="65.23595278070607" lon="11.977627787080563" id="-11846">
		<tag k="fixme" v="consider seamark:type=rock or natural=shoal" />
		<tag k="name" v="Høyvikskjæret" />
		<tag k="place" v="islet" />
		<tag k="ssr:stedsnr" v="257869" />
	</node>
	<node lat="65.35510833525368" lon="11.587236112170919" id="-11848">
		<tag k="fixme" v="consider seamark:type=rock or natural=shoal" />
		<tag k="name" v="Husflesa" />
		<tag k="place" v="islet" />
		<tag k="ssr:stedsnr" v="257959" />
	</node>
	<node lat="65.22983889013526" lon="11.960488896718497" id="-11864">
		<tag k="name" v="Langøyvika" />
		<tag k="natural" v="bay" />
		<tag k="ssr:stedsnr" v="178918" />
	</node>
	<node lat="65.23491388981434" lon="11.983494438712874" id="-11865">
		<tag k="name" v="Høyvika" />
		<tag k="natural" v="bay" />
		<tag k="ssr:stedsnr" v="178927" />
	</node>
	<node lat="65.23747777477699" lon="12.095205557657978" id="-11867">
		<tag k="name" v="Sundsvika" />
		<tag k="natural" v="bay" />
		<tag k="ssr:stedsnr" v="196819" />
	</node>
	<node lat="65.29081944092523" lon="12.270450002870124" id="-11870">
		<tag k="name" v="Arnesodden" />
		<tag k="natural" v="cape" />
		<tag k="ssr:stedsnr" v="197222" />
	</node>
	<node lat="65.28115555549088" lon="11.858049999348175" id="-11873">
		<tag k="alt_name" v="Såbotntaren" />
		<tag k="name" v="Sjåbotntaren" />
		<tag k="natural" v="shoal" />
		<tag k="place" v="locality" />
		<tag k="ssr:stedsnr" v="197363" />
	</node>
	<node lat="65.31722500198018" lon="11.970605563890247" id="-11879">
		<tag k="name" v="Eggeløystaren" />
		<tag k="natural" v="shoal" />
		<tag k="place" v="locality" />
		<tag k="ssr:stedsnr" v="206834" />
	</node>
	<node lat="65.33196111317174" lon="11.548288883723382" id="-11881">
		<tag k="name" v="Nordbrotslua" />
		<tag k="natural" v="shoal" />
		<tag k="place" v="locality" />
		<tag k="ssr:stedsnr" v="271799" />
	</node>
	<node lat="65.36429444525984" lon="12.452011116898973" id="-11882">
		<tag k="name" v="Lessøya" />
		<tag k="place" v="islet" />
		<tag k="ssr:stedsnr" v="235566" />
	</node>
	<node lat="65.29074444361282" lon="12.032380548699372" id="-11890">
		<tag k="bay" v="fjord" />
		<tag k="name" v="Lyngværsveet" />
		<tag k="natural" v="bay" />
		<tag k="ssr:stedsnr" v="238707" />
	</node>
	<node lat="65.3072361070033" lon="12.132461120659697" id="-11895">
		<tag k="name" v="Samhovdsjøen" />
		<tag k="natural" v="beach" />
		<tag k="ssr:stedsnr" v="239531" />
	</node>
	<node lat="65.2534277789944" lon="12.112224999659972" id="-11897">
		<tag k="name" v="Storsteinvika" />
		<tag k="natural" v="bay" />
		<tag k="ssr:stedsnr" v="239893" />
	</node>
	<node lat="65.2137694443272" lon="12.095102773280667" id="-11898">
		<tag k="name" v="Brattgangstøa" />
		<tag k="natural" v="bay" />
		<tag k="ssr:stedsnr" v="239941" />
	</node>
	<node lat="65.21288333264013" lon="11.943119436990026" id="-11902">
		<tag k="name" v="Geitungan" />
		<tag k="place" v="islet" />
		<tag k="ssr:stedsnr" v="452110" />
	</node>
	<node lat="65.36459166395609" lon="12.144838895491162" id="-11905">
		<tag k="name" v="Høyvika" />
		<tag k="natural" v="bay" />
		<tag k="ssr:stedsnr" v="257262" />
	</node>
	<node lat="65.35392500126883" lon="12.038375004771922" id="-11906">
		<tag k="name" v="Nordoddan" />
		<tag k="natural" v="cape" />
		<tag k="ssr:stedsnr" v="257266" />
	</node>
	<node lat="65.2745111122858" lon="12.024316661765845" id="-11910">
		<tag k="name" v="Purkøya" />
		<tag k="place" v="islet" />
		<tag k="ssr:stedsnr" v="257405" />
	</node>
	<node lat="65.26194999988158" lon="12.00986666390085" id="-11918">
		<tag k="name" v="Knubbholmen" />
		<tag k="place" v="islet" />
		<tag k="ssr:stedsnr" v="257377" />
	</node>
	<node lat="65.34178332987905" lon="11.420705547044149" id="-11922">
		<tag k="name" v="Kvingraslua" />
		<tag k="natural" v="shoal" />
		<tag k="place" v="locality" />
		<tag k="ssr:stedsnr" v="268676" />
	</node>
	<node lat="65.32341111163772" lon="11.753677773656863" id="-11923">
		<tag k="name" v="Gjertrud" />
		<tag k="natural" v="shoal" />
		<tag k="place" v="locality" />
		<tag k="ssr:stedsnr" v="271889" />
	</node>
	<node lat="65.21654722611432" lon="11.885413887804186" id="-11924">
		<tag k="fixme" v="consider seamark:type=rock or natural=shoal" />
		<tag k="name" v="Helgelandsflesa" />
		<tag k="place" v="islet" />
		<tag k="ssr:stedsnr" v="460290" />
	</node>
	<node lat="65.2103861088229" lon="12.042080563681562" id="-11939">
		<tag k="name" v="Langfjorden" />
		<tag k="natural" v="bay" />
		<tag k="ssr:stedsnr" v="299907" />
	</node>
	<node lat="65.23765278202806" lon="11.969569446813875" id="-11940">
		<tag k="fixme" v="consider seamark:type=rock or natural=shoal" />
		<tag k="name" v="Tjeldskjæret" />
		<tag k="place" v="islet" />
		<tag k="ssr:stedsnr" v="299930" />
	</node>
	<node lat="65.36009722479592" lon="12.417797213310955" id="-11941">
		<tag k="name" v="Brattstøa" />
		<tag k="natural" v="bay" />
		<tag k="ssr:stedsnr" v="299872" />
	</node>
	<node lat="65.24825555775826" lon="12.095505556699864" id="-11946">
		<tag k="name" v="Åsvikholmen" />
		<tag k="place" v="islet" />
		<tag k="ssr:stedsnr" v="317809" />
	</node>
	<node lat="65.20847499895356" lon="12.01245000616943" id="-11947">
		<tag k="alt_name" v="Kvernvika" />
		<tag k="name" v="Kvennvika" />
		<tag k="natural" v="bay" />
		<tag k="ssr:stedsnr" v="317897" />
	</node>
	<node lat="65.2529694435481" lon="12.219663878914233" id="-11949">
		<tag k="name" v="Hundholet" />
		<tag k="natural" v="bay" />
		<tag k="ssr:stedsnr" v="318248" />
	</node>
	<node lat="65.2306638925745" lon="12.155002786041583" id="-11954">
		<tag k="name" v="Naustodden" />
		<tag k="natural" v="cape" />
		<tag k="ssr:stedsnr" v="318843" />
	</node>
	<node lat="65.21809444384651" lon="11.954780549827493" id="-11955">
		<tag k="alt_name" v="Knubbåtholmen" />
		<tag k="name" v="Knubåtholmen" />
		<tag k="place" v="islet" />
		<tag k="ssr:stedsnr" v="318844" />
	</node>
	<node lat="65.32381389158022" lon="11.615608338006002" id="-11956">
		<tag k="name" v="Storandholmen" />
		<tag k="place" v="islet" />
		<tag k="ssr:stedsnr" v="318936" />
	</node>
	<node lat="65.32108611023673" lon="11.613038881982284" id="-11957">
		<tag k="name" v="Gammholmen" />
		<tag k="place" v="islet" />
		<tag k="ssr:stedsnr" v="318938" />
	</node>
	<node lat="65.33175277897087" lon="11.479463886174566" id="-11958">
		<tag k="name" v="Brotsluan" />
		<tag k="natural" v="shoal" />
		<tag k="place" v="locality" />
		<tag k="ssr:stedsnr" v="318944" />
	</node>
	<node lat="65.29968055191652" lon="12.055283335769234" id="-11960">
		<tag k="name" v="Sømhauholman" />
		<tag k="place" v="islet" />
		<tag k="ssr:stedsnr" v="331110" />
	</node>
	<node lat="65.29150277800406" lon="12.273027775320363" id="-11961">
		<tag k="name" v="Arnestaren" />
		<tag k="natural" v="shoal" />
		<tag k="place" v="locality" />
		<tag k="ssr:stedsnr" v="339810" />
	</node>
	<node lat="65.33372222678683" lon="12.41963054953593" id="-11965">
		<tag k="name" v="Naustodden" />
		<tag k="natural" v="cape" />
		<tag k="ssr:stedsnr" v="478534" />
	</node>
	<node lat="65.36685833104573" lon="12.174274998083884" id="-11977">
		<tag k="name" v="Sømnesvika" />
		<tag k="natural" v="bay" />
		<tag k="ssr:stedsnr" v="378223" />
	</node>
	<node lat="65.2865666656191" lon="12.075924998163268" id="-11982">
		<tag k="name" v="Sjursbåen" />
		<tag k="natural" v="shoal" />
		<tag k="place" v="locality" />
		<tag k="ssr:stedsnr" v="378321" />
	</node>
	<node lat="65.28857777635264" lon="12.006794454406277" id="-11983">
		<tag k="name" v="Lyngværtaren" />
		<tag k="natural" v="shoal" />
		<tag k="place" v="locality" />
		<tag k="ssr:stedsnr" v="378322" />
	</node>
	<node lat="65.26719999808225" lon="12.010399992936742" id="-11984">
		<tag k="name" v="Bærøya" />
		<tag k="place" v="islet" />
		<tag k="ssr:stedsnr" v="378382" />
	</node>
	<node lat="65.32417499730546" lon="12.443677786360434" id="-11986">
		<tag k="bay" v="fjord" />
		<tag k="name" v="Gravfjorden" />
		<tag k="natural" v="bay" />
		<tag k="ssr:stedsnr" v="378275" />
	</node>
	<node lat="65.32206389246312" lon="12.311374996124714" id="-11987">
		<tag k="name" v="Manneset" />
		<tag k="natural" v="cape" />
		<tag k="ssr:stedsnr" v="378276" />
	</node>
	<node lat="65.33080833670932" lon="11.911275004209756" id="-11992">
		<tag k="name" v="Andersbåen" />
		<tag k="natural" v="shoal" />
		<tag k="place" v="locality" />
		<tag k="ssr:stedsnr" v="379147" />
	</node>
	<node lat="65.23206388534109" lon="12.074091668922167" id="-12002">
		<tag k="name" v="Jektvikholmen" />
		<tag k="natural" v="cape" />
		<tag k="ssr:stedsnr" v="481916" />
	</node>
	<node lat="65.33798333371263" lon="11.839461108698053" id="-12003">
		<tag k="name" v="Kvalbarnet" />
		<tag k="natural" v="shoal" />
		<tag k="place" v="locality" />
		<tag k="ssr:stedsnr" v="388804" />
	</node>
	<node lat="65.36604166774046" lon="12.196455563165307" id="-12004">
		<tag k="name" v="Sørstraumen" />
		<tag k="natural" v="strait" />
		<tag k="ssr:stedsnr" v="388844" />
	</node>
	<node lat="65.30588055643956" lon="11.84800278513401" id="-12010">
		<tag k="name" v="Innerhystaren" />
		<tag k="natural" v="shoal" />
		<tag k="place" v="locality" />
		<tag k="ssr:stedsnr" v="392092" />
	</node>
	<node lat="65.30017222298147" lon="11.628036112681889" id="-12011">
		<tag k="fixme" v="consider seamark:type=rock or natural=shoal" />
		<tag k="name" v="Storsteinskjæret" />
		<tag k="place" v="islet" />
		<tag k="ssr:stedsnr" v="392098" />
	</node>
	<node lat="65.30709166456404" lon="12.122536109201473" id="-12022">
		<tag k="name" v="Kvalvikstranda" />
		<tag k="natural" v="beach" />
		<tag k="ssr:stedsnr" v="421514" />
	</node>
	<node lat="65.35150555944114" lon="12.202405551462078" id="-12028">
		<tag k="name" v="Sørbotnet" />
		<tag k="natural" v="bay" />
		<tag k="ssr:stedsnr" v="439110" />
	</node>
	<node lat="65.34359166421598" lon="11.955280551703991" id="-12031">
		<tag k="name" v="Sandøya" />
		<tag k="place" v="islet" />
		<tag k="ssr:stedsnr" v="439099" />
	</node>
	<node lat="65.29081111035615" lon="11.641750008140766" id="-12034">
		<tag k="alt_name" v="Jøvan" />
		<tag k="name" v="Gjøvan" />
		<tag k="place" v="island" />
		<tag k="ssr:stedsnr" v="439917" />
	</node>
	<node lat="65.22474444446917" lon="11.954133341750607" id="-12035">
		<tag k="alt_name" v="Brennholmen" />
		<tag k="name" v="Brennholman" />
		<tag k="place" v="islet" />
		<tag k="ssr:stedsnr" v="439850" />
	</node>
	<node lat="65.32915555607015" lon="11.623508325288968" id="-12036">
		<tag k="name" v="Maritholmen" />
		<tag k="place" v="islet" />
		<tag k="ssr:stedsnr" v="439943" />
	</node>
	<node lat="65.33156111495744" lon="11.634516674299112" id="-12037">
		<tag k="fixme" v="consider seamark:type=rock or natural=shoal" />
		<tag k="name" v="Stokkskjæret" />
		<tag k="place" v="islet" />
		<tag k="ssr:stedsnr" v="439944" />
	</node>
	<node lat="65.3329666680343" lon="11.615486121886024" id="-12038">
		<tag k="name" v="Kvernholmen" />
		<tag k="place" v="islet" />
		<tag k="ssr:stedsnr" v="439945" />
	</node>
	<node lat="65.319466663932" lon="11.596477777112426" id="-12040">
		<tag k="name" v="Tjøtta" />
		<tag k="natural" v="shoal" />
		<tag k="place" v="locality" />
		<tag k="ssr:stedsnr" v="453766" />
	</node>
	<node lat="65.3353972215457" lon="11.609866667324182" id="-12041">
		<tag k="name" v="Dreggbåen" />
		<tag k="natural" v="shoal" />
		<tag k="place" v="locality" />
		<tag k="ssr:stedsnr" v="453772" />
	</node>
	<node lat="65.3206516777373" lon="12.408121706279777" id="-12042">
		<tag k="name" v="Ursholmen" />
		<tag k="place" v="islet" />
		<tag k="ssr:stedsnr" v="478605" />
	</node>
	<node lat="65.31124999948626" lon="11.960155547901012" id="-12056">
		<tag k="name" v="Fløbåen" />
		<tag k="natural" v="shoal" />
		<tag k="place" v="locality" />
		<tag k="ssr:stedsnr" v="499141" />
	</node>
	<node lat="65.22840555616655" lon="11.89205832726423" id="-12062">
		<tag k="bay" v="fjord" />
		<tag k="name" v="Melsteinfjorden" />
		<tag k="natural" v="bay" />
		<tag k="ssr:stedsnr" v="499782" />
	</node>
	<node lat="65.21340833356456" lon="12.041038880543269" id="-12063">
		<tag k="alt_name" v="Vennesund" />
		<tag k="name" v="Vennesundet" />
		<tag k="natural" v="strait" />
		<tag k="ssr:stedsnr" v="499908" />
	</node>
	<node lat="65.33001944043761" lon="11.961838879301961" id="-12066">
		<tag k="name" v="Folfoten" />
		<tag k="place" v="islet" />
		<tag k="ssr:stedsnr" v="500194" />
	</node>
	<node lat="65.33131389105962" lon="11.97313611028335" id="-12067">
		<tag k="name" v="Biskopøya" />
		<tag k="place" v="islet" />
		<tag k="ssr:stedsnr" v="500195" />
	</node>
	<node lat="65.3613805533558" lon="12.43001665788957" id="-12068">
		<tag k="name" v="Skardodden" />
		<tag k="natural" v="cape" />
		<tag k="ssr:stedsnr" v="500406" />
	</node>
	<node lat="65.29762499925882" lon="12.134786121045087" id="-12069">
		<tag k="name" v="Fyrholmen" />
		<tag k="place" v="islet" />
		<tag k="ssr:stedsnr" v="500408" />
	</node>
	<node lat="65.26540833456598" lon="11.861594435322287" id="-12072">
		<tag k="name" v="Småtaran" />
		<tag k="natural" v="shoal" />
		<tag k="place" v="locality" />
		<tag k="ssr:stedsnr" v="500430" />
	</node>
	<node lat="65.27389166748202" lon="11.903877774058756" id="-12079">
		<tag k="name" v="Bjørstaren" />
		<tag k="natural" v="shoal" />
		<tag k="place" v="locality" />
		<tag k="ssr:stedsnr" v="500389" />
	</node>
	<node lat="65.35000277810416" lon="12.095538896807835" id="-12083">
		<tag k="fixme" v="multiple name tags, choose one and add the other to alt_name" />
		<tag k="name" v="Hjartholmen;Sørandklakken" />
		<tag k="place" v="islet" />
		<tag k="ssr:stedsnr" v="682146" />
	</node>
	<node lat="65.25981666617324" lon="12.231602783186176" id="-12085">
		<tag k="name" v="Slåttvika" />
		<tag k="natural" v="bay" />
		<tag k="ssr:stedsnr" v="682277" />
	</node>
	<node lat="65.28055833784724" lon="11.932608332380909" id="-12089">
		<tag k="name" v="Stabbsluan" />
		<tag k="natural" v="shoal" />
		<tag k="place" v="locality" />
		<tag k="ssr:stedsnr" v="682364" />
	</node>
	<node lat="65.36152222392622" lon="12.439874999150897" id="-12091">
		<tag k="name" v="Remøya" />
		<tag k="place" v="islet" />
		<tag k="ssr:stedsnr" v="682373" />
	</node>
	<node lat="65.30807500159155" lon="11.65372222582975" id="-12103">
		<tag k="name" v="Storsluan" />
		<tag k="natural" v="shoal" />
		<tag k="place" v="locality" />
		<tag k="ssr:stedsnr" v="682940" />
	</node>
	<node lat="65.3690722190715" lon="11.422675007285696" id="-12104">
		<tag k="name" v="Sveinslua" />
		<tag k="natural" v="shoal" />
		<tag k="place" v="locality" />
		<tag k="ssr:stedsnr" v="682966" />
	</node>
	<node lat="65.33864444032174" lon="11.551194442494856" id="-12105">
		<tag k="name" v="Indreskattholslua" />
		<tag k="natural" v="shoal" />
		<tag k="place" v="locality" />
		<tag k="ssr:stedsnr" v="511829" />
	</node>
	<node lat="65.22281388501116" lon="11.8430583334476" id="-12106">
		<tag k="name" v="Tverrslua" />
		<tag k="natural" v="shoal" />
		<tag k="place" v="locality" />
		<tag k="ssr:stedsnr" v="513116" />
	</node>
	<node lat="65.26059166938644" lon="11.988222213844317" id="-12123">
		<tag k="name" v="Steinøyvalen" />
		<tag k="natural" v="strait" />
		<tag k="ssr:stedsnr" v="542869" />
	</node>
	<node lat="65.25103611004928" lon="12.095591676710974" id="-12124">
		<tag k="name" v="Åsvikholmen" />
		<tag k="place" v="islet" />
		<tag k="ssr:stedsnr" v="542875" />
	</node>
	<node lat="65.34369531408322" lon="11.984096324518237" id="-12126">
		<tag k="name" v="Sandværøya" />
		<tag k="place" v="island" />
		<tag k="ssr:stedsnr" v="560111" />
	</node>
	<node lat="65.3178333354168" lon="12.228691664886464" id="-12128">
		<tag k="fixme" v="multiple name tags, choose one and add the other to alt_name; consider seamark:type=rock or natural=shoal" />
		<tag k="name" v="Røyrskjæret;Røysskjæret" />
		<tag k="place" v="islet" />
		<tag k="ssr:stedsnr" v="560250" />
	</node>
	<node lat="65.31091388592309" lon="12.30286388163662" id="-12131">
		<tag k="alt_name" v="Frillstadøyene" />
		<tag k="name" v="Frillstadøyan" />
		<tag k="place" v="islet" />
		<tag k="ssr:stedsnr" v="560299" />
	</node>
	<node lat="65.29621111212258" lon="11.642011107016394" id="-12140">
		<tag k="alt_name" v="Nordjøvan" />
		<tag k="fixme" v="consider seamark:type=rock or natural=shoal" />
		<tag k="name" v="Høggjøvan" />
		<tag k="place" v="islet" />
		<tag k="ssr:stedsnr" v="560940" />
	</node>
	<node lat="65.35467778123207" lon="12.070980566498212" id="-12141">
		<tag k="name" v="Jektslua" />
		<tag k="natural" v="shoal" />
		<tag k="place" v="locality" />
		<tag k="ssr:stedsnr" v="692843" />
	</node>
	<node lat="65.33753611075726" lon="11.63909445243912" id="-12144">
		<tag k="name" v="Indreskolten" />
		<tag k="natural" v="shoal" />
		<tag k="place" v="locality" />
		<tag k="ssr:stedsnr" v="695747" />
	</node>
	<node lat="65.31642500117103" lon="12.325255556251147" id="-12145">
		<tag k="name" v="Steingrunnen" />
		<tag k="natural" v="shoal" />
		<tag k="place" v="locality" />
		<tag k="ssr:stedsnr" v="582840" />
	</node>
	<node lat="65.23221111012015" lon="12.087644437673081" id="-12152">
		<tag k="name" v="Breisand" />
		<tag k="natural" v="beach" />
		<tag k="ssr:stedsnr" v="602849" />
	</node>
	<node lat="65.29411110815686" lon="11.739649998639038" id="-12157">
		<tag k="name" v="Skallan" />
		<tag k="natural" v="shoal" />
		<tag k="place" v="locality" />
		<tag k="ssr:stedsnr" v="621180" />
	</node>
	<node lat="65.2463499993033" lon="12.004469445432012" id="-12167">
		<tag k="fixme" v="consider seamark:type=rock or natural=shoal" />
		<tag k="name" v="Svartskjæret" />
		<tag k="place" v="islet" />
		<tag k="ssr:stedsnr" v="621866" />
	</node>
	<node lat="65.26292499702654" lon="11.959886105108634" id="-12171">
		<tag k="name" v="Vågøytaren" />
		<tag k="natural" v="shoal" />
		<tag k="place" v="locality" />
		<tag k="ssr:stedsnr" v="634076" />
	</node>
	<node lat="65.27797500445084" lon="12.02752499149995" id="-12173">
		<tag k="fixme" v="multiple name tags, choose one and add the other to alt_name" />
		<tag k="name" v="Purkøydraget;Langdragan" />
		<tag k="place" v="islet" />
		<tag k="ssr:stedsnr" v="634095" />
	</node>
	<node lat="65.31430277869778" lon="12.320174996096108" id="-12174">
		<tag k="name" v="Buskholmen" />
		<tag k="place" v="islet" />
		<tag k="ssr:stedsnr" v="704802" />
	</node>
	<node lat="65.3804111150131" lon="12.238269441664134" id="-12180">
		<tag k="name" v="Ingebrigtodden" />
		<tag k="natural" v="cape" />
		<tag k="ssr:stedsnr" v="663306" />
	</node>
	<node lat="65.37941111049086" lon="12.240436111541468" id="-12181">
		<tag k="name" v="Henrikodden" />
		<tag k="natural" v="cape" />
		<tag k="ssr:stedsnr" v="663308" />
	</node>
	<node lat="65.30304444513767" lon="12.057966666825761" id="-12185">
		<tag k="name" v="Asbjørnholmene" />
		<tag k="place" v="islet" />
		<tag k="ssr:stedsnr" v="663703" />
	</node>
	<node lat="65.32191111086563" lon="12.337791668028416" id="-12189">
		<tag k="fixme" v="consider seamark:type=rock or natural=shoal" />
		<tag k="name" v="Kleivskjæran" />
		<tag k="place" v="islet" />
		<tag k="ssr:stedsnr" v="891192" />
	</node>
	<node lat="65.24903055675397" lon="11.995174996485103" id="-12193">
		<tag k="fixme" v="consider seamark:type=rock or natural=shoal" />
		<tag k="name" v="Vardskjæret" />
		<tag k="place" v="islet" />
		<tag k="ssr:stedsnr" v="681859" />
	</node>
	<node lat="65.21288333264013" lon="11.943119436990026" id="-12194">
		<tag k="alt_name" v="Geitungen, store" />
		<tag k="fixme" v="multiple name tags, choose one and add the other to alt_name" />
		<tag k="name" v="Storgeitungen;Store Geitungen" />
		<tag k="place" v="islet" />
		<tag k="ssr:stedsnr" v="681925" />
	</node>
	<node lat="65.33967777894343" lon="11.956088899685117" id="-12196">
		<tag k="name" v="Hansholman" />
		<tag k="place" v="islet" />
		<tag k="ssr:stedsnr" v="682172" />
	</node>
	<node lat="65.2222583330316" lon="11.989900010356235" id="-12201">
		<tag k="name" v="Kvaløya" />
		<tag k="place" v="island" />
		<tag k="ssr:stedsnr" v="682819" />
	</node>
	<node lat="65.22586110753974" lon="12.032969439663264" id="-12203">
		<tag k="name" v="Porsvika" />
		<tag k="natural" v="bay" />
		<tag k="ssr:stedsnr" v="682862" />
	</node>
	<node lat="65.27934166572764" lon="12.003994440684657" id="-12212">
		<tag k="fixme" v="consider seamark:type=rock or natural=shoal" />
		<tag k="name" v="Steinskjæran" />
		<tag k="place" v="islet" />
		<tag k="ssr:stedsnr" v="724676" />
	</node>
	<node lat="65.3503999961872" lon="12.207299994768695" id="-12219">
		<tag k="name" v="Hamran" />
		<tag k="natural" v="beach" />
		<tag k="ssr:stedsnr" v="726418" />
	</node>
	<node lat="65.2450861097443" lon="11.978033331569296" id="-12220">
		<tag k="fixme" v="consider seamark:type=rock or natural=shoal" />
		<tag k="name" v="Kråkungan" />
		<tag k="place" v="islet" />
		<tag k="ssr:stedsnr" v="906939" />
	</node>
	<node lat="65.22254166276849" lon="12.115611110353024" id="-12225">
		<tag k="fixme" v="multiple name tags, choose one and add the other to alt_name" />
		<tag k="name" v="Gongstøvika;Klungvik" />
		<tag k="natural" v="bay" />
		<tag k="ssr:stedsnr" v="742803" />
	</node>
	<node lat="65.22782221784229" lon="11.815063890544252" id="-12226">
		<tag k="name" v="Vesterbåen" />
		<tag k="natural" v="shoal" />
		<tag k="place" v="locality" />
		<tag k="ssr:stedsnr" v="742810" />
	</node>
	<node lat="65.24519444741863" lon="11.940266665275292" id="-12227">
		<tag k="alt_name" v="Tyven" />
		<tag k="name" v="Tjuven" />
		<tag k="place" v="islet" />
		<tag k="ssr:stedsnr" v="742832" />
	</node>
	<node lat="65.20357778050023" lon="12.015077780547228" id="-12228">
		<tag k="alt_name" v="Kvernvikneset" />
		<tag k="name" v="Kvennvikneset" />
		<tag k="natural" v="cape" />
		<tag k="ssr:stedsnr" v="742943" />
	</node>
	<node lat="65.26860833737142" lon="12.245952774642568" id="-12229">
		<tag k="name" v="Sørodden" />
		<tag k="natural" v="cape" />
		<tag k="ssr:stedsnr" v="743279" />
	</node>
	<node lat="65.32175555135774" lon="12.338063885176156" id="-12231">
		<tag k="fixme" v="consider seamark:type=rock or natural=shoal" />
		<tag k="name" v="Kleivskjæret" />
		<tag k="place" v="islet" />
		<tag k="ssr:stedsnr" v="743310" />
	</node>
	<node lat="65.26568333616281" lon="12.015244440562656" id="-12232">
		<tag k="name" v="Vakthusøya" />
		<tag k="place" v="islet" />
		<tag k="ssr:stedsnr" v="743379" />
	</node>
	<node lat="65.33790555523291" lon="11.541880561356487" id="-12241">
		<tag k="name" v="Midtskattholslua" />
		<tag k="natural" v="shoal" />
		<tag k="place" v="locality" />
		<tag k="ssr:stedsnr" v="753820" />
	</node>
	<node lat="65.36965277860585" lon="12.148449991553704" id="-12249">
		<tag k="name" v="Galtvika" />
		<tag k="natural" v="bay" />
		<tag k="ssr:stedsnr" v="906346" />
	</node>
	<node lat="65.36465000034552" lon="12.197508325549208" id="-12250">
		<tag k="fixme" v="consider seamark:type=rock or natural=shoal" />
		<tag k="name" v="Øyskjæret" />
		<tag k="place" v="islet" />
		<tag k="ssr:stedsnr" v="906348" />
	</node>
	<node lat="65.26515555258435" lon="12.030344454008064" id="-12258">
		<tag k="fixme" v="consider seamark:type=rock or natural=shoal" />
		<tag k="name" v="Sørøydraget" />
		<tag k="place" v="islet" />
		<tag k="ssr:stedsnr" v="906871" />
	</node>
	<node lat="65.35679166794559" lon="12.198908328439796" id="-12264">
		<tag k="name" v="Kanelesberget" />
		<tag k="natural" v="cape" />
		<tag k="ssr:stedsnr" v="908423" />
	</node>
	<node lat="65.28417500219037" lon="11.67492776975946" id="-12266">
		<tag k="fixme" v="consider seamark:type=rock or natural=shoal" />
		<tag k="name" v="Krabbskjæret" />
		<tag k="place" v="islet" />
		<tag k="ssr:stedsnr" v="782809" />
	</node>
	<node lat="65.25862500166656" lon="11.978424991934666" id="-12279">
		<tag k="name" v="Stakkvika" />
		<tag k="natural" v="bay" />
		<tag k="ssr:stedsnr" v="913965" />
	</node>
	<node lat="65.32372777790195" lon="11.952944447302585" id="-12280">
		<tag k="name" v="Jensodden" />
		<tag k="natural" v="cape" />
		<tag k="ssr:stedsnr" v="803164" />
	</node>
	<node lat="65.38852222557283" lon="12.122858335402826" id="-12287">
		<tag k="bay" v="fjord" />
		<tag k="name" v="Torgfjorden" />
		<tag k="natural" v="bay" />
		<tag k="ssr:stedsnr" v="803209" />
	</node>
	<node lat="65.25950555926468" lon="11.989366664353513" id="-12288">
		<tag k="name" v="Steinøya" />
		<tag k="place" v="islet" />
		<tag k="ssr:stedsnr" v="803280" />
	</node>
	<node lat="65.35528333273484" lon="11.440872231890854" id="-12302">
		<tag k="name" v="Indrenordbåskoltan" />
		<tag k="natural" v="shoal" />
		<tag k="place" v="locality" />
		<tag k="ssr:stedsnr" v="814690" />
	</node>
	<node lat="65.34894444277337" lon="11.978033337978271" id="-12308">
		<tag k="name" v="Bliringen" />
		<tag k="place" v="islet" />
		<tag k="ssr:stedsnr" v="925150" />
	</node>
	<node lat="65.32000000029859" lon="12.417947223619336" id="-12313">
		<tag k="alt_name" v="Foraneset" />
		<tag k="name" v="Forneset" />
		<tag k="natural" v="cape" />
		<tag k="ssr:stedsnr" v="925297" />
	</node>
	<node lat="65.20721666458012" lon="12.006861113852988" id="-12331">
		<tag k="name" v="Kvennvikskjæret" />
		<tag k="place" v="islet" />
		<tag k="ssr:stedsnr" v="846910" />
	</node>
	<node lat="65.35440833418771" lon="12.211097221682854" id="-12335">
		<tag k="name" v="Finnvika" />
		<tag k="natural" v="bay" />
		<tag k="ssr:stedsnr" v="847416" />
	</node>
	<node lat="65.32957777623751" lon="11.496555554295" id="-12336">
		<tag k="name" v="Ytreleirbåen" />
		<tag k="natural" v="shoal" />
		<tag k="place" v="locality" />
		<tag k="ssr:stedsnr" v="925953" />
	</node>
	<node lat="65.3031138876982" lon="12.142913894333397" id="-12343">
		<tag k="name" v="Viksjøen" />
		<tag k="natural" v="bay" />
		<tag k="ssr:stedsnr" v="864349" />
	</node>
	<node lat="65.35959444104675" lon="11.424066662621895" id="-12349">
		<tag k="name" v="Ytrenordbåskoltan" />
		<tag k="natural" v="shoal" />
		<tag k="place" v="locality" />
		<tag k="ssr:stedsnr" v="875670" />
	</node>
	<node lat="65.23040555723937" lon="11.84473056262849" id="-12350">
		<tag k="name" v="Bråtslua" />
		<tag k="natural" v="shoal" />
		<tag k="place" v="locality" />
		<tag k="ssr:stedsnr" v="877110" />
	</node>
	<node lat="65.34658611271733" lon="11.63247777538577" id="-12351">
		<tag k="name" v="Kvernholmtaren" />
		<tag k="natural" v="shoal" />
		<tag k="place" v="locality" />
		<tag k="ssr:stedsnr" v="878761" />
	</node>
	<node lat="65.35135833183293" lon="12.398374997838669" id="-12352">
		<tag k="name" v="Teisdalstøa" />
		<tag k="natural" v="bay" />
		<tag k="ssr:stedsnr" v="903617" />
	</node>
	<node lat="65.36373888945134" lon="12.200811104793257" id="-12358">
		<tag k="name" v="Øysjøen" />
		<tag k="natural" v="bay" />
		<tag k="ssr:stedsnr" v="906353" />
	</node>
	<node lat="65.33686944122283" lon="12.12724166085328" id="-12360">
		<tag k="name" v="Osen" />
		<tag k="natural" v="bay" />
		<tag k="ssr:stedsnr" v="906362" />
	</node>
	<node lat="65.28343333454134" lon="12.128300009984214" id="-12363">
		<tag k="name" v="Følvika" />
		<tag k="natural" v="bay" />
		<tag k="ssr:stedsnr" v="906612" />
	</node>
	<node lat="65.20858611272246" lon="11.995602781769781" id="-12365">
		<tag k="name" v="Innerhalsen" />
		<tag k="natural" v="beach" />
		<tag k="ssr:stedsnr" v="906914" />
	</node>
	<node lat="65.21806667061061" lon="12.037933337218826" id="-12366">
		<tag k="fixme" v="consider seamark:type=rock or natural=shoal" />
		<tag k="name" v="Holmhågskjæret" />
		<tag k="place" v="islet" />
		<tag k="ssr:stedsnr" v="906857" />
	</node>
	<node lat="65.24059444605511" lon="11.80832500077785" id="-12370">
		<tag k="name" v="Stortaren" />
		<tag k="natural" v="shoal" />
		<tag k="place" v="locality" />
		<tag k="ssr:stedsnr" v="924824" />
	</node>
	<node lat="65.21287500228378" lon="11.967141666477003" id="-12371">
		<tag k="alt_name" v="Novodden" />
		<tag k="name" v="Nova" />
		<tag k="natural" v="cape" />
		<tag k="ssr:stedsnr" v="924909" />
	</node>
	<node lat="65.38846388951022" lon="11.464361116529183" id="-12372">
		<tag k="name" v="Skutfallet" />
		<tag k="natural" v="shoal" />
		<tag k="place" v="locality" />
		<tag k="ssr:stedsnr" v="924956" />
	</node>
	<node lat="65.25813333492333" lon="12.00529444978955" id="-12373">
		<tag k="name" v="Trettholmen" />
		<tag k="place" v="islet" />
		<tag k="ssr:stedsnr" v="925313" />
	</node>
	<node lat="65.27631666761758" lon="12.025575006304075" id="-12376">
		<tag k="fixme" v="multiple name tags, choose one and add the other to alt_name" />
		<tag k="name" v="Lyngøya;Langøya" />
		<tag k="place" v="islet" />
		<tag k="ssr:stedsnr" v="925403" />
	</node>
	<node lat="65.27433888515921" lon="12.004158339299885" id="-12377">
		<tag k="name" v="Erikan" />
		<tag k="place" v="islet" />
		<tag k="ssr:stedsnr" v="925405" />
	</node>
	<node lat="65.23992499900316" lon="12.005602770086863" id="-12380">
		<tag k="name" v="Rossvika" />
		<tag k="natural" v="bay" />
		<tag k="ssr:stedsnr" v="925880" />
	</node>
	<node lat="65.35694722411903" lon="11.615613883135335" id="-12381">
		<tag k="name" v="Lisltaren" />
		<tag k="natural" v="shoal" />
		<tag k="place" v="locality" />
		<tag k="ssr:stedsnr" v="925971" />
	</node>
	<node lat="65.33633888946711" lon="12.421908339301961" id="-12383">
		<tag k="name" v="Sjømyra" />
		<tag k="natural" v="beach" />
		<tag k="ssr:stedsnr" v="964512" />
	</node>
	<node lat="65.22660278196862" lon="11.96115000493143" id="-12390">
		<tag k="fixme" v="consider seamark:type=rock or natural=shoal" />
		<tag k="name" v="Hamnskjæret" />
		<tag k="place" v="islet" />
		<tag k="ssr:stedsnr" v="966927" />
	</node>
	<node lat="65.3139083307308" lon="12.231250008120053" id="-12393">
		<tag k="name" v="Kjellbakkneset" />
		<tag k="natural" v="cape" />
		<tag k="ssr:stedsnr" v="967441" />
	</node>
	<node lat="65.22520833034933" lon="11.925824999631093" id="-12457">
		<tag k="name" v="Slimtaren" />
		<tag k="natural" v="shoal" />
		<tag k="place" v="locality" />
		<tag k="ssr:stedsnr" v="14787" />
	</node>
	<node lat="65.22965277697554" lon="12.138525004188482" id="-12460">
		<tag k="name" v="Storvika" />
		<tag k="natural" v="bay" />
		<tag k="ssr:stedsnr" v="14800" />
	</node>
	<node lat="65.32417778199151" lon="11.526500008741092" id="-12462">
		<tag k="name" v="Midtleirbåen" />
		<tag k="natural" v="shoal" />
		<tag k="place" v="locality" />
		<tag k="ssr:stedsnr" v="14916" />
	</node>
	<node lat="65.32763055249512" lon="11.552249990032136" id="-12463">
		<tag k="name" v="Brotsluan" />
		<tag k="natural" v="shoal" />
		<tag k="place" v="locality" />
		<tag k="ssr:stedsnr" v="14918" />
	</node>
	<node lat="65.33245000185175" lon="11.685272217698495" id="-12464">
		<tag k="name" v="Trøbåen" />
		<tag k="natural" v="shoal" />
		<tag k="place" v="locality" />
		<tag k="ssr:stedsnr" v="14926" />
	</node>
	<node lat="65.3550527782585" lon="11.511488888232046" id="-12465">
		<tag k="name" v="Djupbåtaren" />
		<tag k="natural" v="shoal" />
		<tag k="place" v="locality" />
		<tag k="ssr:stedsnr" v="14936" />
	</node>
	<node lat="65.36971666523563" lon="11.441672216222544" id="-12466">
		<tag k="name" v="Kravslua" />
		<tag k="natural" v="shoal" />
		<tag k="place" v="locality" />
		<tag k="ssr:stedsnr" v="14949" />
	</node>
	<node lat="65.31255000103141" lon="12.316686106443534" id="-12469">
		<tag k="fixme" v="consider seamark:type=rock or natural=shoal" />
		<tag k="name" v="Sandskjæran" />
		<tag k="place" v="islet" />
		<tag k="ssr:stedsnr" v="15281" />
	</node>
	<node lat="65.26820278020696" lon="11.998016663305355" id="-12472">
		<tag k="name" v="Vågøyvalen" />
		<tag k="natural" v="strait" />
		<tag k="ssr:stedsnr" v="15387" />
	</node>
	<node lat="65.36467499806247" lon="12.090922219419403" id="-12476">
		<tag k="name" v="Klubbtaren" />
		<tag k="natural" v="shoal" />
		<tag k="place" v="locality" />
		<tag k="ssr:stedsnr" v="24847" />
	</node>
	<node lat="65.2243861099793" lon="12.05615278190098" id="-12478">
		<tag k="name" v="Skårvika" />
		<tag k="natural" v="bay" />
		<tag k="ssr:stedsnr" v="28137" />
	</node>
	<node lat="65.32787222182671" lon="11.551116666346825" id="-12479">
		<tag k="name" v="Midtbrotslua" />
		<tag k="natural" v="shoal" />
		<tag k="place" v="locality" />
		<tag k="ssr:stedsnr" v="28777" />
	</node>
	<node lat="65.32447499940741" lon="12.434433335234646" id="-12482">
		<tag k="name" v="Ambalvika" />
		<tag k="natural" v="bay" />
		<tag k="ssr:stedsnr" v="54532" />
	</node>
	<node lat="65.36888332984354" lon="12.19480555087278" id="-12486">
		<tag k="name" v="Klakkskjæret" />
		<tag k="natural" v="cape" />
		<tag k="ssr:stedsnr" v="56341" />
	</node>
	<node lat="65.28032777858989" lon="12.024216668085046" id="-12489">
		<tag k="fixme" v="consider seamark:type=rock or natural=shoal" />
		<tag k="name" v="Vesterkua" />
		<tag k="place" v="islet" />
		<tag k="ssr:stedsnr" v="56741" />
	</node>
	<node lat="65.23046944138922" lon="12.149777786864883" id="-12490">
		<tag k="name" v="Laksvika" />
		<tag k="natural" v="bay" />
		<tag k="ssr:stedsnr" v="56750" />
	</node>
	<node lat="65.25896388804013" lon="11.97581667123717" id="-12494">
		<tag k="name" v="Otergreinan" />
		<tag k="natural" v="cape" />
		<tag k="ssr:stedsnr" v="56933" />
	</node>
	<node lat="65.26447777394789" lon="12.020674999297933" id="-12503">
		<tag k="name" v="Søyla" />
		<tag k="place" v="locality" />
		<tag k="seamark:type" v="rock" />
		<tag k="ssr:stedsnr" v="57864" />
	</node>
	<node lat="65.33929166581703" lon="12.06669443397899" id="-12507">
		<tag k="name" v="Kvitholman" />
		<tag k="place" v="islet" />
		<tag k="ssr:stedsnr" v="75146" />
	</node>
	<node lat="65.27365277809314" lon="12.255258324235063" id="-12508">
		<tag k="alt_name" v="Løktvik" />
		<tag k="name" v="Laukvika" />
		<tag k="natural" v="bay" />
		<tag k="ssr:stedsnr" v="75246" />
	</node>
	<node lat="65.30390277513843" lon="12.122908337978647" id="-12510">
		<tag k="name" v="Gjestholmen" />
		<tag k="place" v="islet" />
		<tag k="ssr:stedsnr" v="75340" />
	</node>
	<node lat="65.32035833595683" lon="12.405283325292315" id="-12511">
		<tag k="name" v="Ursholman" />
		<tag k="place" v="islet" />
		<tag k="ssr:stedsnr" v="75264" />
	</node>
	<node lat="65.27030277490027" lon="12.119983335166358" id="-12517">
		<tag k="name" v="Jamnsjøodden" />
		<tag k="natural" v="cape" />
		<tag k="ssr:stedsnr" v="75358" />
	</node>
	<node lat="65.2372277762987" lon="12.181574996523153" id="-12529">
		<tag k="name" v="Hammaren" />
		<tag k="natural" v="cape" />
		<tag k="ssr:stedsnr" v="75871" />
	</node>
	<node lat="65.23764166940238" lon="11.962683336199463" id="-12531">
		<tag k="name" v="Kråkøya" />
		<tag k="place" v="islet" />
		<tag k="ssr:stedsnr" v="75881" />
	</node>
	<node lat="65.38058888788524" lon="11.463752770979188" id="-12532">
		<tag k="name" v="Bolltaren" />
		<tag k="natural" v="shoal" />
		<tag k="place" v="locality" />
		<tag k="ssr:stedsnr" v="75974" />
	</node>
	<node lat="65.32600555789732" lon="11.555230565025093" id="-12536">
		<tag k="name" v="Sørbrotslua" />
		<tag k="natural" v="shoal" />
		<tag k="place" v="locality" />
		<tag k="ssr:stedsnr" v="89745" />
	</node>
	<node lat="65.20692222647986" lon="12.038583327913805" id="-12537">
		<tag k="name" v="Åkervikodden" />
		<tag k="natural" v="cape" />
		<tag k="old_name" v="Arvikodden" />
		<tag k="ssr:stedsnr" v="97354" />
	</node>
	<node lat="65.34004722291" lon="12.431950007983838" id="-12539">
		<tag k="name" v="Roparvika" />
		<tag k="natural" v="bay" />
		<tag k="ssr:stedsnr" v="114550" />
	</node>
	<node lat="65.30982500406998" lon="12.39949166992292" id="-12540">
		<tag k="name" v="Rånvika" />
		<tag k="natural" v="bay" />
		<tag k="ssr:stedsnr" v="114566" />
	</node>
	<node lat="65.37056389114377" lon="12.238788887809232" id="-12554">
		<tag k="name" v="Mølnhusbukta" />
		<tag k="natural" v="bay" />
		<tag k="ssr:stedsnr" v="117363" />
	</node>
	<node lat="65.3056083333655" lon="12.124463892272642" id="-12559">
		<tag k="name" v="Sjøodden" />
		<tag k="natural" v="cape" />
		<tag k="ssr:stedsnr" v="117548" />
	</node>
	<node lat="65.22996110795359" lon="12.142591657802372" id="-12561">
		<tag k="name" v="Jovika" />
		<tag k="natural" v="bay" />
		<tag k="ssr:stedsnr" v="117727" />
	</node>
	<node lat="65.27026110957856" lon="12.035274995473568" id="-12568">
		<tag k="fixme" v="consider seamark:type=rock or natural=shoal" />
		<tag k="name" v="Storskjæret" />
		<tag k="place" v="islet" />
		<tag k="ssr:stedsnr" v="117866" />
	</node>
	<node lat="65.25723889208446" lon="12.114205548242305" id="-12569">
		<tag k="name" v="Osen" />
		<tag k="natural" v="bay" />
		<tag k="ssr:stedsnr" v="117869" />
	</node>
	<node lat="65.23115277892899" lon="11.96470000662438" id="-12581">
		<tag k="name" v="Langøya" />
		<tag k="place" v="island" />
		<tag k="ssr:stedsnr" v="135812" />
	</node>
	<node lat="65.22871944391565" lon="11.96838611401415" id="-12582">
		<tag k="name" v="Langøysundet" />
		<tag k="natural" v="strait" />
		<tag k="ssr:stedsnr" v="135813" />
	</node>
	<node lat="65.3088777758818" lon="11.631499999246293" id="-12584">
		<tag k="name" v="Sørhorsvær" />
		<tag k="place" v="island" />
		<tag k="ssr:stedsnr" v="135911" />
	</node>
	<node lat="65.30029444459636" lon="11.631049991525174" id="-12585">
		<tag k="fixme" v="consider seamark:type=rock or natural=shoal" />
		<tag k="name" v="Steinskjæran" />
		<tag k="place" v="islet" />
		<tag k="ssr:stedsnr" v="135912" />
	</node>
	<node lat="65.21066666683427" lon="11.993827786624248" id="-12586">
		<tag k="name" v="Urdvika" />
		<tag k="natural" v="bay" />
		<tag k="ssr:stedsnr" v="135913" />
	</node>
	<node lat="65.311536114637" lon="11.624936105849475" id="-12587">
		<tag k="fixme" v="consider seamark:type=rock or natural=shoal" />
		<tag k="name" v="Buholmskjæret" />
		<tag k="place" v="islet" />
		<tag k="ssr:stedsnr" v="135915" />
	</node>
	<node lat="65.32953055128657" lon="11.634636102560949" id="-12588">
		<tag k="fixme" v="consider seamark:type=rock or natural=shoal" />
		<tag k="name" v="Røyrskjæran" />
		<tag k="place" v="islet" />
		<tag k="ssr:stedsnr" v="135933" />
	</node>
	<node lat="65.33380833185065" lon="11.600725002666147" id="-12589">
		<tag k="fixme" v="consider seamark:type=rock or natural=shoal" />
		<tag k="name" v="Kobbskjæran" />
		<tag k="place" v="islet" />
		<tag k="ssr:stedsnr" v="135937" />
	</node>
	<node lat="65.22317777570774" lon="11.97108055816071" id="-12592">
		<tag k="name" v="Einvika" />
		<tag k="natural" v="bay" />
		<tag k="ssr:stedsnr" v="135792" />
	</node>
	<node lat="65.25565833452207" lon="11.792569437222381" id="-12596">
		<tag k="name" v="Janstaren" />
		<tag k="natural" v="shoal" />
		<tag k="place" v="locality" />
		<tag k="ssr:stedsnr" v="136401" />
	</node>
	<node lat="65.39169444376363" lon="12.269466677061947" id="-12601">
		<tag k="name" v="Kvervet" />
		<tag k="natural" v="bay" />
		<tag k="ssr:stedsnr" v="136469" />
	</node>
	<node lat="65.28127777717837" lon="11.642766669717403" id="-12602">
		<tag k="name" v="Lislgjøva" />
		<tag k="place" v="islet" />
		<tag k="ssr:stedsnr" v="136910" />
	</node>
	<node lat="65.32738332897775" lon="12.063033336940881" id="-12604">
		<tag k="fixme" v="consider seamark:type=rock or natural=shoal" />
		<tag k="name" v="Nordsteinskjæret" />
		<tag k="place" v="islet" />
		<tag k="ssr:stedsnr" v="145854" />
	</node>
	<node lat="65.26702500032276" lon="12.013941672823394" id="-12617">
		<tag k="name" v="Vakthusøyvalen" />
		<tag k="natural" v="strait" />
		<tag k="ssr:stedsnr" v="178854" />
	</node>
	<node lat="65.24078889116613" lon="12.090444441328541" id="-12624">
		<tag k="fixme" v="consider seamark:type=rock or natural=shoal" />
		<tag k="name" v="Tindskjæret" />
		<tag k="place" v="islet" />
		<tag k="ssr:stedsnr" v="178829" />
	</node>
	<node lat="65.31409999820535" lon="11.794941660089144" id="-12627">
		<tag k="name" v="Hystaran" />
		<tag k="natural" v="shoal" />
		<tag k="place" v="locality" />
		<tag k="ssr:stedsnr" v="196191" />
	</node>
	<node lat="65.37001944261829" lon="12.234325009219857" id="-12630">
		<tag k="name" v="Klaven" />
		<tag k="natural" v="bay" />
		<tag k="ssr:stedsnr" v="196366" />
	</node>
	<node lat="65.21085000378848" lon="11.948302773054076" id="-12631">
		<tag k="alt_name" v="Geitungslua" />
		<tag k="name" v="Geitungbåen" />
		<tag k="natural" v="shoal" />
		<tag k="place" v="locality" />
		<tag k="ssr:stedsnr" v="196920" />
	</node>
	<node lat="65.34678055783755" lon="11.434983340286395" id="-12632">
		<tag k="name" v="Indrenordbåen" />
		<tag k="natural" v="shoal" />
		<tag k="place" v="locality" />
		<tag k="ssr:stedsnr" v="196945" />
	</node>
	<node lat="65.35225000299315" lon="11.423124995725514" id="-12633">
		<tag k="fixme" v="consider seamark:type=rock or natural=shoal" />
		<tag k="name" v="Ytrenordbåen" />
		<tag k="place" v="islet" />
		<tag k="ssr:stedsnr" v="196955" />
	</node>
	<node lat="65.34610000234134" lon="11.999277775138632" id="-12636">
		<tag k="name" v="Feøya" />
		<tag k="place" v="island" />
		<tag k="ssr:stedsnr" v="197151" />
	</node>
	<node lat="65.35920000221404" lon="12.202202771443634" id="-12637">
		<tag k="name" v="Saltnesodden" />
		<tag k="natural" v="cape" />
		<tag k="ssr:stedsnr" v="197155" />
	</node>
	<node lat="65.29847778093124" lon="12.248213889199567" id="-12639">
		<tag k="name" v="Bindalsstøa" />
		<tag k="natural" v="bay" />
		<tag k="ssr:stedsnr" v="197326" />
	</node>
	<node lat="65.30779444419915" lon="12.239699993952504" id="-12640">
		<tag k="alt_name" v="Bjørnstigodden" />
		<tag k="name" v="Bjønnstiodden" />
		<tag k="natural" v="cape" />
		<tag k="ssr:stedsnr" v="197346" />
	</node>
	<node lat="65.31309444563871" lon="12.419286114274826" id="-12643">
		<tag k="name" v="Storvika" />
		<tag k="natural" v="bay" />
		<tag k="ssr:stedsnr" v="197696" />
	</node>
	<node lat="65.3183416656043" lon="11.640205556229356" id="-12644">
		<tag k="name" v="Horsvær" />
		<tag k="place" v="island" />
		<tag k="ssr:stedsnr" v="197936" />
	</node>
	<node lat="65.31610555427511" lon="11.640677783060307" id="-12645">
		<tag k="name" v="Purkholmen" />
		<tag k="place" v="islet" />
		<tag k="ssr:stedsnr" v="197948" />
	</node>
	<node lat="65.31378610962895" lon="11.565399998591138" id="-12646">
		<tag k="name" v="Skålviksluan" />
		<tag k="natural" v="shoal" />
		<tag k="place" v="locality" />
		<tag k="ssr:stedsnr" v="197949" />
	</node>
	<node lat="65.23212777459075" lon="12.082824999448526" id="-12647">
		<tag k="name" v="Mariavika" />
		<tag k="natural" v="bay" />
		<tag k="ssr:stedsnr" v="197835" />
	</node>
	<node lat="65.3169277753817" lon="11.613405548081412" id="-12649">
		<tag k="name" v="Kiskjærflaget" />
		<tag k="natural" v="shoal" />
		<tag k="place" v="locality" />
		<tag k="ssr:stedsnr" v="210761" />
	</node>
	<node lat="65.2220222228761" lon="11.963422222223592" id="-12650">
		<tag k="name" v="Vassvikbåen" />
		<tag k="natural" v="shoal" />
		<tag k="place" v="locality" />
		<tag k="ssr:stedsnr" v="210956" />
	</node>
	<node lat="65.34165555379002" lon="12.436758333667283" id="-12653">
		<tag k="name" v="Vikaholmen" />
		<tag k="place" v="islet" />
		<tag k="ssr:stedsnr" v="296498" />
	</node>
	<node lat="65.35264722147446" lon="12.402827785207242" id="-12656">
		<tag k="name" v="Jonsokgrova" />
		<tag k="natural" v="bay" />
		<tag k="ssr:stedsnr" v="296616" />
	</node>
	<node lat="65.22433610978308" lon="12.125352767742372" id="-12671">
		<tag k="name" v="Haldorvika" />
		<tag k="natural" v="bay" />
		<tag k="ssr:stedsnr" v="299736" />
	</node>
	<node lat="65.2372416682406" lon="12.022788899574332" id="-12674">
		<tag k="fixme" v="consider seamark:type=rock or natural=shoal" />
		<tag k="name" v="Kalvøyskjæran" />
		<tag k="place" v="islet" />
		<tag k="ssr:stedsnr" v="299833" />
	</node>
	<node lat="65.37950555941906" lon="12.236700002262808" id="-12685">
		<tag k="alt_name" v="Odden" />
		<tag k="name" v="Vestrebergodden" />
		<tag k="natural" v="cape" />
		<tag k="ssr:stedsnr" v="317358" />
	</node>
	<node lat="65.21200000288464" lon="11.977933342624732" id="-12688">
		<tag k="name" v="Hallsteinvika" />
		<tag k="natural" v="bay" />
		<tag k="ssr:stedsnr" v="317900" />
	</node>
	<node lat="65.3424055534529" lon="11.607483343845429" id="-12689">
		<tag k="alt_name" v="Litlgåsflesa" />
		<tag k="fixme" v="consider seamark:type=rock or natural=shoal" />
		<tag k="name" v="Lislgåsflesa" />
		<tag k="place" v="islet" />
		<tag k="ssr:stedsnr" v="317928" />
	</node>
	<node lat="65.3381305536048" lon="11.982227785157866" id="-12690">
		<tag k="name" v="Lyngøya" />
		<tag k="place" v="islet" />
		<tag k="ssr:stedsnr" v="318131" />
	</node>
	<node lat="65.27690833066833" lon="12.111716665672052" id="-12691">
		<tag k="name" v="Sandvågen" />
		<tag k="natural" v="bay" />
		<tag k="ssr:stedsnr" v="318322" />
	</node>
	<node lat="65.32121111330079" lon="12.444344438201854" id="-12696">
		<tag k="name" v="Smedvikodden" />
		<tag k="natural" v="cape" />
		<tag k="ssr:stedsnr" v="318259" />
	</node>
	<node lat="65.26006666818529" lon="12.011494440123437" id="-12697">
		<tag k="name" v="Flesa" />
		<tag k="place" v="islet" />
		<tag k="ssr:stedsnr" v="318269" />
	</node>
	<node lat="65.27313889134379" lon="12.013930556662979" id="-12700">
		<tag k="name" v="Nipøya" />
		<tag k="place" v="islet" />
		<tag k="ssr:stedsnr" v="318360" />
	</node>
	<node lat="65.31730000270883" lon="12.244238891452962" id="-12702">
		<tag k="name" v="Saltnesodden" />
		<tag k="natural" v="cape" />
		<tag k="ssr:stedsnr" v="318685" />
	</node>
	<node lat="65.41851666423226" lon="11.170741669528441" id="-12703">
		<tag k="name" v="Knausen" />
		<tag k="natural" v="shoal" />
		<tag k="place" v="locality" />
		<tag k="ssr:stedsnr" v="318766" />
	</node>
	<node lat="65.24028333128118" lon="12.01451111446532" id="-12704">
		<tag k="name" v="Rossvikneset" />
		<tag k="natural" v="cape" />
		<tag k="ssr:stedsnr" v="318861" />
	</node>
	<node lat="65.24206666950874" lon="12.026111117075395" id="-12706">
		<tag k="fixme" v="consider seamark:type=rock or natural=shoal" />
		<tag k="name" v="Kvaløyskjæran" />
		<tag k="place" v="islet" />
		<tag k="ssr:stedsnr" v="331117" />
	</node>
	<node lat="65.31574999986701" lon="11.614599993660194" id="-12707">
		<tag k="name" v="Kiskjerflaget" />
		<tag k="place" v="islet" />
		<tag k="ssr:stedsnr" v="331079" />
	</node>
	<node lat="65.25643333126354" lon="12.10636665617148" id="-12708">
		<tag k="name" v="Strømmen" />
		<tag k="natural" v="bay" />
		<tag k="ssr:stedsnr" v="331097" />
	</node>
	<node lat="65.2708305562508" lon="12.01438889829996" id="-12727">
		<tag k="name" v="Nipøyvalen" />
		<tag k="natural" v="strait" />
		<tag k="ssr:stedsnr" v="360854" />
	</node>
	<node lat="65.2204972227365" lon="11.96818055617728" id="-12738">
		<tag k="name" v="Vassvika" />
		<tag k="natural" v="bay" />
		<tag k="ssr:stedsnr" v="360899" />
	</node>
	<node lat="65.26189444530078" lon="11.976494436613024" id="-12742">
		<tag k="name" v="Oksneset" />
		<tag k="natural" v="cape" />
		<tag k="ssr:stedsnr" v="360930" />
	</node>
	<node lat="65.36425277803627" lon="12.442127774315573" id="-12743">
		<tag k="name" v="Storvika" />
		<tag k="natural" v="bay" />
		<tag k="ssr:stedsnr" v="360944" />
	</node>
	<node lat="65.34634444123957" lon="12.20038889183617" id="-12745">
		<tag k="name" v="Sjøhalsen" />
		<tag k="natural" v="beach" />
		<tag k="ssr:stedsnr" v="361426" />
	</node>
	<node lat="65.20898611562201" lon="11.997980548461856" id="-12747">
		<tag k="name" v="Brunvikneset" />
		<tag k="natural" v="cape" />
		<tag k="ssr:stedsnr" v="378932" />
	</node>
	<node lat="65.34295277857937" lon="11.973808335379907" id="-12751">
		<tag k="name" v="Rundholmen" />
		<tag k="place" v="islet" />
		<tag k="ssr:stedsnr" v="378111" />
	</node>
	<node lat="65.34453888618918" lon="12.073305555578006" id="-12752">
		<tag k="name" v="Fløholman" />
		<tag k="place" v="islet" />
		<tag k="ssr:stedsnr" v="378112" />
	</node>
	<node lat="65.30311388600138" lon="12.133249990915667" id="-12754">
		<tag k="name" v="Vikvågen" />
		<tag k="natural" v="bay" />
		<tag k="ssr:stedsnr" v="378332" />
	</node>
	<node lat="65.22512499752366" lon="12.128461106985515" id="-12762">
		<tag k="alt_name" v="Sønnavindstørningen" />
		<tag k="name" v="Sønnavindstrømmingen" />
		<tag k="natural" v="cape" />
		<tag k="ssr:stedsnr" v="378846" />
	</node>
	<node lat="65.22721389177421" lon="12.068358342269" id="-12763">
		<tag k="name" v="Båtsvika" />
		<tag k="natural" v="bay" />
		<tag k="ssr:stedsnr" v="378847" />
	</node>
	<node lat="65.34153055744501" lon="11.463622223860014" id="-12765">
		<tag k="name" v="Tverrsluan" />
		<tag k="natural" v="shoal" />
		<tag k="place" v="locality" />
		<tag k="ssr:stedsnr" v="378948" />
	</node>
	<node lat="65.33732222013971" lon="11.535177767817837" id="-12766">
		<tag k="name" v="Skattholsluan" />
		<tag k="natural" v="shoal" />
		<tag k="place" v="locality" />
		<tag k="ssr:stedsnr" v="378949" />
	</node>
	<node lat="65.3108416682038" lon="12.389802776353301" id="-12769">
		<tag k="name" v="Jektvikodden" />
		<tag k="natural" v="cape" />
		<tag k="ssr:stedsnr" v="379666" />
	</node>
	<node lat="65.3261444460696" lon="12.061622222598405" id="-12772">
		<tag k="fixme" v="consider seamark:type=rock or natural=shoal" />
		<tag k="name" v="Sørsteinskjæret" />
		<tag k="place" v="islet" />
		<tag k="ssr:stedsnr" v="388833" />
	</node>
	<node lat="65.24958611120144" lon="12.006769454005319" id="-12773">
		<tag k="name" v="Svartskjærgrunnen" />
		<tag k="natural" v="shoal" />
		<tag k="place" v="locality" />
		<tag k="ssr:stedsnr" v="391122" />
	</node>
	<node lat="65.27139166252667" lon="12.010527770986213" id="-12782">
		<tag k="name" v="Sandskjærvalen" />
		<tag k="natural" v="strait" />
		<tag k="ssr:stedsnr" v="421872" />
	</node>
	<node lat="65.37717777775984" lon="12.222630556677851" id="-12786">
		<tag k="name" v="Stongneset" />
		<tag k="natural" v="cape" />
		<tag k="ssr:stedsnr" v="421337" />
	</node>
	<node lat="65.29826110924292" lon="12.138105556866831" id="-12787">
		<tag k="name" v="Jutvika" />
		<tag k="natural" v="bay" />
		<tag k="ssr:stedsnr" v="421519" />
	</node>
	<node lat="65.29701944265615" lon="12.138819447729713" id="-12789">
		<tag k="name" v="Lilleholmen" />
		<tag k="place" v="islet" />
		<tag k="ssr:stedsnr" v="421594" />
	</node>
	<node lat="65.23262777522638" lon="12.078686115871452" id="-12797">
		<tag k="fixme" v="consider seamark:type=rock or natural=shoal" />
		<tag k="name" v="Grønskjæret" />
		<tag k="place" v="islet" />
		<tag k="ssr:stedsnr" v="421929" />
	</node>
	<node lat="65.37260833369167" lon="11.457711108001366" id="-12801">
		<tag k="bay" v="fjord" />
		<tag k="name" v="Ryggfalleia" />
		<tag k="natural" v="bay" />
		<tag k="ssr:stedsnr" v="439956" />
	</node>
	<node lat="65.26721110712185" lon="12.029100001493715" id="-12803">
		<tag k="name" v="Sørøya" />
		<tag k="place" v="island" />
		<tag k="ssr:stedsnr" v="439327" />
	</node>
	<node lat="65.31435833025611" lon="12.2932638986544" id="-12809">
		<tag k="name" v="Klubbholmen" />
		<tag k="place" v="islet" />
		<tag k="ssr:stedsnr" v="439236" />
	</node>
	<node lat="65.32923055874032" lon="12.353974992060996" id="-12810">
		<tag k="name" v="Brotstøa" />
		<tag k="natural" v="bay" />
		<tag k="ssr:stedsnr" v="439261" />
	</node>
	<node lat="65.24041944173335" lon="12.039972231620377" id="-12816">
		<tag k="bay" v="fjord" />
		<tag k="name" v="Lyngværfjorden" />
		<tag k="natural" v="bay" />
		<tag k="ssr:stedsnr" v="439865" />
	</node>
	<node lat="65.24658888855978" lon="11.98292500847345" id="-12817">
		<tag k="name" v="Kalvholmen" />
		<tag k="place" v="islet" />
		<tag k="ssr:stedsnr" v="439870" />
	</node>
	<node lat="65.35948480319206" lon="11.425596254594826" id="-12818">
		<tag k="name" v="Nordbåskoltan" />
		<tag k="natural" v="shoal" />
		<tag k="place" v="locality" />
		<tag k="ssr:stedsnr" v="439953" />
	</node>
	<node lat="65.38055000157166" lon="11.491752782278432" id="-12819">
		<tag k="alt_name" v="Brøran" />
		<tag k="name" v="Brørn" />
		<tag k="natural" v="shoal" />
		<tag k="place" v="locality" />
		<tag k="ssr:stedsnr" v="439955" />
	</node>
	<node lat="65.3225805536915" lon="11.632350000392076" id="-12821">
		<tag k="name" v="Nordhorsvær" />
		<tag k="place" v="island" />
		<tag k="ssr:stedsnr" v="439935" />
	</node>
	<node lat="65.34921666589491" lon="11.484313891505941" id="-12824">
		<tag k="name" v="Midtsaltaren" />
		<tag k="natural" v="shoal" />
		<tag k="place" v="locality" />
		<tag k="ssr:stedsnr" v="499944" />
	</node>
	<node lat="65.31649999584008" lon="12.026411119192215" id="-12825">
		<tag k="fixme" v="consider seamark:type=rock or natural=shoal" />
		<tag k="name" v="Gloven" />
		<tag k="place" v="islet" />
		<tag k="ssr:stedsnr" v="499119" />
	</node>
	<node lat="65.2424111072307" lon="12.014580562210668" id="-12827">
		<tag k="name" v="Rossvikholman" />
		<tag k="place" v="islet" />
		<tag k="ssr:stedsnr" v="499815" />
	</node>
	<node lat="65.26691666420984" lon="12.10483055781479" id="-12829">
		<tag k="name" v="Rundholmen" />
		<tag k="place" v="islet" />
		<tag k="ssr:stedsnr" v="500414" />
	</node>
	<node lat="65.25455000048645" lon="11.857827784819063" id="-12832">
		<tag k="name" v="Storgrunnen" />
		<tag k="natural" v="shoal" />
		<tag k="place" v="locality" />
		<tag k="ssr:stedsnr" v="500418" />
	</node>
	<node lat="65.21793888799127" lon="11.946827780963027" id="-12837">
		<tag k="alt_name" v="Geitungen, litle" />
		<tag k="name" v="Litlgeitungen" />
		<tag k="place" v="islet" />
		<tag k="ssr:stedsnr" v="499921" />
	</node>
	<node lat="65.37888888885978" lon="11.422891674904578" id="-12840">
		<tag k="name" v="Ryggfallan" />
		<tag k="natural" v="shoal" />
		<tag k="place" v="locality" />
		<tag k="ssr:stedsnr" v="499959" />
	</node>
	<node lat="65.37966388611093" lon="11.321005551134272" id="-12841">
		<tag k="name" v="Ufstaren" />
		<tag k="natural" v="shoal" />
		<tag k="place" v="locality" />
		<tag k="ssr:stedsnr" v="499963" />
	</node>
	<node lat="65.38311666970746" lon="11.347961118610664" id="-12842">
		<tag k="name" v="Kvesknausen" />
		<tag k="natural" v="shoal" />
		<tag k="place" v="locality" />
		<tag k="ssr:stedsnr" v="499964" />
	</node>
	<node lat="65.29365000317169" lon="12.34090277444275" id="-12846">
		<tag k="name" v="Mulingsvika" />
		<tag k="natural" v="bay" />
		<tag k="ssr:stedsnr" v="500346" />
	</node>
	<node lat="65.31085000394576" lon="12.381405560838687" id="-12847">
		<tag k="fixme" v="consider seamark:type=rock or natural=shoal" />
		<tag k="name" v="Olderbakkskjæret" />
		<tag k="place" v="islet" />
		<tag k="ssr:stedsnr" v="500367" />
	</node>
	<node lat="65.30834722342415" lon="12.422200002185617" id="-12848">
		<tag k="name" v="Sildvika" />
		<tag k="natural" v="bay" />
		<tag k="ssr:stedsnr" v="500368" />
	</node>
	<node lat="65.32669444358115" lon="12.236758323921277" id="-12849">
		<tag k="name" v="Brekkosen" />
		<tag k="natural" v="bay" />
		<tag k="ssr:stedsnr" v="500323" />
	</node>
	<node lat="65.25146944132676" lon="11.96505001008308" id="-12850">
		<tag k="name" v="Lamholmen" />
		<tag k="place" v="islet" />
		<tag k="ssr:stedsnr" v="500326" />
	</node>
	<node lat="65.23954444489281" lon="12.023569435308776" id="-12854">
		<tag k="fixme" v="consider seamark:type=rock or natural=shoal" />
		<tag k="name" v="Kvaløyskjæret" />
		<tag k="place" v="islet" />
		<tag k="ssr:stedsnr" v="500865" />
	</node>
	<node lat="65.24026388966566" lon="11.971330554310445" id="-12857">
		<tag k="fixme" v="consider seamark:type=rock or natural=shoal" />
		<tag k="name" v="Langskjæret" />
		<tag k="place" v="islet" />
		<tag k="ssr:stedsnr" v="500873" />
	</node>
	<node lat="65.28938333501117" lon="11.680502785343753" id="-12858">
		<tag k="name" v="Krabbskjærtaren" />
		<tag k="natural" v="shoal" />
		<tag k="place" v="locality" />
		<tag k="ssr:stedsnr" v="500921" />
	</node>
	<node lat="65.41523889266506" lon="11.308161102515252" id="-12859">
		<tag k="name" v="Fjelldalsslua" />
		<tag k="natural" v="shoal" />
		<tag k="place" v="locality" />
		<tag k="ssr:stedsnr" v="500981" />
	</node>
	<node lat="65.40499166673969" lon="12.287830564679235" id="-12860">
		<tag k="name" v="Sømna" />
		<tag k="natural" v="cape" />
		<tag k="ssr:stedsnr" v="511286" />
	</node>
	<node lat="65.30733889238124" lon="12.095524993405865" id="-12870">
		<tag k="name" v="Vika" />
		<tag k="natural" v="bay" />
		<tag k="ssr:stedsnr" v="542697" />
	</node>
	<node lat="65.27635833621035" lon="12.010194452069285" id="-12872">
		<tag k="name" v="Sør-Makjenholmskjæret" />
		<tag k="natural" v="cape" />
		<tag k="ssr:stedsnr" v="541963" />
	</node>
	<node lat="65.31616944710603" lon="12.24911944853763" id="-12881">
		<tag k="name" v="Føllvika" />
		<tag k="natural" v="bay" />
		<tag k="ssr:stedsnr" v="542451" />
	</node>
	<node lat="65.31900555226174" lon="12.234575007012552" id="-12882">
		<tag k="fixme" v="consider seamark:type=rock or natural=shoal" />
		<tag k="name" v="Kobbskjæret" />
		<tag k="place" v="islet" />
		<tag k="ssr:stedsnr" v="542452" />
	</node>
	<node lat="65.23188611478928" lon="12.02704999412515" id="-12886">
		<tag k="fixme" v="consider seamark:type=rock or natural=shoal" />
		<tag k="name" v="Bryggeskjæret" />
		<tag k="place" v="islet" />
		<tag k="ssr:stedsnr" v="542837" />
	</node>
	<node lat="65.22084166434533" lon="12.033641657046198" id="-12888">
		<tag k="name" v="Lenningsvika" />
		<tag k="natural" v="bay" />
		<tag k="ssr:stedsnr" v="542850" />
	</node>
	<node lat="65.21409721966687" lon="12.039736115197176" id="-12890">
		<tag k="name" v="Vennesundssanden" />
		<tag k="natural" v="beach" />
		<tag k="ssr:stedsnr" v="542854" />
	</node>
	<node lat="65.26332221979331" lon="12.029955564315687" id="-12891">
		<tag k="fixme" v="consider seamark:type=rock or natural=shoal" />
		<tag k="name" v="Monsholmknausen" />
		<tag k="place" v="islet" />
		<tag k="ssr:stedsnr" v="542863" />
	</node>
	<node lat="65.32027500167752" lon="12.297052781117292" id="-12895">
		<tag k="name" v="Sjøhaugen" />
		<tag k="natural" v="cape" />
		<tag k="ssr:stedsnr" v="560264" />
	</node>
	<node lat="65.242694444081" lon="12.002858337266645" id="-12907">
		<tag k="name" v="Kobbsteinen" />
		<tag k="natural" v="shoal" />
		<tag k="place" v="locality" />
		<tag k="ssr:stedsnr" v="573110" />
	</node>
	<node lat="65.27148888566322" lon="12.030986101422181" id="-12909">
		<tag k="name" v="Lyngværøya" />
		<tag k="place" v="island" />
		<tag k="ssr:stedsnr" v="573092" />
	</node>
	<node lat="65.32282076253216" lon="11.556669099733702" id="-12910">
		<tag k="fixme" v="consider seamark:type=rock or natural=shoal" />
		<tag k="name" v="Indreleirbåen" />
		<tag k="place" v="islet" />
		<tag k="ssr:stedsnr" v="574785" />
	</node>
	<node lat="65.23536111038476" lon="12.102224999997661" id="-12926">
		<tag k="name" v="Stavvika" />
		<tag k="natural" v="bay" />
		<tag k="ssr:stedsnr" v="602829" />
	</node>
	<node lat="65.20766944811805" lon="12.000816674905568" id="-12931">
		<tag k="name" v="Brunfjellhammaren" />
		<tag k="natural" v="cape" />
		<tag k="ssr:stedsnr" v="602909" />
	</node>
	<node lat="65.2584277803971" lon="11.983913888223347" id="-12932">
		<tag k="fixme" v="consider seamark:type=rock or natural=shoal" />
		<tag k="name" v="Stakkvikskjæret" />
		<tag k="place" v="islet" />
		<tag k="ssr:stedsnr" v="602931" />
	</node>
	<node lat="65.23646666639411" lon="11.970397231001249" id="-12933">
		<tag k="name" v="Brattøysundet" />
		<tag k="natural" v="strait" />
		<tag k="ssr:stedsnr" v="602933" />
	</node>
	<node lat="65.30984444338836" lon="12.377077770691562" id="-12934">
		<tag k="name" v="Gjetarvika" />
		<tag k="natural" v="bay" />
		<tag k="ssr:stedsnr" v="604970" />
	</node>
	<node lat="65.29690555787077" lon="12.256950009767072" id="-12939">
		<tag k="name" v="Seljeberget" />
		<tag k="natural" v="cape" />
		<tag k="ssr:stedsnr" v="621299" />
	</node>
	<node lat="65.36724999827716" lon="12.138699991634395" id="-12940">
		<tag k="name" v="Kråka" />
		<tag k="place" v="islet" />
		<tag k="ssr:stedsnr" v="621250" />
	</node>
	<node lat="65.27336111290691" lon="12.261249994616113" id="-12942">
		<tag k="name" v="Laukvikodden" />
		<tag k="natural" v="cape" />
		<tag k="ssr:stedsnr" v="621251" />
	</node>
	<node lat="65.282433330551" lon="12.117577768603171" id="-12944">
		<tag k="name" v="Sjøholmen" />
		<tag k="place" v="islet" />
		<tag k="ssr:stedsnr" v="621333" />
	</node>
	<node lat="65.26684444091194" lon="12.022816661384606" id="-12947">
		<tag k="name" v="Lyngværsundet" />
		<tag k="natural" v="strait" />
		<tag k="ssr:stedsnr" v="621362" />
	</node>
	<node lat="65.30891389148609" lon="11.62635000099765" id="-12951">
		<tag k="name" v="Buholmen" />
		<tag k="place" v="islet" />
		<tag k="ssr:stedsnr" v="621941" />
	</node>
	<node lat="65.31551111468475" lon="11.648433327410933" id="-12952">
		<tag k="alt_name" v="Rismålskjeran;Rismålskjera" />
		<tag k="fixme" v="consider seamark:type=rock or natural=shoal" />
		<tag k="name" v="Rismålsskjeran" />
		<tag k="place" v="islet" />
		<tag k="ssr:stedsnr" v="621945" />
	</node>
	<node lat="65.31957777362841" lon="11.620300006980186" id="-12953">
		<tag k="alt_name" v="Kiskjeran" />
		<tag k="fixme" v="consider seamark:type=rock or natural=shoal" />
		<tag k="name" v="Kjeskjeran" />
		<tag k="place" v="islet" />
		<tag k="ssr:stedsnr" v="621946" />
	</node>
	<node lat="65.23311388948702" lon="12.164094449416806" id="-12954">
		<tag k="name" v="Hjelmsetbukta" />
		<tag k="natural" v="bay" />
		<tag k="ssr:stedsnr" v="621843" />
	</node>
	<node lat="65.22800555819025" lon="11.844169441310791" id="-12955">
		<tag k="name" v="Østerbåen" />
		<tag k="natural" v="shoal" />
		<tag k="place" v="locality" />
		<tag k="ssr:stedsnr" v="621845" />
	</node>
	<node lat="65.23588333287903" lon="11.818252773053441" id="-12958">
		<tag k="name" v="Storslua" />
		<tag k="natural" v="shoal" />
		<tag k="place" v="locality" />
		<tag k="ssr:stedsnr" v="621855" />
	</node>
	<node lat="65.23950000258384" lon="11.976769439125842" id="-12959">
		<tag k="name" v="Bratten" />
		<tag k="place" v="islet" />
		<tag k="ssr:stedsnr" v="621858" />
	</node>
	<node lat="65.4030499996942" lon="11.314980557870753" id="-12960">
		<tag k="name" v="Småtaren" />
		<tag k="natural" v="shoal" />
		<tag k="place" v="locality" />
		<tag k="ssr:stedsnr" v="631688" />
	</node>
	<node lat="65.34521111540742" lon="12.385155554388774" id="-12971">
		<tag k="name" v="Kvitnasen" />
		<tag k="natural" v="cape" />
		<tag k="ssr:stedsnr" v="663126" />
	</node>
	<node lat="65.24073610951238" lon="12.097697221245879" id="-12975">
		<tag k="name" v="Følvika" />
		<tag k="natural" v="bay" />
		<tag k="ssr:stedsnr" v="663828" />
	</node>
	<node lat="65.23892777779827" lon="12.090994444642131" id="-12976">
		<tag k="fixme" v="consider seamark:type=rock or natural=shoal" />
		<tag k="name" v="Melsekkan" />
		<tag k="place" v="islet" />
		<tag k="ssr:stedsnr" v="663829" />
	</node>
	<node lat="65.25287777748537" lon="12.098422222759554" id="-12984">
		<tag k="name" v="Ytterstraumsholmen" />
		<tag k="place" v="islet" />
		<tag k="ssr:stedsnr" v="663875" />
	</node>
	<node lat="65.25815000138776" lon="11.971830557952192" id="-12985">
		<tag k="fixme" v="consider seamark:type=rock or natural=shoal" />
		<tag k="name" v="Dragskjæret" />
		<tag k="place" v="islet" />
		<tag k="ssr:stedsnr" v="663930" />
	</node>
	<node lat="65.26919722404868" lon="12.027761115839935" id="-12986">
		<tag k="name" v="Sørøyvalen" />
		<tag k="natural" v="cape" />
		<tag k="ssr:stedsnr" v="663962" />
	</node>
	<node lat="65.27847777572516" lon="12.024963898792382" id="-12996">
		<tag k="name" v="Seingsdraget" />
		<tag k="place" v="islet" />
		<tag k="ssr:stedsnr" v="724688" />
	</node>
	<node lat="65.22138611527757" lon="12.051616676876305" id="-12999">
		<tag k="name" v="Nerskårhammaren" />
		<tag k="natural" v="cape" />
		<tag k="ssr:stedsnr" v="724852" />
	</node>
	<node lat="65.21810555955568" lon="12.045049993010686" id="-13000">
		<tag k="name" v="Storvika" />
		<tag k="natural" v="bay" />
		<tag k="ssr:stedsnr" v="724853" />
	</node>
	<node lat="65.2167222191297" lon="12.04263332457624" id="-13002">
		<tag k="name" v="Olavika" />
		<tag k="natural" v="bay" />
		<tag k="ssr:stedsnr" v="724858" />
	</node>
	<node lat="65.26116389026048" lon="11.974022222998025" id="-13007">
		<tag k="fixme" v="consider seamark:type=rock or natural=shoal" />
		<tag k="name" v="Otergreinskjæret" />
		<tag k="place" v="islet" />
		<tag k="ssr:stedsnr" v="724947" />
	</node>
	<node lat="65.30645278201423" lon="12.087180545745674" id="-13020">
		<tag k="name" v="Jektvika" />
		<tag k="natural" v="bay" />
		<tag k="ssr:stedsnr" v="742302" />
	</node>
	<node lat="65.22365278150045" lon="11.958872222202608" id="-13024">
		<tag k="alt_name" v="Deilåtholmen" />
		<tag k="name" v="Deilitholmen" />
		<tag k="place" v="islet" />
		<tag k="ssr:stedsnr" v="742799" />
	</node>
	<node lat="65.22724166819508" lon="11.93523333217168" id="-13027">
		<tag k="name" v="Langtaren" />
		<tag k="natural" v="shoal" />
		<tag k="place" v="locality" />
		<tag k="ssr:stedsnr" v="742818" />
	</node>
	<node lat="65.24276388457295" lon="11.832949999993291" id="-13028">
		<tag k="name" v="Langtaren" />
		<tag k="natural" v="shoal" />
		<tag k="place" v="locality" />
		<tag k="ssr:stedsnr" v="742824" />
	</node>
	<node lat="65.35015833491526" lon="11.431555561605784" id="-13030">
		<tag k="bay" v="fjord" />
		<tag k="name" v="Nordbåleia" />
		<tag k="natural" v="bay" />
		<tag k="ssr:stedsnr" v="742949" />
	</node>
	<node lat="65.38230555394047" lon="11.259891666262023" id="-13031">
		<tag k="name" v="Sørblaen" />
		<tag k="natural" v="shoal" />
		<tag k="place" v="locality" />
		<tag k="ssr:stedsnr" v="742963" />
	</node>
	<node lat="65.3465118928043" lon="11.971062939684957" id="-13032">
		<tag k="name" v="Sandværet" />
		<tag k="place" v="island" />
		<tag k="ssr:stedsnr" v="743148" />
	</node>
	<node lat="65.32543332910781" lon="11.994949991084464" id="-13033">
		<tag k="name" v="Biskoptaren" />
		<tag k="natural" v="shoal" />
		<tag k="place" v="locality" />
		<tag k="ssr:stedsnr" v="743158" />
	</node>
	<node lat="65.30537777485094" lon="11.591369434924202" id="-13040">
		<tag k="alt_name" v="Fiskerbåen" />
		<tag k="name" v="Fiskarbåen" />
		<tag k="natural" v="shoal" />
		<tag k="place" v="locality" />
		<tag k="ssr:stedsnr" v="743922" />
	</node>
	<node lat="65.31896388536421" lon="11.634350000251633" id="-13041">
		<tag k="name" v="Buøya" />
		<tag k="place" v="island" />
		<tag k="ssr:stedsnr" v="743928" />
	</node>
	<node lat="65.3068583359051" lon="11.637050010179628" id="-13042">
		<tag k="name" v="Lyngholmen" />
		<tag k="place" v="islet" />
		<tag k="ssr:stedsnr" v="743931" />
	</node>
	<node lat="65.39837777702655" lon="11.268705560609341" id="-13043">
		<tag k="name" v="Nordblaen" />
		<tag k="natural" v="shoal" />
		<tag k="place" v="locality" />
		<tag k="ssr:stedsnr" v="743972" />
	</node>
	<node lat="65.37190277743117" lon="12.126097218050008" id="-13045">
		<tag k="name" v="Otergreina" />
		<tag k="natural" v="bay" />
		<tag k="ssr:stedsnr" v="752852" />
	</node>
	<node lat="65.33303055381278" lon="12.419547215649594" id="-13050">
		<tag k="name" v="Sellimarkstøa" />
		<tag k="natural" v="bay" />
		<tag k="ssr:stedsnr" v="782484" />
	</node>
	<node lat="65.23407222592746" lon="12.090666677397262" id="-13058">
		<tag k="fixme" v="consider seamark:type=rock or natural=shoal" />
		<tag k="name" v="Breistrandskjæret" />
		<tag k="place" v="islet" />
		<tag k="ssr:stedsnr" v="784838" />
	</node>
	<node lat="65.27966666355066" lon="12.027738880387435" id="-13065">
		<tag k="fixme" v="consider seamark:type=rock or natural=shoal" />
		<tag k="name" v="Austerkua" />
		<tag k="place" v="islet" />
		<tag k="ssr:stedsnr" v="785688" />
	</node>
	<node lat="65.27626111556611" lon="12.02270832982272" id="-13066">
		<tag k="name" v="Sørdraget" />
		<tag k="place" v="islet" />
		<tag k="ssr:stedsnr" v="785693" />
	</node>
	<node lat="65.20610555774346" lon="12.036352774313889" id="-13070">
		<tag k="name" v="Årvika" />
		<tag k="natural" v="bay" />
		<tag k="ssr:stedsnr" v="785922" />
	</node>
	<node lat="65.21223611447834" lon="12.086791676345642" id="-13071">
		<tag k="name" v="Øyrvika" />
		<tag k="natural" v="bay" />
		<tag k="ssr:stedsnr" v="785924" />
	</node>
	<node lat="65.32339999574239" lon="11.96416667418582" id="-13074">
		<tag k="fixme" v="consider seamark:type=rock or natural=shoal" />
		<tag k="name" v="Eggeløysa" />
		<tag k="place" v="islet" />
		<tag k="ssr:stedsnr" v="803167" />
	</node>
	<node lat="65.30683888698441" lon="11.761538894757123" id="-13080">
		<tag k="name" v="Sylandssluan" />
		<tag k="natural" v="shoal" />
		<tag k="place" v="locality" />
		<tag k="ssr:stedsnr" v="803184" />
	</node>
	<node lat="65.31568333378931" lon="12.261183339928165" id="-13082">
		<tag k="alt_name" v="Juvika" />
		<tag k="name" v="Djupvika" />
		<tag k="natural" v="bay" />
		<tag k="ssr:stedsnr" v="803256" />
	</node>
	<node lat="65.23138055494066" lon="12.021394435871896" id="-13086">
		<tag k="name" v="Kvaløyvika" />
		<tag k="natural" v="bay" />
		<tag k="ssr:stedsnr" v="803836" />
	</node>
	<node lat="65.23398888862343" lon="11.942961104214168" id="-13087">
		<tag k="name" v="Kråkøybåen" />
		<tag k="natural" v="shoal" />
		<tag k="place" v="locality" />
		<tag k="ssr:stedsnr" v="803840" />
	</node>
	<node lat="65.32337777522207" lon="11.609250010155677" id="-13088">
		<tag k="alt_name" v="Litlandholmen" />
		<tag k="name" v="Lislandholmen" />
		<tag k="place" v="islet" />
		<tag k="ssr:stedsnr" v="803920" />
	</node>
	<node lat="65.21001111156966" lon="12.076075003817646" id="-13090">
		<tag k="alt_name" v="Skårskarodden" />
		<tag k="name" v="Skårskardodden" />
		<tag k="natural" v="cape" />
		<tag k="ssr:stedsnr" v="803926" />
	</node>
	<node lat="65.34574722535014" lon="11.497208338311069" id="-13091">
		<tag k="name" v="Indresaltaren" />
		<tag k="natural" v="shoal" />
		<tag k="place" v="locality" />
		<tag k="ssr:stedsnr" v="803939" />
	</node>
	<node lat="65.27393888599738" lon="12.26370556181232" id="-13095">
		<tag k="name" v="Brennelsvika" />
		<tag k="natural" v="bay" />
		<tag k="ssr:stedsnr" v="804284" />
	</node>
	<node lat="65.2808981304338" lon="12.026627420288102" id="-13099">
		<tag k="fixme" v="consider seamark:type=rock or natural=shoal" />
		<tag k="name" v="Leikua" />
		<tag k="place" v="islet" />
		<tag k="ssr:stedsnr" v="813827" />
	</node>
	<node lat="65.35055555247553" lon="11.58986945073822" id="-13101">
		<tag k="name" v="Bursbåen" />
		<tag k="natural" v="shoal" />
		<tag k="place" v="locality" />
		<tag k="ssr:stedsnr" v="817755" />
	</node>
	<node lat="65.29648333440552" lon="12.134338886287377" id="-13114">
		<tag k="name" v="Steinsjøholmen" />
		<tag k="place" v="islet" />
		<tag k="ssr:stedsnr" v="846588" />
	</node>
	<node lat="65.26292778055931" lon="12.026505561666944" id="-13121">
		<tag k="fixme" v="consider seamark:type=rock or natural=shoal" />
		<tag k="name" v="Monsholmskjæret" />
		<tag k="place" v="islet" />
		<tag k="ssr:stedsnr" v="846863" />
	</node>
	<node lat="65.26459722539187" lon="12.00563612062057" id="-13122">
		<tag k="fixme" v="consider seamark:type=rock or natural=shoal" />
		<tag k="name" v="Bærøykalven" />
		<tag k="place" v="islet" />
		<tag k="ssr:stedsnr" v="846866" />
	</node>
	<node lat="65.25657500040842" lon="12.115711118557476" id="-13123">
		<tag k="name" v="Sjøstranden" />
		<tag k="natural" v="beach" />
		<tag k="ssr:stedsnr" v="846867" />
	</node>
	<node lat="65.27389166748202" lon="11.903877774058756" id="-13124">
		<tag k="name" v="Innerhoruvtaren" />
		<tag k="natural" v="shoal" />
		<tag k="place" v="locality" />
		<tag k="ssr:stedsnr" v="851738" />
	</node>
	<node lat="65.33868611218247" lon="11.862725001047405" id="-13128">
		<tag k="name" v="Fjordmanntarskolten" />
		<tag k="natural" v="shoal" />
		<tag k="place" v="locality" />
		<tag k="ssr:stedsnr" v="864140" />
	</node>
	<node lat="65.31239444264276" lon="12.270013890718193" id="-13131">
		<tag k="name" v="Mjønesodden" />
		<tag k="natural" v="cape" />
		<tag k="ssr:stedsnr" v="864260" />
	</node>
	<node lat="65.29022500331786" lon="12.313216671614155" id="-13134">
		<tag k="alt_name" v="Urdsfjorden;Ursfjord" />
		<tag k="bay" v="fjord" />
		<tag k="name" v="Ursfjorden" />
		<tag k="natural" v="bay" />
		<tag k="ssr:stedsnr" v="864282" />
	</node>
	<node lat="65.30846666305034" lon="11.722955552378911" id="-13138">
		<tag k="name" v="Stortaren" />
		<tag k="natural" v="shoal" />
		<tag k="place" v="locality" />
		<tag k="ssr:stedsnr" v="864177" />
	</node>
	<node lat="65.29992777489963" lon="12.065013890150702" id="-13142">
		<tag k="name" v="Langholmen" />
		<tag k="place" v="islet" />
		<tag k="ssr:stedsnr" v="864353" />
	</node>
	<node lat="65.20695000107952" lon="12.133616674383696" id="-13155">
		<tag k="alt_name" v="Bindalsfjord" />
		<tag k="bay" v="fjord" />
		<tag k="name" v="Bindalsfjorden" />
		<tag k="natural" v="bay" />
		<tag k="ssr:stedsnr" v="864843" />
	</node>
	<node lat="65.21817500008635" lon="11.834169434368606" id="-13156">
		<tag k="alt_name" v="Sørbåen" />
		<tag k="name" v="Sørbåan" />
		<tag k="natural" v="shoal" />
		<tag k="place" v="locality" />
		<tag k="ssr:stedsnr" v="864847" />
	</node>
	<node lat="65.22502499954682" lon="11.819277779317623" id="-13157">
		<tag k="name" v="Olsbåan" />
		<tag k="natural" v="shoal" />
		<tag k="place" v="locality" />
		<tag k="ssr:stedsnr" v="864849" />
	</node>
	<node lat="65.22880000068544" lon="12.027499993335633" id="-13158">
		<tag k="alt_name" v="Segelneset" />
		<tag k="name" v="Seglneset" />
		<tag k="natural" v="cape" />
		<tag k="ssr:stedsnr" v="864850" />
	</node>
	<node lat="65.32811111189847" lon="11.5862166705375" id="-13162">
		<tag k="name" v="Skarvflesa" />
		<tag k="place" v="islet" />
		<tag k="ssr:stedsnr" v="864943" />
	</node>
	<node lat="65.35493611158694" lon="11.453480552775352" id="-13163">
		<tag k="name" v="Ytresaltaren" />
		<tag k="natural" v="shoal" />
		<tag k="place" v="locality" />
		<tag k="ssr:stedsnr" v="864951" />
	</node>
	<node lat="65.20718055274155" lon="11.970572215847262" id="-13164">
		<tag k="name" v="Gimlingsundet" />
		<tag k="natural" v="strait" />
		<tag k="ssr:stedsnr" v="864929" />
	</node>
	<node lat="65.32436666257767" lon="11.624622228363103" id="-13165">
		<tag k="name" v="Skorholmen" />
		<tag k="place" v="islet" />
		<tag k="ssr:stedsnr" v="864936" />
	</node>
	<node lat="65.30078333089632" lon="12.283283334142148" id="-13169">
		<tag k="name" v="Frilstadtaren" />
		<tag k="natural" v="shoal" />
		<tag k="place" v="locality" />
		<tag k="ssr:stedsnr" v="886835" />
	</node>
	<node lat="65.34439722139898" lon="11.475330562733161" id="-13170">
		<tag k="name" v="Sørsaltaren" />
		<tag k="natural" v="shoal" />
		<tag k="place" v="locality" />
		<tag k="ssr:stedsnr" v="936822" />
	</node>
	<node lat="65.33757778059645" lon="11.534541661964406" id="-13171">
		<tag k="name" v="Ytreskattholslua" />
		<tag k="natural" v="shoal" />
		<tag k="place" v="locality" />
		<tag k="ssr:stedsnr" v="936823" />
	</node>
	<node lat="65.30014722382899" lon="11.6336000040908" id="-13172">
		<tag k="fixme" v="consider seamark:type=rock or natural=shoal" />
		<tag k="name" v="Lislsteinskjæret" />
		<tag k="place" v="islet" />
		<tag k="ssr:stedsnr" v="938080" />
	</node>
	<node lat="65.37227777817803" lon="12.142622231132616" id="-13177">
		<tag k="name" v="Guruskjæran" />
		<tag k="place" v="islet" />
		<tag k="ssr:stedsnr" v="966362" />
	</node>
</osm>
