<?xml version="1.0" encoding="UTF-8"?>
<osm version="0.6" generator="osmapis">
	<node lat="65.29735833739092" lon="12.196855554322758" id="-12420">
		<tag k="name" v="Trongan" />
		<tag k="natural" v="valley" />
		<tag k="place" v="locality" />
		<tag k="ssr:stedsnr" v="14262" />
	</node>
	<node lat="65.33307777719037" lon="12.4403416603677" id="-12421">
		<tag k="fixme" v="consider natural=peak for the most distinct mountains in the district" />
		<tag k="name" v="Seljemarkfjellet" />
		<tag k="natural" v="hill" />
		<tag k="place" v="locality" />
		<tag k="ssr:stedsnr" v="14265" />
	</node>
	<node lat="65.34008333532755" lon="11.978580554892405" id="-12427">
		<tag k="name" v="Hatten" />
		<tag k="natural" v="hill" />
		<tag k="place" v="locality" />
		<tag k="ssr:stedsnr" v="15153" />
	</node>
	<node lat="65.3545000034625" lon="12.370013885025609" id="-12442">
		<tag k="name" v="Remman" />
		<tag k="natural" v="slope" />
		<tag k="place" v="locality" />
		<tag k="ssr:stedsnr" v="56107" />
	</node>
	<node lat="65.36052221839273" lon="12.390063885185995" id="-12444">
		<tag k="alt_name" v="Almlia" />
		<tag k="name" v="Almlian" />
		<tag k="natural" v="slope" />
		<tag k="place" v="locality" />
		<tag k="ssr:stedsnr" v="56116" />
	</node>
	<node lat="65.3633027795034" lon="12.370611107641839" id="-12445">
		<tag k="name" v="Rengan" />
		<tag k="natural" v="hill" />
		<tag k="place" v="locality" />
		<tag k="ssr:stedsnr" v="56119" />
	</node>
	<node lat="65.23870555781663" lon="12.111902784145187" id="-12451">
		<tag k="fixme" v="consider natural=saddle" />
		<tag k="name" v="Sjøskaret" />
		<tag k="natural" v="valley" />
		<tag k="place" v="locality" />
		<tag k="ssr:stedsnr" v="56819" />
	</node>
	<node lat="65.299163891981" lon="12.188922226254448" id="-12452">
		<tag k="name" v="Storhaugen" />
		<tag k="natural" v="hill" />
		<tag k="place" v="locality" />
		<tag k="ssr:stedsnr" v="57476" />
	</node>
	<node lat="65.33578333318569" lon="12.250025009532864" id="-12465">
		<tag k="fixme" v="consider natural=peak for the most distinct mountains in the district" />
		<tag k="name" v="Bøfjellet" />
		<tag k="natural" v="hill" />
		<tag k="place" v="locality" />
		<tag k="ssr:stedsnr" v="75360" />
	</node>
	<node lat="65.27185555936329" lon="12.184780560963592" id="-12466">
		<tag k="name" v="Ridin" />
		<tag k="natural" v="slope" />
		<tag k="place" v="locality" />
		<tag k="ssr:stedsnr" v="75361" />
	</node>
	<node lat="65.35938888483994" lon="12.246249993277363" id="-12470">
		<tag k="fixme" v="multiple name tags, choose one and add the other to alt_name; consider natural=peak for the most distinct mountains in the district" />
		<tag k="name" v="Dyngesetfjellet;Liafjellet" />
		<tag k="natural" v="hill" />
		<tag k="place" v="locality" />
		<tag k="ssr:stedsnr" v="75425" />
	</node>
	<node lat="65.36786666477752" lon="12.292736107379728" id="-12472">
		<tag k="name" v="Mølnhaugen" />
		<tag k="natural" v="hill" />
		<tag k="place" v="locality" />
		<tag k="ssr:stedsnr" v="75451" />
	</node>
	<node lat="65.3257555567385" lon="12.406425009550658" id="-12482">
		<tag k="name" v="Kalvhauet" />
		<tag k="natural" v="hill" />
		<tag k="place" v="locality" />
		<tag k="ssr:stedsnr" v="236488" />
	</node>
	<node lat="65.35413888826653" lon="12.395025009382113" id="-12484">
		<tag k="name" v="Brennhågen" />
		<tag k="natural" v="hill" />
		<tag k="place" v="locality" />
		<tag k="ssr:stedsnr" v="115578" />
	</node>
	<node lat="65.36883333211883" lon="12.19837500721521" id="-12485">
		<tag k="name" v="Klakkhågen" />
		<tag k="natural" v="hill" />
		<tag k="place" v="locality" />
		<tag k="ssr:stedsnr" v="117369" />
	</node>
	<node lat="65.3301277808715" lon="12.168025002158476" id="-12488">
		<tag k="name" v="Klubbheia" />
		<tag k="natural" v="hill" />
		<tag k="place" v="locality" />
		<tag k="ssr:stedsnr" v="119382" />
	</node>
	<node lat="65.35823055946553" lon="12.385925003871094" id="-12489">
		<tag k="name" v="Sytuva" />
		<tag k="natural" v="hill" />
		<tag k="place" v="locality" />
		<tag k="ssr:stedsnr" v="238128" />
	</node>
	<node lat="65.37068333009863" lon="12.244461108463424" id="-12491">
		<tag k="name" v="Kolbeinhågen" />
		<tag k="natural" v="hill" />
		<tag k="place" v="locality" />
		<tag k="ssr:stedsnr" v="238339" />
	</node>
	<node lat="65.34063888693407" lon="12.241044448831527" id="-12492">
		<tag k="name" v="Seljetua" />
		<tag k="natural" v="hill" />
		<tag k="place" v="locality" />
		<tag k="ssr:stedsnr" v="238461" />
	</node>
	<node lat="65.33341666795549" lon="12.243547223037664" id="-12494">
		<tag k="name" v="Svartdalen" />
		<tag k="natural" v="valley" />
		<tag k="place" v="locality" />
		<tag k="ssr:stedsnr" v="238478" />
	</node>
	<node lat="65.27153888949925" lon="12.146824990243564" id="-12495">
		<tag k="name" v="Vågsdalen" />
		<tag k="natural" v="valley" />
		<tag k="place" v="locality" />
		<tag k="ssr:stedsnr" v="238619" />
	</node>
	<node lat="65.2487027818573" lon="12.150877786313561" id="-12498">
		<tag k="name" v="Kattamoen" />
		<tag k="place" v="locality" />
		<tag k="ssr:stedsnr" v="238728" />
	</node>
	<node lat="65.23041111201924" lon="11.984647223289102" id="-12499">
		<tag k="fixme" v="consider natural=saddle" />
		<tag k="name" v="Djupskardet" />
		<tag k="natural" v="valley" />
		<tag k="place" v="locality" />
		<tag k="ssr:stedsnr" v="238935" />
	</node>
	<node lat="65.31758055370406" lon="12.164450005277626" id="-12500">
		<tag k="name" v="Lommergjerdet" />
		<tag k="place" v="locality" />
		<tag k="ssr:stedsnr" v="239523" />
	</node>
	<node lat="65.25638333096111" lon="12.15524444489816" id="-12505">
		<tag k="name" v="Gåsheia" />
		<tag k="natural" v="hill" />
		<tag k="place" v="locality" />
		<tag k="ssr:stedsnr" v="135262" />
	</node>
	<node lat="65.34186389229585" lon="12.160725009920126" id="-12506">
		<tag k="fixme" v="consider natural=peak for the most distinct mountains in the district" />
		<tag k="name" v="Mardalsfjellet" />
		<tag k="natural" v="hill" />
		<tag k="place" v="locality" />
		<tag k="ssr:stedsnr" v="135161" />
	</node>
	<node lat="65.35878610928626" lon="12.184552775926875" id="-12517">
		<tag k="name" v="Hatten" />
		<tag k="natural" v="hill" />
		<tag k="place" v="locality" />
		<tag k="ssr:stedsnr" v="136163" />
	</node>
	<node lat="65.3631722268264" lon="12.296519438806833" id="-12523">
		<tag k="fixme" v="multiple name tags, choose one and add the other to alt_name" />
		<tag k="name" v="Buliheia;Jellmostormarkheia" />
		<tag k="natural" v="hill" />
		<tag k="place" v="locality" />
		<tag k="ssr:stedsnr" v="136444" />
	</node>
	<node lat="65.36412499748623" lon="12.319686119724844" id="-12524">
		<tag k="fixme" v="consider natural=peak for the most distinct mountains in the district" />
		<tag k="name" v="Gløsen" />
		<tag k="natural" v="hill" />
		<tag k="place" v="locality" />
		<tag k="ssr:stedsnr" v="136445" />
	</node>
	<node lat="65.38339722171996" lon="12.256419444755526" id="-12531">
		<tag k="name" v="Tanghågen" />
		<tag k="natural" v="hill" />
		<tag k="place" v="locality" />
		<tag k="ssr:stedsnr" v="178008" />
	</node>
	<node lat="65.36893055720799" lon="12.273330555458923" id="-12533">
		<tag k="name" v="Langåsen" />
		<tag k="natural" v="hill" />
		<tag k="place" v="locality" />
		<tag k="ssr:stedsnr" v="178059" />
	</node>
	<node lat="65.30858888475767" lon="12.148555558411305" id="-12535">
		<tag k="name" v="Breivikhågen" />
		<tag k="natural" v="hill" />
		<tag k="place" v="locality" />
		<tag k="ssr:stedsnr" v="178523" />
	</node>
	<node lat="65.33600555655086" lon="12.19565834048348" id="-12537">
		<tag k="fixme" v="consider natural=peak for the most distinct mountains in the district" />
		<tag k="name" v="Blessaheia" />
		<tag k="natural" v="hill" />
		<tag k="place" v="locality" />
		<tag k="ssr:stedsnr" v="178463" />
	</node>
	<node lat="65.38952778143884" lon="12.389897211927163" id="-12542">
		<tag k="fixme" v="consider natural=peak for the most distinct mountains in the district" />
		<tag k="name" v="Dalafjellet" />
		<tag k="natural" v="hill" />
		<tag k="place" v="locality" />
		<tag k="ssr:stedsnr" v="178868" />
	</node>
	<node lat="65.326449999722" lon="12.151650002865647" id="-12544">
		<tag k="fixme" v="consider natural=peak for the most distinct mountains in the district" />
		<tag k="name" v="Lysdalstinden" />
		<tag k="natural" v="hill" />
		<tag k="place" v="locality" />
		<tag k="ssr:stedsnr" v="196175" />
	</node>
	<node lat="65.31585833599794" lon="12.18498888002197" id="-12545">
		<tag k="alt_name" v="Lunnaråsen" />
		<tag k="fixme" v="consider natural=peak for the most distinct mountains in the district" />
		<tag k="name" v="Lunneråsen" />
		<tag k="natural" v="hill" />
		<tag k="place" v="locality" />
		<tag k="ssr:stedsnr" v="196185" />
	</node>
	<node lat="65.27680555555949" lon="12.191061120158423" id="-12550">
		<tag k="name" v="Leirklubben" />
		<tag k="natural" v="hill" />
		<tag k="place" v="locality" />
		<tag k="ssr:stedsnr" v="197413" />
	</node>
	<node lat="65.37030000278413" lon="12.27256943896489" id="-12552">
		<tag k="fixme" v="consider natural=saddle" />
		<tag k="name" v="Kleivskardet" />
		<tag k="natural" v="valley" />
		<tag k="place" v="locality" />
		<tag k="ssr:stedsnr" v="197473" />
	</node>
	<node lat="65.37534999825439" lon="12.424044441324094" id="-12561">
		<tag k="fixme" v="consider natural=peak for the most distinct mountains in the district" />
		<tag k="name" v="Navafjellet" />
		<tag k="natural" v="hill" />
		<tag k="place" v="locality" />
		<tag k="ssr:stedsnr" v="236006" />
	</node>
	<node lat="65.35224444622905" lon="12.354899996058828" id="-12562">
		<tag k="fixme" v="consider natural=peak for the most distinct mountains in the district" />
		<tag k="name" v="Kvennskoghatten" />
		<tag k="natural" v="hill" />
		<tag k="place" v="locality" />
		<tag k="ssr:stedsnr" v="238115" />
	</node>
	<node lat="65.37192221812869" lon="12.351563897475213" id="-12568">
		<tag k="name" v="Aunhevelen" />
		<tag k="natural" v="hill" />
		<tag k="place" v="locality" />
		<tag k="ssr:stedsnr" v="239002" />
	</node>
	<node lat="65.38067222293103" lon="12.302413884253955" id="-12569">
		<tag k="name" v="Langåsen" />
		<tag k="natural" v="hill" />
		<tag k="place" v="locality" />
		<tag k="ssr:stedsnr" v="239012" />
	</node>
	<node lat="65.37685278133242" lon="12.293861119801308" id="-12570">
		<tag k="name" v="Dalskarheia" />
		<tag k="natural" v="hill" />
		<tag k="place" v="locality" />
		<tag k="ssr:stedsnr" v="239018" />
	</node>
	<node lat="65.36282777383416" lon="12.254766661281288" id="-12574">
		<tag k="name" v="Munnhaugen" />
		<tag k="natural" v="hill" />
		<tag k="place" v="locality" />
		<tag k="ssr:stedsnr" v="239062" />
	</node>
	<node lat="65.36811111240357" lon="12.386791666576519" id="-12575">
		<tag k="name" v="Sletta" />
		<tag k="place" v="locality" />
		<tag k="ssr:stedsnr" v="239001" />
	</node>
	<node lat="65.21626389180412" lon="12.07730000547212" id="-12577">
		<tag k="fixme" v="consider natural=peak for the most distinct mountains in the district" />
		<tag k="name" v="Skårnakkan" />
		<tag k="natural" v="hill" />
		<tag k="place" v="locality" />
		<tag k="ssr:stedsnr" v="239943" />
	</node>
	<node lat="65.32291944533102" lon="12.138227773476194" id="-12580">
		<tag k="name" v="Einarhaugen" />
		<tag k="natural" v="hill" />
		<tag k="place" v="locality" />
		<tag k="ssr:stedsnr" v="240404" />
	</node>
	<node lat="65.32072499891756" lon="12.158938889158092" id="-12581">
		<tag k="fixme" v="consider natural=saddle" />
		<tag k="name" v="Hestkjeften" />
		<tag k="natural" v="valley" />
		<tag k="place" v="locality" />
		<tag k="ssr:stedsnr" v="240399" />
	</node>
	<node lat="65.34593333094385" lon="12.160069449429953" id="-12582">
		<tag k="alt_name" v="Trollskaret" />
		<tag k="fixme" v="consider natural=saddle" />
		<tag k="name" v="Trollskardet" />
		<tag k="natural" v="valley" />
		<tag k="place" v="locality" />
		<tag k="ssr:stedsnr" v="257129" />
	</node>
	<node lat="65.3690805601519" lon="12.15185832585942" id="-12588">
		<tag k="name" v="Galten" />
		<tag k="natural" v="hill" />
		<tag k="place" v="locality" />
		<tag k="ssr:stedsnr" v="257275" />
	</node>
	<node lat="65.3293249960217" lon="12.41354999658828" id="-12599">
		<tag k="name" v="Kråkhågen" />
		<tag k="natural" v="hill" />
		<tag k="place" v="locality" />
		<tag k="ssr:stedsnr" v="296486" />
	</node>
	<node lat="65.36484722112378" lon="12.404269449658475" id="-12601">
		<tag k="fixme" v="consider natural=peak for the most distinct mountains in the district" />
		<tag k="name" v="Kvennvegen" />
		<tag k="natural" v="hill" />
		<tag k="place" v="locality" />
		<tag k="ssr:stedsnr" v="297003" />
	</node>
	<node lat="65.39709444045386" lon="12.31883611838425" id="-12602">
		<tag k="name" v="Bjønndalen" />
		<tag k="natural" v="valley" />
		<tag k="place" v="locality" />
		<tag k="ssr:stedsnr" v="297392" />
	</node>
	<node lat="65.40853888714372" lon="12.356244448339861" id="-12604">
		<tag k="fixme" v="consider natural=saddle" />
		<tag k="name" v="Urskarholet" />
		<tag k="natural" v="valley" />
		<tag k="place" v="locality" />
		<tag k="ssr:stedsnr" v="297889" />
	</node>
	<node lat="65.40971944138818" lon="12.28411943444778" id="-12605">
		<tag k="name" v="Verholet" />
		<tag k="natural" v="valley" />
		<tag k="place" v="locality" />
		<tag k="ssr:stedsnr" v="297890" />
	</node>
	<node lat="65.37900833700232" lon="12.34870555139577" id="-12607">
		<tag k="name" v="Kleiva" />
		<tag k="natural" v="slope" />
		<tag k="place" v="locality" />
		<tag k="ssr:stedsnr" v="299002" />
	</node>
	<node lat="65.37052500423792" lon="12.27875556234654" id="-12612">
		<tag k="name" v="Kuåsen" />
		<tag k="natural" v="hill" />
		<tag k="place" v="locality" />
		<tag k="ssr:stedsnr" v="299052" />
	</node>
	<node lat="65.35772221800977" lon="12.356308332149888" id="-12614">
		<tag k="name" v="Teisdalsbråtan" />
		<tag k="natural" v="slope" />
		<tag k="place" v="locality" />
		<tag k="ssr:stedsnr" v="299107" />
	</node>
	<node lat="65.2226249973827" lon="11.990077766824632" id="-12616">
		<tag k="name" v="Ramrevne" />
		<tag k="natural" v="cliff" />
		<tag k="ssr:stedsnr" v="299844" />
	</node>
	<node lat="65.21359999916663" lon="11.987719451435126" id="-12617">
		<tag k="name" v="Hatten" />
		<tag k="natural" v="hill" />
		<tag k="place" v="locality" />
		<tag k="ssr:stedsnr" v="299845" />
	</node>
	<node lat="65.24174166739296" lon="12.158391661958683" id="-12620">
		<tag k="name" v="Valberget" />
		<tag k="natural" v="hill" />
		<tag k="place" v="locality" />
		<tag k="ssr:stedsnr" v="299738" />
	</node>
	<node lat="65.21976666377938" lon="11.97830277397106" id="-12621">
		<tag k="fixme" v="consider natural=peak for the most distinct mountains in the district" />
		<tag k="name" v="Kjøpmannsfjellet" />
		<tag k="natural" v="hill" />
		<tag k="place" v="locality" />
		<tag k="ssr:stedsnr" v="299906" />
	</node>
	<node lat="65.22091944285137" lon="12.100311113603402" id="-12627">
		<tag k="fixme" v="consider natural=peak for the most distinct mountains in the district" />
		<tag k="name" v="Navan" />
		<tag k="natural" v="hill" />
		<tag k="place" v="locality" />
		<tag k="ssr:stedsnr" v="317756" />
	</node>
	<node lat="65.35205555865933" lon="12.30392500785721" id="-12632">
		<tag k="alt_name" v="Hesten" />
		<tag k="fixme" v="consider natural=peak for the most distinct mountains in the district" />
		<tag k="name" v="Lysingshesten" />
		<tag k="natural" v="hill" />
		<tag k="place" v="locality" />
		<tag k="ssr:stedsnr" v="318324" />
	</node>
	<node lat="65.40795555676772" lon="12.2910249971816" id="-12636">
		<tag k="fixme" v="consider natural=peak for the most distinct mountains in the district" />
		<tag k="name" v="Hestfjellet" />
		<tag k="natural" v="hill" />
		<tag k="place" v="locality" />
		<tag k="ssr:stedsnr" v="318416" />
	</node>
	<node lat="65.3657194450046" lon="12.120194451357513" id="-12639">
		<tag k="name" v="Klubben" />
		<tag k="natural" v="hill" />
		<tag k="place" v="locality" />
		<tag k="ssr:stedsnr" v="327810" />
	</node>
	<node lat="65.33049444051247" lon="12.420374991909103" id="-12645">
		<tag k="name" v="Sandvikhågen" />
		<tag k="natural" v="slope" />
		<tag k="place" v="locality" />
		<tag k="ssr:stedsnr" v="357483" />
	</node>
	<node lat="65.34918333699329" lon="12.378608330278698" id="-12647">
		<tag k="name" v="Lessfjellet" />
		<tag k="place" v="locality" />
		<tag k="ssr:stedsnr" v="360106" />
	</node>
	<node lat="65.30540833286621" lon="12.20216667133905" id="-12648">
		<tag k="name" v="Finnåsen" />
		<tag k="natural" v="hill" />
		<tag k="place" v="locality" />
		<tag k="ssr:stedsnr" v="360470" />
	</node>
	<node lat="65.21073055514292" lon="12.076383324647349" id="-12649">
		<tag k="name" v="Heimlihalsen" />
		<tag k="place" v="locality" />
		<tag k="ssr:stedsnr" v="360907" />
	</node>
	<node lat="65.2156861077464" lon="12.098013891917171" id="-12650">
		<tag k="name" v="Kråklia" />
		<tag k="natural" v="slope" />
		<tag k="place" v="locality" />
		<tag k="ssr:stedsnr" v="360911" />
	</node>
	<node lat="65.24548333732508" lon="12.11874167057186" id="-12651">
		<tag k="name" v="Storheia" />
		<tag k="natural" v="hill" />
		<tag k="place" v="locality" />
		<tag k="ssr:stedsnr" v="360815" />
	</node>
	<node lat="65.23961666541986" lon="12.0956055640775" id="-12652">
		<tag k="name" v="Nausthaugen" />
		<tag k="natural" v="hill" />
		<tag k="place" v="locality" />
		<tag k="ssr:stedsnr" v="360822" />
	</node>
	<node lat="65.40182221927846" lon="12.37308612148415" id="-12653">
		<tag k="fixme" v="consider natural=saddle" />
		<tag k="name" v="Mellomskardet" />
		<tag k="natural" v="valley" />
		<tag k="place" v="locality" />
		<tag k="ssr:stedsnr" v="360870" />
	</node>
	<node lat="65.3993611142076" lon="12.341122221621049" id="-12654">
		<tag k="fixme" v="consider natural=peak for the most distinct mountains in the district" />
		<tag k="name" v="Klauvtind" />
		<tag k="natural" v="hill" />
		<tag k="place" v="locality" />
		<tag k="ssr:stedsnr" v="360873" />
	</node>
	<node lat="65.30187777919049" lon="12.196891660106873" id="-12660">
		<tag k="fixme" v="consider natural=peak for the most distinct mountains in the district" />
		<tag k="loc_name" v="Springaråsen" />
		<tag k="name" v="Springeråsen" />
		<tag k="natural" v="hill" />
		<tag k="place" v="locality" />
		<tag k="ssr:stedsnr" v="378336" />
	</node>
	<node lat="65.20990555171336" lon="12.009402783765706" id="-12663">
		<tag k="alt_name" v="Kvernvikskardet" />
		<tag k="fixme" v="consider natural=saddle" />
		<tag k="name" v="Kvennvikskardet" />
		<tag k="natural" v="valley" />
		<tag k="place" v="locality" />
		<tag k="ssr:stedsnr" v="378931" />
	</node>
	<node lat="65.36663889267936" lon="12.412397229950736" id="-12671">
		<tag k="name" v="Benkan" />
		<tag k="place" v="locality" />
		<tag k="ssr:stedsnr" v="418002" />
	</node>
	<node lat="65.36664166961043" lon="12.437288899772737" id="-12672">
		<tag k="fixme" v="consider natural=peak for the most distinct mountains in the district" />
		<tag k="name" v="Skarlauvvikåsen" />
		<tag k="natural" v="hill" />
		<tag k="place" v="locality" />
		<tag k="ssr:stedsnr" v="418051" />
	</node>
	<node lat="65.33211110997247" lon="12.199525009796504" id="-12673">
		<tag k="name" v="Veråsen" />
		<tag k="natural" v="hill" />
		<tag k="place" v="locality" />
		<tag k="ssr:stedsnr" v="421451" />
	</node>
	<node lat="65.33508333388137" lon="12.193569449925773" id="-12675">
		<tag k="name" v="Langeiensbrekka" />
		<tag k="natural" v="slope" />
		<tag k="place" v="locality" />
		<tag k="ssr:stedsnr" v="421454" />
	</node>
	<node lat="65.29943610752751" lon="12.225102775735113" id="-12676">
		<tag k="name" v="Kleivhaugen" />
		<tag k="natural" v="hill" />
		<tag k="place" v="locality" />
		<tag k="ssr:stedsnr" v="421463" />
	</node>
	<node lat="65.28220000078247" lon="12.17536110868642" id="-12677">
		<tag k="name" v="Furuhaugen" />
		<tag k="natural" v="hill" />
		<tag k="place" v="locality" />
		<tag k="ssr:stedsnr" v="421600" />
	</node>
	<node lat="65.35657778004168" lon="12.223238892724725" id="-12679">
		<tag k="fixme" v="consider natural=peak for the most distinct mountains in the district" />
		<tag k="name" v="Lessfjellklubben" />
		<tag k="natural" v="hill" />
		<tag k="place" v="locality" />
		<tag k="ssr:stedsnr" v="422358" />
	</node>
	<node lat="65.31880555837037" lon="12.459597229323645" id="-12681">
		<tag k="name" v="Smeviksætran" />
		<tag k="natural" v="valley" />
		<tag k="place" v="locality" />
		<tag k="ssr:stedsnr" v="478598" />
	</node>
	<node lat="65.35468610902386" lon="12.191002776614743" id="-12685">
		<tag k="name" v="Beritfjellet" />
		<tag k="natural" v="hill" />
		<tag k="place" v="locality" />
		<tag k="ssr:stedsnr" v="439111" />
	</node>
	<node lat="65.36953333134764" lon="12.326894437743299" id="-12689">
		<tag k="fixme" v="consider natural=peak for the most distinct mountains in the district" />
		<tag k="name" v="Vassdalsheia" />
		<tag k="natural" v="hill" />
		<tag k="place" v="locality" />
		<tag k="ssr:stedsnr" v="439420" />
	</node>
	<node lat="65.42178055664043" lon="12.30166667241504" id="-12695">
		<tag k="fixme" v="consider natural=peak for the most distinct mountains in the district" />
		<tag k="name" v="Ryptinden" />
		<tag k="natural" v="hill" />
		<tag k="place" v="locality" />
		<tag k="ssr:stedsnr" v="440410" />
	</node>
	<node lat="65.40229999545862" lon="12.281483340472096" id="-12696">
		<tag k="name" v="Forrahevelen" />
		<tag k="place" v="locality" />
		<tag k="ssr:stedsnr" v="661575" />
	</node>
	<node lat="65.3984777767228" lon="12.278583322701671" id="-12697">
		<tag k="name" v="Seljeskarhågen" />
		<tag k="natural" v="hill" />
		<tag k="place" v="locality" />
		<tag k="ssr:stedsnr" v="661578" />
	</node>
	<node lat="65.38927500432888" lon="12.277102778465933" id="-12698">
		<tag k="name" v="Kattuglhågen" />
		<tag k="natural" v="hill" />
		<tag k="place" v="locality" />
		<tag k="ssr:stedsnr" v="661583" />
	</node>
	<node lat="65.35550833009233" lon="12.390155556390665" id="-12703">
		<tag k="name" v="Verhågen" />
		<tag k="natural" v="hill" />
		<tag k="place" v="locality" />
		<tag k="ssr:stedsnr" v="663131" />
	</node>
	<node lat="65.34457222234374" lon="12.349911110930426" id="-12705">
		<tag k="name" v="Kråa" />
		<tag k="natural" v="valley" />
		<tag k="place" v="locality" />
		<tag k="ssr:stedsnr" v="663175" />
	</node>
	<node lat="65.32656389182132" lon="12.25204166453106" id="-12706">
		<tag k="name" v="Leirbekkdalen" />
		<tag k="natural" v="valley" />
		<tag k="place" v="locality" />
		<tag k="ssr:stedsnr" v="663435" />
	</node>
	<node lat="65.31052222536907" lon="12.123316669777767" id="-12707">
		<tag k="name" v="Aspundvikhatten" />
		<tag k="natural" v="hill" />
		<tag k="place" v="locality" />
		<tag k="ssr:stedsnr" v="663525" />
	</node>
	<node lat="65.23978333491452" lon="12.183627788311613" id="-12708">
		<tag k="name" v="Furuhaugen" />
		<tag k="natural" v="hill" />
		<tag k="place" v="locality" />
		<tag k="ssr:stedsnr" v="663726" />
	</node>
	<node lat="65.23422221987703" lon="12.14911110370404" id="-12710">
		<tag k="name" v="Hatthaugen" />
		<tag k="natural" v="hill" />
		<tag k="place" v="locality" />
		<tag k="ssr:stedsnr" v="663731" />
	</node>
	<node lat="65.21274166727933" lon="12.048708340972992" id="-12712">
		<tag k="name" v="Liabakkan" />
		<tag k="natural" v="slope" />
		<tag k="place" v="locality" />
		<tag k="ssr:stedsnr" v="663854" />
	</node>
	<node lat="65.22693611296222" lon="11.988380564419257" id="-12715">
		<tag k="fixme" v="consider natural=peak for the most distinct mountains in the district" />
		<tag k="name" v="Gråsteinfjellet" />
		<tag k="natural" v="hill" />
		<tag k="place" v="locality" />
		<tag k="ssr:stedsnr" v="663832" />
	</node>
	<node lat="65.25105833254658" lon="12.100855561749713" id="-12716">
		<tag k="name" v="Ytre Straumshaugen" />
		<tag k="natural" v="hill" />
		<tag k="place" v="locality" />
		<tag k="ssr:stedsnr" v="663872" />
	</node>
	<node lat="65.21112499800786" lon="12.079894444185168" id="-12718">
		<tag k="name" v="Innerlia" />
		<tag k="natural" v="slope" />
		<tag k="place" v="locality" />
		<tag k="ssr:stedsnr" v="663918" />
	</node>
	<node lat="65.37523333540494" lon="12.312666671346488" id="-12722">
		<tag k="name" v="Jøllmoen" />
		<tag k="place" v="locality" />
		<tag k="ssr:stedsnr" v="481043" />
	</node>
	<node lat="65.37598333518827" lon="12.30586667766523" id="-12723">
		<tag k="fixme" v="consider natural=saddle" />
		<tag k="name" v="Søråsskaret" />
		<tag k="natural" v="valley" />
		<tag k="place" v="locality" />
		<tag k="ssr:stedsnr" v="481045" />
	</node>
	<node lat="65.35862500248615" lon="12.37804721786009" id="-12724">
		<tag k="name" v="Rishågen" />
		<tag k="natural" v="hill" />
		<tag k="place" v="locality" />
		<tag k="ssr:stedsnr" v="481142" />
	</node>
	<node lat="65.34631110964875" lon="12.37491944541039" id="-12725">
		<tag k="name" v="Jordfallet" />
		<tag k="natural" v="slope" />
		<tag k="place" v="locality" />
		<tag k="ssr:stedsnr" v="481187" />
	</node>
	<node lat="65.33683888717624" lon="12.203591656869794" id="-12726">
		<tag k="name" v="Heimgardshaugen" />
		<tag k="natural" v="hill" />
		<tag k="place" v="locality" />
		<tag k="ssr:stedsnr" v="481468" />
	</node>
	<node lat="65.28275278174904" lon="12.177694435851736" id="-12727">
		<tag k="name" v="Hestlihaugen" />
		<tag k="natural" v="hill" />
		<tag k="place" v="locality" />
		<tag k="ssr:stedsnr" v="481609" />
	</node>
	<node lat="65.22195833353493" lon="12.104311102120139" id="-12728">
		<tag k="fixme" v="consider natural=saddle" />
		<tag k="name" v="Gangstøhalsen" />
		<tag k="natural" v="valley" />
		<tag k="place" v="locality" />
		<tag k="ssr:stedsnr" v="481911" />
	</node>
	<node lat="65.24912500254723" lon="12.106477768872415" id="-12730">
		<tag k="fixme" v="consider natural=peak for the most distinct mountains in the district" />
		<tag k="name" v="Åsvikheia" />
		<tag k="natural" v="hill" />
		<tag k="place" v="locality" />
		<tag k="ssr:stedsnr" v="481874" />
	</node>
	<node lat="65.3330750021538" lon="12.165094454930099" id="-12732">
		<tag k="name" v="Grønlia" />
		<tag k="natural" v="slope" />
		<tag k="place" v="locality" />
		<tag k="ssr:stedsnr" v="483389" />
	</node>
	<node lat="65.25494166870118" lon="12.202608334831169" id="-12736">
		<tag k="fixme" v="consider natural=peak for the most distinct mountains in the district" />
		<tag k="name" v="Vågsfjellet" />
		<tag k="natural" v="hill" />
		<tag k="place" v="locality" />
		<tag k="ssr:stedsnr" v="499217" />
	</node>
	<node lat="65.38649166938617" lon="12.328913890530313" id="-12739">
		<tag k="name" v="Dalberget" />
		<tag k="natural" v="hill" />
		<tag k="place" v="locality" />
		<tag k="ssr:stedsnr" v="499409" />
	</node>
	<node lat="65.21404444354452" lon="12.056922223485111" id="-12741">
		<tag k="fixme" v="consider natural=peak for the most distinct mountains in the district" />
		<tag k="name" v="Skårfjellet" />
		<tag k="natural" v="hill" />
		<tag k="place" v="locality" />
		<tag k="ssr:stedsnr" v="499909" />
	</node>
	<node lat="65.21185833281486" lon="11.997130566160783" id="-12742">
		<tag k="alt_name" v="Urdskardet" />
		<tag k="fixme" v="consider natural=saddle" />
		<tag k="name" v="Urdvikskardet" />
		<tag k="natural" v="valley" />
		<tag k="place" v="locality" />
		<tag k="ssr:stedsnr" v="499911" />
	</node>
	<node lat="65.31336388999094" lon="12.458405552899848" id="-12757">
		<tag k="name" v="Storvikhalsen" />
		<tag k="natural" v="valley" />
		<tag k="place" v="locality" />
		<tag k="ssr:stedsnr" v="539515" />
	</node>
	<node lat="65.35412499987214" lon="12.407863882053903" id="-12758">
		<tag k="name" v="Skånviknova" />
		<tag k="natural" v="cliff" />
		<tag k="ssr:stedsnr" v="539629" />
	</node>
	<node lat="65.40092500064915" lon="12.28585000962981" id="-12759">
		<tag k="name" v="Halsan" />
		<tag k="natural" v="ridge" />
		<tag k="place" v="locality" />
		<tag k="ssr:stedsnr" v="540625" />
	</node>
	<node lat="65.38888611036754" lon="12.303566670814488" id="-12760">
		<tag k="name" v="Reppeldalen" />
		<tag k="natural" v="valley" />
		<tag k="place" v="locality" />
		<tag k="ssr:stedsnr" v="540581" />
	</node>
	<node lat="65.38543889031706" lon="12.313633336187346" id="-12761">
		<tag k="name" v="Høgåsen" />
		<tag k="natural" v="hill" />
		<tag k="place" v="locality" />
		<tag k="ssr:stedsnr" v="540589" />
	</node>
	<node lat="65.37981666509323" lon="12.311025004840943" id="-12762">
		<tag k="name" v="Klauvtind" />
		<tag k="natural" v="hill" />
		<tag k="place" v="locality" />
		<tag k="ssr:stedsnr" v="542006" />
	</node>
	<node lat="65.34872778205738" lon="12.386869452451258" id="-12763">
		<tag k="alt_name" v="Flåglia" />
		<tag k="name" v="Floglia" />
		<tag k="natural" v="slope" />
		<tag k="place" v="locality" />
		<tag k="ssr:stedsnr" v="542126" />
	</node>
	<node lat="65.27926111495067" lon="12.151761101552667" id="-12764">
		<tag k="name" v="Søndre Vahaugen" />
		<tag k="natural" v="hill" />
		<tag k="place" v="locality" />
		<tag k="ssr:stedsnr" v="542574" />
	</node>
	<node lat="65.22478055930448" lon="12.111180565402009" id="-12767">
		<tag k="alt_name" v="Storbjønnflåget" />
		<tag k="name" v="Storbjønnfloget" />
		<tag k="natural" v="hill" />
		<tag k="place" v="locality" />
		<tag k="ssr:stedsnr" v="542924" />
	</node>
	<node lat="65.21978055853216" lon="12.08311110138033" id="-12768">
		<tag k="fixme" v="consider natural=peak for the most distinct mountains in the district" />
		<tag k="name" v="Bufjellet" />
		<tag k="natural" v="hill" />
		<tag k="place" v="locality" />
		<tag k="ssr:stedsnr" v="542925" />
	</node>
	<node lat="65.35973889009432" lon="12.21284722875377" id="-12772">
		<tag k="name" v="Lysingen" />
		<tag k="place" v="locality" />
		<tag k="ssr:stedsnr" v="543383" />
	</node>
	<node lat="65.32381944313886" lon="12.169136103193946" id="-12773">
		<tag k="name" v="Rødbergan" />
		<tag k="natural" v="hill" />
		<tag k="place" v="locality" />
		<tag k="ssr:stedsnr" v="543387" />
	</node>
	<node lat="65.34650555226926" lon="12.323141668516305" id="-12777">
		<tag k="fixme" v="consider natural=peak for the most distinct mountains in the district" />
		<tag k="name" v="Lysingen" />
		<tag k="natural" v="hill" />
		<tag k="place" v="locality" />
		<tag k="ssr:stedsnr" v="560351" />
	</node>
	<node lat="65.40643889275367" lon="12.318036119544605" id="-12784">
		<tag k="fixme" v="consider natural=peak for the most distinct mountains in the district" />
		<tag k="name" v="Lundåsen" />
		<tag k="natural" v="hill" />
		<tag k="place" v="locality" />
		<tag k="ssr:stedsnr" v="560407" />
	</node>
	<node lat="65.39932500395284" lon="12.363861115708362" id="-12786">
		<tag k="alt_name" v="Øverdalsskardet" />
		<tag k="fixme" v="consider natural=saddle" />
		<tag k="name" v="Øvredalsskardet" />
		<tag k="natural" v="valley" />
		<tag k="place" v="locality" />
		<tag k="ssr:stedsnr" v="560445" />
	</node>
	<node lat="65.35006666932429" lon="12.159102769093607" id="-12797">
		<tag k="fixme" v="consider natural=peak for the most distinct mountains in the district" />
		<tag k="name" v="Sømnesfjellet" />
		<tag k="natural" v="hill" />
		<tag k="place" v="locality" />
		<tag k="ssr:stedsnr" v="682153" />
	</node>
	<node lat="65.28061667027785" lon="12.165566670874712" id="-12806">
		<tag k="name" v="Kleppen" />
		<tag k="natural" v="hill" />
		<tag k="place" v="locality" />
		<tag k="ssr:stedsnr" v="682396" />
	</node>
	<node lat="65.27545833555963" lon="12.184313878970219" id="-12807">
		<tag k="name" v="Trolldalen" />
		<tag k="natural" v="valley" />
		<tag k="place" v="locality" />
		<tag k="ssr:stedsnr" v="682397" />
	</node>
	<node lat="65.2795055572116" lon="12.185661106081481" id="-12808">
		<tag k="name" v="Hestlia" />
		<tag k="natural" v="slope" />
		<tag k="place" v="locality" />
		<tag k="ssr:stedsnr" v="682400" />
	</node>
	<node lat="65.3630361153449" lon="12.360358328075604" id="-12809">
		<tag k="fixme" v="consider natural=peak for the most distinct mountains in the district" />
		<tag k="name" v="Gråheia" />
		<tag k="natural" v="hill" />
		<tag k="place" v="locality" />
		<tag k="ssr:stedsnr" v="682449" />
	</node>
	<node lat="65.35762499878152" lon="12.315750008235131" id="-12810">
		<tag k="name" v="Fjelldalen" />
		<tag k="natural" v="valley" />
		<tag k="place" v="locality" />
		<tag k="ssr:stedsnr" v="682456" />
	</node>
	<node lat="65.21543611253654" lon="11.97076667170624" id="-12815">
		<tag k="fixme" v="consider natural=peak for the most distinct mountains in the district" />
		<tag k="name" v="Jøtulen" />
		<tag k="natural" v="hill" />
		<tag k="place" v="locality" />
		<tag k="ssr:stedsnr" v="682854" />
	</node>
	<node lat="65.36731666830337" lon="12.418505562931758" id="-12817">
		<tag k="name" v="Hesthola" />
		<tag k="natural" v="valley" />
		<tag k="place" v="locality" />
		<tag k="ssr:stedsnr" v="600003" />
	</node>
	<node lat="65.37137499833726" lon="12.342358323848748" id="-12818">
		<tag k="name" v="Aunlia" />
		<tag k="natural" v="slope" />
		<tag k="place" v="locality" />
		<tag k="ssr:stedsnr" v="602007" />
	</node>
	<node lat="65.3772111103121" lon="12.282472221401742" id="-12819">
		<tag k="name" v="Valbergskolten" />
		<tag k="natural" v="hill" />
		<tag k="place" v="locality" />
		<tag k="ssr:stedsnr" v="602015" />
	</node>
	<node lat="65.28808333102553" lon="12.138499995971452" id="-12822">
		<tag k="name" v="Storhaugen" />
		<tag k="natural" v="hill" />
		<tag k="place" v="locality" />
		<tag k="ssr:stedsnr" v="602613" />
	</node>
	<node lat="65.28831111125481" lon="12.173211101264682" id="-12823">
		<tag k="name" v="Kvernskarhaugen" />
		<tag k="natural" v="hill" />
		<tag k="place" v="locality" />
		<tag k="ssr:stedsnr" v="602621" />
	</node>
	<node lat="65.2218249977873" lon="11.97012500740903" id="-12825">
		<tag k="name" v="Vassvikhågen" />
		<tag k="natural" v="hill" />
		<tag k="place" v="locality" />
		<tag k="ssr:stedsnr" v="602905" />
	</node>
	<node lat="65.26076111237542" lon="12.128758343874612" id="-12832">
		<tag k="alt_name" v="Brokkhaugen" />
		<tag k="name" v="Brokhaugen" />
		<tag k="natural" v="hill" />
		<tag k="place" v="locality" />
		<tag k="ssr:stedsnr" v="621276" />
	</node>
	<node lat="65.34956666303422" lon="12.434266665593668" id="-12844">
		<tag k="name" v="Teistklipa" />
		<tag k="natural" v="cliff" />
		<tag k="ssr:stedsnr" v="660637" />
	</node>
	<node lat="65.37491110704902" lon="12.29046666989341" id="-12846">
		<tag k="name" v="Mehammarsheia" />
		<tag k="natural" v="hill" />
		<tag k="place" v="locality" />
		<tag k="ssr:stedsnr" v="663012" />
	</node>
	<node lat="65.37366111205604" lon="12.388205552856029" id="-12847">
		<tag k="fixme" v="consider natural=peak for the most distinct mountains in the district" />
		<tag k="name" v="Sørhukkerten" />
		<tag k="natural" v="hill" />
		<tag k="place" v="locality" />
		<tag k="ssr:stedsnr" v="663024" />
	</node>
	<node lat="65.3659111133136" lon="12.229227781344605" id="-12851">
		<tag k="name" v="Klavhågen" />
		<tag k="natural" v="hill" />
		<tag k="place" v="locality" />
		<tag k="ssr:stedsnr" v="663321" />
	</node>
	<node lat="65.33183055784379" lon="12.12124723191404" id="-12852">
		<tag k="name" v="Sjøhaugen" />
		<tag k="natural" v="hill" />
		<tag k="place" v="locality" />
		<tag k="ssr:stedsnr" v="663337" />
	</node>
	<node lat="65.34758333448936" lon="12.175897229140741" id="-12853">
		<tag k="name" v="Trollskarmoen" />
		<tag k="place" v="locality" />
		<tag k="ssr:stedsnr" v="663341" />
	</node>
	<node lat="65.27972499631248" lon="12.155041673661552" id="-12854">
		<tag k="name" v="Nordre Vahaugen" />
		<tag k="natural" v="hill" />
		<tag k="place" v="locality" />
		<tag k="ssr:stedsnr" v="663589" />
	</node>
	<node lat="65.2899027785507" lon="12.247474993656434" id="-12855">
		<tag k="name" v="Sauliklubben" />
		<tag k="place" v="locality" />
		<tag k="ssr:stedsnr" v="663591" />
	</node>
	<node lat="65.29540832996445" lon="12.230786120201754" id="-12856">
		<tag k="fixme" v="consider natural=saddle" />
		<tag k="name" v="Maritholet" />
		<tag k="natural" v="valley" />
		<tag k="place" v="locality" />
		<tag k="ssr:stedsnr" v="663594" />
	</node>
	<node lat="65.27440000178598" lon="12.239905565331716" id="-12857">
		<tag k="fixme" v="consider natural=peak for the most distinct mountains in the district" />
		<tag k="name" v="Brynhildholheia" />
		<tag k="natural" v="hill" />
		<tag k="place" v="locality" />
		<tag k="ssr:stedsnr" v="663599" />
	</node>
	<node lat="65.222305551404" lon="12.031630551275779" id="-12859">
		<tag k="name" v="Nausthågen" />
		<tag k="natural" v="hill" />
		<tag k="place" v="locality" />
		<tag k="ssr:stedsnr" v="663840" />
	</node>
	<node lat="65.20536666485354" lon="12.021133336207907" id="-12861">
		<tag k="fixme" v="consider natural=saddle" />
		<tag k="name" v="Dyrgrova" />
		<tag k="natural" v="valley" />
		<tag k="place" v="locality" />
		<tag k="ssr:stedsnr" v="663912" />
	</node>
	<node lat="65.32685277587547" lon="12.193219446308111" id="-12862">
		<tag k="fixme" v="consider natural=peak for the most distinct mountains in the district" />
		<tag k="name" v="Knyktindan" />
		<tag k="natural" v="hill" />
		<tag k="place" v="locality" />
		<tag k="ssr:stedsnr" v="681154" />
	</node>
	<node lat="65.32455278006901" lon="12.17860554611264" id="-12864">
		<tag k="name" v="Tåberget" />
		<tag k="natural" v="hill" />
		<tag k="place" v="locality" />
		<tag k="ssr:stedsnr" v="681181" />
	</node>
	<node lat="65.3901055520388" lon="12.347058335954035" id="-12865">
		<tag k="name" v="Rundhaugen" />
		<tag k="natural" v="hill" />
		<tag k="place" v="locality" />
		<tag k="ssr:stedsnr" v="681473" />
	</node>
	<node lat="65.38199444334158" lon="12.347919442870388" id="-12867">
		<tag k="fixme" v="consider natural=peak for the most distinct mountains in the district" />
		<tag k="name" v="Hatten" />
		<tag k="natural" v="hill" />
		<tag k="place" v="locality" />
		<tag k="ssr:stedsnr" v="682426" />
	</node>
	<node lat="65.32202777389412" lon="12.456508325038998" id="-12870">
		<tag k="fixme" v="consider natural=peak for the most distinct mountains in the district" />
		<tag k="name" v="Ørntuva" />
		<tag k="natural" v="hill" />
		<tag k="place" v="locality" />
		<tag k="ssr:stedsnr" v="682305" />
	</node>
	<node lat="65.36622777802478" lon="12.333483332361403" id="-12882">
		<tag k="name" v="Fjelldalen" />
		<tag k="natural" v="valley" />
		<tag k="place" v="locality" />
		<tag k="ssr:stedsnr" v="724007" />
	</node>
	<node lat="65.38417499625648" lon="12.316658339549173" id="-12883">
		<tag k="name" v="Flatåsen" />
		<tag k="natural" v="hill" />
		<tag k="place" v="locality" />
		<tag k="ssr:stedsnr" v="724008" />
	</node>
	<node lat="65.37363333341197" lon="12.372038894893585" id="-12884">
		<tag k="name" v="Lessenglia" />
		<tag k="natural" v="slope" />
		<tag k="place" v="locality" />
		<tag k="ssr:stedsnr" v="724028" />
	</node>
	<node lat="65.3769249965789" lon="12.367094440042381" id="-12885">
		<tag k="fixme" v="consider natural=peak for the most distinct mountains in the district" />
		<tag k="name" v="Dyrgrovtuva" />
		<tag k="natural" v="hill" />
		<tag k="place" v="locality" />
		<tag k="ssr:stedsnr" v="724031" />
	</node>
	<node lat="65.37192500035704" lon="12.266041675949387" id="-12886">
		<tag k="name" v="Brennhatten" />
		<tag k="natural" v="hill" />
		<tag k="place" v="locality" />
		<tag k="ssr:stedsnr" v="724044" />
	</node>
	<node lat="65.28468610972168" lon="12.263352779576522" id="-12887">
		<tag k="name" v="Hognihaugen" />
		<tag k="natural" v="hill" />
		<tag k="place" v="locality" />
		<tag k="ssr:stedsnr" v="724174" />
	</node>
	<node lat="65.29454722299761" lon="12.163230551503307" id="-12888">
		<tag k="name" v="Storhaugen" />
		<tag k="natural" v="hill" />
		<tag k="place" v="locality" />
		<tag k="ssr:stedsnr" v="724589" />
	</node>
	<node lat="65.27848055563557" lon="12.158069452882915" id="-12891">
		<tag k="name" v="Legdehaugen" />
		<tag k="natural" v="hill" />
		<tag k="place" v="locality" />
		<tag k="ssr:stedsnr" v="724606" />
	</node>
	<node lat="65.39492222115352" lon="12.33229722194772" id="-12893">
		<tag k="name" v="Gløsheia" />
		<tag k="natural" v="hill" />
		<tag k="place" v="locality" />
		<tag k="ssr:stedsnr" v="724907" />
	</node>
	<node lat="65.22614722372185" lon="12.08166110945479" id="-12894">
		<tag k="fixme" v="consider natural=peak for the most distinct mountains in the district" />
		<tag k="name" v="Barfjellet" />
		<tag k="natural" v="hill" />
		<tag k="place" v="locality" />
		<tag k="ssr:stedsnr" v="724934" />
	</node>
	<node lat="65.22146944048005" lon="12.097980549266696" id="-12895">
		<tag k="fixme" v="consider natural=saddle" />
		<tag k="name" v="Sandskaret" />
		<tag k="natural" v="valley" />
		<tag k="place" v="locality" />
		<tag k="ssr:stedsnr" v="724935" />
	</node>
	<node lat="65.25995278084145" lon="11.979452787498163" id="-12896">
		<tag k="name" v="Otergreinhågen" />
		<tag k="natural" v="hill" />
		<tag k="place" v="locality" />
		<tag k="ssr:stedsnr" v="724946" />
	</node>
	<node lat="65.33776944254338" lon="12.33356111550284" id="-12903">
		<tag k="fixme" v="consider natural=peak for the most distinct mountains in the district" />
		<tag k="name" v="Dyrkammen" />
		<tag k="natural" v="hill" />
		<tag k="place" v="locality" />
		<tag k="ssr:stedsnr" v="742314" />
	</node>
	<node lat="65.33363333562838" lon="12.308852769717937" id="-12904">
		<tag k="name" v="Hestdalen" />
		<tag k="natural" v="valley" />
		<tag k="place" v="locality" />
		<tag k="ssr:stedsnr" v="742315" />
	</node>
	<node lat="65.32770833032262" lon="12.263450007782101" id="-12912">
		<tag k="fixme" v="consider natural=peak for the most distinct mountains in the district" />
		<tag k="name" v="Brekkfjellet" />
		<tag k="natural" v="hill" />
		<tag k="place" v="locality" />
		<tag k="ssr:stedsnr" v="743305" />
	</node>
	<node lat="65.26531111075475" lon="12.166688885765476" id="-12914">
		<tag k="name" v="Kvernhusdalen" />
		<tag k="natural" v="valley" />
		<tag k="place" v="locality" />
		<tag k="ssr:stedsnr" v="743383" />
	</node>
	<node lat="65.36688055291725" lon="12.307013896248623" id="-12915">
		<tag k="name" v="Kvernhusdalen" />
		<tag k="natural" v="valley" />
		<tag k="place" v="locality" />
		<tag k="ssr:stedsnr" v="743440" />
	</node>
	<node lat="65.37158333132315" lon="12.295355552366294" id="-12916">
		<tag k="name" v="Hevlan" />
		<tag k="natural" v="ridge" />
		<tag k="place" v="locality" />
		<tag k="ssr:stedsnr" v="743441" />
	</node>
	<node lat="65.37456388844413" lon="12.35575555360438" id="-12924">
		<tag k="name" v="Grønningsåsen" />
		<tag k="natural" v="hill" />
		<tag k="place" v="locality" />
		<tag k="ssr:stedsnr" v="785002" />
	</node>
	<node lat="65.35634444293404" lon="12.327477770961403" id="-12925">
		<tag k="name" v="Bjønnkråa" />
		<tag k="natural" v="valley" />
		<tag k="place" v="locality" />
		<tag k="ssr:stedsnr" v="785117" />
	</node>
	<node lat="65.36259167135412" lon="12.360577770275388" id="-12926">
		<tag k="name" v="Vasshattan" />
		<tag k="natural" v="hill" />
		<tag k="place" v="locality" />
		<tag k="ssr:stedsnr" v="785122" />
	</node>
	<node lat="65.3665638911297" lon="12.283733330587971" id="-12928">
		<tag k="name" v="Mølnhusåsen" />
		<tag k="natural" v="hill" />
		<tag k="place" v="locality" />
		<tag k="ssr:stedsnr" v="785053" />
	</node>
	<node lat="65.36187777664038" lon="12.288908329136563" id="-12929">
		<tag k="name" v="Storøvermarkheia" />
		<tag k="natural" v="hill" />
		<tag k="place" v="locality" />
		<tag k="ssr:stedsnr" v="785055" />
	</node>
	<node lat="65.35086389309383" lon="12.318555546395674" id="-12930">
		<tag k="name" v="Laksen" />
		<tag k="natural" v="hill" />
		<tag k="place" v="locality" />
		<tag k="ssr:stedsnr" v="785058" />
	</node>
	<node lat="65.28926944276647" lon="12.178449997577992" id="-12938">
		<tag k="name" v="Middagsheia" />
		<tag k="natural" v="hill" />
		<tag k="place" v="locality" />
		<tag k="ssr:stedsnr" v="803316" />
	</node>
	<node lat="65.2936249975423" lon="12.237891675542581" id="-12947">
		<tag k="fixme" v="consider natural=saddle" />
		<tag k="name" v="Stigen" />
		<tag k="natural" v="valley" />
		<tag k="place" v="locality" />
		<tag k="ssr:stedsnr" v="804316" />
	</node>
	<node lat="65.39206666606505" lon="12.391650010593256" id="-12950">
		<tag k="fixme" v="consider natural=peak for the most distinct mountains in the district" />
		<tag k="name" v="Grøndalsfjellet" />
		<tag k="natural" v="hill" />
		<tag k="place" v="locality" />
		<tag k="ssr:stedsnr" v="804460" />
	</node>
	<node lat="65.39736944585636" lon="12.31402778057927" id="-12954">
		<tag k="fixme" v="consider natural=peak for the most distinct mountains in the district" />
		<tag k="name" v="Skavlia" />
		<tag k="natural" v="hill" />
		<tag k="place" v="locality" />
		<tag k="ssr:stedsnr" v="904388" />
	</node>
	<node lat="65.38734722257473" lon="12.288327782986876" id="-12956">
		<tag k="name" v="Kjerringskaftet" />
		<tag k="natural" v="hill" />
		<tag k="place" v="locality" />
		<tag k="ssr:stedsnr" v="904585" />
	</node>
	<node lat="65.3728888919351" lon="12.36855833934369" id="-12959">
		<tag k="name" v="Storsteinlia" />
		<tag k="natural" v="slope" />
		<tag k="place" v="locality" />
		<tag k="ssr:stedsnr" v="906017" />
	</node>
	<node lat="65.37007500258255" lon="12.267269443131667" id="-12960">
		<tag k="fixme" v="consider natural=saddle" />
		<tag k="name" v="Hestholet" />
		<tag k="natural" v="valley" />
		<tag k="place" v="locality" />
		<tag k="ssr:stedsnr" v="906040" />
	</node>
	<node lat="65.3786361152167" lon="12.360480548291633" id="-12963">
		<tag k="name" v="Svahylla" />
		<tag k="place" v="locality" />
		<tag k="ssr:stedsnr" v="906001" />
	</node>
	<node lat="65.32204999625174" lon="12.247252773985375" id="-12967">
		<tag k="name" v="Steinstihaugen" />
		<tag k="natural" v="hill" />
		<tag k="place" v="locality" />
		<tag k="ssr:stedsnr" v="906478" />
	</node>
	<node lat="65.33116389280374" lon="12.243094441917176" id="-12968">
		<tag k="name" v="Tuva" />
		<tag k="natural" v="hill" />
		<tag k="place" v="locality" />
		<tag k="ssr:stedsnr" v="906484" />
	</node>
	<node lat="65.33165833252089" lon="12.190761101806249" id="-12970">
		<tag k="name" v="Djupeeinsbrekka" />
		<tag k="natural" v="slope" />
		<tag k="place" v="locality" />
		<tag k="ssr:stedsnr" v="906491" />
	</node>
	<node lat="65.31505000293394" lon="12.159361112006849" id="-12971">
		<tag k="name" v="Kleivhågen" />
		<tag k="natural" v="hill" />
		<tag k="place" v="locality" />
		<tag k="ssr:stedsnr" v="906545" />
	</node>
	<node lat="65.30644999797151" lon="12.098994438503018" id="-12973">
		<tag k="name" v="Nubben" />
		<tag k="natural" v="hill" />
		<tag k="place" v="locality" />
		<tag k="ssr:stedsnr" v="906727" />
	</node>
	<node lat="65.24048610821744" lon="12.111099990383074" id="-12974">
		<tag k="name" v="Steinhaugen" />
		<tag k="natural" v="hill" />
		<tag k="place" v="locality" />
		<tag k="ssr:stedsnr" v="906845" />
	</node>
	<node lat="65.23592777866205" lon="12.09773056333206" id="-12975">
		<tag k="name" v="Limhaugen" />
		<tag k="natural" v="hill" />
		<tag k="place" v="locality" />
		<tag k="ssr:stedsnr" v="906846" />
	</node>
	<node lat="65.22801944714323" lon="12.100461102216354" id="-12977">
		<tag k="name" v="Rundhaugen" />
		<tag k="natural" v="hill" />
		<tag k="place" v="locality" />
		<tag k="ssr:stedsnr" v="906928" />
	</node>
	<node lat="65.32881111430258" lon="12.185141657979075" id="-12981">
		<tag k="name" v="Knykbrekka" />
		<tag k="natural" v="slope" />
		<tag k="place" v="locality" />
		<tag k="ssr:stedsnr" v="908396" />
	</node>
	<node lat="65.41787500382848" lon="12.308238890532152" id="-12982">
		<tag k="name" v="Svahylla" />
		<tag k="place" v="locality" />
		<tag k="ssr:stedsnr" v="844898" />
	</node>
	<node lat="65.29126388841117" lon="12.233469446294746" id="-12983">
		<tag k="name" v="Hesthaugen" />
		<tag k="natural" v="hill" />
		<tag k="place" v="locality" />
		<tag k="ssr:stedsnr" v="845633" />
	</node>
	<node lat="65.38473333264047" lon="12.259294452346536" id="-12984">
		<tag k="name" v="Sjøhågen" />
		<tag k="natural" v="hill" />
		<tag k="place" v="locality" />
		<tag k="ssr:stedsnr" v="846012" />
	</node>
	<node lat="65.37544383832264" lon="12.319062330863023" id="-12986">
		<tag k="name" v="Korsberget" />
		<tag k="natural" v="hill" />
		<tag k="place" v="locality" />
		<tag k="ssr:stedsnr" v="846039" />
	</node>
	<node lat="65.35154444131568" lon="12.378852781396493" id="-12988">
		<tag k="name" v="Bjørklidalen" />
		<tag k="natural" v="valley" />
		<tag k="place" v="locality" />
		<tag k="ssr:stedsnr" v="846106" />
	</node>
	<node lat="65.33517222187093" lon="12.243116667390067" id="-12990">
		<tag k="fixme" v="consider natural=peak for the most distinct mountains in the district" />
		<tag k="name" v="Ramtinden" />
		<tag k="natural" v="hill" />
		<tag k="place" v="locality" />
		<tag k="ssr:stedsnr" v="846407" />
	</node>
	<node lat="65.28729444649197" lon="12.187158324380519" id="-12994">
		<tag k="name" v="Mølnhuslia" />
		<tag k="natural" v="slope" />
		<tag k="place" v="locality" />
		<tag k="ssr:stedsnr" v="846592" />
	</node>
	<node lat="65.28577777870572" lon="12.168747227118697" id="-12995">
		<tag k="name" v="Trollskarhaugen" />
		<tag k="natural" v="hill" />
		<tag k="place" v="locality" />
		<tag k="ssr:stedsnr" v="846593" />
	</node>
	<node lat="65.24628888877962" lon="12.108438894949481" id="-12996">
		<tag k="fixme" v="consider natural=peak for the most distinct mountains in the district" />
		<tag k="name" v="Åsen" />
		<tag k="natural" v="hill" />
		<tag k="place" v="locality" />
		<tag k="ssr:stedsnr" v="846879" />
	</node>
	<node lat="65.40662777659053" lon="12.326261113899701" id="-12997">
		<tag k="alt_name" v="Storflåget" />
		<tag k="name" v="Storfloget" />
		<tag k="natural" v="hill" />
		<tag k="place" v="locality" />
		<tag k="ssr:stedsnr" v="846896" />
	</node>
	<node lat="65.22892500071265" lon="11.982622214651736" id="-12998">
		<tag k="fixme" v="consider natural=saddle" />
		<tag k="name" v="Slettskardet" />
		<tag k="natural" v="valley" />
		<tag k="place" v="locality" />
		<tag k="ssr:stedsnr" v="846908" />
	</node>
	<node lat="65.29562499939188" lon="12.243911106778901" id="-13005">
		<tag k="fixme" v="consider natural=peak for the most distinct mountains in the district" />
		<tag k="name" v="Bindalshammaren" />
		<tag k="natural" v="hill" />
		<tag k="place" v="locality" />
		<tag k="ssr:stedsnr" v="864304" />
	</node>
	<node lat="65.29332500126121" lon="12.260950007990193" id="-13007">
		<tag k="alt_name" v="Brattflåget" />
		<tag k="name" v="Brattfloget" />
		<tag k="natural" v="slope" />
		<tag k="place" v="locality" />
		<tag k="ssr:stedsnr" v="864302" />
	</node>
	<node lat="65.346633337628" lon="12.386027767930067" id="-13009">
		<tag k="alt_name" v="Høgflåget;Floget" />
		<tag k="name" v="Høgfloget" />
		<tag k="natural" v="cliff" />
		<tag k="ssr:stedsnr" v="864392" />
	</node>
	<node lat="65.27785000448586" lon="12.21408332681433" id="-13010">
		<tag k="fixme" v="consider natural=peak for the most distinct mountains in the district" />
		<tag k="name" v="Kjørsvikfjellet" />
		<tag k="natural" v="hill" />
		<tag k="place" v="locality" />
		<tag k="ssr:stedsnr" v="864398" />
	</node>
	<node lat="65.21534999990259" lon="12.069891672910858" id="-13017">
		<tag k="alt_name" v="Skarsskaret" />
		<tag k="name" v="Skårskardet" />
		<tag k="natural" v="valley" />
		<tag k="place" v="locality" />
		<tag k="ssr:stedsnr" v="864940" />
	</node>
	<node lat="65.39118888484613" lon="12.281277776043234" id="-13023">
		<tag k="name" v="Mohågen" />
		<tag k="natural" v="hill" />
		<tag k="place" v="locality" />
		<tag k="ssr:stedsnr" v="904579" />
	</node>
	<node lat="65.34952500087935" lon="12.348761107548352" id="-13025">
		<tag k="fixme" v="consider natural=peak for the most distinct mountains in the district" />
		<tag k="name" v="Kvennfjellet" />
		<tag k="natural" v="hill" />
		<tag k="place" v="locality" />
		<tag k="ssr:stedsnr" v="906104" />
	</node>
	<node lat="65.36249999747736" lon="12.343430564569266" id="-13026">
		<tag k="name" v="Gråheibråtan" />
		<tag k="natural" v="slope" />
		<tag k="place" v="locality" />
		<tag k="ssr:stedsnr" v="906113" />
	</node>
	<node lat="65.3331750014429" lon="12.277172226510329" id="-13027">
		<tag k="fixme" v="consider natural=saddle" />
		<tag k="name" v="Frilstadkleiva" />
		<tag k="natural" v="valley" />
		<tag k="place" v="locality" />
		<tag k="ssr:stedsnr" v="906173" />
	</node>
	<node lat="65.34117499598892" lon="12.210961103786097" id="-13029">
		<tag k="name" v="Trøahaugen" />
		<tag k="natural" v="hill" />
		<tag k="place" v="locality" />
		<tag k="ssr:stedsnr" v="906458" />
	</node>
	<node lat="65.35259444094432" lon="12.15608333892261" id="-13032">
		<tag k="fixme" v="consider natural=saddle" />
		<tag k="name" v="Hestholet" />
		<tag k="natural" v="valley" />
		<tag k="place" v="locality" />
		<tag k="ssr:stedsnr" v="906360" />
	</node>
	<node lat="65.31399721946131" lon="12.131280556576533" id="-13034">
		<tag k="fixme" v="consider natural=peak for the most distinct mountains in the district" />
		<tag k="name" v="Storbombarheia" />
		<tag k="natural" v="hill" />
		<tag k="place" v="locality" />
		<tag k="ssr:stedsnr" v="906557" />
	</node>
	<node lat="65.410713890139" lon="12.364063893442925" id="-13042">
		<tag k="fixme" v="consider natural=peak for the most distinct mountains in the district" />
		<tag k="name" v="Oksnakken" />
		<tag k="natural" v="hill" />
		<tag k="place" v="locality" />
		<tag k="ssr:stedsnr" v="924410" />
	</node>
	<node lat="65.2753166670812" lon="12.250594443918617" id="-13048">
		<tag k="name" v="Grønlia" />
		<tag k="natural" v="slope" />
		<tag k="place" v="locality" />
		<tag k="ssr:stedsnr" v="925221" />
	</node>
	<node lat="65.36657777427972" lon="12.210483332353535" id="-13049">
		<tag k="alt_name" v="Øytindan" />
		<tag k="fixme" v="consider natural=peak for the most distinct mountains in the district" />
		<tag k="name" v="Øyfjellet" />
		<tag k="natural" v="hill" />
		<tag k="place" v="locality" />
		<tag k="ssr:stedsnr" v="925270" />
	</node>
	<node lat="65.36833333163426" lon="12.36768332541281" id="-13057">
		<tag k="name" v="Hevlan" />
		<tag k="natural" v="hill" />
		<tag k="old_name" v="Hevollan" />
		<tag k="place" v="locality" />
		<tag k="ssr:stedsnr" v="925485" />
	</node>
	<node lat="65.40083055794474" lon="12.321291664934309" id="-13059">
		<tag k="name" v="Durmålheia" />
		<tag k="natural" v="slope" />
		<tag k="place" v="locality" />
		<tag k="ssr:stedsnr" v="965412" />
	</node>
	<node lat="65.27814444419337" lon="12.163694438670367" id="-13061">
		<tag k="name" v="Mølnhushaugen" />
		<tag k="natural" v="hill" />
		<tag k="place" v="locality" />
		<tag k="ssr:stedsnr" v="966638" />
	</node>
	<node lat="65.24701666547315" lon="12.10153889501808" id="-13063">
		<tag k="name" v="Kråhaugen" />
		<tag k="natural" v="hill" />
		<tag k="place" v="locality" />
		<tag k="ssr:stedsnr" v="966840" />
	</node>
	<node lat="65.37950555836737" lon="12.26776667382206" id="-13066">
		<tag k="name" v="Moaåsen" />
		<tag k="natural" v="hill" />
		<tag k="place" v="locality" />
		<tag k="ssr:stedsnr" v="967009" />
	</node>
	<node lat="65.30962500343192" lon="12.213072219353332" id="-13068">
		<tag k="fixme" v="consider natural=peak for the most distinct mountains in the district" />
		<tag k="name" v="Amundsgjerdfjellet" />
		<tag k="natural" v="hill" />
		<tag k="place" v="locality" />
		<tag k="ssr:stedsnr" v="967442" />
	</node>
	<node lat="65.31080277458358" lon="12.130788888457145" id="-13069">
		<tag k="name" v="Fjøshågen" />
		<tag k="natural" v="hill" />
		<tag k="place" v="locality" />
		<tag k="ssr:stedsnr" v="967503" />
	</node>
	<node lat="65.32568055809897" lon="12.13427222566981" id="-13071">
		<tag k="fixme" v="consider natural=saddle" />
		<tag k="name" v="Nonsgrova" />
		<tag k="natural" v="valley" />
		<tag k="place" v="locality" />
		<tag k="ssr:stedsnr" v="968404" />
	</node>
	<node lat="65.3548277810588" lon="12.222941656716712" id="-13074">
		<tag k="name" v="Perlepynten" />
		<tag k="natural" v="hill" />
		<tag k="place" v="locality" />
		<tag k="ssr:stedsnr" v="968390" />
	</node>
	<node lat="65.35556389326888" lon="12.221602777423008" id="-13075">
		<tag k="name" v="Langklaven" />
		<tag k="natural" v="valley" />
		<tag k="place" v="locality" />
		<tag k="ssr:stedsnr" v="968393" />
	</node>
	<node lat="65.39800555742708" lon="12.33472776845705" id="-13115">
		<tag k="fixme" v="consider natural=peak for the most distinct mountains in the district" />
		<tag k="name" v="Kaktinden" />
		<tag k="natural" v="hill" />
		<tag k="place" v="locality" />
		<tag k="ssr:stedsnr" v="257496" />
	</node>
	<node lat="65.28358333608374" lon="12.105797219133361" id="-13121">
		<tag k="name" v="Revshalhaugen" />
		<tag k="natural" v="hill" />
		<tag k="place" v="locality" />
		<tag k="ssr:stedsnr" v="257339" />
	</node>
	<node lat="65.30530277589469" lon="12.187727781200627" id="-13130">
		<tag k="name" v="Tannberget" />
		<tag k="natural" v="hill" />
		<tag k="place" v="locality" />
		<tag k="ssr:stedsnr" v="14256" />
	</node>
	<node lat="65.34719999848255" lon="12.139966675959235" id="-13141">
		<tag k="fixme" v="consider natural=peak for the most distinct mountains in the district" />
		<tag k="name" v="Brandfjellet" />
		<tag k="natural" v="hill" />
		<tag k="place" v="locality" />
		<tag k="ssr:stedsnr" v="15135" />
	</node>
	<node lat="65.43055555640196" lon="12.327886114354582" id="-13144">
		<tag k="fixme" v="consider natural=peak for the most distinct mountains in the district" />
		<tag k="name" v="Indrefjellet" />
		<tag k="natural" v="hill" />
		<tag k="place" v="locality" />
		<tag k="ssr:stedsnr" v="15498" />
	</node>
	<node lat="65.2922388900984" lon="12.250150009662656" id="-13145">
		<tag k="fixme" v="consider natural=peak for the most distinct mountains in the district" />
		<tag k="name" v="Arnesfjellet" />
		<tag k="natural" v="hill" />
		<tag k="place" v="locality" />
		<tag k="ssr:stedsnr" v="257214" />
	</node>
	<node lat="65.30562227347473" lon="12.420471368299168" id="-13148">
		<tag k="fixme" v="consider natural=saddle" />
		<tag k="name" v="Hardangskardet" />
		<tag k="natural" v="valley" />
		<tag k="place" v="locality" />
		<tag k="ssr:stedsnr" v="53557" />
	</node>
	<node lat="65.37171388941297" lon="12.15449167508168" id="-13156">
		<tag k="name" v="Lillegalten" />
		<tag k="natural" v="hill" />
		<tag k="place" v="locality" />
		<tag k="ssr:stedsnr" v="56345" />
	</node>
	<node lat="65.28282378458746" lon="12.166033142481567" id="-13157">
		<tag k="name" v="Nordkleppen" />
		<tag k="natural" v="hill" />
		<tag k="place" v="locality" />
		<tag k="ssr:stedsnr" v="56637" />
	</node>
	<node lat="65.30451944032777" lon="12.163152776601816" id="-13158">
		<tag k="name" v="Brannhågen" />
		<tag k="natural" v="hill" />
		<tag k="place" v="locality" />
		<tag k="ssr:stedsnr" v="57493" />
	</node>
	<node lat="65.25368610726822" lon="12.122916664586024" id="-13161">
		<tag k="name" v="Bårdhaugen" />
		<tag k="natural" v="hill" />
		<tag k="place" v="locality" />
		<tag k="ssr:stedsnr" v="56756" />
	</node>
	<node lat="65.2555694468729" lon="12.133947226851214" id="-13162">
		<tag k="name" v="Limhaugen" />
		<tag k="natural" v="hill" />
		<tag k="place" v="locality" />
		<tag k="ssr:stedsnr" v="56759" />
	</node>
	<node lat="65.3754555585627" lon="12.360886113102508" id="-13164">
		<tag k="name" v="Lautan" />
		<tag k="natural" v="slope" />
		<tag k="place" v="locality" />
		<tag k="ssr:stedsnr" v="57030" />
	</node>
	<node lat="65.36225833563957" lon="12.259644442641587" id="-13165">
		<tag k="name" v="Aspåsheia" />
		<tag k="natural" v="hill" />
		<tag k="place" v="locality" />
		<tag k="ssr:stedsnr" v="57050" />
	</node>
	<node lat="65.35179444094584" lon="12.320952786317273" id="-13166">
		<tag k="name" v="Flyndra" />
		<tag k="natural" v="hill" />
		<tag k="place" v="locality" />
		<tag k="ssr:stedsnr" v="57059" />
	</node>
	<node lat="65.22325277754612" lon="12.027997222844073" id="-13168">
		<tag k="name" v="Langhågen" />
		<tag k="natural" v="hill" />
		<tag k="place" v="locality" />
		<tag k="ssr:stedsnr" v="57838" />
	</node>
	<node lat="65.22528611150277" lon="12.024141658582307" id="-13169">
		<tag k="name" v="Kjerkehågen" />
		<tag k="natural" v="hill" />
		<tag k="place" v="locality" />
		<tag k="ssr:stedsnr" v="57841" />
	</node>
	<node lat="65.21348611373023" lon="12.017900010756932" id="-13170">
		<tag k="name" v="Kvennvikhågen" />
		<tag k="natural" v="hill" />
		<tag k="place" v="locality" />
		<tag k="ssr:stedsnr" v="57847" />
	</node>
	<node lat="65.29653611291636" lon="12.223305557202513" id="-13176">
		<tag k="name" v="Humlebakkan" />
		<tag k="natural" v="slope" />
		<tag k="place" v="locality" />
		<tag k="ssr:stedsnr" v="75293" />
	</node>
	<node lat="65.36481389014514" lon="12.240875010504714" id="-13187">
		<tag k="fixme" v="consider natural=peak for the most distinct mountains in the district" />
		<tag k="name" v="Klavåsen" />
		<tag k="natural" v="hill" />
		<tag k="place" v="locality" />
		<tag k="ssr:stedsnr" v="75392" />
	</node>
	<node lat="65.3723000021363" lon="12.21009999458138" id="-13195">
		<tag k="name" v="Vestaberget" />
		<tag k="natural" v="slope" />
		<tag k="place" v="locality" />
		<tag k="ssr:stedsnr" v="85825" />
	</node>
	<node lat="65.34987777958783" lon="12.274855550310447" id="-13202">
		<tag k="name" v="Løften" />
		<tag k="place" v="locality" />
		<tag k="ssr:stedsnr" v="117055" />
	</node>
	<node lat="65.35211667103903" lon="12.36259444895556" id="-13205">
		<tag k="name" v="Rommelihattan" />
		<tag k="place" v="locality" />
		<tag k="ssr:stedsnr" v="117137" />
	</node>
	<node lat="65.36152777419683" lon="12.366047228538196" id="-13207">
		<tag k="name" v="Benkan" />
		<tag k="natural" v="slope" />
		<tag k="place" v="locality" />
		<tag k="ssr:stedsnr" v="117145" />
	</node>
	<node lat="65.35898333002176" lon="12.385791662766163" id="-13209">
		<tag k="name" v="Storhågen" />
		<tag k="natural" v="hill" />
		<tag k="place" v="locality" />
		<tag k="ssr:stedsnr" v="117152" />
	</node>
	<node lat="65.37675555647849" lon="12.229311103565966" id="-13212">
		<tag k="name" v="Mardalshågen" />
		<tag k="natural" v="hill" />
		<tag k="place" v="locality" />
		<tag k="ssr:stedsnr" v="117365" />
	</node>
	<node lat="65.30120000155699" lon="12.228811111041141" id="-13213">
		<tag k="name" v="Brannåsen" />
		<tag k="natural" v="hill" />
		<tag k="place" v="locality" />
		<tag k="ssr:stedsnr" v="117487" />
	</node>
	<node lat="65.27416389213246" lon="12.25495276801598" id="-13214">
		<tag k="name" v="Sætningsberget" />
		<tag k="natural" v="hill" />
		<tag k="place" v="locality" />
		<tag k="ssr:stedsnr" v="117601" />
	</node>
	<node lat="65.24914444167015" lon="12.11022222874637" id="-13215">
		<tag k="name" v="Hatten" />
		<tag k="natural" v="hill" />
		<tag k="place" v="locality" />
		<tag k="ssr:stedsnr" v="117872" />
	</node>
	<node lat="65.32306111502389" lon="12.19841666230472" id="-13218">
		<tag k="name" v="Mekvolltua" />
		<tag k="natural" v="hill" />
		<tag k="place" v="locality" />
		<tag k="ssr:stedsnr" v="117465" />
	</node>
	<node lat="65.31611667050346" lon="12.120463882561873" id="-13219">
		<tag k="name" v="Ytre Fjellklaven" />
		<tag k="natural" v="slope" />
		<tag k="place" v="locality" />
		<tag k="ssr:stedsnr" v="117542" />
	</node>
	<node lat="65.30495833747523" lon="12.160261105132495" id="-13221">
		<tag k="name" v="Halvveghågen" />
		<tag k="natural" v="hill" />
		<tag k="place" v="locality" />
		<tag k="ssr:stedsnr" v="117549" />
	</node>
	<node lat="65.2276472241559" lon="11.971474991844902" id="-13223">
		<tag k="name" v="Einvikmoen" />
		<tag k="place" v="locality" />
		<tag k="ssr:stedsnr" v="117929" />
	</node>
	<node lat="65.24156111152215" lon="12.145369443629775" id="-13227">
		<tag k="name" v="Brynheia" />
		<tag k="natural" v="hill" />
		<tag k="place" v="locality" />
		<tag k="ssr:stedsnr" v="117729" />
	</node>
	<node lat="65.26088055279736" lon="12.165627770648687" id="-13228">
		<tag k="name" v="Stormattheia" />
		<tag k="natural" v="hill" />
		<tag k="place" v="locality" />
		<tag k="ssr:stedsnr" v="117756" />
	</node>
	<node lat="65.23973889029462" lon="12.09874445111188" id="-13229">
		<tag k="name" v="Storhaugen" />
		<tag k="natural" v="hill" />
		<tag k="place" v="locality" />
		<tag k="ssr:stedsnr" v="117833" />
	</node>
	<node lat="65.22645833368107" lon="12.007088886547127" id="-13230">
		<tag k="fixme" v="consider natural=peak for the most distinct mountains in the district" />
		<tag k="name" v="Hestfjellet" />
		<tag k="natural" v="hill" />
		<tag k="place" v="locality" />
		<tag k="ssr:stedsnr" v="117848" />
	</node>
	<node lat="65.20992778158868" lon="12.068705549789312" id="-13232">
		<tag k="name" v="Ytterlia" />
		<tag k="natural" v="slope" />
		<tag k="place" v="locality" />
		<tag k="ssr:stedsnr" v="117910" />
	</node>
	<node lat="65.31340832987802" lon="12.209952783983747" id="-13237">
		<tag k="fixme" v="consider natural=peak for the most distinct mountains in the district" />
		<tag k="name" v="Bjørufjellet" />
		<tag k="natural" v="hill" />
		<tag k="place" v="locality" />
		<tag k="ssr:stedsnr" v="135166" />
	</node>
	<node lat="65.33995000321569" lon="12.288599990324533" id="-13239">
		<tag k="name" v="Tømmerdalen" />
		<tag k="natural" v="valley" />
		<tag k="place" v="locality" />
		<tag k="ssr:stedsnr" v="135343" />
	</node>
	<node lat="65.41134166520298" lon="12.344594433812723" id="-13240">
		<tag k="name" v="Storhaugen" />
		<tag k="natural" v="hill" />
		<tag k="place" v="locality" />
		<tag k="ssr:stedsnr" v="135426" />
	</node>
	<node lat="65.37460833052214" lon="12.296166674288726" id="-13241">
		<tag k="name" v="Kleivan" />
		<tag k="natural" v="hill" />
		<tag k="place" v="locality" />
		<tag k="ssr:stedsnr" v="135383" />
	</node>
	<node lat="65.2171249996785" lon="11.99789999416593" id="-13250">
		<tag k="fixme" v="consider natural=peak for the most distinct mountains in the district" />
		<tag k="name" v="Kvaløyfjellet" />
		<tag k="natural" v="hill" />
		<tag k="place" v="locality" />
		<tag k="ssr:stedsnr" v="135795" />
	</node>
	<node lat="65.27802500203406" lon="12.248374997489545" id="-13252">
		<tag k="fixme" v="consider natural=peak for the most distinct mountains in the district" />
		<tag k="name" v="Heian" />
		<tag k="natural" v="hill" />
		<tag k="place" v="locality" />
		<tag k="ssr:stedsnr" v="136240" />
	</node>
	<node lat="65.3050749980707" lon="12.197986103887947" id="-13262">
		<tag k="fixme" v="multiple name tags, choose one and add the other to alt_name" />
		<tag k="name" v="Urdtannberget;Stortandberget" />
		<tag k="natural" v="hill" />
		<tag k="place" v="locality" />
		<tag k="ssr:stedsnr" v="257359" />
	</node>
	<node lat="65.3742861111248" lon="12.281466676063902" id="-13266">
		<tag k="fixme" v="consider natural=peak for the most distinct mountains in the district" />
		<tag k="name" v="Reinfjordåsan" />
		<tag k="natural" v="hill" />
		<tag k="place" v="locality" />
		<tag k="ssr:stedsnr" v="257448" />
	</node>
	<node lat="65.40350832932847" lon="12.300255560849422" id="-13269">
		<tag k="name" v="Gråheia" />
		<tag k="natural" v="hill" />
		<tag k="place" v="locality" />
		<tag k="ssr:stedsnr" v="257469" />
	</node>
	<node lat="65.35991111300036" lon="12.411275001087102" id="-13271">
		<tag k="name" v="Grova" />
		<tag k="natural" v="slope" />
		<tag k="place" v="locality" />
		<tag k="ssr:stedsnr" v="175699" />
	</node>
	<node lat="65.35653889178757" lon="12.411994450119513" id="-13272">
		<tag k="name" v="Vedhylla" />
		<tag k="natural" v="slope" />
		<tag k="place" v="locality" />
		<tag k="ssr:stedsnr" v="175599" />
	</node>
	<node lat="65.39529444611968" lon="12.318611116675708" id="-13273">
		<tag k="name" v="Småbergan" />
		<tag k="natural" v="slope" />
		<tag k="place" v="locality" />
		<tag k="ssr:stedsnr" v="176368" />
	</node>
	<node lat="65.3539777746566" lon="12.380775001282709" id="-13275">
		<tag k="name" v="Smålian" />
		<tag k="natural" v="slope" />
		<tag k="place" v="locality" />
		<tag k="ssr:stedsnr" v="178129" />
	</node>
	<node lat="65.30180277778982" lon="12.233141667074056" id="-13279">
		<tag k="name" v="Storhaugen" />
		<tag k="natural" v="hill" />
		<tag k="place" v="locality" />
		<tag k="ssr:stedsnr" v="178475" />
	</node>
	<node lat="65.34492777961617" lon="12.18358333722635" id="-13281">
		<tag k="name" v="Døllingheia" />
		<tag k="natural" v="hill" />
		<tag k="place" v="locality" />
		<tag k="ssr:stedsnr" v="178346" />
	</node>
	<node lat="65.32082778094758" lon="12.191677768281883" id="-13283">
		<tag k="name" v="Kaldalen" />
		<tag k="natural" v="valley" />
		<tag k="place" v="locality" />
		<tag k="ssr:stedsnr" v="178447" />
	</node>
	<node lat="65.32129167050748" lon="12.204558333362504" id="-13284">
		<tag k="name" v="Rogndalen" />
		<tag k="natural" v="valley" />
		<tag k="place" v="locality" />
		<tag k="ssr:stedsnr" v="178449" />
	</node>
	<node lat="65.32549166276218" lon="12.196991673554042" id="-13285">
		<tag k="name" v="Fjellrompa" />
		<tag k="place" v="locality" />
		<tag k="ssr:stedsnr" v="178450" />
	</node>
	<node lat="65.28351666241863" lon="12.148438882720049" id="-13286">
		<tag k="name" v="Tussberget" />
		<tag k="natural" v="hill" />
		<tag k="place" v="locality" />
		<tag k="ssr:stedsnr" v="178573" />
	</node>
	<node lat="65.313672221168" lon="12.112544436017725" id="-13290">
		<tag k="fixme" v="consider natural=peak for the most distinct mountains in the district" />
		<tag k="name" v="Staurlihatten" />
		<tag k="natural" v="hill" />
		<tag k="place" v="locality" />
		<tag k="ssr:stedsnr" v="178679" />
	</node>
	<node lat="65.39422778140158" lon="12.32239999683054" id="-13291">
		<tag k="name" v="Rauflekkhaugen" />
		<tag k="natural" v="hill" />
		<tag k="place" v="locality" />
		<tag k="ssr:stedsnr" v="178877" />
	</node>
	<node lat="65.40034444115172" lon="12.33734444245368" id="-13292">
		<tag k="name" v="Kaktindheia" />
		<tag k="natural" v="hill" />
		<tag k="place" v="locality" />
		<tag k="ssr:stedsnr" v="178881" />
	</node>
	<node lat="65.39726389207691" lon="12.326277777008508" id="-13293">
		<tag k="name" v="Storlia" />
		<tag k="natural" v="slope" />
		<tag k="place" v="locality" />
		<tag k="ssr:stedsnr" v="178882" />
	</node>
	<node lat="65.2733722210564" lon="12.219066673075858" id="-13302">
		<tag k="fixme" v="consider natural=peak for the most distinct mountains in the district" />
		<tag k="name" v="Olsvikfjellet" />
		<tag k="natural" v="hill" />
		<tag k="place" v="locality" />
		<tag k="ssr:stedsnr" v="197253" />
	</node>
	<node lat="65.34685833583256" lon="12.291074999264428" id="-13308">
		<tag k="alt_name" v="Lessfjellgrova" />
		<tag k="name" v="Lislfjellgrova" />
		<tag k="natural" v="valley" />
		<tag k="place" v="locality" />
		<tag k="ssr:stedsnr" v="197360" />
	</node>
	<node lat="65.35780278169388" lon="12.405072227840217" id="-13321">
		<tag k="name" v="Foraheia" />
		<tag k="place" v="locality" />
		<tag k="ssr:stedsnr" v="296679" />
	</node>
	<node lat="65.43142222127649" lon="12.351994449615804" id="-13324">
		<tag k="name" v="Øverbotnet" />
		<tag k="natural" v="valley" />
		<tag k="place" v="locality" />
		<tag k="ssr:stedsnr" v="297877" />
	</node>
	<node lat="65.37346666668131" lon="12.279900002754305" id="-13325">
		<tag k="name" v="Bjønnskaråsen" />
		<tag k="natural" v="hill" />
		<tag k="place" v="locality" />
		<tag k="ssr:stedsnr" v="298216" />
	</node>
	<node lat="65.35781666981465" lon="12.28080001060144" id="-13327">
		<tag k="name" v="Mellommarkheia" />
		<tag k="natural" v="hill" />
		<tag k="place" v="locality" />
		<tag k="ssr:stedsnr" v="299057" />
	</node>
	<node lat="65.343622221879" lon="12.342383339343176" id="-13329">
		<tag k="name" v="Hallheia" />
		<tag k="natural" v="hill" />
		<tag k="place" v="locality" />
		<tag k="ssr:stedsnr" v="299175" />
	</node>
	<node lat="65.3256305529426" lon="12.209455548276534" id="-13330">
		<tag k="name" v="Kirkehaugen" />
		<tag k="natural" v="hill" />
		<tag k="place" v="locality" />
		<tag k="ssr:stedsnr" v="299475" />
	</node>
	<node lat="65.27158889141427" lon="12.143633335833309" id="-13335">
		<tag k="name" v="Vågsbakken" />
		<tag k="natural" v="slope" />
		<tag k="place" v="locality" />
		<tag k="ssr:stedsnr" v="299609" />
	</node>
	<node lat="65.27780555324448" lon="12.146486102620212" id="-13337">
		<tag k="name" v="Hanshaugen" />
		<tag k="natural" v="hill" />
		<tag k="place" v="locality" />
		<tag k="ssr:stedsnr" v="299622" />
	</node>
	<node lat="65.23155555236744" lon="12.009294435129853" id="-13339">
		<tag k="name" v="Riskammen" />
		<tag k="place" v="locality" />
		<tag k="ssr:stedsnr" v="299835" />
	</node>
	<node lat="65.25292222604529" lon="12.147625003150873" id="-13344">
		<tag k="name" v="Bjørga" />
		<tag k="natural" v="hill" />
		<tag k="place" v="locality" />
		<tag k="ssr:stedsnr" v="299746" />
	</node>
	<node lat="65.3264611155603" lon="12.146625000324228" id="-13346">
		<tag k="name" v="Durmålshaugen" />
		<tag k="natural" v="hill" />
		<tag k="place" v="locality" />
		<tag k="ssr:stedsnr" v="301371" />
	</node>
	<node lat="65.37896388714215" lon="12.314283341594518" id="-13353">
		<tag k="fixme" v="consider natural=peak for the most distinct mountains in the district" />
		<tag k="name" v="Skiftesfjellet" />
		<tag k="natural" v="hill" />
		<tag k="place" v="locality" />
		<tag k="ssr:stedsnr" v="318387" />
	</node>
	<node lat="65.36971111107246" lon="12.201633328524917" id="-13354">
		<tag k="alt_name" v="Gløshaugen" />
		<tag k="name" v="Gløshågen" />
		<tag k="natural" v="hill" />
		<tag k="place" v="locality" />
		<tag k="ssr:stedsnr" v="318246" />
	</node>
	<node lat="65.2898083295799" lon="12.194605550888028" id="-13356">
		<tag k="fixme" v="consider natural=peak for the most distinct mountains in the district" />
		<tag k="name" v="Steinsfjellet" />
		<tag k="natural" v="hill" />
		<tag k="place" v="locality" />
		<tag k="ssr:stedsnr" v="318328" />
	</node>
	<node lat="65.31603610885197" lon="12.455655559807253" id="-13358">
		<tag k="fixme" v="consider natural=peak for the most distinct mountains in the district" />
		<tag k="name" v="Grønhatten" />
		<tag k="natural" v="hill" />
		<tag k="place" v="locality" />
		<tag k="ssr:stedsnr" v="318257" />
	</node>
	<node lat="65.40147499886473" lon="12.352863879687389" id="-13361">
		<tag k="fixme" v="consider natural=peak for the most distinct mountains in the district" />
		<tag k="name" v="Klapparfjellet" />
		<tag k="natural" v="hill" />
		<tag k="place" v="locality" />
		<tag k="ssr:stedsnr" v="318454" />
	</node>
	<node lat="65.42795277955497" lon="12.320802783924098" id="-13362">
		<tag k="fixme" v="consider natural=saddle" />
		<tag k="name" v="Grønskardet" />
		<tag k="natural" v="valley" />
		<tag k="place" v="locality" />
		<tag k="ssr:stedsnr" v="318492" />
	</node>
	<node lat="65.37633888786071" lon="12.283641671895472" id="-13372">
		<tag k="fixme" v="consider natural=saddle" />
		<tag k="name" v="Reinfjordskaret" />
		<tag k="natural" v="valley" />
		<tag k="place" v="locality" />
		<tag k="ssr:stedsnr" v="360009" />
	</node>
	<node lat="65.31736127765511" lon="12.15531095438794" id="-13376">
		<tag k="fixme" v="consider natural=peak for the most distinct mountains in the district" />
		<tag k="name" v="Hjarttinden" />
		<tag k="natural" v="hill" />
		<tag k="place" v="locality" />
		<tag k="ssr:stedsnr" v="360497" />
	</node>
	<node lat="65.2586416640198" lon="12.167430546856446" id="-13384">
		<tag k="name" v="Svartåldalene" />
		<tag k="natural" v="valley" />
		<tag k="place" v="locality" />
		<tag k="ssr:stedsnr" v="360740" />
	</node>
	<node lat="65.22216944693993" lon="12.01224721226039" id="-13386">
		<tag k="name" v="Nonshatten" />
		<tag k="natural" v="hill" />
		<tag k="place" v="locality" />
		<tag k="ssr:stedsnr" v="360830" />
	</node>
	<node lat="65.22128333754122" lon="11.992811103996328" id="-13387">
		<tag k="name" v="Ingebrigt" />
		<tag k="place" v="locality" />
		<tag k="ssr:stedsnr" v="360831" />
	</node>
	<node lat="65.27082222323368" lon="12.02779722721828" id="-13388">
		<tag k="name" v="Ytterhågen" />
		<tag k="natural" v="hill" />
		<tag k="place" v="locality" />
		<tag k="ssr:stedsnr" v="360844" />
	</node>
	<node lat="65.27237500241435" lon="12.032416672706857" id="-13389">
		<tag k="name" v="Innerhågen" />
		<tag k="natural" v="hill" />
		<tag k="place" v="locality" />
		<tag k="ssr:stedsnr" v="360845" />
	</node>
	<node lat="65.26636944513943" lon="12.025063885440355" id="-13390">
		<tag k="name" v="Langhågen" />
		<tag k="natural" v="hill" />
		<tag k="place" v="locality" />
		<tag k="ssr:stedsnr" v="360846" />
	</node>
	<node lat="65.25272777645974" lon="12.118013891776535" id="-13392">
		<tag k="name" v="Storsteinvikhaugen" />
		<tag k="natural" v="hill" />
		<tag k="place" v="locality" />
		<tag k="ssr:stedsnr" v="360858" />
	</node>
	<node lat="65.34564166673384" lon="12.233663878957353" id="-13396">
		<tag k="name" v="Bøhågen" />
		<tag k="natural" v="hill" />
		<tag k="place" v="locality" />
		<tag k="ssr:stedsnr" v="361429" />
	</node>
	<node lat="65.29189444762338" lon="12.179580557162792" id="-13402">
		<tag k="name" v="Krunkeldalen" />
		<tag k="natural" v="valley" />
		<tag k="place" v="locality" />
		<tag k="ssr:stedsnr" v="378344" />
	</node>
	<node lat="65.30342499610607" lon="12.420458333860738" id="-13407">
		<tag k="fixme" v="consider natural=saddle" />
		<tag k="name" v="Sildvikskardet" />
		<tag k="natural" v="valley" />
		<tag k="place" v="locality" />
		<tag k="ssr:stedsnr" v="378299" />
	</node>
	<node lat="65.31023333541542" lon="12.45537776879616" id="-13408">
		<tag k="fixme" v="consider natural=peak for the most distinct mountains in the district" />
		<tag k="name" v="Gravfjellet" />
		<tag k="natural" v="hill" />
		<tag k="place" v="locality" />
		<tag k="ssr:stedsnr" v="378312" />
	</node>
	<node lat="65.4041499956195" lon="12.331088889611259" id="-13417">
		<tag k="name" v="Meisterlibotnet" />
		<tag k="natural" v="valley" />
		<tag k="place" v="locality" />
		<tag k="ssr:stedsnr" v="378429" />
	</node>
	<node lat="65.33945277404253" lon="12.122311106808061" id="-13424">
		<tag k="name" v="Buenghaugen" />
		<tag k="natural" v="hill" />
		<tag k="place" v="locality" />
		<tag k="ssr:stedsnr" v="379153" />
	</node>
	<node lat="65.38669166708007" lon="12.264969453967387" id="-13425">
		<tag k="fixme" v="multiple name tags, choose one and add the other to alt_name" />
		<tag k="name" v="Røyrhaugen;Arneshågen" />
		<tag k="natural" v="hill" />
		<tag k="place" v="locality" />
		<tag k="ssr:stedsnr" v="379460" />
	</node>
	<node lat="65.38723333529302" lon="12.290925008628763" id="-13431">
		<tag k="name" v="Lesshågen" />
		<tag k="natural" v="hill" />
		<tag k="place" v="locality" />
		<tag k="ssr:stedsnr" v="479614" />
	</node>
	<node lat="65.3686083334033" lon="12.433719448372036" id="-13432">
		<tag k="name" v="Skardgrovhola" />
		<tag k="natural" v="valley" />
		<tag k="place" v="locality" />
		<tag k="ssr:stedsnr" v="418029" />
	</node>
	<node lat="65.40571666697242" lon="12.300761103769194" id="-13433">
		<tag k="name" v="Steinpallan" />
		<tag k="natural" v="slope" />
		<tag k="place" v="locality" />
		<tag k="ssr:stedsnr" v="419373" />
	</node>
	<node lat="65.39794999926966" lon="12.306794454661048" id="-13434">
		<tag k="name" v="Vargåsen" />
		<tag k="natural" v="hill" />
		<tag k="place" v="locality" />
		<tag k="ssr:stedsnr" v="419383" />
	</node>
	<node lat="65.39805555924411" lon="12.293577784292708" id="-13435">
		<tag k="name" v="Engesåsen" />
		<tag k="natural" v="hill" />
		<tag k="place" v="locality" />
		<tag k="ssr:stedsnr" v="419624" />
	</node>
	<node lat="65.27436666497039" lon="12.148361102806815" id="-13436">
		<tag k="name" v="Langhaugen" />
		<tag k="natural" v="hill" />
		<tag k="place" v="locality" />
		<tag k="ssr:stedsnr" v="420627" />
	</node>
	<node lat="65.27565000394102" lon="12.159983337913733" id="-13437">
		<tag k="name" v="Tabelhaugene" />
		<tag k="natural" v="hill" />
		<tag k="place" v="locality" />
		<tag k="ssr:stedsnr" v="420628" />
	</node>
	<node lat="65.37484166689225" lon="12.296574990412305" id="-13439">
		<tag k="name" v="Nordåsen" />
		<tag k="natural" v="hill" />
		<tag k="place" v="locality" />
		<tag k="ssr:stedsnr" v="421011" />
	</node>
	<node lat="65.34909722361904" lon="12.3696111050186" id="-13440">
		<tag k="alt_name" v="Flågan" />
		<tag k="name" v="Flogan" />
		<tag k="natural" v="hill" />
		<tag k="place" v="locality" />
		<tag k="ssr:stedsnr" v="421114" />
	</node>
	<node lat="65.35184166812313" lon="12.388875006905998" id="-13441">
		<tag k="name" v="Hansfjellet" />
		<tag k="place" v="locality" />
		<tag k="ssr:stedsnr" v="421117" />
	</node>
	<node lat="65.37192500137624" lon="12.293602778267179" id="-13443">
		<tag k="fixme" v="consider natural=saddle" />
		<tag k="name" v="Rotåskleiva" />
		<tag k="natural" v="valley" />
		<tag k="place" v="locality" />
		<tag k="ssr:stedsnr" v="421039" />
	</node>
	<node lat="65.36877777408134" lon="12.21523054795432" id="-13444">
		<tag k="name" v="Stortua" />
		<tag k="natural" v="ridge" />
		<tag k="place" v="locality" />
		<tag k="ssr:stedsnr" v="421329" />
	</node>
	<node lat="65.37385833662375" lon="12.228002771713012" id="-13445">
		<tag k="name" v="Aspåshågen" />
		<tag k="natural" v="hill" />
		<tag k="place" v="locality" />
		<tag k="ssr:stedsnr" v="421334" />
	</node>
	<node lat="65.3143222179751" lon="12.146219437772563" id="-13449">
		<tag k="name" v="Tussberget" />
		<tag k="natural" v="hill" />
		<tag k="place" v="locality" />
		<tag k="ssr:stedsnr" v="421515" />
	</node>
	<node lat="65.2856722229926" lon="12.131208325321763" id="-13457">
		<tag k="name" v="Bedehushaugen" />
		<tag k="natural" v="hill" />
		<tag k="place" v="locality" />
		<tag k="ssr:stedsnr" v="421595" />
	</node>
	<node lat="65.28648333267854" lon="12.156866658126534" id="-13458">
		<tag k="name" v="Steinsdalen" />
		<tag k="natural" v="valley" />
		<tag k="place" v="locality" />
		<tag k="ssr:stedsnr" v="421597" />
	</node>
	<node lat="65.32347499685106" lon="12.159630544579644" id="-13465">
		<tag k="fixme" v="consider natural=peak for the most distinct mountains in the district" />
		<tag k="name" v="Bufjellet" />
		<tag k="natural" v="hill" />
		<tag k="place" v="locality" />
		<tag k="ssr:stedsnr" v="439127" />
	</node>
	<node lat="65.21407222565318" lon="12.005811109222387" id="-13480">
		<tag k="fixme" v="consider natural=peak for the most distinct mountains in the district" />
		<tag k="name" v="Brunfjellet" />
		<tag k="natural" v="hill" />
		<tag k="place" v="locality" />
		<tag k="ssr:stedsnr" v="439932" />
	</node>
	<node lat="65.40702500183684" lon="12.287136115502703" id="-13486">
		<tag k="name" v="Nordbenkan" />
		<tag k="natural" v="slope" />
		<tag k="place" v="locality" />
		<tag k="ssr:stedsnr" v="479895" />
	</node>
	<node lat="65.37693888552177" lon="12.347419441291866" id="-13487">
		<tag k="name" v="Kleivheia" />
		<tag k="natural" v="hill" />
		<tag k="place" v="locality" />
		<tag k="ssr:stedsnr" v="481029" />
	</node>
	<node lat="65.36923888684161" lon="12.21972778614456" id="-13490">
		<tag k="fixme" v="consider natural=saddle" />
		<tag k="name" v="Heiholet" />
		<tag k="natural" v="valley" />
		<tag k="place" v="locality" />
		<tag k="ssr:stedsnr" v="481352" />
	</node>
	<node lat="65.36411666323902" lon="12.209113897752934" id="-13491">
		<tag k="name" v="Svarttrappen" />
		<tag k="natural" v="slope" />
		<tag k="place" v="locality" />
		<tag k="ssr:stedsnr" v="481363" />
	</node>
	<node lat="65.31745833609942" lon="12.210777774757103" id="-13492">
		<tag k="fixme" v="consider natural=peak for the most distinct mountains in the district" />
		<tag k="name" v="Inner-klubben" />
		<tag k="natural" v="hill" />
		<tag k="place" v="locality" />
		<tag k="ssr:stedsnr" v="481479" />
	</node>
	<node lat="65.2641305539563" lon="12.133294444502775" id="-13494">
		<tag k="name" v="Klubben" />
		<tag k="natural" v="hill" />
		<tag k="place" v="locality" />
		<tag k="ssr:stedsnr" v="481596" />
	</node>
	<node lat="65.2243055567623" lon="11.9687249982919" id="-13495">
		<tag k="name" v="Einviknakkan" />
		<tag k="natural" v="hill" />
		<tag k="place" v="locality" />
		<tag k="ssr:stedsnr" v="481901" />
	</node>
	<node lat="65.32810278197836" lon="12.191566670650658" id="-13498">
		<tag k="fixme" v="consider natural=peak for the most distinct mountains in the district" />
		<tag k="name" v="Fagerdalsheia" />
		<tag k="natural" v="hill" />
		<tag k="place" v="locality" />
		<tag k="ssr:stedsnr" v="481493" />
	</node>
	<node lat="65.21220277755485" lon="11.999922226833291" id="-13500">
		<tag k="name" v="Klavheia" />
		<tag k="natural" v="hill" />
		<tag k="place" v="locality" />
		<tag k="ssr:stedsnr" v="481856" />
	</node>
	<node lat="65.26733055785894" lon="12.029880562752249" id="-13501">
		<tag k="name" v="Sørhågen" />
		<tag k="natural" v="hill" />
		<tag k="place" v="locality" />
		<tag k="ssr:stedsnr" v="481866" />
	</node>
	<node lat="65.34965277504597" lon="12.205480554122243" id="-13502">
		<tag k="name" v="Brannhågen" />
		<tag k="natural" v="hill" />
		<tag k="place" v="locality" />
		<tag k="ssr:stedsnr" v="483434" />
	</node>
	<node lat="65.35468055101182" lon="12.225330560617664" id="-13503">
		<tag k="fixme" v="consider natural=saddle" />
		<tag k="name" v="Trollskaret" />
		<tag k="natural" v="valley" />
		<tag k="place" v="locality" />
		<tag k="ssr:stedsnr" v="483437" />
	</node>
	<node lat="65.30399166388256" lon="12.368280560378421" id="-13504">
		<tag k="name" v="Svartdalen" />
		<tag k="natural" v="valley" />
		<tag k="place" v="locality" />
		<tag k="ssr:stedsnr" v="483974" />
	</node>
	<node lat="65.31062943917713" lon="12.097642053128537" id="-13505">
		<tag k="fixme" v="consider natural=peak for the most distinct mountains in the district" />
		<tag k="name" v="Vettatinden" />
		<tag k="natural" v="hill" />
		<tag k="place" v="locality" />
		<tag k="ssr:stedsnr" v="499136" />
	</node>
	<node lat="65.27191666890032" lon="12.17037777524957" id="-13526">
		<tag k="fixme" v="consider natural=peak for the most distinct mountains in the district" />
		<tag k="name" v="Ramntinden" />
		<tag k="natural" v="hill" />
		<tag k="place" v="locality" />
		<tag k="ssr:stedsnr" v="500429" />
	</node>
	<node lat="65.39338055329969" lon="12.298733327486218" id="-13528">
		<tag k="alt_name" v="Brennhågen" />
		<tag k="name" v="Brenna" />
		<tag k="natural" v="hill" />
		<tag k="place" v="locality" />
		<tag k="ssr:stedsnr" v="500567" />
	</node>
	<node lat="65.32533333657673" lon="12.438458327489842" id="-13531">
		<tag k="name" v="Nystuberget" />
		<tag k="natural" v="slope" />
		<tag k="place" v="locality" />
		<tag k="ssr:stedsnr" v="500327" />
	</node>
	<node lat="65.40478333619056" lon="12.386377784423129" id="-13532">
		<tag k="alt_name" v="Kverndalen" />
		<tag k="name" v="Kvenndalen" />
		<tag k="natural" v="valley" />
		<tag k="place" v="locality" />
		<tag k="ssr:stedsnr" v="500483" />
	</node>
	<node lat="65.35450000221371" lon="12.270688882403386" id="-13539">
		<tag k="name" v="Kammen" />
		<tag k="natural" v="hill" />
		<tag k="place" v="locality" />
		<tag k="ssr:stedsnr" v="500386" />
	</node>
	<node lat="65.23404166244055" lon="12.126666657055067" id="-13541">
		<tag k="fixme" v="consider natural=peak for the most distinct mountains in the district" />
		<tag k="name" v="Sundsfjellet" />
		<tag k="natural" v="hill" />
		<tag k="place" v="locality" />
		<tag k="ssr:stedsnr" v="500862" />
	</node>
	<node lat="65.36053611216842" lon="12.403102776638296" id="-13551">
		<tag k="name" v="Skånvikfjellet" />
		<tag k="natural" v="hill" />
		<tag k="place" v="locality" />
		<tag k="ssr:stedsnr" v="539586" />
	</node>
	<node lat="65.35820833118225" lon="12.399419434566953" id="-13552">
		<tag k="name" v="Svartdalen" />
		<tag k="natural" v="valley" />
		<tag k="place" v="locality" />
		<tag k="ssr:stedsnr" v="539590" />
	</node>
	<node lat="65.32148333722793" lon="12.45869444438261" id="-13553">
		<tag k="name" v="Smeviktuva" />
		<tag k="natural" v="hill" />
		<tag k="place" v="locality" />
		<tag k="ssr:stedsnr" v="539567" />
	</node>
	<node lat="65.39207500424803" lon="12.295530553292668" id="-13554">
		<tag k="name" v="Granåsen" />
		<tag k="natural" v="hill" />
		<tag k="place" v="locality" />
		<tag k="ssr:stedsnr" v="540618" />
	</node>
	<node lat="65.39303888887693" lon="12.301805545525921" id="-13555">
		<tag k="name" v="Høgåsen" />
		<tag k="natural" v="hill" />
		<tag k="place" v="locality" />
		<tag k="ssr:stedsnr" v="540620" />
	</node>
	<node lat="65.29563889162735" lon="12.20048611326137" id="-13556">
		<tag k="fixme" v="consider natural=peak for the most distinct mountains in the district" />
		<tag k="name" v="Lessfjellet" />
		<tag k="natural" v="hill" />
		<tag k="place" v="locality" />
		<tag k="ssr:stedsnr" v="541613" />
	</node>
	<node lat="65.27406666428963" lon="12.154177771255005" id="-13557">
		<tag k="name" v="Rundhaugen" />
		<tag k="natural" v="hill" />
		<tag k="place" v="locality" />
		<tag k="ssr:stedsnr" v="541614" />
	</node>
	<node lat="65.37063888593454" lon="12.28285834046564" id="-13559">
		<tag k="name" v="Flatåsen" />
		<tag k="natural" v="hill" />
		<tag k="place" v="locality" />
		<tag k="ssr:stedsnr" v="542056" />
	</node>
	<node lat="65.36646110844418" lon="12.233999993854846" id="-13562">
		<tag k="name" v="Klavlia" />
		<tag k="natural" v="slope" />
		<tag k="place" v="locality" />
		<tag k="ssr:stedsnr" v="542343" />
	</node>
	<node lat="65.3199694485611" lon="12.20915832790875" id="-13566">
		<tag k="fixme" v="consider natural=peak for the most distinct mountains in the district" />
		<tag k="name" v="Ytter-Klubben" />
		<tag k="natural" v="hill" />
		<tag k="place" v="locality" />
		<tag k="ssr:stedsnr" v="542459" />
	</node>
	<node lat="65.33497500296097" lon="12.238936115568233" id="-13567">
		<tag k="name" v="Bjønndalen" />
		<tag k="natural" v="valley" />
		<tag k="place" v="locality" />
		<tag k="ssr:stedsnr" v="542462" />
	</node>
	<node lat="65.27731944403232" lon="12.151047215081789" id="-13571">
		<tag k="name" v="Småenghaugen" />
		<tag k="natural" v="hill" />
		<tag k="place" v="locality" />
		<tag k="ssr:stedsnr" v="542600" />
	</node>
	<node lat="65.23374166595136" lon="12.106572229049425" id="-13572">
		<tag k="name" v="Skårkleiva" />
		<tag k="natural" v="slope" />
		<tag k="place" v="locality" />
		<tag k="ssr:stedsnr" v="542830" />
	</node>
	<node lat="65.22389166681864" lon="11.990233337229315" id="-13574">
		<tag k="fixme" v="consider natural=saddle" />
		<tag k="name" v="Bukkskardet" />
		<tag k="natural" v="valley" />
		<tag k="place" v="locality" />
		<tag k="ssr:stedsnr" v="542840" />
	</node>
	<node lat="65.23898888709952" lon="12.127077771341773" id="-13580">
		<tag k="name" v="Svarthammeren" />
		<tag k="natural" v="hill" />
		<tag k="place" v="locality" />
		<tag k="ssr:stedsnr" v="542725" />
	</node>
	<node lat="65.26371944096438" lon="12.162174997331508" id="-13581">
		<tag k="fixme" v="consider natural=peak for the most distinct mountains in the district" />
		<tag k="name" v="Hamaren" />
		<tag k="natural" v="hill" />
		<tag k="place" v="locality" />
		<tag k="ssr:stedsnr" v="542755" />
	</node>
	<node lat="65.30556666689807" lon="12.211338891736945" id="-13590">
		<tag k="name" v="Bjøruengan" />
		<tag k="place" v="locality" />
		<tag k="ssr:stedsnr" v="560328" />
	</node>
	<node lat="65.36431110780363" lon="12.392008333407773" id="-13591">
		<tag k="alt_name" v="Dyrkåltuva" />
		<tag k="fixme" v="consider natural=peak for the most distinct mountains in the district" />
		<tag k="name" v="Dyrgrovtuva" />
		<tag k="natural" v="hill" />
		<tag k="place" v="locality" />
		<tag k="ssr:stedsnr" v="560438" />
	</node>
	<node lat="65.41281388686728" lon="12.325680565244028" id="-13592">
		<tag k="fixme" v="consider natural=peak for the most distinct mountains in the district" />
		<tag k="name" v="Nakken" />
		<tag k="natural" v="hill" />
		<tag k="place" v="locality" />
		<tag k="ssr:stedsnr" v="560439" />
	</node>
	<node lat="65.3987416706466" lon="12.32108055078902" id="-13601">
		<tag k="name" v="Stilhågen" />
		<tag k="natural" v="hill" />
		<tag k="place" v="locality" />
		<tag k="ssr:stedsnr" v="600378" />
	</node>
	<node lat="65.38924722491352" lon="12.269633337780478" id="-13602">
		<tag k="name" v="Baklia" />
		<tag k="natural" v="slope" />
		<tag k="place" v="locality" />
		<tag k="ssr:stedsnr" v="600580" />
	</node>
	<node lat="65.42184167016106" lon="12.301688888130494" id="-13603">
		<tag k="fixme" v="consider natural=peak for the most distinct mountains in the district" />
		<tag k="name" v="Hestfjellet" />
		<tag k="natural" v="hill" />
		<tag k="place" v="locality" />
		<tag k="ssr:stedsnr" v="600881" />
	</node>
	<node lat="65.37017778081079" lon="12.289644453127819" id="-13604">
		<tag k="name" v="Rotåståa" />
		<tag k="place" v="locality" />
		<tag k="ssr:stedsnr" v="602052" />
	</node>
	<node lat="65.35663333211643" lon="12.378024994439908" id="-13605">
		<tag k="name" v="Teisdalen" />
		<tag k="natural" v="valley" />
		<tag k="place" v="locality" />
		<tag k="ssr:stedsnr" v="602129" />
	</node>
	<node lat="65.3059055548223" lon="12.175427776546366" id="-13606">
		<tag k="name" v="Ludvikhågen" />
		<tag k="natural" v="hill" />
		<tag k="place" v="locality" />
		<tag k="ssr:stedsnr" v="602541" />
	</node>
	<node lat="65.36549722314572" lon="12.21550833531692" id="-13607">
		<tag k="name" v="Brennlia" />
		<tag k="natural" v="slope" />
		<tag k="place" v="locality" />
		<tag k="ssr:stedsnr" v="602346" />
	</node>
	<node lat="65.26186111519942" lon="12.17734166473307" id="-13609">
		<tag k="name" v="Kleiva" />
		<tag k="natural" v="slope" />
		<tag k="place" v="locality" />
		<tag k="ssr:stedsnr" v="602756" />
	</node>
	<node lat="65.34112778042912" lon="12.236108332561928" id="-13610">
		<tag k="alt_name" v="Storhågen" />
		<tag k="name" v="Storhaugen" />
		<tag k="natural" v="hill" />
		<tag k="place" v="locality" />
		<tag k="ssr:stedsnr" v="602453" />
	</node>
	<node lat="65.31196388968297" lon="12.10920556353248" id="-13611">
		<tag k="fixme" v="consider natural=peak for the most distinct mountains in the district" />
		<tag k="name" v="Ørntind" />
		<tag k="natural" v="hill" />
		<tag k="place" v="locality" />
		<tag k="ssr:stedsnr" v="602716" />
	</node>
	<node lat="65.25785555470907" lon="12.151405564530034" id="-13612">
		<tag k="name" v="Brekka" />
		<tag k="natural" v="slope" />
		<tag k="place" v="locality" />
		<tag k="ssr:stedsnr" v="602759" />
	</node>
	<node lat="65.23653888801333" lon="12.12086943669855" id="-13615">
		<tag k="name" v="Gudmundskrova" />
		<tag k="place" v="locality" />
		<tag k="ssr:stedsnr" v="602828" />
	</node>
	<node lat="65.22820278064717" lon="12.00189999551524" id="-13617">
		<tag k="fixme" v="consider natural=peak for the most distinct mountains in the district" />
		<tag k="name" v="Finnskarfjellet" />
		<tag k="natural" v="hill" />
		<tag k="place" v="locality" />
		<tag k="ssr:stedsnr" v="602836" />
	</node>
	<node lat="65.21140555779881" lon="11.988163893698571" id="-13619">
		<tag k="name" v="Nubben" />
		<tag k="natural" v="hill" />
		<tag k="place" v="locality" />
		<tag k="ssr:stedsnr" v="602842" />
	</node>
	<node lat="65.36696666736185" lon="12.154074994808216" id="-13626">
		<tag k="name" v="Lynghaugen" />
		<tag k="natural" v="hill" />
		<tag k="place" v="locality" />
		<tag k="ssr:stedsnr" v="621253" />
	</node>
	<node lat="65.33752499600473" lon="12.360019434587088" id="-13634">
		<tag k="fixme" v="consider natural=peak for the most distinct mountains in the district" />
		<tag k="name" v="Hombornesåsen" />
		<tag k="natural" v="hill" />
		<tag k="place" v="locality" />
		<tag k="ssr:stedsnr" v="621360" />
	</node>
	<node lat="65.2674805585764" lon="12.132558331140899" id="-13636">
		<tag k="alt_name" v="Varhaugen" />
		<tag k="name" v="Vardhaugen" />
		<tag k="natural" v="hill" />
		<tag k="place" v="locality" />
		<tag k="ssr:stedsnr" v="621366" />
	</node>
	<node lat="65.36920000231815" lon="12.259580562247825" id="-13638">
		<tag k="fixme" v="consider natural=peak for the most distinct mountains in the district" />
		<tag k="name" v="Kleivfjellet" />
		<tag k="natural" v="hill" />
		<tag k="place" v="locality" />
		<tag k="ssr:stedsnr" v="621467" />
	</node>
	<node lat="65.38546943995368" lon="12.303216673176124" id="-13639">
		<tag k="fixme" v="consider natural=peak for the most distinct mountains in the district" />
		<tag k="name" v="Engåsen" />
		<tag k="natural" v="hill" />
		<tag k="place" v="locality" />
		<tag k="ssr:stedsnr" v="621534" />
	</node>
	<node lat="65.20947778127031" lon="12.023152778499632" id="-13647">
		<tag k="fixme" v="consider natural=peak for the most distinct mountains in the district" />
		<tag k="name" v="Sørfjellet" />
		<tag k="natural" v="hill" />
		<tag k="place" v="locality" />
		<tag k="ssr:stedsnr" v="621936" />
	</node>
	<node lat="65.28565555507383" lon="12.237044439877108" id="-13657">
		<tag k="name" v="Tverrlia" />
		<tag k="natural" v="slope" />
		<tag k="place" v="locality" />
		<tag k="ssr:stedsnr" v="723582" />
	</node>
	<node lat="65.34374721835917" lon="12.3609361177382" id="-13658">
		<tag k="name" v="Lautbakkan" />
		<tag k="natural" v="slope" />
		<tag k="place" v="locality" />
		<tag k="ssr:stedsnr" v="724150" />
	</node>
	<node lat="65.37580555285794" lon="12.213222228848045" id="-13659">
		<tag k="name" v="Sammelberget" />
		<tag k="natural" v="hill" />
		<tag k="place" v="locality" />
		<tag k="ssr:stedsnr" v="724318" />
	</node>
	<node lat="65.28799444046678" lon="12.167949989293518" id="-13661">
		<tag k="name" v="Langåsen" />
		<tag k="natural" v="hill" />
		<tag k="place" v="locality" />
		<tag k="ssr:stedsnr" v="724600" />
	</node>
	<node lat="65.36410832928287" lon="12.156949992197884" id="-13662">
		<tag k="name" v="Moahaugen" />
		<tag k="natural" v="hill" />
		<tag k="place" v="locality" />
		<tag k="ssr:stedsnr" v="724334" />
	</node>
	<node lat="65.2520583308309" lon="12.122255564875221" id="-13664">
		<tag k="name" v="Strømshaugen" />
		<tag k="natural" v="hill" />
		<tag k="place" v="locality" />
		<tag k="ssr:stedsnr" v="724718" />
	</node>
	<node lat="65.24241388885945" lon="12.11352221235254" id="-13666">
		<tag k="name" v="Kraket" />
		<tag k="natural" v="hill" />
		<tag k="place" v="locality" />
		<tag k="ssr:stedsnr" v="724881" />
	</node>
	<node lat="65.26269444797123" lon="12.139286116502726" id="-13668">
		<tag k="name" v="Britshaugen" />
		<tag k="natural" v="hill" />
		<tag k="place" v="locality" />
		<tag k="ssr:stedsnr" v="724741" />
	</node>
	<node lat="65.22143888686546" lon="12.018694433518899" id="-13672">
		<tag k="fixme" v="consider natural=peak for the most distinct mountains in the district" />
		<tag k="name" v="Svartholheia" />
		<tag k="natural" v="hill" />
		<tag k="place" v="locality" />
		<tag k="ssr:stedsnr" v="724855" />
	</node>
	<node lat="65.25604166423248" lon="12.116141665897118" id="-13675">
		<tag k="name" v="Vahaugen" />
		<tag k="natural" v="hill" />
		<tag k="place" v="locality" />
		<tag k="ssr:stedsnr" v="724869" />
	</node>
	<node lat="65.3176611112839" lon="12.19034167207263" id="-13679">
		<tag k="name" v="Lunnarvollen" />
		<tag k="natural" v="hill" />
		<tag k="place" v="locality" />
		<tag k="ssr:stedsnr" v="742175" />
	</node>
	<node lat="65.37801944105205" lon="12.317180548522733" id="-13681">
		<tag k="alt_name" v="Aunskardet" />
		<tag k="fixme" v="consider natural=saddle" />
		<tag k="name" v="Aunskaret" />
		<tag k="natural" v="valley" />
		<tag k="place" v="locality" />
		<tag k="ssr:stedsnr" v="742366" />
	</node>
	<node lat="65.4090500040393" lon="12.380947220078657" id="-13683">
		<tag k="alt_name" v="Urskaret" />
		<tag k="fixme" v="consider natural=saddle" />
		<tag k="name" v="Urdskardet" />
		<tag k="natural" v="valley" />
		<tag k="place" v="locality" />
		<tag k="ssr:stedsnr" v="742384" />
	</node>
	<node lat="65.27039721992088" lon="12.142791671078308" id="-13698">
		<tag k="name" v="Bruberget" />
		<tag k="natural" v="hill" />
		<tag k="place" v="locality" />
		<tag k="ssr:stedsnr" v="743380" />
	</node>
	<node lat="65.31288610784986" lon="12.174833333776087" id="-13701">
		<tag k="fixme" v="consider natural=peak for the most distinct mountains in the district" />
		<tag k="name" v="Langåsen" />
		<tag k="natural" v="hill" />
		<tag k="place" v="locality" />
		<tag k="ssr:stedsnr" v="743672" />
	</node>
	<node lat="65.30942777889375" lon="12.405069447441143" id="-13707">
		<tag k="name" v="Rånvikknubban" />
		<tag k="natural" v="cliff" />
		<tag k="ssr:stedsnr" v="781547" />
	</node>
	<node lat="65.3622750021432" lon="12.40559999433509" id="-13709">
		<tag k="fixme" v="consider natural=saddle" />
		<tag k="name" v="Rapet" />
		<tag k="natural" v="valley" />
		<tag k="place" v="locality" />
		<tag k="ssr:stedsnr" v="782566" />
	</node>
	<node lat="65.34713611086721" lon="12.428052780291141" id="-13710">
		<tag k="fixme" v="consider natural=peak for the most distinct mountains in the district" />
		<tag k="name" v="Klubben" />
		<tag k="natural" v="hill" />
		<tag k="place" v="locality" />
		<tag k="ssr:stedsnr" v="782590" />
	</node>
	<node lat="65.4176027748202" lon="12.347783330664015" id="-13711">
		<tag k="name" v="Ytterlia" />
		<tag k="natural" v="slope" />
		<tag k="place" v="locality" />
		<tag k="ssr:stedsnr" v="782889" />
	</node>
	<node lat="65.40653611516711" lon="12.315480552453389" id="-13712">
		<tag k="name" v="Tindtafjellet" />
		<tag k="natural" v="hill" />
		<tag k="place" v="locality" />
		<tag k="ssr:stedsnr" v="783365" />
	</node>
	<node lat="65.33716111403959" lon="12.309922226809874" id="-13714">
		<tag k="fixme" v="consider natural=peak for the most distinct mountains in the district" />
		<tag k="name" v="Hestfjellet" />
		<tag k="natural" v="hill" />
		<tag k="place" v="locality" />
		<tag k="ssr:stedsnr" v="784173" />
	</node>
	<node lat="65.34000000066493" lon="12.119852775544215" id="-13718">
		<tag k="name" v="Jegtsåte" />
		<tag k="place" v="locality" />
		<tag k="ssr:stedsnr" v="784386" />
	</node>
	<node lat="65.28717778186027" lon="12.251666667334565" id="-13719">
		<tag k="name" v="Svarthammeren" />
		<tag k="place" v="locality" />
		<tag k="ssr:stedsnr" v="784613" />
	</node>
	<node lat="65.34333611121335" lon="12.255719436683082" id="-13720">
		<tag k="name" v="Bergan" />
		<tag k="natural" v="hill" />
		<tag k="place" v="locality" />
		<tag k="ssr:stedsnr" v="785036" />
	</node>
	<node lat="65.31249166438889" lon="12.213905548508572" id="-13723">
		<tag k="fixme" v="consider natural=saddle" />
		<tag k="name" v="Vasskaret" />
		<tag k="natural" v="valley" />
		<tag k="place" v="locality" />
		<tag k="ssr:stedsnr" v="785439" />
	</node>
	<node lat="65.28281944493907" lon="12.156286101181028" id="-13724">
		<tag k="name" v="Fjøshaugen" />
		<tag k="natural" v="hill" />
		<tag k="place" v="locality" />
		<tag k="ssr:stedsnr" v="785564" />
	</node>
	<node lat="65.29344722557936" lon="12.183294438831881" id="-13725">
		<tag k="name" v="Sommarfjøshaugen" />
		<tag k="natural" v="hill" />
		<tag k="place" v="locality" />
		<tag k="ssr:stedsnr" v="785570" />
	</node>
	<node lat="65.28062222029024" lon="12.165330546413662" id="-13726">
		<tag k="name" v="Sørkleppen" />
		<tag k="natural" v="hill" />
		<tag k="place" v="locality" />
		<tag k="ssr:stedsnr" v="785582" />
	</node>
	<node lat="65.22516110873019" lon="11.988547229991347" id="-13729">
		<tag k="fixme" v="consider natural=saddle" />
		<tag k="name" v="Tindskardet" />
		<tag k="natural" v="valley" />
		<tag k="place" v="locality" />
		<tag k="ssr:stedsnr" v="785834" />
	</node>
	<node lat="65.21926944104374" lon="12.034397219277619" id="-13730">
		<tag k="name" v="Holmshågen" />
		<tag k="natural" v="hill" />
		<tag k="place" v="locality" />
		<tag k="ssr:stedsnr" v="785840" />
	</node>
	<node lat="65.21165555619206" lon="12.023455550781454" id="-13731">
		<tag k="name" v="Slåttlian" />
		<tag k="natural" v="slope" />
		<tag k="place" v="locality" />
		<tag k="ssr:stedsnr" v="785846" />
	</node>
	<node lat="65.35743055970546" lon="12.215213883121365" id="-13734">
		<tag k="name" v="Grauthågen" />
		<tag k="natural" v="hill" />
		<tag k="place" v="locality" />
		<tag k="ssr:stedsnr" v="786399" />
	</node>
	<node lat="65.31732499867078" lon="12.210427783105859" id="-13736">
		<tag k="fixme" v="consider natural=peak for the most distinct mountains in the district" />
		<tag k="name" v="Malmsfjellet" />
		<tag k="natural" v="hill" />
		<tag k="place" v="locality" />
		<tag k="ssr:stedsnr" v="803175" />
	</node>
	<node lat="65.31706666983797" lon="12.142427786360395" id="-13742">
		<tag k="alt_name" v="Hushågen" />
		<tag k="name" v="Hushaugen" />
		<tag k="natural" v="hill" />
		<tag k="place" v="locality" />
		<tag k="ssr:stedsnr" v="803155" />
	</node>
	<node lat="65.34060555683315" lon="12.462800006641482" id="-13746">
		<tag k="name" v="Hestmarka" />
		<tag k="place" v="locality" />
		<tag k="ssr:stedsnr" v="803358" />
	</node>
	<node lat="65.34567778114271" lon="12.206150009758296" id="-13752">
		<tag k="alt_name" v="Trøahågen" />
		<tag k="name" v="Trøhaugen" />
		<tag k="natural" v="hill" />
		<tag k="place" v="locality" />
		<tag k="ssr:stedsnr" v="804189" />
	</node>
	<node lat="65.35500832991949" lon="12.233599995387703" id="-13755">
		<tag k="fixme" v="multiple name tags, choose one and add the other to alt_name; consider natural=peak for the most distinct mountains in the district" />
		<tag k="name" v="Grøttemsfjellet;Beretfjellet" />
		<tag k="natural" v="hill" />
		<tag k="place" v="locality" />
		<tag k="ssr:stedsnr" v="804434" />
	</node>
	<node lat="65.36498055760286" lon="12.42523333858743" id="-13765">
		<tag k="name" v="Lasletta" />
		<tag k="place" v="locality" />
		<tag k="ssr:stedsnr" v="843002" />
	</node>
	<node lat="65.34509722176574" lon="12.377363897787397" id="-13766">
		<tag k="fixme" v="consider natural=saddle" />
		<tag k="name" v="Ressmålskardet" />
		<tag k="natural" v="valley" />
		<tag k="place" v="locality" />
		<tag k="ssr:stedsnr" v="846149" />
	</node>
	<node lat="65.33874722632382" lon="12.342955553660575" id="-13767">
		<tag k="name" v="Rognlia" />
		<tag k="natural" v="slope" />
		<tag k="place" v="locality" />
		<tag k="ssr:stedsnr" v="846153" />
	</node>
	<node lat="65.36525000038776" lon="12.372461102899713" id="-13768">
		<tag k="name" v="Teisdalslia" />
		<tag k="natural" v="slope" />
		<tag k="place" v="locality" />
		<tag k="ssr:stedsnr" v="846025" />
	</node>
	<node lat="65.3712833358002" lon="12.274105564255201" id="-13770">
		<tag k="name" v="Fletforskolten" />
		<tag k="natural" v="hill" />
		<tag k="place" v="locality" />
		<tag k="ssr:stedsnr" v="846042" />
	</node>
	<node lat="65.32992222651595" lon="12.253958336079217" id="-13773">
		<tag k="fixme" v="consider natural=saddle" />
		<tag k="name" v="Olderholet" />
		<tag k="natural" v="valley" />
		<tag k="place" v="locality" />
		<tag k="ssr:stedsnr" v="846439" />
	</node>
	<node lat="65.32733333591094" lon="12.251563890158863" id="-13774">
		<tag k="name" v="Mølnhushaugen" />
		<tag k="natural" v="hill" />
		<tag k="place" v="locality" />
		<tag k="ssr:stedsnr" v="846441" />
	</node>
	<node lat="65.33045833409695" lon="12.207144450868094" id="-13775">
		<tag k="name" v="Stakkmoen" />
		<tag k="place" v="locality" />
		<tag k="ssr:stedsnr" v="846442" />
	</node>
	<node lat="65.24541388679476" lon="12.141041676082999" id="-13776">
		<tag k="name" v="Brattbakkhammeren" />
		<tag k="natural" v="hill" />
		<tag k="place" v="locality" />
		<tag k="ssr:stedsnr" v="846720" />
	</node>
	<node lat="65.21163611453022" lon="12.002150003171577" id="-13777">
		<tag k="fixme" v="consider natural=saddle" />
		<tag k="name" v="Less-Urdskardet" />
		<tag k="natural" v="valley" />
		<tag k="place" v="locality" />
		<tag k="ssr:stedsnr" v="846839" />
	</node>
	<node lat="65.3117833290546" lon="12.109261118961754" id="-13785">
		<tag k="fixme" v="consider natural=peak for the most distinct mountains in the district" />
		<tag k="name" v="Skålvikfjellet" />
		<tag k="natural" v="hill" />
		<tag k="place" v="locality" />
		<tag k="ssr:stedsnr" v="864167" />
	</node>
	<node lat="65.31309999595258" lon="12.089763897670917" id="-13787">
		<tag k="name" v="Langberget" />
		<tag k="natural" v="hill" />
		<tag k="place" v="locality" />
		<tag k="ssr:stedsnr" v="864171" />
	</node>
	<node lat="65.35914999573201" lon="12.184744444724513" id="-13792">
		<tag k="fixme" v="consider natural=peak for the most distinct mountains in the district" />
		<tag k="name" v="Sømnesåsen" />
		<tag k="natural" v="hill" />
		<tag k="place" v="locality" />
		<tag k="ssr:stedsnr" v="864129" />
	</node>
	<node lat="65.26892499795466" lon="12.24043611057114" id="-13795">
		<tag k="name" v="Olsvikmarka" />
		<tag k="place" v="locality" />
		<tag k="ssr:stedsnr" v="864226" />
	</node>
	<node lat="65.42081111058349" lon="12.339850002113637" id="-13797">
		<tag k="alt_name" v="Almskarheia" />
		<tag k="name" v="Almskardheia" />
		<tag k="natural" v="hill" />
		<tag k="place" v="locality" />
		<tag k="ssr:stedsnr" v="864423" />
	</node>
	<node lat="65.29612222117531" lon="12.156333330651885" id="-13808">
		<tag k="alt_name" v="Steinskleppen" />
		<tag k="name" v="Steinskleppan" />
		<tag k="natural" v="hill" />
		<tag k="place" v="locality" />
		<tag k="ssr:stedsnr" v="864364" />
	</node>
	<node lat="65.37162778104926" lon="12.36888332459579" id="-13815">
		<tag k="name" v="Øvredalsmarka" />
		<tag k="natural" v="valley" />
		<tag k="place" v="locality" />
		<tag k="ssr:stedsnr" v="864475" />
	</node>
	<node lat="65.32060277345316" lon="12.15124444780136" id="-13822">
		<tag k="name" v="Brunsberget" />
		<tag k="natural" v="hill" />
		<tag k="place" v="locality" />
		<tag k="ssr:stedsnr" v="924159" />
	</node>
	<node lat="65.24635000275907" lon="12.188883331447109" id="-13826">
		<tag k="name" v="Hestdalen" />
		<tag k="natural" v="valley" />
		<tag k="place" v="locality" />
		<tag k="ssr:stedsnr" v="925868" />
	</node>
	<node lat="65.36680000373346" lon="12.437341668753255" id="-13828">
		<tag k="fixme" v="consider natural=peak for the most distinct mountains in the district" />
		<tag k="name" v="Skardlauvvikåsen" />
		<tag k="natural" v="hill" />
		<tag k="place" v="locality" />
		<tag k="ssr:stedsnr" v="925381" />
	</node>
	<node lat="65.3355055555506" lon="12.327836116652678" id="-13830">
		<tag k="fixme" v="consider natural=peak for the most distinct mountains in the district" />
		<tag k="name" v="Hombornesfjellet" />
		<tag k="natural" v="hill" />
		<tag k="place" v="locality" />
		<tag k="ssr:stedsnr" v="925392" />
	</node>
	<node lat="65.36388888993552" lon="12.379577778175177" id="-13832">
		<tag k="alt_name" v="Teisdalshalsen" />
		<tag k="fixme" v="consider natural=saddle" />
		<tag k="name" v="Teistdalshalsen" />
		<tag k="natural" v="valley" />
		<tag k="place" v="locality" />
		<tag k="ssr:stedsnr" v="925456" />
	</node>
	<node lat="65.40516389056982" lon="12.331519454627351" id="-13833">
		<tag k="fixme" v="consider natural=saddle" />
		<tag k="name" v="Skardet" />
		<tag k="natural" v="valley" />
		<tag k="place" v="locality" />
		<tag k="ssr:stedsnr" v="925458" />
	</node>
	<node lat="65.3661944404088" lon="12.415774994914422" id="-13841">
		<tag k="name" v="Hundstihågen" />
		<tag k="natural" v="hill" />
		<tag k="place" v="locality" />
		<tag k="ssr:stedsnr" v="964002" />
	</node>
	<node lat="65.4157861129921" lon="12.322144441363058" id="-13842">
		<tag k="name" v="Lessengmoen" />
		<tag k="place" v="locality" />
		<tag k="ssr:stedsnr" v="964875" />
	</node>
	<node lat="65.42422499672868" lon="12.31867223079778" id="-13843">
		<tag k="name" v="Vedalsstien" />
		<tag k="natural" v="slope" />
		<tag k="place" v="locality" />
		<tag k="ssr:stedsnr" v="965889" />
	</node>
	<node lat="65.34295555219686" lon="12.354216674300329" id="-13845">
		<tag k="name" v="Durhågen" />
		<tag k="place" v="locality" />
		<tag k="ssr:stedsnr" v="966171" />
	</node>
	<node lat="65.33954166601904" lon="12.244863896336055" id="-13847">
		<tag k="name" v="Sauhallaren" />
		<tag k="natural" v="slope" />
		<tag k="place" v="locality" />
		<tag k="ssr:stedsnr" v="966461" />
	</node>
	<node lat="65.31973611093505" lon="12.251777767775478" id="-13848">
		<tag k="name" v="Heststihaugen" />
		<tag k="natural" v="hill" />
		<tag k="place" v="locality" />
		<tag k="ssr:stedsnr" v="966480" />
	</node>
	<node lat="65.3827138918001" lon="12.342755546462568" id="-13849">
		<tag k="name" v="Småhatten" />
		<tag k="natural" v="hill" />
		<tag k="place" v="locality" />
		<tag k="ssr:stedsnr" v="967002" />
	</node>
	<node lat="65.36568055518856" lon="12.355294449646392" id="-13850">
		<tag k="name" v="Breilia" />
		<tag k="natural" v="slope" />
		<tag k="place" v="locality" />
		<tag k="ssr:stedsnr" v="967022" />
	</node>
	<node lat="65.23055000140418" lon="11.964455548458535" id="-13852">
		<tag k="name" v="Langøyhatten" />
		<tag k="natural" v="hill" />
		<tag k="place" v="locality" />
		<tag k="ssr:stedsnr" v="966928" />
	</node>
	<node lat="65.34423888642449" lon="12.310322214685652" id="-13854">
		<tag k="name" v="Varden" />
		<tag k="natural" v="hill" />
		<tag k="place" v="locality" />
		<tag k="ssr:stedsnr" v="967053" />
	</node>
	<node lat="65.28495000282655" lon="12.168544446469866" id="-13855">
		<tag k="fixme" v="consider natural=saddle" />
		<tag k="name" v="Trollskaret" />
		<tag k="natural" v="valley" />
		<tag k="place" v="locality" />
		<tag k="ssr:stedsnr" v="967571" />
	</node>
	<node lat="65.21685000274867" lon="11.986991667684057" id="-13856">
		<tag k="fixme" v="consider natural=saddle" />
		<tag k="name" v="Kovan" />
		<tag k="natural" v="valley" />
		<tag k="place" v="locality" />
		<tag k="ssr:stedsnr" v="967817" />
	</node>
	<node lat="65.30658610683719" lon="12.378361114953128" id="-13857">
		<tag k="name" v="Kvitbergan" />
		<tag k="natural" v="hill" />
		<tag k="place" v="locality" />
		<tag k="ssr:stedsnr" v="968971" />
	</node>
</osm>
