<?xml version="1.0" encoding="UTF-8"?>
<osm generator="osmapis" version="0.6">
	<node id="-119018" lat="65.3656361106" lon="12.430913898">
		<tag k="historic" v="shieling" />
		<tag k="name" v="Øvergården" />
		<tag k="place" v="locality" />
		<tag k="ssr:stedsnr" v="479027" />
	</node>
	<node id="-119289" lat="65.3936638925" lon="12.3550611186">
		<tag k="historic" v="shieling" />
		<tag k="name" v="Dalasæteren" />
		<tag k="place" v="locality" />
		<tag k="ssr:stedsnr" v="724899" />
	</node>
	<node id="-119030" lat="65.2998916659" lon="12.2048250013">
		<tag k="name" v="Trongvollen" />
		<tag k="place" v="locality" />
		<tag k="ssr:stedsnr" v="481527" />
	</node>
	<node id="-119277" lat="65.2900250018" lon="12.1657055654">
		<tag k="name" v="Foraskarmyra" />
		<tag k="natural" v="wetland" />
		<tag k="ssr:stedsnr" v="724593" />
	</node>
	<node id="-118892" lat="65.2251333374" lon="11.9777750088">
		<tag k="name" v="Langøysundsmyra" />
		<tag k="natural" v="wetland" />
		<tag k="ssr:stedsnr" v="117927" />
	</node>
	<node id="-119402" lat="65.3292166653" lon="12.1804055537">
		<tag k="name" v="Buvollen" />
		<tag k="place" v="locality" />
		<tag k="ssr:stedsnr" v="908395" />
	</node>
	<node id="-119913" lat="65.3274888853" lon="12.1769944365">
		<tag k="name" v="Sløngjemyra" />
		<tag k="natural" v="wetland" />
		<tag k="ssr:stedsnr" v="543381" />
	</node>
	<node id="-119912" lat="65.3295750026" lon="12.1596555524">
		<tag k="name" v="Handklæmyra" />
		<tag k="natural" v="wetland" />
		<tag k="ssr:stedsnr" v="543380" />
	</node>
	<node id="-119782" lat="65.3613000017" lon="12.1581166716">
		<tag k="name" v="Skeian" />
		<tag k="place" v="locality" />
		<tag k="ssr:stedsnr" v="360326" />
	</node>
	<node id="-119781" lat="65.345894445" lon="12.3628611212">
		<tag k="landuse" v="meadow" />
		<tag k="name" v="Engan" />
		<tag k="ssr:stedsnr" v="360151" />
	</node>
	<node id="-120162" lat="65.2556499957" lon="12.1602166731">
		<tag k="name" v="Hjelmsetmyran" />
		<tag k="natural" v="wetland" />
		<tag k="ssr:stedsnr" v="864289" />
	</node>
	<node id="-119905" lat="65.2187138876" lon="12.0176833384">
		<tag k="name" v="Stormyra" />
		<tag k="place" v="locality" />
		<tag k="ssr:stedsnr" v="542851" />
	</node>
	<node id="-120080" lat="65.2742111082" lon="12.1591138976">
		<tag k="alt_name" v="Jøsmyra" />
		<tag k="name" v="Ljosmyran" />
		<tag k="natural" v="wetland" />
		<tag k="ssr:stedsnr" v="803366" />
	</node>
	<node id="-119645" lat="65.2212305558" lon="11.9875138943">
		<tag k="name" v="Tverrurda" />
		<tag k="natural" v="scree" />
		<tag k="ssr:stedsnr" v="117851" />
	</node>
	<node id="-119002" lat="65.2868555533" lon="12.131094443">
		<tag k="name" v="Følvikmyra" />
		<tag k="natural" v="wetland" />
		<tag k="ssr:stedsnr" v="299614" />
	</node>
	<node id="-119000" lat="65.3171749992" lon="12.2593388916">
		<tag k="name" v="Juvikmarka" />
		<tag k="place" v="locality" />
		<tag k="ssr:stedsnr" v="299210" />
	</node>
	<node id="-119382" lat="65.3599333329" lon="12.2864416716">
		<tag k="name" v="Storøvermarka" />
		<tag k="place" v="locality" />
		<tag k="ssr:stedsnr" v="906048" />
	</node>
	<node id="-118969" lat="65.3680555521" lon="12.2988305645">
		<tag k="name" v="Stormyra" />
		<tag k="natural" v="wetland" />
		<tag k="ssr:stedsnr" v="439421" />
	</node>
	<node id="-119630" lat="65.3603833339" lon="12.3828472185">
		<tag k="landuse" v="meadow" />
		<tag k="name" v="Stålvollen" />
		<tag k="ssr:stedsnr" v="117146" />
	</node>
	<node id="-119501" lat="65.350658337" lon="12.211155556">
		<tag k="name" v="Hestmarka" />
		<tag k="place" v="locality" />
		<tag k="ssr:stedsnr" v="968407" />
	</node>
	<node id="-119628" lat="65.3455583308" lon="12.3815138979">
		<tag k="name" v="Lessberetsteinen" />
		<tag k="natural" v="stone" />
		<tag k="ssr:stedsnr" v="117141" />
	</node>
	<node id="-118859" lat="65.2259916625" lon="12.1041194431">
		<tag k="name" v="Einvollan" />
		<tag k="place" v="locality" />
		<tag k="ssr:stedsnr" v="239945" />
	</node>
	<node id="-119369" lat="65.2988000036" lon="12.1699166704">
		<tag k="name" v="Vikmyran" />
		<tag k="natural" v="wetland" />
		<tag k="ssr:stedsnr" v="742303" />
	</node>
	<node id="-119623" lat="65.3466805575" lon="12.2643611208">
		<tag k="name" v="Vassvollen" />
		<tag k="place" v="locality" />
		<tag k="ssr:stedsnr" v="117039" />
	</node>
	<node id="-119238" lat="65.2920555598" lon="12.1752055619">
		<tag k="name" v="Krunkeldalsmyra" />
		<tag k="natural" v="wetland" />
		<tag k="ssr:stedsnr" v="542594" />
	</node>
	<node id="-118881" lat="65.3311416676" lon="12.2859694359">
		<tag k="alt_name" v="Frillstadmyra" />
		<tag k="name" v="Frilstadmyra" />
		<tag k="natural" v="wetland" />
		<tag k="ssr:stedsnr" v="257386" />
	</node>
	<node id="-119868" lat="65.2094972251" lon="12.0083805591">
		<tag k="name" v="Kvennvikurda" />
		<tag k="natural" v="scree" />
		<tag k="ssr:stedsnr" v="421921" />
	</node>
	<node id="-119737" lat="65.3020250007" lon="12.2110777729">
		<tag k="name" v="Gjerdvassmyra" />
		<tag k="natural" v="wetland" />
		<tag k="ssr:stedsnr" v="318343" />
	</node>
	<node id="-119602" lat="65.417255551" lon="12.3431916716">
		<tag k="name" v="Lislsjømyra" />
		<tag k="natural" v="wetland" />
		<tag k="ssr:stedsnr" v="75453" />
	</node>
	<node id="-119473" lat="65.411625002" lon="12.3499833356">
		<tag k="name" v="Sætran" />
		<tag k="natural" v="wetland" />
		<tag k="ssr:stedsnr" v="904904" />
	</node>
	<node id="-119600" lat="65.3709305514" lon="12.2478916572">
		<tag k="name" v="Trogmyra" />
		<tag k="natural" v="wetland" />
		<tag k="ssr:stedsnr" v="75449" />
	</node>
	<node id="-118955" lat="65.395302776" lon="12.3093916629">
		<tag k="landuse" v="meadow" />
		<tag k="name" v="Skavlimyra" />
		<tag k="ssr:stedsnr" v="297573" />
	</node>
	<node id="-119850" lat="65.3244527803" lon="12.2132555607">
		<tag k="name" v="Rugelenget" />
		<tag k="place" v="locality" />
		<tag k="ssr:stedsnr" v="421441" />
	</node>
	<node id="-119879" lat="65.288477782" lon="12.26881111">
		<tag k="name" v="Åkerlångan" />
		<tag k="place" v="locality" />
		<tag k="ssr:stedsnr" v="521826" />
	</node>
	<node id="-119462" lat="65.3621333339" lon="12.387863898">
		<tag k="name" v="Gomosten" />
		<tag k="natural" v="scree" />
		<tag k="ssr:stedsnr" v="846113" />
	</node>
	<node id="-119110" lat="65.3734444427" lon="12.2896583317">
		<tag k="name" v="Nordåsmyra" />
		<tag k="natural" v="wetland" />
		<tag k="ssr:stedsnr" v="299016" />
	</node>
	<node id="-118946" lat="65.348344449" lon="12.3540416578">
		<tag k="name" v="Gluggskogen" />
		<tag k="place" v="locality" />
		<tag k="ssr:stedsnr" v="299173" />
	</node>
	<node id="-118817" lat="65.3914833289" lon="12.3202500047">
		<tag k="landuse" v="meadow" />
		<tag k="name" v="Staulan" />
		<tag k="ssr:stedsnr" v="55560" />
	</node>
	<node id="-119200" lat="65.2437972248" lon="12.172875009">
		<tag k="name" v="Hjelmsetmyra" />
		<tag k="natural" v="wetland" />
		<tag k="ssr:stedsnr" v="500867" />
	</node>
	<node id="-119064" lat="65.3886388891" lon="12.3199166765">
		<tag k="alt_name" v="Dalamyra" />
		<tag k="name" v="Dalmyran" />
		<tag k="natural" v="wetland" />
		<tag k="ssr:stedsnr" v="499407" />
	</node>
	<node id="-119063" lat="65.412405559" lon="12.3126027844">
		<tag k="name" v="Formyra" />
		<tag k="natural" v="wetland" />
		<tag k="ssr:stedsnr" v="499368" />
	</node>
	<node id="-120210" lat="65.2039499996" lon="12.0135055538">
		<tag k="name" v="Klompan" />
		<tag k="natural" v="stone" />
		<tag k="ssr:stedsnr" v="967897" />
	</node>
	<node id="-119824" lat="65.3747944424" lon="12.3429111134">
		<tag k="name" v="Svenskmyra" />
		<tag k="natural" v="wetland" />
		<tag k="ssr:stedsnr" v="378418" />
	</node>
	<node id="-118926" lat="65.3683111106" lon="12.2850888825">
		<tag k="name" v="Mølnhusmyra" />
		<tag k="natural" v="wetland" />
		<tag k="ssr:stedsnr" v="178062" />
	</node>
	<node id="-120074" lat="65.3568555596" lon="12.1749166666">
		<tag k="name" v="Sømnesmyran" />
		<tag k="natural" v="wetland" />
		<tag k="ssr:stedsnr" v="803129" />
	</node>
	<node id="-120197" lat="65.3591305582" lon="12.3882361098">
		<tag k="name" v="Stormyra" />
		<tag k="natural" v="wetland" />
		<tag k="ssr:stedsnr" v="966128" />
	</node>
	<node id="-119427" lat="65.2838277779" lon="12.1764222205">
		<tag k="name" v="Lomtjørnmyra" />
		<tag k="natural" v="wetland" />
		<tag k="ssr:stedsnr" v="925369" />
	</node>
	<node id="-118827" lat="65.3368416693" lon="12.2697638977">
		<tag k="landuse" v="meadow" />
		<tag k="name" v="Stakkan" />
		<tag k="ssr:stedsnr" v="238175" />
	</node>
</osm>
