<?xml version="1.0" encoding="UTF-8"?>
<osm version="0.6" generator="osmapis">
	<node lat="63.4547112665937" lon="11.69707081579119" id="-88613">
		<tag k="name" v="Bjørnsmyrveien" />
		<tag k="ssr:date" v="2019-05-30" />
		<tag k="ssr:gruppe" v="veg" />
		<tag k="ssr:hovedgruppe" v="infrastruktur" />
		<tag k="ssr:stedsnr" v="55165" />
		<tag k="ssr:type" v="adressenavn" />
	</node>
	<node lat="63.44328258762492" lon="11.647912789795894" id="-88614">
		<tag k="name" v="Andershaugveien" />
		<tag k="ssr:date" v="2019-05-30" />
		<tag k="ssr:gruppe" v="veg" />
		<tag k="ssr:hovedgruppe" v="infrastruktur" />
		<tag k="ssr:stedsnr" v="55167" />
		<tag k="ssr:type" v="adressenavn" />
	</node>
	<node lat="63.42076296332004" lon="11.738868853533509" id="-88689">
		<tag k="name" v="Møllebakken" />
		<tag k="ssr:date" v="2019-05-30" />
		<tag k="ssr:gruppe" v="veg" />
		<tag k="ssr:hovedgruppe" v="infrastruktur" />
		<tag k="ssr:stedsnr" v="237151" />
		<tag k="ssr:type" v="adressenavn" />
	</node>
	<node lat="63.43281554631633" lon="11.708201810095987" id="-88690">
		<tag k="name" v="Pålsnesveien" />
		<tag k="ssr:date" v="2019-05-30" />
		<tag k="ssr:gruppe" v="veg" />
		<tag k="ssr:hovedgruppe" v="infrastruktur" />
		<tag k="ssr:stedsnr" v="237159" />
		<tag k="ssr:type" v="adressenavn" />
	</node>
	<node lat="63.436508031416075" lon="11.679064722535749" id="-88691">
		<tag k="name" v="Krokstadveien" />
		<tag k="ssr:date" v="2019-05-30" />
		<tag k="ssr:gruppe" v="veg" />
		<tag k="ssr:hovedgruppe" v="infrastruktur" />
		<tag k="ssr:stedsnr" v="237161" />
		<tag k="ssr:type" v="adressenavn" />
	</node>
	<node lat="63.44522876963086" lon="11.705749565015434" id="-88692">
		<tag k="name" v="Trollveien" />
		<tag k="ssr:date" v="2019-05-30" />
		<tag k="ssr:gruppe" v="veg" />
		<tag k="ssr:hovedgruppe" v="infrastruktur" />
		<tag k="ssr:stedsnr" v="237164" />
		<tag k="ssr:type" v="adressenavn" />
	</node>
	<node lat="63.450418049836664" lon="11.71192884699769" id="-88693">
		<tag k="name" v="Torvrekkveien" />
		<tag k="ssr:date" v="2019-05-30" />
		<tag k="ssr:gruppe" v="veg" />
		<tag k="ssr:hovedgruppe" v="infrastruktur" />
		<tag k="ssr:stedsnr" v="237165" />
		<tag k="ssr:type" v="adressenavn" />
	</node>
	<node lat="63.44661693868061" lon="11.601468704982404" id="-88694">
		<tag k="name" v="Nygjardsveien" />
		<tag k="ssr:date" v="2019-05-30" />
		<tag k="ssr:gruppe" v="veg" />
		<tag k="ssr:hovedgruppe" v="infrastruktur" />
		<tag k="ssr:stedsnr" v="237167" />
		<tag k="ssr:type" v="adressenavn" />
	</node>
	<node lat="63.421582034952685" lon="11.76305818263075" id="-88729">
		<tag k="name" v="Øveråsveien" />
		<tag k="ssr:date" v="2019-05-30" />
		<tag k="ssr:gruppe" v="veg" />
		<tag k="ssr:hovedgruppe" v="infrastruktur" />
		<tag k="ssr:stedsnr" v="163303" />
		<tag k="ssr:type" v="adressenavn" />
	</node>
	<node lat="63.28883827202515" lon="11.804744361423772" id="-88779">
		<tag k="name" v="Gilsåveien" />
		<tag k="ssr:date" v="2019-05-30" />
		<tag k="ssr:gruppe" v="veg" />
		<tag k="ssr:hovedgruppe" v="infrastruktur" />
		<tag k="ssr:stedsnr" v="224319" />
		<tag k="ssr:type" v="adressenavn" />
	</node>
	<node lat="63.531673425608155" lon="11.940727933648535" id="-88780">
		<tag k="name" v="Tjønnvollveien" />
		<tag k="ssr:date" v="2019-05-30" />
		<tag k="ssr:gruppe" v="veg" />
		<tag k="ssr:hovedgruppe" v="infrastruktur" />
		<tag k="ssr:stedsnr" v="224322" />
		<tag k="ssr:type" v="adressenavn" />
	</node>
	<node lat="63.391893464816484" lon="11.846609263469885" id="-88781">
		<tag k="name" v="Kopperåveien" />
		<tag k="ssr:date" v="2019-05-30" />
		<tag k="ssr:gruppe" v="veg" />
		<tag k="ssr:hovedgruppe" v="infrastruktur" />
		<tag k="ssr:stedsnr" v="224326" />
		<tag k="ssr:type" v="adressenavn" />
	</node>
	<node lat="63.42415294548582" lon="11.73829354325387" id="-88801">
		<tag k="name" v="Grubbveien" />
		<tag k="ssr:date" v="2019-05-30" />
		<tag k="ssr:gruppe" v="veg" />
		<tag k="ssr:hovedgruppe" v="infrastruktur" />
		<tag k="ssr:stedsnr" v="242692" />
		<tag k="ssr:type" v="adressenavn" />
	</node>
	<node lat="63.510915607664906" lon="11.825430264611288" id="-88862">
		<tag k="name" v="Vei 97" />
		<tag k="ssr:date" v="2020-05-28" />
		<tag k="ssr:gruppe" v="veg" />
		<tag k="ssr:hovedgruppe" v="infrastruktur" />
		<tag k="ssr:stedsnr" v="285342" />
		<tag k="ssr:type" v="adressenavn" />
	</node>
	<node lat="63.3791263419621" lon="11.891333807904504" id="-88863">
		<tag k="name" v="Grønbergveien" />
		<tag k="ssr:date" v="2019-05-30" />
		<tag k="ssr:gruppe" v="veg" />
		<tag k="ssr:hovedgruppe" v="infrastruktur" />
		<tag k="ssr:stedsnr" v="285345" />
		<tag k="ssr:type" v="adressenavn" />
	</node>
	<node lat="63.42012899030129" lon="11.756291131818438" id="-88875">
		<tag k="name" v="Kyllofallet" />
		<tag k="ssr:date" v="2019-05-30" />
		<tag k="ssr:gruppe" v="veg" />
		<tag k="ssr:hovedgruppe" v="infrastruktur" />
		<tag k="ssr:stedsnr" v="298292" />
		<tag k="ssr:type" v="adressenavn" />
	</node>
	<node lat="63.41488021705294" lon="11.747704220667341" id="-88917">
		<tag k="name" v="Meråker kommune" />
		<tag k="ssr:date" v="2021-12-13" />
		<tag k="ssr:gruppe" v="administrativeIndelinger" />
		<tag k="ssr:hovedgruppe" v="offentligAdministrasjon" />
		<tag k="ssr:stedsnr" v="328886" />
		<tag k="ssr:type" v="kommune" />
	</node>
	<node lat="63.27331210008025" lon="11.804505848592047" id="-88921">
		<tag k="name" v="Stordalsveien" />
		<tag k="ssr:date" v="2019-05-30" />
		<tag k="ssr:gruppe" v="veg" />
		<tag k="ssr:hovedgruppe" v="infrastruktur" />
		<tag k="ssr:stedsnr" v="345316" />
		<tag k="ssr:type" v="adressenavn" />
	</node>
	<node lat="63.29858879101167" lon="11.887144753910146" id="-88922">
		<tag k="name" v="Tjønnmoveien" />
		<tag k="ssr:date" v="2019-05-30" />
		<tag k="ssr:gruppe" v="veg" />
		<tag k="ssr:hovedgruppe" v="infrastruktur" />
		<tag k="ssr:stedsnr" v="345319" />
		<tag k="ssr:type" v="adressenavn" />
	</node>
	<node lat="63.296705053567734" lon="11.835983597616567" id="-88923">
		<tag k="name" v="Gjemseveien" />
		<tag k="ssr:date" v="2019-05-30" />
		<tag k="ssr:gruppe" v="veg" />
		<tag k="ssr:hovedgruppe" v="infrastruktur" />
		<tag k="ssr:stedsnr" v="345320" />
		<tag k="ssr:type" v="adressenavn" />
	</node>
	<node lat="63.44028394487806" lon="11.688666954888216" id="-88934">
		<tag k="name" v="Fagerliveien" />
		<tag k="ssr:date" v="2019-05-30" />
		<tag k="ssr:gruppe" v="veg" />
		<tag k="ssr:hovedgruppe" v="infrastruktur" />
		<tag k="ssr:stedsnr" v="358159" />
		<tag k="ssr:type" v="adressenavn" />
	</node>
	<node lat="63.53370822958104" lon="11.894586710794776" id="-88935">
		<tag k="name" v="Sagmoveien" />
		<tag k="ssr:date" v="2019-05-30" />
		<tag k="ssr:gruppe" v="veg" />
		<tag k="ssr:hovedgruppe" v="infrastruktur" />
		<tag k="ssr:stedsnr" v="467358" />
		<tag k="ssr:type" v="adressenavn" />
	</node>
	<node lat="63.33588984409634" lon="12.03476670409312" id="-88991">
		<tag k="name" v="Hansstugguveien" />
		<tag k="ssr:date" v="2019-05-30" />
		<tag k="ssr:gruppe" v="veg" />
		<tag k="ssr:hovedgruppe" v="infrastruktur" />
		<tag k="ssr:stedsnr" v="406356" />
		<tag k="ssr:type" v="adressenavn" />
	</node>
	<node lat="63.39775182878633" lon="11.71569817031811" id="-89014">
		<tag k="name" v="Blæstervollveien" />
		<tag k="ssr:date" v="2019-05-30" />
		<tag k="ssr:gruppe" v="veg" />
		<tag k="ssr:hovedgruppe" v="infrastruktur" />
		<tag k="ssr:stedsnr" v="419306" />
		<tag k="ssr:type" v="adressenavn" />
	</node>
	<node lat="63.414058856480594" lon="11.743144004935697" id="-89015">
		<tag k="name" v="Stasjonsveien" />
		<tag k="ssr:date" v="2019-05-30" />
		<tag k="ssr:gruppe" v="veg" />
		<tag k="ssr:hovedgruppe" v="infrastruktur" />
		<tag k="ssr:stedsnr" v="419310" />
		<tag k="ssr:type" v="adressenavn" />
	</node>
	<node lat="63.42125942763293" lon="11.755083121341848" id="-89016">
		<tag k="name" v="Mehaugtrøa" />
		<tag k="ssr:date" v="2019-05-30" />
		<tag k="ssr:gruppe" v="veg" />
		<tag k="ssr:hovedgruppe" v="infrastruktur" />
		<tag k="ssr:stedsnr" v="419312" />
		<tag k="ssr:type" v="adressenavn" />
	</node>
	<node lat="63.404220924968484" lon="11.736213977825821" id="-89034">
		<tag k="name" v="Eggaveien" />
		<tag k="ssr:date" v="2019-05-30" />
		<tag k="ssr:gruppe" v="veg" />
		<tag k="ssr:hovedgruppe" v="infrastruktur" />
		<tag k="ssr:stedsnr" v="479162" />
		<tag k="ssr:type" v="adressenavn" />
	</node>
	<node lat="63.44307329260022" lon="11.632361092907182" id="-89035">
		<tag k="name" v="Vollnesveien" />
		<tag k="ssr:date" v="2019-05-30" />
		<tag k="ssr:gruppe" v="veg" />
		<tag k="ssr:hovedgruppe" v="infrastruktur" />
		<tag k="ssr:stedsnr" v="661160" />
		<tag k="ssr:type" v="adressenavn" />
	</node>
	<node lat="63.43559508818419" lon="11.713302691314297" id="-89060">
		<tag k="name" v="Bergplassen" />
		<tag k="ssr:date" v="2019-05-30" />
		<tag k="ssr:gruppe" v="veg" />
		<tag k="ssr:hovedgruppe" v="infrastruktur" />
		<tag k="ssr:stedsnr" v="662156" />
		<tag k="ssr:type" v="adressenavn" />
	</node>
	<node lat="63.42746977352255" lon="11.724215659032442" id="-89077">
		<tag k="name" v="Funnosmoen" />
		<tag k="ssr:date" v="2019-05-30" />
		<tag k="ssr:gruppe" v="veg" />
		<tag k="ssr:hovedgruppe" v="infrastruktur" />
		<tag k="ssr:stedsnr" v="479165" />
		<tag k="ssr:type" v="adressenavn" />
	</node>
	<node lat="63.41574854609509" lon="11.747681025994119" id="-89078">
		<tag k="name" v="Rådhusgata" />
		<tag k="ssr:date" v="2019-05-30" />
		<tag k="ssr:gruppe" v="veg" />
		<tag k="ssr:hovedgruppe" v="infrastruktur" />
		<tag k="ssr:stedsnr" v="666710" />
		<tag k="ssr:type" v="adressenavn" />
	</node>
	<node lat="63.37034408934252" lon="11.9366716259776" id="-89113">
		<tag k="name" v="Tovmodalsveien" />
		<tag k="ssr:date" v="2019-05-30" />
		<tag k="ssr:gruppe" v="veg" />
		<tag k="ssr:hovedgruppe" v="infrastruktur" />
		<tag k="ssr:stedsnr" v="527343" />
		<tag k="ssr:type" v="adressenavn" />
	</node>
	<node lat="63.40847173568713" lon="11.75292524817272" id="-89126">
		<tag k="name" v="Ol-Jensaveien" />
		<tag k="ssr:date" v="2019-05-30" />
		<tag k="ssr:gruppe" v="veg" />
		<tag k="ssr:hovedgruppe" v="infrastruktur" />
		<tag k="ssr:stedsnr" v="540302" />
		<tag k="ssr:type" v="adressenavn" />
	</node>
	<node lat="63.397982199059264" lon="11.78793060971871" id="-89177">
		<tag k="name" v="Løkkveien" />
		<tag k="ssr:date" v="2019-05-30" />
		<tag k="ssr:gruppe" v="veg" />
		<tag k="ssr:hovedgruppe" v="infrastruktur" />
		<tag k="ssr:stedsnr" v="588323" />
		<tag k="ssr:type" v="adressenavn" />
	</node>
	<node lat="63.39421234565743" lon="11.79184752196436" id="-89186">
		<tag k="name" v="Landveien" />
		<tag k="ssr:date" v="2019-05-30" />
		<tag k="ssr:gruppe" v="veg" />
		<tag k="ssr:hovedgruppe" v="infrastruktur" />
		<tag k="ssr:stedsnr" v="601274" />
		<tag k="ssr:type" v="adressenavn" />
	</node>
	<node lat="63.42061817106499" lon="11.737548345837222" id="-89249">
		<tag k="name" v="Nygårdsveien" />
		<tag k="ssr:date" v="2019-05-30" />
		<tag k="ssr:gruppe" v="veg" />
		<tag k="ssr:hovedgruppe" v="infrastruktur" />
		<tag k="ssr:stedsnr" v="662148" />
		<tag k="ssr:type" v="adressenavn" />
	</node>
	<node lat="63.40378755636703" lon="11.741551104785863" id="-89250">
		<tag k="name" v="Tyholtveien" />
		<tag k="ssr:date" v="2019-05-30" />
		<tag k="ssr:gruppe" v="veg" />
		<tag k="ssr:hovedgruppe" v="infrastruktur" />
		<tag k="ssr:stedsnr" v="662288" />
		<tag k="ssr:type" v="adressenavn" />
	</node>
	<node lat="63.41040278802993" lon="11.747527873502905" id="-89251">
		<tag k="name" v="Tollmoveien" />
		<tag k="ssr:date" v="2019-05-30" />
		<tag k="ssr:gruppe" v="veg" />
		<tag k="ssr:hovedgruppe" v="infrastruktur" />
		<tag k="ssr:stedsnr" v="662292" />
		<tag k="ssr:type" v="adressenavn" />
	</node>
	<node lat="63.40098721974974" lon="11.806139348034778" id="-89252">
		<tag k="name" v="Øvergardsveien" />
		<tag k="ssr:date" v="2019-05-30" />
		<tag k="ssr:gruppe" v="veg" />
		<tag k="ssr:hovedgruppe" v="infrastruktur" />
		<tag k="ssr:stedsnr" v="662298" />
		<tag k="ssr:type" v="adressenavn" />
	</node>
	<node lat="63.44362413392269" lon="11.610446172693402" id="-89314">
		<tag k="name" v="Kvelvveien" />
		<tag k="ssr:date" v="2019-05-30" />
		<tag k="ssr:gruppe" v="veg" />
		<tag k="ssr:hovedgruppe" v="infrastruktur" />
		<tag k="ssr:stedsnr" v="722191" />
		<tag k="ssr:type" v="adressenavn" />
	</node>
	<node lat="63.44458547079206" lon="11.613544026338351" id="-89315">
		<tag k="name" v="Gudåveien" />
		<tag k="ssr:date" v="2019-05-30" />
		<tag k="ssr:gruppe" v="veg" />
		<tag k="ssr:hovedgruppe" v="infrastruktur" />
		<tag k="ssr:stedsnr" v="722192" />
		<tag k="ssr:type" v="adressenavn" />
	</node>
	<node lat="63.420925159927826" lon="11.755229615532034" id="-89316">
		<tag k="name" v="Østigardsveien" />
		<tag k="ssr:date" v="2019-05-30" />
		<tag k="ssr:gruppe" v="veg" />
		<tag k="ssr:hovedgruppe" v="infrastruktur" />
		<tag k="ssr:stedsnr" v="722320" />
		<tag k="ssr:type" v="adressenavn" />
	</node>
	<node lat="63.51961781563678" lon="11.817654000423069" id="-89358">
		<tag k="name" v="Finskebuktstien" />
		<tag k="ssr:date" v="2019-05-30" />
		<tag k="ssr:gruppe" v="veg" />
		<tag k="ssr:hovedgruppe" v="infrastruktur" />
		<tag k="ssr:stedsnr" v="770322" />
		<tag k="ssr:type" v="adressenavn" />
	</node>
	<node lat="63.478735178170886" lon="11.788947280391122" id="-89359">
		<tag k="name" v="Osvollveien" />
		<tag k="ssr:date" v="2019-05-30" />
		<tag k="ssr:gruppe" v="veg" />
		<tag k="ssr:hovedgruppe" v="infrastruktur" />
		<tag k="ssr:stedsnr" v="770323" />
		<tag k="ssr:type" v="adressenavn" />
	</node>
	<node lat="63.40664736438536" lon="11.737593535682242" id="-89389">
		<tag k="name" v="Lebakken" />
		<tag k="ssr:date" v="2019-05-30" />
		<tag k="ssr:gruppe" v="veg" />
		<tag k="ssr:hovedgruppe" v="infrastruktur" />
		<tag k="ssr:stedsnr" v="788614" />
		<tag k="ssr:type" v="adressenavn" />
	</node>
	<node lat="63.453634416417124" lon="11.70811377724735" id="-89399">
		<tag k="name" v="Kvithattveien" />
		<tag k="ssr:date" v="2019-05-30" />
		<tag k="ssr:gruppe" v="veg" />
		<tag k="ssr:hovedgruppe" v="infrastruktur" />
		<tag k="ssr:stedsnr" v="905161" />
		<tag k="ssr:type" v="adressenavn" />
	</node>
	<node lat="63.539487048500824" lon="11.883199753343051" id="-89411">
		<tag k="name" v="Langsåbakkveien" />
		<tag k="ssr:date" v="2019-05-30" />
		<tag k="ssr:gruppe" v="veg" />
		<tag k="ssr:hovedgruppe" v="infrastruktur" />
		<tag k="ssr:stedsnr" v="831331" />
		<tag k="ssr:type" v="adressenavn" />
	</node>
	<node lat="63.438162059425416" lon="11.702695719959118" id="-89412">
		<tag k="name" v="Aunveien" />
		<tag k="ssr:date" v="2019-05-30" />
		<tag k="ssr:gruppe" v="veg" />
		<tag k="ssr:hovedgruppe" v="infrastruktur" />
		<tag k="ssr:stedsnr" v="831337" />
		<tag k="ssr:type" v="adressenavn" />
	</node>
	<node lat="63.40443438098052" lon="11.72428151780314" id="-89423">
		<tag k="name" v="Myrhaugveien" />
		<tag k="ssr:date" v="2019-05-30" />
		<tag k="ssr:gruppe" v="veg" />
		<tag k="ssr:hovedgruppe" v="infrastruktur" />
		<tag k="ssr:stedsnr" v="844285" />
		<tag k="ssr:type" v="adressenavn" />
	</node>
	<node lat="63.34200540103058" lon="12.028953117522834" id="-89455">
		<tag k="name" v="Tevelliveien" />
		<tag k="ssr:date" v="2020-05-28" />
		<tag k="ssr:gruppe" v="veg" />
		<tag k="ssr:hovedgruppe" v="infrastruktur" />
		<tag k="ssr:stedsnr" v="892323" />
		<tag k="ssr:type" v="adressenavn" />
	</node>
	<node lat="63.421910990460304" lon="11.756344996596292" id="-89467">
		<tag k="name" v="Byengveien" />
		<tag k="ssr:date" v="2019-05-30" />
		<tag k="ssr:gruppe" v="veg" />
		<tag k="ssr:hovedgruppe" v="infrastruktur" />
		<tag k="ssr:stedsnr" v="905308" />
		<tag k="ssr:type" v="adressenavn" />
	</node>
	<node lat="63.39521502965867" lon="11.781367171615601" id="-89468">
		<tag k="name" v="Dalåmoveien" />
		<tag k="ssr:date" v="2019-05-30" />
		<tag k="ssr:gruppe" v="veg" />
		<tag k="ssr:hovedgruppe" v="infrastruktur" />
		<tag k="ssr:stedsnr" v="905302" />
		<tag k="ssr:type" v="adressenavn" />
	</node>
	<node lat="63.45744322681324" lon="11.748531863389129" id="-89501">
		<tag k="name" v="Storbekkveien" />
		<tag k="ssr:date" v="2019-05-30" />
		<tag k="ssr:gruppe" v="veg" />
		<tag k="ssr:hovedgruppe" v="infrastruktur" />
		<tag k="ssr:stedsnr" v="952353" />
		<tag k="ssr:type" v="adressenavn" />
	</node>
	<node lat="63.42195225811669" lon="11.760094929793372" id="-89502">
		<tag k="name" v="Fersdalsveien" />
		<tag k="ssr:date" v="2019-05-30" />
		<tag k="ssr:gruppe" v="veg" />
		<tag k="ssr:hovedgruppe" v="infrastruktur" />
		<tag k="ssr:stedsnr" v="952356" />
		<tag k="ssr:type" v="adressenavn" />
	</node>
	<node lat="63.41588109717277" lon="11.757212423598151" id="-89563">
		<tag k="name" v="Stortrøa" />
		<tag k="ssr:date" v="2019-05-30" />
		<tag k="ssr:gruppe" v="veg" />
		<tag k="ssr:hovedgruppe" v="infrastruktur" />
		<tag k="ssr:stedsnr" v="42330" />
		<tag k="ssr:type" v="adressenavn" />
	</node>
	<node lat="63.33279582872435" lon="12.037117961296786" id="-89564">
		<tag k="name" v="Markromveien" />
		<tag k="ssr:date" v="2019-05-30" />
		<tag k="ssr:gruppe" v="veg" />
		<tag k="ssr:hovedgruppe" v="infrastruktur" />
		<tag k="ssr:stedsnr" v="42331" />
		<tag k="ssr:type" v="adressenavn" />
	</node>
	<node lat="63.34754841558965" lon="12.011806699826895" id="-89565">
		<tag k="name" v="Skurdalsvollveien" />
		<tag k="ssr:date" v="2019-05-30" />
		<tag k="ssr:gruppe" v="veg" />
		<tag k="ssr:hovedgruppe" v="infrastruktur" />
		<tag k="ssr:stedsnr" v="42334" />
		<tag k="ssr:type" v="adressenavn" />
	</node>
	<node lat="63.53747858780793" lon="11.865593103057389" id="-89566">
		<tag k="name" v="Mårråkvollveien" />
		<tag k="ssr:date" v="2019-05-30" />
		<tag k="ssr:gruppe" v="veg" />
		<tag k="ssr:hovedgruppe" v="infrastruktur" />
		<tag k="ssr:stedsnr" v="42340" />
		<tag k="ssr:type" v="adressenavn" />
	</node>
	<node lat="63.37633490112287" lon="11.707153462185948" id="-89590">
		<tag k="name" v="Torsbjørkveien" />
		<tag k="ssr:date" v="2019-05-30" />
		<tag k="ssr:gruppe" v="veg" />
		<tag k="ssr:hovedgruppe" v="infrastruktur" />
		<tag k="ssr:stedsnr" v="55157" />
		<tag k="ssr:type" v="adressenavn" />
	</node>
	<node lat="63.4199999126258" lon="11.7538516330331" id="-89591">
		<tag k="name" v="Tømmermoen" />
		<tag k="ssr:date" v="2019-05-30" />
		<tag k="ssr:gruppe" v="veg" />
		<tag k="ssr:hovedgruppe" v="infrastruktur" />
		<tag k="ssr:stedsnr" v="55294" />
		<tag k="ssr:type" v="adressenavn" />
	</node>
	<node lat="63.333769900874884" lon="12.04440655855468" id="-89658">
		<tag k="name" v="Steinfjellgrenda" />
		<tag k="ssr:date" v="2019-05-30" />
		<tag k="ssr:gruppe" v="veg" />
		<tag k="ssr:hovedgruppe" v="infrastruktur" />
		<tag k="ssr:stedsnr" v="103340" />
		<tag k="ssr:type" v="adressenavn" />
	</node>
	<node lat="63.534943940295506" lon="11.841479984298143" id="-89659">
		<tag k="name" v="Spakvikstien" />
		<tag k="ssr:date" v="2019-05-30" />
		<tag k="ssr:gruppe" v="veg" />
		<tag k="ssr:hovedgruppe" v="infrastruktur" />
		<tag k="ssr:stedsnr" v="103345" />
		<tag k="ssr:type" v="adressenavn" />
	</node>
	<node lat="63.452078300511104" lon="11.706219340667358" id="-89684">
		<tag k="name" v="Myrullveien" />
		<tag k="ssr:date" v="2019-05-30" />
		<tag k="ssr:gruppe" v="veg" />
		<tag k="ssr:hovedgruppe" v="infrastruktur" />
		<tag k="ssr:stedsnr" v="116148" />
		<tag k="ssr:type" v="adressenavn" />
	</node>
	<node lat="63.41870987589351" lon="11.74974265071828" id="-89685">
		<tag k="name" v="Svedalen" />
		<tag k="ssr:date" v="2019-05-30" />
		<tag k="ssr:gruppe" v="veg" />
		<tag k="ssr:hovedgruppe" v="infrastruktur" />
		<tag k="ssr:stedsnr" v="116296" />
		<tag k="ssr:type" v="adressenavn" />
	</node>
	<node lat="63.340695242617336" lon="12.038487583932097" id="-89744">
		<tag k="name" v="Litjliveien" />
		<tag k="ssr:date" v="2019-05-30" />
		<tag k="ssr:gruppe" v="veg" />
		<tag k="ssr:hovedgruppe" v="infrastruktur" />
		<tag k="ssr:stedsnr" v="163309" />
		<tag k="ssr:type" v="adressenavn" />
	</node>
	<node lat="63.39137980530377" lon="11.844999061184788" id="-89745">
		<tag k="name" v="Myra" />
		<tag k="ssr:date" v="2019-05-30" />
		<tag k="ssr:gruppe" v="veg" />
		<tag k="ssr:hovedgruppe" v="infrastruktur" />
		<tag k="ssr:stedsnr" v="163324" />
		<tag k="ssr:type" v="adressenavn" />
	</node>
	<node lat="63.35573083588346" lon="11.990586805408778" id="-89746">
		<tag k="name" v="Mellomriksveien" />
		<tag k="ssr:date" v="2019-05-30" />
		<tag k="ssr:gruppe" v="veg" />
		<tag k="ssr:hovedgruppe" v="infrastruktur" />
		<tag k="ssr:stedsnr" v="163325" />
		<tag k="ssr:type" v="adressenavn" />
	</node>
	<node lat="63.42813000181832" lon="11.729761287859533" id="-89767">
		<tag k="name" v="Sjulhaugveien" />
		<tag k="ssr:date" v="2019-05-30" />
		<tag k="ssr:gruppe" v="veg" />
		<tag k="ssr:hovedgruppe" v="infrastruktur" />
		<tag k="ssr:stedsnr" v="176174" />
		<tag k="ssr:type" v="adressenavn" />
	</node>
	<node lat="63.42920399628333" lon="11.727749009045347" id="-89768">
		<tag k="name" v="Trøbakkveien" />
		<tag k="ssr:date" v="2019-05-30" />
		<tag k="ssr:gruppe" v="veg" />
		<tag k="ssr:hovedgruppe" v="infrastruktur" />
		<tag k="ssr:stedsnr" v="176176" />
		<tag k="ssr:type" v="adressenavn" />
	</node>
	<node lat="63.43899623616514" lon="11.704341061681625" id="-89769">
		<tag k="name" v="Klokkhaugveien" />
		<tag k="ssr:date" v="2019-05-30" />
		<tag k="ssr:gruppe" v="veg" />
		<tag k="ssr:hovedgruppe" v="infrastruktur" />
		<tag k="ssr:stedsnr" v="176179" />
		<tag k="ssr:type" v="adressenavn" />
	</node>
	<node lat="63.44138625094338" lon="11.656955976151352" id="-89770">
		<tag k="name" v="Øyveien" />
		<tag k="ssr:date" v="2019-05-30" />
		<tag k="ssr:gruppe" v="veg" />
		<tag k="ssr:hovedgruppe" v="infrastruktur" />
		<tag k="ssr:stedsnr" v="176184" />
		<tag k="ssr:type" v="adressenavn" />
	</node>
	<node lat="63.342050377451315" lon="12.033416404612295" id="-89864">
		<tag k="name" v="Kvernhusveien" />
		<tag k="ssr:date" v="2019-05-30" />
		<tag k="ssr:gruppe" v="veg" />
		<tag k="ssr:hovedgruppe" v="infrastruktur" />
		<tag k="ssr:stedsnr" v="285332" />
		<tag k="ssr:type" v="adressenavn" />
	</node>
	<node lat="63.45888675977859" lon="11.706833343249151" id="-89889">
		<tag k="name" v="Langmyrveien" />
		<tag k="ssr:date" v="2019-05-30" />
		<tag k="ssr:gruppe" v="veg" />
		<tag k="ssr:hovedgruppe" v="infrastruktur" />
		<tag k="ssr:stedsnr" v="298161" />
		<tag k="ssr:type" v="adressenavn" />
	</node>
	<node lat="63.39263280750898" lon="11.847550978720186" id="-89948">
		<tag k="name" v="Thuneveien" />
		<tag k="ssr:date" v="2019-05-30" />
		<tag k="ssr:gruppe" v="veg" />
		<tag k="ssr:hovedgruppe" v="infrastruktur" />
		<tag k="ssr:stedsnr" v="345335" />
		<tag k="ssr:type" v="adressenavn" />
	</node>
	<node lat="63.45286624018908" lon="11.703319187044407" id="-89963">
		<tag k="name" v="Slåttmyrveien" />
		<tag k="ssr:date" v="2019-05-30" />
		<tag k="ssr:gruppe" v="veg" />
		<tag k="ssr:hovedgruppe" v="infrastruktur" />
		<tag k="ssr:stedsnr" v="358160" />
		<tag k="ssr:type" v="adressenavn" />
	</node>
	<node lat="63.34188097410999" lon="11.759944746063457" id="-89964">
		<tag k="name" v="Fossvatnveien" />
		<tag k="ssr:date" v="2019-05-30" />
		<tag k="ssr:gruppe" v="veg" />
		<tag k="ssr:hovedgruppe" v="infrastruktur" />
		<tag k="ssr:stedsnr" v="358289" />
		<tag k="ssr:type" v="adressenavn" />
	</node>
	<node lat="63.41284449680479" lon="11.735433614383282" id="-89965">
		<tag k="name" v="Skolgata" />
		<tag k="ssr:date" v="2019-05-30" />
		<tag k="ssr:gruppe" v="veg" />
		<tag k="ssr:hovedgruppe" v="infrastruktur" />
		<tag k="ssr:stedsnr" v="358151" />
		<tag k="ssr:type" v="adressenavn" />
	</node>
	<node lat="63.32036110829778" lon="11.813313887298568" id="-89999">
		<tag k="name" v="Ståløystykket" />
		<tag k="ssr:date" v="2021-06-08" />
		<tag k="ssr:gruppe" v="veg" />
		<tag k="ssr:hovedgruppe" v="infrastruktur" />
		<tag k="ssr:stedsnr" v="386130" />
		<tag k="ssr:type" v="vegstrekning" />
	</node>
	<node lat="63.4141726264158" lon="11.75483490217416" id="-90022">
		<tag k="name" v="Pyntveien" />
		<tag k="ssr:date" v="2019-05-30" />
		<tag k="ssr:gruppe" v="veg" />
		<tag k="ssr:hovedgruppe" v="infrastruktur" />
		<tag k="ssr:stedsnr" v="406349" />
		<tag k="ssr:type" v="adressenavn" />
	</node>
	<node lat="63.405303671385646" lon="11.763296564664552" id="-90140">
		<tag k="name" v="Brennbakkan" />
		<tag k="ssr:date" v="2019-05-30" />
		<tag k="ssr:gruppe" v="veg" />
		<tag k="ssr:hovedgruppe" v="infrastruktur" />
		<tag k="ssr:stedsnr" v="540301" />
		<tag k="ssr:type" v="adressenavn" />
	</node>
	<node lat="63.42642830622259" lon="11.769452785889904" id="-90187">
		<tag k="name" v="Kvernmoveien" />
		<tag k="ssr:date" v="2019-05-30" />
		<tag k="ssr:gruppe" v="veg" />
		<tag k="ssr:hovedgruppe" v="infrastruktur" />
		<tag k="ssr:stedsnr" v="588330" />
		<tag k="ssr:type" v="adressenavn" />
	</node>
	<node lat="63.39452833188325" lon="11.839293727349425" id="-90188">
		<tag k="name" v="Fjellheimveien" />
		<tag k="ssr:date" v="2019-05-30" />
		<tag k="ssr:gruppe" v="veg" />
		<tag k="ssr:hovedgruppe" v="infrastruktur" />
		<tag k="ssr:stedsnr" v="588340" />
		<tag k="ssr:type" v="adressenavn" />
	</node>
	<node lat="63.434255551402195" lon="11.90577498983528" id="-90189">
		<tag k="name" v="Vikvollstien" />
		<tag k="ssr:date" v="2019-05-30" />
		<tag k="ssr:gruppe" v="veg" />
		<tag k="ssr:hovedgruppe" v="infrastruktur" />
		<tag k="ssr:stedsnr" v="588341" />
		<tag k="ssr:type" v="adressenavn" />
	</node>
	<node lat="63.3617120329054" lon="11.971307541404563" id="-90269">
		<tag k="name" v="Ivarsmyrveien" />
		<tag k="ssr:date" v="2019-05-30" />
		<tag k="ssr:gruppe" v="veg" />
		<tag k="ssr:hovedgruppe" v="infrastruktur" />
		<tag k="ssr:stedsnr" v="648363" />
		<tag k="ssr:type" v="adressenavn" />
	</node>
	<node lat="63.55780426163502" lon="11.94943809346446" id="-90270">
		<tag k="name" v="Åbakkveien" />
		<tag k="ssr:date" v="2019-05-30" />
		<tag k="ssr:gruppe" v="veg" />
		<tag k="ssr:hovedgruppe" v="infrastruktur" />
		<tag k="ssr:stedsnr" v="648371" />
		<tag k="ssr:type" v="adressenavn" />
	</node>
	<node lat="63.40132101985052" lon="11.868566009972314" id="-90271">
		<tag k="name" v="Bjørkslættveien" />
		<tag k="ssr:date" v="2019-05-30" />
		<tag k="ssr:gruppe" v="veg" />
		<tag k="ssr:hovedgruppe" v="infrastruktur" />
		<tag k="ssr:stedsnr" v="648376" />
		<tag k="ssr:type" v="adressenavn" />
	</node>
	<node lat="63.39254466330186" lon="11.849950586701965" id="-90272">
		<tag k="name" v="Fjergenveien" />
		<tag k="ssr:date" v="2019-05-30" />
		<tag k="ssr:gruppe" v="veg" />
		<tag k="ssr:hovedgruppe" v="infrastruktur" />
		<tag k="ssr:stedsnr" v="648378" />
		<tag k="ssr:type" v="adressenavn" />
	</node>
	<node lat="63.39931907094163" lon="11.834413665858287" id="-90291">
		<tag k="name" v="Knottmyra" />
		<tag k="ssr:date" v="2019-05-30" />
		<tag k="ssr:gruppe" v="veg" />
		<tag k="ssr:hovedgruppe" v="infrastruktur" />
		<tag k="ssr:stedsnr" v="709359" />
		<tag k="ssr:type" v="adressenavn" />
	</node>
	<node lat="63.18742978346823" lon="11.77897442584614" id="-90292">
		<tag k="name" v="Skarpdalsveien" />
		<tag k="ssr:date" v="2019-05-30" />
		<tag k="ssr:gruppe" v="veg" />
		<tag k="ssr:hovedgruppe" v="infrastruktur" />
		<tag k="ssr:stedsnr" v="709362" />
		<tag k="ssr:type" v="adressenavn" />
	</node>
	<node lat="63.42064019548601" lon="11.744750422631098" id="-90311">
		<tag k="name" v="Høefeltet" />
		<tag k="ssr:date" v="2019-05-30" />
		<tag k="ssr:gruppe" v="veg" />
		<tag k="ssr:hovedgruppe" v="infrastruktur" />
		<tag k="ssr:stedsnr" v="722175" />
		<tag k="ssr:type" v="adressenavn" />
	</node>
	<node lat="63.45877840282728" lon="11.706680775493764" id="-90312">
		<tag k="name" v="Starrmyrveien" />
		<tag k="ssr:date" v="2019-05-30" />
		<tag k="ssr:gruppe" v="veg" />
		<tag k="ssr:hovedgruppe" v="infrastruktur" />
		<tag k="ssr:stedsnr" v="722184" />
		<tag k="ssr:type" v="adressenavn" />
	</node>
	<node lat="63.393889381480115" lon="11.802315867407692" id="-90313">
		<tag k="name" v="Mofloveien" />
		<tag k="ssr:date" v="2019-05-30" />
		<tag k="ssr:gruppe" v="veg" />
		<tag k="ssr:hovedgruppe" v="infrastruktur" />
		<tag k="ssr:stedsnr" v="727644" />
		<tag k="ssr:type" v="adressenavn" />
	</node>
	<node lat="63.41899121007464" lon="11.739284877089263" id="-90475">
		<tag k="name" v="Gimleveien" />
		<tag k="ssr:date" v="2019-05-30" />
		<tag k="ssr:gruppe" v="veg" />
		<tag k="ssr:hovedgruppe" v="infrastruktur" />
		<tag k="ssr:stedsnr" v="844156" />
		<tag k="ssr:type" v="adressenavn" />
	</node>
	<node lat="63.413388358399736" lon="11.737815867993302" id="-90476">
		<tag k="name" v="Sørsidveien" />
		<tag k="ssr:date" v="2019-05-30" />
		<tag k="ssr:gruppe" v="veg" />
		<tag k="ssr:hovedgruppe" v="infrastruktur" />
		<tag k="ssr:stedsnr" v="844157" />
		<tag k="ssr:type" v="adressenavn" />
	</node>
	<node lat="63.41993334564841" lon="11.736721622176484" id="-90477">
		<tag k="name" v="Mårråkveien" />
		<tag k="ssr:date" v="2019-05-30" />
		<tag k="ssr:gruppe" v="veg" />
		<tag k="ssr:hovedgruppe" v="infrastruktur" />
		<tag k="ssr:stedsnr" v="844158" />
		<tag k="ssr:type" v="adressenavn" />
	</node>
	<node lat="63.37061666625379" lon="11.81739722568651" id="-90559">
		<tag k="name" v="Hestveien" />
		<tag k="ssr:date" v="2021-06-08" />
		<tag k="ssr:gruppe" v="veg" />
		<tag k="ssr:hovedgruppe" v="infrastruktur" />
		<tag k="ssr:stedsnr" v="932175" />
		<tag k="ssr:type" v="vegstrekning" />
	</node>
	<node lat="63.34693022127765" lon="11.66559118816142" id="-90601">
		<tag k="name" v="Sagveien" />
		<tag k="ssr:date" v="2019-05-30" />
		<tag k="ssr:gruppe" v="veg" />
		<tag k="ssr:hovedgruppe" v="infrastruktur" />
		<tag k="ssr:stedsnr" v="965324" />
		<tag k="ssr:type" v="adressenavn" />
	</node>
	<node lat="63.41351807300709" lon="11.750614635117604" id="-90602">
		<tag k="name" v="Trøa" />
		<tag k="ssr:date" v="2019-05-30" />
		<tag k="ssr:gruppe" v="veg" />
		<tag k="ssr:hovedgruppe" v="infrastruktur" />
		<tag k="ssr:stedsnr" v="965330" />
		<tag k="ssr:type" v="adressenavn" />
	</node>
	<node lat="63.388875809824505" lon="11.791026006779735" id="-90603">
		<tag k="name" v="Jonsveien" />
		<tag k="ssr:date" v="2019-05-30" />
		<tag k="ssr:gruppe" v="veg" />
		<tag k="ssr:hovedgruppe" v="infrastruktur" />
		<tag k="ssr:stedsnr" v="965333" />
		<tag k="ssr:type" v="adressenavn" />
	</node>
	<node lat="63.44396991785671" lon="11.640712154596219" id="-90605">
		<tag k="name" v="Tunelhaugen" />
		<tag k="ssr:date" v="2018-01-09" />
		<tag k="ssr:gruppe" v="veg" />
		<tag k="ssr:hovedgruppe" v="infrastruktur" />
		<tag k="ssr:stedsnr" v="979918" />
		<tag k="ssr:type" v="adressetilleggsnavn" />
	</node>
	<node lat="63.440438655880065" lon="11.684685240136721" id="-90607">
		<tag k="name" v="Krogstadnes" />
		<tag k="ssr:date" v="2018-01-09" />
		<tag k="ssr:gruppe" v="veg" />
		<tag k="ssr:hovedgruppe" v="infrastruktur" />
		<tag k="ssr:stedsnr" v="980579" />
		<tag k="ssr:type" v="adressetilleggsnavn" />
	</node>
	<node lat="64.014446801577" lon="11.48188662926966" id="-90608">
		<tag k="name" v="Trøndelag fylke - Trööndelagen fylhke" />
		<tag k="name:no" v="Trøndelag fylke" />
		<tag k="name:sma" v="Trööndelagen fylhke" />
		<tag k="ssr:date" v="2021-06-08" />
		<tag k="ssr:gruppe" v="administrativeIndelinger" />
		<tag k="ssr:hovedgruppe" v="offentligAdministrasjon" />
		<tag k="ssr:stedsnr" v="980645" />
		<tag k="ssr:type" v="fylke" />
	</node>
	<node lat="63.27225152272921" lon="11.804925463026413" id="-90611">
		<tag k="name" v="Åsveien" />
		<tag k="ssr:date" v="2019-05-30" />
		<tag k="ssr:gruppe" v="veg" />
		<tag k="ssr:hovedgruppe" v="infrastruktur" />
		<tag k="ssr:stedsnr" v="1031653" />
		<tag k="ssr:type" v="adressenavn" />
	</node>
	<node lat="63.41303882784919" lon="11.754293864575278" id="-90614">
		<tag k="name" v="Pyntbakkan" />
		<tag k="ssr:date" v="2021-12-14" />
		<tag k="ssr:gruppe" v="veg" />
		<tag k="ssr:hovedgruppe" v="infrastruktur" />
		<tag k="ssr:stedsnr" v="1083223" />
		<tag k="ssr:type" v="adressenavn" />
	</node>
	<node lat="63.45813585420358" lon="11.703180296940893" id="-90615">
		<tag k="name" v="Stakkstongveien" />
		<tag k="ssr:date" v="2022-05-06" />
		<tag k="ssr:gruppe" v="veg" />
		<tag k="ssr:hovedgruppe" v="infrastruktur" />
		<tag k="ssr:stedsnr" v="1085110" />
		<tag k="ssr:type" v="adressenavn" />
	</node>
	<node lat="63.45547162595899" lon="11.706286550615687" id="-90616">
		<tag k="name" v="Bjørnsmyrbrottet" />
		<tag k="ssr:date" v="2022-05-25" />
		<tag k="ssr:gruppe" v="veg" />
		<tag k="ssr:hovedgruppe" v="infrastruktur" />
		<tag k="ssr:stedsnr" v="1085240" />
		<tag k="ssr:type" v="adressenavn" />
	</node>
	<node lat="63.508518367366264" lon="11.818748072875888" id="-90617">
		<tag k="name" v="Pålsvika" />
		<tag k="ssr:date" v="2022-05-25" />
		<tag k="ssr:gruppe" v="veg" />
		<tag k="ssr:hovedgruppe" v="infrastruktur" />
		<tag k="ssr:stedsnr" v="1085241" />
		<tag k="ssr:type" v="adressenavn" />
	</node>
	<node lat="63.53467256754157" lon="11.843427221525735" id="-90618">
		<tag k="name" v="Lomtjønnfloen" />
		<tag k="ssr:date" v="2022-05-25" />
		<tag k="ssr:gruppe" v="veg" />
		<tag k="ssr:hovedgruppe" v="infrastruktur" />
		<tag k="ssr:stedsnr" v="1085242" />
		<tag k="ssr:type" v="adressenavn" />
	</node>
	<node lat="63.45136576942852" lon="11.694485114131922" id="-90619">
		<tag k="name" v="Litjsetervollveien" />
		<tag k="ssr:date" v="2022-05-25" />
		<tag k="ssr:gruppe" v="veg" />
		<tag k="ssr:hovedgruppe" v="infrastruktur" />
		<tag k="ssr:stedsnr" v="1085243" />
		<tag k="ssr:type" v="adressenavn" />
	</node>
	<node lat="63.45115769351297" lon="11.70351120336484" id="-90620">
		<tag k="name" v="Storbrenna" />
		<tag k="ssr:date" v="2022-05-25" />
		<tag k="ssr:gruppe" v="veg" />
		<tag k="ssr:hovedgruppe" v="infrastruktur" />
		<tag k="ssr:stedsnr" v="1085244" />
		<tag k="ssr:type" v="adressenavn" />
	</node>
	<node lat="63.44932161707716" lon="11.705432667159396" id="-90621">
		<tag k="name" v="Nedre Steinbrottveien" />
		<tag k="ssr:date" v="2022-05-25" />
		<tag k="ssr:gruppe" v="veg" />
		<tag k="ssr:hovedgruppe" v="infrastruktur" />
		<tag k="ssr:stedsnr" v="1085245" />
		<tag k="ssr:type" v="adressenavn" />
	</node>
	<node lat="63.44981078974007" lon="11.70506753464298" id="-90622">
		<tag k="name" v="Øvre Steinbrottveien" />
		<tag k="ssr:date" v="2022-05-25" />
		<tag k="ssr:gruppe" v="veg" />
		<tag k="ssr:hovedgruppe" v="infrastruktur" />
		<tag k="ssr:stedsnr" v="1085246" />
		<tag k="ssr:type" v="adressenavn" />
	</node>
	<node lat="63.45368049368737" lon="11.700510419370836" id="-90623">
		<tag k="name" v="Bjørgbekkveien" />
		<tag k="ssr:date" v="2022-05-25" />
		<tag k="ssr:gruppe" v="veg" />
		<tag k="ssr:hovedgruppe" v="infrastruktur" />
		<tag k="ssr:stedsnr" v="1085247" />
		<tag k="ssr:type" v="adressenavn" />
	</node>
	<node lat="63.335358832836434" lon="12.032143892418247" id="-90624">
		<tag k="name" v="Feskhusveien" />
		<tag k="ssr:date" v="2022-05-25" />
		<tag k="ssr:gruppe" v="veg" />
		<tag k="ssr:hovedgruppe" v="infrastruktur" />
		<tag k="ssr:stedsnr" v="1085248" />
		<tag k="ssr:type" v="adressenavn" />
	</node>
	<node lat="63.333855247208795" lon="12.041963287039716" id="-90625">
		<tag k="name" v="Dragdokkveien" />
		<tag k="ssr:date" v="2022-06-16" />
		<tag k="ssr:gruppe" v="veg" />
		<tag k="ssr:hovedgruppe" v="infrastruktur" />
		<tag k="ssr:stedsnr" v="1085343" />
		<tag k="ssr:type" v="adressenavn" />
	</node>
	<node lat="63.33466531613252" lon="12.04154918941698" id="-90626">
		<tag k="name" v="Grensdalsveien" />
		<tag k="ssr:date" v="2022-06-16" />
		<tag k="ssr:gruppe" v="veg" />
		<tag k="ssr:hovedgruppe" v="infrastruktur" />
		<tag k="ssr:stedsnr" v="1085344" />
		<tag k="ssr:type" v="adressenavn" />
	</node>
</osm>
