<?xml version="1.0" encoding="UTF-8"?>
<osm version="0.6" generator="osmapis">
	<node lat="59.13827500295842" lon="7.473333331150774" id="-27418">
		<tag k="alt_name" v="Maurland" />
		<tag k="historic" v="shieling" />
		<tag k="name" v="Maureland" />
		<tag k="place" v="isolated_dwelling" />
		<tag k="ssr:stedsnr" v="1581" />
	</node>
	<node lat="59.151030555617524" lon="7.575005557083219" id="-27421">
		<tag k="historic" v="shieling" />
		<tag k="name" v="Mærstøyl" />
		<tag k="place" v="isolated_dwelling" />
		<tag k="ssr:stedsnr" v="1597" />
	</node>
	<node lat="59.08975000269879" lon="7.54291665973579" id="-27422">
		<tag k="name" v="Torvet" />
		<tag k="place" v="farm" />
		<tag k="ssr:stedsnr" v="1742" />
	</node>
	<node lat="59.24775833758566" lon="7.557399997420857" id="-27423">
		<tag k="alt_name" v="Istadsstøylen" />
		<tag k="historic" v="shieling" />
		<tag k="name" v="Istadstøylen" />
		<tag k="place" v="isolated_dwelling" />
		<tag k="ssr:stedsnr" v="1941" />
	</node>
	<node lat="59.07373889097984" lon="7.315333328344606" id="-27430">
		<tag k="alt_name" v="Tjørnestøylen" />
		<tag k="name" v="Tjørnestøyl" />
		<tag k="place" v="isolated_dwelling" />
		<tag k="ssr:stedsnr" v="1879" />
	</node>
	<node lat="59.180705552377134" lon="7.457627774528663" id="-27434">
		<tag k="alt_name" v="Holtet" />
		<tag k="historic" v="shieling" />
		<tag k="name" v="Holtestøyl" />
		<tag k="place" v="isolated_dwelling" />
		<tag k="ssr:stedsnr" v="2529" />
	</node>
	<node lat="59.316566669657924" lon="7.484158329450455" id="-27465">
		<tag k="historic" v="shieling" />
		<tag k="name" v="Øybø" />
		<tag k="place" v="isolated_dwelling" />
		<tag k="ssr:stedsnr" v="22191" />
	</node>
	<node lat="59.348038889766734" lon="7.530483334301058" id="-27469">
		<tag k="historic" v="shieling" />
		<tag k="name" v="Kleiv" />
		<tag k="place" v="isolated_dwelling" />
		<tag k="ssr:stedsnr" v="22795" />
	</node>
	<node lat="59.05632222217055" lon="7.431308329227083" id="-27492">
		<tag k="historic" v="shieling" />
		<tag k="name" v="Øvre Øydeskarsstøylen" />
		<tag k="place" v="isolated_dwelling" />
		<tag k="ssr:stedsnr" v="23496" />
	</node>
	<node lat="59.15383333739351" lon="7.512841668294175" id="-27498">
		<tag k="name" v="Bjørneskar" />
		<tag k="place" v="isolated_dwelling" />
		<tag k="ssr:stedsnr" v="23631" />
	</node>
	<node lat="59.15680833209154" lon="7.4952361055676455" id="-27500">
		<tag k="alt_name" v="Støylsemnet" />
		<tag k="historic" v="shieling" />
		<tag k="name" v="Støylsemne" />
		<tag k="place" v="isolated_dwelling" />
		<tag k="ssr:stedsnr" v="23633" />
	</node>
	<node lat="59.115894444959316" lon="7.5193722276722506" id="-27510">
		<tag k="name" v="Krokan" />
		<tag k="place" v="farm" />
		<tag k="ssr:stedsnr" v="23801" />
	</node>
	<node lat="59.10644166697131" lon="7.494988880701383" id="-27511">
		<tag k="name" v="Lunden" />
		<tag k="place" v="farm" />
		<tag k="ssr:stedsnr" v="23804" />
	</node>
	<node lat="59.11118055237447" lon="7.495052776229207" id="-27512">
		<tag k="name" v="Metveit" />
		<tag k="place" v="farm" />
		<tag k="ssr:stedsnr" v="23810" />
	</node>
	<node lat="59.19374166689193" lon="7.686380559346596" id="-27796">
		<tag k="historic" v="shieling" />
		<tag k="name" v="Bølet" />
		<tag k="place" v="isolated_dwelling" />
		<tag k="ssr:stedsnr" v="62502" />
	</node>
	<node lat="59.192888884464324" lon="7.5380222215610555" id="-27797">
		<tag k="fixme" v="consider place=hamlet" />
		<tag k="name" v="Tveiti" />
		<tag k="place" v="farm" />
		<tag k="ssr:stedsnr" v="62506" />
	</node>
	<node lat="59.14017500336728" lon="7.572816657984744" id="-27799">
		<tag k="alt_name" v="Jåmestøyl" />
		<tag k="name" v="Hjåmestøyl" />
		<tag k="place" v="isolated_dwelling" />
		<tag k="ssr:stedsnr" v="62566" />
	</node>
	<node lat="59.171574999201304" lon="7.565600008447862" id="-27806">
		<tag k="historic" v="shieling" />
		<tag k="name" v="Storestøyl" />
		<tag k="place" v="isolated_dwelling" />
		<tag k="ssr:stedsnr" v="62615" />
	</node>
	<node lat="59.0296861097206" lon="7.165255549044344" id="-27814">
		<tag k="fixme" v="consider tourism=alpine_hut or tourism=chalet" />
		<tag k="name" v="Håheller" />
		<tag k="old_name" v="Håhellerhytta;Håhelleren" />
		<tag k="ssr:stedsnr" v="62907" />
		<tag k="tourism" v="wilderness_hut" />
	</node>
	<node lat="59.27798260770838" lon="7.637247479776114" id="-27821">
		<tag k="alt_name" v="Heddestøl;Hellestøylen" />
		<tag k="historic" v="shieling" />
		<tag k="name" v="Hellestøyl" />
		<tag k="place" v="isolated_dwelling" />
		<tag k="ssr:stedsnr" v="63683" />
	</node>
	<node lat="59.34148055864962" lon="7.475961109915168" id="-27822">
		<tag k="historic" v="shieling" />
		<tag k="name" v="Skarkestøyl" />
		<tag k="old_name" v="Skarkestøl" />
		<tag k="place" v="isolated_dwelling" />
		<tag k="ssr:stedsnr" v="63569" />
	</node>
	<node lat="59.026624996990336" lon="7.561805563658968" id="-27828">
		<tag k="name" v="Røysland" />
		<tag k="place" v="isolated_dwelling" />
		<tag k="ssr:stedsnr" v="244274" />
	</node>
	<node lat="59.201191671052115" lon="7.403433337645151" id="-27833">
		<tag k="fixme" v="consider tourism=alpine_hut or tourism=chalet" />
		<tag k="name" v="Stavskarhytta" />
		<tag k="old_name" v="Stavskardhytta" />
		<tag k="ssr:stedsnr" v="244559" />
		<tag k="tourism" v="wilderness_hut" />
	</node>
	<node lat="59.205833334509286" lon="7.5399722138060135" id="-27836">
		<tag k="fixme" v="consider place=hamlet" />
		<tag k="name" v="Viki" />
		<tag k="place" v="farm" />
		<tag k="ssr:stedsnr" v="244573" />
	</node>
	<node lat="59.273788887166376" lon="7.392013893931069" id="-27838">
		<tag k="historic" v="shieling" />
		<tag k="name" v="Storestøyl" />
		<tag k="place" v="isolated_dwelling" />
		<tag k="ssr:stedsnr" v="82137" />
	</node>
	<node lat="59.243788887657985" lon="7.568036118361909" id="-27851">
		<tag k="alt_name" v="Skei (støylen)" />
		<tag k="historic" v="shieling" />
		<tag k="name" v="Skeidsstøylen" />
		<tag k="place" v="isolated_dwelling" />
		<tag k="ssr:stedsnr" v="244952" />
	</node>
	<node lat="59.23624999743431" lon="7.537902779434094" id="-27857">
		<tag k="name" v="Moen" />
		<tag k="place" v="farm" />
		<tag k="ssr:stedsnr" v="244963" />
	</node>
	<node lat="59.18134166832285" lon="7.555930560520278" id="-27865">
		<tag k="alt_name" v="Skagestøyl" />
		<tag k="historic" v="shieling" />
		<tag k="name" v="Skakestøyl" />
		<tag k="place" v="isolated_dwelling" />
		<tag k="ssr:stedsnr" v="83505" />
	</node>
	<node lat="59.14196944172469" lon="7.516544453157971" id="-27869">
		<tag k="name" v="Uppstad (øvre)" />
		<tag k="place" v="farm" />
		<tag k="ssr:stedsnr" v="83610" />
	</node>
	<node lat="59.241058332258326" lon="7.71338611908224" id="-27894">
		<tag k="historic" v="shieling" />
		<tag k="name" v="Grøneli" />
		<tag k="place" v="isolated_dwelling" />
		<tag k="ssr:stedsnr" v="84934" />
	</node>
	<node lat="59.32945000000467" lon="7.488430558934272" id="-27903">
		<tag k="historic" v="shieling" />
		<tag k="name" v="Slettestøyl" />
		<tag k="old_name" v="Slettestøl" />
		<tag k="place" v="isolated_dwelling" />
		<tag k="ssr:stedsnr" v="245509" />
	</node>
	<node lat="59.288723945295494" lon="7.645465052076623" id="-27913">
		<tag k="historic" v="shieling" />
		<tag k="name" v="Reinsstøyl" />
		<tag k="old_name" v="Reisstøl" />
		<tag k="place" v="isolated_dwelling" />
		<tag k="ssr:stedsnr" v="245685" />
	</node>
	<node lat="59.29528332893938" lon="7.4327916644846725" id="-27914">
		<tag k="alt_name" v="Slumsstøyl" />
		<tag k="historic" v="shieling" />
		<tag k="name" v="Slumsdalen" />
		<tag k="place" v="isolated_dwelling" />
		<tag k="ssr:stedsnr" v="245696" />
	</node>
	<node lat="59.21257500277948" lon="7.535591674019032" id="-28029">
		<tag k="fixme" v="consider place=hamlet" />
		<tag k="name" v="Valle" />
		<tag k="place" v="village" />
		<tag k="ssr:stedsnr" v="123563" />
	</node>
	<node lat="59.20556389122915" lon="7.520088885453645" id="-28031">
		<tag k="fixme" v="consider place=hamlet" />
		<tag k="name" v="Steinsland" />
		<tag k="place" v="farm" />
		<tag k="ssr:stedsnr" v="123573" />
	</node>
	<node lat="59.25135000279502" lon="7.480086117893783" id="-28035">
		<tag k="name" v="Åsen" />
		<tag k="place" v="farm" />
		<tag k="ssr:stedsnr" v="123704" />
	</node>
	<node lat="59.04872403565079" lon="7.341710927476922" id="-28042">
		<tag k="alt_name" v="Sandvasstøylen" />
		<tag k="historic" v="shieling" />
		<tag k="name" v="Sandvasstølen" />
		<tag k="place" v="isolated_dwelling" />
		<tag k="ssr:stedsnr" v="123910" />
	</node>
	<node lat="59.34312222437009" lon="7.48528055644335" id="-28056">
		<tag k="historic" v="shieling" />
		<tag k="name" v="Skarketjørnstøylen" />
		<tag k="place" v="isolated_dwelling" />
		<tag k="ssr:stedsnr" v="143781" />
	</node>
	<node lat="59.25278055714971" lon="7.492236116856996" id="-28057">
		<tag k="name" v="Feddufs" />
		<tag k="place" v="farm" />
		<tag k="ssr:stedsnr" v="143788" />
	</node>
	<node lat="59.113622226491685" lon="7.49571388708709" id="-28070">
		<tag k="name" v="Steinholti" />
		<tag k="place" v="farm" />
		<tag k="ssr:stedsnr" v="144776" />
	</node>
	<node lat="59.09102500249541" lon="7.7458388873354584" id="-28078">
		<tag k="historic" v="shieling" />
		<tag k="name" v="Stavesstøyl" />
		<tag k="place" v="isolated_dwelling" />
		<tag k="ssr:stedsnr" v="144606" />
	</node>
	<node lat="59.21963055941036" lon="7.544711105542435" id="-28180">
		<tag k="name" v="Lii" />
		<tag k="place" v="farm" />
		<tag k="ssr:stedsnr" v="183512" />
	</node>
	<node lat="59.13392778212878" lon="7.509950003407573" id="-28184">
		<tag k="name" v="Grindeskard" />
		<tag k="place" v="farm" />
		<tag k="ssr:stedsnr" v="183538" />
	</node>
	<node lat="59.06525000320915" lon="7.571930556771543" id="-28185">
		<tag k="name" v="Mo" />
		<tag k="place" v="farm" />
		<tag k="ssr:stedsnr" v="183716" />
	</node>
	<node lat="59.241211114729616" lon="7.097927769272299" id="-28188">
		<tag k="name" v="Trongehytta" />
		<tag k="place" v="isolated_dwelling" />
		<tag k="ssr:stedsnr" v="183795" />
	</node>
	<node lat="59.08802221885346" lon="7.761300004280874" id="-28190">
		<tag k="historic" v="shieling" />
		<tag k="name" v="Skrum" />
		<tag k="place" v="isolated_dwelling" />
		<tag k="ssr:stedsnr" v="184457" />
	</node>
	<node lat="59.19432777779792" lon="7.503558337992788" id="-28192">
		<tag k="name" v="Nordstog" />
		<tag k="place" v="farm" />
		<tag k="ssr:stedsnr" v="184513" />
	</node>
	<node lat="59.30681666741863" lon="7.45021111619776" id="-28195">
		<tag k="name" v="Kvæven" />
		<tag k="place" v="isolated_dwelling" />
		<tag k="ssr:stedsnr" v="184733" />
	</node>
	<node lat="59.09051111168556" lon="7.221191661299759" id="-28198">
		<tag k="name" v="Kverevasstøylen" />
		<tag k="place" v="isolated_dwelling" />
		<tag k="ssr:stedsnr" v="184913" />
	</node>
	<node lat="59.09874722355098" lon="7.540088884479476" id="-28199">
		<tag k="alt_name" v="Kåsland" />
		<tag k="name" v="Kosland" />
		<tag k="place" v="farm" />
		<tag k="ssr:stedsnr" v="184635" />
	</node>
	<node lat="59.29332777809854" lon="7.464011111554881" id="-28203">
		<tag k="historic" v="shieling" />
		<tag k="name" v="Gjuv" />
		<tag k="place" v="isolated_dwelling" />
		<tag k="ssr:stedsnr" v="184700" />
	</node>
	<node lat="59.24864166304502" lon="7.475613891247304" id="-28208">
		<tag k="name" v="Flaten" />
		<tag k="place" v="farm" />
		<tag k="ssr:stedsnr" v="264233" />
	</node>
	<node lat="59.264483333785954" lon="7.522394436271572" id="-28220">
		<tag k="historic" v="shieling" />
		<tag k="name" v="Blautemyr" />
		<tag k="place" v="isolated_dwelling" />
		<tag k="ssr:stedsnr" v="265870" />
	</node>
	<node lat="59.241825002942946" lon="7.467522227788595" id="-28224">
		<tag k="name" v="Jonsbakke" />
		<tag k="place" v="farm" />
		<tag k="ssr:stedsnr" v="265327" />
	</node>
	<node lat="59.1788416675329" lon="7.460849994077896" id="-28231">
		<tag k="historic" v="shieling" />
		<tag k="name" v="Lisleholt" />
		<tag k="place" v="isolated_dwelling" />
		<tag k="ssr:stedsnr" v="265363" />
	</node>
	<node lat="59.149836109543415" lon="7.578738895482187" id="-28245">
		<tag k="historic" v="shieling" />
		<tag k="name" v="Forstøyl" />
		<tag k="place" v="isolated_dwelling" />
		<tag k="ssr:stedsnr" v="265575" />
	</node>
	<node lat="59.226290658690395" lon="7.5492738767117" id="-28246">
		<tag k="name" v="Tosong" />
		<tag k="place" v="farm" />
		<tag k="ssr:stedsnr" v="265582" />
	</node>
	<node lat="59.05265555693737" lon="7.5627694453134096" id="-28250">
		<tag k="alt_name" v="Haugan" />
		<tag k="name" v="Hagen" />
		<tag k="place" v="farm" />
		<tag k="ssr:stedsnr" v="265823" />
	</node>
	<node lat="59.136200000722404" lon="7.620802772449298" id="-28253">
		<tag k="name" v="Eksvasshytta" />
		<tag k="place" v="isolated_dwelling" />
		<tag k="ssr:stedsnr" v="266717" />
	</node>
	<node lat="59.0537111076949" lon="7.648619440721728" id="-28266">
		<tag k="historic" v="shieling" />
		<tag k="name" v="Rjuvass-støylen" />
		<tag k="place" v="isolated_dwelling" />
		<tag k="ssr:stedsnr" v="266654" />
	</node>
	<node lat="59.20474166560912" lon="7.685913894431942" id="-28270">
		<tag k="historic" v="shieling" />
		<tag k="name" v="Mæstøyl" />
		<tag k="place" v="isolated_dwelling" />
		<tag k="ssr:stedsnr" v="266666" />
	</node>
	<node lat="59.25252777712342" lon="7.5508388966942555" id="-28279">
		<tag k="historic" v="shieling" />
		<tag k="name" v="Setan" />
		<tag k="place" v="isolated_dwelling" />
		<tag k="ssr:stedsnr" v="204856" />
	</node>
	<node lat="59.23751389090751" lon="7.470211115259294" id="-28280">
		<tag k="name" v="Systog" />
		<tag k="ssr:stedsnr" v="205342" />
		<tag k="tourism" v="guest_house" />
	</node>
	<node lat="59.159877773651104" lon="7.59218056283506" id="-28290">
		<tag k="alt_name" v="Rossevatnet" />
		<tag k="historic" v="shieling" />
		<tag k="name" v="Rossevatn" />
		<tag k="place" v="isolated_dwelling" />
		<tag k="ssr:stedsnr" v="205602" />
	</node>
	<node lat="59.232997222181616" lon="7.551177774002845" id="-28291">
		<tag k="name" v="Haugen" />
		<tag k="place" v="farm" />
		<tag k="ssr:stedsnr" v="205606" />
	</node>
	<node lat="59.23602478499633" lon="7.629483427207195" id="-28297">
		<tag k="name" v="Ufsebui" />
		<tag k="place" v="locality" />
		<tag k="ssr:stedsnr" v="205586" />
	</node>
	<node lat="59.1265333308997" lon="7.559483341343772" id="-28298">
		<tag k="alt_name" v="Nerihei" />
		<tag k="historic" v="shieling" />
		<tag k="name" v="Nedreheia" />
		<tag k="place" v="isolated_dwelling" />
		<tag k="ssr:stedsnr" v="205594" />
	</node>
	<node lat="59.15123333746698" lon="7.569108340799798" id="-28307">
		<tag k="alt_name" v="Horsemyr" />
		<tag k="historic" v="shieling" />
		<tag k="name" v="Hossemyra" />
		<tag k="place" v="isolated_dwelling" />
		<tag k="ssr:stedsnr" v="205636" />
	</node>
	<node lat="59.135883333016366" lon="7.5819333352784275" id="-28334">
		<tag k="name" v="Grasli" />
		<tag k="place" v="farm" />
		<tag k="ssr:stedsnr" v="233294" />
	</node>
	<node lat="59.06128055647827" lon="7.563908340218977" id="-28443">
		<tag k="fixme" v="consider place=hamlet" />
		<tag k="name" v="Helle" />
		<tag k="place" v="farm" />
		<tag k="ssr:stedsnr" v="244725" />
	</node>
	<node lat="59.09684999600348" lon="7.329027784358982" id="-28451">
		<tag k="alt_name" v="Rennevasstøylane" />
		<tag k="historic" v="shieling" />
		<tag k="name" v="Rennevasstøylan" />
		<tag k="place" v="isolated_dwelling" />
		<tag k="ssr:stedsnr" v="244930" />
	</node>
	<node lat="59.03773333081642" lon="7.2506361138288025" id="-28452">
		<tag k="name" v="Ivlungslega" />
		<tag k="place" v="isolated_dwelling" />
		<tag k="ssr:stedsnr" v="244977" />
	</node>
	<node lat="59.34687777784794" lon="7.524749992701608" id="-28462">
		<tag k="historic" v="shieling" />
		<tag k="name" v="Klomri" />
		<tag k="place" v="isolated_dwelling" />
		<tag k="ssr:stedsnr" v="264809" />
	</node>
	<node lat="59.03872500212621" lon="7.5554333251387495" id="-28470">
		<tag k="historic" v="shieling" />
		<tag k="name" v="Lislestøyl" />
		<tag k="place" v="isolated_dwelling" />
		<tag k="ssr:stedsnr" v="265417" />
	</node>
	<node lat="59.11528888604027" lon="7.495583341112663" id="-28490">
		<tag k="alt_name" v="Haugland" />
		<tag k="fixme" v="consider place=hamlet" />
		<tag k="name" v="Haugeland" />
		<tag k="place" v="farm" />
		<tag k="ssr:stedsnr" v="265815" />
	</node>
	<node lat="59.243536109374396" lon="7.583258326659147" id="-28493">
		<tag k="historic" v="shieling" />
		<tag k="name" v="Nyestøyl" />
		<tag k="place" v="isolated_dwelling" />
		<tag k="ssr:stedsnr" v="265600" />
	</node>
	<node lat="59.03433333532433" lon="7.519522218257304" id="-28499">
		<tag k="name" v="Hagebui" />
		<tag k="place" v="isolated_dwelling" />
		<tag k="ssr:stedsnr" v="265839" />
	</node>
	<node lat="59.11025833599235" lon="7.785449994630098" id="-28513">
		<tag k="name" v="Øvrekil" />
		<tag k="place" v="isolated_dwelling" />
		<tag k="ssr:stedsnr" v="270077" />
	</node>
	<node lat="59.211438885851024" lon="7.532866663134886" id="-28608">
		<tag k="alt_name" v="Kjelleberg" />
		<tag k="fixme" v="consider place=hamlet" />
		<tag k="name" v="Kjeldeberg" />
		<tag k="place" v="farm" />
		<tag k="ssr:stedsnr" v="305602" />
	</node>
	<node lat="59.17493611114849" lon="7.523180561554731" id="-28610">
		<tag k="name" v="Knutshus" />
		<tag k="place" v="farm" />
		<tag k="ssr:stedsnr" v="305662" />
	</node>
	<node lat="59.257958332653445" lon="7.527027776948801" id="-28613">
		<tag k="historic" v="shieling" />
		<tag k="name" v="Skardet" />
		<tag k="place" v="isolated_dwelling" />
		<tag k="ssr:stedsnr" v="305678" />
	</node>
	<node lat="59.34596944232073" lon="7.571599994252156" id="-28631">
		<tag k="historic" v="shieling" />
		<tag k="name" v="Myrbu" />
		<tag k="place" v="isolated_dwelling" />
		<tag k="ssr:stedsnr" v="325673" />
	</node>
	<node lat="59.30226944630642" lon="7.4694500069839895" id="-28635">
		<tag k="name" v="Borkebu" />
		<tag k="place" v="isolated_dwelling" />
		<tag k="ssr:stedsnr" v="326187" />
	</node>
	<node lat="59.10058889182593" lon="7.387569447227484" id="-28643">
		<tag k="historic" v="shieling" />
		<tag k="name" v="Leite" />
		<tag k="place" v="isolated_dwelling" />
		<tag k="ssr:stedsnr" v="326509" />
	</node>
	<node lat="59.195330552465286" lon="7.581416662641397" id="-28646">
		<tag k="alt_name" v="Inglingestøyl" />
		<tag k="historic" v="shieling" />
		<tag k="name" v="Neire Ingling" />
		<tag k="place" v="isolated_dwelling" />
		<tag k="ssr:stedsnr" v="326564" />
	</node>
	<node lat="59.19151666652445" lon="7.578661104302449" id="-28648">
		<tag k="historic" v="shieling" />
		<tag k="name" v="Neire Løyning" />
		<tag k="place" v="isolated_dwelling" />
		<tag k="ssr:stedsnr" v="326569" />
	</node>
	<node lat="59.105572226532196" lon="7.484105557904323" id="-28663">
		<tag k="name" v="Håmåren" />
		<tag k="place" v="farm" />
		<tag k="ssr:stedsnr" v="326474" />
	</node>
	<node lat="59.09846666589481" lon="7.552605548106433" id="-28668">
		<tag k="historic" v="shieling" />
		<tag k="name" v="Stigemyra" />
		<tag k="place" v="isolated_dwelling" />
		<tag k="ssr:stedsnr" v="326760" />
	</node>
	<node lat="59.13040833724011" lon="7.6028555551097545" id="-28670">
		<tag k="historic" v="shieling" />
		<tag k="name" v="Bjørndalen" />
		<tag k="place" v="isolated_dwelling" />
		<tag k="ssr:stedsnr" v="326662" />
	</node>
	<node lat="59.032233333113886" lon="7.506769441818539" id="-28675">
		<tag k="historic" v="shieling" />
		<tag k="name" v="Løyning" />
		<tag k="place" v="isolated_dwelling" />
		<tag k="ssr:stedsnr" v="326826" />
	</node>
	<node lat="59.20950526881081" lon="7.52124799899835" id="-28888">
		<tag k="fixme" v="consider place=hamlet" />
		<tag k="name" v="Nomeland" />
		<tag k="place" v="farm" />
		<tag k="ssr:stedsnr" v="365546" />
	</node>
	<node lat="59.15612499774116" lon="7.327661103962277" id="-28892">
		<tag k="alt_name" v="Auguntjørnstøylen" />
		<tag k="historic" v="shieling" />
		<tag k="name" v="Auguntjørnstølen" />
		<tag k="place" v="isolated_dwelling" />
		<tag k="ssr:stedsnr" v="365837" />
	</node>
	<node lat="59.15657500100852" lon="7.22799721358184" id="-28893">
		<tag k="name" v="Gjuvvasslega" />
		<tag k="place" v="isolated_dwelling" />
		<tag k="ssr:stedsnr" v="365842" />
	</node>
	<node lat="59.24915833646543" lon="7.288822230815372" id="-28898">
		<tag k="historic" v="shieling" />
		<tag k="name" v="Rjupestøyl" />
		<tag k="place" v="isolated_dwelling" />
		<tag k="ssr:stedsnr" v="365797" />
	</node>
	<node lat="59.24377499687599" lon="7.308097220236171" id="-28899">
		<tag k="historic" v="shieling" />
		<tag k="name" v="Øyan" />
		<tag k="place" v="isolated_dwelling" />
		<tag k="ssr:stedsnr" v="365801" />
	</node>
	<node lat="59.07290000451965" lon="7.263591666732707" id="-28900">
		<tag k="name" v="Brunestøylen" />
		<tag k="place" v="isolated_dwelling" />
		<tag k="ssr:stedsnr" v="365905" />
	</node>
	<node lat="59.26285833750357" lon="7.267008339913917" id="-28910">
		<tag k="historic" v="shieling" />
		<tag k="name" v="Voileskori" />
		<tag k="place" v="isolated_dwelling" />
		<tag k="ssr:stedsnr" v="366492" />
	</node>
	<node lat="59.254329016320426" lon="7.295306992932893" id="-28915">
		<tag k="historic" v="shieling" />
		<tag k="name" v="Nauteto" />
		<tag k="place" v="isolated_dwelling" />
		<tag k="ssr:stedsnr" v="366506" />
	</node>
	<node lat="59.312161109989084" lon="7.526880556264948" id="-28916">
		<tag k="historic" v="shieling" />
		<tag k="name" v="Nyestøyl" />
		<tag k="old_name" v="Nyestøl" />
		<tag k="place" v="isolated_dwelling" />
		<tag k="ssr:stedsnr" v="366529" />
	</node>
	<node lat="59.19217777407428" lon="7.583413881973798" id="-28917">
		<tag k="historic" v="shieling" />
		<tag k="name" v="Stavestøyl" />
		<tag k="place" v="isolated_dwelling" />
		<tag k="ssr:stedsnr" v="366533" />
	</node>
	<node lat="59.19298611336959" lon="7.571124991721743" id="-28918">
		<tag k="alt_name" v="Nyestøl" />
		<tag k="historic" v="shieling" />
		<tag k="name" v="Nyestøyl" />
		<tag k="place" v="isolated_dwelling" />
		<tag k="ssr:stedsnr" v="366536" />
	</node>
	<node lat="59.293351452633814" lon="7.457045323820206" id="-28920">
		<tag k="name" v="Skard" />
		<tag k="place" v="locality" />
		<tag k="ssr:stedsnr" v="366707" />
	</node>
	<node lat="59.27801110718374" lon="7.699677777327213" id="-28928">
		<tag k="historic" v="shieling" />
		<tag k="name" v="Nuten" />
		<tag k="place" v="isolated_dwelling" />
		<tag k="ssr:stedsnr" v="366689" />
	</node>
	<node lat="59.282874495737225" lon="7.677375543287143" id="-28930">
		<tag k="name" v="Skålbustøylen" />
		<tag k="old_name" v="Skålbustølen" />
		<tag k="place" v="locality" />
		<tag k="ssr:stedsnr" v="366697" />
	</node>
	<node lat="59.171605558618346" lon="7.485930550142847" id="-28980">
		<tag k="alt_name" v="Storli" />
		<tag k="historic" v="shieling" />
		<tag k="name" v="Storeli" />
		<tag k="place" v="isolated_dwelling" />
		<tag k="ssr:stedsnr" v="386311" />
	</node>
	<node lat="59.136683330880444" lon="7.46689999716293" id="-28981">
		<tag k="historic" v="shieling" />
		<tag k="name" v="Grjostøyl" />
		<tag k="place" v="isolated_dwelling" />
		<tag k="ssr:stedsnr" v="386354" />
	</node>
	<node lat="59.23137500261572" lon="7.548194445159327" id="-28989">
		<tag k="name" v="Støyla" />
		<tag k="place" v="farm" />
		<tag k="ssr:stedsnr" v="386555" />
	</node>
	<node lat="59.23651944765646" lon="7.541027779056462" id="-28996">
		<tag k="name" v="Sygard Homme" />
		<tag k="place" v="farm" />
		<tag k="ssr:stedsnr" v="386621" />
	</node>
	<node lat="59.31881944189583" lon="7.478377782524462" id="-29001">
		<tag k="building" v="civic" />
		<tag k="name" v="Brøytestasjonen" />
		<tag k="ssr:stedsnr" v="386759" />
	</node>
	<node lat="59.253355559840564" lon="7.544466663184152" id="-29008">
		<tag k="historic" v="shieling" />
		<tag k="name" v="Vasstøyl" />
		<tag k="old_name" v="Vasstøl" />
		<tag k="place" v="isolated_dwelling" />
		<tag k="ssr:stedsnr" v="386860" />
	</node>
	<node lat="59.07106389078861" lon="7.6371555486866916" id="-29010">
		<tag k="historic" v="shieling" />
		<tag k="name" v="Lislestøyl" />
		<tag k="place" v="isolated_dwelling" />
		<tag k="ssr:stedsnr" v="387412" />
	</node>
	<node lat="59.0322555547988" lon="7.460563881004636" id="-29013">
		<tag k="fixme" v="multiple name tags, choose one and add the other to alt_name" />
		<tag k="historic" v="shieling" />
		<tag k="name" v="Kultren;Kultra" />
		<tag k="place" v="isolated_dwelling" />
		<tag k="ssr:stedsnr" v="387505" />
	</node>
	<node lat="59.24818611167259" lon="7.691397224241248" id="-29017">
		<tag k="historic" v="shieling" />
		<tag k="name" v="Nyestøyl" />
		<tag k="place" v="isolated_dwelling" />
		<tag k="ssr:stedsnr" v="387543" />
	</node>
	<node lat="59.244933336596596" lon="7.629183338406621" id="-29019">
		<tag k="name" v="Osebuteigen" />
		<tag k="place" v="locality" />
		<tag k="ssr:stedsnr" v="387561" />
	</node>
	<node lat="59.0890083362976" lon="7.720188881341453" id="-29022">
		<tag k="historic" v="shieling" />
		<tag k="name" v="Lauvåsen" />
		<tag k="place" v="isolated_dwelling" />
		<tag k="ssr:stedsnr" v="387601" />
	</node>
	<node lat="59.14700555410382" lon="7.638758340186188" id="-29029">
		<tag k="alt_name" v="Hyllvasstøylen" />
		<tag k="historic" v="shieling" />
		<tag k="name" v="Hyllevasstøylen" />
		<tag k="place" v="isolated_dwelling" />
		<tag k="ssr:stedsnr" v="387642" />
	</node>
	<node lat="59.21662500195135" lon="7.550038880705927" id="-29031">
		<tag k="historic" v="shieling" />
		<tag k="name" v="Troendestøyl" />
		<tag k="place" v="isolated_dwelling" />
		<tag k="ssr:stedsnr" v="387657" />
	</node>
	<node lat="59.14090000401229" lon="7.568661116020661" id="-29039">
		<tag k="historic" v="shieling" />
		<tag k="name" v="Skogestøyl" />
		<tag k="place" v="isolated_dwelling" />
		<tag k="ssr:stedsnr" v="486573" />
	</node>
	<node lat="59.07239166421128" lon="7.377388886077371" id="-29045">
		<tag k="historic" v="shieling" />
		<tag k="name" v="Floti" />
		<tag k="place" v="isolated_dwelling" />
		<tag k="ssr:stedsnr" v="486739" />
	</node>
	<node lat="59.23525555334009" lon="7.547611111711706" id="-29046">
		<tag k="fixme" v="consider place=hamlet" />
		<tag k="name" v="Homme" />
		<tag k="place" v="village" />
		<tag k="ssr:stedsnr" v="486940" />
	</node>
	<node lat="59.24438888667109" lon="7.464580563358395" id="-29047">
		<tag k="name" v="Graver" />
		<tag k="place" v="farm" />
		<tag k="ssr:stedsnr" v="486947" />
	</node>
	<node lat="59.257211114903726" lon="7.311149998324036" id="-29052">
		<tag k="historic" v="shieling" />
		<tag k="name" v="Iglebu" />
		<tag k="place" v="isolated_dwelling" />
		<tag k="ssr:stedsnr" v="487517" />
	</node>
	<node lat="59.3102166646298" lon="7.586266664416149" id="-29067">
		<tag k="name" v="Osen" />
		<tag k="place" v="isolated_dwelling" />
		<tag k="ssr:stedsnr" v="487768" />
	</node>
	<node lat="59.19689444645463" lon="7.254249994532543" id="-29070">
		<tag k="historic" v="shieling" />
		<tag k="name" v="Nutestøylen" />
		<tag k="place" v="isolated_dwelling" />
		<tag k="ssr:stedsnr" v="487882" />
	</node>
	<node lat="59.20249722286832" lon="7.576558340708373" id="-29197">
		<tag k="alt_name" v="Gjeitekro" />
		<tag k="historic" v="shieling" />
		<tag k="name" v="Geitekro" />
		<tag k="place" v="isolated_dwelling" />
		<tag k="ssr:stedsnr" v="426498" />
	</node>
	<node lat="59.173008332993" lon="7.560272219576887" id="-29198">
		<tag k="historic" v="shieling" />
		<tag k="name" v="Solli" />
		<tag k="place" v="isolated_dwelling" />
		<tag k="ssr:stedsnr" v="426612" />
	</node>
	<node lat="59.19663333199467" lon="7.530158338646036" id="-29199">
		<tag k="fixme" v="consider place=hamlet" />
		<tag k="name" v="Harstad" />
		<tag k="place" v="farm" />
		<tag k="ssr:stedsnr" v="426503" />
	</node>
	<node lat="59.188127781211" lon="7.349622227480298" id="-29200">
		<tag k="historic" v="shieling" />
		<tag k="name" v="Svelingsstøylen" />
		<tag k="place" v="isolated_dwelling" />
		<tag k="ssr:stedsnr" v="426507" />
	</node>
	<node lat="59.22003611406225" lon="7.4076749960486055" id="-29204">
		<tag k="historic" v="shieling" />
		<tag k="name" v="Kroni" />
		<tag k="place" v="isolated_dwelling" />
		<tag k="ssr:stedsnr" v="426533" />
	</node>
	<node lat="59.04851789192111" lon="7.561323379351244" id="-29211">
		<tag k="name" v="Bergstad" />
		<tag k="place" v="farm" />
		<tag k="ssr:stedsnr" v="426701" />
	</node>
	<node lat="59.07743610838338" lon="7.322330563733857" id="-29214">
		<tag k="alt_name" v="Kjerringstølen" />
		<tag k="historic" v="shieling" />
		<tag k="loc_name" v="Kjerringstøylen" />
		<tag k="name" v="Kjerringstøyl" />
		<tag k="place" v="isolated_dwelling" />
		<tag k="ssr:stedsnr" v="426888" />
	</node>
	<node lat="59.18532221932205" lon="7.483563891915816" id="-29228">
		<tag k="historic" v="shieling" />
		<tag k="name" v="Anvor" />
		<tag k="place" v="isolated_dwelling" />
		<tag k="ssr:stedsnr" v="447299" />
	</node>
	<node lat="59.078563885016116" lon="7.407444451306376" id="-29229">
		<tag k="historic" v="shieling" />
		<tag k="name" v="Nyestøyl" />
		<tag k="place" v="isolated_dwelling" />
		<tag k="ssr:stedsnr" v="447409" />
	</node>
	<node lat="59.345572221413114" lon="7.567019447589698" id="-29239">
		<tag k="alt_name" v="Nystøyl" />
		<tag k="historic" v="shieling" />
		<tag k="name" v="Nyestøyl" />
		<tag k="old_name" v="Nystøl" />
		<tag k="place" v="isolated_dwelling" />
		<tag k="ssr:stedsnr" v="447673" />
	</node>
	<node lat="59.224461106819604" lon="7.715124992641244" id="-29258">
		<tag k="historic" v="shieling" />
		<tag k="name" v="Iveroet" />
		<tag k="place" v="isolated_dwelling" />
		<tag k="ssr:stedsnr" v="448927" />
	</node>
	<node lat="59.084797218432605" lon="7.545563897509463" id="-29259">
		<tag k="alt_name" v="Mone øvri" />
		<tag k="name" v="Øvri Mone" />
		<tag k="place" v="quarter" />
		<tag k="ssr:stedsnr" v="448999" />
	</node>
	<node lat="58.97154167028371" lon="7.260597220037825" id="-29380">
		<tag k="name" v="Vidalega" />
		<tag k="old_name" v="Vida lega" />
		<tag k="place" v="isolated_dwelling" />
		<tag k="ssr:stedsnr" v="486215" />
	</node>
	<node lat="59.17284166553424" lon="7.61021110753123" id="-29383">
		<tag k="historic" v="shieling" />
		<tag k="name" v="Vassland" />
		<tag k="place" v="isolated_dwelling" />
		<tag k="ssr:stedsnr" v="486625" />
	</node>
	<node lat="59.14226388489475" lon="7.516455550387637" id="-29385">
		<tag k="name" v="Plasset" />
		<tag k="place" v="farm" />
		<tag k="ssr:stedsnr" v="486588" />
	</node>
	<node lat="59.23918611201066" lon="7.687947217852788" id="-29390">
		<tag k="historic" v="shieling" />
		<tag k="name" v="Vikhei" />
		<tag k="place" v="isolated_dwelling" />
		<tag k="ssr:stedsnr" v="486974" />
	</node>
	<node lat="59.190777779522826" lon="7.502538892516237" id="-29393">
		<tag k="fixme" v="consider place=hamlet" />
		<tag k="name" v="Berg" />
		<tag k="place" v="farm" />
		<tag k="ssr:stedsnr" v="487551" />
	</node>
	<node lat="59.26167499699047" lon="7.473136113239101" id="-29396">
		<tag k="fixme" v="consider place=hamlet" />
		<tag k="name" v="Lunden" />
		<tag k="place" v="farm" />
		<tag k="ssr:stedsnr" v="487706" />
	</node>
	<node lat="59.26175833286582" lon="7.484047223629092" id="-29397">
		<tag k="name" v="Orholt" />
		<tag k="place" v="farm" />
		<tag k="ssr:stedsnr" v="487707" />
	</node>
	<node lat="59.11587777484253" lon="7.509561113923747" id="-29398">
		<tag k="fixme" v="consider place=hamlet" />
		<tag k="name" v="Nomeland" />
		<tag k="place" v="farm" />
		<tag k="ssr:stedsnr" v="487713" />
	</node>
	<node lat="59.13221388454313" lon="7.616647225082945" id="-29401">
		<tag k="name" v="Forstøyl" />
		<tag k="place" v="isolated_dwelling" />
		<tag k="ssr:stedsnr" v="487722" />
	</node>
	<node lat="59.043611114689604" lon="7.344144452685646" id="-29403">
		<tag k="historic" v="shieling" />
		<tag k="name" v="Fiti" />
		<tag k="place" v="isolated_dwelling" />
		<tag k="ssr:stedsnr" v="487726" />
	</node>
	<node lat="59.279261115488545" lon="7.526880564064215" id="-29404">
		<tag k="historic" v="shieling" />
		<tag k="name" v="Ljom" />
		<tag k="place" v="isolated_dwelling" />
		<tag k="ssr:stedsnr" v="487728" />
	</node>
	<node lat="59.058716670933" lon="7.566305559099574" id="-29406">
		<tag k="name" v="Hagen" />
		<tag k="place" v="farm" />
		<tag k="ssr:stedsnr" v="487732" />
	</node>
	<node lat="59.04792500157243" lon="7.501347221025252" id="-29409">
		<tag k="alt_name" v="Myklestøylane" />
		<tag k="historic" v="shieling" />
		<tag k="name" v="Myklestøylan" />
		<tag k="place" v="isolated_dwelling" />
		<tag k="ssr:stedsnr" v="487737" />
	</node>
	<node lat="59.10208333731377" lon="7.52540277937737" id="-29411">
		<tag k="name" v="Mo" />
		<tag k="place" v="farm" />
		<tag k="ssr:stedsnr" v="487675" />
	</node>
	<node lat="59.201569444490104" lon="7.647216671503521" id="-29447">
		<tag k="historic" v="shieling" />
		<tag k="name" v="Vøilestøylen" />
		<tag k="place" v="isolated_dwelling" />
		<tag k="ssr:stedsnr" v="508702" />
	</node>
	<node lat="59.218433335496734" lon="7.549494441289847" id="-29461">
		<tag k="historic" v="shieling" />
		<tag k="name" v="Preststøyl" />
		<tag k="place" v="isolated_dwelling" />
		<tag k="ssr:stedsnr" v="509620" />
	</node>
	<node lat="59.208550000009666" lon="7.539158328004236" id="-29559">
		<tag k="fixme" v="consider place=hamlet" />
		<tag k="name" v="Kyrvestad" />
		<tag k="place" v="farm" />
		<tag k="ssr:stedsnr" v="547575" />
	</node>
	<node lat="59.12508130930234" lon="7.519311741850081" id="-29563">
		<tag k="name" v="Tveitbakk" />
		<tag k="place" v="locality" />
		<tag k="ssr:stedsnr" v="547705" />
	</node>
	<node lat="59.13750277864903" lon="7.508413887166661" id="-29567">
		<tag k="name" v="Nordgarden" />
		<tag k="place" v="farm" />
		<tag k="ssr:stedsnr" v="547617" />
	</node>
	<node lat="59.14596666398285" lon="7.566280558827105" id="-29568">
		<tag k="alt_name" v="Gjærestøyl" />
		<tag k="historic" v="shieling" />
		<tag k="name" v="Gjerdestøyl" />
		<tag k="place" v="isolated_dwelling" />
		<tag k="ssr:stedsnr" v="547628" />
	</node>
	<node lat="59.02040000053821" lon="7.4036833324771685" id="-29579">
		<tag k="name" v="Poddestøl" />
		<tag k="place" v="isolated_dwelling" />
		<tag k="ssr:stedsnr" v="548278" />
	</node>
	<node lat="59.17248333052951" lon="7.523213887026025" id="-29580">
		<tag k="name" v="Fureteig" />
		<tag k="place" v="farm" />
		<tag k="ssr:stedsnr" v="548607" />
	</node>
	<node lat="59.18296110788819" lon="7.527788884537663" id="-29581">
		<tag k="alt_name" v="Kvestad" />
		<tag k="fixme" v="consider place=hamlet" />
		<tag k="name" v="Kveste" />
		<tag k="place" v="farm" />
		<tag k="ssr:stedsnr" v="548610" />
	</node>
	<node lat="59.290586108143735" lon="7.546675005766285" id="-29600">
		<tag k="name" v="Bjørnli" />
		<tag k="place" v="isolated_dwelling" />
		<tag k="ssr:stedsnr" v="690117" />
	</node>
	<node lat="59.315233335198805" lon="7.483027772636861" id="-29611">
		<tag k="alt_name" v="Vasstøl" />
		<tag k="historic" v="shieling" />
		<tag k="name" v="Vasstøyl" />
		<tag k="place" v="isolated_dwelling" />
		<tag k="ssr:stedsnr" v="690242" />
	</node>
	<node lat="59.24723333023007" lon="7.684808339912628" id="-29633">
		<tag k="alt_name" v="Ekra" />
		<tag k="historic" v="shieling" />
		<tag k="name" v="Ækra" />
		<tag k="place" v="isolated_dwelling" />
		<tag k="ssr:stedsnr" v="690564" />
	</node>
	<node lat="59.13101666510119" lon="7.511094448898826" id="-29638">
		<tag k="historic" v="shieling" />
		<tag k="name" v="Kåvnesset" />
		<tag k="place" v="isolated_dwelling" />
		<tag k="ssr:stedsnr" v="690625" />
	</node>
	<node lat="59.22277222554065" lon="7.580886103411964" id="-29653">
		<tag k="historic" v="shieling" />
		<tag k="name" v="Åmningen" />
		<tag k="place" v="isolated_dwelling" />
		<tag k="ssr:stedsnr" v="691609" />
	</node>
	<node lat="59.206708331452276" lon="7.5217833290075955" id="-29656">
		<tag k="name" v="Haugen" />
		<tag k="place" v="farm" />
		<tag k="ssr:stedsnr" v="691645" />
	</node>
	<node lat="59.22578055895153" lon="7.55330833722137" id="-29659">
		<tag k="name" v="Sæstad" />
		<tag k="place" v="farm" />
		<tag k="ssr:stedsnr" v="691664" />
	</node>
	<node lat="59.323494441326275" lon="7.517505561165374" id="-29665">
		<tag k="alt_name" v="Jåmestøyl" />
		<tag k="historic" v="shieling" />
		<tag k="name" v="Hjåmestøyl" />
		<tag k="old_name" v="Hjåmestøl" />
		<tag k="place" v="isolated_dwelling" />
		<tag k="ssr:stedsnr" v="567762" />
	</node>
	<node lat="59.196488884675595" lon="7.523013897444541" id="-29670">
		<tag k="name" v="Steinsgarden" />
		<tag k="place" v="farm" />
		<tag k="ssr:stedsnr" v="568026" />
	</node>
	<node lat="59.13997777714011" lon="7.488841661606219" id="-29681">
		<tag k="historic" v="shieling" />
		<tag k="name" v="Teustveit" />
		<tag k="place" v="isolated_dwelling" />
		<tag k="ssr:stedsnr" v="568376" />
	</node>
	<node lat="59.13138889228649" lon="7.445122224182052" id="-29682">
		<tag k="historic" v="shieling" />
		<tag k="name" v="Fiti" />
		<tag k="place" v="isolated_dwelling" />
		<tag k="ssr:stedsnr" v="568380" />
	</node>
	<node lat="59.185372220539946" lon="7.576052772474793" id="-29684">
		<tag k="historic" v="shieling" />
		<tag k="name" v="Bjønneåsen" />
		<tag k="place" v="isolated_dwelling" />
		<tag k="ssr:stedsnr" v="568509" />
	</node>
	<node lat="59.19043333272447" lon="7.577336119614669" id="-29687">
		<tag k="name" v="Sundagsbui" />
		<tag k="place" v="isolated_dwelling" />
		<tag k="ssr:stedsnr" v="568525" />
	</node>
	<node lat="59.19070833366606" lon="7.579713881743141" id="-29688">
		<tag k="historic" v="shieling" />
		<tag k="name" v="Likkefit" />
		<tag k="place" v="isolated_dwelling" />
		<tag k="ssr:stedsnr" v="568526" />
	</node>
	<node lat="59.127183334948086" lon="7.493727781734332" id="-29694">
		<tag k="historic" v="shieling" />
		<tag k="name" v="Takli" />
		<tag k="place" v="isolated_dwelling" />
		<tag k="ssr:stedsnr" v="568571" />
	</node>
	<node lat="59.033683332569844" lon="7.512174992254675" id="-29698">
		<tag k="historic" v="shieling" />
		<tag k="name" v="Nyestøyl" />
		<tag k="place" v="isolated_dwelling" />
		<tag k="ssr:stedsnr" v="568811" />
	</node>
	<node lat="59.15398055487546" lon="7.501124993295192" id="-29824">
		<tag k="historic" v="shieling" />
		<tag k="name" v="Nybu" />
		<tag k="place" v="isolated_dwelling" />
		<tag k="ssr:stedsnr" v="607593" />
	</node>
	<node lat="59.23710679691243" lon="7.546186129550143" id="-29832">
		<tag k="name" v="Svalestog" />
		<tag k="place" v="farm" />
		<tag k="ssr:stedsnr" v="607939" />
	</node>
	<node lat="59.041749998557734" lon="7.558158331165421" id="-29833">
		<tag k="name" v="Myran" />
		<tag k="place" v="farm" />
		<tag k="ssr:stedsnr" v="608241" />
	</node>
	<node lat="59.19203888635678" lon="7.680547219747426" id="-29834">
		<tag k="historic" v="shieling" />
		<tag k="name" v="Optestøyl" />
		<tag k="place" v="isolated_dwelling" />
		<tag k="ssr:stedsnr" v="608545" />
	</node>
	<node lat="59.2563583299946" lon="7.472449997839109" id="-29840">
		<tag k="name" v="Myri" />
		<tag k="place" v="farm" />
		<tag k="ssr:stedsnr" v="608696" />
	</node>
	<node lat="59.348472218766936" lon="7.552197213651797" id="-29848">
		<tag k="name" v="Hola" />
		<tag k="place" v="isolated_dwelling" />
		<tag k="ssr:stedsnr" v="609536" />
	</node>
	<node lat="59.2608999956188" lon="7.577286117381474" id="-29860">
		<tag k="historic" v="shieling" />
		<tag k="name" v="Strandsstøyl" />
		<tag k="place" v="isolated_dwelling" />
		<tag k="ssr:stedsnr" v="628813" />
	</node>
	<node lat="59.32812222525588" lon="7.510111103135748" id="-29861">
		<tag k="historic" v="shieling" />
		<tag k="name" v="Osstøyl" />
		<tag k="old_name" v="Osstøl" />
		<tag k="place" v="isolated_dwelling" />
		<tag k="ssr:stedsnr" v="628741" />
	</node>
	<node lat="59.251158332225934" lon="7.6160027720239185" id="-29867">
		<tag k="historic" v="shieling" />
		<tag k="name" v="Myklestøyl" />
		<tag k="place" v="isolated_dwelling" />
		<tag k="ssr:stedsnr" v="629112" />
	</node>
	<node lat="59.13598611473028" lon="7.460805558314662" id="-29869">
		<tag k="name" v="Nyebuteigen" />
		<tag k="place" v="locality" />
		<tag k="ssr:stedsnr" v="629351" />
	</node>
	<node lat="59.166269447966" lon="7.526963893597767" id="-29872">
		<tag k="name" v="Mel" />
		<tag k="place" v="farm" />
		<tag k="ssr:stedsnr" v="629515" />
	</node>
	<node lat="59.19088332917862" lon="7.583777781915771" id="-29878">
		<tag k="historic" v="shieling" />
		<tag k="name" v="Rjoet" />
		<tag k="place" v="isolated_dwelling" />
		<tag k="ssr:stedsnr" v="629557" />
	</node>
	<node lat="59.240844440122494" lon="7.473622216327035" id="-29879">
		<tag k="name" v="Flateland camping" />
		<tag k="ssr:stedsnr" v="629299" />
		<tag k="tourism" v="camp_site" />
	</node>
	<node lat="59.150411110701846" lon="7.5825666626103665" id="-29998">
		<tag k="historic" v="shieling" />
		<tag k="name" v="Listøyl" />
		<tag k="place" v="isolated_dwelling" />
		<tag k="ssr:stedsnr" v="669590" />
	</node>
	<node lat="59.06987500270499" lon="7.639038884214276" id="-30001">
		<tag k="historic" v="shieling" />
		<tag k="name" v="Slystøyl" />
		<tag k="place" v="isolated_dwelling" />
		<tag k="ssr:stedsnr" v="669705" />
	</node>
	<node lat="59.308172222081986" lon="7.493044438030891" id="-30021">
		<tag k="alt_name" v="Kalland" />
		<tag k="historic" v="shieling" />
		<tag k="name" v="Kaddane" />
		<tag k="old_name" v="Kaddan" />
		<tag k="place" v="isolated_dwelling" />
		<tag k="ssr:stedsnr" v="689716" />
	</node>
	<node lat="59.31141388791778" lon="7.519888888117208" id="-30022">
		<tag k="alt_name" v="Finnsarv" />
		<tag k="historic" v="shieling" />
		<tag k="name" v="Finsarv" />
		<tag k="place" v="isolated_dwelling" />
		<tag k="ssr:stedsnr" v="689719" />
	</node>
	<node lat="59.134227782073545" lon="7.480691667378743" id="-30029">
		<tag k="loc_name" v="Jinnbui" />
		<tag k="name" v="Jernbui" />
		<tag k="place" v="locality" />
		<tag k="ssr:stedsnr" v="690403" />
	</node>
	<node lat="59.08328055113899" lon="7.424025000404209" id="-30030">
		<tag k="historic" v="shieling" />
		<tag k="name" v="Fisstøyl" />
		<tag k="place" v="isolated_dwelling" />
		<tag k="ssr:stedsnr" v="690460" />
	</node>
	<node lat="59.191961115357216" lon="7.577225004548875" id="-30045">
		<tag k="historic" v="shieling" />
		<tag k="name" v="Fogremyr" />
		<tag k="place" v="isolated_dwelling" />
		<tag k="ssr:stedsnr" v="690589" />
	</node>
	<node lat="59.112800001477154" lon="7.520011107331167" id="-30051">
		<tag k="name" v="Skogehagen" />
		<tag k="place" v="farm" />
		<tag k="ssr:stedsnr" v="690803" />
	</node>
	<node lat="59.147094447655434" lon="7.494497226515124" id="-30062">
		<tag k="historic" v="shieling" />
		<tag k="name" v="Dalsstøyl" />
		<tag k="place" v="isolated_dwelling" />
		<tag k="ssr:stedsnr" v="691582" />
	</node>
	<node lat="59.34753055956" lon="7.53775277666802" id="-30066">
		<tag k="alt_name" v="Bjørnevannshytta" />
		<tag k="fixme" v="consider tourism=alpine_hut or tourism=chalet" />
		<tag k="name" v="Bjørnevasshytta" />
		<tag k="ssr:stedsnr" v="708790" />
		<tag k="tourism" v="wilderness_hut" />
	</node>
	<node lat="59.14160000067715" lon="7.473255555740279" id="-30169">
		<tag k="historic" v="shieling" />
		<tag k="name" v="Vindsåsen" />
		<tag k="place" v="isolated_dwelling" />
		<tag k="ssr:stedsnr" v="729581" />
	</node>
	<node lat="59.164938886440744" lon="7.6036250049193415" id="-30170">
		<tag k="alt_name" v="Svoene" />
		<tag k="historic" v="shieling" />
		<tag k="name" v="Svodin" />
		<tag k="place" v="isolated_dwelling" />
		<tag k="ssr:stedsnr" v="729603" />
	</node>
	<node lat="59.26716667112241" lon="7.637755558657245" id="-30184">
		<tag k="historic" v="shieling" />
		<tag k="name" v="Kjeppshei" />
		<tag k="place" v="isolated_dwelling" />
		<tag k="ssr:stedsnr" v="730710" />
	</node>
	<node lat="59.324861108054975" lon="7.483186102584065" id="-30209">
		<tag k="name" v="Strondi" />
		<tag k="place" v="isolated_dwelling" />
		<tag k="ssr:stedsnr" v="731490" />
	</node>
	<node lat="59.279561110679765" lon="7.298749992809211" id="-30211">
		<tag k="historic" v="shieling" />
		<tag k="name" v="Rossåsen" />
		<tag k="place" v="isolated_dwelling" />
		<tag k="ssr:stedsnr" v="731627" />
	</node>
	<node lat="59.34973888667025" lon="7.4809527825058995" id="-30325">
		<tag k="alt_name" v="Rotastøl" />
		<tag k="historic" v="shieling" />
		<tag k="name" v="Rotastøyl" />
		<tag k="place" v="isolated_dwelling" />
		<tag k="ssr:stedsnr" v="750165" />
	</node>
	<node lat="59.10159721781253" lon="7.3926972225795415" id="-30332">
		<tag k="historic" v="shieling" />
		<tag k="name" v="Vorebrokk" />
		<tag k="place" v="isolated_dwelling" />
		<tag k="ssr:stedsnr" v="750458" />
	</node>
	<node lat="59.16145277563337" lon="7.532797219520067" id="-30371">
		<tag k="name" v="Sandnes" />
		<tag k="place" v="farm" />
		<tag k="ssr:stedsnr" v="751630" />
	</node>
	<node lat="58.971722222861146" lon="7.21400277780088" id="-30477">
		<tag k="name" v="Bukkehallene" />
		<tag k="place" v="isolated_dwelling" />
		<tag k="ssr:stedsnr" v="911230" />
	</node>
	<node lat="59.15657221964583" lon="7.616608333299004" id="-30478">
		<tag k="historic" v="shieling" />
		<tag k="name" v="Fiskevass-støylen" />
		<tag k="place" v="isolated_dwelling" />
		<tag k="ssr:stedsnr" v="911598" />
	</node>
	<node lat="59.08242499638004" lon="7.354611104489387" id="-30482">
		<tag k="alt_name" v="Kråkelistøyl" />
		<tag k="historic" v="shieling" />
		<tag k="name" v="Kråkeli" />
		<tag k="place" v="isolated_dwelling" />
		<tag k="ssr:stedsnr" v="911757" />
	</node>
	<node lat="59.08349166533731" lon="7.420808326710389" id="-30484">
		<tag k="historic" v="shieling" />
		<tag k="name" v="Jannsverk" />
		<tag k="place" v="isolated_dwelling" />
		<tag k="ssr:stedsnr" v="911763" />
	</node>
	<node lat="59.20251558417792" lon="7.5406569846300275" id="-30485">
		<tag k="fixme" v="consider place=hamlet" />
		<tag k="name" v="Rike" />
		<tag k="place" v="farm" />
		<tag k="ssr:stedsnr" v="790545" />
	</node>
	<node lat="59.19476666927326" lon="7.473622221552338" id="-30486">
		<tag k="alt_name" v="Kleggstøyl" />
		<tag k="historic" v="shieling" />
		<tag k="name" v="Kleggestøyl" />
		<tag k="place" v="isolated_dwelling" />
		<tag k="ssr:stedsnr" v="790555" />
	</node>
	<node lat="59.20933610695847" lon="7.5470416661127215" id="-30487">
		<tag k="name" v="Brenna" />
		<tag k="place" v="farm" />
		<tag k="ssr:stedsnr" v="790557" />
	</node>
	<node lat="59.06716666944352" lon="7.623324999183394" id="-30489">
		<tag k="name" v="Glennås" />
		<tag k="place" v="isolated_dwelling" />
		<tag k="ssr:stedsnr" v="790741" />
	</node>
	<node lat="59.05977499691091" lon="7.3958972211703085" id="-30491">
		<tag k="alt_name" v="Garevass-støylen" />
		<tag k="historic" v="shieling" />
		<tag k="name" v="Gardevasstøylen" />
		<tag k="place" v="isolated_dwelling" />
		<tag k="ssr:stedsnr" v="790745" />
	</node>
	<node lat="59.24074999660233" lon="7.535730555204613" id="-30496">
		<tag k="name" v="Gråmannshus" />
		<tag k="place" v="farm" />
		<tag k="ssr:stedsnr" v="790943" />
	</node>
	<node lat="59.098130558484" lon="7.430313885353175" id="-30497">
		<tag k="historic" v="shieling" />
		<tag k="name" v="Furestøyl" />
		<tag k="place" v="isolated_dwelling" />
		<tag k="ssr:stedsnr" v="790694" />
	</node>
	<node lat="59.12403888953322" lon="7.631674996342657" id="-30498">
		<tag k="alt_name" v="Rossådalen" />
		<tag k="historic" v="shieling" />
		<tag k="name" v="Rossedalen" />
		<tag k="place" v="isolated_dwelling" />
		<tag k="ssr:stedsnr" v="790699" />
	</node>
	<node lat="59.10628610981483" lon="7.411133325377079" id="-30499">
		<tag k="historic" v="shieling" />
		<tag k="name" v="Gripemo" />
		<tag k="place" v="isolated_dwelling" />
		<tag k="ssr:stedsnr" v="790701" />
	</node>
	<node lat="59.165313885433015" lon="7.491563887227909" id="-30502">
		<tag k="historic" v="shieling" />
		<tag k="name" v="Myrbui" />
		<tag k="place" v="isolated_dwelling" />
		<tag k="ssr:stedsnr" v="911611" />
	</node>
	<node lat="59.24851389214044" lon="7.6241277803300145" id="-30512">
		<tag k="name" v="Steinbubakkane" />
		<tag k="place" v="isolated_dwelling" />
		<tag k="ssr:stedsnr" v="911941" />
	</node>
	<node lat="59.03321111550364" lon="7.406997230501228" id="-30513">
		<tag k="historic" v="shieling" />
		<tag k="name" v="Flatestøyl" />
		<tag k="place" v="isolated_dwelling" />
		<tag k="ssr:stedsnr" v="912275" />
	</node>
	<node lat="59.19015000251222" lon="7.512877775794789" id="-30518">
		<tag k="fixme" v="consider place=hamlet" />
		<tag k="name" v="Åmli" />
		<tag k="place" v="farm" />
		<tag k="ssr:stedsnr" v="912539" />
	</node>
	<node lat="59.20080278141594" lon="7.5375083368461775" id="-30522">
		<tag k="fixme" v="consider place=hamlet" />
		<tag k="name" v="Åkre" />
		<tag k="place" v="farm" />
		<tag k="ssr:stedsnr" v="912549" />
	</node>
	<node lat="59.21777777473487" lon="7.4816638855330595" id="-30527">
		<tag k="historic" v="shieling" />
		<tag k="name" v="Dåstøyl" />
		<tag k="place" v="isolated_dwelling" />
		<tag k="ssr:stedsnr" v="912580" />
	</node>
	<node lat="59.28866388885396" lon="7.505511117207751" id="-30529">
		<tag k="alt_name" v="Buene" />
		<tag k="historic" v="shieling" />
		<tag k="name" v="Buin" />
		<tag k="place" v="isolated_dwelling" />
		<tag k="ssr:stedsnr" v="913686" />
	</node>
	<node lat="59.182174998851586" lon="7.658138880183803" id="-30532">
		<tag k="alt_name" v="Verevasstøyl" />
		<tag k="historic" v="shieling" />
		<tag k="name" v="Verevasstøylen" />
		<tag k="place" v="isolated_dwelling" />
		<tag k="ssr:stedsnr" v="912633" />
	</node>
	<node lat="59.102791662591805" lon="7.50951667114157" id="-30533">
		<tag k="name" v="Faremo" />
		<tag k="place" v="farm" />
		<tag k="ssr:stedsnr" v="912642" />
	</node>
	<node lat="59.113552779025966" lon="7.525383335001124" id="-30536">
		<tag k="name" v="Sviddbakk" />
		<tag k="place" v="farm" />
		<tag k="ssr:stedsnr" v="912658" />
	</node>
	<node lat="59.10037777412443" lon="7.36578333027987" id="-30538">
		<tag k="historic" v="shieling" />
		<tag k="name" v="Bjørnevass-støylen" />
		<tag k="place" v="isolated_dwelling" />
		<tag k="ssr:stedsnr" v="912664" />
	</node>
	<node lat="59.12374722516912" lon="7.6559500047139855" id="-30541">
		<tag k="historic" v="shieling" />
		<tag k="name" v="Lauvbudalen" />
		<tag k="place" v="isolated_dwelling" />
		<tag k="ssr:stedsnr" v="912678" />
	</node>
	<node lat="59.02439721869223" lon="7.236816674352816" id="-30552">
		<tag k="fixme" v="consider tourism=alpine_hut or tourism=chalet" />
		<tag k="name" v="Øyuvsbu" />
		<tag k="ssr:stedsnr" v="912978" />
		<tag k="tourism" v="wilderness_hut" />
	</node>
	<node lat="59.23809444165297" lon="7.469183333502499" id="-30554">
		<tag k="name" v="Innistog" />
		<tag k="place" v="farm" />
		<tag k="ssr:stedsnr" v="811285" />
	</node>
	<node lat="59.23376110700922" lon="7.432733330139887" id="-30565">
		<tag k="historic" v="shieling" />
		<tag k="name" v="Haugen" />
		<tag k="place" v="isolated_dwelling" />
		<tag k="ssr:stedsnr" v="811310" />
	</node>
	<node lat="59.182657557304736" lon="7.470843440880449" id="-30566">
		<tag k="historic" v="shieling" />
		<tag k="name" v="Burak" />
		<tag k="place" v="isolated_dwelling" />
		<tag k="ssr:stedsnr" v="811313" />
	</node>
	<node lat="59.26403611099781" lon="7.574836111216213" id="-30577">
		<tag k="historic" v="shieling" />
		<tag k="name" v="Vastøyl" />
		<tag k="place" v="isolated_dwelling" />
		<tag k="ssr:stedsnr" v="811817" />
	</node>
	<node lat="59.19208055820417" lon="7.582502769735722" id="-30578">
		<tag k="historic" v="shieling" />
		<tag k="name" v="Grjotstøyl" />
		<tag k="place" v="isolated_dwelling" />
		<tag k="ssr:stedsnr" v="811531" />
	</node>
	<node lat="59.256591662586274" lon="7.541269439463753" id="-30581">
		<tag k="alt_name" v="Nørdtestøyl" />
		<tag k="historic" v="shieling" />
		<tag k="name" v="Nørdstestøyl" />
		<tag k="old_name" v="Nørdstestøl" />
		<tag k="place" v="isolated_dwelling" />
		<tag k="ssr:stedsnr" v="811792" />
	</node>
	<node lat="59.10127221939626" lon="7.727005551084082" id="-30586">
		<tag k="historic" v="shieling" />
		<tag k="name" v="Stokkestøyl" />
		<tag k="place" v="isolated_dwelling" />
		<tag k="ssr:stedsnr" v="812533" />
	</node>
	<node lat="59.247880555908154" lon="7.635225005873331" id="-30590">
		<tag k="alt_name" v="Undermigheii" />
		<tag k="historic" v="shieling" />
		<tag k="name" v="Undemigstøylen" />
		<tag k="place" v="isolated_dwelling" />
		<tag k="ssr:stedsnr" v="812559" />
	</node>
	<node lat="59.12714999911164" lon="7.595161107262701" id="-30597">
		<tag k="historic" v="shieling" />
		<tag k="name" v="Skjellestøyl" />
		<tag k="place" v="isolated_dwelling" />
		<tag k="ssr:stedsnr" v="812573" />
	</node>
	<node lat="59.07238888819976" lon="7.388013883856851" id="-30599">
		<tag k="historic" v="shieling" />
		<tag k="name" v="Gaukåsstølen" />
		<tag k="place" v="isolated_dwelling" />
		<tag k="ssr:stedsnr" v="812412" />
	</node>
	<node lat="59.15067500250034" lon="7.492980563250148" id="-30606">
		<tag k="historic" v="shieling" />
		<tag k="name" v="Rotestøyl" />
		<tag k="place" v="isolated_dwelling" />
		<tag k="ssr:stedsnr" v="812611" />
	</node>
	<node lat="59.10480832894581" lon="7.491894441628848" id="-30614">
		<tag k="name" v="Brokke" />
		<tag k="place" v="farm" />
		<tag k="ssr:stedsnr" v="812789" />
	</node>
	<node lat="59.211075002421616" lon="7.536841663274426" id="-30753">
		<tag k="alt_name" v="Sagneskard" />
		<tag k="fixme" v="consider place=hamlet" />
		<tag k="name" v="Sagneskar" />
		<tag k="place" v="farm" />
		<tag k="ssr:stedsnr" v="851509" />
	</node>
	<node lat="59.207991668017435" lon="7.6406111165181585" id="-30755">
		<tag k="alt_name" v="Voilane" />
		<tag k="name" v="Vøylan" />
		<tag k="place" v="isolated_dwelling" />
		<tag k="ssr:stedsnr" v="851517" />
	</node>
	<node lat="59.173330556168" lon="7.523352770368138" id="-30759">
		<tag k="name" v="Bø" />
		<tag k="place" v="hamlet" />
		<tag k="ssr:stedsnr" v="851610" />
	</node>
	<node lat="59.13112222029159" lon="7.511888894297271" id="-30762">
		<tag k="alt_name" v="Kåvnesset" />
		<tag k="name" v="Kalveneset" />
		<tag k="old_name" v="Koveneset" />
		<tag k="place" v="farm" />
		<tag k="ssr:stedsnr" v="851668" />
	</node>
	<node lat="59.237130551868674" lon="7.538761106188509" id="-30769">
		<tag k="name" v="Hommelunden" />
		<tag k="place" v="farm" />
		<tag k="ssr:stedsnr" v="851967" />
	</node>
	<node lat="59.26275000220101" lon="7.462024995765241" id="-30777">
		<tag k="name" v="Utistog" />
		<tag k="place" v="farm" />
		<tag k="ssr:stedsnr" v="852662" />
	</node>
	<node lat="59.28508888904336" lon="7.667880548070864" id="-30778">
		<tag k="historic" v="shieling" />
		<tag k="name" v="Ovi" />
		<tag k="place" v="isolated_dwelling" />
		<tag k="ssr:stedsnr" v="852664" />
	</node>
	<node lat="59.26747777932488" lon="7.3716583379320095" id="-30780">
		<tag k="historic" v="shieling" />
		<tag k="name" v="Løyning" />
		<tag k="place" v="isolated_dwelling" />
		<tag k="ssr:stedsnr" v="852667" />
	</node>
	<node lat="59.27891388953974" lon="7.402013880435126" id="-30784">
		<tag k="name" v="Bakken" />
		<tag k="place" v="farm" />
		<tag k="ssr:stedsnr" v="871122" />
	</node>
	<node lat="59.249274998638775" lon="7.468825006132115" id="-30787">
		<tag k="name" v="Myri" />
		<tag k="place" v="farm" />
		<tag k="ssr:stedsnr" v="871226" />
	</node>
	<node lat="59.17974166499502" lon="7.472480555798131" id="-30801">
		<tag k="alt_name" v="Åvåg" />
		<tag k="historic" v="shieling" />
		<tag k="name" v="Åvog" />
		<tag k="place" v="isolated_dwelling" />
		<tag k="ssr:stedsnr" v="933331" />
	</node>
	<node lat="59.345869448612774" lon="7.564466660546671" id="-30802">
		<tag k="historic" v="shieling" />
		<tag k="name" v="Listøyl" />
		<tag k="old_name" v="Listøl" />
		<tag k="place" v="isolated_dwelling" />
		<tag k="ssr:stedsnr" v="932648" />
	</node>
	<node lat="59.13161110699924" lon="7.250227772202833" id="-30809">
		<tag k="fixme" v="consider tourism=alpine_hut or tourism=chalet" />
		<tag k="name" v="Svartenut" />
		<tag k="ssr:stedsnr" v="877123" />
		<tag k="tourism" v="wilderness_hut" />
	</node>
	<node lat="59.14254444416441" lon="7.477252773999699" id="-30816">
		<tag k="historic" v="shieling" />
		<tag k="name" v="Finnbui" />
		<tag k="place" v="isolated_dwelling" />
		<tag k="ssr:stedsnr" v="933406" />
	</node>
	<node lat="59.24438333515474" lon="7.5828722254492265" id="-30850">
		<tag k="historic" v="shieling" />
		<tag k="name" v="Hagebui" />
		<tag k="place" v="isolated_dwelling" />
		<tag k="ssr:stedsnr" v="933622" />
	</node>
	<node lat="59.04973055108716" lon="7.506627773442042" id="-30860">
		<tag k="name" v="Liebui" />
		<tag k="place" v="isolated_dwelling" />
		<tag k="ssr:stedsnr" v="933833" />
	</node>
	<node lat="59.06969444562369" lon="7.48434999837777" id="-30865">
		<tag k="historic" v="shieling" />
		<tag k="name" v="Grimstveit" />
		<tag k="place" v="isolated_dwelling" />
		<tag k="ssr:stedsnr" v="934423" />
	</node>
	<node lat="59.002225003762355" lon="7.407311109826306" id="-30977">
		<tag k="alt_name" v="Sandvika" />
		<tag k="name" v="Sandviki" />
		<tag k="place" v="isolated_dwelling" />
		<tag k="ssr:stedsnr" v="911325" />
	</node>
	<node lat="59.095938892897976" lon="7.523816673733497" id="-30979">
		<tag k="name" v="Heimigard" />
		<tag k="place" v="farm" />
		<tag k="ssr:stedsnr" v="911650" />
	</node>
	<node lat="59.22928610782978" lon="7.502080554204984" id="-30985">
		<tag k="name" v="Utistog" />
		<tag k="place" v="farm" />
		<tag k="ssr:stedsnr" v="912588" />
	</node>
	<node lat="59.04974722243739" lon="7.3579916599849335" id="-30988">
		<tag k="alt_name" v="Leite" />
		<tag k="historic" v="shieling" />
		<tag k="name" v="Leitet" />
		<tag k="place" v="isolated_dwelling" />
		<tag k="ssr:stedsnr" v="912710" />
	</node>
	<node lat="59.30191944194135" lon="7.430683328551824" id="-31000">
		<tag k="historic" v="shieling" />
		<tag k="name" v="Hagen" />
		<tag k="place" v="isolated_dwelling" />
		<tag k="ssr:stedsnr" v="932239" />
	</node>
	<node lat="59.29509999838349" lon="7.519380554883091" id="-31003">
		<tag k="alt_name" v="Husebø" />
		<tag k="historic" v="shieling" />
		<tag k="name" v="Husebøstøylen" />
		<tag k="old_name" v="Husebustølen" />
		<tag k="place" v="isolated_dwelling" />
		<tag k="ssr:stedsnr" v="932712" />
	</node>
	<node lat="59.23316111110345" lon="7.434497216694175" id="-31010">
		<tag k="historic" v="shieling" />
		<tag k="name" v="Liestøyl" />
		<tag k="place" v="isolated_dwelling" />
		<tag k="ssr:stedsnr" v="933342" />
	</node>
	<node lat="59.073663885795035" lon="7.657686113092301" id="-31018">
		<tag k="historic" v="shieling" />
		<tag k="name" v="Såvisbu" />
		<tag k="place" v="isolated_dwelling" />
		<tag k="ssr:stedsnr" v="933449" />
	</node>
	<node lat="59.08162777622266" lon="7.765066667120518" id="-31022">
		<tag k="historic" v="shieling" />
		<tag k="name" v="Solli" />
		<tag k="place" v="isolated_dwelling" />
		<tag k="ssr:stedsnr" v="933645" />
	</node>
	<node lat="59.10848610796921" lon="7.506797227057417" id="-31028">
		<tag k="name" v="Mo" />
		<tag k="place" v="farm" />
		<tag k="ssr:stedsnr" v="933794" />
	</node>
	<node lat="59.08503611207706" lon="7.529797226170898" id="-31035">
		<tag k="historic" v="shieling" />
		<tag k="name" v="Haukedalsmyri" />
		<tag k="place" v="isolated_dwelling" />
		<tag k="ssr:stedsnr" v="933997" />
	</node>
	<node lat="59.03606791867088" lon="7.549367045358973" id="-31134">
		<tag k="fixme" v="consider place=hamlet" />
		<tag k="name" v="Besteland" />
		<tag k="place" v="farm" />
		<tag k="ssr:stedsnr" v="971659" />
	</node>
	<node lat="59.04350808083692" lon="7.147204468900267" id="-31152">
		<tag k="fixme" v="consider tourism=alpine_hut or tourism=chalet" />
		<tag k="name" v="Fossebu" />
		<tag k="ssr:stedsnr" v="979881" />
		<tag k="tourism" v="wilderness_hut" />
	</node>
	<node lat="59.21523188722006" lon="7.078588747327495" id="-31153">
		<tag k="fixme" v="consider tourism=alpine_hut or tourism=chalet" />
		<tag k="name" v="Såvasshytta" />
		<tag k="ssr:stedsnr" v="979885" />
		<tag k="tourism" v="wilderness_hut" />
	</node>
	<node lat="59.05483055435514" lon="7.353000005435012" id="-31158">
		<tag k="alt_name" v="Myklestøyl" />
		<tag k="name" v="Nomelandsstølen" />
		<tag k="place" v="isolated_dwelling" />
		<tag k="ssr:stedsnr" v="1709" />
	</node>
	<node lat="59.036786108227616" lon="7.415950001874585" id="-31165">
		<tag k="alt_name" v="Ormetjørn" />
		<tag k="historic" v="shieling" />
		<tag k="name" v="Ormetjørnstøylen" />
		<tag k="place" v="isolated_dwelling" />
		<tag k="ssr:stedsnr" v="1273" />
	</node>
	<node lat="59.22275555772918" lon="7.612213888983408" id="-31167">
		<tag k="name" v="Osebakken" />
		<tag k="place" v="isolated_dwelling" />
		<tag k="ssr:stedsnr" v="1549" />
	</node>
	<node lat="59.0967527742947" lon="7.521966660161034" id="-31173">
		<tag k="name" v="Nordigard" />
		<tag k="place" v="farm" />
		<tag k="ssr:stedsnr" v="1651" />
	</node>
	<node lat="59.1910171407724" lon="7.209783029594" id="-31180">
		<tag k="fixme" v="consider tourism=alpine_hut or tourism=chalet" />
		<tag k="name" v="Hestebu" />
		<tag k="ssr:stedsnr" v="1872" />
		<tag k="tourism" v="wilderness_hut" />
	</node>
	<node lat="59.11232499948324" lon="7.518499992855252" id="-31194">
		<tag k="name" v="Moen" />
		<tag k="place" v="farm" />
		<tag k="ssr:stedsnr" v="2655" />
	</node>
	<node lat="59.34517500239992" lon="7.574333341412376" id="-31200">
		<tag k="historic" v="shieling" />
		<tag k="name" v="Grytestøyl" />
		<tag k="old_name" v="Grytestøl" />
		<tag k="place" v="isolated_dwelling" />
		<tag k="ssr:stedsnr" v="22683" />
	</node>
	<node lat="59.29728611374919" lon="7.523561104688991" id="-31201">
		<tag k="historic" v="shieling" />
		<tag k="name" v="Rindebakken" />
		<tag k="place" v="isolated_dwelling" />
		<tag k="ssr:stedsnr" v="22738" />
	</node>
	<node lat="59.3325583309711" lon="7.511616666366702" id="-31203">
		<tag k="historic" v="shieling" />
		<tag k="name" v="Grønli" />
		<tag k="place" v="isolated_dwelling" />
		<tag k="ssr:stedsnr" v="22763" />
	</node>
	<node lat="59.18884444064845" lon="7.4962861172897" id="-31209">
		<tag k="name" v="Stakkebakke" />
		<tag k="place" v="farm" />
		<tag k="ssr:stedsnr" v="23018" />
	</node>
	<node lat="59.2435871936705" lon="7.415355956448647" id="-31212">
		<tag k="historic" v="shieling" />
		<tag k="name" v="Nyestøyl" />
		<tag k="place" v="isolated_dwelling" />
		<tag k="ssr:stedsnr" v="23421" />
	</node>
	<node lat="59.19716944721606" lon="7.573225001744851" id="-31218">
		<tag k="historic" v="shieling" />
		<tag k="name" v="Libu" />
		<tag k="place" v="isolated_dwelling" />
		<tag k="ssr:stedsnr" v="23586" />
	</node>
	<node lat="59.228016668231966" lon="7.553100002888978" id="-31225">
		<tag k="fixme" v="consider place=hamlet" />
		<tag k="name" v="Myrum" />
		<tag k="place" v="farm" />
		<tag k="ssr:stedsnr" v="23600" />
	</node>
	<node lat="59.21671389278384" lon="7.482319446074555" id="-31232">
		<tag k="historic" v="shieling" />
		<tag k="name" v="Dalstøyl" />
		<tag k="place" v="isolated_dwelling" />
		<tag k="ssr:stedsnr" v="23327" />
	</node>
	<node lat="59.04846110723113" lon="7.636122222822607" id="-31242">
		<tag k="name" v="Rjuvasshytta" />
		<tag k="place" v="isolated_dwelling" />
		<tag k="ssr:stedsnr" v="23470" />
	</node>
	<node lat="59.17622777918138" lon="7.530769449598353" id="-31247">
		<tag k="name" v="Mo" />
		<tag k="place" v="farm" />
		<tag k="ssr:stedsnr" v="23569" />
	</node>
	<node lat="59.21661944507013" lon="7.566738892895608" id="-31252">
		<tag k="historic" v="shieling" />
		<tag k="name" v="Epteset" />
		<tag k="place" v="isolated_dwelling" />
		<tag k="ssr:stedsnr" v="23654" />
	</node>
	<node lat="59.214358333680885" lon="7.536033332119572" id="-31254">
		<tag k="alt_name" v="Haugebirki" />
		<tag k="name" v="Haugebirke" />
		<tag k="place" v="farm" />
		<tag k="ssr:stedsnr" v="23673" />
	</node>
	<node lat="59.09855833083055" lon="7.710680557510921" id="-31256">
		<tag k="historic" v="shieling" />
		<tag k="name" v="Lislestøyl" />
		<tag k="place" v="isolated_dwelling" />
		<tag k="ssr:stedsnr" v="23675" />
	</node>
	<node lat="59.04982500432623" lon="7.5133916652016595" id="-31260">
		<tag k="name" v="Flottebui" />
		<tag k="place" v="isolated_dwelling" />
		<tag k="ssr:stedsnr" v="23841" />
	</node>
	<node lat="59.1169861105444" lon="7.501305548605715" id="-31268">
		<tag k="name" v="Kvæven" />
		<tag k="place" v="farm" />
		<tag k="ssr:stedsnr" v="23969" />
	</node>
	<node lat="59.03279999920843" lon="7.5306500009396835" id="-31423">
		<tag k="alt_name" v="Djuvstveit" />
		<tag k="historic" v="shieling" />
		<tag k="name" v="Gjuvstveit" />
		<tag k="place" v="isolated_dwelling" />
		<tag k="ssr:stedsnr" v="62259" />
	</node>
	<node lat="59.08570277362287" lon="7.388836119234668" id="-31431">
		<tag k="alt_name" v="Reigåsstøyl" />
		<tag k="name" v="Reigårsstøylen" />
		<tag k="place" v="isolated_dwelling" />
		<tag k="ssr:stedsnr" v="62645" />
	</node>
	<node lat="59.10370000335326" lon="7.4856611088497385" id="-31433">
		<tag k="alt_name" v="Myri" />
		<tag k="name" v="Storemyr" />
		<tag k="place" v="farm" />
		<tag k="ssr:stedsnr" v="62661" />
	</node>
	<node lat="59.07157221998319" lon="7.4908416683872385" id="-31434">
		<tag k="historic" v="shieling" />
		<tag k="name" v="Nyestøyl" />
		<tag k="place" v="isolated_dwelling" />
		<tag k="ssr:stedsnr" v="62743" />
	</node>
	<node lat="59.08692500247627" lon="7.538513886209309" id="-31435">
		<tag k="name" v="Åsan" />
		<tag k="place" v="farm" />
		<tag k="ssr:stedsnr" v="62750" />
	</node>
	<node lat="59.2388805517044" lon="7.531338895258773" id="-31447">
		<tag k="name" v="Kyrkjeled" />
		<tag k="place" v="farm" />
		<tag k="ssr:stedsnr" v="62958" />
	</node>
	<node lat="59.339141663717236" lon="7.52448055439288" id="-31462">
		<tag k="historic" v="shieling" />
		<tag k="name" v="Strandestøylen" />
		<tag k="old_name" v="Strandestølen" />
		<tag k="place" v="isolated_dwelling" />
		<tag k="ssr:stedsnr" v="82777" />
	</node>
	<node lat="59.19822778156972" lon="7.575999994811165" id="-31472">
		<tag k="historic" v="shieling" />
		<tag k="name" v="Neire Søvårkro" />
		<tag k="place" v="isolated_dwelling" />
		<tag k="ssr:stedsnr" v="83522" />
	</node>
	<node lat="59.119105556561536" lon="7.584663889131633" id="-31481">
		<tag k="historic" v="shieling" />
		<tag k="name" v="Hardstøyl" />
		<tag k="place" v="isolated_dwelling" />
		<tag k="ssr:stedsnr" v="83533" />
	</node>
	<node lat="59.16195000232486" lon="7.493469441917495" id="-31483">
		<tag k="name" v="Fossebui" />
		<tag k="place" v="isolated_dwelling" />
		<tag k="ssr:stedsnr" v="83541" />
	</node>
	<node lat="59.3419111067002" lon="7.594588885733972" id="-31491">
		<tag k="historic" v="shieling" />
		<tag k="name" v="Osen" />
		<tag k="place" v="isolated_dwelling" />
		<tag k="ssr:stedsnr" v="83800" />
	</node>
	<node lat="59.325736113619726" lon="7.503194450544543" id="-31497">
		<tag k="historic" v="shieling" />
		<tag k="name" v="Glottebu" />
		<tag k="place" v="isolated_dwelling" />
		<tag k="ssr:stedsnr" v="83773" />
	</node>
	<node lat="59.32839444829599" lon="7.494905562466009" id="-31499">
		<tag k="historic" v="shieling" />
		<tag k="name" v="Lislebu" />
		<tag k="place" v="isolated_dwelling" />
		<tag k="ssr:stedsnr" v="83775" />
	</node>
	<node lat="59.25339444439648" lon="7.583611105459423" id="-31502">
		<tag k="historic" v="shieling" />
		<tag k="name" v="Søndrestavvatn" />
		<tag k="place" v="isolated_dwelling" />
		<tag k="ssr:stedsnr" v="83853" />
	</node>
	<node lat="59.060966666340654" lon="7.4209333395366395" id="-31510">
		<tag k="historic" v="shieling" />
		<tag k="name" v="Nedre Øydeskarsstøyl" />
		<tag k="place" v="isolated_dwelling" />
		<tag k="ssr:stedsnr" v="84460" />
	</node>
	<node lat="59.06408055892851" lon="7.430708340761266" id="-31511">
		<tag k="historic" v="shieling" />
		<tag k="name" v="Hovden" />
		<tag k="place" v="isolated_dwelling" />
		<tag k="ssr:stedsnr" v="84466" />
	</node>
	<node lat="59.12099444769483" lon="7.715269437346179" id="-31514">
		<tag k="alt_name" v="Hellevasstøylen" />
		<tag k="historic" v="shieling" />
		<tag k="name" v="Heddevasstøyl" />
		<tag k="place" v="isolated_dwelling" />
		<tag k="ssr:stedsnr" v="84589" />
	</node>
	<node lat="59.22087499803423" lon="7.566533327577729" id="-31517">
		<tag k="historic" v="shieling" />
		<tag k="name" v="Joresdokki" />
		<tag k="place" v="isolated_dwelling" />
		<tag k="ssr:stedsnr" v="84637" />
	</node>
	<node lat="59.07647777807514" lon="7.4975027738866675" id="-31698">
		<tag k="name" v="Bergsenden" />
		<tag k="place" v="isolated_dwelling" />
		<tag k="ssr:stedsnr" v="122727" />
	</node>
	<node lat="59.0948499959978" lon="7.434675001725232" id="-31705">
		<tag k="historic" v="shieling" />
		<tag k="name" v="Årekroken" />
		<tag k="place" v="isolated_dwelling" />
		<tag k="ssr:stedsnr" v="122634" />
	</node>
	<node lat="59.13780555944093" lon="7.705213882086378" id="-31706">
		<tag k="alt_name" v="Fjøddestøylen" />
		<tag k="historic" v="shieling" />
		<tag k="name" v="Fjellstøyl" />
		<tag k="place" v="isolated_dwelling" />
		<tag k="ssr:stedsnr" v="122656" />
	</node>
	<node lat="59.241724997047804" lon="7.467997214868934" id="-31713">
		<tag k="name" v="Oveinang" />
		<tag k="place" v="hamlet" />
		<tag k="ssr:stedsnr" v="122938" />
	</node>
	<node lat="59.24940277396182" lon="7.48467778218702" id="-31714">
		<tag k="alt_name" v="Vodden" />
		<tag k="name" v="Vollen" />
		<tag k="place" v="farm" />
		<tag k="ssr:stedsnr" v="122940" />
	</node>
	<node lat="59.240741670362134" lon="7.468441668968352" id="-31715">
		<tag k="fixme" v="consider place=hamlet" />
		<tag k="name" v="Løyland" />
		<tag k="place" v="farm" />
		<tag k="ssr:stedsnr" v="122951" />
	</node>
	<node lat="59.23430832979963" lon="7.553130553474035" id="-31716">
		<tag k="fixme" v="consider place=hamlet" />
		<tag k="name" v="Rota" />
		<tag k="place" v="farm" />
		<tag k="ssr:stedsnr" v="122958" />
	</node>
	<node lat="59.238608333185695" lon="7.546500003721773" id="-31717">
		<tag k="name" v="Hommehaugen" />
		<tag k="place" v="farm" />
		<tag k="ssr:stedsnr" v="122959" />
	</node>
	<node lat="59.02774721925781" lon="7.442322228198424" id="-31722">
		<tag k="historic" v="shieling" />
		<tag k="name" v="Valestøyl" />
		<tag k="place" v="isolated_dwelling" />
		<tag k="ssr:stedsnr" v="123307" />
	</node>
	<node lat="59.31527777484229" lon="7.677627783498905" id="-31726">
		<tag k="historic" v="shieling" />
		<tag k="name" v="Fitbekk" />
		<tag k="place" v="isolated_dwelling" />
		<tag k="ssr:stedsnr" v="123553" />
	</node>
	<node lat="59.094038885907594" lon="7.34330000878662" id="-31729">
		<tag k="historic" v="shieling" />
		<tag k="name" v="Rennevasstøylen" />
		<tag k="place" v="isolated_dwelling" />
		<tag k="ssr:stedsnr" v="123682" />
	</node>
	<node lat="59.11956666454694" lon="7.51179999168043" id="-31732">
		<tag k="name" v="Mo" />
		<tag k="place" v="farm" />
		<tag k="ssr:stedsnr" v="123694" />
	</node>
	<node lat="59.26423888871019" lon="7.473530557592093" id="-31736">
		<tag k="name" v="Brokka" />
		<tag k="place" v="farm" />
		<tag k="ssr:stedsnr" v="123716" />
	</node>
	<node lat="59.06112222474739" lon="7.703475006039864" id="-31738">
		<tag k="alt_name" v="Nystøyl" />
		<tag k="historic" v="shieling" />
		<tag k="name" v="Nyestøyl" />
		<tag k="place" v="isolated_dwelling" />
		<tag k="ssr:stedsnr" v="123721" />
	</node>
	<node lat="59.27408661694718" lon="7.374919603188054" id="-31742">
		<tag k="alt_name" v="Geitestøyl" />
		<tag k="historic" v="shieling" />
		<tag k="loc_name" v="Geitestøylbui" />
		<tag k="name" v="Geitstøyl" />
		<tag k="old_name" v="Geitstøl" />
		<tag k="place" v="isolated_dwelling" />
		<tag k="ssr:stedsnr" v="123726" />
	</node>
	<node lat="59.04793888512092" lon="7.515030562534877" id="-31743">
		<tag k="name" v="Vassbotnen" />
		<tag k="place" v="isolated_dwelling" />
		<tag k="ssr:stedsnr" v="123727" />
	</node>
	<node lat="59.06982499737586" lon="7.265386117584002" id="-31746">
		<tag k="name" v="Kleivi" />
		<tag k="place" v="isolated_dwelling" />
		<tag k="ssr:stedsnr" v="123886" />
	</node>
	<node lat="59.242224997698244" lon="7.380077773333175" id="-31750">
		<tag k="historic" v="shieling" />
		<tag k="name" v="Reisstøyl" />
		<tag k="place" v="isolated_dwelling" />
		<tag k="ssr:stedsnr" v="123999" />
	</node>
	<node lat="59.331766666440956" lon="7.515502778173931" id="-31752">
		<tag k="name" v="Jørsbu" />
		<tag k="place" v="isolated_dwelling" />
		<tag k="ssr:stedsnr" v="143731" />
	</node>
	<node lat="59.350297225496696" lon="7.534450004424876" id="-31756">
		<tag k="alt_name" v="Reinstøyl" />
		<tag k="historic" v="shieling" />
		<tag k="name" v="Reinsstøyl" />
		<tag k="old_name" v="Reisstøl" />
		<tag k="place" v="isolated_dwelling" />
		<tag k="ssr:stedsnr" v="143759" />
	</node>
	<node lat="59.17835833466288" lon="7.477380555919225" id="-31767">
		<tag k="historic" v="shieling" />
		<tag k="name" v="Flottene" />
		<tag k="place" v="isolated_dwelling" />
		<tag k="ssr:stedsnr" v="143291" />
	</node>
	<node lat="59.261222220709705" lon="7.48997778195012" id="-31774">
		<tag k="name" v="Rygnestad" />
		<tag k="place" v="farm" />
		<tag k="ssr:stedsnr" v="143843" />
	</node>
	<node lat="59.17327499911803" lon="7.5492083340362885" id="-31782">
		<tag k="name" v="Goplebui" />
		<tag k="place" v="isolated_dwelling" />
		<tag k="ssr:stedsnr" v="144551" />
	</node>
	<node lat="59.071236113186416" lon="7.277494444763605" id="-31798">
		<tag k="alt_name" v="Bergsstøylen" />
		<tag k="historic" v="shieling" />
		<tag k="name" v="Bergstøylen" />
		<tag k="place" v="isolated_dwelling" />
		<tag k="ssr:stedsnr" v="144416" />
	</node>
	<node lat="59.08420278186422" lon="7.716877773228677" id="-31810">
		<tag k="historic" v="shieling" />
		<tag k="name" v="Svenes" />
		<tag k="place" v="isolated_dwelling" />
		<tag k="ssr:stedsnr" v="144618" />
	</node>
	<node lat="59.07890278083877" lon="7.718538885442186" id="-31811">
		<tag k="historic" v="shieling" />
		<tag k="name" v="Eisæ" />
		<tag k="place" v="isolated_dwelling" />
		<tag k="ssr:stedsnr" v="144621" />
	</node>
	<node lat="59.15335277775269" lon="7.5621583256916916" id="-31813">
		<tag k="historic" v="shieling" />
		<tag k="name" v="Nyestøyl" />
		<tag k="place" v="isolated_dwelling" />
		<tag k="ssr:stedsnr" v="144626" />
	</node>
	<node lat="59.07659444153944" lon="7.672213891833126" id="-31818">
		<tag k="name" v="Den lisle bui" />
		<tag k="place" v="isolated_dwelling" />
		<tag k="ssr:stedsnr" v="144647" />
	</node>
	<node lat="59.06934721992345" lon="7.501999994711767" id="-31835">
		<tag k="name" v="Storedalsbui" />
		<tag k="place" v="isolated_dwelling" />
		<tag k="ssr:stedsnr" v="144869" />
	</node>
	<node lat="59.21835277662963" lon="7.7312638864065715" id="-31836">
		<tag k="alt_name" v="Hovstøl" />
		<tag k="historic" v="shieling" />
		<tag k="loc_name" v="Hovstøyl" />
		<tag k="name" v="Håvestøyl" />
		<tag k="place" v="isolated_dwelling" />
		<tag k="ssr:stedsnr" v="144905" />
	</node>
	<node lat="59.034988885067364" lon="7.520844437174242" id="-31842">
		<tag k="name" v="Nyestøyl" />
		<tag k="place" v="locality" />
		<tag k="ssr:stedsnr" v="156540" />
	</node>
	<node lat="59.16363055139653" lon="7.534547221732596" id="-31998">
		<tag k="fixme" v="consider place=hamlet" />
		<tag k="name" v="Sandnes" />
		<tag k="place" v="farm" />
		<tag k="ssr:stedsnr" v="183592" />
	</node>
	<node lat="59.093452778335035" lon="7.535888894153731" id="-31999">
		<tag k="fixme" v="consider place=hamlet" />
		<tag k="name" v="Rysstad" />
		<tag k="place" v="village" />
		<tag k="ssr:stedsnr" v="183635" />
	</node>
	<node lat="59.22706166773551" lon="7.559673659200888" id="-32003">
		<tag k="name" v="Hoftuft" />
		<tag k="place" v="hamlet" />
		<tag k="ssr:stedsnr" v="183523" />
	</node>
	<node lat="59.13935833733985" lon="7.51607499112453" id="-32004">
		<tag k="name" v="Uppistog" />
		<tag k="place" v="farm" />
		<tag k="ssr:stedsnr" v="183534" />
	</node>
	<node lat="59.14933333542798" lon="7.584202784185502" id="-32009">
		<tag k="alt_name" v="Vindåsen" />
		<tag k="historic" v="shieling" />
		<tag k="name" v="Vindsåsen" />
		<tag k="place" v="isolated_dwelling" />
		<tag k="ssr:stedsnr" v="183550" />
	</node>
	<node lat="59.142752776833845" lon="7.376247223423852" id="-32010">
		<tag k="historic" v="shieling" />
		<tag k="name" v="Sandvasstøylen" />
		<tag k="place" v="isolated_dwelling" />
		<tag k="ssr:stedsnr" v="183564" />
	</node>
	<node lat="59.08277110104375" lon="7.403074888161835" id="-32016">
		<tag k="alt_name" v="Andarestøyl" />
		<tag k="name" v="Andarestøylen" />
		<tag k="place" v="locality" />
		<tag k="ssr:stedsnr" v="183756" />
	</node>
	<node lat="59.04032777995385" lon="7.446580552607954" id="-32019">
		<tag k="alt_name" v="Tjørnelii" />
		<tag k="historic" v="shieling" />
		<tag k="name" v="Tjørneli" />
		<tag k="place" v="isolated_dwelling" />
		<tag k="ssr:stedsnr" v="184254" />
	</node>
	<node lat="59.034436108512814" lon="7.552852773432491" id="-32020">
		<tag k="alt_name" v="Besteland, nedre;Besteland" />
		<tag k="name" v="Nedre Besteland" />
		<tag k="place" v="farm" />
		<tag k="ssr:stedsnr" v="184267" />
	</node>
	<node lat="59.18300000137036" lon="7.702316666916153" id="-32031">
		<tag k="alt_name" v="Neiretjørn" />
		<tag k="historic" v="shieling" />
		<tag k="name" v="Nedretjørn" />
		<tag k="place" v="isolated_dwelling" />
		<tag k="ssr:stedsnr" v="184627" />
	</node>
	<node lat="59.297447223133815" lon="7.687702774413471" id="-32033">
		<tag k="historic" v="shieling" />
		<tag k="name" v="Gullborgstøylen" />
		<tag k="old_name" v="Gulborgstølen" />
		<tag k="place" v="isolated_dwelling" />
		<tag k="ssr:stedsnr" v="184727" />
	</node>
	<node lat="59.0536083377168" lon="7.331191671332991" id="-32039">
		<tag k="historic" v="shieling" />
		<tag k="name" v="Urdevasstøylen" />
		<tag k="place" v="isolated_dwelling" />
		<tag k="ssr:stedsnr" v="184878" />
	</node>
	<node lat="59.334783336845845" lon="7.486025006654959" id="-32045">
		<tag k="historic" v="shieling" />
		<tag k="name" v="Byklestøyl" />
		<tag k="place" v="isolated_dwelling" />
		<tag k="ssr:stedsnr" v="204732" />
	</node>
	<node lat="59.33247222519317" lon="7.519044451247004" id="-32046">
		<tag k="name" v="Finnebu" />
		<tag k="place" v="isolated_dwelling" />
		<tag k="ssr:stedsnr" v="204751" />
	</node>
	<node lat="59.053086113522795" lon="7.373952784750318" id="-32053">
		<tag k="historic" v="shieling" />
		<tag k="name" v="Rapen" />
		<tag k="place" v="isolated_dwelling" />
		<tag k="ssr:stedsnr" v="205416" />
	</node>
	<node lat="59.09447500151333" lon="7.417730564001601" id="-32057">
		<tag k="historic" v="shieling" />
		<tag k="name" v="Uvedalen" />
		<tag k="place" v="isolated_dwelling" />
		<tag k="ssr:stedsnr" v="205451" />
	</node>
	<node lat="59.07322221846534" lon="7.533311114379345" id="-32088">
		<tag k="historic" v="shieling" />
		<tag k="name" v="Støyle" />
		<tag k="place" v="isolated_dwelling" />
		<tag k="ssr:stedsnr" v="205673" />
	</node>
	<node lat="59.22054999951366" lon="7.535391662429895" id="-32128">
		<tag k="name" v="Nordbø" />
		<tag k="place" v="farm" />
		<tag k="ssr:stedsnr" v="295253" />
	</node>
	<node lat="59.18630000125472" lon="7.496013886546535" id="-32277">
		<tag k="historic" v="shieling" />
		<tag k="name" v="Glotten" />
		<tag k="place" v="isolated_dwelling" />
		<tag k="ssr:stedsnr" v="305554" />
	</node>
	<node lat="59.30551388969926" lon="7.621241674996801" id="-32284">
		<tag k="alt_name" v="Hisskard" />
		<tag k="historic" v="shieling" />
		<tag k="loc_name" v="Hiskar" />
		<tag k="name" v="Hiskard" />
		<tag k="place" v="isolated_dwelling" />
		<tag k="ssr:stedsnr" v="305744" />
	</node>
	<node lat="59.08131111407366" lon="7.339080548476984" id="-32289">
		<tag k="historic" v="shieling" />
		<tag k="name" v="Videvad" />
		<tag k="place" v="isolated_dwelling" />
		<tag k="ssr:stedsnr" v="305937" />
	</node>
	<node lat="59.243824998037894" lon="7.400755556999662" id="-32291">
		<tag k="alt_name" v="Heddestøyl" />
		<tag k="historic" v="shieling" />
		<tag k="name" v="Hellestøyl" />
		<tag k="place" v="isolated_dwelling" />
		<tag k="ssr:stedsnr" v="305949" />
	</node>
	<node lat="59.07871666504828" lon="7.4122583385193135" id="-32305">
		<tag k="historic" v="shieling" />
		<tag k="name" v="Liestøyl" />
		<tag k="place" v="isolated_dwelling" />
		<tag k="ssr:stedsnr" v="326450" />
	</node>
	<node lat="59.22758699827994" lon="7.559509097430225" id="-32310">
		<tag k="fixme" v="consider place=hamlet" />
		<tag k="name" v="Nørdre Hoftuft" />
		<tag k="place" v="farm" />
		<tag k="ssr:stedsnr" v="326584" />
	</node>
	<node lat="59.16878888893505" lon="7.561247228172419" id="-32313">
		<tag k="historic" v="shieling" />
		<tag k="name" v="Løyning" />
		<tag k="place" v="isolated_dwelling" />
		<tag k="ssr:stedsnr" v="326542" />
	</node>
	<node lat="59.15894166367635" lon="7.50102777438922" id="-32318">
		<tag k="historic" v="shieling" />
		<tag k="name" v="Rosshovden" />
		<tag k="place" v="isolated_dwelling" />
		<tag k="ssr:stedsnr" v="326628" />
	</node>
	<node lat="59.10811110866037" lon="7.518961119882611" id="-32329">
		<tag k="fixme" v="consider place=hamlet" />
		<tag k="name" v="Hovet" />
		<tag k="place" v="farm" />
		<tag k="ssr:stedsnr" v="326781" />
	</node>
	<node lat="59.105313887638616" lon="7.4959500000465695" id="-32331">
		<tag k="name" v="Holti" />
		<tag k="place" v="farm" />
		<tag k="ssr:stedsnr" v="326787" />
	</node>
	<node lat="59.1170222264264" lon="7.498272230722901" id="-32332">
		<tag k="name" v="Bringe" />
		<tag k="place" v="farm" />
		<tag k="ssr:stedsnr" v="326791" />
	</node>
	<node lat="59.14701111290389" lon="7.56344721653157" id="-32334">
		<tag k="name" v="Krobui" />
		<tag k="place" v="isolated_dwelling" />
		<tag k="ssr:stedsnr" v="326592" />
	</node>
	<node lat="59.14538888471793" lon="7.559902781342063" id="-32335">
		<tag k="name" v="Løksåsen" />
		<tag k="place" v="isolated_dwelling" />
		<tag k="ssr:stedsnr" v="326593" />
	</node>
	<node lat="59.25298333502516" lon="7.186869440277327" id="-32360">
		<tag k="name" v="Blekkhytta" />
		<tag k="place" v="isolated_dwelling" />
		<tag k="ssr:stedsnr" v="330884" />
	</node>
	<node lat="59.17637500011713" lon="7.675636114657422" id="-32517">
		<tag k="alt_name" v="Timreviki" />
		<tag k="historic" v="shieling" />
		<tag k="name" v="Timberviksstøylen" />
		<tag k="place" v="isolated_dwelling" />
		<tag k="ssr:stedsnr" v="365625" />
	</node>
	<node lat="59.04439233595047" lon="7.557594708640698" id="-32518">
		<tag k="name" v="Bergheim" />
		<tag k="place" v="farm" />
		<tag k="ssr:stedsnr" v="365713" />
	</node>
	<node lat="59.068336112812084" lon="7.578499999429167" id="-32520">
		<tag k="fixme" v="consider place=hamlet" />
		<tag k="name" v="Straume" />
		<tag k="place" v="farm" />
		<tag k="ssr:stedsnr" v="365720" />
	</node>
	<node lat="59.33037222053839" lon="7.504350000221567" id="-32542">
		<tag k="name" v="Mjåbu" />
		<tag k="place" v="isolated_dwelling" />
		<tag k="ssr:stedsnr" v="366550" />
	</node>
	<node lat="59.114563890852494" lon="7.525986105433551" id="-32548">
		<tag k="name" v="Breiddal" />
		<tag k="place" v="farm" />
		<tag k="ssr:stedsnr" v="366645" />
	</node>
	<node lat="59.11040277537327" lon="7.524122224101021" id="-32549">
		<tag k="name" v="Hagen" />
		<tag k="place" v="farm" />
		<tag k="ssr:stedsnr" v="366647" />
	</node>
	<node lat="59.10462500081288" lon="7.50343055148994" id="-32551">
		<tag k="name" v="Mykjedalen" />
		<tag k="place" v="farm" />
		<tag k="ssr:stedsnr" v="366657" />
	</node>
	<node lat="59.26186944633697" lon="7.676738884663621" id="-32553">
		<tag k="historic" v="shieling" />
		<tag k="name" v="Gjuvvasstøylen" />
		<tag k="old_name" v="Gjuvasstølen" />
		<tag k="place" v="isolated_dwelling" />
		<tag k="ssr:stedsnr" v="366671" />
	</node>
	<node lat="59.24868055600509" lon="7.477319442319133" id="-32556">
		<tag k="name" v="Flateland" />
		<tag k="place" v="hamlet" />
		<tag k="ssr:stedsnr" v="385264" />
	</node>
	<node lat="59.19108055461271" lon="7.507375003917592" id="-32564">
		<tag k="name" v="Neireberg" />
		<tag k="place" v="farm" />
		<tag k="ssr:stedsnr" v="386015" />
	</node>
	<node lat="59.277930552599365" lon="7.3910416681636875" id="-32566">
		<tag k="historic" v="shieling" />
		<tag k="name" v="Storestøyl" />
		<tag k="old_name" v="Storestøl" />
		<tag k="place" v="isolated_dwelling" />
		<tag k="ssr:stedsnr" v="386132" />
	</node>
	<node lat="59.23998611077288" lon="7.467455554072906" id="-32567">
		<tag k="name" v="Nordstog" />
		<tag k="place" v="farm" />
		<tag k="ssr:stedsnr" v="386296" />
	</node>
	<node lat="59.07150833313305" lon="7.40234999936892" id="-32575">
		<tag k="alt_name" v="Stuteli" />
		<tag k="historic" v="shieling" />
		<tag k="name" v="Heimre Stutelii" />
		<tag k="place" v="isolated_dwelling" />
		<tag k="ssr:stedsnr" v="386442" />
	</node>
	<node lat="59.127080559203854" lon="7.600244450627532" id="-32576">
		<tag k="historic" v="shieling" />
		<tag k="name" v="Nyestøyl" />
		<tag k="place" v="isolated_dwelling" />
		<tag k="ssr:stedsnr" v="386526" />
	</node>
	<node lat="59.169950004224845" lon="7.492927783961254" id="-32578">
		<tag k="historic" v="shieling" />
		<tag k="name" v="Eivindstøyl" />
		<tag k="place" v="isolated_dwelling" />
		<tag k="ssr:stedsnr" v="386539" />
	</node>
	<node lat="59.136675002322114" lon="7.513577783275331" id="-32579">
		<tag k="name" v="Ånishauge" />
		<tag k="place" v="farm" />
		<tag k="ssr:stedsnr" v="386541" />
	</node>
	<node lat="59.03296666566422" lon="7.509794436058958" id="-32583">
		<tag k="historic" v="shieling" />
		<tag k="name" v="Håvestøyl" />
		<tag k="place" v="isolated_dwelling" />
		<tag k="ssr:stedsnr" v="386822" />
	</node>
	<node lat="59.246486113434386" lon="7.629588884884138" id="-32601">
		<tag k="name" v="Osen" />
		<tag k="place" v="isolated_dwelling" />
		<tag k="ssr:stedsnr" v="387380" />
	</node>
	<node lat="59.08224166616802" lon="7.692361110053051" id="-32611">
		<tag k="historic" v="shieling" />
		<tag k="name" v="Skarketjørnbui" />
		<tag k="place" v="isolated_dwelling" />
		<tag k="ssr:stedsnr" v="387638" />
	</node>
	<node lat="59.11693055665058" lon="7.688061106778384" id="-32772">
		<tag k="alt_name" v="Austre Lågestøyl" />
		<tag k="historic" v="shieling" />
		<tag k="name" v="Lågestøyl" />
		<tag k="place" v="isolated_dwelling" />
		<tag k="ssr:stedsnr" v="426665" />
	</node>
	<node lat="59.23877499562841" lon="7.431713884038439" id="-32778">
		<tag k="historic" v="shieling" />
		<tag k="name" v="Myrstøyl" />
		<tag k="place" v="isolated_dwelling" />
		<tag k="ssr:stedsnr" v="426956" />
	</node>
	<node lat="59.23800555173167" lon="7.603638887740921" id="-32779">
		<tag k="historic" v="shieling" />
		<tag k="name" v="Skori" />
		<tag k="place" v="isolated_dwelling" />
		<tag k="ssr:stedsnr" v="426963" />
	</node>
	<node lat="59.2585277784182" lon="7.464561110577643" id="-32787">
		<tag k="name" v="Hagen" />
		<tag k="place" v="farm" />
		<tag k="ssr:stedsnr" v="427673" />
	</node>
</osm>
