<?xml version="1.0" encoding="UTF-8"?>
<<<<<<< HEAD
<osm version="0.6" generator="osmapis">
	<node lat="59.287777778290014" lon="7.494169443087455" id="-23404">
		<tag k="name" v="Langemyr" />
		<tag k="natural" v="wetland" />
		<tag k="ssr:stedsnr" v="22901" />
	</node>
	<node lat="59.27484444066591" lon="7.490752786127712" id="-23407">
		<tag k="name" v="Kyrstein" />
		<tag k="natural" v="stone" />
		<tag k="ssr:stedsnr" v="22826" />
	</node>
	<node lat="59.277958335189176" lon="7.518077783983367" id="-23408">
		<tag k="name" v="Kaldslækjet" />
		<tag k="natural" v="wetland" />
		<tag k="ssr:stedsnr" v="22828" />
	</node>
	<node lat="59.09960833125383" lon="7.425091663618523" id="-23418">
		<tag k="name" v="Lægjemyran" />
		<tag k="natural" v="wetland" />
		<tag k="ssr:stedsnr" v="23541" />
	</node>
	<node lat="59.038336109080774" lon="7.454561102527808" id="-23419">
		<tag k="name" v="Merlaksteet" />
		<tag k="natural" v="wetland" />
		<tag k="ssr:stedsnr" v="23545" />
	</node>
	<node lat="59.24047500107355" lon="7.568711118330729" id="-23429">
		<tag k="name" v="Ungårsmyri" />
		<tag k="natural" v="wetland" />
		<tag k="ssr:stedsnr" v="23617" />
	</node>
	<node lat="59.16111944293231" lon="7.5115305634499885" id="-23433">
		<tag k="name" v="Trælskred" />
		<tag k="place" v="locality" />
		<tag k="ssr:stedsnr" v="23632" />
	</node>
	<node lat="59.07943055295412" lon="7.448397227002845" id="-23788">
		<tag k="landuse" v="meadow" />
		<tag k="name" v="Årebladet" />
		<tag k="ssr:stedsnr" v="83413" />
	</node>
	<node lat="59.33233888970294" lon="7.45390833218003" id="-23792">
		<tag k="name" v="Podden" />
		<tag k="natural" v="wetland" />
		<tag k="ssr:stedsnr" v="83192" />
	</node>
	<node lat="59.138602773775624" lon="7.517411116397504" id="-23800">
		<tag k="name" v="Holtet" />
		<tag k="place" v="locality" />
		<tag k="ssr:stedsnr" v="83508" />
	</node>
	<node lat="59.11865000052737" lon="7.530250006048282" id="-23801">
		<tag k="name" v="Båsberga" />
		<tag k="place" v="locality" />
		<tag k="ssr:stedsnr" v="83513" />
	</node>
	<node lat="59.03601944574262" lon="7.516516669576994" id="-23809">
		<tag k="name" v="Rota" />
		<tag k="place" v="locality" />
		<tag k="ssr:stedsnr" v="83831" />
	</node>
	<node lat="59.265147226455326" lon="7.383213894897972" id="-23841">
		<tag k="alt_name" v="Gjermundsbuløken" />
		<tag k="name" v="Gjermundsbuløkin" />
		<tag k="natural" v="wetland" />
		<tag k="old_name" v="Gjermundsbuløkjene" />
		<tag k="ssr:stedsnr" v="245662" />
	</node>
	<node lat="59.06370555713356" lon="7.434522225833583" id="-24006">
		<tag k="name" v="Hovdestea" />
		<tag k="place" v="locality" />
		<tag k="ssr:stedsnr" v="144478" />
	</node>
	<node lat="59.10638333159025" lon="7.423772224315821" id="-24009">
		<tag k="name" v="Goplesteinen" />
		<tag k="natural" v="stone" />
		<tag k="ssr:stedsnr" v="144497" />
	</node>
	<node lat="59.28958333245769" lon="7.480927771146298" id="-24136">
		<tag k="name" v="Langemyr" />
		<tag k="natural" v="wetland" />
		<tag k="ssr:stedsnr" v="184699" />
	</node>
	<node lat="59.04377500076171" lon="7.5015555584086" id="-24151">
		<tag k="name" v="Svinevassmyrane" />
		<tag k="natural" v="wetland" />
		<tag k="ssr:stedsnr" v="265852" />
	</node>
	<node lat="59.179605557690515" lon="7.478222216971785" id="-24161">
		<tag k="name" v="Stedi" />
		<tag k="natural" v="wetland" />
		<tag k="ssr:stedsnr" v="265341" />
	</node>
	<node lat="59.164027782018515" lon="7.48841667299318" id="-24162">
		<tag k="name" v="Stoa" />
		<tag k="place" v="locality" />
		<tag k="ssr:stedsnr" v="265345" />
	</node>
	<node lat="59.18677778172249" lon="7.466094440309162" id="-24169">
		<tag k="name" v="Tårungsgrøde" />
		<tag k="place" v="locality" />
		<tag k="ssr:stedsnr" v="265376" />
	</node>
	<node lat="59.084608331003686" lon="7.3827166744133645" id="-24175">
		<tag k="name" v="Ambjønnsteinan" />
		<tag k="natural" v="stone" />
		<tag k="ssr:stedsnr" v="265457" />
	</node>
	<node lat="59.072477775318816" lon="7.459458326683248" id="-24190">
		<tag k="landuse" v="quarry" />
		<tag k="name" v="Gruva" />
		<tag k="ssr:stedsnr" v="266426" />
	</node>
	<node lat="59.14863611081047" lon="7.576055547232167" id="-24233">
		<tag k="name" v="Forstøylsmyrane" />
		<tag k="place" v="locality" />
		<tag k="ssr:stedsnr" v="205599" />
	</node>
	<node lat="59.12656389290263" lon="7.626355557484643" id="-24239">
		<tag k="name" v="Grjotvassmyrane" />
		<tag k="natural" v="wetland" />
		<tag k="ssr:stedsnr" v="205748" />
	</node>
	<node lat="59.12304721967517" lon="7.619022218586322" id="-24240">
		<tag k="name" v="Stedjane" />
=======
<osm generator="osmapis" version="0.6">
	<node id="-555008" lat="59.1771666623" lon="7.49849721963">
		<tag k="alt_name" v="Skrivmyrin" />
		<tag k="name" v="Skrivmyran" />
		<tag k="natural" v="wetland" />
		<tag k="ssr:stedsnr" v="629525" />
	</node>
	<node id="-553978" lat="59.3095472196" lon="7.48795278393">
		<tag k="alt_name" v="Øybøleitet" />
		<tag k="name" v="Øybuleitet" />
		<tag k="natural" v="wetland" />
		<tag k="ssr:stedsnr" v="507763" />
	</node>
	<node id="-555000" lat="59.1357388864" lon="7.48631666247">
		<tag k="name" v="Nilsemyri" />
		<tag k="natural" v="wetland" />
		<tag k="ssr:stedsnr" v="629358" />
	</node>
	<node id="-555511" lat="59.1086166697" lon="7.56923888817">
		<tag k="name" v="Langemyr" />
		<tag k="natural" v="wetland" />
		<tag k="ssr:stedsnr" v="912661" />
	</node>
	<node id="-554992" lat="59.2871166693" lon="7.51881389677">
		<tag k="name" v="Kyrkja" />
		<tag k="natural" v="stone" />
		<tag k="ssr:stedsnr" v="628805" />
	</node>
	<node id="-553965" lat="59.2154583298" lon="7.56982778397">
		<tag k="name" v="Eptesetmyrane" />
		<tag k="natural" v="wetland" />
		<tag k="ssr:stedsnr" v="387618" />
	</node>
	<node id="-553964" lat="59.1451666634" lon="7.50581944887">
		<tag k="landuse" v="meadow" />
		<tag k="name" v="Kruslegrøde" />
		<tag k="ssr:stedsnr" v="387608" />
	</node>
	<node id="-556507" lat="59.0553805567" lon="7.56372500181">
		<tag k="name" v="Tjaberget" />
		<tag k="place" v="locality" />
		<tag k="ssr:stedsnr" v="83849" />
	</node>
	<node id="-556504" lat="59.0360194457" lon="7.51651666958">
		<tag k="name" v="Rota" />
		<tag k="place" v="locality" />
		<tag k="ssr:stedsnr" v="83831" />
	</node>
	<node id="-556493" lat="59.1186500005" lon="7.53025000605">
		<tag k="name" v="Båsberga" />
		<tag k="place" v="locality" />
		<tag k="ssr:stedsnr" v="83513" />
	</node>
	<node id="-556492" lat="59.1386027738" lon="7.5174111164">
		<tag k="name" v="Holtet" />
		<tag k="place" v="locality" />
		<tag k="ssr:stedsnr" v="83508" />
	</node>
	<node id="-556480" lat="59.1733166656" lon="7.51789444339">
		<tag k="name" v="Skurfe" />
		<tag k="place" v="locality" />
		<tag k="ssr:stedsnr" v="83496" />
	</node>
	<node id="-555455" lat="59.1352500032" lon="7.55774444551">
		<tag k="name" v="Gilsmyra" />
		<tag k="natural" v="wetland" />
		<tag k="ssr:stedsnr" v="751527" />
	</node>
	<node id="-556475" lat="59.3323388897" lon="7.45390833218">
		<tag k="name" v="Podden" />
		<tag k="natural" v="wetland" />
		<tag k="ssr:stedsnr" v="83192" />
	</node>
	<node id="-555450" lat="59.1704916663" lon="7.50829445213">
		<tag k="name" v="Mjåmyrene" />
		<tag k="natural" v="wetland" />
		<tag k="ssr:stedsnr" v="751514" />
	</node>
	<node id="-555447" lat="59.1913333298" lon="7.52261110558">
		<tag k="name" v="Harstadberg" />
		<tag k="place" v="locality" />
		<tag k="ssr:stedsnr" v="751021" />
	</node>
	<node id="-555944" lat="59.2721694434" lon="7.52964722245">
		<tag k="name" v="Myrane nordre" />
		<tag k="natural" v="wetland" />
		<tag k="ssr:stedsnr" v="932815" />
	</node>
	<node id="-555941" lat="59.3005555548" lon="7.44975277282">
		<tag k="name" v="Haugefet" />
		<tag k="natural" v="wetland" />
		<tag k="ssr:stedsnr" v="932242" />
	</node>
	<node id="-557475" lat="59.0323333318" lon="7.56031388647">
		<tag k="alt_name" v="Damestykki" />
		<tag k="name" v="Dammestykki" />
		<tag k="place" v="locality" />
		<tag k="ssr:stedsnr" v="326668" />
	</node>
	<node id="-557466" lat="59.115077775" lon="7.48447500695">
		<tag k="name" v="Espetveitsmyri" />
		<tag k="natural" v="wetland" />
		<tag k="ssr:stedsnr" v="326471" />
	</node>
	<node id="-553538" lat="59.2651472265" lon="7.3832138949">
		<tag k="alt_name" v="Gjermundsbuløken" />
		<tag k="name" v="Gjermundsbuløkin" />
		<tag k="natural" v="wetland" />
		<tag k="old_name" v="Gjermundsbuløkjene" />
		<tag k="ssr:stedsnr" v="245662" />
	</node>
	<node id="-556902" lat="59.2156416636" lon="7.55795832566">
		<tag k="name" v="Fjøddemyrane" />
>>>>>>> e1d4bc35ff8a6074a6f2e91616a996b547c36f15
		<tag k="natural" v="wetland" />
		<tag k="ssr:stedsnr" v="205752" />
	</node>
<<<<<<< HEAD
	<node lat="59.14156944807873" lon="7.522380549110047" id="-24245">
		<tag k="name" v="Homyr" />
=======
	<node id="-556900" lat="59.2118638887" lon="7.5070777817">
		<tag k="name" v="Skuggerjomyrane" />
>>>>>>> e1d4bc35ff8a6074a6f2e91616a996b547c36f15
		<tag k="natural" v="wetland" />
		<tag k="ssr:stedsnr" v="205642" />
	</node>
	<node lat="59.11641944353316" lon="7.512838882931291" id="-24250">
		<tag k="name" v="Ækra" />
		<tag k="place" v="locality" />
		<tag k="ssr:stedsnr" v="205803" />
	</node>
<<<<<<< HEAD
	<node lat="59.08954722373774" lon="7.553094441064652" id="-24256">
		<tag k="name" v="Kyrkjefet" />
		<tag k="place" v="locality" />
		<tag k="ssr:stedsnr" v="205985" />
	</node>
	<node lat="59.115452778224636" lon="7.587544445483339" id="-24257">
		<tag k="name" v="Sjågemyrane" />
		<tag k="natural" v="wetland" />
		<tag k="ssr:stedsnr" v="205993" />
	</node>
	<node lat="59.0717249977504" lon="7.285863892512557" id="-24406">
		<tag k="landuse" v="meadow" />
		<tag k="name" v="Pærsslåtte" />
		<tag k="ssr:stedsnr" v="265422" />
	</node>
	<node lat="59.175730551180386" lon="7.291702777342115" id="-24552">
		<tag k="name" v="Kolvassfiti" />
		<tag k="natural" v="wetland" />
		<tag k="ssr:stedsnr" v="305869" />
	</node>
	<node lat="59.28683888668005" lon="7.419877772006027" id="-24560">
=======
	<node id="-557403" lat="59.2828000033" lon="7.4018861041">
		<tag k="name" v="Gygri" />
		<tag k="natural" v="stone" />
		<tag k="ssr:stedsnr" v="325138" />
	</node>
	<node id="-557398" lat="59.2868388867" lon="7.41987777201">
>>>>>>> e1d4bc35ff8a6074a6f2e91616a996b547c36f15
		<tag k="name" v="Såmundsslåtta" />
		<tag k="natural" v="wetland" />
		<tag k="old_name" v="Sømundsslåtten" />
		<tag k="ssr:stedsnr" v="306676" />
	</node>
<<<<<<< HEAD
	<node lat="59.28280000330196" lon="7.401886104102412" id="-24561">
		<tag k="name" v="Gygri" />
		<tag k="natural" v="stone" />
		<tag k="ssr:stedsnr" v="325138" />
	</node>
	<node lat="59.11507777503511" lon="7.484475006945544" id="-24595">
		<tag k="name" v="Espetveitsmyri" />
		<tag k="natural" v="wetland" />
		<tag k="ssr:stedsnr" v="326471" />
	</node>
	<node lat="59.03233333176214" lon="7.560313886468307" id="-24606">
		<tag k="alt_name" v="Damestykki" />
		<tag k="name" v="Dammestykki" />
		<tag k="place" v="locality" />
		<tag k="ssr:stedsnr" v="326668" />
	</node>
	<node lat="59.22915074864577" lon="7.284657981449058" id="-24830">
		<tag k="name" v="Torolvsfonn" />
		<tag k="place" v="locality" />
		<tag k="ssr:stedsnr" v="365792" />
	</node>
	<node lat="59.251875002579276" lon="7.315900005518047" id="-24848">
		<tag k="name" v="Flottin" />
		<tag k="natural" v="wetland" />
		<tag k="ssr:stedsnr" v="366503" />
	</node>
	<node lat="59.26817777740019" lon="7.444316670145583" id="-24861">
		<tag k="name" v="Hestemyr" />
=======
	<node id="-556880" lat="59.2357305581" lon="7.58612222166">
		<tag k="alt_name" v="Skormyrana" />
		<tag k="name" v="Skormyrane" />
		<tag k="natural" v="wetland" />
		<tag k="ssr:stedsnr" v="144597" />
	</node>
	<node id="-557389" lat="59.1757305512" lon="7.29170277734">
		<tag k="name" v="Kolvassfiti" />
>>>>>>> e1d4bc35ff8a6074a6f2e91616a996b547c36f15
		<tag k="natural" v="wetland" />
		<tag k="ssr:stedsnr" v="366680" />
	</node>
<<<<<<< HEAD
	<node lat="59.09157777888623" lon="7.432802770879704" id="-24919">
		<tag k="name" v="Sitåsteigen" />
		<tag k="place" v="locality" />
		<tag k="ssr:stedsnr" v="386401" />
	</node>
	<node lat="59.11940555875976" lon="7.518211105229804" id="-24922">
		<tag k="name" v="Storemyr" />
		<tag k="place" v="locality" />
		<tag k="ssr:stedsnr" v="386523" />
	</node>
	<node lat="59.070672221641445" lon="7.564519442335156" id="-24939">
		<tag k="name" v="Godemyr" />
=======
	<node id="-556867" lat="59.233316664" lon="7.65558332645">
		<tag k="name" v="Ingeleiv" />
		<tag k="natural" v="stone" />
		<tag k="ssr:stedsnr" v="144558" />
	</node>
	<node id="-556865" lat="59.2339083358" lon="7.68854444908">
		<tag k="name" v="Bjorhola" />
>>>>>>> e1d4bc35ff8a6074a6f2e91616a996b547c36f15
		<tag k="natural" v="wetland" />
		<tag k="ssr:stedsnr" v="386850" />
	</node>
	<node lat="59.1451666633681" lon="7.505819448865958" id="-24959">
		<tag k="landuse" v="meadow" />
		<tag k="name" v="Kruslegrøde" />
		<tag k="ssr:stedsnr" v="387608" />
	</node>
<<<<<<< HEAD
	<node lat="59.215458329813785" lon="7.569827783970292" id="-24960">
		<tag k="name" v="Eptesetmyrane" />
		<tag k="natural" v="wetland" />
		<tag k="ssr:stedsnr" v="387618" />
	</node>
	<node lat="59.094605552931675" lon="7.441338890902249" id="-25168">
		<tag k="name" v="Finnen" />
		<tag k="natural" v="wetland" />
		<tag k="ssr:stedsnr" v="447382" />
	</node>
	<node lat="59.27464999873689" lon="7.516211110167378" id="-25174">
		<tag k="name" v="Stutsfet" />
=======
	<node id="-553792" lat="59.1819444478" lon="7.61611110397">
		<tag k="name" v="Åsmundssnipe" />
		<tag k="natural" v="stone" />
		<tag k="ssr:stedsnr" v="326717" />
	</node>
	<node id="-553791" lat="59.1998944455" lon="7.67615277518">
		<tag k="historic" v="shieling" />
		<tag k="name" v="Tirngota" />
		<tag k="place" v="locality" />
		<tag k="ssr:stedsnr" v="326713" />
	</node>
	<node id="-556853" lat="59.1063833316" lon="7.42377222432">
		<tag k="name" v="Goplesteinen" />
		<tag k="natural" v="stone" />
		<tag k="ssr:stedsnr" v="144497" />
	</node>
	<node id="-555836" lat="59.2146416657" lon="7.47053611084">
		<tag k="name" v="Flåssa" />
>>>>>>> e1d4bc35ff8a6074a6f2e91616a996b547c36f15
		<tag k="natural" v="wetland" />
		<tag k="ssr:stedsnr" v="447806" />
	</node>
<<<<<<< HEAD
	<node lat="59.30954721958392" lon="7.487952783934014" id="-25358">
		<tag k="alt_name" v="Øybøleitet" />
		<tag k="name" v="Øybuleitet" />
		<tag k="natural" v="wetland" />
		<tag k="ssr:stedsnr" v="507763" />
	</node>
	<node lat="59.05310833379269" lon="7.363519440250596" id="-25364">
		<tag k="name" v="Koturdi" />
		<tag k="natural" v="scree" />
		<tag k="ssr:stedsnr" v="508407" />
	</node>
	<node lat="59.10059166883024" lon="7.485249993973633" id="-25377">
		<tag k="name" v="Snippen" />
=======
	<node id="-556854" lat="59.037505556" lon="7.44046389054">
		<tag k="name" v="Breikroksteet" />
>>>>>>> e1d4bc35ff8a6074a6f2e91616a996b547c36f15
		<tag k="place" v="locality" />
		<tag k="ssr:stedsnr" v="508508" />
	</node>
<<<<<<< HEAD
	<node lat="59.29675353568254" lon="7.654056162194279" id="-25521">
		<tag k="historic" v="shieling" />
		<tag k="name" v="Vomskvæven" />
		<tag k="place" v="locality" />
		<tag k="ssr:stedsnr" v="548715" />
	</node>
	<node lat="59.339324997351554" lon="7.5371444426714405" id="-25531">
		<tag k="name" v="Storrstein" />
		<tag k="natural" v="stone" />
		<tag k="ssr:stedsnr" v="689740" />
	</node>
	<node lat="59.14443333141524" lon="7.452325004956658" id="-25547">
		<tag k="landuse" v="meadow" />
		<tag k="name" v="Tverrgrødde" />
		<tag k="ssr:stedsnr" v="690419" />
	</node>
	<node lat="59.14377222670233" lon="7.526519452190162" id="-25558">
		<tag k="name" v="Krossmyr" />
=======
	<node id="-553781" lat="59.142538885" lon="7.53104999594">
		<tag k="name" v="Doneberg" />
		<tag k="place" v="locality" />
		<tag k="ssr:stedsnr" v="326646" />
	</node>
	<node id="-555828" lat="59.0905055593" lon="7.52964722812">
		<tag k="name" v="Bjørnmyr" />
>>>>>>> e1d4bc35ff8a6074a6f2e91616a996b547c36f15
		<tag k="natural" v="wetland" />
		<tag k="ssr:stedsnr" v="690663" />
	</node>
<<<<<<< HEAD
	<node lat="59.175661110508884" lon="7.518622217804629" id="-25566">
		<tag k="name" v="Bekkjeberget" />
=======
	<node id="-556850" lat="59.0637055571" lon="7.43452222583">
		<tag k="name" v="Hovdestea" />
>>>>>>> e1d4bc35ff8a6074a6f2e91616a996b547c36f15
		<tag k="place" v="locality" />
		<tag k="ssr:stedsnr" v="690562" />
	</node>
<<<<<<< HEAD
	<node lat="59.146655552997444" lon="7.579033331865468" id="-25571">
		<tag k="name" v="Vindåsmyrane" />
		<tag k="natural" v="wetland" />
		<tag k="ssr:stedsnr" v="690621" />
	</node>
	<node lat="59.08431666827074" lon="7.562311109182031" id="-25582">
		<tag k="name" v="Storfit" />
=======
	<node id="-553777" lat="59.1672555587" lon="7.59527500205">
		<tag k="name" v="Flæun" />
>>>>>>> e1d4bc35ff8a6074a6f2e91616a996b547c36f15
		<tag k="place" v="locality" />
		<tag k="ssr:stedsnr" v="690981" />
	</node>
<<<<<<< HEAD
	<node lat="59.33110833680441" lon="7.492947222483773" id="-25598">
		<tag k="name" v="Reinemyrane" />
		<tag k="natural" v="wetland" />
		<tag k="ssr:stedsnr" v="567756" />
	</node>
	<node lat="59.12169166253926" lon="7.587425002534342" id="-25623">
		<tag k="alt_name" v="Krøylsstøylfeta" />
		<tag k="name" v="Krøysstøylfeta" />
		<tag k="place" v="locality" />
		<tag k="ssr:stedsnr" v="568527" />
	</node>
	<node lat="59.2342083342414" lon="7.546169435781819" id="-25624">
		<tag k="name" v="Neset" />
		<tag k="place" v="locality" />
		<tag k="ssr:stedsnr" v="568556" />
	</node>
	<node lat="59.22674444491533" lon="7.578327786068196" id="-25626">
		<tag k="name" v="Blåsemyri" />
		<tag k="natural" v="wetland" />
		<tag k="ssr:stedsnr" v="568565" />
	</node>
	<node lat="59.2871166693367" lon="7.518813896768798" id="-25792">
		<tag k="name" v="Kyrkja" />
		<tag k="natural" v="stone" />
		<tag k="ssr:stedsnr" v="628805" />
	</node>
	<node lat="59.13573888636909" lon="7.486316662467021" id="-25804">
		<tag k="name" v="Nilsemyri" />
=======
	<node id="-556168" lat="59.1891166679" lon="7.57947777703">
		<tag k="landuse" v="meadow" />
		<tag k="name" v="Libuteigen" />
		<tag k="ssr:stedsnr" v="23592" />
	</node>
	<node id="-554279" lat="59.1007333363" lon="7.74623888993">
		<tag k="landuse" v="quarry" />
		<tag k="name" v="Kongens gruve" />
		<tag k="ssr:stedsnr" v="448644" />
	</node>
	<node id="-557349" lat="59.1154527782" lon="7.58754444548">
		<tag k="name" v="Sjågemyrane" />
		<tag k="natural" v="wetland" />
		<tag k="ssr:stedsnr" v="205993" />
	</node>
	<node id="-557348" lat="59.0895472237" lon="7.55309444106">
		<tag k="name" v="Kyrkjefet" />
		<tag k="place" v="locality" />
		<tag k="ssr:stedsnr" v="205985" />
	</node>
	<node id="-556834" lat="59.3429583312" lon="7.56485000606">
		<tag k="name" v="Kotur" />
		<tag k="natural" v="scree" />
		<tag k="ssr:stedsnr" v="143769" />
	</node>
	<node id="-552991" lat="59.3451861067" lon="7.50775833136">
		<tag k="name" v="Tyrveviki" />
		<tag k="natural" v="wetland" />
		<tag k="ssr:stedsnr" v="83819" />
	</node>
	<node id="-556825" lat="59.0756027736" lon="7.42631389031">
		<tag k="landuse" v="meadow" />
		<tag k="name" v="Moslåtton" />
		<tag k="ssr:stedsnr" v="143399" />
	</node>
	<node id="-557334" lat="59.1230472197" lon="7.61902221859">
		<tag k="name" v="Stedjane" />
>>>>>>> e1d4bc35ff8a6074a6f2e91616a996b547c36f15
		<tag k="natural" v="wetland" />
		<tag k="ssr:stedsnr" v="629358" />
	</node>
<<<<<<< HEAD
	<node lat="59.1771666622588" lon="7.498497219628626" id="-25809">
		<tag k="alt_name" v="Skrivmyrin" />
		<tag k="name" v="Skrivmyran" />
=======
	<node id="-557333" lat="59.1265638929" lon="7.62635555748">
		<tag k="name" v="Grjotvassmyrane" />
>>>>>>> e1d4bc35ff8a6074a6f2e91616a996b547c36f15
		<tag k="natural" v="wetland" />
		<tag k="ssr:stedsnr" v="629525" />
	</node>
<<<<<<< HEAD
	<node lat="59.12191944569244" lon="7.539958325063763" id="-25810">
		<tag k="name" v="Sigersmyrane" />
		<tag k="natural" v="wetland" />
		<tag k="old_name" v="Sigersmyrana" />
		<tag k="ssr:stedsnr" v="629548" />
	</node>
	<node lat="59.089536109504145" lon="7.471208326450722" id="-25814">
		<tag k="name" v="Stavetjørnsmyrane" />
=======
	<node id="-555793" lat="59.2523194443" lon="7.54730278402">
		<tag k="name" v="Hegråmyrane" />
>>>>>>> e1d4bc35ff8a6074a6f2e91616a996b547c36f15
		<tag k="natural" v="wetland" />
		<tag k="ssr:stedsnr" v="629403" />
	</node>
<<<<<<< HEAD
	<node lat="59.09181944861018" lon="7.423838891704175" id="-25818">
		<tag k="name" v="Steinemyri" />
		<tag k="place" v="locality" />
		<tag k="ssr:stedsnr" v="629424" />
	</node>
	<node lat="59.07386944566634" lon="7.275738897427092" id="-25819">
		<tag k="loc_name" v="Jonsslåttet" />
		<tag k="name" v="Jons' slåtte" />
		<tag k="place" v="locality" />
		<tag k="ssr:stedsnr" v="629440" />
	</node>
	<node lat="59.0994000015658" lon="7.413727777865483" id="-25820">
		<tag k="name" v="Stigemyran" />
		<tag k="natural" v="wetland" />
		<tag k="ssr:stedsnr" v="629494" />
	</node>
	<node lat="59.036686114186615" lon="7.526386102437162" id="-25826">
		<tag k="name" v="Lunnemyri" />
		<tag k="natural" v="wetland" />
		<tag k="ssr:stedsnr" v="629841" />
	</node>
	<node lat="59.055833329620604" lon="7.565366670061616" id="-25827">
		<tag k="name" v="Heddessteinen" />
		<tag k="natural" v="stone" />
		<tag k="ssr:stedsnr" v="629854" />
	</node>
	<node lat="59.10937500302114" lon="7.566530549968417" id="-25831">
		<tag k="name" v="Stakkfet" />
		<tag k="natural" v="wetland" />
		<tag k="ssr:stedsnr" v="629748" />
	</node>
	<node lat="59.22273332932412" lon="7.553655558072421" id="-25836">
		<tag k="landuse" v="meadow" />
		<tag k="name" v="Tussehaugen" />
		<tag k="ssr:stedsnr" v="630612" />
	</node>
	<node lat="59.26531388702135" lon="7.573616660410151" id="-25957">
		<tag k="name" v="Rota" />
		<tag k="natural" v="wetland" />
		<tag k="ssr:stedsnr" v="689812" />
	</node>
	<node lat="59.31451388554746" lon="7.486563883708177" id="-25958">
		<tag k="name" v="Niklossismyrane" />
		<tag k="natural" v="wetland" />
		<tag k="ssr:stedsnr" v="689819" />
	</node>
	<node lat="59.180091669088455" lon="7.450566670924484" id="-25961">
		<tag k="name" v="Åsmundsholt" />
		<tag k="place" v="locality" />
		<tag k="ssr:stedsnr" v="690380" />
	</node>
	<node lat="59.08736666583455" lon="7.33857500749112" id="-25967">
		<tag k="alt_name" v="Steinslisttåttoni" />
		<tag k="name" v="Steinsliståttone" />
		<tag k="place" v="locality" />
		<tag k="ssr:stedsnr" v="690471" />
	</node>
	<node lat="59.110319440893136" lon="7.458127774530882" id="-25970">
		<tag k="name" v="Akslekjærr" />
		<tag k="natural" v="wetland" />
		<tag k="ssr:stedsnr" v="690500" />
	</node>
	<node lat="59.192386110238246" lon="7.565813896665806" id="-25978">
		<tag k="name" v="Sygardsmyran" />
		<tag k="natural" v="wetland" />
		<tag k="ssr:stedsnr" v="690587" />
	</node>
	<node lat="59.048516670239486" lon="7.56246665939453" id="-25987">
		<tag k="name" v="Varpet" />
		<tag k="natural" v="stone" />
		<tag k="ssr:stedsnr" v="690816" />
	</node>
	<node lat="59.2440888871891" lon="7.468225006525822" id="-26260">
		<tag k="name" v="Myri" />
		<tag k="natural" v="wetland" />
		<tag k="ssr:stedsnr" v="750276" />
	</node>
	<node lat="59.1913333298173" lon="7.522611105577813" id="-26269">
		<tag k="name" v="Harstadberg" />
		<tag k="place" v="locality" />
		<tag k="ssr:stedsnr" v="751021" />
	</node>
	<node lat="59.217852776966936" lon="7.474611110295311" id="-26270">
		<tag k="name" v="Raudekleiv" />
		<tag k="natural" v="wetland" />
		<tag k="ssr:stedsnr" v="751309" />
	</node>
	<node lat="59.17049166632699" lon="7.5082944521339305" id="-26278">
		<tag k="name" v="Mjåmyrene" />
=======
	<node id="-557840" lat="59.1387722191" lon="7.58029443698">
		<tag k="name" v="Kleivmyrane" />
		<tag k="natural" v="wetland" />
		<tag k="ssr:stedsnr" v="387535" />
	</node>
	<node id="-555277" lat="59.1168083342" lon="7.74333888978">
		<tag k="landuse" v="quarry" />
		<tag k="name" v="Straumsgruvene" />
		<tag k="ssr:stedsnr" v="730430" />
	</node>
	<node id="-557833" lat="59.0706722216" lon="7.56451944234">
		<tag k="name" v="Godemyr" />
		<tag k="natural" v="wetland" />
		<tag k="ssr:stedsnr" v="386850" />
	</node>
	<node id="-556808" lat="59.3021166671" lon="7.47408333366">
		<tag k="name" v="Borkebu" />
		<tag k="natural" v="wetland" />
		<tag k="ssr:stedsnr" v="143155" />
	</node>
	<node id="-557316" lat="59.1415694481" lon="7.52238054911">
		<tag k="name" v="Homyr" />
		<tag k="natural" v="wetland" />
		<tag k="ssr:stedsnr" v="205642" />
	</node>
	<node id="-557824" lat="59.3002388895" lon="7.50380556295">
		<tag k="name" v="Båsbakk" />
		<tag k="natural" v="wetland" />
		<tag k="ssr:stedsnr" v="386742" />
	</node>
	<node id="-554236" lat="59.282186111" lon="7.46191388448">
		<tag k="name" v="Svoda" />
		<tag k="place" v="locality" />
		<tag k="ssr:stedsnr" v="447136" />
	</node>
	<node id="-557302" lat="59.1486361108" lon="7.57605554723">
		<tag k="name" v="Forstøylsmyrane" />
		<tag k="place" v="locality" />
		<tag k="ssr:stedsnr" v="205599" />
	</node>
	<node id="-557812" lat="59.0915777789" lon="7.43280277088">
		<tag k="name" v="Sitåsteigen" />
		<tag k="place" v="locality" />
		<tag k="ssr:stedsnr" v="386401" />
	</node>
	<node id="-557337" lat="59.1164194435" lon="7.51283888293">
		<tag k="name" v="Ækra" />
		<tag k="place" v="locality" />
		<tag k="ssr:stedsnr" v="205803" />
	</node>
	<node id="-557807" lat="59.2430249963" lon="7.44370000816">
		<tag k="name" v="Neire Spanekjarret" />
		<tag k="natural" v="wetland" />
		<tag k="ssr:stedsnr" v="386293" />
	</node>
	<node id="-554732" lat="59.2267444449" lon="7.57832778607">
		<tag k="name" v="Blåsemyri" />
		<tag k="natural" v="wetland" />
		<tag k="ssr:stedsnr" v="568565" />
	</node>
	<node id="-554730" lat="59.2342083342" lon="7.54616943578">
		<tag k="name" v="Neset" />
		<tag k="place" v="locality" />
		<tag k="ssr:stedsnr" v="568556" />
	</node>
	<node id="-555815" lat="59.1050944478" lon="7.41351110792">
		<tag k="landuse" v="meadow" />
		<tag k="name" v="Gripemokjarret" />
		<tag k="ssr:stedsnr" v="872509" />
	</node>
	<node id="-557795" lat="59.2681777774" lon="7.44431667015">
		<tag k="name" v="Hestemyr" />
		<tag k="natural" v="wetland" />
		<tag k="ssr:stedsnr" v="366680" />
	</node>
	<node id="-557280" lat="59.087222224" lon="7.39634443633">
		<tag k="landuse" v="meadow" />
		<tag k="name" v="Løkjeslåtta" />
		<tag k="ssr:stedsnr" v="205484" />
	</node>
	<node id="-553509" lat="59.2666888875" lon="7.51643055068">
		<tag k="alt_name" v="Samslåttene" />
		<tag k="name" v="Samsslåtta" />
		<tag k="natural" v="wetland" />
		<tag k="old_name" v="Samsslåtto" />
		<tag k="ssr:stedsnr" v="447838" />
	</node>
	<node id="-557276" lat="59.0937305585" lon="7.44179165975">
		<tag k="name" v="Myran" />
		<tag k="natural" v="wetland" />
		<tag k="ssr:stedsnr" v="205458" />
	</node>
	<node id="-553559" lat="59.1275916634" lon="7.55066666522">
		<tag k="name" v="Holfumyrane" />
		<tag k="natural" v="wetland" />
		<tag k="ssr:stedsnr" v="448583" />
	</node>
	<node id="-553174" lat="59.0724777753" lon="7.45945832668">
		<tag k="landuse" v="quarry" />
		<tag k="name" v="Gruva" />
		<tag k="ssr:stedsnr" v="266426" />
	</node>
	<node id="-557776" lat="59.2518750026" lon="7.31590000552">
		<tag k="name" v="Flottin" />
		<tag k="natural" v="wetland" />
		<tag k="ssr:stedsnr" v="366503" />
	</node>
	<node id="-553933" lat="59.1194055588" lon="7.51821110523">
		<tag k="name" v="Storemyr" />
		<tag k="place" v="locality" />
		<tag k="ssr:stedsnr" v="386523" />
	</node>
	<node id="-556745" lat="59.2203805599" lon="7.12465278469">
		<tag k="name" v="Stormsteinen" />
		<tag k="natural" v="stone" />
		<tag k="ssr:stedsnr" v="122770" />
	</node>
	<node id="-557753" lat="59.2291507486" lon="7.28465798145">
		<tag k="name" v="Torolvsfonn" />
		<tag k="place" v="locality" />
		<tag k="ssr:stedsnr" v="365792" />
	</node>
	<node id="-555183" lat="59.3393249974" lon="7.53714444267">
		<tag k="name" v="Storrstein" />
		<tag k="natural" v="stone" />
		<tag k="ssr:stedsnr" v="689740" />
	</node>
	<node id="-557227" lat="59.2895833325" lon="7.48092777115">
		<tag k="name" v="Langemyr" />
		<tag k="natural" v="wetland" />
		<tag k="ssr:stedsnr" v="184699" />
	</node>
	<node id="-557224" lat="59.2722638873" lon="7.52600556216">
		<tag k="name" v="Ljomsfitjan" />
		<tag k="natural" v="wetland" />
		<tag k="ssr:stedsnr" v="184677" />
	</node>
	<node id="-553126" lat="59.084608331" lon="7.38271667441">
		<tag k="name" v="Ambjønnsteinan" />
		<tag k="natural" v="stone" />
		<tag k="ssr:stedsnr" v="265457" />
	</node>
	<node id="-553120" lat="59.0717249978" lon="7.28586389251">
		<tag k="landuse" v="meadow" />
		<tag k="name" v="Pærsslåtte" />
		<tag k="ssr:stedsnr" v="265422" />
	</node>
	<node id="-553114" lat="59.1867777817" lon="7.46609444031">
		<tag k="name" v="Tårungsgrøde" />
		<tag k="place" v="locality" />
		<tag k="ssr:stedsnr" v="265376" />
	</node>
	<node id="-555578" lat="59.2832555581" lon="7.46645277581">
		<tag k="name" v="Flæene" />
		<tag k="place" v="locality" />
		<tag k="ssr:stedsnr" v="932159" />
	</node>
	<node id="-556181" lat="59.1611194429" lon="7.51153056345">
		<tag k="name" v="Trælskred" />
		<tag k="place" v="locality" />
		<tag k="ssr:stedsnr" v="23632" />
	</node>
	<node id="-553107" lat="59.164027782" lon="7.48841667299">
		<tag k="name" v="Stoa" />
		<tag k="place" v="locality" />
		<tag k="ssr:stedsnr" v="265345" />
	</node>
	<node id="-553106" lat="59.1796055577" lon="7.47822221697">
		<tag k="name" v="Stedi" />
>>>>>>> e1d4bc35ff8a6074a6f2e91616a996b547c36f15
		<tag k="natural" v="wetland" />
		<tag k="ssr:stedsnr" v="751514" />
	</node>
<<<<<<< HEAD
	<node lat="59.190522219640926" lon="7.5878527796576885" id="-26283">
		<tag k="name" v="Lusemyr" />
=======
	<node id="-556174" lat="59.2404750011" lon="7.56871111833">
		<tag k="name" v="Ungårsmyri" />
>>>>>>> e1d4bc35ff8a6074a6f2e91616a996b547c36f15
		<tag k="natural" v="wetland" />
		<tag k="ssr:stedsnr" v="751570" />
	</node>
<<<<<<< HEAD
	<node lat="59.16173888522831" lon="7.591261106570378" id="-26286">
		<tag k="name" v="Svoin" />
		<tag k="place" v="locality" />
		<tag k="ssr:stedsnr" v="751580" />
	</node>
	<node lat="59.0422027814461" lon="7.554547215019242" id="-26308">
		<tag k="alt_name" v="Bruledbergi" />
		<tag k="name" v="Bruleberga" />
=======
	<node id="-554634" lat="59.0843166683" lon="7.56231110918">
		<tag k="name" v="Storfit" />
>>>>>>> e1d4bc35ff8a6074a6f2e91616a996b547c36f15
		<tag k="place" v="locality" />
		<tag k="ssr:stedsnr" v="751826" />
	</node>
<<<<<<< HEAD
	<node lat="59.29523889230528" lon="7.6581083283620766" id="-26465">
		<tag k="name" v="Vom" />
		<tag k="natural" v="wetland" />
		<tag k="ssr:stedsnr" v="913695" />
	</node>
	<node lat="59.10861666972842" lon="7.569238888167666" id="-26471">
		<tag k="name" v="Langemyr" />
		<tag k="natural" v="wetland" />
		<tag k="ssr:stedsnr" v="912661" />
	</node>
	<node lat="59.08555000315161" lon="7.425116670127608" id="-26496">
		<tag k="name" v="Krakkemyri" />
		<tag k="natural" v="wetland" />
		<tag k="ssr:stedsnr" v="811413" />
	</node>
	<node lat="59.136058334543584" lon="7.455419439810321" id="-26503">
		<tag k="landuse" v="meadow" />
		<tag k="name" v="Rundeslåtta" />
		<tag k="ssr:stedsnr" v="811338" />
	</node>
	<node lat="59.07682500348144" lon="7.473680550291662" id="-26505">
		<tag k="name" v="Rustin" />
		<tag k="place" v="locality" />
		<tag k="ssr:stedsnr" v="811387" />
	</node>
	<node lat="59.070872219800414" lon="7.300055550397213" id="-26506">
		<tag k="alt_name" v="Logbu" />
		<tag k="historic" v="shieling" />
		<tag k="name" v="Lognbru" />
		<tag k="place" v="locality" />
		<tag k="ssr:stedsnr" v="811391" />
	</node>
	<node lat="59.16731388689583" lon="7.552361116257481" id="-26509">
		<tag k="name" v="Skarmyri" />
=======
	<node id="-554120" lat="59.0945555586" lon="7.45443611864">
		<tag k="name" v="Surtemyrteigen" />
		<tag k="place" v="locality" />
		<tag k="ssr:stedsnr" v="568390" />
	</node>
	<node id="-554625" lat="59.0485166702" lon="7.56246665939">
		<tag k="name" v="Varpet" />
		<tag k="natural" v="stone" />
		<tag k="ssr:stedsnr" v="690816" />
	</node>
	<node id="-552576" lat="59.0009583331" lon="7.40213333105">
		<tag k="name" v="Smølekoltren" />
		<tag k="natural" v="wetland" />
		<tag k="ssr:stedsnr" v="34765" />
	</node>
	<node id="-553598" lat="59.0437750008" lon="7.50155555841">
		<tag k="name" v="Svinevassmyrane" />
		<tag k="natural" v="wetland" />
		<tag k="ssr:stedsnr" v="265852" />
	</node>
	<node id="-556156" lat="59.0383361091" lon="7.45456110253">
		<tag k="name" v="Merlaksteet" />
		<tag k="natural" v="wetland" />
		<tag k="ssr:stedsnr" v="23545" />
	</node>
	<node id="-556155" lat="59.0996083313" lon="7.42509166362">
		<tag k="name" v="Lægjemyran" />
		<tag k="natural" v="wetland" />
		<tag k="ssr:stedsnr" v="23541" />
	</node>
	<node id="-552565" lat="59.0531166692" lon="7.56372500309">
		<tag k="name" v="Goddokksteinen" />
		<tag k="natural" v="stone" />
		<tag k="ssr:stedsnr" v="23813" />
	</node>
	<node id="-554611" lat="59.1437722267" lon="7.52651945219">
		<tag k="name" v="Krossmyr" />
		<tag k="natural" v="wetland" />
		<tag k="ssr:stedsnr" v="690663" />
	</node>
	<node id="-555629" lat="59.2409472252" lon="7.53642500789">
		<tag k="name" v="Bronen" />
		<tag k="place" v="locality" />
		<tag k="ssr:stedsnr" v="933656" />
	</node>
	<node id="-554602" lat="59.146655553" lon="7.57903333187">
		<tag k="name" v="Vindåsmyrane" />
>>>>>>> e1d4bc35ff8a6074a6f2e91616a996b547c36f15
		<tag k="natural" v="wetland" />
		<tag k="ssr:stedsnr" v="811504" />
	</node>
<<<<<<< HEAD
	<node lat="59.26288055915615" lon="7.517050007603558" id="-26516">
		<tag k="name" v="Byklemyr" />
		<tag k="natural" v="wetland" />
		<tag k="ssr:stedsnr" v="811793" />
	</node>
	<node lat="59.069461109676055" lon="7.7629472220853915" id="-26523">
		<tag k="name" v="Sundmyrane" />
		<tag k="natural" v="wetland" />
		<tag k="ssr:stedsnr" v="812543" />
	</node>
	<node lat="59.12469166858879" lon="7.499352769604647" id="-26538">
		<tag k="name" v="Gaupestein" />
		<tag k="natural" v="stone" />
		<tag k="ssr:stedsnr" v="812605" />
	</node>
	<node lat="59.21680555559121" lon="7.548263888462011" id="-26552">
		<tag k="name" v="Prestækra" />
		<tag k="place" v="locality" />
		<tag k="ssr:stedsnr" v="812689" />
	</node>
	<node lat="59.211397221228474" lon="7.552144441189046" id="-26554">
		<tag k="name" v="Lauvåsmyri" />
=======
	<node id="-556817" lat="59.2414944451" lon="7.4369750023">
		<tag k="name" v="Evre Spanekjerret" />
		<tag k="natural" v="wetland" />
		<tag k="ssr:stedsnr" v="143290" />
	</node>
	<node id="-554590" lat="59.1756611105" lon="7.5186222178">
		<tag k="name" v="Bekkjeberget" />
		<tag k="place" v="locality" />
		<tag k="ssr:stedsnr" v="690562" />
	</node>
	<node id="-554597" lat="59.1923861102" lon="7.56581389667">
		<tag k="name" v="Sygardsmyran" />
		<tag k="natural" v="wetland" />
		<tag k="ssr:stedsnr" v="690587" />
	</node>
	<node id="-552538" lat="59.2877777783" lon="7.49416944309">
		<tag k="name" v="Langemyr" />
		<tag k="natural" v="wetland" />
		<tag k="ssr:stedsnr" v="22901" />
	</node>
	<node id="-552536" lat="59.2779583352" lon="7.51807778398">
		<tag k="name" v="Kaldslækjet" />
>>>>>>> e1d4bc35ff8a6074a6f2e91616a996b547c36f15
		<tag k="natural" v="wetland" />
		<tag k="ssr:stedsnr" v="812694" />
	</node>
<<<<<<< HEAD
	<node lat="59.04171944041972" lon="7.563155560666231" id="-26557">
		<tag k="name" v="Grjosøyren" />
		<tag k="place" v="locality" />
		<tag k="ssr:stedsnr" v="812806" />
	</node>
	<node lat="59.17653888695114" lon="7.482744449618473" id="-26729">
		<tag k="name" v="Lapriet" />
=======
	<node id="-552535" lat="59.2748444407" lon="7.49075278613">
		<tag k="name" v="Kyrstein" />
		<tag k="natural" v="stone" />
		<tag k="ssr:stedsnr" v="22826" />
	</node>
	<node id="-554582" lat="59.1103194409" lon="7.45812777453">
		<tag k="name" v="Akslekjærr" />
>>>>>>> e1d4bc35ff8a6074a6f2e91616a996b547c36f15
		<tag k="natural" v="wetland" />
		<tag k="ssr:stedsnr" v="872352" />
	</node>
<<<<<<< HEAD
	<node lat="59.28325555808968" lon="7.466452775814152" id="-26734">
		<tag k="name" v="Flæene" />
=======
	<node id="-554578" lat="59.0873666658" lon="7.33857500749">
		<tag k="alt_name" v="Steinslisttåttoni" />
		<tag k="name" v="Steinsliståttone" />
>>>>>>> e1d4bc35ff8a6074a6f2e91616a996b547c36f15
		<tag k="place" v="locality" />
		<tag k="ssr:stedsnr" v="932159" />
	</node>
<<<<<<< HEAD
	<node lat="59.25073611471375" lon="7.530327769861056" id="-26740">
		<tag k="name" v="På fjøddet" />
		<tag k="place" v="locality" />
		<tag k="ssr:stedsnr" v="932780" />
	</node>
	<node lat="59.19141389070445" lon="7.4866861146575285" id="-26748">
=======
	<node id="-555594" lat="59.1914138907" lon="7.48668611466">
>>>>>>> e1d4bc35ff8a6074a6f2e91616a996b547c36f15
		<tag k="name" v="Heddismyrane" />
		<tag k="natural" v="wetland" />
		<tag k="ssr:stedsnr" v="933354" />
	</node>
<<<<<<< HEAD
	<node lat="59.24094722524903" lon="7.536425007894554" id="-26773">
		<tag k="name" v="Bronen" />
=======
	<node id="-557495" lat="59.0800583307" lon="7.50461944887">
		<tag k="name" v="Steinestolen" />
		<tag k="natural" v="stone" />
		<tag k="ssr:stedsnr" v="326989" />
	</node>
	<node id="-552972" lat="59.110241666" lon="7.41375834061">
		<tag k="name" v="Tykkeholtteigen" />
		<tag k="place" v="locality" />
		<tag k="ssr:stedsnr" v="83456" />
	</node>
	<node id="-554566" lat="59.1444333314" lon="7.45232500496">
		<tag k="landuse" v="meadow" />
		<tag k="name" v="Tverrgrødde" />
		<tag k="ssr:stedsnr" v="690419" />
	</node>
	<node id="-555589" lat="59.2507361147" lon="7.53032776986">
		<tag k="name" v="På fjøddet" />
>>>>>>> e1d4bc35ff8a6074a6f2e91616a996b547c36f15
		<tag k="place" v="locality" />
		<tag k="ssr:stedsnr" v="933656" />
	</node>
<<<<<<< HEAD
	<node lat="59.23697499632075" lon="7.302963882702002" id="-26925">
		<tag k="name" v="Kvislin" />
		<tag k="natural" v="wetland" />
		<tag k="ssr:stedsnr" v="912787" />
	</node>
	<node lat="59.300555554758816" lon="7.449752772818568" id="-26935">
		<tag k="name" v="Haugefet" />
		<tag k="natural" v="wetland" />
		<tag k="ssr:stedsnr" v="932242" />
	</node>
	<node lat="59.2721694433557" lon="7.529647222450348" id="-26940">
		<tag k="name" v="Myrane nordre" />
		<tag k="natural" v="wetland" />
		<tag k="ssr:stedsnr" v="932815" />
	</node>
	<node lat="59.189116667879816" lon="7.5794777770302115" id="-27155">
		<tag k="landuse" v="meadow" />
		<tag k="name" v="Libuteigen" />
		<tag k="ssr:stedsnr" v="23592" />
	</node>
	<node lat="59.05311666921076" lon="7.563725003091367" id="-27197">
		<tag k="name" v="Goddokksteinen" />
		<tag k="natural" v="stone" />
		<tag k="ssr:stedsnr" v="23813" />
	</node>
	<node lat="59.00095833312728" lon="7.402133331046305" id="-27205">
		<tag k="name" v="Smølekoltren" />
		<tag k="natural" v="wetland" />
		<tag k="ssr:stedsnr" v="34765" />
	</node>
	<node lat="59.173316665590754" lon="7.517894443386936" id="-27403">
		<tag k="name" v="Skurfe" />
		<tag k="place" v="locality" />
		<tag k="ssr:stedsnr" v="83496" />
	</node>
	<node lat="59.13065277748039" lon="7.460813882431706" id="-27407">
		<tag k="historic" v="shieling" />
		<tag k="name" v="Øvstebu" />
		<tag k="place" v="locality" />
		<tag k="ssr:stedsnr" v="83355" />
	</node>
	<node lat="59.123366667312546" lon="7.4578833324417" id="-27410">
		<tag k="name" v="Brasstein" />
		<tag k="natural" v="stone" />
		<tag k="ssr:stedsnr" v="83373" />
	</node>
	<node lat="59.11024166596072" lon="7.413758340611249" id="-27412">
		<tag k="name" v="Tykkeholtteigen" />
=======
	<node id="-554562" lat="59.1800916691" lon="7.45056667092">
		<tag k="name" v="Åsmundsholt" />
		<tag k="place" v="locality" />
		<tag k="ssr:stedsnr" v="690380" />
	</node>
	<node id="-554045" lat="59.0642805536" lon="7.49174722694">
		<tag k="landuse" v="meadow" />
		<tag k="name" v="Skardet" />
		<tag k="ssr:stedsnr" v="509432" />
	</node>
	<node id="-554555" lat="59.3145138855" lon="7.48656388371">
		<tag k="name" v="Niklossismyrane" />
		<tag k="natural" v="wetland" />
		<tag k="ssr:stedsnr" v="689819" />
	</node>
	<node id="-554554" lat="59.265313887" lon="7.57361666041">
		<tag k="name" v="Rota" />
		<tag k="natural" v="wetland" />
		<tag k="ssr:stedsnr" v="689812" />
	</node>
	<node id="-554022" lat="59.2410222214" lon="7.56711944069">
		<tag k="name" v="Gråur" />
		<tag k="natural" v="wetland" />
		<tag k="ssr:stedsnr" v="508622" />
	</node>
	<node id="-554533" lat="59.2596888869" lon="7.51613888588">
		<tag k="alt_name" v="Dyresfitjan" />
		<tag k="name" v="Dyresfitjane" />
		<tag k="natural" v="wetland" />
		<tag k="ssr:stedsnr" v="508868" />
	</node>
	<node id="-555044" lat="59.2227333293" lon="7.55365555807">
		<tag k="landuse" v="meadow" />
		<tag k="name" v="Tussehaugen" />
		<tag k="ssr:stedsnr" v="630612" />
	</node>
	<node id="-553505" lat="59.2746499987" lon="7.51621111017">
		<tag k="name" v="Stutsfet" />
		<tag k="natural" v="wetland" />
		<tag k="ssr:stedsnr" v="447806" />
	</node>
	<node id="-554527" lat="59.0574055595" lon="7.56966943844">
		<tag k="name" v="Langeste" />
>>>>>>> e1d4bc35ff8a6074a6f2e91616a996b547c36f15
		<tag k="place" v="locality" />
		<tag k="ssr:stedsnr" v="83456" />
	</node>
<<<<<<< HEAD
	<node lat="59.34518610670393" lon="7.507758331363019" id="-27428">
		<tag k="name" v="Tyrveviki" />
		<tag k="natural" v="wetland" />
		<tag k="ssr:stedsnr" v="83819" />
	</node>
	<node lat="59.33200277794167" lon="7.502175007348822" id="-27432">
=======
	<node id="-555035" lat="59.0558333296" lon="7.56536667006">
		<tag k="name" v="Heddessteinen" />
		<tag k="natural" v="stone" />
		<tag k="ssr:stedsnr" v="629854" />
	</node>
	<node id="-555545" lat="59.2952388923" lon="7.65810832836">
		<tag k="name" v="Vom" />
		<tag k="natural" v="wetland" />
		<tag k="ssr:stedsnr" v="913695" />
	</node>
	<node id="-552984" lat="59.3320027779" lon="7.50217500735">
>>>>>>> e1d4bc35ff8a6074a6f2e91616a996b547c36f15
		<tag k="name" v="Hestebeite" />
		<tag k="place" v="locality" />
		<tag k="ssr:stedsnr" v="83774" />
	</node>
<<<<<<< HEAD
	<node lat="59.05538055673707" lon="7.563725001808807" id="-27435">
		<tag k="name" v="Tjaberget" />
=======
	<node id="-552964" lat="59.1233666673" lon="7.45788333244">
		<tag k="name" v="Brasstein" />
		<tag k="natural" v="stone" />
		<tag k="ssr:stedsnr" v="83373" />
	</node>
	<node id="-554518" lat="59.1005916688" lon="7.48524999397">
		<tag k="name" v="Snippen" />
		<tag k="place" v="locality" />
		<tag k="ssr:stedsnr" v="508508" />
	</node>
	<node id="-557077" lat="59.2223499976" lon="7.53554444582">
		<tag k="landuse" v="meadow" />
		<tag k="name" v="Høssestøyl" />
		<tag k="ssr:stedsnr" v="174861" />
	</node>
	<node id="-555028" lat="59.1147888927" lon="7.52144722025">
		<tag k="name" v="Kreppin" />
>>>>>>> e1d4bc35ff8a6074a6f2e91616a996b547c36f15
		<tag k="place" v="locality" />
		<tag k="ssr:stedsnr" v="83849" />
	</node>
<<<<<<< HEAD
	<node lat="59.22038055992146" lon="7.12465278468532" id="-27645">
		<tag k="name" v="Stormsteinen" />
		<tag k="natural" v="stone" />
		<tag k="ssr:stedsnr" v="122770" />
	</node>
	<node lat="59.30211666707726" lon="7.474083333659078" id="-27694">
		<tag k="name" v="Borkebu" />
		<tag k="natural" v="wetland" />
		<tag k="ssr:stedsnr" v="143155" />
	</node>
	<node lat="59.241494445104195" lon="7.436975002301598" id="-27700">
		<tag k="name" v="Evre Spanekjerret" />
		<tag k="natural" v="wetland" />
		<tag k="ssr:stedsnr" v="143290" />
	</node>
	<node lat="59.07560277363166" lon="7.426313890309271" id="-27704">
		<tag k="landuse" v="meadow" />
		<tag k="name" v="Moslåtton" />
		<tag k="ssr:stedsnr" v="143399" />
	</node>
	<node lat="59.34295833115051" lon="7.564850006061254" id="-27710">
		<tag k="name" v="Kotur" />
		<tag k="natural" v="scree" />
		<tag k="ssr:stedsnr" v="143769" />
	</node>
	<node lat="59.23390833575832" lon="7.688544449076692" id="-27717">
		<tag k="name" v="Bjorhola" />
		<tag k="natural" v="wetland" />
		<tag k="ssr:stedsnr" v="144552" />
	</node>
	<node lat="59.233316663977135" lon="7.655583326454137" id="-27719">
		<tag k="name" v="Ingeleiv" />
		<tag k="natural" v="stone" />
		<tag k="ssr:stedsnr" v="144558" />
	</node>
	<node lat="59.03750555596073" lon="7.440463890540874" id="-27733">
		<tag k="name" v="Breikroksteet" />
		<tag k="place" v="locality" />
		<tag k="ssr:stedsnr" v="144508" />
	</node>
	<node lat="59.235730558133284" lon="7.586122221656302" id="-27741">
		<tag k="alt_name" v="Skormyrana" />
		<tag k="name" v="Skormyrane" />
		<tag k="natural" v="wetland" />
		<tag k="ssr:stedsnr" v="144597" />
	</node>
	<node lat="59.21186388866492" lon="7.5070777816966805" id="-27756">
		<tag k="name" v="Skuggerjomyrane" />
		<tag k="natural" v="wetland" />
		<tag k="ssr:stedsnr" v="144675" />
	</node>
	<node lat="59.215641663627196" lon="7.557958325663228" id="-27758">
		<tag k="name" v="Fjøddemyrane" />
		<tag k="natural" v="wetland" />
		<tag k="ssr:stedsnr" v="144683" />
	</node>
	<node lat="59.22234999764882" lon="7.535544445817624" id="-27867">
		<tag k="landuse" v="meadow" />
		<tag k="name" v="Høssestøyl" />
		<tag k="ssr:stedsnr" v="174861" />
	</node>
	<node lat="59.27226388731069" lon="7.526005562164977" id="-27971">
		<tag k="name" v="Ljomsfitjan" />
		<tag k="natural" v="wetland" />
		<tag k="ssr:stedsnr" v="184677" />
	</node>
	<node lat="59.09373055851102" lon="7.441791659750005" id="-27993">
		<tag k="name" v="Myran" />
		<tag k="natural" v="wetland" />
		<tag k="ssr:stedsnr" v="205458" />
	</node>
	<node lat="59.08722222395903" lon="7.396344436327531" id="-27994">
		<tag k="landuse" v="meadow" />
		<tag k="name" v="Løkjeslåtta" />
		<tag k="ssr:stedsnr" v="205484" />
	</node>
	<node lat="59.16725555873647" lon="7.595275002046033" id="-28254">
		<tag k="name" v="Flæun" />
		<tag k="place" v="locality" />
		<tag k="ssr:stedsnr" v="326634" />
	</node>
	<node lat="59.14253888502975" lon="7.531049995943449" id="-28258">
		<tag k="name" v="Doneberg" />
		<tag k="place" v="locality" />
		<tag k="ssr:stedsnr" v="326646" />
	</node>
	<node lat="59.199894445540146" lon="7.676152775175064" id="-28273">
		<tag k="historic" v="shieling" />
		<tag k="name" v="Tirngota" />
		<tag k="place" v="locality" />
		<tag k="ssr:stedsnr" v="326713" />
	</node>
	<node lat="59.181944447762" lon="7.61611110396906" id="-28274">
		<tag k="name" v="Åsmundssnipe" />
		<tag k="natural" v="stone" />
		<tag k="ssr:stedsnr" v="326717" />
	</node>
	<node lat="59.080058330680096" lon="7.504619448870997" id="-28289">
		<tag k="name" v="Steinestolen" />
		<tag k="natural" v="stone" />
		<tag k="ssr:stedsnr" v="326989" />
	</node>
	<node lat="59.24302499631057" lon="7.443700008162813" id="-28492">
		<tag k="name" v="Neire Spanekjarret" />
		<tag k="natural" v="wetland" />
		<tag k="ssr:stedsnr" v="386293" />
	</node>
	<node lat="59.30023888953284" lon="7.503805562948843" id="-28515">
		<tag k="name" v="Båsbakk" />
		<tag k="natural" v="wetland" />
		<tag k="ssr:stedsnr" v="386742" />
	</node>
	<node lat="59.138772219075285" lon="7.580294436982874" id="-28536">
		<tag k="name" v="Kleivmyrane" />
		<tag k="natural" v="wetland" />
		<tag k="ssr:stedsnr" v="387535" />
=======
	<node id="-555026" lat="59.1037305528" lon="7.51758333085">
		<tag k="name" v="Breieteig" />
		<tag k="place" v="locality" />
		<tag k="ssr:stedsnr" v="629764" />
	</node>
	<node id="-553487" lat="59.0946055529" lon="7.4413388909">
		<tag k="name" v="Finnen" />
		<tag k="natural" v="wetland" />
		<tag k="ssr:stedsnr" v="447382" />
	</node>
	<node id="-555022" lat="59.1567388897" lon="7.54893055477">
		<tag k="name" v="Saudalsmyra" />
		<tag k="natural" v="wetland" />
		<tag k="ssr:stedsnr" v="629620" />
	</node>
	<node id="-555021" lat="59.22709444" lon="7.53218610282">
		<tag k="name" v="Guddurd" />
		<tag k="natural" v="scree" />
		<tag k="ssr:stedsnr" v="629619" />
	</node>
	<node id="-554508" lat="59.0824972203" lon="7.42936389673">
		<tag k="name" v="Rotefjellsteigen" />
		<tag k="place" v="locality" />
		<tag k="ssr:stedsnr" v="508462" />
	</node>
	<node id="-553993" lat="59.0531083338" lon="7.36351944025">
		<tag k="name" v="Koturdi" />
		<tag k="natural" v="scree" />
		<tag k="ssr:stedsnr" v="508407" />
	</node>
	<node id="-552968" lat="59.079430553" lon="7.448397227">
		<tag k="landuse" v="meadow" />
		<tag k="name" v="Årebladet" />
		<tag k="ssr:stedsnr" v="83413" />
	</node>
	<node id="-555527" lat="59.2369749963" lon="7.3029638827">
		<tag k="name" v="Kvislin" />
		<tag k="natural" v="wetland" />
		<tag k="ssr:stedsnr" v="912787" />
	</node>
	<node id="-554502" lat="59.3226861114" lon="7.4943305557">
		<tag k="name" v="Ædansmyrane" />
		<tag k="natural" v="wetland" />
		<tag k="ssr:stedsnr" v="507862" />
	</node>
	<node id="-555012" lat="59.0895361095" lon="7.47120832645">
		<tag k="name" v="Stavetjørnsmyrane" />
		<tag k="natural" v="wetland" />
		<tag k="ssr:stedsnr" v="629403" />
>>>>>>> e1d4bc35ff8a6074a6f2e91616a996b547c36f15
	</node>
</osm>
