<?xml version="1.0" encoding="UTF-8"?>
<osm generator="osmapis" version="0.6">
	<node id="-548096" lat="59.0686861089" lon="7.3903277849">
		<tag k="ford" v="yes" />
		<tag k="name" v="Breielva" />
		<tag k="place" v="locality" />
		<tag k="ssr:stedsnr" v="23461" />
	</node>
	<node id="-546426" lat="59.1009138921" lon="7.47204444849">
		<tag k="bridge" v="yes" />
		<tag k="layer" v="1" />
		<tag k="name" v="Sagebrua" />
		<tag k="ssr:stedsnr" v="508507" />
	</node>
	<node id="-547705" lat="59.30318889" lon="7.47110277256">
		<tag k="ford" v="yes" />
		<tag k="name" v="Tveitvad" />
		<tag k="place" v="locality" />
		<tag k="ssr:stedsnr" v="872203" />
	</node>
	<node id="-547699" lat="59.2666916634" lon="7.56293889235">
		<tag k="highway" v="path" />
		<tag k="name" v="Lislerovekleiv" />
		<tag k="ssr:stedsnr" v="871821" />
	</node>
	<node id="-548847" lat="59.2436249962" lon="7.4764944427">
		<tag k="bridge" v="yes" />
		<tag k="layer" v="1" />
		<tag k="name" v="Flateland" />
		<tag k="ssr:stedsnr" v="168197" />
	</node>
	<node id="-548846" lat="59.1314333343" lon="7.51351666404">
		<tag k="bridge" v="yes" />
		<tag k="layer" v="1" />
		<tag k="name" v="Kåvenes" />
		<tag k="ssr:stedsnr" v="168195" />
	</node>
	<node id="-548845" lat="59.3430416639" lon="7.515247218">
		<tag k="bridge" v="yes" />
		<tag k="layer" v="1" />
		<tag k="name" v="Kjeholmen" />
		<tag k="ssr:stedsnr" v="168193" />
	</node>
	<node id="-548844" lat="59.3198944457" lon="7.49619444704">
		<tag k="bridge" v="yes" />
		<tag k="layer" v="1" />
		<tag k="name" v="Uglevåna" />
		<tag k="ssr:stedsnr" v="168163" />
	</node>
	<node id="-549415" lat="59.2137388923" lon="7.53245554812">
		<tag k="bridge" v="yes" />
		<tag k="layer" v="1" />
		<tag k="name" v="Valle" />
		<tag k="ssr:stedsnr" v="350154" />
	</node>
	<node id="-549250" lat="59.0436833319" lon="7.50363333973">
		<tag k="ford" v="yes" />
		<tag k="name" v="Svinevaet" />
		<tag k="place" v="locality" />
		<tag k="ssr:stedsnr" v="205849" />
	</node>
	<node id="-548838" lat="59.0819944408" lon="7.52003055942">
		<tag k="fixme" v="consider highway=path" />
		<tag k="highway" v="track" />
		<tag k="name" v="Haukedalsvegen" />
		<tag k="ssr:stedsnr" v="144988" />
	</node>
	<node id="-547556" lat="58.9702944428" lon="7.13463056217">
		<tag k="alt_name" v="Kvibruni, øvra" />
		<tag k="bridge" v="yes" />
		<tag k="layer" v="1" />
		<tag k="name" v="Øvra Kvibruni" />
		<tag k="ssr:stedsnr" v="938939" />
	</node>
	<node id="-548067" lat="59.1731000039" lon="7.53357500572">
		<tag k="highway" v="path" />
		<tag k="name" v="Stigen" />
		<tag k="ssr:stedsnr" v="23566" />
	</node>
	<node id="-544866" lat="59.1879527784" lon="7.51663333917">
		<tag k="name" v="Tjogotledet" />
		<tag k="place" v="locality" />
		<tag k="ssr:stedsnr" v="83017" />
	</node>
	<node id="-549344" lat="59.2329861112" lon="7.64833889169">
		<tag k="highway" v="path" />
		<tag k="name" v="Bispevegen" />
		<tag k="ssr:stedsnr" v="326546" />
	</node>
	<node id="-545118" lat="59.2289305529" lon="7.50019165949">
		<tag k="bridge" v="yes" />
		<tag k="layer" v="1" />
		<tag k="name" v="Dale" />
		<tag k="ssr:stedsnr" v="168207" />
	</node>
	<node id="-544475" lat="59.0387555522" lon="7.55626389581">
		<tag k="junction" v="yes" />
		<tag k="name" v="Krossled" />
		<tag k="place" v="locality" />
		<tag k="ssr:stedsnr" v="23827" />
	</node>
	<node id="-549775" lat="59.2709250015" lon="7.46540277805">
		<tag k="bridge" v="yes" />
		<tag k="layer" v="1" />
		<tag k="name" v="Veiå" />
		<tag k="ssr:stedsnr" v="411160" />
	</node>
	<node id="-548440" lat="59.0720750007" lon="7.39547499749">
		<tag k="bridge" v="yes" />
		<tag k="layer" v="1" />
		<tag k="name" v="Greini" />
		<tag k="ssr:stedsnr" v="107184" />
	</node>
	<node id="-548439" lat="59.2394972211" lon="7.53631666118">
		<tag k="bridge" v="yes" />
		<tag k="layer" v="1" />
		<tag k="name" v="Kvinåni" />
		<tag k="ssr:stedsnr" v="107177" />
	</node>
	<node id="-545366" lat="59.2085472181" lon="7.52891944914">
		<tag k="bridge" v="yes" />
		<tag k="layer" v="1" />
		<tag k="name" v="Sagneskar" />
		<tag k="ssr:stedsnr" v="228168" />
	</node>
	<node id="-548821" lat="59.0379027751" lon="7.55166388727">
		<tag k="highway" v="path" />
		<tag k="name" v="Sauevegen" />
		<tag k="ssr:stedsnr" v="144792" />
	</node>
	<node id="-546516" lat="59.1259972237" lon="7.51082777622">
		<tag k="landuse" v="industrial" />
		<tag k="name" v="Brokke kraftstasjon" />
		<tag k="power" v="plant" />
		<tag k="ssr:stedsnr" v="690641" />
	</node>
	<node id="-547555" lat="59.1955222206" lon="7.526838897">
		<tag k="bridge" v="yes" />
		<tag k="layer" v="1" />
		<tag k="name" v="Harstad" />
		<tag k="ssr:stedsnr" v="836164" />
	</node>
	<node id="-545871" lat="59.1461305534" lon="7.49838888401">
		<tag k="alt_name" v="Dalstøylvegen" />
		<tag k="highway" v="path" />
		<tag k="name" v="Dalsstøylvegen" />
		<tag k="ssr:stedsnr" v="387606" />
	</node>
	<node id="-546156" lat="59.1343750016" lon="7.40983889436">
		<tag k="highway" v="path" />
		<tag k="name" v="Førslevegen" />
		<tag k="ssr:stedsnr" v="447331" />
	</node>
	<node id="-549323" lat="59.1314138867" lon="7.48841944109">
		<tag k="highway" v="path" />
		<tag k="name" v="Takli-vegen" />
		<tag k="ssr:stedsnr" v="326364" />
	</node>
	<node id="-547530" lat="59.1784999985" lon="7.67582500818">
		<tag k="ford" v="yes" />
		<tag k="name" v="Austmannsvadet" />
		<tag k="place" v="locality" />
		<tag k="ssr:stedsnr" v="933724" />
	</node>
	<node id="-549409" lat="59.0096222198" lon="7.44227778044">
		<tag k="highway" v="path" />
		<tag k="name" v="Langelivegen" />
		<tag k="ssr:stedsnr" v="337801" />
	</node>
	<node id="-545859" lat="59.1083666647" lon="7.50963055498">
		<tag k="alt_name" v="Skagen" />
		<tag k="bridge" v="yes" />
		<tag k="layer" v="1" />
		<tag k="name" v="Skagen bro" />
		<tag k="ssr:stedsnr" v="386769" />
	</node>
	<node id="-544448" lat="59.1870027779" lon="7.49152777776">
		<tag k="ford" v="yes" />
		<tag k="name" v="Svinevad" />
		<tag k="place" v="locality" />
		<tag k="ssr:stedsnr" v="23012" />
	</node>
	<node id="-547104" lat="59.0954611081" lon="7.43752222294">
		<tag k="bridge" v="yes" />
		<tag k="layer" v="1" />
		<tag k="name" v="Furustøyl" />
		<tag k="ssr:stedsnr" v="714171" />
	</node>
	<node id="-547752" lat="59.0267250001" lon="7.53921666327">
		<tag k="man_made" v="cairn" />
		<tag k="name" v="Varden" />
		<tag k="place" v="locality" />
		<tag k="ssr:stedsnr" v="217131" />
	</node>
	<node id="-547103" lat="59.1915027779" lon="7.52169445134">
		<tag k="bridge" v="yes" />
		<tag k="layer" v="1" />
		<tag k="name" v="Hallands" />
		<tag k="ssr:stedsnr" v="714168" />
	</node>
	<node id="-545846" lat="59.1134916663" lon="7.48613055965">
		<tag k="ford" v="yes" />
		<tag k="name" v="Normannvadet" />
		<tag k="place" v="locality" />
		<tag k="ssr:stedsnr" v="386422" />
	</node>
	<node id="-549241" lat="59.0639027805" lon="7.58981943855">
		<tag k="fixme" v="consider highway=path" />
		<tag k="highway" v="track" />
		<tag k="name" v="Store sandbraut" />
		<tag k="ssr:stedsnr" v="205859" />
	</node>
	<node id="-547378" lat="59.1525166667" lon="7.49426667143">
		<tag k="name" v="Spranget" />
		<tag k="seamark:type" v="cable_submarine" />
		<tag k="ssr:stedsnr" v="751603" />
	</node>
	<node id="-544484" lat="59.238397221" lon="7.53585277193">
		<tag k="bridge" v="yes" />
		<tag k="layer" v="1" />
		<tag k="name" v="Homme" />
		<tag k="ssr:stedsnr" v="228200" />
	</node>
	<node id="-547369" lat="59.1775277815" lon="7.52062778423">
		<tag k="highway" v="path" />
		<tag k="name" v="Stigen" />
		<tag k="ssr:stedsnr" v="751544" />
	</node>
	<node id="-549416" lat="59.1457638881" lon="7.53990832985">
		<tag k="bridge" v="yes" />
		<tag k="layer" v="1" />
		<tag k="name" v="Kveaså søndre" />
		<tag k="ssr:stedsnr" v="350188" />
	</node>
	<node id="-545703" lat="59.181272226" lon="7.6964694371">
		<tag k="ford" v="yes" />
		<tag k="name" v="Austmannsvadet" />
		<tag k="place" v="locality" />
		<tag k="ssr:stedsnr" v="326721" />
	</node>
	<node id="-547110" lat="59.0338944414" lon="7.55036666855">
		<tag k="bridge" v="yes" />
		<tag k="layer" v="1" />
		<tag k="name" v="Bestland søndre" />
		<tag k="ssr:stedsnr" v="896209" />
	</node>
	<node id="-547109" lat="59.0341333366" lon="7.55078611785">
		<tag k="bridge" v="yes" />
		<tag k="layer" v="1" />
		<tag k="name" v="Besteland nordre" />
		<tag k="ssr:stedsnr" v="896207" />
	</node>
	<node id="-547108" lat="59.0787888918" lon="7.5583638908">
		<tag k="bridge" v="yes" />
		<tag k="layer" v="1" />
		<tag k="name" v="Fjellskar" />
		<tag k="ssr:stedsnr" v="896205" />
	</node>
	<node id="-547107" lat="59.135433334" lon="7.52962222611">
		<tag k="bridge" v="yes" />
		<tag k="layer" v="1" />
		<tag k="name" v="Flåren" />
		<tag k="ssr:stedsnr" v="896204" />
	</node>
	<node id="-547106" lat="59.1994250041" lon="7.5303611146">
		<tag k="bridge" v="yes" />
		<tag k="layer" v="1" />
		<tag k="name" v="Neset" />
		<tag k="ssr:stedsnr" v="896158" />
	</node>
	<node id="-547105" lat="59.3475277755" lon="7.53422222495">
		<tag k="bridge" v="yes" />
		<tag k="layer" v="1" />
		<tag k="name" v="Reinåna" />
		<tag k="ssr:stedsnr" v="896156" />
	</node>
	<node id="-548128" lat="59.2014916642" lon="7.53180555732">
		<tag k="bridge" v="yes" />
		<tag k="layer" v="1" />
		<tag k="name" v="Viki" />
		<tag k="ssr:stedsnr" v="46169" />
	</node>
	<node id="-547999" lat="59.1675916623" lon="7.2834833381">
		<tag k="fixme" v="verify maritime location" />
		<tag k="mooring" v="yes" />
		<tag k="name" v="Guttormsto" />
		<tag k="place" v="locality" />
		<tag k="ssr:stedsnr" v="1832" />
	</node>
	<node id="-547742" lat="59.037466666" lon="7.5410722241">
		<tag k="junction" v="yes" />
		<tag k="name" v="Liekroken" />
		<tag k="place" v="locality" />
		<tag k="ssr:stedsnr" v="872825" />
	</node>
	<node id="-546460" lat="59.2537972188" lon="7.53445554978">
		<tag k="highway" v="path" />
		<tag k="name" v="Stigen" />
		<tag k="ssr:stedsnr" v="689776" />
	</node>
	<node id="-549414" lat="59.2836805512" lon="7.49873054917">
		<tag k="bridge" v="yes" />
		<tag k="layer" v="1" />
		<tag k="name" v="Veiåna" />
		<tag k="ssr:stedsnr" v="350153" />
	</node>
	<node id="-546199" lat="59.0372555545" lon="7.55079444973">
		<tag k="highway" v="path" />
		<tag k="name" v="Vetlevegen" />
		<tag k="ssr:stedsnr" v="448818" />
	</node>
	<node id="-548835" lat="59.0906638874" lon="7.52653610735">
		<tag k="highway" v="path" />
		<tag k="name" v="Kleivevegen" />
		<tag k="ssr:stedsnr" v="144975" />
	</node>
	<node id="-545539" lat="59.1195333292" lon="7.51277778531">
		<tag k="bridge" v="yes" />
		<tag k="layer" v="1" />
		<tag k="name" v="Nomeland" />
		<tag k="ssr:stedsnr" v="471167" />
	</node>
	<node id="-544920" lat="59.1129499974" lon="7.50843334155">
		<tag k="bridge" v="yes" />
		<tag k="layer" v="1" />
		<tag k="name" v="Rynningen" />
		<tag k="ssr:stedsnr" v="107127" />
	</node>
	<node id="-547725" lat="59.0992999971" lon="7.42659721488">
		<tag k="name" v="Lægjerinden" />
		<tag k="place" v="locality" />
		<tag k="ssr:stedsnr" v="872512" />
	</node>
	<node id="-544908" lat="59.0403166698" lon="7.45765000159">
		<tag k="ford" v="yes" />
		<tag k="name" v="Sandvaet" />
		<tag k="place" v="locality" />
		<tag k="ssr:stedsnr" v="84504" />
	</node>
	<node id="-549259" lat="59.0823527748" lon="7.51136111204">
		<tag k="highway" v="path" />
		<tag k="name" v="Bukseparet" />
		<tag k="ssr:stedsnr" v="205994" />
	</node>
	<node id="-549769" lat="59.0359916631" lon="7.52444166427">
		<tag k="ford" v="yes" />
		<tag k="name" v="Spranget" />
		<tag k="place" v="locality" />
		<tag k="ssr:stedsnr" v="398527" />
	</node>
	<node id="-549768" lat="59.0333888845" lon="7.51794167369">
		<tag k="highway" v="path" />
		<tag k="name" v="Vindsåsvegen" />
		<tag k="ssr:stedsnr" v="398521" />
	</node>
	<node id="-547847" lat="59.2572666668" lon="7.46710833126">
		<tag k="bridge" v="yes" />
		<tag k="layer" v="1" />
		<tag k="name" v="Mannebrui" />
		<tag k="ssr:stedsnr" v="932233" />
	</node>
	<node id="-546435" lat="59.1201305525" lon="7.60898333701">
		<tag k="ford" v="yes" />
		<tag k="name" v="Breieva" />
		<tag k="place" v="locality" />
		<tag k="ssr:stedsnr" v="508656" />
	</node>
	<node id="-545538" lat="59.0580694481" lon="7.37150278036">
		<tag k="bridge" v="yes" />
		<tag k="layer" v="1" />
		<tag k="name" v="Myklevatn" />
		<tag k="ssr:stedsnr" v="471165" />
	</node>
	<node id="-545537" lat="59.1085555511" lon="7.50384166362">
		<tag k="bridge" v="yes" />
		<tag k="layer" v="1" />
		<tag k="name" v="Nomeland" />
		<tag k="ssr:stedsnr" v="471161" />
	</node>
</osm>
