<?xml version="1.0" encoding="UTF-8"?>
<<<<<<< HEAD
<osm version="0.6" generator="osmapis">
	<node lat="59.30083288073233" lon="7.450049723340267" id="-23377">
		<tag k="name" v="Haugefit" />
		<tag k="place" v="locality" />
		<tag k="ssr:stedsnr" v="2711" />
	</node>
	<node lat="59.2734722196364" lon="7.461363895449426" id="-23773">
		<tag k="name" v="Rui" />
		<tag k="ssr:stedsnr" v="82143" />
		<tag k="tourism" v="attraction" />
	</node>
	<node lat="59.2843975664205" lon="7.508272118608803" id="-23845">
		<tag k="alt_name" v="Veiåsstøyl" />
		<tag k="name" v="Veiåstøylen" />
		<tag k="old_name" v="Veiåstølen" />
		<tag k="place" v="locality" />
		<tag k="ssr:stedsnr" v="245667" />
	</node>
	<node lat="59.273303916696875" lon="7.64642750507988" id="-23972">
		<tag k="name" v="Haugen" />
=======
<osm generator="osmapis" version="0.6">
	<node id="-552990" lat="59.0382750023" lon="7.55914166393">
		<tag k="name" v="Overroet" />
		<tag k="place" v="locality" />
		<tag k="ssr:stedsnr" v="83818" />
	</node>
	<node id="-557244" lat="59.3105972233" lon="7.48440832542">
		<tag k="name" v="Steinekorplet" />
		<tag k="place" v="locality" />
		<tag k="ssr:stedsnr" v="204137" />
	</node>
	<node id="-553772" lat="59.125741666" lon="7.5156305481">
		<tag k="name" v="Prestehytta" />
>>>>>>> e1d4bc35ff8a6074a6f2e91616a996b547c36f15
		<tag k="place" v="locality" />
		<tag k="ssr:stedsnr" v="123709" />
	</node>
<<<<<<< HEAD
	<node lat="59.12808272261822" lon="7.464817186030623" id="-23986">
		<tag k="alt_name" v="Nybu" />
		<tag k="name" v="Nyebu" />
		<tag k="place" v="locality" />
		<tag k="ssr:stedsnr" v="143313" />
	</node>
	<node lat="59.11785734757722" lon="7.581341090370293" id="-24115">
		<tag k="alt_name" v="Krullefeta" />
		<tag k="name" v="Krullefiti" />
		<tag k="place" v="locality" />
		<tag k="ssr:stedsnr" v="183653" />
	</node>
	<node lat="59.09809444764728" lon="7.416866667579907" id="-24170">
		<tag k="name" v="Stigemyrbui" />
		<tag k="place" v="locality" />
		<tag k="ssr:stedsnr" v="265490" />
	</node>
	<node lat="59.310597223267756" lon="7.484408325423511" id="-24207">
		<tag k="name" v="Steinekorplet" />
		<tag k="place" v="locality" />
		<tag k="ssr:stedsnr" v="204137" />
	</node>
	<node lat="59.12574166595878" lon="7.515630548096012" id="-24601">
		<tag k="name" v="Prestehytta" />
		<tag k="place" v="locality" />
		<tag k="ssr:stedsnr" v="326605" />
	</node>
	<node lat="59.118088893275306" lon="7.5442916603650305" id="-24933">
		<tag k="name" v="Kjimbelkistet" />
		<tag k="place" v="locality" />
		<tag k="ssr:stedsnr" v="386745" />
	</node>
	<node lat="59.11821944847472" lon="7.530041670455057" id="-24934">
		<tag k="name" v="Båsen" />
=======
	<node id="-554330" lat="59.0953749978" lon="7.53353888214">
		<tag k="amenity" v="place_of_worship" />
		<tag k="denomination" v="lutheran" />
		<tag k="fixme" v="multiple name tags, choose one and add the other to alt_name" />
		<tag k="name" v="Hylestad;Kyrkja" />
		<tag k="religion" v="christian" />
		<tag k="ssr:stedsnr" v="668766" />
	</node>
	<node id="-554553" lat="59.2895583365" lon="7.5126722182">
		<tag k="name" v="Upptaket" />
		<tag k="place" v="locality" />
		<tag k="ssr:stedsnr" v="689800" />
	</node>
	<node id="-554668" lat="59.2173861078" lon="7.54083610421">
		<tag k="name" v="Brureberget" />
		<tag k="place" v="locality" />
		<tag k="ssr:stedsnr" v="691665" />
	</node>
	<node id="-556471" lat="59.2734722196" lon="7.46136389545">
		<tag k="name" v="Rui" />
		<tag k="ssr:stedsnr" v="82143" />
		<tag k="tourism" v="attraction" />
	</node>
	<node id="-554663" lat="59.209630555" lon="7.53449166844">
		<tag k="alt_name" v="Valle" />
		<tag k="amenity" v="place_of_worship" />
		<tag k="denomination" v="lutheran" />
		<tag k="name" v="Valle kyrkje" />
		<tag k="religion" v="christian" />
		<tag k="ssr:stedsnr" v="691637" />
	</node>
	<node id="-555090" lat="59.2758869223" lon="7.64449886392">
		<tag k="name" v="Moen" />
>>>>>>> e1d4bc35ff8a6074a6f2e91616a996b547c36f15
		<tag k="place" v="locality" />
		<tag k="ssr:stedsnr" v="730717" />
	</node>
<<<<<<< HEAD
	<node lat="59.21793526964409" lon="7.69409959555172" id="-25136">
		<tag k="name" v="Rindebakken" />
=======
	<node id="-557825" lat="59.1180888933" lon="7.54429166037">
		<tag k="name" v="Kjimbelkistet" />
>>>>>>> e1d4bc35ff8a6074a6f2e91616a996b547c36f15
		<tag k="place" v="locality" />
		<tag k="ssr:stedsnr" v="426528" />
	</node>
<<<<<<< HEAD
	<node lat="59.183822220309374" lon="7.480663893410008" id="-25363">
		<tag k="name" v="Myrbu" />
		<tag k="place" v="locality" />
		<tag k="ssr:stedsnr" v="508344" />
	</node>
	<node lat="59.088175003929166" lon="7.4783138923287815" id="-25540">
		<tag k="name" v="Botnebui" />
		<tag k="place" v="locality" />
		<tag k="ssr:stedsnr" v="690442" />
	</node>
	<node lat="59.21738610784325" lon="7.540836104207656" id="-25594">
		<tag k="name" v="Brureberget" />
		<tag k="place" v="locality" />
		<tag k="ssr:stedsnr" v="691665" />
	</node>
	<node lat="59.28955833651914" lon="7.512672218196105" id="-25960">
		<tag k="name" v="Upptaket" />
		<tag k="place" v="locality" />
		<tag k="ssr:stedsnr" v="689800" />
	</node>
	<node lat="59.209630554969536" lon="7.534491668436265" id="-25995">
		<tag k="alt_name" v="Valle" />
		<tag k="amenity" v="place_of_worship" />
		<tag k="denomination" v="lutheran" />
		<tag k="name" v="Valle kyrkje" />
		<tag k="religion" v="christian" />
		<tag k="ssr:stedsnr" v="691637" />
	</node>
	<node lat="59.196723011243634" lon="7.441695029107254" id="-26114">
		<tag k="alt_name" v="Hengjebu" />
		<tag k="name" v="Hengjebui" />
		<tag k="place" v="locality" />
		<tag k="ssr:stedsnr" v="730568" />
	</node>
	<node lat="59.27588692225832" lon="7.644498863923605" id="-26121">
		<tag k="name" v="Moen" />
		<tag k="place" v="locality" />
		<tag k="ssr:stedsnr" v="730717" />
	</node>
	<node lat="59.12442777552086" lon="7.533988887215418" id="-26281">
		<tag k="name" v="Tereleiken" />
		<tag k="place" v="locality" />
		<tag k="ssr:stedsnr" v="751561" />
	</node>
	<node lat="59.135238887713506" lon="7.559505556286203" id="-26522">
		<tag k="name" v="Beileia" />
		<tag k="place" v="locality" />
		<tag k="ssr:stedsnr" v="812542" />
	</node>
	<node lat="59.06586944776564" lon="7.381277780420907" id="-26532">
		<tag k="name" v="Bilstadden" />
		<tag k="place" v="locality" />
		<tag k="ssr:stedsnr" v="812407" />
	</node>
	<node lat="59.10591492202464" lon="7.775775206425072" id="-27123">
=======
	<node id="-556111" lat="59.105914922" lon="7.77577520643">
>>>>>>> e1d4bc35ff8a6074a6f2e91616a996b547c36f15
		<tag k="name" v="Nedrekil" />
		<tag k="old_name" v="Kilstøl" />
		<tag k="place" v="locality" />
		<tag k="ssr:stedsnr" v="2461" />
	</node>
<<<<<<< HEAD
	<node lat="59.33402985526483" lon="7.485030219377708" id="-27124">
		<tag k="alt_name" v="Lislebustøylen" />
		<tag k="name" v="Lislebu" />
=======
	<node id="-555468" lat="59.1244277755" lon="7.53398888722">
		<tag k="name" v="Tereleiken" />
>>>>>>> e1d4bc35ff8a6074a6f2e91616a996b547c36f15
		<tag k="place" v="locality" />
		<tag k="ssr:stedsnr" v="2566" />
	</node>
<<<<<<< HEAD
	<node lat="59.08915000107943" lon="7.45221944421868" id="-27170">
		<tag k="name" v="Storestakksbui" />
		<tag k="place" v="locality" />
		<tag k="ssr:stedsnr" v="23449" />
	</node>
	<node lat="59.2173222184937" lon="7.533100005337158" id="-27191">
		<tag k="name" v="Kyrkjegarden" />
		<tag k="place" v="locality" />
		<tag k="ssr:stedsnr" v="23676" />
	</node>
	<node lat="59.09500092404365" lon="7.405020921968205" id="-27364">
		<tag k="name" v="Hommen" />
		<tag k="place" v="locality" />
		<tag k="ssr:stedsnr" v="62644" />
	</node>
	<node lat="59.07482221985986" lon="7.165597214803682" id="-27379">
		<tag k="name" v="Brokkesund" />
		<tag k="place" v="locality" />
		<tag k="ssr:stedsnr" v="62943" />
	</node>
	<node lat="59.038275002323395" lon="7.559141663932965" id="-27427">
		<tag k="name" v="Overroet" />
		<tag k="place" v="locality" />
		<tag k="ssr:stedsnr" v="83818" />
	</node>
	<node lat="59.27314444317572" lon="7.440247218348109" id="-27691">
=======
	<node id="-553995" lat="59.0723083334" lon="7.29218610818">
		<tag k="name" v="Svinehaugen" />
		<tag k="place" v="locality" />
		<tag k="ssr:stedsnr" v="508428" />
	</node>
	<node id="-554569" lat="59.0881750039" lon="7.47831389233">
		<tag k="name" v="Botnebui" />
		<tag k="place" v="locality" />
		<tag k="ssr:stedsnr" v="690442" />
	</node>
	<node id="-556840" lat="59.2633638916" lon="7.48889999503">
		<tag k="name" v="Setesdalsmuseet" />
		<tag k="ssr:stedsnr" v="143845" />
		<tag k="tourism" v="attraction" />
	</node>
	<node id="-554023" lat="59.1457361144" lon="7.52486944087">
		<tag k="name" v="Stoa" />
		<tag k="place" v="locality" />
		<tag k="ssr:stedsnr" v="508630" />
	</node>
	<node id="-556807" lat="59.2731444432" lon="7.44024721835">
>>>>>>> e1d4bc35ff8a6074a6f2e91616a996b547c36f15
		<tag k="name" v="Skorpetveit" />
		<tag k="ssr:stedsnr" v="143116" />
		<tag k="tourism" v="attraction" />
	</node>
<<<<<<< HEAD
	<node lat="59.2633638916342" lon="7.488899995030309" id="-27709">
		<tag k="name" v="Setesdalsmuseet" />
		<tag k="ssr:stedsnr" v="143845" />
		<tag k="tourism" v="attraction" />
	</node>
	<node lat="59.23927777524531" lon="7.641116670208772" id="-27718">
		<tag k="name" v="Heimstbu" />
		<tag k="place" v="locality" />
		<tag k="ssr:stedsnr" v="144553" />
	</node>
	<node lat="59.222902782175765" lon="7.616366666505215" id="-27720">
		<tag k="name" v="Den store bui" />
		<tag k="place" v="locality" />
		<tag k="ssr:stedsnr" v="144561" />
	</node>
	<node lat="59.06698972980588" lon="7.748960897895071" id="-28197">
		<tag k="name" v="Djupedalen" />
		<tag k="place" v="locality" />
		<tag k="ssr:stedsnr" v="304441" />
	</node>
	<node lat="59.23128548704448" lon="7.412750994155019" id="-28205">
		<tag k="name" v="Nutebu" />
		<tag k="place" v="locality" />
		<tag k="ssr:stedsnr" v="304943" />
	</node>
	<node lat="59.317281032170165" lon="7.603514581607515" id="-28718">
		<tag k="name" v="Grødet" />
		<tag k="place" v="locality" />
		<tag k="ssr:stedsnr" v="427522" />
=======
	<node id="-557826" lat="59.1182194485" lon="7.53004167046">
		<tag k="name" v="Båsen" />
		<tag k="place" v="locality" />
		<tag k="ssr:stedsnr" v="386746" />
	</node>
	<node id="-556203" lat="59.2173222185" lon="7.53310000534">
		<tag k="name" v="Kyrkjegarden" />
		<tag k="place" v="locality" />
		<tag k="ssr:stedsnr" v="23676" />
>>>>>>> e1d4bc35ff8a6074a6f2e91616a996b547c36f15
	</node>
</osm>
