<?xml version="1.0" encoding="UTF-8"?>
<osm version="0.6" generator="osmapis">
	<node lat="59.24655555436354" lon="9.251500008168891" id="-48904">
		<tag k="name" v="Lunnebruene" />
		<tag k="ssr:date" v="2019-12-27" />
		<tag k="ssr:gruppe" v="veg" />
		<tag k="ssr:hovedgruppe" v="infrastruktur" />
		<tag k="ssr:stedsnr" v="723984" />
		<tag k="ssr:type" v="vegstrekning" />
	</node>
	<node lat="59.279311113420526" lon="9.27087500676572" id="-49711">
		<tag k="name" v="Nome kommune" />
		<tag k="ssr:date" v="2019-12-27" />
		<tag k="ssr:gruppe" v="administrativeIndelinger" />
		<tag k="ssr:hovedgruppe" v="offentligAdministrasjon" />
		<tag k="ssr:stedsnr" v="449012" />
		<tag k="ssr:type" v="kommune" />
	</node>
	<node lat="59.28682222651014" lon="9.01150555577905" id="-50087">
		<tag k="name" v="Helleskleiv" />
		<tag k="ssr:date" v="2019-12-27" />
		<tag k="ssr:gruppe" v="veg" />
		<tag k="ssr:hovedgruppe" v="infrastruktur" />
		<tag k="ssr:stedsnr" v="752185" />
		<tag k="ssr:type" v="vegstrekning" />
	</node>
	<node lat="59.270780072169494" lon="9.261923688031551" id="-50368">
		<tag k="name" v="Nypevegen" />
		<tag k="ssr:date" v="2019-12-27" />
		<tag k="ssr:gruppe" v="veg" />
		<tag k="ssr:hovedgruppe" v="infrastruktur" />
		<tag k="ssr:stedsnr" v="1047647" />
		<tag k="ssr:type" v="adressenavn" />
	</node>
	<node lat="59.270278900711304" lon="9.262702877760498" id="-50369">
		<tag k="name" v="Kløvervegen" />
		<tag k="ssr:date" v="2019-12-27" />
		<tag k="ssr:gruppe" v="veg" />
		<tag k="ssr:hovedgruppe" v="infrastruktur" />
		<tag k="ssr:stedsnr" v="1047650" />
		<tag k="ssr:type" v="adressenavn" />
	</node>
	<node lat="59.270209142616686" lon="9.270863829570308" id="-50370">
		<tag k="name" v="Prestegårdsalleen" />
		<tag k="ssr:date" v="2019-12-27" />
		<tag k="ssr:gruppe" v="veg" />
		<tag k="ssr:hovedgruppe" v="infrastruktur" />
		<tag k="ssr:stedsnr" v="1047653" />
		<tag k="ssr:type" v="adressenavn" />
	</node>
	<node lat="59.272215946541785" lon="9.259279034783754" id="-50371">
		<tag k="name" v="Hagavegen" />
		<tag k="ssr:date" v="2019-12-27" />
		<tag k="ssr:gruppe" v="veg" />
		<tag k="ssr:hovedgruppe" v="infrastruktur" />
		<tag k="ssr:stedsnr" v="1047657" />
		<tag k="ssr:type" v="adressenavn" />
	</node>
	<node lat="59.2711946504528" lon="9.260835477209493" id="-50372">
		<tag k="name" v="Smedkåsa" />
		<tag k="ssr:date" v="2019-12-27" />
		<tag k="ssr:gruppe" v="veg" />
		<tag k="ssr:hovedgruppe" v="infrastruktur" />
		<tag k="ssr:stedsnr" v="1047661" />
		<tag k="ssr:type" v="adressenavn" />
	</node>
	<node lat="59.26975065513941" lon="9.260609656547832" id="-50373">
		<tag k="name" v="Myravegen" />
		<tag k="ssr:date" v="2019-12-27" />
		<tag k="ssr:gruppe" v="veg" />
		<tag k="ssr:hovedgruppe" v="infrastruktur" />
		<tag k="ssr:stedsnr" v="1047664" />
		<tag k="ssr:type" v="adressenavn" />
	</node>
	<node lat="59.27087963729823" lon="9.263707693918871" id="-50374">
		<tag k="name" v="Stubben" />
		<tag k="ssr:date" v="2019-12-27" />
		<tag k="ssr:gruppe" v="veg" />
		<tag k="ssr:hovedgruppe" v="infrastruktur" />
		<tag k="ssr:stedsnr" v="1047667" />
		<tag k="ssr:type" v="adressenavn" />
	</node>
	<node lat="59.274071080618356" lon="9.265302647364342" id="-50375">
		<tag k="name" v="Bjønnegrinda" />
		<tag k="ssr:date" v="2019-12-27" />
		<tag k="ssr:gruppe" v="veg" />
		<tag k="ssr:hovedgruppe" v="infrastruktur" />
		<tag k="ssr:stedsnr" v="1047670" />
		<tag k="ssr:type" v="adressenavn" />
	</node>
	<node lat="59.27129064389044" lon="9.26227366364637" id="-50376">
		<tag k="name" v="Greteslund" />
		<tag k="ssr:date" v="2019-12-27" />
		<tag k="ssr:gruppe" v="veg" />
		<tag k="ssr:hovedgruppe" v="infrastruktur" />
		<tag k="ssr:stedsnr" v="1047673" />
		<tag k="ssr:type" v="adressenavn" />
	</node>
	<node lat="59.27279507016762" lon="9.262278333949217" id="-50377">
		<tag k="name" v="Hekkvegen" />
		<tag k="ssr:date" v="2019-12-27" />
		<tag k="ssr:gruppe" v="veg" />
		<tag k="ssr:hovedgruppe" v="infrastruktur" />
		<tag k="ssr:stedsnr" v="1047676" />
		<tag k="ssr:type" v="adressenavn" />
	</node>
	<node lat="59.27434821410159" lon="9.25827529724999" id="-50378">
		<tag k="name" v="Engvegen" />
		<tag k="ssr:date" v="2019-12-27" />
		<tag k="ssr:gruppe" v="veg" />
		<tag k="ssr:hovedgruppe" v="infrastruktur" />
		<tag k="ssr:stedsnr" v="1047680" />
		<tag k="ssr:type" v="adressenavn" />
	</node>
	<node lat="59.27236131424195" lon="9.26051019001483" id="-50379">
		<tag k="name" v="Bergegata" />
		<tag k="ssr:date" v="2019-12-27" />
		<tag k="ssr:gruppe" v="veg" />
		<tag k="ssr:hovedgruppe" v="infrastruktur" />
		<tag k="ssr:stedsnr" v="1047683" />
		<tag k="ssr:type" v="adressenavn" />
	</node>
	<node lat="59.27391822326541" lon="9.258974032504122" id="-50380">
		<tag k="name" v="Neperud" />
		<tag k="ssr:date" v="2019-12-27" />
		<tag k="ssr:gruppe" v="veg" />
		<tag k="ssr:hovedgruppe" v="infrastruktur" />
		<tag k="ssr:stedsnr" v="1047737" />
		<tag k="ssr:type" v="adressenavn" />
	</node>
	<node lat="59.28389940106502" lon="9.263702628347941" id="-50381">
		<tag k="name" v="Bryggevegen" />
		<tag k="ssr:date" v="2019-12-27" />
		<tag k="ssr:gruppe" v="veg" />
		<tag k="ssr:hovedgruppe" v="infrastruktur" />
		<tag k="ssr:stedsnr" v="1047741" />
		<tag k="ssr:type" v="adressenavn" />
	</node>
	<node lat="59.28075222374996" lon="9.263793783312765" id="-50382">
		<tag k="name" v="Pilerødvegen" />
		<tag k="ssr:date" v="2019-12-27" />
		<tag k="ssr:gruppe" v="veg" />
		<tag k="ssr:hovedgruppe" v="infrastruktur" />
		<tag k="ssr:stedsnr" v="1047744" />
		<tag k="ssr:type" v="adressenavn" />
	</node>
	<node lat="59.279739249439515" lon="9.263268306548127" id="-50383">
		<tag k="name" v="Ekornrød" />
		<tag k="ssr:date" v="2019-12-27" />
		<tag k="ssr:gruppe" v="veg" />
		<tag k="ssr:hovedgruppe" v="infrastruktur" />
		<tag k="ssr:stedsnr" v="1047748" />
		<tag k="ssr:type" v="adressenavn" />
	</node>
	<node lat="59.27599248697463" lon="9.26445616536795" id="-50384">
		<tag k="name" v="Kirkebakken" />
		<tag k="ssr:date" v="2019-12-27" />
		<tag k="ssr:gruppe" v="veg" />
		<tag k="ssr:hovedgruppe" v="infrastruktur" />
		<tag k="ssr:stedsnr" v="1047752" />
		<tag k="ssr:type" v="adressenavn" />
	</node>
	<node lat="59.28068736323377" lon="9.266618596431098" id="-50385">
		<tag k="name" v="Arntsgate" />
		<tag k="ssr:date" v="2019-12-27" />
		<tag k="ssr:gruppe" v="veg" />
		<tag k="ssr:hovedgruppe" v="infrastruktur" />
		<tag k="ssr:stedsnr" v="1047755" />
		<tag k="ssr:type" v="adressenavn" />
	</node>
	<node lat="59.273325449161504" lon="9.287382340849234" id="-50386">
		<tag k="name" v="Søvevegen" />
		<tag k="ssr:date" v="2019-12-27" />
		<tag k="ssr:gruppe" v="veg" />
		<tag k="ssr:hovedgruppe" v="infrastruktur" />
		<tag k="ssr:stedsnr" v="1047758" />
		<tag k="ssr:type" v="adressenavn" />
	</node>
	<node lat="59.27746839155672" lon="9.266565903455643" id="-50387">
		<tag k="name" v="Tollastubben" />
		<tag k="ssr:date" v="2019-12-27" />
		<tag k="ssr:gruppe" v="veg" />
		<tag k="ssr:hovedgruppe" v="infrastruktur" />
		<tag k="ssr:stedsnr" v="1047761" />
		<tag k="ssr:type" v="adressenavn" />
	</node>
	<node lat="59.28216413375772" lon="9.25647828109605" id="-50388">
		<tag k="name" v="Lannavegen" />
		<tag k="ssr:date" v="2019-12-27" />
		<tag k="ssr:gruppe" v="veg" />
		<tag k="ssr:hovedgruppe" v="infrastruktur" />
		<tag k="ssr:stedsnr" v="1047686" />
		<tag k="ssr:type" v="adressenavn" />
	</node>
	<node lat="59.273865568878364" lon="9.259025128401028" id="-50389">
		<tag k="name" v="Helgeroa" />
		<tag k="ssr:date" v="2019-12-27" />
		<tag k="ssr:gruppe" v="veg" />
		<tag k="ssr:hovedgruppe" v="infrastruktur" />
		<tag k="ssr:stedsnr" v="1047690" />
		<tag k="ssr:type" v="adressenavn" />
	</node>
	<node lat="59.274964368795075" lon="9.264800218874257" id="-50390">
		<tag k="name" v="Øvre Taje" />
		<tag k="ssr:date" v="2019-12-27" />
		<tag k="ssr:gruppe" v="veg" />
		<tag k="ssr:hovedgruppe" v="infrastruktur" />
		<tag k="ssr:stedsnr" v="1047694" />
		<tag k="ssr:type" v="adressenavn" />
	</node>
	<node lat="59.274886966302546" lon="9.266552732434652" id="-50391">
		<tag k="name" v="Bjørnebærvegen" />
		<tag k="ssr:date" v="2019-12-27" />
		<tag k="ssr:gruppe" v="veg" />
		<tag k="ssr:hovedgruppe" v="infrastruktur" />
		<tag k="ssr:stedsnr" v="1047697" />
		<tag k="ssr:type" v="adressenavn" />
	</node>
	<node lat="59.2799770800189" lon="9.267194689043201" id="-50392">
		<tag k="name" v="Kåsa" />
		<tag k="ssr:date" v="2019-12-27" />
		<tag k="ssr:gruppe" v="veg" />
		<tag k="ssr:hovedgruppe" v="infrastruktur" />
		<tag k="ssr:stedsnr" v="1047700" />
		<tag k="ssr:type" v="adressenavn" />
	</node>
	<node lat="59.275859102276" lon="9.253971223009252" id="-50393">
		<tag k="name" v="Åkervegen" />
		<tag k="ssr:date" v="2019-12-27" />
		<tag k="ssr:gruppe" v="veg" />
		<tag k="ssr:hovedgruppe" v="infrastruktur" />
		<tag k="ssr:stedsnr" v="1047705" />
		<tag k="ssr:type" v="adressenavn" />
	</node>
	<node lat="59.27476030801785" lon="9.257660471267195" id="-50394">
		<tag k="name" v="Åslandvegen" />
		<tag k="ssr:date" v="2019-12-27" />
		<tag k="ssr:gruppe" v="veg" />
		<tag k="ssr:hovedgruppe" v="infrastruktur" />
		<tag k="ssr:stedsnr" v="1047707" />
		<tag k="ssr:type" v="adressenavn" />
	</node>
	<node lat="59.275350595456324" lon="9.257309252505392" id="-50395">
		<tag k="name" v="Apalvegen" />
		<tag k="ssr:date" v="2019-12-27" />
		<tag k="ssr:gruppe" v="veg" />
		<tag k="ssr:hovedgruppe" v="infrastruktur" />
		<tag k="ssr:stedsnr" v="1047710" />
		<tag k="ssr:type" v="adressenavn" />
	</node>
	<node lat="59.2754218976388" lon="9.254384566220875" id="-50396">
		<tag k="name" v="Vestjordet" />
		<tag k="ssr:date" v="2019-12-27" />
		<tag k="ssr:gruppe" v="veg" />
		<tag k="ssr:hovedgruppe" v="infrastruktur" />
		<tag k="ssr:stedsnr" v="1047713" />
		<tag k="ssr:type" v="adressenavn" />
	</node>
	<node lat="59.27639961473979" lon="9.257153174405223" id="-50397">
		<tag k="name" v="Aug. Cappelens veg" />
		<tag k="ssr:date" v="2019-12-27" />
		<tag k="ssr:gruppe" v="veg" />
		<tag k="ssr:hovedgruppe" v="infrastruktur" />
		<tag k="ssr:stedsnr" v="1047715" />
		<tag k="ssr:type" v="adressenavn" />
	</node>
	<node lat="59.276174064345014" lon="9.257040000914584" id="-50398">
		<tag k="name" v="Snekkervegen" />
		<tag k="ssr:date" v="2019-12-27" />
		<tag k="ssr:gruppe" v="veg" />
		<tag k="ssr:hovedgruppe" v="infrastruktur" />
		<tag k="ssr:stedsnr" v="1047718" />
		<tag k="ssr:type" v="adressenavn" />
	</node>
	<node lat="59.27777786738328" lon="9.25701181545059" id="-50399">
		<tag k="name" v="Møllerstien" />
		<tag k="ssr:date" v="2019-12-27" />
		<tag k="ssr:gruppe" v="veg" />
		<tag k="ssr:hovedgruppe" v="infrastruktur" />
		<tag k="ssr:stedsnr" v="1047722" />
		<tag k="ssr:type" v="adressenavn" />
	</node>
	<node lat="59.276933568630064" lon="9.257156199591197" id="-50400">
		<tag k="name" v="Malervegen" />
		<tag k="ssr:date" v="2019-12-27" />
		<tag k="ssr:gruppe" v="veg" />
		<tag k="ssr:hovedgruppe" v="infrastruktur" />
		<tag k="ssr:stedsnr" v="1047724" />
		<tag k="ssr:type" v="adressenavn" />
	</node>
	<node lat="59.28216413375772" lon="9.25647828109605" id="-50401">
		<tag k="name" v="Kullhusbakken" />
		<tag k="ssr:date" v="2019-12-27" />
		<tag k="ssr:gruppe" v="veg" />
		<tag k="ssr:hovedgruppe" v="infrastruktur" />
		<tag k="ssr:stedsnr" v="1047726" />
		<tag k="ssr:type" v="adressenavn" />
	</node>
	<node lat="59.28155734778756" lon="9.265981759052805" id="-50402">
		<tag k="name" v="Bruksvegen" />
		<tag k="ssr:date" v="2019-12-27" />
		<tag k="ssr:gruppe" v="veg" />
		<tag k="ssr:hovedgruppe" v="infrastruktur" />
		<tag k="ssr:stedsnr" v="1047728" />
		<tag k="ssr:type" v="adressenavn" />
	</node>
	<node lat="59.2823392313901" lon="9.264709886845287" id="-50403">
		<tag k="name" v="Hollavegen" />
		<tag k="ssr:date" v="2019-12-27" />
		<tag k="ssr:gruppe" v="veg" />
		<tag k="ssr:hovedgruppe" v="infrastruktur" />
		<tag k="ssr:stedsnr" v="1047730" />
		<tag k="ssr:type" v="adressenavn" />
	</node>
	<node lat="59.27842440518291" lon="9.256487466196427" id="-50404">
		<tag k="name" v="Haugbakken" />
		<tag k="ssr:date" v="2019-12-27" />
		<tag k="ssr:gruppe" v="veg" />
		<tag k="ssr:hovedgruppe" v="infrastruktur" />
		<tag k="ssr:stedsnr" v="1047733" />
		<tag k="ssr:type" v="adressenavn" />
	</node>
	<node lat="59.276957650677815" lon="9.272593623614359" id="-50405">
		<tag k="name" v="Fritheim" />
		<tag k="ssr:date" v="2019-12-27" />
		<tag k="ssr:gruppe" v="veg" />
		<tag k="ssr:hovedgruppe" v="infrastruktur" />
		<tag k="ssr:stedsnr" v="1047787" />
		<tag k="ssr:type" v="adressenavn" />
	</node>
	<node lat="59.277383719380246" lon="9.269153501700538" id="-50406">
		<tag k="name" v="Gratishaugen" />
		<tag k="ssr:date" v="2019-12-27" />
		<tag k="ssr:gruppe" v="veg" />
		<tag k="ssr:hovedgruppe" v="infrastruktur" />
		<tag k="ssr:stedsnr" v="1047790" />
		<tag k="ssr:type" v="adressenavn" />
	</node>
	<node lat="59.276730981575824" lon="9.265889957129042" id="-50407">
		<tag k="name" v="Setrekåsene" />
		<tag k="ssr:date" v="2019-12-27" />
		<tag k="ssr:gruppe" v="veg" />
		<tag k="ssr:hovedgruppe" v="infrastruktur" />
		<tag k="ssr:stedsnr" v="1047793" />
		<tag k="ssr:type" v="adressenavn" />
	</node>
	<node lat="59.276693102572445" lon="9.268925172715333" id="-50408">
		<tag k="name" v="Taje" />
		<tag k="ssr:date" v="2019-12-27" />
		<tag k="ssr:gruppe" v="veg" />
		<tag k="ssr:hovedgruppe" v="infrastruktur" />
		<tag k="ssr:stedsnr" v="1047796" />
		<tag k="ssr:type" v="adressenavn" />
	</node>
	<node lat="59.2769336628686" lon="9.2639983631379" id="-50409">
		<tag k="name" v="Kåsene" />
		<tag k="ssr:date" v="2019-12-27" />
		<tag k="ssr:gruppe" v="veg" />
		<tag k="ssr:hovedgruppe" v="infrastruktur" />
		<tag k="ssr:stedsnr" v="1047799" />
		<tag k="ssr:type" v="adressenavn" />
	</node>
	<node lat="59.27684766286333" lon="9.271896273278758" id="-50410">
		<tag k="name" v="Grevlingstien" />
		<tag k="ssr:date" v="2019-12-27" />
		<tag k="ssr:gruppe" v="veg" />
		<tag k="ssr:hovedgruppe" v="infrastruktur" />
		<tag k="ssr:stedsnr" v="1047803" />
		<tag k="ssr:type" v="adressenavn" />
	</node>
	<node lat="59.276863239297505" lon="9.269292244118208" id="-50411">
		<tag k="name" v="Hestekåsene" />
		<tag k="ssr:date" v="2019-12-27" />
		<tag k="ssr:gruppe" v="veg" />
		<tag k="ssr:hovedgruppe" v="infrastruktur" />
		<tag k="ssr:stedsnr" v="1047806" />
		<tag k="ssr:type" v="adressenavn" />
	</node>
	<node lat="59.27979878506217" lon="9.268783283570501" id="-50412">
		<tag k="name" v="Ringsveg" />
		<tag k="ssr:date" v="2019-12-27" />
		<tag k="ssr:gruppe" v="veg" />
		<tag k="ssr:hovedgruppe" v="infrastruktur" />
		<tag k="ssr:stedsnr" v="1047809" />
		<tag k="ssr:type" v="adressenavn" />
	</node>
	<node lat="59.27885420835237" lon="9.26867516747978" id="-50413">
		<tag k="name" v="Siljelivegen" />
		<tag k="ssr:date" v="2019-12-27" />
		<tag k="ssr:gruppe" v="veg" />
		<tag k="ssr:hovedgruppe" v="infrastruktur" />
		<tag k="ssr:stedsnr" v="1047813" />
		<tag k="ssr:type" v="adressenavn" />
	</node>
	<node lat="59.27030451567119" lon="9.29884719866954" id="-50414">
		<tag k="name" v="Rullekollvegen" />
		<tag k="ssr:date" v="2019-12-27" />
		<tag k="ssr:gruppe" v="veg" />
		<tag k="ssr:hovedgruppe" v="infrastruktur" />
		<tag k="ssr:stedsnr" v="1047838" />
		<tag k="ssr:type" v="adressenavn" />
	</node>
	<node lat="59.267992855276525" lon="9.300629114775015" id="-50415">
		<tag k="name" v="Tråholtvegen" />
		<tag k="ssr:date" v="2019-12-27" />
		<tag k="ssr:gruppe" v="veg" />
		<tag k="ssr:hovedgruppe" v="infrastruktur" />
		<tag k="ssr:stedsnr" v="1047841" />
		<tag k="ssr:type" v="adressenavn" />
	</node>
	<node lat="59.2808055939382" lon="9.274283647568547" id="-50416">
		<tag k="name" v="Sauheradvegen" />
		<tag k="ssr:date" v="2019-12-27" />
		<tag k="ssr:gruppe" v="veg" />
		<tag k="ssr:hovedgruppe" v="infrastruktur" />
		<tag k="ssr:stedsnr" v="1047844" />
		<tag k="ssr:type" v="adressenavn" />
	</node>
	<node lat="59.28256756450786" lon="9.267833002515513" id="-50417">
		<tag k="name" v="Stårrvegen" />
		<tag k="ssr:date" v="2019-12-27" />
		<tag k="ssr:gruppe" v="veg" />
		<tag k="ssr:hovedgruppe" v="infrastruktur" />
		<tag k="ssr:stedsnr" v="1047847" />
		<tag k="ssr:type" v="adressenavn" />
	</node>
	<node lat="59.28045498034394" lon="9.2688028273642" id="-50418">
		<tag k="name" v="Kaldekjeldevegen" />
		<tag k="ssr:date" v="2019-12-27" />
		<tag k="ssr:gruppe" v="veg" />
		<tag k="ssr:hovedgruppe" v="infrastruktur" />
		<tag k="ssr:stedsnr" v="1047851" />
		<tag k="ssr:type" v="adressenavn" />
	</node>
	<node lat="59.26440651527269" lon="9.256771136981701" id="-50419">
		<tag k="name" v="Gunnerudvegen" />
		<tag k="ssr:date" v="2019-12-27" />
		<tag k="ssr:gruppe" v="veg" />
		<tag k="ssr:hovedgruppe" v="infrastruktur" />
		<tag k="ssr:stedsnr" v="1047854" />
		<tag k="ssr:type" v="adressenavn" />
	</node>
	<node lat="59.28259554834999" lon="9.271113763271682" id="-50420">
		<tag k="name" v="Jernværksvegen" />
		<tag k="ssr:date" v="2019-12-27" />
		<tag k="ssr:gruppe" v="veg" />
		<tag k="ssr:hovedgruppe" v="infrastruktur" />
		<tag k="ssr:stedsnr" v="1047858" />
		<tag k="ssr:type" v="adressenavn" />
	</node>
	<node lat="59.2824852417914" lon="9.270462280349777" id="-50421">
		<tag k="name" v="Ulefossgata" />
		<tag k="ssr:date" v="2019-12-27" />
		<tag k="ssr:gruppe" v="veg" />
		<tag k="ssr:hovedgruppe" v="infrastruktur" />
		<tag k="ssr:stedsnr" v="1047862" />
		<tag k="ssr:type" v="adressenavn" />
	</node>
	<node lat="59.2945418109182" lon="9.26597076547925" id="-50422">
		<tag k="name" v="Kvernodden" />
		<tag k="ssr:date" v="2019-12-27" />
		<tag k="ssr:gruppe" v="veg" />
		<tag k="ssr:hovedgruppe" v="infrastruktur" />
		<tag k="ssr:stedsnr" v="1047866" />
		<tag k="ssr:type" v="adressenavn" />
	</node>
	<node lat="59.30066720927256" lon="9.262817484418882" id="-50423">
		<tag k="name" v="Hammerstadvegen" />
		<tag k="ssr:date" v="2019-12-27" />
		<tag k="ssr:gruppe" v="veg" />
		<tag k="ssr:hovedgruppe" v="infrastruktur" />
		<tag k="ssr:stedsnr" v="1047869" />
		<tag k="ssr:type" v="adressenavn" />
	</node>
	<node lat="59.29169994099883" lon="9.25830657847228" id="-50424">
		<tag k="name" v="Kastevegen" />
		<tag k="ssr:date" v="2019-12-27" />
		<tag k="ssr:gruppe" v="veg" />
		<tag k="ssr:hovedgruppe" v="infrastruktur" />
		<tag k="ssr:stedsnr" v="1047872" />
		<tag k="ssr:type" v="adressenavn" />
	</node>
	<node lat="59.29788089508637" lon="9.266093530537185" id="-50425">
		<tag k="name" v="Løkkabakken" />
		<tag k="ssr:date" v="2019-12-27" />
		<tag k="ssr:gruppe" v="veg" />
		<tag k="ssr:hovedgruppe" v="infrastruktur" />
		<tag k="ssr:stedsnr" v="1047875" />
		<tag k="ssr:type" v="adressenavn" />
	</node>
	<node lat="59.2824852417914" lon="9.270462280349777" id="-50426">
		<tag k="name" v="Øravegen" />
		<tag k="ssr:date" v="2019-12-27" />
		<tag k="ssr:gruppe" v="veg" />
		<tag k="ssr:hovedgruppe" v="infrastruktur" />
		<tag k="ssr:stedsnr" v="1047876" />
		<tag k="ssr:type" v="adressenavn" />
	</node>
	<node lat="59.272973426705434" lon="9.25810823098973" id="-50427">
		<tag k="name" v="Bergebakken" />
		<tag k="ssr:date" v="2019-12-27" />
		<tag k="ssr:gruppe" v="veg" />
		<tag k="ssr:hovedgruppe" v="infrastruktur" />
		<tag k="ssr:stedsnr" v="1047878" />
		<tag k="ssr:type" v="adressenavn" />
	</node>
	<node lat="59.28509959783098" lon="9.23451655904956" id="-50428">
		<tag k="name" v="Skolebakken" />
		<tag k="ssr:date" v="2019-12-27" />
		<tag k="ssr:gruppe" v="veg" />
		<tag k="ssr:hovedgruppe" v="infrastruktur" />
		<tag k="ssr:stedsnr" v="1047882" />
		<tag k="ssr:type" v="adressenavn" />
	</node>
	<node lat="59.27860141257357" lon="9.270717757614724" id="-50429">
		<tag k="name" v="Brattbakken" />
		<tag k="ssr:date" v="2019-12-27" />
		<tag k="ssr:gruppe" v="veg" />
		<tag k="ssr:hovedgruppe" v="infrastruktur" />
		<tag k="ssr:stedsnr" v="1047885" />
		<tag k="ssr:type" v="adressenavn" />
	</node>
	<node lat="59.28077208975958" lon="9.240264721451787" id="-50430">
		<tag k="name" v="Parkvegen" />
		<tag k="ssr:date" v="2019-12-27" />
		<tag k="ssr:gruppe" v="veg" />
		<tag k="ssr:hovedgruppe" v="infrastruktur" />
		<tag k="ssr:stedsnr" v="1047888" />
		<tag k="ssr:type" v="adressenavn" />
	</node>
	<node lat="59.279145213067515" lon="9.275718450381046" id="-50431">
		<tag k="name" v="Niobvegen" />
		<tag k="ssr:date" v="2019-12-27" />
		<tag k="ssr:gruppe" v="veg" />
		<tag k="ssr:hovedgruppe" v="infrastruktur" />
		<tag k="ssr:stedsnr" v="1047892" />
		<tag k="ssr:type" v="adressenavn" />
	</node>
	<node lat="59.275445326621906" lon="9.279839690079692" id="-50432">
		<tag k="name" v="Søvedalen" />
		<tag k="ssr:date" v="2019-12-27" />
		<tag k="ssr:gruppe" v="veg" />
		<tag k="ssr:hovedgruppe" v="infrastruktur" />
		<tag k="ssr:stedsnr" v="1047764" />
		<tag k="ssr:type" v="adressenavn" />
	</node>
	<node lat="59.279187293188826" lon="9.272652277545" id="-50433">
		<tag k="name" v="Ringsevja" />
		<tag k="ssr:date" v="2019-12-27" />
		<tag k="ssr:gruppe" v="veg" />
		<tag k="ssr:hovedgruppe" v="infrastruktur" />
		<tag k="ssr:stedsnr" v="1047766" />
		<tag k="ssr:type" v="adressenavn" />
	</node>
	<node lat="59.2759119603777" lon="9.279112165830641" id="-50434">
		<tag k="name" v="Ellandvegen" />
		<tag k="ssr:date" v="2019-12-27" />
		<tag k="ssr:gruppe" v="veg" />
		<tag k="ssr:hovedgruppe" v="infrastruktur" />
		<tag k="ssr:stedsnr" v="1047769" />
		<tag k="ssr:type" v="adressenavn" />
	</node>
	<node lat="59.278052724581805" lon="9.275297340341586" id="-50435">
		<tag k="name" v="Kanada" />
		<tag k="ssr:date" v="2019-12-27" />
		<tag k="ssr:gruppe" v="veg" />
		<tag k="ssr:hovedgruppe" v="infrastruktur" />
		<tag k="ssr:stedsnr" v="1047771" />
		<tag k="ssr:type" v="adressenavn" />
	</node>
	<node lat="59.27640941642593" lon="9.277021584435573" id="-50436">
		<tag k="name" v="Vesthagvegen" />
		<tag k="ssr:date" v="2019-12-27" />
		<tag k="ssr:gruppe" v="veg" />
		<tag k="ssr:hovedgruppe" v="infrastruktur" />
		<tag k="ssr:stedsnr" v="1047775" />
		<tag k="ssr:type" v="adressenavn" />
	</node>
	<node lat="59.275003865721246" lon="9.276686570397203" id="-50437">
		<tag k="name" v="Tverrgata" />
		<tag k="ssr:date" v="2019-12-27" />
		<tag k="ssr:gruppe" v="veg" />
		<tag k="ssr:hovedgruppe" v="infrastruktur" />
		<tag k="ssr:stedsnr" v="1047780" />
		<tag k="ssr:type" v="adressenavn" />
	</node>
	<node lat="59.27946288202153" lon="9.271288490445208" id="-50438">
		<tag k="name" v="Kamperhaug" />
		<tag k="ssr:date" v="2019-12-27" />
		<tag k="ssr:gruppe" v="veg" />
		<tag k="ssr:hovedgruppe" v="infrastruktur" />
		<tag k="ssr:stedsnr" v="1047784" />
		<tag k="ssr:type" v="adressenavn" />
	</node>
	<node lat="59.283142685679735" lon="9.253281742874666" id="-50439">
		<tag k="name" v="Romnesvegen" />
		<tag k="ssr:date" v="2019-12-27" />
		<tag k="ssr:gruppe" v="veg" />
		<tag k="ssr:hovedgruppe" v="infrastruktur" />
		<tag k="ssr:stedsnr" v="1047987" />
		<tag k="ssr:type" v="adressenavn" />
	</node>
	<node lat="59.28449972578525" lon="9.264649662400096" id="-50440">
		<tag k="name" v="Øvre Verket" />
		<tag k="ssr:date" v="2019-12-27" />
		<tag k="ssr:gruppe" v="veg" />
		<tag k="ssr:hovedgruppe" v="infrastruktur" />
		<tag k="ssr:stedsnr" v="1047990" />
		<tag k="ssr:type" v="adressenavn" />
	</node>
	<node lat="59.26815604213538" lon="9.260536044100773" id="-50441">
		<tag k="name" v="Granvegen" />
		<tag k="ssr:date" v="2019-12-27" />
		<tag k="ssr:gruppe" v="veg" />
		<tag k="ssr:hovedgruppe" v="infrastruktur" />
		<tag k="ssr:stedsnr" v="1047997" />
		<tag k="ssr:type" v="adressenavn" />
	</node>
	<node lat="59.27374029165603" lon="9.24668217514074" id="-50442">
		<tag k="name" v="Vinsåsvegen" />
		<tag k="ssr:date" v="2019-12-27" />
		<tag k="ssr:gruppe" v="veg" />
		<tag k="ssr:hovedgruppe" v="infrastruktur" />
		<tag k="ssr:stedsnr" v="1047999" />
		<tag k="ssr:type" v="adressenavn" />
	</node>
	<node lat="59.268011169154924" lon="9.257326513734144" id="-50443">
		<tag k="name" v="Hasselvegen" />
		<tag k="ssr:date" v="2019-12-27" />
		<tag k="ssr:gruppe" v="veg" />
		<tag k="ssr:hovedgruppe" v="infrastruktur" />
		<tag k="ssr:stedsnr" v="1048002" />
		<tag k="ssr:type" v="adressenavn" />
	</node>
	<node lat="59.267499125423925" lon="9.256577728048644" id="-50444">
		<tag k="name" v="Furuvegen" />
		<tag k="ssr:date" v="2019-12-27" />
		<tag k="ssr:gruppe" v="veg" />
		<tag k="ssr:hovedgruppe" v="infrastruktur" />
		<tag k="ssr:stedsnr" v="1048005" />
		<tag k="ssr:type" v="adressenavn" />
	</node>
	<node lat="59.269772090952344" lon="9.263008210538578" id="-50445">
		<tag k="name" v="Løvetannvegen" />
		<tag k="ssr:date" v="2019-12-27" />
		<tag k="ssr:gruppe" v="veg" />
		<tag k="ssr:hovedgruppe" v="infrastruktur" />
		<tag k="ssr:stedsnr" v="1048007" />
		<tag k="ssr:type" v="adressenavn" />
	</node>
	<node lat="59.26856522637153" lon="9.257377144945218" id="-50446">
		<tag k="name" v="Breskevegen" />
		<tag k="ssr:date" v="2019-12-27" />
		<tag k="ssr:gruppe" v="veg" />
		<tag k="ssr:hovedgruppe" v="infrastruktur" />
		<tag k="ssr:stedsnr" v="1048010" />
		<tag k="ssr:type" v="adressenavn" />
	</node>
	<node lat="59.27012509192856" lon="9.257352894757323" id="-50447">
		<tag k="name" v="Bjørkelia" />
		<tag k="ssr:date" v="2019-12-27" />
		<tag k="ssr:gruppe" v="veg" />
		<tag k="ssr:hovedgruppe" v="infrastruktur" />
		<tag k="ssr:stedsnr" v="1048015" />
		<tag k="ssr:type" v="adressenavn" />
	</node>
	<node lat="59.26909164330663" lon="9.257372660026407" id="-50448">
		<tag k="name" v="Seljevegen" />
		<tag k="ssr:date" v="2019-12-27" />
		<tag k="ssr:gruppe" v="veg" />
		<tag k="ssr:hovedgruppe" v="infrastruktur" />
		<tag k="ssr:stedsnr" v="1048020" />
		<tag k="ssr:type" v="adressenavn" />
	</node>
	<node lat="59.27396563043069" lon="9.258906228490696" id="-50449">
		<tag k="name" v="Herregårdsvegen" />
		<tag k="ssr:date" v="2019-12-27" />
		<tag k="ssr:gruppe" v="veg" />
		<tag k="ssr:hovedgruppe" v="infrastruktur" />
		<tag k="ssr:stedsnr" v="1048023" />
		<tag k="ssr:type" v="adressenavn" />
	</node>
	<node lat="59.269631046265694" lon="9.2573360987625" id="-50450">
		<tag k="name" v="Eikevegen" />
		<tag k="ssr:date" v="2019-12-27" />
		<tag k="ssr:gruppe" v="veg" />
		<tag k="ssr:hovedgruppe" v="infrastruktur" />
		<tag k="ssr:stedsnr" v="1048026" />
		<tag k="ssr:type" v="adressenavn" />
	</node>
	<node lat="59.27012509192856" lon="9.257352894757323" id="-50451">
		<tag k="name" v="Barlindvegen" />
		<tag k="ssr:date" v="2019-12-27" />
		<tag k="ssr:gruppe" v="veg" />
		<tag k="ssr:hovedgruppe" v="infrastruktur" />
		<tag k="ssr:stedsnr" v="1048029" />
		<tag k="ssr:type" v="adressenavn" />
	</node>
	<node lat="59.27064033600661" lon="9.264342452499001" id="-50452">
		<tag k="name" v="Smievegen" />
		<tag k="ssr:date" v="2019-12-27" />
		<tag k="ssr:gruppe" v="veg" />
		<tag k="ssr:hovedgruppe" v="infrastruktur" />
		<tag k="ssr:stedsnr" v="1048032" />
		<tag k="ssr:type" v="adressenavn" />
	</node>
	<node lat="59.269772090952344" lon="9.263008210538578" id="-50453">
		<tag k="name" v="Timoteivegen" />
		<tag k="ssr:date" v="2019-12-27" />
		<tag k="ssr:gruppe" v="veg" />
		<tag k="ssr:hovedgruppe" v="infrastruktur" />
		<tag k="ssr:stedsnr" v="1048035" />
		<tag k="ssr:type" v="adressenavn" />
	</node>
	<node lat="59.28734156296301" lon="9.229957366172473" id="-50454">
		<tag k="name" v="Oddenåsen" />
		<tag k="ssr:date" v="2019-12-27" />
		<tag k="ssr:gruppe" v="veg" />
		<tag k="ssr:hovedgruppe" v="infrastruktur" />
		<tag k="ssr:stedsnr" v="1047896" />
		<tag k="ssr:type" v="adressenavn" />
	</node>
	<node lat="59.27800710690516" lon="9.23810085605146" id="-50455">
		<tag k="name" v="Utsikten" />
		<tag k="ssr:date" v="2019-12-27" />
		<tag k="ssr:gruppe" v="veg" />
		<tag k="ssr:hovedgruppe" v="infrastruktur" />
		<tag k="ssr:stedsnr" v="1047899" />
		<tag k="ssr:type" v="adressenavn" />
	</node>
	<node lat="59.27775840853472" lon="9.235427467171982" id="-50456">
		<tag k="name" v="Heisholtvegen" />
		<tag k="ssr:date" v="2019-12-27" />
		<tag k="ssr:gruppe" v="veg" />
		<tag k="ssr:hovedgruppe" v="infrastruktur" />
		<tag k="ssr:stedsnr" v="1047902" />
		<tag k="ssr:type" v="adressenavn" />
	</node>
	<node lat="59.28729581743323" lon="9.22913692901831" id="-50457">
		<tag k="name" v="Odden" />
		<tag k="ssr:date" v="2019-12-27" />
		<tag k="ssr:gruppe" v="veg" />
		<tag k="ssr:hovedgruppe" v="infrastruktur" />
		<tag k="ssr:stedsnr" v="1047905" />
		<tag k="ssr:type" v="adressenavn" />
	</node>
	<node lat="59.26922701944333" lon="9.299277529239085" id="-50458">
		<tag k="name" v="Rauhaugvegen" />
		<tag k="ssr:date" v="2019-12-27" />
		<tag k="ssr:gruppe" v="veg" />
		<tag k="ssr:hovedgruppe" v="infrastruktur" />
		<tag k="ssr:stedsnr" v="1047908" />
		<tag k="ssr:type" v="adressenavn" />
	</node>
	<node lat="59.26929692617651" lon="9.287315236189997" id="-50459">
		<tag k="name" v="Vibetovegen" />
		<tag k="ssr:date" v="2019-12-27" />
		<tag k="ssr:gruppe" v="veg" />
		<tag k="ssr:hovedgruppe" v="infrastruktur" />
		<tag k="ssr:stedsnr" v="1047911" />
		<tag k="ssr:type" v="adressenavn" />
	</node>
	<node lat="59.26513636730935" lon="9.303349521994209" id="-50460">
		<tag k="name" v="Bjørndalen" />
		<tag k="ssr:date" v="2019-12-27" />
		<tag k="ssr:gruppe" v="veg" />
		<tag k="ssr:hovedgruppe" v="infrastruktur" />
		<tag k="ssr:stedsnr" v="1047916" />
		<tag k="ssr:type" v="adressenavn" />
	</node>
	<node lat="59.26884030843715" lon="9.29709330468624" id="-50461">
		<tag k="name" v="Klokkerhavna" />
		<tag k="ssr:date" v="2019-12-27" />
		<tag k="ssr:gruppe" v="veg" />
		<tag k="ssr:hovedgruppe" v="infrastruktur" />
		<tag k="ssr:stedsnr" v="1047919" />
		<tag k="ssr:type" v="adressenavn" />
	</node>
	<node lat="59.27052283814652" lon="9.30334760454662" id="-50462">
		<tag k="name" v="Torsnesvegen" />
		<tag k="ssr:date" v="2019-12-27" />
		<tag k="ssr:gruppe" v="veg" />
		<tag k="ssr:hovedgruppe" v="infrastruktur" />
		<tag k="ssr:stedsnr" v="1047922" />
		<tag k="ssr:type" v="adressenavn" />
	</node>
	<node lat="59.27743991597321" lon="9.297244375464471" id="-50463">
		<tag k="name" v="Roligheta" />
		<tag k="ssr:date" v="2019-12-27" />
		<tag k="ssr:gruppe" v="veg" />
		<tag k="ssr:hovedgruppe" v="infrastruktur" />
		<tag k="ssr:stedsnr" v="1047926" />
		<tag k="ssr:type" v="adressenavn" />
	</node>
	<node lat="59.27169545555975" lon="9.286017159286313" id="-50464">
		<tag k="name" v="Brattlia" />
		<tag k="ssr:date" v="2019-12-27" />
		<tag k="ssr:gruppe" v="veg" />
		<tag k="ssr:hovedgruppe" v="infrastruktur" />
		<tag k="ssr:stedsnr" v="1047930" />
		<tag k="ssr:type" v="adressenavn" />
	</node>
	<node lat="59.27623493334024" lon="9.29352431412131" id="-50465">
		<tag k="name" v="Fenittvegen" />
		<tag k="ssr:date" v="2019-12-27" />
		<tag k="ssr:gruppe" v="veg" />
		<tag k="ssr:hovedgruppe" v="infrastruktur" />
		<tag k="ssr:stedsnr" v="1047933" />
		<tag k="ssr:type" v="adressenavn" />
	</node>
	<node lat="59.26991931383239" lon="9.286239982642147" id="-50466">
		<tag k="name" v="Haugtunvegen" />
		<tag k="ssr:date" v="2019-12-27" />
		<tag k="ssr:gruppe" v="veg" />
		<tag k="ssr:hovedgruppe" v="infrastruktur" />
		<tag k="ssr:stedsnr" v="1047936" />
		<tag k="ssr:type" v="adressenavn" />
	</node>
	<node lat="59.27150292587892" lon="9.282177077149983" id="-50467">
		<tag k="name" v="Gamlevegen" />
		<tag k="ssr:date" v="2019-12-27" />
		<tag k="ssr:gruppe" v="veg" />
		<tag k="ssr:hovedgruppe" v="infrastruktur" />
		<tag k="ssr:stedsnr" v="1047939" />
		<tag k="ssr:type" v="adressenavn" />
	</node>
	<node lat="59.26958381814191" lon="9.294348482111806" id="-50468">
		<tag k="name" v="Borgjordet" />
		<tag k="ssr:date" v="2019-12-27" />
		<tag k="ssr:gruppe" v="veg" />
		<tag k="ssr:hovedgruppe" v="infrastruktur" />
		<tag k="ssr:stedsnr" v="1047943" />
		<tag k="ssr:type" v="adressenavn" />
	</node>
	<node lat="59.280766242423965" lon="9.277408441701132" id="-50469">
		<tag k="name" v="Søvittvegen" />
		<tag k="ssr:date" v="2019-12-27" />
		<tag k="ssr:gruppe" v="veg" />
		<tag k="ssr:hovedgruppe" v="infrastruktur" />
		<tag k="ssr:stedsnr" v="1047947" />
		<tag k="ssr:type" v="adressenavn" />
	</node>
	<node lat="59.27153855081556" lon="9.28785136817967" id="-50470">
		<tag k="name" v="Bergverksvegen" />
		<tag k="ssr:date" v="2019-12-27" />
		<tag k="ssr:gruppe" v="veg" />
		<tag k="ssr:hovedgruppe" v="infrastruktur" />
		<tag k="ssr:stedsnr" v="1047952" />
		<tag k="ssr:type" v="adressenavn" />
	</node>
	<node lat="59.282124794486116" lon="9.253319619028536" id="-50471">
		<tag k="name" v="Sagene" />
		<tag k="ssr:date" v="2019-12-27" />
		<tag k="ssr:gruppe" v="veg" />
		<tag k="ssr:hovedgruppe" v="infrastruktur" />
		<tag k="ssr:stedsnr" v="1047956" />
		<tag k="ssr:type" v="adressenavn" />
	</node>
	<node lat="59.28121729083848" lon="9.251800617135249" id="-50472">
		<tag k="name" v="Fiskestigen" />
		<tag k="ssr:date" v="2019-12-27" />
		<tag k="ssr:gruppe" v="veg" />
		<tag k="ssr:hovedgruppe" v="infrastruktur" />
		<tag k="ssr:stedsnr" v="1047961" />
		<tag k="ssr:type" v="adressenavn" />
	</node>
	<node lat="59.27052283814652" lon="9.30334760454662" id="-50473">
		<tag k="name" v="Fensvegen" />
		<tag k="ssr:date" v="2019-12-27" />
		<tag k="ssr:gruppe" v="veg" />
		<tag k="ssr:hovedgruppe" v="infrastruktur" />
		<tag k="ssr:stedsnr" v="1047965" />
		<tag k="ssr:type" v="adressenavn" />
	</node>
	<node lat="59.2808055939382" lon="9.274283647568547" id="-50474">
		<tag k="name" v="Grønvoldvegen" />
		<tag k="ssr:date" v="2019-12-27" />
		<tag k="ssr:gruppe" v="veg" />
		<tag k="ssr:hovedgruppe" v="infrastruktur" />
		<tag k="ssr:stedsnr" v="1047968" />
		<tag k="ssr:type" v="adressenavn" />
	</node>
	<node lat="59.28798429977712" lon="9.257459949888615" id="-50475">
		<tag k="name" v="Strømodden" />
		<tag k="ssr:date" v="2019-12-27" />
		<tag k="ssr:gruppe" v="veg" />
		<tag k="ssr:hovedgruppe" v="infrastruktur" />
		<tag k="ssr:stedsnr" v="1047971" />
		<tag k="ssr:type" v="adressenavn" />
	</node>
	<node lat="59.28703130603313" lon="9.255391765862921" id="-50476">
		<tag k="name" v="Lindalen" />
		<tag k="ssr:date" v="2019-12-27" />
		<tag k="ssr:gruppe" v="veg" />
		<tag k="ssr:hovedgruppe" v="infrastruktur" />
		<tag k="ssr:stedsnr" v="1047976" />
		<tag k="ssr:type" v="adressenavn" />
	</node>
	<node lat="59.283917259197175" lon="9.254104297122574" id="-50477">
		<tag k="name" v="Fabrikkgata" />
		<tag k="ssr:date" v="2019-12-27" />
		<tag k="ssr:gruppe" v="veg" />
		<tag k="ssr:hovedgruppe" v="infrastruktur" />
		<tag k="ssr:stedsnr" v="1047980" />
		<tag k="ssr:type" v="adressenavn" />
	</node>
	<node lat="59.27144790371366" lon="9.282297115135485" id="-50478">
		<tag k="name" v="Tuftedalen" />
		<tag k="ssr:date" v="2019-12-27" />
		<tag k="ssr:gruppe" v="veg" />
		<tag k="ssr:hovedgruppe" v="infrastruktur" />
		<tag k="ssr:stedsnr" v="1047984" />
		<tag k="ssr:type" v="adressenavn" />
	</node>
	<node lat="59.27456406910626" lon="9.249629493927017" id="-50479">
		<tag k="name" v="Tvaravegen" />
		<tag k="ssr:date" v="2019-12-27" />
		<tag k="ssr:gruppe" v="veg" />
		<tag k="ssr:hovedgruppe" v="infrastruktur" />
		<tag k="ssr:stedsnr" v="1048038" />
		<tag k="ssr:type" v="adressenavn" />
	</node>
	<node lat="59.295356771300305" lon="9.265891642411722" id="-50480">
		<tag k="name" v="Kvernodden terrasse" />
		<tag k="ssr:date" v="2019-12-27" />
		<tag k="ssr:gruppe" v="veg" />
		<tag k="ssr:hovedgruppe" v="infrastruktur" />
		<tag k="ssr:stedsnr" v="1049637" />
		<tag k="ssr:type" v="adressenavn" />
	</node>
	<node lat="59.27837186054108" lon="9.275083535683176" id="-50481">
		<tag k="name" v="Kloppavegen" />
		<tag k="ssr:date" v="2019-12-27" />
		<tag k="ssr:gruppe" v="veg" />
		<tag k="ssr:hovedgruppe" v="infrastruktur" />
		<tag k="ssr:stedsnr" v="1049641" />
		<tag k="ssr:type" v="adressenavn" />
	</node>
	<node lat="59.28202159110245" lon="9.256007337535188" id="-50482">
		<tag k="name" v="Statsraad Niels Aalls veg" />
		<tag k="ssr:date" v="2019-12-27" />
		<tag k="ssr:gruppe" v="veg" />
		<tag k="ssr:hovedgruppe" v="infrastruktur" />
		<tag k="ssr:stedsnr" v="1049644" />
		<tag k="ssr:type" v="adressenavn" />
	</node>
	<node lat="59.26761572624167" lon="9.30060967096741" id="-50483">
		<tag k="name" v="Øvre Rødbergveg" />
		<tag k="ssr:date" v="2019-12-27" />
		<tag k="ssr:gruppe" v="veg" />
		<tag k="ssr:hovedgruppe" v="infrastruktur" />
		<tag k="ssr:stedsnr" v="1049647" />
		<tag k="ssr:type" v="adressenavn" />
	</node>
	<node lat="59.267513176636804" lon="9.301096876937153" id="-50484">
		<tag k="name" v="Nedre Rødbergveg" />
		<tag k="ssr:date" v="2019-12-27" />
		<tag k="ssr:gruppe" v="veg" />
		<tag k="ssr:hovedgruppe" v="infrastruktur" />
		<tag k="ssr:stedsnr" v="1049651" />
		<tag k="ssr:type" v="adressenavn" />
	</node>
	<node lat="59.311118601013824" lon="9.18691465134175" id="-50485">
		<tag k="name" v="Gåserudvegen" />
		<tag k="ssr:date" v="2019-12-27" />
		<tag k="ssr:gruppe" v="veg" />
		<tag k="ssr:hovedgruppe" v="infrastruktur" />
		<tag k="ssr:stedsnr" v="1050910" />
		<tag k="ssr:type" v="adressenavn" />
	</node>
	<node lat="59.31061738627213" lon="9.168829119343629" id="-50486">
		<tag k="name" v="Holteheia" />
		<tag k="ssr:date" v="2019-12-27" />
		<tag k="ssr:gruppe" v="veg" />
		<tag k="ssr:hovedgruppe" v="infrastruktur" />
		<tag k="ssr:stedsnr" v="1050911" />
		<tag k="ssr:type" v="adressenavn" />
	</node>
	<node lat="59.307463767723846" lon="9.151029515519205" id="-50487">
		<tag k="name" v="Straumevegen" />
		<tag k="ssr:date" v="2019-12-27" />
		<tag k="ssr:gruppe" v="veg" />
		<tag k="ssr:hovedgruppe" v="infrastruktur" />
		<tag k="ssr:stedsnr" v="1050912" />
		<tag k="ssr:type" v="adressenavn" />
	</node>
	<node lat="59.30949021655999" lon="9.173914778361835" id="-50488">
		<tag k="name" v="Apalnesvegen" />
		<tag k="ssr:date" v="2019-12-27" />
		<tag k="ssr:gruppe" v="veg" />
		<tag k="ssr:hovedgruppe" v="infrastruktur" />
		<tag k="ssr:stedsnr" v="1050913" />
		<tag k="ssr:type" v="adressenavn" />
	</node>
	<node lat="59.30810753691772" lon="9.104464586748646" id="-50489">
		<tag k="name" v="Prestegårdsvegen" />
		<tag k="ssr:date" v="2019-12-27" />
		<tag k="ssr:gruppe" v="veg" />
		<tag k="ssr:hovedgruppe" v="infrastruktur" />
		<tag k="ssr:stedsnr" v="1050914" />
		<tag k="ssr:type" v="adressenavn" />
	</node>
	<node lat="59.30575765438287" lon="9.125890897380144" id="-50490">
		<tag k="name" v="Bjørndalsvegen" />
		<tag k="ssr:date" v="2019-12-27" />
		<tag k="ssr:gruppe" v="veg" />
		<tag k="ssr:hovedgruppe" v="infrastruktur" />
		<tag k="ssr:stedsnr" v="1050915" />
		<tag k="ssr:type" v="adressenavn" />
	</node>
	<node lat="59.318330629792676" lon="9.021924233764377" id="-50491">
		<tag k="name" v="Gamle Strengenvegen" />
		<tag k="ssr:date" v="2019-12-27" />
		<tag k="ssr:gruppe" v="veg" />
		<tag k="ssr:hovedgruppe" v="infrastruktur" />
		<tag k="ssr:stedsnr" v="1050916" />
		<tag k="ssr:type" v="adressenavn" />
	</node>
	<node lat="59.255409316938284" lon="9.152509124558255" id="-50492">
		<tag k="name" v="Landsmarkavegen" />
		<tag k="ssr:date" v="2019-12-27" />
		<tag k="ssr:gruppe" v="veg" />
		<tag k="ssr:hovedgruppe" v="infrastruktur" />
		<tag k="ssr:stedsnr" v="1050917" />
		<tag k="ssr:type" v="adressenavn" />
	</node>
	<node lat="59.284726457906174" lon="9.10562323179771" id="-50493">
		<tag k="name" v="Settendalsvegen" />
		<tag k="ssr:date" v="2019-12-27" />
		<tag k="ssr:gruppe" v="veg" />
		<tag k="ssr:hovedgruppe" v="infrastruktur" />
		<tag k="ssr:stedsnr" v="1050918" />
		<tag k="ssr:type" v="adressenavn" />
	</node>
	<node lat="59.29204097203357" lon="9.062885343610224" id="-50494">
		<tag k="name" v="Pershaugvegen" />
		<tag k="ssr:date" v="2019-12-27" />
		<tag k="ssr:gruppe" v="veg" />
		<tag k="ssr:hovedgruppe" v="infrastruktur" />
		<tag k="ssr:stedsnr" v="1050919" />
		<tag k="ssr:type" v="adressenavn" />
	</node>
	<node lat="59.26506168086905" lon="9.12742477760751" id="-50495">
		<tag k="name" v="Vedlandvegen" />
		<tag k="ssr:date" v="2019-12-27" />
		<tag k="ssr:gruppe" v="veg" />
		<tag k="ssr:hovedgruppe" v="infrastruktur" />
		<tag k="ssr:stedsnr" v="1050920" />
		<tag k="ssr:type" v="adressenavn" />
	</node>
	<node lat="59.30476807537932" lon="9.088917806058722" id="-50496">
		<tag k="name" v="Lundtveitvegen" />
		<tag k="ssr:date" v="2019-12-27" />
		<tag k="ssr:gruppe" v="veg" />
		<tag k="ssr:hovedgruppe" v="infrastruktur" />
		<tag k="ssr:stedsnr" v="1050921" />
		<tag k="ssr:type" v="adressenavn" />
	</node>
	<node lat="59.3211488523742" lon="8.974854634128555" id="-50497">
		<tag k="name" v="Omnesvegen" />
		<tag k="ssr:date" v="2019-12-27" />
		<tag k="ssr:gruppe" v="veg" />
		<tag k="ssr:hovedgruppe" v="infrastruktur" />
		<tag k="ssr:stedsnr" v="1050923" />
		<tag k="ssr:type" v="adressenavn" />
	</node>
	<node lat="59.25313862139866" lon="9.058128410225319" id="-50498">
		<tag k="name" v="Drangedalsvegen" />
		<tag k="ssr:date" v="2019-12-27" />
		<tag k="ssr:gruppe" v="veg" />
		<tag k="ssr:hovedgruppe" v="infrastruktur" />
		<tag k="ssr:stedsnr" v="1050924" />
		<tag k="ssr:type" v="adressenavn" />
	</node>
	<node lat="59.337217249638584" lon="9.101582017442116" id="-50499">
		<tag k="name" v="Helgetveitvegen" />
		<tag k="ssr:date" v="2019-12-27" />
		<tag k="ssr:gruppe" v="veg" />
		<tag k="ssr:hovedgruppe" v="infrastruktur" />
		<tag k="ssr:stedsnr" v="1050925" />
		<tag k="ssr:type" v="adressenavn" />
	</node>
	<node lat="59.29201567410733" lon="9.201502831424099" id="-50500">
		<tag k="name" v="Vrangfossvegen" />
		<tag k="ssr:date" v="2019-12-27" />
		<tag k="ssr:gruppe" v="veg" />
		<tag k="ssr:hovedgruppe" v="infrastruktur" />
		<tag k="ssr:stedsnr" v="1050926" />
		<tag k="ssr:type" v="adressenavn" />
	</node>
	<node lat="59.30485615173063" lon="9.088880823653906" id="-50501">
		<tag k="name" v="Løytingsbakke" />
		<tag k="ssr:date" v="2019-12-27" />
		<tag k="ssr:gruppe" v="veg" />
		<tag k="ssr:hovedgruppe" v="infrastruktur" />
		<tag k="ssr:stedsnr" v="1050574" />
		<tag k="ssr:type" v="adressenavn" />
	</node>
	<node lat="59.30238170150674" lon="9.085952919425619" id="-50502">
		<tag k="name" v="Lauvåsen" />
		<tag k="ssr:date" v="2019-12-27" />
		<tag k="ssr:gruppe" v="veg" />
		<tag k="ssr:hovedgruppe" v="infrastruktur" />
		<tag k="ssr:stedsnr" v="1050575" />
		<tag k="ssr:type" v="adressenavn" />
	</node>
	<node lat="59.30497548373913" lon="9.107926659455613" id="-50503">
		<tag k="name" v="Flåbygdvegen" />
		<tag k="ssr:date" v="2019-12-27" />
		<tag k="ssr:gruppe" v="veg" />
		<tag k="ssr:hovedgruppe" v="infrastruktur" />
		<tag k="ssr:stedsnr" v="1050576" />
		<tag k="ssr:type" v="adressenavn" />
	</node>
	<node lat="59.30289320032018" lon="9.086410108078928" id="-50504">
		<tag k="name" v="Ajervegen" />
		<tag k="ssr:date" v="2019-12-27" />
		<tag k="ssr:gruppe" v="veg" />
		<tag k="ssr:hovedgruppe" v="infrastruktur" />
		<tag k="ssr:stedsnr" v="1050577" />
		<tag k="ssr:type" v="adressenavn" />
	</node>
	<node lat="59.299207846779424" lon="9.09065423218158" id="-50505">
		<tag k="name" v="Plassenvegen" />
		<tag k="ssr:date" v="2019-12-27" />
		<tag k="ssr:gruppe" v="veg" />
		<tag k="ssr:hovedgruppe" v="infrastruktur" />
		<tag k="ssr:stedsnr" v="1050578" />
		<tag k="ssr:type" v="adressenavn" />
	</node>
	<node lat="59.30573562090872" lon="9.100404234490497" id="-50506">
		<tag k="name" v="Ajertangen" />
		<tag k="ssr:date" v="2019-12-27" />
		<tag k="ssr:gruppe" v="veg" />
		<tag k="ssr:hovedgruppe" v="infrastruktur" />
		<tag k="ssr:stedsnr" v="1050579" />
		<tag k="ssr:type" v="adressenavn" />
	</node>
	<node lat="59.29156131013256" lon="9.102371532242703" id="-50507">
		<tag k="name" v="Hauganåsen" />
		<tag k="ssr:date" v="2019-12-27" />
		<tag k="ssr:gruppe" v="veg" />
		<tag k="ssr:hovedgruppe" v="infrastruktur" />
		<tag k="ssr:stedsnr" v="1050580" />
		<tag k="ssr:type" v="adressenavn" />
	</node>
	<node lat="59.29176819013639" lon="9.103199742527714" id="-50508">
		<tag k="name" v="Hegnavegen" />
		<tag k="ssr:date" v="2019-12-27" />
		<tag k="ssr:gruppe" v="veg" />
		<tag k="ssr:hovedgruppe" v="infrastruktur" />
		<tag k="ssr:stedsnr" v="1050581" />
		<tag k="ssr:type" v="adressenavn" />
	</node>
	<node lat="59.2902283647352" lon="9.101092990655635" id="-50509">
		<tag k="name" v="Fjellvegen" />
		<tag k="ssr:date" v="2019-12-27" />
		<tag k="ssr:gruppe" v="veg" />
		<tag k="ssr:hovedgruppe" v="infrastruktur" />
		<tag k="ssr:stedsnr" v="1050582" />
		<tag k="ssr:type" v="adressenavn" />
	</node>
	<node lat="59.288351640757554" lon="9.111393058270327" id="-50510">
		<tag k="name" v="Breidalsåsen" />
		<tag k="ssr:date" v="2019-12-27" />
		<tag k="ssr:gruppe" v="veg" />
		<tag k="ssr:hovedgruppe" v="infrastruktur" />
		<tag k="ssr:stedsnr" v="1050583" />
		<tag k="ssr:type" v="adressenavn" />
	</node>
	<node lat="59.28872705828923" lon="9.108436703941724" id="-50511">
		<tag k="name" v="Åsenberget" />
		<tag k="ssr:date" v="2019-12-27" />
		<tag k="ssr:gruppe" v="veg" />
		<tag k="ssr:hovedgruppe" v="infrastruktur" />
		<tag k="ssr:stedsnr" v="1050586" />
		<tag k="ssr:type" v="adressenavn" />
	</node>
	<node lat="59.2921432466281" lon="9.109024979043374" id="-50512">
		<tag k="name" v="Åsenvegen" />
		<tag k="ssr:date" v="2019-12-27" />
		<tag k="ssr:gruppe" v="veg" />
		<tag k="ssr:hovedgruppe" v="infrastruktur" />
		<tag k="ssr:stedsnr" v="1050587" />
		<tag k="ssr:type" v="adressenavn" />
	</node>
	<node lat="59.29593045467256" lon="9.104793986765394" id="-50513">
		<tag k="name" v="Bjervajordet" />
		<tag k="ssr:date" v="2019-12-27" />
		<tag k="ssr:gruppe" v="veg" />
		<tag k="ssr:hovedgruppe" v="infrastruktur" />
		<tag k="ssr:stedsnr" v="1050588" />
		<tag k="ssr:type" v="adressenavn" />
	</node>
	<node lat="59.29529500629894" lon="9.105658138592071" id="-50514">
		<tag k="name" v="Lensmann Otterstads veg" />
		<tag k="ssr:date" v="2019-12-27" />
		<tag k="ssr:gruppe" v="veg" />
		<tag k="ssr:hovedgruppe" v="infrastruktur" />
		<tag k="ssr:stedsnr" v="1050589" />
		<tag k="ssr:type" v="adressenavn" />
	</node>
	<node lat="59.29602888249535" lon="9.10466565152648" id="-50515">
		<tag k="name" v="Bjervagate" />
		<tag k="ssr:date" v="2019-12-27" />
		<tag k="ssr:gruppe" v="veg" />
		<tag k="ssr:hovedgruppe" v="infrastruktur" />
		<tag k="ssr:stedsnr" v="1050590" />
		<tag k="ssr:type" v="adressenavn" />
	</node>
	<node lat="59.28700225818029" lon="9.102216199082635" id="-50516">
		<tag k="name" v="Svenskerudvegen" />
		<tag k="ssr:date" v="2019-12-27" />
		<tag k="ssr:gruppe" v="veg" />
		<tag k="ssr:hovedgruppe" v="infrastruktur" />
		<tag k="ssr:stedsnr" v="1050591" />
		<tag k="ssr:type" v="adressenavn" />
	</node>
	<node lat="59.29383807758125" lon="9.084855026961277" id="-50517">
		<tag k="name" v="Hantovegen" />
		<tag k="ssr:date" v="2019-12-27" />
		<tag k="ssr:gruppe" v="veg" />
		<tag k="ssr:hovedgruppe" v="infrastruktur" />
		<tag k="ssr:stedsnr" v="1050592" />
		<tag k="ssr:type" v="adressenavn" />
	</node>
	<node lat="59.300207063827976" lon="9.101579506187797" id="-50518">
		<tag k="name" v="Jernbanevegen" />
		<tag k="ssr:date" v="2019-12-27" />
		<tag k="ssr:gruppe" v="veg" />
		<tag k="ssr:hovedgruppe" v="infrastruktur" />
		<tag k="ssr:stedsnr" v="1050593" />
		<tag k="ssr:type" v="adressenavn" />
	</node>
	<node lat="59.29092818158528" lon="9.106728041206706" id="-50519">
		<tag k="name" v="Skoevegen" />
		<tag k="ssr:date" v="2019-12-27" />
		<tag k="ssr:gruppe" v="veg" />
		<tag k="ssr:hovedgruppe" v="infrastruktur" />
		<tag k="ssr:stedsnr" v="1050594" />
		<tag k="ssr:type" v="adressenavn" />
	</node>
	<node lat="59.29779643989277" lon="9.106247400802369" id="-50520">
		<tag k="name" v="Ringvegen" />
		<tag k="ssr:date" v="2019-12-27" />
		<tag k="ssr:gruppe" v="veg" />
		<tag k="ssr:hovedgruppe" v="infrastruktur" />
		<tag k="ssr:stedsnr" v="1050595" />
		<tag k="ssr:type" v="adressenavn" />
	</node>
	<node lat="59.29655269144455" lon="9.097812146089355" id="-50521">
		<tag k="name" v="Strengenvegen" />
		<tag k="ssr:date" v="2019-12-27" />
		<tag k="ssr:gruppe" v="veg" />
		<tag k="ssr:hovedgruppe" v="infrastruktur" />
		<tag k="ssr:stedsnr" v="1050596" />
		<tag k="ssr:type" v="adressenavn" />
	</node>
	<node lat="59.29856342825425" lon="9.103384625716577" id="-50522">
		<tag k="name" v="Brugata" />
		<tag k="ssr:date" v="2019-12-27" />
		<tag k="ssr:gruppe" v="veg" />
		<tag k="ssr:hovedgruppe" v="infrastruktur" />
		<tag k="ssr:stedsnr" v="1050598" />
		<tag k="ssr:type" v="adressenavn" />
	</node>
	<node lat="59.29939752534413" lon="9.1098651083337" id="-50523">
		<tag k="name" v="Bakkevegen" />
		<tag k="ssr:date" v="2019-12-27" />
		<tag k="ssr:gruppe" v="veg" />
		<tag k="ssr:hovedgruppe" v="infrastruktur" />
		<tag k="ssr:stedsnr" v="1050599" />
		<tag k="ssr:type" v="adressenavn" />
	</node>
	<node lat="59.29977493691658" lon="9.11135752591525" id="-50524">
		<tag k="name" v="Lillegate" />
		<tag k="ssr:date" v="2019-12-27" />
		<tag k="ssr:gruppe" v="veg" />
		<tag k="ssr:hovedgruppe" v="infrastruktur" />
		<tag k="ssr:stedsnr" v="1050600" />
		<tag k="ssr:type" v="adressenavn" />
	</node>
	<node lat="59.29880210698439" lon="9.104328413749844" id="-50525">
		<tag k="name" v="Meierigata" />
		<tag k="ssr:date" v="2019-12-27" />
		<tag k="ssr:gruppe" v="veg" />
		<tag k="ssr:hovedgruppe" v="infrastruktur" />
		<tag k="ssr:stedsnr" v="1050601" />
		<tag k="ssr:type" v="adressenavn" />
	</node>
	<node lat="59.29664463333431" lon="9.107311522112008" id="-50526">
		<tag k="name" v="Leirbakkevegen" />
		<tag k="ssr:date" v="2019-12-27" />
		<tag k="ssr:gruppe" v="veg" />
		<tag k="ssr:hovedgruppe" v="infrastruktur" />
		<tag k="ssr:stedsnr" v="1050602" />
		<tag k="ssr:type" v="adressenavn" />
	</node>
	<node lat="59.30066658591148" lon="9.112526537988854" id="-50527">
		<tag k="name" v="Buavegen" />
		<tag k="ssr:date" v="2019-12-27" />
		<tag k="ssr:gruppe" v="veg" />
		<tag k="ssr:hovedgruppe" v="infrastruktur" />
		<tag k="ssr:stedsnr" v="1050603" />
		<tag k="ssr:type" v="adressenavn" />
	</node>
	<node lat="59.26594685129296" lon="9.143967452678076" id="-50528">
		<tag k="name" v="Tyrivegen" />
		<tag k="ssr:date" v="2019-12-27" />
		<tag k="ssr:gruppe" v="veg" />
		<tag k="ssr:hovedgruppe" v="infrastruktur" />
		<tag k="ssr:stedsnr" v="1050604" />
		<tag k="ssr:type" v="adressenavn" />
	</node>
	<node lat="59.29708025969451" lon="9.112865016951329" id="-50529">
		<tag k="name" v="Bergvinvegen" />
		<tag k="ssr:date" v="2019-12-27" />
		<tag k="ssr:gruppe" v="veg" />
		<tag k="ssr:hovedgruppe" v="infrastruktur" />
		<tag k="ssr:stedsnr" v="1050605" />
		<tag k="ssr:type" v="adressenavn" />
	</node>
	<node lat="59.299798309081716" lon="9.116013238618443" id="-50530">
		<tag k="name" v="Hovedgata" />
		<tag k="ssr:date" v="2019-12-27" />
		<tag k="ssr:gruppe" v="veg" />
		<tag k="ssr:hovedgruppe" v="infrastruktur" />
		<tag k="ssr:stedsnr" v="1050606" />
		<tag k="ssr:type" v="adressenavn" />
	</node>
	<node lat="59.29887097959035" lon="9.107386060827505" id="-50531">
		<tag k="name" v="Moengata" />
		<tag k="ssr:date" v="2019-12-27" />
		<tag k="ssr:gruppe" v="veg" />
		<tag k="ssr:hovedgruppe" v="infrastruktur" />
		<tag k="ssr:stedsnr" v="1050607" />
		<tag k="ssr:type" v="adressenavn" />
	</node>
	<node lat="59.296318464484834" lon="9.096747635034141" id="-50532">
		<tag k="name" v="Slusevegen" />
		<tag k="ssr:date" v="2019-12-27" />
		<tag k="ssr:gruppe" v="veg" />
		<tag k="ssr:hovedgruppe" v="infrastruktur" />
		<tag k="ssr:stedsnr" v="1050608" />
		<tag k="ssr:type" v="adressenavn" />
	</node>
	<node lat="59.30039499128303" lon="9.110740564291206" id="-50533">
		<tag k="name" v="Olav Strannas veg" />
		<tag k="ssr:date" v="2019-12-27" />
		<tag k="ssr:gruppe" v="veg" />
		<tag k="ssr:hovedgruppe" v="infrastruktur" />
		<tag k="ssr:stedsnr" v="1050609" />
		<tag k="ssr:type" v="adressenavn" />
	</node>
	<node lat="59.29231642259739" lon="9.078417433345981" id="-50534">
		<tag k="name" v="Stavsholtvegen" />
		<tag k="ssr:date" v="2019-12-27" />
		<tag k="ssr:gruppe" v="veg" />
		<tag k="ssr:hovedgruppe" v="infrastruktur" />
		<tag k="ssr:stedsnr" v="1050610" />
		<tag k="ssr:type" v="adressenavn" />
	</node>
	<node lat="59.29662758072195" lon="9.098154336149351" id="-50535">
		<tag k="name" v="Skogvegen" />
		<tag k="ssr:date" v="2019-12-27" />
		<tag k="ssr:gruppe" v="veg" />
		<tag k="ssr:hovedgruppe" v="infrastruktur" />
		<tag k="ssr:stedsnr" v="1050611" />
		<tag k="ssr:type" v="adressenavn" />
	</node>
	<node lat="59.297875226963846" lon="9.099815879432946" id="-50536">
		<tag k="name" v="Bjørkealleen" />
		<tag k="ssr:date" v="2019-12-27" />
		<tag k="ssr:gruppe" v="veg" />
		<tag k="ssr:hovedgruppe" v="infrastruktur" />
		<tag k="ssr:stedsnr" v="1050612" />
		<tag k="ssr:type" v="adressenavn" />
	</node>
	<node lat="59.29963169443431" lon="9.098428104649372" id="-50537">
		<tag k="name" v="Idrettsvegen" />
		<tag k="ssr:date" v="2019-12-27" />
		<tag k="ssr:gruppe" v="veg" />
		<tag k="ssr:hovedgruppe" v="infrastruktur" />
		<tag k="ssr:stedsnr" v="1050613" />
		<tag k="ssr:type" v="adressenavn" />
	</node>
	<node lat="59.297196150653924" lon="9.100713982639345" id="-50538">
		<tag k="name" v="Hagbergvegen" />
		<tag k="ssr:date" v="2019-12-27" />
		<tag k="ssr:gruppe" v="veg" />
		<tag k="ssr:hovedgruppe" v="infrastruktur" />
		<tag k="ssr:stedsnr" v="1050614" />
		<tag k="ssr:type" v="adressenavn" />
	</node>
	<node lat="59.30497548373913" lon="9.107926659455613" id="-50539">
		<tag k="name" v="Nordbygdavegen" />
		<tag k="ssr:date" v="2019-12-27" />
		<tag k="ssr:gruppe" v="veg" />
		<tag k="ssr:hovedgruppe" v="infrastruktur" />
		<tag k="ssr:stedsnr" v="1050622" />
		<tag k="ssr:type" v="adressenavn" />
	</node>
	<node lat="59.298550614690555" lon="9.103326469910254" id="-50540">
		<tag k="name" v="Bakerivegen" />
		<tag k="ssr:date" v="2019-12-27" />
		<tag k="ssr:gruppe" v="veg" />
		<tag k="ssr:hovedgruppe" v="infrastruktur" />
		<tag k="ssr:stedsnr" v="1050624" />
		<tag k="ssr:type" v="adressenavn" />
	</node>
	<node lat="59.285555026018194" lon="9.113908114812304" id="-50541">
		<tag k="name" v="Haslerudvegen" />
		<tag k="ssr:date" v="2019-12-27" />
		<tag k="ssr:gruppe" v="veg" />
		<tag k="ssr:hovedgruppe" v="infrastruktur" />
		<tag k="ssr:stedsnr" v="1050625" />
		<tag k="ssr:type" v="adressenavn" />
	</node>
	<node lat="59.285555026018194" lon="9.113908114812304" id="-50542">
		<tag k="name" v="Skjellaugvegen" />
		<tag k="ssr:date" v="2019-12-27" />
		<tag k="ssr:gruppe" v="veg" />
		<tag k="ssr:hovedgruppe" v="infrastruktur" />
		<tag k="ssr:stedsnr" v="1050626" />
		<tag k="ssr:type" v="adressenavn" />
	</node>
	<node lat="59.290700295386785" lon="9.09220812818801" id="-50543">
		<tag k="name" v="Hauganevegen" />
		<tag k="ssr:date" v="2019-12-27" />
		<tag k="ssr:gruppe" v="veg" />
		<tag k="ssr:hovedgruppe" v="infrastruktur" />
		<tag k="ssr:stedsnr" v="1050627" />
		<tag k="ssr:type" v="adressenavn" />
	</node>
	<node lat="59.29430101581006" lon="9.107015491522372" id="-50544">
		<tag k="name" v="Toppen" />
		<tag k="ssr:date" v="2019-12-27" />
		<tag k="ssr:gruppe" v="veg" />
		<tag k="ssr:hovedgruppe" v="infrastruktur" />
		<tag k="ssr:stedsnr" v="1050628" />
		<tag k="ssr:type" v="adressenavn" />
	</node>
	<node lat="59.30487865086978" lon="9.09502201456745" id="-50545">
		<tag k="name" v="Ajertoppen" />
		<tag k="ssr:date" v="2019-12-27" />
		<tag k="ssr:gruppe" v="veg" />
		<tag k="ssr:hovedgruppe" v="infrastruktur" />
		<tag k="ssr:stedsnr" v="1050629" />
		<tag k="ssr:type" v="adressenavn" />
	</node>
	<node lat="59.29867144451314" lon="9.106909486047222" id="-50546">
		<tag k="name" v="Nygate" />
		<tag k="ssr:date" v="2019-12-27" />
		<tag k="ssr:gruppe" v="veg" />
		<tag k="ssr:hovedgruppe" v="infrastruktur" />
		<tag k="ssr:stedsnr" v="1050630" />
		<tag k="ssr:type" v="adressenavn" />
	</node>
	<node lat="59.28902492537734" lon="9.109048498578202" id="-50547">
		<tag k="name" v="Åskollen" />
		<tag k="ssr:date" v="2019-12-27" />
		<tag k="ssr:gruppe" v="veg" />
		<tag k="ssr:hovedgruppe" v="infrastruktur" />
		<tag k="ssr:stedsnr" v="1050585" />
		<tag k="ssr:type" v="adressenavn" />
	</node>
	<node lat="59.30599385800473" lon="9.093885380189658" id="-50548">
		<tag k="name" v="Ajerbakken" />
		<tag k="ssr:date" v="2019-12-27" />
		<tag k="ssr:gruppe" v="veg" />
		<tag k="ssr:hovedgruppe" v="infrastruktur" />
		<tag k="ssr:stedsnr" v="1050938" />
		<tag k="ssr:type" v="adressenavn" />
	</node>
	<node lat="59.304793260584" lon="9.094239301975668" id="-50549">
		<tag k="name" v="Ajerlia" />
		<tag k="ssr:date" v="2019-12-27" />
		<tag k="ssr:gruppe" v="veg" />
		<tag k="ssr:hovedgruppe" v="infrastruktur" />
		<tag k="ssr:stedsnr" v="1050939" />
		<tag k="ssr:type" v="adressenavn" />
	</node>
	<node lat="59.288179948139536" lon="9.177695703354846" id="-50550">
		<tag k="name" v="Skårdalsvegen" />
		<tag k="ssr:date" v="2019-12-27" />
		<tag k="ssr:gruppe" v="veg" />
		<tag k="ssr:hovedgruppe" v="infrastruktur" />
		<tag k="ssr:stedsnr" v="1050940" />
		<tag k="ssr:type" v="adressenavn" />
	</node>
	<node lat="59.3106763871239" lon="9.245114550221814" id="-50551">
		<tag k="name" v="Slåttekåsvegen" />
		<tag k="ssr:date" v="2019-12-27" />
		<tag k="ssr:gruppe" v="veg" />
		<tag k="ssr:hovedgruppe" v="infrastruktur" />
		<tag k="ssr:stedsnr" v="1050941" />
		<tag k="ssr:type" v="adressenavn" />
	</node>
	<node lat="59.33509349596286" lon="9.092247581379105" id="-50552">
		<tag k="name" v="Norheimvegen" />
		<tag k="ssr:date" v="2019-12-27" />
		<tag k="ssr:gruppe" v="veg" />
		<tag k="ssr:hovedgruppe" v="infrastruktur" />
		<tag k="ssr:stedsnr" v="1050942" />
		<tag k="ssr:type" v="adressenavn" />
	</node>
	<node lat="59.25687557869046" lon="9.353535565961101" id="-50553">
		<tag k="name" v="Helgvinvegen" />
		<tag k="ssr:date" v="2019-12-27" />
		<tag k="ssr:gruppe" v="veg" />
		<tag k="ssr:hovedgruppe" v="infrastruktur" />
		<tag k="ssr:stedsnr" v="1050943" />
		<tag k="ssr:type" v="adressenavn" />
	</node>
	<node lat="59.332549393489714" lon="9.09635372680946" id="-50554">
		<tag k="name" v="Svensøvegen" />
		<tag k="ssr:date" v="2019-12-27" />
		<tag k="ssr:gruppe" v="veg" />
		<tag k="ssr:hovedgruppe" v="infrastruktur" />
		<tag k="ssr:stedsnr" v="1050944" />
		<tag k="ssr:type" v="adressenavn" />
	</node>
	<node lat="59.332845733194866" lon="9.096277461271717" id="-50555">
		<tag k="name" v="Steingardsleia" />
		<tag k="ssr:date" v="2019-12-27" />
		<tag k="ssr:gruppe" v="veg" />
		<tag k="ssr:hovedgruppe" v="infrastruktur" />
		<tag k="ssr:stedsnr" v="1050945" />
		<tag k="ssr:type" v="adressenavn" />
	</node>
	<node lat="59.332447783643715" lon="9.09384093806112" id="-50556">
		<tag k="name" v="Bergevegen" />
		<tag k="ssr:date" v="2019-12-27" />
		<tag k="ssr:gruppe" v="veg" />
		<tag k="ssr:hovedgruppe" v="infrastruktur" />
		<tag k="ssr:stedsnr" v="1050946" />
		<tag k="ssr:type" v="adressenavn" />
	</node>
	<node lat="59.334229467422375" lon="9.0950480229808" id="-50557">
		<tag k="name" v="Konglevegen" />
		<tag k="ssr:date" v="2019-12-27" />
		<tag k="ssr:gruppe" v="veg" />
		<tag k="ssr:hovedgruppe" v="infrastruktur" />
		<tag k="ssr:stedsnr" v="1050947" />
		<tag k="ssr:type" v="adressenavn" />
	</node>
	<node lat="59.285980825724266" lon="9.08388930641044" id="-50558">
		<tag k="name" v="Smukkestadvegen" />
		<tag k="ssr:date" v="2019-12-27" />
		<tag k="ssr:gruppe" v="veg" />
		<tag k="ssr:hovedgruppe" v="infrastruktur" />
		<tag k="ssr:stedsnr" v="1050948" />
		<tag k="ssr:type" v="adressenavn" />
	</node>
	<node lat="59.2577713733731" lon="9.35397403001501" id="-50559">
		<tag k="name" v="Helgvinsvingen" />
		<tag k="ssr:date" v="2019-12-27" />
		<tag k="ssr:gruppe" v="veg" />
		<tag k="ssr:hovedgruppe" v="infrastruktur" />
		<tag k="ssr:stedsnr" v="1050949" />
		<tag k="ssr:type" v="adressenavn" />
	</node>
	<node lat="59.31937180190802" lon="8.991689632330065" id="-50560">
		<tag k="name" v="Ulsnesvegen" />
		<tag k="ssr:date" v="2019-12-27" />
		<tag k="ssr:gruppe" v="veg" />
		<tag k="ssr:hovedgruppe" v="infrastruktur" />
		<tag k="ssr:stedsnr" v="1050950" />
		<tag k="ssr:type" v="adressenavn" />
	</node>
	<node lat="59.295400049607814" lon="9.044596099193248" id="-50561">
		<tag k="name" v="Kjeldalsvegen" />
		<tag k="ssr:date" v="2019-12-27" />
		<tag k="ssr:gruppe" v="veg" />
		<tag k="ssr:hovedgruppe" v="infrastruktur" />
		<tag k="ssr:stedsnr" v="1050951" />
		<tag k="ssr:type" v="adressenavn" />
	</node>
	<node lat="59.34102602724943" lon="9.098817961945398" id="-50562">
		<tag k="name" v="Stråndvegen" />
		<tag k="ssr:date" v="2019-12-27" />
		<tag k="ssr:gruppe" v="veg" />
		<tag k="ssr:hovedgruppe" v="infrastruktur" />
		<tag k="ssr:stedsnr" v="1050953" />
		<tag k="ssr:type" v="adressenavn" />
	</node>
	<node lat="59.3256618228459" lon="8.999590731631262" id="-50563">
		<tag k="name" v="Klippavegen" />
		<tag k="ssr:date" v="2019-12-27" />
		<tag k="ssr:gruppe" v="veg" />
		<tag k="ssr:hovedgruppe" v="infrastruktur" />
		<tag k="ssr:stedsnr" v="1050954" />
		<tag k="ssr:type" v="adressenavn" />
	</node>
	<node lat="59.33227864557865" lon="9.093835673644877" id="-50564">
		<tag k="name" v="Husetvegen" />
		<tag k="ssr:date" v="2019-12-27" />
		<tag k="ssr:gruppe" v="veg" />
		<tag k="ssr:hovedgruppe" v="infrastruktur" />
		<tag k="ssr:stedsnr" v="1050955" />
		<tag k="ssr:type" v="adressenavn" />
	</node>
	<node lat="59.33554882143769" lon="9.090215359653515" id="-50565">
		<tag k="name" v="Haugenvegen" />
		<tag k="ssr:date" v="2019-12-27" />
		<tag k="ssr:gruppe" v="veg" />
		<tag k="ssr:hovedgruppe" v="infrastruktur" />
		<tag k="ssr:stedsnr" v="1050956" />
		<tag k="ssr:type" v="adressenavn" />
	</node>
	<node lat="59.320855989366756" lon="9.113728712912751" id="-50566">
		<tag k="name" v="Leikvollvegen" />
		<tag k="ssr:date" v="2019-12-27" />
		<tag k="ssr:gruppe" v="veg" />
		<tag k="ssr:hovedgruppe" v="infrastruktur" />
		<tag k="ssr:stedsnr" v="1050957" />
		<tag k="ssr:type" v="adressenavn" />
	</node>
	<node lat="59.234616209440915" lon="9.379954669609221" id="-50567">
		<tag k="name" v="Håvevegen" />
		<tag k="ssr:date" v="2019-12-27" />
		<tag k="ssr:gruppe" v="veg" />
		<tag k="ssr:hovedgruppe" v="infrastruktur" />
		<tag k="ssr:stedsnr" v="1050958" />
		<tag k="ssr:type" v="adressenavn" />
	</node>
	<node lat="59.30669961702386" lon="9.135524396578134" id="-50568">
		<tag k="name" v="Liavegen" />
		<tag k="ssr:date" v="2019-12-27" />
		<tag k="ssr:gruppe" v="veg" />
		<tag k="ssr:hovedgruppe" v="infrastruktur" />
		<tag k="ssr:stedsnr" v="1050959" />
		<tag k="ssr:type" v="adressenavn" />
	</node>
	<node lat="59.29063173526617" lon="9.210297026595768" id="-50569">
		<tag k="name" v="Eievegen" />
		<tag k="ssr:date" v="2019-12-27" />
		<tag k="ssr:gruppe" v="veg" />
		<tag k="ssr:hovedgruppe" v="infrastruktur" />
		<tag k="ssr:stedsnr" v="1050960" />
		<tag k="ssr:type" v="adressenavn" />
	</node>
	<node lat="59.25633140768173" lon="9.337351087196021" id="-50570">
		<tag k="name" v="Jøntvedtvegen" />
		<tag k="ssr:date" v="2019-12-27" />
		<tag k="ssr:gruppe" v="veg" />
		<tag k="ssr:hovedgruppe" v="infrastruktur" />
		<tag k="ssr:stedsnr" v="1050961" />
		<tag k="ssr:type" v="adressenavn" />
	</node>
	<node lat="59.28954982954945" lon="9.182062207271466" id="-50571">
		<tag k="name" v="Harpåsvegen" />
		<tag k="ssr:date" v="2019-12-27" />
		<tag k="ssr:gruppe" v="veg" />
		<tag k="ssr:hovedgruppe" v="infrastruktur" />
		<tag k="ssr:stedsnr" v="1050962" />
		<tag k="ssr:type" v="adressenavn" />
	</node>
	<node lat="59.2293811050876" lon="9.401575657774055" id="-50572">
		<tag k="name" v="Langelandvegen" />
		<tag k="ssr:date" v="2019-12-27" />
		<tag k="ssr:gruppe" v="veg" />
		<tag k="ssr:hovedgruppe" v="infrastruktur" />
		<tag k="ssr:stedsnr" v="1050963" />
		<tag k="ssr:type" v="adressenavn" />
	</node>
	<node lat="59.258775616037994" lon="9.354774200123927" id="-50573">
		<tag k="name" v="Jakobskåsvegen" />
		<tag k="ssr:date" v="2019-12-27" />
		<tag k="ssr:gruppe" v="veg" />
		<tag k="ssr:hovedgruppe" v="infrastruktur" />
		<tag k="ssr:stedsnr" v="1050964" />
		<tag k="ssr:type" v="adressenavn" />
	</node>
	<node lat="59.24467240057882" lon="9.368398813920727" id="-50574">
		<tag k="name" v="Hjelsethvegen" />
		<tag k="ssr:date" v="2019-12-27" />
		<tag k="ssr:gruppe" v="veg" />
		<tag k="ssr:hovedgruppe" v="infrastruktur" />
		<tag k="ssr:stedsnr" v="1050965" />
		<tag k="ssr:type" v="adressenavn" />
	</node>
	<node lat="59.22909751969359" lon="9.391969954704303" id="-50575">
		<tag k="name" v="Sjørholtvegen" />
		<tag k="ssr:date" v="2019-12-27" />
		<tag k="ssr:gruppe" v="veg" />
		<tag k="ssr:hovedgruppe" v="infrastruktur" />
		<tag k="ssr:stedsnr" v="1050966" />
		<tag k="ssr:type" v="adressenavn" />
	</node>
	<node lat="59.255358654472346" lon="9.359078883156366" id="-50576">
		<tag k="name" v="Olsbryggevegen" />
		<tag k="ssr:date" v="2019-12-27" />
		<tag k="ssr:gruppe" v="veg" />
		<tag k="ssr:hovedgruppe" v="infrastruktur" />
		<tag k="ssr:stedsnr" v="1050967" />
		<tag k="ssr:type" v="adressenavn" />
	</node>
	<node lat="59.25428767599589" lon="9.359689300562316" id="-50577">
		<tag k="name" v="Kirkevegen" />
		<tag k="ssr:date" v="2019-12-27" />
		<tag k="ssr:gruppe" v="veg" />
		<tag k="ssr:hovedgruppe" v="infrastruktur" />
		<tag k="ssr:stedsnr" v="1050968" />
		<tag k="ssr:type" v="adressenavn" />
	</node>
	<node lat="59.27494098203667" lon="9.35326541769487" id="-50578">
		<tag k="name" v="Grønsteinvegen" />
		<tag k="ssr:date" v="2019-12-27" />
		<tag k="ssr:gruppe" v="veg" />
		<tag k="ssr:hovedgruppe" v="infrastruktur" />
		<tag k="ssr:stedsnr" v="1050969" />
		<tag k="ssr:type" v="adressenavn" />
	</node>
	<node lat="59.2620366771039" lon="9.353055197195134" id="-50579">
		<tag k="name" v="Omtvedtvegen" />
		<tag k="ssr:date" v="2019-12-27" />
		<tag k="ssr:gruppe" v="veg" />
		<tag k="ssr:hovedgruppe" v="infrastruktur" />
		<tag k="ssr:stedsnr" v="1050970" />
		<tag k="ssr:type" v="adressenavn" />
	</node>
	<node lat="59.27645656503694" lon="9.33081271185786" id="-50580">
		<tag k="name" v="Namløsvegen" />
		<tag k="ssr:date" v="2019-12-27" />
		<tag k="ssr:gruppe" v="veg" />
		<tag k="ssr:hovedgruppe" v="infrastruktur" />
		<tag k="ssr:stedsnr" v="1050972" />
		<tag k="ssr:type" v="adressenavn" />
	</node>
	<node lat="59.26531202580475" lon="9.26802793062325" id="-50581">
		<tag k="name" v="Håtveitvegen" />
		<tag k="ssr:date" v="2019-12-27" />
		<tag k="ssr:gruppe" v="veg" />
		<tag k="ssr:hovedgruppe" v="infrastruktur" />
		<tag k="ssr:stedsnr" v="1050973" />
		<tag k="ssr:type" v="adressenavn" />
	</node>
	<node lat="59.22593613944823" lon="9.175931311665485" id="-50582">
		<tag k="name" v="Heglandsheia" />
		<tag k="ssr:date" v="2019-12-27" />
		<tag k="ssr:gruppe" v="veg" />
		<tag k="ssr:hovedgruppe" v="infrastruktur" />
		<tag k="ssr:stedsnr" v="1050974" />
		<tag k="ssr:type" v="adressenavn" />
	</node>
	<node lat="59.23628961849238" lon="9.225524384141158" id="-50583">
		<tag k="name" v="Briskemyrvegen" />
		<tag k="ssr:date" v="2019-12-27" />
		<tag k="ssr:gruppe" v="veg" />
		<tag k="ssr:hovedgruppe" v="infrastruktur" />
		<tag k="ssr:stedsnr" v="1050975" />
		<tag k="ssr:type" v="adressenavn" />
	</node>
	<node lat="59.29046483829766" lon="9.210034584935192" id="-50584">
		<tag k="name" v="Nyhusvegen" />
		<tag k="ssr:date" v="2019-12-27" />
		<tag k="ssr:gruppe" v="veg" />
		<tag k="ssr:hovedgruppe" v="infrastruktur" />
		<tag k="ssr:stedsnr" v="1050976" />
		<tag k="ssr:type" v="adressenavn" />
	</node>
	<node lat="59.318347597292394" lon="9.23997272228184" id="-50585">
		<tag k="name" v="Sannesvegen" />
		<tag k="ssr:date" v="2019-12-27" />
		<tag k="ssr:gruppe" v="veg" />
		<tag k="ssr:hovedgruppe" v="infrastruktur" />
		<tag k="ssr:stedsnr" v="1050977" />
		<tag k="ssr:type" v="adressenavn" />
	</node>
	<node lat="59.29201567410733" lon="9.201502831424099" id="-50586">
		<tag k="name" v="Nomevegen" />
		<tag k="ssr:date" v="2019-12-27" />
		<tag k="ssr:gruppe" v="veg" />
		<tag k="ssr:hovedgruppe" v="infrastruktur" />
		<tag k="ssr:stedsnr" v="1050927" />
		<tag k="ssr:type" v="adressenavn" />
	</node>
	<node lat="59.22651004185159" lon="9.395058133975363" id="-50587">
		<tag k="name" v="Skiensvegen" />
		<tag k="ssr:date" v="2019-12-27" />
		<tag k="ssr:gruppe" v="veg" />
		<tag k="ssr:hovedgruppe" v="infrastruktur" />
		<tag k="ssr:stedsnr" v="1050928" />
		<tag k="ssr:type" v="adressenavn" />
	</node>
	<node lat="59.35757608579591" lon="9.061041193184044" id="-50588">
		<tag k="name" v="Skigardskåsa" />
		<tag k="ssr:date" v="2019-12-27" />
		<tag k="ssr:gruppe" v="veg" />
		<tag k="ssr:hovedgruppe" v="infrastruktur" />
		<tag k="ssr:stedsnr" v="1050986" />
		<tag k="ssr:type" v="adressenavn" />
	</node>
	<node lat="59.35032440930523" lon="9.069127408945599" id="-50589">
		<tag k="name" v="Lonavegen" />
		<tag k="ssr:date" v="2019-12-27" />
		<tag k="ssr:gruppe" v="veg" />
		<tag k="ssr:hovedgruppe" v="infrastruktur" />
		<tag k="ssr:stedsnr" v="1050987" />
		<tag k="ssr:type" v="adressenavn" />
	</node>
	<node lat="59.319287442737654" lon="9.10849398107738" id="-50590">
		<tag k="name" v="Slåttavegen" />
		<tag k="ssr:date" v="2019-12-27" />
		<tag k="ssr:gruppe" v="veg" />
		<tag k="ssr:hovedgruppe" v="infrastruktur" />
		<tag k="ssr:stedsnr" v="1050988" />
		<tag k="ssr:type" v="adressenavn" />
	</node>
	<node lat="59.3712670057011" lon="9.06576430164966" id="-50591">
		<tag k="name" v="Børtevegen" />
		<tag k="ssr:date" v="2019-12-27" />
		<tag k="ssr:gruppe" v="veg" />
		<tag k="ssr:hovedgruppe" v="infrastruktur" />
		<tag k="ssr:stedsnr" v="1050989" />
		<tag k="ssr:type" v="adressenavn" />
	</node>
	<node lat="59.35770944268635" lon="9.060960842006565" id="-50592">
		<tag k="name" v="Kleppevegen" />
		<tag k="ssr:date" v="2019-12-27" />
		<tag k="ssr:gruppe" v="veg" />
		<tag k="ssr:hovedgruppe" v="infrastruktur" />
		<tag k="ssr:stedsnr" v="1050990" />
		<tag k="ssr:type" v="adressenavn" />
	</node>
	<node lat="59.3712670057011" lon="9.06576430164966" id="-50593">
		<tag k="name" v="Myhrevegen" />
		<tag k="ssr:date" v="2019-12-27" />
		<tag k="ssr:gruppe" v="veg" />
		<tag k="ssr:hovedgruppe" v="infrastruktur" />
		<tag k="ssr:stedsnr" v="1050991" />
		<tag k="ssr:type" v="adressenavn" />
	</node>
	<node lat="59.32289879781136" lon="9.25182169807056" id="-50594">
		<tag k="name" v="Sannes Hyttegrend" />
		<tag k="ssr:date" v="2019-12-27" />
		<tag k="ssr:gruppe" v="veg" />
		<tag k="ssr:hovedgruppe" v="infrastruktur" />
		<tag k="ssr:stedsnr" v="1050994" />
		<tag k="ssr:type" v="adressenavn" />
	</node>
	<node lat="59.258887077386554" lon="9.224640012705775" id="-50595">
		<tag k="name" v="Nukedalsvegen" />
		<tag k="ssr:date" v="2019-12-27" />
		<tag k="ssr:gruppe" v="veg" />
		<tag k="ssr:hovedgruppe" v="infrastruktur" />
		<tag k="ssr:stedsnr" v="1051019" />
		<tag k="ssr:type" v="adressenavn" />
	</node>
	<node lat="59.259115352574895" lon="9.202569195512105" id="-50596">
		<tag k="name" v="Svartedalsvegen" />
		<tag k="ssr:date" v="2019-12-27" />
		<tag k="ssr:gruppe" v="veg" />
		<tag k="ssr:hovedgruppe" v="infrastruktur" />
		<tag k="ssr:stedsnr" v="1051020" />
		<tag k="ssr:type" v="adressenavn" />
	</node>
	<node lat="59.24669650872617" lon="9.105097146508735" id="-50597">
		<tag k="name" v="Minnesjøvegen" />
		<tag k="ssr:date" v="2019-12-27" />
		<tag k="ssr:gruppe" v="veg" />
		<tag k="ssr:hovedgruppe" v="infrastruktur" />
		<tag k="ssr:stedsnr" v="1051021" />
		<tag k="ssr:type" v="adressenavn" />
	</node>
	<node lat="59.28605954834586" lon="9.17000323954029" id="-50598">
		<tag k="name" v="Baksåsvegen" />
		<tag k="ssr:date" v="2019-12-27" />
		<tag k="ssr:gruppe" v="veg" />
		<tag k="ssr:hovedgruppe" v="infrastruktur" />
		<tag k="ssr:stedsnr" v="1051022" />
		<tag k="ssr:type" v="adressenavn" />
	</node>
	<node lat="59.24729905990133" lon="9.103201236889479" id="-50599">
		<tag k="name" v="Rekatjønnvegen" />
		<tag k="ssr:date" v="2019-12-27" />
		<tag k="ssr:gruppe" v="veg" />
		<tag k="ssr:hovedgruppe" v="infrastruktur" />
		<tag k="ssr:stedsnr" v="1051023" />
		<tag k="ssr:type" v="adressenavn" />
	</node>
	<node lat="59.253749347552194" lon="9.112308024838288" id="-50600">
		<tag k="name" v="Englandsvegen" />
		<tag k="ssr:date" v="2019-12-27" />
		<tag k="ssr:gruppe" v="veg" />
		<tag k="ssr:hovedgruppe" v="infrastruktur" />
		<tag k="ssr:stedsnr" v="1051024" />
		<tag k="ssr:type" v="adressenavn" />
	</node>
	<node lat="59.26506168086905" lon="9.12742477760751" id="-50601">
		<tag k="name" v="Vomstulvegen" />
		<tag k="ssr:date" v="2019-12-27" />
		<tag k="ssr:gruppe" v="veg" />
		<tag k="ssr:hovedgruppe" v="infrastruktur" />
		<tag k="ssr:stedsnr" v="1051025" />
		<tag k="ssr:type" v="adressenavn" />
	</node>
	<node lat="59.254103296403215" lon="9.110228628894864" id="-50602">
		<tag k="name" v="Dalatjønnvegen" />
		<tag k="ssr:date" v="2019-12-27" />
		<tag k="ssr:gruppe" v="veg" />
		<tag k="ssr:hovedgruppe" v="infrastruktur" />
		<tag k="ssr:stedsnr" v="1051027" />
		<tag k="ssr:type" v="adressenavn" />
	</node>
	<node lat="59.26811774034026" lon="8.869507129016565" id="-50603">
		<tag k="name" v="Furuvannsveien" />
		<tag k="ssr:date" v="2019-12-27" />
		<tag k="ssr:gruppe" v="veg" />
		<tag k="ssr:hovedgruppe" v="infrastruktur" />
		<tag k="ssr:stedsnr" v="1051028" />
		<tag k="ssr:type" v="adressenavn" />
	</node>
	<node lat="59.262315563063694" lon="8.919595422521349" id="-50604">
		<tag k="name" v="Melåsveien" />
		<tag k="ssr:date" v="2019-12-27" />
		<tag k="ssr:gruppe" v="veg" />
		<tag k="ssr:hovedgruppe" v="infrastruktur" />
		<tag k="ssr:stedsnr" v="1051029" />
		<tag k="ssr:type" v="adressenavn" />
	</node>
	<node lat="59.28530909342467" lon="8.960136271351018" id="-50605">
		<tag k="name" v="Fiskelaus hyttefelt" />
		<tag k="ssr:date" v="2019-12-27" />
		<tag k="ssr:gruppe" v="veg" />
		<tag k="ssr:hovedgruppe" v="infrastruktur" />
		<tag k="ssr:stedsnr" v="1051030" />
		<tag k="ssr:type" v="adressenavn" />
	</node>
	<node lat="59.24583071422385" lon="9.062599613776772" id="-50606">
		<tag k="name" v="Gongevatn hyttefelt" />
		<tag k="ssr:date" v="2019-12-27" />
		<tag k="ssr:gruppe" v="veg" />
		<tag k="ssr:hovedgruppe" v="infrastruktur" />
		<tag k="ssr:stedsnr" v="1051031" />
		<tag k="ssr:type" v="adressenavn" />
	</node>
	<node lat="59.28023734476493" lon="8.921310067402546" id="-50607">
		<tag k="name" v="Uvil hyttefelt" />
		<tag k="ssr:date" v="2019-12-27" />
		<tag k="ssr:gruppe" v="veg" />
		<tag k="ssr:hovedgruppe" v="infrastruktur" />
		<tag k="ssr:stedsnr" v="1051032" />
		<tag k="ssr:type" v="adressenavn" />
	</node>
	<node lat="59.28933958547688" lon="8.95161388814378" id="-50608">
		<tag k="name" v="Venheim hyttefelt" />
		<tag k="ssr:date" v="2019-12-27" />
		<tag k="ssr:gruppe" v="veg" />
		<tag k="ssr:hovedgruppe" v="infrastruktur" />
		<tag k="ssr:stedsnr" v="1051033" />
		<tag k="ssr:type" v="adressenavn" />
	</node>
	<node lat="59.23429025942297" lon="9.074037524401621" id="-50609">
		<tag k="name" v="Svanetjønnvegen" />
		<tag k="ssr:date" v="2019-12-27" />
		<tag k="ssr:gruppe" v="veg" />
		<tag k="ssr:hovedgruppe" v="infrastruktur" />
		<tag k="ssr:stedsnr" v="1051034" />
		<tag k="ssr:type" v="adressenavn" />
	</node>
	<node lat="59.277233787588585" lon="8.976089931756839" id="-50610">
		<tag k="name" v="Linfjellvegen" />
		<tag k="ssr:date" v="2019-12-27" />
		<tag k="ssr:gruppe" v="veg" />
		<tag k="ssr:hovedgruppe" v="infrastruktur" />
		<tag k="ssr:stedsnr" v="1051035" />
		<tag k="ssr:type" v="adressenavn" />
	</node>
	<node lat="59.23032560859557" lon="9.254282712866198" id="-50611">
		<tag k="name" v="Øvre Stavsjø hytteområde" />
		<tag k="ssr:date" v="2019-12-27" />
		<tag k="ssr:gruppe" v="veg" />
		<tag k="ssr:hovedgruppe" v="infrastruktur" />
		<tag k="ssr:stedsnr" v="1051104" />
		<tag k="ssr:type" v="adressenavn" />
	</node>
	<node lat="59.237126274986196" lon="9.42917730949558" id="-50612">
		<tag k="name" v="Munken" />
		<tag k="ssr:date" v="2019-12-27" />
		<tag k="ssr:gruppe" v="veg" />
		<tag k="ssr:hovedgruppe" v="infrastruktur" />
		<tag k="ssr:stedsnr" v="1051105" />
		<tag k="ssr:type" v="adressenavn" />
	</node>
	<node lat="59.170005573051874" lon="9.216184755839786" id="-50613">
		<tag k="name" v="Auretjennvegen" />
		<tag k="ssr:date" v="2019-12-27" />
		<tag k="ssr:gruppe" v="veg" />
		<tag k="ssr:hovedgruppe" v="infrastruktur" />
		<tag k="ssr:stedsnr" v="1051106" />
		<tag k="ssr:type" v="adressenavn" />
	</node>
	<node lat="59.28902714399924" lon="9.245805933503998" id="-50614">
		<tag k="name" v="Skaravegen" />
		<tag k="ssr:date" v="2019-12-27" />
		<tag k="ssr:gruppe" v="veg" />
		<tag k="ssr:hovedgruppe" v="infrastruktur" />
		<tag k="ssr:stedsnr" v="1051107" />
		<tag k="ssr:type" v="adressenavn" />
	</node>
	<node lat="59.200798344247" lon="9.175334243439663" id="-50615">
		<tag k="name" v="Brokevegen" />
		<tag k="ssr:date" v="2019-12-27" />
		<tag k="ssr:gruppe" v="veg" />
		<tag k="ssr:hovedgruppe" v="infrastruktur" />
		<tag k="ssr:stedsnr" v="1051108" />
		<tag k="ssr:type" v="adressenavn" />
	</node>
	<node lat="59.15385202117221" lon="9.201272559475015" id="-50616">
		<tag k="name" v="Bømarksvegen" />
		<tag k="ssr:date" v="2019-12-27" />
		<tag k="ssr:gruppe" v="veg" />
		<tag k="ssr:hovedgruppe" v="infrastruktur" />
		<tag k="ssr:stedsnr" v="1051110" />
		<tag k="ssr:type" v="adressenavn" />
	</node>
	<node lat="59.22137864261838" lon="9.334186123674794" id="-50617">
		<tag k="name" v="Gudmundsbekkvegen" />
		<tag k="ssr:date" v="2019-12-27" />
		<tag k="ssr:gruppe" v="veg" />
		<tag k="ssr:hovedgruppe" v="infrastruktur" />
		<tag k="ssr:stedsnr" v="1051111" />
		<tag k="ssr:type" v="adressenavn" />
	</node>
	<node lat="59.20220094739381" lon="9.198694539759918" id="-50618">
		<tag k="name" v="Helsokvegen" />
		<tag k="ssr:date" v="2019-12-27" />
		<tag k="ssr:gruppe" v="veg" />
		<tag k="ssr:hovedgruppe" v="infrastruktur" />
		<tag k="ssr:stedsnr" v="1051112" />
		<tag k="ssr:type" v="adressenavn" />
	</node>
	<node lat="59.2060483351566" lon="9.195994841815988" id="-50619">
		<tag k="name" v="Sannavegen" />
		<tag k="ssr:date" v="2019-12-27" />
		<tag k="ssr:gruppe" v="veg" />
		<tag k="ssr:hovedgruppe" v="infrastruktur" />
		<tag k="ssr:stedsnr" v="1051113" />
		<tag k="ssr:type" v="adressenavn" />
	</node>
	<node lat="59.15692232011377" lon="9.253281910246164" id="-50620">
		<tag k="name" v="Høydalsvegen" />
		<tag k="ssr:date" v="2019-12-27" />
		<tag k="ssr:gruppe" v="veg" />
		<tag k="ssr:hovedgruppe" v="infrastruktur" />
		<tag k="ssr:stedsnr" v="1051114" />
		<tag k="ssr:type" v="adressenavn" />
	</node>
	<node lat="59.16350131693352" lon="9.249302606024381" id="-50621">
		<tag k="name" v="Grasdalsvegen" />
		<tag k="ssr:date" v="2019-12-27" />
		<tag k="ssr:gruppe" v="veg" />
		<tag k="ssr:hovedgruppe" v="infrastruktur" />
		<tag k="ssr:stedsnr" v="1051116" />
		<tag k="ssr:type" v="adressenavn" />
	</node>
	<node lat="59.218532855380694" lon="9.249507536532484" id="-50622">
		<tag k="name" v="Svartufsvegen" />
		<tag k="ssr:date" v="2019-12-27" />
		<tag k="ssr:gruppe" v="veg" />
		<tag k="ssr:hovedgruppe" v="infrastruktur" />
		<tag k="ssr:stedsnr" v="1051117" />
		<tag k="ssr:type" v="adressenavn" />
	</node>
	<node lat="59.207704590178764" lon="9.240739916434894" id="-50623">
		<tag k="name" v="Viftingvegen" />
		<tag k="ssr:date" v="2019-12-27" />
		<tag k="ssr:gruppe" v="veg" />
		<tag k="ssr:hovedgruppe" v="infrastruktur" />
		<tag k="ssr:stedsnr" v="1051118" />
		<tag k="ssr:type" v="adressenavn" />
	</node>
	<node lat="59.23628961849238" lon="9.225524384141158" id="-50624">
		<tag k="name" v="Hollasetervegen" />
		<tag k="ssr:date" v="2019-12-27" />
		<tag k="ssr:gruppe" v="veg" />
		<tag k="ssr:hovedgruppe" v="infrastruktur" />
		<tag k="ssr:stedsnr" v="1051119" />
		<tag k="ssr:type" v="adressenavn" />
	</node>
	<node lat="59.23666024731584" lon="9.253712794288157" id="-50625">
		<tag k="name" v="Håtveitsetervegen" />
		<tag k="ssr:date" v="2019-12-27" />
		<tag k="ssr:gruppe" v="veg" />
		<tag k="ssr:hovedgruppe" v="infrastruktur" />
		<tag k="ssr:stedsnr" v="1051121" />
		<tag k="ssr:type" v="adressenavn" />
	</node>
	<node lat="59.292751516414945" lon="9.19507247010588" id="-50626">
		<tag k="name" v="Eidsbygdavegen" />
		<tag k="ssr:date" v="2019-12-27" />
		<tag k="ssr:gruppe" v="veg" />
		<tag k="ssr:hovedgruppe" v="infrastruktur" />
		<tag k="ssr:stedsnr" v="1050979" />
		<tag k="ssr:type" v="adressenavn" />
	</node>
	<node lat="59.325067582667856" lon="8.993619155182566" id="-50627">
		<tag k="name" v="Tveitbryggevegen" />
		<tag k="ssr:date" v="2019-12-27" />
		<tag k="ssr:gruppe" v="veg" />
		<tag k="ssr:hovedgruppe" v="infrastruktur" />
		<tag k="ssr:stedsnr" v="1050980" />
		<tag k="ssr:type" v="adressenavn" />
	</node>
	<node lat="59.31891657361614" lon="8.96236906788293" id="-50628">
		<tag k="name" v="Rekanesvegen" />
		<tag k="ssr:date" v="2019-12-27" />
		<tag k="ssr:gruppe" v="veg" />
		<tag k="ssr:hovedgruppe" v="infrastruktur" />
		<tag k="ssr:stedsnr" v="1050981" />
		<tag k="ssr:type" v="adressenavn" />
	</node>
	<node lat="59.34192122560468" lon="9.08525495750288" id="-50629">
		<tag k="name" v="Valenvegen" />
		<tag k="ssr:date" v="2019-12-27" />
		<tag k="ssr:gruppe" v="veg" />
		<tag k="ssr:hovedgruppe" v="infrastruktur" />
		<tag k="ssr:stedsnr" v="1050982" />
		<tag k="ssr:type" v="adressenavn" />
	</node>
	<node lat="59.335869910090516" lon="9.081296731529422" id="-50630">
		<tag k="name" v="Østerholtvegen" />
		<tag k="ssr:date" v="2019-12-27" />
		<tag k="ssr:gruppe" v="veg" />
		<tag k="ssr:hovedgruppe" v="infrastruktur" />
		<tag k="ssr:stedsnr" v="1050983" />
		<tag k="ssr:type" v="adressenavn" />
	</node>
	<node lat="59.34462936466145" lon="9.075155907923373" id="-50631">
		<tag k="name" v="Suvdalvegen" />
		<tag k="ssr:date" v="2019-12-27" />
		<tag k="ssr:gruppe" v="veg" />
		<tag k="ssr:hovedgruppe" v="infrastruktur" />
		<tag k="ssr:stedsnr" v="1050984" />
		<tag k="ssr:type" v="adressenavn" />
	</node>
	<node lat="59.255410267193405" lon="9.035996962509333" id="-50632">
		<tag k="name" v="Gongevegen" />
		<tag k="ssr:date" v="2019-12-27" />
		<tag k="ssr:gruppe" v="veg" />
		<tag k="ssr:hovedgruppe" v="infrastruktur" />
		<tag k="ssr:stedsnr" v="1051037" />
		<tag k="ssr:type" v="adressenavn" />
	</node>
	<node lat="59.289997168226776" lon="8.943298372164232" id="-50633">
		<tag k="name" v="Teigenvegen" />
		<tag k="ssr:date" v="2019-12-27" />
		<tag k="ssr:gruppe" v="veg" />
		<tag k="ssr:hovedgruppe" v="infrastruktur" />
		<tag k="ssr:stedsnr" v="1051038" />
		<tag k="ssr:type" v="adressenavn" />
	</node>
	<node lat="59.287398549554815" lon="8.963842509840699" id="-50634">
		<tag k="name" v="Venheimvegen" />
		<tag k="ssr:date" v="2019-12-27" />
		<tag k="ssr:gruppe" v="veg" />
		<tag k="ssr:hovedgruppe" v="infrastruktur" />
		<tag k="ssr:stedsnr" v="1051039" />
		<tag k="ssr:type" v="adressenavn" />
	</node>
	<node lat="59.28485791235274" lon="9.005249603780708" id="-50635">
		<tag k="name" v="Ervingsdalsvegen" />
		<tag k="ssr:date" v="2019-12-27" />
		<tag k="ssr:gruppe" v="veg" />
		<tag k="ssr:hovedgruppe" v="infrastruktur" />
		<tag k="ssr:stedsnr" v="1051040" />
		<tag k="ssr:type" v="adressenavn" />
	</node>
	<node lat="59.281834157760365" lon="8.920816737948646" id="-50636">
		<tag k="name" v="Uvilvegen" />
		<tag k="ssr:date" v="2019-12-27" />
		<tag k="ssr:gruppe" v="veg" />
		<tag k="ssr:hovedgruppe" v="infrastruktur" />
		<tag k="ssr:stedsnr" v="1051041" />
		<tag k="ssr:type" v="adressenavn" />
	</node>
	<node lat="59.359084198883714" lon="9.073833100349244" id="-50637">
		<tag k="name" v="Brånåsvegen" />
		<tag k="ssr:date" v="2019-12-27" />
		<tag k="ssr:gruppe" v="veg" />
		<tag k="ssr:hovedgruppe" v="infrastruktur" />
		<tag k="ssr:stedsnr" v="1051042" />
		<tag k="ssr:type" v="adressenavn" />
	</node>
	<node lat="59.24660206686466" lon="9.251925503204133" id="-50638">
		<tag k="name" v="Brennebuvegen" />
		<tag k="ssr:date" v="2019-12-27" />
		<tag k="ssr:gruppe" v="veg" />
		<tag k="ssr:hovedgruppe" v="infrastruktur" />
		<tag k="ssr:stedsnr" v="1051043" />
		<tag k="ssr:type" v="adressenavn" />
	</node>
	<node lat="59.3239176182477" lon="9.24956928704926" id="-50639">
		<tag k="name" v="Sannesåsvegen" />
		<tag k="ssr:date" v="2019-12-27" />
		<tag k="ssr:gruppe" v="veg" />
		<tag k="ssr:hovedgruppe" v="infrastruktur" />
		<tag k="ssr:stedsnr" v="1051044" />
		<tag k="ssr:type" v="adressenavn" />
	</node>
	<node lat="59.31616686010799" lon="8.946207971853443" id="-50640">
		<tag k="name" v="Buktabakken" />
		<tag k="ssr:date" v="2019-12-27" />
		<tag k="ssr:gruppe" v="veg" />
		<tag k="ssr:hovedgruppe" v="infrastruktur" />
		<tag k="ssr:stedsnr" v="1051045" />
		<tag k="ssr:type" v="adressenavn" />
	</node>
	<node lat="59.32049965629452" lon="9.010268828101566" id="-50641">
		<tag k="name" v="Røimålbakken" />
		<tag k="ssr:date" v="2019-12-27" />
		<tag k="ssr:gruppe" v="veg" />
		<tag k="ssr:hovedgruppe" v="infrastruktur" />
		<tag k="ssr:stedsnr" v="1051046" />
		<tag k="ssr:type" v="adressenavn" />
	</node>
	<node lat="59.32574206961497" lon="9.008802603006275" id="-50642">
		<tag k="name" v="Gisholtvegen" />
		<tag k="ssr:date" v="2019-12-27" />
		<tag k="ssr:gruppe" v="veg" />
		<tag k="ssr:hovedgruppe" v="infrastruktur" />
		<tag k="ssr:stedsnr" v="1051047" />
		<tag k="ssr:type" v="adressenavn" />
	</node>
	<node lat="59.32449808274455" lon="8.978268418249035" id="-50643">
		<tag k="name" v="Flomvegen" />
		<tag k="ssr:date" v="2019-12-27" />
		<tag k="ssr:gruppe" v="veg" />
		<tag k="ssr:hovedgruppe" v="infrastruktur" />
		<tag k="ssr:stedsnr" v="1051048" />
		<tag k="ssr:type" v="adressenavn" />
	</node>
	<node lat="59.292248726033264" lon="9.196818048724408" id="-50644">
		<tag k="name" v="Lågmovegen" />
		<tag k="ssr:date" v="2019-12-27" />
		<tag k="ssr:gruppe" v="veg" />
		<tag k="ssr:hovedgruppe" v="infrastruktur" />
		<tag k="ssr:stedsnr" v="1051049" />
		<tag k="ssr:type" v="adressenavn" />
	</node>
	<node lat="59.315896691287016" lon="9.033066099538605" id="-50645">
		<tag k="name" v="Fjellstadvegen" />
		<tag k="ssr:date" v="2019-12-27" />
		<tag k="ssr:gruppe" v="veg" />
		<tag k="ssr:hovedgruppe" v="infrastruktur" />
		<tag k="ssr:stedsnr" v="1051050" />
		<tag k="ssr:type" v="adressenavn" />
	</node>
	<node lat="59.36944305684371" lon="9.050354544796225" id="-50646">
		<tag k="name" v="Nordskogvegen" />
		<tag k="ssr:date" v="2019-12-27" />
		<tag k="ssr:gruppe" v="veg" />
		<tag k="ssr:hovedgruppe" v="infrastruktur" />
		<tag k="ssr:stedsnr" v="1051051" />
		<tag k="ssr:type" v="adressenavn" />
	</node>
	<node lat="59.29837387426066" lon="9.041065061488275" id="-50647">
		<tag k="name" v="Skogmovegen" />
		<tag k="ssr:date" v="2019-12-27" />
		<tag k="ssr:gruppe" v="veg" />
		<tag k="ssr:hovedgruppe" v="infrastruktur" />
		<tag k="ssr:stedsnr" v="1051052" />
		<tag k="ssr:type" v="adressenavn" />
	</node>
	<node lat="59.32501681889889" lon="9.118768574708131" id="-50648">
		<tag k="name" v="Hellestadvegen" />
		<tag k="ssr:date" v="2019-12-27" />
		<tag k="ssr:gruppe" v="veg" />
		<tag k="ssr:hovedgruppe" v="infrastruktur" />
		<tag k="ssr:stedsnr" v="1051053" />
		<tag k="ssr:type" v="adressenavn" />
	</node>
	<node lat="59.352016512409094" lon="9.059654228662206" id="-50649">
		<tag k="name" v="Myrlandvegen" />
		<tag k="ssr:date" v="2019-12-27" />
		<tag k="ssr:gruppe" v="veg" />
		<tag k="ssr:hovedgruppe" v="infrastruktur" />
		<tag k="ssr:stedsnr" v="1051054" />
		<tag k="ssr:type" v="adressenavn" />
	</node>
	<node lat="59.3122633856826" lon="9.098514382193962" id="-50650">
		<tag k="name" v="Liabakken" />
		<tag k="ssr:date" v="2019-12-27" />
		<tag k="ssr:gruppe" v="veg" />
		<tag k="ssr:hovedgruppe" v="infrastruktur" />
		<tag k="ssr:stedsnr" v="1051055" />
		<tag k="ssr:type" v="adressenavn" />
	</node>
	<node lat="59.33518246940446" lon="9.08933642335129" id="-50651">
		<tag k="name" v="Svenseidvegen" />
		<tag k="ssr:date" v="2019-12-27" />
		<tag k="ssr:gruppe" v="veg" />
		<tag k="ssr:hovedgruppe" v="infrastruktur" />
		<tag k="ssr:stedsnr" v="1051056" />
		<tag k="ssr:type" v="adressenavn" />
	</node>
	<node lat="59.29105140072357" lon="9.205895696329076" id="-50652">
		<tag k="name" v="Hestekåsbakken" />
		<tag k="ssr:date" v="2019-12-27" />
		<tag k="ssr:gruppe" v="veg" />
		<tag k="ssr:hovedgruppe" v="infrastruktur" />
		<tag k="ssr:stedsnr" v="1051057" />
		<tag k="ssr:type" v="adressenavn" />
	</node>
	<node lat="59.30668734011572" lon="9.138775969738116" id="-50653">
		<tag k="name" v="Barlaugkleiva" />
		<tag k="ssr:date" v="2019-12-27" />
		<tag k="ssr:gruppe" v="veg" />
		<tag k="ssr:hovedgruppe" v="infrastruktur" />
		<tag k="ssr:stedsnr" v="1051058" />
		<tag k="ssr:type" v="adressenavn" />
	</node>
	<node lat="59.29049504687666" lon="9.209817910400446" id="-50654">
		<tag k="name" v="Dagsrudalleen" />
		<tag k="ssr:date" v="2019-12-27" />
		<tag k="ssr:gruppe" v="veg" />
		<tag k="ssr:hovedgruppe" v="infrastruktur" />
		<tag k="ssr:stedsnr" v="1051059" />
		<tag k="ssr:type" v="adressenavn" />
	</node>
	<node lat="59.28648963207201" lon="9.20117579492146" id="-50655">
		<tag k="name" v="Dagsrudgata" />
		<tag k="ssr:date" v="2019-12-27" />
		<tag k="ssr:gruppe" v="veg" />
		<tag k="ssr:hovedgruppe" v="infrastruktur" />
		<tag k="ssr:stedsnr" v="1051060" />
		<tag k="ssr:type" v="adressenavn" />
	</node>
	<node lat="59.25798139261806" lon="9.357498707479678" id="-50656">
		<tag k="name" v="Sverdsteinvegen" />
		<tag k="ssr:date" v="2019-12-27" />
		<tag k="ssr:gruppe" v="veg" />
		<tag k="ssr:hovedgruppe" v="infrastruktur" />
		<tag k="ssr:stedsnr" v="1051061" />
		<tag k="ssr:type" v="adressenavn" />
	</node>
	<node lat="59.26301400441531" lon="9.337247897009641" id="-50657">
		<tag k="name" v="Kollevegen" />
		<tag k="ssr:date" v="2019-12-27" />
		<tag k="ssr:gruppe" v="veg" />
		<tag k="ssr:hovedgruppe" v="infrastruktur" />
		<tag k="ssr:stedsnr" v="1051062" />
		<tag k="ssr:type" v="adressenavn" />
	</node>
	<node lat="59.25670806967818" lon="9.368384484966294" id="-50658">
		<tag k="name" v="Ytterbøvegen" />
		<tag k="ssr:date" v="2019-12-27" />
		<tag k="ssr:gruppe" v="veg" />
		<tag k="ssr:hovedgruppe" v="infrastruktur" />
		<tag k="ssr:stedsnr" v="1051063" />
		<tag k="ssr:type" v="adressenavn" />
	</node>
	<node lat="59.25711738287757" lon="9.365268836873211" id="-50659">
		<tag k="name" v="Prestegravvegen" />
		<tag k="ssr:date" v="2019-12-27" />
		<tag k="ssr:gruppe" v="veg" />
		<tag k="ssr:hovedgruppe" v="infrastruktur" />
		<tag k="ssr:stedsnr" v="1051064" />
		<tag k="ssr:type" v="adressenavn" />
	</node>
	<node lat="59.25511788984224" lon="9.388107952706914" id="-50660">
		<tag k="name" v="Nesetvegen" />
		<tag k="ssr:date" v="2019-12-27" />
		<tag k="ssr:gruppe" v="veg" />
		<tag k="ssr:hovedgruppe" v="infrastruktur" />
		<tag k="ssr:stedsnr" v="1051065" />
		<tag k="ssr:type" v="adressenavn" />
	</node>
	<node lat="59.21614767841852" lon="9.611103016923492" id="-50662">
		<tag k="name" v="Vestfold og Telemark fylke" />
		<tag k="ssr:date" v="2021-06-08" />
		<tag k="ssr:gruppe" v="administrativeIndelinger" />
		<tag k="ssr:hovedgruppe" v="offentligAdministrasjon" />
		<tag k="ssr:stedsnr" v="1073927" />
		<tag k="ssr:type" v="fylke" />
	</node>
	<node lat="59.30536282899585" lon="9.265198173609923" id="-50666">
		<tag k="name" v="Deilavegen" />
		<tag k="ssr:date" v="2020-09-01" />
		<tag k="ssr:gruppe" v="veg" />
		<tag k="ssr:hovedgruppe" v="infrastruktur" />
		<tag k="ssr:stedsnr" v="1078118" />
		<tag k="ssr:type" v="adressenavn" />
	</node>
</osm>
