<?xml version="1.0" encoding="UTF-8"?>
<osm version="0.6" generator="osmapis">
	<node lat="60.60730833202032" lon="9.828269448858196" id="-23721">
		<tag k="name" v="Gildra" />
		<tag k="ssr:stedsnr" v="6905" />
		<tag k="waterway" v="stream" />
	</node>
	<node lat="60.665380559930384" lon="9.74764444379951" id="-23722">
		<tag k="alt_name" v="Grimsrud, s" />
		<tag k="name" v="Søre Grimsrud" />
		<tag k="place" v="farm" />
		<tag k="ssr:stedsnr" v="6965" />
	</node>
	<node lat="60.71937499732577" lon="9.37389999666377" id="-23723">
		<tag k="alt_name" v="Søkkjimyratn" />
		<tag k="name" v="Søkkemyr" />
		<tag k="natural" v="wetland" />
		<tag k="ssr:stedsnr" v="7516" />
	</node>
	<node lat="60.7201305567552" lon="9.584808329770802" id="-23724">
		<tag k="alt_name" v="Øyvassæterhøgde" />
		<tag k="fixme" v="consider natural=peak for the most distinct mountains in the district" />
		<tag k="name" v="Øyvasshøgdi" />
		<tag k="natural" v="hill" />
		<tag k="place" v="locality" />
		<tag k="ssr:stedsnr" v="7519" />
	</node>
	<node lat="60.72173333349248" lon="9.381511115578755" id="-23725">
		<tag k="name" v="Ormebekken" />
		<tag k="ssr:stedsnr" v="7522" />
		<tag k="waterway" v="stream" />
	</node>
	<node lat="60.70624721982183" lon="9.539724997697293" id="-23726">
		<tag k="alt_name" v="Gamlesæterhøgda" />
		<tag k="fixme" v="consider natural=peak for the most distinct mountains in the district" />
		<tag k="name" v="Gamlesæterhøgdi" />
		<tag k="natural" v="hill" />
		<tag k="place" v="locality" />
		<tag k="ssr:stedsnr" v="7527" />
	</node>
	<node lat="60.711949996275344" lon="9.406850005033531" id="-23727">
		<tag k="name" v="Marabrennputten" />
		<tag k="natural" v="water" />
		<tag k="ssr:stedsnr" v="7528" />
	</node>
	<node lat="60.621775000433004" lon="9.59215833564979" id="-23728">
		<tag k="name" v="Skriuåsen" />
		<tag k="place" v="locality" />
		<tag k="ssr:stedsnr" v="7655" />
	</node>
	<node lat="60.61377222013358" lon="9.40086943864373" id="-23729">
		<tag k="name" v="Strøen" />
		<tag k="natural" v="water" />
		<tag k="ssr:stedsnr" v="7662" />
		<tag k="water" v="lake" />
	</node>
	<node lat="60.73497222662011" lon="9.505572220503634" id="-23730">
		<tag k="name" v="Tanterhaug" />
		<tag k="place" v="isolated_dwelling" />
		<tag k="ssr:stedsnr" v="7548" />
	</node>
	<node lat="60.65940833685717" lon="9.45315000215791" id="-23731">
		<tag k="alt_name" v="Tommasvollen" />
		<tag k="historic" v="shieling" />
		<tag k="name" v="Tomasvollen" />
		<tag k="place" v="isolated_dwelling" />
		<tag k="ssr:stedsnr" v="7705" />
	</node>
	<node lat="60.670255555515546" lon="9.360936119780558" id="-23732">
		<tag k="name" v="Steintjernet" />
		<tag k="natural" v="water" />
		<tag k="old_name" v="Steintjednet" />
		<tag k="ssr:stedsnr" v="7727" />
	</node>
	<node lat="60.580019446357575" lon="9.77946387998674" id="-23733">
		<tag k="name" v="Pullmyra" />
		<tag k="natural" v="wetland" />
		<tag k="ssr:stedsnr" v="7805" />
	</node>
	<node lat="60.533350000823624" lon="9.76017500099673" id="-23734">
		<tag k="alt_name" v="Rakkestadbekken, nordre" />
		<tag k="name" v="Nordre Rakkestadbekken" />
		<tag k="ssr:stedsnr" v="7848" />
		<tag k="waterway" v="stream" />
	</node>
	<node lat="60.68753333062135" lon="9.706169449587538" id="-23735">
		<tag k="fixme" v="consider natural=peak for the most distinct mountains in the district" />
		<tag k="name" v="Svartfjellkollen" />
		<tag k="natural" v="hill" />
		<tag k="place" v="locality" />
		<tag k="ssr:stedsnr" v="7897" />
	</node>
	<node lat="60.69527500025463" lon="9.922894446946303" id="-23736">
		<tag k="alt_name" v="Godhaug, nordre" />
		<tag k="name" v="Nordre Godhaug" />
		<tag k="natural" v="hill" />
		<tag k="place" v="locality" />
		<tag k="ssr:stedsnr" v="7900" />
	</node>
	<node lat="60.735388892006505" lon="9.70778055982734" id="-23737">
		<tag k="alt_name" v="Nedre Helland" />
		<tag k="name" v="Helandshølen" />
		<tag k="place" v="farm" />
		<tag k="ssr:stedsnr" v="7946" />
	</node>
	<node lat="60.73367500286215" lon="9.631138881565088" id="-23738">
		<tag k="name" v="Kyrputten" />
		<tag k="natural" v="water" />
		<tag k="ssr:stedsnr" v="7947" />
		<tag k="water" v="pond" />
	</node>
	<node lat="60.64736944667787" lon="9.858480549548231" id="-23739">
		<tag k="alt_name" v="Tronshaugen" />
		<tag k="name" v="Tronsehaugen" />
		<tag k="old_name" v="Tronshaugene" />
		<tag k="place" v="isolated_dwelling" />
		<tag k="ssr:stedsnr" v="7958" />
	</node>
	<node lat="60.64319166816092" lon="9.706419440069531" id="-23740">
		<tag k="alt_name" v="Berge" />
		<tag k="name" v="Berget" />
		<tag k="place" v="farm" />
		<tag k="ssr:stedsnr" v="7959" />
	</node>
	<node lat="60.64495277857323" lon="9.597536108920353" id="-23741">
		<tag k="alt_name" v="Høgeberget" />
		<tag k="name" v="Høgberget" />
		<tag k="natural" v="hill" />
		<tag k="place" v="locality" />
		<tag k="ssr:stedsnr" v="7964" />
	</node>
	<node lat="60.63697500313678" lon="9.903108328456417" id="-23742">
		<tag k="alt_name" v="Jenserud" />
		<tag k="name" v="Jensrud" />
		<tag k="place" v="farm" />
		<tag k="ssr:stedsnr" v="7994" />
	</node>
	<node lat="60.85847499759498" lon="9.39186666550213" id="-23743">
		<tag k="alt_name" v="Nystølen" />
		<tag k="historic" v="shieling" />
		<tag k="name" v="Nyesætri" />
		<tag k="place" v="isolated_dwelling" />
		<tag k="ssr:stedsnr" v="8698" />
	</node>
	<node lat="60.803741662293774" lon="9.641708337143447" id="-23744">
		<tag k="name" v="Bjørkelund" />
		<tag k="place" v="farm" />
		<tag k="ssr:stedsnr" v="9213" />
	</node>
	<node lat="60.77462222596564" lon="9.609199997597294" id="-23745">
		<tag k="alt_name" v="Lundelia" />
		<tag k="name" v="Lii" />
		<tag k="place" v="farm" />
		<tag k="ssr:stedsnr" v="9102" />
	</node>
	<node lat="60.76127500168408" lon="9.599658341843192" id="-23746">
		<tag k="name" v="Gråbeinrud" />
		<tag k="place" v="isolated_dwelling" />
		<tag k="ssr:stedsnr" v="9143" />
	</node>
	<node lat="60.80075833419926" lon="9.599449995297713" id="-23747">
		<tag k="alt_name" v="Finhert" />
		<tag k="name" v="Finnhert" />
		<tag k="place" v="farm" />
		<tag k="ssr:stedsnr" v="9188" />
	</node>
	<node lat="60.831899996152345" lon="9.403625003596732" id="-23748">
		<tag k="alt_name" v="Tempelen" />
		<tag k="fixme" v="consider natural=peak for the most distinct mountains in the district" />
		<tag k="name" v="Heimretempelen" />
		<tag k="natural" v="hill" />
		<tag k="place" v="locality" />
		<tag k="ssr:stedsnr" v="9638" />
	</node>
	<node lat="60.77190695389724" lon="9.421496253232279" id="-23749">
		<tag k="alt_name" v="Ellenslie" />
		<tag k="name" v="Erlandslii" />
		<tag k="place" v="farm" />
		<tag k="ssr:stedsnr" v="9801" />
	</node>
	<node lat="60.81293611716735" lon="9.543128885275626" id="-23750">
		<tag k="alt_name" v="Karlsgor" />
		<tag k="fixme" v="consider place=hamlet" />
		<tag k="name" v="Karlsgot" />
		<tag k="place" v="farm" />
		<tag k="ssr:stedsnr" v="9813" />
	</node>
	<node lat="60.82877221999311" lon="9.505011106798793" id="-23751">
		<tag k="name" v="Haslo" />
		<tag k="place" v="farm" />
		<tag k="ssr:stedsnr" v="9837" />
	</node>
	<node lat="60.82248610710573" lon="9.552061102171916" id="-23752">
		<tag k="name" v="Bagn" />
		<tag k="place" v="village" />
		<tag k="ssr:stedsnr" v="9850" />
	</node>
	<node lat="60.766061111375" lon="9.451308332097241" id="-23753">
		<tag k="alt_name" v="Nysætere" />
		<tag k="historic" v="shieling" />
		<tag k="name" v="Nysætri" />
		<tag k="place" v="isolated_dwelling" />
		<tag k="ssr:stedsnr" v="9789" />
	</node>
	<node lat="60.77098611266063" lon="9.501075001250737" id="-23754">
		<tag k="name" v="Heimtjernet" />
		<tag k="natural" v="water" />
		<tag k="old_name" v="Heimtjednet" />
		<tag k="ssr:stedsnr" v="9791" />
	</node>
	<node lat="60.626719443254174" lon="9.676166661750207" id="-23755">
		<tag k="alt_name" v="Mellom-Grøv" />
		<tag k="loc_name" v="Midt-Grøv" />
		<tag k="name" v="Midtgrøv" />
		<tag k="place" v="farm" />
		<tag k="ssr:stedsnr" v="231691" />
	</node>
	<node lat="60.63262777699992" lon="9.520855562234694" id="-23756">
		<tag k="historic" v="shieling" />
		<tag k="name" v="Skinningsrudsætra" />
		<tag k="place" v="isolated_dwelling" />
		<tag k="ssr:stedsnr" v="39209" />
	</node>
	<node lat="60.79495555859578" lon="9.349961108885879" id="-23757">
		<tag k="name" v="Røvslihallitn" />
		<tag k="natural" v="slope" />
		<tag k="place" v="locality" />
		<tag k="ssr:stedsnr" v="39522" />
	</node>
	<node lat="60.8472555596915" lon="9.472569453373156" id="-23758">
		<tag k="name" v="Storurdknatten" />
		<tag k="natural" v="hill" />
		<tag k="place" v="locality" />
		<tag k="ssr:stedsnr" v="39704" />
	</node>
	<node lat="60.84190833719412" lon="9.500030551947301" id="-23759">
		<tag k="name" v="Høgbrenne" />
		<tag k="place" v="isolated_dwelling" />
		<tag k="ssr:stedsnr" v="39708" />
	</node>
	<node lat="60.650666670731646" lon="9.861241658261292" id="-23760">
		<tag k="name" v="Kolsrud" />
		<tag k="place" v="isolated_dwelling" />
		<tag k="ssr:stedsnr" v="39625" />
	</node>
	<node lat="60.532874998068976" lon="9.690333330979888" id="-23761">
		<tag k="name" v="Fiskebråten" />
		<tag k="place" v="locality" />
		<tag k="ssr:stedsnr" v="39802" />
	</node>
	<node lat="60.7725055580503" lon="9.635822218996257" id="-23762">
		<tag k="name" v="Øyhusbakkatn" />
		<tag k="natural" v="slope" />
		<tag k="place" v="locality" />
		<tag k="ssr:stedsnr" v="39870" />
	</node>
	<node lat="60.85633055736333" lon="9.493558330574634" id="-23763">
		<tag k="name" v="Høvsrenna" />
		<tag k="natural" v="slope" />
		<tag k="place" v="locality" />
		<tag k="ssr:stedsnr" v="39907" />
	</node>
	<node lat="60.817938893123376" lon="9.570986113801862" id="-23764">
		<tag k="name" v="Søre Øygarden" />
		<tag k="place" v="farm" />
		<tag k="ssr:stedsnr" v="39982" />
	</node>
	<node lat="60.53068333020074" lon="9.48090832574637" id="-23765">
		<tag k="name" v="Vinterstøberget" />
		<tag k="natural" v="hill" />
		<tag k="place" v="locality" />
		<tag k="ssr:stedsnr" v="41205" />
	</node>
	<node lat="60.785411111542" lon="9.553519442527758" id="-23766">
		<tag k="bridge" v="yes" />
		<tag k="layer" v="1" />
		<tag k="name" v="Sæterbrue" />
		<tag k="ssr:stedsnr" v="240083" />
	</node>
	<node lat="60.781016668543685" lon="9.581930554907132" id="-23767">
		<tag k="name" v="Vassteinbekken" />
		<tag k="ssr:stedsnr" v="240085" />
		<tag k="waterway" v="stream" />
	</node>
	<node lat="60.81240833529891" lon="9.709072228628859" id="-23768">
		<tag k="name" v="Heggjehærin" />
		<tag k="natural" v="hill" />
		<tag k="place" v="locality" />
		<tag k="ssr:stedsnr" v="240087" />
	</node>
	<node lat="60.716116670323835" lon="9.973694438583998" id="-23769">
		<tag k="name" v="Høgbrenndalen" />
		<tag k="natural" v="valley" />
		<tag k="place" v="locality" />
		<tag k="ssr:stedsnr" v="240092" />
	</node>
	<node lat="60.76388611304081" lon="9.575199998894234" id="-23770">
		<tag k="name" v="Fautmyre" />
		<tag k="natural" v="wetland" />
		<tag k="ssr:stedsnr" v="240097" />
	</node>
	<node lat="60.791569446497405" lon="9.55553332529802" id="-23771">
		<tag k="name" v="Plassåsen" />
		<tag k="place" v="locality" />
		<tag k="ssr:stedsnr" v="240107" />
	</node>
	<node lat="60.78814722491642" lon="9.566638897900924" id="-23772">
		<tag k="highway" v="path" />
		<tag k="name" v="Bygdevegen" />
		<tag k="ssr:stedsnr" v="240108" />
	</node>
	<node lat="60.76697499830822" lon="9.767958336779584" id="-23773">
		<tag k="name" v="Fabroputt" />
		<tag k="natural" v="water" />
		<tag k="ssr:stedsnr" v="240141" />
	</node>
	<node lat="60.761050004493946" lon="9.696988883861437" id="-23774">
		<tag k="name" v="Vesldalsrenna" />
		<tag k="natural" v="valley" />
		<tag k="old_name" v="Lilledalsrenna" />
		<tag k="place" v="locality" />
		<tag k="ssr:stedsnr" v="240158" />
	</node>
	<node lat="60.759716666121555" lon="9.698755546415443" id="-23775">
		<tag k="name" v="Storurde" />
		<tag k="natural" v="scree" />
		<tag k="ssr:stedsnr" v="240161" />
	</node>
	<node lat="60.824797220851366" lon="9.514458338770398" id="-23776">
		<tag k="name" v="Lineikro" />
		<tag k="place" v="locality" />
		<tag k="ssr:stedsnr" v="240836" />
	</node>
	<node lat="60.752322224956394" lon="9.593625006598009" id="-23777">
		<tag k="name" v="Lusemyratn" />
		<tag k="natural" v="wetland" />
		<tag k="ssr:stedsnr" v="58092" />
	</node>
	<node lat="60.695019442169986" lon="9.576463894080277" id="-23778">
		<tag k="fixme" v="consider natural=peak for the most distinct mountains in the district" />
		<tag k="name" v="Larsbølkollen" />
		<tag k="natural" v="hill" />
		<tag k="place" v="locality" />
		<tag k="ssr:stedsnr" v="58207" />
	</node>
	<node lat="60.699213888995025" lon="9.613283331128105" id="-23779">
		<tag k="name" v="Fykputtbekken" />
		<tag k="ssr:stedsnr" v="58213" />
		<tag k="waterway" v="stream" />
	</node>
	<node lat="60.725708331804896" lon="9.612847218577427" id="-23780">
		<tag k="name" v="Liasæterhallitn" />
		<tag k="natural" v="slope" />
		<tag k="place" v="locality" />
		<tag k="ssr:stedsnr" v="58216" />
	</node>
	<node lat="60.73828333312817" lon="9.648252771791832" id="-23781">
		<tag k="name" v="Høglie" />
		<tag k="natural" v="slope" />
		<tag k="place" v="locality" />
		<tag k="ssr:stedsnr" v="58226" />
	</node>
	<node lat="60.76529722618913" lon="9.734283341041248" id="-23782">
		<tag k="name" v="Laddelie" />
		<tag k="natural" v="slope" />
		<tag k="place" v="locality" />
		<tag k="ssr:stedsnr" v="58174" />
	</node>
	<node lat="60.77845000076219" lon="9.76603889592091" id="-23783">
		<tag k="name" v="Mortebekkhøgde" />
		<tag k="natural" v="hill" />
		<tag k="place" v="locality" />
		<tag k="ssr:stedsnr" v="58182" />
	</node>
	<node lat="60.60678055982846" lon="9.483980557333272" id="-23784">
		<tag k="name" v="Mebekken" />
		<tag k="ssr:stedsnr" v="240393" />
		<tag k="waterway" v="stream" />
	</node>
	<node lat="60.558038893044404" lon="9.487583328595571" id="-23785">
		<tag k="name" v="Leina" />
		<tag k="place" v="isolated_dwelling" />
		<tag k="ssr:stedsnr" v="240401" />
	</node>
	<node lat="60.57607499968721" lon="9.467163894605315" id="-23786">
		<tag k="name" v="Idyllvatnet" />
		<tag k="natural" v="water" />
		<tag k="ssr:stedsnr" v="58403" />
	</node>
	<node lat="60.5723166684674" lon="9.507363891225573" id="-23787">
		<tag k="name" v="Vestre Larsputten" />
		<tag k="natural" v="water" />
		<tag k="ssr:stedsnr" v="58405" />
	</node>
	<node lat="60.68331389322684" lon="9.527191667337512" id="-23788">
		<tag k="name" v="Fintoppkollen" />
		<tag k="natural" v="hill" />
		<tag k="place" v="locality" />
		<tag k="ssr:stedsnr" v="58469" />
	</node>
	<node lat="60.621002777545876" lon="9.697894440886111" id="-23789">
		<tag k="alt_name" v="Jøranby" />
		<tag k="name" v="Øvre Jørandby" />
		<tag k="place" v="farm" />
		<tag k="ssr:stedsnr" v="58470" />
	</node>
	<node lat="60.85535555955607" lon="9.442925006503444" id="-23790">
		<tag k="name" v="Gullringbekken" />
		<tag k="ssr:stedsnr" v="58369" />
		<tag k="waterway" v="stream" />
	</node>
	<node lat="60.86360277768841" lon="9.406738885619218" id="-23791">
		<tag k="historic" v="shieling" />
		<tag k="name" v="Brennahaugen" />
		<tag k="place" v="isolated_dwelling" />
		<tag k="ssr:stedsnr" v="58375" />
	</node>
	<node lat="60.85748611497297" lon="9.409780557463364" id="-23792">
		<tag k="historic" v="shieling" />
		<tag k="name" v="Høllatrøe" />
		<tag k="place" v="isolated_dwelling" />
		<tag k="ssr:stedsnr" v="58378" />
	</node>
	<node lat="60.85539444790724" lon="9.426330547117761" id="-23793">
		<tag k="highway" v="path" />
		<tag k="name" v="Kongevegen" />
		<tag k="ssr:stedsnr" v="58380" />
	</node>
	<node lat="60.573298757387676" lon="9.71948874781617" id="-23794">
		<tag k="alt_name" v="Nordre Brenden" />
		<tag k="name" v="Nørdre Brenna" />
		<tag k="place" v="locality" />
		<tag k="ssr:stedsnr" v="58508" />
	</node>
	<node lat="60.65499166615991" lon="9.843113892969773" id="-23795">
		<tag k="name" v="Stamsrud" />
		<tag k="place" v="isolated_dwelling" />
		<tag k="ssr:stedsnr" v="58719" />
	</node>
	<node lat="60.77313888906792" lon="9.298324994697495" id="-23796">
		<tag k="fixme" v="consider natural=peak for the most distinct mountains in the district" />
		<tag k="name" v="Gamlestølfjellet" />
		<tag k="natural" v="hill" />
		<tag k="place" v="locality" />
		<tag k="ssr:stedsnr" v="58777" />
	</node>
	<node lat="60.6479666680392" lon="9.366183337350868" id="-23797">
		<tag k="name" v="Vangsoset" />
		<tag k="natural" v="bay" />
		<tag k="ssr:stedsnr" v="58781" />
	</node>
	<node lat="60.64764999760647" lon="9.408677774682463" id="-23798">
		<tag k="name" v="Halvegasbekken" />
		<tag k="ssr:stedsnr" v="58782" />
		<tag k="waterway" v="stream" />
	</node>
	<node lat="60.790211109959486" lon="9.635405561782463" id="-23799">
		<tag k="name" v="Kølskåledalen" />
		<tag k="natural" v="valley" />
		<tag k="place" v="locality" />
		<tag k="ssr:stedsnr" v="58905" />
	</node>
	<node lat="60.78664721846188" lon="9.655430550301782" id="-23800">
		<tag k="name" v="Gråbeinmyra" />
		<tag k="natural" v="wetland" />
		<tag k="ssr:stedsnr" v="58906" />
	</node>
	<node lat="60.61325833586966" lon="9.73771111839254" id="-23801">
		<tag k="name" v="Grant" />
		<tag k="place" v="isolated_dwelling" />
		<tag k="ssr:stedsnr" v="240542" />
	</node>
	<node lat="60.7031499959492" lon="9.541847218647684" id="-23802">
		<tag k="name" v="Liasæterhalle" />
		<tag k="natural" v="slope" />
		<tag k="place" v="locality" />
		<tag k="ssr:stedsnr" v="240462" />
	</node>
	<node lat="60.62003055337587" lon="9.710675006241294" id="-23803">
		<tag k="name" v="Haugtun" />
		<tag k="place" v="farm" />
		<tag k="ssr:stedsnr" v="240465" />
	</node>
	<node lat="60.61926111194171" lon="9.706241659135243" id="-23804">
		<tag k="name" v="Skogstad" />
		<tag k="place" v="isolated_dwelling" />
		<tag k="ssr:stedsnr" v="240471" />
	</node>
	<node lat="60.60819722224938" lon="9.704288894543803" id="-23805">
		<tag k="name" v="Tjærehjellbekken" />
		<tag k="ssr:stedsnr" v="240476" />
		<tag k="waterway" v="stream" />
	</node>
	<node lat="60.829016669593805" lon="9.356350002563898" id="-23806">
		<tag k="name" v="Rugleiksknatten" />
		<tag k="natural" v="hill" />
		<tag k="place" v="locality" />
		<tag k="ssr:stedsnr" v="240652" />
	</node>
	<node lat="60.691877779639825" lon="9.896219446483686" id="-23807">
		<tag k="name" v="Hakakrokbakken" />
		<tag k="natural" v="slope" />
		<tag k="place" v="locality" />
		<tag k="ssr:stedsnr" v="240668" />
	</node>
	<node lat="60.69219444675155" lon="9.845669439127201" id="-23808">
		<tag k="name" v="Jørnslia" />
		<tag k="natural" v="slope" />
		<tag k="place" v="locality" />
		<tag k="ssr:stedsnr" v="240671" />
	</node>
	<node lat="60.789372219432686" lon="9.435580554287133" id="-23809">
		<tag k="name" v="Steintjernet" />
		<tag k="natural" v="water" />
		<tag k="old_name" v="Steintjednet" />
		<tag k="ssr:stedsnr" v="240672" />
	</node>
	<node lat="60.67218888713006" lon="9.84312222550207" id="-23810">
		<tag k="name" v="Skarsætermyra" />
		<tag k="natural" v="slope" />
		<tag k="place" v="locality" />
		<tag k="ssr:stedsnr" v="240675" />
	</node>
	<node lat="60.67468611420449" lon="9.865630549803457" id="-23811">
		<tag k="name" v="Buvasslia" />
		<tag k="natural" v="slope" />
		<tag k="place" v="locality" />
		<tag k="ssr:stedsnr" v="240677" />
	</node>
	<node lat="60.68766111185761" lon="9.867666665530514" id="-23812">
		<tag k="name" v="Fredens hjem" />
		<tag k="place" v="isolated_dwelling" />
		<tag k="ssr:stedsnr" v="240679" />
	</node>
	<node lat="60.68811944616504" lon="9.863572223948585" id="-23813">
		<tag k="name" v="Gruvla" />
		<tag k="ssr:stedsnr" v="240680" />
		<tag k="waterway" v="river" />
	</node>
	<node lat="60.834761107428534" lon="9.393024994895791" id="-23814">
		<tag k="bridge" v="yes" />
		<tag k="layer" v="1" />
		<tag k="name" v="Svartebergbrue" />
		<tag k="ssr:stedsnr" v="240758" />
	</node>
	<node lat="60.567811114053235" lon="9.814572225904701" id="-23815">
		<tag k="name" v="Plommetjernbekken" />
		<tag k="ssr:stedsnr" v="240759" />
		<tag k="waterway" v="stream" />
	</node>
	<node lat="60.82750833015123" lon="9.423808341897743" id="-23816">
		<tag k="name" v="Storstølmyratn" />
		<tag k="natural" v="wetland" />
		<tag k="ssr:stedsnr" v="240760" />
	</node>
	<node lat="60.597497225896184" lon="9.660252773200945" id="-23817">
		<tag k="highway" v="path" />
		<tag k="name" v="Brennsætervegen" />
		<tag k="ssr:stedsnr" v="240761" />
	</node>
	<node lat="60.597363889585814" lon="9.65249999409483" id="-23818">
		<tag k="name" v="Ostebekk" />
		<tag k="ssr:stedsnr" v="240762" />
		<tag k="waterway" v="stream" />
	</node>
	<node lat="60.582200002879716" lon="9.63647221725749" id="-23819">
		<tag k="name" v="Sandpynten" />
		<tag k="natural" v="slope" />
		<tag k="place" v="locality" />
		<tag k="ssr:stedsnr" v="240765" />
	</node>
	<node lat="60.63174722277818" lon="9.369950006766494" id="-23820">
		<tag k="name" v="Haukehaugen" />
		<tag k="natural" v="hill" />
		<tag k="place" v="locality" />
		<tag k="ssr:stedsnr" v="240782" />
	</node>
	<node lat="60.787691665509165" lon="9.288272216578331" id="-23821">
		<tag k="name" v="Gråtarmyra" />
		<tag k="natural" v="wetland" />
		<tag k="ssr:stedsnr" v="240775" />
	</node>
	<node lat="60.82710277915689" lon="9.447013887925502" id="-23822">
		<tag k="name" v="Øygardsbakken" />
		<tag k="natural" v="slope" />
		<tag k="place" v="locality" />
		<tag k="ssr:stedsnr" v="240854" />
	</node>
	<node lat="60.774325000582245" lon="9.404311109698028" id="-23823">
		<tag k="name" v="Signaltoppen" />
		<tag k="natural" v="hill" />
		<tag k="place" v="locality" />
		<tag k="ssr:stedsnr" v="240952" />
	</node>
	<node lat="60.77316666770109" lon="9.331744439860564" id="-23824">
		<tag k="alt_name" v="Nordre Bjødalen" />
		<tag k="historic" v="shieling" />
		<tag k="name" v="Nørdre Bjødalen" />
		<tag k="place" v="isolated_dwelling" />
		<tag k="ssr:stedsnr" v="240964" />
	</node>
	<node lat="60.67888888963297" lon="9.409122213945318" id="-23825">
		<tag k="alt_name" v="Vangslie" />
		<tag k="name" v="Vangslii" />
		<tag k="natural" v="slope" />
		<tag k="place" v="locality" />
		<tag k="ssr:stedsnr" v="67700" />
	</node>
	<node lat="60.71972499567845" lon="9.416024991913318" id="-23826">
		<tag k="alt_name" v="Bukfyllvatnet, øvre" />
		<tag k="name" v="Øvre Bukfyllvatnet" />
		<tag k="natural" v="water" />
		<tag k="ssr:stedsnr" v="68545" />
		<tag k="water" v="lake" />
	</node>
	<node lat="60.7484166649396" lon="9.701230555364798" id="-23827">
		<tag k="fixme" v="multiple name tags, choose one and add the other to alt_name" />
		<tag k="name" v="Storsvei;Holt" />
		<tag k="place" v="farm" />
		<tag k="ssr:stedsnr" v="68794" />
	</node>
	<node lat="60.58964999675539" lon="9.537161106321392" id="-23828">
		<tag k="fixme" v="consider natural=peak for the most distinct mountains in the district" />
		<tag k="name" v="Svartvikfjellet" />
		<tag k="natural" v="hill" />
		<tag k="place" v="locality" />
		<tag k="ssr:stedsnr" v="68810" />
	</node>
	<node lat="60.62327777667185" lon="9.910377772742448" id="-23829">
		<tag k="name" v="Høneren" />
		<tag k="place" v="farm" />
		<tag k="ssr:stedsnr" v="68886" />
	</node>
	<node lat="60.62767777979839" lon="9.740241668313057" id="-23830">
		<tag k="alt_name" v="Stormyra" />
		<tag k="name" v="Storemyr" />
		<tag k="natural" v="wetland" />
		<tag k="ssr:stedsnr" v="68981" />
	</node>
	<node lat="60.62729525652919" lon="9.674070463467995" id="-23831">
		<tag k="loc_name" v="Grøv" />
		<tag k="name" v="Grov" />
		<tag k="place" v="hamlet" />
		<tag k="ssr:stedsnr" v="68986" />
	</node>
	<node lat="60.627138891179385" lon="9.69085277441893" id="-23832">
		<tag k="name" v="Bergheim" />
		<tag k="place" v="farm" />
		<tag k="ssr:stedsnr" v="68990" />
	</node>
	<node lat="60.635147221696116" lon="9.843144451451414" id="-23833">
		<tag k="alt_name" v="Hola" />
		<tag k="historic" v="shieling" />
		<tag k="name" v="Holoa" />
		<tag k="place" v="isolated_dwelling" />
		<tag k="ssr:stedsnr" v="68996" />
	</node>
	<node lat="60.86248055610691" lon="9.46901666796172" id="-23834">
		<tag k="alt_name" v="Liabrenne" />
		<tag k="name" v="Liabrenn" />
		<tag k="place" v="farm" />
		<tag k="ssr:stedsnr" v="69706" />
	</node>
	<node lat="60.82389999860531" lon="9.49378332948025" id="-23835">
		<tag k="alt_name" v="Pålelie" />
		<tag k="name" v="Pålelii" />
		<tag k="place" v="farm" />
		<tag k="ssr:stedsnr" v="69886" />
	</node>
	<node lat="60.83376944351778" lon="9.64017777402248" id="-23836">
		<tag k="alt_name" v="Hølbekken" />
		<tag k="name" v="Holbekken" />
		<tag k="ssr:stedsnr" v="70186" />
		<tag k="waterway" v="stream" />
	</node>
	<node lat="60.80064722243761" lon="9.748547226978612" id="-23837">
		<tag k="name" v="Melbrenda" />
		<tag k="ssr:stedsnr" v="70202" />
		<tag k="waterway" v="stream" />
	</node>
	<node lat="60.79416388869085" lon="9.617997223336754" id="-23838">
		<tag k="fixme" v="consider natural=peak for the most distinct mountains in the district" />
		<tag k="name" v="Leiteberget" />
		<tag k="natural" v="hill" />
		<tag k="place" v="locality" />
		<tag k="ssr:stedsnr" v="70212" />
	</node>
	<node lat="60.79724166661387" lon="9.69873888113448" id="-23839">
		<tag k="alt_name" v="Tomtin, nedre;Nedre Tomten" />
		<tag k="name" v="Nedre Tomtin" />
		<tag k="place" v="farm" />
		<tag k="ssr:stedsnr" v="70215" />
	</node>
	<node lat="60.80911110964512" lon="9.608675006872387" id="-23840">
		<tag k="fixme" v="consider natural=peak for the most distinct mountains in the district" />
		<tag k="name" v="Kjeldeknatten" />
		<tag k="natural" v="hill" />
		<tag k="place" v="locality" />
		<tag k="ssr:stedsnr" v="70233" />
	</node>
	<node lat="60.80229166796231" lon="9.627594442572063" id="-23841">
		<tag k="name" v="Komperud" />
		<tag k="place" v="farm" />
		<tag k="ssr:stedsnr" v="70234" />
	</node>
	<node lat="60.79799721865687" lon="9.308433336407095" id="-23842">
		<tag k="alt_name" v="Sangatn" />
		<tag k="historic" v="shieling" />
		<tag k="name" v="Sangan" />
		<tag k="place" v="isolated_dwelling" />
		<tag k="ssr:stedsnr" v="70826" />
	</node>
	<node lat="60.75746666914511" lon="9.6155833340664" id="-23843">
		<tag k="name" v="Syndalssæterbekken" />
		<tag k="ssr:stedsnr" v="71917" />
		<tag k="waterway" v="stream" />
	</node>
	<node lat="60.68200000307897" lon="9.753383337415897" id="-23844">
		<tag k="name" v="Rundhaug" />
		<tag k="place" v="isolated_dwelling" />
		<tag k="ssr:stedsnr" v="86294" />
	</node>
	<node lat="60.64432500379038" lon="9.717261118753012" id="-23845">
		<tag k="name" v="Augensrud" />
		<tag k="place" v="locality" />
		<tag k="ssr:stedsnr" v="100261" />
	</node>
	<node lat="60.66305833544504" lon="9.733302783988933" id="-23846">
		<tag k="fixme" v="consider natural=peak for the most distinct mountains in the district" />
		<tag k="name" v="Kristiansmokollen" />
		<tag k="natural" v="hill" />
		<tag k="place" v="locality" />
		<tag k="ssr:stedsnr" v="100268" />
	</node>
	<node lat="60.66623611156028" lon="9.679044447483479" id="-23847">
		<tag k="name" v="Skarsæterdalen" />
		<tag k="natural" v="valley" />
		<tag k="place" v="locality" />
		<tag k="ssr:stedsnr" v="100271" />
	</node>
	<node lat="60.66451666673989" lon="9.49206944885423" id="-23848">
		<tag k="name" v="Damtjernbekken" />
		<tag k="ssr:stedsnr" v="100284" />
		<tag k="waterway" v="stream" />
	</node>
	<node lat="60.544272225515016" lon="9.772355558913748" id="-23849">
		<tag k="name" v="Raudiget" />
		<tag k="natural" v="cape" />
		<tag k="ssr:stedsnr" v="100666" />
	</node>
	<node lat="60.48505000066062" lon="9.808427783043115" id="-23850">
		<tag k="name" v="Grojuvet" />
		<tag k="natural" v="gorge" />
		<tag k="ssr:stedsnr" v="100802" />
	</node>
	<node lat="60.82279166543971" lon="9.471208329625204" id="-23851">
		<tag k="name" v="Hauststølbekken" />
		<tag k="ssr:stedsnr" v="100810" />
		<tag k="waterway" v="stream" />
	</node>
	<node lat="60.78730000265652" lon="9.384636107640782" id="-23852">
		<tag k="name" v="Storevieratn" />
		<tag k="place" v="locality" />
		<tag k="ssr:stedsnr" v="100560" />
	</node>
	<node lat="60.84548888526114" lon="9.465925005921394" id="-23853">
		<tag k="highway" v="path" />
		<tag k="name" v="Krøssvegitn" />
		<tag k="ssr:stedsnr" v="100717" />
	</node>
	<node lat="60.52772778009751" lon="9.800305555820525" id="-23854">
		<tag k="name" v="Storrustelia" />
		<tag k="natural" v="slope" />
		<tag k="place" v="locality" />
		<tag k="ssr:stedsnr" v="100759" />
	</node>
	<node lat="60.798361114185" lon="9.491011118011494" id="-23855">
		<tag k="name" v="Ranangshite" />
		<tag k="place" v="isolated_dwelling" />
		<tag k="ssr:stedsnr" v="100781" />
	</node>
	<node lat="60.621249998673505" lon="9.579994449012103" id="-23856">
		<tag k="name" v="Eneberghaugen" />
		<tag k="natural" v="hill" />
		<tag k="place" v="locality" />
		<tag k="ssr:stedsnr" v="100869" />
	</node>
	<node lat="60.81464722032636" lon="9.596886119284942" id="-23857">
		<tag k="name" v="Olavskjelda" />
		<tag k="natural" v="spring" />
		<tag k="ssr:stedsnr" v="100968" />
	</node>
	<node lat="60.74152831437746" lon="9.726280737846995" id="-23858">
		<tag k="name" v="Bruvatni" />
		<tag k="natural" v="water" />
		<tag k="ssr:stedsnr" v="249801" />
		<tag k="water" v="lake" />
	</node>
	<node lat="60.65334999791481" lon="9.470105550800104" id="-23859">
		<tag k="alt_name" v="Teinevassåsen" />
		<tag k="fixme" v="consider natural=peak for the most distinct mountains in the district" />
		<tag k="name" v="Teinvassåsen" />
		<tag k="natural" v="hill" />
		<tag k="place" v="locality" />
		<tag k="ssr:stedsnr" v="249705" />
	</node>
	<node lat="60.61394166778467" lon="9.557733324537502" id="-23860">
		<tag k="name" v="Andetjern" />
		<tag k="natural" v="water" />
		<tag k="ssr:stedsnr" v="249666" />
	</node>
	<node lat="60.68892500041971" lon="9.40765278216484" id="-23861">
		<tag k="alt_name" v="Alketjernelva" />
		<tag k="name" v="Alketjernselvi" />
		<tag k="old_name" v="Alketjednelve;Eiketjennselva" />
		<tag k="ssr:stedsnr" v="249679" />
		<tag k="waterway" v="stream" />
	</node>
	<node lat="60.694822223526224" lon="9.447086111411387" id="-23862">
		<tag k="alt_name" v="Veneslettlie" />
		<tag k="name" v="Veneslettlii" />
		<tag k="natural" v="slope" />
		<tag k="place" v="locality" />
		<tag k="ssr:stedsnr" v="249687" />
	</node>
	<node lat="60.69772499810242" lon="9.529825003207364" id="-23863">
		<tag k="fixme" v="consider natural=peak for the most distinct mountains in the district" />
		<tag k="name" v="Roparhaugen" />
		<tag k="natural" v="hill" />
		<tag k="place" v="locality" />
		<tag k="ssr:stedsnr" v="249688" />
	</node>
	<node lat="60.55078611199191" lon="9.469055564208585" id="-23864">
		<tag k="name" v="Fjellbekken" />
		<tag k="ssr:stedsnr" v="249858" />
		<tag k="waterway" v="stream" />
	</node>
	<node lat="60.51031666730557" lon="9.763713895718501" id="-23865">
		<tag k="alt_name" v="Middagsknatten, s;Middagsknatten" />
		<tag k="name" v="Søre Middagsknatten" />
		<tag k="natural" v="hill" />
		<tag k="place" v="locality" />
		<tag k="ssr:stedsnr" v="249866" />
	</node>
	<node lat="60.47801666918085" lon="9.730024993074183" id="-23866">
		<tag k="name" v="Fisketjernet" />
		<tag k="natural" v="water" />
		<tag k="ssr:stedsnr" v="249881" />
	</node>
	<node lat="60.68900833468972" lon="9.830636113326005" id="-23867">
		<tag k="alt_name" v="Kapteinshytta" />
		<tag k="name" v="Kapteinskula" />
		<tag k="place" v="isolated_dwelling" />
		<tag k="ssr:stedsnr" v="249882" />
	</node>
	<node lat="60.60516944172191" lon="9.625580555999251" id="-23868">
		<tag k="historic" v="shieling" />
		<tag k="name" v="Fledda" />
		<tag k="place" v="isolated_dwelling" />
		<tag k="ssr:stedsnr" v="249885" />
	</node>
	<node lat="60.687445007625165" lon="9.748475406964497" id="-23869">
		<tag k="fixme" v="consider place=hamlet" />
		<tag k="name" v="Steinsrud" />
		<tag k="place" v="farm" />
		<tag k="ssr:stedsnr" v="249888" />
	</node>
	<node lat="60.69912777378768" lon="9.9331527696298" id="-23870">
		<tag k="alt_name" v="Venetjern" />
		<tag k="name" v="Ventjern" />
		<tag k="natural" v="water" />
		<tag k="ssr:stedsnr" v="249891" />
	</node>
	<node lat="60.735513887861146" lon="9.719950001550268" id="-23871">
		<tag k="alt_name" v="Olavsbrøtakøllin" />
		<tag k="name" v="Olasbråtekollen" />
		<tag k="natural" v="hill" />
		<tag k="place" v="locality" />
		<tag k="ssr:stedsnr" v="249948" />
	</node>
	<node lat="60.66100278029076" lon="9.806083341192936" id="-23872">
		<tag k="name" v="Skrukkelia" />
		<tag k="natural" v="slope" />
		<tag k="place" v="locality" />
		<tag k="ssr:stedsnr" v="249952" />
	</node>
	<node lat="60.59502222041874" lon="9.75261388970898" id="-23873">
		<tag k="name" v="Nordhagen" />
		<tag k="place" v="farm" />
		<tag k="ssr:stedsnr" v="249905" />
	</node>
	<node lat="60.679899996371915" lon="9.812511113287956" id="-23874">
		<tag k="fixme" v="consider natural=peak for the most distinct mountains in the district" />
		<tag k="name" v="Svarttjernbrenna" />
		<tag k="natural" v="hill" />
		<tag k="place" v="locality" />
		<tag k="ssr:stedsnr" v="249910" />
	</node>
	<node lat="60.68190000107041" lon="9.842233332085138" id="-23875">
		<tag k="name" v="Sjåberget" />
		<tag k="natural" v="hill" />
		<tag k="place" v="locality" />
		<tag k="ssr:stedsnr" v="249911" />
	</node>
	<node lat="60.607956671449756" lon="9.869532029474163" id="-23876">
		<tag k="fixme" v="multiple name tags, choose one and add the other to alt_name" />
		<tag k="name" v="Jonsonkula;Solabu" />
		<tag k="place" v="isolated_dwelling" />
		<tag k="ssr:stedsnr" v="249912" />
	</node>
	<node lat="60.58994999568931" lon="9.75873333998038" id="-23877">
		<tag k="alt_name" v="Teigrud" />
		<tag k="name" v="Teigerud" />
		<tag k="place" v="farm" />
		<tag k="ssr:stedsnr" v="249919" />
	</node>
	<node lat="60.581883328951754" lon="9.71272499263129" id="-23878">
		<tag k="name" v="Kulterud" />
		<tag k="place" v="farm" />
		<tag k="ssr:stedsnr" v="249923" />
	</node>
	<node lat="60.59395000235524" lon="9.896283341548159" id="-23879">
		<tag k="name" v="Leirdammen" />
		<tag k="place" v="locality" />
		<tag k="ssr:stedsnr" v="249928" />
	</node>
	<node lat="60.58425277829972" lon="9.618108328772806" id="-23880">
		<tag k="name" v="Fledda" />
		<tag k="natural" v="slope" />
		<tag k="place" v="locality" />
		<tag k="ssr:stedsnr" v="249930" />
	</node>
	<node lat="60.7354944469284" lon="9.638877783670818" id="-23881">
		<tag k="alt_name" v="Kroneputt" />
		<tag k="name" v="Kronputten" />
		<tag k="natural" v="water" />
		<tag k="ssr:stedsnr" v="249940" />
		<tag k="water" v="pond" />
	</node>
	<node lat="60.71616666746243" lon="9.723494447526685" id="-23882">
		<tag k="name" v="Begnadalen" />
		<tag k="natural" v="valley" />
		<tag k="place" v="locality" />
		<tag k="ssr:stedsnr" v="249957" />
	</node>
	<node lat="60.63999444296143" lon="9.742188887027472" id="-23883">
		<tag k="name" v="Strandbråtabekken" />
		<tag k="ssr:stedsnr" v="249962" />
		<tag k="waterway" v="stream" />
	</node>
	<node lat="60.64490000074444" lon="9.684705557963083" id="-23884">
		<tag k="name" v="Solli" />
		<tag k="place" v="farm" />
		<tag k="ssr:stedsnr" v="249964" />
	</node>
	<node lat="60.724608876782774" lon="9.760759456576716" id="-23885">
		<tag k="alt_name" v="Vesteråsputten" />
		<tag k="name" v="Vesteråspullen" />
		<tag k="natural" v="water" />
		<tag k="ssr:stedsnr" v="249965" />
	</node>
	<node lat="60.727127775849105" lon="9.735013897080533" id="-23886">
		<tag k="alt_name" v="Bakkeputten" />
		<tag k="name" v="Eidsbakkeputten" />
		<tag k="natural" v="water" />
		<tag k="ssr:stedsnr" v="249969" />
	</node>
	<node lat="60.65210833275396" lon="9.933311117009707" id="-23887">
		<tag k="historic" v="shieling" />
		<tag k="name" v="Skyttland" />
		<tag k="place" v="isolated_dwelling" />
		<tag k="ssr:stedsnr" v="249972" />
	</node>
	<node lat="60.655091663803425" lon="9.911536119395006" id="-23888">
		<tag k="name" v="Brynjulvstjernet" />
		<tag k="natural" v="water" />
		<tag k="ssr:stedsnr" v="249977" />
	</node>
	<node lat="60.72087499656664" lon="9.864169441245846" id="-23889">
		<tag k="name" v="Høgberget" />
		<tag k="natural" v="hill" />
		<tag k="place" v="locality" />
		<tag k="ssr:stedsnr" v="249986" />
	</node>
	<node lat="60.70482499602156" lon="9.539374990987318" id="-23890">
		<tag k="historic" v="shieling" />
		<tag k="name" v="Gamlesætri" />
		<tag k="place" v="isolated_dwelling" />
		<tag k="ssr:stedsnr" v="250531" />
	</node>
	<node lat="60.732425001234" lon="9.350613896762427" id="-23891">
		<tag k="alt_name" v="Skarsputten" />
		<tag k="name" v="Skardsputten" />
		<tag k="natural" v="water" />
		<tag k="ssr:stedsnr" v="250537" />
	</node>
	<node lat="60.6654333330853" lon="9.367505551185499" id="-23892">
		<tag k="name" v="Reidartjern" />
		<tag k="natural" v="water" />
		<tag k="ssr:stedsnr" v="250735" />
	</node>
	<node lat="60.744775002991226" lon="9.63751943907172" id="-23893">
		<tag k="alt_name" v="Vesle sætere" />
		<tag k="historic" v="shieling" />
		<tag k="name" v="Veslesætri" />
		<tag k="place" v="isolated_dwelling" />
		<tag k="ssr:stedsnr" v="250783" />
	</node>
	<node lat="60.70882382414503" lon="9.683029450235498" id="-23894">
		<tag k="name" v="Storberget" />
		<tag k="natural" v="hill" />
		<tag k="place" v="locality" />
		<tag k="ssr:stedsnr" v="250990" />
	</node>
	<node lat="60.55994166890404" lon="9.615547229480864" id="-23895">
		<tag k="loc_name" v="Langtjern" />
		<tag k="name" v="Langtjernet" />
		<tag k="natural" v="water" />
		<tag k="ssr:stedsnr" v="250801" />
	</node>
	<node lat="60.581641451560486" lon="9.54814500665735" id="-23896">
		<tag k="name" v="Trevatna" />
		<tag k="natural" v="water" />
		<tag k="ssr:stedsnr" v="250805" />
		<tag k="water" v="lake" />
	</node>
	<node lat="60.57684999602302" lon="9.51673055598678" id="-23897">
		<tag k="fixme" v="consider natural=peak for the most distinct mountains in the district" />
		<tag k="name" v="Surtind" />
		<tag k="natural" v="hill" />
		<tag k="place" v="locality" />
		<tag k="ssr:stedsnr" v="250806" />
	</node>
	<node lat="60.582116667073386" lon="9.50265276980851" id="-23898">
		<tag k="fixme" v="multiple name tags, choose one and add the other to alt_name" />
		<tag k="name" v="Skjennungvatnet;Østre Krokvatnet" />
		<tag k="natural" v="water" />
		<tag k="ssr:stedsnr" v="250807" />
	</node>
	<node lat="60.55743333102311" lon="9.77414444429873" id="-23899">
		<tag k="alt_name" v="Korpekløvet" />
		<tag k="loc_name" v="Korpeklovet" />
		<tag k="name" v="Korpeklyvet" />
		<tag k="natural" v="hill" />
		<tag k="place" v="locality" />
		<tag k="ssr:stedsnr" v="250813" />
	</node>
	<node lat="60.5672888904858" lon="9.74175555622865" id="-23900">
		<tag k="name" v="Haugen" />
		<tag k="place" v="farm" />
		<tag k="ssr:stedsnr" v="250815" />
	</node>
	<node lat="60.702558334735194" lon="9.889669451974262" id="-23901">
		<tag k="name" v="Triungtjerna" />
		<tag k="natural" v="water" />
		<tag k="ssr:stedsnr" v="250874" />
		<tag k="water" v="lake" />
	</node>
	<node lat="60.6155750040482" lon="9.604952774080036" id="-23902">
		<tag k="alt_name" v="Jøstjern" />
		<tag k="name" v="Ljostjernet" />
		<tag k="natural" v="water" />
		<tag k="ssr:stedsnr" v="250880" />
	</node>
	<node lat="60.62046389015775" lon="9.905899997876633" id="-23903">
		<tag k="name" v="Skogheim" />
		<tag k="place" v="farm" />
		<tag k="ssr:stedsnr" v="250883" />
	</node>
	<node lat="60.691488887818196" lon="9.83806944211446" id="-23904">
		<tag k="name" v="Jørnskollen" />
		<tag k="natural" v="hill" />
		<tag k="place" v="locality" />
		<tag k="ssr:stedsnr" v="250890" />
	</node>
	<node lat="60.69052500008666" lon="9.791625003345176" id="-23905">
		<tag k="fixme" v="consider natural=peak for the most distinct mountains in the district" />
		<tag k="name" v="Heimsætermana" />
		<tag k="natural" v="hill" />
		<tag k="place" v="locality" />
		<tag k="ssr:stedsnr" v="250891" />
	</node>
	<node lat="60.74766111510578" lon="9.560961107183726" id="-23906">
		<tag k="name" v="Blæstredalen" />
		<tag k="natural" v="hill" />
		<tag k="place" v="locality" />
		<tag k="ssr:stedsnr" v="119069" />
	</node>
	<node lat="60.781863888652545" lon="9.554216672588897" id="-23907">
		<tag k="highway" v="path" />
		<tag k="name" v="Prestvegen" />
		<tag k="ssr:stedsnr" v="119083" />
	</node>
	<node lat="60.79047778201922" lon="9.578844448295085" id="-23908">
		<tag k="name" v="Kambabygde" />
		<tag k="place" v="hamlet" />
		<tag k="ssr:stedsnr" v="119110" />
	</node>
	<node lat="60.75095555599134" lon="9.749233335913257" id="-23909">
		<tag k="name" v="Skilnadputten" />
		<tag k="natural" v="water" />
		<tag k="ssr:stedsnr" v="119147" />
	</node>
	<node lat="60.62622500336176" lon="9.727708342251585" id="-23910">
		<tag k="name" v="Gran" />
		<tag k="place" v="farm" />
		<tag k="ssr:stedsnr" v="250979" />
	</node>
	<node lat="60.62249444569861" lon="9.70873333124213" id="-23911">
		<tag k="name" v="Skinningsrud" />
		<tag k="place" v="farm" />
		<tag k="ssr:stedsnr" v="119370" />
	</node>
	<node lat="60.6150166627431" lon="9.48889722864772" id="-23912">
		<tag k="name" v="Helserbekken" />
		<tag k="ssr:stedsnr" v="119392" />
		<tag k="waterway" v="stream" />
	</node>
	<node lat="60.599655559194" lon="9.683619439867515" id="-23913">
		<tag k="name" v="Korsgårdbekken" />
		<tag k="ssr:stedsnr" v="119505" />
		<tag k="waterway" v="stream" />
	</node>
	<node lat="60.58794166737841" lon="9.680127772563937" id="-23914">
		<tag k="name" v="Skardalen" />
		<tag k="natural" v="valley" />
		<tag k="place" v="locality" />
		<tag k="ssr:stedsnr" v="119513" />
	</node>
	<node lat="60.58500833019598" lon="9.749319445229663" id="-23915">
		<tag k="name" v="Lund" />
		<tag k="place" v="isolated_dwelling" />
		<tag k="ssr:stedsnr" v="119493" />
	</node>
	<node lat="60.71060000145489" lon="9.630816658489415" id="-23916">
		<tag k="alt_name" v="Branesætere" />
		<tag k="historic" v="shieling" />
		<tag k="name" v="Branessætra" />
		<tag k="place" v="isolated_dwelling" />
		<tag k="ssr:stedsnr" v="250999" />
	</node>
	<node lat="60.6476055555372" lon="9.793902784701059" id="-23917">
		<tag k="name" v="Veigård" />
		<tag k="place" v="isolated_dwelling" />
		<tag k="ssr:stedsnr" v="119717" />
	</node>
	<node lat="60.54239444781524" lon="9.604075000102846" id="-23918">
		<tag k="name" v="Haraldsbråten" />
		<tag k="place" v="locality" />
		<tag k="ssr:stedsnr" v="119770" />
	</node>
	<node lat="60.77968889042254" lon="9.318280556805933" id="-23919">
		<tag k="name" v="Øytjernbekken" />
		<tag k="old_name" v="Øytjednbekken" />
		<tag k="ssr:stedsnr" v="119789" />
		<tag k="waterway" v="stream" />
	</node>
	<node lat="60.72623889275235" lon="9.433086107143236" id="-23920">
		<tag k="historic" v="shieling" />
		<tag k="name" v="Bukfyllhaugatn" />
		<tag k="place" v="isolated_dwelling" />
		<tag k="ssr:stedsnr" v="119934" />
	</node>
	<node lat="60.69962500129752" lon="9.835999991293797" id="-23921">
		<tag k="fixme" v="consider natural=peak for the most distinct mountains in the district" />
		<tag k="name" v="Sollihøgda" />
		<tag k="natural" v="hill" />
		<tag k="place" v="locality" />
		<tag k="ssr:stedsnr" v="119669" />
	</node>
	<node lat="60.705716667930794" lon="9.843688889004813" id="-23922">
		<tag k="name" v="Kjeldlia" />
		<tag k="natural" v="slope" />
		<tag k="place" v="locality" />
		<tag k="ssr:stedsnr" v="119674" />
	</node>
	<node lat="60.649788889563496" lon="9.380516666619195" id="-23923">
		<tag k="name" v="Gamle Vangsoset" />
		<tag k="ssr:stedsnr" v="119802" />
		<tag k="waterway" v="dam" />
	</node>
	<node lat="60.75731111327599" lon="9.3957749945467" id="-23924">
		<tag k="name" v="Tetebrennbekken" />
		<tag k="ssr:stedsnr" v="119966" />
		<tag k="waterway" v="stream" />
	</node>
	<node lat="60.77412222045809" lon="9.3788666697345" id="-23925">
		<tag k="name" v="Vergesteindokke" />
		<tag k="natural" v="valley" />
		<tag k="place" v="locality" />
		<tag k="ssr:stedsnr" v="119967" />
	</node>
	<node lat="60.76564444188509" lon="9.336266657988947" id="-23926">
		<tag k="name" v="Gråberget" />
		<tag k="natural" v="hill" />
		<tag k="place" v="locality" />
		<tag k="ssr:stedsnr" v="119968" />
	</node>
	<node lat="60.7740583305349" lon="9.628208330390732" id="-23927">
		<tag k="alt_name" v="Øylund" />
		<tag k="name" v="Øyland" />
		<tag k="place" v="farm" />
		<tag k="ssr:stedsnr" v="251140" />
	</node>
	<node lat="60.77792500367775" lon="9.597419451068307" id="-23928">
		<tag k="alt_name" v="Brenn, s;Brenn;Søre Brenn" />
		<tag k="name" v="Søre Brenne" />
		<tag k="place" v="farm" />
		<tag k="ssr:stedsnr" v="251143" />
	</node>
	<node lat="60.85822777998841" lon="9.39902499158473" id="-23929">
		<tag k="fixme" v="consider natural=peak for the most distinct mountains in the district" />
		<tag k="name" v="Liastølfjellet" />
		<tag k="natural" v="hill" />
		<tag k="place" v="locality" />
		<tag k="ssr:stedsnr" v="251695" />
	</node>
	<node lat="60.869602782156115" lon="9.462761118415228" id="-23930">
		<tag k="alt_name" v="Dokke" />
		<tag k="name" v="Dokki" />
		<tag k="place" v="farm" />
		<tag k="ssr:stedsnr" v="251714" />
	</node>
	<node lat="60.832047224010175" lon="9.562447221891684" id="-23931">
		<tag k="name" v="Dalen" />
		<tag k="place" v="isolated_dwelling" />
		<tag k="ssr:stedsnr" v="251886" />
	</node>
	<node lat="60.83502777886335" lon="9.46991111897801" id="-23932">
		<tag k="alt_name" v="Hellinge" />
		<tag k="name" v="Hellingi" />
		<tag k="place" v="farm" />
		<tag k="ssr:stedsnr" v="251892" />
	</node>
	<node lat="60.811057549378255" lon="9.565449741209983" id="-23933">
		<tag k="alt_name" v="Hestehagen" />
		<tag k="fixme" v="consider place=hamlet" />
		<tag k="name" v="Haga" />
		<tag k="place" v="farm" />
		<tag k="ssr:stedsnr" v="251857" />
	</node>
	<node lat="60.81536110862212" lon="9.559372213805332" id="-23934">
		<tag k="alt_name" v="Erstad" />
		<tag k="name" v="Øvre Erstad" />
		<tag k="place" v="farm" />
		<tag k="ssr:stedsnr" v="251858" />
	</node>
	<node lat="60.8136861133478" lon="9.514577786231639" id="-23935">
		<tag k="name" v="Langeberget" />
		<tag k="place" v="locality" />
		<tag k="ssr:stedsnr" v="251861" />
	</node>
	<node lat="60.818452775019594" lon="9.51352500469328" id="-23936">
		<tag k="name" v="Raneilii" />
		<tag k="place" v="isolated_dwelling" />
		<tag k="ssr:stedsnr" v="251864" />
	</node>
	<node lat="60.82756389048403" lon="9.34816388317468" id="-23937">
		<tag k="name" v="Stølstjernet" />
		<tag k="natural" v="water" />
		<tag k="old_name" v="Stølstjednet" />
		<tag k="ssr:stedsnr" v="251880" />
	</node>
	<node lat="60.77177778068867" lon="9.663944446094064" id="-23938">
		<tag k="alt_name" v="Tommasbrøtin" />
		<tag k="name" v="Tomasbråten" />
		<tag k="place" v="isolated_dwelling" />
		<tag k="ssr:stedsnr" v="252104" />
	</node>
	<node lat="60.7709333344797" lon="9.631269444604602" id="-23939">
		<tag k="alt_name" v="Sveriplassen" />
		<tag k="name" v="Sverreplassen" />
		<tag k="place" v="farm" />
		<tag k="ssr:stedsnr" v="252105" />
	</node>
	<node lat="60.80424999843571" lon="9.80297500830611" id="-23940">
		<tag k="name" v="Løken" />
		<tag k="natural" v="water" />
		<tag k="ssr:stedsnr" v="252190" />
	</node>
	<node lat="60.8255972236048" lon="9.601300000043071" id="-23941">
		<tag k="fixme" v="consider natural=peak for the most distinct mountains in the district" />
		<tag k="name" v="Bagnsåsen" />
		<tag k="natural" v="hill" />
		<tag k="place" v="locality" />
		<tag k="ssr:stedsnr" v="252150" />
	</node>
	<node lat="60.81928333694698" lon="9.594727770698627" id="-23942">
		<tag k="name" v="Breidablikk" />
		<tag k="place" v="farm" />
		<tag k="ssr:stedsnr" v="252152" />
	</node>
	<node lat="60.797197224198236" lon="9.737716657782421" id="-23943">
		<tag k="name" v="Brenn" />
		<tag k="place" v="isolated_dwelling" />
		<tag k="ssr:stedsnr" v="252204" />
	</node>
	<node lat="60.801005551996845" lon="9.72575832900981" id="-23944">
		<tag k="alt_name" v="Braka, nedre" />
		<tag k="name" v="Nedre Braka" />
		<tag k="place" v="farm" />
		<tag k="ssr:stedsnr" v="252205" />
	</node>
	<node lat="60.48658333281322" lon="9.825011104512942" id="-23945">
		<tag k="name" v="Vidøla" />
		<tag k="ssr:stedsnr" v="127897" />
		<tag k="waterway" v="river" />
	</node>
	<node lat="60.496462831564045" lon="9.71141533080658" id="-23946">
		<tag k="fixme" v="consider tourism=alpine_hut or tourism=chalet" />
		<tag k="name" v="Storekrakkoia" />
		<tag k="ssr:stedsnr" v="127922" />
		<tag k="tourism" v="wilderness_hut" />
	</node>
	<node lat="60.49438888720064" lon="9.726241665717298" id="-23947">
		<tag k="name" v="Steinhyttbekken" />
		<tag k="ssr:stedsnr" v="127938" />
		<tag k="waterway" v="stream" />
	</node>
	<node lat="60.48987500229527" lon="9.786961113494423" id="-23948">
		<tag k="alt_name" v="Matapikknatten" />
		<tag k="fixme" v="consider natural=peak for the most distinct mountains in the district" />
		<tag k="name" v="Matapiggknatten" />
		<tag k="natural" v="hill" />
		<tag k="place" v="locality" />
		<tag k="ssr:stedsnr" v="127941" />
	</node>
	<node lat="60.71442500009658" lon="9.43418054899137" id="-23949">
		<tag k="alt_name" v="Hølervasshøgde" />
		<tag k="fixme" v="consider natural=peak for the most distinct mountains in the district" />
		<tag k="name" v="Hølervassåsen" />
		<tag k="natural" v="hill" />
		<tag k="place" v="locality" />
		<tag k="ssr:stedsnr" v="128515" />
	</node>
	<node lat="60.746999998904265" lon="9.39910833379056" id="-23950">
		<tag k="name" v="Venelimyri" />
		<tag k="natural" v="wetland" />
		<tag k="ssr:stedsnr" v="128541" />
	</node>
	<node lat="60.63187222520818" lon="9.545741660710407" id="-23951">
		<tag k="alt_name" v="Blautmyrsætra" />
		<tag k="historic" v="shieling" />
		<tag k="name" v="Blautemyr" />
		<tag k="place" v="isolated_dwelling" />
		<tag k="ssr:stedsnr" v="128618" />
	</node>
	<node lat="60.617349996216056" lon="9.50876665834037" id="-23952">
		<tag k="alt_name" v="Helsebua" />
		<tag k="name" v="Helseboden" />
		<tag k="place" v="isolated_dwelling" />
		<tag k="ssr:stedsnr" v="128658" />
	</node>
	<node lat="60.704758330299754" lon="9.58482500137802" id="-23953">
		<tag k="alt_name" v="Kollsætertinden" />
		<tag k="fixme" v="consider natural=peak for the most distinct mountains in the district" />
		<tag k="name" v="Kollsætertind" />
		<tag k="natural" v="hill" />
		<tag k="place" v="locality" />
		<tag k="ssr:stedsnr" v="128684" />
	</node>
	<node lat="60.6523500029914" lon="9.438230553160261" id="-23954">
		<tag k="alt_name" v="Åslisæter;Nordre Åslisæter" />
		<tag k="historic" v="shieling" />
		<tag k="name" v="Åslisætra" />
		<tag k="place" v="isolated_dwelling" />
		<tag k="ssr:stedsnr" v="128697" />
	</node>
	<node lat="60.74234166666256" lon="9.802586111949822" id="-23955">
		<tag k="alt_name" v="Drengsprengsætri, nordre;Drengsprengsætri;Nørdre Drengsprengsæter;Nordre Drengsprengsætri" />
		<tag k="historic" v="shieling" />
		<tag k="name" v="Nørdre Drengsprengsætri" />
		<tag k="place" v="isolated_dwelling" />
		<tag k="ssr:stedsnr" v="128803" />
	</node>
	<node lat="60.56893611469601" lon="9.715972220312848" id="-23956">
		<tag k="alt_name" v="Søre Skimten" />
		<tag k="name" v="Skimten" />
		<tag k="place" v="farm" />
		<tag k="ssr:stedsnr" v="128804" />
	</node>
	<node lat="60.568538892541405" lon="9.690455546791465" id="-23957">
		<tag k="name" v="Saubekken" />
		<tag k="ssr:stedsnr" v="128807" />
		<tag k="waterway" v="stream" />
	</node>
	<node lat="60.676411115164704" lon="9.78336943597892" id="-23958">
		<tag k="name" v="Varpet" />
		<tag k="natural" v="slope" />
		<tag k="place" v="locality" />
		<tag k="ssr:stedsnr" v="128902" />
	</node>
	<node lat="60.67773333534245" lon="9.677763881022523" id="-23959">
		<tag k="alt_name" v="Øyvassæter" />
		<tag k="historic" v="shieling" />
		<tag k="name" v="Øyvassætra" />
		<tag k="place" v="isolated_dwelling" />
		<tag k="ssr:stedsnr" v="128905" />
	</node>
	<node lat="60.68610833496719" lon="9.923433336543907" id="-23960">
		<tag k="name" v="Femvatna" />
		<tag k="natural" v="water" />
		<tag k="ssr:stedsnr" v="128911" />
		<tag k="water" v="lake" />
	</node>
	<node lat="60.739083335912845" lon="9.921036109547268" id="-23961">
		<tag k="alt_name" v="Langevatn" />
		<tag k="name" v="Langtjernvatnet" />
		<tag k="natural" v="water" />
		<tag k="ssr:stedsnr" v="128935" />
	</node>
	<node lat="60.657805559188944" lon="9.944836111755581" id="-23962">
		<tag k="name" v="Benkehøgda" />
		<tag k="natural" v="hill" />
		<tag k="place" v="locality" />
		<tag k="ssr:stedsnr" v="128936" />
	</node>
	<node lat="60.663747220864956" lon="9.844355557545708" id="-23963">
		<tag k="fixme" v="consider natural=peak for the most distinct mountains in the district" />
		<tag k="name" v="Ryggåsen" />
		<tag k="natural" v="hill" />
		<tag k="place" v="locality" />
		<tag k="ssr:stedsnr" v="128940" />
	</node>
	<node lat="60.73523611376873" lon="9.596674998253015" id="-23964">
		<tag k="name" v="Dytthol" />
		<tag k="place" v="isolated_dwelling" />
		<tag k="ssr:stedsnr" v="128943" />
	</node>
	<node lat="60.64226939937133" lon="9.870287393520584" id="-23965">
		<tag k="fixme" v="consider place=hamlet" />
		<tag k="name" v="Sørum" />
		<tag k="place" v="farm" />
		<tag k="ssr:stedsnr" v="128944" />
	</node>
	<node lat="60.64336944489828" lon="9.801563894760916" id="-23966">
		<tag k="name" v="Bakvendt" />
		<tag k="natural" v="slope" />
		<tag k="place" v="locality" />
		<tag k="ssr:stedsnr" v="128947" />
	</node>
	<node lat="60.72625555875902" lon="9.914688886188774" id="-23967">
		<tag k="alt_name" v="Helgevassfløyten" />
		<tag k="name" v="Helgevassfløten" />
		<tag k="natural" v="water" />
		<tag k="ssr:stedsnr" v="128982" />
	</node>
	<node lat="60.6226222254599" lon="9.780094451260622" id="-23968">
		<tag k="name" v="Skartjern" />
		<tag k="natural" v="water" />
		<tag k="ssr:stedsnr" v="128985" />
	</node>
	<node lat="60.70825555954216" lon="9.662666659026772" id="-23969">
		<tag k="name" v="Storemyr" />
		<tag k="natural" v="wetland" />
		<tag k="ssr:stedsnr" v="128986" />
	</node>
	<node lat="60.62364722603997" lon="9.684838881178106" id="-23970">
		<tag k="alt_name" v="Nedre Haugen" />
		<tag k="name" v="Haugen" />
		<tag k="place" v="farm" />
		<tag k="ssr:stedsnr" v="128988" />
	</node>
	<node lat="60.70485555404651" lon="9.690463883765881" id="-23971">
		<tag k="alt_name" v="Rundkøllen" />
		<tag k="name" v="Rundekollen" />
		<tag k="natural" v="hill" />
		<tag k="place" v="locality" />
		<tag k="ssr:stedsnr" v="128989" />
	</node>
	<node lat="60.70888333244556" lon="9.744858341672623" id="-23972">
		<tag k="name" v="Veslesæterhøgda" />
		<tag k="natural" v="hill" />
		<tag k="place" v="locality" />
		<tag k="ssr:stedsnr" v="128993" />
	</node>
	<node lat="60.632211106906084" lon="9.813347230514278" id="-23973">
		<tag k="name" v="Jugerud" />
		<tag k="place" v="isolated_dwelling" />
		<tag k="ssr:stedsnr" v="128999" />
	</node>
	<node lat="60.70995832994228" lon="9.60068334088704" id="-23974">
		<tag k="alt_name" v="Vesleøyvatnet;Øyvatnet, vle" />
		<tag k="name" v="Vesle Øyvatnet" />
		<tag k="natural" v="water" />
		<tag k="ssr:stedsnr" v="129000" />
	</node>
	<node lat="60.69171110821125" lon="9.76456667255898" id="-23975">
		<tag k="name" v="Hansebakkberget" />
		<tag k="natural" v="hill" />
		<tag k="place" v="locality" />
		<tag k="ssr:stedsnr" v="128891" />
	</node>
	<node lat="60.70250000415681" lon="9.754013880168836" id="-23976">
		<tag k="name" v="Bjørkedalen" />
		<tag k="natural" v="valley" />
		<tag k="place" v="locality" />
		<tag k="ssr:stedsnr" v="128893" />
	</node>
	<node lat="60.61836111172104" lon="9.870625006940928" id="-23977">
		<tag k="name" v="Primstein" />
		<tag k="natural" v="stone" />
		<tag k="ssr:stedsnr" v="128894" />
	</node>
	<node lat="60.675797221054914" lon="9.883013892352" id="-23978">
		<tag k="alt_name" v="Buvatnet, s" />
		<tag k="name" v="Søre Buvatnet" />
		<tag k="natural" v="water" />
		<tag k="ssr:stedsnr" v="128896" />
		<tag k="water" v="lake" />
	</node>
	<node lat="60.77777499732964" lon="9.6088499991454" id="-23979">
		<tag k="name" v="Bøle" />
		<tag k="place" v="farm" />
		<tag k="ssr:stedsnr" v="130102" />
	</node>
	<node lat="60.779916664726535" lon="9.748577774608448" id="-23980">
		<tag k="historic" v="shieling" />
		<tag k="name" v="Huken" />
		<tag k="place" v="isolated_dwelling" />
		<tag k="ssr:stedsnr" v="130111" />
	</node>
	<node lat="60.789487146496455" lon="9.64302444679543" id="-23981">
		<tag k="alt_name" v="Skaro" />
		<tag k="fixme" v="consider place=hamlet" />
		<tag k="name" v="Skaran" />
		<tag k="place" v="farm" />
		<tag k="ssr:stedsnr" v="130113" />
	</node>
	<node lat="60.78556389316278" lon="9.664849991472614" id="-23982">
		<tag k="alt_name" v="Skogstadhøgde" />
		<tag k="fixme" v="consider natural=peak for the most distinct mountains in the district" />
		<tag k="name" v="Skogstadknatten" />
		<tag k="natural" v="hill" />
		<tag k="place" v="locality" />
		<tag k="ssr:stedsnr" v="130130" />
	</node>
	<node lat="60.77752965668658" lon="9.642625844487421" id="-23983">
		<tag k="fixme" v="consider place=hamlet" />
		<tag k="name" v="Langedrag" />
		<tag k="place" v="farm" />
		<tag k="ssr:stedsnr" v="130095" />
	</node>
	<node lat="60.777905557895586" lon="9.623377772500787" id="-23984">
		<tag k="alt_name" v="Søre Lundo" />
		<tag k="name" v="Lundo" />
		<tag k="place" v="farm" />
		<tag k="ssr:stedsnr" v="130099" />
	</node>
	<node lat="60.813927774006494" lon="9.764172220332846" id="-23985">
		<tag k="name" v="Kolbu" />
		<tag k="place" v="farm" />
		<tag k="ssr:stedsnr" v="130215" />
	</node>
	<node lat="60.834875001767735" lon="9.393511110027461" id="-23986">
		<tag k="alt_name" v="Stavedalen" />
		<tag k="name" v="Stavadalen" />
		<tag k="natural" v="valley" />
		<tag k="place" v="locality" />
		<tag k="ssr:stedsnr" v="130611" />
	</node>
	<node lat="60.76074722050366" lon="9.438461103419888" id="-23987">
		<tag k="historic" v="shieling" />
		<tag k="name" v="Preststølen" />
		<tag k="place" v="isolated_dwelling" />
		<tag k="ssr:stedsnr" v="130707" />
	</node>
	<node lat="60.75895277359053" lon="9.36509166373343" id="-23988">
		<tag k="alt_name" v="Tempelhøgde" />
		<tag k="fixme" v="consider natural=peak for the most distinct mountains in the district" />
		<tag k="name" v="Tempelhaugen" />
		<tag k="natural" v="hill" />
		<tag k="place" v="locality" />
		<tag k="ssr:stedsnr" v="130710" />
	</node>
	<node lat="60.80153732949292" lon="9.532409473242472" id="-23989">
		<tag k="fixme" v="consider place=hamlet" />
		<tag k="name" v="Skard" />
		<tag k="place" v="farm" />
		<tag k="ssr:stedsnr" v="130777" />
	</node>
	<node lat="60.811622225406865" lon="9.335091664018291" id="-23990">
		<tag k="alt_name" v="Fjellstølen, nordre" />
		<tag k="historic" v="shieling" />
		<tag k="name" v="Nordre Fjellstølen" />
		<tag k="place" v="isolated_dwelling" />
		<tag k="ssr:stedsnr" v="130780" />
	</node>
	<node lat="60.81804166936107" lon="9.52812222454903" id="-23991">
		<tag k="alt_name" v="Liagardatn" />
		<tag k="name" v="Lii" />
		<tag k="place" v="hamlet" />
		<tag k="ssr:stedsnr" v="130787" />
	</node>
	<node lat="60.796647287131734" lon="9.316951588700059" id="-23992">
		<tag k="alt_name" v="Sangevatni, store;Store Sangevatnet;Store Sangevatni" />
		<tag k="name" v="Store Sangin" />
		<tag k="natural" v="water" />
		<tag k="ssr:stedsnr" v="130790" />
		<tag k="water" v="lake" />
	</node>
	<node lat="60.793699996515066" lon="9.485830563737164" id="-23993">
		<tag k="alt_name" v="Tjuehaugen" />
		<tag k="name" v="Tjuvehaugen" />
		<tag k="natural" v="hill" />
		<tag k="place" v="locality" />
		<tag k="ssr:stedsnr" v="130803" />
	</node>
	<node lat="60.80417499947207" lon="9.571238888590342" id="-23994">
		<tag k="name" v="Plassen" />
		<tag k="place" v="farm" />
		<tag k="ssr:stedsnr" v="130808" />
	</node>
	<node lat="60.818111108788536" lon="9.348463894721558" id="-23995">
		<tag k="name" v="Fjellstølbekken" />
		<tag k="ssr:stedsnr" v="130833" />
		<tag k="waterway" v="stream" />
	</node>
	<node lat="60.825999999654634" lon="9.569016665553754" id="-23996">
		<tag k="name" v="Erlendshaugen" />
		<tag k="place" v="farm" />
		<tag k="ssr:stedsnr" v="130838" />
	</node>
	<node lat="60.82370833216986" lon="9.505022217522017" id="-23997">
		<tag k="alt_name" v="Haslebrøtin" />
		<tag k="name" v="Haslo" />
		<tag k="place" v="farm" />
		<tag k="ssr:stedsnr" v="130844" />
	</node>
	<node lat="60.82768906557163" lon="9.454948721563317" id="-23998">
		<tag k="alt_name" v="Øygarden" />
		<tag k="fixme" v="consider place=hamlet" />
		<tag k="name" v="Øygard" />
		<tag k="place" v="farm" />
		<tag k="ssr:stedsnr" v="130846" />
	</node>
	<node lat="60.75074166313373" lon="9.320130554390516" id="-23999">
		<tag k="fixme" v="consider natural=peak for the most distinct mountains in the district" />
		<tag k="name" v="Rabalsfjellet" />
		<tag k="natural" v="hill" />
		<tag k="place" v="locality" />
		<tag k="ssr:stedsnr" v="252728" />
	</node>
	<node lat="60.764170167982684" lon="9.419975960829625" id="-24000">
		<tag k="alt_name" v="Brattrudsætrene" />
		<tag k="historic" v="shieling" />
		<tag k="name" v="Brattrudsætrin" />
		<tag k="place" v="isolated_dwelling" />
		<tag k="ssr:stedsnr" v="252735" />
	</node>
	<node lat="60.794824998906236" lon="9.558447216786018" id="-24001">
		<tag k="alt_name" v="Skørre" />
		<tag k="name" v="Skørri" />
		<tag k="place" v="farm" />
		<tag k="ssr:stedsnr" v="252808" />
	</node>
	<node lat="60.797711107719564" lon="9.344752781124285" id="-24002">
		<tag k="fixme" v="consider natural=peak for the most distinct mountains in the district" />
		<tag k="name" v="Fiskebufjellet" />
		<tag k="natural" v="hill" />
		<tag k="place" v="locality" />
		<tag k="ssr:stedsnr" v="252813" />
	</node>
	<node lat="60.80247222002118" lon="9.578338885821944" id="-24003">
		<tag k="name" v="Nyvegen" />
		<tag k="place" v="farm" />
		<tag k="ssr:stedsnr" v="252814" />
	</node>
	<node lat="60.782419422918316" lon="9.580084259570205" id="-24004">
		<tag k="alt_name" v="Dølvi" />
		<tag k="fixme" v="consider place=hamlet" />
		<tag k="name" v="Dølve" />
		<tag k="place" v="farm" />
		<tag k="ssr:stedsnr" v="252768" />
	</node>
	<node lat="60.6208277807732" lon="9.694041663222034" id="-24005">
		<tag k="name" v="Ildjarntunet" />
		<tag k="ssr:stedsnr" v="161587" />
		<tag k="tourism" v="guest_house" />
	</node>
	<node lat="60.66027499994945" lon="9.968919446824012" id="-24007">
		<tag k="name" v="Skaugum" />
		<tag k="place" v="isolated_dwelling" />
		<tag k="ssr:stedsnr" v="179007" />
	</node>
	<node lat="60.70834444801112" lon="9.451022231422403" id="-24008">
		<tag k="name" v="Lomvike" />
		<tag k="natural" v="bay" />
		<tag k="ssr:stedsnr" v="179417" />
	</node>
	<node lat="60.62514722509652" lon="9.68601666235002" id="-24009">
		<tag k="name" v="Lundberg" />
		<tag k="place" v="farm" />
		<tag k="ssr:stedsnr" v="179420" />
	</node>
	<node lat="60.619938892360494" lon="9.712794438410029" id="-24010">
		<tag k="name" v="Bertelrud" />
		<tag k="place" v="farm" />
		<tag k="ssr:stedsnr" v="179426" />
	</node>
	<node lat="60.596952775768855" lon="9.707033337751067" id="-24011">
		<tag k="name" v="Sjurskorta" />
		<tag k="place" v="locality" />
		<tag k="ssr:stedsnr" v="179469" />
	</node>
	<node lat="60.58358333429717" lon="9.713255555458803" id="-24012">
		<tag k="name" v="Nore" />
		<tag k="place" v="farm" />
		<tag k="ssr:stedsnr" v="179476" />
	</node>
	<node lat="60.83462222071598" lon="9.3766555512993" id="-24013">
		<tag k="name" v="Heggerustbekken" />
		<tag k="ssr:stedsnr" v="179620" />
		<tag k="waterway" v="stream" />
	</node>
	<node lat="60.61580833396285" lon="9.75396111172314" id="-24014">
		<tag k="name" v="Bråtågardshøgda" />
		<tag k="natural" v="hill" />
		<tag k="place" v="locality" />
		<tag k="ssr:stedsnr" v="179503" />
	</node>
	<node lat="60.61120833728503" lon="9.732461113719276" id="-24015">
		<tag k="name" v="Hansrud" />
		<tag k="place" v="farm" />
		<tag k="ssr:stedsnr" v="179507" />
	</node>
	<node lat="60.59666111248536" lon="9.6500222238461" id="-24016">
		<tag k="name" v="Storebekk" />
		<tag k="ssr:stedsnr" v="179714" />
		<tag k="waterway" v="stream" />
	</node>
	<node lat="60.79242222179911" lon="9.288055564160567" id="-24017">
		<tag k="name" v="Langetjernbekken" />
		<tag k="old_name" v="Langetjednbekken" />
		<tag k="ssr:stedsnr" v="179757" />
		<tag k="waterway" v="stream" />
	</node>
	<node lat="60.775477774643306" lon="9.290977778522569" id="-24018">
		<tag k="fixme" v="consider natural=peak for the most distinct mountains in the district" />
		<tag k="name" v="Rauskreoberget" />
		<tag k="natural" v="hill" />
		<tag k="place" v="locality" />
		<tag k="ssr:stedsnr" v="179762" />
	</node>
	<node lat="60.77605277538415" lon="9.339980546702499" id="-24019">
		<tag k="name" v="Løypa" />
		<tag k="natural" v="valley" />
		<tag k="place" v="locality" />
		<tag k="ssr:stedsnr" v="179967" />
	</node>
	<node lat="60.76981110955528" lon="9.760238887766347" id="-24020">
		<tag k="name" v="Grauthytta" />
		<tag k="place" v="isolated_dwelling" />
		<tag k="ssr:stedsnr" v="180158" />
	</node>
	<node lat="60.78551944076488" lon="9.762836112664766" id="-24021">
		<tag k="name" v="Mekjelstjernet" />
		<tag k="natural" v="water" />
		<tag k="old_name" v="Mekjelstjednet" />
		<tag k="ssr:stedsnr" v="180166" />
	</node>
	<node lat="60.65695278149026" lon="9.815338882616185" id="-24022">
		<tag k="name" v="Stokkedalen" />
		<tag k="place" v="farm" />
		<tag k="ssr:stedsnr" v="180662" />
	</node>
	<node lat="60.59289444093423" lon="9.865752781821094" id="-24023">
		<tag k="historic" v="shieling" />
		<tag k="name" v="Nysætra" />
		<tag k="place" v="locality" />
		<tag k="ssr:stedsnr" v="262720" />
	</node>
	<node lat="60.66267499879173" lon="9.65909999266604" id="-24024">
		<tag k="name" v="Bukkeberget" />
		<tag k="natural" v="hill" />
		<tag k="place" v="locality" />
		<tag k="ssr:stedsnr" v="188929" />
	</node>
	<node lat="60.661065879266495" lon="9.627168388870484" id="-24025">
		<tag k="name" v="Flåtevatnet" />
		<tag k="natural" v="water" />
		<tag k="ssr:stedsnr" v="188933" />
	</node>
	<node lat="60.65732778075205" lon="9.685549996886143" id="-24026">
		<tag k="alt_name" v="Rålia" />
		<tag k="historic" v="shieling" />
		<tag k="name" v="Rålisætra" />
		<tag k="place" v="locality" />
		<tag k="ssr:stedsnr" v="188934" />
	</node>
	<node lat="60.667691668184816" lon="9.874836103607244" id="-24027">
		<tag k="name" v="Buvasskollen" />
		<tag k="natural" v="hill" />
		<tag k="place" v="locality" />
		<tag k="ssr:stedsnr" v="188938" />
	</node>
	<node lat="60.6670888930705" lon="9.850024997547797" id="-24028">
		<tag k="name" v="Midtknatten" />
		<tag k="natural" v="hill" />
		<tag k="place" v="locality" />
		<tag k="ssr:stedsnr" v="188940" />
	</node>
	<node lat="60.66703889210172" lon="9.759774991314679" id="-24029">
		<tag k="name" v="Grimsrudkollen" />
		<tag k="natural" v="hill" />
		<tag k="place" v="locality" />
		<tag k="ssr:stedsnr" v="188942" />
	</node>
	<node lat="60.672311115594084" lon="9.686344439577985" id="-24030">
		<tag k="name" v="Vesleøyvatnet" />
		<tag k="natural" v="water" />
		<tag k="ssr:stedsnr" v="188948" />
	</node>
	<node lat="60.49405555603992" lon="9.772052784991244" id="-24031">
		<tag k="name" v="Mansæterbekken" />
		<tag k="ssr:stedsnr" v="188950" />
		<tag k="waterway" v="stream" />
	</node>
	<node lat="60.64323889046705" lon="9.519391674098621" id="-24032">
		<tag k="alt_name" v="Tufsa" />
		<tag k="historic" v="shieling" />
		<tag k="name" v="Tyfsa" />
		<tag k="place" v="isolated_dwelling" />
		<tag k="ssr:stedsnr" v="189604" />
	</node>
	<node lat="60.69538055932024" lon="9.406177769292102" id="-24033">
		<tag k="alt_name" v="Øylundrødningen" />
		<tag k="historic" v="shieling" />
		<tag k="name" v="Rydningen" />
		<tag k="place" v="isolated_dwelling" />
		<tag k="ssr:stedsnr" v="189665" />
	</node>
	<node lat="60.697422225116185" lon="9.349463893589528" id="-24034">
		<tag k="name" v="Storeputt" />
		<tag k="natural" v="water" />
		<tag k="ssr:stedsnr" v="189684" />
	</node>
	<node lat="60.55714166666428" lon="9.579202784530853" id="-24035">
		<tag k="fixme" v="consider natural=peak for the most distinct mountains in the district" />
		<tag k="name" v="Sæterknatten" />
		<tag k="natural" v="hill" />
		<tag k="place" v="locality" />
		<tag k="ssr:stedsnr" v="189826" />
	</node>
	<node lat="60.53685832968119" lon="9.768530554294877" id="-24036">
		<tag k="name" v="Rakkestadbekken" />
		<tag k="ssr:stedsnr" v="189827" />
		<tag k="waterway" v="stream" />
	</node>
	<node lat="60.53920000189531" lon="9.524258327448214" id="-24037">
		<tag k="name" v="Brennbekken" />
		<tag k="ssr:stedsnr" v="189863" />
		<tag k="waterway" v="stream" />
	</node>
	<node lat="60.67187205014434" lon="9.527729249899112" id="-24038">
		<tag k="historic" v="shieling" />
		<tag k="name" v="Veslesætra" />
		<tag k="place" v="locality" />
		<tag k="ssr:stedsnr" v="189711" />
	</node>
	<node lat="60.6746972221171" lon="9.520308341970782" id="-24039">
		<tag k="historic" v="shieling" />
		<tag k="name" v="Gamlevollen" />
		<tag k="place" v="isolated_dwelling" />
		<tag k="ssr:stedsnr" v="189712" />
	</node>
	<node lat="60.66799722587882" lon="9.499047216131535" id="-24040">
		<tag k="historic" v="shieling" />
		<tag k="name" v="Vierlia" />
		<tag k="place" v="isolated_dwelling" />
		<tag k="ssr:stedsnr" v="189721" />
	</node>
	<node lat="60.743655555844995" lon="9.66197221604435" id="-24041">
		<tag k="alt_name" v="Furuhaugen" />
		<tag k="name" v="Furuberget" />
		<tag k="natural" v="hill" />
		<tag k="place" v="locality" />
		<tag k="ssr:stedsnr" v="189774" />
	</node>
	<node lat="60.563119441535356" lon="9.641127776293654" id="-24042">
		<tag k="fixme" v="consider natural=peak for the most distinct mountains in the district" />
		<tag k="name" v="Manfjellet" />
		<tag k="natural" v="hill" />
		<tag k="place" v="locality" />
		<tag k="ssr:stedsnr" v="189788" />
	</node>
	<node lat="60.59407499992597" lon="9.856850000452473" id="-24043">
		<tag k="fixme" v="consider natural=peak for the most distinct mountains in the district" />
		<tag k="name" v="Strømsåsen" />
		<tag k="natural" v="hill" />
		<tag k="place" v="locality" />
		<tag k="ssr:stedsnr" v="189902" />
	</node>
	<node lat="60.73585555627219" lon="9.645833336119667" id="-24044">
		<tag k="alt_name" v="Kattulhøgde" />
		<tag k="name" v="Kattuglehøgdi" />
		<tag k="natural" v="hill" />
		<tag k="place" v="locality" />
		<tag k="ssr:stedsnr" v="189936" />
	</node>
	<node lat="60.649894443634814" lon="9.805611112575093" id="-24045">
		<tag k="name" v="Enga" />
		<tag k="place" v="farm" />
		<tag k="ssr:stedsnr" v="189961" />
	</node>
	<node lat="60.634866663777245" lon="9.690944439549861" id="-24046">
		<tag k="alt_name" v="Østal" />
		<tag k="name" v="Østdal" />
		<tag k="place" v="farm" />
		<tag k="ssr:stedsnr" v="189962" />
	</node>
	<node lat="60.62811863236649" lon="9.688195613291068" id="-24047">
		<tag k="fixme" v="consider place=hamlet" />
		<tag k="name" v="Berg" />
		<tag k="place" v="farm" />
		<tag k="ssr:stedsnr" v="189965" />
	</node>
	<node lat="60.8465500004513" lon="9.468011105837961" id="-24048">
		<tag k="name" v="Brenneknatten" />
		<tag k="natural" v="hill" />
		<tag k="place" v="locality" />
		<tag k="ssr:stedsnr" v="190660" />
	</node>
	<node lat="60.852886114638835" lon="9.517722227881551" id="-24049">
		<tag k="alt_name" v="Pislabekken" />
		<tag k="name" v="Pisla" />
		<tag k="ssr:stedsnr" v="190663" />
		<tag k="waterway" v="stream" />
	</node>
	<node lat="60.83085277849804" lon="9.471366672993053" id="-24050">
		<tag k="name" v="Brøtatn" />
		<tag k="place" v="farm" />
		<tag k="ssr:stedsnr" v="190875" />
	</node>
	<node lat="60.77142222600348" lon="9.6725611039236" id="-24051">
		<tag k="name" v="Høgeberget" />
		<tag k="natural" v="hill" />
		<tag k="place" v="locality" />
		<tag k="ssr:stedsnr" v="191104" />
	</node>
	<node lat="60.81768055321734" lon="9.68989167218126" id="-24052">
		<tag k="name" v="Svarttjernbekken" />
		<tag k="ssr:stedsnr" v="191167" />
		<tag k="waterway" v="stream" />
	</node>
	<node lat="60.81515215409535" lon="9.757036722504255" id="-24053">
		<tag k="alt_name" v="Skjærstein" />
		<tag k="fixme" v="consider place=hamlet" />
		<tag k="name" v="Skjerstein" />
		<tag k="place" v="farm" />
		<tag k="ssr:stedsnr" v="191205" />
	</node>
	<node lat="60.753086107849974" lon="9.558188889373863" id="-24054">
		<tag k="alt_name" v="Hølersæterbekken" />
		<tag k="name" v="Hølbekken" />
		<tag k="ssr:stedsnr" v="191708" />
		<tag k="waterway" v="stream" />
	</node>
	<node lat="60.78851111351031" lon="9.498755560440669" id="-24055">
		<tag k="alt_name" v="Skrubblia" />
		<tag k="name" v="Skrubbelii" />
		<tag k="place" v="isolated_dwelling" />
		<tag k="ssr:stedsnr" v="191752" />
	</node>
	<node lat="60.79872500031553" lon="9.584277773693254" id="-24056">
		<tag k="alt_name" v="Lindelie" />
		<tag k="name" v="Lindelii" />
		<tag k="place" v="isolated_dwelling" />
		<tag k="ssr:stedsnr" v="191799" />
	</node>
	<node lat="60.62463055551438" lon="9.90703888308294" id="-24057">
		<tag k="name" v="Røvsholoa" />
		<tag k="place" v="locality" />
		<tag k="ssr:stedsnr" v="221479" />
	</node>
	<node lat="60.72411388933136" lon="9.783980557125908" id="-24058">
		<tag k="name" v="Hellemyr" />
		<tag k="natural" v="wetland" />
		<tag k="ssr:stedsnr" v="221513" />
	</node>
	<node lat="60.8715277807726" lon="9.477919453519085" id="-24059">
		<tag k="name" v="Purkekleive" />
		<tag k="natural" v="slope" />
		<tag k="place" v="locality" />
		<tag k="ssr:stedsnr" v="221706" />
	</node>
	<node lat="60.53451944070972" lon="9.734658336120768" id="-24060">
		<tag k="name" v="Fjøbekken" />
		<tag k="ssr:stedsnr" v="221804" />
		<tag k="waterway" v="stream" />
	</node>
	<node lat="60.49866944895581" lon="9.780422218749882" id="-24061">
		<tag k="name" v="Stordalen" />
		<tag k="natural" v="valley" />
		<tag k="place" v="locality" />
		<tag k="ssr:stedsnr" v="221808" />
	</node>
	<node lat="60.83008989073745" lon="9.498046663072108" id="-24062">
		<tag k="alt_name" v="Kolsgard;Kollsgard" />
		<tag k="fixme" v="consider place=hamlet" />
		<tag k="name" v="Framgard" />
		<tag k="place" v="farm" />
		<tag k="ssr:stedsnr" v="221816" />
	</node>
	<node lat="60.7229250034235" lon="9.476258337122225" id="-24063">
		<tag k="name" v="Bukfyllbrenn" />
		<tag k="place" v="locality" />
		<tag k="ssr:stedsnr" v="221881" />
	</node>
	<node lat="60.78977658613149" lon="9.58668342858348" id="-24064">
		<tag k="alt_name" v="Bergatn" />
		<tag k="loc_name" v="Bergene" />
		<tag k="name" v="Bergan" />
		<tag k="place" v="locality" />
		<tag k="ssr:stedsnr" v="494772" />
	</node>
	<node lat="60.63575277616822" lon="9.657783329332105" id="-24065">
		<tag k="name" v="Søre Flaten" />
		<tag k="place" v="farm" />
		<tag k="ssr:stedsnr" v="232828" />
	</node>
	<node lat="60.6676694404525" lon="9.917802779840672" id="-24066">
		<tag k="name" v="Reisenbein" />
		<tag k="place" v="isolated_dwelling" />
		<tag k="ssr:stedsnr" v="240005" />
	</node>
	<node lat="60.73641666235676" lon="9.478236116502165" id="-24067">
		<tag k="name" v="Kjeldemyrbekken" />
		<tag k="ssr:stedsnr" v="240244" />
		<tag k="waterway" v="stream" />
	</node>
	<node lat="60.816855554272784" lon="9.544594441672652" id="-24068">
		<tag k="name" v="Torsrudgrenda" />
		<tag k="place" v="hamlet" />
		<tag k="ssr:stedsnr" v="240247" />
	</node>
	<node lat="60.69255555351057" lon="9.601649993413385" id="-24069">
		<tag k="name" v="Storemyr" />
		<tag k="natural" v="wetland" />
		<tag k="ssr:stedsnr" v="240180" />
	</node>
	<node lat="60.76226944647664" lon="9.662222214968567" id="-24070">
		<tag k="name" v="Åmot" />
		<tag k="place" v="isolated_dwelling" />
		<tag k="ssr:stedsnr" v="240185" />
	</node>
	<node lat="60.76793333117207" lon="9.690052773582218" id="-24071">
		<tag k="name" v="Teinongrenna" />
		<tag k="natural" v="valley" />
		<tag k="place" v="locality" />
		<tag k="ssr:stedsnr" v="240187" />
	</node>
	<node lat="60.74345000186503" lon="9.923113888978165" id="-24072">
		<tag k="name" v="Bjørndalstjerna" />
		<tag k="natural" v="water" />
		<tag k="ssr:stedsnr" v="240193" />
		<tag k="water" v="lake" />
	</node>
	<node lat="60.61655277755994" lon="9.464275005386382" id="-24073">
		<tag k="name" v="Helserfjellet" />
		<tag k="natural" v="hill" />
		<tag k="place" v="locality" />
		<tag k="ssr:stedsnr" v="240388" />
	</node>
	<node lat="60.60698610950352" lon="9.473944436810495" id="-24074">
		<tag k="loc_name" v="Hellsæøya" />
		<tag k="name" v="Helserøya" />
		<tag k="place" v="island" />
		<tag k="ssr:stedsnr" v="240391" />
	</node>
	<node lat="60.74068055568437" lon="9.53842777418185" id="-24075">
		<tag k="name" v="Øddatn" />
		<tag k="natural" v="cape" />
		<tag k="ssr:stedsnr" v="240477" />
	</node>
	<node lat="60.752516665836474" lon="9.527294436252003" id="-24076">
		<tag k="name" v="Purkefeten" />
		<tag k="place" v="locality" />
		<tag k="ssr:stedsnr" v="240479" />
	</node>
</osm>
