<?xml version="1.0" encoding="UTF-8"?>
<osm version="0.6" generator="osmapis">
	<node lat="60.7201305567552" lon="9.584808329770802" id="-23724">
		<tag k="alt_name" v="Øyvassæterhøgde" />
		<tag k="fixme" v="consider natural=peak for the most distinct mountains in the district" />
		<tag k="name" v="Øyvasshøgdi" />
		<tag k="natural" v="hill" />
		<tag k="place" v="locality" />
		<tag k="ssr:stedsnr" v="7519" />
	</node>
	<node lat="60.70624721982183" lon="9.539724997697293" id="-23726">
		<tag k="alt_name" v="Gamlesæterhøgda" />
		<tag k="fixme" v="consider natural=peak for the most distinct mountains in the district" />
		<tag k="name" v="Gamlesæterhøgdi" />
		<tag k="natural" v="hill" />
		<tag k="place" v="locality" />
		<tag k="ssr:stedsnr" v="7527" />
	</node>
	<node lat="60.68753333062135" lon="9.706169449587538" id="-23735">
		<tag k="fixme" v="consider natural=peak for the most distinct mountains in the district" />
		<tag k="name" v="Svartfjellkollen" />
		<tag k="natural" v="hill" />
		<tag k="place" v="locality" />
		<tag k="ssr:stedsnr" v="7897" />
	</node>
	<node lat="60.69527500025463" lon="9.922894446946303" id="-23736">
		<tag k="alt_name" v="Godhaug, nordre" />
		<tag k="name" v="Nordre Godhaug" />
		<tag k="natural" v="hill" />
		<tag k="place" v="locality" />
		<tag k="ssr:stedsnr" v="7900" />
	</node>
	<node lat="60.64495277857323" lon="9.597536108920353" id="-23741">
		<tag k="alt_name" v="Høgeberget" />
		<tag k="name" v="Høgberget" />
		<tag k="natural" v="hill" />
		<tag k="place" v="locality" />
		<tag k="ssr:stedsnr" v="7964" />
	</node>
	<node lat="60.831899996152345" lon="9.403625003596732" id="-23748">
		<tag k="alt_name" v="Tempelen" />
		<tag k="fixme" v="consider natural=peak for the most distinct mountains in the district" />
		<tag k="name" v="Heimretempelen" />
		<tag k="natural" v="hill" />
		<tag k="place" v="locality" />
		<tag k="ssr:stedsnr" v="9638" />
	</node>
	<node lat="60.79495555859578" lon="9.349961108885879" id="-23757">
		<tag k="name" v="Røvslihallitn" />
		<tag k="natural" v="slope" />
		<tag k="place" v="locality" />
		<tag k="ssr:stedsnr" v="39522" />
	</node>
	<node lat="60.8472555596915" lon="9.472569453373156" id="-23758">
		<tag k="name" v="Storurdknatten" />
		<tag k="natural" v="hill" />
		<tag k="place" v="locality" />
		<tag k="ssr:stedsnr" v="39704" />
	</node>
	<node lat="60.532874998068976" lon="9.690333330979888" id="-23761">
		<tag k="name" v="Fiskebråten" />
		<tag k="place" v="locality" />
		<tag k="ssr:stedsnr" v="39802" />
	</node>
	<node lat="60.7725055580503" lon="9.635822218996257" id="-23762">
		<tag k="name" v="Øyhusbakkatn" />
		<tag k="natural" v="slope" />
		<tag k="place" v="locality" />
		<tag k="ssr:stedsnr" v="39870" />
	</node>
	<node lat="60.85633055736333" lon="9.493558330574634" id="-23763">
		<tag k="name" v="Høvsrenna" />
		<tag k="natural" v="slope" />
		<tag k="place" v="locality" />
		<tag k="ssr:stedsnr" v="39907" />
	</node>
	<node lat="60.53068333020074" lon="9.48090832574637" id="-23765">
		<tag k="name" v="Vinterstøberget" />
		<tag k="natural" v="hill" />
		<tag k="place" v="locality" />
		<tag k="ssr:stedsnr" v="41205" />
	</node>
	<node lat="60.81240833529891" lon="9.709072228628859" id="-23768">
		<tag k="name" v="Heggjehærin" />
		<tag k="natural" v="hill" />
		<tag k="place" v="locality" />
		<tag k="ssr:stedsnr" v="240087" />
	</node>
	<node lat="60.716116670323835" lon="9.973694438583998" id="-23769">
		<tag k="name" v="Høgbrenndalen" />
		<tag k="natural" v="valley" />
		<tag k="place" v="locality" />
		<tag k="ssr:stedsnr" v="240092" />
	</node>
	<node lat="60.761050004493946" lon="9.696988883861437" id="-23774">
		<tag k="name" v="Vesldalsrenna" />
		<tag k="natural" v="valley" />
		<tag k="old_name" v="Lilledalsrenna" />
		<tag k="place" v="locality" />
		<tag k="ssr:stedsnr" v="240158" />
	</node>
	<node lat="60.695019442169986" lon="9.576463894080277" id="-23778">
		<tag k="fixme" v="consider natural=peak for the most distinct mountains in the district" />
		<tag k="name" v="Larsbølkollen" />
		<tag k="natural" v="hill" />
		<tag k="place" v="locality" />
		<tag k="ssr:stedsnr" v="58207" />
	</node>
	<node lat="60.725708331804896" lon="9.612847218577427" id="-23780">
		<tag k="name" v="Liasæterhallitn" />
		<tag k="natural" v="slope" />
		<tag k="place" v="locality" />
		<tag k="ssr:stedsnr" v="58216" />
	</node>
	<node lat="60.73828333312817" lon="9.648252771791832" id="-23781">
		<tag k="name" v="Høglie" />
		<tag k="natural" v="slope" />
		<tag k="place" v="locality" />
		<tag k="ssr:stedsnr" v="58226" />
	</node>
	<node lat="60.76529722618913" lon="9.734283341041248" id="-23782">
		<tag k="name" v="Laddelie" />
		<tag k="natural" v="slope" />
		<tag k="place" v="locality" />
		<tag k="ssr:stedsnr" v="58174" />
	</node>
	<node lat="60.77845000076219" lon="9.76603889592091" id="-23783">
		<tag k="name" v="Mortebekkhøgde" />
		<tag k="natural" v="hill" />
		<tag k="place" v="locality" />
		<tag k="ssr:stedsnr" v="58182" />
	</node>
	<node lat="60.68331389322684" lon="9.527191667337512" id="-23788">
		<tag k="name" v="Fintoppkollen" />
		<tag k="natural" v="hill" />
		<tag k="place" v="locality" />
		<tag k="ssr:stedsnr" v="58469" />
	</node>
	<node lat="60.77313888906792" lon="9.298324994697495" id="-23796">
		<tag k="fixme" v="consider natural=peak for the most distinct mountains in the district" />
		<tag k="name" v="Gamlestølfjellet" />
		<tag k="natural" v="hill" />
		<tag k="place" v="locality" />
		<tag k="ssr:stedsnr" v="58777" />
	</node>
	<node lat="60.790211109959486" lon="9.635405561782463" id="-23799">
		<tag k="name" v="Kølskåledalen" />
		<tag k="natural" v="valley" />
		<tag k="place" v="locality" />
		<tag k="ssr:stedsnr" v="58905" />
	</node>
	<node lat="60.7031499959492" lon="9.541847218647684" id="-23802">
		<tag k="name" v="Liasæterhalle" />
		<tag k="natural" v="slope" />
		<tag k="place" v="locality" />
		<tag k="ssr:stedsnr" v="240462" />
	</node>
	<node lat="60.829016669593805" lon="9.356350002563898" id="-23806">
		<tag k="name" v="Rugleiksknatten" />
		<tag k="natural" v="hill" />
		<tag k="place" v="locality" />
		<tag k="ssr:stedsnr" v="240652" />
	</node>
	<node lat="60.691877779639825" lon="9.896219446483686" id="-23807">
		<tag k="name" v="Hakakrokbakken" />
		<tag k="natural" v="slope" />
		<tag k="place" v="locality" />
		<tag k="ssr:stedsnr" v="240668" />
	</node>
	<node lat="60.69219444675155" lon="9.845669439127201" id="-23808">
		<tag k="name" v="Jørnslia" />
		<tag k="natural" v="slope" />
		<tag k="place" v="locality" />
		<tag k="ssr:stedsnr" v="240671" />
	</node>
	<node lat="60.67218888713006" lon="9.84312222550207" id="-23810">
		<tag k="name" v="Skarsætermyra" />
		<tag k="natural" v="slope" />
		<tag k="place" v="locality" />
		<tag k="ssr:stedsnr" v="240675" />
	</node>
	<node lat="60.67468611420449" lon="9.865630549803457" id="-23811">
		<tag k="name" v="Buvasslia" />
		<tag k="natural" v="slope" />
		<tag k="place" v="locality" />
		<tag k="ssr:stedsnr" v="240677" />
	</node>
	<node lat="60.582200002879716" lon="9.63647221725749" id="-23819">
		<tag k="name" v="Sandpynten" />
		<tag k="natural" v="slope" />
		<tag k="place" v="locality" />
		<tag k="ssr:stedsnr" v="240765" />
	</node>
	<node lat="60.63174722277818" lon="9.369950006766494" id="-23820">
		<tag k="name" v="Haukehaugen" />
		<tag k="natural" v="hill" />
		<tag k="place" v="locality" />
		<tag k="ssr:stedsnr" v="240782" />
	</node>
	<node lat="60.82710277915689" lon="9.447013887925502" id="-23822">
		<tag k="name" v="Øygardsbakken" />
		<tag k="natural" v="slope" />
		<tag k="place" v="locality" />
		<tag k="ssr:stedsnr" v="240854" />
	</node>
	<node lat="60.774325000582245" lon="9.404311109698028" id="-23823">
		<tag k="name" v="Signaltoppen" />
		<tag k="natural" v="hill" />
		<tag k="place" v="locality" />
		<tag k="ssr:stedsnr" v="240952" />
	</node>
	<node lat="60.67888888963297" lon="9.409122213945318" id="-23825">
		<tag k="alt_name" v="Vangslie" />
		<tag k="name" v="Vangslii" />
		<tag k="natural" v="slope" />
		<tag k="place" v="locality" />
		<tag k="ssr:stedsnr" v="67700" />
	</node>
	<node lat="60.58964999675539" lon="9.537161106321392" id="-23828">
		<tag k="fixme" v="consider natural=peak for the most distinct mountains in the district" />
		<tag k="name" v="Svartvikfjellet" />
		<tag k="natural" v="hill" />
		<tag k="place" v="locality" />
		<tag k="ssr:stedsnr" v="68810" />
	</node>
	<node lat="60.79416388869085" lon="9.617997223336754" id="-23838">
		<tag k="fixme" v="consider natural=peak for the most distinct mountains in the district" />
		<tag k="name" v="Leiteberget" />
		<tag k="natural" v="hill" />
		<tag k="place" v="locality" />
		<tag k="ssr:stedsnr" v="70212" />
	</node>
	<node lat="60.80911110964512" lon="9.608675006872387" id="-23840">
		<tag k="fixme" v="consider natural=peak for the most distinct mountains in the district" />
		<tag k="name" v="Kjeldeknatten" />
		<tag k="natural" v="hill" />
		<tag k="place" v="locality" />
		<tag k="ssr:stedsnr" v="70233" />
	</node>
	<node lat="60.66305833544504" lon="9.733302783988933" id="-23846">
		<tag k="fixme" v="consider natural=peak for the most distinct mountains in the district" />
		<tag k="name" v="Kristiansmokollen" />
		<tag k="natural" v="hill" />
		<tag k="place" v="locality" />
		<tag k="ssr:stedsnr" v="100268" />
	</node>
	<node lat="60.66623611156028" lon="9.679044447483479" id="-23847">
		<tag k="name" v="Skarsæterdalen" />
		<tag k="natural" v="valley" />
		<tag k="place" v="locality" />
		<tag k="ssr:stedsnr" v="100271" />
	</node>
	<node lat="60.48505000066062" lon="9.808427783043115" id="-23850">
		<tag k="name" v="Grojuvet" />
		<tag k="natural" v="gorge" />
		<tag k="ssr:stedsnr" v="100802" />
	</node>
	<node lat="60.78730000265652" lon="9.384636107640782" id="-23852">
		<tag k="name" v="Storevieratn" />
		<tag k="place" v="locality" />
		<tag k="ssr:stedsnr" v="100560" />
	</node>
	<node lat="60.52772778009751" lon="9.800305555820525" id="-23854">
		<tag k="name" v="Storrustelia" />
		<tag k="natural" v="slope" />
		<tag k="place" v="locality" />
		<tag k="ssr:stedsnr" v="100759" />
	</node>
	<node lat="60.621249998673505" lon="9.579994449012103" id="-23856">
		<tag k="name" v="Eneberghaugen" />
		<tag k="natural" v="hill" />
		<tag k="place" v="locality" />
		<tag k="ssr:stedsnr" v="100869" />
	</node>
	<node lat="60.65334999791481" lon="9.470105550800104" id="-23859">
		<tag k="alt_name" v="Teinevassåsen" />
		<tag k="fixme" v="consider natural=peak for the most distinct mountains in the district" />
		<tag k="name" v="Teinvassåsen" />
		<tag k="natural" v="hill" />
		<tag k="place" v="locality" />
		<tag k="ssr:stedsnr" v="249705" />
	</node>
	<node lat="60.694822223526224" lon="9.447086111411387" id="-23862">
		<tag k="alt_name" v="Veneslettlie" />
		<tag k="name" v="Veneslettlii" />
		<tag k="natural" v="slope" />
		<tag k="place" v="locality" />
		<tag k="ssr:stedsnr" v="249687" />
	</node>
	<node lat="60.69772499810242" lon="9.529825003207364" id="-23863">
		<tag k="fixme" v="consider natural=peak for the most distinct mountains in the district" />
		<tag k="name" v="Roparhaugen" />
		<tag k="natural" v="hill" />
		<tag k="place" v="locality" />
		<tag k="ssr:stedsnr" v="249688" />
	</node>
	<node lat="60.51031666730557" lon="9.763713895718501" id="-23865">
		<tag k="alt_name" v="Middagsknatten, s;Middagsknatten" />
		<tag k="name" v="Søre Middagsknatten" />
		<tag k="natural" v="hill" />
		<tag k="place" v="locality" />
		<tag k="ssr:stedsnr" v="249866" />
	</node>
	<node lat="60.735513887861146" lon="9.719950001550268" id="-23871">
		<tag k="alt_name" v="Olavsbrøtakøllin" />
		<tag k="name" v="Olasbråtekollen" />
		<tag k="natural" v="hill" />
		<tag k="place" v="locality" />
		<tag k="ssr:stedsnr" v="249948" />
	</node>
	<node lat="60.66100278029076" lon="9.806083341192936" id="-23872">
		<tag k="name" v="Skrukkelia" />
		<tag k="natural" v="slope" />
		<tag k="place" v="locality" />
		<tag k="ssr:stedsnr" v="249952" />
	</node>
	<node lat="60.679899996371915" lon="9.812511113287956" id="-23874">
		<tag k="fixme" v="consider natural=peak for the most distinct mountains in the district" />
		<tag k="name" v="Svarttjernbrenna" />
		<tag k="natural" v="hill" />
		<tag k="place" v="locality" />
		<tag k="ssr:stedsnr" v="249910" />
	</node>
	<node lat="60.68190000107041" lon="9.842233332085138" id="-23875">
		<tag k="name" v="Sjåberget" />
		<tag k="natural" v="hill" />
		<tag k="place" v="locality" />
		<tag k="ssr:stedsnr" v="249911" />
	</node>
	<node lat="60.58425277829972" lon="9.618108328772806" id="-23880">
		<tag k="name" v="Fledda" />
		<tag k="natural" v="slope" />
		<tag k="place" v="locality" />
		<tag k="ssr:stedsnr" v="249930" />
	</node>
	<node lat="60.71616666746243" lon="9.723494447526685" id="-23882">
		<tag k="name" v="Begnadalen" />
		<tag k="natural" v="valley" />
		<tag k="place" v="locality" />
		<tag k="ssr:stedsnr" v="249957" />
	</node>
	<node lat="60.72087499656664" lon="9.864169441245846" id="-23889">
		<tag k="name" v="Høgberget" />
		<tag k="natural" v="hill" />
		<tag k="place" v="locality" />
		<tag k="ssr:stedsnr" v="249986" />
	</node>
	<node lat="60.70882382414503" lon="9.683029450235498" id="-23894">
		<tag k="name" v="Storberget" />
		<tag k="natural" v="hill" />
		<tag k="place" v="locality" />
		<tag k="ssr:stedsnr" v="250990" />
	</node>
	<node lat="60.57684999602302" lon="9.51673055598678" id="-23897">
		<tag k="fixme" v="consider natural=peak for the most distinct mountains in the district" />
		<tag k="name" v="Surtind" />
		<tag k="natural" v="hill" />
		<tag k="place" v="locality" />
		<tag k="ssr:stedsnr" v="250806" />
	</node>
	<node lat="60.55743333102311" lon="9.77414444429873" id="-23899">
		<tag k="alt_name" v="Korpekløvet" />
		<tag k="loc_name" v="Korpeklovet" />
		<tag k="name" v="Korpeklyvet" />
		<tag k="natural" v="hill" />
		<tag k="place" v="locality" />
		<tag k="ssr:stedsnr" v="250813" />
	</node>
	<node lat="60.691488887818196" lon="9.83806944211446" id="-23904">
		<tag k="name" v="Jørnskollen" />
		<tag k="natural" v="hill" />
		<tag k="place" v="locality" />
		<tag k="ssr:stedsnr" v="250890" />
	</node>
	<node lat="60.69052500008666" lon="9.791625003345176" id="-23905">
		<tag k="fixme" v="consider natural=peak for the most distinct mountains in the district" />
		<tag k="name" v="Heimsætermana" />
		<tag k="natural" v="hill" />
		<tag k="place" v="locality" />
		<tag k="ssr:stedsnr" v="250891" />
	</node>
	<node lat="60.74766111510578" lon="9.560961107183726" id="-23906">
		<tag k="name" v="Blæstredalen" />
		<tag k="natural" v="hill" />
		<tag k="place" v="locality" />
		<tag k="ssr:stedsnr" v="119069" />
	</node>
	<node lat="60.58794166737841" lon="9.680127772563937" id="-23914">
		<tag k="name" v="Skardalen" />
		<tag k="natural" v="valley" />
		<tag k="place" v="locality" />
		<tag k="ssr:stedsnr" v="119513" />
	</node>
	<node lat="60.69962500129752" lon="9.835999991293797" id="-23921">
		<tag k="fixme" v="consider natural=peak for the most distinct mountains in the district" />
		<tag k="name" v="Sollihøgda" />
		<tag k="natural" v="hill" />
		<tag k="place" v="locality" />
		<tag k="ssr:stedsnr" v="119669" />
	</node>
	<node lat="60.705716667930794" lon="9.843688889004813" id="-23922">
		<tag k="name" v="Kjeldlia" />
		<tag k="natural" v="slope" />
		<tag k="place" v="locality" />
		<tag k="ssr:stedsnr" v="119674" />
	</node>
	<node lat="60.77412222045809" lon="9.3788666697345" id="-23925">
		<tag k="name" v="Vergesteindokke" />
		<tag k="natural" v="valley" />
		<tag k="place" v="locality" />
		<tag k="ssr:stedsnr" v="119967" />
	</node>
	<node lat="60.76564444188509" lon="9.336266657988947" id="-23926">
		<tag k="name" v="Gråberget" />
		<tag k="natural" v="hill" />
		<tag k="place" v="locality" />
		<tag k="ssr:stedsnr" v="119968" />
	</node>
	<node lat="60.85822777998841" lon="9.39902499158473" id="-23929">
		<tag k="fixme" v="consider natural=peak for the most distinct mountains in the district" />
		<tag k="name" v="Liastølfjellet" />
		<tag k="natural" v="hill" />
		<tag k="place" v="locality" />
		<tag k="ssr:stedsnr" v="251695" />
	</node>
	<node lat="60.8136861133478" lon="9.514577786231639" id="-23935">
		<tag k="name" v="Langeberget" />
		<tag k="place" v="locality" />
		<tag k="ssr:stedsnr" v="251861" />
	</node>
	<node lat="60.8255972236048" lon="9.601300000043071" id="-23941">
		<tag k="fixme" v="consider natural=peak for the most distinct mountains in the district" />
		<tag k="name" v="Bagnsåsen" />
		<tag k="natural" v="hill" />
		<tag k="place" v="locality" />
		<tag k="ssr:stedsnr" v="252150" />
	</node>
	<node lat="60.48987500229527" lon="9.786961113494423" id="-23948">
		<tag k="alt_name" v="Matapikknatten" />
		<tag k="fixme" v="consider natural=peak for the most distinct mountains in the district" />
		<tag k="name" v="Matapiggknatten" />
		<tag k="natural" v="hill" />
		<tag k="place" v="locality" />
		<tag k="ssr:stedsnr" v="127941" />
	</node>
	<node lat="60.71442500009658" lon="9.43418054899137" id="-23949">
		<tag k="alt_name" v="Hølervasshøgde" />
		<tag k="fixme" v="consider natural=peak for the most distinct mountains in the district" />
		<tag k="name" v="Hølervassåsen" />
		<tag k="natural" v="hill" />
		<tag k="place" v="locality" />
		<tag k="ssr:stedsnr" v="128515" />
	</node>
	<node lat="60.704758330299754" lon="9.58482500137802" id="-23953">
		<tag k="alt_name" v="Kollsætertinden" />
		<tag k="fixme" v="consider natural=peak for the most distinct mountains in the district" />
		<tag k="name" v="Kollsætertind" />
		<tag k="natural" v="hill" />
		<tag k="place" v="locality" />
		<tag k="ssr:stedsnr" v="128684" />
	</node>
	<node lat="60.676411115164704" lon="9.78336943597892" id="-23958">
		<tag k="name" v="Varpet" />
		<tag k="natural" v="slope" />
		<tag k="place" v="locality" />
		<tag k="ssr:stedsnr" v="128902" />
	</node>
	<node lat="60.657805559188944" lon="9.944836111755581" id="-23962">
		<tag k="name" v="Benkehøgda" />
		<tag k="natural" v="hill" />
		<tag k="place" v="locality" />
		<tag k="ssr:stedsnr" v="128936" />
	</node>
	<node lat="60.663747220864956" lon="9.844355557545708" id="-23963">
		<tag k="fixme" v="consider natural=peak for the most distinct mountains in the district" />
		<tag k="name" v="Ryggåsen" />
		<tag k="natural" v="hill" />
		<tag k="place" v="locality" />
		<tag k="ssr:stedsnr" v="128940" />
	</node>
	<node lat="60.64336944489828" lon="9.801563894760916" id="-23966">
		<tag k="name" v="Bakvendt" />
		<tag k="natural" v="slope" />
		<tag k="place" v="locality" />
		<tag k="ssr:stedsnr" v="128947" />
	</node>
	<node lat="60.70485555404651" lon="9.690463883765881" id="-23971">
		<tag k="alt_name" v="Rundkøllen" />
		<tag k="name" v="Rundekollen" />
		<tag k="natural" v="hill" />
		<tag k="place" v="locality" />
		<tag k="ssr:stedsnr" v="128989" />
	</node>
	<node lat="60.70888333244556" lon="9.744858341672623" id="-23972">
		<tag k="name" v="Veslesæterhøgda" />
		<tag k="natural" v="hill" />
		<tag k="place" v="locality" />
		<tag k="ssr:stedsnr" v="128993" />
	</node>
	<node lat="60.69171110821125" lon="9.76456667255898" id="-23975">
		<tag k="name" v="Hansebakkberget" />
		<tag k="natural" v="hill" />
		<tag k="place" v="locality" />
		<tag k="ssr:stedsnr" v="128891" />
	</node>
	<node lat="60.70250000415681" lon="9.754013880168836" id="-23976">
		<tag k="name" v="Bjørkedalen" />
		<tag k="natural" v="valley" />
		<tag k="place" v="locality" />
		<tag k="ssr:stedsnr" v="128893" />
	</node>
	<node lat="60.78556389316278" lon="9.664849991472614" id="-23982">
		<tag k="alt_name" v="Skogstadhøgde" />
		<tag k="fixme" v="consider natural=peak for the most distinct mountains in the district" />
		<tag k="name" v="Skogstadknatten" />
		<tag k="natural" v="hill" />
		<tag k="place" v="locality" />
		<tag k="ssr:stedsnr" v="130130" />
	</node>
	<node lat="60.834875001767735" lon="9.393511110027461" id="-23986">
		<tag k="alt_name" v="Stavedalen" />
		<tag k="name" v="Stavadalen" />
		<tag k="natural" v="valley" />
		<tag k="place" v="locality" />
		<tag k="ssr:stedsnr" v="130611" />
	</node>
	<node lat="60.75895277359053" lon="9.36509166373343" id="-23988">
		<tag k="alt_name" v="Tempelhøgde" />
		<tag k="fixme" v="consider natural=peak for the most distinct mountains in the district" />
		<tag k="name" v="Tempelhaugen" />
		<tag k="natural" v="hill" />
		<tag k="place" v="locality" />
		<tag k="ssr:stedsnr" v="130710" />
	</node>
	<node lat="60.793699996515066" lon="9.485830563737164" id="-23993">
		<tag k="alt_name" v="Tjuehaugen" />
		<tag k="name" v="Tjuvehaugen" />
		<tag k="natural" v="hill" />
		<tag k="place" v="locality" />
		<tag k="ssr:stedsnr" v="130803" />
	</node>
	<node lat="60.75074166313373" lon="9.320130554390516" id="-23999">
		<tag k="fixme" v="consider natural=peak for the most distinct mountains in the district" />
		<tag k="name" v="Rabalsfjellet" />
		<tag k="natural" v="hill" />
		<tag k="place" v="locality" />
		<tag k="ssr:stedsnr" v="252728" />
	</node>
	<node lat="60.797711107719564" lon="9.344752781124285" id="-24002">
		<tag k="fixme" v="consider natural=peak for the most distinct mountains in the district" />
		<tag k="name" v="Fiskebufjellet" />
		<tag k="natural" v="hill" />
		<tag k="place" v="locality" />
		<tag k="ssr:stedsnr" v="252813" />
	</node>
	<node lat="60.596952775768855" lon="9.707033337751067" id="-24011">
		<tag k="name" v="Sjurskorta" />
		<tag k="place" v="locality" />
		<tag k="ssr:stedsnr" v="179469" />
	</node>
	<node lat="60.61580833396285" lon="9.75396111172314" id="-24014">
		<tag k="name" v="Bråtågardshøgda" />
		<tag k="natural" v="hill" />
		<tag k="place" v="locality" />
		<tag k="ssr:stedsnr" v="179503" />
	</node>
	<node lat="60.775477774643306" lon="9.290977778522569" id="-24018">
		<tag k="fixme" v="consider natural=peak for the most distinct mountains in the district" />
		<tag k="name" v="Rauskreoberget" />
		<tag k="natural" v="hill" />
		<tag k="place" v="locality" />
		<tag k="ssr:stedsnr" v="179762" />
	</node>
	<node lat="60.77605277538415" lon="9.339980546702499" id="-24019">
		<tag k="name" v="Løypa" />
		<tag k="natural" v="valley" />
		<tag k="place" v="locality" />
		<tag k="ssr:stedsnr" v="179967" />
	</node>
	<node lat="60.66267499879173" lon="9.65909999266604" id="-24024">
		<tag k="name" v="Bukkeberget" />
		<tag k="natural" v="hill" />
		<tag k="place" v="locality" />
		<tag k="ssr:stedsnr" v="188929" />
	</node>
	<node lat="60.667691668184816" lon="9.874836103607244" id="-24027">
		<tag k="name" v="Buvasskollen" />
		<tag k="natural" v="hill" />
		<tag k="place" v="locality" />
		<tag k="ssr:stedsnr" v="188938" />
	</node>
	<node lat="60.6670888930705" lon="9.850024997547797" id="-24028">
		<tag k="name" v="Midtknatten" />
		<tag k="natural" v="hill" />
		<tag k="place" v="locality" />
		<tag k="ssr:stedsnr" v="188940" />
	</node>
	<node lat="60.66703889210172" lon="9.759774991314679" id="-24029">
		<tag k="name" v="Grimsrudkollen" />
		<tag k="natural" v="hill" />
		<tag k="place" v="locality" />
		<tag k="ssr:stedsnr" v="188942" />
	</node>
	<node lat="60.55714166666428" lon="9.579202784530853" id="-24035">
		<tag k="fixme" v="consider natural=peak for the most distinct mountains in the district" />
		<tag k="name" v="Sæterknatten" />
		<tag k="natural" v="hill" />
		<tag k="place" v="locality" />
		<tag k="ssr:stedsnr" v="189826" />
	</node>
	<node lat="60.743655555844995" lon="9.66197221604435" id="-24041">
		<tag k="alt_name" v="Furuhaugen" />
		<tag k="name" v="Furuberget" />
		<tag k="natural" v="hill" />
		<tag k="place" v="locality" />
		<tag k="ssr:stedsnr" v="189774" />
	</node>
	<node lat="60.563119441535356" lon="9.641127776293654" id="-24042">
		<tag k="fixme" v="consider natural=peak for the most distinct mountains in the district" />
		<tag k="name" v="Manfjellet" />
		<tag k="natural" v="hill" />
		<tag k="place" v="locality" />
		<tag k="ssr:stedsnr" v="189788" />
	</node>
	<node lat="60.59407499992597" lon="9.856850000452473" id="-24043">
		<tag k="fixme" v="consider natural=peak for the most distinct mountains in the district" />
		<tag k="name" v="Strømsåsen" />
		<tag k="natural" v="hill" />
		<tag k="place" v="locality" />
		<tag k="ssr:stedsnr" v="189902" />
	</node>
	<node lat="60.73585555627219" lon="9.645833336119667" id="-24044">
		<tag k="alt_name" v="Kattulhøgde" />
		<tag k="name" v="Kattuglehøgdi" />
		<tag k="natural" v="hill" />
		<tag k="place" v="locality" />
		<tag k="ssr:stedsnr" v="189936" />
	</node>
	<node lat="60.8465500004513" lon="9.468011105837961" id="-24048">
		<tag k="name" v="Brenneknatten" />
		<tag k="natural" v="hill" />
		<tag k="place" v="locality" />
		<tag k="ssr:stedsnr" v="190660" />
	</node>
	<node lat="60.77142222600348" lon="9.6725611039236" id="-24051">
		<tag k="name" v="Høgeberget" />
		<tag k="natural" v="hill" />
		<tag k="place" v="locality" />
		<tag k="ssr:stedsnr" v="191104" />
	</node>
	<node lat="60.8715277807726" lon="9.477919453519085" id="-24059">
		<tag k="name" v="Purkekleive" />
		<tag k="natural" v="slope" />
		<tag k="place" v="locality" />
		<tag k="ssr:stedsnr" v="221706" />
	</node>
	<node lat="60.49866944895581" lon="9.780422218749882" id="-24061">
		<tag k="name" v="Stordalen" />
		<tag k="natural" v="valley" />
		<tag k="place" v="locality" />
		<tag k="ssr:stedsnr" v="221808" />
	</node>
	<node lat="60.76793333117207" lon="9.690052773582218" id="-24071">
		<tag k="name" v="Teinongrenna" />
		<tag k="natural" v="valley" />
		<tag k="place" v="locality" />
		<tag k="ssr:stedsnr" v="240187" />
	</node>
	<node lat="60.61655277755994" lon="9.464275005386382" id="-24073">
		<tag k="name" v="Helserfjellet" />
		<tag k="natural" v="hill" />
		<tag k="place" v="locality" />
		<tag k="ssr:stedsnr" v="240388" />
	</node>
	<node lat="60.752516665836474" lon="9.527294436252003" id="-24076">
		<tag k="name" v="Purkefeten" />
		<tag k="place" v="locality" />
		<tag k="ssr:stedsnr" v="240479" />
	</node>
</osm>
