<?xml version="1.0" encoding="UTF-8"?>
<osm version="0.6" generator="osmapis">
	<node lat="60.60229444492561" lon="9.4592000028587" id="-45665">
		<tag k="historic" v="boundary_stone" />
		<tag k="man_made" v="cairn" />
		<tag k="name" v="Furutølla" />
		<tag k="place" v="locality" />
		<tag k="ssr:stedsnr" v="483410" />
	</node>
	<node lat="60.636699995635084" lon="9.949961119951917" id="-46335">
		<tag k="historic" v="boundary_stone" />
		<tag k="man_made" v="cairn" />
		<tag k="name" v="Ankerrøysa" />
		<tag k="place" v="locality" />
		<tag k="ssr:stedsnr" v="939894" />
	</node>
	<node lat="60.77351110692771" lon="9.792466666516848" id="-46661">
		<tag k="historic" v="boundary_stone" />
		<tag k="man_made" v="cairn" />
		<tag k="name" v="Krøssfuru" />
		<tag k="place" v="locality" />
		<tag k="ssr:stedsnr" v="160444" />
	</node>
	<node lat="60.831688886763764" lon="9.65236667487843" id="-46805">
		<tag k="historic" v="boundary_stone" />
		<tag k="man_made" v="cairn" />
		<tag k="name" v="Krøssfuru" />
		<tag k="place" v="locality" />
		<tag k="ssr:stedsnr" v="282997" />
	</node>
	<node lat="60.65384444156221" lon="10.031655560569584" id="-47023">
		<tag k="historic" v="boundary_stone" />
		<tag k="man_made" v="cairn" />
		<tag k="name" v="Skjelnefurua" />
		<tag k="place" v="locality" />
		<tag k="ssr:stedsnr" v="422162" />
	</node>
	<node lat="60.6361249998673" lon="9.945044452660841" id="-47452">
		<tag k="historic" v="boundary_stone" />
		<tag k="man_made" v="cairn" />
		<tag k="name" v="Sørumrøysa" />
		<tag k="place" v="locality" />
		<tag k="ssr:stedsnr" v="757881" />
	</node>
</osm>
