<?xml version="1.0" encoding="UTF-8"?>
<osm version="0.6" generator="osmapis">
	<node lat="60.665380559930384" lon="9.74764444379951" id="-22666">
		<tag k="alt_name" v="Grimsrud, s" />
		<tag k="name" v="Søre Grimsrud" />
		<tag k="place" v="farm" />
		<tag k="ssr:stedsnr" v="6965" />
	</node>
	<node lat="60.621775000433004" lon="9.59215833564979" id="-22672">
		<tag k="name" v="Skriuåsen" />
		<tag k="place" v="locality" />
		<tag k="ssr:stedsnr" v="7655" />
	</node>
	<node lat="60.73497222662011" lon="9.505572220503634" id="-22674">
		<tag k="name" v="Tanterhaug" />
		<tag k="place" v="isolated_dwelling" />
		<tag k="ssr:stedsnr" v="7548" />
	</node>
	<node lat="60.65940833685717" lon="9.45315000215791" id="-22675">
		<tag k="alt_name" v="Tommasvollen" />
		<tag k="historic" v="shieling" />
		<tag k="name" v="Tomasvollen" />
		<tag k="place" v="isolated_dwelling" />
		<tag k="ssr:stedsnr" v="7705" />
	</node>
	<node lat="60.735388892006505" lon="9.70778055982734" id="-22681">
		<tag k="alt_name" v="Nedre Helland" />
		<tag k="name" v="Helandshølen" />
		<tag k="place" v="farm" />
		<tag k="ssr:stedsnr" v="7946" />
	</node>
	<node lat="60.64736944667787" lon="9.858480549548231" id="-22683">
		<tag k="alt_name" v="Tronshaugen" />
		<tag k="name" v="Tronsehaugen" />
		<tag k="old_name" v="Tronshaugene" />
		<tag k="place" v="isolated_dwelling" />
		<tag k="ssr:stedsnr" v="7958" />
	</node>
	<node lat="60.64319166816092" lon="9.706419440069531" id="-22684">
		<tag k="alt_name" v="Berge" />
		<tag k="name" v="Berget" />
		<tag k="place" v="farm" />
		<tag k="ssr:stedsnr" v="7959" />
	</node>
	<node lat="60.63697500313678" lon="9.903108328456417" id="-22686">
		<tag k="alt_name" v="Jenserud" />
		<tag k="name" v="Jensrud" />
		<tag k="place" v="farm" />
		<tag k="ssr:stedsnr" v="7994" />
	</node>
	<node lat="60.85847499759498" lon="9.39186666550213" id="-22687">
		<tag k="alt_name" v="Nystølen" />
		<tag k="historic" v="shieling" />
		<tag k="name" v="Nyesætri" />
		<tag k="place" v="isolated_dwelling" />
		<tag k="ssr:stedsnr" v="8698" />
	</node>
	<node lat="60.803741662293774" lon="9.641708337143447" id="-22688">
		<tag k="name" v="Bjørkelund" />
		<tag k="place" v="farm" />
		<tag k="ssr:stedsnr" v="9213" />
	</node>
	<node lat="60.77462222596564" lon="9.609199997597294" id="-22689">
		<tag k="alt_name" v="Lundelia" />
		<tag k="name" v="Lii" />
		<tag k="place" v="farm" />
		<tag k="ssr:stedsnr" v="9102" />
	</node>
	<node lat="60.76127500168408" lon="9.599658341843192" id="-22690">
		<tag k="name" v="Gråbeinrud" />
		<tag k="place" v="isolated_dwelling" />
		<tag k="ssr:stedsnr" v="9143" />
	</node>
	<node lat="60.80075833419926" lon="9.599449995297713" id="-22691">
		<tag k="alt_name" v="Finhert" />
		<tag k="name" v="Finnhert" />
		<tag k="place" v="farm" />
		<tag k="ssr:stedsnr" v="9188" />
	</node>
	<node lat="60.77190695389724" lon="9.421496253232279" id="-22693">
		<tag k="alt_name" v="Ellenslie" />
		<tag k="name" v="Erlandslii" />
		<tag k="place" v="farm" />
		<tag k="ssr:stedsnr" v="9801" />
	</node>
	<node lat="60.81293611716735" lon="9.543128885275626" id="-22694">
		<tag k="alt_name" v="Karlsgor" />
		<tag k="fixme" v="consider place=hamlet" />
		<tag k="name" v="Karlsgot" />
		<tag k="place" v="farm" />
		<tag k="ssr:stedsnr" v="9813" />
	</node>
	<node lat="60.82877221999311" lon="9.505011106798793" id="-22695">
		<tag k="name" v="Haslo" />
		<tag k="place" v="farm" />
		<tag k="ssr:stedsnr" v="9837" />
	</node>
	<node lat="60.82248610710573" lon="9.552061102171916" id="-22696">
		<tag k="name" v="Bagn" />
		<tag k="place" v="village" />
		<tag k="ssr:stedsnr" v="9850" />
	</node>
	<node lat="60.766061111375" lon="9.451308332097241" id="-22697">
		<tag k="alt_name" v="Nysætere" />
		<tag k="historic" v="shieling" />
		<tag k="name" v="Nysætri" />
		<tag k="place" v="isolated_dwelling" />
		<tag k="ssr:stedsnr" v="9789" />
	</node>
	<node lat="60.626719443254174" lon="9.676166661750207" id="-22699">
		<tag k="alt_name" v="Mellom-Grøv" />
		<tag k="loc_name" v="Midt-Grøv" />
		<tag k="name" v="Midtgrøv" />
		<tag k="place" v="farm" />
		<tag k="ssr:stedsnr" v="231691" />
	</node>
	<node lat="60.63262777699992" lon="9.520855562234694" id="-22700">
		<tag k="historic" v="shieling" />
		<tag k="name" v="Skinningsrudsætra" />
		<tag k="place" v="isolated_dwelling" />
		<tag k="ssr:stedsnr" v="39209" />
	</node>
	<node lat="60.84190833719412" lon="9.500030551947301" id="-22703">
		<tag k="name" v="Høgbrenne" />
		<tag k="place" v="isolated_dwelling" />
		<tag k="ssr:stedsnr" v="39708" />
	</node>
	<node lat="60.650666670731646" lon="9.861241658261292" id="-22704">
		<tag k="name" v="Kolsrud" />
		<tag k="place" v="isolated_dwelling" />
		<tag k="ssr:stedsnr" v="39625" />
	</node>
	<node lat="60.817938893123376" lon="9.570986113801862" id="-22708">
		<tag k="name" v="Søre Øygarden" />
		<tag k="place" v="farm" />
		<tag k="ssr:stedsnr" v="39982" />
	</node>
	<node lat="60.791569446497405" lon="9.55553332529802" id="-22715">
		<tag k="name" v="Plassåsen" />
		<tag k="place" v="locality" />
		<tag k="ssr:stedsnr" v="240107" />
	</node>
	<node lat="60.558038893044404" lon="9.487583328595571" id="-22729">
		<tag k="name" v="Leina" />
		<tag k="place" v="isolated_dwelling" />
		<tag k="ssr:stedsnr" v="240401" />
	</node>
	<node lat="60.621002777545876" lon="9.697894440886111" id="-22733">
		<tag k="alt_name" v="Jøranby" />
		<tag k="name" v="Øvre Jørandby" />
		<tag k="place" v="farm" />
		<tag k="ssr:stedsnr" v="58470" />
	</node>
	<node lat="60.86360277768841" lon="9.406738885619218" id="-22735">
		<tag k="historic" v="shieling" />
		<tag k="name" v="Brennahaugen" />
		<tag k="place" v="isolated_dwelling" />
		<tag k="ssr:stedsnr" v="58375" />
	</node>
	<node lat="60.85748611497297" lon="9.409780557463364" id="-22736">
		<tag k="historic" v="shieling" />
		<tag k="name" v="Høllatrøe" />
		<tag k="place" v="isolated_dwelling" />
		<tag k="ssr:stedsnr" v="58378" />
	</node>
	<node lat="60.573298757387676" lon="9.71948874781617" id="-22738">
		<tag k="alt_name" v="Nordre Brenden" />
		<tag k="name" v="Nørdre Brenna" />
		<tag k="place" v="locality" />
		<tag k="ssr:stedsnr" v="58508" />
	</node>
	<node lat="60.65499166615991" lon="9.843113892969773" id="-22739">
		<tag k="name" v="Stamsrud" />
		<tag k="place" v="isolated_dwelling" />
		<tag k="ssr:stedsnr" v="58719" />
	</node>
	<node lat="60.61325833586966" lon="9.73771111839254" id="-22745">
		<tag k="name" v="Grant" />
		<tag k="place" v="isolated_dwelling" />
		<tag k="ssr:stedsnr" v="240542" />
	</node>
	<node lat="60.62003055337587" lon="9.710675006241294" id="-22747">
		<tag k="name" v="Haugtun" />
		<tag k="place" v="farm" />
		<tag k="ssr:stedsnr" v="240465" />
	</node>
	<node lat="60.61926111194171" lon="9.706241659135243" id="-22748">
		<tag k="name" v="Skogstad" />
		<tag k="place" v="isolated_dwelling" />
		<tag k="ssr:stedsnr" v="240471" />
	</node>
	<node lat="60.68766111185761" lon="9.867666665530514" id="-22756">
		<tag k="name" v="Fredens hjem" />
		<tag k="place" v="isolated_dwelling" />
		<tag k="ssr:stedsnr" v="240679" />
	</node>
	<node lat="60.77316666770109" lon="9.331744439860564" id="-22768">
		<tag k="alt_name" v="Nordre Bjødalen" />
		<tag k="historic" v="shieling" />
		<tag k="name" v="Nørdre Bjødalen" />
		<tag k="place" v="isolated_dwelling" />
		<tag k="ssr:stedsnr" v="240964" />
	</node>
	<node lat="60.7484166649396" lon="9.701230555364798" id="-22771">
		<tag k="fixme" v="multiple name tags, choose one and add the other to alt_name" />
		<tag k="name" v="Storsvei;Holt" />
		<tag k="place" v="farm" />
		<tag k="ssr:stedsnr" v="68794" />
	</node>
	<node lat="60.62327777667185" lon="9.910377772742448" id="-22773">
		<tag k="name" v="Høneren" />
		<tag k="place" v="farm" />
		<tag k="ssr:stedsnr" v="68886" />
	</node>
	<node lat="60.62729525652919" lon="9.674070463467995" id="-22775">
		<tag k="loc_name" v="Grøv" />
		<tag k="name" v="Grov" />
		<tag k="place" v="hamlet" />
		<tag k="ssr:stedsnr" v="68986" />
	</node>
	<node lat="60.627138891179385" lon="9.69085277441893" id="-22776">
		<tag k="name" v="Bergheim" />
		<tag k="place" v="farm" />
		<tag k="ssr:stedsnr" v="68990" />
	</node>
	<node lat="60.635147221696116" lon="9.843144451451414" id="-22777">
		<tag k="alt_name" v="Hola" />
		<tag k="historic" v="shieling" />
		<tag k="name" v="Holoa" />
		<tag k="place" v="isolated_dwelling" />
		<tag k="ssr:stedsnr" v="68996" />
	</node>
	<node lat="60.86248055610691" lon="9.46901666796172" id="-22778">
		<tag k="alt_name" v="Liabrenne" />
		<tag k="name" v="Liabrenn" />
		<tag k="place" v="farm" />
		<tag k="ssr:stedsnr" v="69706" />
	</node>
	<node lat="60.82389999860531" lon="9.49378332948025" id="-22779">
		<tag k="alt_name" v="Pålelie" />
		<tag k="name" v="Pålelii" />
		<tag k="place" v="farm" />
		<tag k="ssr:stedsnr" v="69886" />
	</node>
	<node lat="60.79724166661387" lon="9.69873888113448" id="-22783">
		<tag k="alt_name" v="Tomtin, nedre;Nedre Tomten" />
		<tag k="name" v="Nedre Tomtin" />
		<tag k="place" v="farm" />
		<tag k="ssr:stedsnr" v="70215" />
	</node>
	<node lat="60.80229166796231" lon="9.627594442572063" id="-22785">
		<tag k="name" v="Komperud" />
		<tag k="place" v="farm" />
		<tag k="ssr:stedsnr" v="70234" />
	</node>
	<node lat="60.79799721865687" lon="9.308433336407095" id="-22786">
		<tag k="alt_name" v="Sangatn" />
		<tag k="historic" v="shieling" />
		<tag k="name" v="Sangan" />
		<tag k="place" v="isolated_dwelling" />
		<tag k="ssr:stedsnr" v="70826" />
	</node>
	<node lat="60.68200000307897" lon="9.753383337415897" id="-22788">
		<tag k="name" v="Rundhaug" />
		<tag k="place" v="isolated_dwelling" />
		<tag k="ssr:stedsnr" v="86294" />
	</node>
	<node lat="60.64432500379038" lon="9.717261118753012" id="-22789">
		<tag k="name" v="Augensrud" />
		<tag k="place" v="locality" />
		<tag k="ssr:stedsnr" v="100261" />
	</node>
	<node lat="60.798361114185" lon="9.491011118011494" id="-22799">
		<tag k="name" v="Ranangshite" />
		<tag k="place" v="isolated_dwelling" />
		<tag k="ssr:stedsnr" v="100781" />
	</node>
	<node lat="60.68900833468972" lon="9.830636113326005" id="-22811">
		<tag k="alt_name" v="Kapteinshytta" />
		<tag k="name" v="Kapteinskula" />
		<tag k="place" v="isolated_dwelling" />
		<tag k="ssr:stedsnr" v="249882" />
	</node>
	<node lat="60.60516944172191" lon="9.625580555999251" id="-22812">
		<tag k="historic" v="shieling" />
		<tag k="name" v="Fledda" />
		<tag k="place" v="isolated_dwelling" />
		<tag k="ssr:stedsnr" v="249885" />
	</node>
	<node lat="60.687445007625165" lon="9.748475406964497" id="-22813">
		<tag k="fixme" v="consider place=hamlet" />
		<tag k="name" v="Steinsrud" />
		<tag k="place" v="farm" />
		<tag k="ssr:stedsnr" v="249888" />
	</node>
	<node lat="60.59502222041874" lon="9.75261388970898" id="-22817">
		<tag k="name" v="Nordhagen" />
		<tag k="place" v="farm" />
		<tag k="ssr:stedsnr" v="249905" />
	</node>
	<node lat="60.607956671449756" lon="9.869532029474163" id="-22820">
		<tag k="fixme" v="multiple name tags, choose one and add the other to alt_name" />
		<tag k="name" v="Jonsonkula;Solabu" />
		<tag k="place" v="isolated_dwelling" />
		<tag k="ssr:stedsnr" v="249912" />
	</node>
	<node lat="60.58994999568931" lon="9.75873333998038" id="-22821">
		<tag k="alt_name" v="Teigrud" />
		<tag k="name" v="Teigerud" />
		<tag k="place" v="farm" />
		<tag k="ssr:stedsnr" v="249919" />
	</node>
	<node lat="60.581883328951754" lon="9.71272499263129" id="-22822">
		<tag k="name" v="Kulterud" />
		<tag k="place" v="farm" />
		<tag k="ssr:stedsnr" v="249923" />
	</node>
	<node lat="60.64490000074444" lon="9.684705557963083" id="-22828">
		<tag k="name" v="Solli" />
		<tag k="place" v="farm" />
		<tag k="ssr:stedsnr" v="249964" />
	</node>
	<node lat="60.65210833275396" lon="9.933311117009707" id="-22831">
		<tag k="historic" v="shieling" />
		<tag k="name" v="Skyttland" />
		<tag k="place" v="isolated_dwelling" />
		<tag k="ssr:stedsnr" v="249972" />
	</node>
	<node lat="60.70482499602156" lon="9.539374990987318" id="-22834">
		<tag k="historic" v="shieling" />
		<tag k="name" v="Gamlesætri" />
		<tag k="place" v="isolated_dwelling" />
		<tag k="ssr:stedsnr" v="250531" />
	</node>
	<node lat="60.744775002991226" lon="9.63751943907172" id="-22837">
		<tag k="alt_name" v="Vesle sætere" />
		<tag k="historic" v="shieling" />
		<tag k="name" v="Veslesætri" />
		<tag k="place" v="isolated_dwelling" />
		<tag k="ssr:stedsnr" v="250783" />
	</node>
	<node lat="60.5672888904858" lon="9.74175555622865" id="-22844">
		<tag k="name" v="Haugen" />
		<tag k="place" v="farm" />
		<tag k="ssr:stedsnr" v="250815" />
	</node>
	<node lat="60.62046389015775" lon="9.905899997876633" id="-22847">
		<tag k="name" v="Skogheim" />
		<tag k="place" v="farm" />
		<tag k="ssr:stedsnr" v="250883" />
	</node>
	<node lat="60.79047778201922" lon="9.578844448295085" id="-22852">
		<tag k="name" v="Kambabygde" />
		<tag k="place" v="hamlet" />
		<tag k="ssr:stedsnr" v="119110" />
	</node>
	<node lat="60.62622500336176" lon="9.727708342251585" id="-22854">
		<tag k="name" v="Gran" />
		<tag k="place" v="farm" />
		<tag k="ssr:stedsnr" v="250979" />
	</node>
	<node lat="60.62249444569861" lon="9.70873333124213" id="-22855">
		<tag k="name" v="Skinningsrud" />
		<tag k="place" v="farm" />
		<tag k="ssr:stedsnr" v="119370" />
	</node>
	<node lat="60.58500833019598" lon="9.749319445229663" id="-22859">
		<tag k="name" v="Lund" />
		<tag k="place" v="isolated_dwelling" />
		<tag k="ssr:stedsnr" v="119493" />
	</node>
	<node lat="60.71060000145489" lon="9.630816658489415" id="-22860">
		<tag k="alt_name" v="Branesætere" />
		<tag k="historic" v="shieling" />
		<tag k="name" v="Branessætra" />
		<tag k="place" v="isolated_dwelling" />
		<tag k="ssr:stedsnr" v="250999" />
	</node>
	<node lat="60.6476055555372" lon="9.793902784701059" id="-22861">
		<tag k="name" v="Veigård" />
		<tag k="place" v="isolated_dwelling" />
		<tag k="ssr:stedsnr" v="119717" />
	</node>
	<node lat="60.54239444781524" lon="9.604075000102846" id="-22862">
		<tag k="name" v="Haraldsbråten" />
		<tag k="place" v="locality" />
		<tag k="ssr:stedsnr" v="119770" />
	</node>
	<node lat="60.72623889275235" lon="9.433086107143236" id="-22864">
		<tag k="historic" v="shieling" />
		<tag k="name" v="Bukfyllhaugatn" />
		<tag k="place" v="isolated_dwelling" />
		<tag k="ssr:stedsnr" v="119934" />
	</node>
	<node lat="60.7740583305349" lon="9.628208330390732" id="-22871">
		<tag k="alt_name" v="Øylund" />
		<tag k="name" v="Øyland" />
		<tag k="place" v="farm" />
		<tag k="ssr:stedsnr" v="251140" />
	</node>
	<node lat="60.77792500367775" lon="9.597419451068307" id="-22872">
		<tag k="alt_name" v="Brenn, s;Brenn;Søre Brenn" />
		<tag k="name" v="Søre Brenne" />
		<tag k="place" v="farm" />
		<tag k="ssr:stedsnr" v="251143" />
	</node>
	<node lat="60.869602782156115" lon="9.462761118415228" id="-22874">
		<tag k="alt_name" v="Dokke" />
		<tag k="name" v="Dokki" />
		<tag k="place" v="farm" />
		<tag k="ssr:stedsnr" v="251714" />
	</node>
	<node lat="60.832047224010175" lon="9.562447221891684" id="-22875">
		<tag k="name" v="Dalen" />
		<tag k="place" v="isolated_dwelling" />
		<tag k="ssr:stedsnr" v="251886" />
	</node>
	<node lat="60.83502777886335" lon="9.46991111897801" id="-22876">
		<tag k="alt_name" v="Hellinge" />
		<tag k="name" v="Hellingi" />
		<tag k="place" v="farm" />
		<tag k="ssr:stedsnr" v="251892" />
	</node>
	<node lat="60.811057549378255" lon="9.565449741209983" id="-22877">
		<tag k="alt_name" v="Hestehagen" />
		<tag k="fixme" v="consider place=hamlet" />
		<tag k="name" v="Haga" />
		<tag k="place" v="farm" />
		<tag k="ssr:stedsnr" v="251857" />
	</node>
	<node lat="60.81536110862212" lon="9.559372213805332" id="-22878">
		<tag k="alt_name" v="Erstad" />
		<tag k="name" v="Øvre Erstad" />
		<tag k="place" v="farm" />
		<tag k="ssr:stedsnr" v="251858" />
	</node>
	<node lat="60.818452775019594" lon="9.51352500469328" id="-22880">
		<tag k="name" v="Raneilii" />
		<tag k="place" v="isolated_dwelling" />
		<tag k="ssr:stedsnr" v="251864" />
	</node>
	<node lat="60.77177778068867" lon="9.663944446094064" id="-22882">
		<tag k="alt_name" v="Tommasbrøtin" />
		<tag k="name" v="Tomasbråten" />
		<tag k="place" v="isolated_dwelling" />
		<tag k="ssr:stedsnr" v="252104" />
	</node>
	<node lat="60.7709333344797" lon="9.631269444604602" id="-22883">
		<tag k="alt_name" v="Sveriplassen" />
		<tag k="name" v="Sverreplassen" />
		<tag k="place" v="farm" />
		<tag k="ssr:stedsnr" v="252105" />
	</node>
	<node lat="60.81928333694698" lon="9.594727770698627" id="-22886">
		<tag k="name" v="Breidablikk" />
		<tag k="place" v="farm" />
		<tag k="ssr:stedsnr" v="252152" />
	</node>
	<node lat="60.797197224198236" lon="9.737716657782421" id="-22887">
		<tag k="name" v="Brenn" />
		<tag k="place" v="isolated_dwelling" />
		<tag k="ssr:stedsnr" v="252204" />
	</node>
	<node lat="60.801005551996845" lon="9.72575832900981" id="-22888">
		<tag k="alt_name" v="Braka, nedre" />
		<tag k="name" v="Nedre Braka" />
		<tag k="place" v="farm" />
		<tag k="ssr:stedsnr" v="252205" />
	</node>
	<node lat="60.496462831564045" lon="9.71141533080658" id="-22890">
		<tag k="fixme" v="consider tourism=alpine_hut or tourism=chalet" />
		<tag k="name" v="Storekrakkoia" />
		<tag k="ssr:stedsnr" v="127922" />
		<tag k="tourism" v="wilderness_hut" />
	</node>
	<node lat="60.63187222520818" lon="9.545741660710407" id="-22895">
		<tag k="alt_name" v="Blautmyrsætra" />
		<tag k="historic" v="shieling" />
		<tag k="name" v="Blautemyr" />
		<tag k="place" v="isolated_dwelling" />
		<tag k="ssr:stedsnr" v="128618" />
	</node>
	<node lat="60.617349996216056" lon="9.50876665834037" id="-22896">
		<tag k="alt_name" v="Helsebua" />
		<tag k="name" v="Helseboden" />
		<tag k="place" v="isolated_dwelling" />
		<tag k="ssr:stedsnr" v="128658" />
	</node>
	<node lat="60.6523500029914" lon="9.438230553160261" id="-22898">
		<tag k="alt_name" v="Åslisæter;Nordre Åslisæter" />
		<tag k="historic" v="shieling" />
		<tag k="name" v="Åslisætra" />
		<tag k="place" v="isolated_dwelling" />
		<tag k="ssr:stedsnr" v="128697" />
	</node>
	<node lat="60.74234166666256" lon="9.802586111949822" id="-22899">
		<tag k="alt_name" v="Drengsprengsætri, nordre;Drengsprengsætri;Nørdre Drengsprengsæter;Nordre Drengsprengsætri" />
		<tag k="historic" v="shieling" />
		<tag k="name" v="Nørdre Drengsprengsætri" />
		<tag k="place" v="isolated_dwelling" />
		<tag k="ssr:stedsnr" v="128803" />
	</node>
	<node lat="60.56893611469601" lon="9.715972220312848" id="-22900">
		<tag k="alt_name" v="Søre Skimten" />
		<tag k="name" v="Skimten" />
		<tag k="place" v="farm" />
		<tag k="ssr:stedsnr" v="128804" />
	</node>
	<node lat="60.67773333534245" lon="9.677763881022523" id="-22903">
		<tag k="alt_name" v="Øyvassæter" />
		<tag k="historic" v="shieling" />
		<tag k="name" v="Øyvassætra" />
		<tag k="place" v="isolated_dwelling" />
		<tag k="ssr:stedsnr" v="128905" />
	</node>
	<node lat="60.73523611376873" lon="9.596674998253015" id="-22908">
		<tag k="name" v="Dytthol" />
		<tag k="place" v="isolated_dwelling" />
		<tag k="ssr:stedsnr" v="128943" />
	</node>
	<node lat="60.64226939937133" lon="9.870287393520584" id="-22909">
		<tag k="fixme" v="consider place=hamlet" />
		<tag k="name" v="Sørum" />
		<tag k="place" v="farm" />
		<tag k="ssr:stedsnr" v="128944" />
	</node>
	<node lat="60.62364722603997" lon="9.684838881178106" id="-22914">
		<tag k="alt_name" v="Nedre Haugen" />
		<tag k="name" v="Haugen" />
		<tag k="place" v="farm" />
		<tag k="ssr:stedsnr" v="128988" />
	</node>
	<node lat="60.632211106906084" lon="9.813347230514278" id="-22917">
		<tag k="name" v="Jugerud" />
		<tag k="place" v="isolated_dwelling" />
		<tag k="ssr:stedsnr" v="128999" />
	</node>
	<node lat="60.77777499732964" lon="9.6088499991454" id="-22923">
		<tag k="name" v="Bøle" />
		<tag k="place" v="farm" />
		<tag k="ssr:stedsnr" v="130102" />
	</node>
	<node lat="60.779916664726535" lon="9.748577774608448" id="-22924">
		<tag k="historic" v="shieling" />
		<tag k="name" v="Huken" />
		<tag k="place" v="isolated_dwelling" />
		<tag k="ssr:stedsnr" v="130111" />
	</node>
	<node lat="60.789487146496455" lon="9.64302444679543" id="-22925">
		<tag k="alt_name" v="Skaro" />
		<tag k="fixme" v="consider place=hamlet" />
		<tag k="name" v="Skaran" />
		<tag k="place" v="farm" />
		<tag k="ssr:stedsnr" v="130113" />
	</node>
	<node lat="60.77752965668658" lon="9.642625844487421" id="-22927">
		<tag k="fixme" v="consider place=hamlet" />
		<tag k="name" v="Langedrag" />
		<tag k="place" v="farm" />
		<tag k="ssr:stedsnr" v="130095" />
	</node>
	<node lat="60.777905557895586" lon="9.623377772500787" id="-22928">
		<tag k="alt_name" v="Søre Lundo" />
		<tag k="name" v="Lundo" />
		<tag k="place" v="farm" />
		<tag k="ssr:stedsnr" v="130099" />
	</node>
	<node lat="60.813927774006494" lon="9.764172220332846" id="-22929">
		<tag k="name" v="Kolbu" />
		<tag k="place" v="farm" />
		<tag k="ssr:stedsnr" v="130215" />
	</node>
	<node lat="60.76074722050366" lon="9.438461103419888" id="-22931">
		<tag k="historic" v="shieling" />
		<tag k="name" v="Preststølen" />
		<tag k="place" v="isolated_dwelling" />
		<tag k="ssr:stedsnr" v="130707" />
	</node>
	<node lat="60.80153732949292" lon="9.532409473242472" id="-22933">
		<tag k="fixme" v="consider place=hamlet" />
		<tag k="name" v="Skard" />
		<tag k="place" v="farm" />
		<tag k="ssr:stedsnr" v="130777" />
	</node>
	<node lat="60.811622225406865" lon="9.335091664018291" id="-22934">
		<tag k="alt_name" v="Fjellstølen, nordre" />
		<tag k="historic" v="shieling" />
		<tag k="name" v="Nordre Fjellstølen" />
		<tag k="place" v="isolated_dwelling" />
		<tag k="ssr:stedsnr" v="130780" />
	</node>
	<node lat="60.81804166936107" lon="9.52812222454903" id="-22935">
		<tag k="alt_name" v="Liagardatn" />
		<tag k="name" v="Lii" />
		<tag k="place" v="hamlet" />
		<tag k="ssr:stedsnr" v="130787" />
	</node>
	<node lat="60.80417499947207" lon="9.571238888590342" id="-22938">
		<tag k="name" v="Plassen" />
		<tag k="place" v="farm" />
		<tag k="ssr:stedsnr" v="130808" />
	</node>
	<node lat="60.825999999654634" lon="9.569016665553754" id="-22940">
		<tag k="name" v="Erlendshaugen" />
		<tag k="place" v="farm" />
		<tag k="ssr:stedsnr" v="130838" />
	</node>
	<node lat="60.82370833216986" lon="9.505022217522017" id="-22941">
		<tag k="alt_name" v="Haslebrøtin" />
		<tag k="name" v="Haslo" />
		<tag k="place" v="farm" />
		<tag k="ssr:stedsnr" v="130844" />
	</node>
	<node lat="60.82768906557163" lon="9.454948721563317" id="-22942">
		<tag k="alt_name" v="Øygarden" />
		<tag k="fixme" v="consider place=hamlet" />
		<tag k="name" v="Øygard" />
		<tag k="place" v="farm" />
		<tag k="ssr:stedsnr" v="130846" />
	</node>
	<node lat="60.764170167982684" lon="9.419975960829625" id="-22944">
		<tag k="alt_name" v="Brattrudsætrene" />
		<tag k="historic" v="shieling" />
		<tag k="name" v="Brattrudsætrin" />
		<tag k="place" v="isolated_dwelling" />
		<tag k="ssr:stedsnr" v="252735" />
	</node>
	<node lat="60.794824998906236" lon="9.558447216786018" id="-22945">
		<tag k="alt_name" v="Skørre" />
		<tag k="name" v="Skørri" />
		<tag k="place" v="farm" />
		<tag k="ssr:stedsnr" v="252808" />
	</node>
	<node lat="60.80247222002118" lon="9.578338885821944" id="-22947">
		<tag k="name" v="Nyvegen" />
		<tag k="place" v="farm" />
		<tag k="ssr:stedsnr" v="252814" />
	</node>
	<node lat="60.782419422918316" lon="9.580084259570205" id="-22948">
		<tag k="alt_name" v="Dølvi" />
		<tag k="fixme" v="consider place=hamlet" />
		<tag k="name" v="Dølve" />
		<tag k="place" v="farm" />
		<tag k="ssr:stedsnr" v="252768" />
	</node>
	<node lat="60.6208277807732" lon="9.694041663222034" id="-22949">
		<tag k="name" v="Ildjarntunet" />
		<tag k="ssr:stedsnr" v="161587" />
		<tag k="tourism" v="guest_house" />
	</node>
	<node lat="60.66027499994945" lon="9.968919446824012" id="-22951">
		<tag k="name" v="Skaugum" />
		<tag k="place" v="isolated_dwelling" />
		<tag k="ssr:stedsnr" v="179007" />
	</node>
	<node lat="60.62514722509652" lon="9.68601666235002" id="-22953">
		<tag k="name" v="Lundberg" />
		<tag k="place" v="farm" />
		<tag k="ssr:stedsnr" v="179420" />
	</node>
	<node lat="60.619938892360494" lon="9.712794438410029" id="-22954">
		<tag k="name" v="Bertelrud" />
		<tag k="place" v="farm" />
		<tag k="ssr:stedsnr" v="179426" />
	</node>
	<node lat="60.58358333429717" lon="9.713255555458803" id="-22956">
		<tag k="name" v="Nore" />
		<tag k="place" v="farm" />
		<tag k="ssr:stedsnr" v="179476" />
	</node>
	<node lat="60.61120833728503" lon="9.732461113719276" id="-22959">
		<tag k="name" v="Hansrud" />
		<tag k="place" v="farm" />
		<tag k="ssr:stedsnr" v="179507" />
	</node>
	<node lat="60.76981110955528" lon="9.760238887766347" id="-22964">
		<tag k="name" v="Grauthytta" />
		<tag k="place" v="isolated_dwelling" />
		<tag k="ssr:stedsnr" v="180158" />
	</node>
	<node lat="60.65695278149026" lon="9.815338882616185" id="-22966">
		<tag k="name" v="Stokkedalen" />
		<tag k="place" v="farm" />
		<tag k="ssr:stedsnr" v="180662" />
	</node>
	<node lat="60.64323889046705" lon="9.519391674098621" id="-22976">
		<tag k="alt_name" v="Tufsa" />
		<tag k="historic" v="shieling" />
		<tag k="name" v="Tyfsa" />
		<tag k="place" v="isolated_dwelling" />
		<tag k="ssr:stedsnr" v="189604" />
	</node>
	<node lat="60.69538055932024" lon="9.406177769292102" id="-22977">
		<tag k="alt_name" v="Øylundrødningen" />
		<tag k="historic" v="shieling" />
		<tag k="name" v="Rydningen" />
		<tag k="place" v="isolated_dwelling" />
		<tag k="ssr:stedsnr" v="189665" />
	</node>
	<node lat="60.6746972221171" lon="9.520308341970782" id="-22983">
		<tag k="historic" v="shieling" />
		<tag k="name" v="Gamlevollen" />
		<tag k="place" v="isolated_dwelling" />
		<tag k="ssr:stedsnr" v="189712" />
	</node>
	<node lat="60.66799722587882" lon="9.499047216131535" id="-22984">
		<tag k="historic" v="shieling" />
		<tag k="name" v="Vierlia" />
		<tag k="place" v="isolated_dwelling" />
		<tag k="ssr:stedsnr" v="189721" />
	</node>
	<node lat="60.649894443634814" lon="9.805611112575093" id="-22989">
		<tag k="name" v="Enga" />
		<tag k="place" v="farm" />
		<tag k="ssr:stedsnr" v="189961" />
	</node>
	<node lat="60.634866663777245" lon="9.690944439549861" id="-22990">
		<tag k="alt_name" v="Østal" />
		<tag k="name" v="Østdal" />
		<tag k="place" v="farm" />
		<tag k="ssr:stedsnr" v="189962" />
	</node>
	<node lat="60.62811863236649" lon="9.688195613291068" id="-22991">
		<tag k="fixme" v="consider place=hamlet" />
		<tag k="name" v="Berg" />
		<tag k="place" v="farm" />
		<tag k="ssr:stedsnr" v="189965" />
	</node>
	<node lat="60.83085277849804" lon="9.471366672993053" id="-22994">
		<tag k="name" v="Brøtatn" />
		<tag k="place" v="farm" />
		<tag k="ssr:stedsnr" v="190875" />
	</node>
	<node lat="60.81515215409535" lon="9.757036722504255" id="-22997">
		<tag k="alt_name" v="Skjærstein" />
		<tag k="fixme" v="consider place=hamlet" />
		<tag k="name" v="Skjerstein" />
		<tag k="place" v="farm" />
		<tag k="ssr:stedsnr" v="191205" />
	</node>
	<node lat="60.78851111351031" lon="9.498755560440669" id="-22999">
		<tag k="alt_name" v="Skrubblia" />
		<tag k="name" v="Skrubbelii" />
		<tag k="place" v="isolated_dwelling" />
		<tag k="ssr:stedsnr" v="191752" />
	</node>
	<node lat="60.79872500031553" lon="9.584277773693254" id="-23000">
		<tag k="alt_name" v="Lindelie" />
		<tag k="name" v="Lindelii" />
		<tag k="place" v="isolated_dwelling" />
		<tag k="ssr:stedsnr" v="191799" />
	</node>
	<node lat="60.83008989073745" lon="9.498046663072108" id="-23006">
		<tag k="alt_name" v="Kolsgard;Kollsgard" />
		<tag k="fixme" v="consider place=hamlet" />
		<tag k="name" v="Framgard" />
		<tag k="place" v="farm" />
		<tag k="ssr:stedsnr" v="221816" />
	</node>
	<node lat="60.78977658613149" lon="9.58668342858348" id="-23008">
		<tag k="alt_name" v="Bergatn" />
		<tag k="loc_name" v="Bergene" />
		<tag k="name" v="Bergan" />
		<tag k="place" v="locality" />
		<tag k="ssr:stedsnr" v="494772" />
	</node>
	<node lat="60.63575277616822" lon="9.657783329332105" id="-23009">
		<tag k="name" v="Søre Flaten" />
		<tag k="place" v="farm" />
		<tag k="ssr:stedsnr" v="232828" />
	</node>
	<node lat="60.6676694404525" lon="9.917802779840672" id="-23010">
		<tag k="name" v="Reisenbein" />
		<tag k="place" v="isolated_dwelling" />
		<tag k="ssr:stedsnr" v="240005" />
	</node>
	<node lat="60.816855554272784" lon="9.544594441672652" id="-23012">
		<tag k="name" v="Torsrudgrenda" />
		<tag k="place" v="hamlet" />
		<tag k="ssr:stedsnr" v="240247" />
	</node>
	<node lat="60.76226944647664" lon="9.662222214968567" id="-23014">
		<tag k="name" v="Åmot" />
		<tag k="place" v="isolated_dwelling" />
		<tag k="ssr:stedsnr" v="240185" />
	</node>
</osm>
