<?xml version="1.0" encoding="UTF-8"?>
<osm version="0.6" generator="osmapis">
	<node lat="60.71937499732577" lon="9.37389999666377" id="-21856">
		<tag k="alt_name" v="Søkkjimyratn" />
		<tag k="name" v="Søkkemyr" />
		<tag k="natural" v="wetland" />
		<tag k="ssr:stedsnr" v="7516" />
	</node>
	<node lat="60.580019446357575" lon="9.77946387998674" id="-21866">
		<tag k="name" v="Pullmyra" />
		<tag k="natural" v="wetland" />
		<tag k="ssr:stedsnr" v="7805" />
	</node>
	<node lat="60.76388611304081" lon="9.575199998894234" id="-21903">
		<tag k="name" v="Fautmyre" />
		<tag k="natural" v="wetland" />
		<tag k="ssr:stedsnr" v="240097" />
	</node>
	<node lat="60.759716666121555" lon="9.698755546415443" id="-21908">
		<tag k="name" v="Storurde" />
		<tag k="natural" v="scree" />
		<tag k="ssr:stedsnr" v="240161" />
	</node>
	<node lat="60.824797220851366" lon="9.514458338770398" id="-21909">
		<tag k="name" v="Lineikro" />
		<tag k="place" v="locality" />
		<tag k="ssr:stedsnr" v="240836" />
	</node>
	<node lat="60.752322224956394" lon="9.593625006598009" id="-21910">
		<tag k="name" v="Lusemyratn" />
		<tag k="natural" v="wetland" />
		<tag k="ssr:stedsnr" v="58092" />
	</node>
	<node lat="60.78664721846188" lon="9.655430550301782" id="-21933">
		<tag k="name" v="Gråbeinmyra" />
		<tag k="natural" v="wetland" />
		<tag k="ssr:stedsnr" v="58906" />
	</node>
	<node lat="60.82750833015123" lon="9.423808341897743" id="-21949">
		<tag k="name" v="Storstølmyratn" />
		<tag k="natural" v="wetland" />
		<tag k="ssr:stedsnr" v="240760" />
	</node>
	<node lat="60.787691665509165" lon="9.288272216578331" id="-21954">
		<tag k="name" v="Gråtarmyra" />
		<tag k="natural" v="wetland" />
		<tag k="ssr:stedsnr" v="240775" />
	</node>
	<node lat="60.62767777979839" lon="9.740241668313057" id="-21963">
		<tag k="alt_name" v="Stormyra" />
		<tag k="name" v="Storemyr" />
		<tag k="natural" v="wetland" />
		<tag k="ssr:stedsnr" v="68981" />
	</node>
	<node lat="60.746999998904265" lon="9.39910833379056" id="-22083">
		<tag k="name" v="Venelimyri" />
		<tag k="natural" v="wetland" />
		<tag k="ssr:stedsnr" v="128541" />
	</node>
	<node lat="60.70825555954216" lon="9.662666659026772" id="-22102">
		<tag k="name" v="Storemyr" />
		<tag k="natural" v="wetland" />
		<tag k="ssr:stedsnr" v="128986" />
	</node>
	<node lat="60.61836111172104" lon="9.870625006940928" id="-22110">
		<tag k="name" v="Primstein" />
		<tag k="natural" v="stone" />
		<tag k="ssr:stedsnr" v="128894" />
	</node>
	<node lat="60.59289444093423" lon="9.865752781821094" id="-22156">
		<tag k="historic" v="shieling" />
		<tag k="name" v="Nysætra" />
		<tag k="place" v="locality" />
		<tag k="ssr:stedsnr" v="262720" />
	</node>
	<node lat="60.65732778075205" lon="9.685549996886143" id="-22159">
		<tag k="alt_name" v="Rålia" />
		<tag k="historic" v="shieling" />
		<tag k="name" v="Rålisætra" />
		<tag k="place" v="locality" />
		<tag k="ssr:stedsnr" v="188934" />
	</node>
	<node lat="60.67187205014434" lon="9.527729249899112" id="-22171">
		<tag k="historic" v="shieling" />
		<tag k="name" v="Veslesætra" />
		<tag k="place" v="locality" />
		<tag k="ssr:stedsnr" v="189711" />
	</node>
	<node lat="60.62463055551438" lon="9.90703888308294" id="-22190">
		<tag k="name" v="Røvsholoa" />
		<tag k="place" v="locality" />
		<tag k="ssr:stedsnr" v="221479" />
	</node>
	<node lat="60.72411388933136" lon="9.783980557125908" id="-22191">
		<tag k="name" v="Hellemyr" />
		<tag k="natural" v="wetland" />
		<tag k="ssr:stedsnr" v="221513" />
	</node>
	<node lat="60.7229250034235" lon="9.476258337122225" id="-22196">
		<tag k="name" v="Bukfyllbrenn" />
		<tag k="place" v="locality" />
		<tag k="ssr:stedsnr" v="221881" />
	</node>
	<node lat="60.69255555351057" lon="9.601649993413385" id="-22202">
		<tag k="name" v="Storemyr" />
		<tag k="natural" v="wetland" />
		<tag k="ssr:stedsnr" v="240180" />
	</node>
	<node lat="60.6846055566664" lon="9.411638889706065" id="-22213">
		<tag k="name" v="Seilen" />
		<tag k="place" v="locality" />
		<tag k="ssr:stedsnr" v="240846" />
	</node>
	<node lat="60.747397220916405" lon="9.591008327778416" id="-22234">
		<tag k="name" v="Bålelimyre" />
		<tag k="natural" v="wetland" />
		<tag k="ssr:stedsnr" v="301079" />
	</node>
	<node lat="60.74665000297996" lon="9.749636109208659" id="-22238">
		<tag k="name" v="Liamyratn" />
		<tag k="natural" v="wetland" />
		<tag k="ssr:stedsnr" v="301127" />
	</node>
	<node lat="60.75406388744965" lon="9.72630278601531" id="-22239">
		<tag k="name" v="Størrmyre" />
		<tag k="natural" v="wetland" />
		<tag k="ssr:stedsnr" v="301131" />
	</node>
	<node lat="60.724647219858596" lon="9.652594440909832" id="-22240">
		<tag k="name" v="Veslehansmyre" />
		<tag k="natural" v="wetland" />
		<tag k="ssr:stedsnr" v="301175" />
	</node>
	<node lat="60.71763332955714" lon="9.635202783852458" id="-22257">
		<tag k="historic" v="shieling" />
		<tag k="name" v="Rødningen" />
		<tag k="place" v="locality" />
		<tag k="ssr:stedsnr" v="464188" />
	</node>
	<node lat="60.77029444030637" lon="9.47990000790508" id="-22259">
		<tag k="name" v="Høvssæterseilatn" />
		<tag k="place" v="locality" />
		<tag k="ssr:stedsnr" v="464193" />
	</node>
	<node lat="60.647794443757796" lon="9.597427773967143" id="-22265">
		<tag k="name" v="Hyttemyra" />
		<tag k="natural" v="wetland" />
		<tag k="ssr:stedsnr" v="464321" />
	</node>
	<node lat="60.77728055255635" lon="9.36305000706334" id="-22267">
		<tag k="name" v="Puttemyratn" />
		<tag k="natural" v="wetland" />
		<tag k="ssr:stedsnr" v="464600" />
	</node>
	<node lat="60.631883334491704" lon="9.570016661786584" id="-22336">
		<tag k="loc_name" v="Storemyr" />
		<tag k="name" v="Stormyra" />
		<tag k="natural" v="wetland" />
		<tag k="ssr:stedsnr" v="371634" />
	</node>
	<node lat="60.69083611407118" lon="9.773449999586608" id="-22338">
		<tag k="name" v="Skjorereirmyra" />
		<tag k="natural" v="wetland" />
		<tag k="ssr:stedsnr" v="371903" />
	</node>
	<node lat="60.744311110840904" lon="9.774002779061474" id="-22364">
		<tag k="historic" v="shieling" />
		<tag k="name" v="Gamlesæter" />
		<tag k="place" v="locality" />
		<tag k="ssr:stedsnr" v="483153" />
	</node>
	<node lat="60.80225000112404" lon="9.74209167055448" id="-22368">
		<tag k="name" v="Finnemyr" />
		<tag k="natural" v="wetland" />
		<tag k="ssr:stedsnr" v="483096" />
	</node>
	<node lat="60.80699166391035" lon="9.68041945252885" id="-22369">
		<tag k="name" v="Langemyre" />
		<tag k="natural" v="wetland" />
		<tag k="ssr:stedsnr" v="483098" />
	</node>
	<node lat="60.78192500256503" lon="9.505205560229976" id="-22391">
		<tag k="name" v="Skjyrudammyre" />
		<tag k="natural" v="wetland" />
		<tag k="ssr:stedsnr" v="403213" />
	</node>
	<node lat="60.553166669854456" lon="9.751205559679926" id="-22400">
		<tag k="name" v="Rundemyr" />
		<tag k="natural" v="wetland" />
		<tag k="ssr:stedsnr" v="403676" />
	</node>
	<node lat="60.69172743267772" lon="9.559707294359981" id="-22413">
		<tag k="alt_name" v="Reinsjødalen" />
		<tag k="historic" v="shieling" />
		<tag k="name" v="Reinsjødalsætra" />
		<tag k="place" v="locality" />
		<tag k="ssr:stedsnr" v="431716" />
	</node>
	<node lat="60.71747222118443" lon="9.54305000851522" id="-22418">
		<tag k="alt_name" v="Møkjakokmyratn" />
		<tag k="name" v="Møkakokmyri" />
		<tag k="natural" v="wetland" />
		<tag k="ssr:stedsnr" v="432516" />
	</node>
	<node lat="60.69071110762253" lon="9.621305546898116" id="-22428">
		<tag k="historic" v="shieling" />
		<tag k="name" v="Valdreshaugen" />
		<tag k="place" v="locality" />
		<tag k="ssr:stedsnr" v="432903" />
	</node>
	<node lat="60.80987499857999" lon="9.485672228514366" id="-22450">
		<tag k="alt_name" v="Snikemyre" />
		<tag k="name" v="Snikmyri" />
		<tag k="natural" v="wetland" />
		<tag k="ssr:stedsnr" v="434826" />
	</node>
	<node lat="60.63404444645515" lon="9.519150003074225" id="-22492">
		<tag k="historic" v="shieling" />
		<tag k="name" v="Skogstadsætra" />
		<tag k="place" v="locality" />
		<tag k="ssr:stedsnr" v="464262" />
	</node>
	<node lat="60.566161112942474" lon="9.776927778196391" id="-22505">
		<tag k="name" v="Langemyr" />
		<tag k="natural" v="wetland" />
		<tag k="ssr:stedsnr" v="464711" />
	</node>
	<node lat="60.597669446712366" lon="9.718775000638255" id="-22528">
		<tag k="landuse" v="meadow" />
		<tag k="name" v="Hedalsengene" />
		<tag k="ssr:stedsnr" v="674880" />
	</node>
	<node lat="60.77782500052415" lon="9.492016660113697" id="-22555">
		<tag k="name" v="Høgemyr" />
		<tag k="natural" v="wetland" />
		<tag k="ssr:stedsnr" v="676775" />
	</node>
	<node lat="60.829880558631174" lon="9.601811111523777" id="-22564">
		<tag k="name" v="Langemyre" />
		<tag k="natural" v="wetland" />
		<tag k="ssr:stedsnr" v="478115" />
	</node>
	<node lat="60.77741388945829" lon="9.700800008988674" id="-22576">
		<tag k="name" v="Dalstjernmyre" />
		<tag k="natural" v="wetland" />
		<tag k="old_name" v="Dalstjednmyre" />
		<tag k="ssr:stedsnr" v="483209" />
	</node>
	<node lat="60.72882499741801" lon="9.503105562870271" id="-22581">
		<tag k="name" v="Kloppmyre" />
		<tag k="natural" v="wetland" />
		<tag k="ssr:stedsnr" v="483469" />
	</node>
	<node lat="60.60224722551939" lon="9.70306944644096" id="-22590">
		<tag k="historic" v="shieling" />
		<tag k="name" v="Rugbråten" />
		<tag k="place" v="locality" />
		<tag k="ssr:stedsnr" v="483509" />
	</node>
	<node lat="60.75767222629673" lon="9.621905549877908" id="-22627">
		<tag k="historic" v="shieling" />
		<tag k="name" v="Veslesætere" />
		<tag k="place" v="locality" />
		<tag k="ssr:stedsnr" v="495913" />
	</node>
	<node lat="60.81012778157716" lon="9.59823888668506" id="-22637">
		<tag k="name" v="Leirdiki" />
		<tag k="natural" v="wetland" />
		<tag k="ssr:stedsnr" v="524959" />
	</node>
	<node lat="60.765302774849694" lon="9.70294443544416" id="-22645">
		<tag k="historic" v="shieling" />
		<tag k="name" v="Kamperud" />
		<tag k="place" v="locality" />
		<tag k="ssr:stedsnr" v="543179" />
	</node>
	<node lat="60.60720555632447" lon="9.768241664935717" id="-22650">
		<tag k="name" v="Jørnsonmyra" />
		<tag k="natural" v="wetland" />
		<tag k="ssr:stedsnr" v="543504" />
	</node>
	<node lat="60.63379444644912" lon="9.79040832574204" id="-22659">
		<tag k="name" v="Briskemyr" />
		<tag k="natural" v="wetland" />
		<tag k="ssr:stedsnr" v="544719" />
	</node>
	<node lat="60.4837222265184" lon="9.809830551530025" id="-22705">
		<tag k="name" v="Goplerudskogen" />
		<tag k="place" v="locality" />
		<tag k="ssr:stedsnr" v="585802" />
	</node>
	<node lat="60.61486388629202" lon="9.765933335286572" id="-22720">
		<tag k="alt_name" v="Åmsrudkollmyrene" />
		<tag k="name" v="Omsrudkollmyrene" />
		<tag k="natural" v="wetland" />
		<tag k="ssr:stedsnr" v="604519" />
	</node>
	<node lat="60.72865000278528" lon="9.419730555282248" id="-22728">
		<tag k="name" v="Skålemyratn" />
		<tag k="natural" v="wetland" />
		<tag k="ssr:stedsnr" v="604924" />
	</node>
	<node lat="60.54791944408003" lon="9.676622229533479" id="-22760">
		<tag k="name" v="Langkloppa" />
		<tag k="place" v="locality" />
		<tag k="ssr:stedsnr" v="614713" />
	</node>
	<node lat="60.656088886555004" lon="9.498711102686231" id="-22775">
		<tag k="name" v="Åborura" />
		<tag k="natural" v="scree" />
		<tag k="old_name" v="Øbberura" />
		<tag k="ssr:stedsnr" v="706282" />
	</node>
	<node lat="60.501322226505756" lon="9.818708333410006" id="-22789">
		<tag k="name" v="Halvmilsmyra" />
		<tag k="natural" v="wetland" />
		<tag k="ssr:stedsnr" v="645813" />
	</node>
	<node lat="60.74332777889453" lon="9.406283336459163" id="-22797">
		<tag k="landuse" v="meadow" />
		<tag k="name" v="Stabbefeten" />
		<tag k="ssr:stedsnr" v="645993" />
	</node>
	<node lat="60.512752775726476" lon="9.810361105186287" id="-22801">
		<tag k="historic" v="shieling" />
		<tag k="name" v="Vidalsvollen" />
		<tag k="place" v="locality" />
		<tag k="ssr:stedsnr" v="706793" />
	</node>
	<node lat="60.769158335604395" lon="9.609530547213092" id="-22802">
		<tag k="name" v="Fønhusbrennmyra" />
		<tag k="natural" v="wetland" />
		<tag k="ssr:stedsnr" v="706892" />
	</node>
	<node lat="60.8096750031646" lon="9.619569451219057" id="-22804">
		<tag k="name" v="Vardemyre" />
		<tag k="natural" v="wetland" />
		<tag k="ssr:stedsnr" v="706988" />
	</node>
	<node lat="60.699258335780506" lon="9.62965278392454" id="-22825">
		<tag k="historic" v="shieling" />
		<tag k="name" v="Nybu" />
		<tag k="place" v="locality" />
		<tag k="ssr:stedsnr" v="665191" />
	</node>
	<node lat="60.676974997939844" lon="9.658491658759507" id="-22851">
		<tag k="alt_name" v="Hølbekkmyratn" />
		<tag k="name" v="Hølbekkmyrane" />
		<tag k="natural" v="wetland" />
		<tag k="ssr:stedsnr" v="674897" />
	</node>
	<node lat="60.78580555164231" lon="9.657616663587941" id="-22867">
		<tag k="name" v="Puttmyri" />
		<tag k="natural" v="wetland" />
		<tag k="ssr:stedsnr" v="676150" />
	</node>
	<node lat="60.716738885450056" lon="9.709099994876864" id="-22875">
		<tag k="name" v="Trulsebråtån" />
		<tag k="place" v="locality" />
		<tag k="ssr:stedsnr" v="706168" />
	</node>
	<node lat="60.571504921847186" lon="9.727938788558703" id="-22877">
		<tag k="loc_name" v="Brennsvaet" />
		<tag k="name" v="Brennsvadet" />
		<tag k="place" v="locality" />
		<tag k="ssr:stedsnr" v="706503" />
	</node>
	<node lat="60.84803333563138" lon="9.536924994433411" id="-22881">
		<tag k="name" v="Puttemyre" />
		<tag k="natural" v="wetland" />
		<tag k="ssr:stedsnr" v="706769" />
	</node>
	<node lat="60.69091111546572" lon="9.336311113836265" id="-22890">
		<tag k="historic" v="shieling" />
		<tag k="name" v="Nedre Rivopp" />
		<tag k="place" v="locality" />
		<tag k="ssr:stedsnr" v="725829" />
	</node>
	<node lat="60.818187819877025" lon="9.687523336095477" id="-22895">
		<tag k="landuse" v="meadow" />
		<tag k="name" v="Finnevøllatn" />
		<tag k="ssr:stedsnr" v="726080" />
	</node>
	<node lat="60.79167500004027" lon="9.293836106589229" id="-22906">
		<tag k="name" v="Gråemyre" />
		<tag k="natural" v="wetland" />
		<tag k="ssr:stedsnr" v="726776" />
	</node>
	<node lat="60.63440832933979" lon="9.734180562897032" id="-22926">
		<tag k="loc_name" v="Jennlismyra" />
		<tag k="name" v="Jevnlismyra" />
		<tag k="natural" v="wetland" />
		<tag k="ssr:stedsnr" v="735972" />
	</node>
	<node lat="60.63665277405083" lon="9.585369445193948" id="-22962">
		<tag k="landuse" v="meadow" />
		<tag k="name" v="Åsliengene" />
		<tag k="ssr:stedsnr" v="767255" />
	</node>
	<node lat="60.77223333601324" lon="9.589986107025794" id="-22973">
		<tag k="name" v="Dammyre" />
		<tag k="natural" v="wetland" />
		<tag k="ssr:stedsnr" v="908095" />
	</node>
	<node lat="60.803272221381384" lon="9.523108338617973" id="-22984">
		<tag k="name" v="Grohølmyre" />
		<tag k="natural" v="wetland" />
		<tag k="ssr:stedsnr" v="908281" />
	</node>
	<node lat="60.72342222205135" lon="9.660916669782111" id="-22985">
		<tag k="name" v="Temmermyre" />
		<tag k="natural" v="wetland" />
		<tag k="ssr:stedsnr" v="908191" />
	</node>
	<node lat="60.74496944461369" lon="9.638019451239071" id="-22986">
		<tag k="name" v="Skålemyre" />
		<tag k="place" v="locality" />
		<tag k="ssr:stedsnr" v="908192" />
	</node>
	<node lat="60.69778888970041" lon="9.50950277924868" id="-22989">
		<tag k="name" v="Dugurdsmyre" />
		<tag k="natural" v="wetland" />
		<tag k="ssr:stedsnr" v="908473" />
	</node>
	<node lat="60.599355558449325" lon="9.76491388360148" id="-22993">
		<tag k="name" v="Storemyr" />
		<tag k="natural" v="wetland" />
		<tag k="ssr:stedsnr" v="908505" />
	</node>
	<node lat="60.7931611148531" lon="9.745049994644852" id="-23004">
		<tag k="name" v="Tjernhaugmyre" />
		<tag k="natural" v="wetland" />
		<tag k="old_name" v="Tjednhaugmyre" />
		<tag k="ssr:stedsnr" v="786139" />
	</node>
	<node lat="60.74024999940439" lon="9.46369999400822" id="-23008">
		<tag k="name" v="Kjeldemyre" />
		<tag k="natural" v="wetland" />
		<tag k="ssr:stedsnr" v="786218" />
	</node>
	<node lat="60.85437499657441" lon="9.438697228310213" id="-23011">
		<tag k="name" v="Gullringmyre" />
		<tag k="natural" v="wetland" />
		<tag k="ssr:stedsnr" v="786353" />
	</node>
	<node lat="60.62448888677257" lon="9.764041666300416" id="-23015">
		<tag k="name" v="Fjellmyrene" />
		<tag k="natural" v="wetland" />
		<tag k="ssr:stedsnr" v="786529" />
	</node>
	<node lat="60.67969999754913" lon="9.78905000278527" id="-23036">
		<tag k="name" v="Langmyr" />
		<tag k="natural" v="wetland" />
		<tag k="ssr:stedsnr" v="795911" />
	</node>
	<node lat="60.6576250038134" lon="9.644194438418161" id="-23040">
		<tag k="alt_name" v="Graslimyrene" />
		<tag k="name" v="Graslimyrane" />
		<tag k="natural" v="wetland" />
		<tag k="ssr:stedsnr" v="795925" />
	</node>
	<node lat="60.70312499992374" lon="9.599761111439172" id="-23086">
		<tag k="historic" v="shieling" />
		<tag k="name" v="Hovudsætri" />
		<tag k="place" v="locality" />
		<tag k="ssr:stedsnr" v="917998" />
	</node>
	<node lat="60.72739444185221" lon="9.648197216484606" id="-23122">
		<tag k="historic" v="shieling" />
		<tag k="name" v="Heimsætere" />
		<tag k="place" v="locality" />
		<tag k="ssr:stedsnr" v="847211" />
	</node>
	<node lat="60.72997221926175" lon="9.657275007541019" id="-23124">
		<tag k="name" v="Storemyr" />
		<tag k="natural" v="wetland" />
		<tag k="ssr:stedsnr" v="847214" />
	</node>
	<node lat="60.71412777682884" lon="9.359361104597713" id="-23133">
		<tag k="landuse" v="meadow" />
		<tag k="name" v="Bordfeten" />
		<tag k="ssr:stedsnr" v="847851" />
	</node>
	<node lat="60.61211388565309" lon="9.869097228893915" id="-23135">
		<tag k="historic" v="shieling" />
		<tag k="name" v="Jonsonkula" />
		<tag k="place" v="locality" />
		<tag k="ssr:stedsnr" v="847717" />
	</node>
	<node lat="60.82597499663791" lon="9.657963896584853" id="-23170">
		<tag k="name" v="Knaldremyri" />
		<tag k="natural" v="wetland" />
		<tag k="ssr:stedsnr" v="859168" />
	</node>
	<node lat="60.72887778064738" lon="9.734705561679357" id="-23182">
		<tag k="name" v="Barkloppmyra" />
		<tag k="natural" v="wetland" />
		<tag k="ssr:stedsnr" v="889216" />
	</node>
	<node lat="60.71993055565011" lon="9.743591670773798" id="-23183">
		<tag k="name" v="Billettmyre" />
		<tag k="natural" v="wetland" />
		<tag k="ssr:stedsnr" v="889217" />
	</node>
	<node lat="60.635399996983" lon="9.905522231247797" id="-23189">
		<tag k="name" v="Jenserudenga" />
		<tag k="place" v="locality" />
		<tag k="ssr:stedsnr" v="889504" />
	</node>
	<node lat="60.56696111418537" lon="9.764741673924359" id="-23192">
		<tag k="name" v="Svaremyr" />
		<tag k="natural" v="wetland" />
		<tag k="ssr:stedsnr" v="889695" />
	</node>
	<node lat="60.820352780112444" lon="9.467377784475095" id="-23196">
		<tag k="name" v="Furuhøvdan" />
		<tag k="place" v="locality" />
		<tag k="ssr:stedsnr" v="889845" />
	</node>
	<node lat="60.75396666580372" lon="9.572691674525453" id="-23204">
		<tag k="name" v="Brynestein" />
		<tag k="natural" v="stone" />
		<tag k="ssr:stedsnr" v="908105" />
	</node>
	<node lat="60.696213885656036" lon="9.915624992973726" id="-23241">
		<tag k="name" v="Langemyr" />
		<tag k="natural" v="wetland" />
		<tag k="ssr:stedsnr" v="949108" />
	</node>
	<node lat="60.7238666677535" lon="9.748072213978073" id="-23246">
		<tag k="name" v="Grautemyr" />
		<tag k="natural" v="wetland" />
		<tag k="ssr:stedsnr" v="949206" />
	</node>
	<node lat="60.78913333245401" lon="9.507533336463062" id="-23249">
		<tag k="name" v="Andreasmyre" />
		<tag k="natural" v="wetland" />
		<tag k="ssr:stedsnr" v="949217" />
	</node>
	<node lat="60.751766662217996" lon="9.717002780226048" id="-23264">
		<tag k="name" v="Jutulstein" />
		<tag k="natural" v="stone" />
		<tag k="ssr:stedsnr" v="968144" />
	</node>
	<node lat="60.77090555878668" lon="9.58667500664338" id="-23266">
		<tag k="name" v="Røtaskålmyre" />
		<tag k="natural" v="wetland" />
		<tag k="ssr:stedsnr" v="968088" />
	</node>
	<node lat="60.848588888513966" lon="9.530616659435038" id="-23363">
		<tag k="name" v="Vealamyre" />
		<tag k="natural" v="wetland" />
		<tag k="ssr:stedsnr" v="39735" />
	</node>
	<node lat="60.75739444485445" lon="9.61015555473155" id="-23367">
		<tag k="historic" v="shieling" />
		<tag k="name" v="Syndalssætere" />
		<tag k="place" v="locality" />
		<tag k="ssr:stedsnr" v="39893" />
	</node>
	<node lat="60.75363888812471" lon="9.76408055333127" id="-23378">
		<tag k="name" v="Temmermyre" />
		<tag k="natural" v="wetland" />
		<tag k="ssr:stedsnr" v="58141" />
	</node>
	<node lat="60.76068333110573" lon="9.770200002660937" id="-23379">
		<tag k="name" v="Sjuputtmyratn" />
		<tag k="natural" v="wetland" />
		<tag k="ssr:stedsnr" v="58150" />
	</node>
	<node lat="60.636455554008734" lon="9.55909721960561" id="-23460">
		<tag k="name" v="Frøstmyr" />
		<tag k="natural" v="wetland" />
		<tag k="ssr:stedsnr" v="100242" />
	</node>
	<node lat="60.643927779578775" lon="9.911797225408542" id="-23465">
		<tag k="historic" v="shieling" />
		<tag k="name" v="Lisætra" />
		<tag k="place" v="locality" />
		<tag k="ssr:stedsnr" v="100493" />
	</node>
	<node lat="60.59785833062363" lon="9.913169444545726" id="-23466">
		<tag k="name" v="Småtjernmyrene" />
		<tag k="natural" v="wetland" />
		<tag k="ssr:stedsnr" v="100501" />
	</node>
	<node lat="60.82161111434526" lon="9.617888896320355" id="-23474">
		<tag k="name" v="Dugurdsmyre" />
		<tag k="natural" v="wetland" />
		<tag k="ssr:stedsnr" v="114108" />
	</node>
	<node lat="60.724644441393224" lon="9.631961110911856" id="-23480">
		<tag k="name" v="Bjønnemyre" />
		<tag k="natural" v="wetland" />
		<tag k="ssr:stedsnr" v="119187" />
	</node>
	<node lat="60.82559444476699" lon="9.38141388079589" id="-23494">
		<tag k="name" v="Dølemyratn" />
		<tag k="natural" v="wetland" />
		<tag k="ssr:stedsnr" v="119656" />
	</node>
	<node lat="60.590722222742706" lon="9.903002785475259" id="-23544">
		<tag k="name" v="Fugleleikmyra" />
		<tag k="natural" v="wetland" />
		<tag k="ssr:stedsnr" v="150801" />
	</node>
	<node lat="60.72646666954332" lon="9.741269441438108" id="-23546">
		<tag k="name" v="Skålemyr" />
		<tag k="natural" v="wetland" />
		<tag k="ssr:stedsnr" v="160176" />
	</node>
	<node lat="60.78491111264085" lon="9.538652783860947" id="-23549">
		<tag k="name" v="Krøssfuru" />
		<tag k="place" v="locality" />
		<tag k="ssr:stedsnr" v="160186" />
	</node>
	<node lat="60.56751666342051" lon="9.759636119440472" id="-23573">
		<tag k="name" v="Storemyr" />
		<tag k="natural" v="wetland" />
		<tag k="ssr:stedsnr" v="160677" />
	</node>
	<node lat="60.555691668365036" lon="9.787861105527226" id="-23574">
		<tag k="historic" v="shieling" />
		<tag k="name" v="Primbråten" />
		<tag k="place" v="locality" />
		<tag k="ssr:stedsnr" v="160753" />
	</node>
	<node lat="60.70731666688948" lon="9.4147055575489" id="-23606">
		<tag k="name" v="Hølervassmørke" />
		<tag k="place" v="locality" />
		<tag k="ssr:stedsnr" v="179832" />
	</node>
	<node lat="60.53790000290352" lon="9.664886114711868" id="-23628">
		<tag k="loc_name" v="Storemyr" />
		<tag k="name" v="Stormyra" />
		<tag k="natural" v="wetland" />
		<tag k="ssr:stedsnr" v="189833" />
	</node>
	<node lat="60.80399722183519" lon="9.322975003119401" id="-23657">
		<tag k="name" v="Reinsjøpollen" />
		<tag k="natural" v="wetland" />
		<tag k="ssr:stedsnr" v="191779" />
	</node>
	<node lat="60.723061109361154" lon="9.754455551097548" id="-23664">
		<tag k="name" v="Møsamyre" />
		<tag k="natural" v="wetland" />
		<tag k="ssr:stedsnr" v="221175" />
	</node>
	<node lat="60.64274999639669" lon="9.727619440395495" id="-23676">
		<tag k="name" v="Augensrudmyra" />
		<tag k="natural" v="wetland" />
		<tag k="ssr:stedsnr" v="221253" />
	</node>
	<node lat="60.84403888550163" lon="9.501780562598757" id="-23688">
		<tag k="historic" v="shieling" />
		<tag k="name" v="Bruskaret" />
		<tag k="place" v="locality" />
		<tag k="ssr:stedsnr" v="221715" />
	</node>
	<node lat="60.746952780530286" lon="9.802769439330948" id="-23691">
		<tag k="name" v="Vintervegmyre" />
		<tag k="natural" v="wetland" />
		<tag k="ssr:stedsnr" v="282547" />
	</node>
	<node lat="60.59935000437944" lon="9.930052780051454" id="-23699">
		<tag k="alt_name" v="Trøllemyr" />
		<tag k="name" v="Vesle Trollemyr" />
		<tag k="natural" v="wetland" />
		<tag k="ssr:stedsnr" v="282501" />
	</node>
	<node lat="60.80548055814763" lon="9.518869447245798" id="-23713">
		<tag k="name" v="Feten" />
		<tag k="place" v="locality" />
		<tag k="ssr:stedsnr" v="300259" />
	</node>
	<node lat="60.83329166364741" lon="9.508741673867082" id="-23722">
		<tag k="name" v="Klauvrudbrøto" />
		<tag k="place" v="locality" />
		<tag k="ssr:stedsnr" v="300840" />
	</node>
	<node lat="60.80470277452509" lon="9.68491945283533" id="-23724">
		<tag k="historic" v="shieling" />
		<tag k="name" v="Veslesæle" />
		<tag k="place" v="locality" />
		<tag k="ssr:stedsnr" v="301058" />
	</node>
	<node lat="60.779355556092916" lon="9.67564443838009" id="-23727">
		<tag k="name" v="Liabekkmyre" />
		<tag k="natural" v="wetland" />
		<tag k="ssr:stedsnr" v="301166" />
	</node>
	<node lat="60.59244167114508" lon="9.695605548618945" id="-23730">
		<tag k="name" v="Lagmannsura" />
		<tag k="natural" v="scree" />
		<tag k="ssr:stedsnr" v="301466" />
	</node>
	<node lat="60.58385833682605" lon="9.60466944527101" id="-23731">
		<tag k="historic" v="shieling" />
		<tag k="name" v="Tubbegarden" />
		<tag k="place" v="locality" />
		<tag k="ssr:stedsnr" v="301756" />
	</node>
	<node lat="60.62343611420592" lon="9.819161110202053" id="-23755">
		<tag k="name" v="Nysætermyrane" />
		<tag k="natural" v="wetland" />
		<tag k="ssr:stedsnr" v="310986" />
	</node>
	<node lat="60.64696944252171" lon="9.642005556099287" id="-23769">
		<tag k="alt_name" v="Frøstjernmyrene" />
		<tag k="loc_name" v="Frosttjernmyrene" />
		<tag k="name" v="Frosttjernmyrane" />
		<tag k="natural" v="wetland" />
		<tag k="ssr:stedsnr" v="310956" />
	</node>
	<node lat="60.76956944293724" lon="9.78826944998503" id="-23798">
		<tag k="name" v="Hegermyratn" />
		<tag k="natural" v="wetland" />
		<tag k="ssr:stedsnr" v="342428" />
	</node>
	<node lat="60.76376944216678" lon="9.78937222836341" id="-23799">
		<tag k="name" v="Bjønnåtemyra" />
		<tag k="natural" v="wetland" />
		<tag k="ssr:stedsnr" v="342429" />
	</node>
	<node lat="60.55392221901392" lon="9.745277770324487" id="-23804">
		<tag k="name" v="Bokkemyr" />
		<tag k="natural" v="wetland" />
		<tag k="ssr:stedsnr" v="342636" />
	</node>
	<node lat="60.83647777823063" lon="9.598086117435265" id="-23809">
		<tag k="name" v="Tørvmyre" />
		<tag k="natural" v="wetland" />
		<tag k="ssr:stedsnr" v="342930" />
	</node>
	<node lat="60.72380833733839" lon="9.49107777303598" id="-23811">
		<tag k="name" v="Sjongermyratn" />
		<tag k="natural" v="wetland" />
		<tag k="ssr:stedsnr" v="342877" />
	</node>
	<node lat="60.81311666287925" lon="9.596372229772197" id="-23813">
		<tag k="historic" v="shieling" />
		<tag k="name" v="Breidablikksæter" />
		<tag k="place" v="locality" />
		<tag k="ssr:stedsnr" v="342943" />
	</node>
	<node lat="60.82828889193798" lon="9.628188881377575" id="-23814">
		<tag k="name" v="Jøtemyr" />
		<tag k="natural" v="wetland" />
		<tag k="ssr:stedsnr" v="356139" />
	</node>
	<node lat="60.74069166538592" lon="9.566566672968225" id="-23817">
		<tag k="name" v="Sandegård" />
		<tag k="place" v="locality" />
		<tag k="ssr:stedsnr" v="361069" />
	</node>
	<node lat="60.69375833627206" lon="9.587622225140654" id="-23827">
		<tag k="name" v="Dugursmyre" />
		<tag k="natural" v="wetland" />
		<tag k="ssr:stedsnr" v="361183" />
	</node>
	<node lat="60.74063333454362" lon="9.471741660721992" id="-23830">
		<tag k="name" v="Gaukemyre" />
		<tag k="natural" v="wetland" />
		<tag k="ssr:stedsnr" v="361241" />
	</node>
	<node lat="60.59663055530559" lon="9.775544445492105" id="-23836">
		<tag k="name" v="Rugåkermyra" />
		<tag k="natural" v="wetland" />
		<tag k="ssr:stedsnr" v="361491" />
	</node>
	<node lat="60.651402775349695" lon="9.809516665270857" id="-23840">
		<tag k="landuse" v="meadow" />
		<tag k="name" v="Ytterenga" />
		<tag k="ssr:stedsnr" v="361658" />
	</node>
	<node lat="60.830525000709834" lon="9.516275003120406" id="-23853">
		<tag k="landuse" v="meadow" />
		<tag k="name" v="Enge" />
		<tag k="ssr:stedsnr" v="361853" />
	</node>
	<node lat="60.71621389332203" lon="9.60797777833153" id="-23877">
		<tag k="alt_name" v="Nysætermyratn" />
		<tag k="name" v="Nysætermyrane" />
		<tag k="natural" v="wetland" />
		<tag k="ssr:stedsnr" v="371981" />
	</node>
	<node lat="60.56881110815561" lon="9.768572225888983" id="-23918">
		<tag k="name" v="Musetjernmyra" />
		<tag k="natural" v="wetland" />
		<tag k="ssr:stedsnr" v="403688" />
	</node>
	<node lat="60.60213611073019" lon="9.446636108857115" id="-23927">
		<tag k="name" v="Strøslimyra" />
		<tag k="natural" v="wetland" />
		<tag k="ssr:stedsnr" v="422360" />
	</node>
	<node lat="60.865408330013516" lon="9.440441660691041" id="-23930">
		<tag k="historic" v="shieling" />
		<tag k="name" v="Turtebakke" />
		<tag k="place" v="locality" />
		<tag k="ssr:stedsnr" v="422336" />
	</node>
	<node lat="60.820702780976994" lon="9.41355555575119" id="-23941">
		<tag k="historic" v="shieling" />
		<tag k="name" v="Vårsætere" />
		<tag k="old_name" v="Vårsæterere" />
		<tag k="place" v="locality" />
		<tag k="ssr:stedsnr" v="422759" />
	</node>
	<node lat="60.62386111401235" lon="9.712727771315723" id="-23968">
		<tag k="historic" v="shieling" />
		<tag k="name" v="Grønhaug" />
		<tag k="place" v="locality" />
		<tag k="ssr:stedsnr" v="432992" />
	</node>
	<node lat="60.66265277815669" lon="9.532188891708575" id="-23972">
		<tag k="alt_name" v="Skålevassmyran" />
		<tag k="name" v="Skålevassmyrene" />
		<tag k="natural" v="wetland" />
		<tag k="ssr:stedsnr" v="432701" />
	</node>
	<node lat="60.53333610688194" lon="9.68646111938832" id="-23975">
		<tag k="loc_name" v="Manmyrene" />
		<tag k="name" v="Manmyrane" />
		<tag k="natural" v="wetland" />
		<tag k="ssr:stedsnr" v="432849" />
	</node>
	<node lat="60.56855278025222" lon="9.77776944021053" id="-24015">
		<tag k="name" v="Uksamyra" />
		<tag k="natural" v="wetland" />
		<tag k="ssr:stedsnr" v="524667" />
	</node>
	<node lat="60.75462777398606" lon="9.614086106284592" id="-24016">
		<tag k="name" v="Hausemyre" />
		<tag k="natural" v="wetland" />
		<tag k="ssr:stedsnr" v="524891" />
	</node>
	<node lat="60.82371388852409" lon="9.423577769570816" id="-24042">
		<tag k="historic" v="shieling" />
		<tag k="name" v="Karistølen" />
		<tag k="place" v="locality" />
		<tag k="ssr:stedsnr" v="543751" />
	</node>
	<node lat="60.845455552871215" lon="9.432647220246189" id="-24046">
		<tag k="name" v="Hallingfetatn" />
		<tag k="place" v="locality" />
		<tag k="ssr:stedsnr" v="544351" />
	</node>
	<node lat="60.65161111068917" lon="9.799638889989577" id="-24048">
		<tag k="landuse" v="meadow" />
		<tag k="name" v="Storbråtaenga" />
		<tag k="ssr:stedsnr" v="544644" />
	</node>
	<node lat="60.73460555912026" lon="9.684536104236496" id="-24057">
		<tag k="alt_name" v="Åsemyratn" />
		<tag k="name" v="Åsemyrane" />
		<tag k="natural" v="wetland" />
		<tag k="ssr:stedsnr" v="552957" />
	</node>
	<node lat="60.61586110882015" lon="9.83486388349107" id="-24065">
		<tag k="name" v="Saumyra" />
		<tag k="natural" v="wetland" />
		<tag k="ssr:stedsnr" v="553917" />
	</node>
	<node lat="60.72794444104879" lon="9.639777780783083" id="-24081">
		<tag k="historic" v="shieling" />
		<tag k="name" v="Åsheimsætri" />
		<tag k="place" v="locality" />
		<tag k="ssr:stedsnr" v="553958" />
	</node>
	<node lat="60.63158889229898" lon="9.747077776316784" id="-24083">
		<tag k="alt_name" v="Langmyra" />
		<tag k="name" v="Langemyr" />
		<tag k="natural" v="wetland" />
		<tag k="ssr:stedsnr" v="553962" />
	</node>
	<node lat="60.84626388855047" lon="9.388130550844245" id="-24094">
		<tag k="alt_name" v="Storemyre" />
		<tag k="name" v="Stormyri" />
		<tag k="natural" v="wetland" />
		<tag k="ssr:stedsnr" v="554668" />
	</node>
	<node lat="60.67994166630363" lon="9.653786118805616" id="-24120">
		<tag k="name" v="Dugurmyra" />
		<tag k="natural" v="wetland" />
		<tag k="ssr:stedsnr" v="585274" />
	</node>
	<node lat="60.525222225335774" lon="9.810611111285649" id="-24124">
		<tag k="name" v="Slåttemyra" />
		<tag k="natural" v="wetland" />
		<tag k="ssr:stedsnr" v="585764" />
	</node>
	<node lat="60.74388055492067" lon="9.579524995080666" id="-24140">
		<tag k="name" v="Skimyre" />
		<tag k="natural" v="wetland" />
		<tag k="ssr:stedsnr" v="604061" />
	</node>
	<node lat="60.76555555558898" lon="9.553122222055789" id="-24147">
		<tag k="name" v="Grånliflæo" />
		<tag k="natural" v="wetland" />
		<tag k="ssr:stedsnr" v="604096" />
	</node>
	<node lat="60.78768611536519" lon="9.706200001990508" id="-24148">
		<tag k="name" v="Stengningsmyre" />
		<tag k="natural" v="wetland" />
		<tag k="ssr:stedsnr" v="604173" />
	</node>
	<node lat="60.82665555195915" lon="9.526177772308607" id="-24154">
		<tag k="name" v="Storstein" />
		<tag k="natural" v="stone" />
		<tag k="ssr:stedsnr" v="603770" />
	</node>
	<node lat="60.69818333736568" lon="9.438766674241926" id="-24156">
		<tag k="name" v="Storemyr" />
		<tag k="natural" v="wetland" />
		<tag k="ssr:stedsnr" v="603820" />
	</node>
</osm>
