<?xml version="1.0" encoding="UTF-8"?>
<osm generator="osmapis" version="0.6">
	<node id="-38911" lat="60.5958361088" lon="9.49757222788">
		<tag k="name" v="Rennsjøen" />
		<tag k="natural" v="water" />
		<tag k="ssr:stedsnr" v="492629" />
	</node>
	<node id="-38910" lat="60.6464638931" lon="9.47139999952">
		<tag k="alt_name" v="Flåtåvatnet" />
		<tag k="name" v="Flåtevatnet" />
		<tag k="natural" v="water" />
		<tag k="ssr:stedsnr" v="492613" />
	</node>
	<node id="-38909" lat="60.631922777" lon="9.41086388169">
		<tag k="name" v="Silkevatna" />
		<tag k="natural" v="water" />
		<tag k="ssr:stedsnr" v="492610" />
		<tag k="water" v="lake" />
	</node>
	<node id="-40953" lat="60.7736611157" lon="9.78579165812">
		<tag k="alt_name" v="Bergavatn" />
		<tag k="name" v="Bergevatnet" />
		<tag k="natural" v="water" />
		<tag k="ssr:stedsnr" v="737129" />
	</node>
	<node id="-40951" lat="60.7798416634" lon="9.70081388317">
		<tag k="name" v="Dalstjernet" />
		<tag k="natural" v="water" />
		<tag k="old_name" v="Dalstjednet" />
		<tag k="ssr:stedsnr" v="737114" />
	</node>
	<node id="-38902" lat="60.6493583377" lon="9.855899998">
		<tag k="name" v="Kilen" />
		<tag k="natural" v="bay" />
		<tag k="ssr:stedsnr" v="483730" />
	</node>
	<node id="-38901" lat="60.7986388872" lon="9.41645000518">
		<tag k="name" v="Fleinskallbekken" />
		<tag k="ssr:stedsnr" v="483690" />
		<tag k="waterway" v="stream" />
	</node>
	<node id="-38900" lat="60.6856694452" lon="9.79617499216">
		<tag k="name" v="Heimsæterputten" />
		<tag k="natural" v="water" />
		<tag k="ssr:stedsnr" v="483688" />
	</node>
	<node id="-40945" lat="60.8529888905" lon="9.4517999946">
		<tag k="name" v="Mjøtjernet" />
		<tag k="natural" v="water" />
		<tag k="old_name" v="Mjøtjednet" />
		<tag k="ssr:stedsnr" v="736650" />
	</node>
	<node id="-40944" lat="60.8420138849" lon="9.53916111879">
		<tag k="name" v="Brennatjerna" />
		<tag k="natural" v="water" />
		<tag k="ssr:stedsnr" v="736628" />
		<tag k="water" v="lake" />
	</node>
	<node id="-38895" lat="60.5962305592" lon="9.56175000078">
		<tag k="name" v="Trevassanden" />
		<tag k="natural" v="beach" />
		<tag k="ssr:stedsnr" v="483795" />
	</node>
	<node id="-38892" lat="60.5955611117" lon="9.76404165932">
		<tag k="name" v="Myrdalsbekken" />
		<tag k="ssr:stedsnr" v="483496" />
		<tag k="waterway" v="stream" />
	</node>
	<node id="-38886" lat="60.7820416637" lon="9.56959444159">
		<tag k="name" v="Geitføssen" />
		<tag k="natural" v="waterfall" />
		<tag k="ssr:stedsnr" v="483099" />
	</node>
	<node id="-40933" lat="60.6157694482" lon="9.58563056106">
		<tag k="name" v="Brennhølputten" />
		<tag k="natural" v="water" />
		<tag k="ssr:stedsnr" v="645889" />
	</node>
	<node id="-40931" lat="60.7825333294" lon="9.79126944408">
		<tag k="name" v="Øystre Morten" />
		<tag k="natural" v="water" />
		<tag k="ssr:stedsnr" v="645483" />
	</node>
	<node id="-40930" lat="60.7621250034" lon="9.80086945103">
		<tag k="name" v="Øvre Våvålsvatn" />
		<tag k="natural" v="water" />
		<tag k="ssr:stedsnr" v="645473" />
	</node>
	<node id="-38880" lat="60.7203833315" lon="9.41625833923">
		<tag k="name" v="Storøye" />
		<tag k="place" v="islet" />
		<tag k="ssr:stedsnr" v="482988" />
	</node>
	<node id="-40927" lat="60.6655555537" lon="9.6308666681">
		<tag k="name" v="Haraldsetbekken" />
		<tag k="ssr:stedsnr" v="645293" />
		<tag k="waterway" v="stream" />
	</node>
	<node id="-40925" lat="60.6600277759" lon="9.49769444693">
		<tag k="name" v="Brennputten" />
		<tag k="natural" v="water" />
		<tag k="ssr:stedsnr" v="645270" />
	</node>
	<node id="-38875" lat="60.8266361142" lon="9.52426388888">
		<tag k="name" v="Juvkamsføssen" />
		<tag k="natural" v="waterfall" />
		<tag k="ssr:stedsnr" v="482790" />
	</node>
	<node id="-38871" lat="60.6121527782" lon="9.52433610545">
		<tag k="name" v="Søbekksanden" />
		<tag k="natural" v="beach" />
		<tag k="ssr:stedsnr" v="482263" />
	</node>
	<node id="-38905" lat="60.4681805568" lon="9.82630278296">
		<tag k="name" v="Småtjerna" />
		<tag k="natural" v="water" />
		<tag k="ssr:stedsnr" v="491888" />
		<tag k="water" v="lake" />
	</node>
	<node id="-40905" lat="60.692035827" lon="9.85844475113">
		<tag k="alt_name" v="Buvatnet, nordre" />
		<tag k="name" v="Nordre Buvatnet" />
		<tag k="natural" v="water" />
		<tag k="ssr:stedsnr" v="614899" />
		<tag k="water" v="lake" />
	</node>
	<node id="-40898" lat="60.5997583341" lon="9.90959165981">
		<tag k="name" v="Svarttjern" />
		<tag k="natural" v="water" />
		<tag k="ssr:stedsnr" v="613926" />
	</node>
	<node id="-38848" lat="60.6271722211" lon="9.37320832766">
		<tag k="name" v="Meen" />
		<tag k="natural" v="strait" />
		<tag k="ssr:stedsnr" v="301772" />
	</node>
	<node id="-38845" lat="60.7767416685" lon="9.39232777456">
		<tag k="name" v="Øvre Steinvatnet" />
		<tag k="natural" v="water" />
		<tag k="ssr:stedsnr" v="301655" />
	</node>
	<node id="-40892" lat="60.6035500024" lon="9.93568889676">
		<tag k="name" v="Kanabekken" />
		<tag k="ssr:stedsnr" v="613916" />
		<tag k="waterway" v="stream" />
	</node>
	<node id="-40891" lat="60.6029305541" lon="9.83781944503">
		<tag k="name" v="Plasstjernet" />
		<tag k="natural" v="water" />
		<tag k="ssr:stedsnr" v="613914" />
	</node>
	<node id="-40890" lat="60.6790000022" lon="9.64176665835">
		<tag k="alt_name" v="Ulevassbekken" />
		<tag k="name" v="Urdevassbekken" />
		<tag k="ssr:stedsnr" v="613911" />
		<tag k="waterway" v="stream" />
	</node>
	<node id="-38559" lat="60.7364166624" lon="9.4782361165">
		<tag k="name" v="Kjeldemyrbekken" />
		<tag k="ssr:stedsnr" v="240244" />
		<tag k="waterway" v="stream" />
	</node>
	<node id="-38840" lat="60.5921972205" lon="9.43875555951">
		<tag k="name" v="Elgeputten" />
		<tag k="natural" v="water" />
		<tag k="ssr:stedsnr" v="301360" />
	</node>
	<node id="-40886" lat="60.7057000023" lon="9.8875583303">
		<tag k="alt_name" v="Hestedalsætertjernet, vestre" />
		<tag k="name" v="Vestre Hestedalsætertjernet" />
		<tag k="natural" v="water" />
		<tag k="ssr:stedsnr" v="613889" />
	</node>
	<node id="-40881" lat="60.6884888915" lon="9.38709443756">
		<tag k="alt_name" v="Alketjern, nedre" />
		<tag k="name" v="Nedre Alketjern" />
		<tag k="natural" v="water" />
		<tag k="ssr:stedsnr" v="613695" />
	</node>
	<node id="-40880" lat="60.688469445" lon="9.57516110633">
		<tag k="name" v="Muggedøla" />
		<tag k="ssr:stedsnr" v="613682" />
		<tag k="waterway" v="river" />
	</node>
	<node id="-38831" lat="60.642974998" lon="10.0313388975">
		<tag k="name" v="Dytthøltjernet" />
		<tag k="natural" v="water" />
		<tag k="ssr:stedsnr" v="300177" />
	</node>
	<node id="-38830" lat="60.6724249963" lon="9.90021388495">
		<tag k="name" v="Kroken" />
		<tag k="natural" v="water" />
		<tag k="ssr:stedsnr" v="300015" />
		<tag k="water" v="lake" />
	</node>
	<node id="-40877" lat="60.5090083358" lon="9.63865556217">
		<tag k="name" v="Brunbakkvatnet" />
		<tag k="natural" v="water" />
		<tag k="ssr:stedsnr" v="613867" />
	</node>
	<node id="-40876" lat="60.5469934411" lon="9.42385572117">
		<tag k="alt_name" v="Grunntjern, øvre" />
		<tag k="name" v="Øvre Grunntjern" />
		<tag k="natural" v="water" />
		<tag k="ssr:stedsnr" v="613863" />
	</node>
	<node id="-38827" lat="60.8310388877" lon="9.62640833048">
		<tag k="name" v="Mutthøl" />
		<tag k="natural" v="bay" />
		<tag k="ssr:stedsnr" v="464998" />
	</node>
	<node id="-40874" lat="60.7376861147" lon="9.7685583331">
		<tag k="alt_name" v="Gravvatnet, store" />
		<tag k="name" v="Store Gravvatnet" />
		<tag k="natural" v="water" />
		<tag k="ssr:stedsnr" v="613795" />
	</node>
	<node id="-40872" lat="60.7159416688" lon="9.30065277031">
		<tag k="alt_name" v="Raudalselve;Raudalsbekken" />
		<tag k="name" v="Rauddalselve" />
		<tag k="ssr:stedsnr" v="613537" />
		<tag k="waterway" v="stream" />
	</node>
	<node id="-40870" lat="60.6245111128" lon="9.48637500623">
		<tag k="alt_name" v="Huldrevatnet" />
		<tag k="name" v="Huldretjern" />
		<tag k="natural" v="water" />
		<tag k="ssr:stedsnr" v="613622" />
	</node>
	<node id="-40864" lat="60.7815333344" lon="9.61686665845">
		<tag k="name" v="Ivarshølen" />
		<tag k="place" v="locality" />
		<tag k="ssr:stedsnr" v="604888" />
	</node>
	<node id="-38896" lat="60.5870055521" lon="9.66154722567">
		<tag k="name" v="Storebekkputten" />
		<tag k="natural" v="water" />
		<tag k="ssr:stedsnr" v="483800" />
	</node>
	<node id="-38808" lat="60.6181749992" lon="9.92575555557">
		<tag k="name" v="Valdresstrømmen" />
		<tag k="ssr:stedsnr" v="272914" />
		<tag k="waterway" v="rapids" />
	</node>
	<node id="-40855" lat="60.5941138913" lon="9.60748888387">
		<tag k="name" v="Helfastputten" />
		<tag k="natural" v="water" />
		<tag k="ssr:stedsnr" v="604775" />
	</node>
	<node id="-38802" lat="60.5973638896" lon="9.65249999409">
		<tag k="name" v="Ostebekk" />
		<tag k="ssr:stedsnr" v="240762" />
		<tag k="waterway" v="stream" />
	</node>
	<node id="-38799" lat="60.5678111141" lon="9.8145722259">
		<tag k="name" v="Plommetjernbekken" />
		<tag k="ssr:stedsnr" v="240759" />
		<tag k="waterway" v="stream" />
	</node>
	<node id="-40845" lat="60.7791611145" lon="9.76895277738">
		<tag k="name" v="Bjødnaputten" />
		<tag k="natural" v="water" />
		<tag k="ssr:stedsnr" v="604171" />
	</node>
	<node id="-40843" lat="60.6154083297" lon="9.70959444011">
		<tag k="name" v="Stamfoss" />
		<tag k="natural" v="waterfall" />
		<tag k="ssr:stedsnr" v="604457" />
	</node>
	<node id="-38793" lat="60.7893722194" lon="9.43558055429">
		<tag k="name" v="Steintjernet" />
		<tag k="natural" v="water" />
		<tag k="old_name" v="Steintjednet" />
		<tag k="ssr:stedsnr" v="240672" />
	</node>
	<node id="-40833" lat="60.7559666627" lon="9.59483610919">
		<tag k="name" v="Nyseterbekken" />
		<tag k="ssr:stedsnr" v="604093" />
		<tag k="waterway" v="stream" />
	</node>
	<node id="-38783" lat="60.8489805588" lon="9.56148055606">
		<tag k="name" v="Knatteputten" />
		<tag k="natural" v="water" />
		<tag k="ssr:stedsnr" v="295897" />
		<tag k="water" v="pond" />
	</node>
	<node id="-40830" lat="60.7122722191" lon="9.55696389278">
		<tag k="name" v="Dødsensputt" />
		<tag k="natural" v="water" />
		<tag k="ssr:stedsnr" v="604078" />
	</node>
	<node id="-40829" lat="60.742908333" lon="9.56446944435">
		<tag k="name" v="Suluputten" />
		<tag k="natural" v="water" />
		<tag k="ssr:stedsnr" v="604067" />
		<tag k="water" v="pond" />
	</node>
	<node id="-38775" lat="60.7855194408" lon="9.76283611266">
		<tag k="name" v="Mekjelstjernet" />
		<tag k="natural" v="water" />
		<tag k="old_name" v="Mekjelstjednet" />
		<tag k="ssr:stedsnr" v="180166" />
	</node>
	<node id="-38773" lat="60.629074997" lon="9.41845000516">
		<tag k="name" v="Øvre Silkevatn" />
		<tag k="natural" v="water" />
		<tag k="ssr:stedsnr" v="179776" />
	</node>
	<node id="-38771" lat="60.7924222218" lon="9.28805556416">
		<tag k="name" v="Langetjernbekken" />
		<tag k="old_name" v="Langetjednbekken" />
		<tag k="ssr:stedsnr" v="179757" />
		<tag k="waterway" v="stream" />
	</node>
	<node id="-38770" lat="60.5966611125" lon="9.65002222385">
		<tag k="name" v="Storebekk" />
		<tag k="ssr:stedsnr" v="179714" />
		<tag k="waterway" v="stream" />
	</node>
	<node id="-40817" lat="60.8286277762" lon="9.6224472155">
		<tag k="name" v="Mørkedalsbekken" />
		<tag k="ssr:stedsnr" v="585998" />
		<tag k="waterway" v="stream" />
	</node>
	<node id="-40816" lat="60.8046499957" lon="9.63065556159">
		<tag k="name" v="Sandbekken" />
		<tag k="ssr:stedsnr" v="585985" />
		<tag k="waterway" v="stream" />
	</node>
	<node id="-40815" lat="60.8139138915" lon="9.57080000222">
		<tag k="name" v="Vavike" />
		<tag k="natural" v="bay" />
		<tag k="ssr:stedsnr" v="585974" />
	</node>
	<node id="-40813" lat="60.8203500027" lon="9.58547500675">
		<tag k="name" v="Knednaelve" />
		<tag k="ssr:stedsnr" v="585967" />
		<tag k="waterway" v="stream" />
	</node>
	<node id="-40810" lat="60.8132944462" lon="9.49979443559">
		<tag k="name" v="Høghaugputten" />
		<tag k="natural" v="water" />
		<tag k="ssr:stedsnr" v="585818" />
		<tag k="water" v="pond" />
	</node>
	<node id="-40806" lat="60.515672221" lon="9.80394444735">
		<tag k="name" v="Kistebekken" />
		<tag k="ssr:stedsnr" v="585771" />
		<tag k="waterway" v="stream" />
	</node>
	<node id="-38756" lat="60.7563944409" lon="9.64806943858">
		<tag k="name" v="Svae" />
		<tag k="natural" v="waterfall" />
		<tag k="ssr:stedsnr" v="282904" />
	</node>
	<node id="-40802" lat="60.591655559" lon="9.55698611474">
		<tag k="name" v="Trevassbekken" />
		<tag k="ssr:stedsnr" v="585887" />
		<tag k="waterway" v="stream" />
	</node>
	<node id="-40801" lat="60.7851055586" lon="9.34182778594">
		<tag k="name" v="Gørrtjernet" />
		<tag k="natural" v="water" />
		<tag k="old_name" v="Gørrtjednet" />
		<tag k="ssr:stedsnr" v="585566" />
	</node>
	<node id="-40799" lat="60.6285138857" lon="9.46144166919">
		<tag k="name" v="Godvassbekken" />
		<tag k="natural" v="water" />
		<tag k="ssr:stedsnr" v="585246" />
	</node>
	<node id="-38749" lat="60.7905666636" lon="9.38321111216">
		<tag k="name" v="Mjølintjernet" />
		<tag k="natural" v="water" />
		<tag k="old_name" v="Mjølintjednet" />
		<tag k="ssr:stedsnr" v="282582" />
	</node>
	<node id="-40796" lat="60.6241611118" lon="9.5306611173">
		<tag k="name" v="Helsenningsdammen" />
		<tag k="ssr:stedsnr" v="585240" />
		<tag k="waterway" v="dam" />
	</node>
	<node id="-38746" lat="60.7894861125" lon="9.79242500567">
		<tag k="name" v="Heimtjernet" />
		<tag k="natural" v="water" />
		<tag k="old_name" v="Heimtjednet" />
		<tag k="ssr:stedsnr" v="282482" />
	</node>
	<node id="-40793" lat="60.713805559" lon="9.71049443972">
		<tag k="name" v="Kølskålhølen" />
		<tag k="place" v="locality" />
		<tag k="ssr:stedsnr" v="585197" />
	</node>
	<node id="-40792" lat="60.7287694432" lon="9.74315833073">
		<tag k="name" v="Liarosputten" />
		<tag k="natural" v="water" />
		<tag k="ssr:stedsnr" v="585195" />
	</node>
	<node id="-38743" lat="60.6540027799" lon="9.54762500713">
		<tag k="name" v="Nysæterputten" />
		<tag k="natural" v="water" />
		<tag k="ssr:stedsnr" v="282260" />
	</node>
	<node id="-40790" lat="60.785433331" lon="9.49455277036">
		<tag k="name" v="Kluftebekken" />
		<tag k="ssr:stedsnr" v="585178" />
		<tag k="waterway" v="stream" />
	</node>
	<node id="-38740" lat="60.6281138846" lon="9.51227499425">
		<tag k="name" v="Skartjern" />
		<tag k="natural" v="water" />
		<tag k="ssr:stedsnr" v="282247" />
	</node>
	<node id="-40786" lat="60.7582805528" lon="9.53592499341">
		<tag k="name" v="Svartsætertjernet" />
		<tag k="natural" v="water" />
		<tag k="old_name" v="Svartsætertjednet" />
		<tag k="ssr:stedsnr" v="555736" />
	</node>
	<node id="-38736" lat="60.7117249973" lon="9.62168332506">
		<tag k="name" v="Fiskedammen" />
		<tag k="natural" v="water" />
		<tag k="ssr:stedsnr" v="282161" />
	</node>
	<node id="-40783" lat="60.7659805598" lon="9.34912778402">
		<tag k="name" v="Bjødalstjernet" />
		<tag k="natural" v="water" />
		<tag k="old_name" v="Bjødalstjednet" />
		<tag k="ssr:stedsnr" v="555791" />
	</node>
	<node id="-38730" lat="60.543600001" lon="9.78130278093">
		<tag k="name" v="Storrustedammen" />
		<tag k="natural" v="water" />
		<tag k="ssr:stedsnr" v="160658" />
		<tag k="water" v="lake" />
	</node>
	<node id="-38728" lat="60.7980166695" lon="9.32957499164">
		<tag k="name" v="Sangepullen" />
		<tag k="natural" v="water" />
		<tag k="ssr:stedsnr" v="160518" />
	</node>
	<node id="-40773" lat="60.7745166711" lon="9.7618166699">
		<tag k="name" v="Mortbekken" />
		<tag k="ssr:stedsnr" v="554145" />
		<tag k="waterway" v="stream" />
	</node>
	<node id="-38722" lat="60.6591999981" lon="9.4422166644">
		<tag k="name" v="Kråketjernsbekken" />
		<tag k="ssr:stedsnr" v="160273" />
		<tag k="waterway" v="stream" />
	</node>
	<node id="-40768" lat="60.6960138846" lon="9.84773055313">
		<tag k="alt_name" v="Fløten" />
		<tag k="name" v="Kjerstifløyten" />
		<tag k="natural" v="water" />
		<tag k="ssr:stedsnr" v="553911" />
	</node>
	<node id="-40762" lat="60.7111916659" lon="9.82447500899">
		<tag k="alt_name" v="Bergevasselva;Bergavasselve" />
		<tag k="name" v="Bergvasselva" />
		<tag k="ssr:stedsnr" v="553988" />
		<tag k="waterway" v="stream" />
	</node>
	<node id="-40760" lat="60.6455916636" lon="9.9462472246">
		<tag k="name" v="Nygardstjernet" />
		<tag k="natural" v="water" />
		<tag k="ssr:stedsnr" v="553975" />
	</node>
	<node id="-40756" lat="60.5615750039" lon="9.77431944657">
		<tag k="alt_name" v="Skomakertjernet" />
		<tag k="name" v="Skomakartjernet" />
		<tag k="natural" v="water" />
		<tag k="ssr:stedsnr" v="553841" />
	</node>
	<node id="-38707" lat="60.8391361098" lon="9.37526388638">
		<tag k="name" v="Kalvetjerne" />
		<tag k="natural" v="water" />
		<tag k="old_name" v="Kælvetjedne" />
		<tag k="ssr:stedsnr" v="129615" />
		<tag k="water" v="lake" />
	</node>
	<node id="-40752" lat="60.7139277777" lon="9.9803083353">
		<tag k="alt_name" v="Langevatn" />
		<tag k="name" v="Langvatnet" />
		<tag k="natural" v="water" />
		<tag k="ssr:stedsnr" v="553806" />
	</node>
	<node id="-40751" lat="60.5394499969" lon="9.81193611267">
		<tag k="name" v="Vidalsoset" />
		<tag k="natural" v="bay" />
		<tag k="ssr:stedsnr" v="553859" />
	</node>
	<node id="-40750" lat="60.6602222207" lon="9.43228055951">
		<tag k="name" v="Langtjern" />
		<tag k="natural" v="water" />
		<tag k="ssr:stedsnr" v="553746" />
	</node>
	<node id="-40748" lat="60.5985571673" lon="9.43506165194">
		<tag k="name" v="Strøsdammen" />
		<tag k="ssr:stedsnr" v="553674" />
		<tag k="waterway" v="dam" />
	</node>
	<node id="-40747" lat="60.6597249988" lon="9.37347777967">
		<tag k="name" v="Vangen" />
		<tag k="natural" v="water" />
		<tag k="ssr:stedsnr" v="553755" />
		<tag k="water" v="lake" />
	</node>
	<node id="-40746" lat="60.6343878374" lon="9.48946918281">
		<tag k="name" v="Vinstrevatna" />
		<tag k="natural" v="water" />
		<tag k="ssr:stedsnr" v="553643" />
		<tag k="water" v="lake" />
	</node>
	<node id="-40745" lat="60.6436055588" lon="9.98149999784">
		<tag k="name" v="Gullelva" />
		<tag k="ssr:stedsnr" v="553640" />
		<tag k="waterway" v="river" />
	</node>
	<node id="-40744" lat="60.6350999965" lon="10.0276749971">
		<tag k="name" v="Vaskebekken" />
		<tag k="ssr:stedsnr" v="553636" />
		<tag k="waterway" v="stream" />
	</node>
	<node id="-40742" lat="60.7284499985" lon="9.44328333186">
		<tag k="alt_name" v="Bukfyllvatnet, nedre" />
		<tag k="name" v="Nedre Bukfyllvatnet" />
		<tag k="natural" v="water" />
		<tag k="ssr:stedsnr" v="553559" />
		<tag k="water" v="lake" />
	</node>
	<node id="-40741" lat="60.7459805525" lon="9.47582499793">
		<tag k="name" v="Øytjernet" />
		<tag k="natural" v="water" />
		<tag k="old_name" v="Øytjednet" />
		<tag k="ssr:stedsnr" v="553553" />
	</node>
	<node id="-38692" lat="60.6718749961" lon="9.58567500213">
		<tag k="name" v="Svartetjern" />
		<tag k="natural" v="water" />
		<tag k="ssr:stedsnr" v="128725" />
	</node>
	<node id="-40739" lat="60.738474996" lon="9.3285805516">
		<tag k="name" v="Ormetjernet" />
		<tag k="natural" v="water" />
		<tag k="old_name" v="Ørmetjednet" />
		<tag k="ssr:stedsnr" v="553547" />
	</node>
	<node id="-38690" lat="60.6592999978" lon="9.4909972262">
		<tag k="name" v="Damtjern" />
		<tag k="natural" v="water" />
		<tag k="ssr:stedsnr" v="128715" />
	</node>
	<node id="-40737" lat="60.7177972201" lon="9.36227499582">
		<tag k="name" v="Kvannebekken" />
		<tag k="ssr:stedsnr" v="553528" />
		<tag k="waterway" v="stream" />
	</node>
	<node id="-40736" lat="60.7221388925" lon="9.42877500759">
		<tag k="name" v="Barbroputten" />
		<tag k="natural" v="water" />
		<tag k="ssr:stedsnr" v="553526" />
	</node>
	<node id="-38687" lat="60.4943888872" lon="9.72624166572">
		<tag k="name" v="Steinhyttbekken" />
		<tag k="ssr:stedsnr" v="127938" />
		<tag k="waterway" v="stream" />
	</node>
	<node id="-40733" lat="60.5784111133" lon="9.72551945087">
		<tag k="alt_name" v="Fossbrøtta" />
		<tag k="name" v="Fossbrøyta" />
		<tag k="ssr:stedsnr" v="552949" />
		<tag k="waterway" v="river" />
	</node>
	<node id="-38684" lat="60.7796888904" lon="9.31828055681">
		<tag k="name" v="Øytjernbekken" />
		<tag k="old_name" v="Øytjednbekken" />
		<tag k="ssr:stedsnr" v="119789" />
		<tag k="waterway" v="stream" />
	</node>
	<node id="-38682" lat="60.5862055599" lon="9.55167222081">
		<tag k="name" v="Nedre Trevatnet" />
		<tag k="natural" v="water" />
		<tag k="ssr:stedsnr" v="119766" />
	</node>
	<node id="-38681" lat="60.5846888876" lon="9.59024443877">
		<tag k="name" v="Vesterbusua" />
		<tag k="ssr:stedsnr" v="119764" />
		<tag k="waterway" v="stream" />
	</node>
	<node id="-40728" lat="60.7282944447" lon="9.87201389278">
		<tag k="alt_name" v="Sandtjernet, l;Lille Sandtjernet" />
		<tag k="name" v="Vesle Sandtjern" />
		<tag k="natural" v="water" />
		<tag k="old_name" v="Vesle Sandtjedn" />
		<tag k="ssr:stedsnr" v="552984" />
	</node>
	<node id="-40726" lat="60.7383507502" lon="9.95458831742">
		<tag k="name" v="Kluftsjøen" />
		<tag k="natural" v="water" />
		<tag k="ssr:stedsnr" v="552972" />
		<tag k="water" v="lake" />
	</node>
	<node id="-40725" lat="60.6531194414" lon="9.72789444608">
		<tag k="alt_name" v="Dalengbekken" />
		<tag k="name" v="Dallingbekken" />
		<tag k="ssr:stedsnr" v="552964" />
		<tag k="waterway" v="stream" />
	</node>
	<node id="-40721" lat="60.6758055557" lon="9.62325277679">
		<tag k="alt_name" v="Ulevatnet" />
		<tag k="name" v="Urdevatnet" />
		<tag k="natural" v="water" />
		<tag k="ssr:stedsnr" v="552955" />
	</node>
	<node id="-40719" lat="60.52978333" lon="9.61158610227">
		<tag k="name" v="Fjellelva" />
		<tag k="ssr:stedsnr" v="552923" />
		<tag k="waterway" v="stream" />
	</node>
	<node id="-40715" lat="60.6529638931" lon="9.41263889144">
		<tag k="name" v="Teinvassbekken" />
		<tag k="ssr:stedsnr" v="552745" />
		<tag k="waterway" v="stream" />
	</node>
	<node id="-40713" lat="60.6814111147" lon="9.31963334134">
		<tag k="name" v="Valdresbekken" />
		<tag k="ssr:stedsnr" v="552731" />
		<tag k="waterway" v="stream" />
	</node>
	<node id="-38664" lat="60.8042499984" lon="9.80297500831">
		<tag k="name" v="Løken" />
		<tag k="natural" v="water" />
		<tag k="ssr:stedsnr" v="252190" />
	</node>
	<node id="-40705" lat="60.6334766991" lon="9.48565678185">
		<tag k="name" v="Vesle Vinstrevatnet" />
		<tag k="natural" v="water" />
		<tag k="ssr:stedsnr" v="544628" />
	</node>
	<node id="-40701" lat="60.760525001" lon="9.35144443682">
		<tag k="name" v="Kvannebekken" />
		<tag k="ssr:stedsnr" v="543985" />
		<tag k="waterway" v="stream" />
	</node>
	<node id="-38642" lat="60.615575004" lon="9.60495277408">
		<tag k="alt_name" v="Jøstjern" />
		<tag k="name" v="Ljostjernet" />
		<tag k="natural" v="water" />
		<tag k="ssr:stedsnr" v="250880" />
	</node>
	<node id="-38641" lat="60.7025583347" lon="9.88966945197">
		<tag k="name" v="Triungtjerna" />
		<tag k="natural" v="water" />
		<tag k="ssr:stedsnr" v="250874" />
		<tag k="water" v="lake" />
	</node>
	<node id="-40688" lat="60.5658861102" lon="9.48192222163">
		<tag k="name" v="Vassfarsæterputten" />
		<tag k="natural" v="water" />
		<tag k="ssr:stedsnr" v="543386" />
	</node>
	<node id="-38638" lat="60.5821166671" lon="9.50265276981">
		<tag k="fixme" v="multiple name tags, choose one and add the other to alt_name" />
		<tag k="name" v="Skjennungvatnet;Østre Krokvatnet" />
		<tag k="natural" v="water" />
		<tag k="ssr:stedsnr" v="250807" />
	</node>
	<node id="-40685" lat="60.8082777771" lon="9.50836667065">
		<tag k="name" v="Vardesæterputten" />
		<tag k="natural" v="water" />
		<tag k="ssr:stedsnr" v="543273" />
		<tag k="water" v="pond" />
	</node>
	<node id="-38636" lat="60.5816414516" lon="9.54814500666">
		<tag k="name" v="Trevatna" />
		<tag k="natural" v="water" />
		<tag k="ssr:stedsnr" v="250805" />
		<tag k="water" v="lake" />
	</node>
	<node id="-38635" lat="60.5599416689" lon="9.61554722948">
		<tag k="name" v="Langtjernet" />
		<tag k="natural" v="water" />
		<tag k="ssr:stedsnr" v="250801" />
	</node>
	<node id="-38633" lat="60.6654333331" lon="9.36750555119">
		<tag k="name" v="Reidartjern" />
		<tag k="natural" v="water" />
		<tag k="ssr:stedsnr" v="250735" />
	</node>
	<node id="-40680" lat="60.8167638897" lon="9.68693610301">
		<tag k="name" v="Styggeputt" />
		<tag k="natural" v="water" />
		<tag k="ssr:stedsnr" v="543090" />
		<tag k="water" v="pond" />
	</node>
	<node id="-40678" lat="60.7304694456" lon="9.65326110594">
		<tag k="name" v="Kraftulbekken" />
		<tag k="ssr:stedsnr" v="543222" />
		<tag k="waterway" v="stream" />
	</node>
	<node id="-40677" lat="60.7292111111" lon="9.66210000882">
		<tag k="name" v="Langebergputten" />
		<tag k="natural" v="water" />
		<tag k="ssr:stedsnr" v="543218" />
		<tag k="water" v="pond" />
	</node>
	<node id="-40676" lat="60.75791667" lon="9.69930834224">
		<tag k="fixme" v="multiple name tags, choose one and add the other to alt_name" />
		<tag k="name" v="Pullebekken;Sagbekken" />
		<tag k="ssr:stedsnr" v="543186" />
		<tag k="waterway" v="stream" />
	</node>
	<node id="-38627" lat="60.7271277758" lon="9.73501389708">
		<tag k="alt_name" v="Bakkeputten" />
		<tag k="name" v="Eidsbakkeputten" />
		<tag k="natural" v="water" />
		<tag k="ssr:stedsnr" v="249969" />
	</node>
	<node id="-38626" lat="60.7246088768" lon="9.76075945658">
		<tag k="alt_name" v="Vesteråsputten" />
		<tag k="name" v="Vesteråspullen" />
		<tag k="natural" v="water" />
		<tag k="ssr:stedsnr" v="249965" />
	</node>
	<node id="-38624" lat="60.639994443" lon="9.74218888703">
		<tag k="name" v="Strandbråtabekken" />
		<tag k="ssr:stedsnr" v="249962" />
		<tag k="waterway" v="stream" />
	</node>
	<node id="-40669" lat="60.6248305563" lon="9.83850000091">
		<tag k="alt_name" v="Lomtjerna" />
		<tag k="name" v="Vestre Lomtjerna" />
		<tag k="natural" v="water" />
		<tag k="ssr:stedsnr" v="527859" />
		<tag k="water" v="lake" />
	</node>
	<node id="-38620" lat="60.7354944469" lon="9.63887778367">
		<tag k="alt_name" v="Kroneputt" />
		<tag k="name" v="Kronputten" />
		<tag k="natural" v="water" />
		<tag k="ssr:stedsnr" v="249940" />
		<tag k="water" v="pond" />
	</node>
	<node id="-38618" lat="60.5939500024" lon="9.89628334155">
		<tag k="name" v="Leirdammen" />
		<tag k="place" v="locality" />
		<tag k="ssr:stedsnr" v="249928" />
	</node>
	<node id="-38611" lat="60.6991277738" lon="9.93315276963">
		<tag k="alt_name" v="Venetjern" />
		<tag k="name" v="Ventjern" />
		<tag k="natural" v="water" />
		<tag k="ssr:stedsnr" v="249891" />
	</node>
	<node id="-40658" lat="60.7928083335" lon="9.39692500586">
		<tag k="name" v="Fjellbekken" />
		<tag k="ssr:stedsnr" v="524525" />
		<tag k="waterway" v="stream" />
	</node>
	<node id="-38607" lat="60.4780166692" lon="9.73002499307">
		<tag k="name" v="Fisketjernet" />
		<tag k="natural" v="water" />
		<tag k="ssr:stedsnr" v="249881" />
	</node>
	<node id="-38605" lat="60.550786112" lon="9.46905556421">
		<tag k="name" v="Fjellbekken" />
		<tag k="ssr:stedsnr" v="249858" />
		<tag k="waterway" v="stream" />
	</node>
	<node id="-38604" lat="60.7415283144" lon="9.72628073785">
		<tag k="name" v="Bruvatni" />
		<tag k="natural" v="water" />
		<tag k="ssr:stedsnr" v="249801" />
		<tag k="water" v="lake" />
	</node>
	<node id="-40649" lat="60.795780558" lon="9.53744444617">
		<tag k="name" v="Skarsputten" />
		<tag k="natural" v="water" />
		<tag k="ssr:stedsnr" v="524200" />
		<tag k="water" v="pond" />
	</node>
	<node id="-38600" lat="60.6889250004" lon="9.40765278216">
		<tag k="alt_name" v="Alketjernelva" />
		<tag k="name" v="Alketjernselvi" />
		<tag k="old_name" v="Eiketjennselva;Alketjednelve" />
		<tag k="ssr:stedsnr" v="249679" />
		<tag k="waterway" v="stream" />
	</node>
	<node id="-38599" lat="60.6139416678" lon="9.55773332454">
		<tag k="name" v="Andetjern" />
		<tag k="natural" v="water" />
		<tag k="ssr:stedsnr" v="249666" />
	</node>
	<node id="-38598" lat="60.7574666691" lon="9.61558333407">
		<tag k="name" v="Syndalssæterbekken" />
		<tag k="ssr:stedsnr" v="71917" />
		<tag k="waterway" v="stream" />
	</node>
	<node id="-40645" lat="60.7006527767" lon="9.9269777821">
		<tag k="name" v="Skinningsrudpullen" />
		<tag k="natural" v="water" />
		<tag k="ssr:stedsnr" v="524087" />
	</node>
	<node id="-40641" lat="60.7944758827" lon="9.30154368405">
		<tag k="alt_name" v="Sangevatni, l;Vesle Sangevatnet;Lille Sangevatni" />
		<tag k="name" v="Vesle Sangin" />
		<tag k="natural" v="water" />
		<tag k="ssr:stedsnr" v="434786" />
		<tag k="water" v="lake" />
	</node>
	<node id="-41248" lat="60.6398207643" lon="9.93569070549">
		<tag k="name" v="Puttebekken" />
		<tag k="ssr:stedsnr" v="971648" />
		<tag k="waterway" v="stream" />
	</node>
	<node id="-40638" lat="60.7710222216" lon="9.43346110246">
		<tag k="name" v="Haugabekken" />
		<tag k="ssr:stedsnr" v="434764" />
		<tag k="waterway" v="stream" />
	</node>
	<node id="-38588" lat="60.6681944401" lon="9.65458054927">
		<tag k="alt_name" v="Svartetjern" />
		<tag k="name" v="Svarttjernet" />
		<tag k="natural" v="water" />
		<tag k="ssr:stedsnr" v="67941" />
	</node>
	<node id="-40633" lat="60.7531583297" lon="9.92566111578">
		<tag k="alt_name" v="Langevatn" />
		<tag k="name" v="Langvatn" />
		<tag k="natural" v="water" />
		<tag k="ssr:stedsnr" v="434136" />
	</node>
	<node id="-38584" lat="60.6762138909" lon="9.82374165842">
		<tag k="name" v="Åbortjernet" />
		<tag k="natural" v="water" />
		<tag k="ssr:stedsnr" v="67915" />
	</node>
	<node id="-38583" lat="60.6002277762" lon="9.81298611192">
		<tag k="alt_name" v="Andetjern" />
		<tag k="name" v="Andtjernet" />
		<tag k="natural" v="water" />
		<tag k="ssr:stedsnr" v="67914" />
	</node>
	<node id="-38581" lat="60.578841669" lon="9.91983055169">
		<tag k="name" v="Leira" />
		<tag k="ssr:stedsnr" v="67905" />
		<tag k="waterway" v="river" />
	</node>
	<node id="-38575" lat="60.6995333308" lon="9.42775278543">
		<tag k="name" v="Storvike" />
		<tag k="natural" v="bay" />
		<tag k="ssr:stedsnr" v="240843" />
	</node>
	<node id="-40620" lat="60.7191527799" lon="9.79190555569">
		<tag k="name" v="Rundputten" />
		<tag k="natural" v="water" />
		<tag k="ssr:stedsnr" v="432973" />
		<tag k="water" v="pond" />
	</node>
	<node id="-38571" lat="60.7494944461" lon="9.50893889544">
		<tag k="name" v="Pipesjugurhølen" />
		<tag k="place" v="locality" />
		<tag k="ssr:stedsnr" v="240482" />
	</node>
	<node id="-38569" lat="60.7406805557" lon="9.53842777418">
		<tag k="name" v="Øddatn" />
		<tag k="natural" v="cape" />
		<tag k="ssr:stedsnr" v="240477" />
	</node>
	<node id="-38568" lat="60.6081972222" lon="9.70428889454">
		<tag k="name" v="Tjærehjellbekken" />
		<tag k="ssr:stedsnr" v="240476" />
		<tag k="waterway" v="stream" />
	</node>
	<node id="-40612" lat="60.7039638929" lon="9.96320833581">
		<tag k="alt_name" v="Tranetjernet, nedre" />
		<tag k="name" v="Nedre Tranetjernet" />
		<tag k="natural" v="water" />
		<tag k="ssr:stedsnr" v="432888" />
	</node>
	<node id="-38563" lat="60.6067805598" lon="9.48398055733">
		<tag k="name" v="Mebekken" />
		<tag k="ssr:stedsnr" v="240393" />
		<tag k="waterway" v="stream" />
	</node>
	<node id="-38562" lat="60.6069861095" lon="9.47394443681">
		<tag k="name" v="Helserøya" />
		<tag k="place" v="island" />
		<tag k="ssr:stedsnr" v="240391" />
	</node>
	<node id="-40608" lat="60.7392888907" lon="9.6689083246">
		<tag k="name" v="Storlibekken" />
		<tag k="ssr:stedsnr" v="432790" />
		<tag k="waterway" v="stream" />
	</node>
	<node id="-40607" lat="60.5184333357" lon="9.68592777827">
		<tag k="name" v="Krokbekken" />
		<tag k="ssr:stedsnr" v="432877" />
		<tag k="waterway" v="stream" />
	</node>
	<node id="-38558" lat="60.7434500019" lon="9.92311388898">
		<tag k="name" v="Bjørndalstjerna" />
		<tag k="natural" v="water" />
		<tag k="ssr:stedsnr" v="240193" />
		<tag k="water" v="lake" />
	</node>
	<node id="-40603" lat="60.7142111151" lon="9.57916666257">
		<tag k="alt_name" v="Store Øyvatnet" />
		<tag k="name" v="Øyvatn" />
		<tag k="natural" v="water" />
		<tag k="ssr:stedsnr" v="432517" />
	</node>
	<node id="-38552" lat="60.7669749983" lon="9.76795833678">
		<tag k="name" v="Fabroputt" />
		<tag k="natural" v="water" />
		<tag k="ssr:stedsnr" v="240141" />
	</node>
	<node id="-40596" lat="60.629333335" lon="9.36722777965">
		<tag k="name" v="Strøstjern" />
		<tag k="natural" v="water" />
		<tag k="ssr:stedsnr" v="431662" />
	</node>
	<node id="-40595" lat="60.7288444433" lon="9.61878054658">
		<tag k="name" v="Øykjevatnet" />
		<tag k="natural" v="water" />
		<tag k="ssr:stedsnr" v="431959" />
	</node>
	<node id="-38546" lat="60.7810166685" lon="9.58193055491">
		<tag k="name" v="Vassteinbekken" />
		<tag k="ssr:stedsnr" v="240085" />
		<tag k="waterway" v="stream" />
	</node>
	<node id="-40593" lat="60.4891166683" lon="9.79586111404">
		<tag k="name" v="Godmatdalsbekken" />
		<tag k="ssr:stedsnr" v="431947" />
		<tag k="waterway" v="stream" />
	</node>
	<node id="-40592" lat="60.6636666634" lon="9.789938884">
		<tag k="name" v="Storbråtabekken" />
		<tag k="ssr:stedsnr" v="431941" />
		<tag k="waterway" v="stream" />
	</node>
	<node id="-40591" lat="60.5589451337" lon="9.4136797679">
		<tag k="name" v="Dreparhølen" />
		<tag k="place" v="locality" />
		<tag k="ssr:stedsnr" v="431879" />
	</node>
	<node id="-40590" lat="60.5625283943" lon="9.52303034193">
		<tag k="name" v="Myggtjerna" />
		<tag k="natural" v="water" />
		<tag k="ssr:stedsnr" v="431868" />
		<tag k="water" v="lake" />
	</node>
	<node id="-40586" lat="60.8522500031" lon="9.41377222862">
		<tag k="name" v="Ivarsputtatn" />
		<tag k="natural" v="water" />
		<tag k="ssr:stedsnr" v="423399" />
		<tag k="water" v="pond" />
	</node>
	<node id="-40585" lat="60.6897638918" lon="9.57509445342">
		<tag k="name" v="Reinsjødammen" />
		<tag k="ssr:stedsnr" v="423188" />
		<tag k="waterway" v="dam" />
	</node>
	<node id="-40581" lat="60.6440166656" lon="9.37710277927">
		<tag k="name" v="Grøvsputten" />
		<tag k="natural" v="water" />
		<tag k="ssr:stedsnr" v="422774" />
	</node>
	<node id="-38521" lat="60.7578555599" lon="9.79224999937">
		<tag k="alt_name" v="Vesle Holmevatn" />
		<tag k="name" v="Holmvatnet" />
		<tag k="natural" v="water" />
		<tag k="ssr:stedsnr" v="9147" />
	</node>
	<node id="-40565" lat="60.5970444475" lon="9.75945277935">
		<tag k="name" v="Pullebekken" />
		<tag k="ssr:stedsnr" v="422462" />
		<tag k="waterway" v="stream" />
	</node>
	<node id="-38515" lat="60.7976722228" lon="9.57213611655">
		<tag k="name" v="Sparkevikføssen" />
		<tag k="ssr:stedsnr" v="221988" />
		<tag k="waterway" v="rapids" />
	</node>
	<node id="-38509" lat="60.6224027757" lon="9.59617500375">
		<tag k="name" v="Skriuåsbekken" />
		<tag k="ssr:stedsnr" v="221866" />
		<tag k="waterway" v="stream" />
	</node>
	<node id="-38508" lat="60.7781750011" lon="9.65332500691">
		<tag k="name" v="Skiftesbekken" />
		<tag k="ssr:stedsnr" v="221862" />
		<tag k="waterway" v="stream" />
	</node>
	<node id="-40554" lat="60.8255361069" lon="9.66656110409">
		<tag k="name" v="Vangskjelvatn" />
		<tag k="natural" v="water" />
		<tag k="ssr:stedsnr" v="422087" />
	</node>
	<node id="-38505" lat="60.5345194407" lon="9.73465833612">
		<tag k="name" v="Fjøbekken" />
		<tag k="ssr:stedsnr" v="221804" />
		<tag k="waterway" v="stream" />
	</node>
	<node id="-40552" lat="60.8395805554" lon="9.54168610191">
		<tag k="name" v="Søre Brennotjernet" />
		<tag k="natural" v="water" />
		<tag k="old_name" v="Søre Brennotjednet" />
		<tag k="ssr:stedsnr" v="405876" />
	</node>
	<node id="-40550" lat="60.4960638847" lon="9.79674722172">
		<tag k="name" v="Stuttfjellputten" />
		<tag k="natural" v="water" />
		<tag k="ssr:stedsnr" v="403834" />
		<tag k="water" v="pond" />
	</node>
	<node id="-38500" lat="60.8431888908" lon="9.51210555233">
		<tag k="name" v="Søljukallevju" />
		<tag k="place" v="locality" />
		<tag k="ssr:stedsnr" v="221698" />
	</node>
	<node id="-38843" lat="60.6159027772" lon="9.74838888049">
		<tag k="name" v="Rustebekken" />
		<tag k="ssr:stedsnr" v="301510" />
		<tag k="waterway" v="stream" />
	</node>
	<node id="-40542" lat="60.793638893" lon="9.78018610642">
		<tag k="name" v="Ruglesteinbekken" />
		<tag k="ssr:stedsnr" v="403485" />
		<tag k="waterway" v="stream" />
	</node>
	<node id="-40540" lat="60.6731666674" lon="9.50551945263">
		<tag k="name" v="Muggedalsdammen" />
		<tag k="ssr:stedsnr" v="403370" />
		<tag k="waterway" v="dam" />
	</node>
	<node id="-38842" lat="60.5730444487" lon="9.4812888912">
		<tag k="name" v="Daufiskvatnet" />
		<tag k="natural" v="water" />
		<tag k="ssr:stedsnr" v="301372" />
	</node>
	<node id="-41231" lat="60.6151277805" lon="9.48409999162">
		<tag k="name" v="Helserpullen" />
		<tag k="natural" v="bay" />
		<tag k="ssr:stedsnr" v="968382" />
	</node>
	<node id="-40531" lat="60.7620250034" lon="9.31698888623">
		<tag k="alt_name" v="Vassvølla" />
		<tag k="name" v="Vassvolla" />
		<tag k="ssr:stedsnr" v="373797" />
		<tag k="waterway" v="stream" />
	</node>
	<node id="-40529" lat="60.8022388857" lon="9.32638889218">
		<tag k="name" v="Reinsjøen" />
		<tag k="natural" v="water" />
		<tag k="ssr:stedsnr" v="373838" />
	</node>
	<node id="-38480" lat="60.4933027815" lon="9.75810555651">
		<tag k="name" v="Klopptjerna" />
		<tag k="natural" v="water" />
		<tag k="ssr:stedsnr" v="6951" />
		<tag k="water" v="lake" />
	</node>
	<node id="-38479" lat="60.4820583329" lon="9.80462500269">
		<tag k="name" v="Grobekken" />
		<tag k="ssr:stedsnr" v="6944" />
		<tag k="waterway" v="stream" />
	</node>
	<node id="-38477" lat="60.607308332" lon="9.82826944886">
		<tag k="name" v="Gildra" />
		<tag k="ssr:stedsnr" v="6905" />
		<tag k="waterway" v="stream" />
	</node>
	<node id="-40523" lat="60.8192361151" lon="9.66334443851">
		<tag k="name" v="Veitevatnet" />
		<tag k="natural" v="water" />
		<tag k="ssr:stedsnr" v="373185" />
	</node>
	<node id="-40520" lat="60.8268972238" lon="9.43561111747">
		<tag k="name" v="Reina" />
		<tag k="ssr:stedsnr" v="372876" />
		<tag k="waterway" v="river" />
	</node>
	<node id="-40518" lat="60.8289722241" lon="9.40088611545">
		<tag k="name" v="Tempeltjernet" />
		<tag k="natural" v="water" />
		<tag k="old_name" v="Tempeltjednet" />
		<tag k="ssr:stedsnr" v="372867" />
	</node>
	<node id="-40516" lat="60.7365555512" lon="9.93528333889">
		<tag k="name" v="Langebergsdammen" />
		<tag k="natural" v="water" />
		<tag k="ssr:stedsnr" v="371947" />
	</node>
	<node id="-40515" lat="60.7408249961" lon="9.9151583399">
		<tag k="alt_name" v="Bjørndalstjernet, nedre" />
		<tag k="name" v="Nedre Bjørndalstjernet" />
		<tag k="natural" v="water" />
		<tag k="ssr:stedsnr" v="371945" />
	</node>
	<node id="-40514" lat="60.6447499974" lon="9.73467221755">
		<tag k="name" v="Finnsbekken" />
		<tag k="ssr:stedsnr" v="371941" />
		<tag k="waterway" v="stream" />
	</node>
	<node id="-40510" lat="60.707586108" lon="9.94433333146">
		<tag k="alt_name" v="Borketjennsbekken" />
		<tag k="name" v="Borkevassbekken" />
		<tag k="ssr:stedsnr" v="371996" />
		<tag k="waterway" v="stream" />
	</node>
	<node id="-40507" lat="60.7034638863" lon="9.88337778643">
		<tag k="alt_name" v="Elgtjern" />
		<tag k="name" v="Elgetjernet" />
		<tag k="natural" v="water" />
		<tag k="ssr:stedsnr" v="371891" />
	</node>
	<node id="-40506" lat="60.627124997" lon="9.83168332446">
		<tag k="name" v="Saubekken" />
		<tag k="ssr:stedsnr" v="371890" />
		<tag k="waterway" v="stream" />
	</node>
	<node id="-40500" lat="60.6148333375" lon="9.81200277347">
		<tag k="name" v="Damtjern" />
		<tag k="natural" v="water" />
		<tag k="ssr:stedsnr" v="371910" />
	</node>
	<node id="-40498" lat="60.5553444469" lon="9.65244444866">
		<tag k="alt_name" v="Storbekken, østre;Storbekken" />
		<tag k="name" v="Østre Storbekken" />
		<tag k="ssr:stedsnr" v="371836" />
		<tag k="waterway" v="stream" />
	</node>
	<node id="-40488" lat="60.7415694427" lon="9.73598610673">
		<tag k="alt_name" v="Huldravatnet" />
		<tag k="name" v="Huldrevatnet" />
		<tag k="natural" v="water" />
		<tag k="ssr:stedsnr" v="370827" />
	</node>
	<node id="-40487" lat="60.6561583355" lon="9.50310833661">
		<tag k="name" v="Trestikka" />
		<tag k="natural" v="water" />
		<tag k="ssr:stedsnr" v="370736" />
	</node>
	<node id="-40486" lat="60.6965138928" lon="9.54742777595">
		<tag k="name" v="Reinsjøbekken" />
		<tag k="ssr:stedsnr" v="370714" />
		<tag k="waterway" v="stream" />
	</node>
	<node id="-40477" lat="60.643388891" lon="9.39260277244">
		<tag k="name" v="Groputten" />
		<tag k="natural" v="water" />
		<tag k="ssr:stedsnr" v="361786" />
	</node>
	<node id="-40476" lat="60.7867777822" lon="9.29854722968">
		<tag k="name" v="Langehallputten" />
		<tag k="natural" v="water" />
		<tag k="ssr:stedsnr" v="361783" />
	</node>
	<node id="-40475" lat="60.8149194466" lon="9.41178889724">
		<tag k="name" v="Djupedalsbekken" />
		<tag k="ssr:stedsnr" v="361680" />
		<tag k="waterway" v="stream" />
	</node>
	<node id="-40472" lat="60.8465916627" lon="9.4129861149">
		<tag k="name" v="Ådnesbekken" />
		<tag k="ssr:stedsnr" v="361395" />
		<tag k="waterway" v="stream" />
	</node>
	<node id="-40470" lat="60.6178722265" lon="9.72548055259">
		<tag k="name" v="Vesleelva" />
		<tag k="ssr:stedsnr" v="361539" />
		<tag k="waterway" v="stream" />
	</node>
	<node id="-40467" lat="60.7531499976" lon="9.62547222241">
		<tag k="name" v="Storevju" />
		<tag k="place" v="locality" />
		<tag k="ssr:stedsnr" v="361214" />
	</node>
	<node id="-40466" lat="60.746238885" lon="9.65195000685">
		<tag k="name" v="Sæterbekken" />
		<tag k="ssr:stedsnr" v="361210" />
		<tag k="waterway" v="stream" />
	</node>
	<node id="-40465" lat="60.7230499999" lon="9.65486388053">
		<tag k="name" v="Hytteplassbekken" />
		<tag k="ssr:stedsnr" v="361206" />
		<tag k="waterway" v="stream" />
	</node>
	<node id="-40462" lat="60.5450660863" lon="9.43520147972">
		<tag k="name" v="Grunntjernfossen" />
		<tag k="natural" v="waterfall" />
		<tag k="ssr:stedsnr" v="361389" />
	</node>
	<node id="-40460" lat="60.7606055572" lon="9.5842138851">
		<tag k="name" v="Dyngebekken" />
		<tag k="ssr:stedsnr" v="361090" />
		<tag k="waterway" v="stream" />
	</node>
	<node id="-40459" lat="60.8156944483" lon="9.69048055657">
		<tag k="name" v="Steindammen" />
		<tag k="natural" v="water" />
		<tag k="ssr:stedsnr" v="361081" />
		<tag k="water" v="pond" />
	</node>
	<node id="-40456" lat="60.829141664" lon="9.57019722196">
		<tag k="name" v="Harabrennbekken" />
		<tag k="ssr:stedsnr" v="342960" />
		<tag k="waterway" v="stream" />
	</node>
	<node id="-40442" lat="60.7385000037" lon="9.7991999965">
		<tag k="name" v="Lamannsvika" />
		<tag k="natural" v="bay" />
		<tag k="ssr:stedsnr" v="342490" />
	</node>
	<node id="-40441" lat="60.7547499976" lon="9.79838332412">
		<tag k="name" v="Bokkelitjernet" />
		<tag k="natural" v="water" />
		<tag k="old_name" v="Bokkelitjednet" />
		<tag k="ssr:stedsnr" v="342488" />
	</node>
	<node id="-40440" lat="60.7794388877" lon="9.78412500166">
		<tag k="name" v="Nedre Morten" />
		<tag k="natural" v="water" />
		<tag k="ssr:stedsnr" v="342446" />
	</node>
	<node id="-40434" lat="60.6434166646" lon="9.53991388164">
		<tag k="alt_name" v="Bjørnlibekken" />
		<tag k="name" v="Bjønnlibekken" />
		<tag k="ssr:stedsnr" v="342272" />
		<tag k="waterway" v="stream" />
	</node>
	<node id="-40433" lat="60.6407388881" lon="9.46791388973">
		<tag k="name" v="Øvre Bergevatnet" />
		<tag k="natural" v="water" />
		<tag k="ssr:stedsnr" v="342269" />
	</node>
	<node id="-40431" lat="60.66397778" lon="9.4998222144">
		<tag k="name" v="Trestikkbekken" />
		<tag k="ssr:stedsnr" v="342264" />
		<tag k="waterway" v="stream" />
	</node>
	<node id="-40425" lat="60.640755552" lon="9.56863055493">
		<tag k="name" v="Engebekken" />
		<tag k="ssr:stedsnr" v="342248" />
		<tag k="waterway" v="stream" />
	</node>
	<node id="-40423" lat="60.755086107" lon="9.54064722729">
		<tag k="name" v="Råmørktjernet" />
		<tag k="natural" v="water" />
		<tag k="old_name" v="Råmørktjednet" />
		<tag k="ssr:stedsnr" v="342211" />
	</node>
	<node id="-40422" lat="60.7868972213" lon="9.44780000616">
		<tag k="name" v="Laugartjernet" />
		<tag k="natural" v="water" />
		<tag k="old_name" v="Laugartjednet" />
		<tag k="ssr:stedsnr" v="342178" />
	</node>
	<node id="-40420" lat="60.6950166643" lon="9.96548888469">
		<tag k="name" v="Tranetjernet" />
		<tag k="natural" v="water" />
		<tag k="ssr:stedsnr" v="342094" />
	</node>
	<node id="-40419" lat="60.7951000003" lon="9.58723332989">
		<tag k="name" v="Huhølen" />
		<tag k="place" v="locality" />
		<tag k="ssr:stedsnr" v="342092" />
	</node>
	<node id="-40407" lat="60.8535249992" lon="9.55241388165">
		<tag k="name" v="Svartetjernet" />
		<tag k="natural" v="water" />
		<tag k="old_name" v="Svartetjørn;Svartetjednet" />
		<tag k="ssr:stedsnr" v="312633" />
	</node>
	<node id="-40405" lat="60.8361999982" lon="9.60788334173">
		<tag k="name" v="Mikkelstjernet" />
		<tag k="natural" v="water" />
		<tag k="old_name" v="Mikkelstjednet" />
		<tag k="ssr:stedsnr" v="312196" />
	</node>
	<node id="-40404" lat="60.8124416629" lon="9.66364165894">
		<tag k="name" v="Damtjernet" />
		<tag k="natural" v="water" />
		<tag k="old_name" v="Damtjednet" />
		<tag k="ssr:stedsnr" v="312192" />
	</node>
	<node id="-40400" lat="60.712866665" lon="9.82788888279">
		<tag k="name" v="Lajordsfløten" />
		<tag k="natural" v="water" />
		<tag k="ssr:stedsnr" v="310993" />
	</node>
	<node id="-40397" lat="60.7113277777" lon="9.64550833322">
		<tag k="name" v="Garthusvatnet" />
		<tag k="natural" v="water" />
		<tag k="ssr:stedsnr" v="310983" />
	</node>
	<node id="-40396" lat="60.7263194443" lon="9.88455555478">
		<tag k="alt_name" v="Sandtjernet, store" />
		<tag k="name" v="Store Sandtjernet" />
		<tag k="natural" v="water" />
		<tag k="old_name" v="Store Sandtjedn" />
		<tag k="ssr:stedsnr" v="310979" />
	</node>
	<node id="-40390" lat="60.6519111122" lon="9.91572776942">
		<tag k="name" v="Lisætertjernet" />
		<tag k="natural" v="water" />
		<tag k="ssr:stedsnr" v="310962" />
	</node>
	<node id="-40387" lat="60.7303250025" lon="9.63338332611">
		<tag k="name" v="Svabekken" />
		<tag k="ssr:stedsnr" v="310939" />
		<tag k="waterway" v="stream" />
	</node>
	<node id="-40381" lat="60.5790250021" lon="9.71788611042">
		<tag k="name" v="Bruskerudtjerna" />
		<tag k="natural" v="water" />
		<tag k="ssr:stedsnr" v="310917" />
	</node>
	<node id="-40378" lat="60.6833027776" lon="9.87108611648">
		<tag k="name" v="Grunnvatnet" />
		<tag k="natural" v="water" />
		<tag k="ssr:stedsnr" v="310907" />
	</node>
	<node id="-40377" lat="60.6421944468" lon="9.79365556175">
		<tag k="name" v="Kvernbekken" />
		<tag k="ssr:stedsnr" v="310892" />
		<tag k="waterway" v="stream" />
	</node>
	<node id="-40375" lat="60.6986083309" lon="9.79513611451">
		<tag k="alt_name" v="Åbortjernet, store" />
		<tag k="name" v="Store Åbortjernet" />
		<tag k="natural" v="water" />
		<tag k="ssr:stedsnr" v="310890" />
	</node>
	<node id="-40179" lat="60.7966472871" lon="9.3169515887">
		<tag k="alt_name" v="Sangevatni, store;Store Sangevatnet;Store Sangevatni" />
		<tag k="name" v="Store Sangin" />
		<tag k="natural" v="water" />
		<tag k="ssr:stedsnr" v="130790" />
		<tag k="water" v="lake" />
	</node>
	<node id="-40368" lat="60.5413888897" lon="9.72257777532">
		<tag k="name" v="Aurdøla" />
		<tag k="ssr:stedsnr" v="310837" />
		<tag k="waterway" v="river" />
	</node>
	<node id="-40367" lat="60.5519472256" lon="9.60487500494">
		<tag k="name" v="Langtjernbekken" />
		<tag k="ssr:stedsnr" v="310836" />
		<tag k="waterway" v="stream" />
	</node>
	<node id="-40366" lat="60.5693722213" lon="9.50878611497">
		<tag k="alt_name" v="Østre Larsputten" />
		<tag k="name" v="Larsputten" />
		<tag k="natural" v="water" />
		<tag k="ssr:stedsnr" v="310831" />
	</node>
	<node id="-40362" lat="60.7374250009" lon="9.79072499649">
		<tag k="name" v="Drengsprengen" />
		<tag k="natural" v="water" />
		<tag k="ssr:stedsnr" v="310800" />
		<tag k="water" v="lake" />
	</node>
	<node id="-40361" lat="60.7233361138" lon="9.97060554871">
		<tag k="name" v="Borketjerna" />
		<tag k="natural" v="water" />
		<tag k="ssr:stedsnr" v="310791" />
		<tag k="water" v="lake" />
	</node>
	<node id="-40359" lat="60.6722444478" lon="9.33113333989">
		<tag k="name" v="Øvre Alketjern" />
		<tag k="natural" v="water" />
		<tag k="ssr:stedsnr" v="310750" />
	</node>
	<node id="-40356" lat="60.6530749966" lon="9.39827777815">
		<tag k="alt_name" v="Teinvatnet, nedre" />
		<tag k="name" v="Nedre Teinvatnet" />
		<tag k="natural" v="water" />
		<tag k="ssr:stedsnr" v="310717" />
	</node>
	<node id="-40354" lat="60.6896666667" lon="9.97565555889">
		<tag k="alt_name" v="Koketjernet, nedre" />
		<tag k="name" v="Nedre Koketjernet" />
		<tag k="natural" v="water" />
		<tag k="ssr:stedsnr" v="310698" />
	</node>
	<node id="-40351" lat="60.6840527794" lon="9.45867500227">
		<tag k="name" v="Guritjern" />
		<tag k="natural" v="water" />
		<tag k="ssr:stedsnr" v="310688" />
	</node>
	<node id="-40350" lat="60.617647223" lon="9.51824166723">
		<tag k="alt_name" v="Helsenningen" />
		<tag k="name" v="Hellsenningen" />
		<tag k="natural" v="water" />
		<tag k="ssr:stedsnr" v="310685" />
		<tag k="water" v="lake" />
	</node>
	<node id="-40349" lat="60.5990277805" lon="9.54704999227">
		<tag k="name" v="Svartvika" />
		<tag k="natural" v="bay" />
		<tag k="ssr:stedsnr" v="310662" />
	</node>
	<node id="-40348" lat="60.60105556" lon="9.55842500343">
		<tag k="name" v="Busuvatnet" />
		<tag k="natural" v="water" />
		<tag k="ssr:stedsnr" v="310658" />
		<tag k="water" v="lake" />
	</node>
	<node id="-40344" lat="60.7036143237" lon="9.4367471855">
		<tag k="name" v="Hølervatnet" />
		<tag k="natural" v="water" />
		<tag k="ssr:stedsnr" v="310552" />
		<tag k="water" v="lake" />
	</node>
	<node id="-40343" lat="60.7458111077" lon="9.32057223079">
		<tag k="name" v="Rabalstjernet" />
		<tag k="natural" v="water" />
		<tag k="old_name" v="Rabalstjednet" />
		<tag k="ssr:stedsnr" v="310515" />
	</node>
	<node id="-40340" lat="60.6149583331" lon="9.9331777697">
		<tag k="name" v="Begna" />
		<tag k="old_name" v="Bægna;Bejna;Bejnaelven" />
		<tag k="ssr:stedsnr" v="309000" />
		<tag k="waterway" v="river" />
	</node>
	<node id="-40338" lat="60.6757805545" lon="9.36607499399">
		<tag k="name" v="Grunntjernet" />
		<tag k="natural" v="water" />
		<tag k="old_name" v="Grunntjednet" />
		<tag k="ssr:stedsnr" v="301896" />
	</node>
	<node id="-40336" lat="60.8118472242" lon="9.35618055956">
		<tag k="name" v="Kvannebekken" />
		<tag k="ssr:stedsnr" v="301639" />
		<tag k="waterway" v="stream" />
	</node>
	<node id="-41197" lat="60.7056000036" lon="9.97563334189">
		<tag k="name" v="Langvassbekken" />
		<tag k="ssr:stedsnr" v="857734" />
		<tag k="waterway" v="stream" />
	</node>
	<node id="-40332" lat="60.7331888901" lon="9.53073610288">
		<tag k="name" v="Åmot" />
		<tag k="natural" v="cape" />
		<tag k="ssr:stedsnr" v="301440" />
	</node>
	<node id="-40327" lat="60.7646249985" lon="9.73223055698">
		<tag k="name" v="Laddetjernet" />
		<tag k="natural" v="water" />
		<tag k="old_name" v="Laddetjednet" />
		<tag k="ssr:stedsnr" v="301146" />
	</node>
	<node id="-40316" lat="60.7893805564" lon="9.42048333089">
		<tag k="name" v="Nibbesteintjernet" />
		<tag k="natural" v="water" />
		<tag k="old_name" v="Nibbesteinsvatnet;Nibbsteintjednet" />
		<tag k="ssr:stedsnr" v="191793" />
	</node>
	<node id="-40311" lat="60.7793777764" lon="9.40555554734">
		<tag k="name" v="Øgntjernet" />
		<tag k="natural" v="water" />
		<tag k="old_name" v="Øgntjednet" />
		<tag k="ssr:stedsnr" v="191746" />
	</node>
	<node id="-40310" lat="60.8176805532" lon="9.68989167218">
		<tag k="name" v="Svarttjernbekken" />
		<tag k="ssr:stedsnr" v="191167" />
		<tag k="waterway" v="stream" />
	</node>
	<node id="-40307" lat="60.7654972205" lon="9.74222222434">
		<tag k="alt_name" v="Holmevatnet" />
		<tag k="name" v="Holmvatnet" />
		<tag k="natural" v="water" />
		<tag k="ssr:stedsnr" v="191147" />
	</node>
	<node id="-40623" lat="60.7223789839" lon="9.89193052281">
		<tag k="alt_name" v="Settumstjernet, s" />
		<tag k="fixme" v="multiple name tags, choose one and add the other to alt_name" />
		<tag k="name" v="Nedre Settomstjern;Søre Settumstjernet" />
		<tag k="natural" v="water" />
		<tag k="old_name" v="Nedre Settomstjedn" />
		<tag k="ssr:stedsnr" v="432980" />
	</node>
	<node id="-40304" lat="60.8528861146" lon="9.51772222788">
		<tag k="alt_name" v="Pislabekken" />
		<tag k="name" v="Pisla" />
		<tag k="ssr:stedsnr" v="190663" />
		<tag k="waterway" v="stream" />
	</node>
	<node id="-40303" lat="60.7188916688" lon="9.85632500028">
		<tag k="alt_name" v="Svaraputten" />
		<tag k="name" v="Skvalaputten" />
		<tag k="natural" v="water" />
		<tag k="ssr:stedsnr" v="189995" />
	</node>
	<node id="-40850" lat="60.7689055569" lon="9.70675832808">
		<tag k="name" v="Karuseputten" />
		<tag k="natural" v="water" />
		<tag k="ssr:stedsnr" v="604188" />
	</node>
	<node id="-40297" lat="60.6377750003" lon="9.7760861188">
		<tag k="name" v="Steinurdelva" />
		<tag k="ssr:stedsnr" v="189969" />
		<tag k="waterway" v="stream" />
	</node>
	<node id="-40293" lat="60.7458583366" lon="9.91975834089">
		<tag k="alt_name" v="Bjørndalstjernet, øvre" />
		<tag k="name" v="Øvre Bjørndalstjernet" />
		<tag k="natural" v="water" />
		<tag k="ssr:stedsnr" v="189942" />
	</node>
	<node id="-40290" lat="60.6757694419" lon="9.66626388646">
		<tag k="name" v="Hølbekkputten" />
		<tag k="natural" v="water" />
		<tag k="ssr:stedsnr" v="189908" />
	</node>
	<node id="-40288" lat="60.6789111126" lon="9.96346944305">
		<tag k="name" v="Øyvasselva" />
		<tag k="ssr:stedsnr" v="189900" />
		<tag k="waterway" v="river" />
	</node>
	<node id="-40285" lat="60.6890524165" lon="9.94524175108">
		<tag k="alt_name" v="Øyvatnet, store;Øyvatnet" />
		<tag k="name" v="Store Øyvatnet" />
		<tag k="natural" v="water" />
		<tag k="ssr:stedsnr" v="189888" />
		<tag k="water" v="lake" />
	</node>
	<node id="-40283" lat="60.7010555584" lon="9.93904722164">
		<tag k="alt_name" v="Øyvatnet, l" />
		<tag k="name" v="Vesle Øyvatnet" />
		<tag k="natural" v="water" />
		<tag k="old_name" v="Lille Øyvatnet" />
		<tag k="ssr:stedsnr" v="189883" />
	</node>
	<node id="-40282" lat="60.7071861135" lon="9.95936667194">
		<tag k="alt_name" v="Tranetjernet, øvre" />
		<tag k="fixme" v="multiple name tags, choose one and add the other to alt_name" />
		<tag k="name" v="Aurputten;Øvre Tranetjernet" />
		<tag k="natural" v="water" />
		<tag k="ssr:stedsnr" v="189882" />
	</node>
	<node id="-40280" lat="60.6990638922" lon="9.60241667163">
		<tag k="alt_name" v="Hovdesæterbekken" />
		<tag k="name" v="Hovudsæterbekken" />
		<tag k="ssr:stedsnr" v="189878" />
		<tag k="waterway" v="stream" />
	</node>
	<node id="-40279" lat="60.7012833356" lon="9.6147138975">
		<tag k="name" v="Fykputt" />
		<tag k="natural" v="water" />
		<tag k="ssr:stedsnr" v="189875" />
		<tag k="water" v="pond" />
	</node>
	<node id="-40278" lat="60.5392000019" lon="9.52425832745">
		<tag k="name" v="Brennbekken" />
		<tag k="ssr:stedsnr" v="189863" />
		<tag k="waterway" v="stream" />
	</node>
	<node id="-40276" lat="60.5214777794" lon="9.64994165803">
		<tag k="name" v="Brunbakkbekken" />
		<tag k="ssr:stedsnr" v="189853" />
		<tag k="waterway" v="stream" />
	</node>
	<node id="-40273" lat="60.5368583297" lon="9.76853055429">
		<tag k="name" v="Rakkestadbekken" />
		<tag k="ssr:stedsnr" v="189827" />
		<tag k="waterway" v="stream" />
	</node>
	<node id="-38797" lat="60.6881194462" lon="9.86357222395">
		<tag k="name" v="Gruvla" />
		<tag k="ssr:stedsnr" v="240680" />
		<tag k="waterway" v="river" />
	</node>
	<node id="-40264" lat="60.6974222251" lon="9.34946389359">
		<tag k="name" v="Storeputt" />
		<tag k="natural" v="water" />
		<tag k="ssr:stedsnr" v="189684" />
	</node>
	<node id="-40262" lat="60.6824201923" lon="9.48027897662">
		<tag k="fixme" v="multiple name tags, choose one and add the other to alt_name" />
		<tag k="name" v="Reinsjøene;Reinsjøvatna" />
		<tag k="natural" v="water" />
		<tag k="ssr:stedsnr" v="189653" />
		<tag k="water" v="lake" />
	</node>
	<node id="-40257" lat="60.6289036194" lon="9.4807622144">
		<tag k="fixme" v="multiple name tags, choose one and add the other to alt_name" />
		<tag k="name" v="Klypetjern;Mjødomstjern" />
		<tag k="natural" v="water" />
		<tag k="ssr:stedsnr" v="189589" />
	</node>
	<node id="-40256" lat="60.494055556" lon="9.77205278499">
		<tag k="name" v="Mansæterbekken" />
		<tag k="ssr:stedsnr" v="188950" />
		<tag k="waterway" v="stream" />
	</node>
	<node id="-40255" lat="60.6723111156" lon="9.68634443958">
		<tag k="name" v="Vesleøyvatnet" />
		<tag k="natural" v="water" />
		<tag k="ssr:stedsnr" v="188948" />
	</node>
	<node id="-40250" lat="60.660255553" lon="9.62701388673">
		<tag k="name" v="Flåtevatnet" />
		<tag k="natural" v="water" />
		<tag k="ssr:stedsnr" v="188933" />
	</node>
	<node id="-40247" lat="60.704166671" lon="9.93056667005">
		<tag k="fixme" v="multiple name tags, choose one and add the other to alt_name" />
		<tag k="name" v="Åbortjernet;Øyvasspullen" />
		<tag k="natural" v="water" />
		<tag k="ssr:stedsnr" v="188902" />
	</node>
	<node id="-40241" lat="60.7420965358" lon="9.72699188683">
		<tag k="name" v="Veslebruvatnet" />
		<tag k="natural" v="water" />
		<tag k="ssr:stedsnr" v="180144" />
	</node>
	<node id="-40232" lat="60.619233334" lon="9.51258610996">
		<tag k="name" v="Bubekksanden" />
		<tag k="natural" v="beach" />
		<tag k="ssr:stedsnr" v="179290" />
	</node>
	<node id="-40231" lat="60.6159000013" lon="9.50991388852">
		<tag k="name" v="Svartvika" />
		<tag k="natural" v="bay" />
		<tag k="ssr:stedsnr" v="179289" />
	</node>
	<node id="-40230" lat="60.7148138867" lon="9.6620083345">
		<tag k="name" v="Rundeputten" />
		<tag k="natural" v="water" />
		<tag k="ssr:stedsnr" v="179199" />
		<tag k="water" v="pond" />
	</node>
	<node id="-40223" lat="60.708344448" lon="9.45102223142">
		<tag k="name" v="Lomvike" />
		<tag k="natural" v="bay" />
		<tag k="ssr:stedsnr" v="179417" />
	</node>
	<node id="-40220" lat="60.7399166704" lon="9.5934722159">
		<tag k="name" v="Bergføss" />
		<tag k="natural" v="waterfall" />
		<tag k="ssr:stedsnr" v="179077" />
	</node>
	<node id="-40219" lat="60.6547333375" lon="10.0059472206">
		<tag k="name" v="Gullhaugfløta" />
		<tag k="natural" v="water" />
		<tag k="ssr:stedsnr" v="179066" />
		<tag k="water" v="lake" />
	</node>
	<node id="-40215" lat="60.8296416681" lon="9.62127221895">
		<tag k="name" v="Meongen" />
		<tag k="natural" v="strait" />
		<tag k="ssr:stedsnr" v="161000" />
	</node>
	<node id="-40213" lat="60.782258331" lon="9.6297833423">
		<tag k="name" v="Larsonøye" />
		<tag k="natural" v="cape" />
		<tag k="ssr:stedsnr" v="160885" />
	</node>
	<node id="-40205" lat="60.8054194408" lon="9.47290000175">
		<tag k="name" v="Soglabekken" />
		<tag k="ssr:stedsnr" v="160793" />
		<tag k="waterway" v="stream" />
	</node>
	<node id="-40200" lat="60.758808333" lon="9.80257777803">
		<tag k="name" v="Midtre Våvålsvatn" />
		<tag k="natural" v="water" />
		<tag k="ssr:stedsnr" v="160432" />
	</node>
	<node id="-40198" lat="60.7551416691" lon="9.80448332885">
		<tag k="name" v="Nedre Våvålsvatn" />
		<tag k="natural" v="water" />
		<tag k="ssr:stedsnr" v="160488" />
	</node>
	<node id="-38785" lat="60.8037444406" lon="9.74842221639">
		<tag k="name" v="Mebenda" />
		<tag k="ssr:stedsnr" v="297990" />
		<tag k="waterway" v="stream" />
	</node>
	<node id="-40194" lat="60.6366777762" lon="9.59045000803">
		<tag k="name" v="Åslidammen" />
		<tag k="ssr:stedsnr" v="160245" />
		<tag k="waterway" v="dam" />
	</node>
	<node id="-40191" lat="60.6586916669" lon="9.47676389594">
		<tag k="name" v="Ragnhildputten" />
		<tag k="natural" v="water" />
		<tag k="ssr:stedsnr" v="160281" />
	</node>
	<node id="-40189" lat="60.7563249993" lon="9.47929722148">
		<tag k="name" v="Storhølen" />
		<tag k="place" v="locality" />
		<tag k="ssr:stedsnr" v="160142" />
	</node>
	<node id="-40180" lat="60.8181111088" lon="9.34846389472">
		<tag k="name" v="Fjellstølbekken" />
		<tag k="ssr:stedsnr" v="130833" />
		<tag k="waterway" v="stream" />
	</node>
	<node id="-38782" lat="60.7530861078" lon="9.55818888937">
		<tag k="alt_name" v="Hølersæterbekken" />
		<tag k="name" v="Hølbekken" />
		<tag k="ssr:stedsnr" v="191708" />
		<tag k="waterway" v="stream" />
	</node>
	<node id="-40175" lat="60.7515750009" lon="9.41850555201">
		<tag k="name" v="Svartbekken" />
		<tag k="ssr:stedsnr" v="130700" />
		<tag k="waterway" v="stream" />
	</node>
	<node id="-40170" lat="60.8334583357" lon="9.62530556094">
		<tag k="name" v="Bagnsdemma" />
		<tag k="natural" v="water" />
		<tag k="ssr:stedsnr" v="130176" />
	</node>
	<node id="-40169" lat="60.8178214749" lon="9.68245713099">
		<tag k="name" v="Svartetjernet" />
		<tag k="natural" v="water" />
		<tag k="old_name" v="Svartetjednet" />
		<tag k="ssr:stedsnr" v="130174" />
	</node>
	<node id="-40168" lat="60.8191833334" lon="9.61449721557">
		<tag k="alt_name" v="Kjeldemyrvatnet" />
		<tag k="name" v="Kjeldemyrtjernet" />
		<tag k="natural" v="water" />
		<tag k="old_name" v="Kjeldemyrtjednet" />
		<tag k="ssr:stedsnr" v="130170" />
	</node>
	<node id="-40166" lat="60.7611138848" lon="9.78800000456">
		<tag k="name" v="Fakselivatnet" />
		<tag k="natural" v="water" />
		<tag k="ssr:stedsnr" v="130163" />
	</node>
	<node id="-40164" lat="60.7099583299" lon="9.60068334089">
		<tag k="alt_name" v="Vesleøyvatnet;Øyvatnet, vle" />
		<tag k="name" v="Vesle Øyvatnet" />
		<tag k="natural" v="water" />
		<tag k="ssr:stedsnr" v="129000" />
	</node>
	<node id="-40158" lat="60.6226222255" lon="9.78009445126">
		<tag k="name" v="Skartjern" />
		<tag k="natural" v="water" />
		<tag k="ssr:stedsnr" v="128985" />
	</node>
	<node id="-40157" lat="60.7262555588" lon="9.91468888619">
		<tag k="alt_name" v="Helgevassfløyten" />
		<tag k="name" v="Helgevassfløten" />
		<tag k="natural" v="water" />
		<tag k="ssr:stedsnr" v="128982" />
	</node>
	<node id="-40156" lat="60.7189388904" lon="9.90253055615">
		<tag k="name" v="Loppetjernet" />
		<tag k="natural" v="water" />
		<tag k="old_name" v="Loppetjedn" />
		<tag k="ssr:stedsnr" v="128981" />
	</node>
	<node id="-40155" lat="60.7258611089" lon="9.84066944897">
		<tag k="name" v="Tverrvassputten" />
		<tag k="natural" v="water" />
		<tag k="ssr:stedsnr" v="128979" />
	</node>
	<node id="-40153" lat="60.72062778" lon="9.60267222035">
		<tag k="alt_name" v="Liarosputten" />
		<tag k="name" v="Liarosputtane" />
		<tag k="natural" v="water" />
		<tag k="ssr:stedsnr" v="128962" />
	</node>
	<node id="-40145" lat="60.6757972211" lon="9.88301389235">
		<tag k="alt_name" v="Buvatnet, s" />
		<tag k="name" v="Søre Buvatnet" />
		<tag k="natural" v="water" />
		<tag k="ssr:stedsnr" v="128896" />
		<tag k="water" v="lake" />
	</node>
	<node id="-40138" lat="60.5410194426" lon="9.74218056358">
		<tag k="name" v="Holmebekken" />
		<tag k="ssr:stedsnr" v="128848" />
		<tag k="waterway" v="stream" />
	</node>
	<node id="-40137" lat="60.5670499973" lon="9.46294443873">
		<tag k="alt_name" v="Slaputta" />
		<tag k="name" v="Slaputten" />
		<tag k="natural" v="water" />
		<tag k="ssr:stedsnr" v="128847" />
	</node>
	<node id="-40134" lat="60.7390833359" lon="9.92103610955">
		<tag k="alt_name" v="Langevatn" />
		<tag k="name" v="Langtjernvatnet" />
		<tag k="natural" v="water" />
		<tag k="ssr:stedsnr" v="128935" />
	</node>
	<node id="-40133" lat="60.6541444474" lon="9.6987777859">
		<tag k="name" v="Gråtetjernsbekken" />
		<tag k="ssr:stedsnr" v="128931" />
		<tag k="waterway" v="stream" />
	</node>
	<node id="-40123" lat="60.582802776" lon="9.48854444025">
		<tag k="alt_name" v="Tinnsjø" />
		<tag k="name" v="Tinnsjøen" />
		<tag k="natural" v="water" />
		<tag k="ssr:stedsnr" v="128824" />
	</node>
	<node id="-40119" lat="60.4865833328" lon="9.82501110451">
		<tag k="name" v="Vidøla" />
		<tag k="ssr:stedsnr" v="127897" />
		<tag k="waterway" v="river" />
	</node>
	<node id="-40116" lat="60.7573111133" lon="9.39577499455">
		<tag k="name" v="Tetebrennbekken" />
		<tag k="ssr:stedsnr" v="119966" />
		<tag k="waterway" v="stream" />
	</node>
	<node id="-40114" lat="60.7903611155" lon="9.63975277119">
		<tag k="name" v="Skarabekken" />
		<tag k="ssr:stedsnr" v="119911" />
		<tag k="waterway" v="stream" />
	</node>
	<node id="-40111" lat="60.8037555576" lon="9.38628611755">
		<tag k="name" v="Fjelltjernet" />
		<tag k="natural" v="water" />
		<tag k="old_name" v="Fjelltjednet" />
		<tag k="ssr:stedsnr" v="119681" />
	</node>
	<node id="-40104" lat="60.5996555592" lon="9.68361943987">
		<tag k="name" v="Korsgårdbekken" />
		<tag k="ssr:stedsnr" v="119505" />
		<tag k="waterway" v="stream" />
	</node>
	<node id="-38769" lat="60.8346222207" lon="9.3766555513">
		<tag k="name" v="Heggerustbekken" />
		<tag k="ssr:stedsnr" v="179620" />
		<tag k="waterway" v="stream" />
	</node>
	<node id="-40096" lat="60.7011277766" lon="9.42221944415">
		<tag k="name" v="Storøddin" />
		<tag k="natural" v="cape" />
		<tag k="ssr:stedsnr" v="119856" />
	</node>
	<node id="-40090" lat="60.7407611122" lon="9.72508333353">
		<tag k="name" v="Storebruvatnet" />
		<tag k="natural" v="water" />
		<tag k="ssr:stedsnr" v="119149" />
	</node>
	<node id="-40089" lat="60.750955556" lon="9.74923333591">
		<tag k="name" v="Skilnadputten" />
		<tag k="natural" v="water" />
		<tag k="ssr:stedsnr" v="119147" />
	</node>
	<node id="-40087" lat="60.6041972241" lon="9.46260556271">
		<tag k="name" v="Strøsvika" />
		<tag k="natural" v="bay" />
		<tag k="ssr:stedsnr" v="119396" />
	</node>
	<node id="-40086" lat="60.6150166627" lon="9.48889722865">
		<tag k="name" v="Helserbekken" />
		<tag k="ssr:stedsnr" v="119392" />
		<tag k="waterway" v="stream" />
	</node>
	<node id="-40081" lat="60.8118666689" lon="9.63171388762">
		<tag k="name" v="Kringletjernet" />
		<tag k="natural" v="water" />
		<tag k="old_name" v="Kringletjednet" />
		<tag k="ssr:stedsnr" v="100986" />
	</node>
	<node id="-40079" lat="60.7146500021" lon="9.4938777769">
		<tag k="name" v="Fløtasæterputten" />
		<tag k="natural" v="water" />
		<tag k="ssr:stedsnr" v="100889" />
	</node>
	<node id="-40077" lat="60.8227916654" lon="9.47120832963">
		<tag k="name" v="Hauststølbekken" />
		<tag k="ssr:stedsnr" v="100810" />
		<tag k="waterway" v="stream" />
	</node>
	<node id="-40073" lat="60.8146472203" lon="9.59688611928">
		<tag k="name" v="Olavskjelda" />
		<tag k="natural" v="spring" />
		<tag k="ssr:stedsnr" v="100968" />
	</node>
	<node id="-40069" lat="60.5442722255" lon="9.77235555891">
		<tag k="name" v="Raudiget" />
		<tag k="natural" v="cape" />
		<tag k="ssr:stedsnr" v="100666" />
	</node>
	<node id="-40063" lat="60.6380138879" lon="9.54811111195">
		<tag k="name" v="Petatbekken" />
		<tag k="ssr:stedsnr" v="100241" />
		<tag k="waterway" v="stream" />
	</node>
	<node id="-40062" lat="60.6645166667" lon="9.49206944885">
		<tag k="name" v="Damtjernbekken" />
		<tag k="ssr:stedsnr" v="100284" />
		<tag k="waterway" v="stream" />
	</node>
	<node id="-40058" lat="60.6357083308" lon="9.46951944634">
		<tag k="name" v="Øvre Godvatn" />
		<tag k="natural" v="water" />
		<tag k="ssr:stedsnr" v="100258" />
	</node>
	<node id="-40052" lat="60.7709388882" lon="9.38138055436">
		<tag k="name" v="Heimskardtjernet" />
		<tag k="natural" v="water" />
		<tag k="old_name" v="Heimskardtjednet" />
		<tag k="ssr:stedsnr" v="70799" />
	</node>
	<node id="-40049" lat="60.8337694435" lon="9.64017777402">
		<tag k="alt_name" v="Hølbekken" />
		<tag k="name" v="Holbekken" />
		<tag k="ssr:stedsnr" v="70186" />
		<tag k="waterway" v="stream" />
	</node>
	<node id="-40048" lat="60.7665861119" lon="9.77646111285">
		<tag k="name" v="Krokputt" />
		<tag k="natural" v="water" />
		<tag k="ssr:stedsnr" v="70156" />
	</node>
	<node id="-40038" lat="60.8006472224" lon="9.74854722698">
		<tag k="name" v="Melbrenda" />
		<tag k="ssr:stedsnr" v="70202" />
		<tag k="waterway" v="stream" />
	</node>
	<node id="-40036" lat="60.8052333353" lon="9.3461388905">
		<tag k="name" v="Øytjernet" />
		<tag k="natural" v="water" />
		<tag k="old_name" v="Øytjednet" />
		<tag k="ssr:stedsnr" v="69847" />
	</node>
	<node id="-38758" lat="60.652172226" lon="9.51289166924">
		<tag k="name" v="Kyrputten" />
		<tag k="natural" v="water" />
		<tag k="ssr:stedsnr" v="282911" />
	</node>
	<node id="-40027" lat="60.7129198346" lon="9.62091690824">
		<tag k="name" v="Andtjerna" />
		<tag k="natural" v="water" />
		<tag k="ssr:stedsnr" v="68961" />
		<tag k="water" v="lake" />
	</node>
	<node id="-40026" lat="60.745316669" lon="9.94544722349">
		<tag k="alt_name" v="Bergavatn" />
		<tag k="name" v="Bergevatnet" />
		<tag k="natural" v="water" />
		<tag k="ssr:stedsnr" v="68799" />
	</node>
	<node id="-40023" lat="60.670805559" lon="9.48485278579">
		<tag k="name" v="Muggedalsvatnet" />
		<tag k="natural" v="water" />
		<tag k="ssr:stedsnr" v="68761" />
	</node>
	<node id="-40022" lat="60.6605888882" lon="9.52767500696">
		<tag k="name" v="Åborputten" />
		<tag k="natural" v="water" />
		<tag k="old_name" v="Øbberputten" />
		<tag k="ssr:stedsnr" v="68750" />
	</node>
	<node id="-40021" lat="60.6989249964" lon="9.33920556238">
		<tag k="alt_name" v="Storøye" />
		<tag k="name" v="Storøyi" />
		<tag k="place" v="islet" />
		<tag k="ssr:stedsnr" v="68733" />
	</node>
	<node id="-40016" lat="60.6936500002" lon="9.68342776868">
		<tag k="alt_name" v="Gåsetjennet" />
		<tag k="name" v="Gåsetjernet" />
		<tag k="natural" v="water" />
		<tag k="ssr:stedsnr" v="68872" />
	</node>
	<node id="-40010" lat="60.7197249957" lon="9.41602499191">
		<tag k="alt_name" v="Bukfyllvatnet, øvre" />
		<tag k="name" v="Øvre Bukfyllvatnet" />
		<tag k="natural" v="water" />
		<tag k="ssr:stedsnr" v="68545" />
		<tag k="water" v="lake" />
	</node>
	<node id="-40009" lat="60.5982250012" lon="9.52927222333">
		<tag k="alt_name" v="Søbekken" />
		<tag k="name" v="Sørbekken" />
		<tag k="ssr:stedsnr" v="68667" />
		<tag k="waterway" v="stream" />
	</node>
	<node id="-40007" lat="60.6470194439" lon="9.65570556346">
		<tag k="alt_name" v="Frøstjern" />
		<tag k="name" v="Frosttjernet" />
		<tag k="natural" v="water" />
		<tag k="ssr:stedsnr" v="67974" />
	</node>
	<node id="-40006" lat="60.644588889" lon="9.67311944137">
		<tag k="alt_name" v="Tjyrahjellbekken" />
		<tag k="name" v="Tjuruhjellbekken" />
		<tag k="ssr:stedsnr" v="67973" />
		<tag k="waterway" v="stream" />
	</node>
	<node id="-40004" lat="60.7396749958" lon="9.96194721417">
		<tag k="name" v="Fålåtjernet" />
		<tag k="natural" v="water" />
		<tag k="ssr:stedsnr" v="67963" />
	</node>
	<node id="-40003" lat="60.5120361073" lon="9.78768333443">
		<tag k="alt_name" v="Kloppbekken" />
		<tag k="name" v="Kloppebekken" />
		<tag k="ssr:stedsnr" v="67874" />
		<tag k="waterway" v="stream" />
	</node>
	<node id="-40002" lat="60.5654880949" lon="9.41202294669">
		<tag k="alt_name" v="Suluvatn" />
		<tag k="name" v="Suluvatnet" />
		<tag k="natural" v="water" />
		<tag k="ssr:stedsnr" v="67850" />
		<tag k="water" v="lake" />
	</node>
	<node id="-39999" lat="60.6361527788" lon="9.56422778481">
		<tag k="fixme" v="multiple name tags, choose one and add the other to alt_name" />
		<tag k="name" v="Hedalselva;Åslielva" />
		<tag k="ssr:stedsnr" v="67651" />
		<tag k="waterway" v="river" />
	</node>
	<node id="-39994" lat="60.7003083366" lon="9.42503055598">
		<tag k="name" v="Åboroddin" />
		<tag k="natural" v="cape" />
		<tag k="old_name" v="Øbberøddin" />
		<tag k="ssr:stedsnr" v="58849" />
	</node>
	<node id="-39993" lat="60.6476499976" lon="9.40867777468">
		<tag k="name" v="Halvegasbekken" />
		<tag k="ssr:stedsnr" v="58782" />
		<tag k="waterway" v="stream" />
	</node>
	<node id="-39992" lat="60.647966668" lon="9.36618333735">
		<tag k="name" v="Vangsoset" />
		<tag k="natural" v="bay" />
		<tag k="ssr:stedsnr" v="58781" />
	</node>
	<node id="-39990" lat="60.5363527765" lon="9.65553332433">
		<tag k="name" v="Lissanden" />
		<tag k="natural" v="cape" />
		<tag k="ssr:stedsnr" v="58760" />
	</node>
	<node id="-39984" lat="60.7785861155" lon="9.38807222771">
		<tag k="name" v="Nedre Steinvatnet" />
		<tag k="natural" v="water" />
		<tag k="ssr:stedsnr" v="58680" />
	</node>
	<node id="-39974" lat="60.5723166685" lon="9.50736389123">
		<tag k="name" v="Vestre Larsputten" />
		<tag k="natural" v="water" />
		<tag k="ssr:stedsnr" v="58405" />
	</node>
	<node id="-39973" lat="60.5760749997" lon="9.46716389461">
		<tag k="name" v="Idyllvatnet" />
		<tag k="natural" v="water" />
		<tag k="ssr:stedsnr" v="58403" />
	</node>
	<node id="-39969" lat="60.8553555596" lon="9.4429250065">
		<tag k="name" v="Gullringbekken" />
		<tag k="ssr:stedsnr" v="58369" />
		<tag k="waterway" v="stream" />
	</node>
	<node id="-39966" lat="60.7492111147" lon="9.61803334245">
		<tag k="name" v="Høgfoss" />
		<tag k="natural" v="waterfall" />
		<tag k="ssr:stedsnr" v="58234" />
	</node>
	<node id="-39963" lat="60.699213889" lon="9.61328333113">
		<tag k="name" v="Fykputtbekken" />
		<tag k="ssr:stedsnr" v="58213" />
		<tag k="waterway" v="stream" />
	</node>
	<node id="-39957" lat="60.7963888933" lon="9.76805556347">
		<tag k="name" v="Hølbekk" />
		<tag k="ssr:stedsnr" v="58164" />
		<tag k="waterway" v="stream" />
	</node>
	<node id="-39954" lat="60.7409611075" lon="9.77353333499">
		<tag k="name" v="Gamlesæterputten" />
		<tag k="natural" v="water" />
		<tag k="ssr:stedsnr" v="58136" />
	</node>
	<node id="-39953" lat="60.750144441" lon="9.55733333823">
		<tag k="name" v="Kringletjernet" />
		<tag k="natural" v="water" />
		<tag k="old_name" v="Kringletjedne" />
		<tag k="ssr:stedsnr" v="58094" />
	</node>
	<node id="-39944" lat="60.7118694423" lon="9.46597500172">
		<tag k="name" v="Rundfløten" />
		<tag k="natural" v="water" />
		<tag k="ssr:stedsnr" v="39900" />
		<tag k="water" v="lake" />
	</node>
	<node id="-39938" lat="60.7373166696" lon="9.80201944695">
		<tag k="name" v="Våvålsvika" />
		<tag k="natural" v="bay" />
		<tag k="ssr:stedsnr" v="39494" />
	</node>
	<node id="-39931" lat="60.7120694442" lon="9.71219723132">
		<tag k="name" v="Vikaskjæret" />
		<tag k="place" v="islet" />
		<tag k="ssr:stedsnr" v="39175" />
	</node>
	<node id="-39928" lat="60.705669447" lon="9.93601110293">
		<tag k="name" v="Fålåtjernsbekken" />
		<tag k="ssr:stedsnr" v="39097" />
		<tag k="waterway" v="stream" />
	</node>
	<node id="-39926" lat="60.6540611074" lon="9.53259721584">
		<tag k="name" v="Vesle Skålevatnet" />
		<tag k="natural" v="water" />
		<tag k="ssr:stedsnr" v="39241" />
	</node>
	<node id="-39924" lat="60.645283335" lon="9.46325833347">
		<tag k="name" v="Bergevatnet" />
		<tag k="natural" v="water" />
		<tag k="ssr:stedsnr" v="39237" />
	</node>
	<node id="-39923" lat="60.6461138847" lon="9.48690556214">
		<tag k="name" v="Kringletjern" />
		<tag k="natural" v="water" />
		<tag k="ssr:stedsnr" v="39235" />
	</node>
	<node id="-39922" lat="60.6447249996" lon="9.47914444323">
		<tag k="name" v="Langtjern" />
		<tag k="natural" v="water" />
		<tag k="ssr:stedsnr" v="39233" />
	</node>
	<node id="-39913" lat="60.7709861127" lon="9.50107500125">
		<tag k="name" v="Heimtjernet" />
		<tag k="natural" v="water" />
		<tag k="old_name" v="Heimtjednet" />
		<tag k="ssr:stedsnr" v="9791" />
	</node>
	<node id="-39910" lat="60.7661999995" lon="9.48185277916">
		<tag k="alt_name" v="Hølbekken" />
		<tag k="name" v="Holbekken" />
		<tag k="ssr:stedsnr" v="9757" />
		<tag k="waterway" v="stream" />
	</node>
	<node id="-39900" lat="60.7260888908" lon="9.96649166786">
		<tag k="alt_name" v="Borketjern, midtre" />
		<tag k="name" v="Midtre Borketjern" />
		<tag k="natural" v="water" />
		<tag k="ssr:stedsnr" v="7979" />
	</node>
	<node id="-39894" lat="60.7336750029" lon="9.63113888157">
		<tag k="name" v="Kyrputten" />
		<tag k="natural" v="water" />
		<tag k="ssr:stedsnr" v="7947" />
		<tag k="water" v="pond" />
	</node>
	<node id="-39892" lat="60.5865027777" lon="9.68771666458">
		<tag k="name" v="Skardbekken" />
		<tag k="ssr:stedsnr" v="7937" />
		<tag k="waterway" v="stream" />
	</node>
	<node id="-39890" lat="60.6143888924" lon="9.90101667486">
		<tag k="name" v="Hønerbekken" />
		<tag k="ssr:stedsnr" v="7908" />
		<tag k="waterway" v="stream" />
	</node>
	<node id="-39884" lat="60.7038250038" lon="9.82972500399">
		<tag k="name" v="Gravvatnet" />
		<tag k="natural" v="water" />
		<tag k="ssr:stedsnr" v="7892" />
	</node>
	<node id="-39879" lat="60.7014916637" lon="9.65093610629">
		<tag k="name" v="Øyvassbekken" />
		<tag k="ssr:stedsnr" v="7878" />
		<tag k="waterway" v="stream" />
	</node>
	<node id="-39874" lat="60.5333500008" lon="9.760175001">
		<tag k="alt_name" v="Rakkestadbekken, nordre" />
		<tag k="name" v="Nordre Rakkestadbekken" />
		<tag k="ssr:stedsnr" v="7848" />
		<tag k="waterway" v="stream" />
	</node>
	<node id="-39872" lat="60.5729972196" lon="9.49554166361">
		<tag k="name" v="Krokvatnet" />
		<tag k="natural" v="water" />
		<tag k="ssr:stedsnr" v="7819" />
	</node>
	<node id="-39869" lat="60.6702555555" lon="9.36093611978">
		<tag k="name" v="Steintjernet" />
		<tag k="natural" v="water" />
		<tag k="old_name" v="Steintjednet" />
		<tag k="ssr:stedsnr" v="7727" />
	</node>
	<node id="-39867" lat="60.65594167" lon="9.37879999908">
		<tag k="alt_name" v="Storøya" />
		<tag k="name" v="Storøyi" />
		<tag k="place" v="islet" />
		<tag k="ssr:stedsnr" v="7692" />
	</node>
	<node id="-39865" lat="60.6942250023" lon="10.0010277841">
		<tag k="name" v="Kalvetjernet" />
		<tag k="natural" v="water" />
		<tag k="ssr:stedsnr" v="7678" />
	</node>
	<node id="-39864" lat="60.6966638908" lon="9.97932777319">
		<tag k="alt_name" v="Koketjernet, øvre" />
		<tag k="name" v="Øvre Koketjernet" />
		<tag k="natural" v="water" />
		<tag k="ssr:stedsnr" v="7677" />
	</node>
	<node id="-39862" lat="60.6137722201" lon="9.40086943864">
		<tag k="name" v="Strøen" />
		<tag k="natural" v="water" />
		<tag k="ssr:stedsnr" v="7662" />
		<tag k="water" v="lake" />
	</node>
	<node id="-39859" lat="60.7119499963" lon="9.40685000503">
		<tag k="name" v="Marabrennputten" />
		<tag k="natural" v="water" />
		<tag k="ssr:stedsnr" v="7528" />
	</node>
	<node id="-39857" lat="60.7217333335" lon="9.38151111558">
		<tag k="name" v="Ormebekken" />
		<tag k="ssr:stedsnr" v="7522" />
		<tag k="waterway" v="stream" />
	</node>
	<node id="-39830" lat="60.8328999974" lon="9.35067500363">
		<tag k="name" v="Jonsrudbekken" />
		<tag k="ssr:stedsnr" v="968671" />
		<tag k="waterway" v="stream" />
	</node>
	<node id="-39826" lat="60.7371194452" lon="9.54130555653">
		<tag k="name" v="Timannsføssen" />
		<tag k="natural" v="waterfall" />
		<tag k="ssr:stedsnr" v="968473" />
	</node>
	<node id="-39824" lat="60.7280500029" lon="9.52501665954">
		<tag k="name" v="Storebekken" />
		<tag k="ssr:stedsnr" v="968465" />
		<tag k="waterway" v="stream" />
	</node>
	<node id="-39822" lat="60.7977861074" lon="9.51490556102">
		<tag k="name" v="Brøtaputten" />
		<tag k="natural" v="water" />
		<tag k="ssr:stedsnr" v="968268" />
		<tag k="water" v="pond" />
	</node>
	<node id="-39821" lat="60.7707805518" lon="9.7667249976">
		<tag k="name" v="Krokputtbekken" />
		<tag k="ssr:stedsnr" v="968171" />
		<tag k="waterway" v="stream" />
	</node>
	<node id="-39820" lat="60.7931027818" lon="9.7200583266">
		<tag k="name" v="Haftonstjernet" />
		<tag k="natural" v="water" />
		<tag k="old_name" v="Haftonstjednet" />
		<tag k="ssr:stedsnr" v="968165" />
	</node>
	<node id="-39818" lat="60.7437638845" lon="9.5742138939">
		<tag k="name" v="Ausebekken" />
		<tag k="ssr:stedsnr" v="968069" />
		<tag k="waterway" v="stream" />
	</node>
	<node id="-39806" lat="60.5429861077" lon="9.76186111743">
		<tag k="name" v="Purkeskinnpytten" />
		<tag k="natural" v="water" />
		<tag k="ssr:stedsnr" v="949669" />
		<tag k="water" v="pond" />
	</node>
	<node id="-39803" lat="60.6342361069" lon="9.44847222548">
		<tag k="name" v="Høgdetjern" />
		<tag k="natural" v="water" />
		<tag k="ssr:stedsnr" v="949268" />
	</node>
	<node id="-39799" lat="60.7914916644" lon="9.5236277814">
		<tag k="name" v="Krokatn" />
		<tag k="natural" v="water" />
		<tag k="ssr:stedsnr" v="949220" />
		<tag k="water" v="lake" />
	</node>
	<node id="-38492" lat="60.6356305557" lon="9.49137222477">
		<tag k="name" v="Vinstrevatnet" />
		<tag k="natural" v="water" />
		<tag k="ssr:stedsnr" v="221254" />
	</node>
	<node id="-39794" lat="60.7297249984" lon="9.90459444792">
		<tag k="name" v="Langevatn" />
		<tag k="natural" v="water" />
		<tag k="ssr:stedsnr" v="949109" />
	</node>
	<node id="-39792" lat="60.7726611132" lon="9.56706111028">
		<tag k="name" v="Flæbekken" />
		<tag k="ssr:stedsnr" v="920808" />
		<tag k="waterway" v="stream" />
	</node>
	<node id="-39789" lat="60.7687055522" lon="9.31101388077">
		<tag k="alt_name" v="Myljobekken" />
		<tag k="name" v="Miljombekken" />
		<tag k="ssr:stedsnr" v="919776" />
		<tag k="waterway" v="stream" />
	</node>
	<node id="-39787" lat="60.7796027783" lon="9.58158054744">
		<tag k="alt_name" v="Islandselvi" />
		<tag k="name" v="Islandselve" />
		<tag k="ssr:stedsnr" v="919753" />
		<tag k="waterway" v="stream" />
	</node>
	<node id="-39781" lat="60.8256527752" lon="9.6884527814">
		<tag k="name" v="Lierdemma" />
		<tag k="natural" v="water" />
		<tag k="ssr:stedsnr" v="919177" />
	</node>
	<node id="-39779" lat="60.7564472183" lon="9.73892778625">
		<tag k="name" v="Bjørnalitjernet" />
		<tag k="natural" v="water" />
		<tag k="old_name" v="Bjødnalitjednet" />
		<tag k="ssr:stedsnr" v="919174" />
	</node>
	<node id="-39772" lat="60.73467778" lon="9.91214166317">
		<tag k="name" v="Holmevasselva" />
		<tag k="ssr:stedsnr" v="917959" />
		<tag k="waterway" v="stream" />
	</node>
	<node id="-39770" lat="60.7276333297" lon="9.92864444813">
		<tag k="name" v="Damtjernet" />
		<tag k="natural" v="water" />
		<tag k="ssr:stedsnr" v="917956" />
	</node>
	<node id="-39768" lat="60.6919555557" lon="9.91992221398">
		<tag k="name" v="Tretjerna" />
		<tag k="natural" v="water" />
		<tag k="ssr:stedsnr" v="917909" />
		<tag k="water" v="lake" />
	</node>
	<node id="-39767" lat="60.5642555569" lon="9.63467500236">
		<tag k="alt_name" v="Storbekkputtane, vestre;Storbekkputten" />
		<tag k="name" v="Vestre Storbekkputtane" />
		<tag k="natural" v="water" />
		<tag k="ssr:stedsnr" v="917819" />
	</node>
	<node id="-39765" lat="60.6833277739" lon="9.34065000656">
		<tag k="alt_name" v="Nedre Skaraputt" />
		<tag k="name" v="Skardaputten" />
		<tag k="natural" v="water" />
		<tag k="ssr:stedsnr" v="917681" />
	</node>
	<node id="-39763" lat="60.6426681109" lon="9.36298774756">
		<tag k="name" v="Vangstjern" />
		<tag k="natural" v="water" />
		<tag k="ssr:stedsnr" v="917626" />
	</node>
	<node id="-39762" lat="60.642378651" lon="9.46401561398">
		<tag k="name" v="Bergevatna" />
		<tag k="natural" v="water" />
		<tag k="ssr:stedsnr" v="917621" />
		<tag k="water" v="lake" />
	</node>
	<node id="-39761" lat="60.6689333372" lon="9.57883055996">
		<tag k="name" v="Isaktjern" />
		<tag k="natural" v="water" />
		<tag k="ssr:stedsnr" v="917724" />
	</node>
	<node id="-39759" lat="60.7829027776" lon="9.62847499219">
		<tag k="name" v="Purkehølen" />
		<tag k="place" v="locality" />
		<tag k="ssr:stedsnr" v="908921" />
	</node>
	<node id="-39758" lat="60.6111805587" lon="9.51280000006">
		<tag k="name" v="Rennsjøvika" />
		<tag k="natural" v="bay" />
		<tag k="ssr:stedsnr" v="908304" />
	</node>
	<node id="-39748" lat="60.7837027812" lon="9.78682777795">
		<tag k="name" v="Langevatn" />
		<tag k="natural" v="water" />
		<tag k="ssr:stedsnr" v="949439" />
	</node>
	<node id="-39747" lat="60.7394055553" lon="9.78740277926">
		<tag k="name" v="Bergodden" />
		<tag k="natural" v="cape" />
		<tag k="ssr:stedsnr" v="949428" />
	</node>
	<node id="-41099" lat="60.6371694476" lon="9.5189499963">
		<tag k="name" v="Aurtjernbekken" />
		<tag k="ssr:stedsnr" v="828236" />
		<tag k="waterway" v="stream" />
	</node>
	<node id="-39738" lat="60.7851472252" lon="9.51681111231">
		<tag k="name" v="Veglingsrudtjernet" />
		<tag k="natural" v="water" />
		<tag k="old_name" v="Velingsrudtjernet;Veglingsrudtjednet" />
		<tag k="ssr:stedsnr" v="859770" />
	</node>
	<node id="-39737" lat="60.7856583293" lon="9.32439166696">
		<tag k="name" v="Øytjernet" />
		<tag k="natural" v="water" />
		<tag k="old_name" v="Øytjednet" />
		<tag k="ssr:stedsnr" v="859769" />
	</node>
	<node id="-39735" lat="60.750738888" lon="9.36417500876">
		<tag k="name" v="Øytjernet" />
		<tag k="natural" v="water" />
		<tag k="old_name" v="Øytjednet" />
		<tag k="ssr:stedsnr" v="859725" />
	</node>
	<node id="-39727" lat="60.8681777758" lon="9.42163055357">
		<tag k="fixme" v="multiple name tags, choose one and add the other to alt_name" />
		<tag k="name" v="Liaelvi;Vesleelve" />
		<tag k="ssr:stedsnr" v="858709" />
		<tag k="waterway" v="stream" />
	</node>
	<node id="-39725" lat="60.7173247314" lon="9.7476805394">
		<tag k="alt_name" v="Litjenn" />
		<tag k="name" v="Litjernet" />
		<tag k="natural" v="water" />
		<tag k="ssr:stedsnr" v="857973" />
	</node>
	<node id="-39722" lat="60.6371499966" lon="9.70245276974">
		<tag k="name" v="Bergstjernet" />
		<tag k="natural" v="water" />
		<tag k="ssr:stedsnr" v="857969" />
	</node>
	<node id="-39720" lat="60.5863822827" lon="9.51803838455">
		<tag k="alt_name" v="Søvatna" />
		<tag k="name" v="Sørvatna" />
		<tag k="natural" v="water" />
		<tag k="ssr:stedsnr" v="857817" />
		<tag k="water" v="lake" />
	</node>
	<node id="-39716" lat="60.6174805571" lon="9.58076110314">
		<tag k="alt_name" v="Roliputt" />
		<tag k="name" v="Roligputt" />
		<tag k="natural" v="water" />
		<tag k="ssr:stedsnr" v="857676" />
	</node>
	<node id="-39714" lat="60.6920666672" lon="9.9931249922">
		<tag k="name" v="Pruppen" />
		<tag k="natural" v="water" />
		<tag k="ssr:stedsnr" v="857713" />
	</node>
	<node id="-38704" lat="60.5968305588" lon="9.6958250041">
		<tag k="name" v="Tjyrubekken" />
		<tag k="ssr:stedsnr" v="128915" />
		<tag k="waterway" v="stream" />
	</node>
	<node id="-39709" lat="60.6496777752" lon="9.6328805609">
		<tag k="name" v="Nordbytjernet" />
		<tag k="natural" v="water" />
		<tag k="ssr:stedsnr" v="856962" />
	</node>
	<node id="-39708" lat="60.5920500023" lon="9.68984166695">
		<tag k="alt_name" v="Skartjern" />
		<tag k="name" v="Skardtjernet" />
		<tag k="natural" v="water" />
		<tag k="ssr:stedsnr" v="856955" />
	</node>
	<node id="-38703" lat="60.686108335" lon="9.92343333654">
		<tag k="name" v="Femvatna" />
		<tag k="natural" v="water" />
		<tag k="ssr:stedsnr" v="128911" />
		<tag k="water" v="lake" />
	</node>
	<node id="-39701" lat="60.7029583327" lon="9.42725834244">
		<tag k="name" v="Mørevike" />
		<tag k="natural" v="bay" />
		<tag k="ssr:stedsnr" v="847837" />
	</node>
	<node id="-39691" lat="60.5276077898" lon="9.50158735762">
		<tag k="name" v="Skrukkefylla" />
		<tag k="natural" v="water" />
		<tag k="ssr:stedsnr" v="796784" />
		<tag k="water" v="lake" />
	</node>
	<node id="-39688" lat="60.5614944411" lon="9.65614166283">
		<tag k="alt_name" v="Storbekkputtane, østre" />
		<tag k="name" v="Østre Storbekkputtane" />
		<tag k="natural" v="water" />
		<tag k="ssr:stedsnr" v="796830" />
	</node>
	<node id="-38700" lat="60.5685388925" lon="9.69045554679">
		<tag k="name" v="Saubekken" />
		<tag k="ssr:stedsnr" v="128807" />
		<tag k="waterway" v="stream" />
	</node>
	<node id="-39683" lat="60.6268805573" lon="9.53790832584">
		<tag k="alt_name" v="Helsenningselva" />
		<tag k="name" v="Hellsenningselva" />
		<tag k="ssr:stedsnr" v="796628" />
		<tag k="waterway" v="stream" />
	</node>
	<node id="-39681" lat="60.6375111134" lon="9.83938611938">
		<tag k="fixme" v="multiple name tags, choose one and add the other to alt_name" />
		<tag k="loc_name" v="Holotjernet" />
		<tag k="name" v="Testtjernet;Åbortjernet" />
		<tag k="natural" v="water" />
		<tag k="ssr:stedsnr" v="795966" />
	</node>
	<node id="-39679" lat="60.7395036116" lon="9.89661294277">
		<tag k="name" v="Holmevatnet" />
		<tag k="natural" v="water" />
		<tag k="ssr:stedsnr" v="795958" />
		<tag k="water" v="lake" />
	</node>
	<node id="-39678" lat="60.5598416697" lon="9.49253055249">
		<tag k="name" v="Fjellvatnet" />
		<tag k="natural" v="water" />
		<tag k="ssr:stedsnr" v="795849" />
	</node>
	<node id="-39674" lat="60.585366671" lon="9.57901665976">
		<tag k="name" v="Småvassbekken" />
		<tag k="ssr:stedsnr" v="786764" />
		<tag k="waterway" v="stream" />
	</node>
	<node id="-39671" lat="60.8278916628" lon="9.51897778446">
		<tag k="name" v="Åmot" />
		<tag k="natural" v="cape" />
		<tag k="ssr:stedsnr" v="786833" />
	</node>
	<node id="-38697" lat="60.6098249979" lon="9.58089722607">
		<tag k="alt_name" v="Nordre Busuputt" />
		<tag k="name" v="Busuputten" />
		<tag k="natural" v="water" />
		<tag k="ssr:stedsnr" v="128646" />
	</node>
	<node id="-39659" lat="60.7810416633" lon="9.55158056108">
		<tag k="alt_name" v="Storebekk" />
		<tag k="name" v="Storbekken" />
		<tag k="ssr:stedsnr" v="919752" />
		<tag k="waterway" v="stream" />
	</node>
	<node id="-41215" lat="60.8022499989" lon="9.48391944795">
		<tag k="name" v="Ranangen" />
		<tag k="natural" v="water" />
		<tag k="ssr:stedsnr" v="859791" />
	</node>
	<node id="-38694" lat="60.6628972186" lon="9.38777500758">
		<tag k="name" v="Buatjern" />
		<tag k="natural" v="water" />
		<tag k="ssr:stedsnr" v="128728" />
	</node>
	<node id="-39649" lat="60.7324833295" lon="9.60423333506">
		<tag k="name" v="Øykjevassbekken" />
		<tag k="ssr:stedsnr" v="917945" />
		<tag k="waterway" v="stream" />
	</node>
	<node id="-39647" lat="60.6517916636" lon="9.59630277579">
		<tag k="name" v="Haugevollelva" />
		<tag k="ssr:stedsnr" v="917936" />
		<tag k="waterway" v="stream" />
	</node>
	<node id="-39638" lat="60.6079166628" lon="9.6098694461">
		<tag k="alt_name" v="Busua, østre;Busua" />
		<tag k="name" v="Østre Busua" />
		<tag k="ssr:stedsnr" v="917887" />
		<tag k="waterway" v="stream" />
	</node>
	<node id="-39635" lat="60.7410638869" lon="9.76268055057">
		<tag k="alt_name" v="Gravvatnet, vle" />
		<tag k="name" v="Vesle Gravvatnet" />
		<tag k="natural" v="water" />
		<tag k="ssr:stedsnr" v="917801" />
	</node>
	<node id="-38691" lat="60.6663611082" lon="9.97842222063">
		<tag k="alt_name" v="Skjellbreia" />
		<tag k="name" v="Skjellbreida" />
		<tag k="ssr:stedsnr" v="128717" />
		<tag k="waterway" v="river" />
	</node>
	<node id="-39631" lat="60.6106194484" lon="9.47365832432">
		<tag k="alt_name" v="Helseren" />
		<tag k="loc_name" v="Hellseren" />
		<tag k="name" v="Hellsæren" />
		<tag k="natural" v="water" />
		<tag k="ssr:stedsnr" v="917651" />
		<tag k="water" v="lake" />
	</node>
	<node id="-38689" lat="60.6518533228" lon="9.50225786588">
		<tag k="fixme" v="multiple name tags, choose one and add the other to alt_name" />
		<tag k="name" v="Brennputt;Brennskarputten" />
		<tag k="natural" v="water" />
		<tag k="ssr:stedsnr" v="128709" />
	</node>
	<node id="-39620" lat="60.6504694432" lon="9.47244444548">
		<tag k="name" v="Øvre Snelletjern" />
		<tag k="natural" v="water" />
		<tag k="ssr:stedsnr" v="767293" />
	</node>
	<node id="-39613" lat="60.7347166663" lon="9.37937778619">
		<tag k="name" v="Risbekken" />
		<tag k="ssr:stedsnr" v="908996" />
		<tag k="waterway" v="stream" />
	</node>
	<node id="-39612" lat="60.767452778" lon="9.38020277768">
		<tag k="name" v="Heimskarbekken" />
		<tag k="ssr:stedsnr" v="908994" />
		<tag k="waterway" v="stream" />
	</node>
	<node id="-39605" lat="60.8370249974" lon="9.37078889724">
		<tag k="name" v="Heggerustputten" />
		<tag k="natural" v="water" />
		<tag k="ssr:stedsnr" v="908668" />
	</node>
	<node id="-39582" lat="60.7369249958" lon="9.77783332418">
		<tag k="name" v="Drengsprengpullen" />
		<tag k="natural" v="water" />
		<tag k="ssr:stedsnr" v="908139" />
	</node>
	<node id="-39581" lat="60.7399527799" lon="9.76958611039">
		<tag k="name" v="Åborauga" />
		<tag k="natural" v="water" />
		<tag k="old_name" v="Øbberauga" />
		<tag k="ssr:stedsnr" v="908136" />
	</node>
	<node id="-39705" lat="60.6904111117" lon="9.34362499814">
		<tag k="name" v="Vesletjernet" />
		<tag k="natural" v="water" />
		<tag k="old_name" v="Vesletjednet" />
		<tag k="ssr:stedsnr" v="856720" />
	</node>
	<node id="-39572" lat="60.7428361119" lon="9.55312221851">
		<tag k="name" v="Struntebrøtabekken" />
		<tag k="ssr:stedsnr" v="908065" />
		<tag k="waterway" v="stream" />
	</node>
	<node id="-38680" lat="60.6497888896" lon="9.38051666662">
		<tag k="name" v="Gamle Vangsoset" />
		<tag k="ssr:stedsnr" v="119802" />
		<tag k="waterway" v="dam" />
	</node>
	<node id="-39558" lat="60.7046583335" lon="9.36199999976">
		<tag k="alt_name" v="Kælken" />
		<tag k="name" v="Kalken" />
		<tag k="natural" v="water" />
		<tag k="ssr:stedsnr" v="735524" />
	</node>
	<node id="-39556" lat="60.7085888883" lon="9.50427500408">
		<tag k="name" v="Nysæterputten" />
		<tag k="natural" v="water" />
		<tag k="ssr:stedsnr" v="735519" />
	</node>
	<node id="-39554" lat="60.7167999967" lon="9.50015277943">
		<tag k="alt_name" v="Fløtatn" />
		<tag k="name" v="Fløtan" />
		<tag k="natural" v="water" />
		<tag k="ssr:stedsnr" v="735515" />
	</node>
	<node id="-39549" lat="60.6927527797" lon="9.59735833502">
		<tag k="name" v="Kollsæterbekken" />
		<tag k="ssr:stedsnr" v="726187" />
		<tag k="waterway" v="stream" />
	</node>
	<node id="-39535" lat="60.8246500013" lon="9.36697222117">
		<tag k="name" v="Åbordammen" />
		<tag k="natural" v="water" />
		<tag k="old_name" v="Øbberdammen" />
		<tag k="ssr:stedsnr" v="725589" />
	</node>
	<node id="-39529" lat="60.7389666623" lon="9.70830832618">
		<tag k="name" v="Storhølen" />
		<tag k="place" v="locality" />
		<tag k="ssr:stedsnr" v="706210" />
	</node>
	<node id="-38483" lat="60.6722416666" lon="9.6767000073">
		<tag k="name" v="Øyvatnet" />
		<tag k="natural" v="water" />
		<tag k="ssr:stedsnr" v="6956" />
	</node>
	<node id="-39518" lat="60.5382166711" lon="9.63083889039">
		<tag k="name" v="Bjorhølen" />
		<tag k="place" v="locality" />
		<tag k="ssr:stedsnr" v="889892" />
	</node>
	<node id="-39511" lat="60.7972083367" lon="9.36022222191">
		<tag k="name" v="Rekoblatjernet" />
		<tag k="natural" v="water" />
		<tag k="old_name" v="Rekoblatjednet" />
		<tag k="ssr:stedsnr" v="889566" />
	</node>
	<node id="-39507" lat="60.6088694438" lon="9.58494167277">
		<tag k="name" v="Midtre Busuputt" />
		<tag k="natural" v="water" />
		<tag k="ssr:stedsnr" v="889376" />
	</node>
	<node id="-39495" lat="60.6417222188" lon="9.51744443924">
		<tag k="name" v="Djupedalsbekken" />
		<tag k="ssr:stedsnr" v="889271" />
		<tag k="waterway" v="stream" />
	</node>
	<node id="-39494" lat="60.744783335" lon="9.71192223098">
		<tag k="name" v="Otertjennbekken" />
		<tag k="ssr:stedsnr" v="889233" />
		<tag k="waterway" v="stream" />
	</node>
	<node id="-39573" lat="60.7466083325" lon="9.58568333995">
		<tag k="name" v="Gunhildbrøtabekken" />
		<tag k="ssr:stedsnr" v="908071" />
		<tag k="waterway" v="stream" />
	</node>
	<node id="-39485" lat="60.7272138859" lon="9.92729167304">
		<tag k="name" v="Langbergsdammen" />
		<tag k="ssr:stedsnr" v="889132" />
		<tag k="waterway" v="dam" />
	</node>
	<node id="-39484" lat="60.6999694478" lon="9.96720277728">
		<tag k="name" v="Etnedalstjernet" />
		<tag k="natural" v="water" />
		<tag k="ssr:stedsnr" v="889128" />
	</node>
	<node id="-39479" lat="60.8008638932" lon="9.77835556398">
		<tag k="alt_name" v="Skjærsteinsputten" />
		<tag k="name" v="Skjersteinputten" />
		<tag k="natural" v="water" />
		<tag k="ssr:stedsnr" v="677204" />
	</node>
	<node id="-41209" lat="60.7783472229" lon="9.79710833065">
		<tag k="alt_name" v="Brakaøyvatnet" />
		<tag k="name" v="Øyvatnet" />
		<tag k="natural" v="water" />
		<tag k="ssr:stedsnr" v="858148" />
	</node>
	<node id="-39471" lat="60.6969055542" lon="9.76707500089">
		<tag k="name" v="Storbekktjernet" />
		<tag k="natural" v="water" />
		<tag k="ssr:stedsnr" v="675916" />
	</node>
	<node id="-39466" lat="60.6667805538" lon="9.35001665951">
		<tag k="name" v="Bergatjern" />
		<tag k="natural" v="water" />
		<tag k="ssr:stedsnr" v="675757" />
	</node>
	<node id="-39465" lat="60.7440694445" lon="9.72202777172">
		<tag k="name" v="Gullringputten" />
		<tag k="natural" v="water" />
		<tag k="ssr:stedsnr" v="675829" />
	</node>
	<node id="-39464" lat="60.7470833347" lon="9.72901110473">
		<tag k="name" v="Otertjern" />
		<tag k="natural" v="water" />
		<tag k="old_name" v="Otertjedn" />
		<tag k="ssr:stedsnr" v="675820" />
	</node>
	<node id="-39462" lat="60.7329833333" lon="9.74766943813">
		<tag k="name" v="Langvasspullen" />
		<tag k="natural" v="water" />
		<tag k="ssr:stedsnr" v="674927" />
	</node>
	<node id="-39458" lat="60.5762138862" lon="9.67405278042">
		<tag k="alt_name" v="Sautjernet, nedre" />
		<tag k="name" v="Nedre Sautjern" />
		<tag k="natural" v="water" />
		<tag k="ssr:stedsnr" v="674913" />
	</node>
	<node id="-39457" lat="60.6056277753" lon="9.89395833448">
		<tag k="name" v="Åbortjernet" />
		<tag k="natural" v="water" />
		<tag k="ssr:stedsnr" v="674907" />
	</node>
	<node id="-39450" lat="60.5676166641" lon="9.7844388967">
		<tag k="name" v="Baklitjernet" />
		<tag k="natural" v="water" />
		<tag k="ssr:stedsnr" v="674815" />
	</node>
	<node id="-39447" lat="60.7332750025" lon="9.46317221369">
		<tag k="name" v="Bukfylla" />
		<tag k="ssr:stedsnr" v="674557" />
		<tag k="waterway" v="stream" />
	</node>
	<node id="-39446" lat="60.6541361119" lon="9.36322500265">
		<tag k="name" v="Trytehølsfjord" />
		<tag k="natural" v="bay" />
		<tag k="ssr:stedsnr" v="665806" />
	</node>
	<node id="-39445" lat="60.6312416634" lon="9.47190556102">
		<tag k="name" v="Godvatnet" />
		<tag k="natural" v="water" />
		<tag k="ssr:stedsnr" v="665667" />
	</node>
	<node id="-39444" lat="60.7284972212" lon="9.42196111432">
		<tag k="name" v="Raubekken" />
		<tag k="ssr:stedsnr" v="665942" />
		<tag k="waterway" v="stream" />
	</node>
	<node id="-39442" lat="60.6027611073" lon="9.72246111518">
		<tag k="name" v="Drettbekken" />
		<tag k="ssr:stedsnr" v="665519" />
		<tag k="waterway" v="stream" />
	</node>
	<node id="-39438" lat="60.7623555529" lon="9.57338333437">
		<tag k="name" v="Dugurdsbekken" />
		<tag k="ssr:stedsnr" v="665093" />
		<tag k="waterway" v="stream" />
	</node>
	<node id="-39432" lat="60.6163805548" lon="9.46903611198">
		<tag k="name" v="Vøllstøbekken" />
		<tag k="ssr:stedsnr" v="664339" />
		<tag k="waterway" v="stream" />
	</node>
	<node id="-39431" lat="60.8565472237" lon="9.55784166021">
		<tag k="name" v="Kirkebergtjernet" />
		<tag k="natural" v="water" />
		<tag k="old_name" v="Kirkebergtjednet" />
		<tag k="ssr:stedsnr" v="659903" />
	</node>
	<node id="-38657" lat="60.8275638905" lon="9.34816388317">
		<tag k="name" v="Stølstjernet" />
		<tag k="natural" v="water" />
		<tag k="old_name" v="Stølstjednet" />
		<tag k="ssr:stedsnr" v="251880" />
	</node>
	<node id="-39428" lat="60.7149333353" lon="9.90280278082">
		<tag k="name" v="Prestkjerringtjernet" />
		<tag k="natural" v="water" />
		<tag k="ssr:stedsnr" v="735995" />
	</node>
	<node id="-39427" lat="60.7110750038" lon="9.87306388653">
		<tag k="name" v="Saubekktjernet" />
		<tag k="natural" v="water" />
		<tag k="ssr:stedsnr" v="735992" />
	</node>
	<node id="-39426" lat="60.7192833338" lon="9.81095277321">
		<tag k="alt_name" v="Bergvatnet, nedre;Nedre Bergavatnet" />
		<tag k="name" v="Nedre Bergvatnet" />
		<tag k="natural" v="water" />
		<tag k="ssr:stedsnr" v="735991" />
	</node>
	<node id="-39425" lat="60.7070194474" lon="9.75203333592">
		<tag k="name" v="Nysætertjernet" />
		<tag k="natural" v="water" />
		<tag k="ssr:stedsnr" v="735989" />
	</node>
	<node id="-39424" lat="60.7050277755" lon="9.66542500681">
		<tag k="name" v="Kleivbekken" />
		<tag k="ssr:stedsnr" v="735986" />
		<tag k="waterway" v="stream" />
	</node>
	<node id="-39423" lat="60.6367916632" lon="9.93747221713">
		<tag k="name" v="Pettvasspullen" />
		<tag k="natural" v="water" />
		<tag k="ssr:stedsnr" v="735984" />
	</node>
	<node id="-39422" lat="60.7209861148" lon="9.920975003">
		<tag k="alt_name" v="Helgevann" />
		<tag k="name" v="Helgevatnet" />
		<tag k="natural" v="water" />
		<tag k="ssr:stedsnr" v="735983" />
	</node>
	<node id="-39421" lat="60.7229305512" lon="9.83227221358">
		<tag k="alt_name" v="Tverrvasselve" />
		<tag k="name" v="Tverrvasselva" />
		<tag k="ssr:stedsnr" v="735979" />
		<tag k="waterway" v="stream" />
	</node>
	<node id="-39420" lat="60.719700004" lon="9.8190444508">
		<tag k="name" v="Tetetjernet" />
		<tag k="natural" v="water" />
		<tag k="ssr:stedsnr" v="735978" />
	</node>
	<node id="-39418" lat="60.715944191" lon="9.76290567889">
		<tag k="name" v="Vesteråsen" />
		<tag k="natural" v="water" />
		<tag k="ssr:stedsnr" v="735974" />
		<tag k="water" v="lake" />
	</node>
	<node id="-39414" lat="60.6428138862" lon="9.79114999174">
		<tag k="name" v="Kvernbekken" />
		<tag k="ssr:stedsnr" v="735952" />
		<tag k="waterway" v="stream" />
	</node>
	<node id="-39412" lat="60.7364544227" lon="9.74004672467">
		<tag k="alt_name" v="Langevatn" />
		<tag k="name" v="Langvatnet" />
		<tag k="natural" v="water" />
		<tag k="ssr:stedsnr" v="735941" />
	</node>
	<node id="-39411" lat="60.6551986153" lon="9.68648596646">
		<tag k="name" v="Gråtetjern" />
		<tag k="natural" v="water" />
		<tag k="ssr:stedsnr" v="735939" />
	</node>
	<node id="-41043" lat="60.6875666678" lon="9.76893610276">
		<tag k="name" v="Storbekken" />
		<tag k="ssr:stedsnr" v="795894" />
		<tag k="waterway" v="stream" />
	</node>
	<node id="-39407" lat="60.5792166628" lon="9.62068055245">
		<tag k="alt_name" v="Storbekken, vestre;Storbekken;Vestre Storbekk" />
		<tag k="name" v="Vestre Storbekken" />
		<tag k="ssr:stedsnr" v="735923" />
		<tag k="waterway" v="stream" />
	</node>
	<node id="-39405" lat="60.683563885" lon="9.89148888712">
		<tag k="name" v="Sandbekktjernet" />
		<tag k="natural" v="water" />
		<tag k="ssr:stedsnr" v="735915" />
	</node>
	<node id="-39404" lat="60.6778361155" lon="9.81962778518">
		<tag k="name" v="Svarttjern" />
		<tag k="natural" v="water" />
		<tag k="ssr:stedsnr" v="735910" />
	</node>
	<node id="-41002" lat="60.7993138906" lon="9.61575554827">
		<tag k="name" v="Frøskepytt" />
		<tag k="natural" v="water" />
		<tag k="ssr:stedsnr" v="767987" />
	</node>
	<node id="-39398" lat="60.7036333355" lon="9.80970000377">
		<tag k="alt_name" v="Åbortjern, vle;Åbortjern, vesle" />
		<tag k="name" v="Vesle Åbortjernet" />
		<tag k="natural" v="water" />
		<tag k="ssr:stedsnr" v="735890" />
	</node>
	<node id="-39397" lat="60.7050638868" lon="9.84664999116">
		<tag k="name" v="Saubekken" />
		<tag k="ssr:stedsnr" v="735888" />
		<tag k="waterway" v="stream" />
	</node>
	<node id="-39396" lat="60.6204888926" lon="9.83445555562">
		<tag k="alt_name" v="Einstetjern" />
		<tag k="name" v="Ensligetjern" />
		<tag k="natural" v="water" />
		<tag k="ssr:stedsnr" v="735887" />
	</node>
	<node id="-39395" lat="60.7085138906" lon="9.90286111777">
		<tag k="name" v="Åbortjernet" />
		<tag k="natural" v="water" />
		<tag k="ssr:stedsnr" v="735885" />
	</node>
	<node id="-39387" lat="60.5549527767" lon="9.66945000088">
		<tag k="name" v="Liskogbekken" />
		<tag k="ssr:stedsnr" v="735834" />
		<tag k="waterway" v="stream" />
	</node>
	<node id="-39386" lat="60.590858186" lon="9.42261546464">
		<tag k="name" v="Strøselve" />
		<tag k="ssr:stedsnr" v="735803" />
		<tag k="waterway" v="river" />
	</node>
	<node id="-39383" lat="60.5282722219" lon="9.51590833979">
		<tag k="name" v="Greineløken" />
		<tag k="natural" v="water" />
		<tag k="ssr:stedsnr" v="735764" />
	</node>
	<node id="-39382" lat="60.534916668" lon="9.52331666082">
		<tag k="name" v="Lomsoddviki" />
		<tag k="natural" v="bay" />
		<tag k="ssr:stedsnr" v="735747" />
	</node>
	<node id="-39379" lat="60.6614083345" lon="9.59141667197">
		<tag k="alt_name" v="Skålevatnet, nedre;Skålevatn" />
		<tag k="name" v="Nedre Skålevatnet" />
		<tag k="natural" v="water" />
		<tag k="ssr:stedsnr" v="735720" />
	</node>
	<node id="-39378" lat="60.6615250009" lon="9.42542222587">
		<tag k="alt_name" v="Teinvatnet, øvre" />
		<tag k="name" v="Øvre Teinvatnet" />
		<tag k="natural" v="water" />
		<tag k="ssr:stedsnr" v="735717" />
	</node>
	<node id="-39377" lat="60.6837972236" lon="9.3666638966">
		<tag k="alt_name" v="Alketjern, midtre" />
		<tag k="name" v="Midtre Alketjern" />
		<tag k="natural" v="water" />
		<tag k="ssr:stedsnr" v="735689" />
	</node>
	<node id="-39376" lat="60.6795138855" lon="9.59034999963">
		<tag k="name" v="Elgevatnet" />
		<tag k="natural" v="water" />
		<tag k="ssr:stedsnr" v="735683" />
	</node>
	<node id="-39375" lat="60.6441999956" lon="9.48520000144">
		<tag k="name" v="Holmetjern" />
		<tag k="natural" v="water" />
		<tag k="ssr:stedsnr" v="735637" />
	</node>
	<node id="-39373" lat="60.6338190472" lon="9.46949076939">
		<tag k="name" v="Godvatna" />
		<tag k="natural" v="water" />
		<tag k="ssr:stedsnr" v="735633" />
		<tag k="water" v="lake" />
	</node>
	<node id="-39372" lat="60.7343055562" lon="9.50155278415">
		<tag k="name" v="Tanterhaugtjernet" />
		<tag k="natural" v="water" />
		<tag k="old_name" v="Tanterhaugtjednet" />
		<tag k="ssr:stedsnr" v="735540" />
	</node>
	<node id="-39371" lat="60.4910583364" lon="9.71359722899">
		<tag k="name" v="Fjellelva" />
		<tag k="ssr:stedsnr" v="734936" />
		<tag k="waterway" v="stream" />
	</node>
	<node id="-39368" lat="60.7137111145" lon="9.47338333699">
		<tag k="name" v="Langfløten" />
		<tag k="natural" v="water" />
		<tag k="ssr:stedsnr" v="645916" />
		<tag k="water" v="lake" />
	</node>
	<node id="-39353" lat="60.5991194416" lon="9.77083610945">
		<tag k="name" v="Brakapullen" />
		<tag k="natural" v="water" />
		<tag k="ssr:stedsnr" v="726483" />
	</node>
	<node id="-39352" lat="60.6149083306" lon="9.69788611816">
		<tag k="name" v="Brennbekken" />
		<tag k="ssr:stedsnr" v="726468" />
		<tag k="waterway" v="stream" />
	</node>
	<node id="-39348" lat="60.7312972261" lon="9.51257778249">
		<tag k="name" v="Vesle Bukfyllputten" />
		<tag k="natural" v="water" />
		<tag k="ssr:stedsnr" v="726457" />
	</node>
	<node id="-39346" lat="60.7342027763" lon="9.48351388876">
		<tag k="name" v="Halvorføss" />
		<tag k="natural" v="waterfall" />
		<tag k="ssr:stedsnr" v="726247" />
	</node>
	<node id="-39340" lat="60.7804166625" lon="9.57495833707">
		<tag k="name" v="Ukseføssen" />
		<tag k="natural" v="waterfall" />
		<tag k="ssr:stedsnr" v="726077" />
	</node>
	<node id="-39326" lat="60.7724305579" lon="9.45535000055">
		<tag k="name" v="Øgnbekken" />
		<tag k="ssr:stedsnr" v="615778" />
		<tag k="waterway" v="stream" />
	</node>
	<node id="-41204" lat="60.6385249991" lon="9.92926111643">
		<tag k="alt_name" v="Jenserudpullen" />
		<tag k="name" v="Jonsrudputten" />
		<tag k="natural" v="water" />
		<tag k="ssr:stedsnr" v="857982" />
	</node>
	<node id="-39320" lat="60.8421388909" lon="9.45528889375">
		<tag k="name" v="Klopptjernet" />
		<tag k="natural" v="water" />
		<tag k="old_name" v="Klopptjednet" />
		<tag k="ssr:stedsnr" v="615609" />
	</node>
	<node id="-39318" lat="60.7585083366" lon="9.92306111637">
		<tag k="name" v="Rennelstjernet" />
		<tag k="natural" v="water" />
		<tag k="old_name" v="Rennelstjednet" />
		<tag k="ssr:stedsnr" v="615162" />
	</node>
	<node id="-39317" lat="60.7582329499" lon="9.79999921419">
		<tag k="alt_name" v="Våvålsvatni" />
		<tag k="name" v="Våvålsvatna" />
		<tag k="natural" v="water" />
		<tag k="ssr:stedsnr" v="615160" />
		<tag k="water" v="lake" />
	</node>
	<node id="-39314" lat="60.676844446" lon="9.37978888328">
		<tag k="name" v="Blekkatjernet" />
		<tag k="natural" v="water" />
		<tag k="old_name" v="Blekkitjednet" />
		<tag k="ssr:stedsnr" v="614779" />
	</node>
	<node id="-39312" lat="60.8221749992" lon="9.61041667018">
		<tag k="name" v="Gråndalsbekken" />
		<tag k="ssr:stedsnr" v="721109" />
		<tag k="waterway" v="stream" />
	</node>
	<node id="-39306" lat="60.7172166643" lon="9.93765277596">
		<tag k="name" v="Fuglehaugbekken" />
		<tag k="ssr:stedsnr" v="613983" />
		<tag k="waterway" v="stream" />
	</node>
	<node id="-39303" lat="60.7103166688" lon="9.78168332511">
		<tag k="alt_name" v="Svarthølputten" />
		<tag k="name" v="Svartholputten" />
		<tag k="natural" v="water" />
		<tag k="ssr:stedsnr" v="613975" />
	</node>
	<node id="-39298" lat="60.7278861088" lon="9.80293611323">
		<tag k="alt_name" v="Bergvatnet, øvre;Øvre Bergavatnet" />
		<tag k="name" v="Øvre Bergvatnet" />
		<tag k="natural" v="water" />
		<tag k="ssr:stedsnr" v="613954" />
	</node>
	<node id="-39296" lat="60.5498166663" lon="9.53788611884">
		<tag k="name" v="Gjuvbekken" />
		<tag k="ssr:stedsnr" v="613855" />
		<tag k="waterway" v="stream" />
	</node>
	<node id="-39295" lat="60.5573138875" lon="9.88084166466">
		<tag k="name" v="Urula" />
		<tag k="ssr:stedsnr" v="613844" />
		<tag k="waterway" v="river" />
	</node>
	<node id="-39291" lat="60.5886083358" lon="9.49556112012">
		<tag k="alt_name" v="Flåtevatnet" />
		<tag k="name" v="Flåtåvatnet" />
		<tag k="natural" v="water" />
		<tag k="ssr:stedsnr" v="613808" />
	</node>
	<node id="-39289" lat="60.5344305573" lon="9.47974166404">
		<tag k="alt_name" v="Pålsonviki" />
		<tag k="name" v="Pålsonvika" />
		<tag k="natural" v="bay" />
		<tag k="ssr:stedsnr" v="613742" />
	</node>
	<node id="-39283" lat="60.6046222259" lon="9.47235000333">
		<tag k="name" v="Slavika" />
		<tag k="natural" v="bay" />
		<tag k="ssr:stedsnr" v="604379" />
	</node>
	<node id="-39281" lat="60.6939944471" lon="9.33951388369">
		<tag k="name" v="Revopvike" />
		<tag k="natural" v="bay" />
		<tag k="ssr:stedsnr" v="603817" />
	</node>
	<node id="-39280" lat="60.8000138865" lon="9.52420556044">
		<tag k="name" v="Loppekjelda" />
		<tag k="natural" v="spring" />
		<tag k="ssr:stedsnr" v="603223" />
	</node>
	<node id="-38632" lat="60.7324250012" lon="9.35061389676">
		<tag k="alt_name" v="Skarsputten" />
		<tag k="name" v="Skardsputten" />
		<tag k="natural" v="water" />
		<tag k="ssr:stedsnr" v="250537" />
	</node>
	<node id="-41106" lat="60.652461108" lon="9.47351666552">
		<tag k="name" v="Nedre Snelletjern" />
		<tag k="natural" v="water" />
		<tag k="ssr:stedsnr" v="828295" />
	</node>
	<node id="-39273" lat="60.5543777791" lon="9.73997776956">
		<tag k="name" v="Kvernfossa" />
		<tag k="natural" v="waterfall" />
		<tag k="ssr:stedsnr" v="585664" />
	</node>
	<node id="-39270" lat="60.6672111091" lon="9.46545278417">
		<tag k="name" v="Muggedalsbekken" />
		<tag k="ssr:stedsnr" v="585268" />
		<tag k="waterway" v="stream" />
	</node>
	<node id="-39269" lat="60.65164722" lon="9.48745832776">
		<tag k="name" v="Dekarputten" />
		<tag k="natural" v="water" />
		<tag k="ssr:stedsnr" v="585266" />
	</node>
	<node id="-39267" lat="60.660075002" lon="9.51561943592">
		<tag k="name" v="Trestikkbogen" />
		<tag k="natural" v="bay" />
		<tag k="ssr:stedsnr" v="585255" />
	</node>
	<node id="-39266" lat="60.6544583378" lon="9.49834443987">
		<tag k="name" v="Trestikkpullen" />
		<tag k="natural" v="bay" />
		<tag k="ssr:stedsnr" v="585254" />
	</node>
	<node id="-39264" lat="60.5704277809" lon="9.77901111993">
		<tag k="name" v="Nerstadammen" />
		<tag k="natural" v="water" />
		<tag k="ssr:stedsnr" v="585505" />
	</node>
	<node id="-38629" lat="60.6550916638" lon="9.9115361194">
		<tag k="name" v="Brynjulvstjernet" />
		<tag k="natural" v="water" />
		<tag k="ssr:stedsnr" v="249977" />
	</node>
	<node id="-39254" lat="60.7145527754" lon="9.47835834074">
		<tag k="name" v="Liarvøllfløten" />
		<tag k="natural" v="water" />
		<tag k="ssr:stedsnr" v="706924" />
		<tag k="water" v="lake" />
	</node>
	<node id="-39249" lat="60.5322527734" lon="9.805861116">
		<tag k="name" v="Natronbekken" />
		<tag k="ssr:stedsnr" v="706788" />
		<tag k="waterway" v="stream" />
	</node>
	<node id="-39244" lat="60.5504222253" lon="9.74771388414">
		<tag k="name" v="Åmot" />
		<tag k="place" v="locality" />
		<tag k="ssr:stedsnr" v="706679" />
	</node>
	<node id="-39243" lat="60.5441416678" lon="9.72729444182">
		<tag k="name" v="Aurdalsfossa" />
		<tag k="natural" v="waterfall" />
		<tag k="ssr:stedsnr" v="706673" />
	</node>
	<node id="-39239" lat="60.6300027813" lon="9.7060861168">
		<tag k="name" v="Skartjern" />
		<tag k="natural" v="water" />
		<tag k="ssr:stedsnr" v="706299" />
	</node>
	<node id="-39234" lat="60.6293222265" lon="9.52033611807">
		<tag k="name" v="Ukseputt" />
		<tag k="natural" v="water" />
		<tag k="ssr:stedsnr" v="706266" />
	</node>
	<node id="-39229" lat="60.7609333321" lon="9.75371388443">
		<tag k="name" v="Øyvatnet" />
		<tag k="natural" v="water" />
		<tag k="ssr:stedsnr" v="555139" />
	</node>
	<node id="-39228" lat="60.7716333341" lon="9.70122221764">
		<tag k="name" v="Busjøen" />
		<tag k="natural" v="water" />
		<tag k="ssr:stedsnr" v="555131" />
	</node>
	<node id="-39227" lat="60.7424305594" lon="9.71518888345">
		<tag k="name" v="Nysæterbekken" />
		<tag k="ssr:stedsnr" v="555130" />
		<tag k="waterway" v="stream" />
	</node>
	<node id="-41273" lat="60.6989849532" lon="9.31791131767">
		<tag k="name" v="Høvren" />
		<tag k="natural" v="water" />
		<tag k="ssr:stedsnr" v="7686" />
		<tag k="water" v="lake" />
	</node>
	<node id="-39224" lat="60.8055249995" lon="9.43052777379">
		<tag k="name" v="Vesma" />
		<tag k="ssr:stedsnr" v="554852" />
		<tag k="waterway" v="stream" />
	</node>
	<node id="-39222" lat="60.8374277823" lon="9.5612527772">
		<tag k="name" v="Steintjernet" />
		<tag k="natural" v="water" />
		<tag k="old_name" v="Steintjednet" />
		<tag k="ssr:stedsnr" v="554677" />
	</node>
	<node id="-39218" lat="60.7183888853" lon="9.67931666437">
		<tag k="fixme" v="multiple name tags, choose one and add the other to alt_name" />
		<tag k="name" v="Garthusbekken;Sagbekken" />
		<tag k="ssr:stedsnr" v="553961" />
		<tag k="waterway" v="stream" />
	</node>
	<node id="-39213" lat="60.7388083304" lon="9.7764027854">
		<tag k="name" v="Hallbrøtaputten" />
		<tag k="natural" v="water" />
		<tag k="ssr:stedsnr" v="543153" />
	</node>
	<node id="-39204" lat="60.7724805544" lon="9.78093333598">
		<tag k="name" v="Bjønnaputt" />
		<tag k="natural" v="water" />
		<tag k="ssr:stedsnr" v="524436" />
	</node>
	<node id="-39200" lat="60.7135055519" lon="9.62339722977">
		<tag k="name" v="Andetjenn" />
		<tag k="natural" v="water" />
		<tag k="ssr:stedsnr" v="524136" />
	</node>
	<node id="-39199" lat="60.7147944405" lon="9.60452222693">
		<tag k="name" v="Nysæterputten" />
		<tag k="natural" v="water" />
		<tag k="ssr:stedsnr" v="524135" />
		<tag k="water" v="pond" />
	</node>
	<node id="-39194" lat="60.8315166644" lon="9.54092499429">
		<tag k="name" v="Sagbekken" />
		<tag k="ssr:stedsnr" v="676837" />
		<tag k="waterway" v="stream" />
	</node>
	<node id="-41240" lat="60.71334167" lon="9.36008889616">
		<tag k="name" v="Rundetjernet" />
		<tag k="natural" v="water" />
		<tag k="old_name" v="Rundetjednet" />
		<tag k="ssr:stedsnr" v="968862" />
	</node>
	<node id="-41237" lat="60.7819388912" lon="9.40778333446">
		<tag k="name" v="Vesle Øgntjernet" />
		<tag k="natural" v="water" />
		<tag k="old_name" v="Vesle Øgntjednet" />
		<tag k="ssr:stedsnr" v="968694" />
	</node>
	<node id="-41235" lat="60.8248555512" lon="9.35589443748">
		<tag k="name" v="Maradammen" />
		<tag k="natural" v="water" />
		<tag k="ssr:stedsnr" v="968685" />
	</node>
	<node id="-39186" lat="60.7071916668" lon="9.87466389266">
		<tag k="name" v="Tørrfisktjernet" />
		<tag k="natural" v="water" />
		<tag k="ssr:stedsnr" v="675891" />
	</node>
	<node id="-39183" lat="60.6556805536" lon="9.57255554807">
		<tag k="name" v="Skålevassbekken" />
		<tag k="ssr:stedsnr" v="675747" />
		<tag k="waterway" v="stream" />
	</node>
	<node id="-39181" lat="60.6686277764" lon="9.37808332672">
		<tag k="name" v="Svartefjorden" />
		<tag k="natural" v="water" />
		<tag k="ssr:stedsnr" v="675773" />
	</node>
	<node id="-41225" lat="60.7726388908" lon="9.68573610775">
		<tag k="name" v="Tverrbekken" />
		<tag k="ssr:stedsnr" v="968186" />
		<tag k="waterway" v="stream" />
	</node>
	<node id="-41224" lat="60.6462333329" lon="10.0245611079">
		<tag k="name" v="Dansertjern" />
		<tag k="natural" v="water" />
		<tag k="ssr:stedsnr" v="968181" />
	</node>
	<node id="-41003" lat="60.8116916639" lon="9.65369721751">
		<tag k="name" v="Liabekkputten" />
		<tag k="natural" v="water" />
		<tag k="ssr:stedsnr" v="767989" />
	</node>
	<node id="-39168" lat="60.7286833321" lon="9.9630138863">
		<tag k="alt_name" v="Borketjern, nordre" />
		<tag k="name" v="Nordre Borketjern" />
		<tag k="natural" v="water" />
		<tag k="ssr:stedsnr" v="674970" />
	</node>
	<node id="-39167" lat="60.5626083323" lon="9.55444165766">
		<tag k="alt_name" v="Storausttjernet" />
		<tag k="name" v="Storausttjern" />
		<tag k="natural" v="water" />
		<tag k="ssr:stedsnr" v="674843" />
	</node>
	<node id="-39163" lat="60.6797805582" lon="9.82641389014">
		<tag k="alt_name" v="Blekatjernet" />
		<tag k="name" v="Blekketjernet" />
		<tag k="natural" v="water" />
		<tag k="ssr:stedsnr" v="674894" />
	</node>
	<node id="-41210" lat="60.784875" lon="9.63256667407">
		<tag k="fixme" v="multiple name tags, choose one and add the other to alt_name" />
		<tag k="name" v="Milevassbekken;Sagbekken" />
		<tag k="ssr:stedsnr" v="858150" />
		<tag k="waterway" v="stream" />
	</node>
	<node id="-39161" lat="60.676666669" lon="9.8630361069">
		<tag k="name" v="Brennsteikbekken" />
		<tag k="ssr:stedsnr" v="674886" />
		<tag k="waterway" v="stream" />
	</node>
	<node id="-41207" lat="60.7043611132" lon="9.91020000395">
		<tag k="name" v="Storhaugtjernet" />
		<tag k="natural" v="water" />
		<tag k="ssr:stedsnr" v="857887" />
	</node>
	<node id="-39157" lat="60.6946916701" lon="9.95230556085">
		<tag k="name" v="Etnedalsbekken" />
		<tag k="ssr:stedsnr" v="674877" />
		<tag k="waterway" v="stream" />
	</node>
	<node id="-39156" lat="60.6114250008" lon="9.66000278111">
		<tag k="name" v="Busua" />
		<tag k="ssr:stedsnr" v="674876" />
		<tag k="waterway" v="river" />
	</node>
	<node id="-39155" lat="60.6268305527" lon="9.84684443573">
		<tag k="alt_name" v="Lomtjerna" />
		<tag k="name" v="Østre Lomtjerna" />
		<tag k="natural" v="water" />
		<tag k="ssr:stedsnr" v="674872" />
		<tag k="water" v="lake" />
	</node>
	<node id="-41202" lat="60.5751555576" lon="9.55502222192">
		<tag k="name" v="Småvatna" />
		<tag k="natural" v="water" />
		<tag k="ssr:stedsnr" v="857832" />
		<tag k="water" v="lake" />
	</node>
	<node id="-39153" lat="60.5446356412" lon="9.43956445349">
		<tag k="alt_name" v="Grunntjern, nedre" />
		<tag k="name" v="Nedre Grunntjern" />
		<tag k="natural" v="water" />
		<tag k="ssr:stedsnr" v="674862" />
	</node>
	<node id="-39149" lat="60.7419277742" lon="9.57288888287">
		<tag k="name" v="Hølera" />
		<tag k="ssr:stedsnr" v="674545" />
		<tag k="waterway" v="river" />
	</node>
	<node id="-39148" lat="60.4744000044" lon="9.76223055644">
		<tag k="name" v="Prestputtane" />
		<tag k="natural" v="water" />
		<tag k="ssr:stedsnr" v="673895" />
	</node>
	<node id="-39147" lat="60.774672219" lon="9.30233333846">
		<tag k="name" v="Snøvertputten" />
		<tag k="natural" v="water" />
		<tag k="ssr:stedsnr" v="483814" />
	</node>
	<node id="-39140" lat="60.7822222226" lon="9.61115000746">
		<tag k="name" v="Vikeøye" />
		<tag k="place" v="island" />
		<tag k="ssr:stedsnr" v="483915" />
	</node>
	<node id="-39132" lat="60.7368388888" lon="9.50567499473">
		<tag k="name" v="Tanterhaugputten" />
		<tag k="natural" v="water" />
		<tag k="ssr:stedsnr" v="483473" />
	</node>
	<node id="-41179" lat="60.7193944406" lon="9.36965277321">
		<tag k="name" v="Ørmebekken" />
		<tag k="ssr:stedsnr" v="847849" />
		<tag k="waterway" v="stream" />
	</node>
	<node id="-39128" lat="60.7106555566" lon="9.46395554849">
		<tag k="name" v="Damstubben" />
		<tag k="natural" v="water" />
		<tag k="ssr:stedsnr" v="483467" />
		<tag k="water" v="lake" />
	</node>
	<node id="-39127" lat="60.6697916677" lon="9.45913611101">
		<tag k="name" v="Brennputten" />
		<tag k="natural" v="water" />
		<tag k="ssr:stedsnr" v="483464" />
	</node>
	<node id="-39125" lat="60.6011861087" lon="9.47093889088">
		<tag k="name" v="Slabekken" />
		<tag k="ssr:stedsnr" v="483405" />
		<tag k="waterway" v="stream" />
	</node>
	<node id="-39124" lat="60.7503250016" lon="9.67066666244">
		<tag k="name" v="Hansebrøtabekken" />
		<tag k="ssr:stedsnr" v="483160" />
		<tag k="waterway" v="stream" />
	</node>
	<node id="-41096" lat="60.7233388874" lon="9.66852500323">
		<tag k="name" v="Hølbekken" />
		<tag k="ssr:stedsnr" v="828189" />
		<tag k="waterway" v="stream" />
	</node>
	<node id="-40995" lat="60.6179083301" lon="9.55563888833">
		<tag k="name" v="Andetjernbekken" />
		<tag k="ssr:stedsnr" v="767899" />
		<tag k="waterway" v="stream" />
	</node>
	<node id="-39119" lat="60.6648333315" lon="9.95011943862">
		<tag k="name" v="Grandalsbekken" />
		<tag k="ssr:stedsnr" v="482002" />
		<tag k="waterway" v="stream" />
	</node>
	<node id="-41162" lat="60.7041611082" lon="9.4442722154">
		<tag k="name" v="Olmhusøddin" />
		<tag k="natural" v="cape" />
		<tag k="ssr:stedsnr" v="847455" />
	</node>
	<node id="-41161" lat="60.5848444455" lon="9.45174443767">
		<tag k="name" v="Slaputten" />
		<tag k="natural" v="water" />
		<tag k="ssr:stedsnr" v="847402" />
	</node>
	<node id="-39110" lat="60.5087388861" lon="9.80344722178">
		<tag k="name" v="Skriubekken" />
		<tag k="ssr:stedsnr" v="464825" />
		<tag k="waterway" v="stream" />
	</node>
	<node id="-39109" lat="60.6348694401" lon="9.64637776944">
		<tag k="name" v="Nordbyelva" />
		<tag k="ssr:stedsnr" v="464476" />
		<tag k="waterway" v="stream" />
	</node>
	<node id="-39108" lat="60.6321055558" lon="9.904000004">
		<tag k="name" v="Seigen" />
		<tag k="place" v="locality" />
		<tag k="ssr:stedsnr" v="464517" />
	</node>
	<node id="-39104" lat="60.6358083353" lon="9.5184805561">
		<tag k="name" v="Aurtjernet" />
		<tag k="natural" v="water" />
		<tag k="ssr:stedsnr" v="464263" />
	</node>
	<node id="-39098" lat="60.7593861099" lon="9.30276111291">
		<tag k="name" v="Stilluten" />
		<tag k="natural" v="water" />
		<tag k="ssr:stedsnr" v="665801" />
		<tag k="water" v="lake" />
	</node>
	<node id="-39093" lat="60.5525944404" lon="9.54047778185">
		<tag k="name" v="Juvbekken" />
		<tag k="ssr:stedsnr" v="665441" />
		<tag k="waterway" v="stream" />
	</node>
	<node id="-39092" lat="60.6247722185" lon="9.75588611004">
		<tag k="name" v="Djupdalsbekken" />
		<tag k="ssr:stedsnr" v="665549" />
		<tag k="waterway" v="stream" />
	</node>
	<node id="-39009" lat="60.5908388914" lon="9.42332500559">
		<tag k="name" v="Høgfoss" />
		<tag k="natural" v="waterfall" />
		<tag k="ssr:stedsnr" v="371820" />
	</node>
	<node id="-41137" lat="60.8420166661" lon="9.53916388857">
		<tag k="name" v="Nordre Brennotjernet" />
		<tag k="natural" v="water" />
		<tag k="old_name" v="Nordre-Brennotjednet" />
		<tag k="ssr:stedsnr" v="830871" />
	</node>
	<node id="-41196" lat="60.6710249963" lon="9.9055999938">
		<tag k="name" v="Deleputten" />
		<tag k="place" v="locality" />
		<tag k="ssr:stedsnr" v="856946" />
	</node>
	<node id="-39076" lat="60.8318499967" lon="9.36781665981">
		<tag k="name" v="Bruslettbekken" />
		<tag k="ssr:stedsnr" v="664604" />
		<tag k="waterway" v="stream" />
	</node>
	<node id="-39075" lat="60.824922221" lon="9.33278889705">
		<tag k="name" v="Åkersånosen" />
		<tag k="natural" v="bay" />
		<tag k="ssr:stedsnr" v="664602" />
	</node>
	<node id="-41121" lat="60.5323027793" lon="9.7870055566">
		<tag k="name" v="Delebekken" />
		<tag k="ssr:stedsnr" v="828769" />
		<tag k="waterway" v="stream" />
	</node>
	<node id="-39072" lat="60.8329416674" lon="9.47252777145">
		<tag k="name" v="Kvålselve" />
		<tag k="ssr:stedsnr" v="664849" />
		<tag k="waterway" v="stream" />
	</node>
	<node id="-41119" lat="60.8578222235" lon="9.48996666765">
		<tag k="name" v="Lundalsbekken" />
		<tag k="ssr:stedsnr" v="828732" />
		<tag k="waterway" v="stream" />
	</node>
	<node id="-39067" lat="60.562966663" lon="9.80685000293">
		<tag k="name" v="Kvernfossen" />
		<tag k="natural" v="waterfall" />
		<tag k="ssr:stedsnr" v="664759" />
	</node>
	<node id="-41114" lat="60.7811111149" lon="9.38023889519">
		<tag k="name" v="Vesle Bjødalsvatnet" />
		<tag k="natural" v="water" />
		<tag k="ssr:stedsnr" v="828558" />
	</node>
	<node id="-41111" lat="60.6035694452" lon="9.5676388892">
		<tag k="name" v="Langodden" />
		<tag k="natural" v="cape" />
		<tag k="ssr:stedsnr" v="828372" />
	</node>
	<node id="-39058" lat="60.7767472245" lon="9.73357500476">
		<tag k="name" v="Demma" />
		<tag k="natural" v="water" />
		<tag k="ssr:stedsnr" v="434106" />
	</node>
	<node id="-41103" lat="60.6428666709" lon="9.45347222587">
		<tag k="name" v="Svartetjern" />
		<tag k="natural" v="water" />
		<tag k="ssr:stedsnr" v="828267" />
	</node>
	<node id="-39054" lat="60.69886667" lon="9.78177500386">
		<tag k="name" v="Kloppmyrtjernet" />
		<tag k="natural" v="water" />
		<tag k="ssr:stedsnr" v="432905" />
	</node>
	<node id="-39053" lat="60.6966083367" lon="9.89600833637">
		<tag k="name" v="Sandbekken" />
		<tag k="ssr:stedsnr" v="432904" />
		<tag k="waterway" v="stream" />
	</node>
	<node id="-39051" lat="60.5594888863" lon="9.80888054784">
		<tag k="alt_name" v="Feskia" />
		<tag k="name" v="Fesja" />
		<tag k="ssr:stedsnr" v="432823" />
		<tag k="waterway" v="stream" />
	</node>
	<node id="-39049" lat="60.5378648867" lon="9.46308670344">
		<tag k="name" v="Nevlingen" />
		<tag k="natural" v="water" />
		<tag k="ssr:stedsnr" v="432736" />
		<tag k="water" v="lake" />
	</node>
	<node id="-39048" lat="60.5353400213" lon="9.57328358304">
		<tag k="name" v="Melodden" />
		<tag k="natural" v="cape" />
		<tag k="ssr:stedsnr" v="432733" />
	</node>
	<node id="-39047" lat="60.6668861073" lon="10.014488896">
		<tag k="alt_name" v="Bjønndalsbekken" />
		<tag k="name" v="Bjørndalsbekken" />
		<tag k="ssr:stedsnr" v="432706" />
		<tag k="waterway" v="stream" />
	</node>
	<node id="-39046" lat="60.6574499964" lon="9.54019166482">
		<tag k="alt_name" v="Skålevatnet, øvre" />
		<tag k="name" v="Øvre Skålevatnet" />
		<tag k="natural" v="water" />
		<tag k="ssr:stedsnr" v="432703" />
	</node>
	<node id="-38593" lat="60.6268666637" lon="9.50470277891">
		<tag k="name" v="Svarttjern" />
		<tag k="natural" v="water" />
		<tag k="ssr:stedsnr" v="68641" />
	</node>
	<node id="-41090" lat="60.7796761278" lon="9.37808101805">
		<tag k="name" v="Bjødalsvatni" />
		<tag k="natural" v="water" />
		<tag k="ssr:stedsnr" v="798737" />
		<tag k="water" v="lake" />
	</node>
	<node id="-39041" lat="60.5947833321" lon="9.81062500808">
		<tag k="name" v="Langtjernet" />
		<tag k="natural" v="water" />
		<tag k="ssr:stedsnr" v="431926" />
	</node>
	<node id="-39040" lat="60.6103750008" lon="9.60096389089">
		<tag k="alt_name" v="Søre Busuputt" />
		<tag k="name" v="Busuputten" />
		<tag k="natural" v="water" />
		<tag k="ssr:stedsnr" v="431919" />
	</node>
	<node id="-39039" lat="60.6076083346" lon="9.79839445206">
		<tag k="name" v="Våsetjernet" />
		<tag k="natural" v="water" />
		<tag k="ssr:stedsnr" v="431907" />
	</node>
	<node id="-41084" lat="60.8092277808" lon="9.73102777403">
		<tag k="name" v="Haugerudbekken" />
		<tag k="ssr:stedsnr" v="798221" />
		<tag k="waterway" v="stream" />
	</node>
	<node id="-41083" lat="60.8012444426" lon="9.6233555616">
		<tag k="alt_name" v="Milevatnet" />
		<tag k="name" v="Myllevasstjernet" />
		<tag k="natural" v="water" />
		<tag k="ssr:stedsnr" v="798215" />
	</node>
	<node id="-41082" lat="60.8192777789" lon="9.6312305518">
		<tag k="name" v="Mørkedalstjernet" />
		<tag k="natural" v="water" />
		<tag k="old_name" v="Mørkedalstjednet" />
		<tag k="ssr:stedsnr" v="798192" />
	</node>
	<node id="-41081" lat="60.8243583376" lon="9.64833889221">
		<tag k="name" v="Liabekktjernet" />
		<tag k="natural" v="water" />
		<tag k="old_name" v="Liabekktjednet" />
		<tag k="ssr:stedsnr" v="798183" />
	</node>
	<node id="-39031" lat="60.8448249992" lon="9.50984444227">
		<tag k="name" v="Kristenbrøtafossen" />
		<tag k="natural" v="waterfall" />
		<tag k="ssr:stedsnr" v="513775" />
	</node>
	<node id="-41077" lat="60.6170749956" lon="9.87450554785">
		<tag k="name" v="Primsteintjernet" />
		<tag k="natural" v="water" />
		<tag k="ssr:stedsnr" v="796919" />
	</node>
	<node id="-41075" lat="60.6930583359" lon="9.90832500065">
		<tag k="name" v="Hakakrokbekken" />
		<tag k="ssr:stedsnr" v="796914" />
		<tag k="waterway" v="stream" />
	</node>
	<node id="-41073" lat="60.7034083289" lon="9.90218610687">
		<tag k="alt_name" v="Hestedalsætertjernet, øvre" />
		<tag k="name" v="Øvre Hestedalsætertjernet" />
		<tag k="natural" v="water" />
		<tag k="ssr:stedsnr" v="796904" />
	</node>
	<node id="-41070" lat="60.6982138882" lon="9.63561110303">
		<tag k="name" v="Nybutjernet" />
		<tag k="natural" v="water" />
		<tag k="ssr:stedsnr" v="796898" />
	</node>
	<node id="-41068" lat="60.5385305559" lon="9.63484443718">
		<tag k="alt_name" v="Åbborputten" />
		<tag k="name" v="Åborputten" />
		<tag k="natural" v="water" />
		<tag k="ssr:stedsnr" v="796868" />
	</node>
	<node id="-41064" lat="60.7280582332" lon="9.89058279972">
		<tag k="alt_name" v="Settumstjernet, nordre" />
		<tag k="fixme" v="multiple name tags, choose one and add the other to alt_name" />
		<tag k="name" v="Nordre Settumstjernet;Øvre Settomstjern" />
		<tag k="natural" v="water" />
		<tag k="old_name" v="Øvre Settomstjedn" />
		<tag k="ssr:stedsnr" v="796964" />
	</node>
	<node id="-41061" lat="60.744833335" lon="9.52057222051">
		<tag k="alt_name" v="Bøve" />
		<tag k="name" v="Bøvi" />
		<tag k="ssr:stedsnr" v="796546" />
		<tag k="waterway" v="river" />
	</node>
	<node id="-39010" lat="60.7234361091" lon="9.71516945057">
		<tag k="alt_name" v="Eidsføssen" />
		<tag k="name" v="Eidsfoss" />
		<tag k="natural" v="waterfall" />
		<tag k="ssr:stedsnr" v="371954" />
	</node>
	<node id="-41057" lat="60.4889737139" lon="9.74699276206">
		<tag k="name" v="Steinhyttvatna" />
		<tag k="natural" v="water" />
		<tag k="ssr:stedsnr" v="795948" />
		<tag k="water" v="lake" />
	</node>
	<node id="-39008" lat="60.5709916693" lon="9.65736110715">
		<tag k="alt_name" v="Sautjernet, øvre" />
		<tag k="name" v="Øvre Sautjern" />
		<tag k="natural" v="water" />
		<tag k="ssr:stedsnr" v="371814" />
	</node>
	<node id="-39007" lat="60.616002782" lon="9.55027778275">
		<tag k="name" v="Ivarputten" />
		<tag k="natural" v="water" />
		<tag k="ssr:stedsnr" v="371675" />
	</node>
	<node id="-39006" lat="60.5335239794" lon="9.5522358291">
		<tag k="fixme" v="multiple name tags, choose one and add the other to alt_name" />
		<tag k="loc_name" v="Aurdalsvatnet" />
		<tag k="name" v="Aurdalsfjorden;Aurdalsvannet" />
		<tag k="natural" v="water" />
		<tag k="ssr:stedsnr" v="371761" />
		<tag k="water" v="lake" />
	</node>
	<node id="-39005" lat="60.7320972248" lon="9.38898610585">
		<tag k="name" v="Hellebekken" />
		<tag k="ssr:stedsnr" v="371525" />
		<tag k="waterway" v="stream" />
	</node>
	<node id="-39001" lat="60.662594447" lon="9.88978333622">
		<tag k="name" v="Buvasselva" />
		<tag k="ssr:stedsnr" v="370955" />
		<tag k="waterway" v="river" />
	</node>
	<node id="-38995" lat="60.7980999957" lon="9.60490000596">
		<tag k="name" v="Finnherttjernet" />
		<tag k="natural" v="water" />
		<tag k="ssr:stedsnr" v="495235" />
	</node>
	<node id="-38992" lat="60.8233388853" lon="9.36449999986">
		<tag k="name" v="Kavletjernet" />
		<tag k="natural" v="water" />
		<tag k="ssr:stedsnr" v="494837" />
	</node>
	<node id="-41037" lat="60.6475750028" lon="9.53011944606">
		<tag k="alt_name" v="Bjønnlitjern" />
		<tag k="name" v="Bjørnlitjern" />
		<tag k="natural" v="water" />
		<tag k="ssr:stedsnr" v="795671" />
	</node>
	<node id="-41033" lat="60.7019916673" lon="9.89473334095">
		<tag k="name" v="Bråderdammen" />
		<tag k="ssr:stedsnr" v="786681" />
		<tag k="waterway" v="dam" />
	</node>
	<node id="-41032" lat="60.6997888879" lon="9.84872223108">
		<tag k="name" v="Gravvasselva" />
		<tag k="ssr:stedsnr" v="786680" />
		<tag k="waterway" v="river" />
	</node>
	<node id="-41030" lat="60.7872861078" lon="9.65900833678">
		<tag k="name" v="Karuseputten" />
		<tag k="natural" v="water" />
		<tag k="ssr:stedsnr" v="786908" />
		<tag k="water" v="pond" />
	</node>
	<node id="-41029" lat="60.6811805549" lon="9.33803888201">
		<tag k="name" v="Øvre Skaraputt" />
		<tag k="natural" v="water" />
		<tag k="ssr:stedsnr" v="786886" />
	</node>
	<node id="-41025" lat="60.6129527818" lon="9.72316666283">
		<tag k="name" v="Spelen" />
		<tag k="natural" v="cape" />
		<tag k="ssr:stedsnr" v="786475" />
	</node>
	<node id="-38976" lat="60.830536111" lon="9.67472499341">
		<tag k="alt_name" v="Øyvatn" />
		<tag k="name" v="Øyvatnet" />
		<tag k="natural" v="water" />
		<tag k="ssr:stedsnr" v="494183" />
	</node>
	<node id="-38974" lat="60.7713611139" lon="9.70850276933">
		<tag k="name" v="Langevatnet" />
		<tag k="natural" v="water" />
		<tag k="ssr:stedsnr" v="494152" />
	</node>
	<node id="-41021" lat="60.5417999962" lon="9.45802222334">
		<tag k="name" v="Vesleøya" />
		<tag k="place" v="islet" />
		<tag k="ssr:stedsnr" v="786351" />
	</node>
	<node id="-38970" lat="60.7788166692" lon="9.71960000519">
		<tag k="name" v="Røyvatnet" />
		<tag k="natural" v="water" />
		<tag k="old_name" v="Røytjednet" />
		<tag k="ssr:stedsnr" v="494112" />
	</node>
	<node id="-41015" lat="60.7729166677" lon="9.76517500525">
		<tag k="name" v="Gråbeinputt" />
		<tag k="natural" v="water" />
		<tag k="ssr:stedsnr" v="786150" />
	</node>
	<node id="-38963" lat="60.6469333336" lon="9.93080000649">
		<tag k="name" v="Pettvatnet" />
		<tag k="natural" v="water" />
		<tag k="ssr:stedsnr" v="492960" />
	</node>
	<node id="-41008" lat="60.7400527797" lon="9.38997223048">
		<tag k="name" v="Lusetjernet" />
		<tag k="natural" v="water" />
		<tag k="old_name" v="Lusetjednet" />
		<tag k="ssr:stedsnr" v="781177" />
	</node>
	<node id="-39261" lat="60.6890166689" lon="9.99409166277">
		<tag k="name" v="Pruppdammen" />
		<tag k="ssr:stedsnr" v="585111" />
		<tag k="waterway" v="dam" />
	</node>
	<node id="-38956" lat="60.7302750028" lon="9.81185277412">
		<tag k="name" v="Gudbjørgputten" />
		<tag k="natural" v="water" />
		<tag k="ssr:stedsnr" v="492938" />
	</node>
	<node id="-38955" lat="60.6670999983" lon="9.59612778396">
		<tag k="name" v="Anderstjernet" />
		<tag k="natural" v="water" />
		<tag k="ssr:stedsnr" v="492928" />
	</node>
	<node id="-38954" lat="60.5865999997" lon="9.6244444378">
		<tag k="name" v="Ostebekken" />
		<tag k="ssr:stedsnr" v="492920" />
		<tag k="waterway" v="stream" />
	</node>
	<node id="-40998" lat="60.8089694488" lon="9.48893333641">
		<tag k="name" v="Hallabekken" />
		<tag k="ssr:stedsnr" v="767822" />
		<tag k="waterway" v="stream" />
	</node>
	<node id="-38947" lat="60.6874611155" lon="9.83023889472">
		<tag k="name" v="Kapteinstjernet" />
		<tag k="natural" v="water" />
		<tag k="ssr:stedsnr" v="492887" />
	</node>
	<node id="-38946" lat="60.6864750045" lon="9.83464443953">
		<tag k="name" v="Harpikstjernet" />
		<tag k="natural" v="water" />
		<tag k="ssr:stedsnr" v="492885" />
	</node>
	<node id="-40993" lat="60.8495888845" lon="9.50666388231">
		<tag k="name" v="Aurdalsdammen" />
		<tag k="ssr:stedsnr" v="767766" />
		<tag k="waterway" v="dam" />
	</node>
	<node id="-38944" lat="60.5222555553" lon="9.77368611933">
		<tag k="name" v="Middagsbekken" />
		<tag k="ssr:stedsnr" v="492863" />
		<tag k="waterway" v="stream" />
	</node>
	<node id="-38942" lat="60.5356083323" lon="9.72689444298">
		<tag k="name" v="Fiskebekken" />
		<tag k="ssr:stedsnr" v="492845" />
		<tag k="waterway" v="stream" />
	</node>
	<node id="-38940" lat="60.5876444437" lon="9.58161667255">
		<tag k="alt_name" v="Busua, austre" />
		<tag k="name" v="Austre Busua" />
		<tag k="ssr:stedsnr" v="492808" />
		<tag k="waterway" v="stream" />
	</node>
	<node id="-38938" lat="60.7452500038" lon="9.73251111876">
		<tag k="name" v="Øksetjern" />
		<tag k="natural" v="water" />
		<tag k="ssr:stedsnr" v="492796" />
	</node>
	<node id="-38937" lat="60.7477249985" lon="9.80660555956">
		<tag k="name" v="Våvålbekken" />
		<tag k="ssr:stedsnr" v="492782" />
		<tag k="waterway" v="stream" />
	</node>
	<node id="-38934" lat="60.7880194482" lon="9.30888055592">
		<tag k="name" v="Stikketjernet" />
		<tag k="natural" v="water" />
		<tag k="old_name" v="Stikketjednet" />
		<tag k="ssr:stedsnr" v="361778" />
	</node>
	<node id="-38933" lat="60.8237500019" lon="9.42725554715">
		<tag k="name" v="Storstøllibekken" />
		<tag k="ssr:stedsnr" v="361770" />
		<tag k="waterway" v="stream" />
	</node>
	<node id="-38928" lat="60.6517861099" lon="9.44725555444">
		<tag k="name" v="Kråketjern" />
		<tag k="natural" v="water" />
		<tag k="ssr:stedsnr" v="492710" />
	</node>
	<node id="-38923" lat="60.7047749956" lon="9.39378610248">
		<tag k="alt_name" v="Høvreselve" />
		<tag k="name" v="Høvreselvi" />
		<tag k="ssr:stedsnr" v="492685" />
		<tag k="waterway" v="river" />
	</node>
	<node id="-38922" lat="60.7478027766" lon="9.53992778469">
		<tag k="name" v="Sjuputtatn" />
		<tag k="natural" v="water" />
		<tag k="ssr:stedsnr" v="361476" />
		<tag k="water" v="pond" />
	</node>
	<node id="-38920" lat="60.6862250029" lon="9.49889721738">
		<tag k="name" v="Reinsjøputten" />
		<tag k="natural" v="water" />
		<tag k="ssr:stedsnr" v="492677" />
	</node>
	<node id="-40986" lat="60.625825001" lon="9.90870556454">
		<tag k="name" v="Langøya" />
		<tag k="place" v="islet" />
		<tag k="ssr:stedsnr" v="767500" />
	</node>
	<node id="-38917" lat="60.6020722227" lon="9.70626944585">
		<tag k="name" v="Rugbråtabekken" />
		<tag k="ssr:stedsnr" v="361506" />
		<tag k="waterway" v="stream" />
	</node>
	<node id="-38916" lat="60.5906999091" lon="9.62308878887">
		<tag k="alt_name" v="Busua, vestre;Vesterbusua" />
		<tag k="name" v="Vestre Busua" />
		<tag k="ssr:stedsnr" v="492645" />
		<tag k="waterway" v="stream" />
	</node>
	<node id="-38914" lat="60.7585861107" lon="9.6942611196">
		<tag k="name" v="Liabekken" />
		<tag k="ssr:stedsnr" v="361159" />
		<tag k="waterway" v="stream" />
	</node>
	<node id="-38913" lat="60.7660027756" lon="9.71112499643">
		<tag k="name" v="Veslesæterputten" />
		<tag k="natural" v="water" />
		<tag k="ssr:stedsnr" v="361158" />
	</node>
</osm>
