<?xml version="1.0" encoding="UTF-8"?>
<osm generator="osmapis" version="0.6">
	<node id="-391935" lat="60.7144694433" lon="9.57011110963">
		<tag k="bridge" v="yes" />
		<tag k="layer" v="1" />
		<tag k="name" v="Kloppe" />
		<tag k="ssr:stedsnr" v="726067" />
	</node>
	<node id="-391934" lat="60.7433750038" lon="9.5550277757">
		<tag k="name" v="Storlunneplassen" />
		<tag k="place" v="locality" />
		<tag k="ssr:stedsnr" v="726055" />
	</node>
	<node id="-391419" lat="60.6506500045" lon="9.8984277692">
		<tag k="landuse" v="industrial" />
		<tag k="name" v="Høgfoss kraftstasjon" />
		<tag k="power" v="plant" />
		<tag k="ssr:stedsnr" v="464692" />
	</node>
	<node id="-392569" lat="60.8553944479" lon="9.42633054712">
		<tag k="highway" v="path" />
		<tag k="name" v="Kongevegen" />
		<tag k="ssr:stedsnr" v="58380" />
	</node>
	<node id="-393044" lat="60.5386777805" lon="9.79911945124">
		<tag k="alt_name" v="Persfløtten" />
		<tag k="name" v="Persfløten" />
		<tag k="place" v="locality" />
		<tag k="ssr:stedsnr" v="342765" />
	</node>
	<node id="-393726" lat="60.7322666645" lon="9.46643889065">
		<tag k="ford" v="yes" />
		<tag k="name" v="Karivadet" />
		<tag k="place" v="locality" />
		<tag k="ssr:stedsnr" v="828905" />
	</node>
	<node id="-393841" lat="60.6455444458" lon="9.42221111772">
		<tag k="highway" v="path" />
		<tag k="name" v="Gamle Endresætervegen" />
		<tag k="ssr:stedsnr" v="968792" />
	</node>
	<node id="-391407" lat="60.7833777771" lon="9.60184165795">
		<tag k="bridge" v="yes" />
		<tag k="layer" v="1" />
		<tag k="name" v="Island" />
		<tag k="ssr:stedsnr" v="289121" />
	</node>
	<node id="-391406" lat="60.7147388882" lon="9.70844166763">
		<tag k="bridge" v="yes" />
		<tag k="layer" v="1" />
		<tag k="name" v="Garthus" />
		<tag k="ssr:stedsnr" v="289120" />
	</node>
	<node id="-391148" lat="60.7881472249" lon="9.5666388979">
		<tag k="highway" v="path" />
		<tag k="name" v="Bygdevegen" />
		<tag k="ssr:stedsnr" v="240108" />
	</node>
	<node id="-392682" lat="60.7818638887" lon="9.55421667259">
		<tag k="highway" v="path" />
		<tag k="name" v="Prestvegen" />
		<tag k="ssr:stedsnr" v="119083" />
	</node>
	<node id="-391272" lat="60.8454888853" lon="9.46592500592">
		<tag k="highway" v="path" />
		<tag k="name" v="Krøssvegitn" />
		<tag k="ssr:stedsnr" v="100717" />
	</node>
	<node id="-393574" lat="60.7637833304" lon="9.46032223031">
		<tag k="bridge" v="yes" />
		<tag k="layer" v="1" />
		<tag k="name" v="Blomstølkrysset" />
		<tag k="ssr:stedsnr" v="767159" />
	</node>
	<node id="-392548" lat="60.579641671" lon="9.71220833393">
		<tag k="bridge" v="yes" />
		<tag k="layer" v="1" />
		<tag k="name" v="Skarbekken" />
		<tag k="ssr:stedsnr" v="46144" />
	</node>
	<node id="-392547" lat="60.8167666708" lon="9.56139443846">
		<tag k="bridge" v="yes" />
		<tag k="layer" v="1" />
		<tag k="name" v="Rosenberg" />
		<tag k="ssr:stedsnr" v="46142" />
	</node>
	<node id="-391522" lat="60.8201500012" lon="9.36257223113">
		<tag k="highway" v="path" />
		<tag k="name" v="Kvitingsvegen" />
		<tag k="ssr:stedsnr" v="361669" />
	</node>
	<node id="-393308" lat="60.6432833374" lon="9.48735832765">
		<tag k="junction" v="yes" />
		<tag k="name" v="Reset" />
		<tag k="place" v="locality" />
		<tag k="ssr:stedsnr" v="552693" />
	</node>
	<node id="-392667" lat="60.8464472195" lon="9.52082776938">
		<tag k="fixme" v="consider highway=path" />
		<tag k="highway" v="track" />
		<tag k="name" v="Gamlevegen" />
		<tag k="ssr:stedsnr" v="100739" />
	</node>
	<node id="-393295" lat="60.6921611115" lon="9.41083610783">
		<tag k="ford" v="yes" />
		<tag k="name" v="Brennulv-vae" />
		<tag k="place" v="locality" />
		<tag k="ssr:stedsnr" v="543821" />
	</node>
	<node id="-391348" lat="60.5442833345" lon="9.71023332839">
		<tag k="highway" v="path" />
		<tag k="name" v="Gamle Vassfarvegen" />
		<tag k="ssr:stedsnr" v="282663" />
	</node>
	<node id="-393813" lat="60.6233777757" lon="9.72275833616">
		<tag k="bridge" v="yes" />
		<tag k="layer" v="1" />
		<tag k="name" v="Øverby" />
		<tag k="ssr:stedsnr" v="957137" />
	</node>
	<node id="-392148" lat="60.7371555538" lon="9.61138889216">
		<tag k="highway" v="path" />
		<tag k="name" v="Sætervegen" />
		<tag k="ssr:stedsnr" v="726209" />
	</node>
	<node id="-391395" lat="60.8347611074" lon="9.3930249949">
		<tag k="bridge" v="yes" />
		<tag k="layer" v="1" />
		<tag k="name" v="Svartebergbrue" />
		<tag k="ssr:stedsnr" v="240758" />
	</node>
	<node id="-393168" lat="60.5653277749" lon="9.53680833838">
		<tag k="highway" v="path" />
		<tag k="name" v="Dølavegen" />
		<tag k="ssr:stedsnr" v="422359" />
	</node>
	<node id="-392399" lat="60.6580499998" lon="9.71268333584">
		<tag k="highway" v="path" />
		<tag k="name" v="Øyvassvegen" />
		<tag k="ssr:stedsnr" v="949267" />
	</node>
	<node id="-393291" lat="60.8403249963" lon="9.36506110619">
		<tag k="man_made" v="cairn" />
		<tag k="name" v="Steinkjerringe" />
		<tag k="place" v="locality" />
		<tag k="ssr:stedsnr" v="543753" />
	</node>
	<node id="-393416" lat="60.7010527806" lon="9.72071945347">
		<tag k="bridge" v="yes" />
		<tag k="layer" v="1" />
		<tag k="name" v="Rustebakke" />
		<tag k="ssr:stedsnr" v="592136" />
	</node>
	<node id="-393415" lat="60.6560333293" lon="9.74173054847">
		<tag k="bridge" v="yes" />
		<tag k="layer" v="1" />
		<tag k="name" v="Daleng" />
		<tag k="ssr:stedsnr" v="592128" />
	</node>
	<node id="-391494" lat="60.5882888886" lon="9.65017221704">
		<tag k="highway" v="path" />
		<tag k="name" v="Flåvegen" />
		<tag k="ssr:stedsnr" v="483801" />
	</node>
	<node id="-391876" lat="60.8069694452" lon="9.74954444839">
		<tag k="bridge" v="yes" />
		<tag k="layer" v="1" />
		<tag k="name" v="Skjerstein" />
		<tag k="ssr:stedsnr" v="714111" />
	</node>
	<node id="-391875" lat="60.6459944475" lon="9.77567777133">
		<tag k="bridge" v="yes" />
		<tag k="layer" v="1" />
		<tag k="name" v="Tollefsrud" />
		<tag k="ssr:stedsnr" v="714110" />
	</node>
	<node id="-393153" lat="60.7942444452" lon="9.77342777366">
		<tag k="highway" v="path" />
		<tag k="name" v="Gravsætervegen" />
		<tag k="ssr:stedsnr" v="422136" />
	</node>
	<node id="-392127" lat="60.5698611142" lon="9.72063055569">
		<tag k="bridge" v="yes" />
		<tag k="layer" v="1" />
		<tag k="name" v="Saubekken" />
		<tag k="ssr:stedsnr" v="896128" />
	</node>
	<node id="-391742" lat="60.7783305531" lon="9.3184416697">
		<tag k="bridge" v="yes" />
		<tag k="layer" v="1" />
		<tag k="name" v="Kloppe" />
		<tag k="ssr:stedsnr" v="483808" />
	</node>
	<node id="-393269" lat="60.8235611068" lon="9.55430278659">
		<tag k="bridge" v="yes" />
		<tag k="layer" v="1" />
		<tag k="name" v="Wold" />
		<tag k="ssr:stedsnr" v="532123" />
	</node>
	<node id="-393150" lat="60.6204361106" lon="9.72433889621">
		<tag k="bridge" v="yes" />
		<tag k="layer" v="1" />
		<tag k="name" v="Li" />
		<tag k="ssr:stedsnr" v="410129" />
	</node>
	<node id="-393018" lat="60.7733361072" lon="9.4954000069">
		<tag k="highway" v="path" />
		<tag k="name" v="Gamle Høvssætervegen" />
		<tag k="ssr:stedsnr" v="342169" />
	</node>
	<node id="-391988" lat="60.6701249963" lon="9.74195554966">
		<tag k="bridge" v="yes" />
		<tag k="layer" v="1" />
		<tag k="name" v="Nordre Muggedal" />
		<tag k="ssr:stedsnr" v="653119" />
	</node>
	<node id="-391398" lat="60.5974972259" lon="9.6602527732">
		<tag k="highway" v="path" />
		<tag k="name" v="Brennsætervegen" />
		<tag k="ssr:stedsnr" v="240761" />
	</node>
	<node id="-391989" lat="60.6425916652" lon="9.7474444478">
		<tag k="bridge" v="yes" />
		<tag k="layer" v="1" />
		<tag k="name" v="Øvre Tollefsrud" />
		<tag k="ssr:stedsnr" v="653124" />
	</node>
	<node id="-392116" lat="60.7574166696" lon="9.64676944753">
		<tag k="fixme" v="consider highway=path" />
		<tag k="highway" v="track" />
		<tag k="name" v="Hagabakkvegen" />
		<tag k="ssr:stedsnr" v="889898" />
	</node>
	<node id="-391987" lat="60.8708861155" lon="9.44665277908">
		<tag k="bridge" v="yes" />
		<tag k="layer" v="1" />
		<tag k="name" v="Lia" />
		<tag k="ssr:stedsnr" v="653116" />
	</node>
	<node id="-391986" lat="60.8243138899" lon="9.5559999958">
		<tag k="bridge" v="yes" />
		<tag k="layer" v="1" />
		<tag k="name" v="Hudhølen" />
		<tag k="ssr:stedsnr" v="653115" />
	</node>
	<node id="-393267" lat="60.7586444441" lon="9.66543610243">
		<tag k="bridge" v="yes" />
		<tag k="layer" v="1" />
		<tag k="name" v="Fønhus" />
		<tag k="ssr:stedsnr" v="532109" />
	</node>
	<node id="-391142" lat="60.7854111115" lon="9.55351944253">
		<tag k="bridge" v="yes" />
		<tag k="layer" v="1" />
		<tag k="name" v="Sæterbrue" />
		<tag k="ssr:stedsnr" v="240083" />
	</node>
	<node id="-391679" lat="60.8134638923" lon="9.40727776998">
		<tag k="highway" v="path" />
		<tag k="name" v="Djupedalsvegen" />
		<tag k="ssr:stedsnr" v="664629" />
	</node>
	<node id="-393131" lat="60.6311638874" lon="9.51788055277">
		<tag k="highway" v="path" />
		<tag k="name" v="Sla-vegen" />
		<tag k="ssr:stedsnr" v="403244" />
	</node>
	<node id="-393770" lat="60.5949805572" lon="9.65761666298">
		<tag k="highway" v="path" />
		<tag k="name" v="Slettevegen" />
		<tag k="ssr:stedsnr" v="847764" />
	</node>
	<node id="-391334" lat="60.730125004" lon="9.66874166027">
		<tag k="highway" v="path" />
		<tag k="name" v="Sætervegen" />
		<tag k="ssr:stedsnr" v="282196" />
	</node>
	<node id="-391838" lat="60.5713611103" lon="9.72793332898">
		<tag k="ford" v="yes" />
		<tag k="name" v="Brennsvadet" />
		<tag k="place" v="locality" />
		<tag k="ssr:stedsnr" v="706503" />
	</node>
	<node id="-391452" lat="60.8287416692" lon="9.60892499217">
		<tag k="bridge" v="yes" />
		<tag k="layer" v="1" />
		<tag k="name" v="Mikkeltjern" />
		<tag k="ssr:stedsnr" v="471129" />
	</node>
	<node id="-391451" lat="60.7625305556" lon="9.66089167046">
		<tag k="bridge" v="yes" />
		<tag k="layer" v="1" />
		<tag k="name" v="Hølera" />
		<tag k="ssr:stedsnr" v="471123" />
	</node>
	<node id="-391450" lat="60.7732416687" lon="9.40277221335">
		<tag k="highway" v="path" />
		<tag k="name" v="Gamle Bjødalsvegen" />
		<tag k="ssr:stedsnr" v="301956" />
	</node>
	<node id="-393625" lat="60.8310305536" lon="9.54232777858">
		<tag k="highway" v="path" />
		<tag k="name" v="Bergavegen" />
		<tag k="ssr:stedsnr" v="786792" />
	</node>
	<node id="-393624" lat="60.6238111091" lon="9.77193611296">
		<tag k="man_made" v="cairn" />
		<tag k="name" v="Varden" />
		<tag k="place" v="locality" />
		<tag k="ssr:stedsnr" v="786530" />
	</node>
	<node id="-393268" lat="60.5816888925" lon="9.72731110467">
		<tag k="bridge" v="yes" />
		<tag k="layer" v="1" />
		<tag k="name" v="Fossbrøytdammen" />
		<tag k="ssr:stedsnr" v="532111" />
	</node>
	<node id="-393262" lat="60.8086388921" lon="9.61589444233">
		<tag k="man_made" v="tower" />
		<tag k="name" v="Tårnet" />
		<tag k="ssr:stedsnr" v="524977" />
		<tag k="tower:type" v="communications" />
	</node>
	<node id="-393736" lat="60.6506722219" lon="9.81493056467">
		<tag k="bridge" v="yes" />
		<tag k="layer" v="1" />
		<tag k="name" v="Ruste" />
		<tag k="ssr:stedsnr" v="835139" />
	</node>
	<node id="-393735" lat="60.7558499983" lon="9.69793889779">
		<tag k="bridge" v="yes" />
		<tag k="layer" v="1" />
		<tag k="name" v="Liabekken" />
		<tag k="ssr:stedsnr" v="835136" />
	</node>
	<node id="-393732" lat="60.8007833354" lon="9.65433610447">
		<tag k="highway" v="path" />
		<tag k="name" v="Gammelvegen" />
		<tag k="ssr:stedsnr" v="828991" />
	</node>
	<node id="-392195" lat="60.7435972256" lon="9.51641666233">
		<tag k="highway" v="path" />
		<tag k="name" v="Vinterleie" />
		<tag k="ssr:stedsnr" v="908481" />
	</node>
	<node id="-393602" lat="60.8252333297" lon="9.54473055251">
		<tag k="bridge" v="yes" />
		<tag k="layer" v="1" />
		<tag k="name" v="Storebrufoss" />
		<tag k="ssr:stedsnr" v="774150" />
	</node>
	<node id="-393601" lat="60.5564888855" lon="9.73696110663">
		<tag k="bridge" v="yes" />
		<tag k="layer" v="1" />
		<tag k="name" v="Landsend" />
		<tag k="ssr:stedsnr" v="774142" />
	</node>
</osm>
