<?xml version="1.0" encoding="UTF-8"?>
<osm generator="osmapis" version="0.6">
	<node id="-128892" lat="61.3080564344" lon="10.0787430519">
		<tag k="name" v="Vesltjønnet" />
		<tag k="ssr:date" v="2019-12-10" />
		<tag k="ssr:gruppe" v="veg" />
		<tag k="ssr:hovedgruppe" v="infrastruktur" />
		<tag k="ssr:stedsnr" v="1073920" />
		<tag k="ssr:type" v="adressenavn" />
	</node>
	<node id="-128891" lat="61.3256459475" lon="10.1229527028">
		<tag k="name" v="Slåseterlia" />
		<tag k="ssr:date" v="2019-12-10" />
		<tag k="ssr:gruppe" v="veg" />
		<tag k="ssr:hovedgruppe" v="infrastruktur" />
		<tag k="ssr:stedsnr" v="1073919" />
		<tag k="ssr:type" v="adressenavn" />
	</node>
	<node id="-128890" lat="61.3292745046" lon="10.1074808112">
		<tag k="name" v="Kjoslia" />
		<tag k="ssr:date" v="2019-12-10" />
		<tag k="ssr:gruppe" v="veg" />
		<tag k="ssr:hovedgruppe" v="infrastruktur" />
		<tag k="ssr:stedsnr" v="1073918" />
		<tag k="ssr:type" v="adressenavn" />
	</node>
	<node id="-128959" lat="61.2373455575" lon="9.51414433042">
		<tag k="name" v="Skytterbua" />
		<tag k="ssr:date" v="2019-05-30" />
		<tag k="ssr:gruppe" v="veg" />
		<tag k="ssr:hovedgruppe" v="infrastruktur" />
		<tag k="ssr:stedsnr" v="982966" />
		<tag k="ssr:type" v="adressenavn" />
	</node>
	<node id="-128888" lat="61.3801782245" lon="10.0030277732">
		<tag k="name" v="Peer Gynt vegen" />
		<tag k="ssr:date" v="2019-11-28" />
		<tag k="ssr:gruppe" v="veg" />
		<tag k="ssr:hovedgruppe" v="infrastruktur" />
		<tag k="ssr:stedsnr" v="1073586" />
		<tag k="ssr:type" v="vegstrekning" />
	</node>
	<node id="-129010" lat="61.328300009" lon="10.0921934551">
		<tag k="name" v="Stavtaket" />
		<tag k="ssr:date" v="2019-05-30" />
		<tag k="ssr:gruppe" v="veg" />
		<tag k="ssr:hovedgruppe" v="infrastruktur" />
		<tag k="ssr:stedsnr" v="1017468" />
		<tag k="ssr:type" v="adressenavn" />
	</node>
	<node id="-129009" lat="61.2374893755" lon="10.2595743349">
		<tag k="name" v="Neversjøvegen" />
		<tag k="ssr:date" v="2019-05-30" />
		<tag k="ssr:gruppe" v="veg" />
		<tag k="ssr:hovedgruppe" v="infrastruktur" />
		<tag k="ssr:stedsnr" v="1013397" />
		<tag k="ssr:type" v="adressenavn" />
	</node>
	<node id="-131114" lat="61.2268472247" lon="10.2214472233">
		<tag k="name" v="Gausdal kommune" />
		<tag k="ssr:date" v="2016-05-11" />
		<tag k="ssr:gruppe" v="administrativeIndelinger" />
		<tag k="ssr:hovedgruppe" v="offentligAdministrasjon" />
		<tag k="ssr:stedsnr" v="875897" />
		<tag k="ssr:type" v="kommune" />
	</node>
	<node id="-128760" lat="61.2994027755" lon="9.89295555424">
		<tag k="name" v="Tossendalsvegen" />
		<tag k="ssr:date" v="2019-05-30" />
		<tag k="ssr:gruppe" v="veg" />
		<tag k="ssr:hovedgruppe" v="infrastruktur" />
		<tag k="ssr:stedsnr" v="414182" />
		<tag k="ssr:type" v="adressenavn" />
	</node>
	<node id="-129105" lat="61.3175125074" lon="9.88866614492">
		<tag k="name" v="Benndalsvegen" />
		<tag k="ssr:date" v="2019-05-30" />
		<tag k="ssr:gruppe" v="veg" />
		<tag k="ssr:hovedgruppe" v="infrastruktur" />
		<tag k="ssr:stedsnr" v="49922" />
		<tag k="ssr:type" v="adressenavn" />
	</node>
	<node id="-128889" lat="61.328989226" lon="10.1333675836">
		<tag k="name" v="Slåsetergutua" />
		<tag k="ssr:date" v="2019-12-10" />
		<tag k="ssr:gruppe" v="veg" />
		<tag k="ssr:hovedgruppe" v="infrastruktur" />
		<tag k="ssr:stedsnr" v="1073917" />
		<tag k="ssr:type" v="adressenavn" />
	</node>
	<node id="-128955" lat="61.2448184153" lon="9.94820428675">
		<tag k="name" v="Smelihusan" />
		<tag k="ssr:date" v="2019-05-30" />
		<tag k="ssr:gruppe" v="veg" />
		<tag k="ssr:hovedgruppe" v="infrastruktur" />
		<tag k="ssr:stedsnr" v="982963" />
		<tag k="ssr:type" v="adressenavn" />
	</node>
	<node id="-131378" lat="60.5908609473" lon="9.63819281559">
		<tag k="fixme" v="multiple name tags, choose one and add the other to alt_name" />
		<tag k="name" v="Austlandet;Østlandet" />
		<tag k="ssr:date" v="2018-01-09" />
		<tag k="ssr:gruppe" v="administrativeIndelinger" />
		<tag k="ssr:hovedgruppe" v="offentligAdministrasjon" />
		<tag k="ssr:stedsnr" v="974775" />
		<tag k="ssr:type" v="annenAdministrativInndeling" />
	</node>
	<node id="-128987" lat="61.270921847" lon="10.1873556926">
		<tag k="name" v="Nordre Neversjøvegen" />
		<tag k="ssr:date" v="2019-05-30" />
		<tag k="ssr:gruppe" v="veg" />
		<tag k="ssr:hovedgruppe" v="infrastruktur" />
		<tag k="ssr:stedsnr" v="983573" />
		<tag k="ssr:type" v="adressenavn" />
	</node>
	<node id="-128986" lat="61.2462706433" lon="10.0783025968">
		<tag k="name" v="Vassbekkdalsvegen" />
		<tag k="ssr:date" v="2019-05-30" />
		<tag k="ssr:gruppe" v="veg" />
		<tag k="ssr:hovedgruppe" v="infrastruktur" />
		<tag k="ssr:stedsnr" v="983556" />
		<tag k="ssr:type" v="adressenavn" />
	</node>
	<node id="-128985" lat="61.3277599986" lon="9.99696972215">
		<tag k="name" v="Langlivegen" />
		<tag k="ssr:date" v="2019-05-30" />
		<tag k="ssr:gruppe" v="veg" />
		<tag k="ssr:hovedgruppe" v="infrastruktur" />
		<tag k="ssr:stedsnr" v="983552" />
		<tag k="ssr:type" v="adressenavn" />
	</node>
	<node id="-128984" lat="61.278496837" lon="10.0341148387">
		<tag k="name" v="Gullrovegen" />
		<tag k="ssr:date" v="2019-05-30" />
		<tag k="ssr:gruppe" v="veg" />
		<tag k="ssr:hovedgruppe" v="infrastruktur" />
		<tag k="ssr:stedsnr" v="983551" />
		<tag k="ssr:type" v="adressenavn" />
	</node>
	<node id="-128983" lat="61.3604294886" lon="10.0738872752">
		<tag k="name" v="Galten" />
		<tag k="ssr:date" v="2019-05-30" />
		<tag k="ssr:gruppe" v="veg" />
		<tag k="ssr:hovedgruppe" v="infrastruktur" />
		<tag k="ssr:stedsnr" v="983549" />
		<tag k="ssr:type" v="adressenavn" />
	</node>
	<node id="-128981" lat="61.3786761824" lon="10.0493613671">
		<tag k="name" v="Svarttjønnhytta" />
		<tag k="ssr:date" v="2019-05-30" />
		<tag k="ssr:gruppe" v="veg" />
		<tag k="ssr:hovedgruppe" v="infrastruktur" />
		<tag k="ssr:stedsnr" v="983023" />
		<tag k="ssr:type" v="adressenavn" />
	</node>
	<node id="-128980" lat="61.3572848318" lon="10.018162114">
		<tag k="name" v="Nisjubua" />
		<tag k="ssr:date" v="2019-05-30" />
		<tag k="ssr:gruppe" v="veg" />
		<tag k="ssr:hovedgruppe" v="infrastruktur" />
		<tag k="ssr:stedsnr" v="983022" />
		<tag k="ssr:type" v="adressenavn" />
	</node>
	<node id="-128979" lat="61.3861201059" lon="9.89464285018">
		<tag k="name" v="Oppgardsbua" />
		<tag k="ssr:date" v="2019-05-30" />
		<tag k="ssr:gruppe" v="veg" />
		<tag k="ssr:hovedgruppe" v="infrastruktur" />
		<tag k="ssr:stedsnr" v="983021" />
		<tag k="ssr:type" v="adressenavn" />
	</node>
	<node id="-128978" lat="61.3660048314" lon="9.84481574499">
		<tag k="name" v="Lonhaughøgda" />
		<tag k="ssr:date" v="2019-05-30" />
		<tag k="ssr:gruppe" v="veg" />
		<tag k="ssr:hovedgruppe" v="infrastruktur" />
		<tag k="ssr:stedsnr" v="983020" />
		<tag k="ssr:type" v="adressenavn" />
	</node>
	<node id="-128977" lat="61.3859371049" lon="9.63873120998">
		<tag k="name" v="Storfjellroa" />
		<tag k="ssr:date" v="2019-05-30" />
		<tag k="ssr:gruppe" v="veg" />
		<tag k="ssr:hovedgruppe" v="infrastruktur" />
		<tag k="ssr:stedsnr" v="983019" />
		<tag k="ssr:type" v="adressenavn" />
	</node>
	<node id="-128976" lat="61.2135218765" lon="9.54095176998">
		<tag k="name" v="Skruvdalsbua" />
		<tag k="ssr:date" v="2019-05-30" />
		<tag k="ssr:gruppe" v="veg" />
		<tag k="ssr:hovedgruppe" v="infrastruktur" />
		<tag k="ssr:stedsnr" v="983018" />
		<tag k="ssr:type" v="adressenavn" />
	</node>
	<node id="-128975" lat="61.3836391185" lon="9.54136214416">
		<tag k="name" v="Ulstein" />
		<tag k="ssr:date" v="2019-05-30" />
		<tag k="ssr:gruppe" v="veg" />
		<tag k="ssr:hovedgruppe" v="infrastruktur" />
		<tag k="ssr:stedsnr" v="983017" />
		<tag k="ssr:type" v="adressenavn" />
	</node>
	<node id="-128974" lat="61.376636423" lon="9.54812693163">
		<tag k="name" v="Stylskardtjønnan" />
		<tag k="ssr:date" v="2019-05-30" />
		<tag k="ssr:gruppe" v="veg" />
		<tag k="ssr:hovedgruppe" v="infrastruktur" />
		<tag k="ssr:stedsnr" v="982996" />
		<tag k="ssr:type" v="adressenavn" />
	</node>
	<node id="-129357" lat="61.2694222201" lon="10.2425944527">
		<tag k="name" v="Neversjøvegen" />
		<tag k="ssr:date" v="2016-05-10" />
		<tag k="ssr:gruppe" v="veg" />
		<tag k="ssr:hovedgruppe" v="infrastruktur" />
		<tag k="ssr:stedsnr" v="116458" />
		<tag k="ssr:type" v="vegstrekning" />
	</node>
	<node id="-128972" lat="61.396173285" lon="9.53418331604">
		<tag k="name" v="Nedre Megrundstjønnet" />
		<tag k="ssr:date" v="2019-05-30" />
		<tag k="ssr:gruppe" v="veg" />
		<tag k="ssr:hovedgruppe" v="infrastruktur" />
		<tag k="ssr:stedsnr" v="982994" />
		<tag k="ssr:type" v="adressenavn" />
	</node>
	<node id="-128971" lat="61.3253855913" lon="9.57146083671">
		<tag k="name" v="Hundkjølen" />
		<tag k="ssr:date" v="2019-05-30" />
		<tag k="ssr:gruppe" v="veg" />
		<tag k="ssr:hovedgruppe" v="infrastruktur" />
		<tag k="ssr:stedsnr" v="982993" />
		<tag k="ssr:type" v="adressenavn" />
	</node>
	<node id="-130122" lat="61.2687583366" lon="10.0966027826">
		<tag k="name" v="Klevakjølvegen" />
		<tag k="ssr:date" v="2019-05-30" />
		<tag k="ssr:gruppe" v="veg" />
		<tag k="ssr:hovedgruppe" v="infrastruktur" />
		<tag k="ssr:stedsnr" v="537934" />
		<tag k="ssr:type" v="adressenavn" />
	</node>
	<node id="-128969" lat="61.3492998097" lon="9.50878163458">
		<tag k="name" v="Nordbua" />
		<tag k="ssr:date" v="2019-05-30" />
		<tag k="ssr:gruppe" v="veg" />
		<tag k="ssr:hovedgruppe" v="infrastruktur" />
		<tag k="ssr:stedsnr" v="982991" />
		<tag k="ssr:type" v="adressenavn" />
	</node>
	<node id="-128968" lat="61.3201847103" lon="9.49187319091">
		<tag k="name" v="Vestmjøs" />
		<tag k="ssr:date" v="2019-05-30" />
		<tag k="ssr:gruppe" v="veg" />
		<tag k="ssr:hovedgruppe" v="infrastruktur" />
		<tag k="ssr:stedsnr" v="982990" />
		<tag k="ssr:type" v="adressenavn" />
	</node>
	<node id="-128967" lat="61.3047038667" lon="9.52629836548">
		<tag k="name" v="Risåbua" />
		<tag k="ssr:date" v="2019-05-30" />
		<tag k="ssr:gruppe" v="veg" />
		<tag k="ssr:hovedgruppe" v="infrastruktur" />
		<tag k="ssr:stedsnr" v="982989" />
		<tag k="ssr:type" v="adressenavn" />
	</node>
	<node id="-128966" lat="61.3002907995" lon="9.46625066483">
		<tag k="name" v="Nonstjønnbua" />
		<tag k="ssr:date" v="2019-05-30" />
		<tag k="ssr:gruppe" v="veg" />
		<tag k="ssr:hovedgruppe" v="infrastruktur" />
		<tag k="ssr:stedsnr" v="982988" />
		<tag k="ssr:type" v="adressenavn" />
	</node>
	<node id="-128965" lat="61.3374561351" lon="9.44546126675">
		<tag k="name" v="Storkvolvbua" />
		<tag k="ssr:date" v="2019-05-30" />
		<tag k="ssr:gruppe" v="veg" />
		<tag k="ssr:hovedgruppe" v="infrastruktur" />
		<tag k="ssr:stedsnr" v="982987" />
		<tag k="ssr:type" v="adressenavn" />
	</node>
	<node id="-128964" lat="61.2955102865" lon="9.3877016678">
		<tag k="name" v="Fatkvolvbua" />
		<tag k="ssr:date" v="2019-05-30" />
		<tag k="ssr:gruppe" v="veg" />
		<tag k="ssr:hovedgruppe" v="infrastruktur" />
		<tag k="ssr:stedsnr" v="982986" />
		<tag k="ssr:type" v="adressenavn" />
	</node>
	<node id="-128963" lat="61.2910288196" lon="9.36228702323">
		<tag k="name" v="Vesterheimsbua" />
		<tag k="ssr:date" v="2019-05-30" />
		<tag k="ssr:gruppe" v="veg" />
		<tag k="ssr:hovedgruppe" v="infrastruktur" />
		<tag k="ssr:stedsnr" v="982985" />
		<tag k="ssr:type" v="adressenavn" />
	</node>
	<node id="-128962" lat="61.288137111" lon="9.39171561413">
		<tag k="name" v="Langsubua" />
		<tag k="ssr:date" v="2019-05-30" />
		<tag k="ssr:gruppe" v="veg" />
		<tag k="ssr:hovedgruppe" v="infrastruktur" />
		<tag k="ssr:stedsnr" v="982984" />
		<tag k="ssr:type" v="adressenavn" />
	</node>
	<node id="-128961" lat="61.2529182658" lon="9.4808877668">
		<tag k="name" v="Fossbekkbua" />
		<tag k="ssr:date" v="2019-05-30" />
		<tag k="ssr:gruppe" v="veg" />
		<tag k="ssr:hovedgruppe" v="infrastruktur" />
		<tag k="ssr:stedsnr" v="982983" />
		<tag k="ssr:type" v="adressenavn" />
	</node>
	<node id="-128960" lat="61.2499409957" lon="9.50948598875">
		<tag k="name" v="Skardbu" />
		<tag k="ssr:date" v="2019-05-30" />
		<tag k="ssr:gruppe" v="veg" />
		<tag k="ssr:hovedgruppe" v="infrastruktur" />
		<tag k="ssr:stedsnr" v="982967" />
		<tag k="ssr:type" v="adressenavn" />
	</node>
	<node id="-128973" lat="61.3842866506" lon="9.52735498744">
		<tag k="name" v="Øvre Megrundstjønnet" />
		<tag k="ssr:date" v="2019-05-30" />
		<tag k="ssr:gruppe" v="veg" />
		<tag k="ssr:hovedgruppe" v="infrastruktur" />
		<tag k="ssr:stedsnr" v="982995" />
		<tag k="ssr:type" v="adressenavn" />
	</node>
	<node id="-128958" lat="61.3234205923" lon="9.66034153159">
		<tag k="name" v="Ongsjølia" />
		<tag k="ssr:date" v="2019-05-30" />
		<tag k="ssr:gruppe" v="veg" />
		<tag k="ssr:hovedgruppe" v="infrastruktur" />
		<tag k="ssr:stedsnr" v="982965" />
		<tag k="ssr:type" v="adressenavn" />
	</node>
	<node id="-128957" lat="61.2176115041" lon="9.98510592556">
		<tag k="name" v="Kårfallslettet" />
		<tag k="ssr:date" v="2019-05-30" />
		<tag k="ssr:gruppe" v="veg" />
		<tag k="ssr:hovedgruppe" v="infrastruktur" />
		<tag k="ssr:stedsnr" v="982964" />
		<tag k="ssr:type" v="adressenavn" />
	</node>
	<node id="-128956" lat="61.2403870818" lon="9.96293877573">
		<tag k="name" v="Moslettbua" />
		<tag k="ssr:date" v="2019-05-30" />
		<tag k="ssr:gruppe" v="veg" />
		<tag k="ssr:hovedgruppe" v="infrastruktur" />
		<tag k="ssr:stedsnr" v="982962" />
		<tag k="ssr:type" v="adressenavn" />
	</node>
	<node id="-128970" lat="61.3336455274" lon="9.5756100804">
		<tag k="name" v="Leppe" />
		<tag k="ssr:date" v="2019-05-30" />
		<tag k="ssr:gruppe" v="veg" />
		<tag k="ssr:hovedgruppe" v="infrastruktur" />
		<tag k="ssr:stedsnr" v="982992" />
		<tag k="ssr:type" v="adressenavn" />
	</node>
	<node id="-128954" lat="61.2785609534" lon="9.7846761072">
		<tag k="name" v="Mossjøen" />
		<tag k="ssr:date" v="2019-05-30" />
		<tag k="ssr:gruppe" v="veg" />
		<tag k="ssr:hovedgruppe" v="infrastruktur" />
		<tag k="ssr:stedsnr" v="982961" />
		<tag k="ssr:type" v="adressenavn" />
	</node>
	<node id="-128953" lat="61.2841781017" lon="9.80664499842">
		<tag k="name" v="Svabekkbua" />
		<tag k="ssr:date" v="2019-05-30" />
		<tag k="ssr:gruppe" v="veg" />
		<tag k="ssr:hovedgruppe" v="infrastruktur" />
		<tag k="ssr:stedsnr" v="982960" />
		<tag k="ssr:type" v="adressenavn" />
	</node>
	<node id="-128952" lat="61.2813546638" lon="9.6445338355">
		<tag k="name" v="Tverrlia" />
		<tag k="ssr:date" v="2019-05-30" />
		<tag k="ssr:gruppe" v="veg" />
		<tag k="ssr:hovedgruppe" v="infrastruktur" />
		<tag k="ssr:stedsnr" v="982959" />
		<tag k="ssr:type" v="adressenavn" />
	</node>
	<node id="-128951" lat="61.2846448696" lon="9.64739983508">
		<tag k="name" v="Tverrlibua" />
		<tag k="ssr:date" v="2019-05-30" />
		<tag k="ssr:gruppe" v="veg" />
		<tag k="ssr:hovedgruppe" v="infrastruktur" />
		<tag k="ssr:stedsnr" v="982958" />
		<tag k="ssr:type" v="adressenavn" />
	</node>
	<node id="-128950" lat="61.2362201429" lon="9.8644880997">
		<tag k="name" v="Gulsandlia" />
		<tag k="ssr:date" v="2019-05-30" />
		<tag k="ssr:gruppe" v="veg" />
		<tag k="ssr:hovedgruppe" v="infrastruktur" />
		<tag k="ssr:stedsnr" v="982956" />
		<tag k="ssr:type" v="adressenavn" />
	</node>
	<node id="-128949" lat="61.23496783" lon="9.84090795837">
		<tag k="name" v="Dunglungen" />
		<tag k="ssr:date" v="2019-05-30" />
		<tag k="ssr:gruppe" v="veg" />
		<tag k="ssr:hovedgruppe" v="infrastruktur" />
		<tag k="ssr:stedsnr" v="982957" />
		<tag k="ssr:type" v="adressenavn" />
	</node>
	<node id="-128948" lat="61.2728888036" lon="9.70411501937">
		<tag k="name" v="Grytlia" />
		<tag k="ssr:date" v="2019-05-30" />
		<tag k="ssr:gruppe" v="veg" />
		<tag k="ssr:hovedgruppe" v="infrastruktur" />
		<tag k="ssr:stedsnr" v="982955" />
		<tag k="ssr:type" v="adressenavn" />
	</node>
	<node id="-128947" lat="61.2010364694" lon="9.58146907161">
		<tag k="name" v="Reinsjøbua" />
		<tag k="ssr:date" v="2019-05-30" />
		<tag k="ssr:gruppe" v="veg" />
		<tag k="ssr:hovedgruppe" v="infrastruktur" />
		<tag k="ssr:stedsnr" v="982954" />
		<tag k="ssr:type" v="adressenavn" />
	</node>
	<node id="-128946" lat="61.2614961816" lon="9.72114246057">
		<tag k="name" v="Røverhulen" />
		<tag k="ssr:date" v="2019-05-30" />
		<tag k="ssr:gruppe" v="veg" />
		<tag k="ssr:hovedgruppe" v="infrastruktur" />
		<tag k="ssr:stedsnr" v="982953" />
		<tag k="ssr:type" v="adressenavn" />
	</node>
	<node id="-128945" lat="61.1281149078" lon="10.0926718801">
		<tag k="name" v="Hindalssjøhytta" />
		<tag k="ssr:date" v="2019-05-30" />
		<tag k="ssr:gruppe" v="veg" />
		<tag k="ssr:hovedgruppe" v="infrastruktur" />
		<tag k="ssr:stedsnr" v="982952" />
		<tag k="ssr:type" v="adressenavn" />
	</node>
	<node id="-128944" lat="61.3339494247" lon="9.73590657077">
		<tag k="name" v="Ongsjøvegen" />
		<tag k="ssr:date" v="2019-05-30" />
		<tag k="ssr:gruppe" v="veg" />
		<tag k="ssr:hovedgruppe" v="infrastruktur" />
		<tag k="ssr:stedsnr" v="982951" />
		<tag k="ssr:type" v="adressenavn" />
	</node>
	<node id="-128943" lat="61.3326346769" lon="9.75947576027">
		<tag k="name" v="Finndalen" />
		<tag k="ssr:date" v="2019-05-30" />
		<tag k="ssr:gruppe" v="veg" />
		<tag k="ssr:hovedgruppe" v="infrastruktur" />
		<tag k="ssr:stedsnr" v="982950" />
		<tag k="ssr:type" v="adressenavn" />
	</node>
	<node id="-128942" lat="61.3037107767" lon="9.87534336934">
		<tag k="name" v="Keikvegen" />
		<tag k="ssr:date" v="2019-05-30" />
		<tag k="ssr:gruppe" v="veg" />
		<tag k="ssr:hovedgruppe" v="infrastruktur" />
		<tag k="ssr:stedsnr" v="982949" />
		<tag k="ssr:type" v="adressenavn" />
	</node>
	<node id="-128941" lat="61.2999888705" lon="9.89129294473">
		<tag k="name" v="Rosmyrvegen" />
		<tag k="ssr:date" v="2019-05-30" />
		<tag k="ssr:gruppe" v="veg" />
		<tag k="ssr:hovedgruppe" v="infrastruktur" />
		<tag k="ssr:stedsnr" v="982948" />
		<tag k="ssr:type" v="adressenavn" />
	</node>
	<node id="-128940" lat="61.2628149606" lon="10.0086337734">
		<tag k="name" v="Aulstadlia" />
		<tag k="ssr:date" v="2019-05-30" />
		<tag k="ssr:gruppe" v="veg" />
		<tag k="ssr:hovedgruppe" v="infrastruktur" />
		<tag k="ssr:stedsnr" v="982947" />
		<tag k="ssr:type" v="adressenavn" />
	</node>
	<node id="-128939" lat="61.2254917939" lon="9.90834764836">
		<tag k="name" v="Hynnkroken" />
		<tag k="ssr:date" v="2019-05-30" />
		<tag k="ssr:gruppe" v="veg" />
		<tag k="ssr:hovedgruppe" v="infrastruktur" />
		<tag k="ssr:stedsnr" v="982946" />
		<tag k="ssr:type" v="adressenavn" />
	</node>
	<node id="-128938" lat="61.2231336664" lon="9.65751305342">
		<tag k="name" v="Vågskard" />
		<tag k="ssr:date" v="2019-05-30" />
		<tag k="ssr:gruppe" v="veg" />
		<tag k="ssr:hovedgruppe" v="infrastruktur" />
		<tag k="ssr:stedsnr" v="982945" />
		<tag k="ssr:type" v="adressenavn" />
	</node>
	<node id="-128937" lat="61.2231354904" lon="9.7423673032">
		<tag k="name" v="Tjyruverket" />
		<tag k="ssr:date" v="2019-05-30" />
		<tag k="ssr:gruppe" v="veg" />
		<tag k="ssr:hovedgruppe" v="infrastruktur" />
		<tag k="ssr:stedsnr" v="982739" />
		<tag k="ssr:type" v="adressenavn" />
	</node>
	<node id="-128936" lat="61.2100136824" lon="9.82989346512">
		<tag k="name" v="Dokklia" />
		<tag k="ssr:date" v="2019-05-30" />
		<tag k="ssr:gruppe" v="veg" />
		<tag k="ssr:hovedgruppe" v="infrastruktur" />
		<tag k="ssr:stedsnr" v="982738" />
		<tag k="ssr:type" v="adressenavn" />
	</node>
	<node id="-128935" lat="61.1740774259" lon="9.95729062221">
		<tag k="name" v="Snakholvegen" />
		<tag k="ssr:date" v="2019-05-30" />
		<tag k="ssr:gruppe" v="veg" />
		<tag k="ssr:hovedgruppe" v="infrastruktur" />
		<tag k="ssr:stedsnr" v="982737" />
		<tag k="ssr:type" v="adressenavn" />
	</node>
	<node id="-128934" lat="61.1883116736" lon="10.0616268884">
		<tag k="name" v="Dyrkingsfeltan" />
		<tag k="ssr:date" v="2019-05-30" />
		<tag k="ssr:gruppe" v="veg" />
		<tag k="ssr:hovedgruppe" v="infrastruktur" />
		<tag k="ssr:stedsnr" v="982736" />
		<tag k="ssr:type" v="adressenavn" />
	</node>
	<node id="-128933" lat="61.1359321582" lon="10.1661838209">
		<tag k="name" v="Grøtåsvegen" />
		<tag k="ssr:date" v="2019-05-30" />
		<tag k="ssr:gruppe" v="veg" />
		<tag k="ssr:hovedgruppe" v="infrastruktur" />
		<tag k="ssr:stedsnr" v="982735" />
		<tag k="ssr:type" v="adressenavn" />
	</node>
	<node id="-130980" lat="61.3705388862" lon="9.73513888839">
		<tag k="name" v="Kveinnslåvegen" />
		<tag k="ssr:date" v="2018-06-11" />
		<tag k="ssr:gruppe" v="veg" />
		<tag k="ssr:hovedgruppe" v="infrastruktur" />
		<tag k="ssr:stedsnr" v="840080" />
		<tag k="ssr:type" v="vegstrekning" />
	</node>
	<node id="-130453" lat="61.3115006381" lon="9.97889497769">
		<tag k="name" v="Skåndalsvegen" />
		<tag k="ssr:date" v="2019-05-30" />
		<tag k="ssr:gruppe" v="veg" />
		<tag k="ssr:hovedgruppe" v="infrastruktur" />
		<tag k="ssr:stedsnr" v="657973" />
		<tag k="ssr:type" v="adressenavn" />
	</node>
	<node id="-129168" lat="61.2278903717" lon="10.0498324614">
		<tag k="name" v="Graffermorkvegen" />
		<tag k="ssr:date" v="2019-05-30" />
		<tag k="ssr:gruppe" v="veg" />
		<tag k="ssr:hovedgruppe" v="infrastruktur" />
		<tag k="ssr:stedsnr" v="52565" />
		<tag k="ssr:type" v="adressenavn" />
	</node>
	<node id="-130823" lat="61.1701694404" lon="10.124652775">
		<tag k="name" v="Hammerlivegen" />
		<tag k="ssr:date" v="2018-04-05" />
		<tag k="ssr:gruppe" v="veg" />
		<tag k="ssr:hovedgruppe" v="infrastruktur" />
		<tag k="ssr:stedsnr" v="780030" />
		<tag k="ssr:type" v="vegstrekning" />
	</node>
</osm>
