<?xml version="1.0" encoding="UTF-8"?>
<osm generator="osmapis" version="0.6">
	<node id="-247798" lat="59.7383055527" lon="8.26979444979">
		<tag k="name" v="Lifjellvegen" />
		<tag k="ssr:date" v="2016-05-11" />
		<tag k="ssr:gruppe" v="veg" />
		<tag k="ssr:hovedgruppe" v="infrastruktur" />
		<tag k="ssr:stedsnr" v="771106" />
		<tag k="ssr:type" v="vegstrekning" />
	</node>
	<node id="-245969" lat="59.4827388929" lon="8.62671667529">
		<tag k="name" v="Seljord kommune" />
		<tag k="ssr:date" v="2016-05-10" />
		<tag k="ssr:gruppe" v="administrativeIndelinger" />
		<tag k="ssr:hovedgruppe" v="offentligAdministrasjon" />
		<tag k="ssr:stedsnr" v="85650" />
		<tag k="ssr:type" v="kommune" />
	</node>
	<node id="-245296" lat="59.5721644619" lon="8.26075733232">
		<tag k="name" v="Trovasslivegen" />
		<tag k="ssr:date" v="2019-05-31" />
		<tag k="ssr:gruppe" v="veg" />
		<tag k="ssr:hovedgruppe" v="infrastruktur" />
		<tag k="ssr:stedsnr" v="1048937" />
		<tag k="ssr:type" v="adressenavn" />
	</node>
	<node id="-245068" lat="59.7299861156" lon="8.28299721653">
		<tag k="name" v="Lifjellvegen" />
		<tag k="ssr:date" v="2016-05-10" />
		<tag k="ssr:gruppe" v="veg" />
		<tag k="ssr:hovedgruppe" v="infrastruktur" />
		<tag k="ssr:stedsnr" v="281122" />
		<tag k="ssr:type" v="vegstrekning" />
	</node>
	<node id="-248268" lat="60.5908609473" lon="9.63819281559">
		<tag k="fixme" v="multiple name tags, choose one and add the other to alt_name" />
		<tag k="name" v="Austlandet;Ã˜stlandet" />
		<tag k="ssr:date" v="2018-01-09" />
		<tag k="ssr:gruppe" v="administrativeIndelinger" />
		<tag k="ssr:hovedgruppe" v="offentligAdministrasjon" />
		<tag k="ssr:stedsnr" v="974775" />
		<tag k="ssr:type" v="annenAdministrativInndeling" />
	</node>
	<node id="-245612" lat="59.5002527767" lon="8.65099166012">
		<tag k="name" v="Grunningdalsvegen" />
		<tag k="ssr:date" v="2016-05-11" />
		<tag k="ssr:gruppe" v="veg" />
		<tag k="ssr:hovedgruppe" v="infrastruktur" />
		<tag k="ssr:stedsnr" v="887689" />
		<tag k="ssr:type" v="vegstrekning" />
	</node>
</osm>
