<?xml version="1.0" encoding="UTF-8"?>
<<<<<<< HEAD
<osm version="0.6" generator="osmapis">
	<node lat="62.16478611275922" lon="6.2512055579977295" id="-4211">
		<tag k="name" v="Myrane" />
		<tag k="natural" v="wetland" />
		<tag k="ssr:stedsnr" v="32779" />
	</node>
	<node lat="62.26804166236244" lon="6.137636105272968" id="-4229">
		<tag k="name" v="Litlemyra" />
		<tag k="natural" v="wetland" />
		<tag k="ssr:stedsnr" v="44425" />
	</node>
	<node lat="62.144611106954834" lon="6.2660138852486895" id="-4232">
		<tag k="name" v="Håmyra" />
		<tag k="natural" v="wetland" />
		<tag k="ssr:stedsnr" v="44442" />
	</node>
	<node lat="62.15124166303741" lon="6.259941657570238" id="-4233">
		<tag k="name" v="Langeteigane" />
		<tag k="place" v="locality" />
		<tag k="ssr:stedsnr" v="44449" />
	</node>
	<node lat="62.29241944370347" lon="6.2670027711185785" id="-4235">
		<tag k="name" v="Nebbesteinen" />
		<tag k="natural" v="stone" />
		<tag k="ssr:stedsnr" v="44574" />
	</node>
	<node lat="62.12160277633511" lon="6.305058327925423" id="-4240">
		<tag k="historic" v="shieling" />
		<tag k="name" v="Gamlestøylen" />
		<tag k="place" v="locality" />
		<tag k="ssr:stedsnr" v="44831" />
	</node>
	<node lat="62.18844721799315" lon="6.1047805504750725" id="-4279">
		<tag k="name" v="Haugeteigane" />
		<tag k="place" v="locality" />
		<tag k="ssr:stedsnr" v="98881" />
	</node>
	<node lat="62.142183331447164" lon="6.4174361034087255" id="-4303">
		<tag k="name" v="Mjeltefonna" />
		<tag k="place" v="locality" />
		<tag k="ssr:stedsnr" v="105181" />
	</node>
	<node lat="62.26429722428422" lon="6.16600278191117" id="-4312">
		<tag k="name" v="Myrane" />
		<tag k="natural" v="wetland" />
		<tag k="ssr:stedsnr" v="105890" />
	</node>
	<node lat="62.1546527807487" lon="6.183697224530007" id="-4316">
		<tag k="name" v="Småhyljane" />
		<tag k="natural" v="wetland" />
		<tag k="ssr:stedsnr" v="105982" />
	</node>
	<node lat="62.17642222376766" lon="6.374002780213627" id="-4382">
		<tag k="name" v="Kalvegjerdet" />
		<tag k="place" v="locality" />
		<tag k="ssr:stedsnr" v="165219" />
	</node>
	<node lat="62.143211107858626" lon="6.397086103450891" id="-4388">
=======
<osm generator="osmapis" version="0.6">
	<node id="-66047" lat="62.1082805586" lon="6.35413611143">
		<tag k="name" v="Storurda" />
		<tag k="natural" v="scree" />
		<tag k="ssr:stedsnr" v="650841" />
	</node>
	<node id="-66045" lat="62.2048999967" lon="6.22584999603">
		<tag k="name" v="Storura" />
		<tag k="natural" v="scree" />
		<tag k="ssr:stedsnr" v="650637" />
	</node>
	<node id="-64507" lat="62.3230027749" lon="6.14685000262">
		<tag k="name" v="Storsteinen" />
		<tag k="natural" v="stone" />
		<tag k="ssr:stedsnr" v="590534" />
	</node>
	<node id="-66042" lat="62.2593499979" lon="6.1913361186">
		<tag k="name" v="Svarteskogen" />
		<tag k="place" v="locality" />
		<tag k="ssr:stedsnr" v="650612" />
	</node>
	<node id="-64503" lat="62.1972972177" lon="6.22152499421">
		<tag k="name" v="Myrane" />
		<tag k="natural" v="wetland" />
		<tag k="ssr:stedsnr" v="711694" />
	</node>
	<node id="-65524" lat="62.1419194417" lon="6.28323333696">
		<tag k="name" v="Storerydet" />
		<tag k="place" v="locality" />
		<tag k="ssr:stedsnr" v="347248" />
	</node>
	<node id="-66033" lat="62.2085916676" lon="6.23688332791">
		<tag k="name" v="Gråura" />
		<tag k="natural" v="scree" />
		<tag k="ssr:stedsnr" v="650693" />
	</node>
	<node id="-64496" lat="62.2252777799" lon="6.25217221917">
		<tag k="name" v="Svalnemyra" />
		<tag k="natural" v="wetland" />
		<tag k="ssr:stedsnr" v="711666" />
	</node>
	<node id="-63981" lat="62.1984305568" lon="6.61351388424">
		<tag k="name" v="Brattefonna" />
		<tag k="place" v="locality" />
		<tag k="ssr:stedsnr" v="227870" />
	</node>
	<node id="-66028" lat="62.2528555592" lon="6.37284166655">
		<tag k="historic" v="shieling" />
		<tag k="name" v="Leikvollen" />
		<tag k="place" v="locality" />
		<tag k="ssr:stedsnr" v="650339" />
	</node>
	<node id="-65511" lat="62.1784083333" lon="6.16786110613">
		<tag k="name" v="Fonna" />
		<tag k="place" v="locality" />
		<tag k="ssr:stedsnr" v="346951" />
	</node>
	<node id="-64993" lat="62.2036111085" lon="6.45911388726">
		<tag k="name" v="Feirøyane" />
		<tag k="place" v="locality" />
		<tag k="ssr:stedsnr" v="954711" />
	</node>
	<node id="-64990" lat="62.1754777805" lon="6.15349443763">
		<tag k="name" v="Jonsokbreen" />
		<tag k="natural" v="glacier" />
		<tag k="ssr:stedsnr" v="953942" />
	</node>
	<node id="-64477" lat="62.2002944417" lon="6.26174999265">
		<tag k="name" v="Småmyrane" />
		<tag k="natural" v="wetland" />
		<tag k="ssr:stedsnr" v="711581" />
	</node>
	<node id="-63738" lat="62.3322277808" lon="6.36877499694">
>>>>>>> e1d4bc35ff8a6074a6f2e91616a996b547c36f15
		<tag k="historic" v="shieling" />
		<tag k="name" v="Risestøylen" />
		<tag k="place" v="locality" />
		<tag k="ssr:stedsnr" v="165159" />
	</node>
<<<<<<< HEAD
	<node lat="62.11293611223843" lon="6.310063880917032" id="-4424">
		<tag k="name" v="Breideskreda" />
		<tag k="natural" v="scree" />
		<tag k="ssr:stedsnr" v="226191" />
	</node>
	<node lat="62.25909444850373" lon="6.408438881824838" id="-4429">
		<tag k="name" v="Flåtene" />
		<tag k="place" v="locality" />
		<tag k="ssr:stedsnr" v="226387" />
	</node>
	<node lat="62.23327222340416" lon="6.574497231701845" id="-4436">
		<tag k="name" v="Rørfonnskogen" />
=======
	<node id="-65498" lat="62.2458472222" lon="6.00305000218">
		<tag k="name" v="Nyfonna" />
		<tag k="place" v="locality" />
		<tag k="ssr:stedsnr" v="341413" />
	</node>
	<node id="-65497" lat="62.1961083328" lon="6.02100000027">
		<tag k="name" v="Vikaura" />
		<tag k="natural" v="scree" />
		<tag k="ssr:stedsnr" v="340908" />
	</node>
	<node id="-66005" lat="62.1979083341" lon="6.15483333545">
		<tag k="name" v="Mosmarka" />
>>>>>>> e1d4bc35ff8a6074a6f2e91616a996b547c36f15
		<tag k="place" v="locality" />
		<tag k="ssr:stedsnr" v="644147" />
	</node>
<<<<<<< HEAD
	<node lat="62.33222778082295" lon="6.368774996940413" id="-4438">
		<tag k="historic" v="shieling" />
		<tag k="name" v="Nedstestølen" />
		<tag k="place" v="locality" />
		<tag k="ssr:stedsnr" v="226844" />
	</node>
	<node lat="62.33922777703597" lon="6.206941665436948" id="-4446">
		<tag k="name" v="Holmakeren" />
		<tag k="place" v="locality" />
		<tag k="ssr:stedsnr" v="226996" />
	</node>
	<node lat="62.36012500423528" lon="6.264425008308656" id="-4479">
		<tag k="landuse" v="quarry" />
		<tag k="name" v="Borga" />
		<tag k="ssr:stedsnr" v="457996" />
	</node>
	<node lat="62.2474611124523" lon="6.024999999090836" id="-4484">
		<tag k="name" v="Seljeriset" />
		<tag k="place" v="locality" />
		<tag k="ssr:stedsnr" v="281412" />
	</node>
	<node lat="62.215672220571605" lon="6.071299992736794" id="-4485">
		<tag k="name" v="Flåna" />
		<tag k="place" v="locality" />
		<tag k="ssr:stedsnr" v="281667" />
	</node>
	<node lat="62.212616664778864" lon="6.438188891196057" id="-4488">
		<tag k="name" v="Langurda" />
		<tag k="natural" v="scree" />
		<tag k="ssr:stedsnr" v="461351" />
	</node>
	<node lat="62.283469442828064" lon="6.0329194507127335" id="-4492">
		<tag k="name" v="Smålegene" />
		<tag k="place" v="locality" />
		<tag k="ssr:stedsnr" v="286835" />
	</node>
	<node lat="62.32259444766487" lon="6.163149991704522" id="-4506">
		<tag k="name" v="Gråura" />
		<tag k="natural" v="scree" />
		<tag k="ssr:stedsnr" v="287583" />
	</node>
	<node lat="62.225552779857914" lon="6.582152782488838" id="-4516">
		<tag k="name" v="Haugemyra" />
		<tag k="natural" v="wetland" />
		<tag k="ssr:stedsnr" v="287726" />
	</node>
	<node lat="62.216166664503206" lon="6.05013611703054" id="-4533">
		<tag k="name" v="Syrøyane" />
		<tag k="place" v="locality" />
		<tag k="ssr:stedsnr" v="463001" />
	</node>
	<node lat="62.22495555584955" lon="6.017852784281972" id="-4534">
		<tag k="alt_name" v="Rindane" />
		<tag k="name" v="Storerindfonna" />
		<tag k="place" v="locality" />
		<tag k="ssr:stedsnr" v="463327" />
	</node>
	<node lat="62.22950832906371" lon="6.599616671756412" id="-4547">
		<tag k="historic" v="shieling" />
		<tag k="name" v="Myrsætra" />
		<tag k="place" v="locality" />
		<tag k="ssr:stedsnr" v="314569" />
	</node>
	<node lat="62.28214166470795" lon="6.146727774949286" id="-4557">
		<tag k="name" v="Eljebøen" />
		<tag k="place" v="locality" />
		<tag k="ssr:stedsnr" v="468375" />
	</node>
	<node lat="62.13014999896138" lon="6.3210944397651145" id="-4567">
		<tag k="name" v="Gjølmyra" />
		<tag k="natural" v="wetland" />
		<tag k="ssr:stedsnr" v="468827" />
	</node>
	<node lat="62.335463885885645" lon="6.172380563059272" id="-4573">
		<tag k="name" v="Åmannshella" />
		<tag k="natural" v="stone" />
		<tag k="ssr:stedsnr" v="469020" />
	</node>
	<node lat="62.18075000285615" lon="6.187722224191714" id="-4581">
		<tag k="name" v="Gråssmyra" />
		<tag k="natural" v="wetland" />
		<tag k="ssr:stedsnr" v="469655" />
	</node>
	<node lat="62.336177781903494" lon="6.187202775543358" id="-4589">
		<tag k="name" v="Molamyra" />
		<tag k="natural" v="wetland" />
		<tag k="ssr:stedsnr" v="469989" />
	</node>
	<node lat="62.34175277947493" lon="6.210658330050814" id="-4591">
		<tag k="name" v="Lyngmyra" />
		<tag k="natural" v="wetland" />
		<tag k="ssr:stedsnr" v="469996" />
	</node>
	<node lat="62.19610833275983" lon="6.021000000272437" id="-4601">
		<tag k="name" v="Vikaura" />
		<tag k="natural" v="scree" />
		<tag k="ssr:stedsnr" v="340908" />
	</node>
	<node lat="62.22045555439655" lon="5.9874277805263" id="-4608">
		<tag k="name" v="Storurda" />
		<tag k="natural" v="scree" />
		<tag k="ssr:stedsnr" v="346816" />
	</node>
	<node lat="62.284736112747005" lon="6.157119449990097" id="-4618">
		<tag k="name" v="Neregardsfonna" />
		<tag k="place" v="locality" />
		<tag k="ssr:stedsnr" v="347418" />
	</node>
	<node lat="62.34591666528894" lon="6.298938884923249" id="-4631">
		<tag k="name" v="Myrsteinen" />
		<tag k="natural" v="stone" />
		<tag k="ssr:stedsnr" v="347810" />
	</node>
	<node lat="62.13129999585624" lon="6.238244446545517" id="-4634">
		<tag k="historic" v="shieling" />
		<tag k="name" v="Gamlesætra" />
=======
	<node id="-66001" lat="62.2110416638" lon="6.4338638941">
		<tag k="name" v="Storeura" />
		<tag k="natural" v="scree" />
		<tag k="ssr:stedsnr" v="643342" />
	</node>
	<node id="-66000" lat="62.2060861149" lon="6.44125555213">
		<tag k="name" v="Årskogbøen" />
		<tag k="place" v="locality" />
		<tag k="ssr:stedsnr" v="643341" />
	</node>
	<node id="-65997" lat="62.3169361087" lon="6.28092499316">
		<tag k="name" v="Fondsareset" />
		<tag k="place" v="locality" />
		<tag k="ssr:stedsnr" v="639968" />
	</node>
	<node id="-64972" lat="62.1334305549" lon="6.43180556139">
		<tag k="name" v="Øyrane" />
		<tag k="place" v="locality" />
		<tag k="ssr:stedsnr" v="908939" />
	</node>
	<node id="-63945" lat="62.2255527799" lon="6.58215278249">
		<tag k="name" v="Haugemyra" />
		<tag k="natural" v="wetland" />
		<tag k="ssr:stedsnr" v="287726" />
	</node>
	<node id="-65953" lat="62.1815333312" lon="6.71599722427">
		<tag k="name" v="Blikksteinurdane" />
		<tag k="natural" v="scree" />
		<tag k="ssr:stedsnr" v="591398" />
	</node>
	<node id="-64452" lat="62.3038333334" lon="6.09653610444">
		<tag k="name" v="Svinesteinen" />
		<tag k="natural" v="stone" />
		<tag k="ssr:stedsnr" v="710188" />
	</node>
	<node id="-65475" lat="62.2295083291" lon="6.59961667176">
		<tag k="historic" v="shieling" />
		<tag k="name" v="Myrsætra" />
		<tag k="place" v="locality" />
		<tag k="ssr:stedsnr" v="314569" />
	</node>
	<node id="-64450" lat="62.2153416702" lon="6.06779999596">
		<tag k="name" v="Omnen" />
		<tag k="place" v="locality" />
		<tag k="ssr:stedsnr" v="584661" />
	</node>
	<node id="-64957" lat="62.2120722184" lon="6.07556388876">
		<tag k="name" v="Fonna" />
		<tag k="place" v="locality" />
		<tag k="ssr:stedsnr" v="888609" />
	</node>
	<node id="-64074" lat="62.3252361093" lon="6.14631667281">
		<tag k="name" v="Storreina" />
		<tag k="place" v="locality" />
		<tag k="ssr:stedsnr" v="468471" />
	</node>
	<node id="-64954" lat="62.205894443" lon="6.12444167641">
		<tag k="name" v="Hoggamyra" />
		<tag k="place" v="locality" />
		<tag k="ssr:stedsnr" v="888122" />
	</node>
	<node id="-65602" lat="62.2121916698" lon="6.1673722145">
		<tag k="name" v="Grøtvadet" />
		<tag k="natural" v="wetland" />
		<tag k="ssr:stedsnr" v="401336" />
	</node>
	<node id="-63928" lat="62.3225944477" lon="6.1631499917">
		<tag k="name" v="Gråura" />
		<tag k="natural" v="scree" />
		<tag k="ssr:stedsnr" v="287583" />
	</node>
	<node id="-64950" lat="62.1897833345" lon="6.09356389546">
		<tag k="name" v="Ørstaterminalen" />
		<tag k="place" v="locality" />
		<tag k="ssr:stedsnr" v="887905" />
	</node>
	<node id="-64437" lat="62.2083500022" lon="6.17006666747">
		<tag k="name" v="Daleteigane" />
		<tag k="place" v="locality" />
		<tag k="ssr:stedsnr" v="706134" />
	</node>
	<node id="-64435" lat="62.3286555575" lon="6.45005832368">
		<tag k="name" v="Lykleura" />
		<tag k="natural" v="scree" />
		<tag k="ssr:stedsnr" v="705905" />
	</node>
	<node id="-63921" lat="62.2834694428" lon="6.03291945071">
		<tag k="name" v="Smålegene" />
		<tag k="place" v="locality" />
		<tag k="ssr:stedsnr" v="286835" />
	</node>
	<node id="-64943" lat="62.2472333319" lon="6.0148611059">
		<tag k="name" v="Glennene" />
		<tag k="place" v="locality" />
		<tag k="ssr:stedsnr" v="948414" />
	</node>
	<node id="-64940" lat="62.1793166649" lon="6.08736944114">
		<tag k="name" v="Langmyra" />
		<tag k="natural" v="wetland" />
		<tag k="ssr:stedsnr" v="947899" />
	</node>
	<node id="-63915" lat="62.1980638848" lon="6.24600278768">
		<tag k="name" v="Spuemyra" />
		<tag k="natural" v="wetland" />
		<tag k="ssr:stedsnr" v="286599" />
	</node>
	<node id="-63911" lat="62.2089805601" lon="6.09983333842">
		<tag k="name" v="Fonna" />
		<tag k="place" v="locality" />
		<tag k="ssr:stedsnr" v="281676" />
	</node>
	<node id="-63910" lat="62.2156722206" lon="6.07129999274">
		<tag k="name" v="Flåna" />
		<tag k="place" v="locality" />
		<tag k="ssr:stedsnr" v="281667" />
	</node>
	<node id="-63908" lat="62.2474611125" lon="6.02499999909">
		<tag k="name" v="Seljeriset" />
		<tag k="place" v="locality" />
		<tag k="ssr:stedsnr" v="281412" />
	</node>
	<node id="-64931" lat="62.3468749974" lon="6.35825554984">
		<tag k="name" v="Øyra" />
		<tag k="place" v="locality" />
		<tag k="ssr:stedsnr" v="861375" />
	</node>
	<node id="-63905" lat="62.1935722262" lon="6.12802499751">
		<tag k="name" v="Holmane" />
>>>>>>> e1d4bc35ff8a6074a6f2e91616a996b547c36f15
		<tag k="place" v="locality" />
		<tag k="ssr:stedsnr" v="281147" />
	</node>
<<<<<<< HEAD
	<node lat="62.133061107512894" lon="6.242358335142433" id="-4635">
		<tag k="name" v="Storeleitet" />
		<tag k="place" v="locality" />
		<tag k="ssr:stedsnr" v="347761" />
	</node>
	<node lat="62.21219166976685" lon="6.167372214498582" id="-4676">
		<tag k="name" v="Grøtvadet" />
		<tag k="natural" v="wetland" />
		<tag k="ssr:stedsnr" v="401336" />
	</node>
	<node lat="62.18006944457752" lon="6.048255557187009" id="-4678">
		<tag k="name" v="Puskje" />
		<tag k="place" v="locality" />
		<tag k="ssr:stedsnr" v="401878" />
	</node>
	<node lat="62.18376944508684" lon="6.392855548984495" id="-4682">
		<tag k="name" v="Porsemyra" />
		<tag k="natural" v="wetland" />
		<tag k="ssr:stedsnr" v="408005" />
	</node>
	<node lat="62.25214444463485" lon="6.392944452578196" id="-4694">
		<tag k="name" v="Speburmyrane" />
		<tag k="natural" v="wetland" />
		<tag k="ssr:stedsnr" v="408391" />
	</node>
	<node lat="62.13121388469698" lon="6.441572230651336" id="-4710">
		<tag k="name" v="Myrane" />
		<tag k="natural" v="wetland" />
		<tag k="ssr:stedsnr" v="423916" />
	</node>
	<node lat="62.325236109334604" lon="6.146316672805133" id="-4747">
		<tag k="name" v="Storreina" />
		<tag k="place" v="locality" />
		<tag k="ssr:stedsnr" v="468471" />
	</node>
	<node lat="62.16355277962055" lon="6.362527786811129" id="-4760">
		<tag k="name" v="Mittelmyra" />
		<tag k="natural" v="wetland" />
		<tag k="ssr:stedsnr" v="469161" />
	</node>
	<node lat="62.30117777865584" lon="6.404652777591885" id="-4765">
		<tag k="name" v="Storeurda" />
		<tag k="natural" v="scree" />
		<tag k="ssr:stedsnr" v="469311" />
	</node>
	<node lat="62.30307221979138" lon="6.218500009080344" id="-4768">
		<tag k="name" v="Høgebakkskogen" />
		<tag k="place" v="locality" />
		<tag k="ssr:stedsnr" v="469618" />
	</node>
	<node lat="62.21936944054196" lon="6.129450008765152" id="-4831">
		<tag k="name" v="Stigane" />
		<tag k="place" v="locality" />
		<tag k="ssr:stedsnr" v="523171" />
	</node>
	<node lat="62.15025833379157" lon="6.281511109145524" id="-4840">
		<tag k="name" v="Eidevegen" />
		<tag k="place" v="locality" />
		<tag k="ssr:stedsnr" v="529234" />
	</node>
	<node lat="62.27126944242046" lon="6.140513886827073" id="-4847">
		<tag k="name" v="Småskogane" />
		<tag k="place" v="locality" />
		<tag k="ssr:stedsnr" v="529425" />
	</node>
	<node lat="62.171883335180596" lon="6.231291667012989" id="-4862">
		<tag k="name" v="Gråura" />
		<tag k="natural" v="scree" />
		<tag k="ssr:stedsnr" v="529823" />
	</node>
	<node lat="62.334988889905325" lon="6.1730722270912315" id="-4867">
		<tag k="name" v="Kyrkjesteinen" />
		<tag k="natural" v="stone" />
		<tag k="ssr:stedsnr" v="530017" />
	</node>
	<node lat="62.18887777436858" lon="6.377108325477881" id="-4874">
		<tag k="name" v="Barsteinane" />
		<tag k="natural" v="stone" />
		<tag k="ssr:stedsnr" v="530089" />
	</node>
	<node lat="62.19376666296346" lon="6.065872217124045" id="-4882">
		<tag k="name" v="Hovdeura" />
		<tag k="natural" v="scree" />
		<tag k="ssr:stedsnr" v="537283" />
	</node>
	<node lat="62.228386107990886" lon="6.684638880912867" id="-4909">
		<tag k="name" v="Gullmorbreen" />
		<tag k="natural" v="glacier" />
		<tag k="ssr:stedsnr" v="557498" />
	</node>
	<node lat="62.23846110779716" lon="6.087852769118368" id="-4930">
		<tag k="historic" v="shieling" />
		<tag k="name" v="Småstøylane" />
		<tag k="place" v="locality" />
		<tag k="ssr:stedsnr" v="589071" />
	</node>
	<node lat="62.14886389291531" lon="6.259466672180751" id="-4953">
		<tag k="name" v="Porsemyra" />
		<tag k="natural" v="wetland" />
		<tag k="ssr:stedsnr" v="590464" />
	</node>
	<node lat="62.208350002230844" lon="6.170066667467733" id="-4997">
		<tag k="name" v="Daleteigane" />
		<tag k="place" v="locality" />
		<tag k="ssr:stedsnr" v="706134" />
	</node>
	<node lat="62.252855559186855" lon="6.372841666546411" id="-5010">
		<tag k="historic" v="shieling" />
		<tag k="name" v="Leikvollen" />
		<tag k="place" v="locality" />
		<tag k="ssr:stedsnr" v="650339" />
	</node>
	<node lat="62.259349997862344" lon="6.191336118600094" id="-5014">
		<tag k="name" v="Svarteskogen" />
		<tag k="place" v="locality" />
		<tag k="ssr:stedsnr" v="650612" />
	</node>
	<node lat="62.20859166761056" lon="6.236883327906518" id="-5020">
		<tag k="name" v="Gråura" />
		<tag k="natural" v="scree" />
		<tag k="ssr:stedsnr" v="650693" />
	</node>
	<node lat="62.10828055856841" lon="6.354136111429956" id="-5023">
		<tag k="name" v="Storurda" />
		<tag k="natural" v="scree" />
		<tag k="ssr:stedsnr" v="650841" />
	</node>
	<node lat="62.1553527749806" lon="6.298277780359346" id="-5032">
		<tag k="name" v="Gråura" />
		<tag k="natural" v="scree" />
		<tag k="ssr:stedsnr" v="651206" />
	</node>
	<node lat="62.14021111312678" lon="6.4131194375638545" id="-5035">
		<tag k="historic" v="shieling" />
		<tag k="name" v="Mjeltefonnstøylen" />
		<tag k="place" v="locality" />
		<tag k="ssr:stedsnr" v="651185" />
	</node>
	<node lat="62.25893333535253" lon="5.976169440396314" id="-5048">
		<tag k="name" v="Storura" />
		<tag k="natural" v="scree" />
		<tag k="ssr:stedsnr" v="658006" />
	</node>
	<node lat="62.22492500418928" lon="6.187316666001116" id="-5101">
		<tag k="historic" v="shieling" />
		<tag k="name" v="Bakkestølen" />
		<tag k="place" v="locality" />
		<tag k="ssr:stedsnr" v="894250" />
	</node>
	<node lat="62.147441668451435" lon="6.268566667524593" id="-5104">
		<tag k="name" v="Lidateigane" />
		<tag k="place" v="locality" />
		<tag k="ssr:stedsnr" v="894288" />
	</node>
	<node lat="62.30178888838279" lon="6.193761110037792" id="-5113">
		<tag k="historic" v="shieling" />
		<tag k="name" v="Småstøylane" />
		<tag k="place" v="locality" />
		<tag k="ssr:stedsnr" v="894600" />
	</node>
	<node lat="62.32865555754985" lon="6.450058323676226" id="-5149">
		<tag k="name" v="Lykleura" />
		<tag k="natural" v="scree" />
		<tag k="ssr:stedsnr" v="705905" />
	</node>
	<node lat="62.30383333335882" lon="6.096536104440273" id="-5150">
		<tag k="name" v="Svinesteinen" />
		<tag k="natural" v="stone" />
		<tag k="ssr:stedsnr" v="710188" />
	</node>
	<node lat="62.301116663038975" lon="6.081863889358425" id="-5156">
		<tag k="name" v="Øra" />
		<tag k="place" v="locality" />
		<tag k="ssr:stedsnr" v="711212" />
	</node>
	<node lat="62.19729721772675" lon="6.221524994211235" id="-5167">
		<tag k="name" v="Myrane" />
		<tag k="natural" v="wetland" />
		<tag k="ssr:stedsnr" v="711694" />
	</node>
	<node lat="62.20029444165591" lon="6.261749992645456" id="-5171">
		<tag k="name" v="Småmyrane" />
		<tag k="natural" v="wetland" />
		<tag k="ssr:stedsnr" v="711581" />
	</node>
	<node lat="62.188497224121164" lon="6.400916672547999" id="-5179">
		<tag k="name" v="Skipssteinen" />
		<tag k="natural" v="stone" />
		<tag k="ssr:stedsnr" v="712043" />
	</node>
	<node lat="62.30026111237291" lon="6.456791674326367" id="-5196">
		<tag k="name" v="Ellingura" />
		<tag k="natural" v="scree" />
		<tag k="ssr:stedsnr" v="719792" />
	</node>
	<node lat="62.32615832953726" lon="6.271694450358869" id="-5211">
		<tag k="name" v="Ingrigjerdet" />
		<tag k="place" v="locality" />
		<tag k="ssr:stedsnr" v="760956" />
	</node>
	<node lat="62.31808888492788" lon="6.278213886819458" id="-5212">
		<tag k="name" v="Fondsagjerdet" />
		<tag k="place" v="locality" />
		<tag k="ssr:stedsnr" v="760959" />
	</node>
	<node lat="62.243233331877036" lon="6.026813882224448" id="-5213">
		<tag k="name" v="Remane" />
		<tag k="place" v="locality" />
		<tag k="ssr:stedsnr" v="765321" />
	</node>
	<node lat="62.26493055722688" lon="6.207455549207898" id="-5237">
		<tag k="name" v="Gopeskogen" />
		<tag k="place" v="locality" />
		<tag k="ssr:stedsnr" v="772664" />
	</node>
	<node lat="62.17873889054792" lon="6.5253416586448925" id="-5248">
		<tag k="name" v="Kolmileplassen" />
		<tag k="natural" v="wetland" />
		<tag k="ssr:stedsnr" v="772729" />
	</node>
	<node lat="62.135961110690296" lon="6.253436106931887" id="-5249">
		<tag k="name" v="Sandteigane" />
		<tag k="place" v="locality" />
		<tag k="ssr:stedsnr" v="772753" />
	</node>
	<node lat="62.20530277630245" lon="6.254983339260905" id="-5250">
		<tag k="name" v="Langemyra" />
		<tag k="natural" v="wetland" />
		<tag k="ssr:stedsnr" v="772755" />
	</node>
	<node lat="62.191888891327345" lon="6.652458340698403" id="-5258">
		<tag k="name" v="Øyrane" />
		<tag k="place" v="locality" />
		<tag k="ssr:stedsnr" v="773870" />
	</node>
	<node lat="62.133430554871964" lon="6.431805561393834" id="-5260">
		<tag k="name" v="Øyrane" />
		<tag k="place" v="locality" />
		<tag k="ssr:stedsnr" v="908939" />
	</node>
	<node lat="62.206211110907866" lon="6.149019452948505" id="-5328">
		<tag k="name" v="Fonna" />
		<tag k="place" v="locality" />
		<tag k="ssr:stedsnr" v="827368" />
	</node>
	<node lat="62.267936111384834" lon="6.160972230362503" id="-5346">
		<tag k="name" v="Slakeurda" />
		<tag k="natural" v="scree" />
		<tag k="ssr:stedsnr" v="833403" />
	</node>
	<node lat="62.19830277982257" lon="6.255763884284107" id="-5361">
		<tag k="name" v="Mikkelura" />
		<tag k="natural" v="scree" />
		<tag k="ssr:stedsnr" v="833594" />
	</node>
	<node lat="62.34687499741063" lon="6.35825554984065" id="-5384">
		<tag k="name" v="Øyra" />
		<tag k="place" v="locality" />
		<tag k="ssr:stedsnr" v="861375" />
	</node>
	<node lat="62.16883889217512" lon="6.253555546809732" id="-5394">
		<tag k="name" v="Åmmyrane" />
		<tag k="natural" v="wetland" />
		<tag k="ssr:stedsnr" v="882711" />
	</node>
	<node lat="62.3249083301284" lon="6.273558324414034" id="-5396">
		<tag k="landuse" v="meadow" />
		<tag k="name" v="Dyrøya" />
		<tag k="ssr:stedsnr" v="882950" />
	</node>
	<node lat="62.19533888999291" lon="6.146680545964901" id="-5406">
		<tag k="name" v="Lægda" />
=======
	<node id="-65951" lat="62.2151999988" lon="6.57176665785">
		<tag k="name" v="Myrane" />
		<tag k="natural" v="wetland" />
		<tag k="ssr:stedsnr" v="591134" />
	</node>
	<node id="-65947" lat="62.3233388851" lon="6.37479722962">
		<tag k="historic" v="shieling" />
		<tag k="name" v="Sætra" />
		<tag k="place" v="locality" />
		<tag k="ssr:stedsnr" v="590822" />
	</node>
	<node id="-65946" lat="62.3257222236" lon="6.38853888539">
		<tag k="name" v="Gjerdet" />
		<tag k="place" v="locality" />
		<tag k="ssr:stedsnr" v="590820" />
	</node>
	<node id="-66453" lat="62.3503083334" lon="6.23070555022">
		<tag k="historic" v="shieling" />
		<tag k="name" v="Støylane" />
		<tag k="place" v="locality" />
		<tag k="ssr:stedsnr" v="954956" />
	</node>
	<node id="-63891" lat="62.328033332" lon="6.38648055268">
		<tag k="name" v="Stølen" />
		<tag k="place" v="locality" />
		<tag k="ssr:stedsnr" v="165855" />
	</node>
	<node id="-65937" lat="62.1347083342" lon="6.27562777244">
		<tag k="name" v="Pelimyra" />
		<tag k="natural" v="wetland" />
		<tag k="ssr:stedsnr" v="590732" />
	</node>
	<node id="-63888" lat="62.2540305529" lon="6.17878333042">
		<tag k="name" v="Sengasteinane" />
		<tag k="natural" v="stone" />
		<tag k="ssr:stedsnr" v="165654" />
	</node>
	<node id="-64396" lat="62.2056611136" lon="6.63995000708">
		<tag k="name" v="Storfonna" />
		<tag k="place" v="locality" />
		<tag k="ssr:stedsnr" v="530168" />
	</node>
	<node id="-64907" lat="62.3489249963" lon="6.21606388184">
		<tag k="name" v="Pengerøysa" />
		<tag k="natural" v="scree" />
		<tag k="ssr:stedsnr" v="833967" />
	</node>
	<node id="-64392" lat="62.3349888899" lon="6.17307222709">
		<tag k="name" v="Kyrkjesteinen" />
		<tag k="natural" v="stone" />
		<tag k="ssr:stedsnr" v="530017" />
	</node>
	<node id="-64902" lat="62.1348777806" lon="6.28636389459">
		<tag k="name" v="Skaremyrane" />
		<tag k="natural" v="wetland" />
		<tag k="ssr:stedsnr" v="833754" />
	</node>
	<node id="-65413" lat="62.2132361141" lon="6.04450832539">
		<tag k="alt_name" v="Skorgeurda" />
		<tag k="name" v="Skorgeura" />
		<tag k="natural" v="scree" />
		<tag k="ssr:stedsnr" v="192101" />
	</node>
	<node id="-65412" lat="62.2377138863" lon="6.33636666983">
		<tag k="name" v="Myrane" />
		<tag k="natural" v="wetland" />
		<tag k="ssr:stedsnr" v="188289" />
	</node>
	<node id="-63875" lat="62.1764222238" lon="6.37400278021">
		<tag k="name" v="Kalvegjerdet" />
		<tag k="place" v="locality" />
		<tag k="ssr:stedsnr" v="165219" />
	</node>
	<node id="-64385" lat="62.1718833352" lon="6.23129166701">
		<tag k="name" v="Gråura" />
		<tag k="natural" v="scree" />
		<tag k="ssr:stedsnr" v="529823" />
	</node>
	<node id="-65406" lat="62.1885138854" lon="6.70631666644">
		<tag k="name" v="Løvollane" />
		<tag k="place" v="locality" />
		<tag k="ssr:stedsnr" v="166447" />
	</node>
	<node id="-64892" lat="62.1983027798" lon="6.25576388428">
		<tag k="name" v="Mikkelura" />
		<tag k="natural" v="scree" />
		<tag k="ssr:stedsnr" v="833594" />
	</node>
	<node id="-66427" lat="62.2865361134" lon="6.27023610804">
		<tag k="name" v="Ivermyra" />
		<tag k="natural" v="wetland" />
		<tag k="ssr:stedsnr" v="954541" />
	</node>
	<node id="-65913" lat="62.1375416642" lon="6.28320000144">
		<tag k="name" v="Øyra" />
		<tag k="place" v="locality" />
		<tag k="ssr:stedsnr" v="590285" />
	</node>
	<node id="-64887" lat="62.2679361114" lon="6.16097223036">
		<tag k="name" v="Slakeurda" />
		<tag k="natural" v="scree" />
		<tag k="ssr:stedsnr" v="833403" />
	</node>
	<node id="-64372" lat="62.2712694424" lon="6.14051388683">
		<tag k="name" v="Småskogane" />
		<tag k="place" v="locality" />
		<tag k="ssr:stedsnr" v="529425" />
	</node>
	<node id="-65907" lat="62.1743499975" lon="6.36175277196">
		<tag k="name" v="Åmyrsøya" />
		<tag k="natural" v="wetland" />
		<tag k="ssr:stedsnr" v="590175" />
	</node>
	<node id="-64365" lat="62.1767055538" lon="6.14173055004">
		<tag k="name" v="Olsokbreen" />
		<tag k="natural" v="glacier" />
		<tag k="ssr:stedsnr" v="528952" />
	</node>
	<node id="-66412" lat="62.2347861116" lon="6.17787777489">
		<tag k="name" v="Storefonna" />
		<tag k="place" v="locality" />
		<tag k="ssr:stedsnr" v="954237" />
	</node>
	<node id="-65387" lat="62.3100888909" lon="6.14821944886">
		<tag k="name" v="Justeinen" />
		<tag k="natural" v="stone" />
		<tag k="ssr:stedsnr" v="165538" />
	</node>
	<node id="-64874" lat="62.1682361102" lon="6.24078888204">
		<tag k="name" v="Gjerdet" />
		<tag k="place" v="locality" />
		<tag k="ssr:stedsnr" v="821963" />
	</node>
	<node id="-66179" lat="62.1787388905" lon="6.52534165864">
		<tag k="name" v="Kolmileplassen" />
		<tag k="natural" v="wetland" />
		<tag k="ssr:stedsnr" v="772729" />
	</node>
	<node id="-66408" lat="62.1494500014" lon="6.3313527857">
		<tag k="name" v="Bjørnamyra" />
		<tag k="natural" v="wetland" />
		<tag k="ssr:stedsnr" v="954179" />
	</node>
	<node id="-66406" lat="62.1519361128" lon="6.3119833278">
		<tag k="name" v="Svartemyrane" />
		<tag k="natural" v="wetland" />
		<tag k="ssr:stedsnr" v="954175" />
	</node>
	<node id="-64357" lat="62.2963138896" lon="6.09419444372">
		<tag k="name" v="Kumyra" />
		<tag k="natural" v="wetland" />
		<tag k="ssr:stedsnr" v="528211" />
	</node>
	<node id="-64353" lat="62.2193694405" lon="6.12945000877">
		<tag k="name" v="Stigane" />
		<tag k="place" v="locality" />
		<tag k="ssr:stedsnr" v="523171" />
	</node>
	<node id="-66400" lat="62.1424611098" lon="6.32624444208">
		<tag k="name" v="Britemyra" />
		<tag k="natural" v="wetland" />
		<tag k="ssr:stedsnr" v="954143" />
	</node>
	<node id="-65374" lat="62.1468249956" lon="6.27859166252">
		<tag k="name" v="Eideteigane" />
		<tag k="place" v="locality" />
		<tag k="ssr:stedsnr" v="165247" />
	</node>
	<node id="-65371" lat="62.2254416654" lon="6.23090832506">
		<tag k="name" v="Myrane" />
		<tag k="natural" v="wetland" />
		<tag k="ssr:stedsnr" v="165193" />
	</node>
	<node id="-66394" lat="62.1875694458" lon="6.40968333653">
		<tag k="name" v="Pe-ekra" />
		<tag k="place" v="locality" />
		<tag k="ssr:stedsnr" v="954044" />
	</node>
	<node id="-63831" lat="62.1110944473" lon="6.34739999125">
		<tag k="name" v="Pissarskreda" />
		<tag k="natural" v="scree" />
		<tag k="ssr:stedsnr" v="105861" />
	</node>
	<node id="-64852" lat="62.2140833327" lon="6.71080000506">
		<tag k="name" v="Steinreset" />
		<tag k="natural" v="scree" />
		<tag k="ssr:stedsnr" v="799628" />
	</node>
	<node id="-65875" lat="62.3615305531" lon="6.27246944889">
		<tag k="landuse" v="meadow" />
		<tag k="name" v="Øyre" />
		<tag k="ssr:stedsnr" v="578986" />
	</node>
	<node id="-65763" lat="62.2127583295" lon="6.26650554639">
		<tag k="name" v="Nymarkfonna" />
		<tag k="place" v="locality" />
		<tag k="ssr:stedsnr" v="528718" />
	</node>
	<node id="-66377" lat="62.2906249959" lon="6.1020305632">
		<tag k="name" v="Timbreholen" />
		<tag k="place" v="locality" />
		<tag k="ssr:stedsnr" v="953107" />
	</node>
	<node id="-66375" lat="62.2929777788" lon="6.09494167398">
		<tag k="name" v="Nygjerdet" />
		<tag k="place" v="locality" />
		<tag k="ssr:stedsnr" v="953095" />
	</node>
	<node id="-66373" lat="62.2253444439" lon="6.06199721365">
		<tag k="name" v="Opsalfonna" />
		<tag k="place" v="locality" />
		<tag k="ssr:stedsnr" v="953063" />
	</node>
	<node id="-65860" lat="62.228386108" lon="6.68463888091">
		<tag k="name" v="Gullmorbreen" />
		<tag k="natural" v="glacier" />
		<tag k="ssr:stedsnr" v="557498" />
	</node>
	<node id="-66271" lat="62.2062111109" lon="6.14901945295">
		<tag k="name" v="Fonna" />
		<tag k="place" v="locality" />
		<tag k="ssr:stedsnr" v="827368" />
	</node>
	<node id="-64310" lat="62.1807500029" lon="6.18772222419">
		<tag k="name" v="Gråssmyra" />
		<tag k="natural" v="wetland" />
		<tag k="ssr:stedsnr" v="469655" />
	</node>
	<node id="-64308" lat="62.3030722198" lon="6.21850000908">
		<tag k="name" v="Høgebakkskogen" />
		<tag k="place" v="locality" />
		<tag k="ssr:stedsnr" v="469618" />
	</node>
	<node id="-64051" lat="62.2108694463" lon="6.5991555543">
		<tag k="name" v="Ytstebøen" />
>>>>>>> e1d4bc35ff8a6074a6f2e91616a996b547c36f15
		<tag k="place" v="locality" />
		<tag k="ssr:stedsnr" v="888118" />
	</node>
<<<<<<< HEAD
	<node lat="62.20589444297649" lon="6.12444167640576" id="-5408">
		<tag k="name" v="Hoggamyra" />
		<tag k="place" v="locality" />
		<tag k="ssr:stedsnr" v="888122" />
	</node>
	<node lat="62.295499998117286" lon="6.252955557553977" id="-5434">
		<tag k="name" v="Myrane" />
		<tag k="natural" v="wetland" />
		<tag k="ssr:stedsnr" v="894606" />
	</node>
	<node lat="62.27348611057101" lon="6.177322216756209" id="-5445">
		<tag k="name" v="Jolgrøtskogen" />
		<tag k="place" v="locality" />
		<tag k="ssr:stedsnr" v="894919" />
	</node>
	<node lat="62.24723333193703" lon="6.0148611058979595" id="-5477">
		<tag k="name" v="Glennene" />
		<tag k="place" v="locality" />
		<tag k="ssr:stedsnr" v="948414" />
	</node>
	<node lat="62.17547778051143" lon="6.15349443763067" id="-5487">
		<tag k="name" v="Jonsokbreen" />
		<tag k="natural" v="glacier" />
		<tag k="ssr:stedsnr" v="953942" />
	</node>
	<node lat="62.18756944581229" lon="6.409683336526603" id="-5493">
		<tag k="name" v="Pe-ekra" />
		<tag k="place" v="locality" />
		<tag k="ssr:stedsnr" v="954044" />
	</node>
	<node lat="62.22298610896786" lon="6.187655551183103" id="-5502">
		<tag k="name" v="Mjelkemyrane" />
		<tag k="natural" v="wetland" />
		<tag k="ssr:stedsnr" v="954696" />
	</node>
	<node lat="62.15908333599728" lon="6.220263892922125" id="-5505">
		<tag k="name" v="Tuetemyra" />
		<tag k="natural" v="wetland" />
		<tag k="ssr:stedsnr" v="954814" />
	</node>
	<node lat="62.28653611343209" lon="6.270236108044309" id="-5510">
		<tag k="name" v="Ivermyra" />
		<tag k="natural" v="wetland" />
		<tag k="ssr:stedsnr" v="954541" />
	</node>
	<node lat="62.35688055127336" lon="6.273458329858244" id="-5564">
		<tag k="name" v="Gråten" />
		<tag k="natural" v="wetland" />
		<tag k="ssr:stedsnr" v="32990" />
	</node>
	<node lat="62.19965555814242" lon="6.127961118594192" id="-5573">
		<tag k="name" v="Nekken" />
		<tag k="place" v="locality" />
		<tag k="ssr:stedsnr" v="38146" />
	</node>
	<node lat="62.23584722061518" lon="6.303711107433718" id="-5576">
		<tag k="name" v="Åsemyrane" />
=======
	<node id="-63880" lat="62.2752444467" lon="6.16636944557">
		<tag k="name" v="Huldresteinen" />
		<tag k="natural" v="stone" />
		<tag k="ssr:stedsnr" v="165353" />
	</node>
	<node id="-65323" lat="62.2738694429" lon="6.54805277573">
		<tag k="name" v="Blåbreen" />
		<tag k="natural" v="glacier" />
		<tag k="ssr:stedsnr" v="132642" />
	</node>
	<node id="-65921" lat="62.1488638929" lon="6.25946667218">
		<tag k="name" v="Porsemyra" />
>>>>>>> e1d4bc35ff8a6074a6f2e91616a996b547c36f15
		<tag k="natural" v="wetland" />
		<tag k="ssr:stedsnr" v="43267" />
	</node>
<<<<<<< HEAD
	<node lat="62.160163884595626" lon="6.191413880927612" id="-5588">
		<tag k="name" v="Kolmyra" />
		<tag k="natural" v="wetland" />
		<tag k="ssr:stedsnr" v="43914" />
	</node>
	<node lat="62.19308333512414" lon="6.1338611056371155" id="-5684">
		<tag k="name" v="Mosflata" />
		<tag k="place" v="locality" />
		<tag k="ssr:stedsnr" v="99149" />
	</node>
	<node lat="62.29743333046745" lon="6.197944454196894" id="-5711">
		<tag k="name" v="Fosseskogen" />
		<tag k="place" v="locality" />
		<tag k="ssr:stedsnr" v="105615" />
	</node>
	<node lat="62.1303166637872" lon="6.293919436722454" id="-5712">
		<tag k="name" v="Vassbakkmyrane" />
		<tag k="natural" v="wetland" />
		<tag k="ssr:stedsnr" v="105753" />
	</node>
	<node lat="62.23217222242536" lon="6.285466672502237" id="-5715">
		<tag k="name" v="Tjennemyra" />
		<tag k="natural" v="wetland" />
		<tag k="ssr:stedsnr" v="105447" />
	</node>
	<node lat="62.18493611036609" lon="6.218558340651679" id="-5721">
		<tag k="name" v="Storemyra" />
		<tag k="natural" v="wetland" />
		<tag k="ssr:stedsnr" v="105699" />
	</node>
	<node lat="62.111094447282184" lon="6.347399991250394" id="-5729">
		<tag k="name" v="Pissarskreda" />
		<tag k="natural" v="scree" />
		<tag k="ssr:stedsnr" v="105861" />
	</node>
	<node lat="62.27386944288705" lon="6.548052775732545" id="-5756">
		<tag k="name" v="Blåbreen" />
		<tag k="natural" v="glacier" />
		<tag k="ssr:stedsnr" v="132642" />
	</node>
	<node lat="62.2254416653763" lon="6.2309083250619945" id="-5799">
		<tag k="name" v="Myrane" />
		<tag k="natural" v="wetland" />
		<tag k="ssr:stedsnr" v="165193" />
	</node>
	<node lat="62.14083333538023" lon="6.266716659832616" id="-5800">
		<tag k="name" v="Storemyra" />
		<tag k="natural" v="wetland" />
		<tag k="ssr:stedsnr" v="165319" />
	</node>
	<node lat="62.14682499562379" lon="6.278591662522601" id="-5810">
		<tag k="name" v="Eideteigane" />
		<tag k="place" v="locality" />
		<tag k="ssr:stedsnr" v="165247" />
	</node>
	<node lat="62.25686944634913" lon="6.226219436840036" id="-5816">
		<tag k="name" v="Bjønnaskarskogen" />
		<tag k="place" v="locality" />
		<tag k="ssr:stedsnr" v="165665" />
	</node>
	<node lat="62.275244446691076" lon="6.166369445570714" id="-5823">
		<tag k="name" v="Huldresteinen" />
		<tag k="natural" v="stone" />
		<tag k="ssr:stedsnr" v="165353" />
	</node>
	<node lat="62.310088890887634" lon="6.148219448864335" id="-5826">
		<tag k="name" v="Justeinen" />
		<tag k="natural" v="stone" />
		<tag k="ssr:stedsnr" v="165538" />
	</node>
	<node lat="62.20911666997372" lon="6.47615555049414" id="-5827">
		<tag k="name" v="Litleøyra" />
		<tag k="place" v="locality" />
		<tag k="ssr:stedsnr" v="165719" />
	</node>
	<node lat="62.32803333202552" lon="6.386480552683676" id="-5832">
		<tag k="name" v="Stølen" />
		<tag k="place" v="locality" />
		<tag k="ssr:stedsnr" v="165855" />
	</node>
	<node lat="62.254030552929954" lon="6.178783330419255" id="-5838">
		<tag k="name" v="Sengasteinane" />
		<tag k="natural" v="stone" />
		<tag k="ssr:stedsnr" v="165654" />
	</node>
	<node lat="62.188513885408824" lon="6.706316666436329" id="-5843">
		<tag k="name" v="Løvollane" />
		<tag k="place" v="locality" />
		<tag k="ssr:stedsnr" v="166447" />
	</node>
	<node lat="62.237713886267514" lon="6.336366669833874" id="-5848">
		<tag k="name" v="Myrane" />
		<tag k="natural" v="wetland" />
		<tag k="ssr:stedsnr" v="188289" />
	</node>
	<node lat="62.21323611414615" lon="6.044508325390898" id="-5853">
		<tag k="alt_name" v="Skorgeurda" />
		<tag k="name" v="Skorgeura" />
		<tag k="natural" v="scree" />
		<tag k="ssr:stedsnr" v="192101" />
	</node>
	<node lat="62.19361111043311" lon="6.062072214651758" id="-5895">
		<tag k="name" v="Strandteigane" />
		<tag k="place" v="locality" />
		<tag k="ssr:stedsnr" v="220892" />
	</node>
	<node lat="62.20158611094535" lon="6.005258325642845" id="-5897">
		<tag k="name" v="Strandheim" />
		<tag k="place" v="locality" />
		<tag k="ssr:stedsnr" v="223212" />
	</node>
	<node lat="62.29425832991723" lon="6.095580550085801" id="-5905">
		<tag k="name" v="Øyemyra" />
		<tag k="natural" v="wetland" />
		<tag k="ssr:stedsnr" v="225213" />
	</node>
	<node lat="62.176641662924105" lon="6.178930550569051" id="-5910">
		<tag k="name" v="Myrane" />
		<tag k="natural" v="wetland" />
		<tag k="ssr:stedsnr" v="225857" />
	</node>
	<node lat="62.204516663219636" lon="6.486755560049545" id="-5930">
		<tag k="name" v="Slentresteinen" />
		<tag k="natural" v="stone" />
		<tag k="ssr:stedsnr" v="226375" />
	</node>
	<node lat="62.19879444286696" lon="6.470977774047117" id="-5931">
		<tag k="name" v="Småurene" />
		<tag k="natural" v="scree" />
		<tag k="ssr:stedsnr" v="226477" />
	</node>
	<node lat="62.19843055684393" lon="6.613513884241015" id="-5956">
		<tag k="name" v="Brattefonna" />
=======
	<node id="-64804" lat="62.2649305572" lon="6.20745554921">
		<tag k="name" v="Gopeskogen" />
		<tag k="place" v="locality" />
		<tag k="ssr:stedsnr" v="772664" />
	</node>
	<node id="-66438" lat="62.159083336" lon="6.22026389292">
		<tag k="name" v="Tuetemyra" />
		<tag k="natural" v="wetland" />
		<tag k="ssr:stedsnr" v="954814" />
	</node>
	<node id="-64290" lat="62.2589333354" lon="5.9761694404">
		<tag k="name" v="Storura" />
		<tag k="natural" v="scree" />
		<tag k="ssr:stedsnr" v="658006" />
	</node>
	<node id="-64801" lat="62.3488361154" lon="6.22359166647">
		<tag k="name" v="Klokkesteinen" />
		<tag k="natural" v="stone" />
		<tag k="ssr:stedsnr" v="772952" />
	</node>
	<node id="-64184" lat="62.1312999959" lon="6.23824444655">
		<tag k="historic" v="shieling" />
		<tag k="name" v="Gamlesætra" />
		<tag k="place" v="locality" />
		<tag k="ssr:stedsnr" v="347758" />
	</node>
	<node id="-63877" lat="62.1408333354" lon="6.26671665983">
		<tag k="name" v="Storemyra" />
		<tag k="natural" v="wetland" />
		<tag k="ssr:stedsnr" v="165319" />
	</node>
	<node id="-66332" lat="62.3393527808" lon="6.19885555223">
		<tag k="name" v="Furmyra" />
		<tag k="natural" v="wetland" />
		<tag k="ssr:stedsnr" v="833993" />
	</node>
	<node id="-65819" lat="62.3699916707" lon="6.34876666832">
		<tag k="name" v="Okseurda" />
		<tag k="natural" v="scree" />
		<tag k="ssr:stedsnr" v="530834" />
	</node>
	<node id="-65816" lat="62.1888777744" lon="6.37710832548">
		<tag k="name" v="Barsteinane" />
		<tag k="natural" v="stone" />
		<tag k="ssr:stedsnr" v="530089" />
	</node>
	<node id="-63961" lat="62.1949055567" lon="6.65818333512">
		<tag k="name" v="Pipersteinen" />
		<tag k="natural" v="stone" />
		<tag k="ssr:stedsnr" v="288900" />
	</node>
	<node id="-65667" lat="62.2521444446" lon="6.39294445258">
		<tag k="name" v="Speburmyrane" />
		<tag k="natural" v="wetland" />
		<tag k="ssr:stedsnr" v="408391" />
	</node>
	<node id="-64778" lat="62.2432333319" lon="6.02681388222">
		<tag k="name" v="Remane" />
>>>>>>> e1d4bc35ff8a6074a6f2e91616a996b547c36f15
		<tag k="place" v="locality" />
		<tag k="ssr:stedsnr" v="765321" />
	</node>
<<<<<<< HEAD
	<node lat="62.16546111407223" lon="6.236377777861916" id="-5957">
		<tag k="name" v="Storereiten" />
		<tag k="place" v="locality" />
		<tag k="ssr:stedsnr" v="275958" />
	</node>
	<node lat="62.19357222622961" lon="6.128024997506819" id="-5965">
		<tag k="name" v="Holmane" />
		<tag k="place" v="locality" />
		<tag k="ssr:stedsnr" v="281147" />
	</node>
	<node lat="62.208980560098055" lon="6.0998333384170245" id="-5967">
		<tag k="name" v="Fonna" />
		<tag k="place" v="locality" />
		<tag k="ssr:stedsnr" v="281676" />
	</node>
	<node lat="62.300833336833556" lon="6.125811107864439" id="-5970">
		<tag k="name" v="Gråurda" />
		<tag k="natural" v="scree" />
		<tag k="ssr:stedsnr" v="286252" />
	</node>
	<node lat="62.29753611472293" lon="6.410719446725761" id="-5972">
		<tag k="name" v="Øyra" />
=======
	<node id="-64270" lat="62.1312138847" lon="6.44157223065">
		<tag k="name" v="Myrane" />
		<tag k="natural" v="wetland" />
		<tag k="ssr:stedsnr" v="423916" />
	</node>
	<node id="-65293" lat="62.1546527807" lon="6.18369722453">
		<tag k="name" v="Småhyljane" />
		<tag k="natural" v="wetland" />
		<tag k="ssr:stedsnr" v="105982" />
	</node>
	<node id="-65290" lat="62.2642972243" lon="6.16600278191">
		<tag k="name" v="Myrane" />
		<tag k="natural" v="wetland" />
		<tag k="ssr:stedsnr" v="105890" />
	</node>
	<node id="-63751" lat="62.339227777" lon="6.20694166544">
		<tag k="name" v="Holmakeren" />
		<tag k="place" v="locality" />
		<tag k="ssr:stedsnr" v="226996" />
	</node>
	<node id="-66433" lat="62.222986109" lon="6.18765555118">
		<tag k="name" v="Mjelkemyrane" />
		<tag k="natural" v="wetland" />
		<tag k="ssr:stedsnr" v="954696" />
	</node>
	<node id="-65613" lat="62.1954055553" lon="6.15465277006">
		<tag k="name" v="Nymarka" />
		<tag k="place" v="locality" />
		<tag k="ssr:stedsnr" v="402153" />
	</node>
	<node id="-65794" lat="62.2550111107" lon="6.17742222132">
		<tag k="name" v="Øyra" />
		<tag k="place" v="locality" />
		<tag k="ssr:stedsnr" v="529642" />
	</node>
	<node id="-64811" lat="62.1918888913" lon="6.6524583407">
		<tag k="name" v="Øyrane" />
>>>>>>> e1d4bc35ff8a6074a6f2e91616a996b547c36f15
		<tag k="place" v="locality" />
		<tag k="ssr:stedsnr" v="286311" />
	</node>
<<<<<<< HEAD
	<node lat="62.198063884839854" lon="6.246002787678468" id="-5975">
		<tag k="name" v="Spuemyra" />
		<tag k="natural" v="wetland" />
		<tag k="ssr:stedsnr" v="286599" />
	</node>
	<node lat="62.16831944696874" lon="6.349005546191512" id="-5978">
		<tag k="name" v="Seljefonnmyra" />
		<tag k="natural" v="wetland" />
		<tag k="ssr:stedsnr" v="287218" />
	</node>
	<node lat="62.30543889331521" lon="6.401019442888243" id="-5979">
		<tag k="name" v="Brendeurda" />
		<tag k="natural" v="scree" />
		<tag k="ssr:stedsnr" v="287320" />
	</node>
	<node lat="62.2016500022266" lon="6.305619440683951" id="-5992">
		<tag k="historic" v="shieling" />
		<tag k="name" v="Fivelstøylen" />
		<tag k="place" v="locality" />
		<tag k="ssr:stedsnr" v="287173" />
	</node>
	<node lat="62.15614722423746" lon="6.189725002675278" id="-6005">
		<tag k="name" v="Langemyra" />
		<tag k="natural" v="wetland" />
		<tag k="ssr:stedsnr" v="287967" />
	</node>
	<node lat="62.210869446313254" lon="6.599155554300674" id="-6007">
		<tag k="name" v="Ytstebøen" />
		<tag k="place" v="locality" />
		<tag k="ssr:stedsnr" v="287911" />
	</node>
	<node lat="62.19490555666259" lon="6.658183335117128" id="-6014">
		<tag k="name" v="Pipersteinen" />
		<tag k="natural" v="stone" />
		<tag k="ssr:stedsnr" v="288900" />
	</node>
	<node lat="62.32238611261116" lon="6.278591671557146" id="-6057">
		<tag k="name" v="Lyngegjerdet" />
		<tag k="place" v="locality" />
		<tag k="ssr:stedsnr" v="336955" />
	</node>
	<node lat="62.245847222155305" lon="6.003050002180347" id="-6063">
		<tag k="name" v="Nyfonna" />
		<tag k="place" v="locality" />
		<tag k="ssr:stedsnr" v="341413" />
	</node>
	<node lat="62.178408333341" lon="6.167861106128446" id="-6075">
		<tag k="name" v="Fonna" />
		<tag k="place" v="locality" />
		<tag k="ssr:stedsnr" v="346951" />
	</node>
	<node lat="62.14191944174083" lon="6.283233336962526" id="-6087">
		<tag k="name" v="Storerydet" />
		<tag k="place" v="locality" />
		<tag k="ssr:stedsnr" v="347248" />
	</node>
	<node lat="62.1828944486075" lon="6.189036118437815" id="-6116">
		<tag k="name" v="Myranekken" />
		<tag k="natural" v="wetland" />
		<tag k="ssr:stedsnr" v="347952" />
	</node>
	<node lat="62.18653889259288" lon="6.110288888225222" id="-6167">
		<tag k="name" v="Lega" />
		<tag k="place" v="locality" />
		<tag k="ssr:stedsnr" v="401873" />
	</node>
	<node lat="62.19540555525545" lon="6.1546527700597276" id="-6170">
		<tag k="name" v="Nymarka" />
		<tag k="place" v="locality" />
		<tag k="ssr:stedsnr" v="402153" />
	</node>
	<node lat="62.16269444415207" lon="6.326713887104889" id="-6185">
		<tag k="name" v="Storemyra" />
		<tag k="natural" v="wetland" />
		<tag k="ssr:stedsnr" v="408205" />
	</node>
	<node lat="62.165022218888154" lon="6.324105551487779" id="-6187">
		<tag k="name" v="Sætrediket" />
		<tag k="natural" v="wetland" />
		<tag k="ssr:stedsnr" v="408208" />
	</node>
	<node lat="62.17670555111123" lon="6.196727778071886" id="-6190">
		<tag k="name" v="Geitamyra" />
		<tag k="natural" v="wetland" />
		<tag k="ssr:stedsnr" v="407887" />
	</node>
	<node lat="62.3521388922323" lon="6.222297225189731" id="-6216">
		<tag k="name" v="Knottkilurda" />
		<tag k="natural" v="scree" />
		<tag k="ssr:stedsnr" v="408963" />
	</node>
	<node lat="62.234605554881846" lon="6.577522220546248" id="-6233">
		<tag k="name" v="Rørfonna" />
		<tag k="place" v="locality" />
		<tag k="ssr:stedsnr" v="408782" />
	</node>
	<node lat="62.19235833120149" lon="6.674036110437061" id="-6239">
		<tag k="name" v="Kassarsteinen" />
		<tag k="natural" v="stone" />
		<tag k="ssr:stedsnr" v="409424" />
	</node>
	<node lat="62.19884166474493" lon="6.64843054689111" id="-6242">
		<tag k="name" v="Skog" />
		<tag k="place" v="locality" />
		<tag k="ssr:stedsnr" v="416759" />
	</node>
	<node lat="62.328588888429195" lon="6.194138897885999" id="-6272">
=======
	<node id="-65280" lat="62.1303166638" lon="6.29391943672">
		<tag k="name" v="Vassbakkmyrane" />
		<tag k="natural" v="wetland" />
		<tag k="ssr:stedsnr" v="105753" />
	</node>
	<node id="-65274" lat="62.1849361104" lon="6.21855834065">
		<tag k="name" v="Storemyra" />
		<tag k="natural" v="wetland" />
		<tag k="ssr:stedsnr" v="105699" />
	</node>
	<node id="-65784" lat="62.3222527782" lon="6.39802778298">
		<tag k="name" v="Brudgomsura" />
		<tag k="natural" v="scree" />
		<tag k="ssr:stedsnr" v="529855" />
	</node>
	<node id="-65269" lat="62.2974333305" lon="6.1979444542">
		<tag k="name" v="Fosseskogen" />
		<tag k="place" v="locality" />
		<tag k="ssr:stedsnr" v="105615" />
	</node>
	<node id="-63732" lat="62.2332722234" lon="6.5744972317">
		<tag k="name" v="Rørfonnskogen" />
		<tag k="place" v="locality" />
		<tag k="ssr:stedsnr" v="226805" />
	</node>
	<node id="-64894" lat="62.1654305566" lon="6.21814723106">
		<tag k="name" v="Sagmyra" />
		<tag k="natural" v="wetland" />
		<tag k="ssr:stedsnr" v="833825" />
	</node>
	<node id="-65777" lat="62.1371555553" lon="6.26548333987">
		<tag k="name" v="Slåttemyra" />
		<tag k="natural" v="wetland" />
		<tag k="ssr:stedsnr" v="529298" />
	</node>
	<node id="-65776" lat="62.2953805524" lon="6.40111666249">
		<tag k="name" v="Heggeskogen" />
		<tag k="place" v="locality" />
		<tag k="ssr:stedsnr" v="529296" />
	</node>
	<node id="-64749" lat="62.2734861106" lon="6.17732221676">
		<tag k="name" v="Jolgrøtskogen" />
		<tag k="place" v="locality" />
		<tag k="ssr:stedsnr" v="894919" />
	</node>
	<node id="-65260" lat="62.2321722224" lon="6.2854666725">
		<tag k="name" v="Tjennemyra" />
		<tag k="natural" v="wetland" />
		<tag k="ssr:stedsnr" v="105447" />
	</node>
	<node id="-65769" lat="62.1502583338" lon="6.28151110915">
		<tag k="name" v="Eidevegen" />
		<tag k="place" v="locality" />
		<tag k="ssr:stedsnr" v="529234" />
	</node>
	<node id="-66277" lat="62.1844361116" lon="6.05977222626">
		<tag k="name" v="Halveteigane" />
		<tag k="place" v="locality" />
		<tag k="ssr:stedsnr" v="827906" />
	</node>
	<node id="-66276" lat="62.2089444451" lon="6.10423332852">
		<tag k="name" v="Gjerdeteigane" />
		<tag k="place" v="locality" />
		<tag k="ssr:stedsnr" v="827697" />
	</node>
	<node id="-65251" lat="62.1421833314" lon="6.41743610341">
		<tag k="name" v="Mjeltefonna" />
		<tag k="place" v="locality" />
		<tag k="ssr:stedsnr" v="105181" />
	</node>
	<node id="-63714" lat="62.1987944429" lon="6.47097777405">
		<tag k="name" v="Småurene" />
		<tag k="natural" v="scree" />
		<tag k="ssr:stedsnr" v="226477" />
	</node>
	<node id="-63712" lat="62.2590944485" lon="6.40843888182">
		<tag k="name" v="Flåtene" />
		<tag k="place" v="locality" />
		<tag k="ssr:stedsnr" v="226387" />
	</node>
	<node id="-63711" lat="62.2045166632" lon="6.48675556005">
		<tag k="name" v="Slentresteinen" />
		<tag k="natural" v="stone" />
		<tag k="ssr:stedsnr" v="226375" />
	</node>
	<node id="-66268" lat="62.19835833" lon="6.12311944654">
		<tag k="name" v="Vikeøyrane" />
		<tag k="place" v="locality" />
		<tag k="ssr:stedsnr" v="827142" />
	</node>
	<node id="-66340" lat="62.2289361106" lon="6.57494167367">
		<tag k="name" v="Breifonna" />
		<tag k="place" v="locality" />
		<tag k="ssr:stedsnr" v="834694" />
	</node>
	<node id="-65748" lat="62.3285888884" lon="6.19413889789">
>>>>>>> e1d4bc35ff8a6074a6f2e91616a996b547c36f15
		<tag k="name" v="Holreset" />
		<tag k="natural" v="scree" />
		<tag k="ssr:stedsnr" v="436798" />
	</node>
<<<<<<< HEAD
	<node lat="62.29631388958522" lon="6.094194443724461" id="-6325">
		<tag k="name" v="Kumyra" />
		<tag k="natural" v="wetland" />
		<tag k="ssr:stedsnr" v="528211" />
	</node>
	<node lat="62.176705553799096" lon="6.141730550037846" id="-6327">
		<tag k="name" v="Olsokbreen" />
		<tag k="natural" v="glacier" />
		<tag k="ssr:stedsnr" v="528952" />
	</node>
	<node lat="62.21275832945212" lon="6.266505546392502" id="-6334">
		<tag k="name" v="Nymarkfonna" />
		<tag k="place" v="locality" />
		<tag k="ssr:stedsnr" v="528718" />
	</node>
	<node lat="62.29538055244557" lon="6.4011166624898435" id="-6346">
		<tag k="name" v="Heggeskogen" />
		<tag k="place" v="locality" />
		<tag k="ssr:stedsnr" v="529296" />
	</node>
	<node lat="62.1371555552516" lon="6.265483339867043" id="-6347">
		<tag k="name" v="Slåttemyra" />
		<tag k="natural" v="wetland" />
		<tag k="ssr:stedsnr" v="529298" />
	</node>
	<node lat="62.255011110748136" lon="6.1774222213157755" id="-6351">
		<tag k="name" v="Øyra" />
		<tag k="place" v="locality" />
		<tag k="ssr:stedsnr" v="529642" />
	</node>
	<node lat="62.32225277823423" lon="6.398027782975137" id="-6380">
		<tag k="name" v="Brudgomsura" />
		<tag k="natural" v="scree" />
		<tag k="ssr:stedsnr" v="529855" />
	</node>
	<node lat="62.20566111357563" lon="6.639950007076419" id="-6386">
		<tag k="name" v="Storfonna" />
		<tag k="place" v="locality" />
		<tag k="ssr:stedsnr" v="530168" />
	</node>
	<node lat="62.36999167070162" lon="6.348766668324505" id="-6389">
		<tag k="name" v="Okseurda" />
		<tag k="natural" v="scree" />
		<tag k="ssr:stedsnr" v="530834" />
	</node>
	<node lat="62.36153055312666" lon="6.272469448888737" id="-6430">
		<tag k="landuse" v="meadow" />
		<tag k="name" v="Øyre" />
		<tag k="ssr:stedsnr" v="578986" />
	</node>
	<node lat="62.21071944860428" lon="6.125144441660691" id="-6436">
		<tag k="name" v="Vikelegene" />
		<tag k="place" v="locality" />
		<tag k="ssr:stedsnr" v="584156" />
	</node>
	<node lat="62.215341670240804" lon="6.067799995956781" id="-6438">
		<tag k="name" v="Omnen" />
		<tag k="place" v="locality" />
		<tag k="ssr:stedsnr" v="584661" />
	</node>
	<node lat="62.1743499974792" lon="6.36175277196379" id="-6454">
		<tag k="name" v="Åmyrsøya" />
		<tag k="natural" v="wetland" />
		<tag k="ssr:stedsnr" v="590175" />
	</node>
	<node lat="62.13754166417019" lon="6.28320000144268" id="-6456">
		<tag k="name" v="Øyra" />
		<tag k="place" v="locality" />
		<tag k="ssr:stedsnr" v="590285" />
	</node>
	<node lat="62.32300277489853" lon="6.14685000262459" id="-6464">
		<tag k="name" v="Storsteinen" />
		<tag k="natural" v="stone" />
		<tag k="ssr:stedsnr" v="590534" />
	</node>
	<node lat="62.134708334185056" lon="6.275627772441188" id="-6468">
		<tag k="name" v="Pelimyra" />
		<tag k="natural" v="wetland" />
		<tag k="ssr:stedsnr" v="590732" />
	</node>
	<node lat="62.32572222359307" lon="6.388538885388411" id="-6472">
		<tag k="name" v="Gjerdet" />
=======
	<node id="-66259" lat="62.35272222" lon="6.27673056352">
		<tag k="name" v="Gjerdet" />
		<tag k="place" v="locality" />
		<tag k="ssr:stedsnr" v="821999" />
	</node>
	<node id="-63694" lat="62.1129361122" lon="6.31006388092">
		<tag k="name" v="Breideskreda" />
		<tag k="natural" v="scree" />
		<tag k="ssr:stedsnr" v="226191" />
	</node>
	<node id="-64034" lat="62.3054388933" lon="6.40101944289">
		<tag k="name" v="Brendeurda" />
		<tag k="natural" v="scree" />
		<tag k="ssr:stedsnr" v="287320" />
	</node>
	<node id="-64710" lat="62.3338166694" lon="6.16928610596">
		<tag k="name" v="St.Olavssteinen" />
		<tag k="natural" v="stone" />
		<tag k="ssr:stedsnr" v="712015" />
	</node>
	<node id="-63889" lat="62.2568694463" lon="6.22621943684">
		<tag k="name" v="Bjønnaskarskogen" />
		<tag k="place" v="locality" />
		<tag k="ssr:stedsnr" v="165665" />
	</node>
	<node id="-63682" lat="62.1766416629" lon="6.17893055057">
		<tag k="name" v="Myrane" />
		<tag k="natural" v="wetland" />
		<tag k="ssr:stedsnr" v="225857" />
	</node>
	<node id="-64705" lat="62.2954999981" lon="6.25295555755">
		<tag k="name" v="Myrane" />
		<tag k="natural" v="wetland" />
		<tag k="ssr:stedsnr" v="894606" />
	</node>
	<node id="-64192" lat="62.1828944486" lon="6.18903611844">
		<tag k="name" v="Myranekken" />
		<tag k="natural" v="wetland" />
		<tag k="ssr:stedsnr" v="347952" />
	</node>
	<node id="-64703" lat="62.3017888884" lon="6.19376111004">
		<tag k="historic" v="shieling" />
		<tag k="name" v="Småstøylane" />
		<tag k="place" v="locality" />
		<tag k="ssr:stedsnr" v="894600" />
	</node>
	<node id="-65213" lat="62.1930833351" lon="6.13386110564">
		<tag k="name" v="Mosflata" />
		<tag k="place" v="locality" />
		<tag k="ssr:stedsnr" v="99149" />
	</node>
	<node id="-65210" lat="62.188447218" lon="6.10478055048">
		<tag k="name" v="Haugeteigane" />
		<tag k="place" v="locality" />
		<tag k="ssr:stedsnr" v="98881" />
	</node>
	<node id="-63672" lat="62.2942583299" lon="6.09558055009">
		<tag k="name" v="Øyemyra" />
		<tag k="natural" v="wetland" />
		<tag k="ssr:stedsnr" v="225213" />
	</node>
	<node id="-63670" lat="62.2015861109" lon="6.00525832564">
		<tag k="name" v="Strandheim" />
		<tag k="place" v="locality" />
		<tag k="ssr:stedsnr" v="223212" />
	</node>
	<node id="-64181" lat="62.3459166653" lon="6.29893888492">
		<tag k="name" v="Myrsteinen" />
		<tag k="natural" v="stone" />
		<tag k="ssr:stedsnr" v="347810" />
	</node>
	<node id="-65708" lat="62.1988416647" lon="6.64843054689">
		<tag k="name" v="Skog" />
		<tag k="place" v="locality" />
		<tag k="ssr:stedsnr" v="416759" />
	</node>
	<node id="-64682" lat="62.301116663" lon="6.08186388936">
		<tag k="name" v="Øra" />
		<tag k="place" v="locality" />
		<tag k="ssr:stedsnr" v="711212" />
	</node>
	<node id="-63657" lat="62.1936111104" lon="6.06207221465">
		<tag k="name" v="Strandteigane" />
>>>>>>> e1d4bc35ff8a6074a6f2e91616a996b547c36f15
		<tag k="place" v="locality" />
		<tag k="ssr:stedsnr" v="220892" />
	</node>
<<<<<<< HEAD
	<node lat="62.32333888514541" lon="6.374797229621501" id="-6473">
		<tag k="historic" v="shieling" />
		<tag k="name" v="Sætra" />
		<tag k="place" v="locality" />
		<tag k="ssr:stedsnr" v="590822" />
	</node>
	<node lat="62.21519999881307" lon="6.571766657853579" id="-6483">
		<tag k="name" v="Myrane" />
		<tag k="natural" v="wetland" />
		<tag k="ssr:stedsnr" v="591134" />
	</node>
	<node lat="62.18153333121783" lon="6.715997224270318" id="-6485">
		<tag k="name" v="Blikksteinurdane" />
		<tag k="natural" v="scree" />
		<tag k="ssr:stedsnr" v="591398" />
	</node>
	<node lat="62.3169361086537" lon="6.280924993156856" id="-6524">
		<tag k="name" v="Fondsareset" />
		<tag k="place" v="locality" />
		<tag k="ssr:stedsnr" v="639968" />
	</node>
	<node lat="62.20608611494753" lon="6.441255552129149" id="-6532">
		<tag k="name" v="Årskogbøen" />
		<tag k="place" v="locality" />
		<tag k="ssr:stedsnr" v="643341" />
	</node>
	<node lat="62.21104166378686" lon="6.433863894095333" id="-6533">
		<tag k="name" v="Storeura" />
		<tag k="natural" v="scree" />
		<tag k="ssr:stedsnr" v="643342" />
	</node>
	<node lat="62.197908334127824" lon="6.154833335447806" id="-6535">
		<tag k="name" v="Mosmarka" />
		<tag k="place" v="locality" />
		<tag k="ssr:stedsnr" v="644147" />
	</node>
	<node lat="62.20489999669746" lon="6.225849996029196" id="-6556">
		<tag k="name" v="Storura" />
		<tag k="natural" v="scree" />
		<tag k="ssr:stedsnr" v="650637" />
	</node>
	<node lat="62.138077775801186" lon="6.20341111857538" id="-6571">
		<tag k="name" v="Gråurene" />
		<tag k="natural" v="scree" />
		<tag k="ssr:stedsnr" v="650976" />
	</node>
	<node lat="62.14652222176616" lon="6.185388897458627" id="-6572">
		<tag k="name" v="Brattmyra" />
		<tag k="natural" v="wetland" />
		<tag k="ssr:stedsnr" v="650977" />
	</node>
	<node lat="62.199794443956144" lon="6.414530549995455" id="-6580">
		<tag k="historic" v="shieling" />
		<tag k="name" v="Støylen" />
		<tag k="place" v="locality" />
		<tag k="ssr:stedsnr" v="651069" />
	</node>
	<node lat="62.22527777991492" lon="6.252172219165269" id="-6637">
		<tag k="name" v="Svalnemyra" />
		<tag k="natural" v="wetland" />
		<tag k="ssr:stedsnr" v="711666" />
	</node>
	<node lat="62.33381666940675" lon="6.169286105963758" id="-6649">
		<tag k="name" v="St.Olavssteinen" />
		<tag k="natural" v="stone" />
		<tag k="ssr:stedsnr" v="712015" />
	</node>
	<node lat="62.33080277381026" lon="6.2674055520385155" id="-6701">
		<tag k="name" v="Myrane" />
		<tag k="natural" v="wetland" />
		<tag k="ssr:stedsnr" v="760790" />
	</node>
	<node lat="62.14141944762501" lon="6.399788898038425" id="-6734">
		<tag k="name" v="Risestøylmyra" />
		<tag k="natural" v="wetland" />
		<tag k="ssr:stedsnr" v="772184" />
	</node>
	<node lat="62.348880551216446" lon="6.311877781533203" id="-6747">
		<tag k="name" v="Myrane" />
		<tag k="natural" v="wetland" />
		<tag k="ssr:stedsnr" v="772797" />
	</node>
	<node lat="62.348836115428476" lon="6.223591666466378" id="-6759">
		<tag k="name" v="Klokkesteinen" />
		<tag k="natural" v="stone" />
		<tag k="ssr:stedsnr" v="772952" />
	</node>
	<node lat="62.186017116213705" lon="6.695711034455513" id="-6764">
		<tag k="name" v="Gagnsekra" />
		<tag k="place" v="locality" />
		<tag k="ssr:stedsnr" v="773436" />
	</node>
	<node lat="62.21408333268188" lon="6.710800005062466" id="-6772">
		<tag k="name" v="Steinreset" />
		<tag k="natural" v="scree" />
		<tag k="ssr:stedsnr" v="799628" />
	</node>
	<node lat="62.35272222004863" lon="6.276730563521974" id="-6800">
		<tag k="name" v="Gjerdet" />
		<tag k="place" v="locality" />
		<tag k="ssr:stedsnr" v="821999" />
	</node>
	<node lat="62.16823611015632" lon="6.240788882044305" id="-6802">
		<tag k="name" v="Gjerdet" />
=======
	<node id="-65703" lat="62.1923583312" lon="6.67403611044">
		<tag k="name" v="Kassarsteinen" />
		<tag k="natural" v="stone" />
		<tag k="ssr:stedsnr" v="409424" />
	</node>
	<node id="-64166" lat="62.2847361127" lon="6.15711944999">
		<tag k="name" v="Neregardsfonna" />
		<tag k="place" v="locality" />
		<tag k="ssr:stedsnr" v="347418" />
	</node>
	<node id="-66211" lat="62.1874249997" lon="6.69567500639">
		<tag k="name" v="Gagnsekra" />
		<tag k="place" v="locality" />
		<tag k="ssr:stedsnr" v="773436" />
	</node>
	<node id="-65697" lat="62.3521388922" lon="6.22229722519">
		<tag k="name" v="Knottkilurda" />
		<tag k="natural" v="scree" />
		<tag k="ssr:stedsnr" v="408963" />
	</node>
	<node id="-64670" lat="62.1474416685" lon="6.26856666752">
		<tag k="name" v="Lidateigane" />
		<tag k="place" v="locality" />
		<tag k="ssr:stedsnr" v="894288" />
	</node>
	<node id="-64156" lat="62.2204555544" lon="5.98742778053">
		<tag k="name" v="Storurda" />
		<tag k="natural" v="scree" />
		<tag k="ssr:stedsnr" v="346816" />
	</node>
	<node id="-64667" lat="62.2249250042" lon="6.187316666">
		<tag k="historic" v="shieling" />
		<tag k="name" v="Bakkestølen" />
		<tag k="place" v="locality" />
		<tag k="ssr:stedsnr" v="894250" />
	</node>
	<node id="-64149" lat="62.3223861126" lon="6.27859167156">
		<tag k="name" v="Lyngegjerdet" />
		<tag k="place" v="locality" />
		<tag k="ssr:stedsnr" v="336955" />
	</node>
	<node id="-66188" lat="62.3488805512" lon="6.31187778153">
		<tag k="name" v="Myrane" />
		<tag k="natural" v="wetland" />
		<tag k="ssr:stedsnr" v="772797" />
	</node>
	<node id="-63870" lat="62.1432111079" lon="6.39708610345">
		<tag k="historic" v="shieling" />
		<tag k="name" v="Risestøylen" />
		<tag k="place" v="locality" />
		<tag k="ssr:stedsnr" v="165159" />
	</node>
	<node id="-65644" lat="62.1626944442" lon="6.3267138871">
		<tag k="name" v="Storemyra" />
		<tag k="natural" v="wetland" />
		<tag k="ssr:stedsnr" v="408205" />
	</node>
	<node id="-66182" lat="62.2053027763" lon="6.25498333926">
		<tag k="name" v="Langemyra" />
		<tag k="natural" v="wetland" />
		<tag k="ssr:stedsnr" v="772755" />
	</node>
	<node id="-66181" lat="62.1359611107" lon="6.25343610693">
		<tag k="name" v="Sandteigane" />
		<tag k="place" v="locality" />
		<tag k="ssr:stedsnr" v="772753" />
	</node>
	<node id="-64131" lat="62.3417527795" lon="6.21065833005">
		<tag k="name" v="Lyngmyra" />
		<tag k="natural" v="wetland" />
		<tag k="ssr:stedsnr" v="469996" />
	</node>
	<node id="-64129" lat="62.3361777819" lon="6.18720277554">
		<tag k="name" v="Molamyra" />
		<tag k="natural" v="wetland" />
		<tag k="ssr:stedsnr" v="469989" />
	</node>
	<node id="-65657" lat="62.2346055549" lon="6.57752222055">
		<tag k="name" v="Rørfonna" />
		<tag k="place" v="locality" />
		<tag k="ssr:stedsnr" v="408782" />
	</node>
	<node id="-66166" lat="62.1414194476" lon="6.39978889804">
		<tag k="name" v="Risestøylmyra" />
		<tag k="natural" v="wetland" />
		<tag k="ssr:stedsnr" v="772184" />
	</node>
	<node id="-64629" lat="62.1952916671" lon="6.00988611657">
		<tag k="name" v="Storefonna" />
		<tag k="place" v="locality" />
		<tag k="ssr:stedsnr" v="887994" />
	</node>
	<node id="-65646" lat="62.1650222189" lon="6.32410555149">
		<tag k="name" v="Sætrediket" />
		<tag k="natural" v="wetland" />
		<tag k="ssr:stedsnr" v="408208" />
	</node>
	<node id="-64620" lat="62.3579805558" lon="6.27535833985">
		<tag k="landuse" v="meadow" />
		<tag k="name" v="Kongsøya" />
		<tag k="ssr:stedsnr" v="882984" />
	</node>
	<node id="-64107" lat="62.3011777787" lon="6.40465277759">
		<tag k="name" v="Storeurda" />
		<tag k="natural" v="scree" />
		<tag k="ssr:stedsnr" v="469311" />
	</node>
	<node id="-65129" lat="62.1216027763" lon="6.30505832793">
		<tag k="historic" v="shieling" />
		<tag k="name" v="Gamlestøylen" />
		<tag k="place" v="locality" />
		<tag k="ssr:stedsnr" v="44831" />
	</node>
	<node id="-64613" lat="62.1688388922" lon="6.25355554681">
		<tag k="name" v="Åmmyrane" />
		<tag k="natural" v="wetland" />
		<tag k="ssr:stedsnr" v="882711" />
	</node>
	<node id="-64097" lat="62.1635527796" lon="6.36252778681">
		<tag k="name" v="Mittelmyra" />
		<tag k="natural" v="wetland" />
		<tag k="ssr:stedsnr" v="469161" />
	</node>
	<node id="-64094" lat="62.3354638859" lon="6.17238056306">
		<tag k="name" v="Åmannshella" />
		<tag k="natural" v="stone" />
		<tag k="ssr:stedsnr" v="469020" />
	</node>
	<node id="-65893" lat="62.2384611078" lon="6.08785276912">
		<tag k="historic" v="shieling" />
		<tag k="name" v="Småstøylane" />
		<tag k="place" v="locality" />
		<tag k="ssr:stedsnr" v="589071" />
	</node>
	<node id="-65628" lat="62.1837694451" lon="6.39285554898">
		<tag k="name" v="Porsemyra" />
		<tag k="natural" v="wetland" />
		<tag k="ssr:stedsnr" v="408005" />
	</node>
	<node id="-66136" lat="62.3180888849" lon="6.27821388682">
		<tag k="name" v="Fondsagjerdet" />
>>>>>>> e1d4bc35ff8a6074a6f2e91616a996b547c36f15
		<tag k="place" v="locality" />
		<tag k="ssr:stedsnr" v="760959" />
	</node>
<<<<<<< HEAD
	<node lat="62.198358329953116" lon="6.123119446543959" id="-6807">
		<tag k="name" v="Vikeøyrane" />
		<tag k="place" v="locality" />
		<tag k="ssr:stedsnr" v="827142" />
	</node>
	<node lat="62.20894444514936" lon="6.104233328516564" id="-6811">
		<tag k="name" v="Gjerdeteigane" />
		<tag k="place" v="locality" />
		<tag k="ssr:stedsnr" v="827697" />
	</node>
	<node lat="62.184436111552216" lon="6.059772226262021" id="-6812">
		<tag k="name" v="Halveteigane" />
		<tag k="place" v="locality" />
		<tag k="ssr:stedsnr" v="827906" />
	</node>
	<node lat="62.13487778058729" lon="6.286363894585583" id="-6843">
		<tag k="name" v="Skaremyrane" />
		<tag k="natural" v="wetland" />
		<tag k="ssr:stedsnr" v="833754" />
	</node>
	<node lat="62.165430556561084" lon="6.218147231059932" id="-6850">
		<tag k="name" v="Sagmyra" />
		<tag k="natural" v="wetland" />
		<tag k="ssr:stedsnr" v="833825" />
	</node>
	<node lat="62.34892499629165" lon="6.21606388184322" id="-6861">
		<tag k="name" v="Pengerøysa" />
		<tag k="natural" v="scree" />
		<tag k="ssr:stedsnr" v="833967" />
	</node>
	<node lat="62.33935278083595" lon="6.198855552229485" id="-6866">
		<tag k="name" v="Furmyra" />
		<tag k="natural" v="wetland" />
		<tag k="ssr:stedsnr" v="833993" />
	</node>
	<node lat="62.228936110646394" lon="6.574941673671222" id="-6872">
		<tag k="name" v="Breifonna" />
		<tag k="place" v="locality" />
		<tag k="ssr:stedsnr" v="834694" />
	</node>
	<node lat="62.357980555783065" lon="6.2753583398467265" id="-6912">
		<tag k="landuse" v="meadow" />
		<tag k="name" v="Kongsøya" />
		<tag k="ssr:stedsnr" v="882984" />
	</node>
	<node lat="62.19529166712701" lon="6.009886116571774" id="-6916">
		<tag k="name" v="Storefonna" />
		<tag k="place" v="locality" />
		<tag k="ssr:stedsnr" v="887994" />
	</node>
	<node lat="62.21207221839756" lon="6.07556388875595" id="-6918">
		<tag k="name" v="Fonna" />
		<tag k="place" v="locality" />
		<tag k="ssr:stedsnr" v="888609" />
	</node>
	<node lat="62.17931666492567" lon="6.087369441139649" id="-6927">
		<tag k="name" v="Langmyra" />
=======
	<node id="-66135" lat="62.3261583295" lon="6.27169445036">
		<tag k="name" v="Ingrigjerdet" />
		<tag k="place" v="locality" />
		<tag k="ssr:stedsnr" v="760956" />
	</node>
	<node id="-66134" lat="62.3308027738" lon="6.26740555204">
		<tag k="name" v="Myrane" />
		<tag k="natural" v="wetland" />
		<tag k="ssr:stedsnr" v="760790" />
	</node>
	<node id="-65620" lat="62.1767055511" lon="6.19672777807">
		<tag k="name" v="Geitamyra" />
		<tag k="natural" v="wetland" />
		<tag k="ssr:stedsnr" v="407887" />
	</node>
	<node id="-64952" lat="62.19533889" lon="6.14668054596">
		<tag k="name" v="Lægda" />
		<tag k="place" v="locality" />
		<tag k="ssr:stedsnr" v="888118" />
	</node>
	<node id="-65102" lat="62.151241663" lon="6.25994165757">
		<tag k="name" v="Langeteigane" />
		<tag k="place" v="locality" />
		<tag k="ssr:stedsnr" v="44449" />
	</node>
	<node id="-65101" lat="62.144611107" lon="6.26601388525">
		<tag k="name" v="Håmyra" />
		<tag k="natural" v="wetland" />
		<tag k="ssr:stedsnr" v="44442" />
	</node>
	<node id="-65098" lat="62.2680416624" lon="6.13763610527">
		<tag k="name" v="Litlemyra" />
		<tag k="natural" v="wetland" />
		<tag k="ssr:stedsnr" v="44425" />
	</node>
	<node id="-65609" lat="62.1800694446" lon="6.04825555719">
		<tag k="name" v="Puskje" />
		<tag k="place" v="locality" />
		<tag k="ssr:stedsnr" v="401878" />
	</node>
	<node id="-65607" lat="62.1865388926" lon="6.11028888823">
		<tag k="name" v="Lega" />
		<tag k="place" v="locality" />
		<tag k="ssr:stedsnr" v="401873" />
	</node>
	<node id="-64581" lat="62.199794444" lon="6.41453055">
		<tag k="historic" v="shieling" />
		<tag k="name" v="Støylen" />
		<tag k="place" v="locality" />
		<tag k="ssr:stedsnr" v="651069" />
	</node>
	<node id="-64066" lat="62.2821416647" lon="6.14672777495">
		<tag k="name" v="Eljebøen" />
		<tag k="place" v="locality" />
		<tag k="ssr:stedsnr" v="468375" />
	</node>
	<node id="-65888" lat="62.2107194486" lon="6.12514444166">
		<tag k="name" v="Vikelegene" />
		<tag k="place" v="locality" />
		<tag k="ssr:stedsnr" v="584156" />
	</node>
	<node id="-65828" lat="62.193766663" lon="6.06587221712">
		<tag k="name" v="Hovdeura" />
		<tag k="natural" v="scree" />
		<tag k="ssr:stedsnr" v="537283" />
	</node>
	<node id="-65083" lat="62.1601638846" lon="6.19141388093">
		<tag k="name" v="Kolmyra" />
		<tag k="natural" v="wetland" />
		<tag k="ssr:stedsnr" v="43914" />
	</node>
	<node id="-64057" lat="62.2249555558" lon="6.01785278428">
		<tag k="alt_name" v="Rindane" />
		<tag k="name" v="Storerindfonna" />
		<tag k="place" v="locality" />
		<tag k="ssr:stedsnr" v="463327" />
	</node>
	<node id="-64054" lat="62.1561472242" lon="6.18972500268">
		<tag k="name" v="Langemyra" />
		<tag k="natural" v="wetland" />
		<tag k="ssr:stedsnr" v="287967" />
	</node>
	<node id="-65075" lat="62.2358472206" lon="6.30371110743">
		<tag k="name" v="Åsemyrane" />
>>>>>>> e1d4bc35ff8a6074a6f2e91616a996b547c36f15
		<tag k="natural" v="wetland" />
		<tag k="ssr:stedsnr" v="947899" />
	</node>
<<<<<<< HEAD
	<node lat="62.22534444389179" lon="6.061997213646589" id="-6931">
		<tag k="name" v="Opsalfonna" />
		<tag k="place" v="locality" />
		<tag k="ssr:stedsnr" v="953063" />
	</node>
	<node lat="62.29297777880474" lon="6.094941673977332" id="-6933">
		<tag k="name" v="Nygjerdet" />
=======
	<node id="-63884" lat="62.20911667" lon="6.47615555049">
		<tag k="name" v="Litleøyra" />
>>>>>>> e1d4bc35ff8a6074a6f2e91616a996b547c36f15
		<tag k="place" v="locality" />
		<tag k="ssr:stedsnr" v="165719" />
	</node>
<<<<<<< HEAD
	<node lat="62.29062499590064" lon="6.102030563196566" id="-6935">
		<tag k="name" v="Timbreholen" />
		<tag k="place" v="locality" />
		<tag k="ssr:stedsnr" v="953107" />
	</node>
	<node lat="62.14246110984098" lon="6.326244442084935" id="-6936">
		<tag k="name" v="Britemyra" />
		<tag k="natural" v="wetland" />
		<tag k="ssr:stedsnr" v="954143" />
	</node>
	<node lat="62.151936112766855" lon="6.3119833278014665" id="-6942">
		<tag k="name" v="Svartemyrane" />
		<tag k="natural" v="wetland" />
		<tag k="ssr:stedsnr" v="954175" />
	</node>
	<node lat="62.14945000137955" lon="6.331352785695239" id="-6944">
		<tag k="name" v="Bjørnamyra" />
		<tag k="natural" v="wetland" />
		<tag k="ssr:stedsnr" v="954179" />
	</node>
	<node lat="62.23478611157975" lon="6.1778777748929965" id="-6956">
		<tag k="name" v="Storefonna" />
		<tag k="place" v="locality" />
		<tag k="ssr:stedsnr" v="954237" />
	</node>
	<node lat="62.20361110845758" lon="6.459113887258866" id="-6967">
		<tag k="name" v="Feirøyane" />
		<tag k="place" v="locality" />
		<tag k="ssr:stedsnr" v="954711" />
	</node>
	<node lat="62.35030833340113" lon="6.230705550222331" id="-6978">
		<tag k="historic" v="shieling" />
		<tag k="name" v="Støylane" />
		<tag k="place" v="locality" />
		<tag k="ssr:stedsnr" v="954956" />
	</node>
	<node lat="62.16840474149127" lon="6.078808461882852" id="-7039">
		<tag k="name" v="Ring" />
		<tag k="natural" v="stone" />
		<tag k="ssr:stedsnr" v="1082566" />
=======
	<node id="-65069" lat="62.1996555581" lon="6.12796111859">
		<tag k="name" v="Nekken" />
		<tag k="place" v="locality" />
		<tag k="ssr:stedsnr" v="38146" />
	</node>
	<node id="-64617" lat="62.3249083301" lon="6.27355832441">
		<tag k="landuse" v="meadow" />
		<tag k="name" v="Dyrøya" />
		<tag k="ssr:stedsnr" v="882950" />
	</node>
	<node id="-65063" lat="62.3568805513" lon="6.27345832986">
		<tag k="name" v="Gråten" />
		<tag k="natural" v="wetland" />
		<tag k="ssr:stedsnr" v="32990" />
	</node>
	<node id="-64550" lat="62.3002611124" lon="6.45679167433">
		<tag k="name" v="Ellingura" />
		<tag k="natural" v="scree" />
		<tag k="ssr:stedsnr" v="719792" />
	</node>
	<node id="-65058" lat="62.1647861128" lon="6.251205558">
		<tag k="name" v="Myrane" />
		<tag k="natural" v="wetland" />
		<tag k="ssr:stedsnr" v="32779" />
	</node>
	<node id="-64033" lat="62.2016500022" lon="6.30561944068">
		<tag k="historic" v="shieling" />
		<tag k="name" v="Fivelstøylen" />
		<tag k="place" v="locality" />
		<tag k="ssr:stedsnr" v="287173" />
	</node>
	<node id="-64029" lat="62.168319447" lon="6.34900554619">
		<tag k="name" v="Seljefonnmyra" />
		<tag k="natural" v="wetland" />
		<tag k="ssr:stedsnr" v="287218" />
	</node>
	<node id="-66075" lat="62.155352775" lon="6.29827778036">
		<tag k="name" v="Gråura" />
		<tag k="natural" v="scree" />
		<tag k="ssr:stedsnr" v="651206" />
	</node>
	<node id="-64022" lat="62.2975361147" lon="6.41071944673">
		<tag k="name" v="Øyra" />
		<tag k="place" v="locality" />
		<tag k="ssr:stedsnr" v="286311" />
	</node>
	<node id="-64020" lat="62.3008333368" lon="6.12581110786">
		<tag k="name" v="Gråurda" />
		<tag k="natural" v="scree" />
		<tag k="ssr:stedsnr" v="286252" />
	</node>
	<node id="-64019" lat="62.2126166648" lon="6.4381888912">
		<tag k="name" v="Langurda" />
		<tag k="natural" v="scree" />
		<tag k="ssr:stedsnr" v="461351" />
	</node>
	<node id="-64015" lat="62.1654611141" lon="6.23637777786">
		<tag k="name" v="Storereiten" />
		<tag k="place" v="locality" />
		<tag k="ssr:stedsnr" v="275958" />
	</node>
	<node id="-66062" lat="62.1465222218" lon="6.18538889746">
		<tag k="name" v="Brattmyra" />
		<tag k="natural" v="wetland" />
		<tag k="ssr:stedsnr" v="650977" />
	</node>
	<node id="-66061" lat="62.1380777758" lon="6.20341111858">
		<tag k="name" v="Gråurene" />
		<tag k="natural" v="scree" />
		<tag k="ssr:stedsnr" v="650976" />
	</node>
	<node id="-64012" lat="62.3601250042" lon="6.26442500831">
		<tag k="landuse" v="quarry" />
		<tag k="name" v="Borga" />
		<tag k="ssr:stedsnr" v="457996" />
	</node>
	<node id="-64007" lat="62.2161666645" lon="6.05013611703">
		<tag k="name" v="Syrøyane" />
		<tag k="place" v="locality" />
		<tag k="ssr:stedsnr" v="463001" />
	</node>
	<node id="-64518" lat="62.1884972241" lon="6.40091667255">
		<tag k="name" v="Skipssteinen" />
		<tag k="natural" v="stone" />
		<tag k="ssr:stedsnr" v="712043" />
	</node>
	<node id="-65541" lat="62.1330611075" lon="6.24235833514">
		<tag k="name" v="Storeleitet" />
		<tag k="place" v="locality" />
		<tag k="ssr:stedsnr" v="347761" />
	</node>
	<node id="-64086" lat="62.130149999" lon="6.32109443977">
		<tag k="name" v="Gjølmyra" />
		<tag k="natural" v="wetland" />
		<tag k="ssr:stedsnr" v="468827" />
	</node>
	<node id="-66050" lat="62.1402111131" lon="6.41311943756">
		<tag k="historic" v="shieling" />
		<tag k="name" v="Mjeltefonnstøylen" />
		<tag k="place" v="locality" />
		<tag k="ssr:stedsnr" v="651185" />
	</node>
	<node id="-65110" lat="62.2924194437" lon="6.26700277112">
		<tag k="name" v="Nebbesteinen" />
		<tag k="natural" v="stone" />
		<tag k="ssr:stedsnr" v="44574" />
>>>>>>> e1d4bc35ff8a6074a6f2e91616a996b547c36f15
	</node>
</osm>
