<?xml version="1.0" encoding="UTF-8"?>
<osm version="0.6" generator="osmapis">
	<node lat="62.21556666296682" lon="6.125405561599873" id="-7678">
		<tag k="fixme" v="consider highway=path" />
		<tag k="highway" v="track" />
		<tag k="name" v="Stien" />
		<tag k="ssr:stedsnr" v="38166" />
	</node>
	<node lat="62.16745833176941" lon="6.339727774013667" id="-7688">
		<tag k="highway" v="path" />
		<tag k="name" v="Grautavegen" />
		<tag k="ssr:stedsnr" v="44202" />
	</node>
	<node lat="62.23057499729857" lon="6.30158889138241" id="-7757">
		<tag k="highway" v="path" />
		<tag k="name" v="Heiavegen" />
		<tag k="ssr:stedsnr" v="104282" />
	</node>
	<node lat="62.21102105908177" lon="6.476036165761049" id="-7838">
		<tag k="amenity" v="ferry_terminal" />
		<tag k="name" v="Sæbø ferjekai" />
		<tag k="ssr:stedsnr" v="156310" />
	</node>
	<node lat="62.14085555917668" lon="6.27530555421948" id="-7888">
		<tag k="ford" v="yes" />
		<tag k="name" v="Lygnevadet" />
		<tag k="place" v="locality" />
		<tag k="ssr:stedsnr" v="226282" />
	</node>
	<node lat="62.20174166780129" lon="6.247138884063381" id="-7904">
		<tag k="bridge" v="yes" />
		<tag k="layer" v="1" />
		<tag k="name" v="Fjellbrua" />
		<tag k="ssr:stedsnr" v="226808" />
	</node>
	<node lat="62.202822217908086" lon="6.251086102244308" id="-7987">
		<tag k="highway" v="path" />
		<tag k="name" v="Bøgeila" />
		<tag k="ssr:stedsnr" v="287786" />
	</node>
	<node lat="62.198183335740296" lon="6.434050007199412" id="-8085">
		<tag k="highway" v="path" />
		<tag k="name" v="Gotene" />
		<tag k="ssr:stedsnr" v="347473" />
	</node>
	<node lat="62.26188888619703" lon="6.170480563875151" id="-8107">
		<tag k="bridge" v="yes" />
		<tag k="layer" v="1" />
		<tag k="name" v="Vassdalsbrua" />
		<tag k="ssr:stedsnr" v="347916" />
	</node>
	<node lat="62.27701666367823" lon="6.281647221051783" id="-8240">
		<tag k="ford" v="yes" />
		<tag k="name" v="Vodene" />
		<tag k="place" v="locality" />
		<tag k="ssr:stedsnr" v="469588" />
	</node>
	<node lat="62.17967778149135" lon="6.072447221226607" id="-8292">
		<tag k="aeroway" v="aerodrome" />
		<tag k="alt_name" v="Hovden" />
		<tag k="name" v="Ørsta/Volda lufthamn, Hovden" />
		<tag k="old_name" v="Ørsta-Volda lufthamn, Hovden" />
		<tag k="ssr:stedsnr" v="502076" />
	</node>
	<node lat="62.18164444435799" lon="6.353088894533504" id="-8312">
		<tag k="ford" v="yes" />
		<tag k="name" v="Sætrevadet" />
		<tag k="place" v="locality" />
		<tag k="ssr:stedsnr" v="529129" />
	</node>
	<node lat="62.26400000085708" lon="6.426652768843597" id="-8392">
		<tag k="amenity" v="ferry_terminal" />
		<tag k="name" v="Standal ferjekai" />
		<tag k="ssr:stedsnr" v="580109" />
	</node>
	<node lat="62.134658335978685" lon="6.324030550477106" id="-8415">
		<tag k="highway" v="path" />
		<tag k="name" v="Røskinledet" />
		<tag k="ssr:stedsnr" v="589902" />
	</node>
	<node lat="62.22331944291984" lon="6.577383327896867" id="-8429">
		<tag k="highway" v="path" />
		<tag k="name" v="Haugeledet" />
		<tag k="ssr:stedsnr" v="590704" />
	</node>
	<node lat="62.26158055391639" lon="6.390566663523343" id="-8557">
		<tag k="ford" v="yes" />
		<tag k="name" v="Geitevadet" />
		<tag k="place" v="locality" />
		<tag k="ssr:stedsnr" v="893336" />
	</node>
	<node lat="62.18268055664801" lon="6.166861106524486" id="-8618">
		<tag k="bridge" v="yes" />
		<tag k="layer" v="1" />
		<tag k="name" v="Hengjebrua" />
		<tag k="ssr:stedsnr" v="705163" />
	</node>
	<node lat="62.16739166993781" lon="6.329230556606571" id="-8692">
		<tag k="ford" v="yes" />
		<tag k="name" v="Legevadet" />
		<tag k="place" v="locality" />
		<tag k="ssr:stedsnr" v="772204" />
	</node>
	<node lat="62.314183333996084" lon="6.3801777854861434" id="-8713">
		<tag k="ford" v="yes" />
		<tag k="name" v="Hyllevadet" />
		<tag k="place" v="locality" />
		<tag k="ssr:stedsnr" v="772816" />
	</node>
	<node lat="62.155016664729864" lon="6.178863886411681" id="-8728">
		<tag k="highway" v="path" />
		<tag k="name" v="Haugeledet" />
		<tag k="ssr:stedsnr" v="772982" />
	</node>
	<node lat="62.246338887517744" lon="6.028830555533237" id="-8802">
		<tag k="highway" v="path" />
		<tag k="name" v="Trongestigen" />
		<tag k="ssr:stedsnr" v="827418" />
	</node>
	<node lat="62.20262221839314" lon="6.498352773027059" id="-8830">
		<tag k="highway" v="path" />
		<tag k="name" v="Hustadstien" />
		<tag k="ssr:stedsnr" v="833336" />
	</node>
	<node lat="62.31221388890294" lon="6.121016664232134" id="-8835">
		<tag k="ford" v="yes" />
		<tag k="name" v="Dyrevadet" />
		<tag k="place" v="locality" />
		<tag k="ssr:stedsnr" v="833638" />
	</node>
	<node lat="62.124247225912235" lon="6.325336113097492" id="-8838">
		<tag k="highway" v="path" />
		<tag k="name" v="Stien" />
		<tag k="ssr:stedsnr" v="833851" />
	</node>
	<node lat="62.31937221776714" lon="6.266727771942531" id="-8870">
		<tag k="highway" v="path" />
		<tag k="name" v="Midtvegane" />
		<tag k="ssr:stedsnr" v="882953" />
	</node>
	<node lat="62.18956024565766" lon="6.0936576830897735" id="-8875">
		<tag k="man_made" v="quay" />
		<tag k="name" v="Ørstaterminalen" />
		<tag k="place" v="locality" />
		<tag k="ssr:stedsnr" v="887905" />
	</node>
	<node lat="62.21858888582328" lon="6.056344448312615" id="-8878">
		<tag k="ford" v="yes" />
		<tag k="name" v="Jarbryggja" />
		<tag k="place" v="locality" />
		<tag k="ssr:stedsnr" v="888005" />
	</node>
	<node lat="62.218661115314504" lon="6.058805562204172" id="-8951">
		<tag k="highway" v="path" />
		<tag k="name" v="Stien" />
		<tag k="ssr:stedsnr" v="949002" />
	</node>
	<node lat="62.2612000030727" lon="6.413622223986151" id="-8968">
		<tag k="highway" v="path" />
		<tag k="name" v="Gotene" />
		<tag k="ssr:stedsnr" v="954352" />
	</node>
	<node lat="62.14272500277394" lon="6.278502776955383" id="-8970">
		<tag k="junction" v="yes" />
		<tag k="name" v="Bjørdalskiftet" />
		<tag k="place" v="locality" />
		<tag k="ssr:stedsnr" v="954249" />
	</node>
	<node lat="62.17607500288732" lon="6.055725000068178" id="-9048">
		<tag k="highway" v="path" />
		<tag k="name" v="Snedvegen" />
		<tag k="ssr:stedsnr" v="37895" />
	</node>
	<node lat="62.226405556743345" lon="6.30482500563946" id="-9056">
		<tag k="highway" v="path" />
		<tag k="name" v="Teievegen" />
		<tag k="ssr:stedsnr" v="43291" />
	</node>
	<node lat="62.338383331298935" lon="6.206069442662911" id="-9097">
		<tag k="ford" v="yes" />
		<tag k="name" v="Sætrevadet" />
		<tag k="place" v="locality" />
		<tag k="ssr:stedsnr" v="44999" />
	</node>
	<node lat="62.37522222352581" lon="6.331311108980714" id="-9159">
		<tag k="amenity" v="ferry_terminal" />
		<tag k="name" v="Festøya ferjekai" />
		<tag k="ssr:stedsnr" v="95274" />
	</node>
	<node lat="62.14010833153192" lon="6.281838885669605" id="-9182">
		<tag k="highway" v="path" />
		<tag k="name" v="Plasseteigane" />
		<tag k="ssr:stedsnr" v="105294" />
	</node>
	<node lat="62.20573055495622" lon="6.476788882426906" id="-9203">
		<tag k="bridge" v="yes" />
		<tag k="layer" v="1" />
		<tag k="name" v="Hustadbrua" />
		<tag k="ssr:stedsnr" v="105715" />
	</node>
	<node lat="62.24948888914343" lon="6.360894449081566" id="-9272">
		<tag k="highway" v="path" />
		<tag k="name" v="Berttunveien" />
		<tag k="ssr:stedsnr" v="165040" />
	</node>
	<node lat="62.253280552880945" lon="6.283241666687772" id="-9308">
		<tag k="highway" v="path" />
		<tag k="name" v="Trongstien" />
		<tag k="ssr:stedsnr" v="165731" />
	</node>
	<node lat="62.17512777830753" lon="6.060072224823438" id="-9370">
		<tag k="highway" v="path" />
		<tag k="name" v="Snedvegen" />
		<tag k="ssr:stedsnr" v="219896" />
	</node>
	<node lat="62.19443055497465" lon="6.417541673151183" id="-9392">
		<tag k="bridge" v="yes" />
		<tag k="layer" v="1" />
		<tag k="name" v="Kviistadbrua" />
		<tag k="ssr:stedsnr" v="226043" />
	</node>
	<node lat="62.315455556432134" lon="6.385513891019707" id="-9419">
		<tag k="ford" v="yes" />
		<tag k="name" v="Rognevadet" />
		<tag k="place" v="locality" />
		<tag k="ssr:stedsnr" v="226852" />
	</node>
	<node lat="62.205686108804805" lon="6.534297220758031" id="-9437">
		<tag k="amenity" v="ferry_terminal" />
		<tag k="name" v="Leknes ferjekai" />
		<tag k="ssr:stedsnr" v="277298" />
	</node>
	<node lat="62.23749444073666" lon="6.325477783811948" id="-9565">
		<tag k="highway" v="path" />
		<tag k="name" v="Hagardsledet" />
		<tag k="ssr:stedsnr" v="347244" />
	</node>
	<node lat="62.23191389103723" lon="6.300619453300827" id="-9568">
		<tag k="bridge" v="yes" />
		<tag k="layer" v="1" />
		<tag k="name" v="Sætrebrua" />
		<tag k="ssr:stedsnr" v="347276" />
	</node>
	<node lat="62.16330833211106" lon="6.236402779413443" id="-9639">
		<tag k="highway" v="path" />
		<tag k="name" v="Djupegotene" />
		<tag k="ssr:stedsnr" v="396964" />
	</node>
	<node lat="62.2026722218855" lon="6.261074990922029" id="-9852">
		<tag k="highway" v="path" />
		<tag k="name" v="Nyevegen" />
		<tag k="ssr:stedsnr" v="529785" />
	</node>
	<node lat="62.15462222295174" lon="6.213966671722697" id="-10050">
		<tag k="highway" v="path" />
		<tag k="name" v="Geila" />
		<tag k="ssr:stedsnr" v="650973" />
	</node>
	<node lat="62.19253611203656" lon="6.424433327229723" id="-10105">
		<tag k="highway" v="path" />
		<tag k="name" v="Gotene" />
		<tag k="ssr:stedsnr" v="711468" />
	</node>
	<node lat="62.13603333530829" lon="6.31386110860637" id="-10113">
		<tag k="ford" v="yes" />
		<tag k="name" v="Holmevadet" />
		<tag k="place" v="locality" />
		<tag k="ssr:stedsnr" v="711887" />
	</node>
	<node lat="62.15832777657729" lon="6.248594440503555" id="-10183">
		<tag k="bridge" v="yes" />
		<tag k="layer" v="1" />
		<tag k="name" v="Gamle Vielvbrua" />
		<tag k="ssr:stedsnr" v="760964" />
	</node>
	<node lat="62.203933337008294" lon="6.252169436839825" id="-10325">
		<tag k="highway" v="path" />
		<tag k="name" v="Jogeila" />
		<tag k="ssr:stedsnr" v="833767" />
	</node>
	<node lat="62.17658888691895" lon="6.2139083327730935" id="-10329">
		<tag k="highway" v="path" />
		<tag k="name" v="Geila" />
		<tag k="ssr:stedsnr" v="833821" />
	</node>
	<node lat="62.362380558378824" lon="6.349811107185388" id="-10335">
		<tag k="fixme" v="verify maritime location" />
		<tag k="mooring" v="yes" />
		<tag k="name" v="Gamlestødene" />
		<tag k="place" v="locality" />
		<tag k="ssr:stedsnr" v="833870" />
	</node>
	<node lat="62.35199166667786" lon="6.353938897146859" id="-10336">
		<tag k="fixme" v="verify maritime location" />
		<tag k="mooring" v="yes" />
		<tag k="name" v="Åttringstøa" />
		<tag k="place" v="locality" />
		<tag k="ssr:stedsnr" v="833874" />
	</node>
	<node lat="62.26318055454771" lon="5.977669445448695" id="-10366">
		<tag k="alt_name" v="Trollstøa" />
		<tag k="fixme" v="verify maritime location" />
		<tag k="mooring" v="yes" />
		<tag k="name" v="Trollstøda" />
		<tag k="place" v="locality" />
		<tag k="ssr:stedsnr" v="860249" />
	</node>
	<node lat="62.26097499588166" lon="6.500552775610181" id="-10395">
		<tag k="amenity" v="ferry_terminal" />
		<tag k="name" v="Trandal ferjekai" />
		<tag k="ssr:stedsnr" v="884137" />
	</node>
</osm>
