<?xml version="1.0" encoding="UTF-8"?>
<osm version="0.6" generator="osmapis">
	<node lat="62.26212500421787" lon="6.115108341045073" id="-7055">
		<tag k="name" v="Heidavatnet" />
		<tag k="natural" v="water" />
		<tag k="ssr:stedsnr" v="10199" />
	</node>
	<node lat="62.21661944849745" lon="6.413213891528838" id="-7067">
		<tag k="name" v="Holkonvatnet" />
		<tag k="natural" v="water" />
		<tag k="ssr:stedsnr" v="11528" />
	</node>
	<node lat="62.16321111415232" lon="6.2905138980386" id="-7068">
		<tag k="name" v="Storevatnet" />
		<tag k="natural" v="water" />
		<tag k="ssr:stedsnr" v="11579" />
	</node>
	<node lat="62.188461108956055" lon="6.630705561638661" id="-7070">
		<tag k="name" v="Helgåa" />
		<tag k="ssr:stedsnr" v="11594" />
		<tag k="waterway" v="stream" />
	</node>
	<node lat="62.31438888555613" lon="6.117433336024856" id="-7073">
		<tag k="name" v="Merkingselva" />
		<tag k="ssr:stedsnr" v="11774" />
		<tag k="waterway" v="stream" />
	</node>
	<node lat="62.15986666776756" lon="6.239316657150564" id="-7080">
		<tag k="name" v="Sagfossen" />
		<tag k="natural" v="waterfall" />
		<tag k="ssr:stedsnr" v="32970" />
	</node>
	<node lat="62.2356083298471" lon="6.223541674831754" id="-7092">
		<tag k="name" v="Rindavatnet" />
		<tag k="natural" v="water" />
		<tag k="ssr:stedsnr" v="43222" />
	</node>
	<node lat="62.173236113919" lon="6.336730553882811" id="-7100">
		<tag k="name" v="Seljefonna" />
		<tag k="ssr:stedsnr" v="44204" />
		<tag k="waterway" v="stream" />
	</node>
	<node lat="62.15569166915192" lon="6.374936111330136" id="-7102">
		<tag k="name" v="Raudefonna" />
		<tag k="ssr:stedsnr" v="44186" />
		<tag k="waterway" v="stream" />
	</node>
	<node lat="62.297847225346224" lon="6.2281666620479434" id="-7113">
		<tag k="name" v="Småvatna" />
		<tag k="ssr:stedsnr" v="44585" />
		<tag k="waterway" v="stream" />
	</node>
	<node lat="62.24298333373448" lon="6.280488892295188" id="-7117">
		<tag k="name" v="Tveråna" />
		<tag k="ssr:stedsnr" v="44685" />
		<tag k="waterway" v="stream" />
	</node>
	<node lat="62.33373610774458" lon="6.221366665277446" id="-7121">
		<tag k="name" v="Mjågeremgjølet" />
		<tag k="ssr:stedsnr" v="44886" />
		<tag k="waterway" v="stream" />
	</node>
	<node lat="62.179844448036995" lon="6.367336118374296" id="-7123">
		<tag k="name" v="Kvernagrova" />
		<tag k="ssr:stedsnr" v="226069" />
		<tag k="waterway" v="stream" />
	</node>
	<node lat="62.16936944670421" lon="6.381391658924097" id="-7133">
		<tag k="name" v="Krokefonna" />
		<tag k="ssr:stedsnr" v="226257" />
		<tag k="waterway" v="stream" />
	</node>
	<node lat="62.28443611107538" lon="6.087822225019404" id="-7138">
		<tag k="name" v="Røyrskrida" />
		<tag k="ssr:stedsnr" v="226246" />
		<tag k="waterway" v="stream" />
	</node>
	<node lat="62.30367500094197" lon="6.403291675594225" id="-7143">
		<tag k="name" v="Steinegjølet" />
		<tag k="ssr:stedsnr" v="226341" />
		<tag k="waterway" v="stream" />
	</node>
	<node lat="62.2524972262157" lon="6.405724995854366" id="-7148">
		<tag k="name" v="Novedalselva" />
		<tag k="ssr:stedsnr" v="226393" />
		<tag k="waterway" v="stream" />
	</node>
	<node lat="62.272972221507786" lon="6.156752785011359" id="-7150">
		<tag k="name" v="Skorgeelva" />
		<tag k="ssr:stedsnr" v="226482" />
		<tag k="waterway" v="stream" />
	</node>
	<node lat="62.13324999928504" lon="6.241725007578743" id="-7155">
		<tag k="name" v="Aldøla" />
		<tag k="ssr:stedsnr" v="226673" />
		<tag k="waterway" v="stream" />
	</node>
	<node lat="62.10906111517042" lon="6.299422226112345" id="-7159">
		<tag k="name" v="Koppaelva" />
		<tag k="ssr:stedsnr" v="226877" />
		<tag k="waterway" v="stream" />
	</node>
	<node lat="62.16434166748445" lon="6.227947225664735" id="-7160">
		<tag k="name" v="Geilelva" />
		<tag k="ssr:stedsnr" v="226842" />
		<tag k="waterway" v="stream" />
	</node>
	<node lat="62.28432777632298" lon="6.225147229581689" id="-7194">
		<tag k="name" v="Åvatnet" />
		<tag k="natural" v="water" />
		<tag k="ssr:stedsnr" v="72469" />
	</node>
	<node lat="62.32082777588032" lon="6.282938887798161" id="-7206">
		<tag k="name" v="Svorene" />
		<tag k="ssr:stedsnr" v="93920" />
		<tag k="waterway" v="stream" />
	</node>
	<node lat="62.181572220476276" lon="6.080794446310102" id="-7210">
		<tag k="name" v="Mos-Ola-elva" />
		<tag k="ssr:stedsnr" v="98880" />
		<tag k="waterway" v="stream" />
	</node>
	<node lat="62.187161109636335" lon="6.0640138840431215" id="-7212">
		<tag k="name" v="Hovdeelva" />
		<tag k="ssr:stedsnr" v="98882" />
		<tag k="waterway" v="river" />
	</node>
	<node lat="62.17777777387357" lon="6.1830833270211825" id="-7227">
		<tag k="name" v="Støylefossen" />
		<tag k="natural" v="waterfall" />
		<tag k="ssr:stedsnr" v="104876" />
	</node>
	<node lat="62.149102775445186" lon="6.395577777969225" id="-7230">
		<tag k="name" v="Grøtfonna" />
		<tag k="ssr:stedsnr" v="105184" />
		<tag k="waterway" v="stream" />
	</node>
	<node lat="62.23061111314795" lon="6.330166659584134" id="-7233">
		<tag k="name" v="Kalvedalsfossen" />
		<tag k="natural" v="waterfall" />
		<tag k="ssr:stedsnr" v="105282" />
	</node>
	<node lat="62.19056666877044" lon="6.215016671269002" id="-7240">
		<tag k="name" v="Sætreelva" />
		<tag k="ssr:stedsnr" v="105692" />
		<tag k="waterway" v="stream" />
	</node>
	<node lat="62.157369445763344" lon="6.203083339586715" id="-7248">
		<tag k="name" v="Raudegrova" />
		<tag k="ssr:stedsnr" v="105972" />
		<tag k="waterway" v="stream" />
	</node>
	<node lat="62.23683888560193" lon="6.351591665892473" id="-7256">
		<tag k="name" v="Skjervefossen" />
		<tag k="natural" v="waterfall" />
		<tag k="ssr:stedsnr" v="127289" />
	</node>
	<node lat="62.202122225517655" lon="6.70549445316403" id="-7261">
		<tag k="name" v="Brekkelva" />
		<tag k="ssr:stedsnr" v="131610" />
		<tag k="waterway" v="river" />
	</node>
	<node lat="62.21930833646757" lon="6.6528000047689595" id="-7266">
		<tag k="name" v="Storevatnet" />
		<tag k="natural" v="water" />
		<tag k="ssr:stedsnr" v="132510" />
	</node>
	<node lat="62.172308334167205" lon="6.299652781895856" id="-7270">
		<tag k="name" v="Trollvatnet" />
		<tag k="natural" v="water" />
		<tag k="ssr:stedsnr" v="132604" />
	</node>
	<node lat="62.352122221837654" lon="6.2579972239204515" id="-7279">
		<tag k="name" v="Vassgjølet" />
		<tag k="ssr:stedsnr" v="153957" />
		<tag k="waterway" v="stream" />
	</node>
	<node lat="62.171088891626916" lon="6.362852776277078" id="-7289">
		<tag k="name" v="Buselgrova" />
		<tag k="ssr:stedsnr" v="165215" />
		<tag k="waterway" v="stream" />
	</node>
	<node lat="62.13292500371825" lon="6.290930560834968" id="-7300">
		<tag k="name" v="Bjørdalselva" />
		<tag k="ssr:stedsnr" v="165767" />
		<tag k="waterway" v="stream" />
	</node>
	<node lat="62.132983336723086" lon="6.528583328021783" id="-7307">
		<tag k="name" v="Kvamsetdalsvatnet" />
		<tag k="natural" v="water" />
		<tag k="ssr:stedsnr" v="166964" />
		<tag k="water" v="lake" />
	</node>
	<node lat="62.29891666508591" lon="6.179405553595212" id="-7312">
		<tag k="name" v="Storgrova" />
		<tag k="ssr:stedsnr" v="192151" />
		<tag k="waterway" v="stream" />
	</node>
	<node lat="62.21948332962179" lon="6.126322225347063" id="-7328">
		<tag k="alt_name" v="Vikeelva" />
		<tag k="name" v="Vikelva" />
		<tag k="ssr:stedsnr" v="253075" />
		<tag k="waterway" v="stream" />
	</node>
	<node lat="62.21508333082875" lon="6.569438882866294" id="-7333">
		<tag k="name" v="Urkeelva" />
		<tag k="ssr:stedsnr" v="253565" />
		<tag k="waterway" v="river" />
	</node>
	<node lat="62.22944166678844" lon="6.406841676099991" id="-7334">
		<tag k="name" v="Grønvatnet" />
		<tag k="natural" v="water" />
		<tag k="ssr:stedsnr" v="253569" />
	</node>
	<node lat="62.17765555188952" lon="6.524799998800545" id="-7336">
		<tag k="name" v="Skårelva" />
		<tag k="ssr:stedsnr" v="253628" />
		<tag k="waterway" v="stream" />
	</node>
	<node lat="62.328491667317216" lon="6.329725005531904" id="-7340">
		<tag k="name" v="Storevatnet" />
		<tag k="natural" v="water" />
		<tag k="ssr:stedsnr" v="254412" />
	</node>
	<node lat="62.32105555372128" lon="6.30138610260809" id="-7341">
		<tag k="name" v="Oksegylelva" />
		<tag k="ssr:stedsnr" v="254413" />
		<tag k="waterway" v="stream" />
	</node>
	<node lat="62.297211110922056" lon="6.540363879867735" id="-7346">
		<tag k="name" v="Skarrabbvatnet" />
		<tag k="natural" v="water" />
		<tag k="ssr:stedsnr" v="254456" />
	</node>
	<node lat="62.141311114385246" lon="6.273452779569285" id="-7353">
		<tag k="name" v="Storelva" />
		<tag k="ssr:stedsnr" v="254674" />
		<tag k="waterway" v="river" />
	</node>
	<node lat="62.247941663816135" lon="5.991808332242148" id="-7365">
		<tag k="name" v="Bakkedalselva" />
		<tag k="ssr:stedsnr" v="220448" />
		<tag k="waterway" v="stream" />
	</node>
	<node lat="62.16351388855363" lon="6.333955546511163" id="-7381">
		<tag k="name" v="Odden" />
		<tag k="natural" v="cape" />
		<tag k="ssr:stedsnr" v="226211" />
	</node>
	<node lat="62.3172722245096" lon="6.398783331740287" id="-7400">
		<tag k="name" v="Kalda" />
		<tag k="ssr:stedsnr" v="226867" />
		<tag k="waterway" v="stream" />
	</node>
	<node lat="62.26350620854624" lon="5.9927308117104126" id="-7417">
		<tag k="name" v="Vasskoppvatnet" />
		<tag k="natural" v="water" />
		<tag k="ssr:stedsnr" v="253247" />
	</node>
	<node lat="62.14135277623741" lon="6.454838896151649" id="-7420">
		<tag k="name" v="Trollvatnet" />
		<tag k="natural" v="water" />
		<tag k="ssr:stedsnr" v="253603" />
	</node>
	<node lat="62.28148889024376" lon="6.276874998569641" id="-7423">
		<tag k="name" v="Romedalselva" />
		<tag k="ssr:stedsnr" v="254220" />
		<tag k="waterway" v="river" />
	</node>
	<node lat="62.24694444010206" lon="6.029536110678236" id="-7437">
		<tag k="name" v="Liadalselva" />
		<tag k="ssr:stedsnr" v="280108" />
		<tag k="waterway" v="stream" />
	</node>
	<node lat="62.18864166602609" lon="6.05330833922136" id="-7438">
		<tag k="name" v="Rompå" />
		<tag k="natural" v="cape" />
		<tag k="ssr:stedsnr" v="280906" />
	</node>
	<node lat="62.14377777902111" lon="6.2529694485577165" id="-7455">
		<tag k="name" v="Sparkane" />
		<tag k="ssr:stedsnr" v="287516" />
		<tag k="waterway" v="stream" />
	</node>
	<node lat="62.148580554848806" lon="6.2390583392044645" id="-7456">
		<tag k="name" v="Nakkestranda" />
		<tag k="natural" v="beach" />
		<tag k="ssr:stedsnr" v="287542" />
	</node>
	<node lat="62.338888885318255" lon="6.37100555124967" id="-7466">
		<tag k="name" v="Grofsa" />
		<tag k="ssr:stedsnr" v="287816" />
		<tag k="waterway" v="stream" />
	</node>
	<node lat="62.217088887098235" lon="6.5731833242302615" id="-7470">
		<tag k="name" v="Øyane" />
		<tag k="place" v="island" />
		<tag k="ssr:stedsnr" v="288156" />
	</node>
	<node lat="62.14620833535689" lon="6.746272214467155" id="-7488">
		<tag k="name" v="Uravatnet" />
		<tag k="natural" v="water" />
		<tag k="ssr:stedsnr" v="314385" />
	</node>
	<node lat="62.34305278020128" lon="6.277780550166426" id="-7497">
		<tag k="name" v="Storegjølet" />
		<tag k="ssr:stedsnr" v="457741" />
		<tag k="waterway" v="stream" />
	</node>
	<node lat="62.3171499990235" lon="6.258883331243438" id="-7502">
		<tag k="name" v="Storevasselva" />
		<tag k="ssr:stedsnr" v="336956" />
		<tag k="waterway" v="river" />
	</node>
	<node lat="62.20899444438586" lon="6.076119439854572" id="-7508">
		<tag k="name" v="Gjerdeelva" />
		<tag k="ssr:stedsnr" v="341715" />
		<tag k="waterway" v="stream" />
	</node>
	<node lat="62.288313885583634" lon="6.145666672359089" id="-7513">
		<tag k="name" v="Geitafossen" />
		<tag k="natural" v="waterfall" />
		<tag k="ssr:stedsnr" v="346210" />
	</node>
	<node lat="62.17977222650026" lon="6.37656944255819" id="-7515">
		<tag k="name" v="Litlegranden" />
		<tag k="natural" v="shoal" />
		<tag k="ssr:stedsnr" v="347007" />
	</node>
	<node lat="62.143313891413335" lon="6.372369447243344" id="-7516">
		<tag k="name" v="Storefonna" />
		<tag k="ssr:stedsnr" v="347169" />
		<tag k="waterway" v="stream" />
	</node>
	<node lat="62.2121972219868" lon="6.474872215451391" id="-7533">
		<tag k="name" v="Kapteinkvia" />
		<tag k="ssr:stedsnr" v="347771" />
		<tag k="waterway" v="stream" />
	</node>
	<node lat="62.20156666408153" lon="6.242949996884651" id="-7534">
		<tag k="name" v="Fjellelva" />
		<tag k="ssr:stedsnr" v="347777" />
		<tag k="waterway" v="stream" />
	</node>
	<node lat="62.35011111223377" lon="6.316619440551061" id="-7544">
		<tag k="name" v="Bydalsvatnet" />
		<tag k="natural" v="water" />
		<tag k="ssr:stedsnr" v="347808" />
	</node>
	<node lat="62.31978055935092" lon="6.3208083330022555" id="-7562">
		<tag k="name" v="Oksegylvatnet" />
		<tag k="natural" v="water" />
		<tag k="ssr:stedsnr" v="375416" />
	</node>
	<node lat="62.28747778027723" lon="6.4106194419894935" id="-7576">
		<tag k="name" v="Stavsetfonna" />
		<tag k="ssr:stedsnr" v="468267" />
		<tag k="waterway" v="stream" />
	</node>
	<node lat="62.251122226334765" lon="6.365066670260271" id="-7577">
		<tag k="name" v="Kvandalselva" />
		<tag k="ssr:stedsnr" v="468324" />
		<tag k="waterway" v="stream" />
	</node>
	<node lat="62.257205553176725" lon="6.395983324763297" id="-7581">
		<tag k="name" v="Sætreelva" />
		<tag k="ssr:stedsnr" v="468334" />
		<tag k="waterway" v="stream" />
	</node>
	<node lat="62.27863055129035" lon="6.133966666529121" id="-7583">
		<tag k="name" v="Litldalselva" />
		<tag k="ssr:stedsnr" v="468461" />
		<tag k="waterway" v="stream" />
	</node>
	<node lat="62.16955833501025" lon="6.192108340671356" id="-7588">
		<tag k="name" v="Sætreelva" />
		<tag k="ssr:stedsnr" v="468896" />
		<tag k="waterway" v="stream" />
	</node>
	<node lat="62.309983334058884" lon="6.399141674977395" id="-7589">
		<tag k="loc_name" v="Ysteneselva" />
		<tag k="name" v="Ytre-Stenneselva" />
		<tag k="ssr:stedsnr" v="469301" />
		<tag k="waterway" v="stream" />
	</node>
	<node lat="62.1602694417546" lon="6.225411116192783" id="-7591">
		<tag k="name" v="Vielva" />
		<tag k="ssr:stedsnr" v="468700" />
		<tag k="waterway" v="stream" />
	</node>
	<node lat="62.147952782203085" lon="6.238825008106888" id="-7592">
		<tag k="name" v="Åreneset" />
		<tag k="natural" v="cape" />
		<tag k="ssr:stedsnr" v="469533" />
	</node>
	<node lat="62.27501666379065" lon="6.084597221377583" id="-7600">
		<tag k="name" v="Litlevatnet" />
		<tag k="natural" v="water" />
		<tag k="ssr:stedsnr" v="469241" />
		<tag k="water" v="lake" />
	</node>
	<node lat="62.31767777622424" lon="6.397225002194823" id="-7602">
		<tag k="name" v="Fannene" />
		<tag k="ssr:stedsnr" v="469834" />
		<tag k="waterway" v="stream" />
	</node>
	<node lat="62.194072226243016" lon="6.400155552769143" id="-7631">
		<tag k="name" v="Djuna" />
		<tag k="ssr:stedsnr" v="408053" />
		<tag k="waterway" v="stream" />
	</node>
	<node lat="62.16105555321254" lon="6.3387083300842315" id="-7639">
		<tag k="name" v="Elvebyksa" />
		<tag k="ssr:stedsnr" v="408209" />
		<tag k="waterway" v="stream" />
	</node>
	<node lat="62.27595000457599" lon="6.111752783065276" id="-7647">
		<tag k="name" v="Esdalsvatnet" />
		<tag k="natural" v="water" />
		<tag k="ssr:stedsnr" v="408266" />
	</node>
	<node lat="62.13751111156163" lon="6.248961113096701" id="-7650">
		<tag k="name" v="Sanden" />
		<tag k="natural" v="beach" />
		<tag k="ssr:stedsnr" v="408486" />
	</node>
	<node lat="62.156463891764645" lon="6.259747216968504" id="-7651">
		<tag k="name" v="Tjørna" />
		<tag k="natural" v="water" />
		<tag k="ssr:stedsnr" v="408488" />
	</node>
	<node lat="62.26022777952324" lon="6.216749992363127" id="-7656">
		<tag k="name" v="Smellå" />
		<tag k="ssr:stedsnr" v="408656" />
		<tag k="waterway" v="stream" />
	</node>
	<node lat="62.211397225013116" lon="6.225791665259821" id="-7658">
		<tag k="name" v="Vassdalsvatnet" />
		<tag k="ssr:stedsnr" v="408672" />
		<tag k="waterway" v="stream" />
	</node>
	<node lat="62.24268611244673" lon="6.3362583392321845" id="-7671">
		<tag k="name" v="Årdalselva" />
		<tag k="ssr:stedsnr" v="430265" />
		<tag k="waterway" v="stream" />
	</node>
	<node lat="62.320041666800286" lon="6.245119450833174" id="-7681">
		<tag k="name" v="Klovvasselva" />
		<tag k="ssr:stedsnr" v="436420" />
		<tag k="waterway" v="stream" />
	</node>
	<node lat="62.33486388699492" lon="6.282099990714984" id="-7692">
		<tag k="name" v="Skagjølet" />
		<tag k="ssr:stedsnr" v="457786" />
		<tag k="waterway" v="stream" />
	</node>
	<node lat="62.23494444624242" lon="6.280141673512234" id="-7706">
		<tag k="name" v="Romedalselva" />
		<tag k="ssr:stedsnr" v="468673" />
		<tag k="waterway" v="stream" />
	</node>
	<node lat="62.2279638860795" lon="6.616808329228732" id="-7715">
		<tag k="name" v="Storedalselva" />
		<tag k="ssr:stedsnr" v="468913" />
		<tag k="waterway" v="river" />
	</node>
	<node lat="62.30625833643839" lon="6.292625004533551" id="-7724">
		<tag k="name" v="Fossane" />
		<tag k="natural" v="waterfall" />
		<tag k="ssr:stedsnr" v="469609" />
	</node>
	<node lat="62.218244443695674" lon="6.257527776480884" id="-7738">
		<tag k="name" v="Litlelva" />
		<tag k="ssr:stedsnr" v="469770" />
		<tag k="waterway" v="stream" />
	</node>
	<node lat="62.33545555861005" lon="6.217863893823639" id="-7740">
		<tag k="name" v="Seljeremgjølet" />
		<tag k="ssr:stedsnr" v="469902" />
		<tag k="waterway" v="stream" />
	</node>
	<node lat="62.274000003914686" lon="6.185200004209101" id="-7741">
		<tag k="name" v="Kviefossen" />
		<tag k="natural" v="waterfall" />
		<tag k="ssr:stedsnr" v="469914" />
	</node>
	<node lat="62.21210833377044" lon="6.608286116267817" id="-7746">
		<tag k="name" v="Senda" />
		<tag k="ssr:stedsnr" v="470120" />
		<tag k="waterway" v="stream" />
	</node>
	<node lat="62.23434722425104" lon="6.217363881139618" id="-7752">
		<tag k="name" v="Brillevatna" />
		<tag k="natural" v="water" />
		<tag k="ssr:stedsnr" v="496067" />
	</node>
	<node lat="62.25214444459184" lon="6.40588888414617" id="-7755">
		<tag k="name" v="Nøvedalselva" />
		<tag k="ssr:stedsnr" v="496302" />
		<tag k="waterway" v="stream" />
	</node>
	<node lat="62.33905556002167" lon="6.2550833325009885" id="-7757">
		<tag k="name" v="Sægrovgjelet" />
		<tag k="ssr:stedsnr" v="496444" />
		<tag k="waterway" v="stream" />
	</node>
	<node lat="62.29655000150829" lon="6.28741666705753" id="-7760">
		<tag k="name" v="Midtivatnet" />
		<tag k="natural" v="water" />
		<tag k="ssr:stedsnr" v="497457" />
	</node>
	<node lat="62.243855557386745" lon="6.334808332271607" id="-7763">
		<tag k="name" v="Årdalsfossen" />
		<tag k="natural" v="waterfall" />
		<tag k="ssr:stedsnr" v="673290" />
	</node>
	<node lat="62.1729888865596" lon="6.387075006719376" id="-7772">
		<tag k="name" v="Seljefonna" />
		<tag k="ssr:stedsnr" v="524184" />
		<tag k="waterway" v="stream" />
	</node>
	<node lat="62.14295833158932" lon="6.2679583393890566" id="-7787">
		<tag k="name" v="Årdalskroken" />
		<tag k="natural" v="beach" />
		<tag k="ssr:stedsnr" v="529439" />
	</node>
	<node lat="62.16575000089725" lon="6.5237972179326364" id="-7793">
		<tag k="name" v="Skaravatnet" />
		<tag k="natural" v="water" />
		<tag k="ssr:stedsnr" v="529737" />
	</node>
	<node lat="62.202172217727615" lon="6.259958329315974" id="-7795">
		<tag k="name" v="Fossen" />
		<tag k="natural" v="waterfall" />
		<tag k="ssr:stedsnr" v="529783" />
	</node>
	<node lat="62.28188611082375" lon="6.41538888737745" id="-7797">
		<tag k="name" v="Tryttesvoda" />
		<tag k="ssr:stedsnr" v="529793" />
		<tag k="waterway" v="stream" />
	</node>
	<node lat="62.19180833502483" lon="6.202155555032978" id="-7803">
		<tag k="name" v="Fonnelva" />
		<tag k="ssr:stedsnr" v="529684" />
		<tag k="waterway" v="stream" />
	</node>
	<node lat="62.13571666969212" lon="6.315450002996417" id="-7809">
		<tag k="name" v="Kvanndalselva" />
		<tag k="ssr:stedsnr" v="529895" />
		<tag k="waterway" v="stream" />
	</node>
	<node lat="62.229516664601825" lon="6.584836116166026" id="-7817">
		<tag k="name" v="Sætreneset" />
		<tag k="natural" v="cape" />
		<tag k="ssr:stedsnr" v="530699" />
	</node>
	<node lat="62.24564722167204" lon="6.0855499927470715" id="-7818">
		<tag k="name" v="Tryvatna" />
		<tag k="natural" v="water" />
		<tag k="ssr:stedsnr" v="530910" />
	</node>
	<node lat="62.29188889258215" lon="6.0608861131886975" id="-7824">
		<tag k="alt_name" v="Lokkedalselva" />
		<tag k="name" v="Løkedalselva" />
		<tag k="ssr:stedsnr" v="537227" />
		<tag k="waterway" v="stream" />
	</node>
	<node lat="62.137541664218794" lon="6.742077774494457" id="-7836">
		<tag k="name" v="Djupvatnet" />
		<tag k="natural" v="water" />
		<tag k="ssr:stedsnr" v="678387" />
	</node>
	<node lat="62.201513884820365" lon="6.271388890821672" id="-7841">
		<tag k="name" v="Myklebustelva" />
		<tag k="ssr:stedsnr" v="678720" />
		<tag k="waterway" v="river" />
	</node>
	<node lat="62.119847219905274" lon="6.39436945211174" id="-7842">
		<tag k="name" v="Tverradalsvatnet" />
		<tag k="natural" v="water" />
		<tag k="ssr:stedsnr" v="678676" />
	</node>
	<node lat="62.148733331609776" lon="6.305786115594905" id="-7846">
		<tag k="name" v="Videtjørn" />
		<tag k="natural" v="water" />
		<tag k="ssr:stedsnr" v="556621" />
	</node>
	<node lat="62.24193055173537" lon="6.087072227938105" id="-7851">
		<tag k="name" v="Stillevadet" />
		<tag k="place" v="locality" />
		<tag k="ssr:stedsnr" v="557178" />
	</node>
	<node lat="62.165788889347766" lon="6.2401416589133225" id="-7868">
		<tag k="name" v="Geilelva" />
		<tag k="ssr:stedsnr" v="578950" />
		<tag k="waterway" v="stream" />
	</node>
	<node lat="62.12361944714292" lon="6.3524083293979" id="-7886">
		<tag k="name" v="Grøneneset" />
		<tag k="natural" v="cape" />
		<tag k="ssr:stedsnr" v="589903" />
	</node>
	<node lat="62.146650003465" lon="6.308083325957365" id="-7893">
		<tag k="name" v="Svartløken" />
		<tag k="ssr:stedsnr" v="590166" />
		<tag k="waterway" v="stream" />
	</node>
	<node lat="62.283922222600566" lon="6.272549995530588" id="-7901">
		<tag k="name" v="Steinstøyvatnet" />
		<tag k="natural" v="water" />
		<tag k="ssr:stedsnr" v="590561" />
	</node>
	<node lat="62.2590888864817" lon="6.131413893352083" id="-7911">
		<tag k="name" v="Skorgevatnet" />
		<tag k="natural" v="water" />
		<tag k="ssr:stedsnr" v="590875" />
		<tag k="water" v="lake" />
	</node>
	<node lat="62.155186114682174" lon="6.322186108050104" id="-7928">
		<tag k="name" v="Videtjørnelva" />
		<tag k="ssr:stedsnr" v="617589" />
		<tag k="waterway" v="river" />
	</node>
	<node lat="62.14192500307882" lon="6.497069450814888" id="-7932">
		<tag k="name" v="Trollvatnet" />
		<tag k="natural" v="water" />
		<tag k="ssr:stedsnr" v="617700" />
	</node>
	<node lat="62.27902499700868" lon="6.087894447425337" id="-7943">
		<tag k="name" v="Risaskarelva" />
		<tag k="ssr:stedsnr" v="649194" />
		<tag k="waterway" v="stream" />
	</node>
	<node lat="62.22035555660085" lon="6.30642777256976" id="-7949">
		<tag k="name" v="Slådalselva" />
		<tag k="ssr:stedsnr" v="650146" />
		<tag k="waterway" v="stream" />
	</node>
	<node lat="62.26498889245654" lon="6.176422218442414" id="-7955">
		<tag k="name" v="Vassdalfossen" />
		<tag k="natural" v="waterfall" />
		<tag k="ssr:stedsnr" v="650610" />
	</node>
	<node lat="62.169027774759975" lon="6.201969435455896" id="-7966">
		<tag k="name" v="Tjørna" />
		<tag k="natural" v="water" />
		<tag k="ssr:stedsnr" v="650802" />
	</node>
	<node lat="62.15381666669138" lon="6.333022218449671" id="-7974">
		<tag k="name" v="Sæbøkvia" />
		<tag k="ssr:stedsnr" v="651210" />
		<tag k="waterway" v="stream" />
	</node>
	<node lat="62.17761666701127" lon="6.102147219388256" id="-7989">
		<tag k="alt_name" v="Osskarelva;Kvernaveita" />
		<tag k="name" v="Oselva" />
		<tag k="ssr:stedsnr" v="678041" />
		<tag k="waterway" v="stream" />
	</node>
	<node lat="62.247391665127196" lon="6.109391671766235" id="-7990">
		<tag k="name" v="Trollkoppevatnet" />
		<tag k="natural" v="water" />
		<tag k="ssr:stedsnr" v="678180" />
	</node>
	<node lat="62.282063891789015" lon="6.118463890588703" id="-7991">
		<tag k="fixme" v="multiple name tags, choose one and add the other to alt_name" />
		<tag k="name" v="Koppelvane;Koppelva" />
		<tag k="ssr:stedsnr" v="678189" />
		<tag k="waterway" v="stream" />
	</node>
	<node lat="62.25230555583006" lon="6.170049996779133" id="-7992">
		<tag k="name" v="Vassdalsvatnet" />
		<tag k="natural" v="water" />
		<tag k="ssr:stedsnr" v="678199" />
		<tag k="water" v="lake" />
	</node>
	<node lat="62.33451666708432" lon="6.279666665026327" id="-7993">
		<tag k="name" v="Stovegjølet" />
		<tag k="ssr:stedsnr" v="882729" />
		<tag k="waterway" v="stream" />
	</node>
	<node lat="62.12356666321833" lon="6.30119167297919" id="-8006">
		<tag k="name" v="Litledalsvatnet" />
		<tag k="natural" v="water" />
		<tag k="ssr:stedsnr" v="678677" />
	</node>
	<node lat="62.36517222261065" lon="6.293608340044303" id="-8021">
		<tag k="name" v="Trollesvora" />
		<tag k="ssr:stedsnr" v="700988" />
		<tag k="waterway" v="stream" />
	</node>
	<node lat="62.18044999621208" lon="6.348719451628865" id="-8027">
		<tag k="name" v="Nevregjølgrova" />
		<tag k="ssr:stedsnr" v="711142" />
		<tag k="waterway" v="stream" />
	</node>
	<node lat="62.170994441508874" lon="6.331066662164654" id="-8031">
		<tag k="name" v="Jofonna" />
		<tag k="ssr:stedsnr" v="711199" />
		<tag k="waterway" v="stream" />
	</node>
	<node lat="62.23498332905937" lon="6.213825002295188" id="-8038">
		<tag k="name" v="Bukkedalshølen" />
		<tag k="place" v="locality" />
		<tag k="ssr:stedsnr" v="711244" />
	</node>
	<node lat="62.2913999990682" lon="6.224333337041691" id="-8042">
		<tag k="name" v="Årskogelva" />
		<tag k="ssr:stedsnr" v="711587" />
		<tag k="waterway" v="stream" />
	</node>
	<node lat="62.26763055511954" lon="6.019780554833665" id="-8052">
		<tag k="name" v="Bjørndalsvatnet" />
		<tag k="natural" v="water" />
		<tag k="ssr:stedsnr" v="711783" />
	</node>
	<node lat="62.22502500196315" lon="6.534250000678222" id="-8055">
		<tag k="name" v="Hellefonna" />
		<tag k="ssr:stedsnr" v="712134" />
		<tag k="waterway" v="stream" />
	</node>
	<node lat="62.23208889103187" lon="6.5834388915710305" id="-8061">
		<tag k="name" v="Litledalselva" />
		<tag k="ssr:stedsnr" v="712745" />
		<tag k="waterway" v="river" />
	</node>
	<node lat="62.194513884716024" lon="6.69968333299791" id="-8071">
		<tag k="name" v="Brekkeelva" />
		<tag k="ssr:stedsnr" v="713432" />
		<tag k="waterway" v="stream" />
	</node>
	<node lat="62.208474997952166" lon="6.427433333232824" id="-8079">
		<tag k="name" v="Holelva" />
		<tag k="ssr:stedsnr" v="739509" />
		<tag k="waterway" v="stream" />
	</node>
	<node lat="62.297333336126165" lon="6.329094447507205" id="-8086">
		<tag k="name" v="Høgevatnet" />
		<tag k="natural" v="water" />
		<tag k="ssr:stedsnr" v="740451" />
	</node>
	<node lat="62.225149996705774" lon="5.959980551205357" id="-8100">
		<tag k="name" v="Haggardselva" />
		<tag k="ssr:stedsnr" v="893817" />
		<tag k="waterway" v="stream" />
	</node>
	<node lat="62.180766670085966" lon="6.179736117352863" id="-8109">
		<tag k="name" v="Langehølen" />
		<tag k="place" v="locality" />
		<tag k="ssr:stedsnr" v="893959" />
	</node>
	<node lat="62.15698888947486" lon="6.372244444211107" id="-8111">
		<tag k="name" v="Akslasvora" />
		<tag k="ssr:stedsnr" v="894194" />
		<tag k="waterway" v="stream" />
	</node>
	<node lat="62.16719166816856" lon="6.442874997764611" id="-8122">
		<tag k="name" v="Storesætrefonna" />
		<tag k="ssr:stedsnr" v="894725" />
		<tag k="waterway" v="stream" />
	</node>
	<node lat="62.22119166540382" lon="6.227844445698764" id="-8130">
		<tag k="name" v="Bjørnelva" />
		<tag k="ssr:stedsnr" v="894695" />
		<tag k="waterway" v="stream" />
	</node>
	<node lat="62.12456111071367" lon="6.300811104748308" id="-8137">
		<tag k="name" v="Dalsvatnet" />
		<tag k="natural" v="water" />
		<tag k="ssr:stedsnr" v="894853" />
		<tag k="water" v="lake" />
	</node>
	<node lat="62.13728610692652" lon="6.41626667034063" id="-8157">
		<tag k="name" v="Litlevatnet" />
		<tag k="natural" v="water" />
		<tag k="ssr:stedsnr" v="772210" />
	</node>
	<node lat="62.22964166577536" lon="6.594377782878531" id="-8171">
		<tag k="name" v="Storedalselva" />
		<tag k="ssr:stedsnr" v="772705" />
		<tag k="waterway" v="stream" />
	</node>
	<node lat="62.27344166253875" lon="6.4161555633114205" id="-8173">
		<tag k="name" v="Seljesvora" />
		<tag k="ssr:stedsnr" v="772773" />
		<tag k="waterway" v="stream" />
	</node>
	<node lat="62.29100832905115" lon="6.371758330402688" id="-8176">
		<tag k="name" v="Tveråna" />
		<tag k="ssr:stedsnr" v="772781" />
		<tag k="waterway" v="stream" />
	</node>
	<node lat="62.14658055278876" lon="6.754627781854699" id="-8185">
		<tag k="name" v="Skreppargrova" />
		<tag k="ssr:stedsnr" v="773413" />
		<tag k="waterway" v="stream" />
	</node>
	<node lat="62.13499721952238" lon="6.423658324588407" id="-8190">
		<tag k="name" v="Storevatnet" />
		<tag k="natural" v="water" />
		<tag k="ssr:stedsnr" v="787905" />
		<tag k="water" v="lake" />
	</node>
	<node lat="62.31359166773505" lon="6.284741659665506" id="-8205">
		<tag k="name" v="Molladalselva" />
		<tag k="ssr:stedsnr" v="800442" />
		<tag k="waterway" v="stream" />
	</node>
	<node lat="62.28503333326853" lon="6.132452769773952" id="-8208">
		<tag k="alt_name" v="Vartdalselva" />
		<tag k="name" v="Storelva" />
		<tag k="ssr:stedsnr" v="800630" />
		<tag k="waterway" v="river" />
	</node>
	<node lat="62.162927779984585" lon="6.316852772077088" id="-8238">
		<tag k="name" v="Storegrova" />
		<tag k="ssr:stedsnr" v="833185" />
		<tag k="waterway" v="stream" />
	</node>
	<node lat="62.23899444594164" lon="6.314469437008523" id="-8245">
		<tag k="name" v="Støylsgjølet" />
		<tag k="ssr:stedsnr" v="833286" />
		<tag k="waterway" v="stream" />
	</node>
	<node lat="62.22538055804463" lon="6.301625000754009" id="-8246">
		<tag k="name" v="Harpedalsfossen" />
		<tag k="natural" v="waterfall" />
		<tag k="ssr:stedsnr" v="833298" />
	</node>
	<node lat="62.271602781562656" lon="6.151952784735518" id="-8249">
		<tag k="name" v="Skorgefossen" />
		<tag k="natural" v="waterfall" />
		<tag k="ssr:stedsnr" v="833445" />
	</node>
	<node lat="62.255055559219116" lon="6.166797221101459" id="-8260">
		<tag k="name" v="Holmen" />
		<tag k="place" v="islet" />
		<tag k="ssr:stedsnr" v="833909" />
	</node>
	<node lat="62.18430555763631" lon="6.049719438658793" id="-8268">
		<tag k="name" v="Hovdevatnet" />
		<tag k="natural" v="water" />
		<tag k="ssr:stedsnr" v="860005" />
		<tag k="water" v="lake" />
	</node>
	<node lat="62.22837499756187" lon="6.042122215475778" id="-8269">
		<tag k="name" v="Nykkjavatnet" />
		<tag k="natural" v="water" />
		<tag k="ssr:stedsnr" v="860069" />
	</node>
	<node lat="62.24289444008408" lon="6.556133328586968" id="-8273">
		<tag k="name" v="Maradalsvatnet" />
		<tag k="natural" v="water" />
		<tag k="ssr:stedsnr" v="860571" />
	</node>
	<node lat="62.226161112375394" lon="6.403794452348188" id="-8274">
		<tag k="name" v="Storevatnet" />
		<tag k="natural" v="water" />
		<tag k="ssr:stedsnr" v="860578" />
	</node>
	<node lat="62.21251111522424" lon="6.450966666503615" id="-8291">
		<tag k="name" v="Korsatreket" />
		<tag k="ssr:stedsnr" v="886260" />
		<tag k="waterway" v="stream" />
	</node>
	<node lat="62.25450278180376" lon="6.365469439785068" id="-8305">
		<tag k="name" v="Grøtfonna" />
		<tag k="ssr:stedsnr" v="893376" />
		<tag k="waterway" v="stream" />
	</node>
	<node lat="62.2750944406328" lon="6.161574993087052" id="-8306">
		<tag k="name" v="Marøyane" />
		<tag k="place" v="island" />
		<tag k="ssr:stedsnr" v="893403" />
	</node>
	<node lat="62.17730000031315" lon="6.362511117497391" id="-8313">
		<tag k="name" v="Villaelva" />
		<tag k="ssr:stedsnr" v="894172" />
		<tag k="waterway" v="stream" />
	</node>
	<node lat="62.183100003519584" lon="6.38376666299056" id="-8314">
		<tag k="name" v="Bondalselva" />
		<tag k="ssr:stedsnr" v="894178" />
		<tag k="waterway" v="river" />
	</node>
	<node lat="62.172383336371006" lon="6.357413893770448" id="-8319">
		<tag k="name" v="Tongane" />
		<tag k="natural" v="isthmus" />
		<tag k="place" v="locality" />
		<tag k="ssr:stedsnr" v="894214" />
	</node>
	<node lat="62.293413887121424" lon="6.256083338572486" id="-8324">
		<tag k="name" v="Vassbakkelva" />
		<tag k="ssr:stedsnr" v="894604" />
		<tag k="waterway" v="stream" />
	</node>
	<node lat="62.261980552264795" lon="6.206824991659835" id="-8330">
		<tag k="name" v="Gopetjønna" />
		<tag k="natural" v="water" />
		<tag k="ssr:stedsnr" v="894678" />
	</node>
	<node lat="62.15894166963437" lon="6.211647225670534" id="-8331">
		<tag k="name" v="Kalvetjørna" />
		<tag k="natural" v="water" />
		<tag k="ssr:stedsnr" v="894810" />
	</node>
	<node lat="62.33527500096364" lon="6.378300000587693" id="-8332">
		<tag k="name" v="Sagelva" />
		<tag k="ssr:stedsnr" v="894814" />
		<tag k="waterway" v="stream" />
	</node>
	<node lat="62.233294444472484" lon="6.2799361047102025" id="-8336">
		<tag k="name" v="Kolåsfossen" />
		<tag k="natural" v="waterfall" />
		<tag k="ssr:stedsnr" v="894715" />
	</node>
	<node lat="62.24767500042201" lon="6.160844437285631" id="-8339">
		<tag k="name" v="Blåvatnet" />
		<tag k="natural" v="water" />
		<tag k="ssr:stedsnr" v="894903" />
	</node>
	<node lat="62.117288891518946" lon="6.362788894452002" id="-8343">
		<tag k="name" v="Djuvik" />
		<tag k="natural" v="bay" />
		<tag k="ssr:stedsnr" v="894862" />
	</node>
	<node lat="62.13755555741785" lon="6.398019441206268" id="-8345">
		<tag k="name" v="Rekkedalstverelva" />
		<tag k="ssr:stedsnr" v="894869" />
		<tag k="waterway" v="stream" />
	</node>
	<node lat="62.13776110826807" lon="6.741963882817633" id="-8347">
		<tag k="name" v="Ojuvatnet" />
		<tag k="natural" v="water" />
		<tag k="ssr:stedsnr" v="895404" />
		<tag k="water" v="lake" />
	</node>
	<node lat="62.259044442683376" lon="6.131147229209205" id="-8354">
		<tag k="alt_name" v="Sætervatnet" />
		<tag k="name" v="Sætrevatnet" />
		<tag k="natural" v="water" />
		<tag k="ssr:stedsnr" v="921213" />
	</node>
	<node lat="62.33623055303493" lon="6.203858324518934" id="-8364">
		<tag k="name" v="Storelva" />
		<tag k="ssr:stedsnr" v="921806" />
		<tag k="waterway" v="stream" />
	</node>
	<node lat="62.315705554382504" lon="6.256480550395463" id="-8367">
		<tag k="name" v="Barstaddalselva" />
		<tag k="ssr:stedsnr" v="922405" />
		<tag k="waterway" v="stream" />
	</node>
	<node lat="62.190627779988226" lon="6.0415027801521655" id="-8379">
		<tag k="name" v="Vassvika" />
		<tag k="natural" v="bay" />
		<tag k="ssr:stedsnr" v="947901" />
	</node>
	<node lat="62.17502221867668" lon="6.392336118576377" id="-8382">
		<tag k="name" v="Krokfonna" />
		<tag k="ssr:stedsnr" v="949211" />
		<tag k="waterway" v="stream" />
	</node>
	<node lat="62.29253332941465" lon="6.102766659199718" id="-8384">
		<tag k="name" v="Bytingshøle" />
		<tag k="place" v="locality" />
		<tag k="ssr:stedsnr" v="953096" />
	</node>
	<node lat="62.26428333763824" lon="6.411041673671895" id="-8401">
		<tag k="name" v="Nyesteinsvora" />
		<tag k="ssr:stedsnr" v="954354" />
		<tag k="waterway" v="stream" />
	</node>
	<node lat="62.20740555991846" lon="6.468694442354261" id="-8406">
		<tag k="name" v="Litleelva" />
		<tag k="ssr:stedsnr" v="954708" />
		<tag k="waterway" v="stream" />
	</node>
	<node lat="62.213166670737884" lon="6.239100005751332" id="-8408">
		<tag k="name" v="Bytingsgrova" />
		<tag k="ssr:stedsnr" v="954715" />
		<tag k="waterway" v="stream" />
	</node>
	<node lat="62.164791666028314" lon="6.445222225865733" id="-8409">
		<tag k="name" v="Sætrestøylfonna" />
		<tag k="ssr:stedsnr" v="954722" />
		<tag k="waterway" v="stream" />
	</node>
	<node lat="62.26390833097094" lon="6.238483331328834" id="-8415">
		<tag k="name" v="Langeskredene" />
		<tag k="ssr:stedsnr" v="954698" />
		<tag k="waterway" v="stream" />
	</node>
	<node lat="62.18173610762797" lon="6.720283333126283" id="-8427">
		<tag k="name" v="Kvislane" />
		<tag k="ssr:stedsnr" v="956440" />
		<tag k="waterway" v="stream" />
	</node>
	<node lat="62.168838887204174" lon="6.202274991722133" id="-8441">
		<tag k="name" v="Åmtjørna" />
		<tag k="natural" v="water" />
		<tag k="ssr:stedsnr" v="11048" />
	</node>
	<node lat="62.21525555161542" lon="6.309552779933288" id="-8452">
		<tag k="name" v="Harpedalsvatnet" />
		<tag k="natural" v="water" />
		<tag k="ssr:stedsnr" v="11514" />
	</node>
	<node lat="62.35156389201229" lon="6.285952786530626" id="-8473">
		<tag k="name" v="Mylagjølet" />
		<tag k="ssr:stedsnr" v="32718" />
		<tag k="waterway" v="stream" />
	</node>
	<node lat="62.24228888836956" lon="6.018811115279892" id="-8480">
		<tag k="name" v="Heimsteelva" />
		<tag k="ssr:stedsnr" v="37343" />
		<tag k="waterway" v="stream" />
	</node>
	<node lat="62.19191110735412" lon="6.127827785150113" id="-8483">
		<tag k="name" v="Smørholmen" />
		<tag k="natural" v="cape" />
		<tag k="ssr:stedsnr" v="38152" />
	</node>
	<node lat="62.22257499817038" lon="6.121058333350028" id="-8486">
		<tag k="name" v="Tverrelvane" />
		<tag k="ssr:stedsnr" v="38168" />
		<tag k="waterway" v="stream" />
	</node>
	<node lat="62.29305278133575" lon="6.144486117835968" id="-8488">
		<tag k="name" v="Ljøsafossen" />
		<tag k="natural" v="waterfall" />
		<tag k="ssr:stedsnr" v="43195" />
	</node>
	<node lat="62.17025278002833" lon="6.2048555507862675" id="-8498">
		<tag k="name" v="Storemyra" />
		<tag k="natural" v="water" />
		<tag k="ssr:stedsnr" v="44798" />
	</node>
	<node lat="62.17423611288903" lon="6.198980561980974" id="-8500">
		<tag k="name" v="Leitafossen" />
		<tag k="natural" v="waterfall" />
		<tag k="ssr:stedsnr" v="43896" />
	</node>
	<node lat="62.18359722329411" lon="6.42906666470069" id="-8508">
		<tag k="name" v="Litlesvora" />
		<tag k="ssr:stedsnr" v="44460" />
		<tag k="waterway" v="stream" />
	</node>
	<node lat="62.17175833367882" lon="6.4129916710456865" id="-8512">
		<tag k="name" v="Storefonna" />
		<tag k="ssr:stedsnr" v="44231" />
		<tag k="waterway" v="stream" />
	</node>
	<node lat="62.201491669754134" lon="6.271133327059806" id="-8514">
		<tag k="name" v="Marahola" />
		<tag k="place" v="locality" />
		<tag k="ssr:stedsnr" v="44499" />
	</node>
	<node lat="62.21836944814987" lon="6.2766361021078145" id="-8526">
		<tag k="name" v="Skarelvane" />
		<tag k="ssr:stedsnr" v="44752" />
		<tag k="waterway" v="stream" />
	</node>
	<node lat="62.283486109558275" lon="6.417336111975957" id="-8527">
		<tag k="name" v="Litlefonna" />
		<tag k="ssr:stedsnr" v="44761" />
		<tag k="waterway" v="stream" />
	</node>
	<node lat="62.194025001571525" lon="6.133647223725394" id="-8533">
		<tag k="alt_name" v="Rossåa" />
		<tag k="name" v="Rossåna" />
		<tag k="ssr:stedsnr" v="71129" />
		<tag k="waterway" v="river" />
	</node>
	<node lat="62.34975278007517" lon="6.348513897200874" id="-8540">
		<tag k="name" v="Svara" />
		<tag k="ssr:stedsnr" v="71450" />
		<tag k="waterway" v="stream" />
	</node>
	<node lat="62.34447222232787" lon="6.344380564944699" id="-8549">
		<tag k="name" v="Øyreelva" />
		<tag k="ssr:stedsnr" v="72386" />
		<tag k="waterway" v="stream" />
	</node>
	<node lat="62.318880558799684" lon="6.228736106452232" id="-8551">
		<tag k="name" v="Klovvatnet" />
		<tag k="natural" v="water" />
		<tag k="ssr:stedsnr" v="72424" />
	</node>
	<node lat="62.27329166261119" lon="6.132972226211031" id="-8567">
		<tag k="name" v="Litledalsvatnet" />
		<tag k="natural" v="water" />
		<tag k="ssr:stedsnr" v="81355" />
		<tag k="water" v="lake" />
	</node>
	<node lat="62.23554444111217" lon="6.086869449606526" id="-8588">
		<tag k="name" v="Vasskoppelva" />
		<tag k="ssr:stedsnr" v="104063" />
		<tag k="waterway" v="stream" />
	</node>
	<node lat="62.260408331487646" lon="6.392555550179915" id="-8590">
		<tag k="name" v="Fladalselva" />
		<tag k="ssr:stedsnr" v="104333" />
		<tag k="waterway" v="stream" />
	</node>
	<node lat="62.222274996543156" lon="6.533302772283791" id="-8603">
		<tag k="name" v="Tregrovene" />
		<tag k="ssr:stedsnr" v="105153" />
		<tag k="waterway" v="stream" />
	</node>
	<node lat="62.26297777743274" lon="6.241866664960494" id="-8607">
		<tag k="name" v="Langedalselva" />
		<tag k="ssr:stedsnr" v="105661" />
		<tag k="waterway" v="stream" />
	</node>
	<node lat="62.23154444386208" lon="6.29082777954724" id="-8617">
		<tag k="name" v="Steindøla" />
		<tag k="ssr:stedsnr" v="105445" />
		<tag k="waterway" v="stream" />
	</node>
	<node lat="62.198675000073116" lon="6.466077771858826" id="-8620">
		<tag k="name" v="Tongelva" />
		<tag k="ssr:stedsnr" v="105456" />
		<tag k="waterway" v="stream" />
	</node>
	<node lat="62.281383330004665" lon="6.415597222146556" id="-8625">
		<tag k="name" v="Lissjestreken" />
		<tag k="ssr:stedsnr" v="105757" />
		<tag k="waterway" v="stream" />
	</node>
	<node lat="62.16045277543555" lon="6.290933329455592" id="-8645">
		<tag k="name" v="Dalsskarvatnet" />
		<tag k="natural" v="water" />
		<tag k="ssr:stedsnr" v="132586" />
	</node>
	<node lat="62.16567222450789" lon="6.523572214934399" id="-8647">
		<tag k="name" v="Sætrevatnet" />
		<tag k="natural" v="water" />
		<tag k="ssr:stedsnr" v="132593" />
	</node>
	<node lat="62.185811110546396" lon="6.4054944448950835" id="-8654">
		<tag k="name" v="Årsetelva" />
		<tag k="ssr:stedsnr" v="132613" />
		<tag k="waterway" v="river" />
	</node>
	<node lat="62.29682499758775" lon="6.308902778426194" id="-8657">
		<tag k="name" v="Solliskarvatnet" />
		<tag k="natural" v="water" />
		<tag k="ssr:stedsnr" v="133426" />
	</node>
	<node lat="62.29701388562068" lon="6.226641663205367" id="-8658">
		<tag k="name" v="Fyllingselva" />
		<tag k="ssr:stedsnr" v="133429" />
		<tag k="waterway" v="stream" />
	</node>
	<node lat="62.1470722338547" lon="6.288034511476343" id="-8663">
		<tag k="name" v="Bondalseidet" />
		<tag k="natural" v="isthmus" />
		<tag k="place" v="locality" />
		<tag k="ssr:stedsnr" v="142521" />
	</node>
	<node lat="62.15912499850456" lon="6.256197213320123" id="-8673">
		<tag k="name" v="Vielva" />
		<tag k="ssr:stedsnr" v="153821" />
		<tag k="waterway" v="stream" />
	</node>
	<node lat="62.16062499547971" lon="6.274374991457242" id="-8674">
		<tag k="name" v="Høgetugjølet" />
		<tag k="ssr:stedsnr" v="153822" />
		<tag k="waterway" v="stream" />
	</node>
	<node lat="62.24524444308545" lon="6.0293888986240445" id="-8682">
		<tag k="name" v="Fremsteelva" />
		<tag k="ssr:stedsnr" v="159424" />
		<tag k="waterway" v="stream" />
	</node>
	<node lat="62.2915194485882" lon="6.108274996492595" id="-8684">
		<tag k="name" v="Årsethølen" />
		<tag k="place" v="locality" />
		<tag k="ssr:stedsnr" v="164101" />
	</node>
	<node lat="62.27010833030918" lon="6.004469445310504" id="-8688">
		<tag k="name" v="Svora" />
		<tag k="ssr:stedsnr" v="164770" />
		<tag k="waterway" v="stream" />
	</node>
	<node lat="62.16054444802966" lon="6.359119441335082" id="-8691">
		<tag k="name" v="Støylegrova" />
		<tag k="ssr:stedsnr" v="165143" />
		<tag k="waterway" v="stream" />
	</node>
	<node lat="62.21861388917449" lon="6.3062972181957635" id="-8692">
		<tag k="name" v="Harpedalselva" />
		<tag k="ssr:stedsnr" v="165146" />
		<tag k="waterway" v="stream" />
	</node>
	<node lat="62.24765278188418" lon="6.461988879710796" id="-8699">
		<tag k="name" v="Tverfonna" />
		<tag k="ssr:stedsnr" v="165043" />
		<tag k="waterway" v="stream" />
	</node>
	<node lat="62.17309722244481" lon="6.330183337948934" id="-8703">
		<tag k="name" v="Sandfonna" />
		<tag k="ssr:stedsnr" v="165183" />
		<tag k="waterway" v="stream" />
	</node>
	<node lat="62.21443055671074" lon="6.538983333638508" id="-8712">
		<tag k="name" v="Kåseelva" />
		<tag k="ssr:stedsnr" v="165324" />
		<tag k="waterway" v="stream" />
	</node>
	<node lat="62.30447222258195" lon="6.403513883509622" id="-8715">
		<tag k="name" v="Remegjølet" />
		<tag k="ssr:stedsnr" v="165299" />
		<tag k="waterway" v="stream" />
	</node>
	<node lat="62.20404444154896" lon="6.465133331886628" id="-8726">
		<tag k="name" v="Jokvisla" />
		<tag k="ssr:stedsnr" v="165722" />
		<tag k="waterway" v="stream" />
	</node>
	<node lat="62.171780559683306" lon="6.204708323964873" id="-8738">
		<tag k="name" v="Storeøyna" />
		<tag k="natural" v="peninsula" />
		<tag k="place" v="locality" />
		<tag k="ssr:stedsnr" v="165833" />
	</node>
	<node lat="62.25608055830152" lon="6.512819435335532" id="-8754">
		<tag k="alt_name" v="Trandalselva, in" />
		<tag k="name" v="Indre Trandalselva" />
		<tag k="ssr:stedsnr" v="193275" />
		<tag k="waterway" v="stream" />
	</node>
	<node lat="62.23119166856187" lon="6.249669442517957" id="-8757">
		<tag k="name" v="Ljosåa" />
		<tag k="ssr:stedsnr" v="193567" />
		<tag k="waterway" v="stream" />
	</node>
	<node lat="62.29474166864414" lon="6.123291660936868" id="-8791">
		<tag k="name" v="Raudebrauta" />
		<tag k="ssr:stedsnr" v="286251" />
		<tag k="waterway" v="stream" />
	</node>
	<node lat="62.281180558287666" lon="6.1121277806167615" id="-8806">
		<tag k="name" v="Skjerva" />
		<tag k="ssr:stedsnr" v="287274" />
		<tag k="waterway" v="stream" />
	</node>
	<node lat="62.22169722136589" lon="6.2404972199025295" id="-8819">
		<tag k="name" v="Geitafossen" />
		<tag k="natural" v="waterfall" />
		<tag k="ssr:stedsnr" v="287750" />
	</node>
	<node lat="62.19458055865795" lon="6.226275004574053" id="-8822">
		<tag k="name" v="Kyrkjevollgrova" />
		<tag k="ssr:stedsnr" v="287713" />
		<tag k="waterway" v="stream" />
	</node>
	<node lat="62.15430277393123" lon="6.454602783302704" id="-8825">
		<tag k="name" v="Trolldalselva" />
		<tag k="ssr:stedsnr" v="287724" />
		<tag k="waterway" v="stream" />
	</node>
	<node lat="62.33787222272537" lon="6.198499998557594" id="-8833">
		<tag k="name" v="Koldelva" />
		<tag k="ssr:stedsnr" v="287988" />
		<tag k="waterway" v="stream" />
	</node>
	<node lat="62.20389444744883" lon="6.24029444034846" id="-8837">
		<tag k="name" v="Strandaholmen" />
		<tag k="place" v="islet" />
		<tag k="ssr:stedsnr" v="287775" />
	</node>
	<node lat="62.117116669379335" lon="6.2888916676519235" id="-8838">
		<tag k="name" v="Klyfteskreda" />
		<tag k="ssr:stedsnr" v="287780" />
		<tag k="waterway" v="stream" />
	</node>
	<node lat="62.30501388526899" lon="6.099380564377013" id="-8843">
		<tag k="name" v="Kvernelva" />
		<tag k="ssr:stedsnr" v="294187" />
		<tag k="waterway" v="stream" />
	</node>
	<node lat="62.24026111459494" lon="6.350125003732453" id="-8846">
		<tag k="name" v="Koppelva" />
		<tag k="ssr:stedsnr" v="309293" />
		<tag k="waterway" v="stream" />
	</node>
	<node lat="62.23375277515559" lon="6.02931111407648" id="-8847">
		<tag k="name" v="Nakkevatnet" />
		<tag k="natural" v="water" />
		<tag k="ssr:stedsnr" v="314180" />
	</node>
	<node lat="62.265622226573214" lon="6.082955555100501" id="-8851">
		<tag k="alt_name" v="Risaskarvatnet, store;Risaskarvatnet" />
		<tag k="fixme" v="multiple name tags, choose one and add the other to alt_name" />
		<tag k="name" v="Skarevatnet;Store Risaskarvatnet" />
		<tag k="natural" v="water" />
		<tag k="ssr:stedsnr" v="314244" />
		<tag k="water" v="lake" />
	</node>
	<node lat="62.3682083300241" lon="6.339013894152001" id="-8856">
		<tag k="name" v="Ferneselva" />
		<tag k="ssr:stedsnr" v="314414" />
		<tag k="waterway" v="stream" />
	</node>
	<node lat="62.15613333120569" lon="6.690316672399075" id="-8859">
		<tag k="name" v="Ulvedalsvatna" />
		<tag k="natural" v="water" />
		<tag k="ssr:stedsnr" v="314595" />
	</node>
	<node lat="62.22165278201849" lon="6.228444436722938" id="-8871">
		<tag k="name" v="Fyldalselva" />
		<tag k="ssr:stedsnr" v="314559" />
		<tag k="waterway" v="stream" />
	</node>
	<node lat="62.35872222331921" lon="6.253136107985231" id="-8883">
		<tag k="name" v="Svora" />
		<tag k="ssr:stedsnr" v="336998" />
		<tag k="waterway" v="stream" />
	</node>
	<node lat="62.15228055999652" lon="6.3871944452793326" id="-8896">
		<tag k="name" v="Eljefonna" />
		<tag k="ssr:stedsnr" v="347179" />
		<tag k="waterway" v="stream" />
	</node>
	<node lat="62.164227775025466" lon="6.302549991839044" id="-8897">
		<tag k="name" v="Korsvatnet" />
		<tag k="natural" v="water" />
		<tag k="ssr:stedsnr" v="347186" />
	</node>
	<node lat="62.15936389238973" lon="6.302933323722733" id="-8898">
		<tag k="name" v="Litlevatnet" />
		<tag k="natural" v="water" />
		<tag k="ssr:stedsnr" v="347187" />
	</node>
	<node lat="62.25287221987096" lon="6.357233337827595" id="-8904">
		<tag k="name" v="Fossane" />
		<tag k="natural" v="waterfall" />
		<tag k="ssr:stedsnr" v="347034" />
	</node>
	<node lat="62.18278888940147" lon="6.36268332593254" id="-8907">
		<tag k="name" v="Storegrova" />
		<tag k="ssr:stedsnr" v="347061" />
		<tag k="waterway" v="stream" />
	</node>
	<node lat="62.202552779591436" lon="6.274638890282307" id="-8918">
		<tag k="name" v="Gamlegjerdgrova" />
		<tag k="ssr:stedsnr" v="347545" />
		<tag k="waterway" v="stream" />
	</node>
	<node lat="62.24960096467903" lon="6.368536161067058" id="-8925">
		<tag k="loc_name" v="Krekegrova;Krikagrova" />
		<tag k="name" v="Kvikegrova" />
		<tag k="ssr:stedsnr" v="347360" />
		<tag k="waterway" v="stream" />
	</node>
	<node lat="62.262727776821414" lon="6.175391668408101" id="-8928">
		<tag k="name" v="Vassdalelva" />
		<tag k="ssr:stedsnr" v="347640" />
		<tag k="waterway" v="stream" />
	</node>
	<node lat="62.23367222517366" lon="6.243322231518799" id="-8929">
		<tag k="name" v="Ljøsådalsvatnet" />
		<tag k="natural" v="water" />
		<tag k="ssr:stedsnr" v="347660" />
	</node>
	<node lat="62.171802775020886" lon="6.199719440152856" id="-8945">
		<tag k="name" v="Løken" />
		<tag k="ssr:stedsnr" v="347844" />
		<tag k="waterway" v="stream" />
	</node>
	<node lat="62.23423333136113" lon="6.531644449124119" id="-8949">
		<tag k="name" v="Steinaslættjølet" />
		<tag k="ssr:stedsnr" v="348133" />
		<tag k="waterway" v="stream" />
	</node>
	<node lat="62.19231666416153" lon="6.689266665902228" id="-8952">
		<tag k="name" v="Skjerfonngrova" />
		<tag k="ssr:stedsnr" v="348432" />
		<tag k="waterway" v="stream" />
	</node>
	<node lat="62.23424444187101" lon="6.348047224891984" id="-8956">
		<tag k="name" v="Svartåstjønna" />
		<tag k="natural" v="water" />
		<tag k="ssr:stedsnr" v="369244" />
	</node>
	<node lat="62.22691389334531" lon="6.187250005711146" id="-8958">
		<tag k="name" v="Fossane" />
		<tag k="natural" v="waterfall" />
		<tag k="ssr:stedsnr" v="374093" />
	</node>
	<node lat="62.23500833093621" lon="6.102663892689489" id="-8965">
		<tag k="name" v="Vasskoppevatnet" />
		<tag k="natural" v="water" />
		<tag k="ssr:stedsnr" v="375153" />
		<tag k="water" v="lake" />
	</node>
	<node lat="62.21908610876399" lon="6.637577779869099" id="-8975">
		<tag k="name" v="Litlevatnet" />
		<tag k="natural" v="water" />
		<tag k="ssr:stedsnr" v="375484" />
	</node>
	<node lat="62.34573889306097" lon="6.280694450905848" id="-8992">
		<tag k="name" v="Tverrelva" />
		<tag k="ssr:stedsnr" v="396734" />
		<tag k="waterway" v="river" />
	</node>
	<node lat="62.250916668898874" lon="5.984355560059935" id="-9004">
		<tag k="name" v="Ormedalselva" />
		<tag k="ssr:stedsnr" v="402420" />
		<tag k="waterway" v="stream" />
	</node>
	<node lat="62.289322218546836" lon="6.102530557057378" id="-9006">
		<tag k="name" v="Sotå" />
		<tag k="ssr:stedsnr" v="407046" />
		<tag k="waterway" v="stream" />
	</node>
	<node lat="62.24168333339373" lon="6.45971665786128" id="-9024">
		<tag k="name" v="Høydalsfonna" />
		<tag k="ssr:stedsnr" v="408185" />
		<tag k="waterway" v="stream" />
	</node>
	<node lat="62.15446944243873" lon="6.379525001940547" id="-9027">
		<tag k="name" v="Skadefonna" />
		<tag k="ssr:stedsnr" v="408194" />
		<tag k="waterway" v="stream" />
	</node>
	<node lat="62.173697223004176" lon="6.371786116625609" id="-9031">
		<tag k="name" v="Ådalselva" />
		<tag k="ssr:stedsnr" v="408245" />
		<tag k="waterway" v="river" />
	</node>
	<node lat="62.17191110988165" lon="6.524658339413313" id="-9055">
		<tag k="name" v="Krusa" />
		<tag k="ssr:stedsnr" v="408734" />
		<tag k="waterway" v="stream" />
	</node>
	<node lat="62.19237778102755" lon="6.6940888927608855" id="-9063">
		<tag k="name" v="Karvigrova" />
		<tag k="ssr:stedsnr" v="409437" />
		<tag k="waterway" v="stream" />
	</node>
	<node lat="62.17530555498268" lon="6.72883056312493" id="-9069">
		<tag k="name" v="Lygnstøylvatnet" />
		<tag k="natural" v="water" />
		<tag k="ssr:stedsnr" v="435353" />
	</node>
	<node lat="62.17945278174346" lon="6.688863883130706" id="-9074">
		<tag k="name" v="Tverråa" />
		<tag k="ssr:stedsnr" v="435629" />
		<tag k="waterway" v="stream" />
	</node>
	<node lat="62.257822221028434" lon="6.513252768740698" id="-9079">
		<tag k="name" v="Rimegrova" />
		<tag k="ssr:stedsnr" v="436263" />
		<tag k="waterway" v="stream" />
	</node>
	<node lat="62.306430556217464" lon="6.241752785581231" id="-9080">
		<tag k="name" v="Storevatnet" />
		<tag k="natural" v="water" />
		<tag k="ssr:stedsnr" v="436430" />
	</node>
	<node lat="62.30529444612723" lon="6.293150006044611" id="-9081">
		<tag k="name" v="Storfossen" />
		<tag k="natural" v="waterfall" />
		<tag k="ssr:stedsnr" v="436432" />
	</node>
	<node lat="62.2245194481296" lon="6.377683340738608" id="-9086">
		<tag k="name" v="Koppvatnet" />
		<tag k="natural" v="water" />
		<tag k="ssr:stedsnr" v="436521" />
	</node>
	<node lat="62.120269443791116" lon="6.274997223099584" id="-9097">
		<tag k="name" v="Daurmålsvatnet" />
		<tag k="natural" v="water" />
		<tag k="ssr:stedsnr" v="436660" />
	</node>
	<node lat="62.34945277843028" lon="6.323997221544812" id="-9106">
		<tag k="name" v="Skarbøvatnet" />
		<tag k="natural" v="water" />
		<tag k="ssr:stedsnr" v="496451" />
	</node>
	<node lat="62.219027777282825" lon="6.057105546190604" id="-9110">
		<tag k="name" v="Skorgeelva" />
		<tag k="ssr:stedsnr" v="496075" />
		<tag k="waterway" v="stream" />
	</node>
	<node lat="62.245127778822734" lon="6.351452779731242" id="-9116">
		<tag k="name" v="Standalvatnet" />
		<tag k="natural" v="water" />
		<tag k="ssr:stedsnr" v="496583" />
	</node>
	<node lat="62.30909444276597" lon="6.325175002770854" id="-9128">
		<tag k="name" v="Storevatnet" />
		<tag k="natural" v="water" />
		<tag k="ssr:stedsnr" v="497428" />
	</node>
	<node lat="62.3323083377606" lon="6.280691673043649" id="-9149">
		<tag k="name" v="Svægjølet" />
		<tag k="ssr:stedsnr" v="518785" />
		<tag k="waterway" v="stream" />
	</node>
	<node lat="62.31997499647062" lon="6.283474994885136" id="-9151">
		<tag k="name" v="Oksegjølet" />
		<tag k="ssr:stedsnr" v="518942" />
		<tag k="waterway" v="stream" />
	</node>
	<node lat="62.31158055617809" lon="6.275638891501141" id="-9152">
		<tag k="name" v="Storegjølet" />
		<tag k="ssr:stedsnr" v="518944" />
		<tag k="waterway" v="stream" />
	</node>
	<node lat="62.186805555148666" lon="6.0388305601819114" id="-9157">
		<tag k="name" v="Buvika" />
		<tag k="natural" v="bay" />
		<tag k="ssr:stedsnr" v="522894" />
	</node>
	<node lat="62.292850001056344" lon="6.0987194526224915" id="-9160">
		<tag k="name" v="Øyehølen" />
		<tag k="place" v="locality" />
		<tag k="ssr:stedsnr" v="528096" />
	</node>
	<node lat="62.16995832961746" lon="6.438841669217146" id="-9167">
		<tag k="name" v="Nakkefonna" />
		<tag k="ssr:stedsnr" v="529724" />
		<tag k="waterway" v="stream" />
	</node>
	<node lat="62.19525277481508" lon="6.4676638912710605" id="-9182">
		<tag k="name" v="Fossane" />
		<tag k="natural" v="waterfall" />
		<tag k="ssr:stedsnr" v="529428" />
	</node>
	<node lat="62.22426388954146" lon="6.303863894753034" id="-9184">
		<tag k="name" v="Smådalselva" />
		<tag k="ssr:stedsnr" v="529274" />
		<tag k="waterway" v="stream" />
	</node>
	<node lat="62.26250833381285" lon="6.208888884052547" id="-9195">
		<tag k="name" v="Gopeelva" />
		<tag k="ssr:stedsnr" v="529662" />
		<tag k="waterway" v="stream" />
	</node>
	<node lat="62.1578111073484" lon="6.514458330604572" id="-9227">
		<tag k="name" v="Holtreggvatnet" />
		<tag k="natural" v="water" />
		<tag k="ssr:stedsnr" v="556624" />
	</node>
	<node lat="62.262130553973705" lon="6.134497222099655" id="-9235">
		<tag k="name" v="Grasvatnet" />
		<tag k="natural" v="water" />
		<tag k="ssr:stedsnr" v="556232" />
	</node>
	<node lat="62.254327775629335" lon="6.1186111112044" id="-9236">
		<tag k="name" v="Åsalvatnet" />
		<tag k="natural" v="water" />
		<tag k="ssr:stedsnr" v="556235" />
	</node>
	<node lat="62.266952778035176" lon="6.185347229886208" id="-9240">
		<tag k="name" v="Grytaelva" />
		<tag k="ssr:stedsnr" v="556243" />
		<tag k="waterway" v="stream" />
	</node>
	<node lat="62.23433333304586" lon="6.31507222946286" id="-9243">
		<tag k="name" v="Steindøla" />
		<tag k="ssr:stedsnr" v="556585" />
		<tag k="waterway" v="stream" />
	</node>
	<node lat="62.302511112382966" lon="6.287130553594431" id="-9250">
		<tag k="name" v="Heimstevatnet" />
		<tag k="natural" v="water" />
		<tag k="ssr:stedsnr" v="557432" />
	</node>
	<node lat="62.31342222258303" lon="6.167313879915192" id="-9254">
		<tag k="fixme" v="multiple name tags, choose one and add the other to alt_name" />
		<tag k="name" v="Storelva;Nordrevartdalselva" />
		<tag k="ssr:stedsnr" v="557647" />
		<tag k="waterway" v="river" />
	</node>
	<node lat="62.366869444289726" lon="6.297119443649451" id="-9265">
		<tag k="name" v="Slettesvora" />
		<tag k="ssr:stedsnr" v="578988" />
		<tag k="waterway" v="stream" />
	</node>
	<node lat="62.33331388461732" lon="6.280005547813079" id="-9266">
		<tag k="name" v="Vassgjølet" />
		<tag k="ssr:stedsnr" v="578763" />
		<tag k="waterway" v="stream" />
	</node>
	<node lat="62.35132500009145" lon="6.271547231295878" id="-9267">
		<tag k="name" v="Odden" />
		<tag k="natural" v="cape" />
		<tag k="ssr:stedsnr" v="578767" />
	</node>
	<node lat="62.20101944288272" lon="6.249574999719711" id="-9285">
		<tag k="name" v="Raudegrova" />
		<tag k="ssr:stedsnr" v="589572" />
		<tag k="waterway" v="stream" />
	</node>
	<node lat="62.13842500387432" lon="6.280772226386294" id="-9286">
		<tag k="name" v="Bjørdalsvatnet" />
		<tag k="natural" v="water" />
		<tag k="ssr:stedsnr" v="590283" />
	</node>
	<node lat="62.283327774818495" lon="6.067980548118143" id="-9296">
		<tag k="name" v="Koppevatnet" />
		<tag k="natural" v="water" />
		<tag k="ssr:stedsnr" v="590230" />
		<tag k="water" v="lake" />
	</node>
	<node lat="62.169247221136565" lon="6.375941663321679" id="-9298">
		<tag k="name" v="Skinstødet" />
		<tag k="place" v="locality" />
		<tag k="ssr:stedsnr" v="590237" />
	</node>
	<node lat="62.18052222556948" lon="6.18299722862465" id="-9304">
		<tag k="name" v="Åmotet" />
		<tag k="place" v="locality" />
		<tag k="ssr:stedsnr" v="590645" />
	</node>
	<node lat="62.31156110910088" lon="6.396597228599003" id="-9312">
		<tag k="name" v="Styrkefonna" />
		<tag k="ssr:stedsnr" v="590804" />
		<tag k="waterway" v="stream" />
	</node>
	<node lat="62.28869591147058" lon="6.146503998564495" id="-9331">
		<tag k="alt_name" v="Ljoselva, fremste" />
		<tag k="name" v="Fremste Ljoselva" />
		<tag k="ssr:stedsnr" v="617164" />
		<tag k="waterway" v="stream" />
	</node>
	<node lat="62.20118055846446" lon="6.44866665713576" id="-9337">
		<tag k="name" v="Bondalselva" />
		<tag k="ssr:stedsnr" v="617534" />
		<tag k="waterway" v="river" />
	</node>
	<node lat="62.14495555383258" lon="6.232638886915958" id="-9341">
		<tag k="name" v="Vatnevatnet" />
		<tag k="natural" v="water" />
		<tag k="ssr:stedsnr" v="617573" />
		<tag k="water" v="lake" />
	</node>
	<node lat="62.13468888514644" lon="6.425811119394175" id="-9342">
		<tag k="name" v="Rognestøylsvatna" />
		<tag k="natural" v="water" />
		<tag k="ssr:stedsnr" v="617584" />
	</node>
	<node lat="62.18936388485559" lon="6.303686113274169" id="-9343">
		<tag k="name" v="Tryvatna" />
		<tag k="natural" v="water" />
		<tag k="ssr:stedsnr" v="617616" />
	</node>
	<node lat="62.33651666434742" lon="6.2807027700527" id="-9359">
		<tag k="name" v="Garsendgjølet" />
		<tag k="ssr:stedsnr" v="639801" />
		<tag k="waterway" v="stream" />
	</node>
	<node lat="62.329855555351365" lon="6.441255556613294" id="-9369">
		<tag k="name" v="Hauelva" />
		<tag k="ssr:stedsnr" v="644060" />
		<tag k="waterway" v="stream" />
	</node>
	<node lat="62.186380554468194" lon="6.225250003607417" id="-9380">
		<tag k="name" v="Moafossen" />
		<tag k="natural" v="waterfall" />
		<tag k="ssr:stedsnr" v="650664" />
	</node>
	<node lat="62.34113611390288" lon="6.223124991476403" id="-9412">
		<tag k="name" v="Kokelvgjølet" />
		<tag k="ssr:stedsnr" v="650980" />
		<tag k="waterway" v="stream" />
	</node>
	<node lat="62.14963611299483" lon="6.389638895998641" id="-9420">
		<tag k="name" v="Koppefonna" />
		<tag k="ssr:stedsnr" v="651187" />
		<tag k="waterway" v="stream" />
	</node>
	<node lat="62.22458888844529" lon="6.57602221648298" id="-9432">
		<tag k="name" v="Seljekvitla" />
		<tag k="ssr:stedsnr" v="651688" />
		<tag k="waterway" v="stream" />
	</node>
	<node lat="62.323322218740294" lon="6.282863896860557" id="-9442">
		<tag k="name" v="Storegjølet" />
		<tag k="ssr:stedsnr" v="700949" />
		<tag k="waterway" v="stream" />
	</node>
	<node lat="62.18255277729356" lon="6.514397222532916" id="-9457">
		<tag k="name" v="Litledalselva" />
		<tag k="ssr:stedsnr" v="711064" />
		<tag k="waterway" v="stream" />
	</node>
	<node lat="62.25181666472786" lon="6.3715611164030905" id="-9459">
		<tag k="name" v="Kvislene" />
		<tag k="ssr:stedsnr" v="711391" />
		<tag k="waterway" v="stream" />
	</node>
	<node lat="62.1300833379343" lon="6.418519450614681" id="-9481">
		<tag k="name" v="Tverelva" />
		<tag k="ssr:stedsnr" v="711876" />
		<tag k="waterway" v="stream" />
	</node>
	<node lat="62.14931111326737" lon="6.23616665785239" id="-9491">
		<tag k="name" v="Langeneset" />
		<tag k="natural" v="cape" />
		<tag k="ssr:stedsnr" v="711493" />
	</node>
	<node lat="62.33781388801566" lon="6.3618472274717135" id="-9509">
		<tag k="name" v="Saltreelva" />
		<tag k="ssr:stedsnr" v="712759" />
		<tag k="waterway" v="stream" />
	</node>
	<node lat="62.22783333401015" lon="6.579269439759201" id="-9513">
		<tag k="name" v="Djupøyane" />
		<tag k="place" v="island" />
		<tag k="ssr:stedsnr" v="712676" />
	</node>
	<node lat="62.18505555791585" lon="6.669758330986047" id="-9515">
		<tag k="name" v="Skitnegrovna" />
		<tag k="ssr:stedsnr" v="713426" />
		<tag k="waterway" v="stream" />
	</node>
	<node lat="62.261319443151" lon="6.0963388954020825" id="-9520">
		<tag k="name" v="Svartevatna" />
		<tag k="natural" v="water" />
		<tag k="ssr:stedsnr" v="738210" />
	</node>
	<node lat="62.24997222539761" lon="6.12378610960982" id="-9522">
		<tag k="name" v="Omnsvatnet" />
		<tag k="natural" v="water" />
		<tag k="ssr:stedsnr" v="738194" />
	</node>
	<node lat="62.21572500403418" lon="6.683722228460479" id="-9526">
		<tag k="name" v="Isavatnet" />
		<tag k="natural" v="water" />
		<tag k="ssr:stedsnr" v="738502" />
	</node>
	<node lat="62.11287777914588" lon="6.353011119341244" id="-9532">
		<tag k="name" v="Kvanndalsvatnet" />
		<tag k="natural" v="water" />
		<tag k="ssr:stedsnr" v="739668" />
		<tag k="water" v="lake" />
	</node>
	<node lat="62.288761112816566" lon="6.523252785294414" id="-9546">
		<tag k="name" v="Tverrelvane" />
		<tag k="ssr:stedsnr" v="740465" />
		<tag k="waterway" v="stream" />
	</node>
	<node lat="62.29133611395753" lon="6.290355561344244" id="-9549">
		<tag k="name" v="Brillevatnet" />
		<tag k="natural" v="water" />
		<tag k="ssr:stedsnr" v="740469" />
	</node>
	<node lat="62.32280555221325" lon="6.269008333605308" id="-9558">
		<tag k="name" v="Fyrselva" />
		<tag k="ssr:stedsnr" v="760961" />
		<tag k="waterway" v="river" />
	</node>
	<node lat="62.33205555866045" lon="6.257902768606024" id="-9560">
		<tag k="name" v="Storegjølet" />
		<tag k="ssr:stedsnr" v="760771" />
		<tag k="waterway" v="stream" />
	</node>
	<node lat="62.35781389220199" lon="6.2742972305483065" id="-9562">
		<tag k="name" v="Storelva" />
		<tag k="ssr:stedsnr" v="760986" />
		<tag k="waterway" v="river" />
	</node>
	<node lat="62.20543116966058" lon="6.148806810564708" id="-9569">
		<tag k="name" v="Skytjeåa" />
		<tag k="old_name" v="Skytjeåna" />
		<tag k="ssr:stedsnr" v="766049" />
		<tag k="waterway" v="river" />
	</node>
	<node lat="62.2046527741289" lon="6.170877770599203" id="-9570">
		<tag k="name" v="Tverrelvane" />
		<tag k="ssr:stedsnr" v="766349" />
		<tag k="waterway" v="stream" />
	</node>
	<node lat="62.25321388594158" lon="6.033269446647124" id="-9571">
		<tag k="name" v="Skålaelva" />
		<tag k="ssr:stedsnr" v="766380" />
		<tag k="waterway" v="stream" />
	</node>
	<node lat="62.23920555418442" lon="6.223466669344406" id="-9575">
		<tag k="name" v="Svarterabbsvatnet" />
		<tag k="natural" v="water" />
		<tag k="ssr:stedsnr" v="771254" />
	</node>
	<node lat="62.187963886722805" lon="6.190691667836025" id="-9583">
		<tag k="name" v="Bytingsgrova" />
		<tag k="ssr:stedsnr" v="771952" />
		<tag k="waterway" v="stream" />
	</node>
	<node lat="62.229091662931616" lon="6.202333331444286" id="-9587">
		<tag k="name" v="Sætreelva" />
		<tag k="ssr:stedsnr" v="772239" />
		<tag k="waterway" v="stream" />
	</node>
	<node lat="62.2765916674258" lon="6.484758328822968" id="-9590">
		<tag k="name" v="Fossane" />
		<tag k="natural" v="waterfall" />
		<tag k="ssr:stedsnr" v="772263" />
	</node>
	<node lat="62.23328333724881" lon="6.3265166624281015" id="-9592">
		<tag k="name" v="Kalvedalselva" />
		<tag k="ssr:stedsnr" v="772271" />
		<tag k="waterway" v="stream" />
	</node>
	<node lat="62.232249996530896" lon="6.309063882548021" id="-9593">
		<tag k="name" v="Strandabrufossen" />
		<tag k="natural" v="waterfall" />
		<tag k="ssr:stedsnr" v="772284" />
	</node>
	<node lat="62.2323055538183" lon="6.2970638865616735" id="-9594">
		<tag k="name" v="Sætreholmane" />
		<tag k="place" v="islet" />
		<tag k="ssr:stedsnr" v="772292" />
	</node>
	<node lat="62.137430557770614" lon="6.285233326523175" id="-9595">
		<tag k="name" v="Bjørdalselva" />
		<tag k="ssr:stedsnr" v="772293" />
		<tag k="waterway" v="stream" />
	</node>
	<node lat="62.25770555480758" lon="6.211250004226689" id="-9612">
		<tag k="name" v="Stillelva" />
		<tag k="ssr:stedsnr" v="772653" />
		<tag k="waterway" v="stream" />
	</node>
	<node lat="62.22625277959433" lon="6.6276777699448015" id="-9615">
		<tag k="name" v="Sætreneset" />
		<tag k="natural" v="cape" />
		<tag k="ssr:stedsnr" v="772892" />
	</node>
	<node lat="62.323455557951796" lon="6.366849992862973" id="-9619">
		<tag k="name" v="Uttaforvatnet" />
		<tag k="natural" v="water" />
		<tag k="ssr:stedsnr" v="772828" />
	</node>
	<node lat="62.133558330313555" lon="6.424044442072964" id="-9631">
		<tag k="name" v="Svartevika" />
		<tag k="natural" v="bay" />
		<tag k="ssr:stedsnr" v="787893" />
	</node>
	<node lat="62.186022219396044" lon="6.255161109977999" id="-9635">
		<tag k="name" v="Kliåa" />
		<tag k="ssr:stedsnr" v="799626" />
		<tag k="waterway" v="stream" />
	</node>
	<node lat="62.176694444807424" lon="6.188711115197041" id="-9637">
		<tag k="name" v="Åmdalselva" />
		<tag k="ssr:stedsnr" v="800028" />
		<tag k="waterway" v="river" />
	</node>
	<node lat="62.27785833164941" lon="6.512275001980741" id="-9639">
		<tag k="name" v="Trandalselva" />
		<tag k="ssr:stedsnr" v="800268" />
		<tag k="waterway" v="stream" />
	</node>
	<node lat="62.333633330048336" lon="6.272441669307159" id="-9641">
		<tag k="name" v="Barstadelva" />
		<tag k="ssr:stedsnr" v="800426" />
		<tag k="waterway" v="river" />
	</node>
	<node lat="62.31164166502296" lon="6.227413889827178" id="-9645">
		<tag k="name" v="Litledalsvatnet" />
		<tag k="natural" v="water" />
		<tag k="ssr:stedsnr" v="800444" />
	</node>
	<node lat="62.149888887871725" lon="6.4905194426873" id="-9652">
		<tag k="name" v="Fjellvatna" />
		<tag k="natural" v="water" />
		<tag k="ssr:stedsnr" v="800574" />
	</node>
	<node lat="62.15118889300071" lon="6.477547221485222" id="-9655">
		<tag k="name" v="Vasstøylvatnet" />
		<tag k="natural" v="water" />
		<tag k="ssr:stedsnr" v="800600" />
	</node>
	<node lat="62.21550555810659" lon="6.457983331239034" id="-9670">
		<tag k="name" v="Strupen" />
		<tag k="place" v="locality" />
		<tag k="ssr:stedsnr" v="825197" />
	</node>
	<node lat="62.19075000159851" lon="6.043916665397962" id="-9672">
		<tag k="name" v="Vassvika" />
		<tag k="natural" v="bay" />
		<tag k="ssr:stedsnr" v="826879" />
	</node>
	<node lat="62.186877776340594" lon="6.057883328472395" id="-9674">
		<tag k="name" v="Osen" />
		<tag k="natural" v="bay" />
		<tag k="ssr:stedsnr" v="826900" />
	</node>
	<node lat="62.28889166660145" lon="6.101044448971187" id="-9681">
		<tag k="name" v="Sotevatnet" />
		<tag k="natural" v="water" />
		<tag k="ssr:stedsnr" v="832030" />
	</node>
	<node lat="62.27324444331787" lon="6.016230548657285" id="-9688">
		<tag k="name" v="Bjørndalselva" />
		<tag k="ssr:stedsnr" v="832758" />
		<tag k="waterway" v="stream" />
	</node>
	<node lat="62.200011109887974" lon="6.354077786439508" id="-9692">
		<tag k="name" v="Sendefonna" />
		<tag k="ssr:stedsnr" v="833118" />
		<tag k="waterway" v="stream" />
	</node>
	<node lat="62.14601110847603" lon="6.293541667611438" id="-9695">
		<tag k="name" v="Tretjørnane" />
		<tag k="natural" v="water" />
		<tag k="ssr:stedsnr" v="833250" />
	</node>
	<node lat="62.176194443449006" lon="6.359466670165969" id="-9697">
		<tag k="name" v="Skrubben" />
		<tag k="ssr:stedsnr" v="833157" />
		<tag k="waterway" v="stream" />
	</node>
	<node lat="62.144927780468585" lon="6.385463897873179" id="-9700">
		<tag k="name" v="Svartøyna" />
		<tag k="place" v="islet" />
		<tag k="ssr:stedsnr" v="833179" />
	</node>
	<node lat="62.24288333486329" lon="6.225872218242666" id="-9704">
		<tag k="name" v="Kjerringdalselva" />
		<tag k="ssr:stedsnr" v="833229" />
		<tag k="waterway" v="stream" />
	</node>
	<node lat="62.12057499590845" lon="6.303308326143268" id="-9710">
		<tag k="name" v="Sanden" />
		<tag k="natural" v="beach" />
		<tag k="ssr:stedsnr" v="833862" />
	</node>
	<node lat="62.123480559669396" lon="6.303466667066127" id="-9712">
		<tag k="name" v="Insteneset" />
		<tag k="natural" v="cape" />
		<tag k="ssr:stedsnr" v="833864" />
	</node>
	<node lat="62.35349167000503" lon="6.349163888115361" id="-9715">
		<tag k="name" v="Fonngrova" />
		<tag k="ssr:stedsnr" v="833875" />
		<tag k="waterway" v="stream" />
	</node>
	<node lat="62.15203055468584" lon="6.254288895916244" id="-9722">
		<tag k="name" v="Nakkeelva" />
		<tag k="ssr:stedsnr" v="833460" />
		<tag k="waterway" v="stream" />
	</node>
	<node lat="62.210608332206036" lon="6.245947223521341" id="-9723">
		<tag k="name" v="Follestaddalselva" />
		<tag k="ssr:stedsnr" v="833551" />
		<tag k="waterway" v="stream" />
	</node>
	<node lat="62.125644444799825" lon="6.245511111941252" id="-9731">
		<tag k="name" v="Røyrhesa" />
		<tag k="ssr:stedsnr" v="833762" />
		<tag k="waterway" v="stream" />
	</node>
	<node lat="62.328002777197035" lon="6.19744999838056" id="-9733">
		<tag k="name" v="Tunga" />
		<tag k="ssr:stedsnr" v="833951" />
		<tag k="waterway" v="stream" />
	</node>
	<node lat="62.29040000092962" lon="6.141972212992143" id="-9747">
		<tag k="alt_name" v="Ljoselva, yste" />
		<tag k="name" v="Ytste Ljoselva" />
		<tag k="ssr:stedsnr" v="860154" />
		<tag k="waterway" v="stream" />
	</node>
	<node lat="62.138452778093395" lon="6.281175001698929" id="-9755">
		<tag k="name" v="Bjørdalstjørna" />
		<tag k="natural" v="water" />
		<tag k="ssr:stedsnr" v="860619" />
	</node>
	<node lat="62.16044166335911" lon="6.266122219823469" id="-9759">
		<tag k="name" v="Videlva" />
		<tag k="ssr:stedsnr" v="860647" />
		<tag k="waterway" v="stream" />
	</node>
	<node lat="62.277075002531284" lon="6.317702785377907" id="-9760">
		<tag k="name" v="Litlekoppvatnet" />
		<tag k="natural" v="water" />
		<tag k="ssr:stedsnr" v="861228" />
	</node>
	<node lat="62.310672221923845" lon="6.255616666355104" id="-9775">
		<tag k="name" v="Småvatna" />
		<tag k="natural" v="water" />
		<tag k="ssr:stedsnr" v="873732" />
	</node>
	<node lat="62.27945833066198" lon="6.375405563225456" id="-9791">
		<tag k="name" v="Fladalsvatnet" />
		<tag k="natural" v="water" />
		<tag k="old_name" v="Flatdalsvatnet" />
		<tag k="ssr:stedsnr" v="921254" />
	</node>
	<node lat="62.15940555282646" lon="6.736724994363244" id="-9794">
		<tag k="name" v="Stavbergvatnet" />
		<tag k="natural" v="water" />
		<tag k="ssr:stedsnr" v="921348" />
	</node>
	<node lat="62.222558336827746" lon="6.345850000724119" id="-9798">
		<tag k="name" v="Kalvedalsvatnet" />
		<tag k="natural" v="water" />
		<tag k="ssr:stedsnr" v="921571" />
	</node>
	<node lat="62.18924166795264" lon="6.140347217790888" id="-9799">
		<tag k="fixme" v="multiple name tags, choose one and add the other to alt_name" />
		<tag k="name" v="Storelva;Ørstaelva" />
		<tag k="ssr:stedsnr" v="921743" />
		<tag k="waterway" v="river" />
	</node>
	<node lat="62.16829722272741" lon="6.320180552350303" id="-9800">
		<tag k="name" v="Fjellselva" />
		<tag k="ssr:stedsnr" v="921623" />
		<tag k="waterway" v="stream" />
	</node>
	<node lat="62.29036110752642" lon="6.265288896259403" id="-9808">
		<tag k="name" v="Vassbakkevatnet" />
		<tag k="natural" v="water" />
		<tag k="ssr:stedsnr" v="922451" />
	</node>
	<node lat="62.18670277913781" lon="6.362605555214912" id="-9826">
		<tag k="name" v="Nyfonngjølet" />
		<tag k="ssr:stedsnr" v="954056" />
		<tag k="waterway" v="stream" />
	</node>
	<node lat="62.228463891670366" lon="6.293150008136207" id="-9834">
		<tag k="name" v="Harpedalselva" />
		<tag k="ssr:stedsnr" v="954434" />
		<tag k="waterway" v="stream" />
	</node>
	<node lat="62.14698333652827" lon="6.3808833272224605" id="-9838">
		<tag k="name" v="Storøyna" />
		<tag k="place" v="island" />
		<tag k="ssr:stedsnr" v="954164" />
	</node>
	<node lat="62.19328333561232" lon="6.238327774391407" id="-9852">
		<tag k="name" v="Maseholmen" />
		<tag k="place" v="islet" />
		<tag k="ssr:stedsnr" v="954574" />
	</node>
	<node lat="62.22145000020359" lon="6.263316674396346" id="-9854">
		<tag k="name" v="Holmen" />
		<tag k="place" v="islet" />
		<tag k="ssr:stedsnr" v="954762" />
	</node>
	<node lat="62.140886115234885" lon="6.397500002848106" id="-9860">
		<tag k="name" v="Stilleelva" />
		<tag k="ssr:stedsnr" v="954860" />
		<tag k="waterway" v="stream" />
	</node>
	<node lat="62.21452222427253" lon="6.568180551662869" id="-9875">
		<tag k="name" v="Kvitlane" />
		<tag k="ssr:stedsnr" v="955166" />
		<tag k="waterway" v="stream" />
	</node>
</osm>
