<?xml version="1.0" encoding="UTF-8"?>
<<<<<<< HEAD
<osm version="0.6" generator="osmapis">
	<node lat="62.36157222272573" lon="6.260336113386491" id="-4206">
		<tag k="name" v="Barstadvika" />
		<tag k="natural" v="bay" />
		<tag k="ssr:stedsnr" v="232925" />
	</node>
	<node lat="62.296572225887864" lon="6.413077781735114" id="-4220">
		<tag k="name" v="Sildegarnneset" />
		<tag k="natural" v="cape" />
		<tag k="ssr:stedsnr" v="43304" />
	</node>
	<node lat="62.20199166989041" lon="6.585988894490116" id="-4249">
		<tag k="name" v="Tangen" />
		<tag k="natural" v="cape" />
		<tag k="ssr:stedsnr" v="44913" />
	</node>
	<node lat="62.27267777446717" lon="5.996844452523586" id="-4251">
		<tag k="name" v="Flåvika" />
		<tag k="natural" v="bay" />
		<tag k="ssr:stedsnr" v="51001" />
	</node>
	<node lat="62.18873611147379" lon="6.1060777871489655" id="-4254">
		<tag k="name" v="Strand" />
		<tag k="natural" v="beach" />
		<tag k="ssr:stedsnr" v="71013" />
	</node>
	<node lat="62.221369442640494" lon="6.014880560354097" id="-4255">
		<tag k="name" v="Gardvika" />
		<tag k="natural" v="bay" />
		<tag k="ssr:stedsnr" v="71068" />
	</node>
	<node lat="62.230586109819804" lon="5.972675003114935" id="-4263">
		<tag k="fixme" v="consider seamark:type=rock or natural=shoal" />
		<tag k="name" v="Pålskjeret" />
		<tag k="place" v="islet" />
		<tag k="ssr:stedsnr" v="72172" />
	</node>
	<node lat="62.29383055450904" lon="6.4184083385605755" id="-4267">
		<tag k="name" v="Standalneset" />
		<tag k="natural" v="cape" />
		<tag k="ssr:stedsnr" v="73515" />
	</node>
	<node lat="62.29230555537335" lon="6.420930550658145" id="-4269">
		<tag k="name" v="Trollvika" />
		<tag k="natural" v="bay" />
		<tag k="ssr:stedsnr" v="73519" />
	</node>
	<node lat="62.29864999553643" lon="6.075694435667921" id="-4291">
		<tag k="name" v="Remevika" />
		<tag k="natural" v="bay" />
		<tag k="ssr:stedsnr" v="104208" />
	</node>
	<node lat="62.252505554372924" lon="6.503277777599573" id="-4300">
		<tag k="name" v="Hamna" />
		<tag k="natural" v="bay" />
		<tag k="ssr:stedsnr" v="105090" />
	</node>
	<node lat="62.23427500421396" lon="6.482255563062573" id="-4301">
		<tag k="name" v="Holm" />
		<tag k="natural" v="cape" />
		<tag k="ssr:stedsnr" v="105206" />
	</node>
	<node lat="62.341902777633884" lon="6.204677780462944" id="-4319">
		<tag k="name" v="Olavoren" />
=======
<osm generator="osmapis" version="0.6">
	<node id="-63998" lat="62.2794888857" lon="6.46984166859">
		<tag k="name" v="Storevika" />
		<tag k="natural" v="bay" />
		<tag k="ssr:stedsnr" v="254218" />
	</node>
	<node id="-63996" lat="62.228388892" lon="6.00635278456">
		<tag k="name" v="Flesjen" />
		<tag k="natural" v="cape" />
		<tag k="ssr:stedsnr" v="254053" />
	</node>
	<node id="-64765" lat="62.321966665" lon="6.39904165876">
		<tag k="name" v="Årsneset" />
		<tag k="natural" v="cape" />
		<tag k="ssr:stedsnr" v="739462" />
	</node>
	<node id="-66081" lat="62.1757888896" lon="6.54036389661">
		<tag k="name" v="Sandfonneset" />
		<tag k="natural" v="cape" />
		<tag k="ssr:stedsnr" v="651718" />
	</node>
	<node id="-65001" lat="62.2433861108" lon="5.99282776865">
		<tag k="name" v="Liadalsvika" />
		<tag k="natural" v="bay" />
		<tag k="ssr:stedsnr" v="961060" />
	</node>
	<node id="-65000" lat="62.2734388932" lon="5.99464721548">
		<tag k="name" v="Skolten" />
		<tag k="natural" v="shoal" />
		<tag k="place" v="locality" />
		<tag k="ssr:stedsnr" v="961004" />
	</node>
	<node id="-65509" lat="62.3018805535" lon="6.08363889225">
		<tag k="name" v="Årsetvika" />
		<tag k="natural" v="cape" />
		<tag k="ssr:stedsnr" v="346199" />
	</node>
	<node id="-66017" lat="62.258547218" lon="6.44204165896">
		<tag k="name" v="Øksavika" />
>>>>>>> e1d4bc35ff8a6074a6f2e91616a996b547c36f15
		<tag k="natural" v="bay" />
		<tag k="ssr:stedsnr" v="650038" />
	</node>
<<<<<<< HEAD
	<node lat="62.203463888216994" lon="6.599069439402633" id="-4326">
		<tag k="name" v="Stenes" />
		<tag k="natural" v="cape" />
		<tag k="ssr:stedsnr" v="131606" />
	</node>
	<node lat="62.22838889203519" lon="6.006352784555627" id="-4348">
		<tag k="name" v="Flesjen" />
		<tag k="natural" v="cape" />
		<tag k="ssr:stedsnr" v="254053" />
	</node>
	<node lat="62.25161388700647" lon="6.462991673626361" id="-4353">
		<tag k="name" v="Høydalsneset" />
		<tag k="natural" v="cape" />
		<tag k="ssr:stedsnr" v="254259" />
	</node>
	<node lat="62.279488885661614" lon="6.46984166859099" id="-4355">
		<tag k="name" v="Storevika" />
		<tag k="natural" v="bay" />
		<tag k="ssr:stedsnr" v="254218" />
	</node>
	<node lat="62.3260999993968" lon="6.149511112121206" id="-4364">
		<tag k="name" v="Gardvika" />
		<tag k="natural" v="bay" />
		<tag k="old_name" v="Gardavika" />
		<tag k="ssr:stedsnr" v="254788" />
	</node>
	<node lat="62.15684722374139" lon="6.2283083345118415" id="-4399">
		<tag k="name" v="Vassendvika" />
		<tag k="natural" v="bay" />
		<tag k="ssr:stedsnr" v="165982" />
	</node>
	<node lat="62.200733333774856" lon="6.644658332157609" id="-4401">
		<tag k="name" v="Trysvikja" />
		<tag k="natural" v="bay" />
		<tag k="ssr:stedsnr" v="166169" />
	</node>
	<node lat="62.20915277615885" lon="6.559902780095643" id="-4402">
		<tag k="alt_name" v="Ytreurke-bukta" />
		<tag k="name" v="Ytre Urkebukta" />
		<tag k="natural" v="bay" />
		<tag k="ssr:stedsnr" v="166182" />
	</node>
	<node lat="62.20551667088623" lon="6.603525001529548" id="-4405">
		<tag k="name" v="Storflua" />
		<tag k="natural" v="shoal" />
		<tag k="place" v="locality" />
		<tag k="ssr:stedsnr" v="173764" />
	</node>
	<node lat="62.20391944331731" lon="6.103627785073287" id="-4418">
		<tag k="name" v="Morkaneset" />
		<tag k="natural" v="cape" />
		<tag k="ssr:stedsnr" v="220914" />
	</node>
	<node lat="62.31140555297087" lon="6.099999996478163" id="-4420">
		<tag k="name" v="Djuparvika" />
		<tag k="natural" v="bay" />
		<tag k="ssr:stedsnr" v="226003" />
	</node>
	<node lat="62.23729444892096" lon="5.966500000632177" id="-4421">
		<tag k="name" v="Rolfsbukta" />
		<tag k="natural" v="bay" />
		<tag k="ssr:stedsnr" v="225801" />
	</node>
	<node lat="62.30666395283092" lon="6.404727365751541" id="-4469">
		<tag k="name" v="Ytsteneset" />
		<tag k="natural" v="cape" />
		<tag k="ssr:stedsnr" v="254422" />
	</node>
	<node lat="62.35960277899886" lon="6.246150003041809" id="-4478">
		<tag k="name" v="Blåtarnet" />
		<tag k="natural" v="cape" />
		<tag k="ssr:stedsnr" v="457994" />
	</node>
	<node lat="62.198530558473294" lon="6.573519442545215" id="-4517">
		<tag k="name" v="Hesteneset" />
		<tag k="natural" v="cape" />
		<tag k="ssr:stedsnr" v="287734" />
	</node>
	<node lat="62.19937777323856" lon="6.013738881476765" id="-4532">
		<tag k="name" v="Sætreneset" />
		<tag k="natural" v="cape" />
		<tag k="ssr:stedsnr" v="462993" />
	</node>
	<node lat="62.37205278217875" lon="6.3123694484161605" id="-4542">
		<tag k="name" v="Bogen" />
		<tag k="natural" v="bay" />
		<tag k="ssr:stedsnr" v="314415" />
	</node>
	<node lat="62.24382222210517" lon="6.511808326104843" id="-4646">
		<tag k="name" v="Storevika" />
		<tag k="natural" v="bay" />
		<tag k="ssr:stedsnr" v="355774" />
	</node>
	<node lat="62.23012777821879" lon="6.485508328659672" id="-4647">
		<tag k="name" v="Mienvika" />
		<tag k="natural" v="bay" />
		<tag k="ssr:stedsnr" v="355789" />
	</node>
	<node lat="62.202233336705696" lon="6.039141663919645" id="-4648">
		<tag k="name" v="Klubbakatten" />
		<tag k="natural" v="cape" />
		<tag k="ssr:stedsnr" v="374111" />
	</node>
	<node lat="62.28291666234747" lon="6.4681249930708" id="-4653">
		<tag k="name" v="Barlindneset" />
		<tag k="natural" v="cape" />
		<tag k="ssr:stedsnr" v="375207" />
	</node>
	<node lat="62.193499997637694" lon="6.068880562211749" id="-4677">
		<tag k="fixme" v="consider seamark:type=rock or natural=shoal" />
		<tag k="name" v="Grånils" />
		<tag k="place" v="islet" />
		<tag k="ssr:stedsnr" v="401876" />
	</node>
	<node lat="62.26845278216992" lon="5.982958334587438" id="-4679">
		<tag k="alt_name" v="Røsteneset" />
		<tag k="name" v="Rysteneset" />
		<tag k="natural" v="cape" />
		<tag k="ssr:stedsnr" v="401879" />
	</node>
	<node lat="62.368966670062896" lon="6.350186106365506" id="-4708">
		<tag k="name" v="Oksen" />
		<tag k="natural" v="cape" />
		<tag k="ssr:stedsnr" v="409826" />
	</node>
	<node lat="62.21109444115943" lon="6.51450278346544" id="-4723">
		<tag k="bay" v="fjord" />
		<tag k="name" v="Hjørundfjorden" />
		<tag k="natural" v="bay" />
		<tag k="ssr:stedsnr" v="436508" />
	</node>
	<node lat="62.21277500388775" lon="6.587158326732086" id="-4755">
		<tag k="name" v="Stranda" />
		<tag k="natural" v="beach" />
		<tag k="ssr:stedsnr" v="468903" />
	</node>
	<node lat="62.207427776717765" lon="6.532163892826234" id="-4766">
		<tag k="name" v="Brunsvika" />
		<tag k="natural" v="bay" />
		<tag k="ssr:stedsnr" v="469319" />
	</node>
	<node lat="62.287413887251816" lon="6.424436110277211" id="-4786">
		<tag k="name" v="Stavsetflua" />
		<tag k="natural" v="shoal" />
		<tag k="place" v="locality" />
		<tag k="ssr:stedsnr" v="476810" />
	</node>
	<node lat="62.23856389199694" lon="5.952500004480093" id="-4792">
		<tag k="alt_name" v="Raudøytangane" />
		<tag k="name" v="Tangane" />
		<tag k="natural" v="cape" />
		<tag k="ssr:stedsnr" v="678169" />
	</node>
	<node lat="62.295438886511995" lon="6.062294454267127" id="-4802">
		<tag k="fixme" v="consider seamark:type=rock or natural=shoal" />
		<tag k="name" v="Trollskjeret" />
		<tag k="place" v="islet" />
		<tag k="ssr:stedsnr" v="495162" />
	</node>
	<node lat="62.33236388456677" lon="6.1641361093592835" id="-4819">
		<tag k="name" v="Slettevika" />
		<tag k="natural" v="bay" />
		<tag k="ssr:stedsnr" v="496809" />
	</node>
	<node lat="62.31320833214364" lon="6.4428361066476985" id="-4829">
		<tag k="name" v="Molaupsvika" />
		<tag k="natural" v="bay" />
		<tag k="ssr:stedsnr" v="522863" />
	</node>
	<node lat="62.31920000312948" lon="6.126761117854431" id="-4849">
		<tag k="name" v="Øggardskåsa" />
		<tag k="natural" v="bay" />
		<tag k="ssr:stedsnr" v="529503" />
	</node>
	<node lat="62.20876389134515" lon="6.482574998170845" id="-4883">
		<tag k="name" v="Sæbøvika" />
		<tag k="natural" v="bay" />
		<tag k="ssr:stedsnr" v="537766" />
	</node>
	<node lat="62.31431388954604" lon="6.104333334382564" id="-4908">
		<tag k="name" v="Stupeneset" />
		<tag k="natural" v="cape" />
		<tag k="ssr:stedsnr" v="557756" />
	</node>
	<node lat="62.19921111248387" lon="6.033775002289503" id="-4924">
		<tag k="name" v="Selbervika" />
		<tag k="natural" v="bay" />
		<tag k="ssr:stedsnr" v="583901" />
	</node>
	<node lat="62.255344448989945" lon="5.9726361167766076" id="-4928">
		<tag k="name" v="Kattavika" />
		<tag k="natural" v="bay" />
		<tag k="ssr:stedsnr" v="584410" />
	</node>
	<node lat="62.29280000099627" lon="6.462808339955327" id="-4936">
		<tag k="name" v="Seljeneset" />
		<tag k="natural" v="cape" />
		<tag k="ssr:stedsnr" v="589169" />
	</node>
	<node lat="62.202280552496994" lon="6.602305563679064" id="-4963">
		<tag k="name" v="Instevika" />
		<tag k="natural" v="bay" />
		<tag k="ssr:stedsnr" v="590915" />
	</node>
	<node lat="62.20271666859127" lon="6.004777775189114" id="-4993">
		<tag k="name" v="Kobbeneset" />
		<tag k="natural" v="cape" />
		<tag k="ssr:stedsnr" v="705148" />
	</node>
	<node lat="62.25854721800881" lon="6.442041658964477" id="-5006">
		<tag k="name" v="Øksavika" />
		<tag k="natural" v="bay" />
		<tag k="ssr:stedsnr" v="650038" />
	</node>
	<node lat="62.21159722346952" lon="6.592038885114651" id="-5029">
		<tag k="name" v="Skredevika" />
		<tag k="natural" v="bay" />
		<tag k="ssr:stedsnr" v="650918" />
	</node>
	<node lat="62.17578888955636" lon="6.540363896608017" id="-5043">
		<tag k="name" v="Sandfonneset" />
		<tag k="natural" v="cape" />
		<tag k="ssr:stedsnr" v="651718" />
	</node>
	<node lat="62.19925000291991" lon="6.623711118210644" id="-5044">
		<tag k="name" v="Ysteneset" />
		<tag k="natural" v="cape" />
		<tag k="ssr:stedsnr" v="651889" />
	</node>
	<node lat="62.20826389240992" lon="6.051863896119358" id="-5053">
		<tag k="bay" v="fjord" />
		<tag k="name" v="Ørstafjorden" />
		<tag k="natural" v="bay" />
		<tag k="ssr:stedsnr" v="678094" />
	</node>
	<node lat="62.2526388914296" lon="5.969341667160148" id="-5054">
		<tag k="alt_name" v="Kattaneset" />
		<tag k="name" v="Kataneset" />
		<tag k="natural" v="cape" />
		<tag k="ssr:stedsnr" v="678211" />
	</node>
	<node lat="62.257286110076656" lon="6.4473555530907465" id="-5077">
		<tag k="name" v="Sandvika" />
		<tag k="natural" v="bay" />
		<tag k="ssr:stedsnr" v="893039" />
	</node>
	<node lat="62.182249998834" lon="6.526547229237599" id="-5080">
		<tag k="name" v="Storelvvika" />
		<tag k="natural" v="bay" />
		<tag k="ssr:stedsnr" v="893057" />
	</node>
	<node lat="62.206327774987734" lon="6.499038896939066" id="-5084">
		<tag k="name" v="Steglet" />
		<tag k="natural" v="bay" />
		<tag k="ssr:stedsnr" v="893331" />
	</node>
	<node lat="62.22680833176494" lon="5.9857222146000195" id="-5087">
		<tag k="name" v="Stenesvika" />
		<tag k="natural" v="bay" />
		<tag k="ssr:stedsnr" v="893816" />
	</node>
	<node lat="62.30119999794006" lon="6.409433329158235" id="-5108">
		<tag k="name" v="Litleneset" />
=======
	<node id="-65499" lat="62.2165527768" lon="6.00935000447">
		<tag k="name" v="Lianesholmane" />
		<tag k="place" v="islet" />
		<tag k="ssr:stedsnr" v="341428" />
	</node>
	<node id="-66008" lat="62.3075666668" lon="6.09575278377">
		<tag k="name" v="Sæssleira" />
		<tag k="natural" v="shoal" />
		<tag k="place" v="locality" />
		<tag k="ssr:stedsnr" v="649153" />
	</node>
	<node id="-66007" lat="62.3257916684" lon="6.44130000602">
		<tag k="name" v="Vikane" />
		<tag k="natural" v="bay" />
		<tag k="ssr:stedsnr" v="644915" />
	</node>
	<node id="-64975" lat="62.2152916656" lon="6.0125944444">
		<tag k="name" v="Lianeset" />
		<tag k="natural" v="cape" />
		<tag k="ssr:stedsnr" v="921075" />
	</node>
	<node id="-64971" lat="62.2965611079" lon="6.41651667394">
		<tag k="name" v="Standalsvika" />
		<tag k="natural" v="bay" />
		<tag k="ssr:stedsnr" v="901815" />
	</node>
	<node id="-63946" lat="62.1985305585" lon="6.57351944255">
		<tag k="name" v="Hesteneset" />
		<tag k="natural" v="cape" />
		<tag k="ssr:stedsnr" v="287734" />
	</node>
	<node id="-64960" lat="62.2268083318" lon="5.9857222146">
		<tag k="name" v="Stenesvika" />
		<tag k="natural" v="bay" />
		<tag k="ssr:stedsnr" v="893816" />
	</node>
	<node id="-65978" lat="62.2906111122" lon="6.42356389776">
		<tag k="name" v="Ongelsneset" />
		<tag k="natural" v="cape" />
		<tag k="ssr:stedsnr" v="618482" />
	</node>
	<node id="-65457" lat="62.2278333358" lon="5.98648332389">
		<tag k="name" v="Steinneset" />
		<tag k="natural" v="cape" />
		<tag k="ssr:stedsnr" v="314192" />
	</node>
	<node id="-65967" lat="62.206644448" lon="6.49807778153">
		<tag k="name" v="Hustadneset" />
		<tag k="natural" v="cape" />
		<tag k="ssr:stedsnr" v="617526" />
	</node>
	<node id="-64430" lat="62.2027166686" lon="6.00477777519">
		<tag k="name" v="Kobbeneset" />
		<tag k="natural" v="cape" />
		<tag k="ssr:stedsnr" v="705148" />
	</node>
	<node id="-64429" lat="62.3143138895" lon="6.10433333438">
		<tag k="name" v="Stupeneset" />
		<tag k="natural" v="cape" />
		<tag k="ssr:stedsnr" v="557756" />
	</node>
	<node id="-64939" lat="62.2023555571" lon="6.00510554635">
		<tag k="name" v="Sørheimstranda" />
		<tag k="natural" v="beach" />
		<tag k="place" v="locality" />
		<tag k="ssr:stedsnr" v="947285" />
	</node>
	<node id="-64938" lat="62.2185055521" lon="5.98756944734">
		<tag k="name" v="Steinnesstranda" />
		<tag k="natural" v="beach" />
		<tag k="place" v="locality" />
		<tag k="ssr:stedsnr" v="947283" />
	</node>
	<node id="-64011" lat="62.359602779" lon="6.24615000304">
		<tag k="name" v="Blåtarnet" />
		<tag k="natural" v="cape" />
		<tag k="ssr:stedsnr" v="457994" />
	</node>
	<node id="-65958" lat="62.2287999975" lon="6.48556111474">
		<tag k="name" v="Geithellarneset" />
		<tag k="natural" v="cape" />
		<tag k="ssr:stedsnr" v="597819" />
	</node>
	<node id="-64933" lat="62.3331638853" lon="6.3831416598">
		<tag k="name" v="Klubbeneset" />
		<tag k="natural" v="cape" />
		<tag k="ssr:stedsnr" v="861390" />
	</node>
	<node id="-65956" lat="62.3198888867" lon="6.12783611589">
		<tag k="name" v="Øygardsvika" />
		<tag k="natural" v="bay" />
		<tag k="ssr:stedsnr" v="597215" />
	</node>
	<node id="-64419" lat="62.2482472263" lon="5.9651611123">
		<tag k="name" v="Rjåneset" />
		<tag k="natural" v="cape" />
		<tag k="ssr:stedsnr" v="556177" />
	</node>
	<node id="-64930" lat="62.374241668" lon="6.3267194477">
		<tag k="name" v="Festøya" />
		<tag k="natural" v="cape" />
		<tag k="ssr:stedsnr" v="861106" />
	</node>
	<node id="-65952" lat="62.2083749993" lon="6.57105555962">
		<tag k="name" v="Torsteinneset" />
		<tag k="natural" v="cape" />
		<tag k="ssr:stedsnr" v="591145" />
	</node>
	<node id="-63896" lat="62.2007333338" lon="6.64465833216">
		<tag k="name" v="Trysvikja" />
		<tag k="natural" v="bay" />
		<tag k="ssr:stedsnr" v="166169" />
	</node>
	<node id="-66455" lat="62.339075004" lon="6.19161667134">
		<tag k="alt_name" v="Moldvika" />
		<tag k="name" v="Molvika" />
		<tag k="natural" v="bay" />
		<tag k="ssr:stedsnr" v="954989" />
	</node>
	<node id="-66449" lat="62.2022749957" lon="6.59416111132">
		<tag k="name" v="Ytstevika" />
		<tag k="natural" v="bay" />
		<tag k="ssr:stedsnr" v="954918" />
	</node>
	<node id="-64912" lat="62.1923305525" lon="6.64887777966">
		<tag k="name" v="Norangsvika" />
		<tag k="natural" v="bay" />
		<tag k="ssr:stedsnr" v="841774" />
	</node>
	<node id="-64395" lat="62.2260277764" lon="6.52751667072">
		<tag k="alt_name" v="Furneset" />
		<tag k="name" v="Fureneset" />
		<tag k="natural" v="cape" />
		<tag k="ssr:stedsnr" v="530165" />
	</node>
	<node id="-65930" lat="62.156666665" lon="6.22310832894">
		<tag k="name" v="Skitvika" />
		<tag k="natural" v="bay" />
		<tag k="ssr:stedsnr" v="590973" />
	</node>
	<node id="-65943" lat="62.3389833315" lon="6.37357221582">
		<tag k="name" v="Verpesneset" />
		<tag k="natural" v="cape" />
		<tag k="ssr:stedsnr" v="590792" />
	</node>
	<node id="-63878" lat="62.2159499998" lon="6.5354111023">
		<tag k="name" v="Leknesstranda" />
		<tag k="natural" v="beach" />
		<tag k="place" v="locality" />
		<tag k="ssr:stedsnr" v="165323" />
	</node>
	<node id="-66113" lat="62.3521361128" lon="6.21855556193">
		<tag k="name" v="Rotaneset" />
		<tag k="natural" v="cape" />
		<tag k="ssr:stedsnr" v="739384" />
	</node>
	<node id="-65411" lat="62.2330944443" lon="6.52453055447">
		<tag k="name" v="Maradalsvika" />
		<tag k="natural" v="bay" />
		<tag k="ssr:stedsnr" v="173781" />
	</node>
	<node id="-65410" lat="62.2055166709" lon="6.60352500153">
		<tag k="name" v="Storflua" />
		<tag k="natural" v="shoal" />
		<tag k="place" v="locality" />
		<tag k="ssr:stedsnr" v="173764" />
	</node>
	<node id="-65409" lat="62.3103777768" lon="6.09944444935">
		<tag k="name" v="Litleberget" />
>>>>>>> e1d4bc35ff8a6074a6f2e91616a996b547c36f15
		<tag k="natural" v="cape" />
		<tag k="ssr:stedsnr" v="173191" />
	</node>
<<<<<<< HEAD
	<node lat="62.32604444407978" lon="6.1468583357949464" id="-5110">
		<tag k="name" v="Verpet" />
		<tag k="natural" v="beach" />
		<tag k="ssr:stedsnr" v="894554" />
	</node>
	<node lat="62.36746666599863" lon="6.351311120338146" id="-5188">
		<tag k="name" v="Ferneset" />
		<tag k="natural" v="cape" />
		<tag k="ssr:stedsnr" v="712825" />
	</node>
	<node lat="62.17338055208085" lon="6.544286118557253" id="-5195">
		<tag k="name" v="Skåraneset" />
		<tag k="natural" v="cape" />
		<tag k="ssr:stedsnr" v="719778" />
	</node>
	<node lat="62.325588893234396" lon="6.141147219355051" id="-5228">
		<tag k="alt_name" v="Øyraneset" />
		<tag k="name" v="Øyrneset" />
=======
	<node id="-65405" lat="62.2091527762" lon="6.5599027801">
		<tag k="alt_name" v="Ytreurke-bukta" />
		<tag k="name" v="Ytre Urkebukta" />
		<tag k="natural" v="bay" />
		<tag k="ssr:stedsnr" v="166182" />
	</node>
	<node id="-65400" lat="62.1568472237" lon="6.22830833451">
		<tag k="name" v="Vassendvika" />
		<tag k="natural" v="bay" />
		<tag k="ssr:stedsnr" v="165982" />
	</node>
	<node id="-63862" lat="62.1891611144" lon="6.11812499587">
		<tag k="name" v="Vekslet" />
		<tag k="natural" v="beach" />
		<tag k="place" v="locality" />
		<tag k="ssr:stedsnr" v="159156" />
	</node>
	<node id="-65395" lat="62.2109305577" lon="6.59483334023">
		<tag k="name" v="Åreneset" />
>>>>>>> e1d4bc35ff8a6074a6f2e91616a996b547c36f15
		<tag k="natural" v="cape" />
		<tag k="ssr:stedsnr" v="165933" />
	</node>
<<<<<<< HEAD
	<node lat="62.222802773598055" lon="6.529222231659614" id="-5261">
		<tag k="name" v="Furnesvika" />
		<tag k="natural" v="bay" />
		<tag k="ssr:stedsnr" v="780750" />
	</node>
	<node lat="62.322816669232466" lon="6.137444442637543" id="-5288">
		<tag k="name" v="Årskogvika" />
		<tag k="natural" v="bay" />
		<tag k="ssr:stedsnr" v="800727" />
	</node>
	<node lat="62.21529166564772" lon="6.012594444397511" id="-5299">
		<tag k="name" v="Lianeset" />
		<tag k="natural" v="cape" />
		<tag k="ssr:stedsnr" v="921075" />
	</node>
	<node lat="62.356938891233895" lon="6.233286118099278" id="-5307">
		<tag k="name" v="Lyngestranda" />
		<tag k="natural" v="beach" />
		<tag k="ssr:stedsnr" v="921442" />
	</node>
	<node lat="62.33871666452684" lon="6.185911105036817" id="-5324">
		<tag k="name" v="Moldvikneset" />
		<tag k="natural" v="cape" />
		<tag k="ssr:stedsnr" v="921796" />
	</node>
	<node lat="62.27172222079559" lon="5.98961665902238" id="-5325">
		<tag k="name" v="Flåvikneset" />
		<tag k="natural" v="cape" />
		<tag k="ssr:stedsnr" v="826874" />
	</node>
	<node lat="62.23781667056236" lon="5.970499990728298" id="-5335">
		<tag k="fixme" v="consider seamark:type=rock or natural=shoal" />
		<tag k="name" v="Kobbeskjeret" />
		<tag k="place" v="islet" />
		<tag k="ssr:stedsnr" v="832794" />
	</node>
	<node lat="62.31518889006899" lon="6.108797227277981" id="-5336">
		<tag k="name" v="Fluda" />
		<tag k="natural" v="shoal" />
		<tag k="place" v="locality" />
		<tag k="ssr:stedsnr" v="833002" />
	</node>
	<node lat="62.192330552509546" lon="6.648877779659309" id="-5369">
		<tag k="name" v="Norangsvika" />
		<tag k="natural" v="bay" />
		<tag k="ssr:stedsnr" v="841774" />
	</node>
	<node lat="62.374241667955964" lon="6.32671944769817" id="-5383">
		<tag k="name" v="Festøya" />
		<tag k="natural" v="cape" />
		<tag k="ssr:stedsnr" v="861106" />
	</node>
	<node lat="62.275880552395414" lon="6.010450005451868" id="-5414">
		<tag k="name" v="Bjørndalsneset" />
		<tag k="natural" v="cape" />
		<tag k="ssr:stedsnr" v="893777" />
	</node>
	<node lat="62.296561107880365" lon="6.416516673938971" id="-5450">
		<tag k="name" v="Standalsvika" />
		<tag k="natural" v="bay" />
		<tag k="ssr:stedsnr" v="901815" />
	</node>
	<node lat="62.31204444874981" lon="6.05654443698448" id="-5451">
		<tag k="bay" v="fjord" />
		<tag k="name" v="Vartdalsfjorden" />
		<tag k="natural" v="bay" />
		<tag k="ssr:stedsnr" v="920141" />
	</node>
	<node lat="62.18885277908243" lon="6.091975004649402" id="-5454">
		<tag k="alt_name" v="Rysten" />
		<tag k="name" v="Rystene" />
		<tag k="natural" v="cape" />
		<tag k="ssr:stedsnr" v="921001" />
	</node>
	<node lat="62.2185055521267" lon="5.987569447335749" id="-5475">
		<tag k="name" v="Steinnesstranda" />
		<tag k="natural" v="beach" />
		<tag k="ssr:stedsnr" v="947283" />
	</node>
	<node lat="62.202355557057864" lon="6.0051055463545415" id="-5476">
		<tag k="name" v="Sørheimstranda" />
		<tag k="natural" v="beach" />
		<tag k="ssr:stedsnr" v="947285" />
	</node>
	<node lat="62.225605559215516" lon="5.98751110929528" id="-5485">
		<tag k="name" v="Gavneset" />
		<tag k="natural" v="cape" />
		<tag k="ssr:stedsnr" v="953811" />
	</node>
	<node lat="62.24719166523097" lon="6.472391666332404" id="-5490">
		<tag k="name" v="Spjøtneset" />
		<tag k="natural" v="cape" />
		<tag k="ssr:stedsnr" v="954039" />
	</node>
	<node lat="62.3390750040006" lon="6.191616671340761" id="-5518">
		<tag k="alt_name" v="Moldvika" />
		<tag k="name" v="Molvika" />
		<tag k="natural" v="bay" />
		<tag k="ssr:stedsnr" v="954989" />
	</node>
	<node lat="62.2734388932448" lon="5.994647215477868" id="-5523">
		<tag k="name" v="Skolten" />
		<tag k="natural" v="shoal" />
		<tag k="place" v="locality" />
		<tag k="ssr:stedsnr" v="961004" />
	</node>
	<node lat="62.318669445068245" lon="6.12619721530721" id="-5570">
		<tag k="name" v="Øygardsneset" />
		<tag k="natural" v="cape" />
		<tag k="ssr:stedsnr" v="37932" />
	</node>
	<node lat="62.3756833366795" lon="6.325788886095661" id="-5617">
		<tag k="name" v="Trygla" />
		<tag k="natural" v="cape" />
		<tag k="ssr:stedsnr" v="44799" />
	</node>
	<node lat="62.15035277511786" lon="6.219180562234629" id="-5621">
		<tag k="name" v="Sandvikneset" />
		<tag k="natural" v="cape" />
		<tag k="ssr:stedsnr" v="44968" />
	</node>
	<node lat="62.26143888503451" lon="6.4976388851702085" id="-5624">
		<tag k="name" v="Trandalsvika" />
		<tag k="natural" v="bay" />
		<tag k="ssr:stedsnr" v="52781" />
	</node>
	<node lat="62.3744027798686" lon="6.335505550547966" id="-5625">
		<tag k="name" v="Solevågen" />
		<tag k="natural" v="bay" />
		<tag k="ssr:stedsnr" v="56240" />
	</node>
	<node lat="62.206627781329004" lon="6.530736103120025" id="-5638">
		<tag k="name" v="Leknes" />
		<tag k="natural" v="cape" />
		<tag k="ssr:stedsnr" v="71548" />
	</node>
	<node lat="62.2395361101596" lon="5.965438886079341" id="-5643">
		<tag k="name" v="Blæja" />
		<tag k="place" v="islet" />
		<tag k="ssr:stedsnr" v="72148" />
	</node>
	<node lat="62.374452777903315" lon="6.31482500837075" id="-5649">
		<tag k="fixme" v="multiple name tags, choose one and add the other to alt_name" />
		<tag k="name" v="Festøyflesa;Fleset" />
		<tag k="place" v="islet" />
		<tag k="ssr:stedsnr" v="72358" />
	</node>
	<node lat="62.339908333528975" lon="6.368780547052445" id="-5653">
=======
	<node id="-65903" lat="62.271613891" lon="5.99969166165">
		<tag k="name" v="Smånesja" />
		<tag k="natural" v="cape" />
		<tag k="ssr:stedsnr" v="589799" />
	</node>
	<node id="-65895" lat="62.292800001" lon="6.46280833996">
		<tag k="name" v="Seljeneset" />
		<tag k="natural" v="cape" />
		<tag k="ssr:stedsnr" v="589169" />
	</node>
	<node id="-65890" lat="62.255344449" lon="5.97263611678">
		<tag k="name" v="Kattavika" />
		<tag k="natural" v="bay" />
		<tag k="ssr:stedsnr" v="584410" />
	</node>
	<node id="-63841" lat="62.2353361115" lon="5.97876389398">
		<tag k="name" v="Eineneset" />
		<tag k="natural" v="cape" />
		<tag k="ssr:stedsnr" v="132149" />
	</node>
	<node id="-63840" lat="62.2364083299" lon="5.97353332807">
		<tag k="name" v="Raudøyna" />
		<tag k="place" v="island" />
		<tag k="ssr:stedsnr" v="132147" />
	</node>
	<node id="-64144" lat="62.3720527822" lon="6.31236944842">
		<tag k="name" v="Bogen" />
		<tag k="natural" v="bay" />
		<tag k="ssr:stedsnr" v="314415" />
	</node>
	<node id="-63973" lat="62.2891527756" lon="6.42473055043">
		<tag k="name" v="Ongelsvika" />
		<tag k="natural" v="bay" />
		<tag k="ssr:stedsnr" v="294817" />
	</node>
	<node id="-65882" lat="62.1992111125" lon="6.03377500229">
		<tag k="name" v="Selbervika" />
		<tag k="natural" v="bay" />
		<tag k="ssr:stedsnr" v="583901" />
	</node>
	<node id="-63833" lat="62.2034638882" lon="6.5990694394">
		<tag k="name" v="Stenes" />
		<tag k="natural" v="cape" />
		<tag k="ssr:stedsnr" v="131606" />
	</node>
	<node id="-66391" lat="62.2471916652" lon="6.47239166633">
		<tag k="name" v="Spjøtneset" />
		<tag k="natural" v="cape" />
		<tag k="ssr:stedsnr" v="954039" />
	</node>
	<node id="-65878" lat="62.2051194453" lon="6.48026944458">
		<tag k="name" v="Hustadvika" />
		<tag k="natural" v="bay" />
		<tag k="ssr:stedsnr" v="582362" />
	</node>
	<node id="-64337" lat="62.2786083357" lon="6.41907499036">
		<tag k="name" v="Langeneset" />
		<tag k="natural" v="cape" />
		<tag k="ssr:stedsnr" v="496264" />
	</node>
	<node id="-63824" lat="62.3260999994" lon="6.14951111212">
		<tag k="name" v="Gardvika" />
		<tag k="natural" v="bay" />
		<tag k="old_name" v="Gardavika" />
		<tag k="ssr:stedsnr" v="254788" />
	</node>
	<node id="-66383" lat="62.2256055592" lon="5.9875111093">
		<tag k="name" v="Gavneset" />
		<tag k="natural" v="cape" />
		<tag k="ssr:stedsnr" v="953811" />
	</node>
	<node id="-64840" lat="62.3387166645" lon="6.18591110504">
		<tag k="name" v="Moldvikneset" />
		<tag k="natural" v="cape" />
		<tag k="ssr:stedsnr" v="921796" />
	</node>
	<node id="-63815" lat="62.3066639528" lon="6.40472736575">
		<tag k="name" v="Ytsteneset" />
		<tag k="natural" v="cape" />
		<tag k="ssr:stedsnr" v="254422" />
	</node>
	<node id="-65419" lat="62.1934833341" lon="6.5552638824">
		<tag k="name" v="Stålbergneset" />
		<tag k="natural" v="cape" />
		<tag k="ssr:stedsnr" v="192648" />
	</node>
	<node id="-64319" lat="62.2082638924" lon="6.05186389612">
		<tag k="bay" v="fjord" />
		<tag k="name" v="Ørstafjorden" />
		<tag k="natural" v="bay" />
		<tag k="ssr:stedsnr" v="678094" />
	</node>
	<node id="-66101" lat="62.2036361077" lon="6.61727778425">
		<tag k="bay" v="fjord" />
		<tag k="name" v="Norangsfjorden" />
		<tag k="natural" v="bay" />
		<tag k="ssr:stedsnr" v="738496" />
	</node>
	<node id="-64828" lat="62.3569388912" lon="6.2332861181">
		<tag k="name" v="Lyngestranda" />
		<tag k="natural" v="beach" />
		<tag k="place" v="locality" />
		<tag k="ssr:stedsnr" v="921442" />
	</node>
	<node id="-64313" lat="62.2874138873" lon="6.42443611028">
		<tag k="name" v="Stavsetflua" />
		<tag k="natural" v="shoal" />
		<tag k="place" v="locality" />
		<tag k="ssr:stedsnr" v="476810" />
	</node>
	<node id="-65331" lat="62.361074996" lon="6.34921666553">
		<tag k="name" v="Hjørundsteinane" />
		<tag k="natural" v="cape" />
		<tag k="ssr:stedsnr" v="141177" />
	</node>
	<node id="-64817" lat="62.1888527791" lon="6.09197500465">
		<tag k="alt_name" v="Rysten" />
		<tag k="name" v="Rystene" />
		<tag k="natural" v="cape" />
		<tag k="ssr:stedsnr" v="921001" />
	</node>
	<node id="-63791" lat="62.2923055554" lon="6.42093055066">
		<tag k="name" v="Trollvika" />
		<tag k="natural" v="bay" />
		<tag k="ssr:stedsnr" v="73519" />
	</node>
	<node id="-64814" lat="62.3120444487" lon="6.05654443698">
		<tag k="bay" v="fjord" />
		<tag k="name" v="Vartdalsfjorden" />
		<tag k="natural" v="bay" />
		<tag k="ssr:stedsnr" v="920141" />
	</node>
	<node id="-63789" lat="62.2938305545" lon="6.41840833856">
		<tag k="name" v="Standalneset" />
		<tag k="natural" v="cape" />
		<tag k="ssr:stedsnr" v="73515" />
	</node>
	<node id="-63783" lat="62.3399083335" lon="6.36878054705">
>>>>>>> e1d4bc35ff8a6074a6f2e91616a996b547c36f15
		<tag k="name" v="Saltre" />
		<tag k="natural" v="cape" />
		<tag k="ssr:stedsnr" v="72412" />
	</node>
<<<<<<< HEAD
	<node lat="62.26956388934578" lon="6.4832138823817465" id="-5691">
		<tag k="name" v="Uraneset" />
		<tag k="natural" v="cape" />
		<tag k="ssr:stedsnr" v="104244" />
	</node>
	<node lat="62.144716662897196" lon="6.221738891911482" id="-5701">
		<tag k="name" v="Hjellvika" />
		<tag k="natural" v="bay" />
		<tag k="ssr:stedsnr" v="104971" />
	</node>
	<node lat="62.20693611101732" lon="6.478622224084393" id="-5724">
		<tag k="name" v="Jaktekøyla" />
		<tag k="natural" v="bay" />
		<tag k="ssr:stedsnr" v="105714" />
	</node>
	<node lat="62.32266389077567" lon="6.398283340480353" id="-5727">
		<tag k="name" v="Uttaineset" />
		<tag k="natural" v="cape" />
		<tag k="ssr:stedsnr" v="105850" />
	</node>
	<node lat="62.19693889004519" lon="6.650847224994343" id="-5738">
		<tag k="name" v="Skogsvikja" />
		<tag k="natural" v="bay" />
		<tag k="ssr:stedsnr" v="106897" />
	</node>
	<node lat="62.27542500010114" lon="6.009719444567603" id="-5741">
		<tag k="name" v="Saltreneset" />
		<tag k="natural" v="cape" />
		<tag k="ssr:stedsnr" v="131158" />
	</node>
	<node lat="62.19866944621459" lon="6.049761105669373" id="-5743">
		<tag k="name" v="Digernes" />
		<tag k="natural" v="cape" />
		<tag k="ssr:stedsnr" v="132085" />
	</node>
	<node lat="62.23640832989357" lon="5.973533328065185" id="-5748">
		<tag k="name" v="Raudøyna" />
		<tag k="place" v="island" />
		<tag k="ssr:stedsnr" v="132147" />
	</node>
	<node lat="62.23533611148891" lon="5.978763893975796" id="-5749">
		<tag k="name" v="Eineneset" />
		<tag k="natural" v="cape" />
		<tag k="ssr:stedsnr" v="132149" />
	</node>
	<node lat="62.2760638854491" lon="6.472055550202921" id="-5751">
		<tag k="name" v="Lyngneset" />
		<tag k="natural" v="cape" />
		<tag k="ssr:stedsnr" v="132255" />
	</node>
	<node lat="62.36107499602231" lon="6.349216665525673" id="-5768">
		<tag k="name" v="Hjørundsteinane" />
		<tag k="natural" v="cape" />
		<tag k="ssr:stedsnr" v="141177" />
	</node>
	<node lat="62.18916111438362" lon="6.118124995868243" id="-5782">
		<tag k="name" v="Vekslet" />
		<tag k="natural" v="beach" />
		<tag k="ssr:stedsnr" v="159156" />
	</node>
	<node lat="62.21594999977421" lon="6.5354111022952015" id="-5801">
		<tag k="name" v="Leknesstranda" />
		<tag k="natural" v="beach" />
		<tag k="ssr:stedsnr" v="165323" />
	</node>
	<node lat="62.21093055770735" lon="6.594833340225711" id="-5833">
		<tag k="name" v="Åreneset" />
		<tag k="natural" v="cape" />
		<tag k="ssr:stedsnr" v="165933" />
	</node>
	<node lat="62.233094444312286" lon="6.524530554470773" id="-5846">
		<tag k="name" v="Maradalsvika" />
		<tag k="natural" v="bay" />
		<tag k="ssr:stedsnr" v="173781" />
	</node>
	<node lat="62.31037777677335" lon="6.099444449345521" id="-5847">
		<tag k="name" v="Litleberget" />
		<tag k="natural" v="cape" />
		<tag k="ssr:stedsnr" v="173191" />
	</node>
	<node lat="62.193483334115264" lon="6.555263882398093" id="-5857">
		<tag k="name" v="Stålbergneset" />
		<tag k="natural" v="cape" />
		<tag k="ssr:stedsnr" v="192648" />
	</node>
	<node lat="62.195019443427434" lon="6.06226945073607" id="-5862">
		<tag k="name" v="Storeneset" />
		<tag k="natural" v="cape" />
		<tag k="ssr:stedsnr" v="193105" />
	</node>
	<node lat="62.27294444593455" lon="6.002327773008667" id="-5909">
		<tag k="name" v="Svoraneset" />
		<tag k="natural" v="cape" />
		<tag k="ssr:stedsnr" v="225760" />
	</node>
	<node lat="62.203786113390805" lon="6.635880556853753" id="-5935">
		<tag k="name" v="Apalneset" />
		<tag k="natural" v="cape" />
		<tag k="ssr:stedsnr" v="227149" />
	</node>
	<node lat="62.274458331942405" lon="6.472422215578554" id="-5937">
		<tag k="name" v="Litlevika" />
		<tag k="natural" v="bay" />
		<tag k="ssr:stedsnr" v="227155" />
	</node>
	<node lat="62.212008337176506" lon="6.536599992646766" id="-5993">
		<tag k="name" v="Kåsevika" />
		<tag k="natural" v="bay" />
		<tag k="ssr:stedsnr" v="287341" />
	</node>
	<node lat="62.219536107789985" lon="6.492791667988616" id="-5994">
		<tag k="name" v="Mineset" />
		<tag k="natural" v="cape" />
		<tag k="ssr:stedsnr" v="287359" />
	</node>
	<node lat="62.28915277564193" lon="6.424730550434931" id="-6017">
		<tag k="name" v="Ongelsvika" />
=======
	<node id="-65318" lat="62.2760638854" lon="6.4720555502">
		<tag k="name" v="Lyngneset" />
		<tag k="natural" v="cape" />
		<tag k="ssr:stedsnr" v="132255" />
	</node>
	<node id="-65829" lat="62.2087638913" lon="6.48257499817">
		<tag k="name" v="Sæbøvika" />
		<tag k="natural" v="bay" />
		<tag k="ssr:stedsnr" v="537766" />
	</node>
	<node id="-65827" lat="62.3594222185" lon="6.24705555045">
		<tag k="name" v="Lyngeneset" />
		<tag k="natural" v="cape" />
		<tag k="ssr:stedsnr" v="536932" />
	</node>
	<node id="-65314" lat="62.1986694462" lon="6.04976110567">
		<tag k="name" v="Digernes" />
		<tag k="natural" v="cape" />
		<tag k="ssr:stedsnr" v="132085" />
	</node>
	<node id="-63963" lat="62.1950194434" lon="6.06226945074">
		<tag k="name" v="Storeneset" />
		<tag k="natural" v="cape" />
		<tag k="ssr:stedsnr" v="193105" />
	</node>
	<node id="-63775" lat="62.2726777745" lon="5.99684445252">
		<tag k="name" v="Flåvika" />
		<tag k="natural" v="bay" />
		<tag k="ssr:stedsnr" v="51001" />
	</node>
	<node id="-66333" lat="62.3410916642" lon="6.20005832894">
		<tag k="name" v="Kvennaneset" />
		<tag k="natural" v="cape" />
		<tag k="ssr:stedsnr" v="833995" />
	</node>
	<node id="-66331" lat="62.1471499999" lon="6.22002500642">
		<tag k="name" v="Fludaneset" />
		<tag k="natural" v="cape" />
		<tag k="ssr:stedsnr" v="833982" />
	</node>
	<node id="-65306" lat="62.2754250001" lon="6.00971944457">
		<tag k="name" v="Saltreneset" />
		<tag k="natural" v="cape" />
		<tag k="ssr:stedsnr" v="131158" />
	</node>
	<node id="-65817" lat="62.2017944427" lon="6.50185556505">
		<tag k="name" v="Kloppa" />
		<tag k="natural" v="cape" />
		<tag k="ssr:stedsnr" v="530345" />
	</node>
	<node id="-65302" lat="62.19693889" lon="6.65084722499">
		<tag k="name" v="Skogsvikja" />
		<tag k="natural" v="bay" />
		<tag k="ssr:stedsnr" v="106897" />
	</node>
	<node id="-64789" lat="62.3255888932" lon="6.14114721936">
		<tag k="alt_name" v="Øyraneset" />
		<tag k="name" v="Øyrneset" />
		<tag k="natural" v="cape" />
		<tag k="ssr:stedsnr" v="772509" />
	</node>
	<node id="-65296" lat="62.3419027776" lon="6.20467778046">
		<tag k="name" v="Olavoren" />
		<tag k="natural" v="bay" />
		<tag k="ssr:stedsnr" v="105994" />
	</node>
	<node id="-63754" lat="62.2744583319" lon="6.47242221558">
		<tag k="name" v="Litlevika" />
		<tag k="natural" v="bay" />
		<tag k="ssr:stedsnr" v="227155" />
	</node>
	<node id="-65289" lat="62.3226638908" lon="6.39828334048">
		<tag k="name" v="Uttaineset" />
		<tag k="natural" v="cape" />
		<tag k="ssr:stedsnr" v="105850" />
	</node>
	<node id="-63752" lat="62.2037861134" lon="6.63588055685">
		<tag k="name" v="Apalneset" />
		<tag k="natural" v="cape" />
		<tag k="ssr:stedsnr" v="227149" />
	</node>
	<node id="-65954" lat="62.1943555587" lon="6.64240277751">
		<tag k="name" v="Helganeset" />
		<tag k="natural" v="cape" />
		<tag k="ssr:stedsnr" v="591900" />
	</node>
	<node id="-66302" lat="62.3151888901" lon="6.10879722728">
		<tag k="name" v="Fluda" />
		<tag k="natural" v="shoal" />
		<tag k="place" v="locality" />
		<tag k="ssr:stedsnr" v="833002" />
	</node>
	<node id="-65277" lat="62.206936111" lon="6.47862222408">
		<tag k="name" v="Jaktekøyla" />
		<tag k="natural" v="bay" />
		<tag k="ssr:stedsnr" v="105714" />
	</node>
	<node id="-66299" lat="62.2378166706" lon="5.97049999073">
		<tag k="fixme" v="consider seamark:type=rock or natural=shoal" />
		<tag k="name" v="Kobbeskjeret" />
		<tag k="place" v="islet" />
		<tag k="ssr:stedsnr" v="832794" />
	</node>
	<node id="-66090" lat="62.3214194457" lon="6.40135556116">
		<tag k="name" v="Nesodden" />
		<tag k="natural" v="cape" />
		<tag k="ssr:stedsnr" v="651837" />
	</node>
	<node id="-66089" lat="62.3254027808" lon="6.39075278345">
		<tag k="name" v="Kalvegjerdvika" />
		<tag k="natural" v="bay" />
		<tag k="ssr:stedsnr" v="651824" />
	</node>
	<node id="-64238" lat="62.2829166623" lon="6.46812499307">
		<tag k="name" v="Barlindneset" />
		<tag k="natural" v="cape" />
		<tag k="ssr:stedsnr" v="375207" />
	</node>
	<node id="-65772" lat="62.3192000031" lon="6.12676111785">
		<tag k="name" v="Øggardskåsa" />
		<tag k="natural" v="bay" />
		<tag k="ssr:stedsnr" v="529503" />
	</node>
	<node id="-64232" lat="62.2022333367" lon="6.03914166392">
		<tag k="name" v="Klubbakatten" />
		<tag k="natural" v="cape" />
		<tag k="ssr:stedsnr" v="374111" />
	</node>
	<node id="-65254" lat="62.2342750042" lon="6.48225556306">
		<tag k="name" v="Holm" />
		<tag k="natural" v="cape" />
		<tag k="ssr:stedsnr" v="105206" />
	</node>
	<node id="-64229" lat="62.3118138869" lon="6.44533333446">
		<tag k="alt_name" v="Molaupneset" />
		<tag k="name" v="Molaupen" />
		<tag k="natural" v="cape" />
		<tag k="ssr:stedsnr" v="497433" />
	</node>
	<node id="-64226" lat="62.3323638846" lon="6.16413610936">
		<tag k="name" v="Slettevika" />
		<tag k="natural" v="bay" />
		<tag k="ssr:stedsnr" v="496809" />
	</node>
	<node id="-65248" lat="62.2525055544" lon="6.5032777776">
		<tag k="name" v="Hamna" />
		<tag k="natural" v="bay" />
		<tag k="ssr:stedsnr" v="105090" />
	</node>
	<node id="-65246" lat="62.1447166629" lon="6.22173889191">
		<tag k="name" v="Hjellvika" />
		<tag k="natural" v="bay" />
		<tag k="ssr:stedsnr" v="104971" />
	</node>
	<node id="-64634" lat="62.2572861101" lon="6.44735555309">
		<tag k="name" v="Sandvika" />
>>>>>>> e1d4bc35ff8a6074a6f2e91616a996b547c36f15
		<tag k="natural" v="bay" />
		<tag k="ssr:stedsnr" v="893039" />
	</node>
<<<<<<< HEAD
	<node lat="62.227833335801236" lon="5.986483323889156" id="-6027">
		<tag k="name" v="Steinneset" />
		<tag k="natural" v="cape" />
		<tag k="ssr:stedsnr" v="314192" />
	</node>
	<node lat="62.21655277676358" lon="6.009350004472694" id="-6064">
		<tag k="name" v="Lianesholmane" />
		<tag k="place" v="islet" />
		<tag k="ssr:stedsnr" v="341428" />
	</node>
	<node lat="62.30188055347797" lon="6.083638892253512" id="-6068">
		<tag k="name" v="Årsetvika" />
		<tag k="natural" v="cape" />
		<tag k="ssr:stedsnr" v="346199" />
	</node>
	<node lat="62.20630278040572" lon="6.621522228187365" id="-6129">
		<tag k="name" v="Brokkneset" />
		<tag k="natural" v="cape" />
		<tag k="ssr:stedsnr" v="355762" />
	</node>
	<node lat="62.210741666241105" lon="6.58112499303738" id="-6130">
		<tag k="name" v="Urkebukta" />
		<tag k="natural" v="bay" />
		<tag k="ssr:stedsnr" v="355763" />
	</node>
	<node lat="62.31587499648147" lon="6.445494441625197" id="-6163">
		<tag k="name" v="Litleneset" />
		<tag k="natural" v="cape" />
		<tag k="ssr:stedsnr" v="401848" />
	</node>
	<node lat="62.21016666411164" lon="5.994369443305133" id="-6172">
		<tag k="name" v="Laberget" />
		<tag k="natural" v="cape" />
		<tag k="ssr:stedsnr" v="402930" />
	</node>
	<node lat="62.22402777995352" lon="5.986880562099361" id="-6178">
		<tag k="name" v="Slåttestranda" />
		<tag k="natural" v="beach" />
		<tag k="ssr:stedsnr" v="407832" />
	</node>
	<node lat="62.23893333532976" lon="6.4763750069903745" id="-6181">
		<tag k="name" v="Skata" />
		<tag k="natural" v="cape" />
		<tag k="ssr:stedsnr" v="408189" />
	</node>
	<node lat="62.14359999931683" lon="6.224897224405991" id="-6191">
		<tag k="name" v="Musvika" />
		<tag k="natural" v="bay" />
		<tag k="ssr:stedsnr" v="407970" />
	</node>
	<node lat="62.247775003028465" lon="6.506555551998909" id="-6195">
		<tag k="name" v="Nesodden" />
		<tag k="natural" v="cape" />
		<tag k="ssr:stedsnr" v="408088" />
	</node>
	<node lat="62.30356110728404" lon="6.450725008918868" id="-6243">
		<tag k="name" v="Jurafetflua" />
		<tag k="natural" v="shoal" />
		<tag k="place" v="locality" />
		<tag k="ssr:stedsnr" v="416771" />
	</node>
	<node lat="62.15365000214478" lon="6.577580558906834" id="-6266">
		<tag k="bay" v="fjord" />
		<tag k="name" v="Storfjorden" />
		<tag k="natural" v="bay" />
		<tag k="ssr:stedsnr" v="436535" />
	</node>
	<node lat="62.278608335715575" lon="6.419074990361444" id="-6279">
		<tag k="name" v="Langeneset" />
		<tag k="natural" v="cape" />
		<tag k="ssr:stedsnr" v="496264" />
	</node>
	<node lat="62.31181388687795" lon="6.445333334464051" id="-6303">
		<tag k="alt_name" v="Molaupneset" />
		<tag k="name" v="Molaupen" />
		<tag k="natural" v="cape" />
		<tag k="ssr:stedsnr" v="497433" />
	</node>
	<node lat="62.22602777642098" lon="6.527516670715991" id="-6385">
		<tag k="alt_name" v="Furneset" />
		<tag k="name" v="Fureneset" />
		<tag k="natural" v="cape" />
		<tag k="ssr:stedsnr" v="530165" />
	</node>
	<node lat="62.201794442709655" lon="6.501855565049384" id="-6388">
		<tag k="name" v="Kloppa" />
		<tag k="natural" v="cape" />
		<tag k="ssr:stedsnr" v="530345" />
	</node>
	<node lat="62.35942221853503" lon="6.247055550445804" id="-6392">
		<tag k="name" v="Lyngeneset" />
		<tag k="natural" v="cape" />
		<tag k="ssr:stedsnr" v="536932" />
	</node>
	<node lat="62.248247226294225" lon="5.965161112304045" id="-6398">
		<tag k="name" v="Rjåneset" />
		<tag k="natural" v="cape" />
		<tag k="ssr:stedsnr" v="556177" />
	</node>
	<node lat="62.205119445330475" lon="6.480269444577076" id="-6432">
		<tag k="name" v="Hustadvika" />
		<tag k="natural" v="bay" />
		<tag k="ssr:stedsnr" v="582362" />
	</node>
	<node lat="62.27161389101698" lon="5.999691661646339" id="-6445">
		<tag k="name" v="Smånesja" />
		<tag k="natural" v="cape" />
		<tag k="ssr:stedsnr" v="589799" />
	</node>
	<node lat="62.33898333152406" lon="6.37357221581957" id="-6477">
		<tag k="name" v="Verpesneset" />
		<tag k="natural" v="cape" />
		<tag k="ssr:stedsnr" v="590792" />
	</node>
	<node lat="62.15666666499032" lon="6.223108328941035" id="-6479">
		<tag k="name" v="Skitvika" />
=======
	<node id="-65753" lat="62.3132083321" lon="6.44283610665">
		<tag k="name" v="Molaupsvika" />
		<tag k="natural" v="bay" />
		<tag k="ssr:stedsnr" v="522863" />
	</node>
	<node id="-66263" lat="62.2717222208" lon="5.98961665902">
		<tag k="name" v="Flåvikneset" />
		<tag k="natural" v="cape" />
		<tag k="ssr:stedsnr" v="826874" />
	</node>
	<node id="-63778" lat="62.1887361115" lon="6.10607778715">
		<tag k="name" v="Strand" />
		<tag k="natural" v="beach" />
		<tag k="place" v="locality" />
		<tag k="ssr:stedsnr" v="71013" />
	</node>
	<node id="-65737" lat="62.1536500021" lon="6.57758055891">
		<tag k="bay" v="fjord" />
		<tag k="name" v="Storfjorden" />
		<tag k="natural" v="bay" />
		<tag k="ssr:stedsnr" v="436535" />
	</node>
	<node id="-64199" lat="62.2954388865" lon="6.06229445427">
		<tag k="fixme" v="consider seamark:type=rock or natural=shoal" />
		<tag k="name" v="Trollskjeret" />
		<tag k="place" v="islet" />
		<tag k="ssr:stedsnr" v="495162" />
	</node>
	<node id="-66246" lat="62.3727027784" lon="6.34668056013">
		<tag k="name" v="Vindsneset" />
		<tag k="natural" v="cape" />
		<tag k="ssr:stedsnr" v="809168" />
	</node>
	<node id="-63685" lat="62.311405553" lon="6.09999999648">
		<tag k="name" v="Djuparvika" />
		<tag k="natural" v="bay" />
		<tag k="ssr:stedsnr" v="226003" />
	</node>
	<node id="-64708" lat="62.2365444421" lon="5.95865556301">
		<tag k="name" v="Geitavika" />
		<tag k="natural" v="bay" />
		<tag k="ssr:stedsnr" v="711836" />
	</node>
	<node id="-66242" lat="62.3228166692" lon="6.13744444264">
		<tag k="name" v="Årskogvika" />
		<tag k="natural" v="bay" />
		<tag k="ssr:stedsnr" v="800727" />
	</node>
	<node id="-65227" lat="62.2695638893" lon="6.48321388238">
		<tag k="name" v="Uraneset" />
		<tag k="natural" v="cape" />
		<tag k="ssr:stedsnr" v="104244" />
	</node>
	<node id="-63680" lat="62.2729444459" lon="6.00232777301">
		<tag k="name" v="Svoraneset" />
		<tag k="natural" v="cape" />
		<tag k="ssr:stedsnr" v="225760" />
	</node>
	<node id="-66237" lat="62.2180194453" lon="6.4913638907">
		<tag k="name" v="Sæbøneset" />
		<tag k="natural" v="cape" />
		<tag k="ssr:stedsnr" v="800517" />
	</node>
	<node id="-66236" lat="62.2199999988" lon="6.49219999256">
		<tag k="name" v="Flatneset" />
		<tag k="natural" v="cape" />
		<tag k="ssr:stedsnr" v="800516" />
	</node>
	<node id="-65567" lat="62.2301277782" lon="6.48550832866">
		<tag k="name" v="Mienvika" />
		<tag k="natural" v="bay" />
		<tag k="ssr:stedsnr" v="355789" />
	</node>
	<node id="-64695" lat="62.3260444441" lon="6.14685833579">
		<tag k="name" v="Verpet" />
		<tag k="natural" v="beach" />
		<tag k="place" v="locality" />
		<tag k="ssr:stedsnr" v="894554" />
	</node>
	<node id="-65709" lat="62.3035611073" lon="6.45072500892">
		<tag k="name" v="Jurafetflua" />
		<tag k="natural" v="shoal" />
		<tag k="place" v="locality" />
		<tag k="ssr:stedsnr" v="416771" />
	</node>
	<node id="-63659" lat="62.2039194433" lon="6.10362778507">
		<tag k="name" v="Morkaneset" />
		<tag k="natural" v="cape" />
		<tag k="ssr:stedsnr" v="220914" />
	</node>
	<node id="-65223" lat="62.2986499955" lon="6.07569443567">
		<tag k="name" v="Remevika" />
		<tag k="natural" v="bay" />
		<tag k="ssr:stedsnr" v="104208" />
	</node>
	<node id="-66213" lat="62.2228027736" lon="6.52922223166">
		<tag k="name" v="Furnesvika" />
		<tag k="natural" v="bay" />
		<tag k="ssr:stedsnr" v="780750" />
	</node>
	<node id="-64676" lat="62.3011999979" lon="6.40943332916">
		<tag k="name" v="Litleneset" />
		<tag k="natural" v="cape" />
		<tag k="ssr:stedsnr" v="894349" />
	</node>
	<node id="-65734" lat="62.2110944412" lon="6.51450278347">
		<tag k="bay" v="fjord" />
		<tag k="name" v="Hjørundfjorden" />
		<tag k="natural" v="bay" />
		<tag k="ssr:stedsnr" v="436508" />
	</node>
	<node id="-66207" lat="62.2365999997" lon="6.52135277639">
		<tag k="name" v="Godhamna" />
		<tag k="natural" v="bay" />
		<tag k="ssr:stedsnr" v="773150" />
	</node>
	<node id="-65169" lat="62.3744527779" lon="6.31482500837">
		<tag k="fixme" v="multiple name tags, choose one and add the other to alt_name" />
		<tag k="name" v="Festøyflesa;Fleset" />
		<tag k="place" v="islet" />
		<tag k="ssr:stedsnr" v="72358" />
	</node>
	<node id="-65168" lat="62.2305861098" lon="5.97267500311">
		<tag k="fixme" v="consider seamark:type=rock or natural=shoal" />
		<tag k="name" v="Pålskjeret" />
		<tag k="place" v="islet" />
		<tag k="ssr:stedsnr" v="72172" />
	</node>
	<node id="-65166" lat="62.2395361102" lon="5.96543888608">
		<tag k="name" v="Blæja" />
		<tag k="place" v="islet" />
		<tag k="ssr:stedsnr" v="72148" />
	</node>
	<node id="-65133" lat="62.2019916699" lon="6.58598889449">
		<tag k="name" v="Tangen" />
		<tag k="natural" v="cape" />
		<tag k="ssr:stedsnr" v="44913" />
	</node>
	<node id="-64648" lat="62.2758805524" lon="6.01045000545">
		<tag k="name" v="Bjørndalsneset" />
		<tag k="natural" v="cape" />
		<tag k="ssr:stedsnr" v="893777" />
	</node>
	<node id="-66156" lat="62.272194448" lon="5.99327777933">
		<tag k="name" v="Tangeflua" />
		<tag k="natural" v="shoal" />
		<tag k="place" v="locality" />
		<tag k="ssr:stedsnr" v="771784" />
	</node>
	<node id="-65157" lat="62.2066277813" lon="6.53073610312">
		<tag k="name" v="Leknes" />
		<tag k="natural" v="cape" />
		<tag k="ssr:stedsnr" v="71548" />
	</node>
	<node id="-64643" lat="62.206327775" lon="6.49903889694">
		<tag k="name" v="Steglet" />
		<tag k="natural" v="bay" />
		<tag k="ssr:stedsnr" v="893331" />
	</node>
	<node id="-64637" lat="62.1822499988" lon="6.52654722924">
		<tag k="name" v="Storelvvika" />
		<tag k="natural" v="bay" />
		<tag k="ssr:stedsnr" v="893057" />
	</node>
	<node id="-65146" lat="62.2213694426" lon="6.01488056035">
		<tag k="name" v="Gardvika" />
		<tag k="natural" v="bay" />
		<tag k="ssr:stedsnr" v="71068" />
	</node>
	<node id="-65144" lat="62.3744027799" lon="6.33550555055">
		<tag k="name" v="Solevågen" />
		<tag k="natural" v="bay" />
		<tag k="ssr:stedsnr" v="56240" />
	</node>
	<node id="-65143" lat="62.261438885" lon="6.49763888517">
		<tag k="name" v="Trandalsvika" />
		<tag k="natural" v="bay" />
		<tag k="ssr:stedsnr" v="52781" />
	</node>
	<node id="-65707" lat="62.3689666701" lon="6.35018610637">
		<tag k="name" v="Oksen" />
		<tag k="natural" v="cape" />
		<tag k="ssr:stedsnr" v="409826" />
	</node>
	<node id="-66161" lat="62.1974472232" lon="6.50303332557">
		<tag k="fixme" v="multiple name tags, choose one and add the other to alt_name" />
		<tag k="name" v="Lidagjølsvika;Råmannsvika" />
>>>>>>> e1d4bc35ff8a6074a6f2e91616a996b547c36f15
		<tag k="natural" v="bay" />
		<tag k="ssr:stedsnr" v="772049" />
	</node>
<<<<<<< HEAD
	<node lat="62.20837499927016" lon="6.571055559621327" id="-6484">
		<tag k="name" v="Torsteinneset" />
		<tag k="natural" v="cape" />
		<tag k="ssr:stedsnr" v="591145" />
	</node>
	<node lat="62.19435555874002" lon="6.642402777513927" id="-6486">
		<tag k="name" v="Helganeset" />
		<tag k="natural" v="cape" />
		<tag k="ssr:stedsnr" v="591900" />
	</node>
	<node lat="62.31988888672895" lon="6.127836115888293" id="-6487">
		<tag k="name" v="Øygardsvika" />
		<tag k="natural" v="bay" />
		<tag k="ssr:stedsnr" v="597215" />
	</node>
	<node lat="62.2287999974735" lon="6.485561114738503" id="-6489">
		<tag k="name" v="Geithellarneset" />
		<tag k="natural" v="cape" />
		<tag k="ssr:stedsnr" v="597819" />
	</node>
	<node lat="62.24631111118732" lon="5.97283055542934" id="-6502">
		<tag k="fixme" v="consider seamark:type=rock or natural=shoal" />
		<tag k="name" v="Grøvikskjeret" />
		<tag k="old_name" v="Grøvika" />
		<tag k="place" v="islet" />
		<tag k="ssr:stedsnr" v="617174" />
	</node>
	<node lat="62.24074166656112" lon="5.978605556709908" id="-6503">
		<tag k="name" v="Raudøyholmen" />
		<tag k="place" v="islet" />
		<tag k="ssr:stedsnr" v="617176" />
	</node>
	<node lat="62.206644447959825" lon="6.498077781526276" id="-6505">
		<tag k="name" v="Hustadneset" />
		<tag k="natural" v="cape" />
		<tag k="ssr:stedsnr" v="617526" />
	</node>
	<node lat="62.290611112220866" lon="6.423563897758563" id="-6511">
		<tag k="name" v="Ongelsneset" />
		<tag k="natural" v="cape" />
		<tag k="ssr:stedsnr" v="618482" />
	</node>
	<node lat="62.32579166837433" lon="6.441300006017282" id="-6536">
		<tag k="name" v="Vikane" />
		<tag k="natural" v="bay" />
		<tag k="ssr:stedsnr" v="644915" />
	</node>
	<node lat="62.307566666828606" lon="6.0957527837703775" id="-6539">
		<tag k="name" v="Sæssleira" />
		<tag k="natural" v="shoal" />
		<tag k="place" v="locality" />
		<tag k="ssr:stedsnr" v="649153" />
	</node>
	<node lat="62.209541668925766" lon="6.599055554283631" id="-6543">
		<tag k="name" v="Raudeneset" />
		<tag k="natural" v="cape" />
		<tag k="ssr:stedsnr" v="650921" />
	</node>
	<node lat="62.15212222513588" lon="6.2195722141246765" id="-6568">
		<tag k="name" v="Fureneset" />
		<tag k="natural" v="cape" />
		<tag k="ssr:stedsnr" v="650971" />
	</node>
	<node lat="62.321419445698865" lon="6.401355561158464" id="-6592">
		<tag k="name" v="Nesodden" />
		<tag k="natural" v="cape" />
		<tag k="ssr:stedsnr" v="651837" />
	</node>
	<node lat="62.19481389083811" lon="6.561699998028237" id="-6598">
		<tag k="name" v="Stokkerikstranda" />
		<tag k="natural" v="beach" />
		<tag k="ssr:stedsnr" v="651700" />
	</node>
	<node lat="62.32540278078402" lon="6.3907527834482645" id="-6600">
		<tag k="name" v="Kalvegjerdvika" />
		<tag k="natural" v="bay" />
		<tag k="ssr:stedsnr" v="651824" />
	</node>
	<node lat="62.23654444209628" lon="5.958655563011673" id="-6640">
		<tag k="name" v="Geitavika" />
		<tag k="natural" v="bay" />
		<tag k="ssr:stedsnr" v="711836" />
	</node>
	<node lat="62.367238888255805" lon="6.294258332911002" id="-6661">
		<tag k="name" v="Romestranda" />
		<tag k="natural" v="beach" />
		<tag k="ssr:stedsnr" v="718932" />
	</node>
	<node lat="62.30604721919576" lon="6.093744445124774" id="-6662">
		<tag k="name" v="Sjåneset" />
		<tag k="natural" v="cape" />
		<tag k="ssr:stedsnr" v="719200" />
	</node>
	<node lat="62.20363610770999" lon="6.617277784249155" id="-6669">
		<tag k="bay" v="fjord" />
		<tag k="name" v="Norangsfjorden" />
		<tag k="natural" v="bay" />
		<tag k="ssr:stedsnr" v="738496" />
	</node>
	<node lat="62.35213611284565" lon="6.2185555619333455" id="-6673">
		<tag k="name" v="Rotaneset" />
		<tag k="natural" v="cape" />
		<tag k="ssr:stedsnr" v="739384" />
	</node>
	<node lat="62.32196666495925" lon="6.399041658756693" id="-6680">
		<tag k="name" v="Årsneset" />
=======
	<node id="-65134" lat="62.1503527751" lon="6.21918056223">
		<tag k="name" v="Sandvikneset" />
		<tag k="natural" v="cape" />
		<tag k="ssr:stedsnr" v="44968" />
	</node>
	<node id="-64621" lat="62.3642444455" lon="6.28444444886">
		<tag k="name" v="Årvika" />
		<tag k="natural" v="bay" />
		<tag k="ssr:stedsnr" v="882987" />
	</node>
	<node id="-64108" lat="62.2074277767" lon="6.53216389283">
		<tag k="name" v="Brunsvika" />
		<tag k="natural" v="bay" />
		<tag k="ssr:stedsnr" v="469319" />
	</node>
	<node id="-65639" lat="62.2389333353" lon="6.47637500699">
		<tag k="name" v="Skata" />
		<tag k="natural" v="cape" />
		<tag k="ssr:stedsnr" v="408189" />
	</node>
	<node id="-65126" lat="62.3756833367" lon="6.3257888861">
		<tag k="name" v="Trygla" />
		<tag k="natural" v="cape" />
		<tag k="ssr:stedsnr" v="44799" />
	</node>
	<node id="-63681" lat="62.2372944489" lon="5.96650000063">
		<tag k="name" v="Rolfsbukta" />
		<tag k="natural" v="bay" />
		<tag k="ssr:stedsnr" v="225801" />
	</node>
	<node id="-63930" lat="62.2120083372" lon="6.53659999265">
		<tag k="name" v="Kåsevika" />
		<tag k="natural" v="bay" />
		<tag k="ssr:stedsnr" v="287341" />
	</node>
	<node id="-65625" lat="62.247775003" lon="6.506555552">
		<tag k="name" v="Nesodden" />
		<tag k="natural" v="cape" />
		<tag k="ssr:stedsnr" v="408088" />
	</node>
	<node id="-64600" lat="62.238563892" lon="5.95250000448">
		<tag k="alt_name" v="Raudøytangane" />
		<tag k="name" v="Tangane" />
		<tag k="natural" v="cape" />
		<tag k="ssr:stedsnr" v="678169" />
	</node>
	<node id="-65623" lat="62.22402778" lon="5.9868805621">
		<tag k="name" v="Slåttestranda" />
		<tag k="natural" v="beach" />
		<tag k="place" v="locality" />
		<tag k="ssr:stedsnr" v="407832" />
	</node>
	<node id="-64590" lat="62.2125944432" lon="5.99161110923">
		<tag k="name" v="Storhammaren" />
		<tag k="natural" v="cape" />
		<tag k="ssr:stedsnr" v="877240" />
	</node>
	<node id="-64588" lat="62.1992500029" lon="6.62371111821">
		<tag k="name" v="Ysteneset" />
		<tag k="natural" v="cape" />
		<tag k="ssr:stedsnr" v="651889" />
	</node>
	<node id="-65610" lat="62.2684527822" lon="5.98295833459">
		<tag k="alt_name" v="Røsteneset" />
		<tag k="name" v="Rysteneset" />
		<tag k="natural" v="cape" />
		<tag k="ssr:stedsnr" v="401879" />
	</node>
	<node id="-65608" lat="62.1934999976" lon="6.06888056221">
		<tag k="fixme" v="consider seamark:type=rock or natural=shoal" />
		<tag k="name" v="Grånils" />
		<tag k="place" v="islet" />
		<tag k="ssr:stedsnr" v="401876" />
	</node>
	<node id="-65603" lat="62.3158749965" lon="6.44549444163">
		<tag k="name" v="Litleneset" />
		<tag k="natural" v="cape" />
		<tag k="ssr:stedsnr" v="401848" />
	</node>
	<node id="-64577" lat="62.2115972235" lon="6.59203888511">
		<tag k="name" v="Skredevika" />
		<tag k="natural" v="bay" />
		<tag k="ssr:stedsnr" v="650918" />
	</node>
	<node id="-64089" lat="62.2127750039" lon="6.58715832673">
		<tag k="name" v="Stranda" />
		<tag k="natural" v="beach" />
		<tag k="place" v="locality" />
		<tag k="ssr:stedsnr" v="468903" />
	</node>
	<node id="-65594" lat="62.2101666641" lon="5.99436944331">
		<tag k="name" v="Laberget" />
		<tag k="natural" v="cape" />
		<tag k="ssr:stedsnr" v="402930" />
	</node>
	<node id="-63765" lat="62.3615722227" lon="6.26033611339">
		<tag k="name" v="Barstadvika" />
		<tag k="natural" v="bay" />
		<tag k="ssr:stedsnr" v="232925" />
	</node>
	<node id="-65077" lat="62.2965722259" lon="6.41307778174">
		<tag k="name" v="Sildegarnneset" />
>>>>>>> e1d4bc35ff8a6074a6f2e91616a996b547c36f15
		<tag k="natural" v="cape" />
		<tag k="ssr:stedsnr" v="739462" />
	</node>
<<<<<<< HEAD
	<node lat="62.2721944480081" lon="5.993277779328376" id="-6726">
		<tag k="name" v="Tangeflua" />
		<tag k="natural" v="shoal" />
		<tag k="place" v="locality" />
		<tag k="ssr:stedsnr" v="771784" />
	</node>
	<node lat="62.197447223193564" lon="6.503033325571186" id="-6728">
		<tag k="fixme" v="multiple name tags, choose one and add the other to alt_name" />
		<tag k="name" v="Lidagjølsvika;Råmannsvika" />
		<tag k="natural" v="bay" />
		<tag k="ssr:stedsnr" v="772049" />
	</node>
	<node lat="62.23659999967402" lon="6.5213527763905415" id="-6760">
		<tag k="name" v="Godhamna" />
		<tag k="natural" v="bay" />
		<tag k="ssr:stedsnr" v="773150" />
	</node>
	<node lat="62.21999999884342" lon="6.4921999925646565" id="-6775">
		<tag k="name" v="Flatneset" />
		<tag k="natural" v="cape" />
		<tag k="ssr:stedsnr" v="800516" />
	</node>
	<node lat="62.218019445338854" lon="6.491363890701093" id="-6776">
		<tag k="name" v="Sæbøneset" />
		<tag k="natural" v="cape" />
		<tag k="ssr:stedsnr" v="800517" />
	</node>
	<node lat="62.37270277841468" lon="6.346680560131298" id="-6793">
		<tag k="name" v="Vindsneset" />
		<tag k="natural" v="cape" />
		<tag k="ssr:stedsnr" v="809168" />
	</node>
	<node lat="62.1471499998585" lon="6.220025006415992" id="-6865">
		<tag k="name" v="Fludaneset" />
		<tag k="natural" v="cape" />
		<tag k="ssr:stedsnr" v="833982" />
	</node>
	<node lat="62.341091664218226" lon="6.200058328940547" id="-6867">
		<tag k="name" v="Kvennaneset" />
		<tag k="natural" v="cape" />
		<tag k="ssr:stedsnr" v="833995" />
	</node>
	<node lat="62.333163885311116" lon="6.383141659803728" id="-6896">
		<tag k="name" v="Klubbeneset" />
		<tag k="natural" v="cape" />
		<tag k="ssr:stedsnr" v="861390" />
	</node>
	<node lat="62.21259444323121" lon="5.9916111092308135" id="-6906">
		<tag k="name" v="Storhammaren" />
		<tag k="natural" v="cape" />
		<tag k="ssr:stedsnr" v="877240" />
	</node>
	<node lat="62.36424444553389" lon="6.284444448859381" id="-6913">
		<tag k="name" v="Årvika" />
		<tag k="natural" v="bay" />
		<tag k="ssr:stedsnr" v="882987" />
	</node>
	<node lat="62.20227499574715" lon="6.594161111318143" id="-6983">
		<tag k="name" v="Ytstevika" />
		<tag k="natural" v="bay" />
		<tag k="ssr:stedsnr" v="954918" />
	</node>
	<node lat="62.24338611077989" lon="5.992827768647591" id="-6991">
		<tag k="name" v="Liadalsvika" />
		<tag k="natural" v="bay" />
		<tag k="ssr:stedsnr" v="961060" />
=======
	<node id="-65068" lat="62.3186694451" lon="6.12619721531">
		<tag k="name" v="Øygardsneset" />
		<tag k="natural" v="cape" />
		<tag k="ssr:stedsnr" v="37932" />
	</node>
	<node id="-64554" lat="62.2407416666" lon="5.97860555671">
		<tag k="name" v="Raudøyholmen" />
		<tag k="place" v="islet" />
		<tag k="ssr:stedsnr" v="617176" />
	</node>
	<node id="-64553" lat="62.2463111112" lon="5.97283055543">
		<tag k="fixme" v="consider seamark:type=rock or natural=shoal" />
		<tag k="name" v="Grøvikskjeret" />
		<tag k="old_name" v="Grøvika" />
		<tag k="place" v="islet" />
		<tag k="ssr:stedsnr" v="617174" />
	</node>
	<node id="-64038" lat="62.2195361078" lon="6.49279166799">
		<tag k="name" v="Mineset" />
		<tag k="natural" v="cape" />
		<tag k="ssr:stedsnr" v="287359" />
	</node>
	<node id="-64549" lat="62.1733805521" lon="6.54428611856">
		<tag k="name" v="Skåraneset" />
		<tag k="natural" v="cape" />
		<tag k="ssr:stedsnr" v="719778" />
	</node>
	<node id="-64548" lat="62.3060472192" lon="6.09374444512">
		<tag k="name" v="Sjåneset" />
		<tag k="natural" v="cape" />
		<tag k="ssr:stedsnr" v="719200" />
	</node>
	<node id="-64547" lat="62.3672388883" lon="6.29425833291">
		<tag k="name" v="Romestranda" />
		<tag k="natural" v="beach" />
		<tag k="place" v="locality" />
		<tag k="ssr:stedsnr" v="718932" />
	</node>
	<node id="-65627" lat="62.1435999993" lon="6.22489722441">
		<tag k="name" v="Musvika" />
		<tag k="natural" v="bay" />
		<tag k="ssr:stedsnr" v="407970" />
	</node>
	<node id="-66080" lat="62.1948138908" lon="6.56169999803">
		<tag k="name" v="Stokkerikstranda" />
		<tag k="natural" v="beach" />
		<tag k="place" v="locality" />
		<tag k="ssr:stedsnr" v="651700" />
	</node>
	<node id="-64543" lat="62.367466666" lon="6.35131112034">
		<tag k="name" v="Ferneset" />
		<tag k="natural" v="cape" />
		<tag k="ssr:stedsnr" v="712825" />
	</node>
	<node id="-65566" lat="62.2438222221" lon="6.5118083261">
		<tag k="name" v="Storevika" />
		<tag k="natural" v="bay" />
		<tag k="ssr:stedsnr" v="355774" />
	</node>
	<node id="-65565" lat="62.2107416662" lon="6.58112499304">
		<tag k="name" v="Urkebukta" />
		<tag k="natural" v="bay" />
		<tag k="ssr:stedsnr" v="355763" />
	</node>
	<node id="-65564" lat="62.2063027804" lon="6.62152222819">
		<tag k="name" v="Brokkneset" />
		<tag k="natural" v="cape" />
		<tag k="ssr:stedsnr" v="355762" />
	</node>
	<node id="-64601" lat="62.2526388914" lon="5.96934166716">
		<tag k="alt_name" v="Kattaneset" />
		<tag k="name" v="Kataneset" />
		<tag k="natural" v="cape" />
		<tag k="ssr:stedsnr" v="678211" />
	</node>
	<node id="-64523" lat="62.2022805525" lon="6.60230556368">
		<tag k="name" v="Instevika" />
		<tag k="natural" v="bay" />
		<tag k="ssr:stedsnr" v="590915" />
	</node>
	<node id="-66058" lat="62.1521222251" lon="6.21957221412">
		<tag k="name" v="Fureneset" />
		<tag k="natural" v="cape" />
		<tag k="ssr:stedsnr" v="650971" />
	</node>
	<node id="-64006" lat="62.1993777732" lon="6.01373888148">
		<tag k="name" v="Sætreneset" />
		<tag k="natural" v="cape" />
		<tag k="ssr:stedsnr" v="462993" />
	</node>
	<node id="-66053" lat="62.2095416689" lon="6.59905555428">
		<tag k="name" v="Raudeneset" />
		<tag k="natural" v="cape" />
		<tag k="ssr:stedsnr" v="650921" />
	</node>
	<node id="-64001" lat="62.251613887" lon="6.46299167363">
		<tag k="name" v="Høydalsneset" />
		<tag k="natural" v="cape" />
		<tag k="ssr:stedsnr" v="254259" />
>>>>>>> e1d4bc35ff8a6074a6f2e91616a996b547c36f15
	</node>
</osm>
