<?xml version="1.0" encoding="UTF-8"?>
<osm version="0.6" generator="osmapis">
	<node lat="62.288694447022195" lon="6.049586110760535" id="-7647">
		<tag k="alt_name" v="Søre Berg" />
		<tag k="name" v="Berget" />
		<tag k="place" v="farm" />
		<tag k="ssr:stedsnr" v="10141" />
	</node>
	<node lat="62.19271389035904" lon="6.661572230536549" id="-7649">
		<tag k="name" v="Styrkargarden" />
		<tag k="place" v="farm" />
		<tag k="ssr:stedsnr" v="10635" />
	</node>
	<node lat="62.30663611178096" lon="6.0966583320000085" id="-7652">
		<tag k="name" v="Gullikgarden" />
		<tag k="place" v="farm" />
		<tag k="ssr:stedsnr" v="11136" />
	</node>
	<node lat="62.25076214819803" lon="6.368630130863075" id="-7655">
		<tag k="historic" v="shieling" />
		<tag k="name" v="Standalsætra" />
		<tag k="place" v="isolated_dwelling" />
		<tag k="ssr:stedsnr" v="11283" />
	</node>
	<node lat="62.321527774325396" lon="6.272961110262515" id="-7657">
		<tag k="historic" v="shieling" />
		<tag k="name" v="Barstadsætra" />
		<tag k="old_name" v="Burstadsætra" />
		<tag k="place" v="isolated_dwelling" />
		<tag k="ssr:stedsnr" v="11444" />
	</node>
	<node lat="62.16121667091387" lon="6.238222212703092" id="-7661">
		<tag k="name" v="Brunene" />
		<tag k="place" v="farm" />
		<tag k="ssr:stedsnr" v="11605" />
	</node>
	<node lat="62.164516670467535" lon="6.2626777739492265" id="-7676">
		<tag k="historic" v="shieling" />
		<tag k="name" v="Brautasetstøylen" />
		<tag k="place" v="isolated_dwelling" />
		<tag k="ssr:stedsnr" v="32783" />
	</node>
	<node lat="62.18705833257342" lon="6.074058329136498" id="-7717">
		<tag k="name" v="Skiftet" />
		<tag k="place" v="farm" />
		<tag k="ssr:stedsnr" v="71001" />
	</node>
	<node lat="62.19001111333691" lon="6.666338882447732" id="-7723">
		<tag k="fixme" v="consider place=hamlet" />
		<tag k="name" v="Øye" />
		<tag k="place" v="village" />
		<tag k="ssr:stedsnr" v="71673" />
	</node>
	<node lat="62.23170555685582" lon="6.007755557908135" id="-7726">
		<tag k="name" v="Sandvika" />
		<tag k="place" v="farm" />
		<tag k="ssr:stedsnr" v="72169" />
	</node>
	<node lat="62.1604000039746" lon="6.184327778125413" id="-7794">
		<tag k="name" v="Søsterhytta" />
		<tag k="place" v="isolated_dwelling" />
		<tag k="ssr:stedsnr" v="131817" />
	</node>
	<node lat="62.235511110992405" lon="6.080413885702102" id="-7795">
		<tag k="name" v="Skorgesætra" />
		<tag k="place" v="isolated_dwelling" />
		<tag k="ssr:stedsnr" v="132177" />
	</node>
	<node lat="62.14584166463901" lon="6.255461116600462" id="-7799">
		<tag k="name" v="Solbakken" />
		<tag k="place" v="farm" />
		<tag k="ssr:stedsnr" v="132563" />
	</node>
	<node lat="62.225408334765994" lon="6.186119443484671" id="-7804">
		<tag k="historic" v="shieling" />
		<tag k="name" v="Nupasætra" />
		<tag k="place" v="isolated_dwelling" />
		<tag k="ssr:stedsnr" v="253072" />
	</node>
	<node lat="62.203394441131685" lon="6.47930833412071" id="-7809">
		<tag k="name" v="Hustadvika" />
		<tag k="place" v="farm" />
		<tag k="ssr:stedsnr" v="253538" />
	</node>
	<node lat="62.25359167023729" lon="6.230652779280983" id="-7816">
		<tag k="name" v="Høgeheida" />
		<tag k="place" v="isolated_dwelling" />
		<tag k="ssr:stedsnr" v="254248" />
	</node>
	<node lat="62.29677222035691" lon="6.246669446314347" id="-7821">
		<tag k="name" v="Skjerva" />
		<tag k="place" v="locality" />
		<tag k="ssr:stedsnr" v="254450" />
	</node>
	<node lat="62.15859166378044" lon="6.264863883114712" id="-7836">
		<tag k="historic" v="shieling" />
		<tag k="name" v="Litlestøylen" />
		<tag k="place" v="isolated_dwelling" />
		<tag k="ssr:stedsnr" v="153823" />
	</node>
	<node lat="62.14253610836181" lon="6.390136118221147" id="-7851">
		<tag k="historic" v="shieling" />
		<tag k="name" v="Rekkedalssætra" />
		<tag k="place" v="isolated_dwelling" />
		<tag k="ssr:stedsnr" v="165158" />
	</node>
	<node lat="62.26863889322033" lon="6.180536107103" id="-7862">
		<tag k="historic" v="shieling" />
		<tag k="name" v="Gletten" />
		<tag k="place" v="isolated_dwelling" />
		<tag k="ssr:stedsnr" v="165917" />
	</node>
	<node lat="62.19970555870916" lon="6.42538332808573" id="-7896">
		<tag k="name" v="Kvid" />
		<tag k="place" v="locality" />
		<tag k="ssr:stedsnr" v="226504" />
	</node>
	<node lat="62.193159573733446" lon="6.175367535134772" id="-7920">
		<tag k="historic" v="shieling" />
		<tag k="name" v="Brekkesætra" />
		<tag k="place" v="isolated_dwelling" />
		<tag k="ssr:stedsnr" v="253136" />
	</node>
	<node lat="62.25949721974568" lon="6.126961111651553" id="-7921">
		<tag k="historic" v="shieling" />
		<tag k="name" v="Skorgestøylen" />
		<tag k="place" v="isolated_dwelling" />
		<tag k="ssr:stedsnr" v="253239" />
	</node>
	<node lat="62.31430277628957" lon="6.165105554252461" id="-7973">
		<tag k="name" v="Reitegarden" />
		<tag k="place" v="farm" />
		<tag k="ssr:stedsnr" v="287584" />
	</node>
	<node lat="62.207399996896285" lon="6.242063886248106" id="-7984">
		<tag k="historic" v="shieling" />
		<tag k="name" v="Litlsætertunet" />
		<tag k="place" v="isolated_dwelling" />
		<tag k="ssr:stedsnr" v="287748" />
	</node>
	<node lat="62.337930558963784" lon="6.201241665643018" id="-7993">
		<tag k="name" v="Kosen" />
		<tag k="place" v="isolated_dwelling" />
		<tag k="ssr:stedsnr" v="287997" />
	</node>
	<node lat="62.18925833393859" lon="6.149000009535451" id="-8002">
		<tag k="alt_name" v="Indre Mo" />
		<tag k="name" v="Indremo" />
		<tag k="place" v="hamlet" />
		<tag k="ssr:stedsnr" v="314011" />
	</node>
	<node lat="62.161866665959884" lon="6.2284083369817695" id="-8011">
		<tag k="fixme" v="consider place=hamlet" />
		<tag k="name" v="Brautaset" />
		<tag k="place" v="village" />
		<tag k="ssr:stedsnr" v="314624" />
	</node>
	<node lat="62.181108330288865" lon="6.3881611150459054" id="-8036">
		<tag k="name" v="Moland" />
		<tag k="place" v="farm" />
		<tag k="ssr:stedsnr" v="469008" />
	</node>
	<node lat="62.35342499866733" lon="6.341980556220304" id="-8053">
		<tag k="historic" v="shieling" />
		<tag k="name" v="Skarbøsæter" />
		<tag k="place" v="isolated_dwelling" />
		<tag k="ssr:stedsnr" v="469847" />
	</node>
	<node lat="62.2042194485621" lon="6.447861116271121" id="-8066">
		<tag k="name" v="Pålplassen" />
		<tag k="place" v="farm" />
		<tag k="ssr:stedsnr" v="340351" />
	</node>
	<node lat="62.28926923971786" lon="6.052735612933855" id="-8072">
		<tag k="alt_name" v="Saltrø" />
		<tag k="fixme" v="consider place=hamlet" />
		<tag k="name" v="Saltre" />
		<tag k="place" v="farm" />
		<tag k="ssr:stedsnr" v="346202" />
	</node>
	<node lat="62.27188055232227" lon="6.164780553184108" id="-8083">
		<tag k="historic" v="shieling" />
		<tag k="name" v="Sætregarden" />
		<tag k="place" v="isolated_dwelling" />
		<tag k="ssr:stedsnr" v="347403" />
	</node>
	<node lat="62.26318610659812" lon="6.284347214972615" id="-8122">
		<tag k="historic" v="shieling" />
		<tag k="name" v="Moastøylen" />
		<tag k="place" v="isolated_dwelling" />
		<tag k="ssr:stedsnr" v="375218" />
	</node>
	<node lat="62.21702499679283" lon="6.259155553720549" id="-8131">
		<tag k="name" v="Holetun" />
		<tag k="place" v="farm" />
		<tag k="ssr:stedsnr" v="375479" />
	</node>
	<node lat="62.21871388857922" lon="6.260522229000174" id="-8132">
		<tag k="name" v="Midttun" />
		<tag k="place" v="farm" />
		<tag k="ssr:stedsnr" v="375481" />
	</node>
	<node lat="62.227344447323276" lon="6.276311113638728" id="-8134">
		<tag k="name" v="Øyahaugen" />
		<tag k="place" v="farm" />
		<tag k="ssr:stedsnr" v="375492" />
	</node>
	<node lat="62.19679309121979" lon="6.146356307826454" id="-8136">
		<tag k="name" v="Mo" />
		<tag k="place" v="farm" />
		<tag k="ssr:stedsnr" v="383147" />
	</node>
	<node lat="62.2132388886824" lon="6.062949999151535" id="-8141">
		<tag k="name" v="Karlplassen" />
		<tag k="place" v="farm" />
		<tag k="ssr:stedsnr" v="392196" />
	</node>
	<node lat="62.17060833115883" lon="6.114880561198282" id="-8158">
		<tag k="historic" v="shieling" />
		<tag k="name" v="Osdalsætra" />
		<tag k="place" v="isolated_dwelling" />
		<tag k="ssr:stedsnr" v="407956" />
	</node>
	<node lat="62.22828055179349" lon="6.284013885666048" id="-8166">
		<tag k="historic" v="shieling" />
		<tag k="name" v="Litlsætra" />
		<tag k="place" v="isolated_dwelling" />
		<tag k="ssr:stedsnr" v="408693" />
	</node>
	<node lat="62.20522778036164" lon="6.1396833296280935" id="-8180">
		<tag k="name" v="Vallabøen" />
		<tag k="place" v="village" />
		<tag k="ssr:stedsnr" v="435133" />
	</node>
	<node lat="62.27078332966033" lon="5.994063885848304" id="-8181">
		<tag k="alt_name" v="Flåvik" />
		<tag k="name" v="Flåvika" />
		<tag k="place" v="farm" />
		<tag k="ssr:stedsnr" v="435211" />
	</node>
	<node lat="62.20773055503086" lon="6.242416665901757" id="-8191">
		<tag k="name" v="Litlesæter" />
		<tag k="place" v="farm" />
		<tag k="ssr:stedsnr" v="436507" />
	</node>
	<node lat="62.22446944772746" lon="6.265850006150031" id="-8193">
		<tag k="name" v="Øy" />
		<tag k="place" v="hamlet" />
		<tag k="ssr:stedsnr" v="436512" />
	</node>
	<node lat="62.18004999689985" lon="6.062280548623129" id="-8205">
		<tag k="name" v="Storåsen" />
		<tag k="place" v="farm" />
		<tag k="ssr:stedsnr" v="462903" />
	</node>
	<node lat="62.21293332880591" lon="6.2513805465306165" id="-8245">
		<tag k="amenity" v="school" />
		<tag k="name" v="Follestaddalen skule" />
		<tag k="ssr:stedsnr" v="469768" />
	</node>
	<node lat="62.18461667079375" lon="6.1040888859114615" id="-8258">
		<tag k="name" v="Rystefeltet" />
		<tag k="place" v="quarter" />
		<tag k="ssr:stedsnr" v="678002" />
	</node>
	<node lat="62.14284999907148" lon="6.39771111237716" id="-8270">
		<tag k="historic" v="shieling" />
		<tag k="name" v="Risesætra" />
		<tag k="place" v="isolated_dwelling" />
		<tag k="ssr:stedsnr" v="678560" />
	</node>
	<node lat="62.17293611431576" lon="6.196513891827803" id="-8274">
		<tag k="name" v="Leitet" />
		<tag k="place" v="farm" />
		<tag k="ssr:stedsnr" v="496054" />
	</node>
	<node lat="62.2292555562317" lon="6.210363890295129" id="-8275">
		<tag k="name" v="Mosætra" />
		<tag k="place" v="isolated_dwelling" />
		<tag k="ssr:stedsnr" v="496064" />
	</node>
	<node lat="62.23110833245668" lon="6.588327777148467" id="-8286">
		<tag k="historic" v="shieling" />
		<tag k="name" v="Haukåssætra" />
		<tag k="place" v="isolated_dwelling" />
		<tag k="ssr:stedsnr" v="496557" />
	</node>
	<node lat="62.32341388748147" lon="6.151713885649577" id="-8288">
		<tag k="name" v="Auregota" />
		<tag k="place" v="farm" />
		<tag k="ssr:stedsnr" v="496763" />
	</node>
	<node lat="62.350583334336186" lon="6.21813889472708" id="-8329">
		<tag k="name" v="Haggarsteigen" />
		<tag k="place" v="farm" />
		<tag k="ssr:stedsnr" v="529972" />
	</node>
	<node lat="62.13555555508243" lon="6.411855550824279" id="-8335">
		<tag k="historic" v="shieling" />
		<tag k="name" v="Villasætra" />
		<tag k="place" v="isolated_dwelling" />
		<tag k="ssr:stedsnr" v="529878" />
	</node>
	<node lat="62.21805939373797" lon="6.571518331129527" id="-8343">
		<tag k="alt_name" v="Urke Fremre" />
		<tag k="fixme" v="consider place=hamlet" />
		<tag k="name" v="Fremre Urke" />
		<tag k="place" v="farm" />
		<tag k="ssr:stedsnr" v="530195" />
	</node>
	<node lat="62.24902222472229" lon="6.282022213568761" id="-8366">
		<tag k="historic" v="shieling" />
		<tag k="name" v="Kubbestøylen" />
		<tag k="place" v="isolated_dwelling" />
		<tag k="ssr:stedsnr" v="556582" />
	</node>
	<node lat="62.15377499772112" lon="6.195099993159266" id="-8370">
		<tag k="name" v="Risledet" />
		<tag k="place" v="isolated_dwelling" />
		<tag k="ssr:stedsnr" v="556812" />
	</node>
	<node lat="62.24786111383965" lon="6.034022220048353" id="-8384">
		<tag k="historic" v="shieling" />
		<tag k="name" v="Leitet" />
		<tag k="place" v="isolated_dwelling" />
		<tag k="ssr:stedsnr" v="573151" />
	</node>
	<node lat="62.20000833115833" lon="6.432516665898774" id="-8427">
		<tag k="name" v="Klokkarplassen" />
		<tag k="place" v="locality" />
		<tag k="ssr:stedsnr" v="590478" />
	</node>
	<node lat="62.19651111517876" lon="6.23380832371293" id="-8452">
		<tag k="name" v="Rebbestad" />
		<tag k="place" v="hamlet" />
		<tag k="ssr:stedsnr" v="617538" />
	</node>
	<node lat="62.22701257847889" lon="6.633606847806444" id="-8453">
		<tag k="alt_name" v="Langesætra" />
		<tag k="historic" v="shieling" />
		<tag k="name" v="Langsætra" />
		<tag k="place" v="isolated_dwelling" />
		<tag k="ssr:stedsnr" v="617541" />
	</node>
	<node lat="62.196838887721555" lon="6.448880554221613" id="-8484">
		<tag k="barrier" v="fence" />
		<tag k="name" v="Haggarden" />
		<tag k="ssr:stedsnr" v="650434" />
	</node>
	<node lat="62.263552777478225" lon="6.284511118396703" id="-8491">
		<tag k="historic" v="shieling" />
		<tag k="name" v="Olastøylen" />
		<tag k="place" v="isolated_dwelling" />
		<tag k="ssr:stedsnr" v="650686" />
	</node>
	<node lat="62.1953277754273" lon="6.369705558350497" id="-8506">
		<tag k="historic" v="shieling" />
		<tag k="name" v="Heimstesætra" />
		<tag k="place" v="isolated_dwelling" />
		<tag k="ssr:stedsnr" v="651134" />
	</node>
	<node lat="62.29467777988553" lon="6.0806416603285625" id="-8521">
		<tag k="name" v="Blundrebakken" />
		<tag k="place" v="isolated_dwelling" />
		<tag k="ssr:stedsnr" v="658214" />
	</node>
	<node lat="62.29661110809016" lon="6.095252779424886" id="-8522">
		<tag k="name" v="Årset" />
		<tag k="place" v="farm" />
		<tag k="ssr:stedsnr" v="890982" />
	</node>
	<node lat="62.197019444397995" lon="6.148977786028152" id="-8530">
		<tag k="alt_name" v="Øvre-Mo;Ytre Mo" />
		<tag k="name" v="Øvremo" />
		<tag k="place" v="hamlet" />
		<tag k="ssr:stedsnr" v="678124" />
	</node>
	<node lat="62.21287222168235" lon="6.566872228400836" id="-8538">
		<tag k="fixme" v="consider place=hamlet" />
		<tag k="name" v="Urke" />
		<tag k="place" v="village" />
		<tag k="ssr:stedsnr" v="678509" />
	</node>
	<node lat="62.18375555605425" lon="6.519466667780389" id="-8551">
		<tag k="historic" v="shieling" />
		<tag k="name" v="Litledalsstøylen" />
		<tag k="place" v="isolated_dwelling" />
		<tag k="ssr:stedsnr" v="893056" />
	</node>
	<node lat="62.15243332974307" lon="6.371908334877348" id="-8572">
		<tag k="barrier" v="fence" />
		<tag k="name" v="Steingjerdet" />
		<tag k="ssr:stedsnr" v="894201" />
	</node>
	<node lat="62.29728888558813" lon="6.39566389720157" id="-8578">
		<tag k="historic" v="shieling" />
		<tag k="name" v="Støylen" />
		<tag k="place" v="isolated_dwelling" />
		<tag k="ssr:stedsnr" v="894346" />
	</node>
	<node lat="62.181080553059985" lon="6.208305551365611" id="-8637">
		<tag k="name" v="Plassen" />
		<tag k="place" v="farm" />
		<tag k="ssr:stedsnr" v="711691" />
	</node>
	<node lat="62.19597500232051" lon="6.24477777694226" id="-8670">
		<tag k="name" v="Torset" />
		<tag k="place" v="farm" />
		<tag k="ssr:stedsnr" v="738501" />
	</node>
	<node lat="62.21628888707998" lon="6.485583330694947" id="-8676">
		<tag k="name" v="Myra" />
		<tag k="place" v="farm" />
		<tag k="ssr:stedsnr" v="739500" />
	</node>
	<node lat="62.168766662536314" lon="6.220877786309665" id="-8678">
		<tag k="name" v="Åmbakken" />
		<tag k="place" v="farm" />
		<tag k="ssr:stedsnr" v="739597" />
	</node>
	<node lat="62.206391670171065" lon="6.434802770738183" id="-8686">
		<tag k="historic" v="shieling" />
		<tag k="name" v="Støylen" />
		<tag k="place" v="isolated_dwelling" />
		<tag k="ssr:stedsnr" v="765332" />
	</node>
	<node lat="62.198047224294534" lon="6.1273999985345" id="-8743">
		<tag k="name" v="Velle" />
		<tag k="place" v="village" />
		<tag k="ssr:stedsnr" v="800104" />
	</node>
	<node lat="62.18438333627989" lon="6.089966662101267" id="-8744">
		<tag k="name" v="Indrehovden" />
		<tag k="place" v="hamlet" />
		<tag k="ssr:stedsnr" v="800004" />
	</node>
	<node lat="62.17831666593089" lon="6.187158324992515" id="-8746">
		<tag k="name" v="Dalane" />
		<tag k="place" v="farm" />
		<tag k="ssr:stedsnr" v="800035" />
	</node>
	<node lat="62.28397222388203" lon="6.522702773383578" id="-8777">
		<tag k="historic" v="shieling" />
		<tag k="name" v="Trandalssætra" />
		<tag k="place" v="isolated_dwelling" />
		<tag k="ssr:stedsnr" v="921273" />
	</node>
	<node lat="62.15693055372362" lon="6.231777784397199" id="-8786">
		<tag k="name" v="Stranda" />
		<tag k="place" v="farm" />
		<tag k="ssr:stedsnr" v="921618" />
	</node>
	<node lat="62.18750555969781" lon="6.683558331581009" id="-8788">
		<tag k="name" v="Lunheim" />
		<tag k="place" v="farm" />
		<tag k="ssr:stedsnr" v="921625" />
	</node>
	<node lat="62.217222221158984" lon="6.483466658819583" id="-8792">
		<tag k="name" v="Hjellen" />
		<tag k="place" v="farm" />
		<tag k="ssr:stedsnr" v="921554" />
	</node>
	<node lat="62.13338611118107" lon="6.1933805620207165" id="-8796">
		<tag k="name" v="Krøvelsætra" />
		<tag k="place" v="isolated_dwelling" />
		<tag k="ssr:stedsnr" v="921781" />
	</node>
	<node lat="62.251747219939105" lon="6.022147231260721" id="-8803">
		<tag k="historic" v="shieling" />
		<tag k="name" v="Fjellsætra" />
		<tag k="place" v="isolated_dwelling" />
		<tag k="ssr:stedsnr" v="827422" />
	</node>
	<node lat="62.21232879379299" lon="6.068069067085316" id="-8865">
		<tag k="name" v="Øvrehagen" />
		<tag k="place" v="farm" />
		<tag k="ssr:stedsnr" v="877172" />
	</node>
	<node lat="62.18130555914843" lon="6.057941658545785" id="-8876">
		<tag k="name" v="Berget" />
		<tag k="place" v="farm" />
		<tag k="ssr:stedsnr" v="887909" />
	</node>
	<node lat="62.20297382482779" lon="6.135357713669229" id="-8883">
		<tag k="name" v="Velle" />
		<tag k="place" v="farm" />
		<tag k="ssr:stedsnr" v="888313" />
	</node>
	<node lat="62.213891665482905" lon="6.478241668722751" id="-8922">
		<tag k="name" v="Solstrand" />
		<tag k="place" v="isolated_dwelling" />
		<tag k="ssr:stedsnr" v="901810" />
	</node>
	<node lat="62.21984999925063" lon="6.261536112150512" id="-8929">
		<tag k="name" v="Olagarden" />
		<tag k="place" v="farm" />
		<tag k="ssr:stedsnr" v="921541" />
	</node>
	<node lat="62.141355553123425" lon="6.256136115252693" id="-8932">
		<tag k="fixme" v="consider place=hamlet" />
		<tag k="name" v="Vatne" />
		<tag k="place" v="village" />
		<tag k="ssr:stedsnr" v="921595" />
	</node>
	<node lat="62.20758055676781" lon="6.475883341327584" id="-8945">
		<tag k="fixme" v="consider place=suburb, village or hamlet" />
		<tag k="name" v="Sæbø" />
		<tag k="place" v="quarter" />
		<tag k="ssr:stedsnr" v="935049" />
	</node>
	<node lat="62.19034444098701" lon="6.411461102590674" id="-8964">
		<tag k="name" v="Holane" />
		<tag k="place" v="farm" />
		<tag k="ssr:stedsnr" v="954042" />
	</node>
	<node lat="62.35263889134854" lon="6.232416672850523" id="-8989">
		<tag k="name" v="Storegjølet" />
		<tag k="place" v="isolated_dwelling" />
		<tag k="ssr:stedsnr" v="954949" />
	</node>
	<node lat="62.339733333218206" lon="6.203238896955276" id="-8992">
		<tag k="name" v="Foten" />
		<tag k="place" v="farm" />
		<tag k="ssr:stedsnr" v="954994" />
	</node>
	<node lat="62.232066665353514" lon="6.211219446917571" id="-8999">
		<tag k="name" v="Vallasætra" />
		<tag k="place" v="isolated_dwelling" />
		<tag k="ssr:stedsnr" v="10074" />
	</node>
	<node lat="62.34048888614599" lon="6.202980561134345" id="-9022">
		<tag k="name" v="Bukta" />
		<tag k="place" v="farm" />
		<tag k="ssr:stedsnr" v="11786" />
	</node>
	<node lat="62.20421111016436" lon="6.269405564178653" id="-9083">
		<tag k="historic" v="shieling" />
		<tag k="name" v="Støylen" />
		<tag k="place" v="isolated_dwelling" />
		<tag k="ssr:stedsnr" v="44560" />
	</node>
	<node lat="62.24924166778108" lon="6.037900009129974" id="-9110">
		<tag k="alt_name" v="Sæterstøylen" />
		<tag k="historic" v="shieling" />
		<tag k="name" v="Liadalssætra" />
		<tag k="place" v="isolated_dwelling" />
		<tag k="ssr:stedsnr" v="71196" />
	</node>
	<node lat="62.24213888771163" lon="6.28233332791447" id="-9114">
		<tag k="historic" v="shieling" />
		<tag k="name" v="Årsætersætra" />
		<tag k="place" v="isolated_dwelling" />
		<tag k="ssr:stedsnr" v="71594" />
	</node>
	<node lat="62.20999722613078" lon="6.717488891352479" id="-9123">
		<tag k="fixme" v="consider tourism=alpine_hut or tourism=chalet" />
		<tag k="name" v="Patchellhytta" />
		<tag k="ssr:stedsnr" v="72279" />
		<tag k="tourism" v="wilderness_hut" />
	</node>
	<node lat="62.29954444384462" lon="6.226599999042687" id="-9135">
		<tag k="historic" v="shieling" />
		<tag k="name" v="Vartdalsætra" />
		<tag k="place" v="isolated_dwelling" />
		<tag k="ssr:stedsnr" v="72456" />
	</node>
	<node lat="62.235286107579434" lon="6.314697228343351" id="-9142">
		<tag k="name" v="Øyasætra" />
		<tag k="place" v="isolated_dwelling" />
		<tag k="ssr:stedsnr" v="72540" />
	</node>
	<node lat="62.32008888589456" lon="6.1538249921017645" id="-9145">
		<tag k="name" v="Reitane" />
		<tag k="place" v="farm" />
		<tag k="ssr:stedsnr" v="72738" />
	</node>
	<node lat="62.16764722675983" lon="6.321902782763553" id="-9181">
		<tag k="historic" v="shieling" />
		<tag k="name" v="Sætrestøylen" />
		<tag k="place" v="isolated_dwelling" />
		<tag k="ssr:stedsnr" v="105201" />
	</node>
	<node lat="62.22043055767654" lon="6.57927499145366" id="-9213">
		<tag k="historic" v="shieling" />
		<tag k="name" v="Stolane" />
		<tag k="place" v="isolated_dwelling" />
		<tag k="ssr:stedsnr" v="106158" />
	</node>
	<node lat="62.24085555565404" lon="5.999147226703827" id="-9224">
		<tag k="name" v="Liadal" />
		<tag k="old_name" v="Liadalen" />
		<tag k="place" v="village" />
		<tag k="ssr:stedsnr" v="132128" />
	</node>
	<node lat="62.34065555756735" lon="6.273766658472306" id="-9257">
		<tag k="barrier" v="fence" />
		<tag k="name" v="Olmannledet" />
		<tag k="ssr:stedsnr" v="153780" />
	</node>
	<node lat="62.21250555908633" lon="6.060841660979236" id="-9260">
		<tag k="name" v="Nedrehagen" />
		<tag k="place" v="farm" />
		<tag k="ssr:stedsnr" v="159150" />
	</node>
	<node lat="62.3038388932907" lon="6.0933972197703845" id="-9269">
		<tag k="name" v="Sætre" />
		<tag k="place" v="hamlet" />
		<tag k="ssr:stedsnr" v="165006" />
	</node>
	<node lat="62.17366388937041" lon="6.228058342219401" id="-9310">
		<tag k="name" v="Rongja" />
		<tag k="place" v="farm" />
		<tag k="ssr:stedsnr" v="165840" />
	</node>
	<node lat="62.31008055140886" lon="6.181844445900044" id="-9314">
		<tag k="name" v="Gamlegarden" />
		<tag k="place" v="farm" />
		<tag k="ssr:stedsnr" v="165945" />
	</node>
	<node lat="62.16678611070482" lon="6.184655561956422" id="-9337">
		<tag k="historic" v="shieling" />
		<tag k="name" v="Melssætra" />
		<tag k="place" v="isolated_dwelling" />
		<tag k="ssr:stedsnr" v="193056" />
	</node>
	<node lat="62.1875805589132" lon="6.114033323985937" id="-9338">
		<tag k="name" v="Osmarka" />
		<tag k="place" v="farm" />
		<tag k="ssr:stedsnr" v="193002" />
	</node>
	<node lat="62.30046944813952" lon="6.0822027744678575" id="-9342">
		<tag k="fixme" v="consider place=hamlet" />
		<tag k="name" v="Vartdal" />
		<tag k="old_name" v="Søre Vartdal;Vartdal, søre" />
		<tag k="place" v="village" />
		<tag k="ssr:stedsnr" v="193141" />
	</node>
	<node lat="62.22702500404347" lon="6.2728555472187" id="-9349">
		<tag k="name" v="Nygarden" />
		<tag k="place" v="farm" />
		<tag k="ssr:stedsnr" v="193543" />
	</node>
	<node lat="62.14253611272889" lon="6.390077770707151" id="-9354">
		<tag k="historic" v="shieling" />
		<tag k="name" v="Kvia" />
		<tag k="place" v="isolated_dwelling" />
		<tag k="ssr:stedsnr" v="193579" />
	</node>
	<node lat="62.166977776387256" lon="6.225266670425406" id="-9357">
		<tag k="name" v="Solheim" />
		<tag k="place" v="farm" />
		<tag k="ssr:stedsnr" v="193609" />
	</node>
	<node lat="62.1856444473672" lon="6.084125002379482" id="-9375">
		<tag k="name" v="Bøplassen" />
		<tag k="place" v="farm" />
		<tag k="ssr:stedsnr" v="220896" />
	</node>
	<node lat="62.27153332919251" lon="6.507005555032093" id="-9405">
		<tag k="historic" v="shieling" />
		<tag k="name" v="Vårsætra" />
		<tag k="place" v="isolated_dwelling" />
		<tag k="ssr:stedsnr" v="226261" />
	</node>
	<node lat="62.17868889012571" lon="6.734422222475527" id="-9433">
		<tag k="name" v="Skylstad" />
		<tag k="place" v="locality" />
		<tag k="ssr:stedsnr" v="227725" />
	</node>
	<node lat="62.18943888888971" lon="6.120486103390727" id="-9443">
		<tag k="name" v="Ørsta camping" />
		<tag k="ssr:stedsnr" v="281142" />
		<tag k="tourism" v="camp_site" />
	</node>
	<node lat="62.30417500319834" lon="6.0930861190287064" id="-9450">
		<tag k="name" v="Bauta" />
		<tag k="place" v="farm" />
		<tag k="ssr:stedsnr" v="286172" />
	</node>
	<node lat="62.18943055321125" lon="6.386352771132405" id="-9468">
		<tag k="historic" v="shieling" />
		<tag k="name" v="Sætreledstølen" />
		<tag k="place" v="isolated_dwelling" />
		<tag k="ssr:stedsnr" v="287074" />
	</node>
	<node lat="62.211819442040486" lon="6.5901972137865155" id="-9485">
		<tag k="name" v="Nilsgjerdet" />
		<tag k="place" v="locality" />
		<tag k="ssr:stedsnr" v="287910" />
	</node>
	<node lat="62.234711111338264" lon="6.007902782154082" id="-9494">
		<tag k="name" v="Sandvik" />
		<tag k="place" v="isolated_dwelling" />
		<tag k="ssr:stedsnr" v="294050" />
	</node>
	<node lat="62.272141664008316" lon="6.284427776893165" id="-9500">
		<tag k="historic" v="shieling" />
		<tag k="name" v="Romedalsstøylen" />
		<tag k="place" v="isolated_dwelling" />
		<tag k="ssr:stedsnr" v="314289" />
	</node>
	<node lat="62.193641668752164" lon="6.41837223009192" id="-9512">
		<tag k="name" v="Kvistad" />
		<tag k="place" v="hamlet" />
		<tag k="ssr:stedsnr" v="314638" />
	</node>
	<node lat="62.343294442851324" lon="6.293977774703456" id="-9515">
		<tag k="historic" v="shieling" />
		<tag k="name" v="Gamlestøylen" />
		<tag k="place" v="isolated_dwelling" />
		<tag k="ssr:stedsnr" v="314446" />
	</node>
	<node lat="62.211186110869335" lon="6.25221945400602" id="-9517">
		<tag k="name" v="Haugset" />
		<tag k="place" v="farm" />
		<tag k="ssr:stedsnr" v="314541" />
	</node>
	<node lat="62.19923611377342" lon="6.24709443752551" id="-9519">
		<tag k="name" v="Halvardset" />
		<tag k="place" v="farm" />
		<tag k="ssr:stedsnr" v="314550" />
	</node>
	<node lat="62.29161389295846" lon="6.35323056134355" id="-9526">
		<tag k="alt_name" v="Sandalsætra, ytre" />
		<tag k="historic" v="shieling" />
		<tag k="loc_name" v="Ytre-Standalsætra" />
		<tag k="name" v="Ytre Standalsætra" />
		<tag k="place" v="isolated_dwelling" />
		<tag k="ssr:stedsnr" v="315479" />
	</node>
	<node lat="62.16043245544047" lon="6.353534357906615" id="-9572">
		<tag k="historic" v="shieling" />
		<tag k="name" v="Støylane" />
		<tag k="place" v="isolated_dwelling" />
		<tag k="ssr:stedsnr" v="347197" />
	</node>
	<node lat="62.1787750037296" lon="6.530466661169082" id="-9576">
		<tag k="name" v="Lødebakken" />
		<tag k="place" v="farm" />
		<tag k="ssr:stedsnr" v="347726" />
	</node>
	<node lat="62.191700000198296" lon="6.243916657865133" id="-9614">
		<tag k="name" v="Massgarden" />
		<tag k="place" v="farm" />
		<tag k="ssr:stedsnr" v="374587" />
	</node>
	<node lat="62.3087749977016" lon="6.099327773337706" id="-9622">
		<tag k="name" v="Stranda" />
		<tag k="place" v="farm" />
		<tag k="ssr:stedsnr" v="375755" />
	</node>
	<node lat="62.28338888504808" lon="6.035524999444763" id="-9628">
		<tag k="name" v="Heggehjellen" />
		<tag k="place" v="locality" />
		<tag k="ssr:stedsnr" v="495195" />
	</node>
	<node lat="62.17140000201025" lon="6.25050000090162" id="-9638">
		<tag k="historic" v="shieling" />
		<tag k="name" v="Gamlesætra" />
		<tag k="place" v="isolated_dwelling" />
		<tag k="ssr:stedsnr" v="396764" />
	</node>
	<node lat="62.21481666702296" lon="6.478272220096341" id="-9642">
		<tag k="name" v="Angellplassen" />
		<tag k="place" v="locality" />
		<tag k="ssr:stedsnr" v="401253" />
	</node>
	<node lat="62.18104722365335" lon="6.104944439088371" id="-9644">
		<tag k="leisure" v="park" />
		<tag k="name" v="Gamlesætra" />
		<tag k="ssr:stedsnr" v="401852" />
	</node>
	<node lat="62.19318888626954" lon="6.419313883342778" id="-9660">
		<tag k="name" v="Svidene" />
		<tag k="place" v="farm" />
		<tag k="ssr:stedsnr" v="408038" />
	</node>
	<node lat="62.20347222327785" lon="6.482358335895384" id="-9687">
		<tag k="historic" v="shieling" />
		<tag k="name" v="Støylen" />
		<tag k="place" v="isolated_dwelling" />
		<tag k="ssr:stedsnr" v="408362" />
	</node>
	<node lat="62.2518583335418" lon="6.368636120487612" id="-9690">
		<tag k="historic" v="shieling" />
		<tag k="name" v="Gamlesætra" />
		<tag k="place" v="isolated_dwelling" />
		<tag k="ssr:stedsnr" v="408383" />
	</node>
	<node lat="62.26529722612451" lon="6.188661114997855" id="-9726">
		<tag k="historic" v="shieling" />
		<tag k="name" v="Grytastøylen" />
		<tag k="place" v="isolated_dwelling" />
		<tag k="ssr:stedsnr" v="435250" />
	</node>
	<node lat="62.26857778085368" lon="6.173358327932714" id="-9727">
		<tag k="historic" v="shieling" />
		<tag k="name" v="Årsetstøylen" />
		<tag k="place" v="isolated_dwelling" />
		<tag k="ssr:stedsnr" v="435251" />
	</node>
	<node lat="62.18101944702917" lon="6.189422229725168" id="-9733">
		<tag k="name" v="Åmåsen" />
		<tag k="place" v="farm" />
		<tag k="ssr:stedsnr" v="436028" />
	</node>
	<node lat="62.159769443307944" lon="6.446319454038051" id="-9734">
		<tag k="historic" v="shieling" />
		<tag k="name" v="Årsetsætra" />
		<tag k="place" v="isolated_dwelling" />
		<tag k="ssr:stedsnr" v="436576" />
	</node>
	<node lat="62.199833330334904" lon="6.129038887717818" id="-9738">
		<tag k="name" v="Ørsta" />
		<tag k="place" v="village" />
		<tag k="ssr:stedsnr" v="436106" />
	</node>
	<node lat="62.24716944423625" lon="6.34828888473235" id="-9763">
		<tag k="fixme" v="consider tourism=alpine_hut or tourism=chalet" />
		<tag k="name" v="Standalhytta" />
		<tag k="old_name" v="Standalshytta" />
		<tag k="ssr:stedsnr" v="496571" />
		<tag k="tourism" v="wilderness_hut" />
	</node>
	<node lat="62.143538891188534" lon="6.273463896459285" id="-9777">
		<tag k="name" v="Vatnebakk" />
		<tag k="place" v="farm" />
		<tag k="ssr:stedsnr" v="496586" />
	</node>
	<node lat="62.28404722570046" lon="6.276797225974515" id="-9781">
		<tag k="historic" v="shieling" />
		<tag k="name" v="Steinstøylen" />
		<tag k="place" v="isolated_dwelling" />
		<tag k="ssr:stedsnr" v="497479" />
	</node>
	<node lat="62.35425832879992" lon="6.25046110197099" id="-9792">
		<tag k="historic" v="shieling" />
		<tag k="name" v="Lyngsætra" />
		<tag k="place" v="isolated_dwelling" />
		<tag k="ssr:stedsnr" v="518989" />
	</node>
	<node lat="62.22145000086938" lon="6.4773833274683446" id="-9798">
		<tag k="historic" v="shieling" />
		<tag k="name" v="Feirstøylen" />
		<tag k="place" v="isolated_dwelling" />
		<tag k="ssr:stedsnr" v="521252" />
	</node>
	<node lat="62.23549166501115" lon="6.080077782465954" id="-9803">
		<tag k="historic" v="shieling" />
		<tag k="name" v="Skorgestøylen" />
		<tag k="place" v="isolated_dwelling" />
		<tag k="ssr:stedsnr" v="528065" />
	</node>
	<node lat="62.24546944122857" lon="6.339977772299933" id="-9816">
		<tag k="barrier" v="fence" />
		<tag k="name" v="Haggarden" />
		<tag k="ssr:stedsnr" v="529029" />
	</node>
	<node lat="62.27323055472382" lon="6.170908341830212" id="-9828">
		<tag k="historic" v="shieling" />
		<tag k="name" v="Litlesætra" />
		<tag k="place" v="isolated_dwelling" />
		<tag k="ssr:stedsnr" v="529310" />
	</node>
	<node lat="62.241669446323506" lon="6.282769451658774" id="-9845">
		<tag k="historic" v="shieling" />
		<tag k="name" v="Årsæterstøylen" />
		<tag k="place" v="isolated_dwelling" />
		<tag k="ssr:stedsnr" v="529686" />
	</node>
	<node lat="62.16684166810942" lon="6.430147216255921" id="-9849">
		<tag k="historic" v="shieling" />
		<tag k="name" v="Årsetheimsætra" />
		<tag k="place" v="isolated_dwelling" />
		<tag k="ssr:stedsnr" v="529739" />
	</node>
	<node lat="62.196233634522045" lon="6.2145332476624775" id="-9876">
		<tag k="alt_name" v="Støylen" />
		<tag k="historic" v="shieling" />
		<tag k="name" v="Barstadsætra" />
		<tag k="place" v="isolated_dwelling" />
		<tag k="ssr:stedsnr" v="556138" />
	</node>
	<node lat="62.271355557733806" lon="6.148038890477861" id="-9881">
		<tag k="historic" v="shieling" />
		<tag k="name" v="Busetsætra" />
		<tag k="place" v="isolated_dwelling" />
		<tag k="ssr:stedsnr" v="556246" />
	</node>
	<node lat="62.194030556170624" lon="6.340994438217352" id="-9884">
		<tag k="name" v="Stokkesætra" />
		<tag k="place" v="locality" />
		<tag k="ssr:stedsnr" v="556643" />
	</node>
	<node lat="62.1704166682585" lon="6.114938891781415" id="-9888">
		<tag k="historic" v="shieling" />
		<tag k="name" v="Ossætra" />
		<tag k="place" v="isolated_dwelling" />
		<tag k="ssr:stedsnr" v="557033" />
	</node>
	<node lat="62.32363888663454" lon="6.275452786020618" id="-9894">
		<tag k="loc_name" v="Malbøsætra" />
		<tag k="name" v="Melbøsætra" />
		<tag k="place" v="isolated_dwelling" />
		<tag k="ssr:stedsnr" v="557428" />
	</node>
	<node lat="62.250002775603285" lon="6.037794439869426" id="-9897">
		<tag k="alt_name" v="Liadalsstøylen" />
		<tag k="historic" v="shieling" />
		<tag k="name" v="Liadalssætra" />
		<tag k="place" v="isolated_dwelling" />
		<tag k="ssr:stedsnr" v="557582" />
	</node>
	<node lat="62.34263333762247" lon="6.292891669828964" id="-9906">
		<tag k="historic" v="shieling" />
		<tag k="name" v="Vollesætra" />
		<tag k="place" v="isolated_dwelling" />
		<tag k="ssr:stedsnr" v="578724" />
	</node>
	<node lat="62.1927361116769" lon="6.0152527702397816" id="-9914">
		<tag k="historic" v="shieling" />
		<tag k="name" v="Helgestøylen" />
		<tag k="place" v="isolated_dwelling" />
		<tag k="ssr:stedsnr" v="583906" />
	</node>
	<node lat="62.19488055898019" lon="6.130102773292117" id="-9915">
		<tag k="leisure" v="pitch" />
		<tag k="name" v="Ørsta stadion" />
		<tag k="ssr:stedsnr" v="584137" />
	</node>
	<node lat="62.2040999993029" lon="6.139616666581983" id="-9917">
		<tag k="name" v="Vallabøen" />
		<tag k="place" v="farm" />
		<tag k="ssr:stedsnr" v="584361" />
	</node>
	<node lat="62.19477777648077" lon="6.425574992068133" id="-9942">
		<tag k="name" v="Røysa" />
		<tag k="place" v="locality" />
		<tag k="ssr:stedsnr" v="590479" />
	</node>
	<node lat="62.13628888561766" lon="6.2438527767925285" id="-9949">
		<tag k="name" v="Tiltrem" />
		<tag k="place" v="farm" />
		<tag k="ssr:stedsnr" v="590737" />
	</node>
	<node lat="62.220169446113054" lon="6.490108332755781" id="-9968">
		<tag k="name" v="Flatnes" />
		<tag k="place" v="farm" />
		<tag k="ssr:stedsnr" v="597815" />
	</node>
	<node lat="62.32071388884408" lon="6.143938887389221" id="-9970">
		<tag k="alt_name" v="Nørdre-Vartdal" />
		<tag k="name" v="Toregarden" />
		<tag k="place" v="farm" />
		<tag k="ssr:stedsnr" v="603169" />
	</node>
	<node lat="62.29074722411764" lon="6.053650002169609" id="-9971">
		<tag k="alt_name" v="Nordre Berg" />
		<tag k="name" v="Berget" />
		<tag k="place" v="farm" />
		<tag k="ssr:stedsnr" v="603279" />
	</node>
	<node lat="62.237486111682" lon="6.407094452060457" id="-9976">
		<tag k="historic" v="shieling" />
		<tag k="name" v="Aklestadsætra" />
		<tag k="place" v="isolated_dwelling" />
		<tag k="ssr:stedsnr" v="617552" />
	</node>
	<node lat="62.169866669066515" lon="6.248783338714474" id="-10006">
		<tag k="historic" v="shieling" />
		<tag k="name" v="Åmsætra" />
		<tag k="place" v="isolated_dwelling" />
		<tag k="ssr:stedsnr" v="639784" />
	</node>
	<node lat="62.194819448061295" lon="6.416316674236726" id="-10058">
		<tag k="name" v="Kari-Berteplassen" />
		<tag k="place" v="locality" />
		<tag k="ssr:stedsnr" v="651059" />
	</node>
	<node lat="62.23097499720345" lon="6.588594440065613" id="-10077">
		<tag k="historic" v="shieling" />
		<tag k="name" v="Ytre Urkesætra" />
		<tag k="place" v="isolated_dwelling" />
		<tag k="ssr:stedsnr" v="651690" />
	</node>
	<node lat="62.181891665656885" lon="6.195713891440669" id="-10091">
		<tag k="amenity" v="school" />
		<tag k="name" v="Åmås skule" />
		<tag k="ssr:stedsnr" v="711651" />
	</node>
	<node lat="62.13103889035882" lon="6.336752770056247" id="-10144">
		<tag k="fixme" v="multiple name tags, choose one and add the other to alt_name" />
		<tag k="loc_name" v="Kvanndalsætra" />
		<tag k="name" v="Kvanndalssætra;Kvanndalsstøylen" />
		<tag k="place" v="isolated_dwelling" />
		<tag k="ssr:stedsnr" v="739672" />
	</node>
	<node lat="62.26615527347397" lon="6.138098200657701" id="-10146">
		<tag k="historic" v="shieling" />
		<tag k="name" v="Øyesætra" />
		<tag k="place" v="isolated_dwelling" />
		<tag k="ssr:stedsnr" v="738224" />
	</node>
	<node lat="62.22750832988239" lon="5.964588895647631" id="-10150">
		<tag k="name" v="Steinnes" />
		<tag k="place" v="farm" />
		<tag k="ssr:stedsnr" v="739168" />
	</node>
	<node lat="62.36258889258381" lon="6.283422228196115" id="-10157">
		<tag k="name" v="Hjellen" />
		<tag k="place" v="farm" />
		<tag k="ssr:stedsnr" v="739398" />
	</node>
	<node lat="62.214005551837985" lon="6.255849993895914" id="-10161">
		<tag k="name" v="Nordheim" />
		<tag k="place" v="farm" />
		<tag k="ssr:stedsnr" v="739521" />
	</node>
	<node lat="62.162858336045744" lon="6.442411112377463" id="-10165">
		<tag k="historic" v="shieling" />
		<tag k="name" v="Kvistadsætra" />
		<tag k="place" v="isolated_dwelling" />
		<tag k="ssr:stedsnr" v="739581" />
	</node>
	<node lat="62.25970555868635" lon="6.504363885983608" id="-10201">
		<tag k="name" v="Gjerdeplassen" />
		<tag k="place" v="farm" />
		<tag k="ssr:stedsnr" v="772078" />
	</node>
	<node lat="62.29900000072923" lon="6.207974999550468" id="-10222">
		<tag k="historic" v="shieling" />
		<tag k="name" v="Puskesætra" />
		<tag k="place" v="isolated_dwelling" />
		<tag k="ssr:stedsnr" v="772575" />
	</node>
	<node lat="62.36265277941828" lon="6.34830832863154" id="-10235">
		<tag k="name" v="Gamlegarden" />
		<tag k="place" v="farm" />
		<tag k="ssr:stedsnr" v="772851" />
	</node>
	<node lat="62.19737222215154" lon="6.370866672688311" id="-10246">
		<tag k="fixme" v="multiple name tags, choose one and add the other to alt_name" />
		<tag k="name" v="Heimsætra;Frølands heimsætra" />
		<tag k="place" v="locality" />
		<tag k="ssr:stedsnr" v="799524" />
	</node>
	<node lat="62.18645555240034" lon="6.233688884876835" id="-10250">
		<tag k="name" v="Rishaugen" />
		<tag k="place" v="farm" />
		<tag k="ssr:stedsnr" v="799625" />
	</node>
	<node lat="62.24046944888578" lon="6.336669446850854" id="-10267">
		<tag k="name" v="Myklebustsætra" />
		<tag k="place" v="isolated_dwelling" />
		<tag k="ssr:stedsnr" v="800546" />
	</node>
	<node lat="62.184447218814874" lon="6.086922229172361" id="-10272">
		<tag k="fixme" v="consider place=hamlet" />
		<tag k="name" v="Hovdebygda" />
		<tag k="place" v="village" />
		<tag k="ssr:stedsnr" v="808138" />
	</node>
	<node lat="62.189481972793104" lon="6.064426643397705" id="-10359">
		<tag k="name" v="Ytrehovden" />
		<tag k="place" v="hamlet" />
		<tag k="ssr:stedsnr" v="860138" />
	</node>
	<node lat="62.29703889273955" lon="6.204702774866744" id="-10360">
		<tag k="historic" v="shieling" />
		<tag k="name" v="Årskogsætra" />
		<tag k="place" v="isolated_dwelling" />
		<tag k="ssr:stedsnr" v="860152" />
	</node>
	<node lat="62.259966663243105" lon="6.202261113511506" id="-10362">
		<tag k="alt_name" v="Sessætra" />
		<tag k="historic" v="shieling" />
		<tag k="name" v="Skarsætra" />
		<tag k="place" v="isolated_dwelling" />
		<tag k="ssr:stedsnr" v="860232" />
	</node>
	<node lat="62.20417778200327" lon="6.250744436659917" id="-10380">
		<tag k="name" v="Myklebust" />
		<tag k="place" v="hamlet" />
		<tag k="ssr:stedsnr" v="861480" />
	</node>
	<node lat="62.354119440888724" lon="6.278325003819676" id="-10392">
		<tag k="name" v="Kvia" />
		<tag k="place" v="farm" />
		<tag k="ssr:stedsnr" v="882981" />
	</node>
	<node lat="62.180730558062365" lon="6.725925000051813" id="-10470">
		<tag k="name" v="Øyekvia" />
		<tag k="place" v="locality" />
		<tag k="ssr:stedsnr" v="956439" />
	</node>
	<node lat="62.18195627472304" lon="6.173487325248231" id="-10474">
		<tag k="name" v="Melsgjerdet industriområde" />
		<tag k="place" v="quarter" />
		<tag k="ssr:stedsnr" v="977919" />
	</node>
	<node lat="62.15936034077177" lon="6.183532388583942" id="-10794">
		<tag k="name" v="Furenakk" />
		<tag k="place" v="farm" />
		<tag k="ssr:stedsnr" v="1079253" />
	</node>
</osm>
