<?xml version="1.0" encoding="UTF-8"?>
<<<<<<< HEAD
<osm version="0.6" generator="osmapis">
	<node lat="62.23730833426507" lon="6.009913892873399" id="-5148">
		<tag k="name" v="Lessingane" />
		<tag k="place" v="locality" />
		<tag k="ssr:stedsnr" v="705380" />
	</node>
	<node lat="62.20943888976025" lon="6.469991663768571" id="-5556">
=======
<osm generator="osmapis" version="0.6">
	<node id="-64432" lat="62.2373083343" lon="6.00991389287">
		<tag k="name" v="Lessingane" />
		<tag k="place" v="locality" />
		<tag k="ssr:stedsnr" v="705380" />
	</node>
	<node id="-66368" lat="62.3245833299" lon="6.14127221956">
		<tag k="amenity" v="place_of_worship" />
		<tag k="denomination" v="lutheran" />
		<tag k="name" v="Vartdal" />
		<tag k="old_name" v="Nørdre Vartdal" />
		<tag k="religion" v="christian" />
		<tag k="ssr:stedsnr" v="861740" />
	</node>
	<node id="-66253" lat="62.2001673419" lon="6.13038527751">
		<tag k="amenity" v="place_of_worship" />
		<tag k="denomination" v="lutheran" />
		<tag k="name" v="Ørsta kyrkje" />
		<tag k="religion" v="christian" />
		<tag k="ssr:stedsnr" v="814071" />
	</node>
	<node id="-65049" lat="62.2094388898" lon="6.46999166377">
>>>>>>> e1d4bc35ff8a6074a6f2e91616a996b547c36f15
		<tag k="alt_name" v="Hjørundfjord" />
		<tag k="amenity" v="place_of_worship" />
		<tag k="denomination" v="lutheran" />
		<tag k="name" v="Hjørundfjord kyrkje" />
		<tag k="religion" v="christian" />
		<tag k="ssr:stedsnr" v="26847" />
	</node>
<<<<<<< HEAD
	<node lat="62.20016734194717" lon="6.1303852775131435" id="-6797">
		<tag k="amenity" v="place_of_worship" />
		<tag k="denomination" v="lutheran" />
		<tag k="name" v="Ørsta kyrkje" />
		<tag k="religion" v="christian" />
		<tag k="ssr:stedsnr" v="814071" />
	</node>
	<node lat="62.32458332989503" lon="6.141272219560608" id="-6904">
		<tag k="amenity" v="place_of_worship" />
		<tag k="denomination" v="lutheran" />
		<tag k="name" v="Vartdal" />
		<tag k="old_name" v="Nørdre Vartdal" />
		<tag k="religion" v="christian" />
		<tag k="ssr:stedsnr" v="861740" />
	</node>
=======
>>>>>>> e1d4bc35ff8a6074a6f2e91616a996b547c36f15
</osm>
