<?xml version="1.0" encoding="UTF-8"?>
<osm version="0.6" generator="osmapis">
	<node lat="70.34561945037309" lon="25.608916409640532" id="-103412">
		<tag k="name" v="Perjojänkkä" />
		<tag k="name:fkv" v="Perjojänkkä" />
		<tag k="natural" v="wetland" />
		<tag k="ssr:stedsnr" v="92463" />
	</node>
	<node lat="70.34204723164092" lon="25.433408121947974" id="-103417">
		<tag k="name" v="Maararuto" />
		<tag k="name:fkv" v="Maararuto" />
		<tag k="place" v="locality" />
		<tag k="ssr:stedsnr" v="92612" />
	</node>
	<node lat="70.35220833792239" lon="25.444094216161197" id="-103418">
		<tag k="name" v="Valsakenttä" />
		<tag k="name:fkv" v="Valsakenttä" />
		<tag k="natural" v="wetland" />
		<tag k="ssr:stedsnr" v="92615" />
	</node>
	<node lat="70.39454167481435" lon="25.575269209520833" id="-103423">
		<tag k="name" v="Varistievänjänkkä" />
		<tag k="name:fkv" v="Varistievänjänkkä" />
		<tag k="natural" v="wetland" />
		<tag k="ssr:stedsnr" v="92582" />
	</node>
	<node lat="70.24405000775381" lon="24.533449860914715" id="-103457">
		<tag k="name" v="Boŋkaleakši" />
		<tag k="name:se" v="Boŋkaleakši" />
		<tag k="natural" v="wetland" />
		<tag k="old_name:se" v="Båŋkalækši" />
		<tag k="ssr:stedsnr" v="140990" />
	</node>
	<node lat="70.54660278443248" lon="25.8600913944593" id="-103478">
		<tag k="name" v="Veahčirrohtu" />
		<tag k="name:se" v="Veahčirrohtu" />
		<tag k="natural" v="wetland" />
		<tag k="old_name:se" v="Væččirråtto" />
		<tag k="ssr:stedsnr" v="141597" />
	</node>
	<node lat="70.27526389357423" lon="25.522799755051512" id="-103494">
		<tag k="name" v="Aaronalajänkkä" />
		<tag k="name:fkv" v="Aaronalajänkkä" />
		<tag k="natural" v="wetland" />
		<tag k="ssr:stedsnr" v="152422" />
	</node>
	<node lat="70.52827500636893" lon="25.087735929447426" id="-103498">
		<tag k="name" v="Nordmo" />
		<tag k="place" v="locality" />
		<tag k="ssr:stedsnr" v="152319" />
	</node>
	<node lat="70.4501527854291" lon="25.636516417401165" id="-103508">
		<tag k="name" v="Áimejeaggi" />
		<tag k="name:se" v="Áimejeaggi" />
		<tag k="natural" v="wetland" />
		<tag k="ssr:stedsnr" v="152765" />
	</node>
	<node lat="69.97891389264684" lon="25.203455326326722" id="-103652">
		<tag k="name" v="Roživuopmi" />
		<tag k="name:se" v="Roživuopmi" />
		<tag k="old_name:se" v="Råživuobmi" />
		<tag k="place" v="locality" />
		<tag k="ssr:stedsnr" v="201502" />
	</node>
	<node lat="70.31461945428711" lon="25.462246993646854" id="-103684">
		<tag k="landuse" v="meadow" />
		<tag k="name" v="Antin Erikin Kenttä" />
		<tag k="name:fkv" v="Antin Erikin Kenttä" />
		<tag k="ssr:stedsnr" v="213431" />
	</node>
	<node lat="70.60190556137907" lon="26.040896951172254" id="-103700">
		<tag k="name" v="Vilgesjeaggi" />
		<tag k="name:se" v="Vilgesjeaggi" />
		<tag k="natural" v="wetland" />
		<tag k="ssr:stedsnr" v="228092" />
	</node>
	<node lat="70.06542778791925" lon="25.106252576641758" id="-103711">
		<tag k="landuse" v="meadow" />
		<tag k="name" v="Åsrud" />
		<tag k="ssr:stedsnr" v="456123" />
	</node>
	<node lat="70.06768889306159" lon="25.122452566418694" id="-103712">
		<tag k="name" v="Iso Kivi" />
		<tag k="name:fkv" v="Iso Kivi" />
		<tag k="natural" v="stone" />
		<tag k="ssr:stedsnr" v="456124" />
	</node>
	<node lat="70.46154445320872" lon="25.650030308904807" id="-103731">
		<tag k="name" v="Bealkalotjeaggi" />
		<tag k="name:se" v="Bealkalotjeaggi" />
		<tag k="natural" v="wetland" />
		<tag k="ssr:stedsnr" v="456731" />
	</node>
	<node lat="70.48959444739589" lon="25.720380307273288" id="-103801">
		<tag k="name" v="Omu-Niillasjeaggi" />
		<tag k="name:se" v="Omu-Niillasjeaggi" />
		<tag k="natural" v="wetland" />
		<tag k="ssr:stedsnr" v="272327" />
	</node>
	<node lat="70.60741667747531" lon="26.023283073060565" id="-103878">
		<tag k="name" v="Gáhkkorjeaggi" />
		<tag k="name:se" v="Gáhkkorjeaggi" />
		<tag k="natural" v="wetland" />
		<tag k="ssr:stedsnr" v="470075" />
	</node>
	<node lat="70.57328333837847" lon="25.905952507088745" id="-103897">
		<tag k="name" v="Gáranasrohtu" />
		<tag k="name:se" v="Gáranasrohtu" />
		<tag k="place" v="locality" />
		<tag k="ssr:stedsnr" v="349059" />
	</node>
	<node lat="70.40528333807552" lon="25.559819207107033" id="-103942">
		<tag k="name" v="Mourujänkkä" />
		<tag k="name:fkv" v="Mourujänkkä" />
		<tag k="natural" v="wetland" />
		<tag k="ssr:stedsnr" v="395581" />
	</node>
	<node lat="70.40375278787486" lon="25.23532479622975" id="-104008">
		<tag k="name" v="Knivmyra" />
		<tag k="natural" v="wetland" />
		<tag k="ssr:stedsnr" v="456459" />
	</node>
	<node lat="70.36237778609143" lon="25.58477198277589" id="-104012">
		<tag k="name" v="Varsanjuova" />
		<tag k="name:fkv" v="Varsanjuova" />
		<tag k="natural" v="scree" />
		<tag k="ssr:stedsnr" v="456578" />
	</node>
	<node lat="70.25601667369239" lon="25.49307476737654" id="-104080">
		<tag k="name" v="Liikajoen Isojänkät" />
		<tag k="name:fkv" v="Liikajoen Isojänkät" />
		<tag k="natural" v="wetland" />
		<tag k="ssr:stedsnr" v="517290" />
	</node>
	<node lat="70.38912778521507" lon="25.572794217661816" id="-104085">
		<tag k="name" v="Staurunmellanjänkkä" />
		<tag k="name:fkv" v="Staurunmellanjänkkä" />
		<tag k="natural" v="wetland" />
		<tag k="ssr:stedsnr" v="517568" />
	</node>
	<node lat="70.26833889213864" lon="24.98224425647299" id="-104089">
		<tag k="name" v="Suotnju" />
		<tag k="name:se" v="Suotnju" />
		<tag k="natural" v="wetland" />
		<tag k="ssr:stedsnr" v="517847" />
	</node>
	<node lat="70.59931945164452" lon="25.996777517649818" id="-104165">
		<tag k="name" v="Stuorrajeaggi" />
		<tag k="name:se" v="Stuorrajeaggi" />
		<tag k="natural" v="wetland" />
		<tag k="old_name:se" v="Stuorrajæggi" />
		<tag k="ssr:stedsnr" v="687563" />
	</node>
	<node lat="70.29549723115154" lon="25.51965252908516" id="-104258">
		<tag k="loc_name:se" v="Goahtegiedderohtu" />
		<tag k="name" v="Kotakentänruto" />
		<tag k="name:fkv" v="Kotakentänruto" />
		<tag k="place" v="locality" />
		<tag k="ssr:stedsnr" v="577408" />
	</node>
	<node lat="70.52841389335356" lon="25.090022029557808" id="-104263">
		<tag k="name" v="Vårplassen" />
		<tag k="place" v="locality" />
		<tag k="ssr:stedsnr" v="577351" />
	</node>
	<node lat="70.29268056611531" lon="25.51011087987412" id="-104264">
		<tag k="loc_name:se" v="Suvrragohpejeaggi" />
		<tag k="name" v="Syyrykopanjänkkä" />
		<tag k="name:fkv" v="Syyrykopanjänkkä" />
		<tag k="natural" v="wetland" />
		<tag k="ssr:stedsnr" v="577395" />
	</node>
	<node lat="70.2526027892543" lon="25.514066430396888" id="-104296">
		<tag k="name" v="Jouninruto" />
		<tag k="name:fkv" v="Jouninruto" />
		<tag k="place" v="locality" />
		<tag k="ssr:stedsnr" v="699240" />
	</node>
	<node lat="70.33164167558567" lon="25.62537753954199" id="-104316">
		<tag k="name" v="Pimmeeruto" />
		<tag k="name:fkv" v="Pimmeeruto" />
		<tag k="place" v="locality" />
		<tag k="ssr:stedsnr" v="699434" />
	</node>
	<node lat="70.4575777825764" lon="25.629021970171074" id="-104324">
		<tag k="name" v="Biesaidgieddi" />
		<tag k="name:se" v="Biesaidgieddi" />
		<tag k="place" v="locality" />
		<tag k="ssr:stedsnr" v="699725" />
	</node>
	<node lat="70.27248056605451" lon="25.518469194693225" id="-104379">
		<tag k="name" v="Aaronisojänkkä" />
		<tag k="name:fkv" v="Aaronisojänkkä" />
		<tag k="natural" v="wetland" />
		<tag k="ssr:stedsnr" v="637411" />
	</node>
	<node lat="70.40742501095124" lon="25.221052571851285" id="-104383">
		<tag k="name" v="Gumpejeaggi" />
		<tag k="name:se" v="Gumpejeaggi" />
		<tag k="natural" v="wetland" />
		<tag k="ssr:stedsnr" v="637527" />
	</node>
	<node lat="70.55908611951963" lon="25.87311919634314" id="-104394">
		<tag k="name" v="Gielasjeaggi" />
		<tag k="name:se" v="Gielasjeaggi" />
		<tag k="natural" v="wetland" />
		<tag k="ssr:stedsnr" v="652038" />
	</node>
	<node lat="70.54876389631175" lon="26.00519417138085" id="-104416">
		<tag k="name" v="Moksavuopmi" />
		<tag k="name:se" v="Moksavuopmi" />
		<tag k="old_name:se" v="Måksavuobmi" />
		<tag k="place" v="locality" />
		<tag k="ssr:stedsnr" v="687616" />
	</node>
	<node lat="70.50761389535369" lon="25.73210808104917" id="-104441">
		<tag k="name" v="Buollángárggu" />
		<tag k="name:se" v="Buollángárggu" />
		<tag k="natural" v="wetland" />
		<tag k="ssr:stedsnr" v="697385" />
	</node>
	<node lat="70.59170556132102" lon="25.94254694000127" id="-104443">
		<tag k="landuse" v="meadow" />
		<tag k="name" v="Mielcegieddi" />
		<tag k="name:se" v="Mielcegieddi" />
		<tag k="ssr:stedsnr" v="895093" />
	</node>
	<node lat="70.09764167423334" lon="25.00224980365117" id="-104446">
		<tag k="landuse" v="meadow" />
		<tag k="name" v="Isokenttä" />
		<tag k="name:fkv" v="Isokenttä" />
		<tag k="ssr:stedsnr" v="699167" />
	</node>
	<node lat="70.24952500509795" lon="25.48490254481943" id="-104448">
		<tag k="name" v="Hevosraukanruto" />
		<tag k="name:fkv" v="Hevosraukanruto" />
		<tag k="place" v="locality" />
		<tag k="ssr:stedsnr" v="699279" />
	</node>
	<node lat="69.98993333894268" lon="24.804585933511913" id="-104528">
		<tag k="name" v="Oppardatjeaggi" />
		<tag k="name:se" v="Oppardatjeaggi" />
		<tag k="natural" v="wetland" />
		<tag k="old_name:se" v="Åbbardatjæggi" />
		<tag k="ssr:stedsnr" v="808695" />
	</node>
	<node lat="70.30701112272422" lon="25.46469420295873" id="-104557">
		<tag k="name" v="Hevosenniemenkarko" />
		<tag k="name:fkv" v="Hevosenniemenkarko" />
		<tag k="natural" v="beach" />
		<tag k="ssr:stedsnr" v="820409" />
		<tag k="surface" v="sand" />
	</node>
	<node lat="70.442466678397" lon="25.622291425417377" id="-104562">
		<tag k="name" v="Livagieddi" />
		<tag k="name:se" v="Livagieddi" />
		<tag k="place" v="locality" />
		<tag k="ssr:stedsnr" v="820509" />
	</node>
	<node lat="70.36818056485076" lon="25.520771991976076" id="-104563">
		<tag k="name" v="Serinelund" />
		<tag k="place" v="locality" />
		<tag k="ssr:stedsnr" v="820571" />
	</node>
	<node lat="70.21876389916885" lon="24.86824148615182" id="-104569">
		<tag k="name" v="Johkkit" />
		<tag k="name:se" v="Johkkit" />
		<tag k="natural" v="scree" />
		<tag k="ssr:stedsnr" v="821786" />
	</node>
	<node lat="70.57935833989589" lon="24.98438871272761" id="-104655">
		<tag k="name" v="Vilgesgeađggit - Kvitsteinan" />
		<tag k="name:no" v="Kvitsteinan" />
		<tag k="name:se" v="Vilgesgeađggit" />
		<tag k="natural" v="stone" />
		<tag k="old_name:se" v="Vilgesgæđgiŧ" />
		<tag k="ssr:stedsnr" v="870880" />
	</node>
	<node lat="70.57234722623355" lon="25.042919278015944" id="-104701">
		<tag k="name" v="Loddoaijeaggi" />
		<tag k="name:se" v="Loddoaijeaggi" />
		<tag k="natural" v="wetland" />
		<tag k="old_name:se" v="Låddoaijæggi" />
		<tag k="ssr:stedsnr" v="930932" />
	</node>
	<node lat="70.07169722865922" lon="24.914530379543713" id="-104712">
		<tag k="loc_name:fkv" v="Rappu" />
		<tag k="name" v="Rahppa" />
		<tag k="name:fkv" v="Rahppa" />
		<tag k="natural" v="scree" />
		<tag k="ssr:stedsnr" v="881004" />
	</node>
	<node lat="70.2967500095931" lon="25.449608099717466" id="-104720">
		<tag k="name" v="Pessaren-karko" />
		<tag k="name:fkv" v="Pessaren-karko" />
		<tag k="natural" v="beach" />
		<tag k="ssr:stedsnr" v="881399" />
		<tag k="surface" v="sand" />
	</node>
	<node lat="70.31478333934206" lon="25.157777571716633" id="-104722">
		<tag k="landuse" v="meadow" />
		<tag k="name" v="Cuoppogieddi" />
		<tag k="name:se" v="Cuoppogieddi" />
		<tag k="ssr:stedsnr" v="881756" />
	</node>
	<node lat="69.83577501302229" lon="25.327466418885507" id="-104755">
		<tag k="name" v="Rávnnaleakšá" />
		<tag k="name:se" v="Rávnnaleakšá" />
		<tag k="natural" v="wetland" />
		<tag k="old_name:se" v="Ravnalækša" />
		<tag k="ssr:stedsnr" v="930903" />
	</node>
	<node lat="70.11958611836769" lon="24.49204707546218" id="-104793">
		<tag k="name" v="Behtošorda" />
		<tag k="name:se" v="Behtošorda" />
		<tag k="old_name:se" v="Bettušårda" />
		<tag k="place" v="locality" />
		<tag k="ssr:stedsnr" v="19024" />
	</node>
	<node lat="70.27740000355224" lon="24.4535831943212" id="-104837">
		<tag k="name" v="Nillabašleakši" />
		<tag k="name:se" v="Nillabašleakši" />
		<tag k="natural" v="wetland" />
		<tag k="old_name:se" v="Nillabašlækši" />
		<tag k="ssr:stedsnr" v="19709" />
	</node>
	<node lat="70.32828612224104" lon="25.638905303777168" id="-104912">
		<tag k="name" v="Pimmeeruto" />
		<tag k="name:fkv" v="Pimmeeruto" />
		<tag k="place" v="locality" />
		<tag k="ssr:stedsnr" v="31435" />
	</node>
	<node lat="70.39959445133007" lon="25.558991432475494" id="-104915">
		<tag k="name" v="Návrrašjeaggi - Naurisjänkkä" />
		<tag k="name:fkv" v="Naurisjänkkä" />
		<tag k="name:se" v="Návrrašjeaggi" />
		<tag k="natural" v="wetland" />
		<tag k="ssr:stedsnr" v="31554" />
	</node>
	<node lat="70.59045834094307" lon="25.980949718292262" id="-105027">
		<tag k="name" v="Hearmanrohtu" />
		<tag k="name:se" v="Hearmanrohtu" />
		<tag k="old_name:se" v="Hærmanråtto" />
		<tag k="place" v="locality" />
		<tag k="ssr:stedsnr" v="81598" />
	</node>
	<node lat="70.51282501090884" lon="25.973574737012097" id="-105030">
		<tag k="name" v="Moksajeakkit" />
		<tag k="name:se" v="Moksajeakkit" />
		<tag k="natural" v="wetland" />
		<tag k="old_name:se" v="Måksajæggit" />
		<tag k="ssr:stedsnr" v="81610" />
	</node>
	<node lat="70.49498889931809" lon="25.715771968581038" id="-105054">
		<tag k="name" v="Suorbmajeaggi" />
		<tag k="name:se" v="Suorbmajeaggi" />
		<tag k="natural" v="wetland" />
		<tag k="ssr:stedsnr" v="90323" />
	</node>
	<node lat="70.05685555752419" lon="25.12453590656549" id="-105065">
		<tag k="name" v="Ellenjänkkä" />
		<tag k="name:fkv" v="Ellenjänkkä" />
		<tag k="natural" v="wetland" />
		<tag k="ssr:stedsnr" v="92490" />
	</node>
	<node lat="70.375647232603" lon="25.865855286855666" id="-105115">
		<tag k="name" v="Rástejeaggi" />
		<tag k="name:se" v="Rástejeaggi" />
		<tag k="natural" v="wetland" />
		<tag k="old_name:se" v="Rastejæggi" />
		<tag k="ssr:stedsnr" v="140266" />
	</node>
	<node lat="70.51654167378419" lon="25.81951642181822" id="-105201">
		<tag k="name" v="Juovlarohtu" />
		<tag k="name:se" v="Juovlarohtu" />
		<tag k="place" v="locality" />
		<tag k="ssr:stedsnr" v="150430" />
	</node>
	<node lat="70.294441673762" lon="25.52386920382155" id="-105206">
		<tag k="name" v="Kalantonruto" />
		<tag k="name:fkv" v="Kalantonruto" />
		<tag k="place" v="locality" />
		<tag k="ssr:stedsnr" v="152426" />
	</node>
	<node lat="70.40368334074262" lon="25.21357480092003" id="-105212">
		<tag k="name" v="Jávrrešgasjeaggi" />
		<tag k="name:se" v="Jávrrešgasjeaggi" />
		<tag k="natural" v="wetland" />
		<tag k="ssr:stedsnr" v="152523" />
	</node>
	<node lat="70.40609723117585" lon="25.213524807880063" id="-105213">
		<tag k="name" v="Miellemohkejeaggi" />
		<tag k="name:se" v="Miellemohkejeaggi" />
		<tag k="natural" v="wetland" />
		<tag k="ssr:stedsnr" v="152524" />
	</node>
	<node lat="70.45311667190306" lon="25.69174697169438" id="-105217">
		<tag k="name" v="Nils Biehtár Rohtu - Niileksen Pietarin Ruto" />
		<tag k="name:fkv" v="Niileksen Pietarin Ruto" />
		<tag k="name:se" v="Nils Biehtár Rohtu" />
		<tag k="place" v="locality" />
		<tag k="ssr:stedsnr" v="152550" />
	</node>
	<node lat="70.35758056443919" lon="25.451408106305365" id="-105218">
		<tag k="name" v="Snuipanpahta" />
		<tag k="name:fkv" v="Snuipanpahta" />
		<tag k="natural" v="scree" />
		<tag k="ssr:stedsnr" v="152636" />
	</node>
	<node lat="70.25270555741007" lon="25.014872032089226" id="-105224">
		<tag k="name" v="Čievra" />
		<tag k="name:se" v="Čievra" />
		<tag k="natural" v="scree" />
		<tag k="ssr:stedsnr" v="152835" />
	</node>
	<node lat="70.1524388899127" lon="24.579135951518563" id="-105255">
		<tag k="name" v="Deappojeaggi" />
		<tag k="name:se" v="Deappojeaggi" />
		<tag k="natural" v="wetland" />
		<tag k="old_name:se" v="Dæbbujæggi" />
		<tag k="ssr:stedsnr" v="201024" />
	</node>
	<node lat="70.31282222849158" lon="25.884413612842827" id="-105277">
		<tag k="name" v="Áiterohtu" />
		<tag k="name:se" v="Áiterohtu" />
		<tag k="old_name:se" v="Aiteråtto" />
		<tag k="place" v="locality" />
		<tag k="ssr:stedsnr" v="201337" />
	</node>
	<node lat="70.53068889550971" lon="25.806191406783167" id="-105329">
		<tag k="name" v="Stuorrajeaggi - Stormyra" />
		<tag k="name:no" v="Stormyra" />
		<tag k="name:se" v="Stuorrajeaggi" />
		<tag k="natural" v="wetland" />
		<tag k="ssr:stedsnr" v="202527" />
	</node>
	<node lat="70.48147778933027" lon="25.72761085567107" id="-105373">
		<tag k="name" v="Hánnocárrirohtu" />
		<tag k="name:se" v="Hánnocárrirohtu" />
		<tag k="place" v="locality" />
		<tag k="ssr:stedsnr" v="213757" />
	</node>
	<node lat="70.45891944838456" lon="25.63469419031878" id="-105374">
		<tag k="name" v="Buoiddatgieddi" />
		<tag k="name:se" v="Buoiddatgieddi" />
		<tag k="place" v="locality" />
		<tag k="ssr:stedsnr" v="213765" />
	</node>
	<node lat="70.44820278493397" lon="25.635721982235022" id="-105375">
		<tag k="name" v="Barfi" />
		<tag k="name:se" v="Barfi" />
		<tag k="natural" v="wetland" />
		<tag k="ssr:stedsnr" v="213769" />
	</node>
	<node lat="70.39260556358508" lon="25.575124757470416" id="-105402">
		<tag k="name" v="Kaltarudonjänkkä" />
		<tag k="name:fkv" v="Kaltarudonjänkkä" />
		<tag k="natural" v="wetland" />
		<tag k="ssr:stedsnr" v="274550" />
	</node>
	<node lat="70.19868333463997" lon="24.915410935806015" id="-105407">
		<tag k="name" v="Anna-Jongieddi" />
		<tag k="name:se" v="Anna-Jongieddi" />
		<tag k="place" v="locality" />
		<tag k="ssr:stedsnr" v="275827" />
	</node>
	<node lat="70.2098000028644" lon="24.895330367073424" id="-105408">
		<tag k="name" v="Dimbbarjeaggi" />
		<tag k="name:se" v="Dimbbarjeaggi" />
		<tag k="natural" v="wetland" />
		<tag k="ssr:stedsnr" v="275833" />
	</node>
	<node lat="70.55298056105268" lon="25.854885836939264" id="-105409">
		<tag k="name" v="Civatjeaggi" />
		<tag k="name:se" v="Civatjeaggi" />
		<tag k="natural" v="wetland" />
		<tag k="ssr:stedsnr" v="288048" />
	</node>
	<node lat="69.8548805606128" lon="25.475824741629694" id="-105446">
		<tag k="name" v="Vuopmevárjeaggi" />
		<tag k="name:se" v="Vuopmevárjeaggi" />
		<tag k="natural" v="wetland" />
		<tag k="old_name:se" v="Vuobmevarjæggi" />
		<tag k="ssr:stedsnr" v="322910" />
	</node>
	<node lat="70.41032778460048" lon="25.560921996043938" id="-105528">
		<tag k="name" v="Paiskijänkkä" />
		<tag k="name:fkv" v="Paiskijänkkä" />
		<tag k="natural" v="wetland" />
		<tag k="ssr:stedsnr" v="335564" />
	</node>
	<node lat="70.39308333783767" lon="25.57831086654997" id="-105529">
		<tag k="name" v="Kaltaruto" />
		<tag k="name:fkv" v="Kaltaruto" />
		<tag k="place" v="locality" />
		<tag k="ssr:stedsnr" v="335576" />
	</node>
	<node lat="70.44352778386613" lon="25.215194245730295" id="-105534">
		<tag k="landuse" v="meadow" />
		<tag k="name" v="Storjorda" />
		<tag k="ssr:stedsnr" v="335395" />
	</node>
	<node lat="70.21143611467649" lon="24.89124425262522" id="-105547">
		<tag k="name" v="Heastajeaggi" />
		<tag k="name:se" v="Heastajeaggi" />
		<tag k="natural" v="wetland" />
		<tag k="ssr:stedsnr" v="335871" />
	</node>
	<node lat="70.38698612164505" lon="25.548680329939963" id="-105635">
		<tag k="name" v="Kopparuto" />
		<tag k="name:fkv" v="Kopparuto" />
		<tag k="name:se" v="Gohpirohtu" />
		<tag k="place" v="locality" />
		<tag k="ssr:stedsnr" v="387935" />
	</node>
	<node lat="70.05641389601061" lon="25.084577568945416" id="-105648">
		<tag k="name" v="Salamonsumpen" />
		<tag k="natural" v="wetland" />
		<tag k="ssr:stedsnr" v="395018" />
	</node>
	<node lat="70.32632500824678" lon="25.608133101328864" id="-105650">
		<tag k="name" v="Jokiruto" />
		<tag k="name:fkv" v="Jokiruto" />
		<tag k="place" v="locality" />
		<tag k="ssr:stedsnr" v="395447" />
	</node>
	<node lat="70.05473056338627" lon="25.11608313279063" id="-105657">
		<tag k="name" v="Isopounu" />
		<tag k="name:fkv" v="Isopounu" />
		<tag k="natural" v="wetland" />
		<tag k="ssr:stedsnr" v="395373" />
	</node>
	<node lat="70.59781667824926" lon="26.019024719762943" id="-105676">
		<tag k="name" v="Jorbarohtu" />
		<tag k="name:se" v="Jorbarohtu" />
		<tag k="place" v="locality" />
		<tag k="ssr:stedsnr" v="410081" />
	</node>
	<node lat="70.07155834033603" lon="25.855849710494713" id="-105709">
		<tag k="name" v="Solggotleakšá" />
		<tag k="name:se" v="Solggotleakšá" />
		<tag k="natural" v="wetland" />
		<tag k="old_name:se" v="Sålgutlækša" />
		<tag k="ssr:stedsnr" v="444340" />
	</node>
	<node lat="70.1831694566373" lon="25.880944149998676" id="-105710">
		<tag k="name" v="Lohpparohtu" />
		<tag k="name:se" v="Lohpparohtu" />
		<tag k="old_name:se" v="Låpparåtto" />
		<tag k="place" v="locality" />
		<tag k="ssr:stedsnr" v="444352" />
	</node>
	<node lat="69.99243333855378" lon="25.34936919553" id="-105723">
		<tag k="name" v="Guollejárjeaggi" />
		<tag k="name:se" v="Guollejárjeaggi" />
		<tag k="natural" v="wetland" />
		<tag k="old_name:se" v="Guollejarjæggi" />
		<tag k="ssr:stedsnr" v="444551" />
	</node>
	<node lat="69.98546389786435" lon="25.241421990464485" id="-105724">
		<tag k="name" v="Gussajeaggi" />
		<tag k="name:se" v="Gussajeaggi" />
		<tag k="natural" v="wetland" />
		<tag k="old_name:se" v="Gussajæggi" />
		<tag k="ssr:stedsnr" v="444554" />
	</node>
	<node lat="70.5032305653514" lon="25.753444195349804" id="-105840">
		<tag k="name" v="Stuorrajeaggi - Stormyra" />
		<tag k="name:no" v="Stormyra" />
		<tag k="name:se" v="Stuorrajeaggi" />
		<tag k="natural" v="wetland" />
		<tag k="ssr:stedsnr" v="505510" />
	</node>
	<node lat="70.37187500828635" lon="25.698341413641597" id="-105881">
		<tag k="name" v="Fielmanouta" />
		<tag k="name:fkv" v="Fielmanouta" />
		<tag k="name:se" v="Fielmmavuovdi" />
		<tag k="place" v="locality" />
		<tag k="ssr:stedsnr" v="509882" />
	</node>
	<node lat="70.4963611164378" lon="25.74287753004122" id="-105894">
		<tag k="name" v="Bižusgieddi" />
		<tag k="name:se" v="Bižusgieddi" />
		<tag k="natural" v="wetland" />
		<tag k="ssr:stedsnr" v="515441" />
	</node>
	<node lat="70.27735278343008" lon="25.532977538250883" id="-105899">
		<tag k="loc_name:se" v="Bovdnajeaggi" />
		<tag k="name" v="Pounujänkkä" />
		<tag k="name:fkv" v="Pounujänkkä" />
		<tag k="natural" v="wetland" />
		<tag k="ssr:stedsnr" v="517379" />
	</node>
	<node lat="70.31339167030603" lon="25.536074761480716" id="-105900">
		<tag k="loc_name:se" v="Láddorohtu" />
		<tag k="name" v="Lantoruto" />
		<tag k="name:fkv" v="Lantoruto" />
		<tag k="place" v="locality" />
		<tag k="ssr:stedsnr" v="517388" />
	</node>
	<node lat="70.32113333964287" lon="25.568744188810673" id="-105903">
		<tag k="name" v="Niitynjänkkä" />
		<tag k="name:fkv" v="Niitynjänkkä" />
		<tag k="natural" v="wetland" />
		<tag k="ssr:stedsnr" v="517432" />
	</node>
	<node lat="70.31958055904835" lon="25.574224755887883" id="-105904">
		<tag k="name" v="Padokohdanjänkkä" />
		<tag k="name:fkv" v="Padokohdanjänkkä" />
		<tag k="natural" v="wetland" />
		<tag k="ssr:stedsnr" v="517434" />
	</node>
	<node lat="70.3341388937286" lon="25.634783086071057" id="-105905">
		<tag k="name" v="Alainenvuoma" />
		<tag k="name:fkv" v="Alainenvuoma" />
		<tag k="place" v="locality" />
		<tag k="ssr:stedsnr" v="517443" />
	</node>
	<node lat="70.48563889166832" lon="25.68772197951209" id="-105911">
		<tag k="name" v="Buollánrohtu" />
		<tag k="name:se" v="Buollánrohtu" />
		<tag k="place" v="locality" />
		<tag k="ssr:stedsnr" v="517733" />
	</node>
	<node lat="70.39265278273199" lon="25.550571975724083" id="-105913">
		<tag k="name" v="Laajinjänkkä" />
		<tag k="name:fkv" v="Laajinjänkkä" />
		<tag k="natural" v="wetland" />
		<tag k="ssr:stedsnr" v="517555" />
	</node>
	<node lat="70.4744138938844" lon="25.675971972984755" id="-105917">
		<tag k="name" v="Evrojeaggi" />
		<tag k="name:se" v="Evrojeaggi" />
		<tag k="natural" v="wetland" />
		<tag k="ssr:stedsnr" v="517748" />
	</node>
	<node lat="70.44775000786235" lon="25.829663629334664" id="-105960">
		<tag k="name" v="Soljjot" />
		<tag k="name:se" v="Soljjot" />
		<tag k="old_name:se" v="Såljut" />
		<tag k="place" v="locality" />
		<tag k="ssr:stedsnr" v="565291" />
	</node>
	<node lat="69.76561389569977" lon="25.0785303471081" id="-106013">
		<tag k="name" v="Divgajeaggi" />
		<tag k="name:se" v="Divgajeaggi" />
		<tag k="natural" v="wetland" />
		<tag k="old_name:se" v="Divgajæggi" />
		<tag k="ssr:stedsnr" v="565627" />
	</node>
	<node lat="70.49412500765254" lon="25.674305321414973" id="-106069">
		<tag k="name" v="Jiellenjárgieddi" />
		<tag k="name:se" v="Jiellenjárgieddi" />
		<tag k="place" v="locality" />
		<tag k="ssr:stedsnr" v="575334" />
	</node>
	<node lat="70.4863527870675" lon="25.78494696390321" id="-106070">
		<tag k="name" v="Áinnetrohtu" />
		<tag k="name:se" v="Áinnetrohtu" />
		<tag k="place" v="locality" />
		<tag k="ssr:stedsnr" v="575367" />
	</node>
	<node lat="70.2631444481159" lon="25.512058100469186" id="-106074">
		<tag k="name" v="Markitanpounut" />
		<tag k="name:fkv" v="Markitanpounut" />
		<tag k="natural" v="wetland" />
		<tag k="ssr:stedsnr" v="577270" />
	</node>
	<node lat="70.05152778919327" lon="25.10578312202178" id="-106077">
		<tag k="name" v="Bihkurohtu" />
		<tag k="name:se" v="Bihkurohtu" />
		<tag k="place" v="locality" />
		<tag k="ssr:stedsnr" v="577370" />
	</node>
	<node lat="70.38666944944396" lon="25.561610866368618" id="-106084">
		<tag k="name" v="Iso Sokanjänkkä" />
		<tag k="name:fkv" v="Iso Sokanjänkkä" />
		<tag k="natural" v="wetland" />
		<tag k="ssr:stedsnr" v="577557" />
	</node>
	<node lat="70.3726972260288" lon="25.62104142727614" id="-106088">
		<tag k="name" v="Skalvijänkät" />
		<tag k="name:fkv" v="Skalvijänkät" />
		<tag k="natural" v="wetland" />
		<tag k="ssr:stedsnr" v="577589" />
	</node>
	<node lat="70.44750000434283" lon="25.61888865993506" id="-106091">
		<tag k="name" v="Goađegieddi" />
		<tag k="name:se" v="Goađegieddi" />
		<tag k="place" v="locality" />
		<tag k="ssr:stedsnr" v="577776" />
	</node>
	<node lat="70.25907778252385" lon="24.884502595203287" id="-106094">
		<tag k="name" v="Váreduogijeaggi" />
		<tag k="name:se" v="Váreduogijeaggi" />
		<tag k="natural" v="wetland" />
		<tag k="ssr:stedsnr" v="577854" />
	</node>
	<node lat="70.14933334087883" lon="24.545988727662554" id="-106137">
		<tag k="name" v="Deappovuopmi" />
		<tag k="name:se" v="Deappovuopmi" />
		<tag k="old_name:se" v="Dæbbuvuobmi" />
		<tag k="place" v="locality" />
		<tag k="ssr:stedsnr" v="625972" />
	</node>
	<node lat="70.58498889282995" lon="24.977397055448275" id="-106194">
		<tag k="name" v="Vilgesgeađggejeakkit" />
		<tag k="name:se" v="Vilgesgeađggejeakkit" />
		<tag k="natural" v="wetland" />
		<tag k="old_name:se" v="Vilgesgæđgejæggit;Vilgesgeadgejeaggit" />
		<tag k="ssr:stedsnr" v="627888" />
	</node>
	<node lat="70.45517778011956" lon="25.195044244016962" id="-106208">
		<tag k="name" v="Knutmyra" />
		<tag k="natural" v="wetland" />
		<tag k="ssr:stedsnr" v="637366" />
	</node>
	<node lat="70.05386111650604" lon="25.09172480327607" id="-106213">
		<tag k="name" v="Lehtirohtu" />
		<tag k="name:fkv" v="Lehtirohtu" />
		<tag k="place" v="locality" />
		<tag k="ssr:stedsnr" v="637388" />
	</node>
	<node lat="70.48188333656691" lon="25.00151091975692" id="-106228">
		<tag k="name" v="Iŋggájeaggi" />
		<tag k="name:se" v="Iŋggájeaggi" />
		<tag k="natural" v="wetland" />
		<tag k="ssr:stedsnr" v="638220" />
	</node>
	<node lat="70.59358056290382" lon="25.995174712684477" id="-106242">
		<tag k="name" v="Goađabalssat" />
		<tag k="name:se" v="Goađabalssat" />
		<tag k="natural" v="wetland" />
		<tag k="ssr:stedsnr" v="652050" />
	</node>
	<node lat="69.82255000870816" lon="25.548166394967357" id="-106301">
		<tag k="name" v="Rievssatjeaggi" />
		<tag k="name:se" v="Rievssatjeaggi" />
		<tag k="natural" v="wetland" />
		<tag k="old_name:se" v="Rievsatjæggi" />
		<tag k="ssr:stedsnr" v="747897" />
	</node>
	<node lat="70.39978333984196" lon="25.226474787228007" id="-106370">
		<tag k="name" v="Kumyra" />
		<tag k="natural" v="wetland" />
		<tag k="ssr:stedsnr" v="759490" />
	</node>
	<node lat="70.51772778315089" lon="25.06606649539507" id="-106372">
		<tag k="name" v="Sletteng" />
		<tag k="place" v="locality" />
		<tag k="ssr:stedsnr" v="759336" />
	</node>
	<node lat="70.47579167708787" lon="25.666055315367036" id="-106383">
		<tag k="name" v="Evrorohtu" />
		<tag k="name:se" v="Evrorohtu" />
		<tag k="place" v="locality" />
		<tag k="ssr:stedsnr" v="759733" />
	</node>
	<node lat="70.25594722851748" lon="25.508413642508692" id="-106386">
		<tag k="name" v="Jouninjänkkä" />
		<tag k="name:fkv" v="Jouninjänkkä" />
		<tag k="natural" v="wetland" />
		<tag k="ssr:stedsnr" v="760269" />
	</node>
	<node lat="69.96886112138581" lon="25.49793030715983" id="-106462">
		<tag k="name" v="Oađášsieđga" />
		<tag k="name:se" v="Oađášsieđga" />
		<tag k="natural" v="wetland" />
		<tag k="old_name:se" v="Oađašsiđga" />
		<tag k="ssr:stedsnr" v="808567" />
	</node>
	<node lat="69.90601667521425" lon="25.705969147911098" id="-106479">
		<tag k="name" v="Gáranasleakšá" />
		<tag k="name:se" v="Gáranasleakšá" />
		<tag k="natural" v="wetland" />
		<tag k="old_name:se" v="Garanaslækša" />
		<tag k="ssr:stedsnr" v="808930" />
	</node>
	<node lat="70.36418889231592" lon="25.57097476543825" id="-106525">
		<tag k="name" v="Rampinjuova" />
		<tag k="name:fkv" v="Rampinjuova" />
		<tag k="name:se" v="Rámbejuovva" />
		<tag k="natural" v="scree" />
		<tag k="ssr:stedsnr" v="812940" />
	</node>
	<node lat="70.51044723252558" lon="25.76461919939187" id="-106533">
		<tag k="name" v="Heargeveaddinjeaggi" />
		<tag k="name:se" v="Heargeveaddinjeaggi" />
		<tag k="natural" v="wetland" />
		<tag k="ssr:stedsnr" v="818444" />
	</node>
	<node lat="70.33964723257282" lon="25.638205301580644" id="-106540">
		<tag k="name" v="Ylimäinen vuoma" />
		<tag k="name:fkv" v="Ylimäinen vuoma" />
		<tag k="natural" v="wetland" />
		<tag k="ssr:stedsnr" v="820462" />
	</node>
	<node lat="70.40661667246208" lon="25.22641646835632" id="-106542">
		<tag k="name" v="Seakkojeaggi" />
		<tag k="name:se" v="Seakkojeaggi" />
		<tag k="natural" v="wetland" />
		<tag k="ssr:stedsnr" v="820476" />
	</node>
	<node lat="70.39592500602758" lon="25.203755355071532" id="-106544">
		<tag k="name" v="Guhkesjeaggi - Langmyra" />
		<tag k="name:no" v="Langmyra" />
		<tag k="name:se" v="Guhkesjeaggi" />
		<tag k="natural" v="wetland" />
		<tag k="ssr:stedsnr" v="820498" />
	</node>
	<node lat="70.05404167706219" lon="25.130702570981274" id="-106545">
		<tag k="name" v="Ajunrohtu" />
		<tag k="name:fkv" v="Ajunrohtu" />
		<tag k="place" v="locality" />
		<tag k="ssr:stedsnr" v="820501" />
	</node>
	<node lat="70.592669449736" lon="26.049669168722072" id="-106557">
		<tag k="name" v="Guhkesrohtu" />
		<tag k="name:se" v="Guhkesrohtu" />
		<tag k="place" v="locality" />
		<tag k="ssr:stedsnr" v="835080" />
	</node>
	<node lat="70.34593055970332" lon="25.03366093270017" id="-106704">
		<tag k="name" v="Ulvemyra" />
		<tag k="natural" v="wetland" />
		<tag k="ssr:stedsnr" v="881932" />
	</node>
	<node lat="70.46816667174625" lon="25.66120810119973" id="-106705">
		<tag k="name" v="Biškunrohtu" />
		<tag k="name:se" v="Biškunrohtu" />
		<tag k="place" v="locality" />
		<tag k="ssr:stedsnr" v="881723" />
	</node>
	<node lat="70.44665278898746" lon="25.631141416038233" id="-106707">
		<tag k="name" v="Gáldosjeaggi" />
		<tag k="name:se" v="Gáldosjeaggi" />
		<tag k="natural" v="wetland" />
		<tag k="ssr:stedsnr" v="881732" />
	</node>
	<node lat="70.05108056142988" lon="25.088222006472417" id="-106724">
		<tag k="name" v="Palon vittikka" />
		<tag k="name:fkv" v="Palon vittikka" />
		<tag k="natural" v="wetland" />
		<tag k="ssr:stedsnr" v="941371" />
	</node>
	<node lat="70.26720278608278" lon="25.47959143150803" id="-106727">
		<tag k="landuse" v="meadow" />
		<tag k="name" v="Liikajoenkenttä" />
		<tag k="name:fkv" v="Liikajoenkenttä" />
		<tag k="ssr:stedsnr" v="942243" />
	</node>
	<node lat="70.24471944809525" lon="25.417216442688577" id="-106730">
		<tag k="name" v="Ankarilahđenruto" />
		<tag k="name:fkv" v="Ankarilahđenruto" />
		<tag k="place" v="locality" />
		<tag k="ssr:stedsnr" v="942273" />
	</node>
	<node lat="70.4083111172904" lon="25.196277565022303" id="-106737">
		<tag k="name" v="Uhcačohkašjeaggi" />
		<tag k="name:se" v="Uhcačohkašjeaggi" />
		<tag k="natural" v="wetland" />
		<tag k="ssr:stedsnr" v="942360" />
	</node>
	<node lat="70.4812805602977" lon="25.665058096022403" id="-106749">
		<tag k="name" v="Goaskinbáhgieddi" />
		<tag k="name:se" v="Goaskinbáhgieddi" />
		<tag k="place" v="locality" />
		<tag k="ssr:stedsnr" v="942740" />
	</node>
	<node lat="70.20340833706224" lon="24.848972053102205" id="-106752">
		<tag k="name" v="Niitovuovdi" />
		<tag k="name:se" v="Niitovuovdi" />
		<tag k="place" v="locality" />
		<tag k="ssr:stedsnr" v="942779" />
	</node>
	<node lat="70.57281389239425" lon="25.897896960011522" id="-106758">
		<tag k="name" v="Gurnargieddi" />
		<tag k="name:se" v="Gurnargieddi" />
		<tag k="place" v="locality" />
		<tag k="ssr:stedsnr" v="956051" />
	</node>
	<node lat="70.54227778196193" lon="25.83014974376122" id="-106759">
		<tag k="name" v="Sunnajeaggi" />
		<tag k="name:se" v="Sunnajeaggi" />
		<tag k="natural" v="wetland" />
		<tag k="ssr:stedsnr" v="956069" />
	</node>
</osm>
