<?xml version="1.0" encoding="UTF-8"?>
<osm version="0.6" generator="osmapis">
	<node lat="70.63457500841545" lon="26.041288612007115" id="-103302">
		<tag k="fixme" v="consider natural=peak for the most distinct mountains in the district" />
		<tag k="name" v="Stuorra Peaila" />
		<tag k="name:se" v="Stuorra Peaila" />
		<tag k="natural" v="hill" />
		<tag k="place" v="locality" />
		<tag k="ssr:stedsnr" v="229791" />
	</node>
	<node lat="69.8626222283804" lon="24.842555356671078" id="-103315">
		<tag k="fixme" v="consider natural=peak for the most distinct mountains in the district" />
		<tag k="name" v="Borgaloktvárri" />
		<tag k="name:se" v="Borgaloktvárri" />
		<tag k="natural" v="hill" />
		<tag k="old_name:se" v="Bårgalåktvarri;Borgaloktavárri" />
		<tag k="place" v="locality" />
		<tag k="ssr:stedsnr" v="19503" />
	</node>
	<node lat="69.83768056022664" lon="24.894702566876962" id="-103316">
		<tag k="fixme" v="consider natural=peak for the most distinct mountains in the district" />
		<tag k="name" v="Gárdečohkka" />
		<tag k="name:se" v="Gárdečohkka" />
		<tag k="natural" v="hill" />
		<tag k="old_name:se" v="Gardecåkka" />
		<tag k="place" v="locality" />
		<tag k="ssr:stedsnr" v="19517" />
	</node>
	<node lat="69.97492500728912" lon="25.2305442145586" id="-103318">
		<tag k="name" v="Bihtošjalgadas" />
		<tag k="name:se" v="Bihtošjalgadas" />
		<tag k="old_name:se" v="Bittušjalgadas" />
		<tag k="place" v="locality" />
		<tag k="ssr:stedsnr" v="19549" />
	</node>
	<node lat="69.8367777880045" lon="25.351530321619574" id="-103323">
		<tag k="fixme" v="consider natural=peak for the most distinct mountains in the district" />
		<tag k="name" v="Stuorroaivi" />
		<tag k="name:se" v="Stuorroaivi" />
		<tag k="natural" v="hill" />
		<tag k="place" v="locality" />
		<tag k="ssr:stedsnr" v="19904" />
	</node>
	<node lat="70.67770833938714" lon="25.46796089130141" id="-103343">
		<tag k="name" v="Čielkabákti - Teistberga" />
		<tag k="name:no" v="Teistberga" />
		<tag k="name:se" v="Čielkabákti" />
		<tag k="natural" v="hill" />
		<tag k="old_name:se" v="Čielkabakti" />
		<tag k="place" v="locality" />
		<tag k="ssr:stedsnr" v="20996" />
	</node>
	<node lat="70.5037833391778" lon="25.731916408623213" id="-103351">
		<tag k="name" v="Bilbanjunni" />
		<tag k="name:se" v="Bilbanjunni" />
		<tag k="place" v="locality" />
		<tag k="ssr:stedsnr" v="29370" />
	</node>
	<node lat="70.50463611895296" lon="25.738658076807674" id="-103352">
		<tag k="name" v="Ruššanjunni" />
		<tag k="name:se" v="Ruššanjunni" />
		<tag k="place" v="locality" />
		<tag k="ssr:stedsnr" v="29375" />
	</node>
	<node lat="70.4900388978843" lon="25.819366414771526" id="-103353">
		<tag k="name" v="Vuolle leakšá" />
		<tag k="name:se" v="Vuolle leakšá" />
		<tag k="natural" v="valley" />
		<tag k="place" v="locality" />
		<tag k="ssr:stedsnr" v="29408" />
	</node>
	<node lat="70.07224722903742" lon="25.19662756196393" id="-103354">
		<tag k="name" v="Tomaskurulaatas" />
		<tag k="name:fkv" v="Tomaskurulaatas" />
		<tag k="place" v="locality" />
		<tag k="ssr:stedsnr" v="31121" />
	</node>
	<node lat="70.3143194537354" lon="25.50717477433925" id="-103355">
		<tag k="loc_name:se" v="Vuolimus Báktenjunni" />
		<tag k="name" v="Alainen Pahđannenä" />
		<tag k="name:fkv" v="Alainen Pahđannenä" />
		<tag k="natural" v="slope" />
		<tag k="place" v="locality" />
		<tag k="ssr:stedsnr" v="31403" />
	</node>
	<node lat="70.41151389165664" lon="25.181127580377705" id="-103356">
		<tag k="name" v="Langbakken" />
		<tag k="natural" v="slope" />
		<tag k="place" v="locality" />
		<tag k="ssr:stedsnr" v="31363" />
	</node>
	<node lat="70.27750278750914" lon="25.51270253478044" id="-103358">
		<tag k="name" v="Marjasokka" />
		<tag k="name:fkv" v="Marjasokka" />
		<tag k="natural" v="hill" />
		<tag k="place" v="locality" />
		<tag k="ssr:stedsnr" v="31369" />
	</node>
	<node lat="70.37256944679449" lon="25.06552203725811" id="-103362">
		<tag k="name" v="Sálletjohleahki" />
		<tag k="name:se" v="Sálletjohleahki" />
		<tag k="natural" v="valley" />
		<tag k="place" v="locality" />
		<tag k="ssr:stedsnr" v="31969" />
	</node>
	<node lat="70.43104167729284" lon="25.89010528536949" id="-103382">
		<tag k="fixme" v="consider natural=peak for the most distinct mountains in the district" />
		<tag k="name" v="Geađgoaivi" />
		<tag k="name:se" v="Geađgoaivi" />
		<tag k="natural" v="hill" />
		<tag k="old_name:se" v="Gæđgoaivi" />
		<tag k="place" v="locality" />
		<tag k="ssr:stedsnr" v="80306" />
	</node>
	<node lat="70.43053056695301" lon="26.06246637150661" id="-103383">
		<tag k="fixme" v="consider natural=peak for the most distinct mountains in the district" />
		<tag k="name" v="Sieđgoaivi" />
		<tag k="name:se" v="Sieđgoaivi" />
		<tag k="natural" v="hill" />
		<tag k="place" v="locality" />
		<tag k="ssr:stedsnr" v="80311" />
	</node>
	<node lat="69.88723334430847" lon="25.047260893913005" id="-103385">
		<tag k="fixme" v="consider natural=peak for the most distinct mountains in the district" />
		<tag k="name" v="Iŋggašvárri" />
		<tag k="name:se" v="Iŋggašvárri" />
		<tag k="natural" v="hill" />
		<tag k="old_name:se" v="Iŋgašvarri" />
		<tag k="place" v="locality" />
		<tag k="ssr:stedsnr" v="80497" />
	</node>
	<node lat="70.5829777870874" lon="25.05008315025847" id="-103400">
		<tag k="fixme" v="consider natural=peak for the most distinct mountains in the district" />
		<tag k="name" v="Loddegielas" />
		<tag k="name:se" v="Loddegielas" />
		<tag k="natural" v="hill" />
		<tag k="old_name:se" v="Låddegielas" />
		<tag k="place" v="locality" />
		<tag k="ssr:stedsnr" v="81901" />
	</node>
	<node lat="70.54196389956758" lon="25.814916408972767" id="-103407">
		<tag k="name" v="Ádjatgurra" />
		<tag k="name:se" v="Ádjatgurra" />
		<tag k="natural" v="valley" />
		<tag k="place" v="locality" />
		<tag k="ssr:stedsnr" v="90075" />
	</node>
	<node lat="70.49871111674258" lon="25.758596972740218" id="-103408">
		<tag k="fixme" v="consider natural=peak for the most distinct mountains in the district" />
		<tag k="name" v="Nieiddaiddievát" />
		<tag k="name:se" v="Nieiddaiddievát" />
		<tag k="natural" v="hill" />
		<tag k="place" v="locality" />
		<tag k="ssr:stedsnr" v="90425" />
	</node>
	<node lat="70.51092223182481" lon="25.754249763482548" id="-103409">
		<tag k="name" v="Vuoksarohbákti" />
		<tag k="name:se" v="Vuoksarohbákti" />
		<tag k="natural" v="hill" />
		<tag k="place" v="locality" />
		<tag k="ssr:stedsnr" v="90426" />
	</node>
	<node lat="70.30756667344495" lon="25.53376643125927" id="-103410">
		<tag k="name" v="Piettusensillee" />
		<tag k="name:fkv" v="Piettusensillee" />
		<tag k="natural" v="slope" />
		<tag k="place" v="locality" />
		<tag k="ssr:stedsnr" v="92402" />
	</node>
	<node lat="70.31831945216115" lon="25.547374773119884" id="-103414">
		<tag k="name" v="Kaivorungantörmä" />
		<tag k="name:fkv" v="Kaivorungantörmä" />
		<tag k="natural" v="slope" />
		<tag k="place" v="locality" />
		<tag k="ssr:stedsnr" v="92470" />
	</node>
	<node lat="70.4026861187474" lon="25.237047024299002" id="-103415">
		<tag k="name" v="Grunnvåghaugen" />
		<tag k="natural" v="hill" />
		<tag k="place" v="locality" />
		<tag k="ssr:stedsnr" v="92475" />
	</node>
	<node lat="70.3918638955686" lon="25.223958142507005" id="-103416">
		<tag k="name" v="Eretleahki" />
		<tag k="name:se" v="Eretleahki" />
		<tag k="natural" v="slope" />
		<tag k="place" v="locality" />
		<tag k="ssr:stedsnr" v="92481" />
	</node>
	<node lat="70.42034167864206" lon="25.64905252837584" id="-103422">
		<tag k="name" v="Iŋggároggečohkka" />
		<tag k="name:se" v="Iŋggároggečohkka" />
		<tag k="natural" v="hill" />
		<tag k="place" v="locality" />
		<tag k="ssr:stedsnr" v="92523" />
	</node>
	<node lat="70.60038056242475" lon="25.99251639193318" id="-103427">
		<tag k="name" v="Guolbba" />
		<tag k="name:se" v="Guolbba" />
		<tag k="place" v="locality" />
		<tag k="ssr:stedsnr" v="106081" />
	</node>
	<node lat="70.56101945035564" lon="25.86568584505004" id="-103430">
		<tag k="fixme" v="consider natural=peak for the most distinct mountains in the district" />
		<tag k="name" v="Gielas" />
		<tag k="name:se" v="Gielas" />
		<tag k="natural" v="hill" />
		<tag k="place" v="locality" />
		<tag k="ssr:stedsnr" v="107033" />
	</node>
	<node lat="70.04907222765621" lon="24.19583597162869" id="-103434">
		<tag k="fixme" v="consider natural=peak for the most distinct mountains in the district" />
		<tag k="name" v="Gorsavárri" />
		<tag k="name:se" v="Gorsavárri" />
		<tag k="natural" v="hill" />
		<tag k="old_name:se" v="Gårsavarri" />
		<tag k="place" v="locality" />
		<tag k="ssr:stedsnr" v="140002" />
	</node>
	<node lat="69.83881667035936" lon="24.93794145500623" id="-103441">
		<tag k="name" v="Šluppotčohkka" />
		<tag k="name:se" v="Šluppotčohkka" />
		<tag k="natural" v="hill" />
		<tag k="old_name:se" v="Šlubbutčåkka" />
		<tag k="place" v="locality" />
		<tag k="ssr:stedsnr" v="140502" />
	</node>
	<node lat="69.88649444777982" lon="24.85958870499135" id="-103447">
		<tag k="fixme" v="consider natural=peak for the most distinct mountains in the district" />
		<tag k="name" v="Stuorroaivi" />
		<tag k="name:se" v="Stuorroaivi" />
		<tag k="natural" v="hill" />
		<tag k="place" v="locality" />
		<tag k="ssr:stedsnr" v="140486" />
	</node>
	<node lat="70.25426667526774" lon="24.59452483809191" id="-103448">
		<tag k="fixme" v="consider natural=peak for the most distinct mountains in the district" />
		<tag k="name" v="Duolbajárčopma" />
		<tag k="name:se" v="Duolbajárčopma" />
		<tag k="natural" v="hill" />
		<tag k="old_name:se" v="Duolbajarčåbma" />
		<tag k="place" v="locality" />
		<tag k="ssr:stedsnr" v="140685" />
	</node>
	<node lat="69.8693055577837" lon="24.56241928619503" id="-103449">
		<tag k="name" v="Oppardasvuopmi" />
		<tag k="name:se" v="Oppardasvuopmi" />
		<tag k="natural" v="valley" />
		<tag k="old_name:se" v="Åbbardasvuobmi" />
		<tag k="place" v="locality" />
		<tag k="ssr:stedsnr" v="140691" />
	</node>
	<node lat="69.78081389377023" lon="25.084133099323104" id="-103451">
		<tag k="fixme" v="consider natural=peak for the most distinct mountains in the district" />
		<tag k="name" v="Oaivvoščohkka" />
		<tag k="name:se" v="Oaivvoščohkka" />
		<tag k="natural" v="hill" />
		<tag k="old_name:se" v="Oaivuščåkka" />
		<tag k="place" v="locality" />
		<tag k="ssr:stedsnr" v="140596" />
	</node>
	<node lat="69.90277223598754" lon="25.640527496137153" id="-103453">
		<tag k="fixme" v="consider natural=peak for the most distinct mountains in the district" />
		<tag k="name" v="Gáranasoaivi" />
		<tag k="name:se" v="Gáranasoaivi" />
		<tag k="natural" v="hill" />
		<tag k="old_name:se" v="Garanasoaivi" />
		<tag k="place" v="locality" />
		<tag k="ssr:stedsnr" v="140933" />
	</node>
	<node lat="70.68714444633737" lon="25.303372020139175" id="-103454">
		<tag k="fixme" v="consider natural=peak for the most distinct mountains in the district" />
		<tag k="name" v="Hálddavárri" />
		<tag k="name:se" v="Hálddavárri" />
		<tag k="natural" v="hill" />
		<tag k="old_name:se" v="Haldavarri" />
		<tag k="place" v="locality" />
		<tag k="ssr:stedsnr" v="140983" />
	</node>
	<node lat="70.52421667501477" lon="25.781199761104407" id="-103489">
		<tag k="name" v="Rásttenjunni" />
		<tag k="name:se" v="Rásttenjunni" />
		<tag k="place" v="locality" />
		<tag k="ssr:stedsnr" v="150354" />
	</node>
	<node lat="70.49796389395543" lon="25.726994198002597" id="-103490">
		<tag k="name" v="Šluppargorsa" />
		<tag k="name:se" v="Šluppargorsa" />
		<tag k="natural" v="valley" />
		<tag k="place" v="locality" />
		<tag k="ssr:stedsnr" v="150365" />
	</node>
	<node lat="70.27331945138448" lon="25.511913657766723" id="-103491">
		<tag k="name" v="Palotieva" />
		<tag k="name:fkv" v="Palotieva" />
		<tag k="natural" v="hill" />
		<tag k="place" v="locality" />
		<tag k="ssr:stedsnr" v="152414" />
	</node>
	<node lat="70.0515083360813" lon="24.932083146970918" id="-103495">
		<tag k="name" v="Gormmanluohkká" />
		<tag k="name:se" v="Gormmanluohkká" />
		<tag k="natural" v="slope" />
		<tag k="place" v="locality" />
		<tag k="ssr:stedsnr" v="152455" />
	</node>
	<node lat="70.32343612099271" lon="25.556955316308464" id="-103499">
		<tag k="name" v="Luhppu" />
		<tag k="name:se" v="Luhppu" />
		<tag k="natural" v="slope" />
		<tag k="place" v="locality" />
		<tag k="ssr:stedsnr" v="152507" />
	</node>
	<node lat="70.39324722532997" lon="25.569060876897687" id="-103500">
		<tag k="name" v="Varistieva" />
		<tag k="name:fkv" v="Varistieva" />
		<tag k="natural" v="hill" />
		<tag k="place" v="locality" />
		<tag k="ssr:stedsnr" v="152604" />
	</node>
	<node lat="70.39704723331249" lon="25.578824761628454" id="-103501">
		<tag k="name" v="Pierasenluokka" />
		<tag k="name:fkv" v="Pierasenluokka" />
		<tag k="natural" v="slope" />
		<tag k="place" v="locality" />
		<tag k="ssr:stedsnr" v="152605" />
	</node>
	<node lat="70.32560834352606" lon="25.415466435905838" id="-103502">
		<tag k="name" v="Putankuru" />
		<tag k="name:fkv" v="Putankuru" />
		<tag k="natural" v="valley" />
		<tag k="place" v="locality" />
		<tag k="ssr:stedsnr" v="152651" />
	</node>
	<node lat="70.27088889917007" lon="24.946835919524684" id="-103504">
		<tag k="name" v="Gierddothárddut" />
		<tag k="name:se" v="Gierddothárddut" />
		<tag k="natural" v="ridge" />
		<tag k="place" v="locality" />
		<tag k="ssr:stedsnr" v="152806" />
	</node>
	<node lat="70.4183777831253" lon="25.579519213593134" id="-103506">
		<tag k="name" v="Čáhcebákti - Vesipahta" />
		<tag k="name:fkv" v="Vesipahta" />
		<tag k="name:se" v="Čáhcebákti" />
		<tag k="natural" v="hill" />
		<tag k="place" v="locality" />
		<tag k="ssr:stedsnr" v="152563" />
	</node>
	<node lat="70.46594445015351" lon="25.65442753639748" id="-103507">
		<tag k="name" v="Biškunbávttit" />
		<tag k="name:se" v="Biškunbávttit" />
		<tag k="natural" v="hill" />
		<tag k="place" v="locality" />
		<tag k="ssr:stedsnr" v="152752" />
	</node>
	<node lat="70.03908889492529" lon="24.99621091725447" id="-103513">
		<tag k="name" v="Givičohkka - Steintopp" />
		<tag k="name:no" v="Steintopp" />
		<tag k="name:se" v="Givičohkka" />
		<tag k="natural" v="hill" />
		<tag k="place" v="locality" />
		<tag k="ssr:stedsnr" v="153419" />
	</node>
	<node lat="70.2850833442459" lon="25.506671974779003" id="-103514">
		<tag k="name" v="Syyrykopanalka" />
		<tag k="name:fkv" v="Syyrykopanalka" />
		<tag k="name:se" v="Álga" />
		<tag k="place" v="locality" />
		<tag k="ssr:stedsnr" v="153756" />
	</node>
	<node lat="69.74613333895002" lon="24.966763691220468" id="-103528">
		<tag k="fixme" v="consider natural=peak for the most distinct mountains in the district" />
		<tag k="name" v="Luovosvárri" />
		<tag k="name:se" v="Luovosvárri" />
		<tag k="natural" v="hill" />
		<tag k="old_name:se" v="Luovusvarri" />
		<tag k="place" v="locality" />
		<tag k="ssr:stedsnr" v="261279" />
	</node>
	<node lat="70.57499444603722" lon="24.83046928804022" id="-103541">
		<tag k="name" v="Russelvdalen - Ruoššavággi" />
		<tag k="name:no" v="Russelvdalen" />
		<tag k="name:se" v="Ruoššavággi" />
		<tag k="natural" v="valley" />
		<tag k="old_name:se" v="Ruoššavaggi" />
		<tag k="place" v="locality" />
		<tag k="ssr:stedsnr" v="263901" />
	</node>
	<node lat="70.4624166712161" lon="25.896371945503184" id="-103560">
		<tag k="fixme" v="consider natural=peak for the most distinct mountains in the district" />
		<tag k="name" v="Davvevieksa" />
		<tag k="name:se" v="Davvevieksa" />
		<tag k="natural" v="hill" />
		<tag k="place" v="locality" />
		<tag k="ssr:stedsnr" v="262283" />
	</node>
	<node lat="69.9074111193771" lon="25.214180342295442" id="-103569">
		<tag k="fixme" v="consider natural=peak for the most distinct mountains in the district" />
		<tag k="name" v="Stuorra Gágga" />
		<tag k="name:se" v="Stuorra Gágga" />
		<tag k="natural" v="hill" />
		<tag k="old_name:se" v="Gagga, stuorra" />
		<tag k="place" v="locality" />
		<tag k="ssr:stedsnr" v="262520" />
	</node>
	<node lat="69.85641945664354" lon="25.05650255934482" id="-103577">
		<tag k="name" v="Storberget" />
		<tag k="natural" v="hill" />
		<tag k="place" v="locality" />
		<tag k="ssr:stedsnr" v="262541" />
	</node>
	<node lat="69.86839445605658" lon="25.09933033452433" id="-103578">
		<tag k="fixme" v="consider natural=peak for the most distinct mountains in the district" />
		<tag k="name" v="Ahkešvárri" />
		<tag k="name:se" v="Ahkešvárri" />
		<tag k="natural" v="hill" />
		<tag k="old_name:se" v="Akkešvarri;Áhkešvárri" />
		<tag k="place" v="locality" />
		<tag k="ssr:stedsnr" v="262542" />
	</node>
	<node lat="70.65630000722842" lon="26.110855259615487" id="-103580">
		<tag k="fixme" v="consider natural=peak for the most distinct mountains in the district" />
		<tag k="name" v="Ruoššačohkka" />
		<tag k="name:se" v="Ruoššačohkka" />
		<tag k="natural" v="hill" />
		<tag k="old_name:se" v="Ruoššačåkka" />
		<tag k="place" v="locality" />
		<tag k="ssr:stedsnr" v="262555" />
	</node>
	<node lat="70.63241111802971" lon="26.052938597086623" id="-103583">
		<tag k="fixme" v="consider natural=peak for the most distinct mountains in the district" />
		<tag k="name" v="Leagivárri" />
		<tag k="name:se" v="Leagivárri" />
		<tag k="natural" v="hill" />
		<tag k="old_name:se" v="Lægivarri" />
		<tag k="place" v="locality" />
		<tag k="ssr:stedsnr" v="262572" />
	</node>
	<node lat="69.91545278754501" lon="24.949424807514223" id="-103584">
		<tag k="fixme" v="consider natural=peak for the most distinct mountains in the district" />
		<tag k="name" v="Čáhppilvárri" />
		<tag k="name:se" v="Čáhppilvárri" />
		<tag k="natural" v="hill" />
		<tag k="old_name:se" v="Čappilvarri" />
		<tag k="place" v="locality" />
		<tag k="ssr:stedsnr" v="262577" />
	</node>
	<node lat="69.91888611507338" lon="24.950474791373612" id="-103585">
		<tag k="name" v="Gáranasčohkka" />
		<tag k="name:se" v="Gáranasčohkka" />
		<tag k="natural" v="hill" />
		<tag k="old_name:se" v="Garanasčåkka" />
		<tag k="place" v="locality" />
		<tag k="ssr:stedsnr" v="262578" />
	</node>
	<node lat="69.97908056016777" lon="25.592469184454295" id="-103586">
		<tag k="name" v="Guovllaláhku" />
		<tag k="name:se" v="Guovllaláhku" />
		<tag k="old_name:se" v="Guovlalakko" />
		<tag k="place" v="locality" />
		<tag k="ssr:stedsnr" v="262587" />
	</node>
	<node lat="69.93841667733459" lon="25.46028307050553" id="-103587">
		<tag k="fixme" v="consider natural=peak for the most distinct mountains in the district" />
		<tag k="name" v="Riđugáisá" />
		<tag k="name:se" v="Riđugáisá" />
		<tag k="natural" v="hill" />
		<tag k="old_name:se" v="Riđogaisa;Riđugáisa" />
		<tag k="place" v="locality" />
		<tag k="ssr:stedsnr" v="262591" />
	</node>
	<node lat="69.96379445256426" lon="25.726408037133478" id="-103588">
		<tag k="name" v="Justinráhppát" />
		<tag k="name:se" v="Justinráhppát" />
		<tag k="old_name:se" v="Justinrappat" />
		<tag k="place" v="locality" />
		<tag k="ssr:stedsnr" v="262592" />
	</node>
	<node lat="69.7981500100781" lon="25.02418867881667" id="-103593">
		<tag k="fixme" v="consider natural=peak for the most distinct mountains in the district" />
		<tag k="name" v="Njuorjjoluovttvárri" />
		<tag k="name:se" v="Njuorjjoluovttvárri" />
		<tag k="natural" v="hill" />
		<tag k="old_name:se" v="Njuorjuluovtvarri" />
		<tag k="place" v="locality" />
		<tag k="ssr:stedsnr" v="262616" />
	</node>
	<node lat="70.25785833787799" lon="24.388047080948613" id="-103601">
		<tag k="fixme" v="consider natural=peak for the most distinct mountains in the district" />
		<tag k="name" v="Goahtemuorgielas" />
		<tag k="name:se" v="Goahtemuorgielas" />
		<tag k="natural" v="hill" />
		<tag k="old_name:se" v="Goattemuorgielas" />
		<tag k="place" v="locality" />
		<tag k="ssr:stedsnr" v="262722" />
	</node>
	<node lat="69.98448334221547" lon="25.10510533572672" id="-103604">
		<tag k="fixme" v="consider natural=peak for the most distinct mountains in the district" />
		<tag k="name" v="Rásseguroaivi" />
		<tag k="name:se" v="Rásseguroaivi" />
		<tag k="natural" v="hill" />
		<tag k="old_name:se" v="Rasseguroaivi" />
		<tag k="place" v="locality" />
		<tag k="ssr:stedsnr" v="262735" />
	</node>
	<node lat="70.27049444866621" lon="24.511558177315553" id="-103605">
		<tag k="fixme" v="consider natural=peak for the most distinct mountains in the district" />
		<tag k="name" v="Muvragielas" />
		<tag k="name:se" v="Muvragielas" />
		<tag k="natural" v="hill" />
		<tag k="place" v="locality" />
		<tag k="ssr:stedsnr" v="262738" />
	</node>
	<node lat="70.6784361207688" lon="25.26154146532991" id="-103609">
		<tag k="fixme" v="consider natural=peak for the most distinct mountains in the district" />
		<tag k="name" v="Virošgielas" />
		<tag k="name:se" v="Virošgielas" />
		<tag k="natural" v="hill" />
		<tag k="old_name:se" v="Virušgielas" />
		<tag k="place" v="locality" />
		<tag k="ssr:stedsnr" v="262962" />
	</node>
	<node lat="70.54166944991032" lon="24.94944427580591" id="-103633">
		<tag k="fixme" v="consider natural=peak for the most distinct mountains in the district" />
		<tag k="name" v="Stuorra Gárjiloaivi - Store Karelhaugen" />
		<tag k="name:no" v="Store Karelhaugen" />
		<tag k="name:se" v="Stuorra Gárjiloaivi" />
		<tag k="natural" v="hill" />
		<tag k="old_name:se" v="Garjiloaivi, stuorra" />
		<tag k="place" v="locality" />
		<tag k="ssr:stedsnr" v="263939" />
	</node>
	<node lat="70.63536944798192" lon="25.293244235461582" id="-103667">
		<tag k="fixme" v="consider natural=peak for the most distinct mountains in the district" />
		<tag k="name" v="Sturenanjunni" />
		<tag k="name:se" v="Sturenanjunni" />
		<tag k="natural" v="hill" />
		<tag k="place" v="locality" />
		<tag k="ssr:stedsnr" v="202979" />
	</node>
	<node lat="70.4885194497149" lon="25.732146972046735" id="-103680">
		<tag k="name" v="Ávžedukta" />
		<tag k="name:se" v="Ávžedukta" />
		<tag k="natural" v="slope" />
		<tag k="place" v="locality" />
		<tag k="ssr:stedsnr" v="212324" />
	</node>
	<node lat="70.40981945193774" lon="25.207344252558475" id="-103683">
		<tag k="name" v="Storhaugen" />
		<tag k="name:no" v="Storhaugen" />
		<tag k="name:se" v="Guoskatčohkka" />
		<tag k="natural" v="hill" />
		<tag k="place" v="locality" />
		<tag k="ssr:stedsnr" v="213404" />
	</node>
	<node lat="70.52420556480448" lon="25.816088640020343" id="-103705">
		<tag k="name" v="Gáhkkorleakšá" />
		<tag k="name:se" v="Gáhkkorleakšá" />
		<tag k="natural" v="valley" />
		<tag k="place" v="locality" />
		<tag k="ssr:stedsnr" v="454337" />
	</node>
	<node lat="70.48999167248444" lon="25.723171970938036" id="-103706">
		<tag k="name" v="Doaresmielli" />
		<tag k="name:se" v="Doaresmielli" />
		<tag k="natural" v="slope" />
		<tag k="place" v="locality" />
		<tag k="ssr:stedsnr" v="454343" />
	</node>
	<node lat="70.0804555619856" lon="25.052183127797143" id="-103710">
		<tag k="name" v="Storberget" />
		<tag k="natural" v="hill" />
		<tag k="place" v="locality" />
		<tag k="ssr:stedsnr" v="455054" />
	</node>
	<node lat="70.49475556221807" lon="25.039308157555265" id="-103713">
		<tag k="name" v="Storskjæringen" />
		<tag k="natural" v="slope" />
		<tag k="place" v="locality" />
		<tag k="ssr:stedsnr" v="456300" />
	</node>
	<node lat="70.29120556284754" lon="25.510941427474314" id="-103714">
		<tag k="loc_name:se" v="Jávrričohkka" />
		<tag k="name" v="Järvikkäisensokka" />
		<tag k="name:fkv" v="Järvikkäisensokka" />
		<tag k="natural" v="hill" />
		<tag k="place" v="locality" />
		<tag k="ssr:stedsnr" v="456382" />
	</node>
	<node lat="70.44085000897469" lon="25.180544251884793" id="-103718">
		<tag k="fixme" v="consider natural=peak for the most distinct mountains in the district" />
		<tag k="name" v="Kappa" />
		<tag k="natural" v="hill" />
		<tag k="place" v="locality" />
		<tag k="ssr:stedsnr" v="456397" />
	</node>
	<node lat="70.31373889426428" lon="25.4517469916378" id="-103719">
		<tag k="name" v="Kajalaatas" />
		<tag k="name:fkv" v="Kajalaatas" />
		<tag k="place" v="locality" />
		<tag k="ssr:stedsnr" v="456400" />
	</node>
	<node lat="70.33480661428827" lon="25.57094709339712" id="-103722">
		<tag k="name" v="Perjakuru" />
		<tag k="name:fkv" v="Perjakuru" />
		<tag k="natural" v="valley" />
		<tag k="place" v="locality" />
		<tag k="ssr:stedsnr" v="456443" />
	</node>
	<node lat="70.3408166761584" lon="25.61961085811211" id="-103723">
		<tag k="name" v="Reksunvaaranrinnet" />
		<tag k="name:fkv" v="Reksunvaaranrinnet" />
		<tag k="natural" v="slope" />
		<tag k="place" v="locality" />
		<tag k="ssr:stedsnr" v="456451" />
	</node>
	<node lat="69.99746112070787" lon="24.944988702341536" id="-103724">
		<tag k="name" v="Slåttenesberget" />
		<tag k="natural" v="hill" />
		<tag k="place" v="locality" />
		<tag k="ssr:stedsnr" v="456455" />
	</node>
	<node lat="70.38974166883277" lon="25.21415534843985" id="-103727">
		<tag k="name" v="Seiberget" />
		<tag k="name:no" v="Seiberget" />
		<tag k="name:se" v="Borjjasbákti" />
		<tag k="natural" v="hill" />
		<tag k="place" v="locality" />
		<tag k="ssr:stedsnr" v="456495" />
	</node>
	<node lat="70.25273611575297" lon="24.973508144154565" id="-103732">
		<tag k="name" v="Bierávži" />
		<tag k="name:se" v="Bierávži" />
		<tag k="natural" v="valley" />
		<tag k="place" v="locality" />
		<tag k="ssr:stedsnr" v="456825" />
	</node>
	<node lat="70.35084444713146" lon="25.04246368715138" id="-103733">
		<tag k="name" v="Melen" />
		<tag k="place" v="locality" />
		<tag k="ssr:stedsnr" v="456945" />
	</node>
	<node lat="70.47479722724675" lon="25.04270815481094" id="-103734">
		<tag k="name" v="Postdalsgrøfta" />
		<tag k="natural" v="valley" />
		<tag k="place" v="locality" />
		<tag k="ssr:stedsnr" v="457215" />
	</node>
	<node lat="70.26276667604141" lon="25.502319199617247" id="-103735">
		<tag k="name" v="Liikajoenrinnet" />
		<tag k="name:fkv" v="Liikajoenrinnet" />
		<tag k="natural" v="slope" />
		<tag k="place" v="locality" />
		<tag k="ssr:stedsnr" v="457248" />
	</node>
	<node lat="70.25546111648862" lon="25.48131085955435" id="-103736">
		<tag k="name" v="Haapasokka" />
		<tag k="name:fkv" v="Haapasokka" />
		<tag k="natural" v="hill" />
		<tag k="place" v="locality" />
		<tag k="ssr:stedsnr" v="457249" />
	</node>
	<node lat="70.09375278102671" lon="24.127560984078734" id="-103742">
		<tag k="fixme" v="consider natural=peak for the most distinct mountains in the district" />
		<tag k="name" v="Ribatoaivi" />
		<tag k="name:se" v="Ribatoaivi" />
		<tag k="natural" v="hill" />
		<tag k="place" v="locality" />
		<tag k="ssr:stedsnr" v="262017" />
	</node>
	<node lat="69.83224444705097" lon="24.827349806877574" id="-103758">
		<tag k="fixme" v="consider natural=peak for the most distinct mountains in the district" />
		<tag k="name" v="Vuolanjunnásgáisá" />
		<tag k="name:se" v="Vuolanjunnásgáisá" />
		<tag k="natural" v="hill" />
		<tag k="old_name:se" v="Vuolanjunnasgaisa" />
		<tag k="place" v="locality" />
		<tag k="ssr:stedsnr" v="262549" />
	</node>
	<node lat="69.92610278167245" lon="25.308902544269607" id="-103762">
		<tag k="name" v="Gákkasieđga" />
		<tag k="name:se" v="Gákkasieđga" />
		<tag k="natural" v="valley" />
		<tag k="old_name:se" v="Gaggasieđga" />
		<tag k="place" v="locality" />
		<tag k="ssr:stedsnr" v="262602" />
	</node>
	<node lat="69.79020278529993" lon="25.37267196728381" id="-103765">
		<tag k="name" v="Guovžavárri" />
		<tag k="name:se" v="Guovžavárri" />
		<tag k="natural" v="hill" />
		<tag k="old_name:se" v="Guovžavarri" />
		<tag k="place" v="locality" />
		<tag k="ssr:stedsnr" v="262904" />
	</node>
	<node lat="70.515452786092" lon="25.9222913946874" id="-103783">
		<tag k="fixme" v="consider natural=peak for the most distinct mountains in the district" />
		<tag k="name" v="Goddoaivi" />
		<tag k="name:se" v="Goddoaivi" />
		<tag k="natural" v="hill" />
		<tag k="old_name:se" v="Gåddoaivi" />
		<tag k="place" v="locality" />
		<tag k="ssr:stedsnr" v="263592" />
	</node>
	<node lat="70.51562778149106" lon="25.87293862945117" id="-103784">
		<tag k="fixme" v="consider natural=peak for the most distinct mountains in the district" />
		<tag k="name" v="Klávosoaivi" />
		<tag k="name:se" v="Klávosoaivi" />
		<tag k="natural" v="hill" />
		<tag k="old_name:se" v="Klavusoaivi" />
		<tag k="place" v="locality" />
		<tag k="ssr:stedsnr" v="263593" />
	</node>
	<node lat="70.2370833398533" lon="24.941110936426632" id="-103791">
		<tag k="name" v="Jorbačohkka" />
		<tag k="name:se" v="Jorbačohkka" />
		<tag k="natural" v="hill" />
		<tag k="place" v="locality" />
		<tag k="ssr:stedsnr" v="457850" />
	</node>
	<node lat="70.53451112244827" lon="25.81621085271493" id="-103798">
		<tag k="fixme" v="consider natural=peak for the most distinct mountains in the district" />
		<tag k="name" v="Gáhkkorbuolžžat" />
		<tag k="name:se" v="Gáhkkorbuolžžat" />
		<tag k="natural" v="hill" />
		<tag k="place" v="locality" />
		<tag k="ssr:stedsnr" v="272133" />
	</node>
	<node lat="70.45815278065177" lon="25.204641466180863" id="-103803">
		<tag k="fixme" v="consider natural=peak for the most distinct mountains in the district" />
		<tag k="name" v="Gritelvuohpevárri" />
		<tag k="name:se" v="Gritelvuohpevárri" />
		<tag k="natural" v="hill" />
		<tag k="place" v="locality" />
		<tag k="ssr:stedsnr" v="274307" />
	</node>
	<node lat="70.45490000782979" lon="25.66911364621895" id="-103805">
		<tag k="fixme" v="consider natural=peak for the most distinct mountains in the district" />
		<tag k="name" v="Gielas" />
		<tag k="name:se" v="Gielas" />
		<tag k="natural" v="hill" />
		<tag k="place" v="locality" />
		<tag k="ssr:stedsnr" v="274478" />
	</node>
	<node lat="70.33118334295592" lon="25.4392664462057" id="-103809">
		<tag k="name" v="Kultarunka" />
		<tag k="name:fkv" v="Kultarunka" />
		<tag k="natural" v="valley" />
		<tag k="place" v="locality" />
		<tag k="ssr:stedsnr" v="274583" />
	</node>
	<node lat="70.44578334037469" lon="25.615452533950535" id="-103811">
		<tag k="name" v="Činamielli" />
		<tag k="name:se" v="Činamielli" />
		<tag k="natural" v="slope" />
		<tag k="place" v="locality" />
		<tag k="ssr:stedsnr" v="274710" />
	</node>
	<node lat="70.25775000498325" lon="24.9082859221352" id="-103813">
		<tag k="fixme" v="consider natural=peak for the most distinct mountains in the district" />
		<tag k="name" v="Stuorra Giergivárri" />
		<tag k="name:se" v="Stuorra Giergivárri" />
		<tag k="natural" v="hill" />
		<tag k="place" v="locality" />
		<tag k="ssr:stedsnr" v="274803" />
	</node>
	<node lat="70.47782778665002" lon="25.009502597368623" id="-103817">
		<tag k="fixme" v="consider natural=peak for the most distinct mountains in the district" />
		<tag k="name" v="Niibečohkka" />
		<tag k="name:se" v="Niibečohkka" />
		<tag k="natural" v="hill" />
		<tag k="place" v="locality" />
		<tag k="ssr:stedsnr" v="275219" />
	</node>
	<node lat="70.69808333967102" lon="25.806980305711406" id="-103827">
		<tag k="name" v="Hellemolabakken" />
		<tag k="natural" v="slope" />
		<tag k="place" v="locality" />
		<tag k="ssr:stedsnr" v="291506" />
	</node>
	<node lat="69.8603361210785" lon="24.623330378783326" id="-103839">
		<tag k="name" v="Stállovággi" />
		<tag k="name:se" v="Stállovággi" />
		<tag k="natural" v="valley" />
		<tag k="old_name:se" v="Stalluvaggi" />
		<tag k="place" v="locality" />
		<tag k="ssr:stedsnr" v="322510" />
	</node>
	<node lat="69.97563333657743" lon="25.149141451781563" id="-103843">
		<tag k="fixme" v="consider natural=peak for the most distinct mountains in the district" />
		<tag k="name" v="Stelletoaivi" />
		<tag k="name:se" v="Stelletoaivi" />
		<tag k="natural" v="hill" />
		<tag k="place" v="locality" />
		<tag k="ssr:stedsnr" v="322533" />
	</node>
	<node lat="69.94266667162063" lon="25.2586858752986" id="-103845">
		<tag k="name" v="Gákkagorsa" />
		<tag k="name:se" v="Gákkagorsa" />
		<tag k="natural" v="valley" />
		<tag k="old_name:se" v="Gaggagårza" />
		<tag k="place" v="locality" />
		<tag k="ssr:stedsnr" v="322584" />
	</node>
	<node lat="69.87866111945935" lon="24.495974833857733" id="-103846">
		<tag k="fixme" v="consider natural=peak for the most distinct mountains in the district" />
		<tag k="name" v="Boldnerášša" />
		<tag k="name:se" v="Boldnerášša" />
		<tag k="natural" v="hill" />
		<tag k="old_name:se" v="Båldnerašša" />
		<tag k="place" v="locality" />
		<tag k="ssr:stedsnr" v="322687" />
	</node>
	<node lat="70.6376000053171" lon="25.358963674542053" id="-103869">
		<tag k="fixme" v="consider natural=peak for the most distinct mountains in the district" />
		<tag k="name" v="Riŋggoalgi" />
		<tag k="name:se" v="Riŋggoalgi" />
		<tag k="natural" v="hill" />
		<tag k="old_name:se" v="Riŋgoalgi" />
		<tag k="place" v="locality" />
		<tag k="ssr:stedsnr" v="323974" />
	</node>
	<node lat="70.60560833751047" lon="26.01055251157311" id="-103877">
		<tag k="name" v="Gáhkkorčorru" />
		<tag k="name:se" v="Gáhkkorčorru" />
		<tag k="natural" v="hill" />
		<tag k="place" v="locality" />
		<tag k="ssr:stedsnr" v="470072" />
	</node>
	<node lat="70.50130278246456" lon="25.719883086069572" id="-103884">
		<tag k="name" v="Láiránjunni" />
		<tag k="name:se" v="Láiránjunni" />
		<tag k="place" v="locality" />
		<tag k="ssr:stedsnr" v="333405" />
	</node>
	<node lat="70.2950027863383" lon="25.50709697302381" id="-103887">
		<tag k="loc_name:se" v="Goahtegieddečohkka" />
		<tag k="name" v="Kotakentänsokka" />
		<tag k="name:fkv" v="Kotakentänsokka" />
		<tag k="natural" v="hill" />
		<tag k="place" v="locality" />
		<tag k="ssr:stedsnr" v="335408" />
	</node>
	<node lat="70.40702500331021" lon="25.15126923795376" id="-103890">
		<tag k="name" v="Storskjæringa" />
		<tag k="natural" v="valley" />
		<tag k="place" v="locality" />
		<tag k="ssr:stedsnr" v="335364" />
	</node>
	<node lat="70.02417500938735" lon="25.036269239163573" id="-103891">
		<tag k="fixme" v="consider natural=peak for the most distinct mountains in the district" />
		<tag k="name" v="Isomukan sälkä" />
		<tag k="name:fkv" v="Isomukan sälkä" />
		<tag k="natural" v="hill" />
		<tag k="place" v="locality" />
		<tag k="ssr:stedsnr" v="335369" />
	</node>
	<node lat="70.355661117083" lon="25.094477579581365" id="-103894">
		<tag k="name" v="Klubben" />
		<tag k="natural" v="hill" />
		<tag k="place" v="locality" />
		<tag k="ssr:stedsnr" v="335965" />
	</node>
	<node lat="70.055363894363" lon="24.535713729210084" id="-103900">
		<tag k="name" v="Vuoivvasgorsa" />
		<tag k="name:se" v="Vuoivvasgorsa" />
		<tag k="natural" v="valley" />
		<tag k="old_name:se" v="Vuoivasgårsa" />
		<tag k="place" v="locality" />
		<tag k="ssr:stedsnr" v="383010" />
	</node>
	<node lat="69.94868334357392" lon="24.460372057581896" id="-103911">
		<tag k="fixme" v="consider natural=peak for the most distinct mountains in the district" />
		<tag k="name" v="Skuovgilrášša" />
		<tag k="name:se" v="Skuovgilrášša" />
		<tag k="natural" v="hill" />
		<tag k="old_name:se" v="Skuovgilrašša" />
		<tag k="place" v="locality" />
		<tag k="ssr:stedsnr" v="383504" />
	</node>
	<node lat="69.81311667728099" lon="25.09369978008054" id="-103916">
		<tag k="fixme" v="consider natural=peak for the most distinct mountains in the district" />
		<tag k="loc_name:fkv" v="Skuukanvaara" />
		<tag k="name" v="Skuvvanvárri" />
		<tag k="name:se" v="Skuvvanvárri" />
		<tag k="natural" v="hill" />
		<tag k="old_name:se" v="Skuvvanvarri" />
		<tag k="place" v="locality" />
		<tag k="ssr:stedsnr" v="383612" />
	</node>
	<node lat="70.49020001111603" lon="25.748249757403457" id="-103935">
		<tag k="name" v="Máđuroggi" />
		<tag k="name:se" v="Máđuroggi" />
		<tag k="natural" v="valley" />
		<tag k="place" v="locality" />
		<tag k="ssr:stedsnr" v="393395" />
	</node>
	<node lat="70.06727222711974" lon="24.949158140002996" id="-103938">
		<tag k="name" v="Alkaivosluokka" />
		<tag k="name:fkv" v="Alkaivosluokka" />
		<tag k="natural" v="slope" />
		<tag k="place" v="locality" />
		<tag k="ssr:stedsnr" v="395011" />
	</node>
	<node lat="70.2959277845823" lon="25.501494207556583" id="-103939">
		<tag k="loc_name:se" v="Ádjáčohkka" />
		<tag k="name" v="Äijänsokka" />
		<tag k="name:fkv" v="Äijänsokka" />
		<tag k="natural" v="hill" />
		<tag k="place" v="locality" />
		<tag k="ssr:stedsnr" v="395408" />
	</node>
	<node lat="70.3024416743826" lon="25.530069192873732" id="-103940">
		<tag k="loc_name:se" v="Gávrejárluohkká" />
		<tag k="name" v="Käyräjärvenluokka" />
		<tag k="name:fkv" v="Käyräjärvenluokka" />
		<tag k="natural" v="slope" />
		<tag k="place" v="locality" />
		<tag k="ssr:stedsnr" v="395411" />
	</node>
	<node lat="70.04806667122567" lon="25.1282164439451" id="-103941">
		<tag k="name" v="Kreta luova" />
		<tag k="name:fkv" v="Kreta luova" />
		<tag k="natural" v="slope" />
		<tag k="place" v="locality" />
		<tag k="ssr:stedsnr" v="395505" />
	</node>
	<node lat="70.39711944822014" lon="25.589933087411307" id="-103943">
		<tag k="name" v="Kuoskinluppo" />
		<tag k="name:fkv" v="Kuoskinluppo" />
		<tag k="natural" v="valley" />
		<tag k="place" v="locality" />
		<tag k="ssr:stedsnr" v="395595" />
	</node>
	<node lat="70.24153333785438" lon="24.959308143808382" id="-103953">
		<tag k="name" v="Máđevárrebákti" />
		<tag k="name:se" v="Máđevárrebákti" />
		<tag k="natural" v="hill" />
		<tag k="place" v="locality" />
		<tag k="ssr:stedsnr" v="396840" />
	</node>
	<node lat="70.61677500696722" lon="25.98157195760836" id="-103958">
		<tag k="name" v="Luoktageahči" />
		<tag k="name:se" v="Luoktageahči" />
		<tag k="natural" v="valley" />
		<tag k="place" v="locality" />
		<tag k="ssr:stedsnr" v="409789" />
	</node>
	<node lat="70.08055000150424" lon="24.306055411364078" id="-103960">
		<tag k="name" v="Suolovárávži" />
		<tag k="name:se" v="Suolovárávži" />
		<tag k="natural" v="valley" />
		<tag k="old_name:se" v="Suoluvaravži" />
		<tag k="place" v="locality" />
		<tag k="ssr:stedsnr" v="444007" />
	</node>
	<node lat="70.31973889714544" lon="25.998477475867677" id="-103968">
		<tag k="name" v="Ullávži" />
		<tag k="name:se" v="Ullávži" />
		<tag k="natural" v="valley" />
		<tag k="old_name:se" v="Ullavži" />
		<tag k="place" v="locality" />
		<tag k="ssr:stedsnr" v="444312" />
	</node>
	<node lat="70.21116111672117" lon="26.044388578631175" id="-103969">
		<tag k="name" v="Čudeávži" />
		<tag k="name:se" v="Čudeávži" />
		<tag k="natural" v="valley" />
		<tag k="old_name:se" v="Čudeavži" />
		<tag k="place" v="locality" />
		<tag k="ssr:stedsnr" v="444316" />
	</node>
	<node lat="70.24741667451056" lon="25.981663594562093" id="-103970">
		<tag k="name" v="Čuđeskoahppa" />
		<tag k="name:se" v="Čuđeskoahppa" />
		<tag k="old_name:se" v="Čuđeskoappa" />
		<tag k="place" v="locality" />
		<tag k="ssr:stedsnr" v="444319" />
	</node>
	<node lat="70.40121667753617" lon="25.857688617890197" id="-103972">
		<tag k="fixme" v="consider natural=peak for the most distinct mountains in the district" />
		<tag k="name" v="Alloaivi" />
		<tag k="name:se" v="Alloaivi" />
		<tag k="natural" v="hill" />
		<tag k="place" v="locality" />
		<tag k="ssr:stedsnr" v="444232" />
	</node>
	<node lat="69.8785111241165" lon="25.70871081494101" id="-103985">
		<tag k="fixme" v="consider natural=peak for the most distinct mountains in the district" />
		<tag k="name" v="Divroaivi" />
		<tag k="name:se" v="Divroaivi" />
		<tag k="natural" v="hill" />
		<tag k="place" v="locality" />
		<tag k="ssr:stedsnr" v="444927" />
	</node>
	<node lat="70.30955000918432" lon="25.574288657099192" id="-103999">
		<tag k="name" v="Skierrisokka" />
		<tag k="name:fkv" v="Skierrisokka" />
		<tag k="name:se" v="Skierrečohkka" />
		<tag k="natural" v="hill" />
		<tag k="place" v="locality" />
		<tag k="ssr:stedsnr" v="448918" />
	</node>
	<node lat="70.36632500727019" lon="25.080760924582055" id="-104002">
		<tag k="name" v="Iverberget" />
		<tag k="natural" v="hill" />
		<tag k="place" v="locality" />
		<tag k="ssr:stedsnr" v="450231" />
	</node>
	<node lat="70.4251500068148" lon="25.58560530518793" id="-104007">
		<tag k="name" v="Veaikebávttit" />
		<tag k="name:se" v="Veaikebávttit" />
		<tag k="natural" v="hill" />
		<tag k="place" v="locality" />
		<tag k="ssr:stedsnr" v="456503" />
	</node>
	<node lat="70.0301805653768" lon="25.118091450487817" id="-104014">
		<tag k="name" v="Mikon kurkkionväli" />
		<tag k="name:fkv" v="Mikon kurkkionväli" />
		<tag k="place" v="locality" />
		<tag k="ssr:stedsnr" v="457469" />
	</node>
	<node lat="70.02973334052905" lon="24.955244248858275" id="-104015">
		<tag k="name" v="Häkkikuru" />
		<tag k="name:fkv" v="Häkkikuru" />
		<tag k="natural" v="valley" />
		<tag k="place" v="locality" />
		<tag k="ssr:stedsnr" v="457368" />
	</node>
	<node lat="70.22958889270413" lon="24.887477603842022" id="-104016">
		<tag k="fixme" v="consider natural=peak for the most distinct mountains in the district" />
		<tag k="name" v="Sire-Ristinbávttit" />
		<tag k="name:se" v="Sire-Ristinbávttit" />
		<tag k="natural" v="hill" />
		<tag k="place" v="locality" />
		<tag k="ssr:stedsnr" v="457830" />
	</node>
	<node lat="69.83906112172099" lon="25.024033130388517" id="-104019">
		<tag k="fixme" v="consider natural=peak for the most distinct mountains in the district" />
		<tag k="name" v="Dimbbarčohkka" />
		<tag k="name:se" v="Dimbbarčohkka" />
		<tag k="natural" v="hill" />
		<tag k="place" v="locality" />
		<tag k="ssr:stedsnr" v="469184" />
	</node>
	<node lat="69.98858889057122" lon="24.9219720302935" id="-104023">
		<tag k="name" v="Stuenesmoen" />
		<tag k="place" v="locality" />
		<tag k="ssr:stedsnr" v="470217" />
	</node>
	<node lat="69.87753334218223" lon="24.941694257326912" id="-104034">
		<tag k="name" v="Hurdnaguolbba" />
		<tag k="name:se" v="Hurdnaguolbba" />
		<tag k="old_name:se" v="Hurdnaguolba" />
		<tag k="place" v="locality" />
		<tag k="ssr:stedsnr" v="504519" />
	</node>
	<node lat="70.33683611309485" lon="24.493552617450977" id="-104036">
		<tag k="fixme" v="consider natural=peak for the most distinct mountains in the district" />
		<tag k="name" v="Muvravárri" />
		<tag k="name:se" v="Muvravárri" />
		<tag k="natural" v="hill" />
		<tag k="old_name:se" v="Muvravarri" />
		<tag k="place" v="locality" />
		<tag k="ssr:stedsnr" v="504668" />
	</node>
	<node lat="70.48358056646317" lon="26.05751916424559" id="-104041">
		<tag k="fixme" v="consider natural=peak for the most distinct mountains in the district" />
		<tag k="name" v="Uhca Stáloaivi" />
		<tag k="name:se" v="Uhca Stáloaivi" />
		<tag k="natural" v="hill" />
		<tag k="old_name:se" v="Staloaivi, ucca" />
		<tag k="place" v="locality" />
		<tag k="ssr:stedsnr" v="505303" />
	</node>
	<node lat="70.47012500359799" lon="26.036005272614222" id="-104042">
		<tag k="fixme" v="consider natural=peak for the most distinct mountains in the district" />
		<tag k="name" v="Skadjanjoasoaivi" />
		<tag k="name:se" v="Skadjanjoasoaivi" />
		<tag k="natural" v="hill" />
		<tag k="old_name:se" v="Skaddjanjoasoaivi" />
		<tag k="place" v="locality" />
		<tag k="ssr:stedsnr" v="505305" />
	</node>
	<node lat="70.58411944526594" lon="25.120188705896606" id="-104059">
		<tag k="fixme" v="consider natural=peak for the most distinct mountains in the district" />
		<tag k="name" v="Sieđgoaivvit" />
		<tag k="name:se" v="Sieđgoaivvit" />
		<tag k="natural" v="hill" />
		<tag k="old_name:se" v="Sieđgoaivit" />
		<tag k="place" v="locality" />
		<tag k="ssr:stedsnr" v="505874" />
	</node>
	<node lat="70.56428055641337" lon="25.011516488900362" id="-104061">
		<tag k="fixme" v="consider natural=peak for the most distinct mountains in the district" />
		<tag k="name" v="Loddoaivi" />
		<tag k="name:se" v="Loddoaivi" />
		<tag k="natural" v="hill" />
		<tag k="old_name:se" v="Låddoaivi" />
		<tag k="place" v="locality" />
		<tag k="ssr:stedsnr" v="505912" />
	</node>
	<node lat="70.49696667566133" lon="25.69393030403435" id="-104074">
		<tag k="name" v="Čielgesbákti" />
		<tag k="name:se" v="Čielgesbákti" />
		<tag k="natural" v="hill" />
		<tag k="place" v="locality" />
		<tag k="ssr:stedsnr" v="515369" />
	</node>
	<node lat="70.0648250041085" lon="25.17239977108017" id="-104076">
		<tag k="name" v="Haukeberget - Halkopahta" />
		<tag k="name:fkv" v="Halkopahta" />
		<tag k="name:no" v="Haukeberget" />
		<tag k="natural" v="hill" />
		<tag k="place" v="locality" />
		<tag k="ssr:stedsnr" v="517062" />
	</node>
	<node lat="70.23756945302422" lon="25.460549755229966" id="-104079">
		<tag k="name" v="Sappirjoenmellat" />
		<tag k="name:fkv" v="Sappirjoenmellat" />
		<tag k="natural" v="slope" />
		<tag k="place" v="locality" />
		<tag k="ssr:stedsnr" v="517281" />
	</node>
	<node lat="70.42384445484842" lon="25.586869211567482" id="-104082">
		<tag k="name" v="Hirttaoalgi" />
		<tag k="name:se" v="Hirttaoalgi" />
		<tag k="place" v="locality" />
		<tag k="ssr:stedsnr" v="517502" />
	</node>
	<node lat="70.38889445104667" lon="25.56592754535995" id="-104084">
		<tag k="name" v="Staurunmella" />
		<tag k="name:fkv" v="Staurunmella" />
		<tag k="natural" v="slope" />
		<tag k="place" v="locality" />
		<tag k="ssr:stedsnr" v="517565" />
	</node>
	<node lat="70.01061111857129" lon="24.48025541119111" id="-104096">
		<tag k="fixme" v="consider natural=peak for the most distinct mountains in the district" />
		<tag k="name" v="Láhtengáisá" />
		<tag k="name:se" v="Láhtengáisá" />
		<tag k="natural" v="hill" />
		<tag k="old_name:se" v="Lattengaisa" />
		<tag k="place" v="locality" />
		<tag k="ssr:stedsnr" v="686059" />
	</node>
	<node lat="70.55594167413068" lon="25.840802509739873" id="-104100">
		<tag k="name" v="Guhkesluohkká" />
		<tag k="name:se" v="Guhkesluohkká" />
		<tag k="natural" v="slope" />
		<tag k="place" v="locality" />
		<tag k="ssr:stedsnr" v="531025" />
	</node>
	<node lat="70.23487222954142" lon="26.045802478151654" id="-104104">
		<tag k="fixme" v="consider natural=peak for the most distinct mountains in the district" />
		<tag k="name" v="Čuđerášša" />
		<tag k="name:se" v="Čuđerášša" />
		<tag k="natural" v="hill" />
		<tag k="old_name:se" v="Čuđerašša" />
		<tag k="place" v="locality" />
		<tag k="ssr:stedsnr" v="686337" />
	</node>
	<node lat="70.17810279158833" lon="25.970302471652175" id="-104107">
		<tag k="name" v="Sáttoaláš" />
		<tag k="name:se" v="Sáttoaláš" />
		<tag k="natural" v="hill" />
		<tag k="old_name:se" v="Saddualaš" />
		<tag k="place" v="locality" />
		<tag k="ssr:stedsnr" v="686372" />
	</node>
	<node lat="69.8744277830233" lon="24.734866494839164" id="-104112">
		<tag k="fixme" v="consider natural=peak for the most distinct mountains in the district" />
		<tag k="name" v="Bieggavákgáisá" />
		<tag k="name:se" v="Bieggavákgáisá" />
		<tag k="natural" v="hill" />
		<tag k="old_name:se" v="Bieggavaggaisa;Bieggavákkegáisá" />
		<tag k="place" v="locality" />
		<tag k="ssr:stedsnr" v="686522" />
	</node>
	<node lat="69.87336389832001" lon="24.619938727533054" id="-104113">
		<tag k="fixme" v="consider natural=peak for the most distinct mountains in the district" />
		<tag k="name" v="Stállorášša" />
		<tag k="name:se" v="Stállorášša" />
		<tag k="natural" v="hill" />
		<tag k="old_name:se" v="Stallurašša" />
		<tag k="place" v="locality" />
		<tag k="ssr:stedsnr" v="686525" />
	</node>
	<node lat="69.96553889865294" lon="25.005591466911806" id="-104115">
		<tag k="alt_name:se" v="Lávvooaivi" />
		<tag k="fixme" v="consider natural=peak for the most distinct mountains in the district" />
		<tag k="name" v="Lávvoaivi" />
		<tag k="name:se" v="Lávvoaivi" />
		<tag k="natural" v="hill" />
		<tag k="old_name:se" v="Lavvoaivi" />
		<tag k="place" v="locality" />
		<tag k="ssr:stedsnr" v="686556" />
	</node>
	<node lat="69.94820834039271" lon="25.114460894485212" id="-104117">
		<tag k="fixme" v="consider natural=peak for the most distinct mountains in the district" />
		<tag k="name" v="Šearfačopma" />
		<tag k="name:se" v="Šearfačopma" />
		<tag k="natural" v="hill" />
		<tag k="old_name:se" v="Šærfačåbma" />
		<tag k="place" v="locality" />
		<tag k="ssr:stedsnr" v="686562" />
	</node>
	<node lat="69.75371945571005" lon="25.136899775595285" id="-104118">
		<tag k="fixme" v="consider natural=peak for the most distinct mountains in the district" />
		<tag k="name" v="Gottetvárri" />
		<tag k="name:se" v="Gottetvárri" />
		<tag k="natural" v="hill" />
		<tag k="old_name:se" v="Gåddetvarri;Gåddevarri" />
		<tag k="place" v="locality" />
		<tag k="ssr:stedsnr" v="686575" />
	</node>
	<node lat="69.78568611497874" lon="24.935433119696985" id="-104121">
		<tag k="fixme" v="consider natural=peak for the most distinct mountains in the district" />
		<tag k="name" v="Darvvavárri" />
		<tag k="name:se" v="Darvvavárri" />
		<tag k="natural" v="hill" />
		<tag k="old_name:se" v="Darvavarri" />
		<tag k="place" v="locality" />
		<tag k="ssr:stedsnr" v="686611" />
	</node>
	<node lat="69.78138612004733" lon="25.182124776423766" id="-104122">
		<tag k="fixme" v="consider natural=peak for the most distinct mountains in the district" />
		<tag k="name" v="Luovosvárri" />
		<tag k="name:se" v="Luovosvárri" />
		<tag k="natural" v="hill" />
		<tag k="old_name:se" v="Luovusvarri" />
		<tag k="place" v="locality" />
		<tag k="ssr:stedsnr" v="686621" />
	</node>
	<node lat="70.34386112350455" lon="25.819488613879514" id="-104139">
		<tag k="fixme" v="consider natural=peak for the most distinct mountains in the district" />
		<tag k="name" v="Rávdoaivvit" />
		<tag k="name:se" v="Rávdoaivvit" />
		<tag k="natural" v="hill" />
		<tag k="old_name:se" v="Ravdoaivit" />
		<tag k="place" v="locality" />
		<tag k="ssr:stedsnr" v="687276" />
	</node>
	<node lat="70.61300000855842" lon="26.075824719395627" id="-104166">
		<tag k="name" v="Gunnarbakken" />
		<tag k="natural" v="slope" />
		<tag k="place" v="locality" />
		<tag k="ssr:stedsnr" v="687569" />
	</node>
	<node lat="69.8733611176332" lon="25.30670808954907" id="-104175">
		<tag k="fixme" v="consider natural=peak for the most distinct mountains in the district" />
		<tag k="name" v="Geresoaivi" />
		<tag k="name:se" v="Geresoaivi" />
		<tag k="natural" v="hill" />
		<tag k="place" v="locality" />
		<tag k="ssr:stedsnr" v="687913" />
	</node>
	<node lat="69.88888334220411" lon="25.33419697858602" id="-104176">
		<tag k="name" v="Čuolbma" />
		<tag k="name:se" v="Čuolbma" />
		<tag k="natural" v="valley" />
		<tag k="place" v="locality" />
		<tag k="ssr:stedsnr" v="687923" />
	</node>
	<node lat="70.71662500753318" lon="25.5296581277301" id="-104177">
		<tag k="fixme" v="consider natural=peak for the most distinct mountains in the district" />
		<tag k="name" v="Šleađovárri" />
		<tag k="name:se" v="Šleađovárri" />
		<tag k="natural" v="hill" />
		<tag k="old_name:se" v="Šlæđuvarri" />
		<tag k="place" v="locality" />
		<tag k="ssr:stedsnr" v="687948" />
	</node>
	<node lat="70.6497833349137" lon="25.157102603503205" id="-104202">
		<tag k="fixme" v="consider natural=peak for the most distinct mountains in the district" />
		<tag k="name" v="Fáhccagielas" />
		<tag k="name:se" v="Fáhccagielas" />
		<tag k="natural" v="hill" />
		<tag k="old_name:se" v="Faccagielas" />
		<tag k="place" v="locality" />
		<tag k="ssr:stedsnr" v="688863" />
	</node>
	<node lat="70.61481944992023" lon="25.07799426026049" id="-104204">
		<tag k="fixme" v="consider natural=peak for the most distinct mountains in the district" />
		<tag k="name" v="Luopmu" />
		<tag k="name:se" v="Luopmu" />
		<tag k="natural" v="hill" />
		<tag k="old_name:se" v="Luobmo" />
		<tag k="place" v="locality" />
		<tag k="ssr:stedsnr" v="688913" />
	</node>
	<node lat="70.61278889717642" lon="25.130344254695864" id="-104205">
		<tag k="fixme" v="consider natural=peak for the most distinct mountains in the district" />
		<tag k="name" v="Stohpogielas" />
		<tag k="name:se" v="Stohpogielas" />
		<tag k="natural" v="hill" />
		<tag k="old_name:se" v="Ståppugielas" />
		<tag k="place" v="locality" />
		<tag k="ssr:stedsnr" v="688914" />
	</node>
	<node lat="70.11461389626912" lon="24.50805539001921" id="-104216">
		<tag k="fixme" v="consider natural=peak for the most distinct mountains in the district" />
		<tag k="name" v="Várdánčohkka" />
		<tag k="name:se" v="Várdánčohkka" />
		<tag k="natural" v="hill" />
		<tag k="old_name:se" v="Vardančåkka" />
		<tag k="place" v="locality" />
		<tag k="ssr:stedsnr" v="565014" />
	</node>
	<node lat="69.92808889897678" lon="25.481760857015708" id="-104226">
		<tag k="fixme" v="consider natural=peak for the most distinct mountains in the district" />
		<tag k="name" v="Skuolfečohkka" />
		<tag k="name:se" v="Skuolfečohkka" />
		<tag k="natural" v="hill" />
		<tag k="old_name:se" v="Skuolfečåkka" />
		<tag k="place" v="locality" />
		<tag k="ssr:stedsnr" v="565603" />
	</node>
	<node lat="70.56878334054322" lon="26.113088604584558" id="-104239">
		<tag k="fixme" v="consider natural=peak for the most distinct mountains in the district" />
		<tag k="name" v="Luovosvárri" />
		<tag k="name:se" v="Luovosvárri" />
		<tag k="natural" v="hill" />
		<tag k="old_name:se" v="Luovusvarri" />
		<tag k="place" v="locality" />
		<tag k="ssr:stedsnr" v="566562" />
	</node>
	<node lat="70.5761250045431" lon="25.169733136052145" id="-104243">
		<tag k="fixme" v="consider natural=peak for the most distinct mountains in the district" />
		<tag k="name" v="Hálkonnjunni" />
		<tag k="name:se" v="Hálkonnjunni" />
		<tag k="natural" v="hill" />
		<tag k="old_name:se" v="Halkunnjunni" />
		<tag k="place" v="locality" />
		<tag k="ssr:stedsnr" v="566905" />
	</node>
	<node lat="70.50177778617476" lon="25.817905289904573" id="-104255">
		<tag k="fixme" v="consider natural=peak for the most distinct mountains in the district" />
		<tag k="name" v="Borjjasbuolža" />
		<tag k="name:se" v="Borjjasbuolža" />
		<tag k="natural" v="hill" />
		<tag k="place" v="locality" />
		<tag k="ssr:stedsnr" v="575414" />
	</node>
	<node lat="70.43913611255331" lon="25.185755368172735" id="-104259">
		<tag k="name" v="Gropa" />
		<tag k="natural" v="valley" />
		<tag k="place" v="locality" />
		<tag k="ssr:stedsnr" v="577413" />
	</node>
	<node lat="70.3138694483365" lon="25.4638219847497" id="-104260">
		<tag k="name" v="Lakkitieva" />
		<tag k="name:fkv" v="Lakkitieva" />
		<tag k="natural" v="hill" />
		<tag k="place" v="locality" />
		<tag k="ssr:stedsnr" v="577414" />
	</node>
	<node lat="70.43555833879066" lon="25.603721980881286" id="-104266">
		<tag k="name" v="Snárttaldievvá" />
		<tag k="name:se" v="Snárttaldievvá" />
		<tag k="natural" v="hill" />
		<tag k="place" v="locality" />
		<tag k="ssr:stedsnr" v="577502" />
	</node>
	<node lat="70.4306805599567" lon="25.594938636125526" id="-104267">
		<tag k="name" v="Muonttabávttit" />
		<tag k="name:se" v="Muonttabávttit" />
		<tag k="natural" v="hill" />
		<tag k="place" v="locality" />
		<tag k="ssr:stedsnr" v="577501" />
	</node>
	<node lat="70.32953333685164" lon="25.415858098966215" id="-104268">
		<tag k="fixme" v="consider natural=peak for the most distinct mountains in the district" />
		<tag k="loc_name:se" v="Giksenjárvárri" />
		<tag k="name" v="Kiksiniemenvaara" />
		<tag k="name:fkv" v="Kiksiniemenvaara" />
		<tag k="natural" v="hill" />
		<tag k="place" v="locality" />
		<tag k="ssr:stedsnr" v="577603" />
	</node>
	<node lat="70.32747778050708" lon="25.068502590680787" id="-104274">
		<tag k="name" v="Ravnahaugen" />
		<tag k="natural" v="hill" />
		<tag k="place" v="locality" />
		<tag k="ssr:stedsnr" v="577996" />
	</node>
	<node lat="70.18346389244948" lon="24.88894427160395" id="-104275">
		<tag k="name" v="Gorddetčohkka" />
		<tag k="name:se" v="Gorddetčohkka" />
		<tag k="natural" v="hill" />
		<tag k="place" v="locality" />
		<tag k="ssr:stedsnr" v="578141" />
	</node>
	<node lat="70.49498611981198" lon="25.745108076429045" id="-104286">
		<tag k="name" v="Bižusčorru" />
		<tag k="name:se" v="Bižusčorru" />
		<tag k="natural" v="hill" />
		<tag k="place" v="locality" />
		<tag k="ssr:stedsnr" v="697400" />
	</node>
	<node lat="70.5040916762131" lon="25.766349748303703" id="-104289">
		<tag k="name" v="Giezzaroggi" />
		<tag k="name:se" v="Giezzaroggi" />
		<tag k="natural" v="valley" />
		<tag k="place" v="locality" />
		<tag k="ssr:stedsnr" v="697431" />
	</node>
	<node lat="70.31983056452611" lon="25.472341429513435" id="-104291">
		<tag k="name" v="Hevoseniemenkuru" />
		<tag k="name:fkv" v="Hevoseniemenkuru" />
		<tag k="natural" v="valley" />
		<tag k="place" v="locality" />
		<tag k="ssr:stedsnr" v="699590" />
	</node>
	<node lat="70.17963889230718" lon="24.889438708510074" id="-104295">
		<tag k="name" v="Dálvesaičohkka" />
		<tag k="name:se" v="Dálvesaičohkka" />
		<tag k="natural" v="hill" />
		<tag k="place" v="locality" />
		<tag k="ssr:stedsnr" v="699139" />
	</node>
	<node lat="70.25714723325152" lon="25.470838656177303" id="-104297">
		<tag k="name" v="Roskapuđonsokka" />
		<tag k="name:fkv" v="Roskapuđonsokka" />
		<tag k="natural" v="hill" />
		<tag k="place" v="locality" />
		<tag k="ssr:stedsnr" v="699250" />
	</node>
	<node lat="70.25995556114275" lon="25.449905329616634" id="-104298">
		<tag k="name" v="Vesinenämellin" />
		<tag k="name:fkv" v="Vesinenämellin" />
		<tag k="natural" v="slope" />
		<tag k="place" v="locality" />
		<tag k="ssr:stedsnr" v="699252" />
	</node>
	<node lat="70.4557222262196" lon="25.204802580871696" id="-104300">
		<tag k="name" v="Prestegropa" />
		<tag k="natural" v="valley" />
		<tag k="place" v="locality" />
		<tag k="ssr:stedsnr" v="699329" />
	</node>
	<node lat="70.52964445095024" lon="25.071358141304053" id="-104301">
		<tag k="name" v="Storhøgda" />
		<tag k="natural" v="hill" />
		<tag k="place" v="locality" />
		<tag k="ssr:stedsnr" v="699338" />
	</node>
	<node lat="70.01820000809111" lon="24.972141482807753" id="-104305">
		<tag k="fixme" v="consider natural=peak for the most distinct mountains in the district" />
		<tag k="name" v="Porsvasstoppen" />
		<tag k="natural" v="hill" />
		<tag k="place" v="locality" />
		<tag k="ssr:stedsnr" v="699358" />
	</node>
	<node lat="70.28682500665633" lon="25.515721986375603" id="-104306">
		<tag k="name" v="Lottifielmanlaatas" />
		<tag k="name:fkv" v="Lottifielmanlaatas" />
		<tag k="place" v="locality" />
		<tag k="ssr:stedsnr" v="699385" />
	</node>
	<node lat="70.31247778488977" lon="25.495288650686263" id="-104311">
		<tag k="loc_name:se" v="Horbmáluohkká" />
		<tag k="name" v="Hormaluokka" />
		<tag k="name:fkv" v="Hormaluokka" />
		<tag k="natural" v="slope" />
		<tag k="place" v="locality" />
		<tag k="ssr:stedsnr" v="699401" />
	</node>
	<node lat="70.38921667356436" lon="25.558624774387024" id="-104314">
		<tag k="name" v="Isosokka" />
		<tag k="name:fkv" v="Isosokka" />
		<tag k="natural" v="hill" />
		<tag k="place" v="locality" />
		<tag k="ssr:stedsnr" v="699530" />
	</node>
	<node lat="70.37596945680096" lon="25.70637196111332" id="-104315">
		<tag k="name" v="Aaronsammunluokka" />
		<tag k="name:fkv" v="Aaronsammunluokka" />
		<tag k="natural" v="slope" />
		<tag k="place" v="locality" />
		<tag k="ssr:stedsnr" v="699547" />
	</node>
	<node lat="70.33158889925043" lon="25.600546985096646" id="-104319">
		<tag k="name" v="Pyrönluokka" />
		<tag k="name:fkv" v="Pyrönluokka" />
		<tag k="natural" v="slope" />
		<tag k="place" v="locality" />
		<tag k="ssr:stedsnr" v="699441" />
	</node>
	<node lat="70.34175834320858" lon="25.585696971390615" id="-104320">
		<tag k="name" v="Perjokuru" />
		<tag k="name:fkv" v="Perjokuru" />
		<tag k="natural" v="valley" />
		<tag k="place" v="locality" />
		<tag k="ssr:stedsnr" v="699450" />
	</node>
	<node lat="70.41078333788226" lon="25.223969245638788" id="-104321">
		<tag k="fixme" v="consider natural=peak for the most distinct mountains in the district" />
		<tag k="name" v="Viercavárri" />
		<tag k="name:se" v="Viercavárri" />
		<tag k="natural" v="hill" />
		<tag k="place" v="locality" />
		<tag k="ssr:stedsnr" v="699451" />
	</node>
	<node lat="70.32152222906355" lon="25.549019204849998" id="-104322">
		<tag k="name" v="Inganluokka" />
		<tag k="name:fkv" v="Inganluokka" />
		<tag k="natural" v="slope" />
		<tag k="place" v="locality" />
		<tag k="ssr:stedsnr" v="699457" />
	</node>
	<node lat="70.2264138936867" lon="24.901530369861632" id="-104326">
		<tag k="name" v="Čárahusávži" />
		<tag k="name:se" v="Čárahusávži" />
		<tag k="natural" v="valley" />
		<tag k="place" v="locality" />
		<tag k="ssr:stedsnr" v="699838" />
	</node>
	<node lat="70.24298612028544" lon="24.987035930110554" id="-104327">
		<tag k="name" v="Máttanjunni" />
		<tag k="name:se" v="Máttanjunni" />
		<tag k="natural" v="hill" />
		<tag k="place" v="locality" />
		<tag k="ssr:stedsnr" v="699861" />
	</node>
	<node lat="69.99325000920709" lon="25.51864974643359" id="-104332">
		<tag k="fixme" v="consider natural=peak for the most distinct mountains in the district" />
		<tag k="name" v="Oađášoaivi" />
		<tag k="name:se" v="Oađášoaivi" />
		<tag k="natural" v="hill" />
		<tag k="old_name:se" v="Oađašoaivi" />
		<tag k="place" v="locality" />
		<tag k="ssr:stedsnr" v="625554" />
	</node>
	<node lat="69.90340000606358" lon="24.579627620923034" id="-104334">
		<tag k="fixme" v="consider natural=peak for the most distinct mountains in the district" />
		<tag k="name" v="Oppardasrášša" />
		<tag k="name:se" v="Oppardasrášša" />
		<tag k="natural" v="hill" />
		<tag k="old_name:se" v="Åbbardasrašša" />
		<tag k="place" v="locality" />
		<tag k="ssr:stedsnr" v="625710" />
	</node>
	<node lat="69.90448889247496" lon="24.492477622429927" id="-104335">
		<tag k="name" v="Ceakkovuopmi" />
		<tag k="name:se" v="Ceakkovuopmi" />
		<tag k="natural" v="valley" />
		<tag k="old_name:se" v="Cægguvuobmi" />
		<tag k="place" v="locality" />
		<tag k="ssr:stedsnr" v="625711" />
	</node>
	<node lat="69.8542111158111" lon="24.220805412668483" id="-104336">
		<tag k="fixme" v="multiple name tags, choose one and add the other to alt_name; consider natural=peak for the most distinct mountains in the district" />
		<tag k="name" v="Stabburshaugen;Dulláčohkka" />
		<tag k="natural" v="hill" />
		<tag k="place" v="locality" />
		<tag k="ssr:stedsnr" v="625712" />
	</node>
	<node lat="69.808180564673" lon="25.260899774294824" id="-104350">
		<tag k="fixme" v="consider natural=peak for the most distinct mountains in the district" />
		<tag k="name" v="Osvaldčopma" />
		<tag k="name:se" v="Osvaldčopma" />
		<tag k="natural" v="hill" />
		<tag k="old_name:se" v="Osvaldčåbma" />
		<tag k="place" v="locality" />
		<tag k="ssr:stedsnr" v="626899" />
	</node>
	<node lat="69.81721667335911" lon="25.531677511744775" id="-104354">
		<tag k="name" v="Rievssatvárri" />
		<tag k="name:se" v="Rievssatvárri" />
		<tag k="natural" v="hill" />
		<tag k="old_name:se" v="Rievsatvarri" />
		<tag k="place" v="locality" />
		<tag k="ssr:stedsnr" v="626907" />
	</node>
	<node lat="70.56706666746237" lon="25.177777594446905" id="-104368">
		<tag k="name" v="Sieđgavággi" />
		<tag k="name:se" v="Sieđgavággi" />
		<tag k="natural" v="valley" />
		<tag k="old_name:se" v="Sieđgavaggi" />
		<tag k="place" v="locality" />
		<tag k="ssr:stedsnr" v="627949" />
	</node>
	<node lat="70.49609723050183" lon="25.68907474794533" id="-104374">
		<tag k="name" v="Divgarohtu" />
		<tag k="name:se" v="Divgarohtu" />
		<tag k="natural" v="slope" />
		<tag k="place" v="locality" />
		<tag k="ssr:stedsnr" v="636375" />
	</node>
	<node lat="70.5048138916205" lon="25.722963645278035" id="-104375">
		<tag k="name" v="Gárdebákti" />
		<tag k="name:se" v="Gárdebákti" />
		<tag k="natural" v="hill" />
		<tag k="place" v="locality" />
		<tag k="ssr:stedsnr" v="636384" />
	</node>
	<node lat="70.50811667782631" lon="25.749024753057807" id="-104377">
		<tag k="name" v="Sávzagurra" />
		<tag k="name:se" v="Sávzagurra" />
		<tag k="natural" v="valley" />
		<tag k="place" v="locality" />
		<tag k="ssr:stedsnr" v="636434" />
	</node>
	<node lat="70.07019166914131" lon="25.188310897882094" id="-104378">
		<tag k="name" v="Tomaskuru" />
		<tag k="name:fkv" v="Tomaskuru" />
		<tag k="natural" v="valley" />
		<tag k="place" v="locality" />
		<tag k="ssr:stedsnr" v="637127" />
	</node>
	<node lat="70.31015000481885" lon="25.53281086389924" id="-104380">
		<tag k="name" v="Anttunintörmä" />
		<tag k="name:fkv" v="Anttunintörmä" />
		<tag k="natural" v="slope" />
		<tag k="place" v="locality" />
		<tag k="ssr:stedsnr" v="637427" />
	</node>
	<node lat="70.33194444783975" lon="25.40024699006259" id="-104381">
		<tag k="name" v="Kuotrunlaatas" />
		<tag k="name:fkv" v="Kuotrunlaatas" />
		<tag k="natural" v="hill" />
		<tag k="place" v="locality" />
		<tag k="ssr:stedsnr" v="637628" />
	</node>
	<node lat="70.32718334403077" lon="25.394874777160997" id="-104382">
		<tag k="name" v="Moosensenpahta" />
		<tag k="name:fkv" v="Moosensenpahta" />
		<tag k="natural" v="hill" />
		<tag k="place" v="locality" />
		<tag k="ssr:stedsnr" v="637631" />
	</node>
	<node lat="70.41028889424318" lon="25.635027542879698" id="-104384">
		<tag k="fixme" v="consider natural=peak for the most distinct mountains in the district" />
		<tag k="name" v="Laksavarrenalus" />
		<tag k="name:fkv" v="Laksavarrenalus" />
		<tag k="natural" v="hill" />
		<tag k="place" v="locality" />
		<tag k="ssr:stedsnr" v="638486" />
	</node>
	<node lat="70.37221667089959" lon="25.47754142211893" id="-104387">
		<tag k="fixme" v="consider natural=peak for the most distinct mountains in the district" />
		<tag k="name" v="Skinskivaara" />
		<tag k="name:fkv" v="Skinskivaara" />
		<tag k="natural" v="hill" />
		<tag k="place" v="locality" />
		<tag k="ssr:stedsnr" v="638528" />
	</node>
	<node lat="70.54930833654902" lon="25.841396964781868" id="-104393">
		<tag k="name" v="Vilgesčorru" />
		<tag k="name:se" v="Vilgesčorru" />
		<tag k="natural" v="hill" />
		<tag k="place" v="locality" />
		<tag k="ssr:stedsnr" v="652024" />
	</node>
	<node lat="70.03667222732807" lon="24.567744275626513" id="-104397">
		<tag k="fixme" v="consider natural=peak for the most distinct mountains in the district" />
		<tag k="name" v="Vuoivvasrášša" />
		<tag k="name:se" v="Vuoivvasrášša" />
		<tag k="natural" v="hill" />
		<tag k="old_name:se" v="Vuoivasrašša" />
		<tag k="place" v="locality" />
		<tag k="ssr:stedsnr" v="686004" />
	</node>
	<node lat="69.96662778563291" lon="24.8281998025318" id="-104402">
		<tag k="fixme" v="consider natural=peak for the most distinct mountains in the district" />
		<tag k="name" v="Bálggesoaivi" />
		<tag k="name:se" v="Bálggesoaivi" />
		<tag k="natural" v="hill" />
		<tag k="old_name:se" v="Balgesoaivi" />
		<tag k="place" v="locality" />
		<tag k="ssr:stedsnr" v="686543" />
	</node>
	<node lat="69.7831416741371" lon="25.551560845849426" id="-104405">
		<tag k="fixme" v="consider natural=peak for the most distinct mountains in the district" />
		<tag k="name" v="Márttosvárri" />
		<tag k="name:se" v="Márttosvárri" />
		<tag k="natural" v="hill" />
		<tag k="old_name:se" v="Martusvarri" />
		<tag k="place" v="locality" />
		<tag k="ssr:stedsnr" v="686996" />
	</node>
	<node lat="70.50501389347485" lon="25.878608074659187" id="-104413">
		<tag k="name" v="Stuorramaras" />
		<tag k="name:se" v="Stuorramaras" />
		<tag k="natural" v="hill" />
		<tag k="place" v="locality" />
		<tag k="ssr:stedsnr" v="687609" />
	</node>
	<node lat="70.54389167624517" lon="26.148333025153285" id="-104415">
		<tag k="fixme" v="consider natural=peak for the most distinct mountains in the district" />
		<tag k="name" v="Muvroaivi" />
		<tag k="name:se" v="Muvroaivi" />
		<tag k="natural" v="hill" />
		<tag k="place" v="locality" />
		<tag k="ssr:stedsnr" v="687615" />
	</node>
	<node lat="70.63927777864376" lon="25.066913720890966" id="-104426">
		<tag k="fixme" v="consider natural=peak for the most distinct mountains in the district" />
		<tag k="name" v="Gárdevárstealli" />
		<tag k="name:se" v="Gárdevárstealli" />
		<tag k="natural" v="hill" />
		<tag k="old_name:se" v="Gardevarstælli" />
		<tag k="place" v="locality" />
		<tag k="ssr:stedsnr" v="688844" />
	</node>
	<node lat="70.61010000868201" lon="24.994719277261176" id="-104428">
		<tag k="fixme" v="consider natural=peak for the most distinct mountains in the district" />
		<tag k="name" v="Luomočohkka" />
		<tag k="name:se" v="Luomočohkka" />
		<tag k="natural" v="hill" />
		<tag k="old_name:se" v="Luomučåkka" />
		<tag k="place" v="locality" />
		<tag k="ssr:stedsnr" v="688911" />
	</node>
	<node lat="70.56639722506917" lon="25.105599812340145" id="-104429">
		<tag k="fixme" v="consider natural=peak for the most distinct mountains in the district" />
		<tag k="name" v="Dollerápma" />
		<tag k="name:se" v="Dollerápma" />
		<tag k="natural" v="hill" />
		<tag k="old_name:se" v="Dållerabma" />
		<tag k="place" v="locality" />
		<tag k="ssr:stedsnr" v="688931" />
	</node>
	<node lat="70.55408334290006" lon="24.91679705274578" id="-104431">
		<tag k="name" v="Gorsávži" />
		<tag k="name:se" v="Gorsávži" />
		<tag k="natural" v="valley" />
		<tag k="old_name:se" v="Gårsavži" />
		<tag k="place" v="locality" />
		<tag k="ssr:stedsnr" v="688936" />
	</node>
	<node lat="70.48735833833662" lon="25.750810854741175" id="-104442">
		<tag k="name" v="Hánno Niillasgorsa" />
		<tag k="name:se" v="Hánno Niillasgorsa" />
		<tag k="natural" v="valley" />
		<tag k="place" v="locality" />
		<tag k="ssr:stedsnr" v="697392" />
	</node>
	<node lat="70.0619111185232" lon="25.13533034430832" id="-104444">
		<tag k="name" v="Jolmabakken" />
		<tag k="natural" v="slope" />
		<tag k="place" v="locality" />
		<tag k="ssr:stedsnr" v="699110" />
	</node>
	<node lat="70.25626390092832" lon="25.440974763809017" id="-104447">
		<tag k="name" v="Gohččavárit" />
		<tag k="name:se" v="Gohččavárit" />
		<tag k="natural" v="hill" />
		<tag k="place" v="locality" />
		<tag k="ssr:stedsnr" v="699275" />
	</node>
	<node lat="69.99733611689054" lon="24.923274804982405" id="-104449">
		<tag k="name" v="Ekornbakken" />
		<tag k="natural" v="slope" />
		<tag k="place" v="locality" />
		<tag k="ssr:stedsnr" v="699463" />
	</node>
	<node lat="70.27650556465011" lon="25.516044206834163" id="-104450">
		<tag k="name" v="Marjasokanlaatas" />
		<tag k="name:fkv" v="Marjasokanlaatas" />
		<tag k="place" v="locality" />
		<tag k="ssr:stedsnr" v="699365" />
	</node>
	<node lat="70.42469166741989" lon="25.161358143993517" id="-104453">
		<tag k="name" v="Mákkanjárluohkká" />
		<tag k="name:se" v="Mákkanjárluohkká" />
		<tag k="natural" v="slope" />
		<tag k="place" v="locality" />
		<tag k="ssr:stedsnr" v="699376" />
	</node>
	<node lat="70.25895000760902" lon="24.981069253002122" id="-104457">
		<tag k="name" v="Ávžeguolbba" />
		<tag k="name:se" v="Ávžeguolbba" />
		<tag k="place" v="locality" />
		<tag k="ssr:stedsnr" v="699820" />
	</node>
	<node lat="70.2031833366216" lon="24.823663724481875" id="-104458">
		<tag k="name" v="Čuosgálnjunni" />
		<tag k="name:se" v="Čuosgálnjunni" />
		<tag k="place" v="locality" />
		<tag k="ssr:stedsnr" v="699763" />
	</node>
	<node lat="69.76447223374139" lon="25.109749778030032" id="-104481">
		<tag k="name" v="Divgačohkka" />
		<tag k="name:se" v="Divgačohkka" />
		<tag k="natural" v="hill" />
		<tag k="old_name:se" v="Divgačåkka" />
		<tag k="place" v="locality" />
		<tag k="ssr:stedsnr" v="747615" />
	</node>
	<node lat="69.86834167511732" lon="25.421852535342985" id="-104483">
		<tag k="fixme" v="consider natural=peak for the most distinct mountains in the district" />
		<tag k="name" v="Leavššáruvža" />
		<tag k="name:se" v="Leavššáruvža" />
		<tag k="natural" v="hill" />
		<tag k="old_name:se" v="Lævšaruvža" />
		<tag k="place" v="locality" />
		<tag k="ssr:stedsnr" v="747910" />
	</node>
	<node lat="70.61142222634213" lon="26.117158043403222" id="-104488">
		<tag k="fixme" v="consider natural=peak for the most distinct mountains in the district" />
		<tag k="name" v="Uhca Suolovárri" />
		<tag k="name:no" v="Lille-Øyfjellet" />
		<tag k="name:se" v="Uhca Suolovárri" />
		<tag k="natural" v="hill" />
		<tag k="old_name:se" v="Suoluvarri ucca" />
		<tag k="place" v="locality" />
		<tag k="ssr:stedsnr" v="748566" />
	</node>
	<node lat="70.61836667423945" lon="24.977302611204546" id="-104494">
		<tag k="fixme" v="consider natural=peak for the most distinct mountains in the district" />
		<tag k="name" v="Gárdevárri" />
		<tag k="name:se" v="Gárdevárri" />
		<tag k="natural" v="hill" />
		<tag k="old_name:se" v="Gardevarri" />
		<tag k="place" v="locality" />
		<tag k="ssr:stedsnr" v="748912" />
	</node>
	<node lat="70.34123333603611" lon="25.50271643418346" id="-104496">
		<tag k="fixme" v="consider natural=peak for the most distinct mountains in the district" />
		<tag k="name" v="Keinotokanvaara" />
		<tag k="name:fkv" v="Keinotokanvaara" />
		<tag k="name:se" v="Geinnodatvárri" />
		<tag k="natural" v="hill" />
		<tag k="place" v="locality" />
		<tag k="ssr:stedsnr" v="755000" />
	</node>
	<node lat="70.53156111574397" lon="25.78777475022737" id="-104499">
		<tag k="name" v="Roassogieddi" />
		<tag k="name:se" v="Roassogieddi" />
		<tag k="place" v="locality" />
		<tag k="ssr:stedsnr" v="758155" />
	</node>
	<node lat="70.27805555976391" lon="25.508605328528443" id="-104501">
		<tag k="name" v="Raasikuru" />
		<tag k="name:fkv" v="Raasikuru" />
		<tag k="natural" v="valley" />
		<tag k="place" v="locality" />
		<tag k="ssr:stedsnr" v="759353" />
	</node>
	<node lat="70.2878555661457" lon="25.49490809979969" id="-104502">
		<tag k="fixme" v="multiple name tags, choose one and add the other to alt_name" />
		<tag k="name" v="Kokkosokka;Laukkapahta" />
		<tag k="name:fkv" v="Kokkosokka;Laukkapahta" />
		<tag k="natural" v="hill" />
		<tag k="place" v="locality" />
		<tag k="ssr:stedsnr" v="759358" />
	</node>
	<node lat="70.32110278872811" lon="25.581377523419178" id="-104505">
		<tag k="name" v="Vintersletta - Talvisijanlaatas" />
		<tag k="name:fkv" v="Talvisijanlaatas" />
		<tag k="name:no" v="Vintersletta" />
		<tag k="place" v="locality" />
		<tag k="ssr:stedsnr" v="759422" />
	</node>
	<node lat="70.32082500795771" lon="25.535619200897944" id="-104506">
		<tag k="name" v="Høybakken" />
		<tag k="natural" v="slope" />
		<tag k="place" v="locality" />
		<tag k="ssr:stedsnr" v="759449" />
	</node>
	<node lat="69.8461055620202" lon="24.660738704077115" id="-104515">
		<tag k="fixme" v="consider natural=peak for the most distinct mountains in the district" />
		<tag k="name" v="Váddásgáisá" />
		<tag k="name:se" v="Váddásgáisá" />
		<tag k="natural" v="hill" />
		<tag k="old_name:se" v="Vaddasgaisa" />
		<tag k="place" v="locality" />
		<tag k="ssr:stedsnr" v="808503" />
	</node>
	<node lat="69.83897500857645" lon="24.988255350314407" id="-104518">
		<tag k="fixme" v="consider natural=peak for the most distinct mountains in the district" />
		<tag k="name" v="Suoidnevárri" />
		<tag k="name:se" v="Suoidnevárri" />
		<tag k="natural" v="hill" />
		<tag k="old_name:se" v="Suoidnevarri" />
		<tag k="place" v="locality" />
		<tag k="ssr:stedsnr" v="808514" />
	</node>
	<node lat="69.89420000562527" lon="25.177177544371514" id="-104524">
		<tag k="fixme" v="consider natural=peak for the most distinct mountains in the district" />
		<tag k="name" v="Gákkalokta" />
		<tag k="name:se" v="Gákkalokta" />
		<tag k="natural" v="hill" />
		<tag k="old_name:se" v="Gaggalåkta" />
		<tag k="place" v="locality" />
		<tag k="ssr:stedsnr" v="808493" />
	</node>
	<node lat="69.9397944562787" lon="25.613319166410122" id="-104529">
		<tag k="fixme" v="consider natural=peak for the most distinct mountains in the district" />
		<tag k="name" v="Goartilnjunis" />
		<tag k="name:se" v="Goartilnjunis" />
		<tag k="natural" v="hill" />
		<tag k="place" v="locality" />
		<tag k="ssr:stedsnr" v="808588" />
	</node>
	<node lat="69.91875000434028" lon="25.286860879444184" id="-104530">
		<tag k="name" v="Gákkaguolbba" />
		<tag k="name:se" v="Gákkaguolbba" />
		<tag k="old_name:se" v="Gaggaguolba" />
		<tag k="place" v="locality" />
		<tag k="ssr:stedsnr" v="808589" />
	</node>
	<node lat="70.66848889626452" lon="25.33457203714567" id="-104533">
		<tag k="name" v="Olggut Čáhcevágevággi" />
		<tag k="name:se" v="Olggut Čáhcevágevággi" />
		<tag k="natural" v="valley" />
		<tag k="old_name:se" v="Čaccevagevaggi, ålgot" />
		<tag k="place" v="locality" />
		<tag k="ssr:stedsnr" v="808992" />
	</node>
	<node lat="69.7765166791616" lon="25.443791406575823" id="-104534">
		<tag k="fixme" v="consider natural=peak for the most distinct mountains in the district" />
		<tag k="name" v="Čuoldavárri" />
		<tag k="name:se" v="Čuoldavárri" />
		<tag k="natural" v="hill" />
		<tag k="old_name:se" v="Čuoldavarri" />
		<tag k="place" v="locality" />
		<tag k="ssr:stedsnr" v="808993" />
	</node>
	<node lat="70.54946944821998" lon="26.02093861558858" id="-104538">
		<tag k="fixme" v="consider natural=peak for the most distinct mountains in the district" />
		<tag k="name" v="Stuorra Basseváráš" />
		<tag k="name:se" v="Stuorra Basseváráš" />
		<tag k="natural" v="hill" />
		<tag k="old_name:se" v="Bassevaraš, stuorra" />
		<tag k="place" v="locality" />
		<tag k="ssr:stedsnr" v="809614" />
	</node>
	<node lat="70.63230279030292" lon="26.0487719409901" id="-104543">
		<tag k="name" v="Siktagurra" />
		<tag k="name:se" v="Siktagurra" />
		<tag k="natural" v="valley" />
		<tag k="place" v="locality" />
		<tag k="ssr:stedsnr" v="809584" />
	</node>
	<node lat="70.05196389706168" lon="24.936427578306017" id="-104558">
		<tag k="name" v="Smørstadbrinken - Grinerinvitikkä" />
		<tag k="name:fkv" v="Grinerinvitikkä" />
		<tag k="name:no" v="Smørstadbrinken" />
		<tag k="natural" v="slope" />
		<tag k="place" v="locality" />
		<tag k="ssr:stedsnr" v="820419" />
	</node>
	<node lat="70.22484722969092" lon="24.93279705107239" id="-104567">
		<tag k="name" v="Gombirčohkka" />
		<tag k="name:se" v="Gombirčohkka" />
		<tag k="natural" v="hill" />
		<tag k="place" v="locality" />
		<tag k="ssr:stedsnr" v="821843" />
	</node>
	<node lat="70.22121667370156" lon="24.926749822333257" id="-104568">
		<tag k="name" v="Bahčinčohkka" />
		<tag k="name:se" v="Bahčinčohkka" />
		<tag k="natural" v="hill" />
		<tag k="place" v="locality" />
		<tag k="ssr:stedsnr" v="821845" />
	</node>
	<node lat="70.06678056357497" lon="25.923413583274566" id="-104583">
		<tag k="fixme" v="consider natural=peak for the most distinct mountains in the district" />
		<tag k="name" v="Másealoaivi" />
		<tag k="name:se" v="Másealoaivi" />
		<tag k="natural" v="hill" />
		<tag k="old_name:se" v="Masæloaivi" />
		<tag k="place" v="locality" />
		<tag k="ssr:stedsnr" v="929343" />
	</node>
	<node lat="69.98924444851748" lon="24.87624426488894" id="-104596">
		<tag k="name" v="Meardevárskoahppa" />
		<tag k="name:se" v="Meardevárskoahppa" />
		<tag k="old_name:se" v="Mærdevarskoappa" />
		<tag k="place" v="locality" />
		<tag k="ssr:stedsnr" v="929686" />
	</node>
	<node lat="69.97706667478836" lon="25.533469173164104" id="-104599">
		<tag k="name" v="Sirenašgorsa" />
		<tag k="name:se" v="Sirenašgorsa" />
		<tag k="natural" v="valley" />
		<tag k="old_name:se" v="Sirenašgårsa" />
		<tag k="place" v="locality" />
		<tag k="ssr:stedsnr" v="929545" />
	</node>
	<node lat="69.89608889635576" lon="25.48628584425397" id="-104602">
		<tag k="fixme" v="consider natural=peak for the most distinct mountains in the district" />
		<tag k="name" v="Mákkágálgogielas" />
		<tag k="name:se" v="Mákkágálgogielas" />
		<tag k="natural" v="hill" />
		<tag k="old_name:se" v="Maggagalgugielas" />
		<tag k="place" v="locality" />
		<tag k="ssr:stedsnr" v="929933" />
	</node>
	<node lat="69.97189167934987" lon="25.914674681890062" id="-104603">
		<tag k="fixme" v="consider natural=peak for the most distinct mountains in the district" />
		<tag k="name" v="Guivverášša" />
		<tag k="name:se" v="Guivverášša" />
		<tag k="natural" v="hill" />
		<tag k="old_name:se" v="Guiverašša" />
		<tag k="place" v="locality" />
		<tag k="ssr:stedsnr" v="929988" />
	</node>
	<node lat="69.95588889851699" lon="24.787216492746243" id="-104631">
		<tag k="fixme" v="consider natural=peak for the most distinct mountains in the district" />
		<tag k="name" v="Divgagáisa" />
		<tag k="name:se" v="Divgagáisa" />
		<tag k="natural" v="hill" />
		<tag k="old_name:se" v="Divgagaisa;Divgagáisá" />
		<tag k="place" v="locality" />
		<tag k="ssr:stedsnr" v="869572" />
	</node>
	<node lat="69.85631944721159" lon="24.60243039464031" id="-104634">
		<tag k="name" v="Stállovuopmi" />
		<tag k="name:se" v="Stállovuopmi" />
		<tag k="natural" v="valley" />
		<tag k="old_name:se" v="Stalluvuobmi" />
		<tag k="place" v="locality" />
		<tag k="ssr:stedsnr" v="869718" />
	</node>
	<node lat="70.47986111831946" lon="25.8995691619604" id="-104641">
		<tag k="fixme" v="consider natural=peak for the most distinct mountains in the district" />
		<tag k="name" v="Geašvatčohkka" />
		<tag k="name:se" v="Geašvatčohkka" />
		<tag k="natural" v="hill" />
		<tag k="old_name:se" v="Gæšvatčåkka" />
		<tag k="place" v="locality" />
		<tag k="ssr:stedsnr" v="930306" />
	</node>
	<node lat="70.47277778840406" lon="26.092499693905253" id="-104656">
		<tag k="fixme" v="consider natural=peak for the most distinct mountains in the district" />
		<tag k="name" v="Duoddaraš" />
		<tag k="name:se" v="Duoddaraš" />
		<tag k="natural" v="hill" />
		<tag k="place" v="locality" />
		<tag k="ssr:stedsnr" v="930311" />
	</node>
	<node lat="70.25699723512183" lon="25.876710826941437" id="-104661">
		<tag k="fixme" v="consider natural=peak for the most distinct mountains in the district" />
		<tag k="name" v="Gálbi" />
		<tag k="name:se" v="Gálbi" />
		<tag k="natural" v="hill" />
		<tag k="old_name:se" v="Galbi" />
		<tag k="place" v="locality" />
		<tag k="ssr:stedsnr" v="930380" />
	</node>
	<node lat="70.1907194505774" lon="25.334608113579623" id="-104707">
		<tag k="name" v="Roddenesvannberget - Rottiniemenvesipahta" />
		<tag k="name:fkv" v="Rottiniemenvesipahta" />
		<tag k="name:no" v="Roddenesvannberget" />
		<tag k="name:se" v="Roddenjárgga Čáhcebákti" />
		<tag k="natural" v="hill" />
		<tag k="place" v="locality" />
		<tag k="ssr:stedsnr" v="931874" />
	</node>
	<node lat="70.27011667367437" lon="25.539933082712384" id="-104714">
		<tag k="name" v="Sammaljänkänmukka" />
		<tag k="name:fkv" v="Sammaljänkänmukka" />
		<tag k="natural" v="valley" />
		<tag k="place" v="locality" />
		<tag k="ssr:stedsnr" v="881252" />
	</node>
	<node lat="70.3342083441597" lon="25.50213308963053" id="-104716">
		<tag k="fixme" v="consider natural=peak for the most distinct mountains in the district" />
		<tag k="name" v="Palonenä" />
		<tag k="name:fkv" v="Palonenä" />
		<tag k="natural" v="hill" />
		<tag k="place" v="locality" />
		<tag k="ssr:stedsnr" v="881606" />
	</node>
	<node lat="70.27893334003795" lon="25.524266424133753" id="-104718">
		<tag k="name" v="Talvisijantieva" />
		<tag k="name:fkv" v="Talvisijantieva" />
		<tag k="natural" v="hill" />
		<tag k="place" v="locality" />
		<tag k="ssr:stedsnr" v="881358" />
	</node>
	<node lat="70.27504722490096" lon="25.49675809849539" id="-104719">
		<tag k="name" v="Marjasokanlaatas" />
		<tag k="name:fkv" v="Marjasokanlaatas" />
		<tag k="place" v="locality" />
		<tag k="ssr:stedsnr" v="881363" />
	</node>
	<node lat="70.40899722633102" lon="25.57105532533647" id="-104721">
		<tag k="name" v="Imisbákti" />
		<tag k="name:se" v="Imisbákti" />
		<tag k="natural" v="hill" />
		<tag k="place" v="locality" />
		<tag k="ssr:stedsnr" v="881510" />
	</node>
	<node lat="70.37705278749854" lon="25.07729702625616" id="-104723">
		<tag k="name" v="Ávži" />
		<tag k="name:se" v="Ávži" />
		<tag k="natural" v="valley" />
		<tag k="place" v="locality" />
		<tag k="ssr:stedsnr" v="881962" />
	</node>
	<node lat="70.63280833992906" lon="26.0743386134928" id="-104729">
		<tag k="name" v="Háhttanašávži" />
		<tag k="name:se" v="Háhttanašávži" />
		<tag k="natural" v="valley" />
		<tag k="place" v="locality" />
		<tag k="ssr:stedsnr" v="895786" />
	</node>
	<node lat="70.00816667341775" lon="24.57323315871835" id="-104740">
		<tag k="fixme" v="consider natural=peak for the most distinct mountains in the district" />
		<tag k="name" v="Vuoivvasgielas" />
		<tag k="name:se" v="Vuoivvasgielas" />
		<tag k="natural" v="hill" />
		<tag k="old_name:se" v="Vuoivasgielas" />
		<tag k="place" v="locality" />
		<tag k="ssr:stedsnr" v="929052" />
	</node>
	<node lat="70.71471111759429" lon="25.371774790469594" id="-104756">
		<tag k="fixme" v="consider natural=peak for the most distinct mountains in the district" />
		<tag k="name" v="Rággevárri" />
		<tag k="name:se" v="Rággevárri" />
		<tag k="natural" v="hill" />
		<tag k="old_name:se" v="Raggevarri" />
		<tag k="place" v="locality" />
		<tag k="ssr:stedsnr" v="930945" />
	</node>
	<node lat="70.47310000107987" lon="25.061080373316763" id="-104784">
		<tag k="name" v="Luhppu" />
		<tag k="name:se" v="Luhppu" />
		<tag k="place" v="locality" />
		<tag k="ssr:stedsnr" v="937944" />
	</node>
	<node lat="70.40985001064271" lon="25.901802511114273" id="-104817">
		<tag k="name" v="Vievssavuopmi" />
		<tag k="name:se" v="Vievssavuopmi" />
		<tag k="natural" v="valley" />
		<tag k="old_name:se" v="Vievsavuobmi" />
		<tag k="place" v="locality" />
		<tag k="ssr:stedsnr" v="19288" />
	</node>
	<node lat="70.23376112097537" lon="25.922644156188245" id="-104818">
		<tag k="fixme" v="consider natural=peak for the most distinct mountains in the district" />
		<tag k="name" v="Bátnesatvárri" />
		<tag k="name:se" v="Bátnesatvárri" />
		<tag k="natural" v="hill" />
		<tag k="old_name:se" v="Badnesatvarri" />
		<tag k="place" v="locality" />
		<tag k="ssr:stedsnr" v="19344" />
	</node>
	<node lat="69.94418889355072" lon="25.029085905362944" id="-104829">
		<tag k="fixme" v="consider natural=peak for the most distinct mountains in the district" />
		<tag k="name" v="Leavdnjavárri" />
		<tag k="name:se" v="Leavdnjavárri" />
		<tag k="natural" v="hill" />
		<tag k="old_name:se" v="Lævdnjavarri" />
		<tag k="place" v="locality" />
		<tag k="ssr:stedsnr" v="19530" />
	</node>
	<node lat="69.97136945635704" lon="25.80432193845486" id="-104836">
		<tag k="fixme" v="consider natural=peak for the most distinct mountains in the district" />
		<tag k="name" v="Suonjirgáisá" />
		<tag k="name:se" v="Suonjirgáisá" />
		<tag k="natural" v="hill" />
		<tag k="old_name:se" v="Suonjirgaisa" />
		<tag k="place" v="locality" />
		<tag k="ssr:stedsnr" v="19558" />
	</node>
	<node lat="69.83028611807842" lon="25.095180342635476" id="-104839">
		<tag k="fixme" v="consider natural=peak for the most distinct mountains in the district" />
		<tag k="name" v="Stálločohkka" />
		<tag k="name:se" v="Stálločohkka" />
		<tag k="natural" v="hill" />
		<tag k="old_name:se" v="Stallučåkka" />
		<tag k="place" v="locality" />
		<tag k="ssr:stedsnr" v="19572" />
	</node>
	<node lat="69.78968334197421" lon="24.984005345481016" id="-104840">
		<tag k="name" v="Roanceávži" />
		<tag k="name:se" v="Roanceávži" />
		<tag k="natural" v="valley" />
		<tag k="old_name:se" v="Roanceavži" />
		<tag k="place" v="locality" />
		<tag k="ssr:stedsnr" v="19582" />
	</node>
	<node lat="69.87668889578698" lon="25.48623028329491" id="-104845">
		<tag k="fixme" v="consider natural=peak for the most distinct mountains in the district" />
		<tag k="name" v="Oarrenjunis" />
		<tag k="name:se" v="Oarrenjunis" />
		<tag k="natural" v="hill" />
		<tag k="place" v="locality" />
		<tag k="ssr:stedsnr" v="19917" />
	</node>
	<node lat="70.53189722629227" lon="25.923155277273402" id="-104881">
		<tag k="fixme" v="consider natural=peak for the most distinct mountains in the district" />
		<tag k="name" v="Ráktoaivi" />
		<tag k="name:se" v="Ráktoaivi" />
		<tag k="natural" v="hill" />
		<tag k="old_name:se" v="Raktoaivi" />
		<tag k="place" v="locality" />
		<tag k="ssr:stedsnr" v="20624" />
	</node>
	<node lat="70.6441138968028" lon="25.195574804617497" id="-104885">
		<tag k="fixme" v="consider natural=peak for the most distinct mountains in the district" />
		<tag k="name" v="Juovvavárri" />
		<tag k="name:se" v="Juovvavárri" />
		<tag k="natural" v="hill" />
		<tag k="old_name:se" v="Juovvavarri" />
		<tag k="place" v="locality" />
		<tag k="ssr:stedsnr" v="20868" />
	</node>
	<node lat="70.3538666716947" lon="25.449546991852387" id="-104899">
		<tag k="fixme" v="consider natural=peak for the most distinct mountains in the district" />
		<tag k="name" v="Kalkuvaara" />
		<tag k="name:fkv" v="Kalkuvaara" />
		<tag k="name:se" v="Gálgovárri" />
		<tag k="natural" v="hill" />
		<tag k="place" v="locality" />
		<tag k="ssr:stedsnr" v="26986" />
	</node>
	<node lat="70.5069944529643" lon="25.72932753893491" id="-104900">
		<tag k="name" v="Liktabákti" />
		<tag k="name:se" v="Liktabákti" />
		<tag k="natural" v="hill" />
		<tag k="place" v="locality" />
		<tag k="ssr:stedsnr" v="29400" />
	</node>
	<node lat="70.52820556816363" lon="25.787491404853263" id="-104901">
		<tag k="name" v="Sáttooaivi" />
		<tag k="name:se" v="Sáttooaivi" />
		<tag k="natural" v="hill" />
		<tag k="place" v="locality" />
		<tag k="ssr:stedsnr" v="29345" />
	</node>
	<node lat="70.5058694472086" lon="25.816727521141075" id="-104903">
		<tag k="name" v="Borjjasávži" />
		<tag k="name:se" v="Borjjasávži" />
		<tag k="natural" v="valley" />
		<tag k="place" v="locality" />
		<tag k="ssr:stedsnr" v="29440" />
	</node>
	<node lat="70.44400000250256" lon="25.19772202928436" id="-104905">
		<tag k="name" v="Kapphaugen" />
		<tag k="natural" v="hill" />
		<tag k="place" v="locality" />
		<tag k="ssr:stedsnr" v="31370" />
	</node>
	<node lat="70.32095278185118" lon="25.64592752949116" id="-104911">
		<tag k="fixme" v="consider natural=peak for the most distinct mountains in the district" />
		<tag k="name" v="Pannin kotasija" />
		<tag k="name:fkv" v="Pannin kotasija" />
		<tag k="natural" v="hill" />
		<tag k="place" v="locality" />
		<tag k="ssr:stedsnr" v="31428" />
	</node>
	<node lat="70.31683889944001" lon="25.530146973367568" id="-104913">
		<tag k="loc_name:fkv" v="Vierimänkuru" />
		<tag k="loc_name:se" v="Fierrangurra" />
		<tag k="name" v="Vierimenkuru" />
		<tag k="name:fkv" v="Vierimenkuru" />
		<tag k="natural" v="valley" />
		<tag k="place" v="locality" />
		<tag k="ssr:stedsnr" v="31459" />
	</node>
	<node lat="70.32182778039817" lon="25.538735880607224" id="-104914">
		<tag k="name" v="Pajaluokka" />
		<tag k="name:fkv" v="Pajaluokka" />
		<tag k="natural" v="slope" />
		<tag k="place" v="locality" />
		<tag k="ssr:stedsnr" v="31461" />
	</node>
	<node lat="70.26206389118246" lon="25.51818865487524" id="-104919">
		<tag k="name" v="Hillarinnet" />
		<tag k="name:fkv" v="Hillarinnet" />
		<tag k="natural" v="slope" />
		<tag k="place" v="locality" />
		<tag k="ssr:stedsnr" v="32226" />
	</node>
	<node lat="70.26249723232458" lon="25.523969206259384" id="-104920">
		<tag k="name" v="Jalankuru" />
		<tag k="name:fkv" v="Jalankuru" />
		<tag k="natural" v="valley" />
		<tag k="place" v="locality" />
		<tag k="ssr:stedsnr" v="32227" />
	</node>
	<node lat="70.26296389479482" lon="25.489485862735318" id="-104921">
		<tag k="name" v="Liikajoensokka" />
		<tag k="name:fkv" v="Liikajoensokka" />
		<tag k="natural" v="hill" />
		<tag k="place" v="locality" />
		<tag k="ssr:stedsnr" v="32230" />
	</node>
	<node lat="70.25045556536341" lon="25.441680311802514" id="-104922">
		<tag k="name" v="Panniemen-Juovasokka" />
		<tag k="name:fkv" v="Panniemen-Juovasokka" />
		<tag k="natural" v="hill" />
		<tag k="place" v="locality" />
		<tag k="ssr:stedsnr" v="32269" />
	</node>
	<node lat="70.24487778268433" lon="25.4489442018388" id="-104923">
		<tag k="name" v="Aittipuolsinkuopat" />
		<tag k="name:fkv" v="Aittipuolsinkuopat" />
		<tag k="natural" v="valley" />
		<tag k="place" v="locality" />
		<tag k="ssr:stedsnr" v="32273" />
	</node>
	<node lat="70.50658056115056" lon="24.800252617909578" id="-104935">
		<tag k="fixme" v="consider natural=peak for the most distinct mountains in the district" />
		<tag k="name" v="Gumppečahcagielas" />
		<tag k="name:se" v="Gumppečahcagielas" />
		<tag k="natural" v="hill" />
		<tag k="old_name:se" v="Gumpečaccagielas" />
		<tag k="place" v="locality" />
		<tag k="ssr:stedsnr" v="81928" />
	</node>
	<node lat="69.74834722802032" lon="25.366380295628908" id="-104940">
		<tag k="name" v="Geađgevuopmi" />
		<tag k="name:se" v="Geađgevuopmi" />
		<tag k="natural" v="valley" />
		<tag k="old_name:se" v="Gæđgevuobmi" />
		<tag k="place" v="locality" />
		<tag k="ssr:stedsnr" v="79379" />
	</node>
	<node lat="70.01330555626794" lon="24.10575541855681" id="-104947">
		<tag k="fixme" v="consider natural=peak for the most distinct mountains in the district" />
		<tag k="name" v="Sámmoloaivi" />
		<tag k="name:se" v="Sámmoloaivi" />
		<tag k="natural" v="hill" />
		<tag k="old_name:se" v="Sammuloaivi" />
		<tag k="place" v="locality" />
		<tag k="ssr:stedsnr" v="80067" />
	</node>
	<node lat="69.87270833838383" lon="24.84418870112912" id="-104976">
		<tag k="name" v="Gievdnevággi" />
		<tag k="name:se" v="Gievdnevággi" />
		<tag k="natural" v="valley" />
		<tag k="old_name:se" v="Gievdnevaggi" />
		<tag k="place" v="locality" />
		<tag k="ssr:stedsnr" v="80515" />
	</node>
	<node lat="69.81941945112013" lon="25.026344245918285" id="-104982">
		<tag k="fixme" v="consider natural=peak for the most distinct mountains in the district" />
		<tag k="name" v="Vuolamuotki" />
		<tag k="name:se" v="Vuolamuotki" />
		<tag k="natural" v="hill" />
		<tag k="place" v="locality" />
		<tag k="ssr:stedsnr" v="80609" />
	</node>
	<node lat="69.79339444929889" lon="24.85781923955529" id="-104983">
		<tag k="fixme" v="consider natural=peak for the most distinct mountains in the district" />
		<tag k="name" v="Goađáščohkka" />
		<tag k="name:se" v="Goađáščohkka" />
		<tag k="natural" v="hill" />
		<tag k="old_name:se" v="Goađaščåkka" />
		<tag k="place" v="locality" />
		<tag k="ssr:stedsnr" v="80613" />
	</node>
	<node lat="69.7740166725237" lon="25.00572201918566" id="-104985">
		<tag k="fixme" v="consider natural=peak for the most distinct mountains in the district" />
		<tag k="name" v="Davimus Luovosvárri" />
		<tag k="name:se" v="Davimus Luovosvárri" />
		<tag k="natural" v="hill" />
		<tag k="old_name:se" v="Luovusvarri, davimus" />
		<tag k="place" v="locality" />
		<tag k="ssr:stedsnr" v="80623" />
	</node>
	<node lat="69.97603334163846" lon="25.6275747285958" id="-104997">
		<tag k="name" v="Jáfoávži" />
		<tag k="name:se" v="Jáfoávži" />
		<tag k="natural" v="valley" />
		<tag k="old_name:se" v="Jafuavži" />
		<tag k="place" v="locality" />
		<tag k="ssr:stedsnr" v="80583" />
	</node>
	<node lat="69.980205556542" lon="24.455627620396857" id="-105000">
		<tag k="fixme" v="consider natural=peak for the most distinct mountains in the district" />
		<tag k="name" v="Skuovgilbuolža" />
		<tag k="name:se" v="Skuovgilbuolža" />
		<tag k="natural" v="hill" />
		<tag k="place" v="locality" />
		<tag k="ssr:stedsnr" v="80750" />
	</node>
	<node lat="69.96390278091403" lon="24.553722066302594" id="-105001">
		<tag k="fixme" v="consider natural=peak for the most distinct mountains in the district" />
		<tag k="name" v="Čohkarášša" />
		<tag k="name:se" v="Čohkarášša" />
		<tag k="natural" v="hill" />
		<tag k="old_name:se" v="Čåkkarašša" />
		<tag k="place" v="locality" />
		<tag k="ssr:stedsnr" v="80753" />
	</node>
	<node lat="69.97790834234115" lon="24.325427631577583" id="-105002">
		<tag k="fixme" v="consider natural=peak for the most distinct mountains in the district" />
		<tag k="name" v="Navkaoaivi" />
		<tag k="name:se" v="Navkaoaivi" />
		<tag k="natural" v="hill" />
		<tag k="old_name:se" v="Návkaoaivi" />
		<tag k="place" v="locality" />
		<tag k="ssr:stedsnr" v="80760" />
	</node>
	<node lat="69.89091667814385" lon="25.32866087038317" id="-105008">
		<tag k="fixme" v="consider natural=peak for the most distinct mountains in the district" />
		<tag k="name" v="Spiikkároaivi" />
		<tag k="name:se" v="Spiikkároaivi" />
		<tag k="natural" v="hill" />
		<tag k="old_name:se" v="Spiikaroaivi" />
		<tag k="place" v="locality" />
		<tag k="ssr:stedsnr" v="80931" />
	</node>
	<node lat="69.90757778608977" lon="25.486441402181477" id="-105011">
		<tag k="fixme" v="consider natural=peak for the most distinct mountains in the district" />
		<tag k="name" v="Mákkágálgooaivi" />
		<tag k="name:se" v="Mákkágálgooaivi" />
		<tag k="natural" v="hill" />
		<tag k="old_name:se" v="Maggagalguoaivi" />
		<tag k="place" v="locality" />
		<tag k="ssr:stedsnr" v="80938" />
	</node>
	<node lat="70.62870000482656" lon="25.133188694330748" id="-105032">
		<tag k="fixme" v="consider natural=peak for the most distinct mountains in the district" />
		<tag k="name" v="Fáhccoaivi" />
		<tag k="name:se" v="Fáhccoaivi" />
		<tag k="natural" v="hill" />
		<tag k="old_name:se" v="Faccoaivi" />
		<tag k="place" v="locality" />
		<tag k="ssr:stedsnr" v="81854" />
	</node>
	<node lat="70.68996111317459" lon="25.215280376655617" id="-105034">
		<tag k="fixme" v="consider natural=peak for the most distinct mountains in the district" />
		<tag k="name" v="Váttesjuovva" />
		<tag k="name:se" v="Váttesjuovva" />
		<tag k="natural" v="hill" />
		<tag k="old_name:se" v="Vaddesjuovva" />
		<tag k="place" v="locality" />
		<tag k="ssr:stedsnr" v="81870" />
	</node>
	<node lat="70.51003334204707" lon="25.737113648559184" id="-105051">
		<tag k="name" v="Fárrenbákti" />
		<tag k="name:se" v="Fárrenbákti" />
		<tag k="natural" v="hill" />
		<tag k="place" v="locality" />
		<tag k="ssr:stedsnr" v="90285" />
	</node>
	<node lat="70.52522500895816" lon="25.7991219690813" id="-105052">
		<tag k="fixme" v="consider natural=peak for the most distinct mountains in the district" />
		<tag k="name" v="Sopmirbuolža" />
		<tag k="name:se" v="Sopmirbuolža" />
		<tag k="natural" v="hill" />
		<tag k="place" v="locality" />
		<tag k="ssr:stedsnr" v="90307" />
	</node>
	<node lat="70.49886112018247" lon="25.726910869960133" id="-105055">
		<tag k="name" v="Gufihtarbovdna" />
		<tag k="name:se" v="Gufihtarbovdna" />
		<tag k="natural" v="hill" />
		<tag k="place" v="locality" />
		<tag k="ssr:stedsnr" v="90344" />
	</node>
	<node lat="70.06343334428668" lon="25.155699788513676" id="-105057">
		<tag k="name" v="Vaskkibákti" />
		<tag k="name:se" v="Vaskkibákti" />
		<tag k="natural" v="hill" />
		<tag k="place" v="locality" />
		<tag k="ssr:stedsnr" v="92054" />
	</node>
	<node lat="70.2685750062812" lon="25.486766440796554" id="-105058">
		<tag k="name" v="Lähteenluokka" />
		<tag k="name:fkv" v="Lähteenluokka" />
		<tag k="natural" v="slope" />
		<tag k="place" v="locality" />
		<tag k="ssr:stedsnr" v="92260" />
	</node>
	<node lat="70.28056667537327" lon="25.52081365823879" id="-105059">
		<tag k="name" v="Pötäjälaatas" />
		<tag k="name:fkv" v="Pötäjälaatas" />
		<tag k="place" v="locality" />
		<tag k="ssr:stedsnr" v="92380" />
	</node>
	<node lat="70.4347583417864" lon="25.1893581285789" id="-105061">
		<tag k="name" v="Levibakken" />
		<tag k="natural" v="slope" />
		<tag k="place" v="locality" />
		<tag k="ssr:stedsnr" v="92384" />
	</node>
	<node lat="70.28746111732806" lon="25.499994215276534" id="-105063">
		<tag k="name" v="Rapapahta" />
		<tag k="name:fkv" v="Rapapahta" />
		<tag k="natural" v="hill" />
		<tag k="place" v="locality" />
		<tag k="ssr:stedsnr" v="92392" />
	</node>
	<node lat="70.39685834358357" lon="25.557274769334946" id="-105070">
		<tag k="name" v="Sätnitieva" />
		<tag k="name:fkv" v="Sätnitieva" />
		<tag k="natural" v="hill" />
		<tag k="place" v="locality" />
		<tag k="ssr:stedsnr" v="92557" />
	</node>
	<node lat="70.39878889290567" lon="25.548766419339756" id="-105071">
		<tag k="name" v="Maatitieva" />
		<tag k="name:fkv" v="Maatitieva" />
		<tag k="natural" v="hill" />
		<tag k="place" v="locality" />
		<tag k="ssr:stedsnr" v="92558" />
	</node>
	<node lat="70.03817778433883" lon="24.968883136441733" id="-105078">
		<tag k="name" v="Gjestgiveribrinken" />
		<tag k="natural" v="slope" />
		<tag k="place" v="locality" />
		<tag k="ssr:stedsnr" v="93341" />
	</node>
	<node lat="70.04303334377683" lon="25.040347028205083" id="-105079">
		<tag k="name" v="Josefsberget" />
		<tag k="natural" v="hill" />
		<tag k="place" v="locality" />
		<tag k="ssr:stedsnr" v="93344" />
	</node>
	<node lat="70.51618611846398" lon="25.17195815504899" id="-105084">
		<tag k="fixme" v="consider natural=peak for the most distinct mountains in the district" />
		<tag k="name" v="Bringneset" />
		<tag k="natural" v="hill" />
		<tag k="place" v="locality" />
		<tag k="ssr:stedsnr" v="109548" />
	</node>
	<node lat="70.05667500444436" lon="24.252405428689322" id="-105089">
		<tag k="fixme" v="consider natural=peak for the most distinct mountains in the district" />
		<tag k="name" v="Doaresvárklubbu" />
		<tag k="name:se" v="Doaresvárklubbu" />
		<tag k="natural" v="hill" />
		<tag k="old_name:se" v="Doaresvarklubbo" />
		<tag k="place" v="locality" />
		<tag k="ssr:stedsnr" v="140006" />
	</node>
	<node lat="70.02437778508609" lon="24.306402639203554" id="-105090">
		<tag k="fixme" v="consider natural=peak for the most distinct mountains in the district" />
		<tag k="name" v="Čáhppesvárri" />
		<tag k="name:se" v="Čáhppesvárri" />
		<tag k="natural" v="hill" />
		<tag k="old_name:se" v="Čappesvarri" />
		<tag k="place" v="locality" />
		<tag k="ssr:stedsnr" v="140007" />
	</node>
	<node lat="69.92344166866084" lon="24.64074427627609" id="-105134">
		<tag k="fixme" v="consider natural=peak for the most distinct mountains in the district" />
		<tag k="name" v="Jeagiloaivi" />
		<tag k="name:se" v="Jeagiloaivi" />
		<tag k="natural" v="hill" />
		<tag k="old_name:se" v="Jægiloaivi" />
		<tag k="place" v="locality" />
		<tag k="ssr:stedsnr" v="140529" />
	</node>
	<node lat="69.86605000584086" lon="24.989255338591974" id="-105137">
		<tag k="fixme" v="consider natural=peak for the most distinct mountains in the district" />
		<tag k="name" v="Silbačohkka" />
		<tag k="name:se" v="Silbačohkka" />
		<tag k="natural" v="hill" />
		<tag k="old_name:se" v="Silbačåkka" />
		<tag k="place" v="locality" />
		<tag k="ssr:stedsnr" v="140481" />
	</node>
	<node lat="69.94666667308952" lon="25.267244211056752" id="-105139">
		<tag k="fixme" v="consider natural=peak for the most distinct mountains in the district" />
		<tag k="name" v="Vuohpošvárri" />
		<tag k="name:se" v="Vuohpošvárri" />
		<tag k="natural" v="hill" />
		<tag k="old_name:se" v="Vuoippušvarri" />
		<tag k="place" v="locality" />
		<tag k="ssr:stedsnr" v="140563" />
	</node>
	<node lat="69.81214167508043" lon="24.815902599571462" id="-105140">
		<tag k="fixme" v="consider natural=peak for the most distinct mountains in the district" />
		<tag k="name" v="Vuolanjunis" />
		<tag k="name:se" v="Vuolanjunis" />
		<tag k="natural" v="hill" />
		<tag k="place" v="locality" />
		<tag k="ssr:stedsnr" v="140578" />
	</node>
	<node lat="69.81378889319626" lon="25.154938667235026" id="-105143">
		<tag k="name" v="Otermoen" />
		<tag k="place" v="locality" />
		<tag k="ssr:stedsnr" v="140583" />
	</node>
	<node lat="69.99295278270839" lon="24.53140539891599" id="-105148">
		<tag k="fixme" v="consider natural=peak for the most distinct mountains in the district" />
		<tag k="name" v="Skuovgilrášša" />
		<tag k="name:se" v="Skuovgilrášša" />
		<tag k="natural" v="hill" />
		<tag k="old_name:se" v="Skuovgilrašša" />
		<tag k="place" v="locality" />
		<tag k="ssr:stedsnr" v="140745" />
	</node>
	<node lat="69.81368077361952" lon="25.368031930538738" id="-105151">
		<tag k="fixme" v="consider natural=peak for the most distinct mountains in the district" />
		<tag k="name" v="Gákkanjunis" />
		<tag k="name:se" v="Gákkanjunis" />
		<tag k="natural" v="hill" />
		<tag k="old_name:se" v="Gagganjunis" />
		<tag k="place" v="locality" />
		<tag k="ssr:stedsnr" v="140905" />
	</node>
	<node lat="69.82801945154596" lon="25.230624767940906" id="-105152">
		<tag k="fixme" v="consider natural=peak for the most distinct mountains in the district" />
		<tag k="name" v="Gákkaluovosvárri" />
		<tag k="name:se" v="Gákkaluovosvárri" />
		<tag k="natural" v="hill" />
		<tag k="old_name:se" v="Gaggaluovusvarri" />
		<tag k="place" v="locality" />
		<tag k="ssr:stedsnr" v="140912" />
	</node>
	<node lat="69.91869445172135" lon="25.72009137780747" id="-105153">
		<tag k="fixme" v="consider natural=peak for the most distinct mountains in the district" />
		<tag k="name" v="Jeagiloaivi" />
		<tag k="name:se" v="Jeagiloaivi" />
		<tag k="natural" v="hill" />
		<tag k="old_name:se" v="Jægiloaivi" />
		<tag k="place" v="locality" />
		<tag k="ssr:stedsnr" v="140941" />
	</node>
	<node lat="70.15298333814732" lon="24.462424849902003" id="-105157">
		<tag k="fixme" v="consider natural=peak for the most distinct mountains in the district" />
		<tag k="name" v="Uhca Ordaváráš" />
		<tag k="name:se" v="Uhca Ordaváráš" />
		<tag k="natural" v="hill" />
		<tag k="old_name:se" v="Årdavaraš, ucca" />
		<tag k="place" v="locality" />
		<tag k="ssr:stedsnr" v="140967" />
	</node>
	<node lat="70.52192778144855" lon="25.070263710967485" id="-105162">
		<tag k="name" v="Civvačohkka" />
		<tag k="name:se" v="Civvačohkka" />
		<tag k="natural" v="hill" />
		<tag k="old_name:se" v="Civvačåkka" />
		<tag k="place" v="locality" />
		<tag k="ssr:stedsnr" v="141910" />
	</node>
	<node lat="70.51940555847796" lon="24.971922051991527" id="-105163">
		<tag k="alt_name:se" v="Uhca Gárjiloaivi" />
		<tag k="fixme" v="consider natural=peak for the most distinct mountains in the district" />
		<tag k="name" v="Unna Gárjiloaivi - Lille Karelhaugen" />
		<tag k="name:no" v="Lille Karelhaugen" />
		<tag k="name:se" v="Unna Gárjiloaivi" />
		<tag k="natural" v="hill" />
		<tag k="old_name:se" v="Garjiloaivi, unna" />
		<tag k="place" v="locality" />
		<tag k="ssr:stedsnr" v="141912" />
	</node>
	<node lat="70.6522916696995" lon="26.065924724943944" id="-105170">
		<tag k="fixme" v="consider natural=peak for the most distinct mountains in the district" />
		<tag k="name" v="Valjesgiedvárri" />
		<tag k="name:se" v="Valjesgiedvárri" />
		<tag k="natural" v="hill" />
		<tag k="old_name:se" v="Valljesgiedvarri" />
		<tag k="place" v="locality" />
		<tag k="ssr:stedsnr" v="141549" />
	</node>
	<node lat="70.60141944716244" lon="25.158994258214502" id="-105181">
		<tag k="fixme" v="consider natural=peak for the most distinct mountains in the district" />
		<tag k="name" v="Gaskabeaivárri" />
		<tag k="name:se" v="Gaskabeaivárri" />
		<tag k="natural" v="hill" />
		<tag k="old_name:se" v="Gaskabæivarri" />
		<tag k="place" v="locality" />
		<tag k="ssr:stedsnr" v="141879" />
	</node>
	<node lat="70.51250556399492" lon="25.05774980859006" id="-105182">
		<tag k="fixme" v="consider natural=peak for the most distinct mountains in the district" />
		<tag k="name" v="Rivdnjevárri" />
		<tag k="name:se" v="Rivdnjevárri" />
		<tag k="natural" v="hill" />
		<tag k="old_name:se" v="Rivdnjevarri" />
		<tag k="place" v="locality" />
		<tag k="ssr:stedsnr" v="141944" />
	</node>
	<node lat="70.30251666758491" lon="25.025188704755138" id="-105188">
		<tag k="name" v="Indre Billefjorddalen" />
		<tag k="natural" v="valley" />
		<tag k="place" v="locality" />
		<tag k="ssr:stedsnr" v="142716" />
	</node>
	<node lat="70.33373056286804" lon="25.582202540927184" id="-105197">
		<tag k="fixme" v="consider natural=peak for the most distinct mountains in the district" />
		<tag k="name" v="Siehvaara" />
		<tag k="name:fkv" v="Siehvaara" />
		<tag k="name:se" v="Vilgesčohkka" />
		<tag k="natural" v="hill" />
		<tag k="place" v="locality" />
		<tag k="ssr:stedsnr" v="147016" />
	</node>
	<node lat="70.2712416762349" lon="25.509774774709875" id="-105205">
		<tag k="name" v="Janissokka" />
		<tag k="name:fkv" v="Janissokka" />
		<tag k="natural" v="hill" />
		<tag k="place" v="locality" />
		<tag k="ssr:stedsnr" v="153263" />
	</node>
	<node lat="70.30620278122461" lon="25.560619196532855" id="-105208">
		<tag k="loc_name:se" v="Giehkajeaggečohkka" />
		<tag k="name" v="Kukkujänkänsokka" />
		<tag k="name:fkv" v="Kukkujänkänsokka" />
		<tag k="natural" v="hill" />
		<tag k="place" v="locality" />
		<tag k="ssr:stedsnr" v="152439" />
	</node>
	<node lat="70.29900556290102" lon="25.553130308617337" id="-105209">
		<tag k="loc_name:se" v="Raddeeana" />
		<tag k="name" v="Marastonrinnet" />
		<tag k="name:fkv" v="Marastonrinnet" />
		<tag k="natural" v="slope" />
		<tag k="place" v="locality" />
		<tag k="ssr:stedsnr" v="152442" />
	</node>
	<node lat="70.04715556672369" lon="25.034941457169733" id="-105210">
		<tag k="name" v="Ingvaldtoppen" />
		<tag k="natural" v="hill" />
		<tag k="place" v="locality" />
		<tag k="ssr:stedsnr" v="152443" />
	</node>
	<node lat="70.04942222643025" lon="25.135188666728872" id="-105214">
		<tag k="name" v="Sorkossen tieva" />
		<tag k="name:fkv" v="Sorkossen tieva" />
		<tag k="natural" v="hill" />
		<tag k="place" v="locality" />
		<tag k="ssr:stedsnr" v="152532" />
	</node>
	<node lat="70.0473416753553" lon="25.126574799734453" id="-105215">
		<tag k="name" v="Härkäkuru" />
		<tag k="name:fkv" v="Härkäkuru" />
		<tag k="natural" v="valley" />
		<tag k="place" v="locality" />
		<tag k="ssr:stedsnr" v="152536" />
	</node>
	<node lat="70.0404000082193" lon="25.137991448816145" id="-105216">
		<tag k="name" v="Rittatieva" />
		<tag k="name:fkv" v="Rittatieva" />
		<tag k="natural" v="hill" />
		<tag k="place" v="locality" />
		<tag k="ssr:stedsnr" v="152538" />
	</node>
	<node lat="70.00631667440531" lon="25.13421923776069" id="-105219">
		<tag k="name" v="Furuflaten" />
		<tag k="place" v="locality" />
		<tag k="ssr:stedsnr" v="152480" />
	</node>
	<node lat="70.31971389523129" lon="25.555558102473555" id="-105220">
		<tag k="name" v="Kalttinlaatas" />
		<tag k="name:fkv" v="Kalttinlaatas" />
		<tag k="place" v="locality" />
		<tag k="ssr:stedsnr" v="152499" />
	</node>
	<node lat="70.39871945205697" lon="25.55373032811208" id="-105221">
		<tag k="name" v="Mourusokka" />
		<tag k="name:fkv" v="Mourusokka" />
		<tag k="natural" v="hill" />
		<tag k="place" v="locality" />
		<tag k="ssr:stedsnr" v="152582" />
	</node>
	<node lat="70.34568889824037" lon="25.435847008868517" id="-105222">
		<tag k="name" v="Pierankallio" />
		<tag k="name:fkv" v="Pierankallio" />
		<tag k="natural" v="hill" />
		<tag k="place" v="locality" />
		<tag k="ssr:stedsnr" v="152641" />
	</node>
	<node lat="70.44887500306595" lon="25.201574791336107" id="-105226">
		<tag k="name" v="Oskarhaugen" />
		<tag k="natural" v="hill" />
		<tag k="place" v="locality" />
		<tag k="ssr:stedsnr" v="153349" />
	</node>
	<node lat="70.22763055873101" lon="24.91499982321157" id="-105231">
		<tag k="name" v="Luovvesuovka" />
		<tag k="name:se" v="Luovvesuovka" />
		<tag k="natural" v="slope" />
		<tag k="place" v="locality" />
		<tag k="ssr:stedsnr" v="153870" />
	</node>
	<node lat="69.95031667082046" lon="25.539485856725868" id="-105248">
		<tag k="fixme" v="consider natural=peak for the most distinct mountains in the district" />
		<tag k="name" v="Luostegáisá" />
		<tag k="name:se" v="Luostegáisá" />
		<tag k="natural" v="hill" />
		<tag k="old_name:se" v="Luostegaisa;Luostegáisa" />
		<tag k="place" v="locality" />
		<tag k="ssr:stedsnr" v="201546" />
	</node>
	<node lat="70.1279361176836" lon="24.91319702896606" id="-105260">
		<tag k="name" v="Vannberget" />
		<tag k="name:no" v="Vannberget" />
		<tag k="name:se" v="Čáhcebákti" />
		<tag k="natural" v="hill" />
		<tag k="place" v="locality" />
		<tag k="ssr:stedsnr" v="201120" />
	</node>
	<node lat="69.94790000458339" lon="24.80849147075515" id="-105290">
		<tag k="name" v="Bálggesvággi" />
		<tag k="name:se" v="Bálggesvággi" />
		<tag k="natural" v="valley" />
		<tag k="old_name:se" v="Balgesvaggi" />
		<tag k="place" v="locality" />
		<tag k="ssr:stedsnr" v="201509" />
	</node>
	<node lat="69.80760278338389" lon="25.05154422979341" id="-105298">
		<tag k="fixme" v="consider natural=peak for the most distinct mountains in the district" />
		<tag k="name" v="Sinnaidčohkka" />
		<tag k="name:se" v="Sinnaidčohkka" />
		<tag k="natural" v="hill" />
		<tag k="old_name:se" v="Sinaidčåkka" />
		<tag k="place" v="locality" />
		<tag k="ssr:stedsnr" v="201568" />
	</node>
	<node lat="69.76801666878904" lon="24.98568590811065" id="-105299">
		<tag k="fixme" v="consider natural=peak for the most distinct mountains in the district" />
		<tag k="name" v="Gaskkamus Luovosvárri" />
		<tag k="name:se" v="Gaskkamus Luovosvárri" />
		<tag k="natural" v="hill" />
		<tag k="old_name:se" v="Luovusvarri, gaskamus" />
		<tag k="place" v="locality" />
		<tag k="ssr:stedsnr" v="201578" />
	</node>
	<node lat="69.86305001096781" lon="25.518888632152816" id="-105305">
		<tag k="fixme" v="consider natural=peak for the most distinct mountains in the district" />
		<tag k="name" v="Vuopmevárri" />
		<tag k="name:se" v="Vuopmevárri" />
		<tag k="natural" v="hill" />
		<tag k="old_name:se" v="Vuobmevarri" />
		<tag k="place" v="locality" />
		<tag k="ssr:stedsnr" v="201915" />
	</node>
	<node lat="69.88127501236083" lon="25.606552493634975" id="-105306">
		<tag k="fixme" v="consider natural=peak for the most distinct mountains in the district" />
		<tag k="name" v="Suolojárgielas" />
		<tag k="name:se" v="Suolojárgielas" />
		<tag k="natural" v="hill" />
		<tag k="old_name:se" v="Suolujargielas" />
		<tag k="place" v="locality" />
		<tag k="ssr:stedsnr" v="201924" />
	</node>
	<node lat="70.546711121469" lon="25.9699247390737" id="-105337">
		<tag k="fixme" v="consider natural=peak for the most distinct mountains in the district" />
		<tag k="name" v="Njukčačohkka" />
		<tag k="name:se" v="Njukčačohkka" />
		<tag k="natural" v="hill" />
		<tag k="old_name:se" v="Njukčačåkka" />
		<tag k="place" v="locality" />
		<tag k="ssr:stedsnr" v="202620" />
	</node>
	<node lat="70.5324305616914" lon="25.087166471660087" id="-105351">
		<tag k="alt_name:se" v="Dollačohkka" />
		<tag k="fixme" v="multiple name:no tags, choose one and add the other to alt_name:no" />
		<tag k="name" v="Dollečohkka" />
		<tag k="name:no" v="Brennelvfjell;Gammelhov" />
		<tag k="name:se" v="Dollečohkka" />
		<tag k="natural" v="hill" />
		<tag k="old_name:se" v="Dållečåkka" />
		<tag k="place" v="locality" />
		<tag k="ssr:stedsnr" v="202927" />
	</node>
	<node lat="70.5137333406092" lon="24.898297052025967" id="-105352">
		<tag k="fixme" v="consider natural=peak for the most distinct mountains in the district" />
		<tag k="name" v="Gumppegielas" />
		<tag k="name:se" v="Gumppegielas" />
		<tag k="natural" v="hill" />
		<tag k="old_name:se" v="Gumpegielas" />
		<tag k="place" v="locality" />
		<tag k="ssr:stedsnr" v="202932" />
	</node>
	<node lat="70.62370278171426" lon="25.9934858324411" id="-105359">
		<tag k="fixme" v="consider natural=peak for the most distinct mountains in the district" />
		<tag k="name" v="Keaisaklubbu" />
		<tag k="name:no" v="Kjæsklubben" />
		<tag k="name:se" v="Keaisaklubbu" />
		<tag k="natural" v="hill" />
		<tag k="old_name:se" v="Kieaisaklubbu;Kæisaklubbo" />
		<tag k="place" v="locality" />
		<tag k="ssr:stedsnr" v="206479" />
	</node>
	<node lat="70.29407222897107" lon="25.566094204701134" id="-105364">
		<tag k="name" v="Vaaranrinnet" />
		<tag k="name:fkv" v="Vaaranrinnet" />
		<tag k="natural" v="slope" />
		<tag k="place" v="locality" />
		<tag k="ssr:stedsnr" v="213398" />
	</node>
	<node lat="70.27640834156024" lon="25.497249758252316" id="-105366">
		<tag k="name" v="Markitantie" />
		<tag k="name:fkv" v="Markitantie" />
		<tag k="natural" v="slope" />
		<tag k="place" v="locality" />
		<tag k="ssr:stedsnr" v="213418" />
	</node>
	<node lat="70.30996944666174" lon="25.472883106283717" id="-105368">
		<tag k="name" v="Errintörmä" />
		<tag k="name:fkv" v="Errintörmä" />
		<tag k="natural" v="slope" />
		<tag k="place" v="locality" />
		<tag k="ssr:stedsnr" v="213434" />
	</node>
	<node lat="70.33532500619192" lon="25.403366443276497" id="-105371">
		<tag k="name" v="Kirkkosokka" />
		<tag k="name:fkv" v="Kirkkosokka" />
		<tag k="natural" v="hill" />
		<tag k="place" v="locality" />
		<tag k="ssr:stedsnr" v="213635" />
	</node>
	<node lat="70.1485305647318" lon="25.275633114030544" id="-105378">
		<tag k="name" v="Kalkfjellet - Kalkkipahta" />
		<tag k="name:fkv" v="Kalkkipahta" />
		<tag k="name:no" v="Kalkfjellet" />
		<tag k="natural" v="hill" />
		<tag k="place" v="locality" />
		<tag k="ssr:stedsnr" v="214801" />
	</node>
	<node lat="70.4749611128909" lon="25.173038697600905" id="-105384">
		<tag k="fixme" v="consider natural=peak for the most distinct mountains in the district" />
		<tag k="name" v="Dulkkavárri" />
		<tag k="name:se" v="Dulkkavárri" />
		<tag k="natural" v="hill" />
		<tag k="place" v="locality" />
		<tag k="ssr:stedsnr" v="214941" />
	</node>
	<node lat="69.82401389824777" lon="25.135277556063677" id="-105387">
		<tag k="name" v="Ulvetoppen" />
		<tag k="natural" v="hill" />
		<tag k="place" v="locality" />
		<tag k="ssr:stedsnr" v="228046" />
	</node>
	<node lat="70.25175000948417" lon="25.430602560338464" id="-105388">
		<tag k="name" v="Panniniemensokka" />
		<tag k="name:fkv" v="Panniniemensokka" />
		<tag k="natural" v="hill" />
		<tag k="place" v="locality" />
		<tag k="ssr:stedsnr" v="274273" />
	</node>
	<node lat="70.06318889827782" lon="25.144994229184725" id="-105389">
		<tag k="name" v="Marivanlaatas" />
		<tag k="name:fkv" v="Marivanlaatas" />
		<tag k="place" v="locality" />
		<tag k="ssr:stedsnr" v="274057" />
	</node>
	<node lat="70.48859444839731" lon="25.046102581841204" id="-105391">
		<tag k="name" v="Trollberget" />
		<tag k="natural" v="hill" />
		<tag k="place" v="locality" />
		<tag k="ssr:stedsnr" v="274254" />
	</node>
	<node lat="70.25391667589545" lon="25.456063645329678" id="-105392">
		<tag k="name" v="Toppen" />
		<tag k="natural" v="hill" />
		<tag k="place" v="locality" />
		<tag k="ssr:stedsnr" v="274266" />
	</node>
	<node lat="70.4728611150354" lon="25.700671966281977" id="-105395">
		<tag k="fixme" v="consider natural=peak for the most distinct mountains in the district" />
		<tag k="name" v="Guovžajávrremaras" />
		<tag k="name:se" v="Guovžajávrremaras" />
		<tag k="natural" v="hill" />
		<tag k="place" v="locality" />
		<tag k="ssr:stedsnr" v="274699" />
	</node>
	<node lat="70.29211667277242" lon="25.539894195507284" id="-105396">
		<tag k="name" v="Susihautaluokka" />
		<tag k="name:fkv" v="Susihautaluokka" />
		<tag k="natural" v="slope" />
		<tag k="place" v="locality" />
		<tag k="ssr:stedsnr" v="274358" />
	</node>
	<node lat="70.05011389408082" lon="25.168044239745157" id="-105399">
		<tag k="fixme" v="consider natural=peak for the most distinct mountains in the district" />
		<tag k="name" v="Lovtivärampä" />
		<tag k="name:fkv" v="Lovtivärampä" />
		<tag k="natural" v="hill" />
		<tag k="place" v="locality" />
		<tag k="ssr:stedsnr" v="274459" />
	</node>
	<node lat="70.39932778311822" lon="25.59145252678942" id="-105403">
		<tag k="name" v="Fielmasokka" />
		<tag k="name:fkv" v="Fielmasokka" />
		<tag k="natural" v="hill" />
		<tag k="place" v="locality" />
		<tag k="ssr:stedsnr" v="274554" />
	</node>
	<node lat="70.1233333384324" lon="24.717769260751293" id="-105404">
		<tag k="fixme" v="consider natural=peak for the most distinct mountains in the district" />
		<tag k="name" v="Biŋalvárri" />
		<tag k="name:se" v="Biŋalvárri" />
		<tag k="natural" v="hill" />
		<tag k="place" v="locality" />
		<tag k="ssr:stedsnr" v="275773" />
	</node>
	<node lat="70.62410000606931" lon="25.974827499630532" id="-105410">
		<tag k="name" v="Galbmádjatskárru" />
		<tag k="name:se" v="Galbmádjatskárru" />
		<tag k="natural" v="valley" />
		<tag k="place" v="locality" />
		<tag k="ssr:stedsnr" v="288775" />
	</node>
	<node lat="70.04527778804916" lon="25.889460813342087" id="-105432">
		<tag k="name" v="Guivveráššaleahki" />
		<tag k="name:se" v="Guivveráššaleahki" />
		<tag k="natural" v="valley" />
		<tag k="old_name:se" v="Guiveraššalækki" />
		<tag k="place" v="locality" />
		<tag k="ssr:stedsnr" v="322352" />
	</node>
	<node lat="69.9166055604178" lon="25.15929978502038" id="-105439">
		<tag k="fixme" v="consider natural=peak for the most distinct mountains in the district" />
		<tag k="name" v="Mielkejárráhppát" />
		<tag k="name:se" v="Mielkejárráhppát" />
		<tag k="natural" v="hill" />
		<tag k="old_name:se" v="Mielkejarrappat" />
		<tag k="place" v="locality" />
		<tag k="ssr:stedsnr" v="322553" />
	</node>
	<node lat="69.9234416708788" lon="25.044852563248305" id="-105441">
		<tag k="fixme" v="consider natural=peak for the most distinct mountains in the district" />
		<tag k="name" v="Dápmotvárri" />
		<tag k="name:se" v="Dápmotvárri" />
		<tag k="natural" v="hill" />
		<tag k="old_name:se" v="Dabmutvarri" />
		<tag k="place" v="locality" />
		<tag k="ssr:stedsnr" v="322559" />
	</node>
	<node lat="70.54466667652517" lon="25.891474740766057" id="-105488">
		<tag k="name" v="Geašvađđa" />
		<tag k="name:se" v="Geašvađđa" />
		<tag k="old_name:se" v="Gæšvađđa" />
		<tag k="place" v="locality" />
		<tag k="ssr:stedsnr" v="323600" />
	</node>
	<node lat="70.58413056084953" lon="25.18627203522077" id="-105494">
		<tag k="name" v="Stuorravággi" />
		<tag k="name:se" v="Stuorravággi" />
		<tag k="natural" v="valley" />
		<tag k="old_name:se" v="Stuorravaggi" />
		<tag k="place" v="locality" />
		<tag k="ssr:stedsnr" v="323895" />
	</node>
	<node lat="70.55429445065622" lon="25.163649819770765" id="-105496">
		<tag k="name" v="Beatnatvággi" />
		<tag k="name:se" v="Beatnatvággi" />
		<tag k="natural" v="valley" />
		<tag k="old_name:se" v="Bædnatvaggi" />
		<tag k="place" v="locality" />
		<tag k="ssr:stedsnr" v="323934" />
	</node>
	<node lat="70.72763333972735" lon="25.505202553567578" id="-105497">
		<tag k="alt_name:se" v="Juovvárvárri" />
		<tag k="fixme" v="consider natural=peak for the most distinct mountains in the district" />
		<tag k="name" v="Juovvavárri" />
		<tag k="name:se" v="Juovvavárri" />
		<tag k="natural" v="hill" />
		<tag k="old_name:se" v="Juovvavarri" />
		<tag k="place" v="locality" />
		<tag k="ssr:stedsnr" v="323937" />
	</node>
	<node lat="70.51383889374152" lon="25.02383314957778" id="-105499">
		<tag k="fixme" v="consider natural=peak for the most distinct mountains in the district" />
		<tag k="name" v="Rivdnjegielas" />
		<tag k="name:se" v="Rivdnjegielas" />
		<tag k="natural" v="hill" />
		<tag k="place" v="locality" />
		<tag k="ssr:stedsnr" v="323959" />
	</node>
	<node lat="70.67806667360246" lon="25.44657756287629" id="-105504">
		<tag k="fixme" v="consider natural=peak for the most distinct mountains in the district" />
		<tag k="name" v="Čielkavárri" />
		<tag k="name:se" v="Čielkavárri" />
		<tag k="natural" v="hill" />
		<tag k="old_name:se" v="Cielkavarri;Čielkávárri" />
		<tag k="place" v="locality" />
		<tag k="ssr:stedsnr" v="323995" />
	</node>
	<node lat="70.54721945016605" lon="25.15423869290903" id="-105521">
		<tag k="name" v="Ruohkkebákti - Alkeberget" />
		<tag k="name:no" v="Alkeberget" />
		<tag k="name:se" v="Ruohkkebákti" />
		<tag k="natural" v="hill" />
		<tag k="old_name:se" v="Ruokkebakti" />
		<tag k="place" v="locality" />
		<tag k="ssr:stedsnr" v="329940" />
	</node>
	<node lat="70.54422778251507" lon="25.82244973853794" id="-105522">
		<tag k="name" v="Biedjočohkka" />
		<tag k="name:se" v="Biedjočohkka" />
		<tag k="natural" v="hill" />
		<tag k="place" v="locality" />
		<tag k="ssr:stedsnr" v="333083" />
	</node>
	<node lat="70.50271111940732" lon="25.729944190898685" id="-105524">
		<tag k="name" v="Muonsaskoppi" />
		<tag k="name:se" v="Muonsaskoppi" />
		<tag k="natural" v="valley" />
		<tag k="place" v="locality" />
		<tag k="ssr:stedsnr" v="333382" />
	</node>
	<node lat="70.45910556018679" lon="25.204849801239288" id="-105526">
		<tag k="name" v="Grytellvuoppa - Doktorgropa" />
		<tag k="name:no" v="Doktorgropa" />
		<tag k="name:se" v="Grytellvuoppa" />
		<tag k="natural" v="valley" />
		<tag k="place" v="locality" />
		<tag k="ssr:stedsnr" v="334326" />
	</node>
	<node lat="70.06038611976896" lon="25.14040812676123" id="-105527">
		<tag k="name" v="Lassintieva" />
		<tag k="name:fkv" v="Lassintieva" />
		<tag k="natural" v="hill" />
		<tag k="place" v="locality" />
		<tag k="ssr:stedsnr" v="335056" />
	</node>
	<node lat="70.4848611171101" lon="24.978569274102767" id="-105530">
		<tag k="fixme" v="consider natural=peak for the most distinct mountains in the district" />
		<tag k="name" v="Vardatčohkka" />
		<tag k="name:se" v="Vardatčohkka" />
		<tag k="natural" v="hill" />
		<tag k="place" v="locality" />
		<tag k="ssr:stedsnr" v="335235" />
	</node>
	<node lat="70.02940834431327" lon="24.944094248282596" id="-105533">
		<tag k="name" v="Lotsamällä" />
		<tag k="name:fkv" v="Lotsamällä" />
		<tag k="natural" v="slope" />
		<tag k="place" v="locality" />
		<tag k="ssr:stedsnr" v="335383" />
	</node>
	<node lat="70.29225278609582" lon="25.498835865814442" id="-105535">
		<tag k="name" v="Piipahta" />
		<tag k="name:fkv" v="Piipahta" />
		<tag k="natural" v="hill" />
		<tag k="place" v="locality" />
		<tag k="ssr:stedsnr" v="335399" />
	</node>
	<node lat="70.4456361203959" lon="25.638221974721933" id="-105538">
		<tag k="name" v="Barffičorut" />
		<tag k="name:se" v="Barffičorut" />
		<tag k="natural" v="hill" />
		<tag k="place" v="locality" />
		<tag k="ssr:stedsnr" v="335765" />
	</node>
	<node lat="70.4078222301659" lon="25.237644239154886" id="-105540">
		<tag k="name" v="Ráigečohkka" />
		<tag k="name:se" v="Ráigečohkka" />
		<tag k="natural" v="hill" />
		<tag k="place" v="locality" />
		<tag k="ssr:stedsnr" v="335476" />
	</node>
	<node lat="70.31859167750284" lon="25.5359192122446" id="-105541">
		<tag k="name" v="Pikkupajaluokka" />
		<tag k="name:fkv" v="Pikkupajaluokka" />
		<tag k="natural" v="slope" />
		<tag k="place" v="locality" />
		<tag k="ssr:stedsnr" v="335477" />
	</node>
	<node lat="70.2100500109524" lon="24.924669253754214" id="-105545">
		<tag k="name" v="Uhcačohkka" />
		<tag k="name:se" v="Uhcačohkka" />
		<tag k="natural" v="hill" />
		<tag k="place" v="locality" />
		<tag k="ssr:stedsnr" v="335863" />
	</node>
	<node lat="70.06876389563382" lon="24.39419984746906" id="-105557">
		<tag k="fixme" v="consider natural=peak for the most distinct mountains in the district" />
		<tag k="name" v="Allagielas" />
		<tag k="name:se" v="Allagielas" />
		<tag k="natural" v="hill" />
		<tag k="place" v="locality" />
		<tag k="ssr:stedsnr" v="383021" />
	</node>
	<node lat="70.12967778005822" lon="24.433072068741144" id="-105559">
		<tag k="fixme" v="consider natural=peak for the most distinct mountains in the district" />
		<tag k="name" v="Ordavárstealli" />
		<tag k="name:se" v="Ordavárstealli" />
		<tag k="natural" v="hill" />
		<tag k="old_name:se" v="Årdavarstælli" />
		<tag k="place" v="locality" />
		<tag k="ssr:stedsnr" v="383037" />
	</node>
	<node lat="70.37986389692892" lon="25.83359140797789" id="-105580">
		<tag k="fixme" v="consider natural=peak for the most distinct mountains in the district" />
		<tag k="name" v="Máttavieksa" />
		<tag k="name:se" v="Máttavieksa" />
		<tag k="natural" v="hill" />
		<tag k="old_name:se" v="Maddavieksa" />
		<tag k="place" v="locality" />
		<tag k="ssr:stedsnr" v="383288" />
	</node>
	<node lat="69.84538056632259" lon="25.01692756872328" id="-105588">
		<tag k="fixme" v="consider natural=peak for the most distinct mountains in the district" />
		<tag k="name" v="Suoidnenjárčohkat" />
		<tag k="name:se" v="Suoidnenjárčohkat" />
		<tag k="natural" v="hill" />
		<tag k="old_name:se" v="Suoidnenjarčåkkat" />
		<tag k="place" v="locality" />
		<tag k="ssr:stedsnr" v="383539" />
	</node>
	<node lat="69.93538889849523" lon="24.870405375534986" id="-105600">
		<tag k="fixme" v="consider natural=peak for the most distinct mountains in the district" />
		<tag k="name" v="Jorggastatvárri" />
		<tag k="name:se" v="Jorggastatvárri" />
		<tag k="natural" v="hill" />
		<tag k="old_name:se" v="Jårgastatvarri" />
		<tag k="place" v="locality" />
		<tag k="ssr:stedsnr" v="383580" />
	</node>
	<node lat="69.8958222315334" lon="24.75824981677974" id="-105601">
		<tag k="fixme" v="consider natural=peak for the most distinct mountains in the district" />
		<tag k="name" v="Ruitogáisá" />
		<tag k="name:se" v="Ruitogáisá" />
		<tag k="natural" v="hill" />
		<tag k="old_name:se" v="Ruitugaisa" />
		<tag k="place" v="locality" />
		<tag k="ssr:stedsnr" v="383585" />
	</node>
	<node lat="69.91185555949164" lon="24.814952579990972" id="-105603">
		<tag k="name" v="Girrabohki" />
		<tag k="name:se" v="Girrabohki" />
		<tag k="natural" v="valley" />
		<tag k="old_name:se" v="Girrabåkki" />
		<tag k="place" v="locality" />
		<tag k="ssr:stedsnr" v="383595" />
	</node>
	<node lat="69.86581389735613" lon="24.486666511133883" id="-105605">
		<tag k="name" v="Boldnevuopmi" />
		<tag k="name:se" v="Boldnevuopmi" />
		<tag k="natural" v="valley" />
		<tag k="old_name:se" v="Båldnevuobmi" />
		<tag k="place" v="locality" />
		<tag k="ssr:stedsnr" v="383703" />
	</node>
	<node lat="69.86776389364876" lon="25.406655315692664" id="-105609">
		<tag k="fixme" v="consider natural=peak for the most distinct mountains in the district" />
		<tag k="name" v="Leavššágielas" />
		<tag k="name:se" v="Leavššágielas" />
		<tag k="natural" v="hill" />
		<tag k="old_name:se" v="Lævšagielas" />
		<tag k="place" v="locality" />
		<tag k="ssr:stedsnr" v="383930" />
	</node>
	<node lat="69.91430000652458" lon="25.56829972238141" id="-105610">
		<tag k="fixme" v="consider natural=peak for the most distinct mountains in the district" />
		<tag k="name" v="Vánššnjunis" />
		<tag k="name:se" v="Vánššnjunis" />
		<tag k="natural" v="hill" />
		<tag k="old_name:se" v="Vanšnjunis;Vánšnjunis" />
		<tag k="place" v="locality" />
		<tag k="ssr:stedsnr" v="383942" />
	</node>
	<node lat="70.70385000993356" lon="25.498177557886095" id="-105611">
		<tag k="fixme" v="consider natural=peak for the most distinct mountains in the district" />
		<tag k="name" v="Davit Áhpeluokčohkka" />
		<tag k="name:se" v="Davit Áhpeluokčohkka" />
		<tag k="natural" v="hill" />
		<tag k="old_name:se" v="Appeluokčåkka, davit" />
		<tag k="place" v="locality" />
		<tag k="ssr:stedsnr" v="383961" />
	</node>
	<node lat="70.6360416747382" lon="25.328413694601185" id="-105615">
		<tag k="name" v="Skoddetoppen" />
		<tag k="natural" v="hill" />
		<tag k="place" v="locality" />
		<tag k="ssr:stedsnr" v="383977" />
	</node>
	<node lat="70.58355278883661" lon="25.9780108356967" id="-105627">
		<tag k="fixme" v="consider natural=peak for the most distinct mountains in the district" />
		<tag k="name" v="Čielgevárri" />
		<tag k="name:se" v="Čielgevárri" />
		<tag k="natural" v="hill" />
		<tag k="old_name:se" v="Čielgevarri" />
		<tag k="place" v="locality" />
		<tag k="ssr:stedsnr" v="384557" />
	</node>
	<node lat="70.27405834483821" lon="25.556333091762802" id="-105645">
		<tag k="name" v="Leväjärventievat" />
		<tag k="name:fkv" v="Leväjärventievat" />
		<tag k="natural" v="hill" />
		<tag k="place" v="locality" />
		<tag k="ssr:stedsnr" v="395397" />
	</node>
	<node lat="70.32286111834263" lon="25.565155305803227" id="-105652">
		<tag k="name" v="Luponlaatas" />
		<tag k="name:fkv" v="Luponlaatas" />
		<tag k="place" v="locality" />
		<tag k="ssr:stedsnr" v="395449" />
	</node>
	<node lat="70.39826111908647" lon="25.51379975708648" id="-105655">
		<tag k="name" v="Fiervalaattakka" />
		<tag k="name:fkv" v="Fiervalaattakka" />
		<tag k="natural" v="hill" />
		<tag k="place" v="locality" />
		<tag k="ssr:stedsnr" v="395566" />
	</node>
	<node lat="70.32313056627099" lon="25.483285883683326" id="-105658">
		<tag k="name" v="Haapaluokka" />
		<tag k="name:fkv" v="Haapaluokka" />
		<tag k="natural" v="slope" />
		<tag k="place" v="locality" />
		<tag k="ssr:stedsnr" v="395483" />
	</node>
	<node lat="70.32521667555014" lon="25.420616430630115" id="-105660">
		<tag k="name" v="Iisakinkuru" />
		<tag k="name:fkv" v="Iisakinkuru" />
		<tag k="natural" v="valley" />
		<tag k="place" v="locality" />
		<tag k="ssr:stedsnr" v="395653" />
	</node>
	<node lat="70.19622500829625" lon="24.849958164836014" id="-105669">
		<tag k="name" v="Niitoguolbba" />
		<tag k="name:se" v="Niitoguolbba" />
		<tag k="place" v="locality" />
		<tag k="ssr:stedsnr" v="396759" />
	</node>
	<node lat="70.62488055947468" lon="26.054902496076878" id="-105673">
		<tag k="name" v="Loktagárdat" />
		<tag k="name:se" v="Loktagárdat" />
		<tag k="natural" v="slope" />
		<tag k="place" v="locality" />
		<tag k="ssr:stedsnr" v="409788" />
	</node>
	<node lat="70.55950556133004" lon="25.84714140780552" id="-105674">
		<tag k="name" v="Skuolfenjunni" />
		<tag k="name:se" v="Skuolfenjunni" />
		<tag k="place" v="locality" />
		<tag k="ssr:stedsnr" v="410032" />
	</node>
	<node lat="70.55138055923435" lon="25.973344178800616" id="-105675">
		<tag k="fixme" v="consider natural=peak for the most distinct mountains in the district" />
		<tag k="name" v="Njukčaoaivi" />
		<tag k="name:se" v="Njukčaoaivi" />
		<tag k="natural" v="hill" />
		<tag k="place" v="locality" />
		<tag k="ssr:stedsnr" v="410060" />
	</node>
	<node lat="70.01325555582824" lon="24.369830416571972" id="-105685">
		<tag k="fixme" v="consider natural=peak for the most distinct mountains in the district" />
		<tag k="name" v="Eirrámáhtegielas" />
		<tag k="name:se" v="Eirrámáhtegielas" />
		<tag k="natural" v="hill" />
		<tag k="old_name:se" v="Eiramattegielas" />
		<tag k="place" v="locality" />
		<tag k="ssr:stedsnr" v="444050" />
	</node>
	<node lat="70.51268889787421" lon="25.77533587012265" id="-105715">
		<tag k="name" v="Muvroaivi - Myrhaug" />
		<tag k="name:no" v="Myrhaug" />
		<tag k="name:se" v="Muvroaivi" />
		<tag k="natural" v="hill" />
		<tag k="place" v="locality" />
		<tag k="ssr:stedsnr" v="444493" />
	</node>
	<node lat="69.97610000507319" lon="24.895252586262977" id="-105717">
		<tag k="fixme" v="consider natural=peak for the most distinct mountains in the district" />
		<tag k="name" v="Meardevárri" />
		<tag k="name:se" v="Meardevárri" />
		<tag k="natural" v="hill" />
		<tag k="old_name:se" v="Mærdevarri" />
		<tag k="place" v="locality" />
		<tag k="ssr:stedsnr" v="444524" />
	</node>
	<node lat="69.9872222348839" lon="25.732185826576266" id="-105725">
		<tag k="fixme" v="consider natural=peak for the most distinct mountains in the district" />
		<tag k="name" v="Goadjingielas" />
		<tag k="name:se" v="Goadjingielas" />
		<tag k="natural" v="hill" />
		<tag k="old_name:se" v="Goaggingielas" />
		<tag k="place" v="locality" />
		<tag k="ssr:stedsnr" v="444561" />
	</node>
	<node lat="69.95110278970785" lon="25.330169198256723" id="-105726">
		<tag k="name" v="Čahkalávži" />
		<tag k="name:se" v="Čahkalávži" />
		<tag k="natural" v="valley" />
		<tag k="old_name:se" v="Čakkalavži" />
		<tag k="place" v="locality" />
		<tag k="ssr:stedsnr" v="444565" />
	</node>
	<node lat="69.95708889617444" lon="25.592758073108268" id="-105727">
		<tag k="fixme" v="consider natural=peak for the most distinct mountains in the district" />
		<tag k="name" v="Goartilgáisá" />
		<tag k="name:se" v="Goartilgáisá" />
		<tag k="natural" v="hill" />
		<tag k="old_name:se" v="Goartilgaisa" />
		<tag k="place" v="locality" />
		<tag k="ssr:stedsnr" v="444566" />
	</node>
	<node lat="69.94030833826818" lon="25.40176642363258" id="-105728">
		<tag k="fixme" v="consider natural=peak for the most distinct mountains in the district" />
		<tag k="loc_name:fkv" v="Halkkavaara" />
		<tag k="name" v="Hálkavárri" />
		<tag k="name:se" v="Hálkavárri" />
		<tag k="natural" v="hill" />
		<tag k="old_name:se" v="Halkavarri" />
		<tag k="place" v="locality" />
		<tag k="ssr:stedsnr" v="444573" />
	</node>
	<node lat="69.83952778564961" lon="25.40901920071059" id="-105734">
		<tag k="name" v="Leavššáčohkka" />
		<tag k="name:se" v="Leavššáčohkka" />
		<tag k="natural" v="hill" />
		<tag k="old_name:se" v="Lævšačåkka" />
		<tag k="place" v="locality" />
		<tag k="ssr:stedsnr" v="444911" />
	</node>
	<node lat="69.856100012386" lon="25.60258028245859" id="-105736">
		<tag k="fixme" v="consider natural=peak for the most distinct mountains in the district" />
		<tag k="name" v="Suoloaivi" />
		<tag k="name:se" v="Suoloaivi" />
		<tag k="natural" v="hill" />
		<tag k="place" v="locality" />
		<tag k="ssr:stedsnr" v="444917" />
	</node>
	<node lat="69.77473612144254" lon="25.50601916640084" id="-105738">
		<tag k="fixme" v="consider natural=peak for the most distinct mountains in the district" />
		<tag k="name" v="Duolljeluhččenčopma" />
		<tag k="name:se" v="Duolljeluhččenčopma" />
		<tag k="natural" v="hill" />
		<tag k="old_name:se" v="Duolljelučcenčåbma" />
		<tag k="place" v="locality" />
		<tag k="ssr:stedsnr" v="444992" />
	</node>
	<node lat="69.77090556506855" lon="25.478346947895385" id="-105739">
		<tag k="name" v="Čuoldajárgielas" />
		<tag k="name:se" v="Čuoldajárgielas" />
		<tag k="natural" v="hill" />
		<tag k="old_name:se" v="Čuoldajargielas" />
		<tag k="place" v="locality" />
		<tag k="ssr:stedsnr" v="444994" />
	</node>
	<node lat="70.34070556819063" lon="25.973352493038508" id="-105763">
		<tag k="name" v="Geinnodatleahki" />
		<tag k="name:se" v="Geinnodatleahki" />
		<tag k="natural" v="valley" />
		<tag k="old_name:se" v="Geinudatlækki" />
		<tag k="place" v="locality" />
		<tag k="ssr:stedsnr" v="445549" />
	</node>
	<node lat="70.60989445091228" lon="26.082683042774832" id="-105765">
		<tag k="fixme" v="consider natural=peak for the most distinct mountains in the district" />
		<tag k="name" v="Čoarvečohkka" />
		<tag k="name:se" v="Čoarvečohkka" />
		<tag k="natural" v="hill" />
		<tag k="old_name:se" v="Čoarvečåkka" />
		<tag k="place" v="locality" />
		<tag k="ssr:stedsnr" v="445568" />
	</node>
	<node lat="69.85871112171047" lon="25.2114386734093" id="-105794">
		<tag k="fixme" v="consider natural=peak for the most distinct mountains in the district" />
		<tag k="name" v="Muvravárri" />
		<tag k="name:se" v="Muvravárri" />
		<tag k="natural" v="hill" />
		<tag k="old_name:se" v="Muvravarri" />
		<tag k="place" v="locality" />
		<tag k="ssr:stedsnr" v="504527" />
	</node>
	<node lat="69.92578056335859" lon="24.704035925387817" id="-105797">
		<tag k="fixme" v="consider natural=peak for the most distinct mountains in the district" />
		<tag k="name" v="Oppardatčohkka" />
		<tag k="name:se" v="Oppardatčohkka" />
		<tag k="natural" v="hill" />
		<tag k="old_name:se" v="Åbbardatčåkka" />
		<tag k="place" v="locality" />
		<tag k="ssr:stedsnr" v="504559" />
	</node>
	<node lat="69.93050834305734" lon="25.002658138577445" id="-105798">
		<tag k="fixme" v="consider natural=peak for the most distinct mountains in the district" />
		<tag k="name" v="Bráhkkavárri" />
		<tag k="name:se" v="Bráhkkavárri" />
		<tag k="natural" v="hill" />
		<tag k="old_name:se" v="Brakkavarri" />
		<tag k="place" v="locality" />
		<tag k="ssr:stedsnr" v="504560" />
	</node>
	<node lat="70.66050833679834" lon="25.3952775617539" id="-105799">
		<tag k="fixme" v="consider natural=peak for the most distinct mountains in the district" />
		<tag k="name" v="Boahccamanvárri - Fløytvikfjell" />
		<tag k="name:no" v="Fløytvikfjell" />
		<tag k="name:se" v="Boahccamanvárri" />
		<tag k="natural" v="hill" />
		<tag k="old_name:se" v="Boaccamanvarri;Boaccamanvárri" />
		<tag k="place" v="locality" />
		<tag k="ssr:stedsnr" v="505989" />
	</node>
	<node lat="70.66236667259724" lon="25.35998590560316" id="-105800">
		<tag k="name" v="Svartvikhøgda" />
		<tag k="natural" v="hill" />
		<tag k="place" v="locality" />
		<tag k="ssr:stedsnr" v="505991" />
	</node>
	<node lat="69.77301945619897" lon="25.227546988974197" id="-105806">
		<tag k="name" v="Dollasainjunni" />
		<tag k="name:se" v="Dollasainjunni" />
		<tag k="natural" v="hill" />
		<tag k="old_name:se" v="Dållasajnjunni" />
		<tag k="place" v="locality" />
		<tag k="ssr:stedsnr" v="504885" />
	</node>
	<node lat="69.89916390163634" lon="25.378863645387266" id="-105808">
		<tag k="fixme" v="consider natural=peak for the most distinct mountains in the district" />
		<tag k="name" v="Guovdavárri" />
		<tag k="name:se" v="Guovdavárri" />
		<tag k="natural" v="hill" />
		<tag k="old_name:se" v="Guovdavarri" />
		<tag k="place" v="locality" />
		<tag k="ssr:stedsnr" v="504937" />
	</node>
	<node lat="69.77213334241846" lon="25.28343310422508" id="-105809">
		<tag k="fixme" v="consider natural=peak for the most distinct mountains in the district" />
		<tag k="name" v="Rissevárri" />
		<tag k="name:se" v="Rissevárri" />
		<tag k="natural" v="hill" />
		<tag k="old_name:se" v="Rissevarri" />
		<tag k="place" v="locality" />
		<tag k="ssr:stedsnr" v="504995" />
	</node>
	<node lat="70.34214167490552" lon="25.943666388703953" id="-105819">
		<tag k="fixme" v="consider natural=peak for the most distinct mountains in the district" />
		<tag k="name" v="Liŋkoaivi" />
		<tag k="name:se" v="Liŋkoaivi" />
		<tag k="natural" v="hill" />
		<tag k="old_name:se" v="Linkoaivi" />
		<tag k="place" v="locality" />
		<tag k="ssr:stedsnr" v="505285" />
	</node>
	<node lat="69.80725000549847" lon="25.32708307947194" id="-105860">
		<tag k="name" v="Bealjáidjalgadas" />
		<tag k="name:se" v="Bealjáidjalgadas" />
		<tag k="old_name:se" v="Bælljaidjalgadas" />
		<tag k="place" v="locality" />
		<tag k="ssr:stedsnr" v="505880" />
	</node>
	<node lat="70.21581389121404" lon="24.473347065971975" id="-105866">
		<tag k="fixme" v="consider natural=peak for the most distinct mountains in the district" />
		<tag k="name" v="Spoahkkoaivvit" />
		<tag k="name:se" v="Spoahkkoaivvit" />
		<tag k="natural" v="hill" />
		<tag k="old_name:se" v="Spoakkoaivit;Spoahkkuoaivvit" />
		<tag k="place" v="locality" />
		<tag k="ssr:stedsnr" v="505927" />
	</node>
	<node lat="70.20168889679874" lon="24.492330408815345" id="-105867">
		<tag k="fixme" v="consider natural=peak for the most distinct mountains in the district" />
		<tag k="name" v="Gilddosoaivi" />
		<tag k="name:se" v="Gilddosoaivi" />
		<tag k="natural" v="hill" />
		<tag k="old_name:se" v="Gildusoaivi" />
		<tag k="place" v="locality" />
		<tag k="ssr:stedsnr" v="505939" />
	</node>
	<node lat="69.84581667550647" lon="25.4179303087156" id="-105872">
		<tag k="fixme" v="consider natural=peak for the most distinct mountains in the district" />
		<tag k="name" v="Vásároaivi" />
		<tag k="name:se" v="Vásároaivi" />
		<tag k="natural" v="hill" />
		<tag k="old_name:se" v="Vasaroaivi;Vásaroaivi" />
		<tag k="place" v="locality" />
		<tag k="ssr:stedsnr" v="505891" />
	</node>
	<node lat="70.47665000680425" lon="25.04322758804866" id="-105896">
		<tag k="name" v="Brenthaugen" />
		<tag k="natural" v="hill" />
		<tag k="place" v="locality" />
		<tag k="ssr:stedsnr" v="517224" />
	</node>
	<node lat="70.31057223298966" lon="25.560177549483416" id="-105901">
		<tag k="name" v="Pitsipahta" />
		<tag k="name:fkv" v="Pitsipahta" />
		<tag k="natural" v="hill" />
		<tag k="place" v="locality" />
		<tag k="ssr:stedsnr" v="517389" />
	</node>
	<node lat="70.04821111481377" lon="24.95497759230853" id="-105902">
		<tag k="name" v="Itkolantomella" />
		<tag k="name:fkv" v="Itkolantomella" />
		<tag k="natural" v="slope" />
		<tag k="place" v="locality" />
		<tag k="ssr:stedsnr" v="517398" />
	</node>
	<node lat="70.03113889681785" lon="25.114435901641006" id="-105906">
		<tag k="name" v="Kurkkionväli" />
		<tag k="name:fkv" v="Kurkkionväli" />
		<tag k="place" v="locality" />
		<tag k="ssr:stedsnr" v="517485" />
	</node>
	<node lat="70.32831944905584" lon="25.50512198022456" id="-105907">
		<tag k="name" v="Kesäsijantieva" />
		<tag k="name:fkv" v="Kesäsijantieva" />
		<tag k="natural" v="hill" />
		<tag k="place" v="locality" />
		<tag k="ssr:stedsnr" v="517496" />
	</node>
	<node lat="70.47377778796063" lon="25.660858094003064" id="-105912">
		<tag k="name" v="Duoljjebákti" />
		<tag k="name:se" v="Duoljjebákti" />
		<tag k="natural" v="hill" />
		<tag k="place" v="locality" />
		<tag k="ssr:stedsnr" v="517741" />
	</node>
	<node lat="70.6212555628301" lon="25.97610805136039" id="-105920">
		<tag k="name" v="Siepmaskárru" />
		<tag k="name:se" v="Siepmaskárru" />
		<tag k="natural" v="valley" />
		<tag k="place" v="locality" />
		<tag k="ssr:stedsnr" v="530793" />
	</node>
	<node lat="70.5742555628126" lon="25.94164971971205" id="-105922">
		<tag k="fixme" v="consider natural=peak for the most distinct mountains in the district" />
		<tag k="name" v="Geašvat - Vestre Skeisfjell" />
		<tag k="name:no" v="Vestre Skeisfjell" />
		<tag k="name:se" v="Geašvat" />
		<tag k="natural" v="hill" />
		<tag k="place" v="locality" />
		<tag k="ssr:stedsnr" v="531041" />
	</node>
	<node lat="70.56822223257352" lon="25.989324736156362" id="-105923">
		<tag k="name" v="Gealda" />
		<tag k="name:se" v="Gealda" />
		<tag k="place" v="locality" />
		<tag k="ssr:stedsnr" v="531058" />
	</node>
	<node lat="70.58364445130759" lon="25.9870441790224" id="-105925">
		<tag k="name" v="Ovlládiavva" />
		<tag k="name:se" v="Ovlládiavva" />
		<tag k="natural" v="hill" />
		<tag k="place" v="locality" />
		<tag k="ssr:stedsnr" v="531065" />
	</node>
	<node lat="69.86831111725547" lon="24.944530357304888" id="-105973">
		<tag k="fixme" v="consider natural=peak for the most distinct mountains in the district" />
		<tag k="name" v="Gierdobákti" />
		<tag k="name:se" v="Gierdobákti" />
		<tag k="natural" v="hill" />
		<tag k="old_name:se" v="Gierdubakti" />
		<tag k="place" v="locality" />
		<tag k="ssr:stedsnr" v="565496" />
	</node>
	<node lat="70.08982500900365" lon="24.452419292639483" id="-105977">
		<tag k="fixme" v="consider natural=peak for the most distinct mountains in the district" />
		<tag k="name" v="Várdánčohkka" />
		<tag k="name:se" v="Várdánčohkka" />
		<tag k="natural" v="hill" />
		<tag k="old_name:se" v="Vardančåkka" />
		<tag k="place" v="locality" />
		<tag k="ssr:stedsnr" v="565427" />
	</node>
	<node lat="70.04903334127404" lon="24.12593320435313" id="-105978">
		<tag k="fixme" v="consider natural=peak for the most distinct mountains in the district" />
		<tag k="name" v="Bohkošoaivi" />
		<tag k="name:se" v="Bohkošoaivi" />
		<tag k="natural" v="hill" />
		<tag k="old_name:se" v="Båkkušoaivi" />
		<tag k="place" v="locality" />
		<tag k="ssr:stedsnr" v="565432" />
	</node>
	<node lat="69.98828334369222" lon="25.555699749726376" id="-105985">
		<tag k="fixme" v="consider natural=peak for the most distinct mountains in the district" />
		<tag k="name" v="Várdačopma" />
		<tag k="name:se" v="Várdačopma" />
		<tag k="natural" v="hill" />
		<tag k="old_name:se" v="Vardačåbma" />
		<tag k="place" v="locality" />
		<tag k="ssr:stedsnr" v="565571" />
	</node>
	<node lat="69.97427778586754" lon="25.716455282595632" id="-105991">
		<tag k="fixme" v="consider natural=peak for the most distinct mountains in the district" />
		<tag k="name" v="Oarji" />
		<tag k="name:se" v="Oarji" />
		<tag k="natural" v="hill" />
		<tag k="place" v="locality" />
		<tag k="ssr:stedsnr" v="565583" />
	</node>
	<node lat="69.94583611991374" lon="25.363824753417987" id="-105993">
		<tag k="name" v="Hálkavárlokta" />
		<tag k="name:se" v="Hálkavárlokta" />
		<tag k="old_name:se" v="Halkavarlåkta" />
		<tag k="place" v="locality" />
		<tag k="ssr:stedsnr" v="565588" />
	</node>
	<node lat="69.85617500653511" lon="25.086769239974" id="-105995">
		<tag k="alt_name:se" v="Rovčavárri" />
		<tag k="fixme" v="consider natural=peak for the most distinct mountains in the district" />
		<tag k="name" v="Rohčevárri" />
		<tag k="name:se" v="Rohčevárri" />
		<tag k="natural" v="hill" />
		<tag k="old_name:se" v="Råččevarri" />
		<tag k="place" v="locality" />
		<tag k="ssr:stedsnr" v="565509" />
	</node>
	<node lat="69.82506390010334" lon="24.732758143953387" id="-106000">
		<tag k="fixme" v="consider natural=peak for the most distinct mountains in the district" />
		<tag k="name" v="Guovžilseaibbuš" />
		<tag k="name:se" v="Guovžilseaibbuš" />
		<tag k="natural" v="hill" />
		<tag k="old_name:se" v="Guovžilsæiboš" />
		<tag k="place" v="locality" />
		<tag k="ssr:stedsnr" v="565524" />
	</node>
	<node lat="70.64518056262058" lon="26.012880285094518" id="-106003">
		<tag k="name" v="Stuorrapeaila" />
		<tag k="name:se" v="Stuorrapeaila" />
		<tag k="natural" v="valley" />
		<tag k="old_name:se" v="Stuorrapæila" />
		<tag k="place" v="locality" />
		<tag k="ssr:stedsnr" v="565538" />
	</node>
	<node lat="70.64452778307222" lon="26.028724736429165" id="-106004">
		<tag k="fixme" v="consider natural=peak for the most distinct mountains in the district" />
		<tag k="name" v="Guhttorvárri - Gottarfjell" />
		<tag k="name:no" v="Gottarfjell" />
		<tag k="name:se" v="Guhttorvárri" />
		<tag k="natural" v="hill" />
		<tag k="old_name:se" v="Gutturvarri" />
		<tag k="place" v="locality" />
		<tag k="ssr:stedsnr" v="565540" />
	</node>
	<node lat="70.68501945415667" lon="25.4182192422715" id="-106030">
		<tag k="fixme" v="consider natural=peak for the most distinct mountains in the district" />
		<tag k="name" v="Boarddavárri" />
		<tag k="name:se" v="Boarddavárri" />
		<tag k="natural" v="hill" />
		<tag k="old_name:se" v="Boardavarri" />
		<tag k="place" v="locality" />
		<tag k="ssr:stedsnr" v="565987" />
	</node>
	<node lat="70.65702500125929" lon="25.330063690992567" id="-106032">
		<tag k="name" v="Gálbbenjoaski" />
		<tag k="name:se" v="Gálbbenjoaski" />
		<tag k="natural" v="valley" />
		<tag k="old_name:se" v="Galbenjoaski" />
		<tag k="place" v="locality" />
		<tag k="ssr:stedsnr" v="565991" />
	</node>
	<node lat="70.5929111132957" lon="25.18014147006084" id="-106062">
		<tag k="fixme" v="consider natural=peak for the most distinct mountains in the district" />
		<tag k="name" v="Sieiddeguravárri" />
		<tag k="name:se" v="Sieiddeguravárri" />
		<tag k="natural" v="hill" />
		<tag k="old_name:se" v="Sieideguravarri" />
		<tag k="place" v="locality" />
		<tag k="ssr:stedsnr" v="566895" />
	</node>
	<node lat="70.59664166868376" lon="25.11923871018939" id="-106063">
		<tag k="fixme" v="consider natural=peak for the most distinct mountains in the district" />
		<tag k="name" v="Stohpovárri" />
		<tag k="name:se" v="Stohpovárri" />
		<tag k="natural" v="hill" />
		<tag k="old_name:se" v="Ståppuvarri" />
		<tag k="place" v="locality" />
		<tag k="ssr:stedsnr" v="566896" />
	</node>
	<node lat="70.49898611732432" lon="25.721721981836826" id="-106068">
		<tag k="name" v="Goaskinnjunni" />
		<tag k="name:se" v="Goaskinnjunni" />
		<tag k="place" v="locality" />
		<tag k="ssr:stedsnr" v="575324" />
	</node>
	<node lat="70.32665278321885" lon="25.637410851503322" id="-106071">
		<tag k="name" v="Pimmeeluppo" />
		<tag k="name:fkv" v="Pimmeeluppo" />
		<tag k="natural" v="valley" />
		<tag k="place" v="locality" />
		<tag k="ssr:stedsnr" v="577451" />
	</node>
	<node lat="70.25919445065092" lon="25.50204976802259" id="-106075">
		<tag k="name" v="Liikajoentieva" />
		<tag k="name:fkv" v="Liikajoentieva" />
		<tag k="natural" v="hill" />
		<tag k="place" v="locality" />
		<tag k="ssr:stedsnr" v="577272" />
	</node>
	<node lat="70.45463055879749" lon="25.20125534796779" id="-106080">
		<tag k="fixme" v="consider natural=peak for the most distinct mountains in the district" />
		<tag k="name" v="Elisatoppen" />
		<tag k="natural" v="hill" />
		<tag k="place" v="locality" />
		<tag k="ssr:stedsnr" v="577340" />
	</node>
	<node lat="70.45099167218142" lon="25.19252202733827" id="-106081">
		<tag k="name" v="Fyllelvdalen" />
		<tag k="natural" v="valley" />
		<tag k="place" v="locality" />
		<tag k="ssr:stedsnr" v="577341" />
	</node>
	<node lat="70.38045278032727" lon="25.520377543150296" id="-106082">
		<tag k="name" v="Einarinsokka" />
		<tag k="name:fkv" v="Einarinsokka" />
		<tag k="natural" v="hill" />
		<tag k="place" v="locality" />
		<tag k="ssr:stedsnr" v="577554" />
	</node>
	<node lat="70.31982223148171" lon="25.493855323683515" id="-106086">
		<tag k="name" v="Raasikuru" />
		<tag k="name:fkv" v="Raasikuru" />
		<tag k="natural" v="valley" />
		<tag k="place" v="locality" />
		<tag k="ssr:stedsnr" v="577469" />
	</node>
	<node lat="70.36425555947028" lon="25.475127554956245" id="-106087">
		<tag k="name" v="Kaitsifielmansokka" />
		<tag k="name:fkv" v="Kaitsifielmansokka" />
		<tag k="natural" v="hill" />
		<tag k="place" v="locality" />
		<tag k="ssr:stedsnr" v="577585" />
	</node>
	<node lat="70.44712778194885" lon="25.19364146317362" id="-106098">
		<tag k="name" v="Mosamuelbakken" />
		<tag k="natural" v="slope" />
		<tag k="place" v="locality" />
		<tag k="ssr:stedsnr" v="578328" />
	</node>
	<node lat="70.34248611491756" lon="25.45135810684172" id="-106099">
		<tag k="name" v="Korsa" />
		<tag k="natural" v="valley" />
		<tag k="place" v="locality" />
		<tag k="ssr:stedsnr" v="578475" />
	</node>
	<node lat="70.56085000939945" lon="25.851074735906433" id="-106103">
		<tag k="name" v="Gavdnječohkka" />
		<tag k="name:se" v="Gavdnječohkka" />
		<tag k="natural" v="hill" />
		<tag k="place" v="locality" />
		<tag k="ssr:stedsnr" v="591038" />
	</node>
	<node lat="70.57918056081117" lon="25.924660852131204" id="-106105">
		<tag k="name" v="Uhca Geašvat" />
		<tag k="name:se" v="Uhca Geašvat" />
		<tag k="natural" v="hill" />
		<tag k="place" v="locality" />
		<tag k="ssr:stedsnr" v="591076" />
	</node>
	<node lat="70.5850111187239" lon="26.01719415684284" id="-106106">
		<tag k="name" v="Skoahpat" />
		<tag k="name:se" v="Skoahpat" />
		<tag k="natural" v="valley" />
		<tag k="place" v="locality" />
		<tag k="ssr:stedsnr" v="591078" />
	</node>
	<node lat="69.75439445489786" lon="24.97303035154465" id="-106123">
		<tag k="fixme" v="consider natural=peak for the most distinct mountains in the district" />
		<tag k="name" v="Savgŋo-Luovosvárri" />
		<tag k="name:se" v="Savgŋo-Luovosvárri" />
		<tag k="natural" v="hill" />
		<tag k="old_name:se" v="Savgŋuluovsvarri;Savkŋoluovosvárri" />
		<tag k="place" v="locality" />
		<tag k="ssr:stedsnr" v="625618" />
	</node>
	<node lat="69.85897222540018" lon="24.495724835820624" id="-106132">
		<tag k="fixme" v="consider natural=peak for the most distinct mountains in the district" />
		<tag k="name" v="Boldnečohkka" />
		<tag k="name:se" v="Boldnečohkka" />
		<tag k="natural" v="hill" />
		<tag k="old_name:se" v="Båldnečåkka" />
		<tag k="place" v="locality" />
		<tag k="ssr:stedsnr" v="625699" />
	</node>
	<node lat="69.76121945173244" lon="25.277013650381367" id="-106138">
		<tag k="fixme" v="consider natural=peak for the most distinct mountains in the district" />
		<tag k="name" v="Čeavrresčohkka" />
		<tag k="name:se" v="Čeavrresčohkka" />
		<tag k="natural" v="hill" />
		<tag k="old_name:se" v="Čævresčåkka" />
		<tag k="place" v="locality" />
		<tag k="ssr:stedsnr" v="625989" />
	</node>
	<node lat="70.32556111870537" lon="26.00574136954148" id="-106151">
		<tag k="fixme" v="consider natural=peak for the most distinct mountains in the district" />
		<tag k="name" v="Ullogahpir" />
		<tag k="name:se" v="Ullogahpir" />
		<tag k="natural" v="hill" />
		<tag k="old_name:se" v="Ullugappir" />
		<tag k="place" v="locality" />
		<tag k="ssr:stedsnr" v="626382" />
	</node>
	<node lat="70.35903889394702" lon="25.88179972026762" id="-106153">
		<tag k="fixme" v="consider natural=peak for the most distinct mountains in the district" />
		<tag k="name" v="Čoalbmevárri" />
		<tag k="name:se" v="Čoalbmevárri" />
		<tag k="natural" v="hill" />
		<tag k="old_name:se" v="Coalbmevarri" />
		<tag k="place" v="locality" />
		<tag k="ssr:stedsnr" v="626286" />
	</node>
	<node lat="70.67729167042421" lon="25.298233144190956" id="-106168">
		<tag k="fixme" v="consider natural=peak for the most distinct mountains in the district" />
		<tag k="name" v="Unnahálddaš" />
		<tag k="name:se" v="Unnahálddaš" />
		<tag k="natural" v="hill" />
		<tag k="old_name:se" v="Unnahaldaš" />
		<tag k="place" v="locality" />
		<tag k="ssr:stedsnr" v="626989" />
	</node>
	<node lat="69.84760833858812" lon="25.315077546216468" id="-106173">
		<tag k="fixme" v="consider natural=peak for the most distinct mountains in the district" />
		<tag k="name" v="Sarvvesoaivi" />
		<tag k="name:se" v="Sarvvesoaivi" />
		<tag k="natural" v="hill" />
		<tag k="old_name:se" v="Sarvesoaivi" />
		<tag k="place" v="locality" />
		<tag k="ssr:stedsnr" v="626924" />
	</node>
	<node lat="69.8606000117031" lon="25.251763646069527" id="-106174">
		<tag k="fixme" v="consider natural=peak for the most distinct mountains in the district" />
		<tag k="name" v="Sarvvesnjunni" />
		<tag k="name:se" v="Sarvvesnjunni" />
		<tag k="natural" v="hill" />
		<tag k="old_name:se" v="Sarvesnjunni" />
		<tag k="place" v="locality" />
		<tag k="ssr:stedsnr" v="626931" />
	</node>
	<node lat="69.73533334285611" lon="25.529863605488746" id="-106180">
		<tag k="fixme" v="consider natural=peak for the most distinct mountains in the district" />
		<tag k="name" v="Váddevárri" />
		<tag k="name:se" v="Váddevárri" />
		<tag k="natural" v="hill" />
		<tag k="old_name:se" v="Vaddevarri" />
		<tag k="place" v="locality" />
		<tag k="ssr:stedsnr" v="625404" />
	</node>
	<node lat="70.24727778452507" lon="25.415744207769716" id="-106193">
		<tag k="name" v="Ankarilahđensokka" />
		<tag k="name:fkv" v="Ankarilahđensokka" />
		<tag k="name:se" v="Áŋkkarluohčohkka" />
		<tag k="natural" v="hill" />
		<tag k="place" v="locality" />
		<tag k="ssr:stedsnr" v="627871" />
	</node>
	<node lat="70.37573056602263" lon="25.537460867508187" id="-106200">
		<tag k="name" v="Apmira" />
		<tag k="name:fkv" v="Apmira" />
		<tag k="name:se" v="Ápmir" />
		<tag k="natural" v="hill" />
		<tag k="place" v="locality" />
		<tag k="ssr:stedsnr" v="630921" />
	</node>
	<node lat="70.52216389834948" lon="25.805616406387383" id="-106205">
		<tag k="fixme" v="consider natural=peak for the most distinct mountains in the district" />
		<tag k="name" v="Goahtebuolža" />
		<tag k="name:se" v="Goahtebuolža" />
		<tag k="natural" v="hill" />
		<tag k="place" v="locality" />
		<tag k="ssr:stedsnr" v="636343" />
	</node>
	<node lat="70.06147222727623" lon="24.940977582055183" id="-106207">
		<tag k="name" v="Gárggodievvá" />
		<tag k="name:se" v="Gárggodievvá" />
		<tag k="natural" v="hill" />
		<tag k="place" v="locality" />
		<tag k="ssr:stedsnr" v="637017" />
	</node>
	<node lat="70.4673416693928" lon="25.12693870699134" id="-106210">
		<tag k="fixme" v="consider natural=peak for the most distinct mountains in the district" />
		<tag k="name" v="Rotnočohkka - Kistrandfjellet" />
		<tag k="name:no" v="Kistrandfjellet" />
		<tag k="name:se" v="Rotnočohkka" />
		<tag k="natural" v="hill" />
		<tag k="place" v="locality" />
		<tag k="ssr:stedsnr" v="637285" />
	</node>
	<node lat="70.02192778169736" lon="25.040652570253517" id="-106214">
		<tag k="name" v="Ildskogdalen - Korsonpuorrä" />
		<tag k="name:fkv" v="Korsonpuorrä" />
		<tag k="name:no" v="Ildskogdalen" />
		<tag k="natural" v="valley" />
		<tag k="place" v="locality" />
		<tag k="ssr:stedsnr" v="637391" />
	</node>
	<node lat="70.0327361207702" lon="25.02433312354194" id="-106215">
		<tag k="fixme" v="consider natural=peak for the most distinct mountains in the district" />
		<tag k="name" v="Korsonsälkä" />
		<tag k="name:fkv" v="Korsonsälkä" />
		<tag k="natural" v="hill" />
		<tag k="place" v="locality" />
		<tag k="ssr:stedsnr" v="637393" />
	</node>
	<node lat="70.3138194518271" lon="25.56626642659033" id="-106216">
		<tag k="name" v="Nikulhaantörmä" />
		<tag k="name:fkv" v="Nikulhaantörmä" />
		<tag k="natural" v="slope" />
		<tag k="place" v="locality" />
		<tag k="ssr:stedsnr" v="637399" />
	</node>
	<node lat="70.05550278863949" lon="25.118613682814757" id="-106221">
		<tag k="name" v="Gordetdievvá" />
		<tag k="name:se" v="Gordetdievvá" />
		<tag k="natural" v="hill" />
		<tag k="place" v="locality" />
		<tag k="ssr:stedsnr" v="637537" />
	</node>
	<node lat="70.43274723244816" lon="25.598005311008848" id="-106232">
		<tag k="name" v="Geaddjačohkka" />
		<tag k="name:se" v="Geaddjačohkka" />
		<tag k="natural" v="hill" />
		<tag k="place" v="locality" />
		<tag k="ssr:stedsnr" v="638450" />
	</node>
	<node lat="70.63487778414806" lon="25.993683066726128" id="-106244">
		<tag k="name" v="Skárfaluhča" />
		<tag k="name:se" v="Skárfaluhča" />
		<tag k="natural" v="hill" />
		<tag k="place" v="locality" />
		<tag k="ssr:stedsnr" v="653805" />
	</node>
	<node lat="70.0426777792326" lon="24.428572077526614" id="-106247">
		<tag k="fixme" v="consider natural=peak for the most distinct mountains in the district" />
		<tag k="name" v="Láhtenčeabet" />
		<tag k="name:se" v="Láhtenčeabet" />
		<tag k="natural" v="hill" />
		<tag k="old_name:se" v="Lattenčæbet" />
		<tag k="place" v="locality" />
		<tag k="ssr:stedsnr" v="747001" />
	</node>
	<node lat="69.95518612178887" lon="24.951969238884146" id="-106265">
		<tag k="name" v="Gáirresguolbba - Gairesmoen" />
		<tag k="name:no" v="Gairesmoen" />
		<tag k="name:se" v="Gáirresguolbba" />
		<tag k="old_name:se" v="Gairesguolba" />
		<tag k="place" v="locality" />
		<tag k="ssr:stedsnr" v="747529" />
	</node>
	<node lat="69.97888333953938" lon="25.68536917331224" id="-106290">
		<tag k="loc_name:se" v="Bissojohjalgadas" />
		<tag k="name" v="Bissojokjalgadas" />
		<tag k="name:se" v="Bissojokjalgadas" />
		<tag k="old_name:se" v="Bissujåkjalgadas" />
		<tag k="place" v="locality" />
		<tag k="ssr:stedsnr" v="747570" />
	</node>
	<node lat="69.94776112008394" lon="25.490838637514234" id="-106292">
		<tag k="name" v="Beavdeguolbba" />
		<tag k="name:se" v="Beavdeguolbba" />
		<tag k="old_name:se" v="Bævdeguolba" />
		<tag k="place" v="locality" />
		<tag k="ssr:stedsnr" v="747577" />
	</node>
	<node lat="69.81346111575407" lon="24.993113691532205" id="-106293">
		<tag k="name" v="Vuolaoaivi" />
		<tag k="name:se" v="Vuolaoaivi" />
		<tag k="natural" v="hill" />
		<tag k="place" v="locality" />
		<tag k="ssr:stedsnr" v="747587" />
	</node>
	<node lat="69.79976667767994" lon="24.896399795961152" id="-106294">
		<tag k="fixme" v="consider natural=peak for the most distinct mountains in the district" />
		<tag k="name" v="Hánssaidčohkka" />
		<tag k="name:se" v="Hánssaidčohkka" />
		<tag k="natural" v="hill" />
		<tag k="old_name:se" v="Hansaidčåkka" />
		<tag k="place" v="locality" />
		<tag k="ssr:stedsnr" v="747595" />
	</node>
	<node lat="69.79811667311444" lon="25.333019192200954" id="-106299">
		<tag k="fixme" v="consider natural=peak for the most distinct mountains in the district" />
		<tag k="name" v="Bealjáidčohkat" />
		<tag k="name:se" v="Bealjáidčohkat" />
		<tag k="natural" v="hill" />
		<tag k="old_name:se" v="Bælljaidčåkkat" />
		<tag k="place" v="locality" />
		<tag k="ssr:stedsnr" v="747883" />
	</node>
	<node lat="69.91507500552973" lon="25.245685868258008" id="-106310">
		<tag k="fixme" v="consider natural=peak for the most distinct mountains in the district" />
		<tag k="name" v="Riebanašnjunni" />
		<tag k="name:se" v="Riebanašnjunni" />
		<tag k="natural" v="hill" />
		<tag k="place" v="locality" />
		<tag k="ssr:stedsnr" v="747937" />
	</node>
	<node lat="70.21194722762516" lon="24.36621097317798" id="-106312">
		<tag k="fixme" v="consider natural=peak for the most distinct mountains in the district" />
		<tag k="name" v="Spoahkkoaigielas" />
		<tag k="name:se" v="Spoahkkoaigielas" />
		<tag k="natural" v="hill" />
		<tag k="old_name:se" v="Spoakkoaigielas;Spoakkogielas" />
		<tag k="place" v="locality" />
		<tag k="ssr:stedsnr" v="747947" />
	</node>
	<node lat="70.69091389222383" lon="25.475513673109198" id="-106316">
		<tag k="fixme" v="consider natural=peak for the most distinct mountains in the district" />
		<tag k="name" v="Máttit Áhpeluokčohkka - Molviktind" />
		<tag k="name:no" v="Molviktind" />
		<tag k="name:se" v="Máttit Áhpeluokčohkka" />
		<tag k="natural" v="hill" />
		<tag k="old_name:se" v="Appeluokčåkka, maddit" />
		<tag k="place" v="locality" />
		<tag k="ssr:stedsnr" v="747983" />
	</node>
	<node lat="70.66201388981197" lon="25.277577583238813" id="-106318">
		<tag k="fixme" v="consider natural=peak for the most distinct mountains in the district" />
		<tag k="name" v="Gálbbenjoasvárri" />
		<tag k="name:se" v="Gálbbenjoasvárri" />
		<tag k="natural" v="hill" />
		<tag k="old_name:se" v="Galbenjoasvarri" />
		<tag k="place" v="locality" />
		<tag k="ssr:stedsnr" v="747990" />
	</node>
	<node lat="70.75527222718677" lon="25.314091484890614" id="-106320">
		<tag k="fixme" v="consider natural=peak for the most distinct mountains in the district" />
		<tag k="name" v="Øretind" />
		<tag k="natural" v="hill" />
		<tag k="place" v="locality" />
		<tag k="ssr:stedsnr" v="748086" />
	</node>
	<node lat="70.58728889779827" lon="25.964844161712534" id="-106332">
		<tag k="fixme" v="multiple name tags, choose one and add the other to alt_name; consider natural=peak for the most distinct mountains in the district" />
		<tag k="name" v="Šákšavárri;Čeaksavárri" />
		<tag k="name:se" v="Šákšavárri;Čeaksavárri" />
		<tag k="natural" v="hill" />
		<tag k="old_name:se" v="Čæksavarri" />
		<tag k="place" v="locality" />
		<tag k="ssr:stedsnr" v="748598" />
	</node>
	<node lat="70.52365278203615" lon="24.808113726812355" id="-106342">
		<tag k="fixme" v="consider natural=peak for the most distinct mountains in the district" />
		<tag k="name" v="Lulit Miessoaivi" />
		<tag k="name:se" v="Lulit Miessoaivi" />
		<tag k="natural" v="hill" />
		<tag k="old_name:se" v="Miessoaivi, lulit" />
		<tag k="place" v="locality" />
		<tag k="ssr:stedsnr" v="748923" />
	</node>
	<node lat="70.54620278087647" lon="25.032669262726383" id="-106343">
		<tag k="fixme" v="consider natural=peak for the most distinct mountains in the district" />
		<tag k="name" v="Gussoaivi" />
		<tag k="name:se" v="Gussoaivi" />
		<tag k="natural" v="hill" />
		<tag k="place" v="locality" />
		<tag k="ssr:stedsnr" v="748945" />
	</node>
	<node lat="70.54639722736314" lon="25.04343037947121" id="-106344">
		<tag k="name" v="Dollevággi - Brennelvdalen" />
		<tag k="name:no" v="Brennelvdalen" />
		<tag k="name:se" v="Dollevággi" />
		<tag k="natural" v="valley" />
		<tag k="old_name:se" v="Dållevaggi" />
		<tag k="place" v="locality" />
		<tag k="ssr:stedsnr" v="748946" />
	</node>
	<node lat="70.06620833689747" lon="25.15500533158744" id="-106357">
		<tag k="name" v="Gorkečohkka" />
		<tag k="name:se" v="Gorkečohkka" />
		<tag k="natural" v="hill" />
		<tag k="place" v="locality" />
		<tag k="ssr:stedsnr" v="759067" />
	</node>
	<node lat="70.49994445511169" lon="25.699055305913948" id="-106359">
		<tag k="name" v="Borttibákti" />
		<tag k="name:se" v="Borttibákti" />
		<tag k="natural" v="hill" />
		<tag k="place" v="locality" />
		<tag k="ssr:stedsnr" v="757358" />
	</node>
	<node lat="70.49158889516984" lon="25.76101641117747" id="-106362">
		<tag k="name" v="Buollánroahppi" />
		<tag k="name:se" v="Buollánroahppi" />
		<tag k="natural" v="slope" />
		<tag k="place" v="locality" />
		<tag k="ssr:stedsnr" v="757390" />
	</node>
	<node lat="70.45109167737301" lon="25.184744239239116" id="-106363">
		<tag k="name" v="Gropa" />
		<tag k="natural" v="valley" />
		<tag k="place" v="locality" />
		<tag k="ssr:stedsnr" v="759322" />
	</node>
	<node lat="70.39959445133007" lon="25.558991432475494" id="-106371">
		<tag k="name" v="Návrrašmielli - Naurismella" />
		<tag k="name:fkv" v="Naurismella" />
		<tag k="name:se" v="Návrrašmielli" />
		<tag k="natural" v="slope" />
		<tag k="place" v="locality" />
		<tag k="ssr:stedsnr" v="759558" />
	</node>
	<node lat="69.99994722617598" lon="25.122288671283417" id="-106374">
		<tag k="name" v="Furuflaten" />
		<tag k="place" v="locality" />
		<tag k="ssr:stedsnr" v="759427" />
	</node>
	<node lat="70.3332777825798" lon="25.61093030516458" id="-106375">
		<tag k="name" v="Pyrönlaatas" />
		<tag k="name:fkv" v="Pyrönlaatas" />
		<tag k="place" v="locality" />
		<tag k="ssr:stedsnr" v="759434" />
	</node>
	<node lat="70.4159583398702" lon="25.579330306290295" id="-106376">
		<tag k="name" v="Johtánroggi - Jutanurunka" />
		<tag k="name:fkv" v="Jutanurunka" />
		<tag k="name:se" v="Johtánroggi" />
		<tag k="natural" v="valley" />
		<tag k="place" v="locality" />
		<tag k="ssr:stedsnr" v="759533" />
	</node>
	<node lat="70.32361694733255" lon="25.401512349562907" id="-106378">
		<tag k="name" v="Korkkeesokka" />
		<tag k="name:fkv" v="Korkkeesokka" />
		<tag k="natural" v="hill" />
		<tag k="place" v="locality" />
		<tag k="ssr:stedsnr" v="759629" />
	</node>
	<node lat="70.34070556089007" lon="25.118394256528575" id="-106381">
		<tag k="name" v="Čierrunčohkka" />
		<tag k="name:se" v="Čierrunčohkka" />
		<tag k="natural" v="hill" />
		<tag k="place" v="locality" />
		<tag k="ssr:stedsnr" v="759722" />
	</node>
	<node lat="70.26443889494305" lon="25.475099764141465" id="-106387">
		<tag k="name" v="Halkoguru" />
		<tag k="name:fkv" v="Halkoguru" />
		<tag k="natural" v="valley" />
		<tag k="place" v="locality" />
		<tag k="ssr:stedsnr" v="760278" />
	</node>
	<node lat="70.476277778937" lon="25.26807758052411" id="-106388">
		<tag k="name" v="Máhkalovttat" />
		<tag k="name:se" v="Máhkalovttat" />
		<tag k="natural" v="hill" />
		<tag k="place" v="locality" />
		<tag k="ssr:stedsnr" v="760362" />
	</node>
	<node lat="70.22562500617357" lon="25.406444209943373" id="-106394">
		<tag k="name" v="Vesipahta" />
		<tag k="name:fkv" v="Vesipahta" />
		<tag k="natural" v="hill" />
		<tag k="place" v="locality" />
		<tag k="ssr:stedsnr" v="760997" />
	</node>
	<node lat="70.57786667756885" lon="25.973696947121855" id="-106397">
		<tag k="loc_name:fkv" v="Keskipäivänsokka" />
		<tag k="name" v="Gaskabeaičohkka" />
		<tag k="name:se" v="Gaskabeaičohkka" />
		<tag k="natural" v="hill" />
		<tag k="place" v="locality" />
		<tag k="ssr:stedsnr" v="774086" />
	</node>
	<node lat="70.06119722714632" lon="24.067922104667282" id="-106404">
		<tag k="fixme" v="consider natural=peak for the most distinct mountains in the district" />
		<tag k="name" v="Ribatvárri" />
		<tag k="name:se" v="Ribatvárri" />
		<tag k="natural" v="hill" />
		<tag k="old_name:se" v="Ribatvarri" />
		<tag k="place" v="locality" />
		<tag k="ssr:stedsnr" v="808010" />
	</node>
	<node lat="70.11263611139158" lon="24.1770998647169" id="-106408">
		<tag k="fixme" v="consider natural=peak for the most distinct mountains in the district" />
		<tag k="name" v="Vuomoaivi" />
		<tag k="name:se" v="Vuomoaivi" />
		<tag k="natural" v="hill" />
		<tag k="place" v="locality" />
		<tag k="ssr:stedsnr" v="808018" />
	</node>
	<node lat="69.84398333842348" lon="24.774183154177447" id="-106413">
		<tag k="fixme" v="consider natural=peak for the most distinct mountains in the district" />
		<tag k="name" v="Guovžilgáisa" />
		<tag k="name:se" v="Guovžilgáisa" />
		<tag k="natural" v="hill" />
		<tag k="old_name:se" v="Guovžilgaisa" />
		<tag k="place" v="locality" />
		<tag k="ssr:stedsnr" v="808500" />
	</node>
	<node lat="70.35071389754948" lon="25.97586083260034" id="-106441">
		<tag k="fixme" v="consider natural=peak for the most distinct mountains in the district" />
		<tag k="name" v="Skuolfedievvá" />
		<tag k="name:se" v="Skuolfedievvá" />
		<tag k="natural" v="hill" />
		<tag k="old_name:se" v="Skuolfedievva" />
		<tag k="place" v="locality" />
		<tag k="ssr:stedsnr" v="808255" />
	</node>
	<node lat="70.48704445567512" lon="26.079060824782047" id="-106448">
		<tag k="fixme" v="consider natural=peak for the most distinct mountains in the district" />
		<tag k="name" v="Stuorra Stáloaivi" />
		<tag k="name:se" v="Stuorra Stáloaivi" />
		<tag k="natural" v="hill" />
		<tag k="old_name:se" v="Staloaivi, stuorra;Staloaivi" />
		<tag k="place" v="locality" />
		<tag k="ssr:stedsnr" v="808275" />
	</node>
	<node lat="69.89406389983664" lon="25.14324422110884" id="-106457">
		<tag k="fixme" v="consider natural=peak for the most distinct mountains in the district" />
		<tag k="name" v="Seakkolrášša" />
		<tag k="name:se" v="Seakkolrášša" />
		<tag k="natural" v="hill" />
		<tag k="old_name:se" v="Sæggulrašša" />
		<tag k="place" v="locality" />
		<tag k="ssr:stedsnr" v="808477" />
	</node>
	<node lat="69.95315556488042" lon="25.57234139413875" id="-106465">
		<tag k="name" v="Goartilvággi" />
		<tag k="name:se" v="Goartilvággi" />
		<tag k="natural" v="valley" />
		<tag k="old_name:se" v="Goartilvaggi" />
		<tag k="place" v="locality" />
		<tag k="ssr:stedsnr" v="808578" />
	</node>
	<node lat="69.94460278704152" lon="25.698033062317293" id="-106466">
		<tag k="fixme" v="consider natural=peak for the most distinct mountains in the district" />
		<tag k="name" v="Geaidnooaivi" />
		<tag k="name:se" v="Geaidnooaivi" />
		<tag k="natural" v="hill" />
		<tag k="old_name:se" v="Gæidnuoaivi" />
		<tag k="place" v="locality" />
		<tag k="ssr:stedsnr" v="808580" />
	</node>
	<node lat="69.85503333860446" lon="24.472591515953347" id="-106467">
		<tag k="name" v="Boldnevuopmi" />
		<tag k="name:se" v="Boldnevuopmi" />
		<tag k="natural" v="valley" />
		<tag k="old_name:se" v="Båldnevuobmi" />
		<tag k="place" v="locality" />
		<tag k="ssr:stedsnr" v="808681" />
	</node>
	<node lat="69.94758889003577" lon="24.55688872483128" id="-106472">
		<tag k="fixme" v="consider natural=peak for the most distinct mountains in the district" />
		<tag k="name" v="Ceakkojohrášša" />
		<tag k="name:se" v="Ceakkojohrášša" />
		<tag k="natural" v="hill" />
		<tag k="old_name:se" v="Cæggujåkrašša;Čeakkojohkrášša" />
		<tag k="place" v="locality" />
		<tag k="ssr:stedsnr" v="808747" />
	</node>
	<node lat="69.86515000885107" lon="25.44184141701817" id="-106476">
		<tag k="fixme" v="consider natural=peak for the most distinct mountains in the district" />
		<tag k="name" v="Várdačohkka" />
		<tag k="name:se" v="Várdačohkka" />
		<tag k="natural" v="hill" />
		<tag k="old_name:se" v="Vardačåkka" />
		<tag k="place" v="locality" />
		<tag k="ssr:stedsnr" v="808916" />
	</node>
	<node lat="69.88235279001428" lon="25.28080809910199" id="-106478">
		<tag k="fixme" v="consider natural=peak for the most distinct mountains in the district" />
		<tag k="name" v="Uhcagágga" />
		<tag k="name:se" v="Uhcagágga" />
		<tag k="natural" v="hill" />
		<tag k="old_name:se" v="Uccagagga" />
		<tag k="place" v="locality" />
		<tag k="ssr:stedsnr" v="808927" />
	</node>
	<node lat="69.90419723226222" lon="25.255088654135232" id="-106480">
		<tag k="name" v="Stuorrávži" />
		<tag k="name:se" v="Stuorrávži" />
		<tag k="natural" v="valley" />
		<tag k="old_name:se" v="Stuorravži" />
		<tag k="place" v="locality" />
		<tag k="ssr:stedsnr" v="808932" />
	</node>
	<node lat="69.760744457398" lon="25.24403031343757" id="-106490">
		<tag k="fixme" v="consider natural=peak for the most distinct mountains in the district" />
		<tag k="name" v="Jorbavárri" />
		<tag k="name:se" v="Jorbavárri" />
		<tag k="natural" v="hill" />
		<tag k="old_name:se" v="Jårbavarri" />
		<tag k="place" v="locality" />
		<tag k="ssr:stedsnr" v="808982" />
	</node>
	<node lat="70.30414723076419" lon="24.464866513717933" id="-106502">
		<tag k="fixme" v="consider natural=peak for the most distinct mountains in the district" />
		<tag k="name" v="Jorbavárri" />
		<tag k="name:se" v="Jorbavárri" />
		<tag k="natural" v="hill" />
		<tag k="old_name:se" v="Jårbavarri" />
		<tag k="place" v="locality" />
		<tag k="ssr:stedsnr" v="809549" />
	</node>
	<node lat="70.56338889104403" lon="24.93100259537731" id="-106507">
		<tag k="fixme" v="consider natural=peak for the most distinct mountains in the district" />
		<tag k="name" v="Gorsoaivi" />
		<tag k="name:se" v="Gorsoaivi" />
		<tag k="natural" v="hill" />
		<tag k="old_name:se" v="Gårsoaivi" />
		<tag k="place" v="locality" />
		<tag k="ssr:stedsnr" v="809900" />
	</node>
	<node lat="70.52213334011778" lon="25.77417473608244" id="-106528">
		<tag k="name" v="Mohkkinjunni" />
		<tag k="name:se" v="Mohkkinjunni" />
		<tag k="place" v="locality" />
		<tag k="ssr:stedsnr" v="818338" />
	</node>
	<node lat="70.50149722908296" lon="25.710394202523858" id="-106530">
		<tag k="name" v="Duolbanjunni" />
		<tag k="name:se" v="Duolbanjunni" />
		<tag k="place" v="locality" />
		<tag k="ssr:stedsnr" v="818363" />
	</node>
	<node lat="70.50645833623578" lon="25.743916415500724" id="-106531">
		<tag k="name" v="Skohpi" />
		<tag k="name:se" v="Skohpi" />
		<tag k="natural" v="slope" />
		<tag k="place" v="locality" />
		<tag k="ssr:stedsnr" v="818438" />
	</node>
	<node lat="70.08253611872527" lon="25.064408142120875" id="-106535">
		<tag k="name" v="Hamnbuktbakken" />
		<tag k="natural" v="slope" />
		<tag k="place" v="locality" />
		<tag k="ssr:stedsnr" v="819066" />
	</node>
	<node lat="70.33536111850113" lon="25.59644419167477" id="-106538">
		<tag k="name" v="Hirsikuru" />
		<tag k="name:fkv" v="Hirsikuru" />
		<tag k="natural" v="valley" />
		<tag k="place" v="locality" />
		<tag k="ssr:stedsnr" v="820458" />
	</node>
	<node lat="70.33578334299264" lon="25.580274760103556" id="-106539">
		<tag k="name" v="Kuopperkuru" />
		<tag k="name:fkv" v="Kuopperkuru" />
		<tag k="natural" v="valley" />
		<tag k="place" v="locality" />
		<tag k="ssr:stedsnr" v="820459" />
	</node>
	<node lat="70.40777778464883" lon="25.64781087252945" id="-106541">
		<tag k="name" v="Laksavarranrinnet" />
		<tag k="name:fkv" v="Laksavarranrinnet" />
		<tag k="place" v="locality" />
		<tag k="ssr:stedsnr" v="820525" />
	</node>
	<node lat="69.82483889659325" lon="25.155841454541914" id="-106558">
		<tag k="name" v="Ulvetoppen" />
		<tag k="natural" v="hill" />
		<tag k="place" v="locality" />
		<tag k="ssr:stedsnr" v="835033" />
	</node>
	<node lat="70.57693333674317" lon="25.90879974550358" id="-106559">
		<tag k="name" v="Irvebákti" />
		<tag k="name:se" v="Irvebákti" />
		<tag k="natural" v="hill" />
		<tag k="place" v="locality" />
		<tag k="ssr:stedsnr" v="835041" />
	</node>
	<node lat="70.59108056235723" lon="26.08611917081344" id="-106561">
		<tag k="name" v="Várrenjunni" />
		<tag k="name:se" v="Várrenjunni" />
		<tag k="place" v="locality" />
		<tag k="ssr:stedsnr" v="835072" />
	</node>
	<node lat="69.8977138995896" lon="25.001374785645744" id="-106562">
		<tag k="name" v="Løvlia" />
		<tag k="natural" v="slope" />
		<tag k="place" v="locality" />
		<tag k="ssr:stedsnr" v="835184" />
	</node>
	<node lat="70.33865000940233" lon="25.013363698476923" id="-106567">
		<tag k="name" v="Ytre Billefjorddalen" />
		<tag k="natural" v="valley" />
		<tag k="place" v="locality" />
		<tag k="ssr:stedsnr" v="844862" />
	</node>
	<node lat="69.74476112078311" lon="25.42169974905761" id="-106571">
		<tag k="fixme" v="consider natural=peak for the most distinct mountains in the district" />
		<tag k="name" v="Geađge-Váddevárri" />
		<tag k="name:se" v="Geađge-Váddevárri" />
		<tag k="natural" v="hill" />
		<tag k="old_name:se" v="Gæđge-vaddevarri;Gæđgevaddevarri;Geađge-vádde-várri" />
		<tag k="place" v="locality" />
		<tag k="ssr:stedsnr" v="868392" />
	</node>
	<node lat="70.09345833853186" lon="25.059458140338734" id="-106575">
		<tag k="fixme" v="consider natural=peak for the most distinct mountains in the district" />
		<tag k="name" v="Narkkunen" />
		<tag k="name:fkv" v="Narkkunen" />
		<tag k="name:no" v="Hamnbuktfjellet" />
		<tag k="natural" v="hill" />
		<tag k="place" v="locality" />
		<tag k="ssr:stedsnr" v="869179" />
	</node>
	<node lat="70.14995277915027" lon="24.267274851929187" id="-106579">
		<tag k="fixme" v="consider natural=peak for the most distinct mountains in the district" />
		<tag k="name" v="Geinnodatgielas" />
		<tag k="name:se" v="Geinnodatgielas" />
		<tag k="natural" v="hill" />
		<tag k="old_name:se" v="Geinudatgielas" />
		<tag k="place" v="locality" />
		<tag k="ssr:stedsnr" v="868952" />
	</node>
	<node lat="69.9354777808786" lon="24.7804387016814" id="-106585">
		<tag k="fixme" v="consider natural=peak for the most distinct mountains in the district" />
		<tag k="name" v="Ruitočohkka" />
		<tag k="name:se" v="Ruitočohkka" />
		<tag k="natural" v="hill" />
		<tag k="old_name:se" v="Ruitučåkka" />
		<tag k="place" v="locality" />
		<tag k="ssr:stedsnr" v="869587" />
	</node>
	<node lat="69.91040833864936" lon="24.85968312996338" id="-106589">
		<tag k="fixme" v="consider natural=peak for the most distinct mountains in the district" />
		<tag k="name" v="Ávjovárri" />
		<tag k="name:se" v="Ávjovárri" />
		<tag k="natural" v="hill" />
		<tag k="old_name:se" v="Avjuvarri" />
		<tag k="place" v="locality" />
		<tag k="ssr:stedsnr" v="869597" />
	</node>
	<node lat="69.91179444916362" lon="24.945583127128696" id="-106590">
		<tag k="name" v="Hárrečohkka" />
		<tag k="name:se" v="Hárrečohkka" />
		<tag k="natural" v="hill" />
		<tag k="old_name:se" v="Harrečåkka" />
		<tag k="place" v="locality" />
		<tag k="ssr:stedsnr" v="869598" />
	</node>
	<node lat="70.62147222949606" lon="25.976527513282218" id="-106591">
		<tag k="name" v="Simmaskoarra" />
		<tag k="name:no" v="Simaskaret" />
		<tag k="name:se" v="Simmaskoarra" />
		<tag k="natural" v="valley" />
		<tag k="place" v="locality" />
		<tag k="ssr:stedsnr" v="869599" />
	</node>
	<node lat="70.39072223072039" lon="26.006602493521875" id="-106608">
		<tag k="fixme" v="consider natural=peak for the most distinct mountains in the district" />
		<tag k="name" v="Lápparnjunis" />
		<tag k="name:se" v="Lápparnjunis" />
		<tag k="natural" v="hill" />
		<tag k="old_name:se" v="Labbarnjunis" />
		<tag k="place" v="locality" />
		<tag k="ssr:stedsnr" v="869286" />
	</node>
	<node lat="70.48423056432317" lon="25.85824974439485" id="-106611">
		<tag k="fixme" v="consider natural=peak for the most distinct mountains in the district" />
		<tag k="name" v="Uhca Biršoaivi" />
		<tag k="name:se" v="Uhca Biršoaivi" />
		<tag k="natural" v="hill" />
		<tag k="old_name:se" v="Biršoaivi, ucca;Uhca Biršooaivi" />
		<tag k="place" v="locality" />
		<tag k="ssr:stedsnr" v="869316" />
	</node>
	<node lat="70.43723056869905" lon="25.99410804288289" id="-106616">
		<tag k="fixme" v="consider natural=peak for the most distinct mountains in the district" />
		<tag k="name" v="Báktenjunis" />
		<tag k="name:se" v="Báktenjunis" />
		<tag k="natural" v="hill" />
		<tag k="old_name:se" v="Baktenjunis" />
		<tag k="place" v="locality" />
		<tag k="ssr:stedsnr" v="869343" />
	</node>
	<node lat="70.14416667539362" lon="25.89943302617939" id="-106621">
		<tag k="name" v="Áldarávži" />
		<tag k="name:se" v="Áldarávži" />
		<tag k="natural" v="valley" />
		<tag k="old_name:se" v="Aldaravži" />
		<tag k="place" v="locality" />
		<tag k="ssr:stedsnr" v="869404" />
	</node>
	<node lat="69.85369444978467" lon="24.750544267630257" id="-106626">
		<tag k="fixme" v="consider natural=peak for the most distinct mountains in the district" />
		<tag k="name" v="Bieggaváknjunni" />
		<tag k="name:se" v="Bieggaváknjunni" />
		<tag k="natural" v="hill" />
		<tag k="old_name:se" v="Bieggavagnjunni" />
		<tag k="place" v="locality" />
		<tag k="ssr:stedsnr" v="869556" />
	</node>
	<node lat="69.95154167276623" lon="25.66325249445159" id="-106630">
		<tag k="fixme" v="consider natural=peak for the most distinct mountains in the district" />
		<tag k="name" v="Geaidnogielas" />
		<tag k="name:se" v="Geaidnogielas" />
		<tag k="natural" v="hill" />
		<tag k="old_name:se" v="Gæidnugielas" />
		<tag k="place" v="locality" />
		<tag k="ssr:stedsnr" v="869624" />
	</node>
	<node lat="69.9772638971008" lon="25.315849753818807" id="-106639">
		<tag k="fixme" v="consider natural=peak for the most distinct mountains in the district" />
		<tag k="name" v="Čahkalvárri" />
		<tag k="name:se" v="Čahkalvárri" />
		<tag k="natural" v="hill" />
		<tag k="old_name:se" v="Čakkalvarri" />
		<tag k="place" v="locality" />
		<tag k="ssr:stedsnr" v="869612" />
	</node>
	<node lat="69.85355278276994" lon="24.311569284667666" id="-106642">
		<tag k="name" v="Atnevárri" />
		<tag k="name:se" v="Atnevárri" />
		<tag k="natural" v="plateau" />
		<tag k="old_name:se" v="Adnevarri" />
		<tag k="ssr:stedsnr" v="869716" />
	</node>
	<node lat="69.8008111233441" lon="25.397024756073804" id="-106643">
		<tag k="name" v="Juoŋasjárčohkka" />
		<tag k="name:se" v="Juoŋasjárčohkka" />
		<tag k="natural" v="hill" />
		<tag k="old_name:se" v="Juoŋasjarčåkka" />
		<tag k="place" v="locality" />
		<tag k="ssr:stedsnr" v="869890" />
	</node>
	<node lat="69.88741112255455" lon="25.641008054852826" id="-106649">
		<tag k="fixme" v="consider natural=peak for the most distinct mountains in the district" />
		<tag k="name" v="Gođđoaivi" />
		<tag k="name:se" v="Gođđoaivi" />
		<tag k="natural" v="hill" />
		<tag k="old_name:se" v="Gåđđoaivi" />
		<tag k="place" v="locality" />
		<tag k="ssr:stedsnr" v="869919" />
	</node>
	<node lat="69.8873555599543" lon="25.356183092595383" id="-106650">
		<tag k="name" v="Guovdavárlokta" />
		<tag k="name:se" v="Guovdavárlokta" />
		<tag k="old_name:se" v="Guovdavarlåkta" />
		<tag k="place" v="locality" />
		<tag k="ssr:stedsnr" v="869920" />
	</node>
	<node lat="69.89230556584907" lon="25.243555332657515" id="-106651">
		<tag k="fixme" v="consider natural=peak for the most distinct mountains in the district" />
		<tag k="name" v="Gaskagágga" />
		<tag k="name:se" v="Gaskagágga" />
		<tag k="natural" v="hill" />
		<tag k="old_name:se" v="Gaskagagga" />
		<tag k="place" v="locality" />
		<tag k="ssr:stedsnr" v="869926" />
	</node>
	<node lat="69.90126389568266" lon="25.27172477504125" id="-106652">
		<tag k="name" v="Unnávži" />
		<tag k="name:se" v="Unnávži" />
		<tag k="natural" v="valley" />
		<tag k="old_name:se" v="Unnavži" />
		<tag k="place" v="locality" />
		<tag k="ssr:stedsnr" v="869927" />
	</node>
	<node lat="70.67136112100742" lon="25.41310257455668" id="-106655">
		<tag k="name" v="Bibelberget" />
		<tag k="natural" v="hill" />
		<tag k="place" v="locality" />
		<tag k="ssr:stedsnr" v="869994" />
	</node>
	<node lat="70.6526166711107" lon="25.31937758042838" id="-106656">
		<tag k="name" v="Siskkit Čáhcevágevággi" />
		<tag k="name:se" v="Siskkit Čáhcevágevággi" />
		<tag k="natural" v="valley" />
		<tag k="old_name:se" v="Čaccevagevaggi, siskit" />
		<tag k="place" v="locality" />
		<tag k="ssr:stedsnr" v="869999" />
	</node>
	<node lat="70.62403889835396" lon="25.214419251241086" id="-106674">
		<tag k="fixme" v="consider natural=peak for the most distinct mountains in the district" />
		<tag k="name" v="Oaivvoščohkka" />
		<tag k="name:se" v="Oaivvoščohkka" />
		<tag k="natural" v="hill" />
		<tag k="old_name:se" v="Oaivuščåkka" />
		<tag k="place" v="locality" />
		<tag k="ssr:stedsnr" v="870886" />
	</node>
	<node lat="70.47297778192655" lon="25.038833138366318" id="-106689">
		<tag k="alt_name:se" v="Gálbbenjárga" />
		<tag k="name" v="Gáldočohkka" />
		<tag k="name:se" v="Gáldočohkka" />
		<tag k="natural" v="hill" />
		<tag k="place" v="locality" />
		<tag k="ssr:stedsnr" v="881234" />
	</node>
	<node lat="70.4468916715037" lon="25.187047030589866" id="-106690">
		<tag k="name" v="Mosamuelhaugen" />
		<tag k="natural" v="hill" />
		<tag k="place" v="locality" />
		<tag k="ssr:stedsnr" v="881322" />
	</node>
	<node lat="70.41043333569256" lon="25.16194980999166" id="-106691">
		<tag k="name" v="Vuoŋŋadančorru" />
		<tag k="name:se" v="Vuoŋŋadančorru" />
		<tag k="natural" v="hill" />
		<tag k="place" v="locality" />
		<tag k="ssr:stedsnr" v="881344" />
	</node>
	<node lat="70.28094167349417" lon="25.556077542240192" id="-106693">
		<tag k="name" v="Paksusokka" />
		<tag k="name:fkv" v="Paksusokka" />
		<tag k="natural" v="hill" />
		<tag k="place" v="locality" />
		<tag k="ssr:stedsnr" v="881371" />
	</node>
	<node lat="70.41891389618375" lon="25.1657053528711" id="-106694">
		<tag k="name" v="Geassevággi" />
		<tag k="name:se" v="Geassevággi" />
		<tag k="natural" v="valley" />
		<tag k="place" v="locality" />
		<tag k="ssr:stedsnr" v="881376" />
	</node>
	<node lat="70.44234167096442" lon="25.17435813854147" id="-106695">
		<tag k="fixme" v="consider natural=peak for the most distinct mountains in the district" />
		<tag k="name" v="Storkappa" />
		<tag k="natural" v="hill" />
		<tag k="place" v="locality" />
		<tag k="ssr:stedsnr" v="881392" />
	</node>
	<node lat="70.05510834057996" lon="25.126427556743284" id="-106697">
		<tag k="name" v="Ellendievvá" />
		<tag k="name:se" v="Ellendievvá" />
		<tag k="natural" v="hill" />
		<tag k="place" v="locality" />
		<tag k="ssr:stedsnr" v="881474" />
	</node>
	<node lat="70.40545833537156" lon="25.551413660308906" id="-106700">
		<tag k="name" v="Movrondievvá" />
		<tag k="name:se" v="Movrondievvá" />
		<tag k="natural" v="hill" />
		<tag k="place" v="locality" />
		<tag k="ssr:stedsnr" v="881534" />
	</node>
	<node lat="70.28298889106105" lon="24.99523315063104" id="-106703">
		<tag k="name" v="Jupmanbákteávži" />
		<tag k="name:se" v="Jupmanbákteávži" />
		<tag k="natural" v="valley" />
		<tag k="place" v="locality" />
		<tag k="ssr:stedsnr" v="881791" />
	</node>
	<node lat="70.01585833850298" lon="25.14401367464742" id="-106711">
		<tag k="name" v="Penikka kuru" />
		<tag k="name:fkv" v="Penikka kuru" />
		<tag k="natural" v="valley" />
		<tag k="place" v="locality" />
		<tag k="ssr:stedsnr" v="882429" />
	</node>
	<node lat="70.22328055816212" lon="24.936052596026435" id="-106712">
		<tag k="name" v="Skuŋkavealgi" />
		<tag k="name:se" v="Skuŋkavealgi" />
		<tag k="natural" v="slope" />
		<tag k="place" v="locality" />
		<tag k="ssr:stedsnr" v="882794" />
	</node>
	<node lat="70.3565305602262" lon="25.693949743717432" id="-106714">
		<tag k="name" v="Raasimella" />
		<tag k="name:fkv" v="Raasimella" />
		<tag k="name:se" v="Rássemielli" />
		<tag k="natural" v="slope" />
		<tag k="place" v="locality" />
		<tag k="ssr:stedsnr" v="936979" />
	</node>
	<node lat="70.53244723009247" lon="25.792966400560548" id="-106717">
		<tag k="name" v="Oavssanjunni" />
		<tag k="name:se" v="Oavssanjunni" />
		<tag k="natural" v="slope" />
		<tag k="place" v="locality" />
		<tag k="ssr:stedsnr" v="940138" />
	</node>
	<node lat="70.49874444978364" lon="25.69794974202821" id="-106718">
		<tag k="name" v="Ássebákti" />
		<tag k="name:se" v="Ássebákti" />
		<tag k="natural" v="hill" />
		<tag k="place" v="locality" />
		<tag k="ssr:stedsnr" v="940365" />
	</node>
	<node lat="70.50243056004415" lon="25.72437753382762" id="-106719">
		<tag k="name" v="Guigoleahki" />
		<tag k="name:se" v="Guigoleahki" />
		<tag k="natural" v="valley" />
		<tag k="place" v="locality" />
		<tag k="ssr:stedsnr" v="940381" />
	</node>
	<node lat="70.48781945103934" lon="25.76717753506896" id="-106720">
		<tag k="fixme" v="consider natural=peak for the most distinct mountains in the district" />
		<tag k="name" v="Morahatbuolža" />
		<tag k="name:se" v="Morahatbuolža" />
		<tag k="natural" v="hill" />
		<tag k="place" v="locality" />
		<tag k="ssr:stedsnr" v="940390" />
	</node>
	<node lat="70.4960083371719" lon="25.750252528002598" id="-106721">
		<tag k="name" v="Goddotčohkka" />
		<tag k="name:se" v="Goddotčohkka" />
		<tag k="natural" v="hill" />
		<tag k="place" v="locality" />
		<tag k="ssr:stedsnr" v="940397" />
	</node>
	<node lat="70.42920000364579" lon="25.172591472248335" id="-106723">
		<tag k="name" v="Ránselbákti" />
		<tag k="name:se" v="Ránselbákti" />
		<tag k="natural" v="hill" />
		<tag k="place" v="locality" />
		<tag k="ssr:stedsnr" v="941386" />
	</node>
	<node lat="70.09705278154328" lon="24.99545814602537" id="-106726">
		<tag k="name" v="Bohki" />
		<tag k="name:se" v="Bohki" />
		<tag k="natural" v="hill" />
		<tag k="place" v="locality" />
		<tag k="ssr:stedsnr" v="942173" />
	</node>
	<node lat="70.25472778163142" lon="25.433610884993396" id="-106728">
		<tag k="name" v="Vesipahđat" />
		<tag k="name:fkv" v="Vesipahđat" />
		<tag k="natural" v="hill" />
		<tag k="place" v="locality" />
		<tag k="ssr:stedsnr" v="942265" />
	</node>
	<node lat="70.2505833387201" lon="25.459521981437963" id="-106729">
		<tag k="name" v="Hansinantinsokka" />
		<tag k="name:fkv" v="Hansinantinsokka" />
		<tag k="natural" v="hill" />
		<tag k="place" v="locality" />
		<tag k="ssr:stedsnr" v="942270" />
	</node>
	<node lat="70.27821945424479" lon="25.502452550485465" id="-106733">
		<tag k="name" v="Reposokka" />
		<tag k="name:fkv" v="Reposokka" />
		<tag k="natural" v="hill" />
		<tag k="place" v="locality" />
		<tag k="ssr:stedsnr" v="942380" />
	</node>
	<node lat="70.40731666930844" lon="25.198127584547272" id="-106738">
		<tag k="name" v="Lillehaugen" />
		<tag k="natural" v="hill" />
		<tag k="place" v="locality" />
		<tag k="ssr:stedsnr" v="942361" />
	</node>
	<node lat="70.32742222783222" lon="25.584410869230382" id="-106739">
		<tag k="name" v="Raunaolanlaatas" />
		<tag k="name:fkv" v="Raunaolanlaatas" />
		<tag k="place" v="locality" />
		<tag k="ssr:stedsnr" v="942438" />
	</node>
	<node lat="70.33195000893909" lon="25.54821087024752" id="-106740">
		<tag k="name" v="Korpinpahta" />
		<tag k="name:fkv" v="Korpinpahta" />
		<tag k="natural" v="hill" />
		<tag k="place" v="locality" />
		<tag k="ssr:stedsnr" v="942469" />
	</node>
	<node lat="70.318591673359" lon="25.633871976591895" id="-106741">
		<tag k="name" v="Puoltsin Laatas" />
		<tag k="name:fkv" v="Puoltsin Laatas" />
		<tag k="place" v="locality" />
		<tag k="ssr:stedsnr" v="942429" />
	</node>
	<node lat="70.3203527854211" lon="25.42578310041036" id="-106746">
		<tag k="name" v="Ritalaatas" />
		<tag k="name:fkv" v="Ritalaatas" />
		<tag k="natural" v="hill" />
		<tag k="place" v="locality" />
		<tag k="ssr:stedsnr" v="942618" />
	</node>
	<node lat="70.48545278815207" lon="25.670580316759622" id="-106750">
		<tag k="name" v="Mártinčorru" />
		<tag k="name:se" v="Mártinčorru" />
		<tag k="natural" v="hill" />
		<tag k="place" v="locality" />
		<tag k="ssr:stedsnr" v="942743" />
	</node>
	<node lat="70.44522778844603" lon="25.62434420800021" id="-106751">
		<tag k="name" v="Eretelle" />
		<tag k="name:se" v="Eretelle" />
		<tag k="natural" v="slope" />
		<tag k="place" v="locality" />
		<tag k="ssr:stedsnr" v="942750" />
	</node>
	<node lat="70.6136333399129" lon="26.008646938613012" id="-106755">
		<tag k="name" v="Siibmanjunni" />
		<tag k="name:se" v="Siibmanjunni" />
		<tag k="place" v="locality" />
		<tag k="ssr:stedsnr" v="956095" />
	</node>
	<node lat="70.5556500063487" lon="25.84025253033061" id="-106757">
		<tag k="name" v="Skazasgurra" />
		<tag k="name:se" v="Skazasgurra" />
		<tag k="natural" v="valley" />
		<tag k="place" v="locality" />
		<tag k="ssr:stedsnr" v="956043" />
	</node>
	<node lat="70.58490556707646" lon="26.0381719386535" id="-106760">
		<tag k="name" v="Áhkočomat" />
		<tag k="name:se" v="Áhkočomat" />
		<tag k="natural" v="hill" />
		<tag k="place" v="locality" />
		<tag k="ssr:stedsnr" v="956087" />
	</node>
	<node lat="70.5784573597094" lon="25.215761414866215" id="-106966">
		<tag k="name" v="Loktavággi" />
		<tag k="name:se" v="Loktavággi" />
		<tag k="natural" v="valley" />
		<tag k="place" v="locality" />
		<tag k="ssr:stedsnr" v="1082972" />
	</node>
</osm>
