<?xml version="1.0" encoding="UTF-8"?>
<<<<<<< HEAD
<osm version="0.6" generator="osmapis">
	<node lat="70.24356667657248" lon="25.323652565562707" id="-50508">
		<tag k="name" v="Reinøyleia" />
		<tag k="name:no" v="Reinøyleia" />
		<tag k="place" v="locality" />
		<tag k="ssr:stedsnr" v="145515" />
	</node>
	<node lat="70.3188416752144" lon="25.084727587663536" id="-50660">
		<tag k="man_made" v="quay" />
		<tag k="name" v="Østkaia" />
		<tag k="name:no" v="Østkaia" />
		<tag k="place" v="locality" />
		<tag k="ssr:stedsnr" v="266450" />
	</node>
	<node lat="70.28552223114158" lon="25.07194424906608" id="-51108">
		<tag k="junction" v="yes" />
		<tag k="name" v="Kolvik vegkryss" />
		<tag k="name:no" v="Kolvik vegkryss" />
		<tag k="place" v="locality" />
		<tag k="ssr:stedsnr" v="517806" />
	</node>
	<node lat="70.0747944537143" lon="24.256833190911788" id="-51234">
		<tag k="ford" v="yes" />
		<tag k="name" v="Doaresvársuohpa" />
		<tag k="name:se" v="Doaresvársuohpa" />
		<tag k="old_name:se" v="Doaresvarsuoppa" />
		<tag k="place" v="locality" />
		<tag k="ssr:stedsnr" v="565009" />
	</node>
	<node lat="70.25000000663489" lon="25.333333119557143" id="-51270">
		<tag k="name" v="Reinøyleia" />
		<tag k="name:no" v="Reinøyleia" />
		<tag k="place" v="locality" />
		<tag k="ssr:stedsnr" v="570303" />
	</node>
	<node lat="70.36387222519753" lon="25.01315536561112" id="-51338">
		<tag k="highway" v="path" />
		<tag k="name" v="Reindriftsveg" />
		<tag k="name:no" v="Reindriftsveg" />
		<tag k="ssr:stedsnr" v="699438" />
=======
<osm generator="osmapis" version="0.6">
	<node id="-906048" lat="70.3638722252" lon="25.0131553656">
		<tag k="highway" v="path" />
		<tag k="name" v="Reindriftsveg" />
		<tag k="name:no" v="Reindriftsveg" />
		<tag k="ssr:stedsnr" v="699438" />
	</node>
	<node id="-906079" lat="70.2500000066" lon="25.3333331196">
		<tag k="name" v="Reinøyleia" />
		<tag k="name:no" v="Reinøyleia" />
		<tag k="place" v="locality" />
		<tag k="ssr:stedsnr" v="570303" />
	</node>
	<node id="-905279" lat="70.3188416752" lon="25.0847275877">
		<tag k="man_made" v="quay" />
		<tag k="name" v="Østkaia" />
		<tag k="name:no" v="Østkaia" />
		<tag k="place" v="locality" />
		<tag k="ssr:stedsnr" v="266450" />
	</node>
	<node id="-907611" lat="70.0747944537" lon="24.2568331909">
		<tag k="ford" v="yes" />
		<tag k="name" v="Doaresvársuohpa" />
		<tag k="name:se" v="Doaresvársuohpa" />
		<tag k="old_name:se" v="Doaresvarsuoppa" />
		<tag k="place" v="locality" />
		<tag k="ssr:stedsnr" v="565009" />
	</node>
	<node id="-906681" lat="70.06644445" lon="24.98292481">
		<tag k="aeroway" v="aerodrome" />
		<tag k="alt_name:no" v="Banak" />
		<tag k="name" v="Lakselv lufthavn, Banak" />
		<tag k="name:no" v="Lakselv lufthavn, Banak" />
		<tag k="old_name:no" v="Banak flyplass" />
		<tag k="ssr:stedsnr" v="80209" />
	</node>
	<node id="-906392" lat="70.4999500078" lon="25.7678914072">
		<tag k="highway" v="path" />
		<tag k="name" v="Buolžageaidnu" />
		<tag k="name:se" v="Buolžageaidnu" />
		<tag k="ssr:stedsnr" v="940421" />
	</node>
	<node id="-905876" lat="70.2855222311" lon="25.0719442491">
		<tag k="junction" v="yes" />
		<tag k="name" v="Kolvik vegkryss" />
		<tag k="name:no" v="Kolvik vegkryss" />
		<tag k="place" v="locality" />
		<tag k="ssr:stedsnr" v="517806" />
	</node>
	<node id="-906643" lat="70.2202527809" lon="24.8537831524">
		<tag k="highway" v="path" />
		<tag k="name" v="Vinjjubálggis" />
		<tag k="name:se" v="Vinjjubálggis" />
		<tag k="ssr:stedsnr" v="32800" />
	</node>
	<node id="-907538" lat="70.4202750095" lon="25.1313442476">
		<tag k="highway" v="path" />
		<tag k="name" v="Reinvegen" />
		<tag k="name:no" v="Reinvegen" />
		<tag k="ssr:stedsnr" v="395394" />
	</node>
	<node id="-905299" lat="70.2435666766" lon="25.3236525656">
		<tag k="name" v="Reinøyleia" />
		<tag k="name:no" v="Reinøyleia" />
		<tag k="place" v="locality" />
		<tag k="ssr:stedsnr" v="145515" />
	</node>
	<node id="-905354" lat="70.2017250046" lon="25.5129914288">
		<tag k="ford" v="yes" />
		<tag k="name" v="Čáhppilsuohpáš" />
		<tag k="name:se" v="Čáhppilsuohpáš" />
		<tag k="place" v="locality" />
		<tag k="ssr:stedsnr" v="201283" />
	</node>
	<node id="-906826" lat="70.5029305618" lon="25.0403720377">
		<tag k="junction" v="yes" />
		<tag k="name" v="Smørfjord vegkryss" />
		<tag k="name:no" v="Smørfjord vegkryss" />
		<tag k="place" v="locality" />
		<tag k="ssr:stedsnr" v="93240" />
	</node>
	<node id="-907205" lat="70.2972222331" lon="25.4666664349">
		<tag k="name" v="Neverøyleia" />
		<tag k="name:no" v="Neverøyleia" />
		<tag k="place" v="locality" />
		<tag k="ssr:stedsnr" v="207345" />
>>>>>>> e1d4bc35ff8a6074a6f2e91616a996b547c36f15
	</node>
</osm>
