<?xml version="1.0" encoding="UTF-8"?>
<osm version="0.6" generator="osmapis">
	<node lat="70.00319999927886" lon="24.087472100059863" id="-50330">
		<tag k="name" v="Sámmolluobbalat" />
		<tag k="name:se" v="Sámmolluobbalat" />
		<tag k="natural" v="water" />
		<tag k="old_name:se" v="Sammulluobbalat" />
		<tag k="ssr:stedsnr" v="19044" />
		<tag k="water" v="lake" />
	</node>
	<node lat="70.07062499940592" lon="24.028980439542984" id="-50331">
		<tag k="name" v="Ribatjávri" />
		<tag k="name:se" v="Ribatjávri" />
		<tag k="natural" v="water" />
		<tag k="old_name:se" v="Ribatjavri" />
		<tag k="ssr:stedsnr" v="19006" />
	</node>
	<node lat="70.09009167349937" lon="25.60510807831121" id="-50333">
		<tag k="name" v="Jeagiljávri" />
		<tag k="name:se" v="Jeagiljávri" />
		<tag k="natural" v="water" />
		<tag k="ssr:stedsnr" v="19295" />
		<tag k="water" v="lake" />
	</node>
	<node lat="70.00390278683052" lon="25.754841369459708" id="-50336">
		<tag k="name" v="Goadjinjohka" />
		<tag k="name:se" v="Goadjinjohka" />
		<tag k="ssr:stedsnr" v="19343" />
		<tag k="waterway" v="stream" />
	</node>
	<node lat="70.49100000484701" lon="24.98261092893728" id="-50341">
		<tag k="name" v="Fielbmajohka" />
		<tag k="name:se" v="Fielbmajohka" />
		<tag k="ssr:stedsnr" v="19693" />
		<tag k="waterway" v="stream" />
	</node>
	<node lat="70.27096667561966" lon="24.608494292393257" id="-50342">
		<tag k="name" v="Skáiddejávri" />
		<tag k="name:se" v="Skáiddejávri" />
		<tag k="natural" v="water" />
		<tag k="ssr:stedsnr" v="19704" />
		<tag k="water" v="lake" />
	</node>
	<node lat="69.92504722735688" lon="24.54343871962089" id="-50343">
		<tag k="name" v="Ceakkojávri" />
		<tag k="name:se" v="Ceakkojávri" />
		<tag k="natural" v="water" />
		<tag k="old_name:se" v="Cæggujavri" />
		<tag k="ssr:stedsnr" v="19738" />
		<tag k="water" v="lake" />
	</node>
	<node lat="69.84149167404891" lon="25.637344150453735" id="-50344">
		<tag k="name" v="Nieidaluoppal" />
		<tag k="name:se" v="Nieidaluoppal" />
		<tag k="natural" v="water" />
		<tag k="old_name:se" v="Nieidaluobbal" />
		<tag k="ssr:stedsnr" v="19901" />
	</node>
	<node lat="70.50911389836565" lon="25.781058085395273" id="-50346">
		<tag k="name" v="Rivutjávri - Torvvannet" />
		<tag k="name:no" v="Torvvannet" />
		<tag k="name:se" v="Rivutjávri" />
		<tag k="natural" v="water" />
		<tag k="ssr:stedsnr" v="20103" />
	</node>
	<node lat="70.01441945290374" lon="25.344783111654426" id="-50349">
		<tag k="name" v="Suolojávri" />
		<tag k="name:se" v="Suolojávri" />
		<tag k="natural" v="water" />
		<tag k="ssr:stedsnr" v="20449" />
		<tag k="water" v="lake" />
	</node>
	<node lat="70.32980000216624" lon="25.493844215323882" id="-50350">
		<tag k="fixme" v="multiple name tags, choose one and add the other to alt_name" />
		<tag k="name" v="Gielddajávri;Ullogahpirjávri - Ullukapperinjärvi" />
		<tag k="name:fkv" v="Ullukapperinjärvi" />
		<tag k="name:se" v="Gielddajávri;Ullogahpirjávri" />
		<tag k="natural" v="water" />
		<tag k="ssr:stedsnr" v="20490" />
	</node>
	<node lat="70.3371250086165" lon="25.75034697351877" id="-50353">
		<tag k="name" v="Buvrejohka - Puurinjoki" />
		<tag k="name:fkv" v="Puurinjoki" />
		<tag k="name:se" v="Buvrejohka" />
		<tag k="ssr:stedsnr" v="20501" />
		<tag k="waterway" v="stream" />
	</node>
	<node lat="70.3033305577827" lon="24.795913729744015" id="-50355">
		<tag k="name" v="Mohkkejávri" />
		<tag k="name:se" v="Mohkkejávri" />
		<tag k="natural" v="water" />
		<tag k="ssr:stedsnr" v="20589" />
	</node>
	<node lat="70.30517223181883" lon="25.109949814916774" id="-50358">
		<tag k="name" v="Milletjávri" />
		<tag k="name:se" v="Milletjávri" />
		<tag k="natural" v="water" />
		<tag k="ssr:stedsnr" v="20598" />
	</node>
	<node lat="70.09259167714632" lon="25.247135900166175" id="-50360">
		<tag k="name" v="Jäkaläpahđanoja" />
		<tag k="name:fkv" v="Jäkaläpahđanoja" />
		<tag k="ssr:stedsnr" v="20792" />
		<tag k="waterway" v="stream" />
	</node>
	<node lat="70.45524445202749" lon="25.16272203485985" id="-50366">
		<tag k="name" v="Geaidnorohjávri" />
		<tag k="name:se" v="Geaidnorohjávri" />
		<tag k="natural" v="water" />
		<tag k="ssr:stedsnr" v="21733" />
	</node>
	<node lat="70.39283056299548" lon="25.213697034459575" id="-50367">
		<tag k="name" v="Roggeluohjávri" />
		<tag k="name:se" v="Roggeluohjávri" />
		<tag k="natural" v="water" />
		<tag k="ssr:stedsnr" v="21749" />
	</node>
	<node lat="70.0300583410861" lon="25.234135879442782" id="-50369">
		<tag k="name" v="Alimainen Kaarinanjärvi" />
		<tag k="name:fkv" v="Alimainen Kaarinanjärvi" />
		<tag k="natural" v="water" />
		<tag k="ssr:stedsnr" v="21818" />
		<tag k="water" v="lake" />
	</node>
	<node lat="70.27003333844988" lon="25.49918863930999" id="-50372">
		<tag k="name" v="Ruovdejávri - Rautajärvi" />
		<tag k="name:fkv" v="Rautajärvi" />
		<tag k="name:se" v="Ruovdejávri" />
		<tag k="natural" v="water" />
		<tag k="ssr:stedsnr" v="26125" />
	</node>
	<node lat="70.27999167829681" lon="25.538952538703075" id="-50379">
		<tag k="loc_name:se" v="Čorualjávri" />
		<tag k="name" v="Soronpäälysjärvi" />
		<tag k="name:fkv" v="Soronpäälysjärvi" />
		<tag k="natural" v="water" />
		<tag k="ssr:stedsnr" v="31366" />
	</node>
	<node lat="70.40273611770039" lon="25.227660913462422" id="-50381">
		<tag k="name" v="Čoalbmi" />
		<tag k="name:se" v="Čoalbmi" />
		<tag k="natural" v="cape" />
		<tag k="ssr:stedsnr" v="31462" />
	</node>
	<node lat="70.38680555981544" lon="25.552288641282743" id="-50386">
		<tag k="name" v="Hantunoja" />
		<tag k="name:fkv" v="Hantunoja" />
		<tag k="ssr:stedsnr" v="32478" />
		<tag k="waterway" v="stream" />
	</node>
	<node lat="70.3479361152703" lon="25.514052539706185" id="-50389">
		<tag k="name" v="Heinäjärvi" />
		<tag k="name:fkv" v="Heinäjärvi" />
		<tag k="natural" v="water" />
		<tag k="ssr:stedsnr" v="32489" />
	</node>
	<node lat="70.33269445544184" lon="25.807374742137355" id="-50390">
		<tag k="loc_name:se" v="Lávrrasavu" />
		<tag k="name" v="Laurinpahtasuvanto" />
		<tag k="name:fkv" v="Laurinpahtasuvanto" />
		<tag k="natural" v="water" />
		<tag k="ssr:stedsnr" v="32904" />
		<tag k="water" v="lake" />
	</node>
	<node lat="70.077880564852" lon="24.253288743302075" id="-50394">
		<tag k="name" v="Suohpášjávri" />
		<tag k="name:se" v="Suohpášjávri" />
		<tag k="natural" v="water" />
		<tag k="old_name:se" v="Suoppašjavri" />
		<tag k="ssr:stedsnr" v="80010" />
	</node>
	<node lat="70.17210000829527" lon="24.90252205314125" id="-50397">
		<tag k="name" v="Rohkošjávri" />
		<tag k="name:se" v="Rohkošjávri" />
		<tag k="natural" v="water" />
		<tag k="ssr:stedsnr" v="80114" />
	</node>
	<node lat="70.13636111396872" lon="25.054313697923753" id="-50398">
		<tag k="name" v="Leaibbašmuotki - Oldereidet - Leipäsenmuotka" />
		<tag k="name:fkv" v="Leipäsenmuotka" />
		<tag k="name:no" v="Oldereidet" />
		<tag k="name:se" v="Leaibbašmuotki" />
		<tag k="place" v="locality" />
		<tag k="ssr:stedsnr" v="80131" />
	</node>
	<node lat="70.1558833380433" lon="24.765230374771633" id="-50401">
		<tag k="name" v="Geađgesavvon" />
		<tag k="name:se" v="Geađgesavvon" />
		<tag k="natural" v="water" />
		<tag k="ssr:stedsnr" v="80096" />
		<tag k="water" v="lake" />
	</node>
	<node lat="70.15227778802303" lon="25.559896964571855" id="-50403">
		<tag k="name" v="Čáhppiljávri - Sappirjoenjärvi" />
		<tag k="name:fkv" v="Sappirjoenjärvi" />
		<tag k="name:se" v="Čáhppiljávri" />
		<tag k="natural" v="water" />
		<tag k="ssr:stedsnr" v="80303" />
	</node>
	<node lat="69.94366667717418" lon="25.739405266524624" id="-50409">
		<tag k="name" v="Guhkesluoppal" />
		<tag k="name:se" v="Guhkesluoppal" />
		<tag k="natural" v="water" />
		<tag k="old_name:se" v="Gukkesluobbal" />
		<tag k="ssr:stedsnr" v="80595" />
	</node>
	<node lat="69.93934167963346" lon="25.65161639402217" id="-50410">
		<tag k="name" v="Geaidnojohka" />
		<tag k="name:se" v="Geaidnojohka" />
		<tag k="old_name:se" v="Gæidnujåkka" />
		<tag k="ssr:stedsnr" v="80598" />
		<tag k="waterway" v="stream" />
	</node>
	<node lat="70.44986111993973" lon="25.042274815489126" id="-50412">
		<tag k="name" v="Čiežajohka - Syvvannselva" />
		<tag k="name:no" v="Syvvannselva" />
		<tag k="name:se" v="Čiežajohka" />
		<tag k="ssr:stedsnr" v="80743" />
		<tag k="waterway" v="stream" />
	</node>
	<node lat="70.04603889659367" lon="24.935280374388594" id="-50414">
		<tag k="name" v="Sammunsaari" />
		<tag k="name:fkv" v="Sammunsaari" />
		<tag k="place" v="islet" />
		<tag k="ssr:stedsnr" v="81041" />
	</node>
	<node lat="70.27378611829104" lon="25.065899803740148" id="-50420">
		<tag k="name" v="Áigirjávri" />
		<tag k="name:se" v="Áigirjávri" />
		<tag k="natural" v="water" />
		<tag k="ssr:stedsnr" v="81633" />
	</node>
	<node lat="70.61605833908598" lon="25.178869270454374" id="-50424">
		<tag k="name" v="Fáhccajávrrit" />
		<tag k="name:se" v="Fáhccajávrrit" />
		<tag k="natural" v="water" />
		<tag k="old_name:se" v="Faccajavrit" />
		<tag k="ssr:stedsnr" v="81912" />
		<tag k="water" v="lake" />
	</node>
	<node lat="70.32863056581863" lon="25.623119188580457" id="-50441">
		<tag k="loc_name:se" v="Goahtesavu" />
		<tag k="name" v="Kotasuvanto" />
		<tag k="name:fkv" v="Kotasuvanto" />
		<tag k="natural" v="water" />
		<tag k="ssr:stedsnr" v="92617" />
		<tag k="water" v="lake" />
	</node>
	<node lat="70.33633055941434" lon="25.49996086660441" id="-50442">
		<tag k="name" v="Valkkeenvaarankurunjärvet" />
		<tag k="name:fkv" v="Valkkeenvaarankurunjärvet" />
		<tag k="natural" v="water" />
		<tag k="ssr:stedsnr" v="92622" />
	</node>
	<node lat="69.97218889671763" lon="24.940433138551317" id="-50447">
		<tag k="name" v="Øvre kulpen - Repokosken ylikuoppa" />
		<tag k="name:fkv" v="Repokosken ylikuoppa" />
		<tag k="name:no" v="Øvre kulpen" />
		<tag k="place" v="locality" />
		<tag k="ssr:stedsnr" v="100209" />
	</node>
	<node lat="70.05358611965472" lon="24.91240536962382" id="-50448">
		<tag k="name" v="Kotaniemensuanto" />
		<tag k="name:fkv" v="Kotaniemensuanto" />
		<tag k="ssr:stedsnr" v="100880" />
		<tag k="waterway" v="rapids" />
	</node>
	<node lat="69.94484722754461" lon="24.957766463578118" id="-50450">
		<tag k="name" v="Pikkulompola" />
		<tag k="name:fkv" v="Pikkulompola" />
		<tag k="natural" v="water" />
		<tag k="ssr:stedsnr" v="106232" />
		<tag k="water" v="lake" />
	</node>
	<node lat="70.54992223064335" lon="25.870533076712103" id="-50453">
		<tag k="name" v="Veajetláttu" />
		<tag k="name:se" v="Veajetláttu" />
		<tag k="natural" v="water" />
		<tag k="ssr:stedsnr" v="107047" />
	</node>
	<node lat="70.24777778184165" lon="24.946819252581886" id="-50458">
		<tag k="name" v="Bajit Látnjajávri" />
		<tag k="name:se" v="Bajit Látnjajávri" />
		<tag k="natural" v="water" />
		<tag k="ssr:stedsnr" v="140045" />
		<tag k="water" v="lake" />
	</node>
	<node lat="70.16583889429651" lon="25.677427523469184" id="-50462">
		<tag k="name" v="Goasojávrrit - Kuosuvaaranjärvet" />
		<tag k="name:fkv" v="Kuosuvaaranjärvet" />
		<tag k="name:se" v="Goasojávrrit" />
		<tag k="natural" v="water" />
		<tag k="ssr:stedsnr" v="140306" />
		<tag k="water" v="lake" />
	</node>
	<node lat="70.27048056080616" lon="25.55774421098708" id="-50464">
		<tag k="fixme" v="multiple name tags, choose one and add the other to alt_name" />
		<tag k="name" v="Liinnášjohka - Linsappirjoki;Linnansappirjoki" />
		<tag k="name:fkv" v="Linsappirjoki;Linnansappirjoki" />
		<tag k="name:se" v="Liinnášjohka" />
		<tag k="old_name:se" v="Lidnačabmirjågaš;Litnačapmirjogaš" />
		<tag k="ssr:stedsnr" v="140286" />
		<tag k="waterway" v="stream" />
	</node>
	<node lat="70.49287222809902" lon="25.85960806402025" id="-50466">
		<tag k="name" v="Rásttejohka" />
		<tag k="name:se" v="Rásttejohka" />
		<tag k="old_name:se" v="Rastejåkka" />
		<tag k="ssr:stedsnr" v="140297" />
		<tag k="waterway" v="stream" />
	</node>
	<node lat="70.36781667310623" lon="25.47998588018456" id="-50468">
		<tag k="name" v="Skoarrajávri - Skuorajärvi" />
		<tag k="name:fkv" v="Skuorajärvi" />
		<tag k="name:se" v="Skoarrajávri" />
		<tag k="natural" v="water" />
		<tag k="ssr:stedsnr" v="140465" />
	</node>
	<node lat="69.93828334588797" lon="25.52730807051195" id="-50472">
		<tag k="name" v="Beavdeluoppal" />
		<tag k="name:se" v="Beavdeluoppal" />
		<tag k="natural" v="water" />
		<tag k="old_name:se" v="Bævdeluobbal" />
		<tag k="ssr:stedsnr" v="140577" />
	</node>
	<node lat="70.09972500650834" lon="25.007997022105997" id="-50474">
		<tag k="name" v="Kortetoja" />
		<tag k="name:fkv" v="Kortetoja" />
		<tag k="ssr:stedsnr" v="141039" />
		<tag k="waterway" v="stream" />
	</node>
	<node lat="69.76070556149665" lon="25.365227515123483" id="-50477">
		<tag k="name" v="Geađgeluoppal" />
		<tag k="name:se" v="Geađgeluoppal" />
		<tag k="natural" v="water" />
		<tag k="old_name:se" v="Gæđgeluobbal" />
		<tag k="ssr:stedsnr" v="140984" />
	</node>
	<node lat="70.35857778586359" lon="25.630488635001957" id="-50488">
		<tag k="fixme" v="multiple name tags, choose one and add the other to alt_name" />
		<tag k="name" v="Geinnodatjávri - Keinojärvi;Hernarajärvi" />
		<tag k="name:fkv" v="Keinojärvi;Hernarajärvi" />
		<tag k="name:se" v="Geinnodatjávri" />
		<tag k="natural" v="water" />
		<tag k="ssr:stedsnr" v="141486" />
	</node>
	<node lat="70.5392277852494" lon="25.806763625416455" id="-50489">
		<tag k="name" v="Čoarvejohka - Hornelva" />
		<tag k="name:no" v="Hornelva" />
		<tag k="name:se" v="Čoarvejohka" />
		<tag k="ssr:stedsnr" v="141603" />
		<tag k="waterway" v="stream" />
	</node>
	<node lat="70.27958889712127" lon="25.062485918437098" id="-50491">
		<tag k="name" v="Gielkájávri" />
		<tag k="name:se" v="Gielkájávri" />
		<tag k="natural" v="water" />
		<tag k="ssr:stedsnr" v="141607" />
	</node>
	<node lat="70.26945278349596" lon="24.780969281657637" id="-50492">
		<tag k="name" v="Ruvžajohka" />
		<tag k="name:se" v="Ruvžajohka" />
		<tag k="ssr:stedsnr" v="141611" />
		<tag k="waterway" v="stream" />
	</node>
	<node lat="70.63493889824404" lon="26.100474715373956" id="-50503">
		<tag k="name" v="Boldnejohka" />
		<tag k="name:se" v="Boldnejohka" />
		<tag k="old_name:se" v="Båldnejåkka" />
		<tag k="ssr:stedsnr" v="141573" />
		<tag k="waterway" v="stream" />
	</node>
	<node lat="70.53670833988357" lon="25.0147748179559" id="-50506">
		<tag k="name" v="Unna Gárjiljávrráš" />
		<tag k="name:se" v="Unna Gárjiljávrráš" />
		<tag k="natural" v="water" />
		<tag k="old_name:se" v="Garjiljavraš, unna;Unna Garjiljávri" />
		<tag k="ssr:stedsnr" v="141897" />
		<tag k="water" v="lake" />
	</node>
	<node lat="70.4669305600623" lon="25.66483308330029" id="-50509">
		<tag k="name" v="Biškunjávri" />
		<tag k="name:se" v="Biškunjávri" />
		<tag k="natural" v="water" />
		<tag k="ssr:stedsnr" v="146872" />
		<tag k="water" v="lake" />
	</node>
	<node lat="70.27257500328386" lon="25.53763032288603" id="-50515">
		<tag k="name" v="Ylimarastonjärvi" />
		<tag k="name:fkv" v="Ylimarastonjärvi" />
		<tag k="natural" v="water" />
		<tag k="ssr:stedsnr" v="152419" />
	</node>
	<node lat="70.05691666883259" lon="24.917933149071963" id="-50518">
		<tag k="name" v="Leppäsaarenpuđas" />
		<tag k="name:fkv" v="Leppäsaarenpuđas" />
		<tag k="ssr:stedsnr" v="152458" />
		<tag k="waterway" v="rapids" />
	</node>
	<node lat="70.05512500807698" lon="24.91516926619076" id="-50519">
		<tag k="name" v="Telegrafstryket" />
		<tag k="name:no" v="Telegrafstryket" />
		<tag k="ssr:stedsnr" v="152459" />
		<tag k="waterway" v="rapids" />
	</node>
	<node lat="70.41512778484555" lon="25.635285877221897" id="-50527">
		<tag k="name" v="Skierregovdajohka" />
		<tag k="name:se" v="Skierregovdajohka" />
		<tag k="ssr:stedsnr" v="152560" />
		<tag k="waterway" v="stream" />
	</node>
	<node lat="70.01857222956465" lon="24.988344235237793" id="-50534">
		<tag k="name" v="Andre Porsvannet" />
		<tag k="name:no" v="Andre Porsvannet" />
		<tag k="natural" v="water" />
		<tag k="ssr:stedsnr" v="153416" />
		<tag k="water" v="lake" />
	</node>
	<node lat="69.95548333765186" lon="24.940274807952967" id="-50538">
		<tag k="name" v="Tiukkakoski" />
		<tag k="name:fkv" v="Tiukkakoski" />
		<tag k="ssr:stedsnr" v="161903" />
		<tag k="waterway" v="rapids" />
	</node>
	<node lat="70.06262223031068" lon="24.893485915313466" id="-50546">
		<tag k="name" v="Niemen Ellin järvi" />
		<tag k="name:fkv" v="Niemen Ellin järvi" />
		<tag k="natural" v="water" />
		<tag k="ssr:stedsnr" v="261206" />
	</node>
	<node lat="70.04687500455334" lon="25.608358079058842" id="-50551">
		<tag k="name" v="Beaišjávrrit - Peisjärvi" />
		<tag k="name:fkv" v="Peisjärvi" />
		<tag k="name:se" v="Beaišjávrrit" />
		<tag k="natural" v="water" />
		<tag k="ssr:stedsnr" v="261341" />
		<tag k="water" v="lake" />
	</node>
	<node lat="69.90582222230013" lon="24.35065541087596" id="-50553">
		<tag k="name" v="Uhca Áirojávrráš" />
		<tag k="name:se" v="Uhca Áirojávrráš" />
		<tag k="natural" v="water" />
		<tag k="old_name:se" v="Airujavraš, u" />
		<tag k="ssr:stedsnr" v="261674" />
	</node>
	<node lat="69.86763333853698" lon="24.425505393832353" id="-50554">
		<tag k="name" v="Čiekŋalisjávri" />
		<tag k="name:se" v="Čiekŋalisjávri" />
		<tag k="natural" v="water" />
		<tag k="old_name:se" v="Čiegŋalisjavri;Čieknalisjávri" />
		<tag k="ssr:stedsnr" v="261676" />
		<tag k="water" v="lake" />
	</node>
	<node lat="70.02117778259515" lon="24.962485906243803" id="-50567">
		<tag k="name" v="Borsejohka - Porsijoki" />
		<tag k="name:fkv" v="Porsijoki" />
		<tag k="name:se" v="Borsejohka" />
		<tag k="ssr:stedsnr" v="262247" />
		<tag k="waterway" v="river" />
	</node>
	<node lat="70.06051667092996" lon="25.183710898948615" id="-50572">
		<tag k="name" v="Gárenašjohka - Karenbekken - Kaarinanoja" />
		<tag k="name:fkv" v="Kaarinanoja" />
		<tag k="name:no" v="Karenbekken" />
		<tag k="name:se" v="Gárenašjohka" />
		<tag k="ssr:stedsnr" v="262233" />
		<tag k="waterway" v="stream" />
	</node>
	<node lat="70.02945834108824" lon="24.85116926968883" id="-50577">
		<tag k="name" v="Uhca Vuođđojávri - Pikku Uojärvi" />
		<tag k="name:fkv" v="Pikku Uojärvi" />
		<tag k="name:se" v="Uhca Vuođđojávri" />
		<tag k="natural" v="water" />
		<tag k="ssr:stedsnr" v="262252" />
		<tag k="water" v="lake" />
	</node>
	<node lat="70.34190556696194" lon="25.668177535325693" id="-50588">
		<tag k="name" v="Silffarjohka - Silfarelva - Silfarinjoki" />
		<tag k="name:fkv" v="Silfarinjoki" />
		<tag k="name:no" v="Silfarelva" />
		<tag k="name:se" v="Silffarjohka" />
		<tag k="ssr:stedsnr" v="262513" />
		<tag k="waterway" v="stream" />
	</node>
	<node lat="69.90802778563032" lon="25.042244239101414" id="-50593">
		<tag k="alt_name:se" v="Uhca Iŋggašjávri" />
		<tag k="name" v="Unna Iŋggašjávri" />
		<tag k="name:se" v="Unna Iŋggašjávri" />
		<tag k="natural" v="water" />
		<tag k="old_name:se" v="Iŋgašjavri, unna" />
		<tag k="ssr:stedsnr" v="262524" />
	</node>
	<node lat="69.87609444883316" lon="25.017713673447062" id="-50595">
		<tag k="name" v="Goahteluoppal" />
		<tag k="name:se" v="Goahteluoppal" />
		<tag k="old_name:se" v="Goatteluobbal" />
		<tag k="place" v="locality" />
		<tag k="ssr:stedsnr" v="262529" />
	</node>
	<node lat="69.87579444838511" lon="24.915144252519415" id="-50597">
		<tag k="name" v="Gievdneluoppal" />
		<tag k="name:se" v="Gievdneluoppal" />
		<tag k="natural" v="water" />
		<tag k="old_name:se" v="Gievdneluobbal" />
		<tag k="ssr:stedsnr" v="262532" />
		<tag k="water" v="lake" />
	</node>
	<node lat="70.68123889106498" lon="25.831663645671476" id="-50598">
		<tag k="name" v="Storvannet" />
		<tag k="name:no" v="Storvannet" />
		<tag k="natural" v="water" />
		<tag k="ssr:stedsnr" v="262539" />
	</node>
	<node lat="69.95741667882754" lon="25.184674770713062" id="-50603">
		<tag k="loc_name:no" v="Josefvann" />
		<tag k="name" v="Stuorra Juovssajávri" />
		<tag k="name:se" v="Stuorra Juovssajávri" />
		<tag k="natural" v="water" />
		<tag k="old_name:se" v="Juovsajavri, stuorra" />
		<tag k="ssr:stedsnr" v="262558" />
	</node>
	<node lat="70.27113056274467" lon="25.01001370176572" id="-50611">
		<tag k="fixme" v="multiple name tags, choose one and add the other to alt_name" />
		<tag k="name" v="Goarahatjávri;Leammosjávri;Lemesjávri - Gåradakvannet - Kuoratakanjärvi" />
		<tag k="name:fkv" v="Kuoratakanjärvi" />
		<tag k="name:no" v="Gåradakvannet" />
		<tag k="name:se" v="Goarahatjávri;Leammosjávri;Lemesjávri" />
		<tag k="natural" v="water" />
		<tag k="ssr:stedsnr" v="262610" />
		<tag k="water" v="lake" />
	</node>
	<node lat="69.80713612036446" lon="24.947308125543206" id="-50612">
		<tag k="name" v="Vuolit Darvvajávri" />
		<tag k="name:se" v="Vuolit Darvvajávri" />
		<tag k="natural" v="water" />
		<tag k="old_name:se" v="Darvajavri, vuolit" />
		<tag k="ssr:stedsnr" v="262611" />
	</node>
	<node lat="69.79517778491456" lon="24.84649979244113" id="-50614">
		<tag k="name" v="Jámešluoppal" />
		<tag k="name:se" v="Jámešluoppal" />
		<tag k="old_name:se" v="Jamešluobbal" />
		<tag k="place" v="locality" />
		<tag k="ssr:stedsnr" v="262613" />
	</node>
	<node lat="69.79459167052057" lon="24.925574791287342" id="-50616">
		<tag k="name" v="Darvvajohka" />
		<tag k="name:se" v="Darvvajohka" />
		<tag k="old_name:se" v="Doarvajåkka" />
		<tag k="ssr:stedsnr" v="262617" />
		<tag k="waterway" v="stream" />
	</node>
	<node lat="69.7623083423022" lon="25.03530535493603" id="-50617">
		<tag k="name" v="Savgŋojávri" />
		<tag k="name:se" v="Savgŋojávri" />
		<tag k="natural" v="water" />
		<tag k="old_name:se" v="Savgŋujavri;Savkŋojávri" />
		<tag k="ssr:stedsnr" v="262624" />
		<tag k="water" v="lake" />
	</node>
	<node lat="69.86198889685177" lon="24.477138723754504" id="-50618">
		<tag k="name" v="Boldnejávri" />
		<tag k="name:se" v="Boldnejávri" />
		<tag k="natural" v="water" />
		<tag k="old_name:se" v="Båldnejavri" />
		<tag k="ssr:stedsnr" v="262708" />
	</node>
	<node lat="69.81555555654062" lon="24.25763873953846" id="-50619">
		<tag k="name" v="Vearddašskáidi" />
		<tag k="name:se" v="Vearddašskáidi" />
		<tag k="natural" v="cape" />
		<tag k="old_name:se" v="Værdašskaidi" />
		<tag k="ssr:stedsnr" v="262712" />
	</node>
	<node lat="69.83873611967495" lon="24.244538752737398" id="-50620">
		<tag k="name" v="Husvannet" />
		<tag k="name:no" v="Husvannet" />
		<tag k="natural" v="water" />
		<tag k="ssr:stedsnr" v="262715" />
	</node>
	<node lat="69.84467778145486" lon="24.579555379245843" id="-50621">
		<tag k="name" v="Leavnnjašjávri" />
		<tag k="name:se" v="Leavnnjašjávri" />
		<tag k="natural" v="water" />
		<tag k="old_name:se" v="Lævnasjavri" />
		<tag k="ssr:stedsnr" v="262716" />
		<tag k="water" v="lake" />
	</node>
	<node lat="70.262552780654" lon="24.52653040255279" id="-50622">
		<tag k="name" v="Boŋkafielbmá" />
		<tag k="name:se" v="Boŋkafielbmá" />
		<tag k="old_name:se" v="Båŋkafielbma" />
		<tag k="ssr:stedsnr" v="262719" />
		<tag k="waterway" v="stream" />
	</node>
	<node lat="70.45134722585723" lon="25.19197758192542" id="-50628">
		<tag k="fixme" v="multiple name tags, choose one and add the other to alt_name" />
		<tag k="name" v="Dievdojohka - Lensmannselva;Fyllelva" />
		<tag k="name:no" v="Lensmannselva;Fyllelva" />
		<tag k="name:se" v="Dievdojohka" />
		<tag k="ssr:stedsnr" v="262764" />
		<tag k="waterway" v="river" />
	</node>
	<node lat="70.18952500450554" lon="24.606285962368208" id="-50630">
		<tag k="name" v="Máhtejávrrit" />
		<tag k="name:se" v="Máhtejávrrit" />
		<tag k="natural" v="water" />
		<tag k="old_name:se" v="Mattejavrit" />
		<tag k="ssr:stedsnr" v="262960" />
	</node>
	<node lat="69.84962500866018" lon="25.663427486825146" id="-50632">
		<tag k="name" v="Nieidajávri" />
		<tag k="name:se" v="Nieidajávri" />
		<tag k="natural" v="water" />
		<tag k="old_name:se" v="Nieidajavri" />
		<tag k="ssr:stedsnr" v="262921" />
	</node>
	<node lat="69.8458500067642" lon="25.351474757478606" id="-50633">
		<tag k="name" v="Guhkesjávri" />
		<tag k="name:se" v="Guhkesjávri" />
		<tag k="natural" v="water" />
		<tag k="old_name:se" v="Gukkesjavri" />
		<tag k="ssr:stedsnr" v="262924" />
	</node>
	<node lat="69.8829888949952" lon="25.59141916471806" id="-50634">
		<tag k="name" v="Suolojohka" />
		<tag k="name:se" v="Suolojohka" />
		<tag k="old_name:se" v="Soulujåkka" />
		<tag k="ssr:stedsnr" v="262934" />
		<tag k="waterway" v="stream" />
	</node>
	<node lat="69.88468890147972" lon="25.568083062061284" id="-50635">
		<tag k="name" v="Vánššjoknjálbmi" />
		<tag k="name:se" v="Vánššjoknjálbmi" />
		<tag k="natural" v="bay" />
		<tag k="old_name:se" v="Vanšjåknjalbmi" />
		<tag k="ssr:stedsnr" v="262935" />
	</node>
	<node lat="70.16231667094472" lon="24.469385949273533" id="-50637">
		<tag k="name" v="Holvunjávri" />
		<tag k="name:se" v="Holvunjávri" />
		<tag k="natural" v="water" />
		<tag k="ssr:stedsnr" v="262971" />
		<tag k="water" v="lake" />
	</node>
	<node lat="70.15496388915729" lon="24.32154986127642" id="-50640">
		<tag k="name" v="Leaktojohka" />
		<tag k="name:se" v="Leaktojohka" />
		<tag k="old_name:se" v="Læktujåkka" />
		<tag k="ssr:stedsnr" v="262975" />
		<tag k="waterway" v="river" />
	</node>
	<node lat="70.54061667049928" lon="25.087819250515018" id="-50642">
		<tag k="name" v="Dollejohka - Brennelva" />
		<tag k="name:no" v="Brennelva" />
		<tag k="name:se" v="Dollejohka" />
		<tag k="old_name:se" v="Dållejåkka" />
		<tag k="ssr:stedsnr" v="263120" />
		<tag k="waterway" v="river" />
	</node>
	<node lat="70.0057583434598" lon="25.060969245914617" id="-50643">
		<tag k="name" v="Trekantvannan" />
		<tag k="name:no" v="Trekantvannan" />
		<tag k="natural" v="water" />
		<tag k="ssr:stedsnr" v="263126" />
	</node>
	<node lat="70.35145833798965" lon="24.75308594668046" id="-50649">
		<tag k="name" v="Skáiddemohkki" />
		<tag k="name:se" v="Skáiddemohkki" />
		<tag k="natural" v="bay" />
		<tag k="ssr:stedsnr" v="263572" />
	</node>
	<node lat="70.41521389935596" lon="25.146863690514753" id="-50650">
		<tag k="name" v="Suovkajávri" />
		<tag k="name:se" v="Suovkajávri" />
		<tag k="natural" v="water" />
		<tag k="ssr:stedsnr" v="263742" />
	</node>
	<node lat="70.41031389516786" lon="24.99903316014465" id="-50651">
		<tag k="name" v="Veastajohka" />
		<tag k="name:se" v="Veastajohka" />
		<tag k="ssr:stedsnr" v="263744" />
		<tag k="waterway" v="stream" />
	</node>
	<node lat="70.54135000319307" lon="24.891938723320845" id="-50656">
		<tag k="alt_name:no" v="Øvre Eidevatn;Eidevatnet, øvre" />
		<tag k="name" v="Bajit Muotkejávri - Øvre Eidevatnet" />
		<tag k="name:no" v="Øvre Eidevatnet" />
		<tag k="name:se" v="Bajit Muotkejávri" />
		<tag k="natural" v="water" />
		<tag k="old_name:se" v="Muotkejavri bajit" />
		<tag k="ssr:stedsnr" v="263942" />
	</node>
	<node lat="70.06507777953631" lon="24.481841507588324" id="-50662">
		<tag k="name" v="Duolbaráššajávri" />
		<tag k="name:se" v="Duolbaráššajávri" />
		<tag k="natural" v="water" />
		<tag k="old_name:se" v="Duolbaraššajavri" />
		<tag k="ssr:stedsnr" v="201003" />
		<tag k="water" v="lake" />
	</node>
	<node lat="70.19699445518627" lon="24.871355368286746" id="-50664">
		<tag k="name" v="Bajit Gealbbotjávri" />
		<tag k="name:se" v="Bajit Gealbbotjávri" />
		<tag k="natural" v="water" />
		<tag k="ssr:stedsnr" v="201053" />
		<tag k="water" v="lake" />
	</node>
	<node lat="70.19558333814078" lon="24.66363040245958" id="-50665">
		<tag k="name" v="Bálggesjávri" />
		<tag k="name:se" v="Bálggesjávri" />
		<tag k="natural" v="water" />
		<tag k="ssr:stedsnr" v="201057" />
	</node>
	<node lat="69.9756388916082" lon="24.91304979791054" id="-50675">
		<tag k="name" v="Bealjánjávri" />
		<tag k="name:se" v="Bealjánjávri" />
		<tag k="natural" v="water" />
		<tag k="old_name:se" v="Bælljanjavri" />
		<tag k="ssr:stedsnr" v="201506" />
	</node>
	<node lat="69.78526112016046" lon="25.487324728674913" id="-50678">
		<tag k="loc_name:no" v="Stolpevann" />
		<tag k="name" v="Duolljeluhččenjávri" />
		<tag k="name:se" v="Duolljeluhččenjávri" />
		<tag k="natural" v="water" />
		<tag k="old_name:se" v="Duolljeluččenjavri" />
		<tag k="ssr:stedsnr" v="201997" />
		<tag k="water" v="lake" />
	</node>
	<node lat="70.36553889573759" lon="25.54473309400347" id="-50679">
		<tag k="name" v="Gieddejohka - Leirpollelva - Kentänjoki" />
		<tag k="name:fkv" v="Kentänjoki" />
		<tag k="name:no" v="Leirpollelva" />
		<tag k="name:se" v="Gieddejohka" />
		<tag k="ssr:stedsnr" v="202490" />
		<tag k="waterway" v="river" />
	</node>
	<node lat="70.32996667297363" lon="25.45580811284936" id="-50682">
		<tag k="name" v="Gurrajávri - Kurujärvi" />
		<tag k="name:fkv" v="Kurujärvi" />
		<tag k="name:se" v="Gurrajávri" />
		<tag k="natural" v="water" />
		<tag k="ssr:stedsnr" v="202501" />
	</node>
	<node lat="70.66760833953313" lon="25.294974799262903" id="-50690">
		<tag k="name" v="Hálddagurjávri" />
		<tag k="name:se" v="Hálddagurjávri" />
		<tag k="natural" v="water" />
		<tag k="old_name:se" v="Haldagurjavri" />
		<tag k="ssr:stedsnr" v="202991" />
	</node>
	<node lat="70.49781112054296" lon="25.73226363244243" id="-50703">
		<tag k="name" v="Saltánjohka" />
		<tag k="name:se" v="Saltánjohka" />
		<tag k="ssr:stedsnr" v="212284" />
		<tag k="waterway" v="stream" />
	</node>
	<node lat="70.065511119613" lon="25.2046775550372" id="-50704">
		<tag k="name" v="Ritanjärvi" />
		<tag k="name:fkv" v="Ritanjärvi" />
		<tag k="natural" v="water" />
		<tag k="ssr:stedsnr" v="213081" />
	</node>
	<node lat="70.39984445354224" lon="25.235635921867807" id="-50707">
		<tag k="name" v="Grunnvågbekken" />
		<tag k="name:no" v="Grunnvågbekken" />
		<tag k="ssr:stedsnr" v="213478" />
		<tag k="waterway" v="stream" />
	</node>
	<node lat="70.53809166720144" lon="25.10191926333179" id="-50708">
		<tag k="name" v="Brennelva" />
		<tag k="name:no" v="Brennelva" />
		<tag k="ssr:stedsnr" v="213384" />
		<tag k="waterway" v="stream" />
	</node>
	<node lat="70.00835833745212" lon="24.916960914987584" id="-50710">
		<tag k="name" v="Gjøkeneskulpen" />
		<tag k="name:no" v="Gjøkeneskulpen" />
		<tag k="place" v="locality" />
		<tag k="ssr:stedsnr" v="213509" />
	</node>
	<node lat="70.31530000763605" lon="25.547255313049934" id="-50715">
		<tag k="name" v="Alakentänsuvanto" />
		<tag k="name:fkv" v="Alakentänsuvanto" />
		<tag k="natural" v="water" />
		<tag k="ssr:stedsnr" v="214612" />
		<tag k="water" v="lake" />
	</node>
	<node lat="70.39555556319596" lon="25.62093030298754" id="-50716">
		<tag k="name" v="Reahpenjávri - Reppenejärvi" />
		<tag k="name:fkv" v="Reppenejärvi" />
		<tag k="name:se" v="Reahpenjávri" />
		<tag k="natural" v="water" />
		<tag k="ssr:stedsnr" v="269988" />
	</node>
	<node lat="70.3510333380079" lon="25.75287196089725" id="-50717">
		<tag k="name" v="Puurinojansuu" />
		<tag k="name:fkv" v="Puurinojansuu" />
		<tag k="natural" v="water" />
		<tag k="ssr:stedsnr" v="214910" />
		<tag k="water" v="lake" />
	</node>
	<node lat="69.9316861200142" lon="24.975847028346017" id="-50720">
		<tag k="name" v="Oivunen" />
		<tag k="name:fkv" v="Oivunen" />
		<tag k="natural" v="bay" />
		<tag k="ssr:stedsnr" v="222902" />
	</node>
	<node lat="70.61840833640692" lon="26.06044417225019" id="-50721">
		<tag k="name" v="Muotki" />
		<tag k="name:se" v="Muotki" />
		<tag k="place" v="locality" />
		<tag k="ssr:stedsnr" v="227800" />
	</node>
	<node lat="70.26216389313936" lon="25.530988641270284" id="-50726">
		<tag k="name" v="Geađgejávri - Kivijärvi" />
		<tag k="name:fkv" v="Kivijärvi" />
		<tag k="name:se" v="Geađgejávri" />
		<tag k="natural" v="water" />
		<tag k="ssr:stedsnr" v="451128" />
	</node>
	<node lat="70.50683056468736" lon="25.74998863935031" id="-50730">
		<tag k="name" v="Luhppojohka" />
		<tag k="name:se" v="Luhppojohka" />
		<tag k="ssr:stedsnr" v="454446" />
		<tag k="waterway" v="stream" />
	</node>
	<node lat="70.51729445048899" lon="25.81504140539515" id="-50731">
		<tag k="name" v="Gárdutláttu" />
		<tag k="name:se" v="Gárdutláttu" />
		<tag k="natural" v="water" />
		<tag k="ssr:stedsnr" v="454453" />
	</node>
	<node lat="70.28723334249986" lon="25.532171995837167" id="-50738">
		<tag k="name" v="Kaakkurinoja" />
		<tag k="name:fkv" v="Kaakkurinoja" />
		<tag k="ssr:stedsnr" v="456387" />
		<tag k="waterway" v="stream" />
	</node>
	<node lat="70.32933056317118" lon="25.6226608771098" id="-50739">
		<tag k="name" v="Lantoniemi" />
		<tag k="name:fkv" v="Lantoniemi" />
		<tag k="natural" v="cape" />
		<tag k="ssr:stedsnr" v="456436" />
	</node>
	<node lat="69.74147223035409" lon="25.187849757943535" id="-50759">
		<tag k="name" v="Ruonáluoppal" />
		<tag k="name:se" v="Ruonáluoppal" />
		<tag k="natural" v="water" />
		<tag k="old_name:se" v="Ruonaluobbal" />
		<tag k="ssr:stedsnr" v="261298" />
		<tag k="water" v="lake" />
	</node>
	<node lat="70.33860556155314" lon="25.589685872805163" id="-50766">
		<tag k="name" v="Perjakurunjärvi" />
		<tag k="name:fkv" v="Perjakurunjärvi" />
		<tag k="natural" v="water" />
		<tag k="ssr:stedsnr" v="457493" />
	</node>
	<node lat="70.14391111879549" lon="24.8923970438512" id="-50769">
		<tag k="name" v="Kunsajohka" />
		<tag k="name:se" v="Kunsajohka" />
		<tag k="ssr:stedsnr" v="262150" />
		<tag k="waterway" v="stream" />
	</node>
	<node lat="70.37948612382061" lon="25.791633063027145" id="-50772">
		<tag k="name" v="Kariojanjärvi" />
		<tag k="name:fkv" v="Kariojanjärvi" />
		<tag k="natural" v="water" />
		<tag k="ssr:stedsnr" v="262402" />
	</node>
	<node lat="70.30184723111827" lon="25.574369204180815" id="-50774">
		<tag k="name" v="Nikulhaanoja" />
		<tag k="name:fkv" v="Nikulhaanoja" />
		<tag k="ssr:stedsnr" v="262451" />
		<tag k="waterway" v="stream" />
	</node>
	<node lat="69.95831389410566" lon="24.931774813724804" id="-50776">
		<tag k="name" v="Leavdnjajohka - Lakselva - Lemmijoki" />
		<tag k="name:fkv" v="Lemmijoki" />
		<tag k="name:no" v="Lakselva" />
		<tag k="name:se" v="Leavdnjajohka" />
		<tag k="ssr:stedsnr" v="262505" />
		<tag k="waterway" v="river" />
	</node>
	<node lat="69.86864167179752" lon="25.189760896430958" id="-50778">
		<tag k="name" v="Muvravárjohka" />
		<tag k="name:se" v="Muvravárjohka" />
		<tag k="old_name:se" v="Muvravarjåkka" />
		<tag k="ssr:stedsnr" v="262543" />
		<tag k="waterway" v="stream" />
	</node>
	<node lat="70.40040834258996" lon="24.756466499416888" id="-50779">
		<tag k="name" v="Sáhpasfielbmá" />
		<tag k="name:se" v="Sáhpasfielbmá" />
		<tag k="ssr:stedsnr" v="262547" />
		<tag k="waterway" v="stream" />
	</node>
	<node lat="69.8031305620586" lon="25.11536923309634" id="-50783">
		<tag k="name" v="Dápmotjohka" />
		<tag k="name:se" v="Dápmotjohka" />
		<tag k="old_name:se" v="Dabmutjåkka" />
		<tag k="ssr:stedsnr" v="262500" />
		<tag k="waterway" v="stream" />
	</node>
	<node lat="70.42408889204523" lon="24.593577629581425" id="-50785">
		<tag k="name" v="Skaidielva - Skáiddejohka" />
		<tag k="name:no" v="Skaidielva" />
		<tag k="name:se" v="Skáiddejohka" />
		<tag k="ssr:stedsnr" v="262649" />
		<tag k="waterway" v="river" />
	</node>
	<node lat="69.94399167034378" lon="25.29938587380285" id="-50786">
		<tag k="name" v="Čahkaljohka" />
		<tag k="name:se" v="Čahkaljohka" />
		<tag k="old_name:se" v="Čakkaljåkka" />
		<tag k="ssr:stedsnr" v="262598" />
		<tag k="waterway" v="stream" />
	</node>
	<node lat="70.72550000914579" lon="25.340835910459365" id="-50788">
		<tag k="name" v="Gumppejávrrit" />
		<tag k="name:se" v="Gumppejávrrit" />
		<tag k="natural" v="water" />
		<tag k="old_name:se" v="Gumpejavrit" />
		<tag k="ssr:stedsnr" v="262952" />
		<tag k="water" v="lake" />
	</node>
	<node lat="70.03617500563071" lon="25.057035894715007" id="-50792">
		<tag k="name" v="Karhukurunjärvet" />
		<tag k="name:fkv" v="Karhukurunjärvet" />
		<tag k="natural" v="water" />
		<tag k="ssr:stedsnr" v="263081" />
	</node>
	<node lat="70.3889444533504" lon="25.610544209699597" id="-50795">
		<tag k="name" v="Roggejávri - Runkajärvi" />
		<tag k="name:fkv" v="Runkajärvi" />
		<tag k="name:se" v="Roggejávri" />
		<tag k="natural" v="water" />
		<tag k="ssr:stedsnr" v="263412" />
	</node>
	<node lat="70.3076194470306" lon="24.718591511889453" id="-50796">
		<tag k="name" v="Goađehisjávrrit" />
		<tag k="name:se" v="Goađehisjávrrit" />
		<tag k="natural" v="water" />
		<tag k="ssr:stedsnr" v="263602" />
		<tag k="water" v="lake" />
	</node>
	<node lat="70.55583889811307" lon="25.88035252187399" id="-50798">
		<tag k="name" v="Boskajohka - Sløkelva" />
		<tag k="name:no" v="Sløkelva" />
		<tag k="name:se" v="Boskajohka" />
		<tag k="old_name:se" v="Båskajåkka" />
		<tag k="ssr:stedsnr" v="263605" />
		<tag k="waterway" v="stream" />
	</node>
	<node lat="70.41263611951213" lon="25.695733077399424" id="-50800">
		<tag k="name" v="Lákcajávri - Laksajärvi" />
		<tag k="name:fkv" v="Laksajärvi" />
		<tag k="name:se" v="Lákcajávri" />
		<tag k="natural" v="water" />
		<tag k="ssr:stedsnr" v="263400" />
		<tag k="water" v="lake" />
	</node>
	<node lat="70.56420278152224" lon="26.062805273109213" id="-50801">
		<tag k="name" v="Geinnotjohka" />
		<tag k="name:se" v="Geinnotjohka" />
		<tag k="old_name:se" v="Geinutjåkka" />
		<tag k="ssr:stedsnr" v="263575" />
		<tag k="waterway" v="stream" />
	</node>
	<node lat="70.25764445361848" lon="24.66672206164608" id="-50803">
		<tag k="name" v="Juovvanjárga" />
		<tag k="name:se" v="Juovvanjárga" />
		<tag k="natural" v="cape" />
		<tag k="ssr:stedsnr" v="263579" />
	</node>
	<node lat="70.31292500390926" lon="24.889597053670656" id="-50807">
		<tag k="name" v="Gottetjohka" />
		<tag k="name:se" v="Gottetjohka" />
		<tag k="ssr:stedsnr" v="263595" />
		<tag k="waterway" v="river" />
	</node>
	<node lat="70.3125250046889" lon="24.96573870806851" id="-50810">
		<tag k="name" v="Náránaščohkaláttu" />
		<tag k="name:se" v="Náránaščohkaláttu" />
		<tag k="natural" v="water" />
		<tag k="ssr:stedsnr" v="263692" />
	</node>
	<node lat="70.4748000074989" lon="25.175810927462592" id="-50811">
		<tag k="name" v="Vilgesluohjohka - Kvitvikelva" />
		<tag k="name:no" v="Kvitvikelva" />
		<tag k="name:se" v="Vilgesluohjohka" />
		<tag k="ssr:stedsnr" v="263805" />
		<tag k="waterway" v="stream" />
	</node>
	<node lat="70.40365833922438" lon="25.59090808439142" id="-50812">
		<tag k="name" v="Fielbmájávri - Fielmajärvi" />
		<tag k="name:fkv" v="Fielmajärvi" />
		<tag k="name:se" v="Fielbmájávri" />
		<tag k="natural" v="water" />
		<tag k="ssr:stedsnr" v="263914" />
	</node>
	<node lat="70.17607223153975" lon="24.806691494250675" id="-50814">
		<tag k="name" v="Oterkulpen" />
		<tag k="name:no" v="Oterkulpen" />
		<tag k="place" v="locality" />
		<tag k="ssr:stedsnr" v="457790" />
	</node>
	<node lat="70.5033472265533" lon="25.736321979376147" id="-50821">
		<tag k="name" v="Buollánjohka" />
		<tag k="name:se" v="Buollánjohka" />
		<tag k="ssr:stedsnr" v="272283" />
		<tag k="waterway" v="stream" />
	</node>
	<node lat="70.51274722888562" lon="25.75343862783932" id="-50822">
		<tag k="name" v="Boaimmašjohka" />
		<tag k="name:se" v="Boaimmašjohka" />
		<tag k="ssr:stedsnr" v="272428" />
		<tag k="waterway" v="stream" />
	</node>
	<node lat="70.48701389530756" lon="25.77822475743542" id="-50824">
		<tag k="name" v="Áinnetája" />
		<tag k="name:se" v="Áinnetája" />
		<tag k="ssr:stedsnr" v="272384" />
		<tag k="waterway" v="stream" />
	</node>
	<node lat="70.33855556246424" lon="25.448033114180642" id="-50829">
		<tag k="name" v="Mustanvaaranjärvi" />
		<tag k="name:fkv" v="Mustanvaaranjärvi" />
		<tag k="natural" v="water" />
		<tag k="ssr:stedsnr" v="274489" />
	</node>
	<node lat="70.3427972327481" lon="25.515038644999084" id="-50832">
		<tag k="name" v="Valkkeenvaarantausjärvi" />
		<tag k="name:fkv" v="Valkkeenvaarantausjärvi" />
		<tag k="natural" v="water" />
		<tag k="ssr:stedsnr" v="274584" />
	</node>
	<node lat="70.33982500789902" lon="25.032247030039528" id="-50836">
		<tag k="name" v="Gorbovuongorži" />
		<tag k="name:se" v="Gorbovuongorži" />
		<tag k="natural" v="waterfall" />
		<tag k="ssr:stedsnr" v="274808" />
	</node>
	<node lat="70.3645166696418" lon="25.757383075812037" id="-50837">
		<tag k="loc_name:se" v="Vievssajohnjálbmi" />
		<tag k="name" v="Vieksajoensuu" />
		<tag k="name:fkv" v="Vieksajoensuu" />
		<tag k="natural" v="water" />
		<tag k="ssr:stedsnr" v="274873" />
		<tag k="water" v="lake" />
	</node>
	<node lat="70.36200278707682" lon="25.760949743174944" id="-50838">
		<tag k="name" v="Pänkäränalus" />
		<tag k="name:fkv" v="Pänkäränalus" />
		<tag k="natural" v="water" />
		<tag k="ssr:stedsnr" v="274876" />
		<tag k="water" v="lake" />
	</node>
	<node lat="70.33323889497339" lon="25.63945252768991" id="-50840">
		<tag k="name" v="Petäjävaaransuvanto" />
		<tag k="name:fkv" v="Petäjävaaransuvanto" />
		<tag k="natural" v="water" />
		<tag k="ssr:stedsnr" v="275588" />
		<tag k="water" v="lake" />
	</node>
	<node lat="69.93658056556316" lon="24.971635912565905" id="-50843">
		<tag k="name" v="Väliniva" />
		<tag k="name:fkv" v="Väliniva" />
		<tag k="place" v="locality" />
		<tag k="ssr:stedsnr" v="283914" />
	</node>
	<node lat="69.96993889256495" lon="24.946755348462787" id="-50844">
		<tag k="name" v="Erkinsuanto" />
		<tag k="name:fkv" v="Erkinsuanto" />
		<tag k="natural" v="water" />
		<tag k="ssr:stedsnr" v="283921" />
		<tag k="water" v="lake" />
	</node>
	<node lat="69.95950000735618" lon="24.928499801724787" id="-50845">
		<tag k="name" v="Uojoensuu" />
		<tag k="name:fkv" v="Uojoensuu" />
		<tag k="natural" v="bay" />
		<tag k="ssr:stedsnr" v="283926" />
	</node>
	<node lat="69.83530278749544" lon="25.0769914635277" id="-50846">
		<tag k="name" v="Bjørkenes" />
		<tag k="name:no" v="Bjørkenes" />
		<tag k="natural" v="cape" />
		<tag k="ssr:stedsnr" v="288036" />
	</node>
	<node lat="70.14198333597975" lon="24.881719252096683" id="-50853">
		<tag k="name" v="Kunsajávri" />
		<tag k="name:se" v="Kunsajávri" />
		<tag k="natural" v="water" />
		<tag k="ssr:stedsnr" v="322131" />
	</node>
	<node lat="70.05648333838938" lon="24.94358593038289" id="-50854">
		<tag k="name" v="Haukijärvi" />
		<tag k="name:fkv" v="Haukijärvi" />
		<tag k="natural" v="water" />
		<tag k="ssr:stedsnr" v="322178" />
	</node>
	<node lat="70.06416667291779" lon="24.888713708843653" id="-50856">
		<tag k="name" v="Niemen Ellin oja" />
		<tag k="name:fkv" v="Niemen Ellin oja" />
		<tag k="ssr:stedsnr" v="322193" />
		<tag k="waterway" v="stream" />
	</node>
	<node lat="69.88278889545015" lon="25.084713670503138" id="-50861">
		<tag k="name" v="Čoalbmejávri" />
		<tag k="name:se" v="Čoalbmejávri" />
		<tag k="natural" v="water" />
		<tag k="old_name:se" v="Čoalbmejavri" />
		<tag k="ssr:stedsnr" v="322515" />
	</node>
	<node lat="69.8349111175767" lon="25.026138674707525" id="-50862">
		<tag k="name" v="Njuorjjoluokta" />
		<tag k="name:se" v="Njuorjjoluokta" />
		<tag k="natural" v="bay" />
		<tag k="old_name:se" v="Njuorjuluokta" />
		<tag k="ssr:stedsnr" v="322527" />
	</node>
	<node lat="69.84608334221146" lon="25.125710887093515" id="-50863">
		<tag k="name" v="Dápmotjávri" />
		<tag k="name:se" v="Dápmotjávri" />
		<tag k="natural" v="water" />
		<tag k="old_name:se" v="Dabmutjavri" />
		<tag k="ssr:stedsnr" v="322528" />
	</node>
	<node lat="69.97557500688767" lon="25.198449773797915" id="-50865">
		<tag k="name" v="Juovssajohka" />
		<tag k="name:se" v="Juovssajohka" />
		<tag k="old_name:se" v="Juovsajåkka" />
		<tag k="ssr:stedsnr" v="322538" />
		<tag k="waterway" v="river" />
	</node>
	<node lat="69.99677778574541" lon="24.941677578227583" id="-50868">
		<tag k="name" v="Slåttenes - Slootta" />
		<tag k="name:fkv" v="Slootta" />
		<tag k="name:no" v="Slåttenes" />
		<tag k="natural" v="cape" />
		<tag k="ssr:stedsnr" v="322694" />
	</node>
	<node lat="70.2806472236009" lon="24.49803873882825" id="-50869">
		<tag k="name" v="Nillabašjávri" />
		<tag k="name:se" v="Nillabašjávri" />
		<tag k="natural" v="water" />
		<tag k="old_name:se" v="Nillabašjavri" />
		<tag k="ssr:stedsnr" v="322703" />
		<tag k="water" v="lake" />
	</node>
	<node lat="69.84310556520397" lon="25.288919197224836" id="-50870">
		<tag k="name" v="Sarvvesjohka" />
		<tag k="name:se" v="Sarvvesjohka" />
		<tag k="old_name:se" v="Sarvesjåkka" />
		<tag k="ssr:stedsnr" v="322906" />
		<tag k="waterway" v="stream" />
	</node>
	<node lat="69.89791945646105" lon="25.635302500271177" id="-50871">
		<tag k="name" v="Gáranasjohka" />
		<tag k="name:se" v="Gáranasjohka" />
		<tag k="old_name:se" v="Garanasjåkka" />
		<tag k="ssr:stedsnr" v="322929" />
		<tag k="waterway" v="stream" />
	</node>
	<node lat="70.43272222948822" lon="25.88004417399248" id="-50875">
		<tag k="name" v="Vievssaláddot" />
		<tag k="name:se" v="Vievssaláddot" />
		<tag k="natural" v="water" />
		<tag k="old_name:se" v="Vievsaladdut" />
		<tag k="ssr:stedsnr" v="323308" />
	</node>
	<node lat="70.39994723158955" lon="25.68389418921169" id="-50876">
		<tag k="name" v="Uhca Lákcajávrrit - Pikku Laksajärvi" />
		<tag k="name:fkv" v="Pikku Laksajärvi" />
		<tag k="name:se" v="Uhca Lákcajávrrit" />
		<tag k="natural" v="water" />
		<tag k="ssr:stedsnr" v="323405" />
	</node>
	<node lat="70.25500000631072" lon="24.955624820537064" id="-50877">
		<tag k="name" v="Máhtejukkeláddot" />
		<tag k="name:se" v="Máhtejukkeláddot" />
		<tag k="natural" v="water" />
		<tag k="ssr:stedsnr" v="323406" />
	</node>
	<node lat="70.26501944906197" lon="24.906180372364716" id="-50878">
		<tag k="name" v="Váreduogijávri" />
		<tag k="name:se" v="Váreduogijávri" />
		<tag k="natural" v="water" />
		<tag k="ssr:stedsnr" v="323419" />
	</node>
	<node lat="70.44455000397772" lon="25.653810857068823" id="-50879">
		<tag k="name" v="Biesaidjohka - Piesanjoki" />
		<tag k="name:fkv" v="Piesanjoki" />
		<tag k="name:se" v="Biesaidjohka" />
		<tag k="ssr:stedsnr" v="323432" />
		<tag k="waterway" v="stream" />
	</node>
	<node lat="70.53473056230202" lon="25.840052530223407" id="-50883">
		<tag k="name" v="Čoarvejávrrit" />
		<tag k="name:se" v="Čoarvejávrrit" />
		<tag k="natural" v="water" />
		<tag k="ssr:stedsnr" v="323606" />
	</node>
	<node lat="70.33882500914554" lon="25.737671954406267" id="-50884">
		<tag k="name" v="Buvrejávrrit - Puurinjärvet" />
		<tag k="name:fkv" v="Puurinjärvet" />
		<tag k="name:se" v="Buvrejávrrit" />
		<tag k="natural" v="water" />
		<tag k="ssr:stedsnr" v="323509" />
	</node>
	<node lat="70.43268889271933" lon="25.081663696028663" id="-50885">
		<tag k="name" v="Duolbajávri - Prestvannet" />
		<tag k="name:no" v="Prestvannet" />
		<tag k="name:se" v="Duolbajávri" />
		<tag k="natural" v="water" />
		<tag k="ssr:stedsnr" v="323721" />
		<tag k="water" v="lake" />
	</node>
	<node lat="70.44013333737793" lon="25.03570537386345" id="-50887">
		<tag k="name" v="Čiežajávrrit - Syvvannan" />
		<tag k="name:no" v="Syvvannan" />
		<tag k="name:se" v="Čiežajávrrit" />
		<tag k="natural" v="water" />
		<tag k="ssr:stedsnr" v="323736" />
		<tag k="water" v="lake" />
	</node>
	<node lat="70.60376944818697" lon="25.208413705440883" id="-50889">
		<tag k="name" v="Bákteravddajávri" />
		<tag k="name:se" v="Bákteravddajávri" />
		<tag k="natural" v="water" />
		<tag k="old_name:se" v="Bakteravdajavri" />
		<tag k="ssr:stedsnr" v="323886" />
		<tag k="water" v="lake" />
	</node>
	<node lat="70.00171944814116" lon="25.18149421486386" id="-50892">
		<tag k="name" v="Iso Aslakanjärvi" />
		<tag k="name:fkv" v="Iso Aslakanjärvi" />
		<tag k="natural" v="water" />
		<tag k="ssr:stedsnr" v="324112" />
	</node>
	<node lat="70.1368611126753" lon="24.70495816344546" id="-50893">
		<tag k="name" v="Fossekulpen" />
		<tag k="name:no" v="Fossekulpen" />
		<tag k="natural" v="water" />
		<tag k="ssr:stedsnr" v="324094" />
		<tag k="water" v="lake" />
	</node>
	<node lat="70.4928194547318" lon="25.716152546221032" id="-50894">
		<tag k="name" v="Stuorrajohka" />
		<tag k="name:se" v="Stuorrajohka" />
		<tag k="ssr:stedsnr" v="324097" />
		<tag k="waterway" v="stream" />
	</node>
	<node lat="70.5594777854099" lon="25.96211083523016" id="-50896">
		<tag k="name" v="Mielceláddot" />
		<tag k="name:se" v="Mielceláddot" />
		<tag k="natural" v="water" />
		<tag k="ssr:stedsnr" v="470043" />
	</node>
	<node lat="70.5034027896798" lon="25.815285842329143" id="-50905">
		<tag k="name" v="Borjjasjávri" />
		<tag k="name:se" v="Borjjasjávri" />
		<tag k="natural" v="water" />
		<tag k="ssr:stedsnr" v="333454" />
	</node>
	<node lat="70.54341111309667" lon="25.062877597858062" id="-50908">
		<tag k="name" v="Brennelvfossen" />
		<tag k="name:no" v="Brennelvfossen" />
		<tag k="natural" v="waterfall" />
		<tag k="ssr:stedsnr" v="335352" />
	</node>
	<node lat="69.9962500117216" lon="24.9450553525773" id="-50912">
		<tag k="name" v="Slåtteneskulpen - Slootankuoppa" />
		<tag k="name:fkv" v="Slootankuoppa" />
		<tag k="name:no" v="Slåtteneskulpen" />
		<tag k="place" v="locality" />
		<tag k="ssr:stedsnr" v="335496" />
	</node>
	<node lat="70.06345278409525" lon="24.46410541211396" id="-50919">
		<tag k="name" v="Láhtenjávrrit" />
		<tag k="name:se" v="Láhtenjávrrit" />
		<tag k="natural" v="water" />
		<tag k="old_name:se" v="Lattenjavrit" />
		<tag k="ssr:stedsnr" v="383004" />
	</node>
	<node lat="70.14466667542416" lon="24.778241484619656" id="-50921">
		<tag k="name" v="Dilljohka" />
		<tag k="name:se" v="Dilljohka" />
		<tag k="ssr:stedsnr" v="383014" />
		<tag k="waterway" v="river" />
	</node>
	<node lat="70.16122500742614" lon="24.653069292532262" id="-50922">
		<tag k="name" v="Stuorranjoasjogaš" />
		<tag k="name:se" v="Stuorranjoasjogaš" />
		<tag k="ssr:stedsnr" v="383107" />
		<tag k="waterway" v="stream" />
	</node>
	<node lat="70.03160833952045" lon="25.01168036487674" id="-50926">
		<tag k="name" v="Dulerohjohka - Ildskogbekken - Tyllyruđonoja" />
		<tag k="name:fkv" v="Tyllyruđonoja" />
		<tag k="name:no" v="Ildskogbekken" />
		<tag k="name:se" v="Dulerohjohka" />
		<tag k="ssr:stedsnr" v="383255" />
		<tag k="waterway" v="stream" />
	</node>
	<node lat="70.62671389454542" lon="26.09519414535229" id="-50933">
		<tag k="name" v="Háhttanašjohka" />
		<tag k="name:se" v="Háhttanašjohka" />
		<tag k="old_name:se" v="Hattanašjåkka" />
		<tag k="ssr:stedsnr" v="383560" />
		<tag k="waterway" v="stream" />
	</node>
	<node lat="69.93851390095833" lon="25.73036083909004" id="-50935">
		<tag k="name" v="Suoidneluoppal" />
		<tag k="name:se" v="Suoidneluoppal" />
		<tag k="natural" v="water" />
		<tag k="old_name:se" v="Suoidneluobbal" />
		<tag k="ssr:stedsnr" v="383607" />
	</node>
	<node lat="69.99258889986828" lon="25.755488593792872" id="-50937">
		<tag k="name" v="Goadjinjávri" />
		<tag k="name:se" v="Goadjinjávri" />
		<tag k="natural" v="water" />
		<tag k="old_name:se" v="Goagginjavri;Goagginjávri" />
		<tag k="ssr:stedsnr" v="383599" />
		<tag k="water" v="lake" />
	</node>
	<node lat="69.85708056651806" lon="25.38000807477221" id="-50938">
		<tag k="name" v="Čuolbmajávri" />
		<tag k="name:se" v="Čuolbmajávri" />
		<tag k="natural" v="water" />
		<tag k="old_name:se" v="Čuolbmajavri" />
		<tag k="ssr:stedsnr" v="383922" />
	</node>
	<node lat="70.34156389796857" lon="25.70469974772435" id="-50948">
		<tag k="name" v="Bajit Silffarjávri" />
		<tag k="name:se" v="Bajit Silffarjávri" />
		<tag k="natural" v="water" />
		<tag k="ssr:stedsnr" v="384913" />
	</node>
	<node lat="70.59533333831136" lon="24.993530395346234" id="-50949">
		<tag k="name" v="Doaresruoššajohka - Tverrusselva" />
		<tag k="name:no" v="Tverrusselva" />
		<tag k="name:se" v="Doaresruoššajohka" />
		<tag k="old_name:se" v="Doaresruoššajåkka;Doaresruossajohka" />
		<tag k="ssr:stedsnr" v="384899" />
		<tag k="waterway" v="river" />
	</node>
	<node lat="70.49307778302109" lon="25.741255290379126" id="-50956">
		<tag k="name" v="Bižusláttu" />
		<tag k="name:se" v="Bižusláttu" />
		<tag k="natural" v="water" />
		<tag k="ssr:stedsnr" v="393400" />
	</node>
	<node lat="70.50937778714801" lon="25.749938642835723" id="-50957">
		<tag k="name" v="Lássejohka" />
		<tag k="name:se" v="Lássejohka" />
		<tag k="ssr:stedsnr" v="393434" />
		<tag k="waterway" v="stream" />
	</node>
	<node lat="70.37458611642577" lon="25.616710857342923" id="-50965">
		<tag k="name" v="Skalvijärvi" />
		<tag k="name:fkv" v="Skalvijärvi" />
		<tag k="natural" v="water" />
		<tag k="ssr:stedsnr" v="395607" />
	</node>
	<node lat="70.18185556054894" lon="24.90798591715682" id="-50967">
		<tag k="name" v="Brukulpen" />
		<tag k="name:no" v="Brukulpen" />
		<tag k="place" v="locality" />
		<tag k="ssr:stedsnr" v="396132" />
	</node>
	<node lat="70.3472833383258" lon="25.710571964444664" id="-50968">
		<tag k="name" v="Sokkulasjärvi" />
		<tag k="name:fkv" v="Sokkulasjärvi" />
		<tag k="natural" v="water" />
		<tag k="ssr:stedsnr" v="396490" />
		<tag k="water" v="lake" />
	</node>
	<node lat="70.32601945409387" lon="25.618341425886943" id="-50970">
		<tag k="loc_name:se" v="Uhcageađggesavu" />
		<tag k="name" v="Pikkukivisuvanto" />
		<tag k="name:fkv" v="Pikkukivisuvanto" />
		<tag k="natural" v="water" />
		<tag k="ssr:stedsnr" v="396590" />
		<tag k="water" v="lake" />
	</node>
	<node lat="70.17135834255149" lon="24.850960930966895" id="-50971">
		<tag k="name" v="Gussasavvon" />
		<tag k="name:se" v="Gussasavvon" />
		<tag k="natural" v="water" />
		<tag k="ssr:stedsnr" v="396777" />
		<tag k="water" v="lake" />
	</node>
	<node lat="70.15579722743384" lon="24.774272041952457" id="-50972">
		<tag k="name" v="Jorri" />
		<tag k="name:se" v="Jorri" />
		<tag k="place" v="locality" />
		<tag k="ssr:stedsnr" v="396778" />
	</node>
	<node lat="70.01918333779822" lon="24.94914423683976" id="-50974">
		<tag k="name" v="Iisakinsaari" />
		<tag k="name:fkv" v="Iisakinsaari" />
		<tag k="place" v="islet" />
		<tag k="ssr:stedsnr" v="404897" />
	</node>
	<node lat="70.02413611632828" lon="24.9537470304353" id="-50975">
		<tag k="name" v="Stellinginnuora" />
		<tag k="name:fkv" v="Stellinginnuora" />
		<tag k="natural" v="strait" />
		<tag k="ssr:stedsnr" v="404898" />
	</node>
	<node lat="70.03361111443702" lon="24.93669702240866" id="-50976">
		<tag k="name" v="Kolarinsaari" />
		<tag k="name:fkv" v="Kolarinsaari" />
		<tag k="natural" v="cape" />
		<tag k="ssr:stedsnr" v="404899" />
	</node>
	<node lat="70.02845278007997" lon="24.345647077578857" id="-50979">
		<tag k="name" v="Njáhkájávri" />
		<tag k="name:se" v="Njáhkájávri" />
		<tag k="natural" v="water" />
		<tag k="old_name:se" v="Njakkajavri" />
		<tag k="ssr:stedsnr" v="444005" />
		<tag k="water" v="lake" />
	</node>
	<node lat="70.13355278249807" lon="24.754613703459697" id="-50985">
		<tag k="name" v="Goržžášjávri" />
		<tag k="name:se" v="Goržžášjávri" />
		<tag k="natural" v="water" />
		<tag k="ssr:stedsnr" v="444114" />
	</node>
	<node lat="69.9630527841403" lon="24.880397040782086" id="-50997">
		<tag k="alt_name:se" v="Vuođđogorži" />
		<tag k="name" v="Vuottagorži" />
		<tag k="name:se" v="Vuottagorži" />
		<tag k="natural" v="waterfall" />
		<tag k="old_name:se" v="Vuoddagårži" />
		<tag k="ssr:stedsnr" v="444533" />
	</node>
	<node lat="69.7616916773638" lon="24.93488312391479" id="-50999">
		<tag k="name" v="Roanceluoppal" />
		<tag k="name:se" v="Roanceluoppal" />
		<tag k="natural" v="water" />
		<tag k="old_name:se" v="Roanceluobbal" />
		<tag k="ssr:stedsnr" v="444606" />
		<tag k="water" v="lake" />
	</node>
	<node lat="70.2824500009532" lon="24.962719266525816" id="-51000">
		<tag k="name" v="Njirran" />
		<tag k="name:se" v="Njirran" />
		<tag k="ssr:stedsnr" v="444608" />
		<tag k="waterway" v="stream" />
	</node>
	<node lat="69.82190000537616" lon="25.583819175329054" id="-51003">
		<tag k="name" v="Nieidajokmohkki" />
		<tag k="name:se" v="Nieidajokmohkki" />
		<tag k="natural" v="bay" />
		<tag k="old_name:se" v="Nieidajåkmåkki" />
		<tag k="ssr:stedsnr" v="444902" />
	</node>
	<node lat="69.8364638986165" lon="25.50554695826357" id="-51004">
		<tag k="name" v="Rievssatjávrrit" />
		<tag k="name:se" v="Rievssatjávrrit" />
		<tag k="natural" v="water" />
		<tag k="old_name:se" v="Rievsatjavrit" />
		<tag k="ssr:stedsnr" v="444904" />
	</node>
	<node lat="70.24888889093961" lon="24.44839984765624" id="-51007">
		<tag k="name" v="Goahtemuorjávri" />
		<tag k="name:se" v="Goahtemuorjávri" />
		<tag k="natural" v="water" />
		<tag k="old_name:se" v="Goattemurojavri" />
		<tag k="ssr:stedsnr" v="444987" />
		<tag k="water" v="lake" />
	</node>
	<node lat="70.25922778616206" lon="24.86150259768292" id="-51010">
		<tag k="name" v="Luoppalgorži" />
		<tag k="name:se" v="Luoppalgorži" />
		<tag k="natural" v="waterfall" />
		<tag k="ssr:stedsnr" v="445602" />
	</node>
	<node lat="70.56973334250787" lon="26.088016369284407" id="-51015">
		<tag k="name" v="Luovosvárjohka" />
		<tag k="name:se" v="Luovosvárjohka" />
		<tag k="old_name:se" v="Luovvusvarjåkka" />
		<tag k="ssr:stedsnr" v="445584" />
		<tag k="waterway" v="stream" />
	</node>
	<node lat="70.5626361196027" lon="25.92089139872397" id="-51017">
		<tag k="alt_name:se" v="Luomejávri" />
		<tag k="name" v="Lávdnjejávri" />
		<tag k="name:se" v="Lávdnjejávri" />
		<tag k="natural" v="water" />
		<tag k="old_name:se" v="Lavdnejavri" />
		<tag k="ssr:stedsnr" v="445587" />
	</node>
	<node lat="70.47585833811576" lon="25.659758094894332" id="-51021">
		<tag k="name" v="Evrojohka" />
		<tag k="name:se" v="Evrojohka" />
		<tag k="ssr:stedsnr" v="448921" />
		<tag k="waterway" v="stream" />
	</node>
	<node lat="70.0594777852108" lon="24.925119261445676" id="-51024">
		<tag k="fixme" v="multiple name tags, choose one and add the other to alt_name" />
		<tag k="name" v="Sarvola;Saaripuoli" />
		<tag k="name:fkv" v="Sarvola;Saaripuoli" />
		<tag k="natural" v="cape" />
		<tag k="ssr:stedsnr" v="456006" />
	</node>
	<node lat="70.03615278166399" lon="24.917697038775252" id="-51025">
		<tag k="name" v="Hiirijärvi" />
		<tag k="name:fkv" v="Hiirijärvi" />
		<tag k="natural" v="water" />
		<tag k="ssr:stedsnr" v="456373" />
	</node>
	<node lat="70.39545000366252" lon="25.592841429693593" id="-51030">
		<tag k="name" v="Raunajoki" />
		<tag k="name:fkv" v="Raunajoki" />
		<tag k="ssr:stedsnr" v="456566" />
		<tag k="waterway" v="stream" />
	</node>
	<node lat="70.36533334333869" lon="25.479555320323115" id="-51031">
		<tag k="name" v="Suolovuononjärvi" />
		<tag k="name:fkv" v="Suolovuononjärvi" />
		<tag k="natural" v="water" />
		<tag k="ssr:stedsnr" v="456577" />
	</node>
	<node lat="70.16554167523445" lon="25.2899581213136" id="-51037">
		<tag k="name" v="Skredbekken" />
		<tag k="name:no" v="Skredbekken" />
		<tag k="ssr:stedsnr" v="457758" />
		<tag k="waterway" v="stream" />
	</node>
	<node lat="69.79635278135979" lon="25.151374777503708" id="-51040">
		<tag k="name" v="Jerritluoppal" />
		<tag k="name:se" v="Jerritluoppal" />
		<tag k="natural" v="water" />
		<tag k="ssr:stedsnr" v="470016" />
		<tag k="water" v="lake" />
	</node>
	<node lat="70.5748666730668" lon="26.069905264655027" id="-51041">
		<tag k="name" v="Fielbmanjálbmi" />
		<tag k="name:se" v="Fielbmanjálbmi" />
		<tag k="natural" v="bay" />
		<tag k="ssr:stedsnr" v="470104" />
	</node>
	<node lat="69.99264445278921" lon="24.937210923868875" id="-51042">
		<tag k="name" v="Mellaniemensuanto" />
		<tag k="name:fkv" v="Mellaniemensuanto" />
		<tag k="natural" v="water" />
		<tag k="ssr:stedsnr" v="470211" />
		<tag k="water" v="lake" />
	</node>
	<node lat="69.9739611142508" lon="24.948663687357822" id="-51044">
		<tag k="name" v="Kenttäsuanto" />
		<tag k="name:fkv" v="Kenttäsuanto" />
		<tag k="natural" v="water" />
		<tag k="ssr:stedsnr" v="470223" />
		<tag k="water" v="lake" />
	</node>
	<node lat="69.98246667363537" lon="24.94706646540106" id="-51045">
		<tag k="name" v="Kempiniemenpuđas" />
		<tag k="name:fkv" v="Kempiniemenpuđas" />
		<tag k="place" v="locality" />
		<tag k="ssr:stedsnr" v="470224" />
	</node>
	<node lat="70.06222223114311" lon="24.375416511936617" id="-51046">
		<tag k="name" v="Allagielasjohka" />
		<tag k="name:se" v="Allagielasjohka" />
		<tag k="old_name:se" v="Allagielasjåkka" />
		<tag k="ssr:stedsnr" v="504008" />
		<tag k="waterway" v="stream" />
	</node>
	<node lat="69.82342778743833" lon="25.177377551918553" id="-51053">
		<tag k="name" v="Čeavrresjohka" />
		<tag k="name:se" v="Čeavrresjohka" />
		<tag k="old_name:se" v="Čævresjåkka" />
		<tag k="ssr:stedsnr" v="504602" />
		<tag k="waterway" v="river" />
	</node>
	<node lat="69.92618611839517" lon="25.08503035668677" id="-51055">
		<tag k="loc_name:no" v="Store Russevann" />
		<tag k="name" v="Stuorra Ruššojávri" />
		<tag k="name:se" v="Stuorra Ruššojávri" />
		<tag k="natural" v="water" />
		<tag k="old_name:se" v="Ruššujavri, stuorra" />
		<tag k="ssr:stedsnr" v="504567" />
		<tag k="water" v="lake" />
	</node>
	<node lat="69.88984444778163" lon="25.439360864622365" id="-51057">
		<tag k="name" v="Guođohanjávri" />
		<tag k="name:se" v="Guođohanjávri" />
		<tag k="natural" v="water" />
		<tag k="old_name:se" v="Guođuhanjavri" />
		<tag k="ssr:stedsnr" v="504920" />
	</node>
	<node lat="70.09178334080609" lon="25.051427584777468" id="-51058">
		<tag k="name" v="Báiskejávri - Kajavajärvi" />
		<tag k="name:fkv" v="Kajavajärvi" />
		<tag k="name:se" v="Báiskejávri" />
		<tag k="natural" v="water" />
		<tag k="ssr:stedsnr" v="505168" />
	</node>
	<node lat="70.18435000296843" lon="24.71489428637765" id="-51064">
		<tag k="name" v="Ádjágurajávri" />
		<tag k="name:se" v="Ádjágurajávri" />
		<tag k="natural" v="water" />
		<tag k="ssr:stedsnr" v="505066" />
	</node>
	<node lat="70.19768334212257" lon="24.889427602587983" id="-51065">
		<tag k="name" v="Vuolit Gealbbotjávri" />
		<tag k="name:se" v="Vuolit Gealbbotjávri" />
		<tag k="natural" v="water" />
		<tag k="ssr:stedsnr" v="505068" />
		<tag k="water" v="lake" />
	</node>
	<node lat="70.56416945476126" lon="26.033485841664533" id="-51072">
		<tag k="name" v="Moksajohka" />
		<tag k="name:se" v="Moksajohka" />
		<tag k="old_name:se" v="Måksajåkka" />
		<tag k="ssr:stedsnr" v="505574" />
		<tag k="waterway" v="river" />
	</node>
	<node lat="70.56466112194359" lon="25.946410830449803" id="-51073">
		<tag k="name" v="Stámmajohka" />
		<tag k="name:se" v="Stámmajohka" />
		<tag k="old_name:se" v="Stammajåkka" />
		<tag k="ssr:stedsnr" v="505575" />
		<tag k="waterway" v="stream" />
	</node>
	<node lat="70.5926833379264" lon="26.14680526767884" id="-51074">
		<tag k="fixme" v="multiple name tags, choose one and add the other to alt_name" />
		<tag k="name" v="Kjæsvannet - Stuorrajávri;Keaisajávri" />
		<tag k="name:no" v="Kjæsvannet" />
		<tag k="name:se" v="Stuorrajávri;Keaisajávri" />
		<tag k="natural" v="water" />
		<tag k="old_name:se" v="Kæisajavri" />
		<tag k="ssr:stedsnr" v="505580" />
		<tag k="water" v="lake" />
	</node>
	<node lat="70.50666666870221" lon="24.872969277662463" id="-51075">
		<tag k="name" v="Gumppejohka" />
		<tag k="name:se" v="Gumppejohka" />
		<tag k="ssr:stedsnr" v="505706" />
		<tag k="waterway" v="river" />
	</node>
	<node lat="70.25363611880731" lon="24.482922073371043" id="-51076">
		<tag k="name" v="Boŋkaláddot" />
		<tag k="name:se" v="Boŋkaláddot" />
		<tag k="natural" v="water" />
		<tag k="old_name:se" v="Båŋkaladdut" />
		<tag k="ssr:stedsnr" v="505717" />
		<tag k="water" v="lake" />
	</node>
	<node lat="70.59456111387577" lon="25.14712204766837" id="-51078">
		<tag k="name" v="Sieiddegurajávri" />
		<tag k="name:se" v="Sieiddegurajávri" />
		<tag k="natural" v="water" />
		<tag k="old_name:se" v="Sieidegurajavri" />
		<tag k="ssr:stedsnr" v="505866" />
		<tag k="water" v="lake" />
	</node>
	<node lat="70.58242778095438" lon="25.09321371564027" id="-51080">
		<tag k="name" v="Sieđgoaijávri" />
		<tag k="name:se" v="Sieđgoaijávri" />
		<tag k="natural" v="water" />
		<tag k="old_name:se" v="Sieđgoaijavri" />
		<tag k="ssr:stedsnr" v="505878" />
	</node>
	<node lat="70.30018333879846" lon="25.120824797230462" id="-51087">
		<tag k="name" v="Veasttat Ellásjávri" />
		<tag k="name:se" v="Veasttat Ellásjávri" />
		<tag k="natural" v="water" />
		<tag k="ssr:stedsnr" v="506670" />
	</node>
	<node lat="70.0679944517268" lon="25.179669237151344" id="-51098">
		<tag k="name" v="Gjørmebekken" />
		<tag k="name:no" v="Gjørmebekken" />
		<tag k="ssr:stedsnr" v="517103" />
		<tag k="waterway" v="stream" />
	</node>
	<node lat="70.05335000813675" lon="24.927485924927815" id="-51101">
		<tag k="name" v="Guldmanninjärvi" />
		<tag k="name:fkv" v="Guldmanninjärvi" />
		<tag k="natural" v="water" />
		<tag k="ssr:stedsnr" v="517407" />
	</node>
	<node lat="70.34824722962006" lon="25.46380255646415" id="-51106">
		<tag k="name" v="Pikkukorsanjärvi" />
		<tag k="name:fkv" v="Pikkukorsanjärvi" />
		<tag k="natural" v="water" />
		<tag k="ssr:stedsnr" v="517603" />
	</node>
	<node lat="70.33761390069448" lon="25.646699754315225" id="-51107">
		<tag k="name" v="Savikuoppa" />
		<tag k="name:fkv" v="Savikuoppa" />
		<tag k="natural" v="water" />
		<tag k="ssr:stedsnr" v="517608" />
		<tag k="water" v="lake" />
	</node>
	<node lat="70.24685278327505" lon="24.678260940519205" id="-51110">
		<tag k="name" v="Buoidejohka" />
		<tag k="name:se" v="Buoidejohka" />
		<tag k="ssr:stedsnr" v="686057" />
		<tag k="waterway" v="stream" />
	</node>
	<node lat="70.0042083371939" lon="24.933341474490526" id="-51111">
		<tag k="name" v="Benjaminpuđas" />
		<tag k="name:fkv" v="Benjaminpuđas" />
		<tag k="natural" v="strait" />
		<tag k="ssr:stedsnr" v="525904" />
	</node>
	<node lat="70.07337500643814" lon="24.436691520403688" id="-51112">
		<tag k="name" v="Davit Láhtenjohka" />
		<tag k="name:se" v="Davit Láhtenjohka" />
		<tag k="old_name:se" v="Lattenjåkka, davit" />
		<tag k="ssr:stedsnr" v="686014" />
		<tag k="waterway" v="stream" />
	</node>
	<node lat="70.1120638910968" lon="24.541288730347876" id="-51113">
		<tag k="name" v="Bákteravddajávri" />
		<tag k="name:se" v="Bákteravddajávri" />
		<tag k="natural" v="water" />
		<tag k="old_name:se" v="Bakteravdajavri" />
		<tag k="ssr:stedsnr" v="686015" />
	</node>
	<node lat="70.07713334051428" lon="24.067188760124658" id="-51115">
		<tag k="name" v="Ribatjohka" />
		<tag k="name:se" v="Ribatjohka" />
		<tag k="old_name:se" v="Ribatjåkka" />
		<tag k="ssr:stedsnr" v="686018" />
		<tag k="waterway" v="river" />
	</node>
	<node lat="70.13939445263057" lon="24.90045535893451" id="-51118">
		<tag k="name" v="Guollemarjogaš" />
		<tag k="name:se" v="Guollemarjogaš" />
		<tag k="ssr:stedsnr" v="686129" />
		<tag k="waterway" v="stream" />
	</node>
	<node lat="70.09084167817394" lon="25.801924703928638" id="-51121">
		<tag k="name" v="Solggotjávri" />
		<tag k="name:se" v="Solggotjávri" />
		<tag k="natural" v="water" />
		<tag k="ssr:stedsnr" v="686289" />
	</node>
	<node lat="70.03142778176863" lon="25.570958080243983" id="-51122">
		<tag k="name" v="Gearddošjávrrit - Ala-Kaksoisjärvet" />
		<tag k="name:fkv" v="Ala-Kaksoisjärvet" />
		<tag k="name:se" v="Gearddošjávrrit" />
		<tag k="natural" v="water" />
		<tag k="ssr:stedsnr" v="686302" />
		<tag k="water" v="lake" />
	</node>
	<node lat="70.14351111976971" lon="25.969658023455636" id="-51126">
		<tag k="name" v="Vuotnabatskáidi" />
		<tag k="name:se" v="Vuotnabatskáidi" />
		<tag k="natural" v="cape" />
		<tag k="old_name:se" v="Vuodnabatskaidi;Vuotnabahskáidi" />
		<tag k="ssr:stedsnr" v="686364" />
	</node>
	<node lat="69.87565834224357" lon="25.04253033557863" id="-51131">
		<tag k="name" v="Hárrejohka" />
		<tag k="name:se" v="Hárrejohka" />
		<tag k="old_name:se" v="Harrejåkka" />
		<tag k="ssr:stedsnr" v="686518" />
		<tag k="waterway" v="stream" />
	</node>
	<node lat="69.84829723124288" lon="25.19763865496224" id="-51134">
		<tag k="name" v="Sarvvesmohkki" />
		<tag k="name:se" v="Sarvvesmohkki" />
		<tag k="natural" v="bay" />
		<tag k="old_name:se" v="Sarvesmåkki" />
		<tag k="ssr:stedsnr" v="686526" />
	</node>
	<node lat="69.9315388927709" lon="25.048752564125394" id="-51136">
		<tag k="loc_name:no" v="Ørretvann" />
		<tag k="name" v="Dápmotjávri" />
		<tag k="name:se" v="Dápmotjávri" />
		<tag k="natural" v="water" />
		<tag k="old_name:se" v="Dabmutjavri" />
		<tag k="ssr:stedsnr" v="686559" />
		<tag k="water" v="lake" />
	</node>
	<node lat="69.98716667826974" lon="25.528519198693544" id="-51139">
		<tag k="name" v="Oađášjohka" />
		<tag k="name:se" v="Oađášjohka" />
		<tag k="old_name:se" v="Oađašjåkka" />
		<tag k="ssr:stedsnr" v="686579" />
		<tag k="waterway" v="stream" />
	</node>
	<node lat="69.82023334460524" lon="25.149591443694757" id="-51140">
		<tag k="name" v="Čeavrresjávri" />
		<tag k="name:se" v="Čeavrresjávri" />
		<tag k="natural" v="water" />
		<tag k="old_name:se" v="Čævresjavri" />
		<tag k="ssr:stedsnr" v="686602" />
	</node>
	<node lat="69.76647223268519" lon="25.11334977365731" id="-51143">
		<tag k="name" v="Divgajohka" />
		<tag k="name:se" v="Divgajohka" />
		<tag k="old_name:se" v="Divgajåkka" />
		<tag k="ssr:stedsnr" v="686628" />
		<tag k="waterway" v="stream" />
	</node>
	<node lat="69.78396389850982" lon="25.449863619599157" id="-51144">
		<tag k="name" v="Čuoldajohka" />
		<tag k="name:se" v="Čuoldajohka" />
		<tag k="old_name:se" v="Čuoldajåkka" />
		<tag k="ssr:stedsnr" v="686858" />
		<tag k="waterway" v="stream" />
	</node>
	<node lat="70.22009167575742" lon="24.81671093614688" id="-51146">
		<tag k="name" v="Fátnoluoppal" />
		<tag k="name:se" v="Fátnoluoppal" />
		<tag k="natural" v="water" />
		<tag k="ssr:stedsnr" v="687033" />
	</node>
	<node lat="70.31460000159478" lon="24.949397046196395" id="-51147">
		<tag k="name" v="Gorbovuonjohka - Ytre Billefjordelva - Korpivuononjoki" />
		<tag k="name:fkv" v="Korpivuononjoki" />
		<tag k="name:no" v="Ytre Billefjordelva" />
		<tag k="name:se" v="Gorbovuonjohka" />
		<tag k="ssr:stedsnr" v="687035" />
		<tag k="waterway" v="river" />
	</node>
	<node lat="70.18601111397271" lon="24.80259983435024" id="-51149">
		<tag k="fixme" v="multiple name tags, choose one and add the other to alt_name" />
		<tag k="name" v="Máđirjohka;Máđarjohka - Fergelva" />
		<tag k="name:no" v="Fergelva" />
		<tag k="name:se" v="Máđirjohka;Máđarjohka" />
		<tag k="ssr:stedsnr" v="687068" />
		<tag k="waterway" v="river" />
	</node>
	<node lat="70.0952916746055" lon="24.848958157076844" id="-51152">
		<tag k="name" v="Njirranjávrrit" />
		<tag k="name:se" v="Njirranjávrrit" />
		<tag k="natural" v="water" />
		<tag k="ssr:stedsnr" v="687149" />
	</node>
	<node lat="70.14841667150509" lon="25.441071988324527" id="-51153">
		<tag k="name" v="Mohkkejávri - Mukkajärvi" />
		<tag k="name:fkv" v="Mukkajärvi" />
		<tag k="name:se" v="Mohkkejávri" />
		<tag k="natural" v="water" />
		<tag k="ssr:stedsnr" v="687301" />
	</node>
	<node lat="70.10357778894821" lon="25.248530338163384" id="-51155">
		<tag k="name" v="Duiskajohka - Tyskebekken - Tyskänoja" />
		<tag k="name:fkv" v="Tyskänoja" />
		<tag k="name:no" v="Tyskebekken" />
		<tag k="name:se" v="Duiskajohka" />
		<tag k="ssr:stedsnr" v="687322" />
		<tag k="waterway" v="stream" />
	</node>
	<node lat="70.00650833653353" lon="24.91827203077578" id="-51158">
		<tag k="name" v="Pahđanmukka" />
		<tag k="name:fkv" v="Pahđanmukka" />
		<tag k="natural" v="bay" />
		<tag k="ssr:stedsnr" v="687270" />
	</node>
	<node lat="70.23510278589961" lon="25.479813661598346" id="-51160">
		<tag k="name" v="Čáhppiljohka - Sappirjoki" />
		<tag k="name:fkv" v="Sappirjoki" />
		<tag k="name:se" v="Čáhppiljohka" />
		<tag k="ssr:stedsnr" v="687278" />
		<tag k="waterway" v="river" />
	</node>
	<node lat="70.49692778342337" lon="25.786024756452665" id="-51163">
		<tag k="name" v="Guhtomatluoppal - Lompola" />
		<tag k="name:fkv" v="Lompola" />
		<tag k="name:se" v="Guhtomatluoppal" />
		<tag k="natural" v="water" />
		<tag k="ssr:stedsnr" v="687410" />
	</node>
	<node lat="70.26230556105358" lon="24.864260924245468" id="-51164">
		<tag k="name" v="Gorbovuonluoppal" />
		<tag k="name:se" v="Gorbovuonluoppal" />
		<tag k="natural" v="water" />
		<tag k="ssr:stedsnr" v="687412" />
	</node>
	<node lat="70.5127611228961" lon="25.80228862527635" id="-51172">
		<tag k="name" v="Ivvángođiidjohka" />
		<tag k="name:se" v="Ivvángođiidjohka" />
		<tag k="ssr:stedsnr" v="687499" />
		<tag k="waterway" v="stream" />
	</node>
	<node lat="70.3199000033348" lon="25.707544195468788" id="-51175">
		<tag k="name" v="Duottarjohka - Tunturinjoki" />
		<tag k="name:fkv" v="Tunturinjoki" />
		<tag k="name:se" v="Duottarjohka" />
		<tag k="ssr:stedsnr" v="687447" />
		<tag k="waterway" v="stream" />
	</node>
	<node lat="70.6796666775284" lon="25.840455296538014" id="-51176">
		<tag k="name" v="Langvannet" />
		<tag k="name:no" v="Langvannet" />
		<tag k="natural" v="water" />
		<tag k="ssr:stedsnr" v="687517" />
	</node>
	<node lat="70.46671112189647" lon="25.851894179765647" id="-51177">
		<tag k="name" v="Ádjatjohka" />
		<tag k="name:se" v="Ádjatjohka" />
		<tag k="old_name:se" v="Addjatjåkka" />
		<tag k="ssr:stedsnr" v="687539" />
		<tag k="waterway" v="river" />
	</node>
	<node lat="70.29062778203186" lon="25.518046975348998" id="-51178">
		<tag k="loc_name:fkv" v="Alkanjärvi" />
		<tag k="name" v="Suvrragohpijávri - Surbuktvannet - Syyrykopanjärvi" />
		<tag k="name:fkv" v="Syyrykopanjärvi" />
		<tag k="name:no" v="Surbuktvannet" />
		<tag k="name:se" v="Suvrragohpijávri" />
		<tag k="natural" v="water" />
		<tag k="ssr:stedsnr" v="687465" />
	</node>
	<node lat="70.29458611623159" lon="24.967499815781782" id="-51179">
		<tag k="name" v="Jeahkirjávrrit" />
		<tag k="name:se" v="Jeahkirjávrrit" />
		<tag k="natural" v="water" />
		<tag k="ssr:stedsnr" v="687601" />
	</node>
	<node lat="70.29703611579318" lon="25.011744247862257" id="-51180">
		<tag k="name" v="Billájohka - Billefjordelva" />
		<tag k="name:no" v="Billefjordelva" />
		<tag k="name:se" v="Billájohka" />
		<tag k="ssr:stedsnr" v="687602" />
		<tag k="waterway" v="stream" />
	</node>
	<node lat="70.29507500759782" lon="25.13649423823066" id="-51181">
		<tag k="name" v="Skoarajávri" />
		<tag k="name:se" v="Skoarajávri" />
		<tag k="natural" v="water" />
		<tag k="ssr:stedsnr" v="687623" />
	</node>
	<node lat="70.64449723274772" lon="25.99915249622511" id="-51183">
		<tag k="name" v="Nihkoljohka" />
		<tag k="name:se" v="Nihkoljohka" />
		<tag k="old_name:se" v="Nikkuljåkka" />
		<tag k="ssr:stedsnr" v="687542" />
		<tag k="waterway" v="stream" />
	</node>
	<node lat="70.33130834052182" lon="25.04355814416249" id="-51184">
		<tag k="name" v="Silisjávri" />
		<tag k="name:se" v="Silisjávri" />
		<tag k="natural" v="water" />
		<tag k="ssr:stedsnr" v="687550" />
	</node>
	<node lat="70.6100694541382" lon="26.095613604697785" id="-51187">
		<tag k="name" v="Čoarvejávri" />
		<tag k="name:se" v="Čoarvejávri" />
		<tag k="natural" v="water" />
		<tag k="old_name:se" v="Čoarvejavri" />
		<tag k="ssr:stedsnr" v="687571" />
	</node>
	<node lat="70.28746667046319" lon="24.532899845789085" id="-51188">
		<tag k="name" v="Nillabašjohka" />
		<tag k="name:se" v="Nillabašjohka" />
		<tag k="old_name:se" v="Nillabašjåkka" />
		<tag k="ssr:stedsnr" v="687720" />
		<tag k="waterway" v="river" />
	</node>
	<node lat="70.44732500610887" lon="24.900013709880778" id="-51190">
		<tag k="name" v="Davit Fránssajávri - Nedre Fransvannet - Ala-Fransinjärvi" />
		<tag k="name:fkv" v="Ala-Fransinjärvi" />
		<tag k="name:no" v="Nedre Fransvannet" />
		<tag k="name:se" v="Davit Fránssajávri" />
		<tag k="natural" v="water" />
		<tag k="ssr:stedsnr" v="687745" />
		<tag k="water" v="lake" />
	</node>
	<node lat="69.82435278922013" lon="25.474858071059273" id="-51194">
		<tag k="loc_name:no" v="Urvann" />
		<tag k="name" v="Juovvajávri" />
		<tag k="name:se" v="Juovvajávri" />
		<tag k="natural" v="water" />
		<tag k="old_name:se" v="Juovvajavri" />
		<tag k="ssr:stedsnr" v="687901" />
	</node>
	<node lat="70.69123611563148" lon="25.448813677218652" id="-51198">
		<tag k="name" v="Boarddajávri" />
		<tag k="name:se" v="Boarddajávri" />
		<tag k="natural" v="water" />
		<tag k="old_name:se" v="Boardajavri" />
		<tag k="ssr:stedsnr" v="687951" />
		<tag k="water" v="lake" />
	</node>
	<node lat="70.1717166762851" lon="24.46191651167492" id="-51199">
		<tag k="name" v="Čuoččohanjávri" />
		<tag k="name:se" v="Čuoččohanjávri" />
		<tag k="natural" v="water" />
		<tag k="old_name:se" v="Čuožžuhanjavri" />
		<tag k="ssr:stedsnr" v="687961" />
	</node>
	<node lat="70.67484445240288" lon="25.367710920645006" id="-51200">
		<tag k="name" v="Olggut Čáhcevágejávri" />
		<tag k="name:se" v="Olggut Čáhcevágejávri" />
		<tag k="natural" v="water" />
		<tag k="old_name:se" v="Čaccevagejavri, ålgot" />
		<tag k="ssr:stedsnr" v="687995" />
	</node>
	<node lat="70.63596389282836" lon="25.22034424888253" id="-51201">
		<tag k="name" v="Njárgajávri" />
		<tag k="name:se" v="Njárgajávri" />
		<tag k="natural" v="water" />
		<tag k="old_name:se" v="Njargajavri" />
		<tag k="ssr:stedsnr" v="687998" />
	</node>
	<node lat="70.65383889443284" lon="25.231513708539026" id="-51202">
		<tag k="name" v="Gálbbenjoasjávrrit" />
		<tag k="name:se" v="Gálbbenjoasjávrrit" />
		<tag k="natural" v="water" />
		<tag k="old_name:se" v="Galbenjoasjavrit" />
		<tag k="ssr:stedsnr" v="688000" />
		<tag k="water" v="lake" />
	</node>
	<node lat="70.41804445085943" lon="25.02922202667853" id="-51207">
		<tag k="name" v="Gárdatjohka" />
		<tag k="name:se" v="Gárdatjohka" />
		<tag k="ssr:stedsnr" v="688031" />
		<tag k="waterway" v="stream" />
	</node>
	<node lat="70.39730278185533" lon="25.56980254197941" id="-51210">
		<tag k="name" v="Leaibejohka - Olderelva - Leppäjoki" />
		<tag k="name:fkv" v="Leppäjoki" />
		<tag k="name:no" v="Olderelva" />
		<tag k="name:se" v="Leaibejohka" />
		<tag k="ssr:stedsnr" v="688396" />
		<tag k="waterway" v="stream" />
	</node>
	<node lat="70.3456611181147" lon="25.503477535234417" id="-51212">
		<tag k="name" v="Ylimmäinen Kalajärvi" />
		<tag k="name:fkv" v="Ylimmäinen Kalajärvi" />
		<tag k="natural" v="water" />
		<tag k="ssr:stedsnr" v="688944" />
	</node>
	<node lat="70.31254167275391" lon="24.7814303782676" id="-51215">
		<tag k="name" v="Nieiddaidjávri" />
		<tag k="name:se" v="Nieiddaidjávri" />
		<tag k="natural" v="water" />
		<tag k="ssr:stedsnr" v="688587" />
		<tag k="water" v="lake" />
	</node>
	<node lat="70.32548611495544" lon="25.16403034104286" id="-51217">
		<tag k="name" v="Guhkesjávri" />
		<tag k="name:se" v="Guhkesjávri" />
		<tag k="natural" v="water" />
		<tag k="ssr:stedsnr" v="688656" />
	</node>
	<node lat="70.48822222912881" lon="24.78522485289585" id="-51221">
		<tag k="name" v="Gaskkamuš Gumppeluoppal" />
		<tag k="name:se" v="Gaskkamuš Gumppeluoppal" />
		<tag k="natural" v="water" />
		<tag k="ssr:stedsnr" v="688768" />
	</node>
	<node lat="70.62229445281356" lon="25.051735924333958" id="-51223">
		<tag k="name" v="Ándarasmáhtejávri" />
		<tag k="name:se" v="Ándarasmáhtejávri" />
		<tag k="natural" v="water" />
		<tag k="old_name:se" v="Andarasmattejavri" />
		<tag k="ssr:stedsnr" v="688899" />
	</node>
	<node lat="70.52675000504196" lon="25.062069272499617" id="-51226">
		<tag k="alt_name:no" v="Grandevatn" />
		<tag k="name" v="Civvajávri - Grannevatnet" />
		<tag k="name:no" v="Grannevatnet" />
		<tag k="name:se" v="Civvajávri" />
		<tag k="natural" v="water" />
		<tag k="old_name:se" v="Civvajavri" />
		<tag k="ssr:stedsnr" v="688916" />
	</node>
	<node lat="69.88448889400117" lon="24.352547075775913" id="-51231">
		<tag k="name" v="Ceakkojohka" />
		<tag k="name:se" v="Ceakkojohka" />
		<tag k="old_name:se" v="Cæggujåkka;Ceákkojohka" />
		<tag k="ssr:stedsnr" v="564677" />
		<tag k="waterway" v="river" />
	</node>
	<node lat="69.7817611176353" lon="25.318785873667558" id="-51233">
		<tag k="name" v="Namahisjohka" />
		<tag k="name:se" v="Namahisjohka" />
		<tag k="old_name:se" v="Namahisjåkka" />
		<tag k="ssr:stedsnr" v="564867" />
		<tag k="waterway" v="stream" />
	</node>
	<node lat="70.06883611268054" lon="24.266649871589106" id="-51235">
		<tag k="name" v="Doaresvárjávrrit" />
		<tag k="name:se" v="Doaresvárjávrrit" />
		<tag k="natural" v="water" />
		<tag k="old_name:se" v="Doaresvarjavrit" />
		<tag k="ssr:stedsnr" v="565010" />
	</node>
	<node lat="70.3558888974555" lon="25.994524707364768" id="-51243">
		<tag k="name" v="Ráktojávrrit" />
		<tag k="name:se" v="Ráktojávrrit" />
		<tag k="natural" v="water" />
		<tag k="old_name:se" v="Raktujavrit" />
		<tag k="ssr:stedsnr" v="565266" />
		<tag k="water" v="lake" />
	</node>
	<node lat="70.010313897845" lon="24.980141458339617" id="-51245">
		<tag k="name" v="Guhkes Borsejávri - Langporsvann - Pitkä Porsijärvi" />
		<tag k="name:fkv" v="Pitkä Porsijärvi" />
		<tag k="name:no" v="Langporsvann" />
		<tag k="name:se" v="Guhkes Borsejávri" />
		<tag k="natural" v="water" />
		<tag k="ssr:stedsnr" v="565271" />
		<tag k="water" v="lake" />
	</node>
	<node lat="69.81644167252446" lon="25.1278581153577" id="-51247">
		<tag k="name" v="Jeaggejávri" />
		<tag k="name:se" v="Jeaggejávri" />
		<tag k="natural" v="water" />
		<tag k="old_name:se" v="Jæggejavri" />
		<tag k="ssr:stedsnr" v="565610" />
	</node>
	<node lat="70.0324250051283" lon="25.11293589093512" id="-51248">
		<tag k="name" v="Lavttejohka - Brennelva - Palojoki" />
		<tag k="name:fkv" v="Palojoki" />
		<tag k="name:no" v="Brennelva" />
		<tag k="name:se" v="Lavttejohka" />
		<tag k="ssr:stedsnr" v="565715" />
		<tag k="waterway" v="river" />
	</node>
	<node lat="69.81369167077293" lon="24.37359428084086" id="-51249">
		<tag k="name" v="Atnejávri" />
		<tag k="name:se" v="Atnejávri" />
		<tag k="natural" v="water" />
		<tag k="old_name:se" v="Adnejavri;Átnejávri" />
		<tag k="ssr:stedsnr" v="565723" />
		<tag k="water" v="lake" />
	</node>
	<node lat="69.81385834430549" lon="25.52564417955552" id="-51251">
		<tag k="loc_name:no" v="Rypevann" />
		<tag k="name" v="Rievssatjávri" />
		<tag k="name:se" v="Rievssatjávri" />
		<tag k="natural" v="water" />
		<tag k="old_name:se" v="Rievsatjavri" />
		<tag k="ssr:stedsnr" v="565893" />
	</node>
	<node lat="70.03676389336032" lon="23.98016655923605" id="-51252">
		<tag k="name" v="Geatkeskáidi" />
		<tag k="name:se" v="Geatkeskáidi" />
		<tag k="natural" v="cape" />
		<tag k="old_name:se" v="Gætkeskaidi" />
		<tag k="ssr:stedsnr" v="565908" />
	</node>
	<node lat="70.2629388962791" lon="25.029494255458502" id="-51264">
		<tag k="name" v="Goarahatjohka" />
		<tag k="name:se" v="Goarahatjohka" />
		<tag k="ssr:stedsnr" v="566976" />
		<tag k="waterway" v="river" />
	</node>
	<node lat="70.31202778740591" lon="25.145388689970506" id="-51267">
		<tag k="name" v="Roggejávri" />
		<tag k="name:se" v="Roggejávri" />
		<tag k="natural" v="water" />
		<tag k="ssr:stedsnr" v="567663" />
	</node>
	<node lat="70.6151972311476" lon="26.08834694956132" id="-51269">
		<tag k="name" v="Gutnarjávri - Gunnarvannet" />
		<tag k="name:no" v="Gunnarvannet" />
		<tag k="name:se" v="Gutnarjávri" />
		<tag k="natural" v="water" />
		<tag k="ssr:stedsnr" v="693399" />
	</node>
	<node lat="70.28017778310009" lon="25.512338648743775" id="-51274">
		<tag k="name" v="Árojohka - Aaronoja" />
		<tag k="name:fkv" v="Aaronoja" />
		<tag k="name:se" v="Árojohka" />
		<tag k="ssr:stedsnr" v="694098" />
		<tag k="waterway" v="stream" />
	</node>
	<node lat="70.02930000344668" lon="25.040535895889075" id="-51277">
		<tag k="name" v="Penikkajävri nedre" />
		<tag k="name:no" v="Penikkajävri nedre" />
		<tag k="natural" v="water" />
		<tag k="ssr:stedsnr" v="577404" />
		<tag k="water" v="lake" />
	</node>
	<node lat="70.03810834256838" lon="24.931447037582114" id="-51281">
		<tag k="name" v="Lenastryket" />
		<tag k="name:no" v="Lenastryket" />
		<tag k="ssr:stedsnr" v="577416" />
		<tag k="waterway" v="rapids" />
	</node>
	<node lat="70.3188333393978" lon="25.58938585416097" id="-51282">
		<tag k="name" v="Talvisijanmukka" />
		<tag k="name:fkv" v="Talvisijanmukka" />
		<tag k="natural" v="bay" />
		<tag k="ssr:stedsnr" v="577447" />
	</node>
	<node lat="70.28551389222737" lon="25.526566426535666" id="-51285">
		<tag k="fixme" v="multiple name tags, choose one and add the other to alt_name" />
		<tag k="loc_name:se" v="Leaiberohtoája" />
		<tag k="name" v="Leppäruđonoja;Lottifielmanoja" />
		<tag k="name:fkv" v="Leppäruđonoja;Lottifielmanoja" />
		<tag k="ssr:stedsnr" v="577396" />
		<tag k="waterway" v="stream" />
	</node>
	<node lat="70.32515001062774" lon="25.607780310419177" id="-51296">
		<tag k="loc_name:se" v="Láirámielsavu" />
		<tag k="name" v="Savimellansuvanto" />
		<tag k="name:fkv" v="Savimellansuvanto" />
		<tag k="natural" v="water" />
		<tag k="ssr:stedsnr" v="578603" />
		<tag k="water" v="lake" />
	</node>
	<node lat="70.31644167307077" lon="25.563405300593374" id="-51297">
		<tag k="loc_name:se" v="Guhkessavu" />
		<tag k="name" v="Liiskopahđansuvanto" />
		<tag k="name:fkv" v="Liiskopahđansuvanto" />
		<tag k="natural" v="water" />
		<tag k="ssr:stedsnr" v="578601" />
		<tag k="water" v="lake" />
	</node>
	<node lat="69.96493611825053" lon="24.940808136940422" id="-51299">
		<tag k="name" v="Mustakuoppa" />
		<tag k="name:fkv" v="Mustakuoppa" />
		<tag k="place" v="locality" />
		<tag k="ssr:stedsnr" v="585904" />
	</node>
	<node lat="69.95794723038944" lon="24.930799801521903" id="-51300">
		<tag k="name" v="Komsaputhaansuu" />
		<tag k="name:fkv" v="Komsaputhaansuu" />
		<tag k="natural" v="bay" />
		<tag k="ssr:stedsnr" v="585906" />
	</node>
	<node lat="70.00142222535895" lon="24.938385924051154" id="-51301">
		<tag k="name" v="Matarakenttä" />
		<tag k="name:fkv" v="Matarakenttä" />
		<tag k="place" v="locality" />
		<tag k="ssr:stedsnr" v="585910" />
	</node>
	<node lat="70.01322778374968" lon="24.91442757267649" id="-51302">
		<tag k="name" v="Vanhanjoenkuoppa" />
		<tag k="name:fkv" v="Vanhanjoenkuoppa" />
		<tag k="place" v="locality" />
		<tag k="ssr:stedsnr" v="585892" />
	</node>
	<node lat="70.54103889551446" lon="25.824438634483442" id="-51303">
		<tag k="name" v="Sunnajávri" />
		<tag k="name:se" v="Sunnajávri" />
		<tag k="natural" v="water" />
		<tag k="ssr:stedsnr" v="697097" />
	</node>
	<node lat="70.54600000734962" lon="25.83030529589791" id="-51304">
		<tag k="name" v="Biedjojávri" />
		<tag k="name:se" v="Biedjojávri" />
		<tag k="natural" v="water" />
		<tag k="ssr:stedsnr" v="697131" />
		<tag k="water" v="lake" />
	</node>
	<node lat="70.48759444843867" lon="25.728099740580443" id="-51307">
		<tag k="name" v="Gáhkkorláttu" />
		<tag k="name:se" v="Gáhkkorláttu" />
		<tag k="natural" v="water" />
		<tag k="ssr:stedsnr" v="697354" />
	</node>
	<node lat="70.50638611979882" lon="25.79561641100675" id="-51308">
		<tag k="name" v="Ruksesjávri" />
		<tag k="name:se" v="Ruksesjávri" />
		<tag k="natural" v="water" />
		<tag k="ssr:stedsnr" v="697426" />
	</node>
	<node lat="70.34489445196816" lon="25.642646968481106" id="-51312">
		<tag k="loc_name:se" v="Beatnatsavu" />
		<tag k="name" v="Koirakuoppa" />
		<tag k="name:fkv" v="Koirakuoppa" />
		<tag k="natural" v="water" />
		<tag k="ssr:stedsnr" v="699593" />
		<tag k="water" v="lake" />
	</node>
	<node lat="70.13014445044428" lon="25.03878035820752" id="-51313">
		<tag k="name" v="Rávnnájohka" />
		<tag k="name:se" v="Rávnnájohka" />
		<tag k="ssr:stedsnr" v="699113" />
		<tag k="waterway" v="stream" />
	</node>
	<node lat="70.17652778157327" lon="24.882119267121205" id="-51314">
		<tag k="name" v="Solbakkulpen" />
		<tag k="name:no" v="Solbakkulpen" />
		<tag k="place" v="locality" />
		<tag k="ssr:stedsnr" v="699137" />
	</node>
	<node lat="70.31680556182653" lon="25.565913654445296" id="-51319">
		<tag k="loc_name:se" v="Šaldesavu" />
		<tag k="name" v="Kenttäsillanalus" />
		<tag k="name:fkv" v="Kenttäsillanalus" />
		<tag k="natural" v="water" />
		<tag k="ssr:stedsnr" v="699426" />
		<tag k="water" v="lake" />
	</node>
	<node lat="70.52433055713489" lon="25.078938704034496" id="-51322">
		<tag k="name" v="Grandelva" />
		<tag k="name:no" v="Grandelva" />
		<tag k="ssr:stedsnr" v="699348" />
		<tag k="waterway" v="stream" />
	</node>
	<node lat="70.28642500749079" lon="25.506999774461065" id="-51327">
		<tag k="loc_name:se" v="Álgajohka" />
		<tag k="name" v="Alkanjoki" />
		<tag k="name:fkv" v="Alkanjoki" />
		<tag k="natural" v="strait" />
		<tag k="ssr:stedsnr" v="699386" />
	</node>
	<node lat="70.02636389277775" lon="25.04278034724035" id="-51328">
		<tag k="name" v="Penikkajävri øvre" />
		<tag k="name:no" v="Penikkajävri øvre" />
		<tag k="natural" v="water" />
		<tag k="ssr:stedsnr" v="699387" />
		<tag k="water" v="lake" />
	</node>
	<node lat="70.01717778173979" lon="25.00403591608498" id="-51329">
		<tag k="name" v="Tredje Porsvannet" />
		<tag k="name:no" v="Tredje Porsvannet" />
		<tag k="natural" v="water" />
		<tag k="ssr:stedsnr" v="699389" />
		<tag k="water" v="lake" />
	</node>
	<node lat="70.04650834002277" lon="24.93628592553595" id="-51330">
		<tag k="name" v="Pajakuoppa" />
		<tag k="name:fkv" v="Pajakuoppa" />
		<tag k="place" v="locality" />
		<tag k="ssr:stedsnr" v="699398" />
	</node>
	<node lat="70.39954167013687" lon="25.238547021650472" id="-51332">
		<tag k="name" v="Vuolit Coagesváhjávri - Nedre Grunnvågvannet" />
		<tag k="name:no" v="Nedre Grunnvågvannet" />
		<tag k="name:se" v="Vuolit Coagesváhjávri" />
		<tag k="natural" v="water" />
		<tag k="ssr:stedsnr" v="699491" />
	</node>
	<node lat="70.35949445113796" lon="25.687513623664927" id="-51348">
		<tag k="loc_name:se" v="Guhkesnjársavu" />
		<tag k="name" v="Pitkänniemensuvanto" />
		<tag k="name:fkv" v="Pitkänniemensuvanto" />
		<tag k="natural" v="water" />
		<tag k="ssr:stedsnr" v="699894" />
		<tag k="water" v="lake" />
	</node>
	<node lat="69.82347500589746" lon="24.22954429973288" id="-51353">
		<tag k="name" v="Rávttošjávri - Stabbursdalsvannet" />
		<tag k="name:no" v="Stabbursdalsvannet" />
		<tag k="name:se" v="Rávttošjávri" />
		<tag k="natural" v="water" />
		<tag k="old_name:se" v="Ravtušjavri" />
		<tag k="ssr:stedsnr" v="625705" />
		<tag k="water" v="lake" />
	</node>
	<node lat="69.91815556313695" lon="24.23044430855745" id="-51357">
		<tag k="name" v="Áirojohka" />
		<tag k="name:se" v="Áirojohka" />
		<tag k="old_name:se" v="Airujåkka" />
		<tag k="ssr:stedsnr" v="625758" />
		<tag k="waterway" v="stream" />
	</node>
	<node lat="70.13695556531214" lon="24.76061093276434" id="-51358">
		<tag k="name" v="Badjeluoppal" />
		<tag k="name:se" v="Badjeluoppal" />
		<tag k="natural" v="water" />
		<tag k="ssr:stedsnr" v="626160" />
		<tag k="water" v="lake" />
	</node>
	<node lat="70.21556945160616" lon="25.456605329416416" id="-51359">
		<tag k="name" v="Stoalpojohka - Alainen Tunturijoki" />
		<tag k="name:fkv" v="Alainen Tunturijoki" />
		<tag k="name:se" v="Stoalpojohka" />
		<tag k="ssr:stedsnr" v="626304" />
		<tag k="waterway" v="stream" />
	</node>
	<node lat="70.48373611840718" lon="25.941569157993374" id="-51362">
		<tag k="name" v="Monssajohka" />
		<tag k="name:se" v="Monssajohka" />
		<tag k="old_name:se" v="Månsajåkka" />
		<tag k="ssr:stedsnr" v="626324" />
		<tag k="waterway" v="river" />
	</node>
	<node lat="70.43658890124647" lon="25.721941404753036" id="-51364">
		<tag k="name" v="Nils-Biehtár jávri - Niileksen Pietarin lantto" />
		<tag k="name:fkv" v="Niileksen Pietarin lantto" />
		<tag k="name:se" v="Nils-Biehtár jávri" />
		<tag k="natural" v="water" />
		<tag k="ssr:stedsnr" v="626463" />
	</node>
	<node lat="70.42019445106656" lon="25.124235925565028" id="-51366">
		<tag k="name" v="Ruovddášjohka" />
		<tag k="name:se" v="Ruovddášjohka" />
		<tag k="ssr:stedsnr" v="626549" />
		<tag k="waterway" v="stream" />
	</node>
	<node lat="70.40712778663094" lon="25.078783150294" id="-51367">
		<tag k="name" v="Vuolmmašjohka - Polmasjokka" />
		<tag k="name:no" v="Polmasjokka" />
		<tag k="name:se" v="Vuolmmašjohka" />
		<tag k="ssr:stedsnr" v="626553" />
		<tag k="waterway" v="river" />
	</node>
	<node lat="70.45613889498678" lon="25.08201091708504" id="-51371">
		<tag k="name" v="Gáicajávrrit" />
		<tag k="name:se" v="Gáicajávrrit" />
		<tag k="natural" v="water" />
		<tag k="ssr:stedsnr" v="626750" />
		<tag k="water" v="lake" />
	</node>
	<node lat="69.81873890123558" lon="25.414019183367852" id="-51373">
		<tag k="name" v="Dápmotláttu" />
		<tag k="name:se" v="Dápmotláttu" />
		<tag k="natural" v="water" />
		<tag k="old_name:se" v="Dabmutladdo" />
		<tag k="ssr:stedsnr" v="626906" />
	</node>
	<node lat="70.71290556503077" lon="25.389372025786415" id="-51375">
		<tag k="name" v="Rággevárjávrrit" />
		<tag k="name:se" v="Rággevárjávrrit" />
		<tag k="natural" v="water" />
		<tag k="old_name:se" v="Raggevarjavrit" />
		<tag k="ssr:stedsnr" v="626951" />
		<tag k="water" v="lake" />
	</node>
	<node lat="70.72419166789179" lon="25.462083129841133" id="-51376">
		<tag k="name" v="Ellejávrrit" />
		<tag k="name:se" v="Ellejávrrit" />
		<tag k="natural" v="water" />
		<tag k="old_name:se" v="Ellejavrit" />
		<tag k="ssr:stedsnr" v="626957" />
	</node>
	<node lat="70.32300278429231" lon="25.16398868839215" id="-51382">
		<tag k="name" v="Pierasjávri" />
		<tag k="name:se" v="Pierasjávri" />
		<tag k="natural" v="water" />
		<tag k="ssr:stedsnr" v="627657" />
	</node>
	<node lat="70.40374167615985" lon="25.22482201645857" id="-51383">
		<tag k="name" v="Gáldojávri" />
		<tag k="name:se" v="Gáldojávri" />
		<tag k="natural" v="water" />
		<tag k="old_name:no" v="Veidnesvatnet;Brønnvatn" />
		<tag k="ssr:stedsnr" v="627399" />
	</node>
	<node lat="70.57835834178204" lon="25.193069254582124" id="-51387">
		<tag k="name" v="Loktavágejávrrit" />
		<tag k="name:se" v="Loktavágejávrrit" />
		<tag k="natural" v="water" />
		<tag k="old_name:se" v="Låktavagejavrit" />
		<tag k="ssr:stedsnr" v="627896" />
		<tag k="water" v="lake" />
	</node>
	<node lat="70.4958333420994" lon="25.754746963929406" id="-51396">
		<tag k="name" v="Golmmetláddot" />
		<tag k="name:se" v="Golmmetláddot" />
		<tag k="natural" v="water" />
		<tag k="ssr:stedsnr" v="636390" />
	</node>
	<node lat="70.31082223395128" lon="25.541533085934528" id="-51408">
		<tag k="name" v="Kajasuvanto" />
		<tag k="name:fkv" v="Kajasuvanto" />
		<tag k="natural" v="water" />
		<tag k="ssr:stedsnr" v="638591" />
		<tag k="water" v="lake" />
	</node>
	<node lat="70.31199445151341" lon="25.53902754690562" id="-51410">
		<tag k="loc_name:se" v="Prámasavu" />
		<tag k="name" v="Praamasuvanto" />
		<tag k="name:fkv" v="Praamasuvanto" />
		<tag k="natural" v="water" />
		<tag k="ssr:stedsnr" v="638594" />
		<tag k="water" v="lake" />
	</node>
	<node lat="70.36370834121396" lon="25.697321977666242" id="-51411">
		<tag k="loc_name:se" v="Luossasavu" />
		<tag k="name" v="Louhikko" />
		<tag k="name:fkv" v="Louhikko" />
		<tag k="natural" v="water" />
		<tag k="ssr:stedsnr" v="638887" />
		<tag k="water" v="lake" />
	</node>
	<node lat="70.36859445511747" lon="25.70957474897514" id="-51412">
		<tag k="name" v="Kurkkionalus" />
		<tag k="name:fkv" v="Kurkkionalus" />
		<tag k="natural" v="water" />
		<tag k="ssr:stedsnr" v="638891" />
		<tag k="water" v="lake" />
	</node>
	<node lat="70.59647778296113" lon="26.006735823618143" id="-51415">
		<tag k="name" v="Báiskkiláddot" />
		<tag k="name:se" v="Báiskkiláddot" />
		<tag k="natural" v="water" />
		<tag k="ssr:stedsnr" v="652048" />
	</node>
	<node lat="70.15962222978304" lon="24.784638706866126" id="-51418">
		<tag k="name" v="Guhkessavvon" />
		<tag k="name:se" v="Guhkessavvon" />
		<tag k="natural" v="water" />
		<tag k="ssr:stedsnr" v="686093" />
		<tag k="water" v="lake" />
	</node>
	<node lat="70.0511416740291" lon="24.783602600807615" id="-51420">
		<tag k="name" v="Njoaiddonjoasjávrrit" />
		<tag k="name:se" v="Njoaiddonjoasjávrrit" />
		<tag k="natural" v="water" />
		<tag k="ssr:stedsnr" v="686190" />
	</node>
	<node lat="69.79896944788128" lon="24.748788691503634" id="-51421">
		<tag k="name" v="Leavnnjašjohka" />
		<tag k="name:se" v="Leavnnjašjohka" />
		<tag k="old_name:se" v="Lævnjašjåkka" />
		<tag k="ssr:stedsnr" v="686607" />
		<tag k="waterway" v="river" />
	</node>
	<node lat="69.75259167350158" lon="25.467974726414543" id="-51424">
		<tag k="name" v="Stohpojávri" />
		<tag k="name:se" v="Stohpojávri" />
		<tag k="natural" v="water" />
		<tag k="old_name:se" v="Ståppujavri" />
		<tag k="ssr:stedsnr" v="686990" />
	</node>
	<node lat="70.17532500896463" lon="25.50555254786613" id="-51430">
		<tag k="name" v="Čáhppilskáidi" />
		<tag k="name:se" v="Čáhppilskáidi" />
		<tag k="natural" v="cape" />
		<tag k="ssr:stedsnr" v="687307" />
	</node>
	<node lat="70.50312778862269" lon="25.96132472533948" id="-51434">
		<tag k="name" v="Moksajávri" />
		<tag k="name:se" v="Moksajávri" />
		<tag k="natural" v="water" />
		<tag k="old_name:se" v="Måksajavri" />
		<tag k="ssr:stedsnr" v="687610" />
		<tag k="water" v="lake" />
	</node>
	<node lat="69.8357083423893" lon="25.399249739840123" id="-51441">
		<tag k="name" v="Njunessuolojávri" />
		<tag k="name:se" v="Njunessuolojávri" />
		<tag k="natural" v="water" />
		<tag k="old_name:se" v="Njunessuolujavri" />
		<tag k="ssr:stedsnr" v="687905" />
	</node>
	<node lat="70.00510834008703" lon="25.200097000888196" id="-51442">
		<tag k="name" v="Aslakanjärvet" />
		<tag k="name:fkv" v="Aslakanjärvet" />
		<tag k="natural" v="water" />
		<tag k="ssr:stedsnr" v="688123" />
	</node>
	<node lat="70.40406111980177" lon="25.581071984252784" id="-51444">
		<tag k="fixme" v="multiple name tags, choose one and add the other to alt_name" />
		<tag k="name" v="Golmmetjávri;Piggvannet - Rautopääjärvi" />
		<tag k="name:fkv" v="Rautopääjärvi" />
		<tag k="name:se" v="Golmmetjávri;Piggvannet" />
		<tag k="natural" v="water" />
		<tag k="ssr:stedsnr" v="688394" />
	</node>
	<node lat="70.46074722353808" lon="25.15673036782708" id="-51447">
		<tag k="name" v="Lábbájávri" />
		<tag k="name:se" v="Lábbájávri" />
		<tag k="natural" v="water" />
		<tag k="ssr:stedsnr" v="688808" />
	</node>
	<node lat="70.55446389130796" lon="24.987330370135645" id="-51450">
		<tag k="name" v="Stuorra Gárjiljávri" />
		<tag k="name:se" v="Stuorra Gárjiljávri" />
		<tag k="natural" v="water" />
		<tag k="old_name:se" v="Garjiljavri, stuorra;Stuorra Garjiljávri" />
		<tag k="ssr:stedsnr" v="688934" />
		<tag k="water" v="lake" />
	</node>
	<node lat="69.8722222310863" lon="24.97748868333238" id="-51458">
		<tag k="name" v="Dápmotjávri" />
		<tag k="name:se" v="Dápmotjávri" />
		<tag k="natural" v="water" />
		<tag k="ssr:stedsnr" v="895170" />
	</node>
	<node lat="69.91090278455857" lon="24.9865720309909" id="-51459">
		<tag k="name" v="Iŋggašnjárga" />
		<tag k="name:se" v="Iŋggašnjárga" />
		<tag k="natural" v="cape" />
		<tag k="ssr:stedsnr" v="895173" />
	</node>
	<node lat="70.08186389408768" lon="24.913063707429476" id="-51465">
		<tag k="name" v="Tiilimyllynoja" />
		<tag k="name:fkv" v="Tiilimyllynoja" />
		<tag k="ssr:stedsnr" v="699164" />
		<tag k="waterway" v="stream" />
	</node>
	<node lat="70.01685555968795" lon="24.947905366326655" id="-51471">
		<tag k="name" v="Tormikuoppa" />
		<tag k="name:fkv" v="Tormikuoppa" />
		<tag k="natural" v="water" />
		<tag k="ssr:stedsnr" v="699366" />
		<tag k="water" v="lake" />
	</node>
	<node lat="70.33483612228594" lon="25.643208082532468" id="-51475">
		<tag k="name" v="Mukka" />
		<tag k="name:fkv" v="Mukka" />
		<tag k="natural" v="water" />
		<tag k="ssr:stedsnr" v="699585" />
		<tag k="water" v="lake" />
	</node>
	<node lat="69.92282778024317" lon="24.979444247842533" id="-51480">
		<tag k="name" v="Luovččavuohpenjárga" />
		<tag k="name:se" v="Luovččavuohpenjárga" />
		<tag k="natural" v="cape" />
		<tag k="ssr:stedsnr" v="713177" />
	</node>
	<node lat="70.66817222393635" lon="25.378030353989974" id="-51481">
		<tag k="name" v="Sortvikelva" />
		<tag k="name:no" v="Sortvikelva" />
		<tag k="ssr:stedsnr" v="898521" />
		<tag k="waterway" v="river" />
	</node>
	<node lat="70.08442222548678" lon="24.40231928820608" id="-51483">
		<tag k="name" v="Áldojohka" />
		<tag k="name:se" v="Áldojohka" />
		<tag k="old_name:se" v="Aldujåkka" />
		<tag k="ssr:stedsnr" v="747006" />
		<tag k="waterway" v="river" />
	</node>
	<node lat="70.06478056410754" lon="24.685244278302125" id="-51487">
		<tag k="name" v="Lávkajohka" />
		<tag k="name:se" v="Lávkajohka" />
		<tag k="ssr:stedsnr" v="747206" />
		<tag k="waterway" v="stream" />
	</node>
	<node lat="70.05016945262906" lon="25.123558115195074" id="-51488">
		<tag k="name" v="Čorgašjohka - Sorkusenoja" />
		<tag k="name:fkv" v="Sorkusenoja" />
		<tag k="name:se" v="Čorgašjohka" />
		<tag k="ssr:stedsnr" v="747217" />
		<tag k="waterway" v="stream" />
	</node>
	<node lat="70.22281389919625" lon="25.422708109038652" id="-51489">
		<tag k="name" v="Speajaljohka - Speilelva - Peilijoki" />
		<tag k="name:fkv" v="Peilijoki" />
		<tag k="name:no" v="Speilelva" />
		<tag k="name:se" v="Speajaljohka" />
		<tag k="ssr:stedsnr" v="747265" />
		<tag k="waterway" v="river" />
	</node>
	<node lat="70.25902778962269" lon="25.506369202345414" id="-51493">
		<tag k="name" v="Liigajohjávri - Liikajoenjärvi" />
		<tag k="name:fkv" v="Liikajoenjärvi" />
		<tag k="name:se" v="Liigajohjávri" />
		<tag k="natural" v="water" />
		<tag k="ssr:stedsnr" v="747273" />
	</node>
	<node lat="69.84774445068778" lon="25.038455356266518" id="-51499">
		<tag k="name" v="Suoidnenjárga" />
		<tag k="name:se" v="Suoidnenjárga" />
		<tag k="natural" v="cape" />
		<tag k="old_name:se" v="Suoidnenjarga" />
		<tag k="ssr:stedsnr" v="747505" />
	</node>
	<node lat="69.77958334025644" lon="25.12382198743443" id="-51500">
		<tag k="name" v="Savgŋojohka" />
		<tag k="name:se" v="Savgŋojohka" />
		<tag k="old_name:se" v="Savgŋujåkka;Savkŋojohka" />
		<tag k="ssr:stedsnr" v="747603" />
		<tag k="waterway" v="river" />
	</node>
	<node lat="70.34772500420748" lon="24.585327629262697" id="-51502">
		<tag k="name" v="Čohttiljávri" />
		<tag k="name:se" v="Čohttiljávri" />
		<tag k="natural" v="water" />
		<tag k="old_name:se" v="Čåttiljavri" />
		<tag k="ssr:stedsnr" v="747667" />
	</node>
	<node lat="70.26232778218157" lon="24.93401926225882" id="-51504">
		<tag k="name" v="Uhca-Ánddo-johka" />
		<tag k="name:se" v="Uhca-Ánddo-johka" />
		<tag k="ssr:stedsnr" v="748413" />
		<tag k="waterway" v="stream" />
	</node>
	<node lat="70.37866666958794" lon="24.954485930422567" id="-51506">
		<tag k="name" v="Gaskaoaijohka" />
		<tag k="name:se" v="Gaskaoaijohka" />
		<tag k="ssr:stedsnr" v="748525" />
		<tag k="waterway" v="stream" />
	</node>
	<node lat="70.62665556663652" lon="26.013652505768217" id="-51510">
		<tag k="name" v="Leagijohka" />
		<tag k="name:se" v="Leagijohka" />
		<tag k="old_name:se" v="Lægijåkka" />
		<tag k="ssr:stedsnr" v="748575" />
		<tag k="waterway" v="stream" />
	</node>
	<node lat="70.34685277969506" lon="24.936480373618487" id="-51511">
		<tag k="name" v="Čađajohka" />
		<tag k="name:se" v="Čađajohka" />
		<tag k="ssr:stedsnr" v="748577" />
		<tag k="waterway" v="stream" />
	</node>
	<node lat="70.57582223317789" lon="25.966038606606602" id="-51512">
		<tag k="alt_name:se" v="Mielcejohka" />
		<tag k="name" v="Skadjajohka" />
		<tag k="name:se" v="Skadjajohka" />
		<tag k="old_name:se" v="Skaddjajåkka" />
		<tag k="ssr:stedsnr" v="748579" />
		<tag k="waterway" v="stream" />
	</node>
	<node lat="70.19491389674484" lon="24.95510813754312" id="-51515">
		<tag k="name" v="Doaresgárgobovdna" />
		<tag k="name:se" v="Doaresgárgobovdna" />
		<tag k="natural" v="cape" />
		<tag k="ssr:stedsnr" v="749082" />
	</node>
	<node lat="70.10023334431237" lon="25.056830352899798" id="-51517">
		<tag k="name" v="Baulajärvi" />
		<tag k="name:fkv" v="Baulajärvi" />
		<tag k="natural" v="water" />
		<tag k="ssr:stedsnr" v="758054" />
	</node>
	<node lat="70.53348889980829" lon="25.80648307926357" id="-51518">
		<tag k="name" v="Stuorrajávri" />
		<tag k="name:se" v="Stuorrajávri" />
		<tag k="natural" v="water" />
		<tag k="ssr:stedsnr" v="758154" />
		<tag k="water" v="lake" />
	</node>
	<node lat="70.43109445497863" lon="25.6014247515149" id="-51523">
		<tag k="name" v="Sisttetjohka" />
		<tag k="name:se" v="Sisttetjohka" />
		<tag k="ssr:stedsnr" v="759503" />
		<tag k="waterway" v="stream" />
	</node>
	<node lat="70.45752500668561" lon="25.702069201938937" id="-51524">
		<tag k="name" v="Nils Biehtár láttu - Niileksen Pietarin Lantto" />
		<tag k="name:fkv" v="Niileksen Pietarin Lantto" />
		<tag k="name:se" v="Nils Biehtár láttu" />
		<tag k="natural" v="water" />
		<tag k="ssr:stedsnr" v="759515" />
	</node>
	<node lat="70.17399445322324" lon="24.892316474766037" id="-51529">
		<tag k="name" v="Oaggoniittosavvon" />
		<tag k="name:se" v="Oaggoniittosavvon" />
		<tag k="natural" v="water" />
		<tag k="ssr:stedsnr" v="760162" />
		<tag k="water" v="lake" />
	</node>
	<node lat="70.19762778897011" lon="25.757441404449267" id="-51540">
		<tag k="name" v="Uhca Čalbmelanjohka - Pikku Silmäreikäautsin joki" />
		<tag k="name:fkv" v="Pikku Silmäreikäautsin joki" />
		<tag k="name:se" v="Uhca Čalbmelanjohka" />
		<tag k="ssr:stedsnr" v="808295" />
		<tag k="waterway" v="river" />
	</node>
	<node lat="70.44085000173224" lon="25.054010917180744" id="-51551">
		<tag k="name" v="Duolbajohka" />
		<tag k="name:se" v="Duolbajohka" />
		<tag k="ssr:stedsnr" v="808738" />
		<tag k="waterway" v="stream" />
	</node>
	<node lat="70.24690555832068" lon="24.59060817943998" id="-51552">
		<tag k="name" v="Gádjariegádanjohka" />
		<tag k="name:se" v="Gádjariegádanjohka" />
		<tag k="old_name:se" v="Gaddjariegadan jåkka;Gaddjariegadanjåkka" />
		<tag k="ssr:stedsnr" v="808986" />
		<tag k="waterway" v="river" />
	</node>
	<node lat="70.56088612247176" lon="25.845996955548124" id="-51559">
		<tag k="alt_name:se" v="Civáđgjohka" />
		<tag k="name" v="Civajohka" />
		<tag k="name:se" v="Civajohka" />
		<tag k="old_name:se" v="Civajåkka" />
		<tag k="ssr:stedsnr" v="809615" />
		<tag k="waterway" v="stream" />
	</node>
	<node lat="70.31088889706992" lon="25.008072043009133" id="-51560">
		<tag k="name" v="Návrrašjohka" />
		<tag k="name:se" v="Návrrašjohka" />
		<tag k="ssr:stedsnr" v="809617" />
		<tag k="waterway" v="stream" />
	</node>
	<node lat="70.40615000879785" lon="25.206455350115963" id="-51562">
		<tag k="name" v="Stuorrajávri - Storvannet" />
		<tag k="name:no" v="Storvannet" />
		<tag k="name:se" v="Stuorrajávri" />
		<tag k="natural" v="water" />
		<tag k="ssr:stedsnr" v="809544" />
	</node>
	<node lat="70.30308611267421" lon="24.707733158422485" id="-51569">
		<tag k="name" v="Hávdenjárga" />
		<tag k="name:se" v="Hávdenjárga" />
		<tag k="natural" v="cape" />
		<tag k="ssr:stedsnr" v="809689" />
	</node>
	<node lat="70.38531945534613" lon="25.526124761925747" id="-51570">
		<tag k="name" v="Ávnnasgurajohka - Aunaskurunjoki" />
		<tag k="name:fkv" v="Aunaskurunjoki" />
		<tag k="name:se" v="Ávnnasgurajohka" />
		<tag k="ssr:stedsnr" v="812936" />
		<tag k="waterway" v="stream" />
	</node>
	<node lat="70.2861444511305" lon="25.542891420782425" id="-51572">
		<tag k="name" v="Gáhkkorjávrrit - Kaakkurinjärvet" />
		<tag k="name:fkv" v="Kaakkurinjärvet" />
		<tag k="name:se" v="Gáhkkorjávrrit" />
		<tag k="natural" v="water" />
		<tag k="ssr:stedsnr" v="814109" />
	</node>
	<node lat="70.33108889258703" lon="25.423510870169245" id="-51573">
		<tag k="name" v="Roggejávri - Runkaouđanjärvi" />
		<tag k="name:fkv" v="Runkaouđanjärvi" />
		<tag k="name:se" v="Roggejávri" />
		<tag k="natural" v="water" />
		<tag k="ssr:stedsnr" v="814994" />
		<tag k="water" v="lake" />
	</node>
	<node lat="70.36952778657358" lon="25.562485862798667" id="-51574">
		<tag k="name" v="Várssajávri - Varasanjärvi" />
		<tag k="name:fkv" v="Varasanjärvi" />
		<tag k="name:se" v="Várssajávri" />
		<tag k="natural" v="water" />
		<tag k="ssr:stedsnr" v="815990" />
	</node>
	<node lat="70.27570278889853" lon="25.512516431926176" id="-51578">
		<tag k="name" v="Palotievanjärvi" />
		<tag k="name:fkv" v="Palotievanjärvi" />
		<tag k="natural" v="water" />
		<tag k="ssr:stedsnr" v="820373" />
	</node>
	<node lat="70.03395833972759" lon="24.928813696114073" id="-51579">
		<tag k="name" v="Ojaluokka" />
		<tag k="name:fkv" v="Ojaluokka" />
		<tag k="place" v="locality" />
		<tag k="ssr:stedsnr" v="820374" />
	</node>
	<node lat="70.31982778480666" lon="25.596885852638135" id="-51584">
		<tag k="loc_name:se" v="Govdasavu" />
		<tag k="name" v="Kouttansuvanto" />
		<tag k="name:fkv" v="Kouttansuvanto" />
		<tag k="natural" v="water" />
		<tag k="ssr:stedsnr" v="821618" />
		<tag k="water" v="lake" />
	</node>
	<node lat="69.94225278921287" lon="24.96230534700003" id="-51588">
		<tag k="name" v="Lompolanniska" />
		<tag k="name:fkv" v="Lompolanniska" />
		<tag k="place" v="locality" />
		<tag k="ssr:stedsnr" v="829917" />
	</node>
	<node lat="70.0324888970459" lon="24.38558874227855" id="-51592">
		<tag k="name" v="Rássegáljohka" />
		<tag k="name:se" v="Rássegáljohka" />
		<tag k="old_name:se" v="Rassegaljåkka" />
		<tag k="ssr:stedsnr" v="929043" />
		<tag k="waterway" v="stream" />
	</node>
	<node lat="70.02872500206757" lon="24.361547071708298" id="-51593">
		<tag k="name" v="Rásseádjagat" />
		<tag k="name:se" v="Rásseádjagat" />
		<tag k="old_name:se" v="Rasseaddjagat" />
		<tag k="ssr:stedsnr" v="929044" />
		<tag k="waterway" v="stream" />
	</node>
	<node lat="70.14630833908046" lon="24.782266484668313" id="-51596">
		<tag k="name" v="Njáhkájávri" />
		<tag k="name:se" v="Njáhkájávri" />
		<tag k="natural" v="water" />
		<tag k="ssr:stedsnr" v="929083" />
	</node>
	<node lat="70.24097778665853" lon="26.008880258943808" id="-51599">
		<tag k="loc_name:fkv" v="Šuijoki" />
		<tag k="loc_name:se" v="Čuđenjoasjohka" />
		<tag k="name" v="Čuđejohka" />
		<tag k="name:se" v="Čuđejohka" />
		<tag k="old_name:se" v="Čuđejåkka" />
		<tag k="ssr:stedsnr" v="929323" />
		<tag k="waterway" v="stream" />
	</node>
	<node lat="69.90626112024628" lon="25.153077559812523" id="-51602">
		<tag k="name" v="Ruostajávri" />
		<tag k="name:se" v="Ruostajávri" />
		<tag k="natural" v="water" />
		<tag k="old_name:se" v="Ruostajavri" />
		<tag k="ssr:stedsnr" v="929485" />
	</node>
	<node lat="69.90115556109367" lon="24.856294246983175" id="-51603">
		<tag k="name" v="Stuorroaijávrrit" />
		<tag k="name:se" v="Stuorroaijávrrit" />
		<tag k="natural" v="water" />
		<tag k="old_name:se" v="Stuorroaijavrit" />
		<tag k="ssr:stedsnr" v="929491" />
	</node>
	<node lat="69.9121944537189" lon="25.162938659313927" id="-51604">
		<tag k="name" v="Mielkejávri" />
		<tag k="name:se" v="Mielkejávri" />
		<tag k="natural" v="water" />
		<tag k="old_name:se" v="Mielkejavri" />
		<tag k="ssr:stedsnr" v="929492" />
	</node>
	<node lat="69.95333056009366" lon="25.454719203379778" id="-51605">
		<tag k="name" v="Gárdejávri" />
		<tag k="name:se" v="Gárdejávri" />
		<tag k="natural" v="water" />
		<tag k="old_name:se" v="Gardejavri" />
		<tag k="ssr:stedsnr" v="929552" />
	</node>
	<node lat="69.95196389827848" lon="25.5030747385933" id="-51606">
		<tag k="name" v="Geavrejávri" />
		<tag k="name:se" v="Geavrejávri" />
		<tag k="natural" v="water" />
		<tag k="old_name:se" v="Gævrejavri" />
		<tag k="ssr:stedsnr" v="929560" />
	</node>
	<node lat="69.93418056754139" lon="25.234074774009983" id="-51607">
		<tag k="name" v="Riebanašjohka" />
		<tag k="name:se" v="Riebanašjohka" />
		<tag k="old_name:se" v="Riebanasjåkka" />
		<tag k="ssr:stedsnr" v="929563" />
		<tag k="waterway" v="stream" />
	</node>
	<node lat="69.80711389848193" lon="25.148380333999263" id="-51608">
		<tag k="name" v="Rásteluoppal" />
		<tag k="name:se" v="Rásteluoppal" />
		<tag k="natural" v="water" />
		<tag k="old_name:se" v="Rasteluobbal" />
		<tag k="ssr:stedsnr" v="929576" />
	</node>
	<node lat="69.80245834510643" lon="24.978238679396487" id="-51609">
		<tag k="name" v="Roancejohka" />
		<tag k="name:se" v="Roancejohka" />
		<tag k="old_name:se" v="Roancejåkka" />
		<tag k="ssr:stedsnr" v="929582" />
		<tag k="waterway" v="river" />
	</node>
	<node lat="69.78884167546109" lon="25.072283105856183" id="-51610">
		<tag k="name" v="Guhkesjávri" />
		<tag k="name:se" v="Guhkesjávri" />
		<tag k="natural" v="water" />
		<tag k="old_name:se" v="Gukkesjavri" />
		<tag k="ssr:stedsnr" v="929589" />
	</node>
	<node lat="69.79160278148107" lon="25.09656367907182" id="-51611">
		<tag k="name" v="Dápmotjávri" />
		<tag k="name:se" v="Dápmotjávri" />
		<tag k="natural" v="water" />
		<tag k="old_name:se" v="Dabmutjavri" />
		<tag k="ssr:stedsnr" v="929591" />
	</node>
	<node lat="69.76291945592143" lon="25.154041429325243" id="-51612">
		<tag k="name" v="Čádjegorži" />
		<tag k="name:se" v="Čádjegorži" />
		<tag k="natural" v="waterfall" />
		<tag k="old_name:se" v="Čaddjegårži" />
		<tag k="ssr:stedsnr" v="929599" />
	</node>
	<node lat="69.83947223027307" lon="24.230438749150093" id="-51613">
		<tag k="name" v="Gaskajohka" />
		<tag k="name:se" v="Gaskajohka" />
		<tag k="old_name:se" v="Gaskajåkka" />
		<tag k="ssr:stedsnr" v="929671" />
		<tag k="waterway" v="river" />
	</node>
	<node lat="69.97144722654019" lon="24.718722045729784" id="-51615">
		<tag k="name" v="Oppardatjohka" />
		<tag k="name:se" v="Oppardatjohka" />
		<tag k="ssr:stedsnr" v="929517" />
		<tag k="waterway" v="river" />
	</node>
	<node lat="69.9315416755615" lon="25.12596089190735" id="-51616">
		<tag k="loc_name:no" v="Slåttevann" />
		<tag k="name" v="Ládjojávri" />
		<tag k="name:se" v="Ládjojávri" />
		<tag k="natural" v="water" />
		<tag k="old_name:se" v="Laddjujavri" />
		<tag k="ssr:stedsnr" v="929535" />
	</node>
	<node lat="69.89143612119668" lon="25.594758054005116" id="-51619">
		<tag k="name" v="Vánššjohka" />
		<tag k="name:se" v="Vánššjohka" />
		<tag k="old_name:se" v="Vanšjåkka" />
		<tag k="ssr:stedsnr" v="929927" />
		<tag k="waterway" v="river" />
	</node>
	<node lat="70.0401305620693" lon="25.221352560696015" id="-51624">
		<tag k="name" v="Gárenašjávrrit - Karenvannan - Kaarinanjärvet" />
		<tag k="name:fkv" v="Kaarinanjärvet" />
		<tag k="name:no" v="Karenvannan" />
		<tag k="name:se" v="Gárenašjávrrit" />
		<tag k="natural" v="water" />
		<tag k="ssr:stedsnr" v="868313" />
		<tag k="water" v="lake" />
	</node>
	<node lat="70.04334444994792" lon="24.544324836701268" id="-51627">
		<tag k="name" v="Vuoivvasjávri" />
		<tag k="name:se" v="Vuoivvasjávri" />
		<tag k="natural" v="water" />
		<tag k="old_name:se" v="Vuoivasjavri" />
		<tag k="ssr:stedsnr" v="869006" />
	</node>
	<node lat="70.19225555924014" lon="24.67688872539206" id="-51631">
		<tag k="name" v="Vinjugurajávrrit" />
		<tag k="name:se" v="Vinjugurajávrrit" />
		<tag k="natural" v="water" />
		<tag k="ssr:stedsnr" v="869081" />
		<tag k="water" v="lake" />
	</node>
	<node lat="70.0970861158728" lon="24.86896926420693" id="-51633">
		<tag k="name" v="Njeaiddánjávrrit" />
		<tag k="name:se" v="Njeaiddánjávrrit" />
		<tag k="natural" v="water" />
		<tag k="ssr:stedsnr" v="869204" />
	</node>
	<node lat="70.09739167444599" lon="24.83033594218283" id="-51646">
		<tag k="name" v="Nástejávrrit" />
		<tag k="name:se" v="Nástejávrrit" />
		<tag k="natural" v="water" />
		<tag k="ssr:stedsnr" v="930184" />
		<tag k="water" v="lake" />
	</node>
	<node lat="70.01861389450761" lon="24.98970257444442" id="-51647">
		<tag k="name" v="Borsejávrrit - Porsvannan - Porsijärvet" />
		<tag k="name:fkv" v="Porsijärvet" />
		<tag k="name:no" v="Porsvannan" />
		<tag k="name:se" v="Borsejávrrit" />
		<tag k="natural" v="water" />
		<tag k="ssr:stedsnr" v="930257" />
		<tag k="water" v="lake" />
	</node>
	<node lat="69.96661111762614" lon="24.850463700542644" id="-51648">
		<tag k="name" v="Bálggesgorži" />
		<tag k="name:se" v="Bálggesgorži" />
		<tag k="natural" v="waterfall" />
		<tag k="old_name:se" v="Balgesgårži" />
		<tag k="ssr:stedsnr" v="869569" />
	</node>
	<node lat="69.95986944762717" lon="24.84614425623066" id="-51651">
		<tag k="name" v="Bálggesskáidi" />
		<tag k="name:se" v="Bálggesskáidi" />
		<tag k="natural" v="cape" />
		<tag k="old_name:se" v="Balgesskaidi;Bálggeskáidi" />
		<tag k="ssr:stedsnr" v="869578" />
	</node>
	<node lat="69.85820278607126" lon="24.363283191920374" id="-51653">
		<tag k="name" v="Duolbajávri" />
		<tag k="name:se" v="Duolbajávri" />
		<tag k="natural" v="water" />
		<tag k="old_name:se" v="Duolbajavri" />
		<tag k="ssr:stedsnr" v="869724" />
	</node>
	<node lat="70.59821389212023" lon="25.24535534782048" id="-51656">
		<tag k="name" v="Ruoššajohka" />
		<tag k="name:se" v="Ruoššajohka" />
		<tag k="old_name:se" v="Ruoššajåkka" />
		<tag k="ssr:stedsnr" v="869973" />
		<tag k="waterway" v="stream" />
	</node>
	<node lat="70.02617778615283" lon="24.89615258477276" id="-51661">
		<tag k="name" v="Bákteravddajávri - Ruuhopahđanjärvi" />
		<tag k="name:fkv" v="Ruuhopahđanjärvi" />
		<tag k="name:se" v="Bákteravddajávri" />
		<tag k="natural" v="water" />
		<tag k="ssr:stedsnr" v="930271" />
	</node>
	<node lat="70.4068694544339" lon="25.721749736921424" id="-51664">
		<tag k="name" v="Lákcajohka - Laksajoki" />
		<tag k="name:fkv" v="Laksajoki" />
		<tag k="name:se" v="Lákcajohka" />
		<tag k="ssr:stedsnr" v="870416" />
		<tag k="waterway" v="stream" />
	</node>
	<node lat="70.23935555896476" lon="25.446046993330388" id="-51670">
		<tag k="name" v="Ala-Juhaninmukka" />
		<tag k="name:fkv" v="Ala-Juhaninmukka" />
		<tag k="natural" v="bay" />
		<tag k="ssr:stedsnr" v="870765" />
	</node>
	<node lat="70.33919723061375" lon="25.697096962414268" id="-51672">
		<tag k="name" v="Vuolit Silffarjávri" />
		<tag k="name:se" v="Vuolit Silffarjávri" />
		<tag k="natural" v="water" />
		<tag k="ssr:stedsnr" v="870922" />
	</node>
	<node lat="70.45928334537652" lon="25.82781640004622" id="-51675">
		<tag k="name" v="Soljjotjávri" />
		<tag k="name:se" v="Soljjotjávri" />
		<tag k="natural" v="water" />
		<tag k="old_name:se" v="Såljutjavri" />
		<tag k="ssr:stedsnr" v="930314" />
	</node>
	<node lat="70.46130278555144" lon="25.946321947978362" id="-51676">
		<tag k="name" v="Báhkkajávrrit" />
		<tag k="name:se" v="Báhkkajávrrit" />
		<tag k="natural" v="water" />
		<tag k="old_name:se" v="Bakkajavrit" />
		<tag k="ssr:stedsnr" v="930318" />
		<tag k="water" v="lake" />
	</node>
	<node lat="70.18798889630625" lon="25.567488650085338" id="-51678">
		<tag k="name" v="Lárssenjávrrit - Sappirvaaranjärvet" />
		<tag k="name:fkv" v="Sappirvaaranjärvet" />
		<tag k="name:se" v="Lárssenjávrrit" />
		<tag k="natural" v="water" />
		<tag k="ssr:stedsnr" v="930331" />
		<tag k="water" v="lake" />
	</node>
	<node lat="70.30305834033089" lon="25.531194218163616" id="-51680">
		<tag k="name" v="Mohkkejávri - Krokvannet - Käyräjärvi" />
		<tag k="name:fkv" v="Käyräjärvi" />
		<tag k="name:no" v="Krokvannet" />
		<tag k="name:se" v="Mohkkejávri" />
		<tag k="natural" v="water" />
		<tag k="ssr:stedsnr" v="930462" />
	</node>
	<node lat="70.25998611914221" lon="24.956869249210115" id="-51681">
		<tag k="name" v="Opmoláttu" />
		<tag k="name:se" v="Opmoláttu" />
		<tag k="natural" v="water" />
		<tag k="ssr:stedsnr" v="930440" />
	</node>
	<node lat="70.04050833824324" lon="25.510338637153808" id="-51685">
		<tag k="name" v="Juovssajohka" />
		<tag k="name:se" v="Juovssajohka" />
		<tag k="ssr:stedsnr" v="930478" />
		<tag k="waterway" v="stream" />
	</node>
	<node lat="70.34715833957152" lon="25.70996362922292" id="-51687">
		<tag k="name" v="Silffarjávrrit - Silfarvannan - Silfarinjärvet" />
		<tag k="name:fkv" v="Silfarinjärvet" />
		<tag k="name:no" v="Silfarvannan" />
		<tag k="name:se" v="Silffarjávrrit" />
		<tag k="natural" v="water" />
		<tag k="ssr:stedsnr" v="930489" />
	</node>
	<node lat="70.34096112016496" lon="25.48011087948772" id="-51688">
		<tag k="fixme" v="multiple name tags, choose one and add the other to alt_name" />
		<tag k="name" v="Løkvannet - Keinokanjärvet;Keinotokanvaaranjärvet" />
		<tag k="name:fkv" v="Keinokanjärvet;Keinotokanvaaranjärvet" />
		<tag k="name:no" v="Løkvannet" />
		<tag k="natural" v="water" />
		<tag k="ssr:stedsnr" v="930490" />
	</node>
	<node lat="70.44706389360054" lon="24.959824820419158" id="-51692">
		<tag k="name" v="Doaresjohka - Tverrelva" />
		<tag k="name:no" v="Tverrelva" />
		<tag k="name:se" v="Doaresjohka" />
		<tag k="ssr:stedsnr" v="930563" />
		<tag k="waterway" v="river" />
	</node>
	<node lat="70.42933334326118" lon="25.992974703357643" id="-51694">
		<tag k="name" v="Sieđgajohka" />
		<tag k="name:se" v="Sieđgajohka" />
		<tag k="old_name:se" v="Sieđgajåkka" />
		<tag k="ssr:stedsnr" v="930568" />
		<tag k="waterway" v="river" />
	</node>
	<node lat="70.39256111843682" lon="25.109280375736486" id="-51699">
		<tag k="name" v="Seaibbetjohka - Sæibbeelva - Seippijoki" />
		<tag k="name:fkv" v="Seippijoki" />
		<tag k="name:no" v="Sæibbeelva" />
		<tag k="name:se" v="Seaibbetjohka" />
		<tag k="ssr:stedsnr" v="930528" />
		<tag k="waterway" v="stream" />
	</node>
	<node lat="70.39123611728964" lon="24.816477603299823" id="-51700">
		<tag k="name" v="Jovnnajávri" />
		<tag k="name:se" v="Jovnnajávri" />
		<tag k="natural" v="water" />
		<tag k="ssr:stedsnr" v="930530" />
	</node>
	<node lat="70.51699445094407" lon="25.79094417705547" id="-51703">
		<tag k="name" v="Lavdnjejávri - Torvvannet" />
		<tag k="name:no" v="Torvvannet" />
		<tag k="name:se" v="Lavdnjejávri" />
		<tag k="natural" v="water" />
		<tag k="ssr:stedsnr" v="930536" />
	</node>
	<node lat="70.37583095283154" lon="24.900514521082794" id="-51704">
		<tag k="loc_name:no" v="Hundvannet" />
		<tag k="name" v="Beatnatjávri - Koirajärvi" />
		<tag k="name:fkv" v="Koirajärvi" />
		<tag k="name:se" v="Beatnatjávri" />
		<tag k="natural" v="water" />
		<tag k="ssr:stedsnr" v="930539" />
		<tag k="water" v="lake" />
	</node>
	<node lat="70.30397777878727" lon="25.133372032844953" id="-51707">
		<tag k="name" v="Stuorračohjávri" />
		<tag k="name:se" v="Stuorračohjávri" />
		<tag k="natural" v="water" />
		<tag k="ssr:stedsnr" v="930631" />
	</node>
	<node lat="70.2893888958203" lon="25.03313315389273" id="-51708">
		<tag k="name" v="Uhca Jeahkirjávri" />
		<tag k="name:se" v="Uhca Jeahkirjávri" />
		<tag k="natural" v="water" />
		<tag k="ssr:stedsnr" v="930636" />
	</node>
	<node lat="70.35585000860858" lon="24.771002610556387" id="-51709">
		<tag k="name" v="Rivotjávrrit" />
		<tag k="name:se" v="Rivotjávrrit" />
		<tag k="natural" v="water" />
		<tag k="ssr:stedsnr" v="930580" />
	</node>
	<node lat="70.360872229671" lon="24.963002604438923" id="-51710">
		<tag k="name" v="Fádnojohka" />
		<tag k="name:se" v="Fádnojohka" />
		<tag k="ssr:stedsnr" v="930581" />
		<tag k="waterway" v="stream" />
	</node>
	<node lat="70.50684167474391" lon="24.94908871913844" id="-51713">
		<tag k="name" v="Smiervuonjohka - Smørfjordelva - Smervuononjoki" />
		<tag k="name:fkv" v="Smervuononjoki" />
		<tag k="name:no" v="Smørfjordelva" />
		<tag k="name:se" v="Smiervuonjohka" />
		<tag k="ssr:stedsnr" v="930775" />
		<tag k="waterway" v="river" />
	</node>
	<node lat="69.87214723347556" lon="25.609060825332897" id="-51714">
		<tag k="loc_name:no" v="Holmevann" />
		<tag k="name" v="Suolojávri" />
		<tag k="name:se" v="Suolojávri" />
		<tag k="natural" v="water" />
		<tag k="old_name:se" v="Suolujavri" />
		<tag k="ssr:stedsnr" v="930910" />
		<tag k="water" v="lake" />
	</node>
	<node lat="70.71269167342392" lon="25.48866089097211" id="-51715">
		<tag k="name" v="Vuolit Áhpeluokjávri - Nedre Molvikvannet" />
		<tag k="name:no" v="Nedre Molvikvannet" />
		<tag k="name:se" v="Vuolit Áhpeluokjávri" />
		<tag k="natural" v="water" />
		<tag k="old_name:se" v="Appeluokjavri, vuolit" />
		<tag k="ssr:stedsnr" v="930952" />
		<tag k="water" v="lake" />
	</node>
	<node lat="70.66379444684553" lon="25.232974796909048" id="-51718">
		<tag k="name" v="Virošgielasjávri" />
		<tag k="name:se" v="Virošgielasjávri" />
		<tag k="natural" v="water" />
		<tag k="old_name:se" v="Virušgielasjavri;Virošgielasjavri" />
		<tag k="ssr:stedsnr" v="930986" />
		<tag k="water" v="lake" />
	</node>
	<node lat="70.34157384395381" lon="24.92271686316842" id="-51723">
		<tag k="loc_name:no" v="Lillevannet" />
		<tag k="name" v="Pikkujärvi" />
		<tag k="name:fkv" v="Pikkujärvi" />
		<tag k="natural" v="water" />
		<tag k="ssr:stedsnr" v="931737" />
	</node>
	<node lat="70.51771667065903" lon="24.93689427839061" id="-51724">
		<tag k="name" v="Muotkejohka - Eidelva" />
		<tag k="name:no" v="Eidelva" />
		<tag k="name:se" v="Muotkejohka" />
		<tag k="old_name:se" v="Muotkejåkka" />
		<tag k="ssr:stedsnr" v="931917" />
		<tag k="waterway" v="stream" />
	</node>
	<node lat="70.50467778217596" lon="25.799183080097745" id="-51729">
		<tag k="name" v="Látnjajávri" />
		<tag k="name:se" v="Látnjajávri" />
		<tag k="natural" v="water" />
		<tag k="ssr:stedsnr" v="879419" />
	</node>
	<node lat="70.32019722802674" lon="25.553071976663933" id="-51733">
		<tag k="name" v="Luponoja" />
		<tag k="name:fkv" v="Luponoja" />
		<tag k="ssr:stedsnr" v="881453" />
		<tag k="waterway" v="stream" />
	</node>
	<node lat="70.02768611414128" lon="24.955105348309623" id="-51742">
		<tag k="name" v="Mellankuoppa" />
		<tag k="name:fkv" v="Mellankuoppa" />
		<tag k="natural" v="water" />
		<tag k="ssr:stedsnr" v="882348" />
		<tag k="water" v="lake" />
	</node>
	<node lat="70.00677500653087" lon="24.924172023485735" id="-51745">
		<tag k="name" v="Puuraniemensuanto" />
		<tag k="name:fkv" v="Puuraniemensuanto" />
		<tag k="natural" v="water" />
		<tag k="ssr:stedsnr" v="889916" />
		<tag k="water" v="lake" />
	</node>
	<node lat="69.84006389942701" lon="25.070158113457552" id="-51746">
		<tag k="name" v="Greinernes" />
		<tag k="name:no" v="Greinernes" />
		<tag k="natural" v="cape" />
		<tag k="ssr:stedsnr" v="895022" />
	</node>
	<node lat="70.18200834018316" lon="24.81408314611409" id="-51751">
		<tag k="name" v="Gudjorjávri" />
		<tag k="name:se" v="Gudjorjávri" />
		<tag k="natural" v="water" />
		<tag k="ssr:stedsnr" v="929108" />
	</node>
	<node lat="70.13094445306555" lon="24.816055380046738" id="-51752">
		<tag k="name" v="Njeaiddánskoahpajogaš" />
		<tag k="name:se" v="Njeaiddánskoahpajogaš" />
		<tag k="ssr:stedsnr" v="929116" />
		<tag k="waterway" v="stream" />
	</node>
	<node lat="70.0853111141776" lon="24.312055420007457" id="-51753">
		<tag k="name" v="Suolovárjohka" />
		<tag k="name:se" v="Suolovárjohka" />
		<tag k="old_name:se" v="Suoluvarjåkka" />
		<tag k="ssr:stedsnr" v="929003" />
		<tag k="waterway" v="river" />
	</node>
	<node lat="70.07391945256632" lon="24.250066523818006" id="-51754">
		<tag k="name" v="Doaresvárjohka" />
		<tag k="name:se" v="Doaresvárjohka" />
		<tag k="old_name:se" v="Doaresvarjåkka" />
		<tag k="ssr:stedsnr" v="929004" />
		<tag k="waterway" v="stream" />
	</node>
	<node lat="70.1133388972301" lon="24.4472554080933" id="-51755">
		<tag k="name" v="Suolovárskáidi" />
		<tag k="name:se" v="Suolovárskáidi" />
		<tag k="natural" v="cape" />
		<tag k="old_name:se" v="Suoluvartskaidi" />
		<tag k="ssr:stedsnr" v="929008" />
	</node>
	<node lat="70.0869611128298" lon="24.15359152332333" id="-51756">
		<tag k="name" v="Stuora Návggastatjohka" />
		<tag k="name:se" v="Stuora Návggastatjohka" />
		<tag k="ssr:stedsnr" v="929009" />
		<tag k="waterway" v="river" />
	</node>
	<node lat="70.05406667412151" lon="25.525369178739496" id="-51760">
		<tag k="name" v="Báktejávri - Pahtajärvi" />
		<tag k="name:fkv" v="Pahtajärvi" />
		<tag k="name:se" v="Báktejávri" />
		<tag k="natural" v="water" />
		<tag k="ssr:stedsnr" v="929308" />
		<tag k="water" v="lake" />
	</node>
	<node lat="69.83293333703931" lon="24.949416468265678" id="-51761">
		<tag k="name" v="Vuolajokluoppal" />
		<tag k="name:se" v="Vuolajokluoppal" />
		<tag k="natural" v="water" />
		<tag k="old_name:se" v="Vuolajåkluobbal" />
		<tag k="ssr:stedsnr" v="929508" />
		<tag k="water" v="lake" />
	</node>
	<node lat="70.43059445014299" lon="25.610394199655964" id="-51764">
		<tag k="name" v="Heilonjohka - Heilujoki" />
		<tag k="name:fkv" v="Heilujoki" />
		<tag k="name:se" v="Heilonjohka" />
		<tag k="ssr:stedsnr" v="930400" />
		<tag k="waterway" v="stream" />
	</node>
	<node lat="70.38871666676825" lon="24.856427616573036" id="-51767">
		<tag k="name" v="Jovnnajohka" />
		<tag k="name:se" v="Jovnnajohka" />
		<tag k="ssr:stedsnr" v="930552" />
		<tag k="waterway" v="stream" />
	</node>
	<node lat="70.44804167900391" lon="25.795388625404197" id="-51768">
		<tag k="fixme" v="multiple name tags, choose one and add the other to alt_name" />
		<tag k="name" v="Stuorra Áilegasjávri;Nillájávri - Storvannet - Nillajärvi" />
		<tag k="name:fkv" v="Nillajärvi" />
		<tag k="name:no" v="Storvannet" />
		<tag k="name:se" v="Stuorra Áilegasjávri;Nillájávri" />
		<tag k="natural" v="water" />
		<tag k="ssr:stedsnr" v="930445" />
		<tag k="water" v="lake" />
	</node>
	<node lat="70.60097778478429" lon="26.006516390311003" id="-51770">
		<tag k="alt_name:se" v="Skuldajohka" />
		<tag k="name" v="Skuvdojohka" />
		<tag k="name:se" v="Skuvdojohka" />
		<tag k="old_name:se" v="Skuvdujåkka" />
		<tag k="ssr:stedsnr" v="930606" />
		<tag k="waterway" v="stream" />
	</node>
	<node lat="70.57781667341717" lon="26.04321359805619" id="-51772">
		<tag k="alt_name:se" v="Ravdejávri" />
		<tag k="name" v="Rávdojávri" />
		<tag k="name:se" v="Rávdojávri" />
		<tag k="natural" v="water" />
		<tag k="old_name:se" v="Ravdujavri" />
		<tag k="ssr:stedsnr" v="930594" />
	</node>
	<node lat="69.8109500067535" lon="25.29872753366882" id="-51775">
		<tag k="name" v="Bealjáidjohka" />
		<tag k="name:se" v="Bealjáidjohka" />
		<tag k="old_name:se" v="Bælljaidjåkka" />
		<tag k="ssr:stedsnr" v="930891" />
		<tag k="waterway" v="stream" />
	</node>
	<node lat="70.05065833637383" lon="24.915222040497408" id="-51776">
		<tag k="loc_name:fkv" v="Karhuukostet" />
		<tag k="name" v="Karhukostet" />
		<tag k="name:fkv" v="Karhukostet" />
		<tag k="natural" v="water" />
		<tag k="ssr:stedsnr" v="931042" />
		<tag k="water" v="lake" />
	</node>
	<node lat="70.14801389614921" lon="24.762305386841422" id="-51777">
		<tag k="name" v="Lompola" />
		<tag k="name:fkv" v="Lompola" />
		<tag k="place" v="locality" />
		<tag k="ssr:stedsnr" v="931103" />
	</node>
	<node lat="70.60592222628435" lon="25.04863594652426" id="-51778">
		<tag k="name" v="Stohpojohka" />
		<tag k="name:se" v="Stohpojohka" />
		<tag k="old_name:se" v="Ståppujåkka" />
		<tag k="ssr:stedsnr" v="931116" />
		<tag k="waterway" v="river" />
	</node>
	<node lat="70.38410001025295" lon="25.653849767873357" id="-51779">
		<tag k="name" v="Várrebogijávri - Vaaripokinjärvi" />
		<tag k="name:fkv" v="Vaaripokinjärvi" />
		<tag k="name:se" v="Várrebogijávri" />
		<tag k="natural" v="water" />
		<tag k="ssr:stedsnr" v="931415" />
	</node>
	<node lat="70.31708056653144" lon="25.109269240554237" id="-51785">
		<tag k="name" v="Suovdejávrrit" />
		<tag k="name:se" v="Suovdejávrrit" />
		<tag k="natural" v="water" />
		<tag k="ssr:stedsnr" v="931599" />
	</node>
	<node lat="70.29865000564614" lon="25.126735916715013" id="-51788">
		<tag k="name" v="Beavžžat Ellásjávri" />
		<tag k="name:se" v="Beavžžat Ellásjávri" />
		<tag k="natural" v="water" />
		<tag k="ssr:stedsnr" v="931694" />
	</node>
	<node lat="70.2966027822242" lon="25.074572016725295" id="-51789">
		<tag k="name" v="Geahtaláttu" />
		<tag k="name:se" v="Geahtaláttu" />
		<tag k="natural" v="water" />
		<tag k="ssr:stedsnr" v="931699" />
	</node>
	<node lat="70.0502472320198" lon="25.54037473262974" id="-51793">
		<tag k="name" v="Päälimäinen Kaksoisjärvi" />
		<tag k="name:fkv" v="Päälimäinen Kaksoisjärvi" />
		<tag k="natural" v="water" />
		<tag k="ssr:stedsnr" v="931796" />
	</node>
	<node lat="70.54305556101721" lon="25.11065538196464" id="-51795">
		<tag k="name" v="Dollejávri - Brennelvvannet" />
		<tag k="name:no" v="Brennelvvannet" />
		<tag k="name:se" v="Dollejávri" />
		<tag k="natural" v="water" />
		<tag k="old_name:se" v="Dållejavri" />
		<tag k="ssr:stedsnr" v="931944" />
		<tag k="water" v="lake" />
	</node>
	<node lat="70.34776945159831" lon="25.49596919951675" id="-51796">
		<tag k="name" v="Keskimmäinen Kalajärvi" />
		<tag k="name:fkv" v="Keskimmäinen Kalajärvi" />
		<tag k="natural" v="water" />
		<tag k="ssr:stedsnr" v="931949" />
	</node>
	<node lat="70.4102750093436" lon="25.604591436473445" id="-51799">
		<tag k="name" v="Uhca Áinnetjávri" />
		<tag k="name:se" v="Uhca Áinnetjávri" />
		<tag k="natural" v="water" />
		<tag k="ssr:stedsnr" v="934938" />
	</node>
	<node lat="70.4933222297444" lon="25.677258080854195" id="-51800">
		<tag k="name" v="Jiellenjárjohka" />
		<tag k="name:se" v="Jiellenjárjohka" />
		<tag k="ssr:stedsnr" v="936834" />
		<tag k="waterway" v="river" />
	</node>
	<node lat="70.01941944883656" lon="24.94064703029532" id="-51803">
		<tag k="name" v="Pikkuniva" />
		<tag k="name:fkv" v="Pikkuniva" />
		<tag k="ssr:stedsnr" v="950885" />
		<tag k="waterway" v="rapids" />
	</node>
	<node lat="69.9575333431159" lon="24.937691469642793" id="-51804">
		<tag k="name" v="Patokuoppa" />
		<tag k="name:fkv" v="Patokuoppa" />
		<tag k="place" v="locality" />
		<tag k="ssr:stedsnr" v="955225" />
	</node>
	<node lat="69.98352222935931" lon="24.94672757979331" id="-51805">
		<tag k="name" v="Kempiniemi" />
		<tag k="name:fkv" v="Kempiniemi" />
		<tag k="natural" v="cape" />
		<tag k="ssr:stedsnr" v="956252" />
	</node>
	<node lat="70.1997527814389" lon="24.757902609995856" id="-51808">
		<tag k="name" v="Čuosgáljávrrit" />
		<tag k="name:se" v="Čuosgáljávrrit" />
		<tag k="natural" v="water" />
		<tag k="ssr:stedsnr" v="19056" />
	</node>
</osm>
