<?xml version="1.0" encoding="UTF-8"?>
<osm version="0.6" generator="osmapis">
	<node lat="70.53978611436575" lon="25.16837481805324" id="-51502">
		<tag k="name" v="Alkeberggrunnen" />
		<tag k="name:no" v="Alkeberggrunnen" />
		<tag k="natural" v="shoal" />
		<tag k="place" v="locality" />
		<tag k="ssr:stedsnr" v="230554" />
	</node>
	<node lat="70.09864444792412" lon="25.102841453960952" id="-51503">
		<tag k="name" v="Geassesullot - Sommerøy - Kesäsaari" />
		<tag k="name:fkv" v="Kesäsaari" />
		<tag k="name:no" v="Sommerøy" />
		<tag k="name:se" v="Geassesullot" />
		<tag k="place" v="island" />
		<tag k="ssr:stedsnr" v="19147" />
	</node>
	<node lat="70.1848222338708" lon="25.104563678306658" id="-51504">
		<tag k="name" v="Coagannjárga" />
		<tag k="name:se" v="Coagannjárga" />
		<tag k="natural" v="cape" />
		<tag k="ssr:stedsnr" v="19102" />
	</node>
	<node lat="70.17255555851331" lon="25.068408133886013" id="-51508">
		<tag k="name" v="Bihpparat" />
		<tag k="name:se" v="Bihpparat" />
		<tag k="place" v="islet" />
		<tag k="ssr:stedsnr" v="19098" />
	</node>
	<node lat="70.09116667394588" lon="25.21972756259697" id="-51510">
		<tag k="name" v="Hándalgohppi - Handelsbukt - Hantilonkoppa" />
		<tag k="name:fkv" v="Hantilonkoppa" />
		<tag k="name:no" v="Handelsbukt" />
		<tag k="name:se" v="Hándalgohppi" />
		<tag k="natural" v="bay" />
		<tag k="ssr:stedsnr" v="19300" />
	</node>
	<node lat="70.29090556195564" lon="25.31750811732376" id="-51511">
		<tag k="name" v="Beahcetgohppi - Rantalabukta - Rantalankoppa" />
		<tag k="name:fkv" v="Rantalankoppa" />
		<tag k="name:no" v="Rantalabukta" />
		<tag k="name:se" v="Beahcetgohppi" />
		<tag k="natural" v="bay" />
		<tag k="ssr:stedsnr" v="19451" />
	</node>
	<node lat="70.29220834195831" lon="25.115574805153823" id="-51532">
		<tag k="name" v="Sáltegohppi" />
		<tag k="name:se" v="Sáltegohppi" />
		<tag k="natural" v="bay" />
		<tag k="ssr:stedsnr" v="20592" />
	</node>
	<node lat="70.59523612283529" lon="25.94187750246265" id="-51535">
		<tag k="name" v="Skáhttonjárga - Skateneset" />
		<tag k="name:no" v="Skateneset" />
		<tag k="name:se" v="Skáhttonjárga" />
		<tag k="natural" v="cape" />
		<tag k="old_name:se" v="Skattunjarga" />
		<tag k="ssr:stedsnr" v="20600" />
	</node>
	<node lat="70.28667778804743" lon="25.12636368951756" id="-51537">
		<tag k="name" v="Skadjanjárga - Skjåneset" />
		<tag k="name:no" v="Skjåneset" />
		<tag k="name:se" v="Skadjanjárga" />
		<tag k="natural" v="cape" />
		<tag k="ssr:stedsnr" v="20636" />
	</node>
	<node lat="70.36882778510987" lon="25.270033113416552" id="-51547">
		<tag k="name" v="Holga" />
		<tag k="name:no" v="Holga" />
		<tag k="natural" v="shoal" />
		<tag k="place" v="locality" />
		<tag k="ssr:stedsnr" v="25278" />
	</node>
	<node lat="70.46140278803522" lon="25.244313687581656" id="-51561">
		<tag k="name" v="Fanasnjárga - Båtnes" />
		<tag k="name:no" v="Båtnes" />
		<tag k="name:se" v="Fanasnjárga" />
		<tag k="natural" v="cape" />
		<tag k="ssr:stedsnr" v="32338" />
	</node>
	<node lat="70.36994722713608" lon="25.465846987021408" id="-51563">
		<tag k="name" v="Skinski" />
		<tag k="name:se" v="Skinski" />
		<tag k="natural" v="cape" />
		<tag k="ssr:stedsnr" v="32482" />
	</node>
	<node lat="70.0747111204932" lon="25.162666455626322" id="-51569">
		<tag k="name" v="Hansnes - Halkosiannniemi" />
		<tag k="name:fkv" v="Halkosiannniemi" />
		<tag k="name:no" v="Hansnes" />
		<tag k="natural" v="cape" />
		<tag k="ssr:stedsnr" v="79204" />
	</node>
	<node lat="70.17485556337122" lon="24.985341476712886" id="-51572">
		<tag k="name" v="Muolku - Mulkku" />
		<tag k="name:fkv" v="Mulkku" />
		<tag k="name:se" v="Muolku" />
		<tag k="place" v="islet" />
		<tag k="ssr:stedsnr" v="80110" />
	</node>
	<node lat="70.30480000790422" lon="25.4271442296422" id="-51582">
		<tag k="name" v="Gihccesuolu - Kiholmen - Kitsaari" />
		<tag k="name:fkv" v="Kitsaari" />
		<tag k="name:no" v="Kiholmen" />
		<tag k="name:se" v="Gihccesuolu" />
		<tag k="place" v="islet" />
		<tag k="ssr:stedsnr" v="80438" />
	</node>
	<node lat="70.594019451096" lon="25.625055336941976" id="-51591">
		<tag k="alt_name:no" v="Lysbotnen, vestre" />
		<tag k="name" v="Vestre Lysbotnen" />
		<tag k="name:no" v="Vestre Lysbotnen" />
		<tag k="natural" v="shoal" />
		<tag k="place" v="locality" />
		<tag k="ssr:stedsnr" v="80987" />
	</node>
	<node lat="70.49546945444212" lon="25.330874784627063" id="-51594">
		<tag k="name" v="Juovvi - Prestøya - Juovi" />
		<tag k="name:fkv" v="Juovi" />
		<tag k="name:no" v="Prestøya" />
		<tag k="name:se" v="Juovvi" />
		<tag k="place" v="island" />
		<tag k="ssr:stedsnr" v="81437" />
	</node>
	<node lat="70.34773611943594" lon="25.090633152438155" id="-51595">
		<tag k="name" v="Klubbu" />
		<tag k="name:se" v="Klubbu" />
		<tag k="natural" v="cape" />
		<tag k="ssr:stedsnr" v="81552" />
	</node>
	<node lat="70.47987778196641" lon="25.21637479881378" id="-51597">
		<tag k="name" v="Ovdaluokta - Forvika" />
		<tag k="name:no" v="Forvika" />
		<tag k="name:se" v="Ovdaluokta" />
		<tag k="natural" v="bay" />
		<tag k="ssr:stedsnr" v="81817" />
	</node>
	<node lat="70.53761111384117" lon="25.139347045147517" id="-51601">
		<tag k="alt_name:no" v="Olaodden" />
		<tag k="name" v="Šorbu - Olodden" />
		<tag k="name:no" v="Olodden" />
		<tag k="name:se" v="Šorbu" />
		<tag k="natural" v="cape" />
		<tag k="old_name:se" v="Šårbo" />
		<tag k="ssr:stedsnr" v="81939" />
	</node>
	<node lat="70.36055834493081" lon="25.68584419030954" id="-51602">
		<tag k="name" v="Guhkesnjárga - Pitkäniemi" />
		<tag k="name:fkv" v="Pitkäniemi" />
		<tag k="name:se" v="Guhkesnjárga" />
		<tag k="natural" v="cape" />
		<tag k="ssr:stedsnr" v="84925" />
	</node>
	<node lat="70.40966111636104" lon="25.24590812109639" id="-51611">
		<tag k="name" v="Šlieđđu" />
		<tag k="name:se" v="Šlieđđu" />
		<tag k="natural" v="cape" />
		<tag k="ssr:stedsnr" v="92469" />
	</node>
	<node lat="70.41125833837468" lon="25.55400254414991" id="-51622">
		<tag k="name" v="Uhca Báiskenjárga" />
		<tag k="name:se" v="Uhca Báiskenjárga" />
		<tag k="natural" v="cape" />
		<tag k="ssr:stedsnr" v="93665" />
	</node>
	<node lat="70.56237778121253" lon="25.841780295092633" id="-51627">
		<tag k="name" v="Buvrenjárga" />
		<tag k="name:se" v="Buvrenjárga" />
		<tag k="natural" v="cape" />
		<tag k="ssr:stedsnr" v="107030" />
	</node>
	<node lat="70.6677250040447" lon="25.788910869375062" id="-51630">
		<tag k="name" v="Klokkarvika" />
		<tag k="name:no" v="Klokkarvika" />
		<tag k="natural" v="bay" />
		<tag k="ssr:stedsnr" v="109378" />
	</node>
	<node lat="70.2364583416037" lon="24.959755383991368" id="-51633">
		<tag k="name" v="Stuorrajáhgáddi" />
		<tag k="name:se" v="Stuorrajáhgáddi" />
		<tag k="natural" v="beach" />
		<tag k="ssr:stedsnr" v="140037" />
	</node>
	<node lat="70.22587223342481" lon="25.219535896712753" id="-51637">
		<tag k="fixme" v="consider seamark:type=rock or natural=shoal" />
		<tag k="name" v="Dakŋaslásis" />
		<tag k="name:se" v="Dakŋaslásis" />
		<tag k="place" v="islet" />
		<tag k="ssr:stedsnr" v="140304" />
	</node>
	<node lat="70.68985556621293" lon="25.838649743323625" id="-51654">
		<tag k="name" v="Dávdnesálla - Tamsøya - Taunusaari" />
		<tag k="name:fkv" v="Taunusaari" />
		<tag k="name:no" v="Tamsøya" />
		<tag k="name:se" v="Dávdnesálla" />
		<tag k="old_name:se" v="Davdnesalla;Davđnesalla" />
		<tag k="place" v="island" />
		<tag k="ssr:stedsnr" v="140987" />
	</node>
	<node lat="70.4012388957029" lon="25.20824145664643" id="-51662">
		<tag k="name" v="Rinjárga - Veineset" />
		<tag k="name:no" v="Veineset" />
		<tag k="name:se" v="Rinjárga" />
		<tag k="natural" v="cape" />
		<tag k="ssr:stedsnr" v="141542" />
	</node>
	<node lat="70.42598889651092" lon="25.580652539842198" id="-51663">
		<tag k="name" v="Stuorraklubbu - Storklubben - Iso Klupu" />
		<tag k="name:fkv" v="Iso Klupu" />
		<tag k="name:no" v="Storklubben" />
		<tag k="name:se" v="Stuorraklubbu" />
		<tag k="natural" v="cape" />
		<tag k="ssr:stedsnr" v="141405" />
	</node>
	<node lat="70.25946112194787" lon="25.035319244133028" id="-51666">
		<tag k="fixme" v="consider seamark:type=rock or natural=shoal" />
		<tag k="name" v="Goarahatlásis" />
		<tag k="name:se" v="Goarahatlásis" />
		<tag k="place" v="islet" />
		<tag k="ssr:stedsnr" v="141604" />
	</node>
	<node lat="70.28983333967159" lon="25.120069249854524" id="-51671">
		<tag k="name" v="Sarvvesvuotna - Kolvik - Sarvisvuono" />
		<tag k="name:fkv" v="Sarvisvuono" />
		<tag k="name:no" v="Kolvik" />
		<tag k="name:se" v="Sarvvesvuotna" />
		<tag k="natural" v="bay" />
		<tag k="ssr:stedsnr" v="141634" />
	</node>
	<node lat="70.28639166968267" lon="25.141830363499544" id="-51681">
		<tag k="name" v="Návdesuolu" />
		<tag k="name:se" v="Návdesuolu" />
		<tag k="place" v="islet" />
		<tag k="ssr:stedsnr" v="141577" />
	</node>
	<node lat="70.36681667361209" lon="25.11558313614754" id="-51683">
		<tag k="name" v="Guoskatcoagis" />
		<tag k="name:se" v="Guoskatcoagis" />
		<tag k="natural" v="shoal" />
		<tag k="place" v="locality" />
		<tag k="ssr:stedsnr" v="144487" />
	</node>
	<node lat="70.26210833866129" lon="25.24968312164431" id="-51686">
		<tag k="name" v="Daŋasluokta" />
		<tag k="name:se" v="Daŋasluokta" />
		<tag k="natural" v="bay" />
		<tag k="ssr:stedsnr" v="147058" />
	</node>
	<node lat="70.4625472260172" lon="25.256088696382673" id="-51707">
		<tag k="name" v="Klubbonjárga" />
		<tag k="name:se" v="Klubbonjárga" />
		<tag k="natural" v="cape" />
		<tag k="ssr:stedsnr" v="153370" />
	</node>
	<node lat="70.53164722696839" lon="25.130785912151946" id="-51715">
		<tag k="name" v="Maritgrunnen" />
		<tag k="name:no" v="Maritgrunnen" />
		<tag k="natural" v="shoal" />
		<tag k="place" v="locality" />
		<tag k="ssr:stedsnr" v="169575" />
	</node>
	<node lat="70.5252111163027" lon="25.23190536845169" id="-51716">
		<tag k="name" v="Storvika" />
		<tag k="name:no" v="Storvika" />
		<tag k="natural" v="bay" />
		<tag k="ssr:stedsnr" v="169589" />
	</node>
	<node lat="70.52614722495248" lon="25.19485534722604" id="-51717">
		<tag k="name" v="Lillevika" />
		<tag k="name:no" v="Lillevika" />
		<tag k="natural" v="bay" />
		<tag k="ssr:stedsnr" v="169591" />
	</node>
	<node lat="70.49801944836788" lon="25.207694235087757" id="-51718">
		<tag k="name" v="Indre Bringneset" />
		<tag k="name:no" v="Indre Bringneset" />
		<tag k="natural" v="cape" />
		<tag k="ssr:stedsnr" v="169593" />
	</node>
	<node lat="70.48580556259012" lon="25.0917748032268" id="-51719">
		<tag k="name" v="Nesegrunnen" />
		<tag k="name:no" v="Nesegrunnen" />
		<tag k="natural" v="shoal" />
		<tag k="place" v="locality" />
		<tag k="ssr:stedsnr" v="170615" />
	</node>
	<node lat="70.18546945006408" lon="24.926291491645262" id="-51720">
		<tag k="name" v="Áitenjárga" />
		<tag k="name:se" v="Áitenjárga" />
		<tag k="natural" v="cape" />
		<tag k="ssr:stedsnr" v="261125" />
	</node>
	<node lat="70.07463889796142" lon="24.958666473291697" id="-51721">
		<tag k="name" v="Leavdnja" />
		<tag k="name:se" v="Leavdnja" />
		<tag k="natural" v="cape" />
		<tag k="old_name:se" v="Lævdna" />
		<tag k="ssr:stedsnr" v="261203" />
	</node>
	<node lat="70.07433889594755" lon="24.986866462794552" id="-51723">
		<tag k="name" v="Ytre Banak - Ulko-Paanakka" />
		<tag k="name:fkv" v="Ulko-Paanakka" />
		<tag k="name:no" v="Ytre Banak" />
		<tag k="natural" v="cape" />
		<tag k="ssr:stedsnr" v="261196" />
	</node>
	<node lat="70.17100000608913" lon="25.15643867298856" id="-51724">
		<tag k="name" v="Sire Máhte suolu" />
		<tag k="name:se" v="Sire Máhte suolu" />
		<tag k="place" v="islet" />
		<tag k="ssr:stedsnr" v="262101" />
	</node>
	<node lat="70.2419444510731" lon="25.144269245883937" id="-51731">
		<tag k="name" v="Nohppenuorri" />
		<tag k="name:se" v="Nohppenuorri" />
		<tag k="natural" v="strait" />
		<tag k="ssr:stedsnr" v="262038" />
	</node>
	<node lat="70.22128611977512" lon="25.184510894382836" id="-51733">
		<tag k="name" v="Fállegohppi" />
		<tag k="name:se" v="Fállegohppi" />
		<tag k="natural" v="bay" />
		<tag k="ssr:stedsnr" v="262071" />
	</node>
	<node lat="70.14180834137885" lon="25.125447016021436" id="-51734">
		<tag k="fixme" v="multiple name tags, choose one and add the other to alt_name" />
		<tag k="name" v="Riimmaidnuorri;Riimaidrávdnji - Rimasundet" />
		<tag k="name:no" v="Rimasundet" />
		<tag k="name:se" v="Riimmaidnuorri;Riimaidrávdnji" />
		<tag k="natural" v="strait" />
		<tag k="ssr:stedsnr" v="262155" />
	</node>
	<node lat="70.22789167568261" lon="25.18672478602415" id="-51736">
		<tag k="name" v="Heandrikgohppi" />
		<tag k="name:se" v="Heandrikgohppi" />
		<tag k="natural" v="bay" />
		<tag k="ssr:stedsnr" v="262086" />
	</node>
	<node lat="70.22268055965819" lon="25.199847019868308" id="-51737">
		<tag k="name" v="Daŋasnuorri" />
		<tag k="name:se" v="Daŋasnuorri" />
		<tag k="natural" v="strait" />
		<tag k="ssr:stedsnr" v="262088" />
	</node>
	<node lat="70.10521112232702" lon="24.91866924929593" id="-51740">
		<tag k="name" v="Guovžanjárga - Bjørnnes - Karhuniemi" />
		<tag k="name:fkv" v="Karhuniemi" />
		<tag k="name:no" v="Bjørnnes" />
		<tag k="name:se" v="Guovžanjárga" />
		<tag k="natural" v="cape" />
		<tag k="ssr:stedsnr" v="262178" />
	</node>
	<node lat="70.15864167161382" lon="25.277791457100697" id="-51757">
		<tag k="name" v="Uhca Guovžanjárga - Lille Bjørnnes - Pikku Karhuniemi" />
		<tag k="name:fkv" v="Pikku Karhuniemi" />
		<tag k="name:no" v="Lille Bjørnnes" />
		<tag k="name:se" v="Uhca Guovžanjárga" />
		<tag k="natural" v="cape" />
		<tag k="ssr:stedsnr" v="262282" />
	</node>
	<node lat="70.06570834271893" lon="25.151997008369182" id="-51760">
		<tag k="name" v="Langbukta - Pitkenojankuoppa" />
		<tag k="name:fkv" v="Pitkenojankuoppa" />
		<tag k="name:no" v="Langbukta" />
		<tag k="natural" v="bay" />
		<tag k="ssr:stedsnr" v="262467" />
	</node>
	<node lat="70.27598334220909" lon="25.49099143323118" id="-51761">
		<tag k="fixme" v="multiple name tags, choose one and add the other to alt_name" />
		<tag k="name" v="Áro Čáhcebákti;Čáhcebákti - Arons vannberg - Aaron vesipahta" />
		<tag k="name:fkv" v="Aaron vesipahta" />
		<tag k="name:no" v="Arons vannberg" />
		<tag k="name:se" v="Áro Čáhcebákti;Čáhcebákti" />
		<tag k="natural" v="cape" />
		<tag k="ssr:stedsnr" v="262468" />
	</node>
	<node lat="70.39568333843475" lon="25.146847023199555" id="-51766">
		<tag k="name" v="Vuolmmašgohppi - Indre Veinesbukta" />
		<tag k="name:no" v="Indre Veinesbukta" />
		<tag k="name:se" v="Vuolmmašgohppi" />
		<tag k="natural" v="bay" />
		<tag k="ssr:stedsnr" v="262519" />
	</node>
	<node lat="70.40152223059799" lon="25.183702586442653" id="-51768">
		<tag k="name" v="Njuorjjoluokta - Kobbebukta" />
		<tag k="name:no" v="Kobbebukta" />
		<tag k="name:se" v="Njuorjjoluokta" />
		<tag k="natural" v="bay" />
		<tag k="ssr:stedsnr" v="262521" />
	</node>
	<node lat="70.38159444926718" lon="25.190572021997877" id="-51770">
		<tag k="fixme" v="consider seamark:type=rock or natural=shoal" />
		<tag k="name" v="Skárfalássát - Skarvskjæret" />
		<tag k="name:no" v="Skarvskjæret" />
		<tag k="name:se" v="Skárfalássát" />
		<tag k="place" v="islet" />
		<tag k="ssr:stedsnr" v="262526" />
	</node>
	<node lat="70.497269447029" lon="25.08076370258163" id="-51800">
		<tag k="name" v="Risskjåbukta" />
		<tag k="name:no" v="Risskjåbukta" />
		<tag k="natural" v="bay" />
		<tag k="ssr:stedsnr" v="262724" />
	</node>
	<node lat="70.47288333584537" lon="25.10424148742656" id="-51805">
		<tag k="name" v="Ádjnjárga - Kildenes" />
		<tag k="name:no" v="Kildenes" />
		<tag k="name:se" v="Ádjnjárga" />
		<tag k="natural" v="cape" />
		<tag k="ssr:stedsnr" v="262787" />
	</node>
	<node lat="70.57828611721851" lon="25.2456442606213" id="-51817">
		<tag k="name" v="Pottaneset" />
		<tag k="name:no" v="Pottaneset" />
		<tag k="natural" v="cape" />
		<tag k="ssr:stedsnr" v="262988" />
	</node>
	<node lat="70.49520000856839" lon="25.673346986500963" id="-51821">
		<tag k="name" v="Jiellenjárga - Hjellneset - Jälliniemi" />
		<tag k="name:fkv" v="Jälliniemi" />
		<tag k="name:no" v="Hjellneset" />
		<tag k="name:se" v="Jiellenjárga" />
		<tag k="natural" v="cape" />
		<tag k="ssr:stedsnr" v="263429" />
	</node>
	<node lat="70.24191112089906" lon="25.405233119779496" id="-51829">
		<tag k="name" v="Áŋkkarluohgohppi - Ankarilahđenkoppa" />
		<tag k="name:fkv" v="Ankarilahđenkoppa" />
		<tag k="name:se" v="Áŋkkarluohgohppi" />
		<tag k="natural" v="bay" />
		<tag k="ssr:stedsnr" v="263856" />
	</node>
	<node lat="70.51571111416102" lon="25.076430367534343" id="-51833">
		<tag k="alt_name:no" v="Strømmen" />
		<tag k="name" v="Rivdnji - Straumen" />
		<tag k="name:no" v="Straumen" />
		<tag k="name:se" v="Rivdnji" />
		<tag k="natural" v="strait" />
		<tag k="ssr:stedsnr" v="263957" />
	</node>
	<node lat="70.2925527869062" lon="25.192202587332392" id="-51835">
		<tag k="name" v="Trollholmgrunnen" />
		<tag k="name:no" v="Trollholmgrunnen" />
		<tag k="natural" v="shoal" />
		<tag k="place" v="locality" />
		<tag k="ssr:stedsnr" v="266447" />
	</node>
	<node lat="70.36145556057325" lon="25.14890813480197" id="-51837">
		<tag k="name" v="Persgrunnen" />
		<tag k="name:no" v="Persgrunnen" />
		<tag k="natural" v="shoal" />
		<tag k="place" v="locality" />
		<tag k="ssr:stedsnr" v="266458" />
	</node>
	<node lat="70.17506944786771" lon="24.937035915865852" id="-51842">
		<tag k="name" v="Rávttošnjárga - Stabbursnes - Rautusniemi" />
		<tag k="name:fkv" v="Rautusniemi" />
		<tag k="name:no" v="Stabbursnes" />
		<tag k="name:se" v="Rávttošnjárga" />
		<tag k="natural" v="cape" />
		<tag k="ssr:stedsnr" v="201096" />
	</node>
	<node lat="70.17823055955604" lon="25.16881645385809" id="-51844">
		<tag k="name" v="Čáhppessuolu - Svartholmen - Mustasaari" />
		<tag k="name:fkv" v="Mustasaari" />
		<tag k="name:no" v="Svartholmen" />
		<tag k="name:se" v="Čáhppessuolu" />
		<tag k="place" v="islet" />
		<tag k="ssr:stedsnr" v="201102" />
	</node>
	<node lat="70.28931111319396" lon="25.145924801864773" id="-51862">
		<tag k="name" v="Stuorragohppi - Storbukta" />
		<tag k="name:no" v="Storbukta" />
		<tag k="name:se" v="Stuorragohppi" />
		<tag k="natural" v="bay" />
		<tag k="ssr:stedsnr" v="202652" />
	</node>
	<node lat="70.50561111761205" lon="25.08736091348935" id="-51864">
		<tag k="fixme" v="multiple name tags, choose one and add the other to alt_name" />
		<tag k="name" v="Briŋŋa;Smiervuonnjárga - Bringnes" />
		<tag k="name:no" v="Bringnes" />
		<tag k="name:se" v="Briŋŋa;Smiervuonnjárga" />
		<tag k="natural" v="cape" />
		<tag k="ssr:stedsnr" v="202971" />
	</node>
	<node lat="70.31176111506016" lon="25.194285917691918" id="-51868">
		<tag k="name" v="Stuorraluohnjárga" />
		<tag k="name:se" v="Stuorraluohnjárga" />
		<tag k="natural" v="cape" />
		<tag k="ssr:stedsnr" v="203696" />
	</node>
	<node lat="70.32939722614402" lon="25.075991474755316" id="-51870">
		<tag k="name" v="Doaresnjárga - Tverrnes" />
		<tag k="name:no" v="Tverrnes" />
		<tag k="name:se" v="Doaresnjárga" />
		<tag k="natural" v="cape" />
		<tag k="ssr:stedsnr" v="203723" />
	</node>
	<node lat="70.51370278106275" lon="25.068877587214104" id="-51885">
		<tag k="name" v="Langstrand" />
		<tag k="name:no" v="Langstrand" />
		<tag k="natural" v="beach" />
		<tag k="ssr:stedsnr" v="213391" />
	</node>
	<node lat="70.52050555908461" lon="25.11592759003046" id="-51899">
		<tag k="name" v="Ruffelgrunnen" />
		<tag k="name:no" v="Ruffelgrunnen" />
		<tag k="natural" v="shoal" />
		<tag k="place" v="locality" />
		<tag k="ssr:stedsnr" v="231678" />
	</node>
	<node lat="70.43666667592609" lon="25.604027533146485" id="-51901">
		<tag k="name" v="Heilonnjárga - Heiluniemi" />
		<tag k="name:fkv" v="Heiluniemi" />
		<tag k="name:se" v="Heilonnjárga" />
		<tag k="natural" v="cape" />
		<tag k="ssr:stedsnr" v="450936" />
	</node>
	<node lat="70.50450834055954" lon="25.70614697997466" id="-51905">
		<tag k="name" v="Gircceluokta" />
		<tag k="name:se" v="Gircceluokta" />
		<tag k="natural" v="bay" />
		<tag k="ssr:stedsnr" v="454393" />
	</node>
	<node lat="70.48541389353858" lon="25.66283031254719" id="-51928">
		<tag k="name" v="Láppisgávva" />
		<tag k="name:se" v="Láppisgávva" />
		<tag k="natural" v="bay" />
		<tag k="ssr:stedsnr" v="456727" />
	</node>
	<node lat="70.17364167294824" lon="25.096177581388254" id="-51943">
		<tag k="name" v="Coagan - Suokalma" />
		<tag k="name:fkv" v="Suokalma" />
		<tag k="name:se" v="Coagan" />
		<tag k="place" v="island" />
		<tag k="ssr:stedsnr" v="262102" />
	</node>
	<node lat="70.2609666742843" lon="25.06653868941323" id="-51957">
		<tag k="name" v="Klubbu" />
		<tag k="name:se" v="Klubbu" />
		<tag k="natural" v="cape" />
		<tag k="ssr:stedsnr" v="262550" />
	</node>
	<node lat="70.66065278469033" lon="25.407141452490762" id="-51969">
		<tag k="name" v="Klubben" />
		<tag k="name:no" v="Klubben" />
		<tag k="natural" v="cape" />
		<tag k="ssr:stedsnr" v="262999" />
	</node>
	<node lat="70.39990556328276" lon="25.502152546769565" id="-51970">
		<tag k="fixme" v="multiple name tags, choose one and add the other to alt_name" />
		<tag k="name" v="Gieddenjárga;Reakčunnjárga - Leirpollneset - Kentänniemi;Reksunniemi" />
		<tag k="name:fkv" v="Kentänniemi;Reksunniemi" />
		<tag k="name:no" v="Leirpollneset" />
		<tag k="name:se" v="Gieddenjárga;Reakčunnjárga" />
		<tag k="natural" v="cape" />
		<tag k="ssr:stedsnr" v="263406" />
	</node>
	<node lat="70.32742500810562" lon="25.172927578899422" id="-51985">
		<tag k="name" v="Gálggošluokta - Kalkasenlahti" />
		<tag k="name:fkv" v="Kalkasenlahti" />
		<tag k="name:se" v="Gálggošluokta" />
		<tag k="natural" v="bay" />
		<tag k="ssr:stedsnr" v="263600" />
	</node>
	<node lat="70.55259167071675" lon="25.823524742405617" id="-51995">
		<tag k="name" v="Ytre Brenna" />
		<tag k="name:no" v="Ytre Brenna" />
		<tag k="natural" v="beach" />
		<tag k="ssr:stedsnr" v="272118" />
	</node>
	<node lat="70.52470278697157" lon="25.107660933175346" id="-52002">
		<tag k="name" v="Hornøra" />
		<tag k="name:no" v="Hornøra" />
		<tag k="natural" v="cape" />
		<tag k="ssr:stedsnr" v="274326" />
	</node>
	<node lat="70.3189500074984" lon="25.42750811344267" id="-52006">
		<tag k="name" v="Ritaniemi" />
		<tag k="name:fkv" v="Ritaniemi" />
		<tag k="natural" v="cape" />
		<tag k="ssr:stedsnr" v="274521" />
	</node>
	<node lat="70.47259445023325" lon="25.459791453097505" id="-52023">
		<tag k="name" v="Nordmannsgrunnen" />
		<tag k="name:no" v="Nordmannsgrunnen" />
		<tag k="natural" v="shoal" />
		<tag k="place" v="locality" />
		<tag k="ssr:stedsnr" v="290310" />
	</node>
	<node lat="70.67961667301662" lon="25.864819199061237" id="-52025">
		<tag k="name" v="Sandsenden" />
		<tag k="name:no" v="Sandsenden" />
		<tag k="natural" v="beach" />
		<tag k="ssr:stedsnr" v="291508" />
	</node>
	<node lat="70.14658333421721" lon="24.906547045119538" id="-52028">
		<tag k="name" v="Váldat" />
		<tag k="name:se" v="Váldat" />
		<tag k="natural" v="cape" />
		<tag k="ssr:stedsnr" v="322126" />
	</node>
	<node lat="70.07234166981515" lon="25.101963681430636" id="-52031">
		<tag k="name" v="Kvitneset - Valkeaniemi" />
		<tag k="name:fkv" v="Valkeaniemi" />
		<tag k="name:no" v="Kvitneset" />
		<tag k="natural" v="cape" />
		<tag k="ssr:stedsnr" v="322186" />
	</node>
	<node lat="70.07064444960501" lon="25.155002564431033" id="-52033">
		<tag k="name" v="Karennes" />
		<tag k="name:no" v="Karennes" />
		<tag k="natural" v="cape" />
		<tag k="ssr:stedsnr" v="322197" />
	</node>
	<node lat="70.11898333719905" lon="24.97430814367078" id="-52049">
		<tag k="name" v="Heargebáhgohppi - Oksebergbukta - Härkäpahđankoppa" />
		<tag k="name:fkv" v="Härkäpahđankoppa" />
		<tag k="name:no" v="Oksebergbukta" />
		<tag k="name:se" v="Heargebáhgohppi" />
		<tag k="natural" v="bay" />
		<tag k="ssr:stedsnr" v="323185" />
	</node>
	<node lat="70.44091389528346" lon="25.433383119176668" id="-52073">
		<tag k="name" v="Styrnesgrunnen" />
		<tag k="name:no" v="Styrnesgrunnen" />
		<tag k="natural" v="shoal" />
		<tag k="place" v="locality" />
		<tag k="ssr:stedsnr" v="328254" />
	</node>
	<node lat="70.59453333729167" lon="25.93549416803012" id="-52076">
		<tag k="fixme" v="consider seamark:type=rock or natural=shoal" />
		<tag k="name" v="Biergogárri" />
		<tag k="name:se" v="Biergogárri" />
		<tag k="place" v="islet" />
		<tag k="ssr:stedsnr" v="470082" />
	</node>
	<node lat="70.53554445095808" lon="25.123341468876106" id="-52085">
		<tag k="name" v="Maritneset" />
		<tag k="name:no" v="Maritneset" />
		<tag k="natural" v="cape" />
		<tag k="ssr:stedsnr" v="335355" />
	</node>
	<node lat="70.35618611361373" lon="25.43639699828311" id="-52108">
		<tag k="name" v="Gálgoluokta - Ytre Kjerringvik - Kalkulahti" />
		<tag k="name:fkv" v="Kalkulahti" />
		<tag k="name:no" v="Ytre Kjerringvik" />
		<tag k="name:se" v="Gálgoluokta" />
		<tag k="natural" v="bay" />
		<tag k="ssr:stedsnr" v="383506" />
	</node>
	<node lat="70.66934167040591" lon="25.784599757527225" id="-52116">
		<tag k="name" v="Finnemola" />
		<tag k="name:no" v="Finnemola" />
		<tag k="natural" v="cape" />
		<tag k="ssr:stedsnr" v="383998" />
	</node>
	<node lat="70.4917000081081" lon="25.29916090771247" id="-52118">
		<tag k="name" v="Juovvenuorri - Prestøysundet - Juovinnuora" />
		<tag k="name:fkv" v="Juovinnuora" />
		<tag k="name:no" v="Prestøysundet" />
		<tag k="name:se" v="Juovvenuorri" />
		<tag k="natural" v="strait" />
		<tag k="ssr:stedsnr" v="384417" />
	</node>
	<node lat="70.31255000524179" lon="25.17597756448264" id="-52120">
		<tag k="name" v="Sátnjaluokta" />
		<tag k="name:se" v="Sátnjaluokta" />
		<tag k="natural" v="bay" />
		<tag k="ssr:stedsnr" v="384550" />
	</node>
	<node lat="70.40717222712263" lon="25.370302568074738" id="-52126">
		<tag k="name" v="Áhkárčielgi - Akkarryggen" />
		<tag k="name:no" v="Akkarryggen" />
		<tag k="name:se" v="Áhkárčielgi" />
		<tag k="natural" v="shoal" />
		<tag k="old_name:se" v="Akkarčielgi" />
		<tag k="place" v="locality" />
		<tag k="ssr:stedsnr" v="388431" />
	</node>
	<node lat="70.33886389327708" lon="25.4034803393099" id="-52142">
		<tag k="fixme" v="consider seamark:type=rock or natural=shoal" />
		<tag k="name" v="Pikku Harvislaassa" />
		<tag k="name:fkv" v="Pikku Harvislaassa" />
		<tag k="place" v="islet" />
		<tag k="ssr:stedsnr" v="395632" />
	</node>
	<node lat="70.13524444711507" lon="25.093569250225087" id="-52162">
		<tag k="name" v="Riimmaidsuolu - Rimaholmen - Riimansaari" />
		<tag k="name:fkv" v="Riimansaari" />
		<tag k="name:no" v="Rimaholmen" />
		<tag k="name:se" v="Riimmaidsuolu" />
		<tag k="place" v="islet" />
		<tag k="ssr:stedsnr" v="444117" />
	</node>
	<node lat="70.48939722995837" lon="25.063208158258263" id="-52177">
		<tag k="name" v="Ruoššanjárgohppi - Djupbukta" />
		<tag k="name:no" v="Djupbukta" />
		<tag k="name:se" v="Ruoššanjárgohppi" />
		<tag k="natural" v="bay" />
		<tag k="ssr:stedsnr" v="444677" />
	</node>
	<node lat="70.7004805620172" lon="25.80463585537089" id="-52182">
		<tag k="name" v="Hellemola" />
		<tag k="name:no" v="Hellemola" />
		<tag k="natural" v="cape" />
		<tag k="ssr:stedsnr" v="444983" />
	</node>
	<node lat="70.28942500319086" lon="25.1517609200997" id="-52192">
		<tag k="name" v="Badjeolbmuidnjárga" />
		<tag k="name:se" v="Badjeolbmuidnjárga" />
		<tag k="natural" v="cape" />
		<tag k="ssr:stedsnr" v="445585" />
	</node>
	<node lat="70.32904167471995" lon="25.386949782581738" id="-52205">
		<tag k="name" v="Tuohmaanlaassanlaates" />
		<tag k="name:fkv" v="Tuohmaanlaassanlaates" />
		<tag k="natural" v="bay" />
		<tag k="ssr:stedsnr" v="456621" />
	</node>
	<node lat="70.09390000542797" lon="24.91572202439694" id="-52209">
		<tag k="name" v="Lakselvmunningen" />
		<tag k="name:no" v="Lakselvmunningen" />
		<tag k="natural" v="bay" />
		<tag k="ssr:stedsnr" v="457171" />
	</node>
	<node lat="70.14982222688558" lon="25.18568867612033" id="-52225">
		<tag k="name" v="Láiva - Skarkkunlaiva" />
		<tag k="name:fkv" v="Skarkkunlaiva" />
		<tag k="name:se" v="Láiva" />
		<tag k="natural" v="cape" />
		<tag k="ssr:stedsnr" v="504117" />
	</node>
	<node lat="70.08815000878157" lon="25.202666453542985" id="-52235">
		<tag k="name" v="Časkilgohppi" />
		<tag k="name:se" v="Časkilgohppi" />
		<tag k="natural" v="bay" />
		<tag k="ssr:stedsnr" v="505178" />
	</node>
	<node lat="70.08392778320504" lon="25.082822014966073" id="-52236">
		<tag k="name" v="Indre Hamnbuktneset - Raakkuniemi" />
		<tag k="name:fkv" v="Raakkuniemi" />
		<tag k="name:no" v="Indre Hamnbuktneset" />
		<tag k="natural" v="cape" />
		<tag k="ssr:stedsnr" v="505179" />
	</node>
	<node lat="70.38750556127647" lon="25.224044246074758" id="-52244">
		<tag k="name" v="Rivgoklubbu - Kabelklubben" />
		<tag k="name:no" v="Kabelklubben" />
		<tag k="name:se" v="Rivgoklubbu" />
		<tag k="natural" v="cape" />
		<tag k="ssr:stedsnr" v="505410" />
	</node>
	<node lat="70.37651667410589" lon="25.111774798345127" id="-52246">
		<tag k="name" v="Sálletsuolu - Salliholmen - Saalisaari" />
		<tag k="name:fkv" v="Saalisaari" />
		<tag k="name:no" v="Salliholmen" />
		<tag k="name:se" v="Sálletsuolu" />
		<tag k="place" v="islet" />
		<tag k="ssr:stedsnr" v="505515" />
	</node>
	<node lat="70.51366389781666" lon="25.31152758543361" id="-52247">
		<tag k="name" v="Ormegrunnen" />
		<tag k="name:no" v="Ormegrunnen" />
		<tag k="natural" v="shoal" />
		<tag k="place" v="locality" />
		<tag k="ssr:stedsnr" v="505516" />
	</node>
	<node lat="70.0588972306818" lon="24.997744246303238" id="-52271">
		<tag k="name" v="Lahtipahta" />
		<tag k="name:fkv" v="Lahtipahta" />
		<tag k="natural" v="bay" />
		<tag k="ssr:stedsnr" v="516010" />
	</node>
	<node lat="70.15708333676119" lon="25.080816466920123" id="-52293">
		<tag k="name" v="Klubbogohppi - Klubbukt" />
		<tag k="name:no" v="Klubbukt" />
		<tag k="name:se" v="Klubbogohppi" />
		<tag k="natural" v="bay" />
		<tag k="ssr:stedsnr" v="686126" />
	</node>
	<node lat="70.14611944831326" lon="25.08594980787942" id="-52295">
		<tag k="name" v="Ullegohpenjárga - Ullekopanniemi" />
		<tag k="name:fkv" v="Ullekopanniemi" />
		<tag k="name:se" v="Ullegohpenjárga" />
		<tag k="natural" v="cape" />
		<tag k="ssr:stedsnr" v="686131" />
	</node>
	<node lat="70.5235666675171" lon="25.183391480286804" id="-52305">
		<tag k="name" v="Klubbneset" />
		<tag k="name:no" v="Klubbneset" />
		<tag k="natural" v="cape" />
		<tag k="ssr:stedsnr" v="533617" />
	</node>
	<node lat="70.49257778525008" lon="25.20159703583429" id="-52306">
		<tag k="name" v="Hornøyra" />
		<tag k="name:no" v="Hornøyra" />
		<tag k="natural" v="shoal" />
		<tag k="place" v="locality" />
		<tag k="ssr:stedsnr" v="534620" />
	</node>
	<node lat="70.23408611879805" lon="25.033616473447164" id="-52321">
		<tag k="name" v="Návlu" />
		<tag k="name:se" v="Návlu" />
		<tag k="natural" v="cape" />
		<tag k="ssr:stedsnr" v="687025" />
	</node>
	<node lat="70.2315555652621" lon="24.952055362549967" id="-52324">
		<tag k="name" v="Ráigeádjatgohppi" />
		<tag k="name:se" v="Ráigeádjatgohppi" />
		<tag k="natural" v="bay" />
		<tag k="ssr:stedsnr" v="687042" />
	</node>
	<node lat="70.13433611364947" lon="24.9997275849805" id="-52326">
		<tag k="name" v="Dødningeneset" />
		<tag k="name:no" v="Dødningeneset" />
		<tag k="natural" v="cape" />
		<tag k="ssr:stedsnr" v="687124" />
	</node>
	<node lat="70.14754723111142" lon="25.1738970002074" id="-52327">
		<tag k="name" v="Stuorraskárku - Isoskarkku" />
		<tag k="name:fkv" v="Isoskarkku" />
		<tag k="name:se" v="Stuorraskárku" />
		<tag k="place" v="island" />
		<tag k="ssr:stedsnr" v="687147" />
	</node>
	<node lat="70.2642333418698" lon="25.078822031177015" id="-52341">
		<tag k="name" v="Luhkkárnjárga" />
		<tag k="name:se" v="Luhkkárnjárga" />
		<tag k="natural" v="cape" />
		<tag k="ssr:stedsnr" v="687415" />
	</node>
	<node lat="70.4555833431168" lon="25.614952544449604" id="-52343">
		<tag k="name" v="Biesaidnjárga - Piesaneset - Piesanniemi" />
		<tag k="name:fkv" v="Piesanniemi" />
		<tag k="name:no" v="Piesaneset" />
		<tag k="name:se" v="Biesaidnjárga" />
		<tag k="natural" v="cape" />
		<tag k="ssr:stedsnr" v="687422" />
	</node>
	<node lat="70.30337223159296" lon="25.386260893725478" id="-52344">
		<tag k="name" v="Guommarsuolu - Kuommarsaari" />
		<tag k="name:fkv" v="Kuommarsaari" />
		<tag k="name:se" v="Guommarsuolu" />
		<tag k="place" v="island" />
		<tag k="ssr:stedsnr" v="687433" />
	</node>
	<node lat="70.29680000736067" lon="25.30838311661509" id="-52345">
		<tag k="name" v="Beahcet - Rantalaneset - Petsikkä" />
		<tag k="name:fkv" v="Petsikkä" />
		<tag k="name:no" v="Rantalaneset" />
		<tag k="name:se" v="Beahcet" />
		<tag k="natural" v="cape" />
		<tag k="ssr:stedsnr" v="687435" />
	</node>
	<node lat="70.50470000281952" lon="25.7089191995954" id="-52347">
		<tag k="name" v="Gievdneváhnjárga" />
		<tag k="name:se" v="Gievdneváhnjárga" />
		<tag k="natural" v="cape" />
		<tag k="ssr:stedsnr" v="687497" />
	</node>
	<node lat="70.50614445248483" lon="25.069133163687003" id="-52379">
		<tag k="name" v="Innsjøen" />
		<tag k="name:no" v="Innsjøen" />
		<tag k="natural" v="bay" />
		<tag k="ssr:stedsnr" v="687968" />
	</node>
	<node lat="70.62835833588085" lon="25.360944230842183" id="-52380">
		<tag k="name" v="Sittarvuonnjárga - Skarvbergneset" />
		<tag k="name:no" v="Skarvbergneset" />
		<tag k="name:se" v="Sittarvuonnjárga" />
		<tag k="natural" v="cape" />
		<tag k="old_name:se" v="Siddarvuonnjarga" />
		<tag k="ssr:stedsnr" v="687974" />
	</node>
	<node lat="70.63471112154917" lon="25.513827559537557" id="-52381">
		<tag k="name" v="Magerøyryggen" />
		<tag k="name:no" v="Magerøyryggen" />
		<tag k="natural" v="shoal" />
		<tag k="place" v="locality" />
		<tag k="ssr:stedsnr" v="687975" />
	</node>
	<node lat="70.60488333682152" lon="25.315627572947903" id="-52382">
		<tag k="name" v="Storurda" />
		<tag k="name:no" v="Storurda" />
		<tag k="natural" v="cape" />
		<tag k="ssr:stedsnr" v="687978" />
	</node>
	<node lat="70.24173056479603" lon="24.979124804160087" id="-52385">
		<tag k="name" v="Bearjjagáldu" />
		<tag k="name:se" v="Bearjjagáldu" />
		<tag k="natural" v="beach" />
		<tag k="ssr:stedsnr" v="688071" />
	</node>
	<node lat="70.40215556469009" lon="25.314152557259394" id="-52387">
		<tag k="fixme" v="consider seamark:type=rock or natural=shoal" />
		<tag k="name" v="Storskjæret" />
		<tag k="name:no" v="Storskjæret" />
		<tag k="place" v="islet" />
		<tag k="ssr:stedsnr" v="688399" />
	</node>
	<node lat="70.30568889509212" lon="25.210327580057648" id="-52396">
		<tag k="name" v="Olggut Báiskenjárga" />
		<tag k="name:se" v="Olggut Báiskenjárga" />
		<tag k="natural" v="cape" />
		<tag k="ssr:stedsnr" v="688689" />
	</node>
	<node lat="70.53658611555373" lon="25.16387480910673" id="-52403">
		<tag k="bay" v="fjord" />
		<tag k="name" v="Smiervuotna - Smørfjorden" />
		<tag k="name:no" v="Smørfjorden" />
		<tag k="name:se" v="Smiervuotna" />
		<tag k="natural" v="bay" />
		<tag k="old_name:se" v="Smiervuodna" />
		<tag k="ssr:stedsnr" v="688918" />
	</node>
	<node lat="70.41772222976674" lon="25.23745814272861" id="-52406">
		<tag k="name" v="Sandholmsundet" />
		<tag k="name:no" v="Sandholmsundet" />
		<tag k="natural" v="strait" />
		<tag k="ssr:stedsnr" v="692243" />
	</node>
	<node lat="70.28835834233229" lon="25.4405192252658" id="-52408">
		<tag k="fixme" v="consider seamark:type=rock or natural=shoal" />
		<tag k="name" v="Baargitlasis" />
		<tag k="name:se" v="Baargitlasis" />
		<tag k="place" v="islet" />
		<tag k="ssr:stedsnr" v="692454" />
	</node>
	<node lat="70.19999723151933" lon="24.94457481561121" id="-52414">
		<tag k="name" v="Beavgohppi" />
		<tag k="name:se" v="Beavgohppi" />
		<tag k="natural" v="bay" />
		<tag k="ssr:stedsnr" v="565067" />
	</node>
	<node lat="70.38978889344772" lon="25.19724980067241" id="-52430">
		<tag k="name" v="Lávkeluokta - Laukvika" />
		<tag k="name:no" v="Laukvika" />
		<tag k="name:se" v="Lávkeluokta" />
		<tag k="natural" v="bay" />
		<tag k="ssr:stedsnr" v="566516" />
	</node>
	<node lat="70.31087500443181" lon="25.364402544420326" id="-52432">
		<tag k="fixme" v="consider seamark:type=rock or natural=shoal" />
		<tag k="name" v="Čuonjelásis - Hanhilaassa" />
		<tag k="name:fkv" v="Hanhilaassa" />
		<tag k="name:se" v="Čuonjelásis" />
		<tag k="place" v="islet" />
		<tag k="ssr:stedsnr" v="566458" />
	</node>
	<node lat="70.56490278232543" lon="25.84809973089054" id="-52436">
		<tag k="name" v="Civáđga" />
		<tag k="name:se" v="Civáđga" />
		<tag k="natural" v="cape" />
		<tag k="old_name:se" v="Civađga" />
		<tag k="ssr:stedsnr" v="566567" />
	</node>
	<node lat="70.31365000847526" lon="25.201835921197272" id="-52442">
		<tag k="name" v="Jámešluokta" />
		<tag k="name:se" v="Jámešluokta" />
		<tag k="natural" v="bay" />
		<tag k="ssr:stedsnr" v="567660" />
	</node>
	<node lat="70.45576667211402" lon="25.454313674268054" id="-52444">
		<tag k="name" v="Josefgrunnen" />
		<tag k="name:no" v="Josefgrunnen" />
		<tag k="natural" v="shoal" />
		<tag k="place" v="locality" />
		<tag k="ssr:stedsnr" v="693341" />
	</node>
	<node lat="70.29444445229433" lon="25.438888646560237" id="-52447">
		<tag k="name" v="Neverøybukta" />
		<tag k="name:no" v="Neverøybukta" />
		<tag k="natural" v="bay" />
		<tag k="ssr:stedsnr" v="570305" />
	</node>
	<node lat="70.4033277829005" lon="25.54927476740481" id="-52448">
		<tag k="name" v="Čuotnjátgohppi" />
		<tag k="name:se" v="Čuotnjátgohppi" />
		<tag k="natural" v="bay" />
		<tag k="ssr:stedsnr" v="571937" />
	</node>
	<node lat="70.22455000879133" lon="24.956935938619615" id="-52474">
		<tag k="name" v="Ikkaldasrávdnji" />
		<tag k="name:se" v="Ikkaldasrávdnji" />
		<tag k="natural" v="strait" />
		<tag k="ssr:stedsnr" v="578826" />
	</node>
	<node lat="70.56338055949608" lon="25.48110811166604" id="-52486">
		<tag k="name" v="Skarvberggrunnen" />
		<tag k="name:no" v="Skarvberggrunnen" />
		<tag k="natural" v="shoal" />
		<tag k="place" v="locality" />
		<tag k="ssr:stedsnr" v="594550" />
	</node>
	<node lat="70.52678333812473" lon="25.09830537174022" id="-52499">
		<tag k="name" v="Ytrebukta" />
		<tag k="name:no" v="Ytrebukta" />
		<tag k="natural" v="bay" />
		<tag k="ssr:stedsnr" v="699349" />
	</node>
	<node lat="70.52258889399099" lon="25.08037481950949" id="-52500">
		<tag k="name" v="Skjånes" />
		<tag k="name:no" v="Skjånes" />
		<tag k="natural" v="cape" />
		<tag k="ssr:stedsnr" v="699351" />
	</node>
	<node lat="70.16947500205546" lon="25.107660913138826" id="-52525">
		<tag k="name" v="Várregoađenjárga" />
		<tag k="name:se" v="Várregoađenjárga" />
		<tag k="natural" v="cape" />
		<tag k="ssr:stedsnr" v="625106" />
	</node>
	<node lat="70.36671389321933" lon="25.441183117178724" id="-52541">
		<tag k="name" v="Gálgonjárga - Kjerringvikneset - Kalkuniemi" />
		<tag k="name:fkv" v="Kalkuniemi" />
		<tag k="name:no" v="Kjerringvikneset" />
		<tag k="name:se" v="Gálgonjárga" />
		<tag k="natural" v="cape" />
		<tag k="ssr:stedsnr" v="626515" />
	</node>
	<node lat="70.267072226822" lon="25.337585899822685" id="-52544">
		<tag k="name" v="Beavža-Gáđešnjárga - Öystä-Kaalisenniemi" />
		<tag k="name:fkv" v="Öystä-Kaalisenniemi" />
		<tag k="name:se" v="Beavža-Gáđešnjárga" />
		<tag k="natural" v="cape" />
		<tag k="ssr:stedsnr" v="626559" />
	</node>
	<node lat="70.57312500641876" lon="25.886421948039516" id="-52545">
		<tag k="name" v="Boskagohppi - Sløkevika" />
		<tag k="name:no" v="Sløkevika" />
		<tag k="name:se" v="Boskagohppi" />
		<tag k="natural" v="bay" />
		<tag k="old_name:se" v="Båskagåppi" />
		<tag k="ssr:stedsnr" v="626599" />
	</node>
	<node lat="70.66870834112531" lon="25.400052584422316" id="-52553">
		<tag k="name" v="Olggut Čáhceváhki - Ytre Sortvik" />
		<tag k="name:no" v="Ytre Sortvik" />
		<tag k="name:se" v="Olggut Čáhceváhki" />
		<tag k="natural" v="bay" />
		<tag k="old_name:se" v="Čaccevakki ålgot" />
		<tag k="ssr:stedsnr" v="626997" />
	</node>
	<node lat="70.40237500565581" lon="25.33173866819386" id="-52554">
		<tag k="name" v="Guovdesuolu - Hamnholmen - Koutusaari" />
		<tag k="name:fkv" v="Koutusaari" />
		<tag k="name:no" v="Hamnholmen" />
		<tag k="name:se" v="Guovdesuolu" />
		<tag k="place" v="islet" />
		<tag k="ssr:stedsnr" v="627403" />
	</node>
	<node lat="70.3305388949111" lon="25.12911923797687" id="-52557">
		<tag k="name" v="Seakkesnjárga" />
		<tag k="name:se" v="Seakkesnjárga" />
		<tag k="natural" v="cape" />
		<tag k="ssr:stedsnr" v="627644" />
	</node>
	<node lat="70.32191111770209" lon="25.096255356448317" id="-52561">
		<tag k="name" v="Skadjanjárga" />
		<tag k="name:se" v="Skadjanjárga" />
		<tag k="natural" v="cape" />
		<tag k="ssr:stedsnr" v="627709" />
	</node>
	<node lat="70.2158194479524" lon="25.18923867680155" id="-52566">
		<tag k="name" v="Mammalflua" />
		<tag k="name:no" v="Mammalflua" />
		<tag k="natural" v="shoal" />
		<tag k="place" v="locality" />
		<tag k="ssr:stedsnr" v="630490" />
	</node>
	<node lat="70.34220555847676" lon="25.140922025702466" id="-52568">
		<tag k="name" v="Rundgrunnen" />
		<tag k="name:no" v="Rundgrunnen" />
		<tag k="natural" v="shoal" />
		<tag k="place" v="locality" />
		<tag k="ssr:stedsnr" v="631435" />
	</node>
	<node lat="70.26465555989537" lon="25.067741476887385" id="-52581">
		<tag k="name" v="Orkkanluohnjárga" />
		<tag k="name:se" v="Orkkanluohnjárga" />
		<tag k="natural" v="cape" />
		<tag k="ssr:stedsnr" v="638695" />
	</node>
	<node lat="70.35724167225781" lon="25.1133192553765" id="-52582">
		<tag k="name" v="Guoskatnjárga" />
		<tag k="name:se" v="Guoskatnjárga" />
		<tag k="natural" v="cape" />
		<tag k="ssr:stedsnr" v="638702" />
	</node>
	<node lat="70.3410277830105" lon="25.424035874177132" id="-52585">
		<tag k="name" v="Pystökivenranta" />
		<tag k="name:fkv" v="Pystökivenranta" />
		<tag k="natural" v="cape" />
		<tag k="ssr:stedsnr" v="638592" />
	</node>
	<node lat="70.53645278459044" lon="25.202705370875066" id="-52592">
		<tag k="name" v="Nesegrunnen" />
		<tag k="name:no" v="Nesegrunnen" />
		<tag k="natural" v="shoal" />
		<tag k="place" v="locality" />
		<tag k="ssr:stedsnr" v="655593" />
	</node>
	<node lat="70.18480555754472" lon="25.162022016601853" id="-52595">
		<tag k="name" v="Uhca Goaskinsuolu - Lille Ørnøy - Pikku Kuoskinsaari" />
		<tag k="name:fkv" v="Pikku Kuoskinsaari" />
		<tag k="name:no" v="Lille Ørnøy" />
		<tag k="name:se" v="Uhca Goaskinsuolu" />
		<tag k="place" v="island" />
		<tag k="ssr:stedsnr" v="686103" />
	</node>
	<node lat="70.22845000500769" lon="25.084002571303937" id="-52602">
		<tag k="name" v="Stuorrajátkkis - Jatka" />
		<tag k="name:fkv" v="Jatka" />
		<tag k="name:se" v="Stuorrajátkkis" />
		<tag k="place" v="island" />
		<tag k="ssr:stedsnr" v="687094" />
	</node>
	<node lat="70.229711120503" lon="25.228955333354868" id="-52603">
		<tag k="name" v="Olggut Daŋas - Taaknas" />
		<tag k="name:fkv" v="Taaknas" />
		<tag k="name:se" v="Olggut Daŋas" />
		<tag k="place" v="islet" />
		<tag k="ssr:stedsnr" v="687293" />
	</node>
	<node lat="70.57585556431769" lon="25.899427526628273" id="-52614">
		<tag k="name" v="Geassenjárga - Sommarneset" />
		<tag k="name:no" v="Sommarneset" />
		<tag k="name:se" v="Geassenjárga" />
		<tag k="natural" v="cape" />
		<tag k="old_name:se" v="Gæssenjarga" />
		<tag k="ssr:stedsnr" v="687588" />
	</node>
	<node lat="70.57109445171093" lon="25.87188308279636" id="-52615">
		<tag k="name" v="Boskanjárga - Sløkneset" />
		<tag k="name:no" v="Sløkneset" />
		<tag k="name:se" v="Boskanjárga" />
		<tag k="natural" v="cape" />
		<tag k="old_name:se" v="Båskanjarga" />
		<tag k="ssr:stedsnr" v="687589" />
	</node>
	<node lat="70.29296111373904" lon="25.170288690146208" id="-52621">
		<tag k="name" v="Vuorrasnjárga" />
		<tag k="name:se" v="Vuorrasnjárga" />
		<tag k="natural" v="cape" />
		<tag k="ssr:stedsnr" v="688566" />
	</node>
	<node lat="70.33431111305256" lon="25.120997023071634" id="-52629">
		<tag k="name" v="Malnesgrunnen" />
		<tag k="name:no" v="Malnesgrunnen" />
		<tag k="natural" v="shoal" />
		<tag k="place" v="locality" />
		<tag k="ssr:stedsnr" v="692427" />
	</node>
	<node lat="70.4193722277272" lon="25.27085536161592" id="-52630">
		<tag k="name" v="Vestre Mađa" />
		<tag k="name:no" v="Vestre Mađa" />
		<tag k="natural" v="shoal" />
		<tag k="place" v="locality" />
		<tag k="ssr:stedsnr" v="692451" />
	</node>
	<node lat="70.44753056465142" lon="25.23278869429979" id="-52631">
		<tag k="name" v="Lensmannsgrunnen" />
		<tag k="name:no" v="Lensmannsgrunnen" />
		<tag k="natural" v="shoal" />
		<tag k="place" v="locality" />
		<tag k="ssr:stedsnr" v="693325" />
	</node>
	<node lat="70.32533611807325" lon="25.397421985664796" id="-52633">
		<tag k="name" v="Giksenjárgohppi - Kiksiniemenkoppa" />
		<tag k="name:fkv" v="Kiksiniemenkoppa" />
		<tag k="name:se" v="Giksenjárgohppi" />
		<tag k="natural" v="bay" />
		<tag k="ssr:stedsnr" v="693989" />
	</node>
	<node lat="70.49858611632274" lon="25.68588029652232" id="-52636">
		<tag k="name" v="Gumpestabba" />
		<tag k="name:se" v="Gumpestabba" />
		<tag k="natural" v="cape" />
		<tag k="ssr:stedsnr" v="697372" />
	</node>
	<node lat="70.34031945291694" lon="25.4145914372072" id="-52650">
		<tag k="name" v="Pystökivenniemi" />
		<tag k="name:fkv" v="Pystökivenniemi" />
		<tag k="natural" v="cape" />
		<tag k="ssr:stedsnr" v="699576" />
	</node>
	<node lat="70.53692778247347" lon="25.19203870279513" id="-52658">
		<tag k="name" v="Åregrunnen" />
		<tag k="name:no" v="Åregrunnen" />
		<tag k="natural" v="shoal" />
		<tag k="place" v="locality" />
		<tag k="ssr:stedsnr" v="716607" />
	</node>
	<node lat="70.22313333542213" lon="25.1847442421667" id="-52660">
		<tag k="name" v="Mámmal - Maamela" />
		<tag k="name:fkv" v="Maamela" />
		<tag k="name:se" v="Mámmal" />
		<tag k="place" v="island" />
		<tag k="ssr:stedsnr" v="747065" />
	</node>
	<node lat="70.1411833378858" lon="25.08641923986442" id="-52662">
		<tag k="name" v="Ullegohppi - Ullekoppa" />
		<tag k="name:fkv" v="Ullekoppa" />
		<tag k="name:se" v="Ullegohppi" />
		<tag k="natural" v="bay" />
		<tag k="ssr:stedsnr" v="747117" />
	</node>
	<node lat="70.265855562416" lon="25.436266444421285" id="-52668">
		<tag k="name" v="Cagangárggu - Tjeldgrunnen - Sađankarkko" />
		<tag k="name:fkv" v="Sađankarkko" />
		<tag k="name:no" v="Tjeldgrunnen" />
		<tag k="name:se" v="Cagangárggu" />
		<tag k="natural" v="shoal" />
		<tag k="place" v="locality" />
		<tag k="ssr:stedsnr" v="747271" />
	</node>
	<node lat="70.32413611537872" lon="25.27908033543876" id="-52681">
		<tag k="name" v="Bierit - Auskarholmen - Pierikkä" />
		<tag k="name:fkv" v="Pierikkä" />
		<tag k="name:no" v="Auskarholmen" />
		<tag k="name:se" v="Bierit" />
		<tag k="place" v="islet" />
		<tag k="ssr:stedsnr" v="748512" />
	</node>
	<node lat="70.0686000054469" lon="25.11945255923434" id="-52696">
		<tag k="name" v="Lahtaganbatta" />
		<tag k="name:fkv" v="Lahtaganbatta" />
		<tag k="natural" v="bay" />
		<tag k="ssr:stedsnr" v="759107" />
	</node>
	<node lat="70.35803055958438" lon="25.43663033815584" id="-52703">
		<tag k="name" v="Jaakonkari" />
		<tag k="name:fkv" v="Jaakonkari" />
		<tag k="natural" v="beach" />
		<tag k="ssr:stedsnr" v="759612" />
	</node>
	<node lat="70.69436389330967" lon="25.882102509285335" id="-52712">
		<tag k="name" v="Klubbekeila" />
		<tag k="name:no" v="Klubbekeila" />
		<tag k="natural" v="bay" />
		<tag k="ssr:stedsnr" v="808506" />
	</node>
	<node lat="70.2871333379087" lon="25.273999784061417" id="-52717">
		<tag k="name" v="Gurjoluohnjárga - Kurjulahđenniemi" />
		<tag k="name:fkv" v="Kurjulahđenniemi" />
		<tag k="name:se" v="Gurjoluohnjárga" />
		<tag k="natural" v="cape" />
		<tag k="ssr:stedsnr" v="808447" />
	</node>
	<node lat="70.27045000958235" lon="25.092927579936227" id="-52732">
		<tag k="name" v="Muorranjárga" />
		<tag k="name:se" v="Muorranjárga" />
		<tag k="natural" v="cape" />
		<tag k="ssr:stedsnr" v="809611" />
	</node>
	<node lat="70.36205834059145" lon="25.110616485749127" id="-52740">
		<tag k="name" v="Uhca Guoskat" />
		<tag k="name:se" v="Uhca Guoskat" />
		<tag k="natural" v="cape" />
		<tag k="ssr:stedsnr" v="809586" />
	</node>
	<node lat="70.43551111323329" lon="25.599599767682268" id="-52747">
		<tag k="name" v="Heilongohppi" />
		<tag k="name:se" v="Heilongohppi" />
		<tag k="natural" v="bay" />
		<tag k="ssr:stedsnr" v="813923" />
	</node>
	<node lat="70.53132500715576" lon="25.783110853225505" id="-52751">
		<tag k="name" v="Ciikosgohppi" />
		<tag k="name:se" v="Ciikosgohppi" />
		<tag k="natural" v="bay" />
		<tag k="ssr:stedsnr" v="818122" />
	</node>
	<node lat="70.32359167276515" lon="25.39623587904104" id="-52758">
		<tag k="name" v="Fämpöörinkikoppa" />
		<tag k="name:fkv" v="Fämpöörinkikoppa" />
		<tag k="natural" v="bay" />
		<tag k="ssr:stedsnr" v="820623" />
	</node>
	<node lat="70.15440000365493" lon="25.10138312121643" id="-52770">
		<tag k="name" v="Bealjasuolu - Pellansaari" />
		<tag k="name:fkv" v="Pellansaari" />
		<tag k="name:se" v="Bealjasuolu" />
		<tag k="place" v="islet" />
		<tag k="ssr:stedsnr" v="929132" />
	</node>
	<node lat="70.14990278301705" lon="25.08534980427773" id="-52771">
		<tag k="name" v="Gahtegohppi" />
		<tag k="name:se" v="Gahtegohppi" />
		<tag k="natural" v="bay" />
		<tag k="ssr:stedsnr" v="929145" />
	</node>
	<node lat="70.17520000483754" lon="25.160355353443993" id="-52773">
		<tag k="name" v="Rággebealli - Rätkäpelli" />
		<tag k="name:fkv" v="Rätkäpelli" />
		<tag k="name:se" v="Rággebealli" />
		<tag k="place" v="islet" />
		<tag k="ssr:stedsnr" v="929092" />
	</node>
	<node lat="70.06897778756668" lon="24.93315258487646" id="-52774">
		<tag k="loc_name:fkv" v="Kallokanniemi" />
		<tag k="loc_name:se" v="Gállotnjárga" />
		<tag k="name" v="Kallokka" />
		<tag k="name:fkv" v="Kallokka" />
		<tag k="natural" v="cape" />
		<tag k="ssr:stedsnr" v="929192" />
	</node>
	<node lat="70.19795833726224" lon="24.916513700653184" id="-52798">
		<tag k="name" v="Stuorranjárga - Stornes" />
		<tag k="name:no" v="Stornes" />
		<tag k="name:se" v="Stuorranjárga" />
		<tag k="natural" v="cape" />
		<tag k="ssr:stedsnr" v="930070" />
	</node>
	<node lat="70.18794722479316" lon="25.199655339313317" id="-52799">
		<tag k="name" v="Guovjjat" />
		<tag k="name:se" v="Guovjjat" />
		<tag k="place" v="island" />
		<tag k="ssr:stedsnr" v="868108" />
	</node>
	<node lat="70.16308889248509" lon="24.989213696865335" id="-52802">
		<tag k="name" v="Reaššetsuolu" />
		<tag k="name:se" v="Reaššetsuolu" />
		<tag k="place" v="islet" />
		<tag k="ssr:stedsnr" v="869109" />
	</node>
	<node lat="70.09237223066394" lon="24.953369249757877" id="-52808">
		<tag k="name" v="Leavdnjavuotna - Vesterbotn - Lemmivuono" />
		<tag k="name:fkv" v="Lemmivuono" />
		<tag k="name:no" v="Vesterbotn" />
		<tag k="name:se" v="Leavdnjavuotna" />
		<tag k="natural" v="bay" />
		<tag k="ssr:stedsnr" v="869203" />
	</node>
	<node lat="70.11488055730182" lon="25.07184980293907" id="-52811">
		<tag k="name" v="Láiragohppi - Leirbukta - Lairakoppa" />
		<tag k="name:fkv" v="Lairakoppa" />
		<tag k="name:no" v="Leirbukta" />
		<tag k="name:se" v="Láiragohppi" />
		<tag k="natural" v="bay" />
		<tag k="ssr:stedsnr" v="930169" />
	</node>
	<node lat="70.1110055599014" lon="24.92186926354186" id="-52812">
		<tag k="fixme" v="consider seamark:type=rock or natural=shoal" />
		<tag k="name" v="Gáhtirmoski" />
		<tag k="name:se" v="Gáhtirmoski" />
		<tag k="place" v="islet" />
		<tag k="ssr:stedsnr" v="930171" />
	</node>
	<node lat="70.1070472303183" lon="24.976522026500845" id="-52813">
		<tag k="name" v="Luhčageađgi - Skitsteinen - Paskakivi" />
		<tag k="name:fkv" v="Paskakivi" />
		<tag k="name:no" v="Skitsteinen" />
		<tag k="name:se" v="Luhčageađgi" />
		<tag k="place" v="locality" />
		<tag k="seamark:type" v="rock" />
		<tag k="ssr:stedsnr" v="930173" />
	</node>
	<node lat="70.11276667479021" lon="25.07654978758555" id="-52814">
		<tag k="name" v="Gálbbesuolu - Kalvholmen - Vasikkasaari" />
		<tag k="name:fkv" v="Vasikkasaari" />
		<tag k="name:no" v="Kalvholmen" />
		<tag k="name:se" v="Gálbbesuolu" />
		<tag k="place" v="islet" />
		<tag k="ssr:stedsnr" v="930178" />
	</node>
	<node lat="70.29153334169779" lon="25.441485872283184" id="-52817">
		<tag k="name" v="Beassesuolu - Skogholmen - Pessaari" />
		<tag k="name:fkv" v="Pessaari" />
		<tag k="name:no" v="Skogholmen" />
		<tag k="name:se" v="Beassesuolu" />
		<tag k="place" v="islet" />
		<tag k="ssr:stedsnr" v="869504" />
	</node>
	<node lat="70.29183334278304" lon="25.421585893615003" id="-52818">
		<tag k="name" v="Coagalmas - Suokolma" />
		<tag k="name:fkv" v="Suokolma" />
		<tag k="name:se" v="Coagalmas" />
		<tag k="place" v="islet" />
		<tag k="ssr:stedsnr" v="869505" />
	</node>
	<node lat="70.61473612022154" lon="25.334916454124144" id="-52833">
		<tag k="name" v="Skarvskiten" />
		<tag k="name:no" v="Skarvskiten" />
		<tag k="natural" v="cape" />
		<tag k="ssr:stedsnr" v="869976" />
	</node>
	<node lat="70.39103055871618" lon="25.233430338510622" id="-52841">
		<tag k="name" v="Sálteluokta" />
		<tag k="name:se" v="Sálteluokta" />
		<tag k="natural" v="bay" />
		<tag k="ssr:stedsnr" v="870418" />
	</node>
	<node lat="70.41585278329697" lon="25.216760915460004" id="-52845">
		<tag k="name" v="Coagan - Indre Lamøya" />
		<tag k="name:no" v="Indre Lamøya" />
		<tag k="name:se" v="Coagan" />
		<tag k="place" v="islet" />
		<tag k="ssr:stedsnr" v="870719" />
	</node>
	<node lat="70.56288611256178" lon="25.21920536858743" id="-52847">
		<tag k="alt_name:no" v="Seljeneset" />
		<tag k="name" v="Sieđganjárga - Seljenes" />
		<tag k="name:no" v="Seljenes" />
		<tag k="name:se" v="Sieđganjárga" />
		<tag k="natural" v="cape" />
		<tag k="old_name:se" v="Sieđganjarga" />
		<tag k="ssr:stedsnr" v="870919" />
	</node>
	<node lat="70.13830278445344" lon="25.252346996336954" id="-52853">
		<tag k="name" v="Stuorra Guovžanjárga - Store Bjørnnes - Iso Karhuniemi" />
		<tag k="name:fkv" v="Iso Karhuniemi" />
		<tag k="name:no" v="Store Bjørnnes" />
		<tag k="name:se" v="Stuorra Guovžanjárga" />
		<tag k="natural" v="cape" />
		<tag k="ssr:stedsnr" v="930323" />
	</node>
	<node lat="70.28666389610535" lon="25.494124763592428" id="-52860">
		<tag k="fixme" v="multiple name tags, choose one and add the other to alt_name" />
		<tag k="name" v="Suvrragohpenjárga;Njárga - Syyrykopanniemi" />
		<tag k="name:fkv" v="Syyrykopanniemi" />
		<tag k="name:se" v="Suvrragohpenjárga;Njárga" />
		<tag k="natural" v="cape" />
		<tag k="ssr:stedsnr" v="930475" />
	</node>
	<node lat="70.71135000882488" lon="25.863255305026566" id="-52865">
		<tag k="alt_name:no" v="Skagen" />
		<tag k="name" v="Skagodden" />
		<tag k="name:no" v="Skagodden" />
		<tag k="natural" v="cape" />
		<tag k="ssr:stedsnr" v="930554" />
	</node>
	<node lat="70.48483055855036" lon="25.155594255386962" id="-52867">
		<tag k="bay" v="fjord" />
		<tag k="name" v="Leaibevuotna - Olderfjorden - Leipovuono" />
		<tag k="name:fkv" v="Leipovuono" />
		<tag k="name:no" v="Olderfjorden" />
		<tag k="name:se" v="Leaibevuotna" />
		<tag k="natural" v="bay" />
		<tag k="ssr:stedsnr" v="930562" />
	</node>
	<node lat="70.32731945042943" lon="25.38518587882705" id="-52874">
		<tag k="name" v="Giksenjárga - Børselvnes - Kiksiniemi" />
		<tag k="name:fkv" v="Kiksiniemi" />
		<tag k="name:no" v="Børselvnes" />
		<tag k="name:se" v="Giksenjárga" />
		<tag k="natural" v="cape" />
		<tag k="ssr:stedsnr" v="930523" />
	</node>
	<node lat="70.50970556528901" lon="25.72788307593978" id="-52877">
		<tag k="name" v="Sámmolnjárga - Samuelneset" />
		<tag k="name:no" v="Samuelneset" />
		<tag k="name:se" v="Sámmolnjárga" />
		<tag k="natural" v="cape" />
		<tag k="ssr:stedsnr" v="930533" />
	</node>
	<node lat="70.51015278867352" lon="25.733152533451584" id="-52878">
		<tag k="name" v="Sámmolgohppi - Samuelbukta" />
		<tag k="name:no" v="Samuelbukta" />
		<tag k="name:se" v="Sámmolgohppi" />
		<tag k="natural" v="bay" />
		<tag k="ssr:stedsnr" v="930534" />
	</node>
	<node lat="70.31812778369033" lon="25.060705357171564" id="-52881">
		<tag k="name" v="Áitenjárga" />
		<tag k="name:se" v="Áitenjárga" />
		<tag k="natural" v="cape" />
		<tag k="ssr:stedsnr" v="930619" />
	</node>
	<node lat="70.58666389777814" lon="25.251483151703198" id="-52893">
		<tag k="name" v="Torveneset" />
		<tag k="name:no" v="Torveneset" />
		<tag k="natural" v="cape" />
		<tag k="ssr:stedsnr" v="930976" />
	</node>
	<node lat="70.5532388932743" lon="25.18092481034504" id="-52896">
		<tag k="alt_name:no" v="Hundevika" />
		<tag k="name" v="Hundvika" />
		<tag k="name:no" v="Hundvika" />
		<tag k="natural" v="bay" />
		<tag k="ssr:stedsnr" v="930938" />
	</node>
	<node lat="70.51573333575455" lon="25.108491476991095" id="-52902">
		<tag k="alt_name:no" v="Kilneset" />
		<tag k="name" v="Čilenjárga - Kilnes" />
		<tag k="name:no" v="Kilnes" />
		<tag k="name:se" v="Čilenjárga" />
		<tag k="natural" v="cape" />
		<tag k="old_name:se" v="Čilenjarga" />
		<tag k="ssr:stedsnr" v="931966" />
	</node>
	<node lat="70.25397778166317" lon="25.24389978173291" id="-52903">
		<tag k="name" v="Stálogohppi" />
		<tag k="name:se" v="Stálogohppi" />
		<tag k="natural" v="bay" />
		<tag k="ssr:stedsnr" v="876066" />
	</node>
	<node lat="70.44716111878891" lon="25.61368588390404" id="-52904">
		<tag k="name" v="Áitenjárga" />
		<tag k="name:se" v="Áitenjárga" />
		<tag k="natural" v="cape" />
		<tag k="ssr:stedsnr" v="876966" />
	</node>
	<node lat="70.06698611945981" lon="25.14100256064213" id="-52907">
		<tag k="name" v="Sokkuvuonpuorrä" />
		<tag k="name:fkv" v="Sokkuvuonpuorrä" />
		<tag k="natural" v="shoal" />
		<tag k="place" v="locality" />
		<tag k="ssr:stedsnr" v="881122" />
	</node>
	<node lat="70.32601111344688" lon="25.390919222239038" id="-52911">
		<tag k="name" v="Pukinkoppa" />
		<tag k="name:fkv" v="Pukinkoppa" />
		<tag k="natural" v="bay" />
		<tag k="ssr:stedsnr" v="881608" />
	</node>
	<node lat="70.40395556531658" lon="25.54575533492027" id="-52919">
		<tag k="name" v="Bikkanjárga" />
		<tag k="name:se" v="Bikkanjárga" />
		<tag k="natural" v="cape" />
		<tag k="ssr:stedsnr" v="934925" />
	</node>
	<node lat="70.37563333737704" lon="25.226141474810508" id="-52920">
		<tag k="name" v="Midtgrunnen" />
		<tag k="name:no" v="Midtgrunnen" />
		<tag k="natural" v="shoal" />
		<tag k="place" v="locality" />
		<tag k="ssr:stedsnr" v="935238" />
	</node>
	<node lat="70.1008166726595" lon="25.07339423636683" id="-52938">
		<tag k="name" v="Fembøringsneset" />
		<tag k="name:no" v="Fembøringsneset" />
		<tag k="natural" v="cape" />
		<tag k="ssr:stedsnr" v="930155" />
	</node>
	<node lat="70.32263056498141" lon="25.370969229490623" id="-52941">
		<tag k="name" v="Dorju - Torju" />
		<tag k="name:fkv" v="Torju" />
		<tag k="name:se" v="Dorju" />
		<tag k="place" v="islet" />
		<tag k="ssr:stedsnr" v="930509" />
	</node>
	<node lat="70.38038333813049" lon="25.49274977648156" id="-52957">
		<tag k="name" v="Gieddegohppi - Leirpollen - Kentänkoppa" />
		<tag k="name:fkv" v="Kentänkoppa" />
		<tag k="name:no" v="Leirpollen" />
		<tag k="name:se" v="Gieddegohppi" />
		<tag k="natural" v="bay" />
		<tag k="ssr:stedsnr" v="931427" />
	</node>
	<node lat="70.32439723164619" lon="25.10542481288892" id="-52963">
		<tag k="name" v="Guovžagohppi" />
		<tag k="name:se" v="Guovžagohppi" />
		<tag k="natural" v="bay" />
		<tag k="ssr:stedsnr" v="931642" />
	</node>
	<node lat="70.31524167054624" lon="25.06265536502301" id="-52967">
		<tag k="name" v="Ánne Per gohppi" />
		<tag k="name:se" v="Ánne Per gohppi" />
		<tag k="natural" v="bay" />
		<tag k="ssr:stedsnr" v="931701" />
	</node>
	<node lat="70.23842500658215" lon="25.238019242261235" id="-52968">
		<tag k="name" v="Durbilnuorri" />
		<tag k="name:se" v="Durbilnuorri" />
		<tag k="natural" v="strait" />
		<tag k="ssr:stedsnr" v="931804" />
	</node>
	<node lat="70.35148611540481" lon="25.14946370185405" id="-52973">
		<tag k="name" v="Buskgrunnen" />
		<tag k="name:no" v="Buskgrunnen" />
		<tag k="natural" v="shoal" />
		<tag k="place" v="locality" />
		<tag k="ssr:stedsnr" v="934402" />
	</node>
	<node lat="70.39017778575382" lon="25.461013667527997" id="-52974">
		<tag k="name" v="Boađđu" />
		<tag k="name:se" v="Boađđu" />
		<tag k="natural" v="shoal" />
		<tag k="place" v="locality" />
		<tag k="ssr:stedsnr" v="934436" />
	</node>
	<node lat="70.45412223169579" lon="25.614813662883112" id="-52977">
		<tag k="name" v="Rievssatnjunni" />
		<tag k="name:se" v="Rievssatnjunni" />
		<tag k="natural" v="cape" />
		<tag k="ssr:stedsnr" v="937929" />
	</node>
	<node lat="70.19829444917374" lon="25.075749788098367" id="-52985">
		<tag k="bay" v="fjord" />
		<tag k="name" v="Porsáŋgguvuotna - Porsangerfjorden - Porsanginvuono" />
		<tag k="name:fkv" v="Porsanginvuono" />
		<tag k="name:no" v="Porsangerfjorden" />
		<tag k="name:se" v="Porsáŋgguvuotna" />
		<tag k="natural" v="bay" />
		<tag k="ssr:stedsnr" v="19061" />
	</node>
	<node lat="70.2460500072442" lon="25.155127578984892" id="-52989">
		<tag k="name" v="Nohppi - Nuppi" />
		<tag k="name:fkv" v="Nuppi" />
		<tag k="name:se" v="Nohppi" />
		<tag k="place" v="islet" />
		<tag k="ssr:stedsnr" v="19032" />
	</node>
	<node lat="70.23513055834894" lon="25.032919254759125" id="-52990">
		<tag k="name" v="Návlogohppi" />
		<tag k="name:se" v="Návlogohppi" />
		<tag k="natural" v="bay" />
		<tag k="ssr:stedsnr" v="19036" />
	</node>
	<node lat="70.21774723201538" lon="24.990510913479103" id="-52991">
		<tag k="name" v="Áhkansulnuorri" />
		<tag k="name:se" v="Áhkansulnuorri" />
		<tag k="natural" v="strait" />
		<tag k="ssr:stedsnr" v="19072" />
	</node>
	<node lat="70.15364723316043" lon="24.990980355766816" id="-52996">
		<tag k="name" v="Reaššehat" />
		<tag k="name:se" v="Reaššehat" />
		<tag k="place" v="island" />
		<tag k="ssr:stedsnr" v="19090" />
	</node>
	<node lat="70.13109167351688" lon="24.98949148413895" id="-53003">
		<tag k="name" v="Gumppegohppi - Ulvebukta - Hukkakoppa" />
		<tag k="name:fkv" v="Hukkakoppa" />
		<tag k="name:no" v="Ulvebukta" />
		<tag k="name:se" v="Gumppegohppi" />
		<tag k="natural" v="bay" />
		<tag k="ssr:stedsnr" v="19117" />
	</node>
	<node lat="70.07485833786397" lon="25.09303035612345" id="-53004">
		<tag k="name" v="Alkka" />
		<tag k="name:fkv" v="Alkka" />
		<tag k="natural" v="cape" />
		<tag k="ssr:stedsnr" v="19195" />
	</node>
	<node lat="70.24763334279638" lon="25.422374772032484" id="-53009">
		<tag k="name" v="Bánnenjárga - Bannenes - Panniniemi" />
		<tag k="name:fkv" v="Panniniemi" />
		<tag k="name:no" v="Bannenes" />
		<tag k="name:se" v="Bánnenjárga" />
		<tag k="natural" v="cape" />
		<tag k="ssr:stedsnr" v="19267" />
	</node>
	<node lat="70.26053611825837" lon="25.07595815183936" id="-53045">
		<tag k="fixme" v="consider seamark:type=rock or natural=shoal" />
		<tag k="name" v="Orkkanluohlásis - Anopsetholmen" />
		<tag k="name:no" v="Anopsetholmen" />
		<tag k="name:se" v="Orkkanluohlásis" />
		<tag k="place" v="islet" />
		<tag k="ssr:stedsnr" v="20410" />
	</node>
	<node lat="70.46611944870843" lon="25.26329147229382" id="-53046">
		<tag k="name" v="Vađaidgohppi" />
		<tag k="name:se" v="Vađaidgohppi" />
		<tag k="natural" v="bay" />
		<tag k="ssr:stedsnr" v="20422" />
	</node>
	<node lat="70.5126527821941" lon="25.739277537185576" id="-53051">
		<tag k="name" v="Goađenjárga - Teltneset" />
		<tag k="name:no" v="Teltneset" />
		<tag k="name:se" v="Goađenjárga" />
		<tag k="natural" v="cape" />
		<tag k="ssr:stedsnr" v="20518" />
	</node>
	<node lat="70.39082222719703" lon="25.17560813643384" id="-53053">
		<tag k="name" v="Guoškir" />
		<tag k="name:se" v="Guoškir" />
		<tag k="natural" v="cape" />
		<tag k="ssr:stedsnr" v="20525" />
	</node>
	<node lat="70.41080555930945" lon="25.232380337485274" id="-53057">
		<tag k="name" v="Rinjárgohppi - Andersbukta" />
		<tag k="name:no" v="Andersbukta" />
		<tag k="name:se" v="Rinjárgohppi" />
		<tag k="natural" v="bay" />
		<tag k="ssr:stedsnr" v="20383" />
	</node>
	<node lat="70.33884444736397" lon="25.403327550512316" id="-53058">
		<tag k="fixme" v="consider seamark:type=rock or natural=shoal" />
		<tag k="name" v="Hárvveslássis - Hareskjær - Harvislaassa" />
		<tag k="name:fkv" v="Harvislaassa" />
		<tag k="name:no" v="Hareskjær" />
		<tag k="name:se" v="Hárvveslássis" />
		<tag k="place" v="islet" />
		<tag k="ssr:stedsnr" v="20456" />
	</node>
	<node lat="70.33637778123762" lon="25.398710881623103" id="-53059">
		<tag k="name" v="Sáttonjárga - Steinneset - Hietaniemi" />
		<tag k="name:fkv" v="Hietaniemi" />
		<tag k="name:no" v="Steinneset" />
		<tag k="name:se" v="Sáttonjárga" />
		<tag k="natural" v="cape" />
		<tag k="ssr:stedsnr" v="20457" />
	</node>
	<node lat="70.7116611136196" lon="25.85608863945025" id="-53061">
		<tag k="alt_name:no" v="Grønevika, yt" />
		<tag k="name" v="Ytre Grønevika" />
		<tag k="name:no" v="Ytre Grønevika" />
		<tag k="natural" v="bay" />
		<tag k="ssr:stedsnr" v="20546" />
	</node>
	<node lat="70.34477778396621" lon="25.084397031614312" id="-53062">
		<tag k="name" v="Kluppugohppi" />
		<tag k="name:se" v="Kluppugohppi" />
		<tag k="natural" v="bay" />
		<tag k="ssr:stedsnr" v="20550" />
	</node>
	<node lat="70.58302778744236" lon="25.92019972859696" id="-53071">
		<tag k="alt_name:se" v="Dihkkenjárga" />
		<tag k="name" v="Čuovganjárga - Lysneset" />
		<tag k="name:no" v="Lysneset" />
		<tag k="name:se" v="Čuovganjárga" />
		<tag k="natural" v="cape" />
		<tag k="old_name:se" v="Čuovganjarga" />
		<tag k="ssr:stedsnr" v="20609" />
	</node>
	<node lat="70.2420722297077" lon="25.231291454749247" id="-53080">
		<tag k="name" v="Durbil" />
		<tag k="name:se" v="Durbil" />
		<tag k="natural" v="cape" />
		<tag k="ssr:stedsnr" v="20872" />
	</node>
	<node lat="70.58816945305989" lon="25.418197007833413" id="-53082">
		<tag k="name" v="Gurragrunnan" />
		<tag k="name:no" v="Gurragrunnan" />
		<tag k="natural" v="shoal" />
		<tag k="place" v="locality" />
		<tag k="ssr:stedsnr" v="20979" />
	</node>
	<node lat="70.10601667575274" lon="24.983710926663715" id="-53086">
		<tag k="name" v="Geađgenjárga - Ytre Steines - Kiviniemi" />
		<tag k="name:fkv" v="Kiviniemi" />
		<tag k="name:no" v="Ytre Steines" />
		<tag k="name:se" v="Geađgenjárga" />
		<tag k="natural" v="cape" />
		<tag k="ssr:stedsnr" v="23207" />
	</node>
	<node lat="70.2134500100207" lon="25.314499772116747" id="-53087">
		<tag k="bay" v="fjord" />
		<tag k="name" v="Roddenjárfávli - Roddenesfjorden - Rottiniemenväylä" />
		<tag k="name:fkv" v="Rottiniemenväylä" />
		<tag k="name:no" v="Roddenesfjorden" />
		<tag k="name:se" v="Roddenjárfávli" />
		<tag k="natural" v="bay" />
		<tag k="ssr:stedsnr" v="23774" />
	</node>
	<node lat="70.10093056414854" lon="24.980547030877585" id="-53088">
		<tag k="name" v="Indre Steinnes" />
		<tag k="name:no" v="Indre Steinnes" />
		<tag k="natural" v="cape" />
		<tag k="ssr:stedsnr" v="23776" />
	</node>
	<node lat="70.39040555767276" lon="25.231697019293314" id="-53102">
		<tag k="name" v="Eretleagiklubbu" />
		<tag k="name:se" v="Eretleagiklubbu" />
		<tag k="natural" v="cape" />
		<tag k="ssr:stedsnr" v="31477" />
	</node>
	<node lat="70.27939167421054" lon="25.11499702294727" id="-53103">
		<tag k="name" v="Skálžoluohgávva" />
		<tag k="name:se" v="Skálžoluohgávva" />
		<tag k="natural" v="bay" />
		<tag k="ssr:stedsnr" v="31794" />
	</node>
	<node lat="70.41743611374847" lon="25.17586646836717" id="-53104">
		<tag k="name" v="Guovegárggu" />
		<tag k="name:se" v="Guovegárggu" />
		<tag k="natural" v="shoal" />
		<tag k="place" v="locality" />
		<tag k="ssr:stedsnr" v="31357" />
	</node>
	<node lat="70.69466389438746" lon="25.876302529101284" id="-53126">
		<tag k="name" v="Langkeilneset" />
		<tag k="name:no" v="Langkeilneset" />
		<tag k="natural" v="cape" />
		<tag k="ssr:stedsnr" v="48450" />
	</node>
	<node lat="70.371258343901" lon="25.465888650876966" id="-53130">
		<tag k="name" v="Skinski - Molvika - Kinskinkoppa" />
		<tag k="name:fkv" v="Kinskinkoppa" />
		<tag k="name:no" v="Molvika" />
		<tag k="name:se" v="Skinski" />
		<tag k="natural" v="bay" />
		<tag k="ssr:stedsnr" v="80407" />
	</node>
	<node lat="70.1904305637153" lon="25.164849807518323" id="-53131">
		<tag k="name" v="Uhca Sáiva - Pikku-Saiva" />
		<tag k="name:fkv" v="Pikku-Saiva" />
		<tag k="name:se" v="Uhca Sáiva" />
		<tag k="place" v="island" />
		<tag k="ssr:stedsnr" v="79135" />
	</node>
	<node lat="70.21995000330976" lon="24.93490814750411" id="-53136">
		<tag k="name" v="Ikkaldasgohppi" />
		<tag k="name:se" v="Ikkaldasgohppi" />
		<tag k="natural" v="bay" />
		<tag k="ssr:stedsnr" v="80028" />
	</node>
	<node lat="70.2488611213018" lon="25.01129147675082" id="-53138">
		<tag k="name" v="Suorbmegohppi" />
		<tag k="name:se" v="Suorbmegohppi" />
		<tag k="natural" v="bay" />
		<tag k="ssr:stedsnr" v="80050" />
	</node>
	<node lat="70.24385000830027" lon="25.130897010920464" id="-53139">
		<tag k="name" v="Miellejátkkis" />
		<tag k="name:se" v="Miellejátkkis" />
		<tag k="place" v="island" />
		<tag k="ssr:stedsnr" v="80055" />
	</node>
	<node lat="70.21936945181642" lon="25.15807478763687" id="-53148">
		<tag k="fixme" v="consider seamark:type=rock or natural=shoal" />
		<tag k="name" v="Mámmalskiipa" />
		<tag k="name:se" v="Mámmalskiipa" />
		<tag k="place" v="islet" />
		<tag k="ssr:stedsnr" v="80087" />
	</node>
	<node lat="70.1135805601799" lon="24.92351924932249" id="-53150">
		<tag k="name" v="Uhca Gáhtir - Pikku-Kattera" />
		<tag k="name:fkv" v="Pikku-Kattera" />
		<tag k="name:se" v="Uhca Gáhtir" />
		<tag k="natural" v="cape" />
		<tag k="ssr:stedsnr" v="80156" />
	</node>
	<node lat="70.15155278579687" lon="24.908541470677115" id="-53151">
		<tag k="name" v="Váldatgohppi" />
		<tag k="name:se" v="Váldatgohppi" />
		<tag k="natural" v="bay" />
		<tag k="ssr:stedsnr" v="80158" />
	</node>
	<node lat="70.14490834325755" lon="25.098563680751102" id="-53152">
		<tag k="name" v="Namahissuolu" />
		<tag k="name:se" v="Namahissuolu" />
		<tag k="place" v="island" />
		<tag k="ssr:stedsnr" v="80174" />
	</node>
	<node lat="70.27603333982353" lon="25.299699772556345" id="-53158">
		<tag k="name" v="Vasis - Reinøya - Vassa" />
		<tag k="name:fkv" v="Vassa" />
		<tag k="name:no" v="Reinøya" />
		<tag k="name:se" v="Vasis" />
		<tag k="place" v="island" />
		<tag k="ssr:stedsnr" v="80296" />
	</node>
	<node lat="70.2949000066786" lon="25.382052542644335" id="-53167">
		<tag k="name" v="Dáktegilvva - Tahtikilva" />
		<tag k="name:fkv" v="Tahtikilva" />
		<tag k="name:se" v="Dáktegilvva" />
		<tag k="place" v="island" />
		<tag k="ssr:stedsnr" v="80463" />
	</node>
	<node lat="70.69772778537975" lon="25.866799742187798" id="-53173">
		<tag k="alt_name:no" v="Kobbervika, l;Lille Kobbervika" />
		<tag k="name" v="Lille Kobbevika" />
		<tag k="name:no" v="Lille Kobbevika" />
		<tag k="natural" v="bay" />
		<tag k="ssr:stedsnr" v="80531" />
	</node>
	<node lat="70.60234167478473" lon="25.95916639765333" id="-53187">
		<tag k="name" v="Skávlenjárga - Måseneset" />
		<tag k="name:no" v="Måseneset" />
		<tag k="name:se" v="Skávlenjárga" />
		<tag k="natural" v="cape" />
		<tag k="old_name:se" v="Skavlenjarga" />
		<tag k="ssr:stedsnr" v="80559" />
	</node>
	<node lat="70.3859194540815" lon="25.219391459451" id="-53193">
		<tag k="fixme" v="consider seamark:type=rock or natural=shoal" />
		<tag k="name" v="Rivgosuolu - Kabelskjæran" />
		<tag k="name:no" v="Kabelskjæran" />
		<tag k="name:se" v="Rivgosuolu" />
		<tag k="place" v="islet" />
		<tag k="ssr:stedsnr" v="81420" />
	</node>
	<node lat="70.65625555914188" lon="25.40457479623774" id="-53204">
		<tag k="alt_name:no" v="Fløtvika" />
		<tag k="name" v="Govdunluokta - Fløytvika" />
		<tag k="name:no" v="Fløytvika" />
		<tag k="name:se" v="Govdunluokta" />
		<tag k="natural" v="bay" />
		<tag k="old_name:se" v="Gåvdonluokta" />
		<tag k="ssr:stedsnr" v="81000" />
	</node>
	<node lat="70.62939722637398" lon="25.346430344583048" id="-53207">
		<tag k="name" v="Sittarvuotna - Skarvbergvika" />
		<tag k="name:no" v="Skarvbergvika" />
		<tag k="name:se" v="Sittarvuotna" />
		<tag k="natural" v="bay" />
		<tag k="old_name:se" v="Siddarvuodna" />
		<tag k="ssr:stedsnr" v="80975" />
	</node>
	<node lat="70.26711945083434" lon="25.07913869666891" id="-53212">
		<tag k="name" v="Orkkanluokta" />
		<tag k="name:se" v="Orkkanluokta" />
		<tag k="natural" v="bay" />
		<tag k="ssr:stedsnr" v="81449" />
	</node>
	<node lat="70.4576638937026" lon="25.230822032308122" id="-53214">
		<tag k="name" v="Girkonjárga" />
		<tag k="name:se" v="Girkonjárga" />
		<tag k="natural" v="cape" />
		<tag k="ssr:stedsnr" v="81464" />
	</node>
	<node lat="70.29885000222718" lon="25.291119236480487" id="-53215">
		<tag k="fixme" v="consider seamark:type=rock or natural=shoal" />
		<tag k="name" v="Skárfalásis - Skarvskjæret - Skarfalaassa" />
		<tag k="name:fkv" v="Skarfalaassa" />
		<tag k="name:no" v="Skarvskjæret" />
		<tag k="name:se" v="Skárfalásis" />
		<tag k="place" v="islet" />
		<tag k="ssr:stedsnr" v="81471" />
	</node>
	<node lat="70.31039167223787" lon="25.468891426319743" id="-53217">
		<tag k="loc_name:se" v="Heašnjárga" />
		<tag k="name" v="Heastanjárga - Hestnes - Hesteniemi" />
		<tag k="name:fkv" v="Hesteniemi" />
		<tag k="name:no" v="Hestnes" />
		<tag k="name:se" v="Heastanjárga" />
		<tag k="natural" v="cape" />
		<tag k="ssr:stedsnr" v="81477" />
	</node>
	<node lat="70.3437833424585" lon="25.121833152060866" id="-53239">
		<tag k="name" v="Olggut Billásuolu" />
		<tag k="name:se" v="Olggut Billásuolu" />
		<tag k="place" v="islet" />
		<tag k="ssr:stedsnr" v="81955" />
	</node>
	<node lat="70.30003334075201" lon="25.42026365686618" id="-53242">
		<tag k="name" v="Kjesundet" />
		<tag k="name:no" v="Kjesundet" />
		<tag k="natural" v="strait" />
		<tag k="ssr:stedsnr" v="85450" />
	</node>
	<node lat="70.43314167779506" lon="25.192633129029446" id="-53255">
		<tag k="name" v="Boanddanjunni" />
		<tag k="name:se" v="Boanddanjunni" />
		<tag k="natural" v="cape" />
		<tag k="ssr:stedsnr" v="92388" />
	</node>
	<node lat="70.39155834101625" lon="25.540952550422844" id="-53265">
		<tag k="name" v="Laajinniemi" />
		<tag k="name:fkv" v="Laajinniemi" />
		<tag k="natural" v="cape" />
		<tag k="ssr:stedsnr" v="92562" />
	</node>
	<node lat="70.34886944798009" lon="25.09103315120033" id="-53269">
		<tag k="name" v="Vinterhamn" />
		<tag k="name:no" v="Vinterhamn" />
		<tag k="natural" v="bay" />
		<tag k="ssr:stedsnr" v="92992" />
	</node>
	<node lat="70.48139445411664" lon="25.133372026354706" id="-53278">
		<tag k="name" v="Ryggen" />
		<tag k="name:no" v="Ryggen" />
		<tag k="natural" v="shoal" />
		<tag k="place" v="locality" />
		<tag k="ssr:stedsnr" v="110633" />
	</node>
	<node lat="70.23497778062432" lon="25.019324807733998" id="-53286">
		<tag k="name" v="Njuorjjoluohgohppi" />
		<tag k="name:se" v="Njuorjjoluohgohppi" />
		<tag k="natural" v="bay" />
		<tag k="ssr:stedsnr" v="140032" />
	</node>
	<node lat="70.22951944894275" lon="25.0085220219607" id="-53287">
		<tag k="name" v="Olggut Áhkansuolu - Akkansaari" />
		<tag k="name:fkv" v="Akkansaari" />
		<tag k="name:se" v="Olggut Áhkansuolu" />
		<tag k="place" v="island" />
		<tag k="ssr:stedsnr" v="140034" />
	</node>
	<node lat="70.14753333882295" lon="24.995130349213255" id="-53289">
		<tag k="name" v="Uhca Reaššet" />
		<tag k="name:se" v="Uhca Reaššet" />
		<tag k="place" v="islet" />
		<tag k="ssr:stedsnr" v="140130" />
	</node>
	<node lat="70.0756527820783" lon="25.168113669128036" id="-53290">
		<tag k="alt_name:fkv" v="Halkokuoppa" />
		<tag k="name" v="Hansbukta - Halkokoppa" />
		<tag k="name:fkv" v="Halkokoppa" />
		<tag k="name:no" v="Hansbukta" />
		<tag k="natural" v="bay" />
		<tag k="ssr:stedsnr" v="140208" />
	</node>
	<node lat="70.19735833930419" lon="25.144744226352273" id="-53294">
		<tag k="name" v="Stuorra Sáiva - Saiva" />
		<tag k="name:fkv" v="Saiva" />
		<tag k="name:se" v="Stuorra Sáiva" />
		<tag k="place" v="island" />
		<tag k="ssr:stedsnr" v="140067" />
	</node>
	<node lat="70.22119167018583" lon="25.209110888755216" id="-53296">
		<tag k="name" v="Siskkit Daŋas" />
		<tag k="name:se" v="Siskkit Daŋas" />
		<tag k="place" v="islet" />
		<tag k="ssr:stedsnr" v="140072" />
	</node>
	<node lat="70.21879167383918" lon="24.937808160956934" id="-53297">
		<tag k="name" v="Ikkaldasnjárga" />
		<tag k="name:se" v="Ikkaldasnjárga" />
		<tag k="natural" v="cape" />
		<tag k="ssr:stedsnr" v="140074" />
	</node>
	<node lat="70.10365278741207" lon="25.15359423322994" id="-53302">
		<tag k="name" v="Soggovuotna - Østerbotn - Sokkuvuono" />
		<tag k="name:fkv" v="Sokkuvuono" />
		<tag k="name:no" v="Østerbotn" />
		<tag k="name:se" v="Soggovuotna" />
		<tag k="natural" v="bay" />
		<tag k="ssr:stedsnr" v="140160" />
	</node>
	<node lat="70.1073055634" lon="25.19888866443535" id="-53303">
		<tag k="name" v="Ánnebeazá - Karko" />
		<tag k="name:fkv" v="Karko" />
		<tag k="name:se" v="Ánnebeazá" />
		<tag k="place" v="islet" />
		<tag k="ssr:stedsnr" v="140162" />
	</node>
	<node lat="70.09793055742158" lon="24.92079982000993" id="-53305">
		<tag k="name" v="Buvdagohppi - Bjørnnesbukta - Puođinkoppa" />
		<tag k="name:fkv" v="Puođinkoppa" />
		<tag k="name:no" v="Bjørnnesbukta" />
		<tag k="name:se" v="Buvdagohppi" />
		<tag k="natural" v="bay" />
		<tag k="ssr:stedsnr" v="140175" />
	</node>
	<node lat="70.06551389718007" lon="25.131613691679945" id="-53306">
		<tag k="fixme" v="multiple name tags, choose one and add the other to alt_name" />
		<tag k="name" v="Hálgogohppi - Halkokoppa;Halkomukka" />
		<tag k="name:fkv" v="Halkokoppa;Halkomukka" />
		<tag k="name:se" v="Hálgogohppi" />
		<tag k="natural" v="bay" />
		<tag k="ssr:stedsnr" v="140180" />
	</node>
	<node lat="70.06840555823541" lon="25.155410906103345" id="-53307">
		<tag k="name" v="Karenbukta" />
		<tag k="name:no" v="Karenbukta" />
		<tag k="natural" v="bay" />
		<tag k="ssr:stedsnr" v="140182" />
	</node>
	<node lat="70.24448334389402" lon="25.293844229474946" id="-53314">
		<tag k="name" v="Ráhkku" />
		<tag k="name:se" v="Ráhkku" />
		<tag k="place" v="islet" />
		<tag k="ssr:stedsnr" v="140300" />
	</node>
	<node lat="70.11301111623506" lon="25.23339421943562" id="-53317">
		<tag k="name" v="Ánnebeazánjárga - Annipietsanniemi" />
		<tag k="name:fkv" v="Annipietsanniemi" />
		<tag k="name:se" v="Ánnebeazánjárga" />
		<tag k="natural" v="cape" />
		<tag k="ssr:stedsnr" v="140340" />
	</node>
	<node lat="70.28350834359617" lon="25.50238866764699" id="-53322">
		<tag k="name" v="Suvrragohppi - Surbukt - Syyrykoppa" />
		<tag k="name:fkv" v="Syyrykoppa" />
		<tag k="name:no" v="Surbukt" />
		<tag k="name:se" v="Suvrragohppi" />
		<tag k="natural" v="bay" />
		<tag k="ssr:stedsnr" v="140447" />
	</node>
	<node lat="70.29357222683522" lon="25.408385872844008" id="-53329">
		<tag k="fixme" v="multiple name tags, choose one and add the other to alt_name" />
		<tag k="name" v="Dáktegilvvanuorri;Coagalmasnuorri - Suokalmannuora" />
		<tag k="name:fkv" v="Suokalmannuora" />
		<tag k="name:se" v="Dáktegilvvanuorri;Coagalmasnuorri" />
		<tag k="natural" v="strait" />
		<tag k="ssr:stedsnr" v="140455" />
	</node>
	<node lat="70.50110000178206" lon="25.06960536827004" id="-53349">
		<tag k="alt_name:no" v="Nordeide" />
		<tag k="name" v="Nordeidet" />
		<tag k="name:no" v="Nordeidet" />
		<tag k="place" v="locality" />
		<tag k="ssr:stedsnr" v="140964" />
	</node>
	<node lat="70.58922778599802" lon="25.252247036598394" id="-53351">
		<tag k="name" v="Siidaváhki" />
		<tag k="name:se" v="Siidaváhki" />
		<tag k="natural" v="bay" />
		<tag k="old_name:se" v="Siidavakki" />
		<tag k="ssr:stedsnr" v="140973" />
	</node>
	<node lat="70.5239027833694" lon="25.106672044438955" id="-53353">
		<tag k="name" v="Guoskatnjárga - Neset" />
		<tag k="name:no" v="Neset" />
		<tag k="name:se" v="Guoskatnjárga" />
		<tag k="natural" v="cape" />
		<tag k="old_name:se" v="Guoskatnjarga" />
		<tag k="ssr:stedsnr" v="141905" />
	</node>
	<node lat="70.39231944874165" lon="25.239638693695184" id="-53359">
		<tag k="name" v="Skinskeklubbu" />
		<tag k="name:se" v="Skinskeklubbu" />
		<tag k="natural" v="cape" />
		<tag k="ssr:stedsnr" v="141419" />
	</node>
	<node lat="70.4716083437116" lon="25.654149757675317" id="-53361">
		<tag k="name" v="Duostingohppi - Lystervika - Tuostinkoppa" />
		<tag k="name:fkv" v="Tuostinkoppa" />
		<tag k="name:no" v="Lystervika" />
		<tag k="name:se" v="Duostingohppi" />
		<tag k="natural" v="bay" />
		<tag k="ssr:stedsnr" v="141447" />
	</node>
	<node lat="70.2434083406765" lon="25.25899146341727" id="-53370">
		<tag k="name" v="Gumpenjárga" />
		<tag k="name:se" v="Gumpenjárga" />
		<tag k="natural" v="cape" />
		<tag k="ssr:stedsnr" v="141749" />
	</node>
	<node lat="70.32155833899952" lon="25.181791473210474" id="-53378">
		<tag k="name" v="Cuopponjárga" />
		<tag k="name:se" v="Cuopponjárga" />
		<tag k="natural" v="cape" />
		<tag k="ssr:stedsnr" v="142614" />
	</node>
	<node lat="70.4884305649623" lon="25.663641415394952" id="-53383">
		<tag k="name" v="Láttat" />
		<tag k="name:se" v="Láttat" />
		<tag k="natural" v="cape" />
		<tag k="ssr:stedsnr" v="144908" />
	</node>
	<node lat="70.39531667450022" lon="25.493449768875003" id="-53384">
		<tag k="name" v="Skadjanjárga - Kajaniemi" />
		<tag k="name:fkv" v="Kajaniemi" />
		<tag k="name:se" v="Skadjanjárga" />
		<tag k="natural" v="cape" />
		<tag k="ssr:stedsnr" v="144931" />
	</node>
	<node lat="70.19872778537638" lon="25.212277556580055" id="-53385">
		<tag k="fixme" v="consider seamark:type=rock or natural=shoal" />
		<tag k="name" v="Skitskjær" />
		<tag k="name:no" v="Skitskjær" />
		<tag k="place" v="islet" />
		<tag k="ssr:stedsnr" v="145639" />
	</node>
	<node lat="70.43851111367266" lon="25.612935877539627" id="-53386">
		<tag k="name" v="Livvanjárga" />
		<tag k="name:se" v="Livvanjárga" />
		<tag k="natural" v="cape" />
		<tag k="ssr:stedsnr" v="145935" />
	</node>
	<node lat="70.43086667123718" lon="25.385105326428278" id="-53388">
		<tag k="name" v="Storegrunnen" />
		<tag k="name:no" v="Storegrunnen" />
		<tag k="natural" v="shoal" />
		<tag k="place" v="locality" />
		<tag k="ssr:stedsnr" v="146267" />
	</node>
	<node lat="70.37760278471816" lon="25.175285915115587" id="-53389">
		<tag k="alt_name:no" v="Skarvskjærgrunnene" />
		<tag k="name" v="Skarvskjærgrunnan" />
		<tag k="name:no" v="Skarvskjærgrunnan" />
		<tag k="natural" v="shoal" />
		<tag k="place" v="locality" />
		<tag k="ssr:stedsnr" v="146251" />
	</node>
	<node lat="70.45676111737141" lon="25.615121990383955" id="-53391">
		<tag k="name" v="Biesaidlásis" />
		<tag k="name:se" v="Biesaidlásis" />
		<tag k="natural" v="cape" />
		<tag k="ssr:stedsnr" v="147893" />
	</node>
	<node lat="70.32586111653315" lon="25.386738659213233" id="-53416">
		<tag k="name" v="Kotakoppa" />
		<tag k="name:fkv" v="Kotakoppa" />
		<tag k="natural" v="bay" />
		<tag k="ssr:stedsnr" v="152647" />
	</node>
	<node lat="70.60941389912529" lon="25.986558061106784" id="-53436">
		<tag k="name" v="Davvenjárga" />
		<tag k="name:se" v="Davvenjárga" />
		<tag k="natural" v="cape" />
		<tag k="ssr:stedsnr" v="167063" />
	</node>
	<node lat="70.56623889430887" lon="25.84958584787806" id="-53437">
		<tag k="name" v="Civatgohppi" />
		<tag k="name:se" v="Civatgohppi" />
		<tag k="natural" v="bay" />
		<tag k="ssr:stedsnr" v="167030" />
	</node>
	<node lat="70.08765833609958" lon="25.080274799165384" id="-53440">
		<tag k="name" v="Aapomukka" />
		<tag k="name:fkv" v="Aapomukka" />
		<tag k="natural" v="bay" />
		<tag k="ssr:stedsnr" v="273010" />
	</node>
	<node lat="70.17300834016054" lon="25.13510258601421" id="-53445">
		<tag k="name" v="Sállansuolu - Sallansaari" />
		<tag k="name:fkv" v="Sallansaari" />
		<tag k="name:se" v="Sállansuolu" />
		<tag k="place" v="islet" />
		<tag k="ssr:stedsnr" v="201092" />
	</node>
	<node lat="70.10978333805583" lon="25.10862480423501" id="-53446">
		<tag k="name" v="Gahpirsuolu - Hattholmen - Hattusaari" />
		<tag k="name:fkv" v="Hattusaari" />
		<tag k="name:no" v="Hattholmen" />
		<tag k="name:se" v="Gahpirsuolu" />
		<tag k="place" v="islet" />
		<tag k="ssr:stedsnr" v="201163" />
	</node>
	<node lat="70.15366389158619" lon="25.028791462498287" id="-53454">
		<tag k="name" v="Reaššetnjárga - Ressikänniemi" />
		<tag k="name:fkv" v="Ressikänniemi" />
		<tag k="name:se" v="Reaššetnjárga" />
		<tag k="natural" v="cape" />
		<tag k="ssr:stedsnr" v="201126" />
	</node>
	<node lat="70.1464750058438" lon="25.114483135840953" id="-53455">
		<tag k="name" v="Riimmaidnjárga - Rimaneset - Riimaniemi" />
		<tag k="name:fkv" v="Riimaniemi" />
		<tag k="name:no" v="Rimaneset" />
		<tag k="name:se" v="Riimmaidnjárga" />
		<tag k="natural" v="cape" />
		<tag k="ssr:stedsnr" v="201133" />
	</node>
	<node lat="70.14991111637372" lon="25.162752554480463" id="-53456">
		<tag k="name" v="Earteskárku - Erttiskarkku" />
		<tag k="name:fkv" v="Erttiskarkku" />
		<tag k="name:se" v="Earteskárku" />
		<tag k="place" v="islet" />
		<tag k="ssr:stedsnr" v="201138" />
	</node>
	<node lat="70.06774444707223" lon="25.010644243110992" id="-53457">
		<tag k="bay" v="fjord" />
		<tag k="name" v="Lavttevuotna - Brennelvfjorden - Lohtivuono" />
		<tag k="name:fkv" v="Lohtivuono" />
		<tag k="name:no" v="Brennelvfjorden" />
		<tag k="name:se" v="Lavttevuotna" />
		<tag k="natural" v="bay" />
		<tag k="ssr:stedsnr" v="201191" />
	</node>
	<node lat="70.1306388968944" lon="25.247644228146985" id="-53466">
		<tag k="name" v="Guovžanjárgohppi - Bjørnnesbukta - Karhuniemenkoppa" />
		<tag k="name:fkv" v="Karhuniemenkoppa" />
		<tag k="name:no" v="Bjørnnesbukta" />
		<tag k="name:se" v="Guovžanjárgohppi" />
		<tag k="natural" v="bay" />
		<tag k="ssr:stedsnr" v="201303" />
	</node>
	<node lat="70.22870833685755" lon="25.40313031821904" id="-53477">
		<tag k="name" v="Čáhppilgohppi - Sappirjoensuu" />
		<tag k="name:fkv" v="Sappirjoensuu" />
		<tag k="name:se" v="Čáhppilgohppi" />
		<tag k="natural" v="bay" />
		<tag k="ssr:stedsnr" v="201273" />
	</node>
	<node lat="70.18918611764146" lon="25.301408123122823" id="-53478">
		<tag k="fixme" v="multiple name tags, choose one and add the other to alt_name" />
		<tag k="name" v="Roddenjárga - Roddenes;Roddenes2 - Rottiniemi" />
		<tag k="name:fkv" v="Rottiniemi" />
		<tag k="name:no" v="Roddenes;Roddenes2" />
		<tag k="name:se" v="Roddenjárga" />
		<tag k="natural" v="cape" />
		<tag k="ssr:stedsnr" v="201280" />
	</node>
	<node lat="70.27501945421155" lon="25.253291445527672" id="-53487">
		<tag k="name" v="Veasta-Gáđešnjárga - Västa-Kaalisenniemi" />
		<tag k="name:fkv" v="Västa-Kaalisenniemi" />
		<tag k="name:se" v="Veasta-Gáđešnjárga" />
		<tag k="natural" v="cape" />
		<tag k="ssr:stedsnr" v="201432" />
	</node>
	<node lat="70.48370278403365" lon="25.073805359824295" id="-53493">
		<tag k="fixme" v="multiple name tags, choose one and add the other to alt_name" />
		<tag k="name" v="Ruoššanjárga - Russenes;Neset - Ryssäniemi" />
		<tag k="name:fkv" v="Ryssäniemi" />
		<tag k="name:no" v="Russenes;Neset" />
		<tag k="name:se" v="Ruoššanjárga" />
		<tag k="natural" v="cape" />
		<tag k="ssr:stedsnr" v="201664" />
	</node>
	<node lat="70.40074445423899" lon="25.241752580998543" id="-53506">
		<tag k="name" v="Coagesváhki - Grunnvågen" />
		<tag k="name:no" v="Grunnvågen" />
		<tag k="name:se" v="Coagesváhki" />
		<tag k="natural" v="bay" />
		<tag k="ssr:stedsnr" v="202380" />
	</node>
	<node lat="70.40449167177407" lon="25.306277578868688" id="-53507">
		<tag k="fixme" v="consider seamark:type=rock or natural=shoal" />
		<tag k="name" v="Skárfalásis - Skarvskjæret" />
		<tag k="name:no" v="Skarvskjæret" />
		<tag k="name:se" v="Skárfalásis" />
		<tag k="place" v="islet" />
		<tag k="ssr:stedsnr" v="202384" />
	</node>
	<node lat="70.40611944988733" lon="25.245099805080542" id="-53508">
		<tag k="name" v="Rinjárga - Veineset - Riiniemi" />
		<tag k="name:fkv" v="Riiniemi" />
		<tag k="name:no" v="Veineset" />
		<tag k="name:se" v="Rinjárga" />
		<tag k="natural" v="cape" />
		<tag k="ssr:stedsnr" v="202385" />
	</node>
	<node lat="70.34365834099867" lon="25.433241448861477" id="-53511">
		<tag k="name" v="Oarjegohppi - Indre Kjerringvik - Orjankoppa" />
		<tag k="name:fkv" v="Orjankoppa" />
		<tag k="name:no" v="Indre Kjerringvik" />
		<tag k="name:se" v="Oarjegohppi" />
		<tag k="natural" v="bay" />
		<tag k="ssr:stedsnr" v="202480" />
	</node>
	<node lat="70.47484167584383" lon="25.25451646113686" id="-53518">
		<tag k="name" v="Cáhkannuorri" />
		<tag k="name:se" v="Cáhkannuorri" />
		<tag k="natural" v="strait" />
		<tag k="ssr:stedsnr" v="202435" />
	</node>
	<node lat="70.46980000500353" lon="25.26255257807412" id="-53519">
		<tag k="name" v="Nuorrenjárga" />
		<tag k="name:se" v="Nuorrenjárga" />
		<tag k="natural" v="cape" />
		<tag k="ssr:stedsnr" v="202437" />
	</node>
	<node lat="70.53444167342678" lon="25.239922023990637" id="-53523">
		<tag k="name" v="Knivgrunnen" />
		<tag k="name:no" v="Knivgrunnen" />
		<tag k="natural" v="shoal" />
		<tag k="place" v="locality" />
		<tag k="ssr:stedsnr" v="202533" />
	</node>
	<node lat="70.42074167271036" lon="25.214113679389108" id="-53525">
		<tag k="name" v="Láppessuolu" />
		<tag k="name:se" v="Láppessuolu" />
		<tag k="place" v="islet" />
		<tag k="ssr:stedsnr" v="202536" />
	</node>
	<node lat="70.34106667036619" lon="25.119416464501494" id="-53550">
		<tag k="name" v="Siskkit Billásuolu" />
		<tag k="name:se" v="Siskkit Billásuolu" />
		<tag k="place" v="islet" />
		<tag k="ssr:stedsnr" v="203967" />
	</node>
	<node lat="70.38458333830688" lon="25.405183105907966" id="-53551">
		<tag k="name" v="Østre Mađa" />
		<tag k="name:no" v="Østre Mađa" />
		<tag k="natural" v="shoal" />
		<tag k="place" v="locality" />
		<tag k="ssr:stedsnr" v="206441" />
	</node>
	<node lat="70.45819722605752" lon="25.627080323656344" id="-53555">
		<tag k="name" v="Buksanjárga" />
		<tag k="name:se" v="Buksanjárga" />
		<tag k="natural" v="cape" />
		<tag k="ssr:stedsnr" v="209917" />
	</node>
	<node lat="70.50708333705123" lon="25.723116427915695" id="-53556">
		<tag k="name" v="Lássanjárga" />
		<tag k="name:se" v="Lássanjárga" />
		<tag k="natural" v="cape" />
		<tag k="ssr:stedsnr" v="212305" />
	</node>
	<node lat="70.16033334091426" lon="24.943710914789932" id="-53572">
		<tag k="name" v="Gárggu" />
		<tag k="name:se" v="Gárggu" />
		<tag k="natural" v="shoal" />
		<tag k="place" v="locality" />
		<tag k="ssr:stedsnr" v="214145" />
	</node>
	<node lat="70.20790556364837" lon="25.37795532972338" id="-53575">
		<tag k="name" v="Flintnes" />
		<tag k="name:no" v="Flintnes" />
		<tag k="natural" v="cape" />
		<tag k="ssr:stedsnr" v="214771" />
	</node>
	<node lat="70.20282500208435" lon="24.91811649012317" id="-53576">
		<tag k="name" v="Beaŋka" />
		<tag k="name:se" v="Beaŋka" />
		<tag k="natural" v="bay" />
		<tag k="ssr:stedsnr" v="214865" />
	</node>
	<node lat="70.39939445263211" lon="25.517574764489087" id="-53593">
		<tag k="fixme" v="consider seamark:type=rock or natural=shoal" />
		<tag k="name" v="Ramforlaasa" />
		<tag k="name:fkv" v="Ramforlaasa" />
		<tag k="place" v="islet" />
		<tag k="ssr:stedsnr" v="274525" />
	</node>
	<node lat="70.52095277895205" lon="25.236710915644316" id="-53604">
		<tag k="name" v="Ytre Bringneset" />
		<tag k="name:no" v="Ytre Bringneset" />
		<tag k="natural" v="cape" />
		<tag k="ssr:stedsnr" v="291609" />
	</node>
	<node lat="70.23077778291328" lon="25.068816473080073" id="-53610">
		<tag k="name" v="Eartejátkkis" />
		<tag k="name:se" v="Eartejátkkis" />
		<tag k="place" v="islet" />
		<tag k="ssr:stedsnr" v="322048" />
	</node>
	<node lat="70.19111389804884" lon="24.98256091489505" id="-53616">
		<tag k="name" v="Gáranasálat - Kråkholman" />
		<tag k="name:no" v="Kråkholman" />
		<tag k="name:se" v="Gáranasálat" />
		<tag k="place" v="islet" />
		<tag k="ssr:stedsnr" v="322108" />
	</node>
	<node lat="70.14160833528229" lon="25.07331647354669" id="-53617">
		<tag k="name" v="Langbukta - Pitkäkoppa" />
		<tag k="name:fkv" v="Pitkäkoppa" />
		<tag k="name:no" v="Langbukta" />
		<tag k="natural" v="bay" />
		<tag k="ssr:stedsnr" v="322112" />
	</node>
	<node lat="70.14876666870668" lon="25.053988687639617" id="-53618">
		<tag k="name" v="Leaibbašmuotkkegohppi - Oldereidbukta - Leipäsenmuotkankoppa" />
		<tag k="name:fkv" v="Leipäsenmuotkankoppa" />
		<tag k="name:no" v="Oldereidbukta" />
		<tag k="name:se" v="Leaibbašmuotkkegohppi" />
		<tag k="natural" v="bay" />
		<tag k="ssr:stedsnr" v="322119" />
	</node>
	<node lat="70.41066666868632" lon="25.243663689817357" id="-53637">
		<tag k="name" v="Dábbenjárga - Stabbeneset" />
		<tag k="name:no" v="Stabbeneset" />
		<tag k="name:se" v="Dábbenjárga" />
		<tag k="natural" v="cape" />
		<tag k="ssr:stedsnr" v="323392" />
	</node>
	<node lat="70.21380000203577" lon="25.025585917339995" id="-53642">
		<tag k="fixme" v="consider seamark:type=rock or natural=shoal" />
		<tag k="name" v="Iŋgirlásis" />
		<tag k="name:se" v="Iŋgirlásis" />
		<tag k="place" v="islet" />
		<tag k="ssr:stedsnr" v="323093" />
	</node>
	<node lat="70.11888334124455" lon="24.919510926431368" id="-53644">
		<tag k="name" v="Njirran" />
		<tag k="name:se" v="Njirran" />
		<tag k="natural" v="cape" />
		<tag k="ssr:stedsnr" v="323159" />
	</node>
	<node lat="70.12064445008393" lon="24.93544426269212" id="-53645">
		<tag k="name" v="Stuorra Gáhtir - Iso-Kattera" />
		<tag k="name:fkv" v="Iso-Kattera" />
		<tag k="name:se" v="Stuorra Gáhtir" />
		<tag k="place" v="islet" />
		<tag k="ssr:stedsnr" v="323160" />
	</node>
	<node lat="70.53021945230033" lon="25.78019140533299" id="-53658">
		<tag k="name" v="Diksogohppi - Hysebukta" />
		<tag k="name:no" v="Hysebukta" />
		<tag k="name:se" v="Diksogohppi" />
		<tag k="natural" v="bay" />
		<tag k="ssr:stedsnr" v="323529" />
	</node>
	<node lat="70.3422035534884" lon="25.118212150009473" id="-53663">
		<tag k="loc_name:no" v="Billaholmen" />
		<tag k="name" v="Billásullot - Pillasaari" />
		<tag k="name:fkv" v="Pillasaari" />
		<tag k="name:se" v="Billásullot" />
		<tag k="place" v="islet" />
		<tag k="ssr:stedsnr" v="323545" />
	</node>
	<node lat="70.36596111775495" lon="25.08524981373365" id="-53666">
		<tag k="name" v="Fanasnjárga - Båtneset - Venetniemi" />
		<tag k="name:fkv" v="Venetniemi" />
		<tag k="name:no" v="Båtneset" />
		<tag k="name:se" v="Fanasnjárga" />
		<tag k="natural" v="cape" />
		<tag k="ssr:stedsnr" v="323562" />
	</node>
	<node lat="70.38982500770278" lon="25.525010885451913" id="-53672">
		<tag k="name" v="Gáicanjárga - Suviniemi" />
		<tag k="name:fkv" v="Suviniemi" />
		<tag k="name:se" v="Gáicanjárga" />
		<tag k="natural" v="cape" />
		<tag k="ssr:stedsnr" v="323399" />
	</node>
	<node lat="70.69264166876908" lon="25.78096920920771" id="-53696">
		<tag k="name" v="Hellemolabergan" />
		<tag k="name:no" v="Hellemolabergan" />
		<tag k="natural" v="beach" />
		<tag k="ssr:stedsnr" v="323987" />
	</node>
	<node lat="70.2887972308676" lon="25.152535899564732" id="-53700">
		<tag k="name" v="Olggut Badjeolbmuidnjárga" />
		<tag k="name:se" v="Olggut Badjeolbmuidnjárga" />
		<tag k="natural" v="cape" />
		<tag k="ssr:stedsnr" v="324544" />
	</node>
	<node lat="70.30270278037332" lon="25.204205341474548" id="-53704">
		<tag k="name" v="Siskkit Báiskenjárga" />
		<tag k="name:se" v="Siskkit Báiskenjárga" />
		<tag k="natural" v="cape" />
		<tag k="ssr:stedsnr" v="324680" />
	</node>
	<node lat="70.47663055911886" lon="25.165216466633815" id="-53705">
		<tag k="name" v="Vilgesluokta - Kvitvika" />
		<tag k="name:no" v="Kvitvika" />
		<tag k="name:se" v="Vilgesluokta" />
		<tag k="natural" v="bay" />
		<tag k="ssr:stedsnr" v="324805" />
	</node>
	<node lat="70.28046111412661" lon="25.117869236003536" id="-53706">
		<tag k="fixme" v="multiple name tags, choose one and add the other to alt_name" />
		<tag k="name" v="Gutnarnjárga;Dimbbarnjárga" />
		<tag k="name:se" v="Gutnarnjárga;Dimbbarnjárga" />
		<tag k="natural" v="cape" />
		<tag k="ssr:stedsnr" v="324710" />
	</node>
	<node lat="70.41406945138364" lon="25.326008116194565" id="-53711">
		<tag k="name" v="Fugleberggrunnen" />
		<tag k="name:no" v="Fugleberggrunnen" />
		<tag k="natural" v="shoal" />
		<tag k="place" v="locality" />
		<tag k="ssr:stedsnr" v="328229" />
	</node>
	<node lat="70.44093334408993" lon="25.56571087334151" id="-53712">
		<tag k="name" v="Leirpollgrunnen" />
		<tag k="name:no" v="Leirpollgrunnen" />
		<tag k="natural" v="shoal" />
		<tag k="place" v="locality" />
		<tag k="ssr:stedsnr" v="328253" />
	</node>
	<node lat="70.27136667065693" lon="25.482869199450192" id="-53724">
		<tag k="fixme" v="consider seamark:type=rock or natural=shoal" />
		<tag k="name" v="Liigajohlássát - Liikajoenlassat" />
		<tag k="name:fkv" v="Liikajoenlassat" />
		<tag k="name:se" v="Liigajohlássát" />
		<tag k="place" v="islet" />
		<tag k="ssr:stedsnr" v="335271" />
	</node>
	<node lat="70.55670278142622" lon="25.82936918663342" id="-53744">
		<tag k="name" v="Løypningsneset" />
		<tag k="name:no" v="Løypningsneset" />
		<tag k="natural" v="cape" />
		<tag k="ssr:stedsnr" v="351385" />
	</node>
	<node lat="70.15590278434203" lon="25.153508137427277" id="-53754">
		<tag k="fixme" v="consider seamark:type=rock or natural=shoal" />
		<tag k="name" v="Veahčirlásis" />
		<tag k="name:se" v="Veahčirlásis" />
		<tag k="place" v="islet" />
		<tag k="ssr:stedsnr" v="383139" />
	</node>
	<node lat="70.20928889003831" lon="25.00233592919872" id="-53755">
		<tag k="name" v="Siskkit Áhkansuolu" />
		<tag k="name:se" v="Siskkit Áhkansuolu" />
		<tag k="place" v="island" />
		<tag k="ssr:stedsnr" v="383084" />
	</node>
	<node lat="70.21839167411117" lon="25.04139980925369" id="-53756">
		<tag k="name" v="Játkánuorri" />
		<tag k="name:se" v="Játkánuorri" />
		<tag k="natural" v="strait" />
		<tag k="ssr:stedsnr" v="383091" />
	</node>
	<node lat="70.21808889170998" lon="25.068902567994517" id="-53757">
		<tag k="name" v="Geahčejátkkis" />
		<tag k="name:se" v="Geahčejátkkis" />
		<tag k="place" v="islet" />
		<tag k="ssr:stedsnr" v="383092" />
	</node>
	<node lat="70.09526666950259" lon="25.078049800755394" id="-53761">
		<tag k="name" v="Nánnegeasán" />
		<tag k="name:se" v="Nánnegeasán" />
		<tag k="natural" v="bay" />
		<tag k="ssr:stedsnr" v="383178" />
	</node>
	<node lat="70.55933611628357" lon="25.934035834448192" id="-53778">
		<tag k="name" v="Spierttanjárga - Sværholthalvøya" />
		<tag k="name:no" v="Sværholthalvøya" />
		<tag k="name:se" v="Spierttanjárga" />
		<tag k="natural" v="cape" />
		<tag k="old_name:se" v="Spiertanjarga" />
		<tag k="ssr:stedsnr" v="383525" />
	</node>
	<node lat="70.52848611703642" lon="25.773985869212932" id="-53780">
		<tag k="name" v="Diksonjárga - Hyseneset" />
		<tag k="name:no" v="Hyseneset" />
		<tag k="name:se" v="Diksonjárga" />
		<tag k="natural" v="cape" />
		<tag k="ssr:stedsnr" v="383535" />
	</node>
	<node lat="70.26707500273947" lon="25.253741464881212" id="-53788">
		<tag k="name" v="Roggeluovttat" />
		<tag k="name:se" v="Roggeluovttat" />
		<tag k="natural" v="bay" />
		<tag k="ssr:stedsnr" v="383483" />
	</node>
	<node lat="70.28628055974626" lon="25.413730337505914" id="-53790">
		<tag k="name" v="Miellesuolu - Mellasaari" />
		<tag k="name:fkv" v="Mellasaari" />
		<tag k="name:se" v="Miellesuolu" />
		<tag k="place" v="islet" />
		<tag k="ssr:stedsnr" v="383487" />
	</node>
	<node lat="70.64506667371676" lon="25.368302585392865" id="-53809">
		<tag k="name" v="Siskkit Čáhceváhki - Indre Sortvik" />
		<tag k="name:no" v="Indre Sortvik" />
		<tag k="name:se" v="Siskkit Čáhceváhki" />
		<tag k="natural" v="bay" />
		<tag k="old_name:se" v="Čaccevakki siskit" />
		<tag k="ssr:stedsnr" v="383980" />
	</node>
	<node lat="70.35545278315456" lon="25.11198593018324" id="-53817">
		<tag k="name" v="Coagannuorri" />
		<tag k="name:se" v="Coagannuorri" />
		<tag k="natural" v="strait" />
		<tag k="ssr:stedsnr" v="384538" />
	</node>
	<node lat="70.35654723064063" lon="25.069705354518106" id="-53826">
		<tag k="name" v="Skjæret" />
		<tag k="name:no" v="Skjæret" />
		<tag k="natural" v="shoal" />
		<tag k="place" v="locality" />
		<tag k="ssr:stedsnr" v="387484" />
	</node>
	<node lat="70.42363889767941" lon="25.35529145437558" id="-53831">
		<tag k="name" v="Auskarholmgrunnen" />
		<tag k="name:no" v="Auskarholmgrunnen" />
		<tag k="natural" v="shoal" />
		<tag k="place" v="locality" />
		<tag k="ssr:stedsnr" v="389314" />
	</node>
	<node lat="70.4515444515426" lon="25.293222017284396" id="-53832">
		<tag k="name" v="Salomonsgrunnen" />
		<tag k="name:no" v="Salomonsgrunnen" />
		<tag k="natural" v="shoal" />
		<tag k="place" v="locality" />
		<tag k="ssr:stedsnr" v="389319" />
	</node>
	<node lat="70.42902778699903" lon="25.58835253267501" id="-53833">
		<tag k="name" v="Uhcaklubbu" />
		<tag k="name:se" v="Uhcaklubbu" />
		<tag k="natural" v="cape" />
		<tag k="ssr:stedsnr" v="389921" />
	</node>
	<node lat="70.47721111549698" lon="25.28417201978723" id="-53849">
		<tag k="fixme" v="consider seamark:type=rock or natural=shoal" />
		<tag k="name" v="Nuortaraakki" />
		<tag k="name:se" v="Nuortaraakki" />
		<tag k="place" v="islet" />
		<tag k="ssr:stedsnr" v="395361" />
	</node>
	<node lat="70.14801945193989" lon="25.048466464742706" id="-53874">
		<tag k="name" v="Hjellenes" />
		<tag k="name:no" v="Hjellenes" />
		<tag k="natural" v="cape" />
		<tag k="ssr:stedsnr" v="444145" />
	</node>
	<node lat="70.24339722715348" lon="24.989008142967926" id="-53877">
		<tag k="name" v="Jovnnanjárga - Jonsnes" />
		<tag k="name:no" v="Jonsnes" />
		<tag k="name:se" v="Jovnnanjárga" />
		<tag k="natural" v="cape" />
		<tag k="ssr:stedsnr" v="444043" />
	</node>
	<node lat="70.20732222402484" lon="24.938655378067406" id="-53880">
		<tag k="name" v="Beavkenjárga" />
		<tag k="name:se" v="Beavkenjárga" />
		<tag k="natural" v="cape" />
		<tag k="ssr:stedsnr" v="444069" />
	</node>
	<node lat="70.20700556159646" lon="25.00425536334717" id="-53881">
		<tag k="name" v="Luomegohppi" />
		<tag k="name:se" v="Luomegohppi" />
		<tag k="natural" v="bay" />
		<tag k="ssr:stedsnr" v="444071" />
	</node>
	<node lat="70.16776667210262" lon="25.147577558390417" id="-53886">
		<tag k="name" v="Mielkár" />
		<tag k="name:se" v="Mielkár" />
		<tag k="place" v="island" />
		<tag k="ssr:stedsnr" v="444097" />
	</node>
</osm>
