<?xml version="1.0" encoding="UTF-8"?>
<<<<<<< HEAD
<osm version="0.6" generator="osmapis">
	<node lat="70.31715000563253" lon="25.54209419036723" id="-50700">
		<tag k="alt_name:no" v="Børselv" />
=======
<osm generator="osmapis" version="0.6">
	<node id="-905598" lat="70.3119694477" lon="25.5095275482">
		<tag k="cemetery" v="grave" />
		<tag k="name" v="Kirkonmaa" />
		<tag k="name:fkv" v="Kirkonmaa" />
		<tag k="place" v="locality" />
		<tag k="ssr:stedsnr" v="335403" />
	</node>
	<node id="-905525" lat="70.3176166734" lon="25.530438653">
>>>>>>> e1d4bc35ff8a6074a6f2e91616a996b547c36f15
		<tag k="amenity" v="place_of_worship" />
		<tag k="denomination" v="lutheran" />
		<tag k="name" v="Børselv kapell" />
		<tag k="name:no" v="Børselv kapell" />
		<tag k="religion" v="christian" />
		<tag k="ssr:stedsnr" v="208049" />
	</node>
<<<<<<< HEAD
	<node lat="70.31794723449786" lon="25.53842753072518" id="-50747">
=======
	<node id="-905524" lat="70.3179472345" lon="25.5384275307">
>>>>>>> e1d4bc35ff8a6074a6f2e91616a996b547c36f15
		<tag k="amenity" v="place_of_worship" />
		<tag k="fixme" v="specify religion=*, denomination=*, building=* etc" />
		<tag k="name" v="Kokoushuonet" />
		<tag k="name:fkv" v="Kokoushuonet" />
		<tag k="ssr:stedsnr" v="456456" />
	</node>
<<<<<<< HEAD
	<node lat="70.31761667341893" lon="25.53043865302667" id="-50748">
=======
	<node id="-905325" lat="70.050469447" lon="24.9529581424">
>>>>>>> e1d4bc35ff8a6074a6f2e91616a996b547c36f15
		<tag k="amenity" v="place_of_worship" />
		<tag k="fixme" v="specify religion=*, denomination=*, building=* etc" />
		<tag k="name" v="Vittikkö" />
		<tag k="name:fkv" v="Vittikkö" />
		<tag k="ssr:stedsnr" v="456457" />
	</node>
<<<<<<< HEAD
	<node lat="70.3119694477186" lon="25.509527548198722" id="-50906">
		<tag k="cemetery" v="grave" />
		<tag k="loc_name:se" v="Girkoeana" />
		<tag k="name" v="Kirkonmaa" />
		<tag k="name:fkv" v="Kirkonmaa" />
		<tag k="place" v="locality" />
		<tag k="ssr:stedsnr" v="335403" />
	</node>
	<node lat="70.45639722956764" lon="25.22809424826255" id="-51166">
=======
	<node id="-907206" lat="70.3171500056" lon="25.5420941904">
		<tag k="amenity" v="place_of_worship" />
		<tag k="denomination" v="lutheran" />
		<tag k="name" v="Børselv" />
		<tag k="name:no" v="Børselv" />
		<tag k="religion" v="christian" />
		<tag k="ssr:stedsnr" v="208049" />
	</node>
	<node id="-905923" lat="70.4563972296" lon="25.2280942483">
>>>>>>> e1d4bc35ff8a6074a6f2e91616a996b547c36f15
		<tag k="amenity" v="place_of_worship" />
		<tag k="denomination" v="lutheran" />
		<tag k="name" v="Kistrand" />
		<tag k="name:no" v="Kistrand" />
		<tag k="religion" v="christian" />
		<tag k="ssr:stedsnr" v="687420" />
	</node>
</osm>
