<?xml version="1.0" encoding="UTF-8"?>
<osm version="0.6" generator="osmapis">
	<node lat="70.54535114280336" lon="25.81468865674089" id="-98640">
		<tag k="name" v="Ytre Brenna" />
		<tag k="name:no" v="Ytre Brenna" />
		<tag k="place" v="farm" />
		<tag k="ssr:stedsnr" v="230387" />
	</node>
	<node lat="69.76356823578462" lon="25.19570601806909" id="-98654">
		<tag k="alt_name:no" v="Karisdat" />
		<tag k="name" v="Karistad" />
		<tag k="name:no" v="Karistad" />
		<tag k="place" v="farm" />
		<tag k="ssr:stedsnr" v="19542" />
	</node>
	<node lat="70.31039445344629" lon="25.465710880595708" id="-98663">
		<tag k="name" v="Jernbukt - Rautakoppa" />
		<tag k="name:fkv" v="Rautakoppa" />
		<tag k="name:no" v="Jernbukt" />
		<tag k="place" v="farm" />
		<tag k="ssr:stedsnr" v="20442" />
	</node>
	<node lat="70.33425278597606" lon="25.631508084842725" id="-98667">
		<tag k="name" v="Fredheim" />
		<tag k="name:no" v="Fredheim" />
		<tag k="place" v="farm" />
		<tag k="ssr:stedsnr" v="20499" />
	</node>
	<node lat="70.32223056308374" lon="25.17295812866248" id="-98672">
		<tag k="name" v="Cuoppogieddi - Indre Sandvik" />
		<tag k="name:no" v="Indre Sandvik" />
		<tag k="name:se" v="Cuoppogieddi" />
		<tag k="place" v="hamlet" />
		<tag k="ssr:stedsnr" v="20593" />
	</node>
	<node lat="70.27447500284605" lon="25.06086923647816" id="-98678">
		<tag k="name" v="Veiland" />
		<tag k="name:no" v="Veiland" />
		<tag k="place" v="farm" />
		<tag k="ssr:stedsnr" v="20639" />
	</node>
	<node lat="70.2690833366776" lon="25.07644423568619" id="-98679">
		<tag k="name" v="Øvre Berghaugen" />
		<tag k="name:no" v="Øvre Berghaugen" />
		<tag k="place" v="farm" />
		<tag k="ssr:stedsnr" v="20645" />
	</node>
	<node lat="70.41234167270791" lon="25.198294253283514" id="-98706">
		<tag k="name" v="Čnomielli" />
		<tag k="name:se" v="Čnomielli" />
		<tag k="place" v="farm" />
		<tag k="ssr:stedsnr" v="55223" />
	</node>
	<node lat="70.49689167614912" lon="25.095083146922164" id="-98723">
		<tag k="name" v="Risskjåen" />
		<tag k="name:no" v="Risskjåen" />
		<tag k="place" v="farm" />
		<tag k="ssr:stedsnr" v="80691" />
	</node>
	<node lat="70.68744444705662" lon="25.778641428086477" id="-98731">
		<tag k="name" v="Biđđánluokta - Peiby" />
		<tag k="name:no" v="Peiby" />
		<tag k="name:se" v="Biđđánluokta" />
		<tag k="old_name:se" v="Biđđanluokta" />
		<tag k="place" v="locality" />
		<tag k="ssr:stedsnr" v="80989" />
	</node>
	<node lat="70.4023388921626" lon="25.558380316435358" id="-98732">
		<tag k="name" v="Movronnjárga - Mårnes - Mouruniemi" />
		<tag k="name:fkv" v="Mouruniemi" />
		<tag k="name:no" v="Mårnes" />
		<tag k="name:se" v="Movronnjárga" />
		<tag k="place" v="hamlet" />
		<tag k="ssr:stedsnr" v="81406" />
	</node>
	<node lat="70.37493056274153" lon="25.094416466934888" id="-98743">
		<tag k="alt_name:no" v="Sommersett" />
		<tag k="name" v="Sommerset" />
		<tag k="name:no" v="Sommerset" />
		<tag k="place" v="farm" />
		<tag k="ssr:stedsnr" v="85581" />
	</node>
	<node lat="70.04545605939643" lon="24.938084031065145" id="-98748">
		<tag k="name" v="Niittykuru" />
		<tag k="name:fkv" v="Niittykuru" />
		<tag k="place" v="farm" />
		<tag k="ssr:stedsnr" v="92413" />
	</node>
	<node lat="70.05403612098166" lon="24.9384637076983" id="-98775">
		<tag k="name" v="Sandmo" />
		<tag k="name:no" v="Sandmo" />
		<tag k="place" v="farm" />
		<tag k="ssr:stedsnr" v="140193" />
	</node>
	<node lat="70.32769445167854" lon="25.515594195732913" id="-98797">
		<tag k="name" v="Sommerdalen" />
		<tag k="name:no" v="Sommerdalen" />
		<tag k="place" v="farm" />
		<tag k="ssr:stedsnr" v="141503" />
	</node>
	<node lat="70.27210555792755" lon="25.06025259423834" id="-98808">
		<tag k="name" v="Áigir" />
		<tag k="name:se" v="Áigir" />
		<tag k="place" v="hamlet" />
		<tag k="ssr:stedsnr" v="141614" />
	</node>
	<node lat="70.32233612011177" lon="25.172733130658283" id="-98814">
		<tag k="name" v="Indre Sandvik" />
		<tag k="name:no" v="Indre Sandvik" />
		<tag k="place" v="farm" />
		<tag k="ssr:stedsnr" v="141595" />
	</node>
	<node lat="70.31451389269078" lon="25.060888683672058" id="-98816">
		<tag k="name" v="Solhaug" />
		<tag k="name:no" v="Solhaug" />
		<tag k="place" v="farm" />
		<tag k="ssr:stedsnr" v="141598" />
	</node>
	<node lat="70.31425000604766" lon="25.125066473025306" id="-98817">
		<tag k="name" v="Nygren" />
		<tag k="name:no" v="Nygren" />
		<tag k="place" v="farm" />
		<tag k="ssr:stedsnr" v="141599" />
	</node>
	<node lat="70.22938618407477" lon="24.940800895829234" id="-98852">
		<tag k="name" v="Vedhuggnes" />
		<tag k="name:no" v="Vedhuggnes" />
		<tag k="place" v="farm" />
		<tag k="ssr:stedsnr" v="153867" />
	</node>
	<node lat="70.23070556100357" lon="24.93538870257539" id="-98871">
		<tag k="name" v="Ráigeája - Reikälähđet" />
		<tag k="name:fkv" v="Reikälähđet" />
		<tag k="name:se" v="Ráigeája" />
		<tag k="old_name:no" v="Ytre Ikkaldas;Ytre Igeldas" />
		<tag k="place" v="hamlet" />
		<tag k="ssr:stedsnr" v="262042" />
	</node>
	<node lat="70.06630000571639" lon="25.162783126566154" id="-98881">
		<tag k="name" v="Karenplass" />
		<tag k="name:no" v="Karenplass" />
		<tag k="place" v="farm" />
		<tag k="ssr:stedsnr" v="262190" />
	</node>
	<node lat="70.0409361148518" lon="24.938047035578748" id="-98884">
		<tag k="name" v="Saarikenttä" />
		<tag k="name:fkv" v="Saarikenttä" />
		<tag k="place" v="farm" />
		<tag k="ssr:stedsnr" v="262220" />
	</node>
	<node lat="70.03726667451298" lon="24.93762757593751" id="-98885">
		<tag k="name" v="Øvre Smørstad - Rautio" />
		<tag k="name:fkv" v="Rautio" />
		<tag k="name:no" v="Øvre Smørstad" />
		<tag k="place" v="farm" />
		<tag k="ssr:stedsnr" v="262221" />
	</node>
	<node lat="70.05072500756255" lon="24.93769703784278" id="-98886">
		<tag k="name" v="Smørstad" />
		<tag k="name:no" v="Smørstad" />
		<tag k="place" v="quarter" />
		<tag k="ssr:stedsnr" v="262230" />
	</node>
	<node lat="70.05720833664158" lon="25.15306089034454" id="-98888">
		<tag k="name" v="Myrvang" />
		<tag k="name:no" v="Myrvang" />
		<tag k="place" v="farm" />
		<tag k="ssr:stedsnr" v="262236" />
	</node>
	<node lat="70.06017223076854" lon="25.116772018940587" id="-98889">
		<tag k="name" v="Fredheim" />
		<tag k="name:no" v="Fredheim" />
		<tag k="place" v="farm" />
		<tag k="ssr:stedsnr" v="262238" />
	</node>
	<node lat="70.00442222953937" lon="24.936463686912727" id="-98894">
		<tag k="name" v="Øvre Gjøkenes" />
		<tag k="name:no" v="Øvre Gjøkenes" />
		<tag k="place" v="farm" />
		<tag k="ssr:stedsnr" v="262263" />
	</node>
	<node lat="70.32640278342043" lon="25.409966447445107" id="-98904">
		<tag k="name" v="Giksenjárga - Børselvnes - Kiksiniemi" />
		<tag k="name:fkv" v="Kiksiniemi" />
		<tag k="name:no" v="Børselvnes" />
		<tag k="name:se" v="Giksenjárga" />
		<tag k="place" v="farm" />
		<tag k="ssr:stedsnr" v="262514" />
	</node>
	<node lat="70.36665833577074" lon="25.07587480319676" id="-98919">
		<tag k="name" v="Daleng" />
		<tag k="name:no" v="Daleng" />
		<tag k="place" v="isolated_dwelling" />
		<tag k="ssr:stedsnr" v="262566" />
	</node>
	<node lat="69.98659444951504" lon="24.940924796123614" id="-98940">
		<tag k="name" v="Stuenes" />
		<tag k="name:no" v="Stuenes" />
		<tag k="place" v="farm" />
		<tag k="ssr:stedsnr" v="262733" />
	</node>
	<node lat="70.50440278510781" lon="25.048783149993508" id="-98953">
		<tag k="fixme" v="consider place=hamlet" />
		<tag k="name" v="Smørfjord" />
		<tag k="name:no" v="Smørfjord" />
		<tag k="place" v="village" />
		<tag k="ssr:stedsnr" v="262972" />
	</node>
	<node lat="70.5001000023664" lon="25.06286648191764" id="-98954">
		<tag k="name" v="Bergstad" />
		<tag k="name:no" v="Bergstad" />
		<tag k="place" v="farm" />
		<tag k="ssr:stedsnr" v="262974" />
	</node>
	<node lat="70.39092501078798" lon="25.568094215057123" id="-98959">
		<tag k="name" v="Kroken - Skoppi" />
		<tag k="name:fkv" v="Skoppi" />
		<tag k="name:no" v="Kroken" />
		<tag k="place" v="isolated_dwelling" />
		<tag k="ssr:stedsnr" v="263423" />
	</node>
	<node lat="70.34636667517093" lon="25.081777596514012" id="-98962">
		<tag k="name" v="Sommarset" />
		<tag k="name:no" v="Sommarset" />
		<tag k="place" v="isolated_dwelling" />
		<tag k="ssr:stedsnr" v="263554" />
	</node>
	<node lat="70.36252778661992" lon="25.471424761393067" id="-98969">
		<tag k="name" v="Čuolovuotna - Holmfjord - Suoluvuono" />
		<tag k="name:fkv" v="Suoluvuono" />
		<tag k="name:no" v="Holmfjord" />
		<tag k="name:se" v="Čuolovuotna" />
		<tag k="place" v="hamlet" />
		<tag k="ssr:stedsnr" v="263936" />
	</node>
	<node lat="70.17375000525712" lon="24.86635814852879" id="-98982">
		<tag k="name" v="Snihkkárnjárga - Snekkernes" />
		<tag k="name:no" v="Snekkernes" />
		<tag k="name:se" v="Snihkkárnjárga" />
		<tag k="place" v="farm" />
		<tag k="ssr:stedsnr" v="201099" />
	</node>
	<node lat="70.32950000440162" lon="25.566419188876125" id="-98996">
		<tag k="name" v="Fosseng" />
		<tag k="name:no" v="Fosseng" />
		<tag k="place" v="farm" />
		<tag k="ssr:stedsnr" v="202496" />
	</node>
	<node lat="70.30945834043061" lon="25.024852595472613" id="-98999">
		<tag k="name" v="Elvedal" />
		<tag k="name:no" v="Elvedal" />
		<tag k="place" v="farm" />
		<tag k="ssr:stedsnr" v="202606" />
	</node>
	<node lat="70.36082500258007" lon="25.061166486505456" id="-99002">
		<tag k="name" v="Solbakken" />
		<tag k="name:no" v="Solbakken" />
		<tag k="place" v="farm" />
		<tag k="ssr:stedsnr" v="202592" />
	</node>
	<node lat="70.2080694530588" lon="24.90556648933909" id="-99006">
		<tag k="name" v="Leaiberohtu" />
		<tag k="name:se" v="Leaiberohtu" />
		<tag k="place" v="farm" />
		<tag k="ssr:stedsnr" v="203093" />
	</node>
	<node lat="70.30386829640575" lon="25.066039709340142" id="-99027">
		<tag k="name" v="Nordvang" />
		<tag k="name:no" v="Nordvang" />
		<tag k="place" v="farm" />
		<tag k="ssr:stedsnr" v="213796" />
	</node>
	<node lat="70.3223527823725" lon="25.056552576158435" id="-99028">
		<tag k="name" v="Indre Billefjord Vest" />
		<tag k="name:no" v="Indre Billefjord Vest" />
		<tag k="place" v="quarter" />
		<tag k="ssr:stedsnr" v="213992" />
	</node>
	<node lat="70.38802222473024" lon="25.118113684004378" id="-99057">
		<tag k="name" v="Sommersete" />
		<tag k="name:no" v="Sommersete" />
		<tag k="place" v="locality" />
		<tag k="ssr:stedsnr" v="456482" />
	</node>
	<node lat="70.32519445301187" lon="25.58555808752236" id="-99058">
		<tag k="name" v="Ylinen Kaiskiruto" />
		<tag k="name:fkv" v="Ylinen Kaiskiruto" />
		<tag k="place" v="farm" />
		<tag k="ssr:stedsnr" v="456439" />
	</node>
	<node lat="70.06223890050612" lon="25.156205341538165" id="-99086">
		<tag k="name" v="Langbuktbakken - Pitkäkopanluokka" />
		<tag k="name:fkv" v="Pitkäkopanluokka" />
		<tag k="name:no" v="Langbuktbakken" />
		<tag k="place" v="farm" />
		<tag k="ssr:stedsnr" v="262202" />
	</node>
	<node lat="70.31200000379317" lon="25.564194195646973" id="-99104">
		<tag k="name" v="Ulveskog - Hukkaruto" />
		<tag k="name:fkv" v="Hukkaruto" />
		<tag k="name:no" v="Ulveskog" />
		<tag k="place" v="isolated_dwelling" />
		<tag k="ssr:stedsnr" v="457589" />
	</node>
	<node lat="70.32278055788278" lon="25.574405322431648" id="-99105">
		<tag k="name" v="Seljemark - Paivuruto" />
		<tag k="name:fkv" v="Paivuruto" />
		<tag k="name:no" v="Seljemark" />
		<tag k="place" v="isolated_dwelling" />
		<tag k="ssr:stedsnr" v="457591" />
	</node>
	<node lat="70.32693333682457" lon="25.59634420352205" id="-99106">
		<tag k="name" v="Leirbakken - Kouttankenttä" />
		<tag k="name:fkv" v="Kouttankenttä" />
		<tag k="name:no" v="Leirbakken" />
		<tag k="place" v="isolated_dwelling" />
		<tag k="ssr:stedsnr" v="457592" />
	</node>
	<node lat="70.31527500254123" lon="25.087744241624083" id="-99114">
		<tag k="name" v="Myrbakken" />
		<tag k="name:no" v="Myrbakken" />
		<tag k="place" v="farm" />
		<tag k="ssr:stedsnr" v="263609" />
	</node>
	<node lat="70.3084000059611" lon="25.467921997420177" id="-99130">
		<tag k="name" v="Heastanjárga - Hestnes - Hesteniemi" />
		<tag k="name:fkv" v="Hesteniemi" />
		<tag k="name:no" v="Hestnes" />
		<tag k="name:se" v="Heastanjárga" />
		<tag k="place" v="hamlet" />
		<tag k="ssr:stedsnr" v="264906" />
	</node>
	<node lat="70.10495000373587" lon="25.00681368499655" id="-99190">
		<tag k="name" v="Steinnes" />
		<tag k="name:no" v="Steinnes" />
		<tag k="place" v="farm" />
		<tag k="ssr:stedsnr" v="323186" />
	</node>
	<node lat="70.46978333897638" lon="25.08413593553902" id="-99204">
		<tag k="name" v="Myrland" />
		<tag k="name:no" v="Myrland" />
		<tag k="place" v="isolated_dwelling" />
		<tag k="ssr:stedsnr" v="323738" />
	</node>
	<node lat="70.57508056175517" lon="25.23473591899678" id="-99207">
		<tag k="name" v="Sørset" />
		<tag k="name:no" v="Sørset" />
		<tag k="place" v="farm" />
		<tag k="ssr:stedsnr" v="323984" />
	</node>
	<node lat="70.67500000493158" lon="25.408333128395665" id="-99217">
		<tag k="name" v="Ytre Sortvik" />
		<tag k="name:no" v="Ytre Sortvik" />
		<tag k="place" v="locality" />
		<tag k="ssr:stedsnr" v="329375" />
	</node>
	<node lat="70.52116667778138" lon="25.767649744229868" id="-99220">
		<tag k="name" v="Brenna" />
		<tag k="name:no" v="Brenna" />
		<tag k="place" v="farm" />
		<tag k="ssr:stedsnr" v="333361" />
	</node>
	<node lat="70.32510834430121" lon="25.585130306769358" id="-99230">
		<tag k="name" v="Myrskog - Kaiskiruto" />
		<tag k="name:fkv" v="Kaiskiruto" />
		<tag k="name:no" v="Myrskog" />
		<tag k="place" v="isolated_dwelling" />
		<tag k="ssr:stedsnr" v="335620" />
	</node>
	<node lat="70.47168334229967" lon="25.060224812258348" id="-99232">
		<tag k="name" v="Tofta" />
		<tag k="name:no" v="Tofta" />
		<tag k="place" v="farm" />
		<tag k="ssr:stedsnr" v="473700" />
	</node>
	<node lat="70.45163611288422" lon="25.21981368975578" id="-99233">
		<tag k="name" v="Myreng" />
		<tag k="name:no" v="Myreng" />
		<tag k="place" v="farm" />
		<tag k="ssr:stedsnr" v="473748" />
	</node>
	<node lat="70.41341111975989" lon="25.196733137753164" id="-99235">
		<tag k="name" v="Indre Veines" />
		<tag k="name:no" v="Indre Veines" />
		<tag k="place" v="farm" />
		<tag k="ssr:stedsnr" v="351309" />
	</node>
	<node lat="70.06840278323689" lon="25.166416460889174" id="-99241">
		<tag k="name" v="Fluberg" />
		<tag k="name:no" v="Fluberg" />
		<tag k="place" v="farm" />
		<tag k="ssr:stedsnr" v="383205" />
	</node>
	<node lat="70.05132500843985" lon="24.97177479702232" id="-99242">
		<tag k="name" v="Leavdnja - Lakselv - Lemmijoki" />
		<tag k="name:fkv" v="Lemmijoki" />
		<tag k="name:no" v="Lakselv" />
		<tag k="name:se" v="Leavdnja" />
		<tag k="place" v="village" />
		<tag k="ssr:stedsnr" v="383209" />
	</node>
	<node lat="70.05353334004613" lon="25.122708113479913" id="-99245">
		<tag k="name" v="Myrbukt - Jänkänmukka" />
		<tag k="name:fkv" v="Jänkänmukka" />
		<tag k="name:no" v="Myrbukt" />
		<tag k="place" v="locality" />
		<tag k="ssr:stedsnr" v="383262" />
	</node>
	<node lat="70.30735556230698" lon="25.534755303369142" id="-99251">
		<tag k="loc_name:se" v="Sieđgagieddi;Vuolle Sámmola báiki" />
		<tag k="name" v="Seljeenga - Juntintörmä" />
		<tag k="name:fkv" v="Juntintörmä" />
		<tag k="name:no" v="Seljeenga" />
		<tag k="place" v="farm" />
		<tag k="ssr:stedsnr" v="383460" />
	</node>
	<node lat="70.49286111809185" lon="25.04783314265404" id="-99256">
		<tag k="name" v="Engmyr" />
		<tag k="name:no" v="Engmyr" />
		<tag k="place" v="farm" />
		<tag k="ssr:stedsnr" v="383698" />
	</node>
	<node lat="70.30608333659764" lon="25.058547018569666" id="-99262">
		<tag k="name" v="Skoger" />
		<tag k="name:no" v="Skoger" />
		<tag k="place" v="farm" />
		<tag k="ssr:stedsnr" v="384552" />
	</node>
	<node lat="70.32759445155978" lon="25.165810898452506" id="-99281">
		<tag k="name" v="Gálggošluokta - Ytre Sandvik - Kalkasenlahti" />
		<tag k="name:fkv" v="Kalkasenlahti" />
		<tag k="name:no" v="Ytre Sandvik" />
		<tag k="name:se" v="Gálggošluokta" />
		<tag k="place" v="hamlet" />
		<tag k="ssr:stedsnr" v="395604" />
	</node>
	<node lat="70.31909167242739" lon="25.558269195605085" id="-99286">
		<tag k="name" v="Branneng - Palanheenkannonruto" />
		<tag k="name:fkv" v="Palanheenkannonruto" />
		<tag k="name:no" v="Branneng" />
		<tag k="place" v="isolated_dwelling" />
		<tag k="ssr:stedsnr" v="396586" />
	</node>
	<node lat="70.18373889560047" lon="24.91038315633609" id="-99301">
		<tag k="name" v="Čohkavuolli" />
		<tag k="name:se" v="Čohkavuolli" />
		<tag k="place" v="isolated_dwelling" />
		<tag k="ssr:stedsnr" v="444112" />
	</node>
	<node lat="70.28760834256009" lon="25.088463693848077" id="-99315">
		<tag k="name" v="Solstad" />
		<tag k="name:no" v="Solstad" />
		<tag k="place" v="farm" />
		<tag k="ssr:stedsnr" v="444603" />
	</node>
	<node lat="70.4899222306119" lon="25.053199811598557" id="-99319">
		<tag k="name" v="Øverland" />
		<tag k="name:no" v="Øverland" />
		<tag k="place" v="farm" />
		<tag k="ssr:stedsnr" v="444680" />
	</node>
	<node lat="70.31590000795391" lon="25.07966092312792" id="-99328">
		<tag k="name" v="Stabbureng" />
		<tag k="name:no" v="Stabbureng" />
		<tag k="place" v="farm" />
		<tag k="ssr:stedsnr" v="445604" />
	</node>
	<node lat="70.57025278692473" lon="25.883866406322305" id="-99331">
		<tag k="name" v="Sløkevika" />
		<tag k="name:no" v="Sløkevika" />
		<tag k="place" v="locality" />
		<tag k="ssr:stedsnr" v="445579" />
	</node>
	<node lat="70.31415278062322" lon="25.034072018158614" id="-99355">
		<tag k="name" v="Løvdal" />
		<tag k="name:no" v="Løvdal" />
		<tag k="place" v="farm" />
		<tag k="ssr:stedsnr" v="466565" />
	</node>
	<node lat="70.17649167355209" lon="24.911408142802767" id="-99364">
		<tag k="name" v="Austmo" />
		<tag k="name:no" v="Austmo" />
		<tag k="place" v="farm" />
		<tag k="ssr:stedsnr" v="504080" />
	</node>
	<node lat="70.04242223019219" lon="24.950149814765076" id="-99365">
		<tag k="name" v="Hesjenes" />
		<tag k="name:no" v="Hesjenes" />
		<tag k="place" v="farm" />
		<tag k="ssr:stedsnr" v="504205" />
	</node>
	<node lat="70.06735000552733" lon="24.925510931568656" id="-99367">
		<tag k="name" v="Johannesøy" />
		<tag k="name:no" v="Johannesøy" />
		<tag k="place" v="farm" />
		<tag k="ssr:stedsnr" v="504167" />
	</node>
	<node lat="70.05120000406941" lon="25.068216450282137" id="-99368">
		<tag k="name" v="Slettvoll" />
		<tag k="name:no" v="Slettvoll" />
		<tag k="place" v="farm" />
		<tag k="ssr:stedsnr" v="504173" />
	</node>
	<node lat="70.05346112044523" lon="24.93422202185785" id="-99369">
		<tag k="name" v="Grønnmo" />
		<tag k="name:no" v="Grønnmo" />
		<tag k="place" v="farm" />
		<tag k="ssr:stedsnr" v="504180" />
	</node>
	<node lat="70.20832222389838" lon="24.913983157908813" id="-99383">
		<tag k="name" v="Beavgohppi - Bevkop" />
		<tag k="name:no" v="Bevkop" />
		<tag k="name:se" v="Beavgohppi" />
		<tag k="place" v="hamlet" />
		<tag k="ssr:stedsnr" v="505072" />
	</node>
	<node lat="70.58955000456727" lon="25.24376092800275" id="-99399">
		<tag k="fixme" v="multiple name tags, choose one and add the other to alt_name; consider place=hamlet" />
		<tag k="name" v="Nordmannset;Ytre Nordmannset" />
		<tag k="name:no" v="Nordmannset;Ytre Nordmannset" />
		<tag k="old_name:no" v="Nordmannset, ytre" />
		<tag k="place" v="village" />
		<tag k="ssr:stedsnr" v="505972" />
	</node>
	<node lat="70.57703056209041" lon="25.236680371566973" id="-99400">
		<tag k="fixme" v="consider place=hamlet" />
		<tag k="name" v="Indre Nordmannset" />
		<tag k="name:no" v="Indre Nordmannset" />
		<tag k="old_name:no" v="Nordmannset, indre" />
		<tag k="place" v="village" />
		<tag k="ssr:stedsnr" v="505974" />
	</node>
	<node lat="70.29453889570247" lon="25.109991457097607" id="-99402">
		<tag k="name" v="Ellásmielli" />
		<tag k="name:se" v="Ellásmielli" />
		<tag k="place" v="farm" />
		<tag k="ssr:stedsnr" v="506609" />
	</node>
	<node lat="70.38117222930455" lon="25.495521987843407" id="-99407">
		<tag k="name" v="Gieddi - Leirpollen - Kenttä" />
		<tag k="name:fkv" v="Kenttä" />
		<tag k="name:no" v="Leirpollen" />
		<tag k="name:se" v="Gieddi" />
		<tag k="place" v="hamlet" />
		<tag k="ssr:stedsnr" v="506902" />
	</node>
	<node lat="70.40906389719913" lon="25.22339701321611" id="-99445">
		<tag k="name" v="Ytre Veines" />
		<tag k="name:no" v="Ytre Veines" />
		<tag k="place" v="isolated_dwelling" />
		<tag k="ssr:stedsnr" v="533307" />
	</node>
	<node lat="70.28973056473946" lon="25.07139148562453" id="-99499">
		<tag k="name" v="Vonheim" />
		<tag k="name:no" v="Vonheim" />
		<tag k="place" v="farm" />
		<tag k="ssr:stedsnr" v="687625" />
	</node>
	<node lat="70.47417500742404" lon="25.05832481755918" id="-99508">
		<tag k="name" v="Seljeslett" />
		<tag k="name:no" v="Seljeslett" />
		<tag k="place" v="farm" />
		<tag k="ssr:stedsnr" v="687753" />
	</node>
	<node lat="70.47379723205353" lon="25.071297039862397" id="-99509">
		<tag k="fixme" v="consider place=hamlet" />
		<tag k="name" v="Leaibevuotna - Olderfjord - Leipovuono" />
		<tag k="name:fkv" v="Leipovuono" />
		<tag k="name:no" v="Olderfjord" />
		<tag k="name:se" v="Leaibevuotna" />
		<tag k="place" v="village" />
		<tag k="ssr:stedsnr" v="687756" />
	</node>
	<node lat="70.29547501125502" lon="25.51911919992659" id="-99545">
		<tag k="name" v="Veahkir - Vækker - Väkkärä" />
		<tag k="name:fkv" v="Väkkärä" />
		<tag k="name:no" v="Vækker" />
		<tag k="name:se" v="Veahkir" />
		<tag k="place" v="hamlet" />
		<tag k="ssr:stedsnr" v="688923" />
	</node>
	<node lat="70.52532501020346" lon="25.084394253181326" id="-99546">
		<tag k="name" v="Solberg" />
		<tag k="name:no" v="Solberg" />
		<tag k="place" v="farm" />
		<tag k="ssr:stedsnr" v="688929" />
	</node>
	<node lat="70.0349888955268" lon="24.91638869986232" id="-99556">
		<tag k="name" v="Musvannsbakken - Hiirijärvenluokka" />
		<tag k="name:fkv" v="Hiirijärvenluokka" />
		<tag k="name:no" v="Musvannsbakken" />
		<tag k="place" v="farm" />
		<tag k="ssr:stedsnr" v="565203" />
	</node>
	<node lat="70.39493889303745" lon="25.559710877909424" id="-99572">
		<tag k="name" v="Krattskogen" />
		<tag k="name:no" v="Krattskogen" />
		<tag k="place" v="farm" />
		<tag k="ssr:stedsnr" v="566408" />
	</node>
	<node lat="70.0572888975201" lon="24.940355375616313" id="-99593">
		<tag k="name" v="Saarila" />
		<tag k="name:fkv" v="Saarila" />
		<tag k="place" v="quarter" />
		<tag k="ssr:stedsnr" v="577015" />
	</node>
	<node lat="70.3558027851991" lon="25.040549801503822" id="-99610">
		<tag k="name" v="Strandli" />
		<tag k="name:no" v="Strandli" />
		<tag k="place" v="farm" />
		<tag k="ssr:stedsnr" v="577949" />
	</node>
	<node lat="70.51585000404303" lon="25.752174744183822" id="-99622">
		<tag k="name" v="Saltán" />
		<tag k="name:se" v="Saltán" />
		<tag k="place" v="isolated_dwelling" />
		<tag k="ssr:stedsnr" v="697346" />
	</node>
	<node lat="70.33001945142938" lon="25.612305299857248" id="-99654">
		<tag k="name" v="Aaponsammunlaatas" />
		<tag k="name:fkv" v="Aaponsammunlaatas" />
		<tag k="place" v="farm" />
		<tag k="ssr:stedsnr" v="699435" />
	</node>
	<node lat="70.30035000981567" lon="25.167263694046472" id="-99662">
		<tag k="name" v="Činavuohppi - Trollholmsund" />
		<tag k="name:no" v="Trollholmsund" />
		<tag k="name:se" v="Činavuohppi" />
		<tag k="place" v="hamlet" />
		<tag k="ssr:stedsnr" v="699747" />
	</node>
	<node lat="70.31343869872227" lon="25.073468323937934" id="-99696">
		<tag k="name" v="Sørli" />
		<tag k="name:no" v="Sørli" />
		<tag k="place" v="farm" />
		<tag k="ssr:stedsnr" v="627609" />
	</node>
	<node lat="70.29361111592328" lon="25.113766480287" id="-99706">
		<tag k="name" v="Sarvvesvuotna - Kolvik - Sarvisvuono" />
		<tag k="name:fkv" v="Sarvisvuono" />
		<tag k="name:no" v="Kolvik" />
		<tag k="name:se" v="Sarvvesvuotna" />
		<tag k="place" v="hamlet" />
		<tag k="ssr:stedsnr" v="627961" />
	</node>
	<node lat="70.2549361167758" lon="25.02398035559113" id="-99746">
		<tag k="name" v="Innerbukta" />
		<tag k="name:no" v="Innerbukta" />
		<tag k="place" v="isolated_dwelling" />
		<tag k="ssr:stedsnr" v="687406" />
	</node>
	<node lat="70.54338334086503" lon="25.14645814347419" id="-99769">
		<tag k="name" v="Uhcagiettáš - Innerjorda" />
		<tag k="name:no" v="Innerjorda" />
		<tag k="name:se" v="Uhcagiettáš" />
		<tag k="old_name:se" v="Uccagieddaš" />
		<tag k="place" v="locality" />
		<tag k="ssr:stedsnr" v="688940" />
	</node>
	<node lat="69.97110556569591" lon="24.959308131410012" id="-99796">
		<tag k="name" v="Revfossnes" />
		<tag k="name:no" v="Revfossnes" />
		<tag k="place" v="hamlet" />
		<tag k="ssr:stedsnr" v="713225" />
	</node>
	<node lat="70.33153333928547" lon="25.074349795909832" id="-99824">
		<tag k="name" v="Tverrnes" />
		<tag k="name:no" v="Tverrnes" />
		<tag k="place" v="farm" />
		<tag k="ssr:stedsnr" v="748563" />
	</node>
	<node lat="70.28521945087401" lon="25.07723314137276" id="-99830">
		<tag k="name" v="Heia" />
		<tag k="name:no" v="Heia" />
		<tag k="place" v="farm" />
		<tag k="ssr:stedsnr" v="748620" />
	</node>
	<node lat="70.41210834007373" lon="25.566105311259793" id="-99848">
		<tag k="name" v="Krykkjebukt" />
		<tag k="name:no" v="Krykkjebukt" />
		<tag k="old_name:no" v="Midtre Leirpollen" />
		<tag k="place" v="farm" />
		<tag k="ssr:stedsnr" v="776403" />
	</node>
	<node lat="69.83980555920411" lon="25.078219224938213" id="-99856">
		<tag k="fixme" v="consider place=hamlet" />
		<tag k="loc_name:fkv" v="Skuukanvaara" />
		<tag k="name" v="Skuvvanvárri - Skoganvarre" />
		<tag k="name:no" v="Skoganvarre" />
		<tag k="name:se" v="Skuvvanvárri" />
		<tag k="old_name:no" v="Skoganvarri" />
		<tag k="place" v="village" />
		<tag k="ssr:stedsnr" v="808517" />
	</node>
	<node lat="70.49297508015943" lon="25.07701363426507" id="-99864">
		<tag k="name" v="Russenes" />
		<tag k="name:no" v="Russenes" />
		<tag k="place" v="farm" />
		<tag k="ssr:stedsnr" v="808691" />
	</node>
	<node lat="70.58158889910851" lon="25.924063625263205" id="-99872">
		<tag k="name" v="Styrnes" />
		<tag k="name:no" v="Styrnes" />
		<tag k="place" v="farm" />
		<tag k="ssr:stedsnr" v="809603" />
	</node>
	<node lat="70.31856111344838" lon="25.096019248231546" id="-99874">
		<tag k="name" v="Oppgård" />
		<tag k="name:no" v="Oppgård" />
		<tag k="place" v="farm" />
		<tag k="ssr:stedsnr" v="809613" />
	</node>
	<node lat="70.32670278828112" lon="25.557821984404377" id="-99878">
		<tag k="name" v="Kratteng - Mätikkö" />
		<tag k="name:fkv" v="Mätikkö" />
		<tag k="name:no" v="Kratteng" />
		<tag k="place" v="farm" />
		<tag k="ssr:stedsnr" v="809514" />
	</node>
	<node lat="70.04699166946291" lon="25.047902571471003" id="-99909">
		<tag k="name" v="Myrvoll" />
		<tag k="name:no" v="Myrvoll" />
		<tag k="place" v="farm" />
		<tag k="ssr:stedsnr" v="929216" />
	</node>
	<node lat="70.0472333361261" lon="25.02854702296955" id="-99910">
		<tag k="name" v="Asphaug" />
		<tag k="name:no" v="Asphaug" />
		<tag k="place" v="farm" />
		<tag k="ssr:stedsnr" v="929218" />
	</node>
	<node lat="69.97489722587271" lon="24.94723592299128" id="-99969">
		<tag k="name" v="Klemetstad" />
		<tag k="name:no" v="Klemetstad" />
		<tag k="place" v="farm" />
		<tag k="ssr:stedsnr" v="869574" />
	</node>
	<node lat="70.48184445170686" lon="25.078052606818503" id="-99974">
		<tag k="name" v="Nesbakken" />
		<tag k="name:no" v="Nesbakken" />
		<tag k="place" v="isolated_dwelling" />
		<tag k="ssr:stedsnr" v="869773" />
	</node>
	<node lat="70.58759167508146" lon="25.2394442401523" id="-99977">
		<tag k="name" v="Nordset" />
		<tag k="name:no" v="Nordset" />
		<tag k="place" v="farm" />
		<tag k="ssr:stedsnr" v="869977" />
	</node>
	<node lat="70.40767778250284" lon="25.233272007917392" id="-99982">
		<tag k="name" v="Rinjárgohppi - Veinesjorda" />
		<tag k="name:no" v="Veinesjorda" />
		<tag k="name:se" v="Rinjárgohppi" />
		<tag k="place" v="farm" />
		<tag k="ssr:stedsnr" v="870406" />
	</node>
	<node lat="70.02531389222298" lon="24.946991479524684" id="-99985">
		<tag k="name" v="Stangnes - Patoniemi" />
		<tag k="name:fkv" v="Patoniemi" />
		<tag k="name:no" v="Stangnes" />
		<tag k="place" v="farm" />
		<tag k="ssr:stedsnr" v="930273" />
	</node>
	<node lat="70.26449167277782" lon="25.027408149048153" id="-100001">
		<tag k="name" v="Goarahat - Gåradak - Kuoratakka" />
		<tag k="name:fkv" v="Kuoratakka" />
		<tag k="name:no" v="Gåradak" />
		<tag k="name:se" v="Goarahat" />
		<tag k="place" v="hamlet" />
		<tag k="ssr:stedsnr" v="930441" />
	</node>
	<node lat="70.30497222927715" lon="25.52811920593931" id="-100002">
		<tag k="loc_name:no" v="Sørsida" />
		<tag k="name" v="Etelänpuoli" />
		<tag k="name:fkv" v="Etelänpuoli" />
		<tag k="place" v="hamlet" />
		<tag k="ssr:stedsnr" v="930468" />
	</node>
	<node lat="70.31857500318829" lon="25.523155325800413" id="-100015">
		<tag k="name" v="Solbrått" />
		<tag k="name:no" v="Solbrått" />
		<tag k="place" v="farm" />
		<tag k="ssr:stedsnr" v="930514" />
	</node>
	<node lat="70.43734167296806" lon="25.19558036598093" id="-100030">
		<tag k="name" v="Slettbakken" />
		<tag k="name:no" v="Slettbakken" />
		<tag k="place" v="farm" />
		<tag k="ssr:stedsnr" v="930756" />
	</node>
	<node lat="70.47135833810488" lon="25.099102576416804" id="-100031">
		<tag k="name" v="Melbakken" />
		<tag k="name:no" v="Melbakken" />
		<tag k="place" v="isolated_dwelling" />
		<tag k="ssr:stedsnr" v="930769" />
	</node>
	<node lat="70.30750833983996" lon="25.02560814710496" id="-100101">
		<tag k="name" v="Dalstad" />
		<tag k="name:no" v="Dalstad" />
		<tag k="place" v="farm" />
		<tag k="ssr:stedsnr" v="931573" />
	</node>
	<node lat="70.17542777945192" lon="24.910827599927867" id="-100144">
		<tag k="name" v="Vestgård" />
		<tag k="name:no" v="Vestgård" />
		<tag k="place" v="farm" />
		<tag k="ssr:stedsnr" v="19100" />
	</node>
	<node lat="70.03217222682869" lon="24.92329425674381" id="-100148">
		<tag k="name" v="Sløkeng" />
		<tag k="name:no" v="Sløkeng" />
		<tag k="place" v="farm" />
		<tag k="ssr:stedsnr" v="19206" />
	</node>
	<node lat="70.05444723113658" lon="25.086560896526624" id="-100157">
		<tag k="name" v="Salomonsumpen" />
		<tag k="name:no" v="Salomonsumpen" />
		<tag k="place" v="farm" />
		<tag k="ssr:stedsnr" v="19223" />
	</node>
	<node lat="70.0543333438589" lon="25.102530344926798" id="-100158">
		<tag k="name" v="Bakkevoll" />
		<tag k="name:no" v="Bakkevoll" />
		<tag k="place" v="farm" />
		<tag k="ssr:stedsnr" v="19224" />
	</node>
	<node lat="70.04839167085055" lon="24.991472022060716" id="-100159">
		<tag k="name" v="Nymo" />
		<tag k="name:no" v="Nymo" />
		<tag k="place" v="farm" />
		<tag k="ssr:stedsnr" v="19229" />
	</node>
	<node lat="69.83384167011612" lon="25.11979422000549" id="-100175">
		<tag k="name" v="Soltun" />
		<tag k="name:no" v="Soltun" />
		<tag k="place" v="farm" />
		<tag k="ssr:stedsnr" v="19571" />
	</node>
	<node lat="70.46900000281535" lon="25.070158150673933" id="-100180">
		<tag k="name" v="Solset" />
		<tag k="name:no" v="Solset" />
		<tag k="place" v="isolated_dwelling" />
		<tag k="ssr:stedsnr" v="19734" />
	</node>
	<node lat="70.47307500682138" lon="25.123933152381692" id="-100181">
		<tag k="name" v="Nordli" />
		<tag k="name:no" v="Nordli" />
		<tag k="place" v="farm" />
		<tag k="ssr:stedsnr" v="19736" />
	</node>
	<node lat="70.35850000578714" lon="25.46499698595152" id="-100203">
		<tag k="name" v="Krokmyra - Lammaskenttä" />
		<tag k="name:fkv" v="Lammaskenttä" />
		<tag k="name:no" v="Krokmyra" />
		<tag k="place" v="farm" />
		<tag k="ssr:stedsnr" v="20471" />
	</node>
	<node lat="70.36211389239143" lon="25.063019241216107" id="-100207">
		<tag k="name" v="Bakkejord" />
		<tag k="name:no" v="Bakkejord" />
		<tag k="place" v="farm" />
		<tag k="ssr:stedsnr" v="20567" />
	</node>
	<node lat="70.3587305593687" lon="25.04616091614816" id="-100210">
		<tag k="name" v="Skogbakken" />
		<tag k="name:no" v="Skogbakken" />
		<tag k="place" v="farm" />
		<tag k="ssr:stedsnr" v="20582" />
	</node>
	<node lat="70.32460000579877" lon="25.148999813783156" id="-100215">
		<tag k="name" v="Vindjord" />
		<tag k="name:no" v="Vindjord" />
		<tag k="place" v="farm" />
		<tag k="ssr:stedsnr" v="20613" />
	</node>
	<node lat="70.31678889868111" lon="25.09678591734964" id="-100219">
		<tag k="name" v="Østli" />
		<tag k="name:no" v="Østli" />
		<tag k="place" v="farm" />
		<tag k="ssr:stedsnr" v="20625" />
	</node>
	<node lat="70.32182778538822" lon="25.586660856819506" id="-100262">
		<tag k="name" v="Nedre Myrskog - Alainen Kaiskiruto" />
		<tag k="name:fkv" v="Alainen Kaiskiruto" />
		<tag k="name:no" v="Nedre Myrskog" />
		<tag k="place" v="isolated_dwelling" />
		<tag k="ssr:stedsnr" v="32583" />
	</node>
	<node lat="70.46157671627479" lon="25.22277626927904" id="-100270">
		<tag k="name" v="Skogro" />
		<tag k="name:no" v="Skogro" />
		<tag k="place" v="farm" />
		<tag k="ssr:stedsnr" v="48731" />
	</node>
	<node lat="70.5153750042299" lon="24.96118593068959" id="-100271">
		<tag k="name" v="Fjellheim" />
		<tag k="name:no" v="Fjellheim" />
		<tag k="place" v="farm" />
		<tag k="ssr:stedsnr" v="81927" />
	</node>
	<node lat="70.04126111860717" lon="25.043772024728284" id="-100298">
		<tag k="name" v="Øvergård" />
		<tag k="name:no" v="Øvergård" />
		<tag k="place" v="farm" />
		<tag k="ssr:stedsnr" v="80248" />
	</node>
	<node lat="69.8258444507097" lon="25.147460873709193" id="-100318">
		<tag k="name" v="Øystad" />
		<tag k="name:no" v="Øystad" />
		<tag k="place" v="farm" />
		<tag k="ssr:stedsnr" v="80608" />
	</node>
	<node lat="70.31757501096679" lon="25.592838634165975" id="-100353">
		<tag k="name" v="Fagerli" />
		<tag k="name:no" v="Fagerli" />
		<tag k="place" v="farm" />
		<tag k="ssr:stedsnr" v="81482" />
	</node>
	<node lat="70.31825556028667" lon="25.579158098065985" id="-100354">
		<tag k="name" v="Leirvollen" />
		<tag k="name:no" v="Leirvollen" />
		<tag k="place" v="farm" />
		<tag k="ssr:stedsnr" v="81483" />
	</node>
	<node lat="70.31356111969234" lon="25.4633497613567" id="-100361">
		<tag k="name" v="Dalheim" />
		<tag k="name:no" v="Dalheim" />
		<tag k="place" v="farm" />
		<tag k="ssr:stedsnr" v="81478" />
	</node>
	<node lat="70.32604445653668" lon="25.550755311831427" id="-100372">
		<tag k="name" v="Sommerset - Väliruto" />
		<tag k="name:fkv" v="Väliruto" />
		<tag k="name:no" v="Sommerset" />
		<tag k="place" v="farm" />
		<tag k="ssr:stedsnr" v="81511" />
	</node>
	<node lat="70.35961667096545" lon="25.051960924549732" id="-100377">
		<tag k="name" v="Solrud" />
		<tag k="name:no" v="Solrud" />
		<tag k="place" v="farm" />
		<tag k="ssr:stedsnr" v="81568" />
	</node>
	<node lat="70.6555555636418" lon="25.374999788460883" id="-100384">
		<tag k="name" v="Indre Sortvik" />
		<tag k="name:no" v="Indre Sortvik" />
		<tag k="place" v="locality" />
		<tag k="ssr:stedsnr" v="85340" />
	</node>
	<node lat="70.05857222438866" lon="24.930724806452687" id="-100420">
		<tag k="name" v="Rauttiinaitat" />
		<tag k="name:fkv" v="Rauttiinaitat" />
		<tag k="place" v="locality" />
		<tag k="ssr:stedsnr" v="100881" />
	</node>
	<node lat="70.22813889468762" lon="24.94246926426372" id="-100429">
		<tag k="name" v="Činajohka" />
		<tag k="name:se" v="Činajohka" />
		<tag k="place" v="farm" />
		<tag k="ssr:stedsnr" v="140027" />
	</node>
	<node lat="70.09210555878077" lon="25.038716473293285" id="-100442">
		<tag k="name" v="Asphaug" />
		<tag k="name:no" v="Asphaug" />
		<tag k="place" v="farm" />
		<tag k="ssr:stedsnr" v="140144" />
	</node>
	<node lat="70.29547778779019" lon="25.519121991775766" id="-100472">
		<tag k="name" v="Veahkir - Vækker - Väkkärä" />
		<tag k="name:fkv" v="Väkkärä" />
		<tag k="name:no" v="Vækker" />
		<tag k="name:se" v="Veahkir" />
		<tag k="place" v="farm" />
		<tag k="ssr:stedsnr" v="140454" />
	</node>
	<node lat="70.49550278729328" lon="25.106491479795555" id="-100484">
		<tag k="name" v="Dálvesadji - Gamnes" />
		<tag k="name:no" v="Gamnes" />
		<tag k="name:se" v="Dálvesadji" />
		<tag k="place" v="isolated_dwelling" />
		<tag k="ssr:stedsnr" v="140675" />
	</node>
	<node lat="70.52488055922299" lon="25.199755360042225" id="-100498">
		<tag k="fixme" v="multiple name tags, choose one and add the other to alt_name" />
		<tag k="name" v="Ankervik;Litlevik" />
		<tag k="name:no" v="Ankervik;Litlevik" />
		<tag k="place" v="isolated_dwelling" />
		<tag k="ssr:stedsnr" v="141908" />
	</node>
	<node lat="70.32633611848532" lon="25.06149980250499" id="-100508">
		<tag k="name" v="Mikkeljord" />
		<tag k="name:no" v="Mikkeljord" />
		<tag k="place" v="farm" />
		<tag k="ssr:stedsnr" v="141553" />
	</node>
	<node lat="70.32490000747524" lon="25.54724697667785" id="-100511">
		<tag k="name" v="Nygård" />
		<tag k="name:no" v="Nygård" />
		<tag k="place" v="farm" />
		<tag k="ssr:stedsnr" v="141497" />
	</node>
	<node lat="70.32254723231075" lon="25.137933131088452" id="-100523">
		<tag k="name" v="Njárga - Sandvik" />
		<tag k="name:no" v="Sandvik" />
		<tag k="name:se" v="Njárga" />
		<tag k="place" v="hamlet" />
		<tag k="ssr:stedsnr" v="142627" />
	</node>
	<node lat="70.5260805578109" lon="25.090283143151172" id="-100540">
		<tag k="name" v="Smørfjord" />
		<tag k="name:no" v="Smørfjord" />
		<tag k="place" v="hamlet" />
		<tag k="ssr:stedsnr" v="152386" />
	</node>
	<node lat="70.49267500732682" lon="25.16736368683045" id="-100562">
		<tag k="name" v="Stuorragoahti" />
		<tag k="name:se" v="Stuorragoahti" />
		<tag k="place" v="locality" />
		<tag k="ssr:stedsnr" v="152873" />
	</node>
	<node lat="70.24326945010523" lon="25.435199756418367" id="-100566">
		<tag k="barrier" v="fence" />
		<tag k="name" v="Boazoáidi" />
		<tag k="name:se" v="Boazoáidi" />
		<tag k="ssr:stedsnr" v="153290" />
	</node>
	<node lat="70.4704638958743" lon="25.076269267098528" id="-100582">
		<tag k="name" v="Øvrejord" />
		<tag k="name:no" v="Øvrejord" />
		<tag k="place" v="farm" />
		<tag k="ssr:stedsnr" v="169695" />
	</node>
	<node lat="70.0823333380738" lon="25.04982202890696" id="-100583">
		<tag k="name" v="Myrdal" />
		<tag k="name:no" v="Myrdal" />
		<tag k="place" v="farm" />
		<tag k="ssr:stedsnr" v="273009" />
	</node>
	<node lat="70.21397500969923" lon="24.915955368639803" id="-100586">
		<tag k="fixme" v="consider place=hamlet" />
		<tag k="name" v="Ikkaldas - Igeldas" />
		<tag k="name:no" v="Igeldas" />
		<tag k="name:se" v="Ikkaldas" />
		<tag k="place" v="village" />
		<tag k="ssr:stedsnr" v="201073" />
	</node>
	<node lat="70.0506861164398" lon="25.067566448531267" id="-100602">
		<tag k="name" v="Øvre Brennelv - Yli-Palo" />
		<tag k="name:fkv" v="Yli-Palo" />
		<tag k="name:no" v="Øvre Brennelv" />
		<tag k="place" v="hamlet" />
		<tag k="ssr:stedsnr" v="201201" />
	</node>
	<node lat="70.04771389346237" lon="25.015002589325952" id="-100603">
		<tag k="name" v="Dulerohtu - Ildskog - Tyllyruto" />
		<tag k="name:fkv" v="Tyllyruto" />
		<tag k="name:no" v="Ildskog" />
		<tag k="name:se" v="Dulerohtu" />
		<tag k="place" v="hamlet" />
		<tag k="ssr:stedsnr" v="201218" />
	</node>
	<node lat="70.04538889363462" lon="25.001366476141154" id="-100604">
		<tag k="name" v="Lilleberg" />
		<tag k="name:no" v="Lilleberg" />
		<tag k="place" v="farm" />
		<tag k="ssr:stedsnr" v="201221" />
	</node>
	<node lat="70.01316111603919" lon="24.963274799564257" id="-100617">
		<tag k="name" v="Torbjørnsrud" />
		<tag k="name:no" v="Torbjørnsrud" />
		<tag k="place" v="farm" />
		<tag k="ssr:stedsnr" v="201255" />
	</node>
	<node lat="69.9836166765919" lon="24.949441462483094" id="-100638">
		<tag k="name" v="Soldatnes" />
		<tag k="name:no" v="Soldatnes" />
		<tag k="place" v="farm" />
		<tag k="ssr:stedsnr" v="201680" />
	</node>
	<node lat="70.50387089341982" lon="25.22121999842903" id="-100665">
		<tag k="name" v="Forland" />
		<tag k="name:no" v="Forland" />
		<tag k="place" v="locality" />
		<tag k="ssr:stedsnr" v="202524" />
	</node>
	<node lat="70.28181666969874" lon="25.112699797131143" id="-100677">
		<tag k="name" v="Tømmernes" />
		<tag k="name:no" v="Tømmernes" />
		<tag k="place" v="farm" />
		<tag k="ssr:stedsnr" v="202625" />
	</node>
	<node lat="70.05789167215673" lon="25.12829145399189" id="-100766">
		<tag k="name" v="Lauvstrand" />
		<tag k="name:no" v="Lauvstrand" />
		<tag k="place" v="farm" />
		<tag k="ssr:stedsnr" v="322217" />
	</node>
	<node lat="70.02088056243413" lon="24.933074804303985" id="-100793">
		<tag k="name" v="Lunden" />
		<tag k="name:no" v="Lunden" />
		<tag k="place" v="farm" />
		<tag k="ssr:stedsnr" v="323257" />
	</node>
	<node lat="70.03059167561781" lon="24.92938314584606" id="-100795">
		<tag k="name" v="Lakevann - Mađetjärvi" />
		<tag k="name:fkv" v="Mađetjärvi" />
		<tag k="name:no" v="Lakevann" />
		<tag k="place" v="farm" />
		<tag k="ssr:stedsnr" v="323264" />
	</node>
	<node lat="70.32938056649313" lon="25.067233133983553" id="-100809">
		<tag k="name" v="Solborg" />
		<tag k="name:no" v="Solborg" />
		<tag k="place" v="farm" />
		<tag k="ssr:stedsnr" v="323549" />
	</node>
	<node lat="70.32052500865721" lon="25.545980323319434" id="-100815">
		<tag k="name" v="Høybakken - Korkealuokka" />
		<tag k="name:fkv" v="Korkealuokka" />
		<tag k="name:no" v="Høybakken" />
		<tag k="place" v="farm" />
		<tag k="ssr:stedsnr" v="323468" />
	</node>
	<node lat="70.30174722949458" lon="25.06339701774123" id="-100821">
		<tag k="name" v="Bjørkås" />
		<tag k="name:no" v="Bjørkås" />
		<tag k="place" v="farm" />
		<tag k="ssr:stedsnr" v="323585" />
	</node>
	<node lat="70.2754388932025" lon="25.067774811072578" id="-100826">
		<tag k="name" v="Olsborg" />
		<tag k="name:no" v="Olsborg" />
		<tag k="place" v="farm" />
		<tag k="ssr:stedsnr" v="323619" />
	</node>
	<node lat="70.29702500525654" lon="25.067302574262122" id="-100827">
		<tag k="name" v="Løvhaug" />
		<tag k="name:no" v="Løvhaug" />
		<tag k="place" v="farm" />
		<tag k="ssr:stedsnr" v="323624" />
	</node>
	<node lat="70.35435000492818" lon="25.03850814492425" id="-100853">
		<tag k="name" v="Gorbovuotna - Ytre Billefjord - Korpivuono" />
		<tag k="name:fkv" v="Korpivuono" />
		<tag k="name:no" v="Ytre Billefjord" />
		<tag k="name:se" v="Gorbovuotna" />
		<tag k="place" v="hamlet" />
		<tag k="ssr:stedsnr" v="324961" />
	</node>
	<node lat="70.43233916236683" lon="25.188733238355976" id="-100889">
		<tag k="name" v="Nygård" />
		<tag k="name:no" v="Nygård" />
		<tag k="place" v="farm" />
		<tag k="ssr:stedsnr" v="351745" />
	</node>
	<node lat="70.21392500422908" lon="24.912172051694082" id="-100902">
		<tag k="name" v="Steinli" />
		<tag k="name:no" v="Steinli" />
		<tag k="place" v="farm" />
		<tag k="ssr:stedsnr" v="383093" />
	</node>
	<node lat="70.09514167662267" lon="25.034874791217177" id="-100903">
		<tag k="name" v="Nordgård" />
		<tag k="name:no" v="Nordgård" />
		<tag k="place" v="farm" />
		<tag k="ssr:stedsnr" v="383172" />
	</node>
	<node lat="70.43855556441729" lon="25.199652585840745" id="-100943">
		<tag k="fixme" v="consider place=hamlet" />
		<tag k="name" v="Čuđegieddi - Kistrand - Ryssämarkka" />
		<tag k="name:fkv" v="Ryssämarkka" />
		<tag k="name:no" v="Kistrand" />
		<tag k="name:se" v="Čuđegieddi" />
		<tag k="place" v="village" />
		<tag k="ssr:stedsnr" v="383721" />
	</node>
	<node lat="70.5054694460335" lon="25.057019264607373" id="-100950">
		<tag k="name" v="Fagerfjell" />
		<tag k="name:no" v="Fagerfjell" />
		<tag k="place" v="farm" />
		<tag k="ssr:stedsnr" v="383970" />
	</node>
	<node lat="70.35896945318096" lon="25.04849704241172" id="-100959">
		<tag k="name" v="Mikkelsborg" />
		<tag k="name:no" v="Mikkelsborg" />
		<tag k="place" v="farm" />
		<tag k="ssr:stedsnr" v="384532" />
	</node>
	<node lat="70.34956389535338" lon="25.038613688271784" id="-100960">
		<tag k="name" v="Helmerjord" />
		<tag k="name:no" v="Helmerjord" />
		<tag k="place" v="farm" />
		<tag k="ssr:stedsnr" v="384536" />
	</node>
	<node lat="70.35746111739932" lon="25.04252480830139" id="-100963">
		<tag k="name" v="Remmen" />
		<tag k="name:no" v="Remmen" />
		<tag k="place" v="farm" />
		<tag k="ssr:stedsnr" v="384542" />
	</node>
	<node lat="70.31901667310824" lon="25.040022024407723" id="-100966">
		<tag k="name" v="Høgli" />
		<tag k="name:no" v="Høgli" />
		<tag k="place" v="farm" />
		<tag k="ssr:stedsnr" v="384573" />
	</node>
	<node lat="70.5145527809477" lon="24.96320816571768" id="-100968">
		<tag k="name" v="Myrstad" />
		<tag k="name:no" v="Myrstad" />
		<tag k="place" v="farm" />
		<tag k="ssr:stedsnr" v="384936" />
	</node>
	<node lat="70.43630278384924" lon="25.616824757244515" id="-100969">
		<tag k="name" v="Biesaidgohppi - Ytre Leirpollen - Piesankoppa" />
		<tag k="name:fkv" v="Piesankoppa" />
		<tag k="name:no" v="Ytre Leirpollen" />
		<tag k="name:se" v="Biesaidgohppi" />
		<tag k="place" v="hamlet" />
		<tag k="ssr:stedsnr" v="384974" />
	</node>
	<node lat="70.43734723009533" lon="25.199647024307414" id="-100983">
		<tag k="name" v="Bondejorda" />
		<tag k="name:no" v="Bondejorda" />
		<tag k="place" v="farm" />
		<tag k="ssr:stedsnr" v="395399" />
	</node>
	<node lat="70.32758056144063" lon="25.614641409778066" id="-100990">
		<tag k="name" v="Leppäruto" />
		<tag k="name:fkv" v="Leppäruto" />
		<tag k="place" v="farm" />
		<tag k="ssr:stedsnr" v="395451" />
	</node>
	<node lat="70.3302888985633" lon="25.602708089650015" id="-100991">
		<tag k="name" v="Leppäruto" />
		<tag k="name:fkv" v="Leppäruto" />
		<tag k="place" v="farm" />
		<tag k="ssr:stedsnr" v="395461" />
	</node>
	<node lat="70.3783638931403" lon="25.48931920923822" id="-100996">
		<tag k="name" v="Paki" />
		<tag k="name:fkv" v="Paki" />
		<tag k="place" v="farm" />
		<tag k="ssr:stedsnr" v="395601" />
	</node>
	<node lat="70.31082222758654" lon="25.06041369612495" id="-101001">
		<tag k="name" v="Indre Billefjord Øst" />
		<tag k="name:no" v="Indre Billefjord Øst" />
		<tag k="place" v="quarter" />
		<tag k="ssr:stedsnr" v="395975" />
	</node>
	<node lat="69.98940278539443" lon="24.933402588638423" id="-101015">
		<tag k="name" v="Heimdal" />
		<tag k="name:no" v="Heimdal" />
		<tag k="place" v="farm" />
		<tag k="ssr:stedsnr" v="410233" />
	</node>
	<node lat="70.02151945380862" lon="24.932563695425888" id="-101029">
		<tag k="name" v="Vestervoll" />
		<tag k="name:no" v="Vestervoll" />
		<tag k="place" v="farm" />
		<tag k="ssr:stedsnr" v="444227" />
	</node>
	<node lat="70.06222500356058" lon="24.938052595605857" id="-101040">
		<tag k="name" v="Nedre Smørstad" />
		<tag k="name:no" v="Nedre Smørstad" />
		<tag k="place" v="farm" />
		<tag k="ssr:stedsnr" v="444169" />
	</node>
	<node lat="70.05424167562502" lon="25.03046370055603" id="-101041">
		<tag k="name" v="Brennelv - Palo" />
		<tag k="name:fkv" v="Palo" />
		<tag k="name:no" v="Brennelv" />
		<tag k="place" v="hamlet" />
		<tag k="ssr:stedsnr" v="444172" />
	</node>
	<node lat="70.05458334078406" lon="24.940872040130014" id="-101042">
		<tag k="name" v="Langmyr" />
		<tag k="name:no" v="Langmyr" />
		<tag k="place" v="farm" />
		<tag k="ssr:stedsnr" v="444178" />
	</node>
	<node lat="69.9035472306208" lon="24.999363687385635" id="-101050">
		<tag k="fixme" v="consider place=suburb, village or hamlet" />
		<tag k="loc_name:se" v="Iŋggašguolbba" />
		<tag k="name" v="Porsangmoen" />
		<tag k="name:no" v="Porsangmoen" />
		<tag k="old_name:no" v="Porsangermoen" />
		<tag k="place" v="quarter" />
		<tag k="ssr:stedsnr" v="444490" />
	</node>
	<node lat="70.50621111918518" lon="25.73188030553479" id="-101051">
		<tag k="fixme" v="consider place=hamlet" />
		<tag k="name" v="Breannjá - Brenna - Prännä" />
		<tag k="name:fkv" v="Prännä" />
		<tag k="name:no" v="Brenna" />
		<tag k="name:se" v="Breannjá" />
		<tag k="place" v="village" />
		<tag k="ssr:stedsnr" v="444492" />
	</node>
	<node lat="69.98441667190303" lon="24.959813700755042" id="-101059">
		<tag k="name" v="Soldatslett" />
		<tag k="name:no" v="Soldatslett" />
		<tag k="place" v="farm" />
		<tag k="ssr:stedsnr" v="444700" />
	</node>
	<node lat="70.6662583374674" lon="25.794274750271583" id="-101079">
		<tag k="name" v="Klokkevika" />
		<tag k="name:no" v="Klokkevika" />
		<tag k="place" v="isolated_dwelling" />
		<tag k="ssr:stedsnr" v="444999" />
	</node>
	<node lat="70.31105833828431" lon="25.573641427378128" id="-101091">
		<tag k="name" v="Skierrečohkka - Risbakken" />
		<tag k="name:no" v="Risbakken" />
		<tag k="name:se" v="Skierrečohkka" />
		<tag k="place" v="farm" />
		<tag k="ssr:stedsnr" v="445470" />
	</node>
	<node lat="70.31776958713286" lon="25.565796585776273" id="-101092">
		<tag k="fixme" v="consider place=hamlet" />
		<tag k="name" v="Bissojohka - Børselv - Pyssyjoki" />
		<tag k="name:fkv" v="Pyssyjoki" />
		<tag k="name:no" v="Børselv" />
		<tag k="name:se" v="Bissojohka" />
		<tag k="place" v="village" />
		<tag k="ssr:stedsnr" v="445472" />
	</node>
	<node lat="70.2843527809289" lon="25.106302589195497" id="-101095">
		<tag k="name" v="Stuorragieddi" />
		<tag k="name:se" v="Stuorragieddi" />
		<tag k="place" v="farm" />
		<tag k="ssr:stedsnr" v="445621" />
	</node>
	<node lat="70.37063056615447" lon="25.090583131924262" id="-101101">
		<tag k="name" v="Sálletjohka - Elvenes" />
		<tag k="name:no" v="Elvenes" />
		<tag k="name:se" v="Sálletjohka" />
		<tag k="old_name:se" v="Salletjåkka" />
		<tag k="place" v="farm" />
		<tag k="ssr:stedsnr" v="445567" />
	</node>
	<node lat="70.52069445238088" lon="25.074849823132872" id="-101105">
		<tag k="name" v="Solbakken" />
		<tag k="name:no" v="Solbakken" />
		<tag k="place" v="farm" />
		<tag k="ssr:stedsnr" v="445925" />
	</node>
	<node lat="70.17910471284857" lon="24.874389825503116" id="-101112">
		<tag k="name" v="Solbakken" />
		<tag k="name:no" v="Solbakken" />
		<tag k="place" v="isolated_dwelling" />
		<tag k="ssr:stedsnr" v="504082" />
	</node>
	<node lat="70.00270278217145" lon="24.948524814339844" id="-101126">
		<tag k="name" v="Nyheim" />
		<tag k="name:no" v="Nyheim" />
		<tag k="place" v="farm" />
		<tag k="ssr:stedsnr" v="504233" />
	</node>
	<node lat="69.99043333619163" lon="24.95731368914063" id="-101142">
		<tag k="name" v="Aspelund" />
		<tag k="name:no" v="Aspelund" />
		<tag k="place" v="farm" />
		<tag k="ssr:stedsnr" v="504712" />
	</node>
	<node lat="70.21315000380227" lon="24.92078037786169" id="-101152">
		<tag k="name" v="Skogmyr" />
		<tag k="name:no" v="Skogmyr" />
		<tag k="place" v="farm" />
		<tag k="ssr:stedsnr" v="505092" />
	</node>
	<node lat="70.0099694547922" lon="24.92526369135562" id="-101155">
		<tag k="name" v="Gjøkenes - Köykiniemi" />
		<tag k="name:fkv" v="Köykiniemi" />
		<tag k="name:no" v="Gjøkenes" />
		<tag k="place" v="farm" />
		<tag k="ssr:stedsnr" v="505281" />
	</node>
	<node lat="70.31526389201827" lon="25.04613314141008" id="-101181">
		<tag k="fixme" v="consider place=hamlet" />
		<tag k="name" v="Billávuotna - Indre Billefjord - Pillavuono" />
		<tag k="name:fkv" v="Pillavuono" />
		<tag k="name:no" v="Indre Billefjord" />
		<tag k="name:se" v="Billávuotna" />
		<tag k="place" v="village" />
		<tag k="ssr:stedsnr" v="505600" />
	</node>
	<node lat="70.29946667609033" lon="25.082333130627717" id="-101193">
		<tag k="name" v="Nordskog" />
		<tag k="name:no" v="Nordskog" />
		<tag k="place" v="farm" />
		<tag k="ssr:stedsnr" v="505623" />
	</node>
	<node lat="70.47261111610821" lon="25.12988315233335" id="-101201">
		<tag k="name" v="Øverset" />
		<tag k="name:no" v="Øverset" />
		<tag k="place" v="farm" />
		<tag k="ssr:stedsnr" v="505756" />
	</node>
	<node lat="70.05111945493302" lon="25.07513313188154" id="-101234">
		<tag k="name" v="Storskogen" />
		<tag k="name:no" v="Storskogen" />
		<tag k="place" v="farm" />
		<tag k="ssr:stedsnr" v="517360" />
	</node>
	<node lat="70.21163889181953" lon="24.924613709627717" id="-101253">
		<tag k="name" v="Bevkop" />
		<tag k="name:no" v="Bevkop" />
		<tag k="place" v="locality" />
		<tag k="ssr:stedsnr" v="517871" />
	</node>
	<node lat="70.03409444778731" lon="24.936649811109696" id="-101287">
		<tag k="name" v="Holmen" />
		<tag k="name:no" v="Holmen" />
		<tag k="place" v="farm" />
		<tag k="ssr:stedsnr" v="565199" />
	</node>
	<node lat="70.03665001080992" lon="25.108635895014448" id="-101292">
		<tag k="name" v="Fossestrand - Kurkkionväli" />
		<tag k="name:fkv" v="Kurkkionväli" />
		<tag k="name:no" v="Fossestrand" />
		<tag k="place" v="farm" />
		<tag k="ssr:stedsnr" v="565218" />
	</node>
	<node lat="70.03813612071426" lon="24.97748868715626" id="-101293">
		<tag k="name" v="Storfyllingen" />
		<tag k="name:no" v="Storfyllingen" />
		<tag k="place" v="farm" />
		<tag k="ssr:stedsnr" v="565200" />
	</node>
	<node lat="70.04275278368266" lon="25.039024784429568" id="-101300">
		<tag k="name" v="Nyberg" />
		<tag k="name:no" v="Nyberg" />
		<tag k="place" v="farm" />
		<tag k="ssr:stedsnr" v="565238" />
	</node>
	<node lat="70.30983056076192" lon="25.091049802082228" id="-101325">
		<tag k="name" v="Breili" />
		<tag k="name:no" v="Breili" />
		<tag k="place" v="farm" />
		<tag k="ssr:stedsnr" v="565577" />
	</node>
	<node lat="70.30674167540998" lon="25.082849816367894" id="-101326">
		<tag k="name" v="Hansrud" />
		<tag k="name:no" v="Hansrud" />
		<tag k="place" v="farm" />
		<tag k="ssr:stedsnr" v="565578" />
	</node>
	<node lat="69.83266945137794" lon="25.070991463760844" id="-101336">
		<tag k="name" v="Veines" />
		<tag k="name:no" v="Veines" />
		<tag k="place" v="farm" />
		<tag k="ssr:stedsnr" v="565523" />
	</node>
	<node lat="69.97282500654009" lon="24.948172014387065" id="-101339">
		<tag k="name" v="Revfossnes - Repokoski" />
		<tag k="name:fkv" v="Repokoski" />
		<tag k="name:no" v="Revfossnes" />
		<tag k="place" v="farm" />
		<tag k="ssr:stedsnr" v="565534" />
	</node>
	<node lat="70.2755333363411" lon="25.04772202554239" id="-101344">
		<tag k="name" v="Dalen" />
		<tag k="name:no" v="Dalen" />
		<tag k="place" v="farm" />
		<tag k="ssr:stedsnr" v="565616" />
	</node>
	<node lat="70.47735278147636" lon="25.06613037833668" id="-101354">
		<tag k="name" v="Buktkroken" />
		<tag k="name:no" v="Buktkroken" />
		<tag k="place" v="farm" />
		<tag k="ssr:stedsnr" v="565765" />
	</node>
	<node lat="70.46821389199789" lon="25.076327590828118" id="-101355">
		<tag k="name" v="Åsheim" />
		<tag k="name:no" v="Åsheim" />
		<tag k="place" v="farm" />
		<tag k="ssr:stedsnr" v="565750" />
	</node>
	<node lat="70.59230833470741" lon="25.26695258556343" id="-101364">
		<tag k="name" v="Hønsa" />
		<tag k="name:no" v="Hønsa" />
		<tag k="place" v="locality" />
		<tag k="ssr:stedsnr" v="565977" />
	</node>
	<node lat="70.32456667281097" lon="25.057319252971585" id="-101383">
		<tag k="name" v="Boahkkogieddi - Koppeng" />
		<tag k="name:no" v="Koppeng" />
		<tag k="name:se" v="Boahkkogieddi" />
		<tag k="place" v="farm" />
		<tag k="ssr:stedsnr" v="566540" />
	</node>
	<node lat="70.58587222710909" lon="25.929760830890768" id="-101388">
		<tag k="name" v="Styrnes" />
		<tag k="name:no" v="Styrnes" />
		<tag k="place" v="hamlet" />
		<tag k="ssr:stedsnr" v="566577" />
	</node>
	<node lat="70.32074723196831" lon="25.09958868834108" id="-101389">
		<tag k="name" v="Suovdi" />
		<tag k="name:se" v="Suovdi" />
		<tag k="place" v="farm" />
		<tag k="ssr:stedsnr" v="566578" />
	</node>
	<node lat="70.31553056462408" lon="25.0412748114529" id="-101390">
		<tag k="name" v="Elvenes" />
		<tag k="name:no" v="Elvenes" />
		<tag k="place" v="farm" />
		<tag k="ssr:stedsnr" v="566588" />
	</node>
	<node lat="70.53490556185152" lon="25.108299822445517" id="-101401">
		<tag k="name" v="Dollejohka - Brennelv" />
		<tag k="name:no" v="Brennelv" />
		<tag k="name:se" v="Dollejohka" />
		<tag k="old_name:se" v="Dållejåkka" />
		<tag k="place" v="farm" />
		<tag k="ssr:stedsnr" v="566922" />
	</node>
	<node lat="69.99872223111498" lon="24.99091368757859" id="-101422">
		<tag k="name" v="Karalaks" />
		<tag k="name:no" v="Karalaks" />
		<tag k="place" v="isolated_dwelling" />
		<tag k="ssr:stedsnr" v="577468" />
	</node>
	<node lat="70.29961389524765" lon="25.06423869221193" id="-101429">
		<tag k="name" v="Friborg" />
		<tag k="name:no" v="Friborg" />
		<tag k="place" v="farm" />
		<tag k="ssr:stedsnr" v="577782" />
	</node>
	<node lat="70.30002106273314" lon="25.075742747711924" id="-101430">
		<tag k="name" v="Breidablikk" />
		<tag k="name:no" v="Breidablikk" />
		<tag k="place" v="farm" />
		<tag k="ssr:stedsnr" v="577786" />
	</node>
	<node lat="69.83418334163206" lon="25.082171998400206" id="-101464">
		<tag k="name" v="Bakkenes" />
		<tag k="name:no" v="Bakkenes" />
		<tag k="place" v="farm" />
		<tag k="ssr:stedsnr" v="625519" />
	</node>
	<node lat="70.20916667110166" lon="24.916235933126508" id="-101473">
		<tag k="name" v="Lánjas - Baukophalsen" />
		<tag k="name:no" v="Baukophalsen" />
		<tag k="name:se" v="Lánjas" />
		<tag k="place" v="farm" />
		<tag k="ssr:stedsnr" v="626104" />
	</node>
	<node lat="70.01331667275971" lon="24.939749807490514" id="-101484">
		<tag k="name" v="Bakkekroken" />
		<tag k="name:no" v="Bakkekroken" />
		<tag k="place" v="farm" />
		<tag k="ssr:stedsnr" v="626301" />
	</node>
	<node lat="70.32686389803187" lon="25.06441093010473" id="-101497">
		<tag k="name" v="Nyeng" />
		<tag k="name:no" v="Nyeng" />
		<tag k="place" v="farm" />
		<tag k="ssr:stedsnr" v="626570" />
	</node>
	<node lat="70.49995834131597" lon="25.042213703629915" id="-101500">
		<tag k="name" v="Myrbakken" />
		<tag k="name:no" v="Myrbakken" />
		<tag k="place" v="farm" />
		<tag k="ssr:stedsnr" v="626722" />
	</node>
	<node lat="70.54625556078025" lon="25.815366403491254" id="-101513">
		<tag k="name" v="Guhkesrohtu - Langskog" />
		<tag k="name:no" v="Langskog" />
		<tag k="name:se" v="Guhkesrohtu" />
		<tag k="old_name:se" v="Gukkesråtto" />
		<tag k="place" v="hamlet" />
		<tag k="ssr:stedsnr" v="626984" />
	</node>
	<node lat="70.39450834182489" lon="25.555599776500316" id="-101521">
		<tag k="name" v="Olderelva" />
		<tag k="name:no" v="Olderelva" />
		<tag k="place" v="farm" />
		<tag k="ssr:stedsnr" v="627425" />
	</node>
	<node lat="70.52987778716934" lon="25.089466479171932" id="-101535">
		<tag k="name" v="Litleng" />
		<tag k="name:no" v="Litleng" />
		<tag k="place" v="farm" />
		<tag k="ssr:stedsnr" v="627932" />
	</node>
	<node lat="70.44486667418386" lon="25.212855370339934" id="-101546">
		<tag k="name" v="Alfheim" />
		<tag k="name:no" v="Alfheim" />
		<tag k="place" v="farm" />
		<tag k="ssr:stedsnr" v="637434" />
	</node>
	<node lat="70.3283027835205" lon="25.617488634194878" id="-101555">
		<tag k="name" v="Vuomaranta" />
		<tag k="name:fkv" v="Vuomaranta" />
		<tag k="place" v="farm" />
		<tag k="ssr:stedsnr" v="637482" />
	</node>
	<node lat="70.32850001059876" lon="25.608527540468877" id="-101557">
		<tag k="name" v="Aaponsammunkenttä" />
		<tag k="name:fkv" v="Aaponsammunkenttä" />
		<tag k="place" v="farm" />
		<tag k="ssr:stedsnr" v="637474" />
	</node>
	<node lat="70.20931111996799" lon="24.9352525963193" id="-101560">
		<tag k="name" v="Risvik" />
		<tag k="name:no" v="Risvik" />
		<tag k="place" v="locality" />
		<tag k="ssr:stedsnr" v="638843" />
	</node>
	<node lat="70.24543334262168" lon="24.994994254490102" id="-101562">
		<tag k="name" v="Jonsnes" />
		<tag k="name:no" v="Jonsnes" />
		<tag k="place" v="isolated_dwelling" />
		<tag k="ssr:stedsnr" v="638861" />
	</node>
	<node lat="70.18875229570398" lon="24.91097737195785" id="-101563">
		<tag k="name" v="Stabbursnes vestre" />
		<tag k="name:no" v="Stabbursnes vestre" />
		<tag k="place" v="farm" />
		<tag k="ssr:stedsnr" v="638145" />
	</node>
	<node lat="70.06061112082037" lon="24.9263859161015" id="-101589">
		<tag k="name" v="Sarppula" />
		<tag k="name:fkv" v="Sarppula" />
		<tag k="place" v="farm" />
		<tag k="ssr:stedsnr" v="747185" />
	</node>
	<node lat="70.05362778591098" lon="24.987994254104727" id="-101590">
		<tag k="name" v="Bergskog" />
		<tag k="name:no" v="Bergskog" />
		<tag k="place" v="farm" />
		<tag k="ssr:stedsnr" v="747189" />
	</node>
	<node lat="70.08446112029569" lon="25.202841463000265" id="-101592">
		<tag k="name" v="Časkilbekk" />
		<tag k="name:no" v="Časkilbekk" />
		<tag k="place" v="farm" />
		<tag k="ssr:stedsnr" v="747202" />
	</node>
	<node lat="70.03396944702696" lon="24.9951470334153" id="-101596">
		<tag k="name" v="Bjørkås" />
		<tag k="name:no" v="Bjørkås" />
		<tag k="place" v="farm" />
		<tag k="ssr:stedsnr" v="747226" />
	</node>
	<node lat="70.04965000527707" lon="25.034163674407786" id="-101597">
		<tag k="name" v="Bergeng" />
		<tag k="name:no" v="Bergeng" />
		<tag k="place" v="farm" />
		<tag k="ssr:stedsnr" v="747241" />
	</node>
	<node lat="70.01235000601045" lon="24.920758150954345" id="-101600">
		<tag k="name" v="Sandslett" />
		<tag k="name:no" v="Sandslett" />
		<tag k="place" v="farm" />
		<tag k="ssr:stedsnr" v="747261" />
	</node>
	<node lat="70.28408889790722" lon="25.3128497983172" id="-101619">
		<tag k="name" v="Sommersetra - Luoviruto" />
		<tag k="name:fkv" v="Luoviruto" />
		<tag k="name:no" v="Sommersetra" />
		<tag k="place" v="isolated_dwelling" />
		<tag k="ssr:stedsnr" v="747448" />
	</node>
	<node lat="70.46172778665199" lon="25.22674147224067" id="-101622">
		<tag k="name" v="Saltmelen" />
		<tag k="name:no" v="Saltmelen" />
		<tag k="place" v="farm" />
		<tag k="ssr:stedsnr" v="748444" />
	</node>
	<node lat="70.49725833823416" lon="25.198530356029213" id="-101633">
		<tag k="name" v="Vuohpoš - Bringnesjorda" />
		<tag k="name:no" v="Bringnesjorda" />
		<tag k="name:se" v="Vuohpoš" />
		<tag k="place" v="locality" />
		<tag k="ssr:stedsnr" v="747686" />
	</node>
	<node lat="70.64951667772876" lon="26.006963627109204" id="-101666">
		<tag k="name" v="Valjesgieddi" />
		<tag k="name:se" v="Valjesgieddi" />
		<tag k="old_name:se" v="Valljesgieddi" />
		<tag k="place" v="locality" />
		<tag k="ssr:stedsnr" v="748561" />
	</node>
	<node lat="70.27702778026266" lon="25.03196926286479" id="-101672">
		<tag k="name" v="Vesterli" />
		<tag k="name:no" v="Vesterli" />
		<tag k="place" v="farm" />
		<tag k="ssr:stedsnr" v="748621" />
	</node>
	<node lat="70.47394166996749" lon="25.127510915708758" id="-101673">
		<tag k="name" v="Nordmannshaugen" />
		<tag k="name:no" v="Nordmannshaugen" />
		<tag k="place" v="farm" />
		<tag k="ssr:stedsnr" v="748625" />
	</node>
	<node lat="70.09298056500124" lon="25.075855348517074" id="-101758">
		<tag k="name" v="Hávdna - Hamnbukt - Hamina" />
		<tag k="name:fkv" v="Hamina" />
		<tag k="name:no" v="Hamnbukt" />
		<tag k="name:se" v="Hávdna" />
		<tag k="place" v="hamlet" />
		<tag k="ssr:stedsnr" v="808143" />
	</node>
	<node lat="70.05945277896161" lon="24.925852593777922" id="-101767">
		<tag k="name" v="Grunnvik" />
		<tag k="name:no" v="Grunnvik" />
		<tag k="place" v="farm" />
		<tag k="ssr:stedsnr" v="808170" />
	</node>
	<node lat="70.05272500544022" lon="24.996191455390825" id="-101769">
		<tag k="name" v="Bergbukt - Lahtipahta" />
		<tag k="name:fkv" v="Lahtipahta" />
		<tag k="name:no" v="Bergbukt" />
		<tag k="place" v="farm" />
		<tag k="ssr:stedsnr" v="808177" />
	</node>
	<node lat="70.00850000745433" lon="24.92927201812027" id="-101777">
		<tag k="name" v="Gjøkstad" />
		<tag k="name:no" v="Gjøkstad" />
		<tag k="place" v="farm" />
		<tag k="ssr:stedsnr" v="808254" />
	</node>
	<node lat="69.76071945414868" lon="25.2060886502469" id="-101798">
		<tag k="name" v="Grøtterud" />
		<tag k="name:no" v="Grøtterud" />
		<tag k="place" v="farm" />
		<tag k="ssr:stedsnr" v="808557" />
	</node>
	<node lat="70.29285000524558" lon="25.10668868408522" id="-101806">
		<tag k="name" v="Slåtten" />
		<tag k="name:no" v="Slåtten" />
		<tag k="place" v="farm" />
		<tag k="ssr:stedsnr" v="808615" />
	</node>
	<node lat="70.44310833890394" lon="25.205444244601846" id="-101807">
		<tag k="name" v="Bergkroken" />
		<tag k="name:no" v="Bergkroken" />
		<tag k="place" v="farm" />
		<tag k="ssr:stedsnr" v="808719" />
	</node>
	<node lat="70.43235000608063" lon="25.184405352715732" id="-101808">
		<tag k="name" v="Bakketun" />
		<tag k="name:no" v="Bakketun" />
		<tag k="place" v="farm" />
		<tag k="ssr:stedsnr" v="808724" />
	</node>
	<node lat="70.50746389568376" lon="24.93113038730921" id="-101820">
		<tag k="alt_name:no" v="Leifset" />
		<tag k="name" v="Leivset" />
		<tag k="name:no" v="Leivset" />
		<tag k="place" v="farm" />
		<tag k="ssr:stedsnr" v="808951" />
	</node>
	<node lat="70.50392223007302" lon="25.023438700298527" id="-101821">
		<tag k="name" v="Eidsgard" />
		<tag k="name:no" v="Eidsgard" />
		<tag k="place" v="farm" />
		<tag k="ssr:stedsnr" v="808953" />
	</node>
	<node lat="70.50510278248417" lon="25.04392202867157" id="-101822">
		<tag k="name" v="Libakken" />
		<tag k="name:no" v="Libakken" />
		<tag k="place" v="farm" />
		<tag k="ssr:stedsnr" v="808955" />
	</node>
	<node lat="70.26768889489928" lon="25.07363036696162" id="-101847">
		<tag k="name" v="Anopset" />
		<tag k="name:no" v="Anopset" />
		<tag k="place" v="farm" />
		<tag k="ssr:stedsnr" v="809642" />
	</node>
	<node lat="70.32612500822947" lon="25.41521365432534" id="-101861">
		<tag k="name" v="Giksenjárga - Børselvnes - Kiksiniemi" />
		<tag k="name:fkv" v="Kiksiniemi" />
		<tag k="name:no" v="Børselvnes" />
		<tag k="name:se" v="Giksenjárga" />
		<tag k="place" v="hamlet" />
		<tag k="ssr:stedsnr" v="810919" />
	</node>
	<node lat="70.4932833405205" lon="25.13552757550452" id="-101886">
		<tag k="name" v="Luhkka" />
		<tag k="name:se" v="Luhkka" />
		<tag k="place" v="locality" />
		<tag k="ssr:stedsnr" v="820850" />
	</node>
	<node lat="70.3204805647405" lon="25.56376086539189" id="-101888">
		<tag k="name" v="Brannengmyr - Palanheenkannonruđonjänkkä" />
		<tag k="name:fkv" v="Palanheenkannonruđonjänkkä" />
		<tag k="name:no" v="Brannengmyr" />
		<tag k="place" v="isolated_dwelling" />
		<tag k="ssr:stedsnr" v="821605" />
	</node>
	<node lat="70.43006667389663" lon="25.18110535221298" id="-101902">
		<tag k="alt_name:no" v="Myrnes" />
		<tag k="name" v="Bukta" />
		<tag k="name:no" v="Bukta" />
		<tag k="place" v="farm" />
		<tag k="ssr:stedsnr" v="837754" />
	</node>
	<node lat="70.08041111406004" lon="25.048697013128187" id="-101914">
		<tag k="name" v="Skogende - Ruđonpää" />
		<tag k="name:fkv" v="Ruđonpää" />
		<tag k="name:no" v="Skogende" />
		<tag k="place" v="hamlet" />
		<tag k="ssr:stedsnr" v="869186" />
	</node>
	<node lat="70.61305834309606" lon="25.984213626398766" id="-101923">
		<tag k="name" v="Báŋka" />
		<tag k="name:se" v="Báŋka" />
		<tag k="old_name:se" v="Baŋka" />
		<tag k="place" v="farm" />
		<tag k="ssr:stedsnr" v="869590" />
	</node>
	<node lat="70.6069222332848" lon="25.991285832034524" id="-101924">
		<tag k="fixme" v="consider place=hamlet" />
		<tag k="name" v="Kjæs - Dážagieddi - Keisi" />
		<tag k="name:fkv" v="Keisi" />
		<tag k="name:no" v="Kjæs" />
		<tag k="name:se" v="Dážagieddi" />
		<tag k="old_name:se" v="Dažagieddi" />
		<tag k="place" v="village" />
		<tag k="ssr:stedsnr" v="869592" />
	</node>
	<node lat="70.040044449197" lon="24.95328313879689" id="-101938">
		<tag k="name" v="Slåttebakken" />
		<tag k="name:no" v="Slåttebakken" />
		<tag k="place" v="farm" />
		<tag k="ssr:stedsnr" v="869240" />
	</node>
	<node lat="70.05978055954655" lon="25.120010905763355" id="-101942">
		<tag k="name" v="Svingen" />
		<tag k="name:no" v="Svingen" />
		<tag k="place" v="farm" />
		<tag k="ssr:stedsnr" v="869267" />
	</node>
	<node lat="69.83323334226384" lon="25.124138659773056" id="-101968">
		<tag k="name" v="Trygstad" />
		<tag k="name:no" v="Trygstad" />
		<tag k="place" v="farm" />
		<tag k="ssr:stedsnr" v="869636" />
	</node>
	<node lat="70.2761111137333" lon="24.993674822095677" id="-101969">
		<tag k="name" v="Bajábealjávri - Oppgård" />
		<tag k="name:no" v="Oppgård" />
		<tag k="name:se" v="Bajábealjávri" />
		<tag k="place" v="farm" />
		<tag k="ssr:stedsnr" v="869637" />
	</node>
	<node lat="70.26973547284327" lon="25.056146590129792" id="-101970">
		<tag k="name" v="Sørdal" />
		<tag k="name:no" v="Sørdal" />
		<tag k="place" v="farm" />
		<tag k="ssr:stedsnr" v="869649" />
	</node>
	<node lat="70.44229723058143" lon="25.214016477019985" id="-102029">
		<tag k="name" v="Russemark" />
		<tag k="name:no" v="Russemark" />
		<tag k="place" v="farm" />
		<tag k="ssr:stedsnr" v="881370" />
	</node>
	<node lat="70.05121667122265" lon="24.991258133145973" id="-102033">
		<tag k="name" v="Myrlund" />
		<tag k="name:no" v="Myrlund" />
		<tag k="place" v="farm" />
		<tag k="ssr:stedsnr" v="881394" />
	</node>
	<node lat="70.32422223377112" lon="25.590794195475123" id="-102035">
		<tag k="name" v="Alaouta" />
		<tag k="name:fkv" v="Alaouta" />
		<tag k="place" v="farm" />
		<tag k="ssr:stedsnr" v="881430" />
	</node>
	<node lat="70.31594722832911" lon="25.540716424960863" id="-102036">
		<tag k="name" v="Solflata - Laatas" />
		<tag k="name:fkv" v="Laatas" />
		<tag k="name:no" v="Solflata" />
		<tag k="place" v="isolated_dwelling" />
		<tag k="ssr:stedsnr" v="881525" />
	</node>
	<node lat="70.31933611453411" lon="25.04797480636202" id="-102047">
		<tag k="name" v="Bjørk" />
		<tag k="name:no" v="Bjørk" />
		<tag k="place" v="farm" />
		<tag k="ssr:stedsnr" v="881983" />
	</node>
	<node lat="70.46615556054968" lon="25.241491461585642" id="-102072">
		<tag k="name" v="Sjøstrand" />
		<tag k="name:no" v="Sjøstrand" />
		<tag k="place" v="farm" />
		<tag k="ssr:stedsnr" v="942340" />
	</node>
	<node lat="70.40739723065407" lon="25.166952582072604" id="-102073">
		<tag k="name" v="Polmasjok" />
		<tag k="name:no" v="Polmasjok" />
		<tag k="place" v="locality" />
		<tag k="ssr:stedsnr" v="942342" />
	</node>
	<node lat="70.31963056454177" lon="25.542796987127847" id="-102081">
		<tag k="loc_name:se" v="Alveluohkká" />
		<tag k="name" v="Smibakken - Pajaruto" />
		<tag k="name:fkv" v="Pajaruto" />
		<tag k="name:no" v="Smibakken" />
		<tag k="place" v="farm" />
		<tag k="ssr:stedsnr" v="942602" />
	</node>
	<node lat="70.47648055650558" lon="25.0674387127962" id="-102098">
		<tag k="name" v="Nyland" />
		<tag k="name:no" v="Nyland" />
		<tag k="place" v="farm" />
		<tag k="ssr:stedsnr" v="958720" />
	</node>
	<node lat="70.07649626727795" lon="24.923760460066394" id="-102156">
		<tag k="loc_name:fkv" v="Kallokanniemi" />
		<tag k="loc_name:se" v="Gállotnjárga" />
		<tag k="name" v="Skallenes" />
		<tag k="name:no" v="Skallenes" />
		<tag k="place" v="farm" />
		<tag k="ssr:stedsnr" v="1071916" />
	</node>
	<node lat="70.34932164709244" lon="25.061343194208984" id="-102160">
		<tag k="name" v="Skjellmo" />
		<tag k="name:no" v="Skjellmo" />
		<tag k="place" v="farm" />
		<tag k="ssr:stedsnr" v="1072679" />
	</node>
	<node lat="69.65483861708206" lon="18.954055597917613" id="-102163">
		<tag k="amenity" v="school" />
		<tag k="name" v="Ishavsbyen videregående skole" />
		<tag k="ssr:stedsnr" v="1075695" />
	</node>
	<node lat="70.270555969086" lon="25.063554918649405" id="-102166">
		<tag k="name" v="M1517       BJØRKLUND" />
		<tag k="name:no" v="M1517       BJØRKLUND" />
		<tag k="place" v="farm" />
		<tag k="ssr:stedsnr" v="1076436" />
	</node>
	<node lat="70.05909429501936" lon="24.948314989391605" id="-102167">
		<tag k="name" v="M0509       Riisskogen" />
		<tag k="name:no" v="M0509       Riisskogen" />
		<tag k="place" v="farm" />
		<tag k="ssr:stedsnr" v="1077712" />
	</node>
	<node lat="70.0647354330411" lon="25.161198813559306" id="-102247">
		<tag k="name" v="Steinsvik" />
		<tag k="name:no" v="Steinsvik" />
		<tag k="place" v="farm" />
		<tag k="ssr:stedsnr" v="1081487" />
	</node>
	<node lat="70.47689430225903" lon="25.059522020596532" id="-102299">
		<tag k="alt_name:no" v="M0547       Myrslet" />
		<tag k="name" v="Myrslett" />
		<tag k="name:no" v="Myrslett" />
		<tag k="place" v="farm" />
		<tag k="ssr:stedsnr" v="1082968" />
	</node>
	<node lat="70.52595018142549" lon="25.092941370290706" id="-102310">
		<tag k="alt_name:no" v="M0012       Halsen vestre" />
		<tag k="name" v="Vestre Halsen" />
		<tag k="name:no" v="Vestre Halsen" />
		<tag k="place" v="farm" />
		<tag k="ssr:stedsnr" v="1082980" />
	</node>
</osm>
