<?xml version="1.0" encoding="UTF-8"?>
<osm generator="osmapis" version="0.6">
	<node id="-159488" lat="59.5304000011" lon="9.86326944015">
		<tag k="name" v="Dørsjøveien" />
		<tag k="ssr:date" v="2016-05-10" />
		<tag k="ssr:gruppe" v="veg" />
		<tag k="ssr:hovedgruppe" v="infrastruktur" />
		<tag k="ssr:stedsnr" v="181650" />
		<tag k="ssr:type" v="vegstrekning" />
	</node>
	<node id="-160892" lat="59.460288889" lon="9.58280000747">
		<tag k="name" v="Luksefjellveien" />
		<tag k="ssr:date" v="2016-05-11" />
		<tag k="ssr:gruppe" v="veg" />
		<tag k="ssr:hovedgruppe" v="infrastruktur" />
		<tag k="ssr:stedsnr" v="727558" />
		<tag k="ssr:type" v="vegstrekning" />
	</node>
	<node id="-160507" lat="59.5903027757" lon="9.82831943946">
		<tag k="name" v="Bjertnesveien" />
		<tag k="ssr:date" v="2016-05-10" />
		<tag k="ssr:gruppe" v="veg" />
		<tag k="ssr:hovedgruppe" v="infrastruktur" />
		<tag k="ssr:stedsnr" v="605948" />
		<tag k="ssr:type" v="vegstrekning" />
	</node>
	<node id="-160116" lat="59.6189666625" lon="9.75097778258">
		<tag k="name" v="Plommetjernveien" />
		<tag k="ssr:date" v="2016-05-10" />
		<tag k="ssr:gruppe" v="veg" />
		<tag k="ssr:hovedgruppe" v="infrastruktur" />
		<tag k="ssr:stedsnr" v="484901" />
		<tag k="ssr:type" v="vegstrekning" />
	</node>
	<node id="-161265" lat="59.7251055556" lon="9.34875832827">
		<tag k="name" v="Gamlevegen" />
		<tag k="ssr:date" v="2016-05-11" />
		<tag k="ssr:gruppe" v="veg" />
		<tag k="ssr:hovedgruppe" v="infrastruktur" />
		<tag k="ssr:stedsnr" v="844932" />
		<tag k="ssr:type" v="vegstrekning" />
	</node>
	<node id="-161767" lat="60.5908609473" lon="9.63819281559">
		<tag k="fixme" v="multiple name tags, choose one and add the other to alt_name" />
		<tag k="name" v="Austlandet;Østlandet" />
		<tag k="ssr:date" v="2018-01-09" />
		<tag k="ssr:gruppe" v="administrativeIndelinger" />
		<tag k="ssr:hovedgruppe" v="offentligAdministrasjon" />
		<tag k="ssr:stedsnr" v="974775" />
		<tag k="ssr:type" v="annenAdministrativInndeling" />
	</node>
	<node id="-160477" lat="59.4827638891" lon="9.65719444642">
		<tag k="name" v="Sørmyrveien" />
		<tag k="ssr:date" v="2016-05-10" />
		<tag k="ssr:gruppe" v="veg" />
		<tag k="ssr:hovedgruppe" v="infrastruktur" />
		<tag k="ssr:stedsnr" v="605549" />
		<tag k="ssr:type" v="vegstrekning" />
	</node>
	<node id="-160474" lat="59.504599997" lon="9.78034166097">
		<tag k="name" v="Digerhaugveien" />
		<tag k="ssr:date" v="2016-05-10" />
		<tag k="ssr:gruppe" v="veg" />
		<tag k="ssr:hovedgruppe" v="infrastruktur" />
		<tag k="ssr:stedsnr" v="605423" />
		<tag k="ssr:type" v="vegstrekning" />
	</node>
	<node id="-158678" lat="59.6699388892" lon="9.70526944669">
		<tag k="name" v="Vestre Minde" />
		<tag k="ssr:date" v="2016-05-10" />
		<tag k="ssr:gruppe" v="veg" />
		<tag k="ssr:hovedgruppe" v="infrastruktur" />
		<tag k="ssr:stedsnr" v="363718" />
		<tag k="ssr:type" v="vegstrekning" />
	</node>
	<node id="-161108" lat="59.4816305572" lon="9.79073889714">
		<tag k="name" v="Surliveien" />
		<tag k="ssr:date" v="2016-05-11" />
		<tag k="ssr:gruppe" v="veg" />
		<tag k="ssr:hovedgruppe" v="infrastruktur" />
		<tag k="ssr:stedsnr" v="788245" />
		<tag k="ssr:type" v="vegstrekning" />
	</node>
	<node id="-158417" lat="59.7356611133" lon="9.36388056029">
		<tag k="name" v="Verkesvegen" />
		<tag k="ssr:date" v="2016-05-10" />
		<tag k="ssr:gruppe" v="veg" />
		<tag k="ssr:hovedgruppe" v="infrastruktur" />
		<tag k="ssr:stedsnr" v="298893" />
		<tag k="ssr:type" v="vegstrekning" />
	</node>
	<node id="-159432" lat="59.4233722212" lon="9.76398333076">
		<tag k="name" v="Rauberenveien" />
		<tag k="ssr:date" v="2016-05-10" />
		<tag k="ssr:gruppe" v="veg" />
		<tag k="ssr:hovedgruppe" v="infrastruktur" />
		<tag k="ssr:stedsnr" v="181102" />
		<tag k="ssr:type" v="vegstrekning" />
	</node>
	<node id="-160324" lat="59.5872777767" lon="9.71687222927">
		<tag k="name" v="Limovnveien" />
		<tag k="ssr:date" v="2016-05-10" />
		<tag k="ssr:gruppe" v="veg" />
		<tag k="ssr:hovedgruppe" v="infrastruktur" />
		<tag k="ssr:stedsnr" v="545780" />
		<tag k="ssr:type" v="vegstrekning" />
	</node>
	<node id="-158403" lat="59.4811557896" lon="9.78047218878">
		<tag k="name" v="Øvre Solåsgrenda" />
		<tag k="ssr:date" v="2019-05-30" />
		<tag k="ssr:gruppe" v="veg" />
		<tag k="ssr:hovedgruppe" v="infrastruktur" />
		<tag k="ssr:stedsnr" v="1036246" />
		<tag k="ssr:type" v="adressenavn" />
	</node>
	<node id="-158402" lat="59.4869275918" lon="9.75646373513">
		<tag k="name" v="Seterliveien" />
		<tag k="ssr:date" v="2019-05-30" />
		<tag k="ssr:gruppe" v="veg" />
		<tag k="ssr:hovedgruppe" v="infrastruktur" />
		<tag k="ssr:stedsnr" v="1036245" />
		<tag k="ssr:type" v="adressenavn" />
	</node>
	<node id="-158401" lat="59.6571620302" lon="9.66323524197">
		<tag k="name" v="Goddokk" />
		<tag k="ssr:date" v="2019-05-30" />
		<tag k="ssr:gruppe" v="veg" />
		<tag k="ssr:hovedgruppe" v="infrastruktur" />
		<tag k="ssr:stedsnr" v="1036238" />
		<tag k="ssr:type" v="adressenavn" />
	</node>
	<node id="-158647" lat="59.4766944457" lon="9.78684443826">
		<tag k="name" v="Prestsæterveien" />
		<tag k="ssr:date" v="2016-05-10" />
		<tag k="ssr:gruppe" v="veg" />
		<tag k="ssr:hovedgruppe" v="infrastruktur" />
		<tag k="ssr:stedsnr" v="363182" />
		<tag k="ssr:type" v="vegstrekning" />
	</node>
	<node id="-161075" lat="59.6575166703" lon="9.704138895">
		<tag k="name" v="Rudsåsveien" />
		<tag k="ssr:date" v="2016-05-11" />
		<tag k="ssr:gruppe" v="veg" />
		<tag k="ssr:hovedgruppe" v="infrastruktur" />
		<tag k="ssr:stedsnr" v="787677" />
		<tag k="ssr:type" v="vegstrekning" />
	</node>
	<node id="-161715" lat="59.6462361131" lon="9.81578888089">
		<tag k="name" v="Trolldalsveien" />
		<tag k="ssr:date" v="2016-05-11" />
		<tag k="ssr:gruppe" v="veg" />
		<tag k="ssr:hovedgruppe" v="infrastruktur" />
		<tag k="ssr:stedsnr" v="969667" />
		<tag k="ssr:type" v="vegstrekning" />
	</node>
	<node id="-159409" lat="59.665158336" lon="9.64653333061">
		<tag k="name" v="Kongsberg kommune" />
		<tag k="ssr:date" v="2016-05-10" />
		<tag k="ssr:gruppe" v="administrativeIndelinger" />
		<tag k="ssr:hovedgruppe" v="offentligAdministrasjon" />
		<tag k="ssr:stedsnr" v="145313" />
		<tag k="ssr:type" v="kommune" />
	</node>
	<node id="-160045" lat="59.4673111129" lon="9.86083055496">
		<tag k="name" v="Kviberg-Busmoveien" />
		<tag k="ssr:date" v="2016-05-10" />
		<tag k="ssr:gruppe" v="veg" />
		<tag k="ssr:hovedgruppe" v="infrastruktur" />
		<tag k="ssr:stedsnr" v="484014" />
		<tag k="ssr:type" v="vegstrekning" />
	</node>
	<node id="-160299" lat="59.4762055545" lon="9.61140278149">
		<tag k="name" v="Buvannsveien" />
		<tag k="ssr:date" v="2016-05-10" />
		<tag k="ssr:gruppe" v="veg" />
		<tag k="ssr:hovedgruppe" v="infrastruktur" />
		<tag k="ssr:stedsnr" v="545516" />
		<tag k="ssr:type" v="vegstrekning" />
	</node>
	<node id="-160295" lat="59.4874666637" lon="9.78495832767">
		<tag k="name" v="Skrimveien" />
		<tag k="ssr:date" v="2016-05-10" />
		<tag k="ssr:gruppe" v="veg" />
		<tag k="ssr:hovedgruppe" v="infrastruktur" />
		<tag k="ssr:stedsnr" v="545387" />
		<tag k="ssr:type" v="vegstrekning" />
	</node>
	<node id="-159013" lat="59.5499805523" lon="9.73670555521">
		<tag k="name" v="Lindumseterveien" />
		<tag k="ssr:date" v="2016-05-10" />
		<tag k="ssr:gruppe" v="veg" />
		<tag k="ssr:hovedgruppe" v="infrastruktur" />
		<tag k="ssr:stedsnr" v="59860" />
		<tag k="ssr:type" v="vegstrekning" />
	</node>
	<node id="-160283" lat="59.6005972188" lon="9.62489166018">
		<tag k="name" v="Kolonnevegen" />
		<tag k="ssr:date" v="2016-05-10" />
		<tag k="ssr:gruppe" v="veg" />
		<tag k="ssr:hovedgruppe" v="infrastruktur" />
		<tag k="ssr:stedsnr" v="545173" />
		<tag k="ssr:type" v="vegstrekning" />
	</node>
	<node id="-158404" lat="59.6571877531" lon="9.6254535855">
		<tag k="name" v="Kjerringberget" />
		<tag k="ssr:date" v="2019-05-30" />
		<tag k="ssr:gruppe" v="veg" />
		<tag k="ssr:hovedgruppe" v="infrastruktur" />
		<tag k="ssr:stedsnr" v="1036258" />
		<tag k="ssr:type" v="adressenavn" />
	</node>
	<node id="-161546" lat="59.5643388912" lon="9.71426110443">
		<tag k="name" v="Trengeneveien" />
		<tag k="ssr:date" v="2016-05-11" />
		<tag k="ssr:gruppe" v="veg" />
		<tag k="ssr:hovedgruppe" v="infrastruktur" />
		<tag k="ssr:stedsnr" v="909878" />
		<tag k="ssr:type" v="vegstrekning" />
	</node>
</osm>
