<?xml version="1.0" encoding="UTF-8"?>
<<<<<<< HEAD
<osm version="0.6" generator="osmapis">
	<node lat="62.85236615398629" lon="7.2165742895416685" id="-3376">
		<tag k="alt_name" v="Fræna, indre;Indre Fræna" />
		<tag k="amenity" v="place_of_worship" />
		<tag k="denomination" v="lutheran" />
		<tag k="name" v="Myrbostad kyrkje" />
		<tag k="religion" v="christian" />
		<tag k="ssr:stedsnr" v="72209" />
	</node>
	<node lat="62.9561722224614" lon="7.097113895983591" id="-3476">
		<tag k="alt_name" v="Hustad kyrkje" />
=======
<osm generator="osmapis" version="0.6">
	<node id="-106112" lat="62.9079999978" lon="6.91062500402">
>>>>>>> e1d4bc35ff8a6074a6f2e91616a996b547c36f15
		<tag k="amenity" v="place_of_worship" />
		<tag k="denomination" v="lutheran" />
		<tag k="name" v="Bud kyrkje" />
		<tag k="religion" v="christian" />
		<tag k="ssr:stedsnr" v="580301" />
	</node>
<<<<<<< HEAD
	<node lat="62.985547220078104" lon="7.154486105457779" id="-3625">
		<tag k="alt_name" v="Hålanausa" />
		<tag k="name" v="Holanausta" />
=======
	<node id="-104448" lat="62.8486749967" lon="7.03926111587">
		<tag k="amenity" v="community_centre" />
		<tag k="name" v="Torshall ungdomshus" />
		<tag k="ssr:stedsnr" v="702410" />
	</node>
	<node id="-104368" lat="62.8601472253" lon="6.99888056331">
		<tag k="name" v="Naustvollen" />
		<tag k="place" v="locality" />
		<tag k="ssr:stedsnr" v="884400" />
	</node>
	<node id="-106707" lat="62.9116166678" lon="7.05578332353">
		<tag k="name" v="Nergulstølen" />
>>>>>>> e1d4bc35ff8a6074a6f2e91616a996b547c36f15
		<tag k="place" v="locality" />
		<tag k="ssr:stedsnr" v="217685" />
	</node>
<<<<<<< HEAD
	<node lat="62.916721500693306" lon="7.444546919980745" id="-4095">
		<tag k="alt_name" v="Eide" />
=======
	<node id="-105682" lat="62.822651303" lon="7.02974355285">
		<tag k="alt_name" v="Vågøy kyrkje" />
>>>>>>> e1d4bc35ff8a6074a6f2e91616a996b547c36f15
		<tag k="amenity" v="place_of_worship" />
		<tag k="denomination" v="lutheran" />
		<tag k="name" v="Eide kyrkje" />
		<tag k="religion" v="christian" />
		<tag k="ssr:stedsnr" v="679495" />
	</node>
<<<<<<< HEAD
	<node lat="62.9079999978104" lon="6.91062500401663" id="-4220">
		<tag k="amenity" v="place_of_worship" />
		<tag k="denomination" v="lutheran" />
		<tag k="name" v="Bud kyrkje" />
		<tag k="religion" v="christian" />
		<tag k="ssr:stedsnr" v="580301" />
	</node>
	<node lat="62.84856674688258" lon="7.0392246752229894" id="-4500">
		<tag k="amenity" v="community_centre" />
		<tag k="name" v="Torshall ungdomshus" />
		<tag k="ssr:stedsnr" v="702410" />
	</node>
	<node lat="62.787138889424796" lon="7.069391673478429" id="-4733">
=======
	<node id="-105840" lat="62.8537916657" lon="7.16737223094">
		<tag k="amenity" v="community_centre" />
		<tag k="name" v="Heimhug" />
		<tag k="ssr:stedsnr" v="399870" />
	</node>
	<node id="-103375" lat="62.8523666635" lon="7.21658333637">
		<tag k="alt_name" v="Fræna, indre;Myrbostad kyrkje" />
		<tag k="amenity" v="place_of_worship" />
		<tag k="denomination" v="lutheran" />
		<tag k="name" v="Indre Fræna" />
		<tag k="religion" v="christian" />
		<tag k="ssr:stedsnr" v="72209" />
	</node>
	<node id="-103489" lat="62.9561722225" lon="7.09711389598">
		<tag k="alt_name" v="Hustad kyrkje" />
>>>>>>> e1d4bc35ff8a6074a6f2e91616a996b547c36f15
		<tag k="amenity" v="place_of_worship" />
		<tag k="denomination" v="lutheran" />
		<tag k="name" v="Hustad" />
		<tag k="religion" v="christian" />
		<tag k="ssr:stedsnr" v="133005" />
	</node>
<<<<<<< HEAD
	<node lat="62.91153786088435" lon="7.041046278066748" id="-4792">
		<tag k="name" v="Nergulstølen" />
		<tag k="place" v="locality" />
		<tag k="ssr:stedsnr" v="862088" />
	</node>
	<node lat="62.86014722530786" lon="6.998880563307744" id="-4814">
		<tag k="name" v="Naustvollen" />
		<tag k="place" v="locality" />
		<tag k="ssr:stedsnr" v="884400" />
=======
	<node id="-104068" lat="62.9166749993" lon="7.44438333591">
		<tag k="alt_name" v="Eide kyrkje" />
		<tag k="amenity" v="place_of_worship" />
		<tag k="denomination" v="lutheran" />
		<tag k="name" v="Eide" />
		<tag k="religion" v="christian" />
		<tag k="ssr:stedsnr" v="679495" />
	</node>
	<node id="-104656" lat="62.7871388894" lon="7.06939167348">
		<tag k="amenity" v="place_of_worship" />
		<tag k="denomination" v="lutheran" />
		<tag k="name" v="Hestad gravkapell" />
		<tag k="religion" v="christian" />
		<tag k="ssr:stedsnr" v="824604" />
>>>>>>> e1d4bc35ff8a6074a6f2e91616a996b547c36f15
	</node>
	<node lat="62.82265130299699" lon="7.029743552850332" id="-5724">
		<tag k="alt_name" v="Vågøy kyrkje" />
		<tag k="amenity" v="place_of_worship" />
		<tag k="denomination" v="lutheran" />
		<tag k="name" v="Vågøy" />
		<tag k="religion" v="christian" />
		<tag k="ssr:stedsnr" v="375750" />
	</node>
	<node lat="62.85379166573027" lon="7.167372230941296" id="-5836">
		<tag k="amenity" v="community_centre" />
		<tag k="name" v="Heimhug" />
		<tag k="ssr:stedsnr" v="399870" />
	</node>
</osm>
