<?xml version="1.0" encoding="UTF-8"?>
<<<<<<< HEAD
<osm version="0.6" generator="osmapis">
	<node lat="62.756847220930695" lon="7.08221665834277" id="-3321">
		<tag k="name" v="Langvatnet" />
		<tag k="natural" v="water" />
		<tag k="ssr:stedsnr" v="12873" />
	</node>
	<node lat="62.78266666794925" lon="7.213086118971103" id="-3329">
		<tag k="name" v="Gangskartjønna" />
=======
<osm generator="osmapis" version="0.6">
	<node id="-104445" lat="62.868319441" lon="7.48312777423">
		<tag k="fixme" v="multiple name tags, choose one and add the other to alt_name" />
		<tag k="name" v="Litlvatnet;Tusstjønna" />
>>>>>>> e1d4bc35ff8a6074a6f2e91616a996b547c36f15
		<tag k="natural" v="water" />
		<tag k="ssr:stedsnr" v="32015" />
	</node>
<<<<<<< HEAD
	<node lat="62.80043610783053" lon="6.997688889993499" id="-3343">
		<tag k="name" v="Simodalsgrova" />
		<tag k="ssr:stedsnr" v="35501" />
		<tag k="waterway" v="stream" />
	</node>
	<node lat="62.908608335766445" lon="7.54026110508766" id="-3353">
		<tag k="name" v="Strandaelva" />
		<tag k="ssr:stedsnr" v="35472" />
		<tag k="waterway" v="river" />
	</node>
	<node lat="62.88124167016237" lon="7.02001110541062" id="-3360">
		<tag k="name" v="Vardhaugløken" />
		<tag k="ssr:stedsnr" v="35609" />
		<tag k="waterway" v="stream" />
	</node>
	<node lat="62.941413890618485" lon="7.2090749978630315" id="-3361">
		<tag k="name" v="Hostadelva" />
		<tag k="ssr:stedsnr" v="35711" />
		<tag k="waterway" v="stream" />
	</node>
	<node lat="62.93928888928881" lon="7.316508332985652" id="-3368">
		<tag k="name" v="Maskindammen" />
		<tag k="natural" v="water" />
		<tag k="ssr:stedsnr" v="38870" />
	</node>
	<node lat="62.901688890300285" lon="7.126924991019952" id="-3379">
		<tag k="name" v="Trollvatnet" />
		<tag k="natural" v="water" />
		<tag k="ssr:stedsnr" v="72171" />
	</node>
	<node lat="62.863452778236166" lon="7.37305555742668" id="-3382">
		<tag k="alt_name" v="Litlvatnet" />
		<tag k="name" v="Litlevatnet" />
=======
	<node id="-106491" lat="62.9104249986" lon="7.39421389784">
		<tag k="name" v="Sagløken" />
		<tag k="ssr:stedsnr" v="763725" />
		<tag k="waterway" v="stream" />
	</node>
	<node id="-104437" lat="62.9203749966" lon="7.33087222074">
		<tag k="name" v="Åsaelva" />
		<tag k="ssr:stedsnr" v="702375" />
		<tag k="waterway" v="stream" />
	</node>
	<node id="-104431" lat="62.8784555514" lon="7.51348333361">
		<tag k="name" v="Lomdammen" />
		<tag k="natural" v="water" />
		<tag k="ssr:stedsnr" v="702357" />
	</node>
	<node id="-106474" lat="62.8514861134" lon="7.4201638962">
		<tag k="name" v="Brungrova" />
		<tag k="ssr:stedsnr" v="763421" />
		<tag k="waterway" v="stream" />
	</node>
	<node id="-104417" lat="62.8910999996" lon="7.54719721759">
		<tag k="name" v="Litlbuelva" />
		<tag k="ssr:stedsnr" v="885399" />
		<tag k="waterway" v="stream" />
	</node>
	<node id="-106461" lat="62.9095750036" lon="7.42029166522">
		<tag k="name" v="Grønløken" />
		<tag k="ssr:stedsnr" v="763389" />
		<tag k="waterway" v="stream" />
	</node>
	<node id="-106458" lat="62.904438889" lon="7.43558887947">
		<tag k="name" v="Einsetvågen" />
>>>>>>> e1d4bc35ff8a6074a6f2e91616a996b547c36f15
		<tag k="natural" v="water" />
		<tag k="ssr:stedsnr" v="72616" />
	</node>
<<<<<<< HEAD
	<node lat="62.80977499561274" lon="7.387005557730484" id="-3400">
		<tag k="name" v="Gunnilla" />
=======
	<node id="-106457" lat="62.9008972206" lon="7.41755000018">
		<tag k="name" v="Hollenderdammen" />
>>>>>>> e1d4bc35ff8a6074a6f2e91616a996b547c36f15
		<tag k="natural" v="water" />
		<tag k="ssr:stedsnr" v="73729" />
		<tag k="water" v="lake" />
	</node>
<<<<<<< HEAD
	<node lat="62.79072778021093" lon="7.248288888078449" id="-3402">
		<tag k="alt_name" v="Malmeelva" />
		<tag k="name" v="Malmedalselva" />
		<tag k="ssr:stedsnr" v="73776" />
		<tag k="waterway" v="river" />
	</node>
	<node lat="62.9187611150447" lon="7.333705545585829" id="-3407">
		<tag k="name" v="Tømmerbukta" />
		<tag k="natural" v="bay" />
		<tag k="ssr:stedsnr" v="95210" />
	</node>
	<node lat="62.930011115630435" lon="7.335602785689854" id="-3408">
		<tag k="name" v="Elvakroken" />
		<tag k="ssr:stedsnr" v="95218" />
		<tag k="waterway" v="stream" />
	</node>
	<node lat="62.909991667871225" lon="7.25631389558372" id="-3447">
		<tag k="name" v="Kvennelva" />
		<tag k="ssr:stedsnr" v="95871" />
		<tag k="waterway" v="stream" />
	</node>
	<node lat="62.917166662902844" lon="7.456272220471885" id="-3458">
		<tag k="name" v="Osen" />
		<tag k="natural" v="bay" />
		<tag k="ssr:stedsnr" v="96486" />
	</node>
	<node lat="62.904822221291916" lon="7.069736109598133" id="-3464">
		<tag k="name" v="Harrivatnet" />
=======
	<node id="-104399" lat="62.8049250031" lon="7.39093610148">
		<tag k="name" v="Hyttegrova" />
		<tag k="ssr:stedsnr" v="884780" />
		<tag k="waterway" v="stream" />
	</node>
	<node id="-106439" lat="62.8850250005" lon="7.42821667538">
		<tag k="alt_name" v="Frantsbuelva" />
		<tag k="name" v="Bjerkneselva" />
		<tag k="ssr:stedsnr" v="763145" />
		<tag k="waterway" v="stream" />
	</node>
	<node id="-104389" lat="62.9814249955" lon="7.19158054993">
		<tag k="name" v="Sandvikgrova" />
		<tag k="ssr:stedsnr" v="884736" />
		<tag k="waterway" v="river" />
	</node>
	<node id="-104387" lat="62.8029611141" lon="7.27127777638">
		<tag k="name" v="Nedre Klompvatnet" />
		<tag k="natural" v="water" />
		<tag k="ssr:stedsnr" v="884726" />
	</node>
	<node id="-104386" lat="62.800375003" lon="7.26468333802">
		<tag k="name" v="Tverrelva" />
		<tag k="ssr:stedsnr" v="884723" />
		<tag k="waterway" v="stream" />
	</node>
	<node id="-106430" lat="62.7709416627" lon="7.13249167466">
		<tag k="name" v="Løvenskarvatnet" />
		<tag k="natural" v="water" />
		<tag k="ssr:stedsnr" v="760017" />
		<tag k="water" v="lake" />
	</node>
	<node id="-106426" lat="62.9101138901" lon="7.01691944172">
		<tag k="name" v="Gulvatnet" />
		<tag k="natural" v="water" />
		<tag k="ssr:stedsnr" v="741094" />
	</node>
	<node id="-106423" lat="62.9065555597" lon="6.99884999609">
		<tag k="name" v="Gulelva" />
		<tag k="ssr:stedsnr" v="741087" />
		<tag k="waterway" v="stream" />
	</node>
	<node id="-106420" lat="62.9883555538" lon="7.26571389194">
		<tag k="name" v="Sandblåstvågen" />
		<tag k="natural" v="water" />
		<tag k="ssr:stedsnr" v="740901" />
	</node>
	<node id="-104365" lat="62.7875305582" lon="7.03789723109">
		<tag k="name" v="Hjelltjønna" />
>>>>>>> e1d4bc35ff8a6074a6f2e91616a996b547c36f15
		<tag k="natural" v="water" />
		<tag k="ssr:stedsnr" v="132163" />
	</node>
<<<<<<< HEAD
	<node lat="62.94761388867037" lon="7.356497213166032" id="-3471">
		<tag k="name" v="Djupelvan" />
		<tag k="ssr:stedsnr" v="132966" />
		<tag k="waterway" v="stream" />
	</node>
	<node lat="62.85177777974718" lon="7.052863898488115" id="-3477">
		<tag k="alt_name" v="Åselva" />
		<tag k="name" v="Torneselva" />
		<tag k="ssr:stedsnr" v="133209" />
		<tag k="waterway" v="stream" />
	</node>
	<node lat="62.91651666957213" lon="6.99098332744422" id="-3484">
		<tag k="name" v="Dyrskarløken" />
		<tag k="ssr:stedsnr" v="134115" />
		<tag k="waterway" v="stream" />
	</node>
	<node lat="62.895152780561496" lon="7.10154444469154" id="-3488">
		<tag k="name" v="Botnavatnet" />
=======
	<node id="-104364" lat="62.7705083376" lon="7.04684722635">
		<tag k="name" v="Tverrlielva" />
		<tag k="ssr:stedsnr" v="884389" />
		<tag k="waterway" v="stream" />
	</node>
	<node id="-106410" lat="62.9137416653" lon="7.36491110247">
		<tag k="name" v="Mjølkstølbekken" />
		<tag k="ssr:stedsnr" v="740516" />
		<tag k="waterway" v="stream" />
	</node>
	<node id="-104360" lat="62.9081083307" lon="7.40898888731">
		<tag k="name" v="Hyllberget" />
		<tag k="natural" v="cape" />
		<tag k="ssr:stedsnr" v="884298" />
	</node>
	<node id="-104356" lat="62.9520888926" lon="7.39068888082">
		<tag k="name" v="Visneselva" />
		<tag k="ssr:stedsnr" v="884321" />
		<tag k="waterway" v="stream" />
	</node>
	<node id="-104349" lat="62.7668638916" lon="7.05313611717">
		<tag k="name" v="Tverrlivatnet" />
>>>>>>> e1d4bc35ff8a6074a6f2e91616a996b547c36f15
		<tag k="natural" v="water" />
		<tag k="ssr:stedsnr" v="254138" />
	</node>
<<<<<<< HEAD
	<node lat="62.90283333513465" lon="7.148463896491396" id="-3491">
		<tag k="name" v="Herskarvatnet" />
=======
	<node id="-106395" lat="62.8565222263" lon="7.42989444671">
		<tag k="name" v="Tudalstjørna" />
>>>>>>> e1d4bc35ff8a6074a6f2e91616a996b547c36f15
		<tag k="natural" v="water" />
		<tag k="ssr:stedsnr" v="254152" />
	</node>
<<<<<<< HEAD
	<node lat="62.898538890698056" lon="7.02456944921233" id="-3492">
		<tag k="name" v="Vestadvatnet" />
		<tag k="natural" v="water" />
		<tag k="ssr:stedsnr" v="254158" />
	</node>
	<node lat="62.889052778384105" lon="7.2620416688252005" id="-3503">
		<tag k="name" v="Trolldalsvatna" />
		<tag k="natural" v="water" />
		<tag k="ssr:stedsnr" v="254591" />
	</node>
	<node lat="62.790252781862286" lon="7.136024993469465" id="-3509">
		<tag k="alt_name" v="Seterelva" />
		<tag k="name" v="Damgrova" />
		<tag k="ssr:stedsnr" v="254797" />
		<tag k="waterway" v="stream" />
	</node>
	<node lat="62.833147226160435" lon="7.346200003283126" id="-3525">
		<tag k="name" v="Gjengkleivvatnet" />
		<tag k="natural" v="water" />
		<tag k="ssr:stedsnr" v="255726" />
	</node>
	<node lat="62.78950555533774" lon="7.202949996533124" id="-3530">
		<tag k="name" v="Botnagrova" />
		<tag k="ssr:stedsnr" v="153017" />
		<tag k="waterway" v="stream" />
	</node>
	<node lat="62.907377776063996" lon="7.319574999001855" id="-3546">
		<tag k="alt_name" v="Sandneselva" />
		<tag k="name" v="Hældalselva" />
		<tag k="ssr:stedsnr" v="156199" />
		<tag k="waterway" v="river" />
	</node>
	<node lat="62.89059722032028" lon="7.480594441050649" id="-3547">
		<tag k="name" v="Undgrobekken" />
		<tag k="ssr:stedsnr" v="156311" />
		<tag k="waterway" v="stream" />
	</node>
	<node lat="62.96747499957883" lon="7.350755550896656" id="-3557">
		<tag k="name" v="Bekkaelva" />
		<tag k="ssr:stedsnr" v="156248" />
		<tag k="waterway" v="stream" />
	</node>
	<node lat="62.93284444839694" lon="7.003511118377245" id="-3566">
		<tag k="name" v="Kvennagrova" />
		<tag k="ssr:stedsnr" v="156483" />
		<tag k="waterway" v="stream" />
	</node>
	<node lat="62.9577222216345" lon="7.242269435802685" id="-3568">
		<tag k="name" v="Litlmælvatnet" />
=======
	<node id="-106377" lat="62.8785361086" lon="7.33371665879">
		<tag k="name" v="Brandseterelva" />
		<tag k="ssr:stedsnr" v="646771" />
		<tag k="waterway" v="stream" />
	</node>
	<node id="-106375" lat="62.8557861093" lon="7.19855832904">
		<tag k="name" v="Glåmå" />
		<tag k="ssr:stedsnr" v="641990" />
		<tag k="waterway" v="stream" />
	</node>
	<node id="-104324" lat="62.7751583293" lon="7.11337222099">
		<tag k="name" v="Grønegrova" />
		<tag k="ssr:stedsnr" v="881876" />
		<tag k="waterway" v="stream" />
	</node>
	<node id="-104323" lat="62.7762194447" lon="7.09135556015">
		<tag k="name" v="Fosselva" />
		<tag k="ssr:stedsnr" v="881873" />
		<tag k="waterway" v="stream" />
	</node>
	<node id="-106366" lat="62.9212166709" lon="7.22352222783">
		<tag k="name" v="Bruløken" />
		<tag k="ssr:stedsnr" v="641934" />
		<tag k="waterway" v="stream" />
	</node>
	<node id="-106361" lat="62.9027444462" lon="6.97978888687">
		<tag k="name" v="Kroken" />
		<tag k="ssr:stedsnr" v="641895" />
		<tag k="waterway" v="stream" />
	</node>
	<node id="-104301" lat="62.7745305525" lon="7.05300277484">
		<tag k="name" v="Åndalsvatnet" />
		<tag k="natural" v="water" />
		<tag k="ssr:stedsnr" v="618825" />
	</node>
	<node id="-104298" lat="62.800049996" lon="7.12542222316">
		<tag k="name" v="Fjellsetervatnet" />
>>>>>>> e1d4bc35ff8a6074a6f2e91616a996b547c36f15
		<tag k="natural" v="water" />
		<tag k="ssr:stedsnr" v="156747" />
	</node>
<<<<<<< HEAD
	<node lat="62.97542500203202" lon="7.261566658813309" id="-3579">
		<tag k="name" v="Bjønndalselva" />
		<tag k="ssr:stedsnr" v="156819" />
		<tag k="waterway" v="stream" />
	</node>
	<node lat="62.87841666657055" lon="7.398677786720806" id="-3597">
		<tag k="name" v="Skålibekken" />
		<tag k="ssr:stedsnr" v="217329" />
		<tag k="waterway" v="stream" />
	</node>
	<node lat="62.96507500099291" lon="7.265658342955029" id="-3604">
		<tag k="name" v="Sloppelva" />
		<tag k="ssr:stedsnr" v="217273" />
		<tag k="waterway" v="stream" />
	</node>
	<node lat="62.89613889254578" lon="7.569577785835424" id="-3608">
		<tag k="name" v="Ljøslibekken" />
		<tag k="ssr:stedsnr" v="217402" />
		<tag k="waterway" v="stream" />
	</node>
	<node lat="62.9100583292421" lon="7.554619454487326" id="-3626">
		<tag k="name" v="Galtelva" />
		<tag k="ssr:stedsnr" v="217694" />
		<tag k="waterway" v="river" />
	</node>
	<node lat="62.7985944448185" lon="7.26199166349946" id="-3631">
		<tag k="name" v="Tverrelva" />
		<tag k="ssr:stedsnr" v="217803" />
		<tag k="waterway" v="stream" />
	</node>
	<node lat="62.78501666905529" lon="7.042116667955615" id="-3657">
		<tag k="name" v="Hagåstjørna" />
		<tag k="natural" v="water" />
		<tag k="ssr:stedsnr" v="254819" />
	</node>
	<node lat="62.888383334865345" lon="7.346261119025075" id="-3684">
		<tag k="name" v="Storbekken" />
		<tag k="ssr:stedsnr" v="459214" />
		<tag k="waterway" v="stream" />
	</node>
	<node lat="62.941313887985224" lon="7.308172230816516" id="-3686">
		<tag k="name" v="Bollielva" />
		<tag k="ssr:stedsnr" v="459241" />
		<tag k="waterway" v="stream" />
	</node>
	<node lat="62.78860277741182" lon="7.002883338923683" id="-3695">
		<tag k="name" v="Gjerdegrova" />
		<tag k="ssr:stedsnr" v="459386" />
		<tag k="waterway" v="stream" />
	</node>
	<node lat="62.76651110706048" lon="7.1048583413049915" id="-3697">
		<tag k="name" v="Grøvern" />
		<tag k="ssr:stedsnr" v="274972" />
		<tag k="waterway" v="stream" />
	</node>
	<node lat="62.87907499784007" lon="6.990611115113518" id="-3698">
		<tag k="name" v="Stortjønna" />
		<tag k="natural" v="water" />
		<tag k="ssr:stedsnr" v="459493" />
	</node>
	<node lat="62.830416667094106" lon="7.087738895913862" id="-3700">
		<tag k="name" v="Sælebotssikla" />
		<tag k="ssr:stedsnr" v="459526" />
		<tag k="waterway" v="stream" />
	</node>
	<node lat="62.880605559153224" lon="7.354949999139035" id="-3706">
		<tag k="name" v="Lomtjønna" />
		<tag k="natural" v="water" />
		<tag k="ssr:stedsnr" v="277208" />
	</node>
	<node lat="62.92414999663981" lon="7.372033342987171" id="-3710">
		<tag k="name" v="Dyrhaugbekken" />
		<tag k="ssr:stedsnr" v="277220" />
		<tag k="waterway" v="stream" />
	</node>
	<node lat="62.95650555806183" lon="7.315336110346116" id="-3713">
		<tag k="name" v="Botnlaustjønna" />
=======
	<node id="-106342" lat="62.8097500006" lon="7.32473610631">
		<tag k="name" v="Melsetergrova" />
		<tag k="ssr:stedsnr" v="641745" />
		<tag k="waterway" v="stream" />
	</node>
	<node id="-106341" lat="62.806769447" lon="7.30004999857">
		<tag k="name" v="Julskargrova" />
		<tag k="ssr:stedsnr" v="641738" />
		<tag k="waterway" v="stream" />
	</node>
	<node id="-106338" lat="62.9040972226" lon="7.5199111175">
		<tag k="name" v="Kjølelva" />
		<tag k="ssr:stedsnr" v="641677" />
		<tag k="waterway" v="stream" />
	</node>
	<node id="-106336" lat="62.9012611092" lon="7.20929722204">
		<tag k="name" v="Rørslibekken" />
		<tag k="ssr:stedsnr" v="641663" />
		<tag k="waterway" v="stream" />
	</node>
	<node id="-106324" lat="62.8853777809" lon="7.02188888666">
		<tag k="name" v="Kringletevatnet" />
		<tag k="natural" v="water" />
		<tag k="ssr:stedsnr" v="641492" />
		<tag k="water" v="lake" />
	</node>
	<node id="-104260" lat="62.9969777808" lon="7.29024444381">
		<tag k="name" v="Straumen" />
		<tag k="natural" v="bay" />
		<tag k="ssr:stedsnr" v="581475" />
	</node>
	<node id="-104259" lat="62.9953361152" lon="7.28221666042">
		<tag k="name" v="Vågan" />
		<tag k="natural" v="bay" />
		<tag k="ssr:stedsnr" v="581473" />
	</node>
	<node id="-104247" lat="62.8465250012" lon="7.22677778509">
		<tag k="name" v="Smiløken" />
		<tag k="ssr:stedsnr" v="580935" />
		<tag k="waterway" v="stream" />
	</node>
	<node id="-104234" lat="62.8553722232" lon="7.20127221727">
		<tag k="name" v="Skogagrova" />
		<tag k="ssr:stedsnr" v="580671" />
		<tag k="waterway" v="stream" />
	</node>
	<node id="-106277" lat="62.8981249996" lon="7.41073888136">
		<tag k="name" v="Sandbukta" />
		<tag k="natural" v="bay" />
		<tag k="ssr:stedsnr" v="641298" />
	</node>
	<node id="-106273" lat="62.8708222198" lon="7.41891944762">
		<tag k="name" v="Kamskarbekken" />
		<tag k="ssr:stedsnr" v="641267" />
		<tag k="waterway" v="stream" />
	</node>
	<node id="-106267" lat="62.9624333311" lon="7.36437500043">
		<tag k="name" v="Breiløken" />
		<tag k="ssr:stedsnr" v="641240" />
		<tag k="waterway" v="stream" />
	</node>
	<node id="-106264" lat="62.9083694419" lon="7.34562777048">
		<tag k="name" v="Steinskjæret" />
		<tag k="place" v="islet" />
		<tag k="ssr:stedsnr" v="641211" />
	</node>
	<node id="-106260" lat="62.9285194462" lon="7.33315555147">
		<tag k="name" v="Skottenbekken" />
		<tag k="ssr:stedsnr" v="641178" />
		<tag k="waterway" v="stream" />
	</node>
	<node id="-106248" lat="62.8619083292" lon="7.10098056537">
		<tag k="name" v="Lomtjørnin" />
		<tag k="natural" v="water" />
		<tag k="ssr:stedsnr" v="640689" />
	</node>
	<node id="-106244" lat="62.7743555579" lon="7.05623332618">
		<tag k="name" v="Åndalsvatnet" />
>>>>>>> e1d4bc35ff8a6074a6f2e91616a996b547c36f15
		<tag k="natural" v="water" />
		<tag k="ssr:stedsnr" v="277229" />
	</node>
<<<<<<< HEAD
	<node lat="62.95505833663279" lon="7.114594445238023" id="-3739">
		<tag k="name" v="Petterremsfalla" />
		<tag k="ssr:stedsnr" v="277720" />
		<tag k="waterway" v="rapids" />
	</node>
	<node lat="62.96379444713146" lon="7.076575007511092" id="-3740">
		<tag k="name" v="Trolltjønna" />
		<tag k="natural" v="water" />
		<tag k="ssr:stedsnr" v="277725" />
	</node>
	<node lat="62.87649444680442" lon="7.3057111189875386" id="-3749">
		<tag k="name" v="Bendikhølen" />
		<tag k="place" v="locality" />
		<tag k="ssr:stedsnr" v="277870" />
	</node>
	<node lat="62.92388055275874" lon="7.2253305547295685" id="-3763">
		<tag k="name" v="Burenna" />
		<tag k="ssr:stedsnr" v="459945" />
		<tag k="waterway" v="stream" />
	</node>
	<node lat="62.937755553744935" lon="7.362502769692939" id="-3771">
		<tag k="name" v="Orneset" />
		<tag k="natural" v="cape" />
		<tag k="ssr:stedsnr" v="278501" />
	</node>
	<node lat="62.90854999697928" lon="7.342041659379131" id="-3786">
		<tag k="name" v="Skjeppet" />
		<tag k="place" v="islet" />
		<tag k="ssr:stedsnr" v="460472" />
	</node>
	<node lat="62.773702780411575" lon="7.050527773405375" id="-3788">
		<tag k="name" v="Liavatnet" />
=======
	<node id="-104194" lat="62.8665861099" lon="7.06941943948">
		<tag k="name" v="Litleelva" />
		<tag k="ssr:stedsnr" v="702638" />
		<tag k="waterway" v="stream" />
	</node>
	<node id="-104190" lat="62.985988888" lon="7.26952778334">
		<tag k="alt_name" v="Nordre Morøy" />
		<tag k="name" v="Nørd Morøya" />
		<tag k="place" v="islet" />
		<tag k="ssr:stedsnr" v="702871" />
	</node>
	<node id="-104189" lat="62.8693194469" lon="7.26196945071">
		<tag k="name" v="Skarløken" />
		<tag k="ssr:stedsnr" v="702868" />
		<tag k="waterway" v="stream" />
	</node>
	<node id="-104188" lat="62.870130552" lon="7.31701111621">
		<tag k="name" v="Bjønndalsgrova" />
		<tag k="ssr:stedsnr" v="702863" />
		<tag k="waterway" v="stream" />
	</node>
	<node id="-104186" lat="62.9497583292" lon="7.06334444114">
		<tag k="name" v="Malkvernhusfalla" />
		<tag k="ssr:stedsnr" v="702594" />
		<tag k="waterway" v="rapids" />
	</node>
	<node id="-104184" lat="62.7843333366" lon="7.08724999037">
		<tag k="name" v="Seterelva" />
		<tag k="ssr:stedsnr" v="702573" />
		<tag k="waterway" v="stream" />
	</node>
	<node id="-106223" lat="62.9338361127" lon="7.20270000793">
		<tag k="name" v="Hostadvatnet" />
		<tag k="natural" v="water" />
		<tag k="ssr:stedsnr" v="619095" />
		<tag k="water" v="lake" />
	</node>
	<node id="-106222" lat="62.9136777752" lon="7.20314722512">
		<tag k="name" v="Frelsvatnet" />
>>>>>>> e1d4bc35ff8a6074a6f2e91616a996b547c36f15
		<tag k="natural" v="water" />
		<tag k="ssr:stedsnr" v="460486" />
		<tag k="water" v="lake" />
	</node>
<<<<<<< HEAD
	<node lat="62.95662222653632" lon="7.293022222435135" id="-3791">
		<tag k="name" v="Årøyelva" />
		<tag k="ssr:stedsnr" v="460499" />
		<tag k="waterway" v="river" />
	</node>
	<node lat="62.94579444710935" lon="7.357611110880345" id="-3792">
		<tag k="name" v="Teppå" />
		<tag k="ssr:stedsnr" v="460501" />
		<tag k="waterway" v="dam" />
	</node>
	<node lat="62.94670833217248" lon="7.079258331542508" id="-3795">
		<tag k="name" v="Lomtjønnin" />
=======
	<node id="-104171" lat="62.8640027813" lon="7.14776667479">
		<tag k="name" v="Haukåselva" />
		<tag k="ssr:stedsnr" v="702524" />
		<tag k="waterway" v="river" />
	</node>
	<node id="-104166" lat="62.9405027751" lon="7.35553332584">
		<tag k="name" v="Røyråa" />
		<tag k="natural" v="bay" />
		<tag k="ssr:stedsnr" v="702399" />
	</node>
	<node id="-106210" lat="62.9609777785" lon="7.23266666957">
		<tag k="name" v="Skavatnet" />
>>>>>>> e1d4bc35ff8a6074a6f2e91616a996b547c36f15
		<tag k="natural" v="water" />
		<tag k="ssr:stedsnr" v="460649" />
	</node>
<<<<<<< HEAD
	<node lat="62.97550833604508" lon="7.222158341761671" id="-3802">
		<tag k="name" v="Skottenelva" />
		<tag k="ssr:stedsnr" v="460800" />
		<tag k="waterway" v="stream" />
	</node>
	<node lat="62.80781388883948" lon="7.242566658786925" id="-3804">
		<tag k="name" v="Fossgrova" />
		<tag k="ssr:stedsnr" v="460834" />
		<tag k="waterway" v="stream" />
	</node>
	<node lat="62.85563055212022" lon="7.27374443887002" id="-3805">
		<tag k="name" v="Anderselva" />
		<tag k="ssr:stedsnr" v="460886" />
		<tag k="waterway" v="stream" />
	</node>
	<node lat="62.87192777360494" lon="7.278391673516059" id="-3806">
		<tag k="name" v="Langehølen" />
		<tag k="place" v="locality" />
		<tag k="ssr:stedsnr" v="460897" />
	</node>
	<node lat="62.874066668953134" lon="7.47093610898736" id="-3826">
		<tag k="name" v="Tussfossen" />
		<tag k="natural" v="waterfall" />
		<tag k="ssr:stedsnr" v="315601" />
	</node>
	<node lat="62.862302781767795" lon="7.322430550770178" id="-3829">
		<tag k="name" v="Bjørndalsvatnet" />
		<tag k="natural" v="water" />
		<tag k="ssr:stedsnr" v="315618" />
	</node>
	<node lat="62.885944441282625" lon="7.56941110525972" id="-3833">
		<tag k="alt_name" v="Skreelva" />
		<tag k="name" v="Skredbekken" />
		<tag k="ssr:stedsnr" v="315642" />
		<tag k="waterway" v="stream" />
	</node>
	<node lat="62.95619722278496" lon="7.112316672416895" id="-3835">
		<tag k="name" v="Nørdre Hustadelva" />
		<tag k="ssr:stedsnr" v="316103" />
		<tag k="waterway" v="river" />
	</node>
	<node lat="62.91323055703021" lon="7.328452776700992" id="-3846">
		<tag k="name" v="Heimstadløken" />
		<tag k="ssr:stedsnr" v="338206" />
		<tag k="waterway" v="stream" />
	</node>
	<node lat="62.956719442266476" lon="7.276761108363315" id="-3847">
		<tag k="name" v="Sandsbekken" />
		<tag k="ssr:stedsnr" v="338212" />
		<tag k="waterway" v="stream" />
	</node>
	<node lat="62.95731944445472" lon="7.299558326125883" id="-3848">
		<tag k="name" v="Seterbekken" />
		<tag k="ssr:stedsnr" v="338214" />
		<tag k="waterway" v="stream" />
	</node>
	<node lat="62.91804166923384" lon="7.3272361057490745" id="-3857">
		<tag k="name" v="Åsaneset" />
		<tag k="natural" v="cape" />
		<tag k="ssr:stedsnr" v="338354" />
	</node>
	<node lat="62.79023888821702" lon="7.031527786545339" id="-3859">
		<tag k="name" v="Svenskeløken" />
		<tag k="ssr:stedsnr" v="338359" />
		<tag k="waterway" v="stream" />
	</node>
	<node lat="62.78801110870457" lon="7.0088388961903485" id="-3860">
		<tag k="name" v="Svenskeløken" />
		<tag k="ssr:stedsnr" v="338361" />
		<tag k="waterway" v="stream" />
	</node>
	<node lat="62.935061110465604" lon="6.987683340196365" id="-3865">
		<tag k="name" v="Sundeelva" />
		<tag k="ssr:stedsnr" v="338411" />
		<tag k="waterway" v="river" />
	</node>
	<node lat="62.80627222529811" lon="7.268161103818502" id="-3874">
		<tag k="name" v="Øvre Klompvatnet" />
=======
	<node id="-104161" lat="62.9139888863" lon="7.02285278525">
		<tag k="name" v="Kråktjønna" />
		<tag k="natural" v="water" />
		<tag k="ssr:stedsnr" v="702491" />
	</node>
	<node id="-104149" lat="62.8808861084" lon="7.43824166919">
		<tag k="name" v="Djupdalsbekken" />
		<tag k="ssr:stedsnr" v="702286" />
		<tag k="waterway" v="stream" />
	</node>
	<node id="-104143" lat="62.8929777774" lon="7.34027500464">
		<tag k="name" v="Gunnadalsbekken" />
		<tag k="ssr:stedsnr" v="702206" />
		<tag k="waterway" v="stream" />
	</node>
	<node id="-104141" lat="62.8973527739" lon="7.33716944603">
		<tag k="name" v="Snipvatnet" />
		<tag k="natural" v="water" />
		<tag k="ssr:stedsnr" v="702199" />
	</node>
	<node id="-104140" lat="62.871324997" lon="7.50213611255">
		<tag k="name" v="Klokkhusvatnet" />
		<tag k="natural" v="water" />
		<tag k="ssr:stedsnr" v="702267" />
	</node>
	<node id="-106786" lat="62.8951435657" lon="6.8292250145">
		<tag k="name" v="Nørdstebarden" />
		<tag k="place" v="islet" />
		<tag k="ssr:stedsnr" v="990452" />
	</node>
	<node id="-104136" lat="62.8209361093" lon="7.34773055162">
		<tag k="name" v="Dyrdalsvatnet" />
		<tag k="natural" v="water" />
		<tag k="ssr:stedsnr" v="558771" />
	</node>
	<node id="-104126" lat="62.791955552" lon="7.07906944663">
		<tag k="alt_name" v="Vasselva;Aureelva" />
		<tag k="name" v="Hestadelva" />
		<tag k="ssr:stedsnr" v="557808" />
		<tag k="waterway" v="stream" />
	</node>
	<node id="-104125" lat="62.7983472179" lon="7.14528054803">
		<tag k="name" v="Tverrelva" />
		<tag k="ssr:stedsnr" v="557805" />
		<tag k="waterway" v="stream" />
	</node>
	<node id="-104120" lat="62.8958222225" lon="7.00753333409">
		<tag k="name" v="Vestadelva" />
		<tag k="ssr:stedsnr" v="557154" />
		<tag k="waterway" v="stream" />
	</node>
	<node id="-106167" lat="62.9054000024" lon="7.56743332519">
		<tag k="name" v="Golielva" />
		<tag k="ssr:stedsnr" v="581760" />
		<tag k="waterway" v="stream" />
	</node>
	<node id="-104118" lat="62.8648194438" lon="7.07263334313">
		<tag k="name" v="Litleelva" />
		<tag k="ssr:stedsnr" v="701593" />
		<tag k="waterway" v="stream" />
	</node>
	<node id="-106161" lat="62.9250638849" lon="7.21499722985">
		<tag k="name" v="Svartløken" />
		<tag k="ssr:stedsnr" v="581682" />
		<tag k="waterway" v="stream" />
	</node>
	<node id="-106160" lat="62.9142972255" lon="7.35251943648">
		<tag k="name" v="Lamløken" />
		<tag k="ssr:stedsnr" v="581447" />
		<tag k="waterway" v="stream" />
	</node>
	<node id="-106159" lat="62.9146111123" lon="7.34011112076">
		<tag k="name" v="Åsahylla" />
		<tag k="place" v="islet" />
		<tag k="ssr:stedsnr" v="581443" />
	</node>
	<node id="-104109" lat="62.8852027757" lon="7.02850277088">
		<tag k="name" v="Brentholvatnet" />
>>>>>>> e1d4bc35ff8a6074a6f2e91616a996b547c36f15
		<tag k="natural" v="water" />
		<tag k="ssr:stedsnr" v="338746" />
	</node>
<<<<<<< HEAD
	<node lat="62.82125832968229" lon="7.327005559434367" id="-3875">
		<tag k="alt_name" v="Dyrdalsgrova" />
		<tag k="name" v="Dyrdalselva" />
		<tag k="ssr:stedsnr" v="338750" />
		<tag k="waterway" v="stream" />
	</node>
	<node lat="62.82217500169936" lon="7.372980559714542" id="-3876">
		<tag k="name" v="Gjengkleivelva" />
		<tag k="ssr:stedsnr" v="338751" />
		<tag k="waterway" v="river" />
	</node>
	<node lat="62.84980277390664" lon="7.198458333385345" id="-3886">
=======
	<node id="-106154" lat="62.9338138899" lon="7.42967222345">
		<tag k="name" v="Silneselva" />
		<tag k="ssr:stedsnr" v="581413" />
		<tag k="waterway" v="stream" />
	</node>
	<node id="-104104" lat="62.9194055599" lon="7.32633888864">
>>>>>>> e1d4bc35ff8a6074a6f2e91616a996b547c36f15
		<tag k="name" v="Løken" />
		<tag k="ssr:stedsnr" v="338993" />
		<tag k="waterway" v="stream" />
	</node>
<<<<<<< HEAD
	<node lat="62.889066669556975" lon="7.423250005742557" id="-3928">
		<tag k="name" v="Gammelkallbekken" />
		<tag k="ssr:stedsnr" v="398310" />
		<tag k="waterway" v="stream" />
	</node>
	<node lat="62.912044448012175" lon="7.1884972242847756" id="-3942">
		<tag k="name" v="Holgrova" />
		<tag k="ssr:stedsnr" v="398988" />
		<tag k="waterway" v="stream" />
	</node>
	<node lat="62.90089444771997" lon="7.402719442694837" id="-3951">
		<tag k="name" v="Kallaneset" />
=======
	<node id="-106151" lat="62.9187138854" lon="7.42996943984">
		<tag k="name" v="Maskindammen" />
		<tag k="ssr:stedsnr" v="581400" />
		<tag k="waterway" v="dam" />
	</node>
	<node id="-106141" lat="62.8060166687" lon="7.34242777316">
		<tag k="name" v="Isakøya" />
>>>>>>> e1d4bc35ff8a6074a6f2e91616a996b547c36f15
		<tag k="natural" v="cape" />
		<tag k="ssr:stedsnr" v="399390" />
	</node>
<<<<<<< HEAD
	<node lat="62.90711667116584" lon="7.542702786895675" id="-3958">
		<tag k="name" v="Herskedalselva" />
		<tag k="ssr:stedsnr" v="399428" />
		<tag k="waterway" v="river" />
	</node>
	<node lat="62.85591389332867" lon="7.224344443167407" id="-3970">
		<tag k="name" v="Myrbostadgrova" />
		<tag k="ssr:stedsnr" v="399798" />
		<tag k="waterway" v="stream" />
	</node>
	<node lat="62.847519442863536" lon="7.241666668456684" id="-3971">
		<tag k="name" v="Heimste grova" />
		<tag k="ssr:stedsnr" v="399799" />
		<tag k="waterway" v="stream" />
	</node>
	<node lat="62.90662777721968" lon="7.205366666385344" id="-3974">
		<tag k="name" v="Støttelva" />
		<tag k="ssr:stedsnr" v="399681" />
		<tag k="waterway" v="river" />
	</node>
	<node lat="62.8583611083545" lon="7.359030552540134" id="-4009">
		<tag k="name" v="Trolldalsvatnet" />
		<tag k="natural" v="water" />
		<tag k="ssr:stedsnr" v="436666" />
	</node>
	<node lat="62.96490555613039" lon="7.245308325123181" id="-4024">
		<tag k="alt_name" v="Bjønndalselva" />
		<tag k="name" v="Bjørndalselva" />
		<tag k="ssr:stedsnr" v="437908" />
		<tag k="waterway" v="stream" />
	</node>
	<node lat="62.84599166892594" lon="7.292366669430409" id="-4026">
		<tag k="name" v="Lågliaura" />
=======
	<node id="-106140" lat="62.8250333359" lon="7.37184166681">
		<tag k="name" v="Kvitåa" />
		<tag k="ssr:stedsnr" v="580947" />
		<tag k="waterway" v="river" />
	</node>
	<node id="-106137" lat="62.9040499995" lon="7.13356667291">
		<tag k="name" v="Gåtjønna" />
		<tag k="natural" v="water" />
		<tag k="ssr:stedsnr" v="580892" />
	</node>
	<node id="-104088" lat="62.7964500007" lon="7.22576944673">
		<tag k="name" v="Malmeelva" />
		<tag k="ssr:stedsnr" v="680775" />
		<tag k="waterway" v="river" />
	</node>
	<node id="-103705" lat="62.8985388907" lon="7.02456944921">
		<tag k="name" v="Vestadvatnet" />
		<tag k="natural" v="water" />
		<tag k="ssr:stedsnr" v="254158" />
	</node>
	<node id="-103701" lat="62.8951527806" lon="7.10154444469">
		<tag k="name" v="Botnavatnet" />
		<tag k="natural" v="water" />
		<tag k="ssr:stedsnr" v="254138" />
	</node>
	<node id="-104056" lat="62.9467527791" lon="7.39785833501">
		<tag k="name" v="Seterbekken" />
		<tag k="ssr:stedsnr" v="678969" />
		<tag k="waterway" v="stream" />
	</node>
	<node id="-104052" lat="62.9009333348" lon="7.31862778735">
		<tag k="name" v="Hældalsvatnet" />
>>>>>>> e1d4bc35ff8a6074a6f2e91616a996b547c36f15
		<tag k="natural" v="water" />
		<tag k="ssr:stedsnr" v="445808" />
		<tag k="water" v="pond" />
	</node>
<<<<<<< HEAD
	<node lat="62.90384444885872" lon="7.367113887981368" id="-4054">
		<tag k="name" v="Langneset" />
=======
	<node id="-104382" lat="62.8801416703" lon="7.1307527754">
		<tag k="name" v="Svarthauggrova" />
		<tag k="ssr:stedsnr" v="884630" />
		<tag k="waterway" v="stream" />
	</node>
	<node id="-106096" lat="62.8906666623" lon="7.43159445294">
		<tag k="name" v="Fiskarneset" />
>>>>>>> e1d4bc35ff8a6074a6f2e91616a996b547c36f15
		<tag k="natural" v="cape" />
		<tag k="ssr:stedsnr" v="460281" />
	</node>
<<<<<<< HEAD
	<node lat="62.876744447207074" lon="7.500361108777899" id="-4056">
		<tag k="name" v="Klokkhuselva" />
		<tag k="ssr:stedsnr" v="460376" />
		<tag k="waterway" v="stream" />
	</node>
	<node lat="62.89648611374661" lon="7.177569448518656" id="-4063">
		<tag k="name" v="Hatleholmen" />
		<tag k="place" v="islet" />
		<tag k="ssr:stedsnr" v="460678" />
	</node>
	<node lat="62.95932777805568" lon="7.127758335888857" id="-4068">
		<tag k="name" v="Løkhaugkanalen" />
		<tag k="ssr:stedsnr" v="460760" />
		<tag k="waterway" v="drain" />
	</node>
	<node lat="62.76686389156486" lon="7.053136117167414" id="-4103">
		<tag k="name" v="Tverrlivatnet" />
=======
	<node id="-106094" lat="62.8998388878" lon="7.40586112013">
		<tag k="name" v="Røstberget" />
		<tag k="natural" v="cape" />
		<tag k="ssr:stedsnr" v="580272" />
	</node>
	<node id="-106093" lat="62.870733337" lon="7.4162305533">
		<tag k="name" v="Finnseterelva" />
		<tag k="ssr:stedsnr" v="580260" />
		<tag k="waterway" v="stream" />
	</node>
	<node id="-104044" lat="62.8883833349" lon="7.34626111903">
		<tag k="name" v="Storbekken" />
		<tag k="ssr:stedsnr" v="459214" />
		<tag k="waterway" v="stream" />
	</node>
	<node id="-104042" lat="62.8459916689" lon="7.29236666943">
		<tag k="name" v="Lågliaura" />
>>>>>>> e1d4bc35ff8a6074a6f2e91616a996b547c36f15
		<tag k="natural" v="water" />
		<tag k="ssr:stedsnr" v="679854" />
	</node>
<<<<<<< HEAD
	<node lat="62.98289444531916" lon="7.237777778160029" id="-4147">
		<tag k="alt_name" v="Sandblostelva" />
		<tag k="name" v="Sandblåstelva" />
		<tag k="ssr:stedsnr" v="520119" />
		<tag k="waterway" v="stream" />
	</node>
	<node lat="62.95996111033606" lon="7.365999990827028" id="-4153">
		<tag k="name" v="Lyngstadelva" />
		<tag k="ssr:stedsnr" v="520281" />
		<tag k="waterway" v="river" />
	</node>
	<node lat="62.919405559855704" lon="7.326338888639773" id="-4154">
		<tag k="name" v="Løken" />
		<tag k="ssr:stedsnr" v="520409" />
		<tag k="waterway" v="stream" />
	</node>
	<node lat="62.89040277539228" lon="7.550658334792982" id="-4161">
		<tag k="name" v="Skålmyrbekken" />
		<tag k="ssr:stedsnr" v="520372" />
		<tag k="waterway" v="stream" />
	</node>
	<node lat="62.89332500153145" lon="7.562511118746441" id="-4162">
		<tag k="name" v="Nybelibekken" />
		<tag k="ssr:stedsnr" v="520373" />
		<tag k="waterway" v="stream" />
	</node>
	<node lat="62.90368611200876" lon="7.525883337209491" id="-4164">
		<tag k="name" v="Skarlibekken" />
		<tag k="ssr:stedsnr" v="520376" />
		<tag k="waterway" v="stream" />
	</node>
	<node lat="62.813800002943154" lon="7.382333333007086" id="-4171">
		<tag k="loc_name" v="Gunnillseterelva" />
		<tag k="name" v="Gunnhildseterelva" />
		<tag k="ssr:stedsnr" v="520833" />
		<tag k="waterway" v="river" />
	</node>
	<node lat="62.90154166643914" lon="7.177377773510265" id="-4176">
		<tag k="name" v="Haugelva" />
		<tag k="ssr:stedsnr" v="520921" />
		<tag k="waterway" v="stream" />
	</node>
	<node lat="62.88170833261379" lon="7.1424694446713595" id="-4178">
		<tag k="name" v="Hanselva" />
		<tag k="ssr:stedsnr" v="520923" />
		<tag k="waterway" v="stream" />
	</node>
	<node lat="62.906930552390584" lon="7.2411805638499676" id="-4179">
=======
	<node id="-106089" lat="62.9660027812" lon="7.36149167227">
		<tag k="name" v="Ørjavikløken" />
		<tag k="ssr:stedsnr" v="580227" />
		<tag k="waterway" v="stream" />
	</node>
	<node id="-106088" lat="62.963266669" lon="7.28563887948">
		<tag k="name" v="Gåstjønna" />
		<tag k="natural" v="water" />
		<tag k="ssr:stedsnr" v="580226" />
	</node>
	<node id="-106087" lat="62.9662583349" lon="7.27586388531">
		<tag k="name" v="Gådalsfossen" />
		<tag k="natural" v="waterfall" />
		<tag k="ssr:stedsnr" v="580224" />
	</node>
	<node id="-106083" lat="62.9052583314" lon="7.35189721311">
		<tag k="name" v="Storneset" />
		<tag k="natural" v="cape" />
		<tag k="ssr:stedsnr" v="580196" />
	</node>
	<node id="-106082" lat="62.9046944465" lon="7.31245278207">
		<tag k="name" v="Vasstjønna" />
		<tag k="natural" v="water" />
		<tag k="ssr:stedsnr" v="580192" />
	</node>
	<node id="-106074" lat="62.8254916627" lon="7.2578833365">
		<tag k="name" v="Rødalselva" />
		<tag k="ssr:stedsnr" v="558733" />
		<tag k="waterway" v="river" />
	</node>
	<node id="-104020" lat="62.7599249991" lon="7.08534166011">
		<tag k="name" v="Langvatnet" />
		<tag k="natural" v="water" />
		<tag k="ssr:stedsnr" v="517908" />
		<tag k="water" v="lake" />
	</node>
	<node id="-106063" lat="62.9680361097" lon="7.22200278466">
		<tag k="name" v="Skottenvatnet" />
		<tag k="natural" v="water" />
		<tag k="ssr:stedsnr" v="557915" />
	</node>
	<node id="-104014" lat="62.7847638916" lon="7.18452499939">
		<tag k="name" v="Seterelva" />
		<tag k="ssr:stedsnr" v="517031" />
		<tag k="waterway" v="stream" />
	</node>
	<node id="-104003" lat="62.8516388919" lon="7.3876861089">
		<tag k="name" v="Gryta" />
		<tag k="natural" v="water" />
		<tag k="ssr:stedsnr" v="398018" />
	</node>
	<node id="-104001" lat="62.7885500004" lon="7.19007777149">
		<tag k="name" v="Lomtjønna" />
		<tag k="natural" v="water" />
		<tag k="ssr:stedsnr" v="396023" />
	</node>
	<node id="-103995" lat="62.952263892" lon="7.09204721664">
		<tag k="alt_name" v="Søre Hustadelva" />
		<tag k="name" v="Sagelva" />
		<tag k="ssr:stedsnr" v="376109" />
		<tag k="waterway" v="river" />
	</node>
	<node id="-103989" lat="62.8829944487" lon="7.54182499">
		<tag k="name" v="Kjølavatnet" />
		<tag k="natural" v="water" />
		<tag k="ssr:stedsnr" v="375618" />
	</node>
	<node id="-106023" lat="62.9069305524" lon="7.24118056385">
>>>>>>> e1d4bc35ff8a6074a6f2e91616a996b547c36f15
		<tag k="name" v="Løken" />
		<tag k="ssr:stedsnr" v="520965" />
		<tag k="waterway" v="stream" />
	</node>
<<<<<<< HEAD
	<node lat="62.895822222504556" lon="7.0075333340917565" id="-4188">
		<tag k="name" v="Vestadelva" />
		<tag k="ssr:stedsnr" v="557154" />
		<tag k="waterway" v="stream" />
	</node>
	<node lat="62.79834721794124" lon="7.145280548032153" id="-4193">
		<tag k="name" v="Tverrelva" />
		<tag k="ssr:stedsnr" v="557805" />
		<tag k="waterway" v="stream" />
	</node>
	<node lat="62.79195555201072" lon="7.079069446626226" id="-4194">
		<tag k="alt_name" v="Vasselva;Aureelva" />
		<tag k="name" v="Hestadelva" />
		<tag k="ssr:stedsnr" v="557808" />
		<tag k="waterway" v="stream" />
	</node>
	<node lat="62.904694446508" lon="7.312452782069687" id="-4222">
		<tag k="name" v="Vasstjønna" />
		<tag k="natural" v="water" />
		<tag k="ssr:stedsnr" v="580192" />
	</node>
	<node lat="62.90525833138916" lon="7.351897213109668" id="-4223">
		<tag k="name" v="Storneset" />
		<tag k="natural" v="cape" />
		<tag k="ssr:stedsnr" v="580196" />
	</node>
	<node lat="62.825033335887746" lon="7.371841666811102" id="-4242">
		<tag k="name" v="Kvitåa" />
		<tag k="ssr:stedsnr" v="580947" />
		<tag k="waterway" v="river" />
	</node>
	<node lat="62.80601666872447" lon="7.342427773155154" id="-4243">
		<tag k="name" v="Isakøya" />
		<tag k="natural" v="cape" />
		<tag k="ssr:stedsnr" v="580952" />
	</node>
	<node lat="62.90404999954041" lon="7.13356667290955" id="-4246">
		<tag k="name" v="Gåtjønna" />
=======
	<node id="-106019" lat="62.8817083326" lon="7.14246944467">
		<tag k="name" v="Hanselva" />
		<tag k="ssr:stedsnr" v="520923" />
		<tag k="waterway" v="stream" />
	</node>
	<node id="-106017" lat="62.9015416664" lon="7.17737777351">
		<tag k="name" v="Haugelva" />
		<tag k="ssr:stedsnr" v="520921" />
		<tag k="waterway" v="stream" />
	</node>
	<node id="-106013" lat="62.9011944469" lon="7.27758055158">
		<tag k="name" v="Stordalselva" />
		<tag k="ssr:stedsnr" v="520895" />
		<tag k="waterway" v="stream" />
	</node>
	<node id="-106012" lat="62.987325002" lon="7.25829444044">
		<tag k="name" v="Sør Morøya" />
		<tag k="place" v="island" />
		<tag k="ssr:stedsnr" v="520891" />
	</node>
	<node id="-106009" lat="62.8138000029" lon="7.38233333301">
		<tag k="loc_name" v="Gunnillseterelva" />
		<tag k="name" v="Gunnhildseterelva" />
		<tag k="ssr:stedsnr" v="520833" />
		<tag k="waterway" v="river" />
	</node>
	<node id="-105998" lat="62.9583361132" lon="7.15096389786">
		<tag k="name" v="Lomtjønna" />
		<tag k="natural" v="water" />
		<tag k="ssr:stedsnr" v="520747" />
	</node>
	<node id="-103948" lat="62.7898222265" lon="7.06497499854">
		<tag k="name" v="Hestadvatnet" />
		<tag k="natural" v="water" />
		<tag k="ssr:stedsnr" v="496830" />
	</node>
	<node id="-103944" lat="62.9500749988" lon="7.27900277929">
		<tag k="name" v="Gådalsvatnet" />
>>>>>>> e1d4bc35ff8a6074a6f2e91616a996b547c36f15
		<tag k="natural" v="water" />
		<tag k="ssr:stedsnr" v="580892" />
	</node>
<<<<<<< HEAD
	<node lat="62.93381388987983" lon="7.429672223450139" id="-4253">
		<tag k="name" v="Silneselva" />
		<tag k="ssr:stedsnr" v="581413" />
		<tag k="waterway" v="stream" />
	</node>
	<node lat="62.91461111232502" lon="7.340111120758384" id="-4256">
		<tag k="name" v="Åsahylla" />
		<tag k="place" v="islet" />
		<tag k="ssr:stedsnr" v="581443" />
	</node>
	<node lat="62.914297225506466" lon="7.352519436481952" id="-4257">
		<tag k="name" v="Lamløken" />
		<tag k="ssr:stedsnr" v="581447" />
		<tag k="waterway" v="stream" />
	</node>
	<node lat="62.918713885369584" lon="7.429969439844429" id="-4260">
		<tag k="name" v="Maskindammen" />
		<tag k="ssr:stedsnr" v="581400" />
		<tag k="waterway" v="dam" />
	</node>
	<node lat="62.868319441048385" lon="7.483127774226766" id="-4277">
		<tag k="fixme" v="multiple name tags, choose one and add the other to alt_name" />
		<tag k="name" v="Litlvatnet;Tusstjønna" />
		<tag k="natural" v="water" />
		<tag k="ssr:stedsnr" v="702266" />
	</node>
	<node lat="62.87132499698241" lon="7.5021361125457044" id="-4278">
		<tag k="name" v="Klokkhusvatnet" />
		<tag k="natural" v="water" />
		<tag k="ssr:stedsnr" v="702267" />
	</node>
	<node lat="62.86481944375345" lon="7.072633343133823" id="-4280">
		<tag k="name" v="Litleelva" />
		<tag k="ssr:stedsnr" v="701593" />
		<tag k="waterway" v="stream" />
	</node>
	<node lat="62.88167777519119" lon="7.285075000403723" id="-4288">
		<tag k="name" v="Kvitåa" />
		<tag k="ssr:stedsnr" v="618627" />
		<tag k="waterway" v="stream" />
	</node>
	<node lat="62.87589999902225" lon="7.375708338795554" id="-4289">
		<tag k="alt_name" v="Lomtjønna" />
		<tag k="name" v="Lomtjørna" />
		<tag k="natural" v="water" />
		<tag k="ssr:stedsnr" v="618635" />
	</node>
	<node lat="62.7745305525235" lon="7.053002774836403" id="-4296">
		<tag k="name" v="Åndalsvatnet" />
		<tag k="natural" v="water" />
		<tag k="ssr:stedsnr" v="618825" />
	</node>
	<node lat="62.897352773905126" lon="7.3371694460315835" id="-4305">
		<tag k="name" v="Snipvatnet" />
		<tag k="natural" v="water" />
		<tag k="ssr:stedsnr" v="702199" />
	</node>
	<node lat="62.88088610836133" lon="7.438241669190849" id="-4307">
		<tag k="name" v="Djupdalsbekken" />
		<tag k="ssr:stedsnr" v="702286" />
		<tag k="waterway" v="stream" />
	</node>
	<node lat="62.940502775091915" lon="7.355533325838611" id="-4317">
		<tag k="name" v="Røyråa" />
		<tag k="natural" v="bay" />
		<tag k="ssr:stedsnr" v="702399" />
	</node>
	<node lat="62.8784555514489" lon="7.513483333607659" id="-4326">
		<tag k="name" v="Lomdammen" />
		<tag k="natural" v="water" />
		<tag k="ssr:stedsnr" v="702357" />
	</node>
	<node lat="62.913988886334344" lon="7.022852785245327" id="-4331">
		<tag k="name" v="Kråktjønna" />
=======
	<node id="-105987" lat="62.8913972236" lon="7.15105554964">
		<tag k="name" v="Hatleelva" />
		<tag k="ssr:stedsnr" v="520647" />
		<tag k="waterway" v="stream" />
	</node>
	<node id="-105985" lat="62.8911499963" lon="7.06143334322">
		<tag k="name" v="Ulhaugløken" />
		<tag k="ssr:stedsnr" v="520640" />
		<tag k="waterway" v="stream" />
	</node>
	<node id="-103934" lat="62.8956444422" lon="7.05585832541">
		<tag k="name" v="Prestseterelva" />
		<tag k="ssr:stedsnr" v="496157" />
		<tag k="waterway" v="stream" />
	</node>
	<node id="-103931" lat="62.88499167" lon="7.02770278461">
		<tag k="name" v="Stavikvatna" />
		<tag k="natural" v="water" />
		<tag k="ssr:stedsnr" v="496137" />
	</node>
	<node id="-105973" lat="62.8740361076" lon="7.40753333824">
		<tag k="alt_name" v="Surendalselva" />
		<tag k="name" v="Dalaelva" />
		<tag k="ssr:stedsnr" v="520445" />
		<tag k="waterway" v="river" />
	</node>
	<node id="-105971" lat="62.9352111088" lon="7.35213610367">
		<tag k="name" v="Åsaløken" />
		<tag k="ssr:stedsnr" v="520434" />
		<tag k="waterway" v="stream" />
	</node>
	<node id="-105964" lat="62.903686112" lon="7.52588333721">
		<tag k="name" v="Skarlibekken" />
		<tag k="ssr:stedsnr" v="520376" />
		<tag k="waterway" v="stream" />
	</node>
	<node id="-105962" lat="62.8933250015" lon="7.56251111875">
		<tag k="name" v="Nybelibekken" />
		<tag k="ssr:stedsnr" v="520373" />
		<tag k="waterway" v="stream" />
	</node>
	<node id="-105961" lat="62.8904027754" lon="7.55065833479">
		<tag k="name" v="Skålmyrbekken" />
		<tag k="ssr:stedsnr" v="520372" />
		<tag k="waterway" v="stream" />
	</node>
	<node id="-105955" lat="62.8885027796" lon="7.40005000567">
		<tag k="name" v="Halåsløken" />
		<tag k="ssr:stedsnr" v="520330" />
		<tag k="waterway" v="stream" />
	</node>
	<node id="-103905" lat="62.9561972228" lon="7.11231667242">
		<tag k="name" v="Nørdre Hustadelva" />
		<tag k="ssr:stedsnr" v="316103" />
		<tag k="waterway" v="river" />
	</node>
	<node id="-105952" lat="62.9599611103" lon="7.36599999083">
		<tag k="name" v="Lyngstadelva" />
		<tag k="ssr:stedsnr" v="520281" />
		<tag k="waterway" v="river" />
	</node>
	<node id="-105948" lat="62.9110666709" lon="7.33073610548">
		<tag k="name" v="Daleløken" />
		<tag k="ssr:stedsnr" v="520237" />
		<tag k="waterway" v="stream" />
	</node>
	<node id="-105947" lat="62.9121833306" lon="7.33706945142">
		<tag k="name" v="Dalaholman" />
		<tag k="place" v="islet" />
		<tag k="ssr:stedsnr" v="520236" />
	</node>
	<node id="-105946" lat="62.90978056" lon="7.33965555859">
		<tag k="name" v="Småholman" />
		<tag k="place" v="islet" />
		<tag k="ssr:stedsnr" v="520235" />
	</node>
	<node id="-105942" lat="62.9828944453" lon="7.23777777816">
		<tag k="alt_name" v="Sandblostelva" />
		<tag k="name" v="Sandblåstelva" />
		<tag k="ssr:stedsnr" v="520119" />
		<tag k="waterway" v="stream" />
	</node>
	<node id="-105934" lat="62.9649055561" lon="7.24530832512">
		<tag k="alt_name" v="Bjønndalselva" />
		<tag k="name" v="Bjørndalselva" />
		<tag k="ssr:stedsnr" v="437908" />
		<tag k="waterway" v="stream" />
	</node>
	<node id="-105932" lat="62.7654666701" lon="7.08271388966">
		<tag k="name" v="Lomtjørna" />
>>>>>>> e1d4bc35ff8a6074a6f2e91616a996b547c36f15
		<tag k="natural" v="water" />
		<tag k="ssr:stedsnr" v="702491" />
	</node>
<<<<<<< HEAD
	<node lat="62.94975832917161" lon="7.063344441144331" id="-4340">
		<tag k="name" v="Malkvernhusfalla" />
		<tag k="ssr:stedsnr" v="702594" />
		<tag k="waterway" v="rapids" />
	</node>
	<node lat="62.866586109875996" lon="7.069419439477463" id="-4345">
		<tag k="name" v="Litleelva" />
		<tag k="ssr:stedsnr" v="702638" />
		<tag k="waterway" v="stream" />
	</node>
	<node lat="62.870130551986286" lon="7.3170111162105504" id="-4357">
		<tag k="name" v="Bjønndalsgrova" />
		<tag k="ssr:stedsnr" v="702863" />
		<tag k="waterway" v="stream" />
	</node>
	<node lat="62.86931944688301" lon="7.261969450708831" id="-4359">
		<tag k="name" v="Skarløken" />
		<tag k="ssr:stedsnr" v="702868" />
		<tag k="waterway" v="stream" />
	</node>
	<node lat="62.98598888795868" lon="7.26952778333959" id="-4360">
		<tag k="alt_name" v="Nordre Morøy" />
		<tag k="name" v="Nørd Morøya" />
		<tag k="place" v="islet" />
		<tag k="ssr:stedsnr" v="702871" />
	</node>
	<node lat="62.774355557853866" lon="7.056233326177946" id="-4377">
		<tag k="name" v="Åndalsvatnet" />
=======
	<node id="-103877" lat="62.8719277736" lon="7.27839167352">
		<tag k="name" v="Langehølen" />
		<tag k="place" v="locality" />
		<tag k="ssr:stedsnr" v="460897" />
	</node>
	<node id="-103876" lat="62.8556305521" lon="7.27374443887">
		<tag k="name" v="Anderselva" />
		<tag k="ssr:stedsnr" v="460886" />
		<tag k="waterway" v="stream" />
	</node>
	<node id="-103875" lat="62.8078138888" lon="7.24256665879">
		<tag k="name" v="Fossgrova" />
		<tag k="ssr:stedsnr" v="460834" />
		<tag k="waterway" v="stream" />
	</node>
	<node id="-105920" lat="62.9504833321" lon="7.05196110692">
		<tag k="name" v="Rugga" />
		<tag k="ssr:stedsnr" v="437148" />
		<tag k="waterway" v="river" />
	</node>
	<node id="-103871" lat="62.975508336" lon="7.22215834176">
		<tag k="name" v="Skottenelva" />
		<tag k="ssr:stedsnr" v="460800" />
		<tag k="waterway" v="stream" />
	</node>
	<node id="-103865" lat="62.9593277781" lon="7.12775833589">
		<tag k="name" v="Løkhaugkanalen" />
		<tag k="ssr:stedsnr" v="460760" />
		<tag k="waterway" v="drain" />
	</node>
	<node id="-103857" lat="62.8964861137" lon="7.17756944852">
		<tag k="name" v="Hatleholmen" />
		<tag k="place" v="islet" />
		<tag k="ssr:stedsnr" v="460678" />
	</node>
	<node id="-103855" lat="62.9467083322" lon="7.07925833154">
		<tag k="name" v="Lomtjønnin" />
		<tag k="natural" v="water" />
		<tag k="ssr:stedsnr" v="460649" />
	</node>
	<node id="-105894" lat="62.8583611084" lon="7.35903055254">
		<tag k="name" v="Trolldalsvatnet" />
		<tag k="natural" v="water" />
		<tag k="ssr:stedsnr" v="436666" />
	</node>
	<node id="-103845" lat="62.9566222265" lon="7.29302222244">
		<tag k="name" v="Årøyelva" />
		<tag k="ssr:stedsnr" v="460499" />
		<tag k="waterway" v="river" />
	</node>
	<node id="-105891" lat="62.9057388888" lon="7.25731387963">
		<tag k="name" v="Seterdalsvatnet" />
		<tag k="natural" v="water" />
		<tag k="ssr:stedsnr" v="436570" />
	</node>
	<node id="-103842" lat="62.7737027804" lon="7.05052777341">
		<tag k="name" v="Liavatnet" />
>>>>>>> e1d4bc35ff8a6074a6f2e91616a996b547c36f15
		<tag k="natural" v="water" />
		<tag k="ssr:stedsnr" v="638885" />
		<tag k="water" v="lake" />
	</node>
<<<<<<< HEAD
	<node lat="62.86190832919547" lon="7.100980565373772" id="-4380">
		<tag k="name" v="Lomtjørnin" />
		<tag k="natural" v="water" />
		<tag k="ssr:stedsnr" v="640689" />
	</node>
	<node lat="62.92851944622376" lon="7.333155551465403" id="-4387">
		<tag k="name" v="Skottenbekken" />
		<tag k="ssr:stedsnr" v="641178" />
		<tag k="waterway" v="stream" />
	</node>
	<node lat="62.96243333111741" lon="7.364375000429869" id="-4405">
		<tag k="name" v="Breiløken" />
		<tag k="ssr:stedsnr" v="641240" />
		<tag k="waterway" v="stream" />
	</node>
	<node lat="62.87082221980774" lon="7.418919447618653" id="-4411">
		<tag k="name" v="Kamskarbekken" />
		<tag k="ssr:stedsnr" v="641267" />
		<tag k="waterway" v="stream" />
	</node>
	<node lat="62.898124999583665" lon="7.410738881358909" id="-4415">
		<tag k="name" v="Sandbukta" />
		<tag k="natural" v="bay" />
		<tag k="ssr:stedsnr" v="641298" />
	</node>
	<node lat="62.88537778092076" lon="7.0218888866620475" id="-4422">
		<tag k="name" v="Kringletevatnet" />
		<tag k="natural" v="water" />
		<tag k="ssr:stedsnr" v="641492" />
		<tag k="water" v="lake" />
	</node>
	<node lat="62.904097222553" lon="7.519911117502981" id="-4425">
		<tag k="name" v="Kjølelva" />
		<tag k="ssr:stedsnr" v="641677" />
		<tag k="waterway" v="stream" />
	</node>
	<node lat="62.902744446175596" lon="6.979788886867054" id="-4436">
		<tag k="name" v="Kroken" />
		<tag k="ssr:stedsnr" v="641895" />
		<tag k="waterway" v="stream" />
	</node>
	<node lat="62.85578610926299" lon="7.19855832904425" id="-4443">
		<tag k="name" v="Glåmå" />
		<tag k="ssr:stedsnr" v="641990" />
		<tag k="waterway" v="stream" />
	</node>
	<node lat="62.878536108630605" lon="7.33371665879233" id="-4444">
		<tag k="name" v="Brandseterelva" />
		<tag k="ssr:stedsnr" v="646771" />
		<tag k="waterway" v="stream" />
	</node>
	<node lat="62.90093333482511" lon="7.3186277873526375" id="-4463">
		<tag k="name" v="Hældalsvatnet" />
		<tag k="natural" v="water" />
		<tag k="ssr:stedsnr" v="678575" />
	</node>
	<node lat="62.946752779074274" lon="7.3978583350143206" id="-4466">
		<tag k="name" v="Seterbekken" />
		<tag k="ssr:stedsnr" v="678969" />
		<tag k="waterway" v="stream" />
	</node>
	<node lat="62.796450000749154" lon="7.225769446734872" id="-4485">
		<tag k="name" v="Malmeelva" />
		<tag k="ssr:stedsnr" v="680775" />
		<tag k="waterway" v="river" />
	</node>
	<node lat="62.89297777741907" lon="7.340275004637469" id="-4495">
		<tag k="name" v="Gunnadalsbekken" />
		<tag k="ssr:stedsnr" v="702206" />
		<tag k="waterway" v="stream" />
	</node>
	<node lat="62.85017777607681" lon="7.016116676065724" id="-4502">
		<tag k="name" v="Sandvikløken" />
		<tag k="ssr:stedsnr" v="702415" />
		<tag k="waterway" v="stream" />
	</node>
	<node lat="62.920374996551644" lon="7.330872220739622" id="-4517">
		<tag k="name" v="Åsaelva" />
		<tag k="ssr:stedsnr" v="702375" />
		<tag k="waterway" v="stream" />
	</node>
	<node lat="62.86400278130213" lon="7.1477666747850765" id="-4520">
		<tag k="name" v="Haukåselva" />
		<tag k="ssr:stedsnr" v="702524" />
		<tag k="waterway" v="river" />
	</node>
	<node lat="62.78433333660092" lon="7.08724999037462" id="-4524">
		<tag k="name" v="Seterelva" />
		<tag k="ssr:stedsnr" v="702573" />
		<tag k="waterway" v="stream" />
	</node>
	<node lat="62.80492500308002" lon="7.390936101482167" id="-4530">
		<tag k="name" v="Hyttegrova" />
		<tag k="ssr:stedsnr" v="702814" />
		<tag k="waterway" v="stream" />
	</node>
	<node lat="62.88751110682514" lon="7.436361106901132" id="-4555">
		<tag k="name" v="Vasskorvatnet" />
=======
	<node id="-103840" lat="62.908549997" lon="7.34204165938">
		<tag k="name" v="Skjeppet" />
		<tag k="place" v="islet" />
		<tag k="ssr:stedsnr" v="460472" />
	</node>
	<node id="-103832" lat="62.8767444472" lon="7.50036110878">
		<tag k="name" v="Klokkhuselva" />
		<tag k="ssr:stedsnr" v="460376" />
		<tag k="waterway" v="stream" />
	</node>
	<node id="-103829" lat="62.9038444489" lon="7.36711388798">
		<tag k="name" v="Langneset" />
		<tag k="natural" v="cape" />
		<tag k="ssr:stedsnr" v="460281" />
	</node>
	<node id="-106051" lat="62.9006166672" lon="7.54002500785">
		<tag k="name" v="Kjølabekken" />
		<tag k="ssr:stedsnr" v="557578" />
		<tag k="waterway" v="stream" />
	</node>
	<node id="-103813" lat="62.9238805528" lon="7.22533055473">
		<tag k="name" v="Burenna" />
		<tag k="ssr:stedsnr" v="459945" />
		<tag k="waterway" v="stream" />
	</node>
	<node id="-103797" lat="62.8304166671" lon="7.08773889591">
		<tag k="name" v="Sælebotssikla" />
		<tag k="ssr:stedsnr" v="459526" />
		<tag k="waterway" v="stream" />
	</node>
	<node id="-103794" lat="62.8790749978" lon="6.99061111511">
		<tag k="name" v="Stortjønna" />
		<tag k="natural" v="water" />
		<tag k="ssr:stedsnr" v="459493" />
	</node>
	<node id="-105839" lat="62.8509166622" lon="7.17734166636">
		<tag k="alt_name" v="Myrbostadelva" />
		<tag k="name" v="Daleelva" />
		<tag k="ssr:stedsnr" v="399868" />
		<tag k="waterway" v="river" />
	</node>
	<node id="-103789" lat="62.7886027774" lon="7.00288333892">
		<tag k="name" v="Gjerdegrova" />
		<tag k="ssr:stedsnr" v="459386" />
		<tag k="waterway" v="stream" />
	</node>
	<node id="-105836" lat="62.8732194411" lon="7.27111944257">
		<tag k="name" v="Trollelvholmen" />
		<tag k="natural" v="cape" />
		<tag k="ssr:stedsnr" v="399847" />
	</node>
	<node id="-105835" lat="62.8729944428" lon="7.26438888555">
		<tag k="name" v="Nergardsgrova" />
		<tag k="ssr:stedsnr" v="399846" />
		<tag k="waterway" v="stream" />
	</node>
	<node id="-105832" lat="62.8475194429" lon="7.24166666846">
		<tag k="name" v="Heimste grova" />
		<tag k="ssr:stedsnr" v="399799" />
		<tag k="waterway" v="stream" />
	</node>
	<node id="-105831" lat="62.8559138933" lon="7.22434444317">
		<tag k="name" v="Myrbostadgrova" />
		<tag k="ssr:stedsnr" v="399798" />
		<tag k="waterway" v="stream" />
	</node>
	<node id="-105826" lat="62.8172333377" lon="7.27399167235">
		<tag k="alt_name" v="Julskargrova" />
		<tag k="name" v="Julskarbekken" />
		<tag k="ssr:stedsnr" v="399757" />
		<tag k="waterway" v="stream" />
	</node>
	<node id="-105825" lat="62.9588722256" lon="7.24600555193">
		<tag k="name" v="Sloppelva" />
		<tag k="ssr:stedsnr" v="399754" />
		<tag k="waterway" v="stream" />
	</node>
	<node id="-105815" lat="62.9066277772" lon="7.20536666639">
		<tag k="name" v="Støttelva" />
		<tag k="ssr:stedsnr" v="399681" />
		<tag k="waterway" v="river" />
	</node>
	<node id="-103766" lat="62.941313888" lon="7.30817223082">
		<tag k="name" v="Bollielva" />
		<tag k="ssr:stedsnr" v="459241" />
		<tag k="waterway" v="stream" />
	</node>
	<node id="-103765" lat="62.8362777816" lon="7.29987778003">
		<tag k="name" v="Kaligrova" />
		<tag k="ssr:stedsnr" v="277847" />
		<tag k="waterway" v="stream" />
	</node>
	<node id="-105812" lat="62.8674944459" lon="7.07923333799">
		<tag k="name" v="Svarthølen" />
		<tag k="place" v="locality" />
		<tag k="ssr:stedsnr" v="399656" />
	</node>
	<node id="-103757" lat="62.9637944471" lon="7.07657500751">
		<tag k="name" v="Trolltjønna" />
>>>>>>> e1d4bc35ff8a6074a6f2e91616a996b547c36f15
		<tag k="natural" v="water" />
		<tag k="ssr:stedsnr" v="739606" />
		<tag k="water" v="lake" />
	</node>
<<<<<<< HEAD
	<node lat="62.913741665324316" lon="7.36491110247249" id="-4565">
		<tag k="name" v="Mjølkstølbekken" />
		<tag k="ssr:stedsnr" v="740516" />
		<tag k="waterway" v="stream" />
	</node>
	<node lat="62.98835555384104" lon="7.265713891937131" id="-4576">
		<tag k="name" v="Sandblåstvågen" />
		<tag k="natural" v="water" />
		<tag k="ssr:stedsnr" v="740901" />
	</node>
	<node lat="62.906555559741335" lon="6.998849996094514" id="-4577">
		<tag k="name" v="Gulelva" />
		<tag k="ssr:stedsnr" v="741087" />
		<tag k="waterway" v="stream" />
	</node>
	<node lat="62.910113890132415" lon="7.016919441716048" id="-4580">
		<tag k="name" v="Gulvatnet" />
		<tag k="natural" v="water" />
		<tag k="ssr:stedsnr" v="741094" />
	</node>
	<node lat="62.91232221901455" lon="7.277186105217912" id="-4582">
		<tag k="name" v="Tretteidet" />
		<tag k="place" v="locality" />
		<tag k="ssr:stedsnr" v="748873" />
	</node>
	<node lat="62.88502500045339" lon="7.428216675381995" id="-4597">
		<tag k="alt_name" v="Frantsbuelva" />
		<tag k="name" v="Bjerkneselva" />
		<tag k="ssr:stedsnr" v="763145" />
		<tag k="waterway" v="stream" />
	</node>
	<node lat="62.90089722061628" lon="7.417550000177033" id="-4601">
		<tag k="name" v="Hollenderdammen" />
		<tag k="natural" v="water" />
		<tag k="ssr:stedsnr" v="763355" />
		<tag k="water" v="lake" />
	</node>
	<node lat="62.851486113399275" lon="7.420163896202625" id="-4619">
		<tag k="name" v="Brungrova" />
		<tag k="ssr:stedsnr" v="763421" />
		<tag k="waterway" v="stream" />
	</node>
	<node lat="62.81376388916197" lon="7.1273499945573935" id="-4630">
		<tag k="name" v="Igletjønna" />
=======
	<node id="-103756" lat="62.9550583366" lon="7.11459444524">
		<tag k="name" v="Petterremsfalla" />
		<tag k="ssr:stedsnr" v="277720" />
		<tag k="waterway" v="rapids" />
	</node>
	<node id="-103753" lat="62.9082972246" lon="6.96578610932">
		<tag k="name" v="Fjøstjønna" />
		<tag k="natural" v="water" />
		<tag k="ssr:stedsnr" v="277352" />
	</node>
	<node id="-105794" lat="62.9891999956" lon="7.26309443756">
		<tag k="name" v="Sjåneset" />
		<tag k="natural" v="cape" />
		<tag k="ssr:stedsnr" v="399469" />
	</node>
	<node id="-105783" lat="62.9071166712" lon="7.5427027869">
		<tag k="name" v="Herskedalselva" />
		<tag k="ssr:stedsnr" v="399428" />
		<tag k="waterway" v="river" />
	</node>
	<node id="-105781" lat="62.9008944477" lon="7.40271944269">
		<tag k="name" v="Kallaneset" />
		<tag k="natural" v="cape" />
		<tag k="ssr:stedsnr" v="399390" />
	</node>
	<node id="-105778" lat="62.9054166687" lon="7.44456667177">
		<tag k="name" v="Geitskjæret" />
		<tag k="place" v="islet" />
		<tag k="ssr:stedsnr" v="399372" />
	</node>
	<node id="-105777" lat="62.8854444476" lon="7.42228888519">
		<tag k="name" v="Bjerknesløken" />
		<tag k="ssr:stedsnr" v="399366" />
		<tag k="waterway" v="stream" />
	</node>
	<node id="-105776" lat="62.8718277816" lon="7.39306388584">
		<tag k="name" v="Dalaløken" />
		<tag k="ssr:stedsnr" v="399357" />
		<tag k="waterway" v="stream" />
	</node>
	<node id="-105765" lat="62.8774472235" lon="7.34179443609">
		<tag k="name" v="Krokbekken" />
		<tag k="ssr:stedsnr" v="399270" />
		<tag k="waterway" v="stream" />
	</node>
	<node id="-105762" lat="62.9041638899" lon="7.31609166785">
		<tag k="name" v="Midttjønna" />
>>>>>>> e1d4bc35ff8a6074a6f2e91616a996b547c36f15
		<tag k="natural" v="water" />
		<tag k="ssr:stedsnr" v="763611" />
	</node>
<<<<<<< HEAD
	<node lat="62.85465833050856" lon="7.251086112612269" id="-4638">
		<tag k="name" v="Anderselva" />
		<tag k="ssr:stedsnr" v="763791" />
		<tag k="waterway" v="stream" />
	</node>
	<node lat="62.87505833167288" lon="7.29077222053227" id="-4644">
		<tag k="name" v="Sylt-Ola-Hølen" />
		<tag k="place" v="locality" />
		<tag k="ssr:stedsnr" v="763847" />
	</node>
	<node lat="62.90320555518303" lon="7.257069441638818" id="-4645">
		<tag k="name" v="Røsliløken" />
		<tag k="ssr:stedsnr" v="763851" />
		<tag k="waterway" v="stream" />
	</node>
	<node lat="62.786663892120814" lon="6.992697228545467" id="-4647">
		<tag k="name" v="Storelva" />
		<tag k="ssr:stedsnr" v="764243" />
		<tag k="waterway" v="stream" />
	</node>
	<node lat="62.83523333538209" lon="7.215027780172035" id="-4664">
		<tag k="alt_name" v="Rødalselva" />
		<tag k="name" v="Sylteelva" />
		<tag k="ssr:stedsnr" v="800726" />
		<tag k="waterway" v="river" />
	</node>
	<node lat="62.94207500339702" lon="7.135430561764356" id="-4667">
		<tag k="name" v="Skjentjørna" />
		<tag k="natural" v="water" />
		<tag k="ssr:stedsnr" v="801104" />
	</node>
	<node lat="62.78791944621152" lon="7.2147805508557985" id="-4681">
		<tag k="name" v="Gangskargrova" />
		<tag k="ssr:stedsnr" v="821022" />
		<tag k="waterway" v="stream" />
	</node>
	<node lat="62.945666666798815" lon="7.406649991040921" id="-4692">
		<tag k="name" v="Djupdalsbekken" />
		<tag k="ssr:stedsnr" v="921547" />
		<tag k="waterway" v="stream" />
	</node>
	<node lat="62.97479999889158" lon="7.275736113931229" id="-4697">
		<tag k="name" v="Svelløken" />
		<tag k="ssr:stedsnr" v="824328" />
		<tag k="waterway" v="stream" />
	</node>
	<node lat="62.91642500054564" lon="7.327038885850435" id="-4702">
		<tag k="name" v="Stakkholmen" />
		<tag k="place" v="islet" />
		<tag k="ssr:stedsnr" v="824264" />
	</node>
	<node lat="62.87101388791411" lon="7.322530557564677" id="-4703">
		<tag k="name" v="Setertunga" />
		<tag k="natural" v="cape" />
		<tag k="ssr:stedsnr" v="824274" />
	</node>
	<node lat="62.934541667817435" lon="7.308519446645092" id="-4706">
		<tag k="name" v="Skottenbekken" />
		<tag k="ssr:stedsnr" v="824297" />
		<tag k="waterway" v="stream" />
	</node>
	<node lat="62.892508330449985" lon="7.570369446305492" id="-4712">
		<tag k="name" v="Nybelibekken" />
		<tag k="ssr:stedsnr" v="824425" />
		<tag k="waterway" v="stream" />
	</node>
	<node lat="62.909038884933345" lon="7.57443610533686" id="-4730">
		<tag k="name" v="Galtelva" />
		<tag k="ssr:stedsnr" v="824750" />
		<tag k="waterway" v="river" />
	</node>
	<node lat="62.78106111175285" lon="7.055258328511169" id="-4742">
		<tag k="name" v="Øykjesåsvatnet" />
=======
	<node id="-105753" lat="62.912044448" lon="7.18849722428">
		<tag k="name" v="Holgrova" />
		<tag k="ssr:stedsnr" v="398988" />
		<tag k="waterway" v="stream" />
	</node>
	<node id="-103704" lat="62.9028333351" lon="7.14846389649">
		<tag k="name" v="Herskarvatnet" />
		<tag k="natural" v="water" />
		<tag k="ssr:stedsnr" v="254152" />
	</node>
	<node id="-105749" lat="62.8515333326" lon="7.26993611173">
		<tag k="name" v="Moagrova" />
		<tag k="ssr:stedsnr" v="398949" />
		<tag k="waterway" v="stream" />
	</node>
	<node id="-105738" lat="62.8538638915" lon="7.07974167102">
		<tag k="name" v="Borgarløken" />
		<tag k="ssr:stedsnr" v="398522" />
		<tag k="waterway" v="stream" />
	</node>
	<node id="-103684" lat="62.7985944448" lon="7.2619916635">
		<tag k="name" v="Tverrelva" />
		<tag k="ssr:stedsnr" v="217803" />
		<tag k="waterway" v="stream" />
	</node>
	<node id="-103673" lat="62.9118388893" lon="6.98780276831">
		<tag k="name" v="Vannløken" />
		<tag k="ssr:stedsnr" v="217517" />
		<tag k="waterway" v="stream" />
	</node>
	<node id="-105715" lat="62.8890666696" lon="7.42325000574">
		<tag k="name" v="Gammelkallbekken" />
		<tag k="ssr:stedsnr" v="398310" />
		<tag k="waterway" v="stream" />
	</node>
	<node id="-103663" lat="62.8961388925" lon="7.56957778584">
		<tag k="name" v="Ljøslibekken" />
		<tag k="ssr:stedsnr" v="217402" />
		<tag k="waterway" v="stream" />
	</node>
	<node id="-105710" lat="62.8883805554" lon="7.37419722097">
		<tag k="name" v="Nåsaelva" />
		<tag k="ssr:stedsnr" v="384849" />
		<tag k="waterway" v="river" />
	</node>
	<node id="-105707" lat="62.9719222199" lon="7.26978610214">
		<tag k="fixme" v="multiple name tags, choose one and add the other to alt_name" />
		<tag k="name" v="Gaustadelva;Sandblåstelva" />
		<tag k="ssr:stedsnr" v="376931" />
		<tag k="waterway" v="stream" />
	</node>
	<node id="-103648" lat="62.9803972203" lon="7.29111111401">
		<tag k="name" v="Gaustadvågen" />
		<tag k="natural" v="water" />
		<tag k="ssr:stedsnr" v="194911" />
	</node>
	<node id="-105695" lat="62.9183750035" lon="7.04793055567">
		<tag k="name" v="Merratjørna" />
		<tag k="natural" v="water" />
		<tag k="ssr:stedsnr" v="376095" />
	</node>
	<node id="-103645" lat="62.7939416678" lon="7.06925277826">
		<tag k="name" v="Vasselva" />
		<tag k="ssr:stedsnr" v="194807" />
		<tag k="waterway" v="river" />
	</node>
	<node id="-103641" lat="62.8220249958" lon="7.41414721734">
		<tag k="name" v="Langdalsvatnet" />
>>>>>>> e1d4bc35ff8a6074a6f2e91616a996b547c36f15
		<tag k="natural" v="water" />
		<tag k="ssr:stedsnr" v="921850" />
	</node>
<<<<<<< HEAD
	<node lat="62.781261112074404" lon="7.020116669054285" id="-4743">
		<tag k="alt_name" v="Hundetjønna" />
		<tag k="name" v="Hundediket" />
=======
	<node id="-105678" lat="62.9532222243" lon="7.24575277961">
		<tag k="name" v="Melvatnet" />
>>>>>>> e1d4bc35ff8a6074a6f2e91616a996b547c36f15
		<tag k="natural" v="water" />
		<tag k="ssr:stedsnr" v="921857" />
	</node>
<<<<<<< HEAD
	<node lat="62.96924444616042" lon="7.16641665750059" id="-4745">
		<tag k="name" v="Farstadelva" />
		<tag k="ssr:stedsnr" v="922023" />
		<tag k="waterway" v="stream" />
	</node>
	<node lat="62.88529166312006" lon="7.486244443851423" id="-4756">
		<tag k="alt_name" v="Sorsetelva;Øyelva" />
		<tag k="name" v="Ådalselva" />
		<tag k="ssr:stedsnr" v="922621" />
		<tag k="waterway" v="river" />
	</node>
	<node lat="62.80114166404747" lon="7.337169442764661" id="-4769">
		<tag k="name" v="Skarvatnet" />
		<tag k="natural" v="water" />
		<tag k="ssr:stedsnr" v="923800" />
	</node>
	<node lat="62.89165555713266" lon="7.44578054956168" id="-4779">
		<tag k="name" v="Litlvatnet" />
		<tag k="natural" v="water" />
		<tag k="ssr:stedsnr" v="861575" />
	</node>
	<node lat="62.931875002778696" lon="7.302119449689233" id="-4804">
		<tag k="name" v="Torelielva" />
		<tag k="ssr:stedsnr" v="884212" />
		<tag k="waterway" v="stream" />
	</node>
	<node lat="62.95009722341952" lon="7.270016664818263" id="-4805">
		<tag k="name" v="Støbekken" />
		<tag k="ssr:stedsnr" v="884213" />
		<tag k="waterway" v="stream" />
	</node>
	<node lat="62.94249722674212" lon="7.276750000188725" id="-4806">
		<tag k="name" v="Fosslibekken" />
		<tag k="ssr:stedsnr" v="884214" />
		<tag k="waterway" v="stream" />
	</node>
	<node lat="62.95359999591411" lon="7.27936110438215" id="-4807">
		<tag k="name" v="Sandbukta" />
		<tag k="natural" v="bay" />
		<tag k="ssr:stedsnr" v="884215" />
	</node>
	<node lat="62.90810833074792" lon="7.4089888873090715" id="-4819">
		<tag k="name" v="Hyllberget" />
		<tag k="natural" v="cape" />
		<tag k="ssr:stedsnr" v="884298" />
	</node>
	<node lat="62.91003055551488" lon="7.056150000427772" id="-4824">
		<tag k="alt_name" v="Rambjørgtjønna" />
		<tag k="name" v="Rambjørtjønna" />
		<tag k="natural" v="water" />
		<tag k="ssr:stedsnr" v="884464" />
	</node>
	<node lat="62.97924999698525" lon="7.237166664019923" id="-4834">
		<tag k="name" v="Løkane" />
		<tag k="ssr:stedsnr" v="884923" />
		<tag k="waterway" v="stream" />
	</node>
	<node lat="62.989705556196924" lon="7.169536110204503" id="-4836">
		<tag k="name" v="Teppinga" />
=======
	<node id="-105673" lat="62.9009083342" lon="7.41807499655">
		<tag k="alt_name" v="Vågsbøelva" />
		<tag k="name" v="Sagelva" />
		<tag k="ssr:stedsnr" v="375593" />
		<tag k="waterway" v="stream" />
	</node>
	<node id="-105671" lat="62.934452774" lon="7.38767499711">
		<tag k="name" v="Storvisnesvatnet" />
		<tag k="natural" v="water" />
		<tag k="ssr:stedsnr" v="375462" />
	</node>
	<node id="-103603" lat="62.9377555537" lon="7.36250276969">
		<tag k="name" v="Orneset" />
		<tag k="natural" v="cape" />
		<tag k="ssr:stedsnr" v="278501" />
	</node>
	<node id="-103598" lat="62.8871361144" lon="7.53892778199">
		<tag k="name" v="Litlbuelva" />
		<tag k="ssr:stedsnr" v="278456" />
		<tag k="waterway" v="stream" />
	</node>
	<node id="-103597" lat="62.897391668" lon="7.55991666663">
		<tag k="name" v="Ljøslibekken" />
		<tag k="ssr:stedsnr" v="278438" />
		<tag k="waterway" v="stream" />
	</node>
	<node id="-103595" lat="62.9106722242" lon="7.38843889749">
		<tag k="name" v="Storløken" />
		<tag k="ssr:stedsnr" v="278426" />
		<tag k="waterway" v="stream" />
	</node>
	<node id="-105641" lat="62.8498027739" lon="7.19845833339">
		<tag k="name" v="Løken" />
		<tag k="ssr:stedsnr" v="338993" />
		<tag k="waterway" v="stream" />
	</node>
	<node id="-105640" lat="62.8782638868" lon="7.19357500101">
		<tag k="name" v="Nyfonna" />
		<tag k="ssr:stedsnr" v="338985" />
		<tag k="waterway" v="stream" />
	</node>
	<node id="-103583" lat="62.9162083341" lon="7.19600555063">
		<tag k="name" v="Demmå" />
		<tag k="ssr:stedsnr" v="277994" />
		<tag k="waterway" v="dam" />
	</node>
	<node id="-106693" lat="62.9107777792" lon="7.33641388257">
		<tag k="name" v="Sandneset" />
		<tag k="natural" v="cape" />
		<tag k="ssr:stedsnr" v="861552" />
	</node>
	<node id="-105625" lat="62.8221750017" lon="7.37298055971">
		<tag k="name" v="Gjengkleivelva" />
		<tag k="ssr:stedsnr" v="338751" />
		<tag k="waterway" v="river" />
	</node>
	<node id="-105624" lat="62.8212583297" lon="7.32700555943">
		<tag k="alt_name" v="Dyrdalsgrova" />
		<tag k="name" v="Dyrdalselva" />
		<tag k="ssr:stedsnr" v="338750" />
		<tag k="waterway" v="stream" />
	</node>
	<node id="-105623" lat="62.8062722253" lon="7.26816110382">
		<tag k="name" v="Øvre Klompvatnet" />
>>>>>>> e1d4bc35ff8a6074a6f2e91616a996b547c36f15
		<tag k="natural" v="water" />
		<tag k="ssr:stedsnr" v="884956" />
	</node>
<<<<<<< HEAD
	<node lat="62.89109999956892" lon="7.54719721759312" id="-4849">
		<tag k="name" v="Litlbuelva" />
		<tag k="ssr:stedsnr" v="885399" />
		<tag k="waterway" v="stream" />
	</node>
	<node lat="62.90716125436405" lon="7.593455118651892" id="-4863">
		<tag k="name" v="Galtvatnet" />
		<tag k="natural" v="water" />
		<tag k="ssr:stedsnr" v="921603" />
	</node>
	<node lat="62.89238333257564" lon="7.433463890331148" id="-4888">
		<tag k="name" v="Langnesløken" />
		<tag k="ssr:stedsnr" v="944399" />
		<tag k="waterway" v="stream" />
	</node>
	<node lat="62.84578333063192" lon="7.177691666457487" id="-4889">
		<tag k="name" v="Keilagrova" />
		<tag k="ssr:stedsnr" v="944585" />
		<tag k="waterway" v="stream" />
	</node>
	<node lat="62.92489722158471" lon="7.321455555452433" id="-4899">
		<tag k="name" v="Torelielva" />
		<tag k="ssr:stedsnr" v="945211" />
		<tag k="waterway" v="stream" />
	</node>
	<node lat="62.80432499739336" lon="7.354352772657561" id="-4915">
		<tag k="name" v="Tareslettgrova" />
		<tag k="ssr:stedsnr" v="945732" />
		<tag k="waterway" v="stream" />
	</node>
	<node lat="62.84224166452001" lon="7.037444441782428" id="-4924">
		<tag k="name" v="Løken" />
		<tag k="ssr:stedsnr" v="945930" />
		<tag k="waterway" v="stream" />
	</node>
	<node lat="62.931358613932744" lon="6.986567508734153" id="-4926">
		<tag k="name" v="Løken" />
		<tag k="ssr:stedsnr" v="945938" />
		<tag k="waterway" v="stream" />
	</node>
	<node lat="62.97269166925526" lon="7.158733327291806" id="-4928">
		<tag k="name" v="Vomma" />
=======
	<node id="-105615" lat="62.9220055527" lon="7.44314722567">
		<tag k="name" v="Eidselva" />
		<tag k="ssr:stedsnr" v="338696" />
		<tag k="waterway" v="stream" />
	</node>
	<node id="-103566" lat="62.8764944468" lon="7.30571111899">
		<tag k="name" v="Bendikhølen" />
		<tag k="place" v="locality" />
		<tag k="ssr:stedsnr" v="277870" />
	</node>
	<node id="-106349" lat="62.8509944402" lon="7.24305277764">
		<tag k="name" v="Husmannshølen" />
		<tag k="place" v="locality" />
		<tag k="ssr:stedsnr" v="641779" />
	</node>
	<node id="-105607" lat="62.8776888859" lon="7.18896665723">
		<tag k="name" v="Nonastølbekken" />
		<tag k="ssr:stedsnr" v="338650" />
		<tag k="waterway" v="stream" />
	</node>
	<node id="-105597" lat="62.8141194449" lon="7.11295556316">
		<tag k="name" v="Strandsgrova" />
		<tag k="ssr:stedsnr" v="338538" />
		<tag k="waterway" v="stream" />
	</node>
	<node id="-103536" lat="62.8001222219" lon="7.02231944935">
		<tag k="name" v="Bytingsgrova" />
		<tag k="ssr:stedsnr" v="277400" />
		<tag k="waterway" v="stream" />
	</node>
	<node id="-105576" lat="62.7700527746" lon="7.03623056512">
		<tag k="name" v="Skoppedalstjønna" />
		<tag k="natural" v="water" />
		<tag k="ssr:stedsnr" v="338367" />
	</node>
	<node id="-105575" lat="62.7880111087" lon="7.00883889619">
		<tag k="name" v="Svenskeløken" />
		<tag k="ssr:stedsnr" v="338361" />
		<tag k="waterway" v="stream" />
	</node>
	<node id="-105574" lat="62.7902388882" lon="7.03152778655">
		<tag k="name" v="Svenskeløken" />
		<tag k="ssr:stedsnr" v="338359" />
		<tag k="waterway" v="stream" />
	</node>
	<node id="-105572" lat="62.9180416692" lon="7.32723610575">
		<tag k="name" v="Åsaneset" />
>>>>>>> e1d4bc35ff8a6074a6f2e91616a996b547c36f15
		<tag k="natural" v="cape" />
		<tag k="ssr:stedsnr" v="945982" />
	</node>
<<<<<<< HEAD
	<node lat="62.895143565664625" lon="6.829225014495707" id="-4953">
		<tag k="name" v="Nørdstebarden" />
		<tag k="place" v="islet" />
		<tag k="ssr:stedsnr" v="990452" />
	</node>
	<node lat="62.89493811375844" lon="6.826217624073796" id="-4954">
		<tag k="name" v="Midtibarden" />
		<tag k="place" v="islet" />
		<tag k="ssr:stedsnr" v="990453" />
	</node>
	<node lat="62.89507684313591" lon="6.824895359390503" id="-4955">
		<tag k="name" v="Storbarden" />
		<tag k="place" v="islet" />
		<tag k="ssr:stedsnr" v="990454" />
	</node>
	<node lat="62.89423247787629" lon="6.825173810572617" id="-4957">
		<tag k="name" v="Notaholmen" />
		<tag k="place" v="islet" />
		<tag k="ssr:stedsnr" v="990457" />
	</node>
	<node lat="62.893188560260754" lon="6.8238146773506845" id="-4959">
		<tag k="name" v="Rundholmen" />
		<tag k="place" v="islet" />
		<tag k="ssr:stedsnr" v="990459" />
	</node>
	<node lat="62.753813889595776" lon="7.056191667701898" id="-4967">
		<tag k="name" v="Trolltjørna" />
=======
	<node id="-104294" lat="62.875899999" lon="7.3757083388">
		<tag k="alt_name" v="Lomtjønna" />
		<tag k="name" v="Lomtjørna" />
		<tag k="natural" v="water" />
		<tag k="ssr:stedsnr" v="618635" />
	</node>
	<node id="-105570" lat="62.8803944488" lon="7.51312499252">
		<tag k="name" v="Botnlaustjønna" />
>>>>>>> e1d4bc35ff8a6074a6f2e91616a996b547c36f15
		<tag k="natural" v="water" />
		<tag k="ssr:stedsnr" v="12886" />
	</node>
<<<<<<< HEAD
	<node lat="62.888888889467964" lon="7.438061112096345" id="-5014">
		<tag k="name" v="Langneset" />
		<tag k="natural" v="cape" />
		<tag k="ssr:stedsnr" v="34313" />
	</node>
	<node lat="62.93236389312924" lon="7.4003388887340344" id="-5015">
		<tag k="name" v="Litlvisnesvatnet" />
=======
	<node id="-104293" lat="62.8816777752" lon="7.2850750004">
		<tag k="name" v="Kvitåa" />
		<tag k="ssr:stedsnr" v="618627" />
		<tag k="waterway" v="stream" />
	</node>
	<node id="-103516" lat="62.9565055581" lon="7.31533611035">
		<tag k="name" v="Botnlaustjønna" />
>>>>>>> e1d4bc35ff8a6074a6f2e91616a996b547c36f15
		<tag k="natural" v="water" />
		<tag k="ssr:stedsnr" v="34319" />
	</node>
<<<<<<< HEAD
	<node lat="62.93746944603268" lon="7.406922229329886" id="-5016">
		<tag k="name" v="Djupåbekken" />
		<tag k="ssr:stedsnr" v="34322" />
		<tag k="waterway" v="stream" />
	</node>
	<node lat="62.93478889322852" lon="7.040891671908891" id="-5025">
		<tag k="name" v="Marittjønna" />
=======
	<node id="-106682" lat="62.8614638873" lon="7.12083888427">
		<tag k="name" v="Litlevatnet" />
		<tag k="natural" v="water" />
		<tag k="ssr:stedsnr" v="861220" />
	</node>
	<node id="-103513" lat="62.9241499966" lon="7.37203334299">
		<tag k="name" v="Dyrhaugbekken" />
		<tag k="ssr:stedsnr" v="277220" />
		<tag k="waterway" v="stream" />
	</node>
	<node id="-103509" lat="62.8806055592" lon="7.35494999914">
		<tag k="name" v="Lomtjønna" />
>>>>>>> e1d4bc35ff8a6074a6f2e91616a996b547c36f15
		<tag k="natural" v="water" />
		<tag k="ssr:stedsnr" v="34442" />
	</node>
<<<<<<< HEAD
	<node lat="62.93454166491515" lon="7.364861104872276" id="-5038">
		<tag k="name" v="Grønneselva" />
		<tag k="ssr:stedsnr" v="35314" />
		<tag k="waterway" v="stream" />
	</node>
	<node lat="62.96939444041761" lon="7.327577779417699" id="-5040">
		<tag k="name" v="Sandvikbekken" />
		<tag k="ssr:stedsnr" v="35325" />
		<tag k="waterway" v="stream" />
	</node>
	<node lat="62.90192222433679" lon="7.379197229294943" id="-5045">
		<tag k="name" v="Bukkneset" />
		<tag k="natural" v="cape" />
		<tag k="ssr:stedsnr" v="35429" />
	</node>
	<node lat="62.90336666467581" lon="7.432222217271898" id="-5046">
		<tag k="name" v="Einaneset" />
		<tag k="natural" v="cape" />
		<tag k="ssr:stedsnr" v="35434" />
	</node>
	<node lat="62.907527775795515" lon="7.060819452579927" id="-5055">
		<tag k="name" v="Myrsteintjønnin" />
		<tag k="natural" v="water" />
		<tag k="ssr:stedsnr" v="35682" />
	</node>
	<node lat="62.847622223470935" lon="7.348786107279796" id="-5057">
		<tag k="name" v="Nyfonngrova" />
		<tag k="ssr:stedsnr" v="35865" />
		<tag k="waterway" v="stream" />
	</node>
	<node lat="62.85135277669038" lon="7.290500009341229" id="-5058">
		<tag k="name" v="Måtbakkgrova" />
		<tag k="ssr:stedsnr" v="35868" />
		<tag k="waterway" v="stream" />
	</node>
	<node lat="62.84418055909215" lon="7.37086110679796" id="-5059">
		<tag k="name" v="Bolkevatna" />
		<tag k="natural" v="water" />
		<tag k="ssr:stedsnr" v="35869" />
	</node>
	<node lat="62.85446388478142" lon="7.301263887307993" id="-5060">
		<tag k="name" v="Botnagrova" />
		<tag k="ssr:stedsnr" v="35873" />
		<tag k="waterway" v="stream" />
	</node>
	<node lat="62.915550000142034" lon="7.594608323790975" id="-5077">
		<tag k="name" v="Fossan" />
		<tag k="natural" v="waterfall" />
		<tag k="ssr:stedsnr" v="35737" />
	</node>
	<node lat="62.907433334151335" lon="7.561383336590867" id="-5079">
		<tag k="name" v="Golielva" />
		<tag k="ssr:stedsnr" v="35740" />
		<tag k="waterway" v="stream" />
	</node>
	<node lat="62.82790833550128" lon="7.429186104273756" id="-5084">
		<tag k="name" v="Langvassosen" />
		<tag k="natural" v="bay" />
		<tag k="ssr:stedsnr" v="35842" />
	</node>
	<node lat="62.801924995923095" lon="7.313902778785015" id="-5088">
		<tag k="name" v="Sagelva" />
		<tag k="ssr:stedsnr" v="35970" />
		<tag k="waterway" v="river" />
	</node>
	<node lat="62.79848889005661" lon="7.160824993946878" id="-5109">
		<tag k="alt_name" v="Holselva" />
		<tag k="name" v="Storelva" />
		<tag k="ssr:stedsnr" v="72787" />
		<tag k="waterway" v="stream" />
	</node>
	<node lat="62.79215841610676" lon="7.163495351492852" id="-5110">
		<tag k="alt_name" v="Gjerdgrova" />
		<tag k="name" v="Litleelva" />
		<tag k="ssr:stedsnr" v="72791" />
		<tag k="waterway" v="stream" />
	</node>
	<node lat="62.88528333289474" lon="7.017888891673831" id="-5114">
		<tag k="name" v="Stavikelva" />
		<tag k="ssr:stedsnr" v="72141" />
		<tag k="waterway" v="river" />
	</node>
	<node lat="62.804988893317756" lon="7.378205562212066" id="-5140">
		<tag k="name" v="Kringla" />
=======
	<node id="-105556" lat="62.9753833354" lon="7.30673610528">
		<tag k="name" v="Storvikløken" />
		<tag k="ssr:stedsnr" v="338237" />
		<tag k="waterway" v="stream" />
	</node>
	<node id="-105554" lat="62.9595888884" lon="7.33491110595">
		<tag k="name" v="Skiftingdalsbekken" />
		<tag k="ssr:stedsnr" v="338221" />
		<tag k="waterway" v="stream" />
	</node>
	<node id="-105553" lat="62.9573194445" lon="7.29955832613">
		<tag k="name" v="Seterbekken" />
		<tag k="ssr:stedsnr" v="338214" />
		<tag k="waterway" v="stream" />
	</node>
	<node id="-103501" lat="62.9165166696" lon="6.99098332744">
		<tag k="name" v="Dyrskarløken" />
		<tag k="ssr:stedsnr" v="134115" />
		<tag k="waterway" v="stream" />
	</node>
	<node id="-105546" lat="62.884552779" lon="7.07375832635">
		<tag k="name" v="Herdalselva" />
		<tag k="ssr:stedsnr" v="337664" />
		<tag k="waterway" v="stream" />
	</node>
	<node id="-105544" lat="62.9567194423" lon="7.27676110836">
		<tag k="name" v="Sandsbekken" />
		<tag k="ssr:stedsnr" v="338212" />
		<tag k="waterway" v="stream" />
	</node>
	<node id="-105543" lat="62.913230557" lon="7.3284527767">
		<tag k="name" v="Heimstadløken" />
		<tag k="ssr:stedsnr" v="338206" />
		<tag k="waterway" v="stream" />
	</node>
	<node id="-105542" lat="62.8755666694" lon="7.35428055581">
		<tag k="name" v="Nonslibekken" />
		<tag k="ssr:stedsnr" v="338191" />
		<tag k="waterway" v="stream" />
	</node>
	<node id="-105538" lat="62.8914499971" lon="7.42647499795">
		<tag k="name" v="Mjølkstøl-løken" />
		<tag k="ssr:stedsnr" v="337362" />
		<tag k="waterway" v="stream" />
	</node>
	<node id="-103487" lat="62.791861113" lon="7.09780277071">
		<tag k="name" v="Ole-Ivertjørna" />
>>>>>>> e1d4bc35ff8a6074a6f2e91616a996b547c36f15
		<tag k="natural" v="water" />
		<tag k="ssr:stedsnr" v="73784" />
	</node>
<<<<<<< HEAD
	<node lat="62.91472500192236" lon="7.291077772808671" id="-5142">
		<tag k="name" v="Oselva" />
		<tag k="ssr:stedsnr" v="73837" />
		<tag k="waterway" v="river" />
	</node>
	<node lat="62.97753333648907" lon="7.284369443974488" id="-5162">
		<tag k="name" v="Svortløken" />
		<tag k="ssr:stedsnr" v="95249" />
		<tag k="waterway" v="stream" />
	</node>
	<node lat="62.90179166805568" lon="7.373774992664765" id="-5165">
		<tag k="name" v="Reitabuneset" />
		<tag k="natural" v="cape" />
		<tag k="ssr:stedsnr" v="95190" />
	</node>
	<node lat="62.87184722223085" lon="7.357300007309804" id="-5166">
		<tag k="name" v="Trolldalselva" />
		<tag k="ssr:stedsnr" v="95200" />
		<tag k="waterway" v="river" />
	</node>
	<node lat="62.881363891936196" lon="7.474983334919951" id="-5168">
		<tag k="name" v="Bjønndalsbekken" />
		<tag k="ssr:stedsnr" v="95266" />
		<tag k="waterway" v="stream" />
	</node>
	<node lat="62.95827777764385" lon="7.380208328827624" id="-5174">
		<tag k="name" v="Finnbekken" />
		<tag k="ssr:stedsnr" v="95297" />
		<tag k="waterway" v="stream" />
	</node>
	<node lat="62.92731111023769" lon="6.972697221853832" id="-5184">
		<tag k="name" v="Kvennagrova" />
		<tag k="ssr:stedsnr" v="95433" />
		<tag k="waterway" v="stream" />
	</node>
	<node lat="62.92592777731159" lon="7.214352785445053" id="-5191">
		<tag k="name" v="Vassengelva" />
		<tag k="ssr:stedsnr" v="95641" />
		<tag k="waterway" v="stream" />
	</node>
	<node lat="62.910983336848325" lon="7.19236110759106" id="-5193">
		<tag k="name" v="Kvennhauggrova" />
		<tag k="ssr:stedsnr" v="95649" />
		<tag k="waterway" v="stream" />
	</node>
	<node lat="62.833955556185266" lon="7.198905561557928" id="-5195">
=======
	<node id="-103484" lat="62.89220833" lon="7.03536388831">
		<tag k="name" v="Langvatnet" />
		<tag k="natural" v="water" />
		<tag k="ssr:stedsnr" v="132148" />
	</node>
	<node id="-103481" lat="62.880997225" lon="7.15096110641">
		<tag k="name" v="Langvatnet" />
		<tag k="natural" v="water" />
		<tag k="ssr:stedsnr" v="132132" />
		<tag k="water" v="lake" />
	</node>
	<node id="-105524" lat="62.874066669" lon="7.47093610899">
		<tag k="name" v="Tussfossen" />
		<tag k="natural" v="waterfall" />
		<tag k="ssr:stedsnr" v="315601" />
	</node>
	<node id="-105521" lat="62.8883972262" lon="7.30262500332">
		<tag k="name" v="Kvitåvatna" />
		<tag k="natural" v="water" />
		<tag k="ssr:stedsnr" v="315583" />
	</node>
	<node id="-105520" lat="62.8859444413" lon="7.56941110526">
		<tag k="alt_name" v="Skreelva" />
		<tag k="name" v="Skredbekken" />
		<tag k="ssr:stedsnr" v="315642" />
		<tag k="waterway" v="stream" />
	</node>
	<node id="-103469" lat="62.8331472262" lon="7.34620000328">
		<tag k="name" v="Gjengkleivvatnet" />
		<tag k="natural" v="water" />
		<tag k="ssr:stedsnr" v="255726" />
	</node>
	<node id="-105513" lat="62.9446250029" lon="7.27520278325">
		<tag k="name" v="Gådalstjørna" />
		<tag k="natural" v="water" />
		<tag k="ssr:stedsnr" v="314985" />
	</node>
	<node id="-103462" lat="62.9043527809" lon="7.57820555716">
		<tag k="name" v="Midtdalslielva" />
		<tag k="ssr:stedsnr" v="96422" />
		<tag k="waterway" v="stream" />
	</node>
	<node id="-105508" lat="62.8707222257" lon="7.13043056368">
		<tag k="name" v="Skjellbreia" />
		<tag k="natural" v="water" />
		<tag k="ssr:stedsnr" v="315130" />
		<tag k="water" v="lake" />
	</node>
	<node id="-103452" lat="62.9099916679" lon="7.25631389558">
		<tag k="name" v="Kvennelva" />
		<tag k="ssr:stedsnr" v="95871" />
		<tag k="waterway" v="stream" />
	</node>
	<node id="-103430" lat="62.8339555562" lon="7.19890556156">
>>>>>>> e1d4bc35ff8a6074a6f2e91616a996b547c36f15
		<tag k="name" v="Sylteosen" />
		<tag k="natural" v="bay" />
		<tag k="ssr:stedsnr" v="95658" />
	</node>
<<<<<<< HEAD
	<node lat="62.97618888486493" lon="7.208283327626727" id="-5198">
		<tag k="name" v="Salbakkelva" />
		<tag k="ssr:stedsnr" v="95751" />
		<tag k="waterway" v="stream" />
	</node>
	<node lat="62.95843333084277" lon="7.156455546484107" id="-5210">
		<tag k="name" v="Stjerntjønna" />
=======
	<node id="-106637" lat="62.89888056" lon="7.09419444341">
		<tag k="name" v="Botnaelva" />
		<tag k="ssr:stedsnr" v="824639" />
		<tag k="waterway" v="stream" />
	</node>
	<node id="-105472" lat="62.8789083302" lon="7.50897222397">
		<tag k="name" v="Trolldalselva" />
		<tag k="ssr:stedsnr" v="194610" />
		<tag k="waterway" v="stream" />
	</node>
	<node id="-105463" lat="62.9409055566" lon="7.30381944627">
		<tag k="name" v="Vargtjørna" />
		<tag k="natural" v="water" />
		<tag k="ssr:stedsnr" v="193992" />
	</node>
	<node id="-103409" lat="62.7850166691" lon="7.04211666796">
		<tag k="name" v="Hagåstjørna" />
>>>>>>> e1d4bc35ff8a6074a6f2e91616a996b547c36f15
		<tag k="natural" v="water" />
		<tag k="ssr:stedsnr" v="95700" />
	</node>
<<<<<<< HEAD
	<node lat="62.904352780937586" lon="7.578205557160088" id="-5225">
		<tag k="name" v="Midtdalslielva" />
		<tag k="ssr:stedsnr" v="96422" />
		<tag k="waterway" v="stream" />
	</node>
	<node lat="62.880997225007484" lon="7.150961106411342" id="-5241">
		<tag k="name" v="Langvatnet" />
		<tag k="natural" v="water" />
		<tag k="ssr:stedsnr" v="132132" />
		<tag k="water" v="lake" />
	</node>
	<node lat="62.892208330009375" lon="7.035363888306195" id="-5244">
		<tag k="name" v="Langvatnet" />
=======
	<node id="-103407" lat="62.7902527819" lon="7.13602499347">
		<tag k="alt_name" v="Seterelva" />
		<tag k="name" v="Damgrova" />
		<tag k="ssr:stedsnr" v="254797" />
		<tag k="waterway" v="stream" />
	</node>
	<node id="-105454" lat="62.8542277803" lon="7.2469444446">
		<tag k="name" v="Moaelva" />
		<tag k="ssr:stedsnr" v="193661" />
		<tag k="waterway" v="river" />
	</node>
	<node id="-103404" lat="62.8890527784" lon="7.26204166883">
		<tag k="name" v="Trolldalsvatna" />
>>>>>>> e1d4bc35ff8a6074a6f2e91616a996b547c36f15
		<tag k="natural" v="water" />
		<tag k="ssr:stedsnr" v="132148" />
	</node>
<<<<<<< HEAD
	<node lat="62.90444721868164" lon="7.376255558369819" id="-5248">
		<tag k="name" v="Nåsavatnet" />
=======
	<node id="-103386" lat="62.8097749956" lon="7.38700555773">
		<tag k="name" v="Gunnilla" />
>>>>>>> e1d4bc35ff8a6074a6f2e91616a996b547c36f15
		<tag k="natural" v="water" />
		<tag k="ssr:stedsnr" v="132592" />
		<tag k="water" v="lake" />
	</node>
<<<<<<< HEAD
	<node lat="62.90221111162716" lon="7.586566665290397" id="-5250">
		<tag k="name" v="Gaupsetdemma" />
		<tag k="place" v="locality" />
		<tag k="ssr:stedsnr" v="132628" />
	</node>
	<node lat="62.79186111298663" lon="7.097802770713704" id="-5253">
		<tag k="name" v="Ole-Ivertjørna" />
		<tag k="natural" v="water" />
		<tag k="ssr:stedsnr" v="132831" />
	</node>
	<node lat="62.869327774583326" lon="7.321205549735733" id="-5265">
		<tag k="name" v="Bjørndalsbekken" />
		<tag k="ssr:stedsnr" v="133617" />
		<tag k="waterway" v="stream" />
	</node>
	<node lat="62.77075277941867" lon="7.1326527829350725" id="-5273">
		<tag k="name" v="Løvenskartjørna" />
=======
	<node id="-103370" lat="62.9392888893" lon="7.31650833299">
		<tag k="name" v="Maskindammen" />
		<tag k="natural" v="water" />
		<tag k="ssr:stedsnr" v="38870" />
	</node>
	<node id="-105414" lat="62.8381888846" lon="7.33975277743">
		<tag k="name" v="Gjengkleivgrova" />
		<tag k="ssr:stedsnr" v="156845" />
		<tag k="waterway" v="stream" />
	</node>
	<node id="-105412" lat="62.975425002" lon="7.26156665881">
		<tag k="name" v="Bjønndalselva" />
		<tag k="ssr:stedsnr" v="156819" />
		<tag k="waterway" v="stream" />
	</node>
	<node id="-103363" lat="62.9033666647" lon="7.43222221727">
		<tag k="name" v="Einaneset" />
		<tag k="natural" v="cape" />
		<tag k="ssr:stedsnr" v="35434" />
	</node>
	<node id="-103362" lat="62.9019222243" lon="7.37919722929">
		<tag k="name" v="Bukkneset" />
		<tag k="natural" v="cape" />
		<tag k="ssr:stedsnr" v="35429" />
	</node>
	<node id="-105408" lat="62.9577222216" lon="7.2422694358">
		<tag k="name" v="Litlmælvatnet" />
>>>>>>> e1d4bc35ff8a6074a6f2e91616a996b547c36f15
		<tag k="natural" v="water" />
		<tag k="ssr:stedsnr" v="133854" />
	</node>
<<<<<<< HEAD
	<node lat="62.94911388721492" lon="7.355150009556637" id="-5298">
		<tag k="name" v="Seterløken" />
		<tag k="ssr:stedsnr" v="156238" />
		<tag k="waterway" v="stream" />
	</node>
	<node lat="62.90672222541016" lon="7.411316657945497" id="-5300">
		<tag k="name" v="Tømmerbukta" />
		<tag k="natural" v="bay" />
		<tag k="ssr:stedsnr" v="156321" />
	</node>
	<node lat="62.79348611446776" lon="7.091494434668333" id="-5316">
		<tag k="name" v="Skiftingsgrova" />
		<tag k="ssr:stedsnr" v="156591" />
		<tag k="waterway" v="stream" />
	</node>
	<node lat="62.908733337741886" lon="7.178186102383501" id="-5317">
=======
	<node id="-105405" lat="62.9220861134" lon="7.23542499064">
		<tag k="name" v="Skogaelva" />
		<tag k="ssr:stedsnr" v="156734" />
		<tag k="waterway" v="stream" />
	</node>
	<node id="-105403" lat="62.9189499974" lon="7.22108055212">
		<tag k="name" v="Svartløken" />
		<tag k="ssr:stedsnr" v="156727" />
		<tag k="waterway" v="stream" />
	</node>
	<node id="-105387" lat="62.9087333377" lon="7.17818610238">
>>>>>>> e1d4bc35ff8a6074a6f2e91616a996b547c36f15
		<tag k="name" v="Kvernhusgrova" />
		<tag k="ssr:stedsnr" v="156619" />
		<tag k="waterway" v="stream" />
	</node>
<<<<<<< HEAD
	<node lat="62.91894999738173" lon="7.221080552123656" id="-5334">
		<tag k="name" v="Svartløken" />
		<tag k="ssr:stedsnr" v="156727" />
		<tag k="waterway" v="stream" />
	</node>
	<node lat="62.92208611336726" lon="7.235424990639077" id="-5336">
		<tag k="name" v="Skogaelva" />
		<tag k="ssr:stedsnr" v="156734" />
		<tag k="waterway" v="stream" />
	</node>
	<node lat="62.83818888462422" lon="7.339752777429129" id="-5339">
		<tag k="name" v="Gjengkleivgrova" />
		<tag k="ssr:stedsnr" v="156845" />
		<tag k="waterway" v="stream" />
	</node>
	<node lat="62.85422778026112" lon="7.246944444597605" id="-5388">
		<tag k="name" v="Moaelva" />
		<tag k="ssr:stedsnr" v="193661" />
		<tag k="waterway" v="river" />
	</node>
	<node lat="62.940905556646236" lon="7.303819446268277" id="-5391">
		<tag k="name" v="Vargtjørna" />
		<tag k="natural" v="water" />
		<tag k="ssr:stedsnr" v="193992" />
	</node>
	<node lat="62.8789083302145" lon="7.508972223968879" id="-5410">
		<tag k="name" v="Trolldalselva" />
		<tag k="ssr:stedsnr" v="194610" />
		<tag k="waterway" v="stream" />
	</node>
	<node lat="62.82202499580687" lon="7.414147217336333" id="-5415">
		<tag k="name" v="Langdalsvatnet" />
		<tag k="natural" v="water" />
		<tag k="ssr:stedsnr" v="194710" />
	</node>
	<node lat="62.793941667845644" lon="7.069252778262154" id="-5419">
		<tag k="name" v="Vasselva" />
		<tag k="ssr:stedsnr" v="194807" />
		<tag k="waterway" v="river" />
	</node>
	<node lat="62.9803972202739" lon="7.2911111140102545" id="-5423">
		<tag k="name" v="Gaustadvågen" />
		<tag k="natural" v="water" />
		<tag k="ssr:stedsnr" v="194911" />
	</node>
	<node lat="62.91183888932213" lon="6.987802768309271" id="-5438">
		<tag k="name" v="Vannløken" />
		<tag k="ssr:stedsnr" v="217517" />
		<tag k="waterway" v="stream" />
	</node>
	<node lat="62.942263885670684" lon="7.26090000685995" id="-5449">
		<tag k="name" v="Gådalsbekken" />
		<tag k="ssr:stedsnr" v="217259" />
		<tag k="waterway" v="stream" />
	</node>
	<node lat="62.89776666398878" lon="7.4453805490036435" id="-5450">
		<tag k="alt_name" v="Svanvikelva" />
		<tag k="name" v="Einsetelva" />
		<tag k="ssr:stedsnr" v="217334" />
		<tag k="waterway" v="river" />
	</node>
	<node lat="62.901961108553934" lon="7.38608054810493" id="-5452">
		<tag k="name" v="Fiskarneset" />
		<tag k="natural" v="cape" />
		<tag k="ssr:stedsnr" v="217345" />
	</node>
	<node lat="62.91019999742466" lon="7.4119888796737685" id="-5456">
		<tag k="name" v="Hyll-løken" />
		<tag k="ssr:stedsnr" v="217371" />
		<tag k="waterway" v="stream" />
	</node>
	<node lat="62.876749996140376" lon="7.406872218731812" id="-5459">
		<tag k="name" v="Olløken" />
		<tag k="ssr:stedsnr" v="217443" />
		<tag k="waterway" v="stream" />
	</node>
	<node lat="62.880244447583934" lon="7.464227773191162" id="-5462">
		<tag k="name" v="Tusselva" />
		<tag k="ssr:stedsnr" v="217454" />
		<tag k="waterway" v="river" />
	</node>
	<node lat="62.986347220630265" lon="7.244613895970157" id="-5486">
		<tag k="name" v="Røstløken" />
		<tag k="ssr:stedsnr" v="217753" />
		<tag k="waterway" v="stream" />
	</node>
	<node lat="62.85099999577655" lon="7.247747217529288" id="-5493">
		<tag k="name" v="Moagrova" />
		<tag k="ssr:stedsnr" v="217949" />
		<tag k="waterway" v="stream" />
	</node>
	<node lat="62.76985278049405" lon="7.083416660924307" id="-5496">
		<tag k="name" v="Åndalselva" />
		<tag k="ssr:stedsnr" v="274851" />
		<tag k="waterway" v="river" />
	</node>
	<node lat="62.910672224170064" lon="7.3884388974862105" id="-5504">
		<tag k="name" v="Storløken" />
		<tag k="ssr:stedsnr" v="278426" />
		<tag k="waterway" v="stream" />
	</node>
	<node lat="62.8973916679772" lon="7.559916666625411" id="-5506">
		<tag k="name" v="Ljøslibekken" />
		<tag k="ssr:stedsnr" v="278438" />
		<tag k="waterway" v="stream" />
	</node>
	<node lat="62.887136114402765" lon="7.538927781989248" id="-5507">
		<tag k="name" v="Litlbuelva" />
		<tag k="ssr:stedsnr" v="278456" />
		<tag k="waterway" v="stream" />
	</node>
	<node lat="62.80012222189689" lon="7.022319449352783" id="-5521">
		<tag k="name" v="Bytingsgrova" />
		<tag k="ssr:stedsnr" v="277400" />
		<tag k="waterway" v="stream" />
	</node>
	<node lat="62.90829722459187" lon="6.965786109317278" id="-5529">
		<tag k="name" v="Fjøstjønna" />
		<tag k="natural" v="water" />
		<tag k="ssr:stedsnr" v="277352" />
	</node>
	<node lat="62.91620833414293" lon="7.196005550634225" id="-5555">
		<tag k="name" v="Demmå" />
		<tag k="ssr:stedsnr" v="277994" />
		<tag k="waterway" v="dam" />
	</node>
	<node lat="62.931283329802824" lon="7.234458337433588" id="-5559">
=======
	<node id="-105386" lat="62.7934861145" lon="7.09149443467">
		<tag k="name" v="Skiftingsgrova" />
		<tag k="ssr:stedsnr" v="156591" />
		<tag k="waterway" v="stream" />
	</node>
	<node id="-103334" lat="62.8509999958" lon="7.24774721753">
		<tag k="name" v="Moagrova" />
		<tag k="ssr:stedsnr" v="217949" />
		<tag k="waterway" v="stream" />
	</node>
	<node id="-105380" lat="62.9328444484" lon="7.00351111838">
		<tag k="name" v="Kvennagrova" />
		<tag k="ssr:stedsnr" v="156483" />
		<tag k="waterway" v="stream" />
	</node>
	<node id="-103328" lat="62.9863472206" lon="7.24461389597">
		<tag k="name" v="Røstløken" />
		<tag k="ssr:stedsnr" v="217753" />
		<tag k="waterway" v="stream" />
	</node>
	<node id="-103318" lat="62.9100583292" lon="7.55461945449">
		<tag k="name" v="Galtelva" />
		<tag k="ssr:stedsnr" v="217694" />
		<tag k="waterway" v="river" />
	</node>
	<node id="-103576" lat="62.9312833298" lon="7.23445833743">
		<tag k="name" v="Vassengelva" />
		<tag k="ssr:stedsnr" v="277758" />
		<tag k="waterway" v="stream" />
	</node>
	<node id="-105353" lat="62.9067222254" lon="7.41131665795">
		<tag k="name" v="Tømmerbukta" />
		<tag k="natural" v="bay" />
		<tag k="ssr:stedsnr" v="156321" />
	</node>
	<node id="-105351" lat="62.8905972203" lon="7.48059444105">
		<tag k="name" v="Undgrobekken" />
		<tag k="ssr:stedsnr" v="156311" />
		<tag k="waterway" v="stream" />
	</node>
	<node id="-103294" lat="62.8802444476" lon="7.46422777319">
		<tag k="name" v="Tusselva" />
		<tag k="ssr:stedsnr" v="217454" />
		<tag k="waterway" v="river" />
	</node>
	<node id="-103291" lat="62.8767499961" lon="7.40687221873">
		<tag k="name" v="Olløken" />
		<tag k="ssr:stedsnr" v="217443" />
		<tag k="waterway" v="stream" />
	</node>
	<node id="-105337" lat="62.9674749996" lon="7.3507555509">
		<tag k="name" v="Bekkaelva" />
		<tag k="ssr:stedsnr" v="156248" />
		<tag k="waterway" v="stream" />
	</node>
	<node id="-105336" lat="62.9491138872" lon="7.35515000956">
		<tag k="name" v="Seterløken" />
		<tag k="ssr:stedsnr" v="156238" />
		<tag k="waterway" v="stream" />
	</node>
	<node id="-105335" lat="62.9073777761" lon="7.319574999">
		<tag k="alt_name" v="Sandneselva" />
		<tag k="name" v="Hældalselva" />
		<tag k="ssr:stedsnr" v="156199" />
		<tag k="waterway" v="river" />
	</node>
	<node id="-105314" lat="62.7895055553" lon="7.20294999653">
		<tag k="name" v="Botnagrova" />
		<tag k="ssr:stedsnr" v="153017" />
		<tag k="waterway" v="stream" />
	</node>
	<node id="-105307" lat="62.7707527794" lon="7.13265278294">
		<tag k="name" v="Løvenskartjørna" />
		<tag k="natural" v="water" />
		<tag k="ssr:stedsnr" v="133854" />
	</node>
	<node id="-105298" lat="62.9476138887" lon="7.35649721317">
		<tag k="name" v="Djupelvan" />
		<tag k="ssr:stedsnr" v="132966" />
		<tag k="waterway" v="stream" />
	</node>
	<node id="-105613" lat="62.9882277821" lon="7.17531943468">
		<tag k="name" v="Sandvikgrova" />
		<tag k="ssr:stedsnr" v="338690" />
		<tag k="waterway" v="stream" />
	</node>
	<node id="-105288" lat="62.9044472187" lon="7.37625555837">
		<tag k="name" v="Nåsavatnet" />
		<tag k="natural" v="water" />
		<tag k="ssr:stedsnr" v="132592" />
		<tag k="water" v="lake" />
	</node>
	<node id="-105285" lat="62.9022111116" lon="7.58656666529">
		<tag k="name" v="Gaupsetdemma" />
		<tag k="place" v="locality" />
		<tag k="ssr:stedsnr" v="132628" />
	</node>
	<node id="-105278" lat="62.9048222213" lon="7.0697361096">
		<tag k="name" v="Harrivatnet" />
		<tag k="natural" v="water" />
		<tag k="ssr:stedsnr" v="132163" />
	</node>
	<node id="-105264" lat="62.9171666629" lon="7.45627222047">
		<tag k="name" v="Osen" />
		<tag k="natural" v="bay" />
		<tag k="ssr:stedsnr" v="96486" />
	</node>
	<node id="-103899" lat="62.8623027818" lon="7.32243055077">
		<tag k="name" v="Bjørndalsvatnet" />
		<tag k="natural" v="water" />
		<tag k="ssr:stedsnr" v="315618" />
	</node>
	<node id="-105248" lat="62.9584333308" lon="7.15645554648">
		<tag k="name" v="Stjerntjønna" />
		<tag k="natural" v="water" />
		<tag k="ssr:stedsnr" v="95700" />
	</node>
	<node id="-105239" lat="62.9761888849" lon="7.20828332763">
		<tag k="name" v="Salbakkelva" />
		<tag k="ssr:stedsnr" v="95751" />
		<tag k="waterway" v="stream" />
	</node>
	<node id="-105235" lat="62.9109833368" lon="7.19236110759">
		<tag k="name" v="Kvennhauggrova" />
		<tag k="ssr:stedsnr" v="95649" />
		<tag k="waterway" v="stream" />
	</node>
	<node id="-105233" lat="62.9259277773" lon="7.21435278545">
>>>>>>> e1d4bc35ff8a6074a6f2e91616a996b547c36f15
		<tag k="name" v="Vassengelva" />
		<tag k="ssr:stedsnr" v="277758" />
		<tag k="waterway" v="stream" />
	</node>
<<<<<<< HEAD
	<node lat="62.836277781565876" lon="7.299877780033607" id="-5560">
		<tag k="name" v="Kaligrova" />
		<tag k="ssr:stedsnr" v="277847" />
		<tag k="waterway" v="stream" />
	</node>
	<node lat="62.8475277788896" lon="7.255299992097476" id="-5561">
		<tag k="name" v="Heimste grova" />
		<tag k="ssr:stedsnr" v="277865" />
		<tag k="waterway" v="stream" />
	</node>
	<node lat="62.94462500291449" lon="7.275202783247637" id="-5587">
		<tag k="name" v="Gådalstjørna" />
		<tag k="natural" v="water" />
		<tag k="ssr:stedsnr" v="314985" />
	</node>
	<node lat="62.87072222570496" lon="7.130430563677024" id="-5592">
		<tag k="name" v="Skjellbreia" />
		<tag k="natural" v="water" />
		<tag k="ssr:stedsnr" v="315130" />
		<tag k="water" v="lake" />
	</node>
	<node lat="62.888397226193774" lon="7.302625003323169" id="-5602">
		<tag k="name" v="Kvitåvatna" />
		<tag k="natural" v="water" />
		<tag k="ssr:stedsnr" v="315583" />
	</node>
	<node lat="62.891449997062026" lon="7.426474997952135" id="-5620">
		<tag k="name" v="Mjølkstøl-løken" />
		<tag k="ssr:stedsnr" v="337362" />
		<tag k="waterway" v="stream" />
	</node>
	<node lat="62.88455277898011" lon="7.073758326348109" id="-5622">
		<tag k="name" v="Herdalselva" />
		<tag k="ssr:stedsnr" v="337664" />
		<tag k="waterway" v="stream" />
	</node>
	<node lat="62.959588888449744" lon="7.33491110594988" id="-5626">
		<tag k="name" v="Skiftingdalsbekken" />
		<tag k="ssr:stedsnr" v="338221" />
		<tag k="waterway" v="stream" />
	</node>
	<node lat="62.97538333538219" lon="7.306736105282022" id="-5628">
		<tag k="name" v="Storvikløken" />
		<tag k="ssr:stedsnr" v="338237" />
		<tag k="waterway" v="stream" />
	</node>
	<node lat="62.88039444883156" lon="7.513124992515797" id="-5633">
		<tag k="name" v="Botnlaustjønna" />
=======
	<node id="-105220" lat="62.9582777776" lon="7.38020832883">
		<tag k="name" v="Finnbekken" />
		<tag k="ssr:stedsnr" v="95297" />
		<tag k="waterway" v="stream" />
	</node>
	<node id="-105212" lat="62.8813638919" lon="7.47498333492">
		<tag k="name" v="Bjønndalsbekken" />
		<tag k="ssr:stedsnr" v="95266" />
		<tag k="waterway" v="stream" />
	</node>
	<node id="-105209" lat="62.9775333365" lon="7.28436944397">
		<tag k="name" v="Svortløken" />
		<tag k="ssr:stedsnr" v="95249" />
		<tag k="waterway" v="stream" />
	</node>
	<node id="-105198" lat="62.9300111156" lon="7.33560278569">
		<tag k="name" v="Elvakroken" />
		<tag k="ssr:stedsnr" v="95218" />
		<tag k="waterway" v="stream" />
	</node>
	<node id="-105197" lat="62.918761115" lon="7.33370554559">
		<tag k="name" v="Tømmerbukta" />
		<tag k="natural" v="bay" />
		<tag k="ssr:stedsnr" v="95210" />
	</node>
	<node id="-105195" lat="62.8718472222" lon="7.35730000731">
		<tag k="name" v="Trolldalselva" />
		<tag k="ssr:stedsnr" v="95200" />
		<tag k="waterway" v="river" />
	</node>
	<node id="-105194" lat="62.9017916681" lon="7.37377499266">
		<tag k="name" v="Reitabuneset" />
		<tag k="natural" v="cape" />
		<tag k="ssr:stedsnr" v="95190" />
	</node>
	<node id="-105178" lat="62.9273111102" lon="6.97269722185">
		<tag k="name" v="Kvennagrova" />
		<tag k="ssr:stedsnr" v="95433" />
		<tag k="waterway" v="stream" />
	</node>
	<node id="-105165" lat="62.9147250019" lon="7.29107777281">
		<tag k="name" v="Oselva" />
		<tag k="ssr:stedsnr" v="73837" />
		<tag k="waterway" v="river" />
	</node>
	<node id="-105164" lat="62.8049888933" lon="7.37820556221">
		<tag k="name" v="Kringla" />
>>>>>>> e1d4bc35ff8a6074a6f2e91616a996b547c36f15
		<tag k="natural" v="water" />
		<tag k="ssr:stedsnr" v="338338" />
	</node>
<<<<<<< HEAD
	<node lat="62.87556666941434" lon="7.354280555809004" id="-5637">
		<tag k="name" v="Nonslibekken" />
		<tag k="ssr:stedsnr" v="338191" />
		<tag k="waterway" v="stream" />
	</node>
	<node lat="62.770052774583306" lon="7.03623056512191" id="-5638">
		<tag k="name" v="Skoppedalstjønna" />
		<tag k="natural" v="water" />
		<tag k="ssr:stedsnr" v="338367" />
	</node>
	<node lat="62.8141194449152" lon="7.112955563160168" id="-5653">
		<tag k="name" v="Strandsgrova" />
		<tag k="ssr:stedsnr" v="338538" />
		<tag k="waterway" v="stream" />
	</node>
	<node lat="62.87768888594117" lon="7.188966657233013" id="-5655">
		<tag k="name" v="Nonastølbekken" />
		<tag k="ssr:stedsnr" v="338650" />
		<tag k="waterway" v="stream" />
	</node>
	<node lat="62.98822778209318" lon="7.175319434681642" id="-5661">
		<tag k="name" v="Sandvikgrova" />
		<tag k="ssr:stedsnr" v="338690" />
		<tag k="waterway" v="stream" />
	</node>
	<node lat="62.92200555272153" lon="7.4431472256663795" id="-5663">
		<tag k="name" v="Eidselva" />
		<tag k="ssr:stedsnr" v="338696" />
		<tag k="waterway" v="stream" />
	</node>
	<node lat="62.878263886798464" lon="7.1935750010140715" id="-5684">
		<tag k="name" v="Nyfonna" />
		<tag k="ssr:stedsnr" v="338985" />
		<tag k="waterway" v="stream" />
	</node>
	<node lat="62.953222224314885" lon="7.245752779611058" id="-5708">
		<tag k="name" v="Melvatnet" />
		<tag k="natural" v="water" />
		<tag k="ssr:stedsnr" v="375961" />
	</node>
	<node lat="62.900908334236206" lon="7.418074996553787" id="-5716">
		<tag k="alt_name" v="Vågsbøelva" />
		<tag k="name" v="Sagelva" />
		<tag k="ssr:stedsnr" v="375593" />
		<tag k="waterway" v="stream" />
	</node>
	<node lat="62.934452774021786" lon="7.38767499710684" id="-5718">
		<tag k="name" v="Storvisnesvatnet" />
=======
	<node id="-105163" lat="62.7907277802" lon="7.24828888808">
		<tag k="alt_name" v="Malmeelva" />
		<tag k="name" v="Malmedalselva" />
		<tag k="ssr:stedsnr" v="73776" />
		<tag k="waterway" v="river" />
	</node>
	<node id="-105140" lat="62.7921584161" lon="7.16349535149">
		<tag k="alt_name" v="Gjerdgrova" />
		<tag k="name" v="Litleelva" />
		<tag k="ssr:stedsnr" v="72791" />
		<tag k="waterway" v="stream" />
	</node>
	<node id="-105139" lat="62.7984888901" lon="7.16082499395">
		<tag k="alt_name" v="Holselva" />
		<tag k="name" v="Storelva" />
		<tag k="ssr:stedsnr" v="72787" />
		<tag k="waterway" v="stream" />
	</node>
	<node id="-105131" lat="62.8634527782" lon="7.37305555743">
		<tag k="alt_name" v="Litlvatnet" />
		<tag k="name" v="Litlevatnet" />
		<tag k="natural" v="water" />
		<tag k="ssr:stedsnr" v="72616" />
	</node>
	<node id="-105124" lat="62.9016888903" lon="7.12692499102">
		<tag k="name" v="Trollvatnet" />
		<tag k="natural" v="water" />
		<tag k="ssr:stedsnr" v="72171" />
	</node>
	<node id="-105120" lat="62.8852833329" lon="7.01788889167">
		<tag k="name" v="Stavikelva" />
		<tag k="ssr:stedsnr" v="72141" />
		<tag k="waterway" v="river" />
	</node>
	<node id="-105584" lat="62.9350611105" lon="6.9876833402">
		<tag k="name" v="Sundeelva" />
		<tag k="ssr:stedsnr" v="338411" />
		<tag k="waterway" v="river" />
	</node>
	<node id="-103565" lat="62.8475277789" lon="7.2552999921">
		<tag k="name" v="Heimste grova" />
		<tag k="ssr:stedsnr" v="277865" />
		<tag k="waterway" v="stream" />
	</node>
	<node id="-105095" lat="62.8019249959" lon="7.31390277879">
		<tag k="name" v="Sagelva" />
		<tag k="ssr:stedsnr" v="35970" />
		<tag k="waterway" v="river" />
	</node>
	<node id="-105082" lat="62.8544638848" lon="7.30126388731">
		<tag k="name" v="Botnagrova" />
		<tag k="ssr:stedsnr" v="35873" />
		<tag k="waterway" v="stream" />
	</node>
	<node id="-105081" lat="62.8441805591" lon="7.3708611068">
		<tag k="name" v="Bolkevatna" />
>>>>>>> e1d4bc35ff8a6074a6f2e91616a996b547c36f15
		<tag k="natural" v="water" />
		<tag k="ssr:stedsnr" v="375462" />
	</node>
<<<<<<< HEAD
	<node lat="62.88299444869692" lon="7.541824990002751" id="-5721">
		<tag k="name" v="Kjølavatnet" />
		<tag k="natural" v="water" />
		<tag k="ssr:stedsnr" v="375618" />
	</node>
	<node lat="62.918375003543495" lon="7.047930555669115" id="-5734">
		<tag k="name" v="Merratjørna" />
		<tag k="natural" v="water" />
		<tag k="ssr:stedsnr" v="376095" />
	</node>
	<node lat="62.95226389202629" lon="7.092047216636536" id="-5736">
		<tag k="alt_name" v="Søre Hustadelva" />
		<tag k="name" v="Sagelva" />
		<tag k="ssr:stedsnr" v="376109" />
		<tag k="waterway" v="river" />
	</node>
	<node lat="62.9719222198568" lon="7.269786102143424" id="-5747">
		<tag k="fixme" v="multiple name tags, choose one and add the other to alt_name" />
		<tag k="name" v="Gaustadelva;Sandblåstelva" />
		<tag k="ssr:stedsnr" v="376931" />
		<tag k="waterway" v="stream" />
	</node>
	<node lat="62.88838055538688" lon="7.374197220969924" id="-5751">
		<tag k="name" v="Nåsaelva" />
		<tag k="ssr:stedsnr" v="384849" />
		<tag k="waterway" v="river" />
	</node>
	<node lat="62.78855000038537" lon="7.190077771487122" id="-5754">
		<tag k="name" v="Lomtjønna" />
		<tag k="natural" v="water" />
		<tag k="ssr:stedsnr" v="396023" />
	</node>
	<node lat="62.851638891864525" lon="7.387686108901864" id="-5755">
		<tag k="name" v="Gryta" />
=======
	<node id="-105080" lat="62.8513527767" lon="7.29050000934">
		<tag k="name" v="Måtbakkgrova" />
		<tag k="ssr:stedsnr" v="35868" />
		<tag k="waterway" v="stream" />
	</node>
	<node id="-105079" lat="62.8476222235" lon="7.34878610728">
		<tag k="name" v="Nyfonngrova" />
		<tag k="ssr:stedsnr" v="35865" />
		<tag k="waterway" v="stream" />
	</node>
	<node id="-105075" lat="62.8279083355" lon="7.42918610427">
		<tag k="name" v="Langvassosen" />
		<tag k="natural" v="bay" />
		<tag k="ssr:stedsnr" v="35842" />
	</node>
	<node id="-105066" lat="62.9074333342" lon="7.56138333659">
		<tag k="name" v="Golielva" />
		<tag k="ssr:stedsnr" v="35740" />
		<tag k="waterway" v="stream" />
	</node>
	<node id="-105064" lat="62.9155500001" lon="7.59460832379">
		<tag k="name" v="Fossan" />
		<tag k="natural" v="waterfall" />
		<tag k="ssr:stedsnr" v="35737" />
	</node>
	<node id="-105060" lat="62.9414138906" lon="7.20907499786">
		<tag k="name" v="Hostadelva" />
		<tag k="ssr:stedsnr" v="35711" />
		<tag k="waterway" v="stream" />
	</node>
	<node id="-105058" lat="62.9075277758" lon="7.06081945258">
		<tag k="name" v="Myrsteintjønnin" />
>>>>>>> e1d4bc35ff8a6074a6f2e91616a996b547c36f15
		<tag k="natural" v="water" />
		<tag k="ssr:stedsnr" v="398018" />
	</node>
<<<<<<< HEAD
	<node lat="62.853863891455156" lon="7.079741671021319" id="-5774">
		<tag k="name" v="Borgarløken" />
		<tag k="ssr:stedsnr" v="398522" />
		<tag k="waterway" v="stream" />
	</node>
	<node lat="62.85153333263185" lon="7.269936111725994" id="-5784">
		<tag k="name" v="Moagrova" />
		<tag k="ssr:stedsnr" v="398949" />
		<tag k="waterway" v="stream" />
	</node>
	<node lat="62.90416388990586" lon="7.3160916678455274" id="-5791">
		<tag k="name" v="Midttjønna" />
		<tag k="natural" v="water" />
		<tag k="ssr:stedsnr" v="399251" />
	</node>
	<node lat="62.877447223527476" lon="7.341794436087959" id="-5794">
		<tag k="name" v="Krokbekken" />
		<tag k="ssr:stedsnr" v="399270" />
		<tag k="waterway" v="stream" />
	</node>
	<node lat="62.87182778162474" lon="7.393063885837458" id="-5797">
		<tag k="name" v="Dalaløken" />
		<tag k="ssr:stedsnr" v="399357" />
		<tag k="waterway" v="stream" />
	</node>
	<node lat="62.88544444756032" lon="7.422288885190833" id="-5798">
		<tag k="name" v="Bjerknesløken" />
		<tag k="ssr:stedsnr" v="399366" />
		<tag k="waterway" v="stream" />
	</node>
	<node lat="62.90541666871488" lon="7.444566671765437" id="-5799">
		<tag k="name" v="Geitskjæret" />
		<tag k="place" v="islet" />
		<tag k="ssr:stedsnr" v="399372" />
	</node>
	<node lat="62.989199995637314" lon="7.263094437559115" id="-5808">
		<tag k="name" v="Sjåneset" />
		<tag k="natural" v="cape" />
		<tag k="ssr:stedsnr" v="399469" />
	</node>
	<node lat="62.86749444591067" lon="7.079233337987223" id="-5821">
		<tag k="name" v="Svarthølen" />
		<tag k="place" v="locality" />
		<tag k="ssr:stedsnr" v="399656" />
	</node>
	<node lat="62.958872225588784" lon="7.246005551929706" id="-5827">
		<tag k="name" v="Sloppelva" />
		<tag k="ssr:stedsnr" v="399754" />
		<tag k="waterway" v="stream" />
	</node>
	<node lat="62.81723333765649" lon="7.273991672347867" id="-5828">
		<tag k="alt_name" v="Julskargrova" />
		<tag k="name" v="Julskarbekken" />
		<tag k="ssr:stedsnr" v="399757" />
		<tag k="waterway" v="stream" />
	</node>
	<node lat="62.87299444278705" lon="7.264388885547143" id="-5831">
		<tag k="name" v="Nergardsgrova" />
		<tag k="ssr:stedsnr" v="399846" />
		<tag k="waterway" v="stream" />
	</node>
	<node lat="62.87321944113062" lon="7.271119442574553" id="-5832">
		<tag k="name" v="Trollelvholmen" />
=======
	<node id="-105050" lat="62.8812416702" lon="7.02001110541">
		<tag k="name" v="Vardhaugløken" />
		<tag k="ssr:stedsnr" v="35609" />
		<tag k="waterway" v="stream" />
	</node>
	<node id="-105044" lat="62.8004361078" lon="6.99768888999">
		<tag k="name" v="Simodalsgrova" />
		<tag k="ssr:stedsnr" v="35501" />
		<tag k="waterway" v="stream" />
	</node>
	<node id="-105036" lat="62.9086083358" lon="7.54026110509">
		<tag k="name" v="Strandaelva" />
		<tag k="ssr:stedsnr" v="35472" />
		<tag k="waterway" v="river" />
	</node>
	<node id="-105021" lat="62.9693944404" lon="7.32757777942">
		<tag k="name" v="Sandvikbekken" />
		<tag k="ssr:stedsnr" v="35325" />
		<tag k="waterway" v="stream" />
	</node>
	<node id="-105019" lat="62.9345416649" lon="7.36486110487">
		<tag k="name" v="Grønneselva" />
		<tag k="ssr:stedsnr" v="35314" />
		<tag k="waterway" v="stream" />
	</node>
	<node id="-104998" lat="62.9347888932" lon="7.04089167191">
		<tag k="name" v="Marittjønna" />
		<tag k="natural" v="water" />
		<tag k="ssr:stedsnr" v="34442" />
	</node>
	<node id="-104990" lat="62.937469446" lon="7.40692222933">
		<tag k="name" v="Djupåbekken" />
		<tag k="ssr:stedsnr" v="34322" />
		<tag k="waterway" v="stream" />
	</node>
	<node id="-104989" lat="62.9323638931" lon="7.40033888873">
		<tag k="name" v="Litlvisnesvatnet" />
		<tag k="natural" v="water" />
		<tag k="ssr:stedsnr" v="34319" />
	</node>
	<node id="-104988" lat="62.8888888895" lon="7.4380611121">
		<tag k="name" v="Langneset" />
		<tag k="natural" v="cape" />
		<tag k="ssr:stedsnr" v="34313" />
	</node>
	<node id="-104983" lat="62.7826666679" lon="7.21308611897">
		<tag k="name" v="Gangskartjønna" />
		<tag k="natural" v="water" />
		<tag k="ssr:stedsnr" v="32015" />
	</node>
	<node id="-104974" lat="62.7538138896" lon="7.0561916677">
		<tag k="name" v="Trolltjørna" />
		<tag k="natural" v="water" />
		<tag k="ssr:stedsnr" v="12886" />
	</node>
	<node id="-104973" lat="62.7568472209" lon="7.08221665834">
		<tag k="name" v="Langvatnet" />
		<tag k="natural" v="water" />
		<tag k="ssr:stedsnr" v="12873" />
	</node>
	<node id="-103506" lat="62.7665111071" lon="7.1048583413">
		<tag k="name" v="Grøvern" />
		<tag k="ssr:stedsnr" v="274972" />
		<tag k="waterway" v="stream" />
	</node>
	<node id="-103505" lat="62.7698527805" lon="7.08341666092">
		<tag k="name" v="Åndalselva" />
		<tag k="ssr:stedsnr" v="274851" />
		<tag k="waterway" v="river" />
	</node>
	<node id="-103846" lat="62.9457944471" lon="7.35761111088">
		<tag k="name" v="Teppå" />
		<tag k="ssr:stedsnr" v="460501" />
		<tag k="waterway" v="dam" />
	</node>
	<node id="-104926" lat="62.9101999974" lon="7.41198887967">
		<tag k="name" v="Hyll-løken" />
		<tag k="ssr:stedsnr" v="217371" />
		<tag k="waterway" v="stream" />
	</node>
	<node id="-104922" lat="62.9019611086" lon="7.3860805481">
		<tag k="name" v="Fiskarneset" />
>>>>>>> e1d4bc35ff8a6074a6f2e91616a996b547c36f15
		<tag k="natural" v="cape" />
		<tag k="ssr:stedsnr" v="399847" />
	</node>
<<<<<<< HEAD
	<node lat="62.909219442898774" lon="7.262263888827928" id="-5833">
		<tag k="name" v="Seterdalselva" />
		<tag k="ssr:stedsnr" v="399854" />
		<tag k="waterway" v="stream" />
	</node>
	<node lat="62.85091666222841" lon="7.177341666357344" id="-5835">
		<tag k="alt_name" v="Myrbostadelva" />
		<tag k="name" v="Daleelva" />
		<tag k="ssr:stedsnr" v="399868" />
		<tag k="waterway" v="river" />
	</node>
	<node lat="62.90573888879146" lon="7.257313879632358" id="-5853">
		<tag k="name" v="Seterdalsvatnet" />
		<tag k="natural" v="water" />
		<tag k="ssr:stedsnr" v="436570" />
	</node>
	<node lat="62.950483332143904" lon="7.051961106917047" id="-5884">
		<tag k="name" v="Rugga" />
		<tag k="ssr:stedsnr" v="437148" />
		<tag k="waterway" v="river" />
	</node>
	<node lat="62.76546667012887" lon="7.082713889655876" id="-5896">
		<tag k="name" v="Lomtjørna" />
		<tag k="natural" v="water" />
		<tag k="ssr:stedsnr" v="437844" />
	</node>
	<node lat="62.88499167001229" lon="7.0277027846058715" id="-5899">
		<tag k="name" v="Stavikvatna" />
		<tag k="natural" v="water" />
		<tag k="ssr:stedsnr" v="496137" />
	</node>
	<node lat="62.89564444223455" lon="7.0558583254077885" id="-5902">
		<tag k="name" v="Prestseterelva" />
		<tag k="ssr:stedsnr" v="496157" />
		<tag k="waterway" v="stream" />
	</node>
	<node lat="62.7898222264708" lon="7.064974998543231" id="-5908">
		<tag k="name" v="Hestadvatnet" />
=======
	<node id="-104920" lat="62.897766664" lon="7.445380549">
		<tag k="alt_name" v="Svanvikelva" />
		<tag k="name" v="Einsetelva" />
		<tag k="ssr:stedsnr" v="217334" />
		<tag k="waterway" v="river" />
	</node>
	<node id="-104919" lat="62.8784166666" lon="7.39867778672">
		<tag k="name" v="Skålibekken" />
		<tag k="ssr:stedsnr" v="217329" />
		<tag k="waterway" v="stream" />
	</node>
	<node id="-106568" lat="62.9420750034" lon="7.13543056176">
		<tag k="name" v="Skjentjørna" />
		<tag k="natural" v="water" />
		<tag k="ssr:stedsnr" v="801104" />
	</node>
	<node id="-104875" lat="62.8688472232" lon="7.3595277754">
		<tag k="name" v="Litlvasselva" />
		<tag k="ssr:stedsnr" v="945226" />
		<tag k="waterway" v="stream" />
	</node>
	<node id="-104873" lat="62.9248972216" lon="7.32145555545">
		<tag k="name" v="Torelielva" />
		<tag k="ssr:stedsnr" v="945211" />
		<tag k="waterway" v="stream" />
	</node>
	<node id="-103494" lat="62.8517777797" lon="7.05286389849">
		<tag k="alt_name" v="Åselva" />
		<tag k="name" v="Torneselva" />
		<tag k="ssr:stedsnr" v="133209" />
		<tag k="waterway" v="stream" />
	</node>
	<node id="-104866" lat="62.9071612544" lon="7.59345511865">
		<tag k="name" v="Galtvatnet" />
>>>>>>> e1d4bc35ff8a6074a6f2e91616a996b547c36f15
		<tag k="natural" v="water" />
		<tag k="ssr:stedsnr" v="496830" />
	</node>
<<<<<<< HEAD
	<node lat="62.95007499879665" lon="7.279002779291431" id="-5916">
		<tag k="name" v="Gådalsvatnet" />
		<tag k="natural" v="water" />
		<tag k="ssr:stedsnr" v="496969" />
	</node>
	<node lat="62.78476389159445" lon="7.184524999391086" id="-5939">
		<tag k="name" v="Seterelva" />
		<tag k="ssr:stedsnr" v="517031" />
		<tag k="waterway" v="stream" />
	</node>
	<node lat="62.75992499906564" lon="7.085341660105349" id="-5945">
		<tag k="name" v="Langvatnet" />
		<tag k="natural" v="water" />
		<tag k="ssr:stedsnr" v="517908" />
		<tag k="water" v="lake" />
	</node>
	<node lat="62.909780559980646" lon="7.339655558587747" id="-5961">
		<tag k="name" v="Småholman" />
		<tag k="place" v="islet" />
		<tag k="ssr:stedsnr" v="520235" />
	</node>
	<node lat="62.91218333060595" lon="7.337069451423199" id="-5962">
		<tag k="name" v="Dalaholman" />
		<tag k="place" v="islet" />
		<tag k="ssr:stedsnr" v="520236" />
	</node>
	<node lat="62.91106667091454" lon="7.330736105479665" id="-5963">
		<tag k="name" v="Daleløken" />
		<tag k="ssr:stedsnr" v="520237" />
		<tag k="waterway" v="stream" />
	</node>
	<node lat="62.888502779557946" lon="7.400050005669277" id="-5966">
		<tag k="name" v="Halåsløken" />
		<tag k="ssr:stedsnr" v="520330" />
		<tag k="waterway" v="stream" />
	</node>
	<node lat="62.93521110878619" lon="7.352136103665079" id="-5972">
		<tag k="name" v="Åsaløken" />
		<tag k="ssr:stedsnr" v="520434" />
		<tag k="waterway" v="stream" />
	</node>
	<node lat="62.87403610759427" lon="7.407533338244571" id="-5974">
		<tag k="alt_name" v="Surendalselva" />
		<tag k="name" v="Dalaelva" />
		<tag k="ssr:stedsnr" v="520445" />
		<tag k="waterway" v="river" />
	</node>
	<node lat="62.88520277570201" lon="7.028502770880496" id="-5981">
		<tag k="name" v="Brentholvatnet" />
=======
	<node id="-104859" lat="62.965075001" lon="7.26565834296">
		<tag k="name" v="Sloppelva" />
		<tag k="ssr:stedsnr" v="217273" />
		<tag k="waterway" v="stream" />
	</node>
	<node id="-104858" lat="62.9422638857" lon="7.26090000686">
		<tag k="name" v="Gådalsbekken" />
		<tag k="ssr:stedsnr" v="217259" />
		<tag k="waterway" v="stream" />
	</node>
	<node id="-104836" lat="62.9897055562" lon="7.1695361102">
		<tag k="name" v="Teppinga" />
>>>>>>> e1d4bc35ff8a6074a6f2e91616a996b547c36f15
		<tag k="natural" v="water" />
		<tag k="ssr:stedsnr" v="520525" />
		<tag k="water" v="lake" />
	</node>
<<<<<<< HEAD
	<node lat="62.89114999630794" lon="7.061433343223504" id="-5990">
		<tag k="name" v="Ulhaugløken" />
		<tag k="ssr:stedsnr" v="520640" />
		<tag k="waterway" v="stream" />
	</node>
	<node lat="62.891397223620125" lon="7.151055549641102" id="-5992">
		<tag k="name" v="Hatleelva" />
		<tag k="ssr:stedsnr" v="520647" />
		<tag k="waterway" v="stream" />
	</node>
	<node lat="62.95833611315537" lon="7.150963897864783" id="-6004">
		<tag k="name" v="Lomtjønna" />
=======
	<node id="-104835" lat="62.979249997" lon="7.23716666402">
		<tag k="name" v="Løkane" />
		<tag k="ssr:stedsnr" v="884923" />
		<tag k="waterway" v="stream" />
	</node>
	<node id="-104831" lat="62.8812777785" lon="7.23455278706">
		<tag k="name" v="Hommeldalselva" />
		<tag k="ssr:stedsnr" v="884763" />
		<tag k="waterway" v="stream" />
	</node>
	<node id="-104824" lat="62.8269666635" lon="7.36203888099">
		<tag k="name" v="Litle Gjengkleivvatnet" />
>>>>>>> e1d4bc35ff8a6074a6f2e91616a996b547c36f15
		<tag k="natural" v="water" />
		<tag k="ssr:stedsnr" v="520747" />
	</node>
<<<<<<< HEAD
	<node lat="62.98732500202843" lon="7.258294440442708" id="-6010">
		<tag k="name" v="Sør Morøya" />
		<tag k="place" v="island" />
		<tag k="ssr:stedsnr" v="520891" />
	</node>
	<node lat="62.901194446915866" lon="7.277580551582884" id="-6011">
		<tag k="name" v="Stordalselva" />
		<tag k="ssr:stedsnr" v="520895" />
		<tag k="waterway" v="stream" />
	</node>
	<node lat="62.96803610968631" lon="7.222002784660469" id="-6044">
		<tag k="name" v="Skottenvatnet" />
		<tag k="natural" v="water" />
		<tag k="ssr:stedsnr" v="557915" />
	</node>
	<node lat="62.90061666718261" lon="7.54002500785099" id="-6045">
		<tag k="name" v="Kjølabekken" />
		<tag k="ssr:stedsnr" v="557578" />
		<tag k="waterway" v="stream" />
	</node>
	<node lat="62.82093610934759" lon="7.347730551623608" id="-6053">
		<tag k="name" v="Dyrdalsvatnet" />
		<tag k="natural" v="water" />
		<tag k="ssr:stedsnr" v="558771" />
	</node>
	<node lat="62.82549166273823" lon="7.257883336500954" id="-6059">
		<tag k="name" v="Rødalselva" />
		<tag k="ssr:stedsnr" v="558733" />
		<tag k="waterway" v="river" />
	</node>
	<node lat="62.96625833494014" lon="7.2758638853095885" id="-6067">
		<tag k="name" v="Gådalsfossen" />
		<tag k="natural" v="waterfall" />
		<tag k="ssr:stedsnr" v="580224" />
	</node>
	<node lat="62.96326666902633" lon="7.285638879475895" id="-6068">
		<tag k="name" v="Gåstjønna" />
		<tag k="natural" v="water" />
		<tag k="ssr:stedsnr" v="580226" />
	</node>
	<node lat="62.96600278117453" lon="7.36149167227062" id="-6069">
		<tag k="name" v="Ørjavikløken" />
		<tag k="ssr:stedsnr" v="580227" />
		<tag k="waterway" v="stream" />
	</node>
	<node lat="62.870733337043234" lon="7.416230553302199" id="-6077">
		<tag k="name" v="Finnseterelva" />
		<tag k="ssr:stedsnr" v="580260" />
		<tag k="waterway" v="stream" />
	</node>
	<node lat="62.89983888783833" lon="7.405861120127392" id="-6078">
		<tag k="name" v="Røstberget" />
=======
	<node id="-104809" lat="62.9100305555" lon="7.05615000043">
		<tag k="alt_name" v="Rambjørgtjønna" />
		<tag k="name" v="Rambjørtjønna" />
		<tag k="natural" v="water" />
		<tag k="ssr:stedsnr" v="884464" />
	</node>
	<node id="-104799" lat="62.9683111147" lon="7.31728888119">
		<tag k="name" v="Reitaelva" />
		<tag k="ssr:stedsnr" v="884225" />
		<tag k="waterway" v="stream" />
	</node>
	<node id="-104797" lat="62.9535999959" lon="7.27936110438">
		<tag k="name" v="Sandbukta" />
		<tag k="natural" v="bay" />
		<tag k="ssr:stedsnr" v="884215" />
	</node>
	<node id="-104796" lat="62.9424972267" lon="7.27675000019">
		<tag k="name" v="Fosslibekken" />
		<tag k="ssr:stedsnr" v="884214" />
		<tag k="waterway" v="stream" />
	</node>
	<node id="-104795" lat="62.9500972234" lon="7.27001666482">
		<tag k="name" v="Støbekken" />
		<tag k="ssr:stedsnr" v="884213" />
		<tag k="waterway" v="stream" />
	</node>
	<node id="-104794" lat="62.9318750028" lon="7.30211944969">
		<tag k="name" v="Torelielva" />
		<tag k="ssr:stedsnr" v="884212" />
		<tag k="waterway" v="stream" />
	</node>
	<node id="-104785" lat="62.9726916693" lon="7.15873332729">
		<tag k="name" v="Vomma" />
>>>>>>> e1d4bc35ff8a6074a6f2e91616a996b547c36f15
		<tag k="natural" v="cape" />
		<tag k="ssr:stedsnr" v="580272" />
	</node>
<<<<<<< HEAD
	<node lat="62.8906666623295" lon="7.4315944529424165" id="-6080">
		<tag k="name" v="Fiskarneset" />
		<tag k="natural" v="cape" />
		<tag k="ssr:stedsnr" v="580279" />
	</node>
	<node lat="62.855372223235186" lon="7.2012722172733765" id="-6101">
		<tag k="name" v="Skogagrova" />
		<tag k="ssr:stedsnr" v="580671" />
		<tag k="waterway" v="stream" />
	</node>
	<node lat="62.846525001237794" lon="7.226777785087921" id="-6116">
		<tag k="name" v="Smiløken" />
		<tag k="ssr:stedsnr" v="580935" />
		<tag k="waterway" v="stream" />
	</node>
	<node lat="62.862613889000706" lon="7.406677786588934" id="-6122">
		<tag k="name" v="Surndalselva" />
		<tag k="ssr:stedsnr" v="581430" />
		<tag k="waterway" v="stream" />
	</node>
	<node lat="62.99533611521374" lon="7.282216660421484" id="-6124">
		<tag k="name" v="Vågan" />
		<tag k="natural" v="bay" />
		<tag k="ssr:stedsnr" v="581473" />
	</node>
	<node lat="62.99697778083328" lon="7.290244443810856" id="-6125">
		<tag k="name" v="Straumen" />
		<tag k="natural" v="bay" />
		<tag k="ssr:stedsnr" v="581475" />
	</node>
	<node lat="62.92506388491887" lon="7.21499722984796" id="-6134">
		<tag k="name" v="Svartløken" />
		<tag k="ssr:stedsnr" v="581682" />
		<tag k="waterway" v="stream" />
	</node>
	<node lat="62.90540000239742" lon="7.567433325192605" id="-6141">
		<tag k="name" v="Golielva" />
		<tag k="ssr:stedsnr" v="581760" />
		<tag k="waterway" v="stream" />
	</node>
	<node lat="62.80004999602336" lon="7.125422223156" id="-6176">
		<tag k="name" v="Fjellsetervatnet" />
		<tag k="natural" v="water" />
		<tag k="ssr:stedsnr" v="618788" />
	</node>
	<node lat="62.96097777849695" lon="7.232666669567415" id="-6181">
		<tag k="name" v="Skavatnet" />
		<tag k="natural" v="water" />
		<tag k="ssr:stedsnr" v="618937" />
	</node>
	<node lat="62.913677775234646" lon="7.203147225120672" id="-6183">
		<tag k="name" v="Frelsvatnet" />
		<tag k="natural" v="water" />
		<tag k="ssr:stedsnr" v="619065" />
		<tag k="water" v="lake" />
	</node>
	<node lat="62.93383611265313" lon="7.202700007925164" id="-6184">
		<tag k="name" v="Hostadvatnet" />
		<tag k="natural" v="water" />
		<tag k="ssr:stedsnr" v="619095" />
		<tag k="water" v="lake" />
	</node>
	<node lat="62.90836944194934" lon="7.345627770481884" id="-6205">
		<tag k="name" v="Steinskjæret" />
		<tag k="place" v="islet" />
		<tag k="ssr:stedsnr" v="641211" />
	</node>
	<node lat="62.85099444023656" lon="7.243052777635379" id="-6242">
		<tag k="name" v="Husmannshølen" />
		<tag k="place" v="locality" />
		<tag k="ssr:stedsnr" v="641779" />
	</node>
	<node lat="62.90126110922704" lon="7.20929722204492" id="-6249">
		<tag k="name" v="Rørslibekken" />
		<tag k="ssr:stedsnr" v="641663" />
		<tag k="waterway" v="stream" />
	</node>
	<node lat="62.806769446979885" lon="7.300049998567933" id="-6252">
		<tag k="name" v="Julskargrova" />
		<tag k="ssr:stedsnr" v="641738" />
		<tag k="waterway" v="stream" />
	</node>
	<node lat="62.809750000619346" lon="7.324736106306476" id="-6253">
		<tag k="name" v="Melsetergrova" />
		<tag k="ssr:stedsnr" v="641745" />
		<tag k="waterway" v="stream" />
	</node>
	<node lat="62.92121667089415" lon="7.223522227827877" id="-6266">
		<tag k="name" v="Bruløken" />
		<tag k="ssr:stedsnr" v="641934" />
		<tag k="waterway" v="stream" />
	</node>
	<node lat="62.85652222630061" lon="7.429894446707852" id="-6294">
		<tag k="name" v="Tudalstjørna" />
=======
	<node id="-104777" lat="62.9313586139" lon="6.98656750873">
		<tag k="name" v="Løken" />
		<tag k="ssr:stedsnr" v="945938" />
		<tag k="waterway" v="stream" />
	</node>
	<node id="-104775" lat="62.8422416645" lon="7.03744444178">
		<tag k="name" v="Løken" />
		<tag k="ssr:stedsnr" v="945930" />
		<tag k="waterway" v="stream" />
	</node>
	<node id="-104765" lat="62.8463749989" lon="7.36818610924">
		<tag k="name" v="Trondalsvatnet" />
		<tag k="natural" v="water" />
		<tag k="ssr:stedsnr" v="945848" />
		<tag k="water" v="lake" />
	</node>
	<node id="-104760" lat="62.8209777739" lon="7.39061666045">
		<tag k="name" v="Tverrfjelltjønna" />
		<tag k="natural" v="water" />
		<tag k="ssr:stedsnr" v="945799" />
	</node>
	<node id="-104759" lat="62.8529833345" lon="7.24780556226">
		<tag k="name" v="Kalvøyhølen" />
		<tag k="place" v="locality" />
		<tag k="ssr:stedsnr" v="945774" />
	</node>
	<node id="-104757" lat="62.9612527754" lon="7.20692499439">
		<tag k="name" v="Rødalselva" />
		<tag k="ssr:stedsnr" v="945753" />
		<tag k="waterway" v="stream" />
	</node>
	<node id="-104755" lat="62.8043249974" lon="7.35435277266">
		<tag k="name" v="Tareslettgrova" />
		<tag k="ssr:stedsnr" v="945732" />
		<tag k="waterway" v="stream" />
	</node>
	<node id="-104753" lat="62.9757194477" lon="7.21906944376">
		<tag k="name" v="Solbakkelva" />
		<tag k="ssr:stedsnr" v="945723" />
		<tag k="waterway" v="stream" />
	</node>
	<node id="-106792" lat="62.8931885603" lon="6.82381467735">
		<tag k="name" v="Rundholmen" />
		<tag k="place" v="islet" />
		<tag k="ssr:stedsnr" v="990459" />
	</node>
	<node id="-106790" lat="62.8942324779" lon="6.82517381057">
		<tag k="name" v="Notaholmen" />
		<tag k="place" v="islet" />
		<tag k="ssr:stedsnr" v="990457" />
	</node>
	<node id="-106788" lat="62.8950768431" lon="6.82489535939">
		<tag k="name" v="Storbarden" />
		<tag k="place" v="islet" />
		<tag k="ssr:stedsnr" v="990454" />
	</node>
	<node id="-106787" lat="62.8949381138" lon="6.82621762407">
		<tag k="name" v="Midtibarden" />
		<tag k="place" v="islet" />
		<tag k="ssr:stedsnr" v="990453" />
	</node>
	<node id="-104738" lat="62.917627779" lon="7.10892500268">
		<tag k="name" v="Hjerteløken" />
		<tag k="ssr:stedsnr" v="945576" />
		<tag k="waterway" v="stream" />
	</node>
	<node id="-103495" lat="62.8693277746" lon="7.32120554974">
		<tag k="name" v="Bjørndalsbekken" />
		<tag k="ssr:stedsnr" v="133617" />
		<tag k="waterway" v="stream" />
	</node>
	<node id="-104707" lat="62.9828027822" lon="7.27785832496">
		<tag k="name" v="Krokneset" />
		<tag k="natural" v="cape" />
		<tag k="ssr:stedsnr" v="945268" />
	</node>
	<node id="-104706" lat="62.9870194471" lon="7.28359722875">
		<tag k="name" v="Rømmløken" />
		<tag k="ssr:stedsnr" v="945266" />
		<tag k="waterway" v="stream" />
	</node>
	<node id="-104705" lat="62.9356250004" lon="7.37212778298">
		<tag k="name" v="Sisselielva" />
		<tag k="ssr:stedsnr" v="945257" />
		<tag k="waterway" v="stream" />
	</node>
	<node id="-104704" lat="62.9150833346" lon="7.32761945204">
		<tag k="name" v="Kolmyrneset" />
		<tag k="natural" v="cape" />
		<tag k="ssr:stedsnr" v="945248" />
	</node>
	<node id="-104681" lat="62.8457833306" lon="7.17769166646">
		<tag k="name" v="Keilagrova" />
		<tag k="ssr:stedsnr" v="944585" />
		<tag k="waterway" v="stream" />
	</node>
	<node id="-104672" lat="62.9358249963" lon="7.37972222212">
		<tag k="name" v="Sisselielva" />
		<tag k="ssr:stedsnr" v="944427" />
		<tag k="waterway" v="stream" />
	</node>
	<node id="-104669" lat="62.8923833326" lon="7.43346389033">
		<tag k="name" v="Langnesløken" />
		<tag k="ssr:stedsnr" v="944399" />
		<tag k="waterway" v="stream" />
	</node>
	<node id="-104666" lat="62.7938444431" lon="7.22703611962">
		<tag k="name" v="Storfossen" />
		<tag k="natural" v="waterfall" />
		<tag k="ssr:stedsnr" v="942822" />
	</node>
	<node id="-104665" lat="62.7965555588" lon="7.22618332947">
		<tag k="name" v="Litlefossen" />
		<tag k="natural" v="waterfall" />
		<tag k="ssr:stedsnr" v="942821" />
	</node>
	<node id="-106706" lat="62.7760583349" lon="7.03641944167">
		<tag k="name" v="Liatjørna" />
>>>>>>> e1d4bc35ff8a6074a6f2e91616a996b547c36f15
		<tag k="natural" v="water" />
		<tag k="ssr:stedsnr" v="739675" />
	</node>
<<<<<<< HEAD
	<node lat="62.86149444825892" lon="7.484855557565496" id="-6310">
		<tag k="name" v="Tussvatnet" />
		<tag k="natural" v="water" />
		<tag k="ssr:stedsnr" v="740663" />
	</node>
	<node lat="62.7610944407464" lon="7.09085277268082" id="-6332">
		<tag k="name" v="Svarttjørna" />
		<tag k="natural" v="water" />
		<tag k="ssr:stedsnr" v="740858" />
	</node>
	<node lat="62.770941662699364" lon="7.132491674662377" id="-6338">
		<tag k="name" v="Løvenskarvatnet" />
=======
	<node id="-106705" lat="62.7861722185" lon="7.05670555807">
		<tag k="name" v="Sagelva" />
		<tag k="ssr:stedsnr" v="861843" />
		<tag k="waterway" v="stream" />
	</node>
	<node id="-104649" lat="62.8870138856" lon="7.02068333023">
		<tag k="name" v="Tverrelva" />
		<tag k="ssr:stedsnr" v="824553" />
		<tag k="waterway" v="river" />
	</node>
	<node id="-106696" lat="62.8916555571" lon="7.44578054956">
		<tag k="name" v="Litlvatnet" />
>>>>>>> e1d4bc35ff8a6074a6f2e91616a996b547c36f15
		<tag k="natural" v="water" />
		<tag k="ssr:stedsnr" v="760017" />
		<tag k="water" v="lake" />
	</node>
<<<<<<< HEAD
	<node lat="62.90443888897059" lon="7.435588879470706" id="-6358">
		<tag k="name" v="Einsetvågen" />
		<tag k="natural" v="water" />
		<tag k="ssr:stedsnr" v="763362" />
		<tag k="water" v="lake" />
	</node>
	<node lat="62.90957500362044" lon="7.420291665222132" id="-6361">
		<tag k="name" v="Grønløken" />
		<tag k="ssr:stedsnr" v="763389" />
		<tag k="waterway" v="stream" />
	</node>
	<node lat="62.901861109080876" lon="7.448222219980304" id="-6363">
		<tag k="name" v="Smibukta" />
		<tag k="natural" v="bay" />
		<tag k="ssr:stedsnr" v="763472" />
	</node>
	<node lat="62.822658329439946" lon="7.067163889798625" id="-6378">
		<tag k="name" v="Gjertrudtjønna" />
=======
	<node id="-104645" lat="62.906158333" lon="7.4427138857">
		<tag k="name" v="Bytneset" />
		<tag k="natural" v="cape" />
		<tag k="ssr:stedsnr" v="824460" />
	</node>
	<node id="-104641" lat="62.8925083304" lon="7.57036944631">
		<tag k="name" v="Nybelibekken" />
		<tag k="ssr:stedsnr" v="824425" />
		<tag k="waterway" v="stream" />
	</node>
	<node id="-106686" lat="62.9401777804" lon="7.35941667559">
		<tag k="name" v="Lyngstadvatnet" />
>>>>>>> e1d4bc35ff8a6074a6f2e91616a996b547c36f15
		<tag k="natural" v="water" />
		<tag k="ssr:stedsnr" v="763586" />
	</node>
<<<<<<< HEAD
	<node lat="62.9104249986078" lon="7.394213897838054" id="-6388">
		<tag k="name" v="Sagløken" />
		<tag k="ssr:stedsnr" v="763725" />
		<tag k="waterway" v="stream" />
	</node>
	<node lat="62.886688888805324" lon="7.130208338802512" id="-6394">
		<tag k="name" v="Stordalselva" />
		<tag k="ssr:stedsnr" v="763662" />
		<tag k="waterway" v="stream" />
	</node>
	<node lat="62.80369444300834" lon="7.335752787613798" id="-6396">
		<tag k="name" v="Skargrova" />
		<tag k="ssr:stedsnr" v="763765" />
		<tag k="waterway" v="stream" />
	</node>
	<node lat="62.9116083325589" lon="7.178869435372109" id="-6403">
		<tag k="name" v="Holgrova" />
		<tag k="ssr:stedsnr" v="763982" />
		<tag k="waterway" v="stream" />
	</node>
	<node lat="62.894755552586254" lon="7.032538889704363" id="-6425">
=======
	<node id="-104635" lat="62.9164250005" lon="7.32703888585">
		<tag k="name" v="Stakkholmen" />
		<tag k="place" v="islet" />
		<tag k="ssr:stedsnr" v="824264" />
	</node>
	<node id="-104634" lat="62.9044138923" lon="7.44888888108">
		<tag k="name" v="Holmsundet" />
		<tag k="natural" v="strait" />
		<tag k="ssr:stedsnr" v="824357" />
	</node>
	<node id="-104626" lat="62.8603361091" lon="7.11411389272">
		<tag k="name" v="Litlevassløken" />
		<tag k="ssr:stedsnr" v="823525" />
		<tag k="waterway" v="stream" />
	</node>
	<node id="-104623" lat="62.7879194462" lon="7.21478055086">
		<tag k="name" v="Gangskargrova" />
		<tag k="ssr:stedsnr" v="821022" />
		<tag k="waterway" v="stream" />
	</node>
	<node id="-104607" lat="62.8947555526" lon="7.0325388897">
>>>>>>> e1d4bc35ff8a6074a6f2e91616a996b547c36f15
		<tag k="name" v="Rottjørna" />
		<tag k="natural" v="water" />
		<tag k="ssr:stedsnr" v="800162" />
	</node>
<<<<<<< HEAD
	<node lat="62.877944445666735" lon="7.242344440851563" id="-6438">
		<tag k="name" v="Seterelva" />
		<tag k="ssr:stedsnr" v="800643" />
		<tag k="waterway" v="stream" />
	</node>
	<node lat="62.88109444850169" lon="7.271341676171675" id="-6439">
		<tag k="name" v="Trolldalselva" />
		<tag k="ssr:stedsnr" v="800644" />
		<tag k="waterway" v="stream" />
	</node>
	<node lat="62.76616389014795" lon="7.056188895929492" id="-6462">
		<tag k="name" v="Tverrlivatnet" />
=======
	<node id="-106651" lat="62.8283333359" lon="7.3165333427">
		<tag k="name" v="Kleivgrova" />
		<tag k="ssr:stedsnr" v="824853" />
		<tag k="waterway" v="stream" />
	</node>
	<node id="-104602" lat="62.801141664" lon="7.33716944276">
		<tag k="name" v="Skarvatnet" />
>>>>>>> e1d4bc35ff8a6074a6f2e91616a996b547c36f15
		<tag k="natural" v="water" />
		<tag k="ssr:stedsnr" v="821896" />
		<tag k="water" v="lake" />
	</node>
<<<<<<< HEAD
	<node lat="62.86033610908477" lon="7.1141138927175955" id="-6465">
		<tag k="name" v="Litlevassløken" />
		<tag k="ssr:stedsnr" v="823525" />
		<tag k="waterway" v="stream" />
	</node>
	<node lat="62.87764444051333" lon="7.144619439352546" id="-6467">
		<tag k="name" v="Prestelva" />
		<tag k="ssr:stedsnr" v="823631" />
		<tag k="waterway" v="river" />
	</node>
	<node lat="62.98142499766939" lon="7.1916333424625565" id="-6471">
		<tag k="name" v="Sandvikelva" />
		<tag k="ssr:stedsnr" v="824793" />
		<tag k="waterway" v="river" />
	</node>
	<node lat="62.973299999335964" lon="7.211980559818338" id="-6472">
=======
	<node id="-106649" lat="62.9090388849" lon="7.57443610534">
		<tag k="name" v="Galtelva" />
		<tag k="ssr:stedsnr" v="824750" />
		<tag k="waterway" v="river" />
	</node>
	<node id="-106521" lat="62.9116083326" lon="7.17886943537">
		<tag k="name" v="Holgrova" />
		<tag k="ssr:stedsnr" v="763982" />
		<tag k="waterway" v="stream" />
	</node>
	<node id="-106642" lat="62.9732999993" lon="7.21198055982">
>>>>>>> e1d4bc35ff8a6074a6f2e91616a996b547c36f15
		<tag k="name" v="Sjurvasselva" />
		<tag k="ssr:stedsnr" v="824795" />
		<tag k="waterway" v="stream" />
	</node>
<<<<<<< HEAD
	<node lat="62.919800001921416" lon="7.443200008576487" id="-6480">
		<tag k="name" v="Lysgårdbekken" />
		<tag k="ssr:stedsnr" v="824400" />
		<tag k="waterway" v="stream" />
	</node>
	<node lat="62.904413892343165" lon="7.448888881077817" id="-6483">
		<tag k="name" v="Holmsundet" />
		<tag k="natural" v="strait" />
		<tag k="ssr:stedsnr" v="824357" />
	</node>
	<node lat="62.906158332994146" lon="7.442713885703732" id="-6490">
		<tag k="name" v="Bytneset" />
		<tag k="natural" v="cape" />
		<tag k="ssr:stedsnr" v="824460" />
	</node>
	<node lat="62.89888055995568" lon="7.094194443411369" id="-6501">
		<tag k="name" v="Botnaelva" />
		<tag k="ssr:stedsnr" v="824639" />
		<tag k="waterway" v="stream" />
	</node>
	<node lat="62.88701388556313" lon="7.0206833302283576" id="-6508">
		<tag k="name" v="Tverrelva" />
		<tag k="ssr:stedsnr" v="824553" />
		<tag k="waterway" v="river" />
	</node>
	<node lat="62.828333335927" lon="7.3165333426992145" id="-6513">
		<tag k="name" v="Kleivgrova" />
		<tag k="ssr:stedsnr" v="824853" />
		<tag k="waterway" v="stream" />
	</node>
	<node lat="62.86146388733358" lon="7.1208388842677115" id="-6540">
		<tag k="name" v="Litlevatnet" />
		<tag k="natural" v="water" />
		<tag k="ssr:stedsnr" v="861220" />
	</node>
	<node lat="62.94017778044838" lon="7.3594166755866945" id="-6542">
		<tag k="name" v="Lyngstadvatnet" />
		<tag k="natural" v="water" />
		<tag k="ssr:stedsnr" v="861497" />
		<tag k="water" v="lake" />
	</node>
	<node lat="62.910777779167134" lon="7.336413882574959" id="-6544">
		<tag k="name" v="Sandneset" />
		<tag k="natural" v="cape" />
		<tag k="ssr:stedsnr" v="861552" />
	</node>
	<node lat="62.78617221854669" lon="7.056705558069795" id="-6558">
		<tag k="name" v="Sagelva" />
		<tag k="ssr:stedsnr" v="861843" />
		<tag k="waterway" v="stream" />
	</node>
	<node lat="62.77605833494847" lon="7.036419441674071" id="-6563">
		<tag k="name" v="Liatjørna" />
		<tag k="natural" v="water" />
		<tag k="ssr:stedsnr" v="861860" />
	</node>
	<node lat="62.77621944467506" lon="7.091355560154497" id="-6584">
		<tag k="name" v="Fosselva" />
		<tag k="ssr:stedsnr" v="881873" />
		<tag k="waterway" v="stream" />
	</node>
	<node lat="62.77515832931736" lon="7.11337222098955" id="-6585">
		<tag k="name" v="Grønegrova" />
		<tag k="ssr:stedsnr" v="881876" />
		<tag k="waterway" v="stream" />
	</node>
	<node lat="62.82696666352967" lon="7.362038880994024" id="-6586">
		<tag k="name" v="Litle Gjengkleivvatnet" />
=======
	<node id="-106641" lat="62.9814249977" lon="7.19163334246">
		<tag k="name" v="Sandvikelva" />
		<tag k="ssr:stedsnr" v="824793" />
		<tag k="waterway" v="river" />
	</node>
	<node id="-105837" lat="62.9092194429" lon="7.26226388883">
		<tag k="name" v="Seterdalselva" />
		<tag k="ssr:stedsnr" v="399854" />
		<tag k="waterway" v="stream" />
	</node>
	<node id="-104586" lat="62.8852916631" lon="7.48624444385">
		<tag k="alt_name" v="Sorsetelva;Øyelva" />
		<tag k="name" v="Ådalselva" />
		<tag k="ssr:stedsnr" v="922621" />
		<tag k="waterway" v="river" />
	</node>
	<node id="-106617" lat="62.9747999989" lon="7.27573611393">
		<tag k="name" v="Svelløken" />
		<tag k="ssr:stedsnr" v="824328" />
		<tag k="waterway" v="stream" />
	</node>
	<node id="-104568" lat="62.9692444462" lon="7.1664166575">
		<tag k="name" v="Farstadelva" />
		<tag k="ssr:stedsnr" v="922023" />
		<tag k="waterway" v="stream" />
	</node>
	<node id="-104562" lat="62.7812611121" lon="7.02011666905">
		<tag k="alt_name" v="Hundetjønna" />
		<tag k="name" v="Hundediket" />
		<tag k="natural" v="water" />
		<tag k="ssr:stedsnr" v="921857" />
	</node>
	<node id="-104561" lat="62.7810611118" lon="7.05525832851">
		<tag k="name" v="Øykjesåsvatnet" />
>>>>>>> e1d4bc35ff8a6074a6f2e91616a996b547c36f15
		<tag k="natural" v="water" />
		<tag k="ssr:stedsnr" v="884816" />
	</node>
<<<<<<< HEAD
	<node lat="62.95208889255447" lon="7.39068888081552" id="-6599">
		<tag k="name" v="Visneselva" />
		<tag k="ssr:stedsnr" v="884321" />
		<tag k="waterway" v="stream" />
	</node>
	<node lat="62.96831111467409" lon="7.317288881191759" id="-6609">
		<tag k="name" v="Reitaelva" />
		<tag k="ssr:stedsnr" v="884225" />
		<tag k="waterway" v="stream" />
	</node>
	<node lat="62.770508337624634" lon="7.046847226350156" id="-6616">
		<tag k="name" v="Tverrlielva" />
		<tag k="ssr:stedsnr" v="884389" />
		<tag k="waterway" v="stream" />
	</node>
	<node lat="62.787530558193254" lon="7.03789723108929" id="-6617">
		<tag k="name" v="Hjelltjønna" />
		<tag k="natural" v="water" />
		<tag k="ssr:stedsnr" v="884391" />
	</node>
	<node lat="62.88014167031409" lon="7.130752775400554" id="-6631">
		<tag k="name" v="Svarthauggrova" />
		<tag k="ssr:stedsnr" v="884630" />
		<tag k="waterway" v="stream" />
	</node>
	<node lat="62.88127777851247" lon="7.234552787057401" id="-6638">
		<tag k="name" v="Hommeldalselva" />
		<tag k="ssr:stedsnr" v="884763" />
		<tag k="waterway" v="stream" />
	</node>
	<node lat="62.80492500308002" lon="7.390936101482167" id="-6640">
		<tag k="name" v="Hyttegrova" />
		<tag k="ssr:stedsnr" v="884780" />
		<tag k="waterway" v="stream" />
	</node>
	<node lat="62.80037500297762" lon="7.264683338017395" id="-6643">
		<tag k="name" v="Tverrelva" />
		<tag k="ssr:stedsnr" v="884723" />
		<tag k="waterway" v="stream" />
	</node>
	<node lat="62.802961114149205" lon="7.271277776375503" id="-6644">
		<tag k="name" v="Nedre Klompvatnet" />
		<tag k="natural" v="water" />
		<tag k="ssr:stedsnr" v="884726" />
	</node>
	<node lat="62.98142499551846" lon="7.191580549925573" id="-6646">
		<tag k="name" v="Sandvikgrova" />
		<tag k="ssr:stedsnr" v="884736" />
		<tag k="waterway" v="river" />
	</node>
	<node lat="62.796555558791695" lon="7.226183329469615" id="-6662">
		<tag k="name" v="Litlefossen" />
		<tag k="natural" v="waterfall" />
		<tag k="ssr:stedsnr" v="942821" />
	</node>
	<node lat="62.79384444312774" lon="7.227036119624406" id="-6663">
		<tag k="name" v="Storfossen" />
		<tag k="natural" v="waterfall" />
		<tag k="ssr:stedsnr" v="942822" />
	</node>
	<node lat="62.93582499632223" lon="7.37972222212169" id="-6671">
		<tag k="name" v="Sisselielva" />
		<tag k="ssr:stedsnr" v="944427" />
		<tag k="waterway" v="stream" />
	</node>
	<node lat="62.91508333460536" lon="7.327619452043357" id="-6672">
		<tag k="name" v="Kolmyrneset" />
		<tag k="natural" v="cape" />
		<tag k="ssr:stedsnr" v="945248" />
	</node>
	<node lat="62.93562500035376" lon="7.372127782976568" id="-6673">
		<tag k="name" v="Sisselielva" />
		<tag k="ssr:stedsnr" v="945257" />
		<tag k="waterway" v="stream" />
	</node>
	<node lat="62.98701944712915" lon="7.283597228752191" id="-6674">
		<tag k="name" v="Rømmløken" />
		<tag k="ssr:stedsnr" v="945266" />
		<tag k="waterway" v="stream" />
	</node>
	<node lat="62.98280278216208" lon="7.277858324956977" id="-6675">
		<tag k="name" v="Krokneset" />
		<tag k="natural" v="cape" />
		<tag k="ssr:stedsnr" v="945268" />
	</node>
	<node lat="62.86884722323464" lon="7.359527775404911" id="-6690">
		<tag k="name" v="Litlvasselva" />
		<tag k="ssr:stedsnr" v="945226" />
		<tag k="waterway" v="stream" />
	</node>
	<node lat="62.91762777900682" lon="7.108925002682056" id="-6705">
		<tag k="name" v="Hjerteløken" />
		<tag k="ssr:stedsnr" v="945576" />
		<tag k="waterway" v="stream" />
	</node>
	<node lat="62.975719447716386" lon="7.219069443764108" id="-6711">
		<tag k="name" v="Solbakkelva" />
		<tag k="ssr:stedsnr" v="945723" />
		<tag k="waterway" v="stream" />
	</node>
	<node lat="62.82097777389912" lon="7.390616660446693" id="-6712">
		<tag k="name" v="Tverrfjelltjønna" />
		<tag k="natural" v="water" />
		<tag k="ssr:stedsnr" v="945799" />
	</node>
	<node lat="62.96125277535986" lon="7.206924994385986" id="-6721">
		<tag k="name" v="Rødalselva" />
		<tag k="ssr:stedsnr" v="945753" />
		<tag k="waterway" v="stream" />
	</node>
	<node lat="62.852983334488734" lon="7.247805562262186" id="-6723">
		<tag k="name" v="Kalvøyhølen" />
		<tag k="place" v="locality" />
		<tag k="ssr:stedsnr" v="945774" />
	</node>
	<node lat="62.84637499888892" lon="7.368186109241895" id="-6725">
		<tag k="name" v="Trondalsvatnet" />
		<tag k="natural" v="water" />
		<tag k="ssr:stedsnr" v="945848" />
		<tag k="water" v="lake" />
=======
	<node id="-106608" lat="62.9198000019" lon="7.44320000858">
		<tag k="name" v="Lysgårdbekken" />
		<tag k="ssr:stedsnr" v="824400" />
		<tag k="waterway" v="stream" />
	</node>
	<node id="-104554" lat="62.9456666668" lon="7.40664999104">
		<tag k="name" v="Djupdalsbekken" />
		<tag k="ssr:stedsnr" v="921547" />
		<tag k="waterway" v="stream" />
	</node>
	<node id="-106601" lat="62.9345416678" lon="7.30851944665">
		<tag k="name" v="Skottenbekken" />
		<tag k="ssr:stedsnr" v="824297" />
		<tag k="waterway" v="stream" />
	</node>
	<node id="-106598" lat="62.8710138879" lon="7.32253055756">
		<tag k="name" v="Setertunga" />
		<tag k="natural" v="cape" />
		<tag k="ssr:stedsnr" v="824274" />
	</node>
	<node id="-106593" lat="62.8776444405" lon="7.14461943935">
		<tag k="name" v="Prestelva" />
		<tag k="ssr:stedsnr" v="823631" />
		<tag k="waterway" v="river" />
	</node>
	<node id="-106591" lat="62.7661638901" lon="7.05618889593">
		<tag k="name" v="Tverrlivatnet" />
		<tag k="natural" v="water" />
		<tag k="ssr:stedsnr" v="821896" />
		<tag k="water" v="lake" />
	</node>
	<node id="-104537" lat="62.8866888888" lon="7.1302083388">
		<tag k="name" v="Stordalselva" />
		<tag k="ssr:stedsnr" v="763662" />
		<tag k="waterway" v="stream" />
	</node>
	<node id="-104534" lat="62.8137638892" lon="7.12734999456">
		<tag k="name" v="Igletjønna" />
		<tag k="natural" v="water" />
		<tag k="ssr:stedsnr" v="763611" />
	</node>
	<node id="-104520" lat="62.9018611091" lon="7.44822221998">
		<tag k="name" v="Smibukta" />
		<tag k="natural" v="bay" />
		<tag k="ssr:stedsnr" v="763472" />
	</node>
	<node id="-106561" lat="62.8352333354" lon="7.21502778017">
		<tag k="alt_name" v="Rødalselva" />
		<tag k="name" v="Sylteelva" />
		<tag k="ssr:stedsnr" v="800726" />
		<tag k="waterway" v="river" />
	</node>
	<node id="-106558" lat="62.8810944485" lon="7.27134167617">
		<tag k="name" v="Trolldalselva" />
		<tag k="ssr:stedsnr" v="800644" />
		<tag k="waterway" v="stream" />
	</node>
	<node id="-106557" lat="62.8779444457" lon="7.24234444085">
		<tag k="name" v="Seterelva" />
		<tag k="ssr:stedsnr" v="800643" />
		<tag k="waterway" v="stream" />
	</node>
	<node id="-104501" lat="62.912322219" lon="7.27718610522">
		<tag k="name" v="Tretteidet" />
		<tag k="natural" v="strait" />
		<tag k="ssr:stedsnr" v="748873" />
	</node>
	<node id="-104497" lat="62.7610944407" lon="7.09085277268">
		<tag k="name" v="Svarttjørna" />
		<tag k="natural" v="water" />
		<tag k="ssr:stedsnr" v="740858" />
	</node>
	<node id="-104495" lat="62.8614944483" lon="7.48485555757">
		<tag k="name" v="Tussvatnet" />
		<tag k="natural" v="water" />
		<tag k="ssr:stedsnr" v="740663" />
	</node>
	<node id="-106524" lat="62.7866638921" lon="6.99269722855">
		<tag k="name" v="Storelva" />
		<tag k="ssr:stedsnr" v="764243" />
		<tag k="waterway" v="stream" />
	</node>
	<node id="-104473" lat="62.8875111068" lon="7.4363611069">
		<tag k="name" v="Vasskorvatnet" />
		<tag k="natural" v="water" />
		<tag k="ssr:stedsnr" v="739606" />
		<tag k="water" v="lake" />
	</node>
	<node id="-106514" lat="62.9032055552" lon="7.25706944164">
		<tag k="name" v="Røsliløken" />
		<tag k="ssr:stedsnr" v="763851" />
		<tag k="waterway" v="stream" />
	</node>
	<node id="-106513" lat="62.8750583317" lon="7.29077222053">
		<tag k="name" v="Sylt-Ola-Hølen" />
		<tag k="place" v="locality" />
		<tag k="ssr:stedsnr" v="763847" />
	</node>
	<node id="-106512" lat="62.8546583305" lon="7.25108611261">
		<tag k="name" v="Anderselva" />
		<tag k="ssr:stedsnr" v="763791" />
		<tag k="waterway" v="stream" />
	</node>
	<node id="-106510" lat="62.803694443" lon="7.33575278761">
		<tag k="name" v="Skargrova" />
		<tag k="ssr:stedsnr" v="763765" />
		<tag k="waterway" v="stream" />
	</node>
	<node id="-106157" lat="62.862613889" lon="7.40667778659">
		<tag k="name" v="Surndalselva" />
		<tag k="ssr:stedsnr" v="581430" />
		<tag k="waterway" v="stream" />
	</node>
	<node id="-106498" lat="62.8226583294" lon="7.0671638898">
		<tag k="name" v="Gjertrudtjønna" />
		<tag k="natural" v="water" />
		<tag k="ssr:stedsnr" v="763586" />
	</node>
	<node id="-104458" lat="62.8049250031" lon="7.39093610148">
		<tag k="name" v="Hyttegrova" />
		<tag k="ssr:stedsnr" v="702814" />
		<tag k="waterway" v="stream" />
	</node>
	<node id="-104450" lat="62.8501777761" lon="7.01611667607">
		<tag k="name" v="Sandvikløken" />
		<tag k="ssr:stedsnr" v="702415" />
		<tag k="waterway" v="stream" />
>>>>>>> e1d4bc35ff8a6074a6f2e91616a996b547c36f15
	</node>
</osm>
