<?xml version="1.0" encoding="UTF-8"?>
<osm version="0.6" generator="osmapis">
	<node lat="62.95502500258575" lon="7.1644472266488775" id="-10957">
		<tag k="name" v="Myrvang" />
		<tag k="place" v="farm" />
		<tag k="ssr:stedsnr" v="12002" />
	</node>
	<node lat="62.95714444554512" lon="7.170052787138257" id="-10958">
		<tag k="name" v="Myrvoll" />
		<tag k="place" v="farm" />
		<tag k="ssr:stedsnr" v="12006" />
	</node>
	<node lat="62.92884166874871" lon="7.073238890277333" id="-10959">
		<tag k="name" v="Myrvang" />
		<tag k="place" v="farm" />
		<tag k="ssr:stedsnr" v="12107" />
	</node>
	<node lat="62.795325002960105" lon="7.26356667131676" id="-10961">
		<tag k="name" v="Gjerdet" />
		<tag k="place" v="farm" />
		<tag k="ssr:stedsnr" v="12770" />
	</node>
	<node lat="62.991049999439056" lon="7.176058324333438" id="-10978">
		<tag k="name" v="Grova" />
		<tag k="place" v="farm" />
		<tag k="ssr:stedsnr" v="35063" />
	</node>
	<node lat="62.7916833332037" lon="7.006063897938309" id="-10984">
		<tag k="name" v="Jendemsgjerdet" />
		<tag k="place" v="farm" />
		<tag k="ssr:stedsnr" v="35508" />
	</node>
	<node lat="62.99429166769317" lon="7.201797222726621" id="-11005">
		<tag k="name" v="Sjånesberget" />
		<tag k="place" v="farm" />
		<tag k="ssr:stedsnr" v="35812" />
	</node>
	<node lat="62.814586109878306" lon="7.236333339133518" id="-11006">
		<tag k="name" v="Ytre Julset" />
		<tag k="place" v="farm" />
		<tag k="ssr:stedsnr" v="35814" />
	</node>
	<node lat="62.850972225786506" lon="7.115613888667609" id="-11021">
		<tag k="name" v="Rønningen" />
		<tag k="place" v="farm" />
		<tag k="ssr:stedsnr" v="72206" />
	</node>
	<node lat="62.85148333763789" lon="7.175058337667251" id="-11023">
		<tag k="name" v="Skardet" />
		<tag k="place" v="farm" />
		<tag k="ssr:stedsnr" v="72211" />
	</node>
	<node lat="62.8640388893081" lon="7.012694442959486" id="-11024">
		<tag k="name" v="Remma" />
		<tag k="place" v="farm" />
		<tag k="ssr:stedsnr" v="72116" />
	</node>
	<node lat="62.85654167117707" lon="7.261880560389464" id="-11032">
		<tag k="name" v="Brandshol" />
		<tag k="place" v="farm" />
		<tag k="ssr:stedsnr" v="72612" />
	</node>
	<node lat="62.77831710811905" lon="7.062251887595945" id="-11034">
		<tag k="fixme" v="consider place=hamlet" />
		<tag k="name" v="Åndal" />
		<tag k="place" v="farm" />
		<tag k="ssr:stedsnr" v="72829" />
	</node>
	<node lat="62.95357778176899" lon="7.142888879499209" id="-11036">
		<tag k="name" v="Hol" />
		<tag k="place" v="farm" />
		<tag k="ssr:stedsnr" v="73009" />
	</node>
	<node lat="62.96050833530997" lon="7.057388883703219" id="-11037">
		<tag k="name" v="Lindset" />
		<tag k="place" v="farm" />
		<tag k="ssr:stedsnr" v="73015" />
	</node>
	<node lat="62.96367222660022" lon="7.10790833519282" id="-11038">
		<tag k="name" v="Litleremma" />
		<tag k="place" v="farm" />
		<tag k="ssr:stedsnr" v="73022" />
	</node>
	<node lat="62.96139444683729" lon="7.074980553267917" id="-11039">
		<tag k="alt_name" v="Bjørsnos" />
		<tag k="name" v="Myrvoll" />
		<tag k="place" v="farm" />
		<tag k="ssr:stedsnr" v="73023" />
	</node>
	<node lat="62.95257499798364" lon="7.347661110045885" id="-11040">
		<tag k="name" v="Lyngstadgjerdet" />
		<tag k="place" v="farm" />
		<tag k="ssr:stedsnr" v="72962" />
	</node>
	<node lat="62.92517500094872" lon="7.088155550039557" id="-11041">
		<tag k="name" v="Rydjatun" />
		<tag k="place" v="farm" />
		<tag k="ssr:stedsnr" v="73101" />
	</node>
	<node lat="62.83354877223618" lon="7.241253777872424" id="-11045">
		<tag k="alt_name" v="Rødset" />
		<tag k="fixme" v="consider place=hamlet" />
		<tag k="name" v="Røset" />
		<tag k="place" v="farm" />
		<tag k="ssr:stedsnr" v="73726" />
	</node>
	<node lat="62.8091631459869" lon="7.247087082859317" id="-11047">
		<tag k="fixme" v="consider place=hamlet" />
		<tag k="name" v="Julset" />
		<tag k="place" v="farm" />
		<tag k="ssr:stedsnr" v="73733" />
	</node>
	<node lat="62.90326666341729" lon="7.180863884193995" id="-11079">
		<tag k="name" v="Nøsahaugen" />
		<tag k="place" v="farm" />
		<tag k="ssr:stedsnr" v="95602" />
	</node>
	<node lat="62.78273332974845" lon="7.054844446508213" id="-11094">
		<tag k="name" v="Sagmo" />
		<tag k="place" v="farm" />
		<tag k="ssr:stedsnr" v="96010" />
	</node>
	<node lat="62.99359508681067" lon="7.16339977949753" id="-11095">
		<tag k="fixme" v="consider place=hamlet" />
		<tag k="name" v="Julshamn" />
		<tag k="place" v="farm" />
		<tag k="ssr:stedsnr" v="96014" />
	</node>
	<node lat="62.89912554462348" lon="7.442930566534758" id="-11101">
		<tag k="fixme" v="consider place=hamlet" />
		<tag k="name" v="Einset" />
		<tag k="place" v="farm" />
		<tag k="ssr:stedsnr" v="96165" />
	</node>
	<node lat="62.8431260778718" lon="7.077124073445658" id="-11105">
		<tag k="fixme" v="consider place=hamlet" />
		<tag k="name" v="Løset" />
		<tag k="place" v="farm" />
		<tag k="ssr:stedsnr" v="97775" />
	</node>
	<node lat="62.95099074198454" lon="7.41511545394378" id="-11114">
		<tag k="name" v="Lindset" />
		<tag k="place" v="locality" />
		<tag k="ssr:stedsnr" v="118648" />
	</node>
	<node lat="62.85280278185247" lon="7.219933323886112" id="-11124">
		<tag k="name" v="Nordbakk" />
		<tag k="place" v="farm" />
		<tag k="ssr:stedsnr" v="132684" />
	</node>
	<node lat="62.94653055690099" lon="7.150588892481189" id="-11126">
		<tag k="name" v="Rørset" />
		<tag k="place" v="farm" />
		<tag k="ssr:stedsnr" v="133107" />
	</node>
	<node lat="62.92256944599049" lon="6.972191669785758" id="-11137">
		<tag k="name" v="Solheim" />
		<tag k="place" v="farm" />
		<tag k="ssr:stedsnr" v="134111" />
	</node>
	<node lat="62.85553888536079" lon="7.197877769298867" id="-11141">
		<tag k="name" v="Nyheim" />
		<tag k="place" v="farm" />
		<tag k="ssr:stedsnr" v="254199" />
	</node>
	<node lat="62.844461113402296" lon="7.028988884811986" id="-11149">
		<tag k="name" v="Rotheim" />
		<tag k="place" v="farm" />
		<tag k="ssr:stedsnr" v="254205" />
	</node>
	<node lat="62.86306259295504" lon="7.075720349939188" id="-11151">
		<tag k="fixme" v="consider place=hamlet" />
		<tag k="name" v="Ås" />
		<tag k="place" v="farm" />
		<tag k="ssr:stedsnr" v="254213" />
	</node>
	<node lat="62.93490278053614" lon="7.33425555813128" id="-11152">
		<tag k="name" v="Hjellmyra" />
		<tag k="place" v="farm" />
		<tag k="ssr:stedsnr" v="254482" />
	</node>
	<node lat="62.834338893092465" lon="7.210191665470215" id="-11159">
		<tag k="name" v="Flatmo" />
		<tag k="place" v="farm" />
		<tag k="ssr:stedsnr" v="254726" />
	</node>
	<node lat="62.81295213368162" lon="7.0943881051822375" id="-11164">
		<tag k="fixme" v="consider place=hamlet" />
		<tag k="name" v="Aure" />
		<tag k="place" v="farm" />
		<tag k="ssr:stedsnr" v="254758" />
	</node>
	<node lat="62.975019442938155" lon="7.161477780507952" id="-11168">
		<tag k="fixme" v="consider place=hamlet" />
		<tag k="name" v="Farstad" />
		<tag k="place" v="village" />
		<tag k="ssr:stedsnr" v="255040" />
	</node>
	<node lat="62.94461666936025" lon="7.3115694360602665" id="-11169">
		<tag k="name" v="Barkongla" />
		<tag k="place" v="isolated_dwelling" />
		<tag k="ssr:stedsnr" v="254998" />
	</node>
	<node lat="62.948027781179995" lon="7.028350007390496" id="-11173">
		<tag k="name" v="Leirheim" />
		<tag k="place" v="farm" />
		<tag k="ssr:stedsnr" v="255136" />
	</node>
	<node lat="62.81504721781723" lon="7.219586103861062" id="-11185">
		<tag k="name" v="Sletta" />
		<tag k="place" v="farm" />
		<tag k="ssr:stedsnr" v="255756" />
	</node>
	<node lat="62.85595555819519" lon="7.178113897865246" id="-11194">
		<tag k="name" v="Dale" />
		<tag k="place" v="farm" />
		<tag k="ssr:stedsnr" v="156005" />
	</node>
	<node lat="62.969036108572475" lon="7.144658335744699" id="-11195">
		<tag k="name" v="Solvang" />
		<tag k="place" v="farm" />
		<tag k="ssr:stedsnr" v="156012" />
	</node>
	<node lat="62.90501111120294" lon="6.92311388026679" id="-11196">
		<tag k="name" v="Myra" />
		<tag k="place" v="farm" />
		<tag k="ssr:stedsnr" v="156021" />
	</node>
	<node lat="62.83706666396839" lon="7.24064165988361" id="-11197">
		<tag k="name" v="Trøan" />
		<tag k="place" v="farm" />
		<tag k="ssr:stedsnr" v="156028" />
	</node>
	<node lat="62.98236944739376" lon="7.162291671103975" id="-11198">
		<tag k="name" v="Hagen" />
		<tag k="place" v="farm" />
		<tag k="ssr:stedsnr" v="156048" />
	</node>
	<node lat="62.981094446832" lon="7.135875002735246" id="-11199">
		<tag k="name" v="Solåsen" />
		<tag k="place" v="farm" />
		<tag k="ssr:stedsnr" v="156053" />
	</node>
	<node lat="62.93844587027971" lon="7.204613583232847" id="-11200">
		<tag k="fixme" v="consider place=hamlet" />
		<tag k="name" v="Ekren" />
		<tag k="place" v="farm" />
		<tag k="ssr:stedsnr" v="156060" />
	</node>
	<node lat="62.89314613688697" lon="6.826591111621335" id="-11250">
		<tag k="alt_name" v="Bjørnsund, Nørdre" />
		<tag k="name" v="Nørdre Bjørnsund" />
		<tag k="place" v="hamlet" />
		<tag k="ssr:stedsnr" v="262131" />
	</node>
	<node lat="62.79233239264829" lon="7.0374601225229085" id="-11260">
		<tag k="fixme" v="consider place=hamlet" />
		<tag k="name" v="Helset" />
		<tag k="place" v="farm" />
		<tag k="ssr:stedsnr" v="216012" />
	</node>
	<node lat="62.85031389190768" lon="7.162044450099684" id="-11263">
		<tag k="name" v="Naustvollen" />
		<tag k="place" v="farm" />
		<tag k="ssr:stedsnr" v="217005" />
	</node>
	<node lat="62.970602777543895" lon="7.089938895438527" id="-11305">
		<tag k="name" v="Berget" />
		<tag k="place" v="locality" />
		<tag k="ssr:stedsnr" v="217972" />
	</node>
	<node lat="62.94301388958812" lon="7.013236108163869" id="-11309">
		<tag k="name" v="Remmen" />
		<tag k="place" v="farm" />
		<tag k="ssr:stedsnr" v="231634" />
	</node>
	<node lat="62.97201389310848" lon="7.101372229042731" id="-11313">
		<tag k="name" v="Nerlandsvika" />
		<tag k="place" v="farm" />
		<tag k="ssr:stedsnr" v="232646" />
	</node>
	<node lat="62.963872224667405" lon="7.050597231825971" id="-11317">
		<tag k="name" v="Askevåg" />
		<tag k="place" v="farm" />
		<tag k="ssr:stedsnr" v="239331" />
	</node>
	<node lat="62.83909167073014" lon="7.012986106385126" id="-11320">
		<tag k="name" v="Kvilheim" />
		<tag k="place" v="farm" />
		<tag k="ssr:stedsnr" v="254172" />
	</node>
	<node lat="62.84751132195128" lon="7.098168471418947" id="-11322">
		<tag k="fixme" v="consider place=hamlet" />
		<tag k="name" v="Håset" />
		<tag k="place" v="farm" />
		<tag k="ssr:stedsnr" v="254186" />
	</node>
	<node lat="62.84834444576195" lon="7.179377779093589" id="-11323">
		<tag k="name" v="Vågavangen" />
		<tag k="place" v="farm" />
		<tag k="ssr:stedsnr" v="254187" />
	</node>
	<node lat="62.91207222660204" lon="7.232047218307346" id="-11324">
		<tag k="name" v="Grønset" />
		<tag k="place" v="farm" />
		<tag k="ssr:stedsnr" v="254520" />
	</node>
	<node lat="62.86028889243194" lon="7.268005558326891" id="-11325">
		<tag k="name" v="Stølen" />
		<tag k="place" v="farm" />
		<tag k="ssr:stedsnr" v="254609" />
	</node>
	<node lat="62.96129444515932" lon="7.167466663107992" id="-11332">
		<tag k="alt_name" v="Tjønneland" />
		<tag k="name" v="Tjørneland" />
		<tag k="place" v="farm" />
		<tag k="ssr:stedsnr" v="255006" />
	</node>
	<node lat="62.954444440558404" lon="7.02880554752549" id="-11333">
		<tag k="name" v="Myrabø" />
		<tag k="place" v="isolated_dwelling" />
		<tag k="ssr:stedsnr" v="255014" />
	</node>
	<node lat="62.96699998562757" lon="7.068711873666025" id="-11336">
		<tag k="fixme" v="consider place=hamlet" />
		<tag k="name" v="Male" />
		<tag k="place" v="farm" />
		<tag k="ssr:stedsnr" v="255027" />
	</node>
	<node lat="62.9274193692307" lon="7.108147459080482" id="-11339">
		<tag k="fixme" v="consider place=hamlet" />
		<tag k="name" v="Gammelsetra" />
		<tag k="place" v="farm" />
		<tag k="ssr:stedsnr" v="255115" />
	</node>
	<node lat="62.78954167067077" lon="7.029066666774883" id="-11356">
		<tag k="name" v="Risholen" />
		<tag k="place" v="farm" />
		<tag k="ssr:stedsnr" v="459017" />
	</node>
	<node lat="62.94422222511864" lon="7.364894452491205" id="-11389">
		<tag k="name" v="Vikasetra" />
		<tag k="place" v="locality" />
		<tag k="ssr:stedsnr" v="277227" />
	</node>
	<node lat="62.89561666663603" lon="7.4896416594209585" id="-11393">
		<tag k="name" v="Sorsetsetra" />
		<tag k="place" v="locality" />
		<tag k="ssr:stedsnr" v="277303" />
	</node>
	<node lat="62.908180558961455" lon="6.9260083424386805" id="-11401">
		<tag k="name" v="Persengjerdet" />
		<tag k="place" v="farm" />
		<tag k="ssr:stedsnr" v="277336" />
	</node>
	<node lat="62.92105555548376" lon="7.119572224757574" id="-11436">
		<tag k="name" v="Stølen" />
		<tag k="place" v="locality" />
		<tag k="ssr:stedsnr" v="277983" />
	</node>
	<node lat="62.96883889266374" lon="7.149561117885483" id="-11437">
		<tag k="name" v="Leite" />
		<tag k="place" v="farm" />
		<tag k="ssr:stedsnr" v="278019" />
	</node>
	<node lat="62.877180554118404" lon="7.003486105529753" id="-11441">
		<tag k="name" v="Botnateigen" />
		<tag k="place" v="farm" />
		<tag k="ssr:stedsnr" v="460030" />
	</node>
	<node lat="62.901083329573225" lon="6.961069441636448" id="-11442">
		<tag k="name" v="Grunnhaugen" />
		<tag k="place" v="farm" />
		<tag k="ssr:stedsnr" v="460033" />
	</node>
	<node lat="62.903891663832226" lon="6.9585444515309245" id="-11443">
		<tag k="name" v="Øvre Gule" />
		<tag k="place" v="farm" />
		<tag k="ssr:stedsnr" v="460035" />
	</node>
	<node lat="62.86538888460642" lon="7.2737027792119235" id="-11444">
		<tag k="name" v="Kolbergstølen" />
		<tag k="place" v="isolated_dwelling" />
		<tag k="ssr:stedsnr" v="460041" />
	</node>
	<node lat="62.91028889079839" lon="6.9216361152517845" id="-11452">
		<tag k="name" v="Skreddargjerdet" />
		<tag k="place" v="farm" />
		<tag k="ssr:stedsnr" v="460075" />
	</node>
	<node lat="62.884288888501565" lon="7.401763883665035" id="-11456">
		<tag k="name" v="Markus-setra" />
		<tag k="place" v="locality" />
		<tag k="ssr:stedsnr" v="460387" />
	</node>
	<node lat="62.92412221852522" lon="7.404908336036761" id="-11457">
		<tag k="name" v="Vikasetra" />
		<tag k="place" v="locality" />
		<tag k="ssr:stedsnr" v="460435" />
	</node>
	<node lat="62.90970278209065" lon="6.924944442712871" id="-11480">
		<tag k="name" v="Mortensgjerdet" />
		<tag k="place" v="farm" />
		<tag k="ssr:stedsnr" v="460833" />
	</node>
	<node lat="62.9084298868695" lon="7.524960935381871" id="-11496">
		<tag k="alt_name" v="Lillemyren" />
		<tag k="name" v="Litlmyra" />
		<tag k="place" v="farm" />
		<tag k="ssr:stedsnr" v="302705" />
	</node>
	<node lat="62.95740000056358" lon="7.162622227053249" id="-11503">
		<tag k="name" v="Almås" />
		<tag k="place" v="farm" />
		<tag k="ssr:stedsnr" v="315010" />
	</node>
	<node lat="62.96031111120029" lon="7.156680548373707" id="-11504">
		<tag k="name" v="Einset" />
		<tag k="place" v="farm" />
		<tag k="ssr:stedsnr" v="315011" />
	</node>
	<node lat="62.88985277643797" lon="6.995030565112552" id="-11506">
		<tag k="name" v="Øverland" />
		<tag k="place" v="farm" />
		<tag k="ssr:stedsnr" v="315155" />
	</node>
	<node lat="62.89019721885863" lon="6.98883054922174" id="-11507">
		<tag k="alt_name" v="Vestadskaret" />
		<tag k="name" v="Skardet" />
		<tag k="place" v="farm" />
		<tag k="ssr:stedsnr" v="315157" />
	</node>
	<node lat="62.98371666430991" lon="7.160422227413691" id="-11531">
		<tag k="name" v="Hola" />
		<tag k="place" v="farm" />
		<tag k="ssr:stedsnr" v="338050" />
	</node>
	<node lat="62.92347105660409" lon="6.956082219267696" id="-11591">
		<tag k="fixme" v="consider place=hamlet" />
		<tag k="name" v="Bergset" />
		<tag k="old_name" v="Ersholmen" />
		<tag k="place" v="village" />
		<tag k="ssr:stedsnr" v="475675" />
	</node>
	<node lat="62.92358609317348" lon="7.297526517121458" id="-11597">
		<tag k="name" v="Bakken" />
		<tag k="place" v="farm" />
		<tag k="ssr:stedsnr" v="479028" />
	</node>
	<node lat="62.86628333699372" lon="7.083277770355369" id="-11598">
		<tag k="name" v="Åsbakken" />
		<tag k="place" v="farm" />
		<tag k="ssr:stedsnr" v="375107" />
	</node>
	<node lat="62.889458335273844" lon="7.06954722517637" id="-11600">
		<tag k="name" v="Fjell" />
		<tag k="place" v="farm" />
		<tag k="ssr:stedsnr" v="375118" />
	</node>
	<node lat="62.90071944468504" lon="6.983108338101766" id="-11601">
		<tag k="name" v="Nyhagen" />
		<tag k="place" v="farm" />
		<tag k="ssr:stedsnr" v="375140" />
	</node>
	<node lat="62.8987997793105" lon="6.976507103908503" id="-11602">
		<tag k="name" v="Brekkebakken" />
		<tag k="old_name" v="BRÆKKEBAKKEN;Brekkehaugen" />
		<tag k="place" v="farm" />
		<tag k="ssr:stedsnr" v="375142" />
	</node>
	<node lat="62.91526388638716" lon="7.220002780681947" id="-11604">
		<tag k="name" v="Svarstad" />
		<tag k="place" v="farm" />
		<tag k="ssr:stedsnr" v="375511" />
	</node>
	<node lat="62.943086108698374" lon="7.346225009294577" id="-11606">
		<tag k="name" v="Nyvoll" />
		<tag k="place" v="farm" />
		<tag k="ssr:stedsnr" v="375485" />
	</node>
	<node lat="62.9130472262101" lon="7.435061120685001" id="-11607">
		<tag k="name" v="Rabben" />
		<tag k="place" v="farm" />
		<tag k="ssr:stedsnr" v="375498" />
	</node>
	<node lat="62.956930552445556" lon="7.1229166643504715" id="-11611">
		<tag k="name" v="Hamar" />
		<tag k="place" v="farm" />
		<tag k="ssr:stedsnr" v="376010" />
	</node>
	<node lat="62.90681110754645" lon="6.9897388893944" id="-11613">
		<tag k="name" v="Austvoll" />
		<tag k="place" v="farm" />
		<tag k="ssr:stedsnr" v="376075" />
	</node>
	<node lat="62.92068333454158" lon="7.106547220320363" id="-11614">
		<tag k="name" v="Lunheim" />
		<tag k="place" v="farm" />
		<tag k="ssr:stedsnr" v="376086" />
	</node>
	<node lat="62.857455559762776" lon="7.015477769617984" id="-11620">
		<tag k="name" v="Bakkemyra" />
		<tag k="place" v="farm" />
		<tag k="ssr:stedsnr" v="398034" />
	</node>
	<node lat="62.826649997953155" lon="7.121863887535881" id="-11631">
		<tag k="fixme" v="consider place=hamlet" />
		<tag k="name" v="Skotneset" />
		<tag k="place" v="farm" />
		<tag k="ssr:stedsnr" v="398531" />
	</node>
	<node lat="62.811246848182655" lon="7.147168194527026" id="-11638">
		<tag k="fixme" v="consider place=hamlet" />
		<tag k="name" v="Skarsbø" />
		<tag k="place" v="farm" />
		<tag k="ssr:stedsnr" v="399003" />
	</node>
	<node lat="62.868725000682325" lon="7.271972227351489" id="-11639">
		<tag k="name" v="Nøsastølen" />
		<tag k="place" v="isolated_dwelling" />
		<tag k="ssr:stedsnr" v="399030" />
	</node>
	<node lat="62.89874444437034" lon="7.4137472307501495" id="-11644">
		<tag k="leisure" v="pitch" />
		<tag k="name" v="Frodestad" />
		<tag k="ssr:stedsnr" v="399387" />
	</node>
	<node lat="62.97685555867963" lon="7.1466416644545046" id="-11673">
		<tag k="name" v="Berghaugen" />
		<tag k="place" v="farm" />
		<tag k="ssr:stedsnr" v="399692" />
	</node>
	<node lat="62.85387500184686" lon="7.138086114940362" id="-11693">
		<tag k="name" v="Øvre Teigen" />
		<tag k="place" v="farm" />
		<tag k="ssr:stedsnr" v="423652" />
	</node>
	<node lat="62.84365815789114" lon="7.080077636929401" id="-11703">
		<tag k="name" v="Løset" />
		<tag k="place" v="farm" />
		<tag k="ssr:stedsnr" v="436182" />
	</node>
	<node lat="62.80099026120501" lon="7.168755273038832" id="-11710">
		<tag k="fixme" v="consider place=hamlet" />
		<tag k="name" v="Hol" />
		<tag k="place" v="farm" />
		<tag k="ssr:stedsnr" v="436810" />
	</node>
	<node lat="62.82476512561519" lon="7.088219245576539" id="-11713">
		<tag k="fixme" v="consider place=hamlet" />
		<tag k="name" v="Hoemsneset" />
		<tag k="place" v="farm" />
		<tag k="ssr:stedsnr" v="436757" />
	</node>
	<node lat="62.91746666620094" lon="7.10506111379042" id="-11719">
		<tag k="name" v="Brant" />
		<tag k="place" v="farm" />
		<tag k="ssr:stedsnr" v="437107" />
	</node>
	<node lat="62.951527775476215" lon="7.098124997022836" id="-11722">
		<tag k="name" v="Solstad" />
		<tag k="place" v="farm" />
		<tag k="ssr:stedsnr" v="437153" />
	</node>
	<node lat="62.83757499951436" lon="7.234777775950987" id="-11723">
		<tag k="name" v="Syltemyra" />
		<tag k="place" v="farm" />
		<tag k="ssr:stedsnr" v="437718" />
	</node>
	<node lat="62.89569166275068" lon="7.073861113206905" id="-11744">
		<tag k="name" v="Bakkely" />
		<tag k="place" v="farm" />
		<tag k="ssr:stedsnr" v="460003" />
	</node>
	<node lat="62.96105449389614" lon="7.186381018193537" id="-11745">
		<tag k="fixme" v="consider place=hamlet" />
		<tag k="name" v="Litlrødalen" />
		<tag k="place" v="farm" />
		<tag k="ssr:stedsnr" v="460019" />
	</node>
	<node lat="62.9817055588015" lon="7.159522214582811" id="-11746">
		<tag k="name" v="Stegan" />
		<tag k="place" v="farm" />
		<tag k="ssr:stedsnr" v="460062" />
	</node>
	<node lat="62.93721111026103" lon="7.441258336424256" id="-11762">
		<tag k="name" v="Silnes" />
		<tag k="place" v="farm" />
		<tag k="ssr:stedsnr" v="460528" />
	</node>
	<node lat="62.84168333727666" lon="7.02984166505187" id="-11783">
		<tag k="fixme" v="consider place=hamlet" />
		<tag k="name" v="Tornes" />
		<tag k="place" v="village" />
		<tag k="ssr:stedsnr" v="678202" />
	</node>
	<node lat="62.88812499634127" lon="7.151730549295756" id="-11784">
		<tag k="name" v="Utheim" />
		<tag k="place" v="farm" />
		<tag k="ssr:stedsnr" v="678146" />
	</node>
	<node lat="62.84676388593871" lon="7.222225005157909" id="-11786">
		<tag k="name" v="Løken" />
		<tag k="place" v="farm" />
		<tag k="ssr:stedsnr" v="678670" />
	</node>
	<node lat="62.83665277950137" lon="7.184069438508747" id="-11787">
		<tag k="name" v="Nygardsneset" />
		<tag k="place" v="farm" />
		<tag k="ssr:stedsnr" v="678740" />
	</node>
	<node lat="62.96501262408015" lon="7.100652168033071" id="-11789">
		<tag k="fixme" v="consider place=hamlet" />
		<tag k="name" v="Nerland" />
		<tag k="place" v="farm" />
		<tag k="ssr:stedsnr" v="679025" />
	</node>
	<node lat="62.963377781119455" lon="7.050747227042747" id="-11790">
		<tag k="name" v="Åsbøen" />
		<tag k="place" v="farm" />
		<tag k="ssr:stedsnr" v="679029" />
	</node>
	<node lat="62.87377222560039" lon="7.14846665875524" id="-11795">
		<tag k="name" v="Fjellstad" />
		<tag k="place" v="farm" />
		<tag k="ssr:stedsnr" v="679142" />
	</node>
	<node lat="62.99986389153688" lon="7.304191658311152" id="-11798">
		<tag k="name" v="Årsbogen" />
		<tag k="place" v="hamlet" />
		<tag k="ssr:stedsnr" v="679375" />
	</node>
	<node lat="62.92386666421106" lon="7.321980557920304" id="-11804">
		<tag k="name" v="Furuli" />
		<tag k="place" v="farm" />
		<tag k="ssr:stedsnr" v="679521" />
	</node>
	<node lat="62.930311112319956" lon="7.327797220555106" id="-11806">
		<tag k="name" v="Furuli" />
		<tag k="place" v="farm" />
		<tag k="ssr:stedsnr" v="679465" />
	</node>
	<node lat="62.911208337262316" lon="6.972680547888316" id="-11814">
		<tag k="name" v="Solli" />
		<tag k="place" v="farm" />
		<tag k="ssr:stedsnr" v="680090" />
	</node>
	<node lat="62.916405551519304" lon="7.091561102847078" id="-11815">
		<tag k="name" v="Reimstad" />
		<tag k="place" v="farm" />
		<tag k="ssr:stedsnr" v="680093" />
	</node>
	<node lat="62.987258336193726" lon="7.219391664030213" id="-11822">
		<tag k="name" v="Austheim" />
		<tag k="place" v="farm" />
		<tag k="ssr:stedsnr" v="680923" />
	</node>
	<node lat="62.959575002679834" lon="7.172544436404288" id="-11825">
		<tag k="name" v="Austad" />
		<tag k="place" v="farm" />
		<tag k="ssr:stedsnr" v="497003" />
	</node>
	<node lat="62.94354443992567" lon="7.297972214191388" id="-11826">
		<tag k="name" v="Skardsholt" />
		<tag k="place" v="farm" />
		<tag k="ssr:stedsnr" v="496997" />
	</node>
	<node lat="62.85470555455665" lon="7.2176583278493" id="-11828">
		<tag k="name" v="Vollan" />
		<tag k="place" v="farm" />
		<tag k="ssr:stedsnr" v="497200" />
	</node>
	<node lat="62.922088889141506" lon="7.233002786656187" id="-11832">
		<tag k="name" v="Kolstad" />
		<tag k="place" v="farm" />
		<tag k="ssr:stedsnr" v="497533" />
	</node>
	<node lat="62.93742500042544" lon="7.342741660467034" id="-11833">
		<tag k="name" v="Nygard" />
		<tag k="place" v="farm" />
		<tag k="ssr:stedsnr" v="497494" />
	</node>
	<node lat="62.985913892981934" lon="7.305750009313081" id="-11845">
		<tag k="name" v="Remma" />
		<tag k="place" v="farm" />
		<tag k="ssr:stedsnr" v="497900" />
	</node>
	<node lat="62.96293889245053" lon="7.127691658492433" id="-11852">
		<tag k="name" v="Stormskjold" />
		<tag k="place" v="farm" />
		<tag k="ssr:stedsnr" v="520007" />
	</node>
	<node lat="62.990747225026766" lon="7.158827776081403" id="-11853">
		<tag k="name" v="Tugarden" />
		<tag k="place" v="farm" />
		<tag k="ssr:stedsnr" v="520009" />
	</node>
	<node lat="62.87355278233711" lon="6.999700006938598" id="-11854">
		<tag k="name" v="Fugleberget" />
		<tag k="place" v="farm" />
		<tag k="ssr:stedsnr" v="520021" />
	</node>
	<node lat="62.96841944705787" lon="7.062111110466169" id="-11895">
		<tag k="name" v="Malehaugen" />
		<tag k="place" v="farm" />
		<tag k="ssr:stedsnr" v="535681" />
	</node>
	<node lat="62.96034444794986" lon="7.169477772641368" id="-11910">
		<tag k="name" v="Slyngstad" />
		<tag k="place" v="farm" />
		<tag k="ssr:stedsnr" v="558002" />
	</node>
	<node lat="62.90815833549636" lon="6.957888891563456" id="-11911">
		<tag k="name" v="Bjølstad" />
		<tag k="place" v="farm" />
		<tag k="ssr:stedsnr" v="558099" />
	</node>
	<node lat="62.992733331916405" lon="7.222138898548053" id="-11917">
		<tag k="name" v="Flatmo" />
		<tag k="place" v="farm" />
		<tag k="ssr:stedsnr" v="558903" />
	</node>
	<node lat="62.99167222195058" lon="7.148827768206619" id="-11944">
		<tag k="name" v="Breiviknausta" />
		<tag k="place" v="locality" />
		<tag k="ssr:stedsnr" v="580706" />
	</node>
	<node lat="62.95045000078345" lon="7.146605559165439" id="-11963">
		<tag k="name" v="Solhaug" />
		<tag k="place" v="farm" />
		<tag k="ssr:stedsnr" v="581014" />
	</node>
	<node lat="62.812255554453955" lon="7.21206945374545" id="-11964">
		<tag k="name" v="Vikahaugen" />
		<tag k="place" v="farm" />
		<tag k="ssr:stedsnr" v="581053" />
	</node>
	<node lat="62.85222222448303" lon="7.209050004153254" id="-11965">
		<tag k="name" v="Negarden" />
		<tag k="place" v="farm" />
		<tag k="ssr:stedsnr" v="581057" />
	</node>
	<node lat="62.98226667080727" lon="7.101258336670606" id="-12000">
		<tag k="name" v="Flatmark" />
		<tag k="place" v="farm" />
		<tag k="ssr:stedsnr" v="618032" />
	</node>
	<node lat="62.856816670384774" lon="7.064044453448615" id="-12001">
		<tag k="name" v="Åstun" />
		<tag k="place" v="farm" />
		<tag k="ssr:stedsnr" v="618209" />
	</node>
	<node lat="62.86711388798438" lon="7.108938886593476" id="-12002">
		<tag k="name" v="Myr" />
		<tag k="place" v="farm" />
		<tag k="ssr:stedsnr" v="618127" />
	</node>
	<node lat="62.89063055448291" lon="7.070611106803463" id="-12003">
		<tag k="alt_name" v="Brunvoll" />
		<tag k="name" v="Bruvoll" />
		<tag k="place" v="farm" />
		<tag k="ssr:stedsnr" v="618137" />
	</node>
	<node lat="62.887136108308475" lon="7.384097231433661" id="-12012">
		<tag k="name" v="Flatmo" />
		<tag k="place" v="farm" />
		<tag k="ssr:stedsnr" v="618592" />
	</node>
	<node lat="62.834008334883826" lon="7.228099998671207" id="-12016">
		<tag k="name" v="Syltebøen" />
		<tag k="place" v="farm" />
		<tag k="ssr:stedsnr" v="702055" />
	</node>
	<node lat="62.834900003335406" lon="7.241911113528338" id="-12017">
		<tag k="name" v="Rødvang" />
		<tag k="place" v="farm" />
		<tag k="ssr:stedsnr" v="702056" />
	</node>
	<node lat="62.82682222261257" lon="7.232008339997583" id="-12018">
		<tag k="name" v="Nøsamyra" />
		<tag k="place" v="farm" />
		<tag k="ssr:stedsnr" v="702057" />
	</node>
	<node lat="62.93127523484364" lon="6.983931787719589" id="-12021">
		<tag k="fixme" v="consider place=hamlet" />
		<tag k="name" v="Sunde" />
		<tag k="place" v="farm" />
		<tag k="ssr:stedsnr" v="619104" />
	</node>
	<node lat="62.82511379783209" lon="7.416043440207552" id="-12091">
		<tag k="fixme" v="consider tourism=alpine_hut or tourism=chalet" />
		<tag k="name" v="Langdalsbu" />
		<tag k="ssr:stedsnr" v="627861" />
		<tag k="tourism" v="wilderness_hut" />
	</node>
	<node lat="62.788753134189754" lon="6.989784273229657" id="-12101">
		<tag k="fixme" v="consider place=hamlet" />
		<tag k="name" v="Jendemssjøen" />
		<tag k="place" v="farm" />
		<tag k="ssr:stedsnr" v="640017" />
	</node>
	<node lat="62.85049166245229" lon="7.157194444574699" id="-12106">
		<tag k="name" v="Røysavollen" />
		<tag k="place" v="farm" />
		<tag k="ssr:stedsnr" v="641003" />
	</node>
	<node lat="62.81477220487745" lon="7.153252337407793" id="-12107">
		<tag k="fixme" v="consider place=hamlet" />
		<tag k="name" v="Sommarnes" />
		<tag k="place" v="farm" />
		<tag k="ssr:stedsnr" v="641004" />
	</node>
	<node lat="62.9657222235685" lon="7.176755559310661" id="-12108">
		<tag k="name" v="Haugen" />
		<tag k="place" v="farm" />
		<tag k="ssr:stedsnr" v="641011" />
	</node>
	<node lat="62.88142777846194" lon="7.3329027843310035" id="-12114">
		<tag k="name" v="Sjurhaugen" />
		<tag k="place" v="isolated_dwelling" />
		<tag k="ssr:stedsnr" v="641195" />
	</node>
	<node lat="62.90760833717535" lon="7.4278722278473746" id="-12115">
		<tag k="name" v="Skjelvika" />
		<tag k="place" v="farm" />
		<tag k="ssr:stedsnr" v="641303" />
	</node>
	<node lat="62.89563055972632" lon="7.5500361138054775" id="-12123">
		<tag k="name" v="Strandastølen" />
		<tag k="place" v="locality" />
		<tag k="ssr:stedsnr" v="641328" />
	</node>
	<node lat="62.972972226355026" lon="7.309638883048486" id="-12177">
		<tag k="name" v="Rå" />
		<tag k="place" v="isolated_dwelling" />
		<tag k="ssr:stedsnr" v="656736" />
	</node>
	<node lat="62.8403111124622" lon="7.008366657391615" id="-12190">
		<tag k="name" v="Myra" />
		<tag k="place" v="farm" />
		<tag k="ssr:stedsnr" v="678205" />
	</node>
	<node lat="62.840933330992804" lon="7.035430549839027" id="-12191">
		<tag k="name" v="Heimdal" />
		<tag k="place" v="farm" />
		<tag k="ssr:stedsnr" v="678209" />
	</node>
	<node lat="62.907038544296896" lon="7.514817410103323" id="-12192">
		<tag k="fixme" v="consider place=hamlet" />
		<tag k="name" v="Kjøl" />
		<tag k="place" v="farm" />
		<tag k="ssr:stedsnr" v="678572" />
	</node>
	<node lat="62.786607373255144" lon="7.076792722470949" id="-12195">
		<tag k="fixme" v="consider place=hamlet" />
		<tag k="name" v="Hestad" />
		<tag k="place" v="farm" />
		<tag k="ssr:stedsnr" v="678818" />
	</node>
	<node lat="62.887826340518245" lon="6.81334066984112" id="-12199">
		<tag k="fixme" v="consider place=hamlet" />
		<tag k="name" v="Bjørnsund" />
		<tag k="place" v="village" />
		<tag k="ssr:stedsnr" v="679172" />
	</node>
	<node lat="62.90721388916453" lon="6.914052776224841" id="-12200">
		<tag k="name" v="Bud" />
		<tag k="place" v="village" />
		<tag k="ssr:stedsnr" v="679075" />
	</node>
	<node lat="62.84890555459021" lon="7.02322777170039" id="-12201">
		<tag k="name" v="Vonheim" />
		<tag k="place" v="farm" />
		<tag k="ssr:stedsnr" v="679208" />
	</node>
	<node lat="62.954877778716764" lon="7.131152774993977" id="-12214">
		<tag k="name" v="Vassmyr" />
		<tag k="place" v="farm" />
		<tag k="ssr:stedsnr" v="680009" />
	</node>
	<node lat="62.92458611278874" lon="7.1037944354584965" id="-12217">
		<tag k="name" v="Korsmo" />
		<tag k="place" v="farm" />
		<tag k="ssr:stedsnr" v="680096" />
	</node>
	<node lat="62.76211666346799" lon="7.092408328989562" id="-12225">
		<tag k="name" v="Malisetra" />
		<tag k="place" v="locality" />
		<tag k="ssr:stedsnr" v="699970" />
	</node>
	<node lat="62.82085833086119" lon="7.034652774679634" id="-12226">
		<tag k="name" v="Kringsvoll" />
		<tag k="place" v="farm" />
		<tag k="ssr:stedsnr" v="701022" />
	</node>
	<node lat="62.82310833211362" lon="7.0305166638126275" id="-12239">
		<tag k="name" v="Preststova" />
		<tag k="place" v="farm" />
		<tag k="ssr:stedsnr" v="702434" />
	</node>
	<node lat="62.87924444134467" lon="7.103086120615471" id="-12267">
		<tag k="name" v="Åssetra" />
		<tag k="place" v="locality" />
		<tag k="ssr:stedsnr" v="702907" />
	</node>
	<node lat="62.99773055532737" lon="7.296083342003065" id="-12272">
		<tag k="name" v="Årsbogen" />
		<tag k="place" v="farm" />
		<tag k="ssr:stedsnr" v="716903" />
	</node>
	<node lat="63.00533577947907" lon="7.295459624718884" id="-12279">
		<tag k="fixme" v="consider place=hamlet" />
		<tag k="name" v="Vevang" />
		<tag k="place" v="farm" />
		<tag k="ssr:stedsnr" v="723518" />
	</node>
	<node lat="62.866933902391686" lon="7.012102706117661" id="-12289">
		<tag k="name" v="Myrlykkja" />
		<tag k="place" v="farm" />
		<tag k="ssr:stedsnr" v="739108" />
	</node>
	<node lat="62.88092499920162" lon="7.056869441433983" id="-12290">
		<tag k="name" v="Fjellvang" />
		<tag k="place" v="farm" />
		<tag k="ssr:stedsnr" v="739128" />
	</node>
	<node lat="62.92827834601749" lon="7.220664369244935" id="-12291">
		<tag k="fixme" v="consider place=hamlet" />
		<tag k="name" v="Vassenden" />
		<tag k="place" v="farm" />
		<tag k="ssr:stedsnr" v="739511" />
	</node>
	<node lat="62.837083331728316" lon="7.21353889615531" id="-12293">
		<tag k="name" v="Lundemo" />
		<tag k="place" v="farm" />
		<tag k="ssr:stedsnr" v="739753" />
	</node>
	<node lat="62.832583569991" lon="7.212229298627223" id="-12294">
		<tag k="fixme" v="consider place=hamlet" />
		<tag k="name" v="Syltefeta" />
		<tag k="place" v="farm" />
		<tag k="ssr:stedsnr" v="739758" />
	</node>
	<node lat="62.95386111247981" lon="7.055974992576171" id="-12295">
		<tag k="name" v="Skutholm" />
		<tag k="place" v="farm" />
		<tag k="ssr:stedsnr" v="740006" />
	</node>
	<node lat="62.93674167079349" lon="7.106927769181249" id="-12298">
		<tag k="name" v="Fjellstad" />
		<tag k="place" v="farm" />
		<tag k="ssr:stedsnr" v="740103" />
	</node>
	<node lat="62.95055555206124" lon="7.172850000886285" id="-12299">
		<tag k="name" v="Okstad" />
		<tag k="place" v="farm" />
		<tag k="ssr:stedsnr" v="740112" />
	</node>
	<node lat="62.91221943996759" lon="7.329283325522572" id="-12303">
		<tag k="name" v="Dalen" />
		<tag k="place" v="farm" />
		<tag k="ssr:stedsnr" v="740518" />
	</node>
	<node lat="62.795915102086546" lon="6.984091439815817" id="-12308">
		<tag k="name" v="Jendemsvorpa" />
		<tag k="place" v="farm" />
		<tag k="ssr:stedsnr" v="740804" />
	</node>
	<node lat="62.91468888551816" lon="6.9823444481883" id="-12316">
		<tag k="name" v="Solbu" />
		<tag k="place" v="farm" />
		<tag k="ssr:stedsnr" v="741091" />
	</node>
	<node lat="62.792288890449704" lon="7.024227787288477" id="-12320">
		<tag k="name" v="Jendemshagen" />
		<tag k="place" v="farm" />
		<tag k="ssr:stedsnr" v="762014" />
	</node>
	<node lat="62.79045000000948" lon="6.996688879869144" id="-12321">
		<tag k="name" v="Nygård" />
		<tag k="place" v="farm" />
		<tag k="ssr:stedsnr" v="762016" />
	</node>
	<node lat="62.85345277937259" lon="7.170533325567529" id="-12324">
		<tag k="name" v="Feta" />
		<tag k="place" v="farm" />
		<tag k="ssr:stedsnr" v="763004" />
	</node>
	<node lat="62.928536107699706" lon="6.987352779488301" id="-12325">
		<tag k="name" v="Langmyra" />
		<tag k="place" v="farm" />
		<tag k="ssr:stedsnr" v="763007" />
	</node>
	<node lat="62.97263055394434" lon="7.1666555633779305" id="-12326">
		<tag k="name" v="Reset" />
		<tag k="place" v="farm" />
		<tag k="ssr:stedsnr" v="763049" />
	</node>
	<node lat="62.83434722329435" lon="7.209783342440795" id="-12327">
		<tag k="name" v="Grøtholen" />
		<tag k="place" v="farm" />
		<tag k="ssr:stedsnr" v="763052" />
	</node>
	<node lat="62.92430833135357" lon="7.304369435198388" id="-12328">
		<tag k="name" v="Peplassen" />
		<tag k="place" v="locality" />
		<tag k="ssr:stedsnr" v="763242" />
	</node>
	<node lat="62.82798888833281" lon="7.255752781359789" id="-12387">
		<tag k="alt_name" v="Rødset" />
		<tag k="name" v="Røset" />
		<tag k="place" v="farm" />
		<tag k="ssr:stedsnr" v="770126" />
	</node>
	<node lat="62.95053333305625" lon="7.03790277317309" id="-12397">
		<tag k="name" v="Litlebø" />
		<tag k="place" v="isolated_dwelling" />
		<tag k="ssr:stedsnr" v="777566" />
	</node>
	<node lat="62.95305833091053" lon="7.166425008957155" id="-12415">
		<tag k="name" v="Lønset" />
		<tag k="place" v="farm" />
		<tag k="ssr:stedsnr" v="801114" />
	</node>
	<node lat="62.91698339848939" lon="7.4225281486986034" id="-12417">
		<tag k="fixme" v="consider place=hamlet" />
		<tag k="name" v="Krakalia" />
		<tag k="place" v="farm" />
		<tag k="ssr:stedsnr" v="801527" />
	</node>
	<node lat="62.79390000052833" lon="7.146327787172834" id="-12420">
		<tag k="historic" v="shieling" />
		<tag k="name" v="Sandsetra" />
		<tag k="place" v="isolated_dwelling" />
		<tag k="ssr:stedsnr" v="801781" />
	</node>
	<node lat="62.983504823704976" lon="7.243236913085467" id="-12422">
		<tag k="alt_name" v="Sandblost" />
		<tag k="fixme" v="consider place=hamlet" />
		<tag k="name" v="Sandblåst" />
		<tag k="place" v="farm" />
		<tag k="ssr:stedsnr" v="801903" />
	</node>
	<node lat="62.821035658843535" lon="7.232741209787808" id="-12424">
		<tag k="fixme" v="consider place=hamlet" />
		<tag k="name" v="Holen" />
		<tag k="place" v="farm" />
		<tag k="ssr:stedsnr" v="801685" />
	</node>
	<node lat="62.916930551231005" lon="7.217519453592739" id="-12433">
		<tag k="name" v="Sandstad" />
		<tag k="place" v="farm" />
		<tag k="ssr:stedsnr" v="921063" />
	</node>
	<node lat="62.88543055541836" lon="7.067863885722631" id="-12435">
		<tag k="name" v="Bjerke" />
		<tag k="place" v="farm" />
		<tag k="ssr:stedsnr" v="921145" />
	</node>
	<node lat="62.95397777748297" lon="7.055738893152248" id="-12439">
		<tag k="name" v="Bakkely" />
		<tag k="place" v="farm" />
		<tag k="ssr:stedsnr" v="824014" />
	</node>
	<node lat="62.96251944225856" lon="7.180336112879843" id="-12440">
		<tag k="name" v="Helgetun" />
		<tag k="place" v="farm" />
		<tag k="ssr:stedsnr" v="824019" />
	</node>
	<node lat="62.94768610812549" lon="7.371097216238301" id="-12442">
		<tag k="name" v="Visnessetra" />
		<tag k="place" v="locality" />
		<tag k="ssr:stedsnr" v="824306" />
	</node>
	<node lat="62.88772777714318" lon="6.983511104125518" id="-12459">
		<tag k="name" v="Sørenplassen" />
		<tag k="place" v="locality" />
		<tag k="ssr:stedsnr" v="824421" />
	</node>
	<node lat="62.953394440149104" lon="7.411316659254484" id="-12495">
		<tag k="name" v="Myran" />
		<tag k="place" v="farm" />
		<tag k="ssr:stedsnr" v="921971" />
	</node>
	<node lat="62.96373929188007" lon="7.169367812518019" id="-12496">
		<tag k="alt_name" v="Elvebakk" />
		<tag k="name" v="Elvebakken" />
		<tag k="place" v="farm" />
		<tag k="ssr:stedsnr" v="922024" />
	</node>
	<node lat="62.917182640078686" lon="7.45235761940713" id="-12497">
		<tag k="fixme" v="consider place=hamlet" />
		<tag k="name" v="Eide" />
		<tag k="place" v="farm" />
		<tag k="ssr:stedsnr" v="922519" />
	</node>
	<node lat="62.92391111151362" lon="7.297141670958585" id="-12498">
		<tag k="alt_name" v="Bakken, nordre" />
		<tag k="name" v="Nordre Bakken" />
		<tag k="place" v="farm" />
		<tag k="ssr:stedsnr" v="922523" />
	</node>
	<node lat="62.92806666734258" lon="7.324891663826337" id="-12499">
		<tag k="name" v="Solli" />
		<tag k="place" v="farm" />
		<tag k="ssr:stedsnr" v="922528" />
	</node>
	<node lat="62.79625555626398" lon="6.991613894752325" id="-12510">
		<tag k="name" v="Vorpebakken" />
		<tag k="place" v="farm" />
		<tag k="ssr:stedsnr" v="922798" />
	</node>
	<node lat="62.9120111070622" lon="7.088697227598198" id="-12513">
		<tag k="name" v="Berg" />
		<tag k="place" v="farm" />
		<tag k="ssr:stedsnr" v="923091" />
	</node>
	<node lat="62.79337500256442" lon="6.982336103177064" id="-12534">
		<tag k="name" v="Litlevikvorpa" />
		<tag k="place" v="farm" />
		<tag k="ssr:stedsnr" v="861826" />
	</node>
	<node lat="62.950782259813955" lon="7.4156170516601785" id="-12535">
		<tag k="alt_name" v="Lindset" />
		<tag k="fixme" v="consider place=hamlet" />
		<tag k="name" v="Øygarden" />
		<tag k="place" v="farm" />
		<tag k="ssr:stedsnr" v="861987" />
	</node>
	<node lat="62.93460278059491" lon="7.181863895659979" id="-12537">
		<tag k="name" v="Stokke" />
		<tag k="place" v="farm" />
		<tag k="ssr:stedsnr" v="862105" />
	</node>
	<node lat="62.92638345640391" lon="7.059736738358711" id="-12539">
		<tag k="fixme" v="consider place=hamlet" />
		<tag k="name" v="Venås" />
		<tag k="place" v="farm" />
		<tag k="ssr:stedsnr" v="862117" />
	</node>
	<node lat="62.96027987860806" lon="7.06956161588097" id="-12540">
		<tag k="alt_name" v="Stien" />
		<tag k="name" v="Lysaker" />
		<tag k="place" v="farm" />
		<tag k="ssr:stedsnr" v="862012" />
	</node>
	<node lat="62.924598936185625" lon="6.957912922592622" id="-12545">
		<tag k="fixme" v="consider place=hamlet" />
		<tag k="name" v="Bergset" />
		<tag k="place" v="farm" />
		<tag k="ssr:stedsnr" v="862102" />
	</node>
	<node lat="62.97490833293293" lon="7.16035833803413" id="-12555">
		<tag k="name" v="Johangarden" />
		<tag k="place" v="farm" />
		<tag k="ssr:stedsnr" v="884063" />
	</node>
	<node lat="62.93750000347896" lon="7.322038879290282" id="-12561">
		<tag k="name" v="Børråplassen" />
		<tag k="place" v="farm" />
		<tag k="ssr:stedsnr" v="884217" />
	</node>
	<node lat="62.85477777587281" lon="7.152711111145667" id="-12569">
		<tag k="amenity" v="sports_centre" />
		<tag k="name" v="Frænahallen" />
		<tag k="ssr:stedsnr" v="884520" />
	</node>
	<node lat="62.94008333326781" lon="7.039213880478515" id="-12574">
		<tag k="name" v="Kyrkjestølen" />
		<tag k="place" v="locality" />
		<tag k="ssr:stedsnr" v="884448" />
	</node>
	<node lat="62.92814999838095" lon="6.9910972148449435" id="-12597">
		<tag k="name" v="Remman" />
		<tag k="place" v="farm" />
		<tag k="ssr:stedsnr" v="885006" />
	</node>
	<node lat="62.96529444393336" lon="7.359036102127042" id="-12611">
		<tag k="name" v="Myra" />
		<tag k="place" v="isolated_dwelling" />
		<tag k="ssr:stedsnr" v="899712" />
	</node>
	<node lat="62.875606013247356" lon="6.968334089286946" id="-12616">
		<tag k="fixme" v="consider place=hamlet" />
		<tag k="name" v="Skomakarneset" />
		<tag k="place" v="farm" />
		<tag k="ssr:stedsnr" v="921158" />
	</node>
	<node lat="62.885930552478094" lon="7.3758833308330605" id="-12619">
		<tag k="name" v="Fredlund" />
		<tag k="place" v="farm" />
		<tag k="ssr:stedsnr" v="921629" />
	</node>
	<node lat="62.84635833637089" lon="7.247983334786052" id="-12620">
		<tag k="name" v="Nonshaugen" />
		<tag k="place" v="farm" />
		<tag k="ssr:stedsnr" v="921686" />
	</node>
	<node lat="62.85186667038214" lon="7.233980556869288" id="-12621">
		<tag k="name" v="Midtbø" />
		<tag k="place" v="farm" />
		<tag k="ssr:stedsnr" v="921698" />
	</node>
	<node lat="62.95073611009279" lon="7.031283342880278" id="-12623">
		<tag k="name" v="Myra" />
		<tag k="place" v="farm" />
		<tag k="ssr:stedsnr" v="922128" />
	</node>
	<node lat="62.952927776799655" lon="7.082813882573995" id="-12624">
		<tag k="name" v="Reset" />
		<tag k="place" v="farm" />
		<tag k="ssr:stedsnr" v="922130" />
	</node>
	<node lat="62.9624305587697" lon="7.109055549717689" id="-12625">
		<tag k="name" v="Nerlandsremma" />
		<tag k="place" v="farm" />
		<tag k="ssr:stedsnr" v="922011" />
	</node>
	<node lat="62.95896807690111" lon="7.082789001948981" id="-12626">
		<tag k="alt_name" v="LØGSET" />
		<tag k="name" v="Løkset" />
		<tag k="place" v="farm" />
		<tag k="ssr:stedsnr" v="922012" />
	</node>
	<node lat="63.004819447049805" lon="7.296577773637756" id="-12627">
		<tag k="fixme" v="consider place=hamlet" />
		<tag k="name" v="Vevang" />
		<tag k="place" v="village" />
		<tag k="ssr:stedsnr" v="922381" />
	</node>
	<node lat="62.917238892782144" lon="7.299952773523788" id="-12629">
		<tag k="name" v="Myrland" />
		<tag k="place" v="farm" />
		<tag k="ssr:stedsnr" v="922508" />
	</node>
	<node lat="62.91875278054184" lon="7.290194442837814" id="-12630">
		<tag k="name" v="Lia" />
		<tag k="place" v="farm" />
		<tag k="ssr:stedsnr" v="922510" />
	</node>
	<node lat="62.91019444884598" lon="7.22513610441101" id="-12631">
		<tag k="name" v="Brennhaug" />
		<tag k="place" v="farm" />
		<tag k="ssr:stedsnr" v="922511" />
	</node>
	<node lat="62.93865555598082" lon="7.10646944926382" id="-12636">
		<tag k="name" v="Solberg" />
		<tag k="place" v="farm" />
		<tag k="ssr:stedsnr" v="923126" />
	</node>
	<node lat="62.96909166230229" lon="7.09444721298422" id="-12646">
		<tag k="name" v="Nausthaugen" />
		<tag k="place" v="farm" />
		<tag k="ssr:stedsnr" v="945009" />
	</node>
	<node lat="62.97318333556169" lon="7.156172219572811" id="-12647">
		<tag k="name" v="Reitan" />
		<tag k="place" v="farm" />
		<tag k="ssr:stedsnr" v="945039" />
	</node>
	<node lat="62.903500000168805" lon="6.927030565213624" id="-12650">
		<tag k="name" v="Bud Camping" />
		<tag k="ssr:stedsnr" v="945333" />
		<tag k="tourism" v="camp_site" />
	</node>
	<node lat="62.95561111291" lon="7.410824992646348" id="-12661">
		<tag k="name" v="Visnes" />
		<tag k="place" v="farm" />
		<tag k="ssr:stedsnr" v="945407" />
	</node>
	<node lat="62.943583329484724" lon="7.020547219651605" id="-12693">
		<tag k="name" v="Gjerdet" />
		<tag k="place" v="farm" />
		<tag k="ssr:stedsnr" v="959536" />
	</node>
	<node lat="62.995374068201045" lon="7.2903943203803845" id="-12694">
		<tag k="fixme" v="consider place=hamlet" />
		<tag k="name" v="Bjørnevika" />
		<tag k="place" v="farm" />
		<tag k="ssr:stedsnr" v="959906" />
	</node>
	<node lat="62.902564587146635" lon="7.4856370883511785" id="-12697">
		<tag k="alt_name" v="Reialia" />
		<tag k="name" v="Lia" />
		<tag k="place" v="farm" />
		<tag k="ssr:stedsnr" v="970248" />
	</node>
	<node lat="63.01421673639714" lon="7.342416200663988" id="-12702">
		<tag k="fixme" v="consider place=hamlet" />
		<tag k="name" v="Hulvågen" />
		<tag k="place" v="farm" />
		<tag k="ssr:stedsnr" v="980911" />
	</node>
	<node lat="62.96120294312386" lon="7.371968340084977" id="-12703">
		<tag k="fixme" v="consider place=hamlet" />
		<tag k="name" v="Lyngstad" />
		<tag k="place" v="farm" />
		<tag k="ssr:stedsnr" v="980998" />
	</node>
	<node lat="62.883222046364864" lon="6.955676071186379" id="-12707">
		<tag k="fixme" v="consider place=hamlet" />
		<tag k="name" v="Indre Harøya" />
		<tag k="place" v="farm" />
		<tag k="ssr:stedsnr" v="981174" />
	</node>
	<node lat="62.83415117870879" lon="7.14230393963179" id="-12708">
		<tag k="fixme" v="consider place=hamlet" />
		<tag k="name" v="Svenøya" />
		<tag k="place" v="farm" />
		<tag k="ssr:stedsnr" v="981175" />
	</node>
	<node lat="62.82446803073205" lon="7.024391090125161" id="-12710">
		<tag k="fixme" v="consider place=hamlet" />
		<tag k="name" v="Vågøya" />
		<tag k="place" v="farm" />
		<tag k="ssr:stedsnr" v="981185" />
	</node>
	<node lat="62.91407817922744" lon="7.075083321114882" id="-12713">
		<tag k="alt_name" v="Rambjørg" />
		<tag k="name" v="Rambjøra" />
		<tag k="place" v="farm" />
		<tag k="ssr:stedsnr" v="983729" />
	</node>
	<node lat="62.85094166776653" lon="7.018591672415119" id="-12723">
		<tag k="name" v="Utheim" />
		<tag k="place" v="farm" />
		<tag k="ssr:stedsnr" v="12230" />
	</node>
	<node lat="62.847758335693236" lon="7.083208335113382" id="-12725">
		<tag k="name" v="Nygjerdet" />
		<tag k="place" v="farm" />
		<tag k="ssr:stedsnr" v="12234" />
	</node>
	<node lat="62.892263889654586" lon="7.071980563983627" id="-12729">
		<tag k="name" v="Fjelltun" />
		<tag k="place" v="farm" />
		<tag k="ssr:stedsnr" v="11143" />
	</node>
	<node lat="62.88426666251526" lon="6.987327772045276" id="-12730">
		<tag k="name" v="Solberg" />
		<tag k="place" v="isolated_dwelling" />
		<tag k="ssr:stedsnr" v="11155" />
	</node>
	<node lat="62.89432777701113" lon="6.968258339143881" id="-12731">
		<tag k="name" v="Strandheim" />
		<tag k="place" v="farm" />
		<tag k="ssr:stedsnr" v="11171" />
	</node>
	<node lat="62.893361115257015" lon="7.367127786100667" id="-12732">
		<tag k="name" v="Trøa" />
		<tag k="place" v="farm" />
		<tag k="ssr:stedsnr" v="11561" />
	</node>
	<node lat="62.81288301045821" lon="7.114687377930392" id="-12741">
		<tag k="fixme" v="consider place=hamlet" />
		<tag k="name" v="Stranda" />
		<tag k="place" v="farm" />
		<tag k="ssr:stedsnr" v="11784" />
	</node>
	<node lat="62.954068641136104" lon="7.401850112452093" id="-12748">
		<tag k="name" v="Visnes" />
		<tag k="place" v="hamlet" />
		<tag k="ssr:stedsnr" v="11961" />
	</node>
	<node lat="62.95245833480988" lon="7.193649990557016" id="-12756">
		<tag k="name" v="Orheim" />
		<tag k="place" v="farm" />
		<tag k="ssr:stedsnr" v="12128" />
	</node>
	<node lat="62.909797226690564" lon="7.222816672019983" id="-12760">
		<tag k="name" v="Orrestein" />
		<tag k="place" v="farm" />
		<tag k="ssr:stedsnr" v="12590" />
	</node>
	<node lat="62.91341584231762" lon="7.071890895538937" id="-12764">
		<tag k="name" v="Rambjøra" />
		<tag k="place" v="farm" />
		<tag k="ssr:stedsnr" v="13092" />
	</node>
	<node lat="62.919222226535425" lon="7.207769449536401" id="-12765">
		<tag k="name" v="Frostad" />
		<tag k="place" v="farm" />
		<tag k="ssr:stedsnr" v="13096" />
	</node>
	<node lat="62.92189167125066" lon="7.098216675549955" id="-12766">
		<tag k="name" v="Elvetun" />
		<tag k="place" v="farm" />
		<tag k="ssr:stedsnr" v="13098" />
	</node>
	<node lat="62.9044861082866" lon="7.010016673970459" id="-12768">
		<tag k="name" v="Hundehaugan" />
		<tag k="place" v="farm" />
		<tag k="ssr:stedsnr" v="20126" />
	</node>
	<node lat="62.95315942762153" lon="7.413205901189487" id="-12769">
		<tag k="fixme" v="consider place=hamlet" />
		<tag k="name" v="Visnes" />
		<tag k="place" v="farm" />
		<tag k="ssr:stedsnr" v="25670" />
	</node>
	<node lat="62.90116389278665" lon="6.9514499916218355" id="-12782">
		<tag k="name" v="Nedre Gule" />
		<tag k="place" v="farm" />
		<tag k="ssr:stedsnr" v="34357" />
	</node>
	<node lat="62.80414209218916" lon="7.1579229376137405" id="-12791">
		<tag k="fixme" v="consider place=hamlet" />
		<tag k="name" v="Sande" />
		<tag k="place" v="farm" />
		<tag k="ssr:stedsnr" v="35009" />
	</node>
	<node lat="62.95613611196853" lon="7.18540278352616" id="-12793">
		<tag k="name" v="Storrødalen" />
		<tag k="place" v="farm" />
		<tag k="ssr:stedsnr" v="35014" />
	</node>
	<node lat="62.97105555760466" lon="7.1597416760438914" id="-12794">
		<tag k="name" v="Reitan" />
		<tag k="place" v="farm" />
		<tag k="ssr:stedsnr" v="35017" />
	</node>
	<node lat="62.88342040195979" lon="6.96972605570424" id="-12795">
		<tag k="alt_name" v="Engelset" />
		<tag k="fixme" v="consider place=hamlet" />
		<tag k="name" v="Engelsetet" />
		<tag k="place" v="farm" />
		<tag k="ssr:stedsnr" v="35033" />
	</node>
	<node lat="62.79511388981572" lon="7.25791389732627" id="-12796">
		<tag k="name" v="Bømarka" />
		<tag k="place" v="farm" />
		<tag k="ssr:stedsnr" v="35042" />
	</node>
	<node lat="62.957922224948575" lon="7.298847230297928" id="-12801">
		<tag k="name" v="Gautviksetra" />
		<tag k="place" v="locality" />
		<tag k="ssr:stedsnr" v="35317" />
	</node>
	<node lat="62.93113055489324" lon="7.215452780845003" id="-12851">
		<tag k="building" v="commercial" />
		<tag k="name" v="Frænabu" />
		<tag k="ssr:stedsnr" v="35988" />
	</node>
	<node lat="62.983172223123596" lon="7.310508336693686" id="-12859">
		<tag k="name" v="Gaustad" />
		<tag k="place" v="farm" />
		<tag k="ssr:stedsnr" v="42344" />
	</node>
	<node lat="62.96611388896216" lon="7.045222226510841" id="-12874">
		<tag k="alt_name" v="Ørnehagen" />
		<tag k="name" v="Hagen" />
		<tag k="place" v="farm" />
		<tag k="ssr:stedsnr" v="73027" />
	</node>
	<node lat="62.967537386071776" lon="7.174820493450594" id="-12876">
		<tag k="fixme" v="consider place=hamlet" />
		<tag k="name" v="Farstad" />
		<tag k="place" v="farm" />
		<tag k="ssr:stedsnr" v="73043" />
	</node>
	<node lat="62.94771111344122" lon="7.106238887130809" id="-12880">
		<tag k="alt_name" v="Hustadreitan" />
		<tag k="name" v="Reitan" />
		<tag k="place" v="farm" />
		<tag k="ssr:stedsnr" v="73130" />
	</node>
	<node lat="62.86335833796661" lon="7.070297230504518" id="-12885">
		<tag k="name" v="Åsgjerdet" />
		<tag k="place" v="farm" />
		<tag k="ssr:stedsnr" v="72132" />
	</node>
	<node lat="62.87547916211537" lon="7.152824520069755" id="-12887">
		<tag k="fixme" v="consider place=hamlet" />
		<tag k="name" v="Talstad" />
		<tag k="place" v="farm" />
		<tag k="ssr:stedsnr" v="72142" />
	</node>
	<node lat="62.8648861081896" lon="7.007802784974217" id="-12890">
		<tag k="name" v="Seierstad" />
		<tag k="place" v="farm" />
		<tag k="ssr:stedsnr" v="72115" />
	</node>
	<node lat="62.8371444442446" lon="7.002336102278846" id="-12891">
		<tag k="name" v="Solbakken" />
		<tag k="place" v="farm" />
		<tag k="ssr:stedsnr" v="72194" />
	</node>
	<node lat="62.83782762247659" lon="7.2038393294379395" id="-12892">
		<tag k="fixme" v="consider place=hamlet" />
		<tag k="name" v="Syltegjerdet" />
		<tag k="place" v="farm" />
		<tag k="ssr:stedsnr" v="72199" />
	</node>
	<node lat="62.861091669635506" lon="7.01635555629339" id="-12893">
		<tag k="name" v="Øverbø" />
		<tag k="place" v="farm" />
		<tag k="ssr:stedsnr" v="72238" />
	</node>
	<node lat="62.93479166882428" lon="7.4391999906006845" id="-12895">
		<tag k="name" v="Steinbakken" />
		<tag k="place" v="farm" />
		<tag k="ssr:stedsnr" v="72473" />
	</node>
	<node lat="62.93319721957964" lon="7.331297223591943" id="-12896">
		<tag k="name" v="Furumo" />
		<tag k="place" v="farm" />
		<tag k="ssr:stedsnr" v="72484" />
	</node>
	<node lat="62.922172222269" lon="7.31843611060956" id="-12898">
		<tag k="name" v="Furuset" />
		<tag k="place" v="farm" />
		<tag k="ssr:stedsnr" v="72544" />
	</node>
	<node lat="62.91294444251414" lon="6.9898499948539765" id="-12903">
		<tag k="alt_name" v="Nordgård" />
		<tag k="name" v="Norgard" />
		<tag k="place" v="farm" />
		<tag k="ssr:stedsnr" v="73074" />
	</node>
	<node lat="62.913633336655266" lon="7.09111111568758" id="-12905">
		<tag k="name" v="Vestlia" />
		<tag k="place" v="farm" />
		<tag k="ssr:stedsnr" v="73081" />
	</node>
	<node lat="62.793791670590316" lon="7.017900003739717" id="-12921">
		<tag k="name" v="Jendemsbakken" />
		<tag k="place" v="farm" />
		<tag k="ssr:stedsnr" v="95370" />
	</node>
	<node lat="62.90683948579217" lon="6.902482199537103" id="-12929">
		<tag k="alt_name" v="Kleppa" />
		<tag k="fixme" v="consider place=hamlet" />
		<tag k="name" v="Kleppen" />
		<tag k="place" v="farm" />
		<tag k="ssr:stedsnr" v="95018" />
	</node>
	<node lat="62.78984999738375" lon="7.0411249931615645" id="-12930">
		<tag k="name" v="Hjellen" />
		<tag k="place" v="farm" />
		<tag k="ssr:stedsnr" v="95019" />
	</node>
	<node lat="62.98225059845133" lon="7.14269691964661" id="-12931">
		<tag k="fixme" v="consider place=hamlet" />
		<tag k="name" v="Farstadberget" />
		<tag k="place" v="farm" />
		<tag k="ssr:stedsnr" v="95037" />
	</node>
	<node lat="62.884291665462854" lon="7.493605555540919" id="-12941">
		<tag k="name" v="Liaursetra" />
		<tag k="place" v="locality" />
		<tag k="ssr:stedsnr" v="95268" />
	</node>
	<node lat="62.87339722318311" lon="7.42918889738763" id="-12943">
		<tag k="name" v="Vasskorsetra" />
		<tag k="place" v="locality" />
		<tag k="ssr:stedsnr" v="95272" />
	</node>
	<node lat="62.90001666291062" lon="7.1634444442391345" id="-12952">
		<tag k="name" v="Sjurplassen" />
		<tag k="place" v="locality" />
		<tag k="ssr:stedsnr" v="95597" />
	</node>
	<node lat="62.800113886874506" lon="7.128961105772079" id="-12954">
		<tag k="historic" v="shieling" />
		<tag k="name" v="Haugastølane" />
		<tag k="place" v="isolated_dwelling" />
		<tag k="ssr:stedsnr" v="95430" />
	</node>
	<node lat="62.96981110675463" lon="7.1563833273898245" id="-12987">
		<tag k="name" v="Myrset" />
		<tag k="place" v="farm" />
		<tag k="ssr:stedsnr" v="96018" />
	</node>
	<node lat="62.97013333678533" lon="7.169955559021564" id="-12988">
		<tag k="name" v="Farstadvoll" />
		<tag k="place" v="farm" />
		<tag k="ssr:stedsnr" v="96022" />
	</node>
	<node lat="62.94230833450238" lon="7.182458338994936" id="-12989">
		<tag k="name" v="Håland" />
		<tag k="place" v="farm" />
		<tag k="ssr:stedsnr" v="96025" />
	</node>
	<node lat="62.900805554312" lon="6.974216671353366" id="-12990">
		<tag k="name" v="Leirvadet" />
		<tag k="place" v="farm" />
		<tag k="ssr:stedsnr" v="96041" />
	</node>
	<node lat="62.908463886560924" lon="7.243941666524106" id="-12991">
		<tag k="name" v="Lunden" />
		<tag k="place" v="farm" />
		<tag k="ssr:stedsnr" v="96049" />
	</node>
	<node lat="62.87499166235897" lon="7.00440278016112" id="-13021">
		<tag k="name" v="Nyvoll" />
		<tag k="place" v="farm" />
		<tag k="ssr:stedsnr" v="132142" />
	</node>
	<node lat="62.87800555707052" lon="7.001033336489932" id="-13022">
		<tag k="name" v="Lotsberg" />
		<tag k="place" v="farm" />
		<tag k="ssr:stedsnr" v="132143" />
	</node>
	<node lat="62.85762221917726" lon="7.133013898411412" id="-13025">
		<tag k="name" v="Eidem" />
		<tag k="place" v="farm" />
		<tag k="ssr:stedsnr" v="132236" />
	</node>
	<node lat="62.86345555796141" lon="7.138244448550706" id="-13026">
		<tag k="name" v="Skogly" />
		<tag k="place" v="farm" />
		<tag k="ssr:stedsnr" v="132237" />
	</node>
	<node lat="62.84835000331284" lon="7.222658336001891" id="-13031">
		<tag k="name" v="Fagerlia" />
		<tag k="place" v="farm" />
		<tag k="ssr:stedsnr" v="132690" />
	</node>
	<node lat="62.93933333690289" lon="7.343874992870613" id="-13034">
		<tag k="name" v="Midtbø" />
		<tag k="place" v="farm" />
		<tag k="ssr:stedsnr" v="132512" />
	</node>
	<node lat="62.81790671943549" lon="7.214501072412089" id="-13037">
		<tag k="fixme" v="multiple name tags, choose one and add the other to alt_name; consider place=hamlet" />
		<tag k="name" v="Ukkelberg;Kolberg" />
		<tag k="place" v="farm" />
		<tag k="ssr:stedsnr" v="132778" />
	</node>
	<node lat="62.93967222104488" lon="7.187224998494111" id="-13041">
		<tag k="name" v="Vangen" />
		<tag k="place" v="farm" />
		<tag k="ssr:stedsnr" v="133105" />
	</node>
	<node lat="62.91680988728763" lon="7.4486110150662705" id="-13042">
		<tag k="name" v="Eide" />
		<tag k="place" v="village" />
		<tag k="ssr:stedsnr" v="133487" />
	</node>
	<node lat="62.99931110860856" lon="7.233136117291046" id="-13053">
		<tag k="alt_name" v="Fjærvoll" />
		<tag k="name" v="Fjervoll" />
		<tag k="place" v="farm" />
		<tag k="ssr:stedsnr" v="133880" />
	</node>
	<node lat="62.91176111511695" lon="7.09670833224851" id="-13054">
		<tag k="name" v="Fagerheim" />
		<tag k="place" v="farm" />
		<tag k="ssr:stedsnr" v="134085" />
	</node>
	<node lat="62.90941110772899" lon="7.088866673027051" id="-13055">
		<tag k="name" v="Olstad" />
		<tag k="place" v="farm" />
		<tag k="ssr:stedsnr" v="134087" />
	</node>
	<node lat="62.904494446890986" lon="7.198708324838144" id="-13066">
		<tag k="name" v="Bjørnstad" />
		<tag k="place" v="farm" />
		<tag k="ssr:stedsnr" v="156044" />
	</node>
	<node lat="62.88152500302907" lon="7.049633330150688" id="-13143">
		<tag k="name" v="Haugtun" />
		<tag k="place" v="farm" />
		<tag k="ssr:stedsnr" v="193138" />
	</node>
	<node lat="62.90192081620128" lon="6.957248741768068" id="-13145">
		<tag k="name" v="Gule" />
		<tag k="place" v="hamlet" />
		<tag k="ssr:stedsnr" v="193067" />
	</node>
	<node lat="62.89760278220777" lon="6.9799000053832865" id="-13150">
		<tag k="name" v="Vågen" />
		<tag k="place" v="farm" />
		<tag k="ssr:stedsnr" v="193170" />
	</node>
	<node lat="62.908780559206924" lon="7.217758342913671" id="-13151">
		<tag k="name" v="Asphaug" />
		<tag k="place" v="farm" />
		<tag k="ssr:stedsnr" v="193180" />
	</node>
	<node lat="62.86242000392424" lon="7.009786404292267" id="-13153">
		<tag k="fixme" v="consider place=hamlet" />
		<tag k="name" v="Kjørsvika" />
		<tag k="place" v="farm" />
		<tag k="ssr:stedsnr" v="193230" />
	</node>
	<node lat="62.85937499824953" lon="7.0673166630078486" id="-13154">
		<tag k="name" v="Nerås" />
		<tag k="place" v="farm" />
		<tag k="ssr:stedsnr" v="193235" />
	</node>
	<node lat="62.93599722557273" lon="7.111666658996015" id="-13158">
		<tag k="name" v="Fjellset" />
		<tag k="place" v="farm" />
		<tag k="ssr:stedsnr" v="194100" />
	</node>
	<node lat="62.9515194431542" lon="7.133930560640131" id="-13159">
		<tag k="name" v="Åsheim" />
		<tag k="place" v="farm" />
		<tag k="ssr:stedsnr" v="194111" />
	</node>
	<node lat="62.93870277718425" lon="6.994841661368037" id="-13160">
		<tag k="name" v="Åsheim" />
		<tag k="place" v="farm" />
		<tag k="ssr:stedsnr" v="194118" />
	</node>
	<node lat="62.937469447044286" lon="7.0020805459504" id="-13161">
		<tag k="name" v="Solheim" />
		<tag k="place" v="farm" />
		<tag k="ssr:stedsnr" v="194119" />
	</node>
	<node lat="62.93826944302243" lon="7.434602785355166" id="-13164">
		<tag k="name" v="Silnes" />
		<tag k="place" v="hamlet" />
		<tag k="ssr:stedsnr" v="193541" />
	</node>
	<node lat="62.91289827511172" lon="7.540699078287268" id="-13166">
		<tag k="fixme" v="consider place=hamlet" />
		<tag k="name" v="Strand" />
		<tag k="place" v="farm" />
		<tag k="ssr:stedsnr" v="193597" />
	</node>
	<node lat="62.887100004355695" lon="7.380086114834665" id="-13167">
		<tag k="name" v="Furumo" />
		<tag k="place" v="farm" />
		<tag k="ssr:stedsnr" v="193612" />
	</node>
	<node lat="62.89111666945739" lon="7.388108342674619" id="-13168">
		<tag k="name" v="Sørbøen" />
		<tag k="place" v="farm" />
		<tag k="ssr:stedsnr" v="193615" />
	</node>
	<node lat="62.790859992023975" lon="7.013663555029982" id="-13173">
		<tag k="fixme" v="consider place=hamlet" />
		<tag k="name" v="Jendem" />
		<tag k="place" v="farm" />
		<tag k="ssr:stedsnr" v="193842" />
	</node>
	<node lat="62.95901666812545" lon="7.1675305566983765" id="-13179">
		<tag k="name" v="Midtbø" />
		<tag k="place" v="farm" />
		<tag k="ssr:stedsnr" v="194003" />
	</node>
	<node lat="62.955549997253705" lon="7.032102785399798" id="-13180">
		<tag k="name" v="Nygard" />
		<tag k="place" v="isolated_dwelling" />
		<tag k="ssr:stedsnr" v="194009" />
	</node>
	<node lat="62.962874999681446" lon="7.057230550269315" id="-13181">
		<tag k="name" v="Remma" />
		<tag k="place" v="farm" />
		<tag k="ssr:stedsnr" v="194019" />
	</node>
	<node lat="62.84530223818881" lon="7.078170886711774" id="-13185">
		<tag k="name" v="Rørset" />
		<tag k="place" v="farm" />
		<tag k="ssr:stedsnr" v="194215" />
	</node>
	<node lat="62.91263610827707" lon="7.324355556665299" id="-13187">
		<tag k="name" v="Sandneshaugen" />
		<tag k="place" v="farm" />
		<tag k="ssr:stedsnr" v="194475" />
	</node>
	<node lat="62.80235539610539" lon="7.08319801299708" id="-13203">
		<tag k="fixme" v="consider place=hamlet" />
		<tag k="name" v="Valle" />
		<tag k="place" v="farm" />
		<tag k="ssr:stedsnr" v="194787" />
	</node>
	<node lat="62.80470951812468" lon="7.219095765633246" id="-13204">
		<tag k="fixme" v="consider place=hamlet" />
		<tag k="name" v="Malme" />
		<tag k="place" v="farm" />
		<tag k="ssr:stedsnr" v="194790" />
	</node>
	<node lat="62.99761667027148" lon="7.307600001586295" id="-13207">
		<tag k="name" v="Vika" />
		<tag k="place" v="farm" />
		<tag k="ssr:stedsnr" v="194874" />
	</node>
	<node lat="62.99799999957269" lon="7.282600001469451" id="-13208">
		<tag k="fixme" v="multiple name tags, choose one and add the other to alt_name" />
		<tag k="name" v="Mjølkstølen;Stølen" />
		<tag k="place" v="farm" />
		<tag k="ssr:stedsnr" v="194876" />
	</node>
	<node lat="62.96537222373221" lon="7.359583335433934" id="-13211">
		<tag k="name" v="Vik" />
		<tag k="place" v="farm" />
		<tag k="ssr:stedsnr" v="194933" />
	</node>
	<node lat="62.904052782348614" lon="7.360044453758426" id="-13220">
		<tag k="name" v="Slettet" />
		<tag k="place" v="farm" />
		<tag k="ssr:stedsnr" v="217420" />
	</node>
	<node lat="62.881111113526345" lon="6.969166675885681" id="-13232">
		<tag k="name" v="Vestadvika" />
		<tag k="place" v="farm" />
		<tag k="ssr:stedsnr" v="217028" />
	</node>
	<node lat="62.83967778014488" lon="7.071869453160843" id="-13265">
		<tag k="name" v="Danelplassen" />
		<tag k="place" v="locality" />
		<tag k="ssr:stedsnr" v="217587" />
	</node>
	<node lat="62.77640000351848" lon="7.0635250065338715" id="-13288">
		<tag k="name" v="Åndal" />
		<tag k="place" v="hamlet" />
		<tag k="ssr:stedsnr" v="274857" />
	</node>
	<node lat="62.79732222467117" lon="7.171336114577538" id="-13347">
		<tag k="name" v="Holslia" />
		<tag k="place" v="farm" />
		<tag k="ssr:stedsnr" v="278008" />
	</node>
	<node lat="62.96549166888573" lon="7.173644446245199" id="-13348">
		<tag k="name" v="Svorva" />
		<tag k="place" v="farm" />
		<tag k="ssr:stedsnr" v="278012" />
	</node>
	<node lat="62.98279721862675" lon="7.249463880459903" id="-13356">
		<tag k="name" v="Marka" />
		<tag k="place" v="farm" />
		<tag k="ssr:stedsnr" v="278038" />
	</node>
	<node lat="62.95533055902595" lon="7.380236119408301" id="-13386">
		<tag k="name" v="Nylund" />
		<tag k="place" v="farm" />
		<tag k="ssr:stedsnr" v="314973" />
	</node>
	<node lat="62.94650555653487" lon="7.140399998122532" id="-13391">
		<tag k="name" v="Bakkemyr" />
		<tag k="place" v="farm" />
		<tag k="ssr:stedsnr" v="315109" />
	</node>
	<node lat="62.86405649234692" lon="7.058415597815688" id="-13394">
		<tag k="fixme" v="consider place=hamlet" />
		<tag k="name" v="Slutåsen" />
		<tag k="place" v="farm" />
		<tag k="ssr:stedsnr" v="315137" />
	</node>
	<node lat="62.861788888925624" lon="7.019274990469479" id="-13398">
		<tag k="name" v="Soltun" />
		<tag k="place" v="farm" />
		<tag k="ssr:stedsnr" v="315227" />
	</node>
	<node lat="62.918608334747844" lon="7.369741676350654" id="-13400">
		<tag k="name" v="Innlegget" />
		<tag k="place" v="farm" />
		<tag k="ssr:stedsnr" v="315521" />
	</node>
	<node lat="62.89968889141338" lon="7.4408305590418085" id="-13404">
		<tag k="name" v="Svanvika" />
		<tag k="place" v="farm" />
		<tag k="ssr:stedsnr" v="315595" />
	</node>
	<node lat="62.81123611010572" lon="7.155202775207527" id="-13405">
		<tag k="name" v="Sande" />
		<tag k="place" v="farm" />
		<tag k="ssr:stedsnr" v="315773" />
	</node>
	<node lat="62.844690469207286" lon="7.217713259573795" id="-13409">
		<tag k="alt_name" v="Sylteløken" />
		<tag k="name" v="Løken" />
		<tag k="place" v="farm" />
		<tag k="ssr:stedsnr" v="316894" />
	</node>
	<node lat="62.914127776391055" lon="7.101083335603473" id="-13410">
		<tag k="name" v="Nordmark" />
		<tag k="place" v="farm" />
		<tag k="ssr:stedsnr" v="316072" />
	</node>
	<node lat="62.94135277408883" lon="7.015888893008802" id="-13411">
		<tag k="name" v="Myrstad" />
		<tag k="place" v="farm" />
		<tag k="ssr:stedsnr" v="316129" />
	</node>
	<node lat="62.79938493076918" lon="7.23989053591436" id="-13414">
		<tag k="fixme" v="consider place=hamlet" />
		<tag k="name" v="Malme" />
		<tag k="place" v="village" />
		<tag k="ssr:stedsnr" v="316766" />
	</node>
	<node lat="62.98841388525984" lon="7.249780546249694" id="-13424">
		<tag k="name" v="Solli" />
		<tag k="place" v="farm" />
		<tag k="ssr:stedsnr" v="338034" />
	</node>
	<node lat="62.92695000278189" lon="7.223116674745067" id="-13425">
		<tag k="name" v="Eidsvoll" />
		<tag k="place" v="farm" />
		<tag k="ssr:stedsnr" v="338039" />
	</node>
	<node lat="62.876183337291366" lon="7.322597215811959" id="-13436">
		<tag k="name" v="Gammelseterstølen" />
		<tag k="place" v="isolated_dwelling" />
		<tag k="ssr:stedsnr" v="338190" />
	</node>
	<node lat="62.81023611240366" lon="7.061219449734599" id="-13450">
		<tag k="name" v="Gammelstølen" />
		<tag k="place" v="locality" />
		<tag k="ssr:stedsnr" v="338526" />
	</node>
	<node lat="62.97438611291892" lon="7.159272228236963" id="-13460">
		<tag k="name" v="Ivargarden" />
		<tag k="place" v="farm" />
		<tag k="ssr:stedsnr" v="338685" />
	</node>
	<node lat="62.79388333231495" lon="7.021277770209566" id="-13468">
		<tag k="name" v="Skjerpå" />
		<tag k="place" v="locality" />
		<tag k="ssr:stedsnr" v="338825" />
	</node>
	<node lat="62.82993055310552" lon="7.235847227887081" id="-13474">
		<tag k="name" v="Jobakkrøra" />
		<tag k="place" v="farm" />
		<tag k="ssr:stedsnr" v="338781" />
	</node>
	<node lat="62.96778888795713" lon="7.1050000092937395" id="-13503">
		<tag k="name" v="Nerland" />
		<tag k="place" v="farm" />
		<tag k="ssr:stedsnr" v="353699" />
	</node>
	<node lat="62.83875000227414" lon="7.004130563047978" id="-13519">
		<tag k="name" v="Skardhaugen" />
		<tag k="place" v="farm" />
		<tag k="ssr:stedsnr" v="375159" />
	</node>
	<node lat="62.85319166578983" lon="7.146088896538372" id="-13521">
		<tag k="alt_name" v="Hatlen" />
		<tag k="name" v="Hatle" />
		<tag k="place" v="farm" />
		<tag k="ssr:stedsnr" v="375168" />
	</node>
	<node lat="62.90269538777081" lon="7.486139956690665" id="-13522">
		<tag k="alt_name" v="Reialia" />
		<tag k="fixme" v="consider place=hamlet" />
		<tag k="name" v="Lia" />
		<tag k="old_name" v="Lien" />
		<tag k="place" v="farm" />
		<tag k="ssr:stedsnr" v="375589" />
	</node>
	<node lat="62.8555916641565" lon="7.2259749954095716" id="-13529">
		<tag k="name" v="Bjørnhaug" />
		<tag k="place" v="farm" />
		<tag k="ssr:stedsnr" v="375646" />
	</node>
	<node lat="62.81390000430727" lon="7.100836104833201" id="-13532">
		<tag k="name" v="Aureosen" />
		<tag k="place" v="hamlet" />
		<tag k="ssr:stedsnr" v="375759" />
	</node>
	<node lat="62.96390826282909" lon="7.04082020061207" id="-13535">
		<tag k="name" v="Myrset" />
		<tag k="place" v="farm" />
		<tag k="ssr:stedsnr" v="376035" />
	</node>
	<node lat="62.97493889013358" lon="7.106627780541375" id="-13538">
		<tag k="alt_name" v="Nygård" />
		<tag k="name" v="Nygard" />
		<tag k="place" v="farm" />
		<tag k="ssr:stedsnr" v="376047" />
	</node>
	<node lat="62.91809722588255" lon="7.215400004788001" id="-13539">
		<tag k="name" v="Solheim" />
		<tag k="place" v="farm" />
		<tag k="ssr:stedsnr" v="376065" />
	</node>
	<node lat="62.84303055421498" lon="7.352933332819784" id="-13595">
		<tag k="name" v="Stølane" />
		<tag k="place" v="locality" />
		<tag k="ssr:stedsnr" v="398951" />
	</node>
	<node lat="62.801288891826644" lon="7.331397231112851" id="-13596">
		<tag k="building" v="commercial" />
		<tag k="name" v="Skarstua" />
		<tag k="ssr:stedsnr" v="398958" />
	</node>
	<node lat="62.90581110733608" lon="7.212980554513611" id="-13597">
		<tag k="historic" v="shieling" />
		<tag k="name" v="Farstadsetra" />
		<tag k="place" v="isolated_dwelling" />
		<tag k="ssr:stedsnr" v="399043" />
	</node>
	<node lat="62.83453611497251" lon="7.2335277793174475" id="-13598">
		<tag k="name" v="Nygjerdet" />
		<tag k="place" v="farm" />
		<tag k="ssr:stedsnr" v="399051" />
	</node>
	<node lat="62.831938890700904" lon="7.228402771041619" id="-13599">
		<tag k="name" v="Øvrebø" />
		<tag k="place" v="farm" />
		<tag k="ssr:stedsnr" v="399052" />
	</node>
	<node lat="62.905361113735104" lon="7.34742776810407" id="-13603">
		<tag k="name" v="Storslettet" />
		<tag k="place" v="farm" />
		<tag k="ssr:stedsnr" v="399267" />
	</node>
	<node lat="62.91322500296005" lon="7.30871666631195" id="-13616">
		<tag k="name" v="Osteigen" />
		<tag k="place" v="locality" />
		<tag k="ssr:stedsnr" v="399465" />
	</node>
	<node lat="62.92343055161215" lon="7.157666664961312" id="-13629">
		<tag k="name" v="Nerlandssetra" />
		<tag k="place" v="locality" />
		<tag k="ssr:stedsnr" v="399632" />
	</node>
	<node lat="62.90196388498815" lon="7.429630549824804" id="-13659">
		<tag k="name" v="Vågsbøen" />
		<tag k="place" v="farm" />
		<tag k="ssr:stedsnr" v="413022" />
	</node>
	<node lat="62.88643307468203" lon="6.9787707105097025" id="-13677">
		<tag k="alt_name" v="Rishaugen" />
		<tag k="fixme" v="consider place=hamlet" />
		<tag k="name" v="Rishaug" />
		<tag k="place" v="farm" />
		<tag k="ssr:stedsnr" v="436148" />
	</node>
	<node lat="62.839022226028504" lon="7.058775007456302" id="-13679">
		<tag k="name" v="Lerkesletta" />
		<tag k="place" v="farm" />
		<tag k="ssr:stedsnr" v="436184" />
	</node>
	<node lat="62.85227178925544" lon="7.129948867093101" id="-13680">
		<tag k="fixme" v="consider place=hamlet" />
		<tag k="name" v="Eidem" />
		<tag k="place" v="farm" />
		<tag k="ssr:stedsnr" v="436188" />
	</node>
	<node lat="62.85491111508153" lon="7.176299995784748" id="-13681">
		<tag k="name" v="Dalset" />
		<tag k="place" v="farm" />
		<tag k="ssr:stedsnr" v="436194" />
	</node>
	<node lat="62.93088055255079" lon="7.316988888013556" id="-13683">
		<tag k="name" v="Eriklia" />
		<tag k="place" v="farm" />
		<tag k="ssr:stedsnr" v="436490" />
	</node>
	<node lat="62.92928611510258" lon="7.347477782962526" id="-13684">
		<tag k="name" v="Myrebø" />
		<tag k="place" v="farm" />
		<tag k="ssr:stedsnr" v="436494" />
	</node>
	<node lat="62.89546944191255" lon="7.407899996382949" id="-13686">
		<tag k="name" v="Hjellen" />
		<tag k="place" v="farm" />
		<tag k="ssr:stedsnr" v="436537" />
	</node>
	<node lat="62.807277781334435" lon="7.0846444485044895" id="-13688">
		<tag k="name" v="Orrem" />
		<tag k="place" v="farm" />
		<tag k="ssr:stedsnr" v="436792" />
	</node>
	<node lat="62.953983335207795" lon="7.095050008736535" id="-13691">
		<tag k="fixme" v="consider place=hamlet" />
		<tag k="name" v="Hustad" />
		<tag k="place" v="village" />
		<tag k="ssr:stedsnr" v="437012" />
	</node>
	<node lat="62.96171162317235" lon="7.3702569063466505" id="-13692">
		<tag k="fixme" v="consider place=hamlet" />
		<tag k="name" v="Lyngstad" />
		<tag k="place" v="village" />
		<tag k="ssr:stedsnr" v="436951" />
	</node>
	<node lat="62.963400002036124" lon="7.352811108877201" id="-13694">
		<tag k="name" v="Øverland" />
		<tag k="place" v="farm" />
		<tag k="ssr:stedsnr" v="436956" />
	</node>
	<node lat="62.93529722536465" lon="7.15939722876775" id="-13698">
		<tag k="name" v="Grøttjord" />
		<tag k="place" v="farm" />
		<tag k="ssr:stedsnr" v="437127" />
	</node>
	<node lat="62.94209722030602" lon="7.145766673181727" id="-13699">
		<tag k="name" v="Sletteland" />
		<tag k="place" v="farm" />
		<tag k="ssr:stedsnr" v="437132" />
	</node>
	<node lat="62.93668611236582" lon="7.179941675953442" id="-13700">
		<tag k="name" v="Tveiten" />
		<tag k="place" v="farm" />
		<tag k="ssr:stedsnr" v="437134" />
	</node>
	<node lat="62.95244722446186" lon="7.136869437900268" id="-13701">
		<tag k="name" v="Myrstad" />
		<tag k="place" v="farm" />
		<tag k="ssr:stedsnr" v="437137" />
	</node>
	<node lat="63.00513611299059" lon="7.296833337136952" id="-13705">
		<tag k="name" v="Berget" />
		<tag k="place" v="farm" />
		<tag k="ssr:stedsnr" v="437436" />
	</node>
	<node lat="62.80569347480056" lon="7.243106504809843" id="-13709">
		<tag k="fixme" v="consider place=hamlet" />
		<tag k="name" v="Øygarden" />
		<tag k="place" v="farm" />
		<tag k="ssr:stedsnr" v="437727" />
	</node>
	<node lat="62.840058057954344" lon="7.067884986869783" id="-13710">
		<tag k="name" v="Løset" />
		<tag k="place" v="farm" />
		<tag k="ssr:stedsnr" v="437826" />
	</node>
	<node lat="62.8728972207153" lon="7.009147220948416" id="-13721">
		<tag k="name" v="Dalsbø" />
		<tag k="place" v="farm" />
		<tag k="ssr:stedsnr" v="496148" />
	</node>
	<node lat="62.87561110929568" lon="7.001077768175819" id="-13722">
		<tag k="name" v="Flatmo" />
		<tag k="place" v="farm" />
		<tag k="ssr:stedsnr" v="496151" />
	</node>
	<node lat="62.87968333432719" lon="6.986263898612217" id="-13724">
		<tag k="name" v="Søholt" />
		<tag k="place" v="farm" />
		<tag k="ssr:stedsnr" v="496172" />
	</node>
	<node lat="62.90313860615507" lon="7.087825324639088" id="-13725">
		<tag k="fixme" v="consider place=hamlet" />
		<tag k="name" v="Skardset" />
		<tag k="place" v="farm" />
		<tag k="ssr:stedsnr" v="496176" />
	</node>
	<node lat="62.901693400178466" lon="7.4288940124863165" id="-13728">
		<tag k="fixme" v="consider place=hamlet" />
		<tag k="name" v="Vågsbøen" />
		<tag k="place" v="farm" />
		<tag k="ssr:stedsnr" v="496635" />
	</node>
	<node lat="62.85453253917488" lon="7.2771736314302276" id="-13734">
		<tag k="fixme" v="consider place=hamlet" />
		<tag k="name" v="Syltesetra" />
		<tag k="place" v="farm" />
		<tag k="ssr:stedsnr" v="496684" />
	</node>
	<node lat="62.86009722233181" lon="7.0708666593887335" id="-13744">
		<tag k="name" v="Sørås" />
		<tag k="place" v="farm" />
		<tag k="ssr:stedsnr" v="497234" />
	</node>
	<node lat="62.85550000383464" lon="7.052361111410205" id="-13745">
		<tag k="alt_name" v="Bergtun" />
		<tag k="name" v="Bergetun" />
		<tag k="place" v="farm" />
		<tag k="ssr:stedsnr" v="497238" />
	</node>
	<node lat="62.83187078595487" lon="7.292822121915984" id="-13748">
		<tag k="alt_name" v="Rødal" />
		<tag k="fixme" v="consider place=hamlet" />
		<tag k="name" v="Rødalen" />
		<tag k="place" v="farm" />
		<tag k="ssr:stedsnr" v="497697" />
	</node>
	<node lat="62.81895555957594" lon="7.218505548695544" id="-13749">
		<tag k="name" v="Ukkelberg" />
		<tag k="place" v="farm" />
		<tag k="ssr:stedsnr" v="497731" />
	</node>
	<node lat="62.93669999604387" lon="7.187980557944107" id="-13752">
		<tag k="alt_name" v="Åsgård" />
		<tag k="name" v="Åsgard" />
		<tag k="place" v="farm" />
		<tag k="ssr:stedsnr" v="498123" />
	</node>
	<node lat="62.947813887711504" lon="7.395424999968059" id="-13769">
		<tag k="historic" v="shieling" />
		<tag k="name" v="Lindsetsetra" />
		<tag k="place" v="isolated_dwelling" />
		<tag k="ssr:stedsnr" v="519390" />
	</node>
	<node lat="62.841363885928196" lon="7.027205562165927" id="-13770">
		<tag k="name" v="Arnegarden" />
		<tag k="place" v="farm" />
		<tag k="ssr:stedsnr" v="519028" />
	</node>
	<node lat="62.87449166337625" lon="7.272930547046115" id="-13773">
		<tag k="name" v="Troasetra" />
		<tag k="place" v="isolated_dwelling" />
		<tag k="ssr:stedsnr" v="520031" />
	</node>
	<node lat="62.8578055542139" lon="7.273222220759553" id="-13774">
		<tag k="name" v="Syltestølen" />
		<tag k="place" v="isolated_dwelling" />
		<tag k="ssr:stedsnr" v="520034" />
	</node>
	<node lat="62.97714722426985" lon="7.112305557259777" id="-13775">
		<tag k="name" v="Flataker" />
		<tag k="place" v="farm" />
		<tag k="ssr:stedsnr" v="520046" />
	</node>
	<node lat="62.8260138917781" lon="7.241950000413934" id="-13776">
		<tag k="name" v="Lauvåsen" />
		<tag k="place" v="farm" />
		<tag k="ssr:stedsnr" v="520051" />
	</node>
	<node lat="62.908338891154095" lon="7.120436108355758" id="-13811">
		<tag k="name" v="Herskaret" />
		<tag k="place" v="farm" />
		<tag k="ssr:stedsnr" v="520618" />
	</node>
	<node lat="62.95032222601788" lon="7.0925277808523415" id="-13850">
		<tag k="name" v="Hustadremma" />
		<tag k="place" v="farm" />
		<tag k="ssr:stedsnr" v="535691" />
	</node>
	<node lat="62.868683333979554" lon="7.11556110995801" id="-13864">
		<tag k="name" v="Lindely" />
		<tag k="place" v="farm" />
		<tag k="ssr:stedsnr" v="557125" />
	</node>
	<node lat="62.87710555580269" lon="7.047547216626693" id="-13865">
		<tag k="name" v="Byrkjeland" />
		<tag k="place" v="farm" />
		<tag k="ssr:stedsnr" v="557139" />
	</node>
	<node lat="62.92671944481446" lon="7.323294451604082" id="-13869">
		<tag k="name" v="Skogli" />
		<tag k="place" v="farm" />
		<tag k="ssr:stedsnr" v="557535" />
	</node>
	<node lat="62.90017500293255" lon="7.383616667194807" id="-13870">
		<tag k="name" v="Sommarhaugen" />
		<tag k="place" v="farm" />
		<tag k="ssr:stedsnr" v="557536" />
	</node>
	<node lat="62.90768888940027" lon="7.54774443982328" id="-13872">
		<tag k="name" v="Haugen" />
		<tag k="place" v="farm" />
		<tag k="ssr:stedsnr" v="557544" />
	</node>
	<node lat="62.78386944154135" lon="7.064816663797313" id="-13874">
		<tag k="name" v="Undhaugen" />
		<tag k="place" v="farm" />
		<tag k="ssr:stedsnr" v="557822" />
	</node>
	<node lat="62.91061111448362" lon="6.993041676036088" id="-13883">
		<tag k="name" v="Austerheim" />
		<tag k="place" v="farm" />
		<tag k="ssr:stedsnr" v="558082" />
	</node>
	<node lat="62.9836254973952" lon="7.311202843928266" id="-13892">
		<tag k="fixme" v="consider place=hamlet" />
		<tag k="name" v="Gaustad" />
		<tag k="place" v="farm" />
		<tag k="ssr:stedsnr" v="558918" />
	</node>
	<node lat="62.794285083129274" lon="7.313991399653529" id="-13928">
		<tag k="name" v="Nøtskaret" />
		<tag k="place" v="locality" />
		<tag k="ssr:stedsnr" v="580824" />
	</node>
	<node lat="62.8396825569376" lon="7.232373840447681" id="-13950">
		<tag k="fixme" v="consider place=hamlet" />
		<tag k="name" v="Moen" />
		<tag k="place" v="farm" />
		<tag k="ssr:stedsnr" v="581063" />
	</node>
	<node lat="62.95751944557499" lon="7.196119450391324" id="-13951">
		<tag k="name" v="Rødalen" />
		<tag k="place" v="farm" />
		<tag k="ssr:stedsnr" v="581070" />
	</node>
	<node lat="62.90989444242983" lon="7.5649750089527315" id="-13952">
		<tag k="historic" v="shieling" />
		<tag k="name" v="Strandsetra" />
		<tag k="place" v="isolated_dwelling" />
		<tag k="ssr:stedsnr" v="581424" />
	</node>
	<node lat="62.880372223920745" lon="7.328322223967469" id="-13954">
		<tag k="name" v="Johaugen" />
		<tag k="place" v="isolated_dwelling" />
		<tag k="ssr:stedsnr" v="581459" />
	</node>
	<node lat="63.00634166545122" lon="7.299091675346557" id="-13957">
		<tag k="name" v="Hamna" />
		<tag k="place" v="farm" />
		<tag k="ssr:stedsnr" v="581476" />
	</node>
	<node lat="62.82175555398312" lon="7.070355545871918" id="-13982">
		<tag k="name" v="Møstad" />
		<tag k="place" v="farm" />
		<tag k="ssr:stedsnr" v="596234" />
	</node>
	<node lat="62.96721581980775" lon="7.140816107283322" id="-13995">
		<tag k="amenity" v="prison" />
		<tag k="name" v="Hustad fengsel" />
		<tag k="old_name" v="Hustad leir" />
		<tag k="ssr:stedsnr" v="618017" />
	</node>
	<node lat="62.864269444983805" lon="7.005544443742271" id="-13998">
		<tag k="name" v="Lunheim" />
		<tag k="place" v="farm" />
		<tag k="ssr:stedsnr" v="618111" />
	</node>
	<node lat="62.895407044349525" lon="7.159726524817295" id="-13999">
		<tag k="name" v="Løken" />
		<tag k="place" v="farm" />
		<tag k="ssr:stedsnr" v="618142" />
	</node>
	<node lat="62.90491389124183" lon="6.990852787420065" id="-14000">
		<tag k="name" v="Nytun" />
		<tag k="place" v="farm" />
		<tag k="ssr:stedsnr" v="618148" />
	</node>
	<node lat="62.84026944072478" lon="7.0100000038657315" id="-14005">
		<tag k="name" v="Nygard" />
		<tag k="place" v="farm" />
		<tag k="ssr:stedsnr" v="618163" />
	</node>
	<node lat="62.84402500043368" lon="7.08258611236189" id="-14006">
		<tag k="name" v="Rabben" />
		<tag k="place" v="farm" />
		<tag k="ssr:stedsnr" v="618164" />
	</node>
	<node lat="62.840824996772795" lon="7.067219439146555" id="-14007">
		<tag k="name" v="Solbakken" />
		<tag k="place" v="farm" />
		<tag k="ssr:stedsnr" v="618165" />
	</node>
	<node lat="62.84371388914909" lon="7.035972223953946" id="-14008">
		<tag k="name" v="Fredheim" />
		<tag k="place" v="farm" />
		<tag k="ssr:stedsnr" v="618166" />
	</node>
	<node lat="62.85307221881963" lon="7.117719440544672" id="-14011">
		<tag k="name" v="Urda" />
		<tag k="place" v="farm" />
		<tag k="ssr:stedsnr" v="618173" />
	</node>
	<node lat="62.92299721821463" lon="7.292705564496129" id="-14013">
		<tag k="alt_name" v="Bakken, Søre" />
		<tag k="fixme" v="multiple name tags, choose one and add the other to alt_name" />
		<tag k="name" v="Bakken;Søre Bakken" />
		<tag k="place" v="farm" />
		<tag k="ssr:stedsnr" v="618549" />
	</node>
	<node lat="62.82719166277545" lon="7.191994442921059" id="-14018">
		<tag k="name" v="Syltevorpa" />
		<tag k="place" v="farm" />
		<tag k="ssr:stedsnr" v="618759" />
	</node>
	<node lat="62.96735987978682" lon="7.357477231732445" id="-14020">
		<tag k="alt_name" v="Ørjavik" />
		<tag k="fixme" v="consider place=hamlet" />
		<tag k="name" v="Ørjavika" />
		<tag k="place" v="farm" />
		<tag k="ssr:stedsnr" v="618933" />
	</node>
	<node lat="62.95395277334466" lon="7.351802772984506" id="-14022">
		<tag k="name" v="Solbakken" />
		<tag k="place" v="farm" />
		<tag k="ssr:stedsnr" v="618967" />
	</node>
	<node lat="62.92303333624455" lon="7.091111110175143" id="-14025">
		<tag k="name" v="Elvehaug" />
		<tag k="place" v="farm" />
		<tag k="ssr:stedsnr" v="619098" />
	</node>
	<node lat="62.945825001148556" lon="7.017716672127149" id="-14027">
		<tag k="name" v="Vikan" />
		<tag k="place" v="hamlet" />
		<tag k="ssr:stedsnr" v="619146" />
	</node>
	<node lat="62.8273069614369" lon="7.247519230593897" id="-14030">
		<tag k="alt_name" v="Elvebakk" />
		<tag k="name" v="Elvebakken" />
		<tag k="place" v="farm" />
		<tag k="ssr:stedsnr" v="619728" />
	</node>
	<node lat="62.835496518018594" lon="7.2217946270755355" id="-14034">
		<tag k="fixme" v="consider place=hamlet" />
		<tag k="name" v="Sylte" />
		<tag k="place" v="farm" />
		<tag k="ssr:stedsnr" v="619749" />
	</node>
	<node lat="62.795047220041354" lon="7.245647218714318" id="-14038">
		<tag k="name" v="Reitan" />
		<tag k="place" v="isolated_dwelling" />
		<tag k="ssr:stedsnr" v="638821" />
	</node>
	<node lat="62.86784722644688" lon="7.140355558255451" id="-14043">
		<tag k="name" v="Eigarden" />
		<tag k="place" v="farm" />
		<tag k="ssr:stedsnr" v="641001" />
	</node>
	<node lat="62.90336041608151" lon="6.9727157855164625" id="-14044">
		<tag k="alt_name" v="Gunnhildhagen" />
		<tag k="name" v="Råkhaugbakken" />
		<tag k="place" v="farm" />
		<tag k="ssr:stedsnr" v="641022" />
	</node>
	<node lat="62.99090277701399" lon="7.169858323967912" id="-14054">
		<tag k="name" v="Rabben" />
		<tag k="place" v="farm" />
		<tag k="ssr:stedsnr" v="641041" />
	</node>
	<node lat="62.81432499695801" lon="7.230677784667434" id="-14055">
		<tag k="name" v="Nøsavik" />
		<tag k="place" v="farm" />
		<tag k="ssr:stedsnr" v="641045" />
	</node>
	<node lat="62.800288889326225" lon="7.12038333040492" id="-14063">
		<tag k="fixme" v="multiple name tags, choose one and add the other to alt_name" />
		<tag k="historic" v="shieling" />
		<tag k="name" v="Fjellsetra;Bøysetra" />
		<tag k="place" v="isolated_dwelling" />
		<tag k="ssr:stedsnr" v="641441" />
	</node>
	<node lat="62.9833388896925" lon="7.313183335288832" id="-14115">
		<tag k="name" v="Gaustad" />
		<tag k="place" v="farm" />
		<tag k="ssr:stedsnr" v="648381" />
	</node>
	<node lat="62.88163840511241" lon="6.974100997915775" id="-14151">
		<tag k="fixme" v="consider place=hamlet" />
		<tag k="name" v="Vikan" />
		<tag k="place" v="farm" />
		<tag k="ssr:stedsnr" v="739162" />
	</node>
	<node lat="62.92181944389496" lon="7.440027773658752" id="-14154">
		<tag k="name" v="Vollan" />
		<tag k="place" v="farm" />
		<tag k="ssr:stedsnr" v="739552" />
	</node>
	<node lat="62.940113568425566" lon="7.327442804461982" id="-14158">
		<tag k="fixme" v="consider place=hamlet" />
		<tag k="name" v="Bollia" />
		<tag k="place" v="farm" />
		<tag k="ssr:stedsnr" v="739528" />
	</node>
	<node lat="62.85385735372858" lon="7.207886924175974" id="-14171">
		<tag k="fixme" v="consider place=hamlet" />
		<tag k="name" v="Myrbostad" />
		<tag k="place" v="farm" />
		<tag k="ssr:stedsnr" v="740194" />
	</node>
	<node lat="62.853574997044106" lon="7.173533329005844" id="-14172">
		<tag k="name" v="Holten" />
		<tag k="place" v="farm" />
		<tag k="ssr:stedsnr" v="740196" />
	</node>
	<node lat="62.907761115537525" lon="7.218686108043844" id="-14176">
		<tag k="name" v="Ringstad" />
		<tag k="place" v="farm" />
		<tag k="ssr:stedsnr" v="740568" />
	</node>
	<node lat="62.91901110660951" lon="7.0924944383761535" id="-14188">
		<tag k="name" v="Liljuvang" />
		<tag k="place" v="farm" />
		<tag k="ssr:stedsnr" v="741122" />
	</node>
	<node lat="62.995047219118064" lon="7.217349992980269" id="-14204">
		<tag k="name" v="Nergård" />
		<tag k="place" v="farm" />
		<tag k="ssr:stedsnr" v="763063" />
	</node>
	<node lat="62.934191774536906" lon="7.44287920289713" id="-14286">
		<tag k="name" v="Silset" />
		<tag k="place" v="hamlet" />
		<tag k="ssr:stedsnr" v="800489" />
	</node>
	<node lat="62.935083337433014" lon="7.341238884766509" id="-14287">
		<tag k="name" v="Hjellset" />
		<tag k="place" v="farm" />
		<tag k="ssr:stedsnr" v="800497" />
	</node>
	<node lat="62.8941472187985" lon="7.073175005394013" id="-14289">
		<tag k="name" v="Bergtun" />
		<tag k="place" v="farm" />
		<tag k="ssr:stedsnr" v="800152" />
	</node>
	<node lat="62.83924444606228" lon="7.2084999944495225" id="-14292">
		<tag k="name" v="Lynghaug" />
		<tag k="place" v="farm" />
		<tag k="ssr:stedsnr" v="800207" />
	</node>
	<node lat="62.842543924542554" lon="7.175016229444876" id="-14293">
		<tag k="fixme" v="consider place=hamlet" />
		<tag k="name" v="Elnes" />
		<tag k="place" v="farm" />
		<tag k="ssr:stedsnr" v="800208" />
	</node>
	<node lat="62.839005553423426" lon="7.212991663312591" id="-14294">
		<tag k="name" v="Myrvoll" />
		<tag k="place" v="farm" />
		<tag k="ssr:stedsnr" v="800209" />
	</node>
	<node lat="62.85493055237794" lon="7.018066663214406" id="-14296">
		<tag k="name" v="Skråbakken" />
		<tag k="place" v="farm" />
		<tag k="ssr:stedsnr" v="800243" />
	</node>
	<node lat="62.85673901686633" lon="7.183430898504957" id="-14297">
		<tag k="fixme" v="consider place=hamlet" />
		<tag k="name" v="Dale" />
		<tag k="place" v="farm" />
		<tag k="ssr:stedsnr" v="800245" />
	</node>
	<node lat="62.856032591361455" lon="7.152152175843626" id="-14298">
		<tag k="fixme" v="consider place=hamlet" />
		<tag k="name" v="Haukås" />
		<tag k="place" v="farm" />
		<tag k="ssr:stedsnr" v="800248" />
	</node>
	<node lat="62.92179999770824" lon="7.353177772467986" id="-14299">
		<tag k="name" v="Åsen" />
		<tag k="place" v="farm" />
		<tag k="ssr:stedsnr" v="800547" />
	</node>
	<node lat="62.81624789661441" lon="7.192187587921711" id="-14308">
		<tag k="fixme" v="consider place=hamlet" />
		<tag k="name" v="Lindset" />
		<tag k="place" v="farm" />
		<tag k="ssr:stedsnr" v="800765" />
	</node>
	<node lat="62.96124166683234" lon="7.358827778943985" id="-14310">
		<tag k="name" v="Nerland" />
		<tag k="place" v="farm" />
		<tag k="ssr:stedsnr" v="800961" />
	</node>
	<node lat="62.851410601736696" lon="7.162329295213891" id="-14315">
		<tag k="fixme" v="consider place=hamlet" />
		<tag k="name" v="Feta" />
		<tag k="place" v="farm" />
		<tag k="ssr:stedsnr" v="801195" />
	</node>
	<node lat="62.98801388511536" lon="7.245186115955562" id="-14321">
		<tag k="name" v="Langbakken" />
		<tag k="place" v="farm" />
		<tag k="ssr:stedsnr" v="801891" />
	</node>
	<node lat="62.8777805579941" lon="6.9720638826558625" id="-14339">
		<tag k="name" v="Tuftin" />
		<tag k="place" v="farm" />
		<tag k="ssr:stedsnr" v="824030" />
	</node>
	<node lat="62.85699722351369" lon="7.229861118454316" id="-14340">
		<tag k="name" v="Slettvold" />
		<tag k="place" v="farm" />
		<tag k="ssr:stedsnr" v="824049" />
	</node>
	<node lat="62.919878642320846" lon="7.23638165019797" id="-14341">
		<tag k="fixme" v="consider place=hamlet" />
		<tag k="name" v="Kolmannskog" />
		<tag k="place" v="farm" />
		<tag k="ssr:stedsnr" v="824052" />
	</node>
	<node lat="62.9254305542636" lon="7.1919861185722676" id="-14342">
		<tag k="name" v="Kvadsheimbruka" />
		<tag k="place" v="farm" />
		<tag k="ssr:stedsnr" v="824074" />
	</node>
	<node lat="62.934302781302435" lon="7.425086118665152" id="-14347">
		<tag k="alt_name" v="Gl. Silnessetra" />
		<tag k="name" v="Gamle Silnessetra" />
		<tag k="place" v="locality" />
		<tag k="ssr:stedsnr" v="824382" />
	</node>
	<node lat="62.87110278032728" lon="7.27120277435974" id="-14380">
		<tag k="name" v="Holasetra" />
		<tag k="place" v="locality" />
		<tag k="ssr:stedsnr" v="824873" />
	</node>
	<node lat="62.854255555261965" lon="7.137688897019954" id="-14408">
		<tag k="name" v="Elnesvågen" />
		<tag k="place" v="village" />
		<tag k="ssr:stedsnr" v="861182" />
	</node>
	<node lat="62.855713886191594" lon="7.200341669729813" id="-14410">
		<tag k="name" v="Dalstein" />
		<tag k="place" v="farm" />
		<tag k="ssr:stedsnr" v="861187" />
	</node>
	<node lat="62.869088891374524" lon="7.020591672612891" id="-14414">
		<tag k="name" v="Solheim" />
		<tag k="place" v="farm" />
		<tag k="ssr:stedsnr" v="861119" />
	</node>
	<node lat="62.863483334846926" lon="7.0210888806447525" id="-14416">
		<tag k="name" v="Råkvoll" />
		<tag k="place" v="farm" />
		<tag k="ssr:stedsnr" v="861128" />
	</node>
	<node lat="62.89757937071815" lon="7.163128392451655" id="-14418">
		<tag k="fixme" v="consider place=hamlet" />
		<tag k="name" v="Hatle" />
		<tag k="place" v="farm" />
		<tag k="ssr:stedsnr" v="861142" />
	</node>
	<node lat="62.891208082894146" lon="6.976885353215544" id="-14419">
		<tag k="fixme" v="consider place=hamlet" />
		<tag k="name" v="Vestad" />
		<tag k="place" v="farm" />
		<tag k="ssr:stedsnr" v="861144" />
	</node>
	<node lat="62.92709999998094" lon="7.309269452612463" id="-14426">
		<tag k="name" v="Torelia" />
		<tag k="place" v="farm" />
		<tag k="ssr:stedsnr" v="861528" />
	</node>
	<node lat="62.816716663430476" lon="7.202627787221669" id="-14436">
		<tag k="name" v="Kolberg" />
		<tag k="place" v="farm" />
		<tag k="ssr:stedsnr" v="861779" />
	</node>
	<node lat="62.962575125143445" lon="7.081983799212852" id="-14442">
		<tag k="fixme" v="consider place=hamlet" />
		<tag k="name" v="Malefeta" />
		<tag k="place" v="farm" />
		<tag k="ssr:stedsnr" v="862031" />
	</node>
	<node lat="62.940822217745044" lon="7.184552771291124" id="-14445">
		<tag k="name" v="Vatneli" />
		<tag k="place" v="farm" />
		<tag k="ssr:stedsnr" v="862126" />
	</node>
	<node lat="62.94080000038651" lon="7.155130553818825" id="-14446">
		<tag k="name" v="Høgmo" />
		<tag k="place" v="farm" />
		<tag k="ssr:stedsnr" v="862129" />
	</node>
	<node lat="62.94283805910601" lon="7.199608209176932" id="-14447">
		<tag k="fixme" v="consider place=hamlet" />
		<tag k="name" v="Hostad" />
		<tag k="place" v="farm" />
		<tag k="ssr:stedsnr" v="862130" />
	</node>
	<node lat="62.997836110446215" lon="7.298208335194963" id="-14454">
		<tag k="name" v="Hammaren" />
		<tag k="place" v="farm" />
		<tag k="ssr:stedsnr" v="862893" />
	</node>
	<node lat="62.97071111421633" lon="7.312786105793568" id="-14455">
		<tag k="name" v="Skardet" />
		<tag k="place" v="farm" />
		<tag k="ssr:stedsnr" v="862943" />
	</node>
	<node lat="62.82232499591855" lon="7.408927775461433" id="-14459">
		<tag k="fixme" v="consider tourism=alpine_hut or tourism=chalet" />
		<tag k="name" v="Feskarbu" />
		<tag k="ssr:stedsnr" v="875259" />
		<tag k="tourism" v="wilderness_hut" />
	</node>
	<node lat="62.94709618309957" lon="7.018236439072127" id="-14461">
		<tag k="name" v="Vikan" />
		<tag k="place" v="farm" />
		<tag k="ssr:stedsnr" v="875638" />
	</node>
	<node lat="62.8177559261847" lon="7.049467651740202" id="-14486">
		<tag k="fixme" v="consider place=hamlet" />
		<tag k="name" v="Lindset" />
		<tag k="place" v="farm" />
		<tag k="ssr:stedsnr" v="884017" />
	</node>
	<node lat="62.81238610687697" lon="7.206758334777716" id="-14505">
		<tag k="name" v="Blokkehaugen" />
		<tag k="place" v="farm" />
		<tag k="ssr:stedsnr" v="884664" />
	</node>
	<node lat="62.9893361109516" lon="7.223744438315086" id="-14517">
		<tag k="leisure" v="pitch" />
		<tag k="name" v="Bryn stadion" />
		<tag k="ssr:stedsnr" v="884711" />
	</node>
	<node lat="62.79606388869772" lon="7.314436112243166" id="-14523">
		<tag k="leisure" v="pitch" />
		<tag k="name" v="Skarbakken" />
		<tag k="ssr:stedsnr" v="884770" />
	</node>
	<node lat="62.99861111058721" lon="7.230350003345933" id="-14533">
		<tag k="alt_name" v="Skottensvik" />
		<tag k="name" v="Skotheimsvik" />
		<tag k="place" v="farm" />
		<tag k="ssr:stedsnr" v="885032" />
	</node>
	<node lat="62.814563884618934" lon="7.225305562273834" id="-14535">
		<tag k="name" v="Kaven" />
		<tag k="place" v="farm" />
		<tag k="ssr:stedsnr" v="885053" />
	</node>
	<node lat="62.929338886436334" lon="7.436983325218005" id="-14540">
		<tag k="historic" v="shieling" />
		<tag k="name" v="Silsetsetra" />
		<tag k="place" v="isolated_dwelling" />
		<tag k="ssr:stedsnr" v="885378" />
	</node>
	<node lat="62.79227221958518" lon="7.242147225295565" id="-14546">
		<tag k="name" v="Vollbakken" />
		<tag k="place" v="farm" />
		<tag k="ssr:stedsnr" v="942820" />
	</node>
	<node lat="62.788411114787635" lon="7.004263885465671" id="-14553">
		<tag k="name" v="Solheim" />
		<tag k="place" v="farm" />
		<tag k="ssr:stedsnr" v="944021" />
	</node>
	<node lat="62.91414444254334" lon="7.0934388959496415" id="-14563">
		<tag k="name" v="Skarset" />
		<tag k="place" v="farm" />
		<tag k="ssr:stedsnr" v="945002" />
	</node>
	<node lat="62.90857393784644" lon="6.902536096373489" id="-14564">
		<tag k="fixme" v="consider place=hamlet" />
		<tag k="name" v="Vika" />
		<tag k="place" v="farm" />
		<tag k="ssr:stedsnr" v="945024" />
	</node>
	<node lat="62.8335416680396" lon="7.23667222689542" id="-14565">
		<tag k="name" v="Birkeland" />
		<tag k="place" v="farm" />
		<tag k="ssr:stedsnr" v="945047" />
	</node>
	<node lat="62.92858055706274" lon="7.3459722233052025" id="-14573">
		<tag k="name" v="Myrstad" />
		<tag k="place" v="farm" />
		<tag k="ssr:stedsnr" v="945372" />
	</node>
	<node lat="62.84391110758902" lon="7.233672231471408" id="-14607">
		<tag k="name" v="Elvebakken" />
		<tag k="place" v="farm" />
		<tag k="ssr:stedsnr" v="945771" />
	</node>
	<node lat="62.80023888981398" lon="7.241977770692324" id="-14631">
		<tag k="name" v="Malmegjerdet" />
		<tag k="place" v="isolated_dwelling" />
		<tag k="ssr:stedsnr" v="960020" />
	</node>
	<node lat="62.96420000157553" lon="7.049727781956151" id="-14633">
		<tag k="name" v="Vågen" />
		<tag k="place" v="farm" />
		<tag k="ssr:stedsnr" v="960584" />
	</node>
	<node lat="62.85290000211572" lon="7.140330559360518" id="-14640">
		<tag k="name" v="Nedre Teigen" />
		<tag k="place" v="farm" />
		<tag k="ssr:stedsnr" v="969620" />
	</node>
	<node lat="62.89212073908653" lon="6.829221494876264" id="-14649">
		<tag k="name" v="Bjørnsund" />
		<tag k="place" v="hamlet" />
		<tag k="ssr:stedsnr" v="981172" />
	</node>
	<node lat="62.88827004921837" lon="7.464840811113113" id="-14650">
		<tag k="name" v="Øyen" />
		<tag k="place" v="locality" />
		<tag k="ssr:stedsnr" v="980992" />
	</node>
	<node lat="62.92188239979122" lon="7.350758932175574" id="-14652">
		<tag k="fixme" v="consider place=hamlet" />
		<tag k="name" v="Lyngstadås" />
		<tag k="place" v="farm" />
		<tag k="ssr:stedsnr" v="980995" />
	</node>
	<node lat="62.93309043878773" lon="7.444944704113925" id="-14653">
		<tag k="fixme" v="consider place=hamlet" />
		<tag k="name" v="Silset" />
		<tag k="place" v="farm" />
		<tag k="ssr:stedsnr" v="980997" />
	</node>
	<node lat="63.01232257198775" lon="7.32832413618485" id="-14654">
		<tag k="fixme" v="consider place=hamlet" />
		<tag k="name" v="Skarvøya" />
		<tag k="place" v="farm" />
		<tag k="ssr:stedsnr" v="980913" />
	</node>
	<node lat="63.01187766920803" lon="7.2825882791354495" id="-14656">
		<tag k="fixme" v="consider place=hamlet" />
		<tag k="name" v="Smørholmen" />
		<tag k="place" v="farm" />
		<tag k="ssr:stedsnr" v="980916" />
	</node>
	<node lat="63.00796279438855" lon="7.272755762554547" id="-14657">
		<tag k="fixme" v="consider place=hamlet" />
		<tag k="name" v="Langøya" />
		<tag k="place" v="farm" />
		<tag k="ssr:stedsnr" v="980925" />
	</node>
	<node lat="63.00672363273602" lon="7.2530383038492126" id="-14658">
		<tag k="fixme" v="consider place=hamlet" />
		<tag k="name" v="Orøya" />
		<tag k="place" v="farm" />
		<tag k="ssr:stedsnr" v="980926" />
	</node>
	<node lat="62.98339085447442" lon="7.121347230144802" id="-14659">
		<tag k="fixme" v="consider place=hamlet" />
		<tag k="name" v="Storholmen" />
		<tag k="place" v="farm" />
		<tag k="ssr:stedsnr" v="981206" />
	</node>
	<node lat="62.955307023697635" lon="7.099855913715583" id="-14660">
		<tag k="fixme" v="consider place=hamlet" />
		<tag k="name" v="Hustad" />
		<tag k="place" v="farm" />
		<tag k="ssr:stedsnr" v="981207" />
	</node>
	<node lat="62.952432220544914" lon="7.0040159915178615" id="-14661">
		<tag k="fixme" v="consider place=hamlet" />
		<tag k="name" v="Skutholmen" />
		<tag k="place" v="farm" />
		<tag k="ssr:stedsnr" v="981211" />
	</node>
	<node lat="62.92031866135093" lon="6.941977489818063" id="-14662">
		<tag k="fixme" v="consider place=hamlet" />
		<tag k="name" v="Fagervika" />
		<tag k="place" v="farm" />
		<tag k="ssr:stedsnr" v="981212" />
	</node>
	<node lat="62.91616557518985" lon="6.936726608785485" id="-14663">
		<tag k="name" v="Engelsberget" />
		<tag k="place" v="locality" />
		<tag k="ssr:stedsnr" v="981213" />
	</node>
	<node lat="62.96178725204624" lon="7.18624069589266" id="-14666">
		<tag k="name" v="Lille Rødalen" />
		<tag k="place" v="farm" />
		<tag k="ssr:stedsnr" v="982266" />
	</node>
	<node lat="62.96182069451461" lon="7.186228072291564" id="-14667">
		<tag k="name" v="Litlrødalen" />
		<tag k="place" v="farm" />
		<tag k="ssr:stedsnr" v="982268" />
	</node>
	<node lat="62.855599906595074" lon="7.164431336129319" id="-14674">
		<tag k="name" v="Haukås" />
		<tag k="place" v="farm" />
		<tag k="ssr:stedsnr" v="982283" />
	</node>
	<node lat="62.816502888471774" lon="7.192960450906323" id="-14675">
		<tag k="name" v="Lindset" />
		<tag k="place" v="farm" />
		<tag k="ssr:stedsnr" v="982284" />
	</node>
	<node lat="62.956569098047595" lon="7.175952468874598" id="-14689">
		<tag k="name" v="Brandshaug" />
		<tag k="place" v="farm" />
		<tag k="ssr:stedsnr" v="983521" />
	</node>
	<node lat="62.79634176014949" lon="6.986229886218533" id="-14691">
		<tag k="name" v="Jendemsvorpa" />
		<tag k="place" v="farm" />
		<tag k="ssr:stedsnr" v="983524" />
	</node>
	<node lat="62.926759776235144" lon="7.447870570483305" id="-14880">
		<tag k="name" v="Bjerkelund" />
		<tag k="place" v="farm" />
		<tag k="ssr:stedsnr" v="1073420" />
	</node>
	<node lat="62.99429457241278" lon="7.215869751149243" id="-14897">
		<tag k="name" v="Solstad" />
		<tag k="place" v="farm" />
		<tag k="ssr:stedsnr" v="1080973" />
	</node>
	<node lat="62.84895586086981" lon="7.037364942549506" id="-14898">
		<tag k="name" v="Myrstad" />
		<tag k="place" v="farm" />
		<tag k="ssr:stedsnr" v="1082680" />
	</node>
</osm>
