<?xml version="1.0" encoding="UTF-8"?>
<osm generator="osmapis" version="0.6">
	<node id="-12288" lat="62.8827583367" lon="7.48270278406">
		<tag k="name" v="Kammyra" />
		<tag k="natural" v="wetland" />
		<tag k="ssr:stedsnr" v="702424" />
	</node>
	<node id="-11264" lat="62.8775166706" lon="7.09132500547">
		<tag k="name" v="Grønlimyra" />
		<tag k="natural" v="wetland" />
		<tag k="ssr:stedsnr" v="95606" />
	</node>
	<node id="-11349" lat="62.9133583292" lon="7.37130833867">
		<tag k="name" v="Ljøsmyrane" />
		<tag k="natural" v="wetland" />
		<tag k="ssr:stedsnr" v="277216" />
	</node>
	<node id="-12281" lat="62.8734055587" lon="7.44791666956">
		<tag k="name" v="Rundsteinen" />
		<tag k="natural" v="stone" />
		<tag k="ssr:stedsnr" v="702265" />
	</node>
	<node id="-14327" lat="62.9538277787" lon="7.09952499961">
		<tag k="name" v="Hundesteinen" />
		<tag k="natural" v="stone" />
		<tag k="ssr:stedsnr" v="763721" />
	</node>
	<node id="-14326" lat="62.9232166678" lon="7.57273333538">
		<tag k="name" v="Stormyra" />
		<tag k="natural" v="wetland" />
		<tag k="ssr:stedsnr" v="763711" />
	</node>
	<node id="-13813" lat="62.8857833333" lon="7.48424166404">
		<tag k="name" v="Sagmyra" />
		<tag k="natural" v="wetland" />
		<tag k="ssr:stedsnr" v="520453" />
	</node>
	<node id="-14319" lat="62.8467138861" lon="7.19504721351">
		<tag k="name" v="Elnesmyrane" />
		<tag k="natural" v="wetland" />
		<tag k="ssr:stedsnr" v="763691" />
	</node>
	<node id="-14314" lat="62.8141055536" lon="7.03210000903">
		<tag k="name" v="Stordikene" />
		<tag k="natural" v="wetland" />
		<tag k="ssr:stedsnr" v="763437" />
	</node>
	<node id="-14309" lat="62.9167916712" lon="7.55106389704">
		<tag k="name" v="Martinsteinen" />
		<tag k="natural" v="stone" />
		<tag k="ssr:stedsnr" v="763415" />
	</node>
	<node id="-13795" lat="62.9102944466" lon="7.41526944519">
		<tag k="name" v="Øver Hyll-løkmyra" />
		<tag k="natural" v="wetland" />
		<tag k="ssr:stedsnr" v="520358" />
	</node>
	<node id="-14306" lat="62.8971361081" lon="7.55294167474">
		<tag k="name" v="Nybelimyran" />
		<tag k="natural" v="wetland" />
		<tag k="ssr:stedsnr" v="763406" />
	</node>
	<node id="-13793" lat="62.8910944401" lon="7.37974722645">
		<tag k="name" v="Skonsbømyran" />
		<tag k="natural" v="wetland" />
		<tag k="ssr:stedsnr" v="520331" />
	</node>
	<node id="-14304" lat="62.9027694432" lon="7.54515000628">
		<tag k="name" v="Sandnesmyra" />
		<tag k="natural" v="wetland" />
		<tag k="ssr:stedsnr" v="763402" />
	</node>
	<node id="-13790" lat="62.8847222219" lon="7.46567777279">
		<tag k="name" v="Kalvhågan" />
		<tag k="place" v="locality" />
		<tag k="ssr:stedsnr" v="520308" />
	</node>
	<node id="-14299" lat="62.9017999955" lon="6.93194999603">
		<tag k="name" v="Nesavollen" />
		<tag k="place" v="locality" />
		<tag k="ssr:stedsnr" v="763391" />
	</node>
	<node id="-13266" lat="62.9753416657" lon="7.16856112008">
		<tag k="name" v="Purka" />
		<tag k="natural" v="stone" />
		<tag k="ssr:stedsnr" v="156994" />
	</node>
	<node id="-14288" lat="62.89154444" lon="7.35373888026">
		<tag k="name" v="Smongslætta" />
		<tag k="place" v="locality" />
		<tag k="ssr:stedsnr" v="763248" />
	</node>
	<node id="-14281" lat="62.8940444412" lon="7.3996444395">
		<tag k="name" v="Øymyra" />
		<tag k="natural" v="wetland" />
		<tag k="ssr:stedsnr" v="763504" />
	</node>
	<node id="-13255" lat="62.9071527778" lon="7.07244721709">
		<tag k="name" v="Ljøsmyra" />
		<tag k="natural" v="wetland" />
		<tag k="ssr:stedsnr" v="156893" />
	</node>
	<node id="-12227" lat="62.9527472191" lon="7.2014027827">
		<tag k="name" v="Orsteinen" />
		<tag k="natural" v="stone" />
		<tag k="ssr:stedsnr" v="884745" />
	</node>
	<node id="-14274" lat="62.9739305595" lon="7.26422221911">
		<tag k="name" v="Stormyra" />
		<tag k="natural" v="wetland" />
		<tag k="ssr:stedsnr" v="762948" />
	</node>
	<node id="-14273" lat="62.8526999966" lon="7.06008333309">
		<tag k="name" v="Grisholmyra" />
		<tag k="natural" v="wetland" />
		<tag k="ssr:stedsnr" v="762652" />
	</node>
	<node id="-11195" lat="62.8792111109" lon="7.41364999371">
		<tag k="name" v="Frantsmyran" />
		<tag k="natural" v="wetland" />
		<tag k="ssr:stedsnr" v="35406" />
	</node>
	<node id="-13234" lat="62.9528333358" lon="7.10255277187">
		<tag k="name" v="Kløvsteinen" />
		<tag k="natural" v="stone" />
		<tag k="ssr:stedsnr" v="156704" />
	</node>
	<node id="-13230" lat="62.8920777794" lon="7.20513611649">
		<tag k="name" v="Storfonna" />
		<tag k="place" v="locality" />
		<tag k="ssr:stedsnr" v="156672" />
	</node>
	<node id="-13227" lat="62.8732638913" lon="7.10690555056">
		<tag k="name" v="Gjerdhaugmyra" />
		<tag k="natural" v="wetland" />
		<tag k="ssr:stedsnr" v="156644" />
	</node>
	<node id="-11690" lat="62.9381083353" lon="7.18048889206">
		<tag k="name" v="Farstad Ny Jord" />
		<tag k="natural" v="wetland" />
		<tag k="ssr:stedsnr" v="460644" />
	</node>
	<node id="-12200" lat="62.7952583323" lon="7.04588055508">
		<tag k="name" v="Øvre Voll" />
		<tag k="place" v="locality" />
		<tag k="ssr:stedsnr" v="884388" />
	</node>
	<node id="-12711" lat="62.8983055526" lon="7.37186944098">
		<tag k="name" v="Vallesteinen" />
		<tag k="natural" v="stone" />
		<tag k="ssr:stedsnr" v="945224" />
	</node>
	<node id="-11685" lat="62.8780111122" lon="7.44159722602">
		<tag k="name" v="Vollmyra" />
		<tag k="natural" v="wetland" />
		<tag k="ssr:stedsnr" v="460517" />
	</node>
	<node id="-11684" lat="62.8765694404" lon="7.4157222229">
		<tag k="name" v="Seterøya" />
		<tag k="natural" v="wetland" />
		<tag k="ssr:stedsnr" v="460514" />
	</node>
	<node id="-12191" lat="62.988861107" lon="7.30473610973">
		<tag k="name" v="Femershågmyra" />
		<tag k="natural" v="wetland" />
		<tag k="ssr:stedsnr" v="884241" />
	</node>
	<node id="-11162" lat="62.8719861095" lon="7.09849167347">
		<tag k="name" v="Langmyra" />
		<tag k="natural" v="wetland" />
		<tag k="ssr:stedsnr" v="217890" />
	</node>
	<node id="-11759" lat="62.8140277782" lon="7.39035832697">
		<tag k="historic" v="shieling" />
		<tag k="loc_name" v="Gunnillsetra" />
		<tag k="name" v="Gunnhildsetra" />
		<tag k="place" v="locality" />
		<tag k="ssr:stedsnr" v="338813" />
	</node>
	<node id="-13208" lat="62.9301638862" lon="7.34197777001">
		<tag k="name" v="Stormyra" />
		<tag k="natural" v="wetland" />
		<tag k="ssr:stedsnr" v="156430" />
	</node>
	<node id="-11588" lat="62.8487416657" lon="7.050905553">
		<tag k="name" v="Henrikmyra" />
		<tag k="natural" v="wetland" />
		<tag k="ssr:stedsnr" v="277418" />
	</node>
	<node id="-13206" lat="62.9175222238" lon="7.57749721252">
		<tag k="name" v="Høystakkmyra" />
		<tag k="natural" v="wetland" />
		<tag k="ssr:stedsnr" v="156397" />
	</node>
	<node id="-11157" lat="62.9223027756" lon="7.40249166525">
		<tag k="name" v="Langura" />
		<tag k="natural" v="scree" />
		<tag k="ssr:stedsnr" v="217699" />
	</node>
	<node id="-11667" lat="62.9499388879" lon="7.35610555131">
		<tag k="name" v="Gjerdamyra" />
		<tag k="natural" v="wetland" />
		<tag k="ssr:stedsnr" v="460330" />
	</node>
	<node id="-11664" lat="62.9123611153" lon="7.28515277778">
		<tag k="name" v="Stakkslættet" />
		<tag k="natural" v="wetland" />
		<tag k="ssr:stedsnr" v="460267" />
	</node>
	<node id="-14213" lat="62.9790472212" lon="7.1717833321">
		<tag k="name" v="Stor-ora" />
		<tag k="natural" v="scree" />
		<tag k="ssr:stedsnr" v="641997" />
	</node>
	<node id="-12676" lat="62.9345305597" lon="7.13661388336">
		<tag k="name" v="Kvilaren" />
		<tag k="natural" v="stone" />
		<tag k="ssr:stedsnr" v="884970" />
	</node>
	<node id="-11651" lat="62.862922225" lon="7.26146388921">
		<tag k="name" v="Vølkøyna" />
		<tag k="natural" v="wetland" />
		<tag k="ssr:stedsnr" v="459967" />
	</node>
	<node id="-13186" lat="62.886280556" lon="7.44632500447">
		<tag k="name" v="Alesplassen" />
		<tag k="place" v="locality" />
		<tag k="ssr:stedsnr" v="156288" />
	</node>
	<node id="-14207" lat="62.9900111129" lon="7.17885555143">
		<tag k="name" v="Løken" />
		<tag k="natural" v="wetland" />
		<tag k="ssr:stedsnr" v="641957" />
	</node>
	<node id="-13178" lat="62.957711109" lon="7.3530138917">
		<tag k="name" v="Brennvinsmyra" />
		<tag k="natural" v="wetland" />
		<tag k="ssr:stedsnr" v="156258" />
	</node>
	<node id="-13177" lat="62.9899805526" lon="7.2495277698">
		<tag k="name" v="Kvitsteinen" />
		<tag k="natural" v="stone" />
		<tag k="ssr:stedsnr" v="156257" />
	</node>
	<node id="-13176" lat="62.991297226" lon="7.3085722206">
		<tag k="name" v="Trollsteinan" />
		<tag k="natural" v="stone" />
		<tag k="ssr:stedsnr" v="156254" />
	</node>
	<node id="-13686" lat="62.9616833303" lon="7.16086665869">
		<tag k="name" v="Einløken" />
		<tag k="place" v="locality" />
		<tag k="ssr:stedsnr" v="399982" />
	</node>
	<node id="-12146" lat="62.9772666674" lon="7.2646944437">
		<tag k="name" v="Svinmyra" />
		<tag k="natural" v="wetland" />
		<tag k="ssr:stedsnr" v="640942" />
	</node>
	<node id="-12656" lat="62.8187138932" lon="7.058072223">
		<tag k="name" v="Rødhaugmyra" />
		<tag k="natural" v="wetland" />
		<tag k="ssr:stedsnr" v="884553" />
	</node>
	<node id="-14188" lat="62.8666694478" lon="7.24596666144">
		<tag k="name" v="Varholmyrane" />
		<tag k="natural" v="wetland" />
		<tag k="ssr:stedsnr" v="641786" />
	</node>
	<node id="-12649" lat="62.8774694471" lon="7.08205833981">
		<tag k="name" v="Depelmyra" />
		<tag k="natural" v="wetland" />
		<tag k="ssr:stedsnr" v="884621" />
	</node>
	<node id="-13156" lat="62.9426388867" lon="7.37903333369">
		<tag k="name" v="Steinbakken" />
		<tag k="natural" v="stone" />
		<tag k="ssr:stedsnr" v="155362" />
	</node>
	<node id="-13627" lat="62.9232111153" lon="7.57462499819">
		<tag k="name" v="Otersteinan" />
		<tag k="natural" v="stone" />
		<tag k="ssr:stedsnr" v="399451" />
	</node>
	<node id="-11616" lat="62.9627194406" lon="7.38037222516">
		<tag k="name" v="Prekstolen" />
		<tag k="natural" v="stone" />
		<tag k="ssr:stedsnr" v="459327" />
	</node>
	<node id="-11749" lat="62.8438222234" lon="7.00518332691">
		<tag k="name" v="Sør Levran" />
		<tag k="place" v="locality" />
		<tag k="ssr:stedsnr" v="475045" />
	</node>
	<node id="-14172" lat="62.8894611092" lon="7.19967222232">
		<tag k="name" v="Ragnhildfonna" />
		<tag k="place" v="locality" />
		<tag k="ssr:stedsnr" v="641658" />
	</node>
	<node id="-11611" lat="62.9401222248" lon="7.00707777411">
		<tag k="name" v="Dalsmyra" />
		<tag k="natural" v="wetland" />
		<tag k="ssr:stedsnr" v="277933" />
	</node>
	<node id="-11604" lat="62.9422222263" lon="7.26819166644">
		<tag k="name" v="Storslættet" />
		<tag k="place" v="locality" />
		<tag k="ssr:stedsnr" v="459245" />
	</node>
	<node id="-14051" lat="62.912236109" lon="7.26369999593">
		<tag k="name" v="Stormyra" />
		<tag k="natural" v="wetland" />
		<tag k="ssr:stedsnr" v="618533" />
	</node>
	<node id="-11597" lat="62.880272223" lon="7.23530277427">
		<tag k="name" v="Skabakkøyan" />
		<tag k="natural" v="wetland" />
		<tag k="ssr:stedsnr" v="277810" />
	</node>
	<node id="-12618" lat="62.8463500026" lon="7.2343111168">
		<tag k="name" v="Djupøyna" />
		<tag k="natural" v="wetland" />
		<tag k="ssr:stedsnr" v="945955" />
	</node>
	<node id="-12104" lat="62.8725194415" lon="7.416583337">
		<tag k="historic" v="shieling" />
		<tag k="name" v="Stølen" />
		<tag k="place" v="locality" />
		<tag k="ssr:stedsnr" v="581493" />
	</node>
	<node id="-12100" lat="62.9451611098" lon="7.27893334324">
		<tag k="name" v="Jøssmyra" />
		<tag k="natural" v="wetland" />
		<tag k="ssr:stedsnr" v="581480" />
	</node>
	<node id="-13622" lat="62.8951916696" lon="7.50890833801">
		<tag k="name" v="Raudmelan" />
		<tag k="natural" v="wetland" />
		<tag k="ssr:stedsnr" v="399434" />
	</node>
	<node id="-12610" lat="62.9060222197" lon="6.93009721524">
		<tag k="name" v="Korsmyra" />
		<tag k="natural" v="wetland" />
		<tag k="ssr:stedsnr" v="945921" />
	</node>
	<node id="-11766" lat="62.8059249986" lon="7.20948611959">
		<tag k="name" v="Malmerøysan" />
		<tag k="natural" v="scree" />
		<tag k="ssr:stedsnr" v="353010" />
	</node>
	<node id="-13119" lat="62.884908335" lon="7.50752500078">
		<tag k="name" v="Ugelstadmyra" />
		<tag k="natural" v="wetland" />
		<tag k="ssr:stedsnr" v="132611" />
	</node>
	<node id="-13118" lat="62.9196416658" lon="7.24400000522">
		<tag k="name" v="Kolmannskogen" />
		<tag k="place" v="locality" />
		<tag k="ssr:stedsnr" v="132551" />
	</node>
	<node id="-14141" lat="62.8432777739" lon="7.00939722034">
		<tag k="name" v="Vardhaugmyra" />
		<tag k="natural" v="wetland" />
		<tag k="ssr:stedsnr" v="641398" />
	</node>
	<node id="-11579" lat="62.8927444408" lon="7.455063893">
		<tag k="name" v="Svanvikmyran" />
		<tag k="natural" v="wetland" />
		<tag k="ssr:stedsnr" v="277307" />
	</node>
	<node id="-11578" lat="62.8974722222" lon="7.39343333131">
		<tag k="name" v="Vassbuslættet" />
		<tag k="place" v="locality" />
		<tag k="ssr:stedsnr" v="277306" />
	</node>
	<node id="-12598" lat="62.7973138864" lon="7.04051665878">
		<tag k="name" v="Fonna" />
		<tag k="place" v="locality" />
		<tag k="ssr:stedsnr" v="945821" />
	</node>
	<node id="-11433" lat="62.9136416693" lon="7.45486945112">
		<tag k="name" v="Kobbsteinan" />
		<tag k="natural" v="stone" />
		<tag k="ssr:stedsnr" v="278435" />
	</node>
	<node id="-11564" lat="63.0041194477" lon="7.26853334275">
		<tag k="historic" v="shieling" />
		<tag k="name" v="Mjølkstølen" />
		<tag k="place" v="locality" />
		<tag k="ssr:stedsnr" v="255411" />
	</node>
	<node id="-12070" lat="62.8912444449" lon="7.20378333506">
		<tag k="name" v="Nedbrøtfonna" />
		<tag k="place" v="locality" />
		<tag k="ssr:stedsnr" v="580668" />
	</node>
	<node id="-12580" lat="62.8701749971" lon="7.06998333214">
		<tag k="name" v="Høglimyra" />
		<tag k="natural" v="wetland" />
		<tag k="ssr:stedsnr" v="945633" />
	</node>
	<node id="-12251" lat="62.910005559" lon="7.40853055522">
		<tag k="name" v="Ner Hyll-løkmyra" />
		<tag k="natural" v="wetland" />
		<tag k="ssr:stedsnr" v="885384" />
	</node>
	<node id="-12574" lat="62.8083638931" lon="7.13830555306">
		<tag k="name" v="Råhaugmyra" />
		<tag k="natural" v="wetland" />
		<tag k="ssr:stedsnr" v="945557" />
	</node>
	<node id="-13081" lat="62.9572472197" lon="7.08190833699">
		<tag k="name" v="Knipamyra" />
		<tag k="natural" v="wetland" />
		<tag k="ssr:stedsnr" v="95682" />
	</node>
	<node id="-14098" lat="62.8945916702" lon="7.36932221856">
		<tag k="name" v="Bjønnasteinen" />
		<tag k="natural" v="stone" />
		<tag k="ssr:stedsnr" v="641182" />
	</node>
	<node id="-11395" lat="62.9888916625" lon="7.19940555335">
		<tag k="name" v="Kleivteigane" />
		<tag k="place" v="locality" />
		<tag k="ssr:stedsnr" v="277676" />
	</node>
	<node id="-12042" lat="62.8063638865" lon="7.30591944432">
		<tag k="historic" v="shieling" />
		<tag k="name" v="Malmedalssetra" />
		<tag k="place" v="locality" />
		<tag k="ssr:stedsnr" v="702731" />
	</node>
	<node id="-12041" lat="62.969305558" lon="7.23236111643">
		<tag k="name" v="Kyrhaugmyrane" />
		<tag k="natural" v="wetland" />
		<tag k="ssr:stedsnr" v="702717" />
	</node>
	<node id="-12550" lat="62.8834249975" lon="7.42111666843">
		<tag k="name" v="Kvennhusmyran" />
		<tag k="natural" v="wetland" />
		<tag k="ssr:stedsnr" v="945301" />
	</node>
	<node id="-13061" lat="62.8448916628" lon="7.01394723153">
		<tag k="name" v="Våthaugmyra" />
		<tag k="natural" v="wetland" />
		<tag k="ssr:stedsnr" v="95397" />
	</node>
	<node id="-13058" lat="62.7866777815" lon="7.03240555686">
		<tag k="name" v="Gaddemyra" />
		<tag k="natural" v="wetland" />
		<tag k="ssr:stedsnr" v="95378" />
	</node>
	<node id="-14079" lat="62.7734611145" lon="7.07710000891">
		<tag k="name" v="Dølmeskarmyra" />
		<tag k="natural" v="wetland" />
		<tag k="ssr:stedsnr" v="638878" />
	</node>
	<node id="-13053" lat="62.9072555559" lon="7.49136944167">
		<tag k="name" v="Ingebrigtsteinen" />
		<tag k="natural" v="stone" />
		<tag k="ssr:stedsnr" v="95278" />
	</node>
	<node id="-12159" lat="62.7690861117" lon="7.0841527686">
		<tag k="name" v="Stormyra" />
		<tag k="natural" v="wetland" />
		<tag k="ssr:stedsnr" v="881870" />
	</node>
	<node id="-13048" lat="62.8845416654" lon="7.46161388393">
		<tag k="name" v="Djupmyran" />
		<tag k="natural" v="wetland" />
		<tag k="ssr:stedsnr" v="95264" />
	</node>
	<node id="-12022" lat="62.9406083339" lon="7.14724722603">
		<tag k="name" v="Nerlands Ny Jord" />
		<tag k="natural" v="wetland" />
		<tag k="ssr:stedsnr" v="702591" />
	</node>
	<node id="-11505" lat="62.7950027773" lon="7.04993332894">
		<tag k="name" v="Nedre Voll" />
		<tag k="place" v="locality" />
		<tag k="ssr:stedsnr" v="217422" />
	</node>
	<node id="-11501" lat="62.9154916636" lon="7.28857776893">
		<tag k="name" v="Sirimyra" />
		<tag k="natural" v="wetland" />
		<tag k="ssr:stedsnr" v="217407" />
	</node>
	<node id="-12522" lat="62.885666668" lon="7.09742221277">
		<tag k="name" v="Pålslættet" />
		<tag k="place" v="locality" />
		<tag k="ssr:stedsnr" v="944684" />
	</node>
	<node id="-12520" lat="62.8840000007" lon="7.49641945247">
		<tag k="alt_name" v="Liaura" />
		<tag k="name" v="Liaurda" />
		<tag k="natural" v="scree" />
		<tag k="ssr:stedsnr" v="861613" />
	</node>
	<node id="-13028" lat="62.9128861067" lon="7.29725554909">
		<tag k="name" v="Nubuslættet" />
		<tag k="place" v="locality" />
		<tag k="ssr:stedsnr" v="95177" />
	</node>
	<node id="-14563" lat="62.9756555512" lon="7.24695276993">
		<tag k="name" v="Sandblåstmyran" />
		<tag k="natural" v="wetland" />
		<tag k="ssr:stedsnr" v="862925" />
	</node>
	<node id="-12508" lat="62.9445722231" lon="7.37855276791">
		<tag k="name" v="Øverlimyra" />
		<tag k="natural" v="wetland" />
		<tag k="ssr:stedsnr" v="944423" />
	</node>
	<node id="-11987" lat="62.8959611134" lon="7.46131389638">
		<tag k="name" v="Sorsetmyran" />
		<tag k="natural" v="wetland" />
		<tag k="ssr:stedsnr" v="702299" />
	</node>
	<node id="-13005" lat="62.8892194465" lon="7.04163055255">
		<tag k="name" v="Stavikmyran" />
		<tag k="natural" v="wetland" />
		<tag k="ssr:stedsnr" v="81495" />
	</node>
	<node id="-12487" lat="62.9835500038" lon="7.15416110631">
		<tag k="name" v="Storsteinen" />
		<tag k="natural" v="stone" />
		<tag k="ssr:stedsnr" v="824710" />
	</node>
	<node id="-12483" lat="62.8811499988" lon="7.42531944667">
		<tag k="name" v="Postmyra" />
		<tag k="natural" v="wetland" />
		<tag k="ssr:stedsnr" v="824461" />
	</node>
	<node id="-12481" lat="62.8492138922" lon="7.03103887899">
		<tag k="name" v="Hjellmyra" />
		<tag k="natural" v="wetland" />
		<tag k="ssr:stedsnr" v="824457" />
	</node>
	<node id="-12480" lat="62.9646972243" lon="7.35004443585">
		<tag k="name" v="Tjørmyra" />
		<tag k="natural" v="wetland" />
		<tag k="ssr:stedsnr" v="824454" />
	</node>
	<node id="-11453" lat="62.8076138924" lon="7.21813332937">
		<tag k="name" v="Malmeøyra" />
		<tag k="place" v="locality" />
		<tag k="ssr:stedsnr" v="171028" />
	</node>
	<node id="-11550" lat="62.9096888921" lon="7.37311110385">
		<tag k="name" v="Storløken" />
		<tag k="natural" v="wetland" />
		<tag k="ssr:stedsnr" v="254554" />
	</node>
	<node id="-11953" lat="62.7738805521" lon="7.06150555514">
		<tag k="name" v="Vassmyra" />
		<tag k="natural" v="wetland" />
		<tag k="ssr:stedsnr" v="699885" />
	</node>
	<node id="-13999" lat="62.9880527815" lon="7.18886388042">
		<tag k="name" v="Skottenora" />
		<tag k="natural" v="scree" />
		<tag k="old_name" v="Skotten ora" />
		<tag k="ssr:stedsnr" v="581686" />
	</node>
	<node id="-11437" lat="62.9268250015" lon="7.32953610353">
		<tag k="name" v="Stormyra" />
		<tag k="natural" v="wetland" />
		<tag k="ssr:stedsnr" v="278472" />
	</node>
	<node id="-12457" lat="62.7998277754" lon="7.35815278124">
		<tag k="name" v="Berrmyran" />
		<tag k="natural" v="wetland" />
		<tag k="ssr:stedsnr" v="801755" />
	</node>
	<node id="-11942" lat="62.8711055576" lon="7.35762221362">
		<tag k="name" v="Porkheia" />
		<tag k="natural" v="wetland" />
		<tag k="ssr:stedsnr" v="520416" />
	</node>
	<node id="-13989" lat="62.9123750034" lon="7.38173054688">
		<tag k="name" v="Storløkmyra" />
		<tag k="natural" v="wetland" />
		<tag k="ssr:stedsnr" v="581405" />
	</node>
	<node id="-13981" lat="62.8592499994" lon="7.20835000529">
		<tag k="name" v="Bøen" />
		<tag k="place" v="locality" />
		<tag k="ssr:stedsnr" v="580994" />
	</node>
	<node id="-11927" lat="62.920833335" lon="7.39139721367">
		<tag k="name" v="Skredhola" />
		<tag k="place" v="locality" />
		<tag k="ssr:stedsnr" v="497511" />
	</node>
	<node id="-14484" lat="62.9584138901" lon="7.16379444479">
		<tag k="name" v="Farstad Ny Jord" />
		<tag k="natural" v="wetland" />
		<tag k="ssr:stedsnr" v="824743" />
	</node>
	<node id="-14483" lat="62.9531861114" lon="7.13245278443">
		<tag k="name" v="Nerlands Ny Jord" />
		<tag k="natural" v="wetland" />
		<tag k="ssr:stedsnr" v="824740" />
	</node>
	<node id="-12431" lat="62.9156861111" lon="7.02438056487">
		<tag k="name" v="Gulmyran" />
		<tag k="natural" v="wetland" />
		<tag k="ssr:stedsnr" v="923094" />
	</node>
	<node id="-11406" lat="62.8830888849" lon="7.03941110536">
		<tag k="name" v="Langmyra" />
		<tag k="natural" v="wetland" />
		<tag k="ssr:stedsnr" v="277939" />
	</node>
	<node id="-14476" lat="62.8294416692" lon="7.26938888861">
		<tag k="name" v="Dikeskarmyra" />
		<tag k="natural" v="wetland" />
		<tag k="ssr:stedsnr" v="824786" />
	</node>
	<node id="-13250" lat="62.7945861119" lon="7.05309722772">
		<tag k="name" v="Lægdin" />
		<tag k="place" v="locality" />
		<tag k="ssr:stedsnr" v="156836" />
	</node>
	<node id="-12823" lat="62.776005552" lon="7.10938610922">
		<tag k="name" v="Myrane" />
		<tag k="natural" v="wetland" />
		<tag k="ssr:stedsnr" v="32885" />
	</node>
	<node id="-13960" lat="62.7702611078" lon="7.05534444729">
		<tag k="alt_name" v="Hammarvåtå" />
		<tag k="name" v="Hammarvåta" />
		<tag k="natural" v="wetland" />
		<tag k="ssr:stedsnr" v="580391" />
	</node>
	<node id="-12931" lat="62.9065083326" lon="7.22478889392">
		<tag k="historic" v="shieling" />
		<tag k="name" v="Stølen" />
		<tag k="place" v="locality" />
		<tag k="ssr:stedsnr" v="35950" />
	</node>
	<node id="-14464" lat="62.9191277739" lon="7.20089167312">
		<tag k="name" v="Demme-Lars-steinen" />
		<tag k="natural" v="stone" />
		<tag k="ssr:stedsnr" v="824685" />
	</node>
	<node id="-11391" lat="62.8899416642" lon="7.07245278553">
		<tag k="name" v="Svartgjølsteinen" />
		<tag k="natural" v="stone" />
		<tag k="ssr:stedsnr" v="277636" />
	</node>
	<node id="-13946" lat="62.9500250019" lon="7.0876944503">
		<tag k="name" v="Tepphaugkilen" />
		<tag k="place" v="locality" />
		<tag k="ssr:stedsnr" v="580570" />
	</node>
	<node id="-12921" lat="62.8725611131" lon="7.26557221465">
		<tag k="name" v="Haugasletta" />
		<tag k="natural" v="wetland" />
		<tag k="ssr:stedsnr" v="35880" />
	</node>
	<node id="-13331" lat="62.8791749969" lon="7.13994722671">
		<tag k="name" v="Prestelvmyra" />
		<tag k="natural" v="wetland" />
		<tag k="ssr:stedsnr" v="216637" />
	</node>
	<node id="-12910" lat="62.7994944448" lon="7.30304999133">
		<tag k="name" v="Hjellbakkmyra" />
		<tag k="natural" v="wetland" />
		<tag k="ssr:stedsnr" v="35826" />
	</node>
	<node id="-12902" lat="62.8864055514" lon="7.5374250084">
		<tag k="name" v="Vassmyra" />
		<tag k="natural" v="wetland" />
		<tag k="ssr:stedsnr" v="35739" />
	</node>
	<node id="-14437" lat="62.9104749992" lon="7.33677777726">
		<tag k="name" v="Sandnesøya" />
		<tag k="natural" v="wetland" />
		<tag k="ssr:stedsnr" v="824292" />
	</node>
	<node id="-13921" lat="62.9190777779" lon="7.31963888295">
		<tag k="name" v="Vargholsteinan" />
		<tag k="natural" v="stone" />
		<tag k="ssr:stedsnr" v="580209" />
	</node>
	<node id="-12894" lat="62.939933335" lon="7.12500000456">
		<tag k="name" v="Frimannsfeltet" />
		<tag k="natural" v="wetland" />
		<tag k="ssr:stedsnr" v="35668" />
	</node>
	<node id="-13915" lat="62.9007499961" lon="7.04509166818">
		<tag k="name" v="Vestadmyran" />
		<tag k="natural" v="wetland" />
		<tag k="ssr:stedsnr" v="566447" />
	</node>
	<node id="-12132" lat="62.8389222199" lon="7.27617776845">
		<tag k="name" v="Skarsetermyran" />
		<tag k="natural" v="wetland" />
		<tag k="ssr:stedsnr" v="618646" />
	</node>
	<node id="-13397" lat="62.8786361122" lon="7.47211944631">
		<tag k="name" v="Martinura" />
		<tag k="natural" v="scree" />
		<tag k="ssr:stedsnr" v="338257" />
	</node>
	<node id="-12372" lat="62.9004444457" lon="7.0925611023">
		<tag k="name" v="Merralortsteinen" />
		<tag k="natural" v="stone" />
		<tag k="ssr:stedsnr" v="763653" />
	</node>
	<node id="-11345" lat="62.9247083339" lon="7.26482500404">
		<tag k="name" v="Bollsteinen" />
		<tag k="natural" v="stone" />
		<tag k="ssr:stedsnr" v="277190" />
	</node>
	<node id="-13392" lat="62.9661944408" lon="7.33055278674">
		<tag k="name" v="Jordfallmyra" />
		<tag k="natural" v="wetland" />
		<tag k="ssr:stedsnr" v="338229" />
	</node>
	<node id="-11855" lat="62.7744611151" lon="7.0877694436">
		<tag k="name" v="Løkan" />
		<tag k="natural" v="wetland" />
		<tag k="ssr:stedsnr" v="517900" />
	</node>
	<node id="-11873" lat="62.9532472223" lon="7.38163610516">
		<tag k="name" v="Helgeåsmyra" />
		<tag k="natural" v="wetland" />
		<tag k="ssr:stedsnr" v="656725" />
	</node>
	<node id="-12868" lat="62.9226499989" lon="7.43344167143">
		<tag k="name" v="Triangelsteinen" />
		<tag k="natural" v="stone" />
		<tag k="ssr:stedsnr" v="35458" />
	</node>
	<node id="-12350" lat="62.8855583328" lon="7.43227221616">
		<tag k="name" v="Bjerknesmyra" />
		<tag k="natural" v="wetland" />
		<tag k="ssr:stedsnr" v="763334" />
	</node>
	<node id="-12859" lat="62.9721583315" lon="7.33834444557">
		<tag k="name" v="Hesthyllmyran" />
		<tag k="natural" v="wetland" />
		<tag k="ssr:stedsnr" v="35335" />
	</node>
	<node id="-14393" lat="62.8936833373" lon="7.43117499757">
		<tag k="name" v="Svanvikmyran" />
		<tag k="natural" v="wetland" />
		<tag k="ssr:stedsnr" v="800628" />
	</node>
	<node id="-12855" lat="62.8510027765" lon="7.35459444467">
		<tag k="name" v="Skarsteinane" />
		<tag k="natural" v="stone" />
		<tag k="ssr:stedsnr" v="35295" />
	</node>
	<node id="-11443" lat="62.8829194485" lon="7.44949722817">
		<tag k="name" v="Tumyra" />
		<tag k="natural" v="wetland" />
		<tag k="ssr:stedsnr" v="278510" />
	</node>
	<node id="-13861" lat="62.8984583371" lon="7.09092777014">
		<tag k="name" v="Skreda" />
		<tag k="place" v="locality" />
		<tag k="ssr:stedsnr" v="520985" />
	</node>
	<node id="-11300" lat="62.9904944409" lon="7.27588888849">
		<tag k="name" v="Stormyra" />
		<tag k="natural" v="wetland" />
		<tag k="ssr:stedsnr" v="96452" />
	</node>
	<node id="-14086" lat="62.8526694401" lon="7.08595555621">
		<tag k="name" v="Borgarsteinen" />
		<tag k="natural" v="stone" />
		<tag k="ssr:stedsnr" v="640690" />
	</node>
	<node id="-11439" lat="62.8671027741" lon="7.34913611065">
		<tag k="name" v="Gråura" />
		<tag k="natural" v="scree" />
		<tag k="ssr:stedsnr" v="278489" />
	</node>
	<node id="-11288" lat="62.8725694488" lon="7.26203333311">
		<tag k="name" v="Nergardsletta" />
		<tag k="natural" v="wetland" />
		<tag k="ssr:stedsnr" v="95858" />
	</node>
	<node id="-11526" lat="62.8623111137" lon="7.26216944179">
		<tag k="name" v="Auspavollen" />
		<tag k="natural" v="wetland" />
		<tag k="ssr:stedsnr" v="217832" />
	</node>
	<node id="-11286" lat="62.7987583366" lon="7.30981389223">
		<tag k="name" v="Bruaskarmyra" />
		<tag k="natural" v="wetland" />
		<tag k="ssr:stedsnr" v="95807" />
	</node>
	<node id="-14356" lat="62.9865666638" lon="7.18496944278">
		<tag k="name" v="Vetin" />
		<tag k="natural" v="stone" />
		<tag k="ssr:stedsnr" v="763961" />
	</node>
	<node id="-14355" lat="62.8205750031" lon="7.23846667467">
		<tag k="name" v="Holamyra" />
		<tag k="natural" v="wetland" />
		<tag k="ssr:stedsnr" v="763945" />
	</node>
	<node id="-14353" lat="62.8998500012" lon="7.15462778741">
		<tag k="name" v="Skarmyra" />
		<tag k="natural" v="wetland" />
		<tag k="ssr:stedsnr" v="763890" />
	</node>
	<node id="-12815" lat="62.9116666627" lon="7.00086665726">
		<tag k="name" v="Hustadmyran" />
		<tag k="natural" v="wetland" />
		<tag k="ssr:stedsnr" v="20124" />
	</node>
	<node id="-11277" lat="62.8176694468" lon="7.14149722746">
		<tag k="name" v="Småmyrane" />
		<tag k="natural" v="wetland" />
		<tag k="ssr:stedsnr" v="95556" />
	</node>
	<node id="-11522" lat="62.7987555534" lon="7.05059167483">
		<tag k="name" v="Fonnin" />
		<tag k="place" v="locality" />
		<tag k="ssr:stedsnr" v="217811" />
	</node>
	<node id="-12347" lat="62.9588472203" lon="7.36353611369">
		<tag k="name" v="Kolbotnteigen" />
		<tag k="place" v="locality" />
		<tag k="ssr:stedsnr" v="763304" />
	</node>
	<node id="-13830" lat="62.8934472249" lon="7.20634166833">
		<tag k="name" v="Regnfonna" />
		<tag k="place" v="locality" />
		<tag k="ssr:stedsnr" v="520699" />
	</node>
	<node id="-14341" lat="62.7906916695" lon="7.15046388601">
		<tag k="name" v="Råmyrane" />
		<tag k="natural" v="wetland" />
		<tag k="ssr:stedsnr" v="763880" />
	</node>
</osm>
