<?xml version="1.0" encoding="UTF-8"?>
<osm version="0.6" generator="osmapis">
	<node lat="62.95329167088104" lon="7.0137194515680905" id="-10944">
		<tag k="name" v="Strandflua" />
		<tag k="natural" v="shoal" />
		<tag k="place" v="locality" />
		<tag k="ssr:stedsnr" v="231643" />
	</node>
	<node lat="62.98120000251421" lon="7.011272221362098" id="-10945">
		<tag k="name" v="Kråksundet" />
		<tag k="natural" v="strait" />
		<tag k="ssr:stedsnr" v="231148" />
	</node>
	<node lat="63.08461666842704" lon="7.241705552383502" id="-10946">
		<tag k="fixme" v="consider seamark:type=rock or natural=shoal" />
		<tag k="name" v="Stabbeskjæret" />
		<tag k="place" v="islet" />
		<tag k="ssr:stedsnr" v="231168" />
	</node>
	<node lat="62.947861110819765" lon="6.933555548985647" id="-10948">
		<tag k="name" v="Midtfjordsbåen" />
		<tag k="natural" v="shoal" />
		<tag k="place" v="locality" />
		<tag k="ssr:stedsnr" v="231628" />
	</node>
	<node lat="62.77100833691981" lon="6.960886112522849" id="-10955">
		<tag k="bay" v="fjord" />
		<tag k="name" v="Julsundet" />
		<tag k="natural" v="bay" />
		<tag k="ssr:stedsnr" v="11779" />
	</node>
	<node lat="63.03035833647692" lon="7.211072218831981" id="-10956">
		<tag k="name" v="Eggfluan" />
		<tag k="natural" v="shoal" />
		<tag k="place" v="locality" />
		<tag k="ssr:stedsnr" v="231920" />
	</node>
	<node lat="62.93819444054325" lon="7.453819441377656" id="-10963">
		<tag k="name" v="Aspataren" />
		<tag k="natural" v="shoal" />
		<tag k="place" v="locality" />
		<tag k="ssr:stedsnr" v="232427" />
	</node>
	<node lat="62.979955555938176" lon="7.047572224406234" id="-10964">
		<tag k="fixme" v="consider seamark:type=rock or natural=shoal" />
		<tag k="name" v="Sandsen" />
		<tag k="place" v="islet" />
		<tag k="ssr:stedsnr" v="232652" />
	</node>
	<node lat="62.93296111094844" lon="6.974391669507281" id="-10974">
		<tag k="name" v="Hestholmen" />
		<tag k="place" v="islet" />
		<tag k="ssr:stedsnr" v="34427" />
	</node>
	<node lat="62.97258611306354" lon="7.052041662118435" id="-10975">
		<tag k="fixme" v="consider seamark:type=rock or natural=shoal" />
		<tag k="name" v="Siriskjæret" />
		<tag k="place" v="islet" />
		<tag k="ssr:stedsnr" v="34433" />
	</node>
	<node lat="62.96885277351882" lon="7.029669439257837" id="-10976">
		<tag k="name" v="Haugsundet" />
		<tag k="natural" v="strait" />
		<tag k="ssr:stedsnr" v="34434" />
	</node>
	<node lat="62.91980833178144" lon="6.935736113079224" id="-10977">
		<tag k="name" v="Litlbuholmen" />
		<tag k="place" v="islet" />
		<tag k="ssr:stedsnr" v="34463" />
	</node>
	<node lat="63.01116666700073" lon="7.275652768677278" id="-10979">
		<tag k="name" v="Hummarholå" />
		<tag k="natural" v="bay" />
		<tag k="ssr:stedsnr" v="35362" />
	</node>
	<node lat="63.00136388857825" lon="7.306047221708499" id="-10981">
		<tag k="name" v="Nerstølneset" />
		<tag k="natural" v="cape" />
		<tag k="ssr:stedsnr" v="35370" />
	</node>
	<node lat="62.884033329419715" lon="6.867758341409457" id="-10989">
		<tag k="fixme" v="consider seamark:type=rock or natural=shoal" />
		<tag k="name" v="Litle Tennskjæret" />
		<tag k="place" v="islet" />
		<tag k="ssr:stedsnr" v="35465" />
	</node>
	<node lat="62.898194448148374" lon="6.94609167214052" id="-10991">
		<tag k="name" v="Lyngholmen" />
		<tag k="place" v="islet" />
		<tag k="ssr:stedsnr" v="35470" />
	</node>
	<node lat="62.89798611371813" lon="6.947363893704827" id="-10993">
		<tag k="name" v="Flatholmen" />
		<tag k="place" v="islet" />
		<tag k="ssr:stedsnr" v="35473" />
	</node>
	<node lat="62.897219445721355" lon="6.955997229908583" id="-10994">
		<tag k="name" v="Seterneset" />
		<tag k="natural" v="cape" />
		<tag k="ssr:stedsnr" v="35476" />
	</node>
	<node lat="62.916297225913816" lon="7.545961103756806" id="-10996">
		<tag k="alt_name" v="Jovika" />
		<tag k="name" v="Jovikbukta" />
		<tag k="natural" v="bay" />
		<tag k="ssr:stedsnr" v="35482" />
	</node>
	<node lat="62.95839722188457" lon="6.893150006717566" id="-11012">
		<tag k="name" v="Skallen" />
		<tag k="natural" v="shoal" />
		<tag k="place" v="locality" />
		<tag k="ssr:stedsnr" v="49577" />
	</node>
	<node lat="63.019936107404455" lon="7.236213880931663" id="-11013">
		<tag k="name" v="Søre Kvitholmgrunnen" />
		<tag k="natural" v="shoal" />
		<tag k="place" v="locality" />
		<tag k="ssr:stedsnr" v="49905" />
	</node>
	<node lat="62.849613889829996" lon="7.144466661176209" id="-11014">
		<tag k="name" v="Hatleflua" />
		<tag k="natural" v="shoal" />
		<tag k="place" v="locality" />
		<tag k="ssr:stedsnr" v="51084" />
	</node>
	<node lat="62.843812858729336" lon="6.996098313268193" id="-11049">
		<tag k="name" v="Levra" />
		<tag k="natural" v="cape" />
		<tag k="ssr:stedsnr" v="80129" />
	</node>
	<node lat="62.970352780852" lon="7.345327774596929" id="-11056">
		<tag k="name" v="Mekvikbukta" />
		<tag k="natural" v="bay" />
		<tag k="ssr:stedsnr" v="95229" />
	</node>
	<node lat="62.94764444352926" lon="7.430516670033261" id="-11067">
		<tag k="name" v="Silnesholman" />
		<tag k="place" v="islet" />
		<tag k="ssr:stedsnr" v="95302" />
	</node>
	<node lat="62.902472223893184" lon="6.912597226775357" id="-11070">
		<tag k="name" v="Lemholmen" />
		<tag k="place" v="islet" />
		<tag k="ssr:stedsnr" v="95314" />
	</node>
	<node lat="62.897952779198555" lon="6.915394450051662" id="-11071">
		<tag k="name" v="Kalsnesholman" />
		<tag k="place" v="islet" />
		<tag k="ssr:stedsnr" v="95316" />
	</node>
	<node lat="62.84637777415934" lon="7.173619443051105" id="-11076">
		<tag k="name" v="Elnesleira" />
		<tag k="natural" v="shoal" />
		<tag k="place" v="locality" />
		<tag k="ssr:stedsnr" v="95488" />
	</node>
	<node lat="62.82813611359268" lon="7.13337500914655" id="-11084">
		<tag k="name" v="Beøysundet" />
		<tag k="natural" v="strait" />
		<tag k="ssr:stedsnr" v="95517" />
	</node>
	<node lat="62.92321388747759" lon="6.92679166321396" id="-11096">
		<tag k="fixme" v="consider seamark:type=rock or natural=shoal" />
		<tag k="name" v="Pengskjæra" />
		<tag k="place" v="islet" />
		<tag k="ssr:stedsnr" v="95762" />
	</node>
	<node lat="62.950013886932" lon="7.002474997665485" id="-11097">
		<tag k="name" v="Strupen" />
		<tag k="natural" v="strait" />
		<tag k="ssr:stedsnr" v="95919" />
	</node>
	<node lat="62.94898333606203" lon="7.011886111006672" id="-11098">
		<tag k="name" v="Neset" />
		<tag k="natural" v="cape" />
		<tag k="ssr:stedsnr" v="95921" />
	</node>
	<node lat="62.88553611194773" lon="6.798094438872346" id="-11100">
		<tag k="fixme" v="consider seamark:type=rock or natural=shoal" />
		<tag k="name" v="Gryta" />
		<tag k="place" v="islet" />
		<tag k="ssr:stedsnr" v="96105" />
	</node>
	<node lat="62.95891944023938" lon="6.978627784768672" id="-11111">
		<tag k="name" v="Skipsflua" />
		<tag k="natural" v="shoal" />
		<tag k="place" v="locality" />
		<tag k="ssr:stedsnr" v="110592" />
	</node>
	<node lat="62.82309166855442" lon="7.158191661970026" id="-11112">
		<tag k="name" v="Ospholmflua" />
		<tag k="natural" v="shoal" />
		<tag k="place" v="locality" />
		<tag k="ssr:stedsnr" v="111007" />
	</node>
	<node lat="63.03139444827379" lon="7.317522223952946" id="-11113">
		<tag k="name" v="Bjørnan" />
		<tag k="natural" v="shoal" />
		<tag k="place" v="locality" />
		<tag k="ssr:stedsnr" v="111809" />
	</node>
	<node lat="62.94872222082437" lon="6.967797221471344" id="-11128">
		<tag k="fixme" v="consider seamark:type=rock or natural=shoal" />
		<tag k="name" v="Hommeløya" />
		<tag k="place" v="islet" />
		<tag k="ssr:stedsnr" v="133115" />
	</node>
	<node lat="63.00724444175422" lon="7.108069437494819" id="-11132">
		<tag k="name" v="Stabben" />
		<tag k="natural" v="shoal" />
		<tag k="place" v="locality" />
		<tag k="ssr:stedsnr" v="133655" />
	</node>
	<node lat="62.99078611037156" lon="7.323472229265349" id="-11136">
		<tag k="name" v="Gaustadneset" />
		<tag k="natural" v="cape" />
		<tag k="ssr:stedsnr" v="133909" />
	</node>
	<node lat="62.94007221964489" lon="6.986194438199106" id="-11170">
		<tag k="name" v="Geitneset" />
		<tag k="natural" v="cape" />
		<tag k="ssr:stedsnr" v="255127" />
	</node>
	<node lat="63.02051666374215" lon="6.973086108081308" id="-11178">
		<tag k="name" v="Austklakken" />
		<tag k="natural" v="shoal" />
		<tag k="place" v="locality" />
		<tag k="ssr:stedsnr" v="255635" />
	</node>
	<node lat="63.103616665187" lon="7.025205555779816" id="-11179">
		<tag k="alt_name" v="Brunarøra, inste" />
		<tag k="name" v="Inste Brunarøra" />
		<tag k="natural" v="shoal" />
		<tag k="place" v="locality" />
		<tag k="ssr:stedsnr" v="255638" />
	</node>
	<node lat="62.888240397254044" lon="6.809130050333245" id="-11206">
		<tag k="name" v="Marfloneset" />
		<tag k="natural" v="cape" />
		<tag k="ssr:stedsnr" v="156349" />
	</node>
	<node lat="62.89929722009072" lon="6.943663896115959" id="-11208">
		<tag k="name" v="Borstuholmen" />
		<tag k="place" v="islet" />
		<tag k="ssr:stedsnr" v="156355" />
	</node>
	<node lat="62.87016666533143" lon="6.992252773039903" id="-11214">
		<tag k="name" v="Litlevikneset" />
		<tag k="natural" v="cape" />
		<tag k="ssr:stedsnr" v="156508" />
	</node>
	<node lat="62.95735000230335" lon="7.40408610638215" id="-11221">
		<tag k="name" v="Ramsvika" />
		<tag k="natural" v="bay" />
		<tag k="ssr:stedsnr" v="156470" />
	</node>
	<node lat="63.002147223502504" lon="7.230805564977598" id="-11227">
		<tag k="name" v="Småholmane" />
		<tag k="place" v="islet" />
		<tag k="ssr:stedsnr" v="156749" />
	</node>
	<node lat="62.90691666406011" lon="6.898883330647268" id="-11230">
		<tag k="name" v="Tjønnøya" />
		<tag k="place" v="islet" />
		<tag k="ssr:stedsnr" v="156910" />
	</node>
	<node lat="62.96639444565438" lon="7.03381666867783" id="-11232">
		<tag k="name" v="Valen" />
		<tag k="natural" v="bay" />
		<tag k="ssr:stedsnr" v="156923" />
	</node>
	<node lat="62.9716638931484" lon="7.044022227679342" id="-11233">
		<tag k="name" v="Hattan" />
		<tag k="place" v="islet" />
		<tag k="ssr:stedsnr" v="156925" />
	</node>
	<node lat="62.985450003428" lon="7.102702776381096" id="-11240">
		<tag k="name" v="Rotvika" />
		<tag k="natural" v="bay" />
		<tag k="ssr:stedsnr" v="156999" />
	</node>
	<node lat="63.01583889153406" lon="6.9293777865294635" id="-11246">
		<tag k="name" v="Monkroshammaren" />
		<tag k="natural" v="shoal" />
		<tag k="place" v="locality" />
		<tag k="ssr:stedsnr" v="170156" />
	</node>
	<node lat="62.96182222043019" lon="6.980163886633447" id="-11247">
		<tag k="name" v="Langtaren" />
		<tag k="natural" v="shoal" />
		<tag k="place" v="locality" />
		<tag k="ssr:stedsnr" v="171605" />
	</node>
	<node lat="62.97363055755079" lon="6.9208027815794795" id="-11248">
		<tag k="name" v="Skortaren" />
		<tag k="natural" v="shoal" />
		<tag k="place" v="locality" />
		<tag k="ssr:stedsnr" v="171762" />
	</node>
	<node lat="63.006441666740386" lon="7.2636722294394005" id="-11264">
		<tag k="name" v="Litllangøya" />
		<tag k="place" v="islet" />
		<tag k="ssr:stedsnr" v="217308" />
	</node>
	<node lat="62.91795555330255" lon="7.548766673417751" id="-11270">
		<tag k="name" v="Oterneset" />
		<tag k="natural" v="cape" />
		<tag k="ssr:stedsnr" v="217390" />
	</node>
	<node lat="62.97080833075454" lon="7.353591668903942" id="-11274">
		<tag k="name" v="Stor-Mekvikholmen" />
		<tag k="place" v="islet" />
		<tag k="ssr:stedsnr" v="217275" />
	</node>
	<node lat="62.91129722282656" lon="7.5308361121749865" id="-11286">
		<tag k="name" v="Sperre" />
		<tag k="natural" v="cape" />
		<tag k="ssr:stedsnr" v="217707" />
	</node>
	<node lat="62.89051388663296" lon="6.974458333904098" id="-11291">
		<tag k="name" v="Bramstøa" />
		<tag k="natural" v="bay" />
		<tag k="ssr:stedsnr" v="217909" />
	</node>
	<node lat="62.896394440746455" lon="6.828116671470091" id="-11293">
		<tag k="name" v="Knubben" />
		<tag k="place" v="islet" />
		<tag k="ssr:stedsnr" v="217923" />
	</node>
	<node lat="62.803108331562356" lon="6.994052779975158" id="-11302">
		<tag k="name" v="Storvika" />
		<tag k="natural" v="bay" />
		<tag k="ssr:stedsnr" v="217814" />
	</node>
	<node lat="62.96573888789223" lon="7.082263884204676" id="-11306">
		<tag k="fixme" v="consider seamark:type=rock or natural=shoal" />
		<tag k="name" v="Dyna" />
		<tag k="place" v="islet" />
		<tag k="ssr:stedsnr" v="217974" />
	</node>
	<node lat="62.872308331642834" lon="6.983450002690394" id="-11308">
		<tag k="name" v="Stavikflua" />
		<tag k="natural" v="shoal" />
		<tag k="place" v="locality" />
		<tag k="ssr:stedsnr" v="231136" />
	</node>
	<node lat="63.11855833605708" lon="7.18792221685571" id="-11310">
		<tag k="name" v="Kalvsfallet" />
		<tag k="natural" v="shoal" />
		<tag k="place" v="locality" />
		<tag k="ssr:stedsnr" v="231805" />
	</node>
	<node lat="63.12074166434413" lon="7.179752776951783" id="-11311">
		<tag k="name" v="Kalvstaran" />
		<tag k="natural" v="shoal" />
		<tag k="place" v="locality" />
		<tag k="ssr:stedsnr" v="231806" />
	</node>
	<node lat="63.00586388755058" lon="7.1708555593406675" id="-11312">
		<tag k="name" v="Ytre Langtaren" />
		<tag k="natural" v="shoal" />
		<tag k="place" v="locality" />
		<tag k="ssr:stedsnr" v="231892" />
	</node>
	<node lat="62.84032778202655" lon="7.115902770522767" id="-11321">
		<tag k="name" v="Nordøya" />
		<tag k="place" v="islet" />
		<tag k="ssr:stedsnr" v="254180" />
	</node>
	<node lat="63.13369722242574" lon="7.143250005007656" id="-11328">
		<tag k="name" v="Kleivklakken" />
		<tag k="natural" v="shoal" />
		<tag k="place" v="locality" />
		<tag k="ssr:stedsnr" v="254620" />
	</node>
	<node lat="62.972702779462274" lon="7.343013889832844" id="-11331">
		<tag k="name" v="Ramsvikneset" />
		<tag k="natural" v="cape" />
		<tag k="ssr:stedsnr" v="254919" />
	</node>
	<node lat="62.96586389099585" lon="6.99929444159613" id="-11338">
		<tag k="fixme" v="consider seamark:type=rock or natural=shoal" />
		<tag k="name" v="Ormtunga" />
		<tag k="place" v="islet" />
		<tag k="ssr:stedsnr" v="255036" />
	</node>
	<node lat="63.00712500028206" lon="7.086224996278219" id="-11342">
		<tag k="name" v="Kvitingen" />
		<tag k="natural" v="shoal" />
		<tag k="place" v="locality" />
		<tag k="ssr:stedsnr" v="255705" />
	</node>
	<node lat="62.82256666394365" lon="7.079880555512177" id="-11357">
		<tag k="name" v="Mjølkhaugleira" />
		<tag k="natural" v="bay" />
		<tag k="ssr:stedsnr" v="459520" />
	</node>
	<node lat="63.010808333963595" lon="7.304433337049053" id="-11358">
		<tag k="fixme" v="consider seamark:type=rock or natural=shoal" />
		<tag k="name" v="Kalvskjæret" />
		<tag k="place" v="islet" />
		<tag k="ssr:stedsnr" v="459284" />
	</node>
	<node lat="62.8216063815185" lon="7.081176857309981" id="-11374">
		<tag k="name" v="Kråkneset" />
		<tag k="natural" v="cape" />
		<tag k="ssr:stedsnr" v="459581" />
	</node>
	<node lat="62.84058165179394" lon="7.1535863036941185" id="-11376">
		<tag k="name" v="Straumane" />
		<tag k="natural" v="strait" />
		<tag k="ssr:stedsnr" v="459529" />
	</node>
	<node lat="62.828258332966946" lon="7.07175000546279" id="-11378">
		<tag k="name" v="Mortnesbukta" />
		<tag k="natural" v="bay" />
		<tag k="ssr:stedsnr" v="459550" />
	</node>
	<node lat="62.83694444499174" lon="7.0950833405347185" id="-11379">
		<tag k="name" v="Ålvorsnagen" />
		<tag k="natural" v="cape" />
		<tag k="ssr:stedsnr" v="459554" />
	</node>
	<node lat="62.83163055927955" lon="7.091530557042015" id="-11380">
		<tag k="name" v="Ålvorsundet" />
		<tag k="natural" v="strait" />
		<tag k="ssr:stedsnr" v="459557" />
	</node>
	<node lat="62.963683331542306" lon="7.37846665712075" id="-11396">
		<tag k="name" v="Lyngstadskjæra" />
		<tag k="place" v="islet" />
		<tag k="ssr:stedsnr" v="277310" />
	</node>
	<node lat="62.89005555750908" lon="6.834519438288165" id="-11397">
		<tag k="name" v="Bjørnøysundet" />
		<tag k="natural" v="strait" />
		<tag k="ssr:stedsnr" v="277320" />
	</node>
	<node lat="62.953019444369204" lon="7.415997218060583" id="-11399">
		<tag k="name" v="Visnesbukta" />
		<tag k="natural" v="bay" />
		<tag k="ssr:stedsnr" v="277330" />
	</node>
	<node lat="62.89842500364536" lon="6.9225972264841165" id="-11402">
		<tag k="name" v="Kunteitelsundet" />
		<tag k="natural" v="strait" />
		<tag k="ssr:stedsnr" v="277342" />
	</node>
	<node lat="62.83751944261204" lon="7.035208326745443" id="-11406">
		<tag k="name" v="Nilsneset" />
		<tag k="natural" v="cape" />
		<tag k="ssr:stedsnr" v="277429" />
	</node>
	<node lat="62.82572778128805" lon="7.031080561792052" id="-11409">
		<tag k="name" v="Vorpneset" />
		<tag k="natural" v="cape" />
		<tag k="ssr:stedsnr" v="277439" />
	</node>
	<node lat="62.81833888458694" lon="7.0069861088188885" id="-11425">
		<tag k="name" v="Kuholmen" />
		<tag k="place" v="islet" />
		<tag k="ssr:stedsnr" v="277843" />
	</node>
	<node lat="62.933752777719455" lon="6.954427783039535" id="-11427">
		<tag k="name" v="Vardvika" />
		<tag k="natural" v="bay" />
		<tag k="ssr:stedsnr" v="459924" />
	</node>
	<node lat="62.96304722662197" lon="7.094038897834413" id="-11435">
		<tag k="name" v="Auså" />
		<tag k="natural" v="bay" />
		<tag k="ssr:stedsnr" v="277981" />
	</node>
	<node lat="62.884000001970044" lon="6.796777768334585" id="-11438">
		<tag k="fixme" v="consider seamark:type=rock or natural=shoal" />
		<tag k="name" v="Litle Grønskjeret" />
		<tag k="place" v="islet" />
		<tag k="ssr:stedsnr" v="278091" />
	</node>
	<node lat="62.990125001629956" lon="7.121116659510334" id="-11450">
		<tag k="name" v="Kråka" />
		<tag k="place" v="islet" />
		<tag k="ssr:stedsnr" v="459999" />
	</node>
	<node lat="62.92934143815112" lon="7.595080941979291" id="-11451">
		<tag k="alt_name" v="Krekvikhammaren" />
		<tag k="name" v="Hammarneset" />
		<tag k="natural" v="cape" />
		<tag k="ssr:stedsnr" v="278775" />
	</node>
	<node lat="62.88474999960656" lon="6.794241670084031" id="-11453">
		<tag k="name" v="Pessholmen" />
		<tag k="place" v="islet" />
		<tag k="ssr:stedsnr" v="460099" />
	</node>
	<node lat="62.9136694420252" lon="7.537222212836371" id="-11458">
		<tag k="name" v="Strandaneset" />
		<tag k="natural" v="cape" />
		<tag k="ssr:stedsnr" v="460452" />
	</node>
	<node lat="62.97866666308421" lon="7.022063891906521" id="-11490">
		<tag k="name" v="Myrbøtaren" />
		<tag k="natural" v="shoal" />
		<tag k="place" v="locality" />
		<tag k="ssr:stedsnr" v="292588" />
	</node>
	<node lat="62.82216210945797" lon="7.048727661365755" id="-11491">
		<tag k="name" v="Fjøra" />
		<tag k="natural" v="beach" />
		<tag k="ssr:stedsnr" v="293283" />
	</node>
	<node lat="62.93731666366805" lon="6.900619434873508" id="-11492">
		<tag k="name" v="Kverna" />
		<tag k="natural" v="shoal" />
		<tag k="place" v="locality" />
		<tag k="ssr:stedsnr" v="293684" />
	</node>
	<node lat="62.98084444590388" lon="7.018600000062105" id="-11493">
		<tag k="name" v="Seibogen" />
		<tag k="natural" v="shoal" />
		<tag k="place" v="locality" />
		<tag k="ssr:stedsnr" v="293692" />
	</node>
	<node lat="63.07233333371283" lon="6.805913886300891" id="-11513">
		<tag k="name" v="Brusteinen" />
		<tag k="natural" v="shoal" />
		<tag k="place" v="locality" />
		<tag k="ssr:stedsnr" v="315624" />
	</node>
	<node lat="63.13390555304773" lon="7.184900001133767" id="-11514">
		<tag k="alt_name" v="Hylla" />
		<tag k="name" v="Austklakken" />
		<tag k="natural" v="shoal" />
		<tag k="place" v="locality" />
		<tag k="ssr:stedsnr" v="315630" />
	</node>
	<node lat="62.87913055571141" lon="6.9626944516948726" id="-11542">
		<tag k="name" v="Knutholmen" />
		<tag k="place" v="islet" />
		<tag k="ssr:stedsnr" v="338346" />
	</node>
	<node lat="62.83474999857827" lon="6.996391663381981" id="-11549">
		<tag k="name" v="Rotvikbukta" />
		<tag k="natural" v="bay" />
		<tag k="ssr:stedsnr" v="338399" />
	</node>
	<node lat="62.82937777873846" lon="7.028469450889187" id="-11550">
		<tag k="name" v="Vågøyneset" />
		<tag k="natural" v="cape" />
		<tag k="ssr:stedsnr" v="338405" />
	</node>
	<node lat="62.905691666586556" lon="6.8774833284813255" id="-11553">
		<tag k="name" v="Søre Odden" />
		<tag k="place" v="islet" />
		<tag k="ssr:stedsnr" v="338296" />
	</node>
	<node lat="62.97199444626804" lon="7.083369435115607" id="-11556">
		<tag k="name" v="Flønestangen" />
		<tag k="natural" v="cape" />
		<tag k="ssr:stedsnr" v="338704" />
	</node>
	<node lat="62.96950000323944" lon="7.068950001881479" id="-11557">
		<tag k="name" v="Fjørbakken" />
		<tag k="natural" v="beach" />
		<tag k="ssr:stedsnr" v="338706" />
	</node>
	<node lat="62.89687499795881" lon="6.809430563995294" id="-11571">
		<tag k="name" v="Kråkå" />
		<tag k="place" v="islet" />
		<tag k="ssr:stedsnr" v="338909" />
	</node>
	<node lat="63.08099722670184" lon="7.2093083312174535" id="-11576">
		<tag k="name" v="Jørin" />
		<tag k="natural" v="shoal" />
		<tag k="place" v="locality" />
		<tag k="ssr:stedsnr" v="473178" />
	</node>
	<node lat="62.94349722269473" lon="6.872027784179839" id="-11577">
		<tag k="name" v="Gardsbonden" />
		<tag k="natural" v="shoal" />
		<tag k="place" v="locality" />
		<tag k="ssr:stedsnr" v="473537" />
	</node>
	<node lat="63.08313055271041" lon="7.268233337534949" id="-11578">
		<tag k="name" v="Helgetaran" />
		<tag k="natural" v="shoal" />
		<tag k="place" v="locality" />
		<tag k="ssr:stedsnr" v="473831" />
	</node>
	<node lat="62.96392221973931" lon="7.3934305505696365" id="-11580">
		<tag k="name" v="Vikagrunnen" />
		<tag k="natural" v="shoal" />
		<tag k="place" v="locality" />
		<tag k="ssr:stedsnr" v="353709" />
	</node>
	<node lat="62.93680277623083" lon="6.9197527714140294" id="-11581">
		<tag k="name" v="Ryssen" />
		<tag k="natural" v="shoal" />
		<tag k="place" v="locality" />
		<tag k="ssr:stedsnr" v="353669" />
	</node>
	<node lat="62.91970833091433" lon="6.864694447753562" id="-11582">
		<tag k="name" v="Simonflua" />
		<tag k="natural" v="shoal" />
		<tag k="place" v="locality" />
		<tag k="ssr:stedsnr" v="353671" />
	</node>
	<node lat="62.896411109669735" lon="6.842338888898787" id="-11583">
		<tag k="name" v="Staflua" />
		<tag k="natural" v="shoal" />
		<tag k="place" v="locality" />
		<tag k="ssr:stedsnr" v="353818" />
	</node>
	<node lat="63.022474998845716" lon="7.33319445077383" id="-11584">
		<tag k="name" v="Tennskjærflua" />
		<tag k="natural" v="shoal" />
		<tag k="place" v="locality" />
		<tag k="ssr:stedsnr" v="353819" />
	</node>
	<node lat="62.997611109527995" lon="7.111994449724596" id="-11585">
		<tag k="name" v="Sjursflua" />
		<tag k="natural" v="shoal" />
		<tag k="place" v="locality" />
		<tag k="ssr:stedsnr" v="474642" />
	</node>
	<node lat="63.01430278020996" lon="7.297505553336907" id="-11587">
		<tag k="fixme" v="consider seamark:type=rock or natural=shoal" />
		<tag k="name" v="Kråka" />
		<tag k="place" v="islet" />
		<tag k="ssr:stedsnr" v="474935" />
	</node>
	<node lat="62.805224999343466" lon="7.233755552398248" id="-11588">
		<tag k="name" v="Malmeleira" />
		<tag k="natural" v="shoal" />
		<tag k="place" v="locality" />
		<tag k="ssr:stedsnr" v="475040" />
	</node>
	<node lat="62.818872226605635" lon="7.0167472130127235" id="-11590">
		<tag k="name" v="Valleira" />
		<tag k="natural" v="shoal" />
		<tag k="place" v="locality" />
		<tag k="ssr:stedsnr" v="475253" />
	</node>
	<node lat="62.97712499906506" lon="7.057766659867888" id="-11592">
		<tag k="name" v="Ryta" />
		<tag k="natural" v="shoal" />
		<tag k="place" v="locality" />
		<tag k="ssr:stedsnr" v="475689" />
	</node>
	<node lat="63.0064499980966" lon="7.320241666215232" id="-11615">
		<tag k="name" v="Mannsholmen" />
		<tag k="place" v="islet" />
		<tag k="ssr:stedsnr" v="376424" />
	</node>
	<node lat="62.961105555906606" lon="7.385394452718913" id="-11624">
		<tag k="name" v="Hattholmen" />
		<tag k="place" v="islet" />
		<tag k="ssr:stedsnr" v="398320" />
	</node>
	<node lat="62.90223610693005" lon="6.904483329320375" id="-11626">
		<tag k="name" v="Søre Kipperholmen" />
		<tag k="place" v="islet" />
		<tag k="ssr:stedsnr" v="398331" />
	</node>
	<node lat="62.95905277535564" lon="7.392244443236862" id="-11627">
		<tag k="fixme" v="consider seamark:type=rock or natural=shoal" />
		<tag k="name" v="Vikaskjæret" />
		<tag k="place" v="islet" />
		<tag k="ssr:stedsnr" v="398334" />
	</node>
	<node lat="62.93139166518227" lon="6.97208610395014" id="-11628">
		<tag k="name" v="Kongsholmen" />
		<tag k="place" v="islet" />
		<tag k="ssr:stedsnr" v="398418" />
	</node>
	<node lat="62.84931666948214" lon="7.116680549356603" id="-11630">
		<tag k="name" v="Rønningbukta" />
		<tag k="natural" v="bay" />
		<tag k="ssr:stedsnr" v="398528" />
	</node>
	<node lat="62.924811106994795" lon="6.93701111392055" id="-11633">
		<tag k="fixme" v="consider seamark:type=rock or natural=shoal" />
		<tag k="name" v="Ersholmskjæret" />
		<tag k="place" v="islet" />
		<tag k="ssr:stedsnr" v="398481" />
	</node>
	<node lat="62.96860555225413" lon="7.361577771638591" id="-11643">
		<tag k="name" v="Ørjavikneset" />
		<tag k="natural" v="cape" />
		<tag k="ssr:stedsnr" v="399312" />
	</node>
	<node lat="62.895633336153345" lon="6.807580562836067" id="-11646">
		<tag k="fixme" v="consider seamark:type=rock or natural=shoal" />
		<tag k="name" v="Blind-Eriksflua" />
		<tag k="place" v="islet" />
		<tag k="ssr:stedsnr" v="399507" />
	</node>
	<node lat="62.82405833622008" lon="7.02989722853257" id="-11647">
		<tag k="name" v="Vågøybukta" />
		<tag k="natural" v="bay" />
		<tag k="ssr:stedsnr" v="399509" />
	</node>
	<node lat="62.82752500216174" lon="7.020930553936751" id="-11649">
		<tag k="name" v="Kyrkjesteinen" />
		<tag k="natural" v="cape" />
		<tag k="ssr:stedsnr" v="399512" />
	</node>
	<node lat="62.84843889176077" lon="7.006436108060493" id="-11656">
		<tag k="fixme" v="consider seamark:type=rock or natural=shoal" />
		<tag k="name" v="Kuskjeret" />
		<tag k="place" v="islet" />
		<tag k="ssr:stedsnr" v="399477" />
	</node>
	<node lat="62.99518333690623" lon="7.196088894409248" id="-11662">
		<tag k="alt_name" v="Skitungskjæret" />
		<tag k="fixme" v="consider seamark:type=rock or natural=shoal" />
		<tag k="name" v="Skjettongskjæret" />
		<tag k="place" v="islet" />
		<tag k="ssr:stedsnr" v="399785" />
	</node>
	<node lat="62.91232222176185" lon="6.911222227324993" id="-11663">
		<tag k="name" v="Laugartjønna" />
		<tag k="place" v="islet" />
		<tag k="ssr:stedsnr" v="399787" />
	</node>
	<node lat="62.80326944162395" lon="7.197774995709143" id="-11671">
		<tag k="name" v="Malmestranda" />
		<tag k="natural" v="beach" />
		<tag k="ssr:stedsnr" v="399683" />
	</node>
	<node lat="62.92144444144538" lon="6.938355550635915" id="-11678">
		<tag k="name" v="Buholmen" />
		<tag k="place" v="islet" />
		<tag k="ssr:stedsnr" v="399929" />
	</node>
	<node lat="63.00979444182517" lon="6.950730555779217" id="-11687">
		<tag k="name" v="Indre Seiklakkskallan" />
		<tag k="natural" v="shoal" />
		<tag k="place" v="locality" />
		<tag k="ssr:stedsnr" v="413141" />
	</node>
	<node lat="63.000683335600925" lon="7.099511106369004" id="-11688">
		<tag k="name" v="Kvitingfluin" />
		<tag k="natural" v="shoal" />
		<tag k="place" v="locality" />
		<tag k="ssr:stedsnr" v="413143" />
	</node>
	<node lat="62.96709820078332" lon="6.992609737905115" id="-11689">
		<tag k="fixme" v="consider seamark:type=rock or natural=shoal" />
		<tag k="name" v="Senholmbjørnen" />
		<tag k="place" v="islet" />
		<tag k="ssr:stedsnr" v="414585" />
	</node>
	<node lat="62.97593332958377" lon="7.019188886931323" id="-11690">
		<tag k="name" v="Sjøskorpa" />
		<tag k="natural" v="shoal" />
		<tag k="place" v="locality" />
		<tag k="ssr:stedsnr" v="414598" />
	</node>
	<node lat="62.82022222558268" lon="7.102372230435679" id="-11691">
		<tag k="name" v="Aureosen" />
		<tag k="natural" v="bay" />
		<tag k="ssr:stedsnr" v="415011" />
	</node>
	<node lat="62.82826389285995" lon="7.148638890279549" id="-11692">
		<tag k="name" v="Kobbeflua" />
		<tag k="natural" v="shoal" />
		<tag k="place" v="locality" />
		<tag k="ssr:stedsnr" v="415013" />
	</node>
	<node lat="62.82148414557053" lon="7.012749058963312" id="-11711">
		<tag k="name" v="Vågøya" />
		<tag k="place" v="island" />
		<tag k="ssr:stedsnr" v="436753" />
	</node>
	<node lat="62.812438886989206" lon="6.999927775436935" id="-11715">
		<tag k="name" v="Langøya" />
		<tag k="place" v="islet" />
		<tag k="ssr:stedsnr" v="436773" />
	</node>
	<node lat="62.94763055942494" lon="7.432427781341026" id="-11729">
		<tag k="name" v="Litlholmen" />
		<tag k="place" v="islet" />
		<tag k="ssr:stedsnr" v="458424" />
	</node>
	<node lat="62.96973611086694" lon="7.352880559370264" id="-11731">
		<tag k="name" v="Bekkabukta" />
		<tag k="natural" v="bay" />
		<tag k="ssr:stedsnr" v="459262" />
	</node>
	<node lat="62.90617500098526" lon="7.448005565211333" id="-11733">
		<tag k="name" v="Storholmen" />
		<tag k="place" v="islet" />
		<tag k="ssr:stedsnr" v="459315" />
	</node>
	<node lat="62.903772218399055" lon="7.441808342092848" id="-11734">
		<tag k="name" v="Einsetvågen" />
		<tag k="natural" v="bay" />
		<tag k="ssr:stedsnr" v="459316" />
	</node>
	<node lat="62.8800805546425" lon="6.964791658701664" id="-11737">
		<tag k="name" v="Knutholmsfleå" />
		<tag k="place" v="islet" />
		<tag k="ssr:stedsnr" v="459371" />
	</node>
	<node lat="62.943441666562705" lon="6.983527782535603" id="-11738">
		<tag k="fixme" v="consider seamark:type=rock or natural=shoal" />
		<tag k="name" v="Vidfarholmskjæra" />
		<tag k="place" v="islet" />
		<tag k="ssr:stedsnr" v="459459" />
	</node>
	<node lat="62.92904722093307" lon="6.950663892006899" id="-11739">
		<tag k="fixme" v="consider seamark:type=rock or natural=shoal" />
		<tag k="name" v="Gildreskjæra" />
		<tag k="place" v="islet" />
		<tag k="ssr:stedsnr" v="459470" />
	</node>
	<node lat="62.93001110964136" lon="6.961361103551411" id="-11740">
		<tag k="name" v="Vardholmen" />
		<tag k="place" v="islet" />
		<tag k="ssr:stedsnr" v="459475" />
	</node>
	<node lat="62.8228416663625" lon="7.100886117892551" id="-11743">
		<tag k="name" v="Hestvika" />
		<tag k="natural" v="bay" />
		<tag k="ssr:stedsnr" v="459876" />
	</node>
	<node lat="62.88363888522479" lon="6.79891388206319" id="-11751">
		<tag k="fixme" v="consider seamark:type=rock or natural=shoal" />
		<tag k="name" v="Grønskjeret" />
		<tag k="place" v="islet" />
		<tag k="ssr:stedsnr" v="460110" />
	</node>
	<node lat="63.00957222045003" lon="7.201916667467128" id="-11765">
		<tag k="fixme" v="consider seamark:type=rock or natural=shoal" />
		<tag k="name" v="Breisundskjæra" />
		<tag k="place" v="islet" />
		<tag k="ssr:stedsnr" v="460822" />
	</node>
	<node lat="63.005397225410725" lon="7.210016659724225" id="-11766">
		<tag k="name" v="Storholmen" />
		<tag k="place" v="islet" />
		<tag k="ssr:stedsnr" v="460823" />
	</node>
	<node lat="63.20000000355542" lon="7.049999994366271" id="-11781">
		<tag k="name" v="Hansgrunna" />
		<tag k="natural" v="shoal" />
		<tag k="place" v="locality" />
		<tag k="ssr:stedsnr" v="466766" />
	</node>
	<node lat="62.96298888877845" lon="7.030322220744465" id="-11782">
		<tag k="name" v="Ruggabogen" />
		<tag k="natural" v="shoal" />
		<tag k="place" v="locality" />
		<tag k="ssr:stedsnr" v="475729" />
	</node>
	<node lat="63.0469361103709" lon="6.90392778067297" id="-11794">
		<tag k="bay" v="fjord" />
		<tag k="name" v="Hustadvika" />
		<tag k="natural" v="bay" />
		<tag k="ssr:stedsnr" v="679056" />
	</node>
	<node lat="63.116647223467936" lon="7.184997225859972" id="-11800">
		<tag k="fixme" v="consider seamark:type=rock or natural=shoal" />
		<tag k="name" v="Kalven" />
		<tag k="place" v="islet" />
		<tag k="ssr:stedsnr" v="679598" />
	</node>
	<node lat="63.07146110659557" lon="6.926911102774519" id="-11801">
		<tag k="alt_name" v="Maledjupet" />
		<tag k="bay" v="fjord" />
		<tag k="name" v="Maljedjupet" />
		<tag k="natural" v="bay" />
		<tag k="ssr:stedsnr" v="679602" />
	</node>
	<node lat="63.01688888665978" lon="7.155086109459387" id="-11808">
		<tag k="name" v="Leifallet" />
		<tag k="natural" v="shoal" />
		<tag k="place" v="locality" />
		<tag k="ssr:stedsnr" v="679663" />
	</node>
	<node lat="63.021791665610195" lon="6.904863894102192" id="-11842">
		<tag k="name" v="Kristiklakken" />
		<tag k="natural" v="shoal" />
		<tag k="place" v="locality" />
		<tag k="ssr:stedsnr" v="497601" />
	</node>
	<node lat="62.80709166276701" lon="7.164233325144073" id="-11843">
		<tag k="name" v="Sandsbukta" />
		<tag k="natural" v="bay" />
		<tag k="ssr:stedsnr" v="497792" />
	</node>
	<node lat="62.957463888865796" lon="7.3970083329191265" id="-11849">
		<tag k="name" v="Vikabukta" />
		<tag k="natural" v="bay" />
		<tag k="ssr:stedsnr" v="519402" />
	</node>
	<node lat="62.96070555731032" lon="7.382194448430196" id="-11850">
		<tag k="name" v="Boganeset" />
		<tag k="natural" v="cape" />
		<tag k="ssr:stedsnr" v="519379" />
	</node>
	<node lat="62.8860499991895" lon="6.848372227120834" id="-11867">
		<tag k="fixme" v="consider seamark:type=rock or natural=shoal" />
		<tag k="name" v="Klakkskjæret" />
		<tag k="place" v="islet" />
		<tag k="ssr:stedsnr" v="520360" />
	</node>
	<node lat="62.88966944548466" lon="6.93889443630733" id="-11871">
		<tag k="name" v="Bekkerholmen" />
		<tag k="place" v="islet" />
		<tag k="ssr:stedsnr" v="520375" />
	</node>
	<node lat="62.842947226578524" lon="7.156350007456153" id="-11873">
		<tag k="name" v="Saltskjærbukta" />
		<tag k="natural" v="bay" />
		<tag k="ssr:stedsnr" v="520566" />
	</node>
	<node lat="62.88483610747764" lon="6.842894444914272" id="-11896">
		<tag k="name" v="Trollholmflua" />
		<tag k="natural" v="shoal" />
		<tag k="place" v="locality" />
		<tag k="ssr:stedsnr" v="535822" />
	</node>
	<node lat="63.01048889175758" lon="7.252786108867199" id="-11912">
		<tag k="name" v="Kjeøya" />
		<tag k="place" v="islet" />
		<tag k="ssr:stedsnr" v="558647" />
	</node>
	<node lat="63.04503333228028" lon="7.140511104780414" id="-11913">
		<tag k="fixme" v="consider seamark:type=rock or natural=shoal" />
		<tag k="name" v="Fuglen" />
		<tag k="place" v="islet" />
		<tag k="ssr:stedsnr" v="558654" />
	</node>
	<node lat="63.00504166314386" lon="7.32602778149001" id="-11926">
		<tag k="fixme" v="consider seamark:type=rock or natural=shoal" />
		<tag k="name" v="Mannsholmskjæret" />
		<tag k="place" v="islet" />
		<tag k="ssr:stedsnr" v="580247" />
	</node>
	<node lat="62.907069445962385" lon="6.880994435272704" id="-11930">
		<tag k="name" v="Midtodden" />
		<tag k="place" v="islet" />
		<tag k="ssr:stedsnr" v="580290" />
	</node>
	<node lat="62.90385555510666" lon="6.881508332460834" id="-11932">
		<tag k="fixme" v="consider seamark:type=rock or natural=shoal" />
		<tag k="name" v="Frettaskjæret" />
		<tag k="place" v="islet" />
		<tag k="ssr:stedsnr" v="580293" />
	</node>
	<node lat="62.83941111476705" lon="7.031822229987505" id="-11936">
		<tag k="name" v="Tornesbukta" />
		<tag k="natural" v="bay" />
		<tag k="ssr:stedsnr" v="580408" />
	</node>
	<node lat="62.897963893347104" lon="6.944119443286474" id="-11939">
		<tag k="name" v="Geitholmen" />
		<tag k="place" v="islet" />
		<tag k="ssr:stedsnr" v="580311" />
	</node>
	<node lat="62.849733332057184" lon="7.164433338342528" id="-11952">
		<tag k="name" v="Tømmerneset" />
		<tag k="natural" v="cape" />
		<tag k="ssr:stedsnr" v="580501" />
	</node>
	<node lat="62.9882611153536" lon="7.036713883206242" id="-11984">
		<tag k="name" v="Klasflua" />
		<tag k="natural" v="shoal" />
		<tag k="place" v="locality" />
		<tag k="ssr:stedsnr" v="595108" />
	</node>
	<node lat="62.96043333710125" lon="7.002486102723972" id="-11985">
		<tag k="name" v="Midtfjordskjærtaren" />
		<tag k="natural" v="shoal" />
		<tag k="place" v="locality" />
		<tag k="ssr:stedsnr" v="595556" />
	</node>
	<node lat="62.9573805554156" lon="7.007547226287783" id="-11986">
		<tag k="name" v="Langflua" />
		<tag k="natural" v="shoal" />
		<tag k="place" v="locality" />
		<tag k="ssr:stedsnr" v="595560" />
	</node>
	<node lat="63.0111250034914" lon="7.222958335577478" id="-11988">
		<tag k="name" v="Kariflua" />
		<tag k="place" v="locality" />
		<tag k="seamark:type" v="rock" />
		<tag k="ssr:stedsnr" v="595870" />
	</node>
	<node lat="63.09139722417601" lon="7.080099996721608" id="-11989">
		<tag k="name" v="Spunset" />
		<tag k="natural" v="shoal" />
		<tag k="place" v="locality" />
		<tag k="ssr:stedsnr" v="595753" />
	</node>
	<node lat="62.95785833025664" lon="6.947444447176149" id="-11990">
		<tag k="fixme" v="consider seamark:type=rock or natural=shoal" />
		<tag k="name" v="Tvillingan" />
		<tag k="place" v="islet" />
		<tag k="ssr:stedsnr" v="596709" />
	</node>
	<node lat="63.01348888445504" lon="7.328916657366401" id="-11994">
		<tag k="name" v="Skarvøyvågen" />
		<tag k="natural" v="bay" />
		<tag k="ssr:stedsnr" v="702264" />
	</node>
	<node lat="63.11323333694957" lon="6.86294443566625" id="-12004">
		<tag k="name" v="Bruna" />
		<tag k="natural" v="shoal" />
		<tag k="place" v="locality" />
		<tag k="ssr:stedsnr" v="618617" />
	</node>
	<node lat="63.045155556775825" lon="6.988022221382029" id="-12006">
		<tag k="name" v="Kroppen" />
		<tag k="natural" v="shoal" />
		<tag k="place" v="locality" />
		<tag k="ssr:stedsnr" v="618621" />
	</node>
	<node lat="62.972897225397546" lon="7.3328944463134444" id="-12034">
		<tag k="name" v="Nørd Sandvikbukta" />
		<tag k="natural" v="bay" />
		<tag k="ssr:stedsnr" v="702253" />
	</node>
	<node lat="63.008311112247526" lon="7.289108325254898" id="-12035">
		<tag k="name" v="Hummarvika" />
		<tag k="natural" v="bay" />
		<tag k="ssr:stedsnr" v="702256" />
	</node>
	<node lat="62.90268333641039" lon="6.906688896785131" id="-12039">
		<tag k="name" v="Nørdre Kipperholmen" />
		<tag k="place" v="islet" />
		<tag k="ssr:stedsnr" v="702327" />
	</node>
	<node lat="62.891322224480575" lon="6.931827780072589" id="-12043">
		<tag k="fixme" v="consider seamark:type=rock or natural=shoal" />
		<tag k="name" v="Gulskjæret" />
		<tag k="place" v="islet" />
		<tag k="ssr:stedsnr" v="702337" />
	</node>
	<node lat="62.87953055372072" lon="6.8273722156636545" id="-12045">
		<tag k="bay" v="fjord" />
		<tag k="name" v="Bjørnsundfjorden" />
		<tag k="natural" v="bay" />
		<tag k="ssr:stedsnr" v="702346" />
	</node>
	<node lat="62.9344277775826" lon="7.447866666186199" id="-12046">
		<tag k="name" v="Aspatangen" />
		<tag k="natural" v="cape" />
		<tag k="ssr:stedsnr" v="702348" />
	</node>
	<node lat="62.837986112447005" lon="7.130586110661386" id="-12057">
		<tag k="name" v="Kolbeinsundet" />
		<tag k="natural" v="strait" />
		<tag k="ssr:stedsnr" v="702538" />
	</node>
	<node lat="62.96664166770628" lon="7.08681944010232" id="-12068">
		<tag k="fixme" v="consider seamark:type=rock or natural=shoal" />
		<tag k="name" v="Kornskjæret" />
		<tag k="place" v="islet" />
		<tag k="ssr:stedsnr" v="702687" />
	</node>
	<node lat="62.966958333809615" lon="7.042822217544977" id="-12079">
		<tag k="name" v="Omholmen" />
		<tag k="place" v="islet" />
		<tag k="ssr:stedsnr" v="702933" />
	</node>
	<node lat="62.88554444793119" lon="6.950688898001676" id="-12086">
		<tag k="name" v="Kuneset" />
		<tag k="natural" v="cape" />
		<tag k="ssr:stedsnr" v="702935" />
	</node>
	<node lat="62.88495278153686" lon="6.942955545479749" id="-12087">
		<tag k="name" v="Hotten" />
		<tag k="place" v="islet" />
		<tag k="ssr:stedsnr" v="702936" />
	</node>
	<node lat="62.82589166295237" lon="7.184136107943432" id="-12090">
		<tag k="alt_name" v="Storevika" />
		<tag k="name" v="Storvika" />
		<tag k="natural" v="bay" />
		<tag k="ssr:stedsnr" v="702996" />
	</node>
	<node lat="62.84481944221761" lon="7.090947216007995" id="-12102">
		<tag k="name" v="Grovabukta" />
		<tag k="natural" v="bay" />
		<tag k="ssr:stedsnr" v="640578" />
	</node>
	<node lat="62.89077222572013" lon="6.8427138880130265" id="-12117">
		<tag k="name" v="Midtre Bjørnøybarane" />
		<tag k="place" v="islet" />
		<tag k="ssr:stedsnr" v="641310" />
	</node>
	<node lat="62.89155833684069" lon="6.844405556037032" id="-12118">
		<tag k="name" v="Nordre Bjørnøybarane" />
		<tag k="place" v="islet" />
		<tag k="ssr:stedsnr" v="641311" />
	</node>
	<node lat="62.906602775666414" lon="6.896536114551591" id="-12119">
		<tag k="name" v="Fanteleia" />
		<tag k="natural" v="strait" />
		<tag k="ssr:stedsnr" v="641315" />
	</node>
	<node lat="62.904977778530366" lon="6.888586113179078" id="-12120">
		<tag k="fixme" v="consider seamark:type=rock or natural=shoal" />
		<tag k="name" v="Håskjæret" />
		<tag k="place" v="islet" />
		<tag k="ssr:stedsnr" v="641316" />
	</node>
	<node lat="62.92914999749314" lon="7.451480561671744" id="-12121">
		<tag k="name" v="Skoganestangen" />
		<tag k="natural" v="cape" />
		<tag k="ssr:stedsnr" v="641325" />
	</node>
	<node lat="62.88868055479474" lon="6.941497214575256" id="-12124">
		<tag k="name" v="Trollarneset" />
		<tag k="natural" v="cape" />
		<tag k="ssr:stedsnr" v="641331" />
	</node>
	<node lat="62.804688889517124" lon="6.994102769626517" id="-12131">
		<tag k="name" v="Storvikneset" />
		<tag k="natural" v="cape" />
		<tag k="ssr:stedsnr" v="641243" />
	</node>
	<node lat="63.00678889227339" lon="7.28138611067677" id="-12132">
		<tag k="name" v="Gjengstøa" />
		<tag k="natural" v="bay" />
		<tag k="ssr:stedsnr" v="641245" />
	</node>
	<node lat="62.90487499764528" lon="7.453536102757048" id="-12138">
		<tag k="name" v="Breineset" />
		<tag k="natural" v="cape" />
		<tag k="ssr:stedsnr" v="641276" />
	</node>
	<node lat="62.9537333358731" lon="7.015511107874633" id="-12144">
		<tag k="name" v="Sjåholmen" />
		<tag k="place" v="islet" />
		<tag k="ssr:stedsnr" v="641432" />
	</node>
	<node lat="62.89844166900488" lon="6.951211119527531" id="-12160">
		<tag k="fixme" v="consider seamark:type=rock or natural=shoal" />
		<tag k="name" v="Purkfleå" />
		<tag k="place" v="islet" />
		<tag k="ssr:stedsnr" v="641893" />
	</node>
	<node lat="62.835669442955314" lon="6.9950083402188765" id="-12162">
		<tag k="name" v="Kjesjuka" />
		<tag k="natural" v="bay" />
		<tag k="ssr:stedsnr" v="641897" />
	</node>
	<node lat="62.95851111342262" lon="7.035669439531631" id="-12164">
		<tag k="name" v="Ruggosen" />
		<tag k="natural" v="bay" />
		<tag k="ssr:stedsnr" v="641913" />
	</node>
	<node lat="62.99433611295616" lon="7.179869450871191" id="-12173">
		<tag k="name" v="Kobbeflua" />
		<tag k="natural" v="shoal" />
		<tag k="place" v="locality" />
		<tag k="ssr:stedsnr" v="655600" />
	</node>
	<node lat="63.01298889176524" lon="7.160233331071482" id="-12174">
		<tag k="fixme" v="consider seamark:type=rock or natural=shoal" />
		<tag k="name" v="Svartoksskjæret" />
		<tag k="place" v="islet" />
		<tag k="ssr:stedsnr" v="655601" />
	</node>
	<node lat="62.818355554103306" lon="7.075327781645522" id="-12175">
		<tag k="name" v="Svansholmvågen" />
		<tag k="natural" v="bay" />
		<tag k="ssr:stedsnr" v="656217" />
	</node>
	<node lat="62.953475003306366" lon="6.986713892228529" id="-12176">
		<tag k="name" v="Bekkerholmtaren" />
		<tag k="natural" v="shoal" />
		<tag k="place" v="locality" />
		<tag k="ssr:stedsnr" v="656598" />
	</node>
	<node lat="62.82959444506382" lon="7.17898889252386" id="-12178">
		<tag k="name" v="Storknutflua" />
		<tag k="natural" v="shoal" />
		<tag k="place" v="locality" />
		<tag k="ssr:stedsnr" v="657033" />
	</node>
	<node lat="62.82162500107481" lon="7.168883333159832" id="-12179">
		<tag k="name" v="Villikflua" />
		<tag k="natural" v="shoal" />
		<tag k="place" v="locality" />
		<tag k="ssr:stedsnr" v="657039" />
	</node>
	<node lat="62.84904166708368" lon="7.000349992306058" id="-12180">
		<tag k="name" v="Fallet" />
		<tag k="natural" v="shoal" />
		<tag k="place" v="locality" />
		<tag k="ssr:stedsnr" v="657517" />
	</node>
	<node lat="62.875997224580566" lon="7.287472217459547" id="-12205">
		<tag k="name" v="Fræneidet" />
		<tag k="old_name" v="Frænaeidet" />
		<tag k="place" v="locality" />
		<tag k="ssr:stedsnr" v="679617" />
	</node>
	<node lat="63.01125277491944" lon="7.149061113511498" id="-12206">
		<tag k="fixme" v="consider seamark:type=rock or natural=shoal" />
		<tag k="name" v="Svartoksen" />
		<tag k="place" v="islet" />
		<tag k="ssr:stedsnr" v="679665" />
	</node>
	<node lat="63.02075000391712" lon="6.8749555491723155" id="-12212">
		<tag k="name" v="Godklakken" />
		<tag k="natural" v="shoal" />
		<tag k="place" v="locality" />
		<tag k="ssr:stedsnr" v="679585" />
	</node>
	<node lat="63.00268055985962" lon="7.30005832995068" id="-12231">
		<tag k="alt_name" v="Vevangsvågen" />
		<tag k="name" v="Vevangvågen" />
		<tag k="natural" v="bay" />
		<tag k="ssr:stedsnr" v="702262" />
	</node>
	<node lat="62.972322219249996" lon="7.343583340293775" id="-12233">
		<tag k="name" v="Ramsvika" />
		<tag k="natural" v="bay" />
		<tag k="ssr:stedsnr" v="702409" />
	</node>
	<node lat="62.902186114570284" lon="7.459305557010698" id="-12240">
		<tag k="name" v="Svanvika" />
		<tag k="natural" v="bay" />
		<tag k="ssr:stedsnr" v="702436" />
	</node>
	<node lat="62.9441611153193" lon="6.999347212293844" id="-12244">
		<tag k="name" v="Soløyvågen" />
		<tag k="natural" v="bay" />
		<tag k="ssr:stedsnr" v="702470" />
	</node>
	<node lat="62.78997222369357" lon="6.982161113529737" id="-12249">
		<tag k="name" v="Fagervikneset" />
		<tag k="natural" v="cape" />
		<tag k="ssr:stedsnr" v="702372" />
	</node>
	<node lat="62.792091664693025" lon="6.975780550032222" id="-12252">
		<tag k="name" v="Langneset" />
		<tag k="natural" v="cape" />
		<tag k="ssr:stedsnr" v="702381" />
	</node>
	<node lat="62.83025833234356" lon="7.069069443363066" id="-12255">
		<tag k="name" v="Tangholmen" />
		<tag k="place" v="islet" />
		<tag k="ssr:stedsnr" v="702564" />
	</node>
	<node lat="62.814911110615824" lon="7.11054444148211" id="-12256">
		<tag k="name" v="Strandssundet" />
		<tag k="natural" v="strait" />
		<tag k="ssr:stedsnr" v="702566" />
	</node>
	<node lat="62.819694442259646" lon="7.1172111136533545" id="-12257">
		<tag k="name" v="Notholmen" />
		<tag k="place" v="islet" />
		<tag k="ssr:stedsnr" v="702568" />
	</node>
	<node lat="62.98145555373289" lon="7.122319442981111" id="-12262">
		<tag k="name" v="Ropaneset" />
		<tag k="natural" v="cape" />
		<tag k="ssr:stedsnr" v="702665" />
	</node>
	<node lat="63.002697219925984" lon="7.162719440519591" id="-12271">
		<tag k="name" v="Stålflua" />
		<tag k="natural" v="shoal" />
		<tag k="place" v="locality" />
		<tag k="ssr:stedsnr" v="716623" />
	</node>
	<node lat="63.07762221928658" lon="7.226644447002971" id="-12273">
		<tag k="name" v="Følingstaren" />
		<tag k="natural" v="shoal" />
		<tag k="place" v="locality" />
		<tag k="ssr:stedsnr" v="899150" />
	</node>
	<node lat="62.822011112700075" lon="7.13470277509389" id="-12274">
		<tag k="name" v="Bitsteinneset" />
		<tag k="natural" v="shoal" />
		<tag k="place" v="locality" />
		<tag k="ssr:stedsnr" v="718012" />
	</node>
	<node lat="62.950022221746146" lon="6.9655611080877495" id="-12276">
		<tag k="name" v="Hommeløybåen" />
		<tag k="natural" v="shoal" />
		<tag k="place" v="locality" />
		<tag k="ssr:stedsnr" v="899586" />
	</node>
	<node lat="62.890116664657846" lon="6.916350008855237" id="-12277">
		<tag k="name" v="Gulskallen" />
		<tag k="natural" v="shoal" />
		<tag k="place" v="locality" />
		<tag k="ssr:stedsnr" v="899883" />
	</node>
	<node lat="62.83854444518826" lon="7.170599999199372" id="-12278">
		<tag k="name" v="Kjøvhaugbukta" />
		<tag k="natural" v="bay" />
		<tag k="ssr:stedsnr" v="900046" />
	</node>
	<node lat="62.968197221975835" lon="6.924938891926268" id="-12280">
		<tag k="bay" v="fjord" />
		<tag k="name" v="Breidsundleia" />
		<tag k="natural" v="bay" />
		<tag k="ssr:stedsnr" v="900737" />
	</node>
	<node lat="63.01819999887969" lon="7.346738885482635" id="-12284">
		<tag k="name" v="Skipsholmen" />
		<tag k="place" v="islet" />
		<tag k="ssr:stedsnr" v="900817" />
	</node>
	<node lat="63.01531111132245" lon="7.340005550100791" id="-12285">
		<tag k="name" v="Myrbærholmen" />
		<tag k="place" v="islet" />
		<tag k="ssr:stedsnr" v="900819" />
	</node>
	<node lat="62.87681388768803" lon="6.89257222829134" id="-12287">
		<tag k="name" v="Skolten" />
		<tag k="natural" v="shoal" />
		<tag k="place" v="locality" />
		<tag k="ssr:stedsnr" v="900832" />
	</node>
	<node lat="63.03170277773569" lon="7.330000003372147" id="-12288">
		<tag k="fixme" v="consider seamark:type=rock or natural=shoal" />
		<tag k="name" v="Bjørnen" />
		<tag k="place" v="islet" />
		<tag k="ssr:stedsnr" v="900834" />
	</node>
	<node lat="63.08273611533923" lon="7.23498611613646" id="-12310">
		<tag k="fixme" v="consider seamark:type=rock or natural=shoal" />
		<tag k="name" v="Stabben" />
		<tag k="place" v="islet" />
		<tag k="ssr:stedsnr" v="740740" />
	</node>
	<node lat="62.95611110944922" lon="7.415400006521221" id="-12322">
		<tag k="name" v="Hansbukta" />
		<tag k="natural" v="bay" />
		<tag k="ssr:stedsnr" v="762348" />
	</node>
	<node lat="62.906980552770314" lon="7.447605559111598" id="-12336">
		<tag k="name" v="Storholmbukta" />
		<tag k="natural" v="bay" />
		<tag k="ssr:stedsnr" v="763342" />
	</node>
	<node lat="62.8833305570549" lon="6.857238882569025" id="-12341">
		<tag k="fixme" v="consider seamark:type=rock or natural=shoal" />
		<tag k="name" v="Skarveskjæret" />
		<tag k="place" v="islet" />
		<tag k="ssr:stedsnr" v="763395" />
	</node>
	<node lat="62.96046111517371" lon="7.026080557079447" id="-12346">
		<tag k="alt_name" v="Hotten" />
		<tag k="name" v="Tobakkshotten" />
		<tag k="place" v="islet" />
		<tag k="ssr:stedsnr" v="763516" />
	</node>
	<node lat="62.95212499658404" lon="7.027855563357314" id="-12347">
		<tag k="name" v="Skutsanden" />
		<tag k="natural" v="bay" />
		<tag k="ssr:stedsnr" v="763517" />
	</node>
	<node lat="62.93468055498758" lon="6.9394277740233195" id="-12349">
		<tag k="name" v="Romsdalsholmen" />
		<tag k="place" v="islet" />
		<tag k="ssr:stedsnr" v="763541" />
	</node>
	<node lat="62.91249166850341" lon="7.537136116226229" id="-12355">
		<tag k="alt_name" v="Strandabogen" />
		<tag k="name" v="Strandabukta" />
		<tag k="natural" v="bay" />
		<tag k="ssr:stedsnr" v="763416" />
	</node>
	<node lat="62.853661112202104" lon="7.0076861114331574" id="-12361">
		<tag k="fixme" v="consider seamark:type=rock or natural=shoal" />
		<tag k="name" v="Leverskjeret" />
		<tag k="place" v="islet" />
		<tag k="ssr:stedsnr" v="763457" />
	</node>
	<node lat="62.82308333786369" lon="7.0429027784562805" id="-12364">
		<tag k="name" v="Naustholmen" />
		<tag k="place" v="islet" />
		<tag k="ssr:stedsnr" v="763499" />
	</node>
	<node lat="62.82283333401439" lon="7.037372212445771" id="-12365">
		<tag k="fixme" v="consider seamark:type=rock or natural=shoal" />
		<tag k="name" v="Hjellskjæret" />
		<tag k="place" v="islet" />
		<tag k="ssr:stedsnr" v="763501" />
	</node>
	<node lat="62.842083329833564" lon="7.081794445192025" id="-12366">
		<tag k="name" v="Løsetbukta" />
		<tag k="natural" v="bay" />
		<tag k="ssr:stedsnr" v="763608" />
	</node>
	<node lat="62.98224722473294" lon="7.15159445016127" id="-12369">
		<tag k="name" v="Farstadsanden" />
		<tag k="natural" v="beach" />
		<tag k="ssr:stedsnr" v="763704" />
	</node>
	<node lat="62.98408611157307" lon="7.1491666685354645" id="-12370">
		<tag k="name" v="Farstadbukta" />
		<tag k="natural" v="bay" />
		<tag k="ssr:stedsnr" v="763705" />
	</node>
	<node lat="62.89398888871028" lon="6.955316671669247" id="-12376">
		<tag k="name" v="Håsundet" />
		<tag k="natural" v="strait" />
		<tag k="ssr:stedsnr" v="763906" />
	</node>
	<node lat="63.12350833360244" lon="7.2346527869666195" id="-12395">
		<tag k="name" v="Flantran" />
		<tag k="natural" v="shoal" />
		<tag k="place" v="locality" />
		<tag k="ssr:stedsnr" v="777154" />
	</node>
	<node lat="62.95432499974033" lon="6.895377787520047" id="-12396">
		<tag k="name" v="Kringsflua" />
		<tag k="natural" v="shoal" />
		<tag k="place" v="locality" />
		<tag k="ssr:stedsnr" v="777553" />
	</node>
	<node lat="63.0180555552657" lon="7.283397214602718" id="-12398">
		<tag k="name" v="Holmeskallen" />
		<tag k="natural" v="shoal" />
		<tag k="place" v="locality" />
		<tag k="ssr:stedsnr" v="777898" />
	</node>
	<node lat="63.04204444072225" lon="7.158322217668848" id="-12399">
		<tag k="name" v="Dotten" />
		<tag k="natural" v="shoal" />
		<tag k="place" v="locality" />
		<tag k="ssr:stedsnr" v="777901" />
	</node>
	<node lat="62.99119219034112" lon="6.762096324198078" id="-12402">
		<tag k="name" v="Karl med hammaren" />
		<tag k="natural" v="shoal" />
		<tag k="place" v="locality" />
		<tag k="ssr:stedsnr" v="778356" />
	</node>
	<node lat="63.01311110924241" lon="7.250019444826903" id="-12419">
		<tag k="name" v="Sandøya" />
		<tag k="place" v="islet" />
		<tag k="ssr:stedsnr" v="801605" />
	</node>
	<node lat="62.8121916655847" lon="7.017394448080723" id="-12445">
		<tag k="name" v="Klauvfeta" />
		<tag k="natural" v="beach" />
		<tag k="ssr:stedsnr" v="824325" />
	</node>
	<node lat="62.909538885137486" lon="7.514872214929163" id="-12457">
		<tag k="name" v="Kjølneset" />
		<tag k="natural" v="cape" />
		<tag k="ssr:stedsnr" v="824415" />
	</node>
	<node lat="62.878105559274815" lon="6.9588888794722115" id="-12462">
		<tag k="fixme" v="consider seamark:type=rock or natural=shoal" />
		<tag k="name" v="Kråkungen" />
		<tag k="place" v="islet" />
		<tag k="ssr:stedsnr" v="824426" />
	</node>
	<node lat="62.79789444583513" lon="6.982213886899548" id="-12463">
		<tag k="name" v="Vorpeberget" />
		<tag k="natural" v="cape" />
		<tag k="ssr:stedsnr" v="824430" />
	</node>
	<node lat="62.90589722622423" lon="7.4825250002230845" id="-12465">
		<tag k="name" v="Lianeset" />
		<tag k="natural" v="cape" />
		<tag k="ssr:stedsnr" v="921610" />
	</node>
	<node lat="62.907508329415045" lon="7.504111107474464" id="-12469">
		<tag k="name" v="Sørvika" />
		<tag k="natural" v="bay" />
		<tag k="ssr:stedsnr" v="824715" />
	</node>
	<node lat="62.992858334003614" lon="7.178755555409639" id="-12470">
		<tag k="name" v="Sandvikbukta" />
		<tag k="natural" v="bay" />
		<tag k="ssr:stedsnr" v="824722" />
	</node>
	<node lat="62.96799444498056" lon="7.081072225326682" id="-12475">
		<tag k="name" v="Nerlandsbukta" />
		<tag k="natural" v="bay" />
		<tag k="ssr:stedsnr" v="824734" />
	</node>
	<node lat="63.136625003422495" lon="7.169569443370245" id="-12504">
		<tag k="name" v="Kleppen" />
		<tag k="natural" v="shoal" />
		<tag k="place" v="locality" />
		<tag k="ssr:stedsnr" v="922618" />
	</node>
	<node lat="63.00406111500408" lon="7.191349996148783" id="-12507">
		<tag k="alt_name" v="Moldvarden, l" />
		<tag k="name" v="Litle Moldvarden" />
		<tag k="place" v="islet" />
		<tag k="ssr:stedsnr" v="922655" />
	</node>
	<node lat="62.953736107316665" lon="7.445130559590496" id="-12512">
		<tag k="bay" v="fjord" />
		<tag k="name" v="Kornstadfjorden" />
		<tag k="natural" v="bay" />
		<tag k="ssr:stedsnr" v="922929" />
	</node>
	<node lat="62.83729166503795" lon="7.114391666302517" id="-12520">
		<tag k="name" v="Nordøysundet" />
		<tag k="natural" v="strait" />
		<tag k="ssr:stedsnr" v="839031" />
	</node>
	<node lat="62.946497225311695" lon="7.439069438193835" id="-12521">
		<tag k="name" v="Kronborggrunnan" />
		<tag k="natural" v="shoal" />
		<tag k="place" v="locality" />
		<tag k="ssr:stedsnr" v="839708" />
	</node>
	<node lat="62.94979444486641" lon="6.958497219332085" id="-12522">
		<tag k="name" v="Hommeløytaren" />
		<tag k="natural" v="shoal" />
		<tag k="place" v="locality" />
		<tag k="ssr:stedsnr" v="839607" />
	</node>
	<node lat="63.00873332950935" lon="7.284391664905159" id="-12563">
		<tag k="alt_name" v="Smørholmsundet" />
		<tag k="name" v="Smørholmvågen" />
		<tag k="natural" v="strait" />
		<tag k="ssr:stedsnr" v="884262" />
	</node>
	<node lat="62.82767500146638" lon="7.103063898314524" id="-12568">
		<tag k="name" v="Grønneset" />
		<tag k="natural" v="cape" />
		<tag k="ssr:stedsnr" v="884504" />
	</node>
	<node lat="62.81985833738227" lon="7.07801666745502" id="-12570">
		<tag k="name" v="Hoemsvågen" />
		<tag k="natural" v="bay" />
		<tag k="ssr:stedsnr" v="884551" />
	</node>
	<node lat="62.949691670499135" lon="7.019333333982627" id="-12575">
		<tag k="name" v="Sjåholmen" />
		<tag k="place" v="islet" />
		<tag k="ssr:stedsnr" v="884449" />
	</node>
	<node lat="62.98616666496463" lon="7.121011119819745" id="-12581">
		<tag k="name" v="Langholmen" />
		<tag k="place" v="islet" />
		<tag k="ssr:stedsnr" v="884659" />
	</node>
	<node lat="63.00056110969998" lon="7.20963333877872" id="-12583">
		<tag k="name" v="Hannaholmen" />
		<tag k="place" v="islet" />
		<tag k="ssr:stedsnr" v="884747" />
	</node>
	<node lat="62.99915833420555" lon="7.214280552707043" id="-12584">
		<tag k="name" v="Greteholmen" />
		<tag k="place" v="islet" />
		<tag k="ssr:stedsnr" v="884748" />
	</node>
	<node lat="62.87442500146607" lon="6.969436102837137" id="-12586">
		<tag k="name" v="Vika" />
		<tag k="natural" v="bay" />
		<tag k="ssr:stedsnr" v="884920" />
	</node>
	<node lat="62.832263887699035" lon="7.122569446009932" id="-12595">
		<tag k="name" v="Kroken" />
		<tag k="natural" v="bay" />
		<tag k="ssr:stedsnr" v="884851" />
	</node>
	<node lat="62.82635277659929" lon="7.101361108579088" id="-12596">
		<tag k="name" v="Nesbukta" />
		<tag k="natural" v="bay" />
		<tag k="ssr:stedsnr" v="884856" />
	</node>
	<node lat="62.97418055511851" lon="7.084505563376838" id="-12598">
		<tag k="name" v="Fløneset" />
		<tag k="natural" v="cape" />
		<tag k="ssr:stedsnr" v="884996" />
	</node>
	<node lat="62.92598888755687" lon="7.576824995992054" id="-12599">
		<tag k="name" v="Buskeneset" />
		<tag k="natural" v="cape" />
		<tag k="ssr:stedsnr" v="885161" />
	</node>
	<node lat="62.97805555519897" lon="7.050461112074461" id="-12608">
		<tag k="fixme" v="consider seamark:type=rock or natural=shoal" />
		<tag k="name" v="Landego" />
		<tag k="place" v="islet" />
		<tag k="ssr:stedsnr" v="899604" />
	</node>
	<node lat="62.97925555722305" lon="6.986302786478048" id="-12609">
		<tag k="fixme" v="consider seamark:type=rock or natural=shoal" />
		<tag k="name" v="Kobberauskjæra" />
		<tag k="place" v="islet" />
		<tag k="ssr:stedsnr" v="899609" />
	</node>
	<node lat="63.01178333289919" lon="7.148455546148152" id="-12610">
		<tag k="name" v="Øksningan" />
		<tag k="natural" v="shoal" />
		<tag k="place" v="locality" />
		<tag k="ssr:stedsnr" v="899614" />
	</node>
	<node lat="63.00983055951034" lon="7.212230561400406" id="-12612">
		<tag k="fixme" v="consider seamark:type=rock or natural=shoal" />
		<tag k="name" v="Svartskjæret" />
		<tag k="place" v="islet" />
		<tag k="ssr:stedsnr" v="899908" />
	</node>
	<node lat="62.970550004030464" lon="7.08266666478832" id="-12613">
		<tag k="name" v="Brygga" />
		<tag k="natural" v="shoal" />
		<tag k="place" v="locality" />
		<tag k="ssr:stedsnr" v="900703" />
	</node>
	<node lat="63.00756268719922" lon="7.2700351104078695" id="-12628">
		<tag k="name" v="Langøya" />
		<tag k="place" v="islet" />
		<tag k="ssr:stedsnr" v="922384" />
	</node>
	<node lat="62.90343888977876" lon="7.476655549547013" id="-12648">
		<tag k="name" v="Katthammarneset" />
		<tag k="natural" v="cape" />
		<tag k="ssr:stedsnr" v="945307" />
	</node>
	<node lat="62.89283611204345" lon="6.8479111063461415" id="-12649">
		<tag k="fixme" v="consider seamark:type=rock or natural=shoal" />
		<tag k="name" v="Digerfallet" />
		<tag k="place" v="islet" />
		<tag k="ssr:stedsnr" v="945330" />
	</node>
	<node lat="62.898177775893934" lon="6.923438884375533" id="-12651">
		<tag k="name" v="Kalsneset" />
		<tag k="natural" v="cape" />
		<tag k="ssr:stedsnr" v="945334" />
	</node>
	<node lat="63.00781666673758" lon="7.257163880993926" id="-12655">
		<tag k="name" v="Grindholmen" />
		<tag k="place" v="islet" />
		<tag k="ssr:stedsnr" v="945284" />
	</node>
	<node lat="63.00765277641963" lon="7.306208335347555" id="-12656">
		<tag k="fixme" v="consider seamark:type=rock or natural=shoal" />
		<tag k="name" v="Klipaskjæret" />
		<tag k="place" v="islet" />
		<tag k="ssr:stedsnr" v="945287" />
	</node>
	<node lat="62.94902499572581" lon="7.000244443917909" id="-12662">
		<tag k="name" v="Storholmhotten" />
		<tag k="place" v="islet" />
		<tag k="ssr:stedsnr" v="945436" />
	</node>
	<node lat="62.827030553933874" lon="7.072347230310769" id="-12663">
		<tag k="name" v="Hoemsvågen (Kvalsnesvågen)" />
		<tag k="natural" v="bay" />
		<tag k="ssr:stedsnr" v="945510" />
	</node>
	<node lat="62.99340278103758" lon="7.185302772148339" id="-12673">
		<tag k="fixme" v="consider seamark:type=rock or natural=shoal" />
		<tag k="name" v="Gulskjæra" />
		<tag k="place" v="islet" />
		<tag k="ssr:stedsnr" v="945684" />
	</node>
	<node lat="62.95462778102206" lon="7.013727781496816" id="-12682">
		<tag k="name" v="Sjåneset" />
		<tag k="natural" v="cape" />
		<tag k="ssr:stedsnr" v="945939" />
	</node>
	<node lat="62.818416670541644" lon="7.182416671541004" id="-12686">
		<tag k="name" v="Reitvika" />
		<tag k="natural" v="bay" />
		<tag k="ssr:stedsnr" v="945999" />
	</node>
	<node lat="62.99958680918535" lon="6.786221266932658" id="-12695">
		<tag k="name" v="Turiskallen" />
		<tag k="natural" v="shoal" />
		<tag k="place" v="locality" />
		<tag k="ssr:stedsnr" v="960356" />
	</node>
	<node lat="62.820283333471195" lon="7.1270027740238024" id="-12696">
		<tag k="name" v="Singneflua" />
		<tag k="natural" v="shoal" />
		<tag k="place" v="locality" />
		<tag k="ssr:stedsnr" v="961011" />
	</node>
	<node lat="62.95767221994136" lon="6.964533341330947" id="-12749">
		<tag k="name" v="Rota" />
		<tag k="place" v="islet" />
		<tag k="ssr:stedsnr" v="12019" />
	</node>
	<node lat="62.89109444237959" lon="6.938700009872304" id="-12780">
		<tag k="fixme" v="consider seamark:type=rock or natural=shoal" />
		<tag k="name" v="Fårlegskjæret" />
		<tag k="place" v="islet" />
		<tag k="ssr:stedsnr" v="34350" />
	</node>
	<node lat="62.929041666588795" lon="6.961305550224469" id="-12783">
		<tag k="name" v="Veståvindsholmen" />
		<tag k="place" v="islet" />
		<tag k="ssr:stedsnr" v="34473" />
	</node>
	<node lat="62.830580558295026" lon="7.14729721245348" id="-12789">
		<tag k="alt_name" v="Ospholmen" />
		<tag k="name" v="Auspholmen" />
		<tag k="place" v="islet" />
		<tag k="ssr:stedsnr" v="34528" />
	</node>
	<node lat="62.8458694470359" lon="7.166733330153569" id="-12790">
		<tag k="name" v="Vorpeneset" />
		<tag k="natural" v="cape" />
		<tag k="ssr:stedsnr" v="34529" />
	</node>
	<node lat="62.97818889291954" lon="7.3160583325296455" id="-12805">
		<tag k="name" v="Kaldvikneset" />
		<tag k="natural" v="cape" />
		<tag k="ssr:stedsnr" v="35354" />
	</node>
	<node lat="62.907288886653035" lon="6.887611113323459" id="-12810">
		<tag k="name" v="Nørdre Odden" />
		<tag k="place" v="islet" />
		<tag k="ssr:stedsnr" v="35448" />
	</node>
	<node lat="62.903450000586055" lon="6.908880564784338" id="-12811">
		<tag k="name" v="Kippersundet" />
		<tag k="natural" v="strait" />
		<tag k="ssr:stedsnr" v="35454" />
	</node>
	<node lat="62.820908328997135" lon="7.136175004106714" id="-12827">
		<tag k="name" v="Eineset" />
		<tag k="natural" v="cape" />
		<tag k="ssr:stedsnr" v="35897" />
	</node>
	<node lat="62.971963888581755" lon="7.034216659167248" id="-12829">
		<tag k="fixme" v="consider seamark:type=rock or natural=shoal" />
		<tag k="name" v="Kurven" />
		<tag k="place" v="islet" />
		<tag k="ssr:stedsnr" v="35938" />
	</node>
	<node lat="62.88547222270604" lon="6.967558323587715" id="-12830">
		<tag k="fixme" v="consider seamark:type=rock or natural=shoal" />
		<tag k="name" v="Skjæret" />
		<tag k="place" v="islet" />
		<tag k="ssr:stedsnr" v="35939" />
	</node>
	<node lat="62.87660277364117" lon="6.960497221699934" id="-12831">
		<tag k="name" v="Kråka" />
		<tag k="place" v="islet" />
		<tag k="ssr:stedsnr" v="35942" />
	</node>
	<node lat="62.80414722142923" lon="7.194183324431026" id="-12837">
		<tag k="alt_name" v="Børkjeneset" />
		<tag k="name" v="Byrkjeneset" />
		<tag k="natural" v="cape" />
		<tag k="ssr:stedsnr" v="35723" />
	</node>
	<node lat="62.985205559398686" lon="7.088544450971895" id="-12838">
		<tag k="name" v="Flesasundet" />
		<tag k="natural" v="strait" />
		<tag k="ssr:stedsnr" v="35726" />
	</node>
	<node lat="62.97947500130423" lon="7.098777782705465" id="-12852">
		<tag k="name" v="Breivika" />
		<tag k="natural" v="bay" />
		<tag k="ssr:stedsnr" v="36000" />
	</node>
	<node lat="63.115002781097424" lon="7.215541660496562" id="-12861">
		<tag k="name" v="Vestre Gråskjærtaren" />
		<tag k="natural" v="shoal" />
		<tag k="place" v="locality" />
		<tag k="ssr:stedsnr" v="49202" />
	</node>
	<node lat="62.9223999988397" lon="7.556252775204772" id="-12863">
		<tag k="name" v="Stakkviktaren" />
		<tag k="natural" v="shoal" />
		<tag k="place" v="locality" />
		<tag k="ssr:stedsnr" v="49262" />
	</node>
	<node lat="62.996405553391256" lon="7.182466664609356" id="-12864">
		<tag k="fixme" v="consider seamark:type=rock or natural=shoal" />
		<tag k="name" v="Gullskjæret" />
		<tag k="place" v="islet" />
		<tag k="ssr:stedsnr" v="49645" />
	</node>
	<node lat="63.045900001625476" lon="7.132722222443806" id="-12866">
		<tag k="name" v="Fuglvengan" />
		<tag k="natural" v="shoal" />
		<tag k="place" v="locality" />
		<tag k="ssr:stedsnr" v="49916" />
	</node>
	<node lat="62.87943888962034" lon="6.901177770525802" id="-12867">
		<tag k="name" v="Vikaskallen" />
		<tag k="natural" v="shoal" />
		<tag k="place" v="locality" />
		<tag k="ssr:stedsnr" v="50791" />
	</node>
	<node lat="63.02251111505301" lon="6.951694445861577" id="-12908">
		<tag k="name" v="Litleklakken" />
		<tag k="natural" v="shoal" />
		<tag k="place" v="locality" />
		<tag k="ssr:stedsnr" v="73641" />
	</node>
	<node lat="63.02761110727426" lon="6.987905546120477" id="-12909">
		<tag k="name" v="Grunnklakken" />
		<tag k="natural" v="shoal" />
		<tag k="place" v="locality" />
		<tag k="ssr:stedsnr" v="73644" />
	</node>
	<node lat="62.81687777747508" lon="7.011500003259011" id="-12933">
		<tag k="fixme" v="consider seamark:type=rock or natural=shoal" />
		<tag k="name" v="Valskjeret" />
		<tag k="place" v="islet" />
		<tag k="ssr:stedsnr" v="95248" />
	</node>
	<node lat="62.9499805595112" lon="7.01152500558189" id="-12955">
		<tag k="name" v="Nesahotten" />
		<tag k="place" v="islet" />
		<tag k="ssr:stedsnr" v="95432" />
	</node>
	<node lat="62.92849444590737" lon="6.957150006802575" id="-12959">
		<tag k="name" v="Naustholmen" />
		<tag k="place" v="islet" />
		<tag k="ssr:stedsnr" v="95453" />
	</node>
	<node lat="62.86979166578911" lon="6.992180555818929" id="-12960">
		<tag k="name" v="Litlevika" />
		<tag k="natural" v="bay" />
		<tag k="ssr:stedsnr" v="95459" />
	</node>
	<node lat="62.96734444177946" lon="7.0542861073685765" id="-12975">
		<tag k="name" v="Alteret" />
		<tag k="natural" v="cape" />
		<tag k="ssr:stedsnr" v="95925" />
	</node>
	<node lat="62.970961109420735" lon="7.064524995854941" id="-12979">
		<tag k="fixme" v="consider seamark:type=rock or natural=shoal" />
		<tag k="name" v="Markaskjæret" />
		<tag k="place" v="islet" />
		<tag k="ssr:stedsnr" v="95693" />
	</node>
	<node lat="62.919316668995464" lon="7.456913878927489" id="-12992">
		<tag k="name" v="Håganeset" />
		<tag k="natural" v="cape" />
		<tag k="ssr:stedsnr" v="96389" />
	</node>
	<node lat="63.01006110880801" lon="7.2719222175483145" id="-12999">
		<tag k="name" v="Seiholå" />
		<tag k="natural" v="bay" />
		<tag k="ssr:stedsnr" v="96456" />
	</node>
	<node lat="63.05588333027163" lon="7.26098888442069" id="-13001">
		<tag k="name" v="Merragrunnen" />
		<tag k="natural" v="shoal" />
		<tag k="place" v="locality" />
		<tag k="ssr:stedsnr" v="102790" />
	</node>
	<node lat="62.963305551554136" lon="6.984755563337367" id="-13006">
		<tag k="name" v="Sunnmørstaren" />
		<tag k="natural" v="shoal" />
		<tag k="place" v="locality" />
		<tag k="ssr:stedsnr" v="110606" />
	</node>
	<node lat="62.913666664169746" lon="6.903649992603888" id="-13007">
		<tag k="name" v="Ergebogen" />
		<tag k="natural" v="shoal" />
		<tag k="place" v="locality" />
		<tag k="ssr:stedsnr" v="110861" />
	</node>
	<node lat="62.84005833234839" lon="7.1477805505113965" id="-13008">
		<tag k="name" v="Søre Straumen" />
		<tag k="natural" v="strait" />
		<tag k="ssr:stedsnr" v="111032" />
	</node>
	<node lat="63.033586114158624" lon="7.304822221725762" id="-13009">
		<tag k="name" v="Dromflua" />
		<tag k="natural" v="shoal" />
		<tag k="place" v="locality" />
		<tag k="ssr:stedsnr" v="111652" />
	</node>
	<node lat="62.99699999737076" lon="7.131738888463054" id="-13039">
		<tag k="name" v="Skaken" />
		<tag k="natural" v="shoal" />
		<tag k="place" v="locality" />
		<tag k="ssr:stedsnr" v="133048" />
	</node>
	<node lat="63.006730556196146" lon="7.21137222602775" id="-13047">
		<tag k="name" v="Teistklubben" />
		<tag k="place" v="islet" />
		<tag k="ssr:stedsnr" v="133641" />
	</node>
	<node lat="63.11730555559198" lon="7.249958334317495" id="-13048">
		<tag k="fixme" v="consider seamark:type=rock or natural=shoal" />
		<tag k="name" v="Ulåten" />
		<tag k="place" v="islet" />
		<tag k="ssr:stedsnr" v="133696" />
	</node>
	<node lat="63.11743888897646" lon="7.15703889252049" id="-13049">
		<tag k="fixme" v="consider seamark:type=rock or natural=shoal" />
		<tag k="name" v="Fogna" />
		<tag k="place" v="islet" />
		<tag k="ssr:stedsnr" v="133599" />
	</node>
	<node lat="62.946044442853214" lon="7.42611667518993" id="-13059">
		<tag k="name" v="Myrabukta" />
		<tag k="natural" v="bay" />
		<tag k="ssr:stedsnr" v="155353" />
	</node>
	<node lat="62.999741663444766" lon="7.297147217496316" id="-13072">
		<tag k="name" v="Purkholmen" />
		<tag k="place" v="islet" />
		<tag k="ssr:stedsnr" v="156284" />
	</node>
	<node lat="63.01135555369394" lon="7.31987222983058" id="-13073">
		<tag k="name" v="Sør Skarvøya" />
		<tag k="place" v="islet" />
		<tag k="ssr:stedsnr" v="156286" />
	</node>
	<node lat="62.906772222990114" lon="6.9103722243040915" id="-13084">
		<tag k="name" v="Brenslevågen" />
		<tag k="natural" v="bay" />
		<tag k="ssr:stedsnr" v="156342" />
	</node>
	<node lat="62.88645277628458" lon="6.95608889185265" id="-13088">
		<tag k="name" v="Gulljorda" />
		<tag k="place" v="islet" />
		<tag k="ssr:stedsnr" v="156389" />
	</node>
	<node lat="63.014402774583665" lon="7.336033333797613" id="-13089">
		<tag k="name" v="Hulvågen" />
		<tag k="natural" v="bay" />
		<tag k="ssr:stedsnr" v="156450" />
	</node>
	<node lat="62.83823611329404" lon="7.149727786768632" id="-13093">
		<tag k="fixme" v="consider seamark:type=rock or natural=shoal" />
		<tag k="name" v="Skarveskjæret" />
		<tag k="place" v="islet" />
		<tag k="ssr:stedsnr" v="156558" />
	</node>
	<node lat="62.97620277790454" lon="7.09596943874852" id="-13100">
		<tag k="name" v="Hummarvågen" />
		<tag k="natural" v="bay" />
		<tag k="ssr:stedsnr" v="156691" />
	</node>
	<node lat="63.00021389189989" lon="7.201424991942573" id="-13102">
		<tag k="name" v="Hestholmen" />
		<tag k="place" v="islet" />
		<tag k="ssr:stedsnr" v="156789" />
	</node>
	<node lat="62.92056944556027" lon="7.553730555934449" id="-13110">
		<tag k="name" v="Småneset" />
		<tag k="natural" v="cape" />
		<tag k="ssr:stedsnr" v="156708" />
	</node>
	<node lat="62.97405000147893" lon="7.077127786031678" id="-13123">
		<tag k="fixme" v="consider seamark:type=rock or natural=shoal" />
		<tag k="name" v="Gylta" />
		<tag k="place" v="islet" />
		<tag k="ssr:stedsnr" v="156993" />
	</node>
	<node lat="62.90829166603777" lon="7.4474416683803275" id="-13131">
		<tag k="name" v="Eggeleira" />
		<tag k="natural" v="beach" />
		<tag k="ssr:stedsnr" v="170026" />
	</node>
	<node lat="62.878547220811015" lon="6.940044447707081" id="-13132">
		<tag k="name" v="Harøyodden" />
		<tag k="natural" v="cape" />
		<tag k="ssr:stedsnr" v="170130" />
	</node>
	<node lat="62.9859694486877" lon="7.063752769588662" id="-13133">
		<tag k="name" v="Ufstaren" />
		<tag k="natural" v="shoal" />
		<tag k="place" v="locality" />
		<tag k="ssr:stedsnr" v="170137" />
	</node>
	<node lat="63.013688887396846" lon="6.936447214273661" id="-13134">
		<tag k="name" v="Ytre Seiklakkskallan" />
		<tag k="natural" v="shoal" />
		<tag k="place" v="locality" />
		<tag k="ssr:stedsnr" v="170143" />
	</node>
	<node lat="62.94845833189599" lon="6.886688879756922" id="-13135">
		<tag k="name" v="Langbaken" />
		<tag k="natural" v="shoal" />
		<tag k="place" v="locality" />
		<tag k="ssr:stedsnr" v="170538" />
	</node>
	<node lat="63.014350001994295" lon="7.278319444990766" id="-13136">
		<tag k="name" v="Fletten" />
		<tag k="natural" v="shoal" />
		<tag k="place" v="locality" />
		<tag k="ssr:stedsnr" v="170927" />
	</node>
	<node lat="62.88148055144499" lon="6.799511117787934" id="-13138">
		<tag k="name" v="Korsasundet" />
		<tag k="natural" v="strait" />
		<tag k="ssr:stedsnr" v="171031" />
	</node>
	<node lat="63.080716665108625" lon="6.755352784382024" id="-13139">
		<tag k="name" v="Ruren" />
		<tag k="natural" v="shoal" />
		<tag k="place" v="locality" />
		<tag k="ssr:stedsnr" v="171351" />
	</node>
	<node lat="62.88274444694856" lon="6.813205562839534" id="-13140">
		<tag k="name" v="Skolten" />
		<tag k="natural" v="shoal" />
		<tag k="place" v="locality" />
		<tag k="ssr:stedsnr" v="171836" />
	</node>
	<node lat="62.8896572526041" lon="6.837225015597613" id="-13152">
		<tag k="name" v="Bjørnøya" />
		<tag k="place" v="islet" />
		<tag k="ssr:stedsnr" v="193182" />
	</node>
	<node lat="62.83348210259519" lon="7.047406613613581" id="-13169">
		<tag k="bay" v="fjord" />
		<tag k="name" v="Frænfjorden" />
		<tag k="natural" v="bay" />
		<tag k="ssr:stedsnr" v="193740" />
	</node>
	<node lat="62.816883330043986" lon="7.012697213613129" id="-13170">
		<tag k="name" v="Langøyvågen" />
		<tag k="natural" v="bay" />
		<tag k="ssr:stedsnr" v="193748" />
	</node>
	<node lat="63.03711666975278" lon="6.997277770500833" id="-13194">
		<tag k="name" v="Tynna" />
		<tag k="natural" v="shoal" />
		<tag k="place" v="locality" />
		<tag k="ssr:stedsnr" v="194579" />
	</node>
	<node lat="63.018561110800874" lon="6.919836102121622" id="-13196">
		<tag k="name" v="Gotråshammaren" />
		<tag k="natural" v="shoal" />
		<tag k="place" v="locality" />
		<tag k="ssr:stedsnr" v="194581" />
	</node>
	<node lat="62.94943888875706" lon="7.016286119150588" id="-13222">
		<tag k="name" v="Brennholmen" />
		<tag k="place" v="islet" />
		<tag k="ssr:stedsnr" v="217492" />
	</node>
	<node lat="62.93894722477292" lon="6.9716027851252145" id="-13224">
		<tag k="name" v="Nørde Purkøya" />
		<tag k="place" v="islet" />
		<tag k="ssr:stedsnr" v="217500" />
	</node>
	<node lat="62.82543333266977" lon="7.052683336149079" id="-13252">
		<tag k="name" v="Katthammaren" />
		<tag k="natural" v="cape" />
		<tag k="ssr:stedsnr" v="217461" />
	</node>
	<node lat="62.836313893110706" lon="7.150544443876276" id="-13256">
		<tag k="fixme" v="consider seamark:type=rock or natural=shoal" />
		<tag k="name" v="Kongsholmen" />
		<tag k="place" v="islet" />
		<tag k="ssr:stedsnr" v="217563" />
	</node>
	<node lat="62.84016110819429" lon="7.146958329592714" id="-13257">
		<tag k="name" v="Straumane" />
		<tag k="natural" v="strait" />
		<tag k="ssr:stedsnr" v="217568" />
	</node>
	<node lat="62.83907778103745" lon="7.023063880021707" id="-13261">
		<tag k="name" v="Kjelen" />
		<tag k="natural" v="bay" />
		<tag k="ssr:stedsnr" v="217919" />
	</node>
	<node lat="62.83938610769916" lon="7.085972230658824" id="-13264">
		<tag k="fixme" v="consider seamark:type=rock or natural=shoal" />
		<tag k="name" v="Løsetflua" />
		<tag k="place" v="islet" />
		<tag k="ssr:stedsnr" v="217585" />
	</node>
	<node lat="62.81651111305945" lon="7.121680557697333" id="-13266">
		<tag k="name" v="Segelneset" />
		<tag k="natural" v="cape" />
		<tag k="ssr:stedsnr" v="217591" />
	</node>
	<node lat="62.81913611148322" lon="7.137297223215446" id="-13269">
		<tag k="name" v="Einessundet" />
		<tag k="natural" v="strait" />
		<tag k="ssr:stedsnr" v="217601" />
	</node>
	<node lat="62.8350249974114" lon="7.042108331201244" id="-13281">
		<tag k="fixme" v="consider seamark:type=rock or natural=shoal" />
		<tag k="name" v="Nesaflua" />
		<tag k="place" v="islet" />
		<tag k="ssr:stedsnr" v="217921" />
	</node>
	<node lat="62.98411111174855" lon="7.140377786199858" id="-13282">
		<tag k="name" v="Kanvika" />
		<tag k="natural" v="bay" />
		<tag k="ssr:stedsnr" v="217969" />
	</node>
	<node lat="62.947647223847284" lon="7.428311111248573" id="-13289">
		<tag k="name" v="Storholmen" />
		<tag k="place" v="islet" />
		<tag k="ssr:stedsnr" v="276447" />
	</node>
	<node lat="62.820963884551645" lon="7.084233330126837" id="-13292">
		<tag k="name" v="Svansholmsundet" />
		<tag k="natural" v="strait" />
		<tag k="ssr:stedsnr" v="277588" />
	</node>
	<node lat="62.97581111357472" lon="7.318138896967952" id="-13307">
		<tag k="name" v="Vorpneset" />
		<tag k="natural" v="cape" />
		<tag k="ssr:stedsnr" v="277256" />
	</node>
	<node lat="62.80790833019962" lon="7.00314444432382" id="-13308">
		<tag k="name" v="Hestholmleira" />
		<tag k="natural" v="strait" />
		<tag k="ssr:stedsnr" v="277258" />
	</node>
	<node lat="62.79877500037186" lon="6.987916662501632" id="-13309">
		<tag k="name" v="Simogarden" />
		<tag k="natural" v="beach" />
		<tag k="ssr:stedsnr" v="277387" />
	</node>
	<node lat="62.79353055418103" lon="6.978811109386903" id="-13310">
		<tag k="name" v="Hyttebukta" />
		<tag k="natural" v="bay" />
		<tag k="ssr:stedsnr" v="277388" />
	</node>
	<node lat="62.888905555977296" lon="6.970994444325227" id="-13319">
		<tag k="name" v="Kjerringholmen" />
		<tag k="place" v="islet" />
		<tag k="ssr:stedsnr" v="277350" />
	</node>
	<node lat="62.82656388911837" lon="7.018575000554996" id="-13324">
		<tag k="name" v="Grisberget" />
		<tag k="natural" v="cape" />
		<tag k="ssr:stedsnr" v="277442" />
	</node>
	<node lat="62.83490555297628" lon="7.135783342352772" id="-13328">
		<tag k="name" v="Svenøysundet" />
		<tag k="natural" v="strait" />
		<tag k="ssr:stedsnr" v="277538" />
	</node>
	<node lat="62.83853889312197" lon="7.140497224879792" id="-13329">
		<tag k="name" v="Grisvågen" />
		<tag k="natural" v="bay" />
		<tag k="ssr:stedsnr" v="277540" />
	</node>
	<node lat="62.83430278136231" lon="7.160024998802803" id="-13330">
		<tag k="name" v="Svenøytangen" />
		<tag k="natural" v="cape" />
		<tag k="ssr:stedsnr" v="277547" />
	</node>
	<node lat="62.848213891481464" lon="7.15073611106109" id="-13331">
		<tag k="name" v="Elnesvågen" />
		<tag k="natural" v="bay" />
		<tag k="ssr:stedsnr" v="277551" />
	</node>
	<node lat="62.98781111370265" lon="7.112680556735022" id="-13341">
		<tag k="name" v="Andersvika" />
		<tag k="natural" v="bay" />
		<tag k="ssr:stedsnr" v="277697" />
	</node>
	<node lat="62.9995194461756" lon="7.191830563825679" id="-13344">
		<tag k="name" v="Mortholman" />
		<tag k="old_name" v="Mortholmane" />
		<tag k="place" v="island" />
		<tag k="ssr:stedsnr" v="277794" />
	</node>
	<node lat="62.91916111299052" lon="6.92053333284801" id="-13354">
		<tag k="fixme" v="consider seamark:type=rock or natural=shoal" />
		<tag k="name" v="Dubla" />
		<tag k="place" v="islet" />
		<tag k="ssr:stedsnr" v="277952" />
	</node>
	<node lat="62.88605277716002" lon="6.804299990954597" id="-13358">
		<tag k="fixme" v="consider seamark:type=rock or natural=shoal" />
		<tag k="name" v="Kjelen" />
		<tag k="place" v="islet" />
		<tag k="ssr:stedsnr" v="278096" />
	</node>
	<node lat="63.10880000114863" lon="7.204386107793253" id="-13371">
		<tag k="name" v="Leiskjærtaren" />
		<tag k="natural" v="shoal" />
		<tag k="place" v="locality" />
		<tag k="ssr:stedsnr" v="292789" />
	</node>
	<node lat="62.99448611225535" lon="7.020755547255164" id="-13372">
		<tag k="name" v="Langflua" />
		<tag k="natural" v="shoal" />
		<tag k="place" v="locality" />
		<tag k="ssr:stedsnr" v="292113" />
	</node>
	<node lat="62.95626110820036" lon="7.002633337175572" id="-13374">
		<tag k="name" v="Skutholmtaren" />
		<tag k="natural" v="shoal" />
		<tag k="place" v="locality" />
		<tag k="ssr:stedsnr" v="292554" />
	</node>
	<node lat="62.961713885088976" lon="6.965616663318981" id="-13375">
		<tag k="fixme" v="consider seamark:type=rock or natural=shoal" />
		<tag k="name" v="Såpskjæret" />
		<tag k="place" v="islet" />
		<tag k="ssr:stedsnr" v="292562" />
	</node>
	<node lat="62.904950003493" lon="7.466944446508081" id="-13383">
		<tag k="name" v="Isingvågen" />
		<tag k="natural" v="bay" />
		<tag k="ssr:stedsnr" v="314601" />
	</node>
	<node lat="62.83230092164693" lon="7.1379382562597815" id="-13384">
		<tag k="alt_name" v="Svinøya" />
		<tag k="name" v="Svenøya" />
		<tag k="place" v="island" />
		<tag k="ssr:stedsnr" v="314744" />
	</node>
	<node lat="62.924158331855075" lon="7.5614222284555375" id="-13401">
		<tag k="name" v="Stakkvikneset" />
		<tag k="natural" v="cape" />
		<tag k="ssr:stedsnr" v="315541" />
	</node>
	<node lat="62.96625833688859" lon="7.376397220410116" id="-13407">
		<tag k="name" v="Fransosen" />
		<tag k="natural" v="cape" />
		<tag k="ssr:stedsnr" v="315934" />
	</node>
	<node lat="63.01262231354545" lon="7.329229143831912" id="-13412">
		<tag k="alt_name" v="Nord Skarvøya" />
		<tag k="name" v="Skarvøya" />
		<tag k="place" v="islet" />
		<tag k="ssr:stedsnr" v="316639" />
	</node>
	<node lat="62.95982222555776" lon="7.395805547712682" id="-13421">
		<tag k="name" v="Storholmen" />
		<tag k="place" v="islet" />
		<tag k="ssr:stedsnr" v="337374" />
	</node>
	<node lat="62.90751469609837" lon="6.901255904382033" id="-13423">
		<tag k="name" v="Frisneset" />
		<tag k="natural" v="cape" />
		<tag k="ssr:stedsnr" v="338029" />
	</node>
	<node lat="62.96181666481019" lon="7.041744437353935" id="-13434">
		<tag k="name" v="Store Gjengstøa" />
		<tag k="natural" v="bay" />
		<tag k="ssr:stedsnr" v="338414" />
	</node>
	<node lat="62.85082222485503" lon="7.00498610943224" id="-13440">
		<tag k="name" v="Langneset" />
		<tag k="natural" v="cape" />
		<tag k="ssr:stedsnr" v="338375" />
	</node>
	<node lat="62.84364722662993" lon="6.993780554371237" id="-13441">
		<tag k="fixme" v="consider seamark:type=rock or natural=shoal" />
		<tag k="name" v="Leverskjæret" />
		<tag k="place" v="islet" />
		<tag k="ssr:stedsnr" v="338387" />
	</node>
	<node lat="62.92286666998246" lon="6.942411102649504" id="-13443">
		<tag k="name" v="Hundsholet" />
		<tag k="natural" v="bay" />
		<tag k="ssr:stedsnr" v="338457" />
	</node>
	<node lat="62.83958610895893" lon="7.1451083259195185" id="-13448">
		<tag k="name" v="Grisneset" />
		<tag k="natural" v="cape" />
		<tag k="ssr:stedsnr" v="338519" />
	</node>
	<node lat="62.84027499678907" lon="7.150602775406643" id="-13449">
		<tag k="alt_name" v="Garkloppa" />
		<tag k="name" v="Gårkloppa" />
		<tag k="place" v="islet" />
		<tag k="ssr:stedsnr" v="338521" />
	</node>
	<node lat="62.834258333908565" lon="7.0952305594569065" id="-13452">
		<tag k="name" v="Ålvorbukta" />
		<tag k="natural" v="bay" />
		<tag k="ssr:stedsnr" v="338535" />
	</node>
	<node lat="62.984161110132014" lon="7.088647222581706" id="-13456">
		<tag k="name" v="Hoksneset" />
		<tag k="natural" v="cape" />
		<tag k="ssr:stedsnr" v="338664" />
	</node>
	<node lat="62.97774722127901" lon="7.084674992286648" id="-13457">
		<tag k="fixme" v="consider seamark:type=rock or natural=shoal" />
		<tag k="name" v="Kålbentet" />
		<tag k="place" v="islet" />
		<tag k="ssr:stedsnr" v="338671" />
	</node>
	<node lat="62.974044440442675" lon="7.090388892408017" id="-13458">
		<tag k="name" v="Oksebåsen" />
		<tag k="natural" v="bay" />
		<tag k="ssr:stedsnr" v="338673" />
	</node>
	<node lat="62.9116444475577" lon="7.5349361097487035" id="-13466">
		<tag k="name" v="Sjåsette" />
		<tag k="natural" v="cape" />
		<tag k="ssr:stedsnr" v="338701" />
	</node>
	<node lat="62.90411666676157" lon="7.456480556360096" id="-13492">
		<tag k="name" v="Einsetodden" />
		<tag k="natural" v="cape" />
		<tag k="ssr:stedsnr" v="352022" />
	</node>
	<node lat="63.01160000069724" lon="6.9433333388334795" id="-13493">
		<tag k="name" v="Midtre Seiklakkskallan" />
		<tag k="natural" v="shoal" />
		<tag k="place" v="locality" />
		<tag k="ssr:stedsnr" v="352131" />
	</node>
	<node lat="63.09603333724844" lon="7.230772225697105" id="-13494">
		<tag k="name" v="Skarvskjærtaran" />
		<tag k="natural" v="shoal" />
		<tag k="place" v="locality" />
		<tag k="ssr:stedsnr" v="352143" />
	</node>
	<node lat="63.02608332927191" lon="7.183602768761216" id="-13495">
		<tag k="name" v="Ekneskjærfluan" />
		<tag k="natural" v="shoal" />
		<tag k="place" v="locality" />
		<tag k="ssr:stedsnr" v="352911" />
	</node>
	<node lat="63.0257694472002" lon="7.254144446665338" id="-13496">
		<tag k="name" v="Langbaken" />
		<tag k="natural" v="shoal" />
		<tag k="place" v="locality" />
		<tag k="ssr:stedsnr" v="352886" />
	</node>
	<node lat="63.04040277451586" lon="6.772536103021173" id="-13497">
		<tag k="name" v="Myre" />
		<tag k="natural" v="shoal" />
		<tag k="place" v="locality" />
		<tag k="ssr:stedsnr" v="353380" />
	</node>
	<node lat="62.96955555181889" lon="7.025441671947289" id="-13498">
		<tag k="name" v="Dragskjærtaren" />
		<tag k="natural" v="shoal" />
		<tag k="place" v="locality" />
		<tag k="ssr:stedsnr" v="353609" />
	</node>
	<node lat="62.97429444667891" lon="6.9953249958422665" id="-13499">
		<tag k="name" v="Moholmbukta" />
		<tag k="natural" v="bay" />
		<tag k="ssr:stedsnr" v="353611" />
	</node>
	<node lat="62.96266944585271" lon="6.994208340448654" id="-13500">
		<tag k="name" v="Nordfalltaren" />
		<tag k="natural" v="shoal" />
		<tag k="place" v="locality" />
		<tag k="ssr:stedsnr" v="353593" />
	</node>
	<node lat="63.049897220384906" lon="7.319186117273737" id="-13501">
		<tag k="name" v="Marstrandstaran" />
		<tag k="natural" v="shoal" />
		<tag k="place" v="locality" />
		<tag k="ssr:stedsnr" v="353678" />
	</node>
	<node lat="62.9725722259946" lon="7.072925008826822" id="-13502">
		<tag k="name" v="Hakketaren" />
		<tag k="natural" v="shoal" />
		<tag k="place" v="locality" />
		<tag k="ssr:stedsnr" v="353692" />
	</node>
	<node lat="62.98125278115772" lon="6.991591674920569" id="-13504">
		<tag k="name" v="Kobberaua" />
		<tag k="natural" v="shoal" />
		<tag k="place" v="locality" />
		<tag k="ssr:stedsnr" v="353738" />
	</node>
	<node lat="62.818019440764566" lon="7.16567222127387" id="-13505">
		<tag k="name" v="Sommarnesgrunna" />
		<tag k="natural" v="shoal" />
		<tag k="place" v="locality" />
		<tag k="ssr:stedsnr" v="354019" />
	</node>
	<node lat="63.04769722093297" lon="7.682180560289716" id="-13514">
		<tag k="bay" v="fjord" />
		<tag k="name" v="Kvernesfjorden" />
		<tag k="natural" v="bay" />
		<tag k="ssr:stedsnr" v="375946" />
	</node>
	<node lat="62.837466667882566" lon="7.038588887278259" id="-13520">
		<tag k="name" v="Tornesneset" />
		<tag k="natural" v="cape" />
		<tag k="ssr:stedsnr" v="375161" />
	</node>
	<node lat="62.88865555617278" lon="7.440019450339736" id="-13526">
		<tag k="name" v="Langneset" />
		<tag k="natural" v="cape" />
		<tag k="ssr:stedsnr" v="375567" />
	</node>
	<node lat="62.81683333016003" lon="7.154027770662969" id="-13533">
		<tag k="alt_name" v="Sommarneset;Sommarnestangen" />
		<tag k="name" v="Sommarnes" />
		<tag k="natural" v="cape" />
		<tag k="ssr:stedsnr" v="375761" />
	</node>
	<node lat="62.97529166624922" lon="7.0762388891989545" id="-13537">
		<tag k="name" v="Hustadbukta" />
		<tag k="natural" v="bay" />
		<tag k="ssr:stedsnr" v="376044" />
	</node>
	<node lat="63.01273366397591" lon="7.271982570083225" id="-13544">
		<tag k="fixme" v="consider seamark:type=rock or natural=shoal" />
		<tag k="name" v="Svartskjeret" />
		<tag k="place" v="islet" />
		<tag k="ssr:stedsnr" v="376624" />
	</node>
	<node lat="63.02576666766668" lon="6.9538972212837455" id="-13545">
		<tag k="name" v="Vestklakken" />
		<tag k="natural" v="shoal" />
		<tag k="place" v="locality" />
		<tag k="ssr:stedsnr" v="376632" />
	</node>
	<node lat="63.027675003723594" lon="7.34115834034296" id="-13547">
		<tag k="fixme" v="consider seamark:type=rock or natural=shoal" />
		<tag k="name" v="Trollbåten" />
		<tag k="place" v="islet" />
		<tag k="ssr:stedsnr" v="376601" />
	</node>
	<node lat="63.009222221300135" lon="7.306130556801172" id="-13563">
		<tag k="name" v="Vevangstraumen" />
		<tag k="natural" v="strait" />
		<tag k="ssr:stedsnr" v="399341" />
	</node>
	<node lat="62.934155560045156" lon="6.954230556484043" id="-13571">
		<tag k="name" v="Vardneset" />
		<tag k="natural" v="cape" />
		<tag k="ssr:stedsnr" v="398461" />
	</node>
	<node lat="62.937724997326185" lon="6.9622055503452955" id="-13572">
		<tag k="name" v="Søre Purkøya" />
		<tag k="place" v="islet" />
		<tag k="ssr:stedsnr" v="398462" />
	</node>
	<node lat="62.93235555335585" lon="6.97644723092141" id="-13573">
		<tag k="name" v="Naustholmen" />
		<tag k="place" v="islet" />
		<tag k="ssr:stedsnr" v="398465" />
	</node>
	<node lat="62.830483332413586" lon="7.177766663461339" id="-13575">
		<tag k="name" v="Sylteosen" />
		<tag k="natural" v="bay" />
		<tag k="ssr:stedsnr" v="398537" />
	</node>
	<node lat="62.824830552384995" lon="7.12047222010116" id="-13576">
		<tag k="name" v="Korsholsundet" />
		<tag k="natural" v="strait" />
		<tag k="ssr:stedsnr" v="398545" />
	</node>
	<node lat="62.87372221927256" lon="6.970961116466794" id="-13580">
		<tag k="name" v="Tjeldnesodden" />
		<tag k="natural" v="cape" />
		<tag k="ssr:stedsnr" v="398492" />
	</node>
	<node lat="62.90085278029554" lon="7.469772229877676" id="-13610">
		<tag k="name" v="Sorsetleira" />
		<tag k="natural" v="bay" />
		<tag k="ssr:stedsnr" v="399374" />
	</node>
	<node lat="62.94907777337946" lon="7.019119444908209" id="-13620">
		<tag k="name" v="Sjåholmvågen" />
		<tag k="natural" v="bay" />
		<tag k="ssr:stedsnr" v="399542" />
	</node>
	<node lat="62.91065277999357" lon="6.901947227755044" id="-13627">
		<tag k="name" v="Fruvågen" />
		<tag k="natural" v="bay" />
		<tag k="ssr:stedsnr" v="399944" />
	</node>
	<node lat="62.885922225972585" lon="6.80848055724527" id="-13648">
		<tag k="name" v="Kuholmen" />
		<tag k="place" v="islet" />
		<tag k="ssr:stedsnr" v="399900" />
	</node>
	<node lat="62.87817221870496" lon="6.964891675797047" id="-13649">
		<tag k="fixme" v="consider seamark:type=rock or natural=shoal" />
		<tag k="name" v="Langfleå" />
		<tag k="place" v="islet" />
		<tag k="ssr:stedsnr" v="399921" />
	</node>
	<node lat="62.99664444257115" lon="7.162072222293346" id="-13660">
		<tag k="fixme" v="consider seamark:type=rock or natural=shoal" />
		<tag k="name" v="Langskjæret" />
		<tag k="place" v="islet" />
		<tag k="ssr:stedsnr" v="413618" />
	</node>
	<node lat="63.079669448899466" lon="7.256855552972686" id="-13661">
		<tag k="name" v="Flatskjærtaren" />
		<tag k="natural" v="shoal" />
		<tag k="place" v="locality" />
		<tag k="ssr:stedsnr" v="413830" />
	</node>
	<node lat="63.03792499858209" lon="7.160541657464617" id="-13662">
		<tag k="name" v="Gjælna" />
		<tag k="natural" v="shoal" />
		<tag k="place" v="locality" />
		<tag k="ssr:stedsnr" v="413928" />
	</node>
	<node lat="62.975958330902856" lon="7.074280546682245" id="-13664">
		<tag k="name" v="Ambjørn" />
		<tag k="natural" v="shoal" />
		<tag k="place" v="locality" />
		<tag k="ssr:stedsnr" v="414679" />
	</node>
	<node lat="62.955455558458986" lon="6.988847214576048" id="-13666">
		<tag k="name" v="Svartskjærbåen" />
		<tag k="natural" v="shoal" />
		<tag k="place" v="locality" />
		<tag k="ssr:stedsnr" v="414584" />
	</node>
	<node lat="62.87680555227047" lon="6.880141658758646" id="-13675">
		<tag k="fixme" v="consider seamark:type=rock or natural=shoal" />
		<tag k="name" v="Kleppen" />
		<tag k="place" v="islet" />
		<tag k="ssr:stedsnr" v="436132" />
	</node>
	<node lat="62.94504444896302" lon="6.981002786095265" id="-13702">
		<tag k="fixme" v="consider seamark:type=rock or natural=shoal" />
		<tag k="name" v="Krøtterøya" />
		<tag k="place" v="islet" />
		<tag k="ssr:stedsnr" v="437146" />
	</node>
	<node lat="63.00681389254609" lon="7.160483332006903" id="-13712">
		<tag k="name" v="Langtaren" />
		<tag k="natural" v="shoal" />
		<tag k="place" v="locality" />
		<tag k="ssr:stedsnr" v="437675" />
	</node>
	<node lat="62.89238333076984" lon="6.783677771749007" id="-13727">
		<tag k="fixme" v="consider seamark:type=rock or natural=shoal" />
		<tag k="name" v="Bollen" />
		<tag k="place" v="islet" />
		<tag k="ssr:stedsnr" v="496196" />
	</node>
	<node lat="62.97204999654656" lon="6.908761111680428" id="-13742">
		<tag k="name" v="Skorflua" />
		<tag k="natural" v="shoal" />
		<tag k="place" v="locality" />
		<tag k="ssr:stedsnr" v="497034" />
	</node>
	<node lat="63.00861666757616" lon="7.194602771341953" id="-13746">
		<tag k="fixme" v="consider seamark:type=rock or natural=shoal" />
		<tag k="name" v="Kråka" />
		<tag k="place" v="islet" />
		<tag k="ssr:stedsnr" v="497663" />
	</node>
	<node lat="62.940127780834466" lon="6.896947223320115" id="-13753">
		<tag k="alt_name" v="Hegerskjærleia" />
		<tag k="name" v="Klaveleia" />
		<tag k="natural" v="strait" />
		<tag k="ssr:stedsnr" v="498126" />
	</node>
	<node lat="63.07503611389342" lon="7.292908342917017" id="-13754">
		<tag k="bay" v="fjord" />
		<tag k="name" v="Midtfjordsleia" />
		<tag k="natural" v="bay" />
		<tag k="ssr:stedsnr" v="498583" />
	</node>
	<node lat="63.0115715592896" lon="7.281984357408349" id="-13756">
		<tag k="alt_name" v="Steinøya" />
		<tag k="name" v="Smørholmen" />
		<tag k="place" v="islet" />
		<tag k="ssr:stedsnr" v="498654" />
	</node>
	<node lat="63.10698055871094" lon="7.249191668790835" id="-13757">
		<tag k="fixme" v="consider seamark:type=rock or natural=shoal" />
		<tag k="name" v="Fonnskaftet" />
		<tag k="place" v="islet" />
		<tag k="ssr:stedsnr" v="498727" />
	</node>
	<node lat="62.888555554782414" lon="6.814391668184457" id="-13791">
		<tag k="name" v="Hessholmen" />
		<tag k="place" v="islet" />
		<tag k="ssr:stedsnr" v="520342" />
	</node>
	<node lat="62.83775000179473" lon="7.031630554316376" id="-13801">
		<tag k="alt_name" v="Tornesholmen" />
		<tag k="name" v="Storholmen" />
		<tag k="place" v="islet" />
		<tag k="ssr:stedsnr" v="520458" />
	</node>
	<node lat="62.94871111202124" lon="6.988322222719983" id="-13802">
		<tag k="name" v="Lyngholmen" />
		<tag k="place" v="islet" />
		<tag k="ssr:stedsnr" v="520465" />
	</node>
	<node lat="62.965586114878874" lon="7.0323333368083905" id="-13803">
		<tag k="name" v="Trongkeilå" />
		<tag k="natural" v="bay" />
		<tag k="ssr:stedsnr" v="520475" />
	</node>
	<node lat="62.82568055390907" lon="7.017677786144344" id="-13806">
		<tag k="name" v="Øyastøin" />
		<tag k="natural" v="bay" />
		<tag k="ssr:stedsnr" v="520937" />
	</node>
	<node lat="62.93666666777368" lon="6.966733339162896" id="-13807">
		<tag k="name" v="Vølan" />
		<tag k="natural" v="strait" />
		<tag k="ssr:stedsnr" v="520947" />
	</node>
	<node lat="62.991247221575435" lon="7.152149994434191" id="-13824">
		<tag k="name" v="Breivikbukta" />
		<tag k="natural" v="bay" />
		<tag k="ssr:stedsnr" v="520727" />
	</node>
	<node lat="62.99780555606736" lon="7.04973610759177" id="-13845">
		<tag k="name" v="Finnen" />
		<tag k="natural" v="shoal" />
		<tag k="place" v="locality" />
		<tag k="ssr:stedsnr" v="534132" />
	</node>
	<node lat="62.987008335470065" lon="6.9897166705599005" id="-13846">
		<tag k="name" v="Moholmklakken" />
		<tag k="natural" v="shoal" />
		<tag k="place" v="locality" />
		<tag k="ssr:stedsnr" v="534135" />
	</node>
	<node lat="63.00040278229901" lon="7.1741194531356225" id="-13847">
		<tag k="name" v="Indre Langtaren" />
		<tag k="natural" v="shoal" />
		<tag k="place" v="locality" />
		<tag k="ssr:stedsnr" v="534884" />
	</node>
	<node lat="62.95071389223816" lon="6.851569448754409" id="-13849">
		<tag k="name" v="Søreggskallen" />
		<tag k="natural" v="shoal" />
		<tag k="place" v="locality" />
		<tag k="ssr:stedsnr" v="534543" />
	</node>
	<node lat="62.96612500034239" lon="7.375616656999339" id="-13851">
		<tag k="name" v="Fransosneset" />
		<tag k="natural" v="cape" />
		<tag k="ssr:stedsnr" v="535698" />
	</node>
	<node lat="62.96217691052621" lon="6.986739811155018" id="-13852">
		<tag k="fixme" v="consider seamark:type=rock or natural=shoal" />
		<tag k="name" v="Kobbeflæan" />
		<tag k="place" v="islet" />
		<tag k="ssr:stedsnr" v="535579" />
	</node>
	<node lat="62.84045165084918" lon="7.153824204121133" id="-13854">
		<tag k="name" v="Nordre Straumen" />
		<tag k="natural" v="strait" />
		<tag k="ssr:stedsnr" v="536047" />
	</node>
	<node lat="62.831547219664024" lon="7.046622223294906" id="-13855">
		<tag k="name" v="Håskjærfluin" />
		<tag k="natural" v="shoal" />
		<tag k="place" v="locality" />
		<tag k="ssr:stedsnr" v="536100" />
	</node>
	<node lat="62.955397224172586" lon="7.424988897455495" id="-13878">
		<tag k="name" v="Galten" />
		<tag k="natural" v="shoal" />
		<tag k="place" v="locality" />
		<tag k="ssr:stedsnr" v="557977" />
	</node>
	<node lat="62.96322778165591" lon="6.893966669979621" id="-13880">
		<tag k="alt_name" v="Småflua" />
		<tag k="name" v="Småfluan" />
		<tag k="natural" v="shoal" />
		<tag k="place" v="locality" />
		<tag k="ssr:stedsnr" v="558022" />
	</node>
	<node lat="62.96994999708389" lon="7.054572216479826" id="-13882">
		<tag k="alt_name" v="Maletangen" />
		<tag k="name" v="Tangen" />
		<tag k="natural" v="cape" />
		<tag k="ssr:stedsnr" v="558032" />
	</node>
	<node lat="63.00844444754024" lon="7.3061222196380955" id="-13888">
		<tag k="name" v="Klipa" />
		<tag k="natural" v="cape" />
		<tag k="ssr:stedsnr" v="558433" />
	</node>
	<node lat="62.85112222599179" lon="6.9974499994216774" id="-13902">
		<tag k="name" v="Leverfallet" />
		<tag k="natural" v="bay" />
		<tag k="ssr:stedsnr" v="580389" />
	</node>
	<node lat="62.84785833529622" lon="7.003322225023829" id="-13903">
		<tag k="fixme" v="consider seamark:type=rock or natural=shoal" />
		<tag k="name" v="Stabbeskjeret" />
		<tag k="place" v="islet" />
		<tag k="ssr:stedsnr" v="580398" />
	</node>
	<node lat="62.95856111054746" lon="7.017144445905585" id="-13904">
		<tag k="name" v="Søre Hanholmen" />
		<tag k="place" v="islet" />
		<tag k="ssr:stedsnr" v="580424" />
	</node>
	<node lat="62.95550833054038" lon="7.018791665744007" id="-13905">
		<tag k="name" v="Haugbokkholet" />
		<tag k="natural" v="bay" />
		<tag k="ssr:stedsnr" v="580427" />
	</node>
	<node lat="62.958227778979676" lon="7.022883336724084" id="-13906">
		<tag k="name" v="Nørde Hanholmen" />
		<tag k="place" v="islet" />
		<tag k="ssr:stedsnr" v="580428" />
	</node>
	<node lat="62.96550555607896" lon="7.026022216239727" id="-13907">
		<tag k="fixme" v="consider seamark:type=rock or natural=shoal" />
		<tag k="name" v="Skomakaren" />
		<tag k="place" v="islet" />
		<tag k="ssr:stedsnr" v="580434" />
	</node>
	<node lat="62.96512777816273" lon="7.375891659062153" id="-13912">
		<tag k="name" v="Naustvikbukta" />
		<tag k="natural" v="bay" />
		<tag k="ssr:stedsnr" v="580280" />
	</node>
	<node lat="62.89031388775815" lon="6.84130555647323" id="-13913">
		<tag k="name" v="Søre Bjørnøybarane" />
		<tag k="place" v="islet" />
		<tag k="ssr:stedsnr" v="580286" />
	</node>
	<node lat="62.87915555158014" lon="6.952469449977478" id="-13915">
		<tag k="name" v="Vorpeneset" />
		<tag k="natural" v="cape" />
		<tag k="ssr:stedsnr" v="580349" />
	</node>
	<node lat="62.887697223990955" lon="6.945300005587715" id="-13916">
		<tag k="name" v="Rangsundet" />
		<tag k="natural" v="strait" />
		<tag k="ssr:stedsnr" v="580351" />
	</node>
	<node lat="62.8832391141623" lon="6.964525357901983" id="-13917">
		<tag k="name" v="Jensholmen" />
		<tag k="place" v="islet" />
		<tag k="ssr:stedsnr" v="580354" />
	</node>
	<node lat="62.92674166553591" lon="6.931213897016909" id="-13935">
		<tag k="fixme" v="consider seamark:type=rock or natural=shoal" />
		<tag k="name" v="Nørde Dragan" />
		<tag k="place" v="islet" />
		<tag k="ssr:stedsnr" v="580775" />
	</node>
	<node lat="62.92535833199226" lon="6.926397231743523" id="-13936">
		<tag k="fixme" v="consider seamark:type=rock or natural=shoal" />
		<tag k="name" v="Søre Dragan" />
		<tag k="place" v="islet" />
		<tag k="ssr:stedsnr" v="580776" />
	</node>
	<node lat="62.909652776195166" lon="6.896344453289167" id="-13937">
		<tag k="fixme" v="consider seamark:type=rock or natural=shoal" />
		<tag k="name" v="Kokkeskjæret" />
		<tag k="place" v="islet" />
		<tag k="ssr:stedsnr" v="580779" />
	</node>
	<node lat="62.906413889321556" lon="6.911544436087099" id="-13941">
		<tag k="name" v="Vågen" />
		<tag k="natural" v="bay" />
		<tag k="ssr:stedsnr" v="580908" />
	</node>
	<node lat="62.86727499560559" lon="6.99238333367983" id="-13943">
		<tag k="name" v="Storvika" />
		<tag k="natural" v="bay" />
		<tag k="ssr:stedsnr" v="580924" />
	</node>
	<node lat="62.96968333752672" lon="7.086213892713199" id="-13948">
		<tag k="fixme" v="consider seamark:type=rock or natural=shoal" />
		<tag k="name" v="Troa" />
		<tag k="place" v="islet" />
		<tag k="ssr:stedsnr" v="580958" />
	</node>
	<node lat="63.01153889182429" lon="7.292144448485767" id="-13958">
		<tag k="name" v="Kuneset" />
		<tag k="natural" v="cape" />
		<tag k="ssr:stedsnr" v="581477" />
	</node>
	<node lat="62.98188888585811" lon="7.0924222156277015" id="-13969">
		<tag k="fixme" v="consider seamark:type=rock or natural=shoal" />
		<tag k="name" v="Kobbetønna" />
		<tag k="place" v="islet" />
		<tag k="ssr:stedsnr" v="581719" />
	</node>
	<node lat="62.97798888781791" lon="6.959786101460308" id="-13980">
		<tag k="name" v="Bogaflua" />
		<tag k="natural" v="shoal" />
		<tag k="place" v="locality" />
		<tag k="ssr:stedsnr" v="595727" />
	</node>
	<node lat="63.005791670702315" lon="7.128433327489032" id="-13981">
		<tag k="bay" v="fjord" />
		<tag k="name" v="Svartoksleia" />
		<tag k="natural" v="bay" />
		<tag k="ssr:stedsnr" v="595584" />
	</node>
	<node lat="62.97656666631151" lon="7.0279083310372465" id="-13983">
		<tag k="name" v="Slantran" />
		<tag k="natural" v="shoal" />
		<tag k="place" v="locality" />
		<tag k="ssr:stedsnr" v="596669" />
	</node>
	<node lat="62.89501110744748" lon="6.864974995268637" id="-13984">
		<tag k="name" v="Skjærlingeflua" />
		<tag k="natural" v="shoal" />
		<tag k="place" v="locality" />
		<tag k="ssr:stedsnr" v="596826" />
	</node>
	<node lat="62.9928222195536" lon="7.14300277542347" id="-13990">
		<tag k="name" v="Nordneset" />
		<tag k="natural" v="cape" />
		<tag k="ssr:stedsnr" v="618040" />
	</node>
	<node lat="62.96707778023035" lon="7.022291660419726" id="-13997">
		<tag k="fixme" v="consider seamark:type=rock or natural=shoal" />
		<tag k="name" v="Dragan" />
		<tag k="place" v="islet" />
		<tag k="ssr:stedsnr" v="618023" />
	</node>
	<node lat="62.83745833751205" lon="7.121547221901285" id="-14010">
		<tag k="name" v="Langøya" />
		<tag k="place" v="islet" />
		<tag k="ssr:stedsnr" v="618171" />
	</node>
	<node lat="62.99848055653836" lon="7.313097225456674" id="-14031">
		<tag k="alt_name" v="Frantsneset" />
		<tag k="name" v="Tangen" />
		<tag k="natural" v="cape" />
		<tag k="ssr:stedsnr" v="619871" />
	</node>
	<node lat="62.85873610853184" lon="7.000200000098316" id="-14040">
		<tag k="name" v="Naustneset" />
		<tag k="natural" v="cape" />
		<tag k="ssr:stedsnr" v="641387" />
	</node>
	<node lat="62.958933332183015" lon="7.382886102531292" id="-14042">
		<tag k="name" v="Finnbukta" />
		<tag k="natural" v="bay" />
		<tag k="ssr:stedsnr" v="640369" />
	</node>
	<node lat="62.90867222208169" lon="7.5180833344737845" id="-14048">
		<tag k="alt_name" v="Kjølbogen" />
		<tag k="name" v="Kjølbukta" />
		<tag k="natural" v="bay" />
		<tag k="ssr:stedsnr" v="641335" />
	</node>
	<node lat="62.919936115634314" lon="7.552941669010901" id="-14049">
		<tag k="name" v="Laksneset" />
		<tag k="natural" v="cape" />
		<tag k="ssr:stedsnr" v="641336" />
	</node>
	<node lat="62.88180277552494" lon="6.946472213423823" id="-14057">
		<tag k="name" v="Elgenstøa" />
		<tag k="natural" v="bay" />
		<tag k="ssr:stedsnr" v="641348" />
	</node>
	<node lat="62.88544722136154" lon="6.9441111115590175" id="-14058">
		<tag k="name" v="Flatholmen" />
		<tag k="place" v="islet" />
		<tag k="ssr:stedsnr" v="641350" />
	</node>
	<node lat="62.882652773881496" lon="6.942883340493678" id="-14059">
		<tag k="name" v="Ospholmsundet" />
		<tag k="natural" v="strait" />
		<tag k="ssr:stedsnr" v="641351" />
	</node>
	<node lat="62.94891111528649" lon="7.004136101279384" id="-14064">
		<tag k="fixme" v="consider seamark:type=rock or natural=shoal" />
		<tag k="name" v="Nerhaughøna" />
		<tag k="place" v="islet" />
		<tag k="ssr:stedsnr" v="641449" />
	</node>
	<node lat="62.950480556531225" lon="7.004861114347778" id="-14066">
		<tag k="name" v="Midtholmen" />
		<tag k="place" v="islet" />
		<tag k="ssr:stedsnr" v="641461" />
	</node>
	<node lat="62.93299444377581" lon="6.977930563228811" id="-14067">
		<tag k="fixme" v="consider seamark:type=rock or natural=shoal" />
		<tag k="name" v="Steinskjæret" />
		<tag k="place" v="islet" />
		<tag k="ssr:stedsnr" v="641466" />
	</node>
	<node lat="62.840155551741454" lon="6.988822231422492" id="-14073">
		<tag k="name" v="Hæringsundet" />
		<tag k="natural" v="strait" />
		<tag k="ssr:stedsnr" v="641400" />
	</node>
	<node lat="62.83207222334993" lon="7.0104222140097665" id="-14075">
		<tag k="bay" v="fjord" />
		<tag k="name" v="Landbradden" />
		<tag k="natural" v="bay" />
		<tag k="ssr:stedsnr" v="641405" />
	</node>
	<node lat="62.83730277678391" lon="7.030275008769842" id="-14079">
		<tag k="name" v="Litleholmen" />
		<tag k="place" v="islet" />
		<tag k="ssr:stedsnr" v="641412" />
	</node>
	<node lat="62.84291944063003" lon="7.140425002208551" id="-14080">
		<tag k="alt_name" v="Tenneset" />
		<tag k="name" v="Teinneset" />
		<tag k="natural" v="cape" />
		<tag k="ssr:stedsnr" v="641518" />
	</node>
	<node lat="62.92167499752039" lon="6.907072222303574" id="-14109">
		<tag k="name" v="Kråka" />
		<tag k="place" v="islet" />
		<tag k="ssr:stedsnr" v="641939" />
	</node>
	<node lat="63.10156666292069" lon="7.21735554597637" id="-14119">
		<tag k="name" v="Hyttfluan" />
		<tag k="natural" v="shoal" />
		<tag k="place" v="locality" />
		<tag k="ssr:stedsnr" v="655176" />
	</node>
	<node lat="62.83920555654956" lon="7.070036118282204" id="-14121">
		<tag k="name" v="Oterberget" />
		<tag k="natural" v="cape" />
		<tag k="ssr:stedsnr" v="657093" />
	</node>
	<node lat="62.96864444420763" lon="7.084527771544692" id="-14122">
		<tag k="name" v="Troa" />
		<tag k="natural" v="shoal" />
		<tag k="place" v="locality" />
		<tag k="ssr:stedsnr" v="657668" />
	</node>
	<node lat="62.989388884983" lon="7.1400250089067985" id="-14132">
		<tag k="name" v="Breivikfluan" />
		<tag k="natural" v="shoal" />
		<tag k="place" v="locality" />
		<tag k="ssr:stedsnr" v="716619" />
	</node>
	<node lat="62.86659444817724" lon="6.9888944425190545" id="-14133">
		<tag k="name" v="Storviktaren" />
		<tag k="natural" v="shoal" />
		<tag k="place" v="locality" />
		<tag k="ssr:stedsnr" v="716133" />
	</node>
	<node lat="62.98709999808294" lon="7.02352499784036" id="-14134">
		<tag k="name" v="Bakskjorta" />
		<tag k="natural" v="shoal" />
		<tag k="place" v="locality" />
		<tag k="ssr:stedsnr" v="716149" />
	</node>
	<node lat="62.99454444875879" lon="7.096158338379301" id="-14135">
		<tag k="name" v="Pertaren" />
		<tag k="natural" v="shoal" />
		<tag k="place" v="locality" />
		<tag k="ssr:stedsnr" v="716158" />
	</node>
	<node lat="63.000397218640224" lon="7.084955551974879" id="-14136">
		<tag k="name" v="Olpersataren" />
		<tag k="natural" v="shoal" />
		<tag k="place" v="locality" />
		<tag k="ssr:stedsnr" v="716161" />
	</node>
	<node lat="63.0492277817717" lon="6.992016675381711" id="-14137">
		<tag k="name" v="Farstadmidtklakken" />
		<tag k="natural" v="shoal" />
		<tag k="place" v="locality" />
		<tag k="ssr:stedsnr" v="716183" />
	</node>
	<node lat="63.12273611114415" lon="7.215861109126687" id="-14138">
		<tag k="name" v="Lønningtaran" />
		<tag k="natural" v="shoal" />
		<tag k="place" v="locality" />
		<tag k="ssr:stedsnr" v="716184" />
	</node>
	<node lat="63.072063885893364" lon="7.184716674277326" id="-14139">
		<tag k="name" v="Nordre Ufsegrunnen" />
		<tag k="natural" v="shoal" />
		<tag k="place" v="locality" />
		<tag k="ssr:stedsnr" v="716190" />
	</node>
	<node lat="63.088786109860315" lon="7.268391671878117" id="-14140">
		<tag k="name" v="Pepptaren" />
		<tag k="natural" v="shoal" />
		<tag k="place" v="locality" />
		<tag k="ssr:stedsnr" v="716811" />
	</node>
	<node lat="62.979072223438564" lon="7.033027784039376" id="-14141">
		<tag k="name" v="Ænesfallet" />
		<tag k="natural" v="shoal" />
		<tag k="place" v="locality" />
		<tag k="ssr:stedsnr" v="717699" />
	</node>
	<node lat="62.96908888718706" lon="6.986663884735159" id="-14148">
		<tag k="fixme" v="consider seamark:type=rock or natural=shoal" />
		<tag k="name" v="Hundesteinen" />
		<tag k="place" v="islet" />
		<tag k="ssr:stedsnr" v="739037" />
	</node>
	<node lat="62.90613888964794" lon="7.43216111524798" id="-14160">
		<tag k="name" v="Skjelvikbukta" />
		<tag k="natural" v="bay" />
		<tag k="ssr:stedsnr" v="739587" />
	</node>
	<node lat="62.98416388695454" lon="7.133211115603075" id="-14161">
		<tag k="name" v="Hostadneset" />
		<tag k="natural" v="cape" />
		<tag k="ssr:stedsnr" v="740034" />
	</node>
	<node lat="62.9933444443683" lon="6.929116670829078" id="-14164">
		<tag k="bay" v="fjord" />
		<tag k="name" v="Klakkedjupet" />
		<tag k="natural" v="bay" />
		<tag k="ssr:stedsnr" v="740685" />
	</node>
	<node lat="62.91908055585229" lon="6.936625008009529" id="-14167">
		<tag k="name" v="Fagervika" />
		<tag k="natural" v="bay" />
		<tag k="ssr:stedsnr" v="740084" />
	</node>
	<node lat="62.983061111932386" lon="7.1191888983607265" id="-14168">
		<tag k="name" v="Storholmvågen" />
		<tag k="natural" v="bay" />
		<tag k="ssr:stedsnr" v="740037" />
	</node>
	<node lat="62.98323611215305" lon="7.013205555535725" id="-14169">
		<tag k="fixme" v="consider seamark:type=rock or natural=shoal" />
		<tag k="name" v="Kråka" />
		<tag k="place" v="islet" />
		<tag k="ssr:stedsnr" v="740038" />
	</node>
	<node lat="63.00414444373298" lon="7.351541675949273" id="-14174">
		<tag k="bay" v="fjord" />
		<tag k="name" v="Lauvøyfjorden" />
		<tag k="natural" v="bay" />
		<tag k="ssr:stedsnr" v="740383" />
	</node>
	<node lat="63.049269441176264" lon="7.143188880156265" id="-14178">
		<tag k="name" v="Fuglkrakken" />
		<tag k="natural" v="shoal" />
		<tag k="place" v="locality" />
		<tag k="ssr:stedsnr" v="740610" />
	</node>
	<node lat="62.95978611014276" lon="7.399588886946199" id="-14195">
		<tag k="name" v="Gardsholmen" />
		<tag k="place" v="islet" />
		<tag k="ssr:stedsnr" v="762339" />
	</node>
	<node lat="62.88184166319524" lon="6.96783056280772" id="-14200">
		<tag k="name" v="Vestadvikan" />
		<tag k="natural" v="strait" />
		<tag k="ssr:stedsnr" v="763431" />
	</node>
	<node lat="62.88362222146676" lon="6.7971027737279535" id="-14203">
		<tag k="name" v="Grønskjerhamna" />
		<tag k="natural" v="bay" />
		<tag k="ssr:stedsnr" v="763094" />
	</node>
	<node lat="63.01054166416331" lon="7.316605564226844" id="-14208">
		<tag k="name" v="Hallsteinsundet" />
		<tag k="natural" v="strait" />
		<tag k="ssr:stedsnr" v="763322" />
	</node>
	<node lat="62.82270278161394" lon="7.0078333422524075" id="-14226">
		<tag k="fixme" v="consider seamark:type=rock or natural=shoal" />
		<tag k="name" v="Notaskjæret" />
		<tag k="place" v="islet" />
		<tag k="ssr:stedsnr" v="763489" />
	</node>
	<node lat="62.87646666658247" lon="6.965038892246364" id="-14228">
		<tag k="name" v="Nesaholmen" />
		<tag k="place" v="islet" />
		<tag k="ssr:stedsnr" v="763561" />
	</node>
	<node lat="62.87344444615169" lon="6.990894442028419" id="-14229">
		<tag k="fixme" v="consider seamark:type=rock or natural=shoal" />
		<tag k="name" v="Vedabergblua" />
		<tag k="place" v="islet" />
		<tag k="ssr:stedsnr" v="763563" />
	</node>
	<node lat="62.84858610928684" lon="7.170480560993396" id="-14231">
		<tag k="name" v="Knorrholmen" />
		<tag k="natural" v="cape" />
		<tag k="ssr:stedsnr" v="763574" />
	</node>
	<node lat="62.970436107345115" lon="7.06557499708489" id="-14244">
		<tag k="fixme" v="consider seamark:type=rock or natural=shoal" />
		<tag k="name" v="Råkaskjæret" />
		<tag k="place" v="islet" />
		<tag k="ssr:stedsnr" v="763732" />
	</node>
	<node lat="62.82086111396834" lon="7.022788880003239" id="-14247">
		<tag k="name" v="Valen" />
		<tag k="natural" v="bay" />
		<tag k="ssr:stedsnr" v="763831" />
	</node>
	<node lat="62.81700277574768" lon="7.080658337360967" id="-14255">
		<tag k="name" v="Rotneset" />
		<tag k="natural" v="cape" />
		<tag k="ssr:stedsnr" v="763884" />
	</node>
	<node lat="63.072175000526336" lon="7.25700833245733" id="-14267">
		<tag k="name" v="Merraflua" />
		<tag k="natural" v="shoal" />
		<tag k="place" v="locality" />
		<tag k="ssr:stedsnr" v="777143" />
	</node>
	<node lat="63.096808333876545" lon="7.267319439079954" id="-14268">
		<tag k="name" v="Skarvskjærsteinan" />
		<tag k="natural" v="shoal" />
		<tag k="place" v="locality" />
		<tag k="ssr:stedsnr" v="777800" />
	</node>
	<node lat="62.835394446074694" lon="7.171461117900866" id="-14269">
		<tag k="name" v="Elnesflua" />
		<tag k="natural" v="shoal" />
		<tag k="place" v="locality" />
		<tag k="ssr:stedsnr" v="778041" />
	</node>
	<node lat="62.87257778200553" lon="6.992869443382573" id="-14270">
		<tag k="name" v="Stavikbukta" />
		<tag k="natural" v="bay" />
		<tag k="ssr:stedsnr" v="778195" />
	</node>
	<node lat="62.94355833579749" lon="6.985127772663193" id="-14272">
		<tag k="fixme" v="consider seamark:type=rock or natural=shoal" />
		<tag k="name" v="Vidfarskjæret" />
		<tag k="place" v="islet" />
		<tag k="ssr:stedsnr" v="778573" />
	</node>
	<node lat="62.9637277801753" lon="7.379497220537872" id="-14273">
		<tag k="fixme" v="consider seamark:type=rock or natural=shoal" />
		<tag k="name" v="Kråkskjæret" />
		<tag k="place" v="islet" />
		<tag k="ssr:stedsnr" v="778684" />
	</node>
	<node lat="62.95760000092387" lon="6.928530558336859" id="-14274">
		<tag k="name" v="Sveet" />
		<tag k="natural" v="shoal" />
		<tag k="place" v="locality" />
		<tag k="ssr:stedsnr" v="778723" />
	</node>
	<node lat="63.1121972233448" lon="7.201697227634095" id="-14275">
		<tag k="name" v="Leiskjærtaran" />
		<tag k="natural" v="shoal" />
		<tag k="place" v="locality" />
		<tag k="ssr:stedsnr" v="778769" />
	</node>
	<node lat="62.83673888701171" lon="7.036516660734449" id="-14277">
		<tag k="name" v="Nesodden" />
		<tag k="natural" v="cape" />
		<tag k="ssr:stedsnr" v="787835" />
	</node>
	<node lat="62.84216944780552" lon="7.160236105059594" id="-14295">
		<tag k="name" v="Elnestangen" />
		<tag k="natural" v="cape" />
		<tag k="ssr:stedsnr" v="800211" />
	</node>
	<node lat="63.002813889697606" lon="7.1929472152071545" id="-14320">
		<tag k="alt_name" v="Moldvarden, store;Moldvarden" />
		<tag k="name" v="Store Moldvarden" />
		<tag k="place" v="islet" />
		<tag k="ssr:stedsnr" v="801645" />
	</node>
	<node lat="63.01535277567003" lon="7.197586114523303" id="-14322">
		<tag k="fixme" v="consider seamark:type=rock or natural=shoal" />
		<tag k="name" v="Gylta" />
		<tag k="place" v="islet" />
		<tag k="ssr:stedsnr" v="801659" />
	</node>
	<node lat="62.887127773716664" lon="6.842447226135745" id="-14349">
		<tag k="name" v="Vagrasholman" />
		<tag k="place" v="islet" />
		<tag k="ssr:stedsnr" v="824399" />
	</node>
	<node lat="62.88530833577709" lon="6.792330546185151" id="-14352">
		<tag k="fixme" v="consider seamark:type=rock or natural=shoal" />
		<tag k="name" v="Pessholmskjeret" />
		<tag k="place" v="islet" />
		<tag k="ssr:stedsnr" v="824099" />
	</node>
	<node lat="62.95951388864668" lon="7.028644435428895" id="-14364">
		<tag k="fixme" v="consider seamark:type=rock or natural=shoal" />
		<tag k="name" v="Ruggeskjæret" />
		<tag k="place" v="islet" />
		<tag k="ssr:stedsnr" v="824492" />
	</node>
	<node lat="62.81805277679012" lon="7.117566665519151" id="-14366">
		<tag k="name" v="Litleholmen" />
		<tag k="place" v="islet" />
		<tag k="ssr:stedsnr" v="824595" />
	</node>
	<node lat="62.868291667318076" lon="6.991430558065877" id="-14376">
		<tag k="name" v="Storvikneset" />
		<tag k="natural" v="cape" />
		<tag k="ssr:stedsnr" v="824545" />
	</node>
	<node lat="62.85032777450156" lon="7.15408611752853" id="-14381">
		<tag k="name" v="Storvika" />
		<tag k="natural" v="bay" />
		<tag k="ssr:stedsnr" v="824889" />
	</node>
	<node lat="62.93268350031591" lon="6.969458908107763" id="-14382">
		<tag k="name" v="Buvika" />
		<tag k="natural" v="bay" />
		<tag k="ssr:stedsnr" v="824934" />
	</node>
	<node lat="62.80775832954353" lon="7.217766666550792" id="-14385">
		<tag k="name" v="Øyrneset" />
		<tag k="natural" v="cape" />
		<tag k="ssr:stedsnr" v="824994" />
	</node>
	<node lat="63.00688333706077" lon="7.201922218240776" id="-14388">
		<tag k="name" v="Draget" />
		<tag k="place" v="island" />
		<tag k="ssr:stedsnr" v="824954" />
	</node>
	<node lat="63.0773111121468" lon="7.198347225472047" id="-14393">
		<tag k="name" v="Følingsflua" />
		<tag k="natural" v="shoal" />
		<tag k="place" v="locality" />
		<tag k="ssr:stedsnr" v="838200" />
	</node>
	<node lat="62.94696944093129" lon="6.871144442489218" id="-14395">
		<tag k="name" v="Terningen" />
		<tag k="natural" v="shoal" />
		<tag k="place" v="locality" />
		<tag k="ssr:stedsnr" v="838588" />
	</node>
	<node lat="63.082952773739045" lon="7.275769453803411" id="-14396">
		<tag k="name" v="Helgan" />
		<tag k="natural" v="shoal" />
		<tag k="place" v="locality" />
		<tag k="ssr:stedsnr" v="838850" />
	</node>
	<node lat="62.88354444863291" lon="6.798883326598837" id="-14397">
		<tag k="fixme" v="consider seamark:type=rock or natural=shoal" />
		<tag k="name" v="Beielen" />
		<tag k="place" v="islet" />
		<tag k="ssr:stedsnr" v="839025" />
	</node>
	<node lat="62.938952775030145" lon="6.944708336384695" id="-14399">
		<tag k="name" v="Stabbefluan" />
		<tag k="natural" v="shoal" />
		<tag k="place" v="locality" />
		<tag k="ssr:stedsnr" v="839702" />
	</node>
	<node lat="62.97268055551896" lon="6.945041657033707" id="-14411">
		<tag k="name" v="Svorva" />
		<tag k="natural" v="shoal" />
		<tag k="place" v="locality" />
		<tag k="ssr:stedsnr" v="861032" />
	</node>
	<node lat="62.98763889298214" lon="7.105686113302238" id="-14413">
		<tag k="name" v="Taksneset" />
		<tag k="natural" v="cape" />
		<tag k="ssr:stedsnr" v="861041" />
	</node>
	<node lat="62.87305555422099" lon="6.981388886754656" id="-14415">
		<tag k="name" v="Stavika" />
		<tag k="natural" v="bay" />
		<tag k="ssr:stedsnr" v="861120" />
	</node>
	<node lat="62.81150833603128" lon="7.177516660212464" id="-14435">
		<tag k="bay" v="fjord" />
		<tag k="name" v="Malmefjorden" />
		<tag k="natural" v="bay" />
		<tag k="ssr:stedsnr" v="861776" />
	</node>
	<node lat="62.95286666491517" lon="6.9406944367345735" id="-14439">
		<tag k="bay" v="fjord" />
		<tag k="name" v="Midtfjorden" />
		<tag k="natural" v="bay" />
		<tag k="ssr:stedsnr" v="862025" />
	</node>
	<node lat="62.952480551247426" lon="6.896355557865769" id="-14440">
		<tag k="name" v="Kringsleia" />
		<tag k="natural" v="strait" />
		<tag k="ssr:stedsnr" v="862026" />
	</node>
	<node lat="63.014252777793395" lon="7.342572229699158" id="-14448">
		<tag k="name" v="Hulvågen" />
		<tag k="place" v="islet" />
		<tag k="ssr:stedsnr" v="862584" />
	</node>
	<node lat="63.036091667609256" lon="7.015024992901578" id="-14450">
		<tag k="name" v="Skrevelsklakken" />
		<tag k="natural" v="shoal" />
		<tag k="place" v="locality" />
		<tag k="ssr:stedsnr" v="862612" />
	</node>
	<node lat="63.05137777895434" lon="6.976038879737683" id="-14451">
		<tag k="name" v="Utgrunnen" />
		<tag k="natural" v="shoal" />
		<tag k="place" v="locality" />
		<tag k="ssr:stedsnr" v="862620" />
	</node>
	<node lat="62.94720555258108" lon="7.425133328777794" id="-14464">
		<tag k="alt_name" v="Langnesberget" />
		<tag k="name" v="Langneset" />
		<tag k="natural" v="cape" />
		<tag k="ssr:stedsnr" v="883473" />
	</node>
	<node lat="62.80426388940123" lon="7.1730222239059085" id="-14474">
		<tag k="name" v="Øyran" />
		<tag k="natural" v="cape" />
		<tag k="ssr:stedsnr" v="884874" />
	</node>
	<node lat="62.88905555116182" lon="6.816016665517433" id="-14482">
		<tag k="name" v="Hessholmsundet" />
		<tag k="natural" v="strait" />
		<tag k="ssr:stedsnr" v="884312" />
	</node>
	<node lat="62.88597778090218" lon="6.815155559374999" id="-14484">
		<tag k="fixme" v="consider seamark:type=rock or natural=shoal" />
		<tag k="name" v="Beielskjæret" />
		<tag k="place" v="islet" />
		<tag k="ssr:stedsnr" v="884333" />
	</node>
	<node lat="63.00077778108276" lon="7.299991675109458" id="-14487">
		<tag k="fixme" v="consider seamark:type=rock or natural=shoal" />
		<tag k="name" v="Myraskjæret" />
		<tag k="place" v="islet" />
		<tag k="ssr:stedsnr" v="884271" />
	</node>
	<node lat="62.8799472258682" lon="6.954177785690777" id="-14496">
		<tag k="name" v="Vorpenesbukta" />
		<tag k="natural" v="bay" />
		<tag k="ssr:stedsnr" v="884369" />
	</node>
	<node lat="62.881516665553185" lon="6.966258328949632" id="-14497">
		<tag k="name" v="Trondsholmen" />
		<tag k="place" v="islet" />
		<tag k="ssr:stedsnr" v="884373" />
	</node>
	<node lat="62.88561944498325" lon="6.955658338827634" id="-14498">
		<tag k="name" v="Naustneset" />
		<tag k="natural" v="cape" />
		<tag k="ssr:stedsnr" v="884377" />
	</node>
	<node lat="62.85447221819317" lon="7.0088611094776265" id="-14502">
		<tag k="name" v="Strandhaugbukta" />
		<tag k="natural" v="bay" />
		<tag k="ssr:stedsnr" v="884394" />
	</node>
	<node lat="62.83696667091288" lon="7.043030561555061" id="-14507">
		<tag k="name" v="Nesabukta" />
		<tag k="natural" v="bay" />
		<tag k="ssr:stedsnr" v="884413" />
	</node>
	<node lat="62.964850000988946" lon="7.043827772154128" id="-14509">
		<tag k="name" v="Askevågen" />
		<tag k="natural" v="bay" />
		<tag k="ssr:stedsnr" v="884433" />
	</node>
	<node lat="62.951219444449656" lon="7.013747229646067" id="-14510">
		<tag k="alt_name" v="Strandflæa" />
		<tag k="name" v="Straumfleen" />
		<tag k="place" v="islet" />
		<tag k="ssr:stedsnr" v="884440" />
	</node>
	<node lat="62.82585277548274" lon="7.056352774909987" id="-14512">
		<tag k="name" v="Gjengstøa" />
		<tag k="natural" v="bay" />
		<tag k="ssr:stedsnr" v="884537" />
	</node>
	<node lat="62.841041669412455" lon="7.079155555974998" id="-14513">
		<tag k="name" v="Løsetneset" />
		<tag k="natural" v="cape" />
		<tag k="ssr:stedsnr" v="884543" />
	</node>
	<node lat="62.97316111544492" lon="7.316716671579573" id="-14561">
		<tag k="name" v="Vorpbogen" />
		<tag k="natural" v="bay" />
		<tag k="ssr:stedsnr" v="945271" />
	</node>
	<node lat="62.81435555389835" lon="6.999577782993731" id="-14562">
		<tag k="name" v="Litle Kjeholmen" />
		<tag k="place" v="islet" />
		<tag k="ssr:stedsnr" v="945277" />
	</node>
	<node lat="62.89635832934414" lon="6.949358327151597" id="-14568">
		<tag k="name" v="Larsholman" />
		<tag k="place" v="islet" />
		<tag k="ssr:stedsnr" v="945346" />
	</node>
	<node lat="62.79102500294169" lon="6.980325005373572" id="-14571">
		<tag k="name" v="Fagervika" />
		<tag k="natural" v="bay" />
		<tag k="ssr:stedsnr" v="945368" />
	</node>
	<node lat="62.88847777579316" lon="6.818963893525525" id="-14577">
		<tag k="alt_name" v="Hamraskjæret;Hammarøyskjæret" />
		<tag k="name" v="Hammerøyskjæret" />
		<tag k="place" v="islet" />
		<tag k="ssr:stedsnr" v="945328" />
	</node>
	<node lat="62.95433055514209" lon="7.01185555904502" id="-14582">
		<tag k="name" v="Kyrkjehotten" />
		<tag k="place" v="islet" />
		<tag k="ssr:stedsnr" v="945417" />
	</node>
	<node lat="62.96077585819188" lon="7.0413648029718425" id="-14583">
		<tag k="name" v="Litle Gjengstøa" />
		<tag k="natural" v="bay" />
		<tag k="ssr:stedsnr" v="945423" />
	</node>
	<node lat="62.9512111077888" lon="7.002802785305211" id="-14585">
		<tag k="name" v="Langholmen" />
		<tag k="place" v="islet" />
		<tag k="ssr:stedsnr" v="945444" />
	</node>
	<node lat="62.938402779083546" lon="6.967608338668184" id="-14586">
		<tag k="alt_name" v="Midti - Purkøya" />
		<tag k="name" v="Midti-Purkøya" />
		<tag k="place" v="islet" />
		<tag k="ssr:stedsnr" v="945447" />
	</node>
	<node lat="62.92424444395006" lon="6.946330549685362" id="-14588">
		<tag k="name" v="Skipsneset" />
		<tag k="natural" v="cape" />
		<tag k="ssr:stedsnr" v="945469" />
	</node>
	<node lat="62.82747500098058" lon="7.079299999455717" id="-14599">
		<tag k="name" v="Følvika" />
		<tag k="natural" v="bay" />
		<tag k="ssr:stedsnr" v="945880" />
	</node>
	<node lat="62.83031944170995" lon="7.098230550076934" id="-14600">
		<tag k="name" v="Storvika" />
		<tag k="place" v="islet" />
		<tag k="ssr:stedsnr" v="945882" />
	</node>
	<node lat="62.90176111213085" lon="6.925583342769931" id="-14603">
		<tag k="name" v="Kalsvika" />
		<tag k="natural" v="bay" />
		<tag k="ssr:stedsnr" v="945922" />
	</node>
	<node lat="62.82980000139735" lon="7.193641671314753" id="-14604">
		<tag k="alt_name" v="Rødsetneset" />
		<tag k="name" v="Røsetneset" />
		<tag k="natural" v="cape" />
		<tag k="ssr:stedsnr" v="945670" />
	</node>
	<node lat="62.92725277606137" lon="6.954447215213834" id="-14614">
		<tag k="name" v="Hatten" />
		<tag k="place" v="islet" />
		<tag k="ssr:stedsnr" v="945947" />
	</node>
	<node lat="62.92059722346926" lon="6.916613892200994" id="-14616">
		<tag k="fixme" v="consider seamark:type=rock or natural=shoal" />
		<tag k="name" v="Grytfleå" />
		<tag k="place" v="islet" />
		<tag k="ssr:stedsnr" v="945958" />
	</node>
	<node lat="62.92870000421603" lon="6.929758336096017" id="-14617">
		<tag k="fixme" v="consider seamark:type=rock or natural=shoal" />
		<tag k="name" v="Dragfleå" />
		<tag k="place" v="islet" />
		<tag k="ssr:stedsnr" v="945961" />
	</node>
	<node lat="62.88265833628311" lon="6.944261111084133" id="-14626">
		<tag k="name" v="Harøysundet" />
		<tag k="natural" v="strait" />
		<tag k="ssr:stedsnr" v="959120" />
	</node>
	<node lat="63.06723055540056" lon="7.196397225166531" id="-14628">
		<tag k="name" v="Søre Ufsegrunnen" />
		<tag k="natural" v="shoal" />
		<tag k="place" v="locality" />
		<tag k="ssr:stedsnr" v="959149" />
	</node>
	<node lat="63.01193611210903" lon="7.133313887809899" id="-14629">
		<tag k="name" v="Hoggegrunnen" />
		<tag k="natural" v="shoal" />
		<tag k="place" v="locality" />
		<tag k="ssr:stedsnr" v="959580" />
	</node>
	<node lat="62.80993055610576" lon="7.200472224396351" id="-14630">
		<tag k="name" v="Kolbergfluin" />
		<tag k="natural" v="shoal" />
		<tag k="place" v="locality" />
		<tag k="ssr:stedsnr" v="960014" />
	</node>
	<node lat="62.95829305350109" lon="6.983117561427981" id="-14632">
		<tag k="name" v="Skipsflutaren" />
		<tag k="natural" v="shoal" />
		<tag k="place" v="locality" />
		<tag k="ssr:stedsnr" v="960583" />
	</node>
	<node lat="62.972088885158534" lon="6.930858339114099" id="-14634">
		<tag k="name" v="Stolen" />
		<tag k="natural" v="shoal" />
		<tag k="place" v="locality" />
		<tag k="ssr:stedsnr" v="960722" />
	</node>
	<node lat="63.03370277342275" lon="7.3253388903484" id="-14635">
		<tag k="fixme" v="consider seamark:type=rock or natural=shoal" />
		<tag k="name" v="Gaustadflæa" />
		<tag k="place" v="islet" />
		<tag k="ssr:stedsnr" v="960802" />
	</node>
	<node lat="62.84619721956056" lon="7.107061115513827" id="-14636">
		<tag k="name" v="Håsetflua" />
		<tag k="natural" v="shoal" />
		<tag k="place" v="locality" />
		<tag k="ssr:stedsnr" v="961083" />
	</node>
	<node lat="63.00146388820741" lon="7.3102416706696225" id="-14637">
		<tag k="fixme" v="consider seamark:type=rock or natural=shoal" />
		<tag k="name" v="Hjellskjæret" />
		<tag k="place" v="islet" />
		<tag k="ssr:stedsnr" v="965523" />
	</node>
	<node lat="62.93227882357137" lon="6.943800900313829" id="-14647">
		<tag k="name" v="Måsholmen" />
		<tag k="place" v="islet" />
		<tag k="ssr:stedsnr" v="980253" />
	</node>
	<node lat="62.93604143569229" lon="6.967759487227006" id="-14648">
		<tag k="name" v="Vågan" />
		<tag k="natural" v="bay" />
		<tag k="ssr:stedsnr" v="980254" />
	</node>
	<node lat="62.886663598734856" lon="6.949641482656418" id="-14886">
		<tag k="name" v="Harøyane" />
		<tag k="place" v="island" />
		<tag k="ssr:stedsnr" v="1077639" />
	</node>
	<node lat="62.89263821485954" lon="6.823251563505851" id="-14887">
		<tag k="name" v="Bjørnsund" />
		<tag k="place" v="island" />
		<tag k="ssr:stedsnr" v="1077629" />
	</node>
	<node lat="62.89081854415127" lon="6.8261435356864775" id="-14888">
		<tag k="name" v="Bjørnsundet" />
		<tag k="natural" v="strait" />
		<tag k="ssr:stedsnr" v="1077631" />
	</node>
	<node lat="63.004864485915625" lon="7.193504997471695" id="-14889">
		<tag k="name" v="Kusundet" />
		<tag k="natural" v="strait" />
		<tag k="ssr:stedsnr" v="1077807" />
	</node>
	<node lat="62.93167161450228" lon="6.938544112827095" id="-14891">
		<tag k="name" v="Litle Grønholmen" />
		<tag k="place" v="islet" />
		<tag k="ssr:stedsnr" v="1077857" />
	</node>
	<node lat="63.0065224945724" lon="7.23749577555723" id="-14893">
		<tag k="name" v="Marholmsundet" />
		<tag k="natural" v="strait" />
		<tag k="ssr:stedsnr" v="1077880" />
	</node>
	<node lat="63.010138618946826" lon="7.218411582183904" id="-14894">
		<tag k="name" v="Svartskjærtaren" />
		<tag k="natural" v="shoal" />
		<tag k="place" v="locality" />
		<tag k="ssr:stedsnr" v="1077883" />
	</node>
	<node lat="63.00671226431197" lon="7.226623133167674" id="-14895">
		<tag k="name" v="Litle Langholmen" />
		<tag k="place" v="islet" />
		<tag k="ssr:stedsnr" v="1077884" />
	</node>
</osm>
