<?xml version="1.0" encoding="UTF-8"?>
<<<<<<< HEAD
<osm version="0.6" generator="osmapis">
	<node lat="62.78489444194346" lon="7.053063882592178" id="-3304">
		<tag k="bridge" v="yes" />
		<tag k="layer" v="1" />
		<tag k="name" v="Helsetbrua" />
		<tag k="ssr:stedsnr" v="229976" />
	</node>
	<node lat="63.015324998873055" lon="7.340891658347466" id="-3327">
=======
<osm generator="osmapis" version="0.6">
	<node id="-105855" lat="62.8034888928" lon="7.17131943788">
>>>>>>> e1d4bc35ff8a6074a6f2e91616a996b547c36f15
		<tag k="bridge" v="yes" />
		<tag k="layer" v="1" />
		<tag k="name" v="Hulvågbrua" />
		<tag k="ssr:stedsnr" v="27605" />
	</node>
<<<<<<< HEAD
	<node lat="62.95843333510553" lon="7.361097226143453" id="-3328">
=======
	<node id="-106238" lat="62.9961833329" lon="7.28985555725">
>>>>>>> e1d4bc35ff8a6074a6f2e91616a996b547c36f15
		<tag k="bridge" v="yes" />
		<tag k="layer" v="1" />
		<tag k="name" v="Trøabrua" />
		<tag k="ssr:stedsnr" v="27609" />
	</node>
<<<<<<< HEAD
	<node lat="62.80148889083652" lon="7.081519453428008" id="-3369">
=======
	<node id="-106237" lat="62.9188999975" lon="7.44969444288">
>>>>>>> e1d4bc35ff8a6074a6f2e91616a996b547c36f15
		<tag k="bridge" v="yes" />
		<tag k="layer" v="1" />
		<tag k="name" v="Vallbrua" />
		<tag k="ssr:stedsnr" v="46985" />
	</node>
<<<<<<< HEAD
	<node lat="62.886111112465656" lon="7.349536113177126" id="-3529">
=======
	<node id="-106236" lat="62.8984444453" lon="7.46657499879">
>>>>>>> e1d4bc35ff8a6074a6f2e91616a996b547c36f15
		<tag k="bridge" v="yes" />
		<tag k="layer" v="1" />
		<tag k="name" v="Brandseterbrua" />
		<tag k="ssr:stedsnr" v="148613" />
	</node>
<<<<<<< HEAD
	<node lat="62.89365833314309" lon="6.9547388818313305" id="-3553">
		<tag k="fixme" v="verify maritime location" />
		<tag k="mooring" v="yes" />
		<tag k="name" v="Gjengstøa" />
		<tag k="place" v="locality" />
		<tag k="ssr:stedsnr" v="156359" />
	</node>
	<node lat="63.016491664703366" lon="7.344719435757622" id="-3679">
		<tag k="bridge" v="yes" />
		<tag k="layer" v="1" />
		<tag k="name" v="Myrbærholmbrua" />
		<tag k="ssr:stedsnr" v="270592" />
	</node>
	<node lat="63.00888055599688" lon="7.306277776283654" id="-3680">
		<tag k="bridge" v="yes" />
		<tag k="layer" v="1" />
		<tag k="name" v="Klipabrua" />
		<tag k="ssr:stedsnr" v="270601" />
	</node>
	<node lat="62.93886110700661" lon="7.394055557829814" id="-3689">
		<tag k="highway" v="path" />
		<tag k="name" v="Hestvegan" />
		<tag k="ssr:stedsnr" v="459336" />
	</node>
	<node lat="62.832491665073945" lon="7.234713897995136" id="-3807">
		<tag k="bridge" v="yes" />
		<tag k="layer" v="1" />
		<tag k="name" v="Syltebrua" />
		<tag k="ssr:stedsnr" v="288909" />
	</node>
	<node lat="62.8809138892496" lon="7.1450277864252705" id="-3809">
		<tag k="bridge" v="yes" />
		<tag k="layer" v="1" />
		<tag k="name" v="Hanselvbrua" />
		<tag k="ssr:stedsnr" v="289980" />
	</node>
	<node lat="62.89547500356049" lon="6.977991672051107" id="-3810">
=======
	<node id="-104319" lat="62.8828472193" lon="7.44407500772">
		<tag k="bridge" v="yes" />
		<tag k="layer" v="1" />
		<tag k="name" v="Vasskorbrua" />
		<tag k="ssr:stedsnr" v="877296" />
	</node>
	<node id="-104276" lat="62.9360444435" lon="6.99362223143">
		<tag k="bridge" v="yes" />
		<tag k="layer" v="1" />
		<tag k="name" v="Sundbrua" />
		<tag k="ssr:stedsnr" v="714782" />
	</node>
	<node id="-105974" lat="62.8994666692" lon="7.45669722386">
		<tag k="junction" v="yes" />
		<tag k="name" v="Breia" />
		<tag k="place" v="locality" />
		<tag k="ssr:stedsnr" v="520447" />
	</node>
	<node id="-105845" lat="62.8559861129" lon="7.07436389848">
		<tag k="name" v="Sjøledet" />
		<tag k="place" v="locality" />
		<tag k="ssr:stedsnr" v="399893" />
	</node>
	<node id="-105854" lat="62.8414277821" lon="7.03473889842">
		<tag k="bridge" v="yes" />
		<tag k="layer" v="1" />
		<tag k="name" v="Tornesbrua" />
		<tag k="ssr:stedsnr" v="410961" />
	</node>
	<node id="-106736" lat="62.9579555518" lon="7.11077778163">
>>>>>>> e1d4bc35ff8a6074a6f2e91616a996b547c36f15
		<tag k="bridge" v="yes" />
		<tag k="layer" v="1" />
		<tag k="name" v="Vestadvågbrua" />
		<tag k="ssr:stedsnr" v="289988" />
	</node>
<<<<<<< HEAD
	<node lat="62.859944445294275" lon="7.074650004792995" id="-3839">
		<tag k="bridge" v="yes" />
		<tag k="layer" v="1" />
		<tag k="name" v="Åsbrua" />
		<tag k="ssr:stedsnr" v="470789" />
	</node>
	<node lat="62.81355277541441" lon="7.101491665024252" id="-3840">
		<tag k="bridge" v="yes" />
		<tag k="layer" v="1" />
		<tag k="name" v="Aureosbrua" />
		<tag k="ssr:stedsnr" v="470981" />
	</node>
	<node lat="62.855986112865104" lon="7.074363898480848" id="-3981">
		<tag k="name" v="Sjøledet" />
		<tag k="place" v="locality" />
		<tag k="ssr:stedsnr" v="399893" />
	</node>
	<node lat="62.87811666238901" lon="7.391672225935161" id="-4057">
		<tag k="highway" v="path" />
		<tag k="name" v="Seterstien" />
		<tag k="ssr:stedsnr" v="460380" />
	</node>
	<node lat="62.801125001635064" lon="7.225808325519227" id="-4182">
		<tag k="bridge" v="yes" />
		<tag k="layer" v="1" />
		<tag k="name" v="Malmebrua" />
		<tag k="ssr:stedsnr" v="531985" />
	</node>
	<node lat="62.95426667065226" lon="7.092772218884946" id="-4183">
		<tag k="bridge" v="yes" />
		<tag k="layer" v="1" />
		<tag k="name" v="Søre Hustadbrua" />
		<tag k="ssr:stedsnr" v="532786" />
	</node>
	<node lat="62.95494722590443" lon="7.039077776474744" id="-4184">
		<tag k="bridge" v="yes" />
		<tag k="layer" v="1" />
		<tag k="name" v="Nedre Ruggbrua" />
		<tag k="ssr:stedsnr" v="532789" />
	</node>
	<node lat="62.90934444755204" lon="7.33547221772491" id="-4206">
		<tag k="bridge" v="yes" />
		<tag k="layer" v="1" />
		<tag k="name" v="Sandnesbrua" />
		<tag k="ssr:stedsnr" v="695280" />
	</node>
	<node lat="62.95924444592401" lon="7.113347217249849" id="-4231">
		<tag k="junction" v="yes" />
		<tag k="name" v="Nerlandskiftet" />
		<tag k="place" v="locality" />
		<tag k="ssr:stedsnr" v="580711" />
	</node>
	<node lat="62.89961666356448" lon="7.098905551901142" id="-4263">
		<tag k="highway" v="path" />
		<tag k="name" v="Kolmilvegen" />
		<tag k="ssr:stedsnr" v="581649" />
	</node>
	<node lat="62.90421944717543" lon="7.086402778513619" id="-4264">
		<tag k="bridge" v="yes" />
		<tag k="layer" v="1" />
		<tag k="name" v="Dalabrua" />
		<tag k="ssr:stedsnr" v="592824" />
	</node>
	<node lat="62.80665934962412" lon="7.2465560120427845" id="-4266">
		<tag k="layer" v="-1" />
		<tag k="name" v="Malmefjordundergangen" />
		<tag k="ssr:stedsnr" v="592969" />
		<tag k="tunnel" v="yes" />
	</node>
	<node lat="62.90476944816978" lon="6.907086118250613" id="-4320">
=======
	<node id="-104815" lat="62.9045194453" lon="6.9663444347">
		<tag k="highway" v="path" />
		<tag k="name" v="Langstigen" />
		<tag k="ssr:stedsnr" v="884354" />
	</node>
	<node id="-105853" lat="62.8166960476" lon="7.23925113841">
		<tag k="layer" v="-1" />
		<tag k="name" v="Malmeundergangen" />
		<tag k="ssr:stedsnr" v="410955" />
		<tag k="tunnel" v="yes" />
	</node>
	<node id="-105852" lat="62.841502774" lon="7.23049166456">
		<tag k="bridge" v="yes" />
		<tag k="layer" v="1" />
		<tag k="name" v="Moabrua" />
		<tag k="ssr:stedsnr" v="410916" />
	</node>
	<node id="-106312" lat="62.9151611091" lon="7.4556472274">
		<tag k="man_made" v="quay" />
		<tag k="name" v="Eidskaia" />
		<tag k="place" v="locality" />
		<tag k="ssr:stedsnr" v="641410" />
	</node>
	<node id="-103780" lat="62.938861107" lon="7.39405555783">
		<tag k="highway" v="path" />
		<tag k="name" v="Hestvegan" />
		<tag k="ssr:stedsnr" v="459336" />
	</node>
	<node id="-104547" lat="62.8415388893" lon="7.23055000805">
		<tag k="bridge" v="yes" />
		<tag k="layer" v="1" />
		<tag k="name" v="Moagangbrua" />
		<tag k="ssr:stedsnr" v="774922" />
	</node>
	<node id="-104802" lat="62.8785083366" lon="7.4487361163">
		<tag k="fixme" v="consider highway=path" />
		<tag k="highway" v="track" />
		<tag k="name" v="Fjellstivegen" />
		<tag k="ssr:stedsnr" v="884272" />
	</node>
	<node id="-103504" lat="62.8861111125" lon="7.34953611318">
		<tag k="bridge" v="yes" />
		<tag k="layer" v="1" />
		<tag k="name" v="Brandseterbrua" />
		<tag k="ssr:stedsnr" v="148613" />
	</node>
	<node id="-106333" lat="62.8676972223" lon="7.08736389381">
		<tag k="highway" v="path" />
		<tag k="name" v="Tjukktollvegen" />
		<tag k="ssr:stedsnr" v="641634" />
	</node>
	<node id="-106588" lat="63.016624999" lon="7.35298888989">
		<tag k="bridge" v="yes" />
		<tag k="layer" v="1" />
		<tag k="name" v="Storseisundbrua" />
		<tag k="ssr:stedsnr" v="816283" />
	</node>
	<node id="-104152" lat="62.9047694482" lon="6.90708611825">
>>>>>>> e1d4bc35ff8a6074a6f2e91616a996b547c36f15
		<tag k="landuse" v="harbour" />
		<tag k="name" v="Bud hamn" />
		<tag k="seamark:type" v="harbour" />
		<tag k="ssr:stedsnr" v="702330" />
	</node>
<<<<<<< HEAD
	<node lat="62.89844444525202" lon="7.466574998788433" id="-4371">
=======
	<node id="-105431" lat="62.8122555533" lon="7.09864165849">
>>>>>>> e1d4bc35ff8a6074a6f2e91616a996b547c36f15
		<tag k="bridge" v="yes" />
		<tag k="layer" v="1" />
		<tag k="name" v="Sorsetbrua" />
		<tag k="ssr:stedsnr" v="633282" />
	</node>
<<<<<<< HEAD
	<node lat="62.91889999746573" lon="7.449694442883734" id="-4372">
		<tag k="bridge" v="yes" />
		<tag k="layer" v="1" />
		<tag k="name" v="Eidsbrua" />
		<tag k="ssr:stedsnr" v="633597" />
	</node>
	<node lat="62.946030555983796" lon="7.341047217307735" id="-4488">
		<tag k="bridge" v="yes" />
		<tag k="layer" v="1" />
		<tag k="name" v="Bollielvbrua" />
		<tag k="ssr:stedsnr" v="695278" />
	</node>
	<node lat="62.86051666223899" lon="7.054105554175144" id="-4504">
		<tag k="highway" v="path" />
		<tag k="name" v="Kongsstigen" />
		<tag k="ssr:stedsnr" v="702426" />
	</node>
	<node lat="62.854236114078965" lon="7.260550007268556" id="-4650">
=======
	<node id="-103353" lat="62.9584333351" lon="7.36109722614">
		<tag k="bridge" v="yes" />
		<tag k="layer" v="1" />
		<tag k="name" v="Trøabrua" />
		<tag k="ssr:stedsnr" v="27609" />
	</node>
	<node id="-104660" lat="62.8828888865" lon="7.45886667032">
		<tag k="bridge" v="yes" />
		<tag k="layer" v="1" />
		<tag k="name" v="Langhaugbrua" />
		<tag k="ssr:stedsnr" v="937294" />
	</node>
	<node id="-104275" lat="62.9273472267" lon="7.20195833847">
		<tag k="bridge" v="yes" />
		<tag k="layer" v="1" />
		<tag k="name" v="Vassendbrua" />
		<tag k="ssr:stedsnr" v="713968" />
	</node>
	<node id="-104274" lat="62.9057555518" lon="7.20569722871">
>>>>>>> e1d4bc35ff8a6074a6f2e91616a996b547c36f15
		<tag k="bridge" v="yes" />
		<tag k="layer" v="1" />
		<tag k="name" v="Sylteseterbrua" />
		<tag k="ssr:stedsnr" v="774921" />
	</node>
<<<<<<< HEAD
	<node lat="62.841538889280315" lon="7.230550008047176" id="-4651">
		<tag k="bridge" v="yes" />
		<tag k="layer" v="1" />
		<tag k="name" v="Moagangbrua" />
		<tag k="ssr:stedsnr" v="774922" />
	</node>
	<node lat="62.85346389260856" lon="7.205383338002924" id="-4652">
=======
	<node id="-104099" lat="62.8868138899" lon="7.46491389425">
		<tag k="bridge" v="yes" />
		<tag k="layer" v="1" />
		<tag k="name" v="Øybrua" />
		<tag k="ssr:stedsnr" v="512257" />
	</node>
	<node id="-104272" lat="62.8066638148" lon="7.24658580129">
		<tag k="layer" v="-1" />
		<tag k="name" v="Malmefjordundergangen" />
		<tag k="ssr:stedsnr" v="713954" />
		<tag k="tunnel" v="yes" />
	</node>
	<node id="-103503" lat="63.008880556" lon="7.30627777628">
>>>>>>> e1d4bc35ff8a6074a6f2e91616a996b547c36f15
		<tag k="bridge" v="yes" />
		<tag k="layer" v="1" />
		<tag k="name" v="Myrbostadbrua" />
		<tag k="ssr:stedsnr" v="774963" />
	</node>
<<<<<<< HEAD
	<node lat="62.87819167083783" lon="7.145477776915694" id="-4653">
=======
	<node id="-103502" lat="63.0164916647" lon="7.34471943576">
>>>>>>> e1d4bc35ff8a6074a6f2e91616a996b547c36f15
		<tag k="bridge" v="yes" />
		<tag k="layer" v="1" />
		<tag k="name" v="Prestelvbrua" />
		<tag k="ssr:stedsnr" v="774966" />
	</node>
<<<<<<< HEAD
	<node lat="63.016624999029546" lon="7.3529888898928695" id="-4679">
=======
	<node id="-103885" lat="62.8135527754" lon="7.10149166502">
>>>>>>> e1d4bc35ff8a6074a6f2e91616a996b547c36f15
		<tag k="bridge" v="yes" />
		<tag k="layer" v="1" />
		<tag k="name" v="Storseisundbrua" />
		<tag k="ssr:stedsnr" v="816283" />
	</node>
<<<<<<< HEAD
	<node lat="62.88115833224786" lon="7.42033611962566" id="-4680">
=======
	<node id="-103884" lat="62.8599444453" lon="7.07465000479">
>>>>>>> e1d4bc35ff8a6074a6f2e91616a996b547c36f15
		<tag k="bridge" v="yes" />
		<tag k="layer" v="1" />
		<tag k="name" v="Sørdalsbrua" />
		<tag k="ssr:stedsnr" v="816285" />
	</node>
<<<<<<< HEAD
	<node lat="62.98085833449412" lon="7.151158327205889" id="-4739">
		<tag k="ford" v="yes" />
		<tag k="name" v="Osvadet" />
		<tag k="place" v="locality" />
		<tag k="ssr:stedsnr" v="824967" />
	</node>
	<node lat="62.8025277776451" lon="7.237591657838513" id="-4801">
		<tag k="layer" v="-1" />
		<tag k="name" v="Einehaugundergangen" />
		<tag k="ssr:stedsnr" v="932642" />
		<tag k="tunnel" v="yes" />
	</node>
	<node lat="62.904519445271895" lon="6.966344434695151" id="-4812">
		<tag k="highway" v="path" />
		<tag k="name" v="Langstigen" />
		<tag k="ssr:stedsnr" v="884354" />
	</node>
	<node lat="62.90029166700803" lon="7.092630548755721" id="-4911">
		<tag k="highway" v="path" />
		<tag k="name" v="Botnavegen" />
		<tag k="ssr:stedsnr" v="945601" />
	</node>
	<node lat="62.83756944176998" lon="7.045222230730735" id="-4925">
		<tag k="highway" v="path" />
		<tag k="name" v="Hygotå" />
		<tag k="ssr:stedsnr" v="945931" />
	</node>
	<node lat="62.87578611089798" lon="7.003022219556474" id="-4960">
=======
	<node id="-104546" lat="62.8542361141" lon="7.26055000727">
		<tag k="bridge" v="yes" />
		<tag k="layer" v="1" />
		<tag k="name" v="Sylteseterbrua" />
		<tag k="ssr:stedsnr" v="774921" />
	</node>
	<node id="-104776" lat="62.8375694418" lon="7.04522223073">
		<tag k="highway" v="path" />
		<tag k="name" v="Hygotå" />
		<tag k="ssr:stedsnr" v="945931" />
	</node>
	<node id="-103879" lat="62.8324916651" lon="7.234713898">
		<tag k="bridge" v="yes" />
		<tag k="layer" v="1" />
		<tag k="name" v="Syltebrua" />
		<tag k="ssr:stedsnr" v="288909" />
	</node>
	<node id="-103619" lat="62.8954750036" lon="6.97799167205">
		<tag k="bridge" v="yes" />
		<tag k="layer" v="1" />
		<tag k="name" v="Vestadvågbrua" />
		<tag k="ssr:stedsnr" v="289988" />
	</node>
	<node id="-103618" lat="62.8809138892" lon="7.14502778643">
>>>>>>> e1d4bc35ff8a6074a6f2e91616a996b547c36f15
		<tag k="bridge" v="yes" />
		<tag k="layer" v="1" />
		<tag k="name" v="Stavikbrua" />
		<tag k="ssr:stedsnr" v="228968" />
	</node>
<<<<<<< HEAD
	<node lat="62.849819444729015" lon="7.174372219700611" id="-5093">
=======
	<node id="-105537" lat="62.9155805588" lon="7.30704723099">
>>>>>>> e1d4bc35ff8a6074a6f2e91616a996b547c36f15
		<tag k="bridge" v="yes" />
		<tag k="layer" v="1" />
		<tag k="name" v="Holtbrua" />
		<tag k="ssr:stedsnr" v="46991" />
	</node>
<<<<<<< HEAD
	<node lat="62.8977138908869" lon="7.479586104638496" id="-5145">
		<tag k="highway" v="path" />
		<tag k="name" v="Geilen" />
		<tag k="ssr:stedsnr" v="96496" />
	</node>
	<node lat="62.83513333021501" lon="7.207355546827279" id="-5230">
=======
	<node id="-105536" lat="62.9096416665" lon="7.53861111618">
>>>>>>> e1d4bc35ff8a6074a6f2e91616a996b547c36f15
		<tag k="bridge" v="yes" />
		<tag k="layer" v="1" />
		<tag k="name" v="Syltegjerdbrua" />
		<tag k="ssr:stedsnr" v="106993" />
	</node>
<<<<<<< HEAD
	<node lat="62.89036508123056" lon="6.823409693036531" id="-5302">
		<tag k="man_made" v="cairn" />
		<tag k="name" v="Hammerøyvarden" />
		<tag k="place" v="locality" />
		<tag k="ssr:stedsnr" v="156334" />
	</node>
	<node lat="62.807402775602256" lon="7.115188882610275" id="-5314">
		<tag k="highway" v="path" />
		<tag k="name" v="Trongstien" />
		<tag k="ssr:stedsnr" v="156560" />
	</node>
	<node lat="62.81225555328316" lon="7.098641658486809" id="-5345">
=======
	<node id="-106429" lat="62.9044750035" lon="7.44873888038">
		<tag k="bridge" v="yes" />
		<tag k="layer" v="1" />
		<tag k="name" v="Holmsundbrua" />
		<tag k="ssr:stedsnr" v="755273" />
	</node>
	<node id="-106172" lat="62.8066593496" lon="7.24655601204">
		<tag k="layer" v="-1" />
		<tag k="name" v="Malmefjordundergangen" />
		<tag k="ssr:stedsnr" v="592969" />
		<tag k="tunnel" v="yes" />
	</node>
	<node id="-103354" lat="62.7848944419" lon="7.05306388259">
>>>>>>> e1d4bc35ff8a6074a6f2e91616a996b547c36f15
		<tag k="bridge" v="yes" />
		<tag k="layer" v="1" />
		<tag k="name" v="Aurebrua" />
		<tag k="ssr:stedsnr" v="168981" />
	</node>
<<<<<<< HEAD
	<node lat="62.88020833339695" lon="7.362116661009612" id="-5447">
		<tag k="ford" v="yes" />
		<tag k="name" v="Romsdalsvaet" />
		<tag k="place" v="locality" />
		<tag k="ssr:stedsnr" v="217243" />
	</node>
	<node lat="62.90964166649039" lon="7.538611116180584" id="-5618">
=======
	<node id="-106169" lat="62.9042194472" lon="7.08640277851">
>>>>>>> e1d4bc35ff8a6074a6f2e91616a996b547c36f15
		<tag k="bridge" v="yes" />
		<tag k="layer" v="1" />
		<tag k="name" v="Strandabrua" />
		<tag k="ssr:stedsnr" v="330272" />
	</node>
<<<<<<< HEAD
	<node lat="62.915580558832865" lon="7.3070472309889425" id="-5619">
=======
	<node id="-103352" lat="63.0153249989" lon="7.34089165835">
>>>>>>> e1d4bc35ff8a6074a6f2e91616a996b547c36f15
		<tag k="bridge" v="yes" />
		<tag k="layer" v="1" />
		<tag k="name" v="Oselvbrua" />
		<tag k="ssr:stedsnr" v="330277" />
	</node>
<<<<<<< HEAD
	<node lat="62.9618805584777" lon="7.069469444156806" id="-5682">
=======
	<node id="-106166" lat="62.8996166636" lon="7.0989055519">
>>>>>>> e1d4bc35ff8a6074a6f2e91616a996b547c36f15
		<tag k="highway" v="path" />
		<tag k="name" v="Råket" />
		<tag k="ssr:stedsnr" v="338971" />
	</node>
<<<<<<< HEAD
	<node lat="62.958038890191055" lon="7.096802779676989" id="-5683">
		<tag k="ford" v="yes" />
		<tag k="name" v="Risvaet" />
		<tag k="place" v="locality" />
		<tag k="ssr:stedsnr" v="338974" />
	</node>
	<node lat="62.8325527754942" lon="7.234513898701519" id="-5686">
		<tag k="bridge" v="yes" />
		<tag k="layer" v="1" />
		<tag k="name" v="Syltegangbrua" />
		<tag k="ssr:stedsnr" v="349942" />
	</node>
	<node lat="62.97395833584433" lon="7.260191665396709" id="-5687">
=======
	<node id="-105269" lat="62.8351333302" lon="7.20735554683">
		<tag k="bridge" v="yes" />
		<tag k="layer" v="1" />
		<tag k="name" v="Syltegjerdbrua" />
		<tag k="ssr:stedsnr" v="106993" />
	</node>
	<node id="-106164" lat="62.9756250001" lon="7.16796111655">
		<tag k="highway" v="path" />
		<tag k="name" v="Farstadstien" />
		<tag k="ssr:stedsnr" v="581728" />
	</node>
	<node id="-104115" lat="62.9093444476" lon="7.33547221772">
>>>>>>> e1d4bc35ff8a6074a6f2e91616a996b547c36f15
		<tag k="bridge" v="yes" />
		<tag k="layer" v="1" />
		<tag k="name" v="Malmedalsbrua" />
		<tag k="ssr:stedsnr" v="349949" />
	</node>
<<<<<<< HEAD
	<node lat="62.91609166774049" lon="7.099358342034504" id="-5689">
		<tag k="bridge" v="yes" />
		<tag k="layer" v="1" />
		<tag k="name" v="Gammelseterbrua" />
		<tag k="ssr:stedsnr" v="350759" />
	</node>
	<node lat="62.973675001564935" lon="7.161272226017003" id="-5690">
=======
	<node id="-104114" lat="62.946030556" lon="7.34104721731">
		<tag k="bridge" v="yes" />
		<tag k="layer" v="1" />
		<tag k="name" v="Bollielvbrua" />
		<tag k="ssr:stedsnr" v="695278" />
	</node>
	<node id="-105265" lat="62.8977138909" lon="7.47958610464">
		<tag k="highway" v="path" />
		<tag k="name" v="Geilen" />
		<tag k="ssr:stedsnr" v="96496" />
	</node>
	<node id="-106031" lat="62.9549472259" lon="7.03907777647">
>>>>>>> e1d4bc35ff8a6074a6f2e91616a996b547c36f15
		<tag k="bridge" v="yes" />
		<tag k="layer" v="1" />
		<tag k="name" v="Nedre Ruggbrua" />
		<tag k="ssr:stedsnr" v="532789" />
	</node>
<<<<<<< HEAD
	<node lat="62.816696047638054" lon="7.239251138414713" id="-5840">
		<tag k="layer" v="-1" />
		<tag k="name" v="Malmeundergangen" />
		<tag k="ssr:stedsnr" v="410955" />
		<tag k="tunnel" v="yes" />
	</node>
	<node lat="62.84142778207101" lon="7.034738898420101" id="-5841">
=======
	<node id="-106030" lat="62.9542666707" lon="7.09277221888">
>>>>>>> e1d4bc35ff8a6074a6f2e91616a996b547c36f15
		<tag k="bridge" v="yes" />
		<tag k="layer" v="1" />
		<tag k="name" v="Tornesbrua" />
		<tag k="ssr:stedsnr" v="410961" />
	</node>
<<<<<<< HEAD
	<node lat="62.803488892838" lon="7.171319437882513" id="-5842">
=======
	<node id="-106589" lat="62.8811583322" lon="7.42033611963">
		<tag k="bridge" v="yes" />
		<tag k="layer" v="1" />
		<tag k="name" v="Sørdalsbrua" />
		<tag k="ssr:stedsnr" v="816285" />
	</node>
	<node id="-106028" lat="62.8011250016" lon="7.22580832552">
>>>>>>> e1d4bc35ff8a6074a6f2e91616a996b547c36f15
		<tag k="bridge" v="yes" />
		<tag k="layer" v="1" />
		<tag k="name" v="Holsbrua" />
		<tag k="ssr:stedsnr" v="410972" />
	</node>
<<<<<<< HEAD
	<node lat="62.84150277400404" lon="7.230491664558924" id="-5843">
=======
	<node id="-105643" lat="62.8325527755" lon="7.2345138987">
>>>>>>> e1d4bc35ff8a6074a6f2e91616a996b547c36f15
		<tag k="bridge" v="yes" />
		<tag k="layer" v="1" />
		<tag k="name" v="Moabrua" />
		<tag k="ssr:stedsnr" v="410916" />
	</node>
<<<<<<< HEAD
	<node lat="62.88681388989158" lon="7.464913894252295" id="-5938">
		<tag k="bridge" v="yes" />
		<tag k="layer" v="1" />
		<tag k="name" v="Øybrua" />
		<tag k="ssr:stedsnr" v="512257" />
	</node>
	<node lat="62.89946666919861" lon="7.45669722386271" id="-5975">
		<tag k="junction" v="yes" />
		<tag k="name" v="Breia" />
=======
	<node id="-104872" lat="62.8025277776" lon="7.23759165784">
		<tag k="layer" v="-1" />
		<tag k="name" v="Einehaugundergangen" />
		<tag k="ssr:stedsnr" v="932642" />
		<tag k="tunnel" v="yes" />
	</node>
	<node id="-105639" lat="62.9580388902" lon="7.09680277968">
		<tag k="ford" v="yes" />
		<tag k="name" v="Risvaet" />
>>>>>>> e1d4bc35ff8a6074a6f2e91616a996b547c36f15
		<tag k="place" v="locality" />
		<tag k="ssr:stedsnr" v="520447" />
	</node>
<<<<<<< HEAD
	<node lat="62.98566666830866" lon="7.203888879974142" id="-5998">
		<tag k="highway" v="path" />
		<tag k="name" v="Riarvegen" />
		<tag k="ssr:stedsnr" v="520687" />
	</node>
	<node lat="62.975625000069414" lon="7.167961116551817" id="-6139">
=======
	<node id="-104742" lat="62.8657805525" lon="7.08849721623">
		<tag k="highway" v="path" />
		<tag k="name" v="Midtlivegen" />
		<tag k="ssr:stedsnr" v="945629" />
	</node>
	<node id="-104741" lat="62.900291667" lon="7.09263054876">
>>>>>>> e1d4bc35ff8a6074a6f2e91616a996b547c36f15
		<tag k="highway" v="path" />
		<tag k="name" v="Farstadstien" />
		<tag k="ssr:stedsnr" v="581728" />
	</node>
<<<<<<< HEAD
	<node lat="62.996183332857576" lon="7.289855557248826" id="-6197">
		<tag k="bridge" v="yes" />
		<tag k="layer" v="1" />
		<tag k="name" v="Straumshaugbrua" />
		<tag k="ssr:stedsnr" v="633599" />
	</node>
	<node lat="62.9151611091405" lon="7.455647227398151" id="-6237">
		<tag k="man_made" v="quay" />
		<tag k="name" v="Eidskaia" />
		<tag k="place" v="locality" />
		<tag k="ssr:stedsnr" v="641410" />
	</node>
	<node lat="62.867697222338585" lon="7.0873638938133965" id="-6246">
		<tag k="highway" v="path" />
		<tag k="name" v="Tjukktollvegen" />
		<tag k="ssr:stedsnr" v="641634" />
	</node>
	<node lat="62.97574722660161" lon="7.152416663563376" id="-6271">
=======
	<node id="-106659" lat="62.9808583345" lon="7.15115832721">
		<tag k="ford" v="yes" />
		<tag k="name" v="Osvadet" />
		<tag k="place" v="locality" />
		<tag k="ssr:stedsnr" v="824967" />
	</node>
	<node id="-105638" lat="62.9618805585" lon="7.06946944416">
		<tag k="highway" v="path" />
		<tag k="name" v="Råket" />
		<tag k="ssr:stedsnr" v="338971" />
	</node>
	<node id="-105355" lat="62.8903650812" lon="6.82340969304">
		<tag k="man_made" v="cairn" />
		<tag k="name" v="Hammerøyvarden" />
		<tag k="place" v="locality" />
		<tag k="ssr:stedsnr" v="156334" />
	</node>
	<node id="-106528" lat="62.8999027816" lon="6.97036110298">
>>>>>>> e1d4bc35ff8a6074a6f2e91616a996b547c36f15
		<tag k="bridge" v="yes" />
		<tag k="layer" v="1" />
		<tag k="name" v="Sjøbrua" />
		<tag k="ssr:stedsnr" v="641959" />
	</node>
<<<<<<< HEAD
	<node lat="62.86612222175983" lon="7.142202777038542" id="-6274">
=======
	<node id="-106527" lat="62.8781916708" lon="7.14547777692">
>>>>>>> e1d4bc35ff8a6074a6f2e91616a996b547c36f15
		<tag k="bridge" v="yes" />
		<tag k="layer" v="1" />
		<tag k="name" v="Øydgardsbrua" />
		<tag k="ssr:stedsnr" v="652961" />
	</node>
<<<<<<< HEAD
	<node lat="62.853505552901" lon="7.205561120180399" id="-6275">
		<tag k="bridge" v="yes" />
		<tag k="layer" v="1" />
		<tag k="name" v="Myrbostadgangbrua" />
		<tag k="ssr:stedsnr" v="652976" />
	</node>
	<node lat="62.80666381478821" lon="7.246585801291178" id="-6280">
		<tag k="layer" v="-1" />
		<tag k="name" v="Malmefjordundergangen" />
		<tag k="ssr:stedsnr" v="713954" />
		<tag k="tunnel" v="yes" />
	</node>
	<node lat="62.90575555175758" lon="7.20569722870649" id="-6281">
		<tag k="bridge" v="yes" />
		<tag k="layer" v="1" />
		<tag k="name" v="Stuttelvbrua" />
		<tag k="ssr:stedsnr" v="713967" />
	</node>
	<node lat="62.9273472266995" lon="7.201958338473197" id="-6282">
		<tag k="bridge" v="yes" />
		<tag k="layer" v="1" />
		<tag k="name" v="Vassendbrua" />
		<tag k="ssr:stedsnr" v="713968" />
	</node>
	<node lat="62.936044443526235" lon="6.993622231431175" id="-6283">
		<tag k="bridge" v="yes" />
		<tag k="layer" v="1" />
		<tag k="name" v="Sundbrua" />
		<tag k="ssr:stedsnr" v="714782" />
	</node>
	<node lat="62.90447500347791" lon="7.448738880376273" id="-6337">
		<tag k="bridge" v="yes" />
		<tag k="layer" v="1" />
		<tag k="name" v="Holmsundbrua" />
		<tag k="ssr:stedsnr" v="755273" />
	</node>
	<node lat="62.89990278162138" lon="6.970361102981021" id="-6407">
=======
	<node id="-106526" lat="62.8534638926" lon="7.205383338">
		<tag k="bridge" v="yes" />
		<tag k="layer" v="1" />
		<tag k="name" v="Myrbostadbrua" />
		<tag k="ssr:stedsnr" v="774963" />
	</node>
	<node id="-104239" lat="62.9592444459" lon="7.11334721725">
		<tag k="junction" v="yes" />
		<tag k="name" v="Nerlandskiftet" />
		<tag k="place" v="locality" />
		<tag k="ssr:stedsnr" v="580711" />
	</node>
	<node id="-105647" lat="62.9736750016" lon="7.16127222602">
		<tag k="bridge" v="yes" />
		<tag k="layer" v="1" />
		<tag k="name" v="Farstadbrua" />
		<tag k="ssr:stedsnr" v="350772" />
	</node>
	<node id="-105101" lat="62.8498194447" lon="7.1743722197">
		<tag k="bridge" v="yes" />
		<tag k="layer" v="1" />
		<tag k="name" v="Holtbrua" />
		<tag k="ssr:stedsnr" v="46991" />
	</node>
	<node id="-103833" lat="62.8781166624" lon="7.39167222594">
		<tag k="highway" v="path" />
		<tag k="name" v="Seterstien" />
		<tag k="ssr:stedsnr" v="460380" />
	</node>
	<node id="-105364" lat="62.8936583331" lon="6.95473888183">
		<tag k="fixme" v="verify maritime location" />
		<tag k="mooring" v="yes" />
		<tag k="name" v="Gjengstøa" />
		<tag k="place" v="locality" />
		<tag k="ssr:stedsnr" v="156359" />
	</node>
	<node id="-105646" lat="62.9160916677" lon="7.09935834203">
		<tag k="bridge" v="yes" />
		<tag k="layer" v="1" />
		<tag k="name" v="Gammelseterbrua" />
		<tag k="ssr:stedsnr" v="350759" />
	</node>
	<node id="-104856" lat="62.8802083334" lon="7.36211666101">
		<tag k="ford" v="yes" />
		<tag k="name" v="Romsdalsvaet" />
		<tag k="place" v="locality" />
		<tag k="ssr:stedsnr" v="217243" />
	</node>
	<node id="-105384" lat="62.8074027756" lon="7.11518888261">
		<tag k="highway" v="path" />
		<tag k="name" v="Trongstien" />
		<tag k="ssr:stedsnr" v="156560" />
	</node>
	<node id="-104813" lat="62.8679972214" lon="7.08523333313">
		<tag k="highway" v="path" />
		<tag k="name" v="Klempavegen" />
		<tag k="ssr:stedsnr" v="884624" />
	</node>
	<node id="-105100" lat="62.8014888908" lon="7.08151945343">
		<tag k="bridge" v="yes" />
		<tag k="layer" v="1" />
		<tag k="name" v="Vallbrua" />
		<tag k="ssr:stedsnr" v="46985" />
	</node>
	<node id="-106379" lat="62.8661222218" lon="7.14220277704">
>>>>>>> e1d4bc35ff8a6074a6f2e91616a996b547c36f15
		<tag k="bridge" v="yes" />
		<tag k="layer" v="1" />
		<tag k="name" v="Gulevågbrua" />
		<tag k="ssr:stedsnr" v="774983" />
	</node>
<<<<<<< HEAD
	<node lat="62.882847219343624" lon="7.444075007718929" id="-6580">
		<tag k="bridge" v="yes" />
		<tag k="layer" v="1" />
		<tag k="name" v="Vasskorbrua" />
		<tag k="ssr:stedsnr" v="877296" />
	</node>
	<node lat="62.87850833660152" lon="7.448736116301415" id="-6604">
		<tag k="fixme" v="consider highway=path" />
		<tag k="highway" v="track" />
		<tag k="name" v="Fjellstivegen" />
		<tag k="ssr:stedsnr" v="884272" />
	</node>
	<node lat="62.867997221353235" lon="7.085233333126985" id="-6630">
		<tag k="highway" v="path" />
		<tag k="name" v="Klempavegen" />
		<tag k="ssr:stedsnr" v="884624" />
	</node>
	<node lat="62.882888886492154" lon="7.458866670315314" id="-6659">
		<tag k="bridge" v="yes" />
		<tag k="layer" v="1" />
		<tag k="name" v="Langhaugbrua" />
		<tag k="ssr:stedsnr" v="937294" />
	</node>
	<node lat="62.86578055249918" lon="7.088497216227814" id="-6710">
		<tag k="highway" v="path" />
		<tag k="name" v="Midtlivegen" />
		<tag k="ssr:stedsnr" v="945629" />
	</node>
	<node lat="62.9579555518136" lon="7.110777781631215" id="-6737">
		<tag k="bridge" v="yes" />
		<tag k="layer" v="1" />
		<tag k="name" v="Nørdre Hustadbrua" />
		<tag k="ssr:stedsnr" v="957789" />
=======
	<node id="-105992" lat="62.9856666683" lon="7.20388887997">
		<tag k="highway" v="path" />
		<tag k="name" v="Riarvegen" />
		<tag k="ssr:stedsnr" v="520687" />
	</node>
	<node id="-105644" lat="62.9739583358" lon="7.2601916654">
		<tag k="bridge" v="yes" />
		<tag k="layer" v="1" />
		<tag k="name" v="Malmedalsbrua" />
		<tag k="ssr:stedsnr" v="349949" />
	</node>
	<node id="-103691" lat="62.8757861109" lon="7.00302221956">
		<tag k="bridge" v="yes" />
		<tag k="layer" v="1" />
		<tag k="name" v="Stavikbrua" />
		<tag k="ssr:stedsnr" v="228968" />
	</node>
	<node id="-104452" lat="62.8605166622" lon="7.05410555418">
		<tag k="highway" v="path" />
		<tag k="name" v="Kongsstigen" />
		<tag k="ssr:stedsnr" v="702426" />
	</node>
	<node id="-106371" lat="62.9757472266" lon="7.15241666356">
		<tag k="bridge" v="yes" />
		<tag k="layer" v="1" />
		<tag k="name" v="Sjøbrua" />
		<tag k="ssr:stedsnr" v="641959" />
	</node>
	<node id="-106380" lat="62.8535055529" lon="7.20556112018">
		<tag k="bridge" v="yes" />
		<tag k="layer" v="1" />
		<tag k="name" v="Myrbostadgangbrua" />
		<tag k="ssr:stedsnr" v="652976" />
>>>>>>> e1d4bc35ff8a6074a6f2e91616a996b547c36f15
	</node>
</osm>
