<?xml version="1.0" encoding="UTF-8"?>
<osm generator="osmapis" version="0.6">
	<node id="-112800" lat="61.8701749998" lon="8.45077500549">
		<tag k="amenity" v="community_centre" />
		<tag k="name" v="Gjeiloskulen" />
		<tag k="ssr:stedsnr" v="536959" />
	</node>
	<node id="-112092" lat="61.8761583314" lon="8.30754444427">
		<tag k="amenity" v="community_centre" />
		<tag k="name" v="Moar" />
		<tag k="ssr:stedsnr" v="354151" />
	</node>
	<node id="-112428" lat="61.905805552" lon="8.15447777485">
		<tag k="amenity" v="place_of_worship" />
		<tag k="denomination" v="lutheran" />
		<tag k="name" v="Nordberg kyrkje" />
		<tag k="religion" v="christian" />
		<tag k="ssr:stedsnr" v="131884" />
	</node>
	<node id="-112147" lat="61.8784305555" lon="8.37360833218">
		<tag k="amenity" v="place_of_worship" />
		<tag k="denomination" v="lutheran" />
		<tag k="name" v="SkjÃ¥k kyrkje" />
		<tag k="religion" v="christian" />
		<tag k="ssr:stedsnr" v="374824" />
	</node>
	<node id="-112015" lat="61.8865111108" lon="8.26528887977">
		<tag k="amenity" v="community_centre" />
		<tag k="name" v="Stemneplassen" />
		<tag k="ssr:stedsnr" v="293734" />
	</node>
</osm>
