<?xml version="1.0" encoding="UTF-8"?>
<osm generator="osmapis" version="0.6">
	<node id="-367943" lat="58.2461442733" lon="7.30903668415">
		<tag k="name" v="RÃ¸ydlandsveien" />
		<tag k="ssr:date" v="2019-05-30" />
		<tag k="ssr:gruppe" v="veg" />
		<tag k="ssr:hovedgruppe" v="infrastruktur" />
		<tag k="ssr:stedsnr" v="976961" />
		<tag k="ssr:type" v="adressenavn" />
	</node>
	<node id="-364955" lat="58.2837749988" lon="7.3548694466">
		<tag k="name" v="Audnedal kommune" />
		<tag k="ssr:date" v="2017-11-10" />
		<tag k="ssr:gruppe" v="administrativeIndelinger" />
		<tag k="ssr:hovedgruppe" v="offentligAdministrasjon" />
		<tag k="ssr:stedsnr" v="206181" />
		<tag k="ssr:type" v="kommune" />
	</node>
	<node id="-363913" lat="58.2935524469" lon="7.35769033078">
		<tag k="name" v="Storkemoen" />
		<tag k="ssr:date" v="2019-05-30" />
		<tag k="ssr:gruppe" v="veg" />
		<tag k="ssr:hovedgruppe" v="infrastruktur" />
		<tag k="ssr:stedsnr" v="987830" />
		<tag k="ssr:type" v="adressenavn" />
	</node>
</osm>
