<?xml version="1.0" encoding="UTF-8"?>
<osm generator="osmapis" version="0.6">
	<node id="-6271" lat="59.0946472203" lon="10.7809861171">
		<tag k="fixme" v="consider boundary=protected_area and relevant protect_class if not nature reserve" />
		<tag k="leisure" v="nature_reserve" />
		<tag k="name" v="Søndre Søster naturreservat" />
		<tag k="ssr:stedsnr" v="237430" />
	</node>
	<node id="-7039" lat="59.1942805576" lon="10.7934861096">
		<tag k="fixme" v="consider boundary=protected_area and relevant protect_class if not nature reserve" />
		<tag k="leisure" v="nature_reserve" />
		<tag k="name" v="Mærrapanna naturreservat" />
		<tag k="ssr:stedsnr" v="540075" />
	</node>
	<node id="-6329" lat="59.2016362907" lon="10.9913759472">
		<tag k="fixme" v="consider boundary=protected_area and relevant protect_class if not nature reserve" />
		<tag k="leisure" v="nature_reserve" />
		<tag k="name" v="Regimentsmyra naturreservat" />
		<tag k="ssr:stedsnr" v="982698" />
	</node>
	<node id="-6456" lat="59.1626111072" lon="10.9917888974">
		<tag k="fixme" v="consider boundary=protected_area and relevant protect_class if not nature reserve" />
		<tag k="leisure" v="nature_reserve" />
		<tag k="name" v="Øra naturreservat" />
		<tag k="ssr:stedsnr" v="56656" />
	</node>
	<node id="-6071" lat="59.295658329" lon="10.6640444424">
		<tag k="fixme" v="consider boundary=protected_area and relevant protect_class if not nature reserve" />
		<tag k="leisure" v="nature_reserve" />
		<tag k="name" v="Vesle Sletter naturreservat" />
		<tag k="ssr:stedsnr" v="299557" />
	</node>
	<node id="-7414" lat="59.2540583329" lon="10.9544305486">
		<tag k="fixme" v="consider boundary=protected_area and relevant protect_class if not nature reserve" />
		<tag k="leisure" v="nature_reserve" />
		<tag k="name" v="Stordamsmyra naturreservat" />
		<tag k="ssr:stedsnr" v="726874" />
	</node>
	<node id="-7854" lat="59.1845944487" lon="10.8027111163">
		<tag k="fixme" v="consider boundary=protected_area and relevant protect_class if not nature reserve" />
		<tag k="leisure" v="nature_reserve" />
		<tag k="name" v="Langskjær naturreservat" />
		<tag k="ssr:stedsnr" v="965250" />
	</node>
	<node id="-7345" lat="59.1969055593" lon="10.8165638828">
		<tag k="fixme" v="consider boundary=protected_area and relevant protect_class if not nature reserve" />
		<tag k="leisure" v="nature_reserve" />
		<tag k="name" v="Enghaugberget naturreservat" />
		<tag k="ssr:stedsnr" v="672047" />
	</node>
	<node id="-7280" lat="59.2189166636" lon="10.7568999918">
		<tag k="fixme" v="consider boundary=protected_area and relevant protect_class if not nature reserve" />
		<tag k="leisure" v="nature_reserve" />
		<tag k="name" v="Apalviken naturreservat" />
		<tag k="ssr:stedsnr" v="661939" />
	</node>
	<node id="-7886" lat="59.195913145" lon="10.9930112211">
		<tag k="fixme" v="consider boundary=protected_area and relevant protect_class if not nature reserve" />
		<tag k="leisure" v="nature_reserve" />
		<tag k="name" v="Gansrød naturreservat" />
		<tag k="ssr:stedsnr" v="981069" />
	</node>
	<node id="-7885" lat="59.1657271593" lon="10.928029381">
		<tag k="fixme" v="consider boundary=protected_area and relevant protect_class if not nature reserve" />
		<tag k="leisure" v="nature_reserve" />
		<tag k="name" v="Femdal naturreservat" />
		<tag k="ssr:stedsnr" v="981068" />
	</node>
	<node id="-6534" lat="59.1724916669" lon="10.7087277727">
		<tag k="fixme" v="consider boundary=protected_area and relevant protect_class if not nature reserve" />
		<tag k="leisure" v="nature_reserve" />
		<tag k="name" v="Søndre Missingen naturreservat" />
		<tag k="ssr:stedsnr" v="115422" />
	</node>
	<node id="-6565" lat="59.2858222192" lon="10.7396500066">
		<tag k="fixme" v="consider boundary=protected_area and relevant protect_class if not nature reserve" />
		<tag k="leisure" v="nature_reserve" />
		<tag k="name" v="Steinene naturreservat" />
		<tag k="ssr:stedsnr" v="119182" />
	</node>
	<node id="-6852" lat="59.1655111094" lon="10.9051666744">
		<tag k="fixme" v="consider boundary=protected_area and relevant protect_class if not nature reserve" />
		<tag k="leisure" v="nature_reserve" />
		<tag k="name" v="Goenvad naturreservat" />
		<tag k="ssr:stedsnr" v="419658" />
	</node>
</osm>
