<?xml version="1.0" encoding="UTF-8"?>
<osm generator="osmapis" version="0.6">
	<node id="-7165" lat="59.2636666704" lon="11.0960777705">
		<tag k="bridge" v="yes" />
		<tag k="layer" v="1" />
		<tag k="name" v="Fergestedsveien" />
		<tag k="ssr:stedsnr" v="592644" />
	</node>
	<node id="-7164" lat="59.2505111078" lon="10.895538897">
		<tag k="bridge" v="yes" />
		<tag k="layer" v="1" />
		<tag k="name" v="Skinnerød" />
		<tag k="ssr:stedsnr" v="592564" />
	</node>
	<node id="-7163" lat="59.1963611106" lon="10.9723472163">
		<tag k="bridge" v="yes" />
		<tag k="layer" v="1" />
		<tag k="name" v="Torsnesveien" />
		<tag k="ssr:stedsnr" v="592550" />
	</node>
	<node id="-7654" lat="59.189297223" lon="10.9511694363">
		<tag k="man_made" v="quay" />
		<tag k="name" v="Ørakaia" />
		<tag k="place" v="locality" />
		<tag k="ssr:stedsnr" v="844384" />
	</node>
	<node id="-6115" lat="59.2463500025" lon="11.0128250031">
		<tag k="leisure" v="marina" />
		<tag k="name" v="Båthavna" />
		<tag k="ssr:stedsnr" v="301876" />
	</node>
	<node id="-7646" lat="59.2053916653" lon="10.9494777715">
		<tag k="man_made" v="quay" />
		<tag k="name" v="Tollbodbrygga" />
		<tag k="place" v="locality" />
		<tag k="ssr:stedsnr" v="843146" />
	</node>
	<node id="-7645" lat="59.1427277773" lon="10.9474388804">
		<tag k="bridge" v="yes" />
		<tag k="layer" v="1" />
		<tag k="name" v="Kjøkøy" />
		<tag k="ssr:stedsnr" v="835577" />
	</node>
	<node id="-7644" lat="59.2025194468" lon="10.9740555484">
		<tag k="bridge" v="yes" />
		<tag k="layer" v="1" />
		<tag k="name" v="Katrineborgveien" />
		<tag k="ssr:stedsnr" v="835576" />
	</node>
	<node id="-7643" lat="59.2079500037" lon="10.9830055623">
		<tag k="alt_name" v="Lillebybrua" />
		<tag k="bridge" v="yes" />
		<tag k="layer" v="1" />
		<tag k="name" v="Lilleby" />
		<tag k="ssr:stedsnr" v="835575" />
	</node>
	<node id="-7642" lat="59.2529555536" lon="10.9928194392">
		<tag k="bridge" v="yes" />
		<tag k="layer" v="1" />
		<tag k="name" v="Isdammen" />
		<tag k="ssr:stedsnr" v="835569" />
	</node>
	<node id="-7641" lat="59.3063388898" lon="10.8895611133">
		<tag k="bridge" v="yes" />
		<tag k="layer" v="1" />
		<tag k="name" v="Ørmen" />
		<tag k="ssr:stedsnr" v="835560" />
	</node>
	<node id="-7640" lat="59.2429750025" lon="10.9000444402">
		<tag k="bridge" v="yes" />
		<tag k="layer" v="1" />
		<tag k="name" v="Skåra" />
		<tag k="ssr:stedsnr" v="835557" />
	</node>
	<node id="-7633" lat="59.2240277743" lon="10.6973416643">
		<tag k="landuse" v="harbour" />
		<tag k="name" v="Stor Havna" />
		<tag k="seamark:type" v="harbour" />
		<tag k="ssr:stedsnr" v="813797" />
	</node>
	<node id="-6596" lat="59.2318305537" lon="11.0071472294">
		<tag k="junction" v="yes" />
		<tag k="name" v="Solheimsvingen" />
		<tag k="place" v="locality" />
		<tag k="ssr:stedsnr" v="119786" />
	</node>
	<node id="-7106" lat="59.2128111104" lon="10.9350083413">
		<tag k="man_made" v="quay" />
		<tag k="name" v="Blomstertorgbrygga" />
		<tag k="place" v="locality" />
		<tag k="ssr:stedsnr" v="544988" />
	</node>
	<node id="-6069" lat="59.2643027796" lon="10.7755000018">
		<tag k="junction" v="yes" />
		<tag k="name" v="Gaustadkrysset" />
		<tag k="place" v="locality" />
		<tag k="ssr:stedsnr" v="297287" />
	</node>
	<node id="-6579" lat="59.2116527747" lon="10.9602749933">
		<tag k="man_made" v="quay" />
		<tag k="name" v="Jernbanekaia" />
		<tag k="place" v="locality" />
		<tag k="ssr:stedsnr" v="117568" />
	</node>
	<node id="-6575" lat="59.2048194421" lon="10.9439444461">
		<tag k="man_made" v="quay" />
		<tag k="name" v="Cicignonbrygga" />
		<tag k="place" v="locality" />
		<tag k="ssr:stedsnr" v="116776" />
	</node>
	<node id="-6059" lat="59.1499500004" lon="10.940844445">
		<tag k="bridge" v="yes" />
		<tag k="layer" v="1" />
		<tag k="name" v="Bjerkelund" />
		<tag k="ssr:stedsnr" v="289675" />
	</node>
	<node id="-6058" lat="59.1987416631" lon="10.9699277691">
		<tag k="bridge" v="yes" />
		<tag k="layer" v="1" />
		<tag k="name" v="Bekkevold" />
		<tag k="ssr:stedsnr" v="289674" />
	</node>
	<node id="-6057" lat="59.1904277816" lon="10.9363">
		<tag k="bridge" v="yes" />
		<tag k="layer" v="1" />
		<tag k="name" v="Fuglevik" />
		<tag k="ssr:stedsnr" v="289667" />
	</node>
	<node id="-6556" lat="59.2500916675" lon="11.0290000003">
		<tag k="bridge" v="yes" />
		<tag k="layer" v="1" />
		<tag k="name" v="Moum" />
		<tag k="ssr:stedsnr" v="107547" />
	</node>
	<node id="-7064" lat="59.2504694461" lon="11.1060138929">
		<tag k="bridge" v="yes" />
		<tag k="layer" v="1" />
		<tag k="name" v="Skjelinvegen" />
		<tag k="ssr:stedsnr" v="531577" />
	</node>
	<node id="-7569" lat="59.2151694433" lon="10.9238944379">
		<tag k="man_made" v="quay" />
		<tag k="name" v="Trafikkbrygga" />
		<tag k="place" v="locality" />
		<tag k="ssr:stedsnr" v="786998" />
	</node>
	<node id="-6210" lat="59.2089083352" lon="10.9503444461">
		<tag k="name" v="Fredrikstad stasjon" />
		<tag k="railway" v="station" />
		<tag k="ssr:stedsnr" v="358904" />
		<tag k="train" v="yes" />
	</node>
	<node id="-7048" lat="59.1870555538" lon="11.0796833264">
		<tag k="man_made" v="quay" />
		<tag k="name" v="Holm brygge" />
		<tag k="place" v="locality" />
		<tag k="ssr:stedsnr" v="508481" />
	</node>
	<node id="-7547" lat="59.188219447" lon="11.0330722242">
		<tag k="bridge" v="yes" />
		<tag k="layer" v="1" />
		<tag k="name" v="Kloppa" />
		<tag k="ssr:stedsnr" v="784797" />
	</node>
	<node id="-7543" lat="59.2258833305" lon="10.979755556">
		<tag k="man_made" v="quay" />
		<tag k="name" v="Lislebystranda" />
		<tag k="place" v="locality" />
		<tag k="ssr:stedsnr" v="784588" />
	</node>
	<node id="-7536" lat="59.2053527823" lon="10.94185555">
		<tag k="man_made" v="quay" />
		<tag k="name" v="Fønixbrygga" />
		<tag k="place" v="locality" />
		<tag k="ssr:stedsnr" v="783792" />
	</node>
	<node id="-7535" lat="59.1873888844" lon="10.9519861168">
		<tag k="man_made" v="quay" />
		<tag k="name" v="Titanbrygga" />
		<tag k="place" v="locality" />
		<tag k="ssr:stedsnr" v="783778" />
	</node>
	<node id="-7508" lat="59.2078250025" lon="10.977866668">
		<tag k="junction" v="yes" />
		<tag k="name" v="Rakkestadsvingen" />
		<tag k="place" v="locality" />
		<tag k="ssr:stedsnr" v="774586" />
	</node>
	<node id="-6371" lat="59.2592030072" lon="11.0105348052">
		<tag k="name" v="Rolvsøy stasjon" />
		<tag k="railway" v="station" />
		<tag k="ssr:stedsnr" v="990088" />
		<tag k="train" v="yes" />
	</node>
	<node id="-7500" lat="59.2675777737" lon="11.089197221">
		<tag k="man_made" v="quay" />
		<tag k="name" v="Hafslund kai" />
		<tag k="place" v="locality" />
		<tag k="ssr:stedsnr" v="768060" />
	</node>
	<node id="-6474" lat="59.2133527782" lon="10.9337611168">
		<tag k="man_made" v="quay" />
		<tag k="name" v="Molvikkaia" />
		<tag k="place" v="locality" />
		<tag k="ssr:stedsnr" v="54864" />
	</node>
	<node id="-6980" lat="59.2149138866" lon="10.91144166">
		<tag k="man_made" v="quay" />
		<tag k="name" v="Gressvikpiren" />
		<tag k="place" v="locality" />
		<tag k="ssr:stedsnr" v="481038" />
	</node>
	<node id="-6978" lat="59.2115000012" lon="10.9566027716">
		<tag k="bridge" v="yes" />
		<tag k="layer" v="1" />
		<tag k="name" v="Fredrikstad" />
		<tag k="ssr:stedsnr" v="470593" />
	</node>
	<node id="-6977" lat="59.2286944417" lon="10.9988444364">
		<tag k="bridge" v="yes" />
		<tag k="layer" v="1" />
		<tag k="name" v="Kjølberggata" />
		<tag k="ssr:stedsnr" v="470533" />
	</node>
	<node id="-6976" lat="59.3054222214" lon="10.8938749942">
		<tag k="bridge" v="yes" />
		<tag k="layer" v="1" />
		<tag k="name" v="Reklingholm" />
		<tag k="ssr:stedsnr" v="470525" />
	</node>
	<node id="-6461" lat="59.2531305526" lon="10.8655722156">
		<tag k="bridge" v="yes" />
		<tag k="layer" v="1" />
		<tag k="name" v="Borge" />
		<tag k="ssr:stedsnr" v="46666" />
	</node>
	<node id="-6460" lat="59.2606861156" lon="11.1115361097">
		<tag k="bridge" v="yes" />
		<tag k="layer" v="1" />
		<tag k="name" v="Gatedalen" />
		<tag k="ssr:stedsnr" v="46579" />
	</node>
	<node id="-6459" lat="59.2308027793" lon="10.9121055601">
		<tag k="bridge" v="yes" />
		<tag k="layer" v="1" />
		<tag k="name" v="Seut" />
		<tag k="ssr:stedsnr" v="46574" />
	</node>
	<node id="-6458" lat="59.2518166688" lon="11.0351194392">
		<tag k="bridge" v="yes" />
		<tag k="layer" v="1" />
		<tag k="name" v="Moum" />
		<tag k="ssr:stedsnr" v="46572" />
	</node>
	<node id="-6457" lat="59.2504805512" lon="10.8594166622">
		<tag k="bridge" v="yes" />
		<tag k="layer" v="1" />
		<tag k="name" v="Skuggerød" />
		<tag k="ssr:stedsnr" v="46566" />
	</node>
	<node id="-6964" lat="59.1812999962" lon="10.8161194432">
		<tag k="name" v="Aksla" />
		<tag k="place" v="locality" />
		<tag k="ssr:stedsnr" v="449797" />
	</node>
	<node id="-7306" lat="59.2107675186" lon="10.9376989133">
		<tag k="man_made" v="quay" />
		<tag k="name" v="Dampskipsbrygga" />
		<tag k="place" v="locality" />
		<tag k="ssr:stedsnr" v="661848" />
	</node>
	<node id="-6402" lat="59.2099305547" lon="10.9124777745">
		<tag k="landuse" v="harbour" />
		<tag k="name" v="Båthavna" />
		<tag k="seamark:type" v="harbour" />
		<tag k="ssr:stedsnr" v="1305" />
	</node>
	<node id="-7416" lat="59.2150833312" lon="10.9230305606">
		<tag k="man_made" v="quay" />
		<tag k="name" v="Seiersborgbrygga" />
		<tag k="place" v="locality" />
		<tag k="ssr:stedsnr" v="722870" />
	</node>
	<node id="-7402" lat="59.1929138872" lon="10.8130249988">
		<tag k="man_made" v="quay" />
		<tag k="name" v="Slevik brygge" />
		<tag k="place" v="locality" />
		<tag k="ssr:stedsnr" v="722053" />
	</node>
	<node id="-7399" lat="59.2608555585" lon="11.0053055608">
		<tag k="bridge" v="yes" />
		<tag k="layer" v="1" />
		<tag k="name" v="Bjørnengveien" />
		<tag k="ssr:stedsnr" v="713623" />
	</node>
	<node id="-7398" lat="59.2228444414" lon="10.9214944443">
		<tag k="bridge" v="yes" />
		<tag k="layer" v="1" />
		<tag k="name" v="Onsøyveien" />
		<tag k="ssr:stedsnr" v="713550" />
	</node>
	<node id="-7397" lat="59.21998056" lon="10.9319583268">
		<tag k="bridge" v="yes" />
		<tag k="layer" v="1" />
		<tag k="name" v="Vestre Frydenberg" />
		<tag k="ssr:stedsnr" v="713548" />
	</node>
	<node id="-7396" lat="59.2582027767" lon="11.0991611196">
		<tag k="bridge" v="yes" />
		<tag k="layer" v="1" />
		<tag k="name" v="Vardevegen" />
		<tag k="ssr:stedsnr" v="713538" />
	</node>
	<node id="-7395" lat="59.2598694466" lon="11.0065972209">
		<tag k="bridge" v="yes" />
		<tag k="layer" v="1" />
		<tag k="name" v="Vallemyra" />
		<tag k="ssr:stedsnr" v="713537" />
	</node>
	<node id="-6368" lat="59.1398095885" lon="10.9421517631">
		<tag k="man_made" v="quay" />
		<tag k="name" v="Mønsterboden" />
		<tag k="place" v="locality" />
		<tag k="ssr:stedsnr" v="989760" />
	</node>
	<node id="-7888" lat="59.1943138882" lon="10.9496499969">
		<tag k="man_made" v="quay" />
		<tag k="name" v="Denofabrygga" />
		<tag k="place" v="locality" />
		<tag k="ssr:stedsnr" v="965765" />
	</node>
	<node id="-6358" lat="59.1716650239" lon="10.7121327574">
		<tag k="landuse" v="harbour" />
		<tag k="name" v="Missinghavna" />
		<tag k="seamark:type" v="harbour" />
		<tag k="ssr:stedsnr" v="986403" />
	</node>
	<node id="-7890" lat="59.2097888915" lon="10.9390416676">
		<tag k="man_made" v="quay" />
		<tag k="name" v="Bankbrygga" />
		<tag k="place" v="locality" />
		<tag k="ssr:stedsnr" v="965799" />
	</node>
	<node id="-7889" lat="59.2119638928" lon="10.9605027735">
		<tag k="man_made" v="quay" />
		<tag k="name" v="Jernbanebrygga" />
		<tag k="place" v="locality" />
		<tag k="ssr:stedsnr" v="965789" />
	</node>
	<node id="-6864" lat="59.2109972208" lon="10.9375166619">
		<tag k="man_made" v="quay" />
		<tag k="name" v="D/S-brygga" />
		<tag k="place" v="locality" />
		<tag k="ssr:stedsnr" v="479798" />
	</node>
	<node id="-6863" lat="59.194800003" lon="10.9518861093">
		<tag k="man_made" v="quay" />
		<tag k="name" v="Denofa AS" />
		<tag k="place" v="locality" />
		<tag k="ssr:stedsnr" v="479768" />
	</node>
	<node id="-7867" lat="59.2318027809" lon="11.0016555499">
		<tag k="bridge" v="yes" />
		<tag k="layer" v="1" />
		<tag k="name" v="Borgehallen" />
		<tag k="ssr:stedsnr" v="956651" />
	</node>
	<node id="-7866" lat="59.2535916644" lon="10.8408666752">
		<tag k="bridge" v="yes" />
		<tag k="layer" v="1" />
		<tag k="name" v="Mossikhuset" />
		<tag k="ssr:stedsnr" v="956582" />
	</node>
	<node id="-7865" lat="59.1353861147" lon="10.9386861072">
		<tag k="bridge" v="yes" />
		<tag k="layer" v="1" />
		<tag k="name" v="Puttesund" />
		<tag k="ssr:stedsnr" v="956577" />
	</node>
	<node id="-7864" lat="59.260186107" lon="11.0975638822">
		<tag k="bridge" v="yes" />
		<tag k="layer" v="1" />
		<tag k="name" v="Årum" />
		<tag k="ssr:stedsnr" v="956575" />
	</node>
	<node id="-6325" lat="59.2598305516" lon="11.095269453">
		<tag k="bridge" v="yes" />
		<tag k="layer" v="1" />
		<tag k="name" v="Gråvollen" />
		<tag k="ssr:stedsnr" v="896587" />
	</node>
	<node id="-6324" lat="59.2692500043" lon="11.0222194435">
		<tag k="bridge" v="yes" />
		<tag k="layer" v="1" />
		<tag k="name" v="Rolvsøysund" />
		<tag k="ssr:stedsnr" v="896581" />
	</node>
	<node id="-6309" lat="59.1825111129" lon="10.9258194411">
		<tag k="bridge" v="yes" />
		<tag k="layer" v="1" />
		<tag k="name" v="Holthe" />
		<tag k="ssr:stedsnr" v="410547" />
	</node>
	<node id="-6308" lat="59.2434194409" lon="10.9807083374">
		<tag k="bridge" v="yes" />
		<tag k="layer" v="1" />
		<tag k="name" v="Råbekken" />
		<tag k="ssr:stedsnr" v="410544" />
	</node>
	<node id="-6307" lat="59.2466500022" lon="11.1182972257">
		<tag k="bridge" v="yes" />
		<tag k="layer" v="1" />
		<tag k="name" v="Molteberg" />
		<tag k="ssr:stedsnr" v="410541" />
	</node>
	<node id="-6306" lat="59.2211500033" lon="10.9285194482">
		<tag k="bridge" v="yes" />
		<tag k="layer" v="1" />
		<tag k="name" v="Veumbekken" />
		<tag k="ssr:stedsnr" v="410539" />
	</node>
	<node id="-6795" lat="59.2150888923" lon="10.927394444">
		<tag k="man_made" v="quay" />
		<tag k="name" v="Verkstedkaia" />
		<tag k="place" v="locality" />
		<tag k="ssr:stedsnr" v="240994" />
	</node>
	<node id="-6794" lat="59.2142305568" lon="10.9321472181">
		<tag k="man_made" v="quay" />
		<tag k="name" v="Gressvikbrygga" />
		<tag k="place" v="locality" />
		<tag k="ssr:stedsnr" v="240995" />
	</node>
	<node id="-7302" lat="59.2049888933" lon="10.9535361163">
		<tag k="man_made" v="quay" />
		<tag k="name" v="Østsidens D/S-brygge" />
		<tag k="place" v="locality" />
		<tag k="ssr:stedsnr" v="661767" />
	</node>
	<node id="-7301" lat="59.2068527816" lon="10.9401555568">
		<tag k="man_made" v="quay" />
		<tag k="name" v="Nygårdsbrygga" />
		<tag k="place" v="locality" />
		<tag k="ssr:stedsnr" v="661764" />
	</node>
	<node id="-7805" lat="59.2342722205" lon="10.9785249913">
		<tag k="alt_name" v="Lisleby" />
		<tag k="name" v="Lisleby stasjon" />
		<tag k="railway" v="station" />
		<tag k="ssr:stedsnr" v="912293" />
		<tag k="train" v="yes" />
	</node>
	<node id="-7275" lat="59.2110499966" lon="10.9812055582">
		<tag k="bridge" v="yes" />
		<tag k="layer" v="1" />
		<tag k="name" v="Fjellstad" />
		<tag k="ssr:stedsnr" v="652597" />
	</node>
	<node id="-7274" lat="59.2385916641" lon="10.9685722236">
		<tag k="bridge" v="yes" />
		<tag k="layer" v="1" />
		<tag k="name" v="Kirkestien" />
		<tag k="ssr:stedsnr" v="652533" />
	</node>
	<node id="-7273" lat="59.2407611101" lon="10.9738944505">
		<tag k="bridge" v="yes" />
		<tag k="layer" v="1" />
		<tag k="name" v="Lislebyvegen" />
		<tag k="ssr:stedsnr" v="652522" />
	</node>
	<node id="-6754" lat="59.1473611141" lon="10.9415194382">
		<tag k="bridge" v="yes" />
		<tag k="layer" v="1" />
		<tag k="name" v="Kjøkøysund" />
		<tag k="ssr:stedsnr" v="228598" />
	</node>
	<node id="-6753" lat="59.2660999963" lon="11.0132972246">
		<tag k="bridge" v="yes" />
		<tag k="layer" v="1" />
		<tag k="name" v="Hatteveien" />
		<tag k="ssr:stedsnr" v="228593" />
	</node>
	<node id="-6752" lat="59.2497499966" lon="10.9897388815">
		<tag k="bridge" v="yes" />
		<tag k="layer" v="1" />
		<tag k="name" v="Haugesvingen" />
		<tag k="ssr:stedsnr" v="228594" />
	</node>
	<node id="-6751" lat="59.2040916624" lon="10.8816777698">
		<tag k="bridge" v="yes" />
		<tag k="layer" v="1" />
		<tag k="name" v="Rød" />
		<tag k="ssr:stedsnr" v="228589" />
	</node>
	<node id="-6750" lat="59.2588916665" lon="11.0095555575">
		<tag k="bridge" v="yes" />
		<tag k="layer" v="1" />
		<tag k="name" v="Valleberget" />
		<tag k="ssr:stedsnr" v="228575" />
	</node>
	<node id="-7773" lat="59.205583337" lon="10.9498194532">
		<tag k="man_made" v="quay" />
		<tag k="name" v="Tollbodkaia" />
		<tag k="place" v="locality" />
		<tag k="ssr:stedsnr" v="905785" />
	</node>
	<node id="-7772" lat="59.2060555516" lon="10.9513888824">
		<tag k="man_made" v="quay" />
		<tag k="name" v="Ferjestedet" />
		<tag k="place" v="locality" />
		<tag k="ssr:stedsnr" v="905415" />
	</node>
	<node id="-6233" lat="59.2138444445" lon="10.9332444507">
		<tag k="man_made" v="quay" />
		<tag k="name" v="Torgbrygga" />
		<tag k="place" v="locality" />
		<tag k="ssr:stedsnr" v="362980" />
	</node>
	<node id="-6232" lat="59.2464333372" lon="10.9578694375">
		<tag k="highway" v="path" />
		<tag k="name" v="Kirkestien" />
		<tag k="ssr:stedsnr" v="361877" />
	</node>
	<node id="-6738" lat="59.1367500036" lon="10.9321250038">
		<tag k="man_made" v="quay" />
		<tag k="name" v="Tangen" />
		<tag k="place" v="locality" />
		<tag k="ssr:stedsnr" v="185698" />
	</node>
	<node id="-7751" lat="59.2115388917" lon="10.7868083418">
		<tag k="man_made" v="quay" />
		<tag k="name" v="Hankø brygge" />
		<tag k="place" v="locality" />
		<tag k="ssr:stedsnr" v="904116" />
	</node>
	<node id="-7747" lat="59.2532861127" lon="10.7752250029">
		<tag k="man_made" v="quay" />
		<tag k="name" v="Rødsbrygga" />
		<tag k="place" v="locality" />
		<tag k="ssr:stedsnr" v="878807" />
	</node>
	<node id="-7234" lat="59.2689916693" lon="10.9062416626">
		<tag k="alt_name" v="Onsøy" />
		<tag k="name" v="Onsøy stasjon" />
		<tag k="railway" v="station" />
		<tag k="ssr:stedsnr" v="609120" />
		<tag k="train" v="yes" />
	</node>
	<node id="-6209" lat="59.2149750037" lon="10.9278250001">
		<tag k="man_made" v="quay" />
		<tag k="name" v="Trosvikstranda" />
		<tag k="place" v="locality" />
		<tag k="ssr:stedsnr" v="358836" />
	</node>
	<node id="-6204" lat="59.2169472228" lon="10.9684111171">
		<tag k="man_made" v="quay" />
		<tag k="name" v="Nabbetorpbrygga" />
		<tag k="place" v="locality" />
		<tag k="ssr:stedsnr" v="358785" />
	</node>
	<node id="-6715" lat="59.1974249975" lon="10.7722638842">
		<tag k="alt_name" v="Hankehamna" />
		<tag k="landuse" v="harbour" />
		<tag k="name" v="Hankøhavna" />
		<tag k="seamark:type" v="harbour" />
		<tag k="ssr:stedsnr" v="184333" />
	</node>
	<node id="-6700" lat="59.2495250011" lon="11.0281111105">
		<tag k="junction" v="yes" />
		<tag k="name" v="Moumsvingen" />
		<tag k="place" v="locality" />
		<tag k="ssr:stedsnr" v="179888" />
	</node>
	<node id="-6185" lat="59.210533333" lon="10.9510027735">
		<tag k="bridge" v="yes" />
		<tag k="layer" v="1" />
		<tag k="name" v="Bydal" />
		<tag k="ssr:stedsnr" v="349654" />
	</node>
	<node id="-6184" lat="59.2632888882" lon="10.9015333412">
		<tag k="bridge" v="yes" />
		<tag k="layer" v="1" />
		<tag k="name" v="Kjølberg" />
		<tag k="ssr:stedsnr" v="349595" />
	</node>
	<node id="-6183" lat="59.2798916676" lon="10.7730805574">
		<tag k="bridge" v="yes" />
		<tag k="layer" v="1" />
		<tag k="name" v="Kallerød" />
		<tag k="ssr:stedsnr" v="349592" />
	</node>
	<node id="-6182" lat="59.2203083341" lon="10.9309361067">
		<tag k="bridge" v="yes" />
		<tag k="layer" v="1" />
		<tag k="name" v="Holmegata" />
		<tag k="ssr:stedsnr" v="349591" />
	</node>
	<node id="-6181" lat="59.2306638925" lon="11.000594441">
		<tag k="bridge" v="yes" />
		<tag k="layer" v="1" />
		<tag k="name" v="Torpebergveien" />
		<tag k="ssr:stedsnr" v="349577" />
	</node>
	<node id="-6177" lat="59.1921027751" lon="10.95029444">
		<tag k="man_made" v="quay" />
		<tag k="name" v="Lilleborgbrygga" />
		<tag k="place" v="locality" />
		<tag k="ssr:stedsnr" v="343773" />
	</node>
	<node id="-7187" lat="59.2166499978" lon="10.9403777765">
		<tag k="amenity" v="parking" />
		<tag k="name" v="Steffensjordet" />
		<tag k="ssr:stedsnr" v="602242" />
	</node>
	<node id="-6674" lat="59.1997694406" lon="10.9476166647">
		<tag k="man_made" v="quay" />
		<tag k="name" v="Movikkaia" />
		<tag k="place" v="locality" />
		<tag k="ssr:stedsnr" v="176780" />
	</node>
	<node id="-7184" lat="59.2088638927" lon="10.9396194406">
		<tag k="man_made" v="quay" />
		<tag k="name" v="Kirkebrygga" />
		<tag k="place" v="locality" />
		<tag k="ssr:stedsnr" v="601772" />
	</node>
	<node id="-7690" lat="59.215413887" lon="10.9206499921">
		<tag k="man_made" v="quay" />
		<tag k="name" v="Seiersborgbrygga" />
		<tag k="place" v="locality" />
		<tag k="ssr:stedsnr" v="848993" />
	</node>
	<node id="-7176" lat="59.1363250005" lon="10.9470000084">
		<tag k="man_made" v="cairn" />
		<tag k="name" v="Varden" />
		<tag k="place" v="locality" />
		<tag k="ssr:stedsnr" v="600571" />
	</node>
	<node id="-6659" lat="59.2177555568" lon="11.0109638885">
		<tag k="bridge" v="yes" />
		<tag k="layer" v="1" />
		<tag k="name" v="Begby" />
		<tag k="ssr:stedsnr" v="167643" />
	</node>
	<node id="-6658" lat="59.2166416703" lon="10.9412805473">
		<tag k="bridge" v="yes" />
		<tag k="layer" v="1" />
		<tag k="name" v="Steffensjordet" />
		<tag k="ssr:stedsnr" v="167570" />
	</node>
</osm>
