<?xml version="1.0" encoding="UTF-8"?>
<osm generator="osmapis" version="0.6">
	<node id="-7167" lat="59.3042305599" lon="10.9208944398">
		<tag k="name" v="Svartdalen" />
		<tag k="natural" v="valley" />
		<tag k="place" v="locality" />
		<tag k="ssr:stedsnr" v="602918" />
	</node>
	<node id="-7674" lat="59.2356749959" lon="10.8360611141">
		<tag k="fixme" v="consider natural=peak for the most distinct mountains in the district" />
		<tag k="name" v="Lerberget" />
		<tag k="natural" v="hill" />
		<tag k="place" v="locality" />
		<tag k="ssr:stedsnr" v="851448" />
	</node>
	<node id="-7159" lat="59.1903194405" lon="10.9302194452">
		<tag k="name" v="Klovadalen" />
		<tag k="natural" v="valley" />
		<tag k="place" v="locality" />
		<tag k="ssr:stedsnr" v="602251" />
	</node>
	<node id="-6134" lat="59.1906666682" lon="11.0744388924">
		<tag k="fixme" v="consider natural=peak for the most distinct mountains in the district" />
		<tag k="name" v="Løen" />
		<tag k="natural" v="hill" />
		<tag k="place" v="locality" />
		<tag k="ssr:stedsnr" v="325445" />
	</node>
	<node id="-7155" lat="59.3001166692" lon="10.9703694408">
		<tag k="fixme" v="consider natural=peak for the most distinct mountains in the district" />
		<tag k="name" v="Ringstadåsen" />
		<tag k="natural" v="hill" />
		<tag k="place" v="locality" />
		<tag k="ssr:stedsnr" v="602101" />
	</node>
	<node id="-7150" lat="59.2136333319" lon="10.8963388969">
		<tag k="fixme" v="consider natural=peak for the most distinct mountains in the district" />
		<tag k="name" v="Mulefjell" />
		<tag k="natural" v="hill" />
		<tag k="place" v="locality" />
		<tag k="ssr:stedsnr" v="600848" />
	</node>
	<node id="-7659" lat="59.2398861094" lon="11.0189472186">
		<tag k="fixme" v="consider natural=peak for the most distinct mountains in the district" />
		<tag k="name" v="Torpåsen" />
		<tag k="natural" v="hill" />
		<tag k="place" v="locality" />
		<tag k="ssr:stedsnr" v="847888" />
	</node>
	<node id="-6634" lat="59.2039916661" lon="10.8212833307">
		<tag k="fixme" v="consider natural=peak for the most distinct mountains in the district" />
		<tag k="name" v="Kirkeberget" />
		<tag k="natural" v="hill" />
		<tag k="place" v="locality" />
		<tag k="ssr:stedsnr" v="176018" />
	</node>
	<node id="-7655" lat="59.2782166674" lon="10.8628777833">
		<tag k="fixme" v="consider natural=peak for the most distinct mountains in the district" />
		<tag k="name" v="Kalvås" />
		<tag k="natural" v="hill" />
		<tag k="place" v="locality" />
		<tag k="ssr:stedsnr" v="846814" />
	</node>
	<node id="-7139" lat="59.2970416634" lon="10.8120638878">
		<tag k="fixme" v="consider natural=peak for the most distinct mountains in the district" />
		<tag k="name" v="Solbergåsen" />
		<tag k="natural" v="hill" />
		<tag k="place" v="locality" />
		<tag k="ssr:stedsnr" v="600128" />
	</node>
	<node id="-7137" lat="59.2226361111" lon="11.017963896">
		<tag k="name" v="Påleberget" />
		<tag k="natural" v="hill" />
		<tag k="place" v="locality" />
		<tag k="ssr:stedsnr" v="599728" />
	</node>
	<node id="-7647" lat="59.2007500016" lon="11.0084055513">
		<tag k="name" v="Klokkerfjellet" />
		<tag k="natural" v="hill" />
		<tag k="place" v="locality" />
		<tag k="ssr:stedsnr" v="845841" />
	</node>
	<node id="-6106" lat="59.2152222237" lon="10.8127194365">
		<tag k="fixme" v="consider natural=peak for the most distinct mountains in the district" />
		<tag k="name" v="Knipsungen" />
		<tag k="natural" v="hill" />
		<tag k="place" v="locality" />
		<tag k="ssr:stedsnr" v="305311" />
	</node>
	<node id="-7640" lat="59.161552776" lon="11.0522694441">
		<tag k="name" v="Vestre Grandalen" />
		<tag k="natural" v="valley" />
		<tag k="place" v="locality" />
		<tag k="ssr:stedsnr" v="845682" />
	</node>
	<node id="-7636" lat="59.3001999957" lon="10.9588861187">
		<tag k="name" v="Grettelandsdalen" />
		<tag k="natural" v="valley" />
		<tag k="place" v="locality" />
		<tag k="ssr:stedsnr" v="845109" />
	</node>
	<node id="-6096" lat="59.2361222214" lon="10.8718361105">
		<tag k="fixme" v="consider natural=peak for the most distinct mountains in the district" />
		<tag k="name" v="Vetaberget" />
		<tag k="natural" v="hill" />
		<tag k="place" v="locality" />
		<tag k="ssr:stedsnr" v="304256" />
	</node>
	<node id="-7623" lat="59.2038361153" lon="10.8079111142">
		<tag k="fixme" v="consider natural=peak for the most distinct mountains in the district" />
		<tag k="name" v="Lensmannsfjellet" />
		<tag k="natural" v="hill" />
		<tag k="place" v="locality" />
		<tag k="ssr:stedsnr" v="844020" />
	</node>
	<node id="-6078" lat="59.2679499961" lon="10.8871805632">
		<tag k="fixme" v="consider natural=peak for the most distinct mountains in the district" />
		<tag k="name" v="Flaskeberget" />
		<tag k="natural" v="hill" />
		<tag k="place" v="locality" />
		<tag k="ssr:stedsnr" v="299821" />
	</node>
	<node id="-6730" lat="59.2225055528" lon="10.9654722282">
		<tag k="fixme" v="consider natural=peak for the most distinct mountains in the district" />
		<tag k="name" v="Lislebyfjellet" />
		<tag k="natural" v="hill" />
		<tag k="place" v="locality" />
		<tag k="ssr:stedsnr" v="236478" />
	</node>
	<node id="-7098" lat="59.1766499975" lon="11.0473250085">
		<tag k="fixme" v="consider natural=peak for the most distinct mountains in the district" />
		<tag k="name" v="Petteråsen" />
		<tag k="natural" v="hill" />
		<tag k="place" v="locality" />
		<tag k="ssr:stedsnr" v="548669" />
	</node>
	<node id="-6580" lat="59.204849997" lon="10.7864750052">
		<tag k="fixme" v="consider natural=peak for the most distinct mountains in the district" />
		<tag k="name" v="Håbogen" />
		<tag k="natural" v="hill" />
		<tag k="place" v="locality" />
		<tag k="ssr:stedsnr" v="123311" />
	</node>
	<node id="-7602" lat="59.2284444423" lon="10.6842888805">
		<tag k="name" v="Svarteberget" />
		<tag k="natural" v="cliff" />
		<tag k="ssr:stedsnr" v="813796" />
	</node>
	<node id="-7599" lat="59.171541668" lon="11.0702861059">
		<tag k="fixme" v="consider natural=peak for the most distinct mountains in the district" />
		<tag k="name" v="Hansåsen" />
		<tag k="natural" v="hill" />
		<tag k="place" v="locality" />
		<tag k="ssr:stedsnr" v="811438" />
	</node>
	<node id="-7598" lat="59.1743861072" lon="11.0712305494">
		<tag k="fixme" v="consider natural=peak for the most distinct mountains in the district" />
		<tag k="name" v="Dalåsen" />
		<tag k="natural" v="hill" />
		<tag k="place" v="locality" />
		<tag k="ssr:stedsnr" v="811436" />
	</node>
	<node id="-6061" lat="59.2119444422" lon="10.9037944512">
		<tag k="fixme" v="consider natural=peak for the most distinct mountains in the district" />
		<tag k="name" v="Lenafjellet" />
		<tag k="natural" v="hill" />
		<tag k="place" v="locality" />
		<tag k="ssr:stedsnr" v="297844" />
	</node>
	<node id="-6571" lat="59.2359999994" lon="10.7582500004">
		<tag k="fixme" v="consider natural=peak for the most distinct mountains in the district" />
		<tag k="name" v="Kollen" />
		<tag k="natural" v="hill" />
		<tag k="place" v="locality" />
		<tag k="ssr:stedsnr" v="122290" />
	</node>
	<node id="-6057" lat="59.205280553" lon="11.0005972215">
		<tag k="fixme" v="consider natural=peak for the most distinct mountains in the district" />
		<tag k="name" v="Haugstenåsen" />
		<tag k="natural" v="hill" />
		<tag k="place" v="locality" />
		<tag k="ssr:stedsnr" v="297752" />
	</node>
	<node id="-7080" lat="59.2173388876" lon="10.8063666583">
		<tag k="fixme" v="consider natural=peak for the most distinct mountains in the district" />
		<tag k="name" v="Onsøyknipen" />
		<tag k="natural" v="hill" />
		<tag k="place" v="locality" />
		<tag k="ssr:stedsnr" v="547329" />
	</node>
	<node id="-7078" lat="59.2364222214" lon="11.0702972271">
		<tag k="fixme" v="consider natural=peak for the most distinct mountains in the district" />
		<tag k="name" v="Vetatoppen" />
		<tag k="natural" v="hill" />
		<tag k="place" v="locality" />
		<tag k="ssr:stedsnr" v="547307" />
	</node>
	<node id="-6050" lat="59.2195972251" lon="10.9563666666">
		<tag k="fixme" v="consider natural=peak for the most distinct mountains in the district" />
		<tag k="name" v="Bratthammeren" />
		<tag k="natural" v="hill" />
		<tag k="place" v="locality" />
		<tag k="ssr:stedsnr" v="297482" />
	</node>
	<node id="-6558" lat="59.1919527765" lon="11.044883337">
		<tag k="fixme" v="consider natural=peak for the most distinct mountains in the district" />
		<tag k="name" v="Lyarkollen" />
		<tag k="natural" v="hill" />
		<tag k="place" v="locality" />
		<tag k="ssr:stedsnr" v="117827" />
	</node>
	<node id="-7065" lat="59.2431611137" lon="10.8938222226">
		<tag k="fixme" v="consider natural=peak for the most distinct mountains in the district" />
		<tag k="name" v="Skåratoppen" />
		<tag k="natural" v="hill" />
		<tag k="place" v="locality" />
		<tag k="ssr:stedsnr" v="542835" />
	</node>
	<node id="-6039" lat="59.1983583352" lon="10.9132833283">
		<tag k="fixme" v="consider natural=peak for the most distinct mountains in the district" />
		<tag k="name" v="Åkerberget" />
		<tag k="natural" v="hill" />
		<tag k="place" v="locality" />
		<tag k="ssr:stedsnr" v="297235" />
	</node>
	<node id="-7062" lat="59.2623944435" lon="10.8856611166">
		<tag k="fixme" v="consider natural=peak for the most distinct mountains in the district" />
		<tag k="name" v="Brusås" />
		<tag k="natural" v="hill" />
		<tag k="place" v="locality" />
		<tag k="ssr:stedsnr" v="542795" />
	</node>
	<node id="-6041" lat="59.2456638872" lon="10.8286944457">
		<tag k="name" v="Elinsberget" />
		<tag k="natural" v="hill" />
		<tag k="place" v="locality" />
		<tag k="ssr:stedsnr" v="297295" />
	</node>
	<node id="-6548" lat="59.249844442" lon="10.8869333271">
		<tag k="fixme" v="consider natural=peak for the most distinct mountains in the district" />
		<tag k="name" v="Borgåsen" />
		<tag k="natural" v="hill" />
		<tag k="place" v="locality" />
		<tag k="ssr:stedsnr" v="117192" />
	</node>
	<node id="-6026" lat="59.2618361123" lon="11.0644750021">
		<tag k="name" v="Holberget" />
		<tag k="natural" v="hill" />
		<tag k="place" v="locality" />
		<tag k="ssr:stedsnr" v="285878" />
	</node>
	<node id="-7048" lat="59.0979027778" lon="10.7826194447">
		<tag k="name" v="Raset" />
		<tag k="natural" v="cliff" />
		<tag k="ssr:stedsnr" v="540421" />
	</node>
	<node id="-6535" lat="59.1764694449" lon="11.0525000065">
		<tag k="name" v="Vabakken" />
		<tag k="natural" v="slope" />
		<tag k="place" v="locality" />
		<tag k="ssr:stedsnr" v="115438" />
	</node>
	<node id="-7038" lat="59.2085222262" lon="10.8138861096">
		<tag k="fixme" v="consider natural=peak for the most distinct mountains in the district" />
		<tag k="name" v="Skjellumsfjellet" />
		<tag k="natural" v="hill" />
		<tag k="place" v="locality" />
		<tag k="ssr:stedsnr" v="540033" />
	</node>
	<node id="-6525" lat="59.2882388869" lon="10.8088583364">
		<tag k="fixme" v="consider natural=peak for the most distinct mountains in the district" />
		<tag k="name" v="Solbergfjellet" />
		<tag k="natural" v="hill" />
		<tag k="place" v="locality" />
		<tag k="ssr:stedsnr" v="106110" />
	</node>
	<node id="-6524" lat="59.2049166674" lon="10.9088694396">
		<tag k="name" v="Rødsfjellet" />
		<tag k="natural" v="hill" />
		<tag k="place" v="locality" />
		<tag k="ssr:stedsnr" v="102940" />
	</node>
	<node id="-7033" lat="59.2175305555" lon="10.9355027729">
		<tag k="fixme" v="consider natural=peak for the most distinct mountains in the district" />
		<tag k="name" v="St. Hansfjellet" />
		<tag k="natural" v="hill" />
		<tag k="place" v="locality" />
		<tag k="ssr:stedsnr" v="539454" />
	</node>
	<node id="-7541" lat="59.2260472234" lon="11.0760472238">
		<tag k="fixme" v="consider natural=peak for the most distinct mountains in the district" />
		<tag k="name" v="Ramnefjellet" />
		<tag k="natural" v="hill" />
		<tag k="place" v="locality" />
		<tag k="ssr:stedsnr" v="790241" />
	</node>
	<node id="-7540" lat="59.2131638867" lon="10.946872223">
		<tag k="name" v="Dammyrfjellet" />
		<tag k="natural" v="hill" />
		<tag k="place" v="locality" />
		<tag k="ssr:stedsnr" v="787000" />
	</node>
	<node id="-6513" lat="59.1768305526" lon="11.0549861122">
		<tag k="fixme" v="consider natural=peak for the most distinct mountains in the district" />
		<tag k="name" v="Svarteberget" />
		<tag k="natural" v="hill" />
		<tag k="place" v="locality" />
		<tag k="ssr:stedsnr" v="83447" />
	</node>
	<node id="-6512" lat="59.1507361097" lon="11.0774527735">
		<tag k="name" v="Rasdalen" />
		<tag k="natural" v="valley" />
		<tag k="place" v="locality" />
		<tag k="ssr:stedsnr" v="83417" />
	</node>
	<node id="-6510" lat="59.2504277767" lon="11.1167277846">
		<tag k="alt_name" v="Molteberg nordre" />
		<tag k="name" v="Nordre Molteberg" />
		<tag k="natural" v="hill" />
		<tag k="place" v="locality" />
		<tag k="ssr:stedsnr" v="83163" />
	</node>
	<node id="-7143" lat="59.1825472185" lon="10.9315833377">
		<tag k="name" v="Holtevarden" />
		<tag k="natural" v="hill" />
		<tag k="place" v="locality" />
		<tag k="ssr:stedsnr" v="600313" />
	</node>
	<node id="-7528" lat="59.2733000018" lon="10.9370194492">
		<tag k="fixme" v="consider natural=peak for the most distinct mountains in the district" />
		<tag k="name" v="Borgåsen" />
		<tag k="natural" v="hill" />
		<tag k="place" v="locality" />
		<tag k="ssr:stedsnr" v="785804" />
	</node>
	<node id="-7527" lat="59.2676083342" lon="10.883441662">
		<tag k="fixme" v="consider natural=peak for the most distinct mountains in the district" />
		<tag k="name" v="Stangeberget" />
		<tag k="natural" v="hill" />
		<tag k="place" v="locality" />
		<tag k="ssr:stedsnr" v="785790" />
	</node>
	<node id="-7521" lat="59.2953472223" lon="10.8759305581">
		<tag k="name" v="Katrineklova" />
		<tag k="natural" v="valley" />
		<tag k="place" v="locality" />
		<tag k="ssr:stedsnr" v="784919" />
	</node>
	<node id="-6482" lat="59.1975999998" lon="10.9269166697">
		<tag k="name" v="Ulvedalen" />
		<tag k="natural" v="valley" />
		<tag k="place" v="locality" />
		<tag k="ssr:stedsnr" v="62310" />
	</node>
	<node id="-6475" lat="59.2673111118" lon="10.976738887">
		<tag k="fixme" v="consider natural=peak for the most distinct mountains in the district" />
		<tag k="name" v="Borgeåshatten" />
		<tag k="natural" v="hill" />
		<tag k="place" v="locality" />
		<tag k="ssr:stedsnr" v="58873" />
	</node>
	<node id="-6474" lat="59.2364749975" lon="11.0486027738">
		<tag k="fixme" v="consider natural=peak for the most distinct mountains in the district" />
		<tag k="name" v="Ravneberget" />
		<tag k="natural" v="hill" />
		<tag k="place" v="locality" />
		<tag k="ssr:stedsnr" v="58770" />
	</node>
	<node id="-6625" lat="59.236666663" lon="10.9906194401">
		<tag k="name" v="Nøklebyberget" />
		<tag k="natural" v="hill" />
		<tag k="place" v="locality" />
		<tag k="ssr:stedsnr" v="161446" />
	</node>
	<node id="-6977" lat="59.2173277761" lon="10.8321722221">
		<tag k="fixme" v="consider natural=peak for the most distinct mountains in the district" />
		<tag k="name" v="Lasselifjellet" />
		<tag k="natural" v="hill" />
		<tag k="place" v="locality" />
		<tag k="ssr:stedsnr" v="486322" />
	</node>
	<node id="-7488" lat="59.2078250008" lon="11.0143916611">
		<tag k="fixme" v="consider natural=peak for the most distinct mountains in the district" />
		<tag k="name" v="Ravneberget" />
		<tag k="natural" v="hill" />
		<tag k="place" v="locality" />
		<tag k="ssr:stedsnr" v="782477" />
	</node>
	<node id="-6975" lat="59.2338472204" lon="10.9476500004">
		<tag k="name" v="Oredalen" />
		<tag k="natural" v="valley" />
		<tag k="place" v="locality" />
		<tag k="ssr:stedsnr" v="486275" />
	</node>
	<node id="-6974" lat="59.2243472182" lon="10.8127111088">
		<tag k="fixme" v="consider natural=peak for the most distinct mountains in the district" />
		<tag k="name" v="Østento" />
		<tag k="natural" v="hill" />
		<tag k="place" v="locality" />
		<tag k="ssr:stedsnr" v="486260" />
	</node>
	<node id="-6963" lat="59.1977888864" lon="11.0011222154">
		<tag k="name" v="Svarteklova" />
		<tag k="natural" v="valley" />
		<tag k="place" v="locality" />
		<tag k="ssr:stedsnr" v="481826" />
	</node>
	<node id="-6962" lat="59.2546111131" lon="10.8502222169">
		<tag k="fixme" v="consider natural=peak for the most distinct mountains in the district" />
		<tag k="name" v="Kirkeberget" />
		<tag k="natural" v="hill" />
		<tag k="place" v="locality" />
		<tag k="ssr:stedsnr" v="481771" />
	</node>
	<node id="-6024" lat="59.2500194428" lon="11.0114444455">
		<tag k="name" v="Ombergfjellet" />
		<tag k="natural" v="hill" />
		<tag k="place" v="locality" />
		<tag k="ssr:stedsnr" v="282110" />
	</node>
	<node id="-7465" lat="59.2265055517" lon="10.7733638927">
		<tag k="fixme" v="consider natural=peak for the most distinct mountains in the district" />
		<tag k="name" v="Suberget" />
		<tag k="natural" v="hill" />
		<tag k="place" v="locality" />
		<tag k="ssr:stedsnr" v="756818" />
	</node>
	<node id="-7462" lat="59.2405944427" lon="10.7633861098">
		<tag k="name" v="Prekestolen" />
		<tag k="natural" v="hill" />
		<tag k="place" v="locality" />
		<tag k="ssr:stedsnr" v="752805" />
	</node>
	<node id="-7460" lat="59.1692972216" lon="11.0981555606">
		<tag k="name" v="Ma" />
		<tag k="place" v="locality" />
		<tag k="ssr:stedsnr" v="750456" />
	</node>
	<node id="-6936" lat="59.2536972192" lon="10.7309777764">
		<tag k="fixme" v="consider natural=peak for the most distinct mountains in the district" />
		<tag k="name" v="Guleberget" />
		<tag k="natural" v="hill" />
		<tag k="place" v="locality" />
		<tag k="ssr:stedsnr" v="453800" />
	</node>
	<node id="-6926" lat="59.1680222243" lon="11.0809166647">
		<tag k="fixme" v="consider natural=peak for the most distinct mountains in the district" />
		<tag k="name" v="Brekkåsen" />
		<tag k="natural" v="hill" />
		<tag k="place" v="locality" />
		<tag k="ssr:stedsnr" v="447447" />
	</node>
	<node id="-6413" lat="59.1550555564" lon="11.075633331">
		<tag k="name" v="Toseryggen" />
		<tag k="natural" v="ridge" />
		<tag k="place" v="locality" />
		<tag k="ssr:stedsnr" v="22393" />
	</node>
	<node id="-6410" lat="59.2532388921" lon="11.0891583252">
		<tag k="name" v="Brudalen" />
		<tag k="natural" v="valley" />
		<tag k="place" v="locality" />
		<tag k="ssr:stedsnr" v="22053" />
	</node>
	<node id="-6910" lat="59.1398222221" lon="11.0491444427">
		<tag k="fixme" v="multiple name tags, choose one and add the other to alt_name; consider natural=peak for the most distinct mountains in the district" />
		<tag k="name" v="Hvalås;Vardefjellet" />
		<tag k="natural" v="hill" />
		<tag k="place" v="locality" />
		<tag k="ssr:stedsnr" v="427694" />
	</node>
	<node id="-7417" lat="59.2617055594" lon="10.9768333326">
		<tag k="name" v="Borredalen" />
		<tag k="natural" v="valley" />
		<tag k="place" v="locality" />
		<tag k="ssr:stedsnr" v="726962" />
	</node>
	<node id="-7415" lat="59.245727775" lon="11.0175750086">
		<tag k="name" v="Torpeberget" />
		<tag k="natural" v="hill" />
		<tag k="place" v="locality" />
		<tag k="ssr:stedsnr" v="726879" />
	</node>
	<node id="-7413" lat="59.2402888928" lon="10.9567277804">
		<tag k="fixme" v="consider natural=peak for the most distinct mountains in the district" />
		<tag k="name" v="Høyfjell" />
		<tag k="natural" v="hill" />
		<tag k="place" v="locality" />
		<tag k="ssr:stedsnr" v="726870" />
	</node>
	<node id="-7404" lat="59.2441361151" lon="10.9131472214">
		<tag k="fixme" v="consider natural=peak for the most distinct mountains in the district" />
		<tag k="name" v="Korpeknotten" />
		<tag k="natural" v="hill" />
		<tag k="place" v="locality" />
		<tag k="ssr:stedsnr" v="724856" />
	</node>
	<node id="-6378" lat="59.2197333371" lon="10.9616666649">
		<tag k="fixme" v="consider natural=peak for the most distinct mountains in the district" />
		<tag k="name" v="Kjæråsen" />
		<tag k="natural" v="hill" />
		<tag k="place" v="locality" />
		<tag k="ssr:stedsnr" v="1315" />
	</node>
	<node id="-6376" lat="59.2112166704" lon="10.7768249988">
		<tag k="fixme" v="consider natural=peak for the most distinct mountains in the district" />
		<tag k="name" v="Bloksberg" />
		<tag k="natural" v="hill" />
		<tag k="place" v="locality" />
		<tag k="ssr:stedsnr" v="1311" />
	</node>
	<node id="-6268" lat="59.2136916692" lon="10.8837444533">
		<tag k="name" v="Volleberget" />
		<tag k="natural" v="ridge" />
		<tag k="place" v="locality" />
		<tag k="ssr:stedsnr" v="236829" />
	</node>
	<node id="-6886" lat="59.2208583308" lon="10.8694388919">
		<tag k="alt_name" v="Sprinkelen" />
		<tag k="fixme" v="consider natural=peak for the most distinct mountains in the district" />
		<tag k="name" v="Sprinkelet" />
		<tag k="natural" v="hill" />
		<tag k="ssr:stedsnr" v="426244" />
	</node>
	<node id="-6885" lat="59.2085888878" lon="10.9345777859">
		<tag k="name" v="Eskildsfjellet" />
		<tag k="natural" v="hill" />
		<tag k="place" v="locality" />
		<tag k="ssr:stedsnr" v="423989" />
	</node>
	<node id="-7396" lat="59.2743305559" lon="10.8417805517">
		<tag k="fixme" v="consider natural=peak for the most distinct mountains in the district" />
		<tag k="name" v="Blåbærberget" />
		<tag k="natural" v="hill" />
		<tag k="place" v="locality" />
		<tag k="ssr:stedsnr" v="724815" />
	</node>
	<node id="-6883" lat="59.2486083356" lon="10.9452972229">
		<tag k="fixme" v="consider natural=peak for the most distinct mountains in the district" />
		<tag k="name" v="Krikenåsen" />
		<tag k="natural" v="hill" />
		<tag k="place" v="locality" />
		<tag k="ssr:stedsnr" v="422885" />
	</node>
	<node id="-6880" lat="59.2409305567" lon="10.9511194358">
		<tag k="name" v="Renna" />
		<tag k="natural" v="valley" />
		<tag k="place" v="locality" />
		<tag k="ssr:stedsnr" v="422869" />
	</node>
	<node id="-6878" lat="59.261008337" lon="11.0007055627">
		<tag k="name" v="Kirkeberget" />
		<tag k="natural" v="hill" />
		<tag k="place" v="locality" />
		<tag k="ssr:stedsnr" v="422010" />
	</node>
	<node id="-6877" lat="59.2935444429" lon="10.8620305594">
		<tag k="fixme" v="consider natural=peak for the most distinct mountains in the district" />
		<tag k="name" v="Røsåberget" />
		<tag k="natural" v="hill" />
		<tag k="place" v="locality" />
		<tag k="ssr:stedsnr" v="421850" />
	</node>
	<node id="-6868" lat="59.1971694411" lon="11.0540583271">
		<tag k="fixme" v="consider natural=peak for the most distinct mountains in the district" />
		<tag k="name" v="Fuglenebbåsen" />
		<tag k="natural" v="hill" />
		<tag k="place" v="locality" />
		<tag k="ssr:stedsnr" v="420836" />
	</node>
	<node id="-6867" lat="59.1927472261" lon="11.0106833396">
		<tag k="name" v="Skremmelia" />
		<tag k="natural" v="slope" />
		<tag k="place" v="locality" />
		<tag k="ssr:stedsnr" v="420819" />
	</node>
	<node id="-7375" lat="59.2071805531" lon="10.9192944403">
		<tag k="fixme" v="consider natural=peak for the most distinct mountains in the district" />
		<tag k="name" v="Åsgårdsvarden" />
		<tag k="natural" v="hill" />
		<tag k="place" v="locality" />
		<tag k="ssr:stedsnr" v="722241" />
	</node>
	<node id="-7374" lat="59.1949388849" lon="10.935522214">
		<tag k="fixme" v="consider natural=peak for the most distinct mountains in the district" />
		<tag k="name" v="Svenskeberget" />
		<tag k="natural" v="hill" />
		<tag k="place" v="locality" />
		<tag k="ssr:stedsnr" v="722236" />
	</node>
	<node id="-7884" lat="59.2200126797" lon="10.8691021187">
		<tag k="fixme" v="consider natural=peak for the most distinct mountains in the district" />
		<tag k="name" v="Åleberget" />
		<tag k="natural" v="hill" />
		<tag k="place" v="locality" />
		<tag k="ssr:stedsnr" v="978124" />
	</node>
	<node id="-7371" lat="59.1982555545" lon="10.8042194475">
		<tag k="fixme" v="consider natural=peak for the most distinct mountains in the district" />
		<tag k="name" v="Vilbergtoppen" />
		<tag k="natural" v="hill" />
		<tag k="place" v="locality" />
		<tag k="ssr:stedsnr" v="722050" />
	</node>
	<node id="-7876" lat="59.2923777738" lon="10.9864972176">
		<tag k="fixme" v="consider natural=peak for the most distinct mountains in the district" />
		<tag k="name" v="Høydalsfjellet" />
		<tag k="natural" v="hill" />
		<tag k="place" v="locality" />
		<tag k="ssr:stedsnr" v="968060" />
	</node>
	<node id="-6850" lat="59.2099361156" lon="11.0160749945">
		<tag k="fixme" v="consider natural=peak for the most distinct mountains in the district" />
		<tag k="name" v="Svarteberget" />
		<tag k="natural" v="hill" />
		<tag k="place" v="locality" />
		<tag k="ssr:stedsnr" v="419497" />
	</node>
	<node id="-6842" lat="59.224061113" lon="10.9372416692">
		<tag k="fixme" v="consider natural=peak for the most distinct mountains in the district" />
		<tag k="name" v="Bjørnefjell" />
		<tag k="natural" v="hill" />
		<tag k="place" v="locality" />
		<tag k="ssr:stedsnr" v="418377" />
	</node>
	<node id="-7865" lat="59.212872221" lon="11.0465916622">
		<tag k="name" v="Gulliksdalen" />
		<tag k="natural" v="valley" />
		<tag k="place" v="locality" />
		<tag k="ssr:stedsnr" v="966580" />
	</node>
	<node id="-6840" lat="59.2217861128" lon="10.9124555575">
		<tag k="fixme" v="consider natural=peak for the most distinct mountains in the district" />
		<tag k="name" v="Galoppen" />
		<tag k="natural" v="hill" />
		<tag k="place" v="locality" />
		<tag k="ssr:stedsnr" v="418353" />
	</node>
	<node id="-7349" lat="59.2597111076" lon="11.081105559">
		<tag k="name" v="Gretnesdalen" />
		<tag k="natural" v="valley" />
		<tag k="place" v="locality" />
		<tag k="ssr:stedsnr" v="690053" />
	</node>
	<node id="-7348" lat="59.2079444411" lon="11.0604500045">
		<tag k="fixme" v="consider natural=peak for the most distinct mountains in the district" />
		<tag k="name" v="Heierenåsen" />
		<tag k="natural" v="hill" />
		<tag k="place" v="locality" />
		<tag k="ssr:stedsnr" v="690024" />
	</node>
	<node id="-6831" lat="59.1827777753" lon="10.8317749952">
		<tag k="fixme" v="consider natural=peak for the most distinct mountains in the district" />
		<tag k="name" v="Krittberget" />
		<tag k="natural" v="hill" />
		<tag k="place" v="locality" />
		<tag k="ssr:stedsnr" v="479679" />
	</node>
	<node id="-6827" lat="59.2657472267" lon="10.7474527751">
		<tag k="fixme" v="consider natural=peak for the most distinct mountains in the district" />
		<tag k="name" v="Holsberget" />
		<tag k="natural" v="hill" />
		<tag k="place" v="locality" />
		<tag k="ssr:stedsnr" v="267824" />
	</node>
	<node id="-6821" lat="59.2530861147" lon="11.1159166676">
		<tag k="name" v="Berget" />
		<tag k="natural" v="hill" />
		<tag k="place" v="locality" />
		<tag k="ssr:stedsnr" v="265187" />
	</node>
	<node id="-6815" lat="59.2585416679" lon="11.1032638963">
		<tag k="fixme" v="consider natural=peak for the most distinct mountains in the district" />
		<tag k="name" v="Årumfjellet" />
		<tag k="natural" v="hill" />
		<tag k="place" v="locality" />
		<tag k="ssr:stedsnr" v="265059" />
	</node>
	<node id="-6808" lat="59.2642972244" lon="10.9196111055">
		<tag k="fixme" v="consider natural=peak for the most distinct mountains in the district" />
		<tag k="name" v="Vesterfjellet" />
		<tag k="natural" v="hill" />
		<tag k="place" v="locality" />
		<tag k="ssr:stedsnr" v="246120" />
	</node>
	<node id="-6287" lat="59.2941722236" lon="10.8001472242">
		<tag k="name" v="Pirakken" />
		<tag k="natural" v="ridge" />
		<tag k="place" v="locality" />
		<tag k="ssr:stedsnr" v="479119" />
	</node>
	<node id="-7309" lat="59.1887861132" lon="11.0221277705">
		<tag k="alt_name" v="Varden" />
		<tag k="fixme" v="consider natural=peak for the most distinct mountains in the district" />
		<tag k="name" v="Vardenibba" />
		<tag k="natural" v="hill" />
		<tag k="place" v="locality" />
		<tag k="ssr:stedsnr" v="669291" />
	</node>
	<node id="-7301" lat="59.2580388911" lon="10.9904972217">
		<tag k="name" v="Rådalen" />
		<tag k="natural" v="valley" />
		<tag k="place" v="locality" />
		<tag k="ssr:stedsnr" v="665883" />
	</node>
	<node id="-7300" lat="59.2495305525" lon="11.0501555538">
		<tag k="fixme" v="consider natural=peak for the most distinct mountains in the district" />
		<tag k="name" v="Gudmundsberget" />
		<tag k="natural" v="hill" />
		<tag k="place" v="locality" />
		<tag k="ssr:stedsnr" v="665775" />
	</node>
	<node id="-6781" lat="59.2016083301" lon="11.0323083341">
		<tag k="fixme" v="consider natural=peak for the most distinct mountains in the district" />
		<tag k="name" v="Grimstadåsen" />
		<tag k="natural" v="hill" />
		<tag k="place" v="locality" />
		<tag k="ssr:stedsnr" v="244330" />
	</node>
	<node id="-6780" lat="59.1935194418" lon="10.9167055549">
		<tag k="fixme" v="consider natural=peak for the most distinct mountains in the district" />
		<tag k="name" v="Enhusfjellet" />
		<tag k="natural" v="hill" />
		<tag k="place" v="locality" />
		<tag k="ssr:stedsnr" v="244325" />
	</node>
	<node id="-7529" lat="59.2399194416" lon="10.8868055521">
		<tag k="fixme" v="consider natural=peak for the most distinct mountains in the district" />
		<tag k="name" v="Lienfjell" />
		<tag k="natural" v="hill" />
		<tag k="place" v="locality" />
		<tag k="ssr:stedsnr" v="785833" />
	</node>
	<node id="-7281" lat="59.19721111" lon="10.8471166749">
		<tag k="alt_name" v="Valhallberget;Valhallåsen" />
		<tag k="fixme" v="consider natural=peak for the most distinct mountains in the district" />
		<tag k="name" v="Valhall" />
		<tag k="natural" v="hill" />
		<tag k="old_name" v="Vardeåsen" />
		<tag k="place" v="locality" />
		<tag k="ssr:stedsnr" v="663312" />
	</node>
	<node id="-7277" lat="59.2159888903" lon="10.8949277732">
		<tag k="name" v="Åledalen" />
		<tag k="natural" v="valley" />
		<tag k="place" v="locality" />
		<tag k="ssr:stedsnr" v="661860" />
	</node>
	<node id="-6761" lat="59.2373944451" lon="10.9717277757">
		<tag k="name" v="Kirkefjellet" />
		<tag k="natural" v="hill" />
		<tag k="place" v="locality" />
		<tag k="ssr:stedsnr" v="240876" />
	</node>
	<node id="-6759" lat="59.2469361073" lon="11.0534722158">
		<tag k="name" v="Bjørnesten" />
		<tag k="natural" v="hill" />
		<tag k="place" v="locality" />
		<tag k="ssr:stedsnr" v="240767" />
	</node>
	<node id="-7269" lat="59.1821222244" lon="10.9189388866">
		<tag k="fixme" v="consider natural=peak for the most distinct mountains in the district" />
		<tag k="name" v="Kariknatten" />
		<tag k="natural" v="hill" />
		<tag k="place" v="locality" />
		<tag k="ssr:stedsnr" v="661637" />
	</node>
	<node id="-6755" lat="59.2613861144" lon="10.8992916601">
		<tag k="name" v="Kjølberg" />
		<tag k="natural" v="hill" />
		<tag k="place" v="locality" />
		<tag k="ssr:stedsnr" v="239831" />
	</node>
	<node id="-6241" lat="59.1686583324" lon="10.9455472283">
		<tag k="fixme" v="consider natural=peak for the most distinct mountains in the district" />
		<tag k="name" v="Olavsåsen" />
		<tag k="natural" v="hill" />
		<tag k="place" v="locality" />
		<tag k="ssr:stedsnr" v="366679" />
	</node>
	<node id="-7261" lat="59.2094388902" lon="11.0133666737">
		<tag k="name" v="Bjørneklova" />
		<tag k="natural" v="valley" />
		<tag k="place" v="locality" />
		<tag k="ssr:stedsnr" v="661470" />
	</node>
	<node id="-6236" lat="59.1555999991" lon="10.9369027799">
		<tag k="alt_name" v="Breidfjellet" />
		<tag k="fixme" v="consider natural=peak for the most distinct mountains in the district" />
		<tag k="name" v="Breifjell" />
		<tag k="natural" v="hill" />
		<tag k="place" v="locality" />
		<tag k="ssr:stedsnr" v="366636" />
	</node>
	<node id="-7259" lat="59.2220583314" lon="10.9617666608">
		<tag k="fixme" v="consider natural=peak for the most distinct mountains in the district" />
		<tag k="name" v="Mørkedalen" />
		<tag k="natural" v="hill" />
		<tag k="place" v="locality" />
		<tag k="ssr:stedsnr" v="661465" />
	</node>
	<node id="-6228" lat="59.1912499982" lon="10.8135944502">
		<tag k="fixme" v="consider natural=peak for the most distinct mountains in the district" />
		<tag k="name" v="Blåsopp" />
		<tag k="natural" v="hill" />
		<tag k="place" v="locality" />
		<tag k="ssr:stedsnr" v="366387" />
	</node>
	<node id="-7250" lat="59.2752027809" lon="10.8251555562">
		<tag k="fixme" v="consider natural=peak for the most distinct mountains in the district" />
		<tag k="name" v="Bjørnåsfjellet" />
		<tag k="natural" v="hill" />
		<tag k="place" v="locality" />
		<tag k="ssr:stedsnr" v="661104" />
	</node>
	<node id="-7759" lat="59.2545444409" lon="11.0369694421">
		<tag k="name" v="Påskefjellet" />
		<tag k="natural" v="hill" />
		<tag k="place" v="locality" />
		<tag k="ssr:stedsnr" v="908900" />
	</node>
	<node id="-6220" lat="59.1892583377" lon="10.818188882">
		<tag k="fixme" v="consider natural=peak for the most distinct mountains in the district" />
		<tag k="name" v="Havneberget" />
		<tag k="natural" v="hill" />
		<tag k="place" v="locality" />
		<tag k="ssr:stedsnr" v="365388" />
	</node>
	<node id="-7754" lat="59.2888027799" lon="10.9883611197">
		<tag k="name" v="Rødsfjellet" />
		<tag k="natural" v="ridge" />
		<tag k="place" v="locality" />
		<tag k="ssr:stedsnr" v="908034" />
	</node>
	<node id="-7752" lat="59.2434249966" lon="10.9240833306">
		<tag k="fixme" v="consider natural=peak for the most distinct mountains in the district" />
		<tag k="name" v="Gluppefjellet" />
		<tag k="natural" v="hill" />
		<tag k="place" v="locality" />
		<tag k="ssr:stedsnr" v="906862" />
	</node>
	<node id="-7238" lat="59.226683329" lon="11.0049000054">
		<tag k="name" v="Kjølberg" />
		<tag k="natural" v="hill" />
		<tag k="place" v="locality" />
		<tag k="ssr:stedsnr" v="646434" />
	</node>
	<node id="-7749" lat="59.2835916683" lon="10.8601861113">
		<tag k="fixme" v="consider natural=peak for the most distinct mountains in the district" />
		<tag k="name" v="Partlefjellet" />
		<tag k="natural" v="hill" />
		<tag k="place" v="locality" />
		<tag k="ssr:stedsnr" v="906837" />
	</node>
	<node id="-6208" lat="59.2356472222" lon="10.7477499956">
		<tag k="alt_name" v="Stokkvikberget" />
		<tag k="fixme" v="consider natural=peak for the most distinct mountains in the district" />
		<tag k="name" v="Steggeberget" />
		<tag k="natural" v="hill" />
		<tag k="place" v="locality" />
		<tag k="ssr:stedsnr" v="365286" />
	</node>
	<node id="-6713" lat="59.1614305514" lon="11.0550999922">
		<tag k="name" v="Midtre Grandalen" />
		<tag k="natural" v="valley" />
		<tag k="place" v="locality" />
		<tag k="ssr:stedsnr" v="204868" />
	</node>
	<node id="-7730" lat="59.1099194417" lon="10.7670194522">
		<tag k="name" v="Hogget" />
		<tag k="natural" v="valley" />
		<tag k="place" v="locality" />
		<tag k="ssr:stedsnr" v="904429" />
	</node>
	<node id="-6705" lat="59.290811115" lon="10.910969446">
		<tag k="alt_name" v="Høyomfjellet" />
		<tag k="fixme" v="consider natural=peak for the most distinct mountains in the district" />
		<tag k="name" v="Høyumfjellet" />
		<tag k="natural" v="hill" />
		<tag k="place" v="locality" />
		<tag k="ssr:stedsnr" v="185370" />
	</node>
	<node id="-6237" lat="59.1546749959" lon="11.0550749955">
		<tag k="fixme" v="consider natural=peak for the most distinct mountains in the district" />
		<tag k="name" v="Blåsåsen" />
		<tag k="natural" v="hill" />
		<tag k="place" v="locality" />
		<tag k="ssr:stedsnr" v="366644" />
	</node>
	<node id="-6697" lat="59.1404999967" lon="11.0771472218">
		<tag k="fixme" v="consider natural=peak for the most distinct mountains in the district" />
		<tag k="name" v="Slottsfjellet" />
		<tag k="natural" v="hill" />
		<tag k="place" v="locality" />
		<tag k="ssr:stedsnr" v="184726" />
	</node>
	<node id="-6497" lat="59.1773166638" lon="11.0646055551">
		<tag k="fixme" v="consider natural=peak for the most distinct mountains in the district" />
		<tag k="name" v="Tose varde" />
		<tag k="natural" v="hill" />
		<tag k="old_name" v="Tosevarde" />
		<tag k="place" v="locality" />
		<tag k="ssr:stedsnr" v="63661" />
	</node>
	<node id="-6747" lat="59.2010500019" lon="10.9806638877">
		<tag k="fixme" v="consider natural=peak for the most distinct mountains in the district" />
		<tag k="name" v="Katrineborg" />
		<tag k="natural" v="hill" />
		<tag k="place" v="locality" />
		<tag k="ssr:stedsnr" v="238790" />
	</node>
	<node id="-7194" lat="59.2480194437" lon="10.7641138811">
		<tag k="fixme" v="consider natural=peak for the most distinct mountains in the district" />
		<tag k="name" v="Bråtaberget" />
		<tag k="natural" v="hill" />
		<tag k="place" v="locality" />
		<tag k="ssr:stedsnr" v="608518" />
	</node>
	<node id="-6681" lat="59.2064611071" lon="10.8340250017">
		<tag k="name" v="Geiteryggen" />
		<tag k="natural" v="ridge" />
		<tag k="place" v="locality" />
		<tag k="ssr:stedsnr" v="183312" />
	</node>
	<node id="-6676" lat="59.2321944458" lon="10.9483777697">
		<tag k="name" v="Bjørndalen" />
		<tag k="natural" v="valley" />
		<tag k="place" v="locality" />
		<tag k="ssr:stedsnr" v="183245" />
	</node>
	<node id="-6673" lat="59.2128416679" lon="10.9432805548">
		<tag k="name" v="Apenesberget" />
		<tag k="natural" v="hill" />
		<tag k="place" v="locality" />
		<tag k="ssr:stedsnr" v="180995" />
	</node>
	<node id="-6672" lat="59.2923361075" lon="10.9922555558">
		<tag k="fixme" v="consider natural=peak for the most distinct mountains in the district" />
		<tag k="name" v="Blåfjell" />
		<tag k="natural" v="hill" />
		<tag k="place" v="locality" />
		<tag k="ssr:stedsnr" v="180029" />
	</node>
	<node id="-6769" lat="59.1872222239" lon="10.8478722197">
		<tag k="fixme" v="consider natural=peak for the most distinct mountains in the district" />
		<tag k="name" v="Møklegårdsveten" />
		<tag k="natural" v="hill" />
		<tag k="place" v="locality" />
		<tag k="ssr:stedsnr" v="479416" />
	</node>
	<node id="-6667" lat="59.24050833" lon="10.9450638838">
		<tag k="name" v="Dølasletta" />
		<tag k="place" v="locality" />
		<tag k="ssr:stedsnr" v="179871" />
	</node>
	<node id="-7690" lat="59.1492277757" lon="10.9334638964">
		<tag k="fixme" v="consider natural=peak for the most distinct mountains in the district" />
		<tag k="name" v="Lunderamsa" />
		<tag k="natural" v="hill" />
		<tag k="place" v="locality" />
		<tag k="ssr:stedsnr" v="852626" />
	</node>
	<node id="-6660" lat="59.2933972233" lon="10.8742416654">
		<tag k="fixme" v="consider natural=peak for the most distinct mountains in the district" />
		<tag k="name" v="Burås" />
		<tag k="natural" v="hill" />
		<tag k="place" v="locality" />
		<tag k="ssr:stedsnr" v="177916" />
	</node>
</osm>
