<?xml version="1.0" encoding="UTF-8"?>
<osm generator="osmapis" version="0.6">
	<node id="-545248" lat="61.8467916688" lon="6.07884444599">
		<tag k="alt_name" v="Anden" />
		<tag k="name" v="Anden lykt" />
		<tag k="old_name" v="Anda lykt" />
		<tag k="ssr:date" v="2016-05-10" />
		<tag k="ssr:gruppe" v="navigasjon" />
		<tag k="ssr:hovedgruppe" v="infrastruktur" />
		<tag k="ssr:stedsnr" v="277126" />
		<tag k="ssr:type" v="fyrlykt" />
	</node>
	<node id="-545475" lat="61.7374451498" lon="6.41038692498">
		<tag k="name" v="Reflata" />
		<tag k="ssr:date" v="2019-05-31" />
		<tag k="ssr:gruppe" v="veg" />
		<tag k="ssr:hovedgruppe" v="infrastruktur" />
		<tag k="ssr:stedsnr" v="1053290" />
		<tag k="ssr:type" v="adressenavn" />
	</node>
	<node id="-545878" lat="61.7897083309" lon="5.96288054921">
		<tag k="name" v="Uranes" />
		<tag k="ssr:date" v="2016-05-10" />
		<tag k="ssr:gruppe" v="navigasjon" />
		<tag k="ssr:hovedgruppe" v="infrastruktur" />
		<tag k="ssr:stedsnr" v="41218" />
		<tag k="ssr:type" v="lanterne" />
	</node>
	<node id="-545490" lat="61.777291667" lon="6.21569165719">
		<tag k="name" v="Gloppen kommune" />
		<tag k="ssr:date" v="2016-05-10" />
		<tag k="ssr:gruppe" v="administrativeIndelinger" />
		<tag k="ssr:hovedgruppe" v="offentligAdministrasjon" />
		<tag k="ssr:stedsnr" v="388004" />
		<tag k="ssr:type" v="kommune" />
	</node>
	<node id="-546449" lat="61.8370027765" lon="5.99528055047">
		<tag k="name" v="Eikenes lanterne" />
		<tag k="ssr:date" v="2016-05-10" />
		<tag k="ssr:gruppe" v="navigasjon" />
		<tag k="ssr:hovedgruppe" v="infrastruktur" />
		<tag k="ssr:stedsnr" v="252612" />
		<tag k="ssr:type" v="lanterne" />
	</node>
	<node id="-545487" lat="61.7689581131" lon="6.22717813157">
		<tag k="name" v="Røysatunet" />
		<tag k="ssr:date" v="2019-05-31" />
		<tag k="ssr:gruppe" v="veg" />
		<tag k="ssr:hovedgruppe" v="infrastruktur" />
		<tag k="ssr:stedsnr" v="1053492" />
		<tag k="ssr:type" v="adressenavn" />
	</node>
	<node id="-545486" lat="61.7812038931" lon="6.11709507632">
		<tag k="name" v="Ramnestadvegen" />
		<tag k="ssr:date" v="2019-05-31" />
		<tag k="ssr:gruppe" v="veg" />
		<tag k="ssr:hovedgruppe" v="infrastruktur" />
		<tag k="ssr:stedsnr" v="1053413" />
		<tag k="ssr:type" v="adressenavn" />
	</node>
	<node id="-545485" lat="61.7567638157" lon="6.26057148049">
		<tag k="name" v="Eidsmona" />
		<tag k="ssr:date" v="2019-05-31" />
		<tag k="ssr:gruppe" v="veg" />
		<tag k="ssr:hovedgruppe" v="infrastruktur" />
		<tag k="ssr:stedsnr" v="1053356" />
		<tag k="ssr:type" v="adressenavn" />
	</node>
	<node id="-548012" lat="60.8816104596" lon="6.30047518531">
		<tag k="name" v="Vestlandet" />
		<tag k="ssr:date" v="2019-01-06" />
		<tag k="ssr:gruppe" v="administrativeIndelinger" />
		<tag k="ssr:hovedgruppe" v="offentligAdministrasjon" />
		<tag k="ssr:stedsnr" v="974777" />
		<tag k="ssr:type" v="annenAdministrativInndeling" />
	</node>
	<node id="-545483" lat="61.8164866527" lon="6.12766737542">
		<tag k="name" v="Apalset" />
		<tag k="ssr:date" v="2019-05-31" />
		<tag k="ssr:gruppe" v="veg" />
		<tag k="ssr:hovedgruppe" v="infrastruktur" />
		<tag k="ssr:stedsnr" v="1053511" />
		<tag k="ssr:type" v="adressenavn" />
	</node>
	<node id="-545482" lat="61.776640197" lon="6.21315157169">
		<tag k="name" v="Krånavegen" />
		<tag k="ssr:date" v="2019-05-31" />
		<tag k="ssr:gruppe" v="veg" />
		<tag k="ssr:hovedgruppe" v="infrastruktur" />
		<tag k="ssr:stedsnr" v="1053491" />
		<tag k="ssr:type" v="adressenavn" />
	</node>
	<node id="-545481" lat="61.7842036489" lon="6.19921196375">
		<tag k="name" v="Jovegen" />
		<tag k="ssr:date" v="2019-05-31" />
		<tag k="ssr:gruppe" v="veg" />
		<tag k="ssr:hovedgruppe" v="infrastruktur" />
		<tag k="ssr:stedsnr" v="1053487" />
		<tag k="ssr:type" v="adressenavn" />
	</node>
	<node id="-545480" lat="61.772832204" lon="6.20039242262">
		<tag k="name" v="Elvaneset" />
		<tag k="ssr:date" v="2019-05-31" />
		<tag k="ssr:gruppe" v="veg" />
		<tag k="ssr:hovedgruppe" v="infrastruktur" />
		<tag k="ssr:stedsnr" v="1053485" />
		<tag k="ssr:type" v="adressenavn" />
	</node>
	<node id="-545484" lat="61.7604641447" lon="6.24794006695">
		<tag k="name" v="Eidsfossen" />
		<tag k="ssr:date" v="2019-05-31" />
		<tag k="ssr:gruppe" v="veg" />
		<tag k="ssr:hovedgruppe" v="infrastruktur" />
		<tag k="ssr:stedsnr" v="1053350" />
		<tag k="ssr:type" v="adressenavn" />
	</node>
	<node id="-545478" lat="61.737355356" lon="6.40658749159">
		<tag k="name" v="Tinghaugen" />
		<tag k="ssr:date" v="2019-05-31" />
		<tag k="ssr:gruppe" v="veg" />
		<tag k="ssr:hovedgruppe" v="infrastruktur" />
		<tag k="ssr:stedsnr" v="1053284" />
		<tag k="ssr:type" v="adressenavn" />
	</node>
	<node id="-545477" lat="61.7723819131" lon="6.12734667855">
		<tag k="name" v="Rygg Øvre" />
		<tag k="ssr:date" v="2019-05-31" />
		<tag k="ssr:gruppe" v="veg" />
		<tag k="ssr:hovedgruppe" v="infrastruktur" />
		<tag k="ssr:stedsnr" v="1053295" />
		<tag k="ssr:type" v="adressenavn" />
	</node>
	<node id="-545476" lat="61.7770556107" lon="6.2212315099">
		<tag k="name" v="Høgenausen" />
		<tag k="ssr:date" v="2019-05-31" />
		<tag k="ssr:gruppe" v="veg" />
		<tag k="ssr:hovedgruppe" v="infrastruktur" />
		<tag k="ssr:stedsnr" v="1053292" />
		<tag k="ssr:type" v="adressenavn" />
	</node>
	<node id="-545479" lat="61.7434491469" lon="6.4824554614">
		<tag k="name" v="Holevegen" />
		<tag k="ssr:date" v="2019-05-31" />
		<tag k="ssr:gruppe" v="veg" />
		<tag k="ssr:hovedgruppe" v="infrastruktur" />
		<tag k="ssr:stedsnr" v="1053286" />
		<tag k="ssr:type" v="adressenavn" />
	</node>
</osm>
