<?xml version="1.0" encoding="UTF-8"?>
<osm generator="osmapis" version="0.6">
	<node id="-85503" lat="61.1279833293" lon="11.5973722286">
		<tag k="name" v="Haugtjennsmyra" />
		<tag k="natural" v="wetland" />
		<tag k="ssr:stedsnr" v="587874" />
	</node>
	<node id="-84990" lat="61.1553333328" lon="11.6741500048">
		<tag k="name" v="Paradismyra" />
		<tag k="natural" v="wetland" />
		<tag k="ssr:stedsnr" v="189131" />
	</node>
	<node id="-86013" lat="61.3642083305" lon="11.584011113">
		<tag k="name" v="Knubbræva" />
		<tag k="natural" v="scree" />
		<tag k="ssr:stedsnr" v="831956" />
	</node>
	<node id="-84650" lat="61.3544416676" lon="11.6930944504">
		<tag k="name" v="Stormyra" />
		<tag k="natural" v="wetland" />
		<tag k="ssr:stedsnr" v="7828" />
	</node>
	<node id="-86010" lat="61.2812416678" lon="11.4089472186">
		<tag k="name" v="Neveråsmyra" />
		<tag k="natural" v="wetland" />
		<tag k="ssr:stedsnr" v="831553" />
	</node>
	<node id="-84984" lat="61.1116583309" lon="11.5251944471">
		<tag k="landuse" v="meadow" />
		<tag k="name" v="Mælenga" />
		<tag k="ssr:stedsnr" v="180954" />
	</node>
	<node id="-84471" lat="61.0477305551" lon="11.4740249925">
		<tag k="name" v="Hyttmyra" />
		<tag k="natural" v="wetland" />
		<tag k="ssr:stedsnr" v="362843" />
	</node>
	<node id="-84470" lat="61.1048777783" lon="11.5495944492">
		<tag k="landuse" v="meadow" />
		<tag k="name" v="Storenga" />
		<tag k="ssr:stedsnr" v="362647" />
	</node>
	<node id="-86004" lat="61.1219027822" lon="11.1877250029">
		<tag k="name" v="Lekarmyra" />
		<tag k="natural" v="wetland" />
		<tag k="ssr:stedsnr" v="830950" />
	</node>
	<node id="-84979" lat="61.2847250011" lon="11.5691500043">
		<tag k="name" v="Vestre Jernskallia" />
		<tag k="place" v="locality" />
		<tag k="ssr:stedsnr" v="180784" />
	</node>
	<node id="-84977" lat="61.1058694422" lon="11.5490999907">
		<tag k="landuse" v="meadow" />
		<tag k="name" v="Rugsveenga" />
		<tag k="ssr:stedsnr" v="180630" />
	</node>
	<node id="-86000" lat="61.1221166699" lon="11.1978222297">
		<tag k="name" v="Lekarmyra" />
		<tag k="natural" v="wetland" />
		<tag k="ssr:stedsnr" v="830018" />
	</node>
	<node id="-84974" lat="61.2098583373" lon="11.5006416595">
		<tag k="name" v="Flåtåstømyra" />
		<tag k="natural" v="wetland" />
		<tag k="ssr:stedsnr" v="180562" />
	</node>
	<node id="-85997" lat="61.0423611151" lon="11.3162000079">
		<tag k="name" v="Almslåtten" />
		<tag k="place" v="locality" />
		<tag k="ssr:stedsnr" v="829178" />
	</node>
	<node id="-84971" lat="61.1040583311" lon="11.3263861067">
		<tag k="name" v="Holsmyra" />
		<tag k="natural" v="wetland" />
		<tag k="ssr:stedsnr" v="180496" />
	</node>
	<node id="-84903" lat="61.4484055587" lon="11.5399555616">
		<tag k="name" v="Strandmyra" />
		<tag k="natural" v="wetland" />
		<tag k="ssr:stedsnr" v="129183" />
	</node>
	<node id="-84968" lat="61.2858194484" lon="11.8107277712">
		<tag k="name" v="Lensmyra" />
		<tag k="natural" v="wetland" />
		<tag k="ssr:stedsnr" v="180474" />
	</node>
	<node id="-84967" lat="61.2920583291" lon="11.8083333347">
		<tag k="name" v="Langbakken" />
		<tag k="place" v="locality" />
		<tag k="ssr:stedsnr" v="180473" />
	</node>
	<node id="-85990" lat="61.2767638846" lon="11.8978750084">
		<tag k="alt_name" v="Svartåsmyra" />
		<tag k="name" v="Svartmyra" />
		<tag k="natural" v="wetland" />
		<tag k="ssr:stedsnr" v="797512" />
	</node>
	<node id="-84965" lat="61.2808472235" lon="11.8241888828">
		<tag k="name" v="Kalvmyra" />
		<tag k="natural" v="wetland" />
		<tag k="ssr:stedsnr" v="180470" />
	</node>
	<node id="-84962" lat="61.0749833378" lon="11.2801111091">
		<tag k="name" v="Lemyra" />
		<tag k="natural" v="wetland" />
		<tag k="ssr:stedsnr" v="180112" />
	</node>
	<node id="-84731" lat="61.2841249967" lon="11.8394638906">
		<tag k="name" v="Skaverntjennsmyra" />
		<tag k="natural" v="wetland" />
		<tag k="ssr:stedsnr" v="59479" />
	</node>
	<node id="-84960" lat="61.0624166663" lon="11.2633527817">
		<tag k="name" v="Vestre Tjennsmyra" />
		<tag k="natural" v="wetland" />
		<tag k="ssr:stedsnr" v="180110" />
	</node>
	<node id="-84959" lat="61.0916583333" lon="11.2777527788">
		<tag k="name" v="Fugl-lem-myra" />
		<tag k="natural" v="wetland" />
		<tag k="ssr:stedsnr" v="180083" />
	</node>
	<node id="-84986" lat="61.0455055558" lon="11.2594750031">
		<tag k="historic" v="shieling" />
		<tag k="name" v="Øvre Hummelnesvollene" />
		<tag k="place" v="locality" />
		<tag k="ssr:stedsnr" v="180987" />
	</node>
	<node id="-85327" lat="61.1804500034" lon="11.635749992">
		<tag k="name" v="Jonsmyra" />
		<tag k="natural" v="wetland" />
		<tag k="ssr:stedsnr" v="492327" />
	</node>
	<node id="-85156" lat="61.3009277779" lon="11.8777249908">
		<tag k="name" v="Langmyra" />
		<tag k="natural" v="wetland" />
		<tag k="ssr:stedsnr" v="251652" />
	</node>
	<node id="-84950" lat="61.2308527786" lon="11.7796527774">
		<tag k="name" v="Slåttmyra" />
		<tag k="natural" v="wetland" />
		<tag k="ssr:stedsnr" v="178504" />
	</node>
	<node id="-85972" lat="61.0970972264" lon="11.4733749925">
		<tag k="name" v="Bjørntjennkjølen" />
		<tag k="natural" v="wetland" />
		<tag k="ssr:stedsnr" v="797191" />
	</node>
	<node id="-84947" lat="61.1033138852" lon="11.4162861065">
		<tag k="name" v="Stormyra" />
		<tag k="natural" v="wetland" />
		<tag k="ssr:stedsnr" v="177463" />
	</node>
	<node id="-84434" lat="61.1070638887" lon="11.6288222183">
		<tag k="name" v="Sagmyra" />
		<tag k="natural" v="wetland" />
		<tag k="ssr:stedsnr" v="345863" />
	</node>
	<node id="-85923" lat="61.3972777768" lon="11.7090361104">
		<tag k="alt_name" v="Bjønnåskjølen" />
		<tag k="name" v="Bjørnåskjølen" />
		<tag k="natural" v="wetland" />
		<tag k="ssr:stedsnr" v="796121" />
	</node>
	<node id="-85967" lat="61.3202500026" lon="11.5629305649">
		<tag k="alt_name" v="Eldmyrene" />
		<tag k="name" v="Eldmyra" />
		<tag k="natural" v="wetland" />
		<tag k="ssr:stedsnr" v="796894" />
	</node>
	<node id="-84430" lat="61.0965611082" lon="11.4273722264">
		<tag k="name" v="Kulusvea" />
		<tag k="place" v="locality" />
		<tag k="ssr:stedsnr" v="344359" />
	</node>
	<node id="-85965" lat="61.3322750002" lon="11.5662305638">
		<tag k="name" v="Grasbekkjølen" />
		<tag k="natural" v="wetland" />
		<tag k="ssr:stedsnr" v="796887" />
	</node>
	<node id="-85964" lat="61.3283750042" lon="11.6770250079">
		<tag k="name" v="Moskjølen" />
		<tag k="natural" v="wetland" />
		<tag k="ssr:stedsnr" v="796878" />
	</node>
	<node id="-84425" lat="61.0560861103" lon="11.3531722298">
		<tag k="name" v="Hesthagen" />
		<tag k="place" v="locality" />
		<tag k="ssr:stedsnr" v="343205" />
	</node>
	<node id="-84936" lat="61.3757555586" lon="11.6668888897">
		<tag k="name" v="Hembrenna" />
		<tag k="place" v="locality" />
		<tag k="ssr:stedsnr" v="163963" />
	</node>
	<node id="-84423" lat="61.0491416651" lon="11.3126055469">
		<tag k="name" v="Offerstenen" />
		<tag k="natural" v="stone" />
		<tag k="ssr:stedsnr" v="343182" />
	</node>
	<node id="-85445" lat="61.1325749999" lon="11.2265361187">
		<tag k="name" v="Høymyra" />
		<tag k="natural" v="wetland" />
		<tag k="ssr:stedsnr" v="552514" />
	</node>
	<node id="-84419" lat="61.1269777769" lon="11.2852583261">
		<tag k="name" v="Saumyrene" />
		<tag k="natural" v="wetland" />
		<tag k="ssr:stedsnr" v="343008" />
	</node>
	<node id="-86236" lat="61.0934027737" lon="11.2923916588">
		<tag k="name" v="Øvre Sætermyra" />
		<tag k="natural" v="wetland" />
		<tag k="ssr:stedsnr" v="969097" />
	</node>
	<node id="-85063" lat="61.3947499982" lon="11.5607666692">
		<tag k="name" v="Marikåpmyrene" />
		<tag k="natural" v="wetland" />
		<tag k="ssr:stedsnr" v="224954" />
	</node>
	<node id="-85434" lat="61.1101138902" lon="11.4720388803">
		<tag k="name" v="Stormyra" />
		<tag k="natural" v="wetland" />
		<tag k="ssr:stedsnr" v="544968" />
	</node>
	<node id="-85663" lat="61.0825500045" lon="11.3219194358">
		<tag k="landuse" v="meadow" />
		<tag k="name" v="Kvernslåtten" />
		<tag k="ssr:stedsnr" v="665545" />
	</node>
	<node id="-85432" lat="61.1100388883" lon="11.5301999978">
		<tag k="landuse" v="meadow" />
		<tag k="name" v="Torinusenga" />
		<tag k="ssr:stedsnr" v="544962" />
	</node>
	<node id="-85943" lat="61.1575805572" lon="11.5007611083">
		<tag k="name" v="Grønnvollmyra" />
		<tag k="natural" v="wetland" />
		<tag k="ssr:stedsnr" v="796365" />
	</node>
	<node id="-85942" lat="61.1695027741" lon="11.6935000073">
		<tag k="name" v="Otteråsmyra" />
		<tag k="natural" v="wetland" />
		<tag k="ssr:stedsnr" v="796363" />
	</node>
	<node id="-84917" lat="61.3234472179" lon="11.8477333337">
		<tag k="alt_name" v="Bjønnhikjølen" />
		<tag k="name" v="Bjørnhikjølen" />
		<tag k="natural" v="wetland" />
		<tag k="ssr:stedsnr" v="129590" />
	</node>
	<node id="-85939" lat="61.1851999956" lon="11.6656250001">
		<tag k="name" v="Oteråsmyra" />
		<tag k="natural" v="wetland" />
		<tag k="ssr:stedsnr" v="796342" />
	</node>
	<node id="-84467" lat="61.02858889" lon="11.3657583252">
		<tag k="name" v="Djupmyra" />
		<tag k="natural" v="wetland" />
		<tag k="ssr:stedsnr" v="362264" />
	</node>
	<node id="-84910" lat="61.467269447" lon="11.7091999919">
		<tag k="name" v="Stormyra" />
		<tag k="natural" v="wetland" />
		<tag k="ssr:stedsnr" v="129237" />
	</node>
	<node id="-84381" lat="61.0991305571" lon="11.5116499916">
		<tag k="name" v="Nabbsetmyra" />
		<tag k="natural" v="wetland" />
		<tag k="ssr:stedsnr" v="311234" />
	</node>
	<node id="-85575" lat="61.3965305588" lon="11.5394722306">
		<tag k="alt_name" v="Kjøldmyrane" />
		<tag k="name" v="Kjøldemyrene" />
		<tag k="natural" v="wetland" />
		<tag k="ssr:stedsnr" v="614128" />
	</node>
	<node id="-85415" lat="61.3725583343" lon="11.4548972161">
		<tag k="name" v="Bukkmyra" />
		<tag k="natural" v="wetland" />
		<tag k="ssr:stedsnr" v="543740" />
	</node>
	<node id="-85413" lat="61.2662166681" lon="11.7039166657">
		<tag k="name" v="Følkrikkjølen" />
		<tag k="natural" v="wetland" />
		<tag k="ssr:stedsnr" v="541925" />
	</node>
	<node id="-84387" lat="61.230852774" lon="11.6129500082">
		<tag k="name" v="Storkjølen" />
		<tag k="natural" v="wetland" />
		<tag k="ssr:stedsnr" v="311395" />
	</node>
	<node id="-85917" lat="61.0966416693" lon="11.4673055523">
		<tag k="name" v="Brannsmyrkjølen" />
		<tag k="natural" v="wetland" />
		<tag k="ssr:stedsnr" v="787943" />
	</node>
	<node id="-85916" lat="61.1934583296" lon="11.6238999954">
		<tag k="name" v="Dugurdsmyra" />
		<tag k="natural" v="wetland" />
		<tag k="ssr:stedsnr" v="787847" />
	</node>
	<node id="-85915" lat="61.1882861157" lon="11.6508611063">
		<tag k="name" v="Stormyra" />
		<tag k="natural" v="wetland" />
		<tag k="ssr:stedsnr" v="787845" />
	</node>
	<node id="-84378" lat="61.141074997" lon="11.5876222298">
		<tag k="name" v="Krismekjølen" />
		<tag k="natural" v="wetland" />
		<tag k="ssr:stedsnr" v="311193" />
	</node>
	<node id="-84719" lat="61.0726333371" lon="11.3359583417">
		<tag k="name" v="Torvmyra" />
		<tag k="natural" v="wetland" />
		<tag k="ssr:stedsnr" v="56326" />
	</node>
	<node id="-85911" lat="61.3001916709" lon="11.8597055621">
		<tag k="name" v="Kutrøbekken" />
		<tag k="natural" v="wetland" />
		<tag k="ssr:stedsnr" v="787497" />
	</node>
	<node id="-84886" lat="61.0943083379" lon="11.4414277696">
		<tag k="name" v="Stormyra" />
		<tag k="natural" v="wetland" />
		<tag k="ssr:stedsnr" v="128458" />
	</node>
	<node id="-85657" lat="61.2169000036" lon="11.7687250035">
		<tag k="historic" v="shieling" />
		<tag k="name" v="Moldbergsætra" />
		<tag k="place" v="locality" />
		<tag k="ssr:stedsnr" v="664947" />
	</node>
	<node id="-85548" lat="61.1214750044" lon="11.519247221">
		<tag k="name" v="Jonasenga" />
		<tag k="place" v="locality" />
		<tag k="ssr:stedsnr" v="605956" />
	</node>
	<node id="-85906" lat="61.0964111084" lon="11.2873111057">
		<tag k="name" v="Endørmyra" />
		<tag k="natural" v="wetland" />
		<tag k="ssr:stedsnr" v="787083" />
	</node>
	<node id="-85904" lat="61.2274749982" lon="11.7544999993">
		<tag k="name" v="Stormyra" />
		<tag k="natural" v="wetland" />
		<tag k="ssr:stedsnr" v="786954" />
	</node>
	<node id="-85391" lat="61.2660944486" lon="11.8821999918">
		<tag k="name" v="Slåttmyra" />
		<tag k="natural" v="wetland" />
		<tag k="ssr:stedsnr" v="527500" />
	</node>
	<node id="-85902" lat="61.0641694451" lon="11.2738472242">
		<tag k="name" v="Østre Tjennsmyra" />
		<tag k="natural" v="wetland" />
		<tag k="ssr:stedsnr" v="786101" />
	</node>
	<node id="-85389" lat="61.2624722215" lon="11.8463750008">
		<tag k="name" v="Røsmyra" />
		<tag k="natural" v="wetland" />
		<tag k="ssr:stedsnr" v="527492" />
	</node>
	<node id="-85896" lat="61.1051972216" lon="11.4057388804">
		<tag k="name" v="Husmyra" />
		<tag k="natural" v="wetland" />
		<tag k="ssr:stedsnr" v="784480" />
	</node>
	<node id="-85893" lat="61.2135916679" lon="11.7718527694">
		<tag k="name" v="Prestmyra" />
		<tag k="natural" v="wetland" />
		<tag k="ssr:stedsnr" v="783924" />
	</node>
	<node id="-85892" lat="61.2595166685" lon="11.7810444408">
		<tag k="name" v="Tangen" />
		<tag k="place" v="locality" />
		<tag k="ssr:stedsnr" v="783905" />
	</node>
	<node id="-85377" lat="61.0539305568" lon="11.3414277833">
		<tag k="name" v="Kjøllmyra" />
		<tag k="natural" v="wetland" />
		<tag k="ssr:stedsnr" v="525231" />
	</node>
	<node id="-85887" lat="61.3112499989" lon="11.5037138981">
		<tag k="name" v="Bergsetmarka" />
		<tag k="place" v="locality" />
		<tag k="ssr:stedsnr" v="783512" />
	</node>
	<node id="-84347" lat="61.0485500011" lon="11.2829027849">
		<tag k="name" v="Sæterbrennene" />
		<tag k="place" v="locality" />
		<tag k="ssr:stedsnr" v="302143" />
	</node>
	<node id="-84856" lat="61.3548972216" lon="11.712411119">
		<tag k="name" v="Kjerringgnålkjølen" />
		<tag k="natural" v="wetland" />
		<tag k="ssr:stedsnr" v="120183" />
	</node>
	<node id="-85879" lat="61.1872444444" lon="11.6783666642">
		<tag k="name" v="Langmyra" />
		<tag k="natural" v="wetland" />
		<tag k="ssr:stedsnr" v="770917" />
	</node>
	<node id="-85878" lat="61.2895694446" lon="11.4214388825">
		<tag k="name" v="Gorosmyra" />
		<tag k="natural" v="wetland" />
		<tag k="ssr:stedsnr" v="770570" />
	</node>
	<node id="-85877" lat="61.2511138887" lon="11.8599972215">
		<tag k="name" v="Fuglesandmyra" />
		<tag k="natural" v="wetland" />
		<tag k="ssr:stedsnr" v="770482" />
	</node>
	<node id="-84850" lat="61.1339083346" lon="11.2444361042">
		<tag k="name" v="Rørmyra" />
		<tag k="natural" v="wetland" />
		<tag k="ssr:stedsnr" v="119246" />
	</node>
	<node id="-84558" lat="61.106855558" lon="11.1895083406">
		<tag k="name" v="Dalsmyra" />
		<tag k="natural" v="wetland" />
		<tag k="ssr:stedsnr" v="405939" />
	</node>
	<node id="-84843" lat="61.1007638862" lon="11.1750666719">
		<tag k="name" v="Lykkjemyra" />
		<tag k="natural" v="wetland" />
		<tag k="ssr:stedsnr" v="117922" />
	</node>
	<node id="-84842" lat="61.2731500031" lon="11.375827781">
		<tag k="name" v="Vassmyra" />
		<tag k="natural" v="wetland" />
		<tag k="ssr:stedsnr" v="117607" />
	</node>
	<node id="-85864" lat="61.1182027792" lon="11.1987472222">
		<tag k="name" v="Lekarmyrvollen" />
		<tag k="place" v="locality" />
		<tag k="ssr:stedsnr" v="768024" />
	</node>
	<node id="-85863" lat="61.1164083367" lon="11.2785583377">
		<tag k="name" v="Hole Almus sæterveg" />
		<tag k="place" v="locality" />
		<tag k="ssr:stedsnr" v="767006" />
	</node>
	<node id="-84324" lat="61.4327444474" lon="11.5826222141">
		<tag k="name" v="Heden" />
		<tag k="place" v="locality" />
		<tag k="ssr:stedsnr" v="284919" />
	</node>
	<node id="-85859" lat="61.0587333376" lon="11.4439222315">
		<tag k="name" v="Rørmyra" />
		<tag k="natural" v="wetland" />
		<tag k="ssr:stedsnr" v="749165" />
	</node>
	<node id="-84320" lat="61.1718083359" lon="11.2026388894">
		<tag k="name" v="Skynndalsmyrene" />
		<tag k="natural" v="wetland" />
		<tag k="ssr:stedsnr" v="284254" />
	</node>
	<node id="-85392" lat="61.2745500033" lon="11.4760472314">
		<tag k="landuse" v="meadow" />
		<tag k="name" v="Ormset" />
		<tag k="ssr:stedsnr" v="527575" />
	</node>
	<node id="-85854" lat="61.3103277784" lon="11.8657499908">
		<tag k="name" v="Rørmyra" />
		<tag k="natural" v="wetland" />
		<tag k="ssr:stedsnr" v="736592" />
	</node>
	<node id="-84562" lat="61.2937194427" lon="11.4154500067">
		<tag k="name" v="Marismyra" />
		<tag k="natural" v="wetland" />
		<tag k="ssr:stedsnr" v="406600" />
	</node>
	<node id="-84315" lat="61.1425666642" lon="11.220947224">
		<tag k="name" v="Rostad sæterskog" />
		<tag k="place" v="locality" />
		<tag k="ssr:stedsnr" v="283212" />
	</node>
	<node id="-84472" lat="61.1031166653" lon="11.4486194492">
		<tag k="name" v="Tjønnmyra" />
		<tag k="natural" v="wetland" />
		<tag k="ssr:stedsnr" v="362943" />
	</node>
	<node id="-84312" lat="61.0428694486" lon="11.3268138911">
		<tag k="name" v="Bjørnstadslåtten" />
		<tag k="place" v="locality" />
		<tag k="ssr:stedsnr" v="283160" />
	</node>
	<node id="-84310" lat="61.3274638907" lon="11.8105277809">
		<tag k="name" v="Brentbrenna" />
		<tag k="place" v="locality" />
		<tag k="ssr:stedsnr" v="282408" />
	</node>
	<node id="-85844" lat="61.4626361136" lon="11.6863833324">
		<tag k="fixme" v="multiple name tags, choose one and add the other to alt_name" />
		<tag k="name" v="Langengskjølen;Sutharankjølen" />
		<tag k="natural" v="wetland" />
		<tag k="ssr:stedsnr" v="736217" />
	</node>
	<node id="-84707" lat="61.1273499972" lon="11.3380027698">
		<tag k="name" v="Blikstadmarka" />
		<tag k="place" v="locality" />
		<tag k="ssr:stedsnr" v="55364" />
	</node>
	<node id="-84816" lat="61.0464777785" lon="11.3104833274">
		<tag k="historic" v="shieling" />
		<tag k="name" v="Rykinn" />
		<tag k="place" v="locality" />
		<tag k="ssr:stedsnr" v="101172" />
	</node>
	<node id="-84815" lat="61.2075055586" lon="11.1560777731">
		<tag k="name" v="Springarmyrene" />
		<tag k="natural" v="wetland" />
		<tag k="ssr:stedsnr" v="100778" />
	</node>
	<node id="-84814" lat="61.3337805596" lon="11.8243083309">
		<tag k="name" v="Langmoen" />
		<tag k="place" v="locality" />
		<tag k="ssr:stedsnr" v="100413" />
	</node>
	<node id="-84811" lat="61.0732999969" lon="11.3602194393">
		<tag k="name" v="Marka" />
		<tag k="place" v="locality" />
		<tag k="ssr:stedsnr" v="101356" />
	</node>
	<node id="-84619" lat="61.3967749988" lon="11.8035666622">
		<tag k="alt_name" v="Tøreggkjølen" />
		<tag k="name" v="Tørreggkjølen" />
		<tag k="natural" v="wetland" />
		<tag k="ssr:stedsnr" v="7143" />
	</node>
	<node id="-84798" lat="61.08712778" lon="11.520374996">
		<tag k="name" v="Lauvnubbmyra" />
		<tag k="natural" v="wetland" />
		<tag k="ssr:stedsnr" v="69179" />
	</node>
	<node id="-84797" lat="61.4398194431" lon="11.6027388904">
		<tag k="name" v="Halasbukjølen" />
		<tag k="natural" v="wetland" />
		<tag k="ssr:stedsnr" v="69178" />
	</node>
	<node id="-85308" lat="61.103852781" lon="11.5543138873">
		<tag k="name" v="Gammelstuenga" />
		<tag k="place" v="locality" />
		<tag k="ssr:stedsnr" v="484627" />
	</node>
	<node id="-85306" lat="61.0932666629" lon="11.2048583356">
		<tag k="landuse" v="meadow" />
		<tag k="name" v="Taraldsenga" />
		<tag k="ssr:stedsnr" v="484024" />
	</node>
	<node id="-85304" lat="61.0473444444" lon="11.2597638814">
		<tag k="historic" v="shieling" />
		<tag k="name" v="Nedre Hummelnesvollene" />
		<tag k="place" v="locality" />
		<tag k="ssr:stedsnr" v="483991" />
	</node>
	<node id="-85652" lat="61.0865138858" lon="11.2826305559">
		<tag k="landuse" v="meadow" />
		<tag k="name" v="Lushattgolvet" />
		<tag k="ssr:stedsnr" v="664091" />
	</node>
	<node id="-85299" lat="61.1283861123" lon="11.1886750071">
		<tag k="name" v="Brennmoen" />
		<tag k="place" v="locality" />
		<tag k="ssr:stedsnr" v="482951" />
	</node>
	<node id="-85809" lat="61.1727694485" lon="11.4272388854">
		<tag k="name" v="Ottersmyra" />
		<tag k="natural" v="wetland" />
		<tag k="ssr:stedsnr" v="735409" />
	</node>
	<node id="-85808" lat="61.1847916654" lon="11.1982777782">
		<tag k="name" v="Nytrøfløyet" />
		<tag k="natural" v="wetland" />
		<tag k="ssr:stedsnr" v="735400" />
	</node>
	<node id="-85295" lat="61.4360055583" lon="11.4533666735">
		<tag k="name" v="Åsmyra" />
		<tag k="natural" v="wetland" />
		<tag k="ssr:stedsnr" v="482293" />
	</node>
	<node id="-85294" lat="61.2522888904" lon="11.4319944531">
		<tag k="name" v="Rørmyra" />
		<tag k="natural" v="wetland" />
		<tag k="ssr:stedsnr" v="481000" />
	</node>
	<node id="-85290" lat="61.1704777751" lon="11.4831527753">
		<tag k="name" v="Tjukkrismyra" />
		<tag k="natural" v="wetland" />
		<tag k="ssr:stedsnr" v="480888" />
	</node>
	<node id="-85288" lat="61.3250972247" lon="11.3537722253">
		<tag k="name" v="Deset Vestli" />
		<tag k="place" v="locality" />
		<tag k="ssr:stedsnr" v="480862" />
	</node>
	<node id="-85287" lat="61.10311111" lon="11.1973138956">
		<tag k="name" v="Kampmyra" />
		<tag k="natural" v="wetland" />
		<tag k="ssr:stedsnr" v="480830" />
	</node>
	<node id="-84571" lat="61.1215694416" lon="11.2371638826">
		<tag k="name" v="Fossbekkfloen" />
		<tag k="natural" v="wetland" />
		<tag k="ssr:stedsnr" v="890017" />
	</node>
	<node id="-84854" lat="61.0883999965" lon="11.2487472186">
		<tag k="name" v="Smedslåtten" />
		<tag k="place" v="locality" />
		<tag k="ssr:stedsnr" v="120023" />
	</node>
	<node id="-85283" lat="61.107161108" lon="11.3679499911">
		<tag k="name" v="Bremersenga" />
		<tag k="place" v="locality" />
		<tag k="ssr:stedsnr" v="480511" />
	</node>
	<node id="-84721" lat="61.0861888882" lon="11.2942083384">
		<tag k="name" v="Pentzsvea" />
		<tag k="place" v="locality" />
		<tag k="ssr:stedsnr" v="57095" />
	</node>
	<node id="-85281" lat="61.1088111086" lon="11.4241388979">
		<tag k="name" v="Midtstykket" />
		<tag k="place" v="locality" />
		<tag k="ssr:stedsnr" v="480446" />
	</node>
	<node id="-85381" lat="61.1478222223" lon="11.2095527731">
		<tag k="name" v="Seljemyra" />
		<tag k="natural" v="wetland" />
		<tag k="ssr:stedsnr" v="525270" />
	</node>
	<node id="-85788" lat="61.196705553" lon="11.5898472273">
		<tag k="name" v="Blautrusta" />
		<tag k="natural" v="wetland" />
		<tag k="ssr:stedsnr" v="727846" />
	</node>
	<node id="-85787" lat="61.2968472246" lon="11.8636499951">
		<tag k="landuse" v="meadow" />
		<tag k="name" v="Kåsenget" />
		<tag k="ssr:stedsnr" v="727473" />
	</node>
	<node id="-85786" lat="61.2881638929" lon="11.8404666598">
		<tag k="name" v="Søndre Kalmyra" />
		<tag k="natural" v="wetland" />
		<tag k="ssr:stedsnr" v="727466" />
	</node>
	<node id="-85380" lat="61.1406583294" lon="11.2077361032">
		<tag k="name" v="Tingstad sæterskog" />
		<tag k="place" v="locality" />
		<tag k="ssr:stedsnr" v="525265" />
	</node>
	<node id="-85269" lat="61.1198861111" lon="11.5538277782">
		<tag k="name" v="Stenmoen" />
		<tag k="place" v="locality" />
		<tag k="ssr:stedsnr" v="466653" />
	</node>
	<node id="-85266" lat="61.0762527744" lon="11.4061694506">
		<tag k="name" v="Harptjennskjølen" />
		<tag k="natural" v="wetland" />
		<tag k="ssr:stedsnr" v="466376" />
	</node>
	<node id="-85773" lat="61.396163891" lon="11.4659305496">
		<tag k="name" v="Vierriskjølen" />
		<tag k="natural" v="wetland" />
		<tag k="ssr:stedsnr" v="725706" />
	</node>
	<node id="-85772" lat="61.3510472255" lon="11.5121999958">
		<tag k="name" v="Lortmyrkjølen" />
		<tag k="natural" v="wetland" />
		<tag k="ssr:stedsnr" v="725704" />
	</node>
	<node id="-85767" lat="61.025377779" lon="11.2829944489">
		<tag k="name" v="Svarttjernskjølen" />
		<tag k="natural" v="wetland" />
		<tag k="ssr:stedsnr" v="723785" />
	</node>
	<node id="-84741" lat="61.1205916652" lon="11.519819452">
		<tag k="name" v="Vålsenga" />
		<tag k="place" v="locality" />
		<tag k="ssr:stedsnr" v="59961" />
	</node>
	<node id="-85764" lat="61.1220833339" lon="11.3255805498">
		<tag k="name" v="Rønningsmyra" />
		<tag k="natural" v="wetland" />
		<tag k="ssr:stedsnr" v="723502" />
	</node>
	<node id="-84438" lat="61.2330194462" lon="11.8030194444">
		<tag k="name" v="Skalmyra" />
		<tag k="natural" v="wetland" />
		<tag k="ssr:stedsnr" v="358272" />
	</node>
	<node id="-84737" lat="61.3104333371" lon="11.5652888958">
		<tag k="name" v="Løvmyra" />
		<tag k="natural" v="wetland" />
		<tag k="ssr:stedsnr" v="59773" />
	</node>
	<node id="-85757" lat="61.1234333349" lon="11.1669861187">
		<tag k="historic" v="shieling" />
		<tag k="name" v="Almussætra" />
		<tag k="place" v="locality" />
		<tag k="ssr:stedsnr" v="709945" />
	</node>
	<node id="-85755" lat="61.4132416707" lon="11.5800083325">
		<tag k="name" v="Åsen" />
		<tag k="place" v="locality" />
		<tag k="ssr:stedsnr" v="709911" />
	</node>
	<node id="-84730" lat="61.0450999969" lon="11.4152527868">
		<tag k="name" v="Bjørnmyra" />
		<tag k="natural" v="wetland" />
		<tag k="ssr:stedsnr" v="59215" />
	</node>
	<node id="-84436" lat="61.3933083371" lon="11.5732111174">
		<tag k="name" v="Jensbufløtningen" />
		<tag k="place" v="locality" />
		<tag k="ssr:stedsnr" v="345950" />
	</node>
	<node id="-85237" lat="61.437627779" lon="11.6557361173">
		<tag k="name" v="Olamyra" />
		<tag k="natural" v="wetland" />
		<tag k="ssr:stedsnr" v="433152" />
	</node>
	<node id="-84723" lat="61.3650805584" lon="11.4384944393">
		<tag k="name" v="Knøsdalsmyra" />
		<tag k="natural" v="wetland" />
		<tag k="ssr:stedsnr" v="57728" />
	</node>
	<node id="-85746" lat="61.2603222209" lon="11.4436166619">
		<tag k="name" v="Sjømyra" />
		<tag k="natural" v="wetland" />
		<tag k="ssr:stedsnr" v="709577" />
	</node>
	<node id="-84435" lat="61.1162916705" lon="11.6164694456">
		<tag k="name" v="Stendiket" />
		<tag k="natural" v="wetland" />
		<tag k="ssr:stedsnr" v="345864" />
	</node>
	<node id="-85232" lat="61.3152416633" lon="11.6966249949">
		<tag k="name" v="Storkjølen" />
		<tag k="natural" v="wetland" />
		<tag k="ssr:stedsnr" v="432872" />
	</node>
	<node id="-85231" lat="61.3343888857" lon="11.4923305578">
		<tag k="name" v="Nordsætermyra" />
		<tag k="natural" v="wetland" />
		<tag k="ssr:stedsnr" v="432867" />
	</node>
	<node id="-84716" lat="61.4132777781" lon="11.2994888938">
		<tag k="name" v="Stangskogen" />
		<tag k="place" v="locality" />
		<tag k="ssr:stedsnr" v="56257" />
	</node>
	<node id="-85738" lat="61.0785277793" lon="11.3554138861">
		<tag k="name" v="Kalvmarka" />
		<tag k="place" v="locality" />
		<tag k="ssr:stedsnr" v="708368" />
	</node>
	<node id="-85735" lat="61.3205833354" lon="11.820222229">
		<tag k="name" v="Jobrenna" />
		<tag k="place" v="locality" />
		<tag k="ssr:stedsnr" v="707445" />
	</node>
	<node id="-85734" lat="61.3321583324" lon="11.8161833339">
		<tag k="name" v="Slettkjølen" />
		<tag k="natural" v="wetland" />
		<tag k="ssr:stedsnr" v="707444" />
	</node>
	<node id="-85221" lat="61.2914611084" lon="11.6930888882">
		<tag k="alt_name" v="Tonorkjølen" />
		<tag k="name" v="Tanarkjølen" />
		<tag k="natural" v="wetland" />
		<tag k="ssr:stedsnr" v="432762" />
	</node>
	<node id="-86243" lat="61.0522027759" lon="11.2978722185">
		<tag k="name" v="Ormstensholen" />
		<tag k="place" v="locality" />
		<tag k="ssr:stedsnr" v="969985" />
	</node>
	<node id="-86242" lat="61.1168833333" lon="11.5204111139">
		<tag k="landuse" v="meadow" />
		<tag k="name" v="Gudbrandsenga" />
		<tag k="ssr:stedsnr" v="969942" />
	</node>
	<node id="-85729" lat="61.3314499978" lon="11.8622972132">
		<tag k="name" v="Kjølla" />
		<tag k="natural" v="wetland" />
		<tag k="ssr:stedsnr" v="676588" />
	</node>
	<node id="-86237" lat="61.0950500003" lon="11.3440861162">
		<tag k="name" v="Fuglleikmyra" />
		<tag k="natural" v="wetland" />
		<tag k="ssr:stedsnr" v="969515" />
	</node>
	<node id="-85724" lat="61.324725001" lon="11.8322999987">
		<tag k="name" v="Stenerkjølen" />
		<tag k="natural" v="wetland" />
		<tag k="ssr:stedsnr" v="675879" />
	</node>
	<node id="-86234" lat="61.1087472183" lon="11.2053916757">
		<tag k="name" v="Sagmyrene" />
		<tag k="natural" v="wetland" />
		<tag k="ssr:stedsnr" v="969019" />
	</node>
	<node id="-85455" lat="61.1833999958" lon="11.5370805595">
		<tag k="name" v="Mosemyra" />
		<tag k="natural" v="wetland" />
		<tag k="ssr:stedsnr" v="553342" />
	</node>
	<node id="-85720" lat="61.304" lon="11.5481750003">
		<tag k="name" v="Malmmyra" />
		<tag k="natural" v="wetland" />
		<tag k="ssr:stedsnr" v="675865" />
	</node>
	<node id="-84691" lat="61.1042277754" lon="11.2916388826">
		<tag k="name" v="Almus skog" />
		<tag k="place" v="locality" />
		<tag k="ssr:stedsnr" v="39003" />
	</node>
	<node id="-85714" lat="61.1668999988" lon="11.5174555602">
		<tag k="name" v="Måsåmyra" />
		<tag k="natural" v="wetland" />
		<tag k="ssr:stedsnr" v="675394" />
	</node>
	<node id="-84314" lat="61.1518805588" lon="11.3002972247">
		<tag k="name" v="Libergsmyra" />
		<tag k="natural" v="wetland" />
		<tag k="ssr:stedsnr" v="283195" />
	</node>
	<node id="-86223" lat="61.1042222226" lon="11.4229805481">
		<tag k="name" v="Simasmyra" />
		<tag k="natural" v="wetland" />
		<tag k="ssr:stedsnr" v="966482" />
	</node>
	<node id="-85198" lat="61.042405555" lon="11.2998666745">
		<tag k="name" v="Tangen" />
		<tag k="place" v="locality" />
		<tag k="ssr:stedsnr" v="432250" />
	</node>
	<node id="-84514" lat="61.3401916632" lon="11.8327277754">
		<tag k="name" v="Storholmskjølen" />
		<tag k="natural" v="wetland" />
		<tag k="ssr:stedsnr" v="371825" />
	</node>
	<node id="-85704" lat="61.4172333333" lon="11.6263138914">
		<tag k="alt_name" v="Grønmyrene" />
		<tag k="name" v="Grønmyra" />
		<tag k="natural" v="wetland" />
		<tag k="ssr:stedsnr" v="675205" />
	</node>
	<node id="-85191" lat="61.1024722226" lon="11.492180557">
		<tag k="name" v="Sagmyra" />
		<tag k="natural" v="wetland" />
		<tag k="ssr:stedsnr" v="423971" />
	</node>
	<node id="-86214" lat="61.3020805543" lon="11.5173694363">
		<tag k="name" v="Fjellmyra" />
		<tag k="natural" v="wetland" />
		<tag k="ssr:stedsnr" v="965529" />
	</node>
	<node id="-84342" lat="61.1446361102" lon="11.1405111147">
		<tag k="name" v="Dølfjelltangen" />
		<tag k="place" v="locality" />
		<tag k="ssr:stedsnr" v="300958" />
	</node>
	<node id="-85698" lat="61.1475250009" lon="11.5543749967">
		<tag k="name" v="Knappmyra" />
		<tag k="natural" v="wetland" />
		<tag k="ssr:stedsnr" v="675159" />
	</node>
	<node id="-85185" lat="61.0968666666" lon="11.3273444475">
		<tag k="name" v="Torvmyra" />
		<tag k="natural" v="wetland" />
		<tag k="ssr:stedsnr" v="423536" />
	</node>
	<node id="-85365" lat="61.2542083296" lon="11.7808749905">
		<tag k="name" v="Smørbekkmyra" />
		<tag k="natural" v="wetland" />
		<tag k="ssr:stedsnr" v="493822" />
	</node>
	<node id="-86204" lat="61.2667805557" lon="11.895347226">
		<tag k="name" v="Bokklia" />
		<tag k="place" v="locality" />
		<tag k="ssr:stedsnr" v="952495" />
	</node>
	<node id="-84666" lat="61.4864833375" lon="11.7128055639">
		<tag k="alt_name" v="Bløtkjølen" />
		<tag k="name" v="Blautkjølen" />
		<tag k="natural" v="wetland" />
		<tag k="ssr:stedsnr" v="8201" />
	</node>
	<node id="-85176" lat="61.3819194416" lon="11.5545472214">
		<tag k="name" v="Storstokkmyra" />
		<tag k="natural" v="wetland" />
		<tag k="ssr:stedsnr" v="422757" />
	</node>
	<node id="-86199" lat="61.1485611079" lon="11.2428027721">
		<tag k="name" v="Kloppmyra" />
		<tag k="natural" v="wetland" />
		<tag k="ssr:stedsnr" v="950263" />
	</node>
	<node id="-86197" lat="61.1441444463" lon="11.1996749935">
		<tag k="name" v="Kinnbuttmyra" />
		<tag k="natural" v="wetland" />
		<tag k="ssr:stedsnr" v="950256" />
	</node>
	<node id="-85172" lat="61.1939694422" lon="11.247716669">
		<tag k="name" v="Tussmyra" />
		<tag k="natural" v="wetland" />
		<tag k="ssr:stedsnr" v="422467" />
	</node>
	<node id="-85534" lat="61.0953611135" lon="11.3082944512">
		<tag k="name" v="Hølmyra" />
		<tag k="natural" v="wetland" />
		<tag k="ssr:stedsnr" v="605099" />
	</node>
	<node id="-86193" lat="61.1092472211" lon="11.2712916602">
		<tag k="name" v="Vivelstadskogen" />
		<tag k="place" v="locality" />
		<tag k="ssr:stedsnr" v="950020" />
	</node>
	<node id="-84680" lat="61.2567249966" lon="11.7619944503">
		<tag k="name" v="Brevikkjølen" />
		<tag k="natural" v="wetland" />
		<tag k="ssr:stedsnr" v="8812" />
	</node>
	<node id="-85162" lat="61.1617333314" lon="11.3412722224">
		<tag k="name" v="Bjørslandmyrene" />
		<tag k="natural" v="wetland" />
		<tag k="ssr:stedsnr" v="419382" />
	</node>
	<node id="-85160" lat="61.2030749994" lon="11.4085611191">
		<tag k="name" v="Løytnantsmyra" />
		<tag k="natural" v="wetland" />
		<tag k="ssr:stedsnr" v="263149" />
	</node>
	<node id="-85671" lat="61.1990027738" lon="11.5672944374">
		<tag k="name" v="Vollmoen" />
		<tag k="place" v="locality" />
		<tag k="ssr:stedsnr" v="666836" />
	</node>
	<node id="-86180" lat="61.3383861127" lon="11.5092916756">
		<tag k="name" v="Benkevollmyra" />
		<tag k="natural" v="wetland" />
		<tag k="ssr:stedsnr" v="918866" />
	</node>
	<node id="-84461" lat="61.1965749965" lon="11.3246416696">
		<tag k="name" v="Skjeftmyra" />
		<tag k="natural" v="wetland" />
		<tag k="ssr:stedsnr" v="362619" />
	</node>
	<node id="-85152" lat="61.2674138911" lon="11.8529555507">
		<tag k="name" v="Fuglleikmyra" />
		<tag k="natural" v="wetland" />
		<tag k="ssr:stedsnr" v="251536" />
	</node>
	<node id="-86175" lat="61.2707944487" lon="11.7351861092">
		<tag k="alt_name" v="Skarmyra" />
		<tag k="name" v="Skardmyra" />
		<tag k="natural" v="wetland" />
		<tag k="ssr:stedsnr" v="918814" />
	</node>
	<node id="-85662" lat="61.1354083345" lon="11.2106444479">
		<tag k="name" v="Slåttene" />
		<tag k="place" v="locality" />
		<tag k="ssr:stedsnr" v="665294" />
	</node>
	<node id="-85274" lat="61.1277222195" lon="11.4008055464">
		<tag k="name" v="Ilsåsmarka" />
		<tag k="place" v="locality" />
		<tag k="ssr:stedsnr" v="480347" />
	</node>
	<node id="-86169" lat="61.2280249979" lon="11.5464500086">
		<tag k="alt_name" v="Orrehøgda" />
		<tag k="name" v="Orrmyra" />
		<tag k="natural" v="wetland" />
		<tag k="ssr:stedsnr" v="918375" />
	</node>
	<node id="-85655" lat="61.2837249958" lon="11.5376999914">
		<tag k="name" v="Tøråskjølen" />
		<tag k="natural" v="wetland" />
		<tag k="ssr:stedsnr" v="664572" />
	</node>
	<node id="-85653" lat="61.1960805566" lon="11.1960916689">
		<tag k="alt_name" v="Bjønnberget" />
		<tag k="name" v="Bjørnberget" />
		<tag k="place" v="locality" />
		<tag k="ssr:stedsnr" v="664442" />
	</node>
	<node id="-86164" lat="61.1029583291" lon="11.5327083417">
		<tag k="name" v="Glomstadmyra" />
		<tag k="natural" v="wetland" />
		<tag k="ssr:stedsnr" v="918199" />
	</node>
	<node id="-84459" lat="61.3436111083" lon="11.4754083318">
		<tag k="name" v="Tørbergsmyra" />
		<tag k="natural" v="wetland" />
		<tag k="ssr:stedsnr" v="361729" />
	</node>
	<node id="-85134" lat="61.2952833331" lon="11.5501555537">
		<tag k="name" v="Svartbekkjølen" />
		<tag k="natural" v="wetland" />
		<tag k="ssr:stedsnr" v="250761" />
	</node>
	<node id="-86157" lat="61.3598500032" lon="11.5140250056">
		<tag k="name" v="Fløttjennkjølen" />
		<tag k="natural" v="wetland" />
		<tag k="ssr:stedsnr" v="917844" />
	</node>
	<node id="-85643" lat="61.133591665" lon="11.378641664">
		<tag k="name" v="Moen" />
		<tag k="place" v="locality" />
		<tag k="ssr:stedsnr" v="662373" />
	</node>
	<node id="-85129" lat="61.1828750036" lon="11.6829305552">
		<tag k="name" v="Eksvollmyra" />
		<tag k="natural" v="wetland" />
		<tag k="ssr:stedsnr" v="250347" />
	</node>
	<node id="-84588" lat="61.1717611139" lon="11.4040194495">
		<tag k="name" v="Stormyra" />
		<tag k="natural" v="wetland" />
		<tag k="ssr:stedsnr" v="891647" />
	</node>
	<node id="-86147" lat="61.1228277751" lon="11.2410944371">
		<tag k="name" v="Bjørnmyra" />
		<tag k="natural" v="wetland" />
		<tag k="ssr:stedsnr" v="917436" />
	</node>
	<node id="-85839" lat="61.4514527747" lon="11.7355499925">
		<tag k="alt_name" v="Kjøllekjølen" />
		<tag k="name" v="Kjøldekjølen" />
		<tag k="natural" v="wetland" />
		<tag k="ssr:stedsnr" v="736180" />
	</node>
	<node id="-85628" lat="61.1395083299" lon="11.6190777866">
		<tag k="name" v="Godåsmyra" />
		<tag k="natural" v="wetland" />
		<tag k="ssr:stedsnr" v="648879" />
	</node>
	<node id="-85627" lat="61.1315888917" lon="11.6017777871">
		<tag k="name" v="Såksmyra" />
		<tag k="natural" v="wetland" />
		<tag k="ssr:stedsnr" v="648877" />
	</node>
	<node id="-85623" lat="61.2806999975" lon="11.4706388958">
		<tag k="landuse" v="meadow" />
		<tag k="name" v="Søråsenget" />
		<tag k="ssr:stedsnr" v="648580" />
	</node>
	<node id="-86130" lat="61.1030111096" lon="11.459947215">
		<tag k="name" v="Sjømyra" />
		<tag k="natural" v="wetland" />
		<tag k="ssr:stedsnr" v="909945" />
	</node>
	<node id="-85617" lat="61.1622194452" lon="11.4006361125">
		<tag k="name" v="Blestermyra" />
		<tag k="natural" v="wetland" />
		<tag k="ssr:stedsnr" v="647632" />
	</node>
	<node id="-84592" lat="61.136211109" lon="11.6223416651">
		<tag k="name" v="Øvre Godåsmyra" />
		<tag k="natural" v="wetland" />
		<tag k="ssr:stedsnr" v="891875" />
	</node>
	<node id="-85352" lat="61.2387805563" lon="11.5575249962">
		<tag k="name" v="Sjømyra" />
		<tag k="natural" v="wetland" />
		<tag k="ssr:stedsnr" v="493315" />
	</node>
	<node id="-86124" lat="61.1068222246" lon="11.1959222244">
		<tag k="name" v="Dalsmyra" />
		<tag k="natural" v="wetland" />
		<tag k="ssr:stedsnr" v="909017" />
	</node>
	<node id="-86122" lat="61.1527583313" lon="11.189591668">
		<tag k="name" v="Stormyra" />
		<tag k="natural" v="wetland" />
		<tag k="ssr:stedsnr" v="908989" />
	</node>
	<node id="-85095" lat="61.1571722206" lon="11.6868361058">
		<tag k="name" v="Knappkjølen" />
		<tag k="place" v="locality" />
		<tag k="ssr:stedsnr" v="241850" />
	</node>
	<node id="-85180" lat="61.0914500018" lon="11.2696694442">
		<tag k="name" v="Lemyra" />
		<tag k="natural" v="wetland" />
		<tag k="ssr:stedsnr" v="423083" />
	</node>
	<node id="-86119" lat="61.0260944469" lon="11.3602527757">
		<tag k="name" v="Løvmyra" />
		<tag k="natural" v="wetland" />
		<tag k="ssr:stedsnr" v="908255" />
	</node>
	<node id="-84497" lat="61.1104611095" lon="11.3167111047">
		<tag k="name" v="Finnmyra" />
		<tag k="natural" v="wetland" />
		<tag k="ssr:stedsnr" v="371441" />
	</node>
	<node id="-85092" lat="61.0770138884" lon="11.5208166634">
		<tag k="alt_name" v="Nyberskjølen" />
		<tag k="name" v="Nybergskjølen" />
		<tag k="natural" v="wetland" />
		<tag k="ssr:stedsnr" v="241823" />
	</node>
	<node id="-86115" lat="61.3520083319" lon="11.482583338">
		<tag k="name" v="Kvernbekkmyra" />
		<tag k="natural" v="wetland" />
		<tag k="ssr:stedsnr" v="907667" />
	</node>
	<node id="-85602" lat="61.3064555528" lon="11.8251777819">
		<tag k="name" v="Riskjølen" />
		<tag k="natural" v="wetland" />
		<tag k="ssr:stedsnr" v="614856" />
	</node>
	<node id="-86113" lat="61.2528166665" lon="11.4045999999">
		<tag k="name" v="Bumyra" />
		<tag k="natural" v="wetland" />
		<tag k="ssr:stedsnr" v="906626" />
	</node>
	<node id="-85600" lat="61.2861277787" lon="11.8370916617">
		<tag k="name" v="Vintermyra" />
		<tag k="natural" v="wetland" />
		<tag k="ssr:stedsnr" v="614801" />
	</node>
	<node id="-85087" lat="61.0703111146" lon="11.2291444516">
		<tag k="name" v="Storlosjen" />
		<tag k="natural" v="wetland" />
		<tag k="ssr:stedsnr" v="240133" />
	</node>
	<node id="-84573" lat="61.0405138854" lon="11.3299333357">
		<tag k="name" v="Lemyra" />
		<tag k="natural" v="wetland" />
		<tag k="ssr:stedsnr" v="890197" />
	</node>
	<node id="-85084" lat="61.3447777737" lon="11.4976916671">
		<tag k="name" v="Budeiemyra" />
		<tag k="natural" v="wetland" />
		<tag k="ssr:stedsnr" v="239729" />
	</node>
	<node id="-85178" lat="61.1410027813" lon="11.1651722271">
		<tag k="name" v="Tjennmyrene" />
		<tag k="natural" v="wetland" />
		<tag k="ssr:stedsnr" v="422966" />
	</node>
	<node id="-85082" lat="61.1841805589" lon="11.5342333251">
		<tag k="name" v="Flomyra" />
		<tag k="natural" v="wetland" />
		<tag k="ssr:stedsnr" v="238889" />
	</node>
	<node id="-84344" lat="61.049469445" lon="11.2643527761">
		<tag k="historic" v="shieling" />
		<tag k="name" v="Lushattvollene" />
		<tag k="place" v="locality" />
		<tag k="ssr:stedsnr" v="301994" />
	</node>
	<node id="-84921" lat="61.2549527753" lon="11.6563916635">
		<tag k="name" v="Dugurdsmyra" />
		<tag k="natural" v="wetland" />
		<tag k="ssr:stedsnr" v="129800" />
	</node>
	<node id="-86098" lat="61.1575222262" lon="11.1820194483">
		<tag k="name" v="Vika" />
		<tag k="natural" v="wetland" />
		<tag k="ssr:stedsnr" v="870164" />
	</node>
	<node id="-85073" lat="61.3378388847" lon="11.6246666666">
		<tag k="landuse" v="meadow" />
		<tag k="name" v="Moslåtta" />
		<tag k="ssr:stedsnr" v="224781" />
	</node>
	<node id="-86095" lat="61.2678250004" lon="11.9035777728">
		<tag k="name" v="Fjellmyra" />
		<tag k="natural" v="wetland" />
		<tag k="ssr:stedsnr" v="858547" />
	</node>
	<node id="-86094" lat="61.2897611142" lon="11.8446638932">
		<tag k="alt_name" v="Nordre Kalmyra" />
		<tag k="name" v="Kalmyra" />
		<tag k="natural" v="wetland" />
		<tag k="ssr:stedsnr" v="858529" />
	</node>
	<node id="-85261" lat="61.3038916631" lon="11.7017916736">
		<tag k="name" v="Rødskjølen" />
		<tag k="natural" v="wetland" />
		<tag k="ssr:stedsnr" v="466053" />
	</node>
	<node id="-84556" lat="61.1861555597" lon="11.4252277689">
		<tag k="name" v="Risskogmyrene" />
		<tag k="natural" v="wetland" />
		<tag k="ssr:stedsnr" v="405642" />
	</node>
	<node id="-84578" lat="61.1667722262" lon="11.2698222205">
		<tag k="historic" v="shieling" />
		<tag k="name" v="Arnestad-Bergesæter" />
		<tag k="place" v="locality" />
		<tag k="ssr:stedsnr" v="890226" />
	</node>
	<node id="-85431" lat="61.1436444431" lon="11.4469888885">
		<tag k="landuse" v="meadow" />
		<tag k="name" v="Gjeslisvea" />
		<tag k="ssr:stedsnr" v="544889" />
	</node>
	<node id="-84551" lat="61.0453111116" lon="11.3616388865">
		<tag k="name" v="Bråtenmoen" />
		<tag k="place" v="locality" />
		<tag k="ssr:stedsnr" v="404210" />
	</node>
	<node id="-84550" lat="61.0538333295" lon="11.3701416622">
		<tag k="name" v="Storøra" />
		<tag k="place" v="locality" />
		<tag k="ssr:stedsnr" v="404206" />
	</node>
	<node id="-85061" lat="61.110666664" lon="11.168938896">
		<tag k="name" v="Langmyra" />
		<tag k="natural" v="wetland" />
		<tag k="ssr:stedsnr" v="223967" />
	</node>
	<node id="-84548" lat="61.0506138871" lon="11.3064861068">
		<tag k="name" v="Nybrumyra" />
		<tag k="natural" v="wetland" />
		<tag k="ssr:stedsnr" v="241108" />
	</node>
	<node id="-85430" lat="61.1985888847" lon="11.5873138965">
		<tag k="name" v="Dupla" />
		<tag k="natural" v="wetland" />
		<tag k="ssr:stedsnr" v="544855" />
	</node>
	<node id="-84700" lat="61.2675194457" lon="11.8760083358">
		<tag k="name" v="Rosvemyra" />
		<tag k="natural" v="wetland" />
		<tag k="ssr:stedsnr" v="42480" />
	</node>
	<node id="-86080" lat="61.3650083318" lon="11.6997499987">
		<tag k="name" v="Helmyra" />
		<tag k="natural" v="wetland" />
		<tag k="ssr:stedsnr" v="857829" />
	</node>
	<node id="-84543" lat="61.2611444449" lon="11.7900277715">
		<tag k="name" v="Tørrmyra" />
		<tag k="natural" v="wetland" />
		<tag k="ssr:stedsnr" v="432746" />
	</node>
	<node id="-85054" lat="61.0790888892" lon="11.3620972233">
		<tag k="name" v="Volla" />
		<tag k="place" v="locality" />
		<tag k="ssr:stedsnr" v="222335" />
	</node>
	<node id="-86076" lat="61.2795138847" lon="11.6950138914">
		<tag k="name" v="Storkjølen" />
		<tag k="natural" v="wetland" />
		<tag k="ssr:stedsnr" v="857780" />
	</node>
	<node id="-86097" lat="61.2344916644" lon="11.1379249924">
		<tag k="name" v="Stormyra" />
		<tag k="natural" v="wetland" />
		<tag k="ssr:stedsnr" v="870155" />
	</node>
	<node id="-84966" lat="61.2891555515" lon="11.828861102">
		<tag k="name" v="Nestemyra" />
		<tag k="natural" v="wetland" />
		<tag k="ssr:stedsnr" v="180471" />
	</node>
	<node id="-85046" lat="61.1575541657" lon="11.181960257">
		<tag k="name" v="Tingstadmyrene" />
		<tag k="natural" v="wetland" />
		<tag k="ssr:stedsnr" v="203193" />
	</node>
	<node id="-84532" lat="61.2812499962" lon="11.3824444491">
		<tag k="name" v="Langmyra" />
		<tag k="natural" v="wetland" />
		<tag k="ssr:stedsnr" v="372253" />
	</node>
	<node id="-84531" lat="61.2608666666" lon="11.3846666703">
		<tag k="alt_name" v="Tjennmyra" />
		<tag k="name" v="Tjernsmyra" />
		<tag k="natural" v="wetland" />
		<tag k="ssr:stedsnr" v="372245" />
	</node>
	<node id="-85040" lat="61.3226222259" lon="11.8791166672">
		<tag k="name" v="Brenthaugkjølen" />
		<tag k="natural" v="wetland" />
		<tag k="ssr:stedsnr" v="190594" />
	</node>
	<node id="-84488" lat="61.1719833363" lon="11.6189583329">
		<tag k="name" v="Lauvåsmyra" />
		<tag k="natural" v="wetland" />
		<tag k="ssr:stedsnr" v="371345" />
	</node>
	<node id="-85550" lat="61.056686113" lon="11.2509861054">
		<tag k="name" v="Storkjølen" />
		<tag k="natural" v="wetland" />
		<tag k="ssr:stedsnr" v="613252" />
	</node>
	<node id="-86060" lat="61.0675888909" lon="11.5014444446">
		<tag k="name" v="Bergekjølen" />
		<tag k="natural" v="wetland" />
		<tag k="ssr:stedsnr" v="857223" />
	</node>
	<node id="-86058" lat="61.3705138901" lon="11.7092833364">
		<tag k="name" v="Myrekjølen" />
		<tag k="natural" v="wetland" />
		<tag k="ssr:stedsnr" v="857159" />
	</node>
	<node id="-85255" lat="61.3164555557" lon="11.884002782">
		<tag k="name" v="Bjørbekkmyra" />
		<tag k="natural" v="wetland" />
		<tag k="ssr:stedsnr" v="464439" />
	</node>
	<node id="-84572" lat="61.1205611117" lon="11.2117305513">
		<tag k="name" v="Rubben" />
		<tag k="natural" v="wetland" />
		<tag k="ssr:stedsnr" v="890018" />
	</node>
	<node id="-85029" lat="61.416949996" lon="11.6700999935">
		<tag k="name" v="Stormyra" />
		<tag k="natural" v="wetland" />
		<tag k="ssr:stedsnr" v="190185" />
	</node>
	<node id="-85540" lat="61.1989027812" lon="11.451958327">
		<tag k="name" v="Persmyra" />
		<tag k="natural" v="wetland" />
		<tag k="ssr:stedsnr" v="605590" />
	</node>
	<node id="-85538" lat="61.0897833357" lon="11.3301555615">
		<tag k="landuse" v="meadow" />
		<tag k="name" v="Bjørnbekkslåtten" />
		<tag k="ssr:stedsnr" v="605498" />
	</node>
	<node id="-86107" lat="61.1297333359" lon="11.4130777783">
		<tag k="name" v="Ekertjennsmyra" />
		<tag k="natural" v="wetland" />
		<tag k="ssr:stedsnr" v="905372" />
	</node>
	<node id="-85535" lat="61.0923583347" lon="11.2973583316">
		<tag k="name" v="Nedre Sætermyra" />
		<tag k="natural" v="wetland" />
		<tag k="ssr:stedsnr" v="605119" />
	</node>
	<node id="-86046" lat="61.106608338" lon="11.5454666578">
		<tag k="landuse" v="meadow" />
		<tag k="name" v="Langenga" />
		<tag k="ssr:stedsnr" v="848947" />
	</node>
	<node id="-84508" lat="61.2851777812" lon="11.537780551">
		<tag k="name" v="Merramyra" />
		<tag k="natural" v="wetland" />
		<tag k="ssr:stedsnr" v="371786" />
	</node>
	<node id="-85531" lat="61.1296361152" lon="11.2060638841">
		<tag k="name" v="Tranmyra" />
		<tag k="natural" v="wetland" />
		<tag k="ssr:stedsnr" v="604263" />
	</node>
	<node id="-84709" lat="61.3148833345" lon="11.4425750082">
		<tag k="name" v="Hestediket" />
		<tag k="natural" v="wetland" />
		<tag k="ssr:stedsnr" v="55484" />
	</node>
	<node id="-85616" lat="61.0519611141" lon="11.3423694399">
		<tag k="name" v="Stormyra" />
		<tag k="natural" v="wetland" />
		<tag k="ssr:stedsnr" v="647242" />
	</node>
	<node id="-85524" lat="61.0839361154" lon="11.2962055573">
		<tag k="name" v="Kvernslåtten" />
		<tag k="place" v="locality" />
		<tag k="ssr:stedsnr" v="603086" />
	</node>
	<node id="-86035" lat="61.0744722232" lon="11.2033305562">
		<tag k="name" v="Åstdalsmyra" />
		<tag k="natural" v="wetland" />
		<tag k="ssr:stedsnr" v="847138" />
	</node>
	<node id="-85522" lat="61.0961361157" lon="11.1879777692">
		<tag k="landuse" v="meadow" />
		<tag k="name" v="Kampvollen" />
		<tag k="ssr:stedsnr" v="601906" />
	</node>
	<node id="-84739" lat="61.135650001" lon="11.4400305602">
		<tag k="name" v="Bakmyra" />
		<tag k="natural" v="wetland" />
		<tag k="ssr:stedsnr" v="59875" />
	</node>
	<node id="-85520" lat="61.355136112" lon="11.3608833283">
		<tag k="name" v="Løsset vestside" />
		<tag k="place" v="locality" />
		<tag k="ssr:stedsnr" v="601839" />
	</node>
	<node id="-86030" lat="61.0672944484" lon="11.3373722178">
		<tag k="name" v="Søkkmyra" />
		<tag k="natural" v="wetland" />
		<tag k="ssr:stedsnr" v="845327" />
	</node>
	<node id="-85517" lat="61.1178527814" lon="11.3139972199">
		<tag k="name" v="Bolstadmarka" />
		<tag k="place" v="locality" />
		<tag k="ssr:stedsnr" v="601486" />
	</node>
	<node id="-85512" lat="61.2871305597" lon="11.6057916672">
		<tag k="name" v="Østre Jernskallia" />
		<tag k="place" v="locality" />
		<tag k="ssr:stedsnr" v="600770" />
	</node>
	<node id="-85510" lat="61.5010805563" lon="11.7643805575">
		<tag k="name" v="Villroa" />
		<tag k="place" v="locality" />
		<tag k="ssr:stedsnr" v="599930" />
	</node>
	<node id="-84994" lat="61.4177888925" lon="11.8124638922">
		<tag k="name" v="Storbekkjølen" />
		<tag k="natural" v="wetland" />
		<tag k="ssr:stedsnr" v="189150" />
	</node>
	<node id="-85505" lat="61.2667861152" lon="11.5457972214">
		<tag k="name" v="Gofastmyra" />
		<tag k="natural" v="wetland" />
		<tag k="ssr:stedsnr" v="588576" />
	</node>
</osm>
