<?xml version="1.0" encoding="UTF-8"?>
<osm generator="osmapis" version="0.6">
	<node id="-242944" lat="59.7918580748" lon="8.79998974329">
		<tag k="name" v="Heddersfjell" />
		<tag k="ssr:date" v="2019-05-31" />
		<tag k="ssr:gruppe" v="veg" />
		<tag k="ssr:hovedgruppe" v="infrastruktur" />
		<tag k="ssr:stedsnr" v="1048906" />
		<tag k="ssr:type" v="adressenavn" />
	</node>
	<node id="-242943" lat="59.8203053644" lon="8.60887788279">
		<tag k="name" v="Heddevatn" />
		<tag k="ssr:date" v="2019-05-31" />
		<tag k="ssr:gruppe" v="veg" />
		<tag k="ssr:hovedgruppe" v="infrastruktur" />
		<tag k="ssr:stedsnr" v="1048902" />
		<tag k="ssr:type" v="adressenavn" />
	</node>
	<node id="-242942" lat="59.7902901945" lon="8.88085435104">
		<tag k="name" v="Sjåvatn" />
		<tag k="ssr:date" v="2019-05-31" />
		<tag k="ssr:gruppe" v="veg" />
		<tag k="ssr:hovedgruppe" v="infrastruktur" />
		<tag k="ssr:stedsnr" v="1048897" />
		<tag k="ssr:type" v="adressenavn" />
	</node>
	<node id="-242941" lat="59.6161320637" lon="8.54443714914">
		<tag k="name" v="Svartdalsvegen" />
		<tag k="ssr:date" v="2019-05-31" />
		<tag k="ssr:gruppe" v="veg" />
		<tag k="ssr:hovedgruppe" v="infrastruktur" />
		<tag k="ssr:stedsnr" v="1048888" />
		<tag k="ssr:type" v="adressenavn" />
	</node>
	<node id="-242940" lat="59.600944433" lon="9.01440778">
		<tag k="name" v="Ørvella øst" />
		<tag k="ssr:date" v="2019-05-31" />
		<tag k="ssr:gruppe" v="veg" />
		<tag k="ssr:hovedgruppe" v="infrastruktur" />
		<tag k="ssr:stedsnr" v="1048885" />
		<tag k="ssr:type" v="adressenavn" />
	</node>
	<node id="-242939" lat="59.7654231708" lon="8.55403953866">
		<tag k="name" v="Bjønntjønn" />
		<tag k="ssr:date" v="2019-05-31" />
		<tag k="ssr:gruppe" v="veg" />
		<tag k="ssr:hovedgruppe" v="infrastruktur" />
		<tag k="ssr:stedsnr" v="1048883" />
		<tag k="ssr:type" v="adressenavn" />
	</node>
	<node id="-244970" lat="59.6720055527" lon="8.86993611415">
		<tag k="name" v="Prestesvingen" />
		<tag k="ssr:date" v="2016-05-11" />
		<tag k="ssr:gruppe" v="veg" />
		<tag k="ssr:hovedgruppe" v="infrastruktur" />
		<tag k="ssr:stedsnr" v="954977" />
		<tag k="ssr:type" v="vegstrekning" />
	</node>
	<node id="-244199" lat="59.6207888905" lon="8.93129444266">
		<tag k="name" v="Hjartdal kommune" />
		<tag k="ssr:date" v="2016-05-10" />
		<tag k="ssr:gruppe" v="administrativeIndelinger" />
		<tag k="ssr:hovedgruppe" v="offentligAdministrasjon" />
		<tag k="ssr:stedsnr" v="570454" />
		<tag k="ssr:type" v="kommune" />
	</node>
	<node id="-243942" lat="59.6179861097" lon="8.60727778031">
		<tag k="name" v="Fjellvegen" />
		<tag k="ssr:date" v="2016-05-10" />
		<tag k="ssr:gruppe" v="veg" />
		<tag k="ssr:hovedgruppe" v="infrastruktur" />
		<tag k="ssr:stedsnr" v="470384" />
		<tag k="ssr:type" v="vegstrekning" />
	</node>
	<node id="-243119" lat="59.7887527774" lon="8.66377777538">
		<tag k="name" v="Blesåbrekke" />
		<tag k="ssr:date" v="2016-05-10" />
		<tag k="ssr:gruppe" v="veg" />
		<tag k="ssr:hovedgruppe" v="infrastruktur" />
		<tag k="ssr:stedsnr" v="409152" />
		<tag k="ssr:type" v="vegstrekning" />
	</node>
	<node id="-244994" lat="60.5908609473" lon="9.63819281559">
		<tag k="fixme" v="multiple name tags, choose one and add the other to alt_name" />
		<tag k="name" v="Austlandet;Østlandet" />
		<tag k="ssr:date" v="2018-01-09" />
		<tag k="ssr:gruppe" v="administrativeIndelinger" />
		<tag k="ssr:hovedgruppe" v="offentligAdministrasjon" />
		<tag k="ssr:stedsnr" v="974775" />
		<tag k="ssr:type" v="annenAdministrativInndeling" />
	</node>
	<node id="-244373" lat="59.7864444405" lon="8.66801388651">
		<tag k="name" v="Reisjåsvingen" />
		<tag k="ssr:date" v="2016-05-10" />
		<tag k="ssr:gruppe" v="veg" />
		<tag k="ssr:hovedgruppe" v="infrastruktur" />
		<tag k="ssr:stedsnr" v="651137" />
		<tag k="ssr:type" v="vegstrekning" />
	</node>
	<node id="-242961" lat="59.7433981324" lon="8.70925976384">
		<tag k="name" v="Lomtjønn" />
		<tag k="ssr:date" v="2019-05-31" />
		<tag k="ssr:gruppe" v="veg" />
		<tag k="ssr:hovedgruppe" v="infrastruktur" />
		<tag k="ssr:stedsnr" v="1049427" />
		<tag k="ssr:type" v="adressenavn" />
	</node>
	<node id="-242960" lat="59.7797639112" lon="8.76396273245">
		<tag k="name" v="Elgtråkket" />
		<tag k="ssr:date" v="2019-05-31" />
		<tag k="ssr:gruppe" v="veg" />
		<tag k="ssr:hovedgruppe" v="infrastruktur" />
		<tag k="ssr:stedsnr" v="1049290" />
		<tag k="ssr:type" v="adressenavn" />
	</node>
	<node id="-242959" lat="59.7784133958" lon="8.76497493822">
		<tag k="name" v="Fivreldvegen" />
		<tag k="ssr:date" v="2019-05-31" />
		<tag k="ssr:gruppe" v="veg" />
		<tag k="ssr:hovedgruppe" v="infrastruktur" />
		<tag k="ssr:stedsnr" v="1049279" />
		<tag k="ssr:type" v="adressenavn" />
	</node>
	<node id="-242958" lat="59.610645866" lon="8.99787353863">
		<tag k="name" v="Sperrdokk" />
		<tag k="ssr:date" v="2019-05-31" />
		<tag k="ssr:gruppe" v="veg" />
		<tag k="ssr:hovedgruppe" v="infrastruktur" />
		<tag k="ssr:stedsnr" v="1049206" />
		<tag k="ssr:type" v="adressenavn" />
	</node>
	<node id="-242957" lat="59.6596419707" lon="8.66333911924">
		<tag k="name" v="Raubekk" />
		<tag k="ssr:date" v="2019-05-31" />
		<tag k="ssr:gruppe" v="veg" />
		<tag k="ssr:hovedgruppe" v="infrastruktur" />
		<tag k="ssr:stedsnr" v="1049113" />
		<tag k="ssr:type" v="adressenavn" />
	</node>
	<node id="-242956" lat="59.6600880915" lon="8.66284762449">
		<tag k="name" v="Løyning" />
		<tag k="ssr:date" v="2019-05-31" />
		<tag k="ssr:gruppe" v="veg" />
		<tag k="ssr:hovedgruppe" v="infrastruktur" />
		<tag k="ssr:stedsnr" v="1049107" />
		<tag k="ssr:type" v="adressenavn" />
	</node>
	<node id="-242955" lat="59.6760652042" lon="8.63865019571">
		<tag k="name" v="Hågåvassvegen" />
		<tag k="ssr:date" v="2019-05-31" />
		<tag k="ssr:gruppe" v="veg" />
		<tag k="ssr:hovedgruppe" v="infrastruktur" />
		<tag k="ssr:stedsnr" v="1049103" />
		<tag k="ssr:type" v="adressenavn" />
	</node>
	<node id="-242954" lat="59.6277556551" lon="8.7023028978">
		<tag k="name" v="Fjellstadfjellet" />
		<tag k="ssr:date" v="2019-05-31" />
		<tag k="ssr:gruppe" v="veg" />
		<tag k="ssr:hovedgruppe" v="infrastruktur" />
		<tag k="ssr:stedsnr" v="1048941" />
		<tag k="ssr:type" v="adressenavn" />
	</node>
	<node id="-242953" lat="59.6376779377" lon="8.53015848584">
		<tag k="name" v="Ståldalen" />
		<tag k="ssr:date" v="2019-05-31" />
		<tag k="ssr:gruppe" v="veg" />
		<tag k="ssr:hovedgruppe" v="infrastruktur" />
		<tag k="ssr:stedsnr" v="1048936" />
		<tag k="ssr:type" v="adressenavn" />
	</node>
	<node id="-242952" lat="59.6885542933" lon="8.55291243217">
		<tag k="name" v="Fyribøen" />
		<tag k="ssr:date" v="2019-05-31" />
		<tag k="ssr:gruppe" v="veg" />
		<tag k="ssr:hovedgruppe" v="infrastruktur" />
		<tag k="ssr:stedsnr" v="1048930" />
		<tag k="ssr:type" v="adressenavn" />
	</node>
	<node id="-242950" lat="59.6572228837" lon="8.51650074061">
		<tag k="name" v="Skjesvatn" />
		<tag k="ssr:date" v="2019-05-31" />
		<tag k="ssr:gruppe" v="veg" />
		<tag k="ssr:hovedgruppe" v="infrastruktur" />
		<tag k="ssr:stedsnr" v="1048928" />
		<tag k="ssr:type" v="adressenavn" />
	</node>
	<node id="-242949" lat="59.7577661166" lon="8.59102921645">
		<tag k="name" v="Risbua" />
		<tag k="ssr:date" v="2019-05-31" />
		<tag k="ssr:gruppe" v="veg" />
		<tag k="ssr:hovedgruppe" v="infrastruktur" />
		<tag k="ssr:stedsnr" v="1048923" />
		<tag k="ssr:type" v="adressenavn" />
	</node>
	<node id="-242948" lat="59.727804329" lon="8.6778274887">
		<tag k="name" v="Kovvatn" />
		<tag k="ssr:date" v="2019-05-31" />
		<tag k="ssr:gruppe" v="veg" />
		<tag k="ssr:hovedgruppe" v="infrastruktur" />
		<tag k="ssr:stedsnr" v="1048920" />
		<tag k="ssr:type" v="adressenavn" />
	</node>
	<node id="-242947" lat="59.770212367" lon="8.5157940378">
		<tag k="name" v="Vindsjåen" />
		<tag k="ssr:date" v="2019-05-31" />
		<tag k="ssr:gruppe" v="veg" />
		<tag k="ssr:hovedgruppe" v="infrastruktur" />
		<tag k="ssr:stedsnr" v="1048917" />
		<tag k="ssr:type" v="adressenavn" />
	</node>
	<node id="-242946" lat="59.7178951066" lon="8.51793321616">
		<tag k="name" v="Nåpåtjønn" />
		<tag k="ssr:date" v="2019-05-31" />
		<tag k="ssr:gruppe" v="veg" />
		<tag k="ssr:hovedgruppe" v="infrastruktur" />
		<tag k="ssr:stedsnr" v="1048914" />
		<tag k="ssr:type" v="adressenavn" />
	</node>
	<node id="-242945" lat="59.8168376607" lon="8.54601929745">
		<tag k="name" v="Reinstjønn" />
		<tag k="ssr:date" v="2019-05-31" />
		<tag k="ssr:gruppe" v="veg" />
		<tag k="ssr:hovedgruppe" v="infrastruktur" />
		<tag k="ssr:stedsnr" v="1048912" />
		<tag k="ssr:type" v="adressenavn" />
	</node>
</osm>
