<?xml version="1.0" encoding="UTF-8"?>
<osm version="0.6" generator="osmapis">
	<node id="31264089" lat="62.3421061" lon="5.6342433" version="10" timestamp="2022-08-15T06:31:15Z" changeset="124912436" uid="3497659" user="NKA">
		<tag k="name" v="Fosnavåg" />
		<tag k="place" v="town" />
		<tag k="population" v="3561" />
		<tag k="population:date" v="2021-01-01" />
		<tag k="ref:ssb_tettsted" v="6043" />
		<tag k="source:population" v="SSB - befolkning i tettstedet" />
		<tag k="ssr:stedsnr" v="800605" />
	</node>
	<node id="55446172" lat="62.3921947" lon="5.6432227" version="4" timestamp="2022-08-15T06:31:15Z" changeset="124912436" uid="3497659" user="NKA">
		<tag k="name" v="Runde" />
		<tag k="place" v="hamlet" />
		<tag k="ssr:stedsnr" v="556662" />
	</node>
	<node id="55446351" lat="62.4057789" lon="5.6202282" version="4" timestamp="2022-08-15T06:31:15Z" changeset="124912436" uid="3497659" user="NKA">
		<tag k="name" v="Goksøyr" />
		<tag k="place" v="hamlet" />
		<tag k="ssr:stedsnr" v="496671" />
	</node>
	<node id="775349020" lat="62.2939978" lon="5.7151177" version="4" timestamp="2022-08-15T06:31:15Z" changeset="124912436" uid="3497659" user="NKA">
		<tag k="alt_name" v="Sandvik" />
		<tag k="name" v="Sandvika" />
		<tag k="place" v="hamlet" />
		<tag k="ssr:stedsnr" v="71573" />
	</node>
	<node id="775349026" lat="62.2995943" lon="5.7371475" version="4" timestamp="2022-08-15T06:31:15Z" changeset="124912436" uid="3497659" user="NKA">
		<tag k="name" v="Grønvika" />
		<tag k="place" v="hamlet" />
		<tag k="ssr:stedsnr" v="193729" />
	</node>
	<node id="775349031" lat="62.2886673" lon="5.7336191" version="7" timestamp="2022-08-15T06:31:15Z" changeset="124912436" uid="3497659" user="NKA">
		<tag k="alt_name" v="Tjørvåg" />
		<tag k="name" v="Tjørvågane" />
		<tag k="place" v="village" />
		<tag k="population" v="354" />
		<tag k="population:date" v="2021-01-01" />
		<tag k="ref:ssb_tettsted" v="6047" />
		<tag k="source:population" v="SSB - befolkning i tettstedet" />
		<tag k="ssr:stedsnr" v="314160" />
	</node>
	<node id="775349883" lat="62.2933568" lon="5.6271799" version="7" timestamp="2022-08-15T06:31:15Z" changeset="124912436" uid="3497659" user="NKA">
		<tag k="name" v="Moltustranda" />
		<tag k="place" v="village" />
		<tag k="population" v="445" />
		<tag k="population:date" v="2021-01-01" />
		<tag k="ref:ssb_tettsted" v="6046" />
		<tag k="source:population" v="SSB - befolkning i tettstedet" />
		<tag k="ssr:stedsnr" v="921566" />
	</node>
	<node id="775350864" lat="62.3439502" lon="5.694429" version="9" timestamp="2022-08-15T06:31:15Z" changeset="124912436" uid="3497659" user="NKA">
		<tag k="alt_name" v="Leinøy" />
		<tag k="name" v="Leine" />
		<tag k="place" v="village" />
		<tag k="population" v="563" />
		<tag k="population:date" v="2021-01-01" />
		<tag k="ref:ssb_tettsted" v="6045" />
		<tag k="source:population" v="SSB - befolkning i tettstedet" />
		<tag k="ssr:stedsnr" v="375571" />
	</node>
	<node id="775351522" lat="62.3574219" lon="5.674368" version="7" timestamp="2022-08-15T06:31:15Z" changeset="124912436" uid="3497659" user="NKA">
		<tag k="name" v="Volsund" />
		<tag k="place" v="hamlet" />
		<tag k="ssr:stedsnr" v="314631" />
	</node>
	<node id="1385266831" lat="62.3363175" lon="5.5644163" version="2" timestamp="2022-08-15T06:31:15Z" changeset="124912436" uid="3497659" user="NKA">
		<tag k="alt_name" v="Kopperstad;Kopparstad" />
		<tag k="name" v="Koparstad" />
		<tag k="place" v="hamlet" />
		<tag k="ssr:stedsnr" v="72577" />
	</node>
	<node id="1385266832" lat="62.3449173" lon="5.6006175" version="5" timestamp="2022-08-15T06:31:15Z" changeset="124912436" uid="3497659" user="NKA">
		<tag k="name" v="Kvalsund" />
		<tag k="place" v="village" />
		<tag k="population" v="573" />
		<tag k="population:date" v="2021-01-01" />
		<tag k="ref:ssb_tettsted" v="6042" />
		<tag k="source:population" v="SSB - befolkning i tettstedet" />
		<tag k="ssr:stedsnr" v="207529" />
	</node>
	<node id="1385266841" lat="62.3645761" lon="5.5537471" version="2" timestamp="2022-08-15T06:31:15Z" changeset="124912436" uid="3497659" user="NKA">
		<tag k="name" v="Kvalsvik" />
		<tag k="place" v="village" />
		<tag k="ssr:stedsnr" v="193623" />
	</node>
	<node id="1385266995" lat="62.3640555" lon="5.6553423" version="2" timestamp="2022-08-15T06:31:15Z" changeset="124912436" uid="3497659" user="NKA">
		<tag k="alt_name" v="Rimøy" />
		<tag k="name" v="Remøy" />
		<tag k="place" v="hamlet" />
		<tag k="ssr:stedsnr" v="253656" />
	</node>
	<node id="2844054209" lat="62.3049641" lon="5.7209711" version="2" timestamp="2022-08-15T06:31:15Z" changeset="124912436" uid="3497659" user="NKA">
		<tag k="name" v="Raftenes" />
		<tag k="place" v="hamlet" />
		<tag k="ssr:stedsnr" v="219742" />
	</node>
	<node id="6214191492" lat="62.3620908" lon="5.552379" version="2" timestamp="2022-08-15T06:31:15Z" changeset="124912436" uid="3497659" user="NKA">
		<tag k="alt_name" v="Nerlandsøy" />
		<tag k="name" v="Nerland" />
		<tag k="place" v="hamlet" />
		<tag k="ssr:stedsnr" v="132637" />
	</node>
	<node id="6214191505" lat="62.3556758" lon="5.7356411" version="2" timestamp="2022-08-15T06:31:15Z" changeset="124912436" uid="3497659" user="NKA">
		<tag k="alt_name" v="Bølandet" />
		<tag k="name" v="Bø" />
		<tag k="place" v="hamlet" />
		<tag k="ssr:stedsnr" v="556873" />
	</node>
	<node id="6216715406" lat="62.2476391" lon="5.7814561" version="7" timestamp="2022-08-15T06:31:15Z" changeset="124912436" uid="3497659" user="NKA">
		<tag k="alt_name" v="Gurskøy;Leikanger" />
		<tag k="loc_name" v="Leikang" />
		<tag k="name" v="Leikong" />
		<tag k="place" v="village" />
		<tag k="population" v="339" />
		<tag k="population:date" v="2021-01-01" />
		<tag k="ref:ssb_tettsted" v="6049" />
		<tag k="source:population" v="SSB - befolkning i tettstedet" />
		<tag k="ssr:stedsnr" v="132139" />
		<tag k="wikidata" v="Q13582273" />
		<tag k="wikipedia" v="en:Leikong" />
	</node>
	<node id="7102203026" lat="62.2802416" lon="5.8197112" version="4" timestamp="2022-08-15T06:31:15Z" changeset="124912436" uid="3497659" user="NKA">
		<tag k="name" v="Dragsund" />
		<tag k="place" v="quarter" />
		<tag k="population" v="389" />
		<tag k="population:date" v="2021-01-01" />
		<tag k="ref:ssb_tettsted" v="6050" />
		<tag k="source:population" v="SSB - befolkning i tettstedet" />
		<tag k="ssr:stedsnr" v="192145" />
	</node>
	<node id="9953978915" lat="62.2284666" lon="5.7519594" version="1" timestamp="2022-08-15T06:31:15Z" changeset="124912436" uid="3497659" user="NKA">
		<tag k="name" v="Rosskar" />
		<tag k="place" v="farm" />
		<tag k="ssr:stedsnr" v="939256" />
	</node>
	<node id="9953978916" lat="62.3024596" lon="5.7165116" version="1" timestamp="2022-08-15T06:31:15Z" changeset="124912436" uid="3497659" user="NKA">
		<tag k="name" v="Grytevika" />
		<tag k="place" v="farm" />
		<tag k="ssr:stedsnr" v="98286" />
	</node>
	<node id="9953988917" lat="62.3430333" lon="5.696917" version="1" timestamp="2022-08-15T06:31:15Z" changeset="124912436" uid="3497659" user="NKA">
		<tag k="name" v="Indre Leine" />
		<tag k="place" v="neighbourhood" />
		<tag k="ssr:stedsnr" v="99835" />
	</node>
	<node id="9953988918" lat="62.3488182" lon="5.7419151" version="1" timestamp="2022-08-15T06:31:15Z" changeset="124912436" uid="3497659" user="NKA">
		<tag k="name" v="Arhaugen" />
		<tag k="place" v="farm" />
		<tag k="ssr:stedsnr" v="496854" />
	</node>
	<node id="9953988919" lat="62.3895333" lon="5.6337489" version="1" timestamp="2022-08-15T06:31:15Z" changeset="124912436" uid="3497659" user="NKA">
		<tag k="name" v="Holen" />
		<tag k="place" v="farm" />
		<tag k="ssr:stedsnr" v="98652" />
	</node>
	<node id="9953988920" lat="62.355803" lon="5.7172207" version="1" timestamp="2022-08-15T06:31:15Z" changeset="124912436" uid="3497659" user="NKA">
		<tag k="name" v="Sande" />
		<tag k="place" v="hamlet" />
		<tag k="ssr:stedsnr" v="11615" />
	</node>
	<node id="9953988921" lat="62.3511728" lon="5.7406035" version="1" timestamp="2022-08-15T06:31:15Z" changeset="124912436" uid="3497659" user="NKA">
		<tag k="name" v="Stabelgarden" />
		<tag k="place" v="farm" />
		<tag k="ssr:stedsnr" v="1074572" />
	</node>
	<node id="9953988922" lat="62.340957" lon="5.6853794" version="1" timestamp="2022-08-15T06:31:15Z" changeset="124912436" uid="3497659" user="NKA">
		<tag k="name" v="Nordre Nærøya" />
		<tag k="old_name" v="Nærø Nordre" />
		<tag k="place" v="farm" />
		<tag k="ssr:stedsnr" v="1083737" />
	</node>
	<node id="9953988923" lat="62.2974861" lon="5.653731" version="1" timestamp="2022-08-15T06:31:15Z" changeset="124912436" uid="3497659" user="NKA">
		<tag k="name" v="Rabben" />
		<tag k="place" v="farm" />
		<tag k="ssr:stedsnr" v="860574" />
	</node>
	<node id="9953988924" lat="62.3265254" lon="5.6174497" version="1" timestamp="2022-08-15T06:31:15Z" changeset="124912436" uid="3497659" user="NKA">
		<tag k="name" v="Vikane" />
		<tag k="place" v="hamlet" />
		<tag k="ssr:stedsnr" v="678576" />
	</node>
	<node id="9953988925" lat="62.2972389" lon="5.7407781" version="1" timestamp="2022-08-15T06:31:15Z" changeset="124912436" uid="3497659" user="NKA">
		<tag k="name" v="Litleneset" />
		<tag k="place" v="farm" />
		<tag k="ssr:stedsnr" v="861754" />
	</node>
	<node id="9953988926" lat="62.3398826" lon="5.6655229" version="1" timestamp="2022-08-15T06:31:15Z" changeset="124912436" uid="3497659" user="NKA">
		<tag k="alt_name" v="Reite" />
		<tag k="name" v="Reitane" />
		<tag k="place" v="farm" />
		<tag k="ssr:stedsnr" v="193600" />
	</node>
	<node id="9953988927" lat="62.3305713" lon="5.6553652" version="1" timestamp="2022-08-15T06:31:15Z" changeset="124912436" uid="3497659" user="NKA">
		<tag k="name" v="Hjelmeset" />
		<tag k="place" v="neighbourhood" />
		<tag k="ssr:stedsnr" v="254559" />
	</node>
	<node id="9953988928" lat="62.2293169" lon="5.8095029" version="1" timestamp="2022-08-15T06:31:15Z" changeset="124912436" uid="3497659" user="NKA">
		<tag k="name" v="Støylen" />
		<tag k="place" v="farm" />
		<tag k="ssr:stedsnr" v="158647" />
	</node>
	<node id="9953988929" lat="62.3262608" lon="5.6383312" version="1" timestamp="2022-08-15T06:31:15Z" changeset="124912436" uid="3497659" user="NKA">
		<tag k="name" v="Eggesbø" />
		<tag k="place" v="village" />
		<tag k="ssr:stedsnr" v="705358" />
	</node>
	<node id="9953988930" lat="62.2311824" lon="5.8315358" version="1" timestamp="2022-08-15T06:31:15Z" changeset="124912436" uid="3497659" user="NKA">
		<tag k="name" v="Måløya" />
		<tag k="place" v="farm" />
		<tag k="ssr:stedsnr" v="514271" />
	</node>
	<node id="9953988931" lat="62.3076078" lon="5.7350558" version="1" timestamp="2022-08-15T06:31:15Z" changeset="124912436" uid="3497659" user="NKA">
		<tag k="name" v="Stokksund" />
		<tag k="place" v="neighbourhood" />
		<tag k="ssr:stedsnr" v="496805" />
	</node>
	<node id="9953988932" lat="62.2198238" lon="5.7936588" version="1" timestamp="2022-08-15T06:31:15Z" changeset="124912436" uid="3497659" user="NKA">
		<tag k="name" v="Bøen" />
		<tag k="place" v="farm" />
		<tag k="ssr:stedsnr" v="705710" />
	</node>
	<node id="9953988933" lat="62.2404611" lon="5.7817364" version="1" timestamp="2022-08-15T06:31:15Z" changeset="124912436" uid="3497659" user="NKA">
		<tag k="name" v="Hjellen" />
		<tag k="place" v="farm" />
		<tag k="ssr:stedsnr" v="496144" />
	</node>
	<node id="9953988934" lat="62.3284394" lon="5.6354465" version="1" timestamp="2022-08-15T06:31:15Z" changeset="124912436" uid="3497659" user="NKA">
		<tag k="name" v="Myklebust" />
		<tag k="place" v="quarter" />
		<tag k="ssr:stedsnr" v="496603" />
	</node>
	<node id="9953988935" lat="62.2648667" lon="5.7938393" version="1" timestamp="2022-08-15T06:31:15Z" changeset="124912436" uid="3497659" user="NKA">
		<tag k="name" v="Skogen" />
		<tag k="place" v="farm" />
		<tag k="ssr:stedsnr" v="799181" />
	</node>
	<node id="9953988936" lat="62.2444694" lon="5.7597258" version="1" timestamp="2022-08-15T06:31:15Z" changeset="124912436" uid="3497659" user="NKA">
		<tag k="name" v="Leikongsætra" />
		<tag k="place" v="hamlet" />
		<tag k="ssr:stedsnr" v="860183" />
	</node>
	<node id="9953988937" lat="62.2235262" lon="5.8002706" version="1" timestamp="2022-08-15T06:31:15Z" changeset="124912436" uid="3497659" user="NKA">
		<tag k="name" v="Jøsok" />
		<tag k="place" v="hamlet" />
		<tag k="ssr:stedsnr" v="496181" />
	</node>
	<node id="9953988938" lat="62.2850444" lon="5.7597865" version="1" timestamp="2022-08-15T06:31:15Z" changeset="124912436" uid="3497659" user="NKA">
		<tag k="name" v="Leirvika" />
		<tag k="place" v="farm" />
		<tag k="ssr:stedsnr" v="800136" />
	</node>
	<node id="9953988939" lat="62.2850121" lon="5.7822551" version="1" timestamp="2022-08-15T06:31:15Z" changeset="124912436" uid="3497659" user="NKA">
		<tag k="alt_name" v="Aurvågane" />
		<tag k="name" v="Aurvåg" />
		<tag k="place" v="farm" />
		<tag k="ssr:stedsnr" v="193133" />
	</node>
	<node id="9953988940" lat="62.2864769" lon="5.770606" version="1" timestamp="2022-08-15T06:31:15Z" changeset="124912436" uid="3497659" user="NKA">
		<tag k="name" v="Kalvenes" />
		<tag k="place" v="farm" />
		<tag k="ssr:stedsnr" v="557131" />
	</node>
	<node id="9953988941" lat="62.2515202" lon="5.7842863" version="1" timestamp="2022-08-15T06:31:15Z" changeset="124912436" uid="3497659" user="NKA">
		<tag k="alt_name" v="Nykreim" />
		<tag k="name" v="Moldtugarden" />
		<tag k="place" v="hamlet" />
		<tag k="ssr:stedsnr" v="617238" />
	</node>
	<node id="9953988942" lat="62.3380498" lon="5.6119901" version="1" timestamp="2022-08-15T06:31:15Z" changeset="124912436" uid="3497659" user="NKA">
		<tag k="name" v="Igesund" />
		<tag k="place" v="hamlet" />
		<tag k="ssr:stedsnr" v="132595" />
	</node>
	<node id="9953988943" lat="62.3680025" lon="5.5515015" version="1" timestamp="2022-08-15T06:31:15Z" changeset="124912436" uid="3497659" user="NKA">
		<tag k="name" v="Nedre Kvalsvik" />
		<tag k="place" v="farm" />
		<tag k="ssr:stedsnr" v="280652" />
	</node>
	<node id="9953988944" lat="62.2603389" lon="5.730931" version="1" timestamp="2022-08-15T06:31:15Z" changeset="124912436" uid="3497659" user="NKA">
		<tag k="name" v="Høgsetsetrane" />
		<tag k="place" v="locality" />
		<tag k="ssr:stedsnr" v="523364" />
	</node>
	<node id="9953988945" lat="62.2344278" lon="5.8000976" version="1" timestamp="2022-08-15T06:31:15Z" changeset="124912436" uid="3497659" user="NKA">
		<tag k="name" v="Sletta" />
		<tag k="place" v="farm" />
		<tag k="ssr:stedsnr" v="556202" />
	</node>
	<node id="9953988946" lat="62.3674349" lon="5.5454864" version="1" timestamp="2022-08-15T06:31:15Z" changeset="124912436" uid="3497659" user="NKA">
		<tag k="name" v="Øvre Kvalsvik" />
		<tag k="place" v="farm" />
		<tag k="ssr:stedsnr" v="280654" />
	</node>
	<node id="9953988947" lat="62.2915672" lon="5.7370475" version="1" timestamp="2022-08-15T06:31:15Z" changeset="124912436" uid="3497659" user="NKA">
		<tag k="name" v="Ormenes" />
		<tag k="place" v="farm" />
		<tag k="ssr:stedsnr" v="522630" />
	</node>
	<node id="9953988948" lat="62.2367195" lon="5.8075586" version="1" timestamp="2022-08-15T06:31:15Z" changeset="124912436" uid="3497659" user="NKA">
		<tag k="alt_name" v="Kleppe" />
		<tag k="name" v="Kleppane" />
		<tag k="place" v="hamlet" />
		<tag k="ssr:stedsnr" v="617198" />
	</node>
	<node id="9953988949" lat="62.3260126" lon="5.6867891" version="1" timestamp="2022-08-15T06:31:15Z" changeset="124912436" uid="3497659" user="NKA">
		<tag k="name" v="Espeset" />
		<tag k="place" v="hamlet" />
		<tag k="ssr:stedsnr" v="72550" />
	</node>
	<node id="9953988950" lat="62.3228648" lon="5.71747" version="1" timestamp="2022-08-15T06:31:15Z" changeset="124912436" uid="3497659" user="NKA">
		<tag k="name" v="Røyra" />
		<tag k="place" v="hamlet" />
		<tag k="ssr:stedsnr" v="71616" />
	</node>
	<node id="9953988951" lat="62.242572" lon="5.7846502" version="1" timestamp="2022-08-15T06:31:15Z" changeset="124912436" uid="3497659" user="NKA">
		<tag k="name" v="Leikongstranda" />
		<tag k="place" v="farm" />
		<tag k="ssr:stedsnr" v="476778" />
	</node>
	<node id="9953988952" lat="62.2786083" lon="5.8296947" version="1" timestamp="2022-08-15T06:31:15Z" changeset="124912436" uid="3497659" user="NKA">
		<tag k="name" v="Tua" />
		<tag k="place" v="farm" />
		<tag k="ssr:stedsnr" v="374207" />
	</node>
	<node id="9953988953" lat="62.3407153" lon="5.6814572" version="1" timestamp="2022-08-15T06:31:15Z" changeset="124912436" uid="3497659" user="NKA">
		<tag k="name" v="Nærøya" />
		<tag k="place" v="hamlet" />
		<tag k="ssr:stedsnr" v="72567" />
	</node>
	<node id="9953988954" lat="62.3366839" lon="5.704986" version="1" timestamp="2022-08-15T06:31:15Z" changeset="124912436" uid="3497659" user="NKA">
		<tag k="name" v="Lisje Nærøya" />
		<tag k="old_name" v="Nærøen -Lille" />
		<tag k="place" v="farm" />
		<tag k="ssr:stedsnr" v="1083734" />
	</node>
	<node id="9953988955" lat="62.3242616" lon="5.729322" version="1" timestamp="2022-08-15T06:31:15Z" changeset="124912436" uid="3497659" user="NKA">
		<tag k="name" v="Myrane" />
		<tag k="place" v="farm" />
		<tag k="ssr:stedsnr" v="476322" />
	</node>
	<node id="9953988956" lat="62.2335119" lon="5.8071421" version="1" timestamp="2022-08-15T06:31:15Z" changeset="124912436" uid="3497659" user="NKA">
		<tag k="name" v="Gjerdet" />
		<tag k="place" v="farm" />
		<tag k="ssr:stedsnr" v="280650" />
	</node>
	<node id="9953988957" lat="62.3393757" lon="5.684799" version="1" timestamp="2022-08-15T06:31:15Z" changeset="124912436" uid="3497659" user="NKA">
		<tag k="name" v="Austre Nærøya" />
		<tag k="old_name" v="Østre-Nærø" />
		<tag k="place" v="farm" />
		<tag k="ssr:stedsnr" v="1083732" />
	</node>
	<node id="9953988958" lat="62.2662787" lon="5.7939324" version="1" timestamp="2022-08-15T06:31:15Z" changeset="124912436" uid="3497659" user="NKA">
		<tag k="alt_name" v="Djupvika" />
		<tag k="name" v="Djupvik" />
		<tag k="place" v="hamlet" />
		<tag k="ssr:stedsnr" v="71205" />
	</node>
	<node id="9953988959" lat="62.264425" lon="5.7984754" version="1" timestamp="2022-08-15T06:31:15Z" changeset="124912436" uid="3497659" user="NKA">
		<tag k="name" v="Haukenes" />
		<tag k="place" v="farm" />
		<tag k="ssr:stedsnr" v="10167" />
	</node>
	<node id="9953988960" lat="62.3358942" lon="5.662288" version="1" timestamp="2022-08-15T06:31:15Z" changeset="124912436" uid="3497659" user="NKA">
		<tag k="name" v="Berge" />
		<tag k="place" v="quarter" />
		<tag k="ssr:stedsnr" v="436573" />
	</node>
	<node id="9953988961" lat="62.3143954" lon="5.7057448" version="1" timestamp="2022-08-15T06:31:15Z" changeset="124912436" uid="3497659" user="NKA">
		<tag k="name" v="Jensholmen" />
		<tag k="place" v="locality" />
		<tag k="ssr:stedsnr" v="982597" />
	</node>
	<node id="9953988962" lat="62.2661917" lon="5.8143448" version="1" timestamp="2022-08-15T06:31:15Z" changeset="124912436" uid="3497659" user="NKA">
		<tag k="name" v="Kobbeneset" />
		<tag k="place" v="farm" />
		<tag k="ssr:stedsnr" v="495189" />
	</node>
	<node id="9953988963" lat="62.2324444" lon="5.8101198" version="1" timestamp="2022-08-15T06:31:15Z" changeset="124912436" uid="3497659" user="NKA">
		<tag k="name" v="Kleppestranda" />
		<tag k="place" v="farm" />
		<tag k="ssr:stedsnr" v="757236" />
	</node>
	<node id="9953988964" lat="62.3092351" lon="5.6861925" version="1" timestamp="2022-08-15T06:31:15Z" changeset="124912436" uid="3497659" user="NKA">
		<tag k="name" v="Nautøya" />
		<tag k="place" v="farm" />
		<tag k="ssr:stedsnr" v="982594" />
	</node>
	<node id="9953988965" lat="62.3393403" lon="5.5214199" version="1" timestamp="2022-08-15T06:31:15Z" changeset="124912436" uid="3497659" user="NKA">
		<tag k="name" v="Skorpesund" />
		<tag k="place" v="locality" />
		<tag k="ssr:stedsnr" v="888323" />
	</node>
	<node id="9953988966" lat="62.3136999" lon="5.6949594" version="1" timestamp="2022-08-15T06:31:15Z" changeset="124912436" uid="3497659" user="NKA">
		<tag k="name" v="Petterholmen" />
		<tag k="place" v="locality" />
		<tag k="ssr:stedsnr" v="982596" />
	</node>
	<node id="9953988967" lat="62.3413382" lon="5.6720299" version="1" timestamp="2022-08-15T06:31:15Z" changeset="124912436" uid="3497659" user="NKA">
		<tag k="name" v="Straumnes" />
		<tag k="place" v="isolated_dwelling" />
		<tag k="ssr:stedsnr" v="901446" />
	</node>
	<node id="9953988968" lat="62.2805308" lon="5.7308762" version="1" timestamp="2022-08-15T06:31:15Z" changeset="124912436" uid="3497659" user="NKA">
		<tag k="alt_name" v="Tjørvågane" />
		<tag k="name" v="Tjørvåg" />
		<tag k="place" v="farm" />
		<tag k="ssr:stedsnr" v="982619" />
	</node>
	<node id="9953988969" lat="62.2844972" lon="5.7954756" version="1" timestamp="2022-08-15T06:31:15Z" changeset="124912436" uid="3497659" user="NKA">
		<tag k="alt_name" v="Myrvågnes" />
		<tag k="name" v="Myrvågneset" />
		<tag k="place" v="hamlet" />
		<tag k="ssr:stedsnr" v="254111" />
	</node>
	<node id="9953988970" lat="62.2944372" lon="5.6031265" version="1" timestamp="2022-08-15T06:31:15Z" changeset="124912436" uid="3497659" user="NKA">
		<tag k="name" v="Tarberg" />
		<tag k="place" v="hamlet" />
		<tag k="ssr:stedsnr" v="496565" />
	</node>
	<node id="9953988971" lat="62.2775361" lon="5.7564864" version="1" timestamp="2022-08-15T06:31:15Z" changeset="124912436" uid="3497659" user="NKA">
		<tag k="alt_name" v="Sætremyrane" />
		<tag k="name" v="Sætremyra" />
		<tag k="place" v="farm" />
		<tag k="ssr:stedsnr" v="253153" />
	</node>
	<node id="9953988972" lat="62.2356361" lon="5.7906087" version="1" timestamp="2022-08-15T06:31:15Z" changeset="124912436" uid="3497659" user="NKA">
		<tag k="name" v="Vonheim" />
		<tag k="place" v="farm" />
		<tag k="ssr:stedsnr" v="678170" />
	</node>
	<node id="9953988973" lat="62.2861389" lon="5.7280114" version="1" timestamp="2022-08-15T06:31:15Z" changeset="124912436" uid="3497659" user="NKA">
		<tag k="name" v="Ekremyr" />
		<tag k="place" v="farm" />
		<tag k="ssr:stedsnr" v="739132" />
	</node>
	<node id="9953988974" lat="62.2352792" lon="5.8018905" version="1" timestamp="2022-08-15T06:31:15Z" changeset="124912436" uid="3497659" user="NKA">
		<tag k="name" v="Kleppe" />
		<tag k="place" v="farm" />
		<tag k="ssr:stedsnr" v="37652" />
	</node>
	<node id="9953988975" lat="62.3605182" lon="5.7395782" version="1" timestamp="2022-08-15T06:31:15Z" changeset="124912436" uid="3497659" user="NKA">
		<tag k="name" v="Ytrebø" />
		<tag k="place" v="farm" />
		<tag k="ssr:stedsnr" v="193863" />
	</node>
	<node id="9953988976" lat="62.2540301" lon="5.7729527" version="1" timestamp="2022-08-15T06:31:15Z" changeset="124912436" uid="3497659" user="NKA">
		<tag k="name" v="Nykreim" />
		<tag k="place" v="farm" />
		<tag k="ssr:stedsnr" v="1083735" />
	</node>
	<node id="9953988977" lat="62.2801867" lon="5.7710924" version="1" timestamp="2022-08-15T06:31:15Z" changeset="124912436" uid="3497659" user="NKA">
		<tag k="alt_name" v="Aurvåglia;Aurvåglid" />
		<tag k="name" v="Aurvåglida" />
		<tag k="place" v="hamlet" />
		<tag k="ssr:stedsnr" v="435161" />
	</node>
	<node id="9953988978" lat="62.347075" lon="5.6973282" version="1" timestamp="2022-08-15T06:31:15Z" changeset="124912436" uid="3497659" user="NKA">
		<tag k="name" v="Leinestøylen" />
		<tag k="place" v="farm" />
		<tag k="ssr:stedsnr" v="436587" />
	</node>
	<node id="9953988979" lat="62.3275137" lon="5.6984888" version="1" timestamp="2022-08-15T06:31:15Z" changeset="124912436" uid="3497659" user="NKA">
		<tag k="name" v="Frøystadvågen" />
		<tag k="place" v="hamlet" />
		<tag k="ssr:stedsnr" v="375532" />
	</node>
	<node id="9953988980" lat="62.2407115" lon="5.7868387" version="1" timestamp="2022-08-15T06:31:15Z" changeset="124912436" uid="3497659" user="NKA">
		<tag k="name" v="Raudvika" />
		<tag k="place" v="hamlet" />
		<tag k="ssr:stedsnr" v="11135" />
	</node>
	<node id="9953988981" lat="62.2916878" lon="5.7865686" version="1" timestamp="2022-08-15T06:31:15Z" changeset="124912436" uid="3497659" user="NKA">
		<tag k="name" v="Kristofferholmen" />
		<tag k="place" v="locality" />
		<tag k="ssr:stedsnr" v="982599" />
	</node>
	<node id="9953988982" lat="62.3214695" lon="5.6426115" version="1" timestamp="2022-08-15T06:31:15Z" changeset="124912436" uid="3497659" user="NKA">
		<tag k="name" v="Eggesbømarka" />
		<tag k="place" v="neighbourhood" />
		<tag k="ssr:stedsnr" v="857471" />
	</node>
	<node id="9953988983" lat="62.2163992" lon="5.7915554" version="1" timestamp="2022-08-15T06:31:15Z" changeset="124912436" uid="3497659" user="NKA">
		<tag k="name" v="Voldneset" />
		<tag k="place" v="hamlet" />
		<tag k="ssr:stedsnr" v="435097" />
	</node>
	<node id="9953988984" lat="62.3617491" lon="5.6334413" version="1" timestamp="2022-08-15T06:31:15Z" changeset="124912436" uid="3497659" user="NKA">
		<tag k="name" v="Haugen" />
		<tag k="place" v="farm" />
		<tag k="ssr:stedsnr" v="948815" />
	</node>
	<node id="9953988985" lat="62.2467" lon="5.7714004" version="1" timestamp="2022-08-15T06:31:15Z" changeset="124912436" uid="3497659" user="NKA">
		<tag k="name" v="Veien" />
		<tag k="place" v="farm" />
		<tag k="ssr:stedsnr" v="860184" />
	</node>
	<node id="9953988986" lat="62.3501961" lon="5.6782603" version="1" timestamp="2022-08-15T06:31:15Z" changeset="124912436" uid="3497659" user="NKA">
		<tag k="name" v="Leitet" />
		<tag k="place" v="farm" />
		<tag k="ssr:stedsnr" v="643632" />
	</node>
	<node id="9953988987" lat="62.2283361" lon="5.8105809" version="1" timestamp="2022-08-15T06:31:15Z" changeset="124912436" uid="3497659" user="NKA">
		<tag k="name" v="Rinden" />
		<tag k="place" v="farm" />
		<tag k="ssr:stedsnr" v="193171" />
	</node>
	<node id="9953988988" lat="62.2266117" lon="5.7967346" version="1" timestamp="2022-08-15T06:31:15Z" changeset="124912436" uid="3497659" user="NKA">
		<tag k="alt_name" v="Bakken" />
		<tag k="name" v="Jøsokbakken" />
		<tag k="old_name" v="Jøsokbaken" />
		<tag k="place" v="farm" />
		<tag k="ssr:stedsnr" v="921192" />
	</node>
	<node id="9953988989" lat="62.2424444" lon="5.7515725" version="1" timestamp="2022-08-15T06:31:15Z" changeset="124912436" uid="3497659" user="NKA">
		<tag k="name" v="Sætreplassen" />
		<tag k="place" v="locality" />
		<tag k="ssr:stedsnr" v="860182" />
	</node>
	<node id="9953988990" lat="62.2805068" lon="5.7648757" version="1" timestamp="2022-08-15T06:31:15Z" changeset="124912436" uid="3497659" user="NKA">
		<tag k="name" v="Aspevika" />
		<tag k="place" v="farm" />
		<tag k="ssr:stedsnr" v="401637" />
	</node>
	<node id="9953988991" lat="62.2357939" lon="5.7911053" version="1" timestamp="2022-08-15T06:31:15Z" changeset="124912436" uid="3497659" user="NKA">
		<tag k="name" v="Brauta" />
		<tag k="place" v="farm" />
		<tag k="ssr:stedsnr" v="826640" />
	</node>
	<node id="9953988992" lat="62.3249737" lon="5.6172967" version="1" timestamp="2022-08-15T06:31:15Z" changeset="124912436" uid="3497659" user="NKA">
		<tag k="name" v="Korsen" />
		<tag k="place" v="isolated_dwelling" />
		<tag k="ssr:stedsnr" v="658296" />
	</node>
	<node id="9953988993" lat="62.3335245" lon="5.7235156" version="1" timestamp="2022-08-15T06:31:15Z" changeset="124912436" uid="3497659" user="NKA">
		<tag k="alt_name" v="Steinsvika" />
		<tag k="name" v="Steinsvik" />
		<tag k="place" v="farm" />
		<tag k="ssr:stedsnr" v="132827" />
	</node>
	<node id="9953988994" lat="62.2973058" lon="5.6603229" version="1" timestamp="2022-08-15T06:31:15Z" changeset="124912436" uid="3497659" user="NKA">
		<tag k="alt_name" v="Dyrhaugen" />
		<tag k="name" v="Dyrhaug" />
		<tag k="place" v="hamlet" />
		<tag k="ssr:stedsnr" v="132529" />
	</node>
	<node id="9953988995" lat="62.2480935" lon="5.7748743" version="1" timestamp="2022-08-15T06:31:15Z" changeset="124912436" uid="3497659" user="NKA">
		<tag k="name" v="Leikongbakken" />
		<tag k="place" v="farm" />
		<tag k="ssr:stedsnr" v="314170" />
	</node>
	<node id="9953988996" lat="62.2380277" lon="5.7905844" version="1" timestamp="2022-08-15T06:31:15Z" changeset="124912436" uid="3497659" user="NKA">
		<tag k="alt_name" v="Smådal" />
		<tag k="name" v="Smådalane" />
		<tag k="place" v="farm" />
		<tag k="ssr:stedsnr" v="826639" />
	</node>
	<node id="9953988997" lat="62.3319623" lon="5.7137046" version="1" timestamp="2022-08-15T06:31:15Z" changeset="124912436" uid="3497659" user="NKA">
		<tag k="name" v="Frøystad" />
		<tag k="place" v="hamlet" />
		<tag k="ssr:stedsnr" v="800570" />
	</node>
	<node id="9953988998" lat="62.213875" lon="5.7874364" version="1" timestamp="2022-08-15T06:31:15Z" changeset="124912436" uid="3497659" user="NKA">
		<tag k="alt_name" v="Voldnesgjerdet" />
		<tag k="name" v="Gjerdet" />
		<tag k="place" v="farm" />
		<tag k="ssr:stedsnr" v="799072" />
	</node>
	<node id="9953988999" lat="62.2680982" lon="5.8117782" version="1" timestamp="2022-08-15T06:31:15Z" changeset="124912436" uid="3497659" user="NKA">
		<tag k="name" v="Kobbenesvågen" />
		<tag k="place" v="farm" />
		<tag k="ssr:stedsnr" v="131168" />
	</node>
	<node id="9953989000" lat="62.3392287" lon="5.7269429" version="1" timestamp="2022-08-15T06:31:15Z" changeset="124912436" uid="3497659" user="NKA">
		<tag k="name" v="Torvika" />
		<tag k="place" v="hamlet" />
		<tag k="ssr:stedsnr" v="739823" />
	</node>
	<node id="9953989001" lat="62.27665" lon="5.7925864" version="1" timestamp="2022-08-15T06:31:15Z" changeset="124912436" uid="3497659" user="NKA">
		<tag k="name" v="Haugen" />
		<tag k="place" v="farm" />
		<tag k="ssr:stedsnr" v="799137" />
	</node>
	<node id="9953989002" lat="62.341403" lon="5.6424727" version="1" timestamp="2022-08-15T06:31:15Z" changeset="124912436" uid="3497659" user="NKA">
		<tag k="name" v="Nørdrevåg" />
		<tag k="place" v="quarter" />
		<tag k="ssr:stedsnr" v="72564" />
	</node>
	<node id="9953989003" lat="62.2624193" lon="5.7953411" version="1" timestamp="2022-08-15T06:31:15Z" changeset="124912436" uid="3497659" user="NKA">
		<tag k="name" v="Djupvika" />
		<tag k="place" v="farm" />
		<tag k="ssr:stedsnr" v="462628" />
	</node>
	<node id="9953989004" lat="62.2193444" lon="5.7923808" version="1" timestamp="2022-08-15T06:31:15Z" changeset="124912436" uid="3497659" user="NKA">
		<tag k="name" v="Årdalen" />
		<tag k="place" v="farm" />
		<tag k="ssr:stedsnr" v="436170" />
	</node>
	<node id="9953989005" lat="62.2769306" lon="5.742917" version="1" timestamp="2022-08-15T06:31:15Z" changeset="124912436" uid="3497659" user="NKA">
		<tag k="name" v="Byrkjehola" />
		<tag k="place" v="farm" />
		<tag k="ssr:stedsnr" v="678133" />
	</node>
	<node id="9953989006" lat="62.2703732" lon="5.8103248" version="1" timestamp="2022-08-15T06:31:15Z" changeset="124912436" uid="3497659" user="NKA">
		<tag k="name" v="Djupvikstranda" />
		<tag k="place" v="farm" />
		<tag k="ssr:stedsnr" v="947619" />
	</node>
	<node id="9953989007" lat="62.3479614" lon="5.5976726" version="1" timestamp="2022-08-15T06:31:15Z" changeset="124912436" uid="3497659" user="NKA">
		<tag k="alt_name" v="Teige" />
		<tag k="name" v="Teigane" />
		<tag k="place" v="hamlet" />
		<tag k="ssr:stedsnr" v="314621" />
	</node>
	<node id="9953989008" lat="62.3327182" lon="5.7206919" version="1" timestamp="2022-08-15T06:31:15Z" changeset="124912436" uid="3497659" user="NKA">
		<tag k="name" v="Storvik" />
		<tag k="place" v="farm" />
		<tag k="ssr:stedsnr" v="173309" />
	</node>
	<node id="9953989009" lat="62.35085" lon="5.6781005" version="1" timestamp="2022-08-15T06:31:15Z" changeset="124912436" uid="3497659" user="NKA">
		<tag k="name" v="Grønstøylen" />
		<tag k="place" v="farm" />
		<tag k="ssr:stedsnr" v="11606" />
	</node>
	<node id="9953989010" lat="62.3227738" lon="5.686216" version="1" timestamp="2022-08-15T06:31:15Z" changeset="124912436" uid="3497659" user="NKA">
		<tag k="name" v="Vågsnes" />
		<tag k="place" v="farm" />
		<tag k="ssr:stedsnr" v="355290" />
	</node>
	<node id="9953989011" lat="62.3251508" lon="5.6842428" version="1" timestamp="2022-08-15T06:31:15Z" changeset="124912436" uid="3497659" user="NKA">
		<tag k="name" v="Gjerdet" />
		<tag k="place" v="farm" />
		<tag k="ssr:stedsnr" v="719299" />
	</node>
	<node id="9953989012" lat="62.2942997" lon="5.6346941" version="1" timestamp="2022-08-15T06:31:15Z" changeset="124912436" uid="3497659" user="NKA">
		<tag k="name" v="Moltu" />
		<tag k="place" v="hamlet" />
		<tag k="ssr:stedsnr" v="393234" />
	</node>
	<node id="9953989013" lat="62.2936788" lon="5.6146149" version="1" timestamp="2022-08-15T06:31:15Z" changeset="124912436" uid="3497659" user="NKA">
		<tag k="name" v="Slettebakk" />
		<tag k="place" v="hamlet" />
		<tag k="ssr:stedsnr" v="193553" />
	</node>
	<node id="9953989014" lat="62.3137378" lon="5.6787151" version="1" timestamp="2022-08-15T06:31:15Z" changeset="124912436" uid="3497659" user="NKA">
		<tag k="name" v="Herøy" />
		<tag k="place" v="farm" />
		<tag k="ssr:stedsnr" v="982593" />
	</node>
	<node id="9953989015" lat="62.3415217" lon="5.6697852" version="1" timestamp="2022-08-15T06:31:15Z" changeset="124912436" uid="3497659" user="NKA">
		<tag k="name" v="Flusund" />
		<tag k="place" v="hamlet" />
		<tag k="ssr:stedsnr" v="800611" />
	</node>
	<node id="9953989016" lat="62.2792183" lon="5.7417947" version="1" timestamp="2022-08-15T06:31:15Z" changeset="124912436" uid="3497659" user="NKA">
		<tag k="name" v="Tuftene" />
		<tag k="place" v="farm" />
		<tag k="ssr:stedsnr" v="158651" />
	</node>
	<node id="9953989017" lat="62.2871278" lon="5.6333643" version="1" timestamp="2022-08-15T06:31:15Z" changeset="124912436" uid="3497659" user="NKA">
		<tag k="name" v="Kvia" />
		<tag k="place" v="isolated_dwelling" />
		<tag k="ssr:stedsnr" v="887666" />
	</node>
	<node id="9953989018" lat="62.3620589" lon="5.6313821" version="1" timestamp="2022-08-15T06:31:15Z" changeset="124912436" uid="3497659" user="NKA">
		<tag k="alt_name" v="Søvik" />
		<tag k="name" v="Sævik" />
		<tag k="place" v="hamlet" />
		<tag k="ssr:stedsnr" v="921651" />
	</node>
	<node id="9953989019" lat="62.2941804" lon="5.5823244" version="1" timestamp="2022-08-15T06:31:15Z" changeset="124912436" uid="3497659" user="NKA">
		<tag k="name" v="Løset" />
		<tag k="place" v="farm" />
		<tag k="ssr:stedsnr" v="374521" />
	</node>
	<node id="9953989020" lat="62.3298791" lon="5.7141803" version="1" timestamp="2022-08-15T06:31:15Z" changeset="124912436" uid="3497659" user="NKA">
		<tag k="name" v="Stølen" />
		<tag k="place" v="farm" />
		<tag k="ssr:stedsnr" v="537298" />
	</node>
	<node id="9953989021" lat="62.3476099" lon="5.5999256" version="1" timestamp="2022-08-15T06:31:15Z" changeset="124912436" uid="3497659" user="NKA">
		<tag k="alt_name" v="Myren" />
		<tag k="name" v="Teigemyra" />
		<tag k="place" v="farm" />
		<tag k="ssr:stedsnr" v="545694" />
	</node>
	<node id="9953989022" lat="62.3213612" lon="5.6338109" version="1" timestamp="2022-08-15T06:31:15Z" changeset="124912436" uid="3497659" user="NKA">
		<tag k="alt_name" v="Grønhaugen" />
		<tag k="name" v="Grønhaug" />
		<tag k="place" v="farm" />
		<tag k="ssr:stedsnr" v="921596" />
	</node>
	<node id="9953989023" lat="62.3000809" lon="5.7157974" version="1" timestamp="2022-08-15T06:31:15Z" changeset="124912436" uid="3497659" user="NKA">
		<tag k="name" v="Breivika" />
		<tag k="place" v="farm" />
		<tag k="ssr:stedsnr" v="158649" />
	</node>
	<node id="9953989024" lat="62.3307562" lon="5.6597235" version="1" timestamp="2022-08-15T06:31:15Z" changeset="124912436" uid="3497659" user="NKA">
		<tag k="name" v="Monsholmen" />
		<tag k="place" v="locality" />
		<tag k="ssr:stedsnr" v="354443" />
	</node>
	<node id="9953989025" lat="62.2973361" lon="5.6868088" version="1" timestamp="2022-08-15T06:31:15Z" changeset="124912436" uid="3497659" user="NKA">
		<tag k="alt_name" v="Ryssevika" />
		<tag k="name" v="Ryssevik" />
		<tag k="place" v="farm" />
		<tag k="ssr:stedsnr" v="132527" />
	</node>
	<node id="9953989026" lat="62.2269271" lon="5.8075613" version="1" timestamp="2022-08-15T06:31:15Z" changeset="124912436" uid="3497659" user="NKA">
		<tag k="name" v="Stranda" />
		<tag k="place" v="farm" />
		<tag k="ssr:stedsnr" v="765617" />
	</node>
	<node id="9953989027" lat="62.3345693" lon="5.6756222" version="1" timestamp="2022-08-15T06:31:15Z" changeset="124912436" uid="3497659" user="NKA">
		<tag k="name" v="Bergsneset" />
		<tag k="place" v="farm" />
		<tag k="ssr:stedsnr" v="462337" />
	</node>
	<node id="9953989028" lat="62.3038616" lon="5.7274569" version="1" timestamp="2022-08-15T06:31:15Z" changeset="124912436" uid="3497659" user="NKA">
		<tag k="name" v="Stokksund" />
		<tag k="place" v="village" />
		<tag k="ssr:stedsnr" v="233357" />
	</node>
	<node id="9953989029" lat="62.2913861" lon="5.6147781" version="1" timestamp="2022-08-15T06:31:15Z" changeset="124912436" uid="3497659" user="NKA">
		<tag k="name" v="Øygarden" />
		<tag k="place" v="farm" />
		<tag k="ssr:stedsnr" v="29261" />
	</node>
	<node id="9953989030" lat="62.2152895" lon="5.7424695" version="1" timestamp="2022-08-15T06:31:15Z" changeset="124912436" uid="3497659" user="NKA">
		<tag k="historic" v="shieling" />
		<tag k="name" v="Jøsoksela" />
		<tag k="place" v="isolated_dwelling" />
		<tag k="ssr:stedsnr" v="799077" />
	</node>
	<node id="9953989031" lat="62.2245333" lon="5.7883253" version="1" timestamp="2022-08-15T06:31:15Z" changeset="124912436" uid="3497659" user="NKA">
		<tag k="name" v="Rydningen" />
		<tag k="place" v="farm" />
		<tag k="ssr:stedsnr" v="921195" />
	</node>
	<node id="9953989032" lat="62.3269556" lon="5.6194019" version="1" timestamp="2022-08-15T06:31:15Z" changeset="124912436" uid="3497659" user="NKA">
		<tag k="name" v="Vike" />
		<tag k="place" v="farm" />
		<tag k="ssr:stedsnr" v="766819" />
	</node>
	<node id="9953989033" lat="62.2881889" lon="5.6184948" version="1" timestamp="2022-08-15T06:31:15Z" changeset="124912436" uid="3497659" user="NKA">
		<tag k="name" v="Nygjerdet" />
		<tag k="place" v="hamlet" />
		<tag k="ssr:stedsnr" v="860575" />
	</node>
	<node id="9953989034" lat="62.3583389" lon="5.7427531" version="1" timestamp="2022-08-15T06:31:15Z" changeset="124912436" uid="3497659" user="NKA">
		<tag k="name" v="Indre Bø" />
		<tag k="place" v="farm" />
		<tag k="ssr:stedsnr" v="462627" />
	</node>
	<node id="9953989035" lat="62.3222816" lon="5.4960295" version="1" timestamp="2022-08-15T06:31:15Z" changeset="124912436" uid="3497659" user="NKA">
		<tag k="name" v="Skorpa" />
		<tag k="place" v="hamlet" />
		<tag k="ssr:stedsnr" v="678574" />
	</node>
	<node id="9953989036" lat="62.2386555" lon="5.8061198" version="1" timestamp="2022-08-15T06:31:15Z" changeset="124912436" uid="3497659" user="NKA">
		<tag k="name" v="Båtsvika" />
		<tag k="place" v="farm" />
		<tag k="ssr:stedsnr" v="496141" />
	</node>
	<node id="9953989037" lat="62.2932599" lon="5.6198257" version="1" timestamp="2022-08-15T06:31:15Z" changeset="124912436" uid="3497659" user="NKA">
		<tag k="name" v="Moltumyra" />
		<tag k="place" v="farm" />
		<tag k="ssr:stedsnr" v="401639" />
	</node>
	<node id="9953989038" lat="62.2951451" lon="5.7660069" version="1" timestamp="2022-08-15T06:31:15Z" changeset="124912436" uid="3497659" user="NKA">
		<tag k="alt_name" v="Bentholmen" />
		<tag k="name" v="Kvitøya" />
		<tag k="place" v="locality" />
		<tag k="ssr:stedsnr" v="982602" />
	</node>
	<node id="9953989039" lat="62.2539373" lon="5.789382" version="1" timestamp="2022-08-15T06:31:15Z" changeset="124912436" uid="3497659" user="NKA">
		<tag k="name" v="Nykreim" />
		<tag k="place" v="hamlet" />
		<tag k="ssr:stedsnr" v="435239" />
	</node>
	<node id="9953989040" lat="62.3084455" lon="5.681223" version="1" timestamp="2022-08-15T06:31:15Z" changeset="124912436" uid="3497659" user="NKA">
		<tag k="name" v="Tangen" />
		<tag k="place" v="farm" />
		<tag k="ssr:stedsnr" v="536324" />
	</node>
	<node id="9953989041" lat="62.3477749" lon="5.6882892" version="1" timestamp="2022-08-15T06:31:15Z" changeset="124912436" uid="3497659" user="NKA">
		<tag k="name" v="Ytre Leine" />
		<tag k="place" v="neighbourhood" />
		<tag k="ssr:stedsnr" v="949765" />
	</node>
	<node id="9953989042" lat="62.2941763" lon="5.7372979" version="1" timestamp="2022-08-15T06:31:15Z" changeset="124912436" uid="3497659" user="NKA">
		<tag k="name" v="Rafteset" />
		<tag k="place" v="hamlet" />
		<tag k="ssr:stedsnr" v="617789" />
	</node>
	<node id="9953989043" lat="62.2276053" lon="5.7495465" version="1" timestamp="2022-08-15T06:31:15Z" changeset="124912436" uid="3497659" user="NKA">
		<tag k="name" v="Vestre Rosskar" />
		<tag k="old_name" v="Røskar-Vestre" />
		<tag k="place" v="farm" />
		<tag k="ssr:stedsnr" v="1083726" />
	</node>
	<node id="9953989044" lat="62.2448889" lon="5.7793198" version="1" timestamp="2022-08-15T06:31:15Z" changeset="124912436" uid="3497659" user="NKA">
		<tag k="name" v="Reset" />
		<tag k="place" v="farm" />
		<tag k="ssr:stedsnr" v="860179" />
	</node>
	<node id="9953989045" lat="62.2771889" lon="5.7433207" version="1" timestamp="2022-08-15T06:31:15Z" changeset="124912436" uid="3497659" user="NKA">
		<tag k="name" v="Tuftane" />
		<tag k="place" v="farm" />
		<tag k="ssr:stedsnr" v="219668" />
	</node>
	<node id="9953989046" lat="62.4136771" lon="5.5862939" version="1" timestamp="2022-08-15T06:31:15Z" changeset="124912436" uid="3497659" user="NKA">
		<tag k="name" v="Kvalnes" />
		<tag k="place" v="farm" />
		<tag k="ssr:stedsnr" v="765731" />
	</node>
	<node id="9953989047" lat="62.260575" lon="5.7273948" version="1" timestamp="2022-08-15T06:31:15Z" changeset="124912436" uid="3497659" user="NKA">
		<tag k="name" v="Høgsætra" />
		<tag k="place" v="locality" />
		<tag k="ssr:stedsnr" v="556196" />
	</node>
	<node id="9953989048" lat="62.2507638" lon="5.783386" version="1" timestamp="2022-08-15T06:31:15Z" changeset="124912436" uid="3497659" user="NKA">
		<tag k="name" v="Gurskøy" />
		<tag k="place" v="farm" />
		<tag k="ssr:stedsnr" v="841754" />
	</node>
	<node id="9953989049" lat="62.2885661" lon="5.7316644" version="1" timestamp="2022-08-15T06:31:15Z" changeset="124912436" uid="3497659" user="NKA">
		<tag k="alt_name" v="Klungsøyr" />
		<tag k="name" v="Klungsøyra" />
		<tag k="place" v="farm" />
		<tag k="ssr:stedsnr" v="436126" />
	</node>
	<node id="9953989050" lat="62.2451587" lon="5.7830292" version="1" timestamp="2022-08-15T06:31:15Z" changeset="124912436" uid="3497659" user="NKA">
		<tag k="alt_name" v="Øren" />
		<tag k="name" v="Øyra" />
		<tag k="place" v="farm" />
		<tag k="ssr:stedsnr" v="239146" />
	</node>
	<node id="9953989051" lat="62.3631861" lon="5.6248421" version="1" timestamp="2022-08-15T06:31:15Z" changeset="124912436" uid="3497659" user="NKA">
		<tag k="name" v="Vikane" />
		<tag k="place" v="farm" />
		<tag k="ssr:stedsnr" v="496645" />
	</node>
	<node id="9953989052" lat="62.3057" lon="5.7348809" version="1" timestamp="2022-08-15T06:31:15Z" changeset="124912436" uid="3497659" user="NKA">
		<tag k="name" v="Grøndal" />
		<tag k="place" v="farm" />
		<tag k="ssr:stedsnr" v="254725" />
	</node>
	<node id="9953989053" lat="62.31321" lon="5.6014956" version="1" timestamp="2022-08-15T06:31:15Z" changeset="124912436" uid="3497659" user="NKA">
		<tag k="name" v="Flåværet" />
		<tag k="place" v="farm" />
		<tag k="ssr:stedsnr" v="982622" />
	</node>
	<node id="9953989054" lat="62.3264117" lon="5.6635109" version="1" timestamp="2022-08-15T06:31:15Z" changeset="124912436" uid="3497659" user="NKA">
		<tag k="name" v="Hjertnes" />
		<tag k="place" v="farm" />
		<tag k="ssr:stedsnr" v="402833" />
	</node>
	<node id="9953989055" lat="62.3251416" lon="5.734506" version="1" timestamp="2022-08-15T06:31:15Z" changeset="124912436" uid="3497659" user="NKA">
		<tag k="alt_name" v="Røyra, ytre" />
		<tag k="name" v="Ytre Røyra" />
		<tag k="place" v="farm" />
		<tag k="ssr:stedsnr" v="314778" />
	</node>
	<node id="9953989056" lat="62.3279167" lon="5.268445" version="1" timestamp="2022-08-15T06:31:15Z" changeset="124912436" uid="3497659" user="NKA">
		<tag k="name" v="Skjerhovudet" />
		<tag k="place" v="isolated_dwelling" />
		<tag k="ssr:stedsnr" v="72574" />
	</node>
	<node id="9953989057" lat="62.277694" lon="5.7988699" version="1" timestamp="2022-08-15T06:31:15Z" changeset="124912436" uid="3497659" user="NKA">
		<tag k="alt_name" v="Myrvågane" />
		<tag k="name" v="Myrvåg" />
		<tag k="place" v="village" />
		<tag k="ssr:stedsnr" v="404127" />
	</node>
	<node id="9953989058" lat="62.3174037" lon="5.7230575" version="1" timestamp="2022-08-15T06:31:15Z" changeset="124912436" uid="3497659" user="NKA">
		<tag k="name" v="Blankholmen" />
		<tag k="place" v="locality" />
		<tag k="ssr:stedsnr" v="982598" />
	</node>
</osm>
