<?xml version="1.0" encoding="UTF-8"?>
<osm generator="osmapis" version="0.6">
	<node id="-544767" lat="58.4897888909" lon="7.86721111308">
		<tag k="name" v="Storetjønn" />
		<tag k="natural" v="water" />
		<tag k="ssr:stedsnr" v="394865" />
	</node>
	<node id="-544754" lat="58.4175388887" lon="7.98954999675">
		<tag k="name" v="Foreåna" />
		<tag k="ssr:stedsnr" v="394725" />
		<tag k="waterway" v="river" />
	</node>
	<node id="-544751" lat="58.548938885" lon="7.92587499479">
		<tag k="name" v="Skorefjelltjønn" />
		<tag k="natural" v="water" />
		<tag k="ssr:stedsnr" v="394711" />
	</node>
	<node id="-544743" lat="58.5019472211" lon="7.84328333467">
		<tag k="name" v="Bastetjønn" />
		<tag k="natural" v="water" />
		<tag k="ssr:stedsnr" v="394653" />
	</node>
	<node id="-544741" lat="58.4911583301" lon="7.98824722313">
		<tag k="name" v="Torvtjønnane" />
		<tag k="natural" v="water" />
		<tag k="ssr:stedsnr" v="394500" />
	</node>
	<node id="-544740" lat="58.4904527793" lon="7.99380000149">
		<tag k="name" v="Låven" />
		<tag k="natural" v="water" />
		<tag k="ssr:stedsnr" v="394496" />
		<tag k="water" v="pond" />
	</node>
	<node id="-544739" lat="58.4873694475" lon="7.96018888133">
		<tag k="name" v="Torvtjønn" />
		<tag k="natural" v="water" />
		<tag k="ssr:stedsnr" v="394492" />
	</node>
	<node id="-544735" lat="58.3862694445" lon="8.08013333939">
		<tag k="name" v="Sydinga" />
		<tag k="natural" v="cape" />
		<tag k="ssr:stedsnr" v="394464" />
	</node>
	<node id="-544730" lat="58.4364916687" lon="8.0868694488">
		<tag k="name" v="Vestretjønn" />
		<tag k="natural" v="water" />
		<tag k="ssr:stedsnr" v="394442" />
	</node>
	<node id="-544729" lat="58.4220277809" lon="8.08422778177">
		<tag k="name" v="Fiskekilen" />
		<tag k="natural" v="bay" />
		<tag k="ssr:stedsnr" v="394427" />
	</node>
	<node id="-544728" lat="58.4320083327" lon="8.02058333488">
		<tag k="name" v="Linhøl" />
		<tag k="place" v="locality" />
		<tag k="ssr:stedsnr" v="394591" />
	</node>
	<node id="-544718" lat="58.4308166639" lon="7.82025277907">
		<tag k="name" v="Åmannkilen" />
		<tag k="natural" v="water" />
		<tag k="ssr:stedsnr" v="394175" />
		<tag k="water" v="lake" />
	</node>
	<node id="-544701" lat="58.5169249976" lon="7.88571666604">
		<tag k="alt_name" v="Asgartjønn" />
		<tag k="name" v="Askartjørna" />
		<tag k="natural" v="water" />
		<tag k="ssr:stedsnr" v="365428" />
	</node>
	<node id="-544692" lat="58.3601111084" lon="7.89588611945">
		<tag k="name" v="Nomelandsdammen" />
		<tag k="natural" v="water" />
		<tag k="ssr:stedsnr" v="364178" />
		<tag k="water" v="lake" />
	</node>
	<node id="-544674" lat="58.355377778" lon="8.00206389457">
		<tag k="name" v="Svarttjønn" />
		<tag k="natural" v="water" />
		<tag k="ssr:stedsnr" v="333900" />
	</node>
	<node id="-544670" lat="58.4722805594" lon="7.91545277116">
		<tag k="name" v="Tobakklona" />
		<tag k="natural" v="water" />
		<tag k="ssr:stedsnr" v="333799" />
		<tag k="water" v="lake" />
	</node>
	<node id="-544665" lat="58.3602096411" lon="7.95108347707">
		<tag k="name" v="Klædetjønn" />
		<tag k="natural" v="water" />
		<tag k="ssr:stedsnr" v="333885" />
	</node>
	<node id="-544659" lat="58.4993138904" lon="7.92322222609">
		<tag k="name" v="Håverstadtjønn" />
		<tag k="natural" v="water" />
		<tag k="ssr:stedsnr" v="333671" />
	</node>
	<node id="-544656" lat="58.4191249998" lon="7.97149723073">
		<tag k="name" v="Kvernebekken" />
		<tag k="ssr:stedsnr" v="333719" />
		<tag k="waterway" v="stream" />
	</node>
	<node id="-544651" lat="58.4359944417" lon="7.96230000848">
		<tag k="name" v="Vestre Pikestøltjønn" />
		<tag k="natural" v="water" />
		<tag k="ssr:stedsnr" v="333568" />
	</node>
	<node id="-544638" lat="58.4377972236" lon="8.070494441">
		<tag k="name" v="Dyblan" />
		<tag k="natural" v="water" />
		<tag k="ssr:stedsnr" v="333459" />
	</node>
	<node id="-544636" lat="58.4241555573" lon="8.09386666856">
		<tag k="name" v="Lognøya" />
		<tag k="place" v="island" />
		<tag k="ssr:stedsnr" v="333450" />
	</node>
	<node id="-544631" lat="58.4247944403" lon="7.80659444636">
		<tag k="name" v="Grautholmen" />
		<tag k="place" v="islet" />
		<tag k="ssr:stedsnr" v="333360" />
	</node>
	<node id="-544625" lat="58.3550527815" lon="7.93273611635">
		<tag k="name" v="Flatetjønn" />
		<tag k="natural" v="water" />
		<tag k="ssr:stedsnr" v="333286" />
	</node>
	<node id="-544621" lat="58.4158027756" lon="7.8459388908">
		<tag k="name" v="Sundane" />
		<tag k="natural" v="strait" />
		<tag k="ssr:stedsnr" v="333246" />
	</node>
	<node id="-544617" lat="58.3640833354" lon="7.92641943663">
		<tag k="name" v="Lonene" />
		<tag k="natural" v="water" />
		<tag k="ssr:stedsnr" v="333157" />
		<tag k="water" v="lake" />
	</node>
	<node id="-544616" lat="58.3799694473" lon="8.01736666534">
		<tag k="name" v="Hestjønn" />
		<tag k="natural" v="water" />
		<tag k="ssr:stedsnr" v="333074" />
	</node>
	<node id="-544614" lat="58.5392277744" lon="7.88269166433">
		<tag k="name" v="Store Gullringtjørna" />
		<tag k="natural" v="water" />
		<tag k="ssr:stedsnr" v="304698" />
	</node>
	<node id="-544613" lat="58.533819443" lon="7.87417500086">
		<tag k="alt_name" v="Store Heietjønn" />
		<tag k="name" v="Heitjørn" />
		<tag k="natural" v="water" />
		<tag k="ssr:stedsnr" v="304681" />
	</node>
	<node id="-544612" lat="58.5035055525" lon="7.84392500172">
		<tag k="alt_name" v="Øyenstjønn" />
		<tag k="name" v="Øyenstjørna" />
		<tag k="natural" v="water" />
		<tag k="ssr:stedsnr" v="304392" />
	</node>
	<node id="-544607" lat="58.38748056" lon="8.01571666327">
		<tag k="alt_name" v="Torvetjønn" />
		<tag k="name" v="Torvtjørna" />
		<tag k="natural" v="water" />
		<tag k="ssr:stedsnr" v="303180" />
	</node>
	<node id="-544606" lat="58.4706527822" lon="8.01190277053">
		<tag k="alt_name" v="Eikelandstjønn" />
		<tag k="name" v="Eikelandstjørna" />
		<tag k="natural" v="water" />
		<tag k="ssr:stedsnr" v="303244" />
	</node>
	<node id="-544604" lat="58.4308305556" lon="8.03480000323">
		<tag k="alt_name" v="Honshølvatnet" />
		<tag k="name" v="Honnsølvatnet" />
		<tag k="natural" v="water" />
		<tag k="ssr:stedsnr" v="303150" />
	</node>
	<node id="-544603" lat="58.4231999989" lon="7.9821722174">
		<tag k="alt_name" v="Tjønnane" />
		<tag k="name" v="Mjålandstjørnane" />
		<tag k="natural" v="water" />
		<tag k="ssr:stedsnr" v="303145" />
	</node>
	<node id="-544600" lat="58.4651749959" lon="7.86670278618">
		<tag k="name" v="Luaråna" />
		<tag k="ssr:stedsnr" v="212872" />
		<tag k="waterway" v="stream" />
	</node>
	<node id="-544593" lat="58.4674416632" lon="7.80031389041">
		<tag k="name" v="Sauekilen" />
		<tag k="natural" v="bay" />
		<tag k="ssr:stedsnr" v="212982" />
	</node>
	<node id="-544587" lat="58.431502779" lon="7.91746945287">
		<tag k="name" v="Ivedalstjønn" />
		<tag k="natural" v="water" />
		<tag k="ssr:stedsnr" v="212823" />
	</node>
	<node id="-544575" lat="58.4229444477" lon="7.97692777308">
		<tag k="name" v="Bukkenes" />
		<tag k="natural" v="cape" />
		<tag k="ssr:stedsnr" v="212737" />
	</node>
	<node id="-544570" lat="58.4382666692" lon="7.97463333375">
		<tag k="name" v="Vinbekken" />
		<tag k="ssr:stedsnr" v="212564" />
		<tag k="waterway" v="stream" />
	</node>
	<node id="-544568" lat="58.4542416649" lon="7.96945833398">
		<tag k="name" v="Flatetjønn" />
		<tag k="natural" v="water" />
		<tag k="ssr:stedsnr" v="212551" />
	</node>
	<node id="-544564" lat="58.4230833359" lon="8.04206111295">
		<tag k="name" v="Lundenesane" />
		<tag k="natural" v="cape" />
		<tag k="ssr:stedsnr" v="212527" />
	</node>
	<node id="-544563" lat="58.4251388873" lon="8.0457833318">
		<tag k="name" v="Gåstjønn" />
		<tag k="natural" v="water" />
		<tag k="ssr:stedsnr" v="212525" />
	</node>
	<node id="-544562" lat="58.4615638869" lon="8.06334444541">
		<tag k="name" v="Fjermedalsåna" />
		<tag k="ssr:stedsnr" v="212389" />
		<tag k="waterway" v="river" />
	</node>
	<node id="-544557" lat="58.4959944461" lon="7.99330832477">
		<tag k="name" v="Solkrontjønn" />
		<tag k="natural" v="water" />
		<tag k="ssr:stedsnr" v="212477" />
	</node>
	<node id="-544554" lat="58.4002305535" lon="8.09049721392">
		<tag k="name" v="Gjegningkilen" />
		<tag k="natural" v="bay" />
		<tag k="ssr:stedsnr" v="212461" />
	</node>
	<node id="-544550" lat="58.4144972223" lon="8.06691388655">
		<tag k="name" v="Holland" />
		<tag k="place" v="islet" />
		<tag k="ssr:stedsnr" v="212434" />
	</node>
	<node id="-544549" lat="58.3454749976" lon="7.90803333142">
		<tag k="name" v="Frøysneset" />
		<tag k="natural" v="cape" />
		<tag k="ssr:stedsnr" v="212250" />
	</node>
	<node id="-544548" lat="58.3497527822" lon="7.91188611269">
		<tag k="name" v="Butangen" />
		<tag k="natural" v="cape" />
		<tag k="ssr:stedsnr" v="212249" />
	</node>
	<node id="-544545" lat="58.3736388853" lon="7.96568055546">
		<tag k="name" v="Tvitjønnane" />
		<tag k="natural" v="water" />
		<tag k="ssr:stedsnr" v="212086" />
	</node>
	<node id="-544542" lat="58.385447219" lon="8.0502749937">
		<tag k="name" v="Svartehølen" />
		<tag k="place" v="locality" />
		<tag k="ssr:stedsnr" v="212070" />
	</node>
	<node id="-544527" lat="58.3846083291" lon="7.92497221688">
		<tag k="name" v="Vinbekk" />
		<tag k="ssr:stedsnr" v="212148" />
		<tag k="waterway" v="stream" />
	</node>
	<node id="-544517" lat="58.4424820103" lon="7.97948788134">
		<tag k="alt_name" v="Eielandsvatn" />
		<tag k="name" v="Eielandsvatnet" />
		<tag k="natural" v="water" />
		<tag k="ssr:stedsnr" v="182211" />
		<tag k="water" v="lake" />
	</node>
	<node id="-544485" lat="58.3661527777" lon="8.01464721648">
		<tag k="name" v="Svintokstjønn" />
		<tag k="natural" v="water" />
		<tag k="ssr:stedsnr" v="151915" />
	</node>
	<node id="-544480" lat="58.3534250035" lon="7.97402777259">
		<tag k="name" v="Futjønn" />
		<tag k="natural" v="water" />
		<tag k="ssr:stedsnr" v="151893" />
	</node>
	<node id="-544478" lat="58.3597611126" lon="7.97265277111">
		<tag k="name" v="Lomtjønn" />
		<tag k="natural" v="water" />
		<tag k="ssr:stedsnr" v="151887" />
	</node>
	<node id="-544477" lat="58.3588666627" lon="7.94969723056">
		<tag k="name" v="Ydstetjønn" />
		<tag k="natural" v="water" />
		<tag k="ssr:stedsnr" v="151876" />
	</node>
	<node id="-544466" lat="58.4180722191" lon="7.94564444549">
		<tag k="name" v="Svartetjønn" />
		<tag k="natural" v="water" />
		<tag k="ssr:stedsnr" v="151799" />
	</node>
	<node id="-544462" lat="58.4821499974" lon="7.81559167395">
		<tag k="name" v="Tjønnane" />
		<tag k="natural" v="water" />
		<tag k="ssr:stedsnr" v="151779" />
	</node>
	<node id="-544453" lat="58.5209722209" lon="7.88672222212">
		<tag k="name" v="Stemmen" />
		<tag k="natural" v="water" />
		<tag k="ssr:stedsnr" v="151705" />
	</node>
	<node id="-544442" lat="58.4001750014" lon="8.09360554799">
		<tag k="name" v="Gjegningnesane" />
		<tag k="natural" v="cape" />
		<tag k="ssr:stedsnr" v="151482" />
	</node>
	<node id="-544437" lat="58.410405558" lon="8.07814723039">
		<tag k="name" v="Krestjansnes" />
		<tag k="natural" v="cape" />
		<tag k="ssr:stedsnr" v="151461" />
	</node>
	<node id="-544436" lat="58.4377638874" lon="8.09698332841">
		<tag k="name" v="Bjelkekilen" />
		<tag k="natural" v="bay" />
		<tag k="ssr:stedsnr" v="151457" />
	</node>
	<node id="-544435" lat="58.4338500011" lon="8.10204167045">
		<tag k="name" v="Lognesfjorden" />
		<tag k="natural" v="water" />
		<tag k="ssr:stedsnr" v="151449" />
		<tag k="water" v="lake" />
	</node>
	<node id="-544433" lat="58.4318222259" lon="8.05787778396">
		<tag k="name" v="Bulitjønn" />
		<tag k="natural" v="water" />
		<tag k="ssr:stedsnr" v="151413" />
	</node>
	<node id="-544432" lat="58.420749998" lon="7.83395555417">
		<tag k="name" v="Djupemyrkilen" />
		<tag k="natural" v="bay" />
		<tag k="ssr:stedsnr" v="151358" />
	</node>
	<node id="-544430" lat="58.4132777786" lon="7.80786944903">
		<tag k="name" v="Vestheitjønn" />
		<tag k="natural" v="water" />
		<tag k="ssr:stedsnr" v="151345" />
	</node>
	<node id="-544424" lat="58.5298157214" lon="7.87150705253">
		<tag k="name" v="Bukketjønn" />
		<tag k="natural" v="water" />
		<tag k="ssr:stedsnr" v="151183" />
	</node>
	<node id="-544421" lat="58.4950750025" lon="7.91613055964">
		<tag k="name" v="Igletjønn" />
		<tag k="natural" v="water" />
		<tag k="ssr:stedsnr" v="151652" />
	</node>
	<node id="-544419" lat="58.4582777812" lon="8.00540832818">
		<tag k="name" v="Lisletjønn" />
		<tag k="natural" v="water" />
		<tag k="ssr:stedsnr" v="151590" />
	</node>
	<node id="-544417" lat="58.4423361095" lon="7.98718054788">
		<tag k="name" v="Tangen" />
		<tag k="natural" v="cape" />
		<tag k="ssr:stedsnr" v="151573" />
	</node>
	<node id="-544416" lat="58.4402250007" lon="7.97961388968">
		<tag k="name" v="Marknes" />
		<tag k="natural" v="cape" />
		<tag k="ssr:stedsnr" v="151572" />
	</node>
	<node id="-544410" lat="58.4034083356" lon="7.85352499621">
		<tag k="name" v="Sundsodden" />
		<tag k="natural" v="cape" />
		<tag k="ssr:stedsnr" v="151064" />
	</node>
	<node id="-544406" lat="58.407075002" lon="7.90488332488">
		<tag k="name" v="Paulen" />
		<tag k="natural" v="water" />
		<tag k="ssr:stedsnr" v="151048" />
	</node>
	<node id="-544400" lat="58.4329277816" lon="7.85668056103">
		<tag k="name" v="Langetjønn" />
		<tag k="natural" v="water" />
		<tag k="ssr:stedsnr" v="151010" />
	</node>
	<node id="-544398" lat="58.4389027803" lon="7.84011666692">
		<tag k="name" v="Stemtjønn" />
		<tag k="natural" v="water" />
		<tag k="ssr:stedsnr" v="151002" />
	</node>
	<node id="-544396" lat="58.3854055568" lon="7.90604722537">
		<tag k="name" v="Øverrokilen" />
		<tag k="natural" v="bay" />
		<tag k="ssr:stedsnr" v="151159" />
	</node>
	<node id="-544391" lat="58.4692444405" lon="7.94021110951">
		<tag k="alt_name" v="Skrømevatn" />
		<tag k="name" v="Skrømevatnet" />
		<tag k="natural" v="water" />
		<tag k="ssr:stedsnr" v="121236" />
	</node>
	<node id="-544390" lat="58.4466388845" lon="7.85176388526">
		<tag k="alt_name" v="Storetjønn" />
		<tag k="name" v="Stortjørn" />
		<tag k="natural" v="water" />
		<tag k="ssr:stedsnr" v="121222" />
	</node>
	<node id="-544387" lat="58.3897972238" lon="8.08231111812">
		<tag k="name" v="Landekilen" />
		<tag k="natural" v="bay" />
		<tag k="ssr:stedsnr" v="121164" />
	</node>
	<node id="-544367" lat="58.4077166705" lon="7.96768889376">
		<tag k="name" v="Røllendstjønn" />
		<tag k="natural" v="water" />
		<tag k="ssr:stedsnr" v="91923" />
	</node>
	<node id="-544357" lat="58.4725944423" lon="7.85092776954">
		<tag k="name" v="Limtjønn" />
		<tag k="natural" v="water" />
		<tag k="ssr:stedsnr" v="91854" />
	</node>
	<node id="-544354" lat="58.4636388921" lon="7.88190555681">
		<tag k="name" v="Breieflå" />
		<tag k="natural" v="water" />
		<tag k="ssr:stedsnr" v="91844" />
		<tag k="water" v="lake" />
	</node>
	<node id="-544342" lat="58.417505553" lon="7.96393610972">
		<tag k="name" v="Storetjønn" />
		<tag k="natural" v="water" />
		<tag k="ssr:stedsnr" v="91753" />
	</node>
	<node id="-544340" lat="58.4254833291" lon="8.00067221686">
		<tag k="name" v="Mauretjønn" />
		<tag k="natural" v="water" />
		<tag k="ssr:stedsnr" v="91741" />
	</node>
	<node id="-544338" lat="58.5211416647" lon="7.88079721948">
		<tag k="name" v="Ormetjønn" />
		<tag k="natural" v="water" />
		<tag k="ssr:stedsnr" v="91714" />
	</node>
	<node id="-544336" lat="58.5264249957" lon="7.86967778425">
		<tag k="name" v="Greskeheitjønn" />
		<tag k="natural" v="water" />
		<tag k="ssr:stedsnr" v="91707" />
	</node>
	<node id="-544322" lat="58.4567444415" lon="7.95422500706">
		<tag k="name" v="Beråstjønn" />
		<tag k="natural" v="water" />
		<tag k="ssr:stedsnr" v="91565" />
	</node>
	<node id="-544316" lat="58.3921055584" lon="8.0696805515">
		<tag k="name" v="Landekiltjønnane" />
		<tag k="natural" v="water" />
		<tag k="ssr:stedsnr" v="91491" />
	</node>
	<node id="-544315" lat="58.3942416703" lon="8.0971722165">
		<tag k="name" v="Storefjord" />
		<tag k="natural" v="water" />
		<tag k="ssr:stedsnr" v="91490" />
		<tag k="water" v="lake" />
	</node>
	<node id="-544314" lat="58.414025003" lon="8.0742638907">
		<tag k="name" v="Heimrenes" />
		<tag k="natural" v="cape" />
		<tag k="ssr:stedsnr" v="91466" />
	</node>
	<node id="-544311" lat="58.4305222232" lon="8.09050832748">
		<tag k="name" v="Monsund" />
		<tag k="natural" v="strait" />
		<tag k="ssr:stedsnr" v="91450" />
	</node>
	<node id="-544310" lat="58.4329777819" lon="8.08449999168">
		<tag k="name" v="Fjermeroskilen" />
		<tag k="natural" v="bay" />
		<tag k="ssr:stedsnr" v="91429" />
	</node>
	<node id="-544306" lat="58.4110722246" lon="7.81108611831">
		<tag k="name" v="Rekevik" />
		<tag k="natural" v="bay" />
		<tag k="ssr:stedsnr" v="91366" />
	</node>
	<node id="-544305" lat="58.3484250024" lon="7.90865833973">
		<tag k="fixme" v="multiple name tags, choose one and add the other to alt_name" />
		<tag k="name" v="Skislandsfjorden;Skislandsfjord" />
		<tag k="natural" v="water" />
		<tag k="ssr:stedsnr" v="91267" />
		<tag k="water" v="lake" />
	</node>
	<node id="-544301" lat="58.3384888909" lon="7.91391388478">
		<tag k="name" v="Bukkeøyna" />
		<tag k="place" v="island" />
		<tag k="ssr:stedsnr" v="91192" />
	</node>
	<node id="-544295" lat="58.383988885" lon="7.94864444837">
		<tag k="name" v="Skjebbetjønn" />
		<tag k="natural" v="water" />
		<tag k="ssr:stedsnr" v="91105" />
	</node>
	<node id="-544290" lat="58.3670416674" lon="7.98111110606">
		<tag k="name" v="Hegrestetjønn" />
		<tag k="natural" v="water" />
		<tag k="ssr:stedsnr" v="91084" />
	</node>
	<node id="-544289" lat="58.3764277795" lon="8.05455278116">
		<tag k="name" v="Geittjønn" />
		<tag k="natural" v="water" />
		<tag k="ssr:stedsnr" v="91079" />
	</node>
	<node id="-544287" lat="58.3789944448" lon="8.04093610718">
		<tag k="name" v="Ørnåstjønn" />
		<tag k="natural" v="water" />
		<tag k="ssr:stedsnr" v="91073" />
	</node>
	<node id="-544286" lat="58.3751972252" lon="8.02283889507">
		<tag k="name" v="Nedre Småtjønn" />
		<tag k="natural" v="water" />
		<tag k="ssr:stedsnr" v="91072" />
	</node>
	<node id="-544285" lat="58.3748194407" lon="8.02735277389">
		<tag k="name" v="Fisketangen" />
		<tag k="natural" v="cape" />
		<tag k="ssr:stedsnr" v="91070" />
	</node>
	<node id="-544277" lat="58.5055361154" lon="7.90355000828">
		<tag k="alt_name" v="Kjetevatn" />
		<tag k="name" v="Kjetevatnet" />
		<tag k="natural" v="water" />
		<tag k="ssr:stedsnr" v="61385" />
		<tag k="water" v="lake" />
	</node>
	<node id="-544276" lat="58.4617583318" lon="7.87228054896">
		<tag k="alt_name" v="Grossåsvatn" />
		<tag k="loc_name" v="Grosvann" />
		<tag k="name" v="Grosvatn" />
		<tag k="natural" v="water" />
		<tag k="ssr:stedsnr" v="61239" />
	</node>
	<node id="-544274" lat="58.3742111155" lon="7.95856944406">
		<tag k="alt_name" v="Stemtjønn" />
		<tag k="name" v="Stemtjørn" />
		<tag k="natural" v="water" />
		<tag k="ssr:stedsnr" v="61156" />
	</node>
	<node id="-544264" lat="58.4606972247" lon="7.83565277692">
		<tag k="name" v="Poddetjønn" />
		<tag k="natural" v="water" />
		<tag k="ssr:stedsnr" v="30974" />
	</node>
	<node id="-544257" lat="58.4038888859" lon="8.02050555097">
		<tag k="name" v="Fiskebekken" />
		<tag k="ssr:stedsnr" v="30939" />
		<tag k="waterway" v="stream" />
	</node>
	<node id="-544251" lat="58.4089555591" lon="7.97257777383">
		<tag k="name" v="Bjørkåstjønn" />
		<tag k="natural" v="water" />
		<tag k="ssr:stedsnr" v="30905" />
	</node>
	<node id="-544249" lat="58.3497694448" lon="7.9729972225">
		<tag k="name" v="Kinnemyrtjønn" />
		<tag k="natural" v="water" />
		<tag k="ssr:stedsnr" v="30898" />
	</node>
	<node id="-544242" lat="58.4928805585" lon="7.86785555734">
		<tag k="name" v="Bittetjønn" />
		<tag k="natural" v="water" />
		<tag k="ssr:stedsnr" v="30847" />
	</node>
	<node id="-544230" lat="58.459536107" lon="8.04384167416">
		<tag k="name" v="Lindtjønn" />
		<tag k="natural" v="water" />
		<tag k="ssr:stedsnr" v="30577" />
	</node>
	<node id="-544228" lat="58.4334944401" lon="7.99447222469">
		<tag k="name" v="Rakketjønn" />
		<tag k="natural" v="water" />
		<tag k="ssr:stedsnr" v="30560" />
	</node>
	<node id="-544223" lat="58.4246000012" lon="8.00285278193">
		<tag k="name" v="Maurtjønn" />
		<tag k="natural" v="water" />
		<tag k="ssr:stedsnr" v="30522" />
	</node>
	<node id="-544218" lat="58.4710527788" lon="7.98674722825">
		<tag k="name" v="Lintjønn" />
		<tag k="natural" v="water" />
		<tag k="ssr:stedsnr" v="30505" />
	</node>
	<node id="-544216" lat="58.4994416629" lon="7.99262778023">
		<tag k="name" v="Hattåstjønn" />
		<tag k="natural" v="water" />
		<tag k="ssr:stedsnr" v="30491" />
	</node>
	<node id="-544215" lat="58.4913777789" lon="7.95611944505">
		<tag k="name" v="Lindtjønn" />
		<tag k="natural" v="water" />
		<tag k="ssr:stedsnr" v="30485" />
	</node>
	<node id="-544211" lat="58.3943555573" lon="8.08473889728">
		<tag k="name" v="Omestadbukta" />
		<tag k="natural" v="bay" />
		<tag k="ssr:stedsnr" v="30460" />
	</node>
	<node id="-544209" lat="58.4165666663" lon="8.07158056005">
		<tag k="name" v="Heimreneskilen" />
		<tag k="natural" v="bay" />
		<tag k="ssr:stedsnr" v="30438" />
	</node>
	<node id="-544203" lat="58.3478083341" lon="7.93519999172">
		<tag k="name" v="Svartetjønn" />
		<tag k="natural" v="water" />
		<tag k="ssr:stedsnr" v="30258" />
	</node>
	<node id="-544202" lat="58.4246000011" lon="7.87702778566">
		<tag k="name" v="Breielon" />
		<tag k="natural" v="water" />
		<tag k="ssr:stedsnr" v="30248" />
	</node>
	<node id="-544199" lat="58.4198277795" lon="7.85410278482">
		<tag k="name" v="Fiskvik" />
		<tag k="natural" v="bay" />
		<tag k="ssr:stedsnr" v="30240" />
	</node>
	<node id="-544189" lat="58.4457055521" lon="7.85049999548">
		<tag k="name" v="Tvitjønnane" />
		<tag k="natural" v="water" />
		<tag k="ssr:stedsnr" v="30021" />
	</node>
	<node id="-544186" lat="58.4399972249" lon="7.86251111748">
		<tag k="name" v="Styggetjønn" />
		<tag k="natural" v="water" />
		<tag k="ssr:stedsnr" v="30002" />
	</node>
	<node id="-544174" lat="58.3616083363" lon="8.00139722295">
		<tag k="alt_name" v="Holemyrtjønn" />
		<tag k="name" v="Holemyrtjørna" />
		<tag k="natural" v="water" />
		<tag k="ssr:stedsnr" v="85" />
	</node>
	<node id="-544173" lat="58.1441416641" lon="8.01308333332">
		<tag k="alt_name" v="Otri" />
		<tag k="name" v="Otra" />
		<tag k="ssr:stedsnr" v="28" />
		<tag k="waterway" v="river" />
	</node>
	<node id="-544161" lat="58.4524666698" lon="7.97733055845">
		<tag k="name" v="Stemtjønn" />
		<tag k="natural" v="water" />
		<tag k="ssr:stedsnr" v="940566" />
	</node>
	<node id="-544160" lat="58.4448138896" lon="7.97948889703">
		<tag k="name" v="Midtholmen" />
		<tag k="place" v="islet" />
		<tag k="ssr:stedsnr" v="940557" />
	</node>
	<node id="-544145" lat="58.4899916684" lon="7.7916277745">
		<tag k="name" v="Svinetjønn" />
		<tag k="natural" v="water" />
		<tag k="ssr:stedsnr" v="940997" />
	</node>
	<node id="-544143" lat="58.3912027761" lon="8.00381111331">
		<tag k="name" v="Blokktjønn" />
		<tag k="natural" v="water" />
		<tag k="ssr:stedsnr" v="940966" />
	</node>
	<node id="-544141" lat="58.4004194482" lon="8.02991388912">
		<tag k="name" v="Pålssund" />
		<tag k="natural" v="strait" />
		<tag k="ssr:stedsnr" v="940960" />
	</node>
	<node id="-544134" lat="58.3738833365" lon="8.01175277515">
		<tag k="name" v="Knipetjønn" />
		<tag k="natural" v="water" />
		<tag k="ssr:stedsnr" v="940894" />
	</node>
	<node id="-544108" lat="58.4233722235" lon="7.97155277405">
		<tag k="name" v="Mjålandstjønn" />
		<tag k="natural" v="water" />
		<tag k="ssr:stedsnr" v="940719" />
	</node>
	<node id="-544104" lat="58.4977638874" lon="7.93030834097">
		<tag k="name" v="Svintoksbekken" />
		<tag k="ssr:stedsnr" v="940676" />
		<tag k="waterway" v="stream" />
	</node>
	<node id="-544103" lat="58.500099997" lon="7.85979166225">
		<tag k="name" v="Hestetjønn" />
		<tag k="natural" v="water" />
		<tag k="ssr:stedsnr" v="940663" />
	</node>
	<node id="-544099" lat="58.4533500026" lon="8.0134583387">
		<tag k="name" v="Eieland Lindtjønn" />
		<tag k="natural" v="water" />
		<tag k="ssr:stedsnr" v="940580" />
	</node>
	<node id="-544096" lat="58.4665222197" lon="7.99100833538">
		<tag k="name" v="Lille Kråketjønn" />
		<tag k="natural" v="water" />
		<tag k="ssr:stedsnr" v="940547" />
	</node>
	<node id="-544094" lat="58.4638833289" lon="7.9530888927">
		<tag k="name" v="Døpelen" />
		<tag k="natural" v="water" />
		<tag k="ssr:stedsnr" v="940539" />
		<tag k="water" v="pond" />
	</node>
	<node id="-544092" lat="58.4709916693" lon="8.02200556238">
		<tag k="name" v="Bjelkekilen" />
		<tag k="natural" v="water" />
		<tag k="ssr:stedsnr" v="940522" />
	</node>
	<node id="-544091" lat="58.4654972184" lon="8.02719722757">
		<tag k="name" v="Lomtjønn" />
		<tag k="natural" v="water" />
		<tag k="ssr:stedsnr" v="940516" />
	</node>
	<node id="-544087" lat="58.4786972249" lon="7.97686389395">
		<tag k="name" v="Langåstjønn" />
		<tag k="natural" v="water" />
		<tag k="ssr:stedsnr" v="940473" />
	</node>
	<node id="-544084" lat="58.4051527802" lon="8.08438054786">
		<tag k="name" v="Lille Sandrib" />
		<tag k="place" v="islet" />
		<tag k="ssr:stedsnr" v="940448" />
	</node>
	<node id="-544083" lat="58.40457778" lon="8.08871388957">
		<tag k="name" v="Store Sandrib" />
		<tag k="natural" v="cape" />
		<tag k="ssr:stedsnr" v="940447" />
	</node>
	<node id="-544082" lat="58.3908444402" lon="8.09061111923">
		<tag k="name" v="Kyreneset" />
		<tag k="natural" v="cape" />
		<tag k="ssr:stedsnr" v="940440" />
	</node>
	<node id="-544078" lat="58.4161083324" lon="8.06741111582">
		<tag k="name" v="Frostemyrkilen" />
		<tag k="natural" v="bay" />
		<tag k="ssr:stedsnr" v="940427" />
	</node>
	<node id="-544077" lat="58.4389194413" lon="8.09606943605">
		<tag k="name" v="Bjørndalsbekken" />
		<tag k="ssr:stedsnr" v="940424" />
		<tag k="waterway" v="stream" />
	</node>
	<node id="-544072" lat="58.4304027785" lon="7.85949166627">
		<tag k="name" v="Revtjønn" />
		<tag k="natural" v="water" />
		<tag k="ssr:stedsnr" v="940224" />
	</node>
	<node id="-544071" lat="58.4134833302" lon="7.84799721547">
		<tag k="name" v="Kartetjønnane" />
		<tag k="natural" v="water" />
		<tag k="ssr:stedsnr" v="940214" />
	</node>
	<node id="-544068" lat="58.4397555532" lon="7.81823889696">
		<tag k="name" v="Leirkilen" />
		<tag k="natural" v="bay" />
		<tag k="ssr:stedsnr" v="940188" />
	</node>
	<node id="-544065" lat="58.4480194431" lon="7.82396388909">
		<tag k="name" v="Øygardskilen" />
		<tag k="natural" v="bay" />
		<tag k="ssr:stedsnr" v="940179" />
	</node>
	<node id="-544047" lat="58.3943166645" lon="7.96129722646">
		<tag k="name" v="Pøddetjønn" />
		<tag k="natural" v="water" />
		<tag k="ssr:stedsnr" v="819928" />
	</node>
	<node id="-544036" lat="58.4544138852" lon="8.03999999531">
		<tag k="name" v="Fermedalstjønn" />
		<tag k="natural" v="water" />
		<tag k="ssr:stedsnr" v="819597" />
	</node>
	<node id="-544035" lat="58.4390583322" lon="7.99050555311">
		<tag k="name" v="Hangenesodden" />
		<tag k="natural" v="cape" />
		<tag k="ssr:stedsnr" v="819593" />
	</node>
	<node id="-544029" lat="58.5025111074" lon="7.97813889341">
		<tag k="name" v="Vestretjønn" />
		<tag k="natural" v="water" />
		<tag k="ssr:stedsnr" v="819615" />
	</node>
	<node id="-544027" lat="58.4658527819" lon="8.03068611661">
		<tag k="name" v="Ringtjønn" />
		<tag k="natural" v="water" />
		<tag k="ssr:stedsnr" v="819607" />
	</node>
	<node id="-544026" lat="58.4218722246" lon="7.80671388104">
		<tag k="name" v="Øybukta" />
		<tag k="natural" v="bay" />
		<tag k="ssr:stedsnr" v="819365" />
	</node>
	<node id="-544025" lat="58.4566222184" lon="8.07061111531">
		<tag k="name" v="Fiebekken" />
		<tag k="ssr:stedsnr" v="819408" />
		<tag k="waterway" v="stream" />
	</node>
	<node id="-544023" lat="58.4126972257" lon="7.85724722882">
		<tag k="name" v="Søyletjønn" />
		<tag k="natural" v="water" />
		<tag k="ssr:stedsnr" v="819223" />
	</node>
	<node id="-544016" lat="58.4502027782" lon="7.85725277921">
		<tag k="name" v="Sokkeslåttjønn" />
		<tag k="natural" v="water" />
		<tag k="ssr:stedsnr" v="819009" />
	</node>
	<node id="-544011" lat="58.4537055594" lon="8.00190555972">
		<tag k="name" v="Lintjørnane" />
		<tag k="natural" v="water" />
		<tag k="ssr:stedsnr" v="789238" />
	</node>
	<node id="-544010" lat="58.4410527799" lon="7.83508889251">
		<tag k="alt_name" v="Glupsetjønn" />
		<tag k="name" v="Glupsetjørn" />
		<tag k="natural" v="water" />
		<tag k="ssr:stedsnr" v="789234" />
	</node>
	<node id="-544009" lat="58.431927774" lon="7.81264722288">
		<tag k="name" v="Kilefjorden" />
		<tag k="natural" v="water" />
		<tag k="ssr:stedsnr" v="789159" />
		<tag k="water" v="lake" />
	</node>
	<node id="-544008" lat="58.4070722181" lon="8.01618889659">
		<tag k="name" v="Gåstjønn" />
		<tag k="natural" v="water" />
		<tag k="ssr:stedsnr" v="758938" />
	</node>
	<node id="-544005" lat="58.4032222211" lon="7.96796389739">
		<tag k="name" v="Røynetjønn" />
		<tag k="natural" v="water" />
		<tag k="ssr:stedsnr" v="758920" />
	</node>
	<node id="-543992" lat="58.4197638921" lon="8.06495556178">
		<tag k="name" v="Frostemyrtjønn" />
		<tag k="natural" v="water" />
		<tag k="ssr:stedsnr" v="758461" />
	</node>
	<node id="-543978" lat="58.5425277757" lon="7.88622778525">
		<tag k="name" v="Lille Gullringtjørna" />
		<tag k="natural" v="water" />
		<tag k="ssr:stedsnr" v="911695" />
	</node>
	<node id="-543974" lat="58.4470805512" lon="8.0268166668">
		<tag k="alt_name" v="Nevertjønn" />
		<tag k="name" v="Nævertjørn" />
		<tag k="natural" v="water" />
		<tag k="ssr:stedsnr" v="910226" />
	</node>
	<node id="-543970" lat="58.3885016906" lon="7.97412685678">
		<tag k="name" v="Grunnevatn" />
		<tag k="natural" v="water" />
		<tag k="ssr:stedsnr" v="910182" />
		<tag k="water" v="lake" />
	</node>
	<node id="-543969" lat="58.3760333363" lon="8.08030833511">
		<tag k="name" v="Ærskilen" />
		<tag k="natural" v="bay" />
		<tag k="ssr:stedsnr" v="910175" />
	</node>
	<node id="-543952" lat="58.4509305567" lon="7.96118610958">
		<tag k="alt_name" v="Homtjønn" />
		<tag k="name" v="Homtjørn" />
		<tag k="natural" v="water" />
		<tag k="ssr:stedsnr" v="728203" />
	</node>
	<node id="-543935" lat="58.4108111069" lon="7.92700555147">
		<tag k="name" v="Solkrontjønn" />
		<tag k="natural" v="water" />
		<tag k="ssr:stedsnr" v="697768" />
	</node>
	<node id="-543926" lat="58.4398638909" lon="7.97643888343">
		<tag k="name" v="Pikestølbukta" />
		<tag k="natural" v="bay" />
		<tag k="ssr:stedsnr" v="697553" />
	</node>
	<node id="-543922" lat="58.4192305538" lon="8.08187777079">
		<tag k="name" v="Eivindstjønn" />
		<tag k="natural" v="water" />
		<tag k="ssr:stedsnr" v="697422" />
	</node>
	<node id="-543919" lat="58.4285805525" lon="8.03711389592">
		<tag k="name" v="Fiskekjerfossen" />
		<tag k="natural" v="waterfall" />
		<tag k="ssr:stedsnr" v="697516" />
	</node>
	<node id="-543915" lat="58.361819447" lon="7.91329999434">
		<tag k="name" v="Åletjønn" />
		<tag k="natural" v="water" />
		<tag k="ssr:stedsnr" v="697159" />
	</node>
	<node id="-543914" lat="58.4348972244" lon="7.82059444049">
		<tag k="name" v="Einerkilen" />
		<tag k="natural" v="water" />
		<tag k="ssr:stedsnr" v="697212" />
		<tag k="water" v="lake" />
	</node>
	<node id="-543912" lat="58.4063138869" lon="7.85245277506">
		<tag k="name" v="Kresjarsneset" />
		<tag k="natural" v="cape" />
		<tag k="ssr:stedsnr" v="697073" />
	</node>
	<node id="-543905" lat="58.4420472237" lon="7.87136389462">
		<tag k="name" v="Butjønn" />
		<tag k="natural" v="water" />
		<tag k="ssr:stedsnr" v="697003" />
	</node>
	<node id="-543904" lat="58.3870055584" lon="7.97436667345">
		<tag k="name" v="Nesane" />
		<tag k="natural" v="cape" />
		<tag k="ssr:stedsnr" v="697119" />
	</node>
	<node id="-543899" lat="58.4921722227" lon="7.78473610884">
		<tag k="name" v="Svineneset" />
		<tag k="natural" v="cape" />
		<tag k="ssr:stedsnr" v="880996" />
	</node>
	<node id="-543892" lat="58.3940194469" lon="8.04069444373">
		<tag k="name" v="Stokketjønn" />
		<tag k="natural" v="water" />
		<tag k="ssr:stedsnr" v="880961" />
	</node>
	<node id="-543890" lat="58.4040888903" lon="8.04097778194">
		<tag k="name" v="Vaskøya" />
		<tag k="place" v="islet" />
		<tag k="ssr:stedsnr" v="880943" />
	</node>
	<node id="-543889" lat="58.4050833302" lon="8.01689165948">
		<tag k="name" v="Gåstjønnbekken" />
		<tag k="ssr:stedsnr" v="880934" />
		<tag k="waterway" v="stream" />
	</node>
	<node id="-543888" lat="58.40413333" lon="8.0154138841">
		<tag k="name" v="Lille Gåstjønn" />
		<tag k="natural" v="water" />
		<tag k="ssr:stedsnr" v="880933" />
	</node>
	<node id="-543876" lat="58.4599777741" lon="7.88626944546">
		<tag k="name" v="Nesane" />
		<tag k="natural" v="cape" />
		<tag k="ssr:stedsnr" v="880843" />
	</node>
	<node id="-543871" lat="58.4234611071" lon="7.9078111109">
		<tag k="name" v="Drivåsbekken" />
		<tag k="ssr:stedsnr" v="880795" />
		<tag k="waterway" v="stream" />
	</node>
	<node id="-543863" lat="58.4286194432" lon="7.99020000161">
		<tag k="name" v="Grjotåna" />
		<tag k="ssr:stedsnr" v="880752" />
		<tag k="waterway" v="river" />
	</node>
	<node id="-543850" lat="58.4454722235" lon="8.01519722032">
		<tag k="name" v="Skinnaråna" />
		<tag k="ssr:stedsnr" v="880656" />
		<tag k="waterway" v="stream" />
	</node>
	<node id="-543849" lat="58.442673911" lon="8.03752425039">
		<tag k="name" v="Dyblane" />
		<tag k="natural" v="water" />
		<tag k="ssr:stedsnr" v="880646" />
	</node>
	<node id="-543847" lat="58.4368222246" lon="8.02995833143">
		<tag k="name" v="Kjåkestadtjønn" />
		<tag k="natural" v="water" />
		<tag k="ssr:stedsnr" v="880635" />
	</node>
	<node id="-543845" lat="58.5059666659" lon="7.95824722627">
		<tag k="name" v="Jotetjønn" />
		<tag k="natural" v="water" />
		<tag k="ssr:stedsnr" v="880629" />
	</node>
	<node id="-543840" lat="58.4482833367" lon="7.96496944883">
		<tag k="name" v="Geistjønn" />
		<tag k="natural" v="water" />
		<tag k="ssr:stedsnr" v="880608" />
	</node>
	<node id="-543838" lat="58.4390361069" lon="7.99939722468">
		<tag k="name" v="Kilen" />
		<tag k="natural" v="bay" />
		<tag k="ssr:stedsnr" v="880601" />
	</node>
	<node id="-543837" lat="58.442016663" lon="7.95869721486">
		<tag k="name" v="Gullringtjønn" />
		<tag k="natural" v="water" />
		<tag k="ssr:stedsnr" v="880599" />
	</node>
	<node id="-543836" lat="58.4383583379" lon="7.95061667099">
		<tag k="name" v="Trotjønn" />
		<tag k="natural" v="water" />
		<tag k="ssr:stedsnr" v="880596" />
	</node>
	<node id="-543835" lat="58.4453888917" lon="7.97339166804">
		<tag k="name" v="Linhomtangen" />
		<tag k="natural" v="cape" />
		<tag k="ssr:stedsnr" v="880593" />
	</node>
	<node id="-543832" lat="58.4653388894" lon="7.94921944686">
		<tag k="name" v="Langetjønn" />
		<tag k="natural" v="water" />
		<tag k="ssr:stedsnr" v="880575" />
	</node>
	<node id="-543821" lat="58.3779499956" lon="8.09125000657">
		<tag k="name" v="Roleia" />
		<tag k="natural" v="strait" />
		<tag k="ssr:stedsnr" v="880434" />
	</node>
	<node id="-543817" lat="58.4366416691" lon="8.08148888794">
		<tag k="name" v="Fjermedalsåna" />
		<tag k="ssr:stedsnr" v="880414" />
		<tag k="waterway" v="river" />
	</node>
	<node id="-543816" lat="58.4147138898" lon="8.06344166672">
		<tag k="name" v="Sagkilen" />
		<tag k="natural" v="bay" />
		<tag k="ssr:stedsnr" v="880399" />
	</node>
	<node id="-545124" lat="58.4651638932" lon="8.02377500392">
		<tag k="name" v="Gjeisstjønn" />
		<tag k="natural" v="water" />
		<tag k="ssr:stedsnr" v="819549" />
	</node>
	<node id="-543805" lat="58.3464277782" lon="7.94355278119">
		<tag k="name" v="Moltetjønn" />
		<tag k="natural" v="water" />
		<tag k="ssr:stedsnr" v="880212" />
	</node>
	<node id="-543804" lat="58.3420694481" lon="7.91088610372">
		<tag k="name" v="Karsholmen" />
		<tag k="place" v="islet" />
		<tag k="ssr:stedsnr" v="880183" />
	</node>
	<node id="-543803" lat="58.4453361144" lon="7.81972500549">
		<tag k="name" v="Butangen" />
		<tag k="natural" v="cape" />
		<tag k="ssr:stedsnr" v="880180" />
	</node>
	<node id="-543802" lat="58.4351972267" lon="7.83609167055">
		<tag k="name" v="Paulen" />
		<tag k="natural" v="water" />
		<tag k="ssr:stedsnr" v="880178" />
		<tag k="water" v="pond" />
	</node>
	<node id="-543793" lat="58.3773222213" lon="8.01879722732">
		<tag k="name" v="Knipetjønn" />
		<tag k="natural" v="water" />
		<tag k="ssr:stedsnr" v="880069" />
	</node>
	<node id="-543787" lat="58.3383194445" lon="7.93788333175">
		<tag k="name" v="Ågreistjønn" />
		<tag k="natural" v="water" />
		<tag k="ssr:stedsnr" v="879161" />
	</node>
	<node id="-543777" lat="58.5502357246" lon="7.90388132808">
		<tag k="name" v="Åmlandslonane" />
		<tag k="natural" v="water" />
		<tag k="ssr:stedsnr" v="729648" />
	</node>
	<node id="-543771" lat="58.3897888908" lon="7.96920832848">
		<tag k="name" v="Tangen" />
		<tag k="natural" v="cape" />
		<tag k="ssr:stedsnr" v="636926" />
	</node>
	<node id="-543769" lat="58.4016388928" lon="7.9941861131">
		<tag k="name" v="Svengestøltjønn" />
		<tag k="natural" v="water" />
		<tag k="ssr:stedsnr" v="636915" />
	</node>
	<node id="-543755" lat="58.4691194422" lon="8.01497499529">
		<tag k="name" v="Nesane" />
		<tag k="natural" v="cape" />
		<tag k="ssr:stedsnr" v="636559" />
	</node>
	<node id="-543751" lat="58.4782861082" lon="7.96406667514">
		<tag k="name" v="Evelitjønn" />
		<tag k="natural" v="water" />
		<tag k="ssr:stedsnr" v="636504" />
	</node>
	<node id="-543731" lat="58.3801138871" lon="7.97334166447">
		<tag k="alt_name" v="Buveistjønn" />
		<tag k="name" v="Buveitstjørn" />
		<tag k="natural" v="water" />
		<tag k="ssr:stedsnr" v="728143" />
	</node>
	<node id="-543724" lat="58.4643805559" lon="8.01758056125">
		<tag k="name" v="Skinnarvatnet" />
		<tag k="natural" v="water" />
		<tag k="ssr:stedsnr" v="728210" />
	</node>
	<node id="-543722" lat="58.4520805512" lon="7.84869166601">
		<tag k="name" v="Bjordalstjørna" />
		<tag k="natural" v="water" />
		<tag k="ssr:stedsnr" v="728197" />
	</node>
	<node id="-543714" lat="58.5112777805" lon="7.97895556113">
		<tag k="alt_name" v="Stemtjørn" />
		<tag k="name" v="Stemtjønn" />
		<tag k="natural" v="water" />
		<tag k="ssr:stedsnr" v="607420" />
	</node>
	<node id="-543703" lat="58.4669916644" lon="7.85417221393">
		<tag k="name" v="Storeankjell" />
		<tag k="natural" v="water" />
		<tag k="ssr:stedsnr" v="576862" />
	</node>
	<node id="-543701" lat="58.4732249993" lon="7.95960278161">
		<tag k="name" v="Geitauge" />
		<tag k="natural" v="water" />
		<tag k="ssr:stedsnr" v="576520" />
	</node>
	<node id="-543694" lat="58.4301111096" lon="7.81673610342">
		<tag k="name" v="Jens Arnts holme" />
		<tag k="place" v="islet" />
		<tag k="ssr:stedsnr" v="576316" />
	</node>
	<node id="-543690" lat="58.3222583326" lon="7.96123332624">
		<tag k="name" v="Lille Knutanetjønn" />
		<tag k="natural" v="water" />
		<tag k="ssr:stedsnr" v="576107" />
	</node>
	<node id="-543686" lat="58.3936638876" lon="7.95085277091">
		<tag k="name" v="Lauvlitjønn" />
		<tag k="natural" v="water" />
		<tag k="ssr:stedsnr" v="697930" />
	</node>
	<node id="-543682" lat="58.4688083325" lon="7.79840278178">
		<tag k="name" v="Neset" />
		<tag k="natural" v="cape" />
		<tag k="ssr:stedsnr" v="697985" />
	</node>
	<node id="-543681" lat="58.4582611082" lon="7.8117500073">
		<tag k="name" v="Båthusbukta" />
		<tag k="natural" v="bay" />
		<tag k="ssr:stedsnr" v="697977" />
	</node>
	<node id="-543673" lat="58.4303888862" lon="7.94581667104">
		<tag k="name" v="Fjelltjønn" />
		<tag k="natural" v="water" />
		<tag k="ssr:stedsnr" v="697749" />
	</node>
	<node id="-543669" lat="58.5390472263" lon="7.86699722112">
		<tag k="name" v="Austre Mørketjønn" />
		<tag k="natural" v="water" />
		<tag k="ssr:stedsnr" v="697694" />
	</node>
	<node id="-543661" lat="58.4440611097" lon="7.92643611311">
		<tag k="name" v="Svartetjønn" />
		<tag k="natural" v="water" />
		<tag k="ssr:stedsnr" v="697785" />
	</node>
	<node id="-543660" lat="58.4354638885" lon="7.98290000836">
		<tag k="name" v="Ølbekken" />
		<tag k="ssr:stedsnr" v="697549" />
		<tag k="waterway" v="stream" />
	</node>
	<node id="-543657" lat="58.4869222194" lon="8.00336388642">
		<tag k="name" v="Tvitjønnane" />
		<tag k="natural" v="water" />
		<tag k="ssr:stedsnr" v="697487" />
	</node>
	<node id="-543643" lat="58.3837388918" lon="8.09584999474">
		<tag k="name" v="Ærsneset" />
		<tag k="natural" v="cape" />
		<tag k="ssr:stedsnr" v="697445" />
	</node>
	<node id="-543630" lat="58.3819111122" lon="8.03793888737">
		<tag k="name" v="Lintjønn" />
		<tag k="natural" v="water" />
		<tag k="ssr:stedsnr" v="697085" />
	</node>
	<node id="-543628" lat="58.4495416687" lon="8.04838888614">
		<tag k="name" v="Måvatn" />
		<tag k="natural" v="water" />
		<tag k="ssr:stedsnr" v="546211" />
	</node>
	<node id="-543621" lat="58.4743416648" lon="7.90409166767">
		<tag k="name" v="Torstveittjønn" />
		<tag k="natural" v="water" />
		<tag k="ssr:stedsnr" v="515638" />
	</node>
	<node id="-543616" lat="58.5057527818" lon="7.95169166026">
		<tag k="name" v="Saletjønn" />
		<tag k="natural" v="water" />
		<tag k="ssr:stedsnr" v="515608" />
	</node>
	<node id="-543612" lat="58.4671305588" lon="7.96272222569">
		<tag k="name" v="Indretjønn" />
		<tag k="natural" v="water" />
		<tag k="ssr:stedsnr" v="515507" />
	</node>
	<node id="-543609" lat="58.3829222235" lon="7.96218888137">
		<tag k="name" v="Svartevatn" />
		<tag k="natural" v="water" />
		<tag k="ssr:stedsnr" v="515127" />
	</node>
	<node id="-543606" lat="58.3805277815" lon="8.00038611535">
		<tag k="name" v="Torvestjønn" />
		<tag k="natural" v="water" />
		<tag k="ssr:stedsnr" v="515117" />
	</node>
	<node id="-543602" lat="58.4226749959" lon="7.86111111688">
		<tag k="name" v="Sauetjønn" />
		<tag k="natural" v="water" />
		<tag k="ssr:stedsnr" v="515242" />
	</node>
	<node id="-543598" lat="58.4330999977" lon="7.87495000206">
		<tag k="alt_name" v="Stemtjønn" />
		<tag k="name" v="Stemtjørn" />
		<tag k="natural" v="water" />
		<tag k="ssr:stedsnr" v="485125" />
	</node>
	<node id="-543597" lat="58.4351666675" lon="8.06366110455">
		<tag k="alt_name" v="Stemtjønn" />
		<tag k="name" v="Stemtjørn" />
		<tag k="natural" v="water" />
		<tag k="ssr:stedsnr" v="485124" />
	</node>
	<node id="-543596" lat="58.4246416662" lon="8.08510278323">
		<tag k="name" v="Ogge" />
		<tag k="natural" v="water" />
		<tag k="ssr:stedsnr" v="485115" />
		<tag k="water" v="lake" />
	</node>
	<node id="-543593" lat="58.4068805587" lon="7.83257222191">
		<tag k="name" v="Gåseflåfjorden" />
		<tag k="natural" v="water" />
		<tag k="ssr:stedsnr" v="485106" />
		<tag k="water" v="lake" />
	</node>
	<node id="-543591" lat="58.4274989198" lon="7.96045289336">
		<tag k="alt_name" v="Færetjønn" />
		<tag k="name" v="Færetjørn" />
		<tag k="natural" v="water" />
		<tag k="ssr:stedsnr" v="667176" />
	</node>
	<node id="-543588" lat="58.3305249965" lon="7.92754722312">
		<tag k="name" v="Beiehølen" />
		<tag k="natural" v="water" />
		<tag k="ssr:stedsnr" v="667136" />
	</node>
	<node id="-543585" lat="58.4180305561" lon="7.82172222875">
		<tag k="name" v="Stemmen" />
		<tag k="natural" v="water" />
		<tag k="ssr:stedsnr" v="455318" />
	</node>
	<node id="-543583" lat="58.4134833323" lon="7.79080277634">
		<tag k="name" v="Fleskeholmen" />
		<tag k="place" v="islet" />
		<tag k="ssr:stedsnr" v="455309" />
	</node>
	<node id="-543581" lat="58.3926972226" lon="7.90640278562">
		<tag k="name" v="Blekehølen" />
		<tag k="place" v="locality" />
		<tag k="ssr:stedsnr" v="455026" />
	</node>
	<node id="-543571" lat="58.4525722266" lon="7.8226444506">
		<tag k="name" v="Skjebbetjønn" />
		<tag k="natural" v="water" />
		<tag k="ssr:stedsnr" v="515984" />
	</node>
	<node id="-543570" lat="58.4558833312" lon="7.82703888604">
		<tag k="name" v="Odderstølkilen" />
		<tag k="natural" v="water" />
		<tag k="ssr:stedsnr" v="515983" />
	</node>
	<node id="-543564" lat="58.4051666629" lon="8.00606389724">
		<tag k="name" v="Hattetjønn" />
		<tag k="natural" v="water" />
		<tag k="ssr:stedsnr" v="515946" />
	</node>
	<node id="-543561" lat="58.3272527768" lon="7.9665944398">
		<tag k="alt_name" v="Kuåna" />
		<tag k="name" v="Kvåna" />
		<tag k="ssr:stedsnr" v="425104" />
		<tag k="waterway" v="stream" />
	</node>
	<node id="-543560" lat="58.3660916654" lon="7.98331111082">
		<tag k="name" v="Kverntjønn" />
		<tag k="natural" v="water" />
		<tag k="ssr:stedsnr" v="515897" />
	</node>
	<node id="-543538" lat="58.5367583338" lon="7.87808055213">
		<tag k="name" v="Lille Heietjønn" />
		<tag k="natural" v="water" />
		<tag k="ssr:stedsnr" v="515696" />
	</node>
	<node id="-543537" lat="58.5163555541" lon="7.87672221681">
		<tag k="name" v="Kaldtjønn" />
		<tag k="natural" v="water" />
		<tag k="ssr:stedsnr" v="515688" />
	</node>
	<node id="-543530" lat="58.4655000009" lon="8.03266667111">
		<tag k="name" v="Ommundstjønn" />
		<tag k="natural" v="water" />
		<tag k="ssr:stedsnr" v="515599" />
	</node>
	<node id="-543526" lat="58.4645861124" lon="8.03036943843">
		<tag k="name" v="Ånntjønn" />
		<tag k="natural" v="water" />
		<tag k="ssr:stedsnr" v="515537" />
	</node>
	<node id="-543518" lat="58.4246555553" lon="8.08677222753">
		<tag k="name" v="Bukksundfjorden" />
		<tag k="natural" v="water" />
		<tag k="ssr:stedsnr" v="515442" />
	</node>
	<node id="-543517" lat="58.4233472208" lon="8.08217778286">
		<tag k="name" v="Knutsnes" />
		<tag k="natural" v="cape" />
		<tag k="ssr:stedsnr" v="515435" />
	</node>
	<node id="-543512" lat="58.4279638916" lon="7.81141389479">
		<tag k="name" v="Brendøy" />
		<tag k="natural" v="cape" />
		<tag k="ssr:stedsnr" v="515328" />
	</node>
	<node id="-543511" lat="58.4253361093" lon="7.81593334078">
		<tag k="name" v="Holetjønn" />
		<tag k="natural" v="water" />
		<tag k="ssr:stedsnr" v="515327" />
	</node>
	<node id="-543503" lat="58.3371111132" lon="7.95394166513">
		<tag k="name" v="Sandtjønn" />
		<tag k="natural" v="water" />
		<tag k="ssr:stedsnr" v="515137" />
	</node>
	<node id="-543500" lat="58.426763887" lon="7.87906945212">
		<tag k="name" v="Lonane" />
		<tag k="natural" v="water" />
		<tag k="ssr:stedsnr" v="515249" />
		<tag k="water" v="lake" />
	</node>
	<node id="-543489" lat="58.3967388884" lon="7.91943055488">
		<tag k="name" v="Bakketjønn" />
		<tag k="natural" v="water" />
		<tag k="ssr:stedsnr" v="515029" />
	</node>
	<node id="-543484" lat="58.4164138915" lon="8.00687500025">
		<tag k="name" v="Lille Homtjønn" />
		<tag k="natural" v="water" />
		<tag k="ssr:stedsnr" v="394521" />
	</node>
	<node id="-543483" lat="58.4116194437" lon="8.02074722466">
		<tag k="name" v="Fiskelausbekken" />
		<tag k="ssr:stedsnr" v="394519" />
		<tag k="waterway" v="stream" />
	</node>
	<node id="-543481" lat="58.4773583309" lon="7.95451944454">
		<tag k="name" v="Lonane" />
		<tag k="natural" v="water" />
		<tag k="ssr:stedsnr" v="394504" />
		<tag k="water" v="lake" />
	</node>
	<node id="-543468" lat="58.3770999996" lon="8.01392777827">
		<tag k="name" v="Rometjønn" />
		<tag k="natural" v="water" />
		<tag k="ssr:stedsnr" v="394052" />
	</node>
	<node id="-543466" lat="58.361894443" lon="7.92052221374">
		<tag k="name" v="Skipmannstjønn" />
		<tag k="natural" v="water" />
		<tag k="ssr:stedsnr" v="394121" />
	</node>
	<node id="-543458" lat="58.5098583357" lon="7.87675832503">
		<tag k="alt_name" v="Lomtjønn" />
		<tag k="name" v="Lomtjørna" />
		<tag k="natural" v="water" />
		<tag k="ssr:stedsnr" v="486440" />
	</node>
	<node id="-543456" lat="58.4620157048" lon="7.95886732146">
		<tag k="alt_name" v="Landsverktjønn" />
		<tag k="name" v="Landsverktjørna" />
		<tag k="natural" v="water" />
		<tag k="ssr:stedsnr" v="485189" />
	</node>
	<node id="-543455" lat="58.4571444436" lon="7.91018888764">
		<tag k="alt_name" v="Birketveitvatnet" />
		<tag k="name" v="Birketveitstjønna" />
		<tag k="natural" v="water" />
		<tag k="ssr:stedsnr" v="485185" />
	</node>
	<node id="-543453" lat="58.3731499982" lon="8.02122778071">
		<tag k="alt_name" v="Omestadvatn" />
		<tag k="name" v="Åmestadvatnet" />
		<tag k="natural" v="water" />
		<tag k="ssr:stedsnr" v="485133" />
	</node>
	<node id="-543452" lat="58.3528138868" lon="7.94520556019">
		<tag k="name" v="Fiskelausvatnet" />
		<tag k="natural" v="water" />
		<tag k="ssr:stedsnr" v="485080" />
	</node>
	<node id="-543448" lat="58.4031416694" lon="8.02147221555">
		<tag k="name" v="Bjørnneset" />
		<tag k="natural" v="cape" />
		<tag k="ssr:stedsnr" v="333934" />
	</node>
	<node id="-543441" lat="58.4629111116" lon="8.03218611404">
		<tag k="name" v="Mørketjønn" />
		<tag k="natural" v="water" />
		<tag k="ssr:stedsnr" v="333542" />
	</node>
	<node id="-543439" lat="58.4208861156" lon="8.01078333317">
		<tag k="name" v="Staketjønn" />
		<tag k="natural" v="water" />
		<tag k="ssr:stedsnr" v="333533" />
	</node>
	<node id="-543437" lat="58.4740194467" lon="7.96364722448">
		<tag k="name" v="Futetjønn" />
		<tag k="natural" v="water" />
		<tag k="ssr:stedsnr" v="333522" />
	</node>
	<node id="-543431" lat="58.3387944416" lon="7.95108056393">
		<tag k="name" v="Lomtjønn" />
		<tag k="natural" v="water" />
		<tag k="ssr:stedsnr" v="333135" />
	</node>
	<node id="-543429" lat="58.3161694469" lon="7.96462222205">
		<tag k="name" v="Kringsjådammen" />
		<tag k="natural" v="water" />
		<tag k="ssr:stedsnr" v="333122" />
		<tag k="water" v="lake" />
	</node>
	<node id="-543426" lat="58.3439138879" lon="7.9038166695">
		<tag k="name" v="Bergøya" />
		<tag k="place" v="island" />
		<tag k="ssr:stedsnr" v="333222" />
	</node>
	<node id="-543425" lat="58.4382666679" lon="7.82393333686">
		<tag k="name" v="Slåttetjønn" />
		<tag k="natural" v="water" />
		<tag k="ssr:stedsnr" v="333211" />
	</node>
	<node id="-543400" lat="58.3517916699" lon="7.97901388616">
		<tag k="name" v="Perslone" />
		<tag k="natural" v="water" />
		<tag k="ssr:stedsnr" v="273911" />
		<tag k="water" v="lake" />
	</node>
	<node id="-543394" lat="58.4521333294" lon="7.91513610758">
		<tag k="name" v="Midttjønn" />
		<tag k="natural" v="water" />
		<tag k="ssr:stedsnr" v="273805" />
	</node>
	<node id="-543388" lat="58.412255552" lon="8.01362222521">
		<tag k="name" v="Brandsveinstjønn" />
		<tag k="natural" v="water" />
		<tag k="ssr:stedsnr" v="273504" />
	</node>
	<node id="-543384" lat="58.5099888916" lon="7.93501666517">
		<tag k="name" v="Revurtjønn" />
		<tag k="natural" v="water" />
		<tag k="ssr:stedsnr" v="273658" />
	</node>
	<node id="-543379" lat="58.4347944456" lon="8.01279443948">
		<tag k="name" v="Møkjålandsbekken" />
		<tag k="ssr:stedsnr" v="273602" />
		<tag k="waterway" v="stream" />
	</node>
	<node id="-543377" lat="58.4944805518" lon="7.97083611276">
		<tag k="name" v="Solkrontjønn" />
		<tag k="natural" v="water" />
		<tag k="ssr:stedsnr" v="273463" />
	</node>
	<node id="-543376" lat="58.3983194477" lon="8.09257777688">
		<tag k="name" v="Spekøddane" />
		<tag k="natural" v="cape" />
		<tag k="ssr:stedsnr" v="273461" />
	</node>
	<node id="-543375" lat="58.3952694486" lon="8.08121110319">
		<tag k="name" v="Gjegningtjønn" />
		<tag k="natural" v="water" />
		<tag k="ssr:stedsnr" v="273459" />
	</node>
	<node id="-543373" lat="58.4089027757" lon="8.08025555181">
		<tag k="name" v="Austerkil" />
		<tag k="natural" v="bay" />
		<tag k="ssr:stedsnr" v="273454" />
	</node>
	<node id="-543371" lat="58.4232916666" lon="7.81863333914">
		<tag k="name" v="Suggehølen" />
		<tag k="place" v="locality" />
		<tag k="ssr:stedsnr" v="273323" />
	</node>
	<node id="-543369" lat="58.3922777776" lon="7.85895833861">
		<tag k="name" v="Stemdalsia" />
		<tag k="place" v="locality" />
		<tag k="ssr:stedsnr" v="273059" />
	</node>
	<node id="-543366" lat="58.4529444451" lon="7.81583889172">
		<tag k="name" v="Bukta" />
		<tag k="natural" v="bay" />
		<tag k="old_name" v="Bustevollbukta" />
		<tag k="ssr:stedsnr" v="455981" />
	</node>
	<node id="-543360" lat="58.3999944489" lon="8.0238250075">
		<tag k="name" v="Langodden" />
		<tag k="natural" v="cape" />
		<tag k="ssr:stedsnr" v="455959" />
	</node>
	<node id="-543358" lat="58.4094835678" lon="8.03491610637">
		<tag k="name" v="Skjebbeheitjønnane" />
		<tag k="natural" v="water" />
		<tag k="ssr:stedsnr" v="455934" />
	</node>
	<node id="-543355" lat="58.3525861128" lon="7.98200000179">
		<tag k="name" v="Langevassbekken" />
		<tag k="ssr:stedsnr" v="455897" />
		<tag k="waterway" v="stream" />
	</node>
	<node id="-543352" lat="58.3637333336" lon="7.98526111635">
		<tag k="name" v="Skjebbetjønn" />
		<tag k="natural" v="water" />
		<tag k="ssr:stedsnr" v="455891" />
	</node>
	<node id="-543350" lat="58.3582666685" lon="7.97716110269">
		<tag k="name" v="Pyttane" />
		<tag k="natural" v="water" />
		<tag k="ssr:stedsnr" v="455886" />
		<tag k="water" v="pond" />
	</node>
	<node id="-543345" lat="58.4952000009" lon="7.87553888418">
		<tag k="name" v="Haletjønn" />
		<tag k="natural" v="water" />
		<tag k="ssr:stedsnr" v="455844" />
	</node>
	<node id="-543344" lat="58.4924888877" lon="7.86543333018">
		<tag k="name" v="Lilletjønn" />
		<tag k="natural" v="water" />
		<tag k="ssr:stedsnr" v="455840" />
	</node>
	<node id="-543340" lat="58.4461861076" lon="7.93038889527">
		<tag k="name" v="Lomtjønn" />
		<tag k="natural" v="water" />
		<tag k="ssr:stedsnr" v="455781" />
	</node>
	<node id="-543316" lat="58.4537527786" lon="8.00343610554">
		<tag k="name" v="Ranestad Lindtjønn" />
		<tag k="natural" v="water" />
		<tag k="ssr:stedsnr" v="455577" />
	</node>
	<node id="-543313" lat="58.4453972182" lon="7.9800722211">
		<tag k="name" v="Badstauholmen" />
		<tag k="place" v="islet" />
		<tag k="ssr:stedsnr" v="455550" />
	</node>
	<node id="-543310" lat="58.452911112" lon="7.96650556203">
		<tag k="name" v="Stutjønn" />
		<tag k="natural" v="water" />
		<tag k="ssr:stedsnr" v="455533" />
	</node>
	<node id="-543308" lat="58.4681527753" lon="8.02018055683">
		<tag k="name" v="Sauekilen" />
		<tag k="natural" v="bay" />
		<tag k="ssr:stedsnr" v="455525" />
	</node>
	<node id="-543300" lat="58.4804166689" lon="7.96457777256">
		<tag k="name" v="Slokedaltjønn" />
		<tag k="natural" v="water" />
		<tag k="ssr:stedsnr" v="455485" />
	</node>
	<node id="-543294" lat="58.4095694489" lon="8.07875278021">
		<tag k="name" v="Kræstjanstangen" />
		<tag k="natural" v="cape" />
		<tag k="ssr:stedsnr" v="455420" />
	</node>
	<node id="-543289" lat="58.4342944473" lon="7.82961943798">
		<tag k="name" v="Løynetjønn" />
		<tag k="natural" v="water" />
		<tag k="ssr:stedsnr" v="455181" />
	</node>
	<node id="-543276" lat="58.4268888915" lon="8.08533055531">
		<tag k="name" v="Fugløya" />
		<tag k="place" v="island" />
		<tag k="ssr:stedsnr" v="455386" />
	</node>
	<node id="-543274" lat="58.4669972232" lon="8.06566111003">
		<tag k="name" v="Tveitbekken" />
		<tag k="ssr:stedsnr" v="455368" />
		<tag k="waterway" v="stream" />
	</node>
	<node id="-543269" lat="58.4044222202" lon="7.86204167175">
		<tag k="name" v="Dalanekilen" />
		<tag k="natural" v="bay" />
		<tag k="ssr:stedsnr" v="455051" />
	</node>
	<node id="-543267" lat="58.3999499964" lon="7.85406388985">
		<tag k="name" v="Gåseflådammen" />
		<tag k="ssr:stedsnr" v="455039" />
		<tag k="waterway" v="dam" />
	</node>
	<node id="-543262" lat="58.3618583336" lon="7.97829999914">
		<tag k="name" v="Langevatn" />
		<tag k="natural" v="water" />
		<tag k="ssr:stedsnr" v="243072" />
	</node>
	<node id="-543261" lat="58.3904777774" lon="7.96558888149">
		<tag k="name" v="Damaskus" />
		<tag k="place" v="islet" />
		<tag k="ssr:stedsnr" v="212934" />
	</node>
	<node id="-543254" lat="58.4448999963" lon="8.03839167432">
		<tag k="name" v="Måvasstjønn" />
		<tag k="natural" v="water" />
		<tag k="ssr:stedsnr" v="212623" />
	</node>
	<node id="-543253" lat="58.4479861127" lon="8.03659443919">
		<tag k="name" v="Surtetjønn" />
		<tag k="natural" v="water" />
		<tag k="ssr:stedsnr" v="212622" />
	</node>
	<node id="-543248" lat="58.4251138874" lon="7.98031667254">
		<tag k="name" v="Store Kroktjønn" />
		<tag k="natural" v="water" />
		<tag k="ssr:stedsnr" v="212732" />
	</node>
	<node id="-543240" lat="58.4160361092" lon="7.79726111674">
		<tag k="name" v="Bjordalsbukta" />
		<tag k="natural" v="bay" />
		<tag k="ssr:stedsnr" v="212323" />
	</node>
	<node id="-543237" lat="58.3584611153" lon="7.90306111749">
		<tag k="name" v="Nomelandsneset" />
		<tag k="natural" v="cape" />
		<tag k="ssr:stedsnr" v="212236" />
	</node>
	<node id="-543234" lat="58.449925004" lon="7.87407221888">
		<tag k="name" v="Fiskevatn" />
		<tag k="natural" v="water" />
		<tag k="ssr:stedsnr" v="212008" />
		<tag k="water" v="lake" />
	</node>
	<node id="-543230" lat="58.3691222245" lon="7.94043333832">
		<tag k="name" v="Bekkane" />
		<tag k="ssr:stedsnr" v="212126" />
		<tag k="waterway" v="stream" />
	</node>
	<node id="-543227" lat="58.3814055587" lon="7.96404443721">
		<tag k="name" v="Fantetjønn" />
		<tag k="natural" v="water" />
		<tag k="ssr:stedsnr" v="212102" />
	</node>
	<node id="-543212" lat="58.4694083335" lon="8.03008610441">
		<tag k="name" v="Ekorndalstjønn" />
		<tag k="natural" v="water" />
		<tag k="ssr:stedsnr" v="151545" />
	</node>
	<node id="-543211" lat="58.4678972184" lon="8.01419165862">
		<tag k="name" v="Firtjønnan" />
		<tag k="natural" v="water" />
		<tag k="ssr:stedsnr" v="151542" />
	</node>
	<node id="-543209" lat="58.4203833317" lon="8.04204443823">
		<tag k="name" v="Lonane" />
		<tag k="natural" v="water" />
		<tag k="ssr:stedsnr" v="151525" />
		<tag k="water" v="lake" />
	</node>
	<node id="-543208" lat="58.4134500031" lon="8.01136389126">
		<tag k="name" v="Gullringstjønn" />
		<tag k="natural" v="water" />
		<tag k="ssr:stedsnr" v="151518" />
	</node>
	<node id="-543197" lat="58.321180556" lon="7.9555888813">
		<tag k="name" v="Store Knutanetjønn" />
		<tag k="natural" v="water" />
		<tag k="ssr:stedsnr" v="151125" />
	</node>
	<node id="-543193" lat="58.4953722227" lon="7.80754445183">
		<tag k="name" v="Einertangtjønn" />
		<tag k="natural" v="water" />
		<tag k="ssr:stedsnr" v="273992" />
	</node>
	<node id="-543190" lat="58.362833333" lon="7.95217222203">
		<tag k="name" v="Flotetjønn" />
		<tag k="natural" v="water" />
		<tag k="ssr:stedsnr" v="273898" />
	</node>
	<node id="-543160" lat="58.4399305513" lon="8.03981666341">
		<tag k="name" v="Måvassbekken" />
		<tag k="ssr:stedsnr" v="273636" />
		<tag k="waterway" v="stream" />
	</node>
	<node id="-543159" lat="58.4505861079" lon="8.0388527711">
		<tag k="name" v="Angardsbekken" />
		<tag k="ssr:stedsnr" v="273634" />
		<tag k="waterway" v="stream" />
	</node>
	<node id="-543153" lat="58.4260749997" lon="8.06970833332">
		<tag k="name" v="Austreheitjønn" />
		<tag k="natural" v="water" />
		<tag k="ssr:stedsnr" v="273417" />
	</node>
	<node id="-543151" lat="58.4244611141" lon="8.07982777431">
		<tag k="name" v="Smalsundet" />
		<tag k="natural" v="strait" />
		<tag k="ssr:stedsnr" v="273412" />
	</node>
	<node id="-543150" lat="58.4215194446" lon="8.08831388313">
		<tag k="name" v="Persundet" />
		<tag k="natural" v="strait" />
		<tag k="ssr:stedsnr" v="273407" />
	</node>
	<node id="-543143" lat="58.4383555539" lon="7.83041388793">
		<tag k="name" v="Rumpetjønn" />
		<tag k="natural" v="water" />
		<tag k="ssr:stedsnr" v="273195" />
	</node>
	<node id="-543138" lat="58.4128083308" lon="7.79243332509">
		<tag k="name" v="Soga" />
		<tag k="natural" v="waterfall" />
		<tag k="ssr:stedsnr" v="273335" />
	</node>
	<node id="-543137" lat="58.3165222208" lon="7.94548888162">
		<tag k="name" v="Vrengen" />
		<tag k="ssr:stedsnr" v="273151" />
		<tag k="waterway" v="rapids" />
	</node>
	<node id="-543136" lat="58.3369277745" lon="7.91664165968">
		<tag k="name" v="Jensesfjord" />
		<tag k="natural" v="water" />
		<tag k="ssr:stedsnr" v="273147" />
		<tag k="water" v="lake" />
	</node>
	<node id="-545177" lat="58.4984753483" lon="7.79510148024">
		<tag k="name" v="Svartetjønn" />
		<tag k="natural" v="water" />
		<tag k="ssr:stedsnr" v="30993" />
	</node>
	<node id="-543128" lat="58.377927774" lon="8.04811666855">
		<tag k="name" v="Langetjønn" />
		<tag k="natural" v="water" />
		<tag k="ssr:stedsnr" v="273091" />
	</node>
	<node id="-543127" lat="58.4024861089" lon="7.85203055635">
		<tag k="name" v="Tippen" />
		<tag k="natural" v="cape" />
		<tag k="ssr:stedsnr" v="273081" />
	</node>
	<node id="-543124" lat="58.4328638882" lon="8.05551110451">
		<tag k="name" v="Gullringtjønn" />
		<tag k="natural" v="water" />
		<tag k="ssr:stedsnr" v="91627" />
	</node>
	<node id="-545171" lat="58.509713893" lon="7.92492499904">
		<tag k="alt_name" v="Kleppstjønn" />
		<tag k="name" v="Kleppetjørn" />
		<tag k="natural" v="water" />
		<tag k="ssr:stedsnr" v="851384" />
	</node>
	<node id="-545168" lat="58.5298055549" lon="7.87220555976">
		<tag k="name" v="Buhagetjørna" />
		<tag k="natural" v="water" />
		<tag k="ssr:stedsnr" v="850650" />
	</node>
	<node id="-543119" lat="58.4233527795" lon="8.01027500026">
		<tag k="name" v="Lille Staketjønn" />
		<tag k="natural" v="water" />
		<tag k="ssr:stedsnr" v="91536" />
	</node>
	<node id="-543118" lat="58.4758250016" lon="7.98335832865">
		<tag k="name" v="Speisetjønn" />
		<tag k="natural" v="water" />
		<tag k="ssr:stedsnr" v="91516" />
	</node>
	<node id="-545165" lat="58.4530388889" lon="7.95543611555">
		<tag k="alt_name" v="Beretjønn" />
		<tag k="name" v="Beretjørn" />
		<tag k="natural" v="water" />
		<tag k="ssr:stedsnr" v="850234" />
	</node>
	<node id="-545164" lat="58.4876722199" lon="7.79903333957">
		<tag k="name" v="Stemmen" />
		<tag k="natural" v="water" />
		<tag k="ssr:stedsnr" v="850202" />
	</node>
	<node id="-543114" lat="58.4228138926" lon="8.0106916634">
		<tag k="name" v="Staketjørnane" />
		<tag k="natural" v="water" />
		<tag k="ssr:stedsnr" v="243135" />
	</node>
	<node id="-545161" lat="58.4180472263" lon="8.00436944598">
		<tag k="alt_name" v="Homtjønn" />
		<tag k="name" v="Homtjørna" />
		<tag k="natural" v="water" />
		<tag k="ssr:stedsnr" v="850141" />
	</node>
	<node id="-543110" lat="58.3880111105" lon="8.03234443831">
		<tag k="alt_name" v="Jordestjønn" />
		<tag k="name" v="Åmestadtjørna" />
		<tag k="natural" v="water" />
		<tag k="ssr:stedsnr" v="242158" />
	</node>
	<node id="-543086" lat="58.5129138863" lon="7.93716110516">
		<tag k="name" v="Kjellingtjønn" />
		<tag k="natural" v="water" />
		<tag k="ssr:stedsnr" v="30678" />
	</node>
	<node id="-545133" lat="58.5495916624" lon="7.92106666147">
		<tag k="name" v="Geitauga" />
		<tag k="natural" v="water" />
		<tag k="ssr:stedsnr" v="819734" />
	</node>
	<node id="-545130" lat="58.514299999" lon="7.89026945206">
		<tag k="name" v="Øygardstjønn" />
		<tag k="natural" v="water" />
		<tag k="ssr:stedsnr" v="819698" />
	</node>
	<node id="-543079" lat="58.3774916695" lon="8.02454167411">
		<tag k="name" v="Øvre Småtjønn" />
		<tag k="natural" v="water" />
		<tag k="ssr:stedsnr" v="30079" />
	</node>
	<node id="-543076" lat="58.529554447" lon="7.89742835256">
		<tag k="alt_name" v="Klevelandstjønn" />
		<tag k="name" v="Klevelandstjørna" />
		<tag k="natural" v="water" />
		<tag k="ssr:stedsnr" v="659" />
	</node>
	<node id="-545118" lat="58.4199111152" lon="7.94621666783">
		<tag k="name" v="Bomtjønn" />
		<tag k="natural" v="water" />
		<tag k="ssr:stedsnr" v="819797" />
	</node>
	<node id="-545116" lat="58.4303250014" lon="7.92035277743">
		<tag k="name" v="Tolvskillingsodden" />
		<tag k="natural" v="cape" />
		<tag k="ssr:stedsnr" v="819781" />
	</node>
	<node id="-545107" lat="58.4521027746" lon="8.06130000437">
		<tag k="name" v="Borgåstjønn" />
		<tag k="natural" v="water" />
		<tag k="ssr:stedsnr" v="819451" />
	</node>
	<node id="-545106" lat="58.4358472262" lon="8.10314166748">
		<tag k="name" v="Øykholmen" />
		<tag k="place" v="islet" />
		<tag k="ssr:stedsnr" v="819448" />
	</node>
	<node id="-545105" lat="58.4387638861" lon="8.09015832834">
		<tag k="name" v="Austretjønn" />
		<tag k="natural" v="water" />
		<tag k="ssr:stedsnr" v="819443" />
	</node>
	<node id="-545104" lat="58.4224722196" lon="8.07656945242">
		<tag k="name" v="Masseskil" />
		<tag k="natural" v="bay" />
		<tag k="ssr:stedsnr" v="819428" />
	</node>
	<node id="-545103" lat="58.4106472256" lon="8.06788611377">
		<tag k="name" v="Silarbekken" />
		<tag k="ssr:stedsnr" v="819427" />
		<tag k="waterway" v="stream" />
	</node>
	<node id="-543117" lat="58.496208331" lon="7.97628333766">
		<tag k="name" v="Tritjønnene" />
		<tag k="natural" v="water" />
		<tag k="ssr:stedsnr" v="91508" />
	</node>
	<node id="-545099" lat="58.4909472184" lon="7.98341666145">
		<tag k="name" v="Skjersakstjønn" />
		<tag k="natural" v="water" />
		<tag k="ssr:stedsnr" v="819506" />
	</node>
	<node id="-545095" lat="58.4081333326" lon="8.08744722825">
		<tag k="name" v="Nesane" />
		<tag k="natural" v="cape" />
		<tag k="ssr:stedsnr" v="819486" />
	</node>
	<node id="-545094" lat="58.3855555532" lon="8.08754443996">
		<tag k="name" v="Tvitjønnane" />
		<tag k="natural" v="water" />
		<tag k="ssr:stedsnr" v="819472" />
	</node>
	<node id="-545090" lat="58.4297222233" lon="7.86572221765">
		<tag k="name" v="Lomtjønn" />
		<tag k="natural" v="water" />
		<tag k="ssr:stedsnr" v="819234" />
	</node>
	<node id="-545088" lat="58.4332611099" lon="7.81419723017">
		<tag k="loc_name" v="Ikonnholmen" />
		<tag k="name" v="Ekornholmen" />
		<tag k="place" v="islet" />
		<tag k="ssr:stedsnr" v="819200" />
	</node>
	<node id="-545086" lat="58.4472138858" lon="7.81802500532">
		<tag k="name" v="Sundstangen" />
		<tag k="natural" v="cape" />
		<tag k="ssr:stedsnr" v="819191" />
	</node>
	<node id="-545078" lat="58.3613722194" lon="7.93627499566">
		<tag k="name" v="Sevrinstjønn" />
		<tag k="natural" v="water" />
		<tag k="ssr:stedsnr" v="819148" />
	</node>
	<node id="-545076" lat="58.3714833345" lon="7.91465555132">
		<tag k="name" v="Myklandskilen" />
		<tag k="natural" v="bay" />
		<tag k="ssr:stedsnr" v="819138" />
	</node>
	<node id="-545073" lat="58.3375166645" lon="7.95758055373">
		<tag k="name" v="Rundåstjønn" />
		<tag k="natural" v="water" />
		<tag k="ssr:stedsnr" v="819127" />
	</node>
	<node id="-545067" lat="58.4200053242" lon="7.87432717753">
		<tag k="alt_name" v="Kalvetjønn" />
		<tag k="name" v="Kalvetjørna" />
		<tag k="natural" v="water" />
		<tag k="ssr:stedsnr" v="789141" />
	</node>
	<node id="-545066" lat="58.415516667" lon="8.01837500813">
		<tag k="alt_name" v="Fiskelaustjønn" />
		<tag k="name" v="Fiskelaustjørna" />
		<tag k="natural" v="water" />
		<tag k="ssr:stedsnr" v="789135" />
	</node>
	<node id="-545065" lat="58.4108250009" lon="7.99841389181">
		<tag k="alt_name" v="Noslebuvatn" />
		<tag k="name" v="Noslebuvatnet" />
		<tag k="natural" v="water" />
		<tag k="ssr:stedsnr" v="789133" />
		<tag k="water" v="lake" />
	</node>
	<node id="-545064" lat="58.3533638847" lon="7.99236665961">
		<tag k="alt_name" v="Leeslandsåna" />
		<tag k="name" v="Leeslandsåa" />
		<tag k="ssr:stedsnr" v="789087" />
		<tag k="waterway" v="stream" />
	</node>
	<node id="-545063" lat="58.3432000005" lon="7.96788610648">
		<tag k="alt_name" v="Øvre Jeppestølvatn;Jeppestølvatnet, øvre" />
		<tag k="name" v="Øvre Jeppestølvatnet" />
		<tag k="natural" v="water" />
		<tag k="ssr:stedsnr" v="789067" />
	</node>
	<node id="-545048" lat="58.4671861145" lon="7.82083333813">
		<tag k="name" v="Trogetjønn" />
		<tag k="natural" v="water" />
		<tag k="ssr:stedsnr" v="758963" />
	</node>
	<node id="-545044" lat="58.4016861146" lon="8.03291388869">
		<tag k="name" v="Spjotenesane" />
		<tag k="natural" v="cape" />
		<tag k="ssr:stedsnr" v="758946" />
	</node>
	<node id="-545043" lat="58.4933000002" lon="7.85746667053">
		<tag k="name" v="Landåsvatn" />
		<tag k="natural" v="water" />
		<tag k="ssr:stedsnr" v="758851" />
		<tag k="water" v="lake" />
	</node>
	<node id="-545041" lat="58.4584333319" lon="7.88652777821">
		<tag k="name" v="Tingtjønn" />
		<tag k="natural" v="water" />
		<tag k="ssr:stedsnr" v="758834" />
	</node>
	<node id="-545030" lat="58.4466749981" lon="7.9694944464">
		<tag k="name" v="Sagebekken" />
		<tag k="ssr:stedsnr" v="758620" />
		<tag k="waterway" v="stream" />
	</node>
	<node id="-545028" lat="58.4382055513" lon="7.99632499446">
		<tag k="name" v="Tyttebærodden" />
		<tag k="natural" v="cape" />
		<tag k="ssr:stedsnr" v="758614" />
	</node>
	<node id="-545026" lat="58.4620694447" lon="7.95018332937">
		<tag k="name" v="Mørketjønn" />
		<tag k="natural" v="water" />
		<tag k="ssr:stedsnr" v="758599" />
	</node>
	<node id="-545024" lat="58.4739722249" lon="8.02126388049">
		<tag k="name" v="Store Rønningtjønn" />
		<tag k="natural" v="water" />
		<tag k="ssr:stedsnr" v="758582" />
	</node>
	<node id="-545023" lat="58.4479722248" lon="7.91582222639">
		<tag k="name" v="Ydtstetjønn" />
		<tag k="natural" v="water" />
		<tag k="ssr:stedsnr" v="758791" />
	</node>
	<node id="-545006" lat="58.4820555593" lon="7.98994167437">
		<tag k="name" v="Surtetjønn" />
		<tag k="natural" v="water" />
		<tag k="ssr:stedsnr" v="758546" />
	</node>
	<node id="-545004" lat="58.37850278" lon="8.09366667205">
		<tag k="name" v="Nesane" />
		<tag k="natural" v="cape" />
		<tag k="ssr:stedsnr" v="758492" />
	</node>
	<node id="-544982" lat="58.3926333298" lon="8.02113054969">
		<tag k="name" v="Grostjønn" />
		<tag k="natural" v="water" />
		<tag k="ssr:stedsnr" v="636952" />
	</node>
	<node id="-544981" lat="58.3993972205" lon="8.00993056172">
		<tag k="name" v="Steindalstjønn" />
		<tag k="natural" v="water" />
		<tag k="ssr:stedsnr" v="636948" />
	</node>
	<node id="-544979" lat="58.4590527798" lon="7.80597778574">
		<tag k="name" v="Kilefjorden" />
		<tag k="natural" v="water" />
		<tag k="ssr:stedsnr" v="636981" />
		<tag k="water" v="lake" />
	</node>
	<node id="-544978" lat="58.4582027738" lon="7.83568332644">
		<tag k="name" v="Paulen" />
		<tag k="natural" v="water" />
		<tag k="ssr:stedsnr" v="636971" />
	</node>
	<node id="-544971" lat="58.4348361148" lon="7.93506943842">
		<tag k="name" v="Sauetjønn" />
		<tag k="natural" v="water" />
		<tag k="ssr:stedsnr" v="636825" />
	</node>
	<node id="-544957" lat="58.4779611098" lon="7.93811666483">
		<tag k="name" v="Fåtjønn" />
		<tag k="natural" v="water" />
		<tag k="ssr:stedsnr" v="636652" />
	</node>
	<node id="-544953" lat="58.4461777755" lon="7.97403888727">
		<tag k="name" v="Kuholmen" />
		<tag k="place" v="islet" />
		<tag k="ssr:stedsnr" v="636590" />
	</node>
	<node id="-544952" lat="58.4342333299" lon="7.96777777779">
		<tag k="name" v="Nedre Pikestøltjønn" />
		<tag k="natural" v="water" />
		<tag k="ssr:stedsnr" v="636587" />
	</node>
	<node id="-544951" lat="58.4641277781" lon="7.9922944483">
		<tag k="name" v="Kråketjønn" />
		<tag k="natural" v="water" />
		<tag k="ssr:stedsnr" v="636583" />
	</node>
	<node id="-544949" lat="58.4237583341" lon="8.08899721598">
		<tag k="name" v="Stjerneøya" />
		<tag k="place" v="islet" />
		<tag k="ssr:stedsnr" v="636422" />
	</node>
	<node id="-544945" lat="58.4117277812" lon="8.01186945272">
		<tag k="name" v="Reinstjønn" />
		<tag k="natural" v="water" />
		<tag k="ssr:stedsnr" v="636532" />
	</node>
	<node id="-544944" lat="58.5018194447" lon="7.98816389287">
		<tag k="name" v="Pottetjønn" />
		<tag k="natural" v="water" />
		<tag k="ssr:stedsnr" v="636494" />
	</node>
	<node id="-544941" lat="58.3790472192" lon="7.9132833314">
		<tag k="name" v="Sjøfossane" />
		<tag k="natural" v="waterfall" />
		<tag k="ssr:stedsnr" v="636139" />
	</node>
	<node id="-544940" lat="58.3706666635" lon="7.93193333059">
		<tag k="name" v="Stetjønn" />
		<tag k="natural" v="water" />
		<tag k="ssr:stedsnr" v="636135" />
	</node>
	<node id="-544936" lat="58.3697111071" lon="7.98165556162">
		<tag k="name" v="Jordestjønn" />
		<tag k="natural" v="water" />
		<tag k="ssr:stedsnr" v="636088" />
	</node>
	<node id="-544928" lat="58.4171416651" lon="7.85553611126">
		<tag k="name" v="Leirbekkilen" />
		<tag k="natural" v="bay" />
		<tag k="old_name" v="Leirbekkkilen" />
		<tag k="ssr:stedsnr" v="636237" />
	</node>
	<node id="-544913" lat="58.4017305584" lon="7.93139999255">
		<tag k="name" v="Lusetjønn" />
		<tag k="natural" v="water" />
		<tag k="ssr:stedsnr" v="636031" />
	</node>
	<node id="-544907" lat="58.402036113" lon="7.90973611174">
		<tag k="alt_name" v="Tveittjønn" />
		<tag k="name" v="Tveittjørn" />
		<tag k="natural" v="water" />
		<tag k="ssr:stedsnr" v="607123" />
	</node>
	<node id="-544906" lat="58.3910638915" lon="8.09780832975">
		<tag k="name" v="Storefjord" />
		<tag k="natural" v="water" />
		<tag k="ssr:stedsnr" v="606299" />
	</node>
	<node id="-544905" lat="58.4296166641" lon="7.97138610414">
		<tag k="alt_name" v="Litjønn;Lietjønn" />
		<tag k="name" v="Litjørn" />
		<tag k="natural" v="water" />
		<tag k="ssr:stedsnr" v="606151" />
	</node>
	<node id="-544903" lat="58.4027749966" lon="8.02482222001">
		<tag k="alt_name" v="Svalandsvatn" />
		<tag k="name" v="Svalandsvatnet" />
		<tag k="natural" v="water" />
		<tag k="ssr:stedsnr" v="606129" />
	</node>
	<node id="-544897" lat="58.3812527749" lon="8.05948056134">
		<tag k="alt_name" v="Landekilvatn" />
		<tag k="name" v="Landekilvatnet" />
		<tag k="natural" v="water" />
		<tag k="ssr:stedsnr" v="606163" />
	</node>
	<node id="-544896" lat="58.3414888875" lon="7.92818611936">
		<tag k="alt_name" v="Heivatn" />
		<tag k="name" v="Heivatnet" />
		<tag k="natural" v="water" />
		<tag k="ssr:stedsnr" v="606072" />
	</node>
	<node id="-544889" lat="58.4631916671" lon="7.94596110948">
		<tag k="name" v="Heietjønn" />
		<tag k="natural" v="water" />
		<tag k="ssr:stedsnr" v="576840" />
	</node>
	<node id="-544876" lat="58.4141222234" lon="7.9485083327">
		<tag k="name" v="Gulldokkastjønn" />
		<tag k="natural" v="water" />
		<tag k="ssr:stedsnr" v="576765" />
	</node>
	<node id="-544874" lat="58.5412805559" lon="7.90715833714">
		<tag k="name" v="Mørketjønn" />
		<tag k="natural" v="water" />
		<tag k="ssr:stedsnr" v="576751" />
	</node>
	<node id="-544855" lat="58.483847219" lon="7.92271388559">
		<tag k="name" v="Langsima" />
		<tag k="ssr:stedsnr" v="576671" />
		<tag k="waterway" v="stream" />
	</node>
	<node id="-544844" lat="58.4124916709" lon="7.99493611338">
		<tag k="name" v="Nesane" />
		<tag k="natural" v="cape" />
		<tag k="ssr:stedsnr" v="576539" />
	</node>
	<node id="-544839" lat="58.3552638878" lon="7.91296666194">
		<tag k="name" v="Breiungen" />
		<tag k="natural" v="water" />
		<tag k="ssr:stedsnr" v="576221" />
		<tag k="water" v="lake" />
	</node>
	<node id="-544833" lat="58.4193055592" lon="7.90298888759">
		<tag k="name" v="Bjørnarbekken" />
		<tag k="ssr:stedsnr" v="576178" />
		<tag k="waterway" v="stream" />
	</node>
	<node id="-544830" lat="58.4470222189" lon="7.81494443617">
		<tag k="name" v="Biskopsund" />
		<tag k="natural" v="strait" />
		<tag k="ssr:stedsnr" v="576163" />
	</node>
	<node id="-544822" lat="58.3850749958" lon="7.98293611587">
		<tag k="name" v="Botreistjønn" />
		<tag k="natural" v="water" />
		<tag k="ssr:stedsnr" v="576098" />
	</node>
	<node id="-544821" lat="58.5250833337" lon="7.88794999937">
		<tag k="alt_name" v="Enkerstjønn" />
		<tag k="name" v="Enkerstjørna" />
		<tag k="natural" v="water" />
		<tag k="ssr:stedsnr" v="547456" />
	</node>
	<node id="-544820" lat="58.5160083367" lon="7.90243333274">
		<tag k="alt_name" v="Frigstadtjønn" />
		<tag k="name" v="Skulehustjørna" />
		<tag k="natural" v="water" />
		<tag k="ssr:stedsnr" v="547442" />
	</node>
	<node id="-544819" lat="58.5128933765" lon="7.88198613746">
		<tag k="alt_name" v="Øksetjønn" />
		<tag k="name" v="Øksetjørna" />
		<tag k="natural" v="water" />
		<tag k="ssr:stedsnr" v="547441" />
	</node>
	<node id="-544818" lat="58.5078750009" lon="7.96981388389">
		<tag k="name" v="Breidåslonen" />
		<tag k="natural" v="water" />
		<tag k="ssr:stedsnr" v="546360" />
	</node>
	<node id="-544813" lat="58.3680166647" lon="7.92538333359">
		<tag k="name" v="Myklandsvatnet" />
		<tag k="natural" v="water" />
		<tag k="ssr:stedsnr" v="546158" />
	</node>
	<node id="-544810" lat="58.4144694429" lon="7.82061388197">
		<tag k="name" v="Øyna" />
		<tag k="place" v="island" />
		<tag k="ssr:stedsnr" v="546143" />
	</node>
	<node id="-544805" lat="58.5176333374" lon="7.93430000567">
		<tag k="alt_name" v="Eftevatnet" />
		<tag k="name" v="Eptevatnet" />
		<tag k="natural" v="water" />
		<tag k="ssr:stedsnr" v="426386" />
		<tag k="water" v="lake" />
	</node>
	<node id="-544802" lat="58.4129055553" lon="8.06897499244">
		<tag k="name" v="Vatnestrømkilen" />
		<tag k="natural" v="bay" />
		<tag k="ssr:stedsnr" v="425184" />
	</node>
	<node id="-544799" lat="58.4227527781" lon="7.83946110729">
		<tag k="alt_name" v="Øynavatn" />
		<tag k="name" v="Øynavatnet" />
		<tag k="natural" v="water" />
		<tag k="ssr:stedsnr" v="425144" />
		<tag k="water" v="lake" />
	</node>
</osm>
