<?xml version="1.0" encoding="UTF-8"?>
<<<<<<< HEAD
<osm version="0.6" generator="osmapis">
	<node lat="58.44891111324846" lon="7.86154443669198" id="-29375">
		<tag k="name" v="Tolleivslåtta" />
		<tag k="natural" v="wetland" />
		<tag k="ssr:stedsnr" v="30008" />
	</node>
	<node lat="58.376688886365926" lon="7.9666000012703355" id="-29376">
		<tag k="name" v="Røymyrane" />
		<tag k="natural" v="wetland" />
		<tag k="ssr:stedsnr" v="30105" />
	</node>
	<node lat="58.41306944562178" lon="7.865188888848341" id="-29381">
		<tag k="name" v="Langemyr" />
		<tag k="natural" v="wetland" />
		<tag k="ssr:stedsnr" v="30209" />
	</node>
	<node lat="58.41369721780394" lon="8.004772219182914" id="-29384">
		<tag k="name" v="Storeslåtta" />
		<tag k="natural" v="wetland" />
		<tag k="ssr:stedsnr" v="30512" />
	</node>
	<node lat="58.42096389213412" lon="8.014586117702498" id="-29385">
		<tag k="name" v="Den vide myra" />
		<tag k="natural" v="wetland" />
		<tag k="ssr:stedsnr" v="30516" />
	</node>
	<node lat="58.458555556353424" lon="7.988713892320841" id="-29388">
		<tag k="name" v="Trømyr" />
		<tag k="natural" v="wetland" />
		<tag k="ssr:stedsnr" v="30535" />
	</node>
	<node lat="58.45964166764919" lon="7.980886117388696" id="-29389">
		<tag k="name" v="Kjerringmyr" />
		<tag k="natural" v="wetland" />
		<tag k="ssr:stedsnr" v="30546" />
	</node>
	<node lat="58.479213885877954" lon="7.937819444632853" id="-29391">
		<tag k="name" v="Heiemyr" />
		<tag k="natural" v="wetland" />
		<tag k="ssr:stedsnr" v="30618" />
	</node>
	<node lat="58.51259999914254" lon="7.926713887322179" id="-29394">
		<tag k="name" v="Kringlemyr" />
		<tag k="natural" v="wetland" />
		<tag k="ssr:stedsnr" v="30627" />
	</node>
	<node lat="58.499694445915175" lon="7.866919446232075" id="-29397">
		<tag k="name" v="Omdalssteer" />
		<tag k="natural" v="wetland" />
		<tag k="ssr:stedsnr" v="30670" />
	</node>
	<node lat="58.549955555377245" lon="7.908933328753947" id="-29402">
		<tag k="name" v="Trettemyr" />
		<tag k="natural" v="wetland" />
		<tag k="ssr:stedsnr" v="30718" />
	</node>
	<node lat="58.54308888634625" lon="7.9213777815860755" id="-29403">
		<tag k="name" v="Elgedalsmyra" />
		<tag k="natural" v="wetland" />
		<tag k="ssr:stedsnr" v="30722" />
	</node>
	<node lat="58.37523611259582" lon="8.012333324942409" id="-29414">
		<tag k="name" v="Knipemyr" />
		<tag k="natural" v="wetland" />
		<tag k="ssr:stedsnr" v="30875" />
	</node>
	<node lat="58.33748889327194" lon="7.962133334439685" id="-29439">
		<tag k="name" v="Torskjærr" />
		<tag k="natural" v="wetland" />
		<tag k="ssr:stedsnr" v="91121" />
	</node>
	<node lat="58.41583055738094" lon="7.816316668215259" id="-29442">
		<tag k="name" v="Ratelimyr" />
		<tag k="natural" v="wetland" />
		<tag k="ssr:stedsnr" v="91180" />
	</node>
	<node lat="58.4397166674443" lon="7.890083325001333" id="-29443">
		<tag k="name" v="Nordjordslåttane" />
		<tag k="natural" v="wetland" />
		<tag k="ssr:stedsnr" v="91012" />
	</node>
	<node lat="58.388163889231876" lon="7.942052769971737" id="-29444">
		<tag k="name" v="Tallakskart" />
		<tag k="natural" v="wetland" />
		<tag k="ssr:stedsnr" v="91017" />
	</node>
	<node lat="58.36722221949072" lon="7.959319451130731" id="-29454">
		<tag k="name" v="Kjellingmyr" />
		<tag k="natural" v="wetland" />
		<tag k="ssr:stedsnr" v="91089" />
	</node>
	<node lat="58.41053611190875" lon="7.859463884764865" id="-29455">
		<tag k="name" v="Nedre Heimyr" />
		<tag k="natural" v="wetland" />
		<tag k="ssr:stedsnr" v="91213" />
	</node>
	<node lat="58.460416668697825" lon="7.969163884367286" id="-29461">
		<tag k="name" v="Nedre Oksemyr" />
		<tag k="natural" v="wetland" />
		<tag k="ssr:stedsnr" v="91566" />
	</node>
	<node lat="58.46533889169445" lon="7.962236116641643" id="-29462">
		<tag k="name" v="Sauestøl" />
		<tag k="place" v="locality" />
		<tag k="ssr:stedsnr" v="91568" />
	</node>
	<node lat="58.3505972253063" lon="7.921402775689617" id="-29463">
		<tag k="name" v="Steane" />
		<tag k="natural" v="wetland" />
		<tag k="ssr:stedsnr" v="91265" />
	</node>
	<node lat="58.460233328994164" lon="8.059572219010372" id="-29465">
		<tag k="name" v="Hesteheimyra" />
		<tag k="natural" v="wetland" />
		<tag k="ssr:stedsnr" v="91414" />
	</node>
	<node lat="58.50444999631236" lon="7.97072777804968" id="-29468">
		<tag k="name" v="Granlimyra" />
		<tag k="natural" v="wetland" />
		<tag k="ssr:stedsnr" v="91614" />
	</node>
	<node lat="58.35630277993178" lon="7.956305553228924" id="-29479">
		<tag k="name" v="Myklandsmyr" />
		<tag k="natural" v="wetland" />
		<tag k="ssr:stedsnr" v="91914" />
	</node>
	<node lat="58.48631944634141" lon="7.868005555012913" id="-29481">
		<tag k="name" v="Djupemyr" />
		<tag k="natural" v="wetland" />
		<tag k="ssr:stedsnr" v="91884" />
	</node>
	<node lat="58.379722221493566" lon="7.986222225550592" id="-29498">
		<tag k="name" v="Kvernemyr" />
		<tag k="natural" v="wetland" />
		<tag k="ssr:stedsnr" v="151109" />
	</node>
	<node lat="58.38114166837506" lon="7.932494451322439" id="-29502">
		<tag k="name" v="Honnemyr" />
		<tag k="natural" v="wetland" />
		<tag k="ssr:stedsnr" v="151169" />
	</node>
	<node lat="58.42028611211917" lon="7.838136109213647" id="-29507">
		<tag k="name" v="Djupemyr" />
		<tag k="natural" v="wetland" />
		<tag k="ssr:stedsnr" v="151220" />
	</node>
	<node lat="58.4214583315301" lon="7.841627776021496" id="-29509">
		<tag k="name" v="Sundsmyr" />
		<tag k="natural" v="wetland" />
		<tag k="ssr:stedsnr" v="151223" />
	</node>
	<node lat="58.35282500012069" lon="7.938438889140594" id="-29510">
		<tag k="name" v="Øygardsmyra" />
		<tag k="natural" v="wetland" />
		<tag k="ssr:stedsnr" v="151264" />
	</node>
	<node lat="58.41347777883157" lon="8.032652784149283" id="-29515">
		<tag k="name" v="Spjotemyr" />
		<tag k="natural" v="wetland" />
		<tag k="ssr:stedsnr" v="151517" />
	</node>
	<node lat="58.43792778153316" lon="7.984291668209487" id="-29516">
		<tag k="name" v="Svolesteinen" />
		<tag k="natural" v="stone" />
		<tag k="ssr:stedsnr" v="151569" />
	</node>
	<node lat="58.48372222047708" lon="7.906147226770148" id="-29524">
		<tag k="name" v="Dalmyrane" />
		<tag k="natural" v="wetland" />
		<tag k="ssr:stedsnr" v="151661" />
	</node>
	<node lat="58.5039666647539" lon="7.855425000736529" id="-29525">
		<tag k="name" v="Andresslåtten" />
		<tag k="natural" v="wetland" />
		<tag k="ssr:stedsnr" v="151664" />
	</node>
	<node lat="58.49636111290449" lon="7.871652781872185" id="-29526">
		<tag k="name" v="Dalemyr" />
		<tag k="natural" v="wetland" />
		<tag k="ssr:stedsnr" v="151673" />
	</node>
	<node lat="58.40407500223562" lon="7.954119443066278" id="-29529">
		<tag k="name" v="Hestekjeksteinen" />
		<tag k="natural" v="stone" />
		<tag k="ssr:stedsnr" v="151911" />
	</node>
	<node lat="58.39921388809162" lon="7.989022223312216" id="-29532">
		<tag k="name" v="Langemyr" />
		<tag k="natural" v="wetland" />
		<tag k="ssr:stedsnr" v="151919" />
	</node>
	<node lat="58.46329722351697" lon="7.849100001642425" id="-29534">
		<tag k="name" v="Dyblemyr" />
		<tag k="natural" v="wetland" />
		<tag k="ssr:stedsnr" v="151857" />
	</node>
	<node lat="58.55592499625524" lon="7.921416661213604" id="-29544">
		<tag k="alt_name" v="Orreleiksmyr" />
		<tag k="name" v="Orreleikmyra" />
		<tag k="natural" v="wetland" />
		<tag k="ssr:stedsnr" v="183615" />
	</node>
	<node lat="58.44078611259297" lon="7.846838892936371" id="-29545">
		<tag k="name" v="Nedre Bukkekjerr" />
		<tag k="natural" v="wetland" />
		<tag k="ssr:stedsnr" v="212003" />
	</node>
	<node lat="58.386755555607614" lon="7.9528833352617765" id="-29550">
		<tag k="name" v="Roliholskarten" />
		<tag k="natural" v="wetland" />
		<tag k="ssr:stedsnr" v="212105" />
	</node>
	<node lat="58.41582500425148" lon="7.810877782443207" id="-29554">
		<tag k="name" v="Bjørnskjeggmyr" />
		<tag k="natural" v="wetland" />
		<tag k="ssr:stedsnr" v="212187" />
	</node>
	<node lat="58.471411108222554" lon="7.960874993492978" id="-29559">
		<tag k="name" v="Ulsgrennsmyrane" />
		<tag k="natural" v="wetland" />
		<tag k="ssr:stedsnr" v="212504" />
	</node>
	<node lat="58.465111110042784" lon="8.050705550101762" id="-29563">
=======
<osm generator="osmapis" version="0.6">
	<node id="-544768" lat="58.4630972207" lon="7.84445277244">
		<tag k="name" v="Finnvollane" />
		<tag k="place" v="locality" />
		<tag k="ssr:stedsnr" v="394872" />
	</node>
	<node id="-544764" lat="58.4607250007" lon="7.89497223037">
		<tag k="name" v="Langemyr" />
		<tag k="natural" v="wetland" />
		<tag k="ssr:stedsnr" v="394842" />
	</node>
	<node id="-544760" lat="58.4404083314" lon="7.9383194432">
		<tag k="name" v="Gråbeinane" />
		<tag k="natural" v="wetland" />
		<tag k="ssr:stedsnr" v="394795" />
	</node>
	<node id="-544759" lat="58.414708334" lon="7.89482500666">
		<tag k="name" v="Grøstemyr" />
		<tag k="natural" v="wetland" />
		<tag k="ssr:stedsnr" v="394778" />
	</node>
	<node id="-544757" lat="58.4848305594" lon="7.82379166375">
		<tag k="name" v="Småsteane" />
		<tag k="natural" v="wetland" />
		<tag k="ssr:stedsnr" v="394766" />
	</node>
	<node id="-544756" lat="58.521647226" lon="7.90258888517">
		<tag k="name" v="Haugemyrane" />
		<tag k="natural" v="wetland" />
		<tag k="ssr:stedsnr" v="394752" />
	</node>
	<node id="-544753" lat="58.5436500014" lon="7.91451388915">
		<tag k="name" v="Bjørnskjeggmyra" />
		<tag k="natural" v="wetland" />
		<tag k="ssr:stedsnr" v="394716" />
	</node>
	<node id="-544752" lat="58.5425194472" lon="7.9262583281">
		<tag k="name" v="Lubbekjerr" />
		<tag k="natural" v="wetland" />
		<tag k="ssr:stedsnr" v="394713" />
	</node>
	<node id="-544738" lat="58.4879138897" lon="7.98746944741">
		<tag k="name" v="Steane" />
		<tag k="natural" v="wetland" />
		<tag k="ssr:stedsnr" v="394487" />
	</node>
	<node id="-544731" lat="58.4412250019" lon="8.05969166806">
		<tag k="name" v="Børusbakkeslåtta" />
		<tag k="natural" v="wetland" />
		<tag k="ssr:stedsnr" v="394450" />
	</node>
	<node id="-544726" lat="58.4614277743" lon="7.97112777714">
		<tag k="name" v="Øvre Oksemyr" />
		<tag k="natural" v="wetland" />
		<tag k="ssr:stedsnr" v="394553" />
	</node>
	<node id="-544725" lat="58.4674083315" lon="8.00483888752">
		<tag k="name" v="Meinskjerr" />
		<tag k="natural" v="wetland" />
		<tag k="ssr:stedsnr" v="394541" />
	</node>
	<node id="-544724" lat="58.42991111" lon="8.00805555658">
		<tag k="name" v="Linhommyra" />
		<tag k="natural" v="wetland" />
		<tag k="ssr:stedsnr" v="394531" />
	</node>
	<node id="-544721" lat="58.3526388851" lon="7.92891944189">
		<tag k="name" v="Kleivemyr" />
		<tag k="natural" v="wetland" />
		<tag k="ssr:stedsnr" v="394235" />
	</node>
	<node id="-544720" lat="58.4231111068" lon="7.86766111326">
		<tag k="name" v="Båsmyr" />
		<tag k="natural" v="wetland" />
		<tag k="ssr:stedsnr" v="394225" />
	</node>
	<node id="-544719" lat="58.4206750037" lon="7.89534167346">
		<tag k="name" v="Rossåsmyra" />
		<tag k="natural" v="wetland" />
		<tag k="ssr:stedsnr" v="394179" />
	</node>
	<node id="-544717" lat="58.3742777762" lon="7.93640555007">
		<tag k="name" v="Engekjerret" />
		<tag k="natural" v="wetland" />
		<tag k="ssr:stedsnr" v="394144" />
	</node>
	<node id="-544715" lat="58.3829416701" lon="7.91762778495">
		<tag k="name" v="Sjølskotkjerret" />
		<tag k="natural" v="wetland" />
		<tag k="ssr:stedsnr" v="394137" />
	</node>
	<node id="-544712" lat="58.4087027744" lon="7.88881110715">
		<tag k="name" v="Djupemyr" />
		<tag k="natural" v="wetland" />
		<tag k="ssr:stedsnr" v="394042" />
	</node>
	<node id="-544711" lat="58.3971944459" lon="7.93430555147">
		<tag k="name" v="Steane" />
		<tag k="natural" v="wetland" />
		<tag k="ssr:stedsnr" v="394035" />
	</node>
	<node id="-544706" lat="58.4424361153" lon="7.88867499203">
		<tag k="name" v="Myrane" />
		<tag k="natural" v="wetland" />
		<tag k="ssr:stedsnr" v="394013" />
	</node>
	<node id="-544705" lat="58.4330388858" lon="7.86596666577">
		<tag k="name" v="Storeslåttkilen" />
		<tag k="natural" v="wetland" />
		<tag k="ssr:stedsnr" v="394007" />
	</node>
	<node id="-544700" lat="58.5312250027" lon="7.87823888802">
		<tag k="alt_name" v="Storflesen" />
		<tag k="name" v="Vidflesen" />
		<tag k="natural" v="wetland" />
		<tag k="ssr:stedsnr" v="364680" />
	</node>
	<node id="-544677" lat="58.4898027745" lon="7.82364443892">
		<tag k="name" v="Steane" />
		<tag k="natural" v="wetland" />
		<tag k="ssr:stedsnr" v="333984" />
	</node>
	<node id="-544676" lat="58.4965361071" lon="7.81052222032">
		<tag k="name" v="Kvernhusmyra" />
		<tag k="natural" v="wetland" />
		<tag k="ssr:stedsnr" v="333981" />
	</node>
	<node id="-544673" lat="58.4655944485" lon="7.82094165808">
		<tag k="name" v="Storemyr" />
		<tag k="natural" v="wetland" />
		<tag k="ssr:stedsnr" v="333968" />
	</node>
	<node id="-544672" lat="58.3931222179" lon="8.05254722881">
		<tag k="name" v="Øygardsmyra" />
		<tag k="natural" v="wetland" />
		<tag k="ssr:stedsnr" v="333959" />
	</node>
	<node id="-544664" lat="58.4935388901" lon="7.90202500812">
		<tag k="name" v="Jenufsmyr" />
		<tag k="natural" v="wetland" />
		<tag k="ssr:stedsnr" v="333871" />
	</node>
	<node id="-544661" lat="58.5364916685" lon="7.91275833947">
		<tag k="name" v="Ossingkarten" />
		<tag k="natural" v="wetland" />
		<tag k="ssr:stedsnr" v="333685" />
	</node>
	<node id="-544658" lat="58.4961027756" lon="7.85016944419">
		<tag k="name" v="Toskebør" />
		<tag k="natural" v="wetland" />
		<tag k="ssr:stedsnr" v="333658" />
	</node>
	<node id="-544654" lat="58.4565722251" lon="8.00710832505">
		<tag k="name" v="Kroksteinmyrane" />
		<tag k="natural" v="wetland" />
		<tag k="ssr:stedsnr" v="333588" />
	</node>
	<node id="-544652" lat="58.4542388912" lon="8.04496667508">
		<tag k="name" v="Spøtemyr" />
		<tag k="natural" v="wetland" />
		<tag k="ssr:stedsnr" v="333578" />
	</node>
	<node id="-544648" lat="58.5021444402" lon="7.84862500511">
		<tag k="name" v="Slybekk" />
		<tag k="natural" v="wetland" />
		<tag k="ssr:stedsnr" v="333648" />
	</node>
	<node id="-544647" lat="58.4944361075" lon="7.91488055491">
		<tag k="name" v="Storemyr" />
		<tag k="natural" v="wetland" />
		<tag k="ssr:stedsnr" v="333639" />
	</node>
	<node id="-544644" lat="58.4968722259" lon="7.97417500283">
		<tag k="name" v="Snømyr" />
		<tag k="natural" v="wetland" />
		<tag k="ssr:stedsnr" v="333498" />
	</node>
	<node id="-544637" lat="58.428380557" lon="8.07707222491">
		<tag k="name" v="Lomstjønnmyrane" />
		<tag k="natural" v="wetland" />
		<tag k="ssr:stedsnr" v="333458" />
	</node>
	<node id="-544633" lat="58.4279416689" lon="7.83349722809">
		<tag k="name" v="Grosåsmyr" />
		<tag k="natural" v="wetland" />
		<tag k="ssr:stedsnr" v="333377" />
	</node>
	<node id="-544632" lat="58.4191972217" lon="7.81521110424">
		<tag k="name" v="Meheimyr" />
		<tag k="natural" v="wetland" />
		<tag k="ssr:stedsnr" v="333372" />
	</node>
	<node id="-544628" lat="58.3505444454" lon="7.92998054787">
		<tag k="name" v="Kartemyr" />
		<tag k="natural" v="wetland" />
		<tag k="ssr:stedsnr" v="333293" />
	</node>
	<node id="-544626" lat="58.3576916695" lon="7.94319999679">
		<tag k="name" v="Kvernhusmyrane" />
		<tag k="natural" v="wetland" />
		<tag k="ssr:stedsnr" v="333287" />
	</node>
	<node id="-544623" lat="58.4254805591" lon="7.84649722641">
		<tag k="name" v="Torkelsmyr" />
		<tag k="natural" v="wetland" />
		<tag k="ssr:stedsnr" v="333264" />
	</node>
	<node id="-544622" lat="58.414908333" lon="7.89128610908">
		<tag k="name" v="Englandmyr" />
		<tag k="natural" v="wetland" />
		<tag k="ssr:stedsnr" v="333254" />
	</node>
	<node id="-544599" lat="58.4836083336" lon="7.87578888536">
		<tag k="name" v="Storemyr" />
		<tag k="natural" v="wetland" />
		<tag k="ssr:stedsnr" v="212864" />
	</node>
	<node id="-544598" lat="58.4718333366" lon="7.86745833183">
		<tag k="name" v="Ratemyr" />
		<tag k="natural" v="wetland" />
		<tag k="ssr:stedsnr" v="212857" />
	</node>
	<node id="-544596" lat="58.4721055575" lon="7.8424666635">
		<tag k="name" v="Hasseldalsmyra" />
		<tag k="natural" v="wetland" />
		<tag k="ssr:stedsnr" v="212852" />
	</node>
	<node id="-544595" lat="58.4836972217" lon="7.79600000772">
		<tag k="name" v="Gjestemyrane" />
		<tag k="natural" v="wetland" />
		<tag k="ssr:stedsnr" v="212999" />
	</node>
	<node id="-544594" lat="58.4699500019" lon="7.80435000302">
		<tag k="name" v="Kvernhusmyra" />
		<tag k="place" v="locality" />
		<tag k="ssr:stedsnr" v="212984" />
	</node>
	<node id="-544590" lat="58.3989222254" lon="8.01730278158">
		<tag k="name" v="Arendalsmyra" />
		<tag k="natural" v="wetland" />
		<tag k="ssr:stedsnr" v="212957" />
	</node>
	<node id="-544589" lat="58.4507055516" lon="7.93855277014">
		<tag k="name" v="Snømyr" />
		<tag k="natural" v="wetland" />
		<tag k="ssr:stedsnr" v="212801" />
	</node>
	<node id="-544585" lat="58.4976694433" lon="7.91993055099">
		<tag k="name" v="Orremyra" />
		<tag k="natural" v="wetland" />
		<tag k="ssr:stedsnr" v="212684" />
	</node>
	<node id="-544581" lat="58.4983722187" lon="7.85310278485">
		<tag k="name" v="Midtslåtten" />
		<tag k="natural" v="wetland" />
		<tag k="ssr:stedsnr" v="212663" />
	</node>
	<node id="-544580" lat="58.5093194412" lon="7.8794611117">
		<tag k="name" v="Kverlemyr" />
		<tag k="natural" v="wetland" />
		<tag k="ssr:stedsnr" v="212659" />
	</node>
	<node id="-544578" lat="58.4798444408" lon="7.81552221612">
		<tag k="name" v="Langeveimyra" />
		<tag k="natural" v="wetland" />
		<tag k="ssr:stedsnr" v="212775" />
	</node>
	<node id="-544574" lat="58.4317222212" lon="8.00810277949">
		<tag k="name" v="Linhommen" />
		<tag k="place" v="locality" />
		<tag k="ssr:stedsnr" v="212601" />
	</node>
	<node id="-544571" lat="58.458952776" lon="8.00219166146">
		<tag k="name" v="Grønemyr" />
		<tag k="natural" v="wetland" />
		<tag k="ssr:stedsnr" v="212585" />
	</node>
	<node id="-544569" lat="58.4567388854" lon="7.97798056398">
		<tag k="name" v="Øvre Langemyr" />
		<tag k="natural" v="wetland" />
		<tag k="ssr:stedsnr" v="212554" />
	</node>
	<node id="-544565" lat="58.46511111" lon="8.0507055501">
>>>>>>> e1d4bc35ff8a6074a6f2e91616a996b547c36f15
		<tag k="name" v="Bujordet" />
		<tag k="natural" v="wetland" />
		<tag k="ssr:stedsnr" v="212532" />
	</node>
<<<<<<< HEAD
	<node lat="58.458952775972996" lon="8.002191661456061" id="-29564">
		<tag k="name" v="Grønemyr" />
		<tag k="natural" v="wetland" />
		<tag k="ssr:stedsnr" v="212585" />
	</node>
	<node lat="58.53576389089663" lon="7.89959999756122" id="-29568">
		<tag k="name" v="Heimrehei" />
		<tag k="natural" v="wetland" />
		<tag k="ssr:stedsnr" v="212705" />
	</node>
	<node lat="58.54322499981923" lon="7.906852776083214" id="-29569">
		<tag k="name" v="Stakkslåttane" />
		<tag k="natural" v="wetland" />
		<tag k="ssr:stedsnr" v="212731" />
	</node>
	<node lat="58.42119721851422" lon="7.965999995081644" id="-29571">
		<tag k="name" v="Vollane" />
		<tag k="place" v="locality" />
		<tag k="ssr:stedsnr" v="212735" />
	</node>
	<node lat="58.47526944245356" lon="7.969405556306751" id="-29573">
		<tag k="name" v="Pipeslåtta" />
		<tag k="natural" v="wetland" />
		<tag k="ssr:stedsnr" v="212486" />
	</node>
	<node lat="58.48067778066369" lon="7.892888881989925" id="-29577">
		<tag k="name" v="Hestmyr" />
		<tag k="natural" v="wetland" />
		<tag k="ssr:stedsnr" v="212628" />
	</node>
	<node lat="58.477308331099195" lon="7.893113894235948" id="-29578">
		<tag k="name" v="Steane" />
		<tag k="natural" v="wetland" />
		<tag k="ssr:stedsnr" v="212629" />
	</node>
	<node lat="58.48518889171949" lon="7.898847223522892" id="-29579">
		<tag k="name" v="Øygardsmyra" />
		<tag k="natural" v="wetland" />
		<tag k="ssr:stedsnr" v="212631" />
	</node>
	<node lat="58.49766944330507" lon="7.919930550990049" id="-29583">
		<tag k="name" v="Orremyra" />
		<tag k="natural" v="wetland" />
		<tag k="ssr:stedsnr" v="212684" />
	</node>
	<node lat="58.47984444075816" lon="7.815522216116562" id="-29585">
		<tag k="name" v="Langeveimyra" />
		<tag k="natural" v="wetland" />
		<tag k="ssr:stedsnr" v="212775" />
	</node>
	<node lat="58.407952776100736" lon="7.988619447131121" id="-29586">
		<tag k="name" v="Noslebukarten" />
		<tag k="natural" v="wetland" />
		<tag k="ssr:stedsnr" v="212931" />
	</node>
	<node lat="58.4699500018643" lon="7.804350003018222" id="-29588">
		<tag k="name" v="Kvernhusmyra" />
		<tag k="place" v="locality" />
		<tag k="ssr:stedsnr" v="212984" />
	</node>
	<node lat="58.39361666812882" lon="7.893077779633609" id="-29598">
		<tag k="name" v="Moltekjerret" />
		<tag k="natural" v="wetland" />
		<tag k="ssr:stedsnr" v="455025" />
	</node>
	<node lat="58.387524996997634" lon="7.962108333922953" id="-29608">
		<tag k="name" v="Storekjerr" />
		<tag k="natural" v="wetland" />
		<tag k="ssr:stedsnr" v="455110" />
	</node>
	<node lat="58.43470833534631" lon="7.878366670582814" id="-29609">
		<tag k="name" v="Øygardsmyrane" />
		<tag k="natural" v="wetland" />
		<tag k="ssr:stedsnr" v="455121" />
	</node>
	<node lat="58.37255555127194" lon="7.925452771014632" id="-29611">
		<tag k="name" v="Gamle Urdalsmyr" />
		<tag k="natural" v="wetland" />
		<tag k="ssr:stedsnr" v="455126" />
	</node>
	<node lat="58.386780555189134" lon="7.933602777244569" id="-29614">
		<tag k="name" v="Røyrmyr" />
		<tag k="natural" v="wetland" />
		<tag k="ssr:stedsnr" v="455150" />
	</node>
	<node lat="58.337799997864714" lon="7.92670556263866" id="-29615">
		<tag k="name" v="Steinhusmyrene" />
		<tag k="natural" v="wetland" />
		<tag k="ssr:stedsnr" v="455157" />
	</node>
	<node lat="58.465725002421706" lon="7.958108339596601" id="-29622">
		<tag k="name" v="Revekjerr" />
		<tag k="natural" v="wetland" />
		<tag k="ssr:stedsnr" v="455536" />
	</node>
	<node lat="58.49677500248784" lon="7.959769437522727" id="-29626">
		<tag k="name" v="Tørkoppmyra" />
		<tag k="natural" v="wetland" />
		<tag k="ssr:stedsnr" v="455586" />
	</node>
	<node lat="58.51161389004945" lon="7.9400499993343825" id="-29628">
		<tag k="name" v="Farmyrane" />
		<tag k="natural" v="wetland" />
		<tag k="ssr:stedsnr" v="455661" />
	</node>
	<node lat="58.469525001615345" lon="7.949708329149795" id="-29635">
		<tag k="name" v="Storekart" />
		<tag k="natural" v="wetland" />
		<tag k="ssr:stedsnr" v="455497" />
	</node>
	<node lat="58.411080555221034" lon="8.02878888274699" id="-29636">
		<tag k="name" v="Videmyr" />
		<tag k="natural" v="wetland" />
		<tag k="ssr:stedsnr" v="455501" />
	</node>
	<node lat="58.50119166432292" lon="7.854502783163558" id="-29638">
		<tag k="name" v="Storemyr" />
		<tag k="natural" v="wetland" />
		<tag k="ssr:stedsnr" v="455636" />
	</node>
	<node lat="58.501875003388115" lon="7.858155555139407" id="-29639">
		<tag k="name" v="Beinmyr" />
		<tag k="natural" v="wetland" />
		<tag k="ssr:stedsnr" v="455640" />
	</node>
	<node lat="58.49851111474209" lon="7.8786777762791935" id="-29640">
		<tag k="name" v="Stemmyr" />
		<tag k="natural" v="wetland" />
		<tag k="ssr:stedsnr" v="455645" />
	</node>
	<node lat="58.51125555509956" lon="7.876041669975723" id="-29642">
		<tag k="name" v="Lomstjønnmyrane" />
		<tag k="natural" v="wetland" />
		<tag k="ssr:stedsnr" v="455668" />
	</node>
	<node lat="58.53603055156814" lon="7.915580551168357" id="-29644">
		<tag k="name" v="Porsmyr" />
		<tag k="natural" v="wetland" />
		<tag k="ssr:stedsnr" v="455680" />
	</node>
	<node lat="58.54840555875305" lon="7.926225001207341" id="-29647">
		<tag k="name" v="Skorefjellmyr" />
		<tag k="natural" v="wetland" />
		<tag k="ssr:stedsnr" v="455695" />
	</node>
	<node lat="58.51873333077582" lon="7.917327775973113" id="-29649">
		<tag k="loc_name" v="Stolpemyr" />
		<tag k="name" v="Stoblemyr" />
		<tag k="natural" v="wetland" />
		<tag k="ssr:stedsnr" v="455730" />
	</node>
	<node lat="58.42559444287547" lon="7.909691669674117" id="-29652">
		<tag k="name" v="Drivåsrøysa" />
		<tag k="natural" v="stone" />
		<tag k="ssr:stedsnr" v="455751" />
	</node>
	<node lat="58.476599998232444" lon="7.833272224353177" id="-29653">
		<tag k="name" v="Varekjerrane" />
		<tag k="natural" v="wetland" />
		<tag k="ssr:stedsnr" v="455757" />
	</node>
	<node lat="58.41915555300609" lon="7.931563886429368" id="-29655">
		<tag k="name" v="Trodalsmyra" />
		<tag k="natural" v="wetland" />
		<tag k="ssr:stedsnr" v="455769" />
	</node>
	<node lat="58.41704444314406" lon="7.942927771229027" id="-29657">
		<tag k="name" v="Tretteslåttane" />
		<tag k="natural" v="wetland" />
		<tag k="ssr:stedsnr" v="455776" />
	</node>
	<node lat="58.35838333619649" lon="7.956052780929871" id="-29661">
		<tag k="name" v="Den store myra" />
		<tag k="natural" v="wetland" />
		<tag k="ssr:stedsnr" v="455889" />
	</node>
	<node lat="58.49361944896444" lon="7.847188896607628" id="-29668">
		<tag k="name" v="Svartemyr" />
		<tag k="natural" v="wetland" />
		<tag k="ssr:stedsnr" v="455854" />
	</node>
	<node lat="58.38811110728374" lon="7.914677782113137" id="-29672">
		<tag k="name" v="Krossmyr" />
		<tag k="natural" v="wetland" />
		<tag k="ssr:stedsnr" v="273022" />
	</node>
	<node lat="58.383883336064" lon="8.039594444934709" id="-29675">
		<tag k="name" v="Storemyr" />
		<tag k="place" v="locality" />
		<tag k="ssr:stedsnr" v="273092" />
	</node>
	<node lat="58.49309721872173" lon="7.991491668761472" id="-29684">
		<tag k="name" v="Jernlimyr" />
		<tag k="natural" v="wetland" />
		<tag k="ssr:stedsnr" v="273475" />
	</node>
	<node lat="58.458161114522206" lon="8.06684444582753" id="-29689">
		<tag k="name" v="Steemyr" />
		<tag k="natural" v="wetland" />
		<tag k="ssr:stedsnr" v="273381" />
	</node>
	<node lat="58.491099997967815" lon="7.915844442910259" id="-29698">
		<tag k="name" v="Grennemyr" />
		<tag k="natural" v="wetland" />
		<tag k="ssr:stedsnr" v="273673" />
	</node>
	<node lat="58.49402222580294" lon="7.91911110528721" id="-29699">
		<tag k="name" v="Oksefarmyra" />
		<tag k="natural" v="wetland" />
		<tag k="ssr:stedsnr" v="273674" />
	</node>
	<node lat="58.48161110993878" lon="7.911461112333928" id="-29700">
		<tag k="name" v="Ljoslandsmyra" />
		<tag k="natural" v="wetland" />
		<tag k="ssr:stedsnr" v="273679" />
	</node>
	<node lat="58.4995361070665" lon="7.841147213971159" id="-29701">
		<tag k="name" v="Djupemyr" />
		<tag k="natural" v="wetland" />
		<tag k="ssr:stedsnr" v="273685" />
	</node>
	<node lat="58.432969447123284" lon="7.935500004052515" id="-29708">
		<tag k="name" v="Fænmyr" />
		<tag k="natural" v="wetland" />
		<tag k="ssr:stedsnr" v="273827" />
	</node>
	<node lat="58.52941666441318" lon="7.887536115038251" id="-29710">
		<tag k="name" v="Kjørka" />
		<tag k="natural" v="wetland" />
		<tag k="ssr:stedsnr" v="273723" />
	</node>
	<node lat="58.355816666032965" lon="7.981088896467434" id="-29714">
		<tag k="name" v="Gråtemyr" />
		<tag k="natural" v="wetland" />
		<tag k="ssr:stedsnr" v="273910" />
	</node>
	<node lat="58.35294444307397" lon="7.967416672244798" id="-29716">
		<tag k="name" v="Kinnemyra" />
		<tag k="natural" v="wetland" />
		<tag k="ssr:stedsnr" v="273922" />
	</node>
	<node lat="58.392288891467174" lon="8.031769445458679" id="-29717">
		<tag k="name" v="Gaularmyr" />
		<tag k="natural" v="wetland" />
		<tag k="ssr:stedsnr" v="273972" />
	</node>
	<node lat="58.510552778091046" lon="7.940486103666724" id="-29722">
		<tag k="name" v="Eptevassmyrane" />
		<tag k="natural" v="wetland" />
		<tag k="ssr:stedsnr" v="304411" />
	</node>
	<node lat="58.3357944406439" lon="7.937850008311061" id="-29726">
		<tag k="name" v="Storslåtta" />
		<tag k="natural" v="wetland" />
		<tag k="ssr:stedsnr" v="333203" />
	</node>
	<node lat="58.37311111533767" lon="7.998191672779488" id="-29729">
		<tag k="name" v="Haugemyr" />
		<tag k="natural" v="wetland" />
		<tag k="ssr:stedsnr" v="333104" />
	</node>
	<node lat="58.47051666885651" lon="7.951913891174907" id="-29738">
		<tag k="name" v="Lillekart" />
		<tag k="natural" v="wetland" />
		<tag k="ssr:stedsnr" v="333521" />
	</node>
	<node lat="58.414908332973006" lon="7.891286109080257" id="-29743">
		<tag k="name" v="Englandmyr" />
		<tag k="natural" v="wetland" />
		<tag k="ssr:stedsnr" v="333254" />
	</node>
	<node lat="58.428380557009945" lon="8.077072224908763" id="-29746">
		<tag k="name" v="Lomstjønnmyrane" />
		<tag k="natural" v="wetland" />
		<tag k="ssr:stedsnr" v="333458" />
	</node>
	<node lat="58.496872225949225" lon="7.974175002830927" id="-29750">
		<tag k="name" v="Snømyr" />
		<tag k="natural" v="wetland" />
		<tag k="ssr:stedsnr" v="333498" />
	</node>
	<node lat="58.439141663754555" lon="8.044027776278325" id="-29751">
		<tag k="name" v="Kartmyrane" />
		<tag k="natural" v="wetland" />
		<tag k="ssr:stedsnr" v="333603" />
	</node>
	<node lat="58.42483055490568" lon="7.992111115308243" id="-29753">
		<tag k="name" v="Kleiveslåtta" />
		<tag k="natural" v="wetland" />
		<tag k="ssr:stedsnr" v="333706" />
	</node>
	<node lat="58.35362500241168" lon="7.9573166706920135" id="-29760">
		<tag k="name" v="Halvorsmyr" />
		<tag k="natural" v="wetland" />
		<tag k="ssr:stedsnr" v="333903" />
	</node>
	<node lat="58.502144440245715" lon="7.848625005110258" id="-29764">
		<tag k="name" v="Slybekk" />
		<tag k="natural" v="wetland" />
		<tag k="ssr:stedsnr" v="333648" />
	</node>
	<node lat="58.49610277564291" lon="7.850169444190391" id="-29765">
		<tag k="name" v="Toskebør" />
		<tag k="natural" v="wetland" />
		<tag k="ssr:stedsnr" v="333658" />
	</node>
	<node lat="58.437136109449085" lon="7.9094222232532925" id="-29766">
		<tag k="name" v="Mikkelsmyr" />
		<tag k="natural" v="wetland" />
		<tag k="ssr:stedsnr" v="333810" />
	</node>
	<node lat="58.43303888575815" lon="7.865966665765524" id="-29789">
		<tag k="name" v="Storeslåttkilen" />
		<tag k="natural" v="wetland" />
		<tag k="ssr:stedsnr" v="394007" />
	</node>
	<node lat="58.442436115306535" lon="7.888674992026842" id="-29790">
		<tag k="name" v="Myrane" />
		<tag k="natural" v="wetland" />
		<tag k="ssr:stedsnr" v="394013" />
	</node>
	<node lat="58.39719444594378" lon="7.934305551469033" id="-29794">
		<tag k="name" v="Steane" />
		<tag k="natural" v="wetland" />
		<tag k="ssr:stedsnr" v="394035" />
	</node>
	<node lat="58.42311110683972" lon="7.867661113263035" id="-29797">
		<tag k="name" v="Båsmyr" />
		<tag k="natural" v="wetland" />
		<tag k="ssr:stedsnr" v="394225" />
	</node>
	<node lat="58.35263888508639" lon="7.9289194418854745" id="-29798">
		<tag k="name" v="Kleivemyr" />
		<tag k="natural" v="wetland" />
		<tag k="ssr:stedsnr" v="394235" />
	</node>
	<node lat="58.4796638882128" lon="7.993802776981578" id="-29800">
		<tag k="name" v="Kartmyr" />
		<tag k="natural" v="wetland" />
		<tag k="ssr:stedsnr" v="394502" />
	</node>
	<node lat="58.42613889148472" lon="8.01344722885244" id="-29802">
		<tag k="name" v="Kleivslåtta" />
		<tag k="natural" v="wetland" />
		<tag k="ssr:stedsnr" v="394529" />
	</node>
	<node lat="58.42991111001929" lon="8.008055556582512" id="-29803">
		<tag k="name" v="Linhommyra" />
		<tag k="natural" v="wetland" />
		<tag k="ssr:stedsnr" v="394531" />
	</node>
	<node lat="58.48791388970234" lon="7.987469447409126" id="-29810">
		<tag k="name" v="Steane" />
		<tag k="natural" v="wetland" />
		<tag k="ssr:stedsnr" v="394487" />
	</node>
	<node lat="58.447280551925886" lon="7.903163884821229" id="-29818">
		<tag k="name" v="Tjørgråmyra" />
		<tag k="natural" v="wetland" />
		<tag k="ssr:stedsnr" v="394807" />
	</node>
	<node lat="58.44040833138211" lon="7.938319443204542" id="-29819">
		<tag k="name" v="Gråbeinane" />
		<tag k="natural" v="wetland" />
		<tag k="ssr:stedsnr" v="394795" />
	</node>
	<node lat="58.3545666681435" lon="7.9884583351414244" id="-29820">
		<tag k="name" v="Knutslåtta" />
		<tag k="natural" v="wetland" />
		<tag k="ssr:stedsnr" v="394906" />
	</node>
	<node lat="58.49419444392528" lon="7.802233325487689" id="-29828">
		<tag k="name" v="Geitmonmyrane" />
		<tag k="natural" v="wetland" />
		<tag k="ssr:stedsnr" v="394995" />
	</node>
	<node lat="58.485355552779275" lon="7.863363881095033" id="-29829">
		<tag k="name" v="Andresslåtten" />
		<tag k="natural" v="wetland" />
		<tag k="ssr:stedsnr" v="394892" />
	</node>
	<node lat="58.479636110277134" lon="7.865997217042718" id="-29830">
		<tag k="name" v="Einermyrane" />
		<tag k="natural" v="wetland" />
		<tag k="ssr:stedsnr" v="394893" />
	</node>
	<node lat="58.36844722570228" lon="8.008283329070407" id="-29831">
		<tag k="name" v="Almedalsmyra" />
		<tag k="natural" v="wetland" />
		<tag k="ssr:stedsnr" v="394895" />
	</node>
	<node lat="58.35948055879186" lon="7.984497230237293" id="-29832">
		<tag k="name" v="Storemyr" />
		<tag k="natural" v="wetland" />
		<tag k="ssr:stedsnr" v="394900" />
	</node>
	<node lat="58.427055559878625" lon="7.866997213665834" id="-29850">
		<tag k="name" v="Storeslåtta" />
		<tag k="natural" v="wetland" />
		<tag k="ssr:stedsnr" v="455211" />
	</node>
	<node lat="58.38363888840255" lon="7.97558055358309" id="-29851">
		<tag k="name" v="Vardeslåtta" />
		<tag k="natural" v="wetland" />
		<tag k="ssr:stedsnr" v="455103" />
	</node>
	<node lat="58.34031388785305" lon="7.938213894654" id="-29853">
		<tag k="name" v="Tjønneslåttane" />
		<tag k="natural" v="wetland" />
		<tag k="ssr:stedsnr" v="455163" />
	</node>
	<node lat="58.417383334085855" lon="7.808527774589941" id="-29854">
		<tag k="name" v="Bjordalsmyr" />
		<tag k="natural" v="wetland" />
		<tag k="ssr:stedsnr" v="455313" />
	</node>
	<node lat="58.47608610897819" lon="8.012299999080678" id="-29860">
		<tag k="name" v="Steane" />
		<tag k="natural" v="wetland" />
		<tag k="ssr:stedsnr" v="455425" />
	</node>
	<node lat="58.481299998638406" lon="8.030822215405706" id="-29861">
		<tag k="name" v="Djupemyr" />
		<tag k="natural" v="wetland" />
		<tag k="ssr:stedsnr" v="455426" />
	</node>
	<node lat="58.49078055386719" lon="7.9936916643823235" id="-29862">
		<tag k="name" v="Rausheimyra" />
		<tag k="natural" v="wetland" />
		<tag k="ssr:stedsnr" v="455464" />
	</node>
	<node lat="58.486016662244076" lon="7.963275000900809" id="-29863">
		<tag k="name" v="Skogmyrane" />
		<tag k="natural" v="wetland" />
		<tag k="ssr:stedsnr" v="455481" />
	</node>
	<node lat="58.42438055446533" lon="8.016724998101383" id="-29865">
		<tag k="name" v="Heimre Kleivslåtta" />
		<tag k="natural" v="wetland" />
		<tag k="ssr:stedsnr" v="455514" />
	</node>
	<node lat="58.430527778466384" lon="8.044063890835774" id="-29866">
		<tag k="name" v="Store Løypedalsmyra" />
		<tag k="natural" v="wetland" />
		<tag k="ssr:stedsnr" v="455515" />
	</node>
	<node lat="58.45679166416479" lon="8.043622227981752" id="-29868">
		<tag k="name" v="Rundemyr" />
		<tag k="natural" v="wetland" />
		<tag k="ssr:stedsnr" v="455574" />
	</node>
	<node lat="58.48173055238091" lon="7.883200006100237" id="-29872">
		<tag k="name" v="Birkehommane" />
		<tag k="place" v="locality" />
		<tag k="ssr:stedsnr" v="455868" />
	</node>
	<node lat="58.36631111046853" lon="8.006833341183736" id="-29876">
		<tag k="name" v="Øygarden" />
		<tag k="natural" v="wetland" />
		<tag k="ssr:stedsnr" v="455919" />
	</node>
	<node lat="58.47186944808392" lon="7.824241665177573" id="-29882">
		<tag k="name" v="Poddemyr" />
		<tag k="natural" v="wetland" />
		<tag k="ssr:stedsnr" v="455972" />
	</node>
	<node lat="58.46975833217792" lon="7.800891669627879" id="-29884">
		<tag k="name" v="Leirdyblane" />
		<tag k="place" v="locality" />
		<tag k="ssr:stedsnr" v="455984" />
	</node>
	<node lat="58.377119443448265" lon="7.953255563804423" id="-29896">
		<tag k="name" v="Orreleikmyr" />
		<tag k="natural" v="wetland" />
		<tag k="ssr:stedsnr" v="515107" />
	</node>
	<node lat="58.38245277883989" lon="7.992030562771779" id="-29900">
		<tag k="name" v="Salbårmyra" />
		<tag k="natural" v="wetland" />
		<tag k="ssr:stedsnr" v="515119" />
	</node>
	<node lat="58.38558611048735" lon="7.921255547358214" id="-29905">
		<tag k="name" v="Varpmyr" />
		<tag k="natural" v="wetland" />
		<tag k="ssr:stedsnr" v="515167" />
	</node>
	<node lat="58.34344444697493" lon="7.926655562834322" id="-29906">
		<tag k="name" v="Øvre Døblemyr" />
		<tag k="natural" v="wetland" />
		<tag k="ssr:stedsnr" v="515174" />
	</node>
	<node lat="58.48477222209297" lon="7.968405553615477" id="-29909">
		<tag k="name" v="Heggevollmyrane" />
		<tag k="natural" v="wetland" />
		<tag k="ssr:stedsnr" v="515502" />
	</node>
	<node lat="58.454761107286" lon="8.030174995340607" id="-29912">
		<tag k="name" v="Angarden" />
		<tag k="place" v="locality" />
		<tag k="ssr:stedsnr" v="515606" />
	</node>
	<node lat="58.5093249979556" lon="7.972027775882271" id="-29914">
		<tag k="name" v="Breisåsmyra" />
		<tag k="natural" v="wetland" />
		<tag k="ssr:stedsnr" v="515617" />
	</node>
	<node lat="58.41908333003614" lon="7.940963894026654" id="-29926">
		<tag k="name" v="Lieslått" />
		<tag k="natural" v="wetland" />
		<tag k="ssr:stedsnr" v="515786" />
	</node>
	<node lat="58.48419444607449" lon="7.884327769988533" id="-29931">
		<tag k="name" v="Ramsemyr" />
		<tag k="natural" v="wetland" />
		<tag k="ssr:stedsnr" v="515879" />
	</node>
	<node lat="58.41046111123462" lon="7.891058341217519" id="-29947">
		<tag k="name" v="Øvre Djupemyr" />
		<tag k="natural" v="wetland" />
		<tag k="ssr:stedsnr" v="576209" />
	</node>
	<node lat="58.480355552309724" lon="7.9999444480176" id="-29949">
		<tag k="name" v="Kaldmyr" />
		<tag k="natural" v="wetland" />
		<tag k="ssr:stedsnr" v="576498" />
	</node>
	<node lat="58.462552775050774" lon="8.058869446627302" id="-29952">
		<tag k="name" v="Kverkmyr" />
		<tag k="natural" v="wetland" />
		<tag k="ssr:stedsnr" v="576399" />
	</node>
	<node lat="58.484280552312114" lon="8.007405554981585" id="-29953">
		<tag k="name" v="Heståsmyra" />
		<tag k="natural" v="wetland" />
		<tag k="ssr:stedsnr" v="576504" />
	</node>
	<node lat="58.41495833736172" lon="7.901847221153649" id="-29958">
		<tag k="name" v="Gåseflåmyr" />
		<tag k="natural" v="wetland" />
		<tag k="ssr:stedsnr" v="576802" />
	</node>
	<node lat="58.42066388474845" lon="7.935383328628551" id="-29959">
		<tag k="name" v="Storemyr" />
		<tag k="natural" v="wetland" />
		<tag k="ssr:stedsnr" v="576804" />
	</node>
	<node lat="58.35658055968096" lon="7.993836108048765" id="-29964">
		<tag k="name" v="Kverneslåtta" />
		<tag k="natural" v="wetland" />
		<tag k="ssr:stedsnr" v="576916" />
	</node>
	<node lat="58.40737222433128" lon="8.055391660558751" id="-29965">
		<tag k="name" v="Stevekjerrane" />
		<tag k="natural" v="wetland" />
		<tag k="ssr:stedsnr" v="576951" />
	</node>
	<node lat="58.52224166961087" lon="7.879094445054195" id="-29969">
		<tag k="name" v="Haugebakkmyrane" />
		<tag k="natural" v="wetland" />
		<tag k="ssr:stedsnr" v="697673" />
	</node>
	<node lat="58.44550277827886" lon="7.86018610542601" id="-29971">
		<tag k="name" v="Bassmoen" />
		<tag k="natural" v="wetland" />
		<tag k="ssr:stedsnr" v="697009" />
	</node>
	<node lat="58.3971055536534" lon="7.870438884216892" id="-29974">
		<tag k="name" v="Knutsmyr" />
		<tag k="natural" v="wetland" />
		<tag k="ssr:stedsnr" v="697063" />
	</node>
	<node lat="58.38654444284023" lon="7.99522221509658" id="-29975">
		<tag k="name" v="Botreismyr" />
		<tag k="natural" v="wetland" />
		<tag k="ssr:stedsnr" v="697117" />
	</node>
	<node lat="58.34230555719134" lon="7.936727770952974" id="-29980">
		<tag k="name" v="Storemyr" />
		<tag k="natural" v="wetland" />
		<tag k="ssr:stedsnr" v="697187" />
	</node>
	<node lat="58.42935555343034" lon="7.850697220934092" id="-29984">
		<tag k="name" v="Vardeheimyra" />
		<tag k="natural" v="wetland" />
		<tag k="ssr:stedsnr" v="697251" />
	</node>
	<node lat="58.50567777987601" lon="7.930188889423767" id="-29987">
		<tag k="landuse" v="quarry" />
		<tag k="name" v="Heiegruva" />
		<tag k="ssr:stedsnr" v="697412" />
	</node>
	<node lat="58.4237500022194" lon="7.822961104115601" id="-29989">
		<tag k="name" v="Blåmyr" />
		<tag k="natural" v="wetland" />
		<tag k="ssr:stedsnr" v="697359" />
	</node>
	<node lat="58.431147221429995" lon="8.076255548024976" id="-29991">
		<tag k="name" v="Gjevreismyr" />
		<tag k="natural" v="wetland" />
		<tag k="ssr:stedsnr" v="697427" />
	</node>
	<node lat="58.480747226533474" lon="8.00736110652475" id="-29995">
		<tag k="name" v="Stemmyr" />
		<tag k="natural" v="wetland" />
		<tag k="ssr:stedsnr" v="697455" />
	</node>
	<node lat="58.42203888669108" lon="8.006938890767357" id="-29997">
		<tag k="name" v="Slettansmyrane" />
		<tag k="natural" v="wetland" />
		<tag k="ssr:stedsnr" v="697509" />
	</node>
	<node lat="58.44625555931793" lon="7.954108330390136" id="-29998">
		<tag k="name" v="Storemyr" />
		<tag k="natural" v="wetland" />
		<tag k="ssr:stedsnr" v="697566" />
	</node>
	<node lat="58.46374166457134" lon="8.009844447441122" id="-29999">
		<tag k="name" v="Tremerra" />
		<tag k="natural" v="wetland" />
		<tag k="ssr:stedsnr" v="697572" />
	</node>
	<node lat="58.45749722283511" lon="8.031175005525434" id="-30000">
		<tag k="name" v="Angardsmyra" />
		<tag k="natural" v="wetland" />
		<tag k="ssr:stedsnr" v="697574" />
	</node>
	<node lat="58.46205832994032" lon="7.984127775552994" id="-30004">
		<tag k="name" v="Setane" />
		<tag k="natural" v="wetland" />
		<tag k="ssr:stedsnr" v="697538" />
	</node>
	<node lat="58.53319444620394" lon="7.8956722219768585" id="-30008">
		<tag k="name" v="Tommåsmyr" />
		<tag k="natural" v="wetland" />
		<tag k="ssr:stedsnr" v="697688" />
	</node>
	<node lat="58.47608610778975" lon="7.825319451053161" id="-30023">
		<tag k="name" v="Buemyrane" />
		<tag k="natural" v="wetland" />
		<tag k="ssr:stedsnr" v="697754" />
	</node>
	<node lat="58.41279444819352" lon="7.940730555392736" id="-30024">
		<tag k="name" v="Bjørnskjeggmyr" />
		<tag k="natural" v="wetland" />
		<tag k="ssr:stedsnr" v="697760" />
	</node>
	<node lat="58.46855000384317" lon="7.839150007634505" id="-30028">
		<tag k="name" v="Koldsnesmyrane" />
		<tag k="natural" v="wetland" />
		<tag k="ssr:stedsnr" v="697848" />
	</node>
	<node lat="58.39360277933882" lon="7.956280555658226" id="-30031">
		<tag k="name" v="Kartane" />
		<tag k="natural" v="wetland" />
		<tag k="ssr:stedsnr" v="697923" />
	</node>
	<node lat="58.50159444559386" lon="7.820711104112829" id="-30032">
		<tag k="name" v="Bjormyr" />
		<tag k="natural" v="wetland" />
		<tag k="ssr:stedsnr" v="697988" />
	</node>
	<node lat="58.45151111453143" lon="7.863233335674666" id="-30045">
		<tag k="name" v="Hellermyr" />
		<tag k="natural" v="wetland" />
		<tag k="ssr:stedsnr" v="636008" />
	</node>
	<node lat="58.380574998411085" lon="8.023130552763394" id="-30051">
		<tag k="name" v="Knipemyrane" />
		<tag k="natural" v="wetland" />
		<tag k="ssr:stedsnr" v="636083" />
	</node>
	<node lat="58.38229444287071" lon="8.020580558088046" id="-30052">
		<tag k="name" v="Olavsmyr" />
		<tag k="natural" v="wetland" />
		<tag k="ssr:stedsnr" v="636085" />
	</node>
	<node lat="58.376105552764116" lon="7.996816668786436" id="-30055">
		<tag k="name" v="Beislemyr" />
		<tag k="natural" v="wetland" />
		<tag k="ssr:stedsnr" v="636107" />
	</node>
	<node lat="58.342227775381076" lon="7.941719440141024" id="-30058">
		<tag k="name" v="Langemyr" />
		<tag k="natural" v="wetland" />
		<tag k="ssr:stedsnr" v="636179" />
	</node>
	<node lat="58.48425277401735" lon="7.963422219954185" id="-30062">
		<tag k="name" v="Jokelikjerrane" />
		<tag k="natural" v="wetland" />
		<tag k="ssr:stedsnr" v="636508" />
	</node>
	<node lat="58.48300277491333" lon="7.9843305508801965" id="-30063">
		<tag k="name" v="Fjermedalsmyra" />
		<tag k="natural" v="wetland" />
		<tag k="ssr:stedsnr" v="636511" />
	</node>
	<node lat="58.493324999955746" lon="7.974300001365976" id="-30069">
		<tag k="name" v="Liemyr" />
		<tag k="natural" v="wetland" />
		<tag k="ssr:stedsnr" v="636484" />
	</node>
	<node lat="58.49839167008151" lon="7.874191667308676" id="-30071">
		<tag k="name" v="Bjørnslåtta" />
		<tag k="natural" v="wetland" />
		<tag k="ssr:stedsnr" v="636685" />
	</node>
	<node lat="58.4323305579967" lon="7.89960555029336" id="-30074">
		<tag k="name" v="Halvdalerstykket" />
		<tag k="place" v="locality" />
		<tag k="ssr:stedsnr" v="636812" />
	</node>
	<node lat="58.43354444003216" lon="7.916619445960126" id="-30075">
		<tag k="name" v="Holemyr" />
		<tag k="natural" v="wetland" />
		<tag k="ssr:stedsnr" v="636815" />
	</node>
	<node lat="58.36183611482309" lon="7.985677783688129" id="-30079">
		<tag k="name" v="Storemyrslåttane" />
		<tag k="natural" v="wetland" />
		<tag k="ssr:stedsnr" v="636878" />
	</node>
	<node lat="58.54061388446286" lon="7.913219447856588" id="-30081">
		<tag k="name" v="Samlogan" />
		<tag k="natural" v="wetland" />
		<tag k="ssr:stedsnr" v="636733" />
	</node>
	<node lat="58.41753055897623" lon="7.927766664505679" id="-30083">
		<tag k="name" v="Skremyrane" />
		<tag k="natural" v="wetland" />
		<tag k="ssr:stedsnr" v="636784" />
	</node>
	<node lat="58.44700555420095" lon="7.945277780903629" id="-30084">
		<tag k="name" v="Skjerperøys" />
		<tag k="natural" v="stone" />
		<tag k="ssr:stedsnr" v="636795" />
	</node>
	<node lat="58.41286944855695" lon="7.833322220580834" id="-30101">
		<tag k="name" v="Surtemyr" />
		<tag k="natural" v="wetland" />
		<tag k="old_name" v="Surtyemyr" />
		<tag k="ssr:stedsnr" v="940183" />
	</node>
	<node lat="58.37630000173697" lon="7.982080559195528" id="-30105">
		<tag k="name" v="Lægemyr" />
		<tag k="natural" v="wetland" />
		<tag k="ssr:stedsnr" v="697107" />
	</node>
	<node lat="58.47457500056754" lon="7.90455000554297" id="-30117">
		<tag k="name" v="Tjønnmyr" />
		<tag k="natural" v="wetland" />
		<tag k="ssr:stedsnr" v="697611" />
	</node>
	<node lat="58.51566388521048" lon="7.882566662237634" id="-30118">
		<tag k="name" v="Rundemyr" />
		<tag k="natural" v="wetland" />
		<tag k="ssr:stedsnr" v="697666" />
	</node>
	<node lat="58.4214111082878" lon="8.00356110269248" id="-30119">
		<tag k="name" v="Viersteinen" />
		<tag k="natural" v="stone" />
		<tag k="ssr:stedsnr" v="697506" />
	</node>
	<node lat="58.43603333668935" lon="8.037997218810805" id="-30122">
		<tag k="name" v="Kjebekksteane" />
		<tag k="natural" v="wetland" />
		<tag k="ssr:stedsnr" v="697585" />
	</node>
	<node lat="58.451233329394036" lon="8.054433334416006" id="-30125">
		<tag k="name" v="Porskjerr" />
		<tag k="natural" v="wetland" />
		<tag k="ssr:stedsnr" v="697602" />
	</node>
	<node lat="58.543358334269875" lon="7.894638893156052" id="-30126">
		<tag k="name" v="Bøljemyr" />
		<tag k="natural" v="wetland" />
		<tag k="ssr:stedsnr" v="697704" />
	</node>
	<node lat="58.419686111878505" lon="7.987569443719236" id="-30127">
		<tag k="name" v="Surtemyrane" />
		<tag k="natural" v="wetland" />
		<tag k="ssr:stedsnr" v="697710" />
	</node>
	<node lat="58.417405559885964" lon="7.973233338006946" id="-30128">
		<tag k="name" v="Storemyr" />
		<tag k="place" v="locality" />
		<tag k="ssr:stedsnr" v="697716" />
	</node>
	<node lat="58.44341667110911" lon="7.910733331171061" id="-30133">
		<tag k="name" v="Lillekart" />
		<tag k="natural" v="wetland" />
		<tag k="ssr:stedsnr" v="697814" />
	</node>
	<node lat="58.349308335159506" lon="7.994286107931494" id="-30136">
		<tag k="name" v="Raptemyr" />
		<tag k="natural" v="wetland" />
		<tag k="ssr:stedsnr" v="697908" />
	</node>
	<node lat="58.40616944039996" lon="7.909019447547194" id="-30163">
		<tag k="name" v="Videfet" />
		<tag k="place" v="locality" />
		<tag k="ssr:stedsnr" v="758045" />
	</node>
	<node lat="58.40807499592485" lon="7.907202770605656" id="-30164">
		<tag k="name" v="Hagefet" />
		<tag k="natural" v="wetland" />
		<tag k="ssr:stedsnr" v="758047" />
	</node>
	<node lat="58.395124997845166" lon="7.879652776280369" id="-30166">
		<tag k="name" v="Ospevasen" />
		<tag k="place" v="locality" />
		<tag k="ssr:stedsnr" v="758052" />
	</node>
	<node lat="58.37037222528494" lon="7.95679167264748" id="-30169">
		<tag k="name" v="Fænmyr" />
		<tag k="natural" v="wetland" />
		<tag k="ssr:stedsnr" v="758099" />
	</node>
	<node lat="58.3380249964458" lon="7.928963894776886" id="-30170">
		<tag k="name" v="Porsmyr" />
		<tag k="natural" v="wetland" />
		<tag k="ssr:stedsnr" v="758206" />
	</node>
	<node lat="58.41776666585242" lon="7.840452773947772" id="-30171">
		<tag k="name" v="Langemyr" />
		<tag k="natural" v="wetland" />
		<tag k="ssr:stedsnr" v="758256" />
	</node>
	<node lat="58.34621944170272" lon="7.926380554818235" id="-30172">
		<tag k="name" v="Nedre Døblemyr" />
		<tag k="natural" v="wetland" />
		<tag k="ssr:stedsnr" v="758296" />
	</node>
	<node lat="58.479772219896084" lon="7.96158055078862" id="-30175">
		<tag k="name" v="Meelandsmyrane" />
		<tag k="natural" v="wetland" />
		<tag k="ssr:stedsnr" v="758545" />
	</node>
	<node lat="58.45501111468488" lon="7.9722916581718595" id="-30178">
		<tag k="name" v="Lonesteane" />
		<tag k="natural" v="wetland" />
		<tag k="ssr:stedsnr" v="758595" />
	</node>
	<node lat="58.555519444650095" lon="7.9306055584599795" id="-30180">
		<tag k="name" v="Dyplemyr" />
		<tag k="natural" v="wetland" />
		<tag k="ssr:stedsnr" v="758722" />
	</node>
	<node lat="58.501163887632934" lon="7.929488896485638" id="-30189">
		<tag k="landuse" v="quarry" />
		<tag k="name" v="Tuten" />
		<tag k="ssr:stedsnr" v="758696" />
	</node>
	<node lat="58.538733333252054" lon="7.915244438208033" id="-30215">
		<tag k="name" v="Storemyr" />
		<tag k="natural" v="wetland" />
		<tag k="ssr:stedsnr" v="911696" />
	</node>
	<node lat="58.44538333773043" lon="7.871180555863078" id="-30218">
		<tag k="name" v="Elgsvik" />
		<tag k="natural" v="wetland" />
		<tag k="ssr:stedsnr" v="819010" />
	</node>
	<node lat="58.36699722328122" lon="7.933144448932003" id="-30221">
		<tag k="name" v="Røyrmyr" />
		<tag k="natural" v="wetland" />
		<tag k="ssr:stedsnr" v="819135" />
	</node>
	<node lat="58.41019999719308" lon="7.8662888927578045" id="-30224">
		<tag k="name" v="Nordmyrdukane" />
		<tag k="place" v="locality" />
		<tag k="ssr:stedsnr" v="819226" />
	</node>
	<node lat="58.42840277570725" lon="7.838277773087462" id="-30226">
		<tag k="name" v="Kilemyr" />
		<tag k="natural" v="wetland" />
		<tag k="ssr:stedsnr" v="819243" />
	</node>
	<node lat="58.42285555422971" lon="7.87936389735048" id="-30228">
		<tag k="name" v="Langemyr" />
		<tag k="natural" v="wetland" />
		<tag k="ssr:stedsnr" v="819249" />
	</node>
	<node lat="58.46844444674257" lon="7.979113889627683" id="-30233">
		<tag k="name" v="Eikelandsmyra" />
		<tag k="natural" v="wetland" />
		<tag k="ssr:stedsnr" v="819525" />
	</node>
	<node lat="58.42908611437401" lon="7.9327277805173955" id="-30250">
		<tag k="name" v="Krossmyr" />
		<tag k="natural" v="wetland" />
		<tag k="ssr:stedsnr" v="819777" />
	</node>
	<node lat="58.47730278178813" lon="7.857733334140605" id="-30256">
		<tag k="name" v="Dretkjerrane" />
		<tag k="natural" v="wetland" />
		<tag k="ssr:stedsnr" v="819868" />
	</node>
	<node lat="58.4912305565771" lon="7.894155547133345" id="-30257">
		<tag k="name" v="Dyblemyr" />
		<tag k="natural" v="wetland" />
		<tag k="ssr:stedsnr" v="819873" />
	</node>
	<node lat="58.49910277705735" lon="7.813688882557536" id="-30259">
		<tag k="name" v="Busteane" />
		<tag k="natural" v="wetland" />
		<tag k="ssr:stedsnr" v="819982" />
	</node>
	<node lat="58.43150555448974" lon="7.879858330967389" id="-30276">
		<tag k="name" v="Kvernhusmyr" />
		<tag k="natural" v="wetland" />
		<tag k="ssr:stedsnr" v="880127" />
	</node>
	<node lat="58.3528111080063" lon="7.934380553217574" id="-30279">
		<tag k="name" v="Trandlemyrene" />
		<tag k="natural" v="wetland" />
		<tag k="ssr:stedsnr" v="880224" />
	</node>
	<node lat="58.48223333665721" lon="7.953727781584246" id="-30281">
		<tag k="name" v="Ranestadmyra" />
		<tag k="natural" v="wetland" />
		<tag k="ssr:stedsnr" v="880505" />
	</node>
	<node lat="58.48529999584265" lon="7.985694447841943" id="-30282">
		<tag k="name" v="Storslåtten" />
		<tag k="natural" v="wetland" />
		<tag k="ssr:stedsnr" v="880511" />
	</node>
	<node lat="58.44594722577157" lon="8.062227774470278" id="-30285">
		<tag k="name" v="Skarkingsteinen" />
		<tag k="natural" v="stone" />
		<tag k="ssr:stedsnr" v="880422" />
	</node>
	<node lat="58.47465277718587" lon="8.012925007297703" id="-30286">
		<tag k="name" v="Bostemyr" />
		<tag k="natural" v="wetland" />
		<tag k="ssr:stedsnr" v="880452" />
	</node>
	<node lat="58.396363889977394" lon="8.06218054728639" id="-30288">
		<tag k="name" v="Byttingsmyr" />
		<tag k="natural" v="wetland" />
		<tag k="ssr:stedsnr" v="880458" />
	</node>
	<node lat="58.45580555202342" lon="8.035019443147922" id="-30295">
		<tag k="name" v="Stakksneisvollmyr" />
		<tag k="natural" v="wetland" />
		<tag k="ssr:stedsnr" v="880614" />
	</node>
	<node lat="58.4726694436051" lon="8.033555548677676" id="-30298">
		<tag k="name" v="Engestølvarden" />
		<tag k="natural" v="stone" />
		<tag k="ssr:stedsnr" v="880553" />
	</node>
	<node lat="58.4699194421114" lon="7.866088887546042" id="-30309">
		<tag k="name" v="Storemyr" />
		<tag k="natural" v="wetland" />
		<tag k="ssr:stedsnr" v="880853" />
	</node>
	<node lat="58.4549250016368" lon="7.841108339279456" id="-30310">
		<tag k="name" v="Rosåsmyr" />
		<tag k="natural" v="wetland" />
		<tag k="ssr:stedsnr" v="880862" />
	</node>
	<node lat="58.46131111289204" lon="7.88121389208253" id="-30347">
		<tag k="name" v="Kjørkelonmyra" />
		<tag k="natural" v="wetland" />
		<tag k="ssr:stedsnr" v="30836" />
	</node>
	<node lat="58.448480554392894" lon="7.889461119270834" id="-30348">
		<tag k="name" v="Midtbekkmyrane" />
		<tag k="natural" v="wetland" />
		<tag k="ssr:stedsnr" v="30010" />
	</node>
	<node lat="58.36243333084562" lon="7.940622214470022" id="-30350">
		<tag k="name" v="Lillemyra" />
		<tag k="natural" v="wetland" />
		<tag k="ssr:stedsnr" v="30136" />
	</node>
	<node lat="58.38753333348781" lon="7.943261104972537" id="-30351">
		<tag k="name" v="Bjørnekjerret" />
		<tag k="natural" v="wetland" />
		<tag k="ssr:stedsnr" v="30151" />
	</node>
	<node lat="58.3394277737654" lon="7.931561107407737" id="-30353">
		<tag k="name" v="Tallaksslåttene" />
		<tag k="natural" v="wetland" />
		<tag k="ssr:stedsnr" v="30163" />
	</node>
	<node lat="58.41644721886378" lon="7.876683330835858" id="-30357">
		<tag k="name" v="Dyblemyr" />
		<tag k="natural" v="wetland" />
		<tag k="ssr:stedsnr" v="30244" />
	</node>
	<node lat="58.42893055698337" lon="8.068786110451354" id="-30362">
		<tag k="name" v="Nilsesmyr" />
		<tag k="natural" v="wetland" />
		<tag k="ssr:stedsnr" v="30427" />
	</node>
	<node lat="58.494463887529" lon="7.961916666809872" id="-30369">
		<tag k="name" v="Nedre Nordslåtten" />
		<tag k="natural" v="wetland" />
		<tag k="ssr:stedsnr" v="30481" />
	</node>
	<node lat="58.44829166235092" lon="7.999261113497154" id="-30377">
		<tag k="name" v="Trollmyr" />
		<tag k="natural" v="wetland" />
		<tag k="ssr:stedsnr" v="30561" />
	</node>
	<node lat="58.42911110888545" lon="7.944863887026976" id="-30380">
		<tag k="name" v="Karismyr" />
		<tag k="natural" v="wetland" />
		<tag k="ssr:stedsnr" v="30791" />
	</node>
	<node lat="58.42009444028825" lon="7.9941972171438564" id="-30387">
		<tag k="name" v="Sjarmerei" />
		<tag k="natural" v="wetland" />
		<tag k="ssr:stedsnr" v="30729" />
	</node>
	<node lat="58.416291662422054" lon="7.9497833279359575" id="-30388">
		<tag k="name" v="Vardeheimyr" />
		<tag k="natural" v="wetland" />
		<tag k="ssr:stedsnr" v="30738" />
	</node>
	<node lat="58.459983335917435" lon="7.869700006462197" id="-30389">
		<tag k="name" v="Stuekjerrmyra" />
		<tag k="natural" v="wetland" />
		<tag k="ssr:stedsnr" v="30838" />
	</node>
	<node lat="58.49245278077336" lon="7.879441673947511" id="-30392">
		<tag k="name" v="Vassganga" />
		<tag k="natural" v="wetland" />
		<tag k="ssr:stedsnr" v="30849" />
	</node>
	<node lat="58.4544194447428" lon="7.8542333377865585" id="-30393">
		<tag k="loc_name" v="Stenulkjerrane" />
		<tag k="name" v="Steinuglkjerrane" />
		<tag k="natural" v="wetland" />
		<tag k="ssr:stedsnr" v="30852" />
	</node>
	<node lat="58.39113055975411" lon="7.999622216699891" id="-30396">
		<tag k="name" v="Storemyr" />
		<tag k="natural" v="wetland" />
		<tag k="ssr:stedsnr" v="30933" />
	</node>
	<node lat="58.39388055665201" lon="8.019577769314813" id="-30400">
		<tag k="name" v="Store Steemyr" />
		<tag k="natural" v="wetland" />
		<tag k="ssr:stedsnr" v="30959" />
	</node>
	<node lat="58.46250277549574" lon="7.8335444509775325" id="-30404">
		<tag k="name" v="Jebremyr" />
		<tag k="natural" v="wetland" />
		<tag k="ssr:stedsnr" v="30975" />
	</node>
	<node lat="58.39900555905301" lon="7.88119444484865" id="-30421">
		<tag k="name" v="Trandlekjerret" />
		<tag k="natural" v="wetland" />
		<tag k="ssr:stedsnr" v="91055" />
	</node>
	<node lat="58.36899722231287" lon="7.936594440830478" id="-30422">
		<tag k="name" v="Steane" />
		<tag k="natural" v="wetland" />
		<tag k="ssr:stedsnr" v="91129" />
	</node>
	<node lat="58.36223333622936" lon="7.930036112706289" id="-30423">
		<tag k="name" v="Severinsteane" />
		<tag k="natural" v="wetland" />
		<tag k="ssr:stedsnr" v="91137" />
	</node>
	<node lat="58.42458610729807" lon="7.883483337994443" id="-30425">
		<tag k="name" v="Furemyr" />
		<tag k="natural" v="wetland" />
		<tag k="ssr:stedsnr" v="91253" />
	</node>
	<node lat="58.36546110765816" lon="7.959250007102223" id="-30426">
		<tag k="name" v="Butrømyr" />
		<tag k="natural" v="wetland" />
		<tag k="ssr:stedsnr" v="91901" />
	</node>
	<node lat="58.40528610768542" lon="7.965397229793739" id="-30429">
		<tag k="name" v="Langemyr" />
		<tag k="natural" v="wetland" />
		<tag k="ssr:stedsnr" v="91936" />
	</node>
	<node lat="58.40226389205826" lon="7.964258339571614" id="-30430">
		<tag k="name" v="Skrubbemyr" />
		<tag k="natural" v="wetland" />
		<tag k="ssr:stedsnr" v="91941" />
	</node>
	<node lat="58.4839777735223" lon="7.914944445888069" id="-30436">
		<tag k="name" v="Blåmyr" />
		<tag k="natural" v="wetland" />
		<tag k="ssr:stedsnr" v="91669" />
	</node>
	<node lat="58.41530555601665" lon="7.986402773641676" id="-30443">
		<tag k="name" v="Lundane" />
		<tag k="natural" v="wetland" />
		<tag k="ssr:stedsnr" v="91546" />
	</node>
	<node lat="58.50105555288349" lon="7.876158331942927" id="-30449">
		<tag k="name" v="Leitingsmyr" />
		<tag k="natural" v="wetland" />
		<tag k="ssr:stedsnr" v="91686" />
	</node>
	<node lat="58.511674996840505" lon="7.889991666214202" id="-30450">
		<tag k="name" v="Øygardsmyrane" />
		<tag k="natural" v="wetland" />
		<tag k="ssr:stedsnr" v="91697" />
	</node>
	<node lat="58.5490555536633" lon="7.9208388826448175" id="-30451">
		<tag k="name" v="Fjellslått" />
		<tag k="natural" v="wetland" />
		<tag k="ssr:stedsnr" v="91729" />
	</node>
	<node lat="58.53076110866751" lon="7.8959722231258915" id="-30456">
		<tag k="name" v="Kartane" />
		<tag k="natural" v="wetland" />
		<tag k="ssr:stedsnr" v="91761" />
	</node>
	<node lat="58.489255552867405" lon="7.817827778169622" id="-30460">
		<tag k="name" v="Sauesteane" />
		<tag k="natural" v="wetland" />
		<tag k="ssr:stedsnr" v="91993" />
	</node>
	<node lat="58.44569444420933" lon="7.902780558883586" id="-30464">
		<tag k="name" v="Helenesmyr" />
		<tag k="natural" v="wetland" />
		<tag k="ssr:stedsnr" v="91813" />
	</node>
	<node lat="58.46971666735074" lon="7.933097227542806" id="-30466">
		<tag k="name" v="Stoblemyr" />
		<tag k="natural" v="wetland" />
		<tag k="ssr:stedsnr" v="91818" />
	</node>
	<node lat="58.456375003767945" lon="7.892591667819842" id="-30472">
		<tag k="name" v="Limyr" />
		<tag k="natural" v="wetland" />
		<tag k="ssr:stedsnr" v="91850" />
	</node>
	<node lat="58.544325000117766" lon="7.901480557101259" id="-30483">
		<tag k="alt_name" v="Dyplemyr" />
		<tag k="name" v="Dyblemyr" />
		<tag k="natural" v="wetland" />
		<tag k="ssr:stedsnr" v="122655" />
	</node>
	<node lat="58.54175278117885" lon="7.895499999427641" id="-30486">
		<tag k="name" v="Ormeslått" />
		<tag k="natural" v="wetland" />
		<tag k="ssr:stedsnr" v="151726" />
	</node>
	<node lat="58.41188055471199" lon="7.973613881391792" id="-30487">
		<tag k="name" v="Søndagskarten" />
		<tag k="natural" v="wetland" />
		<tag k="ssr:stedsnr" v="151746" />
	</node>
	<node lat="58.41151110721819" lon="7.968322214160751" id="-30488">
		<tag k="name" v="Tømmermyrane" />
		<tag k="natural" v="wetland" />
		<tag k="ssr:stedsnr" v="151747" />
	</node>
	<node lat="58.391061111921175" lon="7.907100001490081" id="-30496">
		<tag k="name" v="Røyrmyrane" />
		<tag k="natural" v="wetland" />
		<tag k="ssr:stedsnr" v="151034" />
	</node>
	<node lat="58.4079138846924" lon="7.885083331893995" id="-30499">
		<tag k="name" v="Holtane" />
		<tag k="place" v="locality" />
		<tag k="ssr:stedsnr" v="151054" />
	</node>
	<node lat="58.408169448065316" lon="7.880605558544621" id="-30500">
		<tag k="name" v="Frøysådalsteane" />
		<tag k="natural" v="wetland" />
		<tag k="ssr:stedsnr" v="151067" />
	</node>
	<node lat="58.32545555515503" lon="7.952472225142579" id="-30504">
		<tag k="name" v="Langemyr" />
		<tag k="natural" v="wetland" />
		<tag k="ssr:stedsnr" v="151128" />
	</node>
	<node lat="58.41944722244251" lon="7.858000001127074" id="-30507">
		<tag k="name" v="Olavskjerr" />
		<tag k="natural" v="wetland" />
		<tag k="ssr:stedsnr" v="151239" />
	</node>
	<node lat="58.446197223899105" lon="7.8326250033757825" id="-30513">
		<tag k="name" v="Vestre Langsheimyr" />
		<tag k="natural" v="wetland" />
		<tag k="ssr:stedsnr" v="151193" />
	</node>
	<node lat="58.47346666904142" lon="8.021786103046068" id="-30521">
		<tag k="name" v="Steane" />
		<tag k="natural" v="wetland" />
		<tag k="ssr:stedsnr" v="151548" />
	</node>
	<node lat="58.476338887184596" lon="8.019549993195074" id="-30525">
		<tag k="name" v="Gillsmyr" />
		<tag k="natural" v="wetland" />
		<tag k="ssr:stedsnr" v="151469" />
	</node>
	<node lat="58.47769444732299" lon="8.00319722228865" id="-30527">
		<tag k="name" v="Melandsmyra" />
		<tag k="natural" v="wetland" />
		<tag k="ssr:stedsnr" v="151478" />
	</node>
	<node lat="58.498444445242114" lon="7.969288886567687" id="-30532">
		<tag k="name" v="Myrbotn" />
		<tag k="natural" v="wetland" />
		<tag k="ssr:stedsnr" v="151498" />
	</node>
	<node lat="58.44928610745738" lon="7.952100006416022" id="-30535">
		<tag k="name" v="Lunnemyrane" />
		<tag k="natural" v="wetland" />
		<tag k="ssr:stedsnr" v="151586" />
	</node>
	<node lat="58.50049166387996" lon="7.882366668727726" id="-30537">
		<tag k="name" v="Liestølmyra" />
		<tag k="natural" v="wetland" />
		<tag k="ssr:stedsnr" v="151677" />
	</node>
	<node lat="58.5149777779263" lon="7.886880548687877" id="-30538">
		<tag k="name" v="Stemmyr" />
		<tag k="natural" v="wetland" />
		<tag k="ssr:stedsnr" v="151682" />
	</node>
	<node lat="58.428647219902686" lon="7.939047229003356" id="-30546">
		<tag k="name" v="Langemyr" />
		<tag k="natural" v="wetland" />
		<tag k="ssr:stedsnr" v="151797" />
	</node>
	<node lat="58.44205555865588" lon="7.909319438758042" id="-30550">
		<tag k="name" v="Storekart" />
		<tag k="natural" v="wetland" />
		<tag k="ssr:stedsnr" v="151827" />
	</node>
	<node lat="58.459008332287446" lon="7.912377784886558" id="-30551">
		<tag k="name" v="Storste" />
		<tag k="natural" v="wetland" />
		<tag k="ssr:stedsnr" v="151837" />
	</node>
	<node lat="58.45982500385404" lon="7.876133341492112" id="-30553">
		<tag k="name" v="Byttingsmyr" />
		<tag k="natural" v="wetland" />
		<tag k="ssr:stedsnr" v="151847" />
	</node>
	<node lat="58.494755554831755" lon="7.941494444026485" id="-30555">
		<tag k="name" v="Øygardsmyra" />
		<tag k="natural" v="wetland" />
		<tag k="ssr:stedsnr" v="151650" />
	</node>
	<node lat="58.39243889294727" lon="7.973891663274544" id="-30557">
		<tag k="name" v="Grunnevassmyrane" />
		<tag k="natural" v="wetland" />
		<tag k="ssr:stedsnr" v="151938" />
	</node>
	<node lat="58.39876667015323" lon="8.035138884817602" id="-30561">
		<tag k="name" v="Kartmyr" />
		<tag k="natural" v="wetland" />
		<tag k="ssr:stedsnr" v="151952" />
	</node>
	<node lat="58.49983055680396" lon="7.810122219137813" id="-30567">
		<tag k="name" v="Hodnesteer" />
		<tag k="natural" v="wetland" />
		<tag k="ssr:stedsnr" v="151987" />
	</node>
	<node lat="58.49338055513218" lon="7.830197227152491" id="-30568">
		<tag k="name" v="Røyrmyr" />
		<tag k="natural" v="wetland" />
		<tag k="ssr:stedsnr" v="151992" />
	</node>
	<node lat="58.49103611232704" lon="7.802094452928566" id="-30569">
		<tag k="name" v="Tåråldsmyr" />
		<tag k="natural" v="wetland" />
		<tag k="ssr:stedsnr" v="151994" />
	</node>
	<node lat="58.346963891601725" lon="7.9849222223897645" id="-30571">
		<tag k="name" v="Langemyr" />
		<tag k="natural" v="wetland" />
		<tag k="ssr:stedsnr" v="151897" />
	</node>
	<node lat="58.44478888927831" lon="7.8778194524903045" id="-30578">
		<tag k="name" v="Kalvesteane" />
		<tag k="natural" v="wetland" />
		<tag k="ssr:stedsnr" v="273018" />
	</node>
	<node lat="58.44026666729373" lon="7.88708055171791" id="-30579">
		<tag k="name" v="Nesmyr" />
		<tag k="natural" v="wetland" />
		<tag k="ssr:stedsnr" v="273020" />
	</node>
	<node lat="58.50618055555224" lon="7.913655562331975" id="-30587">
		<tag k="alt_name" v="Geismyr" />
		<tag k="name" v="Geismyra" />
		<tag k="natural" v="wetland" />
		<tag k="ssr:stedsnr" v="182389" />
	</node>
	<node lat="58.54674999835407" lon="7.89757499468229" id="-30588">
		<tag k="alt_name" v="Hellersmyr" />
		<tag k="name" v="Hellermyr" />
		<tag k="natural" v="wetland" />
		<tag k="ssr:stedsnr" v="182635" />
	</node>
	<node lat="58.36549999684605" lon="7.929213890192774" id="-30594">
		<tag k="name" v="Storemyr" />
		<tag k="natural" v="wetland" />
		<tag k="ssr:stedsnr" v="273139" />
	</node>
	<node lat="58.36035833059931" lon="7.942536117006756" id="-30595">
		<tag k="name" v="Mørchsmyr" />
		<tag k="natural" v="wetland" />
		<tag k="ssr:stedsnr" v="273144" />
	</node>
	<node lat="58.32614443997919" lon="7.939438881713633" id="-30599">
		<tag k="name" v="Djupemyr" />
		<tag k="natural" v="wetland" />
		<tag k="ssr:stedsnr" v="212143" />
	</node>
	<node lat="58.34088055796905" lon="7.934391670825502" id="-30606">
		<tag k="name" v="Kjågremyr" />
		<tag k="natural" v="wetland" />
		<tag k="ssr:stedsnr" v="212171" />
	</node>
	<node lat="58.34538055768115" lon="7.9174833295282285" id="-30610">
		<tag k="name" v="Lilletjønnmyra" />
		<tag k="natural" v="wetland" />
		<tag k="ssr:stedsnr" v="212248" />
	</node>
	<node lat="58.40334444565356" lon="7.915524999298978" id="-30615">
		<tag k="name" v="Bakkemyra" />
		<tag k="place" v="locality" />
		<tag k="ssr:stedsnr" v="212041" />
	</node>
	<node lat="58.429350001627675" lon="7.82887777140414" id="-30621">
		<tag k="name" v="Storeslåtta" />
		<tag k="natural" v="wetland" />
		<tag k="ssr:stedsnr" v="212340" />
	</node>
	<node lat="58.4589027734964" lon="8.067102772820363" id="-30624">
		<tag k="name" v="Steebotn" />
		<tag k="natural" v="wetland" />
		<tag k="ssr:stedsnr" v="212386" />
	</node>
	<node lat="58.43172222121087" lon="8.008102779492827" id="-30628">
		<tag k="name" v="Linhommen" />
		<tag k="place" v="locality" />
		<tag k="ssr:stedsnr" v="212601" />
	</node>
	<node lat="58.4507055515742" lon="7.938552770135701" id="-30634">
		<tag k="name" v="Snømyr" />
		<tag k="natural" v="wetland" />
		<tag k="ssr:stedsnr" v="212801" />
	</node>
	<node lat="58.49274166580136" lon="7.9776944529108995" id="-30640">
		<tag k="name" v="Vestre Karismyr" />
		<tag k="natural" v="wetland" />
		<tag k="ssr:stedsnr" v="212467" />
	</node>
	<node lat="58.456738885390614" lon="7.977980563984368" id="-30645">
		<tag k="name" v="Øvre Langemyr" />
		<tag k="natural" v="wetland" />
		<tag k="ssr:stedsnr" v="212554" />
	</node>
	<node lat="58.50931944124909" lon="7.879461111695205" id="-30647">
		<tag k="name" v="Kverlemyr" />
		<tag k="natural" v="wetland" />
		<tag k="ssr:stedsnr" v="212659" />
	</node>
	<node lat="58.49837221870406" lon="7.853102784848774" id="-30648">
		<tag k="name" v="Midtslåtten" />
		<tag k="natural" v="wetland" />
		<tag k="ssr:stedsnr" v="212663" />
	</node>
	<node lat="58.47210555747725" lon="7.842466663500904" id="-30653">
		<tag k="name" v="Hasseldalsmyra" />
		<tag k="natural" v="wetland" />
		<tag k="ssr:stedsnr" v="212852" />
	</node>
	<node lat="58.47183333661885" lon="7.867458331827405" id="-30655">
		<tag k="name" v="Ratemyr" />
		<tag k="natural" v="wetland" />
		<tag k="ssr:stedsnr" v="212857" />
	</node>
	<node lat="58.483608333627544" lon="7.875788885355375" id="-30656">
		<tag k="name" v="Storemyr" />
		<tag k="natural" v="wetland" />
		<tag k="ssr:stedsnr" v="212864" />
	</node>
	<node lat="58.40820833183229" lon="7.9548805545704155" id="-30658">
		<tag k="name" v="Glovrandsmyra" />
		<tag k="natural" v="wetland" />
		<tag k="ssr:stedsnr" v="212922" />
	</node>
	<node lat="58.483697221748415" lon="7.796000007719369" id="-30659">
		<tag k="name" v="Gjestemyrane" />
		<tag k="natural" v="wetland" />
		<tag k="ssr:stedsnr" v="212999" />
	</node>
	<node lat="58.3989222254464" lon="8.017302781581451" id="-30662">
		<tag k="name" v="Arendalsmyra" />
		<tag k="natural" v="wetland" />
		<tag k="ssr:stedsnr" v="212957" />
	</node>
	<node lat="58.419041667383134" lon="7.835555557924206" id="-30668">
		<tag k="name" v="Kringlemyr" />
		<tag k="natural" v="wetland" />
		<tag k="ssr:stedsnr" v="273341" />
	</node>
	<node lat="58.4131666656863" lon="8.04627777192318" id="-30670">
		<tag k="name" v="Kleivemyrane" />
		<tag k="natural" v="wetland" />
		<tag k="ssr:stedsnr" v="273498" />
	</node>
	<node lat="58.41350555548774" lon="7.977005563365227" id="-30672">
		<tag k="name" v="Røyrmyr" />
		<tag k="natural" v="wetland" />
		<tag k="ssr:stedsnr" v="273518" />
	</node>
	<node lat="58.404369445506916" lon="8.061936105308744" id="-30678">
		<tag k="name" v="Omestadmyra" />
		<tag k="natural" v="wetland" />
		<tag k="ssr:stedsnr" v="273441" />
	</node>
	<node lat="58.40158888698182" lon="8.066336114371158" id="-30680">
		<tag k="name" v="Storeslåtta" />
		<tag k="natural" v="wetland" />
		<tag k="ssr:stedsnr" v="273451" />
	</node>
	<node lat="58.45568889186587" lon="7.9658305474648605" id="-30686">
		<tag k="name" v="Kringlesteane" />
		<tag k="natural" v="wetland" />
		<tag k="ssr:stedsnr" v="273543" />
	</node>
	<node lat="58.47755278118157" lon="7.914694447174032" id="-30690">
		<tag k="name" v="Revemyrane" />
		<tag k="natural" v="wetland" />
		<tag k="ssr:stedsnr" v="273648" />
	</node>
	<node lat="58.55256666855327" lon="7.930705561237253" id="-30693">
		<tag k="name" v="Katteråsmyrane" />
		<tag k="natural" v="wetland" />
		<tag k="ssr:stedsnr" v="273737" />
	</node>
	<node lat="58.42256944733705" lon="7.994088886320856" id="-30695">
		<tag k="name" v="Kjersbekkmyra" />
		<tag k="natural" v="wetland" />
		<tag k="ssr:stedsnr" v="273752" />
	</node>
	<node lat="58.49239444687181" lon="7.871966672924814" id="-30709">
		<tag k="name" v="Krestjarslått" />
		<tag k="natural" v="wetland" />
		<tag k="ssr:stedsnr" v="273868" />
	</node>
	<node lat="58.39283055761506" lon="8.009152780105643" id="-30711">
		<tag k="name" v="Langemyr" />
		<tag k="natural" v="wetland" />
		<tag k="ssr:stedsnr" v="273970" />
	</node>
	<node lat="58.42548055911265" lon="7.846497226411607" id="-30740">
		<tag k="name" v="Torkelsmyr" />
		<tag k="natural" v="wetland" />
		<tag k="ssr:stedsnr" v="333264" />
	</node>
	<node lat="58.32081389054149" lon="7.967766663322948" id="-30744">
		<tag k="name" v="Kringsjåmyrene" />
		<tag k="natural" v="wetland" />
		<tag k="ssr:stedsnr" v="333125" />
	</node>
	<node lat="58.35769166949462" lon="7.943199996792646" id="-30754">
		<tag k="name" v="Kvernhusmyrane" />
		<tag k="natural" v="wetland" />
		<tag k="ssr:stedsnr" v="333287" />
	</node>
	<node lat="58.35054444539497" lon="7.929980547870734" id="-30756">
		<tag k="name" v="Kartemyr" />
		<tag k="natural" v="wetland" />
		<tag k="ssr:stedsnr" v="333293" />
	</node>
	<node lat="58.41919722169595" lon="7.815211104237546" id="-30757">
		<tag k="name" v="Meheimyr" />
		<tag k="natural" v="wetland" />
		<tag k="ssr:stedsnr" v="333372" />
	</node>
	<node lat="58.42794166894209" lon="7.833497228088278" id="-30758">
		<tag k="name" v="Grosåsmyr" />
		<tag k="natural" v="wetland" />
		<tag k="ssr:stedsnr" v="333377" />
	</node>
	<node lat="58.45423889117335" lon="8.044966675079433" id="-30762">
		<tag k="name" v="Spøtemyr" />
		<tag k="natural" v="wetland" />
		<tag k="ssr:stedsnr" v="333578" />
	</node>
	<node lat="58.4565722251406" lon="8.007108325053155" id="-30764">
		<tag k="name" v="Kroksteinmyrane" />
		<tag k="natural" v="wetland" />
		<tag k="ssr:stedsnr" v="333588" />
	</node>
	<node lat="58.53649166849349" lon="7.912758339472175" id="-30767">
		<tag k="name" v="Ossingkarten" />
		<tag k="natural" v="wetland" />
		<tag k="ssr:stedsnr" v="333685" />
	</node>
	<node lat="58.493538890127525" lon="7.902025008121233" id="-30769">
		<tag k="name" v="Jenufsmyr" />
=======
	<node id="-544561" lat="58.4589027735" lon="8.06710277282">
		<tag k="name" v="Steebotn" />
		<tag k="natural" v="wetland" />
		<tag k="ssr:stedsnr" v="212386" />
	</node>
	<node id="-544558" lat="58.4752694425" lon="7.96940555631">
		<tag k="name" v="Pipeslåtta" />
		<tag k="natural" v="wetland" />
		<tag k="ssr:stedsnr" v="212486" />
	</node>
	<node id="-544555" lat="58.4927416658" lon="7.97769445291">
		<tag k="name" v="Vestre Karismyr" />
		<tag k="natural" v="wetland" />
		<tag k="ssr:stedsnr" v="212467" />
	</node>
	<node id="-544547" lat="58.3453805577" lon="7.91748332953">
		<tag k="name" v="Lilletjønnmyra" />
		<tag k="natural" v="wetland" />
		<tag k="ssr:stedsnr" v="212248" />
	</node>
	<node id="-544538" lat="58.4033444457" lon="7.9155249993">
		<tag k="name" v="Bakkemyra" />
		<tag k="place" v="locality" />
		<tag k="ssr:stedsnr" v="212041" />
	</node>
	<node id="-544537" lat="58.4293500016" lon="7.8288777714">
		<tag k="name" v="Storeslåtta" />
		<tag k="natural" v="wetland" />
		<tag k="ssr:stedsnr" v="212340" />
	</node>
	<node id="-544535" lat="58.4158250043" lon="7.81087778244">
		<tag k="name" v="Bjørnskjeggmyr" />
		<tag k="natural" v="wetland" />
		<tag k="ssr:stedsnr" v="212187" />
	</node>
	<node id="-544533" lat="58.340880558" lon="7.93439167083">
		<tag k="name" v="Kjågremyr" />
		<tag k="natural" v="wetland" />
		<tag k="ssr:stedsnr" v="212171" />
	</node>
	<node id="-544526" lat="58.32614444" lon="7.93943888171">
		<tag k="name" v="Djupemyr" />
		<tag k="natural" v="wetland" />
		<tag k="ssr:stedsnr" v="212143" />
	</node>
	<node id="-544525" lat="58.5559249963" lon="7.92141666121">
		<tag k="alt_name" v="Orreleiksmyr" />
		<tag k="name" v="Orreleikmyra" />
		<tag k="natural" v="wetland" />
		<tag k="ssr:stedsnr" v="183615" />
	</node>
	<node id="-544521" lat="58.5467499984" lon="7.89757499468">
		<tag k="alt_name" v="Hellersmyr" />
		<tag k="name" v="Hellermyr" />
		<tag k="natural" v="wetland" />
		<tag k="ssr:stedsnr" v="182635" />
	</node>
	<node id="-544520" lat="58.5061805556" lon="7.91365556233">
		<tag k="alt_name" v="Geismyr" />
		<tag k="name" v="Geismyra" />
		<tag k="natural" v="wetland" />
		<tag k="ssr:stedsnr" v="182389" />
	</node>
	<node id="-544501" lat="58.4910361123" lon="7.80209445293">
		<tag k="name" v="Tåråldsmyr" />
		<tag k="natural" v="wetland" />
		<tag k="ssr:stedsnr" v="151994" />
	</node>
	<node id="-544500" lat="58.4933805551" lon="7.83019722715">
		<tag k="name" v="Røyrmyr" />
		<tag k="natural" v="wetland" />
		<tag k="ssr:stedsnr" v="151992" />
	</node>
	<node id="-544499" lat="58.4998305568" lon="7.81012221914">
		<tag k="name" v="Hodnesteer" />
		<tag k="natural" v="wetland" />
		<tag k="ssr:stedsnr" v="151987" />
	</node>
	<node id="-544493" lat="58.3987666702" lon="8.03513888482">
		<tag k="name" v="Kartmyr" />
		<tag k="natural" v="wetland" />
		<tag k="ssr:stedsnr" v="151952" />
	</node>
	<node id="-544489" lat="58.3924388929" lon="7.97389166327">
		<tag k="name" v="Grunnevassmyrane" />
		<tag k="natural" v="wetland" />
		<tag k="ssr:stedsnr" v="151938" />
	</node>
	<node id="-544487" lat="58.3992138881" lon="7.98902222331">
		<tag k="name" v="Langemyr" />
		<tag k="natural" v="wetland" />
		<tag k="ssr:stedsnr" v="151919" />
	</node>
	<node id="-544484" lat="58.4040750022" lon="7.95411944307">
		<tag k="name" v="Hestekjeksteinen" />
		<tag k="natural" v="stone" />
		<tag k="ssr:stedsnr" v="151911" />
	</node>
	<node id="-544481" lat="58.3469638916" lon="7.98492222239">
		<tag k="name" v="Langemyr" />
		<tag k="natural" v="wetland" />
		<tag k="ssr:stedsnr" v="151897" />
	</node>
	<node id="-544475" lat="58.4632972235" lon="7.84910000164">
		<tag k="name" v="Dyblemyr" />
		<tag k="natural" v="wetland" />
		<tag k="ssr:stedsnr" v="151857" />
	</node>
	<node id="-544473" lat="58.4598250039" lon="7.87613334149">
		<tag k="name" v="Byttingsmyr" />
		<tag k="natural" v="wetland" />
		<tag k="ssr:stedsnr" v="151847" />
	</node>
	<node id="-544471" lat="58.4590083323" lon="7.91237778489">
		<tag k="name" v="Storste" />
		<tag k="natural" v="wetland" />
		<tag k="ssr:stedsnr" v="151837" />
	</node>
	<node id="-544470" lat="58.4420555587" lon="7.90931943876">
		<tag k="name" v="Storekart" />
		<tag k="natural" v="wetland" />
		<tag k="ssr:stedsnr" v="151827" />
	</node>
	<node id="-544465" lat="58.4286472199" lon="7.939047229">
		<tag k="name" v="Langemyr" />
		<tag k="natural" v="wetland" />
		<tag k="ssr:stedsnr" v="151797" />
	</node>
	<node id="-544458" lat="58.4115111072" lon="7.96832221416">
		<tag k="name" v="Tømmermyrane" />
		<tag k="natural" v="wetland" />
		<tag k="ssr:stedsnr" v="151747" />
	</node>
	<node id="-544457" lat="58.4118805547" lon="7.97361388139">
		<tag k="name" v="Søndagskarten" />
		<tag k="natural" v="wetland" />
		<tag k="ssr:stedsnr" v="151746" />
	</node>
	<node id="-544456" lat="58.5417527812" lon="7.89549999943">
		<tag k="name" v="Ormeslått" />
		<tag k="natural" v="wetland" />
		<tag k="ssr:stedsnr" v="151726" />
	</node>
	<node id="-544450" lat="58.5149777779" lon="7.88688054869">
		<tag k="name" v="Stemmyr" />
		<tag k="natural" v="wetland" />
		<tag k="ssr:stedsnr" v="151682" />
	</node>
	<node id="-544449" lat="58.5004916639" lon="7.88236666873">
		<tag k="name" v="Liestølmyra" />
		<tag k="natural" v="wetland" />
		<tag k="ssr:stedsnr" v="151677" />
	</node>
	<node id="-544448" lat="58.4963611129" lon="7.87165278187">
		<tag k="name" v="Dalemyr" />
		<tag k="natural" v="wetland" />
		<tag k="ssr:stedsnr" v="151673" />
	</node>
	<node id="-544447" lat="58.5039666648" lon="7.85542500074">
		<tag k="name" v="Andresslåtten" />
		<tag k="natural" v="wetland" />
		<tag k="ssr:stedsnr" v="151664" />
	</node>
	<node id="-544445" lat="58.4984444452" lon="7.96928888657">
		<tag k="name" v="Myrbotn" />
		<tag k="natural" v="wetland" />
		<tag k="ssr:stedsnr" v="151498" />
	</node>
	<node id="-544440" lat="58.4776944473" lon="8.00319722229">
		<tag k="name" v="Melandsmyra" />
		<tag k="natural" v="wetland" />
		<tag k="ssr:stedsnr" v="151478" />
	</node>
	<node id="-544438" lat="58.4763388872" lon="8.0195499932">
		<tag k="name" v="Gillsmyr" />
		<tag k="natural" v="wetland" />
		<tag k="ssr:stedsnr" v="151469" />
	</node>
	<node id="-544428" lat="58.3528250001" lon="7.93843888914">
		<tag k="name" v="Øygardsmyra" />
		<tag k="natural" v="wetland" />
		<tag k="ssr:stedsnr" v="151264" />
	</node>
	<node id="-544427" lat="58.4194472224" lon="7.85800000113">
		<tag k="name" v="Olavskjerr" />
		<tag k="natural" v="wetland" />
		<tag k="ssr:stedsnr" v="151239" />
	</node>
	<node id="-544426" lat="58.4461972239" lon="7.83262500338">
		<tag k="name" v="Vestre Langsheimyr" />
		<tag k="natural" v="wetland" />
		<tag k="ssr:stedsnr" v="151193" />
	</node>
	<node id="-544423" lat="58.3811416684" lon="7.93249445132">
		<tag k="name" v="Honnemyr" />
		<tag k="natural" v="wetland" />
		<tag k="ssr:stedsnr" v="151169" />
	</node>
	<node id="-544422" lat="58.4837222205" lon="7.90614722677">
		<tag k="name" v="Dalmyrane" />
		<tag k="natural" v="wetland" />
		<tag k="ssr:stedsnr" v="151661" />
	</node>
	<node id="-544420" lat="58.4947555548" lon="7.94149444403">
		<tag k="name" v="Øygardsmyra" />
		<tag k="natural" v="wetland" />
		<tag k="ssr:stedsnr" v="151650" />
	</node>
	<node id="-544418" lat="58.4492861075" lon="7.95210000642">
		<tag k="name" v="Lunnemyrane" />
		<tag k="natural" v="wetland" />
		<tag k="ssr:stedsnr" v="151586" />
	</node>
	<node id="-544415" lat="58.4379277815" lon="7.98429166821">
		<tag k="name" v="Svolesteinen" />
		<tag k="natural" v="stone" />
		<tag k="ssr:stedsnr" v="151569" />
	</node>
	<node id="-544411" lat="58.4081694481" lon="7.88060555854">
		<tag k="name" v="Frøysådalsteane" />
		<tag k="natural" v="wetland" />
		<tag k="ssr:stedsnr" v="151067" />
	</node>
	<node id="-544408" lat="58.4079138847" lon="7.88508333189">
		<tag k="name" v="Holtane" />
		<tag k="place" v="locality" />
		<tag k="ssr:stedsnr" v="151054" />
	</node>
	<node id="-544405" lat="58.3910611119" lon="7.90710000149">
		<tag k="name" v="Røyrmyrane" />
		<tag k="natural" v="wetland" />
		<tag k="ssr:stedsnr" v="151034" />
	</node>
	<node id="-544394" lat="58.5443250001" lon="7.9014805571">
		<tag k="alt_name" v="Dyplemyr" />
		<tag k="name" v="Dyblemyr" />
		<tag k="natural" v="wetland" />
		<tag k="ssr:stedsnr" v="122655" />
	</node>
	<node id="-544377" lat="58.4892555529" lon="7.81782777817">
		<tag k="name" v="Sauesteane" />
		<tag k="natural" v="wetland" />
		<tag k="ssr:stedsnr" v="91993" />
	</node>
	<node id="-544371" lat="58.4022638921" lon="7.96425833957">
		<tag k="name" v="Skrubbemyr" />
		<tag k="natural" v="wetland" />
		<tag k="ssr:stedsnr" v="91941" />
	</node>
	<node id="-544370" lat="58.4052861077" lon="7.96539722979">
		<tag k="name" v="Langemyr" />
		<tag k="natural" v="wetland" />
		<tag k="ssr:stedsnr" v="91936" />
	</node>
	<node id="-544366" lat="58.3563027799" lon="7.95630555323">
		<tag k="name" v="Myklandsmyr" />
		<tag k="natural" v="wetland" />
		<tag k="ssr:stedsnr" v="91914" />
	</node>
	<node id="-544363" lat="58.3654611077" lon="7.9592500071">
		<tag k="name" v="Butrømyr" />
		<tag k="natural" v="wetland" />
		<tag k="ssr:stedsnr" v="91901" />
	</node>
	<node id="-544358" lat="58.4863194463" lon="7.86800555501">
		<tag k="name" v="Djupemyr" />
		<tag k="natural" v="wetland" />
		<tag k="ssr:stedsnr" v="91884" />
	</node>
	<node id="-544356" lat="58.4563750038" lon="7.89259166782">
		<tag k="name" v="Limyr" />
		<tag k="natural" v="wetland" />
		<tag k="ssr:stedsnr" v="91850" />
	</node>
	<node id="-544350" lat="58.4697166674" lon="7.93309722754">
		<tag k="name" v="Stoblemyr" />
		<tag k="natural" v="wetland" />
		<tag k="ssr:stedsnr" v="91818" />
	</node>
	<node id="-544348" lat="58.4456944442" lon="7.90278055888">
		<tag k="name" v="Helenesmyr" />
		<tag k="natural" v="wetland" />
		<tag k="ssr:stedsnr" v="91813" />
	</node>
	<node id="-544344" lat="58.5307611087" lon="7.89597222313">
		<tag k="name" v="Kartane" />
		<tag k="natural" v="wetland" />
		<tag k="ssr:stedsnr" v="91761" />
	</node>
	<node id="-544339" lat="58.5490555537" lon="7.92083888264">
		<tag k="name" v="Fjellslått" />
		<tag k="natural" v="wetland" />
		<tag k="ssr:stedsnr" v="91729" />
	</node>
	<node id="-544334" lat="58.5116749968" lon="7.88999166621">
		<tag k="name" v="Øygardsmyrane" />
		<tag k="natural" v="wetland" />
		<tag k="ssr:stedsnr" v="91697" />
	</node>
	<node id="-544333" lat="58.5010555529" lon="7.87615833194">
		<tag k="name" v="Leitingsmyr" />
		<tag k="natural" v="wetland" />
		<tag k="ssr:stedsnr" v="91686" />
	</node>
	<node id="-544331" lat="58.4839777735" lon="7.91494444589">
		<tag k="name" v="Blåmyr" />
		<tag k="natural" v="wetland" />
		<tag k="ssr:stedsnr" v="91669" />
	</node>
	<node id="-544324" lat="58.4653388917" lon="7.96223611664">
		<tag k="name" v="Sauestøl" />
		<tag k="place" v="locality" />
		<tag k="ssr:stedsnr" v="91568" />
	</node>
	<node id="-544323" lat="58.4604166687" lon="7.96916388437">
		<tag k="name" v="Nedre Oksemyr" />
		<tag k="natural" v="wetland" />
		<tag k="ssr:stedsnr" v="91566" />
	</node>
	<node id="-544320" lat="58.415305556" lon="7.98640277364">
		<tag k="name" v="Lundane" />
		<tag k="natural" v="wetland" />
		<tag k="ssr:stedsnr" v="91546" />
	</node>
	<node id="-544309" lat="58.460233329" lon="8.05957221901">
		<tag k="name" v="Hesteheimyra" />
		<tag k="natural" v="wetland" />
		<tag k="ssr:stedsnr" v="91414" />
	</node>
	<node id="-544304" lat="58.3505972253" lon="7.92140277569">
		<tag k="name" v="Steane" />
		<tag k="natural" v="wetland" />
		<tag k="ssr:stedsnr" v="91265" />
	</node>
	<node id="-544303" lat="58.4245861073" lon="7.88348333799">
		<tag k="name" v="Furemyr" />
		<tag k="natural" v="wetland" />
		<tag k="ssr:stedsnr" v="91253" />
	</node>
	<node id="-544302" lat="58.4105361119" lon="7.85946388476">
		<tag k="name" v="Nedre Heimyr" />
		<tag k="natural" v="wetland" />
		<tag k="ssr:stedsnr" v="91213" />
	</node>
	<node id="-544300" lat="58.4158305574" lon="7.81631666822">
		<tag k="name" v="Ratelimyr" />
		<tag k="natural" v="wetland" />
		<tag k="ssr:stedsnr" v="91180" />
	</node>
	<node id="-544298" lat="58.3622333362" lon="7.93003611271">
		<tag k="name" v="Severinsteane" />
		<tag k="natural" v="wetland" />
		<tag k="ssr:stedsnr" v="91137" />
	</node>
	<node id="-544297" lat="58.3689972223" lon="7.93659444083">
		<tag k="name" v="Steane" />
		<tag k="natural" v="wetland" />
		<tag k="ssr:stedsnr" v="91129" />
	</node>
	<node id="-544296" lat="58.3374888933" lon="7.96213333444">
		<tag k="name" v="Torskjærr" />
		<tag k="natural" v="wetland" />
		<tag k="ssr:stedsnr" v="91121" />
	</node>
	<node id="-544291" lat="58.3672222195" lon="7.95931945113">
		<tag k="name" v="Kjellingmyr" />
		<tag k="natural" v="wetland" />
		<tag k="ssr:stedsnr" v="91089" />
	</node>
	<node id="-544282" lat="58.3990055591" lon="7.88119444485">
		<tag k="name" v="Trandlekjerret" />
		<tag k="natural" v="wetland" />
		<tag k="ssr:stedsnr" v="91055" />
	</node>
	<node id="-544279" lat="58.3881638892" lon="7.94205276997">
		<tag k="name" v="Tallakskart" />
		<tag k="natural" v="wetland" />
		<tag k="ssr:stedsnr" v="91017" />
	</node>
	<node id="-544278" lat="58.4397166674" lon="7.890083325">
		<tag k="name" v="Nordjordslåttane" />
		<tag k="natural" v="wetland" />
		<tag k="ssr:stedsnr" v="91012" />
	</node>
	<node id="-544265" lat="58.4625027755" lon="7.83354445098">
		<tag k="name" v="Jebremyr" />
		<tag k="natural" v="wetland" />
		<tag k="ssr:stedsnr" v="30975" />
	</node>
	<node id="-544260" lat="58.3938805567" lon="8.01957776931">
		<tag k="name" v="Store Steemyr" />
		<tag k="natural" v="wetland" />
		<tag k="ssr:stedsnr" v="30959" />
	</node>
	<node id="-544256" lat="58.3911305598" lon="7.9996222167">
		<tag k="name" v="Storemyr" />
		<tag k="natural" v="wetland" />
		<tag k="ssr:stedsnr" v="30933" />
	</node>
	<node id="-544247" lat="58.3752361126" lon="8.01233332494">
		<tag k="name" v="Knipemyr" />
		<tag k="natural" v="wetland" />
		<tag k="ssr:stedsnr" v="30875" />
	</node>
	<node id="-544244" lat="58.4544194447" lon="7.85423333779">
		<tag k="loc_name" v="Stenulkjerrane" />
		<tag k="name" v="Steinuglkjerrane" />
		<tag k="natural" v="wetland" />
		<tag k="ssr:stedsnr" v="30852" />
	</node>
	<node id="-544243" lat="58.4924527808" lon="7.87944167395">
		<tag k="name" v="Vassganga" />
		<tag k="natural" v="wetland" />
		<tag k="ssr:stedsnr" v="30849" />
	</node>
	<node id="-544240" lat="58.4599833359" lon="7.86970000646">
		<tag k="name" v="Stuekjerrmyra" />
		<tag k="natural" v="wetland" />
		<tag k="ssr:stedsnr" v="30838" />
	</node>
	<node id="-544239" lat="58.4613111129" lon="7.88121389208">
		<tag k="name" v="Kjørkelonmyra" />
		<tag k="natural" v="wetland" />
		<tag k="ssr:stedsnr" v="30836" />
	</node>
	<node id="-544235" lat="58.5125999991" lon="7.92671388732">
		<tag k="name" v="Kringlemyr" />
		<tag k="natural" v="wetland" />
		<tag k="ssr:stedsnr" v="30627" />
	</node>
	<node id="-544232" lat="58.4792138859" lon="7.93781944463">
		<tag k="name" v="Heiemyr" />
		<tag k="natural" v="wetland" />
		<tag k="ssr:stedsnr" v="30618" />
	</node>
	<node id="-544229" lat="58.4482916624" lon="7.9992611135">
		<tag k="name" v="Trollmyr" />
		<tag k="natural" v="wetland" />
		<tag k="ssr:stedsnr" v="30561" />
	</node>
	<node id="-544225" lat="58.4596416676" lon="7.98088611739">
		<tag k="name" v="Kjerringmyr" />
		<tag k="natural" v="wetland" />
		<tag k="ssr:stedsnr" v="30546" />
	</node>
	<node id="-544224" lat="58.4585555564" lon="7.98871389232">
		<tag k="name" v="Trømyr" />
		<tag k="natural" v="wetland" />
		<tag k="ssr:stedsnr" v="30535" />
	</node>
	<node id="-544221" lat="58.4209638921" lon="8.0145861177">
		<tag k="name" v="Den vide myra" />
		<tag k="natural" v="wetland" />
		<tag k="ssr:stedsnr" v="30516" />
	</node>
	<node id="-544220" lat="58.4136972178" lon="8.00477221918">
		<tag k="name" v="Storeslåtta" />
		<tag k="natural" v="wetland" />
		<tag k="ssr:stedsnr" v="30512" />
	</node>
	<node id="-544213" lat="58.4944638875" lon="7.96191666681">
		<tag k="name" v="Nedre Nordslåtten" />
		<tag k="natural" v="wetland" />
		<tag k="ssr:stedsnr" v="30481" />
	</node>
	<node id="-544208" lat="58.428930557" lon="8.06878611045">
		<tag k="name" v="Nilsesmyr" />
		<tag k="natural" v="wetland" />
		<tag k="ssr:stedsnr" v="30427" />
	</node>
	<node id="-544201" lat="58.4164472189" lon="7.87668333084">
		<tag k="name" v="Dyblemyr" />
		<tag k="natural" v="wetland" />
		<tag k="ssr:stedsnr" v="30244" />
	</node>
	<node id="-544195" lat="58.4291111089" lon="7.94486388703">
		<tag k="name" v="Karismyr" />
		<tag k="natural" v="wetland" />
		<tag k="ssr:stedsnr" v="30791" />
	</node>
	<node id="-544188" lat="58.4484805544" lon="7.88946111927">
		<tag k="name" v="Midtbekkmyrane" />
		<tag k="natural" v="wetland" />
		<tag k="ssr:stedsnr" v="30010" />
	</node>
	<node id="-544187" lat="58.4489111132" lon="7.86154443669">
		<tag k="name" v="Tolleivslåtta" />
		<tag k="natural" v="wetland" />
		<tag k="ssr:stedsnr" v="30008" />
	</node>
	<node id="-544183" lat="58.3394277738" lon="7.93156110741">
		<tag k="name" v="Tallaksslåttene" />
		<tag k="natural" v="wetland" />
		<tag k="ssr:stedsnr" v="30163" />
	</node>
	<node id="-544181" lat="58.3875333335" lon="7.94326110497">
		<tag k="name" v="Bjørnekjerret" />
		<tag k="natural" v="wetland" />
		<tag k="ssr:stedsnr" v="30151" />
	</node>
	<node id="-544180" lat="58.3624333308" lon="7.94062221447">
		<tag k="name" v="Lillemyra" />
		<tag k="natural" v="wetland" />
		<tag k="ssr:stedsnr" v="30136" />
	</node>
	<node id="-544159" lat="58.4818694485" lon="7.93358889689">
		<tag k="name" v="Orremyr" />
		<tag k="natural" v="wetland" />
		<tag k="ssr:stedsnr" v="940650" />
	</node>
	<node id="-544157" lat="58.4785805571" lon="7.92137499732">
		<tag k="name" v="Skinnarskogen" />
		<tag k="place" v="locality" />
		<tag k="ssr:stedsnr" v="940615" />
	</node>
	<node id="-544156" lat="58.448747222" lon="8.0215444505">
		<tag k="name" v="Grasdalmyra" />
		<tag k="natural" v="wetland" />
		<tag k="ssr:stedsnr" v="940607" />
	</node>
	<node id="-544150" lat="58.39636389" lon="8.06218054729">
		<tag k="name" v="Byttingsmyr" />
		<tag k="natural" v="wetland" />
		<tag k="ssr:stedsnr" v="880458" />
	</node>
	<node id="-544148" lat="58.4852999958" lon="7.98569444784">
		<tag k="name" v="Storslåtten" />
		<tag k="natural" v="wetland" />
		<tag k="ssr:stedsnr" v="880511" />
	</node>
	<node id="-544147" lat="58.4822333367" lon="7.95372778158">
		<tag k="name" v="Ranestadmyra" />
		<tag k="natural" v="wetland" />
		<tag k="ssr:stedsnr" v="880505" />
	</node>
	<node id="-544137" lat="58.3972777795" lon="7.98114444259">
		<tag k="name" v="Snømyr" />
		<tag k="natural" v="wetland" />
		<tag k="ssr:stedsnr" v="940927" />
	</node>
	<node id="-544135" lat="58.3461583322" lon="7.95831111489">
		<tag k="name" v="Rundemyr" />
		<tag k="natural" v="wetland" />
		<tag k="ssr:stedsnr" v="940917" />
	</node>
	<node id="-544133" lat="58.4820944483" lon="7.86451110723">
		<tag k="name" v="Byttingsmyr" />
		<tag k="natural" v="wetland" />
		<tag k="ssr:stedsnr" v="940880" />
	</node>
	<node id="-544132" lat="58.4751361105" lon="7.84125556164">
		<tag k="name" v="Dukane" />
		<tag k="place" v="locality" />
		<tag k="ssr:stedsnr" v="940870" />
	</node>
	<node id="-544129" lat="58.4670999958" lon="7.871105564">
		<tag k="name" v="Æretjønnmyra" />
		<tag k="natural" v="wetland" />
		<tag k="ssr:stedsnr" v="940854" />
	</node>
	<node id="-544128" lat="58.4667000034" lon="7.84779444638">
		<tag k="name" v="Snorremyr" />
		<tag k="natural" v="wetland" />
		<tag k="ssr:stedsnr" v="940848" />
	</node>
	<node id="-544126" lat="58.4626722248" lon="7.89525277719">
		<tag k="name" v="Igletjønnmyra" />
		<tag k="natural" v="wetland" />
		<tag k="ssr:stedsnr" v="940836" />
	</node>
	<node id="-544125" lat="58.4709583354" lon="7.93764444641">
		<tag k="name" v="Grønemyr" />
		<tag k="natural" v="wetland" />
		<tag k="ssr:stedsnr" v="940833" />
	</node>
	<node id="-544120" lat="58.4355500027" lon="7.91842777326">
		<tag k="name" v="Storemyr" />
		<tag k="natural" v="wetland" />
		<tag k="ssr:stedsnr" v="940811" />
	</node>
	<node id="-544117" lat="58.4131222232" lon="7.90084167467">
		<tag k="name" v="Gumpemyr" />
		<tag k="natural" v="wetland" />
		<tag k="ssr:stedsnr" v="940796" />
	</node>
	<node id="-544116" lat="58.4836444452" lon="7.82366111314">
		<tag k="name" v="Langemyr" />
		<tag k="natural" v="wetland" />
		<tag k="ssr:stedsnr" v="940768" />
	</node>
	<node id="-544114" lat="58.5215361149" lon="7.91547778588">
		<tag k="name" v="Eielsmyr" />
		<tag k="natural" v="wetland" />
		<tag k="ssr:stedsnr" v="940743" />
	</node>
	<node id="-544110" lat="58.5277277743" lon="7.92233889349">
		<tag k="name" v="Steane" />
		<tag k="natural" v="wetland" />
		<tag k="ssr:stedsnr" v="940734" />
	</node>
	<node id="-544109" lat="58.4204583299" lon="7.94867500725">
		<tag k="name" v="Knutedalsmyr" />
		<tag k="natural" v="wetland" />
		<tag k="ssr:stedsnr" v="940726" />
	</node>
	<node id="-544106" lat="58.5334333303" lon="7.90908055142">
		<tag k="name" v="Grånåskarten" />
		<tag k="natural" v="wetland" />
		<tag k="ssr:stedsnr" v="940687" />
	</node>
	<node id="-544101" lat="58.4445499983" lon="8.03286111972">
		<tag k="name" v="Raundalsmyra" />
		<tag k="natural" v="wetland" />
		<tag k="ssr:stedsnr" v="940597" />
	</node>
	<node id="-544098" lat="58.4620416647" lon="8.00375277295">
		<tag k="name" v="Storemyr" />
		<tag k="natural" v="wetland" />
		<tag k="ssr:stedsnr" v="940573" />
	</node>
	<node id="-544093" lat="58.4716138845" lon="8.00679999249">
		<tag k="name" v="Bostemyr" />
		<tag k="natural" v="wetland" />
		<tag k="ssr:stedsnr" v="940528" />
	</node>
	<node id="-544090" lat="58.4634416679" lon="8.02462500347">
		<tag k="name" v="Olavsslåtte" />
		<tag k="natural" v="wetland" />
		<tag k="ssr:stedsnr" v="940515" />
	</node>
	<node id="-544086" lat="58.4979083311" lon="7.98301111869">
		<tag k="name" v="Dalemyra" />
		<tag k="natural" v="wetland" />
		<tag k="ssr:stedsnr" v="940463" />
	</node>
	<node id="-544085" lat="58.4890638851" lon="7.95308333795">
		<tag k="name" v="Trollmyr" />
		<tag k="natural" v="wetland" />
		<tag k="ssr:stedsnr" v="940461" />
	</node>
	<node id="-544076" lat="58.4393861123" lon="8.06448054872">
		<tag k="name" v="Småmyran" />
		<tag k="natural" v="wetland" />
		<tag k="ssr:stedsnr" v="940422" />
	</node>
	<node id="-544075" lat="58.4170111076" lon="8.0857444383">
		<tag k="name" v="Bukksundmoen" />
		<tag k="place" v="locality" />
		<tag k="ssr:stedsnr" v="940413" />
	</node>
	<node id="-544074" lat="58.4196111102" lon="7.83235277492">
		<tag k="name" v="Leiuskjerret" />
		<tag k="natural" v="wetland" />
		<tag k="ssr:stedsnr" v="940347" />
	</node>
	<node id="-544067" lat="58.4128694486" lon="7.83332222058">
		<tag k="name" v="Surtemyr" />
		<tag k="natural" v="wetland" />
		<tag k="old_name" v="Surtyemyr" />
		<tag k="ssr:stedsnr" v="940183" />
	</node>
	<node id="-544063" lat="58.3838750036" lon="7.92915555498">
		<tag k="name" v="Koressmyr" />
		<tag k="natural" v="wetland" />
		<tag k="ssr:stedsnr" v="940159" />
	</node>
	<node id="-544052" lat="58.3886972248" lon="7.93092499287">
		<tag k="name" v="Langemyr" />
		<tag k="natural" v="wetland" />
		<tag k="ssr:stedsnr" v="940020" />
	</node>
	<node id="-544046" lat="58.3986111123" lon="7.98179167341">
		<tag k="name" v="Einermyrane" />
		<tag k="natural" v="wetland" />
		<tag k="ssr:stedsnr" v="819919" />
	</node>
	<node id="-544041" lat="58.4912305566" lon="7.89415554713">
		<tag k="name" v="Dyblemyr" />
		<tag k="natural" v="wetland" />
		<tag k="ssr:stedsnr" v="819873" />
	</node>
	<node id="-544040" lat="58.4773027818" lon="7.85773333414">
		<tag k="name" v="Dretkjerrane" />
		<tag k="natural" v="wetland" />
		<tag k="ssr:stedsnr" v="819868" />
	</node>
	<node id="-544021" lat="58.4492166703" lon="7.84860833281">
		<tag k="name" v="Holeslåttane" />
		<tag k="natural" v="wetland" />
		<tag k="ssr:stedsnr" v="819023" />
	</node>
	<node id="-544020" lat="58.4468888895" lon="7.84825554906">
		<tag k="name" v="Klappeslåtta" />
		<tag k="natural" v="wetland" />
		<tag k="ssr:stedsnr" v="819022" />
	</node>
	<node id="-544019" lat="58.4384694481" lon="7.87843333154">
		<tag k="name" v="Holtane" />
		<tag k="place" v="locality" />
		<tag k="ssr:stedsnr" v="819013" />
	</node>
	<node id="-544017" lat="58.4453833377" lon="7.87118055586">
		<tag k="name" v="Elgsvik" />
		<tag k="natural" v="wetland" />
		<tag k="ssr:stedsnr" v="819010" />
	</node>
	<node id="-544007" lat="58.4015166653" lon="7.94810277763">
		<tag k="name" v="Øygardsmyra" />
		<tag k="natural" v="wetland" />
		<tag k="ssr:stedsnr" v="758932" />
	</node>
	<node id="-544006" lat="58.4043305528" lon="7.98018332996">
		<tag k="name" v="Kragsteinmyrane" />
		<tag k="natural" v="wetland" />
		<tag k="ssr:stedsnr" v="758921" />
	</node>
	<node id="-543998" lat="58.5555194447" lon="7.93060555846">
		<tag k="name" v="Dyplemyr" />
		<tag k="natural" v="wetland" />
		<tag k="ssr:stedsnr" v="758722" />
	</node>
	<node id="-543988" lat="58.4177666659" lon="7.84045277395">
		<tag k="name" v="Langemyr" />
		<tag k="natural" v="wetland" />
		<tag k="ssr:stedsnr" v="758256" />
	</node>
	<node id="-543985" lat="58.4088083306" lon="7.87563888217">
		<tag k="name" v="Kjerrane" />
		<tag k="natural" v="wetland" />
		<tag k="ssr:stedsnr" v="758064" />
	</node>
	<node id="-543979" lat="58.5387333333" lon="7.91524443821">
		<tag k="name" v="Storemyr" />
		<tag k="natural" v="wetland" />
		<tag k="ssr:stedsnr" v="911696" />
	</node>
	<node id="-543941" lat="58.3936027793" lon="7.95628055566">
		<tag k="name" v="Kartane" />
		<tag k="natural" v="wetland" />
		<tag k="ssr:stedsnr" v="697923" />
	</node>
	<node id="-543940" lat="58.3493083352" lon="7.99428610793">
		<tag k="name" v="Raptemyr" />
		<tag k="natural" v="wetland" />
		<tag k="ssr:stedsnr" v="697908" />
	</node>
	<node id="-543938" lat="58.5156638852" lon="7.88256666224">
		<tag k="name" v="Rundemyr" />
		<tag k="natural" v="wetland" />
		<tag k="ssr:stedsnr" v="697666" />
	</node>
	<node id="-543933" lat="58.4127944482" lon="7.94073055539">
		<tag k="name" v="Bjørnskjeggmyr" />
		<tag k="natural" v="wetland" />
		<tag k="ssr:stedsnr" v="697760" />
	</node>
	<node id="-543932" lat="58.4760861078" lon="7.82531945105">
		<tag k="name" v="Buemyrane" />
		<tag k="natural" v="wetland" />
		<tag k="ssr:stedsnr" v="697754" />
	</node>
	<node id="-543930" lat="58.4174055599" lon="7.97323333801">
		<tag k="name" v="Storemyr" />
		<tag k="place" v="locality" />
		<tag k="ssr:stedsnr" v="697716" />
	</node>
	<node id="-543929" lat="58.4196861119" lon="7.98756944372">
		<tag k="name" v="Surtemyrane" />
		<tag k="natural" v="wetland" />
		<tag k="ssr:stedsnr" v="697710" />
	</node>
	<node id="-543928" lat="58.5433583343" lon="7.89463889316">
		<tag k="name" v="Bøljemyr" />
		<tag k="natural" v="wetland" />
		<tag k="ssr:stedsnr" v="697704" />
	</node>
	<node id="-543927" lat="58.4462555593" lon="7.95410833039">
		<tag k="name" v="Storemyr" />
		<tag k="natural" v="wetland" />
		<tag k="ssr:stedsnr" v="697566" />
	</node>
	<node id="-543925" lat="58.4807472265" lon="8.00736110652">
		<tag k="name" v="Stemmyr" />
		<tag k="natural" v="wetland" />
		<tag k="ssr:stedsnr" v="697455" />
	</node>
	<node id="-543923" lat="58.4311472214" lon="8.07625554802">
		<tag k="name" v="Gjevreismyr" />
		<tag k="natural" v="wetland" />
		<tag k="ssr:stedsnr" v="697427" />
	</node>
	<node id="-543921" lat="58.5056777799" lon="7.93018888942">
		<tag k="landuse" v="quarry" />
		<tag k="name" v="Heiegruva" />
		<tag k="ssr:stedsnr" v="697412" />
	</node>
	<node id="-543918" lat="58.4220388867" lon="8.00693889077">
		<tag k="name" v="Slettansmyrane" />
		<tag k="natural" v="wetland" />
		<tag k="ssr:stedsnr" v="697509" />
	</node>
	<node id="-543917" lat="58.4214111083" lon="8.00356110269">
		<tag k="name" v="Viersteinen" />
		<tag k="natural" v="stone" />
		<tag k="ssr:stedsnr" v="697506" />
	</node>
	<node id="-543916" lat="58.4237500022" lon="7.82296110412">
		<tag k="name" v="Blåmyr" />
		<tag k="natural" v="wetland" />
		<tag k="ssr:stedsnr" v="697359" />
	</node>
	<node id="-543909" lat="58.3971055537" lon="7.87043888422">
		<tag k="name" v="Knutsmyr" />
		<tag k="natural" v="wetland" />
		<tag k="ssr:stedsnr" v="697063" />
	</node>
	<node id="-543906" lat="58.4455027783" lon="7.86018610543">
		<tag k="name" v="Bassmoen" />
		<tag k="natural" v="wetland" />
		<tag k="ssr:stedsnr" v="697009" />
	</node>
	<node id="-543903" lat="58.3865444428" lon="7.9952222151">
		<tag k="name" v="Botreismyr" />
		<tag k="natural" v="wetland" />
		<tag k="ssr:stedsnr" v="697117" />
	</node>
	<node id="-543901" lat="58.3763000017" lon="7.9820805592">
		<tag k="name" v="Lægemyr" />
		<tag k="natural" v="wetland" />
		<tag k="ssr:stedsnr" v="697107" />
	</node>
	<node id="-543900" lat="58.4941666672" lon="7.79006111127">
		<tag k="name" v="Svineheimyrane" />
		<tag k="natural" v="wetland" />
		<tag k="ssr:stedsnr" v="880997" />
	</node>
	<node id="-543897" lat="58.4898611095" lon="7.81517776927">
		<tag k="name" v="Kringlemyr" />
		<tag k="natural" v="wetland" />
		<tag k="ssr:stedsnr" v="880991" />
	</node>
	<node id="-543896" lat="58.4936333294" lon="7.80840277272">
		<tag k="name" v="Storemyr" />
		<tag k="natural" v="wetland" />
		<tag k="ssr:stedsnr" v="880988" />
	</node>
	<node id="-543883" lat="58.3700500039" lon="8.01643334138">
		<tag k="name" v="Langfredagsslåtta" />
		<tag k="natural" v="wetland" />
		<tag k="ssr:stedsnr" v="880880" />
	</node>
	<node id="-543878" lat="58.4549250016" lon="7.84110833928">
		<tag k="name" v="Rosåsmyr" />
		<tag k="natural" v="wetland" />
		<tag k="ssr:stedsnr" v="880862" />
	</node>
	<node id="-543877" lat="58.4699194421" lon="7.86608888755">
		<tag k="name" v="Storemyr" />
		<tag k="natural" v="wetland" />
		<tag k="ssr:stedsnr" v="880853" />
	</node>
	<node id="-543874" lat="58.4720722215" lon="7.93643888281">
		<tag k="name" v="Orremyr" />
		<tag k="natural" v="wetland" />
		<tag k="ssr:stedsnr" v="880831" />
	</node>
	<node id="-543870" lat="58.4161805539" lon="7.93351944172">
		<tag k="name" v="Knutemyr" />
		<tag k="natural" v="wetland" />
		<tag k="ssr:stedsnr" v="880792" />
	</node>
	<node id="-543869" lat="58.4745555575" lon="7.83480555532">
		<tag k="name" v="Tingbakksmyrane" />
		<tag k="natural" v="wetland" />
		<tag k="ssr:stedsnr" v="880783" />
	</node>
	<node id="-543867" lat="58.4288027735" lon="7.90133332898">
		<tag k="name" v="Orreleiken" />
		<tag k="place" v="locality" />
		<tag k="ssr:stedsnr" v="880778" />
	</node>
	<node id="-543862" lat="58.5452888887" lon="7.90512499631">
		<tag k="name" v="Stemslåttane" />
		<tag k="natural" v="wetland" />
		<tag k="ssr:stedsnr" v="880741" />
	</node>
	<node id="-543858" lat="58.5027111086" lon="7.83689166891">
		<tag k="name" v="Bjørnemyr" />
		<tag k="natural" v="wetland" />
		<tag k="ssr:stedsnr" v="880698" />
	</node>
	<node id="-543857" lat="58.4858305579" lon="7.91215554744">
		<tag k="name" v="Bergvakarten" />
		<tag k="natural" v="wetland" />
		<tag k="ssr:stedsnr" v="880691" />
	</node>
	<node id="-543852" lat="58.4460388902" lon="8.01095833744">
		<tag k="name" v="Trollemyr" />
		<tag k="natural" v="wetland" />
		<tag k="ssr:stedsnr" v="880660" />
	</node>
	<node id="-543848" lat="58.435091664" lon="8.0522416747">
		<tag k="name" v="Småmyrane" />
		<tag k="natural" v="wetland" />
		<tag k="ssr:stedsnr" v="880640" />
	</node>
	<node id="-543842" lat="58.455805552" lon="8.03501944315">
		<tag k="name" v="Stakksneisvollmyr" />
		<tag k="natural" v="wetland" />
		<tag k="ssr:stedsnr" v="880614" />
	</node>
	<node id="-543833" lat="58.4592999961" lon="7.99054167009">
		<tag k="name" v="Bustøkjerrane" />
		<tag k="natural" v="wetland" />
		<tag k="ssr:stedsnr" v="880581" />
	</node>
	<node id="-543829" lat="58.4648611113" lon="8.03920277181">
		<tag k="name" v="Ekorndalsmyra" />
		<tag k="natural" v="wetland" />
		<tag k="ssr:stedsnr" v="880557" />
	</node>
	<node id="-543828" lat="58.4681916636" lon="8.04114444449">
		<tag k="name" v="Ekorndalskjerret" />
		<tag k="natural" v="wetland" />
		<tag k="ssr:stedsnr" v="880554" />
	</node>
	<node id="-543827" lat="58.4726694436" lon="8.03355554868">
		<tag k="name" v="Engestølvarden" />
		<tag k="natural" v="stone" />
		<tag k="ssr:stedsnr" v="880553" />
	</node>
	<node id="-543826" lat="58.4142222216" lon="7.9969583257">
		<tag k="name" v="Krossundane" />
		<tag k="natural" v="wetland" />
		<tag k="ssr:stedsnr" v="880545" />
	</node>
	<node id="-543824" lat="58.4746527772" lon="8.0129250073">
		<tag k="name" v="Bostemyr" />
		<tag k="natural" v="wetland" />
		<tag k="ssr:stedsnr" v="880452" />
	</node>
	<node id="-543823" lat="58.3880777757" lon="8.0596916657">
		<tag k="name" v="Haremyrane" />
		<tag k="natural" v="wetland" />
		<tag k="ssr:stedsnr" v="880449" />
	</node>
	<node id="-543819" lat="58.4459472258" lon="8.06222777447">
		<tag k="name" v="Skarkingsteinen" />
		<tag k="natural" v="stone" />
		<tag k="ssr:stedsnr" v="880422" />
	</node>
	<node id="-543815" lat="58.4341194465" lon="8.05766944684">
		<tag k="name" v="Tretteslåtta" />
		<tag k="natural" v="wetland" />
		<tag k="ssr:stedsnr" v="880382" />
	</node>
	<node id="-543811" lat="58.4242833356" lon="7.82769721827">
		<tag k="name" v="Orremyr" />
		<tag k="natural" v="wetland" />
		<tag k="ssr:stedsnr" v="880329" />
	</node>
	<node id="-543810" lat="58.4166916702" lon="7.82963056003">
		<tag k="name" v="Loneholtet" />
		<tag k="place" v="locality" />
		<tag k="ssr:stedsnr" v="880323" />
	</node>
	<node id="-543809" lat="58.4146694485" lon="7.82318333927">
		<tag k="name" v="Bjørkålmyr" />
		<tag k="natural" v="wetland" />
		<tag k="ssr:stedsnr" v="880322" />
	</node>
	<node id="-543807" lat="58.352811108" lon="7.93438055322">
		<tag k="name" v="Trandlemyrene" />
		<tag k="natural" v="wetland" />
		<tag k="ssr:stedsnr" v="880224" />
	</node>
	<node id="-543800" lat="58.4315055545" lon="7.87985833097">
		<tag k="name" v="Kvernhusmyr" />
		<tag k="natural" v="wetland" />
		<tag k="ssr:stedsnr" v="880127" />
	</node>
	<node id="-543789" lat="58.4419944486" lon="7.88155277097">
		<tag k="name" v="Røyrmyr" />
		<tag k="natural" v="wetland" />
		<tag k="ssr:stedsnr" v="880011" />
	</node>
	<node id="-543773" lat="58.4772388883" lon="7.88839166067">
		<tag k="name" v="Solbergkjerrane" />
		<tag k="natural" v="wetland" />
		<tag k="ssr:stedsnr" v="636863" />
	</node>
	<node id="-543772" lat="58.4750833352" lon="7.85671666294">
		<tag k="name" v="Kvernhausholtane" />
		<tag k="place" v="locality" />
		<tag k="ssr:stedsnr" v="636853" />
	</node>
	<node id="-543766" lat="58.4470055542" lon="7.9452777809">
		<tag k="name" v="Skjerperøys" />
		<tag k="natural" v="stone" />
		<tag k="ssr:stedsnr" v="636795" />
	</node>
	<node id="-543765" lat="58.417530559" lon="7.92776666451">
		<tag k="name" v="Skremyrane" />
		<tag k="natural" v="wetland" />
		<tag k="ssr:stedsnr" v="636784" />
	</node>
	<node id="-543763" lat="58.4262194469" lon="7.93278333776">
		<tag k="name" v="Eikmyr" />
		<tag k="natural" v="wetland" />
		<tag k="ssr:stedsnr" v="636765" />
	</node>
	<node id="-543758" lat="58.4663138886" lon="7.94875832997">
		<tag k="name" v="Langemyr" />
		<tag k="natural" v="wetland" />
		<tag k="ssr:stedsnr" v="636570" />
	</node>
	<node id="-543757" lat="58.4739444441" lon="8.00375555478">
		<tag k="name" v="Jøntesekk" />
		<tag k="natural" v="wetland" />
		<tag k="ssr:stedsnr" v="636566" />
	</node>
	<node id="-543756" lat="58.4563694473" lon="7.99903889646">
		<tag k="name" v="Orremyr" />
		<tag k="natural" v="wetland" />
		<tag k="ssr:stedsnr" v="636563" />
	</node>
	<node id="-543753" lat="58.4830027749" lon="7.98433055088">
		<tag k="name" v="Fjermedalsmyra" />
		<tag k="natural" v="wetland" />
		<tag k="ssr:stedsnr" v="636511" />
	</node>
	<node id="-543752" lat="58.484252774" lon="7.96342221995">
		<tag k="name" v="Jokelikjerrane" />
		<tag k="natural" v="wetland" />
		<tag k="ssr:stedsnr" v="636508" />
	</node>
	<node id="-543749" lat="58.4155805541" lon="7.83403611507">
		<tag k="name" v="Lonemyr" />
		<tag k="natural" v="wetland" />
		<tag k="ssr:stedsnr" v="636357" />
	</node>
	<node id="-543741" lat="58.4758222242" lon="8.02383055754">
		<tag k="name" v="Rønningen" />
		<tag k="natural" v="wetland" />
		<tag k="ssr:stedsnr" v="636459" />
	</node>
	<node id="-543738" lat="58.3180361121" lon="7.94611665857">
		<tag k="name" v="Søndagsgjætsla" />
		<tag k="place" v="locality" />
		<tag k="ssr:stedsnr" v="636154" />
	</node>
	<node id="-543736" lat="58.3761055528" lon="7.99681666879">
		<tag k="name" v="Beislemyr" />
		<tag k="natural" v="wetland" />
		<tag k="ssr:stedsnr" v="636107" />
	</node>
	<node id="-543733" lat="58.4112499991" lon="7.91154999474">
		<tag k="name" v="Fylsmyr" />
		<tag k="natural" v="wetland" />
		<tag k="ssr:stedsnr" v="636214" />
	</node>
	<node id="-543732" lat="58.4515111145" lon="7.86323333567">
		<tag k="name" v="Hellermyr" />
		<tag k="natural" v="wetland" />
		<tag k="ssr:stedsnr" v="636008" />
	</node>
	<node id="-543709" lat="58.3565805597" lon="7.99383610805">
		<tag k="name" v="Kverneslåtta" />
		<tag k="natural" v="wetland" />
		<tag k="ssr:stedsnr" v="576916" />
	</node>
	<node id="-543705" lat="58.4908305574" lon="7.88307221633">
		<tag k="name" v="Samlarmyrane" />
		<tag k="natural" v="wetland" />
		<tag k="ssr:stedsnr" v="576877" />
	</node>
	<node id="-543702" lat="58.4158527735" lon="8.02699721695">
		<tag k="name" v="Fjellslåtta" />
		<tag k="natural" v="wetland" />
		<tag k="ssr:stedsnr" v="576526" />
	</node>
	<node id="-543699" lat="58.4842805523" lon="8.00740555498">
		<tag k="name" v="Heståsmyra" />
		<tag k="natural" v="wetland" />
		<tag k="ssr:stedsnr" v="576504" />
	</node>
	<node id="-543696" lat="58.3720138857" lon="8.03858888483">
		<tag k="name" v="Blåmyr" />
		<tag k="natural" v="wetland" />
		<tag k="ssr:stedsnr" v="576072" />
	</node>
	<node id="-543693" lat="58.3795333366" lon="7.91861388355">
		<tag k="name" v="Morbrorsmyr" />
		<tag k="natural" v="wetland" />
		<tag k="ssr:stedsnr" v="576122" />
	</node>
	<node id="-543692" lat="58.4350861146" lon="7.88436388523">
		<tag k="name" v="Hommen" />
		<tag k="place" v="locality" />
		<tag k="ssr:stedsnr" v="576116" />
	</node>
	<node id="-543683" lat="58.5015944456" lon="7.82071110411">
		<tag k="name" v="Bjormyr" />
		<tag k="natural" v="wetland" />
		<tag k="ssr:stedsnr" v="697988" />
	</node>
	<node id="-543680" lat="58.4685500038" lon="7.83915000763">
		<tag k="name" v="Koldsnesmyrane" />
		<tag k="natural" v="wetland" />
		<tag k="ssr:stedsnr" v="697848" />
	</node>
	<node id="-543668" lat="58.5331944462" lon="7.89567222198">
		<tag k="name" v="Tommåsmyr" />
		<tag k="natural" v="wetland" />
		<tag k="ssr:stedsnr" v="697688" />
	</node>
	<node id="-543667" lat="58.5222416696" lon="7.87909444505">
		<tag k="name" v="Haugebakkmyrane" />
		<tag k="natural" v="wetland" />
		<tag k="ssr:stedsnr" v="697673" />
	</node>
	<node id="-543663" lat="58.4434166711" lon="7.91073333117">
		<tag k="name" v="Lillekart" />
		<tag k="natural" v="wetland" />
		<tag k="ssr:stedsnr" v="697814" />
	</node>
	<node id="-543659" lat="58.4620583299" lon="7.98412777555">
		<tag k="name" v="Setane" />
		<tag k="natural" v="wetland" />
		<tag k="ssr:stedsnr" v="697538" />
	</node>
	<node id="-543651" lat="58.4745750006" lon="7.90455000554">
		<tag k="name" v="Tjønnmyr" />
		<tag k="natural" v="wetland" />
		<tag k="ssr:stedsnr" v="697611" />
	</node>
	<node id="-543650" lat="58.4512333294" lon="8.05443333442">
		<tag k="name" v="Porskjerr" />
		<tag k="natural" v="wetland" />
		<tag k="ssr:stedsnr" v="697602" />
	</node>
	<node id="-543647" lat="58.4360333367" lon="8.03799721881">
		<tag k="name" v="Kjebekksteane" />
		<tag k="natural" v="wetland" />
		<tag k="ssr:stedsnr" v="697585" />
	</node>
	<node id="-543645" lat="58.4574972228" lon="8.03117500553">
		<tag k="name" v="Angardsmyra" />
		<tag k="natural" v="wetland" />
		<tag k="ssr:stedsnr" v="697574" />
	</node>
	<node id="-543644" lat="58.4637416646" lon="8.00984444744">
		<tag k="name" v="Tremerra" />
		<tag k="natural" v="wetland" />
		<tag k="ssr:stedsnr" v="697572" />
	</node>
	<node id="-543636" lat="58.4293555534" lon="7.85069722093">
		<tag k="name" v="Vardeheimyra" />
		<tag k="natural" v="wetland" />
		<tag k="ssr:stedsnr" v="697251" />
	</node>
	<node id="-543634" lat="58.3423055572" lon="7.93672777095">
		<tag k="name" v="Storemyr" />
		<tag k="natural" v="wetland" />
		<tag k="ssr:stedsnr" v="697187" />
	</node>
	<node id="-543622" lat="58.3558555525" lon="7.96373610829">
		<tag k="name" v="Bjørnehola" />
		<tag k="natural" v="wetland" />
		<tag k="ssr:stedsnr" v="515913" />
	</node>
	<node id="-543617" lat="58.509324998" lon="7.97202777588">
		<tag k="name" v="Breisåsmyra" />
		<tag k="natural" v="wetland" />
		<tag k="ssr:stedsnr" v="515617" />
	</node>
	<node id="-543615" lat="58.4547611073" lon="8.03017499534">
		<tag k="name" v="Angarden" />
		<tag k="place" v="locality" />
		<tag k="ssr:stedsnr" v="515606" />
	</node>
	<node id="-543614" lat="58.4186027751" lon="8.01360833499">
		<tag k="name" v="Hannemyrkjerrane" />
		<tag k="natural" v="wetland" />
		<tag k="ssr:stedsnr" v="515520" />
	</node>
	<node id="-543613" lat="58.4116083346" lon="8.02215556406">
		<tag k="name" v="Kverneslått" />
		<tag k="natural" v="wetland" />
		<tag k="ssr:stedsnr" v="515513" />
	</node>
	<node id="-543611" lat="58.4847722221" lon="7.96840555362">
		<tag k="name" v="Heggevollmyrane" />
		<tag k="natural" v="wetland" />
		<tag k="ssr:stedsnr" v="515502" />
	</node>
	<node id="-543610" lat="58.3226472183" lon="7.9670861094">
		<tag k="name" v="Moltemyr" />
		<tag k="natural" v="wetland" />
		<tag k="ssr:stedsnr" v="515129" />
	</node>
	<node id="-543607" lat="58.3824527788" lon="7.99203056277">
		<tag k="name" v="Salbårmyra" />
		<tag k="natural" v="wetland" />
		<tag k="ssr:stedsnr" v="515119" />
	</node>
	<node id="-543603" lat="58.3771194434" lon="7.9532555638">
		<tag k="name" v="Orreleikmyr" />
		<tag k="natural" v="wetland" />
		<tag k="ssr:stedsnr" v="515107" />
	</node>
	<node id="-543601" lat="58.4428472213" lon="7.86776389425">
		<tag k="name" v="Sprengsmyr" />
		<tag k="natural" v="wetland" />
		<tag k="ssr:stedsnr" v="515006" />
	</node>
	<node id="-543587" lat="58.51161389" lon="7.94004999933">
		<tag k="name" v="Farmyrane" />
		<tag k="natural" v="wetland" />
		<tag k="ssr:stedsnr" v="455661" />
	</node>
	<node id="-543584" lat="58.4173833341" lon="7.80852777459">
		<tag k="name" v="Bjordalsmyr" />
		<tag k="natural" v="wetland" />
		<tag k="ssr:stedsnr" v="455313" />
	</node>
	<node id="-543580" lat="58.3936166681" lon="7.89307777963">
		<tag k="name" v="Moltekjerret" />
		<tag k="natural" v="wetland" />
		<tag k="ssr:stedsnr" v="455025" />
	</node>
	<node id="-543575" lat="58.4922611105" lon="7.80241388458">
		<tag k="name" v="Kartmyr" />
		<tag k="natural" v="wetland" />
		<tag k="ssr:stedsnr" v="515994" />
	</node>
	<node id="-543573" lat="58.5011666641" lon="7.81458888451">
		<tag k="name" v="Røyrmyr" />
		<tag k="natural" v="wetland" />
		<tag k="ssr:stedsnr" v="515987" />
	</node>
	<node id="-543566" lat="58.4081388931" lon="8.04738056117">
		<tag k="name" v="Olavsmyrane" />
		<tag k="natural" v="wetland" />
		<tag k="ssr:stedsnr" v="515954" />
	</node>
	<node id="-543562" lat="58.401391667" lon="7.98026944806">
		<tag k="name" v="Muffelkjerrane" />
		<tag k="natural" v="wetland" />
		<tag k="ssr:stedsnr" v="515926" />
	</node>
	<node id="-543557" lat="58.3730583364" lon="8.00348888177">
		<tag k="name" v="Jørundskjerrane" />
		<tag k="natural" v="wetland" />
		<tag k="ssr:stedsnr" v="515890" />
	</node>
	<node id="-543555" lat="58.4841944461" lon="7.88432776999">
		<tag k="name" v="Ramsemyr" />
		<tag k="natural" v="wetland" />
		<tag k="ssr:stedsnr" v="515879" />
	</node>
	<node id="-543549" lat="58.4696638917" lon="7.8575555493">
		<tag k="name" v="Lilleankjell" />
		<tag k="natural" v="wetland" />
		<tag k="ssr:stedsnr" v="515844" />
	</node>
	<node id="-543547" lat="58.41908333" lon="7.94096389403">
		<tag k="name" v="Lieslått" />
		<tag k="natural" v="wetland" />
		<tag k="ssr:stedsnr" v="515786" />
	</node>
	<node id="-543544" lat="58.5237388874" lon="7.92512499574">
		<tag k="name" v="Storemyr" />
		<tag k="natural" v="wetland" />
		<tag k="ssr:stedsnr" v="515747" />
	</node>
	<node id="-543536" lat="58.5137694419" lon="7.88093611567">
		<tag k="name" v="Gisdalsmyr" />
		<tag k="natural" v="wetland" />
		<tag k="ssr:stedsnr" v="515686" />
	</node>
	<node id="-543534" lat="58.4958750032" lon="7.86688888662">
		<tag k="name" v="Vålefiane" />
		<tag k="natural" v="wetland" />
		<tag k="ssr:stedsnr" v="515681" />
	</node>
	<node id="-543528" lat="58.4639416633" lon="7.98733889284">
		<tag k="name" v="Mauråsmyra" />
		<tag k="natural" v="wetland" />
		<tag k="ssr:stedsnr" v="515562" />
	</node>
	<node id="-543525" lat="58.41210278" lon="7.98114444345">
		<tag k="name" v="Hellermyr" />
		<tag k="natural" v="wetland" />
		<tag k="ssr:stedsnr" v="515534" />
	</node>
	<node id="-543523" lat="58.492677776" lon="7.96191666756">
		<tag k="name" v="Dyblemyr" />
		<tag k="natural" v="wetland" />
		<tag k="ssr:stedsnr" v="515476" />
	</node>
	<node id="-543520" lat="58.4035444429" lon="8.05792222406">
		<tag k="name" v="Dunkedalsmyra" />
		<tag k="natural" v="wetland" />
		<tag k="ssr:stedsnr" v="515453" />
	</node>
	<node id="-543514" lat="58.4298055528" lon="7.8343500086">
		<tag k="name" v="Langemyr" />
		<tag k="natural" v="wetland" />
		<tag k="ssr:stedsnr" v="515352" />
	</node>
	<node id="-543508" lat="58.343444447" lon="7.92665556283">
		<tag k="name" v="Øvre Døblemyr" />
		<tag k="natural" v="wetland" />
		<tag k="ssr:stedsnr" v="515174" />
	</node>
	<node id="-543507" lat="58.3855861105" lon="7.92125554736">
		<tag k="name" v="Varpmyr" />
		<tag k="natural" v="wetland" />
		<tag k="ssr:stedsnr" v="515167" />
	</node>
	<node id="-543504" lat="58.3409111099" lon="7.95683888371">
		<tag k="name" v="Torsmyr" />
		<tag k="natural" v="wetland" />
		<tag k="ssr:stedsnr" v="515138" />
	</node>
	<node id="-543502" lat="58.3331583299" lon="7.95728333724">
		<tag k="name" v="Bjørndalskjerrane" />
		<tag k="natural" v="wetland" />
		<tag k="ssr:stedsnr" v="515134" />
	</node>
	<node id="-543499" lat="58.3812555556" lon="8.0069527821">
		<tag k="name" v="Leikmyr" />
		<tag k="natural" v="wetland" />
		<tag k="ssr:stedsnr" v="515096" />
	</node>
	<node id="-543498" lat="58.3685833315" lon="7.98944165911">
		<tag k="name" v="Felepottsduken" />
		<tag k="natural" v="wetland" />
		<tag k="ssr:stedsnr" v="515092" />
	</node>
	<node id="-543497" lat="58.380172226" lon="8.02088054723">
		<tag k="name" v="Røyrmyr" />
		<tag k="natural" v="wetland" />
		<tag k="ssr:stedsnr" v="515086" />
	</node>
	<node id="-543495" lat="58.4084500035" lon="7.85996944481">
		<tag k="name" v="Heiemyr" />
		<tag k="natural" v="wetland" />
		<tag k="ssr:stedsnr" v="515060" />
	</node>
	<node id="-543492" lat="58.4008583324" lon="7.9356138817">
		<tag k="name" v="Dyblemyr" />
		<tag k="natural" v="wetland" />
		<tag k="ssr:stedsnr" v="515045" />
	</node>
	<node id="-543491" lat="58.4002083357" lon="7.94171665845">
		<tag k="name" v="Myra" />
		<tag k="natural" v="wetland" />
		<tag k="ssr:stedsnr" v="515043" />
	</node>
	<node id="-543488" lat="58.4472805519" lon="7.90316388482">
		<tag k="name" v="Tjørgråmyra" />
		<tag k="natural" v="wetland" />
		<tag k="ssr:stedsnr" v="394807" />
	</node>
	<node id="-543486" lat="58.4261388915" lon="8.01344722885">
		<tag k="name" v="Kleivslåtta" />
		<tag k="natural" v="wetland" />
		<tag k="ssr:stedsnr" v="394529" />
	</node>
	<node id="-543482" lat="58.4679638888" lon="7.97097222536">
		<tag k="name" v="Nygardsmyra" />
		<tag k="natural" v="wetland" />
		<tag k="ssr:stedsnr" v="394514" />
	</node>
	<node id="-543480" lat="58.4796638882" lon="7.99380277698">
		<tag k="name" v="Kartmyr" />
		<tag k="natural" v="wetland" />
		<tag k="ssr:stedsnr" v="394502" />
	</node>
	<node id="-543476" lat="58.4926805594" lon="7.91896666943">
		<tag k="name" v="Kaldemyr" />
		<tag k="natural" v="wetland" />
		<tag k="ssr:stedsnr" v="394626" />
	</node>
	<node id="-543475" lat="58.5102694448" lon="7.91782777105">
		<tag k="name" v="Stikksmyr" />
		<tag k="natural" v="wetland" />
		<tag k="ssr:stedsnr" v="394620" />
	</node>
	<node id="-543473" lat="58.3742055513" lon="7.95051110502">
		<tag k="name" v="Langemyr" />
		<tag k="natural" v="wetland" />
		<tag k="ssr:stedsnr" v="394073" />
	</node>
	<node id="-543471" lat="58.3704888913" lon="7.95940554718">
		<tag k="name" v="Verdalsmyra" />
		<tag k="natural" v="wetland" />
		<tag k="ssr:stedsnr" v="394069" />
	</node>
	<node id="-543451" lat="58.4644583315" lon="7.87988610328">
		<tag k="name" v="Hestebrokkane" />
		<tag k="natural" v="wetland" />
		<tag k="ssr:stedsnr" v="333828" />
	</node>
	<node id="-543449" lat="58.4371361094" lon="7.90942222325">
		<tag k="name" v="Mikkelsmyr" />
		<tag k="natural" v="wetland" />
		<tag k="ssr:stedsnr" v="333810" />
	</node>
	<node id="-543445" lat="58.3536250024" lon="7.95731667069">
		<tag k="name" v="Halvorsmyr" />
		<tag k="natural" v="wetland" />
		<tag k="ssr:stedsnr" v="333903" />
	</node>
	<node id="-543443" lat="58.4248305549" lon="7.99211111531">
		<tag k="name" v="Kleiveslåtta" />
		<tag k="natural" v="wetland" />
		<tag k="ssr:stedsnr" v="333706" />
	</node>
	<node id="-543436" lat="58.4705166689" lon="7.95191389117">
		<tag k="name" v="Lillekart" />
		<tag k="natural" v="wetland" />
		<tag k="ssr:stedsnr" v="333521" />
	</node>
	<node id="-543433" lat="58.4391416638" lon="8.04402777628">
		<tag k="name" v="Kartmyrane" />
		<tag k="natural" v="wetland" />
		<tag k="ssr:stedsnr" v="333603" />
	</node>
	<node id="-543430" lat="58.3208138905" lon="7.96776666332">
		<tag k="name" v="Kringsjåmyrene" />
		<tag k="natural" v="wetland" />
		<tag k="ssr:stedsnr" v="333125" />
	</node>
	<node id="-543427" lat="58.3731111153" lon="7.99819167278">
		<tag k="name" v="Haugemyr" />
		<tag k="natural" v="wetland" />
		<tag k="ssr:stedsnr" v="333104" />
	</node>
	<node id="-543424" lat="58.3357944406" lon="7.93785000831">
		<tag k="name" v="Storslåtta" />
		<tag k="natural" v="wetland" />
		<tag k="ssr:stedsnr" v="333203" />
	</node>
	<node id="-543410" lat="58.5105527781" lon="7.94048610367">
		<tag k="name" v="Eptevassmyrane" />
>>>>>>> e1d4bc35ff8a6074a6f2e91616a996b547c36f15
		<tag k="natural" v="wetland" />
		<tag k="ssr:stedsnr" v="304411" />
	</node>
<<<<<<< HEAD
	<node lat="58.494436107472545" lon="7.914880554912605" id="-30772">
		<tag k="name" v="Storemyr" />
		<tag k="natural" v="wetland" />
		<tag k="ssr:stedsnr" v="333639" />
	</node>
	<node lat="58.464458331457166" lon="7.879886103275391" id="-30775">
		<tag k="name" v="Hestebrokkane" />
		<tag k="natural" v="wetland" />
		<tag k="ssr:stedsnr" v="333828" />
	</node>
	<node lat="58.39312221794529" lon="8.05254722881164" id="-30781">
		<tag k="name" v="Øygardsmyra" />
		<tag k="natural" v="wetland" />
		<tag k="ssr:stedsnr" v="333959" />
	</node>
	<node lat="58.465594448508014" lon="7.820941658078909" id="-30782">
		<tag k="name" v="Storemyr" />
		<tag k="natural" v="wetland" />
		<tag k="ssr:stedsnr" v="333968" />
	</node>
	<node lat="58.496536107105136" lon="7.810522220315367" id="-30783">
		<tag k="name" v="Kvernhusmyra" />
		<tag k="natural" v="wetland" />
		<tag k="ssr:stedsnr" v="333981" />
	</node>
	<node lat="58.48980277448147" lon="7.8236444389218045" id="-30784">
		<tag k="name" v="Steane" />
		<tag k="natural" v="wetland" />
		<tag k="ssr:stedsnr" v="333984" />
	</node>
	<node lat="58.53122500274711" lon="7.878238888020196" id="-30799">
		<tag k="alt_name" v="Storflesen" />
		<tag k="name" v="Vidflesen" />
		<tag k="natural" v="wetland" />
		<tag k="ssr:stedsnr" v="364680" />
	</node>
	<node lat="58.408702774402165" lon="7.888811107153669" id="-30802">
		<tag k="name" v="Djupemyr" />
		<tag k="natural" v="wetland" />
		<tag k="ssr:stedsnr" v="394042" />
	</node>
	<node lat="58.37048889126487" lon="7.959405547177024" id="-30807">
		<tag k="name" v="Verdalsmyra" />
		<tag k="natural" v="wetland" />
		<tag k="ssr:stedsnr" v="394069" />
	</node>
	<node lat="58.37420555128437" lon="7.950511105017707" id="-30809">
		<tag k="name" v="Langemyr" />
		<tag k="natural" v="wetland" />
		<tag k="ssr:stedsnr" v="394073" />
	</node>
	<node lat="58.38294167009273" lon="7.9176277849454495" id="-30812">
		<tag k="name" v="Sjølskotkjerret" />
		<tag k="natural" v="wetland" />
		<tag k="ssr:stedsnr" v="394137" />
	</node>
	<node lat="58.374277776209496" lon="7.9364055500687885" id="-30814">
		<tag k="name" v="Engekjerret" />
		<tag k="natural" v="wetland" />
		<tag k="ssr:stedsnr" v="394144" />
	</node>
	<node lat="58.42067500371816" lon="7.895341673460186" id="-30821">
		<tag k="name" v="Rossåsmyra" />
		<tag k="natural" v="wetland" />
		<tag k="ssr:stedsnr" v="394179" />
	</node>
	<node lat="58.467963888777625" lon="7.970972225359423" id="-30823">
		<tag k="name" v="Nygardsmyra" />
		<tag k="natural" v="wetland" />
		<tag k="ssr:stedsnr" v="394514" />
	</node>
	<node lat="58.51026944477535" lon="7.91782777105095" id="-30828">
		<tag k="name" v="Stikksmyr" />
		<tag k="natural" v="wetland" />
		<tag k="ssr:stedsnr" v="394620" />
	</node>
	<node lat="58.492680559418716" lon="7.918966669428801" id="-30829">
		<tag k="name" v="Kaldemyr" />
		<tag k="natural" v="wetland" />
		<tag k="ssr:stedsnr" v="394626" />
	</node>
	<node lat="58.542519447196824" lon="7.92625832809823" id="-30831">
		<tag k="name" v="Lubbekjerr" />
		<tag k="natural" v="wetland" />
		<tag k="ssr:stedsnr" v="394713" />
	</node>
	<node lat="58.543650001402234" lon="7.9145138891469315" id="-30832">
		<tag k="name" v="Bjørnskjeggmyra" />
		<tag k="natural" v="wetland" />
		<tag k="ssr:stedsnr" v="394716" />
	</node>
	<node lat="58.44122500194986" lon="8.059691668057676" id="-30835">
		<tag k="name" v="Børusbakkeslåtta" />
		<tag k="natural" v="wetland" />
		<tag k="ssr:stedsnr" v="394450" />
	</node>
	<node lat="58.46740833149642" lon="8.004838887521425" id="-30840">
		<tag k="name" v="Meinskjerr" />
		<tag k="natural" v="wetland" />
		<tag k="ssr:stedsnr" v="394541" />
	</node>
	<node lat="58.46142777429896" lon="7.9711277771360205" id="-30841">
		<tag k="name" v="Øvre Oksemyr" />
		<tag k="natural" v="wetland" />
		<tag k="ssr:stedsnr" v="394553" />
	</node>
	<node lat="58.52164722597201" lon="7.90258888516617" id="-30850">
		<tag k="name" v="Haugemyrane" />
		<tag k="natural" v="wetland" />
		<tag k="ssr:stedsnr" v="394752" />
	</node>
	<node lat="58.48483055940278" lon="7.823791663745241" id="-30851">
		<tag k="name" v="Småsteane" />
		<tag k="natural" v="wetland" />
		<tag k="ssr:stedsnr" v="394766" />
	</node>
	<node lat="58.414708333963134" lon="7.894825006660171" id="-30853">
		<tag k="name" v="Grøstemyr" />
		<tag k="natural" v="wetland" />
		<tag k="ssr:stedsnr" v="394778" />
	</node>
	<node lat="58.46072500068274" lon="7.89497223037499" id="-30854">
		<tag k="name" v="Langemyr" />
		<tag k="natural" v="wetland" />
		<tag k="ssr:stedsnr" v="394842" />
	</node>
	<node lat="58.46309722070992" lon="7.844452772444504" id="-30858">
		<tag k="name" v="Finnvollane" />
		<tag k="place" v="locality" />
		<tag k="ssr:stedsnr" v="394872" />
	</node>
	<node lat="58.55161111304744" lon="7.916855547659392" id="-30878">
		<tag k="alt_name" v="Sveksmyr" />
		<tag k="name" v="Sviksmyr" />
		<tag k="natural" v="wetland" />
		<tag k="ssr:stedsnr" v="425627" />
	</node>
	<node lat="58.442847221294564" lon="7.86776389425064" id="-30881">
		<tag k="name" v="Sprengsmyr" />
		<tag k="natural" v="wetland" />
		<tag k="ssr:stedsnr" v="515006" />
	</node>
	<node lat="58.5237388874218" lon="7.925124995744181" id="-30885">
		<tag k="name" v="Storemyr" />
		<tag k="natural" v="wetland" />
		<tag k="ssr:stedsnr" v="515747" />
	</node>
	<node lat="58.46966389170509" lon="7.857555549297346" id="-30886">
		<tag k="name" v="Lilleankjell" />
		<tag k="natural" v="wetland" />
		<tag k="ssr:stedsnr" v="515844" />
	</node>
	<node lat="58.40020833565796" lon="7.941716658446212" id="-30889">
		<tag k="name" v="Myra" />
		<tag k="natural" v="wetland" />
		<tag k="ssr:stedsnr" v="515043" />
	</node>
	<node lat="58.40085833241884" lon="7.9356138817010615" id="-30890">
		<tag k="name" v="Dyblemyr" />
		<tag k="natural" v="wetland" />
		<tag k="ssr:stedsnr" v="515045" />
	</node>
	<node lat="58.40845000350947" lon="7.859969444808503" id="-30893">
		<tag k="name" v="Heiemyr" />
		<tag k="natural" v="wetland" />
		<tag k="ssr:stedsnr" v="515060" />
	</node>
	<node lat="58.38017222602731" lon="8.020880547234565" id="-30895">
		<tag k="name" v="Røyrmyr" />
		<tag k="natural" v="wetland" />
		<tag k="ssr:stedsnr" v="515086" />
	</node>
	<node lat="58.36858333145567" lon="7.989441659107452" id="-30896">
		<tag k="name" v="Felepottsduken" />
		<tag k="natural" v="wetland" />
		<tag k="ssr:stedsnr" v="515092" />
	</node>
	<node lat="58.38125555558967" lon="8.006952782097507" id="-30897">
		<tag k="name" v="Leikmyr" />
		<tag k="natural" v="wetland" />
		<tag k="ssr:stedsnr" v="515096" />
	</node>
	<node lat="58.32264721826459" lon="7.967086109398804" id="-30900">
		<tag k="name" v="Moltemyr" />
		<tag k="natural" v="wetland" />
		<tag k="ssr:stedsnr" v="515129" />
	</node>
	<node lat="58.33315832993632" lon="7.95728333724016" id="-30902">
		<tag k="name" v="Bjørndalskjerrane" />
		<tag k="natural" v="wetland" />
		<tag k="ssr:stedsnr" v="515134" />
	</node>
	<node lat="58.34091110989526" lon="7.956838883711082" id="-30904">
		<tag k="name" v="Torsmyr" />
		<tag k="natural" v="wetland" />
		<tag k="ssr:stedsnr" v="515138" />
	</node>
	<node lat="58.429805552840065" lon="7.834350008599201" id="-30907">
		<tag k="name" v="Langemyr" />
		<tag k="natural" v="wetland" />
		<tag k="ssr:stedsnr" v="515352" />
	</node>
	<node lat="58.49267777601994" lon="7.961916667564686" id="-30909">
		<tag k="name" v="Dyblemyr" />
		<tag k="natural" v="wetland" />
		<tag k="ssr:stedsnr" v="515476" />
	</node>
	<node lat="58.46394166334574" lon="7.987338892837259" id="-30911">
		<tag k="name" v="Mauråsmyra" />
		<tag k="natural" v="wetland" />
		<tag k="ssr:stedsnr" v="515562" />
	</node>
	<node lat="58.403544442867414" lon="8.057922224057346" id="-30916">
		<tag k="name" v="Dunkedalsmyra" />
		<tag k="natural" v="wetland" />
		<tag k="ssr:stedsnr" v="515453" />
	</node>
	<node lat="58.4116083346457" lon="8.022155564055256" id="-30918">
		<tag k="name" v="Kverneslått" />
		<tag k="natural" v="wetland" />
		<tag k="ssr:stedsnr" v="515513" />
	</node>
	<node lat="58.41860277513237" lon="8.013608334986426" id="-30919">
		<tag k="name" v="Hannemyrkjerrane" />
		<tag k="natural" v="wetland" />
		<tag k="ssr:stedsnr" v="515520" />
	</node>
	<node lat="58.412102780038204" lon="7.981144443450031" id="-30920">
		<tag k="name" v="Hellermyr" />
		<tag k="natural" v="wetland" />
		<tag k="ssr:stedsnr" v="515534" />
	</node>
	<node lat="58.495875003220846" lon="7.866888886617268" id="-30925">
		<tag k="name" v="Vålefiane" />
		<tag k="natural" v="wetland" />
		<tag k="ssr:stedsnr" v="515681" />
	</node>
	<node lat="58.513769441939566" lon="7.880936115669053" id="-30927">
		<tag k="name" v="Gisdalsmyr" />
		<tag k="natural" v="wetland" />
		<tag k="ssr:stedsnr" v="515686" />
	</node>
	<node lat="58.37305833641283" lon="8.003488881766545" id="-30931">
		<tag k="name" v="Jørundskjerrane" />
		<tag k="natural" v="wetland" />
		<tag k="ssr:stedsnr" v="515890" />
	</node>
	<node lat="58.501166664085346" lon="7.814588884506696" id="-30939">
		<tag k="name" v="Røyrmyr" />
		<tag k="natural" v="wetland" />
		<tag k="ssr:stedsnr" v="515987" />
	</node>
	<node lat="58.49226111053369" lon="7.802413884575292" id="-30941">
		<tag k="name" v="Kartmyr" />
		<tag k="natural" v="wetland" />
		<tag k="ssr:stedsnr" v="515994" />
	</node>
	<node lat="58.35585555252624" lon="7.963736108288359" id="-30944">
		<tag k="name" v="Bjørnehola" />
		<tag k="natural" v="wetland" />
		<tag k="ssr:stedsnr" v="515913" />
	</node>
	<node lat="58.40139166704009" lon="7.980269448060529" id="-30946">
		<tag k="name" v="Muffelkjerrane" />
		<tag k="natural" v="wetland" />
		<tag k="ssr:stedsnr" v="515926" />
	</node>
	<node lat="58.40813889306548" lon="8.047380561168202" id="-30950">
		<tag k="name" v="Olavsmyrane" />
		<tag k="natural" v="wetland" />
		<tag k="ssr:stedsnr" v="515954" />
	</node>
	<node lat="58.37201388569223" lon="8.038588884834885" id="-30968">
		<tag k="name" v="Blåmyr" />
		<tag k="natural" v="wetland" />
		<tag k="ssr:stedsnr" v="576072" />
	</node>
	<node lat="58.435086114631616" lon="7.884363885226836" id="-30978">
		<tag k="name" v="Hommen" />
		<tag k="place" v="locality" />
		<tag k="ssr:stedsnr" v="576116" />
	</node>
	<node lat="58.37953333656576" lon="7.918613883552712" id="-30979">
		<tag k="name" v="Morbrorsmyr" />
		<tag k="natural" v="wetland" />
		<tag k="ssr:stedsnr" v="576122" />
	</node>
	<node lat="58.374413884900186" lon="7.923502772597468" id="-30980">
		<tag k="name" v="Urdalsmyra" />
		<tag k="natural" v="wetland" />
		<tag k="ssr:stedsnr" v="576124" />
	</node>
	<node lat="58.3604555518098" lon="7.9276138904691935" id="-30981">
		<tag k="name" v="Heptekjerr" />
		<tag k="natural" v="wetland" />
		<tag k="ssr:stedsnr" v="576126" />
	</node>
	<node lat="58.3360166644967" lon="7.922827771383286" id="-30982">
		<tag k="name" v="Rolighola" />
		<tag k="natural" v="wetland" />
		<tag k="ssr:stedsnr" v="576135" />
	</node>
	<node lat="58.41307778017043" lon="7.795361107759216" id="-30987">
		<tag k="name" v="Grinneholtan" />
		<tag k="place" v="locality" />
		<tag k="ssr:stedsnr" v="576342" />
	</node>
	<node lat="58.457000003469865" lon="8.063836111279018" id="-30988">
		<tag k="name" v="Gjellemyr" />
		<tag k="natural" v="wetland" />
		<tag k="ssr:stedsnr" v="576392" />
	</node>
	<node lat="58.43477777958571" lon="7.980480551696584" id="-30992">
		<tag k="name" v="Kloppkjerrane" />
		<tag k="natural" v="wetland" />
		<tag k="ssr:stedsnr" v="576575" />
	</node>
	<node lat="58.44476667063104" lon="7.965316675068519" id="-30993">
		<tag k="name" v="Kleiveslåttene" />
		<tag k="natural" v="wetland" />
		<tag k="ssr:stedsnr" v="576591" />
	</node>
	<node lat="58.43400277589646" lon="8.08334722657608" id="-30995">
		<tag k="name" v="Storeste" />
		<tag k="natural" v="wetland" />
		<tag k="ssr:stedsnr" v="576433" />
	</node>
	<node lat="58.41585277354334" lon="8.026997216945821" id="-30999">
		<tag k="name" v="Fjellslåtta" />
		<tag k="natural" v="wetland" />
		<tag k="ssr:stedsnr" v="576526" />
	</node>
	<node lat="58.44456110745219" lon="7.94216667309861" id="-31002">
		<tag k="name" v="Kåbuland" />
		<tag k="natural" v="wetland" />
		<tag k="ssr:stedsnr" v="576810" />
	</node>
	<node lat="58.48812777340928" lon="7.9090055499360155" id="-31005">
		<tag k="name" v="Raunmyr" />
		<tag k="natural" v="wetland" />
		<tag k="ssr:stedsnr" v="576667" />
	</node>
	<node lat="58.500191665244074" lon="7.862775007527243" id="-31007">
		<tag k="name" v="Grønemyr" />
		<tag k="natural" v="wetland" />
		<tag k="ssr:stedsnr" v="576691" />
	</node>
	<node lat="58.420563892941416" lon="7.995841669176341" id="-31009">
		<tag k="name" v="Smalsundane" />
		<tag k="natural" v="wetland" />
		<tag k="ssr:stedsnr" v="576756" />
	</node>
	<node lat="58.490830557388534" lon="7.883072216327879" id="-31015">
		<tag k="name" v="Samlarmyrane" />
		<tag k="natural" v="wetland" />
		<tag k="ssr:stedsnr" v="576877" />
	</node>
	<node lat="58.47297778088072" lon="7.89963055686353" id="-31018">
		<tag k="name" v="Skarvestadmyra" />
		<tag k="natural" v="wetland" />
		<tag k="ssr:stedsnr" v="576826" />
	</node>
	<node lat="58.471074997459034" lon="7.815252778712246" id="-31025">
		<tag k="name" v="Hestesteane" />
		<tag k="natural" v="wetland" />
		<tag k="ssr:stedsnr" v="576967" />
	</node>
	<node lat="58.379536108184126" lon="7.968452778724754" id="-31035">
		<tag k="name" v="Grautemyr" />
		<tag k="natural" v="wetland" />
		<tag k="ssr:stedsnr" v="606171" />
	</node>
	<node lat="58.4112499990649" lon="7.911549994744311" id="-31051">
		<tag k="name" v="Fylsmyr" />
		<tag k="natural" v="wetland" />
		<tag k="ssr:stedsnr" v="636214" />
	</node>
	<node lat="58.31803611210671" lon="7.946116658569542" id="-31063">
		<tag k="name" v="Søndagsgjætsla" />
		<tag k="place" v="locality" />
		<tag k="ssr:stedsnr" v="636154" />
	</node>
	<node lat="58.4238499964635" lon="7.851686117475085" id="-31066">
		<tag k="name" v="Kolåskjerret" />
		<tag k="natural" v="wetland" />
		<tag k="ssr:stedsnr" v="636229" />
	</node>
	<node lat="58.41946666326411" lon="7.865402782628098" id="-31069">
		<tag k="name" v="Skoddmyr" />
		<tag k="natural" v="wetland" />
		<tag k="ssr:stedsnr" v="636236" />
	</node>
	<node lat="58.35873333265098" lon="7.936683339350838" id="-31075">
		<tag k="name" v="Skeisemyra" />
		<tag k="natural" v="wetland" />
		<tag k="ssr:stedsnr" v="636250" />
	</node>
	<node lat="58.41558055405675" lon="7.83403611506957" id="-31077">
		<tag k="name" v="Lonemyr" />
		<tag k="natural" v="wetland" />
		<tag k="ssr:stedsnr" v="636357" />
	</node>
	<node lat="58.47582222422723" lon="8.0238305575413" id="-31079">
		<tag k="name" v="Rønningen" />
		<tag k="natural" v="wetland" />
		<tag k="ssr:stedsnr" v="636459" />
	</node>
	<node lat="58.45636944731099" lon="7.999038896455192" id="-31086">
		<tag k="name" v="Orremyr" />
		<tag k="natural" v="wetland" />
		<tag k="ssr:stedsnr" v="636563" />
	</node>
	<node lat="58.47394444405204" lon="8.00375555477563" id="-31087">
		<tag k="name" v="Jøntesekk" />
		<tag k="natural" v="wetland" />
		<tag k="ssr:stedsnr" v="636566" />
	</node>
	<node lat="58.46631388863988" lon="7.948758329972887" id="-31088">
		<tag k="name" v="Langemyr" />
		<tag k="natural" v="wetland" />
		<tag k="ssr:stedsnr" v="636570" />
	</node>
	<node lat="58.533652778729206" lon="7.901863882580983" id="-31096">
		<tag k="name" v="Djupekjerr" />
		<tag k="natural" v="wetland" />
		<tag k="ssr:stedsnr" v="636721" />
	</node>
	<node lat="58.45998888558108" lon="7.854633330592651" id="-31097">
		<tag k="name" v="Grosmyr" />
		<tag k="natural" v="wetland" />
		<tag k="ssr:stedsnr" v="636838" />
	</node>
	<node lat="58.45391944446482" lon="7.869761111357778" id="-31099">
		<tag k="name" v="Myrbærkjerrane" />
		<tag k="natural" v="wetland" />
		<tag k="ssr:stedsnr" v="636851" />
	</node>
	<node lat="58.47508333518407" lon="7.856716662937096" id="-31100">
		<tag k="name" v="Kvernhausholtane" />
		<tag k="place" v="locality" />
		<tag k="ssr:stedsnr" v="636853" />
	</node>
	<node lat="58.47723888834225" lon="7.888391660674292" id="-31101">
		<tag k="name" v="Solbergkjerrane" />
		<tag k="natural" v="wetland" />
		<tag k="ssr:stedsnr" v="636863" />
	</node>
	<node lat="58.483058336265856" lon="7.927813888277792" id="-31107">
		<tag k="name" v="Kringlemyr" />
		<tag k="natural" v="wetland" />
		<tag k="ssr:stedsnr" v="636669" />
	</node>
	<node lat="58.41938055811287" lon="7.963833339492424" id="-31108">
		<tag k="name" v="Tjønnbotten" />
		<tag k="natural" v="wetland" />
		<tag k="ssr:stedsnr" v="636739" />
	</node>
	<node lat="58.42621944690229" lon="7.932783337763345" id="-31111">
		<tag k="name" v="Eikmyr" />
		<tag k="natural" v="wetland" />
		<tag k="ssr:stedsnr" v="636765" />
	</node>
	<node lat="58.408808330580186" lon="7.875638882168322" id="-31137">
		<tag k="name" v="Kjerrane" />
		<tag k="natural" v="wetland" />
		<tag k="ssr:stedsnr" v="758064" />
	</node>
	<node lat="58.38324444679466" lon="7.922177778057023" id="-31150">
		<tag k="name" v="Vinbekkmyrane" />
		<tag k="natural" v="wetland" />
		<tag k="ssr:stedsnr" v="758185" />
	</node>
	<node lat="58.376527777168555" lon="7.946763883660614" id="-31151">
		<tag k="name" v="Bjøllemyr" />
		<tag k="natural" v="wetland" />
		<tag k="ssr:stedsnr" v="758190" />
	</node>
	<node lat="58.462352781058144" lon="7.992822215271078" id="-31157">
		<tag k="name" v="Kråkemyr" />
		<tag k="natural" v="wetland" />
		<tag k="ssr:stedsnr" v="758600" />
	</node>
	<node lat="58.5478444443482" lon="7.906930553129392" id="-31171">
		<tag k="name" v="Mellommyra" />
		<tag k="natural" v="wetland" />
		<tag k="ssr:stedsnr" v="758731" />
	</node>
	<node lat="58.53913332940599" lon="7.907361107514962" id="-31172">
		<tag k="name" v="Trolmeholm" />
		<tag k="natural" v="wetland" />
		<tag k="ssr:stedsnr" v="758736" />
	</node>
	<node lat="58.50874166873954" lon="7.882119447174577" id="-31181">
		<tag k="name" v="Gråkallmyra" />
		<tag k="natural" v="wetland" />
		<tag k="ssr:stedsnr" v="758685" />
	</node>
	<node lat="58.502497225354894" lon="7.875572224025359" id="-31183">
		<tag k="name" v="Omdalsmyra" />
		<tag k="natural" v="wetland" />
		<tag k="ssr:stedsnr" v="758687" />
	</node>
	<node lat="58.404330552789084" lon="7.980183329957767" id="-31188">
		<tag k="name" v="Kragsteinmyrane" />
		<tag k="natural" v="wetland" />
		<tag k="ssr:stedsnr" v="758921" />
	</node>
	<node lat="58.401516665290565" lon="7.948102777629733" id="-31189">
		<tag k="name" v="Øygardsmyra" />
		<tag k="natural" v="wetland" />
		<tag k="ssr:stedsnr" v="758932" />
	</node>
	<node lat="58.43532500060519" lon="7.944802776110437" id="-31211">
		<tag k="name" v="Tallaksmyr" />
		<tag k="natural" v="wetland" />
		<tag k="ssr:stedsnr" v="819799" />
	</node>
	<node lat="58.43846944805127" lon="7.878433331537047" id="-31213">
		<tag k="name" v="Holtane" />
		<tag k="place" v="locality" />
		<tag k="ssr:stedsnr" v="819013" />
	</node>
	<node lat="58.497058332582036" lon="7.801400004778827" id="-31215">
		<tag k="name" v="Linddalsholtane" />
		<tag k="place" v="locality" />
		<tag k="ssr:stedsnr" v="819991" />
	</node>
	<node lat="58.44688888945772" lon="7.848255549061206" id="-31216">
		<tag k="name" v="Klappeslåtta" />
		<tag k="natural" v="wetland" />
		<tag k="ssr:stedsnr" v="819022" />
	</node>
	<node lat="58.4492166702507" lon="7.848608332813517" id="-31217">
		<tag k="name" v="Holeslåttane" />
		<tag k="natural" v="wetland" />
		<tag k="ssr:stedsnr" v="819023" />
	</node>
	<node lat="58.39321388910485" lon="7.876130562222562" id="-31221">
		<tag k="name" v="Molen" />
		<tag k="place" v="locality" />
		<tag k="ssr:stedsnr" v="819039" />
	</node>
	<node lat="58.3613305547281" lon="7.944280559198507" id="-31227">
		<tag k="name" v="Ekra" />
		<tag k="place" v="locality" />
		<tag k="ssr:stedsnr" v="819150" />
	</node>
	<node lat="58.343402773632704" lon="7.932544437168583" id="-31228">
		<tag k="name" v="Gamlemyr" />
		<tag k="natural" v="wetland" />
		<tag k="ssr:stedsnr" v="819180" />
	</node>
	<node lat="58.43297499720157" lon="7.833427770721338" id="-31232">
		<tag k="name" v="Kvernhusmyr" />
		<tag k="natural" v="wetland" />
		<tag k="ssr:stedsnr" v="819198" />
	</node>
	<node lat="58.50273888577856" lon="7.960138888676931" id="-31236">
		<tag k="name" v="Kullumsheimyra" />
		<tag k="natural" v="wetland" />
		<tag k="ssr:stedsnr" v="819501" />
	</node>
	<node lat="58.44679444874923" lon="7.984925000371658" id="-31240">
		<tag k="name" v="Sauekjerrane" />
		<tag k="natural" v="wetland" />
		<tag k="ssr:stedsnr" v="819600" />
	</node>
	<node lat="58.45247499952432" lon="8.051450007019351" id="-31256">
		<tag k="name" v="Måvasslåtta" />
		<tag k="natural" v="wetland" />
		<tag k="ssr:stedsnr" v="819638" />
	</node>
	<node lat="58.48575832896119" lon="7.919069445267925" id="-31260">
		<tag k="name" v="Skinnarmyrane" />
		<tag k="natural" v="wetland" />
		<tag k="ssr:stedsnr" v="819667" />
	</node>
	<node lat="58.45907222274458" lon="7.910005557235508" id="-31263">
		<tag k="name" v="Midtgardstea" />
		<tag k="natural" v="wetland" />
		<tag k="ssr:stedsnr" v="819832" />
	</node>
	<node lat="58.46062221923179" lon="7.897455549150912" id="-31266">
		<tag k="name" v="Storemyr" />
		<tag k="natural" v="wetland" />
		<tag k="ssr:stedsnr" v="819840" />
	</node>
	<node lat="58.39861111225891" lon="7.981791673411715" id="-31272">
		<tag k="name" v="Einermyrane" />
		<tag k="natural" v="wetland" />
		<tag k="ssr:stedsnr" v="819919" />
	</node>
	<node lat="58.3957250014035" lon="8.039777777743991" id="-31275">
		<tag k="name" v="Venebrotmyra" />
		<tag k="natural" v="wetland" />
		<tag k="ssr:stedsnr" v="819941" />
	</node>
	<node lat="58.42294721979301" lon="7.9397472141142735" id="-31280">
		<tag k="name" v="Storemyr" />
		<tag k="natural" v="wetland" />
		<tag k="ssr:stedsnr" v="821534" />
	</node>
	<node lat="58.388077775742005" lon="8.059691665696691" id="-31297">
		<tag k="name" v="Haremyrane" />
		<tag k="natural" v="wetland" />
		<tag k="ssr:stedsnr" v="880449" />
	</node>
	<node lat="58.4142222215618" lon="7.9969583257047905" id="-31298">
		<tag k="name" v="Krossundane" />
		<tag k="natural" v="wetland" />
		<tag k="ssr:stedsnr" v="880545" />
	</node>
	<node lat="58.43509166398359" lon="8.052241674700852" id="-31302">
		<tag k="name" v="Småmyrane" />
		<tag k="natural" v="wetland" />
		<tag k="ssr:stedsnr" v="880640" />
	</node>
	<node lat="58.44199444864492" lon="7.881552770972483" id="-31306">
		<tag k="name" v="Røyrmyr" />
		<tag k="natural" v="wetland" />
		<tag k="ssr:stedsnr" v="880011" />
	</node>
	<node lat="58.41466944845346" lon="7.823183339267587" id="-31321">
		<tag k="name" v="Bjørkålmyr" />
		<tag k="natural" v="wetland" />
		<tag k="ssr:stedsnr" v="880322" />
	</node>
	<node lat="58.41669167019459" lon="7.829630560033472" id="-31322">
		<tag k="name" v="Loneholtet" />
		<tag k="place" v="locality" />
		<tag k="ssr:stedsnr" v="880323" />
	</node>
	<node lat="58.42428333558196" lon="7.8276972182682725" id="-31323">
		<tag k="name" v="Orremyr" />
		<tag k="natural" v="wetland" />
		<tag k="ssr:stedsnr" v="880329" />
	</node>
	<node lat="58.468191663586744" lon="8.04114444449436" id="-31324">
		<tag k="name" v="Ekorndalskjerret" />
		<tag k="natural" v="wetland" />
		<tag k="ssr:stedsnr" v="880554" />
	</node>
	<node lat="58.46486111134074" lon="8.039202771813926" id="-31325">
		<tag k="name" v="Ekorndalsmyra" />
		<tag k="natural" v="wetland" />
		<tag k="ssr:stedsnr" v="880557" />
	</node>
	<node lat="58.45929999609556" lon="7.990541670087919" id="-31329">
		<tag k="name" v="Bustøkjerrane" />
		<tag k="natural" v="wetland" />
		<tag k="ssr:stedsnr" v="880581" />
	</node>
	<node lat="58.43411944647612" lon="8.05766944683522" id="-31333">
		<tag k="name" v="Tretteslåtta" />
		<tag k="natural" v="wetland" />
		<tag k="ssr:stedsnr" v="880382" />
	</node>
	<node lat="58.44603889016879" lon="8.010958337439083" id="-31338">
		<tag k="name" v="Trollemyr" />
		<tag k="natural" v="wetland" />
		<tag k="ssr:stedsnr" v="880660" />
	</node>
	<node lat="58.485830557858264" lon="7.912155547437867" id="-31343">
		<tag k="name" v="Bergvakarten" />
		<tag k="natural" v="wetland" />
		<tag k="ssr:stedsnr" v="880691" />
	</node>
	<node lat="58.50271110860581" lon="7.83689166890764" id="-31344">
		<tag k="name" v="Bjørnemyr" />
		<tag k="natural" v="wetland" />
		<tag k="ssr:stedsnr" v="880698" />
	</node>
	<node lat="58.428802773460404" lon="7.901333328983696" id="-31346">
		<tag k="name" v="Orreleiken" />
		<tag k="place" v="locality" />
		<tag k="ssr:stedsnr" v="880778" />
	</node>
	<node lat="58.47455555750611" lon="7.834805555323742" id="-31348">
		<tag k="name" v="Tingbakksmyrane" />
		<tag k="natural" v="wetland" />
		<tag k="ssr:stedsnr" v="880783" />
	</node>
	<node lat="58.41618055385168" lon="7.933519441716681" id="-31349">
		<tag k="name" v="Knutemyr" />
		<tag k="natural" v="wetland" />
		<tag k="ssr:stedsnr" v="880792" />
	</node>
	<node lat="58.37005000393743" lon="8.016433341379022" id="-31352">
		<tag k="name" v="Langfredagsslåtta" />
		<tag k="natural" v="wetland" />
		<tag k="ssr:stedsnr" v="880880" />
	</node>
	<node lat="58.5452888886889" lon="7.905124996308962" id="-31355">
		<tag k="name" v="Stemslåttane" />
		<tag k="natural" v="wetland" />
		<tag k="ssr:stedsnr" v="880741" />
	</node>
	<node lat="58.47207222151636" lon="7.9364388828098935" id="-31357">
		<tag k="name" v="Orremyr" />
		<tag k="natural" v="wetland" />
		<tag k="ssr:stedsnr" v="880831" />
	</node>
	<node lat="58.493633329416234" lon="7.808402772721816" id="-31366">
		<tag k="name" v="Storemyr" />
		<tag k="natural" v="wetland" />
		<tag k="ssr:stedsnr" v="880988" />
	</node>
	<node lat="58.48986110950559" lon="7.815177769274953" id="-31367">
		<tag k="name" v="Kringlemyr" />
		<tag k="natural" v="wetland" />
		<tag k="ssr:stedsnr" v="880991" />
	</node>
	<node lat="58.49416666719185" lon="7.790061111266855" id="-31370">
		<tag k="name" v="Svineheimyrane" />
		<tag k="natural" v="wetland" />
		<tag k="ssr:stedsnr" v="880997" />
	</node>
	<node lat="58.388697224817136" lon="7.930924992872946" id="-31371">
		<tag k="name" v="Langemyr" />
		<tag k="natural" v="wetland" />
		<tag k="ssr:stedsnr" v="940020" />
	</node>
	<node lat="58.53343333032948" lon="7.909080551421102" id="-31377">
		<tag k="name" v="Grånåskarten" />
		<tag k="natural" v="wetland" />
		<tag k="ssr:stedsnr" v="940687" />
	</node>
	<node lat="58.38387500358225" lon="7.9291555549816195" id="-31379">
		<tag k="name" v="Koressmyr" />
		<tag k="natural" v="wetland" />
		<tag k="ssr:stedsnr" v="940159" />
	</node>
	<node lat="58.41961111021049" lon="7.832352774923747" id="-31388">
		<tag k="name" v="Leiuskjerret" />
		<tag k="natural" v="wetland" />
		<tag k="ssr:stedsnr" v="940347" />
	</node>
	<node lat="58.48906388508813" lon="7.95308333794932" id="-31393">
		<tag k="name" v="Trollmyr" />
		<tag k="natural" v="wetland" />
		<tag k="ssr:stedsnr" v="940461" />
	</node>
	<node lat="58.49790833112786" lon="7.983011118685326" id="-31394">
		<tag k="name" v="Dalemyra" />
		<tag k="natural" v="wetland" />
		<tag k="ssr:stedsnr" v="940463" />
	</node>
	<node lat="58.417011107644285" lon="8.085744438295158" id="-31395">
		<tag k="name" v="Bukksundmoen" />
		<tag k="place" v="locality" />
		<tag k="ssr:stedsnr" v="940413" />
	</node>
	<node lat="58.439386112324335" lon="8.064480548723987" id="-31396">
		<tag k="name" v="Småmyran" />
		<tag k="natural" v="wetland" />
		<tag k="ssr:stedsnr" v="940422" />
	</node>
	<node lat="58.463441667886606" lon="8.024625003468188" id="-31403">
		<tag k="name" v="Olavsslåtte" />
		<tag k="natural" v="wetland" />
		<tag k="ssr:stedsnr" v="940515" />
	</node>
	<node lat="58.47161388451627" lon="8.006799992485869" id="-31406">
		<tag k="name" v="Bostemyr" />
		<tag k="natural" v="wetland" />
		<tag k="ssr:stedsnr" v="940528" />
	</node>
	<node lat="58.462041664696876" lon="8.003752772953565" id="-31413">
		<tag k="name" v="Storemyr" />
		<tag k="natural" v="wetland" />
		<tag k="ssr:stedsnr" v="940573" />
	</node>
	<node lat="58.481869448488006" lon="7.933588896894053" id="-31416">
		<tag k="name" v="Orremyr" />
		<tag k="natural" v="wetland" />
		<tag k="ssr:stedsnr" v="940650" />
	</node>
	<node lat="58.44454999828187" lon="8.032861119716491" id="-31420">
		<tag k="name" v="Raundalsmyra" />
=======
	<node id="-543404" lat="58.3922888915" lon="8.03176944546">
		<tag k="name" v="Gaularmyr" />
		<tag k="natural" v="wetland" />
		<tag k="ssr:stedsnr" v="273972" />
	</node>
	<node id="-543403" lat="58.3928305576" lon="8.00915278011">
		<tag k="name" v="Langemyr" />
		<tag k="natural" v="wetland" />
		<tag k="ssr:stedsnr" v="273970" />
	</node>
	<node id="-543401" lat="58.3529444431" lon="7.96741667224">
		<tag k="name" v="Kinnemyra" />
		<tag k="natural" v="wetland" />
		<tag k="ssr:stedsnr" v="273922" />
	</node>
	<node id="-543399" lat="58.355816666" lon="7.98108889647">
		<tag k="name" v="Gråtemyr" />
		<tag k="natural" v="wetland" />
		<tag k="ssr:stedsnr" v="273910" />
	</node>
	<node id="-543397" lat="58.4923944469" lon="7.87196667292">
		<tag k="name" v="Krestjarslått" />
		<tag k="natural" v="wetland" />
		<tag k="ssr:stedsnr" v="273868" />
	</node>
	<node id="-543393" lat="58.4225694473" lon="7.99408888632">
		<tag k="name" v="Kjersbekkmyra" />
		<tag k="natural" v="wetland" />
		<tag k="ssr:stedsnr" v="273752" />
	</node>
	<node id="-543392" lat="58.5294166644" lon="7.88753611504">
		<tag k="name" v="Kjørka" />
		<tag k="natural" v="wetland" />
		<tag k="ssr:stedsnr" v="273723" />
	</node>
	<node id="-543387" lat="58.4940222258" lon="7.91911110529">
		<tag k="name" v="Oksefarmyra" />
		<tag k="natural" v="wetland" />
		<tag k="ssr:stedsnr" v="273674" />
	</node>
	<node id="-543386" lat="58.491099998" lon="7.91584444291">
		<tag k="name" v="Grennemyr" />
		<tag k="natural" v="wetland" />
		<tag k="ssr:stedsnr" v="273673" />
	</node>
	<node id="-543378" lat="58.4930972187" lon="7.99149166876">
		<tag k="name" v="Jernlimyr" />
		<tag k="natural" v="wetland" />
		<tag k="ssr:stedsnr" v="273475" />
	</node>
	<node id="-543367" lat="58.4697583322" lon="7.80089166963">
		<tag k="name" v="Leirdyblane" />
		<tag k="place" v="locality" />
		<tag k="ssr:stedsnr" v="455984" />
	</node>
	<node id="-543365" lat="58.4718694481" lon="7.82424166518">
		<tag k="name" v="Poddemyr" />
		<tag k="natural" v="wetland" />
		<tag k="ssr:stedsnr" v="455972" />
	</node>
	<node id="-543356" lat="58.3663111105" lon="8.00683334118">
		<tag k="name" v="Øygarden" />
		<tag k="natural" v="wetland" />
		<tag k="ssr:stedsnr" v="455919" />
	</node>
	<node id="-543351" lat="58.3583833362" lon="7.95605278093">
		<tag k="name" v="Den store myra" />
		<tag k="natural" v="wetland" />
		<tag k="ssr:stedsnr" v="455889" />
	</node>
	<node id="-543348" lat="58.4817305524" lon="7.8832000061">
		<tag k="name" v="Birkehommane" />
		<tag k="place" v="locality" />
		<tag k="ssr:stedsnr" v="455868" />
	</node>
	<node id="-543346" lat="58.493619449" lon="7.84718889661">
		<tag k="name" v="Svartemyr" />
		<tag k="natural" v="wetland" />
		<tag k="ssr:stedsnr" v="455854" />
	</node>
	<node id="-543339" lat="58.4170444431" lon="7.94292777123">
		<tag k="name" v="Tretteslåttane" />
		<tag k="natural" v="wetland" />
		<tag k="ssr:stedsnr" v="455776" />
	</node>
	<node id="-543338" lat="58.419155553" lon="7.93156388643">
		<tag k="name" v="Trodalsmyra" />
		<tag k="natural" v="wetland" />
		<tag k="ssr:stedsnr" v="455769" />
	</node>
	<node id="-543334" lat="58.4765999982" lon="7.83327222435">
		<tag k="name" v="Varekjerrane" />
		<tag k="natural" v="wetland" />
		<tag k="ssr:stedsnr" v="455757" />
	</node>
	<node id="-543333" lat="58.4255944429" lon="7.90969166967">
		<tag k="name" v="Drivåsrøysa" />
		<tag k="natural" v="stone" />
		<tag k="ssr:stedsnr" v="455751" />
	</node>
	<node id="-543330" lat="58.5187333308" lon="7.91732777597">
		<tag k="loc_name" v="Stolpemyr" />
		<tag k="name" v="Stoblemyr" />
		<tag k="natural" v="wetland" />
		<tag k="ssr:stedsnr" v="455730" />
	</node>
	<node id="-543328" lat="58.5484055588" lon="7.92622500121">
		<tag k="name" v="Skorefjellmyr" />
		<tag k="natural" v="wetland" />
		<tag k="ssr:stedsnr" v="455695" />
	</node>
	<node id="-543325" lat="58.5360305516" lon="7.91558055117">
		<tag k="name" v="Porsmyr" />
		<tag k="natural" v="wetland" />
		<tag k="ssr:stedsnr" v="455680" />
	</node>
	<node id="-543323" lat="58.5112555551" lon="7.87604166998">
		<tag k="name" v="Lomstjønnmyrane" />
		<tag k="natural" v="wetland" />
		<tag k="ssr:stedsnr" v="455668" />
	</node>
	<node id="-543321" lat="58.4985111147" lon="7.87867777628">
		<tag k="name" v="Stemmyr" />
		<tag k="natural" v="wetland" />
		<tag k="ssr:stedsnr" v="455645" />
	</node>
	<node id="-543320" lat="58.5018750034" lon="7.85815555514">
		<tag k="name" v="Beinmyr" />
		<tag k="natural" v="wetland" />
		<tag k="ssr:stedsnr" v="455640" />
	</node>
	<node id="-543319" lat="58.5011916643" lon="7.85450278316">
		<tag k="name" v="Storemyr" />
		<tag k="natural" v="wetland" />
		<tag k="ssr:stedsnr" v="455636" />
	</node>
	<node id="-543317" lat="58.4967750025" lon="7.95976943752">
		<tag k="name" v="Tørkoppmyra" />
		<tag k="natural" v="wetland" />
		<tag k="ssr:stedsnr" v="455586" />
	</node>
	<node id="-543315" lat="58.4567916642" lon="8.04362222798">
		<tag k="name" v="Rundemyr" />
		<tag k="natural" v="wetland" />
		<tag k="ssr:stedsnr" v="455574" />
	</node>
	<node id="-543311" lat="58.4657250024" lon="7.9581083396">
		<tag k="name" v="Revekjerr" />
		<tag k="natural" v="wetland" />
		<tag k="ssr:stedsnr" v="455536" />
	</node>
	<node id="-543307" lat="58.4305277785" lon="8.04406389084">
		<tag k="name" v="Store Løypedalsmyra" />
		<tag k="natural" v="wetland" />
		<tag k="ssr:stedsnr" v="455515" />
	</node>
	<node id="-543306" lat="58.4243805545" lon="8.0167249981">
		<tag k="name" v="Heimre Kleivslåtta" />
		<tag k="natural" v="wetland" />
		<tag k="ssr:stedsnr" v="455514" />
	</node>
	<node id="-543303" lat="58.4110805552" lon="8.02878888275">
		<tag k="name" v="Videmyr" />
		<tag k="natural" v="wetland" />
		<tag k="ssr:stedsnr" v="455501" />
	</node>
	<node id="-543302" lat="58.4695250016" lon="7.94970832915">
		<tag k="name" v="Storekart" />
		<tag k="natural" v="wetland" />
		<tag k="ssr:stedsnr" v="455497" />
	</node>
	<node id="-543298" lat="58.4860166622" lon="7.9632750009">
		<tag k="name" v="Skogmyrane" />
		<tag k="natural" v="wetland" />
		<tag k="ssr:stedsnr" v="455481" />
	</node>
	<node id="-543297" lat="58.4907805539" lon="7.99369166438">
		<tag k="name" v="Rausheimyra" />
		<tag k="natural" v="wetland" />
		<tag k="ssr:stedsnr" v="455464" />
	</node>
	<node id="-543296" lat="58.4812999986" lon="8.03082221541">
		<tag k="name" v="Djupemyr" />
		<tag k="natural" v="wetland" />
		<tag k="ssr:stedsnr" v="455426" />
	</node>
	<node id="-543295" lat="58.476086109" lon="8.01229999908">
		<tag k="name" v="Steane" />
		<tag k="natural" v="wetland" />
		<tag k="ssr:stedsnr" v="455425" />
	</node>
	<node id="-543291" lat="58.4270555599" lon="7.86699721367">
		<tag k="name" v="Storeslåtta" />
		<tag k="natural" v="wetland" />
		<tag k="ssr:stedsnr" v="455211" />
	</node>
	<node id="-543287" lat="58.3403138879" lon="7.93821389465">
		<tag k="name" v="Tjønneslåttane" />
		<tag k="natural" v="wetland" />
		<tag k="ssr:stedsnr" v="455163" />
	</node>
	<node id="-543285" lat="58.3377999979" lon="7.92670556264">
		<tag k="name" v="Steinhusmyrene" />
		<tag k="natural" v="wetland" />
		<tag k="ssr:stedsnr" v="455157" />
	</node>
	<node id="-543284" lat="58.3867805552" lon="7.93360277724">
		<tag k="name" v="Røyrmyr" />
		<tag k="natural" v="wetland" />
		<tag k="ssr:stedsnr" v="455150" />
	</node>
	<node id="-543281" lat="58.3725555513" lon="7.92545277101">
		<tag k="name" v="Gamle Urdalsmyr" />
		<tag k="natural" v="wetland" />
		<tag k="ssr:stedsnr" v="455126" />
	</node>
	<node id="-543279" lat="58.4347083353" lon="7.87836667058">
		<tag k="name" v="Øygardsmyrane" />
		<tag k="natural" v="wetland" />
		<tag k="ssr:stedsnr" v="455121" />
	</node>
	<node id="-543277" lat="58.387524997" lon="7.96210833392">
		<tag k="name" v="Storekjerr" />
		<tag k="natural" v="wetland" />
		<tag k="ssr:stedsnr" v="455110" />
	</node>
	<node id="-543270" lat="58.3836388884" lon="7.97558055358">
		<tag k="name" v="Vardeslåtta" />
		<tag k="natural" v="wetland" />
		<tag k="ssr:stedsnr" v="455103" />
	</node>
	<node id="-543260" lat="58.4079527761" lon="7.98861944713">
		<tag k="name" v="Noslebukarten" />
		<tag k="natural" v="wetland" />
		<tag k="ssr:stedsnr" v="212931" />
	</node>
	<node id="-543259" lat="58.4082083318" lon="7.95488055457">
		<tag k="name" v="Glovrandsmyra" />
		<tag k="natural" v="wetland" />
		<tag k="ssr:stedsnr" v="212922" />
	</node>
	<node id="-543257" lat="58.4851888917" lon="7.89884722352">
		<tag k="name" v="Øygardsmyra" />
		<tag k="natural" v="wetland" />
		<tag k="ssr:stedsnr" v="212631" />
	</node>
	<node id="-543256" lat="58.4773083311" lon="7.89311389424">
		<tag k="name" v="Steane" />
		<tag k="natural" v="wetland" />
		<tag k="ssr:stedsnr" v="212629" />
	</node>
	<node id="-543255" lat="58.4806777807" lon="7.89288888199">
		<tag k="name" v="Hestmyr" />
		<tag k="natural" v="wetland" />
		<tag k="ssr:stedsnr" v="212628" />
	</node>
	<node id="-543249" lat="58.4211972185" lon="7.96599999508">
		<tag k="name" v="Vollane" />
		<tag k="place" v="locality" />
		<tag k="ssr:stedsnr" v="212735" />
	</node>
	<node id="-543247" lat="58.5432249998" lon="7.90685277608">
		<tag k="name" v="Stakkslåttane" />
		<tag k="natural" v="wetland" />
		<tag k="ssr:stedsnr" v="212731" />
	</node>
	<node id="-543246" lat="58.5357638909" lon="7.89959999756">
		<tag k="name" v="Heimrehei" />
		<tag k="natural" v="wetland" />
		<tag k="ssr:stedsnr" v="212705" />
	</node>
	<node id="-543241" lat="58.4714111082" lon="7.96087499349">
		<tag k="name" v="Ulsgrennsmyrane" />
		<tag k="natural" v="wetland" />
		<tag k="ssr:stedsnr" v="212504" />
	</node>
	<node id="-543233" lat="58.4407861126" lon="7.84683889294">
		<tag k="name" v="Nedre Bukkekjerr" />
		<tag k="natural" v="wetland" />
		<tag k="ssr:stedsnr" v="212003" />
	</node>
	<node id="-543228" lat="58.3867555556" lon="7.95288333526">
		<tag k="name" v="Roliholskarten" />
		<tag k="natural" v="wetland" />
		<tag k="ssr:stedsnr" v="212105" />
	</node>
	<node id="-543213" lat="58.473466669" lon="8.02178610305">
		<tag k="name" v="Steane" />
		<tag k="natural" v="wetland" />
		<tag k="ssr:stedsnr" v="151548" />
	</node>
	<node id="-543207" lat="58.4134777788" lon="8.03265278415">
		<tag k="name" v="Spjotemyr" />
		<tag k="natural" v="wetland" />
		<tag k="ssr:stedsnr" v="151517" />
	</node>
	<node id="-543203" lat="58.4214583315" lon="7.84162777602">
		<tag k="name" v="Sundsmyr" />
		<tag k="natural" v="wetland" />
		<tag k="ssr:stedsnr" v="151223" />
	</node>
	<node id="-543201" lat="58.4202861121" lon="7.83813610921">
		<tag k="name" v="Djupemyr" />
		<tag k="natural" v="wetland" />
		<tag k="ssr:stedsnr" v="151220" />
	</node>
	<node id="-543198" lat="58.3254555552" lon="7.95247222514">
		<tag k="name" v="Langemyr" />
		<tag k="natural" v="wetland" />
		<tag k="ssr:stedsnr" v="151128" />
	</node>
	<node id="-543194" lat="58.3797222215" lon="7.98622222555">
		<tag k="name" v="Kvernemyr" />
		<tag k="natural" v="wetland" />
		<tag k="ssr:stedsnr" v="151109" />
	</node>
	<node id="-543184" lat="58.4329694471" lon="7.93550000405">
		<tag k="name" v="Fænmyr" />
		<tag k="natural" v="wetland" />
		<tag k="ssr:stedsnr" v="273827" />
	</node>
	<node id="-543172" lat="58.5525666686" lon="7.93070556124">
		<tag k="name" v="Kateråsmyrane" />
		<tag k="natural" v="wetland" />
		<tag k="ssr:stedsnr" v="273737" />
	</node>
	<node id="-543171" lat="58.4775527812" lon="7.91469444717">
		<tag k="name" v="Revemyrane" />
		<tag k="natural" v="wetland" />
		<tag k="ssr:stedsnr" v="273648" />
	</node>
	<node id="-543168" lat="58.4995361071" lon="7.84114721397">
		<tag k="name" v="Djupemyr" />
		<tag k="natural" v="wetland" />
		<tag k="ssr:stedsnr" v="273685" />
	</node>
	<node id="-543167" lat="58.4816111099" lon="7.91146111233">
		<tag k="name" v="Ljoslandsmyra" />
		<tag k="natural" v="wetland" />
		<tag k="ssr:stedsnr" v="273679" />
	</node>
	<node id="-543166" lat="58.4556888919" lon="7.96583054746">
		<tag k="name" v="Kringlesteane" />
		<tag k="natural" v="wetland" />
		<tag k="ssr:stedsnr" v="273543" />
	</node>
	<node id="-543164" lat="58.4135055555" lon="7.97700556337">
		<tag k="name" v="Røyrmyr" />
		<tag k="natural" v="wetland" />
		<tag k="ssr:stedsnr" v="273518" />
	</node>
	<node id="-543162" lat="58.4131666657" lon="8.04627777192">
		<tag k="name" v="Kleivemyrane" />
		<tag k="natural" v="wetland" />
		<tag k="ssr:stedsnr" v="273498" />
	</node>
	<node id="-543156" lat="58.401588887" lon="8.06633611437">
		<tag k="name" v="Storeslåtta" />
		<tag k="natural" v="wetland" />
		<tag k="ssr:stedsnr" v="273451" />
	</node>
	<node id="-543154" lat="58.4043694455" lon="8.06193610531">
		<tag k="name" v="Omestadmyra" />
		<tag k="natural" v="wetland" />
		<tag k="ssr:stedsnr" v="273441" />
	</node>
	<node id="-543148" lat="58.4581611145" lon="8.06684444583">
		<tag k="name" v="Steemyr" />
		<tag k="natural" v="wetland" />
		<tag k="ssr:stedsnr" v="273381" />
	</node>
	<node id="-543139" lat="58.4190416674" lon="7.83555555792">
		<tag k="name" v="Kringlemyr" />
		<tag k="natural" v="wetland" />
		<tag k="ssr:stedsnr" v="273341" />
	</node>
	<node id="-543135" lat="58.3603583306" lon="7.94253611701">
		<tag k="name" v="Mørchsmyr" />
		<tag k="natural" v="wetland" />
		<tag k="ssr:stedsnr" v="273144" />
	</node>
	<node id="-543134" lat="58.3654999968" lon="7.92921389019">
		<tag k="name" v="Storemyr" />
		<tag k="natural" v="wetland" />
		<tag k="ssr:stedsnr" v="273139" />
	</node>
	<node id="-543133" lat="58.3838833361" lon="8.03959444493">
		<tag k="name" v="Storemyr" />
		<tag k="place" v="locality" />
		<tag k="ssr:stedsnr" v="273092" />
	</node>
	<node id="-543131" lat="58.3881111073" lon="7.91467778211">
		<tag k="name" v="Krossmyr" />
		<tag k="natural" v="wetland" />
		<tag k="ssr:stedsnr" v="273022" />
	</node>
	<node id="-543130" lat="58.4402666673" lon="7.88708055172">
		<tag k="name" v="Nesmyr" />
		<tag k="natural" v="wetland" />
		<tag k="ssr:stedsnr" v="273020" />
	</node>
	<node id="-543129" lat="58.4447888893" lon="7.87781945249">
		<tag k="name" v="Kalvesteane" />
		<tag k="natural" v="wetland" />
		<tag k="ssr:stedsnr" v="273018" />
	</node>
	<node id="-543121" lat="58.5044499963" lon="7.97072777805">
		<tag k="name" v="Granlimyra" />
		<tag k="natural" v="wetland" />
		<tag k="ssr:stedsnr" v="91614" />
	</node>
	<node id="-545147" lat="58.4229472198" lon="7.93974721411">
		<tag k="name" v="Storemyr" />
		<tag k="natural" v="wetland" />
		<tag k="ssr:stedsnr" v="821534" />
	</node>
	<node id="-545146" lat="58.4970583326" lon="7.80140000478">
		<tag k="name" v="Linddalsholtane" />
		<tag k="place" v="locality" />
		<tag k="ssr:stedsnr" v="819991" />
	</node>
	<node id="-545145" lat="58.4991027771" lon="7.81368888256">
		<tag k="name" v="Busteane" />
		<tag k="natural" v="wetland" />
		<tag k="ssr:stedsnr" v="819982" />
	</node>
	<node id="-545141" lat="58.4606222192" lon="7.89745554915">
		<tag k="name" v="Storemyr" />
		<tag k="natural" v="wetland" />
		<tag k="ssr:stedsnr" v="819840" />
	</node>
	<node id="-543092" lat="58.4200944403" lon="7.99419721714">
		<tag k="name" v="Sjarmerei" />
		<tag k="natural" v="wetland" />
		<tag k="ssr:stedsnr" v="30729" />
	</node>
	<node id="-543091" lat="58.5430888863" lon="7.92137778159">
		<tag k="name" v="Elgedalsmyra" />
		<tag k="natural" v="wetland" />
		<tag k="ssr:stedsnr" v="30722" />
	</node>
	<node id="-545138" lat="58.4590722227" lon="7.91000555724">
		<tag k="name" v="Midtgardstea" />
		<tag k="natural" v="wetland" />
		<tag k="ssr:stedsnr" v="819832" />
	</node>
	<node id="-545136" lat="58.3957250014" lon="8.03977777774">
		<tag k="name" v="Venebrotmyra" />
		<tag k="natural" v="wetland" />
		<tag k="ssr:stedsnr" v="819941" />
	</node>
	<node id="-543085" lat="58.4996944459" lon="7.86691944623">
		<tag k="name" v="Omdalssteer" />
		<tag k="natural" v="wetland" />
		<tag k="ssr:stedsnr" v="30670" />
	</node>
	<node id="-543081" lat="58.4130694456" lon="7.86518888885">
		<tag k="name" v="Langemyr" />
		<tag k="natural" v="wetland" />
		<tag k="ssr:stedsnr" v="30209" />
	</node>
	<node id="-545127" lat="58.485758329" lon="7.91906944527">
		<tag k="name" v="Skinnarmyrane" />
		<tag k="natural" v="wetland" />
		<tag k="ssr:stedsnr" v="819667" />
	</node>
	<node id="-543077" lat="58.3766888864" lon="7.96660000127">
		<tag k="name" v="Røymyrane" />
		<tag k="natural" v="wetland" />
		<tag k="ssr:stedsnr" v="30105" />
	</node>
	<node id="-545120" lat="58.4684444467" lon="7.97911388963">
		<tag k="name" v="Eikelandsmyra" />
		<tag k="natural" v="wetland" />
		<tag k="ssr:stedsnr" v="819525" />
	</node>
	<node id="-545119" lat="58.4353250006" lon="7.94480277611">
		<tag k="name" v="Tallaksmyr" />
		<tag k="natural" v="wetland" />
		<tag k="ssr:stedsnr" v="819799" />
	</node>
	<node id="-545115" lat="58.4290861144" lon="7.93272778052">
		<tag k="name" v="Krossmyr" />
		<tag k="natural" v="wetland" />
		<tag k="ssr:stedsnr" v="819777" />
	</node>
	<node id="-545111" lat="58.4524749995" lon="8.05145000702">
		<tag k="name" v="Måvasslåtta" />
		<tag k="natural" v="wetland" />
		<tag k="ssr:stedsnr" v="819638" />
	</node>
	<node id="-545108" lat="58.4467944487" lon="7.98492500037">
		<tag k="name" v="Sauekjerrane" />
		<tag k="natural" v="wetland" />
		<tag k="ssr:stedsnr" v="819600" />
	</node>
	<node id="-545098" lat="58.5027388858" lon="7.96013888868">
		<tag k="name" v="Kullumsheimyra" />
		<tag k="natural" v="wetland" />
		<tag k="ssr:stedsnr" v="819501" />
	</node>
	<node id="-545093" lat="58.4228555542" lon="7.87936389735">
		<tag k="name" v="Langemyr" />
		<tag k="natural" v="wetland" />
		<tag k="ssr:stedsnr" v="819249" />
	</node>
	<node id="-545091" lat="58.4284027757" lon="7.83827777309">
		<tag k="name" v="Kilemyr" />
		<tag k="natural" v="wetland" />
		<tag k="ssr:stedsnr" v="819243" />
	</node>
	<node id="-545089" lat="58.4101999972" lon="7.86628889276">
		<tag k="name" v="Nordmyrdukane" />
		<tag k="place" v="locality" />
		<tag k="ssr:stedsnr" v="819226" />
	</node>
	<node id="-545087" lat="58.4329749972" lon="7.83342777072">
		<tag k="name" v="Kvernhusmyr" />
		<tag k="natural" v="wetland" />
		<tag k="ssr:stedsnr" v="819198" />
	</node>
	<node id="-545083" lat="58.3434027736" lon="7.93254443717">
		<tag k="name" v="Gamlemyr" />
		<tag k="natural" v="wetland" />
		<tag k="ssr:stedsnr" v="819180" />
	</node>
	<node id="-545082" lat="58.3932138891" lon="7.87613056222">
		<tag k="name" v="Molen" />
		<tag k="place" v="locality" />
		<tag k="ssr:stedsnr" v="819039" />
	</node>
	<node id="-545079" lat="58.3613305547" lon="7.9442805592">
		<tag k="name" v="Ekra" />
		<tag k="place" v="locality" />
		<tag k="ssr:stedsnr" v="819150" />
	</node>
	<node id="-545075" lat="58.3669972233" lon="7.93314444893">
		<tag k="name" v="Røyrmyr" />
		<tag k="natural" v="wetland" />
		<tag k="ssr:stedsnr" v="819135" />
	</node>
	<node id="-545027" lat="58.4623527811" lon="7.99282221527">
		<tag k="name" v="Kråkemyr" />
		<tag k="natural" v="wetland" />
		<tag k="ssr:stedsnr" v="758600" />
	</node>
	<node id="-545025" lat="58.4550111147" lon="7.97229165817">
		<tag k="name" v="Lonesteane" />
		<tag k="natural" v="wetland" />
		<tag k="ssr:stedsnr" v="758595" />
	</node>
	<node id="-545018" lat="58.5391333294" lon="7.90736110751">
		<tag k="name" v="Trolmeholm" />
		<tag k="natural" v="wetland" />
		<tag k="ssr:stedsnr" v="758736" />
	</node>
	<node id="-545017" lat="58.5478444443" lon="7.90693055313">
		<tag k="name" v="Mellommyra" />
		<tag k="natural" v="wetland" />
		<tag k="ssr:stedsnr" v="758731" />
	</node>
	<node id="-545015" lat="58.5011638876" lon="7.92948889649">
		<tag k="landuse" v="quarry" />
		<tag k="name" v="Tuten" />
		<tag k="ssr:stedsnr" v="758696" />
	</node>
	<node id="-545014" lat="58.5024972254" lon="7.87557222403">
		<tag k="name" v="Omdalsmyra" />
		<tag k="natural" v="wetland" />
		<tag k="ssr:stedsnr" v="758687" />
	</node>
	<node id="-545012" lat="58.5087416687" lon="7.88211944717">
		<tag k="name" v="Gråkallmyra" />
		<tag k="natural" v="wetland" />
		<tag k="ssr:stedsnr" v="758685" />
	</node>
	<node id="-545005" lat="58.4797722199" lon="7.96158055079">
		<tag k="name" v="Meelandsmyrane" />
		<tag k="natural" v="wetland" />
		<tag k="ssr:stedsnr" v="758545" />
	</node>
	<node id="-545002" lat="58.3380249964" lon="7.92896389478">
		<tag k="name" v="Porsmyr" />
		<tag k="natural" v="wetland" />
		<tag k="ssr:stedsnr" v="758206" />
	</node>
	<node id="-545000" lat="58.3765277772" lon="7.94676388366">
		<tag k="name" v="Bjøllemyr" />
		<tag k="natural" v="wetland" />
		<tag k="ssr:stedsnr" v="758190" />
	</node>
	<node id="-544999" lat="58.3832444468" lon="7.92217777806">
		<tag k="name" v="Vinbekkmyrane" />
		<tag k="natural" v="wetland" />
		<tag k="ssr:stedsnr" v="758185" />
	</node>
	<node id="-544993" lat="58.3462194417" lon="7.92638055482">
		<tag k="name" v="Nedre Døblemyr" />
		<tag k="natural" v="wetland" />
		<tag k="ssr:stedsnr" v="758296" />
	</node>
	<node id="-544992" lat="58.3951249978" lon="7.87965277628">
		<tag k="name" v="Ospevasen" />
		<tag k="place" v="locality" />
		<tag k="ssr:stedsnr" v="758052" />
	</node>
	<node id="-544990" lat="58.4080749959" lon="7.90720277061">
		<tag k="name" v="Hagefet" />
		<tag k="natural" v="wetland" />
		<tag k="ssr:stedsnr" v="758047" />
	</node>
	<node id="-544989" lat="58.4061694404" lon="7.90901944755">
		<tag k="name" v="Videfet" />
		<tag k="place" v="locality" />
		<tag k="ssr:stedsnr" v="758045" />
	</node>
	<node id="-544984" lat="58.3703722253" lon="7.95679167265">
		<tag k="name" v="Fænmyr" />
		<tag k="natural" v="wetland" />
		<tag k="ssr:stedsnr" v="758099" />
	</node>
	<node id="-544976" lat="58.4539194445" lon="7.86976111136">
		<tag k="name" v="Myrbærkjerrane" />
		<tag k="natural" v="wetland" />
		<tag k="ssr:stedsnr" v="636851" />
	</node>
	<node id="-544974" lat="58.4599888856" lon="7.85463333059">
		<tag k="name" v="Grosmyr" />
		<tag k="natural" v="wetland" />
		<tag k="ssr:stedsnr" v="636838" />
	</node>
	<node id="-544969" lat="58.43354444" lon="7.91661944596">
		<tag k="name" v="Holemyr" />
		<tag k="natural" v="wetland" />
		<tag k="ssr:stedsnr" v="636815" />
	</node>
	<node id="-544968" lat="58.432330558" lon="7.89960555029">
		<tag k="name" v="Halvdalerstykket" />
		<tag k="place" v="locality" />
		<tag k="ssr:stedsnr" v="636812" />
	</node>
	<node id="-544967" lat="58.3618361148" lon="7.98567778369">
		<tag k="name" v="Storemyrslåttane" />
		<tag k="natural" v="wetland" />
		<tag k="ssr:stedsnr" v="636878" />
	</node>
	<node id="-544965" lat="58.4193805581" lon="7.96383333949">
		<tag k="name" v="Tjønnbotten" />
		<tag k="natural" v="wetland" />
		<tag k="ssr:stedsnr" v="636739" />
	</node>
	<node id="-544964" lat="58.5406138845" lon="7.91321944786">
		<tag k="name" v="Samlogan" />
		<tag k="natural" v="wetland" />
		<tag k="ssr:stedsnr" v="636733" />
	</node>
	<node id="-544963" lat="58.5336527787" lon="7.90186388258">
		<tag k="name" v="Djupekjerr" />
		<tag k="natural" v="wetland" />
		<tag k="ssr:stedsnr" v="636721" />
	</node>
	<node id="-543093" lat="58.4162916624" lon="7.94978332794">
		<tag k="name" v="Vardeheimyr" />
		<tag k="natural" v="wetland" />
		<tag k="ssr:stedsnr" v="30738" />
	</node>
	<node id="-544948" lat="58.4983916701" lon="7.87419166731">
		<tag k="name" v="Bjørnslåtta" />
		<tag k="natural" v="wetland" />
		<tag k="ssr:stedsnr" v="636685" />
	</node>
	<node id="-544947" lat="58.4830583363" lon="7.92781388828">
		<tag k="name" v="Kringlemyr" />
		<tag k="natural" v="wetland" />
		<tag k="ssr:stedsnr" v="636669" />
	</node>
	<node id="-544943" lat="58.493325" lon="7.97430000137">
		<tag k="name" v="Liemyr" />
		<tag k="natural" v="wetland" />
		<tag k="ssr:stedsnr" v="636484" />
	</node>
	<node id="-543090" lat="58.5499555554" lon="7.90893332875">
		<tag k="name" v="Trettemyr" />
		<tag k="natural" v="wetland" />
		<tag k="ssr:stedsnr" v="30718" />
	</node>
	<node id="-544935" lat="58.3822944429" lon="8.02058055809">
		<tag k="name" v="Olavsmyr" />
		<tag k="natural" v="wetland" />
		<tag k="ssr:stedsnr" v="636085" />
	</node>
	<node id="-544934" lat="58.3805749984" lon="8.02313055276">
		<tag k="name" v="Knipemyrane" />
		<tag k="natural" v="wetland" />
		<tag k="ssr:stedsnr" v="636083" />
	</node>
	<node id="-544933" lat="58.3587333327" lon="7.93668333935">
		<tag k="name" v="Skeisemyra" />
		<tag k="natural" v="wetland" />
		<tag k="ssr:stedsnr" v="636250" />
	</node>
	<node id="-544927" lat="58.4194666633" lon="7.86540278263">
		<tag k="name" v="Skoddmyr" />
		<tag k="natural" v="wetland" />
		<tag k="ssr:stedsnr" v="636236" />
	</node>
	<node id="-544924" lat="58.4238499965" lon="7.85168611748">
		<tag k="name" v="Kolåskjerret" />
		<tag k="natural" v="wetland" />
		<tag k="ssr:stedsnr" v="636229" />
	</node>
	<node id="-544921" lat="58.3422277754" lon="7.94171944014">
		<tag k="name" v="Langemyr" />
		<tag k="natural" v="wetland" />
		<tag k="ssr:stedsnr" v="636179" />
	</node>
	<node id="-544898" lat="58.3795361082" lon="7.96845277872">
		<tag k="name" v="Grautemyr" />
		<tag k="natural" v="wetland" />
		<tag k="ssr:stedsnr" v="606171" />
	</node>
	<node id="-544886" lat="58.4729777809" lon="7.89963055686">
		<tag k="name" v="Skarvestadmyra" />
		<tag k="natural" v="wetland" />
		<tag k="ssr:stedsnr" v="576826" />
	</node>
	<node id="-544882" lat="58.4445611075" lon="7.9421666731">
		<tag k="name" v="Kåbuland" />
		<tag k="natural" v="wetland" />
		<tag k="ssr:stedsnr" v="576810" />
	</node>
	<node id="-544881" lat="58.4206638847" lon="7.93538332863">
		<tag k="name" v="Storemyr" />
		<tag k="natural" v="wetland" />
		<tag k="ssr:stedsnr" v="576804" />
	</node>
	<node id="-544880" lat="58.4149583374" lon="7.90184722115">
		<tag k="name" v="Gåseflåmyr" />
		<tag k="natural" v="wetland" />
		<tag k="ssr:stedsnr" v="576802" />
	</node>
	<node id="-544875" lat="58.4205638929" lon="7.99584166918">
		<tag k="name" v="Smalsundane" />
		<tag k="natural" v="wetland" />
		<tag k="ssr:stedsnr" v="576756" />
	</node>
	<node id="-544869" lat="58.4710749975" lon="7.81525277871">
		<tag k="name" v="Hestesteane" />
		<tag k="natural" v="wetland" />
		<tag k="ssr:stedsnr" v="576967" />
	</node>
	<node id="-544867" lat="58.4073722243" lon="8.05539166056">
		<tag k="name" v="Stevekjerrane" />
		<tag k="natural" v="wetland" />
		<tag k="ssr:stedsnr" v="576951" />
	</node>
	<node id="-544863" lat="58.4447666706" lon="7.96531667507">
		<tag k="name" v="Kleiveslåttene" />
		<tag k="natural" v="wetland" />
		<tag k="ssr:stedsnr" v="576591" />
	</node>
	<node id="-544862" lat="58.4347777796" lon="7.9804805517">
		<tag k="name" v="Kloppkjerrane" />
		<tag k="natural" v="wetland" />
		<tag k="ssr:stedsnr" v="576575" />
	</node>
	<node id="-544856" lat="58.5001916652" lon="7.86277500753">
		<tag k="name" v="Grønemyr" />
		<tag k="natural" v="wetland" />
		<tag k="ssr:stedsnr" v="576691" />
	</node>
	<node id="-544854" lat="58.4881277734" lon="7.90900554994">
		<tag k="name" v="Raunmyr" />
		<tag k="natural" v="wetland" />
		<tag k="ssr:stedsnr" v="576667" />
	</node>
	<node id="-544852" lat="58.4340027759" lon="8.08334722658">
		<tag k="name" v="Storeste" />
		<tag k="natural" v="wetland" />
		<tag k="ssr:stedsnr" v="576433" />
	</node>
	<node id="-544850" lat="58.4625527751" lon="8.05886944663">
		<tag k="name" v="Kverkmyr" />
		<tag k="natural" v="wetland" />
		<tag k="ssr:stedsnr" v="576399" />
	</node>
	<node id="-544849" lat="58.4570000035" lon="8.06383611128">
		<tag k="name" v="Gjellemyr" />
>>>>>>> e1d4bc35ff8a6074a6f2e91616a996b547c36f15
		<tag k="natural" v="wetland" />
		<tag k="ssr:stedsnr" v="576392" />
	</node>
<<<<<<< HEAD
	<node lat="58.44874722196466" lon="8.021544450500201" id="-31421">
		<tag k="name" v="Grasdalmyra" />
		<tag k="natural" v="wetland" />
		<tag k="ssr:stedsnr" v="940607" />
	</node>
	<node lat="58.47858055706405" lon="7.921374997315919" id="-31422">
		<tag k="name" v="Skinnarskogen" />
		<tag k="place" v="locality" />
		<tag k="ssr:stedsnr" v="940615" />
	</node>
	<node lat="58.413122223223674" lon="7.900841674668949" id="-31423">
		<tag k="name" v="Gumpemyr" />
		<tag k="natural" v="wetland" />
		<tag k="ssr:stedsnr" v="940796" />
	</node>
	<node lat="58.43555000267411" lon="7.918427773262979" id="-31426">
		<tag k="name" v="Storemyr" />
		<tag k="natural" v="wetland" />
		<tag k="ssr:stedsnr" v="940811" />
	</node>
	<node lat="58.52772777426823" lon="7.922338893494616" id="-31432">
		<tag k="name" v="Steane" />
		<tag k="natural" v="wetland" />
		<tag k="ssr:stedsnr" v="940734" />
	</node>
	<node lat="58.52153611487571" lon="7.915477785878812" id="-31436">
		<tag k="name" v="Eielsmyr" />
		<tag k="natural" v="wetland" />
		<tag k="ssr:stedsnr" v="940743" />
	</node>
	<node lat="58.48364444524433" lon="7.823661113142412" id="-31438">
		<tag k="name" v="Langemyr" />
		<tag k="natural" v="wetland" />
		<tag k="ssr:stedsnr" v="940768" />
	</node>
	<node lat="58.42045832987687" lon="7.948675007248873" id="-31441">
		<tag k="name" v="Knutedalsmyr" />
		<tag k="natural" v="wetland" />
		<tag k="ssr:stedsnr" v="940726" />
	</node>
	<node lat="58.47095833544202" lon="7.937644446414792" id="-31442">
		<tag k="name" v="Grønemyr" />
		<tag k="natural" v="wetland" />
		<tag k="ssr:stedsnr" v="940833" />
	</node>
	<node lat="58.46267222484232" lon="7.895252777192295" id="-31443">
		<tag k="name" v="Igletjønnmyra" />
		<tag k="natural" v="wetland" />
		<tag k="ssr:stedsnr" v="940836" />
	</node>
	<node lat="58.4667000034146" lon="7.847794446384799" id="-31445">
		<tag k="name" v="Snorremyr" />
		<tag k="natural" v="wetland" />
		<tag k="ssr:stedsnr" v="940848" />
	</node>
	<node lat="58.467099995796524" lon="7.871105563997575" id="-31446">
		<tag k="name" v="Æretjønnmyra" />
		<tag k="natural" v="wetland" />
		<tag k="ssr:stedsnr" v="940854" />
	</node>
	<node lat="58.47513611049963" lon="7.84125556164213" id="-31449">
		<tag k="name" v="Dukane" />
		<tag k="place" v="locality" />
		<tag k="ssr:stedsnr" v="940870" />
	</node>
	<node lat="58.482094448250685" lon="7.864511107226063" id="-31450">
		<tag k="name" v="Byttingsmyr" />
		<tag k="natural" v="wetland" />
		<tag k="ssr:stedsnr" v="940880" />
	</node>
	<node lat="58.34615833223989" lon="7.958311114894248" id="-31452">
		<tag k="name" v="Rundemyr" />
		<tag k="natural" v="wetland" />
		<tag k="ssr:stedsnr" v="940917" />
	</node>
	<node lat="58.39727777952722" lon="7.981144442589483" id="-31454">
		<tag k="name" v="Snømyr" />
		<tag k="natural" v="wetland" />
		<tag k="ssr:stedsnr" v="940927" />
=======
	<node id="-544848" lat="58.4130777802" lon="7.79536110776">
		<tag k="name" v="Grinneholtan" />
		<tag k="place" v="locality" />
		<tag k="ssr:stedsnr" v="576342" />
	</node>
	<node id="-544843" lat="58.4803555523" lon="7.99994444802">
		<tag k="name" v="Kaldmyr" />
		<tag k="natural" v="wetland" />
		<tag k="ssr:stedsnr" v="576498" />
	</node>
	<node id="-544838" lat="58.4104611112" lon="7.89105834122">
		<tag k="name" v="Øvre Djupemyr" />
		<tag k="natural" v="wetland" />
		<tag k="ssr:stedsnr" v="576209" />
	</node>
	<node id="-544825" lat="58.3360166645" lon="7.92282777138">
		<tag k="name" v="Rolighola" />
		<tag k="natural" v="wetland" />
		<tag k="ssr:stedsnr" v="576135" />
	</node>
	<node id="-544824" lat="58.3604555518" lon="7.92761389047">
		<tag k="name" v="Heptekjerr" />
		<tag k="natural" v="wetland" />
		<tag k="ssr:stedsnr" v="576126" />
	</node>
	<node id="-544823" lat="58.3744138849" lon="7.9235027726">
		<tag k="name" v="Urdalsmyra" />
		<tag k="natural" v="wetland" />
		<tag k="ssr:stedsnr" v="576124" />
	</node>
	<node id="-544804" lat="58.551611113" lon="7.91685554766">
		<tag k="alt_name" v="Sveksmyr" />
		<tag k="name" v="Sviksmyr" />
		<tag k="natural" v="wetland" />
		<tag k="ssr:stedsnr" v="425627" />
	</node>
	<node id="-544786" lat="58.4941944439" lon="7.80223332549">
		<tag k="name" v="Geitmonmyrane" />
		<tag k="natural" v="wetland" />
		<tag k="ssr:stedsnr" v="394995" />
	</node>
	<node id="-544776" lat="58.3545666681" lon="7.98845833514">
		<tag k="name" v="Knutslåtta" />
		<tag k="natural" v="wetland" />
		<tag k="ssr:stedsnr" v="394906" />
	</node>
	<node id="-544774" lat="58.3594805588" lon="7.98449723024">
		<tag k="name" v="Storemyr" />
		<tag k="natural" v="wetland" />
		<tag k="ssr:stedsnr" v="394900" />
	</node>
	<node id="-544773" lat="58.3684472257" lon="8.00828332907">
		<tag k="name" v="Almedalsmyra" />
		<tag k="natural" v="wetland" />
		<tag k="ssr:stedsnr" v="394895" />
	</node>
	<node id="-544772" lat="58.4796361103" lon="7.86599721704">
		<tag k="name" v="Einermyrane" />
		<tag k="natural" v="wetland" />
		<tag k="ssr:stedsnr" v="394893" />
	</node>
	<node id="-544771" lat="58.4853555528" lon="7.8633638811">
		<tag k="name" v="Andresslåtten" />
		<tag k="natural" v="wetland" />
		<tag k="ssr:stedsnr" v="394892" />
>>>>>>> e1d4bc35ff8a6074a6f2e91616a996b547c36f15
	</node>
</osm>
