<?xml version="1.0" encoding="UTF-8"?>
<<<<<<< HEAD
<osm version="0.6" generator="osmapis">
	<node lat="58.41146666753134" lon="8.084280548749174" id="-29429">
		<tag k="name" v="Vatnstraum" />
		<tag k="railway" v="station" />
		<tag k="ssr:stedsnr" v="242173" />
		<tag k="train" v="yes" />
	</node>
	<node lat="58.38848333760017" lon="8.067966665389973" id="-29486">
=======
<osm generator="osmapis" version="0.6">
	<node id="-543125" lat="58.3884833376" lon="8.06796666539">
>>>>>>> e1d4bc35ff8a6074a6f2e91616a996b547c36f15
		<tag k="bridge" v="yes" />
		<tag k="layer" v="1" />
		<tag k="name" v="Landekil øvre" />
		<tag k="ssr:stedsnr" v="107208" />
	</node>
<<<<<<< HEAD
	<node lat="58.43282499780778" lon="8.011813888022308" id="-29575">
		<tag k="alt_name" v="Kråte" />
		<tag k="bridge" v="yes" />
		<tag k="layer" v="1" />
		<tag k="name" v="Kråkebrua" />
		<tag k="ssr:stedsnr" v="212604" />
	</node>
	<node lat="58.41432222264152" lon="8.078511104536057" id="-29589">
		<tag k="bridge" v="yes" />
		<tag k="layer" v="1" />
		<tag k="name" v="Ronekilen" />
		<tag k="ssr:stedsnr" v="229235" />
	</node>
	<node lat="58.393869441867096" lon="8.063641661898462" id="-29590">
		<tag k="bridge" v="yes" />
		<tag k="layer" v="1" />
		<tag k="name" v="Kråkehei" />
		<tag k="ssr:stedsnr" v="229237" />
	</node>
	<node lat="58.42371666992797" lon="7.918227769957261" id="-29603">
		<tag k="ford" v="yes" />
		<tag k="name" v="Kongsvad" />
		<tag k="place" v="locality" />
		<tag k="ssr:stedsnr" v="455192" />
	</node>
	<node lat="58.412397226431196" lon="8.058311113442953" id="-29630">
		<tag k="fixme" v="consider highway=path" />
		<tag k="highway" v="track" />
		<tag k="name" v="Gamleveg" />
		<tag k="ssr:stedsnr" v="455381" />
	</node>
	<node lat="58.463324996333135" lon="7.909511107114014" id="-29719">
=======
	<node id="-545148" lat="58.44273056" lon="8.07558889532">
>>>>>>> e1d4bc35ff8a6074a6f2e91616a996b547c36f15
		<tag k="bridge" v="yes" />
		<tag k="layer" v="1" />
		<tag k="name" v="Framsjå" />
		<tag k="ssr:stedsnr" v="289213" />
	</node>
<<<<<<< HEAD
	<node lat="58.467924996352515" lon="7.800580553095529" id="-29763">
=======
	<node id="-544504" lat="58.4556583332" lon="7.91802499504">
>>>>>>> e1d4bc35ff8a6074a6f2e91616a996b547c36f15
		<tag k="bridge" v="yes" />
		<tag k="layer" v="1" />
		<tag k="name" v="Saukilen" />
		<tag k="ssr:stedsnr" v="471221" />
	</node>
	<node lat="58.45924166789338" lon="7.846891658939575" id="-29768">
		<tag k="highway" v="path" />
		<tag k="name" v="Kleivane" />
		<tag k="ssr:stedsnr" v="333860" />
	</node>
<<<<<<< HEAD
	<node lat="58.462480558839566" lon="7.911349991341317" id="-29772">
=======
	<node id="-543095" lat="58.3938694419" lon="8.0636416619">
>>>>>>> e1d4bc35ff8a6074a6f2e91616a996b547c36f15
		<tag k="bridge" v="yes" />
		<tag k="layer" v="1" />
		<tag k="name" v="Fosstveit" />
		<tag k="ssr:stedsnr" v="350208" />
	</node>
	<node lat="58.50294721978654" lon="7.926802780411327" id="-29957">
		<tag k="highway" v="path" />
		<tag k="name" v="Stutestien" />
		<tag k="ssr:stedsnr" v="576698" />
	</node>
	<node lat="58.5034472195535" lon="7.91907221778484" id="-30072">
		<tag k="highway" v="path" />
		<tag k="name" v="Geismyrvegen" />
		<tag k="ssr:stedsnr" v="636696" />
	</node>
<<<<<<< HEAD
	<node lat="58.38839166644758" lon="7.896555558370708" id="-30090">
=======
	<node id="-543094" lat="58.4143222226" lon="8.07851110454">
>>>>>>> e1d4bc35ff8a6074a6f2e91616a996b547c36f15
		<tag k="bridge" v="yes" />
		<tag k="layer" v="1" />
		<tag k="name" v="Kattefoss" />
		<tag k="ssr:stedsnr" v="653209" />
	</node>
<<<<<<< HEAD
	<node lat="58.39035833749236" lon="7.894636106695311" id="-30173">
=======
	<node id="-545010" lat="58.3903583375" lon="7.8946361067">
>>>>>>> e1d4bc35ff8a6074a6f2e91616a996b547c36f15
		<tag k="landuse" v="industrial" />
		<tag k="name" v="Iveland kraftstasjon" />
		<tag k="power" v="plant" />
		<tag k="ssr:stedsnr" v="758424" />
	</node>
<<<<<<< HEAD
	<node lat="58.478086109359545" lon="7.854566665561263" id="-30313">
		<tag k="highway" v="path" />
		<tag k="name" v="Stien" />
		<tag k="ssr:stedsnr" v="880872" />
	</node>
	<node lat="58.46168055271381" lon="7.862655558816311" id="-30471">
=======
	<node id="-543527" lat="58.4678111121" lon="8.02554165996">
		<tag k="highway" v="path" />
		<tag k="name" v="Heieveien" />
		<tag k="ssr:stedsnr" v="515543" />
	</node>
	<node id="-544355" lat="58.4616805527" lon="7.86265555882">
>>>>>>> e1d4bc35ff8a6074a6f2e91616a996b547c36f15
		<tag k="highway" v="path" />
		<tag k="name" v="Kråkestien" />
		<tag k="ssr:stedsnr" v="91846" />
	</node>
<<<<<<< HEAD
	<node lat="58.455658333217286" lon="7.9180249950397705" id="-30576">
		<tag k="bridge" v="yes" />
		<tag k="layer" v="1" />
		<tag k="name" v="Kyrkjedalen" />
		<tag k="ssr:stedsnr" v="168229" />
	</node>
	<node lat="58.411572225881315" lon="8.08452222140432" id="-30636">
		<tag k="name" v="Vatnestraum stasjon" />
		<tag k="railway" v="station" />
		<tag k="ssr:stedsnr" v="212438" />
		<tag k="train" v="yes" />
	</node>
	<node lat="58.47186944673781" lon="7.892694443729631" id="-30788">
		<tag k="bridge" v="yes" />
		<tag k="layer" v="1" />
		<tag k="name" v="Eretveit" />
		<tag k="ssr:stedsnr" v="350128" />
	</node>
	<node lat="58.47470278156016" lon="7.888024995205148" id="-30789">
=======
	<node id="-543290" lat="58.4237166699" lon="7.91822776996">
		<tag k="ford" v="yes" />
		<tag k="name" v="Kongsvad" />
		<tag k="place" v="locality" />
		<tag k="ssr:stedsnr" v="455192" />
	</node>
	<node id="-544858" lat="58.5029472198" lon="7.92680278041">
		<tag k="highway" v="path" />
		<tag k="name" v="Stutestien" />
		<tag k="ssr:stedsnr" v="576698" />
	</node>
	<node id="-544983" lat="58.3883916664" lon="7.89655555837">
>>>>>>> e1d4bc35ff8a6074a6f2e91616a996b547c36f15
		<tag k="bridge" v="yes" />
		<tag k="layer" v="1" />
		<tag k="name" v="Eretveitstean" />
		<tag k="ssr:stedsnr" v="350129" />
	</node>
<<<<<<< HEAD
	<node lat="58.43473055457853" lon="8.007075006358562" id="-30866">
=======
	<node id="-543947" lat="58.391911107" lon="8.06425277681">
>>>>>>> e1d4bc35ff8a6074a6f2e91616a996b547c36f15
		<tag k="bridge" v="yes" />
		<tag k="layer" v="1" />
		<tag k="name" v="Sandhaug" />
		<tag k="ssr:stedsnr" v="411234" />
	</node>
<<<<<<< HEAD
	<node lat="58.49084166419824" lon="7.951452775634672" id="-30910">
		<tag k="highway" v="path" />
		<tag k="name" v="Heivegen" />
		<tag k="ssr:stedsnr" v="515477" />
	</node>
	<node lat="58.467811112057824" lon="8.025541659964258" id="-30922">
=======
	<node id="-544962" lat="58.5368527809" lon="7.90670555464">
		<tag k="fixme" v="verify maritime location" />
		<tag k="mooring" v="yes" />
		<tag k="name" v="Åsastø" />
		<tag k="place" v="locality" />
		<tag k="ssr:stedsnr" v="636718" />
	</node>
	<node id="-544958" lat="58.5034472196" lon="7.91907221778">
>>>>>>> e1d4bc35ff8a6074a6f2e91616a996b547c36f15
		<tag k="highway" v="path" />
		<tag k="name" v="Heieveien" />
		<tag k="ssr:stedsnr" v="515543" />
	</node>
<<<<<<< HEAD
	<node lat="58.454186107262174" lon="7.915194437566052" id="-30952">
		<tag k="bridge" v="yes" />
		<tag k="layer" v="1" />
		<tag k="name" v="Rone" />
		<tag k="ssr:stedsnr" v="532206" />
	</node>
	<node lat="58.44282499831041" lon="7.98715832978112" id="-31061">
=======
	<node id="-544954" lat="58.4428249983" lon="7.98715832978">
>>>>>>> e1d4bc35ff8a6074a6f2e91616a996b547c36f15
		<tag k="fixme" v="verify maritime location" />
		<tag k="mooring" v="yes" />
		<tag k="name" v="Veststø" />
		<tag k="place" v="locality" />
		<tag k="ssr:stedsnr" v="636592" />
	</node>
<<<<<<< HEAD
	<node lat="58.356647218655645" lon="7.90490833381602" id="-31072">
		<tag k="landuse" v="industrial" />
		<tag k="name" v="Nomeland kraftstasjon" />
		<tag k="power" v="plant" />
		<tag k="ssr:stedsnr" v="636243" />
	</node>
	<node lat="58.536852780870085" lon="7.906705554638277" id="-31095">
		<tag k="fixme" v="verify maritime location" />
		<tag k="mooring" v="yes" />
		<tag k="name" v="Åsastø" />
		<tag k="place" v="locality" />
		<tag k="ssr:stedsnr" v="636718" />
	</node>
	<node lat="58.39191110698603" lon="8.064252776813824" id="-31121">
		<tag k="bridge" v="yes" />
		<tag k="layer" v="1" />
		<tag k="name" v="Stians" />
		<tag k="ssr:stedsnr" v="714183" />
	</node>
	<node lat="58.39482221805601" lon="8.060088888892448" id="-31196">
		<tag k="bridge" v="yes" />
		<tag k="layer" v="1" />
		<tag k="name" v="Lunde" />
		<tag k="ssr:stedsnr" v="775211" />
	</node>
	<node lat="58.38492221847591" lon="8.068099995804944" id="-31197">
		<tag k="bridge" v="yes" />
		<tag k="layer" v="1" />
		<tag k="name" v="Landekil" />
		<tag k="ssr:stedsnr" v="775213" />
	</node>
	<node lat="58.44273056002011" lon="8.075588895316294" id="-31281">
		<tag k="bridge" v="yes" />
		<tag k="layer" v="1" />
		<tag k="name" v="Fjermeros" />
		<tag k="ssr:stedsnr" v="836101" />
	</node>
	<node lat="58.42556944731105" lon="7.965022223972264" id="-31463">
		<tag k="bridge" v="yes" />
		<tag k="layer" v="1" />
		<tag k="name" v="Ferevad" />
		<tag k="ssr:stedsnr" v="957134" />
	</node>
	<node lat="58.41661666626348" lon="8.059836105739329" id="-31464">
=======
	<node id="-543411" lat="58.4679249964" lon="7.8005805531">
		<tag k="bridge" v="yes" />
		<tag k="layer" v="1" />
		<tag k="name" v="Saukilen" />
		<tag k="ssr:stedsnr" v="471221" />
	</node>
	<node id="-543278" lat="58.3143166683" lon="7.96780277639">
		<tag k="landuse" v="industrial" />
		<tag k="name" v="Kringsjå kraftstasj. nedl." />
		<tag k="power" v="plant" />
		<tag k="ssr:stedsnr" v="455112" />
	</node>
	<node id="-544685" lat="58.4624805588" lon="7.91134999134">
		<tag k="bridge" v="yes" />
		<tag k="layer" v="1" />
		<tag k="name" v="Fosstveit" />
		<tag k="ssr:stedsnr" v="350208" />
	</node>
	<node id="-544684" lat="58.4747027816" lon="7.88802499521">
		<tag k="bridge" v="yes" />
		<tag k="layer" v="1" />
		<tag k="name" v="Eretveitstean" />
		<tag k="ssr:stedsnr" v="350129" />
	</node>
	<node id="-544683" lat="58.4718694467" lon="7.89269444373">
		<tag k="bridge" v="yes" />
		<tag k="layer" v="1" />
		<tag k="name" v="Eretveit" />
		<tag k="ssr:stedsnr" v="350128" />
	</node>
	<node id="-544551" lat="58.4115722259" lon="8.0845222214">
		<tag k="name" v="Vatnestraum stasjon" />
		<tag k="railway" v="station" />
		<tag k="ssr:stedsnr" v="212438" />
		<tag k="train" v="yes" />
	</node>
	<node id="-543524" lat="58.4908416642" lon="7.95145277563">
		<tag k="highway" v="path" />
		<tag k="name" v="Heivegen" />
		<tag k="ssr:stedsnr" v="515477" />
	</node>
	<node id="-544930" lat="58.3566472187" lon="7.90490833382">
		<tag k="landuse" v="industrial" />
		<tag k="name" v="Nomeland kraftstasjon" />
		<tag k="power" v="plant" />
		<tag k="ssr:stedsnr" v="636243" />
	</node>
	<node id="-545054" lat="58.3849222185" lon="8.0680999958">
>>>>>>> e1d4bc35ff8a6074a6f2e91616a996b547c36f15
		<tag k="bridge" v="yes" />
		<tag k="layer" v="1" />
		<tag k="name" v="Vatnestraum" />
		<tag k="ssr:stedsnr" v="957218" />
	</node>
<<<<<<< HEAD
	<node lat="58.46740555963565" lon="7.7987249938596" id="-31465">
		<tag k="bridge" v="yes" />
		<tag k="layer" v="1" />
		<tag k="name" v="Hornesund" />
		<tag k="ssr:stedsnr" v="957226" />
=======
	<node id="-545053" lat="58.3948222181" lon="8.06008888889">
		<tag k="bridge" v="yes" />
		<tag k="layer" v="1" />
		<tag k="name" v="Lunde" />
		<tag k="ssr:stedsnr" v="775211" />
	</node>
	<node id="-544662" lat="58.4592416679" lon="7.84689165894">
		<tag k="highway" v="path" />
		<tag k="name" v="Kleivane" />
		<tag k="ssr:stedsnr" v="333860" />
	</node>
	<node id="-545173" lat="58.4166166663" lon="8.05983610574">
		<tag k="bridge" v="yes" />
		<tag k="layer" v="1" />
		<tag k="name" v="Vatnestraum" />
		<tag k="ssr:stedsnr" v="957218" />
	</node>
	<node id="-545172" lat="58.4255694473" lon="7.96502222397">
		<tag k="bridge" v="yes" />
		<tag k="layer" v="1" />
		<tag k="name" v="Ferevad" />
		<tag k="ssr:stedsnr" v="957134" />
	</node>
	<node id="-544787" lat="58.4347305546" lon="8.00707500636">
		<tag k="bridge" v="yes" />
		<tag k="layer" v="1" />
		<tag k="name" v="Sandhaug" />
		<tag k="ssr:stedsnr" v="411234" />
	</node>
	<node id="-543250" lat="58.4328249978" lon="8.01181388802">
		<tag k="alt_name" v="Kråte" />
		<tag k="bridge" v="yes" />
		<tag k="layer" v="1" />
		<tag k="name" v="Kråkebrua" />
		<tag k="ssr:stedsnr" v="212604" />
	</node>
	<node id="-544014" lat="58.4674055596" lon="7.79872499386">
		<tag k="bridge" v="yes" />
		<tag k="layer" v="1" />
		<tag k="name" v="Hornesund" />
		<tag k="ssr:stedsnr" v="957226" />
	</node>
	<node id="-543405" lat="58.4633249963" lon="7.90951110711">
		<tag k="bridge" v="yes" />
		<tag k="layer" v="1" />
		<tag k="name" v="Framsjå" />
		<tag k="ssr:stedsnr" v="289213" />
	</node>
	<node id="-543881" lat="58.4780861094" lon="7.85456666556">
		<tag k="highway" v="path" />
		<tag k="name" v="Stien" />
		<tag k="ssr:stedsnr" v="880872" />
	</node>
	<node id="-543624" lat="58.4541861073" lon="7.91519443757">
		<tag k="bridge" v="yes" />
		<tag k="layer" v="1" />
		<tag k="name" v="Rone" />
		<tag k="ssr:stedsnr" v="532206" />
	</node>
	<node id="-543111" lat="58.4114666675" lon="8.08428054875">
		<tag k="name" v="Vatnstraum" />
		<tag k="railway" v="station" />
		<tag k="ssr:stedsnr" v="242173" />
		<tag k="train" v="yes" />
	</node>
	<node id="-543275" lat="58.4123972264" lon="8.05831111344">
		<tag k="fixme" v="consider highway=path" />
		<tag k="highway" v="track" />
		<tag k="name" v="Gamleveg" />
		<tag k="ssr:stedsnr" v="455381" />
>>>>>>> e1d4bc35ff8a6074a6f2e91616a996b547c36f15
	</node>
</osm>
