<?xml version="1.0" encoding="UTF-8"?>
<osm generator="osmapis" version="0.6">
	<node id="-535125" lat="58.5164527821" lon="7.91590277105">
		<tag k="name" v="Nyland" />
		<tag k="place" v="farm" />
		<tag k="ssr:stedsnr" v="151636" />
	</node>
	<node id="-536055" lat="58.3970638855" lon="7.94520277321">
		<tag k="name" v="Skogvin" />
		<tag k="place" v="farm" />
		<tag k="ssr:stedsnr" v="870068" />
	</node>
	<node id="-537076" lat="58.5029638863" lon="7.92327778465">
		<tag k="alt_name" v="Håverstad" />
		<tag k="fixme" v="consider place=hamlet" />
		<tag k="name" v="Håvarstad" />
		<tag k="place" v="farm" />
		<tag k="ssr:stedsnr" v="850418" />
	</node>
	<node id="-537075" lat="58.4586638846" lon="7.86305833788">
		<tag k="alt_name" v="Grossås" />
		<tag k="fixme" v="consider place=hamlet" />
		<tag k="name" v="Grosås" />
		<tag k="place" v="farm" />
		<tag k="ssr:stedsnr" v="850240" />
	</node>
	<node id="-535635" lat="58.468722226" lon="7.92178055776">
		<tag k="fixme" v="consider place=hamlet" />
		<tag k="name" v="Tjomstøl" />
		<tag k="place" v="farm" />
		<tag k="ssr:stedsnr" v="728213" />
	</node>
	<node id="-537072" lat="58.433686114" lon="7.85379721506">
		<tag k="name" v="Åsen" />
		<tag k="place" v="farm" />
		<tag k="ssr:stedsnr" v="850160" />
	</node>
	<node id="-537071" lat="58.4217388873" lon="8.06617500659">
		<tag k="name" v="Holtet" />
		<tag k="place" v="farm" />
		<tag k="ssr:stedsnr" v="850143" />
	</node>
	<node id="-535022" lat="58.4221083333" lon="7.9724611122">
		<tag k="alt_name" v="Mjåland;Mjåland, nedre" />
		<tag k="name" v="Nedre Mjåland" />
		<tag k="place" v="farm" />
		<tag k="ssr:stedsnr" v="243132" />
	</node>
	<node id="-537069" lat="58.3950861107" lon="8.03329722909">
		<tag k="fixme" v="consider place=hamlet" />
		<tag k="name" v="Svaland" />
		<tag k="place" v="farm" />
		<tag k="ssr:stedsnr" v="849212" />
	</node>
	<node id="-537068" lat="58.3827194441" lon="7.95115277168">
		<tag k="name" v="Budalshei" />
		<tag k="place" v="farm" />
		<tag k="ssr:stedsnr" v="849202" />
	</node>
	<node id="-537067" lat="58.3855861148" lon="8.03336943776">
		<tag k="fixme" v="consider place=hamlet" />
		<tag k="name" v="Omestad" />
		<tag k="place" v="farm" />
		<tag k="ssr:stedsnr" v="849195" />
	</node>
	<node id="-535018" lat="58.4744500036" lon="7.79420555218">
		<tag k="fixme" v="consider place=hamlet" />
		<tag k="name" v="Horne" />
		<tag k="place" v="farm" />
		<tag k="ssr:stedsnr" v="241084" />
	</node>
	<node id="-535017" lat="58.4867638916" lon="7.94047500652">
		<tag k="fixme" v="consider place=hamlet" />
		<tag k="name" v="Ljosland" />
		<tag k="place" v="farm" />
		<tag k="ssr:stedsnr" v="239119" />
	</node>
	<node id="-535528" lat="58.4349666673" lon="8.002547229">
		<tag k="name" v="Venje" />
		<tag k="place" v="farm" />
		<tag k="ssr:stedsnr" v="515625" />
	</node>
	<node id="-536550" lat="58.4141916626" lon="8.08048610915">
		<tag k="name" v="Nesbakken" />
		<tag k="place" v="farm" />
		<tag k="ssr:stedsnr" v="333467" />
	</node>
	<node id="-536548" lat="58.4431055531" lon="8.05683888989">
		<tag k="name" v="Heia" />
		<tag k="place" v="locality" />
		<tag k="ssr:stedsnr" v="333460" />
	</node>
	<node id="-536544" lat="58.4145527775" lon="8.05888610822">
		<tag k="name" v="Øygarden" />
		<tag k="place" v="farm" />
		<tag k="ssr:stedsnr" v="333444" />
	</node>
	<node id="-536543" lat="58.421883334" lon="8.06485277074">
		<tag k="name" v="Haugen" />
		<tag k="place" v="isolated_dwelling" />
		<tag k="ssr:stedsnr" v="333440" />
	</node>
	<node id="-536030" lat="58.4428694422" lon="7.91284167464">
		<tag k="name" v="Oppesjorde" />
		<tag k="place" v="locality" />
		<tag k="ssr:stedsnr" v="940813" />
	</node>
	<node id="-536022" lat="58.5214277773" lon="7.89468888103">
		<tag k="fixme" v="consider place=hamlet" />
		<tag k="name" v="Nedre Frigstad" />
		<tag k="place" v="farm" />
		<tag k="ssr:stedsnr" v="940741" />
	</node>
	<node id="-535181" lat="58.4131138858" lon="8.06272499542">
		<tag k="name" v="Vatnestrøm" />
		<tag k="place" v="farm" />
		<tag k="ssr:stedsnr" v="455361" />
	</node>
	<node id="-535501" lat="58.3973138926" lon="8.05239721854">
		<tag k="name" v="Steane" />
		<tag k="place" v="farm" />
		<tag k="ssr:stedsnr" v="667196" />
	</node>
	<node id="-536524" lat="58.4087055577" lon="7.94056945275">
		<tag k="name" v="Øygarden" />
		<tag k="place" v="locality" />
		<tag k="ssr:stedsnr" v="333031" />
	</node>
	<node id="-536011" lat="58.5017694407" lon="7.88199722498">
		<tag k="name" v="Liestøl" />
		<tag k="place" v="locality" />
		<tag k="ssr:stedsnr" v="940657" />
	</node>
	<node id="-535498" lat="58.4039972198" lon="7.90065832846">
		<tag k="fixme" v="consider place=hamlet" />
		<tag k="name" v="Tveit" />
		<tag k="place" v="farm" />
		<tag k="ssr:stedsnr" v="667154" />
	</node>
	<node id="-536520" lat="58.5039055567" lon="7.87373888935">
		<tag k="alt_name" v="Omdal" />
		<tag k="fixme" v="consider place=hamlet" />
		<tag k="name" v="Åmdal" />
		<tag k="place" v="farm" />
		<tag k="ssr:stedsnr" v="304391" />
	</node>
	<node id="-536519" lat="58.3160777772" lon="7.97067499875">
		<tag k="name" v="Kringsjå" />
		<tag k="place" v="isolated_dwelling" />
		<tag k="ssr:stedsnr" v="304092" />
	</node>
	<node id="-536518" lat="58.4978444432" lon="7.92315278347">
		<tag k="name" v="Håland" />
		<tag k="place" v="farm" />
		<tag k="ssr:stedsnr" v="303201" />
	</node>
	<node id="-536514" lat="58.4488805586" lon="7.99479444638">
		<tag k="fixme" v="consider place=hamlet" />
		<tag k="name" v="Ranestad" />
		<tag k="place" v="farm" />
		<tag k="ssr:stedsnr" v="303235" />
	</node>
	<node id="-536511" lat="58.4023138862" lon="7.91698055743">
		<tag k="fixme" v="consider place=hamlet" />
		<tag k="name" v="Bakken" />
		<tag k="place" v="farm" />
		<tag k="ssr:stedsnr" v="303132" />
	</node>
	<node id="-535882" lat="58.4772361094" lon="7.79345832968">
		<tag k="alt_name" v="Horne, austre" />
		<tag k="name" v="Austre Horne" />
		<tag k="place" v="farm" />
		<tag k="ssr:stedsnr" v="910198" />
	</node>
	<node id="-535988" lat="58.4122944469" lon="8.07933332732">
		<tag k="name" v="Nesheim" />
		<tag k="place" v="farm" />
		<tag k="ssr:stedsnr" v="940428" />
	</node>
	<node id="-535982" lat="58.4000583331" lon="8.08932499185">
		<tag k="name" v="Gjengninga" />
		<tag k="place" v="locality" />
		<tag k="ssr:stedsnr" v="940330" />
	</node>
	<node id="-535975" lat="58.4507277762" lon="7.81615277933">
		<tag k="name" v="Lille Øygarden" />
		<tag k="place" v="locality" />
		<tag k="ssr:stedsnr" v="940182" />
	</node>
	<node id="-536994" lat="58.341036112" lon="7.94640278552">
		<tag k="historic" v="shieling" />
		<tag k="name" v="Bjørkestøl" />
		<tag k="place" v="locality" />
		<tag k="ssr:stedsnr" v="819185" />
	</node>
	<node id="-536476" lat="58.4674666679" lon="8.05271111474">
		<tag k="name" v="Kleiva" />
		<tag k="place" v="locality" />
		<tag k="ssr:stedsnr" v="212545" />
	</node>
	<node id="-535963" lat="58.39586111" lon="7.94046110442">
		<tag k="name" v="Løland sag" />
		<tag k="place" v="locality" />
		<tag k="ssr:stedsnr" v="940044" />
	</node>
	<node id="-535875" lat="58.4342614241" lon="8.09179255434">
		<tag k="name" v="Fredheim" />
		<tag k="place" v="farm" />
		<tag k="ssr:stedsnr" v="910153" />
	</node>
	<node id="-535021" lat="58.4869888864" lon="7.94948888802">
		<tag k="alt_name" v="Ljosland, øvre" />
		<tag k="fixme" v="consider place=hamlet" />
		<tag k="name" v="Øvre Ljosland" />
		<tag k="place" v="farm" />
		<tag k="ssr:stedsnr" v="243180" />
	</node>
	<node id="-535947" lat="58.4734916683" lon="7.91784999174">
		<tag k="name" v="Kamperhaug" />
		<tag k="place" v="locality" />
		<tag k="ssr:stedsnr" v="819816" />
	</node>
	<node id="-536969" lat="58.4358027777" lon="8.07825555571">
		<tag k="fixme" v="consider place=hamlet" />
		<tag k="name" v="Fjermeros" />
		<tag k="place" v="farm" />
		<tag k="ssr:stedsnr" v="787097" />
	</node>
	<node id="-535425" lat="58.4120277745" lon="8.06084443888">
		<tag k="name" v="Øvre Vatnestrøm" />
		<tag k="place" v="farm" />
		<tag k="ssr:stedsnr" v="515430" />
	</node>
	<node id="-536810" lat="58.4880500014" lon="7.91738055658">
		<tag k="name" v="Solås" />
		<tag k="place" v="farm" />
		<tag k="ssr:stedsnr" v="606185" />
	</node>
	<node id="-536809" lat="58.3929361114" lon="7.91395000237">
		<tag k="fixme" v="consider place=hamlet" />
		<tag k="name" v="Skaiå" />
		<tag k="place" v="farm" />
		<tag k="ssr:stedsnr" v="606179" />
	</node>
	<node id="-535922" lat="58.4697444416" lon="7.90769166163">
		<tag k="fixme" v="consider place=hamlet" />
		<tag k="name" v="Nateland" />
		<tag k="place" v="farm" />
		<tag k="ssr:stedsnr" v="789243" />
	</node>
	<node id="-536433" lat="58.5202833348" lon="7.93093889131">
		<tag k="alt_name" v="Eftevatn" />
		<tag k="fixme" v="consider place=hamlet" />
		<tag k="name" v="Eptevatn" />
		<tag k="place" v="farm" />
		<tag k="ssr:stedsnr" v="183384" />
	</node>
	<node id="-536427" lat="58.4762722254" lon="8.03146388511">
		<tag k="fixme" v="consider place=hamlet" />
		<tag k="name" v="Engestøl" />
		<tag k="place" v="farm" />
		<tag k="ssr:stedsnr" v="182233" />
	</node>
	<node id="-536424" lat="58.4861305572" lon="7.97558610387">
		<tag k="fixme" v="consider place=hamlet" />
		<tag k="name" v="Elshaugane" />
		<tag k="place" v="farm" />
		<tag k="ssr:stedsnr" v="182186" />
	</node>
	<node id="-536423" lat="58.4383027795" lon="8.01952222785">
		<tag k="fixme" v="consider place=hamlet" />
		<tag k="name" v="Møkjåland" />
		<tag k="place" v="farm" />
		<tag k="ssr:stedsnr" v="182142" />
	</node>
	<node id="-536422" lat="58.4191944462" lon="7.82769721426">
		<tag k="fixme" v="consider place=hamlet" />
		<tag k="name" v="Øyna" />
		<tag k="place" v="farm" />
		<tag k="ssr:stedsnr" v="182137" />
	</node>
	<node id="-536421" lat="58.4073833314" lon="7.99368332976">
		<tag k="fixme" v="consider place=hamlet" />
		<tag k="name" v="Noslebu" />
		<tag k="place" v="farm" />
		<tag k="ssr:stedsnr" v="182117" />
	</node>
	<node id="-536420" lat="58.407561109" lon="7.8673944435">
		<tag k="fixme" v="consider place=hamlet" />
		<tag k="name" v="Dalane" />
		<tag k="place" v="farm" />
		<tag k="ssr:stedsnr" v="182115" />
	</node>
	<node id="-536929" lat="58.5251888878" lon="7.90944722363">
		<tag k="fixme" v="consider place=hamlet" />
		<tag k="name" v="Frigstad østre" />
		<tag k="place" v="farm" />
		<tag k="ssr:stedsnr" v="758749" />
	</node>
	<node id="-535903" lat="58.4343749967" lon="8.09223333047">
		<tag k="name" v="Fredheim leirsted" />
		<tag k="ssr:stedsnr" v="758470" />
		<tag k="tourism" v="guest_house" />
	</node>
	<node id="-535902" lat="58.418475" lon="8.0750916684">
		<tag k="name" v="Vatneli" />
		<tag k="place" v="isolated_dwelling" />
		<tag k="ssr:stedsnr" v="758462" />
	</node>
	<node id="-535900" lat="58.3528583372" lon="7.91391945071">
		<tag k="name" v="Øygarden" />
		<tag k="place" v="locality" />
		<tag k="ssr:stedsnr" v="758291" />
	</node>
	<node id="-535383" lat="58.5115750007" lon="7.90316389658">
		<tag k="name" v="Vedbakken" />
		<tag k="place" v="locality" />
		<tag k="ssr:stedsnr" v="394619" />
	</node>
	<node id="-535886" lat="58.4757027778" lon="7.95337499914">
		<tag k="name" v="Meeland" />
		<tag k="place" v="isolated_dwelling" />
		<tag k="ssr:stedsnr" v="910242" />
	</node>
	<node id="-535885" lat="58.479672218" lon="7.90060833791">
		<tag k="fixme" v="consider place=hamlet" />
		<tag k="name" v="Tortveit" />
		<tag k="place" v="farm" />
		<tag k="ssr:stedsnr" v="910241" />
	</node>
	<node id="-535884" lat="58.4530555534" lon="7.99097500157">
		<tag k="alt_name" v="Monen" />
		<tag k="name" v="Ranestadmoen" />
		<tag k="place" v="farm" />
		<tag k="ssr:stedsnr" v="910232" />
	</node>
	<node id="-535371" lat="58.4382194443" lon="8.00525832859">
		<tag k="fixme" v="consider place=hamlet" />
		<tag k="name" v="Eieland" />
		<tag k="place" v="farm" />
		<tag k="ssr:stedsnr" v="364168" />
	</node>
	<node id="-536906" lat="58.4331055582" lon="7.845694451">
		<tag k="name" v="Loddebu" />
		<tag k="place" v="isolated_dwelling" />
		<tag k="ssr:stedsnr" v="758145" />
	</node>
	<node id="-535881" lat="58.4871444489" lon="7.87768055621">
		<tag k="fixme" v="consider place=hamlet" />
		<tag k="name" v="Skripeland" />
		<tag k="place" v="farm" />
		<tag k="ssr:stedsnr" v="910196" />
	</node>
	<node id="-535880" lat="58.3982472245" lon="7.95211110977">
		<tag k="fixme" v="consider place=hamlet" />
		<tag k="name" v="Løland" />
		<tag k="place" v="farm" />
		<tag k="ssr:stedsnr" v="910189" />
	</node>
	<node id="-536903" lat="58.3212499976" lon="7.9507055639">
		<tag k="name" v="Knutane" />
		<tag k="place" v="locality" />
		<tag k="ssr:stedsnr" v="758134" />
	</node>
	<node id="-535366" lat="58.5034194486" lon="7.9838111094">
		<tag k="fixme" v="consider place=hamlet" />
		<tag k="name" v="Jokeli" />
		<tag k="place" v="farm" />
		<tag k="ssr:stedsnr" v="486416" />
	</node>
	<node id="-535363" lat="58.4623972205" lon="7.91175833985">
		<tag k="fixme" v="consider place=hamlet" />
		<tag k="name" v="Birketveit" />
		<tag k="place" v="village" />
		<tag k="ssr:stedsnr" v="485183" />
	</node>
	<node id="-535874" lat="58.3271972206" lon="7.96058333305">
		<tag k="alt_name" v="Kuarstøl" />
		<tag k="fixme" v="consider place=hamlet" />
		<tag k="name" v="Kuastøl" />
		<tag k="place" v="farm" />
		<tag k="ssr:stedsnr" v="910125" />
	</node>
	<node id="-535873" lat="58.3440916695" lon="7.91191388916">
		<tag k="fixme" v="consider place=hamlet" />
		<tag k="name" v="Skisland" />
		<tag k="place" v="farm" />
		<tag k="ssr:stedsnr" v="910084" />
	</node>
	<node id="-535872" lat="58.4613527789" lon="7.90944445198">
		<tag k="name" v="Trudvang" />
		<tag k="place" v="farm" />
		<tag k="ssr:stedsnr" v="907090" />
	</node>
	<node id="-535859" lat="58.4875749972" lon="7.82946667276">
		<tag k="name" v="Langevei" />
		<tag k="place" v="farm" />
		<tag k="ssr:stedsnr" v="728174" />
	</node>
	<node id="-536882" lat="58.4571416641" lon="7.91973889583">
		<tag k="amenity" v="school" />
		<tag k="name" v="Iveland skule" />
		<tag k="ssr:stedsnr" v="636831" />
	</node>
	<node id="-535853" lat="58.47374722" lon="7.87751389613">
		<tag k="name" v="Øygarden" />
		<tag k="place" v="locality" />
		<tag k="ssr:stedsnr" v="697853" />
	</node>
	<node id="-535846" lat="58.5007722235" lon="7.89362777107">
		<tag k="name" v="Øygarden" />
		<tag k="place" v="locality" />
		<tag k="ssr:stedsnr" v="697660" />
	</node>
	<node id="-535174" lat="58.4411888915" lon="7.87422777939">
		<tag k="name" v="Heia" />
		<tag k="place" v="farm" />
		<tag k="ssr:stedsnr" v="243211" />
	</node>
	<node id="-535840" lat="58.5280805582" lon="7.92650278361">
		<tag k="name" v="Kloppane" />
		<tag k="place" v="locality" />
		<tag k="ssr:stedsnr" v="697726" />
	</node>
	<node id="-535685" lat="58.5239638895" lon="7.8960333382">
		<tag k="name" v="Frikstad" />
		<tag k="place" v="hamlet" />
		<tag k="ssr:stedsnr" v="729434" />
	</node>
	<node id="-535318" lat="58.4969222211" lon="7.88654999445">
		<tag k="fixme" v="consider place=hamlet" />
		<tag k="name" v="Støldal" />
		<tag k="place" v="farm" />
		<tag k="ssr:stedsnr" v="303202" />
	</node>
	<node id="-535317" lat="58.4397499986" lon="8.07780833425">
		<tag k="alt_name" v="Fjermeros, øvre;Øvre Fjærmeros" />
		<tag k="name" v="Øvre Fjermeros" />
		<tag k="place" v="farm" />
		<tag k="ssr:stedsnr" v="303159" />
	</node>
	<node id="-536318" lat="58.4012527755" lon="7.87005554762">
		<tag k="name" v="Lianehytta" />
		<tag k="place" v="locality" />
		<tag k="ssr:stedsnr" v="151063" />
	</node>
	<node id="-535292" lat="58.4394361128" lon="8.01704443793">
		<tag k="name" v="Lykke" />
		<tag k="place" v="locality" />
		<tag k="ssr:stedsnr" v="273621" />
	</node>
	<node id="-535795" lat="58.4065944411" lon="7.96204444442">
		<tag k="name" v="Hestebeita" />
		<tag k="place" v="locality" />
		<tag k="ssr:stedsnr" v="880910" />
	</node>
	<node id="-535281" lat="58.4184638891" lon="8.06547499369">
		<tag k="name" v="Bakkane" />
		<tag k="place" v="quarter" />
		<tag k="ssr:stedsnr" v="273402" />
	</node>
	<node id="-536302" lat="58.5309749978" lon="7.92396667264">
		<tag k="fixme" v="consider place=hamlet" />
		<tag k="name" v="Birkeland" />
		<tag k="place" v="farm" />
		<tag k="ssr:stedsnr" v="122653" />
	</node>
	<node id="-536301" lat="58.4671694459" lon="8.05754999612">
		<tag k="alt_name" v="Fjermedal, nedre" />
		<tag k="fixme" v="consider place=hamlet" />
		<tag k="name" v="Nedre Fjermedal" />
		<tag k="place" v="farm" />
		<tag k="ssr:stedsnr" v="121240" />
	</node>
	<node id="-536811" lat="58.4963777759" lon="7.90987777947">
		<tag k="fixme" v="consider place=hamlet" />
		<tag k="name" v="Mølland" />
		<tag k="place" v="farm" />
		<tag k="ssr:stedsnr" v="606193" />
	</node>
	<node id="-536298" lat="58.3998333349" lon="7.99650000291">
		<tag k="fixme" v="consider place=hamlet" />
		<tag k="name" v="Svengestøl" />
		<tag k="place" v="farm" />
		<tag k="ssr:stedsnr" v="121182" />
	</node>
	<node id="-536297" lat="58.3846916656" lon="8.00021389029">
		<tag k="name" v="Stølen" />
		<tag k="place" v="farm" />
		<tag k="ssr:stedsnr" v="121171" />
	</node>
	<node id="-536808" lat="58.3992361109" lon="7.9664888877">
		<tag k="fixme" v="consider place=hamlet" />
		<tag k="name" v="Støledalen" />
		<tag k="place" v="farm" />
		<tag k="ssr:stedsnr" v="606176" />
	</node>
	<node id="-536295" lat="58.3773111217" lon="7.93250108116">
		<tag k="name" v="Halvfar" />
		<tag k="place" v="farm" />
		<tag k="ssr:stedsnr" v="121161" />
	</node>
	<node id="-536294" lat="58.3714361079" lon="7.98537222957">
		<tag k="fixme" v="consider place=hamlet" />
		<tag k="name" v="Leesland" />
		<tag k="place" v="farm" />
		<tag k="ssr:stedsnr" v="121154" />
	</node>
	<node id="-536293" lat="58.3734388869" lon="8.03659166791">
		<tag k="fixme" v="consider place=hamlet" />
		<tag k="name" v="Rønningen" />
		<tag k="place" v="farm" />
		<tag k="ssr:stedsnr" v="121153" />
	</node>
	<node id="-536796" lat="58.462613892" lon="7.91273333605">
		<tag k="amenity" v="hospital" />
		<tag k="name" v="Iveland sjukeheim" />
		<tag k="ssr:stedsnr" v="576834" />
	</node>
	<node id="-535769" lat="58.5266527784" lon="7.90394166122">
		<tag k="name" v="Høyland" />
		<tag k="place" v="locality" />
		<tag k="ssr:stedsnr" v="880732" />
	</node>
	<node id="-536756" lat="58.4142555542" lon="7.81119999675">
		<tag k="name" v="Rolleivstad" />
		<tag k="place" v="locality" />
		<tag k="ssr:stedsnr" v="576340" />
	</node>
	<node id="-535218" lat="58.4586249995" lon="7.95221388565">
		<tag k="name" v="Berås" />
		<tag k="place" v="locality" />
		<tag k="ssr:stedsnr" v="455532" />
	</node>
	<node id="-534984" lat="58.3616444429" lon="7.94525000112">
		<tag k="fixme" v="consider place=hamlet" />
		<tag k="name" v="Mykland" />
		<tag k="place" v="farm" />
		<tag k="ssr:stedsnr" v="80" />
	</node>
	<node id="-536238" lat="58.51687222" lon="7.91409722538">
		<tag k="amenity" v="school" />
		<tag k="name" v="Frigstad skule" />
		<tag k="ssr:stedsnr" v="91654" />
	</node>
	<node id="-536746" lat="58.3915527751" lon="7.90667500583">
		<tag k="amenity" v="school" />
		<tag k="name" v="Skaiå skule" />
		<tag k="ssr:stedsnr" v="576036" />
	</node>
	<node id="-535580" lat="58.5241527782" lon="7.89530277452">
		<tag k="fixme" v="consider place=hamlet" />
		<tag k="name" v="Frigstad vestre" />
		<tag k="place" v="farm" />
		<tag k="ssr:stedsnr" v="697734" />
	</node>
	<node id="-535921" lat="58.45426667" lon="7.90450278205">
		<tag k="fixme" v="consider place=hamlet" />
		<tag k="name" v="Hiltveit" />
		<tag k="place" v="farm" />
		<tag k="ssr:stedsnr" v="789240" />
	</node>
	<node id="-536221" lat="58.4294916626" lon="8.08095555">
		<tag k="name" v="Lomstjønn" />
		<tag k="place" v="farm" />
		<tag k="ssr:stedsnr" v="91451" />
	</node>
	<node id="-536725" lat="58.3988361148" lon="7.92755833133">
		<tag k="name" v="Lunden" />
		<tag k="place" v="farm" />
		<tag k="ssr:stedsnr" v="546183" />
	</node>
	<node id="-536723" lat="58.3833305592" lon="8.06840555081">
		<tag k="fixme" v="consider place=hamlet" />
		<tag k="name" v="Landekil" />
		<tag k="place" v="farm" />
		<tag k="ssr:stedsnr" v="546163" />
	</node>
	<node id="-536721" lat="58.4342805518" lon="7.89073610512">
		<tag k="fixme" v="consider place=hamlet" />
		<tag k="name" v="Rossås" />
		<tag k="place" v="farm" />
		<tag k="ssr:stedsnr" v="546153" />
	</node>
	<node id="-536720" lat="58.4358027777" lon="8.07825555571">
		<tag k="alt_name" v="Fjermeros, yt" />
		<tag k="name" v="Ytre Fjermeros" />
		<tag k="place" v="farm" />
		<tag k="ssr:stedsnr" v="546149" />
	</node>
	<node id="-535693" lat="58.4796722177" lon="8.01329443677">
		<tag k="fixme" v="consider place=hamlet" />
		<tag k="name" v="Eikeland" />
		<tag k="place" v="farm" />
		<tag k="ssr:stedsnr" v="667242" />
	</node>
	<node id="-535692" lat="58.4374972181" lon="7.87133332967">
		<tag k="name" v="Myrbotn" />
		<tag k="place" v="farm" />
		<tag k="ssr:stedsnr" v="667233" />
	</node>
	<node id="-535690" lat="58.4771444422" lon="7.84492221944">
		<tag k="name" v="Solberg" />
		<tag k="place" v="hamlet" />
		<tag k="ssr:stedsnr" v="667204" />
	</node>
	<node id="-536710" lat="58.3816972222" lon="7.92845555978">
		<tag k="name" v="Skaiåheia" />
		<tag k="place" v="isolated_dwelling" />
		<tag k="ssr:stedsnr" v="425177" />
	</node>
	<node id="-536709" lat="58.4290527819" lon="7.92431111005">
		<tag k="fixme" v="consider place=hamlet" />
		<tag k="name" v="Ivedal" />
		<tag k="place" v="farm" />
		<tag k="ssr:stedsnr" v="425146" />
	</node>
	<node id="-535172" lat="58.4869888894" lon="7.93660555818">
		<tag k="alt_name" v="Ljosland, nedre" />
		<tag k="name" v="Nedre Ljosland" />
		<tag k="place" v="farm" />
		<tag k="ssr:stedsnr" v="243177" />
	</node>
	<node id="-536707" lat="58.430736111" lon="7.98543056006">
		<tag k="alt_name" v="Årås" />
		<tag k="fixme" v="consider place=hamlet" />
		<tag k="name" v="Åros" />
		<tag k="place" v="farm" />
		<tag k="ssr:stedsnr" v="425143" />
	</node>
	<node id="-536706" lat="58.4244972251" lon="8.06017777602">
		<tag k="alt_name" v="Verebrot" />
		<tag k="fixme" v="consider place=hamlet" />
		<tag k="name" v="Verebråtane" />
		<tag k="place" v="farm" />
		<tag k="ssr:stedsnr" v="425138" />
	</node>
	<node id="-536705" lat="58.4207194411" lon="8.06190555713">
		<tag k="name" v="Frostemyr" />
		<tag k="place" v="farm" />
		<tag k="ssr:stedsnr" v="425133" />
	</node>
	<node id="-536703" lat="58.4659250023" lon="7.97269167091">
		<tag k="fixme" v="consider place=hamlet" />
		<tag k="name" v="Landsverk" />
		<tag k="place" v="farm" />
		<tag k="ssr:stedsnr" v="425233" />
	</node>
	<node id="-536702" lat="58.4543083317" lon="7.9198722227">
		<tag k="fixme" v="consider place=hamlet" />
		<tag k="name" v="Iveland" />
		<tag k="place" v="farm" />
		<tag k="ssr:stedsnr" v="425228" />
	</node>
	<node id="-536182" lat="58.4200416702" lon="8.03369165973">
		<tag k="name" v="Urda" />
		<tag k="place" v="farm" />
		<tag k="ssr:stedsnr" v="61134" />
	</node>
	<node id="-536181" lat="58.4263972237" lon="8.04252499435">
		<tag k="name" v="Lunden" />
		<tag k="place" v="isolated_dwelling" />
		<tag k="ssr:stedsnr" v="61130" />
	</node>
	<node id="-536180" lat="58.4152972215" lon="8.03823888264">
		<tag k="fixme" v="consider place=hamlet" />
		<tag k="name" v="Spjote" />
		<tag k="place" v="farm" />
		<tag k="ssr:stedsnr" v="61117" />
	</node>
	<node id="-536179" lat="58.3462111078" lon="7.96147777588">
		<tag k="alt_name" v="Tellhaugen" />
		<tag k="name" v="Tellhaugan" />
		<tag k="place" v="farm" />
		<tag k="ssr:stedsnr" v="61064" />
	</node>
	<node id="-536167" lat="58.3975194408" lon="8.0460972166">
		<tag k="name" v="Krossdal" />
		<tag k="place" v="farm" />
		<tag k="ssr:stedsnr" v="30948" />
	</node>
	<node id="-535644" lat="58.3503861149" lon="7.92260278292">
		<tag k="name" v="Taraldsplass" />
		<tag k="place" v="locality" />
		<tag k="ssr:stedsnr" v="636253" />
	</node>
	<node id="-535639" lat="58.4320250021" lon="7.9591250015">
		<tag k="name" v="Kleivane" />
		<tag k="place" v="farm" />
		<tag k="ssr:stedsnr" v="728131" />
	</node>
	<node id="-535638" lat="58.42010556" lon="7.90830277748">
		<tag k="fixme" v="consider place=hamlet" />
		<tag k="name" v="Frøyså" />
		<tag k="place" v="farm" />
		<tag k="ssr:stedsnr" v="728123" />
	</node>
	<node id="-535637" lat="58.4151083353" lon="7.96546111342">
		<tag k="alt_name" v="Mjåland, øvre;Mjåland" />
		<tag k="name" v="Øvre Mjåland" />
		<tag k="place" v="farm" />
		<tag k="ssr:stedsnr" v="728120" />
	</node>
	<node id="-535636" lat="58.4635111084" lon="7.91172500426">
		<tag k="name" v="Fosstveit" />
		<tag k="place" v="farm" />
		<tag k="ssr:stedsnr" v="728217" />
	</node>
	<node id="-536147" lat="58.4701916706" lon="7.94395554755">
		<tag k="name" v="Skrømestøl" />
		<tag k="place" v="farm" />
		<tag k="ssr:stedsnr" v="30830" />
	</node>
	<node id="-535634" lat="58.4686555514" lon="7.91487221997">
		<tag k="name" v="Fossli" />
		<tag k="place" v="farm" />
		<tag k="ssr:stedsnr" v="728211" />
	</node>
	<node id="-535632" lat="58.4538472236" lon="7.91622221778">
		<tag k="name" v="Iveland" />
		<tag k="place" v="hamlet" />
		<tag k="ssr:stedsnr" v="728199" />
	</node>
	<node id="-535630" lat="58.4441944439" lon="7.91574721755">
		<tag k="name" v="Tollekleiv" />
		<tag k="place" v="farm" />
		<tag k="ssr:stedsnr" v="728193" />
	</node>
	<node id="-535629" lat="58.4046361094" lon="8.08853333829">
		<tag k="building" v="industrial" />
		<tag k="name" v="Vosskilden" />
		<tag k="ssr:stedsnr" v="723684" />
	</node>
	<node id="-535111" lat="58.4211972222" lon="7.84974721761">
		<tag k="name" v="Øygarden" />
		<tag k="place" v="locality" />
		<tag k="ssr:stedsnr" v="151222" />
	</node>
	<node id="-535622" lat="58.4918972249" lon="7.84047499356">
		<tag k="fixme" v="consider place=hamlet" />
		<tag k="name" v="Landås" />
		<tag k="place" v="farm" />
		<tag k="ssr:stedsnr" v="606208" />
	</node>
	<node id="-535563" lat="58.4870333357" lon="7.92565277116">
		<tag k="name" v="Fossbekk" />
		<tag k="place" v="farm" />
		<tag k="ssr:stedsnr" v="697629" />
	</node>
	<node id="-535097" lat="58.3884722182" lon="8.04934165994">
		<tag k="name" v="Lauvfjell" />
		<tag k="place" v="isolated_dwelling" />
		<tag k="ssr:stedsnr" v="273977" />
	</node>
	<node id="-535561" lat="58.5127666644" lon="7.91391667076">
		<tag k="fixme" v="consider place=hamlet" />
		<tag k="name" v="Klepp" />
		<tag k="place" v="farm" />
		<tag k="ssr:stedsnr" v="697620" />
	</node>
	<node id="-535085" lat="58.4304777786" lon="7.92305555989">
		<tag k="name" v="Hagevoll" />
		<tag k="place" v="locality" />
		<tag k="ssr:stedsnr" v="273774" />
	</node>
	<node id="-536619" lat="58.3950027743" lon="7.92996388826">
		<tag k="name" v="Elgebrokka" />
		<tag k="place" v="locality" />
		<tag k="ssr:stedsnr" v="394033" />
	</node>
	<node id="-536103" lat="58.4175555545" lon="7.916122229">
		<tag k="name" v="Røllend" />
		<tag k="place" v="isolated_dwelling" />
		<tag k="ssr:stedsnr" v="30784" />
	</node>
	<node id="-535585" lat="58.4622166655" lon="7.93151389713">
		<tag k="name" v="Øygarden" />
		<tag k="place" v="locality" />
		<tag k="ssr:stedsnr" v="697826" />
	</node>
	<node id="-536605" lat="58.4665694486" lon="7.88941111518">
		<tag k="fixme" v="consider place=hamlet" />
		<tag k="name" v="Gautestad" />
		<tag k="place" v="farm" />
		<tag k="ssr:stedsnr" v="364266" />
	</node>
	<node id="-536604" lat="58.4560944479" lon="7.81983611177">
		<tag k="fixme" v="consider place=hamlet" />
		<tag k="name" v="Odderstøl" />
		<tag k="place" v="farm" />
		<tag k="ssr:stedsnr" v="364257" />
	</node>
	<node id="-536602" lat="58.489519449" lon="7.96581111761">
		<tag k="alt_name" v="Storemyr" />
		<tag k="name" v="Stormyr" />
		<tag k="place" v="farm" />
		<tag k="ssr:stedsnr" v="364214" />
	</node>
	<node id="-535727" lat="58.4327722262" lon="8.08560834049">
		<tag k="name" v="Hunsfossheimen" />
		<tag k="place" v="isolated_dwelling" />
		<tag k="ssr:stedsnr" v="880416" />
	</node>
	<node id="-536087" lat="58.5300527799" lon="7.91473888543">
		<tag k="fixme" v="consider place=hamlet" />
		<tag k="name" v="Kåbuland" />
		<tag k="place" v="farm" />
		<tag k="ssr:stedsnr" v="665" />
	</node>
	<node id="-536086" lat="58.4709111097" lon="7.88781667042">
		<tag k="fixme" v="consider place=hamlet" />
		<tag k="name" v="Æretveit" />
		<tag k="place" v="farm" />
		<tag k="ssr:stedsnr" v="255" />
	</node>
	<node id="-535061" lat="58.4190083362" lon="8.09014167122">
		<tag k="name" v="Bukksund" />
		<tag k="place" v="locality" />
		<tag k="ssr:stedsnr" v="273415" />
	</node>
	<node id="-535214" lat="58.4201138883" lon="8.0525166658">
		<tag k="name" v="Gåstjønndalen" />
		<tag k="place" v="locality" />
		<tag k="ssr:stedsnr" v="455510" />
	</node>
	<node id="-536079" lat="58.4753764065" lon="7.953393824">
		<tag k="fixme" v="consider place=hamlet" />
		<tag k="name" v="Meeland" />
		<tag k="place" v="farm" />
		<tag k="ssr:stedsnr" v="971457" />
	</node>
	<node id="-536078" lat="58.5231037162" lon="7.89625947012">
		<tag k="name" v="Frigstad" />
		<tag k="place" v="hamlet" />
		<tag k="ssr:stedsnr" v="971456" />
	</node>
	<node id="-536077" lat="58.4771237062" lon="7.85272422903">
		<tag k="fixme" v="consider place=hamlet" />
		<tag k="name" v="Østre Solberg" />
		<tag k="place" v="farm" />
		<tag k="ssr:stedsnr" v="971454" />
	</node>
	<node id="-536076" lat="58.4772234055" lon="7.8434765097">
		<tag k="fixme" v="consider place=hamlet" />
		<tag k="name" v="Vestre Solberg" />
		<tag k="place" v="farm" />
		<tag k="ssr:stedsnr" v="971453" />
	</node>
	<node id="-536075" lat="58.4585393873" lon="7.91767039586">
		<tag k="fixme" v="consider place=hamlet" />
		<tag k="name" v="Birketveit" />
		<tag k="place" v="farm" />
		<tag k="ssr:stedsnr" v="971451" />
	</node>
	<node id="-536074" lat="58.4197149133" lon="7.96868076752">
		<tag k="name" v="Mjåland" />
		<tag k="place" v="hamlet" />
		<tag k="ssr:stedsnr" v="971448" />
	</node>
	<node id="-536073" lat="58.422388134" lon="7.9714586522">
		<tag k="fixme" v="consider place=hamlet" />
		<tag k="name" v="Vestre Mjåland" />
		<tag k="place" v="farm" />
		<tag k="ssr:stedsnr" v="971447" />
	</node>
	<node id="-536072" lat="58.4156079087" lon="7.96676901133">
		<tag k="fixme" v="consider place=hamlet" />
		<tag k="name" v="Østre Mjåland" />
		<tag k="place" v="farm" />
		<tag k="ssr:stedsnr" v="971446" />
	</node>
	<node id="-535557" lat="58.4417416646" lon="8.00225277492">
		<tag k="name" v="Myra" />
		<tag k="place" v="locality" />
		<tag k="ssr:stedsnr" v="697593" />
	</node>
</osm>
