<?xml version="1.0" encoding="UTF-8"?>
<osm version="0.6" generator="osmapis">
	<node lat="61.592502778387875" lon="4.982955564192983" id="-66494">
		<tag k="name" v="Stongaoksen lanterne" />
		<tag k="ssr:date" v="2019-12-27" />
		<tag k="ssr:gruppe" v="navigasjon" />
		<tag k="ssr:hovedgruppe" v="infrastruktur" />
		<tag k="ssr:stedsnr" v="39113" />
		<tag k="ssr:type" v="lanterne" />
	</node>
	<node lat="61.60816944769287" lon="5.010483338535232" id="-66505">
		<tag k="name" v="Rotasundet lanterne" />
		<tag k="ssr:date" v="2019-12-27" />
		<tag k="ssr:gruppe" v="navigasjon" />
		<tag k="ssr:hovedgruppe" v="infrastruktur" />
		<tag k="ssr:stedsnr" v="239327" />
		<tag k="ssr:type" v="lanterne" />
	</node>
	<node lat="61.58185590454262" lon="5.453983326207548" id="-66517">
		<tag k="name" v="Storevika" />
		<tag k="ssr:date" v="2019-12-27" />
		<tag k="ssr:gruppe" v="veg" />
		<tag k="ssr:hovedgruppe" v="infrastruktur" />
		<tag k="ssr:stedsnr" v="58875" />
		<tag k="ssr:type" v="adressenavn" />
	</node>
	<node lat="61.594949995814524" lon="4.946505560296888" id="-66627">
		<tag k="name" v="Ånnøyholmbåen lanterne" />
		<tag k="ssr:date" v="2019-12-27" />
		<tag k="ssr:gruppe" v="navigasjon" />
		<tag k="ssr:hovedgruppe" v="infrastruktur" />
		<tag k="ssr:stedsnr" v="100132" />
		<tag k="ssr:type" v="lanterne" />
	</node>
	<node lat="61.986975569712094" lon="5.148334753467679" id="-66671">
		<tag k="name" v="Hornmarka" />
		<tag k="ssr:date" v="2019-12-27" />
		<tag k="ssr:gruppe" v="veg" />
		<tag k="ssr:hovedgruppe" v="infrastruktur" />
		<tag k="ssr:stedsnr" v="120915" />
		<tag k="ssr:type" v="adressenavn" />
	</node>
	<node lat="61.98755567755421" lon="5.07508732610234" id="-66673">
		<tag k="name" v="Traneberglia" />
		<tag k="ssr:date" v="2019-12-27" />
		<tag k="ssr:gruppe" v="veg" />
		<tag k="ssr:hovedgruppe" v="infrastruktur" />
		<tag k="ssr:stedsnr" v="120920" />
		<tag k="ssr:type" v="adressenavn" />
	</node>
	<node lat="61.58321143090162" lon="4.783511673040411" id="-66741">
		<tag k="alt_name" v="Æsøysundet" />
		<tag k="name" v="Æsøysundet lykt" />
		<tag k="ssr:date" v="2020-09-08" />
		<tag k="ssr:gruppe" v="navigasjon" />
		<tag k="ssr:hovedgruppe" v="infrastruktur" />
		<tag k="ssr:stedsnr" v="130116" />
		<tag k="ssr:type" v="fyrlykt" />
	</node>
	<node lat="62.03480737387837" lon="4.985627149149642" id="-66781">
		<tag k="alt_name" v="Kråkenes" />
		<tag k="name" v="Kråkenes fyr" />
		<tag k="ssr:date" v="2019-12-27" />
		<tag k="ssr:gruppe" v="navigasjon" />
		<tag k="ssr:hovedgruppe" v="infrastruktur" />
		<tag k="ssr:stedsnr" v="253696" />
		<tag k="ssr:type" v="fyrstasjon" />
	</node>
	<node lat="61.92936415611092" lon="5.144412461389549" id="-66851">
		<tag k="name" v="Ivahavet" />
		<tag k="ssr:date" v="2019-12-27" />
		<tag k="ssr:gruppe" v="veg" />
		<tag k="ssr:hovedgruppe" v="infrastruktur" />
		<tag k="ssr:stedsnr" v="181833" />
		<tag k="ssr:type" v="adressenavn" />
	</node>
	<node lat="61.94373202164516" lon="5.128171022403978" id="-66852">
		<tag k="name" v="Skoravegen" />
		<tag k="ssr:date" v="2019-12-27" />
		<tag k="ssr:gruppe" v="veg" />
		<tag k="ssr:hovedgruppe" v="infrastruktur" />
		<tag k="ssr:stedsnr" v="181916" />
		<tag k="ssr:type" v="adressenavn" />
	</node>
	<node lat="61.90090467012892" lon="5.192791371221678" id="-66856">
		<tag k="name" v="Angelshaugvegen" />
		<tag k="ssr:date" v="2019-12-27" />
		<tag k="ssr:gruppe" v="veg" />
		<tag k="ssr:hovedgruppe" v="infrastruktur" />
		<tag k="ssr:stedsnr" v="181859" />
		<tag k="ssr:type" v="adressenavn" />
	</node>
	<node lat="61.564154668111705" lon="4.772507085614954" id="-66918">
		<tag k="alt_name" v="Kinnasundet" />
		<tag k="name" v="Kinnesund" />
		<tag k="ssr:date" v="2020-09-08" />
		<tag k="ssr:gruppe" v="navigasjon" />
		<tag k="ssr:hovedgruppe" v="infrastruktur" />
		<tag k="ssr:stedsnr" v="210732" />
		<tag k="ssr:type" v="fyrlykt" />
	</node>
	<node lat="61.597608333232266" lon="4.967386118645945" id="-66996">
		<tag k="name" v="Svartskjerbåen lanterne" />
		<tag k="ssr:date" v="2019-12-27" />
		<tag k="ssr:gruppe" v="navigasjon" />
		<tag k="ssr:hovedgruppe" v="infrastruktur" />
		<tag k="ssr:stedsnr" v="239328" />
		<tag k="ssr:type" v="lanterne" />
	</node>
	<node lat="61.55390833804254" lon="5.273413895948566" id="-67152">
		<tag k="alt_name" v="Langenesgrunnen" />
		<tag k="name" v="Langenesgrunnen lykt" />
		<tag k="ssr:date" v="2019-12-27" />
		<tag k="ssr:gruppe" v="navigasjon" />
		<tag k="ssr:hovedgruppe" v="infrastruktur" />
		<tag k="ssr:stedsnr" v="295576" />
		<tag k="ssr:type" v="fyrlykt" />
	</node>
	<node lat="61.93701327867131" lon="5.107435209894475" id="-67160">
		<tag k="name" v="Kongshaugvegen" />
		<tag k="ssr:date" v="2019-12-27" />
		<tag k="ssr:gruppe" v="veg" />
		<tag k="ssr:hovedgruppe" v="infrastruktur" />
		<tag k="ssr:stedsnr" v="302893" />
		<tag k="ssr:type" v="adressenavn" />
	</node>
	<node lat="61.92615555135482" lon="5.0237972160659545" id="-67269">
		<tag k="name" v="Hovden lykt" />
		<tag k="ssr:date" v="2019-12-27" />
		<tag k="ssr:gruppe" v="navigasjon" />
		<tag k="ssr:hovedgruppe" v="infrastruktur" />
		<tag k="ssr:stedsnr" v="336851" />
		<tag k="ssr:type" v="fyrlykt" />
	</node>
	<node lat="61.62258055680338" lon="5.03462777960005" id="-67281">
		<tag k="name" v="Risøygrunnen lanterne" />
		<tag k="ssr:date" v="2019-12-27" />
		<tag k="ssr:gruppe" v="navigasjon" />
		<tag k="ssr:hovedgruppe" v="infrastruktur" />
		<tag k="ssr:stedsnr" v="360313" />
		<tag k="ssr:type" v="lanterne" />
	</node>
	<node lat="61.597177782070055" lon="4.955288885527313" id="-67282">
		<tag k="loc_name" v="Vestre Mortingsbåen lanterne" />
		<tag k="name" v="Mortingsbåen vestre" />
		<tag k="ssr:date" v="2019-12-27" />
		<tag k="ssr:gruppe" v="navigasjon" />
		<tag k="ssr:hovedgruppe" v="infrastruktur" />
		<tag k="ssr:stedsnr" v="360315" />
		<tag k="ssr:type" v="lanterne" />
	</node>
	<node lat="61.58653333360705" lon="4.99210277797891" id="-67283">
		<tag k="name" v="Trollskjeret" />
		<tag k="ssr:date" v="2019-12-27" />
		<tag k="ssr:gruppe" v="navigasjon" />
		<tag k="ssr:hovedgruppe" v="infrastruktur" />
		<tag k="ssr:stedsnr" v="360318" />
		<tag k="ssr:type" v="lanterne" />
	</node>
	<node lat="61.60067443925823" lon="4.955185478371669" id="-67285">
		<tag k="alt_name" v="Stabben" />
		<tag k="name" v="Stabben fyr" />
		<tag k="ssr:date" v="2019-12-27" />
		<tag k="ssr:gruppe" v="navigasjon" />
		<tag k="ssr:hovedgruppe" v="infrastruktur" />
		<tag k="ssr:stedsnr" v="477139" />
		<tag k="ssr:type" v="fyrstasjon" />
	</node>
	<node lat="61.629313891771446" lon="4.935202771302259" id="-67295">
		<tag k="name" v="Storeflea" />
		<tag k="ssr:date" v="2019-12-27" />
		<tag k="ssr:gruppe" v="navigasjon" />
		<tag k="ssr:hovedgruppe" v="infrastruktur" />
		<tag k="ssr:stedsnr" v="478905" />
		<tag k="ssr:type" v="lanterne" />
	</node>
	<node lat="61.58489722029228" lon="5.049711103636484" id="-67355">
		<tag k="name" v="Geitholmen lanterne" />
		<tag k="ssr:date" v="2019-12-27" />
		<tag k="ssr:gruppe" v="navigasjon" />
		<tag k="ssr:hovedgruppe" v="infrastruktur" />
		<tag k="ssr:stedsnr" v="482354" />
		<tag k="ssr:type" v="lanterne" />
	</node>
	<node lat="61.879744442817305" lon="5.174180555975282" id="-67431">
		<tag k="name" v="Risøy lykt" />
		<tag k="ssr:date" v="2019-12-27" />
		<tag k="ssr:gruppe" v="navigasjon" />
		<tag k="ssr:hovedgruppe" v="infrastruktur" />
		<tag k="ssr:stedsnr" v="397885" />
		<tag k="ssr:type" v="fyrlykt" />
	</node>
	<node lat="61.58144625671951" lon="4.947516467768876" id="-67498">
		<tag k="alt_name" v="Nekkøyosen" />
		<tag k="name" v="Nekkøyosen lykt" />
		<tag k="ssr:date" v="2020-09-08" />
		<tag k="ssr:gruppe" v="navigasjon" />
		<tag k="ssr:hovedgruppe" v="infrastruktur" />
		<tag k="ssr:stedsnr" v="493239" />
		<tag k="ssr:type" v="fyrlykt" />
	</node>
	<node lat="61.69713102303439" lon="4.831347160883902" id="-67517">
		<tag k="alt_name" v="Kvanhovden;Kvannhovden" />
		<tag k="name" v="Kvannhovden fyr" />
		<tag k="ssr:date" v="2020-09-01" />
		<tag k="ssr:gruppe" v="navigasjon" />
		<tag k="ssr:hovedgruppe" v="infrastruktur" />
		<tag k="ssr:stedsnr" v="494046" />
		<tag k="ssr:type" v="fyrstasjon" />
	</node>
	<node lat="62.05477271765136" lon="4.8580744302646925" id="-67678">
		<tag k="name" v="Havfruskallen lysbøye" />
		<tag k="ssr:date" v="2019-12-27" />
		<tag k="ssr:gruppe" v="navigasjon" />
		<tag k="ssr:hovedgruppe" v="infrastruktur" />
		<tag k="ssr:stedsnr" v="480007" />
		<tag k="ssr:type" v="lysbøye" />
	</node>
	<node lat="61.92615678457973" lon="5.023764004203825" id="-67728">
		<tag k="alt_name" v="Hovdeneset" />
		<tag k="name" v="Hovdeneset lykt" />
		<tag k="ssr:date" v="2020-09-08" />
		<tag k="ssr:gruppe" v="navigasjon" />
		<tag k="ssr:hovedgruppe" v="infrastruktur" />
		<tag k="ssr:stedsnr" v="495959" />
		<tag k="ssr:type" v="fyrlykt" />
	</node>
	<node lat="61.90603601681679" lon="5.0207521748857085" id="-67730">
		<tag k="alt_name" v="Kvitnes" />
		<tag k="name" v="Kvitnes lykt" />
		<tag k="ssr:date" v="2020-09-08" />
		<tag k="ssr:gruppe" v="navigasjon" />
		<tag k="ssr:hovedgruppe" v="infrastruktur" />
		<tag k="ssr:stedsnr" v="495974" />
		<tag k="ssr:type" v="fyrlykt" />
	</node>
	<node lat="61.59671744664615" lon="5.096427926617401" id="-67827">
		<tag k="name" v="Verpevika" />
		<tag k="ssr:date" v="2019-12-27" />
		<tag k="ssr:gruppe" v="veg" />
		<tag k="ssr:hovedgruppe" v="infrastruktur" />
		<tag k="ssr:stedsnr" v="543884" />
		<tag k="ssr:type" v="adressenavn" />
	</node>
	<node lat="61.57681137149874" lon="5.450774022294688" id="-67828">
		<tag k="name" v="Leirvågen" />
		<tag k="ssr:date" v="2019-12-27" />
		<tag k="ssr:gruppe" v="veg" />
		<tag k="ssr:hovedgruppe" v="infrastruktur" />
		<tag k="ssr:stedsnr" v="543886" />
		<tag k="ssr:type" v="adressenavn" />
	</node>
	<node lat="61.9221860166282" lon="5.150491415516735" id="-67829">
		<tag k="name" v="Myrane" />
		<tag k="ssr:date" v="2019-12-27" />
		<tag k="ssr:gruppe" v="veg" />
		<tag k="ssr:hovedgruppe" v="infrastruktur" />
		<tag k="ssr:stedsnr" v="545803" />
		<tag k="ssr:type" v="adressenavn" />
	</node>
	<node lat="61.93154751162427" lon="5.139326481133422" id="-67830">
		<tag k="name" v="Deknepollvegen" />
		<tag k="ssr:date" v="2019-12-27" />
		<tag k="ssr:gruppe" v="veg" />
		<tag k="ssr:hovedgruppe" v="infrastruktur" />
		<tag k="ssr:stedsnr" v="545813" />
		<tag k="ssr:type" v="adressenavn" />
	</node>
	<node lat="61.88022777701966" lon="5.178352778297851" id="-67831">
		<tag k="name" v="Risøya" />
		<tag k="ssr:date" v="2019-12-27" />
		<tag k="ssr:gruppe" v="veg" />
		<tag k="ssr:hovedgruppe" v="infrastruktur" />
		<tag k="ssr:stedsnr" v="545818" />
		<tag k="ssr:type" v="adressenavn" />
	</node>
	<node lat="61.66547838841458" lon="4.840640003822692" id="-67842">
		<tag k="alt_name" v="Dombeskjærene" />
		<tag k="name" v="Dombeskjera lykt" />
		<tag k="ssr:date" v="2020-09-08" />
		<tag k="ssr:gruppe" v="navigasjon" />
		<tag k="ssr:hovedgruppe" v="infrastruktur" />
		<tag k="ssr:stedsnr" v="554002" />
		<tag k="ssr:type" v="fyrlykt" />
	</node>
	<node lat="61.98671413408306" lon="5.120384065634575" id="-67933">
		<tag k="name" v="Kvalheimsvegen" />
		<tag k="ssr:date" v="2019-12-27" />
		<tag k="ssr:gruppe" v="veg" />
		<tag k="ssr:hovedgruppe" v="infrastruktur" />
		<tag k="ssr:stedsnr" v="578646" />
		<tag k="ssr:type" v="adressenavn" />
	</node>
	<node lat="61.608351829554884" lon="5.2425904789906905" id="-67938">
		<tag k="alt_name" v="Helgøy" />
		<tag k="name" v="Helgøy lykt" />
		<tag k="ssr:date" v="2020-09-08" />
		<tag k="ssr:gruppe" v="navigasjon" />
		<tag k="ssr:hovedgruppe" v="infrastruktur" />
		<tag k="ssr:stedsnr" v="695761" />
		<tag k="ssr:type" v="fyrlykt" />
	</node>
	<node lat="61.58340278114711" lon="5.431733329273183" id="-67994">
		<tag k="alt_name" v="Notholmen" />
		<tag k="name" v="Notholmen lykt" />
		<tag k="ssr:date" v="2019-12-27" />
		<tag k="ssr:gruppe" v="navigasjon" />
		<tag k="ssr:hovedgruppe" v="infrastruktur" />
		<tag k="ssr:stedsnr" v="599716" />
		<tag k="ssr:type" v="fyrlykt" />
	</node>
	<node lat="61.564364191422605" lon="5.499818240533962" id="-68008">
		<tag k="name" v="Osa" />
		<tag k="ssr:date" v="2019-12-27" />
		<tag k="ssr:gruppe" v="veg" />
		<tag k="ssr:hovedgruppe" v="infrastruktur" />
		<tag k="ssr:stedsnr" v="603852" />
		<tag k="ssr:type" v="adressenavn" />
	</node>
	<node lat="61.51850498377609" lon="4.8810437219478375" id="-68062">
		<tag k="alt_name" v="Kvanskjær" />
		<tag k="name" v="Kvannskjeret" />
		<tag k="ssr:date" v="2020-09-08" />
		<tag k="ssr:gruppe" v="navigasjon" />
		<tag k="ssr:hovedgruppe" v="infrastruktur" />
		<tag k="ssr:stedsnr" v="615743" />
		<tag k="ssr:type" v="fyrlykt" />
	</node>
	<node lat="61.98654166564676" lon="5.183775003806528" id="-68171">
		<tag k="name" v="Osmundvåg molo" />
		<tag k="ssr:date" v="2019-12-27" />
		<tag k="ssr:gruppe" v="navigasjon" />
		<tag k="ssr:hovedgruppe" v="infrastruktur" />
		<tag k="ssr:stedsnr" v="663996" />
		<tag k="ssr:type" v="lanterne" />
	</node>
	<node lat="61.93908581229953" lon="5.225292203960116" id="-68172">
		<tag k="name" v="Sørpollen" />
		<tag k="ssr:date" v="2019-12-27" />
		<tag k="ssr:gruppe" v="veg" />
		<tag k="ssr:hovedgruppe" v="infrastruktur" />
		<tag k="ssr:stedsnr" v="666834" />
		<tag k="ssr:type" v="adressenavn" />
	</node>
	<node lat="61.986992777841266" lon="5.127069102181305" id="-68173">
		<tag k="name" v="Leitet" />
		<tag k="ssr:date" v="2019-12-27" />
		<tag k="ssr:gruppe" v="veg" />
		<tag k="ssr:hovedgruppe" v="infrastruktur" />
		<tag k="ssr:stedsnr" v="666913" />
		<tag k="ssr:type" v="adressenavn" />
	</node>
	<node lat="61.627691668845166" lon="5.008972216674311" id="-68289">
		<tag k="name" v="Årebrotneset" />
		<tag k="ssr:date" v="2019-12-27" />
		<tag k="ssr:gruppe" v="navigasjon" />
		<tag k="ssr:hovedgruppe" v="infrastruktur" />
		<tag k="ssr:stedsnr" v="719565" />
		<tag k="ssr:type" v="jernstang" />
	</node>
	<node lat="61.92641870925434" lon="5.136585747364355" id="-68304">
		<tag k="name" v="Ytre Kulen" />
		<tag k="ssr:date" v="2019-12-27" />
		<tag k="ssr:gruppe" v="veg" />
		<tag k="ssr:hovedgruppe" v="infrastruktur" />
		<tag k="ssr:stedsnr" v="727825" />
		<tag k="ssr:type" v="adressenavn" />
	</node>
	<node lat="61.59263547079016" lon="5.065554660287198" id="-68438">
		<tag k="name" v="Furuholmen" />
		<tag k="ssr:date" v="2019-12-27" />
		<tag k="ssr:gruppe" v="veg" />
		<tag k="ssr:hovedgruppe" v="infrastruktur" />
		<tag k="ssr:stedsnr" v="907879" />
		<tag k="ssr:type" v="adressenavn" />
	</node>
	<node lat="61.926942673537944" lon="5.134943755413812" id="-68442">
		<tag k="name" v="Indre Kulen" />
		<tag k="ssr:date" v="2019-12-27" />
		<tag k="ssr:gruppe" v="veg" />
		<tag k="ssr:hovedgruppe" v="infrastruktur" />
		<tag k="ssr:stedsnr" v="909826" />
		<tag k="ssr:type" v="adressenavn" />
	</node>
	<node lat="61.948030592064256" lon="5.137595708098165" id="-68445">
		<tag k="name" v="Leistholmen lanterne" />
		<tag k="ssr:date" v="2019-12-27" />
		<tag k="ssr:gruppe" v="navigasjon" />
		<tag k="ssr:hovedgruppe" v="infrastruktur" />
		<tag k="ssr:stedsnr" v="781710" />
		<tag k="ssr:type" v="lanterne" />
	</node>
	<node lat="61.59636997462366" lon="5.07790258801965" id="-68452">
		<tag k="name" v="Kalvedalsvegen" />
		<tag k="ssr:date" v="2019-12-27" />
		<tag k="ssr:gruppe" v="veg" />
		<tag k="ssr:hovedgruppe" v="infrastruktur" />
		<tag k="ssr:stedsnr" v="785063" />
		<tag k="ssr:type" v="adressenavn" />
	</node>
	<node lat="61.983472603183586" lon="5.138733281620094" id="-68453">
		<tag k="name" v="Raudeberg molo" />
		<tag k="ssr:date" v="2019-12-27" />
		<tag k="ssr:gruppe" v="navigasjon" />
		<tag k="ssr:hovedgruppe" v="infrastruktur" />
		<tag k="ssr:stedsnr" v="785106" />
		<tag k="ssr:type" v="lanterne" />
	</node>
	<node lat="61.908694439976564" lon="5.105669435485318" id="-68455">
		<tag k="name" v="Gåsholmen" />
		<tag k="ssr:date" v="2019-12-27" />
		<tag k="ssr:gruppe" v="veg" />
		<tag k="ssr:hovedgruppe" v="infrastruktur" />
		<tag k="ssr:stedsnr" v="788823" />
		<tag k="ssr:type" v="adressenavn" />
	</node>
	<node lat="61.61541394036359" lon="4.8690042141692285" id="-68461">
		<tag k="alt_name" v="Vassøy" />
		<tag k="name" v="Vassøya lykt" />
		<tag k="ssr:date" v="2020-09-08" />
		<tag k="ssr:gruppe" v="navigasjon" />
		<tag k="ssr:hovedgruppe" v="infrastruktur" />
		<tag k="ssr:stedsnr" v="797171" />
		<tag k="ssr:type" v="fyrlykt" />
	</node>
	<node lat="61.50989356056948" lon="4.995883362069205" id="-68492">
		<tag k="alt_name" v="Askrova" />
		<tag k="name" v="Askrova lykt" />
		<tag k="ssr:date" v="2020-09-08" />
		<tag k="ssr:gruppe" v="navigasjon" />
		<tag k="ssr:hovedgruppe" v="infrastruktur" />
		<tag k="ssr:stedsnr" v="797805" />
		<tag k="ssr:type" v="fyrlykt" />
	</node>
	<node lat="61.610993417246924" lon="4.808411449298179" id="-68529">
		<tag k="alt_name" v="Teisthalsen" />
		<tag k="name" v="Teisthalsen lykt" />
		<tag k="ssr:date" v="2020-09-08" />
		<tag k="ssr:gruppe" v="navigasjon" />
		<tag k="ssr:hovedgruppe" v="infrastruktur" />
		<tag k="ssr:stedsnr" v="918179" />
		<tag k="ssr:type" v="fyrlykt" />
	</node>
	<node lat="61.5390899283497" lon="5.161184698387547" id="-68541">
		<tag k="alt_name" v="Stavangsund" />
		<tag k="name" v="Stavangsund lykt" />
		<tag k="ssr:date" v="2020-09-08" />
		<tag k="ssr:gruppe" v="navigasjon" />
		<tag k="ssr:hovedgruppe" v="infrastruktur" />
		<tag k="ssr:stedsnr" v="813903" />
		<tag k="ssr:type" v="fyrlykt" />
	</node>
	<node lat="62.013308511857936" lon="5.20461387418659" id="-68553">
		<tag k="name" v="Silda hamn" />
		<tag k="ssr:date" v="2019-12-27" />
		<tag k="ssr:gruppe" v="navigasjon" />
		<tag k="ssr:hovedgruppe" v="infrastruktur" />
		<tag k="ssr:stedsnr" v="817110" />
		<tag k="ssr:type" v="fyrlykt" />
	</node>
	<node lat="61.57546521722973" lon="4.6879719496051315" id="-68556">
		<tag k="alt_name" v="Ternehaug" />
		<tag k="name" v="Ternehaug lykt" />
		<tag k="ssr:date" v="2020-09-08" />
		<tag k="ssr:gruppe" v="navigasjon" />
		<tag k="ssr:hovedgruppe" v="infrastruktur" />
		<tag k="ssr:stedsnr" v="919470" />
		<tag k="ssr:type" v="fyrlykt" />
	</node>
	<node lat="61.583827780378535" lon="4.909047217228057" id="-68646">
		<tag k="alt_name" v="Tretteskjerstonga" />
		<tag k="name" v="Tretteskjerstonga lykt" />
		<tag k="ssr:date" v="2019-12-27" />
		<tag k="ssr:gruppe" v="navigasjon" />
		<tag k="ssr:hovedgruppe" v="infrastruktur" />
		<tag k="ssr:stedsnr" v="842824" />
		<tag k="ssr:type" v="fyrlykt" />
	</node>
	<node lat="61.583952469504275" lon="5.486051867507764" id="-68652">
		<tag k="name" v="Knapstadbakkane" />
		<tag k="ssr:date" v="2019-12-27" />
		<tag k="ssr:gruppe" v="veg" />
		<tag k="ssr:hovedgruppe" v="infrastruktur" />
		<tag k="ssr:stedsnr" v="847854" />
		<tag k="ssr:type" v="adressenavn" />
	</node>
	<node lat="61.636930556965204" lon="4.983686116994945" id="-68790">
		<tag k="alt_name" v="Vestre Tekneskjærflu" />
		<tag k="name" v="Vestre Tekneskjerflua lanterne" />
		<tag k="ssr:date" v="2019-12-27" />
		<tag k="ssr:gruppe" v="navigasjon" />
		<tag k="ssr:hovedgruppe" v="infrastruktur" />
		<tag k="ssr:stedsnr" v="907318" />
		<tag k="ssr:type" v="lanterne" />
	</node>
	<node lat="61.60839459675842" lon="5.058602712975835" id="-68791">
		<tag k="name" v="Sjufotsbåen lanterne" />
		<tag k="ssr:date" v="2019-12-27" />
		<tag k="ssr:gruppe" v="navigasjon" />
		<tag k="ssr:hovedgruppe" v="infrastruktur" />
		<tag k="ssr:stedsnr" v="907321" />
		<tag k="ssr:type" v="lanterne" />
	</node>
	<node lat="61.58289070274223" lon="5.496181265030091" id="-68792">
		<tag k="name" v="Knapstad" />
		<tag k="ssr:date" v="2019-12-27" />
		<tag k="ssr:gruppe" v="veg" />
		<tag k="ssr:hovedgruppe" v="infrastruktur" />
		<tag k="ssr:stedsnr" v="907815" />
		<tag k="ssr:type" v="adressenavn" />
	</node>
	<node lat="61.586462475332276" lon="5.461355917364161" id="-68793">
		<tag k="name" v="Indrebøvegen" />
		<tag k="ssr:date" v="2019-12-27" />
		<tag k="ssr:gruppe" v="veg" />
		<tag k="ssr:hovedgruppe" v="infrastruktur" />
		<tag k="ssr:stedsnr" v="907818" />
		<tag k="ssr:type" v="adressenavn" />
	</node>
	<node lat="61.5906471602362" lon="5.449427970096296" id="-68794">
		<tag k="name" v="Hamnavegen" />
		<tag k="ssr:date" v="2019-12-27" />
		<tag k="ssr:gruppe" v="veg" />
		<tag k="ssr:hovedgruppe" v="infrastruktur" />
		<tag k="ssr:stedsnr" v="907822" />
		<tag k="ssr:type" v="adressenavn" />
	</node>
	<node lat="61.58897256198652" lon="5.46443516608065" id="-68795">
		<tag k="name" v="Øvrebøvegen" />
		<tag k="ssr:date" v="2019-12-27" />
		<tag k="ssr:gruppe" v="veg" />
		<tag k="ssr:hovedgruppe" v="infrastruktur" />
		<tag k="ssr:stedsnr" v="907824" />
		<tag k="ssr:type" v="adressenavn" />
	</node>
	<node lat="61.52643211911084" lon="5.4943350850414765" id="-68796">
		<tag k="name" v="Steindalsvegen" />
		<tag k="ssr:date" v="2019-12-27" />
		<tag k="ssr:gruppe" v="veg" />
		<tag k="ssr:hovedgruppe" v="infrastruktur" />
		<tag k="ssr:stedsnr" v="907827" />
		<tag k="ssr:type" v="adressenavn" />
	</node>
	<node lat="61.60377394008037" lon="5.070790160483196" id="-68886">
		<tag k="name" v="Mjølkeneset" />
		<tag k="ssr:date" v="2019-12-27" />
		<tag k="ssr:gruppe" v="veg" />
		<tag k="ssr:hovedgruppe" v="infrastruktur" />
		<tag k="ssr:stedsnr" v="967046" />
		<tag k="ssr:type" v="adressenavn" />
	</node>
	<node lat="61.55071218905329" lon="4.7635262172882" id="-68916">
		<tag k="alt_name" v="Sandøya" />
		<tag k="name" v="Sandøy" />
		<tag k="ssr:date" v="2020-09-08" />
		<tag k="ssr:gruppe" v="navigasjon" />
		<tag k="ssr:hovedgruppe" v="infrastruktur" />
		<tag k="ssr:stedsnr" v="8236" />
		<tag k="ssr:type" v="fyrlykt" />
	</node>
	<node lat="61.95380833213763" lon="5.150477780050107" id="-69055">
		<tag k="name" v="Saltskjelneset" />
		<tag k="ssr:date" v="2019-12-27" />
		<tag k="ssr:gruppe" v="navigasjon" />
		<tag k="ssr:hovedgruppe" v="infrastruktur" />
		<tag k="ssr:stedsnr" v="55030" />
		<tag k="ssr:type" v="lanterne" />
	</node>
	<node lat="61.92515946435822" lon="5.1472161435124555" id="-69059">
		<tag k="name" v="Ulvesundvegen" />
		<tag k="ssr:date" v="2019-12-27" />
		<tag k="ssr:gruppe" v="veg" />
		<tag k="ssr:hovedgruppe" v="infrastruktur" />
		<tag k="ssr:stedsnr" v="60838" />
		<tag k="ssr:type" v="adressenavn" />
	</node>
	<node lat="61.93701715649788" lon="5.051814659483393" id="-69061">
		<tag k="name" v="Våge" />
		<tag k="ssr:date" v="2019-12-27" />
		<tag k="ssr:gruppe" v="veg" />
		<tag k="ssr:hovedgruppe" v="infrastruktur" />
		<tag k="ssr:stedsnr" v="60940" />
		<tag k="ssr:type" v="adressenavn" />
	</node>
	<node lat="62.023859739710716" lon="5.0154267379673785" id="-69201">
		<tag k="name" v="Kråkenesvegen" />
		<tag k="ssr:date" v="2019-12-27" />
		<tag k="ssr:gruppe" v="veg" />
		<tag k="ssr:hovedgruppe" v="infrastruktur" />
		<tag k="ssr:stedsnr" v="94383" />
		<tag k="ssr:type" v="adressenavn" />
	</node>
	<node lat="61.935139967908896" lon="5.106710232827447" id="-69226">
		<tag k="name" v="Øvre Skram" />
		<tag k="ssr:date" v="2019-12-27" />
		<tag k="ssr:gruppe" v="veg" />
		<tag k="ssr:hovedgruppe" v="infrastruktur" />
		<tag k="ssr:stedsnr" v="120898" />
		<tag k="ssr:type" v="adressenavn" />
	</node>
	<node lat="61.9865337785123" lon="5.118379932728256" id="-69227">
		<tag k="name" v="Gamle Kvalheimsvegen" />
		<tag k="ssr:date" v="2019-12-27" />
		<tag k="ssr:gruppe" v="veg" />
		<tag k="ssr:hovedgruppe" v="infrastruktur" />
		<tag k="ssr:stedsnr" v="120913" />
		<tag k="ssr:type" v="adressenavn" />
	</node>
	<node lat="61.96471339171088" lon="5.034144650886377" id="-69301">
		<tag k="alt_name" v="Hendanes" />
		<tag k="name" v="Hendanes lykt" />
		<tag k="old_name" v="Hendanes fyr" />
		<tag k="ssr:date" v="2020-09-08" />
		<tag k="ssr:gruppe" v="navigasjon" />
		<tag k="ssr:hovedgruppe" v="infrastruktur" />
		<tag k="ssr:stedsnr" v="146689" />
		<tag k="ssr:type" v="fyrlykt" />
	</node>
	<node lat="61.62753610931307" lon="5.009119451790639" id="-69416">
		<tag k="name" v="Årebrotneset" />
		<tag k="ssr:date" v="2019-12-27" />
		<tag k="ssr:gruppe" v="navigasjon" />
		<tag k="ssr:hovedgruppe" v="infrastruktur" />
		<tag k="ssr:stedsnr" v="178328" />
		<tag k="ssr:type" v="lanterne" />
	</node>
	<node lat="61.58129721897955" lon="5.001455563506885" id="-69417">
		<tag k="loc_name" v="Nordre Auseholet lanterne" />
		<tag k="name" v="Østre Furusund, nordre" />
		<tag k="ssr:date" v="2019-12-27" />
		<tag k="ssr:gruppe" v="navigasjon" />
		<tag k="ssr:hovedgruppe" v="infrastruktur" />
		<tag k="ssr:stedsnr" v="178333" />
		<tag k="ssr:type" v="lanterne" />
	</node>
	<node lat="61.602842834984244" lon="4.965162667315116" id="-69431">
		<tag k="alt_name" v="Grasskjær" />
		<tag k="name" v="Grasskjeret lykt" />
		<tag k="ssr:date" v="2019-12-27" />
		<tag k="ssr:gruppe" v="navigasjon" />
		<tag k="ssr:hovedgruppe" v="infrastruktur" />
		<tag k="ssr:stedsnr" v="190144" />
		<tag k="ssr:type" v="fyrlykt" />
	</node>
	<node lat="61.91600371800934" lon="5.137205987445572" id="-69468">
		<tag k="alt_name" v="Skavøypollen" />
		<tag k="name" v="Skavøypollen lykt" />
		<tag k="ssr:date" v="2019-12-27" />
		<tag k="ssr:gruppe" v="navigasjon" />
		<tag k="ssr:hovedgruppe" v="infrastruktur" />
		<tag k="ssr:stedsnr" v="192255" />
		<tag k="ssr:type" v="fyrlykt" />
	</node>
	<node lat="61.964679288798386" lon="5.034134666986831" id="-69476">
		<tag k="alt_name" v="Hendaneset" />
		<tag k="name" v="Hendaneset lykt" />
		<tag k="ssr:date" v="2020-09-08" />
		<tag k="ssr:gruppe" v="navigasjon" />
		<tag k="ssr:hovedgruppe" v="infrastruktur" />
		<tag k="ssr:stedsnr" v="192950" />
		<tag k="ssr:type" v="fyrlykt" />
	</node>
	<node lat="61.90061110824153" lon="5.035336119825684" id="-69622">
		<tag k="name" v="Krabbestighola" />
		<tag k="ssr:date" v="2019-12-27" />
		<tag k="ssr:gruppe" v="sjøbunn" />
		<tag k="ssr:hovedgruppe" v="sjø" />
		<tag k="ssr:stedsnr" v="275425" />
		<tag k="ssr:type" v="søkkISjø" />
	</node>
	<node lat="61.57965277791955" lon="4.956955564948069" id="-69640">
		<tag k="name" v="Færøybåen lanterne" />
		<tag k="ssr:date" v="2019-12-27" />
		<tag k="ssr:gruppe" v="navigasjon" />
		<tag k="ssr:hovedgruppe" v="infrastruktur" />
		<tag k="ssr:stedsnr" v="282146" />
		<tag k="ssr:type" v="lanterne" />
	</node>
	<node lat="61.5957508761476" lon="5.073051796245576" id="-69651">
		<tag k="name" v="Fagerlia" />
		<tag k="ssr:date" v="2019-12-27" />
		<tag k="ssr:gruppe" v="veg" />
		<tag k="ssr:hovedgruppe" v="infrastruktur" />
		<tag k="ssr:stedsnr" v="299061" />
		<tag k="ssr:type" v="adressenavn" />
	</node>
	<node lat="61.59775000397476" lon="4.957536111139274" id="-69657">
		<tag k="loc_name" v="Austre Mortingsbåen lanterne" />
		<tag k="name" v="Mortingsbåen østre" />
		<tag k="ssr:date" v="2019-12-27" />
		<tag k="ssr:gruppe" v="navigasjon" />
		<tag k="ssr:hovedgruppe" v="infrastruktur" />
		<tag k="ssr:stedsnr" v="300367" />
		<tag k="ssr:type" v="lanterne" />
	</node>
	<node lat="61.62324444226048" lon="5.013222217697426" id="-69658">
		<tag k="name" v="Risøya lanterne" />
		<tag k="ssr:date" v="2019-12-27" />
		<tag k="ssr:gruppe" v="navigasjon" />
		<tag k="ssr:hovedgruppe" v="infrastruktur" />
		<tag k="ssr:stedsnr" v="300371" />
		<tag k="ssr:type" v="lanterne" />
	</node>
	<node lat="61.89492777518121" lon="5.129044440035541" id="-69662">
		<tag k="name" v="Grindøya" />
		<tag k="ssr:date" v="2019-12-27" />
		<tag k="ssr:gruppe" v="veg" />
		<tag k="ssr:hovedgruppe" v="infrastruktur" />
		<tag k="ssr:stedsnr" v="302806" />
		<tag k="ssr:type" v="adressenavn" />
	</node>
	<node lat="61.63214645861589" lon="4.81619125558105" id="-69697">
		<tag k="alt_name" v="Værholmen" />
		<tag k="name" v="Værholmen lykt" />
		<tag k="ssr:date" v="2020-09-08" />
		<tag k="ssr:gruppe" v="navigasjon" />
		<tag k="ssr:hovedgruppe" v="infrastruktur" />
		<tag k="ssr:stedsnr" v="312068" />
		<tag k="ssr:type" v="fyrlykt" />
	</node>
	<node lat="61.9901055568146" lon="4.99426389377502" id="-69835">
		<tag k="name" v="Slumparhola" />
		<tag k="ssr:date" v="2019-12-27" />
		<tag k="ssr:gruppe" v="sjøbunn" />
		<tag k="ssr:hovedgruppe" v="sjø" />
		<tag k="ssr:stedsnr" v="337380" />
		<tag k="ssr:type" v="søkkISjø" />
	</node>
	<node lat="61.92230241298782" lon="5.221027494656792" id="-69865">
		<tag k="name" v="Seljevegen" />
		<tag k="ssr:date" v="2019-12-27" />
		<tag k="ssr:gruppe" v="veg" />
		<tag k="ssr:hovedgruppe" v="infrastruktur" />
		<tag k="ssr:stedsnr" v="363825" />
		<tag k="ssr:type" v="adressenavn" />
	</node>
	<node lat="61.92024166949074" lon="5.121547226410169" id="-69931">
		<tag k="name" v="Kariskjer" />
		<tag k="ssr:date" v="2019-12-27" />
		<tag k="ssr:gruppe" v="navigasjon" />
		<tag k="ssr:hovedgruppe" v="infrastruktur" />
		<tag k="ssr:stedsnr" v="377991" />
		<tag k="ssr:type" v="lanterne" />
	</node>
	<node lat="61.59750987377328" lon="5.081066431529541" id="-70033">
		<tag k="name" v="Krokalia" />
		<tag k="ssr:date" v="2019-12-27" />
		<tag k="ssr:gruppe" v="veg" />
		<tag k="ssr:hovedgruppe" v="infrastruktur" />
		<tag k="ssr:stedsnr" v="421054" />
		<tag k="ssr:type" v="adressenavn" />
	</node>
	<node lat="61.53106947732558" lon="5.45942044801566" id="-70040">
		<tag k="name" v="Svardalsvegen" />
		<tag k="ssr:date" v="2019-12-27" />
		<tag k="ssr:gruppe" v="veg" />
		<tag k="ssr:hovedgruppe" v="infrastruktur" />
		<tag k="ssr:stedsnr" v="422864" />
		<tag k="ssr:type" v="adressenavn" />
	</node>
	<node lat="61.91191730790711" lon="5.243658558330962" id="-70042">
		<tag k="name" v="Vemmelsvikvegen" />
		<tag k="ssr:date" v="2019-12-27" />
		<tag k="ssr:gruppe" v="veg" />
		<tag k="ssr:hovedgruppe" v="infrastruktur" />
		<tag k="ssr:stedsnr" v="424823" />
		<tag k="ssr:type" v="adressenavn" />
	</node>
	<node lat="61.66603539732325" lon="4.978773521499249" id="-70044">
		<tag k="alt_name" v="Seljestokk;Seljestokk lykt" />
		<tag k="name" v="Seljestokken lykt" />
		<tag k="ssr:date" v="2020-09-08" />
		<tag k="ssr:gruppe" v="navigasjon" />
		<tag k="ssr:hovedgruppe" v="infrastruktur" />
		<tag k="ssr:stedsnr" v="433023" />
		<tag k="ssr:type" v="fyrlykt" />
	</node>
	<node lat="61.5964874381812" lon="4.937829299955747" id="-70052">
		<tag k="alt_name" v="Ånøyskjær" />
		<tag k="name" v="Ånnøyskjeret lykt" />
		<tag k="ssr:date" v="2020-09-08" />
		<tag k="ssr:gruppe" v="navigasjon" />
		<tag k="ssr:hovedgruppe" v="infrastruktur" />
		<tag k="ssr:stedsnr" v="433138" />
		<tag k="ssr:type" v="fyrlykt" />
	</node>
	<node lat="61.96244196127456" lon="5.148823373222169" id="-70109">
		<tag k="alt_name" v="Ulven" />
		<tag k="name" v="Ulven lykt" />
		<tag k="ssr:date" v="2019-12-27" />
		<tag k="ssr:gruppe" v="navigasjon" />
		<tag k="ssr:hovedgruppe" v="infrastruktur" />
		<tag k="ssr:stedsnr" v="435786" />
		<tag k="ssr:type" v="fyrlykt" />
	</node>
	<node lat="61.587733330169236" lon="4.95571111786827" id="-70221">
		<tag k="name" v="Kalvøytåa nord" />
		<tag k="ssr:date" v="2019-12-27" />
		<tag k="ssr:gruppe" v="navigasjon" />
		<tag k="ssr:hovedgruppe" v="infrastruktur" />
		<tag k="ssr:stedsnr" v="525154" />
		<tag k="ssr:type" v="lanterne" />
	</node>
	<node lat="61.601552780207506" lon="5.011052775449403" id="-70244">
		<tag k="name" v="Nordnes molo lanterne" />
		<tag k="ssr:date" v="2019-12-27" />
		<tag k="ssr:gruppe" v="navigasjon" />
		<tag k="ssr:hovedgruppe" v="infrastruktur" />
		<tag k="ssr:stedsnr" v="542346" />
		<tag k="ssr:type" v="lanterne" />
	</node>
	<node lat="61.936391298740105" lon="5.1072756096350425" id="-70246">
		<tag k="name" v="Skramslia" />
		<tag k="ssr:date" v="2019-12-27" />
		<tag k="ssr:gruppe" v="veg" />
		<tag k="ssr:hovedgruppe" v="infrastruktur" />
		<tag k="ssr:stedsnr" v="545898" />
		<tag k="ssr:type" v="adressenavn" />
	</node>
	<node lat="61.87966397180118" lon="5.174654427624548" id="-70256">
		<tag k="alt_name" v="Risøy" />
		<tag k="name" v="Risøy lykt" />
		<tag k="ssr:date" v="2020-09-08" />
		<tag k="ssr:gruppe" v="navigasjon" />
		<tag k="ssr:hovedgruppe" v="infrastruktur" />
		<tag k="ssr:stedsnr" v="555138" />
		<tag k="ssr:type" v="fyrlykt" />
	</node>
	<node lat="61.98503076220972" lon="5.1685941463748994" id="-70308">
		<tag k="alt_name" v="Ulvesund" />
		<tag k="name" v="Ulvesund lykt" />
		<tag k="ssr:date" v="2019-12-27" />
		<tag k="ssr:gruppe" v="navigasjon" />
		<tag k="ssr:hovedgruppe" v="infrastruktur" />
		<tag k="ssr:stedsnr" v="555845" />
		<tag k="ssr:type" v="fyrlykt" />
	</node>
	<node lat="61.60264999972386" lon="4.974919437339384" id="-70449">
		<tag k="name" v="Grasskjerbåen lanterne" />
		<tag k="ssr:date" v="2019-12-27" />
		<tag k="ssr:gruppe" v="navigasjon" />
		<tag k="ssr:hovedgruppe" v="infrastruktur" />
		<tag k="ssr:stedsnr" v="603342" />
		<tag k="ssr:type" v="lanterne" />
	</node>
	<node lat="61.570762237290104" lon="4.679966147794476" id="-70463">
		<tag k="alt_name" v="Ytterøyane" />
		<tag k="name" v="Ytterøyane fyr" />
		<tag k="ssr:date" v="2019-12-27" />
		<tag k="ssr:gruppe" v="navigasjon" />
		<tag k="ssr:hovedgruppe" v="infrastruktur" />
		<tag k="ssr:stedsnr" v="615461" />
		<tag k="ssr:type" v="fyrstasjon" />
	</node>
	<node lat="61.596903398081864" lon="5.096862569679275" id="-70641">
		<tag k="name" v="Djupedalsvegen" />
		<tag k="ssr:date" v="2019-12-27" />
		<tag k="ssr:gruppe" v="veg" />
		<tag k="ssr:hovedgruppe" v="infrastruktur" />
		<tag k="ssr:stedsnr" v="663061" />
		<tag k="ssr:type" v="adressenavn" />
	</node>
	<node lat="61.57094437266809" lon="5.454245152597024" id="-70649">
		<tag k="name" v="Vikavegen" />
		<tag k="ssr:date" v="2019-12-27" />
		<tag k="ssr:gruppe" v="veg" />
		<tag k="ssr:hovedgruppe" v="infrastruktur" />
		<tag k="ssr:stedsnr" v="664861" />
		<tag k="ssr:type" v="adressenavn" />
	</node>
	<node lat="61.594176385917145" lon="5.441735493704327" id="-70650">
		<tag k="name" v="Kvalvikdalen" />
		<tag k="ssr:date" v="2019-12-27" />
		<tag k="ssr:gruppe" v="veg" />
		<tag k="ssr:hovedgruppe" v="infrastruktur" />
		<tag k="ssr:stedsnr" v="664863" />
		<tag k="ssr:type" v="adressenavn" />
	</node>
	<node lat="61.62775879921638" lon="4.99109586529488" id="-70657">
		<tag k="alt_name" v="Årebrot" />
		<tag k="name" v="Årebrot lykt" />
		<tag k="old_name" v="Årebrott" />
		<tag k="ssr:date" v="2019-12-27" />
		<tag k="ssr:gruppe" v="navigasjon" />
		<tag k="ssr:hovedgruppe" v="infrastruktur" />
		<tag k="ssr:stedsnr" v="720094" />
		<tag k="ssr:type" v="fyrlykt" />
	</node>
	<node lat="61.57823888862514" lon="5.003830560547633" id="-70664">
		<tag k="loc_name" v="Søre Auseholet lanterne" />
		<tag k="name" v="Østre Furusund, søre" />
		<tag k="ssr:date" v="2019-12-27" />
		<tag k="ssr:gruppe" v="navigasjon" />
		<tag k="ssr:hovedgruppe" v="infrastruktur" />
		<tag k="ssr:stedsnr" v="725332" />
		<tag k="ssr:type" v="lanterne" />
	</node>
	<node lat="61.5920642748362" lon="5.429697208066939" id="-70665">
		<tag k="name" v="Kvalvika" />
		<tag k="ssr:date" v="2019-12-27" />
		<tag k="ssr:gruppe" v="veg" />
		<tag k="ssr:hovedgruppe" v="infrastruktur" />
		<tag k="ssr:stedsnr" v="725839" />
		<tag k="ssr:type" v="adressenavn" />
	</node>
	<node lat="61.93901149792638" lon="5.109953188375604" id="-70667">
		<tag k="name" v="Skramsvegen" />
		<tag k="ssr:date" v="2019-12-27" />
		<tag k="ssr:gruppe" v="veg" />
		<tag k="ssr:hovedgruppe" v="infrastruktur" />
		<tag k="ssr:stedsnr" v="727899" />
		<tag k="ssr:type" v="adressenavn" />
	</node>
	<node lat="61.92749265126119" lon="5.108661677041989" id="-70863">
		<tag k="name" v="Oppedalsvegen" />
		<tag k="ssr:date" v="2019-12-27" />
		<tag k="ssr:gruppe" v="veg" />
		<tag k="ssr:hovedgruppe" v="infrastruktur" />
		<tag k="ssr:stedsnr" v="788900" />
		<tag k="ssr:type" v="adressenavn" />
	</node>
	<node lat="61.4838152743372" lon="4.992743843247383" id="-70879">
		<tag k="alt_name" v="Trefotskjer" />
		<tag k="name" v="Trefotskjer lykt" />
		<tag k="ssr:date" v="2020-09-08" />
		<tag k="ssr:gruppe" v="navigasjon" />
		<tag k="ssr:hovedgruppe" v="infrastruktur" />
		<tag k="ssr:stedsnr" v="797331" />
		<tag k="ssr:type" v="fyrlykt" />
	</node>
	<node lat="61.6032805521687" lon="5.010169448364014" id="-71028">
		<tag k="alt_name" v="Florø" />
		<tag k="name" v="Florø lykt" />
		<tag k="ssr:date" v="2019-12-27" />
		<tag k="ssr:gruppe" v="navigasjon" />
		<tag k="ssr:hovedgruppe" v="infrastruktur" />
		<tag k="ssr:stedsnr" v="841863" />
		<tag k="ssr:type" v="fyrlykt" />
	</node>
	<node lat="61.60249138964842" lon="5.064053577958546" id="-71035">
		<tag k="name" v="Nesvegen" />
		<tag k="ssr:date" v="2019-12-27" />
		<tag k="ssr:gruppe" v="veg" />
		<tag k="ssr:hovedgruppe" v="infrastruktur" />
		<tag k="ssr:stedsnr" v="846045" />
		<tag k="ssr:type" v="adressenavn" />
	</node>
	<node lat="61.59506314944469" lon="5.089741135922861" id="-71036">
		<tag k="name" v="Dragselvvegen" />
		<tag k="old_name" v="Dragsvegen" />
		<tag k="ssr:date" v="2019-12-27" />
		<tag k="ssr:gruppe" v="veg" />
		<tag k="ssr:hovedgruppe" v="infrastruktur" />
		<tag k="ssr:stedsnr" v="846054" />
		<tag k="ssr:type" v="adressenavn" />
	</node>
	<node lat="61.90312366225232" lon="5.091264340103444" id="-71041">
		<tag k="name" v="Krabbestigvegen" />
		<tag k="ssr:date" v="2019-12-27" />
		<tag k="ssr:gruppe" v="veg" />
		<tag k="ssr:hovedgruppe" v="infrastruktur" />
		<tag k="ssr:stedsnr" v="849847" />
		<tag k="ssr:type" v="adressenavn" />
	</node>
	<node lat="61.64004337981301" lon="4.778467845063133" id="-71047">
		<tag k="alt_name" v="Ystevikneset" />
		<tag k="name" v="Ysteviknes" />
		<tag k="ssr:date" v="2020-09-08" />
		<tag k="ssr:gruppe" v="navigasjon" />
		<tag k="ssr:hovedgruppe" v="infrastruktur" />
		<tag k="ssr:stedsnr" v="858120" />
		<tag k="ssr:type" v="fyrlykt" />
	</node>
	<node lat="61.91972520956339" lon="5.179659013785925" id="-71332">
		<tag k="name" v="Evjevegen" />
		<tag k="ssr:date" v="2019-12-27" />
		<tag k="ssr:gruppe" v="veg" />
		<tag k="ssr:hovedgruppe" v="infrastruktur" />
		<tag k="ssr:stedsnr" v="970664" />
		<tag k="ssr:type" v="adressenavn" />
	</node>
	<node lat="61.92487771055015" lon="5.147640184398738" id="-71346">
		<tag k="name" v="Kulavegen" />
		<tag k="ssr:date" v="2019-12-27" />
		<tag k="ssr:gruppe" v="veg" />
		<tag k="ssr:hovedgruppe" v="infrastruktur" />
		<tag k="ssr:stedsnr" v="982259" />
		<tag k="ssr:type" v="adressenavn" />
	</node>
	<node lat="61.59332935814834" lon="5.002704709603034" id="-71350">
		<tag k="name" v="Digreneset" />
		<tag k="ssr:date" v="2019-12-27" />
		<tag k="ssr:gruppe" v="veg" />
		<tag k="ssr:hovedgruppe" v="infrastruktur" />
		<tag k="ssr:stedsnr" v="1051894" />
		<tag k="ssr:type" v="adressenavn" />
	</node>
	<node lat="61.59704831196542" lon="5.046475957166206" id="-71351">
		<tag k="name" v="Elias Melværgate" />
		<tag k="ssr:date" v="2019-12-27" />
		<tag k="ssr:gruppe" v="veg" />
		<tag k="ssr:hovedgruppe" v="infrastruktur" />
		<tag k="ssr:stedsnr" v="1051895" />
		<tag k="ssr:type" v="adressenavn" />
	</node>
	<node lat="61.59299951249852" lon="5.0604893264539115" id="-71352">
		<tag k="name" v="Eikedalen" />
		<tag k="ssr:date" v="2019-12-27" />
		<tag k="ssr:gruppe" v="veg" />
		<tag k="ssr:hovedgruppe" v="infrastruktur" />
		<tag k="ssr:stedsnr" v="1051896" />
		<tag k="ssr:type" v="adressenavn" />
	</node>
	<node lat="61.591181747530044" lon="5.009186987446287" id="-71354">
		<tag k="name" v="Sjølvbyggarvegen" />
		<tag k="ssr:date" v="2019-12-27" />
		<tag k="ssr:gruppe" v="veg" />
		<tag k="ssr:hovedgruppe" v="infrastruktur" />
		<tag k="ssr:stedsnr" v="1051786" />
		<tag k="ssr:type" v="adressenavn" />
	</node>
	<node lat="61.5969041319288" lon="5.0134659219594795" id="-71357">
		<tag k="name" v="Slettevegen" />
		<tag k="ssr:date" v="2019-12-27" />
		<tag k="ssr:gruppe" v="veg" />
		<tag k="ssr:hovedgruppe" v="infrastruktur" />
		<tag k="ssr:stedsnr" v="1051789" />
		<tag k="ssr:type" v="adressenavn" />
	</node>
	<node lat="61.59939683959874" lon="5.063867474451999" id="-71358">
		<tag k="name" v="Skudalsvegen" />
		<tag k="ssr:date" v="2019-12-27" />
		<tag k="ssr:gruppe" v="veg" />
		<tag k="ssr:hovedgruppe" v="infrastruktur" />
		<tag k="ssr:stedsnr" v="1051790" />
		<tag k="ssr:type" v="adressenavn" />
	</node>
	<node lat="61.59934850934039" lon="5.061864977587444" id="-71359">
		<tag k="name" v="Olav Sindresonvegen" />
		<tag k="ssr:date" v="2019-12-27" />
		<tag k="ssr:gruppe" v="veg" />
		<tag k="ssr:hovedgruppe" v="infrastruktur" />
		<tag k="ssr:stedsnr" v="1051791" />
		<tag k="ssr:type" v="adressenavn" />
	</node>
	<node lat="61.593508808209926" lon="5.011620517032939" id="-71361">
		<tag k="name" v="Nyheimvegen" />
		<tag k="ssr:date" v="2019-12-27" />
		<tag k="ssr:gruppe" v="veg" />
		<tag k="ssr:hovedgruppe" v="infrastruktur" />
		<tag k="ssr:stedsnr" v="1051793" />
		<tag k="ssr:type" v="adressenavn" />
	</node>
	<node lat="61.59738788129333" lon="5.005032493437469" id="-71365">
		<tag k="name" v="Porsvegen" />
		<tag k="ssr:date" v="2019-12-27" />
		<tag k="ssr:gruppe" v="veg" />
		<tag k="ssr:hovedgruppe" v="infrastruktur" />
		<tag k="ssr:stedsnr" v="1051797" />
		<tag k="ssr:type" v="adressenavn" />
	</node>
	<node lat="61.59874808422949" lon="5.02678967980379" id="-71366">
		<tag k="name" v="Michael Sarsgate" />
		<tag k="ssr:date" v="2019-12-27" />
		<tag k="ssr:gruppe" v="veg" />
		<tag k="ssr:hovedgruppe" v="infrastruktur" />
		<tag k="ssr:stedsnr" v="1051798" />
		<tag k="ssr:type" v="adressenavn" />
	</node>
	<node lat="61.59910334038771" lon="5.036574522528216" id="-71370">
		<tag k="name" v="Markegata" />
		<tag k="ssr:date" v="2019-12-27" />
		<tag k="ssr:gruppe" v="veg" />
		<tag k="ssr:hovedgruppe" v="infrastruktur" />
		<tag k="ssr:stedsnr" v="1051802" />
		<tag k="ssr:type" v="adressenavn" />
	</node>
	<node lat="61.59133645377092" lon="5.03842452750155" id="-71371">
		<tag k="name" v="Nonskarvegen" />
		<tag k="ssr:date" v="2019-12-27" />
		<tag k="ssr:gruppe" v="veg" />
		<tag k="ssr:hovedgruppe" v="infrastruktur" />
		<tag k="ssr:stedsnr" v="1051803" />
		<tag k="ssr:type" v="adressenavn" />
	</node>
	<node lat="61.5979558286526" lon="5.015535780399129" id="-71374">
		<tag k="name" v="Nordnesvegen" />
		<tag k="ssr:date" v="2019-12-27" />
		<tag k="ssr:gruppe" v="veg" />
		<tag k="ssr:hovedgruppe" v="infrastruktur" />
		<tag k="ssr:stedsnr" v="1051806" />
		<tag k="ssr:type" v="adressenavn" />
	</node>
	<node lat="61.5931689606669" lon="5.057730863710759" id="-71377">
		<tag k="name" v="Nygård" />
		<tag k="ssr:date" v="2019-12-27" />
		<tag k="ssr:gruppe" v="veg" />
		<tag k="ssr:hovedgruppe" v="infrastruktur" />
		<tag k="ssr:stedsnr" v="1051809" />
		<tag k="ssr:type" v="adressenavn" />
	</node>
	<node lat="61.596095605280865" lon="5.010496215209121" id="-71378">
		<tag k="name" v="Nyborgvegen" />
		<tag k="ssr:date" v="2019-12-27" />
		<tag k="ssr:gruppe" v="veg" />
		<tag k="ssr:hovedgruppe" v="infrastruktur" />
		<tag k="ssr:stedsnr" v="1051810" />
		<tag k="ssr:type" v="adressenavn" />
	</node>
	<node lat="61.59885479390383" lon="5.050424964409653" id="-71381">
		<tag k="name" v="Leirvåggata" />
		<tag k="ssr:date" v="2019-12-27" />
		<tag k="ssr:gruppe" v="veg" />
		<tag k="ssr:hovedgruppe" v="infrastruktur" />
		<tag k="ssr:stedsnr" v="1051813" />
		<tag k="ssr:type" v="adressenavn" />
	</node>
	<node lat="61.59847685516401" lon="5.032946802133841" id="-71387">
		<tag k="name" v="Magnus Thingnesgate" />
		<tag k="ssr:date" v="2019-12-27" />
		<tag k="ssr:gruppe" v="veg" />
		<tag k="ssr:hovedgruppe" v="infrastruktur" />
		<tag k="ssr:stedsnr" v="1051819" />
		<tag k="ssr:type" v="adressenavn" />
	</node>
	<node lat="61.59317202268327" lon="5.035739319884578" id="-71388">
		<tag k="name" v="Vangsvegen" />
		<tag k="ssr:date" v="2019-12-27" />
		<tag k="ssr:gruppe" v="veg" />
		<tag k="ssr:hovedgruppe" v="infrastruktur" />
		<tag k="ssr:stedsnr" v="1051820" />
		<tag k="ssr:type" v="adressenavn" />
	</node>
	<node lat="61.58754257112747" lon="5.018058552214735" id="-71389">
		<tag k="name" v="Vågavegen" />
		<tag k="ssr:date" v="2019-12-27" />
		<tag k="ssr:gruppe" v="veg" />
		<tag k="ssr:hovedgruppe" v="infrastruktur" />
		<tag k="ssr:stedsnr" v="1051821" />
		<tag k="ssr:type" v="adressenavn" />
	</node>
	<node lat="61.596765673142436" lon="5.014116953128544" id="-71391">
		<tag k="name" v="Vestnesvegen" />
		<tag k="ssr:date" v="2019-12-27" />
		<tag k="ssr:gruppe" v="veg" />
		<tag k="ssr:hovedgruppe" v="infrastruktur" />
		<tag k="ssr:stedsnr" v="1051823" />
		<tag k="ssr:type" v="adressenavn" />
	</node>
	<node lat="61.59466066037592" lon="5.03434251172802" id="-71392">
		<tag k="name" v="Åsheimvegen" />
		<tag k="ssr:date" v="2019-12-27" />
		<tag k="ssr:gruppe" v="veg" />
		<tag k="ssr:hovedgruppe" v="infrastruktur" />
		<tag k="ssr:stedsnr" v="1051824" />
		<tag k="ssr:type" v="adressenavn" />
	</node>
	<node lat="61.591136053318706" lon="5.004351153137319" id="-71393">
		<tag k="name" v="Svanheimvegen" />
		<tag k="ssr:date" v="2019-12-27" />
		<tag k="ssr:gruppe" v="veg" />
		<tag k="ssr:hovedgruppe" v="infrastruktur" />
		<tag k="ssr:stedsnr" v="1051825" />
		<tag k="ssr:type" v="adressenavn" />
	</node>
	<node lat="61.59949533093739" lon="5.029186004997168" id="-71396">
		<tag k="name" v="Strandgata" />
		<tag k="ssr:date" v="2019-12-27" />
		<tag k="ssr:gruppe" v="veg" />
		<tag k="ssr:hovedgruppe" v="infrastruktur" />
		<tag k="ssr:stedsnr" v="1051828" />
		<tag k="ssr:type" v="adressenavn" />
	</node>
	<node lat="61.5900629625854" lon="5.004286076312509" id="-71397">
		<tag k="name" v="Sørheimvegen" />
		<tag k="ssr:date" v="2019-12-27" />
		<tag k="ssr:gruppe" v="veg" />
		<tag k="ssr:hovedgruppe" v="infrastruktur" />
		<tag k="ssr:stedsnr" v="1051829" />
		<tag k="ssr:type" v="adressenavn" />
	</node>
	<node lat="61.586120587350756" lon="5.02402772161698" id="-71398">
		<tag k="name" v="Thor Solbergvegen" />
		<tag k="ssr:date" v="2019-12-27" />
		<tag k="ssr:gruppe" v="veg" />
		<tag k="ssr:hovedgruppe" v="infrastruktur" />
		<tag k="ssr:stedsnr" v="1051830" />
		<tag k="ssr:type" v="adressenavn" />
	</node>
	<node lat="61.600172982649156" lon="5.034613850642925" id="-71401">
		<tag k="name" v="Torggata" />
		<tag k="ssr:date" v="2019-12-27" />
		<tag k="ssr:gruppe" v="veg" />
		<tag k="ssr:hovedgruppe" v="infrastruktur" />
		<tag k="ssr:stedsnr" v="1051833" />
		<tag k="ssr:type" v="adressenavn" />
	</node>
	<node lat="61.593092516491026" lon="5.063888638090672" id="-71402">
		<tag k="name" v="Smievegen" />
		<tag k="ssr:date" v="2019-12-27" />
		<tag k="ssr:gruppe" v="veg" />
		<tag k="ssr:hovedgruppe" v="infrastruktur" />
		<tag k="ssr:stedsnr" v="1051834" />
		<tag k="ssr:type" v="adressenavn" />
	</node>
	<node lat="61.58931601273043" lon="5.039668473965375" id="-71405">
		<tag k="name" v="Brendøyvegen" />
		<tag k="ssr:date" v="2019-12-27" />
		<tag k="ssr:gruppe" v="veg" />
		<tag k="ssr:hovedgruppe" v="infrastruktur" />
		<tag k="ssr:stedsnr" v="1051887" />
		<tag k="ssr:type" v="adressenavn" />
	</node>
	<node lat="61.59480050033662" lon="5.012488844580004" id="-71407">
		<tag k="name" v="Breivikvegen" />
		<tag k="ssr:date" v="2019-12-27" />
		<tag k="ssr:gruppe" v="veg" />
		<tag k="ssr:hovedgruppe" v="infrastruktur" />
		<tag k="ssr:stedsnr" v="1051889" />
		<tag k="ssr:type" v="adressenavn" />
	</node>
	<node lat="61.59272398372418" lon="5.035555928541778" id="-71408">
		<tag k="name" v="Dalvegen" />
		<tag k="ssr:date" v="2019-12-27" />
		<tag k="ssr:gruppe" v="veg" />
		<tag k="ssr:hovedgruppe" v="infrastruktur" />
		<tag k="ssr:stedsnr" v="1051890" />
		<tag k="ssr:type" v="adressenavn" />
	</node>
	<node lat="61.591295711930705" lon="5.051493751639432" id="-71409">
		<tag k="name" v="Båtevika" />
		<tag k="ssr:date" v="2019-12-27" />
		<tag k="ssr:gruppe" v="veg" />
		<tag k="ssr:hovedgruppe" v="infrastruktur" />
		<tag k="ssr:stedsnr" v="1051891" />
		<tag k="ssr:type" v="adressenavn" />
	</node>
	<node lat="61.59910503648136" lon="5.038516180689309" id="-71410">
		<tag k="name" v="Claus Findegate" />
		<tag k="ssr:date" v="2019-12-27" />
		<tag k="ssr:gruppe" v="veg" />
		<tag k="ssr:hovedgruppe" v="infrastruktur" />
		<tag k="ssr:stedsnr" v="1051892" />
		<tag k="ssr:type" v="adressenavn" />
	</node>
	<node lat="61.59796487779772" lon="5.044514863439221" id="-71412">
		<tag k="name" v="Sandåkervegen" />
		<tag k="ssr:date" v="2019-12-27" />
		<tag k="ssr:gruppe" v="veg" />
		<tag k="ssr:hovedgruppe" v="infrastruktur" />
		<tag k="ssr:stedsnr" v="1051782" />
		<tag k="ssr:type" v="adressenavn" />
	</node>
	<node lat="61.59829883581286" lon="5.062154023246148" id="-71413">
		<tag k="name" v="Ragnarrud" />
		<tag k="ssr:date" v="2019-12-27" />
		<tag k="ssr:gruppe" v="veg" />
		<tag k="ssr:hovedgruppe" v="infrastruktur" />
		<tag k="ssr:stedsnr" v="1051783" />
		<tag k="ssr:type" v="adressenavn" />
	</node>
	<node lat="61.59943404928708" lon="5.058912480219203" id="-71414">
		<tag k="name" v="Selhaugvegen" />
		<tag k="ssr:date" v="2019-12-27" />
		<tag k="ssr:gruppe" v="veg" />
		<tag k="ssr:hovedgruppe" v="infrastruktur" />
		<tag k="ssr:stedsnr" v="1051784" />
		<tag k="ssr:type" v="adressenavn" />
	</node>
	<node lat="61.599187162744585" lon="5.009513491065992" id="-71417">
		<tag k="name" v="Solbøvegen" />
		<tag k="ssr:date" v="2019-12-27" />
		<tag k="ssr:gruppe" v="veg" />
		<tag k="ssr:hovedgruppe" v="infrastruktur" />
		<tag k="ssr:stedsnr" v="1051837" />
		<tag k="ssr:type" v="adressenavn" />
	</node>
	<node lat="61.59315262476071" lon="5.057656365143563" id="-71420">
		<tag k="name" v="Stien" />
		<tag k="ssr:date" v="2019-12-27" />
		<tag k="ssr:gruppe" v="veg" />
		<tag k="ssr:hovedgruppe" v="infrastruktur" />
		<tag k="ssr:stedsnr" v="1051840" />
		<tag k="ssr:type" v="adressenavn" />
	</node>
	<node lat="61.599535183051565" lon="5.0246649879463074" id="-71421">
		<tag k="name" v="Stadionvegen" />
		<tag k="ssr:date" v="2019-12-27" />
		<tag k="ssr:gruppe" v="veg" />
		<tag k="ssr:hovedgruppe" v="infrastruktur" />
		<tag k="ssr:stedsnr" v="1051841" />
		<tag k="ssr:type" v="adressenavn" />
	</node>
	<node lat="61.59534692192169" lon="5.050757547192876" id="-71423">
		<tag k="name" v="Anders Lothevegen" />
		<tag k="ssr:date" v="2019-12-27" />
		<tag k="ssr:gruppe" v="veg" />
		<tag k="ssr:hovedgruppe" v="infrastruktur" />
		<tag k="ssr:stedsnr" v="1051843" />
		<tag k="ssr:type" v="adressenavn" />
	</node>
	<node lat="61.59118086412323" lon="5.005828083028466" id="-71424">
		<tag k="name" v="Auklandsvegen" />
		<tag k="ssr:date" v="2019-12-27" />
		<tag k="ssr:gruppe" v="veg" />
		<tag k="ssr:hovedgruppe" v="infrastruktur" />
		<tag k="ssr:stedsnr" v="1051844" />
		<tag k="ssr:type" v="adressenavn" />
	</node>
	<node lat="61.600716607994116" lon="5.063484239490358" id="-71425">
		<tag k="name" v="Bekkefaret" />
		<tag k="ssr:date" v="2019-12-27" />
		<tag k="ssr:gruppe" v="veg" />
		<tag k="ssr:hovedgruppe" v="infrastruktur" />
		<tag k="ssr:stedsnr" v="1051845" />
		<tag k="ssr:type" v="adressenavn" />
	</node>
	<node lat="61.5969041319288" lon="5.0134659219594795" id="-71433">
		<tag k="name" v="Håmannsvegen" />
		<tag k="ssr:date" v="2019-12-27" />
		<tag k="ssr:gruppe" v="veg" />
		<tag k="ssr:hovedgruppe" v="infrastruktur" />
		<tag k="ssr:stedsnr" v="1051855" />
		<tag k="ssr:type" v="adressenavn" />
	</node>
	<node lat="61.59816475673186" lon="5.016454743660513" id="-71434">
		<tag k="name" v="Håvågen" />
		<tag k="ssr:date" v="2019-12-27" />
		<tag k="ssr:gruppe" v="veg" />
		<tag k="ssr:hovedgruppe" v="infrastruktur" />
		<tag k="ssr:stedsnr" v="1051856" />
		<tag k="ssr:type" v="adressenavn" />
	</node>
	<node lat="61.5965148910015" lon="5.060949760692128" id="-71436">
		<tag k="name" v="Hjortefaret" />
		<tag k="ssr:date" v="2019-12-27" />
		<tag k="ssr:gruppe" v="veg" />
		<tag k="ssr:hovedgruppe" v="infrastruktur" />
		<tag k="ssr:stedsnr" v="1051858" />
		<tag k="ssr:type" v="adressenavn" />
	</node>
	<node lat="61.599922130747736" lon="5.0640928378878165" id="-71437">
		<tag k="name" v="Jakob Sandevegen" />
		<tag k="ssr:date" v="2019-12-27" />
		<tag k="ssr:gruppe" v="veg" />
		<tag k="ssr:hovedgruppe" v="infrastruktur" />
		<tag k="ssr:stedsnr" v="1051859" />
		<tag k="ssr:type" v="adressenavn" />
	</node>
	<node lat="61.589649515251665" lon="5.008298298893189" id="-71438">
		<tag k="name" v="Industrivegen" />
		<tag k="ssr:date" v="2019-12-27" />
		<tag k="ssr:gruppe" v="veg" />
		<tag k="ssr:hovedgruppe" v="infrastruktur" />
		<tag k="ssr:stedsnr" v="1051860" />
		<tag k="ssr:type" v="adressenavn" />
	</node>
	<node lat="61.59121619855135" lon="5.042793372992353" id="-71439">
		<tag k="name" v="Keilevegen" />
		<tag k="ssr:date" v="2019-12-27" />
		<tag k="ssr:gruppe" v="veg" />
		<tag k="ssr:hovedgruppe" v="infrastruktur" />
		<tag k="ssr:stedsnr" v="1051861" />
		<tag k="ssr:type" v="adressenavn" />
	</node>
	<node lat="61.592016507306425" lon="5.048258487125601" id="-71440">
		<tag k="name" v="Kleiva" />
		<tag k="ssr:date" v="2019-12-27" />
		<tag k="ssr:gruppe" v="veg" />
		<tag k="ssr:hovedgruppe" v="infrastruktur" />
		<tag k="ssr:stedsnr" v="1051862" />
		<tag k="ssr:type" v="adressenavn" />
	</node>
	<node lat="61.59618209035133" lon="5.048796849581951" id="-71445">
		<tag k="name" v="Gaddevåggata" />
		<tag k="ssr:date" v="2019-12-27" />
		<tag k="ssr:gruppe" v="veg" />
		<tag k="ssr:hovedgruppe" v="infrastruktur" />
		<tag k="ssr:stedsnr" v="1051867" />
		<tag k="ssr:type" v="adressenavn" />
	</node>
	<node lat="61.600353909306556" lon="5.027310837613162" id="-71447">
		<tag k="name" v="Hamnegata" />
		<tag k="ssr:date" v="2019-12-27" />
		<tag k="ssr:gruppe" v="veg" />
		<tag k="ssr:hovedgruppe" v="infrastruktur" />
		<tag k="ssr:stedsnr" v="1051869" />
		<tag k="ssr:type" v="adressenavn" />
	</node>
	<node lat="61.599060092454486" lon="5.028365494208838" id="-71449">
		<tag k="name" v="Hans Blomgate" />
		<tag k="ssr:date" v="2019-12-27" />
		<tag k="ssr:gruppe" v="veg" />
		<tag k="ssr:hovedgruppe" v="infrastruktur" />
		<tag k="ssr:stedsnr" v="1051871" />
		<tag k="ssr:type" v="adressenavn" />
	</node>
	<node lat="61.601725855061794" lon="5.045604868201278" id="-71450">
		<tag k="name" v="Hamregata" />
		<tag k="ssr:date" v="2019-12-27" />
		<tag k="ssr:gruppe" v="veg" />
		<tag k="ssr:hovedgruppe" v="infrastruktur" />
		<tag k="ssr:stedsnr" v="1051872" />
		<tag k="ssr:type" v="adressenavn" />
	</node>
	<node lat="61.58951311843195" lon="5.008008284219438" id="-71452">
		<tag k="name" v="Havrenesvegen" />
		<tag k="ssr:date" v="2019-12-27" />
		<tag k="ssr:gruppe" v="veg" />
		<tag k="ssr:hovedgruppe" v="infrastruktur" />
		<tag k="ssr:stedsnr" v="1051874" />
		<tag k="ssr:type" v="adressenavn" />
	</node>
	<node lat="61.592980381730605" lon="5.039899794458442" id="-71453">
		<tag k="name" v="Em Holevegen" />
		<tag k="ssr:date" v="2019-12-27" />
		<tag k="ssr:gruppe" v="veg" />
		<tag k="ssr:hovedgruppe" v="infrastruktur" />
		<tag k="ssr:stedsnr" v="1051875" />
		<tag k="ssr:type" v="adressenavn" />
	</node>
	<node lat="61.5987764915157" lon="5.041285152753321" id="-71454">
		<tag k="name" v="Evjegata" />
		<tag k="ssr:date" v="2019-12-27" />
		<tag k="ssr:gruppe" v="veg" />
		<tag k="ssr:hovedgruppe" v="infrastruktur" />
		<tag k="ssr:stedsnr" v="1051876" />
		<tag k="ssr:type" v="adressenavn" />
	</node>
	<node lat="61.600989380695175" lon="5.0651901849045" id="-71456">
		<tag k="name" v="Furuhaugane" />
		<tag k="ssr:date" v="2019-12-27" />
		<tag k="ssr:gruppe" v="veg" />
		<tag k="ssr:hovedgruppe" v="infrastruktur" />
		<tag k="ssr:stedsnr" v="1051878" />
		<tag k="ssr:type" v="adressenavn" />
	</node>
	<node lat="61.59587309021581" lon="5.033301025462413" id="-71458">
		<tag k="name" v="Furuholtvegen" />
		<tag k="ssr:date" v="2019-12-27" />
		<tag k="ssr:gruppe" v="veg" />
		<tag k="ssr:hovedgruppe" v="infrastruktur" />
		<tag k="ssr:stedsnr" v="1051880" />
		<tag k="ssr:type" v="adressenavn" />
	</node>
	<node lat="61.601934171858765" lon="5.038026163853703" id="-71461">
		<tag k="name" v="Fjordgata" />
		<tag k="ssr:date" v="2019-12-27" />
		<tag k="ssr:gruppe" v="veg" />
		<tag k="ssr:hovedgruppe" v="infrastruktur" />
		<tag k="ssr:stedsnr" v="1051883" />
		<tag k="ssr:type" v="adressenavn" />
	</node>
	<node lat="61.59784614911116" lon="5.051625626677529" id="-71462">
		<tag k="name" v="Gaddevegen" />
		<tag k="ssr:date" v="2019-12-27" />
		<tag k="ssr:gruppe" v="veg" />
		<tag k="ssr:hovedgruppe" v="infrastruktur" />
		<tag k="ssr:stedsnr" v="1051884" />
		<tag k="ssr:type" v="adressenavn" />
	</node>
	<node lat="61.53316998169282" lon="5.1842052232714515" id="-71580">
		<tag k="name" v="Vaulen" />
		<tag k="old_name" v="Øyna" />
		<tag k="ssr:date" v="2019-12-27" />
		<tag k="ssr:gruppe" v="veg" />
		<tag k="ssr:hovedgruppe" v="infrastruktur" />
		<tag k="ssr:stedsnr" v="1052232" />
		<tag k="ssr:type" v="adressenavn" />
	</node>
	<node lat="61.57650035818782" lon="5.2782441094417045" id="-71587">
		<tag k="name" v="Høyvikvegen" />
		<tag k="old_name" v="Nordre Vågen" />
		<tag k="ssr:date" v="2019-12-27" />
		<tag k="ssr:gruppe" v="veg" />
		<tag k="ssr:hovedgruppe" v="infrastruktur" />
		<tag k="ssr:stedsnr" v="1052181" />
		<tag k="ssr:type" v="adressenavn" />
	</node>
	<node lat="61.93304862493529" lon="5.10720692326188" id="-71603">
		<tag k="name" v="Gate 5" />
		<tag k="ssr:date" v="2019-12-27" />
		<tag k="ssr:gruppe" v="veg" />
		<tag k="ssr:hovedgruppe" v="infrastruktur" />
		<tag k="ssr:stedsnr" v="1052998" />
		<tag k="ssr:type" v="adressenavn" />
	</node>
	<node lat="61.93391902561386" lon="5.108636376168458" id="-71620">
		<tag k="name" v="Idrettsvegen" />
		<tag k="ssr:date" v="2019-12-27" />
		<tag k="ssr:gruppe" v="veg" />
		<tag k="ssr:hovedgruppe" v="infrastruktur" />
		<tag k="ssr:stedsnr" v="1052648" />
		<tag k="ssr:type" v="adressenavn" />
	</node>
	<node lat="61.938215182734574" lon="5.115616584530295" id="-71621">
		<tag k="name" v="Midtgårdsvegen" />
		<tag k="ssr:date" v="2019-12-27" />
		<tag k="ssr:gruppe" v="veg" />
		<tag k="ssr:hovedgruppe" v="infrastruktur" />
		<tag k="ssr:stedsnr" v="1052661" />
		<tag k="ssr:type" v="adressenavn" />
	</node>
	<node lat="61.94030607478206" lon="5.11268969084102" id="-71622">
		<tag k="name" v="Gate 7" />
		<tag k="ssr:date" v="2019-12-27" />
		<tag k="ssr:gruppe" v="veg" />
		<tag k="ssr:hovedgruppe" v="infrastruktur" />
		<tag k="ssr:stedsnr" v="1052720" />
		<tag k="ssr:type" v="adressenavn" />
	</node>
	<node lat="61.94030607478206" lon="5.11268969084102" id="-71623">
		<tag k="name" v="Gate 6" />
		<tag k="ssr:date" v="2019-12-27" />
		<tag k="ssr:gruppe" v="veg" />
		<tag k="ssr:hovedgruppe" v="infrastruktur" />
		<tag k="ssr:stedsnr" v="1052833" />
		<tag k="ssr:type" v="adressenavn" />
	</node>
	<node lat="61.93962898627127" lon="5.114801761645854" id="-71624">
		<tag k="name" v="Norevegen" />
		<tag k="ssr:date" v="2019-12-27" />
		<tag k="ssr:gruppe" v="veg" />
		<tag k="ssr:hovedgruppe" v="infrastruktur" />
		<tag k="ssr:stedsnr" v="1052898" />
		<tag k="ssr:type" v="adressenavn" />
	</node>
	<node lat="61.93445514204001" lon="5.111523942375573" id="-71625">
		<tag k="name" v="Televegen" />
		<tag k="ssr:date" v="2019-12-27" />
		<tag k="ssr:gruppe" v="veg" />
		<tag k="ssr:hovedgruppe" v="infrastruktur" />
		<tag k="ssr:stedsnr" v="1052844" />
		<tag k="ssr:type" v="adressenavn" />
	</node>
	<node lat="61.94089742607999" lon="5.12129187003596" id="-71626">
		<tag k="name" v="Skolevegen" />
		<tag k="ssr:date" v="2019-12-27" />
		<tag k="ssr:gruppe" v="veg" />
		<tag k="ssr:hovedgruppe" v="infrastruktur" />
		<tag k="ssr:stedsnr" v="1052856" />
		<tag k="ssr:type" v="adressenavn" />
	</node>
	<node lat="61.92952338855798" lon="5.111786915477498" id="-71627">
		<tag k="name" v="Sæternesvegen" />
		<tag k="ssr:date" v="2019-12-27" />
		<tag k="ssr:gruppe" v="veg" />
		<tag k="ssr:hovedgruppe" v="infrastruktur" />
		<tag k="ssr:stedsnr" v="1052870" />
		<tag k="ssr:type" v="adressenavn" />
	</node>
	<node lat="61.93220521821513" lon="5.109670490525908" id="-71629">
		<tag k="name" v="Gate 4" />
		<tag k="ssr:date" v="2019-12-27" />
		<tag k="ssr:gruppe" v="veg" />
		<tag k="ssr:hovedgruppe" v="infrastruktur" />
		<tag k="ssr:stedsnr" v="1052953" />
		<tag k="ssr:type" v="adressenavn" />
	</node>
	<node lat="61.93056235515848" lon="5.111572277113286" id="-71630">
		<tag k="name" v="Gate 2" />
		<tag k="ssr:date" v="2019-12-27" />
		<tag k="ssr:gruppe" v="veg" />
		<tag k="ssr:hovedgruppe" v="infrastruktur" />
		<tag k="ssr:stedsnr" v="1053108" />
		<tag k="ssr:type" v="adressenavn" />
	</node>
	<node lat="61.92819568731506" lon="5.111154179571979" id="-71631">
		<tag k="name" v="Gate 1" />
		<tag k="ssr:date" v="2019-12-27" />
		<tag k="ssr:gruppe" v="veg" />
		<tag k="ssr:hovedgruppe" v="infrastruktur" />
		<tag k="ssr:stedsnr" v="1053194" />
		<tag k="ssr:type" v="adressenavn" />
	</node>
	<node lat="61.92838371385926" lon="5.110501195407514" id="-71633">
		<tag k="name" v="Gate 3" />
		<tag k="ssr:date" v="2019-12-27" />
		<tag k="ssr:gruppe" v="veg" />
		<tag k="ssr:hovedgruppe" v="infrastruktur" />
		<tag k="ssr:stedsnr" v="1053049" />
		<tag k="ssr:type" v="adressenavn" />
	</node>
	<node lat="61.94002756666408" lon="5.113693376926702" id="-71634">
		<tag k="name" v="Utsiktsvegen" />
		<tag k="ssr:date" v="2019-12-27" />
		<tag k="ssr:gruppe" v="veg" />
		<tag k="ssr:hovedgruppe" v="infrastruktur" />
		<tag k="ssr:stedsnr" v="1053529" />
		<tag k="ssr:type" v="adressenavn" />
	</node>
	<node lat="61.671616529253455" lon="4.970278807907955" id="-71655">
		<tag k="name" v="Småskjeret" />
		<tag k="ssr:date" v="2019-12-27" />
		<tag k="ssr:gruppe" v="navigasjon" />
		<tag k="ssr:hovedgruppe" v="infrastruktur" />
		<tag k="ssr:stedsnr" v="1073304" />
		<tag k="ssr:type" v="sjøvarde" />
	</node>
	<node lat="61.63675964591928" lon="5.344833144928226" id="-71671">
		<tag k="name" v="Austre Norddalsøya" />
		<tag k="ssr:date" v="2019-12-27" />
		<tag k="ssr:gruppe" v="veg" />
		<tag k="ssr:hovedgruppe" v="infrastruktur" />
		<tag k="ssr:stedsnr" v="1073627" />
		<tag k="ssr:type" v="adressenavn" />
	</node>
	<node lat="61.56901692815645" lon="5.574583307045708" id="-71672">
		<tag k="name" v="Agledalsvegen" />
		<tag k="ssr:date" v="2019-12-27" />
		<tag k="ssr:gruppe" v="veg" />
		<tag k="ssr:hovedgruppe" v="infrastruktur" />
		<tag k="ssr:stedsnr" v="1073626" />
		<tag k="ssr:type" v="adressenavn" />
	</node>
	<node lat="61.560044998865536" lon="5.093807850886044" id="-71673">
		<tag k="name" v="Smedviktunet" />
		<tag k="ssr:date" v="2019-12-27" />
		<tag k="ssr:gruppe" v="veg" />
		<tag k="ssr:hovedgruppe" v="infrastruktur" />
		<tag k="ssr:stedsnr" v="1073629" />
		<tag k="ssr:type" v="adressenavn" />
	</node>
	<node lat="61.64572729917215" lon="5.00038343425211" id="-71677">
		<tag k="name" v="Sundet" />
		<tag k="ssr:date" v="2019-12-27" />
		<tag k="ssr:gruppe" v="veg" />
		<tag k="ssr:hovedgruppe" v="infrastruktur" />
		<tag k="ssr:stedsnr" v="1073633" />
		<tag k="ssr:type" v="adressenavn" />
	</node>
	<node lat="61.58512004527894" lon="4.960919305065385" id="-71679">
		<tag k="name" v="Færøyvegen" />
		<tag k="ssr:date" v="2019-12-27" />
		<tag k="ssr:gruppe" v="veg" />
		<tag k="ssr:hovedgruppe" v="infrastruktur" />
		<tag k="ssr:stedsnr" v="1073634" />
		<tag k="ssr:type" v="adressenavn" />
	</node>
	<node lat="61.98404820039398" lon="5.169144124807452" id="-71690">
		<tag k="name" v="Ulvesund øvre" />
		<tag k="ssr:date" v="2019-12-27" />
		<tag k="ssr:gruppe" v="navigasjon" />
		<tag k="ssr:hovedgruppe" v="infrastruktur" />
		<tag k="ssr:stedsnr" v="1073914" />
		<tag k="ssr:type" v="fyrlykt" />
	</node>
	<node lat="61.650856146420814" lon="4.975733175052095" id="-71694">
		<tag k="name" v="Drogaskjerflua" />
		<tag k="ssr:date" v="2019-12-27" />
		<tag k="ssr:gruppe" v="navigasjon" />
		<tag k="ssr:hovedgruppe" v="infrastruktur" />
		<tag k="ssr:stedsnr" v="1074391" />
		<tag k="ssr:type" v="fyrlykt" />
	</node>
</osm>
