<?xml version="1.0" encoding="UTF-8"?>
<osm generator="osmapis" version="0.6">
	<node id="-100084" lat="63.8329333378" lon="10.6874916572">
		<tag k="name" v="Hovdflata" />
		<tag k="ssr:date" v="2019-05-30" />
		<tag k="ssr:gruppe" v="veg" />
		<tag k="ssr:hovedgruppe" v="infrastruktur" />
		<tag k="ssr:stedsnr" v="237782" />
		<tag k="ssr:type" v="adressenavn" />
	</node>
	<node id="-100083" lat="63.7716500008" lon="10.8811277678">
		<tag k="name" v="Torsvatnet" />
		<tag k="ssr:date" v="2019-05-30" />
		<tag k="ssr:gruppe" v="veg" />
		<tag k="ssr:hovedgruppe" v="infrastruktur" />
		<tag k="ssr:stedsnr" v="237772" />
		<tag k="ssr:type" v="adressenavn" />
	</node>
	<node id="-102258" lat="63.8398027787" lon="10.71848612">
		<tag k="name" v="Øversteinbakken" />
		<tag k="ssr:date" v="2019-05-30" />
		<tag k="ssr:gruppe" v="veg" />
		<tag k="ssr:hovedgruppe" v="infrastruktur" />
		<tag k="ssr:stedsnr" v="965780" />
		<tag k="ssr:type" v="adressenavn" />
	</node>
	<node id="-101745" lat="63.8634138891" lon="11.1522472153">
		<tag k="name" v="Kleppvegen" />
		<tag k="ssr:date" v="2019-05-30" />
		<tag k="ssr:gruppe" v="veg" />
		<tag k="ssr:hovedgruppe" v="infrastruktur" />
		<tag k="ssr:stedsnr" v="520370" />
		<tag k="ssr:type" v="adressenavn" />
	</node>
	<node id="-101181" lat="63.7717222244" lon="10.9334722203">
		<tag k="name" v="Slipertjønna" />
		<tag k="ssr:date" v="2019-05-30" />
		<tag k="ssr:gruppe" v="veg" />
		<tag k="ssr:hovedgruppe" v="infrastruktur" />
		<tag k="ssr:stedsnr" v="55811" />
		<tag k="ssr:type" v="adressenavn" />
	</node>
	<node id="-100204" lat="63.7771222206" lon="10.9885444373">
		<tag k="name" v="Saltvikhavn" />
		<tag k="old_name" v="Saltvikhamna" />
		<tag k="ssr:date" v="2018-01-09" />
		<tag k="ssr:gruppe" v="navigasjon" />
		<tag k="ssr:hovedgruppe" v="infrastruktur" />
		<tag k="ssr:stedsnr" v="165958" />
		<tag k="ssr:type" v="fyrlykt" />
	</node>
	<node id="-101480" lat="63.9170500018" lon="11.187061103">
		<tag k="name" v="Kjerknestangen" />
		<tag k="ssr:date" v="2018-01-09" />
		<tag k="ssr:gruppe" v="navigasjon" />
		<tag k="ssr:hovedgruppe" v="infrastruktur" />
		<tag k="ssr:stedsnr" v="317464" />
		<tag k="ssr:type" v="fyrlykt" />
	</node>
	<node id="-100958" lat="63.8796777821" lon="11.048599994">
		<tag k="name" v="Vennesodden" />
		<tag k="ssr:date" v="2018-01-09" />
		<tag k="ssr:gruppe" v="navigasjon" />
		<tag k="ssr:hovedgruppe" v="infrastruktur" />
		<tag k="ssr:stedsnr" v="924688" />
		<tag k="ssr:type" v="fyrlykt" />
	</node>
	<node id="-100444" lat="63.7770222191" lon="10.7353999922">
		<tag k="name" v="Furuøya" />
		<tag k="ssr:date" v="2019-05-30" />
		<tag k="ssr:gruppe" v="veg" />
		<tag k="ssr:hovedgruppe" v="infrastruktur" />
		<tag k="ssr:stedsnr" v="358824" />
		<tag k="ssr:type" v="adressenavn" />
	</node>
	<node id="-100157" lat="63.8294916676" lon="10.7540777777">
		<tag k="name" v="Indre Gløatjønna" />
		<tag k="ssr:date" v="2019-05-30" />
		<tag k="ssr:gruppe" v="veg" />
		<tag k="ssr:hovedgruppe" v="infrastruktur" />
		<tag k="ssr:stedsnr" v="116829" />
		<tag k="ssr:type" v="adressenavn" />
	</node>
	<node id="-100421" lat="63.8512944474" lon="10.9411722322">
		<tag k="name" v="Storgørtjønna" />
		<tag k="ssr:date" v="2019-05-30" />
		<tag k="ssr:gruppe" v="veg" />
		<tag k="ssr:hovedgruppe" v="infrastruktur" />
		<tag k="ssr:stedsnr" v="479829" />
		<tag k="ssr:type" v="adressenavn" />
	</node>
	<node id="-102225" lat="63.8368555554" lon="11.0563250054">
		<tag k="name" v="Brasetlia" />
		<tag k="ssr:date" v="2019-05-30" />
		<tag k="ssr:gruppe" v="veg" />
		<tag k="ssr:hovedgruppe" v="infrastruktur" />
		<tag k="ssr:stedsnr" v="952745" />
		<tag k="ssr:type" v="adressenavn" />
	</node>
	<node id="-101836" lat="63.8431388872" lon="11.0763694366">
		<tag k="name" v="Skarnsundet bru" />
		<tag k="ssr:date" v="2018-01-09" />
		<tag k="ssr:gruppe" v="navigasjon" />
		<tag k="ssr:hovedgruppe" v="infrastruktur" />
		<tag k="ssr:stedsnr" v="585415" />
		<tag k="ssr:type" v="lanterne" />
	</node>
	<node id="-100424" lat="63.855550001" lon="10.8563138918">
		<tag k="name" v="Månmyra" />
		<tag k="ssr:date" v="2019-05-30" />
		<tag k="ssr:gruppe" v="veg" />
		<tag k="ssr:hovedgruppe" v="infrastruktur" />
		<tag k="ssr:stedsnr" v="479841" />
		<tag k="ssr:type" v="adressenavn" />
	</node>
	<node id="-100423" lat="63.8641611109" lon="10.9588499994">
		<tag k="name" v="Vennesvatnet" />
		<tag k="ssr:date" v="2019-05-30" />
		<tag k="ssr:gruppe" v="veg" />
		<tag k="ssr:hovedgruppe" v="infrastruktur" />
		<tag k="ssr:stedsnr" v="479835" />
		<tag k="ssr:type" v="adressenavn" />
	</node>
	<node id="-100422" lat="63.8386444475" lon="10.8896666611">
		<tag k="name" v="Svarttjønna" />
		<tag k="ssr:date" v="2019-05-30" />
		<tag k="ssr:gruppe" v="veg" />
		<tag k="ssr:hovedgruppe" v="infrastruktur" />
		<tag k="ssr:stedsnr" v="479833" />
		<tag k="ssr:type" v="adressenavn" />
	</node>
	<node id="-102305" lat="63.9218738012" lon="11.2157904056">
		<tag k="name" v="Solberget" />
		<tag k="ssr:date" v="2019-08-09" />
		<tag k="ssr:gruppe" v="veg" />
		<tag k="ssr:hovedgruppe" v="infrastruktur" />
		<tag k="ssr:stedsnr" v="1072235" />
		<tag k="ssr:type" v="adressenavn" />
	</node>
	<node id="-101444" lat="63.8760991096" lon="11.2886295852">
		<tag k="name" v="Inderøy kommune" />
		<tag k="ssr:date" v="2019-08-13" />
		<tag k="ssr:gruppe" v="administrativeIndelinger" />
		<tag k="ssr:hovedgruppe" v="offentligAdministrasjon" />
		<tag k="ssr:stedsnr" v="207272" />
		<tag k="ssr:type" v="kommune" />
	</node>
	<node id="-101182" lat="63.8600583325" lon="11.0093388864">
		<tag k="name" v="Selsetdamtjønna" />
		<tag k="ssr:date" v="2019-05-30" />
		<tag k="ssr:gruppe" v="veg" />
		<tag k="ssr:hovedgruppe" v="infrastruktur" />
		<tag k="ssr:stedsnr" v="55814" />
		<tag k="ssr:type" v="adressenavn" />
	</node>
	<node id="-101821" lat="63.9601027739" lon="11.3075083294">
		<tag k="name" v="Blåbærsvingen" />
		<tag k="ssr:date" v="2019-05-30" />
		<tag k="ssr:gruppe" v="veg" />
		<tag k="ssr:hovedgruppe" v="infrastruktur" />
		<tag k="ssr:stedsnr" v="567604" />
		<tag k="ssr:type" v="adressenavn" />
	</node>
	<node id="-101303" lat="63.8895944406" lon="10.9799749977">
		<tag k="name" v="Kollenvegen" />
		<tag k="ssr:date" v="2019-05-30" />
		<tag k="ssr:gruppe" v="veg" />
		<tag k="ssr:hovedgruppe" v="infrastruktur" />
		<tag k="ssr:stedsnr" v="116275" />
		<tag k="ssr:type" v="adressenavn" />
	</node>
	<node id="-100278" lat="63.8896583315" lon="10.981916672">
		<tag k="name" v="Falunsvingen" />
		<tag k="ssr:date" v="2019-05-30" />
		<tag k="ssr:gruppe" v="veg" />
		<tag k="ssr:hovedgruppe" v="infrastruktur" />
		<tag k="ssr:stedsnr" v="298269" />
		<tag k="ssr:type" v="adressenavn" />
	</node>
	<node id="-101037" lat="63.8018861121" lon="10.7541916643">
		<tag k="name" v="Steintjønna" />
		<tag k="ssr:date" v="2019-05-30" />
		<tag k="ssr:gruppe" v="veg" />
		<tag k="ssr:hovedgruppe" v="infrastruktur" />
		<tag k="ssr:stedsnr" v="905827" />
		<tag k="ssr:type" v="adressenavn" />
	</node>
	<node id="-101036" lat="63.8848555582" lon="11.431069443">
		<tag k="name" v="Skei" />
		<tag k="ssr:date" v="2018-01-09" />
		<tag k="ssr:gruppe" v="veg" />
		<tag k="ssr:hovedgruppe" v="infrastruktur" />
		<tag k="ssr:stedsnr" v="905967" />
		<tag k="ssr:type" v="adressetilleggsnavn" />
	</node>
	<node id="-102306" lat="63.8976664147" lon="11.2100496082">
		<tag k="name" v="Svaberget" />
		<tag k="ssr:date" v="2019-08-09" />
		<tag k="ssr:gruppe" v="veg" />
		<tag k="ssr:hovedgruppe" v="infrastruktur" />
		<tag k="ssr:stedsnr" v="1072237" />
		<tag k="ssr:type" v="adressenavn" />
	</node>
	<node id="-101787" lat="63.7750333356" lon="10.9655722173">
		<tag k="name" v="Hamnasetran" />
		<tag k="ssr:date" v="2019-05-30" />
		<tag k="ssr:gruppe" v="veg" />
		<tag k="ssr:hovedgruppe" v="infrastruktur" />
		<tag k="ssr:stedsnr" v="545263" />
		<tag k="ssr:type" v="adressenavn" />
	</node>
	<node id="-102304" lat="63.9217391032" lon="11.212184814">
		<tag k="name" v="Toppberget" />
		<tag k="ssr:date" v="2019-08-09" />
		<tag k="ssr:gruppe" v="veg" />
		<tag k="ssr:hovedgruppe" v="infrastruktur" />
		<tag k="ssr:stedsnr" v="1072234" />
		<tag k="ssr:type" v="adressenavn" />
	</node>
	<node id="-101535" lat="63.8527111097" lon="11.0781333429">
		<tag k="name" v="Skarnsundet" />
		<tag k="ssr:date" v="2019-05-30" />
		<tag k="ssr:gruppe" v="veg" />
		<tag k="ssr:hovedgruppe" v="infrastruktur" />
		<tag k="ssr:stedsnr" v="345148" />
		<tag k="ssr:type" v="adressenavn" />
	</node>
	<node id="-100549" lat="63.8179249962" lon="10.7602666663">
		<tag k="name" v="Fjellvatna" />
		<tag k="ssr:date" v="2019-05-30" />
		<tag k="ssr:gruppe" v="veg" />
		<tag k="ssr:hovedgruppe" v="infrastruktur" />
		<tag k="ssr:stedsnr" v="661821" />
		<tag k="ssr:type" v="adressenavn" />
	</node>
	<node id="-102299" lat="64.0144468016" lon="11.4818866293">
		<tag k="name" v="Trøndelag fylke - Trööndelagen fylhke" />
		<tag k="name:no" v="Trøndelag fylke" />
		<tag k="name:sma" v="Trööndelagen fylhke" />
		<tag k="ssr:date" v="2020-01-13" />
		<tag k="ssr:gruppe" v="administrativeIndelinger" />
		<tag k="ssr:hovedgruppe" v="offentligAdministrasjon" />
		<tag k="ssr:stedsnr" v="980645" />
		<tag k="ssr:type" v="fylke" />
	</node>
	<node id="-100889" lat="63.7581416646" lon="10.9015194378">
		<tag k="name" v="Trosetsetran" />
		<tag k="ssr:date" v="2019-05-30" />
		<tag k="ssr:gruppe" v="veg" />
		<tag k="ssr:hovedgruppe" v="infrastruktur" />
		<tag k="ssr:stedsnr" v="905831" />
		<tag k="ssr:type" v="adressenavn" />
	</node>
	<node id="-100757" lat="63.8579555595" lon="10.8820083259">
		<tag k="name" v="Uggtjønna" />
		<tag k="ssr:date" v="2019-05-30" />
		<tag k="ssr:gruppe" v="veg" />
		<tag k="ssr:hovedgruppe" v="infrastruktur" />
		<tag k="ssr:stedsnr" v="722855" />
		<tag k="ssr:type" v="adressenavn" />
	</node>
	<node id="-100756" lat="63.7970027822" lon="10.9929694473">
		<tag k="name" v="Laukaunvegen" />
		<tag k="ssr:date" v="2019-05-30" />
		<tag k="ssr:gruppe" v="veg" />
		<tag k="ssr:hovedgruppe" v="infrastruktur" />
		<tag k="ssr:stedsnr" v="722800" />
		<tag k="ssr:type" v="adressenavn" />
	</node>
	<node id="-102031" lat="63.8359472186" lon="11.2997638941">
		<tag k="name" v="Høsholmene" />
		<tag k="ssr:date" v="2018-01-09" />
		<tag k="ssr:gruppe" v="navigasjon" />
		<tag k="ssr:hovedgruppe" v="infrastruktur" />
		<tag k="ssr:stedsnr" v="754143" />
		<tag k="ssr:type" v="fyrlykt" />
	</node>
	<node id="-100878" lat="63.8890138872" lon="10.9830916705">
		<tag k="name" v="Lahtisvingen" />
		<tag k="ssr:date" v="2019-05-30" />
		<tag k="ssr:gruppe" v="veg" />
		<tag k="ssr:hovedgruppe" v="infrastruktur" />
		<tag k="ssr:stedsnr" v="904294" />
		<tag k="ssr:type" v="adressenavn" />
	</node>
	<node id="-100745" lat="63.831802778" lon="10.6864888883">
		<tag k="name" v="Hovdstien" />
		<tag k="ssr:date" v="2019-05-30" />
		<tag k="ssr:gruppe" v="veg" />
		<tag k="ssr:hovedgruppe" v="infrastruktur" />
		<tag k="ssr:stedsnr" v="600776" />
		<tag k="ssr:type" v="adressenavn" />
	</node>
	<node id="-101125" lat="63.9756388889" lon="11.283619443">
		<tag k="name" v="Stornesøra" />
		<tag k="ssr:date" v="2018-01-09" />
		<tag k="ssr:gruppe" v="navigasjon" />
		<tag k="ssr:hovedgruppe" v="infrastruktur" />
		<tag k="ssr:stedsnr" v="26134" />
		<tag k="ssr:type" v="fyrlykt" />
	</node>
</osm>
