<?xml version="1.0" encoding="UTF-8"?>
<osm generator="osmapis" version="0.6">
	<node id="-182784" lat="60.2058160866" lon="9.77966808567">
		<tag k="name" v="Havikveien " />
		<tag k="ssr:date" v="2019-05-30" />
		<tag k="ssr:gruppe" v="veg" />
		<tag k="ssr:hovedgruppe" v="infrastruktur" />
		<tag k="ssr:stedsnr" v="983892" />
		<tag k="ssr:type" v="adressenavn" />
	</node>
	<node id="-182783" lat="60.1400999796" lon="9.71188903565">
		<tag k="name" v="Haugstupveien" />
		<tag k="ssr:date" v="2019-05-30" />
		<tag k="ssr:gruppe" v="veg" />
		<tag k="ssr:hovedgruppe" v="infrastruktur" />
		<tag k="ssr:stedsnr" v="983891" />
		<tag k="ssr:type" v="adressenavn" />
	</node>
	<node id="-182782" lat="60.2593935556" lon="9.74248719669">
		<tag k="name" v="Haugerudkleiva" />
		<tag k="ssr:date" v="2019-05-30" />
		<tag k="ssr:gruppe" v="veg" />
		<tag k="ssr:hovedgruppe" v="infrastruktur" />
		<tag k="ssr:stedsnr" v="983888" />
		<tag k="ssr:type" v="adressenavn" />
	</node>
	<node id="-182781" lat="60.1240406792" lon="9.84964790535">
		<tag k="name" v="Handklevassveien " />
		<tag k="ssr:date" v="2019-05-30" />
		<tag k="ssr:gruppe" v="veg" />
		<tag k="ssr:hovedgruppe" v="infrastruktur" />
		<tag k="ssr:stedsnr" v="983885" />
		<tag k="ssr:type" v="adressenavn" />
	</node>
	<node id="-182780" lat="60.0767523267" lon="9.75674395547">
		<tag k="name" v="Hagaliveien " />
		<tag k="ssr:date" v="2019-05-30" />
		<tag k="ssr:gruppe" v="veg" />
		<tag k="ssr:hovedgruppe" v="infrastruktur" />
		<tag k="ssr:stedsnr" v="983882" />
		<tag k="ssr:type" v="adressenavn" />
	</node>
	<node id="-182779" lat="60.1010220956" lon="9.71176518456">
		<tag k="name" v="Gørrmyrveien" />
		<tag k="ssr:date" v="2019-05-30" />
		<tag k="ssr:gruppe" v="veg" />
		<tag k="ssr:hovedgruppe" v="infrastruktur" />
		<tag k="ssr:stedsnr" v="983880" />
		<tag k="ssr:type" v="adressenavn" />
	</node>
	<node id="-182778" lat="60.1878276352" lon="9.52913043168">
		<tag k="name" v="Gutterudveien" />
		<tag k="ssr:date" v="2019-05-30" />
		<tag k="ssr:gruppe" v="veg" />
		<tag k="ssr:hovedgruppe" v="infrastruktur" />
		<tag k="ssr:stedsnr" v="983879" />
		<tag k="ssr:type" v="adressenavn" />
	</node>
	<node id="-182777" lat="60.1336677712" lon="9.85646683032">
		<tag k="name" v="Gulmyråsveien" />
		<tag k="ssr:date" v="2019-05-30" />
		<tag k="ssr:gruppe" v="veg" />
		<tag k="ssr:hovedgruppe" v="infrastruktur" />
		<tag k="ssr:stedsnr" v="983877" />
		<tag k="ssr:type" v="adressenavn" />
	</node>
	<node id="-182776" lat="60.1410835467" lon="9.82412275248">
		<tag k="name" v="Gråbergliveien" />
		<tag k="ssr:date" v="2019-05-30" />
		<tag k="ssr:gruppe" v="veg" />
		<tag k="ssr:hovedgruppe" v="infrastruktur" />
		<tag k="ssr:stedsnr" v="983876" />
		<tag k="ssr:type" v="adressenavn" />
	</node>
	<node id="-182775" lat="60.1219719982" lon="9.6826151829">
		<tag k="name" v="Grasvika" />
		<tag k="ssr:date" v="2019-05-30" />
		<tag k="ssr:gruppe" v="veg" />
		<tag k="ssr:hovedgruppe" v="infrastruktur" />
		<tag k="ssr:stedsnr" v="983874" />
		<tag k="ssr:type" v="adressenavn" />
	</node>
	<node id="-182774" lat="60.2193243757" lon="9.56241357447">
		<tag k="name" v="Granmeisveien" />
		<tag k="ssr:date" v="2019-05-30" />
		<tag k="ssr:gruppe" v="veg" />
		<tag k="ssr:hovedgruppe" v="infrastruktur" />
		<tag k="ssr:stedsnr" v="983873" />
		<tag k="ssr:type" v="adressenavn" />
	</node>
	<node id="-182773" lat="60.2190086008" lon="9.5278098612">
		<tag k="name" v="Golbergsetra" />
		<tag k="ssr:date" v="2019-05-30" />
		<tag k="ssr:gruppe" v="veg" />
		<tag k="ssr:hovedgruppe" v="infrastruktur" />
		<tag k="ssr:stedsnr" v="983871" />
		<tag k="ssr:type" v="adressenavn" />
	</node>
	<node id="-182772" lat="60.1055860325" lon="9.75352014385">
		<tag k="name" v="Glesnehøgda" />
		<tag k="ssr:date" v="2019-05-30" />
		<tag k="ssr:gruppe" v="veg" />
		<tag k="ssr:hovedgruppe" v="infrastruktur" />
		<tag k="ssr:stedsnr" v="983870" />
		<tag k="ssr:type" v="adressenavn" />
	</node>
	<node id="-182771" lat="60.1087084008" lon="9.75553418411">
		<tag k="name" v="Gjellemyran" />
		<tag k="ssr:date" v="2019-05-30" />
		<tag k="ssr:gruppe" v="veg" />
		<tag k="ssr:hovedgruppe" v="infrastruktur" />
		<tag k="ssr:stedsnr" v="983868" />
		<tag k="ssr:type" v="adressenavn" />
	</node>
	<node id="-182770" lat="60.2144140629" lon="9.56842893166">
		<tag k="name" v="Gamle Fjellhvilveien" />
		<tag k="ssr:date" v="2019-05-30" />
		<tag k="ssr:gruppe" v="veg" />
		<tag k="ssr:hovedgruppe" v="infrastruktur" />
		<tag k="ssr:stedsnr" v="983865" />
		<tag k="ssr:type" v="adressenavn" />
	</node>
	<node id="-182769" lat="60.1069330633" lon="9.68230398811">
		<tag k="name" v="Fyranvatnet" />
		<tag k="ssr:date" v="2019-05-30" />
		<tag k="ssr:gruppe" v="veg" />
		<tag k="ssr:hovedgruppe" v="infrastruktur" />
		<tag k="ssr:stedsnr" v="983864" />
		<tag k="ssr:type" v="adressenavn" />
	</node>
	<node id="-182768" lat="60.1388485829" lon="9.70746889715">
		<tag k="name" v="Fyranflagveien" />
		<tag k="ssr:date" v="2019-05-30" />
		<tag k="ssr:gruppe" v="veg" />
		<tag k="ssr:hovedgruppe" v="infrastruktur" />
		<tag k="ssr:stedsnr" v="983863" />
		<tag k="ssr:type" v="adressenavn" />
	</node>
	<node id="-182767" lat="60.2058259123" lon="9.7546810977">
		<tag k="name" v="Flathusåsen" />
		<tag k="ssr:date" v="2019-05-30" />
		<tag k="ssr:gruppe" v="veg" />
		<tag k="ssr:hovedgruppe" v="infrastruktur" />
		<tag k="ssr:stedsnr" v="983844" />
		<tag k="ssr:type" v="adressenavn" />
	</node>
	<node id="-182766" lat="60.1224166929" lon="9.71240696106">
		<tag k="name" v="Flaglia" />
		<tag k="ssr:date" v="2019-05-30" />
		<tag k="ssr:gruppe" v="veg" />
		<tag k="ssr:hovedgruppe" v="infrastruktur" />
		<tag k="ssr:stedsnr" v="983843" />
		<tag k="ssr:type" v="adressenavn" />
	</node>
	<node id="-182765" lat="60.2217197733" lon="9.55864612021">
		<tag k="name" v="Fjellvåkveien" />
		<tag k="ssr:date" v="2019-05-30" />
		<tag k="ssr:gruppe" v="veg" />
		<tag k="ssr:hovedgruppe" v="infrastruktur" />
		<tag k="ssr:stedsnr" v="983842" />
		<tag k="ssr:type" v="adressenavn" />
	</node>
	<node id="-182764" lat="60.2183118248" lon="9.56824372199">
		<tag k="name" v="Fjellhvilveien" />
		<tag k="ssr:date" v="2019-05-30" />
		<tag k="ssr:gruppe" v="veg" />
		<tag k="ssr:hovedgruppe" v="infrastruktur" />
		<tag k="ssr:stedsnr" v="983841" />
		<tag k="ssr:type" v="adressenavn" />
	</node>
	<node id="-183787" lat="60.5908609473" lon="9.63819281559">
		<tag k="fixme" v="multiple name tags, choose one and add the other to alt_name" />
		<tag k="name" v="Austlandet;Østlandet" />
		<tag k="ssr:date" v="2018-01-09" />
		<tag k="ssr:gruppe" v="administrativeIndelinger" />
		<tag k="ssr:hovedgruppe" v="offentligAdministrasjon" />
		<tag k="ssr:stedsnr" v="974775" />
		<tag k="ssr:type" v="annenAdministrativInndeling" />
	</node>
	<node id="-182762" lat="60.1455591165" lon="9.57928762159">
		<tag k="name" v="Fiskerlyveien" />
		<tag k="ssr:date" v="2019-05-30" />
		<tag k="ssr:gruppe" v="veg" />
		<tag k="ssr:hovedgruppe" v="infrastruktur" />
		<tag k="ssr:stedsnr" v="983839" />
		<tag k="ssr:type" v="adressenavn" />
	</node>
	<node id="-182761" lat="60.2855970745" lon="9.57760312637">
		<tag k="name" v="Fiskebekkveien" />
		<tag k="ssr:date" v="2019-05-30" />
		<tag k="ssr:gruppe" v="veg" />
		<tag k="ssr:hovedgruppe" v="infrastruktur" />
		<tag k="ssr:stedsnr" v="983838" />
		<tag k="ssr:type" v="adressenavn" />
	</node>
	<node id="-182760" lat="60.2131113948" lon="9.57068005374">
		<tag k="name" v="Fuglemyra" />
		<tag k="ssr:date" v="2019-05-30" />
		<tag k="ssr:gruppe" v="veg" />
		<tag k="ssr:hovedgruppe" v="infrastruktur" />
		<tag k="ssr:stedsnr" v="983851" />
		<tag k="ssr:type" v="adressenavn" />
	</node>
	<node id="-182759" lat="60.1381573114" lon="9.59811560713">
		<tag k="name" v="Fram-Grimeliveien" />
		<tag k="ssr:date" v="2019-05-30" />
		<tag k="ssr:gruppe" v="veg" />
		<tag k="ssr:hovedgruppe" v="infrastruktur" />
		<tag k="ssr:stedsnr" v="983850" />
		<tag k="ssr:type" v="adressenavn" />
	</node>
	<node id="-182758" lat="60.1995096292" lon="9.54899732537">
		<tag k="name" v="Fossliseterveien" />
		<tag k="ssr:date" v="2019-05-30" />
		<tag k="ssr:gruppe" v="veg" />
		<tag k="ssr:hovedgruppe" v="infrastruktur" />
		<tag k="ssr:stedsnr" v="983847" />
		<tag k="ssr:type" v="adressenavn" />
	</node>
	<node id="-182757" lat="60.2145517275" lon="9.50557817461">
		<tag k="name" v="Fosslisetermyra" />
		<tag k="ssr:date" v="2019-05-30" />
		<tag k="ssr:gruppe" v="veg" />
		<tag k="ssr:hovedgruppe" v="infrastruktur" />
		<tag k="ssr:stedsnr" v="983846" />
		<tag k="ssr:type" v="adressenavn" />
	</node>
	<node id="-182756" lat="60.2177463715" lon="9.56186317542">
		<tag k="name" v="Fossekallveien" />
		<tag k="ssr:date" v="2019-05-30" />
		<tag k="ssr:gruppe" v="veg" />
		<tag k="ssr:hovedgruppe" v="infrastruktur" />
		<tag k="ssr:stedsnr" v="983845" />
		<tag k="ssr:type" v="adressenavn" />
	</node>
	<node id="-182755" lat="60.1105754577" lon="9.78950458499">
		<tag k="name" v="Finnerudveien" />
		<tag k="ssr:date" v="2019-05-30" />
		<tag k="ssr:gruppe" v="veg" />
		<tag k="ssr:hovedgruppe" v="infrastruktur" />
		<tag k="ssr:stedsnr" v="983837" />
		<tag k="ssr:type" v="adressenavn" />
	</node>
	<node id="-182754" lat="60.0749631854" lon="9.75869761333">
		<tag k="name" v="Finnerudskogen" />
		<tag k="ssr:date" v="2019-05-30" />
		<tag k="ssr:gruppe" v="veg" />
		<tag k="ssr:hovedgruppe" v="infrastruktur" />
		<tag k="ssr:stedsnr" v="983836" />
		<tag k="ssr:type" v="adressenavn" />
	</node>
	<node id="-182753" lat="60.1029275526" lon="9.80397942686">
		<tag k="name" v="Elgedalen" />
		<tag k="ssr:date" v="2019-05-30" />
		<tag k="ssr:gruppe" v="veg" />
		<tag k="ssr:hovedgruppe" v="infrastruktur" />
		<tag k="ssr:stedsnr" v="983833" />
		<tag k="ssr:type" v="adressenavn" />
	</node>
	<node id="-182752" lat="60.157141876" lon="9.7621218131">
		<tag k="name" v="Damtjennåsveien" />
		<tag k="ssr:date" v="2019-05-30" />
		<tag k="ssr:gruppe" v="veg" />
		<tag k="ssr:hovedgruppe" v="infrastruktur" />
		<tag k="ssr:stedsnr" v="983830" />
		<tag k="ssr:type" v="adressenavn" />
	</node>
	<node id="-182751" lat="60.2508512066" lon="9.656119282">
		<tag k="name" v="Dammanmyra" />
		<tag k="ssr:date" v="2019-05-30" />
		<tag k="ssr:gruppe" v="veg" />
		<tag k="ssr:hovedgruppe" v="infrastruktur" />
		<tag k="ssr:stedsnr" v="983829" />
		<tag k="ssr:type" v="adressenavn" />
	</node>
	<node id="-183262" lat="60.1750853711" lon="9.80544609069">
		<tag k="name" v="Svarttjennveien" />
		<tag k="ssr:date" v="2019-05-30" />
		<tag k="ssr:gruppe" v="veg" />
		<tag k="ssr:hovedgruppe" v="infrastruktur" />
		<tag k="ssr:stedsnr" v="458521" />
		<tag k="ssr:type" v="adressenavn" />
	</node>
	<node id="-182749" lat="60.1756576283" lon="9.58338634319">
		<tag k="name" v="Bønipa" />
		<tag k="ssr:date" v="2019-05-30" />
		<tag k="ssr:gruppe" v="veg" />
		<tag k="ssr:hovedgruppe" v="infrastruktur" />
		<tag k="ssr:stedsnr" v="983826" />
		<tag k="ssr:type" v="adressenavn" />
	</node>
	<node id="-182748" lat="60.2240324523" lon="9.51754746128">
		<tag k="name" v="Bukkespranget" />
		<tag k="ssr:date" v="2019-05-30" />
		<tag k="ssr:gruppe" v="veg" />
		<tag k="ssr:hovedgruppe" v="infrastruktur" />
		<tag k="ssr:stedsnr" v="983824" />
		<tag k="ssr:type" v="adressenavn" />
	</node>
	<node id="-182747" lat="60.2021126542" lon="9.57258156672">
		<tag k="name" v="Brennkollveien" />
		<tag k="ssr:date" v="2019-05-30" />
		<tag k="ssr:gruppe" v="veg" />
		<tag k="ssr:hovedgruppe" v="infrastruktur" />
		<tag k="ssr:stedsnr" v="983821" />
		<tag k="ssr:type" v="adressenavn" />
	</node>
	<node id="-182746" lat="60.2848697949" lon="9.64028937946">
		<tag k="name" v="Breivikveien" />
		<tag k="ssr:date" v="2019-05-30" />
		<tag k="ssr:gruppe" v="veg" />
		<tag k="ssr:hovedgruppe" v="infrastruktur" />
		<tag k="ssr:stedsnr" v="983819" />
		<tag k="ssr:type" v="adressenavn" />
	</node>
	<node id="-182745" lat="60.197364389" lon="9.77542738409">
		<tag k="name" v="Brennbråtan" />
		<tag k="ssr:date" v="2019-05-30" />
		<tag k="ssr:gruppe" v="veg" />
		<tag k="ssr:hovedgruppe" v="infrastruktur" />
		<tag k="ssr:stedsnr" v="983820" />
		<tag k="ssr:type" v="adressenavn" />
	</node>
	<node id="-182744" lat="60.2140111094" lon="9.57026259385">
		<tag k="name" v="Bortigardtunet" />
		<tag k="ssr:date" v="2019-05-30" />
		<tag k="ssr:gruppe" v="veg" />
		<tag k="ssr:hovedgruppe" v="infrastruktur" />
		<tag k="ssr:stedsnr" v="983816" />
		<tag k="ssr:type" v="adressenavn" />
	</node>
	<node id="-182743" lat="60.1630893296" lon="9.62418959426">
		<tag k="name" v="Bjøremoen" />
		<tag k="ssr:date" v="2019-05-30" />
		<tag k="ssr:gruppe" v="veg" />
		<tag k="ssr:hovedgruppe" v="infrastruktur" />
		<tag k="ssr:stedsnr" v="983814" />
		<tag k="ssr:type" v="adressenavn" />
	</node>
	<node id="-182742" lat="60.1387074115" lon="9.6472772557">
		<tag k="name" v="Bekkemyrhøgda" />
		<tag k="ssr:date" v="2019-05-30" />
		<tag k="ssr:gruppe" v="veg" />
		<tag k="ssr:hovedgruppe" v="infrastruktur" />
		<tag k="ssr:stedsnr" v="983811" />
		<tag k="ssr:type" v="adressenavn" />
	</node>
	<node id="-182741" lat="60.17075419" lon="9.72868179272">
		<tag k="name" v="Annehullveien" />
		<tag k="ssr:date" v="2019-05-30" />
		<tag k="ssr:gruppe" v="veg" />
		<tag k="ssr:hovedgruppe" v="infrastruktur" />
		<tag k="ssr:stedsnr" v="983809" />
		<tag k="ssr:type" v="adressenavn" />
	</node>
	<node id="-182763" lat="60.2974105161" lon="9.54428821378">
		<tag k="name" v="Fjellheimveien" />
		<tag k="ssr:date" v="2019-05-30" />
		<tag k="ssr:gruppe" v="veg" />
		<tag k="ssr:hovedgruppe" v="infrastruktur" />
		<tag k="ssr:stedsnr" v="983840" />
		<tag k="ssr:type" v="adressenavn" />
	</node>
	<node id="-182750" lat="60.2261098374" lon="9.5213169747">
		<tag k="name" v="Bøsetra fjellandsby" />
		<tag k="ssr:date" v="2019-05-30" />
		<tag k="ssr:gruppe" v="veg" />
		<tag k="ssr:hovedgruppe" v="infrastruktur" />
		<tag k="ssr:stedsnr" v="983828" />
		<tag k="ssr:type" v="adressenavn" />
	</node>
	<node id="-182551" lat="60.1430490925" lon="9.62575191187">
		<tag k="name" v="Libekkveien" />
		<tag k="ssr:date" v="2019-05-30" />
		<tag k="ssr:gruppe" v="veg" />
		<tag k="ssr:hovedgruppe" v="infrastruktur" />
		<tag k="ssr:stedsnr" v="277558" />
		<tag k="ssr:type" v="adressenavn" />
	</node>
	<node id="-183436" lat="60.1794333332" lon="9.62123332921">
		<tag k="name" v="Krødsherad kommune" />
		<tag k="ssr:date" v="2016-05-10" />
		<tag k="ssr:gruppe" v="administrativeIndelinger" />
		<tag k="ssr:hovedgruppe" v="offentligAdministrasjon" />
		<tag k="ssr:stedsnr" v="630091" />
		<tag k="ssr:type" v="kommune" />
	</node>
	<node id="-182899" lat="60.1613463864" lon="9.57270110126">
		<tag k="name" v="Flatinveien" />
		<tag k="ssr:date" v="2019-05-30" />
		<tag k="ssr:gruppe" v="veg" />
		<tag k="ssr:hovedgruppe" v="infrastruktur" />
		<tag k="ssr:stedsnr" v="987713" />
		<tag k="ssr:type" v="adressenavn" />
	</node>
	<node id="-182898" lat="60.221206759" lon="9.51914541544">
		<tag k="name" v="Øvre Huldrakollveien" />
		<tag k="ssr:date" v="2019-05-30" />
		<tag k="ssr:gruppe" v="veg" />
		<tag k="ssr:hovedgruppe" v="infrastruktur" />
		<tag k="ssr:stedsnr" v="987711" />
		<tag k="ssr:type" v="adressenavn" />
	</node>
	<node id="-182897" lat="60.2017845652" lon="9.77040856969">
		<tag k="name" v="Vemreveien" />
		<tag k="ssr:date" v="2019-05-30" />
		<tag k="ssr:gruppe" v="veg" />
		<tag k="ssr:hovedgruppe" v="infrastruktur" />
		<tag k="ssr:stedsnr" v="987708" />
		<tag k="ssr:type" v="adressenavn" />
	</node>
	<node id="-182896" lat="60.2017522308" lon="9.57078945454">
		<tag k="name" v="Søre Damtjennhaugen" />
		<tag k="ssr:date" v="2019-05-30" />
		<tag k="ssr:gruppe" v="veg" />
		<tag k="ssr:hovedgruppe" v="infrastruktur" />
		<tag k="ssr:stedsnr" v="987705" />
		<tag k="ssr:type" v="adressenavn" />
	</node>
	<node id="-182895" lat="60.2143803204" lon="9.51743146835">
		<tag k="name" v="Søre Skulkarås" />
		<tag k="ssr:date" v="2019-05-30" />
		<tag k="ssr:gruppe" v="veg" />
		<tag k="ssr:hovedgruppe" v="infrastruktur" />
		<tag k="ssr:stedsnr" v="987706" />
		<tag k="ssr:type" v="adressenavn" />
	</node>
	<node id="-182894" lat="60.2498092217" lon="9.61104372545">
		<tag k="name" v="Surtebergveien" />
		<tag k="ssr:date" v="2019-05-30" />
		<tag k="ssr:gruppe" v="veg" />
		<tag k="ssr:hovedgruppe" v="infrastruktur" />
		<tag k="ssr:stedsnr" v="987703" />
		<tag k="ssr:type" v="adressenavn" />
	</node>
	<node id="-182893" lat="60.22517203" lon="9.53137482767">
		<tag k="name" v="Søre Bøseterlia" />
		<tag k="ssr:date" v="2019-05-30" />
		<tag k="ssr:gruppe" v="veg" />
		<tag k="ssr:hovedgruppe" v="infrastruktur" />
		<tag k="ssr:stedsnr" v="987704" />
		<tag k="ssr:type" v="adressenavn" />
	</node>
	<node id="-182892" lat="60.2202694519" lon="9.52003303856">
		<tag k="name" v="Midtre Huldrakollveien" />
		<tag k="ssr:date" v="2019-05-30" />
		<tag k="ssr:gruppe" v="veg" />
		<tag k="ssr:hovedgruppe" v="infrastruktur" />
		<tag k="ssr:stedsnr" v="987700" />
		<tag k="ssr:type" v="adressenavn" />
	</node>
	<node id="-182891" lat="60.2919619022" lon="9.63120292153">
		<tag k="name" v="Luteveien" />
		<tag k="ssr:date" v="2019-05-30" />
		<tag k="ssr:gruppe" v="veg" />
		<tag k="ssr:hovedgruppe" v="infrastruktur" />
		<tag k="ssr:stedsnr" v="987699" />
		<tag k="ssr:type" v="adressenavn" />
	</node>
	<node id="-182890" lat="60.1532976434" lon="9.66026270409">
		<tag k="name" v="Hovdeveien" />
		<tag k="ssr:date" v="2019-05-30" />
		<tag k="ssr:gruppe" v="veg" />
		<tag k="ssr:hovedgruppe" v="infrastruktur" />
		<tag k="ssr:stedsnr" v="987697" />
		<tag k="ssr:type" v="adressenavn" />
	</node>
	<node id="-182889" lat="60.2199170871" lon="9.51829479212">
		<tag k="name" v="Huldrakollstien" />
		<tag k="ssr:date" v="2019-05-30" />
		<tag k="ssr:gruppe" v="veg" />
		<tag k="ssr:hovedgruppe" v="infrastruktur" />
		<tag k="ssr:stedsnr" v="987698" />
		<tag k="ssr:type" v="adressenavn" />
	</node>
	<node id="-182888" lat="60.1407502834" lon="9.64818165169">
		<tag k="name" v="Haslerudseterveien" />
		<tag k="ssr:date" v="2019-05-30" />
		<tag k="ssr:gruppe" v="veg" />
		<tag k="ssr:hovedgruppe" v="infrastruktur" />
		<tag k="ssr:stedsnr" v="987696" />
		<tag k="ssr:type" v="adressenavn" />
	</node>
	<node id="-182885" lat="60.1497454714" lon="9.78322115666">
		<tag k="name" v="Vollanveien" />
		<tag k="ssr:date" v="2019-05-30" />
		<tag k="ssr:gruppe" v="veg" />
		<tag k="ssr:hovedgruppe" v="infrastruktur" />
		<tag k="ssr:stedsnr" v="984313" />
		<tag k="ssr:type" v="adressenavn" />
	</node>
	<node id="-182884" lat="60.1569520149" lon="9.80041636452">
		<tag k="name" v="Juvseterveien" />
		<tag k="ssr:date" v="2019-05-30" />
		<tag k="ssr:gruppe" v="veg" />
		<tag k="ssr:hovedgruppe" v="infrastruktur" />
		<tag k="ssr:stedsnr" v="984312" />
		<tag k="ssr:type" v="adressenavn" />
	</node>
	<node id="-182883" lat="60.2131241461" lon="9.57188928747">
		<tag k="name" v="Bekkelia" />
		<tag k="ssr:date" v="2019-05-30" />
		<tag k="ssr:gruppe" v="veg" />
		<tag k="ssr:hovedgruppe" v="infrastruktur" />
		<tag k="ssr:stedsnr" v="984310" />
		<tag k="ssr:type" v="adressenavn" />
	</node>
	<node id="-182882" lat="60.1810196259" lon="9.79400720584">
		<tag k="name" v="Brennaveien" />
		<tag k="ssr:date" v="2019-05-30" />
		<tag k="ssr:gruppe" v="veg" />
		<tag k="ssr:hovedgruppe" v="infrastruktur" />
		<tag k="ssr:stedsnr" v="984309" />
		<tag k="ssr:type" v="adressenavn" />
	</node>
	<node id="-182881" lat="60.2132031972" lon="9.57021247856">
		<tag k="name" v="Øvregrenda" />
		<tag k="ssr:date" v="2019-05-30" />
		<tag k="ssr:gruppe" v="veg" />
		<tag k="ssr:hovedgruppe" v="infrastruktur" />
		<tag k="ssr:stedsnr" v="984121" />
		<tag k="ssr:type" v="adressenavn" />
	</node>
	<node id="-182880" lat="60.1446368239" lon="9.64665545407">
		<tag k="name" v="Øvre Hovdekollen" />
		<tag k="ssr:date" v="2019-05-30" />
		<tag k="ssr:gruppe" v="veg" />
		<tag k="ssr:hovedgruppe" v="infrastruktur" />
		<tag k="ssr:stedsnr" v="984117" />
		<tag k="ssr:type" v="adressenavn" />
	</node>
	<node id="-182879" lat="60.2044979716" lon="9.56914136608">
		<tag k="name" v="Øvre Hammarveien" />
		<tag k="ssr:date" v="2019-05-30" />
		<tag k="ssr:gruppe" v="veg" />
		<tag k="ssr:hovedgruppe" v="infrastruktur" />
		<tag k="ssr:stedsnr" v="984116" />
		<tag k="ssr:type" v="adressenavn" />
	</node>
	<node id="-182878" lat="60.2131047377" lon="9.508280677">
		<tag k="name" v="Øvre Fossliseteråsen" />
		<tag k="ssr:date" v="2019-05-30" />
		<tag k="ssr:gruppe" v="veg" />
		<tag k="ssr:hovedgruppe" v="infrastruktur" />
		<tag k="ssr:stedsnr" v="984114" />
		<tag k="ssr:type" v="adressenavn" />
	</node>
	<node id="-182877" lat="60.1292099177" lon="9.7064880373">
		<tag k="name" v="Øvre Flagveien" />
		<tag k="ssr:date" v="2019-05-30" />
		<tag k="ssr:gruppe" v="veg" />
		<tag k="ssr:hovedgruppe" v="infrastruktur" />
		<tag k="ssr:stedsnr" v="984113" />
		<tag k="ssr:type" v="adressenavn" />
	</node>
	<node id="-182876" lat="60.1986700536" lon="9.79152953025">
		<tag k="name" v="Ørtesvatnet" />
		<tag k="ssr:date" v="2019-05-30" />
		<tag k="ssr:gruppe" v="veg" />
		<tag k="ssr:hovedgruppe" v="infrastruktur" />
		<tag k="ssr:stedsnr" v="984109" />
		<tag k="ssr:type" v="adressenavn" />
	</node>
	<node id="-182875" lat="60.2767809161" lon="9.57106545756">
		<tag k="name" v="Østenseterveien" />
		<tag k="ssr:date" v="2019-05-30" />
		<tag k="ssr:gruppe" v="veg" />
		<tag k="ssr:hovedgruppe" v="infrastruktur" />
		<tag k="ssr:stedsnr" v="984110" />
		<tag k="ssr:type" v="adressenavn" />
	</node>
	<node id="-182874" lat="60.2046839948" lon="9.56553652451">
		<tag k="name" v="Ølløkmyra" />
		<tag k="ssr:date" v="2019-05-30" />
		<tag k="ssr:gruppe" v="veg" />
		<tag k="ssr:hovedgruppe" v="infrastruktur" />
		<tag k="ssr:stedsnr" v="984108" />
		<tag k="ssr:type" v="adressenavn" />
	</node>
	<node id="-182873" lat="60.2234455502" lon="9.55822421579">
		<tag k="name" v="Vidsynveien" />
		<tag k="ssr:date" v="2019-05-30" />
		<tag k="ssr:gruppe" v="veg" />
		<tag k="ssr:hovedgruppe" v="infrastruktur" />
		<tag k="ssr:stedsnr" v="984107" />
		<tag k="ssr:type" v="adressenavn" />
	</node>
	<node id="-182872" lat="60.2134131132" lon="9.56942213733">
		<tag k="name" v="Vestafortunet" />
		<tag k="ssr:date" v="2019-05-30" />
		<tag k="ssr:gruppe" v="veg" />
		<tag k="ssr:hovedgruppe" v="infrastruktur" />
		<tag k="ssr:stedsnr" v="984105" />
		<tag k="ssr:type" v="adressenavn" />
	</node>
	<node id="-182871" lat="60.2124136296" lon="9.57007246142">
		<tag k="name" v="Vesletunet" />
		<tag k="ssr:date" v="2019-05-30" />
		<tag k="ssr:gruppe" v="veg" />
		<tag k="ssr:hovedgruppe" v="infrastruktur" />
		<tag k="ssr:stedsnr" v="984104" />
		<tag k="ssr:type" v="adressenavn" />
	</node>
	<node id="-182870" lat="60.2179143747" lon="9.56459123373">
		<tag k="name" v="Utsikten" />
		<tag k="ssr:date" v="2019-05-30" />
		<tag k="ssr:gruppe" v="veg" />
		<tag k="ssr:hovedgruppe" v="infrastruktur" />
		<tag k="ssr:stedsnr" v="984099" />
		<tag k="ssr:type" v="adressenavn" />
	</node>
	<node id="-182869" lat="60.2213300463" lon="9.55950586375">
		<tag k="name" v="Tårnfalkveien" />
		<tag k="ssr:date" v="2019-05-30" />
		<tag k="ssr:gruppe" v="veg" />
		<tag k="ssr:hovedgruppe" v="infrastruktur" />
		<tag k="ssr:stedsnr" v="984098" />
		<tag k="ssr:type" v="adressenavn" />
	</node>
	<node id="-182868" lat="60.1871711533" lon="9.55571510716">
		<tag k="name" v="Tørkopplia" />
		<tag k="ssr:date" v="2019-05-30" />
		<tag k="ssr:gruppe" v="veg" />
		<tag k="ssr:hovedgruppe" v="infrastruktur" />
		<tag k="ssr:stedsnr" v="984097" />
		<tag k="ssr:type" v="adressenavn" />
	</node>
	<node id="-182867" lat="60.2219676763" lon="9.59857656131">
		<tag k="name" v="Tømmeråsen" />
		<tag k="ssr:date" v="2019-05-30" />
		<tag k="ssr:gruppe" v="veg" />
		<tag k="ssr:hovedgruppe" v="infrastruktur" />
		<tag k="ssr:stedsnr" v="984096" />
		<tag k="ssr:type" v="adressenavn" />
	</node>
	<node id="-182866" lat="60.2788487948" lon="9.60098967795">
		<tag k="name" v="Storåsveien" />
		<tag k="ssr:date" v="2019-05-30" />
		<tag k="ssr:gruppe" v="veg" />
		<tag k="ssr:hovedgruppe" v="infrastruktur" />
		<tag k="ssr:stedsnr" v="984071" />
		<tag k="ssr:type" v="adressenavn" />
	</node>
	<node id="-182865" lat="60.2134762522" lon="9.57144428866">
		<tag k="name" v="Solbakken" />
		<tag k="ssr:date" v="2019-05-30" />
		<tag k="ssr:gruppe" v="veg" />
		<tag k="ssr:hovedgruppe" v="infrastruktur" />
		<tag k="ssr:stedsnr" v="984069" />
		<tag k="ssr:type" v="adressenavn" />
	</node>
	<node id="-182864" lat="60.2200543125" lon="9.56179436875">
		<tag k="name" v="Snøspurvveien" />
		<tag k="ssr:date" v="2019-05-30" />
		<tag k="ssr:gruppe" v="veg" />
		<tag k="ssr:hovedgruppe" v="infrastruktur" />
		<tag k="ssr:stedsnr" v="984067" />
		<tag k="ssr:type" v="adressenavn" />
	</node>
	<node id="-182863" lat="60.2128829929" lon="9.56950317229">
		<tag k="name" v="Snippen" />
		<tag k="ssr:date" v="2019-05-30" />
		<tag k="ssr:gruppe" v="veg" />
		<tag k="ssr:hovedgruppe" v="infrastruktur" />
		<tag k="ssr:stedsnr" v="984066" />
		<tag k="ssr:type" v="adressenavn" />
	</node>
	<node id="-182862" lat="60.2221577014" lon="9.57177585702">
		<tag k="name" v="Snersrudseterveien" />
		<tag k="ssr:date" v="2019-05-30" />
		<tag k="ssr:gruppe" v="veg" />
		<tag k="ssr:hovedgruppe" v="infrastruktur" />
		<tag k="ssr:stedsnr" v="984065" />
		<tag k="ssr:type" v="adressenavn" />
	</node>
	<node id="-182861" lat="60.1381322072" lon="9.66550402525">
		<tag k="name" v="Slåttemyrveien" />
		<tag k="ssr:date" v="2019-05-30" />
		<tag k="ssr:gruppe" v="veg" />
		<tag k="ssr:hovedgruppe" v="infrastruktur" />
		<tag k="ssr:stedsnr" v="984064" />
		<tag k="ssr:type" v="adressenavn" />
	</node>
	<node id="-182860" lat="60.264195262" lon="9.60878162286">
		<tag k="name" v="Slentaveien" />
		<tag k="ssr:date" v="2019-05-30" />
		<tag k="ssr:gruppe" v="veg" />
		<tag k="ssr:hovedgruppe" v="infrastruktur" />
		<tag k="ssr:stedsnr" v="984062" />
		<tag k="ssr:type" v="adressenavn" />
	</node>
	<node id="-182859" lat="60.1662129826" lon="9.83769010766">
		<tag k="name" v="Skvalparudveien" />
		<tag k="ssr:date" v="2019-05-30" />
		<tag k="ssr:gruppe" v="veg" />
		<tag k="ssr:hovedgruppe" v="infrastruktur" />
		<tag k="ssr:stedsnr" v="984061" />
		<tag k="ssr:type" v="adressenavn" />
	</node>
	<node id="-182858" lat="60.2159825192" lon="9.51642806053">
		<tag k="name" v="Skulkarås" />
		<tag k="ssr:date" v="2019-05-30" />
		<tag k="ssr:gruppe" v="veg" />
		<tag k="ssr:hovedgruppe" v="infrastruktur" />
		<tag k="ssr:stedsnr" v="984060" />
		<tag k="ssr:type" v="adressenavn" />
	</node>
	<node id="-182857" lat="60.1547942548" lon="9.74545919593">
		<tag k="name" v="Skinnessundbakken" />
		<tag k="ssr:date" v="2019-05-30" />
		<tag k="ssr:gruppe" v="veg" />
		<tag k="ssr:hovedgruppe" v="infrastruktur" />
		<tag k="ssr:stedsnr" v="984057" />
		<tag k="ssr:type" v="adressenavn" />
	</node>
	<node id="-182856" lat="60.1932565168" lon="9.80478077252">
		<tag k="name" v="Skaugumveien" />
		<tag k="ssr:date" v="2019-05-30" />
		<tag k="ssr:gruppe" v="veg" />
		<tag k="ssr:hovedgruppe" v="infrastruktur" />
		<tag k="ssr:stedsnr" v="984054" />
		<tag k="ssr:type" v="adressenavn" />
	</node>
	<node id="-182855" lat="60.177875282" lon="9.86044767776">
		<tag k="name" v="Skalpelivollen" />
		<tag k="ssr:date" v="2019-05-30" />
		<tag k="ssr:gruppe" v="veg" />
		<tag k="ssr:hovedgruppe" v="infrastruktur" />
		<tag k="ssr:stedsnr" v="984053" />
		<tag k="ssr:type" v="adressenavn" />
	</node>
	<node id="-182854" lat="60.1101300311" lon="9.7277739022">
		<tag k="name" v="Sigdalstjennveien" />
		<tag k="ssr:date" v="2019-05-30" />
		<tag k="ssr:gruppe" v="veg" />
		<tag k="ssr:hovedgruppe" v="infrastruktur" />
		<tag k="ssr:stedsnr" v="984051" />
		<tag k="ssr:type" v="adressenavn" />
	</node>
	<node id="-182853" lat="60.212768891" lon="9.57098086463">
		<tag k="name" v="Sandumlia" />
		<tag k="ssr:date" v="2019-05-30" />
		<tag k="ssr:gruppe" v="veg" />
		<tag k="ssr:hovedgruppe" v="infrastruktur" />
		<tag k="ssr:stedsnr" v="984050" />
		<tag k="ssr:type" v="adressenavn" />
	</node>
	<node id="-182852" lat="60.2093101095" lon="9.75622263062">
		<tag k="name" v="Trytetjennveien" />
		<tag k="ssr:date" v="2019-05-30" />
		<tag k="ssr:gruppe" v="veg" />
		<tag k="ssr:hovedgruppe" v="infrastruktur" />
		<tag k="ssr:stedsnr" v="984092" />
		<tag k="ssr:type" v="adressenavn" />
	</node>
	<node id="-182851" lat="60.2088072824" lon="9.77335185646">
		<tag k="name" v="Tryterud" />
		<tag k="ssr:date" v="2019-05-30" />
		<tag k="ssr:gruppe" v="veg" />
		<tag k="ssr:hovedgruppe" v="infrastruktur" />
		<tag k="ssr:stedsnr" v="984091" />
		<tag k="ssr:type" v="adressenavn" />
	</node>
	<node id="-182850" lat="60.1366285402" lon="9.81706196341">
		<tag k="name" v="Tjennsmyr" />
		<tag k="ssr:date" v="2019-05-30" />
		<tag k="ssr:gruppe" v="veg" />
		<tag k="ssr:hovedgruppe" v="infrastruktur" />
		<tag k="ssr:stedsnr" v="984089" />
		<tag k="ssr:type" v="adressenavn" />
	</node>
	<node id="-182849" lat="60.1259583674" lon="9.69308224179">
		<tag k="name" v="Søretjennveien" />
		<tag k="ssr:date" v="2019-05-30" />
		<tag k="ssr:gruppe" v="veg" />
		<tag k="ssr:hovedgruppe" v="infrastruktur" />
		<tag k="ssr:stedsnr" v="984088" />
		<tag k="ssr:type" v="adressenavn" />
	</node>
	<node id="-182848" lat="60.2137177395" lon="9.57166503303">
		<tag k="name" v="Sønnafortunet" />
		<tag k="ssr:date" v="2019-05-30" />
		<tag k="ssr:gruppe" v="veg" />
		<tag k="ssr:hovedgruppe" v="infrastruktur" />
		<tag k="ssr:stedsnr" v="984087" />
		<tag k="ssr:type" v="adressenavn" />
	</node>
	<node id="-182847" lat="60.2141687641" lon="9.57118565291">
		<tag k="name" v="Svingen" />
		<tag k="ssr:date" v="2019-05-30" />
		<tag k="ssr:gruppe" v="veg" />
		<tag k="ssr:hovedgruppe" v="infrastruktur" />
		<tag k="ssr:stedsnr" v="984084" />
		<tag k="ssr:type" v="adressenavn" />
	</node>
	<node id="-182846" lat="60.1974089744" lon="9.54452531249">
		<tag k="name" v="Svarthammarveien" />
		<tag k="ssr:date" v="2019-05-30" />
		<tag k="ssr:gruppe" v="veg" />
		<tag k="ssr:hovedgruppe" v="infrastruktur" />
		<tag k="ssr:stedsnr" v="984083" />
		<tag k="ssr:type" v="adressenavn" />
	</node>
	<node id="-182845" lat="60.1158507807" lon="9.82415781883">
		<tag k="name" v="Svanetjennveien" />
		<tag k="ssr:date" v="2019-05-30" />
		<tag k="ssr:gruppe" v="veg" />
		<tag k="ssr:hovedgruppe" v="infrastruktur" />
		<tag k="ssr:stedsnr" v="984081" />
		<tag k="ssr:type" v="adressenavn" />
	</node>
	<node id="-182844" lat="60.1673976562" lon="9.76812577988">
		<tag k="name" v="Sundåsveien" />
		<tag k="ssr:date" v="2019-05-30" />
		<tag k="ssr:gruppe" v="veg" />
		<tag k="ssr:hovedgruppe" v="infrastruktur" />
		<tag k="ssr:stedsnr" v="984080" />
		<tag k="ssr:type" v="adressenavn" />
	</node>
	<node id="-182843" lat="60.1245657848" lon="9.82626536232">
		<tag k="name" v="Råaråsen" />
		<tag k="ssr:date" v="2019-05-30" />
		<tag k="ssr:gruppe" v="veg" />
		<tag k="ssr:hovedgruppe" v="infrastruktur" />
		<tag k="ssr:stedsnr" v="984047" />
		<tag k="ssr:type" v="adressenavn" />
	</node>
	<node id="-182842" lat="60.2046206071" lon="9.72445345943">
		<tag k="name" v="Rishovdtjennveien" />
		<tag k="ssr:date" v="2019-05-30" />
		<tag k="ssr:gruppe" v="veg" />
		<tag k="ssr:hovedgruppe" v="infrastruktur" />
		<tag k="ssr:stedsnr" v="984043" />
		<tag k="ssr:type" v="adressenavn" />
	</node>
	<node id="-182841" lat="60.2556599883" lon="9.62723365359">
		<tag k="name" v="Ringnesmoen" />
		<tag k="ssr:date" v="2019-05-30" />
		<tag k="ssr:gruppe" v="veg" />
		<tag k="ssr:hovedgruppe" v="infrastruktur" />
		<tag k="ssr:stedsnr" v="983986" />
		<tag k="ssr:type" v="adressenavn" />
	</node>
	<node id="-182840" lat="60.108560199" lon="9.71262935252">
		<tag k="name" v="Reiersmyrveien" />
		<tag k="ssr:date" v="2019-05-30" />
		<tag k="ssr:gruppe" v="veg" />
		<tag k="ssr:hovedgruppe" v="infrastruktur" />
		<tag k="ssr:stedsnr" v="983985" />
		<tag k="ssr:type" v="adressenavn" />
	</node>
	<node id="-182839" lat="60.0948492447" lon="9.74031102102">
		<tag k="name" v="Radeleveien" />
		<tag k="ssr:date" v="2019-05-30" />
		<tag k="ssr:gruppe" v="veg" />
		<tag k="ssr:hovedgruppe" v="infrastruktur" />
		<tag k="ssr:stedsnr" v="983983" />
		<tag k="ssr:type" v="adressenavn" />
	</node>
	<node id="-182838" lat="60.2126387595" lon="9.54862125193">
		<tag k="name" v="Puttanseterveien" />
		<tag k="ssr:date" v="2019-05-30" />
		<tag k="ssr:gruppe" v="veg" />
		<tag k="ssr:hovedgruppe" v="infrastruktur" />
		<tag k="ssr:stedsnr" v="983982" />
		<tag k="ssr:type" v="adressenavn" />
	</node>
	<node id="-182837" lat="60.2125243164" lon="9.56938868643">
		<tag k="name" v="Orrelia" />
		<tag k="ssr:date" v="2019-05-30" />
		<tag k="ssr:gruppe" v="veg" />
		<tag k="ssr:hovedgruppe" v="infrastruktur" />
		<tag k="ssr:stedsnr" v="983981" />
		<tag k="ssr:type" v="adressenavn" />
	</node>
	<node id="-182836" lat="60.1977496546" lon="9.55547910211">
		<tag k="name" v="Noreseterstien" />
		<tag k="ssr:date" v="2019-05-30" />
		<tag k="ssr:gruppe" v="veg" />
		<tag k="ssr:hovedgruppe" v="infrastruktur" />
		<tag k="ssr:stedsnr" v="983974" />
		<tag k="ssr:type" v="adressenavn" />
	</node>
	<node id="-182835" lat="60.1955619745" lon="9.57161980346">
		<tag k="name" v="Norehammarlia" />
		<tag k="ssr:date" v="2019-05-30" />
		<tag k="ssr:gruppe" v="veg" />
		<tag k="ssr:hovedgruppe" v="infrastruktur" />
		<tag k="ssr:stedsnr" v="983972" />
		<tag k="ssr:type" v="adressenavn" />
	</node>
	<node id="-182834" lat="60.1980909805" lon="9.5744233998">
		<tag k="name" v="Norehammarbakken" />
		<tag k="ssr:date" v="2019-05-30" />
		<tag k="ssr:gruppe" v="veg" />
		<tag k="ssr:hovedgruppe" v="infrastruktur" />
		<tag k="ssr:stedsnr" v="983971" />
		<tag k="ssr:type" v="adressenavn" />
	</node>
	<node id="-182833" lat="60.2200870004" lon="9.56677638935">
		<tag k="name" v="Norefjelltunet" />
		<tag k="ssr:date" v="2019-05-30" />
		<tag k="ssr:gruppe" v="veg" />
		<tag k="ssr:hovedgruppe" v="infrastruktur" />
		<tag k="ssr:stedsnr" v="983968" />
		<tag k="ssr:type" v="adressenavn" />
	</node>
	<node id="-182832" lat="60.2190509023" lon="9.57177591132">
		<tag k="name" v="Norefjell alpingrend" />
		<tag k="ssr:date" v="2019-05-30" />
		<tag k="ssr:gruppe" v="veg" />
		<tag k="ssr:hovedgruppe" v="infrastruktur" />
		<tag k="ssr:stedsnr" v="983966" />
		<tag k="ssr:type" v="adressenavn" />
	</node>
	<node id="-182831" lat="60.2229275943" lon="9.56180742574">
		<tag k="name" v="Norefjellstua" />
		<tag k="ssr:date" v="2019-05-30" />
		<tag k="ssr:gruppe" v="veg" />
		<tag k="ssr:hovedgruppe" v="infrastruktur" />
		<tag k="ssr:stedsnr" v="983967" />
		<tag k="ssr:type" v="adressenavn" />
	</node>
	<node id="-182830" lat="60.2120161778" lon="9.50647745341">
		<tag k="name" v="Nedre Fossliseteråsen" />
		<tag k="ssr:date" v="2019-05-30" />
		<tag k="ssr:gruppe" v="veg" />
		<tag k="ssr:hovedgruppe" v="infrastruktur" />
		<tag k="ssr:stedsnr" v="983949" />
		<tag k="ssr:type" v="adressenavn" />
	</node>
	<node id="-182829" lat="60.1250509246" lon="9.70000998551">
		<tag k="name" v="Nedre Flagveien" />
		<tag k="ssr:date" v="2019-05-30" />
		<tag k="ssr:gruppe" v="veg" />
		<tag k="ssr:hovedgruppe" v="infrastruktur" />
		<tag k="ssr:stedsnr" v="983948" />
		<tag k="ssr:type" v="adressenavn" />
	</node>
	<node id="-182828" lat="60.2991850432" lon="9.63977329485">
		<tag k="name" v="Nedre Breivikveien" />
		<tag k="ssr:date" v="2019-05-30" />
		<tag k="ssr:gruppe" v="veg" />
		<tag k="ssr:hovedgruppe" v="infrastruktur" />
		<tag k="ssr:stedsnr" v="983946" />
		<tag k="ssr:type" v="adressenavn" />
	</node>
	<node id="-182827" lat="60.1429938695" lon="9.59285546676">
		<tag k="name" v="Midtveien" />
		<tag k="ssr:date" v="2019-05-30" />
		<tag k="ssr:gruppe" v="veg" />
		<tag k="ssr:hovedgruppe" v="infrastruktur" />
		<tag k="ssr:stedsnr" v="983943" />
		<tag k="ssr:type" v="adressenavn" />
	</node>
	<node id="-182826" lat="60.1631788275" lon="9.77710836993">
		<tag k="name" v="Mysutjennveien" />
		<tag k="ssr:date" v="2019-05-30" />
		<tag k="ssr:gruppe" v="veg" />
		<tag k="ssr:hovedgruppe" v="infrastruktur" />
		<tag k="ssr:stedsnr" v="983944" />
		<tag k="ssr:type" v="adressenavn" />
	</node>
	<node id="-182825" lat="60.2123066625" lon="9.5698901601">
		<tag k="name" v="Midttunet" />
		<tag k="ssr:date" v="2019-05-30" />
		<tag k="ssr:gruppe" v="veg" />
		<tag k="ssr:hovedgruppe" v="infrastruktur" />
		<tag k="ssr:stedsnr" v="983942" />
		<tag k="ssr:type" v="adressenavn" />
	</node>
	<node id="-182824" lat="60.2124140753" lon="9.50808954603">
		<tag k="name" v="Midtre Fossliseteråsen" />
		<tag k="ssr:date" v="2019-05-30" />
		<tag k="ssr:gruppe" v="veg" />
		<tag k="ssr:hovedgruppe" v="infrastruktur" />
		<tag k="ssr:stedsnr" v="983938" />
		<tag k="ssr:type" v="adressenavn" />
	</node>
	<node id="-182823" lat="60.1276496207" lon="9.70101908489">
		<tag k="name" v="Midtre Flagveien" />
		<tag k="ssr:date" v="2019-05-30" />
		<tag k="ssr:gruppe" v="veg" />
		<tag k="ssr:hovedgruppe" v="infrastruktur" />
		<tag k="ssr:stedsnr" v="983937" />
		<tag k="ssr:type" v="adressenavn" />
	</node>
	<node id="-182822" lat="60.1679010656" lon="9.78185115766">
		<tag k="name" v="Mesteråsveien" />
		<tag k="ssr:date" v="2019-05-30" />
		<tag k="ssr:gruppe" v="veg" />
		<tag k="ssr:hovedgruppe" v="infrastruktur" />
		<tag k="ssr:stedsnr" v="983936" />
		<tag k="ssr:type" v="adressenavn" />
	</node>
	<node id="-182821" lat="60.074948942" lon="9.76117711453">
		<tag k="name" v="Medrudveien" />
		<tag k="ssr:date" v="2019-05-30" />
		<tag k="ssr:gruppe" v="veg" />
		<tag k="ssr:hovedgruppe" v="infrastruktur" />
		<tag k="ssr:stedsnr" v="983935" />
		<tag k="ssr:type" v="adressenavn" />
	</node>
	<node id="-182820" lat="60.2043580246" lon="9.57036567192">
		<tag k="name" v="Nordre Damtjennhaugen" />
		<tag k="ssr:date" v="2019-05-30" />
		<tag k="ssr:gruppe" v="veg" />
		<tag k="ssr:hovedgruppe" v="infrastruktur" />
		<tag k="ssr:stedsnr" v="983964" />
		<tag k="ssr:type" v="adressenavn" />
	</node>
	<node id="-182819" lat="60.1370866907" lon="9.57836452535">
		<tag k="name" v="Nordliveien" />
		<tag k="ssr:date" v="2019-05-30" />
		<tag k="ssr:gruppe" v="veg" />
		<tag k="ssr:hovedgruppe" v="infrastruktur" />
		<tag k="ssr:stedsnr" v="983962" />
		<tag k="ssr:type" v="adressenavn" />
	</node>
	<node id="-182818" lat="60.2288110378" lon="9.52625236937">
		<tag k="name" v="Nordre Bøseterlia" />
		<tag k="ssr:date" v="2019-05-30" />
		<tag k="ssr:gruppe" v="veg" />
		<tag k="ssr:hovedgruppe" v="infrastruktur" />
		<tag k="ssr:stedsnr" v="983963" />
		<tag k="ssr:type" v="adressenavn" />
	</node>
	<node id="-182817" lat="60.2143539216" lon="9.569889587">
		<tag k="name" v="Nordafortunet" />
		<tag k="ssr:date" v="2019-05-30" />
		<tag k="ssr:gruppe" v="veg" />
		<tag k="ssr:hovedgruppe" v="infrastruktur" />
		<tag k="ssr:stedsnr" v="983960" />
		<tag k="ssr:type" v="adressenavn" />
	</node>
	<node id="-182816" lat="60.1451177775" lon="9.64562044242">
		<tag k="name" v="Nedre Hovdekollen" />
		<tag k="ssr:date" v="2019-05-30" />
		<tag k="ssr:gruppe" v="veg" />
		<tag k="ssr:hovedgruppe" v="infrastruktur" />
		<tag k="ssr:stedsnr" v="983956" />
		<tag k="ssr:type" v="adressenavn" />
	</node>
	<node id="-182815" lat="60.198198436" lon="9.56823866771">
		<tag k="name" v="Nedre Hammarveien" />
		<tag k="ssr:date" v="2019-05-30" />
		<tag k="ssr:gruppe" v="veg" />
		<tag k="ssr:hovedgruppe" v="infrastruktur" />
		<tag k="ssr:stedsnr" v="983955" />
		<tag k="ssr:type" v="adressenavn" />
	</node>
	<node id="-182814" lat="60.1192394844" lon="9.68315240915">
		<tag k="name" v="Maurlidalen" />
		<tag k="ssr:date" v="2019-05-30" />
		<tag k="ssr:gruppe" v="veg" />
		<tag k="ssr:hovedgruppe" v="infrastruktur" />
		<tag k="ssr:stedsnr" v="983934" />
		<tag k="ssr:type" v="adressenavn" />
	</node>
	<node id="-182813" lat="60.1875671943" lon="9.72310403444">
		<tag k="name" v="Lågebekklia" />
		<tag k="ssr:date" v="2019-05-30" />
		<tag k="ssr:gruppe" v="veg" />
		<tag k="ssr:hovedgruppe" v="infrastruktur" />
		<tag k="ssr:stedsnr" v="983933" />
		<tag k="ssr:type" v="adressenavn" />
	</node>
	<node id="-182812" lat="60.2237519326" lon="9.51810261205">
		<tag k="name" v="Leppejuvstien" />
		<tag k="ssr:date" v="2019-05-30" />
		<tag k="ssr:gruppe" v="veg" />
		<tag k="ssr:hovedgruppe" v="infrastruktur" />
		<tag k="ssr:stedsnr" v="983931" />
		<tag k="ssr:type" v="adressenavn" />
	</node>
	<node id="-182811" lat="60.1999100201" lon="9.56484109671">
		<tag k="name" v="Lyngveien" />
		<tag k="ssr:date" v="2019-05-30" />
		<tag k="ssr:gruppe" v="veg" />
		<tag k="ssr:hovedgruppe" v="infrastruktur" />
		<tag k="ssr:stedsnr" v="983932" />
		<tag k="ssr:type" v="adressenavn" />
	</node>
	<node id="-182810" lat="60.1587280617" lon="9.59630945303">
		<tag k="name" v="Leirskvenneveien" />
		<tag k="ssr:date" v="2019-05-30" />
		<tag k="ssr:gruppe" v="veg" />
		<tag k="ssr:hovedgruppe" v="infrastruktur" />
		<tag k="ssr:stedsnr" v="983929" />
		<tag k="ssr:type" v="adressenavn" />
	</node>
	<node id="-182809" lat="60.2283395381" lon="9.52286885355">
		<tag k="name" v="Leirseterstien" />
		<tag k="ssr:date" v="2019-05-30" />
		<tag k="ssr:gruppe" v="veg" />
		<tag k="ssr:hovedgruppe" v="infrastruktur" />
		<tag k="ssr:stedsnr" v="983928" />
		<tag k="ssr:type" v="adressenavn" />
	</node>
	<node id="-182808" lat="60.220207863" lon="9.51510474926">
		<tag k="name" v="Leinesetra" />
		<tag k="ssr:date" v="2019-05-30" />
		<tag k="ssr:gruppe" v="veg" />
		<tag k="ssr:hovedgruppe" v="infrastruktur" />
		<tag k="ssr:stedsnr" v="983927" />
		<tag k="ssr:type" v="adressenavn" />
	</node>
	<node id="-182807" lat="60.2121560419" lon="9.56941839214">
		<tag k="name" v="Langlia" />
		<tag k="ssr:date" v="2019-05-30" />
		<tag k="ssr:gruppe" v="veg" />
		<tag k="ssr:hovedgruppe" v="infrastruktur" />
		<tag k="ssr:stedsnr" v="983925" />
		<tag k="ssr:type" v="adressenavn" />
	</node>
	<node id="-182806" lat="60.2126336845" lon="9.56901164368">
		<tag k="name" v="Leiken" />
		<tag k="ssr:date" v="2019-05-30" />
		<tag k="ssr:gruppe" v="veg" />
		<tag k="ssr:hovedgruppe" v="infrastruktur" />
		<tag k="ssr:stedsnr" v="983926" />
		<tag k="ssr:type" v="adressenavn" />
	</node>
	<node id="-182805" lat="60.1314203368" lon="9.85963056335">
		<tag k="name" v="Kroktjennveien" />
		<tag k="ssr:date" v="2019-05-30" />
		<tag k="ssr:gruppe" v="veg" />
		<tag k="ssr:hovedgruppe" v="infrastruktur" />
		<tag k="ssr:stedsnr" v="983921" />
		<tag k="ssr:type" v="adressenavn" />
	</node>
	<node id="-182804" lat="60.1888223917" lon="9.74614036305">
		<tag k="name" v="Klemmedalsveien" />
		<tag k="ssr:date" v="2019-05-30" />
		<tag k="ssr:gruppe" v="veg" />
		<tag k="ssr:hovedgruppe" v="infrastruktur" />
		<tag k="ssr:stedsnr" v="983919" />
		<tag k="ssr:type" v="adressenavn" />
	</node>
	<node id="-182803" lat="60.1699653201" lon="9.8292973632">
		<tag k="name" v="Kittilsmyrveien" />
		<tag k="ssr:date" v="2019-05-30" />
		<tag k="ssr:gruppe" v="veg" />
		<tag k="ssr:hovedgruppe" v="infrastruktur" />
		<tag k="ssr:stedsnr" v="983918" />
		<tag k="ssr:type" v="adressenavn" />
	</node>
	<node id="-182802" lat="60.2256314381" lon="9.69949968533">
		<tag k="name" v="Katrineplassveien" />
		<tag k="ssr:date" v="2019-05-30" />
		<tag k="ssr:gruppe" v="veg" />
		<tag k="ssr:hovedgruppe" v="infrastruktur" />
		<tag k="ssr:stedsnr" v="983916" />
		<tag k="ssr:type" v="adressenavn" />
	</node>
	<node id="-182801" lat="60.167957443" lon="9.73916184699">
		<tag k="name" v="Kittilsbråtaveien" />
		<tag k="ssr:date" v="2019-05-30" />
		<tag k="ssr:gruppe" v="veg" />
		<tag k="ssr:hovedgruppe" v="infrastruktur" />
		<tag k="ssr:stedsnr" v="983917" />
		<tag k="ssr:type" v="adressenavn" />
	</node>
	<node id="-182800" lat="60.250101157" lon="9.66609447327">
		<tag k="name" v="Jonbråtan" />
		<tag k="ssr:date" v="2019-05-30" />
		<tag k="ssr:gruppe" v="veg" />
		<tag k="ssr:hovedgruppe" v="infrastruktur" />
		<tag k="ssr:stedsnr" v="983913" />
		<tag k="ssr:type" v="adressenavn" />
	</node>
	<node id="-182799" lat="60.1631940793" lon="9.58141772601">
		<tag k="name" v="Jokerudveien" />
		<tag k="ssr:date" v="2019-05-30" />
		<tag k="ssr:gruppe" v="veg" />
		<tag k="ssr:hovedgruppe" v="infrastruktur" />
		<tag k="ssr:stedsnr" v="983912" />
		<tag k="ssr:type" v="adressenavn" />
	</node>
	<node id="-182798" lat="60.1459572971" lon="9.61833638941">
		<tag k="name" v="Jobuveien" />
		<tag k="ssr:date" v="2019-05-30" />
		<tag k="ssr:gruppe" v="veg" />
		<tag k="ssr:hovedgruppe" v="infrastruktur" />
		<tag k="ssr:stedsnr" v="983911" />
		<tag k="ssr:type" v="adressenavn" />
	</node>
	<node id="-182797" lat="60.1091627433" lon="9.70575284914">
		<tag k="name" v="Inngjerdingsmyra" />
		<tag k="ssr:date" v="2019-05-30" />
		<tag k="ssr:gruppe" v="veg" />
		<tag k="ssr:hovedgruppe" v="infrastruktur" />
		<tag k="ssr:stedsnr" v="983910" />
		<tag k="ssr:type" v="adressenavn" />
	</node>
	<node id="-182796" lat="60.2765914738" lon="9.58366385399">
		<tag k="name" v="Hølseterveien" />
		<tag k="ssr:date" v="2019-05-30" />
		<tag k="ssr:gruppe" v="veg" />
		<tag k="ssr:hovedgruppe" v="infrastruktur" />
		<tag k="ssr:stedsnr" v="983906" />
		<tag k="ssr:type" v="adressenavn" />
	</node>
	<node id="-182795" lat="60.2226609895" lon="9.56958249638">
		<tag k="name" v="Høglivollen" />
		<tag k="ssr:date" v="2019-05-30" />
		<tag k="ssr:gruppe" v="veg" />
		<tag k="ssr:hovedgruppe" v="infrastruktur" />
		<tag k="ssr:stedsnr" v="983905" />
		<tag k="ssr:type" v="adressenavn" />
	</node>
	<node id="-182794" lat="60.1612778263" lon="9.80671938566">
		<tag k="name" v="Hukseterveien" />
		<tag k="ssr:date" v="2019-05-30" />
		<tag k="ssr:gruppe" v="veg" />
		<tag k="ssr:hovedgruppe" v="infrastruktur" />
		<tag k="ssr:stedsnr" v="983904" />
		<tag k="ssr:type" v="adressenavn" />
	</node>
	<node id="-182793" lat="60.1400636514" lon="9.66174396581">
		<tag k="name" v="Hovdeåsen" />
		<tag k="ssr:date" v="2019-05-30" />
		<tag k="ssr:gruppe" v="veg" />
		<tag k="ssr:hovedgruppe" v="infrastruktur" />
		<tag k="ssr:stedsnr" v="983903" />
		<tag k="ssr:type" v="adressenavn" />
	</node>
	<node id="-182792" lat="60.1547466075" lon="9.57062289654">
		<tag k="name" v="Holløkveien" />
		<tag k="ssr:date" v="2019-05-30" />
		<tag k="ssr:gruppe" v="veg" />
		<tag k="ssr:hovedgruppe" v="infrastruktur" />
		<tag k="ssr:stedsnr" v="983902" />
		<tag k="ssr:type" v="adressenavn" />
	</node>
	<node id="-182791" lat="60.1496451087" lon="9.79254824675">
		<tag k="name" v="Heståsen" />
		<tag k="ssr:date" v="2019-05-30" />
		<tag k="ssr:gruppe" v="veg" />
		<tag k="ssr:hovedgruppe" v="infrastruktur" />
		<tag k="ssr:stedsnr" v="983901" />
		<tag k="ssr:type" v="adressenavn" />
	</node>
	<node id="-182790" lat="60.1213125287" lon="9.66932131742">
		<tag k="name" v="Hestetjennveien" />
		<tag k="ssr:date" v="2019-05-30" />
		<tag k="ssr:gruppe" v="veg" />
		<tag k="ssr:hovedgruppe" v="infrastruktur" />
		<tag k="ssr:stedsnr" v="983900" />
		<tag k="ssr:type" v="adressenavn" />
	</node>
	<node id="-182789" lat="60.1652159746" lon="9.54074926688">
		<tag k="name" v="Hesliveien" />
		<tag k="ssr:date" v="2019-05-30" />
		<tag k="ssr:gruppe" v="veg" />
		<tag k="ssr:hovedgruppe" v="infrastruktur" />
		<tag k="ssr:stedsnr" v="983899" />
		<tag k="ssr:type" v="adressenavn" />
	</node>
	<node id="-182788" lat="60.2734551352" lon="9.66089253894">
		<tag k="name" v="Heringrudveien" />
		<tag k="ssr:date" v="2019-05-30" />
		<tag k="ssr:gruppe" v="veg" />
		<tag k="ssr:hovedgruppe" v="infrastruktur" />
		<tag k="ssr:stedsnr" v="983897" />
		<tag k="ssr:type" v="adressenavn" />
	</node>
	<node id="-182787" lat="60.1902143625" lon="9.55374691613">
		<tag k="name" v="Henålia" />
		<tag k="ssr:date" v="2019-05-30" />
		<tag k="ssr:gruppe" v="veg" />
		<tag k="ssr:hovedgruppe" v="infrastruktur" />
		<tag k="ssr:stedsnr" v="983896" />
		<tag k="ssr:type" v="adressenavn" />
	</node>
	<node id="-182786" lat="60.2625928586" lon="9.60378200088">
		<tag k="name" v="Heimseterveien" />
		<tag k="ssr:date" v="2019-05-30" />
		<tag k="ssr:gruppe" v="veg" />
		<tag k="ssr:hovedgruppe" v="infrastruktur" />
		<tag k="ssr:stedsnr" v="983894" />
		<tag k="ssr:type" v="adressenavn" />
	</node>
	<node id="-182785" lat="60.1955056426" lon="9.60061960254">
		<tag k="name" v="Heimsetertjennveien" />
		<tag k="ssr:date" v="2019-05-30" />
		<tag k="ssr:gruppe" v="veg" />
		<tag k="ssr:hovedgruppe" v="infrastruktur" />
		<tag k="ssr:stedsnr" v="983893" />
		<tag k="ssr:type" v="adressenavn" />
	</node>
</osm>
