<?xml version="1.0" encoding="UTF-8"?>
<osm generator="osmapis" version="0.6">
	<node id="-768512" lat="69.7373888895" lon="19.8816277556">
		<tag k="name" v="Snekollmyra" />
		<tag k="natural" v="wetland" />
		<tag k="ssr:stedsnr" v="906216" />
	</node>
	<node id="-768507" lat="69.6303777753" lon="20.3334944268">
		<tag k="name" v="Lommyra" />
		<tag k="natural" v="wetland" />
		<tag k="ssr:stedsnr" v="906071" />
	</node>
	<node id="-768505" lat="69.6460027759" lon="20.2665860971">
		<tag k="name" v="Herrevassmyra" />
		<tag k="natural" v="wetland" />
		<tag k="ssr:stedsnr" v="906055" />
	</node>
	<node id="-768501" lat="69.7812388939" lon="19.9902999795">
		<tag k="name" v="Gjota" />
		<tag k="place" v="locality" />
		<tag k="ssr:stedsnr" v="906034" />
	</node>
	<node id="-768498" lat="69.5172916653" lon="20.2318110846">
		<tag k="name" v="Geitestein" />
		<tag k="place" v="locality" />
		<tag k="ssr:stedsnr" v="876052" />
	</node>
	<node id="-768487" lat="69.8410611092" lon="19.9731222179">
		<tag k="name" v="Vengsteinen" />
		<tag k="natural" v="stone" />
		<tag k="ssr:stedsnr" v="869727" />
	</node>
	<node id="-767460" lat="69.7346055587" lon="20.2404166654">
		<tag k="name" v="Støvelbreen" />
		<tag k="natural" v="glacier" />
		<tag k="ssr:stedsnr" v="261106" />
	</node>
	<node id="-767456" lat="69.7079249958" lon="20.1577999877">
		<tag k="name" v="Strupbreen" />
		<tag k="natural" v="glacier" />
		<tag k="ssr:stedsnr" v="261033" />
	</node>
	<node id="-767609" lat="69.8072972212" lon="19.9357194243">
		<tag k="alt_name" v="Ravikmyra" />
		<tag k="name" v="Ravikmyran" />
		<tag k="natural" v="wetland" />
		<tag k="ssr:stedsnr" v="444662" />
	</node>
	<node id="-768471" lat="69.6040861127" lon="20.1468805415">
		<tag k="name" v="Kjosbreen" />
		<tag k="natural" v="glacier" />
		<tag k="ssr:stedsnr" v="868992" />
	</node>
	<node id="-766969" lat="69.7933666658" lon="19.9184583085">
		<tag k="name" v="Mikkelvikmyran" />
		<tag k="natural" v="wetland" />
		<tag k="ssr:stedsnr" v="19671" />
	</node>
	<node id="-767015" lat="69.608491669" lon="20.2545833193">
		<tag k="name" v="Fossemyra" />
		<tag k="natural" v="wetland" />
		<tag k="ssr:stedsnr" v="56781" />
	</node>
	<node id="-767434" lat="69.6067888905" lon="20.2654666581">
		<tag k="name" v="Innerkorsmyra" />
		<tag k="natural" v="wetland" />
		<tag k="ssr:stedsnr" v="239794" />
	</node>
	<node id="-766917" lat="69.5342166655" lon="20.1592944382">
		<tag k="loc_name:se" v="Suoidnejeaggi" />
		<tag k="name" v="Sennemyra" />
		<tag k="name:no" v="Sennemyra" />
		<tag k="natural" v="wetland" />
		<tag k="ssr:stedsnr" v="406564" />
	</node>
	<node id="-768451" lat="69.7369861088" lon="19.9260277549">
		<tag k="alt_name" v="Fransenmyra" />
		<tag k="name" v="Fransemyra" />
		<tag k="natural" v="wetland" />
		<tag k="ssr:stedsnr" v="868086" />
	</node>
	<node id="-767426" lat="69.7397166654" lon="19.8628860884">
		<tag k="name" v="Tjønnmyrkroken" />
		<tag k="natural" v="wetland" />
		<tag k="ssr:stedsnr" v="239209" />
	</node>
	<node id="-766913" lat="69.5973000006" lon="20.2848666521">
		<tag k="name" v="Saumyra" />
		<tag k="natural" v="wetland" />
		<tag k="ssr:stedsnr" v="400978" />
	</node>
	<node id="-767424" lat="69.7121222241" lon="19.8183722067">
		<tag k="name" v="Botnmyra" />
		<tag k="natural" v="wetland" />
		<tag k="ssr:stedsnr" v="239140" />
	</node>
	<node id="-768445" lat="69.7021111102" lon="20.0184416591">
		<tag k="name" v="Trollbreen" />
		<tag k="natural" v="glacier" />
		<tag k="ssr:stedsnr" v="868023" />
	</node>
	<node id="-768442" lat="69.6938361099" lon="20.0065499921">
		<tag k="alt_name" v="Forholtbreen" />
		<tag k="name" v="Forrholtbreen" />
		<tag k="natural" v="glacier" />
		<tag k="ssr:stedsnr" v="868005" />
	</node>
	<node id="-767391" lat="69.6405527821" lon="20.271591662">
		<tag k="name" v="Kvigemyra" />
		<tag k="natural" v="wetland" />
		<tag k="ssr:stedsnr" v="238065" />
	</node>
	<node id="-768437" lat="69.4437861133" lon="20.1336610885">
		<tag k="name" v="Stahkkarohtu" />
		<tag k="name:se" v="Stahkkarohtu" />
		<tag k="place" v="locality" />
		<tag k="ssr:stedsnr" v="847074" />
	</node>
	<node id="-767924" lat="69.4843416708" lon="20.231180531">
		<tag k="name" v="Sieidimyra" />
		<tag k="natural" v="wetland" />
		<tag k="ssr:stedsnr" v="604848" />
	</node>
	<node id="-766893" lat="69.8033777742" lon="20.333297207">
		<tag k="alt_name:no" v="Kobbøyra" />
		<tag k="loc_name:se" v="Njuorjogárgu" />
		<tag k="name" v="Kobbøra" />
		<tag k="name:no" v="Kobbøra" />
		<tag k="place" v="locality" />
		<tag k="ssr:stedsnr" v="383683" />
	</node>
	<node id="-766706" lat="69.5913888887" lon="20.1780888851">
		<tag k="name" v="Blåuran" />
		<tag k="natural" v="scree" />
		<tag k="ssr:stedsnr" v="299725" />
	</node>
	<node id="-767402" lat="69.6666333312" lon="20.3541222071">
		<tag k="name" v="Strimmelmyra" />
		<tag k="natural" v="wetland" />
		<tag k="ssr:stedsnr" v="239911" />
	</node>
	<node id="-767400" lat="69.4626361094" lon="20.218216645">
		<tag k="name" v="Návddijeaggi" />
		<tag k="name:se" v="Návddijeaggi" />
		<tag k="natural" v="wetland" />
		<tag k="ssr:stedsnr" v="238590" />
	</node>
	<node id="-768423" lat="69.6142138893" lon="20.2541249958">
		<tag k="name" v="Fjellmyra" />
		<tag k="natural" v="wetland" />
		<tag k="ssr:stedsnr" v="846766" />
	</node>
	<node id="-767903" lat="69.6165694447" lon="20.2666222005">
		<tag k="name" v="Rødmyra" />
		<tag k="natural" v="wetland" />
		<tag k="ssr:stedsnr" v="602791" />
	</node>
	<node id="-766872" lat="69.7466611116" lon="19.9325916586">
		<tag k="name" v="Stormyra" />
		<tag k="natural" v="wetland" />
		<tag k="ssr:stedsnr" v="382111" />
	</node>
	<node id="-767893" lat="69.6527777804" lon="19.8321249798">
		<tag k="name" v="Toftemyra" />
		<tag k="natural" v="wetland" />
		<tag k="ssr:stedsnr" v="602313" />
	</node>
	<node id="-766787" lat="69.7435472208" lon="19.9309333304">
		<tag k="name" v="Stormyrflåtan" />
		<tag k="natural" v="wetland" />
		<tag k="ssr:stedsnr" v="359057" />
	</node>
	<node id="-768152" lat="69.647213894" lon="19.8271138705">
		<tag k="name" v="Kvalvikmyra" />
		<tag k="natural" v="wetland" />
		<tag k="ssr:stedsnr" v="724286" />
	</node>
	<node id="-767885" lat="69.7904833304" lon="19.9389333236">
		<tag k="name" v="Trollskogen" />
		<tag k="place" v="locality" />
		<tag k="ssr:stedsnr" v="602088" />
	</node>
	<node id="-768387" lat="69.9128555587" lon="20.1786249945">
		<tag k="name" v="Hæsaleira" />
		<tag k="place" v="locality" />
		<tag k="ssr:stedsnr" v="847873" />
	</node>
	<node id="-767356" lat="69.7762472221" lon="19.9306360936">
		<tag k="name" v="Lattervikmyra" />
		<tag k="natural" v="wetland" />
		<tag k="ssr:stedsnr" v="201600" />
	</node>
	<node id="-766842" lat="69.625119442" lon="20.3160027675">
		<tag k="name" v="Skavgropmyra" />
		<tag k="natural" v="wetland" />
		<tag k="ssr:stedsnr" v="360998" />
	</node>
	<node id="-767353" lat="69.8693972269" lon="20.2104999838">
		<tag k="alt_name" v="Storurda" />
		<tag k="name" v="Storura" />
		<tag k="natural" v="scree" />
		<tag k="ssr:stedsnr" v="201674" />
	</node>
	<node id="-767861" lat="69.8001333324" lon="20.1549610935">
		<tag k="name" v="Stefjellblåisen" />
		<tag k="natural" v="glacier" />
		<tag k="ssr:stedsnr" v="565631" />
	</node>
	<node id="-767342" lat="69.4542083351" lon="19.9121638727">
		<tag k="name" v="Sydbreen - Oarjjabealjiehkki" />
		<tag k="name:no" v="Sydbreen" />
		<tag k="name:se" v="Oarjjabealjiehkki" />
		<tag k="natural" v="glacier" />
		<tag k="ssr:stedsnr" v="201232" />
	</node>
	<node id="-766828" lat="69.8509166703" lon="20.0671527761">
		<tag k="name" v="Gråsteinen" />
		<tag k="natural" v="stone" />
		<tag k="ssr:stedsnr" v="360652" />
	</node>
	<node id="-766826" lat="69.5374416704" lon="20.1985138742">
		<tag k="name" v="Momyra" />
		<tag k="natural" v="wetland" />
		<tag k="ssr:stedsnr" v="360539" />
	</node>
	<node id="-766822" lat="69.6507999972" lon="19.8327361019">
		<tag k="name" v="Klammermyra" />
		<tag k="natural" v="wetland" />
		<tag k="ssr:stedsnr" v="360277" />
	</node>
	<node id="-768230" lat="69.4606833311" lon="20.0710666422">
		<tag k="name" v="Várášgállu" />
		<tag k="name:se" v="Várášgállu" />
		<tag k="natural" v="stone" />
		<tag k="ssr:stedsnr" v="753238" />
	</node>
	<node id="-766817" lat="69.691591668" lon="19.7935611038">
		<tag k="name" v="Kolbotnmyra" />
		<tag k="natural" v="wetland" />
		<tag k="ssr:stedsnr" v="360252" />
	</node>
	<node id="-767328" lat="69.6731138891" lon="20.2645944325">
		<tag k="name" v="Jensijeaggi" />
		<tag k="name:se" v="Jensijeaggi" />
		<tag k="natural" v="wetland" />
		<tag k="ssr:stedsnr" v="180098" />
	</node>
	<node id="-768348" lat="69.7638555568" lon="20.1621222025">
		<tag k="name" v="Reindalsblåisen" />
		<tag k="natural" v="glacier" />
		<tag k="ssr:stedsnr" v="808646" />
	</node>
	<node id="-767034" lat="69.6518388893" lon="19.8550110873">
		<tag k="name" v="Hesjemyra" />
		<tag k="natural" v="wetland" />
		<tag k="ssr:stedsnr" v="57261" />
	</node>
	<node id="-768344" lat="69.7820222196" lon="19.9898860983">
		<tag k="alt_name:no" v="Blokkøyra;Blokkør" />
		<tag k="name" v="Blokkøra - Ploahkka" />
		<tag k="name:no" v="Blokkøra" />
		<tag k="name:se" v="Ploahkka" />
		<tag k="place" v="locality" />
		<tag k="ssr:stedsnr" v="808626" />
	</node>
	<node id="-767317" lat="69.6044194439" lon="20.2604083061">
		<tag k="name" v="Laelvmyra" />
		<tag k="natural" v="wetland" />
		<tag k="ssr:stedsnr" v="178980" />
	</node>
	<node id="-767312" lat="69.5922722244" lon="20.305697213">
		<tag k="name" v="Persomyra" />
		<tag k="natural" v="wetland" />
		<tag k="ssr:stedsnr" v="178961" />
	</node>
	<node id="-767305" lat="69.645050004" lon="20.2613916538">
		<tag k="name" v="Stakmyra" />
		<tag k="natural" v="wetland" />
		<tag k="ssr:stedsnr" v="178867" />
	</node>
	<node id="-767811" lat="69.5835333341" lon="20.2418388653">
		<tag k="name" v="Jonjeaggi" />
		<tag k="name:se" v="Jonjeaggi" />
		<tag k="natural" v="wetland" />
		<tag k="ssr:stedsnr" v="542969" />
	</node>
	<node id="-767115" lat="69.5439527814" lon="20.2326305333">
		<tag k="name" v="Karnesmyra - Kariniemenjänkkä" />
		<tag k="name:fkv" v="Kariniemenjänkkä" />
		<tag k="name:no" v="Karnesmyra" />
		<tag k="natural" v="wetland" />
		<tag k="ssr:stedsnr" v="86016" />
	</node>
	<node id="-766784" lat="69.5806499977" lon="20.0544194412">
		<tag k="name" v="Storura" />
		<tag k="natural" v="scree" />
		<tag k="ssr:stedsnr" v="357242" />
	</node>
	<node id="-767846" lat="69.4533277821" lon="19.9091360904">
		<tag k="name" v="Bálggesváhjiehkki" />
		<tag k="name:se" v="Bálggesváhjiehkki" />
		<tag k="natural" v="glacier" />
		<tag k="ssr:stedsnr" v="564240" />
	</node>
	<node id="-767802" lat="69.5872722208" lon="20.0892999791">
		<tag k="name" v="Hansetoftøra" />
		<tag k="place" v="locality" />
		<tag k="ssr:stedsnr" v="542758" />
	</node>
	<node id="-767287" lat="69.6330638889" lon="20.327255531">
		<tag k="name" v="Stormyra" />
		<tag k="natural" v="wetland" />
		<tag k="ssr:stedsnr" v="178086" />
	</node>
	<node id="-767284" lat="69.5530611103" lon="20.2196555309">
		<tag k="name" v="Bakkelaskogen" />
		<tag k="place" v="locality" />
		<tag k="ssr:stedsnr" v="177777" />
	</node>
	<node id="-768304" lat="69.4369472231" lon="20.1254166414">
		<tag k="name" v="Suomarohtu" />
		<tag k="name:se" v="Suomarohtu" />
		<tag k="place" v="locality" />
		<tag k="ssr:stedsnr" v="786077" />
	</node>
	<node id="-768293" lat="69.6035138913" lon="20.2887722118">
		<tag k="name" v="Olderskogen" />
		<tag k="place" v="locality" />
		<tag k="ssr:stedsnr" v="785978" />
	</node>
	<node id="-768290" lat="69.6660500013" lon="20.252072199">
		<tag k="name" v="Torvemyran" />
		<tag k="natural" v="wetland" />
		<tag k="ssr:stedsnr" v="785921" />
	</node>
	<node id="-767265" lat="69.7816277782" lon="19.9359444328">
		<tag k="name" v="Stakkemyran" />
		<tag k="natural" v="wetland" />
		<tag k="ssr:stedsnr" v="177036" />
	</node>
	<node id="-766739" lat="69.6821500003" lon="19.9166638684">
		<tag k="name" v="Deplan" />
		<tag k="natural" v="wetland" />
		<tag k="ssr:stedsnr" v="312069" />
	</node>
	<node id="-767107" lat="69.8778222212" lon="20.2780471998">
		<tag k="alt_name" v="Gammvikblåisen" />
		<tag k="name" v="Gamvikblåisen" />
		<tag k="natural" v="glacier" />
		<tag k="ssr:stedsnr" v="80689" />
	</node>
	<node id="-768271" lat="69.5422166667" lon="20.207436104">
		<tag k="name" v="Lillemyra" />
		<tag k="natural" v="wetland" />
		<tag k="ssr:stedsnr" v="784765" />
	</node>
	<node id="-767246" lat="69.6094222199" lon="20.147647205">
		<tag k="name" v="Rottenvikbreen - Guohcavuohjiehkki" />
		<tag k="name:no" v="Rottenvikbreen" />
		<tag k="name:se" v="Guohcavuohjiehkki" />
		<tag k="natural" v="glacier" />
		<tag k="ssr:stedsnr" v="140995" />
	</node>
	<node id="-768642" lat="69.7220166708" lon="19.8264860891">
		<tag k="name" v="Storsteinnesmyra" />
		<tag k="natural" v="wetland" />
		<tag k="ssr:stedsnr" v="967159" />
	</node>
	<node id="-767447" lat="69.6721583372" lon="20.2652472218">
		<tag k="name" v="Vassmyra" />
		<tag k="natural" v="wetland" />
		<tag k="ssr:stedsnr" v="240125" />
	</node>
	<node id="-766722" lat="69.6065277756" lon="20.2865110838">
		<tag k="name" v="Gopperosmyra" />
		<tag k="natural" v="wetland" />
		<tag k="ssr:stedsnr" v="299998" />
	</node>
	<node id="-766721" lat="69.6009055557" lon="20.2977555367">
		<tag k="name" v="Kuvassmyra" />
		<tag k="natural" v="wetland" />
		<tag k="ssr:stedsnr" v="299970" />
	</node>
	<node id="-767230" lat="69.7901500026" lon="20.1909972031">
		<tag k="name" v="Vestre Vaggasblåisen - Vákkášjiehkki" />
		<tag k="name:no" v="Vestre Vaggasblåisen" />
		<tag k="name:se" v="Vákkášjiehkki" />
		<tag k="natural" v="glacier" />
		<tag k="old_name:no" v="Vákkášblåisen, vestre" />
		<tag k="ssr:stedsnr" v="140612" />
	</node>
	<node id="-767189" lat="69.4418694477" lon="20.1305222137">
		<tag k="landuse" v="meadow" />
		<tag k="name" v="Geassegieddi" />
		<tag k="name:se" v="Geassegieddi" />
		<tag k="ssr:stedsnr" v="119076" />
	</node>
	<node id="-766710" lat="69.6235749986" lon="20.2687499768">
		<tag k="name" v="Rokkasoinjimyra" />
		<tag k="natural" v="wetland" />
		<tag k="ssr:stedsnr" v="299772" />
	</node>
	<node id="-767730" lat="69.7934694486" lon="19.9342999797">
		<tag k="name" v="Rømyra" />
		<tag k="natural" v="wetland" />
		<tag k="ssr:stedsnr" v="504686" />
	</node>
	<node id="-767729" lat="69.7954833297" lon="19.9474305523">
		<tag k="name" v="Lenangsmyran" />
		<tag k="natural" v="wetland" />
		<tag k="ssr:stedsnr" v="504685" />
	</node>
	<node id="-767101" lat="69.8943083305" lon="20.1205666385">
		<tag k="alt_name" v="Stakkemyra" />
		<tag k="name" v="Stakkemyran" />
		<tag k="natural" v="wetland" />
		<tag k="ssr:stedsnr" v="80756" />
	</node>
	<node id="-767209" lat="69.6356250046" lon="19.9113110919">
		<tag k="name" v="Dalbotnurda" />
		<tag k="natural" v="scree" />
		<tag k="ssr:stedsnr" v="139031" />
	</node>
	<node id="-767208" lat="69.7122361108" lon="20.0455527539">
		<tag k="name" v="Lenangsbreen" />
		<tag k="natural" v="glacier" />
		<tag k="ssr:stedsnr" v="139022" />
	</node>
	<node id="-766694" lat="69.4691166675" lon="20.219691646">
		<tag k="name" v="Forhamnsmyra" />
		<tag k="natural" v="wetland" />
		<tag k="ssr:stedsnr" v="299569" />
	</node>
	<node id="-768228" lat="69.4957638867" lon="20.1857083299">
		<tag k="name" v="Essamyra - Essanjänkkä" />
		<tag k="name:fkv" v="Essanjänkkä" />
		<tag k="name:no" v="Essamyra" />
		<tag k="natural" v="wetland" />
		<tag k="ssr:stedsnr" v="753099" />
	</node>
	<node id="-766691" lat="69.5770194453" lon="20.1757666495">
		<tag k="name" v="Isakmyra" />
		<tag k="natural" v="wetland" />
		<tag k="ssr:stedsnr" v="299542" />
	</node>
	<node id="-766687" lat="69.6841277747" lon="19.7945638768">
		<tag k="name" v="Stormyra" />
		<tag k="natural" v="wetland" />
		<tag k="ssr:stedsnr" v="299308" />
	</node>
	<node id="-766686" lat="69.6687305582" lon="19.8209722096">
		<tag k="name" v="Langnesmyran" />
		<tag k="natural" v="wetland" />
		<tag k="ssr:stedsnr" v="299281" />
	</node>
	<node id="-768221" lat="69.8754694465" lon="20.2064444271">
		<tag k="alt_name" v="Lassurda" />
		<tag k="name" v="Lasseura" />
		<tag k="natural" v="scree" />
		<tag k="ssr:stedsnr" v="747683" />
	</node>
	<node id="-766680" lat="69.6568027796" lon="19.9123638829">
		<tag k="name" v="Trollvassura" />
		<tag k="natural" v="scree" />
		<tag k="ssr:stedsnr" v="299105" />
	</node>
	<node id="-766679" lat="69.6349666655" lon="19.8999527647">
		<tag k="name" v="Ura" />
		<tag k="natural" v="scree" />
		<tag k="ssr:stedsnr" v="299099" />
	</node>
	<node id="-767701" lat="69.9154805521" lon="20.1647972195">
		<tag k="name" v="Tangen" />
		<tag k="place" v="locality" />
		<tag k="ssr:stedsnr" v="483890" />
	</node>
	<node id="-767184" lat="69.8021555531" lon="19.9281138689">
		<tag k="name" v="Nermyran" />
		<tag k="natural" v="wetland" />
		<tag k="ssr:stedsnr" v="119009" />
	</node>
	<node id="-767694" lat="69.4383555542" lon="20.1218110989">
		<tag k="landuse" v="meadow" />
		<tag k="name" v="Gárdegieddi" />
		<tag k="name:se" v="Gárdegieddi" />
		<tag k="ssr:stedsnr" v="483086" />
	</node>
	<node id="-767266" lat="69.748391667" lon="19.9098444419">
		<tag k="name" v="Kjørmyran" />
		<tag k="natural" v="wetland" />
		<tag k="ssr:stedsnr" v="177052" />
	</node>
	<node id="-767690" lat="69.4421583366" lon="20.1062166473">
		<tag k="name" v="Nerura" />
		<tag k="natural" v="scree" />
		<tag k="ssr:stedsnr" v="483073" />
	</node>
	<node id="-767095" lat="69.566655557" lon="20.201294418">
		<tag k="name" v="Kaijanjänkkä" />
		<tag k="name:fkv" v="Kaijanjänkkä" />
		<tag k="natural" v="wetland" />
		<tag k="old_name:fkv" v="Kaijanjánkká;Gaijajenka" />
		<tag k="ssr:stedsnr" v="79953" />
	</node>
	<node id="-767172" lat="69.6613416677" lon="20.3513416383">
		<tag k="name" v="Utsiktmyra" />
		<tag k="natural" v="wetland" />
		<tag k="ssr:stedsnr" v="117880" />
	</node>
	<node id="-768203" lat="69.4901361088" lon="19.9609610926">
		<tag k="name" v="Vestbreen - Nuorttabealjiehkki" />
		<tag k="name:no" v="Vestbreen" />
		<tag k="name:se" v="Nuorttabealjiehkki" />
		<tag k="natural" v="glacier" />
		<tag k="ssr:stedsnr" v="746274" />
	</node>
	<node id="-767163" lat="69.5869527816" lon="20.1250499905">
		<tag k="name" v="Jensøra" />
		<tag k="place" v="locality" />
		<tag k="ssr:stedsnr" v="117703" />
	</node>
	<node id="-768178" lat="69.5962555559" lon="20.2749027632">
		<tag k="name" v="Stormyra" />
		<tag k="natural" v="wetland" />
		<tag k="ssr:stedsnr" v="724976" />
	</node>
	<node id="-767153" lat="69.4748722223" lon="20.2229833186">
		<tag k="name" v="Stáhkkajeaggi" />
		<tag k="name:se" v="Stáhkkajeaggi" />
		<tag k="natural" v="wetland" />
		<tag k="ssr:stedsnr" v="117564" />
	</node>
	<node id="-768174" lat="69.4990333357" lon="20.2435499794">
		<tag k="name" v="Øra - Gárgu" />
		<tag k="name:no" v="Øra" />
		<tag k="name:se" v="Gárgu" />
		<tag k="place" v="locality" />
		<tag k="ssr:stedsnr" v="724833" />
	</node>
	<node id="-767149" lat="69.6609777819" lon="19.8333749801">
		<tag k="name" v="Bergemyran" />
		<tag k="natural" v="wetland" />
		<tag k="ssr:stedsnr" v="117353" />
	</node>
	<node id="-767137" lat="69.634277779" lon="20.337413863">
		<tag k="name" v="Skjellelvmyra" />
		<tag k="natural" v="wetland" />
		<tag k="ssr:stedsnr" v="117078" />
	</node>
	<node id="-768160" lat="69.4845694489" lon="20.2237833078">
		<tag k="name" v="Gáhkkormyra" />
		<tag k="natural" v="wetland" />
		<tag k="ssr:stedsnr" v="724569" />
	</node>
	<node id="-768671" lat="69.4408027819" lon="20.1430194261">
		<tag k="landuse" v="meadow" />
		<tag k="name" v="Málugieddi" />
		<tag k="name:se" v="Málugieddi" />
		<tag k="ssr:stedsnr" v="968090" />
	</node>
	<node id="-767133" lat="69.7574472273" lon="19.9779110925">
		<tag k="name" v="Sennamyra" />
		<tag k="natural" v="wetland" />
		<tag k="ssr:stedsnr" v="117010" />
	</node>
	<node id="-767640" lat="69.7909527793" lon="19.9346472035">
		<tag k="name" v="Heimyran" />
		<tag k="natural" v="wetland" />
		<tag k="ssr:stedsnr" v="481094" />
	</node>
	<node id="-768663" lat="69.6252694443" lon="20.3433055261">
		<tag k="name" v="Melen" />
		<tag k="place" v="locality" />
		<tag k="ssr:stedsnr" v="967993" />
	</node>
	<node id="-768150" lat="69.6899499977" lon="19.8029222039">
		<tag k="name" v="Stakemyra" />
		<tag k="natural" v="wetland" />
		<tag k="ssr:stedsnr" v="724257" />
	</node>
	<node id="-768146" lat="69.7356722249" lon="19.8585583287">
		<tag k="name" v="Finnmyra" />
		<tag k="natural" v="wetland" />
		<tag k="ssr:stedsnr" v="724188" />
	</node>
	<node id="-767633" lat="69.7403416653" lon="19.9180138813">
		<tag k="name" v="Kobbenesmyran" />
		<tag k="natural" v="wetland" />
		<tag k="ssr:stedsnr" v="481063" />
	</node>
	<node id="-767649" lat="69.7423861152" lon="19.8586749806">
		<tag k="name" v="Tjønnmyra" />
		<tag k="natural" v="wetland" />
		<tag k="ssr:stedsnr" v="481280" />
	</node>
	<node id="-768652" lat="69.5176829522" lon="20.2387454672">
		<tag k="name" v="Olmmošgoddi" />
		<tag k="name:se" v="Olmmošgoddi" />
		<tag k="natural" v="stone" />
		<tag k="ssr:stedsnr" v="967788" />
	</node>
	<node id="-768651" lat="69.5480305566" lon="20.2422777537">
		<tag k="name" v="Karnesleira" />
		<tag k="place" v="locality" />
		<tag k="ssr:stedsnr" v="967772" />
	</node>
	<node id="-768131" lat="69.6307916687" lon="20.3382416397">
		<tag k="name" v="Røykvollmyra" />
		<tag k="natural" v="wetland" />
		<tag k="ssr:stedsnr" v="723081" />
	</node>
	<node id="-768130" lat="69.6365722233" lon="20.3322444377">
		<tag k="name" v="Haugenmyra" />
		<tag k="natural" v="wetland" />
		<tag k="ssr:stedsnr" v="723078" />
	</node>
	<node id="-766912" lat="69.7858805539" lon="20.2374833211">
		<tag k="name" v="Austre Vaggasblåisen - Vákkášjiehkki" />
		<tag k="name:no" v="Austre Vaggasblåisen" />
		<tag k="name:se" v="Vákkášjiehkki" />
		<tag k="natural" v="glacier" />
		<tag k="old_name:no" v="Vákkášblåisen, austre" />
		<tag k="ssr:stedsnr" v="392100" />
	</node>
	<node id="-768637" lat="69.6347472221" lon="20.2660749914">
		<tag k="name" v="Fjellmyra" />
		<tag k="natural" v="wetland" />
		<tag k="ssr:stedsnr" v="967056" />
	</node>
	<node id="-768633" lat="69.6638638921" lon="20.3473471962">
		<tag k="name" v="Storbuktmyra" />
		<tag k="natural" v="wetland" />
		<tag k="ssr:stedsnr" v="966900" />
	</node>
	<node id="-768631" lat="69.615130557" lon="20.2590333275">
		<tag k="name" v="Framkjørarmyra" />
		<tag k="natural" v="wetland" />
		<tag k="ssr:stedsnr" v="966784" />
	</node>
	<node id="-768630" lat="69.5886527743" lon="20.0975916627">
		<tag k="name" v="Storsteinen" />
		<tag k="natural" v="stone" />
		<tag k="ssr:stedsnr" v="966763" />
	</node>
	<node id="-767602" lat="69.9533277795" lon="20.2288472199">
		<tag k="alt_name" v="Langøyra" />
		<tag k="name" v="Langøra" />
		<tag k="place" v="locality" />
		<tag k="ssr:stedsnr" v="444640" />
	</node>
	<node id="-768623" lat="69.4965027749" lon="20.195286104">
		<tag k="name" v="Heiskelskogen" />
		<tag k="place" v="locality" />
		<tag k="ssr:stedsnr" v="966601" />
	</node>
	<node id="-768616" lat="69.7912972191" lon="19.9669055343">
		<tag k="name" v="Makkeleira" />
		<tag k="natural" v="beach" />
		<tag k="ssr:stedsnr" v="966089" />
		<tag k="surface" v="sand" />
	</node>
	<node id="-768615" lat="69.728719442" lon="19.9273694294">
		<tag k="name" v="Butomten" />
		<tag k="place" v="locality" />
		<tag k="ssr:stedsnr" v="966063" />
	</node>
	<node id="-768614" lat="69.7212388898" lon="19.9260666657">
		<tag k="name" v="Latomten" />
		<tag k="place" v="locality" />
		<tag k="ssr:stedsnr" v="966062" />
	</node>
	<node id="-768613" lat="69.6276138848" lon="20.2507222139">
		<tag k="name" v="Ristenrohtu" />
		<tag k="name:se" v="Ristenrohtu" />
		<tag k="place" v="locality" />
		<tag k="ssr:stedsnr" v="966053" />
	</node>
	<node id="-767075" lat="69.6424833364" lon="19.9873027536">
		<tag k="name" v="Isskardbreen" />
		<tag k="natural" v="glacier" />
		<tag k="ssr:stedsnr" v="79026" />
	</node>
	<node id="-768609" lat="69.5812000034" lon="20.0484361116">
		<tag k="name" v="Ørnsteinen" />
		<tag k="natural" v="stone" />
		<tag k="ssr:stedsnr" v="964278" />
	</node>
	<node id="-768101" lat="69.7621999993" lon="19.9626222056">
		<tag k="alt_name" v="Langøyra" />
		<tag k="name" v="Langøra" />
		<tag k="place" v="locality" />
		<tag k="ssr:stedsnr" v="687638" />
	</node>
	<node id="-767573" lat="69.6863500001" lon="20.177088876">
		<tag k="name" v="Koppangsbreen" />
		<tag k="natural" v="glacier" />
		<tag k="ssr:stedsnr" v="443008" />
	</node>
	<node id="-768099" lat="69.6095750032" lon="19.9494972095">
		<tag k="name" v="Tømmerurda" />
		<tag k="natural" v="scree" />
		<tag k="ssr:stedsnr" v="686997" />
	</node>
	<node id="-768591" lat="69.5961416675" lon="20.094566655">
		<tag k="name" v="Storurda" />
		<tag k="natural" v="scree" />
		<tag k="ssr:stedsnr" v="929990" />
	</node>
	<node id="-767052" lat="69.4412999984" lon="20.1028583233">
		<tag k="name" v="Storura" />
		<tag k="name:se" v="Storura" />
		<tag k="natural" v="scree" />
		<tag k="ssr:stedsnr" v="58064" />
	</node>
	<node id="-767047" lat="69.6113944469" lon="20.2688083288">
		<tag k="name" v="Ytterkorsmyra" />
		<tag k="natural" v="wetland" />
		<tag k="ssr:stedsnr" v="57994" />
	</node>
	<node id="-767044" lat="69.5960305553" lon="20.2919527619">
		<tag k="name" v="Landrosmyra" />
		<tag k="natural" v="wetland" />
		<tag k="ssr:stedsnr" v="57961" />
	</node>
	<node id="-767552" lat="69.5941111141" lon="20.2704805457">
		<tag k="name" v="Klokkarmyra" />
		<tag k="natural" v="wetland" />
		<tag k="ssr:stedsnr" v="421968" />
	</node>
	<node id="-767550" lat="69.5912722204" lon="20.2687777496">
		<tag k="name" v="Sørslåtta" />
		<tag k="place" v="locality" />
		<tag k="ssr:stedsnr" v="421962" />
	</node>
	<node id="-767546" lat="69.6597999975" lon="20.2613166404">
		<tag k="name" v="Skávžamelen" />
		<tag k="place" v="locality" />
		<tag k="ssr:stedsnr" v="421918" />
	</node>
	<node id="-768056" lat="69.4420472201" lon="20.1212527556">
		<tag k="landuse" v="meadow" />
		<tag k="name" v="Njunnegieddi" />
		<tag k="name:se" v="Njunnegieddi" />
		<tag k="ssr:stedsnr" v="664073" />
	</node>
	<node id="-767031" lat="69.6746555525" lon="19.7946972003">
		<tag k="name" v="Kumyra" />
		<tag k="natural" v="wetland" />
		<tag k="ssr:stedsnr" v="57232" />
	</node>
	<node id="-768046" lat="69.584075002" lon="20.2741361075">
		<tag k="name" v="Lekket" />
		<tag k="place" v="locality" />
		<tag k="ssr:stedsnr" v="663954" />
	</node>
	<node id="-767018" lat="69.6518777813" lon="20.271127767">
		<tag k="name" v="Samuelmyra" />
		<tag k="natural" v="wetland" />
		<tag k="ssr:stedsnr" v="56894" />
	</node>
	<node id="-768551" lat="69.4403583345" lon="20.1458166566">
		<tag k="landuse" v="meadow" />
		<tag k="name" v="Beaivvagieddi" />
		<tag k="name:se" v="Beaivvagieddi" />
		<tag k="ssr:stedsnr" v="908101" />
	</node>
	<node id="-767525" lat="69.6307916647" lon="20.3195527725">
		<tag k="name" v="Oddasiltimyra" />
		<tag k="natural" v="wetland" />
		<tag k="ssr:stedsnr" v="421079" />
	</node>
	<node id="-767524" lat="69.4673916634" lon="19.9313888727">
		<tag k="name" v="Midtbreen - Gaskajiehkki" />
		<tag k="name:no" v="Midtbreen" />
		<tag k="name:se" v="Gaskajiehkki" />
		<tag k="natural" v="glacier" />
		<tag k="ssr:stedsnr" v="421077" />
	</node>
	<node id="-768029" lat="69.5903472199" lon="20.0717194206">
		<tag k="name" v="Fyenura" />
		<tag k="natural" v="scree" />
		<tag k="ssr:stedsnr" v="663753" />
	</node>
	<node id="-767002" lat="69.5144722265" lon="20.2042388852">
		<tag k="name" v="Elvebakkmyran" />
		<tag k="natural" v="wetland" />
		<tag k="ssr:stedsnr" v="56539" />
	</node>
	<node id="-767000" lat="69.7808305526" lon="19.9226805413">
		<tag k="name" v="Brynnmyra" />
		<tag k="natural" v="wetland" />
		<tag k="ssr:stedsnr" v="56077" />
	</node>
	<node id="-767510" lat="69.5211388929" lon="20.199099983">
		<tag k="name" v="Mellomjordmyra" />
		<tag k="natural" v="wetland" />
		<tag k="ssr:stedsnr" v="420603" />
	</node>
	<node id="-767509" lat="69.4542888846" lon="20.1590527685">
		<tag k="name" v="Vađđasskogen" />
		<tag k="place" v="locality" />
		<tag k="ssr:stedsnr" v="420595" />
	</node>
	<node id="-767150" lat="69.6164388846" lon="19.8814666621">
		<tag k="name" v="Langmyra" />
		<tag k="natural" v="wetland" />
		<tag k="ssr:stedsnr" v="117361" />
	</node>
	<node id="-768016" lat="69.5678472209" lon="20.1897749849">
		<tag k="name" v="Rødsteinmyra" />
		<tag k="natural" v="wetland" />
		<tag k="ssr:stedsnr" v="663504" />
	</node>
	<node id="-768012" lat="69.7411138931" lon="19.8750944222">
		<tag k="name" v="Kjørmyran" />
		<tag k="natural" v="wetland" />
		<tag k="ssr:stedsnr" v="663219" />
	</node>
	<node id="-766985" lat="69.9263472252" lon="20.1639972179">
		<tag k="name" v="Svineryggsteinen" />
		<tag k="natural" v="stone" />
		<tag k="ssr:stedsnr" v="25463" />
	</node>
	<node id="-767496" lat="69.4384444495" lon="20.1077499817">
		<tag k="name" v="Stuorajuovva" />
		<tag k="name:se" v="Stuorajuovva" />
		<tag k="natural" v="scree" />
		<tag k="ssr:stedsnr" v="268196" />
	</node>
	<node id="-768513" lat="69.7483222215" lon="19.8693083274">
		<tag k="name" v="Åsmyra" />
		<tag k="natural" v="wetland" />
		<tag k="ssr:stedsnr" v="906265" />
	</node>
	<node id="-768001" lat="69.7793944461" lon="19.9292861076">
		<tag k="name" v="Kvænmyra" />
		<tag k="natural" v="wetland" />
		<tag k="ssr:stedsnr" v="663040" />
	</node>
</osm>
