<?xml version="1.0" encoding="UTF-8"?>
<osm generator="osmapis" version="0.6">
	<node id="-767996" lat="69.5344361125" lon="20.2342249842">
		<tag k="loc_name:se" v="Sigárnjárga" />
		<tag k="name" v="Siganeset" />
		<tag k="name:no" v="Siganeset" />
		<tag k="natural" v="cape" />
		<tag k="ssr:stedsnr" v="648785" />
	</node>
	<node id="-767995" lat="69.61326667" lon="19.8629666512">
		<tag k="name" v="Storsteinneset - Biehtarnjárga" />
		<tag k="name:no" v="Storsteinneset" />
		<tag k="name:se" v="Biehtarnjárga" />
		<tag k="natural" v="cape" />
		<tag k="ssr:stedsnr" v="646306" />
	</node>
	<node id="-767993" lat="69.7847027808" lon="19.9017444411">
		<tag k="name" v="Lattervika - Láhttárluokta" />
		<tag k="name:no" v="Lattervika" />
		<tag k="name:se" v="Láhttárluokta" />
		<tag k="natural" v="bay" />
		<tag k="ssr:stedsnr" v="632696" />
	</node>
	<node id="-767992" lat="69.8514916702" lon="19.9748500023">
		<tag k="name" v="Nessebreget" />
		<tag k="natural" v="shoal" />
		<tag k="ssr:stedsnr" v="632527" />
	</node>
	<node id="-767991" lat="69.9259611129" lon="20.187605543">
		<tag k="name" v="Sandbukta" />
		<tag k="natural" v="bay" />
		<tag k="ssr:stedsnr" v="632499" />
	</node>
	<node id="-767989" lat="69.6797916624" lon="20.2724916579">
		<tag k="loc_name:se" v="Gohppemađđï" />
		<tag k="name" v="Koppanggrunnen" />
		<tag k="name:no" v="Koppanggrunnen" />
		<tag k="natural" v="shoal" />
		<tag k="place" v="locality" />
		<tag k="ssr:stedsnr" v="632235" />
	</node>
	<node id="-767988" lat="69.5730055567" lon="20.3302249774">
		<tag k="name" v="Ojvadak" />
		<tag k="name:se" v="Ojvadak" />
		<tag k="natural" v="shoal" />
		<tag k="place" v="locality" />
		<tag k="ssr:stedsnr" v="632221" />
	</node>
	<node id="-767987" lat="69.5743027768" lon="20.2369805525">
		<tag k="loc_name:se" v="Muotkeluokta" />
		<tag k="name" v="Eidbukta" />
		<tag k="name:no" v="Eidbukta" />
		<tag k="natural" v="bay" />
		<tag k="ssr:stedsnr" v="632216" />
	</node>
	<node id="-767986" lat="69.4890416662" lon="20.2902166383">
		<tag k="name" v="Godesmaddi" />
		<tag k="name:se" v="Godesmaddi" />
		<tag k="natural" v="shoal" />
		<tag k="place" v="locality" />
		<tag k="ssr:stedsnr" v="631555" />
	</node>
	<node id="-767985" lat="69.4683277768" lon="20.2382499843">
		<tag k="name" v="Forrahamngrunnen" />
		<tag k="natural" v="shoal" />
		<tag k="place" v="locality" />
		<tag k="ssr:stedsnr" v="630586" />
	</node>
	<node id="-767984" lat="69.8265694459" lon="19.951544424">
		<tag k="name" v="Ravika - Ráluokta" />
		<tag k="name:no" v="Ravika" />
		<tag k="name:se" v="Ráluokta" />
		<tag k="natural" v="bay" />
		<tag k="ssr:stedsnr" v="626732" />
	</node>
	<node id="-767983" lat="69.9617611143" lon="20.3216083188">
		<tag k="loc_name:se" v="Bossoluokta;Ráiskeluokta" />
		<tag k="name" v="Kvalvika" />
		<tag k="name:no" v="Kvalvika" />
		<tag k="natural" v="bay" />
		<tag k="ssr:stedsnr" v="626672" />
	</node>
	<node id="-767977" lat="69.5956944441" lon="19.9679805341">
		<tag k="name" v="Tytebærneset" />
		<tag k="natural" v="cape" />
		<tag k="ssr:stedsnr" v="625985" />
	</node>
	<node id="-767974" lat="69.5575305577" lon="20.2207749808">
		<tag k="name" v="Karnes" />
		<tag k="natural" v="cape" />
		<tag k="ssr:stedsnr" v="625918" />
	</node>
	<node id="-767970" lat="69.5074361102" lon="20.2293027628">
		<tag k="alt_name:no" v="Erikholmen" />
		<tag k="loc_name:se" v="Erikboadnji" />
		<tag k="name" v="Eriksholmen" />
		<tag k="name:no" v="Eriksholmen" />
		<tag k="place" v="islet" />
		<tag k="ssr:stedsnr" v="625885" />
	</node>
	<node id="-767969" lat="69.5115073132" lon="20.2258406522">
		<tag k="fixme" v="multiple name tags, choose one and add the other to alt_name" />
		<tag k="name" v="Kjeldnes;Tjeldneset - Gielnjárga" />
		<tag k="name:no" v="Kjeldnes;Tjeldneset" />
		<tag k="name:se" v="Gielnjárga" />
		<tag k="natural" v="cape" />
		<tag k="ssr:stedsnr" v="625882" />
	</node>
	<node id="-767959" lat="69.4580916669" lon="20.2014694276">
		<tag k="name" v="Pollneset - Vuoivuonnjárga - Voivuononniemi" />
		<tag k="name:fkv" v="Voivuononniemi" />
		<tag k="name:no" v="Pollneset" />
		<tag k="name:se" v="Vuoivuonnjárga" />
		<tag k="natural" v="cape" />
		<tag k="ssr:stedsnr" v="625298" />
	</node>
	<node id="-767951" lat="69.665300003" lon="20.3404944413">
		<tag k="name" v="Storbukta" />
		<tag k="natural" v="bay" />
		<tag k="ssr:stedsnr" v="625043" />
	</node>
	<node id="-767925" lat="69.8967166658" lon="20.1528194342">
		<tag k="name" v="Reinneset" />
		<tag k="natural" v="cape" />
		<tag k="ssr:stedsnr" v="604860" />
	</node>
	<node id="-767921" lat="69.6811583333" lon="20.3536777493">
		<tag k="name" v="Kvalhollet" />
		<tag k="natural" v="bay" />
		<tag k="ssr:stedsnr" v="604128" />
	</node>
	<node id="-767916" lat="69.8237444499" lon="20.0292027563">
		<tag k="name" v="Heiarbukta" />
		<tag k="natural" v="bay" />
		<tag k="ssr:stedsnr" v="604003" />
	</node>
	<node id="-767914" lat="69.6181666693" lon="20.3487471997">
		<tag k="name" v="Kristnesbukta" />
		<tag k="natural" v="bay" />
		<tag k="ssr:stedsnr" v="602989" />
	</node>
	<node id="-767905" lat="69.6483888872" lon="20.3153555272">
		<tag k="fixme" v="consider seamark:type=rock or natural=shoal" />
		<tag k="name" v="Marvollskjæret" />
		<tag k="place" v="islet" />
		<tag k="ssr:stedsnr" v="602885" />
	</node>
	<node id="-767901" lat="69.584944445" lon="20.1196360984">
		<tag k="name" v="Rørnesodden" />
		<tag k="natural" v="cape" />
		<tag k="ssr:stedsnr" v="602720" />
	</node>
	<node id="-767900" lat="69.5865555562" lon="20.1278666502">
		<tag k="name" v="Skottgambukta" />
		<tag k="natural" v="bay" />
		<tag k="ssr:stedsnr" v="602713" />
	</node>
	<node id="-767894" lat="69.458863889" lon="20.1935277733">
		<tag k="fixme" v="consider seamark:type=rock or natural=shoal" />
		<tag k="name" v="Småskjæran" />
		<tag k="place" v="islet" />
		<tag k="ssr:stedsnr" v="602575" />
	</node>
	<node id="-767877" lat="69.9457111067" lon="20.2113861052">
		<tag k="name" v="Russelvneset" />
		<tag k="natural" v="cape" />
		<tag k="ssr:stedsnr" v="571694" />
	</node>
	<node id="-767876" lat="69.9586888912" lon="20.3298416475">
		<tag k="name" v="Røykenesholet" />
		<tag k="natural" v="bay" />
		<tag k="ssr:stedsnr" v="571585" />
	</node>
	<node id="-767874" lat="69.7868916658" lon="20.3160027697">
		<tag k="name" v="Vaggas" />
		<tag k="natural" v="beach" />
		<tag k="place" v="locality" />
		<tag k="ssr:stedsnr" v="571290" />
	</node>
	<node id="-767873" lat="69.4777722202" lon="20.1884221968">
		<tag k="fixme" v="multiple name tags, choose one and add the other to alt_name" />
		<tag k="name" v="Kjiholmen;Čohkkaholmen" />
		<tag k="place" v="islet" />
		<tag k="ssr:stedsnr" v="570587" />
	</node>
	<node id="-767872" lat="69.7885027737" lon="19.8730833234">
		<tag k="name" v="Lattervikgrunnen" />
		<tag k="natural" v="shoal" />
		<tag k="place" v="locality" />
		<tag k="ssr:stedsnr" v="570208" />
	</node>
	<node id="-767871" lat="69.8944888934" lon="20.1748583273">
		<tag k="name" v="Ånderneset" />
		<tag k="natural" v="cape" />
		<tag k="ssr:stedsnr" v="565759" />
	</node>
	<node id="-767869" lat="69.8780138847" lon="20.0797805498">
		<tag k="name" v="Båtnes" />
		<tag k="natural" v="cape" />
		<tag k="ssr:stedsnr" v="565701" />
	</node>
	<node id="-767863" lat="69.9764916662" lon="20.2842055404">
		<tag k="name" v="Nordklubben - Iddogeahči" />
		<tag k="name:no" v="Nordklubben" />
		<tag k="name:se" v="Iddogeahči" />
		<tag k="natural" v="cape" />
		<tag k="ssr:stedsnr" v="565649" />
	</node>
	<node id="-767858" lat="69.5810305536" lon="20.2687249806">
		<tag k="name" v="Mortensnes" />
		<tag k="natural" v="cape" />
		<tag k="ssr:stedsnr" v="564966" />
	</node>
	<node id="-767853" lat="69.5528861149" lon="20.2497249784">
		<tag k="alt_name" v="Skogholmen, litle;Lille Skogsholmen" />
		<tag k="name" v="Lilleskogholmen" />
		<tag k="place" v="islet" />
		<tag k="ssr:stedsnr" v="564897" />
	</node>
	<node id="-767834" lat="69.7320277807" lon="20.2912860904">
		<tag k="alt_name" v="Skredhollet" />
		<tag k="name" v="Skredholet" />
		<tag k="natural" v="bay" />
		<tag k="ssr:stedsnr" v="564017" />
	</node>
	<node id="-767825" lat="69.6326472191" lon="20.3497971995">
		<tag k="name" v="Langvollneset" />
		<tag k="natural" v="cape" />
		<tag k="ssr:stedsnr" v="544084" />
	</node>
	<node id="-767822" lat="69.4749250034" lon="20.2411277575">
		<tag k="name" v="Josapneset" />
		<tag k="natural" v="cape" />
		<tag k="ssr:stedsnr" v="543787" />
	</node>
	<node id="-767816" lat="69.6259166711" lon="20.3489972043">
		<tag k="name" v="Elveneset" />
		<tag k="natural" v="cape" />
		<tag k="ssr:stedsnr" v="542997" />
	</node>
	<node id="-767814" lat="69.6164222275" lon="20.3471027567">
		<tag k="name" v="Kristneset" />
		<tag k="natural" v="cape" />
		<tag k="ssr:stedsnr" v="542986" />
	</node>
	<node id="-767806" lat="69.5410722219" lon="20.2826972163">
		<tag k="name" v="Steinholmen" />
		<tag k="place" v="islet" />
		<tag k="ssr:stedsnr" v="542790" />
	</node>
	<node id="-767792" lat="69.6954861131" lon="19.7862111094">
		<tag k="name" v="Ullsnesvika" />
		<tag k="natural" v="bay" />
		<tag k="ssr:stedsnr" v="542289" />
	</node>
	<node id="-767777" lat="69.5875694472" lon="20.101413885">
		<tag k="name" v="Urneset" />
		<tag k="natural" v="cape" />
		<tag k="ssr:stedsnr" v="541724" />
	</node>
	<node id="-767765" lat="69.5820833333" lon="20.0461861078">
		<tag k="name" v="Hundklubben" />
		<tag k="natural" v="cape" />
		<tag k="ssr:stedsnr" v="539205" />
	</node>
	<node id="-767760" lat="69.8475666693" lon="19.9375055579">
		<tag k="name" v="Brosmeholet" />
		<tag k="place" v="locality" />
		<tag k="ssr:stedsnr" v="511504" />
	</node>
	<node id="-767759" lat="69.7701972243" lon="20.3072138632">
		<tag k="loc_name:se" v="Rássemohkki" />
		<tag k="name" v="Grasgropa" />
		<tag k="name:no" v="Grasgropa" />
		<tag k="natural" v="beach" />
		<tag k="place" v="locality" />
		<tag k="ssr:stedsnr" v="511308" />
	</node>
	<node id="-767758" lat="69.5126638846" lon="20.2374361032">
		<tag k="name" v="Kjeldnesbåen" />
		<tag k="natural" v="shoal" />
		<tag k="place" v="locality" />
		<tag k="ssr:stedsnr" v="511239" />
	</node>
	<node id="-767756" lat="69.5748805567" lon="20.2630471976">
		<tag k="name" v="Gurinagrunnen" />
		<tag k="natural" v="shoal" />
		<tag k="place" v="locality" />
		<tag k="ssr:stedsnr" v="511201" />
	</node>
	<node id="-767755" lat="69.9041666679" lon="20.1540777667">
		<tag k="name" v="Trollneset" />
		<tag k="natural" v="cape" />
		<tag k="ssr:stedsnr" v="510471" />
	</node>
	<node id="-767754" lat="69.4876611132" lon="20.1859499958">
		<tag k="name" v="Yykeänmuotka" />
		<tag k="name:fkv" v="Yykeänmuotka" />
		<tag k="place" v="locality" />
		<tag k="ssr:stedsnr" v="510210" />
	</node>
	<node id="-767753" lat="69.447119447" lon="20.2020610858">
		<tag k="name" v="Doaresčorru" />
		<tag k="name:se" v="Doaresčorru" />
		<tag k="natural" v="shoal" />
		<tag k="old_name:se" v="Doarestjorro" />
		<tag k="place" v="locality" />
		<tag k="ssr:stedsnr" v="509942" />
	</node>
	<node id="-767752" lat="69.4353055594" lon="20.2054583205">
		<tag k="name" v="Ridemaddi" />
		<tag k="natural" v="shoal" />
		<tag k="place" v="locality" />
		<tag k="ssr:stedsnr" v="509927" />
	</node>
	<node id="-767751" lat="69.4556805577" lon="20.2138277669">
		<tag k="fixme" v="consider seamark:type=rock or natural=shoal" />
		<tag k="name" v="Sandvikskjæret" />
		<tag k="place" v="islet" />
		<tag k="ssr:stedsnr" v="509604" />
	</node>
	<node id="-767749" lat="69.9542666665" lon="20.3317083233">
		<tag k="fixme" v="multiple name tags, choose one and add the other to alt_name" />
		<tag k="name" v="Porskevika;Purkevika" />
		<tag k="natural" v="bay" />
		<tag k="ssr:stedsnr" v="505667" />
	</node>
	<node id="-767748" lat="69.9497861153" lon="20.3376805505">
		<tag k="alt_name" v="Purkevika, in" />
		<tag k="fixme" v="multiple name tags, choose one and add the other to alt_name" />
		<tag k="name" v="Indre Porskevika;Indre Purkevika" />
		<tag k="natural" v="bay" />
		<tag k="ssr:stedsnr" v="505665" />
	</node>
	<node id="-767741" lat="69.5390083303" lon="20.2765110982">
		<tag k="fixme" v="multiple name tags, choose one and add the other to alt_name" />
		<tag k="name" v="Joramoholmen;Karnesholmen" />
		<tag k="old_name" v="Jordamoholmen" />
		<tag k="place" v="islet" />
		<tag k="ssr:stedsnr" v="504934" />
	</node>
	<node id="-767734" lat="69.9216361071" lon="20.1191861063">
		<tag k="alt_name" v="Bonsteinneset" />
		<tag k="name" v="Bomsteinneset" />
		<tag k="natural" v="cape" />
		<tag k="ssr:stedsnr" v="504733" />
	</node>
	<node id="-767727" lat="69.790994447" lon="19.9995055403">
		<tag k="name" v="Rørneset" />
		<tag k="natural" v="cape" />
		<tag k="ssr:stedsnr" v="504631" />
	</node>
	<node id="-767725" lat="69.4722888883" lon="20.1879138658">
		<tag k="name" v="Skogholmen" />
		<tag k="place" v="islet" />
		<tag k="ssr:stedsnr" v="504282" />
	</node>
	<node id="-767722" lat="69.4754194414" lon="20.2374805446">
		<tag k="alt_name" v="Forhamna, ytre;Ytre Forrahamn" />
		<tag k="fixme" v="multiple name tags, choose one and add the other to alt_name" />
		<tag k="name" v="Forhamna;Ytre Forhamna" />
		<tag k="natural" v="bay" />
		<tag k="ssr:stedsnr" v="504263" />
	</node>
	<node id="-767703" lat="69.6124555595" lon="19.8740249892">
		<tag k="name" v="Fyhnbukta" />
		<tag k="natural" v="bay" />
		<tag k="ssr:stedsnr" v="484852" />
	</node>
	<node id="-767681" lat="69.6723861167" lon="20.3780638633">
		<tag k="name" v="Kvennesbukta" />
		<tag k="natural" v="bay" />
		<tag k="ssr:stedsnr" v="483012" />
	</node>
	<node id="-767680" lat="69.7423666711" lon="20.2957527711">
		<tag k="loc_name:se" v="Čeavránjárga" />
		<tag k="name" v="Oterneset" />
		<tag k="name:no" v="Oterneset" />
		<tag k="natural" v="cape" />
		<tag k="ssr:stedsnr" v="483003" />
	</node>
	<node id="-767679" lat="69.6249722255" lon="20.3478694326">
		<tag k="name" v="Elvebukta" />
		<tag k="natural" v="bay" />
		<tag k="ssr:stedsnr" v="481998" />
	</node>
	<node id="-767669" lat="69.6590194424" lon="20.3666472108">
		<tag k="name" v="Korshollan" />
		<tag k="natural" v="bay" />
		<tag k="ssr:stedsnr" v="481892" />
	</node>
	<node id="-767668" lat="69.6558472238" lon="20.3448610945">
		<tag k="loc_name:se" v="Sullonuorri" />
		<tag k="name" v="Bonkesundet" />
		<tag k="name:no" v="Bonkesundet" />
		<tag k="natural" v="strait" />
		<tag k="ssr:stedsnr" v="481885" />
	</node>
	<node id="-767667" lat="69.5779944444" lon="20.2279888622">
		<tag k="name" v="Kalveparken" />
		<tag k="natural" v="beach" />
		<tag k="place" v="locality" />
		<tag k="ssr:stedsnr" v="481788" />
	</node>
	<node id="-767659" lat="69.588547227" lon="20.1084388755">
		<tag k="name" v="Urbukta" />
		<tag k="natural" v="bay" />
		<tag k="ssr:stedsnr" v="481692" />
	</node>
	<node id="-767657" lat="69.441102775" lon="20.1622222067">
		<tag k="name" v="Lyngsdalsøra" />
		<tag k="natural" v="cape" />
		<tag k="ssr:stedsnr" v="481598" />
	</node>
	<node id="-767655" lat="69.5042972241" lon="20.2171833181">
		<tag k="name" v="Holmen" />
		<tag k="place" v="islet" />
		<tag k="ssr:stedsnr" v="481534" />
	</node>
	<node id="-767653" lat="69.6534250006" lon="19.8167444351">
		<tag k="name" v="Bergevika" />
		<tag k="natural" v="bay" />
		<tag k="ssr:stedsnr" v="481319" />
	</node>
	<node id="-767645" lat="69.587516668" lon="20.0271222023">
		<tag k="name" v="Korkorbukta" />
		<tag k="natural" v="bay" />
		<tag k="ssr:stedsnr" v="481125" />
	</node>
	<node id="-767644" lat="69.5881527745" lon="20.022452757">
		<tag k="name" v="Kobbeneset" />
		<tag k="natural" v="cape" />
		<tag k="ssr:stedsnr" v="481123" />
	</node>
	<node id="-767643" lat="69.7552055522" lon="19.8398694211">
		<tag k="name" v="Selnessanden" />
		<tag k="natural" v="beach" />
		<tag k="place" v="locality" />
		<tag k="ssr:stedsnr" v="481109" />
	</node>
	<node id="-767631" lat="69.4558638892" lon="20.1962471947">
		<tag k="name" v="Kabelbukta" />
		<tag k="natural" v="bay" />
		<tag k="ssr:stedsnr" v="481568" />
	</node>
	<node id="-767629" lat="69.693130559" lon="20.3964860849">
		<tag k="name" v="Huet" />
		<tag k="natural" v="shoal" />
		<tag k="place" v="locality" />
		<tag k="ssr:stedsnr" v="451574" />
	</node>
	<node id="-767628" lat="69.5224277793" lon="20.2427749742">
		<tag k="name" v="Guttormbåen" />
		<tag k="natural" v="shoal" />
		<tag k="place" v="locality" />
		<tag k="ssr:stedsnr" v="451269" />
	</node>
	<node id="-767627" lat="69.5205805525" lon="20.2679916445">
		<tag k="name" v="Linasokka" />
		<tag k="name:se" v="Linasokka" />
		<tag k="natural" v="shoal" />
		<tag k="place" v="locality" />
		<tag k="ssr:stedsnr" v="451267" />
	</node>
	<node id="-767624" lat="69.9421972251" lon="20.1591055316">
		<tag k="name" v="Oterhulan" />
		<tag k="natural" v="bay" />
		<tag k="ssr:stedsnr" v="450480" />
	</node>
	<node id="-767622" lat="69.7678694437" lon="19.9672971983">
		<tag k="name" v="Botn" />
		<tag k="natural" v="bay" />
		<tag k="ssr:stedsnr" v="450244" />
	</node>
	<node id="-767620" lat="69.4787861127" lon="20.186747214">
		<tag k="alt_name" v="Linskjæret" />
		<tag k="name" v="Linholmen" />
		<tag k="place" v="islet" />
		<tag k="ssr:stedsnr" v="449622" />
	</node>
	<node id="-767614" lat="69.8555722261" lon="20.3674194428">
		<tag k="alt_name:no" v="Gammvika, in;Indre Gammvika" />
		<tag k="loc_name:se" v="Siskkit Skárraviika" />
		<tag k="name" v="Indre Gamvik" />
		<tag k="name:no" v="Indre Gamvik" />
		<tag k="natural" v="bay" />
		<tag k="ssr:stedsnr" v="444682" />
	</node>
	<node id="-767600" lat="69.9750972247" lon="20.2899583245">
		<tag k="loc_name:se" v="Stáinnirluokta" />
		<tag k="name" v="Steinbitbukta" />
		<tag k="name:no" v="Steinbitbukta" />
		<tag k="natural" v="bay" />
		<tag k="ssr:stedsnr" v="444632" />
	</node>
	<node id="-767598" lat="69.5466916712" lon="20.2654305364">
		<tag k="alt_name:no" v="Karnes" />
		<tag k="loc_name:se" v="Gárnjárga" />
		<tag k="name" v="Karneset - Kariniemi" />
		<tag k="name:fkv" v="Kariniemi" />
		<tag k="name:no" v="Karneset" />
		<tag k="natural" v="cape" />
		<tag k="ssr:stedsnr" v="444384" />
	</node>
	<node id="-767596" lat="70.0186444408" lon="20.2515166547">
		<tag k="name" v="Seibåen" />
		<tag k="natural" v="shoal" />
		<tag k="place" v="locality" />
		<tag k="ssr:stedsnr" v="444108" />
	</node>
	<node id="-767589" lat="69.5606305541" lon="20.3023277512">
		<tag k="alt_name:no" v="Innernortas" />
		<tag k="name" v="Indre Nortasholmen - Stuorra Nuorttaš" />
		<tag k="name:no" v="Indre Nortasholmen" />
		<tag k="name:se" v="Stuorra Nuorttaš" />
		<tag k="place" v="islet" />
		<tag k="ssr:stedsnr" v="443909" />
	</node>
	<node id="-767567" lat="69.6809527796" lon="20.2622833151">
		<tag k="name" v="Neset" />
		<tag k="natural" v="cape" />
		<tag k="ssr:stedsnr" v="423092" />
	</node>
	<node id="-767558" lat="69.8040972181" lon="19.9740638859">
		<tag k="name" v="Storbukta" />
		<tag k="natural" v="bay" />
		<tag k="ssr:stedsnr" v="422021" />
	</node>
	<node id="-767549" lat="69.5923861118" lon="20.3158194365">
		<tag k="name" v="Storhollet" />
		<tag k="natural" v="bay" />
		<tag k="ssr:stedsnr" v="421955" />
	</node>
	<node id="-767548" lat="69.5856388916" lon="20.3082249752">
		<tag k="fixme" v="consider seamark:type=rock or natural=shoal" />
		<tag k="name" v="Persoskjæret" />
		<tag k="place" v="islet" />
		<tag k="ssr:stedsnr" v="421952" />
	</node>
	<node id="-767541" lat="69.5461194434" lon="20.2399083176">
		<tag k="name" v="Steinholmen" />
		<tag k="place" v="islet" />
		<tag k="ssr:stedsnr" v="421796" />
	</node>
	<node id="-767522" lat="69.6397750026" lon="20.3352860971">
		<tag k="name" v="Salteriet" />
		<tag k="natural" v="bay" />
		<tag k="ssr:stedsnr" v="421073" />
	</node>
	<node id="-767520" lat="69.6408083312" lon="20.3336055413">
		<tag k="name" v="Årøybukta" />
		<tag k="natural" v="bay" />
		<tag k="ssr:stedsnr" v="421062" />
	</node>
	<node id="-767519" lat="69.5874361148" lon="20.0985416655">
		<tag k="name" v="Leirhollet" />
		<tag k="natural" v="bay" />
		<tag k="ssr:stedsnr" v="420759" />
	</node>
	<node id="-767508" lat="69.4632888863" lon="20.2003888686">
		<tag k="name" v="Skøytebukta" />
		<tag k="natural" v="bay" />
		<tag k="ssr:stedsnr" v="420594" />
	</node>
	<node id="-767507" lat="69.4634388876" lon="20.170930542">
		<tag k="name" v="Ytterlaneset" />
		<tag k="natural" v="cape" />
		<tag k="ssr:stedsnr" v="420591" />
	</node>
	<node id="-767506" lat="69.4705361139" lon="20.1714999942">
		<tag k="name" v="Steinneset" />
		<tag k="natural" v="cape" />
		<tag k="ssr:stedsnr" v="420589" />
	</node>
	<node id="-767504" lat="69.582024996" lon="20.0616277628">
		<tag k="name" v="Storurneset" />
		<tag k="natural" v="cape" />
		<tag k="ssr:stedsnr" v="420571" />
	</node>
	<node id="-767495" lat="69.7936888864" lon="19.9111444274">
		<tag k="name" v="Mikkelvikneset" />
		<tag k="natural" v="cape" />
		<tag k="ssr:stedsnr" v="268158" />
	</node>
	<node id="-767493" lat="69.4404722207" lon="20.2195583279">
		<tag k="name" v="Yttergrunnen" />
		<tag k="natural" v="shoal" />
		<tag k="place" v="locality" />
		<tag k="ssr:stedsnr" v="267959" />
	</node>
	<node id="-767492" lat="69.4378750029" lon="20.1965860904">
		<tag k="name" v="Tjorrogieti" />
		<tag k="natural" v="shoal" />
		<tag k="place" v="locality" />
		<tag k="ssr:stedsnr" v="267942" />
	</node>
	<node id="-767491" lat="69.4797111135" lon="20.1885527522">
		<tag k="name" v="Notholmen" />
		<tag k="place" v="islet" />
		<tag k="ssr:stedsnr" v="267611" />
	</node>
	<node id="-767490" lat="69.4527583315" lon="20.1905971937">
		<tag k="name" v="Nessegrunnen" />
		<tag k="natural" v="shoal" />
		<tag k="place" v="locality" />
		<tag k="ssr:stedsnr" v="267609" />
	</node>
	<node id="-767489" lat="69.7763666698" lon="19.8635972247">
		<tag k="name" v="Skavikneset" />
		<tag k="natural" v="cape" />
		<tag k="ssr:stedsnr" v="267204" />
	</node>
	<node id="-767487" lat="69.9012000006" lon="20.1086221966">
		<tag k="name" v="Koppmolneset" />
		<tag k="natural" v="cape" />
		<tag k="ssr:stedsnr" v="262768" />
	</node>
	<node id="-767477" lat="69.9759777792" lon="20.2619527584">
		<tag k="name" v="Sørklubben" />
		<tag k="natural" v="cape" />
		<tag k="ssr:stedsnr" v="262650" />
	</node>
	<node id="-767473" lat="69.5675222249" lon="20.2266722076">
		<tag k="loc_name:se" v="Bárat" />
		<tag k="name" v="Parakneset" />
		<tag k="name:no" v="Parakneset" />
		<tag k="natural" v="cape" />
		<tag k="ssr:stedsnr" v="261952" />
	</node>
	<node id="-767457" lat="69.7029777748" lon="20.2841472181">
		<tag k="name" v="Givggis" />
		<tag k="name:se" v="Givggis" />
		<tag k="natural" v="cape" />
		<tag k="ssr:stedsnr" v="261036" />
	</node>
	<node id="-767449" lat="69.8920527782" lon="20.133797202">
		<tag k="name" v="Innereidet" />
		<tag k="place" v="island" />
		<tag k="ssr:stedsnr" v="240851" />
	</node>
	<node id="-767427" lat="69.7125694486" lon="19.7965027714">
		<tag k="name" v="Bakkebyneset" />
		<tag k="natural" v="cape" />
		<tag k="ssr:stedsnr" v="239218" />
	</node>
	<node id="-767423" lat="69.5864861114" lon="20.0468972117">
		<tag k="name" v="Vedneset" />
		<tag k="natural" v="cape" />
		<tag k="ssr:stedsnr" v="239120" />
	</node>
	<node id="-767422" lat="69.5903666702" lon="19.9966916646">
		<tag k="name" v="Skjellneset" />
		<tag k="natural" v="cape" />
		<tag k="ssr:stedsnr" v="239117" />
	</node>
	<node id="-767413" lat="69.6579611123" lon="20.2736749901">
		<tag k="name" v="Elveneset" />
		<tag k="natural" v="cape" />
		<tag k="ssr:stedsnr" v="238898" />
	</node>
	<node id="-767407" lat="69.5831527815" lon="20.0867777548">
		<tag k="name" v="Hellarvikneset" />
		<tag k="natural" v="cape" />
		<tag k="ssr:stedsnr" v="238711" />
	</node>
	<node id="-767404" lat="69.6629027785" lon="20.3398222032">
		<tag k="name" v="Storbuktneset" />
		<tag k="natural" v="cape" />
		<tag k="ssr:stedsnr" v="239924" />
	</node>
	<node id="-767403" lat="69.6633805548" lon="20.3718805389">
		<tag k="name" v="Indre Moltebærneset" />
		<tag k="natural" v="cape" />
		<tag k="ssr:stedsnr" v="239923" />
	</node>
	<node id="-767380" lat="69.5324249978" lon="20.2524666503">
		<tag k="name" v="Flua" />
		<tag k="natural" v="shoal" />
		<tag k="place" v="locality" />
		<tag k="ssr:stedsnr" v="208240" />
	</node>
	<node id="-767379" lat="69.583830553" lon="20.3050083127">
		<tag k="fixme" v="consider seamark:type=rock or natural=shoal" />
		<tag k="name" v="Kvitbergskjæret" />
		<tag k="place" v="islet" />
		<tag k="ssr:stedsnr" v="208211" />
	</node>
	<node id="-767378" lat="69.5717111081" lon="20.2946333042">
		<tag k="name" v="Inderbakken" />
		<tag k="natural" v="shoal" />
		<tag k="place" v="locality" />
		<tag k="ssr:stedsnr" v="208198" />
	</node>
	<node id="-767377" lat="69.5820916639" lon="20.3188194287">
		<tag k="name" v="Kvitbergbakken" />
		<tag k="natural" v="shoal" />
		<tag k="place" v="locality" />
		<tag k="ssr:stedsnr" v="208197" />
	</node>
	<node id="-767376" lat="69.9347000018" lon="20.1961027777">
		<tag k="fixme" v="multiple name tags, choose one and add the other to alt_name" />
		<tag k="name" v="Blåbergan;Blåbergneset" />
		<tag k="natural" v="cape" />
		<tag k="ssr:stedsnr" v="207709" />
	</node>
	<node id="-767374" lat="69.9219583348" lon="20.1863138704">
		<tag k="name" v="Kjerringbukta" />
		<tag k="natural" v="bay" />
		<tag k="ssr:stedsnr" v="207451" />
	</node>
	<node id="-767373" lat="69.9539972254" lon="20.227672216">
		<tag k="name" v="Langørbukta" />
		<tag k="natural" v="bay" />
		<tag k="ssr:stedsnr" v="207437" />
	</node>
	<node id="-767372" lat="69.7831555584" lon="19.9597055352">
		<tag k="name" v="Storbukta" />
		<tag k="natural" v="bay" />
		<tag k="ssr:stedsnr" v="207148" />
	</node>
	<node id="-767371" lat="69.4941777745" lon="20.2477610917">
		<tag k="loc_name:se" v="Sieiddinjárga" />
		<tag k="name" v="Kvalvikneset" />
		<tag k="name:no" v="Kvalvikneset" />
		<tag k="natural" v="cape" />
		<tag k="ssr:stedsnr" v="206614" />
	</node>
	<node id="-767370" lat="69.4611000037" lon="20.191024996">
		<tag k="name" v="Haugholmen" />
		<tag k="place" v="islet" />
		<tag k="ssr:stedsnr" v="206608" />
	</node>
	<node id="-767369" lat="69.9395222265" lon="20.3482194198">
		<tag k="name" v="Hellarvikneset" />
		<tag k="natural" v="cape" />
		<tag k="ssr:stedsnr" v="202736" />
	</node>
	<node id="-767355" lat="69.7788250032" lon="19.8699610882">
		<tag k="alt_name" v="Skavika" />
		<tag k="name" v="Skavvika" />
		<tag k="natural" v="bay" />
		<tag k="ssr:stedsnr" v="201599" />
	</node>
	<node id="-767345" lat="69.7523055599" lon="19.8371277743">
		<tag k="alt_name:no" v="Selnes" />
		<tag k="name" v="Selneset - Sálljanjárga" />
		<tag k="name:no" v="Selneset" />
		<tag k="name:se" v="Sálljanjárga" />
		<tag k="natural" v="cape" />
		<tag k="ssr:stedsnr" v="201613" />
	</node>
	<node id="-767341" lat="69.5861498688" lon="20.1333598132">
		<tag k="name" v="Kobbenes" />
		<tag k="natural" v="cape" />
		<tag k="ssr:stedsnr" v="200947" />
	</node>
	<node id="-767338" lat="69.7796777795" lon="20.3826833161">
		<tag k="alt_name:no" v="Lyngenfjorden" />
		<tag k="bay" v="fjord" />
		<tag k="name" v="Lyngen - Ivguvuotna - Yykeänvuono" />
		<tag k="name:fkv" v="Yykeänvuono" />
		<tag k="name:no" v="Lyngen" />
		<tag k="name:se" v="Ivguvuotna" />
		<tag k="natural" v="bay" />
		<tag k="ssr:stedsnr" v="200243" />
	</node>
	<node id="-767332" lat="69.6779000027" lon="20.2701055445">
		<tag k="alt_name:no" v="Rastenes" />
		<tag k="loc_name:se" v="Rástenjárga" />
		<tag k="name" v="Rasteneset" />
		<tag k="name:no" v="Rasteneset" />
		<tag k="natural" v="cape" />
		<tag k="ssr:stedsnr" v="200010" />
	</node>
	<node id="-767330" lat="69.6769527741" lon="20.3340694361">
		<tag k="fixme" v="consider seamark:type=rock or natural=shoal" />
		<tag k="name" v="Skjæran" />
		<tag k="place" v="islet" />
		<tag k="ssr:stedsnr" v="180121" />
	</node>
	<node id="-767327" lat="69.6354999961" lon="20.3503277697">
		<tag k="name" v="Trollneset" />
		<tag k="natural" v="cape" />
		<tag k="ssr:stedsnr" v="180092" />
	</node>
	<node id="-767325" lat="69.4947277743" lon="20.2519138754">
		<tag k="name" v="Ørneset" />
		<tag k="natural" v="cape" />
		<tag k="ssr:stedsnr" v="179826" />
	</node>
	<node id="-767310" lat="69.6027472247" lon="20.3213999893">
		<tag k="fixme" v="consider seamark:type=rock or natural=shoal" />
		<tag k="name" v="Monseskjæret" />
		<tag k="place" v="islet" />
		<tag k="ssr:stedsnr" v="178948" />
	</node>
	<node id="-767309" lat="69.5864472192" lon="20.3108444331">
		<tag k="name" v="Nordavindshamna" />
		<tag k="natural" v="bay" />
		<tag k="ssr:stedsnr" v="178938" />
	</node>
	<node id="-767304" lat="69.5351583326" lon="20.2736944225">
		<tag k="name" v="Lilleholmen" />
		<tag k="place" v="islet" />
		<tag k="ssr:stedsnr" v="178814" />
	</node>
	<node id="-767288" lat="69.6043805566" lon="19.9437749898">
		<tag k="name" v="Dausteinbukta" />
		<tag k="natural" v="bay" />
		<tag k="ssr:stedsnr" v="178103" />
	</node>
	<node id="-767277" lat="69.4668611091" lon="20.1701083154">
		<tag k="name" v="Josva" />
		<tag k="natural" v="cape" />
		<tag k="ssr:stedsnr" v="177581" />
	</node>
	<node id="-767270" lat="69.7874694443" lon="19.9051194392">
		<tag k="fixme" v="consider seamark:type=rock or natural=shoal" />
		<tag k="name" v="Tangskjæret" />
		<tag k="place" v="islet" />
		<tag k="ssr:stedsnr" v="177077" />
	</node>
	<node id="-767259" lat="69.8855861102" lon="20.2738333146">
		<tag k="name" v="Lyngenhalvøya - Ittunjárga" />
		<tag k="name:no" v="Lyngenhalvøya" />
		<tag k="name:se" v="Ittunjárga" />
		<tag k="natural" v="cape" />
		<tag k="ssr:stedsnr" v="152638" />
	</node>
	<node id="-767258" lat="69.5261277771" lon="20.2354944412">
		<tag k="fixme" v="consider seamark:type=rock or natural=shoal" />
		<tag k="name" v="Naustnesskjæret" />
		<tag k="place" v="islet" />
		<tag k="ssr:stedsnr" v="147243" />
	</node>
	<node id="-767256" lat="69.7823361093" lon="20.3158638757">
		<tag k="name" v="Nordavindshamna" />
		<tag k="natural" v="bay" />
		<tag k="ssr:stedsnr" v="146680" />
	</node>
	<node id="-767255" lat="69.863711114" lon="20.1946277773">
		<tag k="name" v="Botn" />
		<tag k="natural" v="bay" />
		<tag k="ssr:stedsnr" v="146647" />
	</node>
	<node id="-767254" lat="69.9002722218" lon="20.1589388636">
		<tag k="name" v="Mellaholmen" />
		<tag k="place" v="islet" />
		<tag k="ssr:stedsnr" v="146437" />
	</node>
	<node id="-767253" lat="69.803722225" lon="20.0107555488">
		<tag k="name" v="Veidalsneset" />
		<tag k="natural" v="cape" />
		<tag k="ssr:stedsnr" v="146416" />
	</node>
	<node id="-767251" lat="69.4280083345" lon="20.1567888819">
		<tag k="name" v="Ruovddášluokta" />
		<tag k="name:se" v="Ruovddášluokta" />
		<tag k="natural" v="bay" />
		<tag k="ssr:stedsnr" v="146187" />
	</node>
	<node id="-767249" lat="69.4575944485" lon="20.2484055412">
		<tag k="name" v="Båtberggrunnen" />
		<tag k="natural" v="shoal" />
		<tag k="place" v="locality" />
		<tag k="ssr:stedsnr" v="145955" />
	</node>
	<node id="-767248" lat="69.9351250033" lon="20.1637527605">
		<tag k="name" v="Småseibergan" />
		<tag k="natural" v="cape" />
		<tag k="ssr:stedsnr" v="145498" />
	</node>
	<node id="-767245" lat="69.5974694423" lon="19.963497204">
		<tag k="name" v="Tytebærvika" />
		<tag k="natural" v="bay" />
		<tag k="ssr:stedsnr" v="140980" />
	</node>
	<node id="-767244" lat="69.9379333348" lon="20.1631944315">
		<tag k="fixme" v="consider seamark:type=rock or natural=shoal" />
		<tag k="name" v="Kvitsteinen" />
		<tag k="place" v="islet" />
		<tag k="ssr:stedsnr" v="140718" />
	</node>
	<node id="-767243" lat="69.8509416659" lon="20.3638388827">
		<tag k="alt_name" v="Loppeholet" />
		<tag k="name" v="Loppehollet" />
		<tag k="natural" v="bay" />
		<tag k="ssr:stedsnr" v="140694" />
	</node>
	<node id="-767241" lat="69.8643305533" lon="20.1829944407">
		<tag k="name" v="Høgneset" />
		<tag k="natural" v="cape" />
		<tag k="ssr:stedsnr" v="140690" />
	</node>
	<node id="-767240" lat="69.861894446" lon="20.1870972085">
		<tag k="name" v="Grasbergneset" />
		<tag k="natural" v="cape" />
		<tag k="ssr:stedsnr" v="140688" />
	</node>
	<node id="-767238" lat="69.8856222192" lon="20.0925555471">
		<tag k="name" v="Hesjeneset" />
		<tag k="natural" v="cape" />
		<tag k="ssr:stedsnr" v="140682" />
	</node>
	<node id="-767232" lat="69.7678722241" lon="20.3066416432">
		<tag k="name" v="Láttu" />
		<tag k="name:se" v="Láttu" />
		<tag k="natural" v="bay" />
		<tag k="ssr:stedsnr" v="140633" />
	</node>
	<node id="-767225" lat="69.4638250019" lon="20.2260610921">
		<tag k="name" v="Klubbneset" />
		<tag k="natural" v="cape" />
		<tag k="ssr:stedsnr" v="140261" />
	</node>
	<node id="-767222" lat="69.5353416692" lon="20.2786083115">
		<tag k="name" v="Mosesholmen" />
		<tag k="place" v="islet" />
		<tag k="ssr:stedsnr" v="139914" />
	</node>
	<node id="-767220" lat="69.5642166672" lon="20.2299749757">
		<tag k="alt_name:no" v="Marjaholmen" />
		<tag k="loc_name:se" v="Rávgasuolu" />
		<tag k="name" v="Marieholmen" />
		<tag k="name:no" v="Marieholmen" />
		<tag k="place" v="islet" />
		<tag k="ssr:stedsnr" v="139905" />
	</node>
	<node id="-767201" lat="69.8709472269" lon="20.1979166566">
		<tag k="name" v="Stranda" />
		<tag k="natural" v="beach" />
		<tag k="place" v="locality" />
		<tag k="ssr:stedsnr" v="268485" />
	</node>
	<node id="-767200" lat="69.8902027798" lon="20.1766972049">
		<tag k="name" v="Straumsneset" />
		<tag k="natural" v="cape" />
		<tag k="ssr:stedsnr" v="268481" />
	</node>
	<node id="-767197" lat="69.8900694472" lon="20.0996083102">
		<tag k="name" v="Gårdsneset" />
		<tag k="natural" v="cape" />
		<tag k="ssr:stedsnr" v="119864" />
	</node>
	<node id="-767196" lat="69.5312083358" lon="20.2327249798">
		<tag k="name" v="Oksvikbukta" />
		<tag k="natural" v="bay" />
		<tag k="ssr:stedsnr" v="119837" />
	</node>
	<node id="-767195" lat="69.9285472246" lon="20.3536777573">
		<tag k="name" v="Sanden" />
		<tag k="natural" v="beach" />
		<tag k="place" v="locality" />
		<tag k="ssr:stedsnr" v="119192" />
	</node>
	<node id="-767192" lat="69.6816999977" lon="20.2567083132">
		<tag k="name" v="Koppangen" />
		<tag k="natural" v="bay" />
		<tag k="ssr:stedsnr" v="119104" />
	</node>
	<node id="-767191" lat="69.7079750032" lon="20.2843916653">
		<tag k="loc_name:se" v="Sisnjárga" />
		<tag k="name" v="Innerneset" />
		<tag k="name:no" v="Innerneset" />
		<tag k="natural" v="cape" />
		<tag k="ssr:stedsnr" v="119100" />
	</node>
	<node id="-767190" lat="69.4436916646" lon="20.156430551">
		<tag k="name" v="Ráššegárgu" />
		<tag k="name:se" v="Ráššegárgu" />
		<tag k="natural" v="beach" />
		<tag k="place" v="locality" />
		<tag k="ssr:stedsnr" v="119082" />
	</node>
	<node id="-767186" lat="69.8365166716" lon="20.0390888671">
		<tag k="name" v="Karl-Jordneset" />
		<tag k="natural" v="cape" />
		<tag k="ssr:stedsnr" v="119056" />
	</node>
	<node id="-767145" lat="69.7733194418" lon="19.8547083226">
		<tag k="name" v="Flaskeforet" />
		<tag k="natural" v="cape" />
		<tag k="ssr:stedsnr" v="117160" />
	</node>
	<node id="-767142" lat="69.7886944418" lon="19.9622083214">
		<tag k="name" v="Kuræsbukta" />
		<tag k="natural" v="bay" />
		<tag k="ssr:stedsnr" v="117093" />
	</node>
	<node id="-767132" lat="69.8354916635" lon="19.968255548">
		<tag k="name" v="Breidsetneset" />
		<tag k="natural" v="cape" />
		<tag k="ssr:stedsnr" v="113696" />
	</node>
	<node id="-767130" lat="69.834658334" lon="19.9920972205">
		<tag k="name" v="Kvalnesbukta" />
		<tag k="natural" v="bay" />
		<tag k="ssr:stedsnr" v="88126" />
	</node>
	<node id="-767128" lat="69.6531583349" lon="20.3358194277">
		<tag k="alt_name:no" v="Skarveskjæret" />
		<tag k="fixme" v="consider seamark:type=rock or natural=shoal" />
		<tag k="loc_name:se" v="Skárfelássá" />
		<tag k="name" v="Skarvskjæret" />
		<tag k="name:no" v="Skarvskjæret" />
		<tag k="place" v="islet" />
		<tag k="ssr:stedsnr" v="87212" />
	</node>
	<node id="-767126" lat="69.5485305571" lon="20.295627769">
		<tag k="name" v="Fjellosorra" />
		<tag k="natural" v="shoal" />
		<tag k="place" v="locality" />
		<tag k="ssr:stedsnr" v="87204" />
	</node>
	<node id="-767125" lat="69.5554999977" lon="20.2933194201">
		<tag k="fixme" v="consider seamark:type=rock or natural=shoal" />
		<tag k="name" v="Nortasskjæret" />
		<tag k="place" v="islet" />
		<tag k="ssr:stedsnr" v="87202" />
	</node>
	<node id="-767123" lat="69.8974833351" lon="20.0001611099">
		<tag k="name" v="Eidstranddjupet" />
		<tag k="place" v="locality" />
		<tag k="ssr:stedsnr" v="86528" />
	</node>
	<node id="-767122" lat="69.9229888928" lon="20.1651222">
		<tag k="alt_name" v="Gammelheimøra" />
		<tag k="name" v="Gammelhjemsøra" />
		<tag k="natural" v="beach" />
		<tag k="place" v="locality" />
		<tag k="ssr:stedsnr" v="86495" />
	</node>
	<node id="-767121" lat="69.8899666677" lon="20.1648999983">
		<tag k="name" v="Settneset" />
		<tag k="natural" v="cape" />
		<tag k="ssr:stedsnr" v="86489" />
	</node>
	<node id="-767120" lat="69.9335777774" lon="20.1954416516">
		<tag k="name" v="Blåbergbukta" />
		<tag k="natural" v="bay" />
		<tag k="ssr:stedsnr" v="86479" />
	</node>
	<node id="-767113" lat="69.4678722271" lon="20.1903805303">
		<tag k="alt_name" v="Skarveskjæret" />
		<tag k="fixme" v="consider seamark:type=rock or natural=shoal" />
		<tag k="name" v="Skarvskjæret" />
		<tag k="place" v="islet" />
		<tag k="ssr:stedsnr" v="85568" />
	</node>
	<node id="-767100" lat="69.61038611" lon="20.3396222157">
		<tag k="name" v="Storsteinneset" />
		<tag k="natural" v="cape" />
		<tag k="ssr:stedsnr" v="80000" />
	</node>
	<node id="-767098" lat="69.6163749987" lon="19.8616861098">
		<tag k="name" v="Neset" />
		<tag k="natural" v="cape" />
		<tag k="ssr:stedsnr" v="79985" />
	</node>
	<node id="-767091" lat="69.5252333336" lon="20.2321194359">
		<tag k="alt_name:no" v="Naustnes" />
		<tag k="loc_name:se" v="Návstenjrga" />
		<tag k="name" v="Naustneset - Naustiniemi" />
		<tag k="name:fkv" v="Naustiniemi" />
		<tag k="name:no" v="Naustneset" />
		<tag k="natural" v="cape" />
		<tag k="ssr:stedsnr" v="79915" />
	</node>
	<node id="-767090" lat="69.5532361077" lon="20.2268555402">
		<tag k="alt_name" v="Geitnes" />
		<tag k="name" v="Geitneset" />
		<tag k="natural" v="cape" />
		<tag k="ssr:stedsnr" v="79906" />
	</node>
	<node id="-767074" lat="69.7194055539" lon="20.285763867">
		<tag k="name" v="Hellarberget" />
		<tag k="natural" v="cape" />
		<tag k="ssr:stedsnr" v="79020" />
	</node>
	<node id="-767068" lat="69.9035416699" lon="20.154866642">
		<tag k="name" v="Åsbukta" />
		<tag k="natural" v="bay" />
		<tag k="ssr:stedsnr" v="58858" />
	</node>
	<node id="-767067" lat="69.891263888" lon="20.1755860971">
		<tag k="name" v="Straumsnesbukta" />
		<tag k="natural" v="bay" />
		<tag k="ssr:stedsnr" v="58854" />
	</node>
	<node id="-767064" lat="69.8810666643" lon="20.3931972121">
		<tag k="name" v="Skappirvi" />
		<tag k="natural" v="bay" />
		<tag k="ssr:stedsnr" v="58233" />
	</node>
	<node id="-767060" lat="69.6786666632" lon="20.3395638646">
		<tag k="name" v="Sandneset" />
		<tag k="natural" v="cape" />
		<tag k="ssr:stedsnr" v="58126" />
	</node>
	<node id="-767056" lat="69.636661114" lon="20.3512444259">
		<tag k="name" v="Trollnesbukta" />
		<tag k="natural" v="bay" />
		<tag k="ssr:stedsnr" v="58101" />
	</node>
	<node id="-767048" lat="69.7166055579" lon="20.2833249982">
		<tag k="loc_name:se" v="Davvenjárga" />
		<tag k="name" v="Ytterneset" />
		<tag k="name:no" v="Ytterneset" />
		<tag k="natural" v="cape" />
		<tag k="ssr:stedsnr" v="58003" />
	</node>
	<node id="-767042" lat="69.5862972227" lon="20.3045555516">
		<tag k="name" v="Leirbukta" />
		<tag k="natural" v="bay" />
		<tag k="ssr:stedsnr" v="57952" />
	</node>
	<node id="-767041" lat="69.6692083305" lon="20.337847211">
		<tag k="fixme" v="consider seamark:type=rock or natural=shoal" />
		<tag k="name" v="Sandskjæret" />
		<tag k="place" v="islet" />
		<tag k="ssr:stedsnr" v="57898" />
	</node>
	<node id="-767027" lat="69.6392722203" lon="20.3418944246">
		<tag k="name" v="Mellavika" />
		<tag k="natural" v="bay" />
		<tag k="ssr:stedsnr" v="57065" />
	</node>
	<node id="-767019" lat="69.6500083299" lon="20.2965972037">
		<tag k="fixme" v="consider seamark:type=rock or natural=shoal" />
		<tag k="name" v="Joskjæret" />
		<tag k="place" v="islet" />
		<tag k="ssr:stedsnr" v="56897" />
	</node>
	<node id="-767009" lat="69.6593500009" lon="20.2737055454">
		<tag k="name" v="Fastdalsbukta" />
		<tag k="natural" v="bay" />
		<tag k="ssr:stedsnr" v="56925" />
	</node>
	<node id="-767008" lat="69.7635472202" lon="19.9741277733">
		<tag k="name" v="Rundneset" />
		<tag k="natural" v="cape" />
		<tag k="ssr:stedsnr" v="56915" />
	</node>
	<node id="-767006" lat="69.8305305529" lon="19.9621222202">
		<tag k="name" v="Breistrandneset" />
		<tag k="natural" v="cape" />
		<tag k="ssr:stedsnr" v="56908" />
	</node>
	<node id="-767004" lat="69.4308333355" lon="20.1550972005">
		<tag k="name" v="Jananjunni" />
		<tag k="name:se" v="Jananjunni" />
		<tag k="natural" v="cape" />
		<tag k="ssr:stedsnr" v="56588" />
	</node>
	<node id="-767001" lat="69.4964777819" lon="20.2111749988">
		<tag k="name" v="Vuohppi" />
		<tag k="name:se" v="Vuohppi" />
		<tag k="natural" v="bay" />
		<tag k="ssr:stedsnr" v="56602" />
	</node>
	<node id="-766996" lat="69.4188444405" lon="20.1553388785">
		<tag k="alt_name" v="Ytre Kabelvik;Kabelbukta, ytre" />
		<tag k="name" v="Ytre Kabelbukt" />
		<tag k="natural" v="bay" />
		<tag k="ssr:stedsnr" v="28823" />
	</node>
	<node id="-766993" lat="69.7800694488" lon="19.877655552">
		<tag k="alt_name" v="Løpvikneset" />
		<tag k="name" v="Laupvikneset" />
		<tag k="natural" v="cape" />
		<tag k="ssr:stedsnr" v="27025" />
	</node>
	<node id="-766992" lat="69.5382472255" lon="20.2592083183">
		<tag k="name" v="Tjønna" />
		<tag k="natural" v="shoal" />
		<tag k="place" v="locality" />
		<tag k="ssr:stedsnr" v="26265" />
	</node>
	<node id="-766991" lat="69.5041361159" lon="20.2561388715">
		<tag k="name" v="Kvalvikøra" />
		<tag k="natural" v="shoal" />
		<tag k="place" v="locality" />
		<tag k="ssr:stedsnr" v="26263" />
	</node>
	<node id="-766990" lat="69.5865749972" lon="20.2760305402">
		<tag k="name" v="Rottenvika - Guohcavuohppi" />
		<tag k="name:no" v="Rottenvika" />
		<tag k="name:se" v="Guohcavuohppi" />
		<tag k="natural" v="bay" />
		<tag k="ssr:stedsnr" v="26233" />
	</node>
	<node id="-766989" lat="69.7868583371" lon="19.9049527589">
		<tag k="name" v="Sandbukta" />
		<tag k="natural" v="bay" />
		<tag k="ssr:stedsnr" v="25704" />
	</node>
	<node id="-766988" lat="69.9271416717" lon="20.1827110963">
		<tag k="fixme" v="consider seamark:type=rock or natural=shoal" />
		<tag k="name" v="Nesseskjæret" />
		<tag k="place" v="islet" />
		<tag k="ssr:stedsnr" v="25473" />
	</node>
	<node id="-766987" lat="69.8726388903" lon="20.3865249802">
		<tag k="name" v="Nordavindshamna" />
		<tag k="natural" v="bay" />
		<tag k="ssr:stedsnr" v="25470" />
	</node>
	<node id="-766986" lat="69.9478972255" lon="20.2092638665">
		<tag k="fixme" v="consider seamark:type=rock or natural=shoal" />
		<tag k="name" v="Russelvskjæret" />
		<tag k="place" v="islet" />
		<tag k="ssr:stedsnr" v="25465" />
	</node>
	<node id="-766981" lat="69.7239749979" lon="19.8183138778">
		<tag k="name" v="Storsteinen" />
		<tag k="natural" v="cape" />
		<tag k="ssr:stedsnr" v="25257" />
	</node>
	<node id="-766979" lat="69.938363887" lon="20.2028527601">
		<tag k="name" v="Seglneset" />
		<tag k="natural" v="cape" />
		<tag k="ssr:stedsnr" v="20753" />
	</node>
	<node id="-766978" lat="69.608363889" lon="19.9173638885">
		<tag k="name" v="Bjørnnes" />
		<tag k="natural" v="cape" />
		<tag k="ssr:stedsnr" v="19991" />
	</node>
	<node id="-766968" lat="69.8112555551" lon="19.9967444219">
		<tag k="bay" v="fjord" />
		<tag k="name" v="Sør-Lenangen - Siskkit Ittarvuotna" />
		<tag k="name:no" v="Sør-Lenangen" />
		<tag k="name:se" v="Siskkit Ittarvuotna" />
		<tag k="natural" v="bay" />
		<tag k="ssr:stedsnr" v="19664" />
	</node>
	<node id="-766964" lat="69.8806583316" lon="20.1725111031">
		<tag k="name" v="Kobbeneset" />
		<tag k="natural" v="cape" />
		<tag k="ssr:stedsnr" v="19453" />
	</node>
	<node id="-766963" lat="69.4677500017" lon="20.2343555485">
		<tag k="name" v="Båtneset - Vanasbávttinjárga" />
		<tag k="name:no" v="Båtneset" />
		<tag k="name:se" v="Vanasbávttinjárga" />
		<tag k="natural" v="cape" />
		<tag k="ssr:stedsnr" v="19282" />
	</node>
	<node id="-766962" lat="69.4603250021" lon="20.2190916481">
		<tag k="alt_name:no" v="Masternes" />
		<tag k="name" v="Masterneset - Sivlonjárga" />
		<tag k="name:no" v="Masterneset" />
		<tag k="name:se" v="Sivlonjárga" />
		<tag k="natural" v="cape" />
		<tag k="ssr:stedsnr" v="19281" />
	</node>
	<node id="-766960" lat="69.4649583339" lon="20.2029805307">
		<tag k="alt_name" v="Forhamna, indre;Indre Forrahamn" />
		<tag k="fixme" v="multiple name tags, choose one and add the other to alt_name" />
		<tag k="name" v="Lilleforhamna;Indre Forhamna" />
		<tag k="natural" v="bay" />
		<tag k="ssr:stedsnr" v="19278" />
	</node>
	<node id="-766958" lat="69.637161113" lon="20.3483971986">
		<tag k="loc_name:se" v="Oađámašnjárga" />
		<tag k="name" v="Årøybuktneset" />
		<tag k="name:no" v="Årøybuktneset" />
		<tag k="natural" v="cape" />
		<tag k="ssr:stedsnr" v="19034" />
	</node>
	<node id="-766945" lat="69.6810000026" lon="20.3495027536">
		<tag k="name" v="Bertholmen" />
		<tag k="place" v="islet" />
		<tag k="ssr:stedsnr" v="18018" />
	</node>
	<node id="-766932" lat="69.851169915" lon="20.0511877325">
		<tag k="name" v="Hesjebukta - Heaskebuktu" />
		<tag k="name:no" v="Hesjebukta" />
		<tag k="name:se" v="Heaskebuktu" />
		<tag k="natural" v="bay" />
		<tag k="ssr:stedsnr" v="990654" />
	</node>
	<node id="-766929" lat="69.9524222223" lon="20.3349555494">
		<tag k="fixme" v="multiple name tags, choose one and add the other to alt_name" />
		<tag k="name" v="Indre Porskevikneset;Indre Purkevikneset" />
		<tag k="natural" v="cape" />
		<tag k="ssr:stedsnr" v="389609" />
	</node>
	<node id="-766918" lat="69.8910055576" lon="20.3935360835">
		<tag k="name" v="Čakka" />
		<tag k="name:se" v="Čakka" />
		<tag k="natural" v="bay" />
		<tag k="ssr:stedsnr" v="412170" />
	</node>
	<node id="-766911" lat="69.8149861086" lon="19.9867527542">
		<tag k="name" v="Ørbukta" />
		<tag k="natural" v="bay" />
		<tag k="ssr:stedsnr" v="391170" />
	</node>
	<node id="-766909" lat="69.6026416677" lon="20.3440749939">
		<tag k="name" v="Seljevikgrunnen" />
		<tag k="natural" v="shoal" />
		<tag k="place" v="locality" />
		<tag k="ssr:stedsnr" v="390226" />
	</node>
	<node id="-766908" lat="69.5656972195" lon="20.2339527637">
		<tag k="fixme" v="consider seamark:type=rock or natural=shoal" />
		<tag k="name" v="Skjæret" />
		<tag k="place" v="islet" />
		<tag k="ssr:stedsnr" v="390215" />
	</node>
	<node id="-766905" lat="69.9025027753" lon="20.15302499">
		<tag k="name" v="Langørneset" />
		<tag k="natural" v="cape" />
		<tag k="ssr:stedsnr" v="389508" />
	</node>
	<node id="-766904" lat="69.9065277783" lon="20.1657277763">
		<tag k="fixme" v="multiple name tags, choose one and add the other to alt_name; consider seamark:type=rock or natural=shoal" />
		<tag k="name" v="Hamneskjæret;Lykteskjæret" />
		<tag k="place" v="islet" />
		<tag k="ssr:stedsnr" v="389501" />
	</node>
	<node id="-766903" lat="69.8477249973" lon="19.9896694291">
		<tag k="fixme" v="consider seamark:type=rock or natural=shoal" />
		<tag k="name" v="Nesseskjæran" />
		<tag k="place" v="islet" />
		<tag k="ssr:stedsnr" v="389476" />
	</node>
	<node id="-766902" lat="69.613383337" lon="19.8638110971">
		<tag k="name" v="Storsteinneset" />
		<tag k="natural" v="cape" />
		<tag k="ssr:stedsnr" v="389379" />
	</node>
	<node id="-766898" lat="69.786077778" lon="19.9060166431">
		<tag k="fixme" v="consider seamark:type=rock or natural=shoal" />
		<tag k="name" v="Lattervikskjæret" />
		<tag k="place" v="islet" />
		<tag k="ssr:stedsnr" v="389155" />
	</node>
	<node id="-766894" lat="69.8480277819" lon="19.9884666594">
		<tag k="alt_name" v="Lenangsskjeret" />
		<tag k="fixme" v="consider seamark:type=rock or natural=shoal" />
		<tag k="name" v="Lenangsskjæret" />
		<tag k="place" v="islet" />
		<tag k="ssr:stedsnr" v="383709" />
	</node>
	<node id="-766889" lat="69.9594166682" lon="20.3278055532">
		<tag k="name" v="Røykeneset" />
		<tag k="natural" v="cape" />
		<tag k="ssr:stedsnr" v="383660" />
	</node>
	<node id="-766886" lat="69.7900944475" lon="20.3206444291">
		<tag k="name" v="Vákkášnjárga" />
		<tag k="name:se" v="Vákkášnjárga" />
		<tag k="natural" v="cape" />
		<tag k="ssr:stedsnr" v="383649" />
	</node>
	<node id="-766885" lat="69.5975944406" lon="19.9325916568">
		<tag k="bay" v="fjord" />
		<tag k="fixme" v="multiple name tags, choose one and add the other to alt_name" />
		<tag k="name" v="Kjosen;Kjosenfjorden - Muotkevuotna - Muotkalahti" />
		<tag k="name:fkv" v="Muotkalahti" />
		<tag k="name:no" v="Kjosen;Kjosenfjorden" />
		<tag k="name:se" v="Muotkevuotna" />
		<tag k="natural" v="bay" />
		<tag k="ssr:stedsnr" v="382987" />
	</node>
	<node id="-766880" lat="69.557613889" lon="20.2537666455">
		<tag k="alt_name:no" v="Store Skogholmen;Store Skogsholmen" />
		<tag k="loc_name:se" v="Finnasuolu" />
		<tag k="name" v="Storskogholmen - Nimismiehensaari" />
		<tag k="name:fkv" v="Nimismiehensaari" />
		<tag k="name:no" v="Storskogholmen" />
		<tag k="place" v="islet" />
		<tag k="ssr:stedsnr" v="382927" />
	</node>
	<node id="-766876" lat="69.429430557" lon="20.1562499911">
		<tag k="name" v="Klubbeneset" />
		<tag k="natural" v="cape" />
		<tag k="ssr:stedsnr" v="382262" />
	</node>
	<node id="-766868" lat="69.6582666701" lon="20.3606110895">
		<tag k="name" v="Moltebærneset" />
		<tag k="natural" v="cape" />
		<tag k="ssr:stedsnr" v="382060" />
	</node>
	<node id="-766861" lat="69.6957361142" lon="20.2781666458">
		<tag k="loc_name:se" v="Ruollanjárga" />
		<tag k="name" v="Trollneset" />
		<tag k="name:no" v="Trollneset" />
		<tag k="natural" v="cape" />
		<tag k="ssr:stedsnr" v="382001" />
	</node>
	<node id="-766840" lat="69.614688893" lon="20.3467694304">
		<tag k="name" v="Indre Kristnesbukta" />
		<tag k="natural" v="bay" />
		<tag k="ssr:stedsnr" v="360982" />
	</node>
	<node id="-766808" lat="69.6383138896" lon="20.347022204">
		<tag k="name" v="Instevika" />
		<tag k="natural" v="bay" />
		<tag k="ssr:stedsnr" v="360058" />
	</node>
	<node id="-766805" lat="69.5834972218" lon="20.0980416473">
		<tag k="name" v="Brattstigneset" />
		<tag k="natural" v="cape" />
		<tag k="ssr:stedsnr" v="359744" />
	</node>
	<node id="-766799" lat="69.4489944472" lon="20.158874985">
		<tag k="name" v="Gurpput" />
		<tag k="name:se" v="Gurpput" />
		<tag k="natural" v="cape" />
		<tag k="ssr:stedsnr" v="359622" />
	</node>
	<node id="-766796" lat="69.4586166644" lon="20.1675416493">
		<tag k="name" v="Innerlanesbukta" />
		<tag k="natural" v="bay" />
		<tag k="ssr:stedsnr" v="359579" />
	</node>
	<node id="-766790" lat="69.7885805545" lon="19.906574995">
		<tag k="fixme" v="consider seamark:type=rock or natural=shoal" />
		<tag k="name" v="Storskjæret" />
		<tag k="place" v="islet" />
		<tag k="ssr:stedsnr" v="359077" />
	</node>
	<node id="-766781" lat="69.5131361149" lon="20.2303777608">
		<tag k="fixme" v="multiple name tags, choose one and add the other to alt_name" />
		<tag k="name" v="Ol-Hansabukta;Kjeldnesbukta;Olehansabukta - Gielnjárluokta" />
		<tag k="name:no" v="Ol-Hansabukta;Kjeldnesbukta;Olehansabukta" />
		<tag k="name:se" v="Gielnjárluokta" />
		<tag k="natural" v="bay" />
		<tag k="ssr:stedsnr" v="330173" />
	</node>
	<node id="-766776" lat="69.5174416656" lon="20.2900444297">
		<tag k="name" v="Sorra" />
		<tag k="name:se" v="Sorra" />
		<tag k="natural" v="shoal" />
		<tag k="place" v="locality" />
		<tag k="ssr:stedsnr" v="329242" />
	</node>
	<node id="-766775" lat="69.6508472241" lon="20.3063611077">
		<tag k="name" v="Drabenggrunnen" />
		<tag k="natural" v="shoal" />
		<tag k="place" v="locality" />
		<tag k="ssr:stedsnr" v="329217" />
	</node>
	<node id="-766774" lat="69.4543416679" lon="20.1801722201">
		<tag k="name" v="Pollgrunnen" />
		<tag k="natural" v="shoal" />
		<tag k="place" v="locality" />
		<tag k="ssr:stedsnr" v="327602" />
	</node>
	<node id="-766772" lat="69.9428833322" lon="20.3434638845">
		<tag k="loc_name" v="Álleluokta" />
		<tag k="name" v="Hellarvika" />
		<tag k="natural" v="bay" />
		<tag k="ssr:stedsnr" v="323717" />
	</node>
	<node id="-766770" lat="69.8142583333" lon="20.0211999839">
		<tag k="alt_name" v="Naustnes" />
		<tag k="name" v="Naustneset" />
		<tag k="natural" v="cape" />
		<tag k="ssr:stedsnr" v="323685" />
	</node>
	<node id="-766769" lat="69.9575361141" lon="20.2377138845">
		<tag k="alt_name" v="Gråsteinan" />
		<tag k="fixme" v="consider seamark:type=rock or natural=shoal" />
		<tag k="name" v="Gråsteinen" />
		<tag k="place" v="islet" />
		<tag k="ssr:stedsnr" v="323668" />
	</node>
	<node id="-766757" lat="69.890169442" lon="20.1697638733">
		<tag k="name" v="Straumen - Rávdnji" />
		<tag k="name:no" v="Straumen" />
		<tag k="name:se" v="Rávdnji" />
		<tag k="natural" v="strait" />
		<tag k="ssr:stedsnr" v="322679" />
	</node>
	<node id="-766756" lat="69.7916999969" lon="19.9085999781">
		<tag k="alt_name" v="Mikkelvik" />
		<tag k="name" v="Mikkelvika" />
		<tag k="natural" v="bay" />
		<tag k="ssr:stedsnr" v="322672" />
	</node>
	<node id="-766750" lat="69.665427776" lon="20.3732860852">
		<tag k="fixme" v="multiple name tags, choose one and add the other to alt_name" />
		<tag k="name" v="Lomnes;Ytre Moltebærneset" />
		<tag k="natural" v="cape" />
		<tag k="ssr:stedsnr" v="322057" />
	</node>
	<node id="-766747" lat="69.5841361147" lon="20.2934249759">
		<tag k="name" v="Solpen" />
		<tag k="natural" v="cape" />
		<tag k="ssr:stedsnr" v="321949" />
	</node>
	<node id="-766740" lat="69.5834138875" lon="20.1366527535">
		<tag k="name" v="Hysebukta" />
		<tag k="natural" v="bay" />
		<tag k="ssr:stedsnr" v="420720" />
	</node>
	<node id="-766736" lat="69.9396388869" lon="20.138152755">
		<tag k="name" v="Sørneset" />
		<tag k="natural" v="cape" />
		<tag k="ssr:stedsnr" v="301823" />
	</node>
	<node id="-766734" lat="69.8433305515" lon="19.9905111031">
		<tag k="name" v="Hesteklipa" />
		<tag k="natural" v="bay" />
		<tag k="ssr:stedsnr" v="301118" />
	</node>
	<node id="-766733" lat="69.844619448" lon="19.9913610993">
		<tag k="name" v="Oterhollet" />
		<tag k="natural" v="bay" />
		<tag k="ssr:stedsnr" v="301117" />
	</node>
	<node id="-766732" lat="69.6823916653" lon="20.3470860835">
		<tag k="name" v="Bertholmsnaget" />
		<tag k="natural" v="cape" />
		<tag k="ssr:stedsnr" v="301111" />
	</node>
	<node id="-766725" lat="69.9695666703" lon="20.2533638853">
		<tag k="name" v="Gamneset" />
		<tag k="natural" v="cape" />
		<tag k="ssr:stedsnr" v="301046" />
	</node>
	<node id="-766723" lat="69.6778611094" lon="20.3765610819">
		<tag k="fixme" v="consider seamark:type=rock or natural=shoal" />
		<tag k="name" v="Karlskjæran" />
		<tag k="place" v="islet" />
		<tag k="ssr:stedsnr" v="301007" />
	</node>
	<node id="-766719" lat="69.5933611113" lon="20.3197694155">
		<tag k="fixme" v="consider seamark:type=rock or natural=shoal" />
		<tag k="name" v="Strandskjæret" />
		<tag k="place" v="islet" />
		<tag k="ssr:stedsnr" v="299949" />
	</node>
	<node id="-766717" lat="69.6574222205" lon="20.2754722024">
		<tag k="name" v="Fastdalsøra" />
		<tag k="natural" v="cape" />
		<tag k="ssr:stedsnr" v="299896" />
	</node>
	<node id="-766715" lat="69.6674138915" lon="20.3737749834">
		<tag k="name" v="Ytre Moltebærnesbukta" />
		<tag k="natural" v="bay" />
		<tag k="ssr:stedsnr" v="299880" />
	</node>
	<node id="-766709" lat="69.559641664" lon="20.2232638731">
		<tag k="name" v="Karnesbukta" />
		<tag k="natural" v="bay" />
		<tag k="ssr:stedsnr" v="299768" />
	</node>
	<node id="-766695" lat="69.4629305577" lon="20.1923805531">
		<tag k="name" v="Kiholmen - Čohkkasuolu" />
		<tag k="name:no" v="Kiholmen" />
		<tag k="name:se" v="Čohkkasuolu" />
		<tag k="place" v="islet" />
		<tag k="ssr:stedsnr" v="299572" />
	</node>
	<node id="-766693" lat="69.4602472246" lon="20.169111107">
		<tag k="name" v="Innerlaneset" />
		<tag k="natural" v="cape" />
		<tag k="ssr:stedsnr" v="299567" />
	</node>
	<node id="-766684" lat="69.7244083346" lon="19.8189194303">
		<tag k="name" v="Storsteinneset" />
		<tag k="natural" v="cape" />
		<tag k="ssr:stedsnr" v="299209" />
	</node>
	<node id="-766683" lat="69.7808111085" lon="19.8781166493">
		<tag k="name" v="Laupvika" />
		<tag k="natural" v="bay" />
		<tag k="ssr:stedsnr" v="299131" />
	</node>
	<node id="-766676" lat="69.5963444425" lon="19.9636361041">
		<tag k="fixme" v="consider seamark:type=rock or natural=shoal" />
		<tag k="name" v="Skjæret" />
		<tag k="place" v="islet" />
		<tag k="ssr:stedsnr" v="299089" />
	</node>
	<node id="-766675" lat="69.7835361114" lon="19.901419444">
		<tag k="fixme" v="consider seamark:type=rock or natural=shoal" />
		<tag k="name" v="Marenskjæret" />
		<tag k="place" v="islet" />
		<tag k="ssr:stedsnr" v="299072" />
	</node>
	<node id="-766669" lat="69.5303861149" lon="20.2582777541">
		<tag k="name" v="Båen" />
		<tag k="natural" v="shoal" />
		<tag k="place" v="locality" />
		<tag k="ssr:stedsnr" v="269264" />
	</node>
	<node id="-766668" lat="69.6686055587" lon="20.2998499941">
		<tag k="name" v="Sommarsætgrunnen" />
		<tag k="natural" v="shoal" />
		<tag k="place" v="locality" />
		<tag k="ssr:stedsnr" v="269235" />
	</node>
	<node id="-766667" lat="69.582566671" lon="20.3004138701">
		<tag k="fixme" v="consider seamark:type=rock or natural=shoal" />
		<tag k="name" v="Tareskjæret" />
		<tag k="place" v="islet" />
		<tag k="ssr:stedsnr" v="269233" />
	</node>
	<node id="-766666" lat="69.5808333301" lon="20.3087666476">
		<tag k="name" v="Kvitberggrunnen" />
		<tag k="natural" v="shoal" />
		<tag k="place" v="locality" />
		<tag k="ssr:stedsnr" v="269223" />
	</node>
	<node id="-766665" lat="69.567377782" lon="20.3264999896">
		<tag k="name" v="Nortasbakken" />
		<tag k="natural" v="shoal" />
		<tag k="place" v="locality" />
		<tag k="ssr:stedsnr" v="269219" />
	</node>
	<node id="-766664" lat="69.5788805538" lon="20.2806305374">
		<tag k="loc_name" v="Soalpemađđi" />
		<tag k="name" v="Solpegrunnen" />
		<tag k="natural" v="shoal" />
		<tag k="place" v="locality" />
		<tag k="ssr:stedsnr" v="269216" />
	</node>
	<node id="-766663" lat="69.568141664" lon="20.2371499717">
		<tag k="name" v="Figenschougrunnen" />
		<tag k="natural" v="shoal" />
		<tag k="place" v="locality" />
		<tag k="ssr:stedsnr" v="269217" />
	</node>
	<node id="-766662" lat="69.5802250001" lon="20.269747211">
		<tag k="fixme" v="consider seamark:type=rock or natural=shoal" />
		<tag k="name" v="Nesseskjæret" />
		<tag k="place" v="islet" />
		<tag k="ssr:stedsnr" v="269215" />
	</node>
	<node id="-766661" lat="69.5554972217" lon="20.235316662">
		<tag k="name" v="Karnesbukta" />
		<tag k="natural" v="bay" />
		<tag k="ssr:stedsnr" v="269210" />
	</node>
	<node id="-768679" lat="69.4698944446" lon="20.2375999901">
		<tag k="name" v="Innerneset" />
		<tag k="natural" v="cape" />
		<tag k="ssr:stedsnr" v="968817" />
	</node>
	<node id="-768678" lat="69.945844448" lon="20.3389027756">
		<tag k="name" v="Nova" />
		<tag k="natural" v="cape" />
		<tag k="ssr:stedsnr" v="968230" />
	</node>
	<node id="-768666" lat="69.6787944412" lon="20.3492361045">
		<tag k="name" v="Vågen" />
		<tag k="natural" v="bay" />
		<tag k="ssr:stedsnr" v="968007" />
	</node>
	<node id="-768662" lat="69.6057222189" lon="20.3282222163">
		<tag k="name" v="Rommenarko" />
		<tag k="name:se" v="Rommenarko" />
		<tag k="natural" v="bay" />
		<tag k="ssr:stedsnr" v="967991" />
	</node>
	<node id="-768656" lat="69.5909194491" lon="20.3151722081">
		<tag k="name" v="Ajelsnauset" />
		<tag k="natural" v="bay" />
		<tag k="ssr:stedsnr" v="967939" />
	</node>
	<node id="-768634" lat="69.8252444415" lon="19.9468416408">
		<tag k="name" v="Ravikneset" />
		<tag k="natural" v="cape" />
		<tag k="ssr:stedsnr" v="966902" />
	</node>
	<node id="-768632" lat="69.6526111084" lon="20.2855333275">
		<tag k="fixme" v="consider seamark:type=rock or natural=shoal" />
		<tag k="name" v="Herreskjæret" />
		<tag k="place" v="islet" />
		<tag k="ssr:stedsnr" v="966897" />
	</node>
	<node id="-768626" lat="69.8610583338" lon="20.0598833134">
		<tag k="name" v="Langbukta" />
		<tag k="natural" v="bay" />
		<tag k="ssr:stedsnr" v="966707" />
	</node>
	<node id="-768619" lat="69.4653138903" lon="20.1707805353">
		<tag k="name" v="Ytre Lanesbukt" />
		<tag k="natural" v="bay" />
		<tag k="ssr:stedsnr" v="966583" />
	</node>
	<node id="-768607" lat="69.8629583372" lon="19.9897527759">
		<tag k="name" v="Seiskallen" />
		<tag k="natural" v="shoal" />
		<tag k="ssr:stedsnr" v="936514" />
	</node>
	<node id="-768606" lat="69.8692527788" lon="20.0703083301">
		<tag k="name" v="Storskabergneset" />
		<tag k="natural" v="cape" />
		<tag k="ssr:stedsnr" v="936465" />
	</node>
	<node id="-768605" lat="69.7086416639" lon="20.4112110925">
		<tag k="name" v="Litlegrunnen" />
		<tag k="natural" v="shoal" />
		<tag k="place" v="locality" />
		<tag k="ssr:stedsnr" v="936189" />
	</node>
	<node id="-768604" lat="69.6862527817" lon="20.3684416613">
		<tag k="loc_name:se" v="Gutnar" />
		<tag k="name" v="Gunnargrunnen" />
		<tag k="name:no" v="Gunnargrunnen" />
		<tag k="natural" v="shoal" />
		<tag k="place" v="locality" />
		<tag k="ssr:stedsnr" v="936188" />
	</node>
	<node id="-768603" lat="69.6539555537" lon="20.2991999709">
		<tag k="loc_name:se" v="Hearraboađđu" />
		<tag k="name" v="Herrebåen" />
		<tag k="name:no" v="Herrebåen" />
		<tag k="natural" v="shoal" />
		<tag k="place" v="locality" />
		<tag k="ssr:stedsnr" v="936185" />
	</node>
	<node id="-768602" lat="69.5659749988" lon="20.3090416459">
		<tag k="name" v="Nortasgrunnen" />
		<tag k="natural" v="shoal" />
		<tag k="place" v="locality" />
		<tag k="ssr:stedsnr" v="936174" />
	</node>
	<node id="-768601" lat="69.4937888864" lon="20.271566641">
		<tag k="name" v="Saljatjorro" />
		<tag k="name:se" v="Saljatjorro" />
		<tag k="natural" v="shoal" />
		<tag k="place" v="locality" />
		<tag k="ssr:stedsnr" v="935571" />
	</node>
	<node id="-768600" lat="69.7713083322" lon="19.8515888799">
		<tag k="name" v="Flaskeforodden" />
		<tag k="natural" v="cape" />
		<tag k="ssr:stedsnr" v="935222" />
	</node>
	<node id="-768598" lat="69.4595416673" lon="20.210205549">
		<tag k="name" v="Sandvika - Hietalahti" />
		<tag k="name:fkv" v="Hietalahti" />
		<tag k="name:no" v="Sandvika" />
		<tag k="natural" v="bay" />
		<tag k="ssr:stedsnr" v="935126" />
	</node>
	<node id="-768597" lat="69.499138889" lon="20.2159222135">
		<tag k="fixme" v="consider seamark:type=rock or natural=shoal" />
		<tag k="name" v="Kristoskjæret - Kristanlaassa" />
		<tag k="name:fkv" v="Kristanlaassa" />
		<tag k="name:no" v="Kristoskjæret" />
		<tag k="place" v="islet" />
		<tag k="ssr:stedsnr" v="935010" />
	</node>
	<node id="-768590" lat="69.6004722203" lon="19.9523749984">
		<tag k="alt_name" v="Ol-Pålsabukta" />
		<tag k="name" v="Ola Pålsabukta" />
		<tag k="natural" v="bay" />
		<tag k="ssr:stedsnr" v="929974" />
	</node>
	<node id="-768589" lat="69.5343861096" lon="20.269055548">
		<tag k="name" v="Larsholmen" />
		<tag k="place" v="islet" />
		<tag k="ssr:stedsnr" v="929941" />
	</node>
	<node id="-768576" lat="69.8584833321" lon="20.0582027516">
		<tag k="name" v="Bærneset" />
		<tag k="natural" v="cape" />
		<tag k="ssr:stedsnr" v="929682" />
	</node>
	<node id="-768570" lat="69.491499997" lon="20.1936583191">
		<tag k="name" v="Polleidet - Taipale" />
		<tag k="name:fkv" v="Taipale" />
		<tag k="name:no" v="Polleidet" />
		<tag k="place" v="locality" />
		<tag k="ssr:stedsnr" v="929257" />
	</node>
	<node id="-768559" lat="69.9434388936" lon="20.1580888709">
		<tag k="name" v="Nesekvalen" />
		<tag k="natural" v="bay" />
		<tag k="ssr:stedsnr" v="908857" />
	</node>
	<node id="-768557" lat="69.6723833363" lon="20.2698027662">
		<tag k="loc_name:se" v="Skihpageađgi" />
		<tag k="name" v="Skipssteinen" />
		<tag k="name:no" v="Skipssteinen" />
		<tag k="natural" v="cape" />
		<tag k="ssr:stedsnr" v="908129" />
	</node>
	<node id="-768539" lat="69.6608666634" lon="20.3688110847">
		<tag k="name" v="Tjuvbukta" />
		<tag k="natural" v="bay" />
		<tag k="ssr:stedsnr" v="906888" />
	</node>
	<node id="-768537" lat="69.5466166705" lon="20.2368138773">
		<tag k="name" v="Olderholmen" />
		<tag k="natural" v="cape" />
		<tag k="ssr:stedsnr" v="906827" />
	</node>
	<node id="-768533" lat="69.5842888854" lon="20.1070249768">
		<tag k="fixme" v="consider seamark:type=rock or natural=shoal" />
		<tag k="name" v="Skjæret" />
		<tag k="place" v="islet" />
		<tag k="ssr:stedsnr" v="906728" />
	</node>
	<node id="-768529" lat="69.9193777791" lon="20.1173749997">
		<tag k="name" v="Bomsteinlandet" />
		<tag k="natural" v="beach" />
		<tag k="place" v="locality" />
		<tag k="ssr:stedsnr" v="906669" />
	</node>
	<node id="-768524" lat="69.5269861158" lon="20.2246277548">
		<tag k="name" v="Oksvikleira" />
		<tag k="natural" v="bay" />
		<tag k="ssr:stedsnr" v="906593" />
	</node>
	<node id="-768520" lat="69.6901194419" lon="19.7716666539">
		<tag k="fixme" v="consider seamark:type=rock or natural=shoal" />
		<tag k="name" v="Skjellsteinen" />
		<tag k="place" v="islet" />
		<tag k="ssr:stedsnr" v="906304" />
	</node>
	<node id="-768511" lat="69.7193777758" lon="19.8115777534">
		<tag k="name" v="Langstranda" />
		<tag k="natural" v="beach" />
		<tag k="place" v="locality" />
		<tag k="ssr:stedsnr" v="906122" />
	</node>
	<node id="-768510" lat="69.5871888917" lon="20.0337444414">
		<tag k="name" v="Korkorneset" />
		<tag k="natural" v="cape" />
		<tag k="ssr:stedsnr" v="906100" />
	</node>
	<node id="-768496" lat="69.4114250028" lon="20.1548138724">
		<tag k="name" v="Bergodden - Orritgeahči" />
		<tag k="name:no" v="Bergodden" />
		<tag k="name:se" v="Orritgeahči" />
		<tag k="natural" v="cape" />
		<tag k="ssr:stedsnr" v="876034" />
	</node>
	<node id="-768495" lat="70.0076388899" lon="20.2231444314">
		<tag k="name" v="Karlsøygrunnen" />
		<tag k="natural" v="shoal" />
		<tag k="ssr:stedsnr" v="875859" />
	</node>
	<node id="-768494" lat="69.8591694413" lon="20.3728027526">
		<tag k="name" v="Skaia" />
		<tag k="natural" v="bay" />
		<tag k="ssr:stedsnr" v="875685" />
	</node>
	<node id="-768493" lat="69.8422361103" lon="19.9580333144">
		<tag k="name" v="Vengsteinhallet" />
		<tag k="place" v="locality" />
		<tag k="ssr:stedsnr" v="875519" />
	</node>
	<node id="-768492" lat="69.5370305528" lon="20.2331833275">
		<tag k="fixme" v="multiple name tags, choose one and add the other to alt_name" />
		<tag k="name" v="Kobbeleira;Oksevika" />
		<tag k="natural" v="bay" />
		<tag k="ssr:stedsnr" v="875239" />
	</node>
	<node id="-768491" lat="69.704897224" lon="20.4016277547">
		<tag k="loc_name:se" v="Jáhkin" />
		<tag k="name" v="Jakin" />
		<tag k="name:no" v="Jakin" />
		<tag k="natural" v="shoal" />
		<tag k="place" v="locality" />
		<tag k="ssr:stedsnr" v="875213" />
	</node>
	<node id="-768489" lat="69.9082249989" lon="20.3682055486">
		<tag k="name" v="Skipperneset" />
		<tag k="natural" v="cape" />
		<tag k="ssr:stedsnr" v="869759" />
	</node>
	<node id="-768488" lat="69.8456055544" lon="19.9897805324">
		<tag k="name" v="Nesodden" />
		<tag k="natural" v="cape" />
		<tag k="ssr:stedsnr" v="869732" />
	</node>
	<node id="-768486" lat="69.8937972204" lon="20.3892583038">
		<tag k="name" v="Tromma" />
		<tag k="natural" v="cape" />
		<tag k="ssr:stedsnr" v="869721" />
	</node>
	<node id="-768483" lat="69.8258944437" lon="20.3545416453">
		<tag k="name" v="Grasneset" />
		<tag k="natural" v="cape" />
		<tag k="ssr:stedsnr" v="869699" />
	</node>
	<node id="-768480" lat="69.9683027781" lon="20.3066444174">
		<tag k="name" v="Makkhellarvika" />
		<tag k="natural" v="bay" />
		<tag k="ssr:stedsnr" v="869678" />
	</node>
	<node id="-768479" lat="69.9419611119" lon="20.1546222022">
		<tag k="name" v="Nordlenangsneset" />
		<tag k="natural" v="cape" />
		<tag k="ssr:stedsnr" v="869675" />
	</node>
	<node id="-768465" lat="69.5504638922" lon="20.270480553">
		<tag k="name" v="Isakholmen" />
		<tag k="place" v="islet" />
		<tag k="ssr:stedsnr" v="868888" />
	</node>
	<node id="-768457" lat="69.4686472251" lon="20.1804833296">
		<tag k="name" v="Pollen - Vuoivuotna - Voivuono" />
		<tag k="name:fkv" v="Voivuono" />
		<tag k="name:no" v="Pollen" />
		<tag k="name:se" v="Vuoivuotna" />
		<tag k="natural" v="bay" />
		<tag k="ssr:stedsnr" v="868299" />
	</node>
	<node id="-768456" lat="69.4618583372" lon="20.1682861019">
		<tag k="name" v="Lanes" />
		<tag k="natural" v="cape" />
		<tag k="ssr:stedsnr" v="868287" />
	</node>
	<node id="-768429" lat="69.5861416713" lon="20.3061277659">
		<tag k="name" v="Styrmannsneset" />
		<tag k="natural" v="cape" />
		<tag k="ssr:stedsnr" v="846949" />
	</node>
	<node id="-768428" lat="69.5989000005" lon="20.3194916614">
		<tag k="loc_name:se" v="Sovttaluokta" />
		<tag k="name" v="Seljevika" />
		<tag k="name:no" v="Seljevika" />
		<tag k="natural" v="bay" />
		<tag k="ssr:stedsnr" v="846945" />
	</node>
	<node id="-768425" lat="69.6600277807" lon="20.3381583154">
		<tag k="fixme" v="consider seamark:type=rock or natural=shoal" />
		<tag k="name" v="Makkeskjæret" />
		<tag k="place" v="islet" />
		<tag k="ssr:stedsnr" v="846898" />
	</node>
	<node id="-768424" lat="69.6777083293" lon="20.3490111016">
		<tag k="name" v="Stranda" />
		<tag k="natural" v="beach" />
		<tag k="place" v="locality" />
		<tag k="ssr:stedsnr" v="847003" />
	</node>
	<node id="-768420" lat="69.8561194455" lon="20.1954388871">
		<tag k="name" v="Nordlenangsbotn" />
		<tag k="natural" v="bay" />
		<tag k="ssr:stedsnr" v="846625" />
	</node>
	<node id="-768418" lat="69.6478805554" lon="19.8146833168">
		<tag k="name" v="Kvalvika" />
		<tag k="natural" v="bay" />
		<tag k="ssr:stedsnr" v="846280" />
	</node>
	<node id="-768415" lat="69.6881749965" lon="19.7720583147">
		<tag k="name" v="Klipa" />
		<tag k="natural" v="bay" />
		<tag k="ssr:stedsnr" v="846241" />
	</node>
	<node id="-768408" lat="69.6397222222" lon="20.3380944386">
		<tag k="name" v="Geitvika" />
		<tag k="natural" v="bay" />
		<tag k="ssr:stedsnr" v="846058" />
	</node>
	<node id="-768400" lat="69.446866664" lon="20.1560749805">
		<tag k="fixme" v="consider seamark:type=rock or natural=shoal" />
		<tag k="name" v="Riifulássa" />
		<tag k="name:se" v="Riifulássa" />
		<tag k="place" v="islet" />
		<tag k="ssr:stedsnr" v="845646" />
	</node>
	<node id="-768389" lat="69.7711833371" lon="19.9587861041">
		<tag k="loc_name" v="Ittarvuotna" />
		<tag k="name" v="Lenangsbotn" />
		<tag k="natural" v="bay" />
		<tag k="ssr:stedsnr" v="845050" />
	</node>
	<node id="-768385" lat="69.6212805544" lon="19.8371694238">
		<tag k="name" v="Dáktenjárga" />
		<tag k="name:se" v="Dáktenjárga" />
		<tag k="natural" v="cape" />
		<tag k="ssr:stedsnr" v="829003" />
	</node>
	<node id="-768383" lat="69.5373555527" lon="20.2755166491">
		<tag k="loc_name:se" v="Gárnjárggasullot" />
		<tag k="name" v="Karnesholman" />
		<tag k="name:no" v="Karnesholman" />
		<tag k="place" v="islet" />
		<tag k="ssr:stedsnr" v="815235" />
	</node>
	<node id="-768382" lat="69.9017805584" lon="20.3821416486">
		<tag k="name" v="Gammvikgrunnen" />
		<tag k="natural" v="shoal" />
		<tag k="ssr:stedsnr" v="814727" />
	</node>
	<node id="-768381" lat="69.8558361147" lon="19.9739361108">
		<tag k="name" v="Gammelgårdbakken" />
		<tag k="place" v="locality" />
		<tag k="ssr:stedsnr" v="814536" />
	</node>
	<node id="-768380" lat="69.9248999985" lon="20.1867416511">
		<tag k="name" v="Knutneset" />
		<tag k="natural" v="cape" />
		<tag k="ssr:stedsnr" v="814519" />
	</node>
	<node id="-768379" lat="69.8826027794" lon="20.1853833305">
		<tag k="name" v="Risneset" />
		<tag k="natural" v="cape" />
		<tag k="ssr:stedsnr" v="814502" />
	</node>
	<node id="-768378" lat="69.9026611088" lon="20.1565749821">
		<tag k="name" v="Ytterholmen" />
		<tag k="place" v="islet" />
		<tag k="ssr:stedsnr" v="814500" />
	</node>
	<node id="-768377" lat="69.8955555573" lon="20.3867305328">
		<tag k="name" v="Gamvikbukta" />
		<tag k="natural" v="bay" />
		<tag k="ssr:stedsnr" v="814498" />
	</node>
	<node id="-768376" lat="69.9434749969" lon="20.2045721933">
		<tag k="name" v="Mannbukta" />
		<tag k="natural" v="bay" />
		<tag k="ssr:stedsnr" v="814492" />
	</node>
	<node id="-768373" lat="69.7667861153" lon="19.8461111064">
		<tag k="name" v="Finnvika" />
		<tag k="natural" v="bay" />
		<tag k="ssr:stedsnr" v="814300" />
	</node>
	<node id="-768372" lat="69.6871444419" lon="20.3923194366">
		<tag k="loc_name:se" v="Uhcabuođoš" />
		<tag k="name" v="Litlegrunnen" />
		<tag k="name:no" v="Litlegrunnen" />
		<tag k="natural" v="shoal" />
		<tag k="place" v="locality" />
		<tag k="ssr:stedsnr" v="814250" />
	</node>
	<node id="-768371" lat="69.5002416654" lon="20.2256805511">
		<tag k="name" v="Kvalvika - Goalsevuohppi - Kolsevuopio" />
		<tag k="name:fkv" v="Kolsevuopio" />
		<tag k="name:no" v="Kvalvika" />
		<tag k="name:se" v="Goalsevuohppi" />
		<tag k="natural" v="bay" />
		<tag k="ssr:stedsnr" v="814150" />
	</node>
	<node id="-768369" lat="69.4513083345" lon="20.1606249898">
		<tag k="name" v="Steinneset" />
		<tag k="natural" v="cape" />
		<tag k="ssr:stedsnr" v="813944" />
	</node>
	<node id="-768368" lat="69.4274027758" lon="20.1652805371">
		<tag k="fixme" v="consider seamark:type=rock or natural=shoal" />
		<tag k="name" v="Kvitebergskjæret" />
		<tag k="place" v="islet" />
		<tag k="ssr:stedsnr" v="813931" />
	</node>
	<node id="-768365" lat="69.6053999994" lon="20.3378027732">
		<tag k="name" v="Rokkasundet" />
		<tag k="natural" v="strait" />
		<tag k="ssr:stedsnr" v="808995" />
	</node>
	<node id="-768364" lat="69.9046750033" lon="20.3711305322">
		<tag k="alt_name:no" v="Gammvika, yt;Ytre Gammvika" />
		<tag k="loc_name:se" v="Olggut Skárraviika" />
		<tag k="name" v="Ytre Gamvik" />
		<tag k="name:no" v="Ytre Gamvik" />
		<tag k="natural" v="bay" />
		<tag k="ssr:stedsnr" v="808756" />
	</node>
	<node id="-768361" lat="69.909000002" lon="20.1615833304">
		<tag k="name" v="Hamneneset" />
		<tag k="natural" v="cape" />
		<tag k="ssr:stedsnr" v="808749" />
	</node>
	<node id="-768359" lat="69.915408329" lon="20.1738527735">
		<tag k="alt_name:no" v="Nordlenangen" />
		<tag k="bay" v="fjord" />
		<tag k="name" v="Nord-Lenangen - Davit Ittarvuotna" />
		<tag k="name:no" v="Nord-Lenangen" />
		<tag k="name:se" v="Davit Ittarvuotna" />
		<tag k="natural" v="bay" />
		<tag k="ssr:stedsnr" v="808740" />
	</node>
	<node id="-768355" lat="69.8643361129" lon="20.0661416589">
		<tag k="name" v="Slettvollneset" />
		<tag k="natural" v="cape" />
		<tag k="ssr:stedsnr" v="808692" />
	</node>
	<node id="-768353" lat="69.8767055584" lon="20.1750360912">
		<tag k="name" v="Sommarneset" />
		<tag k="natural" v="cape" />
		<tag k="ssr:stedsnr" v="808682" />
	</node>
	<node id="-768349" lat="69.8334555606" lon="19.9897944219">
		<tag k="name" v="Kvalneset" />
		<tag k="natural" v="cape" />
		<tag k="ssr:stedsnr" v="808653" />
	</node>
	<node id="-768346" lat="69.7767944485" lon="19.9594555323">
		<tag k="alt_name" v="Engeneset" />
		<tag k="name" v="Engneset" />
		<tag k="natural" v="cape" />
		<tag k="ssr:stedsnr" v="808633" />
	</node>
	<node id="-768340" lat="69.7438972197" lon="19.8440222083">
		<tag k="alt_name" v="Finngammbukta" />
		<tag k="name" v="Finngambukta" />
		<tag k="natural" v="bay" />
		<tag k="ssr:stedsnr" v="808081" />
	</node>
	<node id="-768337" lat="69.5841083341" lon="20.1180499743">
		<tag k="name" v="Rørnes" />
		<tag k="natural" v="cape" />
		<tag k="ssr:stedsnr" v="807950" />
	</node>
	<node id="-768336" lat="69.586927777" lon="20.060424992">
		<tag k="alt_name" v="Kvitberg" />
		<tag k="name" v="Kviteberg" />
		<tag k="natural" v="cape" />
		<tag k="ssr:stedsnr" v="807948" />
	</node>
	<node id="-768331" lat="69.5652527819" lon="20.2538333116">
		<tag k="alt_name" v="Roankaholmen" />
		<tag k="name" v="Ronka" />
		<tag k="place" v="islet" />
		<tag k="ssr:stedsnr" v="807914" />
	</node>
	<node id="-768330" lat="69.5646361088" lon="20.3059333068">
		<tag k="fixme" v="multiple name tags, choose one and add the other to alt_name" />
		<tag k="name" v="Nortas;Ytre Nortasholmen - Uhca Nuorttaš" />
		<tag k="name:no" v="Nortas;Ytre Nortasholmen" />
		<tag k="name:se" v="Uhca Nuorttaš" />
		<tag k="place" v="islet" />
		<tag k="ssr:stedsnr" v="807913" />
	</node>
	<node id="-768324" lat="69.6542249999" lon="20.343719437">
		<tag k="fixme" v="multiple name tags, choose one and add the other to alt_name" />
		<tag k="loc_name:se" v="Buŋkesuolu" />
		<tag k="name" v="Bonken;Bunkholmen" />
		<tag k="name:no" v="Bonken;Bunkholmen" />
		<tag k="place" v="islet" />
		<tag k="ssr:stedsnr" v="807060" />
	</node>
	<node id="-768311" lat="69.9064833309" lon="20.1567666429">
		<tag k="name" v="Hamnebukta" />
		<tag k="natural" v="bay" />
		<tag k="ssr:stedsnr" v="786864" />
	</node>
	<node id="-768309" lat="69.4709666707" lon="20.2387388732">
		<tag k="name" v="Lillefjæra" />
		<tag k="natural" v="bay" />
		<tag k="ssr:stedsnr" v="786801" />
	</node>
	<node id="-768306" lat="69.679502777" lon="20.2674944226">
		<tag k="name" v="Henrikneset" />
		<tag k="natural" v="cape" />
		<tag k="ssr:stedsnr" v="786103" />
	</node>
	<node id="-768289" lat="69.6563750049" lon="20.3497416491">
		<tag k="name" v="Holmenden" />
		<tag k="natural" v="cape" />
		<tag k="ssr:stedsnr" v="785900" />
	</node>
	<node id="-768277" lat="69.5941083351" lon="19.9711527678">
		<tag k="name" v="Lillevika" />
		<tag k="natural" v="bay" />
		<tag k="ssr:stedsnr" v="785093" />
	</node>
	<node id="-768268" lat="69.5834500014" lon="20.0906444431">
		<tag k="name" v="Kuvika" />
		<tag k="natural" v="bay" />
		<tag k="ssr:stedsnr" v="784762" />
	</node>
	<node id="-768253" lat="69.5821138871" lon="20.073466649">
		<tag k="name" v="Johamna" />
		<tag k="natural" v="bay" />
		<tag k="ssr:stedsnr" v="784551" />
	</node>
	<node id="-768245" lat="69.7604611073" lon="19.9546805418">
		<tag k="name" v="Hjellneset" />
		<tag k="natural" v="cape" />
		<tag k="ssr:stedsnr" v="784034" />
	</node>
	<node id="-768241" lat="69.5823833375" lon="20.0438111078">
		<tag k="name" v="Rødbergbukta" />
		<tag k="natural" v="bay" />
		<tag k="ssr:stedsnr" v="782225" />
	</node>
	<node id="-768237" lat="69.532063888" lon="20.277899971">
		<tag k="name" v="Holmegrunnen" />
		<tag k="natural" v="shoal" />
		<tag k="place" v="locality" />
		<tag k="ssr:stedsnr" v="754287" />
	</node>
	<node id="-768236" lat="69.6819083344" lon="20.317011104">
		<tag k="name" v="Seigrunnen" />
		<tag k="natural" v="shoal" />
		<tag k="place" v="locality" />
		<tag k="ssr:stedsnr" v="754255" />
	</node>
	<node id="-768235" lat="69.5718972256" lon="20.3055388862">
		<tag k="name" v="Halstema" />
		<tag k="name:se" v="Halstema" />
		<tag k="natural" v="shoal" />
		<tag k="place" v="locality" />
		<tag k="ssr:stedsnr" v="754236" />
	</node>
	<node id="-768234" lat="69.9663666696" lon="20.3137444241">
		<tag k="name" v="Kvalvikneset" />
		<tag k="natural" v="cape" />
		<tag k="ssr:stedsnr" v="753556" />
	</node>
	<node id="-768229" lat="69.4451666638" lon="20.1554777704">
		<tag k="name" v="Lyngdalsbukta - Vuošluokta" />
		<tag k="name:no" v="Lyngdalsbukta" />
		<tag k="name:se" v="Vuošluokta" />
		<tag k="natural" v="bay" />
		<tag k="ssr:stedsnr" v="753150" />
	</node>
	<node id="-768226" lat="69.9016777762" lon="20.1742388868">
		<tag k="name" v="Sandneset" />
		<tag k="natural" v="cape" />
		<tag k="ssr:stedsnr" v="747754" />
	</node>
	<node id="-768216" lat="69.7742111111" lon="20.3114360969">
		<tag k="alt_name:no" v="Landvikshamna" />
		<tag k="loc_name:se" v="Beavžahávna" />
		<tag k="name" v="Landvindshamna" />
		<tag k="name:no" v="Landvindshamna" />
		<tag k="natural" v="bay" />
		<tag k="ssr:stedsnr" v="747639" />
	</node>
	<node id="-768199" lat="69.7140555587" lon="20.273433326">
		<tag k="name" v="Strupen - Oaggovuotna" />
		<tag k="name:no" v="Strupen" />
		<tag k="name:se" v="Oaggovuotna" />
		<tag k="natural" v="bay" />
		<tag k="ssr:stedsnr" v="746027" />
	</node>
	<node id="-768196" lat="69.6993555542" lon="20.2822805361">
		<tag k="loc_name:se" v="Stuoraklubbu" />
		<tag k="name" v="Storklubben" />
		<tag k="name:no" v="Storklubben" />
		<tag k="natural" v="cape" />
		<tag k="ssr:stedsnr" v="746007" />
	</node>
	<node id="-768190" lat="69.6337694482" lon="20.3505360923">
		<tag k="name" v="Langvollbukta" />
		<tag k="natural" v="bay" />
		<tag k="ssr:stedsnr" v="726087" />
	</node>
	<node id="-768187" lat="69.6736416657" lon="20.3799888844">
		<tag k="name" v="Kvenneset" />
		<tag k="natural" v="cape" />
		<tag k="ssr:stedsnr" v="726004" />
	</node>
	<node id="-768185" lat="69.9039388874" lon="20.1346638806">
		<tag k="name" v="Yttereidet" />
		<tag k="place" v="island" />
		<tag k="ssr:stedsnr" v="725802" />
	</node>
	<node id="-768173" lat="69.5479027817" lon="20.2276138823">
		<tag k="name" v="Olderneset" />
		<tag k="natural" v="cape" />
		<tag k="ssr:stedsnr" v="724805" />
	</node>
	<node id="-768172" lat="69.5695222265" lon="20.2496277644">
		<tag k="fixme" v="consider seamark:type=rock or natural=shoal" />
		<tag k="name" v="Støtta" />
		<tag k="place" v="islet" />
		<tag k="ssr:stedsnr" v="724793" />
	</node>
	<node id="-768166" lat="69.5848777786" lon="20.1405749749">
		<tag k="name" v="Kjoskråa" />
		<tag k="natural" v="bay" />
		<tag k="ssr:stedsnr" v="724675" />
	</node>
	<node id="-768144" lat="69.7776972226" lon="19.8680888647">
		<tag k="name" v="Ostesjåen" />
		<tag k="natural" v="cape" />
		<tag k="ssr:stedsnr" v="724126" />
	</node>
	<node id="-768135" lat="69.6590055581" lon="20.319705535">
		<tag k="name" v="Holmsundet" />
		<tag k="natural" v="strait" />
		<tag k="ssr:stedsnr" v="723858" />
	</node>
	<node id="-768125" lat="69.894288889" lon="20.16086943">
		<tag k="fixme" v="multiple name tags, choose one and add the other to alt_name" />
		<tag k="name" v="Holmen;Innerholmen" />
		<tag k="place" v="islet" />
		<tag k="ssr:stedsnr" v="693749" />
	</node>
	<node id="-768124" lat="69.8868361112" lon="20.4318833219">
		<tag k="name" v="Jevvasgrunnen" />
		<tag k="natural" v="shoal" />
		<tag k="ssr:stedsnr" v="693735" />
	</node>
	<node id="-768123" lat="69.5134361157" lon="20.2863861006">
		<tag k="name" v="Innersorra" />
		<tag k="name:se" v="Innersorra" />
		<tag k="natural" v="shoal" />
		<tag k="place" v="locality" />
		<tag k="ssr:stedsnr" v="693270" />
	</node>
	<node id="-768122" lat="69.4152555567" lon="20.1550472127">
		<tag k="name" v="Kabelgrunnen" />
		<tag k="natural" v="shoal" />
		<tag k="place" v="locality" />
		<tag k="ssr:stedsnr" v="692933" />
	</node>
	<node id="-768120" lat="69.4916583361" lon="20.283352766">
		<tag k="name" v="Borri" />
		<tag k="name:se" v="Borri" />
		<tag k="natural" v="shoal" />
		<tag k="place" v="locality" />
		<tag k="ssr:stedsnr" v="692530" />
	</node>
	<node id="-768117" lat="69.7032944421" lon="19.7556805539">
		<tag k="name" v="Nisegrunnen" />
		<tag k="natural" v="shoal" />
		<tag k="place" v="locality" />
		<tag k="ssr:stedsnr" v="692220" />
	</node>
	<node id="-768116" lat="69.9409638871" lon="20.1430360958">
		<tag k="alt_name" v="Kontesundskjeret" />
		<tag k="fixme" v="consider seamark:type=rock or natural=shoal" />
		<tag k="name" v="Kontesundskjæret" />
		<tag k="place" v="islet" />
		<tag k="ssr:stedsnr" v="687734" />
	</node>
	<node id="-768115" lat="69.8426222269" lon="20.0438027563">
		<tag k="alt_name" v="Lankenes" />
		<tag k="name" v="Lankeneset" />
		<tag k="natural" v="cape" />
		<tag k="ssr:stedsnr" v="687727" />
	</node>
	<node id="-768105" lat="69.9636083352" lon="20.2505694247">
		<tag k="alt_name" v="Skjeivågen" />
		<tag k="name" v="Skeivågen" />
		<tag k="natural" v="bay" />
		<tag k="ssr:stedsnr" v="687663" />
	</node>
	<node id="-768093" lat="69.5486944439" lon="20.2765694157">
		<tag k="name" v="Karnesodden" />
		<tag k="natural" v="cape" />
		<tag k="ssr:stedsnr" v="686930" />
	</node>
	<node id="-768091" lat="69.5059749989" lon="20.2192805471">
		<tag k="name" v="Elvenes" />
		<tag k="natural" v="cape" />
		<tag k="ssr:stedsnr" v="686867" />
	</node>
	<node id="-768085" lat="69.6797277808" lon="19.7705694437">
		<tag k="name" v="Ullsneset - Ulsnjárga" />
		<tag k="name:no" v="Ullsneset" />
		<tag k="name:se" v="Ulsnjárga" />
		<tag k="natural" v="cape" />
		<tag k="ssr:stedsnr" v="686240" />
	</node>
	<node id="-768081" lat="69.6729222203" lon="20.3595527687">
		<tag k="alt_name:no" v="Årøyholmen;Årøy" />
		<tag k="name" v="Årøya - Vuorri" />
		<tag k="name:no" v="Årøya" />
		<tag k="name:se" v="Vuorri" />
		<tag k="place" v="island" />
		<tag k="ssr:stedsnr" v="686049" />
	</node>
	<node id="-768071" lat="69.584880555" lon="20.2916027628">
		<tag k="alt_name" v="Einarbukta" />
		<tag k="name" v="Einarvika" />
		<tag k="natural" v="bay" />
		<tag k="ssr:stedsnr" v="685946" />
	</node>
	<node id="-768063" lat="69.9432749985" lon="20.1844583105">
		<tag k="bay" v="fjord" />
		<tag k="name" v="Vågkjeften" />
		<tag k="natural" v="bay" />
		<tag k="ssr:stedsnr" v="665843" />
	</node>
	<node id="-768062" lat="69.6723694481" lon="20.3340583171">
		<tag k="name" v="Sommarsetneset" />
		<tag k="natural" v="cape" />
		<tag k="ssr:stedsnr" v="665120" />
	</node>
	<node id="-768049" lat="69.5842611108" lon="20.2692999755">
		<tag k="name" v="Leirkjosen" />
		<tag k="natural" v="bay" />
		<tag k="ssr:stedsnr" v="663959" />
	</node>
	<node id="-768048" lat="69.5878194408" lon="20.2818444261">
		<tag k="name" v="Jonsabukta" />
		<tag k="natural" v="bay" />
		<tag k="ssr:stedsnr" v="663958" />
	</node>
	<node id="-768039" lat="69.6688472214" lon="20.3393277642">
		<tag k="name" v="Einebukta" />
		<tag k="natural" v="bay" />
		<tag k="ssr:stedsnr" v="663898" />
	</node>
	<node id="-768038" lat="69.6639416639" lon="20.3733860983">
		<tag k="name" v="Indre Moltebærnesbukta" />
		<tag k="natural" v="bay" />
		<tag k="ssr:stedsnr" v="663893" />
	</node>
	<node id="-768025" lat="69.4335527789" lon="20.1533083303">
		<tag k="name" v="Vollneset" />
		<tag k="natural" v="cape" />
		<tag k="ssr:stedsnr" v="663616" />
	</node>
	<node id="-768017" lat="69.5825166683" lon="20.0784305382">
		<tag k="name" v="Hellarvika" />
		<tag k="natural" v="bay" />
		<tag k="ssr:stedsnr" v="663503" />
	</node>
</osm>
