<?xml version="1.0" encoding="UTF-8"?>
<osm generator="osmapis" version="0.6">
	<node id="-588127" lat="62.7656361132" lon="6.46812500753">
		<tag k="name" v="Vølen" />
		<tag k="ssr:stedsnr" v="760147" />
		<tag k="waterway" v="stream" />
	</node>
	<node id="-588213" lat="62.7421055516" lon="6.46394444216">
		<tag k="name" v="Kvitsteinsgrova" />
		<tag k="ssr:stedsnr" v="821453" />
		<tag k="waterway" v="stream" />
	</node>
	<node id="-587356" lat="62.7365361083" lon="6.44685278075">
		<tag k="name" v="Lomstjørna" />
		<tag k="natural" v="water" />
		<tag k="ssr:stedsnr" v="274715" />
	</node>
	<node id="-587355" lat="62.7340777749" lon="6.43369722405">
		<tag k="name" v="Kvennhuselva" />
		<tag k="ssr:stedsnr" v="274702" />
		<tag k="waterway" v="stream" />
	</node>
	<node id="-587354" lat="62.7284361117" lon="6.46209444916">
		<tag k="name" v="Sikå" />
		<tag k="ssr:stedsnr" v="274700" />
		<tag k="waterway" v="stream" />
	</node>
	<node id="-587576" lat="62.7730972182" lon="6.43407499294">
		<tag k="name" v="Elva" />
		<tag k="ssr:stedsnr" v="32107" />
		<tag k="waterway" v="stream" />
	</node>
	<node id="-587639" lat="62.743091663" lon="6.47673333992">
		<tag k="name" v="Kvitsteingrova" />
		<tag k="ssr:stedsnr" v="92460" />
		<tag k="waterway" v="stream" />
	</node>
	<node id="-588341" lat="62.7726861103" lon="6.43708611254">
		<tag k="name" v="Selviktjørna" />
		<tag k="natural" v="water" />
		<tag k="ssr:stedsnr" v="942120" />
	</node>
	<node id="-587764" lat="62.7402888857" lon="6.47405277351">
		<tag k="name" v="Svartsteinsgrova" />
		<tag k="ssr:stedsnr" v="214449" />
		<tag k="waterway" v="stream" />
	</node>
	<node id="-587762" lat="62.7516444419" lon="6.46023888173">
		<tag k="name" v="Nørde Løken" />
		<tag k="ssr:stedsnr" v="214438" />
		<tag k="waterway" v="stream" />
	</node>
	<node id="-587824" lat="62.7571861073" lon="6.46282500244">
		<tag k="name" v="Lomtjørna" />
		<tag k="natural" v="water" />
		<tag k="ssr:stedsnr" v="437077" />
	</node>
	<node id="-588133" lat="62.7446222185" lon="6.47125556264">
		<tag k="name" v="Søre Malegrova" />
		<tag k="ssr:stedsnr" v="760451" />
		<tag k="waterway" v="stream" />
	</node>
	<node id="-588138" lat="62.7385750045" lon="6.43279444163">
		<tag k="name" v="Kvennhuselva" />
		<tag k="ssr:stedsnr" v="760735" />
		<tag k="waterway" v="stream" />
	</node>
	<node id="-587959" lat="62.7793222194" lon="6.63572777751">
		<tag k="name" v="Synnatjørna" />
		<tag k="natural" v="water" />
		<tag k="ssr:stedsnr" v="577870" />
	</node>
	<node id="-587509" lat="62.7745694483" lon="6.4508388876">
		<tag k="name" v="Vågsløken" />
		<tag k="ssr:stedsnr" v="396124" />
		<tag k="waterway" v="stream" />
	</node>
	<node id="-587909" lat="62.749158335" lon="6.48196388097">
		<tag k="name" v="Malegrova" />
		<tag k="ssr:stedsnr" v="517460" />
		<tag k="waterway" v="stream" />
	</node>
	<node id="-588132" lat="62.7513694431" lon="6.45323055554">
		<tag k="name" v="Søre Løken" />
		<tag k="ssr:stedsnr" v="760357" />
		<tag k="waterway" v="stream" />
	</node>
	<node id="-588067" lat="62.8203444415" lon="6.58300554902">
		<tag k="name" v="Stortjørna" />
		<tag k="natural" v="water" />
		<tag k="ssr:stedsnr" v="699069" />
	</node>
</osm>
