<?xml version="1.0" encoding="UTF-8"?>
<osm generator="osmapis" version="0.6">
	<node id="-588959" lat="62.7309638854" lon="6.44034444954">
		<tag k="fixme" v="verify maritime location" />
		<tag k="mooring" v="yes" />
		<tag k="name" v="Jaktestøa" />
		<tag k="place" v="locality" />
		<tag k="ssr:stedsnr" v="699718" />
	</node>
	<node id="-588799" lat="62.7351583353" lon="6.45260278379">
		<tag k="highway" v="path" />
		<tag k="name" v="Rekstien" />
		<tag k="ssr:stedsnr" v="517753" />
	</node>
	<node id="-588891" lat="62.820438886" lon="6.5761388812">
		<tag k="bridge" v="yes" />
		<tag k="layer" v="1" />
		<tag k="name" v="Sandøybrua" />
		<tag k="ssr:stedsnr" v="633324" />
	</node>
	<node id="-588921" lat="62.7263555512" lon="6.45592221891">
		<tag k="leisure" v="marina" />
		<tag k="name" v="Myklebusthamna" />
		<tag k="ssr:stedsnr" v="678810" />
	</node>
	<node id="-588472" lat="62.8042361121" lon="6.50912499099">
		<tag k="amenity" v="ferry_terminal" />
		<tag k="name" v="Finnøya ferjekai" />
		<tag k="old_name" v="Finnøy" />
		<tag k="ssr:stedsnr" v="34149" />
	</node>
	<node id="-588215" lat="62.7428361079" lon="6.44354999842">
		<tag k="highway" v="path" />
		<tag k="name" v="Nautegotå" />
		<tag k="ssr:stedsnr" v="274446" />
	</node>
	<node id="-589142" lat="62.7481166657" lon="6.43203610408">
		<tag k="fixme" v="verify maritime location" />
		<tag k="mooring" v="yes" />
		<tag k="name" v="Jaktestøa" />
		<tag k="place" v="locality" />
		<tag k="ssr:stedsnr" v="881331" />
	</node>
	<node id="-588400" lat="62.7626331896" lon="6.46018314209">
		<tag k="highway" v="path" />
		<tag k="name" v="Bjergestien" />
		<tag k="ssr:stedsnr" v="1072524" />
	</node>
	<node id="-588399" lat="62.7629565507" lon="6.45544181559">
		<tag k="highway" v="path" />
		<tag k="name" v="Vindmøllestien" />
		<tag k="ssr:stedsnr" v="1072523" />
	</node>
	<node id="-589230" lat="62.8192555586" lon="6.5737888853">
		<tag k="amenity" v="ferry_terminal" />
		<tag k="name" v="Sandøya ferjekai" />
		<tag k="ssr:stedsnr" v="945118" />
	</node>
	<node id="-588652" lat="62.7259166647" lon="6.45832500989">
		<tag k="amenity" v="ferry_terminal" />
		<tag k="name" v="Harøya ferjekai" />
		<tag k="ssr:stedsnr" v="217134" />
	</node>
	<node id="-588360" lat="62.7923166698" lon="6.48050556008">
		<tag k="bridge" v="yes" />
		<tag k="layer" v="1" />
		<tag k="name" v="Finnøybrua" />
		<tag k="ssr:stedsnr" v="391322" />
	</node>
	<node id="-588248" lat="62.8640166658" lon="6.54471667334">
		<tag k="amenity" v="ferry_terminal" />
		<tag k="name" v="Ona ferjekai" />
		<tag k="ssr:stedsnr" v="277124" />
	</node>
	<node id="-588904" lat="62.7419305548" lon="6.4293361094">
		<tag k="fixme" v="verify maritime location" />
		<tag k="mooring" v="yes" />
		<tag k="name" v="Kolbeinsstøa" />
		<tag k="place" v="locality" />
		<tag k="ssr:stedsnr" v="638294" />
	</node>
	<node id="-588324" lat="62.7864222235" lon="6.65381388453">
		<tag k="amenity" v="ferry_terminal" />
		<tag k="name" v="Orta ferjekai" />
		<tag k="ssr:stedsnr" v="338104" />
	</node>
</osm>
