<?xml version="1.0" encoding="UTF-8"?>
<osm generator="osmapis" version="0.6">
	<node id="-589184" lat="62.8146194435" lon="6.59068610236">
		<tag k="name" v="Grønholen" />
		<tag k="place" v="farm" />
		<tag k="ssr:stedsnr" v="922376" />
	</node>
	<node id="-588544" lat="62.7543916705" lon="6.47879443591">
		<tag k="name" v="Nordheim" />
		<tag k="place" v="farm" />
		<tag k="ssr:stedsnr" v="133043" />
	</node>
	<node id="-588286" lat="62.7662999988" lon="6.46721389267">
		<tag k="name" v="Stølen" />
		<tag k="place" v="farm" />
		<tag k="ssr:stedsnr" v="315443" />
	</node>
	<node id="-588285" lat="62.7714845498" lon="6.46576086301">
		<tag k="fixme" v="consider place=hamlet" />
		<tag k="name" v="Huse" />
		<tag k="place" v="farm" />
		<tag k="ssr:stedsnr" v="315439" />
	</node>
	<node id="-588284" lat="62.7701572643" lon="6.4245368988">
		<tag k="name" v="Jonshaugen" />
		<tag k="place" v="farm" />
		<tag k="ssr:stedsnr" v="315437" />
	</node>
	<node id="-588411" lat="62.8634688322" lon="6.54479802854">
		<tag k="fixme" v="consider place=hamlet" />
		<tag k="name" v="Ona" />
		<tag k="place" v="farm" />
		<tag k="ssr:stedsnr" v="981347" />
	</node>
	<node id="-588922" lat="62.7319277764" lon="6.44863055993">
		<tag k="fixme" v="consider place=hamlet" />
		<tag k="name" v="Myklebust" />
		<tag k="place" v="village" />
		<tag k="ssr:stedsnr" v="678822" />
	</node>
	<node id="-588281" lat="62.7738333374" lon="6.43641944946">
		<tag k="name" v="Selvik" />
		<tag k="place" v="farm" />
		<tag k="ssr:stedsnr" v="315424" />
	</node>
	<node id="-588244" lat="62.7835083364" lon="6.6538916657">
		<tag k="name" v="Hagen" />
		<tag k="place" v="isolated_dwelling" />
		<tag k="ssr:stedsnr" v="275046" />
	</node>
	<node id="-588662" lat="62.7801833292" lon="6.64486388335">
		<tag k="name" v="Gjerdet" />
		<tag k="place" v="farm" />
		<tag k="ssr:stedsnr" v="254414" />
	</node>
	<node id="-589045" lat="62.759838893" lon="6.445236109">
		<tag k="name" v="Remma" />
		<tag k="place" v="farm" />
		<tag k="ssr:stedsnr" v="801054" />
	</node>
	<node id="-589172" lat="62.7531472181" lon="6.45157500251">
		<tag k="name" v="Løken" />
		<tag k="place" v="farm" />
		<tag k="ssr:stedsnr" v="922059" />
	</node>
	<node id="-588786" lat="62.7768164349" lon="6.46796145741">
		<tag k="fixme" v="consider place=hamlet" />
		<tag k="name" v="Harnes" />
		<tag k="place" v="farm" />
		<tag k="ssr:stedsnr" v="517205" />
	</node>
	<node id="-589169" lat="62.8182666643" lon="6.59499999583">
		<tag k="name" v="Sanden" />
		<tag k="place" v="farm" />
		<tag k="ssr:stedsnr" v="921441" />
	</node>
	<node id="-588784" lat="62.7616805559" lon="6.43880555792">
		<tag k="name" v="Solstrand" />
		<tag k="place" v="isolated_dwelling" />
		<tag k="ssr:stedsnr" v="517161" />
	</node>
	<node id="-588724" lat="62.7473111098" lon="6.36442499871">
		<tag k="name" v="Rasmusgarden" />
		<tag k="place" v="isolated_dwelling" />
		<tag k="ssr:stedsnr" v="456797" />
	</node>
	<node id="-588397" lat="62.7976222188" lon="6.49508888328">
		<tag k="name" v="Storbollhaugen" />
		<tag k="place" v="quarter" />
		<tag k="ssr:stedsnr" v="889433" />
	</node>
	<node id="-588396" lat="62.7951361101" lon="6.49322222426">
		<tag k="name" v="Storhaugen" />
		<tag k="place" v="quarter" />
		<tag k="ssr:stedsnr" v="889432" />
	</node>
	<node id="-588677" lat="62.7336916704" lon="6.46687777505">
		<tag k="name" v="Myklebustrimma" />
		<tag k="place" v="farm" />
		<tag k="ssr:stedsnr" v="254824" />
	</node>
	<node id="-589022" lat="62.7986611081" lon="6.49955277656">
		<tag k="name" v="Langhaugane" />
		<tag k="place" v="quarter" />
		<tag k="ssr:stedsnr" v="767432" />
	</node>
	<node id="-588764" lat="62.7711555593" lon="6.43241945272">
		<tag k="name" v="Reset" />
		<tag k="place" v="farm" />
		<tag k="ssr:stedsnr" v="497427" />
	</node>
	<node id="-588666" lat="62.7970361086" lon="6.50474999576">
		<tag k="name" v="Remma" />
		<tag k="place" v="farm" />
		<tag k="ssr:stedsnr" v="254455" />
	</node>
	<node id="-588505" lat="62.7572666677" lon="6.44898610819">
		<tag k="name" v="Breivika" />
		<tag k="place" v="farm" />
		<tag k="ssr:stedsnr" v="73060" />
	</node>
	<node id="-588888" lat="62.7432701325" lon="6.43426445021">
		<tag k="fixme" v="consider place=hamlet" />
		<tag k="name" v="Røsåk" />
		<tag k="place" v="farm" />
		<tag k="ssr:stedsnr" v="618839" />
	</node>
	<node id="-588886" lat="62.730615923" lon="6.44705893095">
		<tag k="fixme" v="consider place=hamlet" />
		<tag k="name" v="Myklebust" />
		<tag k="place" v="farm" />
		<tag k="ssr:stedsnr" v="618811" />
	</node>
	<node id="-588473" lat="62.7944972263" lon="6.48866667608">
		<tag k="name" v="Steinbrotet" />
		<tag k="place" v="quarter" />
		<tag k="ssr:stedsnr" v="39378" />
	</node>
	<node id="-588500" lat="62.7339249979" lon="6.44158611016">
		<tag k="name" v="Ytrebøen" />
		<tag k="place" v="farm" />
		<tag k="ssr:stedsnr" v="72828" />
	</node>
	<node id="-588494" lat="62.7639194473" lon="6.42566111366">
		<tag k="name" v="Remma" />
		<tag k="place" v="isolated_dwelling" />
		<tag k="ssr:stedsnr" v="72434" />
	</node>
	<node id="-588323" lat="62.8586388883" lon="6.54274167573">
		<tag k="name" v="Pegarden" />
		<tag k="place" v="isolated_dwelling" />
		<tag k="ssr:stedsnr" v="335959" />
	</node>
	<node id="-588750" lat="62.7587250035" lon="6.44713610944">
		<tag k="name" v="Midttun" />
		<tag k="place" v="farm" />
		<tag k="ssr:stedsnr" v="497053" />
	</node>
	<node id="-588621" lat="62.763408981" lon="6.41785971868">
		<tag k="fixme" v="consider place=hamlet" />
		<tag k="name" v="Morsund" />
		<tag k="place" v="farm" />
		<tag k="ssr:stedsnr" v="194411" />
	</node>
	<node id="-588288" lat="62.7982638878" lon="6.50448888313">
		<tag k="name" v="Heimigarden" />
		<tag k="place" v="farm" />
		<tag k="ssr:stedsnr" v="315470" />
	</node>
	<node id="-589000" lat="62.8589878988" lon="6.53989359317">
		<tag k="fixme" v="consider place=hamlet" />
		<tag k="name" v="Husøy" />
		<tag k="place" v="farm" />
		<tag k="ssr:stedsnr" v="759997" />
	</node>
	<node id="-588614" lat="62.7284249977" lon="6.45270832429">
		<tag k="name" v="Kalsvika" />
		<tag k="place" v="farm" />
		<tag k="ssr:stedsnr" v="193849" />
	</node>
	<node id="-588705" lat="62.7496194478" lon="6.44670833599">
		<tag k="name" v="Myrbakken" />
		<tag k="place" v="farm" />
		<tag k="ssr:stedsnr" v="437074" />
	</node>
	<node id="-589123" lat="62.7748138864" lon="6.46734723193">
		<tag k="name" v="Bergan" />
		<tag k="place" v="farm" />
		<tag k="ssr:stedsnr" v="861411" />
	</node>
	<node id="-589187" lat="62.7795249979" lon="6.47450833182">
		<tag k="name" v="Skjærvollen" />
		<tag k="place" v="farm" />
		<tag k="ssr:stedsnr" v="922408" />
	</node>
	<node id="-588352" lat="62.7306055532" lon="6.44964443639">
		<tag k="name" v="Gråteigen" />
		<tag k="place" v="farm" />
		<tag k="ssr:stedsnr" v="375825" />
	</node>
	<node id="-588351" lat="62.7348250018" lon="6.46689722158">
		<tag k="name" v="Sandvika" />
		<tag k="place" v="farm" />
		<tag k="ssr:stedsnr" v="375822" />
	</node>
	<node id="-588700" lat="62.7318222246" lon="6.46472777936">
		<tag k="name" v="Rimma" />
		<tag k="place" v="farm" />
		<tag k="ssr:stedsnr" v="436830" />
	</node>
	<node id="-588605" lat="62.7761833333" lon="6.46707221919">
		<tag k="name" v="Nystua" />
		<tag k="place" v="farm" />
		<tag k="ssr:stedsnr" v="193464" />
	</node>
	<node id="-588732" lat="62.763461112" lon="6.43448056518">
		<tag k="alt_name" v="Legene" />
		<tag k="name" v="Legen" />
		<tag k="place" v="farm" />
		<tag k="ssr:stedsnr" v="457132" />
	</node>
	<node id="-589002" lat="62.8184750003" lon="6.58832777559">
		<tag k="name" v="Linningen" />
		<tag k="place" v="farm" />
		<tag k="ssr:stedsnr" v="760067" />
	</node>
	<node id="-589241" lat="62.8003601129" lon="6.53458023592">
		<tag k="name" v="Nordhaug" />
		<tag k="place" v="farm" />
		<tag k="ssr:stedsnr" v="978998" />
	</node>
	<node id="-588855" lat="62.7799444485" lon="6.46737777198">
		<tag k="name" v="Harneshaugen" />
		<tag k="place" v="quarter" />
		<tag k="ssr:stedsnr" v="585396" />
	</node>
	<node id="-588342" lat="62.7680666685" lon="6.46259444267">
		<tag k="name" v="Tokla" />
		<tag k="place" v="farm" />
		<tag k="ssr:stedsnr" v="375413" />
	</node>
	<node id="-588725" lat="62.7810722239" lon="6.64410832581">
		<tag k="name" v="Nybø" />
		<tag k="place" v="farm" />
		<tag k="ssr:stedsnr" v="456849" />
	</node>
	<node id="-588982" lat="62.7693" lon="6.46479999993">
		<tag k="name" v="Teigan" />
		<tag k="place" v="farm" />
		<tag k="ssr:stedsnr" v="740435" />
	</node>
	<node id="-588848" lat="62.7819166702" lon="6.65456667182">
		<tag k="name" v="Bakken" />
		<tag k="place" v="farm" />
		<tag k="ssr:stedsnr" v="578064" />
	</node>
	<node id="-589128" lat="62.7829500011" lon="6.46327500761">
		<tag k="name" v="Måsvikremma" />
		<tag k="old_name" v="Masvikremma" />
		<tag k="place" v="quarter" />
		<tag k="ssr:stedsnr" v="870509" />
	</node>
	<node id="-588461" lat="62.7732749992" lon="6.45787221519">
		<tag k="leisure" v="pitch" />
		<tag k="name" v="Harøy" />
		<tag k="ssr:stedsnr" v="32183" />
	</node>
	<node id="-588843" lat="62.7483194461" lon="6.36735276923">
		<tag k="name" v="Nordigarden" />
		<tag k="place" v="isolated_dwelling" />
		<tag k="ssr:stedsnr" v="577918" />
	</node>
	<node id="-588586" lat="62.771566664" lon="6.46856112021">
		<tag k="name" v="Garden" />
		<tag k="place" v="farm" />
		<tag k="ssr:stedsnr" v="153219" />
	</node>
	<node id="-588585" lat="62.7808036445" lon="6.46498657512">
		<tag k="fixme" v="consider place=hamlet" />
		<tag k="name" v="Harneshaugen" />
		<tag k="place" v="farm" />
		<tag k="ssr:stedsnr" v="153212" />
	</node>
	<node id="-588583" lat="62.7789500011" lon="6.47216944946">
		<tag k="name" v="Skeidsvollen" />
		<tag k="place" v="farm" />
		<tag k="ssr:stedsnr" v="153203" />
	</node>
	<node id="-588424" lat="62.797805555" lon="6.50701945147">
		<tag k="name" v="Innigarden" />
		<tag k="place" v="farm" />
		<tag k="ssr:stedsnr" v="11490" />
	</node>
	<node id="-588325" lat="62.7271805551" lon="6.45093889323">
		<tag k="name" v="Haugane" />
		<tag k="place" v="quarter" />
		<tag k="ssr:stedsnr" v="343436" />
	</node>
	<node id="-588963" lat="62.7854999956" lon="6.46270277481">
		<tag k="name" v="Kravika" />
		<tag k="place" v="quarter" />
		<tag k="ssr:stedsnr" v="707453" />
	</node>
	<node id="-588578" lat="62.7846805539" lon="6.65211389304">
		<tag k="name" v="Garsvik" />
		<tag k="place" v="farm" />
		<tag k="ssr:stedsnr" v="153046" />
	</node>
	<node id="-588251" lat="62.7831000026" lon="6.65658888623">
		<tag k="name" v="Øvretun" />
		<tag k="place" v="farm" />
		<tag k="ssr:stedsnr" v="32037" />
	</node>
	<node id="-589041" lat="62.732838888" lon="6.46487499312">
		<tag k="name" v="Stranda" />
		<tag k="place" v="farm" />
		<tag k="ssr:stedsnr" v="800819" />
	</node>
	<node id="-588319" lat="62.781411109" lon="6.65545555803">
		<tag k="name" v="Solbakken" />
		<tag k="place" v="isolated_dwelling" />
		<tag k="ssr:stedsnr" v="335676" />
	</node>
	<node id="-588702" lat="62.7364222205" lon="6.44062499113">
		<tag k="name" v="Hagen" />
		<tag k="place" v="farm" />
		<tag k="ssr:stedsnr" v="436836" />
	</node>
	<node id="-588701" lat="62.7334750039" lon="6.44688889776">
		<tag k="name" v="Haugen" />
		<tag k="place" v="farm" />
		<tag k="ssr:stedsnr" v="436832" />
	</node>
	<node id="-588444" lat="62.7643583336" lon="6.47061388294">
		<tag k="name" v="Stykket" />
		<tag k="place" v="farm" />
		<tag k="ssr:stedsnr" v="12452" />
	</node>
	<node id="-588443" lat="62.7727166683" lon="6.44952222194">
		<tag k="name" v="Karihaugen" />
		<tag k="place" v="farm" />
		<tag k="ssr:stedsnr" v="12447" />
	</node>
	<node id="-588826" lat="62.8157416665" lon="6.58763056342">
		<tag k="name" v="Påshella" />
		<tag k="place" v="isolated_dwelling" />
		<tag k="ssr:stedsnr" v="577069" />
	</node>
	<node id="-588847" lat="62.7833111103" lon="6.65124443837">
		<tag k="name" v="Ytterbø" />
		<tag k="place" v="farm" />
		<tag k="ssr:stedsnr" v="578056" />
	</node>
	<node id="-588951" lat="62.7779111088" lon="6.46469166944">
		<tag k="name" v="Madsstova" />
		<tag k="place" v="farm" />
		<tag k="ssr:stedsnr" v="699186" />
	</node>
	<node id="-588566" lat="62.8130888857" lon="6.53195000675">
		<tag k="name" v="Myra" />
		<tag k="place" v="isolated_dwelling" />
		<tag k="ssr:stedsnr" v="152077" />
	</node>
	<node id="-588441" lat="62.7706166638" lon="6.42860278508">
		<tag k="name" v="Nordbø" />
		<tag k="place" v="farm" />
		<tag k="ssr:stedsnr" v="12440" />
	</node>
	<node id="-589204" lat="62.862555552" lon="6.54630277941">
		<tag k="name" v="Stølen" />
		<tag k="place" v="isolated_dwelling" />
		<tag k="ssr:stedsnr" v="941303" />
	</node>
	<node id="-588691" lat="62.7753055549" lon="6.46414722215">
		<tag k="name" v="Bergheim" />
		<tag k="place" v="farm" />
		<tag k="ssr:stedsnr" v="436413" />
	</node>
	<node id="-589202" lat="62.8008694484" lon="6.50715278037">
		<tag k="name" v="Sletta" />
		<tag k="place" v="farm" />
		<tag k="ssr:stedsnr" v="941079" />
	</node>
	<node id="-588252" lat="62.7839999989" lon="6.65852499381">
		<tag k="name" v="Haugly" />
		<tag k="place" v="isolated_dwelling" />
		<tag k="ssr:stedsnr" v="32043" />
	</node>
	<node id="-588559" lat="62.7485083306" lon="6.43507222062">
		<tag k="name" v="Nordnesvika" />
		<tag k="place" v="farm" />
		<tag k="ssr:stedsnr" v="133864" />
	</node>
	<node id="-588427" lat="62.783891669" lon="6.47064721283">
		<tag k="name" v="Steinshamn" />
		<tag k="place" v="village" />
		<tag k="ssr:stedsnr" v="11498" />
	</node>
	<node id="-588809" lat="62.7543944415" lon="6.45001666725">
		<tag k="name" v="Stangvik" />
		<tag k="place" v="farm" />
		<tag k="ssr:stedsnr" v="557058" />
	</node>
	<node id="-588552" lat="62.7830077503" lon="6.65779754937">
		<tag k="fixme" v="consider place=hamlet" />
		<tag k="name" v="Orta" />
		<tag k="place" v="farm" />
		<tag k="ssr:stedsnr" v="133395" />
	</node>
	<node id="-588315" lat="62.8593462875" lon="6.53886561725">
		<tag k="name" v="Andersgarden" />
		<tag k="place" v="farm" />
		<tag k="ssr:stedsnr" v="335425" />
	</node>
	<node id="-588678" lat="62.7331861156" lon="6.44294167556">
		<tag k="name" v="Rognane" />
		<tag k="place" v="farm" />
		<tag k="ssr:stedsnr" v="254829" />
	</node>
	<node id="-588442" lat="62.7692607076" lon="6.42418224267">
		<tag k="fixme" v="consider place=hamlet" />
		<tag k="name" v="Brunvoll" />
		<tag k="place" v="farm" />
		<tag k="ssr:stedsnr" v="12443" />
	</node>
	<node id="-589188" lat="62.7770250008" lon="6.46839166666">
		<tag k="name" v="Ingebrigtstua" />
		<tag k="place" v="farm" />
		<tag k="ssr:stedsnr" v="922407" />
	</node>
	<node id="-588763" lat="62.7842277766" lon="6.65551388332">
		<tag k="name" v="Nordbø" />
		<tag k="place" v="farm" />
		<tag k="ssr:stedsnr" v="497421" />
	</node>
	<node id="-588673" lat="62.8139527769" lon="6.59378334315">
		<tag k="name" v="Vollen" />
		<tag k="place" v="farm" />
		<tag k="ssr:stedsnr" v="254375" />
	</node>
</osm>
