<?xml version="1.0" encoding="UTF-8"?>
<osm generator="osmapis" version="0.6">
	<node id="-588796" lat="62.7682194442" lon="6.41666666494">
		<tag k="name" v="Vasshaugen" />
		<tag k="natural" v="hill" />
		<tag k="place" v="locality" />
		<tag k="ssr:stedsnr" v="517569" />
	</node>
	<node id="-588795" lat="62.7656388863" lon="6.41873055291">
		<tag k="name" v="Bolthaugen" />
		<tag k="natural" v="hill" />
		<tag k="place" v="locality" />
		<tag k="ssr:stedsnr" v="517567" />
	</node>
	<node id="-588282" lat="62.7746249961" lon="6.44403610177">
		<tag k="name" v="Vågshaugane" />
		<tag k="natural" v="hill" />
		<tag k="place" v="locality" />
		<tag k="ssr:stedsnr" v="315427" />
	</node>
	<node id="-588790" lat="62.7476333357" lon="6.4640194438">
		<tag k="name" v="Tonderåshaugan" />
		<tag k="natural" v="hill" />
		<tag k="place" v="locality" />
		<tag k="ssr:stedsnr" v="517448" />
	</node>
	<node id="-588789" lat="62.7461194401" lon="6.43392777467">
		<tag k="name" v="Nausthaugen" />
		<tag k="natural" v="hill" />
		<tag k="place" v="locality" />
		<tag k="ssr:stedsnr" v="517342" />
	</node>
	<node id="-588783" lat="62.7720027816" lon="6.42789445018">
		<tag k="name" v="Trøhaugen" />
		<tag k="natural" v="hill" />
		<tag k="place" v="locality" />
		<tag k="ssr:stedsnr" v="517154" />
	</node>
	<node id="-588780" lat="62.7823666647" lon="6.65616111796">
		<tag k="name" v="Smihaugen" />
		<tag k="natural" v="hill" />
		<tag k="place" v="locality" />
		<tag k="ssr:stedsnr" v="517054" />
	</node>
	<node id="-588626" lat="62.8157305546" lon="6.53344444405">
		<tag k="name" v="Sandvikhaugen" />
		<tag k="natural" v="hill" />
		<tag k="place" v="locality" />
		<tag k="ssr:stedsnr" v="213131" />
	</node>
	<node id="-588266" lat="62.7513194414" lon="6.48066389122">
		<tag k="name" v="Småbjergane" />
		<tag k="natural" v="hill" />
		<tag k="place" v="locality" />
		<tag k="ssr:stedsnr" v="315046" />
	</node>
	<node id="-588265" lat="62.7365861076" lon="6.45300278596">
		<tag k="name" v="Blåhammaren" />
		<tag k="natural" v="hill" />
		<tag k="place" v="locality" />
		<tag k="ssr:stedsnr" v="314834" />
	</node>
	<node id="-588776" lat="62.7824444436" lon="6.46064167191">
		<tag k="name" v="Nebithaugen" />
		<tag k="natural" v="hill" />
		<tag k="place" v="locality" />
		<tag k="ssr:stedsnr" v="517035" />
	</node>
	<node id="-588771" lat="62.7589083358" lon="6.40465277569">
		<tag k="name" v="Hellesundhaugen" />
		<tag k="natural" v="hill" />
		<tag k="place" v="locality" />
		<tag k="ssr:stedsnr" v="516108" />
	</node>
	<node id="-588250" lat="62.7844055519" lon="6.62989166854">
		<tag k="name" v="Knappen" />
		<tag k="natural" v="hill" />
		<tag k="place" v="locality" />
		<tag k="ssr:stedsnr" v="32026" />
	</node>
	<node id="-588245" lat="62.775427779" lon="6.45472776872">
		<tag k="name" v="Stokkhaugen" />
		<tag k="natural" v="hill" />
		<tag k="place" v="locality" />
		<tag k="ssr:stedsnr" v="275193" />
	</node>
	<node id="-588242" lat="62.8582916641" lon="6.54495555744">
		<tag k="name" v="Gardshaugen" />
		<tag k="natural" v="hill" />
		<tag k="place" v="locality" />
		<tag k="ssr:stedsnr" v="274942" />
	</node>
	<node id="-588240" lat="62.7578999963" lon="6.39912222428">
		<tag k="name" v="Småsundhaugan" />
		<tag k="natural" v="hill" />
		<tag k="place" v="locality" />
		<tag k="ssr:stedsnr" v="274933" />
	</node>
	<node id="-588237" lat="62.7553805565" lon="6.3713194475">
		<tag k="name" v="Yste Kråkelihaugen" />
		<tag k="natural" v="hill" />
		<tag k="place" v="locality" />
		<tag k="ssr:stedsnr" v="274915" />
	</node>
	<node id="-588236" lat="62.7519888927" lon="6.37558888635">
		<tag k="name" v="Inste Moldremmshaugen" />
		<tag k="natural" v="hill" />
		<tag k="place" v="locality" />
		<tag k="ssr:stedsnr" v="274886" />
	</node>
	<node id="-588235" lat="62.7479277779" lon="6.36552777965">
		<tag k="name" v="Høgberget" />
		<tag k="natural" v="hill" />
		<tag k="place" v="locality" />
		<tag k="ssr:stedsnr" v="274852" />
	</node>
	<node id="-588233" lat="62.8264499956" lon="6.57921110748">
		<tag k="name" v="Litle Straumsundhaug" />
		<tag k="natural" v="hill" />
		<tag k="place" v="locality" />
		<tag k="ssr:stedsnr" v="274800" />
	</node>
	<node id="-588744" lat="62.7466999968" lon="6.45072222178">
		<tag k="name" v="Brenslehaugen" />
		<tag k="natural" v="hill" />
		<tag k="place" v="locality" />
		<tag k="ssr:stedsnr" v="457461" />
	</node>
	<node id="-588743" lat="62.7451944422" lon="6.44015833657">
		<tag k="name" v="Fjøsbakken" />
		<tag k="natural" v="slope" />
		<tag k="place" v="locality" />
		<tag k="ssr:stedsnr" v="457451" />
	</node>
	<node id="-588230" lat="62.7515777781" lon="6.36313610733">
		<tag k="name" v="Søre Svelingshaugen" />
		<tag k="natural" v="hill" />
		<tag k="place" v="locality" />
		<tag k="ssr:stedsnr" v="274713" />
	</node>
	<node id="-588741" lat="62.7583111123" lon="6.47829999904">
		<tag k="name" v="Skarhaugen" />
		<tag k="natural" v="hill" />
		<tag k="place" v="locality" />
		<tag k="ssr:stedsnr" v="457442" />
	</node>
	<node id="-588740" lat="62.7443611137" lon="6.43343611503">
		<tag k="name" v="Haugen" />
		<tag k="natural" v="hill" />
		<tag k="place" v="locality" />
		<tag k="ssr:stedsnr" v="457349" />
	</node>
	<node id="-588737" lat="62.7434916672" lon="6.43946944464">
		<tag k="name" v="Myrstølhaugen" />
		<tag k="natural" v="hill" />
		<tag k="place" v="locality" />
		<tag k="ssr:stedsnr" v="457302" />
	</node>
	<node id="-588736" lat="62.8607805589" lon="6.54361943943">
		<tag k="name" v="Heia" />
		<tag k="natural" v="hill" />
		<tag k="place" v="locality" />
		<tag k="ssr:stedsnr" v="457295" />
	</node>
	<node id="-588733" lat="62.7725444463" lon="6.42962500906">
		<tag k="name" v="Nausthaugen" />
		<tag k="natural" v="hill" />
		<tag k="place" v="locality" />
		<tag k="ssr:stedsnr" v="457146" />
	</node>
	<node id="-588220" lat="62.7651926589" lon="6.4171795991">
		<tag k="name" v="Trøhaugen" />
		<tag k="natural" v="hill" />
		<tag k="place" v="locality" />
		<tag k="ssr:stedsnr" v="274547" />
	</node>
	<node id="-588731" lat="62.7683527735" lon="6.4533999922">
		<tag k="name" v="Tjuvhaugen" />
		<tag k="natural" v="hill" />
		<tag k="place" v="locality" />
		<tag k="ssr:stedsnr" v="457131" />
	</node>
	<node id="-589242" lat="62.8005178865" lon="6.53423531415">
		<tag k="name" v="Berget" />
		<tag k="natural" v="hill" />
		<tag k="place" v="locality" />
		<tag k="ssr:stedsnr" v="978997" />
	</node>
	<node id="-588703" lat="62.7424277743" lon="6.43695278105">
		<tag k="name" v="Losdalen" />
		<tag k="natural" v="valley" />
		<tag k="place" v="locality" />
		<tag k="ssr:stedsnr" v="436838" />
	</node>
	<node id="-588727" lat="62.7856916703" lon="6.65679722225">
		<tag k="name" v="Varhaugen" />
		<tag k="natural" v="hill" />
		<tag k="place" v="locality" />
		<tag k="ssr:stedsnr" v="457041" />
	</node>
	<node id="-588726" lat="62.7560972186" lon="6.38297222869">
		<tag k="name" v="Høgværhaugen" />
		<tag k="natural" v="hill" />
		<tag k="place" v="locality" />
		<tag k="ssr:stedsnr" v="456947" />
	</node>
	<node id="-588213" lat="62.7422777796" lon="6.43374165775">
		<tag k="name" v="Skomelshaugen" />
		<tag k="natural" v="hill" />
		<tag k="place" v="locality" />
		<tag k="ssr:stedsnr" v="274285" />
	</node>
	<node id="-588212" lat="62.7442444485" lon="6.42646944411">
		<tag k="name" v="Grinddalshaugen" />
		<tag k="natural" v="hill" />
		<tag k="place" v="locality" />
		<tag k="ssr:stedsnr" v="274145" />
	</node>
	<node id="-588723" lat="62.7512333363" lon="6.35971110936">
		<tag k="name" v="Skjelvikhaugen" />
		<tag k="natural" v="hill" />
		<tag k="place" v="locality" />
		<tag k="ssr:stedsnr" v="456787" />
	</node>
	<node id="-588721" lat="62.7377888851" lon="6.43869167331">
		<tag k="name" v="Skarhaugane" />
		<tag k="natural" v="hill" />
		<tag k="place" v="locality" />
		<tag k="ssr:stedsnr" v="457725" />
	</node>
	<node id="-588719" lat="62.8133333366" lon="6.7023250074">
		<tag k="name" v="Kubben" />
		<tag k="natural" v="hill" />
		<tag k="place" v="locality" />
		<tag k="ssr:stedsnr" v="456701" />
	</node>
	<node id="-588717" lat="62.8633861094" lon="6.54274166219">
		<tag k="name" v="Kalven" />
		<tag k="natural" v="hill" />
		<tag k="place" v="locality" />
		<tag k="ssr:stedsnr" v="456323" />
	</node>
	<node id="-589227" lat="62.735063885" lon="6.45430278265">
		<tag k="name" v="Rekhaugen" />
		<tag k="natural" v="hill" />
		<tag k="place" v="locality" />
		<tag k="ssr:stedsnr" v="942747" />
	</node>
	<node id="-588714" lat="62.8139833348" lon="6.52154999137">
		<tag k="name" v="Sørhaugen" />
		<tag k="natural" v="hill" />
		<tag k="place" v="locality" />
		<tag k="ssr:stedsnr" v="456140" />
	</node>
	<node id="-589221" lat="62.8223805579" lon="6.583002787">
		<tag k="name" v="Varden" />
		<tag k="natural" v="hill" />
		<tag k="place" v="locality" />
		<tag k="ssr:stedsnr" v="942106" />
	</node>
	<node id="-589217" lat="62.8227194487" lon="6.58803055782">
		<tag k="name" v="Remman" />
		<tag k="natural" v="ridge" />
		<tag k="place" v="locality" />
		<tag k="ssr:stedsnr" v="942060" />
	</node>
	<node id="-589216" lat="62.7560555547" lon="6.37359723169">
		<tag k="name" v="Nøre Kråkelihaugen" />
		<tag k="natural" v="hill" />
		<tag k="place" v="locality" />
		<tag k="ssr:stedsnr" v="941922" />
	</node>
	<node id="-589215" lat="62.7526444428" lon="6.37503055648">
		<tag k="name" v="Moldremma" />
		<tag k="natural" v="ridge" />
		<tag k="place" v="locality" />
		<tag k="ssr:stedsnr" v="941899" />
	</node>
	<node id="-589211" lat="62.7466833377" lon="6.35972222031">
		<tag k="name" v="Gåskaret" />
		<tag k="natural" v="valley" />
		<tag k="place" v="locality" />
		<tag k="ssr:stedsnr" v="941781" />
	</node>
	<node id="-588693" lat="62.7616638853" lon="6.45183889703">
		<tag k="name" v="Småhaugane" />
		<tag k="natural" v="hill" />
		<tag k="place" v="locality" />
		<tag k="ssr:stedsnr" v="436434" />
	</node>
	<node id="-589203" lat="62.8011527821" lon="6.53003333277">
		<tag k="name" v="Storhaugen" />
		<tag k="natural" v="hill" />
		<tag k="place" v="locality" />
		<tag k="ssr:stedsnr" v="941083" />
	</node>
	<node id="-589198" lat="62.8118833369" lon="6.53516666266">
		<tag k="name" v="Langhaugen" />
		<tag k="natural" v="hill" />
		<tag k="place" v="locality" />
		<tag k="ssr:stedsnr" v="941055" />
	</node>
	<node id="-589191" lat="62.7995502443" lon="6.53100797265">
		<tag k="name" v="Korshaugen" />
		<tag k="natural" v="hill" />
		<tag k="place" v="locality" />
		<tag k="ssr:stedsnr" v="922445" />
	</node>
	<node id="-589190" lat="62.7972805589" lon="6.49368333868">
		<tag k="name" v="Bollhaugane" />
		<tag k="natural" v="hill" />
		<tag k="place" v="locality" />
		<tag k="ssr:stedsnr" v="922443" />
	</node>
	<node id="-588656" lat="62.7390027784" lon="6.44913610225">
		<tag k="name" v="Store Harøyburet" />
		<tag k="natural" v="hill" />
		<tag k="place" v="locality" />
		<tag k="ssr:stedsnr" v="232801" />
	</node>
	<node id="-588651" lat="62.7347138876" lon="6.44459722514">
		<tag k="name" v="Nova" />
		<tag k="natural" v="ridge" />
		<tag k="place" v="locality" />
		<tag k="ssr:stedsnr" v="214766" />
	</node>
	<node id="-588645" lat="62.7442611137" lon="6.46274165807">
		<tag k="name" v="Orevollen" />
		<tag k="place" v="locality" />
		<tag k="ssr:stedsnr" v="214446" />
	</node>
	<node id="-589155" lat="62.7809194403" lon="6.63297778592">
		<tag k="name" v="Rambjøra" />
		<tag k="natural" v="hill" />
		<tag k="place" v="locality" />
		<tag k="ssr:stedsnr" v="881834" />
	</node>
	<node id="-588641" lat="62.7726249976" lon="6.45970277161">
		<tag k="name" v="Andersholen" />
		<tag k="natural" v="hill" />
		<tag k="place" v="locality" />
		<tag k="ssr:stedsnr" v="214197" />
	</node>
	<node id="-589149" lat="62.8140555514" lon="6.68724166908">
		<tag k="name" v="Ysteøyberga" />
		<tag k="natural" v="hill" />
		<tag k="place" v="locality" />
		<tag k="ssr:stedsnr" v="881651" />
	</node>
	<node id="-588636" lat="62.7853444425" lon="6.65042222524">
		<tag k="name" v="Nausthaugen" />
		<tag k="natural" v="hill" />
		<tag k="place" v="locality" />
		<tag k="ssr:stedsnr" v="214040" />
	</node>
	<node id="-589147" lat="62.7665583307" lon="6.42682776888">
		<tag k="name" v="Stølshaugen" />
		<tag k="natural" v="hill" />
		<tag k="place" v="locality" />
		<tag k="ssr:stedsnr" v="881567" />
	</node>
	<node id="-589146" lat="62.7644433415" lon="6.41450224493">
		<tag k="name" v="Sjøvershaugen" />
		<tag k="natural" v="hill" />
		<tag k="place" v="locality" />
		<tag k="ssr:stedsnr" v="881552" />
	</node>
	<node id="-588633" lat="62.8543749982" lon="6.54630277559">
		<tag k="name" v="Purkeneshaugen" />
		<tag k="natural" v="hill" />
		<tag k="place" v="locality" />
		<tag k="ssr:stedsnr" v="213947" />
	</node>
	<node id="-588632" lat="62.7532194438" lon="6.37073055375">
		<tag k="name" v="Inste Kråkelihaugen" />
		<tag k="natural" v="hill" />
		<tag k="place" v="locality" />
		<tag k="ssr:stedsnr" v="213930" />
	</node>
	<node id="-589143" lat="62.749116669" lon="6.43987499037">
		<tag k="name" v="Køyrselhaugen" />
		<tag k="natural" v="hill" />
		<tag k="place" v="locality" />
		<tag k="ssr:stedsnr" v="881330" />
	</node>
	<node id="-588630" lat="62.7461833361" lon="6.3631611164">
		<tag k="name" v="Nausthaugen" />
		<tag k="natural" v="hill" />
		<tag k="place" v="locality" />
		<tag k="ssr:stedsnr" v="213812" />
	</node>
	<node id="-588629" lat="62.746361114" lon="6.35913334089">
		<tag k="name" v="Varden" />
		<tag k="natural" v="hill" />
		<tag k="place" v="locality" />
		<tag k="ssr:stedsnr" v="213803" />
	</node>
	<node id="-589139" lat="62.8136138901" lon="6.53315554857">
		<tag k="name" v="Seterhaugen" />
		<tag k="natural" v="hill" />
		<tag k="place" v="locality" />
		<tag k="ssr:stedsnr" v="881124" />
	</node>
	<node id="-589138" lat="62.8162138923" lon="6.53074444876">
		<tag k="name" v="Hardhaugen" />
		<tag k="natural" v="hill" />
		<tag k="place" v="locality" />
		<tag k="ssr:stedsnr" v="881115" />
	</node>
	<node id="-589134" lat="62.7982749998" lon="6.51021111399">
		<tag k="name" v="Ramnhaugen" />
		<tag k="natural" v="hill" />
		<tag k="place" v="locality" />
		<tag k="ssr:stedsnr" v="881074" />
	</node>
	<node id="-588593" lat="62.7365916655" lon="6.45297499629">
		<tag k="alt_name" v="Litle Harøyburet" />
		<tag k="name" v="Litle-Harøyburet" />
		<tag k="natural" v="hill" />
		<tag k="place" v="locality" />
		<tag k="ssr:stedsnr" v="153754" />
	</node>
	<node id="-588591" lat="62.7380972261" lon="6.45954722898">
		<tag k="name" v="Vaddalen" />
		<tag k="natural" v="valley" />
		<tag k="place" v="locality" />
		<tag k="ssr:stedsnr" v="153513" />
	</node>
	<node id="-588589" lat="62.7423388876" lon="6.43796944572">
		<tag k="name" v="Pikhaugen" />
		<tag k="natural" v="hill" />
		<tag k="place" v="locality" />
		<tag k="ssr:stedsnr" v="153478" />
	</node>
	<node id="-588588" lat="62.7599916665" lon="6.43623889748">
		<tag k="name" v="Skarhaugen" />
		<tag k="natural" v="hill" />
		<tag k="place" v="locality" />
		<tag k="ssr:stedsnr" v="153377" />
	</node>
	<node id="-588587" lat="62.772647222" lon="6.46373888869">
		<tag k="name" v="Kyrkjebakken" />
		<tag k="natural" v="slope" />
		<tag k="place" v="locality" />
		<tag k="ssr:stedsnr" v="153225" />
	</node>
	<node id="-589098" lat="62.7629194415" lon="6.41526945245">
		<tag k="name" v="Grønneshaugen" />
		<tag k="natural" v="hill" />
		<tag k="place" v="locality" />
		<tag k="ssr:stedsnr" v="821571" />
	</node>
	<node id="-589097" lat="62.7663277738" lon="6.41891389297">
		<tag k="name" v="Smihaugen" />
		<tag k="natural" v="hill" />
		<tag k="place" v="locality" />
		<tag k="ssr:stedsnr" v="821560" />
	</node>
	<node id="-589096" lat="62.7450083289" lon="6.4497222214">
		<tag k="name" v="Grødalsaksla" />
		<tag k="place" v="locality" />
		<tag k="ssr:stedsnr" v="821467" />
	</node>
	<node id="-589094" lat="62.7504472205" lon="6.46145556063">
		<tag k="name" v="Hesthaugen" />
		<tag k="natural" v="hill" />
		<tag k="place" v="locality" />
		<tag k="ssr:stedsnr" v="821448" />
	</node>
	<node id="-588579" lat="62.8241111125" lon="6.58332777493">
		<tag k="name" v="Solvikhaugan" />
		<tag k="natural" v="hill" />
		<tag k="place" v="locality" />
		<tag k="ssr:stedsnr" v="153118" />
	</node>
	<node id="-589090" lat="62.7423166657" lon="6.43331111039">
		<tag k="name" v="Ekrehaugen" />
		<tag k="natural" v="hill" />
		<tag k="place" v="locality" />
		<tag k="ssr:stedsnr" v="821325" />
	</node>
	<node id="-589088" lat="62.7794138881" lon="6.45711388311">
		<tag k="name" v="Storhaugberget" />
		<tag k="natural" v="hill" />
		<tag k="place" v="locality" />
		<tag k="ssr:stedsnr" v="821196" />
	</node>
	<node id="-589085" lat="62.8198916708" lon="6.59578610848">
		<tag k="name" v="Sjåberget" />
		<tag k="natural" v="hill" />
		<tag k="place" v="locality" />
		<tag k="ssr:stedsnr" v="821070" />
	</node>
	<node id="-589084" lat="62.8173222238" lon="6.59415000634">
		<tag k="name" v="Kolhaugen" />
		<tag k="natural" v="hill" />
		<tag k="place" v="locality" />
		<tag k="ssr:stedsnr" v="821065" />
	</node>
	<node id="-589081" lat="62.8566833347" lon="6.54490832422">
		<tag k="name" v="Kalvvikhaugen" />
		<tag k="natural" v="hill" />
		<tag k="place" v="locality" />
		<tag k="ssr:stedsnr" v="820953" />
	</node>
	<node id="-588567" lat="62.7966499965" lon="6.49944444473">
		<tag k="name" v="Fagerhaugen" />
		<tag k="natural" v="hill" />
		<tag k="place" v="locality" />
		<tag k="ssr:stedsnr" v="152088" />
	</node>
	<node id="-589077" lat="62.749455558" lon="6.37656110176">
		<tag k="name" v="Torvhaugen" />
		<tag k="natural" v="hill" />
		<tag k="place" v="locality" />
		<tag k="ssr:stedsnr" v="820892" />
	</node>
	<node id="-588317" lat="62.7415500019" lon="6.4381722263">
		<tag k="name" v="Storlihaugen" />
		<tag k="natural" v="hill" />
		<tag k="place" v="locality" />
		<tag k="ssr:stedsnr" v="335473" />
	</node>
	<node id="-588557" lat="62.7410527775" lon="6.45763054722">
		<tag k="name" v="Breidalsaksla" />
		<tag k="natural" v="hill" />
		<tag k="place" v="locality" />
		<tag k="ssr:stedsnr" v="133840" />
	</node>
	<node id="-588556" lat="62.7405222261" lon="6.44132778561">
		<tag k="name" v="Røsåkhalsen" />
		<tag k="natural" v="ridge" />
		<tag k="place" v="locality" />
		<tag k="ssr:stedsnr" v="133837" />
	</node>
	<node id="-589066" lat="62.7989805523" lon="6.50004723082">
		<tag k="name" v="Langhaugen" />
		<tag k="natural" v="hill" />
		<tag k="place" v="locality" />
		<tag k="ssr:stedsnr" v="820100" />
	</node>
	<node id="-589060" lat="62.7449583341" lon="6.44470277348">
		<tag k="name" v="Litleholen" />
		<tag k="natural" v="valley" />
		<tag k="place" v="locality" />
		<tag k="ssr:stedsnr" v="801851" />
	</node>
	<node id="-588543" lat="62.7529749991" lon="6.47244999666">
		<tag k="name" v="Bjergane" />
		<tag k="natural" v="hill" />
		<tag k="place" v="locality" />
		<tag k="ssr:stedsnr" v="133041" />
	</node>
	<node id="-588584" lat="62.7803416632" lon="6.45614722655">
		<tag k="name" v="Vepparen" />
		<tag k="natural" v="hill" />
		<tag k="place" v="locality" />
		<tag k="ssr:stedsnr" v="153204" />
	</node>
	<node id="-588526" lat="62.7555388884" lon="6.38388611974">
		<tag k="name" v="Høgværhaugan" />
		<tag k="natural" v="hill" />
		<tag k="place" v="locality" />
		<tag k="ssr:stedsnr" v="92925" />
	</node>
	<node id="-588520" lat="62.8584583298" lon="6.53781667237">
		<tag k="name" v="Salen" />
		<tag k="natural" v="ridge" />
		<tag k="place" v="locality" />
		<tag k="ssr:stedsnr" v="92416" />
	</node>
	<node id="-588519" lat="62.7435944485" lon="6.42806665662">
		<tag k="name" v="Torvhaugen" />
		<tag k="natural" v="hill" />
		<tag k="place" v="locality" />
		<tag k="ssr:stedsnr" v="92332" />
	</node>
	<node id="-588518" lat="62.7527972216" lon="6.40516666719">
		<tag k="name" v="Bliket" />
		<tag k="natural" v="hill" />
		<tag k="place" v="locality" />
		<tag k="ssr:stedsnr" v="92188" />
	</node>
	<node id="-588516" lat="62.8153722199" lon="6.53563332704">
		<tag k="name" v="Kråkhaugen" />
		<tag k="natural" v="hill" />
		<tag k="place" v="locality" />
		<tag k="ssr:stedsnr" v="92104" />
	</node>
	<node id="-588582" lat="62.7632805563" lon="6.44485555183">
		<tag k="name" v="Stilllingsholen" />
		<tag k="natural" v="hill" />
		<tag k="place" v="locality" />
		<tag k="ssr:stedsnr" v="153162" />
	</node>
	<node id="-588512" lat="62.7977527748" lon="6.49348333517">
		<tag k="name" v="Storbollhaugen" />
		<tag k="natural" v="hill" />
		<tag k="place" v="locality" />
		<tag k="ssr:stedsnr" v="92064" />
	</node>
	<node id="-588511" lat="62.7838305593" lon="6.65809165955">
		<tag k="name" v="Pilshaugen" />
		<tag k="natural" v="hill" />
		<tag k="place" v="locality" />
		<tag k="ssr:stedsnr" v="92039" />
	</node>
	<node id="-589021" lat="62.7649777756" lon="6.43479444307">
		<tag k="name" v="Langremhaugen" />
		<tag k="natural" v="hill" />
		<tag k="place" v="locality" />
		<tag k="ssr:stedsnr" v="760864" />
	</node>
	<node id="-589018" lat="62.7648683217" lon="6.41593685322">
		<tag k="name" v="Vardhaugen" />
		<tag k="natural" v="hill" />
		<tag k="place" v="locality" />
		<tag k="ssr:stedsnr" v="760568" />
	</node>
	<node id="-589017" lat="62.7385777752" lon="6.46101944406">
		<tag k="name" v="Skåpdalen" />
		<tag k="natural" v="valley" />
		<tag k="place" v="locality" />
		<tag k="ssr:stedsnr" v="760498" />
	</node>
	<node id="-589016" lat="62.7441805592" lon="6.45340832846">
		<tag k="name" v="Buskedalen" />
		<tag k="natural" v="valley" />
		<tag k="place" v="locality" />
		<tag k="ssr:stedsnr" v="760468" />
	</node>
	<node id="-588503" lat="62.7475527753" lon="6.44514444561">
		<tag k="name" v="Storholen" />
		<tag k="natural" v="valley" />
		<tag k="place" v="locality" />
		<tag k="ssr:stedsnr" v="72850" />
	</node>
	<node id="-588501" lat="62.7421166683" lon="6.45640277503">
		<tag k="name" v="Breidalen" />
		<tag k="natural" v="valley" />
		<tag k="place" v="locality" />
		<tag k="ssr:stedsnr" v="72836" />
	</node>
	<node id="-589012" lat="62.7426361139" lon="6.42778054822">
		<tag k="name" v="Kolbeinshaugan" />
		<tag k="natural" v="hill" />
		<tag k="place" v="locality" />
		<tag k="ssr:stedsnr" v="760326" />
	</node>
	<node id="-589010" lat="62.77106667" lon="6.43538055623">
		<tag k="name" v="Porshaugen" />
		<tag k="natural" v="hill" />
		<tag k="place" v="locality" />
		<tag k="ssr:stedsnr" v="760167" />
	</node>
	<node id="-588995" lat="62.7805111124" lon="6.63890556422">
		<tag k="name" v="Synnahella" />
		<tag k="natural" v="hill" />
		<tag k="place" v="locality" />
		<tag k="ssr:stedsnr" v="759837" />
	</node>
	<node id="-588989" lat="62.7456666697" lon="6.42535276792">
		<tag k="name" v="Nausthaugen" />
		<tag k="natural" v="hill" />
		<tag k="place" v="locality" />
		<tag k="ssr:stedsnr" v="759162" />
	</node>
	<node id="-588988" lat="62.8009249977" lon="6.5092916743">
		<tag k="name" v="Kråkhaugen" />
		<tag k="natural" v="hill" />
		<tag k="place" v="locality" />
		<tag k="ssr:stedsnr" v="759084" />
	</node>
	<node id="-588987" lat="62.7954916622" lon="6.49329444048">
		<tag k="name" v="Storhaugen" />
		<tag k="natural" v="hill" />
		<tag k="place" v="locality" />
		<tag k="ssr:stedsnr" v="759081" />
	</node>
	<node id="-588471" lat="62.7620749976" lon="6.45204443595">
		<tag k="name" v="Porshaugen" />
		<tag k="natural" v="hill" />
		<tag k="place" v="locality" />
		<tag k="ssr:stedsnr" v="32857" />
	</node>
	<node id="-588464" lat="62.7397944453" lon="6.4622111107">
		<tag k="name" v="Dikedalen" />
		<tag k="natural" v="valley" />
		<tag k="place" v="locality" />
		<tag k="ssr:stedsnr" v="32448" />
	</node>
	<node id="-588463" lat="62.7457694484" lon="6.44670000673">
		<tag k="name" v="Leitet" />
		<tag k="natural" v="ridge" />
		<tag k="place" v="locality" />
		<tag k="ssr:stedsnr" v="32438" />
	</node>
	<node id="-588573" lat="62.7524027773" lon="6.36596666193">
		<tag k="name" v="Midthaugen" />
		<tag k="natural" v="hill" />
		<tag k="place" v="locality" />
		<tag k="ssr:stedsnr" v="152912" />
	</node>
	<node id="-588460" lat="62.7723916627" lon="6.46884723083">
		<tag k="name" v="Fiskeberget" />
		<tag k="natural" v="hill" />
		<tag k="place" v="locality" />
		<tag k="ssr:stedsnr" v="32176" />
	</node>
	<node id="-588459" lat="62.7621194439" lon="6.43274167468">
		<tag k="name" v="Legehaugen" />
		<tag k="natural" v="hill" />
		<tag k="place" v="locality" />
		<tag k="ssr:stedsnr" v="32133" />
	</node>
	<node id="-588457" lat="62.8264055525" lon="6.57928888869">
		<tag k="name" v="Store Straumsundhaugen" />
		<tag k="natural" v="hill" />
		<tag k="place" v="locality" />
		<tag k="ssr:stedsnr" v="32088" />
	</node>
	<node id="-588962" lat="62.8581250014" lon="6.54886110584">
		<tag k="name" v="Ramnbjøra" />
		<tag k="natural" v="hill" />
		<tag k="place" v="locality" />
		<tag k="ssr:stedsnr" v="699951" />
	</node>
	<node id="-588960" lat="62.7383777815" lon="6.44611389343">
		<tag k="name" v="Hyrvedalen" />
		<tag k="natural" v="valley" />
		<tag k="place" v="locality" />
		<tag k="ssr:stedsnr" v="699720" />
	</node>
	<node id="-588312" lat="62.7483416636" lon="6.43446389829">
		<tag k="name" v="Nordneshaugen" />
		<tag k="natural" v="hill" />
		<tag k="place" v="locality" />
		<tag k="ssr:stedsnr" v="335348" />
	</node>
	<node id="-588954" lat="62.8016472215" lon="6.49914721295">
		<tag k="name" v="Smådrågan" />
		<tag k="natural" v="valley" />
		<tag k="place" v="locality" />
		<tag k="ssr:stedsnr" v="699408" />
	</node>
	<node id="-588953" lat="62.8601972218" lon="6.53842499373">
		<tag k="name" v="Haugen" />
		<tag k="natural" v="hill" />
		<tag k="place" v="locality" />
		<tag k="ssr:stedsnr" v="699299" />
	</node>
	<node id="-588952" lat="62.8604083376" lon="6.54237777468">
		<tag k="name" v="Skrubbehaugen" />
		<tag k="natural" v="hill" />
		<tag k="place" v="locality" />
		<tag k="ssr:stedsnr" v="699298" />
	</node>
	<node id="-588950" lat="62.798824997" lon="6.52864167333">
		<tag k="loc_name" v="Ørneberget" />
		<tag k="name" v="Ørnehaugen" />
		<tag k="natural" v="hill" />
		<tag k="place" v="locality" />
		<tag k="ssr:stedsnr" v="699080" />
	</node>
	<node id="-588947" lat="62.786061109" lon="6.65484443923">
		<tag k="name" v="Veaberget" />
		<tag k="natural" v="hill" />
		<tag k="place" v="locality" />
		<tag k="ssr:stedsnr" v="699039" />
	</node>
	<node id="-588945" lat="62.7577138898" lon="6.38226667531">
		<tag k="name" v="Storsjøhaugan" />
		<tag k="natural" v="hill" />
		<tag k="place" v="locality" />
		<tag k="ssr:stedsnr" v="698939" />
	</node>
	<node id="-588944" lat="62.754294446" lon="6.38354166715">
		<tag k="name" v="Laberget" />
		<tag k="natural" v="hill" />
		<tag k="place" v="locality" />
		<tag k="ssr:stedsnr" v="698931" />
	</node>
	<node id="-588943" lat="62.7550361087" lon="6.38088611599">
		<tag k="name" v="Torhaugen" />
		<tag k="natural" v="hill" />
		<tag k="place" v="locality" />
		<tag k="ssr:stedsnr" v="698928" />
	</node>
	<node id="-588942" lat="62.7490222206" lon="6.37788611061">
		<tag k="name" v="Kviteberget" />
		<tag k="natural" v="hill" />
		<tag k="place" v="locality" />
		<tag k="ssr:stedsnr" v="698886" />
	</node>
	<node id="-588428" lat="62.7814833301" lon="6.44728333014">
		<tag k="name" v="Leghaugane" />
		<tag k="natural" v="hill" />
		<tag k="place" v="locality" />
		<tag k="ssr:stedsnr" v="11501" />
	</node>
	<node id="-588935" lat="62.7389777757" lon="6.44981943714">
		<tag k="name" v="Harøyburet" />
		<tag k="natural" v="hill" />
		<tag k="place" v="locality" />
		<tag k="ssr:stedsnr" v="679837" />
	</node>
	<node id="-588393" lat="62.7551444469" lon="6.37642500623">
		<tag k="name" v="Tjukkhaugan" />
		<tag k="natural" v="hill" />
		<tag k="place" v="locality" />
		<tag k="ssr:stedsnr" v="881927" />
	</node>
	<node id="-588905" lat="62.7404944422" lon="6.44293333735">
		<tag k="name" v="Blåhammaren" />
		<tag k="natural" v="cliff" />
		<tag k="ssr:stedsnr" v="638433" />
	</node>
	<node id="-588392" lat="62.7486277809" lon="6.36974167347">
		<tag k="name" v="Gardhaugen" />
		<tag k="natural" v="hill" />
		<tag k="place" v="locality" />
		<tag k="ssr:stedsnr" v="881869" />
	</node>
	<node id="-588903" lat="62.8187611111" lon="6.57944722189">
		<tag k="name" v="Steinskifte" />
		<tag k="place" v="locality" />
		<tag k="ssr:stedsnr" v="638095" />
	</node>
	<node id="-588901" lat="62.8124444451" lon="6.59586665986">
		<tag k="name" v="Hesteberget" />
		<tag k="natural" v="hill" />
		<tag k="place" v="locality" />
		<tag k="ssr:stedsnr" v="638079" />
	</node>
	<node id="-588897" lat="62.7473694407" lon="6.36194166798">
		<tag k="name" v="Yste Livardshaugen" />
		<tag k="natural" v="hill" />
		<tag k="place" v="locality" />
		<tag k="ssr:stedsnr" v="637786" />
	</node>
	<node id="-588895" lat="62.742719445" lon="6.42644999519">
		<tag k="name" v="Kolbeinshaugen" />
		<tag k="natural" v="hill" />
		<tag k="place" v="locality" />
		<tag k="ssr:stedsnr" v="637192" />
	</node>
	<node id="-588381" lat="62.7620138912" lon="6.45789444362">
		<tag k="name" v="Korsbakken" />
		<tag k="natural" v="slope" />
		<tag k="place" v="locality" />
		<tag k="ssr:stedsnr" v="396121" />
	</node>
	<node id="-588380" lat="62.7634916672" lon="6.46192778549">
		<tag k="name" v="Gjølhaugen" />
		<tag k="natural" v="hill" />
		<tag k="place" v="locality" />
		<tag k="ssr:stedsnr" v="396119" />
	</node>
	<node id="-588730" lat="62.8146666702" lon="6.58466945109">
		<tag k="name" v="Erhaugen" />
		<tag k="natural" v="hill" />
		<tag k="place" v="locality" />
		<tag k="ssr:stedsnr" v="457102" />
	</node>
	<node id="-588378" lat="62.7826694433" lon="6.65889166681">
		<tag k="name" v="Bruaberget" />
		<tag k="natural" v="hill" />
		<tag k="place" v="locality" />
		<tag k="ssr:stedsnr" v="396043" />
	</node>
	<node id="-588376" lat="62.7589694411" lon="6.39046110591">
		<tag k="name" v="Farvalshaugen" />
		<tag k="natural" v="hill" />
		<tag k="place" v="locality" />
		<tag k="ssr:stedsnr" v="395943" />
	</node>
	<node id="-588374" lat="62.7540361088" lon="6.37036666525">
		<tag k="name" v="Søre Kråkelia" />
		<tag k="natural" v="slope" />
		<tag k="place" v="locality" />
		<tag k="ssr:stedsnr" v="395934" />
	</node>
	<node id="-588372" lat="62.7524361153" lon="6.36790277929">
		<tag k="name" v="Nøre Svelingshaugen" />
		<tag k="natural" v="hill" />
		<tag k="place" v="locality" />
		<tag k="ssr:stedsnr" v="395914" />
	</node>
	<node id="-588369" lat="62.7469916628" lon="6.3582388871">
		<tag k="name" v="Liahaugen" />
		<tag k="natural" v="hill" />
		<tag k="place" v="locality" />
		<tag k="ssr:stedsnr" v="395809" />
	</node>
	<node id="-588368" lat="62.7494111135" lon="6.36352777356">
		<tag k="name" v="Øyrahaugen" />
		<tag k="natural" v="hill" />
		<tag k="place" v="locality" />
		<tag k="ssr:stedsnr" v="395806" />
	</node>
	<node id="-588367" lat="62.7469916656" lon="6.36252499214">
		<tag k="name" v="Inste Livardshaugen" />
		<tag k="natural" v="hill" />
		<tag k="place" v="locality" />
		<tag k="ssr:stedsnr" v="395803" />
	</node>
	<node id="-588365" lat="62.8119055589" lon="6.69244999818">
		<tag k="name" v="Ørnehaugen" />
		<tag k="natural" v="hill" />
		<tag k="place" v="locality" />
		<tag k="ssr:stedsnr" v="395718" />
	</node>
	<node id="-588362" lat="62.7845527811" lon="6.45477222519">
		<tag k="name" v="Sevikhaugen" />
		<tag k="natural" v="hill" />
		<tag k="place" v="locality" />
		<tag k="ssr:stedsnr" v="395029" />
	</node>
	<node id="-589239" lat="62.7999785262" lon="6.5274105695">
		<tag k="name" v="Hegrehaugen" />
		<tag k="natural" v="hill" />
		<tag k="place" v="locality" />
		<tag k="ssr:stedsnr" v="978993" />
	</node>
	<node id="-588358" lat="62.8254805592" lon="6.58313889112">
		<tag k="name" v="Varden" />
		<tag k="natural" v="hill" />
		<tag k="place" v="locality" />
		<tag k="ssr:stedsnr" v="376403" />
	</node>
	<node id="-588214" lat="62.745861108" lon="6.44983056171">
		<tag k="name" v="Kleiva" />
		<tag k="natural" v="slope" />
		<tag k="place" v="locality" />
		<tag k="ssr:stedsnr" v="274443" />
	</node>
	<node id="-588383" lat="62.7529749985" lon="6.45012222764">
		<tag k="name" v="Stongvikhaugen" />
		<tag k="natural" v="hill" />
		<tag k="place" v="locality" />
		<tag k="ssr:stedsnr" v="396326" />
	</node>
	<node id="-588853" lat="62.7375222224" lon="6.45711389645">
		<tag k="name" v="Pedalen" />
		<tag k="natural" v="valley" />
		<tag k="place" v="locality" />
		<tag k="ssr:stedsnr" v="578465" />
	</node>
	<node id="-588851" lat="62.7712638867" lon="6.42913888691">
		<tag k="name" v="Friarhaugen" />
		<tag k="natural" v="hill" />
		<tag k="place" v="locality" />
		<tag k="ssr:stedsnr" v="578145" />
	</node>
	<node id="-588850" lat="62.8122805513" lon="6.59170556438">
		<tag k="name" v="Kråksteinen" />
		<tag k="natural" v="hill" />
		<tag k="place" v="locality" />
		<tag k="ssr:stedsnr" v="578085" />
	</node>
	<node id="-588211" lat="62.8196194435" lon="6.58006944108">
		<tag k="name" v="Buhaugen" />
		<tag k="natural" v="hill" />
		<tag k="place" v="locality" />
		<tag k="ssr:stedsnr" v="274114" />
	</node>
	<node id="-588846" lat="62.7864444454" lon="6.65908611248">
		<tag k="name" v="Morteberget" />
		<tag k="natural" v="hill" />
		<tag k="place" v="locality" />
		<tag k="ssr:stedsnr" v="578047" />
	</node>
	<node id="-588637" lat="62.8167305551" lon="6.59647499466">
		<tag k="name" v="Frikberget" />
		<tag k="natural" v="hill" />
		<tag k="place" v="locality" />
		<tag k="ssr:stedsnr" v="214071" />
	</node>
	<node id="-588209" lat="62.8191249979" lon="6.59471389033">
		<tag k="name" v="Bekhaugan" />
		<tag k="natural" v="hill" />
		<tag k="place" v="locality" />
		<tag k="ssr:stedsnr" v="274071" />
	</node>
	<node id="-588834" lat="62.7435638911" lon="6.455905551">
		<tag k="name" v="Skadalen" />
		<tag k="natural" v="valley" />
		<tag k="place" v="locality" />
		<tag k="ssr:stedsnr" v="577471" />
	</node>
	<node id="-588833" lat="62.8615583377" lon="6.54728611843">
		<tag k="name" v="Oterura" />
		<tag k="natural" v="hill" />
		<tag k="place" v="locality" />
		<tag k="ssr:stedsnr" v="577313" />
	</node>
	<node id="-588318" lat="62.7706083377" lon="6.42229444953">
		<tag k="name" v="Brunvollshaugen" />
		<tag k="natural" v="hill" />
		<tag k="place" v="locality" />
		<tag k="ssr:stedsnr" v="335562" />
	</node>
	<node id="-588829" lat="62.8168305596" lon="6.52365556095">
		<tag k="name" v="Storhaugen" />
		<tag k="natural" v="hill" />
		<tag k="place" v="locality" />
		<tag k="ssr:stedsnr" v="577115" />
	</node>
	<node id="-588827" lat="62.8191333308" lon="6.59196667584">
		<tag k="name" v="Linningshaugen" />
		<tag k="natural" v="hill" />
		<tag k="place" v="locality" />
		<tag k="ssr:stedsnr" v="577082" />
	</node>
	<node id="-588314" lat="62.7443111117" lon="6.43597777824">
		<tag k="name" v="Kuhaugen" />
		<tag k="natural" v="hill" />
		<tag k="place" v="locality" />
		<tag k="ssr:stedsnr" v="335351" />
	</node>
	<node id="-588313" lat="62.7498222263" lon="6.44424721468">
		<tag k="name" v="Myrhaugen" />
		<tag k="natural" v="hill" />
		<tag k="place" v="locality" />
		<tag k="ssr:stedsnr" v="335349" />
	</node>
	<node id="-588824" lat="62.7463388852" lon="6.46005555617">
		<tag k="name" v="Orevollhaugen" />
		<tag k="natural" v="hill" />
		<tag k="place" v="locality" />
		<tag k="ssr:stedsnr" v="557862" />
	</node>
	<node id="-588311" lat="62.7396888905" lon="6.4329472156">
		<tag k="name" v="Katthammaren" />
		<tag k="natural" v="hill" />
		<tag k="place" v="locality" />
		<tag k="ssr:stedsnr" v="335312" />
	</node>
	<node id="-588308" lat="62.8207638889" lon="6.58101389243">
		<tag k="name" v="Bustihaugen" />
		<tag k="natural" v="hill" />
		<tag k="place" v="locality" />
		<tag k="ssr:stedsnr" v="335104" />
	</node>
	<node id="-588302" lat="62.7534888862" lon="6.37470556084">
		<tag k="name" v="Steinvølhaugen" />
		<tag k="natural" v="hill" />
		<tag k="place" v="locality" />
		<tag k="ssr:stedsnr" v="334925" />
	</node>
	<node id="-588301" lat="62.7552055549" lon="6.37358888235">
		<tag k="name" v="Nøre Kråkelia" />
		<tag k="natural" v="slope" />
		<tag k="place" v="locality" />
		<tag k="ssr:stedsnr" v="334918" />
	</node>
	<node id="-588300" lat="62.7497027773" lon="6.38186666048">
		<tag k="name" v="Midthaugen" />
		<tag k="natural" v="hill" />
		<tag k="place" v="locality" />
		<tag k="ssr:stedsnr" v="334885" />
	</node>
	<node id="-588299" lat="62.748766666" lon="6.38320555636">
		<tag k="name" v="Inste Øyaendshaugen" />
		<tag k="natural" v="hill" />
		<tag k="place" v="locality" />
		<tag k="ssr:stedsnr" v="334874" />
	</node>
	<node id="-588631" lat="62.747138888" lon="6.36872777457">
		<tag k="name" v="Sjåberget" />
		<tag k="natural" v="hill" />
		<tag k="place" v="locality" />
		<tag k="ssr:stedsnr" v="213882" />
	</node>
</osm>
