<?xml version="1.0" encoding="UTF-8"?>
<osm generator="osmapis" version="0.6">
	<node id="-808440" lat="70.0740639055" lon="26.5639634964">
		<tag k="name" v="Juoksavuopmi" />
		<tag k="name:se" v="Juoksavuopmi" />
		<tag k="old_name:se" v="Juoksavuobmi" />
		<tag k="place" v="locality" />
		<tag k="ssr:stedsnr" v="687408" />
	</node>
	<node id="-807927" lat="69.9220972415" lon="27.0687855827">
		<tag k="name" v="Stuorravuovdi" />
		<tag k="name:se" v="Stuorravuovdi" />
		<tag k="place" v="locality" />
		<tag k="ssr:stedsnr" v="453917" />
	</node>
	<node id="-807081" lat="70.2188055809" lon="28.2320325654">
		<tag k="name" v="Mohkkeveaijeaggi" />
		<tag k="name:se" v="Mohkkeveaijeaggi" />
		<tag k="natural" v="wetland" />
		<tag k="ssr:stedsnr" v="398880" />
	</node>
	<node id="-806896" lat="70.3406639148" lon="28.1196242761">
		<tag k="alt_name:se" v="Golggotjeaggi" />
		<tag k="name" v="Golggotjeakkit" />
		<tag k="name:se" v="Golggotjeakkit" />
		<tag k="natural" v="wetland" />
		<tag k="old_name:se" v="Gålgutjæggit" />
		<tag k="ssr:stedsnr" v="323834" />
	</node>
	<node id="-807405" lat="70.1777889165" lon="28.2551686532">
		<tag k="name" v="Rihtájeakkit" />
		<tag k="name:se" v="Rihtájeakkit" />
		<tag k="natural" v="wetland" />
		<tag k="ssr:stedsnr" v="95673" />
	</node>
	<node id="-808422" lat="69.8951694586" lon="26.2716385131">
		<tag k="name" v="Gussarohtu" />
		<tag k="name:se" v="Gussarohtu" />
		<tag k="old_name:se" v="Gussaråtto" />
		<tag k="place" v="locality" />
		<tag k="ssr:stedsnr" v="686975" />
	</node>
	<node id="-807396" lat="70.2389139165" lon="28.1414686893">
		<tag k="name" v="Vierasaivuovdi" />
		<tag k="name:se" v="Vierasaivuovdi" />
		<tag k="place" v="locality" />
		<tag k="ssr:stedsnr" v="95391" />
	</node>
	<node id="-807394" lat="70.4128777957" lon="28.0440382055">
		<tag k="name" v="Suollemasjeaggi" />
		<tag k="name:se" v="Suollemasjeaggi" />
		<tag k="natural" v="wetland" />
		<tag k="ssr:stedsnr" v="95283" />
	</node>
	<node id="-806877" lat="70.0208972331" lon="26.665713459">
		<tag k="name" v="Borsejeakkit" />
		<tag k="name:se" v="Borsejeakkit" />
		<tag k="natural" v="wetland" />
		<tag k="ssr:stedsnr" v="323423" />
	</node>
	<node id="-807387" lat="70.4960722462" lon="28.3424936898">
		<tag k="name" v="Solvang" />
		<tag k="name:no" v="Solvang" />
		<tag k="place" v="locality" />
		<tag k="ssr:stedsnr" v="95007" />
	</node>
	<node id="-807384" lat="70.4681277993" lon="28.0398715508">
		<tag k="name" v="Guhkessuonjot" />
		<tag k="name:se" v="Guhkessuonjot" />
		<tag k="natural" v="wetland" />
		<tag k="ssr:stedsnr" v="94849" />
	</node>
	<node id="-807382" lat="70.0804528015" lon="28.0711964728">
		<tag k="landuse" v="meadow" />
		<tag k="name" v="Gabbegieddi" />
		<tag k="name:se" v="Gabbegieddi" />
		<tag k="ssr:stedsnr" v="94773" />
	</node>
	<node id="-808917" lat="69.9283027928" lon="27.1157939208">
		<tag k="name" v="Rássemielli" />
		<tag k="name:se" v="Rássemielli" />
		<tag k="old_name:se" v="Rassemielli" />
		<tag k="place" v="locality" />
		<tag k="ssr:stedsnr" v="877907" />
	</node>
	<node id="-807890" lat="70.1444028025" lon="28.1477936708">
		<tag k="name" v="Lišmmajeaggi" />
		<tag k="name:se" v="Lišmmajeaggi" />
		<tag k="natural" v="wetland" />
		<tag k="old_name:se" v="Lišmajæggi" />
		<tag k="ssr:stedsnr" v="444976" />
	</node>
	<node id="-807376" lat="69.9160944595" lon="27.0501772617">
		<tag k="name" v="Guoikajeaggi" />
		<tag k="name:se" v="Guoikajeaggi" />
		<tag k="natural" v="wetland" />
		<tag k="old_name:se" v="Guoikajæggi" />
		<tag k="ssr:stedsnr" v="88916" />
	</node>
	<node id="-807881" lat="70.2476111392" lon="28.1783297921">
		<tag k="name" v="Bodnesáttu" />
		<tag k="name:se" v="Bodnesáttu" />
		<tag k="old_name:se" v="Bådnesaddo" />
		<tag k="place" v="locality" />
		<tag k="ssr:stedsnr" v="444944" />
	</node>
	<node id="-808391" lat="70.1780028" lon="28.1314297891">
		<tag k="name" v="Gámasuoinsuovka" />
		<tag k="name:se" v="Gámasuoinsuovka" />
		<tag k="place" v="locality" />
		<tag k="ssr:stedsnr" v="640995" />
	</node>
	<node id="-807362" lat="70.4456555688" lon="27.8937938138">
		<tag k="name" v="Duoivejeaggi" />
		<tag k="name:se" v="Duoivejeaggi" />
		<tag k="natural" v="wetland" />
		<tag k="old_name:se" v="Duoivejæggi" />
		<tag k="ssr:stedsnr" v="81123" />
	</node>
	<node id="-808385" lat="70.1331583615" lon="28.1790547843">
		<tag k="name" v="Sahástellet" />
		<tag k="name:se" v="Sahástellet" />
		<tag k="place" v="locality" />
		<tag k="ssr:stedsnr" v="640868" />
	</node>
	<node id="-806844" lat="70.1670250244" lon="28.1839964612">
		<tag k="name" v="Suohpanjárjeaggi" />
		<tag k="name:se" v="Suohpanjárjeaggi" />
		<tag k="natural" v="wetland" />
		<tag k="old_name:se" v="Suoppanjarjæggi" />
		<tag k="ssr:stedsnr" v="322963" />
	</node>
	<node id="-807355" lat="70.0353972497" lon="27.9856464767">
		<tag k="name" v="Várrejeaggi" />
		<tag k="name:se" v="Várrejeaggi" />
		<tag k="natural" v="wetland" />
		<tag k="old_name:se" v="Varrejæggi" />
		<tag k="ssr:stedsnr" v="80942" />
	</node>
	<node id="-806842" lat="70.1709166889" lon="27.7126410343">
		<tag k="name" v="Gárenrohtu" />
		<tag k="name:se" v="Gárenrohtu" />
		<tag k="old_name:se" v="Garenråtto" />
		<tag k="place" v="locality" />
		<tag k="ssr:stedsnr" v="322954" />
	</node>
	<node id="-807350" lat="70.1167583561" lon="28.1194103488">
		<tag k="name" v="Ruksesjeaggi" />
		<tag k="name:se" v="Ruksesjeaggi" />
		<tag k="natural" v="wetland" />
		<tag k="old_name:se" v="Ruksesjæggi" />
		<tag k="ssr:stedsnr" v="80894" />
	</node>
	<node id="-806834" lat="69.9454666965" lon="28.1428269818">
		<tag k="name" v="Leaibejohjeaggi" />
		<tag k="name:se" v="Leaibejohjeaggi" />
		<tag k="natural" v="wetland" />
		<tag k="old_name:se" v="Læibejåkjæggi" />
		<tag k="ssr:stedsnr" v="322756" />
	</node>
	<node id="-807345" lat="70.143269468" lon="28.1322936814">
		<tag k="name" v="Guovžajeaggi" />
		<tag k="name:se" v="Guovžajeaggi" />
		<tag k="natural" v="wetland" />
		<tag k="old_name:se" v="Guovžajæggi" />
		<tag k="ssr:stedsnr" v="80979" />
	</node>
	<node id="-807856" lat="70.1421111308" lon="27.5046882912">
		<tag k="name" v="Stuorramaras" />
		<tag k="name:se" v="Stuorramaras" />
		<tag k="place" v="locality" />
		<tag k="ssr:stedsnr" v="444440" />
	</node>
	<node id="-807855" lat="70.1350527984" lon="27.5890660436">
		<tag k="name" v="Sáttomiellevuovdi" />
		<tag k="name:se" v="Sáttomiellevuovdi" />
		<tag k="old_name:se" v="Saddumiellevuovdi" />
		<tag k="place" v="locality" />
		<tag k="ssr:stedsnr" v="444432" />
	</node>
	<node id="-808877" lat="70.0898444682" lon="28.0555825934">
		<tag k="name" v="Geaidnojeaggi" />
		<tag k="name:se" v="Geaidnojeaggi" />
		<tag k="natural" v="wetland" />
		<tag k="old_name:se" v="Gæidnujæggi" />
		<tag k="ssr:stedsnr" v="869905" />
	</node>
	<node id="-808875" lat="70.0202722375" lon="27.2513439001">
		<tag k="name" v="Ávženjálbmi" />
		<tag k="name:se" v="Ávženjálbmi" />
		<tag k="old_name:se" v="Avženjalbmi" />
		<tag k="place" v="locality" />
		<tag k="ssr:stedsnr" v="869528" />
	</node>
	<node id="-808354" lat="70.4946944635" lon="28.334174255">
		<tag k="name" v="Hammersletta" />
		<tag k="name:no" v="Hammersletta" />
		<tag k="place" v="locality" />
		<tag k="ssr:stedsnr" v="640006" />
	</node>
	<node id="-808353" lat="70.1459500274" lon="28.1407464576">
		<tag k="name" v="Lišmmajohsuovkkat" />
		<tag k="name:se" v="Lišmmajohsuovkkat" />
		<tag k="place" v="locality" />
		<tag k="ssr:stedsnr" v="640005" />
	</node>
	<node id="-807151" lat="70.0927000256" lon="27.811274318">
		<tag k="name" v="Fanasgieddjeakkit" />
		<tag k="name:se" v="Fanasgieddjeakkit" />
		<tag k="natural" v="wetland" />
		<tag k="ssr:stedsnr" v="894322" />
	</node>
	<node id="-806807" lat="70.1201611384" lon="28.1593742326">
		<tag k="landuse" v="meadow" />
		<tag k="name" v="Rávnnáhkogieddi" />
		<tag k="name:se" v="Rávnnáhkogieddi" />
		<tag k="ssr:stedsnr" v="277962" />
	</node>
	<node id="-806805" lat="70.1169472509" lon="28.128040891">
		<tag k="name" v="Goržetjeaggi" />
		<tag k="name:se" v="Goržetjeaggi" />
		<tag k="natural" v="wetland" />
		<tag k="ssr:stedsnr" v="277950" />
	</node>
	<node id="-806802" lat="70.1216944692" lon="28.0984020222">
		<tag k="name" v="Loddesuovka" />
		<tag k="name:se" v="Loddesuovka" />
		<tag k="place" v="locality" />
		<tag k="ssr:stedsnr" v="277842" />
	</node>
	<node id="-807064" lat="70.0921333568" lon="27.898910403">
		<tag k="landuse" v="meadow" />
		<tag k="name" v="Fredagieddi" />
		<tag k="name:se" v="Fredagieddi" />
		<tag k="ssr:stedsnr" v="398447" />
	</node>
	<node id="-806788" lat="70.2410416872" lon="28.1548075853">
		<tag k="landuse" v="meadow" />
		<tag k="name" v="Vierasaijohgieddi" />
		<tag k="name:se" v="Vierasaijohgieddi" />
		<tag k="ssr:stedsnr" v="277417" />
	</node>
	<node id="-807574" lat="70.1186639121" lon="28.1483769897">
		<tag k="name" v="Jogašsieđga" />
		<tag k="name:se" v="Jogašsieđga" />
		<tag k="place" v="locality" />
		<tag k="ssr:stedsnr" v="155960" />
	</node>
	<node id="-808833" lat="70.0892166865" lon="27.8179271051">
		<tag k="name" v="Soappejeaggi" />
		<tag k="name:se" v="Soappejeaggi" />
		<tag k="natural" v="wetland" />
		<tag k="ssr:stedsnr" v="833389" />
	</node>
	<node id="-809024" lat="70.2816277975" lon="28.0849603756">
		<tag k="name" v="Haukkijänkkä" />
		<tag k="name:fkv" v="Haukkijänkkä" />
		<tag k="natural" v="wetland" />
		<tag k="ssr:stedsnr" v="944320" />
	</node>
	<node id="-808830" lat="70.090947242" lon="27.8298881977">
		<tag k="name" v="Jogabealejeaggi" />
		<tag k="name:se" v="Jogabealejeaggi" />
		<tag k="natural" v="wetland" />
		<tag k="ssr:stedsnr" v="833339" />
	</node>
	<node id="-806781" lat="70.1443500254" lon="28.0724325894">
		<tag k="name" v="Vilgesgeađgi" />
		<tag k="name:se" v="Vilgesgeađgi" />
		<tag k="natural" v="stone" />
		<tag k="ssr:stedsnr" v="277170" />
	</node>
	<node id="-808826" lat="70.1724166957" lon="28.1907547755">
		<tag k="name" v="Čierrunjeaggi" />
		<tag k="name:se" v="Čierrunjeaggi" />
		<tag k="natural" v="wetland" />
		<tag k="ssr:stedsnr" v="823857" />
	</node>
	<node id="-808823" lat="70.1404583539" lon="28.0401853813">
		<tag k="landuse" v="meadow" />
		<tag k="name" v="Gieddat" />
		<tag k="name:se" v="Gieddat" />
		<tag k="ssr:stedsnr" v="823795" />
	</node>
	<node id="-807285" lat="69.9770000112" lon="26.7973745437">
		<tag k="name" v="Peđarjeaggi" />
		<tag k="name:se" v="Peđarjeaggi" />
		<tag k="natural" v="wetland" />
		<tag k="ssr:stedsnr" v="44929" />
	</node>
	<node id="-807279" lat="70.1157944708" lon="28.162249228">
		<tag k="landuse" v="meadow" />
		<tag k="name" v="Leaiberohtu" />
		<tag k="name:se" v="Leaiberohtu" />
		<tag k="ssr:stedsnr" v="34951" />
	</node>
	<node id="-808813" lat="70.0672583584" lon="28.0144103597">
		<tag k="landuse" v="meadow" />
		<tag k="name" v="Luotnegieddi" />
		<tag k="name:se" v="Luotnegieddi" />
		<tag k="ssr:stedsnr" v="823468" />
	</node>
	<node id="-808811" lat="70.2343000215" lon="28.1945964507">
		<tag k="name" v="Márjeaggi" />
		<tag k="name:se" v="Márjeaggi" />
		<tag k="natural" v="wetland" />
		<tag k="ssr:stedsnr" v="823425" />
	</node>
	<node id="-807274" lat="70.169394471" lon="28.1610964692">
		<tag k="name" v="Gumpejeaggi" />
		<tag k="name:se" v="Gumpejeaggi" />
		<tag k="natural" v="wetland" />
		<tag k="ssr:stedsnr" v="34864" />
	</node>
	<node id="-807143" lat="70.1063305769" lon="28.1227242327">
		<tag k="name" v="Balsajeaggi" />
		<tag k="name:se" v="Balsajeaggi" />
		<tag k="natural" v="wetland" />
		<tag k="ssr:stedsnr" v="884941" />
	</node>
	<node id="-808807" lat="70.3204527995" lon="28.0933381616">
		<tag k="name" v="Čorrovárjeakkit" />
		<tag k="name:se" v="Čorrovárjeakkit" />
		<tag k="natural" v="wetland" />
		<tag k="ssr:stedsnr" v="823232" />
	</node>
	<node id="-808804" lat="70.219872244" lon="28.1807464644">
		<tag k="name" v="Mihkkalgieddi" />
		<tag k="name:se" v="Mihkkalgieddi" />
		<tag k="place" v="locality" />
		<tag k="ssr:stedsnr" v="823099" />
	</node>
	<node id="-808284" lat="70.12659447" lon="28.1045270331">
		<tag k="name" v="Loddejeaggi" />
		<tag k="name:se" v="Loddejeaggi" />
		<tag k="natural" v="wetland" />
		<tag k="old_name:se" v="Låddejæggi" />
		<tag k="ssr:stedsnr" v="625997" />
	</node>
	<node id="-808282" lat="70.1370083576" lon="28.1296742298">
		<tag k="alt_name:se" v="Jovnn-Niillasjeaggi" />
		<tag k="name" v="Joreniillasjeaggi" />
		<tag k="name:se" v="Joreniillasjeaggi" />
		<tag k="natural" v="wetland" />
		<tag k="old_name:se" v="Jåreniilasjæggi" />
		<tag k="ssr:stedsnr" v="625984" />
	</node>
	<node id="-807054" lat="70.4650750219" lon="28.3023020161">
		<tag k="name" v="Langnesmyra" />
		<tag k="name:no" v="Langnesmyra" />
		<tag k="natural" v="wetland" />
		<tag k="ssr:stedsnr" v="398081" />
	</node>
	<node id="-808274" lat="70.1293361306" lon="27.528949389">
		<tag k="name" v="Jeakkaš" />
		<tag k="name:se" v="Jeakkaš" />
		<tag k="natural" v="wetland" />
		<tag k="old_name:se" v="Jæggaš;Jeakkáš" />
		<tag k="ssr:stedsnr" v="625452" />
	</node>
	<node id="-807248" lat="70.1984722475" lon="28.2434186649">
		<tag k="name" v="Badjesaijeaggi" />
		<tag k="name:se" v="Badjesaijeaggi" />
		<tag k="natural" v="wetland" />
		<tag k="ssr:stedsnr" v="33902" />
	</node>
	<node id="-808782" lat="70.4757083541" lon="28.3566964617">
		<tag k="name" v="Fagernes" />
		<tag k="name:no" v="Fagernes" />
		<tag k="place" v="locality" />
		<tag k="ssr:stedsnr" v="809863" />
	</node>
	<node id="-807754" lat="70.170147244" lon="28.1720492239">
		<tag k="name" v="Guhkesjeaggi" />
		<tag k="name:se" v="Guhkesjeaggi" />
		<tag k="natural" v="wetland" />
		<tag k="old_name:se" v="Gukkesjæggi" />
		<tag k="ssr:stedsnr" v="261981" />
	</node>
	<node id="-807740" lat="70.0705416897" lon="27.56698271">
		<tag k="landuse" v="meadow" />
		<tag k="name" v="Giettat" />
		<tag k="name:se" v="Giettat" />
		<tag k="ssr:stedsnr" v="226356" />
	</node>
	<node id="-808246" lat="70.4101139064" lon="28.1137437387">
		<tag k="name" v="Guohcajeaggi - Råttenmyra" />
		<tag k="name:no" v="Råttenmyra" />
		<tag k="name:se" v="Guohcajeaggi" />
		<tag k="natural" v="wetland" />
		<tag k="ssr:stedsnr" v="580904" />
	</node>
	<node id="-808243" lat="70.1215500236" lon="28.1430353346">
		<tag k="name" v="Luovdejeaggi" />
		<tag k="name:se" v="Luovdejeaggi" />
		<tag k="natural" v="wetland" />
		<tag k="ssr:stedsnr" v="580743" />
	</node>
	<node id="-807728" lat="70.1414528009" lon="28.1809992076">
		<tag k="landuse" v="meadow" />
		<tag k="name" v="Eváeana" />
		<tag k="name:se" v="Eváeana" />
		<tag k="ssr:stedsnr" v="216860" />
	</node>
	<node id="-807570" lat="70.2156166942" lon="28.2171297885">
		<tag k="name" v="Smáhkkomuorjeaggi" />
		<tag k="name:se" v="Smáhkkomuorjeaggi" />
		<tag k="natural" v="wetland" />
		<tag k="ssr:stedsnr" v="155871" />
	</node>
	<node id="-808238" lat="70.1601472457" lon="28.2389575493">
		<tag k="name" v="Telegráfjeaggi" />
		<tag k="name:se" v="Telegráfjeaggi" />
		<tag k="natural" v="wetland" />
		<tag k="ssr:stedsnr" v="580556" />
	</node>
	<node id="-808235" lat="70.1050222456" lon="27.9152492987">
		<tag k="name" v="Vievssejeaggi" />
		<tag k="name:se" v="Vievssejeaggi" />
		<tag k="natural" v="wetland" />
		<tag k="ssr:stedsnr" v="580458" />
	</node>
	<node id="-808232" lat="70.2334083569" lon="28.3810408333">
		<tag k="name" v="Pierasuovka" />
		<tag k="name:se" v="Pierasuovka" />
		<tag k="place" v="locality" />
		<tag k="ssr:stedsnr" v="580388" />
	</node>
	<node id="-807717" lat="70.1602166901" lon="28.2862186209">
		<tag k="name" v="Gárgolájot" />
		<tag k="name:se" v="Gárgolájot" />
		<tag k="natural" v="wetland" />
		<tag k="ssr:stedsnr" v="216569" />
	</node>
	<node id="-807204" lat="70.1409389142" lon="28.130632562">
		<tag k="name" v="Ruovdejeaggi" />
		<tag k="name:se" v="Ruovdejeaggi" />
		<tag k="natural" v="wetland" />
		<tag k="old_name:se" v="Ruovdejæggi" />
		<tag k="ssr:stedsnr" v="19970" />
	</node>
	<node id="-808226" lat="70.437302796" lon="28.2160409234">
		<tag k="loc_name:se" v="Alggávárjeaggi" />
		<tag k="name" v="Snøfjellmyra" />
		<tag k="name:no" v="Snøfjellmyra" />
		<tag k="natural" v="wetland" />
		<tag k="ssr:stedsnr" v="580168" />
	</node>
	<node id="-807711" lat="70.4454639044" lon="27.8199604853">
		<tag k="name" v="Bakkebukt" />
		<tag k="name:no" v="Bakkebukt" />
		<tag k="place" v="locality" />
		<tag k="ssr:stedsnr" v="216356" />
	</node>
	<node id="-808222" lat="70.1443583594" lon="28.1833825533">
		<tag k="name" v="Boaresbáikgieddi" />
		<tag k="name:se" v="Boaresbáikgieddi" />
		<tag k="place" v="locality" />
		<tag k="ssr:stedsnr" v="580014" />
	</node>
	<node id="-807704" lat="70.2272777969" lon="28.1595659205">
		<tag k="name" v="Bikkáhkogieddi" />
		<tag k="name:se" v="Bikkáhkogieddi" />
		<tag k="place" v="locality" />
		<tag k="ssr:stedsnr" v="216094" />
	</node>
	<node id="-807044" lat="70.0284889174" lon="28.0031798048">
		<tag k="name" v="Buolbmátvuovdi" />
		<tag k="name:se" v="Buolbmátvuovdi" />
		<tag k="place" v="locality" />
		<tag k="ssr:stedsnr" v="392955" />
	</node>
	<node id="-808605" lat="70.2482166863" lon="28.1151603636">
		<tag k="loc_name:fkv" v="Lypsinjänkkä" />
		<tag k="loc_name:no" v="Melkemyra" />
		<tag k="name" v="Liksegurjeaggi" />
		<tag k="name:se" v="Liksegurjeaggi" />
		<tag k="natural" v="wetland" />
		<tag k="old_name:se" v="Liksegurjæggi" />
		<tag k="ssr:stedsnr" v="747940" />
	</node>
	<node id="-807183" lat="70.1334528027" lon="28.2985519452">
		<tag k="name" v="Ruossajeaggi - Korsmyrane" />
		<tag k="name:no" v="Korsmyrane" />
		<tag k="name:se" v="Ruossajeaggi" />
		<tag k="natural" v="wetland" />
		<tag k="old_name:se" v="Ruossajæggi" />
		<tag k="ssr:stedsnr" v="19753" />
	</node>
	<node id="-808717" lat="70.1815139111" lon="28.1770825578">
		<tag k="landuse" v="landfill" />
		<tag k="name" v="Gassanjárga avfallsplass" />
		<tag k="name:se" v="Gassanjárga avfallsplass" />
		<tag k="ssr:stedsnr" v="783980" />
	</node>
	<node id="-807381" lat="70.026744465" lon="28.0127353673">
		<tag k="name" v="Buolbmátjeaggi" />
		<tag k="name:se" v="Buolbmátjeaggi" />
		<tag k="natural" v="wetland" />
		<tag k="ssr:stedsnr" v="94644" />
	</node>
	<node id="-808697" lat="70.1232000219" lon="28.0539659221">
		<tag k="name" v="Biggesuovka" />
		<tag k="name:se" v="Biggesuovka" />
		<tag k="place" v="locality" />
		<tag k="ssr:stedsnr" v="762818" />
	</node>
	<node id="-807581" lat="70.0875472462" lon="27.8259909911">
		<tag k="name" v="Sámmol-Ellejeaggi" />
		<tag k="name:se" v="Sámmol-Ellejeaggi" />
		<tag k="natural" v="wetland" />
		<tag k="ssr:stedsnr" v="165383" />
	</node>
	<node id="-808175" lat="70.0949528036" lon="28.001024271">
		<tag k="name" v="Gáhrotjeaggi" />
		<tag k="name:se" v="Gáhrotjeaggi" />
		<tag k="natural" v="wetland" />
		<tag k="old_name:se" v="Gahrutjæggi" />
		<tag k="ssr:stedsnr" v="565899" />
	</node>
	<node id="-808686" lat="70.0963278018" lon="28.0778103489">
		<tag k="name" v="Áksionvuovdi" />
		<tag k="name:se" v="Áksionvuovdi" />
		<tag k="place" v="locality" />
		<tag k="ssr:stedsnr" v="762665" />
	</node>
	<node id="-808172" lat="70.1162666924" lon="28.0945714692">
		<tag k="alt_name:se" v="Rivttotjeaggi" />
		<tag k="name" v="Rivttotjeakkit" />
		<tag k="name:se" v="Rivttotjeakkit" />
		<tag k="natural" v="wetland" />
		<tag k="old_name:se" v="Rivtutjæggit" />
		<tag k="ssr:stedsnr" v="565883" />
	</node>
	<node id="-808679" lat="70.0583916931" lon="28.0097826042">
		<tag k="name" v="Ruovdesaijeaggi" />
		<tag k="name:se" v="Ruovdesaijeaggi" />
		<tag k="natural" v="wetland" />
		<tag k="ssr:stedsnr" v="762495" />
	</node>
	<node id="-807427" lat="69.9183139082" lon="27.0604883831">
		<tag k="name" v="Beadjamielli" />
		<tag k="name:se" v="Beadjamielli" />
		<tag k="place" v="locality" />
		<tag k="ssr:stedsnr" v="105988" />
	</node>
	<node id="-807140" lat="70.1314639117" lon="28.1789964475">
		<tag k="landuse" v="meadow" />
		<tag k="name" v="Mohkkegieddi" />
		<tag k="name:se" v="Mohkkegieddi" />
		<tag k="ssr:stedsnr" v="884849" />
	</node>
	<node id="-808158" lat="70.0225972426" lon="27.4262299779">
		<tag k="name" v="Sirpmávuovdi" />
		<tag k="name:se" v="Sirpmávuovdi" />
		<tag k="old_name:se" v="Sirbmavuovdi" />
		<tag k="place" v="locality" />
		<tag k="ssr:stedsnr" v="565470" />
	</node>
	<node id="-807132" lat="70.131030584" lon="28.1796992277">
		<tag k="name" v="Duvttat" />
		<tag k="name:se" v="Duvttat" />
		<tag k="place" v="locality" />
		<tag k="ssr:stedsnr" v="884715" />
	</node>
	<node id="-806948" lat="70.1032055784" lon="28.1149409071">
		<tag k="name" v="Lállošvuovdi" />
		<tag k="name:se" v="Lállošvuovdi" />
		<tag k="place" v="locality" />
		<tag k="ssr:stedsnr" v="337810" />
	</node>
	<node id="-807126" lat="70.1590000281" lon="28.2784075399">
		<tag k="name" v="Buvssajeaggi" />
		<tag k="name:se" v="Buvssajeaggi" />
		<tag k="natural" v="wetland" />
		<tag k="ssr:stedsnr" v="884555" />
	</node>
	<node id="-807124" lat="70.182752801" lon="28.3194686149">
		<tag k="name" v="Gámmajeaggi" />
		<tag k="name:se" v="Gámmajeaggi" />
		<tag k="natural" v="wetland" />
		<tag k="ssr:stedsnr" v="884473" />
	</node>
	<node id="-807123" lat="70.1070805763" lon="27.9187437332">
		<tag k="name" v="Jorbajeaggi" />
		<tag k="name:se" v="Jorbajeaggi" />
		<tag k="natural" v="wetland" />
		<tag k="ssr:stedsnr" v="884459" />
	</node>
	<node id="-807631" lat="70.0767250222" lon="28.0391047985">
		<tag k="name" v="Skáŋkajeaggi" />
		<tag k="name:se" v="Skáŋkajeaggi" />
		<tag k="natural" v="wetland" />
		<tag k="old_name:se" v="Skaŋkajæggi" />
		<tag k="ssr:stedsnr" v="201914" />
	</node>
	<node id="-808138" lat="70.4957055759" lon="27.9724798971">
		<tag k="name" v="Uffir" />
		<tag k="name:se" v="Uffir" />
		<tag k="natural" v="scree" />
		<tag k="ssr:stedsnr" v="565013" />
	</node>
	<node id="-808082" lat="70.0650416921" lon="28.0051131431">
		<tag k="name" v="Jannijeaggi" />
		<tag k="name:se" v="Jannijeaggi" />
		<tag k="natural" v="wetland" />
		<tag k="ssr:stedsnr" v="519561" />
	</node>
	<node id="-808643" lat="70.4485027958" lon="28.2689492487">
		<tag k="alt_name:no" v="Schancheskogen" />
		<tag k="name" v="Schankeskogen" />
		<tag k="name:no" v="Schankeskogen" />
		<tag k="place" v="locality" />
		<tag k="ssr:stedsnr" v="748788" />
	</node>
	<node id="-807617" lat="69.9682805692" lon="26.5186162607">
		<tag k="name" v="Boahkkojohsuovka" />
		<tag k="name:se" v="Boahkkojohsuovka" />
		<tag k="old_name:se" v="Boakkujåksuovka" />
		<tag k="place" v="locality" />
		<tag k="ssr:stedsnr" v="201783" />
	</node>
	<node id="-807114" lat="70.4749528009" lon="28.3109936895">
		<tag k="name" v="Lillebøen" />
		<tag k="name:no" v="Lillebøen" />
		<tag k="place" v="locality" />
		<tag k="ssr:stedsnr" v="884142" />
	</node>
	<node id="-807098" lat="69.9281500192" lon="27.1165189217">
		<tag k="name" v="Rássemielli" />
		<tag k="name:se" v="Rássemielli" />
		<tag k="place" v="locality" />
		<tag k="ssr:stedsnr" v="408990" />
	</node>
	<node id="-807096" lat="69.9363639095" lon="26.8815800712">
		<tag k="landuse" v="meadow" />
		<tag k="name" v="Junte-Máhteguovda" />
		<tag k="name:se" v="Junte-Máhteguovda" />
		<tag k="ssr:stedsnr" v="408839" />
	</node>
	<node id="-807089" lat="70.1667222503" lon="28.1310881289">
		<tag k="name" v="Luktelájot" />
		<tag k="name:se" v="Luktelájot" />
		<tag k="natural" v="wetland" />
		<tag k="ssr:stedsnr" v="398980" />
	</node>
	<node id="-808109" lat="70.0773528016" lon="27.7895326737">
		<tag k="name" v="Boaresgiettit" />
		<tag k="name:se" v="Boaresgiettit" />
		<tag k="place" v="locality" />
		<tag k="ssr:stedsnr" v="529320" />
	</node>
	<node id="-808107" lat="70.0874944641" lon="27.7506882308">
		<tag k="name" v="Biedjojeaggi" />
		<tag k="name:se" v="Biedjojeaggi" />
		<tag k="natural" v="wetland" />
		<tag k="ssr:stedsnr" v="529291" />
	</node>
	<node id="-808617" lat="70.1258889105" lon="27.6507049347">
		<tag k="loc_name:se" v="Luovivuovdi" />
		<tag k="name" v="Luovevuovdi" />
		<tag k="name:se" v="Luovevuovdi" />
		<tag k="place" v="locality" />
		<tag k="ssr:stedsnr" v="747992" />
	</node>
	<node id="-806940" lat="70.0397305808" lon="27.9921936997">
		<tag k="name" v="Rávderkkerohtu" />
		<tag k="name:se" v="Rávderkkerohtu" />
		<tag k="place" v="locality" />
		<tag k="ssr:stedsnr" v="337554" />
	</node>
	<node id="-807076" lat="70.1086333599" lon="28.1169853465">
		<tag k="name" v="Riidorohtu" />
		<tag k="name:se" v="Riidorohtu" />
		<tag k="place" v="locality" />
		<tag k="ssr:stedsnr" v="398796" />
	</node>
	<node id="-807072" lat="70.0810305811" lon="28.091652017">
		<tag k="landuse" v="meadow" />
		<tag k="name" v="Erkkegođiidgieddi" />
		<tag k="name:se" v="Erkkegođiidgieddi" />
		<tag k="ssr:stedsnr" v="398699" />
	</node>
	<node id="-807069" lat="70.1556583541" lon="28.2732908641">
		<tag k="name" v="Suolojeaggi" />
		<tag k="name:se" v="Suolojeaggi" />
		<tag k="natural" v="wetland" />
		<tag k="ssr:stedsnr" v="398583" />
	</node>
	<node id="-808092" lat="70.058311134" lon="28.0459020286">
		<tag k="landuse" v="quarry" />
		<tag k="name" v="Sáttosadji" />
		<tag k="name:se" v="Sáttosadji" />
		<tag k="ssr:stedsnr" v="519816" />
	</node>
	<node id="-807066" lat="70.0602222463" lon="27.9964798152">
		<tag k="name" v="Balsajeaggi" />
		<tag k="name:se" v="Balsajeaggi" />
		<tag k="natural" v="wetland" />
		<tag k="ssr:stedsnr" v="398497" />
	</node>
	<node id="-807065" lat="70.0870389148" lon="27.9684187356">
		<tag k="name" v="Tuolláreana" />
		<tag k="name:se" v="Tuolláreana" />
		<tag k="place" v="locality" />
		<tag k="ssr:stedsnr" v="398458" />
	</node>
	<node id="-808088" lat="70.1713139143" lon="28.204876997">
		<tag k="name" v="Hedeguohpsáttu" />
		<tag k="name:se" v="Hedeguohpsáttu" />
		<tag k="natural" v="beach" />
		<tag k="ssr:stedsnr" v="519706" />
		<tag k="surface" v="sand" />
	</node>
	<node id="-808086" lat="70.0747000233" lon="28.0719686716">
		<tag k="name" v="Suolosáttu" />
		<tag k="name:se" v="Suolosáttu" />
		<tag k="natural" v="beach" />
		<tag k="ssr:stedsnr" v="519661" />
		<tag k="surface" v="sand" />
	</node>
	<node id="-807573" lat="70.1605361387" lon="28.260293659">
		<tag k="name" v="Čohkkángeađgi" />
		<tag k="name:se" v="Čohkkángeađgi" />
		<tag k="natural" v="stone" />
		<tag k="ssr:stedsnr" v="155893" />
	</node>
	<node id="-807058" lat="70.4376889083" lon="28.2538770372">
		<tag k="name" v="Bjørkeskogen" />
		<tag k="name:no" v="Bjørkeskogen" />
		<tag k="place" v="locality" />
		<tag k="ssr:stedsnr" v="398188" />
	</node>
	<node id="-808078" lat="70.0699805758" lon="27.9884409253">
		<tag k="name" v="Listtajeaggi" />
		<tag k="name:se" v="Listtajeaggi" />
		<tag k="natural" v="wetland" />
		<tag k="ssr:stedsnr" v="519509" />
	</node>
	<node id="-808077" lat="70.0684277998" lon="27.9714659434">
		<tag k="name" v="Skárllatjeaggi" />
		<tag k="name:se" v="Skárllatjeaggi" />
		<tag k="natural" v="wetland" />
		<tag k="ssr:stedsnr" v="519505" />
	</node>
	<node id="-807563" lat="70.1718528018" lon="28.2130936719">
		<tag k="name" v="Doaresfierran" />
		<tag k="name:se" v="Doaresfierran" />
		<tag k="natural" v="beach" />
		<tag k="ssr:stedsnr" v="155698" />
		<tag k="surface" v="sand" />
	</node>
	<node id="-807050" lat="70.1426500217" lon="28.1990658829">
		<tag k="name" v="Áddjárohtu" />
		<tag k="name:se" v="Áddjárohtu" />
		<tag k="place" v="locality" />
		<tag k="ssr:stedsnr" v="398014" />
	</node>
	<node id="-808585" lat="70.0657028013" lon="27.4748188546">
		<tag k="name" v="Ládjojeaggi" />
		<tag k="name:se" v="Ládjojeaggi" />
		<tag k="natural" v="wetland" />
		<tag k="old_name:se" v="Laddjujækki" />
		<tag k="ssr:stedsnr" v="747464" />
	</node>
	<node id="-808071" lat="70.2904194669" lon="28.0727242734">
		<tag k="name" v="Golggotjeaggi" />
		<tag k="name:se" v="Golggotjeaggi" />
		<tag k="natural" v="wetland" />
		<tag k="ssr:stedsnr" v="519300" />
	</node>
	<node id="-807873" lat="70.1118694658" lon="28.1345353381">
		<tag k="alt_name:se" v="Pier-Ándarasjeaggi" />
		<tag k="name" v="Pierándarasjeaggi" />
		<tag k="name:se" v="Pierándarasjeaggi" />
		<tag k="natural" v="wetland" />
		<tag k="old_name:se" v="Pierandarasjæggi" />
		<tag k="ssr:stedsnr" v="444889" />
	</node>
	<node id="-807556" lat="70.1613528066" lon="28.2233769899">
		<tag k="name" v="Stuorrarohtu" />
		<tag k="name:se" v="Stuorrarohtu" />
		<tag k="place" v="locality" />
		<tag k="ssr:stedsnr" v="155584" />
	</node>
	<node id="-807555" lat="70.1535389119" lon="28.2352464339">
		<tag k="name" v="Beakkajeaggi" />
		<tag k="name:se" v="Beakkajeaggi" />
		<tag k="natural" v="wetland" />
		<tag k="ssr:stedsnr" v="155581" />
	</node>
	<node id="-807275" lat="70.2184361346" lon="28.2103714522">
		<tag k="name" v="Villejeaggi" />
		<tag k="name:se" v="Villejeaggi" />
		<tag k="natural" v="wetland" />
		<tag k="ssr:stedsnr" v="34865" />
	</node>
	<node id="-807551" lat="70.0471583598" lon="28.0127103719">
		<tag k="name" v="Fárrenjeaggi" />
		<tag k="name:se" v="Fárrenjeaggi" />
		<tag k="natural" v="wetland" />
		<tag k="ssr:stedsnr" v="155522" />
	</node>
	<node id="-808060" lat="70.0832611356" lon="27.9785020585">
		<tag k="name" v="Jovsseteana" />
		<tag k="name:no" v="Jovsseteana" />
		<tag k="place" v="locality" />
		<tag k="ssr:stedsnr" v="513776" />
	</node>
	<node id="-807536" lat="70.2130555755" lon="28.1710603594">
		<tag k="name" v="Áđga" />
		<tag k="name:se" v="Áđga" />
		<tag k="natural" v="beach" />
		<tag k="ssr:stedsnr" v="155132" />
		<tag k="surface" v="sand" />
	</node>
	<node id="-807535" lat="70.4979944668" lon="28.3361492627">
		<tag k="name" v="Benjaminsmyra" />
		<tag k="name:no" v="Benjaminsmyra" />
		<tag k="natural" v="wetland" />
		<tag k="ssr:stedsnr" v="155015" />
	</node>
	<node id="-808558" lat="70.0831361362" lon="28.0574214704">
		<tag k="name" v="Golggotjeaggi" />
		<tag k="name:se" v="Golggotjeaggi" />
		<tag k="natural" v="wetland" />
		<tag k="ssr:stedsnr" v="727391" />
	</node>
	<node id="-808045" lat="70.0384916903" lon="27.9831798092">
		<tag k="name" v="Loffajeaggi" />
		<tag k="name:se" v="Loffajeaggi" />
		<tag k="natural" v="wetland" />
		<tag k="old_name:se" v="Låffajæggi" />
		<tag k="ssr:stedsnr" v="505914" />
	</node>
	<node id="-808548" lat="69.9785916861" lon="26.7153634482">
		<tag k="name" v="Borsejeakkáš" />
		<tag k="name:se" v="Borsejeakkáš" />
		<tag k="natural" v="wetland" />
		<tag k="ssr:stedsnr" v="711881" />
	</node>
	<node id="-809055" lat="69.9992472429" lon="27.3735411011">
		<tag k="name" v="Suvemielli" />
		<tag k="name:se" v="Suvemielli" />
		<tag k="place" v="locality" />
		<tag k="ssr:stedsnr" v="954219" />
	</node>
	<node id="-809047" lat="70.1902444711" lon="28.226165879">
		<tag k="name" v="Luomejeaggi" />
		<tag k="name:se" v="Luomejeaggi" />
		<tag k="natural" v="wetland" />
		<tag k="ssr:stedsnr" v="944957" />
	</node>
	<node id="-808532" lat="70.1634528017" lon="28.2444242121">
		<tag k="name" v="Muttenjeaggi" />
		<tag k="name:se" v="Muttenjeaggi" />
		<tag k="natural" v="wetland" />
		<tag k="ssr:stedsnr" v="701768" />
	</node>
	<node id="-809043" lat="70.1520333575" lon="28.2340769713">
		<tag k="name" v="Gullojeaggi" />
		<tag k="name:se" v="Gullojeaggi" />
		<tag k="natural" v="wetland" />
		<tag k="ssr:stedsnr" v="944893" />
	</node>
	<node id="-809042" lat="70.1442028048" lon="28.0621798072">
		<tag k="name" v="Gaskaládjosadji" />
		<tag k="name:se" v="Gaskaládjosadji" />
		<tag k="place" v="locality" />
		<tag k="ssr:stedsnr" v="944888" />
	</node>
	<node id="-809038" lat="70.079455577" lon="28.0692714757">
		<tag k="landuse" v="meadow" />
		<tag k="name" v="Trostengieddi" />
		<tag k="name:se" v="Trostengieddi" />
		<tag k="ssr:stedsnr" v="944743" />
	</node>
	<node id="-809036" lat="70.1705055783" lon="28.2265630893">
		<tag k="name" v="Skierrasjeaggi" />
		<tag k="name:se" v="Skierrasjeaggi" />
		<tag k="natural" v="wetland" />
		<tag k="ssr:stedsnr" v="944732" />
	</node>
	<node id="-807268" lat="70.0940500232" lon="28.083968696">
		<tag k="name" v="Káreáhkojeaggi" />
		<tag k="name:se" v="Káreáhkojeaggi" />
		<tag k="natural" v="wetland" />
		<tag k="ssr:stedsnr" v="34711" />
	</node>
	<node id="-808744" lat="70.1712889127" lon="28.2384658708">
		<tag k="name" v="Skiippagurjeaggi" />
		<tag k="name:se" v="Skiippagurjeaggi" />
		<tag k="natural" v="wetland" />
		<tag k="old_name:se" v="Skiipagurjæggi" />
		<tag k="ssr:stedsnr" v="808841" />
	</node>
	<node id="-808001" lat="70.1425666916" lon="28.1092770239">
		<tag k="name" v="Rihtájeaggi" />
		<tag k="name:se" v="Rihtájeaggi" />
		<tag k="natural" v="wetland" />
		<tag k="old_name:se" v="Rittajæggi" />
		<tag k="ssr:stedsnr" v="504986" />
	</node>
	<node id="-808512" lat="70.3406361349" lon="28.1619353735">
		<tag k="landuse" v="meadow" />
		<tag k="name" v="Bakkeli" />
		<tag k="name:no" v="Bakkeli" />
		<tag k="ssr:stedsnr" v="701332" />
	</node>
	<node id="-807486" lat="70.0384889093" lon="28.0115437012">
		<tag k="name" v="Várevuoljeaggi" />
		<tag k="name:se" v="Várevuoljeaggi" />
		<tag k="natural" v="wetland" />
		<tag k="old_name:se" v="Varevuoljæggi" />
		<tag k="ssr:stedsnr" v="140936" />
	</node>
	<node id="-809021" lat="70.429877796" lon="28.0977215267">
		<tag k="name" v="Geinnodatjeakkit" />
		<tag k="name:se" v="Geinnodatjeakkit" />
		<tag k="natural" v="wetland" />
		<tag k="ssr:stedsnr" v="944302" />
	</node>
	<node id="-808505" lat="70.4987528008" lon="28.3357464649">
		<tag k="name" v="Vestgård" />
		<tag k="name:no" v="Vestgård" />
		<tag k="place" v="locality" />
		<tag k="ssr:stedsnr" v="701019" />
	</node>
	<node id="-807012" lat="70.1777778017" lon="28.1794103506">
		<tag k="name" v="Gassanjárjeaggi" />
		<tag k="name:se" v="Gassanjárjeaggi" />
		<tag k="natural" v="wetland" />
		<tag k="old_name:se" v="Gassanjarjæggi" />
		<tag k="ssr:stedsnr" v="383975" />
	</node>
	<node id="-807988" lat="70.033308354" lon="27.3726299917">
		<tag k="name" v="Divganjeaggi" />
		<tag k="name:se" v="Divganjeaggi" />
		<tag k="natural" v="wetland" />
		<tag k="old_name:se" v="Divaanjæggi" />
		<tag k="ssr:stedsnr" v="504487" />
	</node>
	<node id="-806961" lat="70.0938611342" lon="27.8431104217">
		<tag k="name" v="Lánjas" />
		<tag k="name:se" v="Lánjas" />
		<tag k="place" v="locality" />
		<tag k="ssr:stedsnr" v="347328" />
	</node>
	<node id="-808496" lat="69.9642555707" lon="27.2852772193">
		<tag k="name" v="Eliasjeaggi" />
		<tag k="name:se" v="Eliasjeaggi" />
		<tag k="natural" v="wetland" />
		<tag k="ssr:stedsnr" v="695907" />
	</node>
	<node id="-808495" lat="69.9699277986" lon="27.2854327767">
		<tag k="name" v="Eliasgárggu" />
		<tag k="name:se" v="Eliasgárggu" />
		<tag k="place" v="locality" />
		<tag k="ssr:stedsnr" v="695905" />
	</node>
	<node id="-806953" lat="70.1070250233" lon="28.1337742198">
		<tag k="name" v="Ruostojeaggi" />
		<tag k="name:se" v="Ruostojeaggi" />
		<tag k="natural" v="wetland" />
		<tag k="ssr:stedsnr" v="337946" />
	</node>
	<node id="-807460" lat="70.156377795" lon="27.3983799802">
		<tag k="name" v="Gárppejohjeaggi" />
		<tag k="name:se" v="Gárppejohjeaggi" />
		<tag k="natural" v="wetland" />
		<tag k="old_name:se" v="Garpejåkjæggi" />
		<tag k="ssr:stedsnr" v="140450" />
	</node>
	<node id="-806947" lat="70.4103833582" lon="28.2637381463">
		<tag k="name" v="Gárdat" />
		<tag k="name:se" v="Gárdat" />
		<tag k="place" v="locality" />
		<tag k="ssr:stedsnr" v="337786" />
	</node>
	<node id="-806943" lat="70.0809778037" lon="28.0560270143">
		<tag k="name" v="Issátjeaggi" />
		<tag k="name:se" v="Issátjeaggi" />
		<tag k="natural" v="wetland" />
		<tag k="ssr:stedsnr" v="337726" />
	</node>
	<node id="-807965" lat="69.9223027946" lon="27.0698966963">
		<tag k="name" v="Stuorravuovdi" />
		<tag k="name:se" v="Stuorravuovdi" />
		<tag k="place" v="locality" />
		<tag k="ssr:stedsnr" v="469986" />
	</node>
	<node id="-807964" lat="70.0705389094" lon="27.5671132607">
		<tag k="landuse" v="meadow" />
		<tag k="name" v="Giettat" />
		<tag k="name:se" v="Giettat" />
		<tag k="ssr:stedsnr" v="469248" />
	</node>
	<node id="-807258" lat="70.3010500176" lon="28.0791242863">
		<tag k="name" v="Čorrovárjeaggi" />
		<tag k="name:se" v="Čorrovárjeaggi" />
		<tag k="natural" v="wetland" />
		<tag k="ssr:stedsnr" v="34377" />
	</node>
	<node id="-806937" lat="70.1773389174" lon="28.2916630814">
		<tag k="name" v="Rihtájeakkit" />
		<tag k="name:se" v="Rihtájeakkit" />
		<tag k="natural" v="wetland" />
		<tag k="ssr:stedsnr" v="337538" />
	</node>
	<node id="-806936" lat="70.1067805752" lon="27.8809548618">
		<tag k="name" v="Rokkesisjeaggi" />
		<tag k="name:se" v="Rokkesisjeaggi" />
		<tag k="natural" v="wetland" />
		<tag k="ssr:stedsnr" v="337525" />
	</node>
	<node id="-807959" lat="70.1180750217" lon="28.1542492146">
		<tag k="name" v="Holmesundmyrene" />
		<tag k="name:no" v="Holmesundmyrene" />
		<tag k="natural" v="wetland" />
		<tag k="ssr:stedsnr" v="459946" />
	</node>
	<node id="-808467" lat="70.1020583573" lon="28.0486964644">
		<tag k="name" v="Heandaratádjájeaggi" />
		<tag k="name:se" v="Heandaratádjájeaggi" />
		<tag k="natural" v="wetland" />
		<tag k="old_name:se" v="Hændarataddjajæggi" />
		<tag k="ssr:stedsnr" v="687903" />
	</node>
	<node id="-808465" lat="70.095850019" lon="27.8587215403">
		<tag k="name" v="Mihkiljeaggi" />
		<tag k="name:se" v="Mihkiljeaggi" />
		<tag k="natural" v="wetland" />
		<tag k="old_name:se" v="Mikkiljæggi" />
		<tag k="ssr:stedsnr" v="687897" />
	</node>
	<node id="-806928" lat="70.4182000203" lon="28.0584993178">
		<tag k="name" v="Juhojeaggi" />
		<tag k="name:se" v="Juhojeaggi" />
		<tag k="natural" v="wetland" />
		<tag k="ssr:stedsnr" v="337354" />
	</node>
	<node id="-806924" lat="70.4488250232" lon="28.2586853636">
		<tag k="name" v="Eidejorda" />
		<tag k="name:no" v="Eidejorda" />
		<tag k="place" v="locality" />
		<tag k="ssr:stedsnr" v="337124" />
	</node>
	<node id="-807945" lat="70.4156111282" lon="28.0668576449">
		<tag k="landuse" v="meadow" />
		<tag k="name" v="Suoidnelokta" />
		<tag k="name:se" v="Suoidnelokta" />
		<tag k="ssr:stedsnr" v="459322" />
	</node>
	<node id="-807943" lat="70.4175416899" lon="28.0673520972">
		<tag k="name" v="Buovssajeaggi" />
		<tag k="name:se" v="Buovssajeaggi" />
		<tag k="natural" v="wetland" />
		<tag k="ssr:stedsnr" v="459321" />
	</node>
	<node id="-806917" lat="69.9974083472" lon="27.3657605412">
		<tag k="name" v="Suvemielli" />
		<tag k="name:se" v="Suvemielli" />
		<tag k="place" v="locality" />
		<tag k="ssr:stedsnr" v="331920" />
	</node>
	<node id="-806916" lat="69.989930578" lon="27.3247327628">
		<tag k="name" v="Bievrrágárgot" />
		<tag k="name:se" v="Bievrrágárgot" />
		<tag k="old_name:se" v="Bievragargot" />
		<tag k="place" v="locality" />
		<tag k="ssr:stedsnr" v="331918" />
	</node>
	<node id="-808963" lat="70.3923972454" lon="28.1549992808">
		<tag k="name" v="Dárrojeaggi" />
		<tag k="name:se" v="Dárrojeaggi" />
		<tag k="natural" v="wetland" />
		<tag k="old_name:se" v="Darrujæggi" />
		<tag k="ssr:stedsnr" v="930100" />
	</node>
	<node id="-807938" lat="70.481863914" lon="28.322029797">
		<tag k="name" v="Høyvold" />
		<tag k="name:no" v="Høyvold" />
		<tag k="place" v="locality" />
		<tag k="ssr:stedsnr" v="459136" />
	</node>
</osm>
