<?xml version="1.0" encoding="UTF-8"?>
<osm generator="osmapis" version="0.6">
	<node id="-807632" lat="70.0750305787" lon="27.9947798263">
		<tag k="amenity" v="place_of_worship" />
		<tag k="denomination" v="lutheran" />
		<tag k="loc_name:fkv" v="Pulmanki" />
		<tag k="loc_name:se" v="Buolbmát;Buolbmák" />
		<tag k="name" v="Polmak kirke" />
		<tag k="name:no" v="Polmak kirke" />
		<tag k="religion" v="christian" />
		<tag k="ssr:stedsnr" v="201918" />
	</node>
	<node id="-807759" lat="70.3990972437" lon="28.1853631708">
		<tag k="amenity" v="place_of_worship" />
		<tag k="denomination" v="lutheran" />
		<tag k="name" v="Tana kirke" />
		<tag k="name:no" v="Tana kirke" />
		<tag k="religion" v="christian" />
		<tag k="ssr:stedsnr" v="262073" />
	</node>
	<node id="-807676" lat="70.4432694699" lon="28.4869325255">
		<tag k="amenity" v="place_of_worship" />
		<tag k="denomination" v="lutheran" />
		<tag k="name" v="Austertana kirke" />
		<tag k="name:no" v="Austertana kirke" />
		<tag k="religion" v="christian" />
		<tag k="ssr:stedsnr" v="202796" />
	</node>
	<node id="-807428" lat="70.0706194695" lon="27.7671159953">
		<tag k="name" v="Geavgŋavuolle" />
		<tag k="name:se" v="Geavgŋavuolle" />
		<tag k="place" v="locality" />
		<tag k="ssr:stedsnr" v="107054" />
	</node>
</osm>
