<?xml version="1.0" encoding="UTF-8"?>
<osm generator="osmapis" version="0.6">
	<node id="-606208" lat="63.1130972252" lon="8.63186111867">
		<tag k="name" v="Grytvollen" />
		<tag k="natural" v="scree" />
		<tag k="ssr:stedsnr" v="290457" />
	</node>
	<node id="-607231" lat="63.0490944469" lon="8.27819721637">
		<tag k="name" v="Kvilarsteinen" />
		<tag k="natural" v="stone" />
		<tag k="ssr:stedsnr" v="532103" />
	</node>
	<node id="-606718" lat="63.1555694431" lon="8.68368056282">
		<tag k="name" v="Randamyra" />
		<tag k="natural" v="wetland" />
		<tag k="ssr:stedsnr" v="48202" />
	</node>
	<node id="-606716" lat="63.0946500009" lon="8.64792222777">
		<tag k="name" v="Hyllmyra" />
		<tag k="natural" v="wetland" />
		<tag k="ssr:stedsnr" v="48117" />
	</node>
	<node id="-607734" lat="63.0898888929" lon="8.6317666583">
		<tag k="name" v="Revora" />
		<tag k="natural" v="scree" />
		<tag k="ssr:stedsnr" v="776436" />
	</node>
	<node id="-607732" lat="63.1342888909" lon="8.22180278395">
		<tag k="name" v="Rågrassmyra" />
		<tag k="natural" v="wetland" />
		<tag k="ssr:stedsnr" v="776277" />
	</node>
	<node id="-606191" lat="63.1140083354" lon="8.5472916675">
		<tag k="name" v="Nordre Langmyra" />
		<tag k="natural" v="wetland" />
		<tag k="ssr:stedsnr" v="289696" />
	</node>
	<node id="-606190" lat="63.1204972189" lon="8.52612221328">
		<tag k="name" v="Øver Trøa" />
		<tag k="place" v="locality" />
		<tag k="ssr:stedsnr" v="289679" />
	</node>
	<node id="-606186" lat="63.1467055542" lon="8.26794444021">
		<tag k="name" v="Strandamyra" />
		<tag k="natural" v="wetland" />
		<tag k="old_name" v="Strannamyra" />
		<tag k="ssr:stedsnr" v="288953" />
	</node>
	<node id="-607720" lat="63.1836666686" lon="8.70557499071">
		<tag k="name" v="Busteinen" />
		<tag k="natural" v="stone" />
		<tag k="ssr:stedsnr" v="775998" />
	</node>
	<node id="-607715" lat="63.1411722192" lon="8.71159721284">
		<tag k="name" v="Slettfjellmyra" />
		<tag k="natural" v="wetland" />
		<tag k="ssr:stedsnr" v="775706" />
	</node>
	<node id="-606687" lat="63.1451111093" lon="8.69579443759">
		<tag k="name" v="Slettfjellmyran" />
		<tag k="natural" v="wetland" />
		<tag k="ssr:stedsnr" v="47465" />
	</node>
	<node id="-606683" lat="63.0534499961" lon="8.31147500351">
		<tag k="historic" v="shieling" />
		<tag k="name" v="Fjellsetra" />
		<tag k="place" v="locality" />
		<tag k="ssr:stedsnr" v="47155" />
	</node>
	<node id="-607193" lat="63.1252972204" lon="8.41190278549">
		<tag k="name" v="Trømyra" />
		<tag k="natural" v="wetland" />
		<tag k="ssr:stedsnr" v="472727" />
	</node>
	<node id="-607703" lat="63.1254361104" lon="8.63115277604">
		<tag k="historic" v="shieling" />
		<tag k="name" v="Heimsetra" />
		<tag k="place" v="locality" />
		<tag k="ssr:stedsnr" v="775508" />
	</node>
	<node id="-606677" lat="63.1243972244" lon="8.35387222735">
		<tag k="name" v="Kletten" />
		<tag k="place" v="locality" />
		<tag k="ssr:stedsnr" v="47060" />
	</node>
	<node id="-607188" lat="63.1271222192" lon="8.50167222732">
		<tag k="name" v="Reinsliura" />
		<tag k="natural" v="scree" />
		<tag k="ssr:stedsnr" v="472666" />
	</node>
	<node id="-606286" lat="63.0913833318" lon="8.57569443944">
		<tag k="name" v="Litltverliora" />
		<tag k="natural" v="scree" />
		<tag k="ssr:stedsnr" v="351410" />
	</node>
	<node id="-607181" lat="63.1050138879" lon="8.45944167477">
		<tag k="name" v="Stormyra" />
		<tag k="natural" v="wetland" />
		<tag k="ssr:stedsnr" v="472626" />
	</node>
	<node id="-607178" lat="63.1328083331" lon="8.47493054922">
		<tag k="name" v="Kvennhusmyra" />
		<tag k="natural" v="wetland" />
		<tag k="ssr:stedsnr" v="472549" />
	</node>
	<node id="-607171" lat="63.0909000035" lon="8.60033889514">
		<tag k="name" v="Raumyra" />
		<tag k="natural" v="wetland" />
		<tag k="ssr:stedsnr" v="472410" />
	</node>
	<node id="-607163" lat="63.1053194472" lon="8.34492500524">
		<tag k="name" v="Håkkågarn" />
		<tag k="place" v="locality" />
		<tag k="ssr:stedsnr" v="472117" />
	</node>
	<node id="-607673" lat="63.0699055551" lon="8.26578889169">
		<tag k="name" v="Megardsmyra" />
		<tag k="natural" v="wetland" />
		<tag k="ssr:stedsnr" v="740918" />
	</node>
	<node id="-607671" lat="63.0678249983" lon="8.49614721774">
		<tag k="name" v="Flatkjølen" />
		<tag k="natural" v="wetland" />
		<tag k="ssr:stedsnr" v="740911" />
	</node>
	<node id="-607154" lat="63.0718361134" lon="8.39672777217">
		<tag k="historic" v="shieling" />
		<tag k="name" v="Mjølkplassen" />
		<tag k="place" v="locality" />
		<tag k="ssr:stedsnr" v="471823" />
	</node>
	<node id="-607148" lat="63.0877944462" lon="8.19125000801">
		<tag k="name" v="Haugmyra" />
		<tag k="natural" v="wetland" />
		<tag k="ssr:stedsnr" v="471739" />
	</node>
	<node id="-607146" lat="63.1037194425" lon="8.18028889232">
		<tag k="name" v="Teigan" />
		<tag k="place" v="locality" />
		<tag k="ssr:stedsnr" v="471701" />
	</node>
	<node id="-607142" lat="63.1244138859" lon="8.54786388375">
		<tag k="historic" v="shieling" />
		<tag k="name" v="Heimesetra" />
		<tag k="place" v="locality" />
		<tag k="ssr:stedsnr" v="471609" />
	</node>
	<node id="-607653" lat="63.1774055582" lon="8.68821111553">
		<tag k="name" v="Furuhjellmyra" />
		<tag k="natural" v="wetland" />
		<tag k="ssr:stedsnr" v="715875" />
	</node>
	<node id="-606628" lat="63.11112222" lon="8.58119166705">
		<tag k="name" v="Nonssteinen" />
		<tag k="natural" v="stone" />
		<tag k="ssr:stedsnr" v="898506" />
	</node>
	<node id="-607138" lat="63.1172138888" lon="8.1795583334">
		<tag k="name" v="Sommerfjøsora" />
		<tag k="natural" v="scree" />
		<tag k="ssr:stedsnr" v="471476" />
	</node>
	<node id="-607644" lat="63.1251499999" lon="8.48664165803">
		<tag k="historic" v="shieling" />
		<tag k="name" v="Heimsetra" />
		<tag k="place" v="locality" />
		<tag k="ssr:stedsnr" v="715689" />
	</node>
	<node id="-607126" lat="63.095841664" lon="8.27251110199">
		<tag k="name" v="Eidet" />
		<tag k="place" v="locality" />
		<tag k="ssr:stedsnr" v="471001" />
	</node>
	<node id="-606609" lat="63.1350694471" lon="8.34039722631">
		<tag k="name" v="Hjellora" />
		<tag k="natural" v="scree" />
		<tag k="ssr:stedsnr" v="897870" />
	</node>
	<node id="-607106" lat="63.0578416643" lon="8.39449999535">
		<tag k="name" v="Tussurda" />
		<tag k="natural" v="scree" />
		<tag k="ssr:stedsnr" v="437894" />
	</node>
	<node id="-606593" lat="63.1445472207" lon="8.50757221643">
		<tag k="name" v="Trøa" />
		<tag k="place" v="locality" />
		<tag k="ssr:stedsnr" v="897537" />
	</node>
	<node id="-607722" lat="63.1073027801" lon="8.64201387921">
		<tag k="historic" v="shieling" />
		<tag k="name" v="Øvergård" />
		<tag k="place" v="locality" />
		<tag k="ssr:stedsnr" v="776024" />
	</node>
	<node id="-607599" lat="63.1402027811" lon="8.57053333685">
		<tag k="name" v="Stormyra" />
		<tag k="natural" v="wetland" />
		<tag k="ssr:stedsnr" v="714643" />
	</node>
	<node id="-606573" lat="63.1146749977" lon="8.54224167309">
		<tag k="name" v="Søre Langmyra" />
		<tag k="natural" v="wetland" />
		<tag k="ssr:stedsnr" v="896697" />
	</node>
	<node id="-606220" lat="63.1084166704" lon="8.43320278189">
		<tag k="alt_name" v="Sørmyrane" />
		<tag k="name" v="Sørmyran" />
		<tag k="natural" v="wetland" />
		<tag k="ssr:stedsnr" v="290738" />
	</node>
	<node id="-606936" lat="63.0782138926" lon="8.27566943764">
		<tag k="name" v="Spellmyra" />
		<tag k="natural" v="wetland" />
		<tag k="ssr:stedsnr" v="169220" />
	</node>
	<node id="-607072" lat="63.0797305539" lon="8.66203888788">
		<tag k="historic" v="shieling" />
		<tag k="name" v="Mjølkplassen" />
		<tag k="place" v="locality" />
		<tag k="ssr:stedsnr" v="230894" />
	</node>
	<node id="-607066" lat="63.1108416643" lon="8.44883611372">
		<tag k="name" v="Tomteigan" />
		<tag k="place" v="locality" />
		<tag k="ssr:stedsnr" v="230660" />
	</node>
	<node id="-607576" lat="63.1120805574" lon="8.58795278359">
		<tag k="name" v="Stakkora" />
		<tag k="natural" v="scree" />
		<tag k="ssr:stedsnr" v="715555" />
	</node>
	<node id="-607061" lat="63.0419944455" lon="8.25239166684">
		<tag k="name" v="Dammen" />
		<tag k="natural" v="wetland" />
		<tag k="ssr:stedsnr" v="230606" />
	</node>
	<node id="-606548" lat="63.063774996" lon="8.34801389433">
		<tag k="historic" v="shieling" />
		<tag k="name" v="Stølan" />
		<tag k="place" v="locality" />
		<tag k="ssr:stedsnr" v="473240" />
	</node>
	<node id="-606691" lat="63.0272277784" lon="8.25471388752">
		<tag k="historic" v="shieling" />
		<tag k="name" v="Ringasetra" />
		<tag k="place" v="locality" />
		<tag k="ssr:stedsnr" v="47571" />
	</node>
	<node id="-606535" lat="63.1048083316" lon="8.50049721823">
		<tag k="name" v="Teigane" />
		<tag k="place" v="locality" />
		<tag k="ssr:stedsnr" v="412618" />
	</node>
	<node id="-607043" lat="63.080816666" lon="8.37804721312">
		<tag k="name" v="Danielmyra" />
		<tag k="natural" v="wetland" />
		<tag k="ssr:stedsnr" v="230227" />
	</node>
	<node id="-607042" lat="63.0795777793" lon="8.36969721893">
		<tag k="name" v="Silhaugmyra" />
		<tag k="natural" v="wetland" />
		<tag k="ssr:stedsnr" v="230228" />
	</node>
	<node id="-607040" lat="63.0452250018" lon="8.32873056321">
		<tag k="name" v="Håkkåsteinen" />
		<tag k="natural" v="stone" />
		<tag k="ssr:stedsnr" v="230180" />
	</node>
	<node id="-607542" lat="63.1292333362" lon="8.3633444368">
		<tag k="name" v="Tjønnmyran" />
		<tag k="natural" v="wetland" />
		<tag k="ssr:stedsnr" v="654922" />
	</node>
	<node id="-607027" lat="63.0906277764" lon="8.19018055181">
		<tag k="name" v="Myran" />
		<tag k="natural" v="wetland" />
		<tag k="ssr:stedsnr" v="229746" />
	</node>
	<node id="-607533" lat="63.143402782" lon="8.58612222861">
		<tag k="name" v="Nedre Kartmyra" />
		<tag k="natural" v="wetland" />
		<tag k="ssr:stedsnr" v="654852" />
	</node>
	<node id="-607531" lat="63.1659055599" lon="8.57793889107">
		<tag k="historic" v="shieling" />
		<tag k="name" v="Trøsetra" />
		<tag k="place" v="locality" />
		<tag k="ssr:stedsnr" v="654750" />
	</node>
	<node id="-607010" lat="63.108236108" lon="8.34313611638">
		<tag k="historic" v="shieling" />
		<tag k="name" v="Mjølkplassen" />
		<tag k="place" v="locality" />
		<tag k="ssr:stedsnr" v="229112" />
	</node>
	<node id="-607517" lat="63.1457916671" lon="8.68828332564">
		<tag k="name" v="Jakta" />
		<tag k="natural" v="wetland" />
		<tag k="ssr:stedsnr" v="654484" />
	</node>
	<node id="-607511" lat="63.0878500037" lon="8.57990833905">
		<tag k="name" v="Gropmyran" />
		<tag k="natural" v="wetland" />
		<tag k="ssr:stedsnr" v="654426" />
	</node>
	<node id="-607506" lat="63.0800916702" lon="8.33809443753">
		<tag k="historic" v="shieling" />
		<tag k="name" v="Melkplassen" />
		<tag k="place" v="locality" />
		<tag k="ssr:stedsnr" v="654252" />
	</node>
	<node id="-606424" lat="63.0754722226" lon="8.28011389515">
		<tag k="name" v="Reitfætta" />
		<tag k="natural" v="wetland" />
		<tag k="ssr:stedsnr" v="412184" />
	</node>
	<node id="-606989" lat="63.0662083369" lon="8.25232777533">
		<tag k="name" v="Rødmyran" />
		<tag k="natural" v="wetland" />
		<tag k="ssr:stedsnr" v="194914" />
	</node>
	<node id="-606984" lat="63.0889499961" lon="8.40076388534">
		<tag k="name" v="Rognskogan" />
		<tag k="place" v="locality" />
		<tag k="ssr:stedsnr" v="194883" />
	</node>
	<node id="-606972" lat="63.1045972197" lon="8.35783889815">
		<tag k="name" v="Stormyra" />
		<tag k="natural" v="wetland" />
		<tag k="ssr:stedsnr" v="169983" />
	</node>
	<node id="-606971" lat="63.0694916655" lon="8.66308889631">
		<tag k="historic" v="shieling" />
		<tag k="name" v="Båssetra" />
		<tag k="place" v="locality" />
		<tag k="ssr:stedsnr" v="169892" />
	</node>
	<node id="-606962" lat="63.1548138928" lon="8.60510832884">
		<tag k="name" v="Blautkrokan" />
		<tag k="natural" v="wetland" />
		<tag k="ssr:stedsnr" v="169749" />
	</node>
	<node id="-607982" lat="63.1512444425" lon="8.77746944207">
		<tag k="name" v="Mysetermyran" />
		<tag k="natural" v="wetland" />
		<tag k="ssr:stedsnr" v="958853" />
	</node>
	<node id="-607978" lat="63.1471055599" lon="8.71043334196">
		<tag k="alt_name" v="Dalamyrane" />
		<tag k="name" v="Dalamyran" />
		<tag k="natural" v="wetland" />
		<tag k="ssr:stedsnr" v="958737" />
	</node>
	<node id="-606952" lat="63.0879027803" lon="8.49566389668">
		<tag k="name" v="Fagermyra" />
		<tag k="natural" v="wetland" />
		<tag k="ssr:stedsnr" v="169655" />
	</node>
	<node id="-606946" lat="63.1164472254" lon="8.59049721328">
		<tag k="name" v="Høgora" />
		<tag k="natural" v="scree" />
		<tag k="ssr:stedsnr" v="169531" />
	</node>
	<node id="-607965" lat="63.0559111091" lon="8.24593888907">
		<tag k="name" v="Trøa" />
		<tag k="place" v="locality" />
		<tag k="ssr:stedsnr" v="958671" />
	</node>
	<node id="-607451" lat="63.0725083378" lon="8.64743054746">
		<tag k="name" v="Steinen" />
		<tag k="natural" v="stone" />
		<tag k="ssr:stedsnr" v="594890" />
	</node>
	<node id="-606938" lat="63.0737888889" lon="8.35003610477">
		<tag k="alt_name" v="Bonsetermyrane" />
		<tag k="name" v="Bonsetermyran" />
		<tag k="natural" v="wetland" />
		<tag k="ssr:stedsnr" v="169229" />
	</node>
	<node id="-607448" lat="63.1783305543" lon="8.67120555479">
		<tag k="name" v="Gåsviktrøa" />
		<tag k="place" v="locality" />
		<tag k="ssr:stedsnr" v="594855" />
	</node>
	<node id="-607958" lat="63.1465555544" lon="8.67355555508">
		<tag k="name" v="Tortlimyran" />
		<tag k="natural" v="wetland" />
		<tag k="ssr:stedsnr" v="958501" />
	</node>
	<node id="-607445" lat="63.108688885" lon="8.50619721927">
		<tag k="name" v="Hælsingfjellura" />
		<tag k="natural" v="scree" />
		<tag k="ssr:stedsnr" v="594693" />
	</node>
	<node id="-607956" lat="63.1226611128" lon="8.20835277658">
		<tag k="name" v="Dalalimyrene" />
		<tag k="natural" v="wetland" />
		<tag k="ssr:stedsnr" v="958499" />
	</node>
	<node id="-606417" lat="63.1819194483" lon="8.71296388809">
		<tag k="name" v="Stormyra" />
		<tag k="natural" v="wetland" />
		<tag k="ssr:stedsnr" v="411994" />
	</node>
	<node id="-607440" lat="63.1007194417" lon="8.45396666346">
		<tag k="alt_name" v="Sørmyrane" />
		<tag k="name" v="Sørmyran" />
		<tag k="natural" v="wetland" />
		<tag k="ssr:stedsnr" v="594631" />
	</node>
	<node id="-606413" lat="63.131480552" lon="8.34115832391">
		<tag k="name" v="Stormyra" />
		<tag k="natural" v="wetland" />
		<tag k="ssr:stedsnr" v="411920" />
	</node>
	<node id="-607433" lat="63.0913416686" lon="8.63158056235">
		<tag k="name" v="Trommyra" />
		<tag k="natural" v="wetland" />
		<tag k="ssr:stedsnr" v="594448" />
	</node>
	<node id="-606920" lat="63.1039749962" lon="8.17713611559">
		<tag k="name" v="Geilmyra" />
		<tag k="natural" v="wetland" />
		<tag k="ssr:stedsnr" v="168691" />
	</node>
	<node id="-606407" lat="63.0725416664" lon="8.42713611002">
		<tag k="name" v="Kisteteigen" />
		<tag k="place" v="locality" />
		<tag k="ssr:stedsnr" v="411812" />
	</node>
	<node id="-607942" lat="63.0880444484" lon="8.64058054981">
		<tag k="name" v="Tjønnmyra" />
		<tag k="natural" v="wetland" />
		<tag k="ssr:stedsnr" v="958130" />
	</node>
	<node id="-606404" lat="63.1407055566" lon="8.79273612051">
		<tag k="name" v="Vollmyran" />
		<tag k="natural" v="wetland" />
		<tag k="ssr:stedsnr" v="411723" />
	</node>
	<node id="-606915" lat="63.1222083371" lon="8.55492499168">
		<tag k="name" v="Gropmyra" />
		<tag k="natural" v="wetland" />
		<tag k="ssr:stedsnr" v="168588" />
	</node>
	<node id="-607937" lat="63.1363611135" lon="8.26540833688">
		<tag k="historic" v="shieling" />
		<tag k="name" v="Skålviksetra" />
		<tag k="place" v="locality" />
		<tag k="ssr:stedsnr" v="957902" />
	</node>
	<node id="-606752" lat="63.1149333346" lon="8.44628888846">
		<tag k="name" v="Eistenslettet" />
		<tag k="natural" v="wetland" />
		<tag k="ssr:stedsnr" v="48761" />
	</node>
	<node id="-607421" lat="63.0883861122" lon="8.33392499612">
		<tag k="name" v="Langlimyra" />
		<tag k="natural" v="wetland" />
		<tag k="ssr:stedsnr" v="593980" />
	</node>
	<node id="-606908" lat="63.049516668" lon="8.26761667186">
		<tag k="name" v="Rompesteinen" />
		<tag k="natural" v="stone" />
		<tag k="ssr:stedsnr" v="168129" />
	</node>
	<node id="-607928" lat="63.0937250032" lon="8.21354167065">
		<tag k="alt_name" v="Knokmyrane" />
		<tag k="name" v="Knokmyran" />
		<tag k="natural" v="wetland" />
		<tag k="ssr:stedsnr" v="957750" />
	</node>
	<node id="-606390" lat="63.1111694476" lon="8.68460000684">
		<tag k="name" v="Dugnadsmyra" />
		<tag k="natural" v="wetland" />
		<tag k="ssr:stedsnr" v="411042" />
	</node>
	<node id="-606408" lat="63.0775222237" lon="8.42043333574">
		<tag k="historic" v="shieling" />
		<tag k="name" v="Melkeplassen" />
		<tag k="place" v="locality" />
		<tag k="ssr:stedsnr" v="411813" />
	</node>
	<node id="-607394" lat="63.1375333332" lon="8.22681944896">
		<tag k="historic" v="shieling" />
		<tag k="name" v="Gammelgarden" />
		<tag k="place" v="locality" />
		<tag k="ssr:stedsnr" v="593258" />
	</node>
	<node id="-607377" lat="63.0824805529" lon="8.43007777648">
		<tag k="alt_name" v="Husmannsmyrane" />
		<tag k="name" v="Husmannsmyran" />
		<tag k="natural" v="wetland" />
		<tag k="ssr:stedsnr" v="592835" />
	</node>
	<node id="-606348" lat="63.1370444462" lon="8.58495000599">
		<tag k="name" v="Rapora" />
		<tag k="natural" v="scree" />
		<tag k="ssr:stedsnr" v="351848" />
	</node>
	<node id="-606347" lat="63.1736416665" lon="8.68287222658">
		<tag k="name" v="Krokan" />
		<tag k="natural" v="wetland" />
		<tag k="ssr:stedsnr" v="351846" />
	</node>
	<node id="-606339" lat="63.1261888874" lon="8.48948055377">
		<tag k="name" v="Heimseterura" />
		<tag k="natural" v="scree" />
		<tag k="ssr:stedsnr" v="351682" />
	</node>
	<node id="-606850" lat="63.0751638852" lon="8.33418611409">
		<tag k="alt_name" v="Olstumyrane" />
		<tag k="name" v="Olstumyran" />
		<tag k="natural" v="wetland" />
		<tag k="ssr:stedsnr" v="109240" />
	</node>
	<node id="-606849" lat="63.0729361133" lon="8.27137777683">
		<tag k="name" v="Langmyra" />
		<tag k="natural" v="wetland" />
		<tag k="ssr:stedsnr" v="109232" />
	</node>
	<node id="-607866" lat="63.0780638857" lon="8.64617222904">
		<tag k="name" v="Stormyra" />
		<tag k="natural" v="wetland" />
		<tag k="ssr:stedsnr" v="837904" />
	</node>
	<node id="-606325" lat="63.0780749999" lon="8.26985277829">
		<tag k="name" v="Stormyra" />
		<tag k="natural" v="wetland" />
		<tag k="ssr:stedsnr" v="351249" />
	</node>
	<node id="-606324" lat="63.0720583336" lon="8.36115556075">
		<tag k="alt_name" v="Svartmyrane" />
		<tag k="name" v="Svartmyran" />
		<tag k="natural" v="wetland" />
		<tag k="ssr:stedsnr" v="351242" />
	</node>
	<node id="-606830" lat="63.1477527807" lon="8.59364999634">
		<tag k="historic" v="shieling" />
		<tag k="name" v="Gammelsetra" />
		<tag k="place" v="locality" />
		<tag k="ssr:stedsnr" v="108824" />
	</node>
	<node id="-606909" lat="63.0412444442" lon="8.27048611348">
		<tag k="historic" v="shieling" />
		<tag k="name" v="Innervolemssetra" />
		<tag k="place" v="locality" />
		<tag k="ssr:stedsnr" v="168199" />
	</node>
	<node id="-606316" lat="63.118927777" lon="8.37973889662">
		<tag k="historic" v="shieling" />
		<tag k="name" v="Klettasetra" />
		<tag k="place" v="locality" />
		<tag k="ssr:stedsnr" v="351112" />
	</node>
	<node id="-606312" lat="63.1712944423" lon="8.71744999337">
		<tag k="historic" v="shieling" />
		<tag k="name" v="Fjellsetra" />
		<tag k="place" v="locality" />
		<tag k="ssr:stedsnr" v="350967" />
	</node>
	<node id="-606396" lat="63.1255694449" lon="8.520891672">
		<tag k="name" v="Orøyan" />
		<tag k="place" v="locality" />
		<tag k="ssr:stedsnr" v="411581" />
	</node>
	<node id="-607844" lat="63.1101500035" lon="8.22590278709">
		<tag k="historic" v="shieling" />
		<tag k="name" v="Løviksetra" />
		<tag k="place" v="locality" />
		<tag k="ssr:stedsnr" v="837475" />
	</node>
	<node id="-606819" lat="63.076533334" lon="8.22490277488">
		<tag k="historic" v="shieling" />
		<tag k="name" v="Mjølkeplassen" />
		<tag k="place" v="locality" />
		<tag k="ssr:stedsnr" v="108681" />
	</node>
	<node id="-607842" lat="63.1170916668" lon="8.20164999155">
		<tag k="alt_name" v="Kaldbergsmyrane" />
		<tag k="name" v="Kaldbergsmyran" />
		<tag k="natural" v="wetland" />
		<tag k="ssr:stedsnr" v="837469" />
	</node>
	<node id="-607838" lat="63.0870444477" lon="8.59152222733">
		<tag k="historic" v="shieling" />
		<tag k="name" v="Heimsetra" />
		<tag k="place" v="locality" />
		<tag k="ssr:stedsnr" v="837420" />
	</node>
	<node id="-607836" lat="63.1329888921" lon="8.22343333113">
		<tag k="name" v="Stormyra" />
		<tag k="natural" v="wetland" />
		<tag k="ssr:stedsnr" v="837306" />
	</node>
	<node id="-606299" lat="63.1189055572" lon="8.24963055684">
		<tag k="landuse" v="meadow" />
		<tag k="name" v="Geilen" />
		<tag k="ssr:stedsnr" v="350437" />
	</node>
	<node id="-606294" lat="63.1363666647" lon="8.25367222693">
		<tag k="historic" v="shieling" />
		<tag k="name" v="Gammelsetra" />
		<tag k="place" v="locality" />
		<tag k="ssr:stedsnr" v="350353" />
	</node>
	<node id="-606307" lat="63.093013891" lon="8.18345278208">
		<tag k="name" v="Plassmyra" />
		<tag k="natural" v="wetland" />
		<tag k="ssr:stedsnr" v="350734" />
	</node>
	<node id="-607823" lat="63.1637277796" lon="8.65564166727">
		<tag k="historic" v="shieling" />
		<tag k="name" v="Mjøkplassen" />
		<tag k="place" v="locality" />
		<tag k="ssr:stedsnr" v="837200" />
	</node>
	<node id="-606798" lat="63.117977777" lon="8.52347499676">
		<tag k="name" v="Stormyra" />
		<tag k="natural" v="wetland" />
		<tag k="ssr:stedsnr" v="107636" />
	</node>
	<node id="-607309" lat="63.1625194454" lon="8.62810555222">
		<tag k="historic" v="shieling" />
		<tag k="name" v="Gammelsetra" />
		<tag k="place" v="locality" />
		<tag k="ssr:stedsnr" v="533759" />
	</node>
	<node id="-607815" lat="63.1395083345" lon="8.33503612067">
		<tag k="name" v="Revora" />
		<tag k="natural" v="scree" />
		<tag k="ssr:stedsnr" v="836918" />
	</node>
	<node id="-607804" lat="63.1232416624" lon="8.52500555567">
		<tag k="name" v="Nedre Trøa" />
		<tag k="place" v="locality" />
		<tag k="ssr:stedsnr" v="836564" />
	</node>
	<node id="-607799" lat="63.0367972216" lon="8.24103611493">
		<tag k="historic" v="shieling" />
		<tag k="name" v="Sommerfjøsvollen" />
		<tag k="place" v="locality" />
		<tag k="ssr:stedsnr" v="836516" />
	</node>
	<node id="-607284" lat="63.0894277764" lon="8.60616944528">
		<tag k="name" v="Stormyra" />
		<tag k="natural" v="wetland" />
		<tag k="ssr:stedsnr" v="533426" />
	</node>
	<node id="-607282" lat="63.1349916638" lon="8.21799165924">
		<tag k="name" v="Stortøfta" />
		<tag k="place" v="locality" />
		<tag k="ssr:stedsnr" v="533302" />
	</node>
	<node id="-607278" lat="63.0670916687" lon="8.34066944157">
		<tag k="alt_name" v="Blautmyrane" />
		<tag k="name" v="Blautmyran" />
		<tag k="natural" v="wetland" />
		<tag k="ssr:stedsnr" v="533225" />
	</node>
	<node id="-607324" lat="63.1852194424" lon="8.71750832587">
		<tag k="name" v="Tobakksteinholet" />
		<tag k="natural" v="stone" />
		<tag k="ssr:stedsnr" v="533999" />
	</node>
	<node id="-607432" lat="63.0948527816" lon="8.58443055487">
		<tag k="name" v="Skjennstimyran" />
		<tag k="natural" v="wetland" />
		<tag k="ssr:stedsnr" v="594418" />
	</node>
	<node id="-606726" lat="63.0977583377" lon="8.5836777779">
		<tag k="name" v="Langstimyran" />
		<tag k="natural" v="wetland" />
		<tag k="ssr:stedsnr" v="48388" />
	</node>
	<node id="-606754" lat="63.141322221" lon="8.77410555938">
		<tag k="name" v="Breimyra" />
		<tag k="natural" v="wetland" />
		<tag k="ssr:stedsnr" v="48824" />
	</node>
	<node id="-606241" lat="63.0991611087" lon="8.46881389594">
		<tag k="name" v="Gråora" />
		<tag k="natural" v="scree" />
		<tag k="ssr:stedsnr" v="291646" />
	</node>
	<node id="-607264" lat="63.1184083306" lon="8.66170832742">
		<tag k="name" v="Handkleteigen" />
		<tag k="place" v="locality" />
		<tag k="ssr:stedsnr" v="533013" />
	</node>
	<node id="-606235" lat="63.0815249969" lon="8.59882778396">
		<tag k="historic" v="shieling" />
		<tag k="name" v="Gammelsetra" />
		<tag k="place" v="locality" />
		<tag k="ssr:stedsnr" v="291293" />
	</node>
	<node id="-606233" lat="63.0708194463" lon="8.3564694451">
		<tag k="historic" v="shieling" />
		<tag k="name" v="Bonsetra" />
		<tag k="place" v="locality" />
		<tag k="ssr:stedsnr" v="291255" />
	</node>
	<node id="-606741" lat="63.1351555515" lon="8.42424167133">
		<tag k="name" v="Flatmyra" />
		<tag k="natural" v="wetland" />
		<tag k="ssr:stedsnr" v="48544" />
	</node>
	<node id="-606228" lat="63.0927500015" lon="8.37923610559">
		<tag k="name" v="Huslimyran" />
		<tag k="natural" v="wetland" />
		<tag k="ssr:stedsnr" v="291037" />
	</node>
	<node id="-606226" lat="63.1766805588" lon="8.72060832941">
		<tag k="name" v="Såtmyrteigen" />
		<tag k="natural" v="wetland" />
		<tag k="ssr:stedsnr" v="290982" />
	</node>
	<node id="-606224" lat="63.0925472184" lon="8.35794999439">
		<tag k="name" v="Hollåteigen" />
		<tag k="place" v="locality" />
		<tag k="ssr:stedsnr" v="290981" />
	</node>
	<node id="-607756" lat="63.1444027797" lon="8.58870832572">
		<tag k="name" v="Øvre Kartmyra" />
		<tag k="natural" v="wetland" />
		<tag k="ssr:stedsnr" v="776819" />
	</node>
	<node id="-606727" lat="63.0894472257" lon="8.62831943656">
		<tag k="name" v="Treppen" />
		<tag k="natural" v="wetland" />
		<tag k="ssr:stedsnr" v="48417" />
	</node>
	<node id="-607750" lat="63.1209000043" lon="8.49469443483">
		<tag k="name" v="Lomheiura" />
		<tag k="natural" v="scree" />
		<tag k="ssr:stedsnr" v="776673" />
	</node>
	<node id="-607236" lat="63.1221111074" lon="8.17298333898">
		<tag k="historic" v="shieling" />
		<tag k="name" v="Mjølkplassen" />
		<tag k="place" v="locality" />
		<tag k="ssr:stedsnr" v="532420" />
	</node>
	<node id="-606721" lat="63.0821222203" lon="8.34943055484">
		<tag k="name" v="Heimlymyra" />
		<tag k="natural" v="wetland" />
		<tag k="ssr:stedsnr" v="48221" />
	</node>
</osm>
