<?xml version="1.0" encoding="UTF-8"?>
<osm generator="osmapis" version="0.6">
	<node id="-608768" lat="63.1079083317" lon="8.6631944423">
		<tag k="name" v="Sandåa" />
		<tag k="ssr:stedsnr" v="862880" />
		<tag k="waterway" v="stream" />
	</node>
	<node id="-607488" lat="63.1690888906" lon="8.71295833086">
		<tag k="name" v="Kronskarbekken" />
		<tag k="ssr:stedsnr" v="897642" />
		<tag k="waterway" v="stream" />
	</node>
	<node id="-608765" lat="63.0908444459" lon="8.71892221868">
		<tag k="name" v="Bekkjakrokan" />
		<tag k="natural" v="water" />
		<tag k="ssr:stedsnr" v="862754" />
	</node>
	<node id="-607228" lat="63.1339361095" lon="8.44715833301">
		<tag k="name" v="Ekkerberget" />
		<tag k="ssr:stedsnr" v="351590" />
		<tag k="waterway" v="stream" />
	</node>
	<node id="-607738" lat="63.0682750035" lon="8.38363055952">
		<tag k="name" v="Hundhaugvatnet" />
		<tag k="natural" v="water" />
		<tag k="ssr:stedsnr" v="109223" />
		<tag k="water" v="lake" />
	</node>
	<node id="-608761" lat="63.1426527734" lon="8.71567777638">
		<tag k="name" v="Rodalselva" />
		<tag k="ssr:stedsnr" v="862076" />
		<tag k="waterway" v="river" />
	</node>
	<node id="-607736" lat="63.1704749979" lon="8.69465278153">
		<tag k="name" v="Fossan" />
		<tag k="natural" v="waterfall" />
		<tag k="ssr:stedsnr" v="109197" />
	</node>
	<node id="-607734" lat="63.0943305583" lon="8.65130555427">
		<tag k="name" v="Holmen" />
		<tag k="place" v="islet" />
		<tag k="ssr:stedsnr" v="109131" />
	</node>
	<node id="-608245" lat="63.0693527758" lon="8.59138611643">
		<tag k="name" v="Langvatnet" />
		<tag k="natural" v="water" />
		<tag k="ssr:stedsnr" v="558942" />
		<tag k="water" v="lake" />
	</node>
	<node id="-607674" lat="63.1246777742" lon="8.77694721722">
		<tag k="name" v="Engdalstjønna" />
		<tag k="natural" v="water" />
		<tag k="ssr:stedsnr" v="86154" />
	</node>
	<node id="-608243" lat="63.0548888903" lon="8.42701944267">
		<tag k="name" v="Haugavatnet" />
		<tag k="natural" v="water" />
		<tag k="ssr:stedsnr" v="558936" />
	</node>
	<node id="-607730" lat="63.155544444" lon="8.56997499912">
		<tag k="name" v="Øygardsbekken" />
		<tag k="ssr:stedsnr" v="109486" />
		<tag k="waterway" v="stream" />
	</node>
	<node id="-608241" lat="63.0817638894" lon="8.60358611475">
		<tag k="name" v="Smedhaugbekken" />
		<tag k="ssr:stedsnr" v="558919" />
		<tag k="waterway" v="stream" />
	</node>
	<node id="-608751" lat="63.1642583298" lon="8.60746111245">
		<tag k="name" v="Rendalsetra" />
		<tag k="natural" v="cape" />
		<tag k="ssr:stedsnr" v="837745" />
	</node>
	<node id="-608238" lat="63.0808805531" lon="8.66918610275">
		<tag k="name" v="Litlreinslivatnet" />
		<tag k="natural" v="water" />
		<tag k="ssr:stedsnr" v="558915" />
	</node>
	<node id="-608237" lat="63.0866249999" lon="8.46613889407">
		<tag k="name" v="Klumptjørna" />
		<tag k="natural" v="water" />
		<tag k="ssr:stedsnr" v="558908" />
	</node>
	<node id="-608236" lat="63.0809277761" lon="8.42955833247">
		<tag k="name" v="Bekkerelva" />
		<tag k="ssr:stedsnr" v="558906" />
		<tag k="waterway" v="river" />
	</node>
	<node id="-608234" lat="63.0429194419" lon="8.27164999109">
		<tag k="name" v="Innreitselva" />
		<tag k="ssr:stedsnr" v="558852" />
		<tag k="waterway" v="stream" />
	</node>
	<node id="-607655" lat="63.1054749987" lon="8.45439999729">
		<tag k="name" v="Hennaelva" />
		<tag k="ssr:stedsnr" v="73874" />
		<tag k="waterway" v="river" />
	</node>
	<node id="-607313" lat="63.0534833358" lon="8.3465638806">
		<tag k="name" v="Ytre Vassdalsvatnet" />
		<tag k="natural" v="water" />
		<tag k="ssr:stedsnr" v="412146" />
		<tag k="water" v="lake" />
	</node>
	<node id="-608228" lat="63.1726972229" lon="8.67531944849">
		<tag k="name" v="Tverråa" />
		<tag k="ssr:stedsnr" v="558107" />
		<tag k="waterway" v="stream" />
	</node>
	<node id="-607715" lat="63.1441666647" lon="8.72852778256">
		<tag k="name" v="Klompholbekken" />
		<tag k="ssr:stedsnr" v="108717" />
		<tag k="waterway" v="stream" />
	</node>
	<node id="-608225" lat="63.1592416702" lon="8.60147777493">
		<tag k="name" v="Rennhaugtjørna" />
		<tag k="natural" v="water" />
		<tag k="ssr:stedsnr" v="558087" />
	</node>
	<node id="-607200" lat="63.0799500026" lon="8.43155833433">
		<tag k="name" v="Skallelva" />
		<tag k="ssr:stedsnr" v="350769" />
		<tag k="waterway" v="stream" />
	</node>
	<node id="-607198" lat="63.1403999956" lon="8.80284721894">
		<tag k="name" v="Myrbekken" />
		<tag k="ssr:stedsnr" v="350725" />
		<tag k="waterway" v="stream" />
	</node>
	<node id="-607197" lat="63.1610388901" lon="8.74483889652">
		<tag k="name" v="Olderbekken" />
		<tag k="ssr:stedsnr" v="350657" />
		<tag k="waterway" v="stream" />
	</node>
	<node id="-608321" lat="63.1635388934" lon="8.65089722586">
		<tag k="name" v="Øykvassbekken" />
		<tag k="ssr:stedsnr" v="594212" />
		<tag k="waterway" v="stream" />
	</node>
	<node id="-607194" lat="63.1583722236" lon="8.7191277748">
		<tag k="name" v="Brontjønna" />
		<tag k="natural" v="water" />
		<tag k="ssr:stedsnr" v="350641" />
	</node>
	<node id="-608215" lat="63.0955861117" lon="8.35010832451">
		<tag k="name" v="Vollabekken" />
		<tag k="ssr:stedsnr" v="533990" />
		<tag k="waterway" v="stream" />
	</node>
	<node id="-607702" lat="63.0700111102" lon="8.52859443769">
		<tag k="name" v="Krokvassbekken" />
		<tag k="ssr:stedsnr" v="108301" />
		<tag k="waterway" v="stream" />
	</node>
	<node id="-607699" lat="63.1321722236" lon="8.20101665998">
		<tag k="name" v="Storvikbekken" />
		<tag k="ssr:stedsnr" v="108291" />
		<tag k="waterway" v="stream" />
	</node>
	<node id="-608210" lat="63.1383055539" lon="8.33630833943">
		<tag k="name" v="Ytre Mebekk" />
		<tag k="ssr:stedsnr" v="533932" />
		<tag k="waterway" v="stream" />
	</node>
	<node id="-607184" lat="63.0447305559" lon="8.28441944675">
		<tag k="name" v="Volemstjønna" />
		<tag k="natural" v="water" />
		<tag k="ssr:stedsnr" v="350117" />
	</node>
	<node id="-608205" lat="63.1336083368" lon="8.62075277852">
		<tag k="name" v="Fjærlielva" />
		<tag k="ssr:stedsnr" v="533848" />
		<tag k="waterway" v="stream" />
	</node>
	<node id="-608716" lat="63.1572750004" lon="8.65105833038">
		<tag k="name" v="Lomtjønna" />
		<tag k="natural" v="water" />
		<tag k="ssr:stedsnr" v="837203" />
	</node>
	<node id="-608712" lat="63.0878805514" lon="8.65554445356">
		<tag k="name" v="Sagdalshaugen" />
		<tag k="ssr:stedsnr" v="837131" />
		<tag k="waterway" v="stream" />
	</node>
	<node id="-608199" lat="63.1249666643" lon="8.39143056484">
		<tag k="name" v="Randbekken" />
		<tag k="ssr:stedsnr" v="533751" />
		<tag k="waterway" v="stream" />
	</node>
	<node id="-607684" lat="63.0860722209" lon="8.48322777779">
		<tag k="name" v="Blåfjellbekken" />
		<tag k="ssr:stedsnr" v="106936" />
		<tag k="waterway" v="stream" />
	</node>
	<node id="-608195" lat="63.0804638877" lon="8.21945833773">
		<tag k="name" v="Skartjønna" />
		<tag k="natural" v="water" />
		<tag k="ssr:stedsnr" v="533698" />
	</node>
	<node id="-608194" lat="63.0906222192" lon="8.25445833845">
		<tag k="name" v="Seterbekken" />
		<tag k="ssr:stedsnr" v="533664" />
		<tag k="waterway" v="stream" />
	</node>
	<node id="-608705" lat="63.1379055512" lon="8.34296945167">
		<tag k="name" v="Indre Mebekk" />
		<tag k="ssr:stedsnr" v="836906" />
		<tag k="waterway" v="stream" />
	</node>
	<node id="-607168" lat="63.0502027781" lon="8.36768332815">
		<tag k="name" v="Måsvatnet" />
		<tag k="natural" v="water" />
		<tag k="ssr:stedsnr" v="316864" />
	</node>
	<node id="-608189" lat="63.1329694437" lon="8.4925361197">
		<tag k="name" v="Trollhaugbekken" />
		<tag k="ssr:stedsnr" v="533591" />
		<tag k="waterway" v="stream" />
	</node>
	<node id="-608700" lat="63.1346472184" lon="8.73236112048">
		<tag k="name" v="Blåfjellbekken" />
		<tag k="ssr:stedsnr" v="836714" />
		<tag k="waterway" v="stream" />
	</node>
	<node id="-608699" lat="63.1328722238" lon="8.71231667588">
		<tag k="name" v="Storvatnet" />
		<tag k="natural" v="water" />
		<tag k="ssr:stedsnr" v="836710" />
		<tag k="water" v="lake" />
	</node>
	<node id="-608698" lat="63.1366000019" lon="8.71467777426">
		<tag k="name" v="Vasshalsen" />
		<tag k="ssr:stedsnr" v="836708" />
		<tag k="waterway" v="stream" />
	</node>
	<node id="-608184" lat="63.1519555546" lon="8.57009166769">
		<tag k="name" v="Øygardsbekken" />
		<tag k="ssr:stedsnr" v="533532" />
		<tag k="waterway" v="stream" />
	</node>
	<node id="-607159" lat="63.1313194435" lon="8.31130000532">
		<tag k="name" v="Storvatnet" />
		<tag k="natural" v="water" />
		<tag k="ssr:stedsnr" v="315954" />
	</node>
	<node id="-607668" lat="63.1255111108" lon="8.36503334087">
		<tag k="name" v="Holbekken" />
		<tag k="ssr:stedsnr" v="73982" />
		<tag k="waterway" v="stream" />
	</node>
	<node id="-608179" lat="63.078080554" lon="8.58666945042">
		<tag k="name" v="Fossan" />
		<tag k="natural" v="waterfall" />
		<tag k="ssr:stedsnr" v="533478" />
	</node>
	<node id="-608178" lat="63.0800611107" lon="8.58785278107">
		<tag k="name" v="Langvasselva" />
		<tag k="ssr:stedsnr" v="533477" />
		<tag k="waterway" v="river" />
	</node>
	<node id="-607665" lat="63.1440055542" lon="8.68150277833">
		<tag k="name" v="Skottjørnbekken" />
		<tag k="ssr:stedsnr" v="73952" />
		<tag k="waterway" v="stream" />
	</node>
	<node id="-608176" lat="63.0903777747" lon="8.58859723178">
		<tag k="name" v="Storsteinskogbekken" />
		<tag k="ssr:stedsnr" v="533420" />
		<tag k="waterway" v="stream" />
	</node>
	<node id="-607151" lat="63.0407805535" lon="8.3450833323">
		<tag k="name" v="Skreåbekken" />
		<tag k="ssr:stedsnr" v="315507" />
		<tag k="waterway" v="stream" />
	</node>
	<node id="-608686" lat="63.0790305554" lon="8.53467223026">
		<tag k="name" v="Svartdalsbekken" />
		<tag k="ssr:stedsnr" v="836250" />
		<tag k="waterway" v="stream" />
	</node>
	<node id="-607660" lat="63.0722916706" lon="8.32148333943">
		<tag k="name" v="Sagelva" />
		<tag k="ssr:stedsnr" v="73914" />
		<tag k="waterway" v="stream" />
	</node>
	<node id="-608682" lat="63.1239805525" lon="8.29079166144">
		<tag k="name" v="Ytre-Våglandelva" />
		<tag k="ssr:stedsnr" v="836055" />
		<tag k="waterway" v="stream" />
	</node>
	<node id="-608681" lat="63.1326722259" lon="8.31924999614">
		<tag k="name" v="Rausand" />
		<tag k="natural" v="beach" />
		<tag k="ssr:stedsnr" v="835000" />
	</node>
	<node id="-608680" lat="63.1308805598" lon="8.30614999063">
		<tag k="name" v="Kvilarneset" />
		<tag k="natural" v="cape" />
		<tag k="ssr:stedsnr" v="834996" />
	</node>
	<node id="-608167" lat="63.0453999964" lon="8.34665554956">
		<tag k="name" v="Indre Vassdalsvatnet" />
		<tag k="natural" v="water" />
		<tag k="ssr:stedsnr" v="533159" />
		<tag k="water" v="lake" />
	</node>
	<node id="-608165" lat="63.0853500002" lon="8.65583610258">
		<tag k="name" v="Sagdalsbekken" />
		<tag k="ssr:stedsnr" v="533117" />
		<tag k="waterway" v="stream" />
	</node>
	<node id="-608164" lat="63.1095555532" lon="8.72021945067">
		<tag k="name" v="Einarbekken" />
		<tag k="ssr:stedsnr" v="533106" />
		<tag k="waterway" v="stream" />
	</node>
	<node id="-608163" lat="63.1149833377" lon="8.70861111186">
		<tag k="name" v="Seterbekken" />
		<tag k="ssr:stedsnr" v="533101" />
		<tag k="waterway" v="stream" />
	</node>
	<node id="-608672" lat="63.1446472199" lon="8.65316389572">
		<tag k="name" v="Dennåvatnet" />
		<tag k="natural" v="water" />
		<tag k="ssr:stedsnr" v="802966" />
		<tag k="water" v="lake" />
	</node>
	<node id="-608671" lat="63.1472916705" lon="8.6071555509">
		<tag k="name" v="Stokkelva" />
		<tag k="ssr:stedsnr" v="802963" />
		<tag k="waterway" v="river" />
	</node>
	<node id="-607134" lat="63.0877222193" lon="8.42335554585">
		<tag k="name" v="Snerlibekken" />
		<tag k="ssr:stedsnr" v="291669" />
		<tag k="waterway" v="stream" />
	</node>
	<node id="-607132" lat="63.0905250041" lon="8.47876666831">
		<tag k="name" v="Jøsvassråa" />
		<tag k="natural" v="cape" />
		<tag k="ssr:stedsnr" v="291643" />
	</node>
	<node id="-607643" lat="63.1149750031" lon="8.48625277717">
		<tag k="name" v="Nonsfjellbekken" />
		<tag k="ssr:stedsnr" v="48691" />
		<tag k="waterway" v="stream" />
	</node>
	<node id="-607214" lat="63.0851222206" lon="8.37993055159">
		<tag k="name" v="Litlvatnet" />
		<tag k="natural" v="water" />
		<tag k="ssr:stedsnr" v="351238" />
		<tag k="water" v="lake" />
	</node>
	<node id="-608658" lat="63.0685472246" lon="8.56494165738">
		<tag k="name" v="Pikholavatnet" />
		<tag k="natural" v="water" />
		<tag k="ssr:stedsnr" v="801922" />
	</node>
	<node id="-607384" lat="63.1584888847" lon="8.75899444936">
		<tag k="name" v="Indre Skarbekken" />
		<tag k="ssr:stedsnr" v="412494" />
		<tag k="waterway" v="stream" />
	</node>
	<node id="-607629" lat="63.1512750037" lon="8.7492805481">
		<tag k="name" v="Middagstjønna" />
		<tag k="natural" v="water" />
		<tag k="ssr:stedsnr" v="48500" />
	</node>
	<node id="-608652" lat="63.1761472224" lon="8.65398889466">
		<tag k="name" v="Hamnasanden" />
		<tag k="natural" v="beach" />
		<tag k="ssr:stedsnr" v="776889" />
	</node>
	<node id="-607626" lat="63.1224972232" lon="8.22085834075">
		<tag k="name" v="Setertjønna" />
		<tag k="natural" v="water" />
		<tag k="ssr:stedsnr" v="48455" />
	</node>
	<node id="-607624" lat="63.1262027792" lon="8.19903611713">
		<tag k="name" v="Slettabekken" />
		<tag k="ssr:stedsnr" v="48445" />
		<tag k="waterway" v="stream" />
	</node>
	<node id="-608645" lat="63.1655666679" lon="8.59701110268">
		<tag k="name" v="Orbekken" />
		<tag k="ssr:stedsnr" v="776731" />
		<tag k="waterway" v="stream" />
	</node>
	<node id="-607820" lat="63.1021944424" lon="8.70688889576">
		<tag k="name" v="Litlvatnet" />
		<tag k="natural" v="water" />
		<tag k="ssr:stedsnr" v="169079" />
	</node>
	<node id="-607107" lat="63.1281555578" lon="8.71870554638">
		<tag k="name" v="Elvan" />
		<tag k="ssr:stedsnr" v="290669" />
		<tag k="waterway" v="river" />
	</node>
	<node id="-608130" lat="63.1212555531" lon="8.19663054668">
		<tag k="name" v="Kallbergselva" />
		<tag k="ssr:stedsnr" v="532423" />
		<tag k="waterway" v="river" />
	</node>
	<node id="-608640" lat="63.1230388916" lon="8.49036110818">
		<tag k="name" v="Otneselva" />
		<tag k="ssr:stedsnr" v="776669" />
		<tag k="waterway" v="stream" />
	</node>
	<node id="-608639" lat="63.1003083345" lon="8.43140833644">
		<tag k="name" v="Rundtjønna" />
		<tag k="natural" v="water" />
		<tag k="ssr:stedsnr" v="776661" />
	</node>
	<node id="-608638" lat="63.0826027796" lon="8.22069443723">
		<tag k="name" v="Akeleietjønna" />
		<tag k="natural" v="water" />
		<tag k="ssr:stedsnr" v="776658" />
	</node>
	<node id="-607210" lat="63.0933305523" lon="8.66337500809">
		<tag k="name" v="Ørnhammarbukta" />
		<tag k="natural" v="bay" />
		<tag k="ssr:stedsnr" v="351153" />
	</node>
	<node id="-607098" lat="63.0939777805" lon="8.69715554892">
		<tag k="name" v="Pullbekken" />
		<tag k="ssr:stedsnr" v="290175" />
		<tag k="waterway" v="stream" />
	</node>
	<node id="-608633" lat="63.1315916707" lon="8.4286972155">
		<tag k="name" v="Torbugbekken" />
		<tag k="ssr:stedsnr" v="776554" />
		<tag k="waterway" v="stream" />
	</node>
	<node id="-608119" lat="63.1468222234" lon="8.28932500001">
		<tag k="name" v="Strandabekken" />
		<tag k="ssr:stedsnr" v="529965" />
		<tag k="waterway" v="stream" />
	</node>
	<node id="-608629" lat="63.1413833333" lon="8.68895277648">
		<tag k="name" v="Slettfjellbekken" />
		<tag k="ssr:stedsnr" v="776461" />
		<tag k="waterway" v="stream" />
	</node>
	<node id="-607092" lat="63.1192749982" lon="8.33067500856">
		<tag k="name" v="Skjennstøbekken" />
		<tag k="ssr:stedsnr" v="290131" />
		<tag k="waterway" v="stream" />
	</node>
	<node id="-607090" lat="63.1188555569" lon="8.31708333968">
		<tag k="name" v="Nertrøbekken" />
		<tag k="ssr:stedsnr" v="290092" />
		<tag k="waterway" v="stream" />
	</node>
	<node id="-608625" lat="63.1020805554" lon="8.51227221393">
		<tag k="name" v="Ådalselva" />
		<tag k="ssr:stedsnr" v="776430" />
		<tag k="waterway" v="river" />
	</node>
	<node id="-607598" lat="63.1379916695" lon="8.61755554917">
		<tag k="name" v="Gaddtjønna" />
		<tag k="natural" v="water" />
		<tag k="ssr:stedsnr" v="47828" />
	</node>
	<node id="-608107" lat="63.1243999971" lon="8.66030555393">
		<tag k="name" v="Fjærlivatnet" />
		<tag k="natural" v="water" />
		<tag k="ssr:stedsnr" v="497986" />
	</node>
	<node id="-607589" lat="63.1412722206" lon="8.56990554843">
		<tag k="alt_name" v="Lervikelva" />
		<tag k="name" v="Leirvikelva" />
		<tag k="ssr:stedsnr" v="47663" />
		<tag k="waterway" v="stream" />
	</node>
	<node id="-608099" lat="63.173797222" lon="8.75501944783">
		<tag k="name" v="Langbekken" />
		<tag k="ssr:stedsnr" v="472977" />
		<tag k="waterway" v="stream" />
	</node>
	<node id="-608610" lat="63.0986138931" lon="8.33592499937">
		<tag k="name" v="Hamnabekken" />
		<tag k="ssr:stedsnr" v="775979" />
		<tag k="waterway" v="stream" />
	</node>
	<node id="-608097" lat="63.0941555555" lon="8.37256111644">
		<tag k="name" v="Blekkatjønna" />
		<tag k="natural" v="water" />
		<tag k="ssr:stedsnr" v="472965" />
	</node>
	<node id="-608606" lat="63.1462777776" lon="8.72668611851">
		<tag k="name" v="Storvassbekken" />
		<tag k="ssr:stedsnr" v="775696" />
		<tag k="waterway" v="stream" />
	</node>
	<node id="-607754" lat="63.0916555551" lon="8.40427500383">
		<tag k="name" v="Kvennhusbekken" />
		<tag k="ssr:stedsnr" v="109640" />
		<tag k="waterway" v="stream" />
	</node>
	<node id="-608825" lat="63.0789611144" lon="8.38976389297">
		<tag k="name" v="Blekkabukta" />
		<tag k="natural" v="bay" />
		<tag k="ssr:stedsnr" v="957812" />
	</node>
	<node id="-607571" lat="63.1270972247" lon="8.29591389276">
		<tag k="name" v="Litlvatnet" />
		<tag k="natural" v="water" />
		<tag k="ssr:stedsnr" v="47071" />
	</node>
	<node id="-607800" lat="63.1071027805" lon="8.37025555963">
		<tag k="name" v="Kjekkelbekken" />
		<tag k="ssr:stedsnr" v="168077" />
		<tag k="waterway" v="stream" />
	</node>
	<node id="-608077" lat="63.0869833309" lon="8.43402223081">
		<tag k="name" v="Mellomelva" />
		<tag k="ssr:stedsnr" v="472649" />
		<tag k="waterway" v="stream" />
	</node>
	<node id="-607557" lat="63.1176777772" lon="8.22444167574">
		<tag k="name" v="Løvikvatnet" />
		<tag k="natural" v="water" />
		<tag k="ssr:stedsnr" v="12973" />
	</node>
	<node id="-607748" lat="63.1321444411" lon="8.4068722268">
		<tag k="name" v="Tronsvabekken" />
		<tag k="ssr:stedsnr" v="109537" />
		<tag k="waterway" v="stream" />
	</node>
	<node id="-607551" lat="63.0795527797" lon="8.55452221377">
		<tag k="name" v="Lomtjørna" />
		<tag k="natural" v="water" />
		<tag k="ssr:stedsnr" v="12913" />
	</node>
	<node id="-607549" lat="63.0847083351" lon="8.35481667575">
		<tag k="name" v="Betnelva" />
		<tag k="ssr:stedsnr" v="12896" />
		<tag k="waterway" v="stream" />
	</node>
	<node id="-608060" lat="63.1358277796" lon="8.22591666383">
		<tag k="name" v="Vikabekken" />
		<tag k="ssr:stedsnr" v="472272" />
		<tag k="waterway" v="stream" />
	</node>
	<node id="-607370" lat="63.1046944468" lon="8.56239167343">
		<tag k="name" v="Sletthølen" />
		<tag k="place" v="locality" />
		<tag k="ssr:stedsnr" v="412447" />
	</node>
	<node id="-607546" lat="63.0989083369" lon="8.64820277212">
		<tag k="name" v="Seterbekken" />
		<tag k="ssr:stedsnr" v="12887" />
		<tag k="waterway" v="stream" />
	</node>
	<node id="-608057" lat="63.0575194482" lon="8.34379166824">
		<tag k="name" v="Fossan" />
		<tag k="natural" v="waterfall" />
		<tag k="ssr:stedsnr" v="472161" />
	</node>
	<node id="-608055" lat="63.1090833328" lon="8.33107221381">
		<tag k="name" v="Inner-Våglandselva" />
		<tag k="ssr:stedsnr" v="472114" />
		<tag k="waterway" v="stream" />
	</node>
	<node id="-607881" lat="63.066236107" lon="8.30529999301">
		<tag k="name" v="Storåa" />
		<tag k="ssr:stedsnr" v="194912" />
		<tag k="waterway" v="stream" />
	</node>
	<node id="-607122" lat="63.1656194417" lon="8.66086111418">
		<tag k="name" v="Gjevabekkbakken" />
		<tag k="ssr:stedsnr" v="291223" />
		<tag k="waterway" v="stream" />
	</node>
	<node id="-608196" lat="63.0928694457" lon="8.43207222825">
		<tag k="name" v="Nedre Snerlitjønna" />
		<tag k="natural" v="water" />
		<tag k="ssr:stedsnr" v="533702" />
	</node>
	<node id="-607156" lat="63.0745250005" lon="8.27944999908">
		<tag k="name" v="Vågåa" />
		<tag k="ssr:stedsnr" v="315914" />
		<tag k="waterway" v="stream" />
	</node>
	<node id="-608046" lat="63.080611111" lon="8.39520556492">
		<tag k="name" v="Storvatnet" />
		<tag k="natural" v="water" />
		<tag k="ssr:stedsnr" v="471821" />
		<tag k="water" v="lake" />
	</node>
	<node id="-608553" lat="63.1734111113" lon="8.74129721768">
		<tag k="name" v="Fonnvegbekken" />
		<tag k="ssr:stedsnr" v="715979" />
		<tag k="waterway" v="stream" />
	</node>
	<node id="-608552" lat="63.0909000033" lon="8.36488333125">
		<tag k="name" v="Pestubekken" />
		<tag k="ssr:stedsnr" v="715975" />
		<tag k="waterway" v="stream" />
	</node>
	<node id="-607526" lat="63.0928666711" lon="8.4752888834">
		<tag k="name" v="Dursmunnvatnet" />
		<tag k="natural" v="water" />
		<tag k="ssr:stedsnr" v="898638" />
	</node>
	<node id="-608859" lat="63.0956833376" lon="8.51436389594">
		<tag k="name" v="Bjørknesbekken" />
		<tag k="ssr:stedsnr" v="958685" />
		<tag k="waterway" v="stream" />
	</node>
	<node id="-608548" lat="63.07941667" lon="8.65762222336">
		<tag k="name" v="Vabekken" />
		<tag k="ssr:stedsnr" v="715901" />
		<tag k="waterway" v="stream" />
	</node>
	<node id="-608033" lat="63.1071166682" lon="8.63044443967">
		<tag k="name" v="Skredbekken" />
		<tag k="ssr:stedsnr" v="471528" />
		<tag k="waterway" v="stream" />
	</node>
	<node id="-608544" lat="63.1368944403" lon="8.78304722796">
		<tag k="name" v="Årøya" />
		<tag k="place" v="island" />
		<tag k="ssr:stedsnr" v="715840" />
	</node>
	<node id="-608543" lat="63.1498805565" lon="8.81246388879">
		<tag k="name" v="Tverrbekken" />
		<tag k="ssr:stedsnr" v="715836" />
		<tag k="waterway" v="river" />
	</node>
	<node id="-608541" lat="63.164038886" lon="8.60918610572">
		<tag k="name" v="Rendalselva" />
		<tag k="ssr:stedsnr" v="715754" />
		<tag k="waterway" v="stream" />
	</node>
	<node id="-608539" lat="63.158497225" lon="8.59630554985">
		<tag k="name" v="Litl Reinhaugtjønna" />
		<tag k="natural" v="water" />
		<tag k="ssr:stedsnr" v="715745" />
	</node>
	<node id="-608026" lat="63.1095416674" lon="8.16760834049">
		<tag k="name" v="Storvikbekken" />
		<tag k="ssr:stedsnr" v="471443" />
		<tag k="waterway" v="stream" />
	</node>
	<node id="-607876" lat="63.1134055593" lon="8.55669721323">
		<tag k="name" v="Grytåa" />
		<tag k="ssr:stedsnr" v="194864" />
		<tag k="waterway" v="stream" />
	</node>
	<node id="-608534" lat="63.0957638882" lon="8.44330277196">
		<tag k="name" v="Øvre Snerlitjønna" />
		<tag k="natural" v="water" />
		<tag k="ssr:stedsnr" v="715679" />
	</node>
	<node id="-608533" lat="63.0787333292" lon="8.21911389613">
		<tag k="name" v="Skiftesbekken" />
		<tag k="ssr:stedsnr" v="715677" />
		<tag k="waterway" v="stream" />
	</node>
	<node id="-607154" lat="63.0878805527" lon="8.58521389806">
		<tag k="name" v="Tvillingelva" />
		<tag k="ssr:stedsnr" v="315909" />
		<tag k="waterway" v="stream" />
	</node>
	<node id="-608302" lat="63.1134916697" lon="8.40193056518">
		<tag k="name" v="Svarthammarbekken" />
		<tag k="ssr:stedsnr" v="593680" />
		<tag k="waterway" v="stream" />
	</node>
	<node id="-608018" lat="63.1283000032" lon="8.29721666402">
		<tag k="alt_name" v="Ytre Våglandselva" />
		<tag k="name" v="Ytter-Våglandselva" />
		<tag k="ssr:stedsnr" v="470998" />
		<tag k="waterway" v="stream" />
	</node>
	<node id="-608523" lat="63.0821000045" lon="8.58076111946">
		<tag k="name" v="Stordalsbekken" />
		<tag k="ssr:stedsnr" v="715488" />
		<tag k="waterway" v="stream" />
	</node>
	<node id="-608522" lat="63.0796749963" lon="8.58106111352">
		<tag k="name" v="Nonsfjellbekken" />
		<tag k="ssr:stedsnr" v="715487" />
		<tag k="waterway" v="stream" />
	</node>
	<node id="-607703" lat="63.0770055537" lon="8.5216249953">
		<tag k="name" v="Bjørkøya" />
		<tag k="place" v="island" />
		<tag k="ssr:stedsnr" v="108303" />
	</node>
	<node id="-608005" lat="63.1024555582" lon="8.2356083356">
		<tag k="name" v="Kaldbergsvatnet" />
		<tag k="natural" v="water" />
		<tag k="ssr:stedsnr" v="437985" />
		<tag k="water" v="lake" />
	</node>
	<node id="-608003" lat="63.1280888885" lon="8.46980000535">
		<tag k="name" v="Tverrbekken" />
		<tag k="ssr:stedsnr" v="437960" />
		<tag k="waterway" v="stream" />
	</node>
	<node id="-608512" lat="63.0917999973" lon="8.65140277908">
		<tag k="name" v="Kutrøholmen" />
		<tag k="place" v="islet" />
		<tag k="ssr:stedsnr" v="715124" />
	</node>
	<node id="-607487" lat="63.1677722213" lon="8.70861665734">
		<tag k="name" v="Tverråa" />
		<tag k="ssr:stedsnr" v="897640" />
		<tag k="waterway" v="stream" />
	</node>
	<node id="-607486" lat="63.1622305579" lon="8.71073889452">
		<tag k="name" v="Jamdalstjønna" />
		<tag k="natural" v="water" />
		<tag k="ssr:stedsnr" v="897634" />
	</node>
	<node id="-608509" lat="63.1032666688" lon="8.72383333978">
		<tag k="name" v="Grønelva" />
		<tag k="ssr:stedsnr" v="715084" />
		<tag k="waterway" v="stream" />
	</node>
	<node id="-607483" lat="63.134119443" lon="8.47554999627">
		<tag k="name" v="Otneselva" />
		<tag k="ssr:stedsnr" v="897528" />
		<tag k="waterway" v="stream" />
	</node>
	<node id="-608127" lat="63.0738305558" lon="8.56276111446">
		<tag k="name" v="Pikholabekken" />
		<tag k="ssr:stedsnr" v="532267" />
		<tag k="waterway" v="stream" />
	</node>
	<node id="-607991" lat="63.1645138874" lon="8.62675833114">
		<tag k="name" v="Dennåa" />
		<tag k="ssr:stedsnr" v="437080" />
		<tag k="waterway" v="river" />
	</node>
	<node id="-607988" lat="63.1285249991" lon="8.68582777224">
		<tag k="name" v="Litlvatnet" />
		<tag k="natural" v="water" />
		<tag k="ssr:stedsnr" v="255975" />
	</node>
	<node id="-607987" lat="63.132152775" lon="8.71213610457">
		<tag k="name" v="Blåvatnet" />
		<tag k="natural" v="water" />
		<tag k="ssr:stedsnr" v="255974" />
	</node>
	<node id="-607981" lat="63.0789666646" lon="8.39800000535">
		<tag k="name" v="Rognskogvatnet" />
		<tag k="natural" v="water" />
		<tag k="ssr:stedsnr" v="255934" />
		<tag k="water" v="lake" />
	</node>
	<node id="-608313" lat="63.0994055534" lon="8.34002221504">
		<tag k="name" v="Bakktjønna" />
		<tag k="natural" v="water" />
		<tag k="ssr:stedsnr" v="593973" />
	</node>
	<node id="-608489" lat="63.1223555594" lon="8.55153888464">
		<tag k="name" v="Tverrfjellbekken" />
		<tag k="ssr:stedsnr" v="714552" />
		<tag k="waterway" v="stream" />
	</node>
	<node id="-607961" lat="63.1602305514" lon="8.58167221394">
		<tag k="name" v="Røstgråtlibekken" />
		<tag k="ssr:stedsnr" v="230701" />
		<tag k="waterway" v="stream" />
	</node>
	<node id="-607406" lat="63.1286861111" lon="8.42770277735">
		<tag k="name" v="Kroknessetra" />
		<tag k="natural" v="cape" />
		<tag k="ssr:stedsnr" v="412540" />
	</node>
	<node id="-607460" lat="63.0806805546" lon="8.52634999671">
		<tag k="name" v="Fagerøya" />
		<tag k="place" v="island" />
		<tag k="ssr:stedsnr" v="896314" />
	</node>
	<node id="-607458" lat="63.0700111085" lon="8.507527771">
		<tag k="name" v="Hjelmåa" />
		<tag k="natural" v="water" />
		<tag k="ssr:stedsnr" v="895925" />
	</node>
	<node id="-608479" lat="63.0287777787" lon="8.25948610214">
		<tag k="name" v="Ringabekken" />
		<tag k="ssr:stedsnr" v="714170" />
		<tag k="waterway" v="stream" />
	</node>
	<node id="-607449" lat="63.163102774" lon="8.56654999549">
		<tag k="name" v="Røstgråtlibekken" />
		<tag k="ssr:stedsnr" v="473711" />
		<tag k="waterway" v="stream" />
	</node>
	<node id="-608036" lat="63.1166138917" lon="8.53220555468">
		<tag k="name" v="Ormdalsbekken" />
		<tag k="ssr:stedsnr" v="471611" />
		<tag k="waterway" v="stream" />
	</node>
	<node id="-608470" lat="63.1514666661" lon="8.7722555638">
		<tag k="name" v="Høgsvadalbekken" />
		<tag k="ssr:stedsnr" v="715556" />
		<tag k="waterway" v="stream" />
	</node>
	<node id="-607097" lat="63.0458944471" lon="8.2943194494">
		<tag k="name" v="Stavråa" />
		<tag k="ssr:stedsnr" v="290167" />
		<tag k="waterway" v="stream" />
	</node>
	<node id="-607545" lat="63.1094305518" lon="8.70411389394">
		<tag k="name" v="Botnavatnet" />
		<tag k="natural" v="water" />
		<tag k="ssr:stedsnr" v="12878" />
		<tag k="water" v="lake" />
	</node>
	<node id="-607949" lat="63.1130583317" lon="8.58132222979">
		<tag k="name" v="Dvergdalsbekken" />
		<tag k="ssr:stedsnr" v="230496" />
		<tag k="waterway" v="stream" />
	</node>
	<node id="-608458" lat="63.0714749988" lon="8.61245555306">
		<tag k="name" v="Tverrlitjørna" />
		<tag k="natural" v="water" />
		<tag k="ssr:stedsnr" v="680957" />
	</node>
	<node id="-608457" lat="63.0823916646" lon="8.7022916753">
		<tag k="name" v="Svarthammarvatnet" />
		<tag k="natural" v="water" />
		<tag k="ssr:stedsnr" v="680922" />
	</node>
	<node id="-608456" lat="63.0444694458" lon="8.28555000408">
		<tag k="name" v="Gammeltjørna" />
		<tag k="natural" v="water" />
		<tag k="ssr:stedsnr" v="680852" />
	</node>
	<node id="-608453" lat="63.1072305588" lon="8.38958889673">
		<tag k="name" v="Klettaelva" />
		<tag k="ssr:stedsnr" v="679989" />
		<tag k="waterway" v="river" />
	</node>
	<node id="-608448" lat="63.0893444483" lon="8.48761388027">
		<tag k="name" v="Ljøsvatnet" />
		<tag k="natural" v="water" />
		<tag k="ssr:stedsnr" v="679876" />
	</node>
	<node id="-608447" lat="63.1056416691" lon="8.41331388645">
		<tag k="name" v="Svarthammartjørna" />
		<tag k="natural" v="water" />
		<tag k="ssr:stedsnr" v="679869" />
	</node>
	<node id="-607093" lat="63.1168250005" lon="8.33176944856">
		<tag k="name" v="Ådalsbekken" />
		<tag k="ssr:stedsnr" v="290132" />
		<tag k="waterway" v="stream" />
	</node>
	<node id="-607932" lat="63.0594277734" lon="8.33409721991">
		<tag k="name" v="Vassdalselva" />
		<tag k="ssr:stedsnr" v="230178" />
		<tag k="waterway" v="river" />
	</node>
	<node id="-607929" lat="63.179311114" lon="8.71241666922">
		<tag k="name" v="Ytterbønbekken" />
		<tag k="ssr:stedsnr" v="229987" />
		<tag k="waterway" v="stream" />
	</node>
	<node id="-608436" lat="63.1291222224" lon="8.26742222131">
		<tag k="name" v="Skålvikselva" />
		<tag k="ssr:stedsnr" v="654924" />
		<tag k="waterway" v="stream" />
	</node>
	<node id="-607409" lat="63.1329500025" lon="8.40576111334">
		<tag k="name" v="Hennaelva" />
		<tag k="ssr:stedsnr" v="412545" />
		<tag k="waterway" v="stream" />
	</node>
	<node id="-607688" lat="63.1261111068" lon="8.17303054882">
		<tag k="name" v="Slettabekken" />
		<tag k="ssr:stedsnr" v="107459" />
		<tag k="waterway" v="stream" />
	</node>
	<node id="-608507" lat="63.0942194413" lon="8.70983055037">
		<tag k="name" v="Rånnaelva" />
		<tag k="ssr:stedsnr" v="715072" />
		<tag k="waterway" v="river" />
	</node>
	<node id="-608029" lat="63.1178555521" lon="8.19609721243">
		<tag k="name" v="Stokklibekken" />
		<tag k="ssr:stedsnr" v="471462" />
		<tag k="waterway" v="stream" />
	</node>
	<node id="-607259" lat="63.067208329" lon="8.54728888233">
		<tag k="name" v="Krokvatnet" />
		<tag k="natural" v="water" />
		<tag k="ssr:stedsnr" v="376947" />
	</node>
	<node id="-608425" lat="63.1282833309" lon="8.79468612033">
		<tag k="name" v="Dalafjelltjønna" />
		<tag k="natural" v="water" />
		<tag k="ssr:stedsnr" v="654756" />
	</node>
	<node id="-607911" lat="63.0337916649" lon="8.24905278465">
		<tag k="name" v="Kvalnesvikelva" />
		<tag k="ssr:stedsnr" v="229567" />
		<tag k="waterway" v="stream" />
	</node>
	<node id="-608419" lat="63.1536083334" lon="8.61363055762">
		<tag k="name" v="Seterbekken" />
		<tag k="ssr:stedsnr" v="654697" />
		<tag k="waterway" v="stream" />
	</node>
	<node id="-607515" lat="63.0976333317" lon="8.59092222772">
		<tag k="name" v="Langstibekken" />
		<tag k="ssr:stedsnr" v="898418" />
		<tag k="waterway" v="stream" />
	</node>
	<node id="-608415" lat="63.1623277811" lon="8.71945276977">
		<tag k="name" v="Krontjønna" />
		<tag k="natural" v="water" />
		<tag k="ssr:stedsnr" v="654657" />
	</node>
	<node id="-607941" lat="63.1290777795" lon="8.20864999585">
		<tag k="name" v="Hyllstibekken" />
		<tag k="ssr:stedsnr" v="230293" />
		<tag k="waterway" v="stream" />
	</node>
	<node id="-608408" lat="63.0810388901" lon="8.58732500341">
		<tag k="name" v="Rånan" />
		<tag k="natural" v="bay" />
		<tag k="ssr:stedsnr" v="654477" />
	</node>
	<node id="-608407" lat="63.075808331" lon="8.59468889194">
		<tag k="name" v="Lomtjønna" />
		<tag k="natural" v="water" />
		<tag k="ssr:stedsnr" v="654476" />
	</node>
	<node id="-608405" lat="63.089622218" lon="8.60773333981">
		<tag k="name" v="Fagerlibekken" />
		<tag k="ssr:stedsnr" v="654431" />
		<tag k="waterway" v="stream" />
	</node>
	<node id="-607219" lat="63.1022388866" lon="8.46808888494">
		<tag k="name" v="Tverrdalsbekken" />
		<tag k="ssr:stedsnr" v="351628" />
		<tag k="waterway" v="stream" />
	</node>
	<node id="-607171" lat="63.1361527816" lon="8.46378055782">
		<tag k="name" v="Hammarholmen" />
		<tag k="place" v="islet" />
		<tag k="ssr:stedsnr" v="323762" />
	</node>
	<node id="-607256" lat="63.063133337" lon="8.32654444087">
		<tag k="name" v="Megardsvatnet" />
		<tag k="natural" v="water" />
		<tag k="ssr:stedsnr" v="376939" />
	</node>
	<node id="-607886" lat="63.0975333306" lon="8.22242223148">
		<tag k="name" v="Lomtjørna" />
		<tag k="natural" v="water" />
		<tag k="ssr:stedsnr" v="195000" />
	</node>
	<node id="-608396" lat="63.0595888896" lon="8.36397777287">
		<tag k="name" v="Måsvasselva" />
		<tag k="ssr:stedsnr" v="654155" />
		<tag k="waterway" v="stream" />
	</node>
	<node id="-608395" lat="63.0974499974" lon="8.69297500026">
		<tag k="name" v="Kariholmen" />
		<tag k="place" v="islet" />
		<tag k="ssr:stedsnr" v="654143" />
	</node>
	<node id="-608394" lat="63.0935333348" lon="8.65555555562">
		<tag k="name" v="Storneset" />
		<tag k="natural" v="cape" />
		<tag k="ssr:stedsnr" v="654136" />
	</node>
	<node id="-608393" lat="63.1176166648" lon="8.29931388572">
		<tag k="name" v="Trøbekken" />
		<tag k="ssr:stedsnr" v="654068" />
		<tag k="waterway" v="stream" />
	</node>
	<node id="-607880" lat="63.0726777759" lon="8.4402694511">
		<tag k="name" v="Bekkervatnet" />
		<tag k="natural" v="water" />
		<tag k="ssr:stedsnr" v="194908" />
	</node>
	<node id="-608391" lat="63.0911555595" lon="8.70449166944">
		<tag k="name" v="Rånnabekken" />
		<tag k="ssr:stedsnr" v="654062" />
		<tag k="waterway" v="stream" />
	</node>
	<node id="-608389" lat="63.1083750015" lon="8.36730555934">
		<tag k="name" v="Stigabekken" />
		<tag k="ssr:stedsnr" v="654050" />
		<tag k="waterway" v="stream" />
	</node>
	<node id="-608388" lat="63.1051166629" lon="8.67330833802">
		<tag k="name" v="Oselva" />
		<tag k="ssr:stedsnr" v="654012" />
		<tag k="waterway" v="stream" />
	</node>
	<node id="-607875" lat="63.0927388857" lon="8.2283555538">
		<tag k="name" v="Bjørnavatnet" />
		<tag k="natural" v="water" />
		<tag k="ssr:stedsnr" v="194861" />
	</node>
	<node id="-608117" lat="63.1351694415" lon="8.30647500053">
		<tag k="name" v="Bekkekroken" />
		<tag k="natural" v="water" />
		<tag k="ssr:stedsnr" v="529959" />
		<tag k="water" v="lake" />
	</node>
	<node id="-607850" lat="63.1229694481" lon="8.452033327">
		<tag k="name" v="Seterbekken" />
		<tag k="ssr:stedsnr" v="169693" />
		<tag k="waterway" v="stream" />
	</node>
	<node id="-608881" lat="63.0794583348" lon="8.4956333239">
		<tag k="name" v="Ljøsvatnet" />
		<tag k="natural" v="water" />
		<tag k="ssr:stedsnr" v="958951" />
	</node>
	<node id="-608880" lat="63.0769444422" lon="8.49833333784">
		<tag k="name" v="Ljøsvassbekken" />
		<tag k="ssr:stedsnr" v="958950" />
		<tag k="waterway" v="stream" />
	</node>
	<node id="-608876" lat="63.1754111092" lon="8.67336111266">
		<tag k="name" v="Ragnhilddalsbekken" />
		<tag k="ssr:stedsnr" v="958868" />
		<tag k="waterway" v="stream" />
	</node>
	<node id="-608363" lat="63.086841664" lon="8.52845832932">
		<tag k="name" v="Hjelmåa" />
		<tag k="ssr:stedsnr" v="619927" />
		<tag k="waterway" v="river" />
	</node>
	<node id="-608362" lat="63.0767750042" lon="8.35103333921">
		<tag k="name" v="Gammelsagelva" />
		<tag k="ssr:stedsnr" v="619928" />
		<tag k="waterway" v="stream" />
	</node>
	<node id="-607848" lat="63.0968027759" lon="8.41920832439">
		<tag k="name" v="Gaukholtjønna" />
		<tag k="natural" v="water" />
		<tag k="ssr:stedsnr" v="169675" />
	</node>
	<node id="-607847" lat="63.1600694463" lon="8.72988333704">
		<tag k="name" v="Instibekktjønna" />
		<tag k="natural" v="water" />
		<tag k="ssr:stedsnr" v="169668" />
	</node>
	<node id="-607077" lat="63.0802166704" lon="8.45880833206">
		<tag k="name" v="Klomptjønna" />
		<tag k="natural" v="water" />
		<tag k="ssr:stedsnr" v="288936" />
	</node>
	<node id="-608357" lat="63.1019333334" lon="8.35308610644">
		<tag k="name" v="Dalabekken" />
		<tag k="ssr:stedsnr" v="618995" />
		<tag k="waterway" v="stream" />
	</node>
	<node id="-608356" lat="63.1018777786" lon="8.39558610167">
		<tag k="name" v="Steinsetertjørna" />
		<tag k="natural" v="water" />
		<tag k="ssr:stedsnr" v="618996" />
	</node>
	<node id="-608866" lat="63.153438888" lon="8.72238611379">
		<tag k="name" v="Dyrskarbekken" />
		<tag k="ssr:stedsnr" v="958711" />
		<tag k="waterway" v="stream" />
	</node>
	<node id="-607163" lat="63.0878527758" lon="8.52119721689">
		<tag k="name" v="Ljøsvasselva" />
		<tag k="ssr:stedsnr" v="315899" />
		<tag k="waterway" v="stream" />
	</node>
	<node id="-608863" lat="63.0987388923" lon="8.42938611794">
		<tag k="name" v="Stakkstongtjønna" />
		<tag k="natural" v="water" />
		<tag k="ssr:stedsnr" v="958706" />
	</node>
	<node id="-608350" lat="63.0957472221" lon="8.44325277886">
		<tag k="name" v="Snerlitjørnin" />
		<tag k="natural" v="water" />
		<tag k="ssr:stedsnr" v="618876" />
	</node>
	<node id="-608349" lat="63.0940722183" lon="8.64013611821">
		<tag k="name" v="Tverråa" />
		<tag k="ssr:stedsnr" v="618871" />
		<tag k="waterway" v="stream" />
	</node>
	<node id="-608860" lat="63.1556527773" lon="8.7311027725">
		<tag k="name" v="Dyrskartjønna" />
		<tag k="natural" v="water" />
		<tag k="ssr:stedsnr" v="958697" />
	</node>
	<node id="-607162" lat="63.1007444437" lon="8.52380833273">
		<tag k="name" v="Englivatnet" />
		<tag k="natural" v="water" />
		<tag k="ssr:stedsnr" v="315892" />
		<tag k="water" v="lake" />
	</node>
	<node id="-607834" lat="63.0953999988" lon="8.54818056067">
		<tag k="name" v="Kvennhusbekken" />
		<tag k="ssr:stedsnr" v="169476" />
		<tag k="waterway" v="stream" />
	</node>
	<node id="-608343" lat="63.0728777768" lon="8.65237777708">
		<tag k="name" v="Fingerklevtjønna" />
		<tag k="natural" v="water" />
		<tag k="ssr:stedsnr" v="594887" />
	</node>
	<node id="-608342" lat="63.1810555546" lon="8.69396945103">
		<tag k="name" v="Saltrøbekken" />
		<tag k="ssr:stedsnr" v="594861" />
		<tag k="waterway" v="stream" />
	</node>
	<node id="-607251" lat="63.1691361127" lon="8.75386667552">
		<tag k="name" v="Engdalselva" />
		<tag k="ssr:stedsnr" v="376832" />
		<tag k="waterway" v="river" />
	</node>
	<node id="-607967" lat="63.1412166683" lon="8.32654444481">
		<tag k="name" v="Taknesbekken" />
		<tag k="ssr:stedsnr" v="230921" />
		<tag k="waterway" v="stream" />
	</node>
	<node id="-607825" lat="63.159161109" lon="8.68214999116">
		<tag k="name" v="Yssingøyan" />
		<tag k="place" v="island" />
		<tag k="ssr:stedsnr" v="169197" />
	</node>
	<node id="-607312" lat="63.1146666648" lon="8.3180250087">
		<tag k="name" v="Ådalselva" />
		<tag k="ssr:stedsnr" v="412077" />
		<tag k="waterway" v="stream" />
	</node>
	<node id="-607821" lat="63.0976250006" lon="8.68709722365">
		<tag k="name" v="Fiskarneset" />
		<tag k="natural" v="cape" />
		<tag k="ssr:stedsnr" v="169138" />
	</node>
	<node id="-608332" lat="63.0531138932" lon="8.23972499322">
		<tag k="name" v="Langbekken" />
		<tag k="ssr:stedsnr" v="594623" />
		<tag k="waterway" v="stream" />
	</node>
	<node id="-607307" lat="63.1755916632" lon="8.72941110837">
		<tag k="name" v="Sjursbekken" />
		<tag k="ssr:stedsnr" v="411978" />
		<tag k="waterway" v="stream" />
	</node>
	<node id="-607817" lat="63.1068194411" lon="8.73878888554">
		<tag k="name" v="Øranfossen" />
		<tag k="natural" v="waterfall" />
		<tag k="ssr:stedsnr" v="169001" />
	</node>
	<node id="-608840" lat="63.1491416703" lon="8.68665278437">
		<tag k="name" v="Mårfella" />
		<tag k="natural" v="cape" />
		<tag k="ssr:stedsnr" v="958238" />
	</node>
	<node id="-608838" lat="63.1576833323" lon="8.67312778173">
		<tag k="name" v="Mørkdalsbekken" />
		<tag k="ssr:stedsnr" v="958216" />
		<tag k="waterway" v="stream" />
	</node>
	<node id="-607301" lat="63.1301361134" lon="8.62611667247">
		<tag k="name" v="Kvenndalselva" />
		<tag k="ssr:stedsnr" v="411827" />
		<tag k="waterway" v="stream" />
	</node>
	<node id="-608323" lat="63.0790611151" lon="8.34658334148">
		<tag k="name" v="Asøya" />
		<tag k="natural" v="cape" />
		<tag k="ssr:stedsnr" v="594255" />
	</node>
	<node id="-608833" lat="63.0950972227" lon="8.65430277952">
		<tag k="name" v="Båtvika" />
		<tag k="natural" v="bay" />
		<tag k="ssr:stedsnr" v="958126" />
	</node>
	<node id="-607295" lat="63.0974194417" lon="8.24331944508">
		<tag k="name" v="Bjønnavasselva" />
		<tag k="ssr:stedsnr" v="411711" />
		<tag k="waterway" v="stream" />
	</node>
	<node id="-607806" lat="63.1171777759" lon="8.16788611217">
		<tag k="name" v="Andersåkerbekken" />
		<tag k="ssr:stedsnr" v="168445" />
		<tag k="waterway" v="stream" />
	</node>
	<node id="-607293" lat="63.1588000025" lon="8.73189165843">
		<tag k="name" v="Olderbekktjønna" />
		<tag k="natural" v="water" />
		<tag k="ssr:stedsnr" v="411659" />
	</node>
	<node id="-607292" lat="63.0598805515" lon="8.24166944867">
		<tag k="name" v="Rødelva" />
		<tag k="ssr:stedsnr" v="411654" />
		<tag k="waterway" v="stream" />
	</node>
	<node id="-607498" lat="63.148491667" lon="8.60926666078">
		<tag k="name" v="Lomtjønna" />
		<tag k="natural" v="water" />
		<tag k="ssr:stedsnr" v="897804" />
	</node>
	<node id="-607289" lat="63.1502916675" lon="8.58728055397">
		<tag k="name" v="Stokkeelva" />
		<tag k="ssr:stedsnr" v="411638" />
		<tag k="waterway" v="river" />
	</node>
	<node id="-608312" lat="63.1748722242" lon="8.7305527763">
		<tag k="name" v="Skvallerråa" />
		<tag k="ssr:stedsnr" v="593971" />
		<tag k="waterway" v="stream" />
	</node>
	<node id="-608823" lat="63.0774805545" lon="8.40001388094">
		<tag k="name" v="Storneset" />
		<tag k="natural" v="cape" />
		<tag k="ssr:stedsnr" v="957809" />
	</node>
	<node id="-608822" lat="63.0753361085" lon="8.40187221788">
		<tag k="name" v="Litlneset" />
		<tag k="natural" v="cape" />
		<tag k="ssr:stedsnr" v="957808" />
	</node>
	<node id="-607795" lat="63.1429333325" lon="8.28529166043">
		<tag k="name" v="Skarbekken" />
		<tag k="ssr:stedsnr" v="166946" />
		<tag k="waterway" v="stream" />
	</node>
	<node id="-607155" lat="63.0730472228" lon="8.67802499345">
		<tag k="name" v="Tjørnslættjørna" />
		<tag k="natural" v="water" />
		<tag k="ssr:stedsnr" v="315911" />
	</node>
	<node id="-608815" lat="63.0764694411" lon="8.52902222655">
		<tag k="name" v="Lomtjønna" />
		<tag k="natural" v="water" />
		<tag k="ssr:stedsnr" v="957297" />
	</node>
	<node id="-608814" lat="63.0666888933" lon="8.30467499109">
		<tag k="name" v="Stavråa" />
		<tag k="ssr:stedsnr" v="957187" />
		<tag k="waterway" v="river" />
	</node>
	<node id="-608861" lat="63.0801055557" lon="8.2279111138">
		<tag k="name" v="Fossbekken" />
		<tag k="ssr:stedsnr" v="958699" />
		<tag k="waterway" v="stream" />
	</node>
	<node id="-608300" lat="63.0881166623" lon="8.26248611457">
		<tag k="name" v="Trollhaugbekken" />
		<tag k="ssr:stedsnr" v="593666" />
		<tag k="waterway" v="stream" />
	</node>
	<node id="-608811" lat="63.1327805536" lon="8.29016667051">
		<tag k="name" v="Lomtjønna" />
		<tag k="natural" v="water" />
		<tag k="ssr:stedsnr" v="955997" />
	</node>
	<node id="-608808" lat="63.1446388858" lon="8.31136666064">
		<tag k="name" v="Kvennabekken" />
		<tag k="ssr:stedsnr" v="954944" />
		<tag k="waterway" v="stream" />
	</node>
	<node id="-607437" lat="63.1618055588" lon="8.67423888584">
		<tag k="name" v="Seterøya" />
		<tag k="place" v="island" />
		<tag k="ssr:stedsnr" v="473220" />
	</node>
	<node id="-607782" lat="63.1138055543" lon="8.6702000075">
		<tag k="name" v="Fjærlielva" />
		<tag k="ssr:stedsnr" v="133995" />
		<tag k="waterway" v="stream" />
	</node>
	<node id="-608293" lat="63.1632388907" lon="8.74038055682">
		<tag k="name" v="Instibekken" />
		<tag k="ssr:stedsnr" v="593622" />
		<tag k="waterway" v="stream" />
	</node>
	<node id="-608511" lat="63.1184472214" lon="8.3236833374">
		<tag k="name" v="Nertrøbekken" />
		<tag k="ssr:stedsnr" v="715114" />
		<tag k="waterway" v="stream" />
	</node>
	<node id="-608803" lat="63.0536722233" lon="8.347394439">
		<tag k="name" v="Vassdalsvatna" />
		<tag k="natural" v="water" />
		<tag k="ssr:stedsnr" v="923946" />
	</node>
	<node id="-607266" lat="63.1095083324" lon="8.75613610438">
		<tag k="name" v="Litlgrøndalstjønna" />
		<tag k="natural" v="water" />
		<tag k="ssr:stedsnr" v="389772" />
	</node>
	<node id="-608801" lat="63.0866055532" lon="8.58993611909">
		<tag k="name" v="Storelva" />
		<tag k="ssr:stedsnr" v="923914" />
		<tag k="waterway" v="stream" />
	</node>
	<node id="-608261" lat="63.0923305572" lon="8.25941944701">
		<tag k="name" v="Seterbekken" />
		<tag k="ssr:stedsnr" v="592001" />
		<tag k="waterway" v="stream" />
	</node>
	<node id="-607771" lat="63.0583805591" lon="8.25049167514">
		<tag k="name" v="Fossbekken" />
		<tag k="ssr:stedsnr" v="133929" />
		<tag k="waterway" v="stream" />
	</node>
	<node id="-608289" lat="63.1429166639" lon="8.25268888437">
		<tag k="name" v="Storvikbekken" />
		<tag k="ssr:stedsnr" v="593266" />
		<tag k="waterway" v="stream" />
	</node>
	<node id="-607768" lat="63.0957055574" lon="8.70287777259">
		<tag k="name" v="Rånnavatnet" />
		<tag k="natural" v="water" />
		<tag k="ssr:stedsnr" v="133883" />
	</node>
	<node id="-608791" lat="63.0913833312" lon="8.65839445276">
		<tag k="name" v="Reinslivatnet" />
		<tag k="natural" v="water" />
		<tag k="ssr:stedsnr" v="922873" />
		<tag k="water" v="lake" />
	</node>
	<node id="-607662" lat="63.0661611077" lon="8.3864111207">
		<tag k="name" v="Hundhaugvatnet" />
		<tag k="natural" v="water" />
		<tag k="ssr:stedsnr" v="73917" />
	</node>
	<node id="-607250" lat="63.1170194433" lon="8.76332221272">
		<tag k="name" v="Hardbakktjønna" />
		<tag k="natural" v="water" />
		<tag k="ssr:stedsnr" v="376721" />
	</node>
	<node id="-608272" lat="63.0822583377" lon="8.41840000503">
		<tag k="name" v="Tunga" />
		<tag k="natural" v="cape" />
		<tag k="ssr:stedsnr" v="592837" />
	</node>
	<node id="-608269" lat="63.1279416635" lon="8.51939722549">
		<tag k="name" v="Hestneselva" />
		<tag k="ssr:stedsnr" v="592656" />
		<tag k="waterway" v="stream" />
	</node>
	<node id="-607243" lat="63.0748305599" lon="8.4942305601">
		<tag k="name" v="Hjelmseterbekken" />
		<tag k="ssr:stedsnr" v="351928" />
		<tag k="waterway" v="stream" />
	</node>
	<node id="-608778" lat="63.1360361146" lon="8.68175000888">
		<tag k="name" v="Skottjørna" />
		<tag k="natural" v="water" />
		<tag k="ssr:stedsnr" v="862961" />
	</node>
	<node id="-607751" lat="63.0461305525" lon="8.2451583374">
		<tag k="name" v="Innreitselva" />
		<tag k="ssr:stedsnr" v="109584" />
		<tag k="waterway" v="stream" />
	</node>
	<node id="-608510" lat="63.11096667" lon="8.71138056297">
		<tag k="name" v="Grønlibekken" />
		<tag k="ssr:stedsnr" v="715103" />
		<tag k="waterway" v="stream" />
	</node>
	<node id="-608773" lat="63.0509750019" lon="8.319469452">
		<tag k="name" v="Tjørnråa" />
		<tag k="natural" v="water" />
		<tag k="ssr:stedsnr" v="862940" />
	</node>
	<node id="-608186" lat="63.1595472244" lon="8.75555555429">
		<tag k="name" v="Ytre Skarbekken" />
		<tag k="ssr:stedsnr" v="533542" />
		<tag k="waterway" v="stream" />
	</node>
	<node id="-608258" lat="63.1405416642" lon="8.30084722562">
		<tag k="name" v="Bjønndalsbekken" />
		<tag k="ssr:stedsnr" v="589957" />
		<tag k="waterway" v="stream" />
	</node>
	<node id="-607879" lat="63.0864638909" lon="8.62975832376">
		<tag k="name" v="Dalaelva" />
		<tag k="ssr:stedsnr" v="194901" />
		<tag k="waterway" v="stream" />
	</node>
</osm>
