<?xml version="1.0" encoding="UTF-8"?>
<osm generator="osmapis" version="0.6">
	<node id="-607232" lat="63.0271138913" lon="8.2652416662">
		<tag k="historic" v="shieling" />
		<tag k="name" v="Nedre Ringasetra" />
		<tag k="place" v="locality" />
		<tag k="ssr:stedsnr" v="532183" />
	</node>
	<node id="-606720" lat="63.0738888905" lon="8.2641305533">
		<tag k="name" v="Avlset" />
		<tag k="place" v="farm" />
		<tag k="ssr:stedsnr" v="48216" />
	</node>
	<node id="-607230" lat="63.1229138902" lon="8.32278055784">
		<tag k="name" v="Holten" />
		<tag k="place" v="farm" />
		<tag k="ssr:stedsnr" v="532099" />
	</node>
	<node id="-607229" lat="63.1166555572" lon="8.35661666004">
		<tag k="historic" v="shieling" />
		<tag k="name" v="Kalvhusvollen" />
		<tag k="place" v="locality" />
		<tag k="ssr:stedsnr" v="532058" />
	</node>
	<node id="-606195" lat="63.0790583303" lon="8.40844444177">
		<tag k="name" v="Øver Seter" />
		<tag k="place" v="hamlet" />
		<tag k="ssr:stedsnr" v="289855" />
	</node>
	<node id="-607217" lat="63.0422612547" lon="8.23751208246">
		<tag k="fixme" v="consider place=hamlet" />
		<tag k="name" v="Innreitan" />
		<tag k="place" v="farm" />
		<tag k="ssr:stedsnr" v="498848" />
	</node>
	<node id="-607727" lat="63.0586277787" lon="8.33087777482">
		<tag k="historic" v="shieling" />
		<tag k="name" v="Megardsetra" />
		<tag k="place" v="locality" />
		<tag k="ssr:stedsnr" v="776162" />
	</node>
	<node id="-607724" lat="63.1156861075" lon="8.31001666602">
		<tag k="name" v="Saltrøa" />
		<tag k="place" v="farm" />
		<tag k="ssr:stedsnr" v="776080" />
	</node>
	<node id="-607211" lat="63.0779271291" lon="8.41065571083">
		<tag k="name" v="Setra" />
		<tag k="place" v="hamlet" />
		<tag k="ssr:stedsnr" v="497915" />
	</node>
	<node id="-607210" lat="63.0941833325" lon="8.6157194456">
		<tag k="fixme" v="consider place=hamlet" />
		<tag k="name" v="Valsøybotn" />
		<tag k="place" v="village" />
		<tag k="ssr:stedsnr" v="497911" />
	</node>
	<node id="-607209" lat="63.1007305533" lon="8.50989999584">
		<tag k="historic" v="shieling" />
		<tag k="name" v="Hestnessetra" />
		<tag k="place" v="locality" />
		<tag k="ssr:stedsnr" v="497875" />
	</node>
	<node id="-607207" lat="63.0569277749" lon="8.23693888058">
		<tag k="name" v="Blåbærhaugen" />
		<tag k="place" v="neighbourhood" />
		<tag k="ssr:stedsnr" v="481270" />
	</node>
	<node id="-607717" lat="63.1316333377" lon="8.32262221434">
		<tag k="historic" v="shieling" />
		<tag k="name" v="Taknessetra" />
		<tag k="place" v="locality" />
		<tag k="ssr:stedsnr" v="775914" />
	</node>
	<node id="-607713" lat="63.0763638848" lon="8.25296110682">
		<tag k="name" v="Megard" />
		<tag k="place" v="farm" />
		<tag k="ssr:stedsnr" v="775665" />
	</node>
	<node id="-607200" lat="63.1292138914" lon="8.35382777658">
		<tag k="name" v="Myra" />
		<tag k="place" v="farm" />
		<tag k="ssr:stedsnr" v="472900" />
	</node>
	<node id="-606373" lat="63.1035222188" lon="8.26797500438">
		<tag k="alt_name" v="Kløvset" />
		<tag k="fixme" v="consider place=hamlet" />
		<tag k="name" v="Klevset" />
		<tag k="place" v="village" />
		<tag k="ssr:stedsnr" v="377000" />
	</node>
	<node id="-607055" lat="63.1215888902" lon="8.57552777639">
		<tag k="fixme" v="consider place=hamlet" />
		<tag k="name" v="Hjellnes" />
		<tag k="place" v="village" />
		<tag k="ssr:stedsnr" v="230495" />
	</node>
	<node id="-607704" lat="63.0340750042" lon="8.22061944619">
		<tag k="name" v="Saksen" />
		<tag k="place" v="farm" />
		<tag k="ssr:stedsnr" v="775530" />
	</node>
	<node id="-606372" lat="63.1124388883" lon="8.70569166905">
		<tag k="historic" v="shieling" />
		<tag k="name" v="Botnasetra" />
		<tag k="place" v="locality" />
		<tag k="ssr:stedsnr" v="376999" />
	</node>
	<node id="-607187" lat="63.0766583327" lon="8.21069721531">
		<tag k="name" v="Hagaplassen" />
		<tag k="place" v="locality" />
		<tag k="ssr:stedsnr" v="472659" />
	</node>
	<node id="-607186" lat="63.0719555512" lon="8.2241777688">
		<tag k="name" v="Midland" />
		<tag k="place" v="farm" />
		<tag k="ssr:stedsnr" v="472657" />
	</node>
	<node id="-607697" lat="63.0821527811" lon="8.53589721297">
		<tag k="historic" v="shieling" />
		<tag k="name" v="Nysetra" />
		<tag k="place" v="locality" />
		<tag k="ssr:stedsnr" v="775268" />
	</node>
	<node id="-607695" lat="63.1188777805" lon="8.35516667536">
		<tag k="name" v="Gjere" />
		<tag k="place" v="farm" />
		<tag k="ssr:stedsnr" v="775066" />
	</node>
	<node id="-607694" lat="63.0877833341" lon="8.26987222153">
		<tag k="name" v="Lyngmo" />
		<tag k="place" v="farm" />
		<tag k="ssr:stedsnr" v="775014" />
	</node>
	<node id="-606667" lat="63.1466666633" lon="8.29436944531">
		<tag k="name" v="Strandageilen" />
		<tag k="place" v="farm" />
		<tag k="ssr:stedsnr" v="13942" />
	</node>
	<node id="-606967" lat="63.1835200828" lon="8.70132789231">
		<tag k="fixme" v="consider place=hamlet" />
		<tag k="name" v="Saltrønes" />
		<tag k="place" v="farm" />
		<tag k="ssr:stedsnr" v="169861" />
	</node>
	<node id="-607688" lat="63.1827305538" lon="8.73583332574">
		<tag k="name" v="Nedre Engdalen" />
		<tag k="place" v="farm" />
		<tag k="ssr:stedsnr" v="768518" />
	</node>
	<node id="-606663" lat="63.1281361122" lon="8.33029445333">
		<tag k="alt_name" v="Klettalia" />
		<tag k="name" v="Sollia" />
		<tag k="place" v="farm" />
		<tag k="ssr:stedsnr" v="12963" />
	</node>
	<node id="-606662" lat="63.135440845" lon="8.56531018339">
		<tag k="fixme" v="consider place=hamlet" />
		<tag k="name" v="Høgset" />
		<tag k="place" v="farm" />
		<tag k="ssr:stedsnr" v="12955" />
	</node>
	<node id="-606369" lat="63.1227194402" lon="8.52529167012">
		<tag k="name" v="Trøan" />
		<tag k="place" v="locality" />
		<tag k="ssr:stedsnr" v="376988" />
	</node>
	<node id="-607684" lat="63.1312739821" lon="8.52762357387">
		<tag k="fixme" v="consider place=hamlet" />
		<tag k="name" v="Hestnes" />
		<tag k="place" v="farm" />
		<tag k="ssr:stedsnr" v="754222" />
	</node>
	<node id="-607683" lat="63.1197857591" lon="8.3540050762">
		<tag k="fixme" v="consider place=hamlet" />
		<tag k="name" v="Glåmen" />
		<tag k="place" v="farm" />
		<tag k="ssr:stedsnr" v="741987" />
	</node>
	<node id="-607682" lat="63.1474805589" lon="8.63423888799">
		<tag k="name" v="Leirviksetra" />
		<tag k="place" v="isolated_dwelling" />
		<tag k="ssr:stedsnr" v="741973" />
	</node>
	<node id="-607680" lat="63.1471972219" lon="8.27667499022">
		<tag k="name" v="Vesttun" />
		<tag k="place" v="farm" />
		<tag k="ssr:stedsnr" v="741095" />
	</node>
	<node id="-607679" lat="63.1010277237" lon="8.33596735887">
		<tag k="fixme" v="consider place=hamlet" />
		<tag k="name" v="Åfarlia" />
		<tag k="place" v="farm" />
		<tag k="ssr:stedsnr" v="740996" />
	</node>
	<node id="-607166" lat="63.1395111107" lon="8.22193056006">
		<tag k="name" v="Sørnes" />
		<tag k="place" v="farm" />
		<tag k="ssr:stedsnr" v="472269" />
	</node>
	<node id="-607676" lat="63.1226213971" lon="8.61773879822">
		<tag k="fixme" v="consider place=hamlet" />
		<tag k="name" v="Fjærlia" />
		<tag k="place" v="farm" />
		<tag k="ssr:stedsnr" v="740977" />
	</node>
	<node id="-606651" lat="63.0841278211" lon="8.19331712052">
		<tag k="alt_name" v="Åkvik" />
		<tag k="fixme" v="consider place=hamlet" />
		<tag k="name" v="Åkvika" />
		<tag k="old_name" v="Aakvik" />
		<tag k="place" v="farm" />
		<tag k="ssr:stedsnr" v="12336" />
	</node>
	<node id="-607674" lat="63.1318220104" lon="8.23346283836">
		<tag k="fixme" v="consider place=hamlet" />
		<tag k="name" v="Setra" />
		<tag k="place" v="farm" />
		<tag k="ssr:stedsnr" v="740949" />
	</node>
	<node id="-606879" lat="63.0540083355" lon="8.23630277395">
		<tag k="fixme" v="consider place=hamlet" />
		<tag k="name" v="Ytre Volem" />
		<tag k="place" v="farm" />
		<tag k="ssr:stedsnr" v="133930" />
	</node>
	<node id="-607672" lat="63.0680555586" lon="8.4205666654">
		<tag k="name" v="Fjellåsen" />
		<tag k="place" v="farm" />
		<tag k="ssr:stedsnr" v="740914" />
	</node>
	<node id="-607670" lat="63.0799446771" lon="8.2644739492">
		<tag k="fixme" v="consider place=hamlet" />
		<tag k="name" v="Reitan" />
		<tag k="place" v="farm" />
		<tag k="ssr:stedsnr" v="740890" />
	</node>
	<node id="-607669" lat="63.1038999996" lon="8.45557778631">
		<tag k="name" v="Innersetra" />
		<tag k="place" v="isolated_dwelling" />
		<tag k="ssr:stedsnr" v="740862" />
	</node>
	<node id="-607668" lat="63.0360694487" lon="8.25430555086">
		<tag k="name" v="Innreitssetra" />
		<tag k="place" v="isolated_dwelling" />
		<tag k="ssr:stedsnr" v="740816" />
	</node>
	<node id="-607666" lat="63.1175101845" lon="8.16352770626">
		<tag k="fixme" v="consider place=hamlet" />
		<tag k="name" v="Fjærvikan" />
		<tag k="place" v="farm" />
		<tag k="ssr:stedsnr" v="740264" />
	</node>
	<node id="-606365" lat="63.0718222211" lon="8.25091943596">
		<tag k="fixme" v="consider place=hamlet" />
		<tag k="name" v="Halsa" />
		<tag k="place" v="village" />
		<tag k="ssr:stedsnr" v="376940" />
	</node>
	<node id="-606634" lat="63.0468277805" lon="8.23323611348">
		<tag k="name" v="Sagsjøen" />
		<tag k="place" v="isolated_dwelling" />
		<tag k="ssr:stedsnr" v="898630" />
	</node>
	<node id="-607145" lat="63.069436115" lon="8.2416388795">
		<tag k="name" v="Vollan" />
		<tag k="place" v="farm" />
		<tag k="ssr:stedsnr" v="471684" />
	</node>
	<node id="-607655" lat="63.176791664" lon="8.6553250041">
		<tag k="name" v="Rodalshamn" />
		<tag k="place" v="farm" />
		<tag k="ssr:stedsnr" v="715894" />
	</node>
	<node id="-606629" lat="63.1086109047" lon="8.59567885089">
		<tag k="name" v="Sandnes" />
		<tag k="place" v="hamlet" />
		<tag k="ssr:stedsnr" v="898531" />
	</node>
	<node id="-607046" lat="63.1315305573" lon="8.23472222371">
		<tag k="name" v="Ytter setran" />
		<tag k="place" v="farm" />
		<tag k="ssr:stedsnr" v="230271" />
	</node>
	<node id="-607650" lat="63.1682833356" lon="8.59190832906">
		<tag k="name" v="Rendalshamn" />
		<tag k="place" v="farm" />
		<tag k="ssr:stedsnr" v="715757" />
	</node>
	<node id="-607643" lat="63.0784527823" lon="8.20292778581">
		<tag k="name" v="Hamna" />
		<tag k="place" v="locality" />
		<tag k="ssr:stedsnr" v="715682" />
	</node>
	<node id="-607215" lat="63.1024377494" lon="8.18077823468">
		<tag k="fixme" v="consider place=hamlet" />
		<tag k="name" v="Hønsvika" />
		<tag k="place" v="farm" />
		<tag k="ssr:stedsnr" v="498431" />
	</node>
	<node id="-607128" lat="63.0275805541" lon="8.26676111736">
		<tag k="historic" v="shieling" />
		<tag k="name" v="Øvre Ringasetra" />
		<tag k="place" v="locality" />
		<tag k="ssr:stedsnr" v="471205" />
	</node>
	<node id="-606612" lat="63.1753083336" lon="8.75303333434">
		<tag k="name" v="Almli" />
		<tag k="place" v="farm" />
		<tag k="ssr:stedsnr" v="897979" />
	</node>
	<node id="-607120" lat="63.1202583304" lon="8.30492223205">
		<tag k="name" v="Liabøen" />
		<tag k="place" v="quarter" />
		<tag k="ssr:stedsnr" v="464371" />
	</node>
	<node id="-607117" lat="63.1184111089" lon="8.62342777338">
		<tag k="name" v="Indre Fjærlia" />
		<tag k="place" v="farm" />
		<tag k="ssr:stedsnr" v="462459" />
	</node>
	<node id="-607115" lat="63.1059666665" lon="8.26692221855">
		<tag k="name" v="Kleiva" />
		<tag k="place" v="farm" />
		<tag k="ssr:stedsnr" v="437999" />
	</node>
	<node id="-607113" lat="63.1084416636" lon="8.57970277851">
		<tag k="name" v="Kroksetra" />
		<tag k="place" v="isolated_dwelling" />
		<tag k="ssr:stedsnr" v="437993" />
	</node>
	<node id="-607623" lat="63.0735777737" lon="8.30154722265">
		<tag k="name" v="Stavråa" />
		<tag k="place" v="farm" />
		<tag k="ssr:stedsnr" v="715201" />
	</node>
	<node id="-607109" lat="63.142933331" lon="8.33939722929">
		<tag k="name" v="Kroklia" />
		<tag k="place" v="farm" />
		<tag k="ssr:stedsnr" v="437944" />
	</node>
	<node id="-607108" lat="63.1357722255" lon="8.24938887891">
		<tag k="fixme" v="consider place=hamlet" />
		<tag k="name" v="Ytter-Vågland" />
		<tag k="place" v="village" />
		<tag k="ssr:stedsnr" v="437940" />
	</node>
	<node id="-607261" lat="63.1020539579" lon="8.26979454326">
		<tag k="fixme" v="consider place=hamlet" />
		<tag k="name" v="Klevset" />
		<tag k="place" v="farm" />
		<tag k="ssr:stedsnr" v="533004" />
	</node>
	<node id="-607103" lat="63.0832499988" lon="8.36963888249">
		<tag k="name" v="Travollen" />
		<tag k="place" v="farm" />
		<tag k="ssr:stedsnr" v="437866" />
	</node>
	<node id="-607102" lat="63.1513361105" lon="8.78644443859">
		<tag k="historic" v="shieling" />
		<tag k="name" v="Gammelsetra" />
		<tag k="place" v="locality" />
		<tag k="ssr:stedsnr" v="437705" />
	</node>
	<node id="-606698" lat="63.069877779" lon="8.24341666219">
		<tag k="name" v="Slettet" />
		<tag k="place" v="farm" />
		<tag k="ssr:stedsnr" v="47673" />
	</node>
	<node id="-607097" lat="63.0879777819" lon="8.3471222214">
		<tag k="name" v="Betna boligfelt" />
		<tag k="place" v="quarter" />
		<tag k="ssr:stedsnr" v="421245" />
	</node>
	<node id="-607096" lat="63.1175250002" lon="8.30760277495">
		<tag k="name" v="Moen" />
		<tag k="place" v="farm" />
		<tag k="ssr:stedsnr" v="255976" />
	</node>
	<node id="-606583" lat="63.1243388849" lon="8.32222221574">
		<tag k="name" v="Solbakken" />
		<tag k="place" v="farm" />
		<tag k="ssr:stedsnr" v="897121" />
	</node>
	<node id="-607093" lat="63.1166027753" lon="8.2498027763">
		<tag k="name" v="Øra" />
		<tag k="place" v="farm" />
		<tag k="ssr:stedsnr" v="255970" />
	</node>
	<node id="-607092" lat="63.1258527794" lon="8.66814165776">
		<tag k="historic" v="shieling" />
		<tag k="name" v="Fjærlisetra" />
		<tag k="place" v="locality" />
		<tag k="ssr:stedsnr" v="255969" />
	</node>
	<node id="-607087" lat="63.0737631748" lon="8.24759331423">
		<tag k="fixme" v="consider place=hamlet" />
		<tag k="name" v="Megarden" />
		<tag k="place" v="farm" />
		<tag k="ssr:stedsnr" v="255923" />
	</node>
	<node id="-607085" lat="63.0921777821" lon="8.2718833427">
		<tag k="name" v="Åsbøen" />
		<tag k="place" v="farm" />
		<tag k="ssr:stedsnr" v="255908" />
	</node>
	<node id="-607084" lat="63.0899651962" lon="8.29552113935">
		<tag k="fixme" v="consider place=hamlet" />
		<tag k="name" v="Gjerstad" />
		<tag k="place" v="farm" />
		<tag k="ssr:stedsnr" v="255907" />
	</node>
	<node id="-607081" lat="63.1459224179" lon="8.28739617364">
		<tag k="fixme" v="consider place=hamlet" />
		<tag k="name" v="Strand" />
		<tag k="place" v="farm" />
		<tag k="ssr:stedsnr" v="255087" />
	</node>
	<node id="-607585" lat="63.0626249958" lon="8.28083333195">
		<tag k="historic" v="shieling" />
		<tag k="name" v="Røsetra" />
		<tag k="place" v="locality" />
		<tag k="ssr:stedsnr" v="714100" />
	</node>
	<node id="-607461" lat="63.1295472191" lon="8.34444166136">
		<tag k="name" v="Myran" />
		<tag k="place" v="farm" />
		<tag k="ssr:stedsnr" v="618948" />
	</node>
	<node id="-607574" lat="63.1191111147" lon="8.30508889487">
		<tag k="name" v="Haugan" />
		<tag k="place" v="quarter" />
		<tag k="ssr:stedsnr" v="707376" />
	</node>
	<node id="-606544" lat="63.1748805522" lon="8.65477222248">
		<tag k="historic" v="shieling" />
		<tag k="name" v="Nygård" />
		<tag k="place" v="locality" />
		<tag k="ssr:stedsnr" v="412871" />
	</node>
	<node id="-607567" lat="63.1365275728" lon="8.45111028624">
		<tag k="fixme" v="consider place=hamlet" />
		<tag k="name" v="Hennset" />
		<tag k="place" v="farm" />
		<tag k="ssr:stedsnr" v="680977" />
	</node>
	<node id="-607566" lat="63.1407222245" lon="8.24334722193">
		<tag k="name" v="Steinstien" />
		<tag k="place" v="farm" />
		<tag k="ssr:stedsnr" v="680972" />
	</node>
	<node id="-607562" lat="63.1719586591" lon="8.65449421956">
		<tag k="fixme" v="consider place=hamlet" />
		<tag k="name" v="Rodalen" />
		<tag k="place" v="farm" />
		<tag k="ssr:stedsnr" v="680104" />
	</node>
	<node id="-607561" lat="63.1683055578" lon="8.66020834152">
		<tag k="name" v="Gjevabakkan" />
		<tag k="place" v="farm" />
		<tag k="ssr:stedsnr" v="680081" />
	</node>
	<node id="-607047" lat="63.1366805587" lon="8.22783611056">
		<tag k="name" v="Korsnesvika" />
		<tag k="place" v="farm" />
		<tag k="ssr:stedsnr" v="230273" />
	</node>
	<node id="-607558" lat="63.1292805526" lon="8.33332222227">
		<tag k="name" v="Nyvoll" />
		<tag k="place" v="farm" />
		<tag k="ssr:stedsnr" v="679953" />
	</node>
	<node id="-607556" lat="63.1387222188" lon="8.63744444241">
		<tag k="historic" v="shieling" />
		<tag k="name" v="Grøndalssetra" />
		<tag k="place" v="locality" />
		<tag k="ssr:stedsnr" v="679946" />
	</node>
	<node id="-606253" lat="63.1432528833" lon="8.32799229947">
		<tag k="alt_name" v="Taknes indre" />
		<tag k="name" v="Indre Taknes" />
		<tag k="place" v="farm" />
		<tag k="ssr:stedsnr" v="291926" />
	</node>
	<node id="-607553" lat="63.1065861094" lon="8.16471666816">
		<tag k="name" v="Haltbakken" />
		<tag k="place" v="farm" />
		<tag k="ssr:stedsnr" v="679320" />
	</node>
	<node id="-607551" lat="63.0739472264" lon="8.2189361129">
		<tag k="name" v="Halsahagen" />
		<tag k="place" v="quarter" />
		<tag k="ssr:stedsnr" v="663253" />
	</node>
	<node id="-607022" lat="63.1306444415" lon="8.52486111437">
		<tag k="name" v="Bjørkvang" />
		<tag k="place" v="farm" />
		<tag k="ssr:stedsnr" v="229673" />
	</node>
	<node id="-606429" lat="63.1687833304" lon="8.68514444485">
		<tag k="historic" v="shieling" />
		<tag k="name" v="Gåsviksetra" />
		<tag k="place" v="locality" />
		<tag k="ssr:stedsnr" v="412204" />
	</node>
	<node id="-606883" lat="63.1331222262" lon="8.59497222005">
		<tag k="name" v="Heimsetra" />
		<tag k="place" v="isolated_dwelling" />
		<tag k="ssr:stedsnr" v="133965" />
	</node>
	<node id="-607111" lat="63.1336546756" lon="8.54021653341">
		<tag k="fixme" v="consider place=hamlet" />
		<tag k="name" v="Engan" />
		<tag k="place" v="farm" />
		<tag k="ssr:stedsnr" v="437961" />
	</node>
	<node id="-607212" lat="63.0677666632" lon="8.37187222919">
		<tag k="name" v="Betnsetra" />
		<tag k="old_name" v="Bettensetra" />
		<tag k="place" v="isolated_dwelling" />
		<tag k="ssr:stedsnr" v="497924" />
	</node>
	<node id="-606997" lat="63.1477055532" lon="8.56986666838">
		<tag k="name" v="Stokkan" />
		<tag k="place" v="farm" />
		<tag k="ssr:stedsnr" v="195950" />
	</node>
	<node id="-606994" lat="63.1472222261" lon="8.25411388781">
		<tag k="name" v="Storvika" />
		<tag k="place" v="farm" />
		<tag k="ssr:stedsnr" v="195086" />
	</node>
	<node id="-606990" lat="63.1425195099" lon="8.5684883038">
		<tag k="fixme" v="consider place=hamlet" />
		<tag k="name" v="Leirvika" />
		<tag k="place" v="farm" />
		<tag k="ssr:stedsnr" v="194947" />
	</node>
	<node id="-606765" lat="63.0824305599" lon="8.53634166043">
		<tag k="name" v="Litlsandnessetra" />
		<tag k="place" v="isolated_dwelling" />
		<tag k="ssr:stedsnr" v="73904" />
	</node>
	<node id="-606985" lat="63.0884444405" lon="8.54256389068">
		<tag k="name" v="Storsandnessetra" />
		<tag k="place" v="isolated_dwelling" />
		<tag k="ssr:stedsnr" v="194897" />
	</node>
	<node id="-607494" lat="63.0767416663" lon="8.42474722868">
		<tag k="historic" v="shieling" />
		<tag k="name" v="Tavergardsetra" />
		<tag k="place" v="locality" />
		<tag k="ssr:stedsnr" v="653837" />
	</node>
	<node id="-607493" lat="63.0779472178" lon="8.41144444248">
		<tag k="name" v="Inner Seter" />
		<tag k="place" v="hamlet" />
		<tag k="ssr:stedsnr" v="653828" />
	</node>
	<node id="-607492" lat="63.1052277759" lon="8.17362222294">
		<tag k="name" v="Solvang" />
		<tag k="place" v="farm" />
		<tag k="ssr:stedsnr" v="653716" />
	</node>
	<node id="-608003" lat="63.1328513566" lon="8.40174108505">
		<tag k="fixme" v="consider place=hamlet" />
		<tag k="name" v="Henna" />
		<tag k="place" v="farm" />
		<tag k="ssr:stedsnr" v="977668" />
	</node>
	<node id="-607490" lat="63.0711333332" lon="8.25183888376">
		<tag k="name" v="Åsletten" />
		<tag k="old_name" v="Aasletten" />
		<tag k="place" v="farm" />
		<tag k="ssr:stedsnr" v="653691" />
	</node>
	<node id="-608001" lat="63.1386884556" lon="8.22798521584">
		<tag k="fixme" v="consider place=hamlet" />
		<tag k="name" v="Korsnes" />
		<tag k="place" v="farm" />
		<tag k="ssr:stedsnr" v="977652" />
	</node>
	<node id="-608000" lat="63.1276676026" lon="8.18513940141">
		<tag k="fixme" v="consider place=hamlet" />
		<tag k="name" v="Kaldberget" />
		<tag k="place" v="farm" />
		<tag k="ssr:stedsnr" v="977651" />
	</node>
	<node id="-606848" lat="63.0721972211" lon="8.2669277703">
		<tag k="name" v="Myran" />
		<tag k="place" v="farm" />
		<tag k="ssr:stedsnr" v="109233" />
	</node>
	<node id="-607995" lat="63.1255388933" lon="8.16532223183">
		<tag k="loc_name" v="Fjærvika hytteområde" />
		<tag k="name" v="Fjærvikan hytteområde" />
		<tag k="place" v="neighbourhood" />
		<tag k="ssr:stedsnr" v="967212" />
	</node>
	<node id="-607994" lat="63.1363861142" lon="8.48038055166">
		<tag k="name" v="Otnes hyttefelt" />
		<tag k="place" v="neighbourhood" />
		<tag k="ssr:stedsnr" v="967210" />
	</node>
	<node id="-606969" lat="63.1756611105" lon="8.66015832476">
		<tag k="name" v="Bjerklund" />
		<tag k="place" v="farm" />
		<tag k="ssr:stedsnr" v="169887" />
	</node>
	<node id="-607991" lat="63.1738222265" lon="8.75267778764">
		<tag k="name" v="Linvollen" />
		<tag k="place" v="farm" />
		<tag k="ssr:stedsnr" v="958988" />
	</node>
	<node id="-607478" lat="63.1787305582" lon="8.74734999307">
		<tag k="name" v="Øvre Engdalen" />
		<tag k="place" v="farm" />
		<tag k="ssr:stedsnr" v="646522" />
	</node>
	<node id="-607477" lat="63.14656389" lon="8.29496666946">
		<tag k="name" v="Strandageilen" />
		<tag k="place" v="isolated_dwelling" />
		<tag k="ssr:stedsnr" v="646263" />
	</node>
	<node id="-607476" lat="63.1456527753" lon="8.56442223182">
		<tag k="name" v="Skogan" />
		<tag k="place" v="isolated_dwelling" />
		<tag k="ssr:stedsnr" v="643536" />
	</node>
	<node id="-607471" lat="63.0635499989" lon="8.3967944402">
		<tag k="name" v="Setersetra" />
		<tag k="place" v="isolated_dwelling" />
		<tag k="ssr:stedsnr" v="619933" />
	</node>
	<node id="-606881" lat="63.1306388904" lon="8.40452777096">
		<tag k="name" v="Haugen" />
		<tag k="place" v="farm" />
		<tag k="ssr:stedsnr" v="133960" />
	</node>
	<node id="-607468" lat="63.073898352" lon="8.23720865583">
		<tag k="fixme" v="consider place=hamlet" />
		<tag k="name" v="Halsa" />
		<tag k="place" v="farm" />
		<tag k="ssr:stedsnr" v="619915" />
	</node>
	<node id="-607467" lat="63.137286112" lon="8.20588610721">
		<tag k="name" v="Kipervika" />
		<tag k="place" v="farm" />
		<tag k="ssr:stedsnr" v="619307" />
	</node>
	<node id="-607466" lat="63.1659583332" lon="8.66228056419">
		<tag k="name" v="Høgmyra" />
		<tag k="place" v="farm" />
		<tag k="ssr:stedsnr" v="619069" />
	</node>
	<node id="-607185" lat="63.097233333" lon="8.39873611716">
		<tag k="historic" v="shieling" />
		<tag k="name" v="Blekkasetra" />
		<tag k="place" v="locality" />
		<tag k="ssr:stedsnr" v="472655" />
	</node>
	<node id="-607460" lat="63.0872595532" lon="8.34891588932">
		<tag k="fixme" v="consider place=hamlet" />
		<tag k="name" v="Betna" />
		<tag k="place" v="farm" />
		<tag k="ssr:stedsnr" v="618891" />
	</node>
	<node id="-606659" lat="63.05289444" lon="8.29697500518">
		<tag k="historic" v="shieling" />
		<tag k="name" v="Yttervolemssetra" />
		<tag k="place" v="locality" />
		<tag k="ssr:stedsnr" v="12932" />
	</node>
	<node id="-607455" lat="63.1039305578" lon="8.50572499181">
		<tag k="name" v="Otnessetra" />
		<tag k="place" v="isolated_dwelling" />
		<tag k="ssr:stedsnr" v="618861" />
	</node>
	<node id="-607453" lat="63.094395854" lon="8.62820666746">
		<tag k="alt_name" v="Botten" />
		<tag k="fixme" v="consider place=hamlet" />
		<tag k="name" v="Botn" />
		<tag k="place" v="farm" />
		<tag k="ssr:stedsnr" v="604030" />
	</node>
	<node id="-606799" lat="63.1337527756" lon="8.52919722145">
		<tag k="name" v="Hestnestrøa" />
		<tag k="place" v="farm" />
		<tag k="ssr:stedsnr" v="107688" />
	</node>
	<node id="-606937" lat="63.0794805599" lon="8.27671389728">
		<tag k="name" v="Solvåg" />
		<tag k="place" v="farm" />
		<tag k="ssr:stedsnr" v="169221" />
	</node>
	<node id="-606934" lat="63.0829527767" lon="8.26587499389">
		<tag k="name" v="Rønningen" />
		<tag k="place" v="farm" />
		<tag k="ssr:stedsnr" v="169218" />
	</node>
	<node id="-607438" lat="63.128441665" lon="8.17815000578">
		<tag k="name" v="Kallbergsnausta" />
		<tag k="place" v="locality" />
		<tag k="ssr:stedsnr" v="594587" />
	</node>
	<node id="-606412" lat="63.1330638929" lon="8.59481389325">
		<tag k="historic" v="shieling" />
		<tag k="name" v="Nedre Høgsetsetra" />
		<tag k="place" v="locality" />
		<tag k="ssr:stedsnr" v="411846" />
	</node>
	<node id="-606923" lat="63.1285444447" lon="8.28459166773">
		<tag k="historic" v="shieling" />
		<tag k="name" v="Våglandssetra" />
		<tag k="place" v="locality" />
		<tag k="ssr:stedsnr" v="168917" />
	</node>
	<node id="-606753" lat="63.1419749976" lon="8.78851111581">
		<tag k="name" v="Myrbua" />
		<tag k="place" v="locality" />
		<tag k="ssr:stedsnr" v="48823" />
	</node>
	<node id="-607424" lat="63.1039666653" lon="8.26978611848">
		<tag k="name" v="Gammelgarden" />
		<tag k="place" v="farm" />
		<tag k="ssr:stedsnr" v="594006" />
	</node>
	<node id="-606399" lat="63.1331472239" lon="8.53337777576">
		<tag k="name" v="Engtrøa" />
		<tag k="place" v="farm" />
		<tag k="ssr:stedsnr" v="411644" />
	</node>
	<node id="-606398" lat="63.147750543" lon="8.5711652241">
		<tag k="fixme" v="consider place=hamlet" />
		<tag k="name" v="Stokke" />
		<tag k="place" v="farm" />
		<tag k="ssr:stedsnr" v="411639" />
	</node>
	<node id="-606905" lat="63.1258527815" lon="8.33514167015">
		<tag k="name" v="Rannheim" />
		<tag k="place" v="farm" />
		<tag k="ssr:stedsnr" v="168073" />
	</node>
	<node id="-606900" lat="63.1467750022" lon="8.26958332765">
		<tag k="loc_name" v="Strandvågen" />
		<tag k="name" v="Strandavågen" />
		<tag k="place" v="neighbourhood" />
		<tag k="ssr:stedsnr" v="161354" />
	</node>
	<node id="-606899" lat="63.1274638891" lon="8.60550276828">
		<tag k="name" v="Teigen" />
		<tag k="place" v="isolated_dwelling" />
		<tag k="ssr:stedsnr" v="158523" />
	</node>
	<node id="-606751" lat="63.1696416641" lon="8.60025556149">
		<tag k="name" v="Sjøheim" />
		<tag k="place" v="farm" />
		<tag k="ssr:stedsnr" v="48735" />
	</node>
	<node id="-606895" lat="63.1717682353" lon="8.6584294677">
		<tag k="fixme" v="consider place=hamlet" />
		<tag k="name" v="Rodal" />
		<tag k="place" v="village" />
		<tag k="ssr:stedsnr" v="147189" />
	</node>
	<node id="-606894" lat="63.1367138927" lon="8.41767221784">
		<tag k="name" v="Myrstad" />
		<tag k="place" v="farm" />
		<tag k="ssr:stedsnr" v="134964" />
	</node>
	<node id="-607405" lat="63.180694442" lon="8.74476112009">
		<tag k="name" v="Hagen" />
		<tag k="place" v="farm" />
		<tag k="ssr:stedsnr" v="593957" />
	</node>
	<node id="-606892" lat="63.1528027737" lon="8.61728332941">
		<tag k="name" v="Kongslisetra" />
		<tag k="place" v="isolated_dwelling" />
		<tag k="ssr:stedsnr" v="134953" />
	</node>
	<node id="-608004" lat="63.1392448395" lon="8.4288444911">
		<tag k="fixme" v="consider place=hamlet" />
		<tag k="name" v="Kråknes" />
		<tag k="place" v="farm" />
		<tag k="ssr:stedsnr" v="977670" />
	</node>
	<node id="-606981" lat="63.1808504344" lon="8.74217366299">
		<tag k="name" v="Engdalen" />
		<tag k="place" v="hamlet" />
		<tag k="ssr:stedsnr" v="194772" />
	</node>
	<node id="-606887" lat="63.1112065495" lon="8.25345179536">
		<tag k="fixme" v="consider place=hamlet" />
		<tag k="name" v="Rabben" />
		<tag k="place" v="farm" />
		<tag k="ssr:stedsnr" v="133987" />
	</node>
	<node id="-607398" lat="63.0685611101" lon="8.23695555494">
		<tag k="name" v="Torstad" />
		<tag k="place" v="farm" />
		<tag k="ssr:stedsnr" v="593617" />
	</node>
	<node id="-606674" lat="63.0514812787" lon="8.23777618054">
		<tag k="name" v="Volem" />
		<tag k="place" v="hamlet" />
		<tag k="ssr:stedsnr" v="41564" />
	</node>
	<node id="-606884" lat="63.1243444435" lon="8.33535833565">
		<tag k="name" v="Lyngstad" />
		<tag k="place" v="farm" />
		<tag k="ssr:stedsnr" v="133970" />
	</node>
	<node id="-607907" lat="63.1084522868" lon="8.2634182381">
		<tag k="fixme" v="consider place=hamlet" />
		<tag k="name" v="Bårset" />
		<tag k="place" v="farm" />
		<tag k="ssr:stedsnr" v="922990" />
	</node>
	<node id="-607906" lat="63.1216323011" lon="8.24618765463">
		<tag k="fixme" v="consider place=hamlet" />
		<tag k="name" v="Løvika" />
		<tag k="place" v="farm" />
		<tag k="ssr:stedsnr" v="922968" />
	</node>
	<node id="-607905" lat="63.1194305528" lon="8.28250277928">
		<tag k="fixme" v="consider place=hamlet" />
		<tag k="name" v="Vågland" />
		<tag k="place" v="village" />
		<tag k="ssr:stedsnr" v="922967" />
	</node>
	<node id="-606880" lat="63.1327524823" lon="8.35835394038">
		<tag k="fixme" v="consider place=hamlet" />
		<tag k="name" v="Kletten" />
		<tag k="place" v="farm" />
		<tag k="ssr:stedsnr" v="133959" />
	</node>
	<node id="-607903" lat="63.1284343153" lon="8.26182217843">
		<tag k="alt_name" v="Ytre Stolsmoen" />
		<tag k="fixme" v="consider place=hamlet" />
		<tag k="name" v="Stolsmo" />
		<tag k="place" v="farm" />
		<tag k="ssr:stedsnr" v="922946" />
	</node>
	<node id="-606661" lat="63.1377832683" lon="8.49513143247">
		<tag k="fixme" v="consider place=hamlet" />
		<tag k="name" v="Otnes" />
		<tag k="place" v="farm" />
		<tag k="ssr:stedsnr" v="12952" />
	</node>
	<node id="-607900" lat="63.0873674808" lon="8.37441234065">
		<tag k="fixme" v="consider place=hamlet" />
		<tag k="name" v="Blekkan" />
		<tag k="place" v="farm" />
		<tag k="ssr:stedsnr" v="922886" />
	</node>
	<node id="-606363" lat="63.0767916708" lon="8.31989444172">
		<tag k="name" v="Sagan" />
		<tag k="place" v="farm" />
		<tag k="ssr:stedsnr" v="376927" />
	</node>
	<node id="-606873" lat="63.1616138923" lon="8.76858055753">
		<tag k="historic" v="shieling" />
		<tag k="name" v="Høybusetra" />
		<tag k="place" v="locality" />
		<tag k="ssr:stedsnr" v="133793" />
	</node>
	<node id="-607896" lat="63.0784583344" lon="8.25860555844">
		<tag k="name" v="Reitan" />
		<tag k="place" v="farm" />
		<tag k="ssr:stedsnr" v="922422" />
	</node>
	<node id="-606660" lat="63.0589805535" lon="8.23781667629">
		<tag k="name" v="Rød" />
		<tag k="place" v="farm" />
		<tag k="ssr:stedsnr" v="12931" />
	</node>
	<node id="-607894" lat="63.0615416648" lon="8.23519721573">
		<tag k="name" v="Rød" />
		<tag k="place" v="farm" />
		<tag k="ssr:stedsnr" v="910255" />
	</node>
	<node id="-606357" lat="63.0805388928" lon="8.19434721332">
		<tag k="name" v="Innergarden" />
		<tag k="place" v="farm" />
		<tag k="ssr:stedsnr" v="376343" />
	</node>
	<node id="-606355" lat="63.0634138879" lon="8.23453333831">
		<tag k="name" v="Rød" />
		<tag k="place" v="farm" />
		<tag k="ssr:stedsnr" v="363239" />
	</node>
	<node id="-607889" lat="63.11864722" lon="8.314833329">
		<tag k="name" v="Liabøtrøa" />
		<tag k="place" v="farm" />
		<tag k="ssr:stedsnr" v="862980" />
	</node>
	<node id="-607887" lat="63.1318277812" lon="8.37429722543">
		<tag k="name" v="Einen" />
		<tag k="place" v="farm" />
		<tag k="ssr:stedsnr" v="862967" />
	</node>
	<node id="-607885" lat="63.1334623849" lon="8.40446437096">
		<tag k="fixme" v="consider place=hamlet" />
		<tag k="name" v="Henna" />
		<tag k="place" v="village" />
		<tag k="ssr:stedsnr" v="862956" />
	</node>
	<node id="-607883" lat="63.144149366" lon="8.51531884138">
		<tag k="fixme" v="consider place=hamlet" />
		<tag k="name" v="Valsøya" />
		<tag k="place" v="farm" />
		<tag k="ssr:stedsnr" v="862949" />
	</node>
	<node id="-607370" lat="63.0879444464" lon="8.28261944575">
		<tag k="name" v="Åsbøøra" />
		<tag k="place" v="farm" />
		<tag k="ssr:stedsnr" v="592011" />
	</node>
	<node id="-607369" lat="63.0886666679" lon="8.28776388828">
		<tag k="name" v="Skogly" />
		<tag k="place" v="farm" />
		<tag k="ssr:stedsnr" v="592010" />
	</node>
	<node id="-606344" lat="63.1692833325" lon="8.59388055422">
		<tag k="name" v="Valen" />
		<tag k="place" v="farm" />
		<tag k="ssr:stedsnr" v="351744" />
	</node>
	<node id="-607367" lat="63.0740222178" lon="8.50849443986">
		<tag k="historic" v="shieling" />
		<tag k="name" v="Hjelmsetra" />
		<tag k="place" v="locality" />
		<tag k="ssr:stedsnr" v="591938" />
	</node>
	<node id="-607878" lat="63.0921611153" lon="8.53587134122">
		<tag k="alt_name" v="Øydegard" />
		<tag k="historic" v="shieling" />
		<tag k="name" v="Øygarden" />
		<tag k="place" v="locality" />
		<tag k="ssr:stedsnr" v="862888" />
	</node>
	<node id="-607877" lat="63.0994728359" lon="8.59825569773">
		<tag k="fixme" v="consider place=hamlet" />
		<tag k="name" v="Setra" />
		<tag k="place" v="farm" />
		<tag k="ssr:stedsnr" v="862882" />
	</node>
	<node id="-607874" lat="63.1560611079" lon="8.77088888814">
		<tag k="historic" v="shieling" />
		<tag k="name" v="Nysetra" />
		<tag k="place" v="locality" />
		<tag k="ssr:stedsnr" v="862827" />
	</node>
	<node id="-607361" lat="63.1465638878" lon="8.29540555192">
		<tag k="name" v="Strand" />
		<tag k="place" v="neighbourhood" />
		<tag k="ssr:stedsnr" v="585319" />
	</node>
	<node id="-607360" lat="63.132586109" lon="8.38326667135">
		<tag k="name" v="Nygård" />
		<tag k="place" v="farm" />
		<tag k="ssr:stedsnr" v="582807" />
	</node>
	<node id="-607168" lat="63.1387444476" lon="8.21870277652">
		<tag k="name" v="Sørheim" />
		<tag k="place" v="farm" />
		<tag k="ssr:stedsnr" v="472271" />
	</node>
	<node id="-607870" lat="63.1787957803" lon="8.66710000902">
		<tag k="fixme" v="consider place=hamlet" />
		<tag k="name" v="Gåsvika" />
		<tag k="place" v="farm" />
		<tag k="ssr:stedsnr" v="862106" />
	</node>
	<node id="-607357" lat="63.0849040225" lon="8.40205066276">
		<tag k="fixme" v="consider place=hamlet" />
		<tag k="name" v="Rognskog" />
		<tag k="place" v="farm" />
		<tag k="ssr:stedsnr" v="571164" />
	</node>
	<node id="-607356" lat="63.1451431444" lon="8.32807026153">
		<tag k="alt_name" v="Taknes, ytre" />
		<tag k="name" v="Taknes" />
		<tag k="place" v="hamlet" />
		<tag k="ssr:stedsnr" v="571128" />
	</node>
	<node id="-607355" lat="63.1220803164" lon="8.31134973814">
		<tag k="fixme" v="consider place=hamlet" />
		<tag k="name" v="Liabøen" />
		<tag k="place" v="farm" />
		<tag k="ssr:stedsnr" v="558982" />
	</node>
	<node id="-607354" lat="63.1218972246" lon="8.32465000342">
		<tag k="name" v="Nygard" />
		<tag k="place" v="farm" />
		<tag k="ssr:stedsnr" v="558980" />
	</node>
	<node id="-607353" lat="63.0506253931" lon="8.23865222783">
		<tag k="fixme" v="consider place=hamlet" />
		<tag k="name" v="Indre Volem" />
		<tag k="place" v="farm" />
		<tag k="ssr:stedsnr" v="558944" />
	</node>
	<node id="-607349" lat="63.0725250036" lon="8.53515277005">
		<tag k="historic" v="shieling" />
		<tag k="name" v="Sørlisetra" />
		<tag k="place" v="locality" />
		<tag k="ssr:stedsnr" v="558922" />
	</node>
	<node id="-606654" lat="63.0836944452" lon="8.51976944687">
		<tag k="historic" v="shieling" />
		<tag k="name" v="Engtrøsetra" />
		<tag k="place" v="locality" />
		<tag k="ssr:stedsnr" v="12892" />
	</node>
	<node id="-607346" lat="63.0862560856" lon="8.66918357824">
		<tag k="historic" v="shieling" />
		<tag k="name" v="Reinslisetra" />
		<tag k="place" v="locality" />
		<tag k="ssr:stedsnr" v="558914" />
	</node>
	<node id="-607856" lat="63.0802000004" lon="8.19531945293">
		<tag k="name" v="Innergård" />
		<tag k="place" v="farm" />
		<tag k="ssr:stedsnr" v="837688" />
	</node>
	<node id="-607851" lat="63.0960083357" lon="8.50159443474">
		<tag k="historic" v="shieling" />
		<tag k="name" v="Gammelsetra" />
		<tag k="place" v="locality" />
		<tag k="ssr:stedsnr" v="837662" />
	</node>
	<node id="-607336" lat="63.074372218" lon="8.21504444323">
		<tag k="name" v="Bukta" />
		<tag k="place" v="farm" />
		<tag k="ssr:stedsnr" v="558190" />
	</node>
	<node id="-606311" lat="63.0875861084" lon="8.35457222452">
		<tag k="name" v="Betten" />
		<tag k="place" v="farm" />
		<tag k="ssr:stedsnr" v="350966" />
	</node>
	<node id="-607334" lat="63.146505557" lon="8.25919165679">
		<tag k="name" v="Moen" />
		<tag k="place" v="farm" />
		<tag k="ssr:stedsnr" v="558094" />
	</node>
	<node id="-607249" lat="63.1116166682" lon="8.55932222717">
		<tag k="historic" v="shieling" />
		<tag k="name" v="Hjellnessetra" />
		<tag k="place" v="locality" />
		<tag k="ssr:stedsnr" v="532615" />
	</node>
	<node id="-607331" lat="63.1689960621" lon="8.61061287127">
		<tag k="fixme" v="consider place=hamlet" />
		<tag k="name" v="Renndalen" />
		<tag k="place" v="farm" />
		<tag k="ssr:stedsnr" v="558077" />
	</node>
	<node id="-606818" lat="63.06737778" lon="8.2381888928">
		<tag k="name" v="Myra" />
		<tag k="place" v="farm" />
		<tag k="ssr:stedsnr" v="108673" />
	</node>
	<node id="-607675" lat="63.1330524555" lon="8.25268458848">
		<tag k="fixme" v="consider place=hamlet" />
		<tag k="name" v="Skålvika" />
		<tag k="place" v="farm" />
		<tag k="ssr:stedsnr" v="740951" />
	</node>
	<node id="-607328" lat="63.1342666645" lon="8.49803055868">
		<tag k="name" v="Otnes" />
		<tag k="place" v="farm" />
		<tag k="ssr:stedsnr" v="534796" />
	</node>
	<node id="-607326" lat="63.1268472242" lon="8.26193332698">
		<tag k="name" v="Indre Stolsmoen" />
		<tag k="place" v="farm" />
		<tag k="ssr:stedsnr" v="534179" />
	</node>
	<node id="-606859" lat="63.0476194445" lon="8.23659167219">
		<tag k="name" v="Vikan" />
		<tag k="place" v="farm" />
		<tag k="ssr:stedsnr" v="109589" />
	</node>
	<node id="-607832" lat="63.0738666691" lon="8.25886945178">
		<tag k="name" v="Stavråa" />
		<tag k="place" v="farm" />
		<tag k="ssr:stedsnr" v="837238" />
	</node>
	<node id="-606273" lat="63.123857202" lon="8.26698880636">
		<tag k="name" v="Våglandsbakken" />
		<tag k="place" v="farm" />
		<tag k="ssr:stedsnr" v="315969" />
	</node>
	<node id="-607315" lat="63.1714222259" lon="8.64217499681">
		<tag k="name" v="Ruten" />
		<tag k="place" v="farm" />
		<tag k="ssr:stedsnr" v="533914" />
	</node>
	<node id="-606802" lat="63.1091611136" lon="8.66512777102">
		<tag k="historic" v="shieling" />
		<tag k="name" v="Bårdbakken" />
		<tag k="place" v="locality" />
		<tag k="ssr:stedsnr" v="108024" />
	</node>
	<node id="-607160" lat="63.1358315494" lon="8.24953057924">
		<tag k="fixme" v="consider place=hamlet" />
		<tag k="name" v="Ytter Vågland" />
		<tag k="place" v="village" />
		<tag k="ssr:stedsnr" v="472063" />
	</node>
	<node id="-606285" lat="63.0730861131" lon="8.28348610989">
		<tag k="name" v="Knarrbukta" />
		<tag k="place" v="neighbourhood" />
		<tag k="ssr:stedsnr" v="342338" />
	</node>
	<node id="-606793" lat="63.139825001" lon="8.29036111258">
		<tag k="historic" v="shieling" />
		<tag k="name" v="Nordigardsetra" />
		<tag k="place" v="locality" />
		<tag k="ssr:stedsnr" v="106949" />
	</node>
	<node id="-607329" lat="63.1235694479" lon="8.45703334272">
		<tag k="name" v="Hennsetsetra" />
		<tag k="place" v="isolated_dwelling" />
		<tag k="ssr:stedsnr" v="557975" />
	</node>
	<node id="-606274" lat="63.1121695627" lon="8.32173956474">
		<tag k="fixme" v="consider place=hamlet" />
		<tag k="name" v="Inner-Vågland" />
		<tag k="place" v="farm" />
		<tag k="ssr:stedsnr" v="315979" />
	</node>
	<node id="-606785" lat="63.1465638878" lon="8.29540555192">
		<tag k="loc_name" v="Henda" />
		<tag k="name" v="Henna" />
		<tag k="place" v="neighbourhood" />
		<tag k="ssr:stedsnr" v="100334" />
	</node>
	<node id="-606784" lat="63.1177416705" lon="8.58908332439">
		<tag k="name" v="Vikan" />
		<tag k="place" v="farm" />
		<tag k="ssr:stedsnr" v="98488" />
	</node>
	<node id="-606269" lat="63.1040182747" lon="8.54738423023">
		<tag k="fixme" v="consider place=hamlet" />
		<tag k="name" v="Englia" />
		<tag k="place" v="farm" />
		<tag k="ssr:stedsnr" v="315890" />
	</node>
	<node id="-606266" lat="63.1276944484" lon="8.23944444078">
		<tag k="name" v="Setervika" />
		<tag k="place" v="farm" />
		<tag k="ssr:stedsnr" v="315949" />
	</node>
	<node id="-606265" lat="63.0609027739" lon="8.23689443966">
		<tag k="fixme" v="consider place=hamlet" />
		<tag k="name" v="Rød" />
		<tag k="place" v="farm" />
		<tag k="ssr:stedsnr" v="315920" />
	</node>
	<node id="-606776" lat="63.1225472179" lon="8.61996111016">
		<tag k="name" v="Fjærlihalsen" />
		<tag k="place" v="farm" />
		<tag k="ssr:stedsnr" v="73983" />
	</node>
	<node id="-607798" lat="63.1519944486" lon="8.56029166742">
		<tag k="name" v="Sollia" />
		<tag k="place" v="farm" />
		<tag k="ssr:stedsnr" v="836496" />
	</node>
	<node id="-606261" lat="63.174197226" lon="8.75286944624">
		<tag k="name" v="Vollhaugen" />
		<tag k="place" v="farm" />
		<tag k="ssr:stedsnr" v="315810" />
	</node>
	<node id="-606770" lat="63.060712962" lon="8.42401881918">
		<tag k="fixme" v="consider place=hamlet" />
		<tag k="name" v="Haugen" />
		<tag k="place" v="farm" />
		<tag k="ssr:stedsnr" v="73925" />
	</node>
	<node id="-606257" lat="63.1238111147" lon="8.61877777522">
		<tag k="name" v="Fjærlia" />
		<tag k="place" v="quarter" />
		<tag k="ssr:stedsnr" v="299289" />
	</node>
	<node id="-607277" lat="63.0648944418" lon="8.34162221934">
		<tag k="historic" v="shieling" />
		<tag k="name" v="Brattbakken" />
		<tag k="place" v="locality" />
		<tag k="ssr:stedsnr" v="533224" />
	</node>
	<node id="-606764" lat="63.0869175584" lon="8.2763172976">
		<tag k="fixme" v="consider place=hamlet" />
		<tag k="name" v="Åsbøen" />
		<tag k="place" v="farm" />
		<tag k="ssr:stedsnr" v="73890" />
	</node>
	<node id="-606763" lat="63.0960783963" lon="8.34302607509">
		<tag k="fixme" v="consider place=hamlet" />
		<tag k="name" v="Gjengstøa" />
		<tag k="place" v="farm" />
		<tag k="ssr:stedsnr" v="73885" />
	</node>
	<node id="-606250" lat="63.1749500033" lon="8.65066389695">
		<tag k="historic" v="shieling" />
		<tag k="name" v="Naustberga" />
		<tag k="place" v="locality" />
		<tag k="ssr:stedsnr" v="291899" />
	</node>
	<node id="-606761" lat="63.0283004314" lon="8.23540591231">
		<tag k="fixme" v="consider place=hamlet" />
		<tag k="name" v="Kvalnesvika" />
		<tag k="place" v="farm" />
		<tag k="ssr:stedsnr" v="73833" />
	</node>
	<node id="-606248" lat="63.175666669" lon="8.66619443665">
		<tag k="name" v="Høyvang" />
		<tag k="place" v="farm" />
		<tag k="ssr:stedsnr" v="291865" />
	</node>
	<node id="-606757" lat="63.1563138869" lon="8.67513611025">
		<tag k="historic" v="shieling" />
		<tag k="name" v="Rodalssetra" />
		<tag k="place" v="locality" />
		<tag k="ssr:stedsnr" v="73083" />
	</node>
	<node id="-606755" lat="63.1756111154" lon="8.69788333033">
		<tag k="historic" v="shieling" />
		<tag k="name" v="Saltrøsetra" />
		<tag k="place" v="locality" />
		<tag k="ssr:stedsnr" v="48829" />
	</node>
	<node id="-607778" lat="63.1522111101" lon="8.56372777289">
		<tag k="name" v="Stokktrøa" />
		<tag k="place" v="farm" />
		<tag k="ssr:stedsnr" v="802959" />
	</node>
	<node id="-607265" lat="63.1249527808" lon="8.65469444127">
		<tag k="historic" v="shieling" />
		<tag k="name" v="Fjellbusetra" />
		<tag k="place" v="locality" />
		<tag k="ssr:stedsnr" v="533030" />
	</node>
	<node id="-607775" lat="63.1055138901" lon="8.17314721409">
		<tag k="name" v="Hønsvikgeilen" />
		<tag k="place" v="farm" />
		<tag k="ssr:stedsnr" v="802433" />
	</node>
	<node id="-607262" lat="63.1054472197" lon="8.26863055964">
		<tag k="name" v="Birkelund" />
		<tag k="place" v="farm" />
		<tag k="ssr:stedsnr" v="533003" />
	</node>
	<node id="-608005" lat="63.120384587" lon="8.58442578367">
		<tag k="fixme" v="consider place=hamlet" />
		<tag k="name" v="Hjellnes" />
		<tag k="place" v="farm" />
		<tag k="ssr:stedsnr" v="977671" />
	</node>
	<node id="-607772" lat="63.1135888894" lon="8.43860832731">
		<tag k="historic" v="shieling" />
		<tag k="name" v="Hennasetra" />
		<tag k="place" v="locality" />
		<tag k="ssr:stedsnr" v="801994" />
	</node>
	<node id="-607771" lat="63.1239611098" lon="8.55913610317">
		<tag k="alt_name" v="Engjan" />
		<tag k="fixme" v="consider place=suburb, village or hamlet" />
		<tag k="loc_name" v="Engsaga" />
		<tag k="name" v="Engan" />
		<tag k="place" v="quarter" />
		<tag k="ssr:stedsnr" v="801989" />
	</node>
	<node id="-607770" lat="63.1191694426" lon="8.3075055594">
		<tag k="fixme" v="consider place=hamlet" />
		<tag k="name" v="Liabøen" />
		<tag k="place" v="village" />
		<tag k="ssr:stedsnr" v="801979" />
	</node>
	<node id="-607767" lat="63.1346194443" lon="8.41037500158">
		<tag k="name" v="Nordvoll" />
		<tag k="place" v="farm" />
		<tag k="ssr:stedsnr" v="801968" />
	</node>
	<node id="-607765" lat="63.0793444421" lon="8.27555000484">
		<tag k="name" v="Reitsjøen" />
		<tag k="place" v="farm" />
		<tag k="ssr:stedsnr" v="801895" />
	</node>
	<node id="-607763" lat="63.0935111071" lon="8.61636111906">
		<tag k="alt_name" v="Botten" />
		<tag k="fixme" v="consider place=hamlet" />
		<tag k="loc_name" v="Botnen" />
		<tag k="name" v="Botn" />
		<tag k="place" v="farm" />
		<tag k="ssr:stedsnr" v="801868" />
	</node>
	<node id="-607761" lat="63.0910833336" lon="8.60817499897">
		<tag k="name" v="Smedhaugen" />
		<tag k="place" v="farm" />
		<tag k="ssr:stedsnr" v="777498" />
	</node>
	<node id="-606734" lat="63.1083333303" lon="8.58014166537">
		<tag k="historic" v="shieling" />
		<tag k="name" v="Kroksetra" />
		<tag k="place" v="locality" />
		<tag k="ssr:stedsnr" v="48485" />
	</node>
	<node id="-606893" lat="63.1331986733" lon="8.25226138458">
		<tag k="fixme" v="consider place=hamlet" />
		<tag k="name" v="Skålvika" />
		<tag k="place" v="farm" />
		<tag k="ssr:stedsnr" v="134961" />
	</node>
	<node id="-607244" lat="63.0796055535" lon="8.1925916731">
		<tag k="name" v="Skårneset" />
		<tag k="place" v="farm" />
		<tag k="ssr:stedsnr" v="532501" />
	</node>
	<node id="-608002" lat="63.1198220829" lon="8.27739166521">
		<tag k="fixme" v="consider place=hamlet" />
		<tag k="name" v="Vågland" />
		<tag k="place" v="farm" />
		<tag k="ssr:stedsnr" v="977654" />
	</node>
	<node id="-606217" lat="63.0937222227" lon="8.20354445054">
		<tag k="historic" v="shieling" />
		<tag k="name" v="Aakviksetra" />
		<tag k="place" v="locality" />
		<tag k="ssr:stedsnr" v="290695" />
	</node>
	<node id="-606977" lat="63.0917777818" lon="8.6224055461">
		<tag k="name" v="Lian" />
		<tag k="place" v="farm" />
		<tag k="ssr:stedsnr" v="170498" />
	</node>
	<node id="-606212" lat="63.0777833294" lon="8.20669167183">
		<tag k="name" v="Midta" />
		<tag k="place" v="locality" />
		<tag k="ssr:stedsnr" v="290625" />
	</node>
	<node id="-606210" lat="63.0700749978" lon="8.22729444347">
		<tag k="name" v="Nedregård" />
		<tag k="place" v="farm" />
		<tag k="ssr:stedsnr" v="290621" />
	</node>
</osm>
