<?xml version="1.0" encoding="UTF-8"?>
<osm generator="osmapis" version="0.6">
	<node id="-606207" lat="63.1329750022" lon="8.23544723157">
		<tag k="name" v="Tobakkholet" />
		<tag k="place" v="locality" />
		<tag k="ssr:stedsnr" v="290273" />
	</node>
	<node id="-606204" lat="63.0887333363" lon="8.66976389428">
		<tag k="name" v="Hesthøyvollen" />
		<tag k="natural" v="slope" />
		<tag k="place" v="locality" />
		<tag k="ssr:stedsnr" v="290166" />
	</node>
	<node id="-606203" lat="63.0585250042" lon="8.26902222978">
		<tag k="name" v="Svendshaugen" />
		<tag k="natural" v="hill" />
		<tag k="place" v="locality" />
		<tag k="ssr:stedsnr" v="290143" />
	</node>
	<node id="-606202" lat="63.0549638873" lon="8.28001389366">
		<tag k="name" v="Vemmershaugen" />
		<tag k="natural" v="hill" />
		<tag k="place" v="locality" />
		<tag k="ssr:stedsnr" v="290141" />
	</node>
	<node id="-606199" lat="63.1117361121" lon="8.3510944421">
		<tag k="name" v="Gråberget" />
		<tag k="natural" v="hill" />
		<tag k="place" v="locality" />
		<tag k="ssr:stedsnr" v="290129" />
	</node>
	<node id="-606197" lat="63.106927778" lon="8.68792499318">
		<tag k="name" v="Sandvasslia" />
		<tag k="natural" v="slope" />
		<tag k="place" v="locality" />
		<tag k="ssr:stedsnr" v="290045" />
	</node>
	<node id="-606196" lat="63.1454777797" lon="8.5129111067">
		<tag k="name" v="Nilshaugen" />
		<tag k="natural" v="hill" />
		<tag k="place" v="locality" />
		<tag k="ssr:stedsnr" v="289869" />
	</node>
	<node id="-606194" lat="63.1296333301" lon="8.51246667158">
		<tag k="alt_name" v="Sletta" />
		<tag k="name" v="Hestnessletta" />
		<tag k="place" v="locality" />
		<tag k="ssr:stedsnr" v="289731" />
	</node>
	<node id="-606193" lat="63.143427776" lon="8.56746110482">
		<tag k="alt_name" v="Lervikskaret" />
		<tag k="name" v="Leirvikskaret" />
		<tag k="natural" v="valley" />
		<tag k="place" v="locality" />
		<tag k="ssr:stedsnr" v="289727" />
	</node>
	<node id="-606189" lat="63.0264638879" lon="8.25329445264">
		<tag k="name" v="Svarthammaren" />
		<tag k="natural" v="cliff" />
		<tag k="ssr:stedsnr" v="289636" />
	</node>
	<node id="-606188" lat="63.0829166693" lon="8.54371944426">
		<tag k="fixme" v="consider natural=peak for the most distinct mountains in the district" />
		<tag k="name" v="Øykjeliknebben" />
		<tag k="natural" v="hill" />
		<tag k="place" v="locality" />
		<tag k="ssr:stedsnr" v="289280" />
	</node>
	<node id="-606187" lat="63.1023500006" lon="8.59141110672">
		<tag k="name" v="Storbakken" />
		<tag k="natural" v="slope" />
		<tag k="place" v="locality" />
		<tag k="ssr:stedsnr" v="291410" />
	</node>
	<node id="-607999" lat="63.1207118377" lon="8.28698723753">
		<tag k="name" v="Paulabakkan" />
		<tag k="natural" v="slope" />
		<tag k="place" v="locality" />
		<tag k="ssr:stedsnr" v="976124" />
	</node>
	<node id="-607997" lat="63.1200196521" lon="8.27885917614">
		<tag k="name" v="Pestubakkan" />
		<tag k="natural" v="slope" />
		<tag k="place" v="locality" />
		<tag k="ssr:stedsnr" v="976112" />
	</node>
	<node id="-607990" lat="63.0906277764" lon="8.36175554659">
		<tag k="name" v="Bettenhamran" />
		<tag k="natural" v="hill" />
		<tag k="place" v="locality" />
		<tag k="ssr:stedsnr" v="958986" />
	</node>
	<node id="-607987" lat="63.0851944407" lon="8.49155832805">
		<tag k="name" v="Småliene" />
		<tag k="natural" v="slope" />
		<tag k="place" v="locality" />
		<tag k="ssr:stedsnr" v="958947" />
	</node>
	<node id="-607986" lat="63.0711138933" lon="8.67756666593">
		<tag k="name" v="Tjønnhammaren" />
		<tag k="natural" v="cliff" />
		<tag k="ssr:stedsnr" v="958918" />
	</node>
	<node id="-607985" lat="63.0745083292" lon="8.67615555263">
		<tag k="name" v="Tjønnslettet" />
		<tag k="place" v="locality" />
		<tag k="ssr:stedsnr" v="958919" />
	</node>
	<node id="-607983" lat="63.1742138923" lon="8.67082777755">
		<tag k="name" v="Blokkbærhaugen" />
		<tag k="natural" v="hill" />
		<tag k="place" v="locality" />
		<tag k="ssr:stedsnr" v="958865" />
	</node>
	<node id="-607981" lat="63.1572055582" lon="8.7798111047">
		<tag k="name" v="Karthaugen" />
		<tag k="natural" v="hill" />
		<tag k="place" v="locality" />
		<tag k="ssr:stedsnr" v="958851" />
	</node>
	<node id="-607980" lat="63.1397749963" lon="8.70299444822">
		<tag k="name" v="Råa" />
		<tag k="place" v="locality" />
		<tag k="ssr:stedsnr" v="958738" />
	</node>
	<node id="-607979" lat="63.1127138867" lon="8.50076666695">
		<tag k="name" v="Mørkdalen" />
		<tag k="natural" v="valley" />
		<tag k="place" v="locality" />
		<tag k="ssr:stedsnr" v="958736" />
	</node>
	<node id="-607977" lat="63.1466861139" lon="8.7361333244">
		<tag k="name" v="Stordalen" />
		<tag k="natural" v="valley" />
		<tag k="place" v="locality" />
		<tag k="ssr:stedsnr" v="958725" />
	</node>
	<node id="-607976" lat="63.1213750012" lon="8.48333889385">
		<tag k="name" v="Biskaret" />
		<tag k="natural" v="valley" />
		<tag k="place" v="locality" />
		<tag k="ssr:stedsnr" v="958719" />
	</node>
	<node id="-607975" lat="63.1252888908" lon="8.49367778684">
		<tag k="name" v="Bergeskaret" />
		<tag k="natural" v="valley" />
		<tag k="place" v="locality" />
		<tag k="ssr:stedsnr" v="958714" />
	</node>
	<node id="-607973" lat="63.1233388849" lon="8.48588332873">
		<tag k="name" v="Alman" />
		<tag k="natural" v="slope" />
		<tag k="place" v="locality" />
		<tag k="ssr:stedsnr" v="958712" />
	</node>
	<node id="-607970" lat="63.0776388892" lon="8.22012778518">
		<tag k="name" v="Haukarberget" />
		<tag k="natural" v="hill" />
		<tag k="place" v="locality" />
		<tag k="ssr:stedsnr" v="958701" />
	</node>
	<node id="-607966" lat="63.0878194442" lon="8.42549167021">
		<tag k="name" v="Gammelsetereinen" />
		<tag k="place" v="locality" />
		<tag k="ssr:stedsnr" v="958676" />
	</node>
	<node id="-607964" lat="63.1052916655" lon="8.46471110856">
		<tag k="name" v="Larvlia" />
		<tag k="natural" v="slope" />
		<tag k="place" v="locality" />
		<tag k="ssr:stedsnr" v="958666" />
	</node>
	<node id="-607963" lat="63.0936583304" lon="8.47234165777">
		<tag k="name" v="Dursmunnskaret" />
		<tag k="natural" v="valley" />
		<tag k="place" v="locality" />
		<tag k="ssr:stedsnr" v="958665" />
	</node>
	<node id="-607962" lat="63.1337444481" lon="8.43036666827">
		<tag k="name" v="Bugadalen" />
		<tag k="natural" v="valley" />
		<tag k="place" v="locality" />
		<tag k="ssr:stedsnr" v="958609" />
	</node>
	<node id="-607961" lat="63.1295388907" lon="8.48453610458">
		<tag k="name" v="Treidalsnova" />
		<tag k="place" v="locality" />
		<tag k="ssr:stedsnr" v="958594" />
	</node>
	<node id="-607960" lat="63.1167583326" lon="8.63300278079">
		<tag k="name" v="Møkkellåret" />
		<tag k="natural" v="ridge" />
		<tag k="place" v="locality" />
		<tag k="ssr:stedsnr" v="958533" />
	</node>
	<node id="-607959" lat="63.1236222242" lon="8.2156805475">
		<tag k="name" v="Neverlia" />
		<tag k="natural" v="slope" />
		<tag k="place" v="locality" />
		<tag k="ssr:stedsnr" v="958504" />
	</node>
	<node id="-607957" lat="63.1172166662" lon="8.21551945301">
		<tag k="name" v="Ørnberget" />
		<tag k="natural" v="hill" />
		<tag k="place" v="locality" />
		<tag k="ssr:stedsnr" v="958500" />
	</node>
	<node id="-607955" lat="63.1012277749" lon="8.63308888506">
		<tag k="name" v="Hamran" />
		<tag k="natural" v="cliff" />
		<tag k="ssr:stedsnr" v="958432" />
	</node>
	<node id="-607954" lat="63.1004500016" lon="8.59016943531">
		<tag k="name" v="Storkamhaugen" />
		<tag k="natural" v="hill" />
		<tag k="place" v="locality" />
		<tag k="ssr:stedsnr" v="958394" />
	</node>
	<node id="-607953" lat="63.1244638872" lon="8.77083055683">
		<tag k="name" v="Grønlia" />
		<tag k="natural" v="slope" />
		<tag k="place" v="locality" />
		<tag k="ssr:stedsnr" v="958352" />
	</node>
	<node id="-607952" lat="63.1340416649" lon="8.21054166178">
		<tag k="name" v="Merraskaret" />
		<tag k="natural" v="valley" />
		<tag k="place" v="locality" />
		<tag k="ssr:stedsnr" v="958314" />
	</node>
	<node id="-607951" lat="63.140263893" lon="8.23066944333">
		<tag k="name" v="Storhammaren" />
		<tag k="natural" v="hill" />
		<tag k="place" v="locality" />
		<tag k="ssr:stedsnr" v="958302" />
	</node>
	<node id="-607950" lat="63.06686389" lon="8.3559194527">
		<tag k="name" v="Holtan" />
		<tag k="place" v="locality" />
		<tag k="ssr:stedsnr" v="958257" />
	</node>
	<node id="-607949" lat="63.1680027751" lon="8.69801944488">
		<tag k="name" v="Stordalen" />
		<tag k="natural" v="valley" />
		<tag k="place" v="locality" />
		<tag k="ssr:stedsnr" v="958241" />
	</node>
	<node id="-607947" lat="63.0681722184" lon="8.35154721858">
		<tag k="name" v="Bonseterdalen" />
		<tag k="natural" v="valley" />
		<tag k="place" v="locality" />
		<tag k="ssr:stedsnr" v="958233" />
	</node>
	<node id="-607945" lat="63.1632916689" lon="8.67177222587">
		<tag k="name" v="Hesthagan" />
		<tag k="natural" v="slope" />
		<tag k="place" v="locality" />
		<tag k="ssr:stedsnr" v="958217" />
	</node>
	<node id="-607943" lat="63.085899999" lon="8.64044444917">
		<tag k="name" v="Marstokkråa" />
		<tag k="natural" v="slope" />
		<tag k="place" v="locality" />
		<tag k="ssr:stedsnr" v="958129" />
	</node>
	<node id="-607940" lat="63.1217361111" lon="8.27670832614">
		<tag k="name" v="Eldhusberga" />
		<tag k="natural" v="hill" />
		<tag k="place" v="locality" />
		<tag k="ssr:stedsnr" v="958072" />
	</node>
	<node id="-607939" lat="63.1091055553" lon="8.68438055861">
		<tag k="name" v="Langliknubben" />
		<tag k="natural" v="hill" />
		<tag k="place" v="locality" />
		<tag k="ssr:stedsnr" v="958045" />
	</node>
	<node id="-607938" lat="63.1113027777" lon="8.66290833252">
		<tag k="name" v="Nordsletta" />
		<tag k="place" v="locality" />
		<tag k="ssr:stedsnr" v="958020" />
	</node>
	<node id="-607936" lat="63.1469527803" lon="8.53568610172">
		<tag k="name" v="Tømmerhaugen" />
		<tag k="natural" v="hill" />
		<tag k="place" v="locality" />
		<tag k="ssr:stedsnr" v="957823" />
	</node>
	<node id="-607935" lat="63.0689833316" lon="8.40264166022">
		<tag k="name" v="Styggliflata" />
		<tag k="natural" v="slope" />
		<tag k="place" v="locality" />
		<tag k="ssr:stedsnr" v="957816" />
	</node>
	<node id="-607934" lat="63.0691722189" lon="8.38897222">
		<tag k="name" v="Grønskaret" />
		<tag k="natural" v="valley" />
		<tag k="place" v="locality" />
		<tag k="ssr:stedsnr" v="957814" />
	</node>
	<node id="-607932" lat="63.0836527785" lon="8.39421667596">
		<tag k="name" v="Gjeilhaugen" />
		<tag k="natural" v="hill" />
		<tag k="place" v="locality" />
		<tag k="ssr:stedsnr" v="957811" />
	</node>
	<node id="-607929" lat="63.0737055528" lon="8.43566389135">
		<tag k="fixme" v="consider natural=peak for the most distinct mountains in the district" />
		<tag k="name" v="Grønbrona" />
		<tag k="natural" v="hill" />
		<tag k="place" v="locality" />
		<tag k="ssr:stedsnr" v="957784" />
	</node>
	<node id="-607927" lat="63.1077972185" lon="8.52154721485">
		<tag k="name" v="Justaen" />
		<tag k="natural" v="slope" />
		<tag k="place" v="locality" />
		<tag k="ssr:stedsnr" v="957579" />
	</node>
	<node id="-607926" lat="63.0326916686" lon="8.22825278044">
		<tag k="name" v="Skifteshaugen" />
		<tag k="natural" v="hill" />
		<tag k="place" v="locality" />
		<tag k="ssr:stedsnr" v="957550" />
	</node>
	<node id="-607924" lat="63.1261555531" lon="8.16678888174">
		<tag k="name" v="Slettet" />
		<tag k="place" v="locality" />
		<tag k="ssr:stedsnr" v="957427" />
	</node>
	<node id="-607918" lat="63.1296027746" lon="8.29770833454">
		<tag k="name" v="Storvasshaugen" />
		<tag k="natural" v="hill" />
		<tag k="place" v="locality" />
		<tag k="ssr:stedsnr" v="955994" />
	</node>
	<node id="-607917" lat="63.1476444454" lon="8.28351110745">
		<tag k="name" v="Laberget" />
		<tag k="natural" v="hill" />
		<tag k="place" v="locality" />
		<tag k="ssr:stedsnr" v="955942" />
	</node>
	<node id="-607915" lat="63.1736833366" lon="8.74693889867">
		<tag k="name" v="Engdalen" />
		<tag k="natural" v="valley" />
		<tag k="place" v="locality" />
		<tag k="ssr:stedsnr" v="950510" />
	</node>
	<node id="-607910" lat="63.0560333352" lon="8.35135556488">
		<tag k="name" v="Vassdalen" />
		<tag k="natural" v="valley" />
		<tag k="place" v="locality" />
		<tag k="ssr:stedsnr" v="923936" />
	</node>
	<node id="-607908" lat="63.1111222229" lon="8.53053333722">
		<tag k="fixme" v="consider natural=peak for the most distinct mountains in the district" />
		<tag k="name" v="Knubben" />
		<tag k="natural" v="hill" />
		<tag k="place" v="locality" />
		<tag k="ssr:stedsnr" v="922996" />
	</node>
	<node id="-607902" lat="63.1427333329" lon="8.63061110343">
		<tag k="name" v="Grøndalen" />
		<tag k="natural" v="valley" />
		<tag k="place" v="locality" />
		<tag k="ssr:stedsnr" v="922942" />
	</node>
	<node id="-607901" lat="63.0895388885" lon="8.49448333569">
		<tag k="name" v="Steinhaugen" />
		<tag k="natural" v="hill" />
		<tag k="place" v="locality" />
		<tag k="ssr:stedsnr" v="922889" />
	</node>
	<node id="-607898" lat="63.1020555516" lon="8.66173611454">
		<tag k="fixme" v="consider natural=peak for the most distinct mountains in the district" />
		<tag k="name" v="Seterfjellet" />
		<tag k="natural" v="hill" />
		<tag k="place" v="locality" />
		<tag k="ssr:stedsnr" v="922863" />
	</node>
	<node id="-607890" lat="63.1200166624" lon="8.49884999226">
		<tag k="fixme" v="consider natural=peak for the most distinct mountains in the district" />
		<tag k="name" v="Lomheia" />
		<tag k="natural" v="hill" />
		<tag k="place" v="locality" />
		<tag k="ssr:stedsnr" v="862984" />
	</node>
	<node id="-607888" lat="63.118372219" lon="8.22521666088">
		<tag k="fixme" v="consider natural=peak for the most distinct mountains in the district" />
		<tag k="name" v="Litlvassheia" />
		<tag k="natural" v="hill" />
		<tag k="place" v="locality" />
		<tag k="ssr:stedsnr" v="862974" />
	</node>
	<node id="-607882" lat="63.0581527767" lon="8.31221389853">
		<tag k="name" v="Varden" />
		<tag k="natural" v="hill" />
		<tag k="place" v="locality" />
		<tag k="ssr:stedsnr" v="862942" />
	</node>
	<node id="-607880" lat="63.0539416691" lon="8.29837221996">
		<tag k="name" v="Volemsdalen" />
		<tag k="natural" v="valley" />
		<tag k="place" v="locality" />
		<tag k="ssr:stedsnr" v="862932" />
	</node>
	<node id="-607879" lat="63.0705194479" lon="8.38521389083">
		<tag k="name" v="Hundhaugen" />
		<tag k="natural" v="hill" />
		<tag k="place" v="locality" />
		<tag k="ssr:stedsnr" v="862928" />
	</node>
	<node id="-607875" lat="63.0303027581" lon="8.28350421674">
		<tag k="fixme" v="consider natural=peak for the most distinct mountains in the district" />
		<tag k="name" v="Blåfjellet" />
		<tag k="natural" v="hill" />
		<tag k="old_name" v="Saksa" />
		<tag k="place" v="locality" />
		<tag k="ssr:stedsnr" v="862850" />
	</node>
	<node id="-607872" lat="63.0997416677" lon="8.19944167185">
		<tag k="name" v="Seterdalen" />
		<tag k="natural" v="valley" />
		<tag k="place" v="locality" />
		<tag k="ssr:stedsnr" v="862383" />
	</node>
	<node id="-607871" lat="63.1133666635" lon="8.18396389377">
		<tag k="fixme" v="consider natural=peak for the most distinct mountains in the district" />
		<tag k="name" v="Ytre Hønsviklia" />
		<tag k="natural" v="hill" />
		<tag k="place" v="locality" />
		<tag k="ssr:stedsnr" v="862368" />
	</node>
	<node id="-607865" lat="63.0736166623" lon="8.68722777787">
		<tag k="name" v="Gauphålå" />
		<tag k="natural" v="valley" />
		<tag k="place" v="locality" />
		<tag k="ssr:stedsnr" v="837899" />
	</node>
	<node id="-607863" lat="63.1635194486" lon="8.77376388296">
		<tag k="name" v="Slåbakkan" />
		<tag k="natural" v="slope" />
		<tag k="place" v="locality" />
		<tag k="ssr:stedsnr" v="837851" />
	</node>
	<node id="-607862" lat="63.1494333361" lon="8.77088054655">
		<tag k="name" v="Treskodalen" />
		<tag k="natural" v="valley" />
		<tag k="place" v="locality" />
		<tag k="ssr:stedsnr" v="837844" />
	</node>
	<node id="-607861" lat="63.1223805564" lon="8.41619999617">
		<tag k="name" v="Bjønndalshaugan" />
		<tag k="natural" v="hill" />
		<tag k="place" v="locality" />
		<tag k="ssr:stedsnr" v="837778" />
	</node>
	<node id="-607860" lat="63.1490972216" lon="8.58897777038">
		<tag k="name" v="Ålihaugen" />
		<tag k="natural" v="hill" />
		<tag k="place" v="locality" />
		<tag k="ssr:stedsnr" v="837748" />
	</node>
	<node id="-607858" lat="63.1221777797" lon="8.43645278105">
		<tag k="name" v="Skreheidalen" />
		<tag k="natural" v="valley" />
		<tag k="place" v="locality" />
		<tag k="ssr:stedsnr" v="837740" />
	</node>
	<node id="-607855" lat="63.079758332" lon="8.22183887996">
		<tag k="name" v="Skarhaugen" />
		<tag k="natural" v="hill" />
		<tag k="place" v="locality" />
		<tag k="ssr:stedsnr" v="837681" />
	</node>
	<node id="-607854" lat="63.0810611071" lon="8.22270278427">
		<tag k="name" v="Hjellia" />
		<tag k="natural" v="slope" />
		<tag k="place" v="locality" />
		<tag k="ssr:stedsnr" v="837680" />
	</node>
	<node id="-607853" lat="63.0984361149" lon="8.39053889045">
		<tag k="name" v="Høglihaugen" />
		<tag k="natural" v="hill" />
		<tag k="place" v="locality" />
		<tag k="ssr:stedsnr" v="837678" />
	</node>
	<node id="-607852" lat="63.1175277759" lon="8.49339444609">
		<tag k="name" v="Gammelseterhaugen" />
		<tag k="natural" v="hill" />
		<tag k="place" v="locality" />
		<tag k="ssr:stedsnr" v="837673" />
	</node>
	<node id="-607850" lat="63.0861861143" lon="8.4304388942">
		<tag k="name" v="Kolmiltøftin" />
		<tag k="place" v="locality" />
		<tag k="ssr:stedsnr" v="837661" />
	</node>
	<node id="-607849" lat="63.0988250023" lon="8.46124722088">
		<tag k="name" v="Trolldalen" />
		<tag k="natural" v="valley" />
		<tag k="place" v="locality" />
		<tag k="ssr:stedsnr" v="837651" />
	</node>
	<node id="-607848" lat="63.0918111153" lon="8.47322778017">
		<tag k="name" v="Jutulbomma" />
		<tag k="natural" v="hill" />
		<tag k="place" v="locality" />
		<tag k="ssr:stedsnr" v="837641" />
	</node>
	<node id="-607846" lat="63.1292555576" lon="8.38566389466">
		<tag k="name" v="Fuggelhaugen" />
		<tag k="natural" v="hill" />
		<tag k="place" v="locality" />
		<tag k="ssr:stedsnr" v="837574" />
	</node>
	<node id="-607845" lat="63.134258335" lon="8.449736121">
		<tag k="name" v="Skarphaugen" />
		<tag k="natural" v="hill" />
		<tag k="place" v="locality" />
		<tag k="ssr:stedsnr" v="837555" />
	</node>
	<node id="-607843" lat="63.0969583369" lon="8.54234721484">
		<tag k="name" v="Vasshaugen" />
		<tag k="natural" v="hill" />
		<tag k="place" v="locality" />
		<tag k="ssr:stedsnr" v="837470" />
	</node>
	<node id="-607841" lat="63.090341666" lon="8.54553887905">
		<tag k="name" v="Strupen" />
		<tag k="natural" v="valley" />
		<tag k="place" v="locality" />
		<tag k="ssr:stedsnr" v="837468" />
	</node>
	<node id="-607840" lat="63.0921694404" lon="8.63649722754">
		<tag k="name" v="Karibakken" />
		<tag k="natural" v="slope" />
		<tag k="place" v="locality" />
		<tag k="ssr:stedsnr" v="837453" />
	</node>
	<node id="-607839" lat="63.1348472211" lon="8.65555556411">
		<tag k="fixme" v="consider natural=peak for the most distinct mountains in the district" />
		<tag k="name" v="Øvre Skorvheia" />
		<tag k="natural" v="hill" />
		<tag k="place" v="locality" />
		<tag k="ssr:stedsnr" v="837435" />
	</node>
	<node id="-607837" lat="63.1348111132" lon="8.20803888904">
		<tag k="name" v="Kipperviklia" />
		<tag k="natural" v="slope" />
		<tag k="place" v="locality" />
		<tag k="ssr:stedsnr" v="837308" />
	</node>
	<node id="-607835" lat="63.1381250003" lon="8.21178610508">
		<tag k="name" v="Høgberga" />
		<tag k="natural" v="hill" />
		<tag k="place" v="locality" />
		<tag k="ssr:stedsnr" v="837305" />
	</node>
	<node id="-607834" lat="63.1361750008" lon="8.23091110804">
		<tag k="name" v="Berget" />
		<tag k="natural" v="hill" />
		<tag k="place" v="locality" />
		<tag k="ssr:stedsnr" v="837289" />
	</node>
	<node id="-607831" lat="63.0675194471" lon="8.33297500705">
		<tag k="name" v="Kvennhushaugen" />
		<tag k="natural" v="hill" />
		<tag k="place" v="locality" />
		<tag k="ssr:stedsnr" v="837232" />
	</node>
	<node id="-607830" lat="63.1632138857" lon="8.69594445225">
		<tag k="name" v="Durmållia" />
		<tag k="natural" v="slope" />
		<tag k="place" v="locality" />
		<tag k="ssr:stedsnr" v="837230" />
	</node>
	<node id="-607829" lat="63.0762305563" lon="8.35861943767">
		<tag k="name" v="Klevlihaugen" />
		<tag k="natural" v="hill" />
		<tag k="place" v="locality" />
		<tag k="ssr:stedsnr" v="837227" />
	</node>
	<node id="-607828" lat="63.0828083292" lon="8.37751388672">
		<tag k="name" v="Britsagan" />
		<tag k="natural" v="slope" />
		<tag k="place" v="locality" />
		<tag k="ssr:stedsnr" v="837225" />
	</node>
	<node id="-607827" lat="63.1583833301" lon="8.69795833719">
		<tag k="name" v="Skreåhamran" />
		<tag k="natural" v="hill" />
		<tag k="place" v="locality" />
		<tag k="ssr:stedsnr" v="837223" />
	</node>
	<node id="-607826" lat="63.1616472227" lon="8.68602499237">
		<tag k="name" v="Storalmen" />
		<tag k="natural" v="slope" />
		<tag k="place" v="locality" />
		<tag k="ssr:stedsnr" v="837218" />
	</node>
	<node id="-607825" lat="63.1578555518" lon="8.6438027742">
		<tag k="fixme" v="consider natural=peak for the most distinct mountains in the district" />
		<tag k="name" v="Litlhatten" />
		<tag k="natural" v="hill" />
		<tag k="place" v="locality" />
		<tag k="ssr:stedsnr" v="837204" />
	</node>
	<node id="-607821" lat="63.0462277752" lon="8.35199167309">
		<tag k="name" v="Bjønnaholtet" />
		<tag k="natural" v="valley" />
		<tag k="place" v="locality" />
		<tag k="ssr:stedsnr" v="837152" />
	</node>
	<node id="-607818" lat="63.1141388906" lon="8.65703055922">
		<tag k="name" v="Jostudalen" />
		<tag k="natural" v="valley" />
		<tag k="place" v="locality" />
		<tag k="ssr:stedsnr" v="837014" />
	</node>
	<node id="-607816" lat="63.1325972267" lon="8.32658334063">
		<tag k="name" v="Rondalen" />
		<tag k="natural" v="valley" />
		<tag k="place" v="locality" />
		<tag k="ssr:stedsnr" v="836920" />
	</node>
	<node id="-607814" lat="63.1313388878" lon="8.34619167">
		<tag k="name" v="Trøhaugen" />
		<tag k="natural" v="hill" />
		<tag k="place" v="locality" />
		<tag k="ssr:stedsnr" v="836908" />
	</node>
	<node id="-607812" lat="63.1442416643" lon="8.58368889062">
		<tag k="name" v="Kvilartuva" />
		<tag k="natural" v="hill" />
		<tag k="place" v="locality" />
		<tag k="ssr:stedsnr" v="836849" />
	</node>
	<node id="-607811" lat="63.0699416647" lon="8.41627221424">
		<tag k="name" v="Ryggen" />
		<tag k="natural" v="ridge" />
		<tag k="place" v="locality" />
		<tag k="ssr:stedsnr" v="836819" />
	</node>
	<node id="-607810" lat="63.0933416706" lon="8.20770278595">
		<tag k="name" v="Seterlia" />
		<tag k="natural" v="slope" />
		<tag k="place" v="locality" />
		<tag k="ssr:stedsnr" v="836736" />
	</node>
	<node id="-607809" lat="63.0887055597" lon="8.23934445358">
		<tag k="fixme" v="consider natural=peak for the most distinct mountains in the district" />
		<tag k="name" v="Svartberget" />
		<tag k="natural" v="hill" />
		<tag k="place" v="locality" />
		<tag k="ssr:stedsnr" v="836721" />
	</node>
	<node id="-607805" lat="63.1270944445" lon="8.5320388905">
		<tag k="name" v="Skreddalslia" />
		<tag k="natural" v="slope" />
		<tag k="place" v="locality" />
		<tag k="ssr:stedsnr" v="836568" />
	</node>
	<node id="-607803" lat="63.1150916651" lon="8.53136666082">
		<tag k="name" v="Smølnrabben" />
		<tag k="natural" v="hill" />
		<tag k="place" v="locality" />
		<tag k="ssr:stedsnr" v="836559" />
	</node>
	<node id="-607802" lat="63.1063777804" lon="8.52441111601">
		<tag k="name" v="Røyaslettet" />
		<tag k="place" v="locality" />
		<tag k="ssr:stedsnr" v="836556" />
	</node>
	<node id="-607801" lat="63.1175277794" lon="8.53341945228">
		<tag k="name" v="Stabben" />
		<tag k="natural" v="slope" />
		<tag k="place" v="locality" />
		<tag k="ssr:stedsnr" v="836554" />
	</node>
	<node id="-607795" lat="63.0305666656" lon="8.27554167222">
		<tag k="fixme" v="consider natural=peak for the most distinct mountains in the district" />
		<tag k="name" v="Såta" />
		<tag k="natural" v="hill" />
		<tag k="place" v="locality" />
		<tag k="ssr:stedsnr" v="836251" />
	</node>
	<node id="-607793" lat="63.0752916684" lon="8.54217221846">
		<tag k="name" v="Braddane" />
		<tag k="place" v="locality" />
		<tag k="ssr:stedsnr" v="836249" />
	</node>
	<node id="-607791" lat="63.1006999987" lon="8.66530555166">
		<tag k="name" v="Seterskaret" />
		<tag k="natural" v="valley" />
		<tag k="place" v="locality" />
		<tag k="ssr:stedsnr" v="836108" />
	</node>
	<node id="-607787" lat="63.1344361104" lon="8.30887499527">
		<tag k="name" v="Bargusten" />
		<tag k="place" v="locality" />
		<tag k="ssr:stedsnr" v="833962" />
	</node>
	<node id="-607769" lat="63.1335111125" lon="8.69214999559">
		<tag k="fixme" v="consider natural=peak for the most distinct mountains in the district" />
		<tag k="name" v="Steinfjellet" />
		<tag k="natural" v="hill" />
		<tag k="place" v="locality" />
		<tag k="ssr:stedsnr" v="801976" />
	</node>
	<node id="-607768" lat="63.1262222242" lon="8.40856389135">
		<tag k="name" v="Storhaugen" />
		<tag k="natural" v="hill" />
		<tag k="place" v="locality" />
		<tag k="ssr:stedsnr" v="801970" />
	</node>
	<node id="-607764" lat="63.0882527775" lon="8.25552499928">
		<tag k="name" v="Trollhaugen" />
		<tag k="natural" v="hill" />
		<tag k="place" v="locality" />
		<tag k="ssr:stedsnr" v="801875" />
	</node>
	<node id="-607759" lat="63.1752111111" lon="8.68322499495">
		<tag k="name" v="Seterhaugen" />
		<tag k="natural" v="hill" />
		<tag k="place" v="locality" />
		<tag k="ssr:stedsnr" v="776862" />
	</node>
	<node id="-607758" lat="63.1752055586" lon="8.66809722627">
		<tag k="name" v="Ragnhilddalen" />
		<tag k="natural" v="valley" />
		<tag k="place" v="locality" />
		<tag k="ssr:stedsnr" v="776848" />
	</node>
	<node id="-607757" lat="63.1474055565" lon="8.77053612096">
		<tag k="name" v="Finnskjeggbakken" />
		<tag k="natural" v="slope" />
		<tag k="place" v="locality" />
		<tag k="ssr:stedsnr" v="776818" />
	</node>
	<node id="-607755" lat="63.1447722219" lon="8.80064167477">
		<tag k="name" v="Dyrstollia" />
		<tag k="natural" v="slope" />
		<tag k="place" v="locality" />
		<tag k="ssr:stedsnr" v="776814" />
	</node>
	<node id="-607754" lat="63.122505555" lon="8.42456388761">
		<tag k="name" v="Bjønndalslia" />
		<tag k="natural" v="slope" />
		<tag k="place" v="locality" />
		<tag k="ssr:stedsnr" v="776751" />
	</node>
	<node id="-607752" lat="63.1124166667" lon="8.48755000643">
		<tag k="name" v="Brakbotten" />
		<tag k="natural" v="valley" />
		<tag k="place" v="locality" />
		<tag k="ssr:stedsnr" v="776701" />
	</node>
	<node id="-607749" lat="63.1252027819" lon="8.49912777547">
		<tag k="name" v="Tverrlia" />
		<tag k="natural" v="slope" />
		<tag k="place" v="locality" />
		<tag k="ssr:stedsnr" v="776671" />
	</node>
	<node id="-607745" lat="63.1056833372" lon="8.50608611966">
		<tag k="name" v="Knausen" />
		<tag k="natural" v="hill" />
		<tag k="place" v="locality" />
		<tag k="ssr:stedsnr" v="776638" />
	</node>
	<node id="-607744" lat="63.1018333338" lon="8.48325834258">
		<tag k="name" v="Ytre Storfjellsida" />
		<tag k="place" v="locality" />
		<tag k="ssr:stedsnr" v="776635" />
	</node>
	<node id="-607743" lat="63.1310888903" lon="8.43418889116">
		<tag k="name" v="Langmyrhalsen" />
		<tag k="natural" v="valley" />
		<tag k="place" v="locality" />
		<tag k="ssr:stedsnr" v="776583" />
	</node>
	<node id="-607742" lat="63.1343888873" lon="8.43536388477">
		<tag k="name" v="Torbuglia" />
		<tag k="natural" v="slope" />
		<tag k="place" v="locality" />
		<tag k="ssr:stedsnr" v="776584" />
	</node>
	<node id="-607740" lat="63.154363887" lon="8.76173889505">
		<tag k="name" v="Sauglenna" />
		<tag k="natural" v="slope" />
		<tag k="place" v="locality" />
		<tag k="ssr:stedsnr" v="776525" />
	</node>
	<node id="-607738" lat="63.1586805542" lon="8.56737500163">
		<tag k="name" v="Oddlihalsen" />
		<tag k="natural" v="valley" />
		<tag k="place" v="locality" />
		<tag k="ssr:stedsnr" v="776503" />
	</node>
	<node id="-607736" lat="63.0719250008" lon="8.60006388122">
		<tag k="fixme" v="consider natural=peak for the most distinct mountains in the district" />
		<tag k="name" v="Bjønnahamaren" />
		<tag k="natural" v="hill" />
		<tag k="place" v="locality" />
		<tag k="ssr:stedsnr" v="776450" />
	</node>
	<node id="-607735" lat="63.0866833353" lon="8.62807776811">
		<tag k="name" v="Dalaøyan" />
		<tag k="natural" v="hill" />
		<tag k="place" v="locality" />
		<tag k="ssr:stedsnr" v="776438" />
	</node>
	<node id="-607731" lat="63.0652055518" lon="8.33153611232">
		<tag k="name" v="Bergan" />
		<tag k="natural" v="hill" />
		<tag k="place" v="locality" />
		<tag k="ssr:stedsnr" v="776219" />
	</node>
	<node id="-607730" lat="63.1629388849" lon="8.68220832946">
		<tag k="name" v="Bjønnavollan" />
		<tag k="natural" v="slope" />
		<tag k="place" v="locality" />
		<tag k="ssr:stedsnr" v="776211" />
	</node>
	<node id="-607729" lat="63.0667111076" lon="8.36456389602">
		<tag k="name" v="Botnin" />
		<tag k="natural" v="valley" />
		<tag k="place" v="locality" />
		<tag k="ssr:stedsnr" v="776202" />
	</node>
	<node id="-607728" lat="63.1544694432" lon="8.67337499715">
		<tag k="name" v="Rognhammaren" />
		<tag k="natural" v="hill" />
		<tag k="place" v="locality" />
		<tag k="ssr:stedsnr" v="776195" />
	</node>
	<node id="-607723" lat="63.1089972221" lon="8.67637777357">
		<tag k="name" v="Langhola" />
		<tag k="natural" v="valley" />
		<tag k="place" v="locality" />
		<tag k="ssr:stedsnr" v="776052" />
	</node>
	<node id="-607721" lat="63.106938888" lon="8.65539999373">
		<tag k="name" v="Hundestrupen" />
		<tag k="natural" v="valley" />
		<tag k="place" v="locality" />
		<tag k="ssr:stedsnr" v="776021" />
	</node>
	<node id="-607712" lat="63.078319442" lon="8.25267499031">
		<tag k="name" v="Røsalen" />
		<tag k="natural" v="slope" />
		<tag k="place" v="locality" />
		<tag k="ssr:stedsnr" v="775664" />
	</node>
	<node id="-607711" lat="63.1565722231" lon="8.70593334251">
		<tag k="fixme" v="consider natural=peak for the most distinct mountains in the district" />
		<tag k="name" v="Benjaminsknubben" />
		<tag k="natural" v="hill" />
		<tag k="place" v="locality" />
		<tag k="ssr:stedsnr" v="775650" />
	</node>
	<node id="-607710" lat="63.1385333369" lon="8.57131666583">
		<tag k="name" v="Stormyrlia" />
		<tag k="natural" v="slope" />
		<tag k="place" v="locality" />
		<tag k="ssr:stedsnr" v="775644" />
	</node>
	<node id="-607708" lat="63.1090833337" lon="8.55344444891">
		<tag k="name" v="Brulihaugen" />
		<tag k="natural" v="hill" />
		<tag k="place" v="locality" />
		<tag k="ssr:stedsnr" v="775583" />
	</node>
	<node id="-607707" lat="63.1083555518" lon="8.5301861115">
		<tag k="name" v="Langberget" />
		<tag k="natural" v="hill" />
		<tag k="place" v="locality" />
		<tag k="ssr:stedsnr" v="775563" />
	</node>
	<node id="-607706" lat="63.121961111" lon="8.53233056002">
		<tag k="name" v="Storfurrulia" />
		<tag k="natural" v="slope" />
		<tag k="place" v="locality" />
		<tag k="ssr:stedsnr" v="775562" />
	</node>
	<node id="-607705" lat="63.0405305562" lon="8.24168611587">
		<tag k="name" v="Huslia" />
		<tag k="natural" v="slope" />
		<tag k="place" v="locality" />
		<tag k="ssr:stedsnr" v="775532" />
	</node>
	<node id="-607699" lat="63.140933334" lon="8.2533333429">
		<tag k="name" v="Kammen" />
		<tag k="place" v="locality" />
		<tag k="ssr:stedsnr" v="775368" />
	</node>
	<node id="-607696" lat="63.058499997" lon="8.29316945225">
		<tag k="name" v="Samlingshaugen" />
		<tag k="natural" v="hill" />
		<tag k="place" v="locality" />
		<tag k="ssr:stedsnr" v="775107" />
	</node>
	<node id="-607693" lat="63.1223777808" lon="8.64575278656">
		<tag k="name" v="Sjølgjetla" />
		<tag k="natural" v="slope" />
		<tag k="place" v="locality" />
		<tag k="ssr:stedsnr" v="775013" />
	</node>
	<node id="-607692" lat="63.0919388845" lon="8.61333334273">
		<tag k="name" v="Skrubberget" />
		<tag k="natural" v="hill" />
		<tag k="place" v="locality" />
		<tag k="ssr:stedsnr" v="776387" />
	</node>
	<node id="-607691" lat="63.0897472229" lon="8.61957222309">
		<tag k="name" v="Tollhaugen" />
		<tag k="natural" v="hill" />
		<tag k="place" v="locality" />
		<tag k="ssr:stedsnr" v="776385" />
	</node>
	<node id="-607689" lat="63.1425583338" lon="8.3153583407">
		<tag k="name" v="Brennarhaugen" />
		<tag k="natural" v="hill" />
		<tag k="place" v="locality" />
		<tag k="ssr:stedsnr" v="772945" />
	</node>
	<node id="-607678" lat="63.1082833309" lon="8.42065833422">
		<tag k="name" v="Svarthammaren" />
		<tag k="natural" v="hill" />
		<tag k="place" v="locality" />
		<tag k="ssr:stedsnr" v="740989" />
	</node>
	<node id="-607677" lat="63.1262916632" lon="8.51748055806">
		<tag k="name" v="Hestnesdalen" />
		<tag k="natural" v="valley" />
		<tag k="place" v="locality" />
		<tag k="ssr:stedsnr" v="740983" />
	</node>
	<node id="-607667" lat="63.1642055599" lon="8.79032221324">
		<tag k="fixme" v="multiple name tags, choose one and add the other to alt_name; consider natural=peak for the most distinct mountains in the district" />
		<tag k="name" v="Seterfjellet;Vardfjellet" />
		<tag k="natural" v="hill" />
		<tag k="place" v="locality" />
		<tag k="ssr:stedsnr" v="740790" />
	</node>
	<node id="-607662" lat="63.1811083342" lon="8.72169166514">
		<tag k="name" v="Tjødalen" />
		<tag k="natural" v="valley" />
		<tag k="place" v="locality" />
		<tag k="ssr:stedsnr" v="715993" />
	</node>
	<node id="-607659" lat="63.1756083363" lon="8.7107277722">
		<tag k="name" v="Engslotten" />
		<tag k="natural" v="slope" />
		<tag k="place" v="locality" />
		<tag k="ssr:stedsnr" v="715974" />
	</node>
	<node id="-607658" lat="63.1036833312" lon="8.36576388441">
		<tag k="name" v="Blomlia" />
		<tag k="natural" v="slope" />
		<tag k="place" v="locality" />
		<tag k="ssr:stedsnr" v="715967" />
	</node>
	<node id="-607657" lat="63.1832861133" lon="8.75954721754">
		<tag k="name" v="Svadalsryggen" />
		<tag k="natural" v="ridge" />
		<tag k="place" v="locality" />
		<tag k="ssr:stedsnr" v="715965" />
	</node>
	<node id="-607648" lat="63.1639805544" lon="8.58181667175">
		<tag k="name" v="Trøseterhaugen" />
		<tag k="natural" v="hill" />
		<tag k="place" v="locality" />
		<tag k="ssr:stedsnr" v="715751" />
	</node>
	<node id="-607645" lat="63.1473583302" lon="8.72191945156">
		<tag k="name" v="Rodalslettet" />
		<tag k="place" v="locality" />
		<tag k="ssr:stedsnr" v="715702" />
	</node>
	<node id="-607640" lat="63.1637722232" lon="8.7113499983">
		<tag k="fixme" v="consider natural=peak for the most distinct mountains in the district" />
		<tag k="name" v="Middagsheia" />
		<tag k="natural" v="hill" />
		<tag k="place" v="locality" />
		<tag k="ssr:stedsnr" v="715661" />
	</node>
	<node id="-607639" lat="63.1564722233" lon="8.72172778708">
		<tag k="name" v="Åsbyholet" />
		<tag k="natural" v="valley" />
		<tag k="place" v="locality" />
		<tag k="ssr:stedsnr" v="715658" />
	</node>
	<node id="-607638" lat="63.0865722266" lon="8.47273889016">
		<tag k="name" v="Hestholet" />
		<tag k="place" v="locality" />
		<tag k="ssr:stedsnr" v="715642" />
	</node>
	<node id="-607637" lat="63.0497833294" lon="8.24626667262">
		<tag k="name" v="Lia" />
		<tag k="natural" v="slope" />
		<tag k="place" v="locality" />
		<tag k="ssr:stedsnr" v="715637" />
	</node>
	<node id="-607636" lat="63.0433805519" lon="8.24959722982">
		<tag k="name" v="Kammen" />
		<tag k="natural" v="hill" />
		<tag k="place" v="locality" />
		<tag k="ssr:stedsnr" v="715627" />
	</node>
	<node id="-607635" lat="63.0430722267" lon="8.24392778752">
		<tag k="name" v="Telemark" />
		<tag k="natural" v="hill" />
		<tag k="place" v="locality" />
		<tag k="ssr:stedsnr" v="715623" />
	</node>
	<node id="-607633" lat="63.1263194457" lon="8.20591111741">
		<tag k="name" v="Nøre dalen" />
		<tag k="natural" v="valley" />
		<tag k="place" v="locality" />
		<tag k="ssr:stedsnr" v="715500" />
	</node>
	<node id="-607632" lat="63.0981611068" lon="8.55676944296">
		<tag k="name" v="Rothaugen" />
		<tag k="natural" v="hill" />
		<tag k="place" v="locality" />
		<tag k="ssr:stedsnr" v="715495" />
	</node>
	<node id="-607629" lat="63.1346027807" lon="8.65170833808">
		<tag k="fixme" v="consider natural=peak for the most distinct mountains in the district" />
		<tag k="name" v="Nedre Skorvheia" />
		<tag k="natural" v="hill" />
		<tag k="place" v="locality" />
		<tag k="ssr:stedsnr" v="715467" />
	</node>
	<node id="-607626" lat="63.0698388907" lon="8.34687778128">
		<tag k="name" v="Kjerringholå" />
		<tag k="natural" v="valley" />
		<tag k="place" v="locality" />
		<tag k="ssr:stedsnr" v="715260" />
	</node>
	<node id="-607625" lat="63.0635944457" lon="8.27054444913">
		<tag k="name" v="Rødlia" />
		<tag k="natural" v="slope" />
		<tag k="place" v="locality" />
		<tag k="ssr:stedsnr" v="715253" />
	</node>
	<node id="-607622" lat="63.0597555578" lon="8.34354999702">
		<tag k="name" v="Skugglia" />
		<tag k="natural" v="slope" />
		<tag k="place" v="locality" />
		<tag k="ssr:stedsnr" v="715167" />
	</node>
	<node id="-607621" lat="63.0958361082" lon="8.65662499346">
		<tag k="name" v="Reinvasslia" />
		<tag k="natural" v="slope" />
		<tag k="place" v="locality" />
		<tag k="ssr:stedsnr" v="715152" />
	</node>
	<node id="-607614" lat="63.1269527799" lon="8.26909721258">
		<tag k="name" v="Skaret" />
		<tag k="natural" v="valley" />
		<tag k="place" v="locality" />
		<tag k="ssr:stedsnr" v="715069" />
	</node>
	<node id="-607611" lat="63.1233861067" lon="8.66744167007">
		<tag k="name" v="Hamran" />
		<tag k="natural" v="hill" />
		<tag k="place" v="locality" />
		<tag k="ssr:stedsnr" v="715031" />
	</node>
	<node id="-607610" lat="63.108388892" lon="8.64624167118">
		<tag k="name" v="Hammarsletta" />
		<tag k="place" v="locality" />
		<tag k="ssr:stedsnr" v="715019" />
	</node>
	<node id="-607609" lat="63.1451500038" lon="8.52633610718">
		<tag k="name" v="Kleivaberget" />
		<tag k="natural" v="hill" />
		<tag k="place" v="locality" />
		<tag k="ssr:stedsnr" v="714816" />
	</node>
	<node id="-607608" lat="63.0642166669" lon="8.42461388372">
		<tag k="name" v="Hauahaugen" />
		<tag k="natural" v="hill" />
		<tag k="place" v="locality" />
		<tag k="ssr:stedsnr" v="714810" />
	</node>
	<node id="-607607" lat="63.076888892" lon="8.43865834222">
		<tag k="name" v="Bekkervassbotnen" />
		<tag k="natural" v="valley" />
		<tag k="place" v="locality" />
		<tag k="ssr:stedsnr" v="714779" />
	</node>
	<node id="-607606" lat="63.0990249966" lon="8.18396387979">
		<tag k="name" v="Vikan" />
		<tag k="natural" v="slope" />
		<tag k="place" v="locality" />
		<tag k="ssr:stedsnr" v="714733" />
	</node>
	<node id="-607605" lat="63.0896111078" lon="8.18298332657">
		<tag k="name" v="Slettet" />
		<tag k="place" v="locality" />
		<tag k="ssr:stedsnr" v="714726" />
	</node>
	<node id="-607604" lat="63.0871527807" lon="8.18721665847">
		<tag k="name" v="Haugen" />
		<tag k="natural" v="hill" />
		<tag k="place" v="locality" />
		<tag k="ssr:stedsnr" v="714722" />
	</node>
	<node id="-607603" lat="63.0958694442" lon="8.21988334217">
		<tag k="name" v="Lomtjønnhaugen" />
		<tag k="natural" v="hill" />
		<tag k="place" v="locality" />
		<tag k="ssr:stedsnr" v="714702" />
	</node>
	<node id="-607602" lat="63.1019527817" lon="8.21961111698">
		<tag k="name" v="Almbakken" />
		<tag k="natural" v="slope" />
		<tag k="place" v="locality" />
		<tag k="ssr:stedsnr" v="714701" />
	</node>
	<node id="-607600" lat="63.1421444433" lon="8.55971945064">
		<tag k="alt_name" v="Lervikhaugen" />
		<tag k="name" v="Leirvikhaugen" />
		<tag k="natural" v="hill" />
		<tag k="place" v="locality" />
		<tag k="ssr:stedsnr" v="714644" />
	</node>
	<node id="-607598" lat="63.1168916676" lon="8.5520611183">
		<tag k="name" v="Maritlia" />
		<tag k="natural" v="slope" />
		<tag k="place" v="locality" />
		<tag k="ssr:stedsnr" v="714588" />
	</node>
	<node id="-607595" lat="63.0309416711" lon="8.23486110947">
		<tag k="name" v="Krekjelia" />
		<tag k="natural" v="slope" />
		<tag k="place" v="locality" />
		<tag k="ssr:stedsnr" v="714522" />
	</node>
	<node id="-607593" lat="63.1179694483" lon="8.1689499932">
		<tag k="name" v="Brottet" />
		<tag k="natural" v="slope" />
		<tag k="place" v="locality" />
		<tag k="ssr:stedsnr" v="714389" />
	</node>
	<node id="-607592" lat="63.1135861104" lon="8.18479444322">
		<tag k="name" v="Fjærviklia" />
		<tag k="natural" v="slope" />
		<tag k="place" v="locality" />
		<tag k="ssr:stedsnr" v="714384" />
	</node>
	<node id="-607591" lat="63.0835583296" lon="8.53786387909">
		<tag k="name" v="Flathaugen" />
		<tag k="natural" v="hill" />
		<tag k="place" v="locality" />
		<tag k="ssr:stedsnr" v="714255" />
	</node>
	<node id="-607590" lat="63.0826249983" lon="8.56200278197">
		<tag k="name" v="Tuskhaugane" />
		<tag k="natural" v="hill" />
		<tag k="place" v="locality" />
		<tag k="ssr:stedsnr" v="714251" />
	</node>
	<node id="-607589" lat="63.0727444487" lon="8.57076666388">
		<tag k="name" v="Nonsfjelltuva" />
		<tag k="natural" v="hill" />
		<tag k="place" v="locality" />
		<tag k="ssr:stedsnr" v="714249" />
	</node>
	<node id="-607588" lat="63.0810111081" lon="8.62864722264">
		<tag k="name" v="Smådalsbakkan" />
		<tag k="natural" v="slope" />
		<tag k="place" v="locality" />
		<tag k="ssr:stedsnr" v="714205" />
	</node>
	<node id="-607586" lat="63.0502749963" lon="8.31245277783">
		<tag k="name" v="Drevskaret" />
		<tag k="natural" v="valley" />
		<tag k="place" v="locality" />
		<tag k="ssr:stedsnr" v="714117" />
	</node>
	<node id="-607584" lat="63.0953638902" lon="8.2961749917">
		<tag k="name" v="Høghaltbakken" />
		<tag k="natural" v="slope" />
		<tag k="place" v="locality" />
		<tag k="ssr:stedsnr" v="714013" />
	</node>
	<node id="-607582" lat="63.1393472229" lon="8.31479167444">
		<tag k="name" v="Stenstua" />
		<tag k="natural" v="hill" />
		<tag k="place" v="locality" />
		<tag k="ssr:stedsnr" v="711944" />
	</node>
	<node id="-607581" lat="63.1294583294" lon="8.49371387933">
		<tag k="name" v="Bardalen" />
		<tag k="natural" v="valley" />
		<tag k="place" v="locality" />
		<tag k="ssr:stedsnr" v="715580" />
	</node>
	<node id="-607580" lat="63.1316583348" lon="8.47914999707">
		<tag k="name" v="Almhaugen" />
		<tag k="natural" v="hill" />
		<tag k="place" v="locality" />
		<tag k="ssr:stedsnr" v="715574" />
	</node>
	<node id="-607578" lat="63.1578444457" lon="8.76200277936">
		<tag k="name" v="Slåttalia" />
		<tag k="natural" v="slope" />
		<tag k="place" v="locality" />
		<tag k="ssr:stedsnr" v="715559" />
	</node>
	<node id="-607569" lat="63.0733805561" lon="8.60646944116">
		<tag k="fixme" v="consider natural=peak for the most distinct mountains in the district" />
		<tag k="name" v="Middagsfjellet" />
		<tag k="natural" v="hill" />
		<tag k="place" v="locality" />
		<tag k="ssr:stedsnr" v="688790" />
	</node>
	<node id="-607559" lat="63.1176916629" lon="8.54688056434">
		<tag k="name" v="Svartberga" />
		<tag k="natural" v="hill" />
		<tag k="place" v="locality" />
		<tag k="ssr:stedsnr" v="679983" />
	</node>
	<node id="-607557" lat="63.1311777814" lon="8.28943054765">
		<tag k="name" v="Høgheia" />
		<tag k="natural" v="hill" />
		<tag k="place" v="locality" />
		<tag k="ssr:stedsnr" v="679952" />
	</node>
	<node id="-607552" lat="63.0535611105" lon="8.38003333272">
		<tag k="fixme" v="consider natural=peak for the most distinct mountains in the district" />
		<tag k="name" v="Steintussen" />
		<tag k="natural" v="hill" />
		<tag k="place" v="locality" />
		<tag k="ssr:stedsnr" v="666761" />
	</node>
	<node id="-607549" lat="63.1093166705" lon="8.57549444746">
		<tag k="name" v="Høghaugen" />
		<tag k="natural" v="hill" />
		<tag k="place" v="locality" />
		<tag k="ssr:stedsnr" v="655520" />
	</node>
	<node id="-607548" lat="63.1646111095" lon="8.68877500951">
		<tag k="name" v="Stolen" />
		<tag k="place" v="locality" />
		<tag k="ssr:stedsnr" v="655236" />
	</node>
	<node id="-607547" lat="63.1519388878" lon="8.67806944977">
		<tag k="name" v="Seterlia" />
		<tag k="natural" v="slope" />
		<tag k="place" v="locality" />
		<tag k="ssr:stedsnr" v="655213" />
	</node>
	<node id="-607545" lat="63.1843138911" lon="8.75378332892">
		<tag k="name" v="Trollhaue" />
		<tag k="natural" v="hill" />
		<tag k="place" v="locality" />
		<tag k="ssr:stedsnr" v="654975" />
	</node>
	<node id="-607544" lat="63.1477444412" lon="8.33444443686">
		<tag k="name" v="Vorpberget" />
		<tag k="natural" v="hill" />
		<tag k="place" v="locality" />
		<tag k="ssr:stedsnr" v="654926" />
	</node>
	<node id="-607541" lat="63.1336944417" lon="8.36391388765">
		<tag k="name" v="Klettaskogen" />
		<tag k="natural" v="slope" />
		<tag k="place" v="locality" />
		<tag k="ssr:stedsnr" v="654920" />
	</node>
	<node id="-607536" lat="63.150683336" lon="8.81100833112">
		<tag k="name" v="Hornfjelldalen" />
		<tag k="natural" v="valley" />
		<tag k="place" v="locality" />
		<tag k="ssr:stedsnr" v="654866" />
	</node>
	<node id="-607535" lat="63.1305277819" lon="8.58018610458">
		<tag k="name" v="Knausen" />
		<tag k="natural" v="hill" />
		<tag k="place" v="locality" />
		<tag k="ssr:stedsnr" v="654858" />
	</node>
	<node id="-607534" lat="63.1286527788" lon="8.60457776971">
		<tag k="name" v="Fjærlia" />
		<tag k="natural" v="slope" />
		<tag k="place" v="locality" />
		<tag k="ssr:stedsnr" v="654854" />
	</node>
	<node id="-607529" lat="63.1235527791" lon="8.49807221651">
		<tag k="name" v="Øver Bergskaret" />
		<tag k="natural" v="valley" />
		<tag k="place" v="locality" />
		<tag k="ssr:stedsnr" v="654724" />
	</node>
	<node id="-607528" lat="63.1130222261" lon="8.49454722413">
		<tag k="name" v="Brakholtet" />
		<tag k="place" v="locality" />
		<tag k="ssr:stedsnr" v="654714" />
	</node>
	<node id="-607527" lat="63.1343833354" lon="8.74835832825">
		<tag k="name" v="Blåfjellheian" />
		<tag k="natural" v="hill" />
		<tag k="place" v="locality" />
		<tag k="ssr:stedsnr" v="654706" />
	</node>
	<node id="-607525" lat="63.0909805591" lon="8.41306388459">
		<tag k="name" v="Slettlia" />
		<tag k="natural" v="slope" />
		<tag k="place" v="locality" />
		<tag k="ssr:stedsnr" v="654675" />
	</node>
	<node id="-607524" lat="63.07653611" lon="8.21962221754">
		<tag k="name" v="Bronin" />
		<tag k="place" v="locality" />
		<tag k="ssr:stedsnr" v="654671" />
	</node>
	<node id="-607523" lat="63.1492611106" lon="8.72561110405">
		<tag k="name" v="Stolane" />
		<tag k="place" v="locality" />
		<tag k="ssr:stedsnr" v="654672" />
	</node>
	<node id="-607521" lat="63.129024996" lon="8.4342638845">
		<tag k="name" v="Gammelseterdalen" />
		<tag k="natural" v="valley" />
		<tag k="place" v="locality" />
		<tag k="ssr:stedsnr" v="654604" />
	</node>
	<node id="-607520" lat="63.1249444473" lon="8.20296666047">
		<tag k="name" v="Søre dalen" />
		<tag k="natural" v="valley" />
		<tag k="place" v="locality" />
		<tag k="ssr:stedsnr" v="654490" />
	</node>
	<node id="-607519" lat="63.1469861069" lon="8.65582500968">
		<tag k="name" v="Dennåvasslia" />
		<tag k="natural" v="slope" />
		<tag k="place" v="locality" />
		<tag k="ssr:stedsnr" v="654489" />
	</node>
	<node id="-607518" lat="63.0914777758" lon="8.56324444383">
		<tag k="name" v="Skorvmannen" />
		<tag k="natural" v="hill" />
		<tag k="place" v="locality" />
		<tag k="ssr:stedsnr" v="654488" />
	</node>
	<node id="-607516" lat="63.1026777795" lon="8.56939166398">
		<tag k="name" v="Moldskaret" />
		<tag k="natural" v="valley" />
		<tag k="place" v="locality" />
		<tag k="ssr:stedsnr" v="654482" />
	</node>
	<node id="-607513" lat="63.0920750036" lon="8.60634721774">
		<tag k="name" v="Brattstikulen" />
		<tag k="natural" v="hill" />
		<tag k="place" v="locality" />
		<tag k="ssr:stedsnr" v="654433" />
	</node>
	<node id="-607510" lat="63.0907972265" lon="8.61486944074">
		<tag k="name" v="Skotthaugen" />
		<tag k="natural" v="hill" />
		<tag k="place" v="locality" />
		<tag k="ssr:stedsnr" v="654410" />
	</node>
	<node id="-607509" lat="63.1321249956" lon="8.21283333865">
		<tag k="name" v="Brattstillia" />
		<tag k="natural" v="slope" />
		<tag k="place" v="locality" />
		<tag k="ssr:stedsnr" v="654312" />
	</node>
	<node id="-607505" lat="63.0814472192" lon="8.26912500154">
		<tag k="name" v="Nistupallan" />
		<tag k="natural" v="slope" />
		<tag k="place" v="locality" />
		<tag k="ssr:stedsnr" v="654244" />
	</node>
	<node id="-607504" lat="63.0654750004" lon="8.27641111427">
		<tag k="name" v="Megardslia" />
		<tag k="natural" v="slope" />
		<tag k="place" v="locality" />
		<tag k="ssr:stedsnr" v="654202" />
	</node>
	<node id="-607499" lat="63.1117055529" lon="8.2865916715">
		<tag k="name" v="Oterlegå" />
		<tag k="place" v="locality" />
		<tag k="ssr:stedsnr" v="654064" />
	</node>
	<node id="-607497" lat="63.1251777751" lon="8.29451389036">
		<tag k="name" v="Storhamrane" />
		<tag k="natural" v="hill" />
		<tag k="place" v="locality" />
		<tag k="ssr:stedsnr" v="654058" />
	</node>
	<node id="-607488" lat="63.1202305521" lon="8.51361667566">
		<tag k="name" v="Sørlia" />
		<tag k="natural" v="slope" />
		<tag k="place" v="locality" />
		<tag k="ssr:stedsnr" v="653624" />
	</node>
	<node id="-607487" lat="63.1498861126" lon="8.32825277138">
		<tag k="name" v="Klubbå" />
		<tag k="natural" v="hill" />
		<tag k="place" v="locality" />
		<tag k="ssr:stedsnr" v="653621" />
	</node>
	<node id="-607486" lat="63.1104805532" lon="8.51989444704">
		<tag k="name" v="Klubba" />
		<tag k="natural" v="hill" />
		<tag k="place" v="locality" />
		<tag k="ssr:stedsnr" v="653618" />
	</node>
	<node id="-607485" lat="63.116172221" lon="8.5353750056">
		<tag k="name" v="Nedre Ormdalen" />
		<tag k="natural" v="valley" />
		<tag k="place" v="locality" />
		<tag k="ssr:stedsnr" v="653611" />
	</node>
	<node id="-607484" lat="63.1156361115" lon="8.168394449">
		<tag k="name" v="Blomholet" />
		<tag k="natural" v="valley" />
		<tag k="place" v="locality" />
		<tag k="ssr:stedsnr" v="653439" />
	</node>
	<node id="-607483" lat="63.1217222261" lon="8.17738333267">
		<tag k="name" v="Mjølkplasslia" />
		<tag k="natural" v="slope" />
		<tag k="place" v="locality" />
		<tag k="ssr:stedsnr" v="653429" />
	</node>
	<node id="-607482" lat="63.1383888925" lon="8.29123611153">
		<tag k="name" v="Hjellhaugen" />
		<tag k="natural" v="hill" />
		<tag k="place" v="locality" />
		<tag k="ssr:stedsnr" v="651957" />
	</node>
	<node id="-607481" lat="63.1335222258" lon="8.29561387936">
		<tag k="name" v="Langlia" />
		<tag k="natural" v="slope" />
		<tag k="place" v="locality" />
		<tag k="ssr:stedsnr" v="650998" />
	</node>
	<node id="-607480" lat="63.1366888903" lon="8.29707221414">
		<tag k="name" v="Skifteshaugen" />
		<tag k="natural" v="hill" />
		<tag k="place" v="locality" />
		<tag k="ssr:stedsnr" v="650946" />
	</node>
	<node id="-607479" lat="63.1405472189" lon="8.31359722184">
		<tag k="name" v="Hjellhaugen" />
		<tag k="natural" v="hill" />
		<tag k="place" v="locality" />
		<tag k="ssr:stedsnr" v="650941" />
	</node>
	<node id="-607473" lat="63.0627805587" lon="8.41851667628">
		<tag k="name" v="Haugaskaret" />
		<tag k="natural" v="valley" />
		<tag k="place" v="locality" />
		<tag k="ssr:stedsnr" v="626791" />
	</node>
	<node id="-607459" lat="63.0852416647" lon="8.23461110861">
		<tag k="fixme" v="consider natural=peak for the most distinct mountains in the district" />
		<tag k="name" v="Halsakrona" />
		<tag k="natural" v="hill" />
		<tag k="place" v="locality" />
		<tag k="ssr:stedsnr" v="618884" />
	</node>
	<node id="-607458" lat="63.0920388905" lon="8.39890000847">
		<tag k="name" v="Brannhaugen" />
		<tag k="natural" v="hill" />
		<tag k="place" v="locality" />
		<tag k="ssr:stedsnr" v="618879" />
	</node>
	<node id="-607447" lat="63.1585722201" lon="8.79191389004">
		<tag k="name" v="Tredøtterskaret" />
		<tag k="natural" v="valley" />
		<tag k="place" v="locality" />
		<tag k="ssr:stedsnr" v="594840" />
	</node>
	<node id="-607446" lat="63.1210888875" lon="8.50711944966">
		<tag k="name" v="Lian" />
		<tag k="natural" v="slope" />
		<tag k="place" v="locality" />
		<tag k="ssr:stedsnr" v="594695" />
	</node>
	<node id="-607444" lat="63.1092999968" lon="8.49403888239">
		<tag k="fixme" v="consider natural=peak for the most distinct mountains in the district" />
		<tag k="name" v="Hælsingfjellet" />
		<tag k="natural" v="hill" />
		<tag k="place" v="locality" />
		<tag k="ssr:stedsnr" v="594690" />
	</node>
	<node id="-607442" lat="63.1230583324" lon="8.45886945017">
		<tag k="name" v="Seterlia" />
		<tag k="natural" v="slope" />
		<tag k="place" v="locality" />
		<tag k="ssr:stedsnr" v="594665" />
	</node>
	<node id="-607441" lat="63.0895999977" lon="8.38503610262">
		<tag k="name" v="Slåa" />
		<tag k="natural" v="slope" />
		<tag k="place" v="locality" />
		<tag k="ssr:stedsnr" v="594659" />
	</node>
	<node id="-607436" lat="63.1373638882" lon="8.42089443774">
		<tag k="name" v="Skarphaugen" />
		<tag k="natural" v="hill" />
		<tag k="place" v="locality" />
		<tag k="ssr:stedsnr" v="594560" />
	</node>
	<node id="-607435" lat="63.1424416689" lon="8.64338888246">
		<tag k="fixme" v="consider natural=peak for the most distinct mountains in the district" />
		<tag k="name" v="Tullhaugfjellet" />
		<tag k="natural" v="hill" />
		<tag k="place" v="locality" />
		<tag k="ssr:stedsnr" v="594474" />
	</node>
	<node id="-607434" lat="63.1214305539" lon="8.19845278582">
		<tag k="name" v="Kaldberget" />
		<tag k="natural" v="hill" />
		<tag k="place" v="locality" />
		<tag k="ssr:stedsnr" v="594467" />
	</node>
	<node id="-607431" lat="63.103713891" lon="8.63140833563">
		<tag k="name" v="Hegerskjettå" />
		<tag k="natural" v="cliff" />
		<tag k="ssr:stedsnr" v="594413" />
	</node>
	<node id="-607429" lat="63.0747416649" lon="8.36162777598">
		<tag k="name" v="Kleiva" />
		<tag k="natural" v="valley" />
		<tag k="place" v="locality" />
		<tag k="ssr:stedsnr" v="594233" />
	</node>
	<node id="-607426" lat="63.0966638865" lon="8.65106944333">
		<tag k="name" v="Rankan" />
		<tag k="natural" v="ridge" />
		<tag k="place" v="locality" />
		<tag k="ssr:stedsnr" v="594133" />
	</node>
	<node id="-607422" lat="63.0981749971" lon="8.36495554705">
		<tag k="name" v="Løyftin" />
		<tag k="place" v="locality" />
		<tag k="ssr:stedsnr" v="593979" />
	</node>
	<node id="-607418" lat="63.1775055549" lon="8.73600554741">
		<tag k="name" v="Slettbakken" />
		<tag k="natural" v="slope" />
		<tag k="place" v="locality" />
		<tag k="ssr:stedsnr" v="593972" />
	</node>
	<node id="-607417" lat="63.0976472239" lon="8.37010555941">
		<tag k="name" v="Gjengstøseterlia" />
		<tag k="natural" v="slope" />
		<tag k="place" v="locality" />
		<tag k="ssr:stedsnr" v="593962" />
	</node>
	<node id="-607416" lat="63.129002777" lon="8.48108610292">
		<tag k="name" v="Merraholet" />
		<tag k="natural" v="valley" />
		<tag k="place" v="locality" />
		<tag k="ssr:stedsnr" v="594544" />
	</node>
	<node id="-607415" lat="63.1287972255" lon="8.4642944409">
		<tag k="name" v="Brattlia" />
		<tag k="natural" v="slope" />
		<tag k="place" v="locality" />
		<tag k="ssr:stedsnr" v="594527" />
	</node>
	<node id="-607414" lat="63.1321999981" lon="8.45702777479">
		<tag k="name" v="Haltbakken" />
		<tag k="natural" v="slope" />
		<tag k="place" v="locality" />
		<tag k="ssr:stedsnr" v="594526" />
	</node>
	<node id="-607413" lat="63.1570194422" lon="8.56857499318">
		<tag k="name" v="Bjønnahaugen" />
		<tag k="natural" v="hill" />
		<tag k="place" v="locality" />
		<tag k="ssr:stedsnr" v="594509" />
	</node>
	<node id="-607412" lat="63.1458083366" lon="8.59145278651">
		<tag k="name" v="Gammelseterhola" />
		<tag k="natural" v="valley" />
		<tag k="place" v="locality" />
		<tag k="ssr:stedsnr" v="593794" />
	</node>
	<node id="-607411" lat="63.1421333305" lon="8.6083444439">
		<tag k="name" v="Seterlia" />
		<tag k="natural" v="slope" />
		<tag k="place" v="locality" />
		<tag k="ssr:stedsnr" v="593788" />
	</node>
	<node id="-607410" lat="63.1035138892" lon="8.1915777763">
		<tag k="name" v="Hønsviklia" />
		<tag k="natural" v="slope" />
		<tag k="place" v="locality" />
		<tag k="ssr:stedsnr" v="593688" />
	</node>
	<node id="-607408" lat="63.092030555" lon="8.25532222862">
		<tag k="name" v="Almhaugen" />
		<tag k="natural" v="hill" />
		<tag k="place" v="locality" />
		<tag k="ssr:stedsnr" v="593667" />
	</node>
	<node id="-607406" lat="63.1437138851" lon="8.73788332969">
		<tag k="name" v="Klomphølet" />
		<tag k="natural" v="hill" />
		<tag k="place" v="locality" />
		<tag k="ssr:stedsnr" v="593654" />
	</node>
	<node id="-607404" lat="63.1798166652" lon="8.74786667067">
		<tag k="name" v="Tjuveldtåa" />
		<tag k="natural" v="hill" />
		<tag k="place" v="locality" />
		<tag k="ssr:stedsnr" v="593954" />
	</node>
	<node id="-607403" lat="63.1241888855" lon="8.63649167101">
		<tag k="fixme" v="consider natural=peak for the most distinct mountains in the district" />
		<tag k="name" v="Tuva" />
		<tag k="natural" v="hill" />
		<tag k="place" v="locality" />
		<tag k="ssr:stedsnr" v="593508" />
	</node>
	<node id="-607402" lat="63.1260972188" lon="8.23062777606">
		<tag k="name" v="Ferabben" />
		<tag k="natural" v="hill" />
		<tag k="place" v="locality" />
		<tag k="ssr:stedsnr" v="593430" />
	</node>
	<node id="-607401" lat="63.1119388867" lon="8.24635556142">
		<tag k="name" v="Aksel" />
		<tag k="place" v="locality" />
		<tag k="ssr:stedsnr" v="593426" />
	</node>
	<node id="-607399" lat="63.0831861091" lon="8.246122215">
		<tag k="fixme" v="consider natural=peak for the most distinct mountains in the district" />
		<tag k="name" v="Vestringen" />
		<tag k="natural" v="hill" />
		<tag k="place" v="locality" />
		<tag k="ssr:stedsnr" v="593619" />
	</node>
	<node id="-607397" lat="63.131033329" lon="8.20869722719">
		<tag k="name" v="Litlhallaren" />
		<tag k="natural" v="ridge" />
		<tag k="place" v="locality" />
		<tag k="ssr:stedsnr" v="593269" />
	</node>
	<node id="-607392" lat="63.0475888884" lon="8.32323055494">
		<tag k="fixme" v="consider natural=peak for the most distinct mountains in the district" />
		<tag k="name" v="Flatfjellet" />
		<tag k="natural" v="hill" />
		<tag k="place" v="locality" />
		<tag k="ssr:stedsnr" v="593157" />
	</node>
	<node id="-607391" lat="63.0534138913" lon="8.35461111508">
		<tag k="name" v="Vassdalslia" />
		<tag k="natural" v="slope" />
		<tag k="place" v="locality" />
		<tag k="ssr:stedsnr" v="593156" />
	</node>
	<node id="-607390" lat="63.0860305574" lon="8.68001111023">
		<tag k="name" v="Kveldsbeitnebba" />
		<tag k="natural" v="cliff" />
		<tag k="ssr:stedsnr" v="593150" />
	</node>
	<node id="-607389" lat="63.1073916646" lon="8.71262776929">
		<tag k="name" v="Grønhaugen" />
		<tag k="natural" v="hill" />
		<tag k="place" v="locality" />
		<tag k="ssr:stedsnr" v="593124" />
	</node>
	<node id="-607388" lat="63.1005583306" lon="8.74138610631">
		<tag k="fixme" v="consider natural=peak for the most distinct mountains in the district" />
		<tag k="name" v="Grønlifjellet" />
		<tag k="natural" v="hill" />
		<tag k="place" v="locality" />
		<tag k="ssr:stedsnr" v="593098" />
	</node>
	<node id="-607384" lat="63.1006499985" lon="8.75536944007">
		<tag k="name" v="P. Hansenlia" />
		<tag k="natural" v="slope" />
		<tag k="place" v="locality" />
		<tag k="ssr:stedsnr" v="593075" />
	</node>
	<node id="-607383" lat="63.1187861145" lon="8.67504721619">
		<tag k="name" v="Stordalen" />
		<tag k="natural" v="valley" />
		<tag k="place" v="locality" />
		<tag k="ssr:stedsnr" v="593038" />
	</node>
	<node id="-607382" lat="63.0737944434" lon="8.39352221555">
		<tag k="name" v="Akslin" />
		<tag k="place" v="locality" />
		<tag k="ssr:stedsnr" v="592861" />
	</node>
	<node id="-607381" lat="63.0684194466" lon="8.43737777864">
		<tag k="name" v="Blåfjelldalen" />
		<tag k="natural" v="valley" />
		<tag k="place" v="locality" />
		<tag k="ssr:stedsnr" v="592841" />
	</node>
	<node id="-607380" lat="63.0808916656" lon="8.43860556332">
		<tag k="name" v="Nyseterheia" />
		<tag k="natural" v="hill" />
		<tag k="place" v="locality" />
		<tag k="ssr:stedsnr" v="592839" />
	</node>
	<node id="-607378" lat="63.0787111099" lon="8.43606666942">
		<tag k="fixme" v="consider natural=peak for the most distinct mountains in the district" />
		<tag k="name" v="Rypehaugen" />
		<tag k="natural" v="hill" />
		<tag k="place" v="locality" />
		<tag k="ssr:stedsnr" v="592838" />
	</node>
	<node id="-607375" lat="63.1099833289" lon="8.51505834117">
		<tag k="name" v="Halsen" />
		<tag k="natural" v="valley" />
		<tag k="place" v="locality" />
		<tag k="ssr:stedsnr" v="592650" />
	</node>
	<node id="-607374" lat="63.0229527788" lon="8.24922222606">
		<tag k="name" v="Ringen" />
		<tag k="natural" v="hill" />
		<tag k="place" v="locality" />
		<tag k="ssr:stedsnr" v="592624" />
	</node>
	<node id="-607373" lat="63.0319361076" lon="8.24165277106">
		<tag k="name" v="Ratlia" />
		<tag k="natural" v="slope" />
		<tag k="place" v="locality" />
		<tag k="ssr:stedsnr" v="592621" />
	</node>
	<node id="-607372" lat="63.0357055557" lon="8.24301666152">
		<tag k="fixme" v="consider natural=peak for the most distinct mountains in the district" />
		<tag k="name" v="Fjellklaven" />
		<tag k="natural" v="hill" />
		<tag k="place" v="locality" />
		<tag k="ssr:stedsnr" v="592613" />
	</node>
	<node id="-607371" lat="63.0807611096" lon="8.54459723001">
		<tag k="name" v="Gangskarberget" />
		<tag k="natural" v="hill" />
		<tag k="place" v="locality" />
		<tag k="ssr:stedsnr" v="592320" />
	</node>
	<node id="-607366" lat="63.0797472237" lon="8.46606944049">
		<tag k="name" v="Snødalen" />
		<tag k="natural" v="valley" />
		<tag k="place" v="locality" />
		<tag k="ssr:stedsnr" v="591934" />
	</node>
	<node id="-607364" lat="63.1465611068" lon="8.30398332602">
		<tag k="name" v="Vadberget" />
		<tag k="natural" v="hill" />
		<tag k="place" v="locality" />
		<tag k="ssr:stedsnr" v="589954" />
	</node>
	<node id="-607363" lat="63.1364861083" lon="8.28896388115">
		<tag k="name" v="Bjønnahaugen" />
		<tag k="natural" v="hill" />
		<tag k="place" v="locality" />
		<tag k="ssr:stedsnr" v="589955" />
	</node>
	<node id="-607351" lat="63.055744445" lon="8.31277222404">
		<tag k="name" v="Varghinebba" />
		<tag k="natural" v="hill" />
		<tag k="place" v="locality" />
		<tag k="ssr:stedsnr" v="558941" />
	</node>
	<node id="-607347" lat="63.083038885" lon="8.68611111236">
		<tag k="name" v="Reinslinebba" />
		<tag k="natural" v="hill" />
		<tag k="place" v="locality" />
		<tag k="ssr:stedsnr" v="558916" />
	</node>
	<node id="-607342" lat="63.1008286818" lon="8.42501921611">
		<tag k="fixme" v="consider natural=peak for the most distinct mountains in the district" />
		<tag k="name" v="Rognskogfjellet" />
		<tag k="natural" v="hill" />
		<tag k="place" v="locality" />
		<tag k="ssr:stedsnr" v="558902" />
	</node>
	<node id="-607340" lat="63.1069083292" lon="8.72270834095">
		<tag k="name" v="Grøndalen" />
		<tag k="natural" v="valley" />
		<tag k="place" v="locality" />
		<tag k="ssr:stedsnr" v="558768" />
	</node>
	<node id="-607338" lat="63.1285777757" lon="8.19107500188">
		<tag k="name" v="Kverneshaugen" />
		<tag k="natural" v="hill" />
		<tag k="place" v="locality" />
		<tag k="ssr:stedsnr" v="558293" />
	</node>
	<node id="-607333" lat="63.1615972187" lon="8.59358333312">
		<tag k="name" v="Rennhaugen" />
		<tag k="natural" v="hill" />
		<tag k="place" v="locality" />
		<tag k="ssr:stedsnr" v="558089" />
	</node>
	<node id="-607330" lat="63.1086083299" lon="8.57311945198">
		<tag k="fixme" v="consider natural=peak for the most distinct mountains in the district" />
		<tag k="name" v="Grytfjellet" />
		<tag k="natural" v="hill" />
		<tag k="place" v="locality" />
		<tag k="ssr:stedsnr" v="557991" />
	</node>
	<node id="-607321" lat="63.1718833316" lon="8.74187500214">
		<tag k="name" v="Fonnvegen" />
		<tag k="place" v="locality" />
		<tag k="ssr:stedsnr" v="533989" />
	</node>
	<node id="-607319" lat="63.0956361102" lon="8.36181110463">
		<tag k="name" v="Dikelihalsen" />
		<tag k="natural" v="ridge" />
		<tag k="place" v="locality" />
		<tag k="ssr:stedsnr" v="533981" />
	</node>
	<node id="-607316" lat="63.1350611147" lon="8.34848610511">
		<tag k="name" v="Baklia" />
		<tag k="natural" v="slope" />
		<tag k="place" v="locality" />
		<tag k="ssr:stedsnr" v="533925" />
	</node>
	<node id="-607314" lat="63.180308329" lon="8.69447777697">
		<tag k="name" v="Hjorthaugen" />
		<tag k="natural" v="hill" />
		<tag k="place" v="locality" />
		<tag k="ssr:stedsnr" v="533893" />
	</node>
	<node id="-607313" lat="63.1585722201" lon="8.79191389004">
		<tag k="fixme" v="consider natural=peak for the most distinct mountains in the district" />
		<tag k="name" v="Skåpen" />
		<tag k="natural" v="hill" />
		<tag k="place" v="locality" />
		<tag k="ssr:stedsnr" v="533871" />
	</node>
	<node id="-607311" lat="63.1207944485" lon="8.41296945063">
		<tag k="name" v="Tortlia" />
		<tag k="natural" v="slope" />
		<tag k="place" v="locality" />
		<tag k="ssr:stedsnr" v="533781" />
	</node>
	<node id="-607310" lat="63.1502972219" lon="8.59616666781">
		<tag k="name" v="Damhaugen" />
		<tag k="natural" v="hill" />
		<tag k="place" v="locality" />
		<tag k="ssr:stedsnr" v="533762" />
	</node>
	<node id="-607308" lat="63.1069694401" lon="8.39105555266">
		<tag k="name" v="Kvennhusbotn" />
		<tag k="natural" v="valley" />
		<tag k="place" v="locality" />
		<tag k="ssr:stedsnr" v="533755" />
	</node>
	<node id="-607307" lat="63.1229944482" lon="8.43564165859">
		<tag k="fixme" v="consider natural=peak for the most distinct mountains in the district" />
		<tag k="name" v="Kånnå" />
		<tag k="natural" v="hill" />
		<tag k="place" v="locality" />
		<tag k="ssr:stedsnr" v="533753" />
	</node>
	<node id="-607304" lat="63.140336109" lon="8.75388610151">
		<tag k="fixme" v="consider natural=peak for the most distinct mountains in the district" />
		<tag k="name" v="Klompen" />
		<tag k="natural" v="hill" />
		<tag k="place" v="locality" />
		<tag k="ssr:stedsnr" v="533725" />
	</node>
	<node id="-607300" lat="63.0538222242" lon="8.24842223009">
		<tag k="name" v="Moldbakken" />
		<tag k="natural" v="slope" />
		<tag k="place" v="locality" />
		<tag k="ssr:stedsnr" v="533657" />
	</node>
	<node id="-607299" lat="63.0428944473" lon="8.23894722442">
		<tag k="name" v="Huslihaugen" />
		<tag k="natural" v="hill" />
		<tag k="place" v="locality" />
		<tag k="ssr:stedsnr" v="533641" />
	</node>
	<node id="-607298" lat="63.1289500043" lon="8.41198333017">
		<tag k="name" v="Buvollen" />
		<tag k="natural" v="slope" />
		<tag k="place" v="locality" />
		<tag k="ssr:stedsnr" v="533596" />
	</node>
	<node id="-607297" lat="63.1305916645" lon="8.39371110292">
		<tag k="fixme" v="consider natural=peak for the most distinct mountains in the district" />
		<tag k="name" v="Åsen" />
		<tag k="natural" v="hill" />
		<tag k="place" v="locality" />
		<tag k="ssr:stedsnr" v="533593" />
	</node>
	<node id="-607295" lat="63.1356583369" lon="8.48394167348">
		<tag k="fixme" v="consider natural=peak for the most distinct mountains in the district" />
		<tag k="name" v="Kjempåsen" />
		<tag k="natural" v="hill" />
		<tag k="place" v="locality" />
		<tag k="ssr:stedsnr" v="533589" />
	</node>
	<node id="-607294" lat="63.1205916635" lon="8.6089749903">
		<tag k="name" v="Fjærlihammaren" />
		<tag k="natural" v="hill" />
		<tag k="place" v="locality" />
		<tag k="ssr:stedsnr" v="533541" />
	</node>
	<node id="-607292" lat="63.1583249992" lon="8.56411943838">
		<tag k="name" v="Oddhaugen" />
		<tag k="natural" v="hill" />
		<tag k="place" v="locality" />
		<tag k="ssr:stedsnr" v="533535" />
	</node>
	<node id="-607288" lat="63.1160777789" lon="8.63681943976">
		<tag k="fixme" v="consider natural=peak for the most distinct mountains in the district" />
		<tag k="name" v="Møkkelfjellet" />
		<tag k="natural" v="hill" />
		<tag k="place" v="locality" />
		<tag k="ssr:stedsnr" v="533520" />
	</node>
	<node id="-607287" lat="63.1045888923" lon="8.56938333827">
		<tag k="name" v="Steinskaret" />
		<tag k="natural" v="valley" />
		<tag k="place" v="locality" />
		<tag k="ssr:stedsnr" v="533486" />
	</node>
	<node id="-607280" lat="63.0744361104" lon="8.35300278714">
		<tag k="name" v="Mollstihaugen" />
		<tag k="natural" v="hill" />
		<tag k="place" v="locality" />
		<tag k="ssr:stedsnr" v="533249" />
	</node>
	<node id="-607279" lat="63.0810111125" lon="8.27253055687">
		<tag k="name" v="Tarrasletthaugen" />
		<tag k="natural" v="hill" />
		<tag k="place" v="locality" />
		<tag k="ssr:stedsnr" v="533238" />
	</node>
	<node id="-607276" lat="63.0655277766" lon="8.36666111749">
		<tag k="name" v="Hain Lars" />
		<tag k="place" v="locality" />
		<tag k="ssr:stedsnr" v="533222" />
	</node>
	<node id="-607273" lat="63.0901055553" lon="8.68719721436">
		<tag k="fixme" v="consider natural=peak for the most distinct mountains in the district" />
		<tag k="name" v="Flatfjellet" />
		<tag k="natural" v="hill" />
		<tag k="place" v="locality" />
		<tag k="ssr:stedsnr" v="533149" />
	</node>
	<node id="-607267" lat="63.1156972263" lon="8.67240000024">
		<tag k="name" v="Småliene" />
		<tag k="natural" v="slope" />
		<tag k="place" v="locality" />
		<tag k="ssr:stedsnr" v="533039" />
	</node>
	<node id="-607266" lat="63.1264305581" lon="8.69643055385">
		<tag k="name" v="Blåliheia" />
		<tag k="natural" v="hill" />
		<tag k="place" v="locality" />
		<tag k="ssr:stedsnr" v="533036" />
	</node>
	<node id="-607263" lat="63.1268527749" lon="8.65607778555">
		<tag k="name" v="Lofdalen" />
		<tag k="natural" v="valley" />
		<tag k="place" v="locality" />
		<tag k="ssr:stedsnr" v="533011" />
	</node>
	<node id="-607260" lat="63.1188333338" lon="8.7382388968">
		<tag k="fixme" v="consider natural=peak for the most distinct mountains in the district" />
		<tag k="name" v="Sandfjellet" />
		<tag k="natural" v="hill" />
		<tag k="place" v="locality" />
		<tag k="ssr:stedsnr" v="533001" />
	</node>
	<node id="-607259" lat="63.1290166684" lon="8.28052499969">
		<tag k="name" v="Tussehaugen" />
		<tag k="natural" v="hill" />
		<tag k="place" v="locality" />
		<tag k="ssr:stedsnr" v="532970" />
	</node>
	<node id="-607258" lat="63.1298805547" lon="8.26347499408">
		<tag k="name" v="Stallbandhaugen" />
		<tag k="natural" v="hill" />
		<tag k="place" v="locality" />
		<tag k="ssr:stedsnr" v="532900" />
	</node>
	<node id="-607257" lat="63.1310361089" lon="8.35981110669">
		<tag k="name" v="Saghaugen" />
		<tag k="natural" v="hill" />
		<tag k="place" v="locality" />
		<tag k="ssr:stedsnr" v="532896" />
	</node>
	<node id="-607256" lat="63.1447583325" lon="8.53260277953">
		<tag k="name" v="Trøhaugen" />
		<tag k="natural" v="hill" />
		<tag k="place" v="locality" />
		<tag k="ssr:stedsnr" v="532815" />
	</node>
	<node id="-607255" lat="63.0741166631" lon="8.3908916641">
		<tag k="name" v="Bjønnaholet" />
		<tag k="natural" v="valley" />
		<tag k="place" v="locality" />
		<tag k="ssr:stedsnr" v="532810" />
	</node>
	<node id="-607254" lat="63.0847388914" lon="8.2012249916">
		<tag k="name" v="Korphammaren" />
		<tag k="natural" v="hill" />
		<tag k="place" v="locality" />
		<tag k="ssr:stedsnr" v="532744" />
	</node>
	<node id="-607253" lat="63.0902666708" lon="8.19580555596">
		<tag k="name" v="Kuhaugen" />
		<tag k="natural" v="hill" />
		<tag k="place" v="locality" />
		<tag k="ssr:stedsnr" v="532742" />
	</node>
	<node id="-607251" lat="63.1294416671" lon="8.53496389446">
		<tag k="name" v="Furuhaugen" />
		<tag k="natural" v="hill" />
		<tag k="place" v="locality" />
		<tag k="ssr:stedsnr" v="532664" />
	</node>
	<node id="-607247" lat="63.0394805541" lon="8.24280000254">
		<tag k="name" v="Sørkarshaugen" />
		<tag k="natural" v="hill" />
		<tag k="place" v="locality" />
		<tag k="ssr:stedsnr" v="532549" />
	</node>
	<node id="-607246" lat="63.0379944471" lon="8.25503888283">
		<tag k="name" v="Seterhaugen" />
		<tag k="natural" v="hill" />
		<tag k="place" v="locality" />
		<tag k="ssr:stedsnr" v="532548" />
	</node>
	<node id="-607243" lat="63.1196777778" lon="8.23242776919">
		<tag k="name" v="Nonshaugen" />
		<tag k="natural" v="hill" />
		<tag k="place" v="locality" />
		<tag k="ssr:stedsnr" v="532472" />
	</node>
	<node id="-607242" lat="63.1222361093" lon="8.22640833067">
		<tag k="name" v="Skreåhaugen" />
		<tag k="natural" v="hill" />
		<tag k="place" v="locality" />
		<tag k="ssr:stedsnr" v="532471" />
	</node>
	<node id="-607240" lat="63.1162388922" lon="8.23965833325">
		<tag k="name" v="Ytter elvadalen" />
		<tag k="natural" v="valley" />
		<tag k="place" v="locality" />
		<tag k="ssr:stedsnr" v="532448" />
	</node>
	<node id="-607239" lat="63.1207250005" lon="8.16500555217">
		<tag k="name" v="Gammelvåttå" />
		<tag k="natural" v="hill" />
		<tag k="place" v="locality" />
		<tag k="ssr:stedsnr" v="532437" />
	</node>
	<node id="-607238" lat="63.120663886" lon="8.1888472141">
		<tag k="name" v="Sagdalane" />
		<tag k="natural" v="valley" />
		<tag k="place" v="locality" />
		<tag k="ssr:stedsnr" v="532427" />
	</node>
	<node id="-607235" lat="63.0320222201" lon="8.27960556485">
		<tag k="name" v="Kvenngrøbrona" />
		<tag k="place" v="locality" />
		<tag k="ssr:stedsnr" v="532276" />
	</node>
	<node id="-607233" lat="63.0282777782" lon="8.26432777114">
		<tag k="name" v="Djupdalen" />
		<tag k="natural" v="valley" />
		<tag k="place" v="locality" />
		<tag k="ssr:stedsnr" v="532185" />
	</node>
	<node id="-607228" lat="63.0867888905" lon="8.26185832893">
		<tag k="name" v="Stakkailhaugen" />
		<tag k="natural" v="hill" />
		<tag k="place" v="locality" />
		<tag k="ssr:stedsnr" v="532001" />
	</node>
	<node id="-607227" lat="63.1289777737" lon="8.32026944838">
		<tag k="name" v="Storhaugen" />
		<tag k="natural" v="hill" />
		<tag k="place" v="locality" />
		<tag k="ssr:stedsnr" v="530996" />
	</node>
	<node id="-607225" lat="63.1415888878" lon="8.29697777179">
		<tag k="name" v="Rogahalsen" />
		<tag k="natural" v="ridge" />
		<tag k="place" v="locality" />
		<tag k="ssr:stedsnr" v="529964" />
	</node>
	<node id="-607220" lat="63.1339333352" lon="8.35546943454">
		<tag k="name" v="Alteret" />
		<tag k="natural" v="hill" />
		<tag k="place" v="locality" />
		<tag k="ssr:stedsnr" v="505770" />
	</node>
	<node id="-607219" lat="63.1518499958" lon="8.65111388826">
		<tag k="name" v="Middagshaugen" />
		<tag k="natural" v="hill" />
		<tag k="place" v="locality" />
		<tag k="ssr:stedsnr" v="498970" />
	</node>
	<node id="-607216" lat="63.1038166692" lon="8.21436943706">
		<tag k="fixme" v="consider natural=peak for the most distinct mountains in the district" />
		<tag k="name" v="Slettlia" />
		<tag k="natural" v="hill" />
		<tag k="place" v="locality" />
		<tag k="ssr:stedsnr" v="498434" />
	</node>
	<node id="-607213" lat="63.1282416637" lon="8.63236111306">
		<tag k="name" v="Seterhaugen" />
		<tag k="natural" v="hill" />
		<tag k="place" v="locality" />
		<tag k="ssr:stedsnr" v="497965" />
	</node>
	<node id="-607205" lat="63.087622226" lon="8.35888612076">
		<tag k="name" v="Blekkahamran" />
		<tag k="natural" v="hill" />
		<tag k="place" v="locality" />
		<tag k="ssr:stedsnr" v="472972" />
	</node>
	<node id="-607203" lat="63.080777781" lon="8.48408055942">
		<tag k="name" v="Blåfjellskaret" />
		<tag k="natural" v="valley" />
		<tag k="place" v="locality" />
		<tag k="ssr:stedsnr" v="472928" />
	</node>
	<node id="-607202" lat="63.14301389" lon="8.3294777724">
		<tag k="name" v="Linåkerdalen" />
		<tag k="natural" v="valley" />
		<tag k="place" v="locality" />
		<tag k="ssr:stedsnr" v="472905" />
	</node>
	<node id="-607201" lat="63.1421944482" lon="8.32366944434">
		<tag k="name" v="Movollen" />
		<tag k="natural" v="slope" />
		<tag k="place" v="locality" />
		<tag k="ssr:stedsnr" v="472903" />
	</node>
	<node id="-607199" lat="63.1565694428" lon="8.79186667186">
		<tag k="name" v="Gammelseterlia" />
		<tag k="natural" v="slope" />
		<tag k="place" v="locality" />
		<tag k="ssr:stedsnr" v="472852" />
	</node>
	<node id="-607198" lat="63.1635694455" lon="8.78182222603">
		<tag k="name" v="Småhamran" />
		<tag k="place" v="locality" />
		<tag k="ssr:stedsnr" v="472847" />
	</node>
	<node id="-607197" lat="63.1465777764" lon="8.63343055692">
		<tag k="name" v="Tullhaugan" />
		<tag k="natural" v="hill" />
		<tag k="place" v="locality" />
		<tag k="ssr:stedsnr" v="472842" />
	</node>
	<node id="-607196" lat="63.1469416635" lon="8.5965805618">
		<tag k="name" v="Gammelseterlia" />
		<tag k="natural" v="slope" />
		<tag k="place" v="locality" />
		<tag k="ssr:stedsnr" v="472828" />
	</node>
	<node id="-607195" lat="63.1191472199" lon="8.43278333339">
		<tag k="name" v="Skrehammaren" />
		<tag k="natural" v="cliff" />
		<tag k="ssr:stedsnr" v="472763" />
	</node>
	<node id="-607194" lat="63.1218444427" lon="8.39725833725">
		<tag k="fixme" v="consider natural=peak for the most distinct mountains in the district" />
		<tag k="name" v="Åsen" />
		<tag k="natural" v="hill" />
		<tag k="place" v="locality" />
		<tag k="ssr:stedsnr" v="472733" />
	</node>
	<node id="-607192" lat="63.1152861076" lon="8.50495554969">
		<tag k="name" v="Riset" />
		<tag k="natural" v="slope" />
		<tag k="place" v="locality" />
		<tag k="ssr:stedsnr" v="472693" />
	</node>
	<node id="-607191" lat="63.1122999983" lon="8.50304167212">
		<tag k="name" v="Huset" />
		<tag k="place" v="locality" />
		<tag k="ssr:stedsnr" v="472694" />
	</node>
	<node id="-607190" lat="63.1687416664" lon="8.71259722688">
		<tag k="name" v="Litldalen" />
		<tag k="natural" v="valley" />
		<tag k="place" v="locality" />
		<tag k="ssr:stedsnr" v="472689" />
	</node>
	<node id="-607189" lat="63.1220833363" lon="8.46848055154">
		<tag k="name" v="Sandheia" />
		<tag k="natural" v="hill" />
		<tag k="place" v="locality" />
		<tag k="ssr:stedsnr" v="472670" />
	</node>
	<node id="-607183" lat="63.1552916648" lon="8.74710834211">
		<tag k="name" v="Gutaheia" />
		<tag k="natural" v="hill" />
		<tag k="place" v="locality" />
		<tag k="ssr:stedsnr" v="472650" />
	</node>
	<node id="-607182" lat="63.1557000019" lon="8.71429722788">
		<tag k="name" v="Gåsvikbrona" />
		<tag k="natural" v="ridge" />
		<tag k="place" v="locality" />
		<tag k="ssr:stedsnr" v="472634" />
	</node>
	<node id="-607180" lat="63.0946249973" lon="8.47711667182">
		<tag k="name" v="Møssmørtuva" />
		<tag k="natural" v="hill" />
		<tag k="place" v="locality" />
		<tag k="ssr:stedsnr" v="472622" />
	</node>
	<node id="-607179" lat="63.1345416648" lon="8.48706945286">
		<tag k="name" v="Lønningen" />
		<tag k="natural" v="hill" />
		<tag k="place" v="locality" />
		<tag k="ssr:stedsnr" v="472555" />
	</node>
	<node id="-607176" lat="63.1615083377" lon="8.75067777207">
		<tag k="name" v="Olderbakkhamrane" />
		<tag k="natural" v="hill" />
		<tag k="place" v="locality" />
		<tag k="ssr:stedsnr" v="472515" />
	</node>
	<node id="-607175" lat="63.1222388926" lon="8.21368611189">
		<tag k="name" v="Løyfta" />
		<tag k="natural" v="hill" />
		<tag k="place" v="locality" />
		<tag k="ssr:stedsnr" v="472473" />
	</node>
	<node id="-607174" lat="63.1265194407" lon="8.21485000443">
		<tag k="name" v="Moldstihaugen" />
		<tag k="natural" v="hill" />
		<tag k="place" v="locality" />
		<tag k="ssr:stedsnr" v="472469" />
	</node>
	<node id="-607173" lat="63.0920611076" lon="8.57188054606">
		<tag k="name" v="Indre Skorvhola" />
		<tag k="natural" v="valley" />
		<tag k="place" v="locality" />
		<tag k="ssr:stedsnr" v="472467" />
	</node>
	<node id="-607172" lat="63.098825003" lon="8.57122778499">
		<tag k="name" v="Grønhaugen" />
		<tag k="natural" v="hill" />
		<tag k="place" v="locality" />
		<tag k="ssr:stedsnr" v="472457" />
	</node>
	<node id="-607169" lat="63.0987083308" lon="8.59722777324">
		<tag k="name" v="Litlkamhaugen" />
		<tag k="natural" v="hill" />
		<tag k="place" v="locality" />
		<tag k="ssr:stedsnr" v="472350" />
	</node>
	<node id="-607165" lat="63.0468138851" lon="8.33345000328">
		<tag k="name" v="Middagsheia" />
		<tag k="natural" v="hill" />
		<tag k="place" v="locality" />
		<tag k="ssr:stedsnr" v="472170" />
	</node>
	<node id="-607161" lat="63.1249666624" lon="8.28735833416">
		<tag k="name" v="Litlhamaren" />
		<tag k="natural" v="hill" />
		<tag k="place" v="locality" />
		<tag k="ssr:stedsnr" v="472069" />
	</node>
	<node id="-607159" lat="63.1205027784" lon="8.66081667058">
		<tag k="name" v="Avindsholet" />
		<tag k="natural" v="valley" />
		<tag k="place" v="locality" />
		<tag k="ssr:stedsnr" v="472028" />
	</node>
	<node id="-607158" lat="63.1172583313" lon="8.65367222668">
		<tag k="name" v="Finnskjeggbakken" />
		<tag k="natural" v="slope" />
		<tag k="place" v="locality" />
		<tag k="ssr:stedsnr" v="472017" />
	</node>
	<node id="-607157" lat="63.1264527812" lon="8.63906945131">
		<tag k="name" v="Heimseterbotn" />
		<tag k="natural" v="valley" />
		<tag k="place" v="locality" />
		<tag k="ssr:stedsnr" v="472015" />
	</node>
	<node id="-607156" lat="63.1239249973" lon="8.64301110239">
		<tag k="name" v="Aurespranget" />
		<tag k="place" v="locality" />
		<tag k="ssr:stedsnr" v="472013" />
	</node>
	<node id="-607155" lat="63.11291389" lon="8.64507499072">
		<tag k="name" v="Kjekkelstykket" />
		<tag k="natural" v="slope" />
		<tag k="place" v="locality" />
		<tag k="ssr:stedsnr" v="472012" />
	</node>
	<node id="-607152" lat="63.0812972238" lon="8.4247527756">
		<tag k="name" v="Skallen" />
		<tag k="natural" v="hill" />
		<tag k="place" v="locality" />
		<tag k="ssr:stedsnr" v="471792" />
	</node>
	<node id="-607149" lat="63.0918861081" lon="8.20658334288">
		<tag k="fixme" v="consider natural=peak for the most distinct mountains in the district" />
		<tag k="name" v="Aakvikknoken" />
		<tag k="natural" v="hill" />
		<tag k="place" v="locality" />
		<tag k="ssr:stedsnr" v="471751" />
	</node>
	<node id="-607147" lat="63.1014944478" lon="8.25436944981">
		<tag k="name" v="Skaret" />
		<tag k="natural" v="valley" />
		<tag k="place" v="locality" />
		<tag k="ssr:stedsnr" v="471731" />
	</node>
	<node id="-607144" lat="63.1370416694" lon="8.57259722592">
		<tag k="name" v="Høgsethaugen" />
		<tag k="natural" v="hill" />
		<tag k="place" v="locality" />
		<tag k="ssr:stedsnr" v="471672" />
	</node>
	<node id="-607141" lat="63.034980555" lon="8.22847777739">
		<tag k="name" v="Landstihaugen" />
		<tag k="natural" v="hill" />
		<tag k="place" v="locality" />
		<tag k="ssr:stedsnr" v="471573" />
	</node>
	<node id="-607139" lat="63.1092472181" lon="8.24425000353">
		<tag k="name" v="Rabblia" />
		<tag k="natural" v="slope" />
		<tag k="place" v="locality" />
		<tag k="ssr:stedsnr" v="471489" />
	</node>
	<node id="-607135" lat="63.1182805516" lon="8.19153611359">
		<tag k="name" v="Stokklia" />
		<tag k="natural" v="slope" />
		<tag k="place" v="locality" />
		<tag k="ssr:stedsnr" v="471460" />
	</node>
	<node id="-607134" lat="63.1177555597" lon="8.1833972219">
		<tag k="name" v="Fjærviklia" />
		<tag k="natural" v="slope" />
		<tag k="place" v="locality" />
		<tag k="ssr:stedsnr" v="471453" />
	</node>
	<node id="-607132" lat="63.076758332" lon="8.62949999844">
		<tag k="name" v="Klompdalen" />
		<tag k="natural" v="valley" />
		<tag k="place" v="locality" />
		<tag k="ssr:stedsnr" v="471294" />
	</node>
	<node id="-607131" lat="63.0713472246" lon="8.53833333268">
		<tag k="name" v="Litlslåa" />
		<tag k="place" v="locality" />
		<tag k="ssr:stedsnr" v="471292" />
	</node>
	<node id="-607130" lat="63.0823166633" lon="8.54078611524">
		<tag k="name" v="Øykjelia" />
		<tag k="natural" v="slope" />
		<tag k="place" v="locality" />
		<tag k="ssr:stedsnr" v="471287" />
	</node>
	<node id="-607129" lat="63.0778638913" lon="8.56757499063">
		<tag k="name" v="Pikholahaugen" />
		<tag k="natural" v="hill" />
		<tag k="place" v="locality" />
		<tag k="ssr:stedsnr" v="471280" />
	</node>
	<node id="-607127" lat="63.038172222" lon="8.29683333083">
		<tag k="fixme" v="consider natural=peak for the most distinct mountains in the district" />
		<tag k="name" v="Tverråfjellet" />
		<tag k="natural" v="hill" />
		<tag k="place" v="locality" />
		<tag k="ssr:stedsnr" v="471203" />
	</node>
	<node id="-607122" lat="63.1404111131" lon="8.31028611365">
		<tag k="name" v="Storhaugen" />
		<tag k="natural" v="valley" />
		<tag k="place" v="locality" />
		<tag k="ssr:stedsnr" v="468929" />
	</node>
	<node id="-607114" lat="63.0994055547" lon="8.38572778438">
		<tag k="name" v="Knoken" />
		<tag k="natural" v="hill" />
		<tag k="place" v="locality" />
		<tag k="ssr:stedsnr" v="437996" />
	</node>
	<node id="-607107" lat="63.04424722" lon="8.31869721988">
		<tag k="fixme" v="consider natural=peak for the most distinct mountains in the district" />
		<tag k="name" v="Flatfjellet" />
		<tag k="natural" v="hill" />
		<tag k="place" v="locality" />
		<tag k="ssr:stedsnr" v="437905" />
	</node>
	<node id="-607105" lat="63.0709361087" lon="8.45282778414">
		<tag k="fixme" v="consider natural=peak for the most distinct mountains in the district" />
		<tag k="name" v="Blåfjellet" />
		<tag k="natural" v="hill" />
		<tag k="place" v="locality" />
		<tag k="ssr:stedsnr" v="437888" />
	</node>
	<node id="-607089" lat="63.1455638921" lon="8.58612776911">
		<tag k="name" v="Leirvikhaugen" />
		<tag k="natural" v="hill" />
		<tag k="place" v="locality" />
		<tag k="ssr:stedsnr" v="255954" />
	</node>
	<node id="-607079" lat="63.1139833331" lon="8.55163610921">
		<tag k="name" v="Grytdalen" />
		<tag k="natural" v="valley" />
		<tag k="place" v="locality" />
		<tag k="ssr:stedsnr" v="254994" />
	</node>
	<node id="-607078" lat="63.1088194423" lon="8.4899277841">
		<tag k="fixme" v="consider natural=peak for the most distinct mountains in the district" />
		<tag k="name" v="Hesjingfjellet" />
		<tag k="natural" v="hill" />
		<tag k="place" v="locality" />
		<tag k="ssr:stedsnr" v="254983" />
	</node>
	<node id="-607073" lat="63.1464666655" lon="8.33049999243">
		<tag k="name" v="Halten" />
		<tag k="natural" v="slope" />
		<tag k="place" v="locality" />
		<tag k="ssr:stedsnr" v="230920" />
	</node>
	<node id="-607070" lat="63.1666666652" lon="8.76737499762">
		<tag k="name" v="Saumarberget" />
		<tag k="natural" v="hill" />
		<tag k="place" v="locality" />
		<tag k="ssr:stedsnr" v="230832" />
	</node>
	<node id="-607069" lat="63.1546750007" lon="8.5967722147">
		<tag k="name" v="Kjølen" />
		<tag k="natural" v="hill" />
		<tag k="place" v="locality" />
		<tag k="ssr:stedsnr" v="230716" />
	</node>
	<node id="-607065" lat="63.0900833338" lon="8.40053610616">
		<tag k="name" v="Ørnora" />
		<tag k="natural" v="hill" />
		<tag k="place" v="locality" />
		<tag k="ssr:stedsnr" v="230649" />
	</node>
	<node id="-607064" lat="63.101441668" lon="8.40938889258">
		<tag k="fixme" v="consider natural=peak for the most distinct mountains in the district" />
		<tag k="name" v="Nøre Knoken" />
		<tag k="natural" v="hill" />
		<tag k="place" v="locality" />
		<tag k="ssr:stedsnr" v="230647" />
	</node>
	<node id="-607063" lat="63.0941972192" lon="8.48746945426">
		<tag k="name" v="Indre Storfjellsida" />
		<tag k="place" v="locality" />
		<tag k="ssr:stedsnr" v="230635" />
	</node>
	<node id="-607062" lat="63.0960027793" lon="8.45134166121">
		<tag k="name" v="Høgheia" />
		<tag k="natural" v="hill" />
		<tag k="place" v="locality" />
		<tag k="ssr:stedsnr" v="230624" />
	</node>
	<node id="-607060" lat="63.1069416633" lon="8.55266110738">
		<tag k="name" v="Brulislettet" />
		<tag k="place" v="locality" />
		<tag k="ssr:stedsnr" v="230590" />
	</node>
	<node id="-607059" lat="63.1317888851" lon="8.49913334266">
		<tag k="name" v="Tyttebærhaugen" />
		<tag k="natural" v="hill" />
		<tag k="place" v="locality" />
		<tag k="ssr:stedsnr" v="230549" />
	</node>
	<node id="-607058" lat="63.1287583305" lon="8.44857499936">
		<tag k="name" v="Seterbakken" />
		<tag k="natural" v="slope" />
		<tag k="place" v="locality" />
		<tag k="ssr:stedsnr" v="230525" />
	</node>
	<node id="-607057" lat="63.1553305527" lon="8.75627499286">
		<tag k="name" v="Middagshaugen" />
		<tag k="natural" v="hill" />
		<tag k="place" v="locality" />
		<tag k="ssr:stedsnr" v="230520" />
	</node>
	<node id="-607053" lat="63.1200472224" lon="8.21274722919">
		<tag k="name" v="Ommundskaret" />
		<tag k="natural" v="valley" />
		<tag k="place" v="locality" />
		<tag k="ssr:stedsnr" v="230462" />
	</node>
	<node id="-607052" lat="63.0877888919" lon="8.63297777095">
		<tag k="name" v="Dalahaugen" />
		<tag k="natural" v="hill" />
		<tag k="place" v="locality" />
		<tag k="ssr:stedsnr" v="230438" />
	</node>
	<node id="-607051" lat="63.131555557" lon="8.6549916619">
		<tag k="name" v="Loftdalen" />
		<tag k="natural" v="valley" />
		<tag k="place" v="locality" />
		<tag k="ssr:stedsnr" v="230418" />
	</node>
	<node id="-607050" lat="63.0908055566" lon="8.58980556046">
		<tag k="name" v="Brenthaugen" />
		<tag k="natural" v="hill" />
		<tag k="place" v="locality" />
		<tag k="ssr:stedsnr" v="230403" />
	</node>
	<node id="-607049" lat="63.1305166667" lon="8.19811389128">
		<tag k="fixme" v="consider natural=peak for the most distinct mountains in the district" />
		<tag k="name" v="Storhallaren" />
		<tag k="natural" v="hill" />
		<tag k="place" v="locality" />
		<tag k="ssr:stedsnr" v="230294" />
	</node>
	<node id="-607045" lat="63.0820611084" lon="8.60601388451">
		<tag k="name" v="Fagerlia" />
		<tag k="natural" v="slope" />
		<tag k="place" v="locality" />
		<tag k="ssr:stedsnr" v="230256" />
	</node>
	<node id="-607044" lat="63.0779000037" lon="8.33178610615">
		<tag k="name" v="Litllia" />
		<tag k="natural" v="slope" />
		<tag k="place" v="locality" />
		<tag k="ssr:stedsnr" v="230244" />
	</node>
	<node id="-607041" lat="63.1507000001" lon="8.69190556176">
		<tag k="name" v="Randhaugen" />
		<tag k="natural" v="hill" />
		<tag k="place" v="locality" />
		<tag k="ssr:stedsnr" v="230221" />
	</node>
	<node id="-607038" lat="63.1002277749" lon="8.67777500396">
		<tag k="name" v="Bjønnalia" />
		<tag k="natural" v="slope" />
		<tag k="place" v="locality" />
		<tag k="ssr:stedsnr" v="230148" />
	</node>
	<node id="-607037" lat="63.1112944439" lon="8.31884444601">
		<tag k="name" v="Nausthaugen" />
		<tag k="natural" v="hill" />
		<tag k="place" v="locality" />
		<tag k="ssr:stedsnr" v="230094" />
	</node>
	<node id="-607034" lat="63.1853333334" lon="8.73067777387">
		<tag k="name" v="Mannberget" />
		<tag k="natural" v="hill" />
		<tag k="place" v="locality" />
		<tag k="ssr:stedsnr" v="229979" />
	</node>
	<node id="-607032" lat="63.140199996" lon="8.59266388807">
		<tag k="name" v="Trollskardalen" />
		<tag k="natural" v="valley" />
		<tag k="place" v="locality" />
		<tag k="ssr:stedsnr" v="229849" />
	</node>
	<node id="-607031" lat="63.0680944481" lon="8.41045556535">
		<tag k="name" v="Legdin" />
		<tag k="natural" v="slope" />
		<tag k="place" v="locality" />
		<tag k="ssr:stedsnr" v="229817" />
	</node>
	<node id="-607030" lat="63.0811111135" lon="8.41861667161">
		<tag k="name" v="Råa" />
		<tag k="place" v="locality" />
		<tag k="ssr:stedsnr" v="229790" />
	</node>
	<node id="-607029" lat="63.1038888895" lon="8.18440556452">
		<tag k="name" v="Sommarfjøsdalen" />
		<tag k="natural" v="valley" />
		<tag k="place" v="locality" />
		<tag k="ssr:stedsnr" v="229756" />
	</node>
	<node id="-607028" lat="63.0898722196" lon="8.20273610233">
		<tag k="name" v="Hersjelia" />
		<tag k="natural" v="slope" />
		<tag k="place" v="locality" />
		<tag k="ssr:stedsnr" v="229753" />
	</node>
	<node id="-607026" lat="63.1376750024" lon="8.79537222454">
		<tag k="name" v="Dalafjellslåa" />
		<tag k="place" v="locality" />
		<tag k="ssr:stedsnr" v="229744" />
	</node>
	<node id="-607024" lat="63.1412611127" lon="8.74261389841">
		<tag k="name" v="Kløften" />
		<tag k="natural" v="valley" />
		<tag k="place" v="locality" />
		<tag k="ssr:stedsnr" v="229712" />
	</node>
	<node id="-607023" lat="63.1574472179" lon="8.74888056234">
		<tag k="name" v="Skaret" />
		<tag k="natural" v="valley" />
		<tag k="place" v="locality" />
		<tag k="ssr:stedsnr" v="229678" />
	</node>
	<node id="-607021" lat="63.1120638915" lon="8.54401110989">
		<tag k="name" v="Øvre Ormdalen" />
		<tag k="natural" v="valley" />
		<tag k="place" v="locality" />
		<tag k="ssr:stedsnr" v="229622" />
	</node>
	<node id="-607020" lat="63.1210916683" lon="8.541700004">
		<tag k="name" v="Oksebåsen" />
		<tag k="natural" v="hill" />
		<tag k="place" v="locality" />
		<tag k="ssr:stedsnr" v="229593" />
	</node>
	<node id="-607019" lat="63.0290555544" lon="8.24980555798">
		<tag k="name" v="Furuhaugen" />
		<tag k="natural" v="hill" />
		<tag k="place" v="locality" />
		<tag k="ssr:stedsnr" v="229572" />
	</node>
	<node id="-607017" lat="63.1264083325" lon="8.24384722187">
		<tag k="name" v="Nessabakken" />
		<tag k="natural" v="slope" />
		<tag k="place" v="locality" />
		<tag k="ssr:stedsnr" v="229465" />
	</node>
	<node id="-607015" lat="63.1199666709" lon="8.7783611061">
		<tag k="name" v="Hardbakken" />
		<tag k="place" v="locality" />
		<tag k="ssr:stedsnr" v="229347" />
	</node>
	<node id="-607014" lat="63.1520888907" lon="8.65138888046">
		<tag k="name" v="Skottjønnheia" />
		<tag k="natural" v="hill" />
		<tag k="place" v="locality" />
		<tag k="ssr:stedsnr" v="229219" />
	</node>
	<node id="-607013" lat="63.0316361116" lon="8.26609167229">
		<tag k="fixme" v="consider natural=peak for the most distinct mountains in the district" />
		<tag k="name" v="Sjølånebba" />
		<tag k="natural" v="hill" />
		<tag k="place" v="locality" />
		<tag k="ssr:stedsnr" v="229213" />
	</node>
	<node id="-607012" lat="63.0896805586" lon="8.69770555959">
		<tag k="fixme" v="consider natural=peak for the most distinct mountains in the district" />
		<tag k="name" v="Rånnafjellet" />
		<tag k="natural" v="hill" />
		<tag k="place" v="locality" />
		<tag k="ssr:stedsnr" v="229163" />
	</node>
	<node id="-607011" lat="63.1080222226" lon="8.7238666758">
		<tag k="fixme" v="consider natural=peak for the most distinct mountains in the district" />
		<tag k="name" v="Råfjellet" />
		<tag k="natural" v="hill" />
		<tag k="place" v="locality" />
		<tag k="ssr:stedsnr" v="229117" />
	</node>
	<node id="-607008" lat="63.1071749987" lon="8.75382500412">
		<tag k="fixme" v="consider natural=peak for the most distinct mountains in the district" />
		<tag k="name" v="Vassdalsfjellet" />
		<tag k="natural" v="hill" />
		<tag k="place" v="locality" />
		<tag k="ssr:stedsnr" v="229007" />
	</node>
	<node id="-607007" lat="63.1083333367" lon="8.73989443934">
		<tag k="name" v="Litlgrøndalen" />
		<tag k="natural" v="valley" />
		<tag k="place" v="locality" />
		<tag k="ssr:stedsnr" v="229002" />
	</node>
	<node id="-607006" lat="63.1431416672" lon="8.28846388476">
		<tag k="name" v="Bagg-Ingeborgslåa" />
		<tag k="natural" v="slope" />
		<tag k="place" v="locality" />
		<tag k="ssr:stedsnr" v="226957" />
	</node>
	<node id="-607001" lat="63.0582749981" lon="8.3123138853">
		<tag k="name" v="Durmålhaugen" />
		<tag k="natural" v="hill" />
		<tag k="place" v="locality" />
		<tag k="ssr:stedsnr" v="202801" />
	</node>
	<node id="-606999" lat="63.1182944489" lon="8.41502778426">
		<tag k="name" v="Hennadalen" />
		<tag k="natural" v="valley" />
		<tag k="place" v="locality" />
		<tag k="ssr:stedsnr" v="195985" />
	</node>
	<node id="-606992" lat="63.1100888878" lon="8.64418333455">
		<tag k="fixme" v="consider natural=peak for the most distinct mountains in the district" />
		<tag k="name" v="Fjellmannen" />
		<tag k="natural" v="hill" />
		<tag k="place" v="locality" />
		<tag k="ssr:stedsnr" v="194994" />
	</node>
	<node id="-606991" lat="63.1240555512" lon="8.4815305472">
		<tag k="name" v="Otnesdalen" />
		<tag k="natural" v="valley" />
		<tag k="place" v="locality" />
		<tag k="ssr:stedsnr" v="194977" />
	</node>
	<node id="-606980" lat="63.1274555565" lon="8.77273611235">
		<tag k="name" v="Hardbakkbotnen" />
		<tag k="natural" v="valley" />
		<tag k="place" v="locality" />
		<tag k="ssr:stedsnr" v="194694" />
	</node>
	<node id="-606973" lat="63.1716611147" lon="8.75511111992">
		<tag k="name" v="Vollhaugen" />
		<tag k="natural" v="hill" />
		<tag k="place" v="locality" />
		<tag k="ssr:stedsnr" v="169984" />
	</node>
	<node id="-606970" lat="63.0806277756" lon="8.67590000951">
		<tag k="name" v="Indre lia" />
		<tag k="natural" v="slope" />
		<tag k="place" v="locality" />
		<tag k="ssr:stedsnr" v="169890" />
	</node>
	<node id="-606966" lat="63.1800833373" lon="8.69080000084">
		<tag k="name" v="Sommarfjøsvåttå" />
		<tag k="natural" v="slope" />
		<tag k="place" v="locality" />
		<tag k="ssr:stedsnr" v="169860" />
	</node>
	<node id="-606965" lat="63.1806583304" lon="8.67793888464">
		<tag k="name" v="Sigriskaret" />
		<tag k="natural" v="hill" />
		<tag k="place" v="locality" />
		<tag k="ssr:stedsnr" v="169858" />
	</node>
	<node id="-606964" lat="63.1467055571" lon="8.77770555066">
		<tag k="name" v="Aksla" />
		<tag k="place" v="locality" />
		<tag k="ssr:stedsnr" v="169829" />
	</node>
	<node id="-606961" lat="63.1271416635" lon="8.78555277294">
		<tag k="name" v="Dalafjellstigen" />
		<tag k="natural" v="valley" />
		<tag k="place" v="locality" />
		<tag k="ssr:stedsnr" v="169742" />
	</node>
	<node id="-606960" lat="63.1619027792" lon="8.58539443561">
		<tag k="fixme" v="consider natural=peak for the most distinct mountains in the district" />
		<tag k="name" v="Dyråsen" />
		<tag k="natural" v="hill" />
		<tag k="place" v="locality" />
		<tag k="ssr:stedsnr" v="169738" />
	</node>
	<node id="-606959" lat="63.1594416653" lon="8.55231943788">
		<tag k="name" v="Oddberget" />
		<tag k="natural" v="hill" />
		<tag k="place" v="locality" />
		<tag k="ssr:stedsnr" v="169706" />
	</node>
	<node id="-606958" lat="63.1449972186" lon="8.74158611234">
		<tag k="name" v="Jolia" />
		<tag k="natural" v="valley" />
		<tag k="place" v="locality" />
		<tag k="ssr:stedsnr" v="169700" />
	</node>
	<node id="-606956" lat="63.1543083314" lon="8.62395278611">
		<tag k="name" v="Kongslihaugen" />
		<tag k="natural" v="hill" />
		<tag k="place" v="locality" />
		<tag k="ssr:stedsnr" v="169687" />
	</node>
	<node id="-606953" lat="63.0920027771" lon="8.49484721868">
		<tag k="name" v="Jøsvasshalsen" />
		<tag k="natural" v="valley" />
		<tag k="place" v="locality" />
		<tag k="ssr:stedsnr" v="169656" />
	</node>
	<node id="-606951" lat="63.1037972218" lon="8.48526389415">
		<tag k="name" v="Tverrdalen" />
		<tag k="natural" v="valley" />
		<tag k="place" v="locality" />
		<tag k="ssr:stedsnr" v="169650" />
	</node>
	<node id="-606950" lat="63.1311305516" lon="8.40990555067">
		<tag k="name" v="Høgbenken" />
		<tag k="natural" v="hill" />
		<tag k="place" v="locality" />
		<tag k="ssr:stedsnr" v="169578" />
	</node>
	<node id="-606947" lat="63.1380500004" lon="8.4563861148">
		<tag k="name" v="Mortberget" />
		<tag k="natural" v="hill" />
		<tag k="place" v="locality" />
		<tag k="ssr:stedsnr" v="169558" />
	</node>
	<node id="-606945" lat="63.1356388862" lon="8.64019722076">
		<tag k="name" v="Grøndalen" />
		<tag k="natural" v="valley" />
		<tag k="place" v="locality" />
		<tag k="ssr:stedsnr" v="169490" />
	</node>
	<node id="-606944" lat="63.1219583352" lon="8.20581944306">
		<tag k="name" v="Midtre dalalia" />
		<tag k="natural" v="slope" />
		<tag k="place" v="locality" />
		<tag k="ssr:stedsnr" v="169483" />
	</node>
	<node id="-606943" lat="63.0913500015" lon="8.54202221941">
		<tag k="name" v="Trøhaugen" />
		<tag k="natural" v="hill" />
		<tag k="place" v="locality" />
		<tag k="ssr:stedsnr" v="169479" />
	</node>
	<node id="-606942" lat="63.0913888921" lon="8.54808056153">
		<tag k="name" v="Seterhaugen" />
		<tag k="natural" v="hill" />
		<tag k="place" v="locality" />
		<tag k="ssr:stedsnr" v="169477" />
	</node>
	<node id="-606940" lat="63.0986055527" lon="8.63346388785">
		<tag k="name" v="Svartberget" />
		<tag k="natural" v="hill" />
		<tag k="place" v="locality" />
		<tag k="ssr:stedsnr" v="169412" />
	</node>
	<node id="-606939" lat="63.1352416707" lon="8.2240555457">
		<tag k="name" v="Dalen" />
		<tag k="natural" v="valley" />
		<tag k="place" v="locality" />
		<tag k="ssr:stedsnr" v="169270" />
	</node>
	<node id="-606935" lat="63.0680222206" lon="8.36992499541">
		<tag k="name" v="Seterhaugen" />
		<tag k="natural" v="hill" />
		<tag k="place" v="locality" />
		<tag k="ssr:stedsnr" v="169217" />
	</node>
	<node id="-606933" lat="63.1586361139" lon="8.68504167617">
		<tag k="name" v="Heimre Brekkan" />
		<tag k="natural" v="slope" />
		<tag k="place" v="locality" />
		<tag k="ssr:stedsnr" v="169209" />
	</node>
	<node id="-606931" lat="63.056641667" lon="8.34122222763">
		<tag k="name" v="Ørnhamaren" />
		<tag k="natural" v="cliff" />
		<tag k="ssr:stedsnr" v="169151" />
	</node>
	<node id="-606930" lat="63.0506638855" lon="8.38343889738">
		<tag k="name" v="Breiskaret" />
		<tag k="natural" v="valley" />
		<tag k="place" v="locality" />
		<tag k="ssr:stedsnr" v="169147" />
	</node>
	<node id="-606929" lat="63.0600111088" lon="8.37740554879">
		<tag k="name" v="Tuvå" />
		<tag k="natural" v="hill" />
		<tag k="place" v="locality" />
		<tag k="ssr:stedsnr" v="169144" />
	</node>
	<node id="-606926" lat="63.1251499991" lon="8.271244443">
		<tag k="name" v="Skarphaugen" />
		<tag k="natural" v="hill" />
		<tag k="place" v="locality" />
		<tag k="ssr:stedsnr" v="169063" />
	</node>
	<node id="-606925" lat="63.124674998" lon="8.68675834108">
		<tag k="name" v="Storheia" />
		<tag k="natural" v="hill" />
		<tag k="place" v="locality" />
		<tag k="ssr:stedsnr" v="169029" />
	</node>
	<node id="-606921" lat="63.0785888856" lon="8.41877222128">
		<tag k="name" v="Storhammaren" />
		<tag k="natural" v="hill" />
		<tag k="place" v="locality" />
		<tag k="ssr:stedsnr" v="168812" />
	</node>
	<node id="-606919" lat="63.0791194416" lon="8.23628611194">
		<tag k="name" v="Halsalia" />
		<tag k="natural" v="slope" />
		<tag k="place" v="locality" />
		<tag k="ssr:stedsnr" v="168670" />
	</node>
	<node id="-606918" lat="63.1279888918" lon="8.52433332417">
		<tag k="name" v="Storhaugen" />
		<tag k="natural" v="hill" />
		<tag k="place" v="locality" />
		<tag k="ssr:stedsnr" v="168661" />
	</node>
	<node id="-606917" lat="63.1492194411" lon="8.32619166123">
		<tag k="name" v="Støberga" />
		<tag k="natural" v="hill" />
		<tag k="place" v="locality" />
		<tag k="ssr:stedsnr" v="168600" />
	</node>
	<node id="-606914" lat="63.1229083292" lon="8.23344166879">
		<tag k="name" v="Skreå" />
		<tag k="place" v="locality" />
		<tag k="ssr:stedsnr" v="168466" />
	</node>
	<node id="-606912" lat="63.113369449" lon="8.1887777792">
		<tag k="name" v="Tjærehjellen" />
		<tag k="place" v="locality" />
		<tag k="ssr:stedsnr" v="168437" />
	</node>
	<node id="-606911" lat="63.0416861127" lon="8.29146666177">
		<tag k="name" v="Slåa" />
		<tag k="place" v="locality" />
		<tag k="ssr:stedsnr" v="168296" />
	</node>
	<node id="-606910" lat="63.0284666638" lon="8.27473889321">
		<tag k="name" v="Ringalia" />
		<tag k="natural" v="slope" />
		<tag k="place" v="locality" />
		<tag k="ssr:stedsnr" v="168293" />
	</node>
	<node id="-606906" lat="63.121147225" lon="8.34844722414">
		<tag k="name" v="Glåmshaugen" />
		<tag k="natural" v="hill" />
		<tag k="place" v="locality" />
		<tag k="ssr:stedsnr" v="168074" />
	</node>
	<node id="-606904" lat="63.0915583312" lon="8.2913749989">
		<tag k="name" v="Storåkerhaugen" />
		<tag k="natural" v="hill" />
		<tag k="place" v="locality" />
		<tag k="ssr:stedsnr" v="168012" />
	</node>
	<node id="-606901" lat="63.1417000011" lon="8.3032027815">
		<tag k="name" v="Bjønndalen" />
		<tag k="natural" v="valley" />
		<tag k="place" v="locality" />
		<tag k="ssr:stedsnr" v="165962" />
	</node>
	<node id="-606891" lat="63.0915861139" lon="8.20673889056">
		<tag k="fixme" v="consider natural=peak for the most distinct mountains in the district" />
		<tag k="name" v="Knoken" />
		<tag k="natural" v="hill" />
		<tag k="place" v="locality" />
		<tag k="ssr:stedsnr" v="134379" />
	</node>
	<node id="-606888" lat="63.1143472197" lon="8.46309166017">
		<tag k="fixme" v="consider natural=peak for the most distinct mountains in the district" />
		<tag k="name" v="Nonsfjellet" />
		<tag k="natural" v="hill" />
		<tag k="place" v="locality" />
		<tag k="ssr:stedsnr" v="133988" />
	</node>
	<node id="-606885" lat="63.1173527768" lon="8.50204721771">
		<tag k="name" v="Brakskardet" />
		<tag k="natural" v="valley" />
		<tag k="place" v="locality" />
		<tag k="ssr:stedsnr" v="133973" />
	</node>
	<node id="-606877" lat="63.0802555552" lon="8.49872223106">
		<tag k="name" v="Ryphaugen" />
		<tag k="natural" v="hill" />
		<tag k="place" v="locality" />
		<tag k="ssr:stedsnr" v="133912" />
	</node>
	<node id="-606876" lat="63.0746861097" lon="8.38180000391">
		<tag k="name" v="Svarthammaren" />
		<tag k="natural" v="hill" />
		<tag k="place" v="locality" />
		<tag k="ssr:stedsnr" v="133913" />
	</node>
	<node id="-606874" lat="63.0977305599" lon="8.49119166574">
		<tag k="fixme" v="consider natural=peak for the most distinct mountains in the district" />
		<tag k="name" v="Storfjellet" />
		<tag k="natural" v="hill" />
		<tag k="place" v="locality" />
		<tag k="ssr:stedsnr" v="133882" />
	</node>
	<node id="-606872" lat="63.1107416707" lon="8.16631944363">
		<tag k="name" v="Fjærvikhammaren" />
		<tag k="natural" v="hill" />
		<tag k="place" v="locality" />
		<tag k="ssr:stedsnr" v="133323" />
	</node>
	<node id="-606867" lat="63.1705083328" lon="8.67982221613">
		<tag k="name" v="Storhaugen" />
		<tag k="natural" v="hill" />
		<tag k="place" v="locality" />
		<tag k="ssr:stedsnr" v="109816" />
	</node>
	<node id="-606866" lat="63.145505557" lon="8.78941110651">
		<tag k="name" v="Breimyrhalsen" />
		<tag k="natural" v="valley" />
		<tag k="place" v="locality" />
		<tag k="ssr:stedsnr" v="109807" />
	</node>
	<node id="-606864" lat="63.1268972205" lon="8.45911667071">
		<tag k="name" v="Seterbakken" />
		<tag k="natural" v="slope" />
		<tag k="place" v="locality" />
		<tag k="ssr:stedsnr" v="109660" />
	</node>
	<node id="-606863" lat="63.1220472206" lon="8.4685000064">
		<tag k="name" v="Heiane" />
		<tag k="natural" v="hill" />
		<tag k="place" v="locality" />
		<tag k="ssr:stedsnr" v="109649" />
	</node>
	<node id="-606862" lat="63.0940666668" lon="8.44306112051">
		<tag k="name" v="Nordre Snerlia" />
		<tag k="natural" v="slope" />
		<tag k="place" v="locality" />
		<tag k="ssr:stedsnr" v="109641" />
	</node>
	<node id="-606860" lat="63.1008138929" lon="8.46224445267">
		<tag k="name" v="Seterbakken" />
		<tag k="natural" v="slope" />
		<tag k="place" v="locality" />
		<tag k="ssr:stedsnr" v="109596" />
	</node>
	<node id="-606857" lat="63.1279722208" lon="8.44256944195">
		<tag k="name" v="Svartberga" />
		<tag k="natural" v="hill" />
		<tag k="place" v="locality" />
		<tag k="ssr:stedsnr" v="109556" />
	</node>
	<node id="-606852" lat="63.1448944418" lon="8.32286945093">
		<tag k="name" v="Slåa" />
		<tag k="natural" v="slope" />
		<tag k="place" v="locality" />
		<tag k="ssr:stedsnr" v="109906" />
	</node>
	<node id="-606851" lat="63.0949444474" lon="8.63442222888">
		<tag k="name" v="Djupdalen" />
		<tag k="natural" v="valley" />
		<tag k="place" v="locality" />
		<tag k="ssr:stedsnr" v="109392" />
	</node>
	<node id="-606847" lat="63.0760194405" lon="8.26760556173">
		<tag k="name" v="Aspahaugan" />
		<tag k="natural" v="hill" />
		<tag k="place" v="locality" />
		<tag k="ssr:stedsnr" v="109230" />
	</node>
	<node id="-606846" lat="63.1624861085" lon="8.69301943979">
		<tag k="name" v="Stuerøstet" />
		<tag k="natural" v="slope" />
		<tag k="place" v="locality" />
		<tag k="ssr:stedsnr" v="109224" />
	</node>
	<node id="-606844" lat="63.0637611101" lon="8.37305277207">
		<tag k="name" v="Tunga" />
		<tag k="natural" v="ridge" />
		<tag k="place" v="locality" />
		<tag k="ssr:stedsnr" v="109211" />
	</node>
	<node id="-606842" lat="63.0615416654" lon="8.34793610754">
		<tag k="name" v="Yttergardslia" />
		<tag k="natural" v="slope" />
		<tag k="place" v="locality" />
		<tag k="ssr:stedsnr" v="109167" />
	</node>
	<node id="-606840" lat="63.0963194417" lon="8.64271111244">
		<tag k="name" v="Rusklikammen" />
		<tag k="natural" v="ridge" />
		<tag k="place" v="locality" />
		<tag k="ssr:stedsnr" v="109126" />
	</node>
	<node id="-606838" lat="63.0897694473" lon="8.3767027841">
		<tag k="name" v="Huslia" />
		<tag k="natural" v="slope" />
		<tag k="place" v="locality" />
		<tag k="ssr:stedsnr" v="109045" />
	</node>
	<node id="-606836" lat="63.1079888922" lon="8.2200500076">
		<tag k="name" v="Kvennhushaugen" />
		<tag k="natural" v="hill" />
		<tag k="place" v="locality" />
		<tag k="ssr:stedsnr" v="109447" />
	</node>
	<node id="-606834" lat="63.1713666635" lon="8.72576666753">
		<tag k="fixme" v="consider natural=peak for the most distinct mountains in the district" />
		<tag k="name" v="Skoltan" />
		<tag k="natural" v="hill" />
		<tag k="place" v="locality" />
		<tag k="ssr:stedsnr" v="108979" />
	</node>
	<node id="-606833" lat="63.1824499973" lon="8.74615277861">
		<tag k="name" v="Aureberget" />
		<tag k="natural" v="hill" />
		<tag k="place" v="locality" />
		<tag k="ssr:stedsnr" v="108974" />
	</node>
	<node id="-606832" lat="63.1767416626" lon="8.7543611053">
		<tag k="fixme" v="consider natural=peak for the most distinct mountains in the district" />
		<tag k="name" v="Vollfjellet" />
		<tag k="natural" v="hill" />
		<tag k="place" v="locality" />
		<tag k="ssr:stedsnr" v="108971" />
	</node>
	<node id="-606829" lat="63.1368722221" lon="8.61502778308">
		<tag k="name" v="Gaddtjønnlia" />
		<tag k="natural" v="slope" />
		<tag k="place" v="locality" />
		<tag k="ssr:stedsnr" v="108820" />
	</node>
	<node id="-606828" lat="63.1106666625" lon="8.44174444585">
		<tag k="name" v="Slåkkå" />
		<tag k="natural" v="slope" />
		<tag k="place" v="locality" />
		<tag k="ssr:stedsnr" v="108771" />
	</node>
	<node id="-606827" lat="63.1229833348" lon="8.44604721795">
		<tag k="name" v="Mærraglenna" />
		<tag k="natural" v="slope" />
		<tag k="place" v="locality" />
		<tag k="ssr:stedsnr" v="108766" />
	</node>
	<node id="-606826" lat="63.102141667" lon="8.18709166901">
		<tag k="name" v="Katrahamran" />
		<tag k="natural" v="hill" />
		<tag k="place" v="locality" />
		<tag k="ssr:stedsnr" v="108752" />
	</node>
	<node id="-606825" lat="63.1041083316" lon="8.22191666903">
		<tag k="name" v="Rognlia" />
		<tag k="natural" v="slope" />
		<tag k="place" v="locality" />
		<tag k="ssr:stedsnr" v="108729" />
	</node>
	<node id="-606824" lat="63.0950916675" lon="8.25825833562">
		<tag k="fixme" v="consider natural=peak for the most distinct mountains in the district" />
		<tag k="name" v="Utrapet" />
		<tag k="natural" v="hill" />
		<tag k="place" v="locality" />
		<tag k="ssr:stedsnr" v="108726" />
	</node>
	<node id="-606823" lat="63.0977055533" lon="8.20973611541">
		<tag k="name" v="Brenthaugen" />
		<tag k="natural" v="hill" />
		<tag k="place" v="locality" />
		<tag k="ssr:stedsnr" v="108720" />
	</node>
	<node id="-606821" lat="63.1329444401" lon="8.70434722698">
		<tag k="name" v="Storvasslia" />
		<tag k="natural" v="slope" />
		<tag k="place" v="locality" />
		<tag k="ssr:stedsnr" v="108714" />
	</node>
	<node id="-606820" lat="63.0723916649" lon="8.22842778486">
		<tag k="name" v="Halsabakken" />
		<tag k="natural" v="slope" />
		<tag k="place" v="locality" />
		<tag k="ssr:stedsnr" v="108680" />
	</node>
	<node id="-606817" lat="63.1696694484" lon="8.7149111062">
		<tag k="name" v="Litldalsheia" />
		<tag k="natural" v="hill" />
		<tag k="place" v="locality" />
		<tag k="ssr:stedsnr" v="108669" />
	</node>
	<node id="-606815" lat="63.1268861135" lon="8.6276166704">
		<tag k="name" v="Seterhaugen" />
		<tag k="natural" v="hill" />
		<tag k="place" v="locality" />
		<tag k="ssr:stedsnr" v="108559" />
	</node>
	<node id="-606814" lat="63.1412805573" lon="8.69515833026">
		<tag k="name" v="Slettfjellryggen" />
		<tag k="natural" v="ridge" />
		<tag k="place" v="locality" />
		<tag k="ssr:stedsnr" v="108491" />
	</node>
	<node id="-606813" lat="63.1164499965" lon="8.2363277701">
		<tag k="name" v="Almlia" />
		<tag k="natural" v="slope" />
		<tag k="place" v="locality" />
		<tag k="ssr:stedsnr" v="108478" />
	</node>
	<node id="-606808" lat="63.0417138885" lon="8.296269439">
		<tag k="name" v="Kariskaret" />
		<tag k="natural" v="valley" />
		<tag k="place" v="locality" />
		<tag k="ssr:stedsnr" v="108295" />
	</node>
	<node id="-606807" lat="63.1281055594" lon="8.2124416588">
		<tag k="name" v="Moldstihaugen" />
		<tag k="natural" v="hill" />
		<tag k="place" v="locality" />
		<tag k="ssr:stedsnr" v="108293" />
	</node>
	<node id="-606805" lat="63.1550194485" lon="8.65397500773">
		<tag k="name" v="Hesthaugen" />
		<tag k="natural" v="hill" />
		<tag k="place" v="locality" />
		<tag k="ssr:stedsnr" v="108214" />
	</node>
	<node id="-606804" lat="63.116202777" lon="8.68395834187">
		<tag k="fixme" v="consider natural=peak for the most distinct mountains in the district" />
		<tag k="name" v="Slettfjellet" />
		<tag k="natural" v="hill" />
		<tag k="place" v="locality" />
		<tag k="ssr:stedsnr" v="108039" />
	</node>
	<node id="-606803" lat="63.118944448" lon="8.68119165704">
		<tag k="name" v="Skrommeldalan" />
		<tag k="natural" v="valley" />
		<tag k="place" v="locality" />
		<tag k="ssr:stedsnr" v="108035" />
	</node>
	<node id="-606801" lat="63.1266083332" lon="8.66180555304">
		<tag k="name" v="Vasslia" />
		<tag k="natural" v="slope" />
		<tag k="place" v="locality" />
		<tag k="ssr:stedsnr" v="108017" />
	</node>
	<node id="-606800" lat="63.1126249988" lon="8.7192638949">
		<tag k="name" v="Grønlia" />
		<tag k="natural" v="slope" />
		<tag k="place" v="locality" />
		<tag k="ssr:stedsnr" v="108005" />
	</node>
	<node id="-606796" lat="63.1208472197" lon="8.55910000661">
		<tag k="name" v="Ulshammaren" />
		<tag k="natural" v="hill" />
		<tag k="place" v="locality" />
		<tag k="ssr:stedsnr" v="107624" />
	</node>
	<node id="-606794" lat="63.0920472211" lon="8.28713889774">
		<tag k="name" v="Ruggelhaugen" />
		<tag k="natural" v="hill" />
		<tag k="place" v="locality" />
		<tag k="ssr:stedsnr" v="107008" />
	</node>
	<node id="-606792" lat="63.1395416694" lon="8.28248889554">
		<tag k="name" v="Skarbakken" />
		<tag k="natural" v="slope" />
		<tag k="place" v="locality" />
		<tag k="ssr:stedsnr" v="106948" />
	</node>
	<node id="-606790" lat="63.084652776" lon="8.4689333302">
		<tag k="fixme" v="consider natural=peak for the most distinct mountains in the district" />
		<tag k="name" v="Klompen" />
		<tag k="natural" v="hill" />
		<tag k="place" v="locality" />
		<tag k="ssr:stedsnr" v="106933" />
	</node>
	<node id="-606789" lat="63.0562250002" lon="8.28728332483">
		<tag k="name" v="Ekehaugen" />
		<tag k="natural" v="hill" />
		<tag k="place" v="locality" />
		<tag k="ssr:stedsnr" v="108118" />
	</node>
	<node id="-606787" lat="63.1170222229" lon="8.70369999378">
		<tag k="fixme" v="consider natural=peak for the most distinct mountains in the district" />
		<tag k="name" v="Slettfjellet" />
		<tag k="natural" v="hill" />
		<tag k="place" v="locality" />
		<tag k="ssr:stedsnr" v="108108" />
	</node>
	<node id="-606780" lat="63.1388749978" lon="8.25829999437">
		<tag k="name" v="Rambjøra" />
		<tag k="natural" v="ridge" />
		<tag k="place" v="locality" />
		<tag k="ssr:stedsnr" v="80768" />
	</node>
	<node id="-606779" lat="63.1078833368" lon="8.47720277836">
		<tag k="fixme" v="consider natural=peak for the most distinct mountains in the district" />
		<tag k="name" v="Tindan" />
		<tag k="natural" v="hill" />
		<tag k="place" v="locality" />
		<tag k="ssr:stedsnr" v="73991" />
	</node>
	<node id="-606774" lat="63.1169916686" lon="8.45011944292">
		<tag k="name" v="Storskardet" />
		<tag k="natural" v="valley" />
		<tag k="place" v="locality" />
		<tag k="ssr:stedsnr" v="73979" />
	</node>
	<node id="-606773" lat="63.1375055539" lon="8.26842778491">
		<tag k="fixme" v="consider natural=peak for the most distinct mountains in the district" />
		<tag k="name" v="Strandalia" />
		<tag k="natural" v="hill" />
		<tag k="place" v="locality" />
		<tag k="ssr:stedsnr" v="73954" />
	</node>
	<node id="-606768" lat="63.0650611098" lon="8.43661666913">
		<tag k="fixme" v="consider natural=peak for the most distinct mountains in the district" />
		<tag k="name" v="Stabben" />
		<tag k="natural" v="hill" />
		<tag k="place" v="locality" />
		<tag k="ssr:stedsnr" v="73916" />
	</node>
	<node id="-606766" lat="63.0752749968" lon="8.65517777421">
		<tag k="name" v="Båsan" />
		<tag k="natural" v="hill" />
		<tag k="place" v="locality" />
		<tag k="ssr:stedsnr" v="73910" />
	</node>
	<node id="-606759" lat="63.1387361092" lon="8.73867222501">
		<tag k="fixme" v="consider natural=peak for the most distinct mountains in the district" />
		<tag k="name" v="Blåfjellet" />
		<tag k="natural" v="hill" />
		<tag k="place" v="locality" />
		<tag k="ssr:stedsnr" v="73715" />
	</node>
	<node id="-606758" lat="63.1214666643" lon="8.7530027842">
		<tag k="fixme" v="consider natural=peak for the most distinct mountains in the district" />
		<tag k="name" v="Grønlifjellet" />
		<tag k="natural" v="hill" />
		<tag k="place" v="locality" />
		<tag k="ssr:stedsnr" v="73698" />
	</node>
	<node id="-606756" lat="63.1765750007" lon="8.65995000614">
		<tag k="name" v="Kamman" />
		<tag k="natural" v="ridge" />
		<tag k="place" v="locality" />
		<tag k="ssr:stedsnr" v="48907" />
	</node>
	<node id="-606748" lat="63.0955166687" lon="8.42855000722">
		<tag k="name" v="Ryphaugen" />
		<tag k="natural" v="hill" />
		<tag k="place" v="locality" />
		<tag k="ssr:stedsnr" v="48655" />
	</node>
	<node id="-606747" lat="63.0762333364" lon="8.23101944387">
		<tag k="name" v="Øverlandet" />
		<tag k="natural" v="slope" />
		<tag k="place" v="locality" />
		<tag k="ssr:stedsnr" v="48643" />
	</node>
	<node id="-606746" lat="63.104488887" lon="8.50847778556">
		<tag k="name" v="Vilia" />
		<tag k="natural" v="slope" />
		<tag k="place" v="locality" />
		<tag k="ssr:stedsnr" v="48631" />
	</node>
	<node id="-606745" lat="63.1019194458" lon="8.45767222785">
		<tag k="name" v="Høgbenken" />
		<tag k="place" v="locality" />
		<tag k="ssr:stedsnr" v="48608" />
	</node>
	<node id="-606744" lat="63.0865583292" lon="8.4774499935">
		<tag k="name" v="Grønskårgangen" />
		<tag k="place" v="locality" />
		<tag k="ssr:stedsnr" v="48598" />
	</node>
	<node id="-606743" lat="63.0508527806" lon="8.24831667065">
		<tag k="name" v="Slettlidalen" />
		<tag k="natural" v="valley" />
		<tag k="place" v="locality" />
		<tag k="ssr:stedsnr" v="48591" />
	</node>
	<node id="-606742" lat="63.045394443" lon="8.2524361204">
		<tag k="name" v="Tømmerbakken" />
		<tag k="natural" v="slope" />
		<tag k="place" v="locality" />
		<tag k="ssr:stedsnr" v="48587" />
	</node>
	<node id="-606740" lat="63.1301583332" lon="8.42376110268">
		<tag k="name" v="Tronsvahaugen" />
		<tag k="natural" v="hill" />
		<tag k="place" v="locality" />
		<tag k="ssr:stedsnr" v="48542" />
	</node>
	<node id="-606739" lat="63.1355055557" lon="8.42047500676">
		<tag k="name" v="Skarphaugåsen" />
		<tag k="natural" v="hill" />
		<tag k="place" v="locality" />
		<tag k="ssr:stedsnr" v="48543" />
	</node>
	<node id="-606738" lat="63.1276222195" lon="8.39908333938">
		<tag k="name" v="Trømoen" />
		<tag k="place" v="locality" />
		<tag k="ssr:stedsnr" v="48530" />
	</node>
	<node id="-606737" lat="63.1381611083" lon="8.45000277493">
		<tag k="name" v="Litlklubba" />
		<tag k="natural" v="hill" />
		<tag k="place" v="locality" />
		<tag k="ssr:stedsnr" v="48509" />
	</node>
	<node id="-606735" lat="63.1493388847" lon="8.76228889344">
		<tag k="name" v="Høgsvadalen" />
		<tag k="natural" v="valley" />
		<tag k="place" v="locality" />
		<tag k="ssr:stedsnr" v="48499" />
	</node>
	<node id="-606732" lat="63.1385749972" lon="8.64861110258">
		<tag k="fixme" v="consider natural=peak for the most distinct mountains in the district" />
		<tag k="name" v="Slettfjellet" />
		<tag k="natural" v="hill" />
		<tag k="place" v="locality" />
		<tag k="ssr:stedsnr" v="48453" />
	</node>
	<node id="-606730" lat="63.090555559" lon="8.54829167396">
		<tag k="name" v="Seterhalsen" />
		<tag k="natural" v="valley" />
		<tag k="place" v="locality" />
		<tag k="ssr:stedsnr" v="48443" />
	</node>
	<node id="-606729" lat="63.0741277816" lon="8.60229444534">
		<tag k="name" v="Ytre Bjønnahammaren" />
		<tag k="natural" v="hill" />
		<tag k="place" v="locality" />
		<tag k="ssr:stedsnr" v="48438" />
	</node>
	<node id="-606728" lat="63.0829083368" lon="8.57847222475">
		<tag k="name" v="Seterlia" />
		<tag k="natural" v="slope" />
		<tag k="place" v="locality" />
		<tag k="ssr:stedsnr" v="48429" />
	</node>
	<node id="-606725" lat="63.1050805565" lon="8.59693611231">
		<tag k="name" v="Sandneshaugen" />
		<tag k="natural" v="hill" />
		<tag k="place" v="locality" />
		<tag k="ssr:stedsnr" v="48352" />
	</node>
	<node id="-606724" lat="63.1001333327" lon="8.57953333997">
		<tag k="name" v="Tverlibrona" />
		<tag k="natural" v="ridge" />
		<tag k="place" v="locality" />
		<tag k="ssr:stedsnr" v="48351" />
	</node>
	<node id="-606719" lat="63.0675166648" lon="8.34978888426">
		<tag k="name" v="Kjerringholkammane" />
		<tag k="natural" v="ridge" />
		<tag k="place" v="locality" />
		<tag k="ssr:stedsnr" v="48206" />
	</node>
	<node id="-606717" lat="63.0667000027" lon="8.34737500612">
		<tag k="name" v="Langhola" />
		<tag k="natural" v="valley" />
		<tag k="place" v="locality" />
		<tag k="ssr:stedsnr" v="48199" />
	</node>
	<node id="-606712" lat="63.0935638901" lon="8.37947221562">
		<tag k="name" v="Hjellberget" />
		<tag k="natural" v="hill" />
		<tag k="place" v="locality" />
		<tag k="ssr:stedsnr" v="48045" />
	</node>
	<node id="-606711" lat="63.0972861131" lon="8.26371389092">
		<tag k="name" v="Knubben" />
		<tag k="natural" v="hill" />
		<tag k="place" v="locality" />
		<tag k="ssr:stedsnr" v="48002" />
	</node>
	<node id="-606709" lat="63.0912861136" lon="8.33467222785">
		<tag k="name" v="Merraholet" />
		<tag k="natural" v="valley" />
		<tag k="place" v="locality" />
		<tag k="ssr:stedsnr" v="47986" />
	</node>
	<node id="-606708" lat="63.179669447" lon="8.72707500749">
		<tag k="name" v="Varghyllene" />
		<tag k="place" v="locality" />
		<tag k="ssr:stedsnr" v="47978" />
	</node>
	<node id="-606707" lat="63.1017194412" lon="8.3683999952">
		<tag k="name" v="Seterlia" />
		<tag k="natural" v="slope" />
		<tag k="place" v="locality" />
		<tag k="ssr:stedsnr" v="47972" />
	</node>
	<node id="-606706" lat="63.1350111127" lon="8.32733333588">
		<tag k="name" v="Høglidalen" />
		<tag k="natural" v="valley" />
		<tag k="place" v="locality" />
		<tag k="ssr:stedsnr" v="47915" />
	</node>
	<node id="-606704" lat="63.134258334" lon="8.62270000264">
		<tag k="name" v="Trøbuslettet" />
		<tag k="place" v="locality" />
		<tag k="ssr:stedsnr" v="47824" />
	</node>
	<node id="-606703" lat="63.065558332" lon="8.43766943899">
		<tag k="fixme" v="consider natural=peak for the most distinct mountains in the district" />
		<tag k="name" v="Blåfjellstabben" />
		<tag k="natural" v="hill" />
		<tag k="place" v="locality" />
		<tag k="ssr:stedsnr" v="47790" />
	</node>
	<node id="-606702" lat="63.0941138865" lon="8.18156388504">
		<tag k="name" v="Høghaugen" />
		<tag k="natural" v="hill" />
		<tag k="place" v="locality" />
		<tag k="ssr:stedsnr" v="47751" />
	</node>
	<node id="-606701" lat="63.1694499973" lon="8.72816666662">
		<tag k="name" v="Fonnveglokka" />
		<tag k="place" v="locality" />
		<tag k="ssr:stedsnr" v="47683" />
	</node>
	<node id="-606700" lat="63.1543305539" lon="8.74386389759">
		<tag k="name" v="Randa" />
		<tag k="natural" v="ridge" />
		<tag k="place" v="locality" />
		<tag k="ssr:stedsnr" v="47678" />
	</node>
	<node id="-606699" lat="63.1602333321" lon="8.74750833905">
		<tag k="name" v="Skarhaugen" />
		<tag k="natural" v="hill" />
		<tag k="place" v="locality" />
		<tag k="ssr:stedsnr" v="47676" />
	</node>
	<node id="-606697" lat="63.1651333377" lon="8.71652777742">
		<tag k="fixme" v="consider natural=peak for the most distinct mountains in the district" />
		<tag k="name" v="Krona" />
		<tag k="natural" v="hill" />
		<tag k="place" v="locality" />
		<tag k="ssr:stedsnr" v="47668" />
	</node>
	<node id="-606695" lat="63.1077916646" lon="8.55474445165">
		<tag k="name" v="Engtrøslettet" />
		<tag k="place" v="locality" />
		<tag k="ssr:stedsnr" v="47612" />
	</node>
	<node id="-606694" lat="63.126336108" lon="8.51736943523">
		<tag k="name" v="Sørstihaugen" />
		<tag k="natural" v="hill" />
		<tag k="place" v="locality" />
		<tag k="ssr:stedsnr" v="47594" />
	</node>
	<node id="-606693" lat="63.1270972187" lon="8.53830278153">
		<tag k="name" v="Skreddalshammaren" />
		<tag k="natural" v="hill" />
		<tag k="place" v="locality" />
		<tag k="ssr:stedsnr" v="47589" />
	</node>
	<node id="-606690" lat="63.0313333327" lon="8.2415166575">
		<tag k="name" v="Kvalnesvikdalen" />
		<tag k="natural" v="valley" />
		<tag k="place" v="locality" />
		<tag k="ssr:stedsnr" v="47569" />
	</node>
	<node id="-606689" lat="63.0332694454" lon="8.23107499711">
		<tag k="name" v="Vettahaugen" />
		<tag k="natural" v="hill" />
		<tag k="place" v="locality" />
		<tag k="ssr:stedsnr" v="47565" />
	</node>
	<node id="-606688" lat="63.1058333334" lon="8.62528332632">
		<tag k="name" v="Kalvvikhammaren" />
		<tag k="natural" v="hill" />
		<tag k="place" v="locality" />
		<tag k="ssr:stedsnr" v="47493" />
	</node>
	<node id="-606686" lat="63.1230222251" lon="8.17002222931">
		<tag k="name" v="Hjellen" />
		<tag k="place" v="locality" />
		<tag k="ssr:stedsnr" v="47440" />
	</node>
	<node id="-606685" lat="63.1242194442" lon="8.78795000148">
		<tag k="fixme" v="consider natural=peak for the most distinct mountains in the district" />
		<tag k="name" v="Dalafjellet" />
		<tag k="natural" v="hill" />
		<tag k="place" v="locality" />
		<tag k="ssr:stedsnr" v="47347" />
	</node>
	<node id="-606684" lat="63.0345333331" lon="8.26590277742">
		<tag k="name" v="Svarthamrane" />
		<tag k="natural" v="cliff" />
		<tag k="ssr:stedsnr" v="47217" />
	</node>
	<node id="-606682" lat="63.0856388927" lon="8.66435000398">
		<tag k="name" v="Sagdalen" />
		<tag k="natural" v="valley" />
		<tag k="place" v="locality" />
		<tag k="ssr:stedsnr" v="47154" />
	</node>
	<node id="-606681" lat="63.099338893" lon="8.66927222359">
		<tag k="fixme" v="consider natural=peak for the most distinct mountains in the district" />
		<tag k="name" v="Knubben" />
		<tag k="natural" v="hill" />
		<tag k="place" v="locality" />
		<tag k="ssr:stedsnr" v="47149" />
	</node>
	<node id="-606680" lat="63.0906472217" lon="8.66865277334">
		<tag k="name" v="Markabakkan" />
		<tag k="natural" v="slope" />
		<tag k="place" v="locality" />
		<tag k="ssr:stedsnr" v="47150" />
	</node>
	<node id="-606679" lat="63.0969000007" lon="8.74425277465">
		<tag k="fixme" v="consider natural=peak for the most distinct mountains in the district" />
		<tag k="name" v="Myrholthøgfjellet" />
		<tag k="natural" v="hill" />
		<tag k="place" v="locality" />
		<tag k="ssr:stedsnr" v="47073" />
	</node>
	<node id="-606676" lat="63.1136250032" lon="8.72613055798">
		<tag k="name" v="Øykjehola" />
		<tag k="natural" v="valley" />
		<tag k="place" v="locality" />
		<tag k="ssr:stedsnr" v="47003" />
	</node>
	<node id="-606675" lat="63.1111499992" lon="8.74042500977">
		<tag k="name" v="Storgrøndalen" />
		<tag k="natural" v="valley" />
		<tag k="place" v="locality" />
		<tag k="ssr:stedsnr" v="47001" />
	</node>
	<node id="-606669" lat="63.1333502843" lon="8.80127210984">
		<tag k="fixme" v="consider natural=peak for the most distinct mountains in the district" />
		<tag k="name" v="Kvennrotfjellet" />
		<tag k="natural" v="hill" />
		<tag k="place" v="locality" />
		<tag k="ssr:stedsnr" v="25698" />
	</node>
	<node id="-606666" lat="63.1572361104" lon="8.59072777618">
		<tag k="name" v="Mehaugen" />
		<tag k="natural" v="hill" />
		<tag k="place" v="locality" />
		<tag k="ssr:stedsnr" v="13094" />
	</node>
	<node id="-606665" lat="63.1146861075" lon="8.4891888909">
		<tag k="name" v="Braket" />
		<tag k="natural" v="valley" />
		<tag k="place" v="locality" />
		<tag k="ssr:stedsnr" v="12990" />
	</node>
	<node id="-606657" lat="63.0878388866" lon="8.55488888104">
		<tag k="fixme" v="consider natural=peak for the most distinct mountains in the district" />
		<tag k="name" v="Skorven" />
		<tag k="natural" v="hill" />
		<tag k="place" v="locality" />
		<tag k="ssr:stedsnr" v="12903" />
	</node>
	<node id="-606649" lat="63.1619388896" lon="8.70334444501">
		<tag k="fixme" v="consider natural=peak for the most distinct mountains in the district" />
		<tag k="name" v="Gåsvikfjellet" />
		<tag k="natural" v="hill" />
		<tag k="place" v="locality" />
		<tag k="ssr:stedsnr" v="12073" />
	</node>
	<node id="-606645" lat="63.0781638856" lon="8.67397499055">
		<tag k="name" v="Hundhålå" />
		<tag k="natural" v="valley" />
		<tag k="place" v="locality" />
		<tag k="ssr:stedsnr" v="898902" />
	</node>
	<node id="-606644" lat="63.074008333" lon="8.64759999418">
		<tag k="name" v="Fengerkleiva" />
		<tag k="natural" v="valley" />
		<tag k="place" v="locality" />
		<tag k="ssr:stedsnr" v="898900" />
	</node>
	<node id="-606643" lat="63.1783194471" lon="8.68016111079">
		<tag k="name" v="Bytberget" />
		<tag k="natural" v="hill" />
		<tag k="place" v="locality" />
		<tag k="ssr:stedsnr" v="898862" />
	</node>
	<node id="-606642" lat="63.1680388884" lon="8.77146110242">
		<tag k="name" v="Såtlia" />
		<tag k="natural" v="slope" />
		<tag k="place" v="locality" />
		<tag k="ssr:stedsnr" v="898847" />
	</node>
	<node id="-606641" lat="63.1599916624" lon="8.77443056129">
		<tag k="name" v="Buvollan" />
		<tag k="natural" v="slope" />
		<tag k="place" v="locality" />
		<tag k="ssr:stedsnr" v="898843" />
	</node>
	<node id="-606640" lat="63.1696111131" lon="8.63642222267">
		<tag k="name" v="Stølshaugen" />
		<tag k="natural" v="hill" />
		<tag k="place" v="locality" />
		<tag k="ssr:stedsnr" v="898747" />
	</node>
	<node id="-606639" lat="63.1551611124" lon="8.57594444933">
		<tag k="name" v="Bukkhaugen" />
		<tag k="natural" v="hill" />
		<tag k="place" v="locality" />
		<tag k="ssr:stedsnr" v="898741" />
	</node>
	<node id="-606638" lat="63.1239166705" lon="8.47617499891">
		<tag k="name" v="Krokbakken" />
		<tag k="natural" v="slope" />
		<tag k="place" v="locality" />
		<tag k="ssr:stedsnr" v="898690" />
	</node>
	<node id="-606637" lat="63.1560638888" lon="8.61581110638">
		<tag k="name" v="Kongslia" />
		<tag k="natural" v="slope" />
		<tag k="place" v="locality" />
		<tag k="ssr:stedsnr" v="898691" />
	</node>
	<node id="-606633" lat="63.0452861137" lon="8.24292776964">
		<tag k="name" v="Bjønnalia" />
		<tag k="natural" v="slope" />
		<tag k="place" v="locality" />
		<tag k="ssr:stedsnr" v="898623" />
	</node>
	<node id="-606632" lat="63.1114805532" lon="8.56704721968">
		<tag k="fixme" v="consider natural=peak for the most distinct mountains in the district" />
		<tag k="name" v="Nessafjellet" />
		<tag k="natural" v="hill" />
		<tag k="place" v="locality" />
		<tag k="ssr:stedsnr" v="898602" />
	</node>
	<node id="-606630" lat="63.128455559" lon="8.40354443865">
		<tag k="name" v="Storhaugen" />
		<tag k="natural" v="hill" />
		<tag k="place" v="locality" />
		<tag k="ssr:stedsnr" v="898568" />
	</node>
	<node id="-606627" lat="63.1402555567" lon="8.66571943703">
		<tag k="name" v="Tuvå" />
		<tag k="natural" v="hill" />
		<tag k="place" v="locality" />
		<tag k="ssr:stedsnr" v="898469" />
	</node>
	<node id="-606626" lat="63.1429888866" lon="8.64819443527">
		<tag k="name" v="Pallan" />
		<tag k="place" v="locality" />
		<tag k="ssr:stedsnr" v="898470" />
	</node>
	<node id="-606625" lat="63.069327776" lon="8.59687777787">
		<tag k="name" v="Bjørnebo" />
		<tag k="place" v="locality" />
		<tag k="ssr:stedsnr" v="898459" />
	</node>
	<node id="-606623" lat="63.0815305513" lon="8.59619445322">
		<tag k="name" v="Tortlihaugen" />
		<tag k="natural" v="hill" />
		<tag k="place" v="locality" />
		<tag k="ssr:stedsnr" v="898276" />
	</node>
	<node id="-606622" lat="63.0763166703" lon="8.5891916661">
		<tag k="name" v="Langvasshalsen" />
		<tag k="natural" v="valley" />
		<tag k="place" v="locality" />
		<tag k="ssr:stedsnr" v="898275" />
	</node>
	<node id="-606621" lat="63.0828722247" lon="8.61635000043">
		<tag k="name" v="Klomphaugan" />
		<tag k="natural" v="hill" />
		<tag k="place" v="locality" />
		<tag k="ssr:stedsnr" v="898267" />
	</node>
	<node id="-606620" lat="63.0728777799" lon="8.3743722242">
		<tag k="name" v="Bettenlia" />
		<tag k="natural" v="slope" />
		<tag k="place" v="locality" />
		<tag k="ssr:stedsnr" v="898233" />
	</node>
	<node id="-606619" lat="63.1530944413" lon="8.68811944287">
		<tag k="name" v="Randa" />
		<tag k="natural" v="slope" />
		<tag k="place" v="locality" />
		<tag k="ssr:stedsnr" v="898228" />
	</node>
	<node id="-606618" lat="63.0631388886" lon="8.35440277893">
		<tag k="name" v="Skjenstoen" />
		<tag k="place" v="locality" />
		<tag k="ssr:stedsnr" v="898213" />
	</node>
	<node id="-606617" lat="63.1537166623" lon="8.6724333305">
		<tag k="name" v="Høglia" />
		<tag k="natural" v="slope" />
		<tag k="place" v="locality" />
		<tag k="ssr:stedsnr" v="898199" />
	</node>
	<node id="-606616" lat="63.0973749964" lon="8.64054165688">
		<tag k="name" v="Rusklia" />
		<tag k="natural" v="slope" />
		<tag k="place" v="locality" />
		<tag k="ssr:stedsnr" v="898137" />
	</node>
	<node id="-606615" lat="63.0997388846" lon="8.64323610809">
		<tag k="name" v="Gråberghammaren" />
		<tag k="natural" v="hill" />
		<tag k="place" v="locality" />
		<tag k="ssr:stedsnr" v="898126" />
	</node>
	<node id="-606613" lat="63.0884722246" lon="8.32272221731">
		<tag k="name" v="Sandfjøra" />
		<tag k="natural" v="slope" />
		<tag k="place" v="locality" />
		<tag k="ssr:stedsnr" v="897983" />
	</node>
	<node id="-606611" lat="63.1714527811" lon="8.74518333282">
		<tag k="name" v="Stormeldalen" />
		<tag k="natural" v="valley" />
		<tag k="place" v="locality" />
		<tag k="ssr:stedsnr" v="897975" />
	</node>
	<node id="-606610" lat="63.1301722237" lon="8.27845834251">
		<tag k="fixme" v="consider natural=peak for the most distinct mountains in the district" />
		<tag k="name" v="Hammaren" />
		<tag k="natural" v="hill" />
		<tag k="place" v="locality" />
		<tag k="ssr:stedsnr" v="897956" />
	</node>
	<node id="-606608" lat="63.1353750005" lon="8.60393332492">
		<tag k="name" v="Mehaugen" />
		<tag k="natural" v="hill" />
		<tag k="place" v="locality" />
		<tag k="ssr:stedsnr" v="897812" />
	</node>
	<node id="-606606" lat="63.1164722189" lon="8.4363861018">
		<tag k="name" v="Ormodalen" />
		<tag k="natural" v="valley" />
		<tag k="place" v="locality" />
		<tag k="ssr:stedsnr" v="897747" />
	</node>
	<node id="-606605" lat="63.1247638912" lon="8.42916388595">
		<tag k="name" v="Hjortslåpynten" />
		<tag k="place" v="locality" />
		<tag k="ssr:stedsnr" v="897744" />
	</node>
	<node id="-606603" lat="63.1003305526" lon="8.18035277676">
		<tag k="name" v="Klypa" />
		<tag k="natural" v="valley" />
		<tag k="place" v="locality" />
		<tag k="ssr:stedsnr" v="897721" />
	</node>
	<node id="-606601" lat="63.1317999971" lon="8.73022777785">
		<tag k="fixme" v="consider natural=peak for the most distinct mountains in the district" />
		<tag k="name" v="Litl Blåfjellet" />
		<tag k="natural" v="hill" />
		<tag k="place" v="locality" />
		<tag k="ssr:stedsnr" v="897691" />
	</node>
	<node id="-606600" lat="63.1438361151" lon="8.75700277876">
		<tag k="fixme" v="consider natural=peak for the most distinct mountains in the district" />
		<tag k="name" v="Hekkeltindfjellet" />
		<tag k="natural" v="hill" />
		<tag k="place" v="locality" />
		<tag k="ssr:stedsnr" v="897682" />
	</node>
	<node id="-606599" lat="63.1351111091" lon="8.75195555933">
		<tag k="name" v="Skennstøet" />
		<tag k="place" v="locality" />
		<tag k="ssr:stedsnr" v="897680" />
	</node>
	<node id="-606598" lat="63.1516666648" lon="8.72813888126">
		<tag k="name" v="Indre Dalafjellet" />
		<tag k="place" v="locality" />
		<tag k="ssr:stedsnr" v="897656" />
	</node>
	<node id="-606594" lat="63.1542333325" lon="8.71680000896">
		<tag k="name" v="Svarthammaren" />
		<tag k="natural" v="hill" />
		<tag k="place" v="locality" />
		<tag k="ssr:stedsnr" v="897619" />
	</node>
	<node id="-606591" lat="63.1357944485" lon="8.47723889042">
		<tag k="name" v="Garnberget" />
		<tag k="natural" v="hill" />
		<tag k="place" v="locality" />
		<tag k="ssr:stedsnr" v="897527" />
	</node>
	<node id="-606589" lat="63.1357222181" lon="8.22058333356">
		<tag k="name" v="Lauvhaugen" />
		<tag k="natural" v="hill" />
		<tag k="place" v="locality" />
		<tag k="ssr:stedsnr" v="897298" />
	</node>
	<node id="-606587" lat="63.1351861155" lon="8.23139166204">
		<tag k="name" v="Klubben" />
		<tag k="natural" v="hill" />
		<tag k="place" v="locality" />
		<tag k="ssr:stedsnr" v="897277" />
	</node>
	<node id="-606585" lat="63.0494250016" lon="8.3621888931">
		<tag k="name" v="Måsvassheia" />
		<tag k="natural" v="hill" />
		<tag k="place" v="locality" />
		<tag k="ssr:stedsnr" v="897163" />
	</node>
	<node id="-606584" lat="63.041627775" lon="8.29893610368">
		<tag k="fixme" v="consider natural=peak for the most distinct mountains in the district" />
		<tag k="name" v="Volemsklimpan" />
		<tag k="natural" v="hill" />
		<tag k="place" v="locality" />
		<tag k="ssr:stedsnr" v="897151" />
	</node>
	<node id="-606582" lat="63.1130944458" lon="8.7110083361">
		<tag k="name" v="Holdet" />
		<tag k="natural" v="slope" />
		<tag k="place" v="locality" />
		<tag k="ssr:stedsnr" v="897115" />
	</node>
	<node id="-606581" lat="63.1115111123" lon="8.34426110663">
		<tag k="name" v="Hjorthaugen" />
		<tag k="natural" v="hill" />
		<tag k="place" v="locality" />
		<tag k="ssr:stedsnr" v="897113" />
	</node>
	<node id="-606576" lat="63.1246083308" lon="8.27762777221">
		<tag k="name" v="Tusshaugen" />
		<tag k="natural" v="hill" />
		<tag k="place" v="locality" />
		<tag k="ssr:stedsnr" v="897069" />
	</node>
	<node id="-606575" lat="63.1202055516" lon="8.7279111149">
		<tag k="name" v="Blåliheian" />
		<tag k="natural" v="hill" />
		<tag k="place" v="locality" />
		<tag k="ssr:stedsnr" v="897002" />
	</node>
	<node id="-606572" lat="63.1261749973" lon="8.54474167052">
		<tag k="name" v="Asphaugen" />
		<tag k="natural" v="hill" />
		<tag k="place" v="locality" />
		<tag k="ssr:stedsnr" v="896652" />
	</node>
	<node id="-606571" lat="63.1219583341" lon="8.55325832594">
		<tag k="fixme" v="consider natural=peak for the most distinct mountains in the district" />
		<tag k="name" v="Tverrfjelldalen" />
		<tag k="natural" v="hill" />
		<tag k="place" v="locality" />
		<tag k="ssr:stedsnr" v="896646" />
	</node>
	<node id="-606570" lat="63.0308138889" lon="8.22620834134">
		<tag k="name" v="Almgrova" />
		<tag k="natural" v="valley" />
		<tag k="place" v="locality" />
		<tag k="ssr:stedsnr" v="896612" />
	</node>
	<node id="-606568" lat="63.083752779" lon="8.62053332901">
		<tag k="name" v="Klompen" />
		<tag k="natural" v="hill" />
		<tag k="place" v="locality" />
		<tag k="ssr:stedsnr" v="896250" />
	</node>
	<node id="-606566" lat="63.1089222232" lon="8.62877499773">
		<tag k="name" v="Kvithammaren" />
		<tag k="natural" v="hill" />
		<tag k="place" v="locality" />
		<tag k="ssr:stedsnr" v="896573" />
	</node>
	<node id="-606561" lat="63.1776999993" lon="8.7026111185">
		<tag k="name" v="Geitstokkhaugen" />
		<tag k="natural" v="hill" />
		<tag k="place" v="locality" />
		<tag k="ssr:stedsnr" v="473882" />
	</node>
	<node id="-606560" lat="63.1678305561" lon="8.58021388081">
		<tag k="name" v="Slyngsteinen" />
		<tag k="natural" v="hill" />
		<tag k="place" v="locality" />
		<tag k="ssr:stedsnr" v="473736" />
	</node>
	<node id="-606557" lat="63.0995472207" lon="8.49622223023">
		<tag k="name" v="Svaberga" />
		<tag k="natural" v="hill" />
		<tag k="place" v="locality" />
		<tag k="ssr:stedsnr" v="473659" />
	</node>
	<node id="-606556" lat="63.0566222267" lon="8.23863888336">
		<tag k="name" v="Monabakken" />
		<tag k="natural" v="slope" />
		<tag k="place" v="locality" />
		<tag k="ssr:stedsnr" v="473638" />
	</node>
	<node id="-606555" lat="63.1384194457" lon="8.64464444479">
		<tag k="fixme" v="consider natural=peak for the most distinct mountains in the district" />
		<tag k="name" v="Grøndalsfjellet" />
		<tag k="natural" v="hill" />
		<tag k="place" v="locality" />
		<tag k="ssr:stedsnr" v="473504" />
	</node>
	<node id="-606554" lat="63.142602782" lon="8.63940555253">
		<tag k="name" v="Knubban" />
		<tag k="natural" v="hill" />
		<tag k="place" v="locality" />
		<tag k="ssr:stedsnr" v="473502" />
	</node>
	<node id="-606552" lat="63.0767999988" lon="8.60860555669">
		<tag k="name" v="Middagsskaret" />
		<tag k="natural" v="valley" />
		<tag k="place" v="locality" />
		<tag k="ssr:stedsnr" v="473492" />
	</node>
	<node id="-606551" lat="63.0802444476" lon="8.59133610241">
		<tag k="name" v="Rånafjellet" />
		<tag k="natural" v="hill" />
		<tag k="place" v="locality" />
		<tag k="ssr:stedsnr" v="473295" />
	</node>
	<node id="-606550" lat="63.0866888861" lon="8.59605277864">
		<tag k="name" v="Tortlia" />
		<tag k="natural" v="slope" />
		<tag k="place" v="locality" />
		<tag k="ssr:stedsnr" v="473290" />
	</node>
	<node id="-606549" lat="63.0766305514" lon="8.3471638831">
		<tag k="name" v="Tiholet" />
		<tag k="natural" v="valley" />
		<tag k="place" v="locality" />
		<tag k="ssr:stedsnr" v="473258" />
	</node>
	<node id="-606547" lat="63.1532750044" lon="8.68286389838">
		<tag k="name" v="Inner Brekkan" />
		<tag k="natural" v="slope" />
		<tag k="place" v="locality" />
		<tag k="ssr:stedsnr" v="473238" />
	</node>
	<node id="-606545" lat="63.156447225" lon="8.68035833211">
		<tag k="name" v="Stordalen" />
		<tag k="natural" v="slope" />
		<tag k="place" v="locality" />
		<tag k="ssr:stedsnr" v="473217" />
	</node>
	<node id="-606543" lat="63.1763111138" lon="8.67094722979">
		<tag k="name" v="Ragnhildberget" />
		<tag k="natural" v="hill" />
		<tag k="place" v="locality" />
		<tag k="ssr:stedsnr" v="412834" />
	</node>
	<node id="-606542" lat="63.1522333364" lon="8.7961916714">
		<tag k="fixme" v="consider natural=peak for the most distinct mountains in the district" />
		<tag k="name" v="Seterhamran" />
		<tag k="natural" v="hill" />
		<tag k="place" v="locality" />
		<tag k="ssr:stedsnr" v="412823" />
	</node>
	<node id="-606541" lat="63.1668333377" lon="8.77601110741">
		<tag k="name" v="Hesthammaren" />
		<tag k="natural" v="hill" />
		<tag k="place" v="locality" />
		<tag k="ssr:stedsnr" v="412821" />
	</node>
	<node id="-606540" lat="63.1603666635" lon="8.78804999678">
		<tag k="name" v="Ånedalen" />
		<tag k="natural" v="valley" />
		<tag k="place" v="locality" />
		<tag k="ssr:stedsnr" v="412819" />
	</node>
	<node id="-606539" lat="63.1639166641" lon="8.77575278183">
		<tag k="name" v="Slåa" />
		<tag k="place" v="locality" />
		<tag k="ssr:stedsnr" v="412817" />
	</node>
	<node id="-606538" lat="63.1487361112" lon="8.78299166538">
		<tag k="name" v="Kukleiva" />
		<tag k="natural" v="valley" />
		<tag k="place" v="locality" />
		<tag k="ssr:stedsnr" v="412814" />
	</node>
	<node id="-606536" lat="63.0941222221" lon="8.38998610975">
		<tag k="name" v="Høglia" />
		<tag k="natural" v="slope" />
		<tag k="place" v="locality" />
		<tag k="ssr:stedsnr" v="412633" />
	</node>
	<node id="-606533" lat="63.0522333354" lon="8.25516945142">
		<tag k="name" v="Middagmåles" />
		<tag k="natural" v="valley" />
		<tag k="place" v="locality" />
		<tag k="ssr:stedsnr" v="412598" />
	</node>
	<node id="-606494" lat="63.1647499982" lon="8.74587499783">
		<tag k="name" v="Innstihamran" />
		<tag k="natural" v="hill" />
		<tag k="place" v="locality" />
		<tag k="ssr:stedsnr" v="412498" />
	</node>
	<node id="-606490" lat="63.1158916631" lon="8.58950277286">
		<tag k="name" v="Halsan" />
		<tag k="natural" v="valley" />
		<tag k="place" v="locality" />
		<tag k="ssr:stedsnr" v="412483" />
	</node>
	<node id="-606482" lat="63.0942388894" lon="8.57195278457">
		<tag k="name" v="Ytre SKorvhola" />
		<tag k="natural" v="valley" />
		<tag k="place" v="locality" />
		<tag k="ssr:stedsnr" v="412451" />
	</node>
	<node id="-606481" lat="63.1410305574" lon="8.67284723002">
		<tag k="name" v="Tortlia" />
		<tag k="natural" v="slope" />
		<tag k="place" v="locality" />
		<tag k="ssr:stedsnr" v="412450" />
	</node>
	<node id="-606480" lat="63.139847221" lon="8.68524721456">
		<tag k="name" v="Skottjønndalen" />
		<tag k="natural" v="valley" />
		<tag k="place" v="locality" />
		<tag k="ssr:stedsnr" v="412448" />
	</node>
	<node id="-606479" lat="63.0994666683" lon="8.56853889796">
		<tag k="name" v="Maurskaret" />
		<tag k="natural" v="valley" />
		<tag k="place" v="locality" />
		<tag k="ssr:stedsnr" v="412446" />
	</node>
	<node id="-606477" lat="63.0893916653" lon="8.53694166884">
		<tag k="name" v="Geitaholet" />
		<tag k="place" v="locality" />
		<tag k="ssr:stedsnr" v="412445" />
	</node>
	<node id="-606472" lat="63.0900194429" lon="8.5953638911">
		<tag k="name" v="Surberhaugen" />
		<tag k="natural" v="hill" />
		<tag k="place" v="locality" />
		<tag k="ssr:stedsnr" v="412393" />
	</node>
	<node id="-606469" lat="63.0994499996" lon="8.6333111177">
		<tag k="name" v="Einen" />
		<tag k="natural" v="hill" />
		<tag k="place" v="locality" />
		<tag k="ssr:stedsnr" v="412386" />
	</node>
	<node id="-606467" lat="63.0857361103" lon="8.61399721911">
		<tag k="name" v="Klomphaugen" />
		<tag k="natural" v="hill" />
		<tag k="place" v="locality" />
		<tag k="ssr:stedsnr" v="412375" />
	</node>
	<node id="-606461" lat="63.1009000014" lon="8.59553888499">
		<tag k="name" v="Alman" />
		<tag k="natural" v="slope" />
		<tag k="place" v="locality" />
		<tag k="ssr:stedsnr" v="412350" />
	</node>
	<node id="-606444" lat="63.1306138857" lon="8.23405277155">
		<tag k="name" v="Seterhalsen" />
		<tag k="natural" v="ridge" />
		<tag k="place" v="locality" />
		<tag k="ssr:stedsnr" v="412249" />
	</node>
	<node id="-606442" lat="63.1311305566" lon="8.2378972308">
		<tag k="name" v="Smørøyet" />
		<tag k="place" v="locality" />
		<tag k="ssr:stedsnr" v="412248" />
	</node>
	<node id="-606431" lat="63.1635166672" lon="8.69813056079">
		<tag k="name" v="Durmålliaksla" />
		<tag k="place" v="locality" />
		<tag k="ssr:stedsnr" v="412208" />
	</node>
	<node id="-606430" lat="63.0757472241" lon="8.3700166655">
		<tag k="name" v="Britholet" />
		<tag k="natural" v="valley" />
		<tag k="place" v="locality" />
		<tag k="ssr:stedsnr" v="412203" />
	</node>
	<node id="-606428" lat="63.0649555573" lon="8.37657222321">
		<tag k="name" v="Grønlia" />
		<tag k="natural" v="slope" />
		<tag k="place" v="locality" />
		<tag k="ssr:stedsnr" v="412195" />
	</node>
	<node id="-606425" lat="63.1693138848" lon="8.64676110691">
		<tag k="name" v="Løhaugen" />
		<tag k="natural" v="hill" />
		<tag k="place" v="locality" />
		<tag k="ssr:stedsnr" v="412189" />
	</node>
	<node id="-606422" lat="63.0583666686" lon="8.34978055908">
		<tag k="name" v="Kleivan" />
		<tag k="natural" v="valley" />
		<tag k="place" v="locality" />
		<tag k="ssr:stedsnr" v="412148" />
	</node>
	<node id="-606416" lat="63.1035694489" lon="8.34476945382">
		<tag k="name" v="Marsteinreina" />
		<tag k="natural" v="slope" />
		<tag k="place" v="locality" />
		<tag k="ssr:stedsnr" v="411984" />
	</node>
	<node id="-606414" lat="63.1821083329" lon="8.74966388086">
		<tag k="name" v="Storrenna" />
		<tag k="place" v="locality" />
		<tag k="ssr:stedsnr" v="411967" />
	</node>
	<node id="-606411" lat="63.1371000002" lon="8.59603333374">
		<tag k="name" v="Trolldalen" />
		<tag k="natural" v="valley" />
		<tag k="place" v="locality" />
		<tag k="ssr:stedsnr" v="411839" />
	</node>
	<node id="-606410" lat="63.1448777798" lon="8.62458888477">
		<tag k="name" v="Grønlia" />
		<tag k="natural" v="slope" />
		<tag k="place" v="locality" />
		<tag k="ssr:stedsnr" v="411831" />
	</node>
	<node id="-606405" lat="63.103083336" lon="8.19322499558">
		<tag k="name" v="Lienden" />
		<tag k="natural" v="slope" />
		<tag k="place" v="locality" />
		<tag k="ssr:stedsnr" v="411740" />
	</node>
	<node id="-606402" lat="63.1397972178" lon="8.731469447">
		<tag k="name" v="Blåfjellryggen" />
		<tag k="natural" v="ridge" />
		<tag k="place" v="locality" />
		<tag k="ssr:stedsnr" v="411701" />
	</node>
	<node id="-606395" lat="63.026719447" lon="8.23832222537">
		<tag k="name" v="Tollhaugen" />
		<tag k="natural" v="hill" />
		<tag k="place" v="locality" />
		<tag k="ssr:stedsnr" v="411547" />
	</node>
	<node id="-606394" lat="63.113413892" lon="8.23186666288">
		<tag k="name" v="Brenthaugen" />
		<tag k="natural" v="hill" />
		<tag k="place" v="locality" />
		<tag k="ssr:stedsnr" v="411440" />
	</node>
	<node id="-606392" lat="63.1687888896" lon="8.64042499483">
		<tag k="name" v="Buslettet" />
		<tag k="place" v="locality" />
		<tag k="ssr:stedsnr" v="411218" />
	</node>
	<node id="-606391" lat="63.0943333372" lon="8.66882778344">
		<tag k="name" v="Ørnhammaren" />
		<tag k="natural" v="hill" />
		<tag k="place" v="locality" />
		<tag k="ssr:stedsnr" v="411146" />
	</node>
	<node id="-606389" lat="63.1106222191" lon="8.67470834123">
		<tag k="name" v="Bergulholet" />
		<tag k="natural" v="valley" />
		<tag k="place" v="locality" />
		<tag k="ssr:stedsnr" v="411041" />
	</node>
	<node id="-606388" lat="63.1203055563" lon="8.67807499039">
		<tag k="name" v="Ryphaugen" />
		<tag k="natural" v="hill" />
		<tag k="place" v="locality" />
		<tag k="ssr:stedsnr" v="411034" />
	</node>
	<node id="-606385" lat="63.1245361127" lon="8.64803055571">
		<tag k="name" v="Vassdalen" />
		<tag k="natural" v="valley" />
		<tag k="place" v="locality" />
		<tag k="ssr:stedsnr" v="411004" />
	</node>
	<node id="-606384" lat="63.1384000017" lon="8.26036388938">
		<tag k="fixme" v="consider natural=peak for the most distinct mountains in the district" />
		<tag k="name" v="Kammen" />
		<tag k="natural" v="hill" />
		<tag k="place" v="locality" />
		<tag k="ssr:stedsnr" v="409948" />
	</node>
	<node id="-606383" lat="63.1369083339" lon="8.27883055891">
		<tag k="name" v="Kolmiltøfta" />
		<tag k="place" v="locality" />
		<tag k="ssr:stedsnr" v="409944" />
	</node>
	<node id="-606382" lat="63.1387194405" lon="8.2885194466">
		<tag k="name" v="Revhaugen" />
		<tag k="natural" v="hill" />
		<tag k="place" v="locality" />
		<tag k="ssr:stedsnr" v="409938" />
	</node>
	<node id="-606380" lat="63.1330888929" lon="8.30681667483">
		<tag k="name" v="Torthaugen" />
		<tag k="natural" v="hill" />
		<tag k="place" v="locality" />
		<tag k="ssr:stedsnr" v="408956" />
	</node>
	<node id="-606379" lat="63.1697444448" lon="8.66128610282">
		<tag k="name" v="Rodalen" />
		<tag k="natural" v="valley" />
		<tag k="place" v="locality" />
		<tag k="ssr:stedsnr" v="404505" />
	</node>
	<node id="-606371" lat="63.1153916704" lon="8.63956944778">
		<tag k="fixme" v="consider natural=peak for the most distinct mountains in the district" />
		<tag k="name" v="Møkkelfjellet" />
		<tag k="natural" v="hill" />
		<tag k="place" v="locality" />
		<tag k="ssr:stedsnr" v="376995" />
	</node>
	<node id="-606370" lat="63.1134916647" lon="8.35855832497">
		<tag k="fixme" v="consider natural=peak for the most distinct mountains in the district" />
		<tag k="name" v="Glåmslia" />
		<tag k="natural" v="hill" />
		<tag k="place" v="locality" />
		<tag k="ssr:stedsnr" v="376993" />
	</node>
	<node id="-606366" lat="63.0527222226" lon="8.38100000783">
		<tag k="fixme" v="consider natural=peak for the most distinct mountains in the district" />
		<tag k="name" v="Stortussen" />
		<tag k="natural" v="hill" />
		<tag k="place" v="locality" />
		<tag k="ssr:stedsnr" v="376943" />
	</node>
	<node id="-606360" lat="63.1054361108" lon="8.63613611414">
		<tag k="name" v="Skyhamran" />
		<tag k="natural" v="hill" />
		<tag k="place" v="locality" />
		<tag k="ssr:stedsnr" v="376883" />
	</node>
	<node id="-606352" lat="63.1341277776" lon="8.32231944235">
		<tag k="name" v="Høglia" />
		<tag k="natural" v="slope" />
		<tag k="place" v="locality" />
		<tag k="ssr:stedsnr" v="351936" />
	</node>
	<node id="-606350" lat="63.0768305551" lon="8.66395000227">
		<tag k="name" v="Rolihola" />
		<tag k="natural" v="valley" />
		<tag k="place" v="locality" />
		<tag k="ssr:stedsnr" v="351901" />
	</node>
	<node id="-606349" lat="63.1809944448" lon="8.68882500406">
		<tag k="name" v="Steinrabben" />
		<tag k="natural" v="hill" />
		<tag k="place" v="locality" />
		<tag k="ssr:stedsnr" v="351870" />
	</node>
	<node id="-606345" lat="63.1211916625" lon="8.43823611001">
		<tag k="fixme" v="consider natural=peak for the most distinct mountains in the district" />
		<tag k="name" v="Skreheia" />
		<tag k="natural" v="hill" />
		<tag k="place" v="locality" />
		<tag k="ssr:stedsnr" v="351768" />
	</node>
	<node id="-606343" lat="63.1506555585" lon="8.60747777849">
		<tag k="name" v="Langhaugen" />
		<tag k="natural" v="hill" />
		<tag k="place" v="locality" />
		<tag k="ssr:stedsnr" v="351737" />
	</node>
	<node id="-606342" lat="63.117502781" lon="8.40549722533">
		<tag k="name" v="Fuggelhaugen" />
		<tag k="natural" v="hill" />
		<tag k="place" v="locality" />
		<tag k="ssr:stedsnr" v="351729" />
	</node>
	<node id="-606340" lat="63.1085027784" lon="8.46148889479">
		<tag k="name" v="Skjaurtraugen" />
		<tag k="place" v="locality" />
		<tag k="ssr:stedsnr" v="351684" />
	</node>
	<node id="-606338" lat="63.0915250015" lon="8.43038611571">
		<tag k="name" v="Heimre Snerlia" />
		<tag k="natural" v="slope" />
		<tag k="place" v="locality" />
		<tag k="ssr:stedsnr" v="351661" />
	</node>
	<node id="-606337" lat="63.0866083314" lon="8.48516944545">
		<tag k="name" v="Presthaugen" />
		<tag k="natural" v="hill" />
		<tag k="place" v="locality" />
		<tag k="ssr:stedsnr" v="351655" />
	</node>
	<node id="-606334" lat="63.1278472244" lon="8.47791111086">
		<tag k="name" v="Krokbakken" />
		<tag k="natural" v="slope" />
		<tag k="place" v="locality" />
		<tag k="ssr:stedsnr" v="351546" />
	</node>
	<node id="-606333" lat="63.128363889" lon="8.47021945024">
		<tag k="name" v="Bjønnadalen" />
		<tag k="natural" v="valley" />
		<tag k="place" v="locality" />
		<tag k="ssr:stedsnr" v="351535" />
	</node>
	<node id="-606332" lat="63.1225805595" lon="8.58540833304">
		<tag k="name" v="Gilhammaren" />
		<tag k="natural" v="hill" />
		<tag k="place" v="locality" />
		<tag k="ssr:stedsnr" v="351508" />
	</node>
	<node id="-606331" lat="63.1119583319" lon="8.2221472214">
		<tag k="name" v="Svartberget" />
		<tag k="natural" v="hill" />
		<tag k="place" v="locality" />
		<tag k="ssr:stedsnr" v="351482" />
	</node>
	<node id="-606330" lat="63.0889111146" lon="8.54214721312">
		<tag k="name" v="Gløshaugen" />
		<tag k="natural" v="hill" />
		<tag k="place" v="locality" />
		<tag k="ssr:stedsnr" v="351478" />
	</node>
	<node id="-606328" lat="63.0581" lon="8.25413610629">
		<tag k="name" v="Lauftin" />
		<tag k="natural" v="slope" />
		<tag k="place" v="locality" />
		<tag k="ssr:stedsnr" v="351632" />
	</node>
	<node id="-606326" lat="63.0969499998" lon="8.59743332759">
		<tag k="name" v="Furuhaugen" />
		<tag k="natural" v="hill" />
		<tag k="place" v="locality" />
		<tag k="ssr:stedsnr" v="351373" />
	</node>
	<node id="-606323" lat="63.0781083314" lon="8.37531944498">
		<tag k="name" v="Silhaugen" />
		<tag k="natural" v="hill" />
		<tag k="place" v="locality" />
		<tag k="ssr:stedsnr" v="351240" />
	</node>
	<node id="-606321" lat="63.1611277767" lon="8.66301945238">
		<tag k="name" v="Aksla" />
		<tag k="place" v="locality" />
		<tag k="ssr:stedsnr" v="351221" />
	</node>
	<node id="-606320" lat="63.0660750011" lon="8.31286388837">
		<tag k="fixme" v="consider natural=peak for the most distinct mountains in the district" />
		<tag k="name" v="Små Durmålhaugane" />
		<tag k="natural" v="hill" />
		<tag k="place" v="locality" />
		<tag k="ssr:stedsnr" v="351209" />
	</node>
	<node id="-606319" lat="63.0457000025" lon="8.35469999545">
		<tag k="fixme" v="consider natural=peak for the most distinct mountains in the district" />
		<tag k="name" v="Middagsklempen" />
		<tag k="natural" v="hill" />
		<tag k="place" v="locality" />
		<tag k="ssr:stedsnr" v="351179" />
	</node>
	<node id="-606317" lat="63.0991222258" lon="8.6506750002">
		<tag k="name" v="Kukleiva" />
		<tag k="natural" v="valley" />
		<tag k="place" v="locality" />
		<tag k="ssr:stedsnr" v="351132" />
	</node>
	<node id="-606315" lat="63.0986333315" lon="8.37893611664">
		<tag k="name" v="Kroklia" />
		<tag k="natural" v="slope" />
		<tag k="place" v="locality" />
		<tag k="ssr:stedsnr" v="351052" />
	</node>
	<node id="-606314" lat="63.0975222211" lon="8.33885833447">
		<tag k="name" v="Stabburshaugen" />
		<tag k="natural" v="hill" />
		<tag k="place" v="locality" />
		<tag k="ssr:stedsnr" v="350977" />
	</node>
	<node id="-606313" lat="63.0927666704" lon="8.37317777709">
		<tag k="name" v="Sommerfjøsvåttå" />
		<tag k="natural" v="hill" />
		<tag k="place" v="locality" />
		<tag k="ssr:stedsnr" v="350969" />
	</node>
	<node id="-606310" lat="63.0959611149" lon="8.37236389583">
		<tag k="name" v="Tjønnlia" />
		<tag k="natural" v="slope" />
		<tag k="place" v="locality" />
		<tag k="ssr:stedsnr" v="350958" />
	</node>
	<node id="-606309" lat="63.1413472183" lon="8.33745277478">
		<tag k="name" v="Trøhaugen" />
		<tag k="natural" v="hill" />
		<tag k="place" v="locality" />
		<tag k="ssr:stedsnr" v="350896" />
	</node>
	<node id="-606304" lat="63.0800944449" lon="8.23347223179">
		<tag k="name" v="Slettbakken" />
		<tag k="natural" v="slope" />
		<tag k="place" v="locality" />
		<tag k="ssr:stedsnr" v="350655" />
	</node>
	<node id="-606303" lat="63.1585944402" lon="8.70823889411">
		<tag k="name" v="Jamdalen" />
		<tag k="natural" v="valley" />
		<tag k="place" v="locality" />
		<tag k="ssr:stedsnr" v="350643" />
	</node>
	<node id="-606301" lat="63.1548055589" lon="8.72152777644">
		<tag k="fixme" v="consider natural=peak for the most distinct mountains in the district" />
		<tag k="name" v="Dyrskarknubben" />
		<tag k="natural" v="hill" />
		<tag k="place" v="locality" />
		<tag k="ssr:stedsnr" v="350635" />
	</node>
	<node id="-606300" lat="63.0348166636" lon="8.23458333087">
		<tag k="name" v="Indreitalia" />
		<tag k="natural" v="slope" />
		<tag k="place" v="locality" />
		<tag k="ssr:stedsnr" v="350532" />
	</node>
	<node id="-606298" lat="63.1115888852" lon="8.2378611067">
		<tag k="name" v="Hauaskaret" />
		<tag k="natural" v="valley" />
		<tag k="place" v="locality" />
		<tag k="ssr:stedsnr" v="350438" />
	</node>
	<node id="-606297" lat="63.1152611114" lon="8.24723055092">
		<tag k="name" v="Inner elvadalen" />
		<tag k="natural" v="valley" />
		<tag k="place" v="locality" />
		<tag k="ssr:stedsnr" v="350427" />
	</node>
	<node id="-606296" lat="63.1127277769" lon="8.17955000561">
		<tag k="name" v="Tempelhammaren" />
		<tag k="natural" v="hill" />
		<tag k="place" v="locality" />
		<tag k="ssr:stedsnr" v="350397" />
	</node>
	<node id="-606293" lat="63.063363885" lon="8.5189722182">
		<tag k="name" v="Bjønnaharane" />
		<tag k="natural" v="ridge" />
		<tag k="place" v="locality" />
		<tag k="ssr:stedsnr" v="350258" />
	</node>
	<node id="-606291" lat="63.1123944469" lon="8.33193611076">
		<tag k="name" v="Torehaugen" />
		<tag k="natural" v="hill" />
		<tag k="place" v="locality" />
		<tag k="ssr:stedsnr" v="350107" />
	</node>
	<node id="-606290" lat="63.1140638899" lon="8.36145554594">
		<tag k="name" v="Glåmalia" />
		<tag k="natural" v="slope" />
		<tag k="place" v="locality" />
		<tag k="ssr:stedsnr" v="350060" />
	</node>
	<node id="-606289" lat="63.1247833374" lon="8.35987778221">
		<tag k="name" v="Holbekkhaugen" />
		<tag k="natural" v="hill" />
		<tag k="place" v="locality" />
		<tag k="ssr:stedsnr" v="350059" />
	</node>
	<node id="-606288" lat="63.089136109" lon="8.59187500766">
		<tag k="name" v="Tvillingtunga" />
		<tag k="natural" v="ridge" />
		<tag k="place" v="locality" />
		<tag k="ssr:stedsnr" v="351419" />
	</node>
	<node id="-606287" lat="63.0933277806" lon="8.58255834215">
		<tag k="name" v="Skjennstihaugen" />
		<tag k="natural" v="hill" />
		<tag k="place" v="locality" />
		<tag k="ssr:stedsnr" v="351412" />
	</node>
	<node id="-606278" lat="63.1214361136" lon="8.44127223129">
		<tag k="fixme" v="consider natural=peak for the most distinct mountains in the district" />
		<tag k="name" v="Hennafjellet" />
		<tag k="natural" v="hill" />
		<tag k="place" v="locality" />
		<tag k="ssr:stedsnr" v="316989" />
	</node>
	<node id="-606272" lat="63.1346888897" lon="8.65485000188">
		<tag k="fixme" v="consider natural=peak for the most distinct mountains in the district" />
		<tag k="name" v="Vasslifjellet" />
		<tag k="natural" v="hill" />
		<tag k="place" v="locality" />
		<tag k="ssr:stedsnr" v="315961" />
	</node>
	<node id="-606268" lat="63.0992861127" lon="8.25793610856">
		<tag k="alt_name" v="Kløvsetlia" />
		<tag k="fixme" v="consider natural=peak for the most distinct mountains in the district" />
		<tag k="name" v="Klevsetlia" />
		<tag k="natural" v="hill" />
		<tag k="place" v="locality" />
		<tag k="ssr:stedsnr" v="315880" />
	</node>
	<node id="-606260" lat="63.169233334" lon="8.72358333772">
		<tag k="name" v="Nonshaugen" />
		<tag k="natural" v="hill" />
		<tag k="place" v="locality" />
		<tag k="ssr:stedsnr" v="315805" />
	</node>
	<node id="-606258" lat="63.1163638866" lon="8.20929443808">
		<tag k="name" v="Kallbergsdalen" />
		<tag k="natural" v="valley" />
		<tag k="place" v="locality" />
		<tag k="ssr:stedsnr" v="315313" />
	</node>
	<node id="-606252" lat="63.1426055517" lon="8.340266669">
		<tag k="name" v="Laksevorphaugen" />
		<tag k="natural" v="hill" />
		<tag k="place" v="locality" />
		<tag k="ssr:stedsnr" v="291919" />
	</node>
	<node id="-606251" lat="63.07019167" lon="8.65395833018">
		<tag k="name" v="Taterhaugan" />
		<tag k="natural" v="hill" />
		<tag k="place" v="locality" />
		<tag k="ssr:stedsnr" v="291903" />
	</node>
	<node id="-606249" lat="63.1790888853" lon="8.66350833329">
		<tag k="name" v="Vedberget" />
		<tag k="natural" v="hill" />
		<tag k="place" v="locality" />
		<tag k="ssr:stedsnr" v="291879" />
	</node>
	<node id="-606247" lat="63.1582333316" lon="8.57832499233">
		<tag k="name" v="Handklehaugen" />
		<tag k="natural" v="hill" />
		<tag k="place" v="locality" />
		<tag k="ssr:stedsnr" v="291750" />
	</node>
	<node id="-606245" lat="63.1522083316" lon="8.53773611176">
		<tag k="name" v="Vikaskaret" />
		<tag k="natural" v="valley" />
		<tag k="place" v="locality" />
		<tag k="ssr:stedsnr" v="291710" />
	</node>
	<node id="-606244" lat="63.1260944432" lon="8.46537777836">
		<tag k="name" v="Bjønasalen" />
		<tag k="natural" v="ridge" />
		<tag k="place" v="locality" />
		<tag k="ssr:stedsnr" v="291692" />
	</node>
	<node id="-606243" lat="63.0923555583" lon="8.43644722633">
		<tag k="name" v="Midtre Snerlia" />
		<tag k="natural" v="slope" />
		<tag k="place" v="locality" />
		<tag k="ssr:stedsnr" v="291684" />
	</node>
	<node id="-606239" lat="63.0468416683" lon="8.24533333769">
		<tag k="name" v="Rogabakken" />
		<tag k="natural" v="slope" />
		<tag k="place" v="locality" />
		<tag k="ssr:stedsnr" v="291634" />
	</node>
	<node id="-606237" lat="63.0961444417" lon="8.55505554949">
		<tag k="name" v="Meseterhaugen" />
		<tag k="natural" v="hill" />
		<tag k="place" v="locality" />
		<tag k="ssr:stedsnr" v="291499" />
	</node>
	<node id="-606236" lat="63.1000750036" lon="8.56888054651">
		<tag k="name" v="Maurskarhaugan" />
		<tag k="natural" v="hill" />
		<tag k="place" v="locality" />
		<tag k="ssr:stedsnr" v="291497" />
	</node>
	<node id="-606234" lat="63.0734583325" lon="8.33025277133">
		<tag k="name" v="Olstudalen" />
		<tag k="natural" v="valley" />
		<tag k="place" v="locality" />
		<tag k="ssr:stedsnr" v="291260" />
	</node>
	<node id="-606231" lat="63.16508889" lon="8.68425555831">
		<tag k="name" v="Snøglenna" />
		<tag k="place" v="locality" />
		<tag k="ssr:stedsnr" v="291243" />
	</node>
	<node id="-606229" lat="63.0902555589" lon="8.64250000552">
		<tag k="fixme" v="consider natural=peak for the most distinct mountains in the district" />
		<tag k="name" v="Karibakkan" />
		<tag k="natural" v="hill" />
		<tag k="place" v="locality" />
		<tag k="ssr:stedsnr" v="291128" />
	</node>
	<node id="-606225" lat="63.0917972234" lon="8.36434721937">
		<tag k="name" v="Trøhaugen" />
		<tag k="natural" v="hill" />
		<tag k="place" v="locality" />
		<tag k="ssr:stedsnr" v="290983" />
	</node>
	<node id="-606223" lat="63.1028250028" lon="8.37796389112">
		<tag k="name" v="Størkålia" />
		<tag k="natural" v="slope" />
		<tag k="place" v="locality" />
		<tag k="ssr:stedsnr" v="290978" />
	</node>
	<node id="-606222" lat="63.1318000014" lon="8.60672221701">
		<tag k="name" v="Fjærlilia" />
		<tag k="natural" v="slope" />
		<tag k="place" v="locality" />
		<tag k="ssr:stedsnr" v="290823" />
	</node>
	<node id="-606221" lat="63.1316027758" lon="8.59333889084">
		<tag k="name" v="Ramsgrølia" />
		<tag k="natural" v="slope" />
		<tag k="place" v="locality" />
		<tag k="ssr:stedsnr" v="290822" />
	</node>
	<node id="-606219" lat="63.1188944407" lon="8.44094722821">
		<tag k="name" v="Henset Svarthammaren" />
		<tag k="natural" v="cliff" />
		<tag k="ssr:stedsnr" v="290734" />
	</node>
	<node id="-606218" lat="63.1299666679" lon="8.77661112045">
		<tag k="name" v="Jamnhaugen" />
		<tag k="natural" v="hill" />
		<tag k="place" v="locality" />
		<tag k="ssr:stedsnr" v="290700" />
	</node>
	<node id="-606216" lat="63.1047749999" lon="8.24914445325">
		<tag k="name" v="Gaddhaugen" />
		<tag k="natural" v="hill" />
		<tag k="place" v="locality" />
		<tag k="ssr:stedsnr" v="290677" />
	</node>
	<node id="-606214" lat="63.1243638914" lon="8.50485276986">
		<tag k="name" v="Karislettet" />
		<tag k="place" v="locality" />
		<tag k="ssr:stedsnr" v="290668" />
	</node>
	<node id="-606213" lat="63.0812555592" lon="8.20000278043">
		<tag k="name" v="Øverlandet" />
		<tag k="natural" v="hill" />
		<tag k="place" v="locality" />
		<tag k="ssr:stedsnr" v="290628" />
	</node>
	<node id="-606211" lat="63.0838694416" lon="8.22385278097">
		<tag k="name" v="Stannarhaugen" />
		<tag k="natural" v="hill" />
		<tag k="place" v="locality" />
		<tag k="ssr:stedsnr" v="290626" />
	</node>
</osm>
