<?xml version="1.0" encoding="UTF-8"?>
<osm generator="osmapis" version="0.6">
	<node id="-608255" lat="63.1284583377" lon="8.55577221935">
		<tag k="alt_name" v="Salbuneset" />
		<tag k="name" v="Saltbuneset" />
		<tag k="natural" v="cape" />
		<tag k="ssr:stedsnr" v="592711" />
	</node>
	<node id="-607227" lat="63.1372638921" lon="8.40651389503">
		<tag k="alt_name" v="Galten" />
		<tag k="fixme" v="consider seamark:type=rock or natural=shoal" />
		<tag k="name" v="Hennagalten" />
		<tag k="place" v="islet" />
		<tag k="ssr:stedsnr" v="351571" />
	</node>
	<node id="-608760" lat="63.1546333304" lon="8.27756389459">
		<tag k="bay" v="fjord" />
		<tag k="name" v="Strandafjorden" />
		<tag k="natural" v="bay" />
		<tag k="ssr:stedsnr" v="839018" />
	</node>
	<node id="-607221" lat="63.138275002" lon="8.14876945047">
		<tag k="name" v="Storgrunnen" />
		<tag k="natural" v="shoal" />
		<tag k="place" v="locality" />
		<tag k="ssr:stedsnr" v="351467" />
	</node>
	<node id="-608756" lat="63.1826388861" lon="8.69198055471">
		<tag k="name" v="Saltrøskaget" />
		<tag k="natural" v="cape" />
		<tag k="ssr:stedsnr" v="837879" />
	</node>
	<node id="-607728" lat="63.1855305515" lon="8.72277500556">
		<tag k="name" v="Svartholet" />
		<tag k="natural" v="bay" />
		<tag k="ssr:stedsnr" v="108999" />
	</node>
	<node id="-607997" lat="63.0682416673" lon="8.22787499257">
		<tag k="name" v="Halsanausta" />
		<tag k="natural" v="cape" />
		<tag k="ssr:stedsnr" v="437881" />
	</node>
	<node id="-607724" lat="63.1291694445" lon="8.57561944187">
		<tag k="name" v="Furuneset" />
		<tag k="natural" v="cape" />
		<tag k="ssr:stedsnr" v="108834" />
	</node>
	<node id="-608232" lat="63.0883555582" lon="8.17862500838">
		<tag k="alt_name" v="Urdneset" />
		<tag k="name" v="Orneset" />
		<tag k="natural" v="cape" />
		<tag k="ssr:stedsnr" v="558339" />
	</node>
	<node id="-608230" lat="63.1239500033" lon="8.13982778309">
		<tag k="name" v="Hattholmen" />
		<tag k="place" v="islet" />
		<tag k="ssr:stedsnr" v="558285" />
	</node>
	<node id="-608739" lat="63.0850805522" lon="8.17200832982">
		<tag k="name" v="Åkvikgrunnen" />
		<tag k="natural" v="shoal" />
		<tag k="place" v="locality" />
		<tag k="ssr:stedsnr" v="837611" />
	</node>
	<node id="-607709" lat="63.1525388874" lon="8.55483888534">
		<tag k="name" v="Slettneset" />
		<tag k="natural" v="cape" />
		<tag k="ssr:stedsnr" v="108558" />
	</node>
	<node id="-608220" lat="63.1407222178" lon="8.18321666098">
		<tag k="name" v="Kallbergskallen" />
		<tag k="natural" v="shoal" />
		<tag k="place" v="locality" />
		<tag k="ssr:stedsnr" v="534484" />
	</node>
	<node id="-608218" lat="63.1058388886" lon="8.27316666607">
		<tag k="name" v="Kløvsetbukta" />
		<tag k="natural" v="bay" />
		<tag k="ssr:stedsnr" v="534170" />
	</node>
	<node id="-607705" lat="63.1305916641" lon="8.25456944159">
		<tag k="name" v="Skålvikbukta" />
		<tag k="natural" v="bay" />
		<tag k="ssr:stedsnr" v="108403" />
	</node>
	<node id="-608216" lat="63.0922972266" lon="8.33005832338">
		<tag k="fixme" v="consider seamark:type=rock or natural=shoal" />
		<tag k="name" v="Hyttaskjeret" />
		<tag k="place" v="islet" />
		<tag k="ssr:stedsnr" v="533992" />
	</node>
	<node id="-608725" lat="63.1338722243" lon="8.23351944046">
		<tag k="name" v="Naustvikbukta" />
		<tag k="natural" v="bay" />
		<tag k="ssr:stedsnr" v="837286" />
	</node>
	<node id="-608211" lat="63.1846027772" lon="8.76347777543">
		<tag k="name" v="Svadalsbukta" />
		<tag k="natural" v="bay" />
		<tag k="ssr:stedsnr" v="533976" />
	</node>
	<node id="-607138" lat="63.1562055522" lon="8.5495638988">
		<tag k="name" v="Kobbneset" />
		<tag k="natural" v="cape" />
		<tag k="ssr:stedsnr" v="291713" />
	</node>
	<node id="-608714" lat="63.1049388893" lon="8.30659722694">
		<tag k="name" v="Skiftesholmen" />
		<tag k="place" v="islet" />
		<tag k="ssr:stedsnr" v="837160" />
	</node>
	<node id="-608711" lat="63.1130138894" lon="8.28500277182">
		<tag k="alt_name" v="Litle Bårsetøya" />
		<tag k="name" v="Knudtzonøya" />
		<tag k="place" v="island" />
		<tag k="ssr:stedsnr" v="837076" />
	</node>
	<node id="-608198" lat="63.1640750007" lon="8.56389445319">
		<tag k="alt_name" v="Kvithyllbukta" />
		<tag k="name" v="Sørkvithyllbukta" />
		<tag k="natural" v="bay" />
		<tag k="ssr:stedsnr" v="533730" />
	</node>
	<node id="-608709" lat="63.0936972189" lon="8.33155833114">
		<tag k="name" v="Gjengstøbukta" />
		<tag k="natural" v="bay" />
		<tag k="ssr:stedsnr" v="836994" />
	</node>
	<node id="-607681" lat="63.1083888929" lon="8.70447778605">
		<tag k="name" v="Napparneset" />
		<tag k="natural" v="cape" />
		<tag k="ssr:stedsnr" v="108114" />
	</node>
	<node id="-607679" lat="63.0507333346" lon="8.23522223122">
		<tag k="name" v="Volemsstranda" />
		<tag k="natural" v="beach" />
		<tag k="place" v="locality" />
		<tag k="ssr:stedsnr" v="100422" />
	</node>
	<node id="-607676" lat="63.144241666" lon="8.55503888461">
		<tag k="name" v="Leirvikstraumen" />
		<tag k="natural" v="strait" />
		<tag k="ssr:stedsnr" v="98592" />
	</node>
	<node id="-608183" lat="63.1241250001" lon="8.58460554934">
		<tag k="name" v="Nessaøra" />
		<tag k="natural" v="cape" />
		<tag k="ssr:stedsnr" v="533525" />
	</node>
	<node id="-608182" lat="63.1143194474" lon="8.62564999682">
		<tag k="name" v="Ramsvika" />
		<tag k="natural" v="bay" />
		<tag k="ssr:stedsnr" v="533523" />
	</node>
	<node id="-608692" lat="63.0272416629" lon="8.2241944459">
		<tag k="name" v="Vorpneset" />
		<tag k="natural" v="cape" />
		<tag k="ssr:stedsnr" v="836520" />
	</node>
	<node id="-608689" lat="63.126641663" lon="8.25280556059">
		<tag k="name" v="Skålvikholmen" />
		<tag k="place" v="islet" />
		<tag k="ssr:stedsnr" v="836440" />
	</node>
	<node id="-608688" lat="63.1206638924" lon="8.2501194359">
		<tag k="name" v="Kalvgeilneset" />
		<tag k="natural" v="cape" />
		<tag k="ssr:stedsnr" v="836427" />
	</node>
	<node id="-608174" lat="63.1340722189" lon="8.19938056299">
		<tag k="name" v="Storvika" />
		<tag k="natural" v="bay" />
		<tag k="ssr:stedsnr" v="533300" />
	</node>
	<node id="-607148" lat="63.1509611146" lon="8.50794166369">
		<tag k="name" v="Klubbholmgrunnen" />
		<tag k="natural" v="shoal" />
		<tag k="place" v="locality" />
		<tag k="ssr:stedsnr" v="292781" />
	</node>
	<node id="-607147" lat="63.1550944445" lon="8.51724167084">
		<tag k="name" v="Risholmflua" />
		<tag k="natural" v="shoal" />
		<tag k="place" v="locality" />
		<tag k="ssr:stedsnr" v="292780" />
	</node>
	<node id="-607146" lat="63.1706138902" lon="8.61121110807">
		<tag k="name" v="Renndalsholmen" />
		<tag k="natural" v="bay" />
		<tag k="ssr:stedsnr" v="292622" />
	</node>
	<node id="-608168" lat="63.0759083351" lon="8.28666111306">
		<tag k="name" v="Reitholmen" />
		<tag k="place" v="islet" />
		<tag k="ssr:stedsnr" v="533195" />
	</node>
	<node id="-607653" lat="63.0198583367" lon="8.26039445083">
		<tag k="name" v="Kråka" />
		<tag k="natural" v="cape" />
		<tag k="ssr:stedsnr" v="73826" />
	</node>
	<node id="-608676" lat="63.1386194471" lon="8.4334249951">
		<tag k="name" v="Kråknesbukta" />
		<tag k="natural" v="bay" />
		<tag k="ssr:stedsnr" v="826789" />
	</node>
	<node id="-608070" lat="63.133844441" lon="8.47124721897">
		<tag k="name" v="Fættatangen" />
		<tag k="natural" v="cape" />
		<tag k="ssr:stedsnr" v="472536" />
	</node>
	<node id="-608162" lat="63.1110305541" lon="8.31113889654">
		<tag k="name" v="Hestholmen" />
		<tag k="place" v="islet" />
		<tag k="ssr:stedsnr" v="533080" />
	</node>
	<node id="-608673" lat="63.1411138923" lon="8.42887222608">
		<tag k="name" v="Kråkneset" />
		<tag k="natural" v="cape" />
		<tag k="ssr:stedsnr" v="802968" />
	</node>
	<node id="-608677" lat="63.1461333352" lon="8.47081945108">
		<tag k="name" v="Hennsetgrunnen" />
		<tag k="natural" v="shoal" />
		<tag k="place" v="locality" />
		<tag k="ssr:stedsnr" v="826793" />
	</node>
	<node id="-608669" lat="63.1469166699" lon="8.39123611875">
		<tag k="alt_name" v="Ytre Hennagrunnen" />
		<tag k="name" v="Hennagrunnen" />
		<tag k="natural" v="shoal" />
		<tag k="place" v="locality" />
		<tag k="ssr:stedsnr" v="802956" />
	</node>
	<node id="-608668" lat="63.1505416644" lon="8.4185861114">
		<tag k="bay" v="fjord" />
		<tag k="name" v="Arasvikfjorden" />
		<tag k="natural" v="bay" />
		<tag k="ssr:stedsnr" v="802953" />
	</node>
	<node id="-607642" lat="63.1524305567" lon="8.53123055662">
		<tag k="name" v="Lervågen" />
		<tag k="natural" v="bay" />
		<tag k="ssr:stedsnr" v="48688" />
	</node>
	<node id="-608666" lat="63.1535666662" lon="8.52238610712">
		<tag k="name" v="Risholmen" />
		<tag k="place" v="islet" />
		<tag k="ssr:stedsnr" v="802104" />
	</node>
	<node id="-608665" lat="63.1111222241" lon="8.59706389034">
		<tag k="alt_name" v="Sundneset" />
		<tag k="name" v="Sandnes" />
		<tag k="natural" v="cape" />
		<tag k="ssr:stedsnr" v="801996" />
	</node>
	<node id="-608145" lat="63.110972221" lon="8.15876111939">
		<tag k="name" v="Ramsvikan" />
		<tag k="natural" v="bay" />
		<tag k="ssr:stedsnr" v="532718" />
	</node>
	<node id="-608143" lat="63.1446749962" lon="8.55265278208">
		<tag k="name" v="Langstranda" />
		<tag k="natural" v="beach" />
		<tag k="place" v="locality" />
		<tag k="ssr:stedsnr" v="532652" />
	</node>
	<node id="-608654" lat="63.0993805526" lon="8.62642500145">
		<tag k="name" v="Botnaøra" />
		<tag k="natural" v="cape" />
		<tag k="ssr:stedsnr" v="801855" />
	</node>
	<node id="-608141" lat="63.1498166628" lon="8.33424444305">
		<tag k="alt_name" v="Flatfjørå" />
		<tag k="name" v="Flatfjøra" />
		<tag k="natural" v="shoal" />
		<tag k="place" v="locality" />
		<tag k="ssr:stedsnr" v="532597" />
	</node>
	<node id="-608138" lat="63.1114083294" lon="8.62335000341">
		<tag k="fixme" v="consider seamark:type=rock or natural=shoal" />
		<tag k="name" v="Ånskjeret" />
		<tag k="place" v="islet" />
		<tag k="ssr:stedsnr" v="532513" />
	</node>
	<node id="-608134" lat="63.123711108" lon="8.24709165795">
		<tag k="name" v="Staurhusberget" />
		<tag k="natural" v="cape" />
		<tag k="ssr:stedsnr" v="532466" />
	</node>
	<node id="-607616" lat="63.1379000024" lon="8.20453056474">
		<tag k="name" v="Kippervikneset" />
		<tag k="natural" v="cape" />
		<tag k="ssr:stedsnr" v="48284" />
	</node>
	<node id="-607615" lat="63.1382666625" lon="8.2418638989">
		<tag k="name" v="Notholmen" />
		<tag k="natural" v="cape" />
		<tag k="ssr:stedsnr" v="48272" />
	</node>
	<node id="-607101" lat="63.143194445" lon="8.49455554596">
		<tag k="alt_name" v="Skarvskjeret" />
		<tag k="fixme" v="consider seamark:type=rock or natural=shoal" />
		<tag k="name" v="Skarvskjæret" />
		<tag k="place" v="islet" />
		<tag k="ssr:stedsnr" v="290507" />
	</node>
	<node id="-607608" lat="63.1121638878" lon="8.31603054567">
		<tag k="name" v="Jælneset" />
		<tag k="natural" v="cape" />
		<tag k="ssr:stedsnr" v="48083" />
	</node>
	<node id="-607607" lat="63.1183277792" lon="8.27697776785">
		<tag k="name" v="Våglandneset" />
		<tag k="natural" v="cape" />
		<tag k="ssr:stedsnr" v="48072" />
	</node>
	<node id="-607606" lat="63.1087722181" lon="8.26675555731">
		<tag k="name" v="Klubbsundet" />
		<tag k="natural" v="strait" />
		<tag k="ssr:stedsnr" v="48071" />
	</node>
	<node id="-608116" lat="63.1388416645" lon="8.47746111606">
		<tag k="name" v="Karterflua" />
		<tag k="natural" v="shoal" />
		<tag k="place" v="locality" />
		<tag k="ssr:stedsnr" v="522778" />
	</node>
	<node id="-607603" lat="63.0961944437" lon="8.32143610996">
		<tag k="name" v="Bollotholman" />
		<tag k="place" v="islet" />
		<tag k="ssr:stedsnr" v="47988" />
	</node>
	<node id="-608111" lat="63.1483138856" lon="8.32863888147">
		<tag k="alt_name" v="Takneset" />
		<tag k="name" v="Taknes" />
		<tag k="natural" v="cape" />
		<tag k="ssr:stedsnr" v="498967" />
	</node>
	<node id="-608556" lat="63.1253555556" lon="8.15275556279">
		<tag k="name" v="Volungøysundet" />
		<tag k="natural" v="strait" />
		<tag k="ssr:stedsnr" v="716637" />
	</node>
	<node id="-607084" lat="63.1409333378" lon="8.54404444073">
		<tag k="name" v="Engholmen" />
		<tag k="place" v="islet" />
		<tag k="ssr:stedsnr" v="289721" />
	</node>
	<node id="-608618" lat="63.1072111153" lon="8.31695278166">
		<tag k="name" v="Litlkuneset" />
		<tag k="natural" v="cape" />
		<tag k="ssr:stedsnr" v="776086" />
	</node>
	<node id="-608617" lat="63.1092055566" lon="8.30722222271">
		<tag k="alt_name" v="Øyholmen" />
		<tag k="name" v="Litlholmen" />
		<tag k="place" v="islet" />
		<tag k="ssr:stedsnr" v="776082" />
	</node>
	<node id="-607889" lat="63.1460666654" lon="8.33986110161">
		<tag k="name" v="Taknesholmen" />
		<tag k="place" v="islet" />
		<tag k="ssr:stedsnr" v="195949" />
	</node>
	<node id="-608611" lat="63.1839999972" lon="8.7055194542">
		<tag k="name" v="Busteinbukta" />
		<tag k="natural" v="bay" />
		<tag k="ssr:stedsnr" v="775999" />
	</node>
	<node id="-607976" lat="63.0936638904" lon="8.17619722466">
		<tag k="name" v="Langneset" />
		<tag k="natural" v="cape" />
		<tag k="ssr:stedsnr" v="255323" />
	</node>
	<node id="-607585" lat="63.0241777763" lon="8.24362778649">
		<tag k="name" v="Kuvika" />
		<tag k="natural" v="bay" />
		<tag k="ssr:stedsnr" v="47575" />
	</node>
	<node id="-608608" lat="63.090091671" lon="8.17955555173">
		<tag k="name" v="Slettabukta" />
		<tag k="natural" v="bay" />
		<tag k="ssr:stedsnr" v="775726" />
	</node>
	<node id="-607888" lat="63.1311722221" lon="8.18806666975">
		<tag k="name" v="Kallbergsnausta" />
		<tag k="natural" v="cape" />
		<tag k="ssr:stedsnr" v="195321" />
	</node>
	<node id="-608601" lat="63.1425416688" lon="8.54191111373">
		<tag k="name" v="Marivika" />
		<tag k="natural" v="bay" />
		<tag k="ssr:stedsnr" v="775641" />
	</node>
	<node id="-608594" lat="63.1185500025" lon="8.15602776818">
		<tag k="alt_name" v="Småholmane" />
		<tag k="name" v="Småholman" />
		<tag k="place" v="islet" />
		<tag k="ssr:stedsnr" v="775434" />
	</node>
	<node id="-608593" lat="63.1261055571" lon="8.14074444456">
		<tag k="name" v="Ballvågen" />
		<tag k="natural" v="bay" />
		<tag k="ssr:stedsnr" v="775429" />
	</node>
	<node id="-608592" lat="63.1189444439" lon="8.16186944576">
		<tag k="name" v="Sannan" />
		<tag k="natural" v="beach" />
		<tag k="place" v="locality" />
		<tag k="ssr:stedsnr" v="775422" />
	</node>
	<node id="-608590" lat="63.1285665851" lon="8.25257427767">
		<tag k="name" v="Revhusholmen" />
		<tag k="place" v="islet" />
		<tag k="ssr:stedsnr" v="775360" />
	</node>
	<node id="-607561" lat="63.1377638852" lon="8.46527777462">
		<tag k="name" v="Hennsetholmen" />
		<tag k="place" v="islet" />
		<tag k="ssr:stedsnr" v="13955" />
	</node>
	<node id="-608582" lat="63.1479888863" lon="8.2893805529">
		<tag k="name" v="Laksvorpa" />
		<tag k="natural" v="bay" />
		<tag k="ssr:stedsnr" v="772948" />
	</node>
	<node id="-608579" lat="63.143230557" lon="8.39978610215">
		<tag k="name" v="Indre Hennagrunnen" />
		<tag k="natural" v="shoal" />
		<tag k="place" v="locality" />
		<tag k="ssr:stedsnr" v="765792" />
	</node>
	<node id="-608578" lat="63.1541777773" lon="8.54444722148">
		<tag k="name" v="Ytterneset" />
		<tag k="natural" v="cape" />
		<tag k="ssr:stedsnr" v="764498" />
	</node>
	<node id="-607260" lat="63.1280055543" lon="8.57941945095">
		<tag k="name" v="Grasneset" />
		<tag k="natural" v="cape" />
		<tag k="ssr:stedsnr" v="376972" />
	</node>
	<node id="-607456" lat="63.1431194461" lon="8.37018611521">
		<tag k="name" v="Klettagrunnen" />
		<tag k="natural" v="shoal" />
		<tag k="place" v="locality" />
		<tag k="ssr:stedsnr" v="887814" />
	</node>
	<node id="-608573" lat="63.1231833335" lon="8.15868610351">
		<tag k="name" v="Aspneset" />
		<tag k="natural" v="cape" />
		<tag k="ssr:stedsnr" v="741333" />
	</node>
	<node id="-607548" lat="63.0844583318" lon="8.34329722084">
		<tag k="name" v="Betnvågen" />
		<tag k="natural" v="bay" />
		<tag k="ssr:stedsnr" v="12894" />
	</node>
	<node id="-607543" lat="63.1320611097" lon="8.13931111279">
		<tag k="fixme" v="consider seamark:type=rock or natural=shoal" />
		<tag k="name" v="Langskjæret" />
		<tag k="place" v="islet" />
		<tag k="ssr:stedsnr" v="12261" />
	</node>
	<node id="-607541" lat="63.1625027736" lon="8.55721945141">
		<tag k="name" v="Skattå" />
		<tag k="natural" v="cape" />
		<tag k="ssr:stedsnr" v="12071" />
	</node>
	<node id="-607540" lat="63.1326138903" lon="8.50472223002">
		<tag k="name" v="Otnessvaet" />
		<tag k="natural" v="bay" />
		<tag k="ssr:stedsnr" v="413801" />
	</node>
	<node id="-607537" lat="63.1222388863" lon="8.2615944534">
		<tag k="name" v="Bakkeflua" />
		<tag k="natural" v="shoal" />
		<tag k="place" v="locality" />
		<tag k="ssr:stedsnr" v="899148" />
	</node>
	<node id="-607444" lat="63.0983333373" lon="8.62023889729">
		<tag k="name" v="Sandågrunnen" />
		<tag k="natural" v="shoal" />
		<tag k="place" v="locality" />
		<tag k="ssr:stedsnr" v="473499" />
	</node>
	<node id="-608557" lat="63.1405638917" lon="8.49399443472">
		<tag k="name" v="Otnessundet" />
		<tag k="natural" v="strait" />
		<tag k="ssr:stedsnr" v="716791" />
	</node>
	<node id="-608044" lat="63.0968111105" lon="8.17913056428">
		<tag k="name" v="Gaddvika" />
		<tag k="natural" v="bay" />
		<tag k="ssr:stedsnr" v="471758" />
	</node>
	<node id="-608043" lat="63.0921777765" lon="8.17641111014">
		<tag k="name" v="Plassvika" />
		<tag k="natural" v="bay" />
		<tag k="ssr:stedsnr" v="471757" />
	</node>
	<node id="-607253" lat="63.0955805541" lon="8.30402499228">
		<tag k="name" v="Gjerstadneset" />
		<tag k="natural" v="cape" />
		<tag k="ssr:stedsnr" v="376896" />
	</node>
	<node id="-608546" lat="63.1835027761" lon="8.69909722978">
		<tag k="name" v="Nessaskaget" />
		<tag k="natural" v="cape" />
		<tag k="ssr:stedsnr" v="715877" />
	</node>
	<node id="-608030" lat="63.1192388906" lon="8.15525000401">
		<tag k="name" v="Høgholmen" />
		<tag k="place" v="islet" />
		<tag k="ssr:stedsnr" v="471475" />
	</node>
	<node id="-608538" lat="63.1576916659" lon="8.54528610705">
		<tag k="name" v="Sauraua" />
		<tag k="place" v="islet" />
		<tag k="ssr:stedsnr" v="715713" />
	</node>
	<node id="-608161" lat="63.1133722256" lon="8.31244167564">
		<tag k="fixme" v="consider seamark:type=rock or natural=shoal" />
		<tag k="name" v="Hundskjeret" />
		<tag k="place" v="islet" />
		<tag k="ssr:stedsnr" v="533078" />
	</node>
	<node id="-608519" lat="63.128011109" lon="8.14838056072">
		<tag k="name" v="Hamna" />
		<tag k="natural" v="bay" />
		<tag k="ssr:stedsnr" v="715394" />
	</node>
	<node id="-608017" lat="63.1476666686" lon="8.2797805457">
		<tag k="name" v="Strandatrøa" />
		<tag k="natural" v="beach" />
		<tag k="place" v="locality" />
		<tag k="ssr:stedsnr" v="470953" />
	</node>
	<node id="-608016" lat="63.1466416638" lon="8.30181944284">
		<tag k="name" v="Vorpvika" />
		<tag k="natural" v="bay" />
		<tag k="ssr:stedsnr" v="468933" />
	</node>
	<node id="-607960" lat="63.1519972197" lon="8.54297221997">
		<tag k="name" v="Ytterneset" />
		<tag k="natural" v="cape" />
		<tag k="ssr:stedsnr" v="230681" />
	</node>
	<node id="-608526" lat="63.0962694415" lon="8.61077777657">
		<tag k="name" v="Litlneset" />
		<tag k="natural" v="cape" />
		<tag k="ssr:stedsnr" v="716509" />
	</node>
	<node id="-608012" lat="63.1371861082" lon="8.3926305541">
		<tag k="name" v="Skjerjegrunnen" />
		<tag k="natural" v="shoal" />
		<tag k="place" v="locality" />
		<tag k="ssr:stedsnr" v="462800" />
	</node>
	<node id="-608011" lat="63.1053722183" lon="8.60104721892">
		<tag k="name" v="Kleivaneset" />
		<tag k="natural" v="cape" />
		<tag k="ssr:stedsnr" v="462462" />
	</node>
	<node id="-608520" lat="63.0961166643" lon="8.62498889054">
		<tag k="name" v="Sanden" />
		<tag k="natural" v="beach" />
		<tag k="place" v="locality" />
		<tag k="ssr:stedsnr" v="715439" />
	</node>
	<node id="-607495" lat="63.1012499984" lon="8.17783054762">
		<tag k="name" v="Vikaneset" />
		<tag k="natural" v="cape" />
		<tag k="ssr:stedsnr" v="897720" />
	</node>
	<node id="-607493" lat="63.085424998" lon="8.18394166692">
		<tag k="name" v="Geilneset" />
		<tag k="natural" v="cape" />
		<tag k="ssr:stedsnr" v="897703" />
	</node>
	<node id="-608516" lat="63.0791277811" lon="8.28423611925">
		<tag k="name" v="Reitsjøen" />
		<tag k="natural" v="bay" />
		<tag k="ssr:stedsnr" v="715247" />
	</node>
	<node id="-608433" lat="63.1749500033" lon="8.65066389695">
		<tag k="name" v="Øra" />
		<tag k="natural" v="cape" />
		<tag k="ssr:stedsnr" v="654900" />
	</node>
	<node id="-608213" lat="63.1010361141" lon="8.33103056455">
		<tag k="name" v="Bekkneset" />
		<tag k="natural" v="cape" />
		<tag k="ssr:stedsnr" v="533988" />
	</node>
	<node id="-608508" lat="63.1188250029" lon="8.28232778628">
		<tag k="name" v="Grindneset" />
		<tag k="natural" v="cape" />
		<tag k="ssr:stedsnr" v="715075" />
	</node>
	<node id="-607994" lat="63.1834555595" lon="8.69996389331">
		<tag k="alt_name" v="Saltrøneset" />
		<tag k="name" v="Neset" />
		<tag k="natural" v="cape" />
		<tag k="ssr:stedsnr" v="437102" />
	</node>
	<node id="-608505" lat="63.1246749962" lon="8.25949445382">
		<tag k="name" v="Stolsmoholmen" />
		<tag k="place" v="islet" />
		<tag k="ssr:stedsnr" v="715068" />
	</node>
	<node id="-607992" lat="63.1480833327" lon="8.2966583424">
		<tag k="bay" v="fjord" />
		<tag k="name" v="Korsnesfjorden" />
		<tag k="natural" v="bay" />
		<tag k="ssr:stedsnr" v="437084" />
	</node>
	<node id="-607479" lat="63.1458472259" lon="8.24975833059">
		<tag k="name" v="Storvika" />
		<tag k="natural" v="bay" />
		<tag k="ssr:stedsnr" v="897287" />
	</node>
	<node id="-607477" lat="63.1454111071" lon="8.24412776822">
		<tag k="fixme" v="consider seamark:type=rock or natural=shoal" />
		<tag k="name" v="Islandsskjera" />
		<tag k="place" v="islet" />
		<tag k="ssr:stedsnr" v="897273" />
	</node>
	<node id="-607984" lat="63.1401611124" lon="8.55996111369">
		<tag k="name" v="Leirvika" />
		<tag k="natural" v="bay" />
		<tag k="ssr:stedsnr" v="255959" />
	</node>
	<node id="-607471" lat="63.1098388866" lon="8.31397499906">
		<tag k="fixme" v="consider seamark:type=rock or natural=shoal" />
		<tag k="name" v="Kobbskjeret" />
		<tag k="place" v="islet" />
		<tag k="ssr:stedsnr" v="897087" />
	</node>
	<node id="-607470" lat="63.1089944482" lon="8.31199722729">
		<tag k="name" v="Valan" />
		<tag k="natural" v="bay" />
		<tag k="ssr:stedsnr" v="897086" />
	</node>
	<node id="-607469" lat="63.1151416711" lon="8.28834443987">
		<tag k="name" v="Våglandholmen" />
		<tag k="place" v="islet" />
		<tag k="ssr:stedsnr" v="897075" />
	</node>
	<node id="-607468" lat="63.1217944427" lon="8.26866111866">
		<tag k="name" v="Brunsvika" />
		<tag k="natural" v="bay" />
		<tag k="ssr:stedsnr" v="897074" />
	</node>
	<node id="-607979" lat="63.0845861112" lon="8.32854444103">
		<tag k="name" v="Betnneset" />
		<tag k="natural" v="cape" />
		<tag k="ssr:stedsnr" v="255920" />
	</node>
	<node id="-607465" lat="63.1151277764" lon="8.15896666571">
		<tag k="name" v="Silarvika" />
		<tag k="natural" v="bay" />
		<tag k="ssr:stedsnr" v="896763" />
	</node>
	<node id="-608488" lat="63.0203555586" lon="8.25344167333">
		<tag k="name" v="Hjelpingneset" />
		<tag k="natural" v="cape" />
		<tag k="ssr:stedsnr" v="714534" />
	</node>
	<node id="-607975" lat="63.1324916693" lon="8.14985000735">
		<tag k="fixme" v="consider seamark:type=rock or natural=shoal" />
		<tag k="name" v="Småholman" />
		<tag k="place" v="islet" />
		<tag k="ssr:stedsnr" v="255278" />
	</node>
	<node id="-608486" lat="63.1263138891" lon="8.24796944658">
		<tag k="name" v="Løvikneset" />
		<tag k="natural" v="cape" />
		<tag k="ssr:stedsnr" v="714434" />
	</node>
	<node id="-607973" lat="63.1583499969" lon="8.54670277549">
		<tag k="name" v="Oddan" />
		<tag k="natural" v="cape" />
		<tag k="ssr:stedsnr" v="255080" />
	</node>
	<node id="-607270" lat="63.1266694451" lon="8.5973638794">
		<tag k="name" v="Ytre Fjærlibukta" />
		<tag k="natural" v="bay" />
		<tag k="ssr:stedsnr" v="400516" />
	</node>
	<node id="-607970" lat="63.1228861094" lon="8.5838555635">
		<tag k="name" v="Hjellnes" />
		<tag k="natural" v="cape" />
		<tag k="ssr:stedsnr" v="254975" />
	</node>
	<node id="-607969" lat="63.15193056" lon="8.49776389234">
		<tag k="name" v="Nordgrunnen" />
		<tag k="natural" v="shoal" />
		<tag k="place" v="locality" />
		<tag k="ssr:stedsnr" v="231827" />
	</node>
	<node id="-607968" lat="63.1410722238" lon="8.23790554904">
		<tag k="name" v="Korsnesflua" />
		<tag k="natural" v="shoal" />
		<tag k="place" v="locality" />
		<tag k="ssr:stedsnr" v="231153" />
	</node>
	<node id="-607455" lat="63.1039416631" lon="8.62311944854">
		<tag k="name" v="Kalvikflua" />
		<tag k="natural" v="shoal" />
		<tag k="place" v="locality" />
		<tag k="ssr:stedsnr" v="887484" />
	</node>
	<node id="-607454" lat="63.1338333336" lon="8.37068611033">
		<tag k="name" v="Einbukta" />
		<tag k="natural" v="bay" />
		<tag k="ssr:stedsnr" v="886801" />
	</node>
	<node id="-607453" lat="63.1296333377" lon="8.56166666021">
		<tag k="name" v="Langskjærrevet" />
		<tag k="natural" v="shoal" />
		<tag k="place" v="locality" />
		<tag k="ssr:stedsnr" v="886479" />
	</node>
	<node id="-607964" lat="63.1732166627" lon="8.6415749912">
		<tag k="name" v="Vollabukta" />
		<tag k="natural" v="bay" />
		<tag k="ssr:stedsnr" v="230895" />
	</node>
	<node id="-607450" lat="63.1540499988" lon="8.53667500919">
		<tag k="name" v="Tobbholmen" />
		<tag k="place" v="islet" />
		<tag k="ssr:stedsnr" v="473714" />
	</node>
	<node id="-607119" lat="63.1053777809" lon="8.3295944407">
		<tag k="name" v="Indervåglandsneset" />
		<tag k="natural" v="cape" />
		<tag k="ssr:stedsnr" v="290986" />
	</node>
	<node id="-608472" lat="63.1400222254" lon="8.51241111711">
		<tag k="name" v="Lamholmen" />
		<tag k="place" v="islet" />
		<tag k="ssr:stedsnr" v="715571" />
	</node>
	<node id="-608468" lat="63.1210750043" lon="8.59181944652">
		<tag k="fixme" v="consider seamark:type=rock or natural=shoal" />
		<tag k="name" v="Klubba" />
		<tag k="place" v="islet" />
		<tag k="ssr:stedsnr" v="715534" />
	</node>
	<node id="-608466" lat="63.1519638884" lon="8.36086666703">
		<tag k="name" v="Glomskallen" />
		<tag k="natural" v="shoal" />
		<tag k="place" v="locality" />
		<tag k="ssr:stedsnr" v="704792" />
	</node>
	<node id="-608465" lat="63.1353861073" lon="8.40018611605">
		<tag k="name" v="Skjerjebukta" />
		<tag k="natural" v="bay" />
		<tag k="ssr:stedsnr" v="704779" />
	</node>
	<node id="-607522" lat="63.0766999988" lon="8.20550278137">
		<tag k="name" v="Hagabukta" />
		<tag k="natural" v="bay" />
		<tag k="ssr:stedsnr" v="898600" />
	</node>
	<node id="-607664" lat="63.1488833358" lon="8.54760556006">
		<tag k="name" v="Stokkbukta" />
		<tag k="natural" v="bay" />
		<tag k="ssr:stedsnr" v="73946" />
	</node>
	<node id="-607732" lat="63.1092750015" lon="8.32029722533">
		<tag k="name" v="Brynholmen" />
		<tag k="place" v="islet" />
		<tag k="ssr:stedsnr" v="109088" />
	</node>
	<node id="-607861" lat="63.1781472252" lon="8.65913055317">
		<tag k="name" v="Gammelhamna" />
		<tag k="natural" v="bay" />
		<tag k="ssr:stedsnr" v="169865" />
	</node>
	<node id="-607690" lat="63.1490194487" lon="8.33610834043">
		<tag k="name" v="Tangen" />
		<tag k="natural" v="cape" />
		<tag k="ssr:stedsnr" v="107631" />
	</node>
	<node id="-607928" lat="63.0956222232" lon="8.32547777496">
		<tag k="name" v="Hamnaholmen" />
		<tag k="place" v="islet" />
		<tag k="ssr:stedsnr" v="229982" />
	</node>
	<node id="-608439" lat="63.1856194486" lon="8.7194583413">
		<tag k="name" v="Dyrvikan" />
		<tag k="natural" v="bay" />
		<tag k="ssr:stedsnr" v="655000" />
	</node>
	<node id="-607926" lat="63.1821833334" lon="8.74499722144">
		<tag k="name" v="Vollbukta" />
		<tag k="natural" v="bay" />
		<tag k="ssr:stedsnr" v="229958" />
	</node>
	<node id="-608115" lat="63.1172944479" lon="8.61533333734">
		<tag k="name" v="Indre Fjærlibukta" />
		<tag k="natural" v="bay" />
		<tag k="ssr:stedsnr" v="522530" />
	</node>
	<node id="-608432" lat="63.1802944472" lon="8.6661194487">
		<tag k="name" v="Gåsa" />
		<tag k="natural" v="cape" />
		<tag k="ssr:stedsnr" v="654889" />
	</node>
	<node id="-608431" lat="63.1805916693" lon="8.67537777025">
		<tag k="name" v="Litlgåsvika" />
		<tag k="natural" v="bay" />
		<tag k="ssr:stedsnr" v="654881" />
	</node>
	<node id="-608430" lat="63.1805805569" lon="8.67239721969">
		<tag k="name" v="Gåsvikmulen" />
		<tag k="natural" v="cape" />
		<tag k="ssr:stedsnr" v="654876" />
	</node>
	<node id="-607405" lat="63.1420250037" lon="8.42678887905">
		<tag k="name" v="Sørtangen" />
		<tag k="natural" v="cape" />
		<tag k="ssr:stedsnr" v="412541" />
	</node>
	<node id="-608423" lat="63.1555777803" lon="8.54227777815">
		<tag k="name" v="Munkhamna" />
		<tag k="natural" v="bay" />
		<tag k="ssr:stedsnr" v="654726" />
	</node>
	<node id="-607909" lat="63.1169250027" lon="8.15580277371">
		<tag k="alt_name" v="Purkholmen" />
		<tag k="name" v="Porkholmen" />
		<tag k="place" v="islet" />
		<tag k="ssr:stedsnr" v="229445" />
	</node>
	<node id="-607856" lat="63.1348083352" lon="8.46682222999">
		<tag k="name" v="Kanalbukta" />
		<tag k="natural" v="bay" />
		<tag k="ssr:stedsnr" v="169793" />
	</node>
	<node id="-607902" lat="63.0964305565" lon="8.30607222949">
		<tag k="name" v="Småsteinneset" />
		<tag k="natural" v="cape" />
		<tag k="ssr:stedsnr" v="229011" />
	</node>
	<node id="-607387" lat="63.1114388877" lon="8.59699999048">
		<tag k="name" v="Sandnesgalten" />
		<tag k="natural" v="cape" />
		<tag k="ssr:stedsnr" v="412504" />
	</node>
	<node id="-607898" lat="63.1402361079" lon="8.41359443693">
		<tag k="name" v="Storsteingrunnen" />
		<tag k="natural" v="shoal" />
		<tag k="place" v="locality" />
		<tag k="ssr:stedsnr" v="219821" />
	</node>
	<node id="-607918" lat="63.1085361101" lon="8.16145555253">
		<tag k="name" v="Storvika" />
		<tag k="natural" v="bay" />
		<tag k="ssr:stedsnr" v="229721" />
	</node>
	<node id="-608401" lat="63.1333861102" lon="8.19619166493">
		<tag k="name" v="Sauvika" />
		<tag k="natural" v="cape" />
		<tag k="ssr:stedsnr" v="654307" />
	</node>
	<node id="-608400" lat="63.1371194401" lon="8.24270277983">
		<tag k="name" v="Vikaholmen" />
		<tag k="place" v="islet" />
		<tag k="ssr:stedsnr" v="654298" />
	</node>
	<node id="-607169" lat="63.1429055514" lon="8.55874721732">
		<tag k="name" v="Storneset" />
		<tag k="natural" v="cape" />
		<tag k="ssr:stedsnr" v="316973" />
	</node>
	<node id="-607254" lat="63.0803277776" lon="8.29956111713">
		<tag k="name" v="Reitvågen" />
		<tag k="natural" v="bay" />
		<tag k="ssr:stedsnr" v="376908" />
	</node>
	<node id="-607872" lat="63.0800666709" lon="8.19182778619">
		<tag k="name" v="Skårneset" />
		<tag k="natural" v="cape" />
		<tag k="ssr:stedsnr" v="194176" />
	</node>
	<node id="-607871" lat="63.1485611086" lon="8.4796055654">
		<tag k="name" v="Langgrunnen" />
		<tag k="natural" v="shoal" />
		<tag k="place" v="locality" />
		<tag k="ssr:stedsnr" v="170809" />
	</node>
	<node id="-608382" lat="63.146077778" lon="8.5502416583">
		<tag k="name" v="Innerneset" />
		<tag k="natural" v="cape" />
		<tag k="ssr:stedsnr" v="653681" />
	</node>
	<node id="-607869" lat="63.1350416702" lon="8.19438611811">
		<tag k="name" v="Taren" />
		<tag k="natural" v="shoal" />
		<tag k="place" v="locality" />
		<tag k="ssr:stedsnr" v="170487" />
	</node>
	<node id="-607868" lat="63.1852666648" lon="8.72783610623">
		<tag k="name" v="Kalvtrøbukta" />
		<tag k="natural" v="bay" />
		<tag k="ssr:stedsnr" v="169999" />
	</node>
	<node id="-607867" lat="63.1850361154" lon="8.73474444171">
		<tag k="name" v="Nesset" />
		<tag k="natural" v="cape" />
		<tag k="ssr:stedsnr" v="169989" />
	</node>
	<node id="-608890" lat="63.1216168809" lon="8.26872240512">
		<tag k="name" v="Brunsvikholmen" />
		<tag k="place" v="islet" />
		<tag k="ssr:stedsnr" v="976113" />
	</node>
	<node id="-607167" lat="63.1265944404" lon="8.14351666408">
		<tag k="name" v="Volungøya" />
		<tag k="place" v="island" />
		<tag k="ssr:stedsnr" v="316300" />
	</node>
	<node id="-608885" lat="63.1040444484" lon="8.31297777762">
		<tag k="name" v="Kuneset" />
		<tag k="natural" v="cape" />
		<tag k="ssr:stedsnr" v="960384" />
	</node>
	<node id="-608884" lat="63.1842166697" lon="8.73590555835">
		<tag k="name" v="Engdalsbukta" />
		<tag k="natural" v="bay" />
		<tag k="ssr:stedsnr" v="958996" />
	</node>
	<node id="-607763" lat="63.102588893" lon="8.60754443908">
		<tag k="name" v="Vollaflua" />
		<tag k="natural" v="shoal" />
		<tag k="place" v="locality" />
		<tag k="ssr:stedsnr" v="110524" />
	</node>
	<node id="-608368" lat="63.1069805549" lon="8.62494166279">
		<tag k="name" v="Kalvikbukta" />
		<tag k="natural" v="bay" />
		<tag k="ssr:stedsnr" v="643442" />
	</node>
	<node id="-608365" lat="63.1487777753" lon="8.5317694517">
		<tag k="name" v="Valsøya" />
		<tag k="place" v="island" />
		<tag k="ssr:stedsnr" v="619962" />
	</node>
	<node id="-607338" lat="63.1400499985" lon="8.22379166251">
		<tag k="name" v="Geilneset" />
		<tag k="natural" v="cape" />
		<tag k="ssr:stedsnr" v="412255" />
	</node>
	<node id="-608358" lat="63.1669555546" lon="8.57224166662">
		<tag k="name" v="Kvithylla" />
		<tag k="natural" v="cape" />
		<tag k="ssr:stedsnr" v="619067" />
	</node>
	<node id="-607505" lat="63.1857694436" lon="8.73542777848">
		<tag k="fixme" v="consider seamark:type=rock or natural=shoal" />
		<tag k="name" v="Engdalskjeret" />
		<tag k="place" v="islet" />
		<tag k="ssr:stedsnr" v="897986" />
	</node>
	<node id="-608355" lat="63.1103111068" lon="8.27747500834">
		<tag k="name" v="Bårsetøya" />
		<tag k="place" v="islet" />
		<tag k="ssr:stedsnr" v="618979" />
	</node>
	<node id="-607842" lat="63.1397361084" lon="8.49954167608">
		<tag k="name" v="Galten" />
		<tag k="natural" v="cape" />
		<tag k="ssr:stedsnr" v="169571" />
	</node>
	<node id="-608443" lat="63.1764444481" lon="8.65469166129">
		<tag k="name" v="Hamnaskaget" />
		<tag k="natural" v="cape" />
		<tag k="ssr:stedsnr" v="655622" />
	</node>
	<node id="-608345" lat="63.0637999995" lon="8.22124722799">
		<tag k="name" v="Rødklakken" />
		<tag k="natural" v="shoal" />
		<tag k="place" v="locality" />
		<tag k="ssr:stedsnr" v="595198" />
	</node>
	<node id="-608336" lat="63.1537250017" lon="8.52828055616">
		<tag k="name" v="Lervågskaget" />
		<tag k="natural" v="cape" />
		<tag k="ssr:stedsnr" v="594684" />
	</node>
	<node id="-607311" lat="63.1076833366" lon="8.27268055127">
		<tag k="name" v="Kalvhusbukta" />
		<tag k="natural" v="bay" />
		<tag k="ssr:stedsnr" v="412076" />
	</node>
	<node id="-607310" lat="63.0994749972" lon="8.28382499977">
		<tag k="name" v="Skjelvågan" />
		<tag k="natural" v="bay" />
		<tag k="ssr:stedsnr" v="412005" />
	</node>
	<node id="-608330" lat="63.1373194415" lon="8.44460832457">
		<tag k="name" v="Storklubben" />
		<tag k="natural" v="cape" />
		<tag k="ssr:stedsnr" v="594584" />
	</node>
	<node id="-607671" lat="63.1137861135" lon="8.27613889728">
		<tag k="bay" v="fjord" />
		<tag k="name" v="Skålvikfjorden" />
		<tag k="natural" v="bay" />
		<tag k="ssr:stedsnr" v="73987" />
	</node>
	<node id="-607761" lat="63.1797972267" lon="8.66474444824">
		<tag k="name" v="Bergtåa" />
		<tag k="natural" v="cape" />
		<tag k="ssr:stedsnr" v="109850" />
	</node>
	<node id="-607815" lat="63.1415638933" lon="8.53213056134">
		<tag k="name" v="Hestholmen" />
		<tag k="place" v="islet" />
		<tag k="ssr:stedsnr" v="168815" />
	</node>
	<node id="-607841" lat="63.13422723" lon="8.46074620088">
		<tag k="name" v="Kane laksevorpe" />
		<tag k="place" v="locality" />
		<tag k="ssr:stedsnr" v="169559" />
	</node>
	<node id="-608836" lat="63.0982249987" lon="8.32349722567">
		<tag k="name" v="Bakkabukta" />
		<tag k="natural" v="bay" />
		<tag k="ssr:stedsnr" v="958194" />
	</node>
	<node id="-607670" lat="63.1211805562" lon="8.59650832758">
		<tag k="bay" v="fjord" />
		<tag k="name" v="Valsøyfjorden" />
		<tag k="natural" v="bay" />
		<tag k="ssr:stedsnr" v="73985" />
	</node>
	<node id="-607298" lat="63.0948444432" lon="8.17738055416">
		<tag k="name" v="Bekkevika" />
		<tag k="natural" v="bay" />
		<tag k="ssr:stedsnr" v="411746" />
	</node>
	<node id="-607809" lat="63.1497777762" lon="8.33168334136">
		<tag k="name" v="Vikaholet" />
		<tag k="natural" v="bay" />
		<tag k="ssr:stedsnr" v="168599" />
	</node>
	<node id="-608320" lat="63.0744166702" lon="8.29784445346">
		<tag k="name" v="Stavråberget" />
		<tag k="natural" v="cape" />
		<tag k="ssr:stedsnr" v="594193" />
	</node>
	<node id="-608318" lat="63.1021027823" lon="8.28359722074">
		<tag k="name" v="Skjelvågneset" />
		<tag k="natural" v="cape" />
		<tag k="ssr:stedsnr" v="594011" />
	</node>
	<node id="-608316" lat="63.1858666705" lon="8.72470555354">
		<tag k="fixme" v="consider seamark:type=rock or natural=shoal" />
		<tag k="name" v="Baggeskjeret" />
		<tag k="place" v="islet" />
		<tag k="ssr:stedsnr" v="593998" />
	</node>
	<node id="-607983" lat="63.1368999993" lon="8.5224222152">
		<tag k="name" v="Kjøløya" />
		<tag k="place" v="islet" />
		<tag k="ssr:stedsnr" v="255957" />
	</node>
	<node id="-608817" lat="63.1269166636" lon="8.24869999801">
		<tag k="name" v="Løvikstraumen" />
		<tag k="natural" v="strait" />
		<tag k="ssr:stedsnr" v="957477" />
	</node>
	<node id="-607279" lat="63.1002222246" lon="8.3176638817">
		<tag k="name" v="Kjeholmen" />
		<tag k="place" v="islet" />
		<tag k="ssr:stedsnr" v="411006" />
	</node>
	<node id="-607278" lat="63.0932638891" lon="8.30772221536">
		<tag k="name" v="Gjerstadgalten" />
		<tag k="natural" v="cape" />
		<tag k="ssr:stedsnr" v="411005" />
	</node>
	<node id="-608813" lat="63.1422472183" lon="8.54845556472">
		<tag k="name" v="Joholmen" />
		<tag k="place" v="islet" />
		<tag k="ssr:stedsnr" v="957646" />
	</node>
	<node id="-608812" lat="63.1464166704" lon="8.54181389459">
		<tag k="name" v="Roksvågen" />
		<tag k="natural" v="bay" />
		<tag k="ssr:stedsnr" v="957647" />
	</node>
	<node id="-607273" lat="63.1472666698" lon="8.31443333889">
		<tag k="name" v="Furuneset" />
		<tag k="natural" v="cape" />
		<tag k="ssr:stedsnr" v="408960" />
	</node>
	<node id="-607783" lat="63.1292472206" lon="8.17025278478">
		<tag k="fixme" v="multiple name tags, choose one and add the other to alt_name" />
		<tag k="name" v="Varpneset;Vorpneset" />
		<tag k="natural" v="cape" />
		<tag k="ssr:stedsnr" v="134314" />
	</node>
	<node id="-608806" lat="63.1220916687" lon="8.56996945357">
		<tag k="name" v="Sliperibukta" />
		<tag k="natural" v="bay" />
		<tag k="ssr:stedsnr" v="947464" />
	</node>
	<node id="-607269" lat="63.1413750042" lon="8.53443055081">
		<tag k="name" v="Valsøysundet" />
		<tag k="natural" v="strait" />
		<tag k="ssr:stedsnr" v="400514" />
	</node>
	<node id="-608804" lat="63.14483333" lon="8.4985222265">
		<tag k="name" v="Helgeneset" />
		<tag k="natural" v="cape" />
		<tag k="ssr:stedsnr" v="923957" />
	</node>
	<node id="-607779" lat="63.1117305558" lon="8.30639444557">
		<tag k="name" v="Storøya" />
		<tag k="place" v="islet" />
		<tag k="ssr:stedsnr" v="133982" />
	</node>
	<node id="-608288" lat="63.1359083335" lon="8.24338334219">
		<tag k="name" v="Tjuvnebben" />
		<tag k="natural" v="cape" />
		<tag k="ssr:stedsnr" v="593262" />
	</node>
	<node id="-607775" lat="63.1329638882" lon="8.52946665858">
		<tag k="name" v="Hestnes" />
		<tag k="natural" v="cape" />
		<tag k="ssr:stedsnr" v="133963" />
	</node>
	<node id="-608286" lat="63.1223611133" lon="8.58546945186">
		<tag k="name" v="Gilderhammaren" />
		<tag k="natural" v="cape" />
		<tag k="ssr:stedsnr" v="593161" />
	</node>
	<node id="-608796" lat="63.1298111147" lon="8.56796943556">
		<tag k="name" v="Langskjæret" />
		<tag k="natural" v="cape" />
		<tag k="ssr:stedsnr" v="922960" />
	</node>
	<node id="-608280" lat="63.1090333307" lon="8.31736389429">
		<tag k="name" v="Sjøbuholmen" />
		<tag k="place" v="islet" />
		<tag k="ssr:stedsnr" v="593097" />
	</node>
	<node id="-608279" lat="63.1117361125" lon="8.28189721864">
		<tag k="name" v="Bjønnasundet" />
		<tag k="natural" v="strait" />
		<tag k="ssr:stedsnr" v="593086" />
	</node>
	<node id="-608278" lat="63.1164305573" lon="8.29480000301">
		<tag k="name" v="Kuneset" />
		<tag k="natural" v="cape" />
		<tag k="ssr:stedsnr" v="593080" />
	</node>
	<node id="-608789" lat="63.028763885" lon="8.22075834306">
		<tag k="name" v="Kvalneset" />
		<tag k="natural" v="cape" />
		<tag k="ssr:stedsnr" v="922820" />
	</node>
	<node id="-607764" lat="63.1703222197" lon="8.60404444495">
		<tag k="name" v="Renndalshamna" />
		<tag k="natural" v="cape" />
		<tag k="ssr:stedsnr" v="133083" />
	</node>
	<node id="-608787" lat="63.0348166622" lon="8.21646387932">
		<tag k="alt_name" v="Saksnes" />
		<tag k="name" v="Saksneset" />
		<tag k="natural" v="cape" />
		<tag k="ssr:stedsnr" v="922200" />
	</node>
	<node id="-607762" lat="63.1013444436" lon="8.62905555877">
		<tag k="name" v="Ørabukta" />
		<tag k="natural" v="bay" />
		<tag k="ssr:stedsnr" v="110522" />
	</node>
	<node id="-608785" lat="63.160030555" lon="8.5305583356">
		<tag k="name" v="Ternholmgrunnen" />
		<tag k="natural" v="shoal" />
		<tag k="place" v="locality" />
		<tag k="ssr:stedsnr" v="899796" />
	</node>
	<node id="-607248" lat="63.0984416643" lon="8.18129166364">
		<tag k="name" v="Vikabukta" />
		<tag k="natural" v="bay" />
		<tag k="ssr:stedsnr" v="376321" />
	</node>
	<node id="-607758" lat="63.1667416627" lon="8.56992500227">
		<tag k="alt_name" v="Norkvithyllbukta" />
		<tag k="name" v="Nordkvithyllbukta" />
		<tag k="natural" v="bay" />
		<tag k="ssr:stedsnr" v="109676" />
	</node>
	<node id="-607245" lat="63.1091083359" lon="8.32276667041">
		<tag k="name" v="Sagbukta" />
		<tag k="natural" v="bay" />
		<tag k="ssr:stedsnr" v="352142" />
	</node>
	<node id="-608776" lat="63.1402999978" lon="8.23014722646">
		<tag k="name" v="Korsneset" />
		<tag k="natural" v="cape" />
		<tag k="ssr:stedsnr" v="862952" />
	</node>
	<node id="-607993" lat="63.1544888891" lon="8.54930277589">
		<tag k="name" v="Stokksundet" />
		<tag k="natural" v="strait" />
		<tag k="ssr:stedsnr" v="437089" />
	</node>
	<node id="-607238" lat="63.1278194435" lon="8.58498611444">
		<tag k="name" v="Apalneset" />
		<tag k="natural" v="cape" />
		<tag k="ssr:stedsnr" v="351845" />
	</node>
	<node id="-607749" lat="63.131233335" lon="8.18905833758">
		<tag k="name" v="Elvaneset" />
		<tag k="natural" v="cape" />
		<tag k="ssr:stedsnr" v="109553" />
	</node>
	<node id="-607747" lat="63.1410075145" lon="8.43218299028">
		<tag k="name" v="Kråknes laksevorpe" />
		<tag k="place" v="locality" />
		<tag k="ssr:stedsnr" v="109526" />
	</node>
	<node id="-607746" lat="63.1082888884" lon="8.59888054885">
		<tag k="name" v="Naustvollen" />
		<tag k="natural" v="cape" />
		<tag k="ssr:stedsnr" v="109506" />
	</node>
	<node id="-607233" lat="63.1507111121" lon="8.51898332913">
		<tag k="name" v="Buholmskaget" />
		<tag k="natural" v="cape" />
		<tag k="ssr:stedsnr" v="351695" />
	</node>
</osm>
