<?xml version="1.0" encoding="UTF-8"?>
<osm generator="osmapis" version="0.6">
	<node id="-435583" lat="59.8311361116" lon="6.2498944424">
		<tag k="alt_name" v="Skålnes" />
		<tag k="name" v="Skålnes lykt" />
		<tag k="ssr:date" v="2016-05-10" />
		<tag k="ssr:gruppe" v="navigasjon" />
		<tag k="ssr:hovedgruppe" v="infrastruktur" />
		<tag k="ssr:stedsnr" v="186050" />
		<tag k="ssr:type" v="fyrlykt" />
	</node>
	<node id="-436766" lat="60.8816104596" lon="6.30047518531">
		<tag k="name" v="Vestlandet" />
		<tag k="ssr:date" v="2019-01-06" />
		<tag k="ssr:gruppe" v="administrativeIndelinger" />
		<tag k="ssr:hovedgruppe" v="offentligAdministrasjon" />
		<tag k="ssr:stedsnr" v="974777" />
		<tag k="ssr:type" v="annenAdministrativInndeling" />
	</node>
	<node id="-436765" lat="59.8073862791" lon="6.16581957854">
		<tag k="name" v="Kallvika" />
		<tag k="ssr:date" v="2019-05-30" />
		<tag k="ssr:gruppe" v="veg" />
		<tag k="ssr:hovedgruppe" v="infrastruktur" />
		<tag k="ssr:stedsnr" v="974659" />
		<tag k="ssr:type" v="adressenavn" />
	</node>
	<node id="-436764" lat="59.8098085331" lon="6.1739971355">
		<tag k="name" v="Kvanndal" />
		<tag k="ssr:date" v="2019-05-30" />
		<tag k="ssr:gruppe" v="veg" />
		<tag k="ssr:hovedgruppe" v="infrastruktur" />
		<tag k="ssr:stedsnr" v="974658" />
		<tag k="ssr:type" v="adressenavn" />
	</node>
	<node id="-436763" lat="59.8133024263" lon="6.19029108243">
		<tag k="name" v="Hammarsland" />
		<tag k="ssr:date" v="2019-05-30" />
		<tag k="ssr:gruppe" v="veg" />
		<tag k="ssr:hovedgruppe" v="infrastruktur" />
		<tag k="ssr:stedsnr" v="974657" />
		<tag k="ssr:type" v="adressenavn" />
	</node>
	<node id="-436762" lat="59.814471059" lon="6.19242254737">
		<tag k="name" v="Strond" />
		<tag k="ssr:date" v="2019-05-30" />
		<tag k="ssr:gruppe" v="veg" />
		<tag k="ssr:hovedgruppe" v="infrastruktur" />
		<tag k="ssr:stedsnr" v="974656" />
		<tag k="ssr:type" v="adressenavn" />
	</node>
	<node id="-436761" lat="59.8235760945" lon="6.2098925231">
		<tag k="name" v="Bjelland" />
		<tag k="ssr:date" v="2019-05-30" />
		<tag k="ssr:gruppe" v="veg" />
		<tag k="ssr:hovedgruppe" v="infrastruktur" />
		<tag k="ssr:stedsnr" v="974655" />
		<tag k="ssr:type" v="adressenavn" />
	</node>
	<node id="-436760" lat="59.8248150357" lon="6.21196589188">
		<tag k="name" v="Eintveit" />
		<tag k="ssr:date" v="2019-05-30" />
		<tag k="ssr:gruppe" v="veg" />
		<tag k="ssr:hovedgruppe" v="infrastruktur" />
		<tag k="ssr:stedsnr" v="974654" />
		<tag k="ssr:type" v="adressenavn" />
	</node>
	<node id="-436759" lat="59.8365754709" lon="6.24348836645">
		<tag k="name" v="Teigen" />
		<tag k="ssr:date" v="2019-05-30" />
		<tag k="ssr:gruppe" v="veg" />
		<tag k="ssr:hovedgruppe" v="infrastruktur" />
		<tag k="ssr:stedsnr" v="974653" />
		<tag k="ssr:type" v="adressenavn" />
	</node>
	<node id="-436758" lat="59.7171575055" lon="5.84970506515">
		<tag k="name" v="Taraldsøya" />
		<tag k="ssr:date" v="2019-05-30" />
		<tag k="ssr:gruppe" v="veg" />
		<tag k="ssr:hovedgruppe" v="infrastruktur" />
		<tag k="ssr:stedsnr" v="974652" />
		<tag k="ssr:type" v="adressenavn" />
	</node>
	<node id="-436372" lat="59.6647237527" lon="5.93439816607">
		<tag k="loc_name" v="Etne" />
		<tag k="name" v="Etne kommune" />
		<tag k="ssr:date" v="2019-02-22" />
		<tag k="ssr:gruppe" v="administrativeIndelinger" />
		<tag k="ssr:hovedgruppe" v="offentligAdministrasjon" />
		<tag k="ssr:stedsnr" v="752007" />
		<tag k="ssr:type" v="kommune" />
	</node>
	<node id="-434840" lat="59.853872724" lon="6.33956273781">
		<tag k="alt_name" v="Mosnes" />
		<tag k="name" v="Mosnes lykt" />
		<tag k="ssr:date" v="2019-02-22" />
		<tag k="ssr:gruppe" v="navigasjon" />
		<tag k="ssr:hovedgruppe" v="infrastruktur" />
		<tag k="ssr:stedsnr" v="44636" />
		<tag k="ssr:type" v="fyrlykt" />
	</node>
	<node id="-436237" lat="59.6305027775" lon="5.95808611884">
		<tag k="name" v="Sunnhordland" />
		<tag k="ssr:date" v="2016-05-11" />
		<tag k="ssr:gruppe" v="terrengområder" />
		<tag k="ssr:hovedgruppe" v="terreng" />
		<tag k="ssr:stedsnr" v="692498" />
		<tag k="ssr:type" v="landskapsområde" />
	</node>
	<node id="-435148" lat="59.8545630891" lon="6.34044363129">
		<tag k="name" v="Mosnes" />
		<tag k="ssr:date" v="2019-05-30" />
		<tag k="ssr:gruppe" v="veg" />
		<tag k="ssr:hovedgruppe" v="infrastruktur" />
		<tag k="ssr:stedsnr" v="981309" />
		<tag k="ssr:type" v="adressenavn" />
	</node>
	<node id="-436586" lat="59.7259068186" lon="5.84775345378">
		<tag k="alt_name" v="Taraldsøya lykt;Taraldsøy;Taraldsøy lykt" />
		<tag k="name" v="Taraldsøya" />
		<tag k="ssr:date" v="2018-08-06" />
		<tag k="ssr:gruppe" v="navigasjon" />
		<tag k="ssr:hovedgruppe" v="infrastruktur" />
		<tag k="ssr:stedsnr" v="853643" />
		<tag k="ssr:type" v="fyrlykt" />
	</node>
	<node id="-436202" lat="59.7447861148" lon="5.92638055157">
		<tag k="alt_name" v="Skånevik" />
		<tag k="name" v="Skånevik lykt" />
		<tag k="ssr:date" v="2016-05-10" />
		<tag k="ssr:gruppe" v="navigasjon" />
		<tag k="ssr:hovedgruppe" v="infrastruktur" />
		<tag k="ssr:stedsnr" v="670624" />
		<tag k="ssr:type" v="fyrlykt" />
	</node>
	<node id="-436443" lat="59.7446083346" lon="6.04353055993">
		<tag k="alt_name" v="Susodden" />
		<tag k="name" v="Susodden lykt" />
		<tag k="ssr:date" v="2016-05-11" />
		<tag k="ssr:gruppe" v="navigasjon" />
		<tag k="ssr:hovedgruppe" v="infrastruktur" />
		<tag k="ssr:stedsnr" v="782311" />
		<tag k="ssr:type" v="fyrlykt" />
	</node>
</osm>
