<?xml version="1.0" encoding="UTF-8"?>
<osm generator="osmapis" version="0.6">
	<node id="-174071" lat="60.6694416628" lon="8.66395000139">
		<tag k="name" v="Lya" />
		<tag k="ssr:stedsnr" v="405938" />
		<tag k="waterway" v="river" />
	</node>
	<node id="-174069" lat="60.6862361119" lon="8.38315278268">
		<tag k="name" v="Raubugrove" />
		<tag k="ssr:stedsnr" v="405857" />
		<tag k="waterway" v="stream" />
	</node>
	<node id="-174066" lat="60.7134249989" lon="8.58942499604">
		<tag k="name" v="Langestrønde" />
		<tag k="natural" v="beach" />
		<tag k="ssr:stedsnr" v="405769" />
	</node>
	<node id="-174058" lat="60.6938666685" lon="8.28323055981">
		<tag k="name" v="Skardtjørne" />
		<tag k="natural" v="water" />
		<tag k="ssr:stedsnr" v="405480" />
	</node>
	<node id="-174045" lat="60.7179331774" lon="8.68180509371">
		<tag k="name" v="Øknevatn" />
		<tag k="natural" v="water" />
		<tag k="ssr:stedsnr" v="404834" />
		<tag k="water" v="lake" />
	</node>
	<node id="-174043" lat="60.5620166633" lon="8.61591388835">
		<tag k="name" v="Purka" />
		<tag k="natural" v="water" />
		<tag k="ssr:stedsnr" v="403474" />
	</node>
	<node id="-174037" lat="60.7682000033" lon="8.46547777131">
		<tag k="name" v="Grøvane" />
		<tag k="ssr:stedsnr" v="372987" />
		<tag k="waterway" v="stream" />
	</node>
	<node id="-174031" lat="60.7975499979" lon="8.14443611737">
		<tag k="name" v="Svortjørne" />
		<tag k="natural" v="water" />
		<tag k="ssr:stedsnr" v="372895" />
	</node>
	<node id="-174029" lat="60.8412603666" lon="7.97963121851">
		<tag k="name" v="Mjolgevatnet" />
		<tag k="natural" v="water" />
		<tag k="ssr:stedsnr" v="372743" />
		<tag k="water" v="lake" />
	</node>
	<node id="-174022" lat="60.7815083308" lon="8.52972500035">
		<tag k="name" v="Kyrkjetjerni" />
		<tag k="natural" v="water" />
		<tag k="ssr:stedsnr" v="372026" />
	</node>
	<node id="-174019" lat="60.6452208447" lon="8.5199445993">
		<tag k="alt_name" v="Staugardtjørni;Staugardtjørn" />
		<tag k="name" v="Staugardtjørne" />
		<tag k="natural" v="water" />
		<tag k="ssr:stedsnr" v="371997" />
	</node>
	<node id="-174013" lat="60.6305833349" lon="8.37653610652">
		<tag k="alt_name" v="Stokksendvatnet" />
		<tag k="name" v="Stokksennvatnet" />
		<tag k="natural" v="water" />
		<tag k="ssr:stedsnr" v="371640" />
		<tag k="water" v="lake" />
	</node>
	<node id="-174011" lat="60.6413388848" lon="8.38836111324">
		<tag k="name" v="Langtjørne" />
		<tag k="natural" v="water" />
		<tag k="old_name" v="Langtjørn" />
		<tag k="ssr:stedsnr" v="371613" />
	</node>
	<node id="-174010" lat="60.6420833311" lon="8.38403333605">
		<tag k="name" v="Daudfettjørne" />
		<tag k="natural" v="water" />
		<tag k="old_name" v="Daufettjørn" />
		<tag k="ssr:stedsnr" v="371614" />
	</node>
	<node id="-174009" lat="60.6670749981" lon="8.32689999154">
		<tag k="loc_name" v="Torkjelstjørn" />
		<tag k="name" v="Torkjelstjørne" />
		<tag k="natural" v="water" />
		<tag k="ssr:stedsnr" v="371579" />
	</node>
	<node id="-174006" lat="60.5560166673" lon="8.69014722703">
		<tag k="alt_name" v="Hamretjørn" />
		<tag k="name" v="Hamretjørni" />
		<tag k="natural" v="water" />
		<tag k="ssr:stedsnr" v="371229" />
	</node>
	<node id="-174001" lat="60.5996749965" lon="8.77660555363">
		<tag k="alt_name" v="Sievombe" />
		<tag k="loc_name" v="Sidevombe" />
		<tag k="name" v="Sievombi" />
		<tag k="natural" v="water" />
		<tag k="ssr:stedsnr" v="371047" />
	</node>
	<node id="-173999" lat="60.5647638846" lon="8.58831944583">
		<tag k="alt_name" v="Nysettjørn" />
		<tag k="name" v="Nysettjørni" />
		<tag k="natural" v="water" />
		<tag k="ssr:stedsnr" v="371002" />
	</node>
	<node id="-173985" lat="60.706349996" lon="8.72748054665">
		<tag k="name" v="Pålsetbekken" />
		<tag k="ssr:stedsnr" v="370882" />
		<tag k="waterway" v="stream" />
	</node>
	<node id="-173980" lat="60.7451999962" lon="8.6547361138">
		<tag k="alt_name" v="Dyretjørn" />
		<tag k="name" v="Dyretjerni" />
		<tag k="natural" v="water" />
		<tag k="ssr:stedsnr" v="370819" />
	</node>
	<node id="-173979" lat="60.5954111076" lon="8.47650276948">
		<tag k="name" v="Strandafjorden" />
		<tag k="natural" v="water" />
		<tag k="ssr:stedsnr" v="370709" />
		<tag k="water" v="lake" />
	</node>
	<node id="-173975" lat="60.7231000001" lon="8.15950834162">
		<tag k="name" v="Klovsteintjørne" />
		<tag k="natural" v="water" />
		<tag k="old_name" v="Kløvsteintjørn" />
		<tag k="ssr:stedsnr" v="370510" />
	</node>
	<node id="-173974" lat="60.7303861101" lon="8.28113333231">
		<tag k="name" v="Nørdre Dyrebotntjørne" />
		<tag k="natural" v="water" />
		<tag k="ssr:stedsnr" v="370504" />
	</node>
	<node id="-173966" lat="60.5803666693" lon="8.63173056361">
		<tag k="alt_name" v="Kroktjørn" />
		<tag k="name" v="Kroktjørni" />
		<tag k="natural" v="water" />
		<tag k="ssr:stedsnr" v="370023" />
	</node>
	<node id="-173965" lat="60.4940972221" lon="8.39257222592">
		<tag k="loc_name" v="Fyritjørnåne" />
		<tag k="name" v="Fyritjørnbekken" />
		<tag k="ssr:stedsnr" v="369834" />
		<tag k="waterway" v="stream" />
	</node>
	<node id="-173960" lat="60.6949055583" lon="8.57017499793">
		<tag k="name" v="Langetjørn" />
		<tag k="natural" v="water" />
		<tag k="ssr:stedsnr" v="359752" />
	</node>
	<node id="-173957" lat="60.6731472245" lon="8.57774723015">
		<tag k="name" v="Nedre Damtjørn" />
		<tag k="natural" v="water" />
		<tag k="ssr:stedsnr" v="359712" />
	</node>
	<node id="-173950" lat="60.7449277768" lon="8.14127221315">
		<tag k="name" v="Blommetjørn" />
		<tag k="natural" v="water" />
		<tag k="ssr:stedsnr" v="359212" />
	</node>
	<node id="-173948" lat="60.5547527796" lon="8.45948889033">
		<tag k="name" v="Nystøltjørn" />
		<tag k="natural" v="water" />
		<tag k="ssr:stedsnr" v="359014" />
	</node>
	<node id="-173947" lat="60.84493889" lon="8.18604166436">
		<tag k="alt_name" v="Lyserbottj" />
		<tag k="name" v="Lyserbottjørni" />
		<tag k="natural" v="water" />
		<tag k="ssr:stedsnr" v="356918" />
	</node>
	<node id="-173944" lat="60.5720416624" lon="8.54113332754">
		<tag k="alt_name" v="Mefaringen" />
		<tag k="name" v="Mefarningen" />
		<tag k="natural" v="water" />
		<tag k="old_name" v="Meefaringen" />
		<tag k="ssr:stedsnr" v="356028" />
		<tag k="water" v="lake" />
	</node>
	<node id="-175991" lat="60.5452972181" lon="8.65049166094">
		<tag k="name" v="Nedre Skitjørn" />
		<tag k="natural" v="water" />
		<tag k="ssr:stedsnr" v="968041" />
	</node>
	<node id="-175989" lat="60.5359999999" lon="8.57379166222">
		<tag k="name" v="Nordre Rotetjørn" />
		<tag k="natural" v="water" />
		<tag k="ssr:stedsnr" v="966884" />
	</node>
	<node id="-175985" lat="60.680433332" lon="8.56504167169">
		<tag k="name" v="Nedre Damtjørn" />
		<tag k="natural" v="water" />
		<tag k="ssr:stedsnr" v="966733" />
	</node>
	<node id="-175983" lat="60.6801583313" lon="8.55772222922">
		<tag k="name" v="Åstjørn" />
		<tag k="natural" v="water" />
		<tag k="ssr:stedsnr" v="966727" />
	</node>
	<node id="-173931" lat="60.7022833313" lon="8.62690000822">
		<tag k="name" v="Vesleånslette" />
		<tag k="natural" v="water" />
		<tag k="ssr:stedsnr" v="344719" />
	</node>
	<node id="-175977" lat="60.5051916629" lon="8.44630832586">
		<tag k="name" v="Langodden" />
		<tag k="natural" v="cape" />
		<tag k="ssr:stedsnr" v="966216" />
	</node>
	<node id="-175973" lat="60.6448138882" lon="8.76042500559">
		<tag k="name" v="Vesletjørn" />
		<tag k="natural" v="water" />
		<tag k="ssr:stedsnr" v="966006" />
	</node>
	<node id="-175969" lat="60.6292638867" lon="8.68337777291">
		<tag k="alt_name" v="Trolltjørni;Trolltjørn" />
		<tag k="name" v="Trolltjerni" />
		<tag k="natural" v="water" />
		<tag k="ssr:stedsnr" v="963088" />
	</node>
	<node id="-175966" lat="60.7447416643" lon="8.14294722367">
		<tag k="name" v="Nedre Blomestøltjørne" />
		<tag k="natural" v="water" />
		<tag k="ssr:stedsnr" v="962435" />
	</node>
	<node id="-173915" lat="60.7486638871" lon="8.29041110817">
		<tag k="name" v="Hellogrove" />
		<tag k="ssr:stedsnr" v="344939" />
		<tag k="waterway" v="stream" />
	</node>
	<node id="-173911" lat="60.6013277775" lon="8.46729444425">
		<tag k="alt_name" v="Sundbreigrovi" />
		<tag k="name" v="Sundbreigrove" />
		<tag k="ssr:stedsnr" v="102703" />
		<tag k="waterway" v="stream" />
	</node>
	<node id="-173899" lat="60.8211583352" lon="8.37821667431">
		<tag k="name" v="Store Beihovdtjørne" />
		<tag k="natural" v="water" />
		<tag k="ssr:stedsnr" v="312886" />
	</node>
	<node id="-173896" lat="60.8425333364" lon="8.01596110262">
		<tag k="name" v="Julsennbekken" />
		<tag k="ssr:stedsnr" v="312709" />
		<tag k="waterway" v="stream" />
	</node>
	<node id="-173895" lat="60.8403302538" lon="7.91586101424">
		<tag k="name" v="Fødalstangen" />
		<tag k="natural" v="cape" />
		<tag k="ssr:stedsnr" v="312704" />
	</node>
	<node id="-175941" lat="60.6274333301" lon="8.44387222717">
		<tag k="name" v="Rotebakktjørn" />
		<tag k="natural" v="water" />
		<tag k="ssr:stedsnr" v="949942" />
	</node>
	<node id="-175939" lat="60.599441667" lon="8.66685276926">
		<tag k="name" v="Tomastjørn" />
		<tag k="natural" v="water" />
		<tag k="ssr:stedsnr" v="949200" />
	</node>
	<node id="-173890" lat="60.7626361156" lon="8.36215000692">
		<tag k="name" v="Lauvdalsåne" />
		<tag k="old_name" v="Lauvedalsåne" />
		<tag k="ssr:stedsnr" v="311995" />
		<tag k="waterway" v="stream" />
	</node>
	<node id="-173888" lat="60.7765000021" lon="8.39566110463">
		<tag k="name" v="Breatjørnan" />
		<tag k="natural" v="water" />
		<tag k="ssr:stedsnr" v="311909" />
	</node>
	<node id="-173887" lat="60.7788305518" lon="8.34949167333">
		<tag k="name" v="Klypestjørne" />
		<tag k="natural" v="water" />
		<tag k="ssr:stedsnr" v="311907" />
	</node>
	<node id="-175934" lat="60.6509222208" lon="8.50111667052">
		<tag k="name" v="Blekketjørn" />
		<tag k="natural" v="water" />
		<tag k="ssr:stedsnr" v="931758" />
	</node>
	<node id="-173884" lat="60.854530558" lon="7.99921111023">
		<tag k="name" v="Mjolga" />
		<tag k="ssr:stedsnr" v="311690" />
		<tag k="waterway" v="stream" />
	</node>
	<node id="-173883" lat="60.8641768243" lon="7.78993815781">
		<tag k="name" v="Midtre Flågrunnsvatnet" />
		<tag k="natural" v="water" />
		<tag k="ssr:stedsnr" v="311685" />
		<tag k="water" v="lake" />
	</node>
	<node id="-173882" lat="60.8798499958" lon="8.0107249938">
		<tag k="name" v="Mjolgetjørne" />
		<tag k="natural" v="water" />
		<tag k="ssr:stedsnr" v="311682" />
	</node>
	<node id="-173881" lat="60.8807249974" lon="7.93356667328">
		<tag k="name" v="Steinevatnet" />
		<tag k="natural" v="water" />
		<tag k="ssr:stedsnr" v="311668" />
		<tag k="water" v="lake" />
	</node>
	<node id="-173876" lat="60.6492000035" lon="8.68493611902">
		<tag k="name" v="Tingvollfjorden" />
		<tag k="natural" v="water" />
		<tag k="ssr:stedsnr" v="310989" />
		<tag k="water" v="lake" />
	</node>
	<node id="-175923" lat="60.8328166649" lon="8.17515555122">
		<tag k="name" v="Langevatnet" />
		<tag k="natural" v="water" />
		<tag k="ssr:stedsnr" v="919908" />
	</node>
	<node id="-175922" lat="60.8158361127" lon="8.31701389576">
		<tag k="name" v="Skarvanstølåni" />
		<tag k="ssr:stedsnr" v="919898" />
		<tag k="waterway" v="stream" />
	</node>
	<node id="-175921" lat="60.7955361149" lon="8.31408055232">
		<tag k="name" v="Øynegrovi" />
		<tag k="ssr:stedsnr" v="919869" />
		<tag k="waterway" v="stream" />
	</node>
	<node id="-175920" lat="60.8175277789" lon="8.03579999305">
		<tag k="name" v="Storegrove" />
		<tag k="ssr:stedsnr" v="919728" />
		<tag k="waterway" v="river" />
	</node>
	<node id="-173866" lat="60.6795249976" lon="8.61633889629">
		<tag k="name" v="Onsetbekken" />
		<tag k="ssr:stedsnr" v="310901" />
		<tag k="waterway" v="stream" />
	</node>
	<node id="-175913" lat="60.7817888873" lon="8.02294999876">
		<tag k="name" v="Holmen" />
		<tag k="place" v="island" />
		<tag k="ssr:stedsnr" v="918782" />
	</node>
	<node id="-175912" lat="60.853877779" lon="7.97450000057">
		<tag k="name" v="Trollåne" />
		<tag k="ssr:stedsnr" v="918709" />
		<tag k="waterway" v="stream" />
	</node>
	<node id="-175911" lat="60.8733500016" lon="8.14273889659">
		<tag k="name" v="Hestebottjørne" />
		<tag k="natural" v="water" />
		<tag k="ssr:stedsnr" v="918647" />
	</node>
	<node id="-175910" lat="60.7643749957" lon="8.06490555236">
		<tag k="name" v="Svaravatnet" />
		<tag k="natural" v="water" />
		<tag k="ssr:stedsnr" v="918597" />
		<tag k="water" v="lake" />
	</node>
	<node id="-173859" lat="60.6084694401" lon="8.45464443703">
		<tag k="name" v="Damtjørnan" />
		<tag k="natural" v="water" />
		<tag k="ssr:stedsnr" v="310682" />
	</node>
	<node id="-173858" lat="60.6060083314" lon="8.42026110557">
		<tag k="name" v="Bekkestadtjørne" />
		<tag k="natural" v="water" />
		<tag k="old_name" v="Bekkestadtjørn" />
		<tag k="ssr:stedsnr" v="310680" />
	</node>
	<node id="-173857" lat="60.6075111089" lon="8.42978611125">
		<tag k="name" v="Langetjørne" />
		<tag k="natural" v="water" />
		<tag k="old_name" v="Langetjørn" />
		<tag k="ssr:stedsnr" v="310679" />
	</node>
	<node id="-175903" lat="60.6577416675" lon="8.51616944541">
		<tag k="alt_name" v="Kroktjørn" />
		<tag k="name" v="Kroktjørni" />
		<tag k="natural" v="water" />
		<tag k="old_name" v="Krokvatnet;Krog Kj" />
		<tag k="ssr:stedsnr" v="917938" />
	</node>
	<node id="-173853" lat="60.6623194432" lon="8.33848888864">
		<tag k="name" v="Mjåvatnet" />
		<tag k="natural" v="water" />
		<tag k="old_name" v="Mjåvatn;Mjaavand" />
		<tag k="ssr:stedsnr" v="310583" />
		<tag k="water" v="lake" />
	</node>
	<node id="-173852" lat="60.6540472267" lon="8.42110000169">
		<tag k="name" v="Hornansåne" />
		<tag k="old_name" v="Hornaa" />
		<tag k="ssr:stedsnr" v="310570" />
		<tag k="waterway" v="stream" />
	</node>
	<node id="-173849" lat="60.6793888933" lon="8.35503611657">
		<tag k="name" v="Mjåvassbekken" />
		<tag k="ssr:stedsnr" v="310547" />
		<tag k="waterway" v="stream" />
	</node>
	<node id="-173847" lat="60.555038885" lon="8.62418332798">
		<tag k="name" v="Vestrebekken" />
		<tag k="ssr:stedsnr" v="310231" />
		<tag k="waterway" v="stream" />
	</node>
	<node id="-173845" lat="60.5477611118" lon="8.60216666191">
		<tag k="name" v="Sundøyrtjørnane" />
		<tag k="natural" v="water" />
		<tag k="ssr:stedsnr" v="310221" />
	</node>
	<node id="-173844" lat="60.547186111" lon="8.62046110956">
		<tag k="alt_name" v="Kvannebergtjørn" />
		<tag k="name" v="Kvannetjørni" />
		<tag k="natural" v="water" />
		<tag k="ssr:stedsnr" v="310219" />
	</node>
	<node id="-175890" lat="60.7079472187" lon="8.35823888378">
		<tag k="name" v="Vesle Damtjørne" />
		<tag k="natural" v="water" />
		<tag k="old_name" v="Damtjørne, l" />
		<tag k="ssr:stedsnr" v="917489" />
	</node>
	<node id="-175889" lat="60.7403944449" lon="8.34172500547">
		<tag k="name" v="Hundetjørnan" />
		<tag k="natural" v="water" />
		<tag k="old_name" v="Hundetjørn" />
		<tag k="ssr:stedsnr" v="917423" />
	</node>
	<node id="-175888" lat="60.7349250003" lon="8.26005278215">
		<tag k="name" v="Nedre Eitretjørne" />
		<tag k="natural" v="water" />
		<tag k="ssr:stedsnr" v="917419" />
	</node>
	<node id="-175887" lat="60.7416388911" lon="8.1678805581">
		<tag k="loc_name" v="Dyrebottjørne" />
		<tag k="name" v="Dyrebotntjørne" />
		<tag k="natural" v="water" />
		<tag k="old_name" v="Dyrebotntjørn" />
		<tag k="ssr:stedsnr" v="917416" />
	</node>
	<node id="-175886" lat="60.7469833311" lon="8.45297499187">
		<tag k="name" v="Øynegrove" />
		<tag k="ssr:stedsnr" v="917413" />
		<tag k="waterway" v="stream" />
	</node>
	<node id="-173837" lat="60.5901111137" lon="8.51973889654">
		<tag k="alt_name" v="Damtjørn" />
		<tag k="name" v="Damtjørni" />
		<tag k="natural" v="water" />
		<tag k="ssr:stedsnr" v="310069" />
	</node>
	<node id="-173836" lat="60.6033388853" lon="8.61156389187">
		<tag k="alt_name" v="Helletjørn" />
		<tag k="name" v="Helletjørni" />
		<tag k="natural" v="water" />
		<tag k="ssr:stedsnr" v="310055" />
	</node>
	<node id="-175883" lat="60.5419916676" lon="8.47801666539">
		<tag k="alt_name" v="Langetjørn" />
		<tag k="name" v="Langtjørni" />
		<tag k="natural" v="water" />
		<tag k="ssr:stedsnr" v="917191" />
	</node>
	<node id="-173833" lat="60.5907750027" lon="8.58354999357">
		<tag k="alt_name" v="Hustjørn" />
		<tag k="name" v="Hustjørni" />
		<tag k="natural" v="water" />
		<tag k="ssr:stedsnr" v="310027" />
	</node>
	<node id="-175879" lat="60.511498154" lon="8.58635464225">
		<tag k="name" v="Sundet" />
		<tag k="natural" v="strait" />
		<tag k="ssr:stedsnr" v="917164" />
	</node>
	<node id="-173830" lat="60.5652694449" lon="8.63075555763">
		<tag k="name" v="Helletjørni" />
		<tag k="natural" v="water" />
		<tag k="ssr:stedsnr" v="310003" />
	</node>
	<node id="-175870" lat="60.6299250027" lon="8.62098611224">
		<tag k="name" v="Dokkgrovi" />
		<tag k="ssr:stedsnr" v="917083" />
		<tag k="waterway" v="stream" />
	</node>
	<node id="-173819" lat="60.7408694468" lon="8.59567500538">
		<tag k="alt_name" v="Steintjørn" />
		<tag k="name" v="Steintjerni" />
		<tag k="natural" v="water" />
		<tag k="ssr:stedsnr" v="309802" />
	</node>
	<node id="-173818" lat="60.6752166699" lon="8.65091388312">
		<tag k="name" v="Lya" />
		<tag k="ssr:stedsnr" v="309800" />
		<tag k="waterway" v="river" />
	</node>
	<node id="-175865" lat="60.632577775" lon="8.83951666746">
		<tag k="alt_name" v="Gudbrandstjørn" />
		<tag k="name" v="Gudbrandstjerni" />
		<tag k="natural" v="water" />
		<tag k="ssr:stedsnr" v="917069" />
	</node>
	<node id="-173815" lat="60.735725004" lon="8.24426388364">
		<tag k="name" v="Øvre Eitretjørne" />
		<tag k="natural" v="water" />
		<tag k="ssr:stedsnr" v="309493" />
	</node>
	<node id="-173813" lat="60.7138138878" lon="8.16521111347">
		<tag k="name" v="Veslevatnet" />
		<tag k="natural" v="water" />
		<tag k="ssr:stedsnr" v="309569" />
	</node>
	<node id="-175860" lat="60.5995111108" lon="8.7865222291">
		<tag k="alt_name" v="Kroktjørn" />
		<tag k="name" v="Kroktjerni" />
		<tag k="natural" v="water" />
		<tag k="ssr:stedsnr" v="917046" />
	</node>
	<node id="-175857" lat="60.6875777782" lon="8.60366388886">
		<tag k="alt_name" v="Tjødnstøltjørn" />
		<tag k="name" v="Tjørnstøltjørni" />
		<tag k="natural" v="water" />
		<tag k="ssr:stedsnr" v="916910" />
	</node>
	<node id="-175855" lat="60.4993611074" lon="8.450763884">
		<tag k="name" v="Halldalsvatnet" />
		<tag k="natural" v="water" />
		<tag k="ssr:stedsnr" v="916872" />
		<tag k="water" v="lake" />
	</node>
	<node id="-175854" lat="60.7078444484" lon="8.53417777779">
		<tag k="alt_name" v="Løkenstjørn" />
		<tag k="name" v="Løkenstjørni" />
		<tag k="natural" v="water" />
		<tag k="ssr:stedsnr" v="916868" />
	</node>
	<node id="-175851" lat="60.7363499977" lon="8.74763611579">
		<tag k="fixme" v="multiple name tags, choose one and add the other to alt_name" />
		<tag k="name" v="Kroktjern;Gravastøltjern" />
		<tag k="natural" v="water" />
		<tag k="ssr:stedsnr" v="916838" />
	</node>
	<node id="-173800" lat="60.681938893" lon="8.5377611156">
		<tag k="name" v="Arnegardsgrove" />
		<tag k="ssr:stedsnr" v="298697" />
		<tag k="waterway" v="stream" />
	</node>
	<node id="-175846" lat="60.4284277787" lon="9.38548888622">
		<tag k="loc_name" v="Storåne" />
		<tag k="name" v="Hallingdalselve" />
		<tag k="old_name" v="Hallingdalsåni" />
		<tag k="ssr:stedsnr" v="916191" />
		<tag k="waterway" v="river" />
	</node>
	<node id="-175842" lat="60.5852749993" lon="8.5892444528">
		<tag k="name" v="Hustjørn" />
		<tag k="natural" v="water" />
		<tag k="ssr:stedsnr" v="908848" />
	</node>
	<node id="-173789" lat="60.6281500004" lon="8.4977027729">
		<tag k="name" v="Stakkestøet" />
		<tag k="place" v="locality" />
		<tag k="ssr:stedsnr" v="284991" />
	</node>
	<node id="-173785" lat="60.6263000016" lon="8.48404167465">
		<tag k="name" v="Stavåne" />
		<tag k="ssr:stedsnr" v="284523" />
		<tag k="waterway" v="stream" />
	</node>
	<node id="-175830" lat="60.7499194455" lon="8.16240277115">
		<tag k="name" v="Dyrebotnåne" />
		<tag k="ssr:stedsnr" v="906223" />
		<tag k="waterway" v="stream" />
	</node>
	<node id="-173780" lat="60.6910944445" lon="8.60986943647">
		<tag k="name" v="Mørshøl" />
		<tag k="natural" v="water" />
		<tag k="ssr:stedsnr" v="283693" />
		<tag k="water" v="lake" />
	</node>
	<node id="-173773" lat="60.6631444406" lon="8.4691472294">
		<tag k="name" v="Søre Holtetjørne" />
		<tag k="natural" v="water" />
		<tag k="ssr:stedsnr" v="281638" />
	</node>
	<node id="-175817" lat="60.6789944462" lon="8.56180278467">
		<tag k="alt_name" v="Hologrovi;Holograve" />
		<tag k="name" v="Hologrove" />
		<tag k="ssr:stedsnr" v="902596" />
		<tag k="waterway" v="stream" />
	</node>
	<node id="-175802" lat="60.7592305565" lon="8.62840277365">
		<tag k="alt_name" v="Breisettjørn" />
		<tag k="name" v="Breidsettjerni" />
		<tag k="natural" v="water" />
		<tag k="ssr:stedsnr" v="859032" />
	</node>
	<node id="-175801" lat="60.7689500025" lon="8.21554166016">
		<tag k="name" v="Eitretjørne" />
		<tag k="natural" v="water" />
		<tag k="ssr:stedsnr" v="858983" />
	</node>
	<node id="-175800" lat="60.8550250038" lon="8.26467500173">
		<tag k="name" v="Veslebottjørne" />
		<tag k="natural" v="water" />
		<tag k="ssr:stedsnr" v="858932" />
	</node>
	<node id="-175798" lat="60.8306166708" lon="8.15519444547">
		<tag k="name" v="Vollegrovi" />
		<tag k="ssr:stedsnr" v="858918" />
		<tag k="waterway" v="stream" />
	</node>
	<node id="-175795" lat="60.807036112" lon="8.46181667106">
		<tag k="name" v="Storebottjørne" />
		<tag k="natural" v="water" />
		<tag k="ssr:stedsnr" v="858892" />
	</node>
	<node id="-175792" lat="60.7955027795" lon="8.43190000379">
		<tag k="name" v="Skridune" />
		<tag k="ssr:stedsnr" v="858882" />
		<tag k="waterway" v="stream" />
	</node>
	<node id="-175789" lat="60.8175388909" lon="7.92733887969">
		<tag k="name" v="Fossebrekka" />
		<tag k="ssr:stedsnr" v="858775" />
		<tag k="waterway" v="stream" />
	</node>
	<node id="-175786" lat="60.8031027774" lon="7.99232777777">
		<tag k="name" v="Djupsvatnet" />
		<tag k="natural" v="water" />
		<tag k="ssr:stedsnr" v="858729" />
		<tag k="water" v="lake" />
	</node>
	<node id="-175785" lat="60.8120805601" lon="7.97101666951">
		<tag k="name" v="Toviki" />
		<tag k="natural" v="bay" />
		<tag k="ssr:stedsnr" v="858719" />
	</node>
	<node id="-175784" lat="60.8716750023" lon="8.08615833139">
		<tag k="name" v="Reinstjørne" />
		<tag k="natural" v="water" />
		<tag k="ssr:stedsnr" v="858677" />
	</node>
	<node id="-175783" lat="60.9008250035" lon="7.8934111092">
		<tag k="name" v="Urgeåne" />
		<tag k="ssr:stedsnr" v="858644" />
		<tag k="waterway" v="stream" />
	</node>
	<node id="-175773" lat="60.5179638879" lon="8.64442499154">
		<tag k="alt_name" v="Langetjørn" />
		<tag k="name" v="Langetjørni" />
		<tag k="natural" v="water" />
		<tag k="ssr:stedsnr" v="857234" />
	</node>
	<node id="-175768" lat="60.5892583293" lon="8.76280833184">
		<tag k="alt_name" v="Belgavatnet" />
		<tag k="name" v="Øvre Belgevatnet" />
		<tag k="natural" v="water" />
		<tag k="ssr:stedsnr" v="857040" />
		<tag k="water" v="lake" />
	</node>
	<node id="-175766" lat="60.6498500035" lon="8.52457222348">
		<tag k="alt_name" v="Langetjørni;Langetjørn" />
		<tag k="name" v="Langetjørne" />
		<tag k="natural" v="water" />
		<tag k="ssr:stedsnr" v="856980" />
	</node>
	<node id="-175763" lat="60.6763166624" lon="8.57076665905">
		<tag k="name" v="Skardtjørne" />
		<tag k="natural" v="water" />
		<tag k="ssr:stedsnr" v="856950" />
	</node>
	<node id="-175753" lat="60.6968694462" lon="8.58359166625">
		<tag k="alt_name" v="Grytegrovi" />
		<tag k="name" v="Grytegrove" />
		<tag k="ssr:stedsnr" v="856891" />
		<tag k="waterway" v="stream" />
	</node>
	<node id="-175752" lat="60.7016250017" lon="8.77413889137">
		<tag k="name" v="Halldisløken" />
		<tag k="ssr:stedsnr" v="856887" />
		<tag k="waterway" v="stream" />
	</node>
	<node id="-175748" lat="60.6931166624" lon="8.61991666074">
		<tag k="alt_name" v="Vesleåni" />
		<tag k="name" v="Vesleåne" />
		<tag k="ssr:stedsnr" v="856859" />
		<tag k="waterway" v="river" />
	</node>
	<node id="-175740" lat="60.7169833334" lon="8.35010277756">
		<tag k="name" v="Kroktjørne" />
		<tag k="natural" v="water" />
		<tag k="old_name" v="Kroktjørn" />
		<tag k="ssr:stedsnr" v="856572" />
	</node>
	<node id="-175738" lat="60.7293749996" lon="8.37300833325">
		<tag k="name" v="Heståne" />
		<tag k="ssr:stedsnr" v="856515" />
		<tag k="waterway" v="stream" />
	</node>
	<node id="-175737" lat="60.7435388849" lon="8.3738527723">
		<tag k="alt_name" v="Fiskeløktjørn" />
		<tag k="name" v="Fiskeløktjørni" />
		<tag k="natural" v="water" />
		<tag k="ssr:stedsnr" v="856509" />
	</node>
	<node id="-175733" lat="60.5678138881" lon="8.67536667403">
		<tag k="alt_name" v="Butjørn" />
		<tag k="name" v="Butjørni" />
		<tag k="natural" v="water" />
		<tag k="ssr:stedsnr" v="856013" />
	</node>
	<node id="-175729" lat="60.5471333312" lon="8.63891388733">
		<tag k="name" v="Øvre Skitjørn" />
		<tag k="natural" v="water" />
		<tag k="ssr:stedsnr" v="847052" />
	</node>
	<node id="-175728" lat="60.54249722" lon="8.64766111936">
		<tag k="name" v="Nedre Skitjørn" />
		<tag k="natural" v="water" />
		<tag k="ssr:stedsnr" v="846644" />
	</node>
	<node id="-175716" lat="60.727022221" lon="8.16087222837">
		<tag k="name" v="Heimtjørn" />
		<tag k="natural" v="water" />
		<tag k="ssr:stedsnr" v="845232" />
	</node>
	<node id="-175709" lat="60.6279539948" lon="8.71412894174">
		<tag k="name" v="Bausta" />
		<tag k="natural" v="water" />
		<tag k="old_name" v="Bausten;Baustasjøen;Baustevatnet;Baustadsjøen" />
		<tag k="ssr:stedsnr" v="842081" />
		<tag k="water" v="lake" />
	</node>
	<node id="-175703" lat="60.7337972221" lon="8.27874721538">
		<tag k="name" v="Eitra" />
		<tag k="ssr:stedsnr" v="830938" />
		<tag k="waterway" v="stream" />
	</node>
	<node id="-175697" lat="60.7202361112" lon="8.29334722601">
		<tag k="name" v="Langtjørn" />
		<tag k="natural" v="water" />
		<tag k="ssr:stedsnr" v="830890" />
	</node>
	<node id="-175684" lat="60.6445833322" lon="8.38255833389">
		<tag k="name" v="Gardstjørn" />
		<tag k="natural" v="water" />
		<tag k="ssr:stedsnr" v="830628" />
	</node>
	<node id="-175671" lat="60.7392305569" lon="8.54823610847">
		<tag k="name" v="Svarthøl" />
		<tag k="place" v="locality" />
		<tag k="ssr:stedsnr" v="830148" />
	</node>
	<node id="-175666" lat="60.7161805578" lon="8.39295000157">
		<tag k="name" v="Ringane" />
		<tag k="place" v="locality" />
		<tag k="ssr:stedsnr" v="830002" />
	</node>
	<node id="-175645" lat="60.8486750032" lon="8.06893889005">
		<tag k="name" v="Storefjellsåne" />
		<tag k="ssr:stedsnr" v="797741" />
		<tag k="waterway" v="stream" />
	</node>
	<node id="-175644" lat="60.8391666707" lon="7.87115000559">
		<tag k="name" v="Galdetjørnan" />
		<tag k="natural" v="water" />
		<tag k="ssr:stedsnr" v="797740" />
	</node>
	<node id="-175642" lat="60.8045805527" lon="8.03225277789">
		<tag k="name" v="Godbekken" />
		<tag k="ssr:stedsnr" v="797720" />
		<tag k="waterway" v="stream" />
	</node>
	<node id="-175640" lat="60.8618500036" lon="7.95072777574">
		<tag k="name" v="Svartetjørne" />
		<tag k="natural" v="water" />
		<tag k="ssr:stedsnr" v="797660" />
	</node>
	<node id="-175639" lat="60.8712083289" lon="7.94229999439">
		<tag k="name" v="Jutultjørne" />
		<tag k="natural" v="water" />
		<tag k="ssr:stedsnr" v="797654" />
	</node>
	<node id="-175638" lat="60.7756999973" lon="8.01121666902">
		<tag k="name" v="Bjørnsenntjørni" />
		<tag k="natural" v="water" />
		<tag k="ssr:stedsnr" v="797555" />
	</node>
	<node id="-175637" lat="60.7704277797" lon="8.61986667013">
		<tag k="alt_name" v="Langtjørn" />
		<tag k="name" v="Langtjerni" />
		<tag k="natural" v="water" />
		<tag k="ssr:stedsnr" v="797023" />
	</node>
	<node id="-175620" lat="60.5935861109" lon="8.6446749999">
		<tag k="alt_name" v="Svansettjørn" />
		<tag k="name" v="Svansettjørni" />
		<tag k="natural" v="water" />
		<tag k="ssr:stedsnr" v="796032" />
	</node>
	<node id="-175605" lat="60.6881305593" lon="8.56092778342">
		<tag k="alt_name" v="Lislelitjørn" />
		<tag k="name" v="Lislelitjørni" />
		<tag k="natural" v="water" />
		<tag k="ssr:stedsnr" v="795895" />
	</node>
	<node id="-175589" lat="60.5847999981" lon="8.52881389196">
		<tag k="alt_name" v="Svartetjørn" />
		<tag k="name" v="Svartetjørni" />
		<tag k="natural" v="water" />
		<tag k="ssr:stedsnr" v="795070" />
	</node>
	<node id="-175585" lat="60.5528611072" lon="8.68516389515">
		<tag k="name" v="Helletjørn" />
		<tag k="natural" v="water" />
		<tag k="ssr:stedsnr" v="786670" />
	</node>
	<node id="-175583" lat="60.5316583361" lon="8.568130548">
		<tag k="name" v="Bjørnsbubekken" />
		<tag k="ssr:stedsnr" v="784891" />
		<tag k="waterway" v="river" />
	</node>
	<node id="-175580" lat="60.6861888845" lon="8.31910555673">
		<tag k="name" v="Tullehølen" />
		<tag k="place" v="locality" />
		<tag k="ssr:stedsnr" v="784789" />
	</node>
	<node id="-175579" lat="60.6954472225" lon="8.57690555128">
		<tag k="name" v="Grytegrovtjørn" />
		<tag k="natural" v="water" />
		<tag k="ssr:stedsnr" v="784775" />
	</node>
	<node id="-175576" lat="60.6482555594" lon="8.68763333201">
		<tag k="name" v="Dauvestrendane" />
		<tag k="natural" v="beach" />
		<tag k="ssr:stedsnr" v="784554" />
	</node>
	<node id="-175571" lat="60.6908111102" lon="8.42426666518">
		<tag k="name" v="Veslehølen" />
		<tag k="natural" v="water" />
		<tag k="ssr:stedsnr" v="784382" />
	</node>
	<node id="-175568" lat="60.7409166695" lon="8.2621361098">
		<tag k="name" v="Skargrove" />
		<tag k="ssr:stedsnr" v="784275" />
		<tag k="waterway" v="stream" />
	</node>
	<node id="-175544" lat="60.7040777771" lon="8.73954166717">
		<tag k="name" v="Pålsetbekken" />
		<tag k="ssr:stedsnr" v="769280" />
		<tag k="waterway" v="stream" />
	</node>
	<node id="-175543" lat="60.7396722257" lon="8.55114443928">
		<tag k="name" v="Knutshøl" />
		<tag k="place" v="locality" />
		<tag k="ssr:stedsnr" v="769147" />
	</node>
	<node id="-175534" lat="60.6079638921" lon="8.43878333645">
		<tag k="name" v="Langetjørnbekken" />
		<tag k="ssr:stedsnr" v="767957" />
		<tag k="waterway" v="stream" />
	</node>
	<node id="-175520" lat="60.8255888909" lon="8.10707222139">
		<tag k="name" v="Klypestjørne" />
		<tag k="natural" v="water" />
		<tag k="ssr:stedsnr" v="737897" />
	</node>
	<node id="-175515" lat="60.7588916668" lon="8.4543861194">
		<tag k="name" v="Fjelltjørne" />
		<tag k="natural" v="water" />
		<tag k="ssr:stedsnr" v="736995" />
	</node>
	<node id="-175507" lat="60.7741916696" lon="8.0279166653">
		<tag k="name" v="Geitevatnet" />
		<tag k="natural" v="water" />
		<tag k="ssr:stedsnr" v="736529" />
		<tag k="water" v="lake" />
	</node>
	<node id="-175506" lat="60.8679861134" lon="7.96897777053">
		<tag k="name" v="Skridutjørne" />
		<tag k="natural" v="water" />
		<tag k="ssr:stedsnr" v="736641" />
	</node>
	<node id="-175504" lat="60.5351472244" lon="8.38376944558">
		<tag k="name" v="Fisketjørne" />
		<tag k="natural" v="water" />
		<tag k="ssr:stedsnr" v="735754" />
	</node>
	<node id="-175503" lat="60.5355416637" lon="8.43908888422">
		<tag k="name" v="Langetjørni" />
		<tag k="natural" v="water" />
		<tag k="ssr:stedsnr" v="735746" />
	</node>
	<node id="-175501" lat="60.664702776" lon="8.46384999309">
		<tag k="name" v="Holtetjørne" />
		<tag k="natural" v="water" />
		<tag k="old_name" v="Holtetjørn" />
		<tag k="ssr:stedsnr" v="735562" />
	</node>
	<node id="-175495" lat="60.5483817743" lon="8.49699990347">
		<tag k="alt_name" v="Partjørnan" />
		<tag k="name" v="Partjørnane" />
		<tag k="natural" v="water" />
		<tag k="ssr:stedsnr" v="735235" />
		<tag k="water" v="lake" />
	</node>
	<node id="-175494" lat="60.5079499964" lon="8.52250278483">
		<tag k="name" v="Svartveisund" />
		<tag k="place" v="locality" />
		<tag k="ssr:stedsnr" v="735207" />
	</node>
	<node id="-175486" lat="60.5942027768" lon="8.51053611512">
		<tag k="name" v="Sagbekken" />
		<tag k="ssr:stedsnr" v="735043" />
		<tag k="waterway" v="stream" />
	</node>
	<node id="-175484" lat="60.5865388886" lon="8.67714999231">
		<tag k="name" v="Fela" />
		<tag k="natural" v="water" />
		<tag k="ssr:stedsnr" v="735032" />
	</node>
	<node id="-175482" lat="60.5746305556" lon="8.62593888707">
		<tag k="name" v="Monsa" />
		<tag k="natural" v="water" />
		<tag k="ssr:stedsnr" v="735028" />
	</node>
	<node id="-175480" lat="60.561727778" lon="8.60553889199">
		<tag k="alt_name" v="Eirikstjørn" />
		<tag k="name" v="Eiriktjørni" />
		<tag k="natural" v="water" />
		<tag k="ssr:stedsnr" v="735006" />
	</node>
	<node id="-175471" lat="60.6890833322" lon="8.70130000679">
		<tag k="alt_name" v="Raudsetbekken" />
		<tag k="name" v="Rausetbekken" />
		<tag k="ssr:stedsnr" v="734871" />
		<tag k="waterway" v="stream" />
	</node>
	<node id="-175460" lat="60.9040000037" lon="7.84348611079">
		<tag k="alt_name" v="Djupeskardtjørni, indre" />
		<tag k="name" v="Indre Djupeskardtjørni" />
		<tag k="natural" v="water" />
		<tag k="ssr:stedsnr" v="736615" />
	</node>
	<node id="-175459" lat="60.8954616736" lon="7.91727142104">
		<tag k="name" v="Urgevatnet" />
		<tag k="natural" v="water" />
		<tag k="ssr:stedsnr" v="736613" />
		<tag k="water" v="lake" />
	</node>
	<node id="-175457" lat="60.716378828" lon="8.14117285699">
		<tag k="name" v="Frosen" />
		<tag k="natural" v="water" />
		<tag k="old_name" v="Frosten" />
		<tag k="ssr:stedsnr" v="734578" />
		<tag k="water" v="lake" />
	</node>
	<node id="-175450" lat="60.535091663" lon="8.43978332592">
		<tag k="name" v="Langtjørni" />
		<tag k="natural" v="water" />
		<tag k="ssr:stedsnr" v="724202" />
	</node>
	<node id="-175449" lat="60.5315833369" lon="8.51736666546">
		<tag k="name" v="Langodden" />
		<tag k="natural" v="cape" />
		<tag k="ssr:stedsnr" v="724107" />
	</node>
	<node id="-175447" lat="60.6927888859" lon="8.56274999945">
		<tag k="name" v="Torkelstjørn" />
		<tag k="natural" v="water" />
		<tag k="ssr:stedsnr" v="723707" />
	</node>
	<node id="-175443" lat="60.7031972245" lon="8.35805833241">
		<tag k="name" v="Rovetrolltjørn" />
		<tag k="natural" v="water" />
		<tag k="ssr:stedsnr" v="723387" />
	</node>
	<node id="-175421" lat="60.6419388871" lon="8.40561111919">
		<tag k="name" v="Holustølgrove" />
		<tag k="ssr:stedsnr" v="708704" />
		<tag k="waterway" v="stream" />
	</node>
	<node id="-175414" lat="60.7080694423" lon="8.29513611409">
		<tag k="name" v="Skurvenatten" />
		<tag k="natural" v="cape" />
		<tag k="ssr:stedsnr" v="708474" />
	</node>
	<node id="-175413" lat="60.7436194451" lon="8.09779999647">
		<tag k="name" v="Killingøyne" />
		<tag k="place" v="islet" />
		<tag k="ssr:stedsnr" v="708431" />
	</node>
	<node id="-175408" lat="60.6075861121" lon="8.42361110963">
		<tag k="name" v="Steinhushaugtjørn" />
		<tag k="natural" v="water" />
		<tag k="ssr:stedsnr" v="706951" />
	</node>
	<node id="-175401" lat="60.6050805597" lon="8.57156945247">
		<tag k="alt_name" v="Kula" />
		<tag k="name" v="Kulu" />
		<tag k="ssr:stedsnr" v="688725" />
		<tag k="waterway" v="river" />
	</node>
	<node id="-175397" lat="60.6598638902" lon="8.70558056134">
		<tag k="alt_name" v="Almøya" />
		<tag k="loc_name" v="Almøyne" />
		<tag k="name" v="Almøyni" />
		<tag k="place" v="island" />
		<tag k="ssr:stedsnr" v="688532" />
	</node>
	<node id="-175392" lat="60.8475777803" lon="8.10522778619">
		<tag k="name" v="Skålaåni" />
		<tag k="ssr:stedsnr" v="676929" />
		<tag k="waterway" v="stream" />
	</node>
	<node id="-175389" lat="60.8327749966" lon="8.24898055909">
		<tag k="name" v="Gyrinosvatnet" />
		<tag k="natural" v="water" />
		<tag k="ssr:stedsnr" v="676912" />
		<tag k="water" v="lake" />
	</node>
	<node id="-175387" lat="60.8026305582" lon="8.34765555977">
		<tag k="name" v="Skarvanstølløken" />
		<tag k="old_name" v="Løvdøla" />
		<tag k="ssr:stedsnr" v="676884" />
		<tag k="waterway" v="stream" />
	</node>
	<node id="-175384" lat="60.8424527801" lon="8.08209166267">
		<tag k="name" v="Venehallsåne" />
		<tag k="ssr:stedsnr" v="676724" />
		<tag k="waterway" v="stream" />
	</node>
	<node id="-175383" lat="60.8528099176" lon="7.86071786929">
		<tag k="alt_name" v="Haldalstjørne" />
		<tag k="name" v="Halldalstjørne" />
		<tag k="natural" v="water" />
		<tag k="ssr:stedsnr" v="676644" />
	</node>
	<node id="-175381" lat="60.7527166699" lon="8.40423611113">
		<tag k="alt_name" v="Breatjørn" />
		<tag k="name" v="Breavatnet" />
		<tag k="natural" v="water" />
		<tag k="ssr:stedsnr" v="675994" />
	</node>
	<node id="-175376" lat="60.5243333352" lon="8.35485278413">
		<tag k="name" v="Langetjørne" />
		<tag k="natural" v="water" />
		<tag k="ssr:stedsnr" v="675798" />
	</node>
	<node id="-175375" lat="60.7715805566" lon="8.08990833507">
		<tag k="name" v="Vesleåne" />
		<tag k="ssr:stedsnr" v="675553" />
		<tag k="waterway" v="stream" />
	</node>
	<node id="-175372" lat="60.6466479394" lon="8.5269085012">
		<tag k="alt_name" v="Damtjørni;Damtjørn" />
		<tag k="name" v="Damtjørne" />
		<tag k="natural" v="water" />
		<tag k="ssr:stedsnr" v="674996" />
	</node>
	<node id="-175362" lat="60.6824277764" lon="8.58668332842">
		<tag k="alt_name" v="Svartetjørn" />
		<tag k="name" v="Svartetjørni" />
		<tag k="natural" v="water" />
		<tag k="ssr:stedsnr" v="674891" />
	</node>
	<node id="-175354" lat="60.6391944413" lon="8.46409166641">
		<tag k="name" v="Kvinda" />
		<tag k="old_name" v="Kvina;Qvina;Kvindellidelven" />
		<tag k="ssr:stedsnr" v="674596" />
		<tag k="waterway" v="river" />
	</node>
	<node id="-175344" lat="60.5463750011" lon="8.63109999848">
		<tag k="alt_name" v="Melraktjørn;Melraktjørni" />
		<tag k="name" v="Melrakktjørni" />
		<tag k="natural" v="water" />
		<tag k="ssr:stedsnr" v="674225" />
	</node>
	<node id="-175342" lat="60.5392194442" lon="8.65335832914">
		<tag k="alt_name" v="Vatningstjørn" />
		<tag k="name" v="Vatningstjørni" />
		<tag k="natural" v="water" />
		<tag k="ssr:stedsnr" v="674218" />
	</node>
	<node id="-175329" lat="60.5975333337" lon="8.69600832705">
		<tag k="name" v="Gullhagatjørni" />
		<tag k="natural" v="water" />
		<tag k="ssr:stedsnr" v="674051" />
	</node>
	<node id="-175324" lat="60.5896055601" lon="8.72450833704">
		<tag k="alt_name" v="Sandvatn" />
		<tag k="name" v="Nedre Sandvatnet" />
		<tag k="natural" v="water" />
		<tag k="ssr:stedsnr" v="674030" />
	</node>
	<node id="-175322" lat="60.5923138908" lon="8.56490833315">
		<tag k="alt_name" v="Randitjørn" />
		<tag k="name" v="Randitjørni" />
		<tag k="natural" v="water" />
		<tag k="ssr:stedsnr" v="674025" />
	</node>
	<node id="-175320" lat="60.5838333309" lon="8.72946665986">
		<tag k="alt_name" v="Hagavatn" />
		<tag k="name" v="Øvre Sandvatnet" />
		<tag k="natural" v="water" />
		<tag k="ssr:stedsnr" v="674018" />
	</node>
	<node id="-175317" lat="60.729491668" lon="8.7587083352">
		<tag k="alt_name" v="Flætjern" />
		<tag k="name" v="Flætjerni" />
		<tag k="natural" v="water" />
		<tag k="ssr:stedsnr" v="673818" />
	</node>
	<node id="-175315" lat="60.7402972212" lon="8.72661111841">
		<tag k="name" v="Krokbekk" />
		<tag k="ssr:stedsnr" v="673815" />
		<tag k="waterway" v="stream" />
	</node>
	<node id="-175313" lat="60.7409916668" lon="8.56717500332">
		<tag k="alt_name" v="Fiskegrove" />
		<tag k="name" v="Fiskegrovi" />
		<tag k="ssr:stedsnr" v="673806" />
		<tag k="waterway" v="stream" />
	</node>
	<node id="-175992" lat="60.572949996" lon="8.62101944478">
		<tag k="name" v="Skjetvaltjørn" />
		<tag k="natural" v="water" />
		<tag k="ssr:stedsnr" v="968787" />
	</node>
	<node id="-175310" lat="60.7265749979" lon="8.15096388493">
		<tag k="name" v="Ragnhildtjørne" />
		<tag k="natural" v="water" />
		<tag k="old_name" v="Ragnhildtjørn" />
		<tag k="ssr:stedsnr" v="673462" />
	</node>
	<node id="-175303" lat="60.5209777767" lon="8.42781666468">
		<tag k="name" v="Gryflebekken" />
		<tag k="ssr:stedsnr" v="663014" />
		<tag k="waterway" v="stream" />
	</node>
	<node id="-175287" lat="60.6641527782" lon="8.78115832885">
		<tag k="name" v="Langehølen" />
		<tag k="place" v="locality" />
		<tag k="ssr:stedsnr" v="659322" />
	</node>
	<node id="-173937" lat="60.6074111127" lon="8.56492777584">
		<tag k="alt_name" v="Løkjene" />
		<tag k="name" v="Løkin" />
		<tag k="natural" v="water" />
		<tag k="ssr:stedsnr" v="355139" />
		<tag k="water" v="lake" />
	</node>
	<node id="-175268" lat="60.5911555552" lon="8.47372221408">
		<tag k="name" v="Hestodden" />
		<tag k="natural" v="cape" />
		<tag k="ssr:stedsnr" v="647738" />
	</node>
	<node id="-175264" lat="60.5966305527" lon="8.61621389301">
		<tag k="name" v="Rautjørn" />
		<tag k="natural" v="water" />
		<tag k="ssr:stedsnr" v="647585" />
	</node>
	<node id="-175248" lat="60.5476055583" lon="8.60046110565">
		<tag k="name" v="Øvre Suneivstjørn" />
		<tag k="natural" v="water" />
		<tag k="ssr:stedsnr" v="645458" />
	</node>
	<node id="-175233" lat="60.8482083301" lon="8.13185555001">
		<tag k="name" v="Skålatjørne" />
		<tag k="natural" v="water" />
		<tag k="ssr:stedsnr" v="615927" />
	</node>
	<node id="-175229" lat="60.8353919036" lon="8.03418147041">
		<tag k="loc_name" v="Gjurdsennvatnet" />
		<tag k="name" v="Julsennvatnet" />
		<tag k="natural" v="water" />
		<tag k="ssr:stedsnr" v="615719" />
		<tag k="water" v="lake" />
	</node>
	<node id="-175228" lat="60.8397083346" lon="7.89283610977">
		<tag k="name" v="Systrandtjørne" />
		<tag k="natural" v="water" />
		<tag k="ssr:stedsnr" v="615712" />
	</node>
	<node id="-175223" lat="60.7669305528" lon="8.3307194529">
		<tag k="name" v="Venestølgrovi" />
		<tag k="ssr:stedsnr" v="614984" />
		<tag k="waterway" v="stream" />
	</node>
	<node id="-175221" lat="60.7971361112" lon="8.02850555955">
		<tag k="name" v="Dagsvelja" />
		<tag k="ssr:stedsnr" v="614742" />
		<tag k="waterway" v="stream" />
	</node>
	<node id="-175219" lat="60.8553222253" lon="7.88002222096">
		<tag k="alt_name" v="Haldalsåne" />
		<tag k="name" v="Halldalsåne" />
		<tag k="ssr:stedsnr" v="614679" />
		<tag k="waterway" v="stream" />
	</node>
	<node id="-175212" lat="60.6814361138" lon="8.71837777501">
		<tag k="alt_name" v="Sireåni" />
		<tag k="name" v="Sireåne" />
		<tag k="ssr:stedsnr" v="613910" />
		<tag k="waterway" v="river" />
	</node>
	<node id="-175203" lat="60.5504777766" lon="8.40066943999">
		<tag k="name" v="Grastjørne" />
		<tag k="natural" v="water" />
		<tag k="ssr:stedsnr" v="613706" />
	</node>
	<node id="-175201" lat="60.7185166644" lon="8.32613610427">
		<tag k="name" v="Veavegtjørne" />
		<tag k="natural" v="water" />
		<tag k="old_name" v="Veavegtjørn" />
		<tag k="ssr:stedsnr" v="613521" />
	</node>
	<node id="-175198" lat="60.5434111071" lon="8.53824443984">
		<tag k="alt_name" v="Breidtjørni;Breitjørni" />
		<tag k="name" v="Breitjørn" />
		<tag k="natural" v="water" />
		<tag k="ssr:stedsnr" v="613238" />
	</node>
	<node id="-175197" lat="60.5421555592" lon="8.67227222887">
		<tag k="alt_name" v="Riklene, store" />
		<tag k="name" v="Store Rikla" />
		<tag k="natural" v="water" />
		<tag k="ssr:stedsnr" v="613235" />
	</node>
	<node id="-175196" lat="60.5287638931" lon="8.63946388403">
		<tag k="alt_name" v="Oddetjørnan" />
		<tag k="name" v="Oddetjørnane" />
		<tag k="natural" v="water" />
		<tag k="ssr:stedsnr" v="613218" />
	</node>
	<node id="-175191" lat="60.6095333326" lon="8.81175277981">
		<tag k="name" v="Rundehovdtjørnane" />
		<tag k="natural" v="water" />
		<tag k="ssr:stedsnr" v="613077" />
	</node>
	<node id="-175188" lat="60.590613885" lon="8.67077499149">
		<tag k="alt_name" v="Steintjørn" />
		<tag k="name" v="Steintjørni" />
		<tag k="natural" v="water" />
		<tag k="ssr:stedsnr" v="613036" />
	</node>
	<node id="-175182" lat="60.726312237" lon="8.18941069871">
		<tag k="name" v="Tvistvatnet" />
		<tag k="natural" v="water" />
		<tag k="ssr:stedsnr" v="612490" />
		<tag k="water" v="lake" />
	</node>
	<node id="-175177" lat="60.5743972246" lon="8.60580277879">
		<tag k="name" v="Langetjørn" />
		<tag k="natural" v="water" />
		<tag k="ssr:stedsnr" v="603244" />
	</node>
	<node id="-173921" lat="60.7426194415" lon="8.5660527815">
		<tag k="name" v="Fiskekrokan" />
		<tag k="place" v="locality" />
		<tag k="ssr:stedsnr" v="344121" />
	</node>
	<node id="-175166" lat="60.6817388912" lon="8.56885000721">
		<tag k="name" v="Øvre Damtjørn" />
		<tag k="natural" v="water" />
		<tag k="ssr:stedsnr" v="601702" />
	</node>
	<node id="-175158" lat="60.5022999972" lon="8.42857776996">
		<tag k="name" v="Fiskeviki" />
		<tag k="natural" v="bay" />
		<tag k="ssr:stedsnr" v="600005" />
	</node>
	<node id="-175135" lat="60.6744611108" lon="8.50536388467">
		<tag k="name" v="Fekjatjørn" />
		<tag k="natural" v="water" />
		<tag k="ssr:stedsnr" v="586743" />
	</node>
	<node id="-175133" lat="60.6995972199" lon="8.28052221999">
		<tag k="name" v="Skardtjørne" />
		<tag k="natural" v="water" />
		<tag k="ssr:stedsnr" v="586467" />
	</node>
	<node id="-175130" lat="60.6988500026" lon="8.75341110267">
		<tag k="name" v="Øyestølbekken" />
		<tag k="ssr:stedsnr" v="586271" />
		<tag k="waterway" v="stream" />
	</node>
	<node id="-175127" lat="60.6596944465" lon="8.79476110373">
		<tag k="name" v="Svarvarbekken" />
		<tag k="ssr:stedsnr" v="586022" />
		<tag k="waterway" v="stream" />
	</node>
	<node id="-175099" lat="60.8376999995" lon="7.8662000042">
		<tag k="name" v="Galdegrove" />
		<tag k="ssr:stedsnr" v="554762" />
		<tag k="waterway" v="stream" />
	</node>
	<node id="-175097" lat="60.8430155179" lon="7.91466557095">
		<tag k="name" v="Fødalsvatnet" />
		<tag k="natural" v="water" />
		<tag k="ssr:stedsnr" v="554750" />
		<tag k="water" v="lake" />
	</node>
	<node id="-175093" lat="60.8698916657" lon="8.07290833617">
		<tag k="name" v="Simletjørne" />
		<tag k="natural" v="water" />
		<tag k="ssr:stedsnr" v="554693" />
	</node>
	<node id="-175091" lat="60.8858666659" lon="7.89370554877">
		<tag k="name" v="Fødalsåni" />
		<tag k="ssr:stedsnr" v="554676" />
		<tag k="waterway" v="river" />
	</node>
	<node id="-175090" lat="60.7643722191" lon="8.08245833005">
		<tag k="loc_name" v="Svore" />
		<tag k="name" v="Svori" />
		<tag k="old_name" v="Svåre" />
		<tag k="ssr:stedsnr" v="554574" />
		<tag k="waterway" v="stream" />
	</node>
	<node id="-175082" lat="60.61413333" lon="8.43478610844">
		<tag k="name" v="Flåtjørne" />
		<tag k="natural" v="water" />
		<tag k="old_name" v="Flåtjørn" />
		<tag k="ssr:stedsnr" v="553642" />
	</node>
	<node id="-175081" lat="60.6709166684" lon="8.28696111724">
		<tag k="name" v="Varaldsetåne" />
		<tag k="ssr:stedsnr" v="553589" />
		<tag k="waterway" v="stream" />
	</node>
	<node id="-175075" lat="60.701902775" lon="8.26522778043">
		<tag k="name" v="Tverråne" />
		<tag k="ssr:stedsnr" v="553492" />
		<tag k="waterway" v="stream" />
	</node>
	<node id="-175073" lat="60.5360138926" lon="8.57394166505">
		<tag k="alt_name" v="Bjørnsbutjørn" />
		<tag k="name" v="Bjørnsbutjørni" />
		<tag k="natural" v="water" />
		<tag k="ssr:stedsnr" v="553212" />
	</node>
	<node id="-175067" lat="60.6000916684" lon="8.71174166936">
		<tag k="name" v="Hagatjerni" />
		<tag k="natural" v="water" />
		<tag k="ssr:stedsnr" v="553051" />
	</node>
	<node id="-175065" lat="60.5905805585" lon="8.69297500751">
		<tag k="alt_name" v="Restjørnan" />
		<tag k="name" v="Restjørnane" />
		<tag k="natural" v="water" />
		<tag k="ssr:stedsnr" v="553034" />
	</node>
	<node id="-175064" lat="60.5871749969" lon="8.62000833795">
		<tag k="name" v="Våmannsløken" />
		<tag k="natural" v="water" />
		<tag k="ssr:stedsnr" v="553029" />
	</node>
	<node id="-175052" lat="60.6996555522" lon="8.5211277752">
		<tag k="name" v="Løkbekken" />
		<tag k="ssr:stedsnr" v="552885" />
		<tag k="waterway" v="stream" />
	</node>
	<node id="-175050" lat="60.7086138869" lon="8.66601110885">
		<tag k="alt_name" v="Trytitjerni" />
		<tag k="name" v="Trytitjørn" />
		<tag k="natural" v="water" />
		<tag k="ssr:stedsnr" v="552875" />
	</node>
	<node id="-175045" lat="60.6438805531" lon="8.41420278418">
		<tag k="name" v="Innkvelvlibekken" />
		<tag k="ssr:stedsnr" v="552668" />
		<tag k="waterway" v="stream" />
	</node>
	<node id="-175043" lat="60.7222499964" lon="8.28245278201">
		<tag k="name" v="Kroktjørne" />
		<tag k="natural" v="water" />
		<tag k="old_name" v="Kroktjørn" />
		<tag k="ssr:stedsnr" v="552531" />
	</node>
	<node id="-175041" lat="60.5529888856" lon="8.66579444845">
		<tag k="alt_name" v="Riklene, vesle" />
		<tag k="name" v="Vesle Rikla" />
		<tag k="natural" v="water" />
		<tag k="ssr:stedsnr" v="552272" />
	</node>
	<node id="-175040" lat="60.5463666652" lon="8.58623333416">
		<tag k="alt_name" v="Vesle Køytetjørn" />
		<tag k="name" v="Veslekøyta" />
		<tag k="natural" v="water" />
		<tag k="ssr:stedsnr" v="552262" />
	</node>
	<node id="-175039" lat="60.5450889593" lon="8.64491128719">
		<tag k="name" v="Skitjørnane" />
		<tag k="natural" v="water" />
		<tag k="ssr:stedsnr" v="552256" />
		<tag k="water" v="lake" />
	</node>
	<node id="-175034" lat="60.584094446" lon="8.60311111634">
		<tag k="alt_name" v="Karlstjørn" />
		<tag k="name" v="Karlstjørni" />
		<tag k="natural" v="water" />
		<tag k="ssr:stedsnr" v="552032" />
	</node>
	<node id="-175032" lat="60.5632777786" lon="8.57288888715">
		<tag k="alt_name" v="Søndre Hestetjørni;Søre Hestetjørn;Hestetjørni Søre;S(øre) Hestetjørn" />
		<tag k="name" v="Søre Hestetjørni" />
		<tag k="natural" v="water" />
		<tag k="ssr:stedsnr" v="552010" />
	</node>
	<node id="-175025" lat="60.5041138923" lon="8.42837777745">
		<tag k="alt_name" v="Fiskeøyne" />
		<tag k="name" v="Fiskeøyni" />
		<tag k="place" v="island" />
		<tag k="ssr:stedsnr" v="542001" />
	</node>
	<node id="-175020" lat="60.6749194434" lon="8.57908055457">
		<tag k="name" v="Øvre Damtjørn" />
		<tag k="natural" v="water" />
		<tag k="ssr:stedsnr" v="541719" />
	</node>
	<node id="-173893" lat="60.7995111152" lon="8.0155000048">
		<tag k="name" v="Dagsveljodden" />
		<tag k="natural" v="cape" />
		<tag k="ssr:stedsnr" v="312682" />
	</node>
	<node id="-175004" lat="60.7416194457" lon="8.34740556063">
		<tag k="name" v="Øksetjørn" />
		<tag k="natural" v="water" />
		<tag k="ssr:stedsnr" v="526974" />
	</node>
	<node id="-174989" lat="60.5902027775" lon="8.58082222354">
		<tag k="name" v="Hundeøynan" />
		<tag k="place" v="island" />
		<tag k="ssr:stedsnr" v="526556" />
	</node>
	<node id="-174973" lat="60.6493500025" lon="8.60862499282">
		<tag k="name" v="Ylifossen" />
		<tag k="natural" v="waterfall" />
		<tag k="ssr:stedsnr" v="506949" />
	</node>
	<node id="-174965" lat="60.856955553" lon="8.14358888123">
		<tag k="name" v="Hestebottåne" />
		<tag k="ssr:stedsnr" v="494924" />
		<tag k="waterway" v="stream" />
	</node>
	<node id="-174961" lat="60.8356392854" lon="7.94559016233">
		<tag k="name" v="Store Klevavatnet" />
		<tag k="natural" v="water" />
		<tag k="ssr:stedsnr" v="494697" />
		<tag k="water" v="lake" />
	</node>
	<node id="-174960" lat="60.8149000034" lon="8.03181111823">
		<tag k="name" v="Buagrove" />
		<tag k="ssr:stedsnr" v="494666" />
		<tag k="waterway" v="stream" />
	</node>
	<node id="-174959" lat="60.8906805569" lon="7.85663055822">
		<tag k="alt_name" v="Djupeskardtjørni, store" />
		<tag k="name" v="Store Djupeskardtjørni" />
		<tag k="natural" v="water" />
		<tag k="ssr:stedsnr" v="494609" />
	</node>
	<node id="-174953" lat="60.8773721585" lon="7.96996871953">
		<tag k="name" v="Valevatnet" />
		<tag k="natural" v="water" />
		<tag k="ssr:stedsnr" v="493656" />
		<tag k="water" v="lake" />
	</node>
	<node id="-174936" lat="60.7165527788" lon="8.31595278121">
		<tag k="alt_name" v="Bergsjøen, vesle;Bergsjø, vesle" />
		<tag k="name" v="Vesle Bergsjøen" />
		<tag k="natural" v="water" />
		<tag k="ssr:stedsnr" v="492475" />
	</node>
	<node id="-174934" lat="60.7020055569" lon="8.31882500804">
		<tag k="name" v="Damtjørne" />
		<tag k="natural" v="water" />
		<tag k="old_name" v="Torkels - Damtjørn" />
		<tag k="ssr:stedsnr" v="492468" />
	</node>
	<node id="-174932" lat="60.55865833" lon="8.65831666777">
		<tag k="alt_name" v="Mosatjørn" />
		<tag k="name" v="Mosatjørni" />
		<tag k="natural" v="water" />
		<tag k="ssr:stedsnr" v="492204" />
	</node>
	<node id="-174928" lat="60.6405055562" lon="8.74366945203">
		<tag k="alt_name" v="Røyrtjørn" />
		<tag k="name" v="Røyrtjerni" />
		<tag k="natural" v="water" />
		<tag k="old_name" v="Røyetjørn" />
		<tag k="ssr:stedsnr" v="492090" />
	</node>
	<node id="-174921" lat="60.5980805594" lon="8.59419166492">
		<tag k="alt_name" v="Presttjørn" />
		<tag k="name" v="Presttjørni" />
		<tag k="natural" v="water" />
		<tag k="old_name" v="AslaksKj:;Aslakstjørne;AslakKj;Aslaktjern" />
		<tag k="ssr:stedsnr" v="492036" />
	</node>
	<node id="-174919" lat="60.5639527793" lon="8.69459445172">
		<tag k="alt_name" v="Heimtjørn" />
		<tag k="name" v="Heimtjørni" />
		<tag k="natural" v="water" />
		<tag k="ssr:stedsnr" v="492011" />
	</node>
	<node id="-174918" lat="60.7511305543" lon="8.21888054655">
		<tag k="name" v="Eitra" />
		<tag k="ssr:stedsnr" v="492410" />
		<tag k="waterway" v="stream" />
	</node>
	<node id="-174915" lat="60.6896999959" lon="8.57454166705">
		<tag k="alt_name" v="Skrindetjørn" />
		<tag k="name" v="Skrindetjørni" />
		<tag k="natural" v="water" />
		<tag k="ssr:stedsnr" v="491894" />
	</node>
	<node id="-174909" lat="60.7096166679" lon="8.72355000362">
		<tag k="alt_name" v="Nystøltjørn" />
		<tag k="name" v="Nystøltjerni" />
		<tag k="natural" v="water" />
		<tag k="ssr:stedsnr" v="491836" />
	</node>
	<node id="-174905" lat="60.7420361122" lon="8.67463332504">
		<tag k="name" v="Buhovdvatnet" />
		<tag k="natural" v="water" />
		<tag k="ssr:stedsnr" v="491801" />
		<tag k="water" v="lake" />
	</node>
	<node id="-174901" lat="60.7217027762" lon="8.32902222742">
		<tag k="name" v="Storetjørne" />
		<tag k="natural" v="water" />
		<tag k="old_name" v="Storetjørn" />
		<tag k="ssr:stedsnr" v="491484" />
	</node>
	<node id="-174899" lat="60.7313166666" lon="8.41506945321">
		<tag k="name" v="Hengsvatnet" />
		<tag k="natural" v="water" />
		<tag k="ssr:stedsnr" v="491476" />
		<tag k="water" v="lake" />
	</node>
	<node id="-174898" lat="60.4826916679" lon="8.37004444462">
		<tag k="alt_name" v="Skjærtjødn" />
		<tag k="name" v="Skjærtjørn" />
		<tag k="natural" v="water" />
		<tag k="ssr:stedsnr" v="483618" />
	</node>
	<node id="-174893" lat="60.5317583367" lon="8.49074444488">
		<tag k="name" v="Langetjørnbekken" />
		<tag k="ssr:stedsnr" v="481795" />
		<tag k="waterway" v="stream" />
	</node>
	<node id="-174875" lat="60.6757333319" lon="8.50702778242">
		<tag k="name" v="Hundetjørn" />
		<tag k="natural" v="water" />
		<tag k="ssr:stedsnr" v="465748" />
	</node>
	<node id="-174870" lat="60.6408694477" lon="8.37975832713">
		<tag k="loc_name" v="Langetjørni" />
		<tag k="name" v="Langetjørn" />
		<tag k="natural" v="water" />
		<tag k="ssr:stedsnr" v="465599" />
	</node>
	<node id="-174860" lat="60.6709777791" lon="8.47470832549">
		<tag k="alt_name" v="Bottjørn" />
		<tag k="name" v="Bottjørni" />
		<tag k="natural" v="water" />
		<tag k="ssr:stedsnr" v="463594" />
	</node>
	<node id="-174859" lat="60.6646194461" lon="8.47457500154">
		<tag k="name" v="Guritjørn" />
		<tag k="natural" v="water" />
		<tag k="ssr:stedsnr" v="463593" />
	</node>
	<node id="-174854" lat="60.6786944423" lon="8.29909167435">
		<tag k="name" v="Tunga" />
		<tag k="natural" v="cape" />
		<tag k="ssr:stedsnr" v="445766" />
	</node>
	<node id="-174849" lat="60.6658300141" lon="8.78782679646">
		<tag k="alt_name" v="Tufteøyni" />
		<tag k="name" v="Tufteøyne" />
		<tag k="place" v="island" />
		<tag k="ssr:stedsnr" v="445686" />
	</node>
	<node id="-174845" lat="60.7654000022" lon="8.62026389403">
		<tag k="alt_name" v="Rundtjørn" />
		<tag k="name" v="Rundtjerni" />
		<tag k="natural" v="water" />
		<tag k="ssr:stedsnr" v="434024" />
	</node>
	<node id="-174842" lat="60.8607194408" lon="8.28987499875">
		<tag k="name" v="Storebottjørne" />
		<tag k="natural" v="water" />
		<tag k="ssr:stedsnr" v="433932" />
	</node>
	<node id="-174840" lat="60.8219416629" lon="8.17869722301">
		<tag k="name" v="Øynegrovi" />
		<tag k="ssr:stedsnr" v="433899" />
		<tag k="waterway" v="stream" />
	</node>
	<node id="-174838" lat="60.8052194424" lon="8.44618055142">
		<tag k="name" v="Svartegrovi" />
		<tag k="ssr:stedsnr" v="433888" />
		<tag k="waterway" v="stream" />
	</node>
	<node id="-173865" lat="60.6851166643" lon="8.56770555625">
		<tag k="alt_name" v="Nykketjørn" />
		<tag k="name" v="Nykketjørni" />
		<tag k="natural" v="water" />
		<tag k="ssr:stedsnr" v="310898" />
	</node>
	<node id="-174835" lat="60.8089999974" lon="7.99857500811">
		<tag k="name" v="Armen" />
		<tag k="natural" v="cape" />
		<tag k="ssr:stedsnr" v="433708" />
	</node>
	<node id="-174834" lat="60.8890000033" lon="8.00703332483">
		<tag k="name" v="Jøranvatnet" />
		<tag k="natural" v="water" />
		<tag k="ssr:stedsnr" v="433625" />
	</node>
	<node id="-174832" lat="60.8649194452" lon="8.33181665886">
		<tag k="name" v="Langebottjørne" />
		<tag k="natural" v="water" />
		<tag k="ssr:stedsnr" v="433564" />
	</node>
	<node id="-174831" lat="60.657799996" lon="8.78011110425">
		<tag k="name" v="Ridøla" />
		<tag k="ssr:stedsnr" v="432991" />
		<tag k="waterway" v="river" />
	</node>
	<node id="-174824" lat="60.7004722186" lon="8.35029166191">
		<tag k="name" v="Dusa" />
		<tag k="ssr:stedsnr" v="432536" />
		<tag k="waterway" v="stream" />
	</node>
	<node id="-174823" lat="60.6520138864" lon="8.57570277935">
		<tag k="name" v="Votna" />
		<tag k="old_name" v="Vatna" />
		<tag k="ssr:stedsnr" v="432521" />
		<tag k="waterway" v="river" />
	</node>
	<node id="-174821" lat="60.6973472237" lon="8.32095556274">
		<tag k="name" v="Lappegrove" />
		<tag k="ssr:stedsnr" v="432481" />
		<tag k="waterway" v="stream" />
	</node>
	<node id="-174820" lat="60.5595760749" lon="8.62813621427">
		<tag k="name" v="Flåta" />
		<tag k="natural" v="water" />
		<tag k="old_name" v="Flaata;Flaate Kj:" />
		<tag k="ssr:stedsnr" v="432237" />
		<tag k="water" v="lake" />
	</node>
	<node id="-174819" lat="60.5548305526" lon="8.69851111145">
		<tag k="alt_name" v="Brisketjørnan" />
		<tag k="name" v="Brisketjørnane" />
		<tag k="natural" v="water" />
		<tag k="ssr:stedsnr" v="432229" />
	</node>
	<node id="-174818" lat="60.5527055592" lon="8.57353889783">
		<tag k="alt_name" v="Køytetjørn" />
		<tag k="name" v="Køytetjørni" />
		<tag k="natural" v="water" />
		<tag k="ssr:stedsnr" v="432228" />
	</node>
	<node id="-174814" lat="60.5379888914" lon="8.68689443846">
		<tag k="name" v="Riklebekken" />
		<tag k="ssr:stedsnr" v="432203" />
		<tag k="waterway" v="stream" />
	</node>
	<node id="-174811" lat="60.6251805567" lon="8.75393333475">
		<tag k="name" v="Resbekken" />
		<tag k="ssr:stedsnr" v="432075" />
		<tag k="waterway" v="stream" />
	</node>
	<node id="-174806" lat="60.6012916686" lon="8.76354167458">
		<tag k="alt_name" v="Hellebutjørn" />
		<tag k="name" v="Hellebutjerni" />
		<tag k="natural" v="water" />
		<tag k="ssr:stedsnr" v="432048" />
	</node>
	<node id="-174795" lat="60.7204861144" lon="8.65263611064">
		<tag k="alt_name" v="Øknevatn" />
		<tag k="name" v="Øknevatni" />
		<tag k="natural" v="water" />
		<tag k="ssr:stedsnr" v="431852" />
		<tag k="water" v="lake" />
	</node>
	<node id="-174793" lat="60.7333750026" lon="8.49385555653">
		<tag k="alt_name" v="Hurdstøltjørni;Hulastøltjørni;Hulastøltjørn" />
		<tag k="loc_name" v="Hulastølstjødn" />
		<tag k="name" v="Hulastølstjørni" />
		<tag k="natural" v="water" />
		<tag k="ssr:stedsnr" v="431819" />
	</node>
	<node id="-174792" lat="60.5490611152" lon="8.63180000799">
		<tag k="name" v="Vesle Skitjørn" />
		<tag k="natural" v="water" />
		<tag k="ssr:stedsnr" v="431702" />
	</node>
	<node id="-174791" lat="60.7181222227" lon="8.35726667329">
		<tag k="name" v="Hovdatjørne" />
		<tag k="natural" v="water" />
		<tag k="old_name" v="Hovdatjørn" />
		<tag k="ssr:stedsnr" v="431563" />
	</node>
	<node id="-174789" lat="60.7027027737" lon="8.30932222456">
		<tag k="name" v="Lappetjørne" />
		<tag k="natural" v="water" />
		<tag k="old_name" v="Lappetjørn" />
		<tag k="ssr:stedsnr" v="431554" />
	</node>
	<node id="-174787" lat="60.7198138882" lon="8.17271666765">
		<tag k="name" v="Juvåne" />
		<tag k="ssr:stedsnr" v="431508" />
		<tag k="waterway" v="stream" />
	</node>
	<node id="-174786" lat="60.7376277753" lon="8.21915000838">
		<tag k="name" v="Djupedalstjørne" />
		<tag k="natural" v="water" />
		<tag k="old_name" v="Djupedalstjørn" />
		<tag k="ssr:stedsnr" v="431477" />
	</node>
	<node id="-174785" lat="60.7421361086" lon="8.1086055572">
		<tag k="name" v="Buvassodden" />
		<tag k="natural" v="cape" />
		<tag k="ssr:stedsnr" v="431469" />
	</node>
	<node id="-174780" lat="60.5757611076" lon="8.638352775">
		<tag k="alt_name" v="Øyetjørn" />
		<tag k="name" v="Øyetjørni" />
		<tag k="natural" v="water" />
		<tag k="ssr:stedsnr" v="431036" />
	</node>
	<node id="-174778" lat="60.5870277813" lon="8.68588889506">
		<tag k="name" v="Ausa" />
		<tag k="natural" v="water" />
		<tag k="ssr:stedsnr" v="431020" />
	</node>
	<node id="-174777" lat="60.563730552" lon="8.56288611033">
		<tag k="alt_name" v="Nordre Hestetjørn;N(ordre) Hestetjørn" />
		<tag k="name" v="Nordre Hestetjørni" />
		<tag k="natural" v="water" />
		<tag k="ssr:stedsnr" v="431009" />
	</node>
	<node id="-174775" lat="60.4758833297" lon="8.38953054687">
		<tag k="alt_name" v="Damtjørni" />
		<tag k="name" v="Damtjørne" />
		<tag k="natural" v="water" />
		<tag k="ssr:stedsnr" v="430808" />
	</node>
	<node id="-174764" lat="60.4957722208" lon="8.44663888795">
		<tag k="alt_name" v="Paradisbukta" />
		<tag k="name" v="Paradisbukti" />
		<tag k="natural" v="bay" />
		<tag k="ssr:stedsnr" v="420723" />
	</node>
	<node id="-174761" lat="60.7135055533" lon="8.36974722492">
		<tag k="name" v="Gyritjørn" />
		<tag k="natural" v="water" />
		<tag k="ssr:stedsnr" v="420432" />
	</node>
	<node id="-174758" lat="60.6639138928" lon="8.34650833619">
		<tag k="name" v="Mjåvassbekken" />
		<tag k="ssr:stedsnr" v="420315" />
		<tag k="waterway" v="stream" />
	</node>
	<node id="-174757" lat="60.6736222202" lon="8.49461389042">
		<tag k="name" v="Nykketjørn" />
		<tag k="natural" v="water" />
		<tag k="ssr:stedsnr" v="420295" />
	</node>
	<node id="-174750" lat="60.7108527748" lon="8.29703332907">
		<tag k="alt_name" v="Bergsjø" />
		<tag k="name" v="Bergsjøen" />
		<tag k="natural" v="water" />
		<tag k="ssr:stedsnr" v="416461" />
		<tag k="water" v="lake" />
	</node>
	<node id="-174736" lat="60.8288916667" lon="8.39665833414">
		<tag k="name" v="Kroktjørne" />
		<tag k="natural" v="water" />
		<tag k="ssr:stedsnr" v="251941" />
	</node>
	<node id="-174731" lat="60.8268805589" lon="7.97945833826">
		<tag k="name" v="Nykkingsgrove" />
		<tag k="ssr:stedsnr" v="251765" />
		<tag k="waterway" v="stream" />
	</node>
	<node id="-174729" lat="60.8435927923" lon="7.95537289749">
		<tag k="name" v="Vesle Klevavatnet" />
		<tag k="natural" v="water" />
		<tag k="ssr:stedsnr" v="251757" />
		<tag k="water" v="lake" />
	</node>
	<node id="-174727" lat="60.7782194457" lon="8.05424445139">
		<tag k="name" v="Karka" />
		<tag k="ssr:stedsnr" v="251745" />
		<tag k="waterway" v="stream" />
	</node>
	<node id="-174723" lat="60.862346104" lon="7.82215866895">
		<tag k="name" v="Øystre Flågrunnsvatnet" />
		<tag k="natural" v="water" />
		<tag k="ssr:stedsnr" v="251666" />
		<tag k="water" v="lake" />
	</node>
	<node id="-174718" lat="60.5345694422" lon="8.4166666678">
		<tag k="name" v="Flåtastokk" />
		<tag k="natural" v="water" />
		<tag k="ssr:stedsnr" v="250747" />
	</node>
	<node id="-174706" lat="60.5969277788" lon="8.62064167179">
		<tag k="alt_name" v="Raudtjørn" />
		<tag k="name" v="Raudtjørni" />
		<tag k="natural" v="water" />
		<tag k="ssr:stedsnr" v="250035" />
	</node>
	<node id="-174705" lat="60.6506333375" lon="8.50104723094">
		<tag k="alt_name" v="Blekketjørn" />
		<tag k="name" v="Blekketjørni" />
		<tag k="natural" v="water" />
		<tag k="ssr:stedsnr" v="249983" />
	</node>
	<node id="-174676" lat="60.7197944429" lon="8.26170277022">
		<tag k="name" v="Bukketjørne" />
		<tag k="natural" v="water" />
		<tag k="old_name" v="Bukketjørnan" />
		<tag k="ssr:stedsnr" v="249479" />
	</node>
	<node id="-174675" lat="60.7260861152" lon="8.16901666422">
		<tag k="name" v="Svartetjørne" />
		<tag k="natural" v="water" />
		<tag k="old_name" v="Svartetjørn, store" />
		<tag k="ssr:stedsnr" v="249473" />
	</node>
	<node id="-174674" lat="60.7265249978" lon="8.27441945318">
		<tag k="name" v="Søre Dyrebotntjørne" />
		<tag k="natural" v="water" />
		<tag k="old_name" v="Dyrebotntjørne, s" />
		<tag k="ssr:stedsnr" v="249471" />
	</node>
	<node id="-174673" lat="60.7357027791" lon="8.31006111239">
		<tag k="name" v="Blånattjørne" />
		<tag k="natural" v="water" />
		<tag k="old_name" v="Blånattjørn" />
		<tag k="ssr:stedsnr" v="249470" />
	</node>
	<node id="-174664" lat="60.6354333318" lon="8.73104166262">
		<tag k="alt_name" v="Tvenesla" />
		<tag k="loc_name" v="Tvinisla" />
		<tag k="name" v="Tvinesla" />
		<tag k="natural" v="water" />
		<tag k="ssr:stedsnr" v="249094" />
	</node>
	<node id="-174663" lat="60.6146916712" lon="8.6010000079">
		<tag k="alt_name" v="Hovdetjørn" />
		<tag k="name" v="Hovdetjørni" />
		<tag k="natural" v="water" />
		<tag k="ssr:stedsnr" v="249090" />
	</node>
	<node id="-174660" lat="60.579388893" lon="8.69118332521">
		<tag k="alt_name" v="Øvre Oddetjørn" />
		<tag k="name" v="Øvre Oddetjørni" />
		<tag k="natural" v="water" />
		<tag k="ssr:stedsnr" v="249013" />
	</node>
	<node id="-174658" lat="60.5526805517" lon="8.59728055427">
		<tag k="name" v="Nedre Suneivstjørn" />
		<tag k="natural" v="water" />
		<tag k="ssr:stedsnr" v="240827" />
	</node>
	<node id="-174657" lat="60.5289611106" lon="8.68133333494">
		<tag k="loc_name" v="Helgesetåni" />
		<tag k="name" v="Helgesetåne" />
		<tag k="ssr:stedsnr" v="239662" />
		<tag k="waterway" v="stream" />
	</node>
	<node id="-174612" lat="60.7346416661" lon="8.40534722092">
		<tag k="name" v="Løken" />
		<tag k="ssr:stedsnr" v="223021" />
		<tag k="waterway" v="stream" />
	</node>
	<node id="-174611" lat="60.5895722183" lon="8.56818055436">
		<tag k="name" v="Larshalltjørn" />
		<tag k="natural" v="water" />
		<tag k="ssr:stedsnr" v="223569" />
	</node>
	<node id="-174606" lat="60.5873583343" lon="8.61997500844">
		<tag k="name" v="Våmanntjørn" />
		<tag k="natural" v="water" />
		<tag k="ssr:stedsnr" v="221982" />
	</node>
	<node id="-174604" lat="60.6484472246" lon="8.509638882">
		<tag k="loc_name" v="Fuglehovdtjørne" />
		<tag k="name" v="Fuglehovdtjørn" />
		<tag k="natural" v="water" />
		<tag k="ssr:stedsnr" v="203738" />
	</node>
	<node id="-174593" lat="60.7952277811" lon="8.35138333806">
		<tag k="name" v="Skarvanstøltjørne" />
		<tag k="natural" v="water" />
		<tag k="ssr:stedsnr" v="191840" />
	</node>
	<node id="-174590" lat="60.7950000008" lon="8.51604999148">
		<tag k="loc_name" v="Værsjøen" />
		<tag k="name" v="Versjøen" />
		<tag k="natural" v="water" />
		<tag k="old_name" v="Vers-søen" />
		<tag k="ssr:stedsnr" v="191213" />
		<tag k="water" v="lake" />
	</node>
	<node id="-174583" lat="60.8934749977" lon="7.95297499285">
		<tag k="name" v="Rundtjørne" />
		<tag k="natural" v="water" />
		<tag k="ssr:stedsnr" v="190637" />
	</node>
	<node id="-174570" lat="60.5534611134" lon="8.64323332617">
		<tag k="alt_name" v="Trolltjørn" />
		<tag k="name" v="Trolltjørni" />
		<tag k="natural" v="water" />
		<tag k="ssr:stedsnr" v="189222" />
	</node>
	<node id="-174569" lat="60.5306166671" lon="8.49383888723">
		<tag k="name" v="Langtjørnsviki" />
		<tag k="natural" v="bay" />
		<tag k="ssr:stedsnr" v="189199" />
	</node>
	<node id="-174562" lat="60.6073666699" lon="8.55613610733">
		<tag k="alt_name" v="Kulefossen" />
		<tag k="name" v="Kulufossen" />
		<tag k="natural" v="waterfall" />
		<tag k="ssr:stedsnr" v="189059" />
	</node>
	<node id="-174558" lat="60.5751166652" lon="8.50837777869">
		<tag k="alt_name" v="Langetjørni;Langetjørn" />
		<tag k="name" v="Langetjørne" />
		<tag k="natural" v="water" />
		<tag k="ssr:stedsnr" v="189019" />
	</node>
	<node id="-173817" lat="60.5109944452" lon="8.41596666537">
		<tag k="name" v="Fetjaåne" />
		<tag k="ssr:stedsnr" v="309792" />
		<tag k="waterway" v="stream" />
	</node>
	<node id="-174547" lat="60.4989717418" lon="8.35634976289">
		<tag k="name" v="Fyritjørne" />
		<tag k="natural" v="water" />
		<tag k="old_name" v="Fyrrre Kj;Fyretj;Fyritjørn" />
		<tag k="ssr:stedsnr" v="188868" />
	</node>
	<node id="-174545" lat="60.7467583344" lon="8.70094722237">
		<tag k="name" v="Vola" />
		<tag k="ssr:stedsnr" v="188836" />
		<tag k="waterway" v="stream" />
	</node>
	<node id="-174543" lat="60.7360027764" lon="8.36008056398">
		<tag k="name" v="Stautjørne" />
		<tag k="natural" v="water" />
		<tag k="old_name" v="Staurtjørn" />
		<tag k="ssr:stedsnr" v="188507" />
	</node>
	<node id="-174542" lat="60.7289499961" lon="8.26422500355">
		<tag k="name" v="Lomreitjørne" />
		<tag k="natural" v="water" />
		<tag k="old_name" v="Lomreitjørn" />
		<tag k="ssr:stedsnr" v="188502" />
	</node>
	<node id="-174527" lat="60.5866944476" lon="8.45415554961">
		<tag k="alt_name" v="Sandøyni" />
		<tag k="fixme" v="multiple name tags, choose one and add the other to alt_name" />
		<tag k="name" v="Sandøyne;Hagaøyni" />
		<tag k="old_name" v="Hagaøyne" />
		<tag k="place" v="island" />
		<tag k="ssr:stedsnr" v="174597" />
	</node>
	<node id="-173812" lat="60.7220444451" lon="8.40330556221">
		<tag k="name" v="Hengsgrove" />
		<tag k="ssr:stedsnr" v="309565" />
		<tag k="waterway" v="stream" />
	</node>
	<node id="-174514" lat="60.6717055534" lon="8.66156667303">
		<tag k="name" v="Eitra" />
		<tag k="ssr:stedsnr" v="162938" />
		<tag k="waterway" v="stream" />
	</node>
	<node id="-174502" lat="60.6408277802" lon="8.37663332422">
		<tag k="name" v="Djupedalstjørn" />
		<tag k="natural" v="water" />
		<tag k="ssr:stedsnr" v="162647" />
	</node>
	<node id="-174498" lat="60.6075500009" lon="8.4624416597">
		<tag k="alt_name" v="Damtjørni" />
		<tag k="name" v="Damtjørn" />
		<tag k="natural" v="water" />
		<tag k="ssr:stedsnr" v="162387" />
	</node>
	<node id="-174481" lat="60.6330999984" lon="8.57796388139">
		<tag k="alt_name" v="Uppsjø" />
		<tag k="name" v="Oppsjø" />
		<tag k="natural" v="water" />
		<tag k="old_name" v="Oppsjøen;Uppsjøen" />
		<tag k="ssr:stedsnr" v="160090" />
		<tag k="water" v="lake" />
	</node>
	<node id="-174477" lat="60.6465714766" lon="8.53955517094">
		<tag k="alt_name" v="Møretjørn" />
		<tag k="name" v="Møretjørne" />
		<tag k="natural" v="water" />
		<tag k="ssr:stedsnr" v="142757" />
	</node>
	<node id="-174468" lat="60.8138250035" lon="8.2725888836">
		<tag k="name" v="Storegrovi" />
		<tag k="ssr:stedsnr" v="130896" />
		<tag k="waterway" v="stream" />
	</node>
	<node id="-174467" lat="60.8167083313" lon="8.41959167318">
		<tag k="name" v="Fagerdøla" />
		<tag k="ssr:stedsnr" v="130893" />
		<tag k="waterway" v="stream" />
	</node>
	<node id="-174465" lat="60.7936611145" lon="8.24530834135">
		<tag k="name" v="Hestebottjørnan" />
		<tag k="natural" v="water" />
		<tag k="ssr:stedsnr" v="130854" />
	</node>
	<node id="-174464" lat="60.8203999979" lon="7.98925000142">
		<tag k="name" v="Mjolga" />
		<tag k="ssr:stedsnr" v="130694" />
		<tag k="waterway" v="river" />
	</node>
	<node id="-174461" lat="60.7589638892" lon="8.67167777802">
		<tag k="alt_name" v="Standartjørn" />
		<tag k="name" v="Standartjerni" />
		<tag k="natural" v="water" />
		<tag k="ssr:stedsnr" v="130034" />
	</node>
	<node id="-174454" lat="60.7736249987" lon="8.44290278383">
		<tag k="name" v="Fossen" />
		<tag k="ssr:stedsnr" v="129987" />
		<tag k="waterway" v="stream" />
	</node>
	<node id="-174451" lat="60.8293999987" lon="8.02313333558">
		<tag k="alt_name" v="Julsennvatnet, vesle" />
		<tag k="name" v="Vesle Julsennvatnet" />
		<tag k="natural" v="water" />
		<tag k="ssr:stedsnr" v="129752" />
	</node>
	<node id="-174450" lat="60.8583305512" lon="7.96868056242">
		<tag k="name" v="Trolltjørne" />
		<tag k="natural" v="water" />
		<tag k="ssr:stedsnr" v="129653" />
	</node>
	<node id="-174446" lat="60.8898111155" lon="7.83954166082">
		<tag k="alt_name" v="Djupeskardtjørni, vesle" />
		<tag k="name" v="Vesle Djupeskardtjørni" />
		<tag k="natural" v="water" />
		<tag k="ssr:stedsnr" v="129629" />
	</node>
	<node id="-174445" lat="60.8717551182" lon="7.82229449406">
		<tag k="alt_name" v="Haldalsvatnet, nordre" />
		<tag k="name" v="Nørdre Halldalsvatnet" />
		<tag k="natural" v="water" />
		<tag k="ssr:stedsnr" v="129624" />
		<tag k="water" v="lake" />
	</node>
	<node id="-174443" lat="60.8678333294" lon="8.20297499485">
		<tag k="name" v="Dyrebottjørnan" />
		<tag k="natural" v="water" />
		<tag k="ssr:stedsnr" v="129572" />
	</node>
	<node id="-174438" lat="60.7076138848" lon="8.22722778048">
		<tag k="name" v="Rødungen" />
		<tag k="natural" v="water" />
		<tag k="ssr:stedsnr" v="128884" />
		<tag k="water" v="lake" />
	</node>
	<node id="-174437" lat="60.5438277735" lon="8.47602222229">
		<tag k="name" v="Langetjørne" />
		<tag k="natural" v="water" />
		<tag k="old_name" v="Langetjørn" />
		<tag k="ssr:stedsnr" v="128718" />
	</node>
	<node id="-174435" lat="60.6171805534" lon="8.45954167165">
		<tag k="alt_name" v="Tjørnstøltjørn" />
		<tag k="name" v="Tjørnstøltjørni" />
		<tag k="natural" v="water" />
		<tag k="ssr:stedsnr" v="128620" />
	</node>
	<node id="-174431" lat="60.7010916641" lon="8.30305554892">
		<tag k="name" v="Tulletjørnan" />
		<tag k="natural" v="water" />
		<tag k="old_name" v="Nordre Tulletjørn;Søndre Tulletjørn" />
		<tag k="ssr:stedsnr" v="128492" />
	</node>
	<node id="-174430" lat="60.7430694489" lon="8.39058889534">
		<tag k="alt_name" v="Hengsvatnet, vesle" />
		<tag k="name" v="Vesle Hengsvatnet" />
		<tag k="natural" v="water" />
		<tag k="ssr:stedsnr" v="128428" />
	</node>
	<node id="-174427" lat="60.5057555596" lon="8.56271943937">
		<tag k="name" v="Nordre Rotetjørni" />
		<tag k="natural" v="water" />
		<tag k="ssr:stedsnr" v="128164" />
	</node>
	<node id="-174425" lat="60.6441777786" lon="8.75404444482">
		<tag k="alt_name" v="Svartetjørn" />
		<tag k="name" v="Svartetjerni" />
		<tag k="natural" v="water" />
		<tag k="ssr:stedsnr" v="128085" />
	</node>
	<node id="-174422" lat="60.6418194424" lon="8.76253332615">
		<tag k="alt_name" v="Storegrove" />
		<tag k="name" v="Storegrovi" />
		<tag k="ssr:stedsnr" v="128070" />
		<tag k="waterway" v="stream" />
	</node>
	<node id="-174417" lat="60.5926777751" lon="8.71093611101">
		<tag k="alt_name" v="Mattjørn" />
		<tag k="name" v="Mattjerni" />
		<tag k="natural" v="water" />
		<tag k="ssr:stedsnr" v="128027" />
	</node>
	<node id="-174403" lat="60.6924611069" lon="8.55699999614">
		<tag k="alt_name" v="Fettjørn" />
		<tag k="name" v="Fetjørni" />
		<tag k="natural" v="water" />
		<tag k="ssr:stedsnr" v="127901" />
	</node>
	<node id="-174398" lat="60.7410833336" lon="8.55524999263">
		<tag k="name" v="Eitra" />
		<tag k="ssr:stedsnr" v="127828" />
		<tag k="waterway" v="stream" />
	</node>
	<node id="-174397" lat="60.5127805594" lon="8.3779472159">
		<tag k="loc_name" v="Svartetjørn" />
		<tag k="name" v="Svartetjørni" />
		<tag k="natural" v="water" />
		<tag k="ssr:stedsnr" v="127818" />
	</node>
	<node id="-174393" lat="60.7331916673" lon="8.36934165892">
		<tag k="alt_name" v="Fjellstøltjørn" />
		<tag k="name" v="Fjellstøltjørni" />
		<tag k="natural" v="water" />
		<tag k="ssr:stedsnr" v="127504" />
	</node>
	<node id="-174392" lat="60.7364250008" lon="8.33980834154">
		<tag k="alt_name" v="Smørtjørn" />
		<tag k="name" v="Smørtjørni" />
		<tag k="natural" v="water" />
		<tag k="ssr:stedsnr" v="127503" />
	</node>
	<node id="-174386" lat="60.6925611071" lon="8.43029722881">
		<tag k="name" v="Langehølen" />
		<tag k="natural" v="water" />
		<tag k="ssr:stedsnr" v="117368" />
		<tag k="water" v="lake" />
	</node>
	<node id="-174380" lat="60.7129388897" lon="8.3288388804">
		<tag k="name" v="Hetjørn" />
		<tag k="natural" v="water" />
		<tag k="ssr:stedsnr" v="116383" />
	</node>
	<node id="-174374" lat="60.6911113846" lon="8.38885181899">
		<tag k="alt_name" v="Vassfjorden" />
		<tag k="name" v="Vatsfjorden" />
		<tag k="natural" v="water" />
		<tag k="old_name" v="Vassfjord" />
		<tag k="ssr:stedsnr" v="113517" />
		<tag k="water" v="lake" />
	</node>
	<node id="-174371" lat="60.6969861132" lon="8.60155832566">
		<tag k="name" v="Øynane" />
		<tag k="place" v="locality" />
		<tag k="ssr:stedsnr" v="102784" />
	</node>
	<node id="-174364" lat="60.7245361072" lon="8.31420555808">
		<tag k="name" v="Bukketjørn" />
		<tag k="natural" v="water" />
		<tag k="ssr:stedsnr" v="101943" />
	</node>
	<node id="-174342" lat="60.6303500045" lon="8.57340000321">
		<tag k="fixme" v="multiple name tags, choose one and add the other to alt_name" />
		<tag k="name" v="Rikterøyne;Sundreøyne" />
		<tag k="natural" v="cape" />
		<tag k="old_name" v="Sundreøen" />
		<tag k="ssr:stedsnr" v="81931" />
	</node>
	<node id="-173782" lat="60.5932277791" lon="8.45145277333">
		<tag k="alt_name" v="Kvednagrovi" />
		<tag k="name" v="Kvednagrove" />
		<tag k="ssr:stedsnr" v="284374" />
		<tag k="waterway" v="stream" />
	</node>
	<node id="-174334" lat="60.677847222" lon="8.27304444369">
		<tag k="name" v="Ælinggrove" />
		<tag k="old_name" v="Erlingsgrove" />
		<tag k="ssr:stedsnr" v="80945" />
		<tag k="waterway" v="stream" />
	</node>
	<node id="-174332" lat="60.8112000045" lon="8.37375834197">
		<tag k="name" v="Vesle Beihovdtjørne" />
		<tag k="natural" v="water" />
		<tag k="ssr:stedsnr" v="69911" />
	</node>
	<node id="-174315" lat="60.5405472194" lon="8.41483332987">
		<tag k="name" v="Godmortjørne" />
		<tag k="natural" v="water" />
		<tag k="ssr:stedsnr" v="68764" />
	</node>
	<node id="-174311" lat="60.5290277819" lon="8.58509166341">
		<tag k="name" v="Flabergbekken" />
		<tag k="ssr:stedsnr" v="68226" />
		<tag k="waterway" v="stream" />
	</node>
	<node id="-174309" lat="60.5211777751" lon="8.66158611437">
		<tag k="alt_name" v="Helgesettjørn" />
		<tag k="name" v="Helgesettjørni" />
		<tag k="natural" v="water" />
		<tag k="ssr:stedsnr" v="68214" />
	</node>
	<node id="-174302" lat="60.6869638895" lon="8.64188888955">
		<tag k="alt_name" v="Halfarbekken" />
		<tag k="name" v="Halvfarbekken" />
		<tag k="ssr:stedsnr" v="67897" />
		<tag k="waterway" v="stream" />
	</node>
	<node id="-174282" lat="60.675838885" lon="8.76321389624">
		<tag k="name" v="Liabekken" />
		<tag k="ssr:stedsnr" v="67922" />
		<tag k="waterway" v="stream" />
	</node>
	<node id="-174273" lat="60.7105388918" lon="8.36329721516">
		<tag k="name" v="Store Damtjørne" />
		<tag k="natural" v="water" />
		<tag k="old_name" v="Damtjørne, store" />
		<tag k="ssr:stedsnr" v="67546" />
	</node>
	<node id="-174271" lat="60.7378166667" lon="8.29008055305">
		<tag k="name" v="Nedre Skardtjørne" />
		<tag k="natural" v="water" />
		<tag k="ssr:stedsnr" v="67481" />
	</node>
	<node id="-174270" lat="60.7386000031" lon="8.28415832998">
		<tag k="name" v="Øvre Skardtjørne" />
		<tag k="natural" v="water" />
		<tag k="ssr:stedsnr" v="67472" />
	</node>
	<node id="-174269" lat="60.5520277778" lon="8.56265833595">
		<tag k="alt_name" v="Tranetjørn" />
		<tag k="name" v="Tranetjørni" />
		<tag k="natural" v="water" />
		<tag k="ssr:stedsnr" v="67276" />
	</node>
	<node id="-174267" lat="60.6462027747" lon="8.80612500039">
		<tag k="name" v="Svarvarbekken" />
		<tag k="ssr:stedsnr" v="67128" />
		<tag k="waterway" v="stream" />
	</node>
	<node id="-174263" lat="60.5744638892" lon="8.60574443801">
		<tag k="name" v="Langetjørni" />
		<tag k="natural" v="water" />
		<tag k="ssr:stedsnr" v="67035" />
	</node>
	<node id="-174262" lat="60.5649972238" lon="8.52370833259">
		<tag k="alt_name" v="Sundåni" />
		<tag k="name" v="Sundåne" />
		<tag k="old_name" v="Sand-Aaen" />
		<tag k="ssr:stedsnr" v="67012" />
		<tag k="waterway" v="stream" />
	</node>
	<node id="-174254" lat="60.5812666663" lon="8.6517277763">
		<tag k="name" v="Svarthamarløken" />
		<tag k="ssr:stedsnr" v="58040" />
		<tag k="waterway" v="stream" />
	</node>
	<node id="-174194" lat="60.5999083319" lon="8.65883056276">
		<tag k="name" v="Torkjellsettjørn" />
		<tag k="natural" v="water" />
		<tag k="ssr:stedsnr" v="39692" />
	</node>
	<node id="-174177" lat="60.8023333333" lon="8.08291110234">
		<tag k="name" v="Karketjørne" />
		<tag k="natural" v="water" />
		<tag k="ssr:stedsnr" v="9709" />
	</node>
	<node id="-174175" lat="60.8102611104" lon="8.03439999707">
		<tag k="name" v="Søregrove" />
		<tag k="ssr:stedsnr" v="9699" />
		<tag k="waterway" v="stream" />
	</node>
	<node id="-174174" lat="60.8090916666" lon="7.97576110478">
		<tag k="name" v="Tovikstangen" />
		<tag k="natural" v="cape" />
		<tag k="ssr:stedsnr" v="9693" />
	</node>
	<node id="-174173" lat="60.7535888912" lon="8.14950000844">
		<tag k="name" v="Øvre Blomestøltjørne" />
		<tag k="natural" v="water" />
		<tag k="old_name" v="Blommetjørn" />
		<tag k="ssr:stedsnr" v="8993" />
	</node>
	<node id="-174171" lat="60.7845111092" lon="8.46590833422">
		<tag k="name" v="Reinsbottvatnet" />
		<tag k="natural" v="water" />
		<tag k="ssr:stedsnr" v="8890" />
	</node>
	<node id="-174163" lat="60.606663889" lon="8.60686666928">
		<tag k="name" v="Hovdetjørni" />
		<tag k="natural" v="water" />
		<tag k="ssr:stedsnr" v="7901" />
	</node>
	<node id="-174162" lat="60.6943138879" lon="8.26325834223">
		<tag k="name" v="Storåne" />
		<tag k="ssr:stedsnr" v="7888" />
		<tag k="waterway" v="river" />
	</node>
	<node id="-174156" lat="60.6754722207" lon="8.44917500862">
		<tag k="name" v="Butjørne" />
		<tag k="natural" v="water" />
		<tag k="old_name" v="Butjørn" />
		<tag k="ssr:stedsnr" v="7518" />
	</node>
	<node id="-174155" lat="60.7058444467" lon="8.3307611124">
		<tag k="name" v="Revtjørne" />
		<tag k="natural" v="water" />
		<tag k="old_name" v="Revtjørn" />
		<tag k="ssr:stedsnr" v="7496" />
	</node>
	<node id="-174151" lat="60.5304666683" lon="8.69435833917">
		<tag k="alt_name" v="Olsettjørni" />
		<tag k="name" v="Olsettjørn" />
		<tag k="natural" v="water" />
		<tag k="ssr:stedsnr" v="7224" />
	</node>
	<node id="-174142" lat="60.6174833314" lon="8.69205555027">
		<tag k="alt_name" v="Hesttjerni;Hesttjørni" />
		<tag k="name" v="Hesttjørn" />
		<tag k="natural" v="water" />
		<tag k="ssr:stedsnr" v="7101" />
	</node>
	<node id="-174138" lat="60.5925916666" lon="8.48803054731">
		<tag k="alt_name" v="Hakkerudgrovi" />
		<tag k="name" v="Hakkerudgrove" />
		<tag k="ssr:stedsnr" v="7068" />
		<tag k="waterway" v="stream" />
	</node>
	<node id="-174132" lat="60.6914055578" lon="8.58105832537">
		<tag k="name" v="Rauna" />
		<tag k="natural" v="water" />
		<tag k="ssr:stedsnr" v="6900" />
	</node>
	<node id="-174124" lat="60.7379972192" lon="8.52164165875">
		<tag k="alt_name" v="Fekjastølgrove" />
		<tag k="loc_name" v="Løken" />
		<tag k="name" v="Fetjastølløken" />
		<tag k="ssr:stedsnr" v="6815" />
		<tag k="waterway" v="stream" />
	</node>
	<node id="-174122" lat="60.7407277809" lon="8.4703361138">
		<tag k="name" v="Kråkhamarvatnet" />
		<tag k="natural" v="water" />
		<tag k="ssr:stedsnr" v="6803" />
		<tag k="water" v="lake" />
	</node>
	<node id="-174119" lat="60.746183337" lon="8.43334443644">
		<tag k="name" v="Breaåne" />
		<tag k="ssr:stedsnr" v="6483" />
		<tag k="waterway" v="stream" />
	</node>
	<node id="-174114" lat="60.5828666694" lon="8.67413889685">
		<tag k="alt_name" v="Nedre Oddetjørn" />
		<tag k="name" v="Nedre Oddetjørni" />
		<tag k="natural" v="water" />
		<tag k="ssr:stedsnr" v="6022" />
	</node>
	<node id="-174113" lat="60.6766138862" lon="8.57503055509">
		<tag k="name" v="Syningstjørn" />
		<tag k="natural" v="water" />
		<tag k="ssr:stedsnr" v="3669" />
	</node>
	<node id="-174105" lat="60.6574055591" lon="8.34120832746">
		<tag k="name" v="Langtjørnbekken" />
		<tag k="ssr:stedsnr" v="238331" />
		<tag k="waterway" v="stream" />
	</node>
	<node id="-174100" lat="60.6808277807" lon="8.62800833228">
		<tag k="name" v="Aunsetbekken" />
		<tag k="ssr:stedsnr" v="891819" />
		<tag k="waterway" v="stream" />
	</node>
	<node id="-174091" lat="60.6758444463" lon="8.6023666736">
		<tag k="name" v="Langetjørn" />
		<tag k="natural" v="water" />
		<tag k="ssr:stedsnr" v="890742" />
	</node>
</osm>
