<?xml version="1.0" encoding="UTF-8"?>
<osm generator="osmapis" version="0.6">
	<node id="-176126" lat="60.5060222256" lon="8.40515833048">
		<tag k="name" v="Flåmyre" />
		<tag k="natural" v="wetland" />
		<tag k="ssr:stedsnr" v="966352" />
	</node>
	<node id="-176118" lat="60.6370444466" lon="8.84378888156">
		<tag k="name" v="Bergalustein" />
		<tag k="natural" v="stone" />
		<tag k="ssr:stedsnr" v="965072" />
	</node>
	<node id="-174069" lat="60.7001861124" lon="8.63721666892">
		<tag k="name" v="Steinset" />
		<tag k="place" v="locality" />
		<tag k="ssr:stedsnr" v="344683" />
	</node>
	<node id="-174067" lat="60.7144555561" lon="8.63918334157">
		<tag k="name" v="Høgstane" />
		<tag k="place" v="locality" />
		<tag k="ssr:stedsnr" v="344677" />
	</node>
	<node id="-175600" lat="60.6951805518" lon="8.7723361093">
		<tag k="alt_name" v="Oksemyre;Uksedokkmyri" />
		<tag k="loc_name" v="Uksemyre" />
		<tag k="name" v="Oksemyri" />
		<tag k="natural" v="wetland" />
		<tag k="ssr:stedsnr" v="733879" />
	</node>
	<node id="-176105" lat="60.6369583376" lon="8.66079721489">
		<tag k="name" v="Rensle" />
		<tag k="natural" v="scree" />
		<tag k="ssr:stedsnr" v="951770" />
	</node>
	<node id="-174566" lat="60.6089250005" lon="8.78169167106">
		<tag k="loc_name" v="Vesleflæi" />
		<tag k="name" v="Vesleflæet" />
		<tag k="natural" v="wetland" />
		<tag k="ssr:stedsnr" v="128056" />
	</node>
	<node id="-174047" lat="60.6622911986" lon="8.79062757444">
		<tag k="alt_name" v="Ulvemyrtreet" />
		<tag k="name" v="Ulvemyrtræet" />
		<tag k="place" v="locality" />
		<tag k="ssr:stedsnr" v="324657" />
	</node>
	<node id="-176093" lat="60.7231472257" lon="8.63593056301">
		<tag k="name" v="Øknemyran" />
		<tag k="natural" v="wetland" />
		<tag k="ssr:stedsnr" v="951216" />
	</node>
	<node id="-176082" lat="60.6417172786" lon="8.51775602913">
		<tag k="name" v="Staugard" />
		<tag k="place" v="locality" />
		<tag k="ssr:stedsnr" v="931770" />
	</node>
	<node id="-176081" lat="60.6384027791" lon="8.52211389662">
		<tag k="landuse" v="meadow" />
		<tag k="name" v="Veslestølen" />
		<tag k="ssr:stedsnr" v="931765" />
	</node>
	<node id="-176079" lat="60.6137444401" lon="8.53161388901">
		<tag k="name" v="Langelandslåtta" />
		<tag k="place" v="locality" />
		<tag k="ssr:stedsnr" v="931732" />
	</node>
	<node id="-176078" lat="60.6228111142" lon="8.52853055687">
		<tag k="name" v="Busteteigen" />
		<tag k="place" v="locality" />
		<tag k="ssr:stedsnr" v="931730" />
	</node>
	<node id="-175050" lat="60.723858329" lon="8.39736943914">
		<tag k="name" v="Fjellstølmyran" />
		<tag k="natural" v="wetland" />
		<tag k="ssr:stedsnr" v="491547" />
	</node>
	<node id="-176071" lat="60.668722224" lon="8.69809444514">
		<tag k="name" v="Valdresplassen" />
		<tag k="place" v="locality" />
		<tag k="ssr:stedsnr" v="931462" />
	</node>
	<node id="-174532" lat="60.691519441" lon="8.47400833973">
		<tag k="name" v="Gorrtjørnmyre" />
		<tag k="natural" v="wetland" />
		<tag k="ssr:stedsnr" v="117331" />
	</node>
	<node id="-174529" lat="60.5190444419" lon="8.44037778519">
		<tag k="alt_name" v="Brauti" />
		<tag k="historic" v="shieling" />
		<tag k="loc_name" v="Braudi" />
		<tag k="name" v="Braute" />
		<tag k="old_name" v="Braudde" />
		<tag k="place" v="locality" />
		<tag k="ssr:stedsnr" v="117258" />
	</node>
	<node id="-175549" lat="60.6482166656" lon="8.52297500094">
		<tag k="name" v="Feten" />
		<tag k="place" v="locality" />
		<tag k="ssr:stedsnr" v="688735" />
	</node>
	<node id="-175034" lat="60.6998083308" lon="8.76651944997">
		<tag k="name" v="Skarmyre" />
		<tag k="natural" v="wetland" />
		<tag k="ssr:stedsnr" v="480214" />
	</node>
	<node id="-175031" lat="60.6439333336" lon="8.39586389184">
		<tag k="name" v="Torsbumyre" />
		<tag k="natural" v="wetland" />
		<tag k="ssr:stedsnr" v="466738" />
	</node>
	<node id="-174783" lat="60.678397219" lon="8.34859445155">
		<tag k="name" v="Flåmyrane" />
		<tag k="natural" v="wetland" />
		<tag k="ssr:stedsnr" v="223851" />
	</node>
	<node id="-175020" lat="60.6815111084" lon="8.51805277411">
		<tag k="landuse" v="meadow" />
		<tag k="name" v="Jalleslåtta" />
		<tag k="ssr:stedsnr" v="465733" />
	</node>
	<node id="-175525" lat="60.5213416638" lon="8.43806944707">
		<tag k="historic" v="shieling" />
		<tag k="name" v="Torsfeten" />
		<tag k="place" v="locality" />
		<tag k="ssr:stedsnr" v="675817" />
	</node>
	<node id="-175010" lat="60.7374555574" lon="8.55401944558">
		<tag k="name" v="Romyre" />
		<tag k="natural" v="wetland" />
		<tag k="ssr:stedsnr" v="465141" />
	</node>
	<node id="-174488" lat="60.6191444457" lon="8.58436666183">
		<tag k="name" v="Piperslåtta" />
		<tag k="place" v="locality" />
		<tag k="ssr:stedsnr" v="81839" />
	</node>
	<node id="-174483" lat="60.6536472225" lon="8.69672499326">
		<tag k="alt_name" v="Nordre Bråten" />
		<tag k="name" v="Nørdre Bråten" />
		<tag k="place" v="locality" />
		<tag k="ssr:stedsnr" v="81547" />
	</node>
	<node id="-176017" lat="60.6411388931" lon="8.59680833599">
		<tag k="landuse" v="quarry" />
		<tag k="name" v="Oppsjøtippen" />
		<tag k="ssr:stedsnr" v="917082" />
	</node>
	<node id="-174975" lat="60.5629888866" lon="8.42413333625">
		<tag k="historic" v="shieling" />
		<tag k="name" v="Sangestølen" />
		<tag k="place" v="locality" />
		<tag k="ssr:stedsnr" v="432713" />
	</node>
	<node id="-175995" lat="60.7220694459" lon="8.7211194459">
		<tag k="alt_name" v="Flæi" />
		<tag k="name" v="Flæin" />
		<tag k="natural" v="wetland" />
		<tag k="ssr:stedsnr" v="916828" />
	</node>
	<node id="-173945" lat="60.6691222255" lon="8.29348054896">
		<tag k="historic" v="shieling" />
		<tag k="name" v="Nystølen" />
		<tag k="place" v="locality" />
		<tag k="ssr:stedsnr" v="299334" />
	</node>
	<node id="-175990" lat="60.5724333361" lon="8.58623334141">
		<tag k="landuse" v="meadow" />
		<tag k="name" v="Blomeruste" />
		<tag k="ssr:stedsnr" v="908862" />
	</node>
	<node id="-175984" lat="60.6744527793" lon="8.68366389696">
		<tag k="name" v="Nilsehagene" />
		<tag k="place" v="locality" />
		<tag k="ssr:stedsnr" v="906944" />
	</node>
	<node id="-174141" lat="60.6031194486" lon="8.7795944413">
		<tag k="alt_name" v="Storflæet" />
		<tag k="loc_name" v="Storeflæin" />
		<tag k="name" v="Storeflæi" />
		<tag k="natural" v="wetland" />
		<tag k="old_name" v="Storeflæenne;Storeflee" />
		<tag k="ssr:stedsnr" v="371050" />
	</node>
	<node id="-175466" lat="60.5588333369" lon="8.4798444481">
		<tag k="name" v="Nystølmyrane" />
		<tag k="natural" v="wetland" />
		<tag k="ssr:stedsnr" v="674001" />
	</node>
	<node id="-175456" lat="60.6185250031" lon="8.45727221532">
		<tag k="historic" v="shieling" />
		<tag k="name" v="Tjørnstølen" />
		<tag k="place" v="locality" />
		<tag k="ssr:stedsnr" v="674642" />
	</node>
	<node id="-175451" lat="60.5333388867" lon="8.44786944419">
		<tag k="alt_name" v="Gråura" />
		<tag k="name" v="Gråurdi" />
		<tag k="natural" v="scree" />
		<tag k="ssr:stedsnr" v="663223" />
	</node>
	<node id="-175956" lat="60.6217500013" lon="8.60518611743">
		<tag k="name" v="Torvmyre" />
		<tag k="natural" v="wetland" />
		<tag k="ssr:stedsnr" v="870834" />
	</node>
	<node id="-175955" lat="60.6197861076" lon="8.60425834121">
		<tag k="alt_name" v="Reinsgravidn" />
		<tag k="name" v="Reinsgravin" />
		<tag k="natural" v="wetland" />
		<tag k="ssr:stedsnr" v="870833" />
	</node>
	<node id="-175442" lat="60.6890305567" lon="8.42816110907">
		<tag k="landuse" v="meadow" />
		<tag k="name" v="Stakkestøet" />
		<tag k="ssr:stedsnr" v="662310" />
	</node>
	<node id="-174919" lat="60.5804944418" lon="8.6062944377">
		<tag k="name" v="Flåmyrane" />
		<tag k="natural" v="wetland" />
		<tag k="ssr:stedsnr" v="422848" />
	</node>
	<node id="-174400" lat="60.6768722206" lon="8.64910278022">
		<tag k="name" v="Ljøsmyr" />
		<tag k="natural" v="wetland" />
		<tag k="ssr:stedsnr" v="56792" />
	</node>
	<node id="-174393" lat="60.7044638924" lon="8.37362499234">
		<tag k="name" v="Reinshengne" />
		<tag k="place" v="locality" />
		<tag k="ssr:stedsnr" v="56443" />
	</node>
	<node id="-174894" lat="60.593869442" lon="8.77506110832">
		<tag k="alt_name" v="Byggjarvolden" />
		<tag k="historic" v="shieling" />
		<tag k="name" v="Byggjarvollen" />
		<tag k="place" v="locality" />
		<tag k="ssr:stedsnr" v="480027" />
	</node>
	<node id="-174347" lat="60.6851166656" lon="8.78725833526">
		<tag k="historic" v="shieling" />
		<tag k="name" v="Juvet" />
		<tag k="place" v="locality" />
		<tag k="ssr:stedsnr" v="40306" />
	</node>
	<node id="-174337" lat="60.6152805515" lon="8.5546499946">
		<tag k="alt_name" v="Storemyre" />
		<tag k="name" v="Storemyri" />
		<tag k="natural" v="wetland" />
		<tag k="ssr:stedsnr" v="21715" />
	</node>
	<node id="-175871" lat="60.6853277784" lon="8.3211194488">
		<tag k="name" v="Lappemyre" />
		<tag k="natural" v="wetland" />
		<tag k="ssr:stedsnr" v="845819" />
	</node>
	<node id="-174845" lat="60.6914027735" lon="8.65924999878">
		<tag k="alt_name" v="Dyresmyran" />
		<tag k="name" v="Dyresmyrane" />
		<tag k="natural" v="wetland" />
		<tag k="ssr:stedsnr" v="249898" />
	</node>
	<node id="-174331" lat="60.6549611112" lon="8.69873056453">
		<tag k="name" v="Søre Bråten" />
		<tag k="place" v="locality" />
		<tag k="ssr:stedsnr" v="20542" />
	</node>
	<node id="-173951" lat="60.7288416639" lon="8.42847778445">
		<tag k="name" v="Hengsmyran" />
		<tag k="natural" v="wetland" />
		<tag k="ssr:stedsnr" v="309560" />
	</node>
	<node id="-175847" lat="60.6807861154" lon="8.73063054881">
		<tag k="name" v="Trolledokki" />
		<tag k="natural" v="wetland" />
		<tag k="ssr:stedsnr" v="830928" />
	</node>
	<node id="-175839" lat="60.5978416707" lon="8.47330555972">
		<tag k="name" v="Nygard" />
		<tag k="place" v="locality" />
		<tag k="ssr:stedsnr" v="830813" />
	</node>
	<node id="-175317" lat="60.6902305558" lon="8.43528054643">
		<tag k="name" v="Karvemyre" />
		<tag k="natural" v="wetland" />
		<tag k="ssr:stedsnr" v="602348" />
	</node>
	<node id="-174288" lat="60.6055999962" lon="8.63560833055">
		<tag k="name" v="Grostølmyri" />
		<tag k="natural" v="wetland" />
		<tag k="ssr:stedsnr" v="7086" />
	</node>
	<node id="-175819" lat="60.7447083291" lon="8.66879443929">
		<tag k="name" v="Svinetreet" />
		<tag k="place" v="locality" />
		<tag k="ssr:stedsnr" v="830160" />
	</node>
	<node id="-175816" lat="60.723299999" lon="8.51627222214">
		<tag k="name" v="Storemyre" />
		<tag k="natural" v="wetland" />
		<tag k="ssr:stedsnr" v="830097" />
	</node>
	<node id="-174795" lat="60.665758332" lon="8.79785277092">
		<tag k="name" v="Bjørnemoen" />
		<tag k="place" v="locality" />
		<tag k="ssr:stedsnr" v="237820" />
	</node>
	<node id="-174271" lat="60.7336249956" lon="8.53439167194">
		<tag k="loc_name" v="Fetjan" />
		<tag k="name" v="Fetjastølmyrane" />
		<tag k="natural" v="wetland" />
		<tag k="ssr:stedsnr" v="6814" />
	</node>
	<node id="-175803" lat="60.6430623812" lon="8.55854181795">
		<tag k="loc_name" v="Lauvhuse" />
		<tag k="name" v="Lauvhuso" />
		<tag k="place" v="locality" />
		<tag k="ssr:stedsnr" v="809749" />
	</node>
	<node id="-175802" lat="60.6330847565" lon="8.51596384411">
		<tag k="name" v="Gjerdun" />
		<tag k="place" v="locality" />
		<tag k="ssr:stedsnr" v="809745" />
	</node>
	<node id="-174775" lat="60.6958583358" lon="8.63768611608">
		<tag k="historic" v="shieling" />
		<tag k="name" v="Holvollen" />
		<tag k="place" v="locality" />
		<tag k="ssr:stedsnr" v="223715" />
	</node>
	<node id="-174655" lat="60.6782750008" lon="8.62027500233">
		<tag k="name" v="Aunsetmyrane" />
		<tag k="natural" v="wetland" />
		<tag k="ssr:stedsnr" v="162825" />
	</node>
	<node id="-174706" lat="60.6012638858" lon="8.62554444983">
		<tag k="alt_name" v="Blautmyrkroken" />
		<tag k="name" v="Blautemyrkroken" />
		<tag k="natural" v="wetland" />
		<tag k="ssr:stedsnr" v="189046" />
	</node>
	<node id="-175264" lat="60.6675805578" lon="8.72806389274">
		<tag k="name" v="Jorde" />
		<tag k="place" v="locality" />
		<tag k="ssr:stedsnr" v="567407" />
	</node>
	<node id="-175472" lat="60.5899027816" lon="8.74910833197">
		<tag k="name" v="Storemyr" />
		<tag k="natural" v="wetland" />
		<tag k="ssr:stedsnr" v="674033" />
	</node>
	<node id="-174749" lat="60.6137694419" lon="8.55007500036">
		<tag k="name" v="Tunga" />
		<tag k="place" v="locality" />
		<tag k="ssr:stedsnr" v="203720" />
	</node>
	<node id="-174235" lat="60.6594750004" lon="8.39780554779">
		<tag k="name" v="Svartedyssa" />
		<tag k="natural" v="wetland" />
		<tag k="ssr:stedsnr" v="891685" />
	</node>
	<node id="-175255" lat="60.6147000027" lon="8.53660278236">
		<tag k="name" v="Gjernesslåtta" />
		<tag k="place" v="locality" />
		<tag k="ssr:stedsnr" v="566713" />
	</node>
	<node id="-175746" lat="60.7269888852" lon="8.4879249984">
		<tag k="name" v="Ljosmyran" />
		<tag k="natural" v="wetland" />
		<tag k="ssr:stedsnr" v="795818" />
	</node>
	<node id="-175743" lat="60.727636112" lon="8.4466499931">
		<tag k="name" v="Vardehovdmyran" />
		<tag k="natural" v="wetland" />
		<tag k="old_name" v="Vardhovdmyrane" />
		<tag k="ssr:stedsnr" v="795580" />
	</node>
	<node id="-175295" lat="60.7093305575" lon="8.59568889788">
		<tag k="landuse" v="meadow" />
		<tag k="name" v="Hesjane" />
		<tag k="ssr:stedsnr" v="587773" />
	</node>
	<node id="-175219" lat="60.5185333322" lon="8.6815027712">
		<tag k="name" v="Hestehallmyrane" />
		<tag k="natural" v="wetland" />
		<tag k="ssr:stedsnr" v="553191" />
	</node>
	<node id="-175218" lat="60.5012749989" lon="8.48823055895">
		<tag k="name" v="Flåmyrane" />
		<tag k="natural" v="wetland" />
		<tag k="ssr:stedsnr" v="553173" />
	</node>
	<node id="-174192" lat="60.7340805586" lon="8.65131944998">
		<tag k="name" v="Fivilhav" />
		<tag k="natural" v="wetland" />
		<tag k="ssr:stedsnr" v="405219" />
	</node>
	<node id="-175724" lat="60.6913083371" lon="8.5417833283">
		<tag k="alt_name" v="Kjerringslettmyra" />
		<tag k="name" v="Kjerringslettmyri" />
		<tag k="natural" v="wetland" />
		<tag k="ssr:stedsnr" v="784730" />
	</node>
	<node id="-174181" lat="60.6039444473" lon="8.66076111213">
		<tag k="name" v="Hestekroken" />
		<tag k="natural" v="wetland" />
		<tag k="ssr:stedsnr" v="403195" />
	</node>
	<node id="-175203" lat="60.6852138894" lon="8.68330000505">
		<tag k="alt_name" v="Klopparmyra" />
		<tag k="name" v="Klopparmyri" />
		<tag k="natural" v="wetland" />
		<tag k="ssr:stedsnr" v="552920" />
	</node>
	<node id="-175706" lat="60.7059166677" lon="8.39070833346">
		<tag k="name" v="Vesleskarmyre" />
		<tag k="natural" v="wetland" />
		<tag k="ssr:stedsnr" v="769872" />
	</node>
	<node id="-175193" lat="60.731258334" lon="8.66592499604">
		<tag k="alt_name" v="Fekjan" />
		<tag k="name" v="Fetjan" />
		<tag k="natural" v="wetland" />
		<tag k="ssr:stedsnr" v="552853" />
	</node>
	<node id="-174635" lat="60.7133111112" lon="8.4590472165">
		<tag k="name" v="Timrehaugmyre" />
		<tag k="natural" v="wetland" />
		<tag k="ssr:stedsnr" v="162109" />
	</node>
	<node id="-174677" lat="60.6881333367" lon="8.43200278256">
		<tag k="name" v="Kyrkjemyre" />
		<tag k="natural" v="wetland" />
		<tag k="ssr:stedsnr" v="177320" />
	</node>
	<node id="-175700" lat="60.646547221" lon="8.3980999934">
		<tag k="name" v="Rågjerda" />
		<tag k="place" v="locality" />
		<tag k="ssr:stedsnr" v="769725" />
	</node>
	<node id="-175968" lat="60.7073722192" lon="8.40669167578">
		<tag k="name" v="Fekjastølmyre" />
		<tag k="natural" v="wetland" />
		<tag k="ssr:stedsnr" v="905076" />
	</node>
	<node id="-174653" lat="60.7053694428" lon="8.60044444349">
		<tag k="landuse" v="meadow" />
		<tag k="name" v="Dalane" />
		<tag k="ssr:stedsnr" v="162788" />
	</node>
	<node id="-174640" lat="60.6817222217" lon="8.75427500152">
		<tag k="name" v="Brøtmyrane" />
		<tag k="natural" v="wetland" />
		<tag k="ssr:stedsnr" v="162274" />
	</node>
	<node id="-174639" lat="60.7032305551" lon="8.52096944072">
		<tag k="landuse" v="meadow" />
		<tag k="name" v="Løkingsgardfeten" />
		<tag k="ssr:stedsnr" v="162244" />
	</node>
	<node id="-175148" lat="60.7094083371" lon="8.70770833413">
		<tag k="name" v="Skjerpingflæin" />
		<tag k="natural" v="wetland" />
		<tag k="ssr:stedsnr" v="526874" />
	</node>
	<node id="-175026" lat="60.7168944468" lon="8.27445278384">
		<tag k="name" v="Karihellmyre" />
		<tag k="natural" v="wetland" />
		<tag k="ssr:stedsnr" v="465892" />
	</node>
	<node id="-175143" lat="60.6702416664" lon="8.66873610776">
		<tag k="name" v="Dølahaugen" />
		<tag k="place" v="locality" />
		<tag k="ssr:stedsnr" v="526811" />
	</node>
	<node id="-175142" lat="60.6381055532" lon="8.47184443917">
		<tag k="name" v="Storemyre" />
		<tag k="natural" v="wetland" />
		<tag k="ssr:stedsnr" v="526774" />
	</node>
	<node id="-174621" lat="60.6200527772" lon="8.61133055736">
		<tag k="name" v="Elgsmyre" />
		<tag k="natural" v="wetland" />
		<tag k="ssr:stedsnr" v="141823" />
	</node>
	<node id="-175131" lat="60.5956361079" lon="8.45404167147">
		<tag k="historic" v="shieling" />
		<tag k="name" v="Trøberget" />
		<tag k="place" v="locality" />
		<tag k="ssr:stedsnr" v="526353" />
	</node>
	<node id="-174102" lat="60.539913891" lon="8.60121111249">
		<tag k="name" v="Klovsteinan" />
		<tag k="natural" v="stone" />
		<tag k="ssr:stedsnr" v="360764" />
	</node>
	<node id="-176136" lat="60.6813999996" lon="8.66073334207">
		<tag k="name" v="Fjordungstokkmyra" />
		<tag k="natural" v="wetland" />
		<tag k="ssr:stedsnr" v="966982" />
	</node>
</osm>
