<?xml version="1.0" encoding="UTF-8"?>
<osm generator="osmapis" version="0.6">
	<node id="-175868" lat="60.492375002" lon="8.47459722186">
		<tag k="junction" v="yes" />
		<tag k="name" v="Kolaplassen" />
		<tag k="place" v="locality" />
		<tag k="ssr:stedsnr" v="845729" />
	</node>
	<node id="-175483" lat="60.6263805581" lon="8.5621416644">
		<tag k="name" v="Ål stasjon" />
		<tag k="railway" v="station" />
		<tag k="ssr:stedsnr" v="674108" />
		<tag k="train" v="yes" />
	</node>
	<node id="-176109" lat="60.6524194464" lon="8.68299444596">
		<tag k="bridge" v="yes" />
		<tag k="layer" v="1" />
		<tag k="name" v="Koddemoen" />
		<tag k="ssr:stedsnr" v="957968" />
	</node>
	<node id="-176108" lat="60.6315805562" lon="8.54040832827">
		<tag k="bridge" v="yes" />
		<tag k="layer" v="1" />
		<tag k="name" v="Hellinggrove" />
		<tag k="old_name" v="Hellinggrøvet" />
		<tag k="ssr:stedsnr" v="957799" />
	</node>
	<node id="-173931" lat="60.6447833337" lon="8.43471944274">
		<tag k="bridge" v="yes" />
		<tag k="layer" v="1" />
		<tag k="name" v="Myking" />
		<tag k="ssr:stedsnr" v="289983" />
	</node>
	<node id="-173930" lat="60.6490694445" lon="8.60010277145">
		<tag k="bridge" v="yes" />
		<tag k="layer" v="1" />
		<tag k="name" v="Gulhagen vestre" />
		<tag k="ssr:stedsnr" v="289844" />
	</node>
	<node id="-176094" lat="60.7020083349" lon="8.52813055007">
		<tag k="name" v="Tvilessingi" />
		<tag k="place" v="locality" />
		<tag k="ssr:stedsnr" v="951250" />
	</node>
	<node id="-175708" lat="60.6908555553" lon="8.3638444509">
		<tag k="bridge" v="yes" />
		<tag k="layer" v="1" />
		<tag k="name" v="Hovdegård" />
		<tag k="ssr:stedsnr" v="774973" />
	</node>
	<node id="-175707" lat="60.649297225" lon="8.59941666936">
		<tag k="bridge" v="yes" />
		<tag k="layer" v="1" />
		<tag k="name" v="Gulhagen" />
		<tag k="ssr:stedsnr" v="774804" />
	</node>
	<node id="-175320" lat="60.5780555558" lon="8.45382777188">
		<tag k="highway" v="path" />
		<tag k="name" v="Nordre Sandøynvegen" />
		<tag k="ssr:stedsnr" v="602741" />
	</node>
	<node id="-175575" lat="60.6825388868" lon="8.68966388874">
		<tag k="name" v="Tvilessingi" />
		<tag k="place" v="locality" />
		<tag k="ssr:stedsnr" v="708906" />
	</node>
	<node id="-175701" lat="60.6503861077" lon="8.39720554969">
		<tag k="highway" v="path" />
		<tag k="name" v="Fjellvegen" />
		<tag k="ssr:stedsnr" v="769732" />
	</node>
	<node id="-174664" lat="60.6215444477" lon="8.53481665977">
		<tag k="bridge" v="yes" />
		<tag k="layer" v="1" />
		<tag k="name" v="Kvinda" />
		<tag k="old_name" v="Kvenda" />
		<tag k="ssr:stedsnr" v="168969" />
	</node>
	<node id="-174663" lat="60.6248500032" lon="8.54093611258">
		<tag k="bridge" v="yes" />
		<tag k="layer" v="1" />
		<tag k="name" v="Stave" />
		<tag k="ssr:stedsnr" v="168965" />
	</node>
	<node id="-174662" lat="60.6923083374" lon="8.51192221734">
		<tag k="bridge" v="yes" />
		<tag k="layer" v="1" />
		<tag k="name" v="Løkensgard" />
		<tag k="ssr:stedsnr" v="168961" />
	</node>
	<node id="-175301" lat="60.6695555554" lon="8.73930833161">
		<tag k="bridge" v="yes" />
		<tag k="layer" v="1" />
		<tag k="loc_name" v="Sireåbrune" />
		<tag k="name" v="Sirielv" />
		<tag k="ssr:stedsnr" v="592977" />
	</node>
	<node id="-174788" lat="60.6568055572" lon="8.69727222284">
		<tag k="bridge" v="yes" />
		<tag k="layer" v="1" />
		<tag k="name" v="Klovberget" />
		<tag k="ssr:stedsnr" v="228977" />
	</node>
	<node id="-175427" lat="60.6423055542" lon="8.59075555745">
		<tag k="bridge" v="yes" />
		<tag k="layer" v="1" />
		<tag k="name" v="Stølen" />
		<tag k="ssr:stedsnr" v="653969" />
	</node>
	<node id="-174786" lat="60.7018694473" lon="8.46012500822">
		<tag k="bridge" v="yes" />
		<tag k="layer" v="1" />
		<tag k="name" v="Hestaåni" />
		<tag k="ssr:stedsnr" v="228972" />
	</node>
	<node id="-175033" lat="60.6294719146" lon="8.56668758663">
		<tag k="bridge" v="yes" />
		<tag k="layer" v="1" />
		<tag k="loc_name" v="Myrebrune" />
		<tag k="name" v="Myhren" />
		<tag k="ssr:stedsnr" v="471966" />
	</node>
	<node id="-174520" lat="60.6458583346" lon="8.59474445247">
		<tag k="bridge" v="yes" />
		<tag k="layer" v="1" />
		<tag k="name" v="Stranden" />
		<tag k="ssr:stedsnr" v="107977" />
	</node>
	<node id="-175153" lat="60.6603666654" lon="8.70459444892">
		<tag k="bridge" v="yes" />
		<tag k="layer" v="1" />
		<tag k="name" v="Vangen" />
		<tag k="ssr:stedsnr" v="532951" />
	</node>
	<node id="-174787" lat="60.6482916654" lon="8.59871666925">
		<tag k="bridge" v="yes" />
		<tag k="layer" v="1" />
		<tag k="name" v="Jægermoen" />
		<tag k="ssr:stedsnr" v="228975" />
	</node>
	<node id="-174378" lat="60.664666667" lon="8.73948611812">
		<tag k="bridge" v="yes" />
		<tag k="layer" v="1" />
		<tag k="name" v="Bråten" />
		<tag k="ssr:stedsnr" v="46815" />
	</node>
	<node id="-174242" lat="60.5799027743" lon="8.42217778112">
		<tag k="bridge" v="yes" />
		<tag k="layer" v="1" />
		<tag k="name" v="Kleivi" />
		<tag k="ssr:stedsnr" v="896976" />
	</node>
	<node id="-174241" lat="60.6530583345" lon="8.61437222857">
		<tag k="bridge" v="yes" />
		<tag k="layer" v="1" />
		<tag k="name" v="Sando" />
		<tag k="ssr:stedsnr" v="896975" />
	</node>
	<node id="-175300" lat="60.6637972264" lon="8.74651943806">
		<tag k="bridge" v="yes" />
		<tag k="layer" v="1" />
		<tag k="name" v="Bjørøybråten" />
		<tag k="ssr:stedsnr" v="592849" />
	</node>
	<node id="-175121" lat="60.6218888926" lon="8.53526111605">
		<tag k="bridge" v="yes" />
		<tag k="layer" v="1" />
		<tag k="name" v="Vangen Søndre" />
		<tag k="ssr:stedsnr" v="524944" />
	</node>
	<node id="-175624" lat="60.6598555523" lon="8.71629722172">
		<tag k="alt_name" v="Torpo" />
		<tag k="name" v="Torpo stasjon" />
		<tag k="railway" v="station" />
		<tag k="ssr:stedsnr" v="734974" />
		<tag k="train" v="yes" />
	</node>
	<node id="-173932" lat="60.5710472254" lon="8.45682776961">
		<tag k="highway" v="path" />
		<tag k="name" v="Gamle Stølsvegen" />
		<tag k="ssr:stedsnr" v="295558" />
	</node>
	<node id="-174213" lat="60.6630277782" lon="8.69937223029">
		<tag k="bridge" v="yes" />
		<tag k="layer" v="1" />
		<tag k="name" v="Lya" />
		<tag k="ssr:stedsnr" v="410971" />
	</node>
	<node id="-174212" lat="60.6628499989" lon="8.73249722068">
		<tag k="bridge" v="yes" />
		<tag k="layer" v="1" />
		<tag k="name" v="Torpeslåtten vest" />
		<tag k="ssr:stedsnr" v="410963" />
	</node>
</osm>
