<?xml version="1.0" encoding="UTF-8"?>
<osm version="0.6" generator="osmapis">
	<node lat="63.43382499803879" lon="10.392202777964485" id="-35663">
		<tag k="man_made" v="quay" />
		<tag k="name" v="Ravnkloa" />
		<tag k="place" v="locality" />
		<tag k="ssr:stedsnr" v="232666" />
	</node>
	<node lat="63.401897226692455" lon="10.313233328238727" id="-35727">
		<tag k="name" v="Lian stasjon" />
		<tag k="railway" v="halt" />
		<tag k="ssr:stedsnr" v="42278" />
		<tag k="train" v="yes" />
	</node>
	<node lat="63.41150278192331" lon="10.38354999623474" id="-35729">
		<tag k="name" v="Stavne" />
		<tag k="old_name" v="Stavne stasjon" />
		<tag k="railway" v="halt" />
		<tag k="ssr:stedsnr" v="237468" />
		<tag k="train" v="yes" />
	</node>
	<node lat="63.4424666702968" lon="10.423277778466856" id="-35740">
		<tag k="landuse" v="harbour" />
		<tag k="name" v="Nyhavna" />
		<tag k="seamark:type" v="harbour" />
		<tag k="ssr:stedsnr" v="238054" />
	</node>
	<node lat="63.43838889283833" lon="10.399019448457107" id="-35749">
		<tag k="man_made" v="quay" />
		<tag k="name" v="Kai 16" />
		<tag k="place" v="locality" />
		<tag k="ssr:stedsnr" v="239049" />
	</node>
	<node lat="63.38184999983035" lon="10.395027769895362" id="-35760">
		<tag k="landuse" v="industrial" />
		<tag k="name" v="Nedre Leirfoss kraftstasjon" />
		<tag k="power" v="plant" />
		<tag k="ssr:stedsnr" v="50702" />
	</node>
	<node lat="63.4365777799753" lon="10.394219450568027" id="-35774">
		<tag k="man_made" v="quay" />
		<tag k="name" v="Kai 18" />
		<tag k="place" v="locality" />
		<tag k="ssr:stedsnr" v="55228" />
	</node>
	<node lat="63.42910832965725" lon="10.433316659697176" id="-35785">
		<tag k="man_made" v="pipeline" />
		<tag k="name" v="Kuhaugen trykkbasseng" />
		<tag k="ssr:stedsnr" v="57206" />
	</node>
	<node lat="63.42001944192219" lon="10.375344442303456" id="-35797">
		<tag k="name" v="Bygrensa" />
		<tag k="railway" v="halt" />
		<tag k="ssr:stedsnr" v="59286" />
		<tag k="train" v="yes" />
	</node>
	<node lat="63.446713887280325" lon="10.462252767987213" id="-35808">
		<tag k="highway" v="path" />
		<tag k="name" v="Finnestien" />
		<tag k="ssr:stedsnr" v="241189" />
	</node>
	<node lat="63.32583191360098" lon="10.32645354864787" id="-35825">
		<tag k="layer" v="-1" />
		<tag k="name" v="Storlersundergangen" />
		<tag k="ssr:stedsnr" v="242864" />
		<tag k="tunnel" v="yes" />
	</node>
	<node lat="63.403852774103136" lon="10.338327780038743" id="-35843">
		<tag k="alt_name" v="Kyvatnet" />
		<tag k="name" v="Kyvannet" />
		<tag k="old_name" v="Kyvann;Kyvatn" />
		<tag k="railway" v="halt" />
		<tag k="ssr:stedsnr" v="74573" />
		<tag k="train" v="yes" />
	</node>
	<node lat="63.41014722227538" lon="10.15820277014547" id="-35861">
		<tag k="junction" v="yes" />
		<tag k="name" v="Høstadkorsen" />
		<tag k="place" v="locality" />
		<tag k="ssr:stedsnr" v="84921" />
	</node>
	<node lat="63.44244444244558" lon="10.417441674716917" id="-35949">
		<tag k="man_made" v="quay" />
		<tag k="name" v="Transittkaia" />
		<tag k="place" v="locality" />
		<tag k="ssr:stedsnr" v="116205" />
	</node>
	<node lat="63.432541669252295" lon="10.385466669650649" id="-35950">
		<tag k="man_made" v="quay" />
		<tag k="name" v="Kai 23" />
		<tag k="place" v="locality" />
		<tag k="ssr:stedsnr" v="116220" />
	</node>
	<node lat="63.34791944809577" lon="10.370961109182808" id="-35967">
		<tag k="bridge" v="yes" />
		<tag k="layer" v="1" />
		<tag k="name" v="Tillerringbrua" />
		<tag k="ssr:stedsnr" v="121877" />
	</node>
	<node lat="63.42095004542545" lon="10.310320877526072" id="-35983">
		<tag k="fixme" v="consider highway=path" />
		<tag k="highway" v="track" />
		<tag k="name" v="Tungavegen" />
		<tag k="ssr:stedsnr" v="145132" />
	</node>
	<node lat="63.37363333599885" lon="10.311080550837048" id="-35991">
		<tag k="name" v="Søre Hallgrinda" />
		<tag k="place" v="locality" />
		<tag k="ssr:stedsnr" v="146113" />
	</node>
	<node lat="63.37392778111995" lon="10.29955276945272" id="-35996">
		<tag k="highway" v="path" />
		<tag k="name" v="Markavegen" />
		<tag k="ssr:stedsnr" v="147161" />
	</node>
	<node lat="63.387233330315226" lon="10.293272222478167" id="-36007">
		<tag k="name" v="Veggrinda" />
		<tag k="place" v="locality" />
		<tag k="ssr:stedsnr" v="149017" />
	</node>
	<node lat="63.435933821996684" lon="10.413198575208877" id="-36009">
		<tag k="man_made" v="quay" />
		<tag k="name" v="Thaulowkaia" />
		<tag k="place" v="locality" />
		<tag k="ssr:stedsnr" v="149807" />
	</node>
	<node lat="63.434894447794214" lon="10.39562222571587" id="-36043">
		<tag k="alt_name" v="Kysten Kaia, vest" />
		<tag k="man_made" v="quay" />
		<tag k="name" v="Kystenkaia Vest" />
		<tag k="place" v="locality" />
		<tag k="ssr:stedsnr" v="162305" />
	</node>
	<node lat="63.43193055219079" lon="10.382008342984422" id="-36080">
		<tag k="man_made" v="quay" />
		<tag k="name" v="Kai 24" />
		<tag k="place" v="locality" />
		<tag k="ssr:stedsnr" v="177223" />
	</node>
	<node lat="63.45131944563274" lon="10.20110277902348" id="-36122">
		<tag k="amenity" v="ferry_terminal" />
		<tag k="name" v="Flakk ferjekai" />
		<tag k="ssr:stedsnr" v="266877" />
	</node>
	<node lat="63.41734444858559" lon="10.165325007804984" id="-36150">
		<tag k="highway" v="path" />
		<tag k="name" v="Babystien" />
		<tag k="ssr:stedsnr" v="208004" />
	</node>
	<node lat="63.42705833575491" lon="10.186900005335271" id="-36153">
		<tag k="name" v="Tverrvuddugrinda" />
		<tag k="place" v="locality" />
		<tag k="ssr:stedsnr" v="208014" />
	</node>
	<node lat="63.377323860793766" lon="10.295590152644943" id="-36165">
		<tag k="highway" v="path" />
		<tag k="name" v="Leirsjøvegen" />
		<tag k="ssr:stedsnr" v="269166" />
	</node>
	<node lat="63.40647500014954" lon="10.30835555482739" id="-36166">
		<tag k="highway" v="path" />
		<tag k="name" v="Baklistien" />
		<tag k="ssr:stedsnr" v="269186" />
	</node>
	<node lat="63.38563333616916" lon="10.198733338712268" id="-36174">
		<tag k="highway" v="path" />
		<tag k="name" v="Akselvegen" />
		<tag k="ssr:stedsnr" v="269942" />
	</node>
	<node lat="63.36414268368943" lon="10.216372625795088" id="-36175">
		<tag k="fixme" v="multiple name tags, choose one and add the other to alt_name" />
		<tag k="highway" v="path" />
		<tag k="name" v="Vintervegen;Vintermyrvegen" />
		<tag k="ssr:stedsnr" v="270247" />
	</node>
	<node lat="63.40481111255486" lon="10.32157499449073" id="-36193">
		<tag k="highway" v="path" />
		<tag k="name" v="Herlofsonløypa" />
		<tag k="ssr:stedsnr" v="224039" />
	</node>
	<node lat="63.42067221856081" lon="10.251463886757032" id="-36198">
		<tag k="man_made" v="cairn" />
		<tag k="name" v="Varden" />
		<tag k="place" v="locality" />
		<tag k="ssr:stedsnr" v="271168" />
	</node>
	<node lat="63.3791722244366" lon="10.258099999119896" id="-36223">
		<tag k="name" v="Markabakkveggrinda" />
		<tag k="place" v="locality" />
		<tag k="ssr:stedsnr" v="449528" />
	</node>
	<node lat="63.40276944789713" lon="10.381747213598016" id="-36235">
		<tag k="name" v="Søndre Hoem" />
		<tag k="railway" v="halt" />
		<tag k="ssr:stedsnr" v="232434" />
		<tag k="train" v="yes" />
	</node>
	<node lat="63.380680557324695" lon="10.329288898565967" id="-36262">
		<tag k="highway" v="path" />
		<tag k="name" v="Leirbruvegen" />
		<tag k="ssr:stedsnr" v="451043" />
	</node>
	<node lat="63.412899999621125" lon="10.474511114206916" id="-36272">
		<tag k="junction" v="yes" />
		<tag k="name" v="Ramstadkrysset" />
		<tag k="place" v="locality" />
		<tag k="ssr:stedsnr" v="241232" />
	</node>
	<node lat="63.42747500393388" lon="10.186275009288032" id="-36334">
		<tag k="fixme" v="multiple name tags, choose one and add the other to alt_name" />
		<tag k="name" v="Onsøygrinda;Rabbagrinda" />
		<tag k="place" v="locality" />
		<tag k="ssr:stedsnr" v="268005" />
	</node>
	<node lat="63.4363444406402" lon="10.399841675187975" id="-36348">
		<tag k="alt_name" v="Trondheim S" />
		<tag k="name" v="Trondheim sentralstasjon" />
		<tag k="old_name" v="Trondheim stasjon;Trondheim jernbanestasjon" />
		<tag k="railway" v="station" />
		<tag k="ssr:stedsnr" v="275710" />
		<tag k="train" v="yes" />
	</node>
	<node lat="63.323057533788415" lon="10.30203300019521" id="-36417">
		<tag k="layer" v="-1" />
		<tag k="name" v="Klettundergangen" />
		<tag k="ssr:stedsnr" v="303875" />
		<tag k="tunnel" v="yes" />
	</node>
	<node lat="63.372816663230054" lon="10.407369440887443" id="-36421">
		<tag k="landuse" v="industrial" />
		<tag k="name" v="Øvre Leirfoss kraftstasjon" />
		<tag k="power" v="plant" />
		<tag k="ssr:stedsnr" v="465490" />
	</node>
	<node lat="63.394463884612996" lon="10.169899995769107" id="-36481">
		<tag k="fixme" v="consider highway=path" />
		<tag k="highway" v="track" />
		<tag k="name" v="Hallguttu" />
		<tag k="ssr:stedsnr" v="327078" />
	</node>
	<node lat="63.421513885908304" lon="10.173547216661277" id="-36494">
		<tag k="highway" v="path" />
		<tag k="name" v="Ryesvegen" />
		<tag k="ssr:stedsnr" v="329007" />
	</node>
	<node lat="63.24021111400044" lon="10.512772231379783" id="-36522">
		<tag k="highway" v="path" />
		<tag k="name" v="Lekåsbakken" />
		<tag k="ssr:stedsnr" v="346361" />
	</node>
	<node lat="63.42829444670842" lon="10.534400002465071" id="-36543">
		<tag k="name" v="Ranheim stasjon" />
		<tag k="railway" v="halt" />
		<tag k="ssr:stedsnr" v="474717" />
		<tag k="train" v="yes" />
	</node>
	<node lat="63.43321944886539" lon="10.38780277661665" id="-36586">
		<tag k="man_made" v="quay" />
		<tag k="name" v="Kai 22" />
		<tag k="place" v="locality" />
		<tag k="ssr:stedsnr" v="359222" />
	</node>
	<node lat="63.435372225278414" lon="10.398169436886045" id="-36588">
		<tag k="name" v="Østre Kanalhavn" />
		<tag k="ssr:stedsnr" v="359358" />
		<tag k="waterway" v="canal" />
	</node>
	<node lat="63.39938611070416" lon="10.373216671612346" id="-36614">
		<tag k="name" v="Rognheim" />
		<tag k="railway" v="halt" />
		<tag k="ssr:stedsnr" v="482450" />
		<tag k="train" v="yes" />
	</node>
	<node lat="63.39992157010205" lon="10.34809587766153" id="-36616">
		<tag k="name" v="Ferstad" />
		<tag k="railway" v="halt" />
		<tag k="ssr:stedsnr" v="482455" />
		<tag k="train" v="yes" />
	</node>
	<node lat="63.27914166758589" lon="10.472699998786164" id="-36624">
		<tag k="landuse" v="industrial" />
		<tag k="name" v="Svean kraftstasjon" />
		<tag k="power" v="plant" />
		<tag k="ssr:stedsnr" v="385829" />
	</node>
	<node lat="63.360058334615985" lon="10.2955277847074" id="-36637">
		<tag k="fixme" v="consider highway=path" />
		<tag k="highway" v="track" />
		<tag k="name" v="Røråsvegen" />
		<tag k="ssr:stedsnr" v="388654" />
	</node>
	<node lat="63.433497218602774" lon="10.361919436457482" id="-36678">
		<tag k="man_made" v="quay" />
		<tag k="name" v="Ila pir" />
		<tag k="place" v="locality" />
		<tag k="ssr:stedsnr" v="405538" />
	</node>
	<node lat="63.437608331937476" lon="10.449377776632847" id="-36695">
		<tag k="junction" v="yes" />
		<tag k="name" v="Dalenkrysset" />
		<tag k="place" v="locality" />
		<tag k="ssr:stedsnr" v="414695" />
	</node>
	<node lat="63.44018889115711" lon="10.398686114368871" id="-36706">
		<tag k="man_made" v="breakwater" />
		<tag k="name" v="Brattørmoloen" />
		<tag k="place" v="locality" />
		<tag k="ssr:stedsnr" v="420235" />
	</node>
	<node lat="63.43313055590703" lon="10.406158330189143" id="-36708">
		<tag k="alt_name" v="Øvre Elvehavn" />
		<tag k="landuse" v="harbour" />
		<tag k="name" v="Øvre Elvehavna" />
		<tag k="seamark:type" v="harbour" />
		<tag k="ssr:stedsnr" v="420325" />
	</node>
	<node lat="63.33123632289083" lon="10.340506796234317" id="-36835">
		<tag k="layer" v="-1" />
		<tag k="name" v="Lersbakkundergangen" />
		<tag k="ssr:stedsnr" v="485872" />
		<tag k="tunnel" v="yes" />
	</node>
	<node lat="63.397780554059715" lon="10.359805549280221" id="-36845">
		<tag k="name" v="Munkvoll" />
		<tag k="railway" v="halt" />
		<tag k="ssr:stedsnr" v="680641" />
		<tag k="train" v="yes" />
	</node>
	<node lat="63.40541388489477" lon="10.319058325040794" id="-36893">
		<tag k="name" v="Lian" />
		<tag k="railway" v="halt" />
		<tag k="ssr:stedsnr" v="681621" />
		<tag k="train" v="yes" />
	</node>
	<node lat="63.37407777959374" lon="10.240116660287095" id="-36913">
		<tag k="highway" v="path" />
		<tag k="name" v="Slastaupet" />
		<tag k="ssr:stedsnr" v="510555" />
	</node>
	<node lat="63.38993055395971" lon="10.234997222998441" id="-36918">
		<tag k="bridge" v="yes" />
		<tag k="layer" v="1" />
		<tag k="name" v="Svenskbekkbrua" />
		<tag k="ssr:stedsnr" v="513193" />
	</node>
	<node lat="63.41380555488356" lon="10.408897231263847" id="-36927">
		<tag k="name" v="Lerkendal holdeplass" />
		<tag k="railway" v="station" />
		<tag k="ssr:stedsnr" v="517524" />
		<tag k="train" v="yes" />
	</node>
	<node lat="63.36240277551233" lon="10.64253888089324" id="-36937">
		<tag k="alt_name" v="Setervegen" />
		<tag k="highway" v="path" />
		<tag k="name" v="Sætervegen" />
		<tag k="ssr:stedsnr" v="526111" />
	</node>
	<node lat="63.43684968509585" lon="10.463828427135999" id="-36945">
		<tag k="alt_name" v="Leangen" />
		<tag k="name" v="Leangen stasjon" />
		<tag k="railway" v="station" />
		<tag k="ssr:stedsnr" v="527179" />
		<tag k="train" v="yes" />
	</node>
	<node lat="63.42757222054815" lon="10.285350004199417" id="-37068">
		<tag k="junction" v="yes" />
		<tag k="name" v="Torvet" />
		<tag k="place" v="locality" />
		<tag k="ssr:stedsnr" v="570103" />
	</node>
	<node lat="63.379283333055575" lon="10.185186106127691" id="-37075">
		<tag k="bridge" v="yes" />
		<tag k="layer" v="1" />
		<tag k="name" v="Sauhaugbrua" />
		<tag k="ssr:stedsnr" v="571926" />
	</node>
	<node lat="63.37049166642317" lon="10.256019452233476" id="-37095">
		<tag k="highway" v="path" />
		<tag k="name" v="Leinsætervegen" />
		<tag k="ssr:stedsnr" v="694298" />
	</node>
	<node lat="63.31732222080594" lon="10.403922229331027" id="-37117">
		<tag k="amenity" v="parking" />
		<tag k="name" v="Skjøla parkeringsplass" />
		<tag k="ssr:stedsnr" v="584622" />
	</node>
	<node lat="63.43345555221557" lon="10.388577780668397" id="-37173">
		<tag k="man_made" v="quay" />
		<tag k="name" v="Kai 21" />
		<tag k="place" v="locality" />
		<tag k="ssr:stedsnr" v="601206" />
	</node>
</osm>
