<?xml version="1.0" encoding="UTF-8"?>
<osm version="0.6" generator="osmapis">
	<node lat="63.393981329059606" lon="10.468216080888334" id="-27291">
		<tag k="name" v="Steinset" />
		<tag k="old_name" v="Steinseth" />
		<tag k="place" v="isolated_dwelling" />
		<tag k="ssr:stedsnr" v="232438" />
	</node>
	<node lat="63.39810916553173" lon="10.509909526659344" id="-27292">
		<tag k="name" v="Solvang" />
		<tag k="place" v="farm" />
		<tag k="ssr:stedsnr" v="232439" />
	</node>
	<node lat="63.400610770231694" lon="10.520541197849848" id="-27293">
		<tag k="name" v="Solvold" />
		<tag k="place" v="farm" />
		<tag k="ssr:stedsnr" v="232443" />
	</node>
	<node lat="63.3935694421884" lon="10.374219434850042" id="-27294">
		<tag k="alt_name" v="Halset søndre" />
		<tag k="name" v="Søndre Hallset" />
		<tag k="place" v="farm" />
		<tag k="ssr:stedsnr" v="231549" />
	</node>
	<node lat="63.19874999965684" lon="10.664524990896092" id="-27295">
		<tag k="name" v="Reinsbekken" />
		<tag k="ssr:stedsnr" v="12786" />
		<tag k="waterway" v="stream" />
	</node>
	<node lat="63.35307778013211" lon="10.545261114577901" id="-27296">
		<tag k="name" v="Langmyra" />
		<tag k="natural" v="wetland" />
		<tag k="ssr:stedsnr" v="232221" />
	</node>
	<node lat="63.25854722011141" lon="10.459636110142087" id="-27297">
		<tag k="name" v="Hyttsaga" />
		<tag k="place" v="farm" />
		<tag k="ssr:stedsnr" v="13219" />
	</node>
	<node lat="63.43891667088642" lon="10.2091611098732" id="-27298">
		<tag k="fixme" v="consider natural=peak for the most distinct mountains in the district" />
		<tag k="name" v="Grøsetåsen" />
		<tag k="natural" v="hill" />
		<tag k="place" v="locality" />
		<tag k="ssr:stedsnr" v="13110" />
	</node>
	<node lat="63.42849703789558" lon="10.181235838687709" id="-27299">
		<tag k="name" v="Onsøya" />
		<tag k="place" v="farm" />
		<tag k="ssr:stedsnr" v="13124" />
	</node>
	<node lat="63.391180557916385" lon="10.121808335377251" id="-27300">
		<tag k="alt_name" v="Esp vestre;Vestre Esp" />
		<tag k="name" v="Esp" />
		<tag k="place" v="farm" />
		<tag k="ssr:stedsnr" v="13469" />
	</node>
	<node lat="63.36504992864593" lon="10.12567020862869" id="-27301">
		<tag k="name" v="Ålberg" />
		<tag k="place" v="farm" />
		<tag k="ssr:stedsnr" v="13473" />
	</node>
	<node lat="63.355908329281455" lon="10.199636111743995" id="-27302">
		<tag k="alt_name" v="Ner Håbjørg;Nedre Håbjørg" />
		<tag k="name" v="Håbjørg" />
		<tag k="place" v="farm" />
		<tag k="ssr:stedsnr" v="13475" />
	</node>
	<node lat="63.390163892506195" lon="10.444444436844112" id="-27303">
		<tag k="fixme" v="consider place=hamlet" />
		<tag k="name" v="Tomset" />
		<tag k="place" v="farm" />
		<tag k="ssr:stedsnr" v="13606" />
	</node>
	<node lat="63.390758336866995" lon="10.402641665374478" id="-27304">
		<tag k="name" v="Haugen" />
		<tag k="place" v="farm" />
		<tag k="ssr:stedsnr" v="13610" />
	</node>
	<node lat="63.326330553227066" lon="10.33121388464396" id="-27305">
		<tag k="name" v="Gravåsen" />
		<tag k="natural" v="hill" />
		<tag k="place" v="locality" />
		<tag k="ssr:stedsnr" v="232295" />
	</node>
	<node lat="63.38438055658602" lon="10.594849994220105" id="-27306">
		<tag k="fixme" v="consider place=hamlet" />
		<tag k="name" v="Kuset" />
		<tag k="place" v="farm" />
		<tag k="ssr:stedsnr" v="13569" />
	</node>
	<node lat="63.381424669929466" lon="10.439828749960713" id="-27307">
		<tag k="name" v="Ner-Blekkan" />
		<tag k="place" v="farm" />
		<tag k="ssr:stedsnr" v="13574" />
	</node>
	<node lat="63.404647226638126" lon="10.581355561403733" id="-27308">
		<tag k="name" v="Solemssveet" />
		<tag k="place" v="farm" />
		<tag k="ssr:stedsnr" v="13577" />
	</node>
	<node lat="63.29741944274673" lon="10.535255547446992" id="-27309">
		<tag k="name" v="Torberga" />
		<tag k="natural" v="hill" />
		<tag k="place" v="locality" />
		<tag k="ssr:stedsnr" v="13814" />
	</node>
	<node lat="63.29974995449332" lon="10.632032004915056" id="-27310">
		<tag k="name" v="Langåsvollen" />
		<tag k="place" v="locality" />
		<tag k="ssr:stedsnr" v="13826" />
	</node>
	<node lat="63.331816670634936" lon="10.378363896991234" id="-27311">
		<tag k="name" v="Kvenildstrøa" />
		<tag k="place" v="farm" />
		<tag k="ssr:stedsnr" v="13911" />
	</node>
	<node lat="63.33543610881378" lon="10.459377769483226" id="-27312">
		<tag k="name" v="Nordsetrønningen" />
		<tag k="place" v="farm" />
		<tag k="ssr:stedsnr" v="13927" />
	</node>
	<node lat="63.345797218365384" lon="10.332352767926482" id="-27313">
		<tag k="name" v="Uståsen" />
		<tag k="place" v="farm" />
		<tag k="ssr:stedsnr" v="13960" />
	</node>
	<node lat="63.36503610982841" lon="10.618691664128521" id="-27314">
		<tag k="name" v="Landøya" />
		<tag k="place" v="islet" />
		<tag k="ssr:stedsnr" v="13990" />
	</node>
	<node lat="63.361563886097244" lon="10.290877778351113" id="-27315">
		<tag k="alt_name" v="Rørmyran" />
		<tag k="name" v="Rørmyra" />
		<tag k="natural" v="wetland" />
		<tag k="ssr:stedsnr" v="14000" />
	</node>
	<node lat="63.37328055555304" lon="10.626277786241777" id="-27316">
		<tag k="name" v="Brattaberga" />
		<tag k="natural" v="hill" />
		<tag k="place" v="locality" />
		<tag k="ssr:stedsnr" v="232323" />
	</node>
	<node lat="63.366277779325955" lon="10.470080555110982" id="-27317">
		<tag k="name" v="Ratåsdalen" />
		<tag k="natural" v="valley" />
		<tag k="place" v="locality" />
		<tag k="ssr:stedsnr" v="232275" />
	</node>
	<node lat="63.39196111136784" lon="10.299369446191387" id="-27318">
		<tag k="name" v="Nordre Våddan" />
		<tag k="place" v="farm" />
		<tag k="ssr:stedsnr" v="232369" />
	</node>
	<node lat="63.406333329940544" lon="10.509416658870819" id="-27319">
		<tag k="name" v="Toppen 2" />
		<tag k="place" v="locality" />
		<tag k="ssr:stedsnr" v="232418" />
	</node>
	<node lat="63.36554939997644" lon="10.154167907420396" id="-27320">
		<tag k="fixme" v="consider place=hamlet" />
		<tag k="name" v="Fallan" />
		<tag k="place" v="farm" />
		<tag k="ssr:stedsnr" v="232422" />
	</node>
	<node lat="63.40677192398217" lon="10.502342188472946" id="-27321">
		<tag k="name" v="Skogly" />
		<tag k="place" v="isolated_dwelling" />
		<tag k="ssr:stedsnr" v="232461" />
	</node>
	<node lat="63.42819166291619" lon="10.416416663035758" id="-27322">
		<tag k="alt_name" v="Bakklandet aldershjem" />
		<tag k="amenity" v="nursing_home" />
		<tag k="name" v="Bakklandet alders- og sykehjem" />
		<tag k="ssr:stedsnr" v="232649" />
	</node>
	<node lat="63.42807499753733" lon="10.397313882878922" id="-27323">
		<tag k="name" v="Archidiakoni plass" />
		<tag k="place" v="square" />
		<tag k="ssr:stedsnr" v="232691" />
	</node>
	<node lat="63.41874166282972" lon="10.40054723188295" id="-27324">
		<tag k="name" v="O.S. Bragstads plass" />
		<tag k="place" v="square" />
		<tag k="ssr:stedsnr" v="232695" />
	</node>
	<node lat="63.4039527791357" lon="10.367947222034868" id="-27325">
		<tag k="cemetery" v="grave" />
		<tag k="name" v="Havstein kirkegård" />
		<tag k="place" v="locality" />
		<tag k="ssr:stedsnr" v="232698" />
	</node>
	<node lat="63.40012222043357" lon="10.45839722078909" id="-27326">
		<tag k="name" v="Fjordgløtt" />
		<tag k="place" v="farm" />
		<tag k="ssr:stedsnr" v="232664" />
	</node>
	<node lat="63.43382499803879" lon="10.392202777964485" id="-27327">
		<tag k="man_made" v="quay" />
		<tag k="name" v="Ravnkloa" />
		<tag k="place" v="locality" />
		<tag k="ssr:stedsnr" v="232666" />
	</node>
	<node lat="63.39963611417019" lon="10.404858335858286" id="-27328">
		<tag k="amenity" v="school" />
		<tag k="name" v="Nidarvoll skole" />
		<tag k="ssr:stedsnr" v="232753" />
	</node>
	<node lat="63.399011109123684" lon="10.3589833262574" id="-27329">
		<tag k="amenity" v="school" />
		<tag k="name" v="Byåsen skole" />
		<tag k="ssr:stedsnr" v="232766" />
	</node>
	<node lat="63.44050278105128" lon="10.434849993547488" id="-27330">
		<tag k="amenity" v="school" />
		<tag k="name" v="Lilleby skole" />
		<tag k="ssr:stedsnr" v="232775" />
	</node>
	<node lat="63.417830560137986" lon="10.48826665955389" id="-27331">
		<tag k="name" v="Brundalen" />
		<tag k="natural" v="valley" />
		<tag k="place" v="locality" />
		<tag k="ssr:stedsnr" v="232866" />
	</node>
	<node lat="63.37989999815623" lon="10.36930556224937" id="-27332">
		<tag k="name" v="Heimdalsbekken" />
		<tag k="ssr:stedsnr" v="232876" />
		<tag k="waterway" v="river" />
	</node>
	<node lat="63.330344447890305" lon="10.298805555460568" id="-27333">
		<tag k="alt_name" v="Nypan vestre;Nypan" />
		<tag k="name" v="Vestre Nypan" />
		<tag k="place" v="farm" />
		<tag k="ssr:stedsnr" v="233201" />
	</node>
	<node lat="63.3669472265892" lon="10.52686944050267" id="-27334">
		<tag k="name" v="Greistadlykkja" />
		<tag k="place" v="farm" />
		<tag k="ssr:stedsnr" v="233226" />
	</node>
	<node lat="63.44138055594692" lon="10.348241674909941" id="-27335">
		<tag k="building" v="industrial" />
		<tag k="industrial" v="factory" />
		<tag k="name" v="Heggdalen" />
		<tag k="ssr:stedsnr" v="20256" />
	</node>
	<node lat="63.40366670910411" lon="10.506208075936488" id="-27336">
		<tag k="name" v="Karlshaug" />
		<tag k="place" v="farm" />
		<tag k="ssr:stedsnr" v="233539" />
	</node>
	<node lat="63.40712116693453" lon="10.507364210860644" id="-27337">
		<tag k="name" v="Midtbø" />
		<tag k="place" v="farm" />
		<tag k="ssr:stedsnr" v="233581" />
	</node>
	<node lat="63.390769444820066" lon="10.468011101849632" id="-27338">
		<tag k="name" v="Tomsetmyra" />
		<tag k="place" v="farm" />
		<tag k="ssr:stedsnr" v="21241" />
	</node>
	<node lat="63.36883613180106" lon="10.095635501079027" id="-27339">
		<tag k="name" v="Kongslia" />
		<tag k="place" v="isolated_dwelling" />
		<tag k="ssr:stedsnr" v="233552" />
	</node>
	<node lat="63.40272221846616" lon="10.486480553031708" id="-27340">
		<tag k="name" v="Kårstua" />
		<tag k="place" v="locality" />
		<tag k="ssr:stedsnr" v="233555" />
	</node>
	<node lat="63.408291668284114" lon="10.499024991009511" id="-27342">
		<tag k="name" v="Myrheim" />
		<tag k="place" v="isolated_dwelling" />
		<tag k="ssr:stedsnr" v="233570" />
	</node>
	<node lat="63.3864343748668" lon="10.514844384881759" id="-27343">
		<tag k="name" v="Myrvang" />
		<tag k="place" v="isolated_dwelling" />
		<tag k="ssr:stedsnr" v="233571" />
	</node>
	<node lat="63.35428333410478" lon="10.407922213010135" id="-27344">
		<tag k="alt_name" v="Ner-Brauta" />
		<tag k="name" v="Brauten og Lien" />
		<tag k="place" v="farm" />
		<tag k="ssr:stedsnr" v="233672" />
	</node>
	<node lat="63.43148055419674" lon="10.395155553311502" id="-27345">
		<tag k="name" v="Stiftsgården" />
		<tag k="ssr:stedsnr" v="233677" />
		<tag k="tourism" v="museum" />
	</node>
	<node lat="63.307166668560576" lon="10.575949991141629" id="-27346">
		<tag k="historic" v="shieling" />
		<tag k="name" v="Litjuglvollen" />
		<tag k="place" v="locality" />
		<tag k="ssr:stedsnr" v="22208" />
	</node>
	<node lat="63.33093611491822" lon="10.549686118465937" id="-27347">
		<tag k="historic" v="shieling" />
		<tag k="name" v="Stavlundsvollen" />
		<tag k="place" v="locality" />
		<tag k="ssr:stedsnr" v="22216" />
	</node>
	<node lat="63.39872222381092" lon="10.407336110436162" id="-27348">
		<tag k="name" v="Nidarvoll" />
		<tag k="place" v="farm" />
		<tag k="ssr:stedsnr" v="233706" />
	</node>
	<node lat="63.40296388810603" lon="10.499588886888624" id="-27349">
		<tag k="name" v="Stokkåsen" />
		<tag k="place" v="farm" />
		<tag k="ssr:stedsnr" v="233716" />
	</node>
	<node lat="63.39454444343603" lon="10.201188891154894" id="-27350">
		<tag k="name" v="Krogstadmyra" />
		<tag k="natural" v="wetland" />
		<tag k="ssr:stedsnr" v="23906" />
	</node>
	<node lat="63.423347223191" lon="10.132313886333437" id="-27351">
		<tag k="name" v="Bengtplassen" />
		<tag k="place" v="locality" />
		<tag k="ssr:stedsnr" v="23907" />
	</node>
	<node lat="63.41200555268248" lon="10.14005555611008" id="-27352">
		<tag k="name" v="Kilen" />
		<tag k="place" v="locality" />
		<tag k="ssr:stedsnr" v="23911" />
	</node>
	<node lat="63.371569447406706" lon="10.071113887700784" id="-27353">
		<tag k="name" v="Penghaugen" />
		<tag k="natural" v="hill" />
		<tag k="place" v="locality" />
		<tag k="ssr:stedsnr" v="23936" />
	</node>
	<node lat="63.41560277777855" lon="10.124611116281548" id="-27354">
		<tag k="name" v="Krokan" />
		<tag k="place" v="locality" />
		<tag k="ssr:stedsnr" v="23941" />
	</node>
	<node lat="63.41350000032697" lon="10.11038889075323" id="-27355">
		<tag k="name" v="Hoemskneppen" />
		<tag k="natural" v="hill" />
		<tag k="place" v="locality" />
		<tag k="ssr:stedsnr" v="23880" />
	</node>
	<node lat="63.38312499856169" lon="10.085319446364755" id="-27356">
		<tag k="fixme" v="consider natural=peak for the most distinct mountains in the district" />
		<tag k="name" v="Ondusåsen" />
		<tag k="natural" v="hill" />
		<tag k="place" v="locality" />
		<tag k="ssr:stedsnr" v="23889" />
	</node>
	<node lat="63.38881666430171" lon="10.173272212892638" id="-27357">
		<tag k="fixme" v="consider natural=peak for the most distinct mountains in the district" />
		<tag k="name" v="Brannbergåsen" />
		<tag k="natural" v="hill" />
		<tag k="place" v="locality" />
		<tag k="ssr:stedsnr" v="23984" />
	</node>
	<node lat="63.36808888588211" lon="10.189063891817081" id="-27358">
		<tag k="alt_name" v="Grostadaunet søndre" />
		<tag k="name" v="Søndre Grostadaunet" />
		<tag k="place" v="farm" />
		<tag k="ssr:stedsnr" v="23989" />
	</node>
	<node lat="63.3618666630017" lon="10.260161114249593" id="-27359">
		<tag k="name" v="Rundbakken" />
		<tag k="natural" v="hill" />
		<tag k="place" v="locality" />
		<tag k="ssr:stedsnr" v="24235" />
	</node>
	<node lat="63.438063887437295" lon="10.161636120866337" id="-27360">
		<tag k="fixme" v="consider seamark:type=rock or natural=shoal" />
		<tag k="name" v="Klefstadskjæret" />
		<tag k="place" v="islet" />
		<tag k="ssr:stedsnr" v="25024" />
	</node>
	<node lat="63.37240000428944" lon="10.306724991898983" id="-27361">
		<tag k="fixme" v="consider natural=peak for the most distinct mountains in the district" />
		<tag k="name" v="Hallaåsen" />
		<tag k="natural" v="hill" />
		<tag k="place" v="locality" />
		<tag k="ssr:stedsnr" v="25123" />
	</node>
	<node lat="63.38216388596312" lon="10.172299998218486" id="-27362">
		<tag k="name" v="Karibekken" />
		<tag k="ssr:stedsnr" v="25901" />
		<tag k="waterway" v="stream" />
	</node>
	<node lat="63.415530554950465" lon="10.175186116095812" id="-27363">
		<tag k="name" v="Litlramberget" />
		<tag k="natural" v="hill" />
		<tag k="place" v="locality" />
		<tag k="ssr:stedsnr" v="26007" />
	</node>
	<node lat="63.428763888331154" lon="10.199613890492786" id="-27364">
		<tag k="name" v="Fossbakken" />
		<tag k="natural" v="slope" />
		<tag k="place" v="locality" />
		<tag k="ssr:stedsnr" v="26027" />
	</node>
	<node lat="63.360233335856734" lon="10.230363888840625" id="-27365">
		<tag k="loc_name" v="Kalvskinnmyra" />
		<tag k="name" v="Kalvkinnmyra" />
		<tag k="natural" v="wetland" />
		<tag k="ssr:stedsnr" v="26326" />
	</node>
	<node lat="63.3817111126742" lon="10.187066672857462" id="-27366">
		<tag k="fixme" v="consider natural=peak for the most distinct mountains in the district" />
		<tag k="name" v="Litlbjørnaråsen" />
		<tag k="natural" v="hill" />
		<tag k="place" v="locality" />
		<tag k="ssr:stedsnr" v="26909" />
	</node>
	<node lat="63.443233336723246" lon="10.207277785098436" id="-27367">
		<tag k="name" v="Rønningan" />
		<tag k="natural" v="slope" />
		<tag k="place" v="locality" />
		<tag k="ssr:stedsnr" v="27570" />
	</node>
	<node lat="63.42899166475946" lon="10.22583610942121" id="-27368">
		<tag k="historic" v="shieling" />
		<tag k="name" v="Byasætra" />
		<tag k="place" v="isolated_dwelling" />
		<tag k="ssr:stedsnr" v="27768" />
	</node>
	<node lat="63.411597224027574" lon="10.215038880084807" id="-27369">
		<tag k="name" v="Kvistingshytta" />
		<tag k="place" v="isolated_dwelling" />
		<tag k="ssr:stedsnr" v="28072" />
	</node>
	<node lat="63.383727779579516" lon="10.217322222920261" id="-27370">
		<tag k="name" v="Høgmyrbakken" />
		<tag k="natural" v="slope" />
		<tag k="place" v="locality" />
		<tag k="ssr:stedsnr" v="28586" />
	</node>
	<node lat="63.446747222949334" lon="10.300927777491665" id="-27371">
		<tag k="name" v="Lykkjadammen" />
		<tag k="ssr:stedsnr" v="28814" />
		<tag k="waterway" v="dam" />
	</node>
	<node lat="63.44720555342868" lon="10.29491388222036" id="-27372">
		<tag k="name" v="Ålbumyra" />
		<tag k="natural" v="wetland" />
		<tag k="ssr:stedsnr" v="28819" />
	</node>
	<node lat="63.45267180884895" lon="10.229712016848234" id="-27373">
		<tag k="name" v="Våttåhaugen" />
		<tag k="natural" v="hill" />
		<tag k="place" v="locality" />
		<tag k="ssr:stedsnr" v="28987" />
	</node>
	<node lat="63.4478527761051" lon="10.22463610600381" id="-27374">
		<tag k="name" v="Hesttrøa" />
		<tag k="place" v="locality" />
		<tag k="ssr:stedsnr" v="28989" />
	</node>
	<node lat="63.30981388485459" lon="10.438522228293056" id="-27375">
		<tag k="name" v="Daltunet" />
		<tag k="place" v="quarter" />
		<tag k="ssr:stedsnr" v="38602" />
	</node>
	<node lat="63.30726605394757" lon="10.433313810101694" id="-27376">
		<tag k="leisure" v="pitch" />
		<tag k="name" v="Tanem kunstgressbane" />
		<tag k="ssr:stedsnr" v="38604" />
	</node>
	<node lat="63.27971388671842" lon="10.457216658169067" id="-27377">
		<tag k="leisure" v="pitch" />
		<tag k="name" v="Leirduebanen" />
		<tag k="ssr:stedsnr" v="38614" />
	</node>
	<node lat="63.32445833253442" lon="10.556297230439064" id="-27378">
		<tag k="fixme" v="consider natural=peak for the most distinct mountains in the district" />
		<tag k="name" v="Sagåsen" />
		<tag k="natural" v="hill" />
		<tag k="place" v="locality" />
		<tag k="ssr:stedsnr" v="38617" />
	</node>
	<node lat="63.326774996537914" lon="10.522080551402407" id="-27379">
		<tag k="name" v="Bostadtjønna" />
		<tag k="natural" v="water" />
		<tag k="ssr:stedsnr" v="38618" />
	</node>
	<node lat="63.33023889039376" lon="10.535366674714394" id="-27380">
		<tag k="name" v="Fiskbekkdalen" />
		<tag k="natural" v="valley" />
		<tag k="place" v="locality" />
		<tag k="ssr:stedsnr" v="38620" />
	</node>
	<node lat="63.32243333275956" lon="10.47401110271616" id="-27381">
		<tag k="name" v="Furuhaugmyra" />
		<tag k="natural" v="wetland" />
		<tag k="ssr:stedsnr" v="38627" />
	</node>
	<node lat="63.31512499734223" lon="10.55840277197784" id="-27382">
		<tag k="name" v="Bostadtjønna" />
		<tag k="natural" v="water" />
		<tag k="old_name" v="Bostadsetertjønna" />
		<tag k="ssr:stedsnr" v="38629" />
	</node>
	<node lat="63.35404721810275" lon="10.605361116073398" id="-27383">
		<tag k="name" v="Kroksberga" />
		<tag k="natural" v="hill" />
		<tag k="place" v="locality" />
		<tag k="ssr:stedsnr" v="40015" />
	</node>
	<node lat="63.34518763519072" lon="10.592725359138612" id="-27384">
		<tag k="name" v="Hammerberg" />
		<tag k="natural" v="hill" />
		<tag k="place" v="locality" />
		<tag k="ssr:stedsnr" v="40023" />
	</node>
	<node lat="63.36081666983298" lon="10.37029444798851" id="-27385">
		<tag k="alt_name" v="Rosten" />
		<tag k="name" v="Rosta" />
		<tag k="place" v="locality" />
		<tag k="ssr:stedsnr" v="40503" />
	</node>
	<node lat="63.433474996551055" lon="10.375488891347059" id="-27386">
		<tag k="name" v="Skansenløpet" />
		<tag k="natural" v="strait" />
		<tag k="ssr:stedsnr" v="40578" />
	</node>
	<node lat="63.39478610915789" lon="10.513855553743438" id="-27387">
		<tag k="name" v="Kvila" />
		<tag k="place" v="farm" />
		<tag k="ssr:stedsnr" v="40601" />
	</node>
	<node lat="63.38981110916486" lon="10.501263881905773" id="-27388">
		<tag k="name" v="Lundheim" />
		<tag k="place" v="farm" />
		<tag k="ssr:stedsnr" v="40676" />
	</node>
	<node lat="63.36579722443891" lon="10.559283339148077" id="-27389">
		<tag k="fixme" v="consider natural=peak for the most distinct mountains in the district" />
		<tag k="name" v="Storåsen" />
		<tag k="natural" v="hill" />
		<tag k="place" v="locality" />
		<tag k="ssr:stedsnr" v="41484" />
	</node>
	<node lat="63.39644068409644" lon="10.340977026324277" id="-27390">
		<tag k="name" v="Knausen" />
		<tag k="place" v="isolated_dwelling" />
		<tag k="ssr:stedsnr" v="42231" />
	</node>
	<node lat="63.401897226692455" lon="10.313233328238727" id="-27391">
		<tag k="name" v="Lian stasjon" />
		<tag k="railway" v="halt" />
		<tag k="ssr:stedsnr" v="42278" />
		<tag k="train" v="yes" />
	</node>
	<node lat="63.40390834952051" lon="10.589732496890448" id="-27392">
		<tag k="fixme" v="consider place=hamlet" />
		<tag k="name" v="Åsgjerdet" />
		<tag k="place" v="farm" />
		<tag k="ssr:stedsnr" v="42423" />
	</node>
	<node lat="63.41150278192331" lon="10.38354999623474" id="-27393">
		<tag k="name" v="Stavne" />
		<tag k="old_name" v="Stavne stasjon" />
		<tag k="railway" v="halt" />
		<tag k="ssr:stedsnr" v="237468" />
		<tag k="train" v="yes" />
	</node>
	<node lat="63.38412221999249" lon="10.359680564204877" id="-27395">
		<tag k="name" v="Buenget" />
		<tag k="place" v="farm" />
		<tag k="ssr:stedsnr" v="42988" />
	</node>
	<node lat="63.299572225072495" lon="10.485672225196573" id="-27396">
		<tag k="amenity" v="school" />
		<tag k="name" v="Sletten skole" />
		<tag k="ssr:stedsnr" v="43206" />
	</node>
	<node lat="63.26433889177906" lon="10.467080558073516" id="-27397">
		<tag k="fixme" v="consider natural=peak for the most distinct mountains in the district" />
		<tag k="name" v="Stabbåsen" />
		<tag k="natural" v="hill" />
		<tag k="place" v="locality" />
		<tag k="ssr:stedsnr" v="43277" />
	</node>
	<node lat="63.27760277525877" lon="10.61004722605697" id="-27398">
		<tag k="name" v="Litjskurrubekken" />
		<tag k="ssr:stedsnr" v="43309" />
		<tag k="waterway" v="stream" />
	</node>
	<node lat="63.29509722443387" lon="10.42645833095973" id="-27399">
		<tag k="name" v="Forsetmoan" />
		<tag k="place" v="locality" />
		<tag k="ssr:stedsnr" v="43473" />
	</node>
	<node lat="63.29933888898695" lon="10.45052777451732" id="-27400">
		<tag k="name" v="Nonsberget" />
		<tag k="natural" v="hill" />
		<tag k="place" v="locality" />
		<tag k="ssr:stedsnr" v="43480" />
	</node>
	<node lat="63.27863333744938" lon="10.461058341510705" id="-27401">
		<tag k="name" v="Bringbærloken" />
		<tag k="natural" v="water" />
		<tag k="ssr:stedsnr" v="43485" />
		<tag k="water" v="lake" />
	</node>
	<node lat="63.4424666702968" lon="10.423277778466856" id="-27404">
		<tag k="landuse" v="harbour" />
		<tag k="name" v="Nyhavna" />
		<tag k="seamark:type" v="harbour" />
		<tag k="ssr:stedsnr" v="238054" />
	</node>
	<node lat="63.3767750012265" lon="10.541222212559434" id="-27405">
		<tag k="name" v="Engelsås" />
		<tag k="place" v="farm" />
		<tag k="ssr:stedsnr" v="238118" />
	</node>
	<node lat="63.41768888579178" lon="10.555411118159522" id="-27406">
		<tag k="name" v="Nyheim" />
		<tag k="place" v="farm" />
		<tag k="ssr:stedsnr" v="238185" />
	</node>
	<node lat="63.41954722261322" lon="10.561099997522696" id="-27407">
		<tag k="name" v="Fyken" />
		<tag k="place" v="farm" />
		<tag k="ssr:stedsnr" v="238192" />
	</node>
	<node lat="63.4173638914845" lon="10.56300554592369" id="-27408">
		<tag k="name" v="Myrset" />
		<tag k="old_name" v="Myrseth" />
		<tag k="place" v="farm" />
		<tag k="ssr:stedsnr" v="238257" />
	</node>
	<node lat="63.41850277532891" lon="10.54754167003665" id="-27410">
		<tag k="name" v="Reppe" />
		<tag k="place" v="locality" />
		<tag k="ssr:stedsnr" v="238366" />
	</node>
	<node lat="63.42004722029798" lon="10.536686120454991" id="-27411">
		<tag k="name" v="Fossen" />
		<tag k="place" v="locality" />
		<tag k="ssr:stedsnr" v="238372" />
	</node>
	<node lat="63.36582500310741" lon="10.445841663529057" id="-27412">
		<tag k="name" v="Liabekken" />
		<tag k="ssr:stedsnr" v="238593" />
		<tag k="waterway" v="stream" />
	</node>
	<node lat="63.43838889283833" lon="10.399019448457107" id="-27413">
		<tag k="man_made" v="quay" />
		<tag k="name" v="Kai 16" />
		<tag k="place" v="locality" />
		<tag k="ssr:stedsnr" v="239049" />
	</node>
	<node lat="63.43037156585256" lon="10.427487012489072" id="-27414">
		<tag k="name" v="Kuhaugen" />
		<tag k="natural" v="hill" />
		<tag k="place" v="locality" />
		<tag k="ssr:stedsnr" v="239076" />
	</node>
	<node lat="63.33623055949278" lon="10.40152778126038" id="-27415">
		<tag k="name" v="Bjørnmyra" />
		<tag k="natural" v="wetland" />
		<tag k="ssr:stedsnr" v="50209" />
	</node>
	<node lat="63.353747219804134" lon="10.268780557451423" id="-27416">
		<tag k="name" v="Buskleinmyra" />
		<tag k="natural" v="wetland" />
		<tag k="ssr:stedsnr" v="50211" />
	</node>
	<node lat="63.34684721900972" lon="10.23992222555842" id="-27417">
		<tag k="name" v="Sveet" />
		<tag k="natural" v="slope" />
		<tag k="place" v="locality" />
		<tag k="ssr:stedsnr" v="50303" />
	</node>
	<node lat="63.32992222113373" lon="10.6520305513013" id="-27418">
		<tag k="name" v="Middagshaugen" />
		<tag k="natural" v="hill" />
		<tag k="place" v="locality" />
		<tag k="ssr:stedsnr" v="50323" />
	</node>
	<node lat="63.406115331991174" lon="10.502732109201878" id="-27419">
		<tag k="name" v="Rein" />
		<tag k="place" v="isolated_dwelling" />
		<tag k="ssr:stedsnr" v="50521" />
	</node>
	<node lat="63.39199304223505" lon="10.467841259527903" id="-27420">
		<tag k="name" v="Pynten" />
		<tag k="place" v="isolated_dwelling" />
		<tag k="ssr:stedsnr" v="50524" />
	</node>
	<node lat="63.38988379612628" lon="10.507327577079469" id="-27421">
		<tag k="name" v="Snabben" />
		<tag k="place" v="isolated_dwelling" />
		<tag k="ssr:stedsnr" v="50468" />
	</node>
	<node lat="63.43463551387528" lon="10.405867945271023" id="-27422">
		<tag k="name" v="Krigsseilermonumentet" />
		<tag k="place" v="locality" />
		<tag k="ssr:stedsnr" v="239243" />
	</node>
	<node lat="63.33022222520167" lon="10.362947220659091" id="-27423">
		<tag k="fixme" v="consider place=hamlet" />
		<tag k="name" v="Kvenild" />
		<tag k="place" v="farm" />
		<tag k="ssr:stedsnr" v="50568" />
	</node>
	<node lat="63.38184999983035" lon="10.395027769895362" id="-27424">
		<tag k="landuse" v="industrial" />
		<tag k="name" v="Nedre Leirfoss kraftstasjon" />
		<tag k="power" v="plant" />
		<tag k="ssr:stedsnr" v="50702" />
	</node>
	<node lat="63.41415000256785" lon="10.417547225296369" id="-27425">
		<tag k="name" v="Studentbyen på Berg" />
		<tag k="place" v="neighbourhood" />
		<tag k="ssr:stedsnr" v="50704" />
	</node>
	<node lat="63.354864129587504" lon="10.16323972551823" id="-27426">
		<tag k="amenity" v="school" />
		<tag k="name" v="Spongdal skole" />
		<tag k="ssr:stedsnr" v="50721" />
	</node>
	<node lat="63.45125833713887" lon="10.383541668448721" id="-27427">
		<tag k="name" v="Falkenskioldmuseet" />
		<tag k="ssr:stedsnr" v="50784" />
		<tag k="tourism" v="museum" />
	</node>
	<node lat="63.41744722487376" lon="10.44421388523657" id="-27428">
		<tag k="alt_name" v="Reitgjerdet Lille" />
		<tag k="name" v="Lille Reitgjerdet" />
		<tag k="place" v="farm" />
		<tag k="ssr:stedsnr" v="50673" />
	</node>
	<node lat="63.44981944534534" lon="10.434833327568061" id="-27430">
		<tag k="name" v="Korsvikberget" />
		<tag k="natural" v="hill" />
		<tag k="place" v="locality" />
		<tag k="ssr:stedsnr" v="239261" />
	</node>
	<node lat="63.400999791579125" lon="10.51944846955534" id="-27432">
		<tag k="name" v="Kvilheim" />
		<tag k="place" v="farm" />
		<tag k="ssr:stedsnr" v="51571" />
	</node>
	<node lat="63.39431786304444" lon="10.513199427004073" id="-27433">
		<tag k="name" v="Kvilhaug" />
		<tag k="place" v="farm" />
		<tag k="ssr:stedsnr" v="51576" />
	</node>
	<node lat="63.40786944630777" lon="10.439605545717988" id="-27434">
		<tag k="alt_name" v="Moholt østre" />
		<tag k="name" v="Østre Moholt" />
		<tag k="place" v="farm" />
		<tag k="ssr:stedsnr" v="51706" />
	</node>
	<node lat="63.40145833164964" lon="10.361222229394832" id="-27435">
		<tag k="name" v="Munkvoll" />
		<tag k="old_name" v="Munkvold hovedgård;Munkvold gård" />
		<tag k="place" v="farm" />
		<tag k="ssr:stedsnr" v="51708" />
	</node>
	<node lat="63.407423370258705" lon="10.480831690869438" id="-27436">
		<tag k="alt_name" v="Stokkan øvre" />
		<tag k="name" v="Øvre Stokkan" />
		<tag k="place" v="farm" />
		<tag k="ssr:stedsnr" v="51718" />
	</node>
	<node lat="63.43087499947724" lon="10.455872215953852" id="-27437">
		<tag k="name" v="Strindheim hageby" />
		<tag k="place" v="quarter" />
		<tag k="ssr:stedsnr" v="239647" />
	</node>
	<node lat="63.4365777799753" lon="10.394219450568027" id="-27438">
		<tag k="man_made" v="quay" />
		<tag k="name" v="Kai 18" />
		<tag k="place" v="locality" />
		<tag k="ssr:stedsnr" v="55228" />
	</node>
	<node lat="63.429652780258635" lon="10.393644436089495" id="-27439">
		<tag k="name" v="Tinghusplassen" />
		<tag k="place" v="square" />
		<tag k="ssr:stedsnr" v="55473" />
	</node>
	<node lat="63.37003611317803" lon="10.515833336254262" id="-27440">
		<tag k="name" v="Greistad" />
		<tag k="place" v="farm" />
		<tag k="ssr:stedsnr" v="56111" />
	</node>
	<node lat="63.41715277433826" lon="10.55600277058085" id="-27441">
		<tag k="name" v="Furubotten" />
		<tag k="place" v="isolated_dwelling" />
		<tag k="ssr:stedsnr" v="56180" />
	</node>
	<node lat="63.428008334163565" lon="10.555830547012556" id="-27442">
		<tag k="name" v="Survika" />
		<tag k="place" v="isolated_dwelling" />
		<tag k="ssr:stedsnr" v="56268" />
	</node>
	<node lat="63.416997219441846" lon="10.557897231909694" id="-27443">
		<tag k="name" v="Solsletten" />
		<tag k="place" v="isolated_dwelling" />
		<tag k="ssr:stedsnr" v="56283" />
	</node>
	<node lat="63.40266111094625" lon="10.392675000088731" id="-27444">
		<tag k="building" v="commercial" />
		<tag k="name" v="Trondheim Renholdsverk" />
		<tag k="ssr:stedsnr" v="56489" />
	</node>
	<node lat="63.43426111269989" lon="10.422530562412605" id="-27445">
		<tag k="name" v="Rosenborg" />
		<tag k="place" v="locality" />
		<tag k="ssr:stedsnr" v="240033" />
	</node>
	<node lat="63.367486109067926" lon="10.453644452914654" id="-27446">
		<tag k="name" v="Storbranden" />
		<tag k="natural" v="hill" />
		<tag k="place" v="locality" />
		<tag k="ssr:stedsnr" v="56575" />
	</node>
	<node lat="63.34837777687278" lon="10.480497221569662" id="-27448">
		<tag k="alt_name" v="Kvål øvre" />
		<tag k="name" v="Øvre Kvål" />
		<tag k="place" v="farm" />
		<tag k="ssr:stedsnr" v="240094" />
	</node>
	<node lat="63.42910832965725" lon="10.433316659697176" id="-27449">
		<tag k="man_made" v="pipeline" />
		<tag k="name" v="Kuhaugen trykkbasseng" />
		<tag k="ssr:stedsnr" v="57206" />
	</node>
	<node lat="63.45092222075211" lon="10.443172230182036" id="-27450">
		<tag k="amenity" v="nursing_home" />
		<tag k="name" v="Sjømenns aldershjem" />
		<tag k="ssr:stedsnr" v="57489" />
	</node>
	<node lat="63.4118916709733" lon="10.471475009406078" id="-27452">
		<tag k="name" v="Solheim" />
		<tag k="place" v="isolated_dwelling" />
		<tag k="ssr:stedsnr" v="57802" />
	</node>
	<node lat="63.39022918465275" lon="10.344906372705243" id="-27453">
		<tag k="name" v="Kystad" />
		<tag k="place" v="farm" />
		<tag k="ssr:stedsnr" v="58089" />
	</node>
	<node lat="63.42574444323742" lon="10.540997230602272" id="-27454">
		<tag k="name" v="Furuhaugen" />
		<tag k="place" v="isolated_dwelling" />
		<tag k="ssr:stedsnr" v="240408" />
	</node>
	<node lat="63.42604999951895" lon="10.54353888640515" id="-27455">
		<tag k="name" v="Humlehaug" />
		<tag k="place" v="isolated_dwelling" />
		<tag k="ssr:stedsnr" v="240410" />
	</node>
	<node lat="63.391180554025816" lon="10.121811117014001" id="-27456">
		<tag k="fixme" v="consider place=hamlet" />
		<tag k="name" v="Esp" />
		<tag k="place" v="farm" />
		<tag k="ssr:stedsnr" v="58891" />
	</node>
	<node lat="63.41261111222384" lon="10.472191665152863" id="-27457">
		<tag k="name" v="Flata" />
		<tag k="place" v="isolated_dwelling" />
		<tag k="ssr:stedsnr" v="59177" />
	</node>
	<node lat="63.42557499987342" lon="10.351847223130367" id="-27458">
		<tag k="name" v="Horgheim" />
		<tag k="place" v="isolated_dwelling" />
		<tag k="ssr:stedsnr" v="59381" />
	</node>
	<node lat="63.441283335690784" lon="10.338472220781146" id="-27459">
		<tag k="name" v="Garnisonsbekken" />
		<tag k="ssr:stedsnr" v="59072" />
		<tag k="waterway" v="stream" />
	</node>
	<node lat="63.42430134348031" lon="10.380301720687779" id="-27460">
		<tag k="name" v="Klosterenget" />
		<tag k="place" v="farm" />
		<tag k="ssr:stedsnr" v="59281" />
	</node>
	<node lat="63.42001944192219" lon="10.375344442303456" id="-27461">
		<tag k="name" v="Bygrensa" />
		<tag k="railway" v="halt" />
		<tag k="ssr:stedsnr" v="59286" />
		<tag k="train" v="yes" />
	</node>
	<node lat="63.33932777689057" lon="10.65237222179456" id="-27462">
		<tag k="name" v="Kaldbudalsbekken" />
		<tag k="ssr:stedsnr" v="240539" />
		<tag k="waterway" v="stream" />
	</node>
	<node lat="63.352872220180764" lon="10.48684444595997" id="-27463">
		<tag k="name" v="Røstadbakken" />
		<tag k="natural" v="slope" />
		<tag k="place" v="locality" />
		<tag k="ssr:stedsnr" v="59470" />
	</node>
	<node lat="63.35104722253647" lon="10.470722223970045" id="-27464">
		<tag k="alt_name" v="Seterplassen" />
		<tag k="historic" v="shieling" />
		<tag k="name" v="Sæterplassen" />
		<tag k="place" v="locality" />
		<tag k="ssr:stedsnr" v="59485" />
	</node>
	<node lat="63.400483343192974" lon="10.460340689796407" id="-27465">
		<tag k="name" v="Bjørnheim" />
		<tag k="place" v="isolated_dwelling" />
		<tag k="ssr:stedsnr" v="59808" />
	</node>
	<node lat="63.409336998458166" lon="10.15391245346771" id="-27466">
		<tag k="name" v="Golosmyra" />
		<tag k="place" v="locality" />
		<tag k="ssr:stedsnr" v="60473" />
	</node>
	<node lat="63.41495000439544" lon="10.549772219001007" id="-27467">
		<tag k="alt_name" v="Reppe søndre" />
		<tag k="name" v="Søndre Reppe" />
		<tag k="place" v="farm" />
		<tag k="ssr:stedsnr" v="240714" />
	</node>
	<node lat="63.32164722348154" lon="10.675777775500329" id="-27468">
		<tag k="name" v="Mårdalan" />
		<tag k="natural" v="valley" />
		<tag k="place" v="locality" />
		<tag k="ssr:stedsnr" v="241057" />
	</node>
	<node lat="63.435147223193724" lon="10.576061101406149" id="-27469">
		<tag k="name" v="Bergstua" />
		<tag k="place" v="isolated_dwelling" />
		<tag k="ssr:stedsnr" v="241144" />
	</node>
	<node lat="63.35241110883096" lon="10.400994451603617" id="-27470">
		<tag k="name" v="Hårstad" />
		<tag k="place" v="locality" />
		<tag k="ssr:stedsnr" v="241104" />
	</node>
	<node lat="63.3438555582266" lon="10.424836106708687" id="-27471">
		<tag k="name" v="Tillerflata" />
		<tag k="place" v="locality" />
		<tag k="ssr:stedsnr" v="241111" />
	</node>
	<node lat="63.446713887280325" lon="10.462252767987213" id="-27472">
		<tag k="highway" v="path" />
		<tag k="name" v="Finnestien" />
		<tag k="ssr:stedsnr" v="241189" />
	</node>
	<node lat="63.42985000454648" lon="10.55574999482676" id="-27473">
		<tag k="name" v="Grytbakk" />
		<tag k="place" v="isolated_dwelling" />
		<tag k="ssr:stedsnr" v="241118" />
	</node>
	<node lat="63.42368888920863" lon="10.48672500892667" id="-27474">
		<tag k="name" v="Midtre Tunhøgda" />
		<tag k="place" v="neighbourhood" />
		<tag k="ssr:stedsnr" v="241238" />
	</node>
	<node lat="63.42927500023786" lon="10.536597226030738" id="-27475">
		<tag k="alt_name" v="Ranheim Nedre" />
		<tag k="fixme" v="consider place=hamlet" />
		<tag k="name" v="Nedre Ranheim" />
		<tag k="place" v="farm" />
		<tag k="ssr:stedsnr" v="241252" />
	</node>
	<node lat="63.42253888560334" lon="10.39512221290911" id="-27477">
		<tag k="amenity" v="community_centre" />
		<tag k="name" v="Studentersamfundet" />
		<tag k="ssr:stedsnr" v="241275" />
	</node>
	<node lat="63.41840555300033" lon="10.357419441205234" id="-27478">
		<tag k="name" v="Meldalsgården" />
		<tag k="place" v="isolated_dwelling" />
		<tag k="ssr:stedsnr" v="241352" />
	</node>
	<node lat="63.41892778094589" lon="10.376794452852629" id="-27479">
		<tag k="name" v="Blida 1" />
		<tag k="place" v="isolated_dwelling" />
		<tag k="ssr:stedsnr" v="241313" />
	</node>
	<node lat="63.32944166664527" lon="10.632230553614741" id="-27480">
		<tag k="name" v="Raudkjølen" />
		<tag k="natural" v="wetland" />
		<tag k="ssr:stedsnr" v="241450" />
	</node>
	<node lat="63.35146389040203" lon="10.481636108085432" id="-27481">
		<tag k="name" v="Røstadmyra" />
		<tag k="natural" v="slope" />
		<tag k="place" v="locality" />
		<tag k="ssr:stedsnr" v="241466" />
	</node>
	<node lat="63.39387777421827" lon="10.223797216130619" id="-27482">
		<tag k="name" v="Markamyran" />
		<tag k="place" v="locality" />
		<tag k="ssr:stedsnr" v="241551" />
	</node>
	<node lat="63.38699270657676" lon="10.22671874287818" id="-27483">
		<tag k="name" v="Gunnarslættbakkan" />
		<tag k="natural" v="slope" />
		<tag k="place" v="locality" />
		<tag k="ssr:stedsnr" v="241554" />
	</node>
	<node lat="63.32927222479737" lon="10.307324995718627" id="-27484">
		<tag k="name" v="Nypan" />
		<tag k="place" v="farm" />
		<tag k="ssr:stedsnr" v="241640" />
	</node>
	<node lat="63.38603333562477" lon="10.390427781149356" id="-27485">
		<tag k="name" v="Rosenheim" />
		<tag k="place" v="isolated_dwelling" />
		<tag k="ssr:stedsnr" v="241744" />
	</node>
	<node lat="63.36528253043477" lon="10.351594788268677" id="-27486">
		<tag k="amenity" v="sports_centre" />
		<tag k="name" v="Husebyhallen" />
		<tag k="ssr:stedsnr" v="241973" />
	</node>
	<node lat="63.35760833304701" lon="10.197905549235212" id="-27487">
		<tag k="fixme" v="consider place=hamlet" />
		<tag k="name" v="Håbjørg" />
		<tag k="place" v="farm" />
		<tag k="ssr:stedsnr" v="242475" />
	</node>
	<node lat="63.385450003110044" lon="10.32248610870022" id="-27488">
		<tag k="fixme" v="consider place=hamlet" />
		<tag k="name" v="Brannhaugen" />
		<tag k="place" v="farm" />
		<tag k="ssr:stedsnr" v="242771" />
	</node>
	<node lat="63.32583191360098" lon="10.32645354864787" id="-27489">
		<tag k="layer" v="-1" />
		<tag k="name" v="Storlersundergangen" />
		<tag k="ssr:stedsnr" v="242864" />
		<tag k="tunnel" v="yes" />
	</node>
	<node lat="63.33608889073539" lon="10.340652771605248" id="-27490">
		<tag k="fixme" v="multiple name tags, choose one and add the other to alt_name" />
		<tag k="name" v="Søndre Heggstad;Heggstad" />
		<tag k="place" v="farm" />
		<tag k="ssr:stedsnr" v="242883" />
	</node>
	<node lat="63.31237499900312" lon="10.307775000655845" id="-27491">
		<tag k="alt_name" v="Hjellen nordre" />
		<tag k="name" v="Nordre Hjellen" />
		<tag k="place" v="farm" />
		<tag k="ssr:stedsnr" v="242884" />
	</node>
	<node lat="63.33984444557249" lon="10.302630564102166" id="-27492">
		<tag k="name" v="Skjetlein" />
		<tag k="place" v="hamlet" />
		<tag k="ssr:stedsnr" v="242909" />
	</node>
	<node lat="63.42723610974005" lon="10.56646943834941" id="-27493">
		<tag k="alt_name" v="Være vestre øvre" />
		<tag k="name" v="Øvre Vestre Være" />
		<tag k="place" v="farm" />
		<tag k="ssr:stedsnr" v="242913" />
	</node>
	<node lat="63.41029444265639" lon="10.43155833482601" id="-27494">
		<tag k="alt_name" v="Vestre Moholt" />
		<tag k="name" v="Moholt Vestre" />
		<tag k="place" v="farm" />
		<tag k="ssr:stedsnr" v="242949" />
	</node>
	<node lat="63.432479714817376" lon="10.152458462621306" id="-27495">
		<tag k="name" v="Byafjæra" />
		<tag k="natural" v="beach" />
		<tag k="ssr:stedsnr" v="73113" />
	</node>
	<node lat="63.42365695601562" lon="10.142186677250969" id="-27496">
		<tag k="fixme" v="consider place=hamlet" />
		<tag k="name" v="Nedre Langørjan" />
		<tag k="place" v="farm" />
		<tag k="ssr:stedsnr" v="73122" />
	</node>
	<node lat="63.42598055642048" lon="10.148463881817671" id="-27497">
		<tag k="name" v="Rabben" />
		<tag k="place" v="farm" />
		<tag k="ssr:stedsnr" v="73123" />
	</node>
	<node lat="63.3385692657678" lon="10.321491368727322" id="-27498">
		<tag k="name" v="Ust" />
		<tag k="place" v="hamlet" />
		<tag k="ssr:stedsnr" v="73958" />
	</node>
	<node lat="63.25485278117512" lon="10.400108339253155" id="-27499">
		<tag k="name" v="Tjuvdalen" />
		<tag k="natural" v="valley" />
		<tag k="place" v="locality" />
		<tag k="ssr:stedsnr" v="74174" />
	</node>
	<node lat="63.26121388593216" lon="10.414961104660684" id="-27500">
		<tag k="fixme" v="consider natural=peak for the most distinct mountains in the district" />
		<tag k="name" v="Sagåsen" />
		<tag k="natural" v="hill" />
		<tag k="place" v="locality" />
		<tag k="ssr:stedsnr" v="74176" />
	</node>
	<node lat="63.38181110874325" lon="10.166105551871347" id="-27501">
		<tag k="alt_name" v="Tarjestu" />
		<tag k="name" v="Torjestu" />
		<tag k="old_name" v="Torjestua" />
		<tag k="place" v="farm" />
		<tag k="ssr:stedsnr" v="74413" />
	</node>
	<node lat="63.37807777851337" lon="10.155011107236817" id="-27502">
		<tag k="alt_name" v="Berg" />
		<tag k="name" v="Snauan" />
		<tag k="place" v="farm" />
		<tag k="ssr:stedsnr" v="74414" />
	</node>
	<node lat="63.38892777475687" lon="10.07460000225059" id="-27503">
		<tag k="name" v="Sanden" />
		<tag k="place" v="farm" />
		<tag k="ssr:stedsnr" v="74366" />
	</node>
	<node lat="63.38598888641983" lon="10.074030563946089" id="-27504">
		<tag k="name" v="Hauglia" />
		<tag k="place" v="farm" />
		<tag k="ssr:stedsnr" v="74367" />
	</node>
	<node lat="63.38630833472689" lon="10.056575005200706" id="-27505">
		<tag k="fixme" v="consider seamark:type=rock or natural=shoal" />
		<tag k="name" v="Hangerskjæret" />
		<tag k="place" v="islet" />
		<tag k="ssr:stedsnr" v="74369" />
	</node>
	<node lat="63.375958334585995" lon="10.528586107972586" id="-27506">
		<tag k="name" v="Engelsåsmoen" />
		<tag k="place" v="farm" />
		<tag k="ssr:stedsnr" v="74505" />
	</node>
	<node lat="63.403852774103136" lon="10.338327780038743" id="-27507">
		<tag k="alt_name" v="Kyvatnet" />
		<tag k="name" v="Kyvannet" />
		<tag k="old_name" v="Kyvann;Kyvatn" />
		<tag k="railway" v="halt" />
		<tag k="ssr:stedsnr" v="74573" />
		<tag k="train" v="yes" />
	</node>
	<node lat="63.4160735147935" lon="10.536325719132648" id="-27508">
		<tag k="alt_name" v="Markplassen" />
		<tag k="fixme" v="multiple name tags, choose one and add the other to alt_name" />
		<tag k="name" v="Nedre Vikåsen;Markaplassen" />
		<tag k="place" v="quarter" />
		<tag k="ssr:stedsnr" v="74601" />
	</node>
	<node lat="63.425570990048115" lon="10.545244558731994" id="-27510">
		<tag k="name" v="Ranheim" />
		<tag k="old_name" v="Raneim" />
		<tag k="place" v="hamlet" />
		<tag k="ssr:stedsnr" v="74607" />
	</node>
	<node lat="63.33497222535603" lon="10.410933325169765" id="-27511">
		<tag k="name" v="Moheim" />
		<tag k="place" v="farm" />
		<tag k="ssr:stedsnr" v="74911" />
	</node>
	<node lat="63.35396666837942" lon="10.32189723058937" id="-27512">
		<tag k="alt_name" v="Lundås" />
		<tag k="name" v="Lundåsen" />
		<tag k="place" v="farm" />
		<tag k="ssr:stedsnr" v="74960" />
	</node>
	<node lat="63.351055551573744" lon="10.46536388246409" id="-27513">
		<tag k="fixme" v="consider natural=peak for the most distinct mountains in the district" />
		<tag k="name" v="Bratsbergåsen" />
		<tag k="natural" v="hill" />
		<tag k="place" v="locality" />
		<tag k="ssr:stedsnr" v="74964" />
	</node>
	<node lat="63.31746640017875" lon="10.48311467548406" id="-27514">
		<tag k="alt_name" v="Lysklett, nordre" />
		<tag k="fixme" v="consider place=hamlet" />
		<tag k="name" v="Nordre Lysklett" />
		<tag k="place" v="farm" />
		<tag k="ssr:stedsnr" v="74851" />
	</node>
	<node lat="63.406264113921715" lon="10.439147398085082" id="-27515">
		<tag k="alt_name" v="Othilienborg" />
		<tag k="fixme" v="consider place=suburb, village or hamlet" />
		<tag k="name" v="Otilienborg" />
		<tag k="place" v="quarter" />
		<tag k="ssr:stedsnr" v="80352" />
	</node>
	<node lat="63.264705559704765" lon="10.40535000953272" id="-27516">
		<tag k="historic" v="shieling" />
		<tag k="name" v="Litjvollen" />
		<tag k="place" v="locality" />
		<tag k="ssr:stedsnr" v="82199" />
	</node>
	<node lat="63.45691775175871" lon="10.452782945663097" id="-27517">
		<tag k="name" v="Djupvika" />
		<tag k="natural" v="bay" />
		<tag k="ssr:stedsnr" v="82833" />
	</node>
	<node lat="63.37476666734023" lon="10.199680557731828" id="-27518">
		<tag k="name" v="Tråddån" />
		<tag k="place" v="locality" />
		<tag k="ssr:stedsnr" v="84089" />
	</node>
	<node lat="63.39223611006411" lon="10.174913881504866" id="-27519">
		<tag k="name" v="Skogbekken" />
		<tag k="ssr:stedsnr" v="84106" />
		<tag k="waterway" v="stream" />
	</node>
	<node lat="63.42497499858182" lon="10.180805548320924" id="-27520">
		<tag k="name" v="Elset" />
		<tag k="place" v="farm" />
		<tag k="ssr:stedsnr" v="84109" />
	</node>
	<node lat="63.441368999715195" lon="10.195610973153315" id="-27521">
		<tag k="alt_name" v="Grøset nordre" />
		<tag k="name" v="Nordre Grøset" />
		<tag k="place" v="farm" />
		<tag k="ssr:stedsnr" v="84115" />
	</node>
	<node lat="63.39347222103597" lon="10.187008337438368" id="-27522">
		<tag k="fixme" v="consider natural=peak for the most distinct mountains in the district" />
		<tag k="name" v="Svartåsen" />
		<tag k="natural" v="hill" />
		<tag k="place" v="locality" />
		<tag k="ssr:stedsnr" v="84905" />
	</node>
	<node lat="63.42314722096535" lon="10.127825004019218" id="-27523">
		<tag k="name" v="Bjøra" />
		<tag k="place" v="isolated_dwelling" />
		<tag k="ssr:stedsnr" v="84911" />
	</node>
	<node lat="63.41099721886328" lon="10.137488884744526" id="-27524">
		<tag k="name" v="Høstadhaugen" />
		<tag k="natural" v="hill" />
		<tag k="place" v="locality" />
		<tag k="ssr:stedsnr" v="84914" />
	</node>
	<node lat="63.41014722227538" lon="10.15820277014547" id="-27525">
		<tag k="junction" v="yes" />
		<tag k="name" v="Høstadkorsen" />
		<tag k="place" v="locality" />
		<tag k="ssr:stedsnr" v="84921" />
	</node>
	<node lat="63.42142777372406" lon="10.132586106605853" id="-27526">
		<tag k="name" v="Hørarhaugen" />
		<tag k="place" v="isolated_dwelling" />
		<tag k="ssr:stedsnr" v="84930" />
	</node>
	<node lat="63.37863611221374" lon="10.131355555148499" id="-27527">
		<tag k="name" v="Østegga" />
		<tag k="place" v="locality" />
		<tag k="ssr:stedsnr" v="84943" />
	</node>
	<node lat="63.41590555687438" lon="10.121980545775516" id="-27528">
		<tag k="name" v="Myra" />
		<tag k="place" v="farm" />
		<tag k="ssr:stedsnr" v="84945" />
	</node>
	<node lat="63.41458611486572" lon="10.10895833750378" id="-27529">
		<tag k="name" v="Brannhaugan" />
		<tag k="natural" v="hill" />
		<tag k="place" v="locality" />
		<tag k="ssr:stedsnr" v="84952" />
	</node>
	<node lat="63.36780555547179" lon="10.117552773511093" id="-27530">
		<tag k="name" v="Langlo" />
		<tag k="place" v="farm" />
		<tag k="ssr:stedsnr" v="84822" />
	</node>
	<node lat="63.381675000017104" lon="10.06735555596204" id="-27531">
		<tag k="name" v="Hangersletta" />
		<tag k="place" v="locality" />
		<tag k="ssr:stedsnr" v="84827" />
	</node>
	<node lat="63.417763885898694" lon="10.095433325189365" id="-27532">
		<tag k="name" v="Svahylla" />
		<tag k="place" v="locality" />
		<tag k="ssr:stedsnr" v="84837" />
	</node>
	<node lat="63.39051666731974" lon="10.083458332365758" id="-27533">
		<tag k="name" v="Svedalen" />
		<tag k="natural" v="valley" />
		<tag k="place" v="locality" />
		<tag k="ssr:stedsnr" v="84841" />
	</node>
	<node lat="63.38290195035644" lon="10.059275578439172" id="-27534">
		<tag k="alt_name" v="Kløvberget" />
		<tag k="name" v="Klauvberget" />
		<tag k="natural" v="hill" />
		<tag k="place" v="locality" />
		<tag k="ssr:stedsnr" v="84848" />
	</node>
</osm>
