<?xml version="1.0" encoding="UTF-8"?>
<osm version="0.6" generator="osmapis">
	<node lat="63.393981329059606" lon="10.468216080888334" id="-48998">
		<tag k="name" v="Steinset" />
		<tag k="old_name" v="Steinseth" />
		<tag k="place" v="isolated_dwelling" />
		<tag k="ssr:stedsnr" v="232438" />
	</node>
	<node lat="63.39810916553173" lon="10.509909526659344" id="-48999">
		<tag k="name" v="Solvang" />
		<tag k="place" v="farm" />
		<tag k="ssr:stedsnr" v="232439" />
	</node>
	<node lat="63.400610770231694" lon="10.520541197849848" id="-49000">
		<tag k="name" v="Solvold" />
		<tag k="place" v="farm" />
		<tag k="ssr:stedsnr" v="232443" />
	</node>
	<node lat="63.3935694421884" lon="10.374219434850042" id="-49001">
		<tag k="alt_name" v="Halset søndre" />
		<tag k="name" v="Søndre Hallset" />
		<tag k="place" v="farm" />
		<tag k="ssr:stedsnr" v="231549" />
	</node>
	<node lat="63.25854722011141" lon="10.459636110142087" id="-49004">
		<tag k="name" v="Hyttsaga" />
		<tag k="place" v="farm" />
		<tag k="ssr:stedsnr" v="13219" />
	</node>
	<node lat="63.42849703789558" lon="10.181235838687709" id="-49006">
		<tag k="name" v="Onsøya" />
		<tag k="place" v="farm" />
		<tag k="ssr:stedsnr" v="13124" />
	</node>
	<node lat="63.391180557916385" lon="10.121808335377251" id="-49007">
		<tag k="alt_name" v="Esp vestre;Vestre Esp" />
		<tag k="name" v="Esp" />
		<tag k="place" v="farm" />
		<tag k="ssr:stedsnr" v="13469" />
	</node>
	<node lat="63.36504992864593" lon="10.12567020862869" id="-49008">
		<tag k="name" v="Ålberg" />
		<tag k="place" v="farm" />
		<tag k="ssr:stedsnr" v="13473" />
	</node>
	<node lat="63.355908329281455" lon="10.199636111743995" id="-49009">
		<tag k="alt_name" v="Ner Håbjørg;Nedre Håbjørg" />
		<tag k="name" v="Håbjørg" />
		<tag k="place" v="farm" />
		<tag k="ssr:stedsnr" v="13475" />
	</node>
	<node lat="63.390163892506195" lon="10.444444436844112" id="-49010">
		<tag k="fixme" v="consider place=hamlet" />
		<tag k="name" v="Tomset" />
		<tag k="place" v="farm" />
		<tag k="ssr:stedsnr" v="13606" />
	</node>
	<node lat="63.390758336866995" lon="10.402641665374478" id="-49011">
		<tag k="name" v="Haugen" />
		<tag k="place" v="farm" />
		<tag k="ssr:stedsnr" v="13610" />
	</node>
	<node lat="63.38438055658602" lon="10.594849994220105" id="-49013">
		<tag k="fixme" v="consider place=hamlet" />
		<tag k="name" v="Kuset" />
		<tag k="place" v="farm" />
		<tag k="ssr:stedsnr" v="13569" />
	</node>
	<node lat="63.381424669929466" lon="10.439828749960713" id="-49014">
		<tag k="name" v="Ner-Blekkan" />
		<tag k="place" v="farm" />
		<tag k="ssr:stedsnr" v="13574" />
	</node>
	<node lat="63.404647226638126" lon="10.581355561403733" id="-49015">
		<tag k="name" v="Solemssveet" />
		<tag k="place" v="farm" />
		<tag k="ssr:stedsnr" v="13577" />
	</node>
	<node lat="63.29974995449332" lon="10.632032004915056" id="-49017">
		<tag k="name" v="Langåsvollen" />
		<tag k="place" v="locality" />
		<tag k="ssr:stedsnr" v="13826" />
	</node>
	<node lat="63.331816670634936" lon="10.378363896991234" id="-49018">
		<tag k="name" v="Kvenildstrøa" />
		<tag k="place" v="farm" />
		<tag k="ssr:stedsnr" v="13911" />
	</node>
	<node lat="63.33543610881378" lon="10.459377769483226" id="-49019">
		<tag k="name" v="Nordsetrønningen" />
		<tag k="place" v="farm" />
		<tag k="ssr:stedsnr" v="13927" />
	</node>
	<node lat="63.345797218365384" lon="10.332352767926482" id="-49020">
		<tag k="name" v="Uståsen" />
		<tag k="place" v="farm" />
		<tag k="ssr:stedsnr" v="13960" />
	</node>
	<node lat="63.39196111136784" lon="10.299369446191387" id="-49025">
		<tag k="name" v="Nordre Våddan" />
		<tag k="place" v="farm" />
		<tag k="ssr:stedsnr" v="232369" />
	</node>
	<node lat="63.36554939997644" lon="10.154167907420396" id="-49027">
		<tag k="fixme" v="consider place=hamlet" />
		<tag k="name" v="Fallan" />
		<tag k="place" v="farm" />
		<tag k="ssr:stedsnr" v="232422" />
	</node>
	<node lat="63.40677192398217" lon="10.502342188472946" id="-49028">
		<tag k="name" v="Skogly" />
		<tag k="place" v="isolated_dwelling" />
		<tag k="ssr:stedsnr" v="232461" />
	</node>
	<node lat="63.42819166291619" lon="10.416416663035758" id="-49029">
		<tag k="alt_name" v="Bakklandet aldershjem" />
		<tag k="amenity" v="nursing_home" />
		<tag k="name" v="Bakklandet alders- og sykehjem" />
		<tag k="ssr:stedsnr" v="232649" />
	</node>
	<node lat="63.42807499753733" lon="10.397313882878922" id="-49030">
		<tag k="name" v="Archidiakoni plass" />
		<tag k="place" v="square" />
		<tag k="ssr:stedsnr" v="232691" />
	</node>
	<node lat="63.41874166282972" lon="10.40054723188295" id="-49031">
		<tag k="name" v="O.S. Bragstads plass" />
		<tag k="place" v="square" />
		<tag k="ssr:stedsnr" v="232695" />
	</node>
	<node lat="63.40012222043357" lon="10.45839722078909" id="-49033">
		<tag k="name" v="Fjordgløtt" />
		<tag k="place" v="farm" />
		<tag k="ssr:stedsnr" v="232664" />
	</node>
	<node lat="63.39963611417019" lon="10.404858335858286" id="-49035">
		<tag k="amenity" v="school" />
		<tag k="name" v="Nidarvoll skole" />
		<tag k="ssr:stedsnr" v="232753" />
	</node>
	<node lat="63.399011109123684" lon="10.3589833262574" id="-49036">
		<tag k="amenity" v="school" />
		<tag k="name" v="Byåsen skole" />
		<tag k="ssr:stedsnr" v="232766" />
	</node>
	<node lat="63.44050278105128" lon="10.434849993547488" id="-49037">
		<tag k="amenity" v="school" />
		<tag k="name" v="Lilleby skole" />
		<tag k="ssr:stedsnr" v="232775" />
	</node>
	<node lat="63.330344447890305" lon="10.298805555460568" id="-49040">
		<tag k="alt_name" v="Nypan vestre;Nypan" />
		<tag k="name" v="Vestre Nypan" />
		<tag k="place" v="farm" />
		<tag k="ssr:stedsnr" v="233201" />
	</node>
	<node lat="63.3669472265892" lon="10.52686944050267" id="-49041">
		<tag k="name" v="Greistadlykkja" />
		<tag k="place" v="farm" />
		<tag k="ssr:stedsnr" v="233226" />
	</node>
	<node lat="63.44138055594692" lon="10.348241674909941" id="-49042">
		<tag k="building" v="industrial" />
		<tag k="industrial" v="factory" />
		<tag k="name" v="Heggdalen" />
		<tag k="ssr:stedsnr" v="20256" />
	</node>
	<node lat="63.40366670910411" lon="10.506208075936488" id="-49043">
		<tag k="name" v="Karlshaug" />
		<tag k="place" v="farm" />
		<tag k="ssr:stedsnr" v="233539" />
	</node>
	<node lat="63.40712116693453" lon="10.507364210860644" id="-49044">
		<tag k="name" v="Midtbø" />
		<tag k="place" v="farm" />
		<tag k="ssr:stedsnr" v="233581" />
	</node>
	<node lat="63.390769444820066" lon="10.468011101849632" id="-49045">
		<tag k="name" v="Tomsetmyra" />
		<tag k="place" v="farm" />
		<tag k="ssr:stedsnr" v="21241" />
	</node>
	<node lat="63.36883613180106" lon="10.095635501079027" id="-49046">
		<tag k="name" v="Kongslia" />
		<tag k="place" v="isolated_dwelling" />
		<tag k="ssr:stedsnr" v="233552" />
	</node>
	<node lat="63.408291668284114" lon="10.499024991009511" id="-49049">
		<tag k="name" v="Myrheim" />
		<tag k="place" v="isolated_dwelling" />
		<tag k="ssr:stedsnr" v="233570" />
	</node>
	<node lat="63.3864343748668" lon="10.514844384881759" id="-49050">
		<tag k="name" v="Myrvang" />
		<tag k="place" v="isolated_dwelling" />
		<tag k="ssr:stedsnr" v="233571" />
	</node>
	<node lat="63.35428333410478" lon="10.407922213010135" id="-49051">
		<tag k="alt_name" v="Ner-Brauta" />
		<tag k="name" v="Brauten og Lien" />
		<tag k="place" v="farm" />
		<tag k="ssr:stedsnr" v="233672" />
	</node>
	<node lat="63.39872222381092" lon="10.407336110436162" id="-49055">
		<tag k="name" v="Nidarvoll" />
		<tag k="place" v="farm" />
		<tag k="ssr:stedsnr" v="233706" />
	</node>
	<node lat="63.40296388810603" lon="10.499588886888624" id="-49056">
		<tag k="name" v="Stokkåsen" />
		<tag k="place" v="farm" />
		<tag k="ssr:stedsnr" v="233716" />
	</node>
	<node lat="63.36808888588211" lon="10.189063891817081" id="-49065">
		<tag k="alt_name" v="Grostadaunet søndre" />
		<tag k="name" v="Søndre Grostadaunet" />
		<tag k="place" v="farm" />
		<tag k="ssr:stedsnr" v="23989" />
	</node>
	<node lat="63.42899166475946" lon="10.22583610942121" id="-49075">
		<tag k="historic" v="shieling" />
		<tag k="name" v="Byasætra" />
		<tag k="place" v="isolated_dwelling" />
		<tag k="ssr:stedsnr" v="27768" />
	</node>
	<node lat="63.411597224027574" lon="10.215038880084807" id="-49076">
		<tag k="name" v="Kvistingshytta" />
		<tag k="place" v="isolated_dwelling" />
		<tag k="ssr:stedsnr" v="28072" />
	</node>
	<node lat="63.30981388485459" lon="10.438522228293056" id="-49082">
		<tag k="name" v="Daltunet" />
		<tag k="place" v="quarter" />
		<tag k="ssr:stedsnr" v="38602" />
	</node>
	<node lat="63.30726605394757" lon="10.433313810101694" id="-49083">
		<tag k="leisure" v="pitch" />
		<tag k="name" v="Tanem kunstgressbane" />
		<tag k="ssr:stedsnr" v="38604" />
	</node>
	<node lat="63.27971388671842" lon="10.457216658169067" id="-49084">
		<tag k="leisure" v="pitch" />
		<tag k="name" v="Leirduebanen" />
		<tag k="ssr:stedsnr" v="38614" />
	</node>
	<node lat="63.39478610915789" lon="10.513855553743438" id="-49094">
		<tag k="name" v="Kvila" />
		<tag k="place" v="farm" />
		<tag k="ssr:stedsnr" v="40601" />
	</node>
	<node lat="63.38981110916486" lon="10.501263881905773" id="-49095">
		<tag k="name" v="Lundheim" />
		<tag k="place" v="farm" />
		<tag k="ssr:stedsnr" v="40676" />
	</node>
	<node lat="63.39644068409644" lon="10.340977026324277" id="-49097">
		<tag k="name" v="Knausen" />
		<tag k="place" v="isolated_dwelling" />
		<tag k="ssr:stedsnr" v="42231" />
	</node>
	<node lat="63.40390834952051" lon="10.589732496890448" id="-49099">
		<tag k="fixme" v="consider place=hamlet" />
		<tag k="name" v="Åsgjerdet" />
		<tag k="place" v="farm" />
		<tag k="ssr:stedsnr" v="42423" />
	</node>
	<node lat="63.38412221999249" lon="10.359680564204877" id="-49102">
		<tag k="name" v="Buenget" />
		<tag k="place" v="farm" />
		<tag k="ssr:stedsnr" v="42988" />
	</node>
	<node lat="63.299572225072495" lon="10.485672225196573" id="-49103">
		<tag k="amenity" v="school" />
		<tag k="name" v="Sletten skole" />
		<tag k="ssr:stedsnr" v="43206" />
	</node>
	<node lat="63.3767750012265" lon="10.541222212559434" id="-49112">
		<tag k="name" v="Engelsås" />
		<tag k="place" v="farm" />
		<tag k="ssr:stedsnr" v="238118" />
	</node>
	<node lat="63.41768888579178" lon="10.555411118159522" id="-49113">
		<tag k="name" v="Nyheim" />
		<tag k="place" v="farm" />
		<tag k="ssr:stedsnr" v="238185" />
	</node>
	<node lat="63.41954722261322" lon="10.561099997522696" id="-49114">
		<tag k="name" v="Fyken" />
		<tag k="place" v="farm" />
		<tag k="ssr:stedsnr" v="238192" />
	</node>
	<node lat="63.4173638914845" lon="10.56300554592369" id="-49115">
		<tag k="name" v="Myrset" />
		<tag k="old_name" v="Myrseth" />
		<tag k="place" v="farm" />
		<tag k="ssr:stedsnr" v="238257" />
	</node>
	<node lat="63.406115331991174" lon="10.502732109201878" id="-49126">
		<tag k="name" v="Rein" />
		<tag k="place" v="isolated_dwelling" />
		<tag k="ssr:stedsnr" v="50521" />
	</node>
	<node lat="63.39199304223505" lon="10.467841259527903" id="-49127">
		<tag k="name" v="Pynten" />
		<tag k="place" v="isolated_dwelling" />
		<tag k="ssr:stedsnr" v="50524" />
	</node>
	<node lat="63.38988379612628" lon="10.507327577079469" id="-49128">
		<tag k="name" v="Snabben" />
		<tag k="place" v="isolated_dwelling" />
		<tag k="ssr:stedsnr" v="50468" />
	</node>
	<node lat="63.33022222520167" lon="10.362947220659091" id="-49130">
		<tag k="fixme" v="consider place=hamlet" />
		<tag k="name" v="Kvenild" />
		<tag k="place" v="farm" />
		<tag k="ssr:stedsnr" v="50568" />
	</node>
	<node lat="63.41415000256785" lon="10.417547225296369" id="-49132">
		<tag k="name" v="Studentbyen på Berg" />
		<tag k="place" v="neighbourhood" />
		<tag k="ssr:stedsnr" v="50704" />
	</node>
	<node lat="63.354864129587504" lon="10.16323972551823" id="-49133">
		<tag k="amenity" v="school" />
		<tag k="name" v="Spongdal skole" />
		<tag k="ssr:stedsnr" v="50721" />
	</node>
	<node lat="63.41744722487376" lon="10.44421388523657" id="-49135">
		<tag k="alt_name" v="Reitgjerdet Lille" />
		<tag k="name" v="Lille Reitgjerdet" />
		<tag k="place" v="farm" />
		<tag k="ssr:stedsnr" v="50673" />
	</node>
	<node lat="63.400999791579125" lon="10.51944846955534" id="-49139">
		<tag k="name" v="Kvilheim" />
		<tag k="place" v="farm" />
		<tag k="ssr:stedsnr" v="51571" />
	</node>
	<node lat="63.39431786304444" lon="10.513199427004073" id="-49140">
		<tag k="name" v="Kvilhaug" />
		<tag k="place" v="farm" />
		<tag k="ssr:stedsnr" v="51576" />
	</node>
	<node lat="63.40786944630777" lon="10.439605545717988" id="-49141">
		<tag k="alt_name" v="Moholt østre" />
		<tag k="name" v="Østre Moholt" />
		<tag k="place" v="farm" />
		<tag k="ssr:stedsnr" v="51706" />
	</node>
	<node lat="63.40145833164964" lon="10.361222229394832" id="-49142">
		<tag k="name" v="Munkvoll" />
		<tag k="old_name" v="Munkvold hovedgård;Munkvold gård" />
		<tag k="place" v="farm" />
		<tag k="ssr:stedsnr" v="51708" />
	</node>
	<node lat="63.407423370258705" lon="10.480831690869438" id="-49143">
		<tag k="alt_name" v="Stokkan øvre" />
		<tag k="name" v="Øvre Stokkan" />
		<tag k="place" v="farm" />
		<tag k="ssr:stedsnr" v="51718" />
	</node>
	<node lat="63.43087499947724" lon="10.455872215953852" id="-49144">
		<tag k="name" v="Strindheim hageby" />
		<tag k="place" v="quarter" />
		<tag k="ssr:stedsnr" v="239647" />
	</node>
	<node lat="63.429652780258635" lon="10.393644436089495" id="-49146">
		<tag k="name" v="Tinghusplassen" />
		<tag k="place" v="square" />
		<tag k="ssr:stedsnr" v="55473" />
	</node>
	<node lat="63.37003611317803" lon="10.515833336254262" id="-49147">
		<tag k="name" v="Greistad" />
		<tag k="place" v="farm" />
		<tag k="ssr:stedsnr" v="56111" />
	</node>
	<node lat="63.41715277433826" lon="10.55600277058085" id="-49148">
		<tag k="name" v="Furubotten" />
		<tag k="place" v="isolated_dwelling" />
		<tag k="ssr:stedsnr" v="56180" />
	</node>
	<node lat="63.428008334163565" lon="10.555830547012556" id="-49149">
		<tag k="name" v="Survika" />
		<tag k="place" v="isolated_dwelling" />
		<tag k="ssr:stedsnr" v="56268" />
	</node>
	<node lat="63.416997219441846" lon="10.557897231909694" id="-49150">
		<tag k="name" v="Solsletten" />
		<tag k="place" v="isolated_dwelling" />
		<tag k="ssr:stedsnr" v="56283" />
	</node>
	<node lat="63.40266111094625" lon="10.392675000088731" id="-49151">
		<tag k="building" v="commercial" />
		<tag k="name" v="Trondheim Renholdsverk" />
		<tag k="ssr:stedsnr" v="56489" />
	</node>
	<node lat="63.43426111269989" lon="10.422530562412605" id="-49152">
		<tag k="name" v="Rosenborg" />
		<tag k="place" v="locality" />
		<tag k="ssr:stedsnr" v="240033" />
	</node>
	<node lat="63.34837777687278" lon="10.480497221569662" id="-49155">
		<tag k="alt_name" v="Kvål øvre" />
		<tag k="name" v="Øvre Kvål" />
		<tag k="place" v="farm" />
		<tag k="ssr:stedsnr" v="240094" />
	</node>
	<node lat="63.45092222075211" lon="10.443172230182036" id="-49157">
		<tag k="amenity" v="nursing_home" />
		<tag k="name" v="Sjømenns aldershjem" />
		<tag k="ssr:stedsnr" v="57489" />
	</node>
	<node lat="63.4118916709733" lon="10.471475009406078" id="-49159">
		<tag k="name" v="Solheim" />
		<tag k="place" v="isolated_dwelling" />
		<tag k="ssr:stedsnr" v="57802" />
	</node>
	<node lat="63.39022918465275" lon="10.344906372705243" id="-49160">
		<tag k="name" v="Kystad" />
		<tag k="place" v="farm" />
		<tag k="ssr:stedsnr" v="58089" />
	</node>
	<node lat="63.42574444323742" lon="10.540997230602272" id="-49161">
		<tag k="name" v="Furuhaugen" />
		<tag k="place" v="isolated_dwelling" />
		<tag k="ssr:stedsnr" v="240408" />
	</node>
	<node lat="63.42604999951895" lon="10.54353888640515" id="-49162">
		<tag k="name" v="Humlehaug" />
		<tag k="place" v="isolated_dwelling" />
		<tag k="ssr:stedsnr" v="240410" />
	</node>
	<node lat="63.391180554025816" lon="10.121811117014001" id="-49163">
		<tag k="fixme" v="consider place=hamlet" />
		<tag k="name" v="Esp" />
		<tag k="place" v="farm" />
		<tag k="ssr:stedsnr" v="58891" />
	</node>
	<node lat="63.41261111222384" lon="10.472191665152863" id="-49164">
		<tag k="name" v="Flata" />
		<tag k="place" v="isolated_dwelling" />
		<tag k="ssr:stedsnr" v="59177" />
	</node>
	<node lat="63.42557499987342" lon="10.351847223130367" id="-49165">
		<tag k="name" v="Horgheim" />
		<tag k="place" v="isolated_dwelling" />
		<tag k="ssr:stedsnr" v="59381" />
	</node>
	<node lat="63.42430134348031" lon="10.380301720687779" id="-49167">
		<tag k="name" v="Klosterenget" />
		<tag k="place" v="farm" />
		<tag k="ssr:stedsnr" v="59281" />
	</node>
	<node lat="63.400483343192974" lon="10.460340689796407" id="-49172">
		<tag k="name" v="Bjørnheim" />
		<tag k="place" v="isolated_dwelling" />
		<tag k="ssr:stedsnr" v="59808" />
	</node>
	<node lat="63.409336998458166" lon="10.15391245346771" id="-49173">
		<tag k="name" v="Golosmyra" />
		<tag k="place" v="locality" />
		<tag k="ssr:stedsnr" v="60473" />
	</node>
	<node lat="63.41495000439544" lon="10.549772219001007" id="-49174">
		<tag k="alt_name" v="Reppe søndre" />
		<tag k="name" v="Søndre Reppe" />
		<tag k="place" v="farm" />
		<tag k="ssr:stedsnr" v="240714" />
	</node>
	<node lat="63.435147223193724" lon="10.576061101406149" id="-49176">
		<tag k="name" v="Bergstua" />
		<tag k="place" v="isolated_dwelling" />
		<tag k="ssr:stedsnr" v="241144" />
	</node>
	<node lat="63.42985000454648" lon="10.55574999482676" id="-49180">
		<tag k="name" v="Grytbakk" />
		<tag k="place" v="isolated_dwelling" />
		<tag k="ssr:stedsnr" v="241118" />
	</node>
	<node lat="63.42927500023786" lon="10.536597226030738" id="-49182">
		<tag k="alt_name" v="Ranheim Nedre" />
		<tag k="fixme" v="consider place=hamlet" />
		<tag k="name" v="Nedre Ranheim" />
		<tag k="place" v="farm" />
		<tag k="ssr:stedsnr" v="241252" />
	</node>
	<node lat="63.41840555300033" lon="10.357419441205234" id="-49185">
		<tag k="name" v="Meldalsgården" />
		<tag k="place" v="isolated_dwelling" />
		<tag k="ssr:stedsnr" v="241352" />
	</node>
	<node lat="63.41892778094589" lon="10.376794452852629" id="-49186">
		<tag k="name" v="Blida 1" />
		<tag k="place" v="isolated_dwelling" />
		<tag k="ssr:stedsnr" v="241313" />
	</node>
	<node lat="63.32927222479737" lon="10.307324995718627" id="-49191">
		<tag k="name" v="Nypan" />
		<tag k="place" v="farm" />
		<tag k="ssr:stedsnr" v="241640" />
	</node>
	<node lat="63.38603333562477" lon="10.390427781149356" id="-49192">
		<tag k="name" v="Rosenheim" />
		<tag k="place" v="isolated_dwelling" />
		<tag k="ssr:stedsnr" v="241744" />
	</node>
	<node lat="63.36528253043477" lon="10.351594788268677" id="-49193">
		<tag k="amenity" v="sports_centre" />
		<tag k="name" v="Husebyhallen" />
		<tag k="ssr:stedsnr" v="241973" />
	</node>
	<node lat="63.35760833304701" lon="10.197905549235212" id="-49194">
		<tag k="fixme" v="consider place=hamlet" />
		<tag k="name" v="Håbjørg" />
		<tag k="place" v="farm" />
		<tag k="ssr:stedsnr" v="242475" />
	</node>
	<node lat="63.385450003110044" lon="10.32248610870022" id="-49195">
		<tag k="fixme" v="consider place=hamlet" />
		<tag k="name" v="Brannhaugen" />
		<tag k="place" v="farm" />
		<tag k="ssr:stedsnr" v="242771" />
	</node>
	<node lat="63.33608889073539" lon="10.340652771605248" id="-49197">
		<tag k="fixme" v="multiple name tags, choose one and add the other to alt_name" />
		<tag k="name" v="Søndre Heggstad;Heggstad" />
		<tag k="place" v="farm" />
		<tag k="ssr:stedsnr" v="242883" />
	</node>
	<node lat="63.31237499900312" lon="10.307775000655845" id="-49198">
		<tag k="alt_name" v="Hjellen nordre" />
		<tag k="name" v="Nordre Hjellen" />
		<tag k="place" v="farm" />
		<tag k="ssr:stedsnr" v="242884" />
	</node>
	<node lat="63.33984444557249" lon="10.302630564102166" id="-49199">
		<tag k="name" v="Skjetlein" />
		<tag k="place" v="hamlet" />
		<tag k="ssr:stedsnr" v="242909" />
	</node>
	<node lat="63.42723610974005" lon="10.56646943834941" id="-49200">
		<tag k="alt_name" v="Være vestre øvre" />
		<tag k="name" v="Øvre Vestre Være" />
		<tag k="place" v="farm" />
		<tag k="ssr:stedsnr" v="242913" />
	</node>
	<node lat="63.41029444265639" lon="10.43155833482601" id="-49201">
		<tag k="alt_name" v="Vestre Moholt" />
		<tag k="name" v="Moholt Vestre" />
		<tag k="place" v="farm" />
		<tag k="ssr:stedsnr" v="242949" />
	</node>
	<node lat="63.42365695601562" lon="10.142186677250969" id="-49203">
		<tag k="fixme" v="consider place=hamlet" />
		<tag k="name" v="Nedre Langørjan" />
		<tag k="place" v="farm" />
		<tag k="ssr:stedsnr" v="73122" />
	</node>
	<node lat="63.42598055642048" lon="10.148463881817671" id="-49204">
		<tag k="name" v="Rabben" />
		<tag k="place" v="farm" />
		<tag k="ssr:stedsnr" v="73123" />
	</node>
	<node lat="63.3385692657678" lon="10.321491368727322" id="-49205">
		<tag k="name" v="Ust" />
		<tag k="place" v="hamlet" />
		<tag k="ssr:stedsnr" v="73958" />
	</node>
	<node lat="63.38181110874325" lon="10.166105551871347" id="-49208">
		<tag k="alt_name" v="Tarjestu" />
		<tag k="name" v="Torjestu" />
		<tag k="old_name" v="Torjestua" />
		<tag k="place" v="farm" />
		<tag k="ssr:stedsnr" v="74413" />
	</node>
	<node lat="63.37807777851337" lon="10.155011107236817" id="-49209">
		<tag k="alt_name" v="Berg" />
		<tag k="name" v="Snauan" />
		<tag k="place" v="farm" />
		<tag k="ssr:stedsnr" v="74414" />
	</node>
	<node lat="63.38892777475687" lon="10.07460000225059" id="-49210">
		<tag k="name" v="Sanden" />
		<tag k="place" v="farm" />
		<tag k="ssr:stedsnr" v="74366" />
	</node>
	<node lat="63.38598888641983" lon="10.074030563946089" id="-49211">
		<tag k="name" v="Hauglia" />
		<tag k="place" v="farm" />
		<tag k="ssr:stedsnr" v="74367" />
	</node>
	<node lat="63.375958334585995" lon="10.528586107972586" id="-49213">
		<tag k="name" v="Engelsåsmoen" />
		<tag k="place" v="farm" />
		<tag k="ssr:stedsnr" v="74505" />
	</node>
	<node lat="63.4160735147935" lon="10.536325719132648" id="-49215">
		<tag k="alt_name" v="Markplassen" />
		<tag k="fixme" v="multiple name tags, choose one and add the other to alt_name" />
		<tag k="name" v="Nedre Vikåsen;Markaplassen" />
		<tag k="place" v="quarter" />
		<tag k="ssr:stedsnr" v="74601" />
	</node>
	<node lat="63.425570990048115" lon="10.545244558731994" id="-49217">
		<tag k="name" v="Ranheim" />
		<tag k="old_name" v="Raneim" />
		<tag k="place" v="hamlet" />
		<tag k="ssr:stedsnr" v="74607" />
	</node>
	<node lat="63.33497222535603" lon="10.410933325169765" id="-49218">
		<tag k="name" v="Moheim" />
		<tag k="place" v="farm" />
		<tag k="ssr:stedsnr" v="74911" />
	</node>
	<node lat="63.35396666837942" lon="10.32189723058937" id="-49219">
		<tag k="alt_name" v="Lundås" />
		<tag k="name" v="Lundåsen" />
		<tag k="place" v="farm" />
		<tag k="ssr:stedsnr" v="74960" />
	</node>
	<node lat="63.31746640017875" lon="10.48311467548406" id="-49221">
		<tag k="alt_name" v="Lysklett, nordre" />
		<tag k="fixme" v="consider place=hamlet" />
		<tag k="name" v="Nordre Lysklett" />
		<tag k="place" v="farm" />
		<tag k="ssr:stedsnr" v="74851" />
	</node>
	<node lat="63.406264113921715" lon="10.439147398085082" id="-49222">
		<tag k="alt_name" v="Othilienborg" />
		<tag k="fixme" v="consider place=suburb, village or hamlet" />
		<tag k="name" v="Otilienborg" />
		<tag k="place" v="quarter" />
		<tag k="ssr:stedsnr" v="80352" />
	</node>
	<node lat="63.42497499858182" lon="10.180805548320924" id="-49227">
		<tag k="name" v="Elset" />
		<tag k="place" v="farm" />
		<tag k="ssr:stedsnr" v="84109" />
	</node>
	<node lat="63.441368999715195" lon="10.195610973153315" id="-49228">
		<tag k="alt_name" v="Grøset nordre" />
		<tag k="name" v="Nordre Grøset" />
		<tag k="place" v="farm" />
		<tag k="ssr:stedsnr" v="84115" />
	</node>
	<node lat="63.42314722096535" lon="10.127825004019218" id="-49230">
		<tag k="name" v="Bjøra" />
		<tag k="place" v="isolated_dwelling" />
		<tag k="ssr:stedsnr" v="84911" />
	</node>
	<node lat="63.42142777372406" lon="10.132586106605853" id="-49233">
		<tag k="name" v="Hørarhaugen" />
		<tag k="place" v="isolated_dwelling" />
		<tag k="ssr:stedsnr" v="84930" />
	</node>
	<node lat="63.41590555687438" lon="10.121980545775516" id="-49235">
		<tag k="name" v="Myra" />
		<tag k="place" v="farm" />
		<tag k="ssr:stedsnr" v="84945" />
	</node>
	<node lat="63.36780555547179" lon="10.117552773511093" id="-49237">
		<tag k="name" v="Langlo" />
		<tag k="place" v="farm" />
		<tag k="ssr:stedsnr" v="84822" />
	</node>
	<node lat="63.360780558596346" lon="10.159436108318335" id="-49245">
		<tag k="name" v="Rødde" />
		<tag k="place" v="farm" />
		<tag k="ssr:stedsnr" v="84976" />
	</node>
	<node lat="63.36733333078759" lon="10.288277778776655" id="-49251">
		<tag k="historic" v="shieling" />
		<tag k="name" v="Jelleinvollan" />
		<tag k="place" v="isolated_dwelling" />
		<tag k="ssr:stedsnr" v="86180" />
	</node>
	<node lat="63.36517222550194" lon="10.283902768318955" id="-49252">
		<tag k="name" v="Skjefstadsætra" />
		<tag k="place" v="isolated_dwelling" />
		<tag k="ssr:stedsnr" v="86182" />
	</node>
	<node lat="63.4379027788483" lon="10.196549998915124" id="-49270">
		<tag k="fixme" v="multiple name tags, choose one and add the other to alt_name" />
		<tag k="name" v="Grøsetplassen;Grindbakken" />
		<tag k="place" v="isolated_dwelling" />
		<tag k="ssr:stedsnr" v="89324" />
	</node>
	<node lat="63.41771944023512" lon="10.341680551102723" id="-49276">
		<tag k="name" v="Sverresborgplassen" />
		<tag k="place" v="locality" />
		<tag k="ssr:stedsnr" v="89968" />
	</node>
	<node lat="63.27971388671842" lon="10.457216658169067" id="-49281">
		<tag k="name" v="Nidelven camping" />
		<tag k="ssr:stedsnr" v="99626" />
		<tag k="tourism" v="camp_site" />
	</node>
	<node lat="63.38099362422407" lon="10.07133827556007" id="-49282">
		<tag k="fixme" v="consider place=hamlet" />
		<tag k="name" v="Hove" />
		<tag k="place" v="farm" />
		<tag k="ssr:stedsnr" v="100664" />
	</node>
	<node lat="63.258649999389014" lon="10.51086389305019" id="-49283">
		<tag k="name" v="Brøttemsåsen" />
		<tag k="place" v="quarter" />
		<tag k="ssr:stedsnr" v="100879" />
	</node>
	<node lat="63.45224722457184" lon="10.451422222128773" id="-49284">
		<tag k="amenity" v="hospital" />
		<tag k="name" v="Østmarka sykehus" />
		<tag k="old_name" v="Østmarken sykehus;Trøndelag psykiatriske sykehus" />
		<tag k="ssr:stedsnr" v="101010" />
	</node>
	<node lat="63.455169442062" lon="10.448261107062118" id="-49285">
		<tag k="name" v="Østmarkneset" />
		<tag k="place" v="quarter" />
		<tag k="ssr:stedsnr" v="101174" />
	</node>
	<node lat="63.386563886521465" lon="10.509680552005225" id="-49286">
		<tag k="name" v="Kvila" />
		<tag k="place" v="isolated_dwelling" />
		<tag k="ssr:stedsnr" v="101571" />
	</node>
	<node lat="63.38649721841615" lon="10.513538885459793" id="-49287">
		<tag k="name" v="Arnestua" />
		<tag k="place" v="isolated_dwelling" />
		<tag k="ssr:stedsnr" v="101572" />
	</node>
	<node lat="63.39913055870358" lon="10.4656555588681" id="-49288">
		<tag k="name" v="Gerdahaug 2" />
		<tag k="place" v="isolated_dwelling" />
		<tag k="ssr:stedsnr" v="101606" />
	</node>
	<node lat="63.428227780201894" lon="10.403655564972155" id="-49289">
		<tag k="fixme" v="consider place=suburb, village or hamlet" />
		<tag k="name" v="Bakklandet" />
		<tag k="place" v="quarter" />
		<tag k="ssr:stedsnr" v="101902" />
	</node>
	<node lat="63.290805762779485" lon="10.43993142638914" id="-49306">
		<tag k="fixme" v="consider place=hamlet" />
		<tag k="name" v="Tulluan" />
		<tag k="place" v="farm" />
		<tag k="ssr:stedsnr" v="108092" />
	</node>
	<node lat="63.32525555692884" lon="10.268883337068994" id="-49307">
		<tag k="name" v="Stavsøya" />
		<tag k="place" v="farm" />
		<tag k="ssr:stedsnr" v="110117" />
	</node>
	<node lat="63.42457499926399" lon="10.497433323286248" id="-49308">
		<tag k="name" v="Sletten" />
		<tag k="place" v="isolated_dwelling" />
		<tag k="ssr:stedsnr" v="110528" />
	</node>
	<node lat="63.395325000466435" lon="10.53258055525339" id="-49309">
		<tag k="name" v="Oddatunet" />
		<tag k="place" v="isolated_dwelling" />
		<tag k="ssr:stedsnr" v="110580" />
	</node>
	<node lat="63.408630556696714" lon="10.51043889198333" id="-49310">
		<tag k="alt_name" v="Ventilus Fortuna" />
		<tag k="name" v="Ventilhus Fortuna" />
		<tag k="place" v="isolated_dwelling" />
		<tag k="ssr:stedsnr" v="110479" />
	</node>
	<node lat="63.39947777787432" lon="10.339005550085691" id="-49311">
		<tag k="amenity" v="school" />
		<tag k="name" v="Ugla ungdomsskole" />
		<tag k="ssr:stedsnr" v="110806" />
	</node>
	<node lat="63.391469443559195" lon="10.400016668321602" id="-49314">
		<tag k="name" v="Jørnbritt" />
		<tag k="place" v="isolated_dwelling" />
		<tag k="ssr:stedsnr" v="112514" />
	</node>
	<node lat="63.3907722258591" lon="10.470311118666809" id="-49315">
		<tag k="name" v="Kvernstuggu" />
		<tag k="place" v="isolated_dwelling" />
		<tag k="ssr:stedsnr" v="112520" />
	</node>
	<node lat="63.39171110873815" lon="10.522058334742514" id="-49316">
		<tag k="name" v="Myrstua" />
		<tag k="place" v="isolated_dwelling" />
		<tag k="ssr:stedsnr" v="112534" />
	</node>
	<node lat="63.42454116936447" lon="10.342976520254101" id="-49317">
		<tag k="name" v="Fagerhaug" />
		<tag k="place" v="farm" />
		<tag k="ssr:stedsnr" v="112608" />
	</node>
	<node lat="63.39151944643886" lon="10.523130555585482" id="-49318">
		<tag k="name" v="Granlund" />
		<tag k="place" v="isolated_dwelling" />
		<tag k="ssr:stedsnr" v="112622" />
	</node>
	<node lat="63.35636667023855" lon="10.441866665460514" id="-49319">
		<tag k="name" v="Holthe" />
		<tag k="place" v="isolated_dwelling" />
		<tag k="ssr:stedsnr" v="112630" />
	</node>
	<node lat="63.434338886498566" lon="10.428166673201996" id="-49323">
		<tag k="fixme" v="consider place=hamlet" />
		<tag k="name" v="Bakkaunet" />
		<tag k="place" v="farm" />
		<tag k="ssr:stedsnr" v="116285" />
	</node>
	<node lat="63.44704999694211" lon="10.447991666128248" id="-49326">
		<tag k="name" v="Bjørkli" />
		<tag k="place" v="isolated_dwelling" />
		<tag k="ssr:stedsnr" v="118274" />
	</node>
	<node lat="63.32554722028873" lon="10.315861113404086" id="-49331">
		<tag k="fixme" v="consider place=hamlet" />
		<tag k="name" v="Klett" />
		<tag k="place" v="farm" />
		<tag k="ssr:stedsnr" v="119423" />
	</node>
	<node lat="63.44798055146284" lon="10.428566662578028" id="-49332">
		<tag k="name" v="Klippen" />
		<tag k="place" v="isolated_dwelling" />
		<tag k="ssr:stedsnr" v="119469" />
	</node>
	<node lat="63.34324133723318" lon="10.427361797998971" id="-49333">
		<tag k="building" v="commercial" />
		<tag k="name" v="Flotten samfunnshus" />
		<tag k="old_name" v="Flotten skole" />
		<tag k="ssr:stedsnr" v="120121" />
	</node>
	<node lat="63.335219447882245" lon="10.440850009511674" id="-49334">
		<tag k="name" v="Nidelven camping" />
		<tag k="ssr:stedsnr" v="120676" />
		<tag k="tourism" v="camp_site" />
	</node>
	<node lat="63.337829552493524" lon="10.323250457740393" id="-49335">
		<tag k="name" v="Ust" />
		<tag k="place" v="farm" />
		<tag k="ssr:stedsnr" v="121586" />
	</node>
	<node lat="63.345305367214785" lon="10.16361414461881" id="-49337">
		<tag k="fixme" v="consider place=hamlet" />
		<tag k="name" v="Ner-Mule" />
		<tag k="place" v="farm" />
		<tag k="ssr:stedsnr" v="121982" />
	</node>
	<node lat="63.44164117451299" lon="10.197293877027308" id="-49340">
		<tag k="fixme" v="consider place=hamlet" />
		<tag k="name" v="Grøset" />
		<tag k="place" v="farm" />
		<tag k="ssr:stedsnr" v="134110" />
	</node>
	<node lat="63.26516389128374" lon="10.525352781061867" id="-49342">
		<tag k="name" v="Teigtrøa" />
		<tag k="place" v="farm" />
		<tag k="ssr:stedsnr" v="134767" />
	</node>
	<node lat="63.32325833631824" lon="10.631222222861963" id="-49343">
		<tag k="historic" v="shieling" />
		<tag k="name" v="Haukåsvollen" />
		<tag k="place" v="isolated_dwelling" />
		<tag k="ssr:stedsnr" v="134909" />
	</node>
	<node lat="63.344461112721575" lon="10.24375555887905" id="-49345">
		<tag k="fixme" v="consider place=hamlet" />
		<tag k="name" v="Sundet" />
		<tag k="place" v="farm" />
		<tag k="ssr:stedsnr" v="134958" />
	</node>
	<node lat="63.39754999954754" lon="10.525049994212974" id="-49348">
		<tag k="name" v="Sæter" />
		<tag k="place" v="farm" />
		<tag k="ssr:stedsnr" v="142797" />
	</node>
	<node lat="63.44020110296293" lon="10.197451043242978" id="-49350">
		<tag k="alt_name" v="Grøset søndre" />
		<tag k="name" v="Søndre Grøset" />
		<tag k="place" v="farm" />
		<tag k="ssr:stedsnr" v="144736" />
	</node>
	<node lat="63.43935833165929" lon="10.469755549665956" id="-49351">
		<tag k="alt_name" v="Leangen gård" />
		<tag k="name" v="Leangen" />
		<tag k="place" v="farm" />
		<tag k="ssr:stedsnr" v="255695" />
	</node>
	<node lat="63.376788885293415" lon="10.307625005727484" id="-49352">
		<tag k="alt_name" v="Granåsbakken" />
		<tag k="leisure" v="pitch" />
		<tag k="name" v="Granåsen" />
		<tag k="ssr:stedsnr" v="255545" />
	</node>
	<node lat="63.23511666776952" lon="10.513038882621542" id="-49355">
		<tag k="alt_name" v="Lekås" />
		<tag k="historic" v="shieling" />
		<tag k="name" v="Lekåsen" />
		<tag k="place" v="isolated_dwelling" />
		<tag k="ssr:stedsnr" v="255736" />
	</node>
	<node lat="63.416791669984484" lon="10.124186110232484" id="-49365">
		<tag k="alt_name" v="Bjørdalen" />
		<tag k="name" v="Bjørdal" />
		<tag k="place" v="farm" />
		<tag k="ssr:stedsnr" v="256115" />
	</node>
	<node lat="63.38982500405141" lon="10.329730554324707" id="-49372">
		<tag k="fixme" v="multiple name tags, choose one and add the other to alt_name" />
		<tag k="name" v="Stolpstua;Nyheim;Indre Stolpstua" />
		<tag k="place" v="isolated_dwelling" />
		<tag k="ssr:stedsnr" v="147218" />
	</node>
	<node lat="63.41246944146725" lon="10.114272213872967" id="-49375">
		<tag k="fixme" v="consider place=hamlet" />
		<tag k="name" v="Hoem" />
		<tag k="place" v="farm" />
		<tag k="ssr:stedsnr" v="256107" />
	</node>
	<node lat="63.3895694410241" lon="10.21741111939124" id="-49376">
		<tag k="historic" v="shieling" />
		<tag k="name" v="Prestsetra" />
		<tag k="place" v="isolated_dwelling" />
		<tag k="ssr:stedsnr" v="148577" />
	</node>
	<node lat="63.36431666567257" lon="10.170674995394128" id="-49384">
		<tag k="name" v="Fallet" />
		<tag k="place" v="farm" />
		<tag k="ssr:stedsnr" v="256400" />
	</node>
	<node lat="63.3734611113785" lon="10.118124999921351" id="-49385">
		<tag k="fixme" v="consider place=hamlet" />
		<tag k="name" v="Raustan" />
		<tag k="place" v="farm" />
		<tag k="ssr:stedsnr" v="256421" />
	</node>
	<node lat="63.35052500053349" lon="10.200886105983548" id="-49387">
		<tag k="name" v="Brårønningen" />
		<tag k="place" v="farm" />
		<tag k="ssr:stedsnr" v="256449" />
	</node>
	<node lat="63.3939416708672" lon="10.129808328872903" id="-49388">
		<tag k="name" v="Dammyra" />
		<tag k="place" v="farm" />
		<tag k="ssr:stedsnr" v="256353" />
	</node>
	<node lat="63.36522222098658" lon="10.38240832696148" id="-49389">
		<tag k="name" v="Tonstad" />
		<tag k="place" v="quarter" />
		<tag k="ssr:stedsnr" v="256488" />
	</node>
	<node lat="63.38328055944592" lon="10.411983327796968" id="-49391">
		<tag k="name" v="Allebakken" />
		<tag k="place" v="farm" />
		<tag k="ssr:stedsnr" v="256527" />
	</node>
	<node lat="63.40501264256808" lon="10.368641445651866" id="-49392">
		<tag k="fixme" v="consider place=hamlet" />
		<tag k="name" v="Havstein" />
		<tag k="place" v="farm" />
		<tag k="ssr:stedsnr" v="256540" />
	</node>
	<node lat="63.403594448847386" lon="10.511316674826519" id="-49393">
		<tag k="name" v="Vikås" />
		<tag k="old_name" v="Vikaas" />
		<tag k="place" v="farm" />
		<tag k="ssr:stedsnr" v="256542" />
	</node>
	<node lat="63.3951444416777" lon="10.41849166357517" id="-49394">
		<tag k="name" v="Stubban" />
		<tag k="place" v="suburb" />
		<tag k="ssr:stedsnr" v="256549" />
	</node>
	<node lat="63.40105618015605" lon="10.270838167847675" id="-49395">
		<tag k="name" v="Stykket" />
		<tag k="place" v="farm" />
		<tag k="ssr:stedsnr" v="256551" />
	</node>
	<node lat="63.408175003464436" lon="10.504266672908722" id="-49397">
		<tag k="name" v="Karlsheim" />
		<tag k="place" v="farm" />
		<tag k="ssr:stedsnr" v="256596" />
	</node>
	<node lat="63.29761667000773" lon="10.482602780609513" id="-49398">
		<tag k="name" v="Klæbu" />
		<tag k="place" v="village" />
		<tag k="ssr:stedsnr" v="152503" />
	</node>
	<node lat="63.45377222106434" lon="10.445341662326449" id="-49399">
		<tag k="fixme" v="consider place=suburb, village or hamlet" />
		<tag k="name" v="Østmarka" />
		<tag k="place" v="quarter" />
		<tag k="ssr:stedsnr" v="256679" />
	</node>
	<node lat="63.29459722199242" lon="10.442069450007208" id="-49402">
		<tag k="fixme" v="multiple name tags, choose one and add the other to alt_name" />
		<tag k="name" v="Nordre Tulluan;Utpågården;Tulluan Utpågården" />
		<tag k="place" v="farm" />
		<tag k="ssr:stedsnr" v="256776" />
	</node>
	<node lat="63.32143333175048" lon="10.457630553947785" id="-49403">
		<tag k="name" v="Krokbakken" />
		<tag k="place" v="farm" />
		<tag k="ssr:stedsnr" v="256841" />
	</node>
	<node lat="63.32169166397267" lon="10.371850005653265" id="-49404">
		<tag k="fixme" v="consider place=hamlet" />
		<tag k="name" v="Jesmo" />
		<tag k="place" v="farm" />
		<tag k="ssr:stedsnr" v="256848" />
	</node>
	<node lat="63.27120555201569" lon="10.44259722075244" id="-49405">
		<tag k="name" v="Nygården" />
		<tag k="place" v="farm" />
		<tag k="ssr:stedsnr" v="256730" />
	</node>
	<node lat="63.33426944278364" lon="10.40392777615446" id="-49407">
		<tag k="name" v="Tillermoen" />
		<tag k="place" v="farm" />
		<tag k="ssr:stedsnr" v="256896" />
	</node>
	<node lat="63.34889166703563" lon="10.25749722545941" id="-49408">
		<tag k="name" v="Leintrøa" />
		<tag k="place" v="farm" />
		<tag k="ssr:stedsnr" v="256947" />
	</node>
	<node lat="63.349790202456774" lon="10.308593408994046" id="-49409">
		<tag k="name" v="Solberg" />
		<tag k="place" v="hamlet" />
		<tag k="ssr:stedsnr" v="256954" />
	</node>
	<node lat="63.36293610814486" lon="10.369955553806632" id="-49410">
		<tag k="alt_name" v="Store Rosta;Rosta, store" />
		<tag k="name" v="Stor-Rosta" />
		<tag k="place" v="farm" />
		<tag k="ssr:stedsnr" v="256997" />
	</node>
	<node lat="63.39637222380714" lon="10.523547225059145" id="-49411">
		<tag k="name" v="Steinroa" />
		<tag k="place" v="isolated_dwelling" />
		<tag k="ssr:stedsnr" v="161607" />
	</node>
	<node lat="63.388894441035795" lon="10.499836112366319" id="-49412">
		<tag k="name" v="Granlund" />
		<tag k="place" v="isolated_dwelling" />
		<tag k="ssr:stedsnr" v="161625" />
	</node>
	<node lat="63.42143055629909" lon="10.40388333685876" id="-49413">
		<tag k="amenity" v="sports_centre" />
		<tag k="name" v="Høgskolehallen" />
		<tag k="ssr:stedsnr" v="161658" />
	</node>
	<node lat="63.438986063470075" lon="10.48372494012347" id="-49415">
		<tag k="amenity" v="school" />
		<tag k="name" v="Lukas videregående skole" />
		<tag k="ssr:stedsnr" v="163005" />
	</node>
	<node lat="63.43091111321903" lon="10.512855560628918" id="-49416">
		<tag k="name" v="Dalsminde" />
		<tag k="place" v="farm" />
		<tag k="ssr:stedsnr" v="162902" />
	</node>
	<node lat="63.411266662724856" lon="10.380233327353825" id="-49418">
		<tag k="name" v="Fagerli" />
		<tag k="place" v="isolated_dwelling" />
		<tag k="ssr:stedsnr" v="163468" />
	</node>
	<node lat="63.41126666267643" lon="10.379352774240884" id="-49419">
		<tag k="name" v="Gudvang" />
		<tag k="place" v="isolated_dwelling" />
		<tag k="ssr:stedsnr" v="163469" />
	</node>
	<node lat="63.32973610712414" lon="10.494222219386137" id="-49421">
		<tag k="name" v="Svehaugen" />
		<tag k="place" v="isolated_dwelling" />
		<tag k="ssr:stedsnr" v="164162" />
	</node>
	<node lat="63.28312222569675" lon="10.429816667435905" id="-49433">
		<tag k="building" v="industrial" />
		<tag k="industrial" v="factory" />
		<tag k="name" v="Trønderhus" />
		<tag k="ssr:stedsnr" v="164558" />
	</node>
	<node lat="63.34911388517939" lon="10.220555547446477" id="-49434">
		<tag k="name" v="Stakksenget" />
		<tag k="place" v="farm" />
		<tag k="ssr:stedsnr" v="171121" />
	</node>
	<node lat="63.34399721904782" lon="10.25588334058088" id="-49435">
		<tag k="name" v="Leinlykkja" />
		<tag k="place" v="isolated_dwelling" />
		<tag k="ssr:stedsnr" v="171122" />
	</node>
	<node lat="63.385225004013925" lon="10.584388897135367" id="-49436">
		<tag k="name" v="Sommerro" />
		<tag k="place" v="isolated_dwelling" />
		<tag k="ssr:stedsnr" v="171502" />
	</node>
	<node lat="63.39828888948143" lon="10.520586117910472" id="-49437">
		<tag k="name" v="Solhaug" />
		<tag k="place" v="isolated_dwelling" />
		<tag k="ssr:stedsnr" v="171514" />
	</node>
	<node lat="63.349036112368445" lon="10.36036111796379" id="-49438">
		<tag k="alt_name" v="Breidablikk ungdomssskole" />
		<tag k="amenity" v="school" />
		<tag k="name" v="Breidablikk skole" />
		<tag k="ssr:stedsnr" v="171804" />
	</node>
	<node lat="63.41847500291321" lon="10.47974443764775" id="-49439">
		<tag k="amenity" v="school" />
		<tag k="fixme" v="multiple name tags, choose one and add the other to alt_name" />
		<tag k="name" v="Brundalen skole;Brundalen barneskole" />
		<tag k="ssr:stedsnr" v="171806" />
	</node>
	<node lat="63.41308889038086" lon="10.529080548805647" id="-49440">
		<tag k="amenity" v="school" />
		<tag k="name" v="Markaplassen ungdomsskole" />
		<tag k="ssr:stedsnr" v="171810" />
	</node>
	<node lat="63.387252778106124" lon="10.578897215323616" id="-49441">
		<tag k="name" v="Ner-Jervan" />
		<tag k="place" v="farm" />
		<tag k="ssr:stedsnr" v="172164" />
	</node>
	<node lat="63.39774721982649" lon="10.46836667043529" id="-49444">
		<tag k="name" v="Berghammer" />
		<tag k="place" v="isolated_dwelling" />
		<tag k="ssr:stedsnr" v="172607" />
	</node>
	<node lat="63.45706944498821" lon="10.448516663155331" id="-49445">
		<tag k="name" v="Birkehaug" />
		<tag k="place" v="isolated_dwelling" />
		<tag k="ssr:stedsnr" v="172611" />
	</node>
	<node lat="63.3910999966163" lon="10.468027768728977" id="-49446">
		<tag k="name" v="Bjørklund" />
		<tag k="place" v="isolated_dwelling" />
		<tag k="ssr:stedsnr" v="172614" />
	</node>
	<node lat="63.40088888775697" lon="10.51996388374252" id="-49448">
		<tag k="name" v="Nordli" />
		<tag k="place" v="isolated_dwelling" />
		<tag k="ssr:stedsnr" v="172571" />
	</node>
	<node lat="63.39574721818013" lon="10.469286111805566" id="-49449">
		<tag k="name" v="Bekken" />
		<tag k="place" v="locality" />
		<tag k="ssr:stedsnr" v="172669" />
	</node>
	<node lat="63.428283329510776" lon="10.562719446665131" id="-49452">
		<tag k="name" v="Furuhaugen nr. 2" />
		<tag k="place" v="isolated_dwelling" />
		<tag k="ssr:stedsnr" v="177258" />
	</node>
	<node lat="63.42053888465882" lon="10.535169445228068" id="-49453">
		<tag k="name" v="Fossen" />
		<tag k="place" v="isolated_dwelling" />
		<tag k="ssr:stedsnr" v="177355" />
	</node>
	<node lat="63.41158055543438" lon="10.498658337751861" id="-49454">
		<tag k="alt_name" v="Lillegrinnan" />
		<tag k="name" v="Litlgrinnan" />
		<tag k="place" v="isolated_dwelling" />
		<tag k="ssr:stedsnr" v="178173" />
	</node>
	<node lat="63.38590833134563" lon="10.371830549200897" id="-49455">
		<tag k="building" v="industrial" />
		<tag k="name" v="Prøven" />
		<tag k="ssr:stedsnr" v="178471" />
	</node>
	<node lat="63.43794912877957" lon="10.412137496842208" id="-49456">
		<tag k="building" v="civic" />
		<tag k="name" v="Sentrum brannstasjon " />
		<tag k="ssr:stedsnr" v="178518" />
	</node>
	<node lat="63.40915833226169" lon="10.451647224967846" id="-49457">
		<tag k="name" v="Skarpsno" />
		<tag k="place" v="isolated_dwelling" />
		<tag k="ssr:stedsnr" v="179059" />
	</node>
	<node lat="63.43208611116576" lon="10.453127770775048" id="-49458">
		<tag k="building" v="industrial" />
		<tag k="name" v="Baldershage" />
		<tag k="ssr:stedsnr" v="179286" />
	</node>
	<node lat="63.33645833243093" lon="10.34039166322452" id="-49460">
		<tag k="fixme" v="multiple name tags, choose one and add the other to alt_name" />
		<tag k="name" v="Nordre Heggstad;Heggstad" />
		<tag k="place" v="farm" />
		<tag k="ssr:stedsnr" v="179919" />
	</node>
	<node lat="63.42960277678116" lon="10.361536105686131" id="-49462">
		<tag k="name" v="Møllehaugen" />
		<tag k="place" v="farm" />
		<tag k="ssr:stedsnr" v="179973" />
	</node>
	<node lat="63.328847220787786" lon="10.40562222025089" id="-49464">
		<tag k="name" v="Grønlia" />
		<tag k="place" v="isolated_dwelling" />
		<tag k="ssr:stedsnr" v="180067" />
	</node>
	<node lat="63.42065277918551" lon="10.375916668957503" id="-49465">
		<tag k="name" v="Åsheim" />
		<tag k="place" v="isolated_dwelling" />
		<tag k="ssr:stedsnr" v="180303" />
	</node>
	<node lat="63.35527222662142" lon="10.479533339292331" id="-49467">
		<tag k="name" v="Kvålsegga" />
		<tag k="place" v="farm" />
		<tag k="ssr:stedsnr" v="180479" />
	</node>
	<node lat="63.374904977064205" lon="10.382249583534334" id="-49469">
		<tag k="name" v="Okstad" />
		<tag k="place" v="hamlet" />
		<tag k="ssr:stedsnr" v="182509" />
	</node>
	<node lat="63.38656921046836" lon="10.158560402689007" id="-49470">
		<tag k="name" v="Oppland" />
		<tag k="place" v="hamlet" />
		<tag k="ssr:stedsnr" v="182547" />
	</node>
	<node lat="63.438852774256816" lon="10.448799992070981" id="-49471">
		<tag k="fixme" v="consider place=hamlet" />
		<tag k="name" v="Dalen" />
		<tag k="place" v="farm" />
		<tag k="ssr:stedsnr" v="182939" />
	</node>
	<node lat="63.430288887897795" lon="10.420449996416579" id="-49473">
		<tag k="fixme" v="consider place=suburb, village or hamlet" />
		<tag k="name" v="Rosenborg" />
		<tag k="place" v="quarter" />
		<tag k="ssr:stedsnr" v="262258" />
	</node>
	<node lat="63.424177774633776" lon="10.314049990551531" id="-49475">
		<tag k="historic" v="shieling" />
		<tag k="name" v="Helkansætra" />
		<tag k="place" v="isolated_dwelling" />
		<tag k="ssr:stedsnr" v="263226" />
	</node>
	<node lat="63.350480556200665" lon="10.440813880628694" id="-49476">
		<tag k="name" v="Rannlia" />
		<tag k="place" v="farm" />
		<tag k="ssr:stedsnr" v="263234" />
	</node>
	<node lat="63.37619999568789" lon="10.527758330042033" id="-49478">
		<tag k="name" v="Einum" />
		<tag k="place" v="farm" />
		<tag k="ssr:stedsnr" v="195536" />
	</node>
	<node lat="63.37906110745789" lon="10.513744447470962" id="-49479">
		<tag k="name" v="Movollen" />
		<tag k="place" v="farm" />
		<tag k="ssr:stedsnr" v="195538" />
	</node>
	<node lat="63.403555553072074" lon="10.435786111247983" id="-49481">
		<tag k="alt_name" v="Steindal nordre;Nordre Steindal" />
		<tag k="name" v="Steindal" />
		<tag k="place" v="farm" />
		<tag k="ssr:stedsnr" v="195582" />
	</node>
	<node lat="63.37343055794403" lon="10.174444448593235" id="-49484">
		<tag k="alt_name" v="Knutstuhagan;Knutstuhåggån" />
		<tag k="name" v="Knutsstuhåggån" />
		<tag k="place" v="farm" />
		<tag k="ssr:stedsnr" v="195493" />
	</node>
	<node lat="63.35404166800727" lon="10.118183342544034" id="-49492">
		<tag k="name" v="Steinslia" />
		<tag k="place" v="farm" />
		<tag k="ssr:stedsnr" v="266873" />
	</node>
	<node lat="63.38749166657603" lon="10.167436110580715" id="-49494">
		<tag k="name" v="Haugplassen" />
		<tag k="place" v="locality" />
		<tag k="ssr:stedsnr" v="266989" />
	</node>
	<node lat="63.40710833410064" lon="10.48436665914068" id="-49499">
		<tag k="name" v="Stokkhaugen" />
		<tag k="place" v="quarter" />
		<tag k="ssr:stedsnr" v="268051" />
	</node>
	<node lat="63.381293889755526" lon="10.064672638579937" id="-49504">
		<tag k="name" v="Gråten" />
		<tag k="place" v="isolated_dwelling" />
		<tag k="ssr:stedsnr" v="205845" />
	</node>
	<node lat="63.38004722656818" lon="10.173486112503461" id="-49510">
		<tag k="name" v="Tømmerhaugen" />
		<tag k="place" v="isolated_dwelling" />
		<tag k="ssr:stedsnr" v="205998" />
	</node>
	<node lat="63.38316944044411" lon="10.164975007652055" id="-49511">
		<tag k="name" v="Åsheim" />
		<tag k="place" v="farm" />
		<tag k="ssr:stedsnr" v="205999" />
	</node>
	<node lat="63.34939444276024" lon="10.485186108909312" id="-49514">
		<tag k="fixme" v="consider place=hamlet" />
		<tag k="name" v="Bratsberg" />
		<tag k="place" v="village" />
		<tag k="ssr:stedsnr" v="207037" />
	</node>
	<node lat="63.43227795645945" lon="10.580685826739924" id="-49527">
		<tag k="name" v="Værestrøa" />
		<tag k="place" v="quarter" />
		<tag k="ssr:stedsnr" v="208045" />
	</node>
	<node lat="63.398986108296015" lon="10.286794435736004" id="-49528">
		<tag k="historic" v="shieling" />
		<tag k="name" v="Selsbakksetra" />
		<tag k="place" v="isolated_dwelling" />
		<tag k="ssr:stedsnr" v="268957" />
	</node>
	<node lat="63.39969166620885" lon="10.283283328164192" id="-49534">
		<tag k="historic" v="shieling" />
		<tag k="name" v="Selsbakksetra" />
		<tag k="place" v="isolated_dwelling" />
		<tag k="ssr:stedsnr" v="208943" />
	</node>
	<node lat="63.42461667053431" lon="10.462088883414227" id="-49543">
		<tag k="fixme" v="consider place=hamlet" />
		<tag k="name" v="Tunga" />
		<tag k="place" v="farm" />
		<tag k="ssr:stedsnr" v="269700" />
	</node>
	<node lat="63.38861666404752" lon="10.39861389292754" id="-49544">
		<tag k="name" v="Fossegrenda" />
		<tag k="place" v="quarter" />
		<tag k="ssr:stedsnr" v="214406" />
	</node>
	<node lat="63.3648888916652" lon="10.210747218563048" id="-49547">
		<tag k="historic" v="shieling" />
		<tag k="name" v="Sæterrommet" />
		<tag k="place" v="isolated_dwelling" />
		<tag k="ssr:stedsnr" v="270255" />
	</node>
	<node lat="63.31523789474693" lon="10.481368931977592" id="-49551">
		<tag k="name" v="Lysklett" />
		<tag k="place" v="hamlet" />
		<tag k="ssr:stedsnr" v="220101" />
	</node>
	<node lat="63.313904980227406" lon="10.437398754512119" id="-49552">
		<tag k="alt_name" v="Tanem nedre;Nestu" />
		<tag k="loc_name" v="Nerstu" />
		<tag k="name" v="Nedre Tanem" />
		<tag k="place" v="farm" />
		<tag k="ssr:stedsnr" v="220170" />
	</node>
	<node lat="63.3132556141071" lon="10.440356066455033" id="-49553">
		<tag k="alt_name" v="Tanem nedre;Gjardet" />
		<tag k="name" v="Nedre Tanem" />
		<tag k="place" v="farm" />
		<tag k="ssr:stedsnr" v="220175" />
	</node>
	<node lat="63.390208334109914" lon="10.270711101597556" id="-49555">
		<tag k="name" v="Rasmusstykket" />
		<tag k="place" v="isolated_dwelling" />
		<tag k="ssr:stedsnr" v="270949" />
	</node>
	<node lat="63.392363893453144" lon="10.470733325555567" id="-49556">
		<tag k="name" v="Rabben" />
		<tag k="place" v="isolated_dwelling" />
		<tag k="ssr:stedsnr" v="222571" />
	</node>
	<node lat="63.39413332970109" lon="10.4690027729201" id="-49557">
		<tag k="name" v="Haugstua" />
		<tag k="place" v="isolated_dwelling" />
		<tag k="ssr:stedsnr" v="222580" />
	</node>
	<node lat="63.413530551063424" lon="10.409463897207877" id="-49559">
		<tag k="building" v="commercial" />
		<tag k="name" v="SINTEF" />
		<tag k="ssr:stedsnr" v="222679" />
	</node>
	<node lat="63.400036112731726" lon="10.349363898497897" id="-49560">
		<tag k="name" v="Ferstad" />
		<tag k="place" v="quarter" />
		<tag k="ssr:stedsnr" v="222873" />
	</node>
	<node lat="63.36564030630868" lon="10.35074522496897" id="-49561">
		<tag k="amenity" v="sports_centre" />
		<tag k="name" v="Husebybadet" />
		<tag k="ssr:stedsnr" v="222882" />
	</node>
	<node lat="63.3865444426455" lon="10.321413895073" id="-49565">
		<tag k="name" v="Trollheim" />
		<tag k="place" v="isolated_dwelling" />
		<tag k="ssr:stedsnr" v="224046" />
	</node>
	<node lat="63.39907202091404" lon="10.345036466066892" id="-49567">
		<tag k="name" v="Dalen" />
		<tag k="place" v="isolated_dwelling" />
		<tag k="ssr:stedsnr" v="224232" />
	</node>
	<node lat="63.388147222057235" lon="10.413744444934636" id="-49571">
		<tag k="name" v="Storbakken" />
		<tag k="place" v="farm" />
		<tag k="ssr:stedsnr" v="224898" />
	</node>
	<node lat="63.39223611307397" lon="10.407761101247631" id="-49572">
		<tag k="alt_name" v="Stubban vestre" />
		<tag k="name" v="Vestre Stubban" />
		<tag k="place" v="farm" />
		<tag k="ssr:stedsnr" v="224900" />
	</node>
	<node lat="63.38499444416888" lon="10.369647216102749" id="-49573">
		<tag k="name" v="Selsbakklia" />
		<tag k="place" v="farm" />
		<tag k="ssr:stedsnr" v="224985" />
	</node>
	<node lat="63.31673333068199" lon="10.488713884465675" id="-49574">
		<tag k="name" v="Granli" />
		<tag k="place" v="farm" />
		<tag k="ssr:stedsnr" v="225184" />
	</node>
	<node lat="63.34401110914977" lon="10.465247213661582" id="-49598">
		<tag k="alt_name" v="Sætran vestre" />
		<tag k="name" v="Vestre Sætran" />
		<tag k="place" v="farm" />
		<tag k="ssr:stedsnr" v="232129" />
	</node>
	<node lat="63.33690833428107" lon="10.282841675139432" id="-49599">
		<tag k="alt_name" v="Eggan øvre;Eggan" />
		<tag k="fixme" v="consider place=hamlet" />
		<tag k="name" v="Øvre Eggan" />
		<tag k="place" v="farm" />
		<tag k="ssr:stedsnr" v="232189" />
	</node>
	<node lat="63.40127744040223" lon="10.52154384593091" id="-49602">
		<tag k="name" v="Perstua" />
		<tag k="place" v="farm" />
		<tag k="ssr:stedsnr" v="232505" />
	</node>
	<node lat="63.40969578107198" lon="10.408614694431966" id="-49603">
		<tag k="alt_name" v="Valgrinda" />
		<tag k="name" v="Paulinegård" />
		<tag k="place" v="isolated_dwelling" />
		<tag k="ssr:stedsnr" v="232507" />
	</node>
	<node lat="63.42066944690925" lon="10.356144439181575" id="-49604">
		<tag k="name" v="Singsåsgården" />
		<tag k="place" v="isolated_dwelling" />
		<tag k="ssr:stedsnr" v="232513" />
	</node>
	<node lat="63.37073440287426" lon="10.305513490381987" id="-49605">
		<tag k="name" v="Rundbakken" />
		<tag k="place" v="farm" />
		<tag k="ssr:stedsnr" v="232519" />
	</node>
	<node lat="63.39814412174214" lon="10.521100627119575" id="-49607">
		<tag k="name" v="Oslund" />
		<tag k="place" v="farm" />
		<tag k="ssr:stedsnr" v="232498" />
	</node>
	<node lat="63.439916669056444" lon="10.399775003287132" id="-49609">
		<tag k="building" v="commercial" />
		<tag k="name" v="Pirterminalen" />
		<tag k="ssr:stedsnr" v="232711" />
	</node>
	<node lat="63.403080557937336" lon="10.524222232012796" id="-49611">
		<tag k="amenity" v="school" />
		<tag k="name" v="Solbakken skole" />
		<tag k="ssr:stedsnr" v="232743" />
	</node>
	<node lat="63.39212499970296" lon="10.36764444992535" id="-49612">
		<tag k="amenity" v="school" />
		<tag k="name" v="Hallset skole" />
		<tag k="ssr:stedsnr" v="232783" />
	</node>
	<node lat="63.33045833117556" lon="10.31776388547844" id="-49613">
		<tag k="alt_name" v="Esp nordre;Esp" />
		<tag k="name" v="Nordre Esp" />
		<tag k="place" v="farm" />
		<tag k="ssr:stedsnr" v="233235" />
	</node>
	<node lat="63.40402054869483" lon="10.50625672928215" id="-49614">
		<tag k="name" v="Borghaug" />
		<tag k="place" v="farm" />
		<tag k="ssr:stedsnr" v="233631" />
	</node>
	<node lat="63.34157310315396" lon="10.303379935224157" id="-49615">
		<tag k="name" v="Damstykket" />
		<tag k="place" v="farm" />
		<tag k="ssr:stedsnr" v="233637" />
	</node>
	<node lat="63.417697048087724" lon="10.538405683649218" id="-49616">
		<tag k="name" v="Dolpen" />
		<tag k="place" v="farm" />
		<tag k="ssr:stedsnr" v="233638" />
	</node>
	<node lat="63.41119665969631" lon="10.562737974581234" id="-49617">
		<tag k="name" v="Falkstua" />
		<tag k="place" v="farm" />
		<tag k="ssr:stedsnr" v="233642" />
	</node>
	<node lat="63.40666846980932" lon="10.508358444326824" id="-49618">
		<tag k="name" v="Fokkstua" />
		<tag k="place" v="farm" />
		<tag k="ssr:stedsnr" v="233646" />
	</node>
	<node lat="63.42865000290445" lon="10.555463883335547" id="-49622">
		<tag k="name" v="Hærensvold" />
		<tag k="place" v="isolated_dwelling" />
		<tag k="ssr:stedsnr" v="238279" />
	</node>
	<node lat="63.416868776010745" lon="10.557395106758877" id="-49623">
		<tag k="name" v="Samhold" />
		<tag k="place" v="isolated_dwelling" />
		<tag k="ssr:stedsnr" v="238283" />
	</node>
	<node lat="63.41934167006288" lon="10.551972217572146" id="-49624">
		<tag k="name" v="Fredenvold" />
		<tag k="place" v="isolated_dwelling" />
		<tag k="ssr:stedsnr" v="238288" />
	</node>
	<node lat="63.41834239113615" lon="10.544297511356524" id="-49625">
		<tag k="name" v="Nytun" />
		<tag k="place" v="isolated_dwelling" />
		<tag k="ssr:stedsnr" v="238311" />
	</node>
	<node lat="63.36778888607786" lon="10.380605549336485" id="-49626">
		<tag k="amenity" v="school" />
		<tag k="name" v="Nidaros Idrettsungdomsskole" />
		<tag k="ssr:stedsnr" v="239605" />
	</node>
	<node lat="63.43107777906845" lon="10.400405558894573" id="-49627">
		<tag k="amenity" v="school" />
		<tag k="name" v="Ungdomsenheten" />
		<tag k="ssr:stedsnr" v="239614" />
	</node>
	<node lat="63.40677778126966" lon="10.463122221164582" id="-49628">
		<tag k="name" v="Trollheimen" />
		<tag k="place" v="isolated_dwelling" />
		<tag k="ssr:stedsnr" v="239699" />
	</node>
	<node lat="63.396627778332665" lon="10.291713893739505" id="-49631">
		<tag k="name" v="Viljenhytta" />
		<tag k="place" v="isolated_dwelling" />
		<tag k="ssr:stedsnr" v="450948" />
	</node>
	<node lat="63.382041667861735" lon="10.385250007382412" id="-49634">
		<tag k="name" v="Kroppanmarka" />
		<tag k="place" v="quarter" />
		<tag k="ssr:stedsnr" v="451057" />
	</node>
	<node lat="63.43091944817605" lon="10.3638027828811" id="-49642">
		<tag k="loc_name" v="Pompvollen" />
		<tag k="name" v="Pumpvollen" />
		<tag k="old_name" v="Pumpervollen" />
		<tag k="place" v="isolated_dwelling" />
		<tag k="ssr:stedsnr" v="240980" />
	</node>
	<node lat="63.3793245464995" lon="10.443938881206739" id="-49649">
		<tag k="name" v="Blekkan" />
		<tag k="place" v="hamlet" />
		<tag k="ssr:stedsnr" v="241794" />
	</node>
	<node lat="63.38140204338349" lon="10.363766914748156" id="-49650">
		<tag k="name" v="Flatåsegga" />
		<tag k="place" v="farm" />
		<tag k="ssr:stedsnr" v="241994" />
	</node>
	<node lat="63.39284999699659" lon="10.169755553200954" id="-49653">
		<tag k="name" v="Skogplassen" />
		<tag k="place" v="locality" />
		<tag k="ssr:stedsnr" v="451947" />
	</node>
	<node lat="63.394963892864666" lon="10.317638898250973" id="-49658">
		<tag k="name" v="Hauken" />
		<tag k="place" v="isolated_dwelling" />
		<tag k="ssr:stedsnr" v="453242" />
	</node>
	<node lat="63.4335720078736" lon="10.350855686426316" id="-49661">
		<tag k="name" v="Strandhytta" />
		<tag k="place" v="isolated_dwelling" />
		<tag k="ssr:stedsnr" v="453982" />
	</node>
	<node lat="63.37329722541844" lon="10.51812499811476" id="-49665">
		<tag k="name" v="Solåsen" />
		<tag k="place" v="farm" />
		<tag k="ssr:stedsnr" v="255503" />
	</node>
	<node lat="63.379827253425695" lon="10.41245550627553" id="-49666">
		<tag k="fixme" v="consider place=hamlet" />
		<tag k="name" v="Leira" />
		<tag k="place" v="farm" />
		<tag k="ssr:stedsnr" v="255510" />
	</node>
	<node lat="63.437849998460045" lon="10.278913880431807" id="-49667">
		<tag k="fixme" v="multiple name tags, choose one and add the other to alt_name" />
		<tag k="name" v="Tømmerdalen;Nordre Tømmerdalen" />
		<tag k="place" v="farm" />
		<tag k="ssr:stedsnr" v="255677" />
	</node>
	<node lat="63.272950003103134" lon="10.582158327964994" id="-49668">
		<tag k="name" v="Nesheim" />
		<tag k="place" v="farm" />
		<tag k="ssr:stedsnr" v="255808" />
	</node>
	<node lat="63.27292500049054" lon="10.464269448596863" id="-49669">
		<tag k="name" v="Løkkaunet" />
		<tag k="place" v="farm" />
		<tag k="ssr:stedsnr" v="255810" />
	</node>
	<node lat="63.27678610865115" lon="10.452602779757948" id="-49671">
		<tag k="name" v="Mosve" />
		<tag k="place" v="farm" />
		<tag k="ssr:stedsnr" v="255812" />
	</node>
	<node lat="63.44584999781443" lon="10.201024992831" id="-49672">
		<tag k="name" v="Råa" />
		<tag k="place" v="farm" />
		<tag k="ssr:stedsnr" v="256078" />
	</node>
	<node lat="63.35457222282529" lon="10.126725007019694" id="-49673">
		<tag k="fixme" v="consider place=hamlet" />
		<tag k="name" v="Størvoll" />
		<tag k="place" v="farm" />
		<tag k="ssr:stedsnr" v="256461" />
	</node>
	<node lat="63.382213516547715" lon="10.3160579220933" id="-49675">
		<tag k="name" v="Leirbrua" />
		<tag k="place" v="locality" />
		<tag k="ssr:stedsnr" v="256505" />
	</node>
	<node lat="63.41224999599556" lon="10.40521389253018" id="-49676">
		<tag k="alt_name" v="Lerkendal stadion" />
		<tag k="leisure" v="pitch" />
		<tag k="name" v="Lerkendal" />
		<tag k="old_name" v="Lerkendal idrettsplass" />
		<tag k="ssr:stedsnr" v="256564" />
	</node>
	<node lat="63.325072219403744" lon="10.279458338334544" id="-49681">
		<tag k="alt_name" v="Stav" />
		<tag k="name" v="Nygard" />
		<tag k="place" v="farm" />
		<tag k="ssr:stedsnr" v="256875" />
	</node>
	<node lat="63.34936666574633" lon="10.51878054678794" id="-49682">
		<tag k="alt_name" v="Åsheim" />
		<tag k="name" v="Nygård" />
		<tag k="place" v="farm" />
		<tag k="ssr:stedsnr" v="256966" />
	</node>
	<node lat="63.40619722031223" lon="10.399272218854696" id="-49684">
		<tag k="fixme" v="consider place=suburb, village or hamlet" />
		<tag k="name" v="Sorgenfri" />
		<tag k="place" v="quarter" />
		<tag k="ssr:stedsnr" v="262343" />
	</node>
	<node lat="63.422213892713124" lon="10.143294435883204" id="-49690">
		<tag k="name" v="Nordlia" />
		<tag k="place" v="farm" />
		<tag k="ssr:stedsnr" v="266092" />
	</node>
	<node lat="63.37979051187721" lon="10.0693842345664" id="-49694">
		<tag k="alt_name" v="Hove" />
		<tag k="name" v="Nerhove" />
		<tag k="place" v="farm" />
		<tag k="ssr:stedsnr" v="266845" />
	</node>
	<node lat="63.37990781937895" lon="10.124860083997591" id="-49699">
		<tag k="name" v="Ner-Egga" />
		<tag k="place" v="farm" />
		<tag k="ssr:stedsnr" v="266940" />
	</node>
	<node lat="63.426749999687054" lon="10.184941666505935" id="-49706">
		<tag k="name" v="Onsøytrøa" />
		<tag k="place" v="locality" />
		<tag k="ssr:stedsnr" v="268006" />
	</node>
	<node lat="63.43391944230354" lon="10.276194437833738" id="-49707">
		<tag k="name" v="Vestre Tømmerdalen" />
		<tag k="old_name" v="Tømmerdal, vestre" />
		<tag k="place" v="farm" />
		<tag k="ssr:stedsnr" v="268734" />
	</node>
	<node lat="63.415958336391526" lon="10.32353055692944" id="-49710">
		<tag k="name" v="Baklia" />
		<tag k="place" v="locality" />
		<tag k="ssr:stedsnr" v="268890" />
	</node>
	<node lat="63.42106666992516" lon="10.387716670977241" id="-49718">
		<tag k="amenity" v="hospital" />
		<tag k="name" v="St. Olavs Hospital" />
		<tag k="old_name" v="Regionsykehuset" />
		<tag k="ssr:stedsnr" v="275583" />
	</node>
	<node lat="63.30736944613354" lon="10.427144445510255" id="-49721">
		<tag k="name" v="Granheim" />
		<tag k="place" v="quarter" />
		<tag k="ssr:stedsnr" v="281604" />
	</node>
	<node lat="63.30597778164274" lon="10.466866658994437" id="-49722">
		<tag k="amenity" v="sports_centre" />
		<tag k="name" v="Klæbuhallen" />
		<tag k="ssr:stedsnr" v="281606" />
	</node>
	<node lat="63.393063893088026" lon="10.470988889888053" id="-49730">
		<tag k="name" v="Gløtten" />
		<tag k="place" v="isolated_dwelling" />
		<tag k="ssr:stedsnr" v="283580" />
	</node>
	<node lat="63.35216944863953" lon="10.326833342819985" id="-49732">
		<tag k="fixme" v="consider place=suburb, village or hamlet" />
		<tag k="name" v="Lundåsen" />
		<tag k="place" v="quarter" />
		<tag k="ssr:stedsnr" v="283906" />
	</node>
	<node lat="63.304867368224194" lon="10.48858582566506" id="-49734">
		<tag k="fixme" v="consider place=hamlet" />
		<tag k="name" v="Hallset" />
		<tag k="place" v="farm" />
		<tag k="ssr:stedsnr" v="284712" />
	</node>
	<node lat="63.409613888425554" lon="10.391350009250873" id="-49743">
		<tag k="building" v="industrial" />
		<tag k="name" v="Sentrallageret Valøya" />
		<tag k="ssr:stedsnr" v="285505" />
	</node>
	<node lat="63.396097223555195" lon="10.52745555625477" id="-49753">
		<tag k="name" v="Soldugg" />
		<tag k="place" v="isolated_dwelling" />
		<tag k="ssr:stedsnr" v="292481" />
	</node>
	<node lat="63.39647222153617" lon="10.401380555087934" id="-49754">
		<tag k="name" v="Sluplund" />
		<tag k="place" v="isolated_dwelling" />
		<tag k="ssr:stedsnr" v="292485" />
	</node>
	<node lat="63.399747464761944" lon="10.40577299657673" id="-49756">
		<tag k="name" v="Store Gråtervoll" />
		<tag k="place" v="locality" />
		<tag k="ssr:stedsnr" v="292728" />
	</node>
	<node lat="63.39830794918576" lon="10.590651022962781" id="-49757">
		<tag k="name" v="Einlia" />
		<tag k="place" v="farm" />
		<tag k="ssr:stedsnr" v="293230" />
	</node>
	<node lat="63.401666665884605" lon="10.514516671703877" id="-49759">
		<tag k="alt_name" v="Kjønberg" />
		<tag k="name" v="Tjønnberg" />
		<tag k="place" v="isolated_dwelling" />
		<tag k="ssr:stedsnr" v="294508" />
	</node>
	<node lat="63.36860833335542" lon="10.399802778649116" id="-49760">
		<tag k="name" v="Johnsli" />
		<tag k="place" v="isolated_dwelling" />
		<tag k="ssr:stedsnr" v="294513" />
	</node>
	<node lat="63.353836108040916" lon="10.40398332783587" id="-49761">
		<tag k="alt_name" v="Hårstads Minde" />
		<tag k="name" v="Hårstad Minde" />
		<tag k="place" v="farm" />
		<tag k="ssr:stedsnr" v="294518" />
	</node>
	<node lat="63.3975249963967" lon="10.511216662226898" id="-49762">
		<tag k="name" v="Klippen" />
		<tag k="place" v="isolated_dwelling" />
		<tag k="ssr:stedsnr" v="294522" />
	</node>
	<node lat="63.436205551191875" lon="10.430024995331753" id="-49763">
		<tag k="name" v="Fagerlisletten" />
		<tag k="place" v="isolated_dwelling" />
		<tag k="ssr:stedsnr" v="294628" />
	</node>
	<node lat="63.437436112814645" lon="10.4317500040847" id="-49764">
		<tag k="name" v="Lademoen" />
		<tag k="place" v="farm" />
		<tag k="ssr:stedsnr" v="294672" />
	</node>
	<node lat="63.353838893435736" lon="10.14668332369817" id="-49765">
		<tag k="name" v="Nordlys" />
		<tag k="place" v="locality" />
		<tag k="ssr:stedsnr" v="294693" />
	</node>
	<node lat="63.39958055159779" lon="10.44355556309012" id="-49766">
		<tag k="alt_name" v="Steinan, søndre;Steinan øvre" />
		<tag k="fixme" v="multiple name tags, choose one and add the other to alt_name" />
		<tag k="name" v="Øvre Steinan;Søndre Steinan" />
		<tag k="place" v="farm" />
		<tag k="ssr:stedsnr" v="294705" />
	</node>
	<node lat="63.42830000403742" lon="10.523638887391895" id="-49767">
		<tag k="alt_name" v="Ranheim sportsplass" />
		<tag k="leisure" v="pitch" />
		<tag k="name" v="Ranheim idrettsplass" />
		<tag k="ssr:stedsnr" v="294737" />
	</node>
	<node lat="63.19351555886038" lon="10.610737188160984" id="-49768">
		<tag k="name" v="Langsjøstuggu" />
		<tag k="place" v="locality" />
		<tag k="ssr:stedsnr" v="294776" />
	</node>
	<node lat="63.36467222457641" lon="10.368638896404226" id="-49769">
		<tag k="fixme" v="consider place=hamlet" />
		<tag k="name" v="Rosta" />
		<tag k="place" v="farm" />
		<tag k="ssr:stedsnr" v="295076" />
	</node>
	<node lat="63.357927775940205" lon="10.271963883591164" id="-49770">
		<tag k="name" v="Sjøli" />
		<tag k="place" v="isolated_dwelling" />
		<tag k="ssr:stedsnr" v="295494" />
	</node>
	<node lat="63.34705833046659" lon="10.47699166371604" id="-49771">
		<tag k="alt_name" v="Kvål nedre" />
		<tag k="name" v="Nedre Kvål" />
		<tag k="place" v="farm" />
		<tag k="ssr:stedsnr" v="298172" />
	</node>
	<node lat="63.41819721964376" lon="10.54666388209939" id="-49772">
		<tag k="name" v="Alfstad" />
		<tag k="place" v="isolated_dwelling" />
		<tag k="ssr:stedsnr" v="298278" />
	</node>
	<node lat="63.38359167092628" lon="10.427805553220036" id="-49773">
		<tag k="name" v="Tverreggen" />
		<tag k="place" v="farm" />
		<tag k="ssr:stedsnr" v="298608" />
	</node>
	<node lat="63.32181388690962" lon="10.470366673652848" id="-49774">
		<tag k="leisure" v="pitch" />
		<tag k="name" v="Klæbu travbane" />
		<tag k="ssr:stedsnr" v="463582" />
	</node>
	<node lat="63.36831944651784" lon="10.114525004401512" id="-49778">
		<tag k="fixme" v="consider place=hamlet" />
		<tag k="name" v="Langlo" />
		<tag k="place" v="farm" />
		<tag k="ssr:stedsnr" v="300086" />
	</node>
	<node lat="63.402636114504105" lon="10.388827786025152" id="-49780">
		<tag k="name" v="Nydalens mølle" />
		<tag k="place" v="locality" />
		<tag k="ssr:stedsnr" v="300479" />
	</node>
	<node lat="63.39763333336473" lon="10.40107778094767" id="-49781">
		<tag k="building" v="commercial" />
		<tag k="name" v="Trondheim Kraft AS" />
		<tag k="old_name" v="Trondheim Energiverk;Trondheim Energi AS;Trondheim Elektrisitetsverk" />
		<tag k="ssr:stedsnr" v="300484" />
	</node>
	<node lat="63.412091666471966" lon="10.465836116749133" id="-49782">
		<tag k="name" v="Fagerheim" />
		<tag k="place" v="isolated_dwelling" />
		<tag k="ssr:stedsnr" v="300802" />
	</node>
	<node lat="63.42907778159132" lon="10.554022230916459" id="-49784">
		<tag k="name" v="Strandstua" />
		<tag k="place" v="isolated_dwelling" />
		<tag k="ssr:stedsnr" v="301124" />
	</node>
	<node lat="63.38569722318118" lon="10.334422227099672" id="-49787">
		<tag k="name" v="Litlaheimen" />
		<tag k="place" v="isolated_dwelling" />
		<tag k="ssr:stedsnr" v="302825" />
	</node>
	<node lat="63.349098074991296" lon="10.175845725664274" id="-49789">
		<tag k="fixme" v="consider place=hamlet" />
		<tag k="name" v="Brå" />
		<tag k="place" v="farm" />
		<tag k="ssr:stedsnr" v="303880" />
	</node>
	<node lat="63.36890278136978" lon="10.320724994000557" id="-49790">
		<tag k="alt_name" v="Sørum gård;Sørum" />
		<tag k="name" v="Sørem" />
		<tag k="place" v="farm" />
		<tag k="ssr:stedsnr" v="303904" />
	</node>
	<node lat="63.37396812996994" lon="10.430871669105123" id="-49794">
		<tag k="name" v="Trøahaugen" />
		<tag k="place" v="isolated_dwelling" />
		<tag k="ssr:stedsnr" v="465498" />
	</node>
	<node lat="63.38768610876226" lon="10.50699721847041" id="-49795">
		<tag k="name" v="Granlia" />
		<tag k="place" v="farm" />
		<tag k="ssr:stedsnr" v="465531" />
	</node>
	<node lat="63.38825555527566" lon="10.509269440553192" id="-49796">
		<tag k="name" v="Dyrhaug" />
		<tag k="place" v="farm" />
		<tag k="ssr:stedsnr" v="465532" />
	</node>
	<node lat="63.38666236199596" lon="10.507199286249627" id="-49797">
		<tag k="name" v="Thorheim" />
		<tag k="place" v="isolated_dwelling" />
		<tag k="ssr:stedsnr" v="465552" />
	</node>
	<node lat="63.41067906165246" lon="10.379830062205194" id="-49799">
		<tag k="name" v="Høgtun" />
		<tag k="place" v="isolated_dwelling" />
		<tag k="ssr:stedsnr" v="466513" />
	</node>
	<node lat="63.410433329404036" lon="10.488983340594146" id="-49800">
		<tag k="name" v="Lunt" />
		<tag k="place" v="isolated_dwelling" />
		<tag k="ssr:stedsnr" v="466900" />
	</node>
	<node lat="63.32839166316474" lon="10.495449996089095" id="-49803">
		<tag k="name" v="Sørli" />
		<tag k="place" v="farm" />
		<tag k="ssr:stedsnr" v="467152" />
	</node>
	<node lat="63.31108055768762" lon="10.431322222946587" id="-49804">
		<tag k="name" v="Flatheim" />
		<tag k="place" v="farm" />
		<tag k="ssr:stedsnr" v="467159" />
	</node>
	<node lat="63.24769473550223" lon="10.438951026487839" id="-49808">
		<tag k="fixme" v="consider place=hamlet" />
		<tag k="name" v="Målsjøen" />
		<tag k="place" v="farm" />
		<tag k="ssr:stedsnr" v="315602" />
	</node>
	<node lat="63.38555833562724" lon="10.370874991430373" id="-49809">
		<tag k="leisure" v="pitch" />
		<tag k="name" v="Selsbakk idrettsplass" />
		<tag k="ssr:stedsnr" v="467249" />
	</node>
	<node lat="63.43536666801174" lon="10.18744444439181" id="-49813">
		<tag k="fixme" v="consider place=hamlet" />
		<tag k="name" v="Sagberget" />
		<tag k="place" v="farm" />
		<tag k="ssr:stedsnr" v="316110" />
	</node>
	<node lat="63.418891669667836" lon="10.10506943803218" id="-49814">
		<tag k="fixme" v="consider place=hamlet" />
		<tag k="name" v="Frøset" />
		<tag k="place" v="farm" />
		<tag k="ssr:stedsnr" v="316114" />
	</node>
	<node lat="63.40638333655601" lon="10.162913888626855" id="-49819">
		<tag k="name" v="Høstadaunet" />
		<tag k="place" v="isolated_dwelling" />
		<tag k="ssr:stedsnr" v="316453" />
	</node>
	<node lat="63.35831388511947" lon="10.116474991012803" id="-49824">
		<tag k="fixme" v="consider place=hamlet" />
		<tag k="name" v="Lykkja" />
		<tag k="place" v="farm" />
		<tag k="ssr:stedsnr" v="316510" />
	</node>
	<node lat="63.36315555150238" lon="10.112766674923382" id="-49825">
		<tag k="alt_name" v="Sjurdsstu;Sjurstu;Steine" />
		<tag k="name" v="Sjursstu" />
		<tag k="old_name" v="Sjurstua" />
		<tag k="place" v="farm" />
		<tag k="ssr:stedsnr" v="316511" />
	</node>
	<node lat="63.40315277406795" lon="10.598874995799205" id="-49828">
		<tag k="fixme" v="consider place=hamlet" />
		<tag k="name" v="Stokkdalen" />
		<tag k="place" v="farm" />
		<tag k="ssr:stedsnr" v="316605" />
	</node>
	<node lat="63.40138611043944" lon="10.58658333849485" id="-49829">
		<tag k="name" v="Søråsen" />
		<tag k="place" v="farm" />
		<tag k="ssr:stedsnr" v="316607" />
	</node>
	<node lat="63.41785475878531" lon="10.547404518075288" id="-49830">
		<tag k="alt_name" v="Reppe nordre;Nordre Reppe" />
		<tag k="name" v="Reppe" />
		<tag k="place" v="farm" />
		<tag k="ssr:stedsnr" v="316646" />
	</node>
	<node lat="63.42240277734595" lon="10.412605550305038" id="-49831">
		<tag k="name" v="Singsaker" />
		<tag k="place" v="suburb" />
		<tag k="ssr:stedsnr" v="316698" />
	</node>
	<node lat="63.34961343732632" lon="10.152436505742667" id="-49837">
		<tag k="name" v="Mule" />
		<tag k="place" v="hamlet" />
		<tag k="ssr:stedsnr" v="316551" />
	</node>
	<node lat="63.298561112298046" lon="10.480213885693567" id="-49841">
		<tag k="name" v="Nordal" />
		<tag k="old_name" v="Norddal" />
		<tag k="place" v="farm" />
		<tag k="ssr:stedsnr" v="467501" />
	</node>
	<node lat="63.451580552482895" lon="10.31021388889443" id="-49843">
		<tag k="name" v="Trolla" />
		<tag k="place" v="quarter" />
		<tag k="ssr:stedsnr" v="317603" />
	</node>
	<node lat="63.3502333298132" lon="10.302000007151392" id="-49845">
		<tag k="fixme" v="consider place=hamlet" />
		<tag k="name" v="Røran" />
		<tag k="place" v="farm" />
		<tag k="ssr:stedsnr" v="317940" />
	</node>
	<node lat="63.347419586346554" lon="10.420756489442907" id="-49846">
		<tag k="alt_name" v="Nordre Tiller;Tiller, nordre;Tiller;Nordgården" />
		<tag k="name" v="Nordtiller" />
		<tag k="place" v="farm" />
		<tag k="ssr:stedsnr" v="317949" />
	</node>
	<node lat="63.39451944325315" lon="10.071036109252885" id="-49848">
		<tag k="name" v="Aunrønningen" />
		<tag k="place" v="farm" />
		<tag k="ssr:stedsnr" v="326819" />
	</node>
	<node lat="63.4282217506361" lon="10.179662067973322" id="-49854">
		<tag k="fixme" v="consider place=hamlet" />
		<tag k="name" v="Onsøya" />
		<tag k="place" v="farm" />
		<tag k="ssr:stedsnr" v="327860" />
	</node>
	<node lat="63.42063888578476" lon="10.108122219791722" id="-49855">
		<tag k="alt_name" v="Frøset østre" />
		<tag k="name" v="Østre Frøset" />
		<tag k="place" v="farm" />
		<tag k="ssr:stedsnr" v="327872" />
	</node>
	<node lat="63.369441663825036" lon="10.112208335943182" id="-49857">
		<tag k="name" v="Langlo" />
		<tag k="place" v="farm" />
		<tag k="ssr:stedsnr" v="327761" />
	</node>
	<node lat="63.38428998700464" lon="10.163893374472604" id="-49860">
		<tag k="alt_name" v="Oppland søre" />
		<tag k="name" v="Søre Oppland" />
		<tag k="place" v="farm" />
		<tag k="ssr:stedsnr" v="327963" />
	</node>
	<node lat="63.37181388983834" lon="10.108541670237768" id="-49861">
		<tag k="name" v="Hagemo" />
		<tag k="place" v="farm" />
		<tag k="ssr:stedsnr" v="327925" />
	</node>
	<node lat="63.39656944499922" lon="10.348419444061536" id="-49872">
		<tag k="name" v="Byåsen" />
		<tag k="place" v="suburb" />
		<tag k="ssr:stedsnr" v="330508" />
	</node>
	<node lat="63.393827773845146" lon="10.249133335604688" id="-49873">
		<tag k="name" v="Moehytta" />
		<tag k="place" v="isolated_dwelling" />
		<tag k="ssr:stedsnr" v="330975" />
	</node>
	<node lat="63.39120056097461" lon="10.220538491237491" id="-49875">
		<tag k="historic" v="shieling" />
		<tag k="name" v="Ristsætra" />
		<tag k="place" v="isolated_dwelling" />
		<tag k="ssr:stedsnr" v="331557" />
	</node>
	<node lat="63.43423611224287" lon="10.4114861091187" id="-49877">
		<tag k="leisure" v="park" />
		<tag k="name" v="Dokkparken" />
		<tag k="ssr:stedsnr" v="331803" />
	</node>
	<node lat="63.265383336027114" lon="10.448230555303084" id="-49880">
		<tag k="name" v="Bomberget" />
		<tag k="place" v="farm" />
		<tag k="ssr:stedsnr" v="341115" />
	</node>
	<node lat="63.25503611313426" lon="10.513952782528728" id="-49881">
		<tag k="alt_name" v="Bergsli" />
		<tag k="name" v="Brøttemsbakken" />
		<tag k="place" v="farm" />
		<tag k="ssr:stedsnr" v="341118" />
	</node>
	<node lat="63.40823332934201" lon="10.427708335675257" id="-49883">
		<tag k="name" v="Midten" />
		<tag k="place" v="farm" />
		<tag k="ssr:stedsnr" v="343113" />
	</node>
	<node lat="63.358830551612115" lon="10.63487778562962" id="-49884">
		<tag k="name" v="Kvernbekkstuggu" />
		<tag k="place" v="isolated_dwelling" />
		<tag k="ssr:stedsnr" v="343097" />
	</node>
	<node lat="63.34767500152376" lon="10.644636108510692" id="-49885">
		<tag k="name" v="Jervplassen" />
		<tag k="place" v="locality" />
		<tag k="ssr:stedsnr" v="343100" />
	</node>
	<node lat="63.43453610782197" lon="10.430061102277483" id="-49886">
		<tag k="name" v="Bakkaunet" />
		<tag k="place" v="quarter" />
		<tag k="ssr:stedsnr" v="343904" />
	</node>
	<node lat="63.368041664002206" lon="10.342802780204039" id="-49887">
		<tag k="name" v="Huseby" />
		<tag k="place" v="quarter" />
		<tag k="ssr:stedsnr" v="343916" />
	</node>
	<node lat="63.37017221895369" lon="10.531658337478666" id="-49888">
		<tag k="name" v="Ulvstubakken" />
		<tag k="place" v="isolated_dwelling" />
		<tag k="ssr:stedsnr" v="344509" />
	</node>
	<node lat="63.43050971288305" lon="10.373483212900144" id="-49890">
		<tag k="amenity" v="school" />
		<tag k="name" v="Steinerskolens videregående skole" />
		<tag k="ssr:stedsnr" v="345007" />
	</node>
	<node lat="63.38381903946364" lon="10.23900176929724" id="-49891">
		<tag k="name" v="Brynhytta" />
		<tag k="place" v="isolated_dwelling" />
		<tag k="ssr:stedsnr" v="345425" />
	</node>
	<node lat="63.36070555886714" lon="10.433666673078092" id="-49913">
		<tag k="name" v="Ekle østre" />
		<tag k="place" v="locality" />
		<tag k="ssr:stedsnr" v="474716" />
	</node>
	<node lat="63.35130277758515" lon="10.414172221674633" id="-49915">
		<tag k="name" v="Tillerlia" />
		<tag k="place" v="farm" />
		<tag k="ssr:stedsnr" v="474144" />
	</node>
	<node lat="63.401256771275825" lon="10.520841927359124" id="-49916">
		<tag k="name" v="Solstad" />
		<tag k="place" v="farm" />
		<tag k="ssr:stedsnr" v="353505" />
	</node>
	<node lat="63.35552778265786" lon="10.44344419255169" id="-49917">
		<tag k="name" v="Aasli" />
		<tag k="place" v="farm" />
		<tag k="ssr:stedsnr" v="474463" />
	</node>
	<node lat="63.331269442061284" lon="10.299805550761054" id="-49918">
		<tag k="amenity" v="school" />
		<tag k="name" v="Nypvang skole" />
		<tag k="ssr:stedsnr" v="353260" />
	</node>
	<node lat="63.32579444156435" lon="10.306727785490107" id="-49919">
		<tag k="name" v="Klett" />
		<tag k="place" v="quarter" />
		<tag k="ssr:stedsnr" v="353267" />
	</node>
	<node lat="63.428194446488526" lon="10.43148889239266" id="-49920">
		<tag k="amenity" v="nursing_home" />
		<tag k="name" v="Tyholt bo- og servicesenter" />
		<tag k="ssr:stedsnr" v="353703" />
	</node>
	<node lat="63.434802780181045" lon="10.404155555029421" id="-49922">
		<tag k="leisure" v="park" />
		<tag k="name" v="Brattørparken" />
		<tag k="ssr:stedsnr" v="353767" />
	</node>
	<node lat="63.40328889115538" lon="10.501927777849744" id="-49923">
		<tag k="alt_name" v="Seterlia" />
		<tag k="name" v="Sæterlia" />
		<tag k="place" v="farm" />
		<tag k="ssr:stedsnr" v="474482" />
	</node>
	<node lat="63.398812408466235" lon="10.521082881910257" id="-49924">
		<tag k="name" v="Solvang" />
		<tag k="place" v="farm" />
		<tag k="ssr:stedsnr" v="474492" />
	</node>
	<node lat="63.3974769788127" lon="10.520555532988665" id="-49926">
		<tag k="alt_name" v="Ostrøen" />
		<tag k="name" v="Ostrøa" />
		<tag k="place" v="farm" />
		<tag k="ssr:stedsnr" v="474558" />
	</node>
	<node lat="63.38907908939623" lon="10.508303362993091" id="-49927">
		<tag k="name" v="Sellanrå" />
		<tag k="place" v="farm" />
		<tag k="ssr:stedsnr" v="474573" />
	</node>
	<node lat="63.389872223477916" lon="10.552663891001405" id="-49928">
		<tag k="name" v="Fagerneset" />
		<tag k="place" v="farm" />
		<tag k="ssr:stedsnr" v="354232" />
	</node>
	<node lat="63.34090000233968" lon="10.427786113047459" id="-49929">
		<tag k="name" v="Erikgården" />
		<tag k="place" v="farm" />
		<tag k="ssr:stedsnr" v="354236" />
	</node>
	<node lat="63.42292265412131" lon="10.127992466741668" id="-49932">
		<tag k="name" v="Bjørvang" />
		<tag k="place" v="farm" />
		<tag k="ssr:stedsnr" v="354607" />
	</node>
	<node lat="63.40066999008344" lon="10.51868084121829" id="-49933">
		<tag k="name" v="Daggry" />
		<tag k="place" v="farm" />
		<tag k="ssr:stedsnr" v="354610" />
	</node>
	<node lat="63.39693499563416" lon="10.528450615635697" id="-49934">
		<tag k="name" v="Einlien" />
		<tag k="place" v="isolated_dwelling" />
		<tag k="ssr:stedsnr" v="354619" />
	</node>
	<node lat="63.403768948021714" lon="10.504904983601461" id="-49935">
		<tag k="name" v="Einhaugen" />
		<tag k="place" v="farm" />
		<tag k="ssr:stedsnr" v="354622" />
	</node>
	<node lat="63.38959444672611" lon="10.507477772332525" id="-49936">
		<tag k="name" v="Fagerhaug" />
		<tag k="place" v="farm" />
		<tag k="ssr:stedsnr" v="354624" />
	</node>
	<node lat="63.41003639645326" lon="10.542966492823666" id="-49937">
		<tag k="name" v="Fjellstua" />
		<tag k="place" v="isolated_dwelling" />
		<tag k="ssr:stedsnr" v="354630" />
	</node>
	<node lat="63.40621666400253" lon="10.50676665913845" id="-49938">
		<tag k="name" v="Fortunalia" />
		<tag k="place" v="isolated_dwelling" />
		<tag k="ssr:stedsnr" v="354635" />
	</node>
	<node lat="63.39874432730935" lon="10.51387103989469" id="-49939">
		<tag k="name" v="Kirkhaugen" />
		<tag k="place" v="isolated_dwelling" />
		<tag k="ssr:stedsnr" v="354518" />
	</node>
	<node lat="63.406512486039055" lon="10.507612094320017" id="-49940">
		<tag k="name" v="Kikut" />
		<tag k="place" v="farm" />
		<tag k="ssr:stedsnr" v="354520" />
	</node>
	<node lat="63.399299999173635" lon="10.521741668501704" id="-49941">
		<tag k="name" v="Alfheim" />
		<tag k="place" v="farm" />
		<tag k="ssr:stedsnr" v="354589" />
	</node>
	<node lat="63.42224722015042" lon="10.548083324807287" id="-49942">
		<tag k="name" v="Sveen" />
		<tag k="place" v="farm" />
		<tag k="ssr:stedsnr" v="354705" />
	</node>
	<node lat="63.363161110441766" lon="10.351291665756383" id="-49947">
		<tag k="amenity" v="school" />
		<tag k="name" v="Saupstad skole" />
		<tag k="ssr:stedsnr" v="474776" />
	</node>
	<node lat="63.380652779973374" lon="10.362897215485525" id="-49948">
		<tag k="alt_name" v="Romulslia skole" />
		<tag k="amenity" v="school" />
		<tag k="name" v="Romolslia skole" />
		<tag k="ssr:stedsnr" v="474779" />
	</node>
	<node lat="63.43005833211088" lon="10.52297222950544" id="-49949">
		<tag k="amenity" v="school" />
		<tag k="name" v="Ranheim skole" />
		<tag k="ssr:stedsnr" v="474781" />
	</node>
	<node lat="63.36638888680965" lon="10.350563890205356" id="-49950">
		<tag k="amenity" v="school" />
		<tag k="name" v="Heimdal videregående skole" />
		<tag k="ssr:stedsnr" v="474806" />
	</node>
	<node lat="63.3704305520663" lon="10.319775001533008" id="-49952">
		<tag k="name" v="Nygårdsvoldheimen" />
		<tag k="place" v="isolated_dwelling" />
		<tag k="ssr:stedsnr" v="475250" />
	</node>
	<node lat="63.359977780792846" lon="10.339347214752694" id="-49958">
		<tag k="leisure" v="pitch" />
		<tag k="name" v="Saupstad skisenter" />
		<tag k="ssr:stedsnr" v="359327" />
	</node>
	<node lat="63.418972221475464" lon="10.54714443965042" id="-49960">
		<tag k="name" v="Ranheimsbakken" />
		<tag k="place" v="farm" />
		<tag k="ssr:stedsnr" v="359363" />
	</node>
	<node lat="63.4333416660284" lon="10.412122213173912" id="-49961">
		<tag k="alt_name" v="Bakke gård" />
		<tag k="fixme" v="consider place=hamlet" />
		<tag k="name" v="Bakke" />
		<tag k="place" v="farm" />
		<tag k="ssr:stedsnr" v="359253" />
	</node>
	<node lat="63.432358331544144" lon="10.56919443874215" id="-49962">
		<tag k="alt_name" v="Være Vestre" />
		<tag k="name" v="Vestre Være" />
		<tag k="place" v="farm" />
		<tag k="ssr:stedsnr" v="475585" />
	</node>
	<node lat="63.4023944454282" lon="10.521063892922308" id="-49963">
		<tag k="name" v="Fredrikkested" />
		<tag k="place" v="farm" />
		<tag k="ssr:stedsnr" v="475651" />
	</node>
	<node lat="63.38928888925991" lon="10.408955547767647" id="-49964">
		<tag k="name" v="Fordal" />
		<tag k="place" v="farm" />
		<tag k="ssr:stedsnr" v="475656" />
	</node>
	<node lat="63.38690714671425" lon="10.514224924519665" id="-49965">
		<tag k="name" v="Edlie" />
		<tag k="place" v="farm" />
		<tag k="ssr:stedsnr" v="476590" />
	</node>
	<node lat="63.37030043880854" lon="10.303832763930073" id="-49966">
		<tag k="name" v="Knaussen" />
		<tag k="place" v="farm" />
		<tag k="ssr:stedsnr" v="476499" />
	</node>
	<node lat="63.45660487271427" lon="10.447786400403249" id="-49968">
		<tag k="name" v="Kvilhaug" />
		<tag k="place" v="farm" />
		<tag k="ssr:stedsnr" v="476513" />
	</node>
	<node lat="63.39079519672168" lon="10.468053206445045" id="-49969">
		<tag k="name" v="Lia" />
		<tag k="place" v="isolated_dwelling" />
		<tag k="ssr:stedsnr" v="476519" />
	</node>
	<node lat="63.45177676570645" lon="10.46527133687776" id="-49970">
		<tag k="name" v="Kariodden" />
		<tag k="place" v="farm" />
		<tag k="ssr:stedsnr" v="476639" />
	</node>
	<node lat="63.40302500317927" lon="10.43505833713453" id="-49973">
		<tag k="fixme" v="consider place=hamlet" />
		<tag k="name" v="Steindal" />
		<tag k="place" v="farm" />
		<tag k="ssr:stedsnr" v="363764" />
	</node>
	<node lat="63.35050277923595" lon="10.440619449213944" id="-49975">
		<tag k="name" v="Rannlia" />
		<tag k="place" v="farm" />
		<tag k="ssr:stedsnr" v="480145" />
	</node>
	<node lat="63.42900277404234" lon="10.440186115142838" id="-49976">
		<tag k="fixme" v="consider place=hamlet" />
		<tag k="name" v="Persaunet" />
		<tag k="place" v="farm" />
		<tag k="ssr:stedsnr" v="480237" />
	</node>
	<node lat="63.41927222607833" lon="10.545919453640632" id="-49977">
		<tag k="name" v="Hildbo" />
		<tag k="place" v="isolated_dwelling" />
		<tag k="ssr:stedsnr" v="480301" />
	</node>
	<node lat="63.42170555623294" lon="10.368194452446723" id="-49978">
		<tag k="name" v="Sverresli" />
		<tag k="place" v="quarter" />
		<tag k="ssr:stedsnr" v="481621" />
	</node>
	<node lat="63.43517461465517" lon="10.44115096018689" id="-49979">
		<tag k="alt_name" v="Rydningen vestre;Vestre Rydningen" />
		<tag k="name" v="Vestre Rønningen" />
		<tag k="place" v="locality" />
		<tag k="ssr:stedsnr" v="482268" />
	</node>
	<node lat="63.44015788574472" lon="10.444675983916268" id="-49980">
		<tag k="name" v="Engstykket" />
		<tag k="place" v="farm" />
		<tag k="ssr:stedsnr" v="482273" />
	</node>
	<node lat="63.402922222862" lon="10.336263897358005" id="-49986">
		<tag k="leisure" v="pitch" />
		<tag k="name" v="Myra ballplass" />
		<tag k="ssr:stedsnr" v="482451" />
	</node>
	<node lat="63.33278333220009" lon="10.43796667383339" id="-49993">
		<tag k="name" v="Nordset" />
		<tag k="place" v="farm" />
		<tag k="ssr:stedsnr" v="385151" />
	</node>
	<node lat="63.41246420847054" lon="10.470204429961568" id="-49994">
		<tag k="name" v="Bergly" />
		<tag k="place" v="isolated_dwelling" />
		<tag k="ssr:stedsnr" v="482786" />
	</node>
	<node lat="63.41029167097878" lon="10.463641658668964" id="-49996">
		<tag k="name" v="Sæterstua" />
		<tag k="place" v="farm" />
		<tag k="ssr:stedsnr" v="482797" />
	</node>
	<node lat="63.41886389260038" lon="10.138538896136234" id="-49998">
		<tag k="alt_name" v="Bakken nordre" />
		<tag k="name" v="Nordre Bakken" />
		<tag k="place" v="farm" />
		<tag k="ssr:stedsnr" v="387902" />
	</node>
	<node lat="63.37163610789061" lon="10.163425008217994" id="-50003">
		<tag k="name" v="Litlmyr" />
		<tag k="place" v="farm" />
		<tag k="ssr:stedsnr" v="387977" />
	</node>
	<node lat="63.34713611003797" lon="10.150116668765577" id="-50004">
		<tag k="name" v="Tørrisgarden" />
		<tag k="place" v="farm" />
		<tag k="ssr:stedsnr" v="387846" />
	</node>
	<node lat="63.347616662993296" lon="10.16114166796674" id="-50005">
		<tag k="name" v="Tangan" />
		<tag k="place" v="farm" />
		<tag k="ssr:stedsnr" v="387848" />
	</node>
	<node lat="63.42448889281689" lon="10.158641671944737" id="-50006">
		<tag k="fixme" v="consider place=hamlet" />
		<tag k="name" v="Rye" />
		<tag k="place" v="farm" />
		<tag k="ssr:stedsnr" v="387895" />
	</node>
	<node lat="63.41093700246331" lon="10.478337870994384" id="-50009">
		<tag k="name" v="Stokkmo" />
		<tag k="place" v="isolated_dwelling" />
		<tag k="ssr:stedsnr" v="483286" />
	</node>
	<node lat="63.41897859480767" lon="10.529046741992264" id="-50019">
		<tag k="name" v="Rydningsdalen" />
		<tag k="place" v="farm" />
		<tag k="ssr:stedsnr" v="483444" />
	</node>
	<node lat="63.34590277897861" lon="10.474216666763615" id="-50020">
		<tag k="name" v="Kvålstrøa" />
		<tag k="place" v="farm" />
		<tag k="ssr:stedsnr" v="483528" />
	</node>
	<node lat="63.42349722470402" lon="10.358080558609073" id="-50026">
		<tag k="name" v="Hammersborg" />
		<tag k="place" v="quarter" />
		<tag k="ssr:stedsnr" v="483786" />
	</node>
	<node lat="63.42459166418975" lon="10.360174994443696" id="-50027">
		<tag k="name" v="Marienberg" />
		<tag k="place" v="farm" />
		<tag k="ssr:stedsnr" v="483788" />
	</node>
	<node lat="63.3253361085146" lon="10.330069445816926" id="-50031">
		<tag k="name" v="Storler" />
		<tag k="place" v="farm" />
		<tag k="ssr:stedsnr" v="484001" />
	</node>
	<node lat="63.38585431297096" lon="10.390512389283854" id="-50033">
		<tag k="name" v="Wiglyst" />
		<tag k="place" v="isolated_dwelling" />
		<tag k="ssr:stedsnr" v="484736" />
	</node>
	<node lat="63.38568201964467" lon="10.392371012791202" id="-50034">
		<tag k="name" v="Brushytta" />
		<tag k="place" v="isolated_dwelling" />
		<tag k="ssr:stedsnr" v="484737" />
	</node>
	<node lat="63.27934722456671" lon="10.436663891027887" id="-50036">
		<tag k="name" v="Lappen" />
		<tag k="place" v="hamlet" />
		<tag k="ssr:stedsnr" v="403907" />
	</node>
	<node lat="63.40145833164964" lon="10.361222229394832" id="-50038">
		<tag k="fixme" v="consider place=hamlet" />
		<tag k="name" v="Munkvoll" />
		<tag k="place" v="farm" />
		<tag k="ssr:stedsnr" v="485748" />
	</node>
	<node lat="63.39993055269187" lon="10.466455559350537" id="-50039">
		<tag k="name" v="Roaldli" />
		<tag k="place" v="farm" />
		<tag k="ssr:stedsnr" v="404582" />
	</node>
	<node lat="63.39991843936081" lon="10.467734096325689" id="-50040">
		<tag k="name" v="Gerdahaug" />
		<tag k="place" v="farm" />
		<tag k="ssr:stedsnr" v="404586" />
	</node>
	<node lat="63.33535208761008" lon="10.34127434136948" id="-50041">
		<tag k="name" v="Heggstadflata" />
		<tag k="place" v="farm" />
		<tag k="ssr:stedsnr" v="404707" />
	</node>
	<node lat="63.38063086148107" lon="10.437258567510632" id="-50042">
		<tag k="fixme" v="consider place=hamlet" />
		<tag k="name" v="Blekkan" />
		<tag k="place" v="farm" />
		<tag k="ssr:stedsnr" v="485751" />
	</node>
	<node lat="63.355369440991524" lon="10.344611110187094" id="-50043">
		<tag k="name" v="Klokkstein" />
		<tag k="place" v="farm" />
		<tag k="ssr:stedsnr" v="404444" />
	</node>
	<node lat="63.37588611242596" lon="10.419141663397957" id="-50044">
		<tag k="name" v="Storhaugen" />
		<tag k="place" v="farm" />
		<tag k="ssr:stedsnr" v="404486" />
	</node>
	<node lat="63.39633199292226" lon="10.470916826980638" id="-50045">
		<tag k="name" v="Sæteråsen" />
		<tag k="place" v="isolated_dwelling" />
		<tag k="ssr:stedsnr" v="404606" />
	</node>
	<node lat="63.4044638855201" lon="10.417569450894899" id="-50046">
		<tag k="name" v="Nardosletta" />
		<tag k="place" v="quarter" />
		<tag k="ssr:stedsnr" v="404904" />
	</node>
	<node lat="63.42136388904039" lon="10.525916663342981" id="-50047">
		<tag k="name" v="Olderdalen" />
		<tag k="place" v="quarter" />
		<tag k="ssr:stedsnr" v="404906" />
	</node>
	<node lat="63.42451111137508" lon="10.161408335650096" id="-50048">
		<tag k="fixme" v="consider place=hamlet" />
		<tag k="name" v="Rye" />
		<tag k="place" v="farm" />
		<tag k="ssr:stedsnr" v="485959" />
	</node>
	<node lat="63.40381386016161" lon="10.345724139887036" id="-50051">
		<tag k="name" v="Ferstadhaugen" />
		<tag k="place" v="farm" />
		<tag k="ssr:stedsnr" v="406245" />
	</node>
	<node lat="63.37664721913753" lon="10.435441659343008" id="-50052">
		<tag k="name" v="Kvamshaugen" />
		<tag k="place" v="farm" />
		<tag k="ssr:stedsnr" v="406572" />
	</node>
	<node lat="63.33806741571418" lon="10.319901680049167" id="-50059">
		<tag k="alt_name" v="Ust vestre" />
		<tag k="fixme" v="consider place=hamlet" />
		<tag k="name" v="Vestre Ust" />
		<tag k="place" v="farm" />
		<tag k="ssr:stedsnr" v="414139" />
	</node>
	<node lat="63.38967793215309" lon="10.508886311340657" id="-50063">
		<tag k="alt_name" v="Solflaten" />
		<tag k="name" v="Solflata" />
		<tag k="place" v="farm" />
		<tag k="ssr:stedsnr" v="414494" />
	</node>
	<node lat="63.40240277620833" lon="10.469686107461632" id="-50064">
		<tag k="name" v="Haugen" />
		<tag k="place" v="farm" />
		<tag k="ssr:stedsnr" v="414646" />
	</node>
	<node lat="63.42746111456943" lon="10.376202770078852" id="-50065">
		<tag k="amenity" v="sports_centre" />
		<tag k="name" v="Nidarøhallen" />
		<tag k="ssr:stedsnr" v="414691" />
	</node>
	<node lat="63.351747225871684" lon="10.391008341498624" id="-50067">
		<tag k="name" v="Hårstad" />
		<tag k="place" v="locality" />
		<tag k="ssr:stedsnr" v="414701" />
	</node>
	<node lat="63.42916388738237" lon="10.395022226413705" id="-50068">
		<tag k="amenity" v="townhall" />
		<tag k="name" v="Fylkeshuset" />
		<tag k="ssr:stedsnr" v="414711" />
	</node>
	<node lat="63.391472222011416" lon="10.299786103675341" id="-50072">
		<tag k="name" v="Søndre Våddan" />
		<tag k="place" v="farm" />
		<tag k="ssr:stedsnr" v="415437" />
	</node>
	<node lat="63.41325833487562" lon="10.490994439812924" id="-50074">
		<tag k="alt_name" v="Jakobsli Vestre" />
		<tag k="name" v="Vestre Jakobsli" />
		<tag k="place" v="farm" />
		<tag k="ssr:stedsnr" v="415698" />
	</node>
	<node lat="63.394816666719535" lon="10.465274990297113" id="-50075">
		<tag k="alt_name" v="Steinmarken" />
		<tag k="name" v="Steinmarka" />
		<tag k="place" v="farm" />
		<tag k="ssr:stedsnr" v="415740" />
	</node>
	<node lat="63.4076833311306" lon="10.45453611338018" id="-50076">
		<tag k="name" v="Sommerli" />
		<tag k="place" v="farm" />
		<tag k="ssr:stedsnr" v="415744" />
	</node>
	<node lat="63.42023333786568" lon="10.390441657633625" id="-50080">
		<tag k="amenity" v="school" />
		<tag k="name" v="Skolen St. Olavs hospital" />
		<tag k="ssr:stedsnr" v="421611" />
	</node>
	<node lat="63.410247220142736" lon="10.44527222852171" id="-50081">
		<tag k="name" v="Fokstua" />
		<tag k="place" v="isolated_dwelling" />
		<tag k="ssr:stedsnr" v="422049" />
	</node>
	<node lat="63.42376389042165" lon="10.40026945087098" id="-50082">
		<tag k="name" v="Bekkosen" />
		<tag k="place" v="isolated_dwelling" />
		<tag k="ssr:stedsnr" v="422291" />
	</node>
	<node lat="63.410899997854116" lon="10.351697226149861" id="-50084">
		<tag k="name" v="Nyborg" />
		<tag k="place" v="quarter" />
		<tag k="ssr:stedsnr" v="423208" />
	</node>
	<node lat="63.412430715567254" lon="10.474209964954127" id="-50087">
		<tag k="name" v="Ramstad" />
		<tag k="place" v="isolated_dwelling" />
		<tag k="ssr:stedsnr" v="423197" />
	</node>
	<node lat="63.430763885028206" lon="10.435563890336901" id="-50088">
		<tag k="landuse" v="military" />
		<tag k="name" v="Kuhaugen leir" />
		<tag k="ssr:stedsnr" v="423501" />
	</node>
	<node lat="63.332066668993235" lon="10.341725003096958" id="-50090">
		<tag k="name" v="Espaunet" />
		<tag k="place" v="farm" />
		<tag k="ssr:stedsnr" v="423723" />
	</node>
	<node lat="63.367913892103246" lon="10.369694452807481" id="-50092">
		<tag k="fixme" v="consider place=hamlet" />
		<tag k="name" v="Rosta" />
		<tag k="place" v="farm" />
		<tag k="ssr:stedsnr" v="424502" />
	</node>
	<node lat="63.400541663499396" lon="10.41297221531214" id="-50093">
		<tag k="fixme" v="consider place=hamlet" />
		<tag k="name" v="Margrethelyst" />
		<tag k="old_name" v="Margretelyst" />
		<tag k="place" v="farm" />
		<tag k="ssr:stedsnr" v="424803" />
	</node>
	<node lat="63.33797499788447" lon="10.41432222415295" id="-50096">
		<tag k="fixme" v="multiple name tags, choose one and add the other to alt_name" />
		<tag k="name" v="Tillerbakken;Kolobakken" />
		<tag k="place" v="farm" />
		<tag k="ssr:stedsnr" v="437902" />
	</node>
	<node lat="63.3907027780331" lon="10.076127774696072" id="-50099">
		<tag k="fixme" v="consider place=hamlet" />
		<tag k="name" v="Aunet" />
		<tag k="place" v="farm" />
		<tag k="ssr:stedsnr" v="438368" />
	</node>
	<node lat="63.29333889171957" lon="10.544133328695596" id="-50105">
		<tag k="name" v="Hallsetvollen" />
		<tag k="place" v="isolated_dwelling" />
		<tag k="ssr:stedsnr" v="438810" />
	</node>
	<node lat="63.3157138880288" lon="10.327808337794908" id="-50106">
		<tag k="fixme" v="consider place=hamlet" />
		<tag k="name" v="Asgarden" />
		<tag k="place" v="farm" />
		<tag k="ssr:stedsnr" v="438862" />
	</node>
	<node lat="63.31769166301172" lon="10.310391674941052" id="-50107">
		<tag k="fixme" v="consider place=hamlet" />
		<tag k="name" v="Sørnypan" />
		<tag k="place" v="farm" />
		<tag k="ssr:stedsnr" v="438863" />
	</node>
	<node lat="63.34834895496327" lon="10.28064149823857" id="-50109">
		<tag k="name" v="Skjefstadmelen" />
		<tag k="place" v="farm" />
		<tag k="ssr:stedsnr" v="438958" />
	</node>
	<node lat="63.345447221907726" lon="10.332574998125683" id="-50111">
		<tag k="fixme" v="consider place=suburb, village or hamlet" />
		<tag k="name" v="Kattem" />
		<tag k="place" v="quarter" />
		<tag k="ssr:stedsnr" v="444331" />
	</node>
	<node lat="63.28987777984572" lon="10.441774990904513" id="-50112">
		<tag k="fixme" v="multiple name tags, choose one and add the other to alt_name" />
		<tag k="name" v="Midtre Tulluan;Midtigården" />
		<tag k="place" v="farm" />
		<tag k="ssr:stedsnr" v="446176" />
	</node>
	<node lat="63.369730558762384" lon="10.14889999814851" id="-50114">
		<tag k="name" v="Høyemsvollen" />
		<tag k="place" v="farm" />
		<tag k="ssr:stedsnr" v="448077" />
	</node>
	<node lat="63.4246833366297" lon="10.145108332876632" id="-50115">
		<tag k="name" v="Rønningen" />
		<tag k="place" v="farm" />
		<tag k="ssr:stedsnr" v="448087" />
	</node>
	<node lat="63.37659444415261" lon="10.095916666937375" id="-50116">
		<tag k="name" v="Brønnelplassen" />
		<tag k="place" v="farm" />
		<tag k="ssr:stedsnr" v="448837" />
	</node>
	<node lat="63.35541666634228" lon="10.13445277631683" id="-50119">
		<tag k="name" v="Prestgarden" />
		<tag k="place" v="farm" />
		<tag k="ssr:stedsnr" v="448886" />
	</node>
	<node lat="63.42447499863871" lon="10.14249166966385" id="-50121">
		<tag k="name" v="Bekken" />
		<tag k="place" v="farm" />
		<tag k="ssr:stedsnr" v="448902" />
	</node>
	<node lat="63.36050000018778" lon="10.275574997203805" id="-50134">
		<tag k="name" v="Trømoen" />
		<tag k="place" v="farm" />
		<tag k="ssr:stedsnr" v="452265" />
	</node>
	<node lat="63.33714444463069" lon="10.351488894959745" id="-50142">
		<tag k="name" v="Heggstadmoen" />
		<tag k="place" v="quarter" />
		<tag k="ssr:stedsnr" v="457427" />
	</node>
	<node lat="63.33532222595167" lon="10.363869451653482" id="-50144">
		<tag k="name" v="Sandmoen" />
		<tag k="place" v="quarter" />
		<tag k="ssr:stedsnr" v="464463" />
	</node>
	<node lat="63.37564166739255" lon="10.438072214054952" id="-50149">
		<tag k="leisure" v="pitch" />
		<tag k="name" v="Oppstrinda idrettsplass" />
		<tag k="ssr:stedsnr" v="465502" />
	</node>
	<node lat="63.37735350238798" lon="10.349140544517786" id="-50151">
		<tag k="name" v="Hagetun" />
		<tag k="place" v="isolated_dwelling" />
		<tag k="ssr:stedsnr" v="466985" />
	</node>
	<node lat="63.322438892121255" lon="10.4167861209104" id="-50160">
		<tag k="name" v="Nideng" />
		<tag k="place" v="farm" />
		<tag k="ssr:stedsnr" v="467381" />
	</node>
	<node lat="63.299091664555235" lon="10.472361104037594" id="-50161">
		<tag k="name" v="Bjørklund" />
		<tag k="place" v="quarter" />
		<tag k="ssr:stedsnr" v="467503" />
	</node>
	<node lat="63.35928333421655" lon="10.405927781629128" id="-50163">
		<tag k="name" v="Sjetnan" />
		<tag k="place" v="hamlet" />
		<tag k="ssr:stedsnr" v="469066" />
	</node>
	<node lat="63.40044899924935" lon="10.517766218964777" id="-50165">
		<tag k="name" v="Solhaug" />
		<tag k="place" v="farm" />
		<tag k="ssr:stedsnr" v="474503" />
	</node>
	<node lat="63.36967153954696" lon="10.306401568855284" id="-50166">
		<tag k="name" v="Solheim" />
		<tag k="place" v="farm" />
		<tag k="ssr:stedsnr" v="474507" />
	</node>
	<node lat="63.335897226536865" lon="10.337127777584481" id="-50168">
		<tag k="fixme" v="multiple name tags, choose one and add the other to alt_name" />
		<tag k="name" v="Heggstadlia;Nordre Heggstad" />
		<tag k="place" v="farm" />
		<tag k="ssr:stedsnr" v="475160" />
	</node>
	<node lat="63.41498055169278" lon="10.55015554941832" id="-50171">
		<tag k="alt_name" v="Reppe søndre" />
		<tag k="name" v="Søndre Reppe" />
		<tag k="place" v="farm" />
		<tag k="ssr:stedsnr" v="475663" />
	</node>
	<node lat="63.41187500160854" lon="10.582255563141807" id="-50173">
		<tag k="name" v="Korset" />
		<tag k="place" v="locality" />
		<tag k="ssr:stedsnr" v="476234" />
	</node>
	<node lat="63.40407011776797" lon="10.508089114845589" id="-50174">
		<tag k="name" v="Fortunahaugen" />
		<tag k="place" v="farm" />
		<tag k="ssr:stedsnr" v="476604" />
	</node>
	<node lat="63.39332935273117" lon="10.510598938351954" id="-50175">
		<tag k="name" v="Furua" />
		<tag k="place" v="farm" />
		<tag k="ssr:stedsnr" v="476607" />
	</node>
	<node lat="63.35500548748848" lon="10.443859939284692" id="-50176">
		<tag k="name" v="Granli" />
		<tag k="place" v="isolated_dwelling" />
		<tag k="ssr:stedsnr" v="476612" />
	</node>
	<node lat="63.42789114652465" lon="10.574223432907228" id="-50177">
		<tag k="name" v="Grindvold" />
		<tag k="place" v="farm" />
		<tag k="ssr:stedsnr" v="476615" />
	</node>
	<node lat="63.3720334590261" lon="10.427835129477645" id="-50178">
		<tag k="name" v="Grindheim" />
		<tag k="place" v="farm" />
		<tag k="ssr:stedsnr" v="476617" />
	</node>
	<node lat="63.390580436066344" lon="10.50988704280679" id="-50179">
		<tag k="name" v="Haugen" />
		<tag k="place" v="farm" />
		<tag k="ssr:stedsnr" v="476624" />
	</node>
	<node lat="63.39026499006679" lon="10.510166176384615" id="-50180">
		<tag k="name" v="Haugtun" />
		<tag k="place" v="farm" />
		<tag k="ssr:stedsnr" v="476627" />
	</node>
	<node lat="63.38391455286527" lon="10.430434217792927" id="-50181">
		<tag k="name" v="Haugen" />
		<tag k="place" v="farm" />
		<tag k="ssr:stedsnr" v="476628" />
	</node>
	<node lat="63.39908111710406" lon="10.514428055284768" id="-50182">
		<tag k="name" v="Heimen" />
		<tag k="place" v="farm" />
		<tag k="ssr:stedsnr" v="476629" />
	</node>
	<node lat="63.43028055878327" lon="10.51556666133445" id="-50183">
		<tag k="name" v="Amalienborg" />
		<tag k="place" v="isolated_dwelling" />
		<tag k="ssr:stedsnr" v="476562" />
	</node>
	<node lat="63.394361109487484" lon="10.514975008170893" id="-50184">
		<tag k="name" v="Bjørkhaug" />
		<tag k="place" v="farm" />
		<tag k="ssr:stedsnr" v="476571" />
	</node>
	<node lat="63.45588611406511" lon="10.449380547269536" id="-50185">
		<tag k="name" v="Birkehaug" />
		<tag k="place" v="isolated_dwelling" />
		<tag k="ssr:stedsnr" v="476572" />
	</node>
	<node lat="63.39847728836398" lon="10.513183939766323" id="-50186">
		<tag k="name" v="Blåsenborg" />
		<tag k="place" v="farm" />
		<tag k="ssr:stedsnr" v="476575" />
	</node>
	<node lat="63.362377774039835" lon="10.546861112911788" id="-50187">
		<tag k="fixme" v="consider place=hamlet" />
		<tag k="name" v="Digresaunet" />
		<tag k="place" v="farm" />
		<tag k="ssr:stedsnr" v="480109" />
	</node>
	<node lat="63.41980277812219" lon="10.53092221547423" id="-50189">
		<tag k="name" v="Fagrabrekka" />
		<tag k="place" v="farm" />
		<tag k="ssr:stedsnr" v="480317" />
	</node>
	<node lat="63.420233333939954" lon="10.543447214103752" id="-50190">
		<tag k="name" v="Ranheimstrøa" />
		<tag k="place" v="isolated_dwelling" />
		<tag k="ssr:stedsnr" v="480256" />
	</node>
	<node lat="63.4012416662002" lon="10.396569439198377" id="-50191">
		<tag k="building" v="commercial" />
		<tag k="name" v="Siemens Norge" />
		<tag k="ssr:stedsnr" v="480465" />
	</node>
	<node lat="63.43893333257143" lon="10.485691659122534" id="-50192">
		<tag k="amenity" v="school" />
		<tag k="name" v="Steinerskolen på Rotvoll" />
		<tag k="ssr:stedsnr" v="481611" />
	</node>
	<node lat="63.42928333504204" lon="10.413927785088996" id="-50193">
		<tag k="amenity" v="school" />
		<tag k="name" v="Trondheim international school" />
		<tag k="ssr:stedsnr" v="481618" />
	</node>
	<node lat="63.41414671291446" lon="10.484386068711165" id="-50194">
		<tag k="name" v="Regnbuen" />
		<tag k="place" v="farm" />
		<tag k="ssr:stedsnr" v="482168" />
	</node>
	<node lat="63.39316110912927" lon="10.362491676054107" id="-50196">
		<tag k="name" v="Vestre Hallsetvangen" />
		<tag k="place" v="neighbourhood" />
		<tag k="ssr:stedsnr" v="482467" />
	</node>
	<node lat="63.4152249973324" lon="10.45167500004707" id="-50198">
		<tag k="alt_name" v="Teglverktunet" />
		<tag k="name" v="Teglverkstunet" />
		<tag k="place" v="quarter" />
		<tag k="ssr:stedsnr" v="482616" />
	</node>
	<node lat="63.39603055396164" lon="10.4134500008365" id="-50203">
		<tag k="name" v="Stubban" />
		<tag k="place" v="farm" />
		<tag k="ssr:stedsnr" v="485904" />
	</node>
	<node lat="63.34898333730224" lon="10.338416664632613" id="-50205">
		<tag k="alt_name" v="Ustmyra søre" />
		<tag k="name" v="Søre Ustmyra" />
		<tag k="place" v="farm" />
		<tag k="ssr:stedsnr" v="485907" />
	</node>
	<node lat="63.44741666455452" lon="10.454066657603295" id="-50208">
		<tag k="fixme" v="consider place=hamlet" />
		<tag k="name" v="Ringve" />
		<tag k="place" v="farm" />
		<tag k="ssr:stedsnr" v="680698" />
	</node>
	<node lat="63.391172219393965" lon="10.130480551301469" id="-50209">
		<tag k="alt_name" v="Tømmermannsstu" />
		<tag k="name" v="Hovstad" />
		<tag k="place" v="farm" />
		<tag k="ssr:stedsnr" v="680475" />
	</node>
	<node lat="63.390869442727016" lon="10.132588885407563" id="-50210">
		<tag k="alt_name" v="Pershaugen" />
		<tag k="name" v="Hovseng" />
		<tag k="place" v="farm" />
		<tag k="ssr:stedsnr" v="680476" />
	</node>
	<node lat="63.35772777397273" lon="10.186958335138433" id="-50211">
		<tag k="name" v="Bråtrøa" />
		<tag k="place" v="farm" />
		<tag k="ssr:stedsnr" v="680480" />
	</node>
	<node lat="63.36224444673447" lon="10.154855545941668" id="-50212">
		<tag k="fixme" v="consider place=hamlet" />
		<tag k="name" v="Haug" />
		<tag k="place" v="farm" />
		<tag k="ssr:stedsnr" v="680486" />
	</node>
	<node lat="63.37291666730937" lon="10.54012500836119" id="-50215">
		<tag k="name" v="Engelsåslykkja" />
		<tag k="place" v="farm" />
		<tag k="ssr:stedsnr" v="680594" />
	</node>
	<node lat="63.39234166324906" lon="10.401538891345401" id="-50217">
		<tag k="fixme" v="consider place=hamlet" />
		<tag k="name" v="Horneberg" />
		<tag k="old_name" v="Stubban" />
		<tag k="place" v="farm" />
		<tag k="ssr:stedsnr" v="680642" />
	</node>
	<node lat="63.33158610891342" lon="10.263611109063715" id="-50224">
		<tag k="name" v="Motrøa" />
		<tag k="place" v="farm" />
		<tag k="ssr:stedsnr" v="680929" />
	</node>
	<node lat="63.332936107593746" lon="10.437725005713668" id="-50225">
		<tag k="fixme" v="consider place=hamlet" />
		<tag k="name" v="Nordset" />
		<tag k="place" v="farm" />
		<tag k="ssr:stedsnr" v="680941" />
	</node>
	<node lat="63.32929167059307" lon="10.340855563428532" id="-50226">
		<tag k="name" v="Lersbakken" />
		<tag k="place" v="farm" />
		<tag k="ssr:stedsnr" v="680947" />
	</node>
	<node lat="63.336322224578055" lon="10.376441670619048" id="-50227">
		<tag k="name" v="Løvåsen" />
		<tag k="place" v="farm" />
		<tag k="ssr:stedsnr" v="680949" />
	</node>
	<node lat="63.336550892043746" lon="10.338566219912224" id="-50228">
		<tag k="name" v="Heggstad" />
		<tag k="place" v="hamlet" />
		<tag k="ssr:stedsnr" v="680951" />
	</node>
	<node lat="63.35553381451369" lon="10.331407429757208" id="-50231">
		<tag k="fixme" v="consider place=hamlet" />
		<tag k="name" v="Østre Lund" />
		<tag k="place" v="farm" />
		<tag k="ssr:stedsnr" v="680998" />
	</node>
	<node lat="63.30861111352972" lon="10.308722218051864" id="-50233">
		<tag k="alt_name" v="Hjellhaugen" />
		<tag k="name" v="Hjellen" />
		<tag k="place" v="farm" />
		<tag k="ssr:stedsnr" v="681137" />
	</node>
	<node lat="63.43446944146793" lon="10.165558323237883" id="-50234">
		<tag k="fixme" v="consider place=hamlet" />
		<tag k="name" v="Klefstad" />
		<tag k="place" v="farm" />
		<tag k="ssr:stedsnr" v="498110" />
	</node>
	<node lat="63.41419999953473" lon="10.1579250096056" id="-50236">
		<tag k="fixme" v="consider place=hamlet" />
		<tag k="name" v="Bosbergaunet" />
		<tag k="place" v="farm" />
		<tag k="ssr:stedsnr" v="498141" />
	</node>
	<node lat="63.25557297604701" lon="10.438275743062263" id="-50238">
		<tag k="name" v="Tovåsen" />
		<tag k="place" v="farm" />
		<tag k="ssr:stedsnr" v="498243" />
	</node>
	<node lat="63.39266944649481" lon="10.1630027743169" id="-50241">
		<tag k="fixme" v="consider place=hamlet" />
		<tag k="name" v="Kviset" />
		<tag k="place" v="farm" />
		<tag k="ssr:stedsnr" v="498447" />
	</node>
	<node lat="63.37079908289835" lon="10.17538790205221" id="-50242">
		<tag k="name" v="Myrsundet" />
		<tag k="place" v="farm" />
		<tag k="ssr:stedsnr" v="498509" />
	</node>
	<node lat="63.36777499698628" lon="10.146977781077616" id="-50243">
		<tag k="name" v="Rabben" />
		<tag k="place" v="farm" />
		<tag k="ssr:stedsnr" v="498514" />
	</node>
	<node lat="63.383402776885575" lon="10.127894438114858" id="-50245">
		<tag k="alt_name" v="Einum" />
		<tag k="name" v="Einan" />
		<tag k="place" v="farm" />
		<tag k="ssr:stedsnr" v="498493" />
	</node>
	<node lat="63.3859249969058" lon="10.163166666360867" id="-50246">
		<tag k="name" v="Vollahaugen" />
		<tag k="place" v="farm" />
		<tag k="ssr:stedsnr" v="498495" />
	</node>
	<node lat="63.35891388844081" lon="10.115438897181503" id="-50247">
		<tag k="alt_name" v="Steine" />
		<tag k="name" v="Lykkja" />
		<tag k="place" v="farm" />
		<tag k="ssr:stedsnr" v="498501" />
	</node>
	<node lat="63.413369445529405" lon="10.501033340477285" id="-50248">
		<tag k="name" v="Jakobsli" />
		<tag k="place" v="farm" />
		<tag k="ssr:stedsnr" v="498658" />
	</node>
	<node lat="63.414555557194205" lon="10.508486121168009" id="-50249">
		<tag k="fixme" v="consider place=hamlet" />
		<tag k="name" v="Teslia" />
		<tag k="place" v="farm" />
		<tag k="ssr:stedsnr" v="498660" />
	</node>
	<node lat="63.33981389250942" lon="10.47196666989604" id="-50252">
		<tag k="alt_name" v="Ytterugla" />
		<tag k="name" v="Ugla" />
		<tag k="place" v="farm" />
		<tag k="ssr:stedsnr" v="498948" />
	</node>
	<node lat="63.36082777707609" lon="10.55721389132799" id="-50253">
		<tag k="fixme" v="consider place=hamlet" />
		<tag k="name" v="Løkkstad" />
		<tag k="place" v="farm" />
		<tag k="ssr:stedsnr" v="498986" />
	</node>
	<node lat="63.3199782854317" lon="10.47305618730816" id="-50257">
		<tag k="alt_name" v="Øver-Vangsmoen" />
		<tag k="name" v="Vangsmo" />
		<tag k="place" v="farm" />
		<tag k="ssr:stedsnr" v="498893" />
	</node>
	<node lat="63.32343827376235" lon="10.508088413774594" id="-50258">
		<tag k="fixme" v="consider place=hamlet" />
		<tag k="name" v="Solem" />
		<tag k="place" v="farm" />
		<tag k="ssr:stedsnr" v="498898" />
	</node>
	<node lat="63.31812500115951" lon="10.287274994126827" id="-50260">
		<tag k="fixme" v="consider place=hamlet" />
		<tag k="name" v="Stavsengan" />
		<tag k="place" v="farm" />
		<tag k="ssr:stedsnr" v="499846" />
	</node>
	<node lat="63.26803333747875" lon="10.5336222171009" id="-50265">
		<tag k="name" v="Solhaug" />
		<tag k="place" v="farm" />
		<tag k="ssr:stedsnr" v="681767" />
	</node>
	<node lat="63.452038884483876" lon="10.231333328710909" id="-50267">
		<tag k="name" v="Folafoten" />
		<tag k="place" v="farm" />
		<tag k="ssr:stedsnr" v="681721" />
	</node>
	<node lat="63.36139999665125" lon="10.390555558804632" id="-50268">
		<tag k="fixme" v="consider place=suburb, village or hamlet" />
		<tag k="name" v="Tillerbyen" />
		<tag k="old_name" v="Heimdalsbyen" />
		<tag k="place" v="quarter" />
		<tag k="ssr:stedsnr" v="505365" />
	</node>
	<node lat="63.35279166380833" lon="10.192288882651804" id="-50272">
		<tag k="name" v="Brånestingen" />
		<tag k="old_name" v="Brånestigen" />
		<tag k="place" v="farm" />
		<tag k="ssr:stedsnr" v="508893" />
	</node>
	<node lat="63.42361230168806" lon="10.127475570524625" id="-50274">
		<tag k="name" v="Snekkarplassen" />
		<tag k="place" v="isolated_dwelling" />
		<tag k="ssr:stedsnr" v="508903" />
	</node>
	<node lat="63.423927777613144" lon="10.128130551246004" id="-50275">
		<tag k="name" v="Marka" />
		<tag k="place" v="isolated_dwelling" />
		<tag k="ssr:stedsnr" v="508904" />
	</node>
	<node lat="63.395724995830626" lon="10.329463897891438" id="-50279">
		<tag k="name" v="Lianvasshaugen" />
		<tag k="place" v="locality" />
		<tag k="ssr:stedsnr" v="509188" />
	</node>
	<node lat="63.34611666658927" lon="10.172241672845466" id="-50282">
		<tag k="name" v="Salmakerrønningen" />
		<tag k="place" v="farm" />
		<tag k="ssr:stedsnr" v="509963" />
	</node>
	<node lat="63.38755833019875" lon="10.326244438951836" id="-50290">
		<tag k="alt_name" v="Ytre Stolpstua" />
		<tag k="name" v="Rønningstad" />
		<tag k="place" v="isolated_dwelling" />
		<tag k="ssr:stedsnr" v="513266" />
	</node>
	<node lat="63.37895974410535" lon="10.190891574213703" id="-50297">
		<tag k="leisure" v="pitch" />
		<tag k="name" v="Skardbakken" />
		<tag k="ssr:stedsnr" v="513876" />
	</node>
	<node lat="63.19602500280116" lon="10.577355546152326" id="-50300">
		<tag k="name" v="Sæterheim" />
		<tag k="place" v="isolated_dwelling" />
		<tag k="ssr:stedsnr" v="523814" />
	</node>
	<node lat="63.39107667572909" lon="10.328772776633922" id="-50302">
		<tag k="name" v="Åsheim" />
		<tag k="place" v="isolated_dwelling" />
		<tag k="ssr:stedsnr" v="525002" />
	</node>
	<node lat="63.43224444179281" lon="10.410405561466233" id="-50303">
		<tag k="fixme" v="consider place=suburb, village or hamlet" />
		<tag k="name" v="Kirkesletta" />
		<tag k="old_name" v="Kirkesletten" />
		<tag k="place" v="quarter" />
		<tag k="ssr:stedsnr" v="525017" />
	</node>
	<node lat="63.39541666485611" lon="10.46632778199237" id="-50304">
		<tag k="name" v="Lauvheim" />
		<tag k="place" v="isolated_dwelling" />
		<tag k="ssr:stedsnr" v="525625" />
	</node>
	<node lat="63.34677500297442" lon="10.599019452643798" id="-50306">
		<tag k="name" v="Gammelgården" />
		<tag k="place" v="locality" />
		<tag k="ssr:stedsnr" v="526106" />
	</node>
	<node lat="63.34377222020955" lon="10.344547214903123" id="-50310">
		<tag k="name" v="Kattemstrøa" />
		<tag k="place" v="farm" />
		<tag k="ssr:stedsnr" v="526483" />
	</node>
	<node lat="63.42756944887402" lon="10.390174998455949" id="-50313">
		<tag k="fixme" v="consider place=suburb, village or hamlet" />
		<tag k="name" v="Kalvskinnet" />
		<tag k="place" v="quarter" />
		<tag k="ssr:stedsnr" v="526905" />
	</node>
	<node lat="63.3478111101424" lon="10.383044436505061" id="-50314">
		<tag k="name" v="Hårstadmarka" />
		<tag k="place" v="quarter" />
		<tag k="ssr:stedsnr" v="526907" />
	</node>
	<node lat="63.429523961957706" lon="10.375189825416683" id="-50315">
		<tag k="name" v="Nidareid" />
		<tag k="place" v="farm" />
		<tag k="ssr:stedsnr" v="527220" />
	</node>
	<node lat="63.384763890505994" lon="10.3628527863629" id="-50317">
		<tag k="name" v="Fossheim" />
		<tag k="place" v="farm" />
		<tag k="ssr:stedsnr" v="527990" />
	</node>
	<node lat="63.384655553890504" lon="10.36398888705933" id="-50318">
		<tag k="name" v="Forsøkslia" />
		<tag k="place" v="farm" />
		<tag k="ssr:stedsnr" v="527992" />
	</node>
	<node lat="63.44646713792082" lon="10.33645029105176" id="-50331">
		<tag k="name" v="Høvringen" />
		<tag k="place" v="farm" />
		<tag k="ssr:stedsnr" v="529571" />
	</node>
	<node lat="63.42762110059854" lon="10.573715998790387" id="-50332">
		<tag k="name" v="Solborg" />
		<tag k="place" v="farm" />
		<tag k="ssr:stedsnr" v="535519" />
	</node>
	<node lat="63.36509625791943" lon="10.422579320276913" id="-50333">
		<tag k="name" v="Skogly" />
		<tag k="place" v="farm" />
		<tag k="ssr:stedsnr" v="535521" />
	</node>
	<node lat="63.418411304753285" lon="10.562323472674075" id="-50334">
		<tag k="name" v="Skogheim" />
		<tag k="place" v="farm" />
		<tag k="ssr:stedsnr" v="535523" />
	</node>
	<node lat="63.39178100301048" lon="10.52116485508046" id="-50335">
		<tag k="name" v="Vassgløtt" />
		<tag k="place" v="farm" />
		<tag k="ssr:stedsnr" v="535473" />
	</node>
	<node lat="63.37265277505964" lon="10.427502772331637" id="-50336">
		<tag k="name" v="Leirtrøen" />
		<tag k="place" v="locality" />
		<tag k="ssr:stedsnr" v="535719" />
	</node>
	<node lat="63.330566667839975" lon="10.311058340217453" id="-50339">
		<tag k="landuse" v="military" />
		<tag k="name" v="Kammen" />
		<tag k="ssr:stedsnr" v="536222" />
	</node>
	<node lat="63.328519440416855" lon="10.304016656743565" id="-50340">
		<tag k="name" v="Nypan" />
		<tag k="place" v="farm" />
		<tag k="ssr:stedsnr" v="536169" />
	</node>
	<node lat="63.35360555851064" lon="10.45220277237415" id="-50342">
		<tag k="name" v="Bratsberggrinda" />
		<tag k="place" v="farm" />
		<tag k="ssr:stedsnr" v="536178" />
	</node>
	<node lat="63.400842117777856" lon="10.51906252267137" id="-50347">
		<tag k="name" v="Granly" />
		<tag k="place" v="farm" />
		<tag k="ssr:stedsnr" v="536619" />
	</node>
	<node lat="63.39913680601001" lon="10.517666753869044" id="-50348">
		<tag k="name" v="Haugen" />
		<tag k="place" v="farm" />
		<tag k="ssr:stedsnr" v="536622" />
	</node>
	<node lat="63.40905786242229" lon="10.504394637297551" id="-50349">
		<tag k="name" v="Karlslyst" />
		<tag k="place" v="isolated_dwelling" />
		<tag k="ssr:stedsnr" v="536507" />
	</node>
	<node lat="63.45527831755166" lon="10.454302435427861" id="-50350">
		<tag k="name" v="Kysten" />
		<tag k="place" v="farm" />
		<tag k="ssr:stedsnr" v="536521" />
	</node>
	<node lat="63.43630521435204" lon="10.451130261846286" id="-50351">
		<tag k="name" v="Lerkehaugen" />
		<tag k="place" v="isolated_dwelling" />
		<tag k="ssr:stedsnr" v="536530" />
	</node>
	<node lat="63.393977781126544" lon="10.51409167515171" id="-50352">
		<tag k="name" v="Leikarhaugen" />
		<tag k="place" v="farm" />
		<tag k="ssr:stedsnr" v="536532" />
	</node>
	<node lat="63.39754591724454" lon="10.513225326193176" id="-50353">
		<tag k="name" v="Aspli" />
		<tag k="place" v="farm" />
		<tag k="ssr:stedsnr" v="536572" />
	</node>
	<node lat="63.407931613081544" lon="10.499058703146915" id="-50354">
		<tag k="name" v="Berglund" />
		<tag k="place" v="isolated_dwelling" />
		<tag k="ssr:stedsnr" v="536576" />
	</node>
	<node lat="63.396681926989935" lon="10.519070068381026" id="-50355">
		<tag k="alt_name" v="Bjørkeli" />
		<tag k="name" v="Bjørkli" />
		<tag k="place" v="farm" />
		<tag k="ssr:stedsnr" v="536583" />
	</node>
	<node lat="63.41024999690571" lon="10.484408333242873" id="-50356">
		<tag k="name" v="Bakkely" />
		<tag k="place" v="isolated_dwelling" />
		<tag k="ssr:stedsnr" v="541029" />
	</node>
	<node lat="63.41602583481013" lon="10.567578829548125" id="-50357">
		<tag k="name" v="Kroken" />
		<tag k="place" v="isolated_dwelling" />
		<tag k="ssr:stedsnr" v="541276" />
	</node>
	<node lat="63.42806666921855" lon="10.562105560038189" id="-50358">
		<tag k="name" v="Furuhaugen nr. 3" />
		<tag k="place" v="isolated_dwelling" />
		<tag k="ssr:stedsnr" v="541281" />
	</node>
	<node lat="63.39625277383658" lon="10.302424998113327" id="-50359">
		<tag k="alt_name" v="Solemshaug" />
		<tag k="name" v="Solemshaugen" />
		<tag k="place" v="farm" />
		<tag k="ssr:stedsnr" v="541170" />
	</node>
	<node lat="63.41406294672189" lon="10.560055123919575" id="-50360">
		<tag k="name" v="Sommerly" />
		<tag k="place" v="isolated_dwelling" />
		<tag k="ssr:stedsnr" v="541180" />
	</node>
	<node lat="63.41822222350881" lon="10.54524166850719" id="-50361">
		<tag k="name" v="Mittun" />
		<tag k="place" v="isolated_dwelling" />
		<tag k="ssr:stedsnr" v="541311" />
	</node>
	<node lat="63.417922222253004" lon="10.545466660739383" id="-50362">
		<tag k="name" v="Nytrøa" />
		<tag k="place" v="isolated_dwelling" />
		<tag k="ssr:stedsnr" v="541315" />
	</node>
	<node lat="63.414983546484095" lon="10.485182595386114" id="-50364">
		<tag k="name" v="Torheim" />
		<tag k="place" v="isolated_dwelling" />
		<tag k="ssr:stedsnr" v="542167" />
	</node>
	<node lat="63.35264444537536" lon="10.331572228849682" id="-50365">
		<tag k="name" v="Lundhaugen" />
		<tag k="place" v="farm" />
		<tag k="ssr:stedsnr" v="543521" />
	</node>
	<node lat="63.35458888737581" lon="10.257883324225073" id="-50366">
		<tag k="name" v="Haugen" />
		<tag k="place" v="farm" />
		<tag k="ssr:stedsnr" v="543523" />
	</node>
	<node lat="63.343936109014216" lon="10.260775007616527" id="-50367">
		<tag k="name" v="Knabben" />
		<tag k="place" v="farm" />
		<tag k="ssr:stedsnr" v="543524" />
	</node>
	<node lat="63.41302450720248" lon="10.347296189415154" id="-50369">
		<tag k="name" v="Tampereveien 19" />
		<tag k="place" v="isolated_dwelling" />
		<tag k="ssr:stedsnr" v="544403" />
	</node>
	<node lat="63.37355277569753" lon="10.369483334392118" id="-50372">
		<tag k="name" v="Okstadøya" />
		<tag k="place" v="farm" />
		<tag k="ssr:stedsnr" v="544976" />
	</node>
	<node lat="63.38421666557198" lon="10.352483324185373" id="-50373">
		<tag k="name" v="Granly" />
		<tag k="place" v="farm" />
		<tag k="ssr:stedsnr" v="544992" />
	</node>
	<node lat="63.32127777548274" lon="10.333913896690156" id="-50374">
		<tag k="name" v="Litller" />
		<tag k="place" v="farm" />
		<tag k="ssr:stedsnr" v="545004" />
	</node>
	<node lat="63.36251667024068" lon="10.367116661822918" id="-50375">
		<tag k="name" v="Rosta" />
		<tag k="place" v="hamlet" />
		<tag k="ssr:stedsnr" v="545490" />
	</node>
	<node lat="63.25023611064608" lon="10.507913896931992" id="-50376">
		<tag k="fixme" v="consider natural=beach + surface=sand" />
		<tag k="leisure" v="swimming_area" />
		<tag k="name" v="Bjørsjøen badeplass" />
		<tag k="place" v="locality" />
		<tag k="ssr:stedsnr" v="545717" />
	</node>
	<node lat="63.39683095898601" lon="10.446509807905738" id="-50377">
		<tag k="fixme" v="consider place=hamlet" />
		<tag k="name" v="Steinan" />
		<tag k="place" v="farm" />
		<tag k="ssr:stedsnr" v="545783" />
	</node>
	<node lat="63.37380833004394" lon="10.419480553891384" id="-50380">
		<tag k="name" v="Leirflata" />
		<tag k="place" v="farm" />
		<tag k="ssr:stedsnr" v="688222" />
	</node>
	<node lat="63.401425001131464" lon="10.508319450432897" id="-50383">
		<tag k="name" v="Tjønnlia" />
		<tag k="place" v="farm" />
		<tag k="ssr:stedsnr" v="688773" />
	</node>
	<node lat="63.37461388550851" lon="10.375852770455266" id="-50387">
		<tag k="name" v="Formo" />
		<tag k="place" v="farm" />
		<tag k="ssr:stedsnr" v="558544" />
	</node>
	<node lat="63.341191666302066" lon="10.506419446820066" id="-50388">
		<tag k="name" v="Bruråkmoen" />
		<tag k="place" v="farm" />
		<tag k="ssr:stedsnr" v="558938" />
	</node>
	<node lat="63.38274722639916" lon="10.160338883397564" id="-50392">
		<tag k="alt_name" v="Berg" />
		<tag k="name" v="Hafella" />
		<tag k="place" v="farm" />
		<tag k="ssr:stedsnr" v="559393" />
	</node>
	<node lat="63.379445541216" lon="10.123756963185693" id="-50393">
		<tag k="fixme" v="consider place=hamlet" />
		<tag k="name" v="Egga" />
		<tag k="place" v="farm" />
		<tag k="ssr:stedsnr" v="559394" />
	</node>
	<node lat="63.3764722253498" lon="10.06827499475846" id="-50394">
		<tag k="alt_name" v="Sjøhagan;Sjøhagen" />
		<tag k="name" v="Sjøhåggån" />
		<tag k="place" v="farm" />
		<tag k="ssr:stedsnr" v="559399" />
	</node>
	<node lat="63.35866666935943" lon="10.110486114162578" id="-50395">
		<tag k="alt_name" v="Nistu" />
		<tag k="name" v="Nedstu" />
		<tag k="old_name" v="Nedstua" />
		<tag k="place" v="farm" />
		<tag k="ssr:stedsnr" v="559437" />
	</node>
	<node lat="63.281647221980165" lon="10.46473332844883" id="-50398">
		<tag k="name" v="Motun" />
		<tag k="place" v="farm" />
		<tag k="ssr:stedsnr" v="559787" />
	</node>
	<node lat="63.320359122591086" lon="10.503152454798284" id="-50400">
		<tag k="name" v="Devle" />
		<tag k="place" v="farm" />
		<tag k="ssr:stedsnr" v="689147" />
	</node>
	<node lat="63.33400692046819" lon="10.499691817226186" id="-50402">
		<tag k="fixme" v="consider place=hamlet" />
		<tag k="name" v="Sneegga" />
		<tag k="place" v="farm" />
		<tag k="ssr:stedsnr" v="559896" />
	</node>
	<node lat="63.328490307813944" lon="10.322245680282915" id="-50403">
		<tag k="fixme" v="consider place=hamlet" />
		<tag k="name" v="Esp" />
		<tag k="place" v="farm" />
		<tag k="ssr:stedsnr" v="559904" />
	</node>
	<node lat="63.338922605760686" lon="10.286523460721723" id="-50405">
		<tag k="name" v="Moslinggården" />
		<tag k="place" v="farm" />
		<tag k="ssr:stedsnr" v="690411" />
	</node>
	<node lat="63.39086944538188" lon="10.160547222820547" id="-50407">
		<tag k="name" v="Skjøstadstu" />
		<tag k="place" v="isolated_dwelling" />
		<tag k="ssr:stedsnr" v="691095" />
	</node>
	<node lat="63.360961107227745" lon="10.272277780746059" id="-50408">
		<tag k="historic" v="shieling" />
		<tag k="name" v="Johanvollen" />
		<tag k="place" v="isolated_dwelling" />
		<tag k="ssr:stedsnr" v="692581" />
	</node>
	<node lat="63.360905551546864" lon="10.273255554996918" id="-50409">
		<tag k="historic" v="shieling" />
		<tag k="name" v="Marenvollen" />
		<tag k="place" v="isolated_dwelling" />
		<tag k="ssr:stedsnr" v="692582" />
	</node>
	<node lat="63.395803659146736" lon="10.163641895600835" id="-50410">
		<tag k="name" v="Lerdal Øvre" />
		<tag k="place" v="farm" />
		<tag k="ssr:stedsnr" v="691720" />
	</node>
	<node lat="63.349909969999004" lon="10.177182648372495" id="-50412">
		<tag k="alt_name" v="Brå" />
		<tag k="name" v="Arngrimsstu" />
		<tag k="place" v="farm" />
		<tag k="ssr:stedsnr" v="691866" />
	</node>
	<node lat="63.36957778154939" lon="10.165880563428326" id="-50416">
		<tag k="name" v="Solvang" />
		<tag k="place" v="farm" />
		<tag k="ssr:stedsnr" v="691972" />
	</node>
	<node lat="63.433816669908715" lon="10.156133340959512" id="-50424">
		<tag k="name" v="Elva" />
		<tag k="place" v="farm" />
		<tag k="ssr:stedsnr" v="569106" />
	</node>
	<node lat="63.3693000028637" lon="10.186516666173004" id="-50427">
		<tag k="alt_name" v="Grostadaunet nordre" />
		<tag k="name" v="Nordre Grostadaunet" />
		<tag k="place" v="farm" />
		<tag k="ssr:stedsnr" v="569716" />
	</node>
	<node lat="63.429225002820374" lon="10.171158342207939" id="-50432">
		<tag k="name" v="Øverbylykkja" />
		<tag k="place" v="quarter" />
		<tag k="ssr:stedsnr" v="569893" />
	</node>
	<node lat="63.37719721951995" lon="10.079422224409477" id="-50433">
		<tag k="name" v="Skogan" />
		<tag k="place" v="isolated_dwelling" />
		<tag k="ssr:stedsnr" v="569898" />
	</node>
	<node lat="63.41647222011179" lon="10.129772230394384" id="-50434">
		<tag k="name" v="Smedplassen" />
		<tag k="place" v="isolated_dwelling" />
		<tag k="ssr:stedsnr" v="569903" />
	</node>
	<node lat="63.344644446044725" lon="10.16576667200852" id="-50438">
		<tag k="alt_name" v="Ner-Mule" />
		<tag k="name" v="Apoteket" />
		<tag k="place" v="farm" />
		<tag k="ssr:stedsnr" v="569973" />
	</node>
	<node lat="63.361191669879574" lon="10.27360833090901" id="-50441">
		<tag k="historic" v="shieling" />
		<tag k="name" v="Skjefstadvollan" />
		<tag k="place" v="isolated_dwelling" />
		<tag k="ssr:stedsnr" v="570566" />
	</node>
	<node lat="63.36556389209035" lon="10.272480550910847" id="-50443">
		<tag k="historic" v="shieling" />
		<tag k="name" v="Gammelvollen" />
		<tag k="place" v="isolated_dwelling" />
		<tag k="ssr:stedsnr" v="571149" />
	</node>
	<node lat="63.43014722619567" lon="10.192136118440771" id="-50445">
		<tag k="name" v="Plassen" />
		<tag k="place" v="locality" />
		<tag k="ssr:stedsnr" v="571015" />
	</node>
	<node lat="63.39457499998227" lon="10.30112778656088" id="-50448">
		<tag k="fixme" v="multiple name tags, choose one and add the other to alt_name" />
		<tag k="name" v="Brennvinsdiket;Diket" />
		<tag k="place" v="locality" />
		<tag k="ssr:stedsnr" v="571933" />
	</node>
	<node lat="63.3945444430681" lon="10.303669436871184" id="-50449">
		<tag k="alt_name" v="Kystadhaugen" />
		<tag k="name" v="Marili" />
		<tag k="place" v="locality" />
		<tag k="ssr:stedsnr" v="571934" />
	</node>
	<node lat="63.40733888758118" lon="10.323752783105794" id="-50450">
		<tag k="name" v="Vestmarka" />
		<tag k="place" v="locality" />
		<tag k="ssr:stedsnr" v="571897" />
	</node>
	<node lat="63.39754722517094" lon="10.167083339751569" id="-50461">
		<tag k="name" v="Leirdalsplassen" />
		<tag k="place" v="locality" />
		<tag k="ssr:stedsnr" v="572952" />
	</node>
	<node lat="63.39692499792606" lon="10.267544441652646" id="-50464">
		<tag k="historic" v="shieling" />
		<tag k="name" v="Bangvollen" />
		<tag k="place" v="isolated_dwelling" />
		<tag k="ssr:stedsnr" v="694144" />
	</node>
	<node lat="63.37565961535716" lon="10.222831816215592" id="-50481">
		<tag k="historic" v="shieling" />
		<tag k="name" v="Skadestusætra" />
		<tag k="place" v="isolated_dwelling" />
		<tag k="ssr:stedsnr" v="695591" />
	</node>
	<node lat="63.39103611146299" lon="10.269705546224627" id="-50486">
		<tag k="name" v="Lia" />
		<tag k="place" v="isolated_dwelling" />
		<tag k="ssr:stedsnr" v="695960" />
	</node>
	<node lat="63.4017527776683" lon="10.264455562503237" id="-50492">
		<tag k="historic" v="shieling" />
		<tag k="name" v="Lagmannssætra" />
		<tag k="place" v="isolated_dwelling" />
		<tag k="ssr:stedsnr" v="695991" />
	</node>
	<node lat="63.282499997211985" lon="10.4665305556307" id="-50497">
		<tag k="fixme" v="consider natural=beach + surface=sand" />
		<tag k="leisure" v="swimming_area" />
		<tag k="name" v="Svean Moodden friluftsområde" />
		<tag k="place" v="locality" />
		<tag k="ssr:stedsnr" v="586448" />
	</node>
	<node lat="63.39930553243522" lon="10.467746983571546" id="-50499">
		<tag k="name" v="Løvlia" />
		<tag k="place" v="isolated_dwelling" />
		<tag k="ssr:stedsnr" v="586606" />
	</node>
	<node lat="63.400341018103106" lon="10.466484002998454" id="-50500">
		<tag k="name" v="Sølvkrona" />
		<tag k="place" v="isolated_dwelling" />
		<tag k="ssr:stedsnr" v="586611" />
	</node>
	<node lat="63.385960736067254" lon="10.512588201489812" id="-50501">
		<tag k="name" v="Gunlia" />
		<tag k="place" v="farm" />
		<tag k="ssr:stedsnr" v="586546" />
	</node>
	<node lat="63.38820555935469" lon="10.515730548476144" id="-50502">
		<tag k="name" v="Fjellstuen" />
		<tag k="place" v="farm" />
		<tag k="ssr:stedsnr" v="586551" />
	</node>
	<node lat="63.37664999817012" lon="10.428880560750924" id="-50505">
		<tag k="name" v="Vestre Kvammen" />
		<tag k="place" v="farm" />
		<tag k="ssr:stedsnr" v="587615" />
	</node>
	<node lat="63.3339277814442" lon="10.288880554952758" id="-50506">
		<tag k="alt_name" v="Løvdal" />
		<tag k="name" v="Eggan" />
		<tag k="place" v="farm" />
		<tag k="ssr:stedsnr" v="587663" />
	</node>
	<node lat="63.32179722219459" lon="10.435686103790916" id="-50508">
		<tag k="fixme" v="consider place=hamlet" />
		<tag k="name" v="Fosshauet" />
		<tag k="place" v="farm" />
		<tag k="ssr:stedsnr" v="588153" />
	</node>
	<node lat="63.40362877386196" lon="10.514674987751446" id="-50520">
		<tag k="name" v="Åshaugen" />
		<tag k="old_name" v="Aashaugen" />
		<tag k="place" v="farm" />
		<tag k="ssr:stedsnr" v="595449" />
	</node>
	<node lat="63.39702729069426" lon="10.519552508052582" id="-50521">
		<tag k="name" v="Vesleaunet" />
		<tag k="place" v="farm" />
		<tag k="ssr:stedsnr" v="595455" />
	</node>
	<node lat="63.39358055845549" lon="10.51154999461094" id="-50522">
		<tag k="name" v="Tuva" />
		<tag k="place" v="farm" />
		<tag k="ssr:stedsnr" v="595460" />
	</node>
	<node lat="63.39388095034253" lon="10.512443366998635" id="-50523">
		<tag k="name" v="Torlia" />
		<tag k="place" v="farm" />
		<tag k="ssr:stedsnr" v="595464" />
	</node>
	<node lat="63.36726388580992" lon="10.37450278481261" id="-50524">
		<tag k="alt_name" v="Rosten øvre;Øvre Rosten" />
		<tag k="name" v="Rosta" />
		<tag k="place" v="farm" />
		<tag k="ssr:stedsnr" v="595714" />
	</node>
	<node lat="63.44865833359666" lon="10.452022214012592" id="-50525">
		<tag k="leisure" v="park" />
		<tag k="name" v="Ringve botaniske hage" />
		<tag k="ssr:stedsnr" v="595755" />
	</node>
	<node lat="63.303227647594944" lon="10.440142925767224" id="-50526">
		<tag k="fixme" v="consider place=hamlet" />
		<tag k="name" v="Forset" />
		<tag k="place" v="farm" />
		<tag k="ssr:stedsnr" v="595949" />
	</node>
	<node lat="63.3676042434104" lon="10.449286957213216" id="-50528">
		<tag k="name" v="Branden" />
		<tag k="place" v="farm" />
		<tag k="ssr:stedsnr" v="596199" />
	</node>
	<node lat="63.3453027781268" lon="10.254322216790378" id="-50532">
		<tag k="fixme" v="consider place=hamlet" />
		<tag k="name" v="Lerfallet" />
		<tag k="place" v="farm" />
		<tag k="ssr:stedsnr" v="597163" />
	</node>
	<node lat="63.35710893017816" lon="10.437015920292149" id="-50533">
		<tag k="name" v="Håpet" />
		<tag k="place" v="isolated_dwelling" />
		<tag k="ssr:stedsnr" v="597502" />
	</node>
	<node lat="63.389996854929535" lon="10.470393370008146" id="-50534">
		<tag k="name" v="Kvernstugguplass" />
		<tag k="place" v="farm" />
		<tag k="ssr:stedsnr" v="597505" />
	</node>
	<node lat="63.3894138853278" lon="10.341838885500742" id="-50535">
		<tag k="alt_name" v="Kystad vestre" />
		<tag k="name" v="Vestre Kystad" />
		<tag k="place" v="farm" />
		<tag k="ssr:stedsnr" v="597512" />
	</node>
	<node lat="63.39424369757585" lon="10.513719723054175" id="-50536">
		<tag k="name" v="Kvilhaug" />
		<tag k="place" v="farm" />
		<tag k="ssr:stedsnr" v="597518" />
	</node>
	<node lat="63.399515309770116" lon="10.522004133545508" id="-50537">
		<tag k="alt_name" v="Jonshøy" />
		<tag k="name" v="Jonshøi" />
		<tag k="place" v="farm" />
		<tag k="ssr:stedsnr" v="597499" />
	</node>
	<node lat="63.36161194342521" lon="10.43123990925724" id="-50539">
		<tag k="name" v="Eklesli" />
		<tag k="place" v="farm" />
		<tag k="ssr:stedsnr" v="597606" />
	</node>
	<node lat="63.43290264482246" lon="10.563834423481527" id="-50540">
		<tag k="name" v="Flomålet" />
		<tag k="place" v="farm" />
		<tag k="ssr:stedsnr" v="597613" />
	</node>
	<node lat="63.38903454848668" lon="10.507047096621683" id="-50541">
		<tag k="name" v="Bjørklund" />
		<tag k="place" v="farm" />
		<tag k="ssr:stedsnr" v="597599" />
	</node>
	<node lat="63.36989444014112" lon="10.301691661490603" id="-50542">
		<tag k="name" v="Bjørklia" />
		<tag k="place" v="isolated_dwelling" />
		<tag k="ssr:stedsnr" v="597600" />
	</node>
	<node lat="63.41458485462541" lon="10.559473574548974" id="-50543">
		<tag k="name" v="Sommervold" />
		<tag k="place" v="isolated_dwelling" />
		<tag k="ssr:stedsnr" v="601168" />
	</node>
	<node lat="63.41799340850936" lon="10.544182392028699" id="-50545">
		<tag k="name" v="Vesletrøa" />
		<tag k="place" v="isolated_dwelling" />
		<tag k="ssr:stedsnr" v="601259" />
	</node>
	<node lat="63.37187580396593" lon="10.4082037526861" id="-50547">
		<tag k="name" v="Møllehaugen" />
		<tag k="place" v="farm" />
		<tag k="ssr:stedsnr" v="601523" />
	</node>
	<node lat="63.40273332932451" lon="10.436286112294514" id="-50550">
		<tag k="amenity" v="school" />
		<tag k="name" v="Steindalsflata førskole for hørselshemmede" />
		<tag k="ssr:stedsnr" v="603468" />
	</node>
	<node lat="63.359611109722294" lon="10.430913895867482" id="-50553">
		<tag k="fixme" v="consider place=hamlet" />
		<tag k="name" v="Ekle" />
		<tag k="place" v="farm" />
		<tag k="ssr:stedsnr" v="603862" />
	</node>
	<node lat="63.38515833565779" lon="10.334477768097322" id="-50554">
		<tag k="name" v="Stavset" />
		<tag k="place" v="quarter" />
		<tag k="ssr:stedsnr" v="604210" />
	</node>
	<node lat="63.3252138912649" lon="10.371397219169303" id="-50555">
		<tag k="fixme" v="consider place=hamlet" />
		<tag k="name" v="Torgarden" />
		<tag k="place" v="farm" />
		<tag k="ssr:stedsnr" v="604670" />
	</node>
	<node lat="63.39598610978456" lon="10.405341669682922" id="-50557">
		<tag k="alt_name" v="Sundland vestre" />
		<tag k="name" v="Vestre Sundland" />
		<tag k="place" v="farm" />
		<tag k="ssr:stedsnr" v="605824" />
	</node>
	<node lat="63.38217222612935" lon="10.16273889457977" id="-50558">
		<tag k="fixme" v="consider place=hamlet" />
		<tag k="name" v="Berg" />
		<tag k="place" v="farm" />
		<tag k="ssr:stedsnr" v="606547" />
	</node>
	<node lat="63.37966111133094" lon="10.166877768859294" id="-50559">
		<tag k="fixme" v="consider place=hamlet" />
		<tag k="name" v="Berg" />
		<tag k="place" v="farm" />
		<tag k="ssr:stedsnr" v="606548" />
	</node>
	<node lat="63.38002946419903" lon="10.347882472675328" id="-50560">
		<tag k="fixme" v="consider place=hamlet" />
		<tag k="name" v="Flatåsen" />
		<tag k="place" v="farm" />
		<tag k="ssr:stedsnr" v="606903" />
	</node>
	<node lat="63.4257388887947" lon="10.178047222841077" id="-50563">
		<tag k="fixme" v="consider place=hamlet" />
		<tag k="name" v="Elset" />
		<tag k="place" v="farm" />
		<tag k="ssr:stedsnr" v="619128" />
	</node>
	<node lat="63.38756110800604" lon="10.0751694413994" id="-50565">
		<tag k="fixme" v="consider place=hamlet" />
		<tag k="name" v="Haugan" />
		<tag k="place" v="farm" />
		<tag k="ssr:stedsnr" v="619481" />
	</node>
	<node lat="63.36813332937501" lon="10.538269452841963" id="-50568">
		<tag k="name" v="Engelsåstrøa" />
		<tag k="place" v="farm" />
		<tag k="ssr:stedsnr" v="619993" />
	</node>
	<node lat="63.37317500261999" lon="10.1126361115795" id="-50573">
		<tag k="name" v="Bjørkvang" />
		<tag k="place" v="farm" />
		<tag k="ssr:stedsnr" v="629812" />
	</node>
	<node lat="63.418886111914404" lon="10.104488893716407" id="-50578">
		<tag k="alt_name" v="Frøset vestre" />
		<tag k="name" v="Vestre Frøset" />
		<tag k="place" v="farm" />
		<tag k="ssr:stedsnr" v="629742" />
	</node>
	<node lat="63.4198666660566" lon="10.141988882136587" id="-50579">
		<tag k="alt_name" v="Øvre Langørjan" />
		<tag k="name" v="Karlsgarden" />
		<tag k="place" v="farm" />
		<tag k="ssr:stedsnr" v="629904" />
	</node>
	<node lat="63.3717710772035" lon="10.176288425970904" id="-50586">
		<tag k="name" v="Gullikstad" />
		<tag k="place" v="farm" />
		<tag k="ssr:stedsnr" v="630076" />
	</node>
	<node lat="63.38448333150736" lon="10.296530550771044" id="-50587">
		<tag k="name" v="Montana" />
		<tag k="place" v="locality" />
		<tag k="ssr:stedsnr" v="630210" />
	</node>
	<node lat="63.35538333614396" lon="10.172008329246255" id="-50589">
		<tag k="name" v="Jakobplassen" />
		<tag k="place" v="farm" />
		<tag k="ssr:stedsnr" v="630992" />
	</node>
	<node lat="63.395646318959585" lon="10.50984798672609" id="-50591">
		<tag k="name" v="Bråten" />
		<tag k="place" v="isolated_dwelling" />
		<tag k="ssr:stedsnr" v="631542" />
	</node>
</osm>
