<?xml version="1.0" encoding="UTF-8"?>
<osm version="0.6" generator="osmapis">
	<node lat="63.437649997711816" lon="10.180380557143764" id="-36283">
		<tag k="historic" v="boundary_stone" />
		<tag k="man_made" v="cairn" />
		<tag k="name" v="GrÃ¥steinen" />
		<tag k="place" v="locality" />
		<tag k="ssr:stedsnr" v="452059" />
	</node>
	<node lat="63.3661611110611" lon="10.278747220325963" id="-36491">
		<tag k="historic" v="boundary_stone" />
		<tag k="man_made" v="cairn" />
		<tag k="name" v="Skjefstadmerket" />
		<tag k="place" v="locality" />
		<tag k="ssr:stedsnr" v="328107" />
	</node>
	<node lat="63.250474998199465" lon="10.64890278510222" id="-36664">
		<tag k="fixme" v="consider boundary=protected_area and relevant protect_class if not nature reserve" />
		<tag k="leisure" v="nature_reserve" />
		<tag k="name" v="Tangvolla naturreservat" />
		<tag k="ssr:stedsnr" v="485166" />
	</node>
	<node lat="63.374741664287455" lon="10.192880562716297" id="-36764">
		<tag k="historic" v="boundary_stone" />
		<tag k="man_made" v="cairn" />
		<tag k="name" v="Merkesgrana" />
		<tag k="place" v="locality" />
		<tag k="ssr:stedsnr" v="452869" />
	</node>
	<node lat="63.452480551661544" lon="10.26009444202269" id="-36934">
		<tag k="fixme" v="consider boundary=protected_area and relevant protect_class if not nature reserve" />
		<tag k="leisure" v="nature_reserve" />
		<tag k="name" v="Bymarka naturreservat" />
		<tag k="ssr:stedsnr" v="525861" />
	</node>
</osm>
