<?xml version="1.0" encoding="UTF-8"?>
<osm version="0.6" generator="osmapis">
	<node lat="63.406333329940544" lon="10.509416658870819" id="-49026">
		<tag k="name" v="Toppen 2" />
		<tag k="place" v="locality" />
		<tag k="ssr:stedsnr" v="232418" />
	</node>
	<node lat="63.4039527791357" lon="10.367947222034868" id="-49032">
		<tag k="cemetery" v="grave" />
		<tag k="name" v="Havstein kirkegård" />
		<tag k="place" v="locality" />
		<tag k="ssr:stedsnr" v="232698" />
	</node>
	<node lat="63.40272221846616" lon="10.486480553031708" id="-49047">
		<tag k="name" v="Kårstua" />
		<tag k="place" v="locality" />
		<tag k="ssr:stedsnr" v="233555" />
	</node>
	<node lat="63.43148055419674" lon="10.395155553311502" id="-49052">
		<tag k="name" v="Stiftsgården" />
		<tag k="ssr:stedsnr" v="233677" />
		<tag k="tourism" v="museum" />
	</node>
	<node lat="63.36081666983298" lon="10.37029444798851" id="-49092">
		<tag k="alt_name" v="Rosten" />
		<tag k="name" v="Rosta" />
		<tag k="place" v="locality" />
		<tag k="ssr:stedsnr" v="40503" />
	</node>
	<node lat="63.41850277532891" lon="10.54754167003665" id="-49117">
		<tag k="name" v="Reppe" />
		<tag k="place" v="locality" />
		<tag k="ssr:stedsnr" v="238366" />
	</node>
	<node lat="63.42004722029798" lon="10.536686120454991" id="-49118">
		<tag k="name" v="Fossen" />
		<tag k="place" v="locality" />
		<tag k="ssr:stedsnr" v="238372" />
	</node>
	<node lat="63.43463551387528" lon="10.405867945271023" id="-49129">
		<tag k="name" v="Krigsseilermonumentet" />
		<tag k="place" v="locality" />
		<tag k="ssr:stedsnr" v="239243" />
	</node>
	<node lat="63.45125833713887" lon="10.383541668448721" id="-49134">
		<tag k="name" v="Falkenskioldmuseet" />
		<tag k="ssr:stedsnr" v="50784" />
		<tag k="tourism" v="museum" />
	</node>
	<node lat="63.35241110883096" lon="10.400994451603617" id="-49177">
		<tag k="name" v="Hårstad" />
		<tag k="place" v="locality" />
		<tag k="ssr:stedsnr" v="241104" />
	</node>
	<node lat="63.3438555582266" lon="10.424836106708687" id="-49178">
		<tag k="name" v="Tillerflata" />
		<tag k="place" v="locality" />
		<tag k="ssr:stedsnr" v="241111" />
	</node>
	<node lat="63.42253888560334" lon="10.39512221290911" id="-49184">
		<tag k="amenity" v="community_centre" />
		<tag k="name" v="Studentersamfundet" />
		<tag k="ssr:stedsnr" v="241275" />
	</node>
	<node lat="63.43044444149038" lon="10.38430278121821" id="-49277">
		<tag k="alt_name" v="Hospitalskirka" />
		<tag k="amenity" v="place_of_worship" />
		<tag k="denomination" v="lutheran" />
		<tag k="name" v="Hospitalskirken" />
		<tag k="old_name" v="Hospitalets kirke" />
		<tag k="religion" v="christian" />
		<tag k="ssr:stedsnr" v="93612" />
	</node>
	<node lat="63.39968055802595" lon="10.348847221599202" id="-49290">
		<tag k="name" v="Ferstad" />
		<tag k="place" v="locality" />
		<tag k="ssr:stedsnr" v="103211" />
	</node>
	<node lat="63.412638890951655" lon="10.386849991654318" id="-49330">
		<tag k="cemetery" v="grave" />
		<tag k="name" v="RAF krigskirkegård" />
		<tag k="place" v="locality" />
		<tag k="ssr:stedsnr" v="119309" />
	</node>
	<node lat="63.39252092643902" lon="10.36963742646674" id="-49396">
		<tag k="amenity" v="place_of_worship" />
		<tag k="denomination" v="lutheran" />
		<tag k="name" v="Byåsen kirke" />
		<tag k="old_name" v="Hallset;Hallset kirke" />
		<tag k="religion" v="christian" />
		<tag k="ssr:stedsnr" v="256554" />
	</node>
	<node lat="63.39518888818055" lon="10.399697226393405" id="-49420">
		<tag k="name" v="Nidarvoll" />
		<tag k="place" v="locality" />
		<tag k="ssr:stedsnr" v="163902" />
	</node>
	<node lat="63.45087222201158" lon="10.383524995060728" id="-49450">
		<tag k="name" v="Lavetthuset" />
		<tag k="ssr:stedsnr" v="172672" />
		<tag k="tourism" v="museum" />
	</node>
	<node lat="63.43637777606404" lon="10.432677770682565" id="-49466">
		<tag k="amenity" v="community_centre" />
		<tag k="name" v="Rosendal teater" />
		<tag k="ssr:stedsnr" v="180457" />
	</node>
	<node lat="63.39474444191251" lon="10.39283055362161" id="-49468">
		<tag k="name" v="Sluppenbanen" />
		<tag k="place" v="locality" />
		<tag k="ssr:stedsnr" v="181770" />
	</node>
	<node lat="63.43017777639809" lon="10.397777772427442" id="-49474">
		<tag k="alt_name" v="Vår Frue" />
		<tag k="amenity" v="place_of_worship" />
		<tag k="denomination" v="lutheran" />
		<tag k="name" v="Vår Frue kirke" />
		<tag k="religion" v="christian" />
		<tag k="ssr:stedsnr" v="262260" />
	</node>
	<node lat="63.398733335369855" lon="10.367219447098979" id="-49566">
		<tag k="name" v="Munkvoll" />
		<tag k="place" v="locality" />
		<tag k="ssr:stedsnr" v="224230" />
	</node>
	<node lat="63.42528983730211" lon="10.396735869767117" id="-49644">
		<tag k="name" v="Kongsgårdens bastion" />
		<tag k="place" v="locality" />
		<tag k="ssr:stedsnr" v="241286" />
	</node>
	<node lat="63.43076944593976" lon="10.468775008408024" id="-49686">
		<tag k="name" v="Leangen Travbane" />
		<tag k="old_name" v="Trøndelag Traverbane" />
		<tag k="place" v="locality" />
		<tag k="ssr:stedsnr" v="457697" />
	</node>
	<node lat="63.42083646425502" lon="10.143394224658508" id="-49725">
		<tag k="amenity" v="place_of_worship" />
		<tag k="fixme" v="specify religion=*, denomination=*, building=* etc" />
		<tag k="name" v="Rye kapell" />
		<tag k="ssr:stedsnr" v="283006" />
	</node>
	<node lat="63.40634722637613" lon="10.374669450964493" id="-49735">
		<tag k="cemetery" v="grave" />
		<tag k="name" v="Havstein krigskirkegård" />
		<tag k="place" v="locality" />
		<tag k="ssr:stedsnr" v="285234" />
	</node>
	<node lat="63.366624997034215" lon="10.28016667381222" id="-49783">
		<tag k="name" v="Skardberget" />
		<tag k="place" v="locality" />
		<tag k="ssr:stedsnr" v="301230" />
	</node>
	<node lat="63.378124998599546" lon="10.386863892735935" id="-49801">
		<tag k="name" v="Østre Okstad" />
		<tag k="place" v="locality" />
		<tag k="ssr:stedsnr" v="466907" />
	</node>
	<node lat="63.43281803424024" lon="10.410493574873625" id="-49879">
		<tag k="alt_name" v="Bakke" />
		<tag k="amenity" v="place_of_worship" />
		<tag k="denomination" v="lutheran" />
		<tag k="name" v="Bakke kirke" />
		<tag k="religion" v="christian" />
		<tag k="ssr:stedsnr" v="335707" />
	</node>
	<node lat="63.43081944078888" lon="10.363055546600696" id="-49967">
		<tag k="alt_name" v="Langvolden" />
		<tag k="name" v="Langvollen" />
		<tag k="place" v="locality" />
		<tag k="ssr:stedsnr" v="476504" />
	</node>
	<node lat="63.43452777359078" lon="10.40560555437816" id="-49981">
		<tag k="name" v="Sjøfartsmuseet" />
		<tag k="ssr:stedsnr" v="482244" />
		<tag k="tourism" v="museum" />
	</node>
	<node lat="63.3558333289695" lon="10.115800007779685" id="-50015">
		<tag k="alt_name" v="Byneset" />
		<tag k="amenity" v="place_of_worship" />
		<tag k="denomination" v="lutheran" />
		<tag k="name" v="Byneset kirke" />
		<tag k="religion" v="christian" />
		<tag k="ssr:stedsnr" v="390151" />
	</node>
	<node lat="63.42983333342832" lon="10.53564444198177" id="-50032">
		<tag k="alt_name" v="Ranheim" />
		<tag k="amenity" v="place_of_worship" />
		<tag k="denomination" v="lutheran" />
		<tag k="name" v="Ranheim kirke" />
		<tag k="old_name" v="Raneim" />
		<tag k="religion" v="christian" />
		<tag k="ssr:stedsnr" v="396835" />
	</node>
	<node lat="63.44714722217635" lon="10.45328889143356" id="-50073">
		<tag k="name" v="Ringve Museum" />
		<tag k="ssr:stedsnr" v="415693" />
		<tag k="tourism" v="museum" />
	</node>
	<node lat="63.411202776077715" lon="10.472941657364515" id="-50086">
		<tag k="name" v="Sommerhaugen" />
		<tag k="place" v="locality" />
		<tag k="ssr:stedsnr" v="423194" />
	</node>
	<node lat="63.38472777791883" lon="10.369333326498229" id="-50091">
		<tag k="name" v="Buenget" />
		<tag k="place" v="locality" />
		<tag k="ssr:stedsnr" v="423995" />
	</node>
	<node lat="63.35491666406813" lon="10.158738894490222" id="-50100">
		<tag k="amenity" v="community_centre" />
		<tag k="name" v="Folkvang" />
		<tag k="ssr:stedsnr" v="438468" />
	</node>
	<node lat="63.309852918538255" lon="10.404815023653795" id="-50113">
		<tag k="amenity" v="place_of_worship" />
		<tag k="denomination" v="lutheran" />
		<tag k="name" v="Vassfjellkapellet" />
		<tag k="religion" v="christian" />
		<tag k="ssr:stedsnr" v="446180" />
	</node>
	<node lat="63.355316667042906" lon="10.63913610764153" id="-50145">
		<tag k="name" v="Saga" />
		<tag k="place" v="locality" />
		<tag k="ssr:stedsnr" v="465105" />
	</node>
	<node lat="63.425418755851794" lon="10.392493267764157" id="-50170">
		<tag k="amenity" v="place_of_worship" />
		<tag k="denomination" v="lutheran" />
		<tag k="name" v="St. Olavs kirke" />
		<tag k="religion" v="christian" />
		<tag k="ssr:stedsnr" v="475726" />
	</node>
	<node lat="63.39226111381544" lon="10.369172228838279" id="-50195">
		<tag k="name" v="Hallset eks." />
		<tag k="place" v="locality" />
		<tag k="ssr:stedsnr" v="482466" />
	</node>
	<node lat="63.43032575128933" lon="10.358045263261797" id="-50201">
		<tag k="cemetery" v="grave" />
		<tag k="name" v="Ila gravlund" />
		<tag k="old_name" v="Ila kirkegård" />
		<tag k="place" v="locality" />
		<tag k="ssr:stedsnr" v="484032" />
	</node>
	<node lat="63.36142777740913" lon="10.405233324716082" id="-50223">
		<tag k="alt_name" v="Tiller" />
		<tag k="amenity" v="place_of_worship" />
		<tag k="denomination" v="lutheran" />
		<tag k="name" v="Tiller kirke" />
		<tag k="religion" v="christian" />
		<tag k="ssr:stedsnr" v="680983" />
	</node>
	<node lat="63.413121618017485" lon="10.444332108725662" id="-50263">
		<tag k="alt_name" v="Strinda;Strinda hovedkirke" />
		<tag k="amenity" v="place_of_worship" />
		<tag k="denomination" v="lutheran" />
		<tag k="name" v="Strinda kirke" />
		<tag k="old_name" v="Moholt" />
		<tag k="religion" v="christian" />
		<tag k="ssr:stedsnr" v="681602" />
	</node>
	<node lat="63.41101941188145" lon="10.400533645669563" id="-50269">
		<tag k="amenity" v="place_of_worship" />
		<tag k="denomination" v="lutheran" />
		<tag k="name" v="Tempe kirke" />
		<tag k="old_name" v="Tempe og Valene småkirke" />
		<tag k="religion" v="christian" />
		<tag k="ssr:stedsnr" v="505367" />
	</node>
	<node lat="63.27425893951402" lon="10.438402516434884" id="-50299">
		<tag k="amenity" v="community_centre" />
		<tag k="name" v="Folkets hus" />
		<tag k="ssr:stedsnr" v="523674" />
	</node>
	<node lat="63.416896689886805" lon="10.390670507304609" id="-50337">
		<tag k="amenity" v="place_of_worship" />
		<tag k="denomination" v="lutheran" />
		<tag k="name" v="Tilfredshet kapell" />
		<tag k="religion" v="christian" />
		<tag k="ssr:stedsnr" v="535686" />
	</node>
	<node lat="63.38337778037392" lon="10.413188890214391" id="-50476">
		<tag k="amenity" v="place_of_worship" />
		<tag k="denomination" v="lutheran" />
		<tag k="name" v="Leira kapell" />
		<tag k="religion" v="christian" />
		<tag k="ssr:stedsnr" v="578507" />
	</node>
	<node lat="63.43938333490735" lon="10.439102769547524" id="-50531">
		<tag k="cemetery" v="grave" />
		<tag k="name" v="Lademoen gravlund" />
		<tag k="old_name" v="Lademoen kirkegård" />
		<tag k="place" v="locality" />
		<tag k="ssr:stedsnr" v="596699" />
	</node>
	<node lat="63.41374444860142" lon="10.397797229523524" id="-50551">
		<tag k="name" v="H.M.V. 1" />
		<tag k="place" v="locality" />
		<tag k="ssr:stedsnr" v="603620" />
	</node>
	<node lat="63.4172833311165" lon="10.445327783720106" id="-50552">
		<tag k="name" v="Bukkhaug" />
		<tag k="place" v="locality" />
		<tag k="ssr:stedsnr" v="603598" />
	</node>
	<node lat="63.42733333380584" lon="10.394111104259965" id="-50556">
		<tag k="name" v="Kunstforeningen" />
		<tag k="ssr:stedsnr" v="604770" />
		<tag k="tourism" v="museum" />
	</node>
</osm>
