<?xml version="1.0" encoding="UTF-8"?>
<osm version="0.6" generator="osmapis">
	<node lat="63.19874999965684" lon="10.664524990896092" id="-26883">
		<tag k="name" v="Reinsbekken" />
		<tag k="ssr:stedsnr" v="12786" />
		<tag k="waterway" v="stream" />
	</node>
	<node lat="63.36503610982841" lon="10.618691664128521" id="-26902">
		<tag k="name" v="Landøya" />
		<tag k="place" v="islet" />
		<tag k="ssr:stedsnr" v="13990" />
	</node>
	<node lat="63.37989999815623" lon="10.36930556224937" id="-26920">
		<tag k="name" v="Heimdalsbekken" />
		<tag k="ssr:stedsnr" v="232876" />
		<tag k="waterway" v="river" />
	</node>
	<node lat="63.38216388596312" lon="10.172299998218486" id="-26950">
		<tag k="name" v="Karibekken" />
		<tag k="ssr:stedsnr" v="25901" />
		<tag k="waterway" v="stream" />
	</node>
	<node lat="63.446747222949334" lon="10.300927777491665" id="-26959">
		<tag k="name" v="Lykkjadammen" />
		<tag k="ssr:stedsnr" v="28814" />
		<tag k="waterway" v="dam" />
	</node>
	<node lat="63.326774996537914" lon="10.522080551402407" id="-26967">
		<tag k="name" v="Bostadtjønna" />
		<tag k="natural" v="water" />
		<tag k="ssr:stedsnr" v="38618" />
	</node>
	<node lat="63.31512499734223" lon="10.55840277197784" id="-26970">
		<tag k="name" v="Bostadtjønna" />
		<tag k="natural" v="water" />
		<tag k="old_name" v="Bostadsetertjønna" />
		<tag k="ssr:stedsnr" v="38629" />
	</node>
	<node lat="63.27760277525877" lon="10.61004722605697" id="-26986">
		<tag k="name" v="Litjskurrubekken" />
		<tag k="ssr:stedsnr" v="43309" />
		<tag k="waterway" v="stream" />
	</node>
	<node lat="63.27863333744938" lon="10.461058341510705" id="-26989">
		<tag k="name" v="Bringbærloken" />
		<tag k="natural" v="water" />
		<tag k="ssr:stedsnr" v="43485" />
		<tag k="water" v="lake" />
	</node>
	<node lat="63.36582500310741" lon="10.445841663529057" id="-27000">
		<tag k="name" v="Liabekken" />
		<tag k="ssr:stedsnr" v="238593" />
		<tag k="waterway" v="stream" />
	</node>
	<node lat="63.441283335690784" lon="10.338472220781146" id="-27047">
		<tag k="name" v="Garnisonsbekken" />
		<tag k="ssr:stedsnr" v="59072" />
		<tag k="waterway" v="stream" />
	</node>
	<node lat="63.33932777689057" lon="10.65237222179456" id="-27050">
		<tag k="name" v="Kaldbudalsbekken" />
		<tag k="ssr:stedsnr" v="240539" />
		<tag k="waterway" v="stream" />
	</node>
	<node lat="63.39223611006411" lon="10.174913881504866" id="-27107">
		<tag k="name" v="Skogbekken" />
		<tag k="ssr:stedsnr" v="84106" />
		<tag k="waterway" v="stream" />
	</node>
	<node lat="63.39527777499211" lon="10.551875002953436" id="-27129">
		<tag k="name" v="Tronøya" />
		<tag k="place" v="islet" />
		<tag k="ssr:stedsnr" v="85480" />
	</node>
	<node lat="63.42354999691953" lon="10.18567222789798" id="-27138">
		<tag k="name" v="Elsetbekken" />
		<tag k="ssr:stedsnr" v="87013" />
		<tag k="waterway" v="stream" />
	</node>
	<node lat="63.381316664533124" lon="10.283322215314746" id="-27140">
		<tag k="alt_name" v="Sølvskakkeltjørna" />
		<tag k="name" v="Sølvskakkeltjønna" />
		<tag k="natural" v="water" />
		<tag k="ssr:stedsnr" v="87207" />
	</node>
	<node lat="63.371941670420284" lon="10.226702782647989" id="-27146">
		<tag k="name" v="Sandbekken" />
		<tag k="ssr:stedsnr" v="88504" />
		<tag k="waterway" v="stream" />
	</node>
	<node lat="63.37451110929802" lon="10.223452776712355" id="-27147">
		<tag k="alt_name" v="Klokktjørna" />
		<tag k="name" v="Klokktjønna" />
		<tag k="natural" v="water" />
		<tag k="ssr:stedsnr" v="88511" />
	</node>
	<node lat="63.39190555306603" lon="10.330908324041676" id="-27152">
		<tag k="name" v="Stolpstubekken" />
		<tag k="ssr:stedsnr" v="89225" />
		<tag k="waterway" v="stream" />
	</node>
	<node lat="63.39371111285102" lon="10.327749996281263" id="-27153">
		<tag k="name" v="Haukvassbekken" />
		<tag k="ssr:stedsnr" v="89227" />
		<tag k="waterway" v="stream" />
	</node>
	<node lat="63.23802777711256" lon="10.469402784734731" id="-27175">
		<tag k="name" v="Løksbekken" />
		<tag k="ssr:stedsnr" v="103327" />
		<tag k="waterway" v="stream" />
	</node>
	<node lat="63.23471388979695" lon="10.561947225869746" id="-27205">
		<tag k="name" v="Fisklaustjønna" />
		<tag k="natural" v="water" />
		<tag k="ssr:stedsnr" v="116627" />
	</node>
	<node lat="63.34468055712174" lon="10.547108332738281" id="-27209">
		<tag k="name" v="Gortjørnbekken" />
		<tag k="ssr:stedsnr" v="119091" />
		<tag k="waterway" v="stream" />
	</node>
	<node lat="63.26057778105637" lon="10.395044443961643" id="-27220">
		<tag k="name" v="Svallbekken" />
		<tag k="ssr:stedsnr" v="134223" />
		<tag k="waterway" v="stream" />
	</node>
	<node lat="63.22959999709294" lon="10.596500008141016" id="-27237">
		<tag k="name" v="Lomtjønna" />
		<tag k="natural" v="water" />
		<tag k="ssr:stedsnr" v="255740" />
	</node>
	<node lat="63.22893611182124" lon="10.625341660675607" id="-27238">
		<tag k="name" v="Nedre Slumptjønna" />
		<tag k="natural" v="water" />
		<tag k="ssr:stedsnr" v="255745" />
	</node>
	<node lat="63.39714444370965" lon="10.254883324997337" id="-27250">
		<tag k="name" v="Kvitsanden" />
		<tag k="natural" v="beach" />
		<tag k="ssr:stedsnr" v="147168" />
	</node>
	<node lat="63.44695000271154" lon="10.202780562154343" id="-27260">
		<tag k="fixme" v="multiple name tags, choose one and add the other to alt_name" />
		<tag k="name" v="Flakkbekken;Rennarbekken" />
		<tag k="ssr:stedsnr" v="149673" />
		<tag k="waterway" v="stream" />
	</node>
	<node lat="63.28677222651936" lon="10.543783338469902" id="-27287">
		<tag k="name" v="Vargslættbekken" />
		<tag k="ssr:stedsnr" v="256752" />
		<tag k="waterway" v="stream" />
	</node>
	<node lat="63.26956111506328" lon="10.431686119268234" id="-27303">
		<tag k="name" v="Litjelva" />
		<tag k="ssr:stedsnr" v="164312" />
		<tag k="waterway" v="river" />
	</node>
	<node lat="63.272633331499854" lon="10.598044435874547" id="-27305">
		<tag k="name" v="Skurrubekkodden" />
		<tag k="natural" v="cape" />
		<tag k="ssr:stedsnr" v="164371" />
	</node>
	<node lat="63.2912722178804" lon="10.623772229368027" id="-27308">
		<tag k="name" v="Knausbekken" />
		<tag k="ssr:stedsnr" v="164508" />
		<tag k="waterway" v="stream" />
	</node>
	<node lat="63.28267499661276" lon="10.466666657084993" id="-27310">
		<tag k="name" v="Moodden" />
		<tag k="natural" v="cape" />
		<tag k="ssr:stedsnr" v="164516" />
	</node>
	<node lat="63.30002777485345" lon="10.546416674176358" id="-27312">
		<tag k="name" v="Gørtjønna" />
		<tag k="natural" v="water" />
		<tag k="ssr:stedsnr" v="164467" />
	</node>
	<node lat="63.39709721841706" lon="10.166044443586792" id="-27358">
		<tag k="name" v="Trødalsbekken" />
		<tag k="ssr:stedsnr" v="266071" />
		<tag k="waterway" v="stream" />
	</node>
	<node lat="63.39645555167414" lon="10.241161106643432" id="-27363">
		<tag k="name" v="Skjellbreia" />
		<tag k="natural" v="water" />
		<tag k="ssr:stedsnr" v="195596" />
		<tag k="water" v="lake" />
	</node>
	<node lat="63.407444445546595" lon="10.56706945288508" id="-27366">
		<tag k="name" v="Solemstjønna" />
		<tag k="natural" v="water" />
		<tag k="ssr:stedsnr" v="195612" />
	</node>
	<node lat="63.34646388660127" lon="10.304069437716214" id="-27382">
		<tag k="fixme" v="multiple name tags, choose one and add the other to alt_name" />
		<tag k="name" v="Åsbekken;Langbekken" />
		<tag k="ssr:stedsnr" v="268215" />
		<tag k="waterway" v="stream" />
	</node>
	<node lat="63.41877777758835" lon="10.26095833451707" id="-27399">
		<tag k="alt_name" v="Blomstertjørna" />
		<tag k="name" v="Blomstertjønna" />
		<tag k="natural" v="water" />
		<tag k="ssr:stedsnr" v="268828" />
	</node>
	<node lat="63.4157388926198" lon="10.166119445782485" id="-27403">
		<tag k="alt_name" v="Vassdammen" />
		<tag k="name" v="Bosbergdammen" />
		<tag k="natural" v="water" />
		<tag k="ssr:stedsnr" v="208007" />
	</node>
	<node lat="63.39272222166104" lon="10.28677222806037" id="-27419">
		<tag k="name" v="Holbekken" />
		<tag k="ssr:stedsnr" v="210026" />
		<tag k="waterway" v="stream" />
	</node>
	<node lat="63.41504721883488" lon="10.209616670242236" id="-27421">
		<tag k="name" v="Litlkvistingen" />
		<tag k="natural" v="water" />
		<tag k="ssr:stedsnr" v="210525" />
	</node>
	<node lat="63.41139166805051" lon="10.242166665260772" id="-27429">
		<tag k="name" v="Dalabekken" />
		<tag k="ssr:stedsnr" v="270552" />
		<tag k="waterway" v="stream" />
	</node>
	<node lat="63.39593611556805" lon="10.237977772011739" id="-27431">
		<tag k="name" v="Storholmen" />
		<tag k="place" v="islet" />
		<tag k="ssr:stedsnr" v="270569" />
	</node>
	<node lat="63.41780278034008" lon="10.327000009522182" id="-27444">
		<tag k="name" v="Baklibekken" />
		<tag k="ssr:stedsnr" v="271166" />
		<tag k="waterway" v="stream" />
	</node>
	<node lat="63.43518888991049" lon="10.192347228013436" id="-27451">
		<tag k="name" v="Myrbekken" />
		<tag k="ssr:stedsnr" v="271361" />
		<tag k="waterway" v="stream" />
	</node>
	<node lat="63.23195277539125" lon="10.471436112724078" id="-27463">
		<tag k="name" v="Skifersteinsbekken" />
		<tag k="ssr:stedsnr" v="225383" />
		<tag k="waterway" v="stream" />
	</node>
	<node lat="63.44899722448588" lon="10.27540277902916" id="-27472">
		<tag k="name" v="Løftbekken" />
		<tag k="ssr:stedsnr" v="271856" />
		<tag k="waterway" v="stream" />
	</node>
	<node lat="63.25640555281324" lon="10.521066662153627" id="-27501">
		<tag k="loc_name" v="Grendstadsaga" />
		<tag k="name" v="Sagodden" />
		<tag k="natural" v="cape" />
		<tag k="ssr:stedsnr" v="234613" />
	</node>
	<node lat="63.42518333705294" lon="10.349624993485998" id="-27529">
		<tag k="name" v="Reservedammen" />
		<tag k="ssr:stedsnr" v="241728" />
		<tag k="waterway" v="dam" />
	</node>
	<node lat="63.447197222648974" lon="10.250597219131336" id="-27532">
		<tag k="name" v="Svartdalsbekken" />
		<tag k="ssr:stedsnr" v="451822" />
		<tag k="waterway" v="stream" />
	</node>
	<node lat="63.225052773823904" lon="10.582038897183045" id="-27545">
		<tag k="name" v="Olavatnet" />
		<tag k="natural" v="water" />
		<tag k="ssr:stedsnr" v="254677" />
	</node>
	<node lat="63.17636111268367" lon="10.668486112960954" id="-27551">
		<tag k="name" v="Tangvollsjøen" />
		<tag k="natural" v="water" />
		<tag k="ssr:stedsnr" v="255811" />
	</node>
	<node lat="63.32349832274182" lon="10.588776715970853" id="-27558">
		<tag k="name" v="Kjerringtjønna" />
		<tag k="natural" v="water" />
		<tag k="ssr:stedsnr" v="256858" />
	</node>
	<node lat="63.42531388896948" lon="10.386619437875673" id="-27564">
		<tag k="name" v="Nidelva" />
		<tag k="ssr:stedsnr" v="256969" />
		<tag k="waterway" v="river" />
	</node>
	<node lat="63.271680556740534" lon="10.550491659925369" id="-27568">
		<tag k="name" v="Bjørklibukta" />
		<tag k="natural" v="bay" />
		<tag k="ssr:stedsnr" v="264192" />
	</node>
	<node lat="63.31630964503869" lon="10.525949824016154" id="-27570">
		<tag k="name" v="Medamtjønna" />
		<tag k="natural" v="water" />
		<tag k="ssr:stedsnr" v="265240" />
	</node>
	<node lat="63.41799166727464" lon="10.162030563013086" id="-27572">
		<tag k="name" v="Bosbergbekken" />
		<tag k="ssr:stedsnr" v="266093" />
		<tag k="waterway" v="stream" />
	</node>
	<node lat="63.38357777801617" lon="10.169513890519585" id="-27582">
		<tag k="name" v="Hafellbekken" />
		<tag k="ssr:stedsnr" v="266947" />
		<tag k="waterway" v="stream" />
	</node>
	<node lat="63.396052780066135" lon="10.318369439659596" id="-27595">
		<tag k="name" v="Lianvassbekken" />
		<tag k="ssr:stedsnr" v="271241" />
		<tag k="waterway" v="stream" />
	</node>
	<node lat="63.43798889109672" lon="10.342447215440552" id="-27597">
		<tag k="fixme" v="multiple name tags, choose one and add the other to alt_name" />
		<tag k="name" v="Skardbekken;Skardhaugbekken" />
		<tag k="ssr:stedsnr" v="271825" />
		<tag k="waterway" v="stream" />
	</node>
	<node lat="63.362963890260666" lon="10.628994435047899" id="-27608">
		<tag k="name" v="Kvernbekken" />
		<tag k="ssr:stedsnr" v="283086" />
		<tag k="waterway" v="stream" />
	</node>
	<node lat="63.22639444311525" lon="10.484552771428628" id="-27623">
		<tag k="name" v="Pengtjønna" />
		<tag k="natural" v="water" />
		<tag k="ssr:stedsnr" v="285378" />
	</node>
	<node lat="63.316724997620256" lon="10.620219440667848" id="-27625">
		<tag k="name" v="Hestsjøen" />
		<tag k="natural" v="water" />
		<tag k="ssr:stedsnr" v="286427" />
		<tag k="water" v="lake" />
	</node>
	<node lat="63.27917499899701" lon="10.466516673878665" id="-27631">
		<tag k="name" v="Moøya" />
		<tag k="natural" v="cape" />
		<tag k="ssr:stedsnr" v="286454" />
	</node>
	<node lat="63.262494441908565" lon="10.37663889782433" id="-27632">
		<tag k="name" v="Skjenstadbekken" />
		<tag k="ssr:stedsnr" v="286508" />
		<tag k="waterway" v="stream" />
	</node>
	<node lat="63.33131944226424" lon="10.433252784301267" id="-27658">
		<tag k="name" v="Nordsetfossen" />
		<tag k="natural" v="waterfall" />
		<tag k="ssr:stedsnr" v="463591" />
	</node>
	<node lat="63.27489722291465" lon="10.565711109431543" id="-27687">
		<tag k="name" v="Ytre Sagbukta" />
		<tag k="natural" v="bay" />
		<tag k="ssr:stedsnr" v="467324" />
	</node>
	<node lat="63.22533055808271" lon="10.515730559496678" id="-27688">
		<tag k="name" v="Blæstertjønnin" />
		<tag k="natural" v="water" />
		<tag k="ssr:stedsnr" v="315712" />
	</node>
	<node lat="63.22330277756462" lon="10.563236105931642" id="-27691">
		<tag k="name" v="Kløftbekken" />
		<tag k="ssr:stedsnr" v="467390" />
		<tag k="waterway" v="stream" />
	</node>
	<node lat="63.25313642965242" lon="10.46413559803827" id="-27698">
		<tag k="name" v="Trongfossen" />
		<tag k="natural" v="waterfall" />
		<tag k="ssr:stedsnr" v="467337" />
	</node>
	<node lat="63.40914722423662" lon="10.213094438831167" id="-27701">
		<tag k="name" v="Kvistingen" />
		<tag k="natural" v="water" />
		<tag k="ssr:stedsnr" v="316456" />
	</node>
	<node lat="63.26543888680841" lon="10.416144451989663" id="-27714">
		<tag k="name" v="Vulubekken" />
		<tag k="ssr:stedsnr" v="316805" />
		<tag k="waterway" v="stream" />
	</node>
	<node lat="63.39403610727244" lon="10.530188887861682" id="-27723">
		<tag k="name" v="Litlvatnet" />
		<tag k="natural" v="water" />
		<tag k="ssr:stedsnr" v="317499" />
		<tag k="water" v="lake" />
	</node>
	<node lat="63.34806389112996" lon="10.295808336723232" id="-27734">
		<tag k="name" v="Storbekken" />
		<tag k="ssr:stedsnr" v="327213" />
		<tag k="waterway" v="stream" />
	</node>
	<node lat="63.44295555952037" lon="10.274391661679504" id="-27759">
		<tag k="name" v="Stortjønna" />
		<tag k="natural" v="water" />
		<tag k="ssr:stedsnr" v="331958" />
	</node>
	<node lat="63.248922223672366" lon="10.494636111933977" id="-27775">
		<tag k="name" v="Litjneset" />
		<tag k="natural" v="cape" />
		<tag k="ssr:stedsnr" v="346362" />
	</node>
	<node lat="63.245019443466006" lon="10.4959138836244" id="-27776">
		<tag k="name" v="Andvika" />
		<tag k="natural" v="bay" />
		<tag k="ssr:stedsnr" v="346365" />
	</node>
	<node lat="63.27507499614201" lon="10.394424999967962" id="-27785">
		<tag k="name" v="Svartåsbekken" />
		<tag k="ssr:stedsnr" v="346272" />
		<tag k="waterway" v="stream" />
	</node>
	<node lat="63.388341665542946" lon="10.359619448048274" id="-27802">
		<tag k="name" v="Uglabekken" />
		<tag k="ssr:stedsnr" v="353763" />
		<tag k="waterway" v="stream" />
	</node>
	<node lat="63.360322222645806" lon="10.607730553501947" id="-27811">
		<tag k="name" v="Storøya" />
		<tag k="place" v="island" />
		<tag k="ssr:stedsnr" v="354254" />
	</node>
	<node lat="63.37286388471092" lon="10.409811107820163" id="-27825">
		<tag k="loc_name" v="Øvre Leirfossdammen" />
		<tag k="name" v="Dam Øvre Lerfoss" />
		<tag k="ssr:stedsnr" v="474855" />
		<tag k="waterway" v="dam" />
	</node>
	<node lat="63.345880552897995" lon="10.66467777967718" id="-27832">
		<tag k="alt_name" v="Langenbekken" />
		<tag k="name" v="Langengbekken" />
		<tag k="ssr:stedsnr" v="475265" />
		<tag k="waterway" v="stream" />
	</node>
	<node lat="63.39407222017517" lon="10.530330548903176" id="-27834">
		<tag k="name" v="Trongsundet" />
		<tag k="natural" v="strait" />
		<tag k="ssr:stedsnr" v="475288" />
	</node>
	<node lat="63.39842499661702" lon="10.447822231705254" id="-27852">
		<tag k="name" v="Steinan høydebasseng" />
		<tag k="ssr:stedsnr" v="476740" />
		<tag k="waterway" v="dam" />
	</node>
	<node lat="63.342825001814525" lon="10.26871945159928" id="-27870">
		<tag k="name" v="Mobekken" />
		<tag k="ssr:stedsnr" v="482540" />
		<tag k="waterway" v="stream" />
	</node>
	<node lat="63.281538887701316" lon="10.467280552371326" id="-27872">
		<tag k="name" v="Moodden" />
		<tag k="natural" v="cape" />
		<tag k="ssr:stedsnr" v="385209" />
	</node>
	<node lat="63.42034444682151" lon="10.173880555056003" id="-27893">
		<tag k="fixme" v="multiple name tags, choose one and add the other to alt_name" />
		<tag k="name" v="Svebekken;Holmsbekken" />
		<tag k="ssr:stedsnr" v="390007" />
		<tag k="waterway" v="stream" />
	</node>
	<node lat="63.35678888483993" lon="10.246486108175839" id="-27899">
		<tag k="name" v="Vadbekken" />
		<tag k="ssr:stedsnr" v="390291" />
		<tag k="waterway" v="stream" />
	</node>
	<node lat="63.31362222586021" lon="10.500205554114544" id="-27934">
		<tag k="name" v="Isdammen" />
		<tag k="natural" v="water" />
		<tag k="ssr:stedsnr" v="407415" />
		<tag k="water" v="pond" />
	</node>
	<node lat="63.34169722295959" lon="10.479913893989188" id="-27941">
		<tag k="name" v="Røstadbekken" />
		<tag k="ssr:stedsnr" v="414272" />
		<tag k="waterway" v="stream" />
	</node>
	<node lat="63.35045555768006" lon="10.569105554379439" id="-27952">
		<tag k="name" v="Krossvikholmen" />
		<tag k="place" v="islet" />
		<tag k="ssr:stedsnr" v="415242" />
	</node>
	<node lat="63.33678333722455" lon="10.602080554587927" id="-27978">
		<tag k="name" v="Spillertjønna" />
		<tag k="natural" v="water" />
		<tag k="ssr:stedsnr" v="437911" />
	</node>
	<node lat="63.33633333427814" lon="10.549536105701737" id="-27979">
		<tag k="name" v="Gortjønna" />
		<tag k="natural" v="water" />
		<tag k="ssr:stedsnr" v="437914" />
	</node>
	<node lat="63.26481388675209" lon="10.580652776932691" id="-27983">
		<tag k="name" v="Kvernodden" />
		<tag k="natural" v="cape" />
		<tag k="ssr:stedsnr" v="438748" />
	</node>
	<node lat="63.26373888686578" lon="10.577286102422258" id="-27984">
		<tag k="name" v="Leirvika" />
		<tag k="natural" v="bay" />
		<tag k="ssr:stedsnr" v="438749" />
	</node>
	<node lat="63.407149996327405" lon="10.08340000433055" id="-27998">
		<tag k="name" v="Smallibekken" />
		<tag k="ssr:stedsnr" v="448846" />
		<tag k="waterway" v="stream" />
	</node>
	<node lat="63.390377781638186" lon="10.235216670322783" id="-28018">
		<tag k="name" v="Svenskbekken" />
		<tag k="ssr:stedsnr" v="453220" />
		<tag k="waterway" v="stream" />
	</node>
	<node lat="63.23897221782063" lon="10.661691675260924" id="-28024">
		<tag k="name" v="Småvassbekken" />
		<tag k="ssr:stedsnr" v="463605" />
		<tag k="waterway" v="stream" />
	</node>
	<node lat="63.34692044552412" lon="10.621570794725113" id="-28027">
		<tag k="name" v="Kusetvika" />
		<tag k="natural" v="bay" />
		<tag k="ssr:stedsnr" v="465121" />
	</node>
	<node lat="63.31306111434144" lon="10.546530561361124" id="-28036">
		<tag k="name" v="Sautjønna" />
		<tag k="natural" v="water" />
		<tag k="ssr:stedsnr" v="467417" />
	</node>
	<node lat="63.24858888602121" lon="10.505555561712445" id="-28039">
		<tag k="name" v="Brøttemsneset" />
		<tag k="natural" v="cape" />
		<tag k="ssr:stedsnr" v="467362" />
	</node>
	<node lat="63.3593222230035" lon="10.54965556155583" id="-28048">
		<tag k="name" v="Digresauntjønna" />
		<tag k="natural" v="water" />
		<tag k="ssr:stedsnr" v="475309" />
	</node>
	<node lat="63.34166666803054" lon="10.26253332671021" id="-28050">
		<tag k="name" v="Buskleinbekken" />
		<tag k="ssr:stedsnr" v="475262" />
		<tag k="waterway" v="stream" />
	</node>
	<node lat="63.395352780092885" lon="10.544811110801648" id="-28053">
		<tag k="name" v="Simsnebben" />
		<tag k="natural" v="cape" />
		<tag k="ssr:stedsnr" v="476228" />
	</node>
	<node lat="63.41923889315064" lon="10.320974992308386" id="-28088">
		<tag k="name" v="Baklidammen" />
		<tag k="natural" v="water" />
		<tag k="ssr:stedsnr" v="680697" />
	</node>
	<node lat="63.357358332871584" lon="10.213647227226364" id="-28094">
		<tag k="name" v="Gravabekken" />
		<tag k="ssr:stedsnr" v="680490" />
		<tag k="waterway" v="stream" />
	</node>
	<node lat="63.23112499588737" lon="10.627316657516177" id="-28099">
		<tag k="name" v="Øvre Slumptjønna" />
		<tag k="natural" v="water" />
		<tag k="ssr:stedsnr" v="680782" />
	</node>
	<node lat="63.284741662961444" lon="10.395116656854144" id="-28100">
		<tag k="name" v="Storfagerlibekken" />
		<tag k="ssr:stedsnr" v="680843" />
		<tag k="waterway" v="stream" />
	</node>
	<node lat="63.29586944882158" lon="10.41809722866141" id="-28102">
		<tag k="name" v="Grasmyrbekken" />
		<tag k="ssr:stedsnr" v="680853" />
		<tag k="waterway" v="stream" />
	</node>
	<node lat="63.36457697003159" lon="10.609933400008183" id="-28110">
		<tag k="name" v="Midtøya" />
		<tag k="place" v="islet" />
		<tag k="ssr:stedsnr" v="680991" />
	</node>
	<node lat="63.43295000264936" lon="10.158516676495935" id="-28116">
		<tag k="fixme" v="multiple name tags, choose one and add the other to alt_name" />
		<tag k="name" v="Klefstadbekken;Klefstadelva" />
		<tag k="ssr:stedsnr" v="498112" />
		<tag k="waterway" v="stream" />
	</node>
	<node lat="63.260652775249966" lon="10.480702786936849" id="-28121">
		<tag k="name" v="Stabbtjønna" />
		<tag k="natural" v="water" />
		<tag k="ssr:stedsnr" v="498249" />
	</node>
	<node lat="63.3720944425093" lon="10.41565278242811" id="-28125">
		<tag k="name" v="Øvre Leirfossen" />
		<tag k="natural" v="waterfall" />
		<tag k="ssr:stedsnr" v="498564" />
	</node>
	<node lat="63.40501666871399" lon="10.533516670932842" id="-28131">
		<tag k="name" v="Vikelva" />
		<tag k="ssr:stedsnr" v="498662" />
		<tag k="waterway" v="stream" />
	</node>
	<node lat="63.2304749977063" lon="10.566850006832281" id="-28132">
		<tag k="name" v="Storavatnet" />
		<tag k="natural" v="water" />
		<tag k="ssr:stedsnr" v="498747" />
		<tag k="water" v="lake" />
	</node>
	<node lat="63.29648888872783" lon="10.58585834154837" id="-28137">
		<tag k="name" v="Høgskjølbekken" />
		<tag k="ssr:stedsnr" v="498849" />
		<tag k="waterway" v="stream" />
	</node>
	<node lat="63.31671666774677" lon="10.695613889174362" id="-28140">
		<tag k="name" v="Bjørnstadtjønnin" />
		<tag k="natural" v="water" />
		<tag k="ssr:stedsnr" v="498901" />
	</node>
	<node lat="63.36515555364168" lon="10.199180549625444" id="-28175">
		<tag k="name" v="Sagdammen" />
		<tag k="natural" v="water" />
		<tag k="ssr:stedsnr" v="513904" />
	</node>
	<node lat="63.26633611554136" lon="10.458355548833504" id="-28182">
		<tag k="name" v="Kulpan" />
		<tag k="place" v="locality" />
		<tag k="ssr:stedsnr" v="523823" />
	</node>
	<node lat="63.26178055179483" lon="10.406866675973955" id="-28200">
		<tag k="name" v="Tjuvdalsbekken" />
		<tag k="ssr:stedsnr" v="528308" />
		<tag k="waterway" v="stream" />
	</node>
	<node lat="63.26820555202068" lon="10.543202768381864" id="-28202">
		<tag k="name" v="Storsanden" />
		<tag k="natural" v="cape" />
		<tag k="ssr:stedsnr" v="528329" />
	</node>
	<node lat="63.271733332298595" lon="10.391900009876798" id="-28206">
		<tag k="name" v="Hestkosbekken" />
		<tag k="ssr:stedsnr" v="528301" />
		<tag k="waterway" v="stream" />
	</node>
	<node lat="63.28296944689664" lon="10.601925002839415" id="-28210">
		<tag k="name" v="Kvernbekken" />
		<tag k="ssr:stedsnr" v="528475" />
		<tag k="waterway" v="stream" />
	</node>
	<node lat="63.378550000232494" lon="10.561155561724018" id="-28219">
		<tag k="name" v="Leirøya" />
		<tag k="place" v="island" />
		<tag k="ssr:stedsnr" v="536216" />
	</node>
	<node lat="63.38326919832378" lon="10.557527440874123" id="-28259">
		<tag k="name" v="Valen" />
		<tag k="natural" v="strait" />
		<tag k="ssr:stedsnr" v="687353" />
	</node>
	<node lat="63.21387500391241" lon="10.52821665841931" id="-28263">
		<tag k="name" v="Brunga" />
		<tag k="ssr:stedsnr" v="557659" />
		<tag k="waterway" v="river" />
	</node>
	<node lat="63.23119167015801" lon="10.948419453687718" id="-28265">
		<tag k="name" v="Selbusjøen" />
		<tag k="natural" v="water" />
		<tag k="ssr:stedsnr" v="558004" />
		<tag k="water" v="lake" />
	</node>
	<node lat="63.25772222228286" lon="10.642422223296164" id="-28271">
		<tag k="name" v="Tangvolla" />
		<tag k="ssr:stedsnr" v="559191" />
		<tag k="waterway" v="river" />
	</node>
	<node lat="63.27152499614356" lon="10.585124993168705" id="-28278">
		<tag k="name" v="Nesnodden" />
		<tag k="natural" v="cape" />
		<tag k="ssr:stedsnr" v="559748" />
	</node>
	<node lat="63.318169440892056" lon="10.622427783326422" id="-28282">
		<tag k="name" v="Hestsjøen" />
		<tag k="natural" v="water" />
		<tag k="ssr:stedsnr" v="559894" />
		<tag k="water" v="lake" />
	</node>
	<node lat="63.393086115037015" lon="10.20163333588213" id="-28294">
		<tag k="name" v="Bykleivvatnet" />
		<tag k="natural" v="water" />
		<tag k="ssr:stedsnr" v="691869" />
	</node>
	<node lat="63.39540555351246" lon="10.238233338206983" id="-28351">
		<tag k="name" v="Litlholmen" />
		<tag k="place" v="islet" />
		<tag k="ssr:stedsnr" v="574200" />
	</node>
	<node lat="63.44413055178895" lon="10.272477779257374" id="-28366">
		<tag k="name" v="Litltjønna" />
		<tag k="natural" v="water" />
		<tag k="ssr:stedsnr" v="695950" />
	</node>
	<node lat="63.411674995536465" lon="10.268197229672726" id="-28375">
		<tag k="name" v="Vadbekken" />
		<tag k="ssr:stedsnr" v="696148" />
		<tag k="waterway" v="stream" />
	</node>
	<node lat="63.36223611049243" lon="10.627372221171425" id="-28376">
		<tag k="name" v="Kvernodden" />
		<tag k="natural" v="cape" />
		<tag k="ssr:stedsnr" v="586094" />
	</node>
	<node lat="63.3709944461268" lon="10.555163885642878" id="-28385">
		<tag k="name" v="Kårodden" />
		<tag k="natural" v="cape" />
		<tag k="ssr:stedsnr" v="587406" />
	</node>
	<node lat="63.36477500146248" lon="10.564147226636225" id="-28408">
		<tag k="alt_name" v="Løkstadbukta" />
		<tag k="name" v="Løkkstadbukta" />
		<tag k="natural" v="bay" />
		<tag k="ssr:stedsnr" v="596253" />
	</node>
	<node lat="63.27420833580157" lon="10.565577781418261" id="-28447">
		<tag k="name" v="Sagbukta" />
		<tag k="natural" v="bay" />
		<tag k="ssr:stedsnr" v="619815" />
	</node>
	<node lat="63.381127779217074" lon="10.077138879826189" id="-28453">
		<tag k="name" v="Baua" />
		<tag k="natural" v="water" />
		<tag k="ssr:stedsnr" v="629808" />
	</node>
	<node lat="63.38543889094884" lon="10.297072212835532" id="-28483">
		<tag k="name" v="Våddabekken" />
		<tag k="ssr:stedsnr" v="633183" />
		<tag k="waterway" v="stream" />
	</node>
	<node lat="63.354972218699146" lon="10.244969440012008" id="-28485">
		<tag k="name" v="Vadet" />
		<tag k="place" v="locality" />
		<tag k="ssr:stedsnr" v="633315" />
	</node>
	<node lat="63.39464444545371" lon="10.311238880570077" id="-28491">
		<tag k="name" v="Marilibekken" />
		<tag k="ssr:stedsnr" v="634213" />
		<tag k="waterway" v="stream" />
	</node>
	<node lat="63.30457778201218" lon="10.565338891155792" id="-28528">
		<tag k="name" v="Dyrbekken" />
		<tag k="ssr:stedsnr" v="649443" />
		<tag k="waterway" v="stream" />
	</node>
	<node lat="63.367152780553795" lon="10.554377771448124" id="-28553">
		<tag k="name" v="Væresaunbukta" />
		<tag k="natural" v="strait" />
		<tag k="ssr:stedsnr" v="657287" />
	</node>
	<node lat="63.38593888604102" lon="10.583127783975911" id="-28554">
		<tag k="name" v="Jervbukta" />
		<tag k="natural" v="bay" />
		<tag k="ssr:stedsnr" v="657288" />
	</node>
	<node lat="63.21395555318819" lon="10.669447227149028" id="-28603">
		<tag k="name" v="Korsbekken" />
		<tag k="ssr:stedsnr" v="710396" />
		<tag k="waterway" v="stream" />
	</node>
	<node lat="63.29671944658742" lon="10.448194434941048" id="-28613">
		<tag k="name" v="Bukkholmen" />
		<tag k="place" v="islet" />
		<tag k="ssr:stedsnr" v="710522" />
	</node>
	<node lat="63.37135832941505" lon="10.536441658862218" id="-28631">
		<tag k="name" v="Lykkjbekken" />
		<tag k="ssr:stedsnr" v="891435" />
		<tag k="waterway" v="stream" />
	</node>
	<node lat="63.39464444161705" lon="10.531541666620404" id="-28633">
		<tag k="name" v="Odda" />
		<tag k="natural" v="cape" />
		<tag k="ssr:stedsnr" v="891460" />
	</node>
	<node lat="63.267044441113" lon="10.400294442397218" id="-28644">
		<tag k="name" v="Kåsbekken" />
		<tag k="ssr:stedsnr" v="892268" />
		<tag k="waterway" v="stream" />
	</node>
	<node lat="63.3381472198545" lon="10.60790832554314" id="-28647">
		<tag k="name" v="Kroktjønna" />
		<tag k="natural" v="water" />
		<tag k="ssr:stedsnr" v="680959" />
	</node>
	<node lat="63.23374999719259" lon="10.60686666776376" id="-28665">
		<tag k="name" v="Dånnøydammen" />
		<tag k="ssr:stedsnr" v="892351" />
		<tag k="waterway" v="dam" />
	</node>
	<node lat="63.234250002030095" lon="10.605194452282023" id="-28666">
		<tag k="name" v="Dånnøyfossen" />
		<tag k="natural" v="waterfall" />
		<tag k="ssr:stedsnr" v="892352" />
	</node>
	<node lat="63.31233332936603" lon="10.520800009118025" id="-28670">
		<tag k="name" v="Damtjønna" />
		<tag k="natural" v="water" />
		<tag k="ssr:stedsnr" v="681861" />
	</node>
	<node lat="63.31053332978575" lon="10.562497215562871" id="-28672">
		<tag k="name" v="Jamtholet" />
		<tag k="natural" v="water" />
		<tag k="ssr:stedsnr" v="892398" />
	</node>
	<node lat="63.28092777616868" lon="10.50121389471048" id="-28673">
		<tag k="name" v="Svarttjønna" />
		<tag k="natural" v="water" />
		<tag k="ssr:stedsnr" v="892459" />
	</node>
	<node lat="63.26765000309519" lon="10.383758342070934" id="-28678">
		<tag k="name" v="Merkesbekken" />
		<tag k="ssr:stedsnr" v="892491" />
		<tag k="waterway" v="stream" />
	</node>
	<node lat="63.30963888973426" lon="10.537383335915605" id="-28682">
		<tag k="name" v="Gullsibekken" />
		<tag k="ssr:stedsnr" v="893391" />
		<tag k="waterway" v="stream" />
	</node>
	<node lat="63.30668055912244" lon="10.545224995716405" id="-28683">
		<tag k="name" v="Gullsitjønna" />
		<tag k="natural" v="water" />
		<tag k="ssr:stedsnr" v="893392" />
	</node>
	<node lat="63.37562777907937" lon="10.29218889037379" id="-28705">
		<tag k="name" v="Fålåtjønnan" />
		<tag k="natural" v="water" />
		<tag k="ssr:stedsnr" v="693175" />
	</node>
	<node lat="63.36040555955144" lon="10.237327768698606" id="-28710">
		<tag k="name" v="Sagbekken" />
		<tag k="ssr:stedsnr" v="694280" />
		<tag k="waterway" v="stream" />
	</node>
	<node lat="63.34627055613723" lon="10.59323756481913" id="-28728">
		<tag k="name" v="Hammerbekken" />
		<tag k="ssr:stedsnr" v="708027" />
		<tag k="waterway" v="stream" />
	</node>
	<node lat="63.27441389097152" lon="10.570166668268294" id="-28733">
		<tag k="alt_name" v="Øv. Sagbukta" />
		<tag k="name" v="Øvre Sagbukta" />
		<tag k="natural" v="bay" />
		<tag k="ssr:stedsnr" v="710329" />
	</node>
	<node lat="63.31366388915089" lon="10.698688885142385" id="-28745">
		<tag k="alt_name" v="Øver Bjørnstadtjørna" />
		<tag k="name" v="Øver Bjørnstadtjønna" />
		<tag k="natural" v="water" />
		<tag k="ssr:stedsnr" v="718281" />
	</node>
	<node lat="63.34521666910399" lon="10.581027777131073" id="-28746">
		<tag k="name" v="Storvassbukta" />
		<tag k="natural" v="strait" />
		<tag k="ssr:stedsnr" v="718290" />
	</node>
	<node lat="63.41001388631487" lon="10.53979166053488" id="-28777">
		<tag k="name" v="Nydammen" />
		<tag k="natural" v="water" />
		<tag k="ssr:stedsnr" v="899884" />
		<tag k="water" v="pond" />
	</node>
	<node lat="63.38041388675751" lon="10.619519436354183" id="-28788">
		<tag k="name" v="Kjerringtjønna" />
		<tag k="natural" v="water" />
		<tag k="ssr:stedsnr" v="900290" />
	</node>
	<node lat="63.276313885700624" lon="10.54531666280354" id="-28837">
		<tag k="name" v="Kvernbekken" />
		<tag k="ssr:stedsnr" v="741806" />
		<tag k="waterway" v="stream" />
	</node>
	<node lat="63.29219444603087" lon="10.429124990283519" id="-28838">
		<tag k="fixme" v="multiple name tags, choose one and add the other to alt_name" />
		<tag k="name" v="Tullen;Tullbekken" />
		<tag k="ssr:stedsnr" v="741844" />
		<tag k="waterway" v="stream" />
	</node>
	<node lat="63.26633333157342" lon="10.632072229400746" id="-28841">
		<tag k="name" v="Tangvollbukta" />
		<tag k="natural" v="bay" />
		<tag k="ssr:stedsnr" v="741794" />
	</node>
	<node lat="63.42607778118001" lon="10.215833330276432" id="-28856">
		<tag k="name" v="Storgrovbekken" />
		<tag k="ssr:stedsnr" v="754105" />
		<tag k="waterway" v="stream" />
	</node>
	<node lat="63.304166663128775" lon="10.541466659522303" id="-28903">
		<tag k="name" v="Bjørntjønna" />
		<tag k="natural" v="water" />
		<tag k="ssr:stedsnr" v="771417" />
	</node>
	<node lat="63.23212500217807" lon="10.492916666369641" id="-28960">
		<tag k="name" v="Rangåa" />
		<tag k="ssr:stedsnr" v="801711" />
		<tag k="waterway" v="river" />
	</node>
	<node lat="63.21703888936791" lon="10.638280545708763" id="-28963">
		<tag k="name" v="Skjeftestjønna" />
		<tag k="natural" v="water" />
		<tag k="ssr:stedsnr" v="801688" />
	</node>
	<node lat="63.220980551495835" lon="10.654383328555491" id="-28964">
		<tag k="name" v="Tangvollelva" />
		<tag k="ssr:stedsnr" v="801689" />
		<tag k="waterway" v="river" />
	</node>
	<node lat="63.38013055579396" lon="10.599172227550978" id="-28966">
		<tag k="name" v="Kusetbukta" />
		<tag k="natural" v="bay" />
		<tag k="ssr:stedsnr" v="802607" />
	</node>
	<node lat="63.38217777820191" lon="10.603069436925294" id="-28967">
		<tag k="name" v="Gjeddvatnet" />
		<tag k="natural" v="water" />
		<tag k="ssr:stedsnr" v="802608" />
	</node>
	<node lat="63.31400555801247" lon="10.583108327671201" id="-28971">
		<tag k="name" v="Auntjønna" />
		<tag k="natural" v="water" />
		<tag k="ssr:stedsnr" v="802883" />
	</node>
	<node lat="63.32298611551414" lon="10.393752781044089" id="-28974">
		<tag k="alt_name" v="Svarttjønn" />
		<tag k="name" v="Svarttjønna" />
		<tag k="natural" v="water" />
		<tag k="ssr:stedsnr" v="802909" />
	</node>
	<node lat="63.44360000119162" lon="10.307422228368978" id="-29005">
		<tag k="name" v="Tiendalsbekken" />
		<tag k="ssr:stedsnr" v="817930" />
		<tag k="waterway" v="stream" />
	</node>
	<node lat="63.43389444562605" lon="10.269858331340323" id="-29007">
		<tag k="name" v="Strypbekken" />
		<tag k="ssr:stedsnr" v="817871" />
		<tag k="waterway" v="stream" />
	</node>
	<node lat="63.221024996439795" lon="10.588444450102319" id="-29018">
		<tag k="alt_name" v="Sandåvatnet" />
		<tag k="name" v="Sandavatnet" />
		<tag k="natural" v="water" />
		<tag k="ssr:stedsnr" v="922692" />
	</node>
	<node lat="63.26244721859241" lon="10.428827777752158" id="-29024">
		<tag k="name" v="Rassveitbekken" />
		<tag k="ssr:stedsnr" v="832285" />
		<tag k="waterway" v="stream" />
	</node>
	<node lat="63.264388885452675" lon="10.387022221350838" id="-29031">
		<tag k="name" v="Seterbekken" />
		<tag k="ssr:stedsnr" v="832542" />
		<tag k="waterway" v="stream" />
	</node>
	<node lat="63.230108328913516" lon="10.544550004334395" id="-29048">
		<tag k="name" v="Storavassbekken" />
		<tag k="ssr:stedsnr" v="923741" />
		<tag k="waterway" v="stream" />
	</node>
	<node lat="63.359825001392664" lon="10.608722218098373" id="-29053">
		<tag k="name" v="Storøya" />
		<tag k="place" v="islet" />
		<tag k="ssr:stedsnr" v="923989" />
	</node>
	<node lat="63.31197500397071" lon="10.395155549122236" id="-29086">
		<tag k="name" v="Damtjønnbekken" />
		<tag k="ssr:stedsnr" v="924845" />
		<tag k="waterway" v="stream" />
	</node>
	<node lat="63.39093333441091" lon="10.479027773719253" id="-29107">
		<tag k="name" v="Tømmerholtdammen" />
		<tag k="natural" v="water" />
		<tag k="ssr:stedsnr" v="849624" />
	</node>
	<node lat="63.22236111267187" lon="10.597174995884833" id="-29116">
		<tag k="name" v="Østringen" />
		<tag k="natural" v="water" />
		<tag k="ssr:stedsnr" v="862699" />
	</node>
	<node lat="63.39145833630212" lon="10.48195555638898" id="-29131">
		<tag k="name" v="Estenstaddamman" />
		<tag k="natural" v="water" />
		<tag k="ssr:stedsnr" v="863592" />
	</node>
	<node lat="63.44050555264701" lon="10.21966944216982" id="-29134">
		<tag k="name" v="Svartvatnet" />
		<tag k="natural" v="water" />
		<tag k="ssr:stedsnr" v="930266" />
	</node>
	<node lat="63.381816666528266" lon="10.47693610876088" id="-29135">
		<tag k="name" v="Lomtjønna" />
		<tag k="natural" v="water" />
		<tag k="ssr:stedsnr" v="870780" />
	</node>
	<node lat="63.42196389165513" lon="10.317536119729173" id="-29144">
		<tag k="fixme" v="multiple name tags, choose one and add the other to alt_name" />
		<tag k="name" v="Kaldvelta;Kilden" />
		<tag k="natural" v="spring" />
		<tag k="ssr:stedsnr" v="878150" />
	</node>
	<node lat="63.44195000380281" lon="10.3110555588278" id="-29147">
		<tag k="name" v="Tiendalsdammen" />
		<tag k="natural" v="water" />
		<tag k="ssr:stedsnr" v="878915" />
	</node>
	<node lat="63.425541670629876" lon="10.338258335793041" id="-29158">
		<tag k="name" v="Nedre Skardbekken" />
		<tag k="ssr:stedsnr" v="934882" />
		<tag k="waterway" v="stream" />
	</node>
	<node lat="63.369899999295114" lon="10.28627222451598" id="-29169">
		<tag k="fixme" v="multiple name tags, choose one and add the other to alt_name" />
		<tag k="name" v="Kåttåtjønnbekken;Rørdalsbekken" />
		<tag k="ssr:stedsnr" v="935149" />
		<tag k="waterway" v="stream" />
	</node>
	<node lat="63.33378333314004" lon="10.54996666768674" id="-29173">
		<tag k="name" v="Gulltjønnbekken" />
		<tag k="ssr:stedsnr" v="888547" />
		<tag k="waterway" v="stream" />
	</node>
	<node lat="63.331061107699256" lon="10.545925004319002" id="-29174">
		<tag k="name" v="Brattkneppbekken" />
		<tag k="ssr:stedsnr" v="888548" />
		<tag k="waterway" v="stream" />
	</node>
	<node lat="63.38206943998879" lon="10.551361120634173" id="-29204">
		<tag k="name" v="Kolbudalsøya" />
		<tag k="place" v="island" />
		<tag k="ssr:stedsnr" v="900262" />
	</node>
	<node lat="63.317680555802816" lon="10.699186105483383" id="-29217">
		<tag k="name" v="Heinfjordbekken" />
		<tag k="ssr:stedsnr" v="908072" />
		<tag k="waterway" v="stream" />
	</node>
	<node lat="63.266569445967825" lon="10.4694277847309" id="-29234">
		<tag k="name" v="Stabbekken" />
		<tag k="ssr:stedsnr" v="923777" />
		<tag k="waterway" v="stream" />
	</node>
	<node lat="63.354952775485174" lon="10.638713897223653" id="-29263">
		<tag k="name" v="Sivertvika" />
		<tag k="natural" v="bay" />
		<tag k="ssr:stedsnr" v="951106" />
	</node>
	<node lat="63.257250004016505" lon="10.531072230650485" id="-29270">
		<tag k="name" v="Kjerringodden" />
		<tag k="natural" v="cape" />
		<tag k="ssr:stedsnr" v="953317" />
	</node>
	<node lat="63.254863885962465" lon="10.463644437273887" id="-29275">
		<tag k="name" v="Båthølen" />
		<tag k="place" v="locality" />
		<tag k="ssr:stedsnr" v="953348" />
	</node>
	<node lat="63.24396389168212" lon="10.438505556221013" id="-29276">
		<tag k="name" v="Holbekken" />
		<tag k="ssr:stedsnr" v="953354" />
		<tag k="waterway" v="stream" />
	</node>
	<node lat="63.24537778109754" lon="10.41355555690009" id="-29277">
		<tag k="name" v="Langmyrbekken" />
		<tag k="ssr:stedsnr" v="953360" />
		<tag k="waterway" v="stream" />
	</node>
	<node lat="63.254405559481" lon="10.642422215825142" id="-29281">
		<tag k="name" v="Storfossen" />
		<tag k="natural" v="waterfall" />
		<tag k="ssr:stedsnr" v="953394" />
	</node>
	<node lat="63.28503055117088" lon="10.501436118510243" id="-29283">
		<tag k="name" v="Lomtjønna" />
		<tag k="natural" v="water" />
		<tag k="ssr:stedsnr" v="953506" />
	</node>
	<node lat="63.37049963473116" lon="10.214516409194053" id="-29340">
		<tag k="fixme" v="multiple name tags, choose one and add the other to alt_name" />
		<tag k="name" v="Rongsvatnet;Rognstjønna" />
		<tag k="natural" v="water" />
		<tag k="ssr:stedsnr" v="13482" />
	</node>
	<node lat="63.43699166294534" lon="10.2253555595113" id="-29355">
		<tag k="name" v="Kongensåsvatnet" />
		<tag k="natural" v="water" />
		<tag k="ssr:stedsnr" v="13698" />
	</node>
	<node lat="63.26246666973071" lon="10.58594445217764" id="-29356">
		<tag k="name" v="Dånnøybukta" />
		<tag k="natural" v="bay" />
		<tag k="old_name" v="Øvre Leirvika;Leirvikbukta, øvre;Øver Leirvika" />
		<tag k="ssr:stedsnr" v="13762" />
	</node>
	<node lat="63.275930555992595" lon="10.53524999668117" id="-29357">
		<tag k="name" v="Ytterbekken" />
		<tag k="ssr:stedsnr" v="13776" />
		<tag k="waterway" v="stream" />
	</node>
	<node lat="63.272505559348325" lon="10.480433329800505" id="-29359">
		<tag k="name" v="Damtjønna" />
		<tag k="natural" v="water" />
		<tag k="ssr:stedsnr" v="13782" />
	</node>
	<node lat="63.32218932537163" lon="10.317389553051527" id="-29366">
		<tag k="name" v="Søra" />
		<tag k="ssr:stedsnr" v="13892" />
		<tag k="waterway" v="stream" />
	</node>
	<node lat="63.35618332941736" lon="10.598980552395437" id="-29370">
		<tag k="name" v="Hestøya" />
		<tag k="place" v="islet" />
		<tag k="ssr:stedsnr" v="13980" />
	</node>
	<node lat="63.355477774800406" lon="10.540591658237629" id="-29371">
		<tag k="name" v="Langtjønna" />
		<tag k="natural" v="water" />
		<tag k="ssr:stedsnr" v="13981" />
	</node>
	<node lat="63.37815278186737" lon="10.172750004388467" id="-29383">
		<tag k="name" v="Bergsbekken" />
		<tag k="ssr:stedsnr" v="23999" />
		<tag k="waterway" v="stream" />
	</node>
	<node lat="63.36519722202705" lon="10.236552776394058" id="-29395">
		<tag k="name" v="Storgrasmyrbekken" />
		<tag k="ssr:stedsnr" v="24554" />
		<tag k="waterway" v="stream" />
	</node>
	<node lat="63.39578888734781" lon="10.327244446756943" id="-29422">
		<tag k="name" v="Åsabekken" />
		<tag k="ssr:stedsnr" v="28228" />
		<tag k="waterway" v="stream" />
	</node>
	<node lat="63.44943888599623" lon="10.279272218947693" id="-29426">
		<tag k="name" v="Isrenna" />
		<tag k="place" v="locality" />
		<tag k="ssr:stedsnr" v="28852" />
	</node>
	<node lat="63.37681944804828" lon="10.4652388886083" id="-29442">
		<tag k="name" v="Ramdalsbekken" />
		<tag k="ssr:stedsnr" v="40520" />
		<tag k="waterway" v="stream" />
	</node>
	<node lat="63.252808335048684" lon="10.575263879465682" id="-29455">
		<tag k="name" v="Kjelkbekken" />
		<tag k="ssr:stedsnr" v="42335" />
		<tag k="waterway" v="stream" />
	</node>
	<node lat="63.22829721832942" lon="10.612391671288817" id="-29458">
		<tag k="name" v="Grønlia" />
		<tag k="old_name" v="Grønlielva" />
		<tag k="ssr:stedsnr" v="42359" />
		<tag k="waterway" v="stream" />
	</node>
	<node lat="63.26438333277454" lon="10.358666669225055" id="-29463">
		<tag k="name" v="Vardlitjønna" />
		<tag k="natural" v="water" />
		<tag k="ssr:stedsnr" v="43488" />
	</node>
	<node lat="63.29934722146232" lon="10.603116665581112" id="-29469">
		<tag k="name" v="Ostjønna" />
		<tag k="natural" v="water" />
		<tag k="ssr:stedsnr" v="43423" />
	</node>
	<node lat="63.292219440692364" lon="10.565972231628397" id="-29471">
		<tag k="name" v="Dyrbekken" />
		<tag k="ssr:stedsnr" v="43428" />
		<tag k="waterway" v="stream" />
	</node>
	<node lat="63.294300003387924" lon="10.551402779253895" id="-29472">
		<tag k="name" v="Merkesbekken" />
		<tag k="ssr:stedsnr" v="43429" />
		<tag k="waterway" v="stream" />
	</node>
	<node lat="63.286650002340636" lon="10.4223444493751" id="-29476">
		<tag k="name" v="Litjfagerlibekken" />
		<tag k="ssr:stedsnr" v="43453" />
		<tag k="waterway" v="stream" />
	</node>
	<node lat="63.3419472252453" lon="10.494513898115372" id="-29482">
		<tag k="name" v="Bruråkbekken" />
		<tag k="ssr:stedsnr" v="50241" />
		<tag k="waterway" v="stream" />
	</node>
	<node lat="63.33771944018132" lon="10.454477784744645" id="-29483">
		<tag k="alt_name" v="Amundsbekken" />
		<tag k="name" v="Amundbekken" />
		<tag k="ssr:stedsnr" v="50243" />
		<tag k="waterway" v="stream" />
	</node>
	<node lat="63.4014611067869" lon="10.3889527840146" id="-29501">
		<tag k="name" v="Nydalsdammen" />
		<tag k="place" v="locality" />
		<tag k="ssr:stedsnr" v="50854" />
	</node>
	<node lat="63.193441667859965" lon="10.614250008750222" id="-29542">
		<tag k="name" v="Langsjøen" />
		<tag k="natural" v="water" />
		<tag k="ssr:stedsnr" v="73812" />
		<tag k="water" v="lake" />
	</node>
	<node lat="63.2568361089758" lon="10.541088894115067" id="-29550">
		<tag k="name" v="Vika" />
		<tag k="natural" v="bay" />
		<tag k="ssr:stedsnr" v="74185" />
	</node>
	<node lat="63.359122219183845" lon="10.132183324026542" id="-29558">
		<tag k="alt_name" v="Ristelva" />
		<tag k="name" v="Ristbekken" />
		<tag k="ssr:stedsnr" v="74444" />
		<tag k="waterway" v="stream" />
	</node>
	<node lat="63.398111110587514" lon="10.270138883967512" id="-29563">
		<tag k="name" v="Bangtjønna" />
		<tag k="natural" v="water" />
		<tag k="ssr:stedsnr" v="74585" />
	</node>
	<node lat="63.39281111298411" lon="10.318099995645143" id="-29564">
		<tag k="name" v="Haukvatnet" />
		<tag k="natural" v="water" />
		<tag k="ssr:stedsnr" v="74592" />
		<tag k="water" v="lake" />
	</node>
	<node lat="63.31374444196601" lon="10.538200005785145" id="-29574">
		<tag k="name" v="Syrsjøen" />
		<tag k="natural" v="water" />
		<tag k="ssr:stedsnr" v="74840" />
	</node>
	<node lat="63.3494972187974" lon="10.637763890406276" id="-29576">
		<tag k="name" v="Elgneset" />
		<tag k="natural" v="cape" />
		<tag k="ssr:stedsnr" v="74945" />
	</node>
	<node lat="63.373777777884655" lon="10.399974992732549" id="-29586">
		<tag k="name" v="Leirfossan" />
		<tag k="natural" v="waterfall" />
		<tag k="ssr:stedsnr" v="81780" />
	</node>
	<node lat="63.38366944050609" lon="10.293211103277546" id="-29597">
		<tag k="name" v="Gammeldammen" />
		<tag k="place" v="locality" />
		<tag k="ssr:stedsnr" v="85153" />
	</node>
	<node lat="63.36258610713805" lon="10.216608341557293" id="-29599">
		<tag k="name" v="Gammeldammen" />
		<tag k="natural" v="water" />
		<tag k="ssr:stedsnr" v="85697" />
	</node>
	<node lat="63.383102779693566" lon="10.27455832489993" id="-29606">
		<tag k="name" v="Skjefstadbukta" />
		<tag k="natural" v="bay" />
		<tag k="ssr:stedsnr" v="87215" />
	</node>
	<node lat="63.433669445963616" lon="10.18619165907068" id="-29622">
		<tag k="name" v="Kubekken" />
		<tag k="ssr:stedsnr" v="88398" />
		<tag k="waterway" v="stream" />
	</node>
	<node lat="63.41871111063869" lon="10.342188889575356" id="-29629">
		<tag k="fixme" v="multiple name tags, choose one and add the other to alt_name" />
		<tag k="name" v="Stokkedammen;Vullumsgårdsdammen" />
		<tag k="natural" v="water" />
		<tag k="ssr:stedsnr" v="89963" />
	</node>
	<node lat="63.30705000145131" lon="10.420744437912996" id="-29634">
		<tag k="name" v="Løkkdalsbekken" />
		<tag k="ssr:stedsnr" v="99601" />
		<tag k="waterway" v="stream" />
	</node>
	<node lat="63.36782777476794" lon="10.56069167428505" id="-29652">
		<tag k="name" v="Væresauntangen" />
		<tag k="natural" v="cape" />
		<tag k="ssr:stedsnr" v="102561" />
	</node>
	<node lat="63.25910833370069" lon="10.554172212912944" id="-29663">
		<tag k="name" v="Rundhaugbekken" />
		<tag k="ssr:stedsnr" v="103300" />
		<tag k="waterway" v="stream" />
	</node>
	<node lat="63.24279444681033" lon="10.515349999267192" id="-29665">
		<tag k="name" v="Brunga" />
		<tag k="ssr:stedsnr" v="103337" />
		<tag k="waterway" v="river" />
	</node>
	<node lat="63.34598611282272" lon="10.574797230363641" id="-29691">
		<tag k="name" v="Vinterholet" />
		<tag k="natural" v="bay" />
		<tag k="ssr:stedsnr" v="111245" />
	</node>
	<node lat="63.33378055394661" lon="10.280405560735192" id="-29692">
		<tag k="name" v="Eggbekken" />
		<tag k="ssr:stedsnr" v="111250" />
		<tag k="waterway" v="stream" />
	</node>
	<node lat="63.325741671067085" lon="10.644841670014642" id="-29737">
		<tag k="name" v="Svarttjønnbekken" />
		<tag k="ssr:stedsnr" v="119540" />
		<tag k="waterway" v="stream" />
	</node>
	<node lat="63.22517500406781" lon="10.572036106154966" id="-29750">
		<tag k="alt_name" v="Damtjønna" />
		<tag k="name" v="Fisklaustjønna" />
		<tag k="natural" v="water" />
		<tag k="ssr:stedsnr" v="133688" />
	</node>
	<node lat="63.199108329732105" lon="10.614083327728794" id="-29752">
		<tag k="name" v="Kjerringtjønna" />
		<tag k="natural" v="water" />
		<tag k="ssr:stedsnr" v="133775" />
	</node>
	<node lat="63.22920555837156" lon="10.636483338384384" id="-29754">
		<tag k="name" v="Bupelbekken" />
		<tag k="ssr:stedsnr" v="133718" />
		<tag k="waterway" v="stream" />
	</node>
	<node lat="63.23555833529484" lon="10.584250000640193" id="-29755">
		<tag k="name" v="Værtjønna" />
		<tag k="natural" v="water" />
		<tag k="ssr:stedsnr" v="133721" />
	</node>
	<node lat="63.42696110849431" lon="10.208216667263954" id="-29757">
		<tag k="name" v="Ramnåsvatnet" />
		<tag k="natural" v="water" />
		<tag k="ssr:stedsnr" v="134138" />
	</node>
	<node lat="63.37847778034826" lon="10.583358324992304" id="-29769">
		<tag k="name" v="Mølmannsøya" />
		<tag k="place" v="islet" />
		<tag k="ssr:stedsnr" v="134574" />
	</node>
	<node lat="63.38571110827401" lon="10.254502783770395" id="-29770">
		<tag k="name" v="Litl-Leirsjøen" />
		<tag k="natural" v="water" />
		<tag k="ssr:stedsnr" v="134576" />
		<tag k="water" v="lake" />
	</node>
	<node lat="63.34371111565453" lon="10.56028333043542" id="-29782">
		<tag k="name" v="Kilvatnet" />
		<tag k="natural" v="water" />
		<tag k="ssr:stedsnr" v="134949" />
		<tag k="water" v="lake" />
	</node>
	<node lat="63.36254166597796" lon="10.567883324445823" id="-29795">
		<tag k="name" v="Langodden" />
		<tag k="natural" v="cape" />
		<tag k="ssr:stedsnr" v="134996" />
	</node>
	<node lat="63.41997777768425" lon="10.127138895203796" id="-29814">
		<tag k="name" v="Bjøra" />
		<tag k="ssr:stedsnr" v="144901" />
		<tag k="waterway" v="stream" />
	</node>
	<node lat="63.36313888661704" lon="10.282511118567538" id="-29834">
		<tag k="alt_name" v="Jelleintjørna" />
		<tag k="name" v="Jelleintjønna" />
		<tag k="natural" v="water" />
		<tag k="ssr:stedsnr" v="147283" />
	</node>
	<node lat="63.3847805533251" lon="10.27247221798844" id="-29842">
		<tag k="name" v="Storøya" />
		<tag k="place" v="islet" />
		<tag k="ssr:stedsnr" v="148125" />
	</node>
	<node lat="63.37009722286793" lon="10.232283340522802" id="-29844">
		<tag k="name" v="Indre Sandbekken" />
		<tag k="ssr:stedsnr" v="148236" />
		<tag k="waterway" v="stream" />
	</node>
	<node lat="63.44763610796931" lon="10.222461117140456" id="-29847">
		<tag k="name" v="Svartbekken" />
		<tag k="ssr:stedsnr" v="148740" />
		<tag k="waterway" v="stream" />
	</node>
	<node lat="63.44814722550755" lon="10.28699444814102" id="-29853">
		<tag k="alt_name" v="Faua" />
		<tag k="name" v="Faubekken" />
		<tag k="ssr:stedsnr" v="149795" />
		<tag k="waterway" v="stream" />
	</node>
	<node lat="63.308736109611196" lon="10.455252770666656" id="-29856">
		<tag k="name" v="Øyabekken" />
		<tag k="ssr:stedsnr" v="153145" />
		<tag k="waterway" v="stream" />
	</node>
	<node lat="63.32669721979036" lon="10.56624165874877" id="-29862">
		<tag k="name" v="Auntjønnbekken" />
		<tag k="ssr:stedsnr" v="159649" />
		<tag k="waterway" v="stream" />
	</node>
	<node lat="63.33234444290491" lon="10.508955554125322" id="-29863">
		<tag k="name" v="Stavlundsbekken" />
		<tag k="ssr:stedsnr" v="159657" />
		<tag k="waterway" v="stream" />
	</node>
	<node lat="63.20278611074068" lon="10.573886116627662" id="-29867">
		<tag k="name" v="Langdalstjønnin" />
		<tag k="natural" v="water" />
		<tag k="ssr:stedsnr" v="159817" />
	</node>
	<node lat="63.36013611076248" lon="10.630452774882379" id="-29872">
		<tag k="name" v="Litlodden" />
		<tag k="natural" v="cape" />
		<tag k="ssr:stedsnr" v="161115" />
	</node>
	<node lat="63.25945555648031" lon="10.597966661286883" id="-29887">
		<tag k="name" v="Skavdalsbekken" />
		<tag k="ssr:stedsnr" v="164356" />
		<tag k="waterway" v="stream" />
	</node>
	<node lat="63.31576111157784" lon="10.628705560842933" id="-29894">
		<tag k="name" v="Hestsjøbekken" />
		<tag k="ssr:stedsnr" v="164496" />
		<tag k="waterway" v="stream" />
	</node>
	<node lat="63.38660277635219" lon="10.565213894775436" id="-29899">
		<tag k="name" v="Valsetbukta" />
		<tag k="natural" v="bay" />
		<tag k="ssr:stedsnr" v="172262" />
	</node>
	<node lat="63.35101666679371" lon="10.568813888907686" id="-29900">
		<tag k="name" v="Krossvika" />
		<tag k="natural" v="bay" />
		<tag k="ssr:stedsnr" v="172265" />
	</node>
	<node lat="63.38421389177799" lon="10.559541667646393" id="-29920">
		<tag k="name" v="Valsettangen" />
		<tag k="natural" v="cape" />
		<tag k="ssr:stedsnr" v="172243" />
	</node>
	<node lat="63.3541055562823" lon="10.619197222207218" id="-29921">
		<tag k="name" v="Kroksbergnebben" />
		<tag k="natural" v="cape" />
		<tag k="ssr:stedsnr" v="172244" />
	</node>
	<node lat="63.34619721784287" lon="10.564555555310498" id="-29922">
		<tag k="name" v="Smalholmen" />
		<tag k="place" v="islet" />
		<tag k="ssr:stedsnr" v="172245" />
	</node>
	<node lat="63.34198055260987" lon="10.472297222271054" id="-29923">
		<tag k="name" v="Kvålsbekken" />
		<tag k="ssr:stedsnr" v="172273" />
		<tag k="waterway" v="stream" />
	</node>
	<node lat="63.34856388914738" lon="10.529249996336816" id="-29924">
		<tag k="name" v="Litltjønna" />
		<tag k="natural" v="water" />
		<tag k="ssr:stedsnr" v="172280" />
	</node>
	<node lat="63.35538610708621" lon="10.668725005214213" id="-29925">
		<tag k="alt_name" v="Hovdalstjørna" />
		<tag k="name" v="Hovdalstjønna" />
		<tag k="natural" v="water" />
		<tag k="ssr:stedsnr" v="172282" />
	</node>
	<node lat="63.38062778178506" lon="10.39694721277636" id="-29985">
		<tag k="name" v="Nedre Leirfossen" />
		<tag k="natural" v="waterfall" />
		<tag k="ssr:stedsnr" v="195547" />
	</node>
</osm>
