<?xml version="1.0" encoding="UTF-8"?>
<osm version="0.6" generator="osmapis">
	<node lat="63.43891667088642" lon="10.2091611098732" id="-33074">
		<tag k="fixme" v="consider natural=peak for the most distinct mountains in the district" />
		<tag k="name" v="Grøsetåsen" />
		<tag k="natural" v="hill" />
		<tag k="place" v="locality" />
		<tag k="ssr:stedsnr" v="13110" />
	</node>
	<node lat="63.326330553227066" lon="10.33121388464396" id="-33081">
		<tag k="name" v="Gravåsen" />
		<tag k="natural" v="hill" />
		<tag k="place" v="locality" />
		<tag k="ssr:stedsnr" v="232295" />
	</node>
	<node lat="63.29741944274673" lon="10.535255547446992" id="-33085">
		<tag k="name" v="Torberga" />
		<tag k="natural" v="hill" />
		<tag k="place" v="locality" />
		<tag k="ssr:stedsnr" v="13814" />
	</node>
	<node lat="63.37328055555304" lon="10.626277786241777" id="-33092">
		<tag k="name" v="Brattaberga" />
		<tag k="natural" v="hill" />
		<tag k="place" v="locality" />
		<tag k="ssr:stedsnr" v="232323" />
	</node>
	<node lat="63.366277779325955" lon="10.470080555110982" id="-33093">
		<tag k="name" v="Ratåsdalen" />
		<tag k="natural" v="valley" />
		<tag k="place" v="locality" />
		<tag k="ssr:stedsnr" v="232275" />
	</node>
	<node lat="63.417830560137986" lon="10.48826665955389" id="-33107">
		<tag k="name" v="Brundalen" />
		<tag k="natural" v="valley" />
		<tag k="place" v="locality" />
		<tag k="ssr:stedsnr" v="232866" />
	</node>
	<node lat="63.371569447406706" lon="10.071113887700784" id="-33129">
		<tag k="name" v="Penghaugen" />
		<tag k="natural" v="hill" />
		<tag k="place" v="locality" />
		<tag k="ssr:stedsnr" v="23936" />
	</node>
	<node lat="63.41350000032697" lon="10.11038889075323" id="-33131">
		<tag k="name" v="Hoemskneppen" />
		<tag k="natural" v="hill" />
		<tag k="place" v="locality" />
		<tag k="ssr:stedsnr" v="23880" />
	</node>
	<node lat="63.38312499856169" lon="10.085319446364755" id="-33132">
		<tag k="fixme" v="consider natural=peak for the most distinct mountains in the district" />
		<tag k="name" v="Ondusåsen" />
		<tag k="natural" v="hill" />
		<tag k="place" v="locality" />
		<tag k="ssr:stedsnr" v="23889" />
	</node>
	<node lat="63.38881666430171" lon="10.173272212892638" id="-33133">
		<tag k="fixme" v="consider natural=peak for the most distinct mountains in the district" />
		<tag k="name" v="Brannbergåsen" />
		<tag k="natural" v="hill" />
		<tag k="place" v="locality" />
		<tag k="ssr:stedsnr" v="23984" />
	</node>
	<node lat="63.3618666630017" lon="10.260161114249593" id="-33135">
		<tag k="name" v="Rundbakken" />
		<tag k="natural" v="hill" />
		<tag k="place" v="locality" />
		<tag k="ssr:stedsnr" v="24235" />
	</node>
	<node lat="63.37240000428944" lon="10.306724991898983" id="-33137">
		<tag k="fixme" v="consider natural=peak for the most distinct mountains in the district" />
		<tag k="name" v="Hallaåsen" />
		<tag k="natural" v="hill" />
		<tag k="place" v="locality" />
		<tag k="ssr:stedsnr" v="25123" />
	</node>
	<node lat="63.415530554950465" lon="10.175186116095812" id="-33139">
		<tag k="name" v="Litlramberget" />
		<tag k="natural" v="hill" />
		<tag k="place" v="locality" />
		<tag k="ssr:stedsnr" v="26007" />
	</node>
	<node lat="63.428763888331154" lon="10.199613890492786" id="-33140">
		<tag k="name" v="Fossbakken" />
		<tag k="natural" v="slope" />
		<tag k="place" v="locality" />
		<tag k="ssr:stedsnr" v="26027" />
	</node>
	<node lat="63.3817111126742" lon="10.187066672857462" id="-33142">
		<tag k="fixme" v="consider natural=peak for the most distinct mountains in the district" />
		<tag k="name" v="Litlbjørnaråsen" />
		<tag k="natural" v="hill" />
		<tag k="place" v="locality" />
		<tag k="ssr:stedsnr" v="26909" />
	</node>
	<node lat="63.443233336723246" lon="10.207277785098436" id="-33143">
		<tag k="name" v="Rønningan" />
		<tag k="natural" v="slope" />
		<tag k="place" v="locality" />
		<tag k="ssr:stedsnr" v="27570" />
	</node>
	<node lat="63.383727779579516" lon="10.217322222920261" id="-33146">
		<tag k="name" v="Høgmyrbakken" />
		<tag k="natural" v="slope" />
		<tag k="place" v="locality" />
		<tag k="ssr:stedsnr" v="28586" />
	</node>
	<node lat="63.45267180884895" lon="10.229712016848234" id="-33149">
		<tag k="name" v="Våttåhaugen" />
		<tag k="natural" v="hill" />
		<tag k="place" v="locality" />
		<tag k="ssr:stedsnr" v="28987" />
	</node>
	<node lat="63.32445833253442" lon="10.556297230439064" id="-33154">
		<tag k="fixme" v="consider natural=peak for the most distinct mountains in the district" />
		<tag k="name" v="Sagåsen" />
		<tag k="natural" v="hill" />
		<tag k="place" v="locality" />
		<tag k="ssr:stedsnr" v="38617" />
	</node>
	<node lat="63.33023889039376" lon="10.535366674714394" id="-33156">
		<tag k="name" v="Fiskbekkdalen" />
		<tag k="natural" v="valley" />
		<tag k="place" v="locality" />
		<tag k="ssr:stedsnr" v="38620" />
	</node>
	<node lat="63.35404721810275" lon="10.605361116073398" id="-33159">
		<tag k="name" v="Kroksberga" />
		<tag k="natural" v="hill" />
		<tag k="place" v="locality" />
		<tag k="ssr:stedsnr" v="40015" />
	</node>
	<node lat="63.34518763519072" lon="10.592725359138612" id="-33160">
		<tag k="name" v="Hammerberg" />
		<tag k="natural" v="hill" />
		<tag k="place" v="locality" />
		<tag k="ssr:stedsnr" v="40023" />
	</node>
	<node lat="63.36579722443891" lon="10.559283339148077" id="-33165">
		<tag k="fixme" v="consider natural=peak for the most distinct mountains in the district" />
		<tag k="name" v="Storåsen" />
		<tag k="natural" v="hill" />
		<tag k="place" v="locality" />
		<tag k="ssr:stedsnr" v="41484" />
	</node>
	<node lat="63.26433889177906" lon="10.467080558073516" id="-33173">
		<tag k="fixme" v="consider natural=peak for the most distinct mountains in the district" />
		<tag k="name" v="Stabbåsen" />
		<tag k="natural" v="hill" />
		<tag k="place" v="locality" />
		<tag k="ssr:stedsnr" v="43277" />
	</node>
	<node lat="63.29509722443387" lon="10.42645833095973" id="-33175">
		<tag k="name" v="Forsetmoan" />
		<tag k="place" v="locality" />
		<tag k="ssr:stedsnr" v="43473" />
	</node>
	<node lat="63.29933888898695" lon="10.45052777451732" id="-33176">
		<tag k="name" v="Nonsberget" />
		<tag k="natural" v="hill" />
		<tag k="place" v="locality" />
		<tag k="ssr:stedsnr" v="43480" />
	</node>
	<node lat="63.43037156585256" lon="10.427487012489072" id="-33190">
		<tag k="name" v="Kuhaugen" />
		<tag k="natural" v="hill" />
		<tag k="place" v="locality" />
		<tag k="ssr:stedsnr" v="239076" />
	</node>
	<node lat="63.34684721900972" lon="10.23992222555842" id="-33193">
		<tag k="name" v="Sveet" />
		<tag k="natural" v="slope" />
		<tag k="place" v="locality" />
		<tag k="ssr:stedsnr" v="50303" />
	</node>
	<node lat="63.32992222113373" lon="10.6520305513013" id="-33194">
		<tag k="name" v="Middagshaugen" />
		<tag k="natural" v="hill" />
		<tag k="place" v="locality" />
		<tag k="ssr:stedsnr" v="50323" />
	</node>
	<node lat="63.44981944534534" lon="10.434833327568061" id="-33206">
		<tag k="name" v="Korsvikberget" />
		<tag k="natural" v="hill" />
		<tag k="place" v="locality" />
		<tag k="ssr:stedsnr" v="239261" />
	</node>
	<node lat="63.367486109067926" lon="10.453644452914654" id="-33222">
		<tag k="name" v="Storbranden" />
		<tag k="natural" v="hill" />
		<tag k="place" v="locality" />
		<tag k="ssr:stedsnr" v="56575" />
	</node>
	<node lat="63.352872220180764" lon="10.48684444595997" id="-33239">
		<tag k="name" v="Røstadbakken" />
		<tag k="natural" v="slope" />
		<tag k="place" v="locality" />
		<tag k="ssr:stedsnr" v="59470" />
	</node>
	<node lat="63.32164722348154" lon="10.675777775500329" id="-33244">
		<tag k="name" v="Mårdalan" />
		<tag k="natural" v="valley" />
		<tag k="place" v="locality" />
		<tag k="ssr:stedsnr" v="241057" />
	</node>
	<node lat="63.35146389040203" lon="10.481636108085432" id="-33257">
		<tag k="name" v="Røstadmyra" />
		<tag k="natural" v="slope" />
		<tag k="place" v="locality" />
		<tag k="ssr:stedsnr" v="241466" />
	</node>
	<node lat="63.38699270657676" lon="10.22671874287818" id="-33259">
		<tag k="name" v="Gunnarslættbakkan" />
		<tag k="natural" v="slope" />
		<tag k="place" v="locality" />
		<tag k="ssr:stedsnr" v="241554" />
	</node>
	<node lat="63.25485278117512" lon="10.400108339253155" id="-33275">
		<tag k="name" v="Tjuvdalen" />
		<tag k="natural" v="valley" />
		<tag k="place" v="locality" />
		<tag k="ssr:stedsnr" v="74174" />
	</node>
	<node lat="63.26121388593216" lon="10.414961104660684" id="-33276">
		<tag k="fixme" v="consider natural=peak for the most distinct mountains in the district" />
		<tag k="name" v="Sagåsen" />
		<tag k="natural" v="hill" />
		<tag k="place" v="locality" />
		<tag k="ssr:stedsnr" v="74176" />
	</node>
	<node lat="63.351055551573744" lon="10.46536388246409" id="-33289">
		<tag k="fixme" v="consider natural=peak for the most distinct mountains in the district" />
		<tag k="name" v="Bratsbergåsen" />
		<tag k="natural" v="hill" />
		<tag k="place" v="locality" />
		<tag k="ssr:stedsnr" v="74964" />
	</node>
	<node lat="63.37476666734023" lon="10.199680557731828" id="-33294">
		<tag k="name" v="Tråddån" />
		<tag k="place" v="locality" />
		<tag k="ssr:stedsnr" v="84089" />
	</node>
	<node lat="63.39347222103597" lon="10.187008337438368" id="-33298">
		<tag k="fixme" v="consider natural=peak for the most distinct mountains in the district" />
		<tag k="name" v="Svartåsen" />
		<tag k="natural" v="hill" />
		<tag k="place" v="locality" />
		<tag k="ssr:stedsnr" v="84905" />
	</node>
	<node lat="63.41099721886328" lon="10.137488884744526" id="-33300">
		<tag k="name" v="Høstadhaugen" />
		<tag k="natural" v="hill" />
		<tag k="place" v="locality" />
		<tag k="ssr:stedsnr" v="84914" />
	</node>
	<node lat="63.41458611486572" lon="10.10895833750378" id="-33305">
		<tag k="name" v="Brannhaugan" />
		<tag k="natural" v="hill" />
		<tag k="place" v="locality" />
		<tag k="ssr:stedsnr" v="84952" />
	</node>
	<node lat="63.381675000017104" lon="10.06735555596204" id="-33307">
		<tag k="name" v="Hangersletta" />
		<tag k="place" v="locality" />
		<tag k="ssr:stedsnr" v="84827" />
	</node>
	<node lat="63.39051666731974" lon="10.083458332365758" id="-33309">
		<tag k="name" v="Svedalen" />
		<tag k="natural" v="valley" />
		<tag k="place" v="locality" />
		<tag k="ssr:stedsnr" v="84841" />
	</node>
	<node lat="63.38290195035644" lon="10.059275578439172" id="-33310">
		<tag k="alt_name" v="Kløvberget" />
		<tag k="name" v="Klauvberget" />
		<tag k="natural" v="hill" />
		<tag k="place" v="locality" />
		<tag k="ssr:stedsnr" v="84848" />
	</node>
</osm>
