<?xml version="1.0" encoding="UTF-8"?>
<osm version="0.6" generator="osmapis">
	<node lat="63.35307778013211" lon="10.545261114577901" id="-78271">
		<tag k="name" v="Langmyra" />
		<tag k="natural" v="wetland" />
		<tag k="ssr:stedsnr" v="232221" />
	</node>
	<node lat="63.361563886097244" lon="10.290877778351113" id="-78290">
		<tag k="alt_name" v="Rørmyran" />
		<tag k="name" v="Rørmyra" />
		<tag k="natural" v="wetland" />
		<tag k="ssr:stedsnr" v="14000" />
	</node>
	<node lat="63.39454444343603" lon="10.201188891154894" id="-78326">
		<tag k="name" v="Krogstadmyra" />
		<tag k="natural" v="wetland" />
		<tag k="ssr:stedsnr" v="23906" />
	</node>
	<node lat="63.423347223191" lon="10.132313886333437" id="-78327">
		<tag k="name" v="Bengtplassen" />
		<tag k="place" v="locality" />
		<tag k="ssr:stedsnr" v="23907" />
	</node>
	<node lat="63.41200555268248" lon="10.14005555611008" id="-78328">
		<tag k="name" v="Kilen" />
		<tag k="place" v="locality" />
		<tag k="ssr:stedsnr" v="23911" />
	</node>
	<node lat="63.41560277777855" lon="10.124611116281548" id="-78330">
		<tag k="name" v="Krokan" />
		<tag k="place" v="locality" />
		<tag k="ssr:stedsnr" v="23941" />
	</node>
	<node lat="63.360233335856734" lon="10.230363888840625" id="-78341">
		<tag k="loc_name" v="Kalvskinnmyra" />
		<tag k="name" v="Kalvkinnmyra" />
		<tag k="natural" v="wetland" />
		<tag k="ssr:stedsnr" v="26326" />
	</node>
	<node lat="63.32243333275956" lon="10.47401110271616" id="-78357">
		<tag k="name" v="Furuhaugmyra" />
		<tag k="natural" v="wetland" />
		<tag k="ssr:stedsnr" v="38627" />
	</node>
	<node lat="63.33623055949278" lon="10.40152778126038" id="-78392">
		<tag k="name" v="Bjørnmyra" />
		<tag k="natural" v="wetland" />
		<tag k="ssr:stedsnr" v="50209" />
	</node>
	<node lat="63.353747219804134" lon="10.268780557451423" id="-78393">
		<tag k="name" v="Buskleinmyra" />
		<tag k="natural" v="wetland" />
		<tag k="ssr:stedsnr" v="50211" />
	</node>
	<node lat="63.35104722253647" lon="10.470722223970045" id="-78442">
		<tag k="alt_name" v="Seterplassen" />
		<tag k="historic" v="shieling" />
		<tag k="name" v="Sæterplassen" />
		<tag k="place" v="locality" />
		<tag k="ssr:stedsnr" v="59485" />
	</node>
	<node lat="63.32944166664527" lon="10.632230553614741" id="-78458">
		<tag k="name" v="Raudkjølen" />
		<tag k="natural" v="wetland" />
		<tag k="ssr:stedsnr" v="241450" />
	</node>
	<node lat="63.39387777421827" lon="10.223797216130619" id="-78460">
		<tag k="name" v="Markamyran" />
		<tag k="place" v="locality" />
		<tag k="ssr:stedsnr" v="241551" />
	</node>
	<node lat="63.37863611221374" lon="10.131355555148499" id="-78506">
		<tag k="name" v="Østegga" />
		<tag k="place" v="locality" />
		<tag k="ssr:stedsnr" v="84943" />
	</node>
	<node lat="63.417763885898694" lon="10.095433325189365" id="-78511">
		<tag k="name" v="Svahylla" />
		<tag k="place" v="locality" />
		<tag k="ssr:stedsnr" v="84837" />
	</node>
	<node lat="63.37934722135658" lon="10.092424995693774" id="-78514">
		<tag k="name" v="Brandhaugmyra" />
		<tag k="natural" v="wetland" />
		<tag k="ssr:stedsnr" v="84878" />
	</node>
	<node lat="63.354688891511465" lon="10.174577774621024" id="-78516">
		<tag k="name" v="Geilan" />
		<tag k="place" v="locality" />
		<tag k="ssr:stedsnr" v="84899" />
	</node>
	<node lat="63.39664166741626" lon="10.223933341751243" id="-78536">
		<tag k="name" v="Langmyran" />
		<tag k="natural" v="wetland" />
		<tag k="ssr:stedsnr" v="88483" />
	</node>
	<node lat="63.3085861154236" lon="10.434702784429142" id="-78550">
		<tag k="name" v="Sagmyra" />
		<tag k="natural" v="wetland" />
		<tag k="ssr:stedsnr" v="99610" />
	</node>
	<node lat="63.330902774203494" lon="10.49361945138888" id="-78552">
		<tag k="name" v="Uglmyra" />
		<tag k="natural" v="wetland" />
		<tag k="ssr:stedsnr" v="99618" />
	</node>
	<node lat="63.22415833631726" lon="10.618413896243835" id="-78568">
		<tag k="name" v="Langmyran" />
		<tag k="natural" v="wetland" />
		<tag k="ssr:stedsnr" v="103384" />
	</node>
	<node lat="63.30874722024387" lon="10.608877770331347" id="-78572">
		<tag k="name" v="Rønningsstykket" />
		<tag k="place" v="locality" />
		<tag k="ssr:stedsnr" v="104409" />
	</node>
	<node lat="63.31483889190884" lon="10.499872224736942" id="-78573">
		<tag k="name" v="Isdammyra" />
		<tag k="natural" v="wetland" />
		<tag k="ssr:stedsnr" v="104376" />
	</node>
	<node lat="63.30410833298411" lon="10.569441663302168" id="-78576">
		<tag k="name" v="Litjuglstykket" />
		<tag k="natural" v="wetland" />
		<tag k="ssr:stedsnr" v="104394" />
	</node>
	<node lat="63.32988055243946" lon="10.277999996667983" id="-78617">
		<tag k="name" v="Eggtrøa" />
		<tag k="place" v="locality" />
		<tag k="ssr:stedsnr" v="134918" />
	</node>
	<node lat="63.303013886200205" lon="10.482416660942794" id="-78619">
		<tag k="name" v="Finnmyra" />
		<tag k="natural" v="wetland" />
		<tag k="ssr:stedsnr" v="134863" />
	</node>
	<node lat="63.38184166818135" lon="10.50198611581679" id="-78663">
		<tag k="name" v="Austlimyra" />
		<tag k="natural" v="wetland" />
		<tag k="ssr:stedsnr" v="256523" />
	</node>
	<node lat="63.27816389025234" lon="10.575350005860036" id="-78703">
		<tag k="alt_name" v="Gråsteinmyra" />
		<tag k="name" v="Gråsteinsmyra" />
		<tag k="natural" v="wetland" />
		<tag k="ssr:stedsnr" v="164522" />
	</node>
	<node lat="63.31133055390247" lon="10.550227772490489" id="-78705">
		<tag k="name" v="Møsmørkjølen" />
		<tag k="natural" v="wetland" />
		<tag k="ssr:stedsnr" v="164468" />
	</node>
	<node lat="63.35211388954259" lon="10.13689722114524" id="-78761">
		<tag k="name" v="Kristenstu" />
		<tag k="place" v="locality" />
		<tag k="ssr:stedsnr" v="266830" />
	</node>
	<node lat="63.411522223668655" lon="10.111172222849751" id="-78763">
		<tag k="name" v="Engelsholet" />
		<tag k="place" v="locality" />
		<tag k="ssr:stedsnr" v="266858" />
	</node>
	<node lat="63.37526944425382" lon="10.199441664736934" id="-78768">
		<tag k="name" v="Tråddåmyra" />
		<tag k="natural" v="wetland" />
		<tag k="ssr:stedsnr" v="266997" />
	</node>
	<node lat="63.423966668858135" lon="10.13656665990234" id="-78779">
		<tag k="name" v="Litlrønningen" />
		<tag k="place" v="locality" />
		<tag k="ssr:stedsnr" v="205905" />
	</node>
	<node lat="63.26043888459454" lon="10.563841671420604" id="-78851">
		<tag k="name" v="Åsmarka" />
		<tag k="place" v="locality" />
		<tag k="ssr:stedsnr" v="225321" />
	</node>
	<node lat="63.30952777777712" lon="10.453122217017977" id="-78861">
		<tag k="name" v="Litjugløya" />
		<tag k="place" v="locality" />
		<tag k="ssr:stedsnr" v="225612" />
	</node>
	<node lat="63.41581388852816" lon="10.519450000961662" id="-78884">
		<tag k="name" v="Åstrøa" />
		<tag k="place" v="locality" />
		<tag k="ssr:stedsnr" v="232741" />
	</node>
	<node lat="63.385675001788286" lon="10.311469443732111" id="-78911">
		<tag k="name" v="Elgmyra" />
		<tag k="natural" v="wetland" />
		<tag k="ssr:stedsnr" v="451000" />
	</node>
	<node lat="63.32249722203871" lon="10.653699999855721" id="-78954">
		<tag k="name" v="Tuvmyra" />
		<tag k="natural" v="wetland" />
		<tag k="ssr:stedsnr" v="256860" />
	</node>
	<node lat="63.32766944107194" lon="10.645808330591036" id="-78955">
		<tag k="name" v="Hokmyra" />
		<tag k="natural" v="wetland" />
		<tag k="ssr:stedsnr" v="256864" />
	</node>
	<node lat="63.37283333611423" lon="10.10854166289199" id="-78968">
		<tag k="name" v="Ospan" />
		<tag k="place" v="locality" />
		<tag k="ssr:stedsnr" v="266806" />
	</node>
	<node lat="63.42415555188931" lon="10.121438888260576" id="-78971">
		<tag k="name" v="Plassen" />
		<tag k="place" v="locality" />
		<tag k="ssr:stedsnr" v="266908" />
	</node>
	<node lat="63.36106666488064" lon="10.25912777242003" id="-78979">
		<tag k="alt_name" v="Skardslættmyra;Skarslættet;Skardsleitet" />
		<tag k="name" v="Skardslættet" />
		<tag k="natural" v="wetland" />
		<tag k="ssr:stedsnr" v="267213" />
	</node>
	<node lat="63.362969441381885" lon="10.625994443340382" id="-79002">
		<tag k="name" v="Sanden" />
		<tag k="place" v="locality" />
		<tag k="ssr:stedsnr" v="283082" />
	</node>
	<node lat="63.27067499634323" lon="10.467855555104842" id="-79013">
		<tag k="name" v="Stabben" />
		<tag k="place" v="locality" />
		<tag k="ssr:stedsnr" v="285281" />
	</node>
	<node lat="63.31633333358679" lon="10.599083329316565" id="-79021">
		<tag k="name" v="Nybøskogen" />
		<tag k="place" v="locality" />
		<tag k="ssr:stedsnr" v="286429" />
	</node>
	<node lat="63.31057499624888" lon="10.64999722559732" id="-79022">
		<tag k="name" v="Styggmyra" />
		<tag k="natural" v="wetland" />
		<tag k="ssr:stedsnr" v="286432" />
	</node>
	<node lat="63.287348686963064" lon="10.589755221838777" id="-79023">
		<tag k="name" v="Damkjølen" />
		<tag k="natural" v="wetland" />
		<tag k="ssr:stedsnr" v="286439" />
	</node>
	<node lat="63.29572222061984" lon="10.619397230376752" id="-79024">
		<tag k="name" v="Langmyran" />
		<tag k="natural" v="wetland" />
		<tag k="ssr:stedsnr" v="286447" />
	</node>
	<node lat="63.29280832912576" lon="10.546391665267885" id="-79025">
		<tag k="name" v="Sofbuin" />
		<tag k="place" v="locality" />
		<tag k="ssr:stedsnr" v="286449" />
	</node>
	<node lat="63.28100555464992" lon="10.390408323426252" id="-79028">
		<tag k="name" v="Folltjønnmyra" />
		<tag k="natural" v="wetland" />
		<tag k="ssr:stedsnr" v="286511" />
	</node>
	<node lat="63.37878055895839" lon="10.505469438746461" id="-79034">
		<tag k="historic" v="shieling" />
		<tag k="name" v="Røstadvollen" />
		<tag k="place" v="locality" />
		<tag k="ssr:stedsnr" v="293295" />
	</node>
	<node lat="63.35211388536014" lon="10.644330547677983" id="-79068">
		<tag k="name" v="Plassmyra" />
		<tag k="natural" v="wetland" />
		<tag k="ssr:stedsnr" v="465097" />
	</node>
	<node lat="63.24529999600057" lon="10.451594452137156" id="-79099">
		<tag k="name" v="Målsjømyran" />
		<tag k="natural" v="wetland" />
		<tag k="ssr:stedsnr" v="467342" />
	</node>
	<node lat="63.244283334144455" lon="10.439816661813934" id="-79100">
		<tag k="name" v="Holmyra" />
		<tag k="natural" v="wetland" />
		<tag k="ssr:stedsnr" v="467343" />
	</node>
	<node lat="63.24231944631543" lon="10.55363055327983" id="-79104">
		<tag k="name" v="Vikarya" />
		<tag k="natural" v="wetland" />
		<tag k="ssr:stedsnr" v="467355" />
	</node>
	<node lat="63.31677777706093" lon="10.559802771609123" id="-79105">
		<tag k="name" v="Bostadstykket" />
		<tag k="place" v="locality" />
		<tag k="ssr:stedsnr" v="467427" />
	</node>
	<node lat="63.293716667746" lon="10.612227780826204" id="-79114">
		<tag k="name" v="Grytslåtten" />
		<tag k="natural" v="wetland" />
		<tag k="ssr:stedsnr" v="467458" />
	</node>
	<node lat="63.295822221111045" lon="10.496861111667572" id="-79117">
		<tag k="name" v="Litjmarka" />
		<tag k="place" v="locality" />
		<tag k="ssr:stedsnr" v="467485" />
	</node>
	<node lat="63.34986944593064" lon="10.662847229239269" id="-79122">
		<tag k="name" v="Raudmyra" />
		<tag k="natural" v="wetland" />
		<tag k="ssr:stedsnr" v="317919" />
	</node>
	<node lat="63.30229444565669" lon="10.417205557546033" id="-79161">
		<tag k="name" v="Lyngdalsflata" />
		<tag k="place" v="locality" />
		<tag k="ssr:stedsnr" v="341655" />
	</node>
	<node lat="63.24938611511761" lon="10.625377785736358" id="-79178">
		<tag k="historic" v="shieling" />
		<tag k="name" v="Fagermovollen" />
		<tag k="place" v="locality" />
		<tag k="ssr:stedsnr" v="346378" />
	</node>
	<node lat="63.29367499676377" lon="10.45325555268014" id="-79180">
		<tag k="name" v="Gjellifitja" />
		<tag k="place" v="locality" />
		<tag k="ssr:stedsnr" v="346526" />
	</node>
	<node lat="63.265994446132886" lon="10.434949992784661" id="-79181">
		<tag k="name" v="Skjennholet" />
		<tag k="natural" v="wetland" />
		<tag k="ssr:stedsnr" v="346262" />
	</node>
	<node lat="63.229480556048124" lon="10.582361114711698" id="-79185">
		<tag k="name" v="Eidstusetermyran" />
		<tag k="natural" v="wetland" />
		<tag k="ssr:stedsnr" v="346406" />
	</node>
	<node lat="63.30843611197339" lon="10.566244438816367" id="-79187">
		<tag k="name" v="Lysklettstykket" />
		<tag k="place" v="locality" />
		<tag k="ssr:stedsnr" v="346427" />
	</node>
	<node lat="63.37681514848827" lon="10.289501613769794" id="-79264">
		<tag k="name" v="Lokmyra" />
		<tag k="natural" v="wetland" />
		<tag k="ssr:stedsnr" v="383359" />
	</node>
	<node lat="63.37279444706138" lon="10.123097219111088" id="-79281">
		<tag k="name" v="Mjølkvollen" />
		<tag k="place" v="locality" />
		<tag k="ssr:stedsnr" v="387922" />
	</node>
	<node lat="63.35845555764446" lon="10.232444445376974" id="-79296">
		<tag k="name" v="Klovningmyra" />
		<tag k="natural" v="wetland" />
		<tag k="ssr:stedsnr" v="390303" />
	</node>
	<node lat="63.412794442794144" lon="10.258349991796537" id="-79301">
		<tag k="name" v="Vintervassmyra" />
		<tag k="natural" v="wetland" />
		<tag k="ssr:stedsnr" v="390847" />
	</node>
	<node lat="63.28307500268637" lon="10.503705548389732" id="-79335">
		<tag k="name" v="Ratbumyra" />
		<tag k="natural" v="wetland" />
		<tag k="ssr:stedsnr" v="407503" />
	</node>
	<node lat="63.3132250045679" lon="10.57221388401259" id="-79336">
		<tag k="name" v="Storuglstykket" />
		<tag k="place" v="locality" />
		<tag k="ssr:stedsnr" v="407438" />
	</node>
	<node lat="63.310461112761764" lon="10.576024995335551" id="-79337">
		<tag k="name" v="Ulsetstykket" />
		<tag k="place" v="locality" />
		<tag k="ssr:stedsnr" v="407439" />
	</node>
	<node lat="63.41359999596469" lon="10.525802787501897" id="-79350">
		<tag k="name" v="Ranheimsskogen" />
		<tag k="place" v="locality" />
		<tag k="ssr:stedsnr" v="414739" />
	</node>
	<node lat="63.39710277466631" lon="10.455241668238044" id="-79351">
		<tag k="name" v="Fuglmyra" />
		<tag k="natural" v="wetland" />
		<tag k="ssr:stedsnr" v="414741" />
	</node>
	<node lat="63.37893611021136" lon="10.087194437334551" id="-79399">
		<tag k="name" v="Våttåmyra" />
		<tag k="natural" v="wetland" />
		<tag k="ssr:stedsnr" v="448849" />
	</node>
	<node lat="63.418783333638466" lon="10.115936108135767" id="-79403">
		<tag k="name" v="Hølløplassen" />
		<tag k="place" v="locality" />
		<tag k="ssr:stedsnr" v="448914" />
	</node>
	<node lat="63.419763889294806" lon="10.114252776287419" id="-79404">
		<tag k="name" v="Skardet" />
		<tag k="place" v="locality" />
		<tag k="ssr:stedsnr" v="448915" />
	</node>
	<node lat="63.39203889104519" lon="10.124972229669039" id="-79405">
		<tag k="name" v="Grinåkeren" />
		<tag k="place" v="locality" />
		<tag k="ssr:stedsnr" v="448923" />
	</node>
	<node lat="63.43877222507225" lon="10.170425008077952" id="-79406">
		<tag k="name" v="Sjøtrøa" />
		<tag k="place" v="locality" />
		<tag k="ssr:stedsnr" v="448929" />
	</node>
	<node lat="63.35087777528594" lon="10.194283334354408" id="-79408">
		<tag k="name" v="Nestingan" />
		<tag k="place" v="locality" />
		<tag k="ssr:stedsnr" v="448987" />
	</node>
	<node lat="63.388724997538795" lon="10.292158323555046" id="-79417">
		<tag k="name" v="Nordmyra" />
		<tag k="natural" v="wetland" />
		<tag k="ssr:stedsnr" v="452966" />
	</node>
	<node lat="63.23883333026099" lon="10.505616668097199" id="-79440">
		<tag k="name" v="Ner Høyvegkjølen" />
		<tag k="natural" v="wetland" />
		<tag k="ssr:stedsnr" v="467364" />
	</node>
	<node lat="63.354894444648686" lon="10.378347223467872" id="-79536">
		<tag k="name" v="Sjetnmyra" />
		<tag k="natural" v="wetland" />
		<tag k="ssr:stedsnr" v="499000" />
	</node>
	<node lat="63.39187639862648" lon="10.49215989584135" id="-79543">
		<tag k="alt_name" v="Aunemarka" />
		<tag k="name" v="Aunmarka" />
		<tag k="place" v="locality" />
		<tag k="ssr:stedsnr" v="681584" />
	</node>
	<node lat="63.42423611288283" lon="10.131969439427213" id="-79554">
		<tag k="name" v="Markaplassen" />
		<tag k="place" v="locality" />
		<tag k="ssr:stedsnr" v="508900" />
	</node>
	<node lat="63.37882777826257" lon="10.285711107844483" id="-79568">
		<tag k="name" v="Ratåsstrypet" />
		<tag k="natural" v="wetland" />
		<tag k="ssr:stedsnr" v="512222" />
	</node>
	<node lat="63.37299444342966" lon="10.189308324683186" id="-79574">
		<tag k="alt_name" v="Hokkelåsmyra" />
		<tag k="name" v="Grostadaunmyran" />
		<tag k="natural" v="wetland" />
		<tag k="ssr:stedsnr" v="513903" />
	</node>
	<node lat="63.26129444032235" lon="10.46838610491498" id="-79601">
		<tag k="name" v="Stabbåsmyra" />
		<tag k="natural" v="wetland" />
		<tag k="ssr:stedsnr" v="528325" />
	</node>
	<node lat="63.28163055945159" lon="10.411269447626402" id="-79603">
		<tag k="name" v="Grindsledmyra" />
		<tag k="natural" v="wetland" />
		<tag k="ssr:stedsnr" v="528515" />
	</node>
	<node lat="63.29642777618349" lon="10.430277785119753" id="-79604">
		<tag k="name" v="Geiltrøa" />
		<tag k="place" v="locality" />
		<tag k="ssr:stedsnr" v="528531" />
	</node>
	<node lat="63.25936666560649" lon="10.426827783276881" id="-79605">
		<tag k="name" v="Tjuvstakken" />
		<tag k="natural" v="wetland" />
		<tag k="ssr:stedsnr" v="528288" />
	</node>
	<node lat="63.28667778146321" lon="10.432522217199576" id="-79680">
		<tag k="alt_name" v="Tullusmyran" />
		<tag k="name" v="Tullusmyra" />
		<tag k="natural" v="wetland" />
		<tag k="ssr:stedsnr" v="559792" />
	</node>
	<node lat="63.36689444826665" lon="10.170927785608441" id="-79687">
		<tag k="name" v="Stormyra" />
		<tag k="natural" v="wetland" />
		<tag k="ssr:stedsnr" v="691085" />
	</node>
	<node lat="63.41098055297342" lon="10.093280554816037" id="-79692">
		<tag k="name" v="Lausetgjerdet" />
		<tag k="place" v="locality" />
		<tag k="ssr:stedsnr" v="691828" />
	</node>
	<node lat="63.35334999599496" lon="10.152499997249206" id="-79696">
		<tag k="name" v="Høyemsmyran" />
		<tag k="natural" v="wetland" />
		<tag k="ssr:stedsnr" v="691958" />
	</node>
	<node lat="63.41230277615967" lon="10.109486110950463" id="-79716">
		<tag k="name" v="Hoemsøret" />
		<tag k="place" v="locality" />
		<tag k="ssr:stedsnr" v="569904" />
	</node>
	<node lat="63.38987777734554" lon="10.295711120969575" id="-79728">
		<tag k="name" v="Nergjerdet" />
		<tag k="place" v="locality" />
		<tag k="ssr:stedsnr" v="571932" />
	</node>
	<node lat="63.36266944747068" lon="10.232024993230281" id="-79737">
		<tag k="name" v="Storgrasmyra" />
		<tag k="natural" v="wetland" />
		<tag k="ssr:stedsnr" v="572349" />
	</node>
	<node lat="63.3985138873205" lon="10.2923972210708" id="-79741">
		<tag k="landuse" v="quarry" />
		<tag k="name" v="Solemsbruddet" />
		<tag k="ssr:stedsnr" v="693941" />
	</node>
	<node lat="63.35833611468051" lon="10.237958330242018" id="-79750">
		<tag k="name" v="Lauvåsmyra" />
		<tag k="natural" v="wetland" />
		<tag k="ssr:stedsnr" v="694260" />
	</node>
	<node lat="63.31060277721186" lon="10.436530556214466" id="-79774">
		<tag k="name" v="Sagtunet" />
		<tag k="place" v="locality" />
		<tag k="ssr:stedsnr" v="584595" />
	</node>
	<node lat="63.34994044306281" lon="10.596664610335932" id="-79777">
		<tag k="name" v="Langmyra" />
		<tag k="natural" v="wetland" />
		<tag k="ssr:stedsnr" v="586100" />
	</node>
	<node lat="63.28383611541066" lon="10.597580559152517" id="-79792">
		<tag k="name" v="Skjeftesmyra" />
		<tag k="natural" v="wetland" />
		<tag k="ssr:stedsnr" v="588407" />
	</node>
	<node lat="63.287327778181805" lon="10.619608332314128" id="-79795">
		<tag k="name" v="Høybuslåtten" />
		<tag k="natural" v="wetland" />
		<tag k="ssr:stedsnr" v="588422" />
	</node>
	<node lat="63.28422500341577" lon="10.538724996089323" id="-79796">
		<tag k="name" v="Vargslættrya" />
		<tag k="natural" v="wetland" />
		<tag k="ssr:stedsnr" v="588429" />
	</node>
	<node lat="63.2851444445841" lon="10.609400004781229" id="-79797">
		<tag k="name" v="Bekkrokan" />
		<tag k="natural" v="wetland" />
		<tag k="ssr:stedsnr" v="588432" />
	</node>
	<node lat="63.364286112190435" lon="10.443563880133302" id="-79828">
		<tag k="landuse" v="meadow" />
		<tag k="name" v="Håggån" />
		<tag k="ssr:stedsnr" v="601520" />
	</node>
	<node lat="63.28436388476742" lon="10.553105554365496" id="-79851">
		<tag k="name" v="Aunkjølen" />
		<tag k="natural" v="wetland" />
		<tag k="ssr:stedsnr" v="620770" />
	</node>
	<node lat="63.383283330517386" lon="10.124247226802883" id="-79857">
		<tag k="name" v="Rabben" />
		<tag k="place" v="locality" />
		<tag k="ssr:stedsnr" v="629815" />
	</node>
	<node lat="63.41664444130784" lon="10.117633337810556" id="-79867">
		<tag k="name" v="Kolsåsmyra" />
		<tag k="natural" v="wetland" />
		<tag k="ssr:stedsnr" v="629951" />
	</node>
	<node lat="63.35669722360239" lon="10.249922219349672" id="-79882">
		<tag k="name" v="Ringvålsmyra" />
		<tag k="natural" v="wetland" />
		<tag k="ssr:stedsnr" v="633212" />
	</node>
	<node lat="63.36933332924649" lon="10.221133342784045" id="-79895">
		<tag k="name" v="Småvassmyran" />
		<tag k="natural" v="wetland" />
		<tag k="ssr:stedsnr" v="634594" />
	</node>
	<node lat="63.30143610852861" lon="10.424847231956456" id="-79904">
		<tag k="name" v="Tjønnmyra" />
		<tag k="natural" v="wetland" />
		<tag k="ssr:stedsnr" v="705655" />
	</node>
	<node lat="63.30248333379315" lon="10.558099995160868" id="-79927">
		<tag k="name" v="Lysklettstykket" />
		<tag k="place" v="locality" />
		<tag k="ssr:stedsnr" v="649439" />
	</node>
	<node lat="63.30472777793832" lon="10.578461119152232" id="-79928">
		<tag k="name" v="Solemsstykket" />
		<tag k="place" v="locality" />
		<tag k="ssr:stedsnr" v="649441" />
	</node>
	<node lat="63.24788610938024" lon="10.60022777245125" id="-79935">
		<tag k="historic" v="shieling" />
		<tag k="name" v="Vikavollen" />
		<tag k="place" v="locality" />
		<tag k="ssr:stedsnr" v="649395" />
	</node>
	<node lat="63.364811110193834" lon="10.457188885721928" id="-79956">
		<tag k="landuse" v="quarry" />
		<tag k="name" v="Lia pukkverk" />
		<tag k="ssr:stedsnr" v="658215" />
	</node>
	<node lat="63.26944999860756" lon="10.490391657847864" id="-79999">
		<tag k="alt_name" v="Djupdalsmyra ne." />
		<tag k="name" v="Nedre Djupdalsmyra" />
		<tag k="natural" v="wetland" />
		<tag k="ssr:stedsnr" v="710290" />
	</node>
	<node lat="63.24921666308253" lon="10.585063884794453" id="-80003">
		<tag k="name" v="Sagkjølen" />
		<tag k="natural" v="wetland" />
		<tag k="ssr:stedsnr" v="710389" />
	</node>
	<node lat="63.31515833136209" lon="10.49105833685852" id="-80006">
		<tag k="name" v="Lysklettmyra" />
		<tag k="natural" v="wetland" />
		<tag k="ssr:stedsnr" v="710419" />
	</node>
	<node lat="63.24848611459796" lon="10.57415000560778" id="-80008">
		<tag k="name" v="Kjelkbekkmyra" />
		<tag k="natural" v="wetland" />
		<tag k="ssr:stedsnr" v="710356" />
	</node>
	<node lat="63.252441663112315" lon="10.565969435761108" id="-80009">
		<tag k="name" v="Anderskneppet" />
		<tag k="place" v="locality" />
		<tag k="ssr:stedsnr" v="710358" />
	</node>
	<node lat="63.31411110956173" lon="10.622563881449702" id="-80011">
		<tag k="name" v="Lykstadstykket" />
		<tag k="place" v="locality" />
		<tag k="ssr:stedsnr" v="710453" />
	</node>
	<node lat="63.31100833778502" lon="10.644644440468054" id="-80012">
		<tag k="name" v="Langåstrøa" />
		<tag k="place" v="locality" />
		<tag k="ssr:stedsnr" v="710455" />
	</node>
	<node lat="63.29059444253935" lon="10.603061113950933" id="-80013">
		<tag k="name" v="Andersmyran" />
		<tag k="natural" v="wetland" />
		<tag k="ssr:stedsnr" v="710457" />
	</node>
	<node lat="63.29660000229931" lon="10.60324166141174" id="-80014">
		<tag k="name" v="Høgskjøla" />
		<tag k="natural" v="wetland" />
		<tag k="ssr:stedsnr" v="710467" />
	</node>
	<node lat="63.38480833574106" lon="10.587047225289952" id="-80037">
		<tag k="name" v="Jervtrøa" />
		<tag k="place" v="locality" />
		<tag k="ssr:stedsnr" v="891526" />
	</node>
	<node lat="63.2494138865875" lon="10.43283332478089" id="-80049">
		<tag k="name" v="Lykkja" />
		<tag k="place" v="locality" />
		<tag k="ssr:stedsnr" v="892321" />
	</node>
	<node lat="63.259502778911084" lon="10.577116663276113" id="-80056">
		<tag k="name" v="Oddløftmyra" />
		<tag k="natural" v="wetland" />
		<tag k="ssr:stedsnr" v="892286" />
	</node>
	<node lat="63.259350003751564" lon="10.477794452402204" id="-80057">
		<tag k="name" v="Postmyra" />
		<tag k="natural" v="wetland" />
		<tag k="ssr:stedsnr" v="892293" />
	</node>
	<node lat="63.280763885074954" lon="10.598472217636305" id="-80079">
		<tag k="name" v="Kvernkåsa" />
		<tag k="place" v="locality" />
		<tag k="ssr:stedsnr" v="892434" />
	</node>
	<node lat="63.4022444401102" lon="10.093583341623724" id="-80092">
		<tag k="name" v="Lausetmyra" />
		<tag k="natural" v="wetland" />
		<tag k="ssr:stedsnr" v="691808" />
	</node>
	<node lat="63.31322778129022" lon="10.430338887246686" id="-80124">
		<tag k="name" v="Tanemsmyra" />
		<tag k="natural" v="wetland" />
		<tag k="ssr:stedsnr" v="705658" />
	</node>
	<node lat="63.30008333346682" lon="10.550805558547003" id="-80138">
		<tag k="name" v="Hollan" />
		<tag k="place" v="locality" />
		<tag k="ssr:stedsnr" v="710430" />
	</node>
	<node lat="63.27809166764797" lon="10.422799996240833" id="-80139">
		<tag k="name" v="Postmyra" />
		<tag k="natural" v="wetland" />
		<tag k="ssr:stedsnr" v="710506" />
	</node>
	<node lat="63.34066111029212" lon="10.368558328268318" id="-80145">
		<tag k="name" v="Løvåsmyra" />
		<tag k="natural" v="wetland" />
		<tag k="ssr:stedsnr" v="717762" />
	</node>
	<node lat="63.38944166623615" lon="10.463500004911063" id="-80146">
		<tag k="name" v="Tomsetmyra" />
		<tag k="natural" v="wetland" />
		<tag k="ssr:stedsnr" v="718224" />
	</node>
	<node lat="63.33686389304746" lon="10.415580560192227" id="-80147">
		<tag k="name" v="Nonsmyra" />
		<tag k="natural" v="wetland" />
		<tag k="ssr:stedsnr" v="718229" />
	</node>
	<node lat="63.307944443036234" lon="10.394324996990754" id="-80187">
		<tag k="name" v="Tømmerdalsmyran" />
		<tag k="natural" v="wetland" />
		<tag k="ssr:stedsnr" v="900247" />
	</node>
	<node lat="63.3242333350722" lon="10.332655553585973" id="-80188">
		<tag k="name" v="Bekkenget" />
		<tag k="place" v="locality" />
		<tag k="ssr:stedsnr" v="900249" />
	</node>
	<node lat="63.33782778225209" lon="10.624913879708833" id="-80206">
		<tag k="name" v="Luddumyra" />
		<tag k="natural" v="wetland" />
		<tag k="ssr:stedsnr" v="726528" />
	</node>
	<node lat="63.33383888767023" lon="10.593527774512904" id="-80207">
		<tag k="name" v="Hammermyran" />
		<tag k="natural" v="wetland" />
		<tag k="ssr:stedsnr" v="726529" />
	</node>
	<node lat="63.39794721913509" lon="10.278738884607503" id="-80261">
		<tag k="name" v="Orrhanmyra" />
		<tag k="natural" v="wetland" />
		<tag k="ssr:stedsnr" v="754953" />
	</node>
	<node lat="63.386880556028025" lon="10.279588891160023" id="-80270">
		<tag k="name" v="Frøsetmarka" />
		<tag k="place" v="locality" />
		<tag k="ssr:stedsnr" v="755957" />
	</node>
	<node lat="63.30935555626755" lon="10.419219436248751" id="-80279">
		<tag k="name" v="Grasmyra" />
		<tag k="natural" v="wetland" />
		<tag k="ssr:stedsnr" v="766613" />
	</node>
	<node lat="63.328583329035595" lon="10.5152083356818" id="-80280">
		<tag k="name" v="Kleivmyra" />
		<tag k="natural" v="wetland" />
		<tag k="ssr:stedsnr" v="766614" />
	</node>
	<node lat="63.248808330466964" lon="10.516752776467085" id="-80308">
		<tag k="name" v="Brøttemsmoan" />
		<tag k="place" v="locality" />
		<tag k="ssr:stedsnr" v="771365" />
	</node>
	<node lat="63.30061389079048" lon="10.578202776405847" id="-80311">
		<tag k="name" v="Svåstykket" />
		<tag k="place" v="locality" />
		<tag k="ssr:stedsnr" v="771421" />
	</node>
	<node lat="63.30546944523237" lon="10.573330555205402" id="-80312">
		<tag k="historic" v="shieling" />
		<tag k="name" v="Nordsetervollen" />
		<tag k="place" v="locality" />
		<tag k="ssr:stedsnr" v="771423" />
	</node>
	<node lat="63.31470277559987" lon="10.575727772026058" id="-80313">
		<tag k="name" v="Rønningsstykket" />
		<tag k="place" v="locality" />
		<tag k="ssr:stedsnr" v="771424" />
	</node>
	<node lat="63.286333333398666" lon="10.439683323995151" id="-80317">
		<tag k="name" v="Skjærmyra" />
		<tag k="natural" v="wetland" />
		<tag k="ssr:stedsnr" v="771516" />
	</node>
	<node lat="63.23983310041584" lon="10.58812593832721" id="-80368">
		<tag k="name" v="Høgkjølen" />
		<tag k="natural" v="wetland" />
		<tag k="ssr:stedsnr" v="801721" />
	</node>
	<node lat="63.19240000255345" lon="10.646849990303629" id="-80369">
		<tag k="historic" v="shieling" />
		<tag k="name" v="Drakstvollen" />
		<tag k="place" v="locality" />
		<tag k="ssr:stedsnr" v="801776" />
	</node>
	<node lat="63.40894166971597" lon="10.093294443283062" id="-80393">
		<tag k="name" v="Myrtrøa" />
		<tag k="place" v="locality" />
		<tag k="ssr:stedsnr" v="812819" />
	</node>
	<node lat="63.37609722416314" lon="10.245422223742253" id="-80406">
		<tag k="name" v="Slåttmyra" />
		<tag k="natural" v="wetland" />
		<tag k="ssr:stedsnr" v="815333" />
	</node>
	<node lat="63.28319444138643" lon="10.608138881445349" id="-80418">
		<tag k="name" v="Tjønnmyra" />
		<tag k="natural" v="wetland" />
		<tag k="ssr:stedsnr" v="827664" />
	</node>
	<node lat="63.2709277775154" lon="10.429433334490678" id="-80434">
		<tag k="name" v="Jakobrommet" />
		<tag k="place" v="locality" />
		<tag k="ssr:stedsnr" v="832288" />
	</node>
	<node lat="63.24001666852248" lon="10.609377772645127" id="-80435">
		<tag k="historic" v="shieling" />
		<tag k="name" v="Bjørklivollen" />
		<tag k="place" v="locality" />
		<tag k="ssr:stedsnr" v="832405" />
	</node>
	<node lat="63.29323055906942" lon="10.578688889952643" id="-80441">
		<tag k="name" v="Andersmyra" />
		<tag k="natural" v="wetland" />
		<tag k="ssr:stedsnr" v="832482" />
	</node>
	<node lat="63.2849277751377" lon="10.486544442176323" id="-80442">
		<tag k="name" v="Husbytrøa" />
		<tag k="place" v="locality" />
		<tag k="ssr:stedsnr" v="832486" />
	</node>
	<node lat="63.28721666680501" lon="10.49232221650384" id="-80443">
		<tag k="name" v="Stormyra" />
		<tag k="natural" v="wetland" />
		<tag k="ssr:stedsnr" v="832487" />
	</node>
	<node lat="63.32031111484259" lon="10.49289166884434" id="-80543">
		<tag k="name" v="Lysklettmyrin" />
		<tag k="natural" v="wetland" />
		<tag k="ssr:stedsnr" v="863855" />
	</node>
	<node lat="63.35926666271503" lon="10.1549805523742" id="-80563">
		<tag k="name" v="Haugsgjerdet" />
		<tag k="place" v="locality" />
		<tag k="ssr:stedsnr" v="934837" />
	</node>
	<node lat="63.41408055271373" lon="10.136413882276477" id="-80567">
		<tag k="name" v="Hallet" />
		<tag k="place" v="locality" />
		<tag k="ssr:stedsnr" v="934871" />
	</node>
	<node lat="63.306666668020156" lon="10.414477786048765" id="-80585">
		<tag k="name" v="Brattbakkmyra" />
		<tag k="natural" v="wetland" />
		<tag k="ssr:stedsnr" v="888556" />
	</node>
	<node lat="63.236511106905546" lon="10.45408055288392" id="-80594">
		<tag k="name" v="Løksmyra" />
		<tag k="natural" v="wetland" />
		<tag k="ssr:stedsnr" v="892317" />
	</node>
	<node lat="63.21434722632919" lon="10.62045556025775" id="-80595">
		<tag k="name" v="Høgmyra" />
		<tag k="natural" v="wetland" />
		<tag k="ssr:stedsnr" v="892358" />
	</node>
	<node lat="63.215897223078045" lon="10.588261110292555" id="-80597">
		<tag k="historic" v="shieling" />
		<tag k="name" v="Sandåvollen" />
		<tag k="place" v="locality" />
		<tag k="ssr:stedsnr" v="892360" />
	</node>
	<node lat="63.285833337033004" lon="10.505908342099797" id="-80599">
		<tag k="name" v="Hundmyra" />
		<tag k="natural" v="wetland" />
		<tag k="ssr:stedsnr" v="892471" />
	</node>
	<node lat="63.293366668929536" lon="10.408483330533864" id="-80600">
		<tag k="name" v="Langdalsmyra" />
		<tag k="natural" v="wetland" />
		<tag k="ssr:stedsnr" v="892479" />
	</node>
	<node lat="63.29610000436043" lon="10.40578332622963" id="-80602">
		<tag k="name" v="Bjørnmyra" />
		<tag k="natural" v="wetland" />
		<tag k="ssr:stedsnr" v="892484" />
	</node>
	<node lat="63.312122219675864" lon="10.60226112044673" id="-80603">
		<tag k="name" v="Guttestenstykket" />
		<tag k="place" v="locality" />
		<tag k="ssr:stedsnr" v="893405" />
	</node>
	<node lat="63.31126110669188" lon="10.592094446132904" id="-80604">
		<tag k="name" v="Osstykket" />
		<tag k="place" v="locality" />
		<tag k="ssr:stedsnr" v="893406" />
	</node>
	<node lat="63.36616666561512" lon="10.268250000658231" id="-80614">
		<tag k="name" v="Langmyran" />
		<tag k="natural" v="wetland" />
		<tag k="ssr:stedsnr" v="900252" />
	</node>
	<node lat="63.347472221787555" lon="10.201386116791863" id="-80653">
		<tag k="name" v="Fallet" />
		<tag k="place" v="locality" />
		<tag k="ssr:stedsnr" v="934803" />
	</node>
	<node lat="63.419772223614544" lon="10.128416669986336" id="-80656">
		<tag k="name" v="Langørjhåggån" />
		<tag k="place" v="locality" />
		<tag k="ssr:stedsnr" v="934909" />
	</node>
	<node lat="63.38999444354604" lon="10.142958336728427" id="-80658">
		<tag k="name" v="Fallet" />
		<tag k="place" v="locality" />
		<tag k="ssr:stedsnr" v="934950" />
	</node>
	<node lat="63.38100277690448" lon="10.530394447350242" id="-80677">
		<tag k="name" v="Mokråa" />
		<tag k="place" v="locality" />
		<tag k="ssr:stedsnr" v="951498" />
	</node>
	<node lat="63.264699996839425" lon="10.639183339618898" id="-80682">
		<tag k="name" v="Øver Tangvolla" />
		<tag k="place" v="locality" />
		<tag k="ssr:stedsnr" v="953331" />
	</node>
	<node lat="63.2304361079314" lon="10.59703056146497" id="-80689">
		<tag k="name" v="Vargslættet" />
		<tag k="natural" v="wetland" />
		<tag k="ssr:stedsnr" v="953410" />
	</node>
	<node lat="63.28371111467772" lon="10.484908324986892" id="-80696">
		<tag k="name" v="Eidstutrøa" />
		<tag k="place" v="locality" />
		<tag k="ssr:stedsnr" v="953491" />
	</node>
	<node lat="63.38040833079906" lon="10.481905556587176" id="-80700">
		<tag k="name" v="Sellesmyra" />
		<tag k="natural" v="wetland" />
		<tag k="ssr:stedsnr" v="960197" />
	</node>
	<node lat="63.34963883405969" lon="10.59345018928207" id="-80781">
		<tag k="name" v="Sætermyra" />
		<tag k="natural" v="wetland" />
		<tag k="ssr:stedsnr" v="13945" />
	</node>
	<node lat="63.35814722619119" lon="10.526138898701655" id="-80789">
		<tag k="name" v="Digresmyra" />
		<tag k="natural" v="wetland" />
		<tag k="ssr:stedsnr" v="13982" />
	</node>
	<node lat="63.37096388674549" lon="10.104969454033222" id="-80798">
		<tag k="name" v="Langlomyra" />
		<tag k="natural" v="wetland" />
		<tag k="ssr:stedsnr" v="23831" />
	</node>
	<node lat="63.35672777724603" lon="10.168994449110397" id="-80799">
		<tag k="name" v="Klokkarvollen" />
		<tag k="place" v="locality" />
		<tag k="ssr:stedsnr" v="23995" />
	</node>
	<node lat="63.376191669394935" lon="10.074263882394055" id="-80807">
		<tag k="name" v="Skogan" />
		<tag k="place" v="locality" />
		<tag k="ssr:stedsnr" v="23851" />
	</node>
	<node lat="63.424525001528416" lon="10.238827770250955" id="-80840">
		<tag k="name" v="Klefstadmyran" />
		<tag k="natural" v="wetland" />
		<tag k="ssr:stedsnr" v="28533" />
	</node>
	<node lat="63.311180554079876" lon="10.44909723192156" id="-80849">
		<tag k="name" v="Elveplassen" />
		<tag k="place" v="locality" />
		<tag k="ssr:stedsnr" v="38588" />
	</node>
	<node lat="63.3103888934414" lon="10.444036102521018" id="-80850">
		<tag k="name" v="Jørgensrommet" />
		<tag k="place" v="locality" />
		<tag k="ssr:stedsnr" v="38591" />
	</node>
	<node lat="63.344559583768806" lon="10.623119116517733" id="-80855">
		<tag k="name" v="Bakmarka" />
		<tag k="place" v="locality" />
		<tag k="ssr:stedsnr" v="40134" />
	</node>
	<node lat="63.24341389270844" lon="10.576597220031555" id="-80871">
		<tag k="name" v="Holmyra" />
		<tag k="natural" v="wetland" />
		<tag k="ssr:stedsnr" v="42332" />
	</node>
	<node lat="63.27186944549547" lon="10.410894454460147" id="-80878">
		<tag k="name" v="Litjsjurdsmyra" />
		<tag k="natural" v="wetland" />
		<tag k="ssr:stedsnr" v="43258" />
	</node>
	<node lat="63.319011114545454" lon="10.577513885747724" id="-80882">
		<tag k="name" v="Guttestenstykket" />
		<tag k="place" v="locality" />
		<tag k="ssr:stedsnr" v="43394" />
	</node>
	<node lat="63.3201444455348" lon="10.58154722626913" id="-80883">
		<tag k="historic" v="shieling" />
		<tag k="name" v="Sneeggvollen" />
		<tag k="place" v="locality" />
		<tag k="ssr:stedsnr" v="43395" />
	</node>
	<node lat="63.302986109038216" lon="10.642586101236748" id="-80885">
		<tag k="name" v="Torvstykket" />
		<tag k="place" v="locality" />
		<tag k="ssr:stedsnr" v="43413" />
	</node>
	<node lat="63.27857777787404" lon="10.515558341439771" id="-80890">
		<tag k="landuse" v="meadow" />
		<tag k="name" v="Tjønnbuslættet" />
		<tag k="ssr:stedsnr" v="43438" />
	</node>
	<node lat="63.283102775910734" lon="10.408102780312378" id="-80894">
		<tag k="name" v="Fagerlimyra" />
		<tag k="natural" v="wetland" />
		<tag k="ssr:stedsnr" v="43458" />
	</node>
	<node lat="63.29133610995994" lon="10.413547218830416" id="-80895">
		<tag k="alt_name" v="Fuglmyrryin" />
		<tag k="name" v="Fuglmyra" />
		<tag k="natural" v="wetland" />
		<tag k="ssr:stedsnr" v="43464" />
	</node>
	<node lat="63.322338893320094" lon="10.313358323748703" id="-80898">
		<tag k="name" v="Klettrøa" />
		<tag k="place" v="locality" />
		<tag k="ssr:stedsnr" v="50239" />
	</node>
	<node lat="63.30230555233154" lon="10.621833333316358" id="-80962">
		<tag k="name" v="Langåskjølen" />
		<tag k="natural" v="wetland" />
		<tag k="ssr:stedsnr" v="73825" />
	</node>
	<node lat="63.4063249969215" lon="10.109088892948911" id="-80972">
		<tag k="name" v="Høstadmyra" />
		<tag k="natural" v="wetland" />
		<tag k="ssr:stedsnr" v="74397" />
	</node>
	<node lat="63.41453055460876" lon="10.08884722436498" id="-81010">
		<tag k="name" v="Seibergan" />
		<tag k="place" v="locality" />
		<tag k="ssr:stedsnr" v="84857" />
	</node>
	<node lat="63.39350555949425" lon="10.145683336985563" id="-81014">
		<tag k="name" v="Kjerkmyra" />
		<tag k="place" v="locality" />
		<tag k="ssr:stedsnr" v="84971" />
	</node>
	<node lat="63.392255553199675" lon="10.263636109194529" id="-81026">
		<tag k="name" v="Stormyra" />
		<tag k="natural" v="wetland" />
		<tag k="ssr:stedsnr" v="87143" />
	</node>
	<node lat="63.27041388843711" lon="10.423963891610848" id="-81082">
		<tag k="name" v="Ingebrigtrommet" />
		<tag k="place" v="locality" />
		<tag k="ssr:stedsnr" v="103260" />
	</node>
	<node lat="63.318208335461215" lon="10.569291675230255" id="-81086">
		<tag k="name" v="Estenstykket" />
		<tag k="place" v="locality" />
		<tag k="ssr:stedsnr" v="104400" />
	</node>
	<node lat="63.27959721802624" lon="10.409224993707827" id="-81087">
		<tag k="name" v="Brandåsmyra" />
		<tag k="natural" v="wetland" />
		<tag k="ssr:stedsnr" v="104475" />
	</node>
	<node lat="63.29100277629854" lon="10.455483332512607" id="-81090">
		<tag k="name" v="Postmyra" />
		<tag k="natural" v="wetland" />
		<tag k="ssr:stedsnr" v="104495" />
	</node>
	<node lat="63.26960555551708" lon="10.407036105124465" id="-81092">
		<tag k="name" v="Stor-Sjurdsmyra" />
		<tag k="natural" v="wetland" />
		<tag k="ssr:stedsnr" v="104269" />
	</node>
	<node lat="63.31622222654506" lon="10.399655561675427" id="-81117">
		<tag k="landuse" v="quarry" />
		<tag k="name" v="Ulriksdals gruve" />
		<tag k="ssr:stedsnr" v="112235" />
	</node>
	<node lat="63.421394445892" lon="10.147266674921132" id="-81223">
		<tag k="name" v="Heggsnipen" />
		<tag k="place" v="locality" />
		<tag k="ssr:stedsnr" v="144080" />
	</node>
	<node lat="63.356713892058906" lon="10.186444436587665" id="-81232">
		<tag k="name" v="Hattan" />
		<tag k="place" v="locality" />
		<tag k="ssr:stedsnr" v="144882" />
	</node>
	<node lat="63.39803055319592" lon="10.188902781265133" id="-81233">
		<tag k="name" v="Meismyran" />
		<tag k="natural" v="wetland" />
		<tag k="ssr:stedsnr" v="144884" />
	</node>
	<node lat="63.42020278080892" lon="10.166833334306656" id="-81235">
		<tag k="name" v="Trøa" />
		<tag k="place" v="locality" />
		<tag k="ssr:stedsnr" v="144900" />
	</node>
	<node lat="63.384905554162415" lon="10.104183333479702" id="-81239">
		<tag k="historic" v="shieling" />
		<tag k="name" v="Hangervollen" />
		<tag k="place" v="locality" />
		<tag k="ssr:stedsnr" v="144946" />
	</node>
	<node lat="63.367722217933235" lon="10.254638889691808" id="-81260">
		<tag k="name" v="Gurumyra" />
		<tag k="natural" v="wetland" />
		<tag k="ssr:stedsnr" v="147331" />
	</node>
	<node lat="63.39886110728076" lon="10.271833330171324" id="-81263">
		<tag k="name" v="Bangtjønnmyra" />
		<tag k="natural" v="wetland" />
		<tag k="ssr:stedsnr" v="147951" />
	</node>
	<node lat="63.31398055489282" lon="10.448997229899886" id="-81282">
		<tag k="name" v="Åsen" />
		<tag k="place" v="locality" />
		<tag k="ssr:stedsnr" v="159636" />
	</node>
	<node lat="63.33018055707843" lon="10.503050009716773" id="-81286">
		<tag k="name" v="Sneeggmyra" />
		<tag k="natural" v="wetland" />
		<tag k="ssr:stedsnr" v="159658" />
	</node>
	<node lat="63.260091666835834" lon="10.494325005444061" id="-81304">
		<tag k="name" v="Korsmyra" />
		<tag k="natural" v="wetland" />
		<tag k="ssr:stedsnr" v="164328" />
	</node>
	<node lat="63.26142222182436" lon="10.605027776831413" id="-81308">
		<tag k="name" v="Skavdalsmyra" />
		<tag k="natural" v="wetland" />
		<tag k="ssr:stedsnr" v="164354" />
	</node>
	<node lat="63.23173333774913" lon="10.555025005633093" id="-81311">
		<tag k="name" v="Endlausslættet" />
		<tag k="natural" v="wetland" />
		<tag k="ssr:stedsnr" v="164449" />
	</node>
	<node lat="63.278686107640446" lon="10.488352780677728" id="-81312">
		<tag k="name" v="Rogndalsmyra" />
		<tag k="natural" v="wetland" />
		<tag k="ssr:stedsnr" v="164529" />
	</node>
	<node lat="63.305380553296466" lon="10.595527771462557" id="-81313">
		<tag k="name" v="Lysklettstykket" />
		<tag k="place" v="locality" />
		<tag k="ssr:stedsnr" v="164487" />
	</node>
	<node lat="63.307755552828326" lon="10.592986109912117" id="-81314">
		<tag k="name" v="Ulsetstykket" />
		<tag k="place" v="locality" />
		<tag k="ssr:stedsnr" v="164489" />
	</node>
	<node lat="63.306830559219286" lon="10.635980557766196" id="-81315">
		<tag k="name" v="Lokan" />
		<tag k="natural" v="wetland" />
		<tag k="ssr:stedsnr" v="164494" />
	</node>
	<node lat="63.31393333537355" lon="10.61686666547932" id="-81317">
		<tag k="name" v="Stendalstykket" />
		<tag k="place" v="locality" />
		<tag k="ssr:stedsnr" v="164498" />
	</node>
	<node lat="63.28884166515368" lon="10.506033325836192" id="-81318">
		<tag k="name" v="Vedfallholet" />
		<tag k="natural" v="wetland" />
		<tag k="ssr:stedsnr" v="164544" />
	</node>
	<node lat="63.32957500287926" lon="10.275905552874683" id="-81341">
		<tag k="name" v="Eggtrøa" />
		<tag k="place" v="locality" />
		<tag k="ssr:stedsnr" v="172228" />
	</node>
	<node lat="63.35955555428699" lon="10.320036116571831" id="-81460">
		<tag k="name" v="Nordmyra" />
		<tag k="natural" v="wetland" />
		<tag k="ssr:stedsnr" v="196000" />
	</node>
	<node lat="63.40125833191101" lon="10.179847225935315" id="-81471">
		<tag k="name" v="Stortrømyran" />
		<tag k="natural" v="wetland" />
		<tag k="ssr:stedsnr" v="205077" />
	</node>
	<node lat="63.383855553366075" lon="10.147325003177032" id="-81486">
		<tag k="name" v="Raumyra" />
		<tag k="natural" v="wetland" />
		<tag k="ssr:stedsnr" v="205973" />
	</node>
	<node lat="63.36223055531107" lon="10.164213898329658" id="-81487">
		<tag k="name" v="Stormyra" />
		<tag k="natural" v="wetland" />
		<tag k="ssr:stedsnr" v="205977" />
	</node>
	<node lat="63.35329444037226" lon="10.168552775806972" id="-81488">
		<tag k="name" v="Torestu" />
		<tag k="place" v="locality" />
		<tag k="ssr:stedsnr" v="205982" />
	</node>
	<node lat="63.377155554420625" lon="10.241508323510734" id="-81510">
		<tag k="name" v="Stabbursmyra" />
		<tag k="natural" v="wetland" />
		<tag k="ssr:stedsnr" v="209353" />
	</node>
	<node lat="63.36888611209733" lon="10.541769446214413" id="-81542">
		<tag k="name" v="Botnmyra" />
		<tag k="natural" v="wetland" />
		<tag k="ssr:stedsnr" v="223417" />
	</node>
	<node lat="63.37176110977951" lon="10.63591388845574" id="-81543">
		<tag k="name" v="Rømyra" />
		<tag k="natural" v="wetland" />
		<tag k="ssr:stedsnr" v="223520" />
	</node>
	<node lat="63.318847222925385" lon="10.56027777296038" id="-81555">
		<tag k="name" v="Vangsmostykket" />
		<tag k="place" v="locality" />
		<tag k="ssr:stedsnr" v="225439" />
	</node>
	<node lat="63.30580278067448" lon="10.619983335499443" id="-81556">
		<tag k="name" v="Rønningsstykket" />
		<tag k="place" v="locality" />
		<tag k="ssr:stedsnr" v="225446" />
	</node>
	<node lat="63.30581111447652" lon="10.651186112268372" id="-81557">
		<tag k="name" v="Nordsetstykket" />
		<tag k="place" v="locality" />
		<tag k="ssr:stedsnr" v="225452" />
	</node>
	<node lat="63.30300833166932" lon="10.62548056255635" id="-81558">
		<tag k="name" v="Langåsmyran" />
		<tag k="natural" v="wetland" />
		<tag k="ssr:stedsnr" v="225455" />
	</node>
	<node lat="63.31323333121881" lon="10.633202786203556" id="-81559">
		<tag k="name" v="Blekkanteigen" />
		<tag k="place" v="locality" />
		<tag k="ssr:stedsnr" v="225460" />
	</node>
	<node lat="63.28142222388924" lon="10.615280564283168" id="-81560">
		<tag k="name" v="Raumyra" />
		<tag k="natural" v="wetland" />
		<tag k="ssr:stedsnr" v="225463" />
	</node>
	<node lat="63.279358328891476" lon="10.425850005998141" id="-81562">
		<tag k="name" v="Gaddmyra" />
		<tag k="natural" v="wetland" />
		<tag k="ssr:stedsnr" v="225506" />
	</node>
	<node lat="63.25946110849983" lon="10.486299991984897" id="-81583">
		<tag k="name" v="Litjtjønnmyra" />
		<tag k="natural" v="wetland" />
		<tag k="ssr:stedsnr" v="286270" />
	</node>
	<node lat="63.26951944868512" lon="10.496486120065383" id="-81584">
		<tag k="name" v="Svarttjønnmyra" />
		<tag k="natural" v="wetland" />
		<tag k="ssr:stedsnr" v="286273" />
	</node>
	<node lat="63.28149444479526" lon="10.437036109070362" id="-81592">
		<tag k="name" v="Grismyra" />
		<tag k="natural" v="wetland" />
		<tag k="ssr:stedsnr" v="285495" />
	</node>
	<node lat="63.296483330432004" lon="10.410699990862524" id="-81593">
		<tag k="name" v="Høgmyra" />
		<tag k="natural" v="wetland" />
		<tag k="ssr:stedsnr" v="285497" />
	</node>
	<node lat="63.22545000269632" lon="10.628558334765863" id="-81600">
		<tag k="name" v="Høgslåttan" />
		<tag k="natural" v="wetland" />
		<tag k="ssr:stedsnr" v="285371" />
	</node>
	<node lat="63.31229444875044" lon="10.584161120130661" id="-81606">
		<tag k="name" v="Osstykket" />
		<tag k="place" v="locality" />
		<tag k="ssr:stedsnr" v="286415" />
	</node>
	<node lat="63.301980557288395" lon="10.60366112084006" id="-81607">
		<tag k="name" v="Storuglstykket" />
		<tag k="place" v="locality" />
		<tag k="ssr:stedsnr" v="286422" />
	</node>
	<node lat="63.284366665390586" lon="10.509336120838613" id="-81609">
		<tag k="name" v="Møssmørmyra" />
		<tag k="natural" v="wetland" />
		<tag k="ssr:stedsnr" v="286472" />
	</node>
	<node lat="63.361236114611444" lon="10.334488887827332" id="-81623">
		<tag k="name" v="Nordmyra" />
		<tag k="natural" v="wetland" />
		<tag k="ssr:stedsnr" v="293262" />
	</node>
	<node lat="63.36017777966681" lon="10.340097217732469" id="-81650">
		<tag k="name" v="Saupstadmyra" />
		<tag k="natural" v="wetland" />
		<tag k="ssr:stedsnr" v="299349" />
	</node>
	<node lat="63.31253888895625" lon="10.40191111162901" id="-81651">
		<tag k="landuse" v="quarry" />
		<tag k="name" v="Portmyra" />
		<tag k="ssr:stedsnr" v="299490" />
	</node>
	<node lat="63.283041669628446" lon="10.608111109238447" id="-81682">
		<tag k="name" v="Raudkjølen" />
		<tag k="natural" v="wetland" />
		<tag k="ssr:stedsnr" v="316831" />
	</node>
	<node lat="63.36107222403159" lon="10.12828054764098" id="-81728">
		<tag k="name" v="Steinstrøa" />
		<tag k="place" v="locality" />
		<tag k="ssr:stedsnr" v="326830" />
	</node>
	<node lat="63.39405000067804" lon="10.114494449456211" id="-81734">
		<tag k="name" v="Joplassen" />
		<tag k="place" v="locality" />
		<tag k="ssr:stedsnr" v="326926" />
	</node>
	<node lat="63.3457861148627" lon="10.191569449065984" id="-81735">
		<tag k="name" v="Bråleiret" />
		<tag k="place" v="locality" />
		<tag k="ssr:stedsnr" v="326990" />
	</node>
	<node lat="63.36263055669556" lon="10.157552784123197" id="-81740">
		<tag k="name" v="Kneppet" />
		<tag k="place" v="locality" />
		<tag k="ssr:stedsnr" v="327952" />
	</node>
	<node lat="63.3817138872229" lon="10.31274999843829" id="-81742">
		<tag k="name" v="Leirbrumyran" />
		<tag k="natural" v="wetland" />
		<tag k="ssr:stedsnr" v="328146" />
	</node>
	<node lat="63.38038332960078" lon="10.098419444196155" id="-81745">
		<tag k="alt_name" v="Setervollen" />
		<tag k="name" v="Sætervollen" />
		<tag k="place" v="locality" />
		<tag k="ssr:stedsnr" v="327788" />
	</node>
	<node lat="63.406077775865256" lon="10.170894451080732" id="-81747">
		<tag k="name" v="Kalvmyra" />
		<tag k="natural" v="wetland" />
		<tag k="ssr:stedsnr" v="327979" />
	</node>
	<node lat="63.37901944380758" lon="10.168238886377821" id="-81748">
		<tag k="name" v="Bergs Minde" />
		<tag k="place" v="locality" />
		<tag k="ssr:stedsnr" v="327999" />
	</node>
	<node lat="63.35771388935947" lon="10.228974993502737" id="-81768">
		<tag k="name" v="Aunmyra" />
		<tag k="natural" v="wetland" />
		<tag k="ssr:stedsnr" v="330330" />
	</node>
	<node lat="63.32892499806689" lon="10.550094437501532" id="-81792">
		<tag k="name" v="Stavlundsmyra" />
		<tag k="natural" v="wetland" />
		<tag k="ssr:stedsnr" v="341663" />
	</node>
	<node lat="63.30853055291489" lon="10.407022231140301" id="-81793">
		<tag k="name" v="Raumyra" />
		<tag k="natural" v="wetland" />
		<tag k="ssr:stedsnr" v="341667" />
	</node>
	<node lat="63.24772221867531" lon="10.580524989912288" id="-81815">
		<tag k="name" v="Langmyra" />
		<tag k="natural" v="wetland" />
		<tag k="ssr:stedsnr" v="346382" />
	</node>
	<node lat="63.25397499781757" lon="10.53201945323527" id="-81816">
		<tag k="historic" v="shieling" />
		<tag k="name" v="Trøvollen" />
		<tag k="place" v="locality" />
		<tag k="ssr:stedsnr" v="346384" />
	</node>
	<node lat="63.24835555973323" lon="10.486763879766045" id="-81821">
		<tag k="name" v="Bjørsjømyra" />
		<tag k="natural" v="wetland" />
		<tag k="ssr:stedsnr" v="346334" />
	</node>
	<node lat="63.24645277380375" lon="10.422847227180021" id="-81823">
		<tag k="name" v="Merkesmyra" />
		<tag k="natural" v="wetland" />
		<tag k="ssr:stedsnr" v="346347" />
	</node>
	<node lat="63.30406110753876" lon="10.620263897731942" id="-81824">
		<tag k="name" v="Krokstykket" />
		<tag k="place" v="locality" />
		<tag k="ssr:stedsnr" v="346442" />
	</node>
	<node lat="63.302411111307094" lon="10.613705551708465" id="-81825">
		<tag k="name" v="Osstykket" />
		<tag k="place" v="locality" />
		<tag k="ssr:stedsnr" v="346443" />
	</node>
	<node lat="63.31814166517063" lon="10.599252781439365" id="-81826">
		<tag k="name" v="Jovasstykket" />
		<tag k="place" v="locality" />
		<tag k="ssr:stedsnr" v="346451" />
	</node>
	<node lat="63.30570000362145" lon="10.47545277482336" id="-81828">
		<tag k="name" v="Rydland" />
		<tag k="place" v="locality" />
		<tag k="ssr:stedsnr" v="346588" />
	</node>
	<node lat="63.352041666499645" lon="10.223577787363261" id="-81836">
		<tag k="name" v="Lykkja" />
		<tag k="place" v="locality" />
		<tag k="ssr:stedsnr" v="353238" />
	</node>
	<node lat="63.35162499634467" lon="10.268366662452165" id="-81837">
		<tag k="landuse" v="meadow" />
		<tag k="name" v="Slåttbakken" />
		<tag k="ssr:stedsnr" v="353270" />
	</node>
	<node lat="63.335927776465475" lon="10.639691673342183" id="-81903">
		<tag k="name" v="Jervlandet" />
		<tag k="place" v="locality" />
		<tag k="ssr:stedsnr" v="362475" />
	</node>
	<node lat="63.33045833458029" lon="10.679005555041124" id="-81961">
		<tag k="name" v="Fjellmyra" />
		<tag k="natural" v="wetland" />
		<tag k="ssr:stedsnr" v="377886" />
	</node>
	<node lat="63.29162777609308" lon="10.587086108640484" id="-81964">
		<tag k="name" v="Grønkjølen" />
		<tag k="natural" v="wetland" />
		<tag k="ssr:stedsnr" v="377797" />
	</node>
	<node lat="63.38064999565685" lon="10.100327768755317" id="-81989">
		<tag k="name" v="Gammelvollen" />
		<tag k="place" v="locality" />
		<tag k="ssr:stedsnr" v="387828" />
	</node>
	<node lat="63.40405000107368" lon="10.172133337966677" id="-81993">
		<tag k="name" v="Brentmyra" />
		<tag k="natural" v="wetland" />
		<tag k="ssr:stedsnr" v="387958" />
	</node>
	<node lat="63.3876944421409" lon="10.17702222509168" id="-81994">
		<tag k="name" v="Heisjømyran" />
		<tag k="natural" v="wetland" />
		<tag k="ssr:stedsnr" v="387980" />
	</node>
	<node lat="63.37988889320798" lon="10.298502787374018" id="-81997">
		<tag k="name" v="Strupen" />
		<tag k="natural" v="wetland" />
		<tag k="ssr:stedsnr" v="389154" />
	</node>
	<node lat="63.39491944052701" lon="10.2708194515386" id="-82016">
		<tag k="name" v="Klokktjønnmyra" />
		<tag k="natural" v="wetland" />
		<tag k="ssr:stedsnr" v="390963" />
	</node>
	<node lat="63.30591666325839" lon="10.444797217621776" id="-82031">
		<tag k="name" v="Fosshåggån" />
		<tag k="place" v="locality" />
		<tag k="ssr:stedsnr" v="402616" />
	</node>
	<node lat="63.41101389076027" lon="10.126241671256905" id="-82042">
		<tag k="name" v="Vorsethåggån" />
		<tag k="place" v="locality" />
		<tag k="ssr:stedsnr" v="448942" />
	</node>
	<node lat="63.36710833552295" lon="10.640827768676504" id="-82055">
		<tag k="name" v="Langmyra" />
		<tag k="natural" v="wetland" />
		<tag k="ssr:stedsnr" v="405524" />
	</node>
	<node lat="63.26697777523604" lon="10.490877781808843" id="-82064">
		<tag k="alt_name" v="Djupdalsmyra øv." />
		<tag k="name" v="Øvre Djupdalsmyra" />
		<tag k="natural" v="wetland" />
		<tag k="ssr:stedsnr" v="407307" />
	</node>
	<node lat="63.259919441391304" lon="10.593558329312858" id="-82067">
		<tag k="name" v="Ol Hansarommet" />
		<tag k="place" v="locality" />
		<tag k="ssr:stedsnr" v="407333" />
	</node>
	<node lat="63.37244444370179" lon="10.492577776549503" id="-82075">
		<tag k="name" v="Fåtengmyran" />
		<tag k="natural" v="wetland" />
		<tag k="ssr:stedsnr" v="414230" />
	</node>
	<node lat="63.405233334108736" lon="10.146116672467484" id="-82201">
		<tag k="name" v="Høgmyra" />
		<tag k="natural" v="wetland" />
		<tag k="ssr:stedsnr" v="448966" />
	</node>
	<node lat="63.286294446923" lon="10.603244451038027" id="-82232">
		<tag k="name" v="Stormyra" />
		<tag k="natural" v="wetland" />
		<tag k="ssr:stedsnr" v="498817" />
	</node>
	<node lat="63.40111111394049" lon="10.194624994045753" id="-82242">
		<tag k="name" v="Heilimyra" />
		<tag k="natural" v="wetland" />
		<tag k="ssr:stedsnr" v="508065" />
	</node>
	<node lat="63.395350003569405" lon="10.184408327745329" id="-82244">
		<tag k="name" v="Kalvmyra" />
		<tag k="natural" v="wetland" />
		<tag k="ssr:stedsnr" v="508069" />
	</node>
	<node lat="63.40617499622564" lon="10.113252786514098" id="-82248">
		<tag k="name" v="Strokkjen" />
		<tag k="natural" v="wetland" />
		<tag k="ssr:stedsnr" v="508864" />
	</node>
	<node lat="63.389572220965235" lon="10.144208334505642" id="-82251">
		<tag k="name" v="Sørliplassen" />
		<tag k="place" v="locality" />
		<tag k="ssr:stedsnr" v="508965" />
	</node>
	<node lat="63.40046944898038" lon="10.302416664032721" id="-82270">
		<tag k="landuse" v="meadow" />
		<tag k="name" v="Slåttet" />
		<tag k="ssr:stedsnr" v="511932" />
	</node>
	<node lat="63.39478333215789" lon="10.28528334274034" id="-82305">
		<tag k="name" v="Korsmyra" />
		<tag k="natural" v="wetland" />
		<tag k="ssr:stedsnr" v="525733" />
	</node>
	<node lat="63.31322499573789" lon="10.558477786280537" id="-82327">
		<tag k="name" v="Bostadstykket" />
		<tag k="place" v="locality" />
		<tag k="ssr:stedsnr" v="528457" />
	</node>
	<node lat="63.40064999666403" lon="10.458586108450527" id="-82337">
		<tag k="name" v="Steintrø" />
		<tag k="place" v="locality" />
		<tag k="ssr:stedsnr" v="535758" />
	</node>
	<node lat="63.354377775078945" lon="10.265630555523755" id="-82342">
		<tag k="historic" v="shieling" />
		<tag k="name" v="Nytrøa" />
		<tag k="place" v="locality" />
		<tag k="ssr:stedsnr" v="536239" />
	</node>
	<node lat="63.37428119332845" lon="10.250139272321926" id="-82366">
		<tag k="name" v="Brumyra" />
		<tag k="natural" v="wetland" />
		<tag k="ssr:stedsnr" v="542147" />
	</node>
	<node lat="63.301719442907704" lon="10.412797218073981" id="-82393">
		<tag k="name" v="Slåttmyra" />
		<tag k="natural" v="wetland" />
		<tag k="ssr:stedsnr" v="558867" />
	</node>
	<node lat="63.3733499962083" lon="10.49414166598064" id="-82396">
		<tag k="name" v="Fåfengmyran" />
		<tag k="natural" v="wetland" />
		<tag k="ssr:stedsnr" v="558533" />
	</node>
	<node lat="63.40833129499354" lon="10.15730441886107" id="-82433">
		<tag k="name" v="Golosmyra" />
		<tag k="natural" v="wetland" />
		<tag k="ssr:stedsnr" v="569861" />
	</node>
	<node lat="63.39175277663623" lon="10.18191944038952" id="-82447">
		<tag k="name" v="Skogmyran" />
		<tag k="natural" v="wetland" />
		<tag k="ssr:stedsnr" v="569979" />
	</node>
	<node lat="63.34671110774807" lon="10.180516676143649" id="-82455">
		<tag k="name" v="Undlendet" />
		<tag k="place" v="locality" />
		<tag k="ssr:stedsnr" v="569835" />
	</node>
	<node lat="63.399899999974835" lon="10.142674991401014" id="-82457">
		<tag k="name" v="Trefaltmyra" />
		<tag k="natural" v="wetland" />
		<tag k="ssr:stedsnr" v="569945" />
	</node>
	<node lat="63.357422225474075" lon="10.220908336303925" id="-82477">
		<tag k="name" v="Våttåmyra" />
		<tag k="natural" v="wetland" />
		<tag k="ssr:stedsnr" v="573485" />
	</node>
	<node lat="63.37171667052203" lon="10.302674998654807" id="-82490">
		<tag k="alt_name" v="Lilletrøa" />
		<tag k="name" v="Litltrøa" />
		<tag k="place" v="locality" />
		<tag k="ssr:stedsnr" v="584887" />
	</node>
	<node lat="63.34776944067638" lon="10.387300002071596" id="-82494">
		<tag k="name" v="Hårstadmarka" />
		<tag k="place" v="locality" />
		<tag k="ssr:stedsnr" v="586478" />
	</node>
	<node lat="63.36950555121177" lon="10.642463880804407" id="-82504">
		<tag k="name" v="Starrmyra" />
		<tag k="natural" v="wetland" />
		<tag k="ssr:stedsnr" v="587530" />
	</node>
	<node lat="63.25629166946742" lon="10.572755554914242" id="-82511">
		<tag k="name" v="Åsmarka" />
		<tag k="place" v="locality" />
		<tag k="ssr:stedsnr" v="588326" />
	</node>
	<node lat="63.26279444719954" lon="10.397291675995055" id="-82515">
		<tag k="name" v="Kringlemyra" />
		<tag k="natural" v="wetland" />
		<tag k="ssr:stedsnr" v="588252" />
	</node>
	<node lat="63.30099166747452" lon="10.554011112780248" id="-82517">
		<tag k="name" v="Krokstykket" />
		<tag k="place" v="locality" />
		<tag k="ssr:stedsnr" v="588376" />
	</node>
	<node lat="63.30106111395495" lon="10.56551666682297" id="-82518">
		<tag k="name" v="Ytteruglstykket" />
		<tag k="place" v="locality" />
		<tag k="ssr:stedsnr" v="588377" />
	</node>
	<node lat="63.30931388696225" lon="10.618813880625694" id="-82519">
		<tag k="name" v="Aunstykket" />
		<tag k="place" v="locality" />
		<tag k="ssr:stedsnr" v="589408" />
	</node>
	<node lat="63.40775000367995" lon="10.51465833334447" id="-82530">
		<tag k="name" v="Teslifarmen" />
		<tag k="place" v="locality" />
		<tag k="ssr:stedsnr" v="595760" />
	</node>
	<node lat="63.343849995799935" lon="10.313202768311912" id="-82540">
		<tag k="historic" v="shieling" />
		<tag k="name" v="Småbruket" />
		<tag k="place" v="locality" />
		<tag k="ssr:stedsnr" v="596248" />
	</node>
	<node lat="63.39759444508383" lon="10.089175000674704" id="-82601">
		<tag k="alt_name" v="Hangerslettmyran" />
		<tag k="name" v="Hangerslettmyra" />
		<tag k="natural" v="wetland" />
		<tag k="ssr:stedsnr" v="619439" />
	</node>
	<node lat="63.27517222666921" lon="10.422422228306713" id="-82615">
		<tag k="name" v="Fuglmyra" />
		<tag k="natural" v="wetland" />
		<tag k="ssr:stedsnr" v="619828" />
	</node>
	<node lat="63.348522217869906" lon="10.168222213133017" id="-82651">
		<tag k="name" v="Hesthåggån" />
		<tag k="place" v="locality" />
		<tag k="ssr:stedsnr" v="630968" />
	</node>
	<node lat="63.26579722526082" lon="10.40834722325458" id="-82699">
		<tag k="name" v="Litjvollmyra" />
		<tag k="natural" v="wetland" />
		<tag k="ssr:stedsnr" v="649279" />
	</node>
	<node lat="63.23618611182849" lon="10.497580563446318" id="-82700">
		<tag k="name" v="Øver Høyvegkjølen" />
		<tag k="natural" v="wetland" />
		<tag k="ssr:stedsnr" v="649385" />
	</node>
	<node lat="63.309327778458254" lon="10.601333339933836" id="-82701">
		<tag k="name" v="Ytteruglstykket" />
		<tag k="place" v="locality" />
		<tag k="ssr:stedsnr" v="649460" />
	</node>
	<node lat="63.3164138908241" lon="10.614372219258053" id="-82702">
		<tag k="name" v="Hestsjøteigen" />
		<tag k="place" v="locality" />
		<tag k="ssr:stedsnr" v="649465" />
	</node>
	<node lat="63.27586388576582" lon="10.556000007484844" id="-82704">
		<tag k="name" v="Aunet" />
		<tag k="place" v="locality" />
		<tag k="ssr:stedsnr" v="649327" />
	</node>
	<node lat="63.28016110824716" lon="10.502186111527395" id="-82710">
		<tag k="historic" v="shieling" />
		<tag k="name" v="Ratbuvollen" />
		<tag k="place" v="locality" />
		<tag k="ssr:stedsnr" v="649502" />
	</node>
	<node lat="63.363038887163015" lon="10.248336119669265" id="-82737">
		<tag k="alt_name" v="Legda" />
		<tag k="name" v="Lægda" />
		<tag k="natural" v="wetland" />
		<tag k="ssr:stedsnr" v="657328" />
	</node>
	<node lat="63.36933333492029" lon="10.460097228078256" id="-82753">
		<tag k="name" v="Stortrøa" />
		<tag k="place" v="locality" />
		<tag k="ssr:stedsnr" v="662566" />
	</node>
	<node lat="63.319088892232216" lon="10.683436119541014" id="-82761">
		<tag k="name" v="Slåttmyrin" />
		<tag k="natural" v="wetland" />
		<tag k="ssr:stedsnr" v="665069" />
	</node>
	<node lat="63.36411389105439" lon="10.426599996927923" id="-82825">
		<tag k="landuse" v="meadow" />
		<tag k="name" v="Brattengan" />
		<tag k="ssr:stedsnr" v="723540" />
	</node>
	<node lat="63.39723611255352" lon="10.16666667284322" id="-82917">
		<tag k="name" v="Myra" />
		<tag k="place" v="locality" />
		<tag k="ssr:stedsnr" v="751980" />
	</node>
	<node lat="63.385822222461755" lon="10.220133342764344" id="-82948">
		<tag k="name" v="Høgmyran" />
		<tag k="natural" v="wetland" />
		<tag k="ssr:stedsnr" v="756573" />
	</node>
	<node lat="63.2581277797359" lon="10.617666669256703" id="-82981">
		<tag k="name" v="Nonshaugmyra" />
		<tag k="natural" v="wetland" />
		<tag k="ssr:stedsnr" v="771333" />
	</node>
	<node lat="63.3072500013958" lon="10.628505549585528" id="-82983">
		<tag k="name" v="Storuglstykket" />
		<tag k="place" v="locality" />
		<tag k="ssr:stedsnr" v="771442" />
	</node>
	<node lat="63.31538889300534" lon="10.604186108220615" id="-82985">
		<tag k="name" v="Ulsetstykket" />
		<tag k="place" v="locality" />
		<tag k="ssr:stedsnr" v="771446" />
	</node>
	<node lat="63.27725832912015" lon="10.594127785664764" id="-82990">
		<tag k="name" v="Bermyra" />
		<tag k="natural" v="wetland" />
		<tag k="ssr:stedsnr" v="771346" />
	</node>
	<node lat="63.27866111114738" lon="10.480483329051195" id="-82991">
		<tag k="name" v="Gudmundsmyra" />
		<tag k="natural" v="wetland" />
		<tag k="ssr:stedsnr" v="771471" />
	</node>
	<node lat="63.365916670794796" lon="10.300991675676205" id="-83125">
		<tag k="alt_name" v="Kjeklstykket" />
		<tag k="name" v="Stykkestrøa" />
		<tag k="place" v="locality" />
		<tag k="ssr:stedsnr" v="815187" />
	</node>
	<node lat="63.40961110745054" lon="10.089886103539493" id="-83129">
		<tag k="name" v="Skåren" />
		<tag k="place" v="locality" />
		<tag k="ssr:stedsnr" v="812821" />
	</node>
	<node lat="63.39588610839542" lon="10.177083330584024" id="-83135">
		<tag k="name" v="Hallguttumyra" />
		<tag k="natural" v="wetland" />
		<tag k="ssr:stedsnr" v="812965" />
	</node>
	<node lat="63.34690833237863" lon="10.171305561447886" id="-83141">
		<tag k="name" v="Kleiva" />
		<tag k="place" v="locality" />
		<tag k="ssr:stedsnr" v="812873" />
	</node>
	<node lat="63.35385832994848" lon="10.167727774848082" id="-83142">
		<tag k="name" v="Myraplassen" />
		<tag k="place" v="locality" />
		<tag k="ssr:stedsnr" v="812877" />
	</node>
	<node lat="63.44382221906141" lon="10.212997217460943" id="-83157">
		<tag k="landuse" v="meadow" />
		<tag k="name" v="Ormsetan" />
		<tag k="ssr:stedsnr" v="815785" />
	</node>
	<node lat="63.32782222412321" lon="10.561941661111367" id="-83174">
		<tag k="name" v="Gulltjønnmyra" />
		<tag k="natural" v="wetland" />
		<tag k="ssr:stedsnr" v="827641" />
	</node>
	<node lat="63.24728889205863" lon="10.448311117681898" id="-83198">
		<tag k="name" v="Målsjøtrøa" />
		<tag k="place" v="locality" />
		<tag k="ssr:stedsnr" v="832370" />
	</node>
	<node lat="63.2499138887064" lon="10.42470277804348" id="-83199">
		<tag k="name" v="Høybuvolla" />
		<tag k="place" v="locality" />
		<tag k="ssr:stedsnr" v="832376" />
	</node>
	<node lat="63.23836552490995" lon="10.58159750536895" id="-83200">
		<tag k="name" v="Vågmyra" />
		<tag k="natural" v="wetland" />
		<tag k="ssr:stedsnr" v="832378" />
	</node>
	<node lat="63.3006055520991" lon="10.598016673045251" id="-83203">
		<tag k="name" v="Litjuglstykket" />
		<tag k="place" v="locality" />
		<tag k="ssr:stedsnr" v="832454" />
	</node>
	<node lat="63.31860555650059" lon="10.592549999346437" id="-83207">
		<tag k="name" v="Sneeggstykket" />
		<tag k="place" v="locality" />
		<tag k="ssr:stedsnr" v="832461" />
	</node>
	<node lat="63.29713888771869" lon="10.622166675739358" id="-83209">
		<tag k="name" v="Langåsmyra" />
		<tag k="natural" v="wetland" />
		<tag k="ssr:stedsnr" v="832470" />
	</node>
	<node lat="63.25923333630689" lon="10.382308338113159" id="-83210">
		<tag k="name" v="Permyra" />
		<tag k="natural" v="wetland" />
		<tag k="ssr:stedsnr" v="832543" />
	</node>
	<node lat="63.38144999899381" lon="10.475016672343495" id="-83233">
		<tag k="name" v="Lomtjønnmyra" />
		<tag k="natural" v="wetland" />
		<tag k="ssr:stedsnr" v="840224" />
	</node>
	<node lat="63.378938889101505" lon="10.106136101868051" id="-83333">
		<tag k="name" v="Åkertrøa" />
		<tag k="place" v="locality" />
		<tag k="ssr:stedsnr" v="873790" />
	</node>
	<node lat="63.42036110760412" lon="10.11563887941881" id="-83340">
		<tag k="name" v="Sebillaholet" />
		<tag k="place" v="locality" />
		<tag k="ssr:stedsnr" v="873831" />
	</node>
	<node lat="63.42319166982529" lon="10.139375001674876" id="-83346">
		<tag k="name" v="Slottet" />
		<tag k="place" v="locality" />
		<tag k="ssr:stedsnr" v="873875" />
	</node>
	<node lat="63.373394445419244" lon="10.105966674491077" id="-83351">
		<tag k="alt_name" v="Hangerås søndre" />
		<tag k="name" v="Søndre Hangerås" />
		<tag k="place" v="locality" />
		<tag k="ssr:stedsnr" v="873947" />
	</node>
	<node lat="63.34753611418763" lon="10.157058336034774" id="-83352">
		<tag k="name" v="Smedgjerdet" />
		<tag k="place" v="locality" />
		<tag k="ssr:stedsnr" v="873965" />
	</node>
	<node lat="63.3679666656986" lon="10.186891665563097" id="-83356">
		<tag k="name" v="Auntrøa" />
		<tag k="place" v="locality" />
		<tag k="ssr:stedsnr" v="873989" />
	</node>
	<node lat="63.43765278002882" lon="10.298111103720489" id="-83376">
		<tag k="name" v="Kumyra" />
		<tag k="natural" v="wetland" />
		<tag k="ssr:stedsnr" v="875741" />
	</node>
	<node lat="63.32723610688842" lon="10.534225005703233" id="-83408">
		<tag k="name" v="Fiskdalsmyra" />
		<tag k="natural" v="wetland" />
		<tag k="ssr:stedsnr" v="888564" />
	</node>
	<node lat="63.43044722593388" lon="10.188461104504524" id="-83410">
		<tag k="name" v="Trøan" />
		<tag k="place" v="locality" />
		<tag k="ssr:stedsnr" v="936646" />
	</node>
	<node lat="63.37855278146265" lon="10.215563897678408" id="-83430">
		<tag k="name" v="Bjørndalsmyra" />
		<tag k="natural" v="wetland" />
		<tag k="ssr:stedsnr" v="938555" />
	</node>
	<node lat="63.34961782586941" lon="10.588011797805056" id="-83456">
		<tag k="name" v="Stormyra" />
		<tag k="natural" v="wetland" />
		<tag k="ssr:stedsnr" v="951118" />
	</node>
	<node lat="63.372911115484605" lon="10.212105554937125" id="-83469">
		<tag k="historic" v="shieling" />
		<tag k="name" v="Lusvollen" />
		<tag k="place" v="locality" />
		<tag k="ssr:stedsnr" v="952477" />
	</node>
	<node lat="63.271444444057565" lon="10.465008337324749" id="-83471">
		<tag k="name" v="Stabbmoen" />
		<tag k="place" v="locality" />
		<tag k="ssr:stedsnr" v="953297" />
	</node>
	<node lat="63.27554444292788" lon="10.429116670308073" id="-83476">
		<tag k="name" v="Svemyra" />
		<tag k="natural" v="wetland" />
		<tag k="ssr:stedsnr" v="953273" />
	</node>
	<node lat="63.30670277415314" lon="10.650663881693918" id="-83478">
		<tag k="name" v="Jervanstykket" />
		<tag k="place" v="locality" />
		<tag k="ssr:stedsnr" v="953457" />
	</node>
	<node lat="63.28138611241942" lon="10.456711119761144" id="-83482">
		<tag k="name" v="Oddmyra" />
		<tag k="natural" v="wetland" />
		<tag k="ssr:stedsnr" v="953555" />
	</node>
	<node lat="63.284744447899804" lon="10.531758343486766" id="-83485">
		<tag k="name" v="Klæbu prestegårdskog" />
		<tag k="place" v="locality" />
		<tag k="ssr:stedsnr" v="953486" />
	</node>
	<node lat="63.430666090123715" lon="10.49216614318626" id="-85297">
		<tag k="name" v="Svenskjordet" />
		<tag k="place" v="locality" />
		<tag k="ssr:stedsnr" v="1080860" />
	</node>
</osm>
