<?xml version="1.0" encoding="UTF-8"?>
<osm version="0.6" generator="osmapis">
	<node lat="63.438063887437295" lon="10.161636120866337" id="-35696">
		<tag k="fixme" v="consider seamark:type=rock or natural=shoal" />
		<tag k="name" v="Klefstadskjæret" />
		<tag k="place" v="islet" />
		<tag k="ssr:stedsnr" v="25024" />
	</node>
	<node lat="63.433474996551055" lon="10.375488891347059" id="-35722">
		<tag k="name" v="Skansenløpet" />
		<tag k="natural" v="strait" />
		<tag k="ssr:stedsnr" v="40578" />
	</node>
	<node lat="63.432479714817376" lon="10.152458462621306" id="-35831">
		<tag k="name" v="Byafjæra" />
		<tag k="natural" v="beach" />
		<tag k="ssr:stedsnr" v="73113" />
	</node>
	<node lat="63.38630833472689" lon="10.056575005200706" id="-35841">
		<tag k="fixme" v="consider seamark:type=rock or natural=shoal" />
		<tag k="name" v="Hangerskjæret" />
		<tag k="place" v="islet" />
		<tag k="ssr:stedsnr" v="74369" />
	</node>
	<node lat="63.45691775175871" lon="10.452782945663097" id="-35853">
		<tag k="name" v="Djupvika" />
		<tag k="natural" v="bay" />
		<tag k="ssr:stedsnr" v="82833" />
	</node>
	<node lat="63.457377779724105" lon="10.382894453289685" id="-35934">
		<tag k="name" v="Taren" />
		<tag k="natural" v="shoal" />
		<tag k="place" v="locality" />
		<tag k="ssr:stedsnr" v="105673" />
	</node>
	<node lat="63.50408888951111" lon="10.425077782332437" id="-35976">
		<tag k="name" v="Sørtåa" />
		<tag k="place" v="locality" />
		<tag k="seamark:type" v="rock" />
		<tag k="ssr:stedsnr" v="255221" />
	</node>
	<node lat="63.456574996554814" lon="10.449452785182176" id="-36029">
		<tag k="fixme" v="multiple name tags, choose one and add the other to alt_name" />
		<tag k="name" v="Østmarkneset;Østmarktangen" />
		<tag k="natural" v="cape" />
		<tag k="ssr:stedsnr" v="256681" />
	</node>
	<node lat="63.46478055978639" lon="10.444752769544145" id="-36030">
		<tag k="bay" v="fjord" />
		<tag k="name" v="Strindfjorden" />
		<tag k="natural" v="bay" />
		<tag k="ssr:stedsnr" v="256682" />
	</node>
	<node lat="63.37026666918663" lon="10.082144441330678" id="-36120">
		<tag k="name" v="Vedvikbukta" />
		<tag k="natural" v="bay" />
		<tag k="ssr:stedsnr" v="266869" />
	</node>
	<node lat="63.43277777515698" lon="10.51291388889334" id="-36197">
		<tag k="name" v="Grillstadsanden" />
		<tag k="natural" v="beach" />
		<tag k="ssr:stedsnr" v="224233" />
	</node>
	<node lat="63.44703611559265" lon="10.181791658586501" id="-36217">
		<tag k="name" v="Vorpbukta" />
		<tag k="natural" v="bay" />
		<tag k="ssr:stedsnr" v="271728" />
	</node>
	<node lat="63.43926111143893" lon="10.491422229913793" id="-36237">
		<tag k="name" v="Fagernes" />
		<tag k="natural" v="cape" />
		<tag k="ssr:stedsnr" v="232707" />
	</node>
	<node lat="63.42830833539178" lon="10.146972224773792" id="-36325">
		<tag k="name" v="Ryesberget" />
		<tag k="natural" v="cape" />
		<tag k="ssr:stedsnr" v="266918" />
	</node>
	<node lat="63.37049166481657" lon="10.073072220489747" id="-36487">
		<tag k="name" v="Vorpa" />
		<tag k="natural" v="cape" />
		<tag k="ssr:stedsnr" v="327902" />
	</node>
	<node lat="63.37128915063099" lon="10.069665334466237" id="-36631">
		<tag k="name" v="Tonnorvika" />
		<tag k="natural" v="bay" />
		<tag k="ssr:stedsnr" v="387973" />
	</node>
	<node lat="63.45280833590108" lon="10.240933343001851" id="-36793">
		<tag k="name" v="Salhaugbukta" />
		<tag k="natural" v="bay" />
		<tag k="ssr:stedsnr" v="469165" />
	</node>
	<node lat="63.4360249994837" lon="10.571438894547445" id="-37014">
		<tag k="name" v="Væresholmen" />
		<tag k="place" v="islet" />
		<tag k="ssr:stedsnr" v="558700" />
	</node>
	<node lat="63.43099722610943" lon="10.150519443744791" id="-37054">
		<tag k="name" v="Byabukta" />
		<tag k="natural" v="bay" />
		<tag k="ssr:stedsnr" v="569108" />
	</node>
</osm>
