<?xml version="1.0" encoding="UTF-8"?>
<osm version="0.6" generator="osmapis">
	<node lat="59.486542887554364" lon="10.675289206300679" id="-23268">
		<tag k="name" v="Kippenes lykt" />
		<tag k="ssr:date" v="2019-12-27" />
		<tag k="ssr:gruppe" v="navigasjon" />
		<tag k="ssr:hovedgruppe" v="infrastruktur" />
		<tag k="ssr:stedsnr" v="184889" />
		<tag k="ssr:type" v="fyrlykt" />
	</node>
	<node lat="59.43425978488982" lon="10.659557086675411" id="-23723">
		<tag k="alt_name" v="Moss" />
		<tag k="name" v="Moss kommune" />
		<tag k="ssr:date" v="2019-12-27" />
		<tag k="ssr:gruppe" v="administrativeIndelinger" />
		<tag k="ssr:hovedgruppe" v="offentligAdministrasjon" />
		<tag k="ssr:stedsnr" v="85050" />
		<tag k="ssr:type" v="kommune" />
	</node>
	<node lat="59.435206743190406" lon="10.576695636214756" id="-23783">
		<tag k="alt_name" v="Gullholmen" />
		<tag k="name" v="Gullholmen fyr" />
		<tag k="old_name" v="Guldholmen" />
		<tag k="ssr:date" v="2020-09-01" />
		<tag k="ssr:gruppe" v="navigasjon" />
		<tag k="ssr:hovedgruppe" v="infrastruktur" />
		<tag k="ssr:stedsnr" v="184929" />
		<tag k="ssr:type" v="fyrlykt" />
	</node>
	<node lat="59.42803611027432" lon="10.654744450223754" id="-23816">
		<tag k="alt_name" v="Verlebukta" />
		<tag k="name" v="Verlebukta lykt" />
		<tag k="ssr:date" v="2019-12-27" />
		<tag k="ssr:gruppe" v="navigasjon" />
		<tag k="ssr:hovedgruppe" v="infrastruktur" />
		<tag k="ssr:stedsnr" v="300255" />
		<tag k="ssr:type" v="fyrlykt" />
	</node>
	<node lat="59.39910583387846" lon="10.631749357922331" id="-23958">
		<tag k="name" v="Revlingen lykt" />
		<tag k="ssr:date" v="2020-09-01" />
		<tag k="ssr:gruppe" v="navigasjon" />
		<tag k="ssr:hovedgruppe" v="infrastruktur" />
		<tag k="ssr:stedsnr" v="609482" />
		<tag k="ssr:type" v="fyrlykt" />
	</node>
	<node lat="59.32319444166136" lon="10.667816659876028" id="-24102">
		<tag k="name" v="Larkollen lykt" />
		<tag k="ssr:date" v="2019-12-27" />
		<tag k="ssr:gruppe" v="navigasjon" />
		<tag k="ssr:hovedgruppe" v="infrastruktur" />
		<tag k="ssr:stedsnr" v="968223" />
		<tag k="ssr:type" v="fyrlykt" />
	</node>
	<node lat="59.434537166548964" lon="10.641235690250726" id="-24112">
		<tag k="name" v="Axel Heibergs gate" />
		<tag k="ssr:date" v="2019-12-27" />
		<tag k="ssr:gruppe" v="veg" />
		<tag k="ssr:hovedgruppe" v="infrastruktur" />
		<tag k="ssr:stedsnr" v="1059732" />
		<tag k="ssr:type" v="adressenavn" />
	</node>
	<node lat="59.43538848296539" lon="10.658732631503677" id="-24114">
		<tag k="name" v="Dronningens gate" />
		<tag k="ssr:date" v="2019-12-27" />
		<tag k="ssr:gruppe" v="veg" />
		<tag k="ssr:hovedgruppe" v="infrastruktur" />
		<tag k="ssr:stedsnr" v="1059314" />
		<tag k="ssr:type" v="adressenavn" />
	</node>
	<node lat="59.42346023242422" lon="10.671898210167466" id="-24116">
		<tag k="name" v="Carsten Ankers gate" />
		<tag k="ssr:date" v="2019-12-27" />
		<tag k="ssr:gruppe" v="veg" />
		<tag k="ssr:hovedgruppe" v="infrastruktur" />
		<tag k="ssr:stedsnr" v="1059334" />
		<tag k="ssr:type" v="adressenavn" />
	</node>
	<node lat="59.42815605476627" lon="10.631316846279066" id="-24119">
		<tag k="name" v="Bråtengata" />
		<tag k="ssr:date" v="2019-12-27" />
		<tag k="ssr:gruppe" v="veg" />
		<tag k="ssr:hovedgruppe" v="infrastruktur" />
		<tag k="ssr:stedsnr" v="1059089" />
		<tag k="ssr:type" v="adressenavn" />
	</node>
	<node lat="59.45172600536646" lon="10.691447011975683" id="-24121">
		<tag k="name" v="Bukkespranget" />
		<tag k="ssr:date" v="2019-12-27" />
		<tag k="ssr:gruppe" v="veg" />
		<tag k="ssr:hovedgruppe" v="infrastruktur" />
		<tag k="ssr:stedsnr" v="1059085" />
		<tag k="ssr:type" v="adressenavn" />
	</node>
	<node lat="59.42879028941907" lon="10.675048265439052" id="-24122">
		<tag k="name" v="Blåbæråsen" />
		<tag k="ssr:date" v="2019-12-27" />
		<tag k="ssr:gruppe" v="veg" />
		<tag k="ssr:hovedgruppe" v="infrastruktur" />
		<tag k="ssr:stedsnr" v="1059148" />
		<tag k="ssr:type" v="adressenavn" />
	</node>
	<node lat="59.4269717065947" lon="10.673439918450892" id="-24125">
		<tag k="name" v="Bredalbakken" />
		<tag k="ssr:date" v="2019-12-27" />
		<tag k="ssr:gruppe" v="veg" />
		<tag k="ssr:hovedgruppe" v="infrastruktur" />
		<tag k="ssr:stedsnr" v="1059101" />
		<tag k="ssr:type" v="adressenavn" />
	</node>
	<node lat="59.44387736381948" lon="10.648573048150979" id="-24127">
		<tag k="name" v="Brattbakken" />
		<tag k="ssr:date" v="2019-12-27" />
		<tag k="ssr:gruppe" v="veg" />
		<tag k="ssr:hovedgruppe" v="infrastruktur" />
		<tag k="ssr:stedsnr" v="1059108" />
		<tag k="ssr:type" v="adressenavn" />
	</node>
	<node lat="59.43265685428439" lon="10.641963354649427" id="-24128">
		<tag k="name" v="Camilla Colletts gate" />
		<tag k="ssr:date" v="2019-12-27" />
		<tag k="ssr:gruppe" v="veg" />
		<tag k="ssr:hovedgruppe" v="infrastruktur" />
		<tag k="ssr:stedsnr" v="1059114" />
		<tag k="ssr:type" v="adressenavn" />
	</node>
	<node lat="59.447343655687575" lon="10.692741769291306" id="-24130">
		<tag k="name" v="Bøygen" />
		<tag k="ssr:date" v="2019-12-27" />
		<tag k="ssr:gruppe" v="veg" />
		<tag k="ssr:hovedgruppe" v="infrastruktur" />
		<tag k="ssr:stedsnr" v="1059125" />
		<tag k="ssr:type" v="adressenavn" />
	</node>
	<node lat="59.43239251915532" lon="10.663052480912924" id="-24131">
		<tag k="name" v="Byfogd Sandbergs gate" />
		<tag k="ssr:date" v="2019-12-27" />
		<tag k="ssr:gruppe" v="veg" />
		<tag k="ssr:hovedgruppe" v="infrastruktur" />
		<tag k="ssr:stedsnr" v="1059127" />
		<tag k="ssr:type" v="adressenavn" />
	</node>
	<node lat="59.43743364537028" lon="10.622070816040024" id="-24134">
		<tag k="name" v="Blåveislia" />
		<tag k="ssr:date" v="2019-12-27" />
		<tag k="ssr:gruppe" v="veg" />
		<tag k="ssr:hovedgruppe" v="infrastruktur" />
		<tag k="ssr:stedsnr" v="1059194" />
		<tag k="ssr:type" v="adressenavn" />
	</node>
	<node lat="59.4481644411356" lon="10.693416020228653" id="-24137">
		<tag k="name" v="Dovregubben" />
		<tag k="ssr:date" v="2019-12-27" />
		<tag k="ssr:gruppe" v="veg" />
		<tag k="ssr:hovedgruppe" v="infrastruktur" />
		<tag k="ssr:stedsnr" v="1059225" />
		<tag k="ssr:type" v="adressenavn" />
	</node>
	<node lat="59.43361417490775" lon="10.648277925605896" id="-24138">
		<tag k="name" v="Harald Hårfagres gate" />
		<tag k="ssr:date" v="2019-12-27" />
		<tag k="ssr:gruppe" v="veg" />
		<tag k="ssr:hovedgruppe" v="infrastruktur" />
		<tag k="ssr:stedsnr" v="1060096" />
		<tag k="ssr:type" v="adressenavn" />
	</node>
	<node lat="59.437085106869006" lon="10.615873241631276" id="-24139">
		<tag k="name" v="Blomsterkroken" />
		<tag k="ssr:date" v="2019-12-27" />
		<tag k="ssr:gruppe" v="veg" />
		<tag k="ssr:hovedgruppe" v="infrastruktur" />
		<tag k="ssr:stedsnr" v="1059157" />
		<tag k="ssr:type" v="adressenavn" />
	</node>
	<node lat="59.43263287342112" lon="10.691237862931612" id="-24142">
		<tag k="name" v="Bjørnestien" />
		<tag k="ssr:date" v="2019-12-27" />
		<tag k="ssr:gruppe" v="veg" />
		<tag k="ssr:hovedgruppe" v="infrastruktur" />
		<tag k="ssr:stedsnr" v="1059170" />
		<tag k="ssr:type" v="adressenavn" />
	</node>
	<node lat="59.430485032732946" lon="10.659191583398432" id="-24144">
		<tag k="name" v="Boyebakken" />
		<tag k="ssr:date" v="2019-12-27" />
		<tag k="ssr:gruppe" v="veg" />
		<tag k="ssr:hovedgruppe" v="infrastruktur" />
		<tag k="ssr:stedsnr" v="1059183" />
		<tag k="ssr:type" v="adressenavn" />
	</node>
	<node lat="59.43349930331181" lon="10.645484189583831" id="-24150">
		<tag k="name" v="Cort Adelers gate" />
		<tag k="ssr:date" v="2019-12-27" />
		<tag k="ssr:gruppe" v="veg" />
		<tag k="ssr:hovedgruppe" v="infrastruktur" />
		<tag k="ssr:stedsnr" v="1059357" />
		<tag k="ssr:type" v="adressenavn" />
	</node>
	<node lat="59.43549640037719" lon="10.662777451981277" id="-24151">
		<tag k="name" v="Chrysties gate" />
		<tag k="ssr:date" v="2019-12-27" />
		<tag k="ssr:gruppe" v="veg" />
		<tag k="ssr:hovedgruppe" v="infrastruktur" />
		<tag k="ssr:stedsnr" v="1059361" />
		<tag k="ssr:type" v="adressenavn" />
	</node>
	<node lat="59.4392261490815" lon="10.642130421215175" id="-24155">
		<tag k="name" v="Anna Hagmans gate" />
		<tag k="ssr:date" v="2019-12-27" />
		<tag k="ssr:gruppe" v="veg" />
		<tag k="ssr:hovedgruppe" v="infrastruktur" />
		<tag k="ssr:stedsnr" v="1059475" />
		<tag k="ssr:type" v="adressenavn" />
	</node>
	<node lat="59.432180804799565" lon="10.645720951609745" id="-24157">
		<tag k="name" v="Alby gate" />
		<tag k="ssr:date" v="2019-12-27" />
		<tag k="ssr:gruppe" v="veg" />
		<tag k="ssr:hovedgruppe" v="infrastruktur" />
		<tag k="ssr:stedsnr" v="1059402" />
		<tag k="ssr:type" v="adressenavn" />
	</node>
	<node lat="59.438357260889575" lon="10.629068099702632" id="-24164">
		<tag k="name" v="Bjerkealleen" />
		<tag k="ssr:date" v="2019-12-27" />
		<tag k="ssr:gruppe" v="veg" />
		<tag k="ssr:hovedgruppe" v="infrastruktur" />
		<tag k="ssr:stedsnr" v="1059696" />
		<tag k="ssr:type" v="adressenavn" />
	</node>
	<node lat="59.43701971091055" lon="10.669778668677315" id="-24165">
		<tag k="name" v="Bjerget" />
		<tag k="ssr:date" v="2019-12-27" />
		<tag k="ssr:gruppe" v="veg" />
		<tag k="ssr:hovedgruppe" v="infrastruktur" />
		<tag k="ssr:stedsnr" v="1059713" />
		<tag k="ssr:type" v="adressenavn" />
	</node>
	<node lat="59.44338362057558" lon="10.645500589281454" id="-24171">
		<tag k="name" v="Betongen" />
		<tag k="ssr:date" v="2019-12-27" />
		<tag k="ssr:gruppe" v="veg" />
		<tag k="ssr:hovedgruppe" v="infrastruktur" />
		<tag k="ssr:stedsnr" v="1059674" />
		<tag k="ssr:type" v="adressenavn" />
	</node>
	<node lat="59.440294530303895" lon="10.641957271913265" id="-24175">
		<tag k="name" v="Balaklava" />
		<tag k="ssr:date" v="2019-12-27" />
		<tag k="ssr:gruppe" v="veg" />
		<tag k="ssr:hovedgruppe" v="infrastruktur" />
		<tag k="ssr:stedsnr" v="1059786" />
		<tag k="ssr:type" v="adressenavn" />
	</node>
	<node lat="59.443398775113984" lon="10.619052558011056" id="-24180">
		<tag k="name" v="Godset" />
		<tag k="ssr:date" v="2019-12-27" />
		<tag k="ssr:gruppe" v="veg" />
		<tag k="ssr:hovedgruppe" v="infrastruktur" />
		<tag k="ssr:stedsnr" v="1059799" />
		<tag k="ssr:type" v="adressenavn" />
	</node>
	<node lat="59.43177183283641" lon="10.670053128462747" id="-24182">
		<tag k="name" v="Gubberogata" />
		<tag k="ssr:date" v="2019-12-27" />
		<tag k="ssr:gruppe" v="veg" />
		<tag k="ssr:hovedgruppe" v="infrastruktur" />
		<tag k="ssr:stedsnr" v="1059812" />
		<tag k="ssr:type" v="adressenavn" />
	</node>
	<node lat="59.43252767825585" lon="10.639579317735944" id="-24184">
		<tag k="name" v="Grimsrød gate" />
		<tag k="ssr:date" v="2019-12-27" />
		<tag k="ssr:gruppe" v="veg" />
		<tag k="ssr:hovedgruppe" v="infrastruktur" />
		<tag k="ssr:stedsnr" v="1059820" />
		<tag k="ssr:type" v="adressenavn" />
	</node>
	<node lat="59.43284155312149" lon="10.6906411471538" id="-24187">
		<tag k="name" v="Furuåsen" />
		<tag k="ssr:date" v="2019-12-27" />
		<tag k="ssr:gruppe" v="veg" />
		<tag k="ssr:hovedgruppe" v="infrastruktur" />
		<tag k="ssr:stedsnr" v="1059831" />
		<tag k="ssr:type" v="adressenavn" />
	</node>
	<node lat="59.44462923271682" lon="10.618123237338759" id="-24192">
		<tag k="name" v="Bekkefaret" />
		<tag k="ssr:date" v="2019-12-27" />
		<tag k="ssr:gruppe" v="veg" />
		<tag k="ssr:hovedgruppe" v="infrastruktur" />
		<tag k="ssr:stedsnr" v="1059751" />
		<tag k="ssr:type" v="adressenavn" />
	</node>
	<node lat="59.43785702362075" lon="10.640825572320862" id="-24195">
		<tag k="name" v="Balders gate" />
		<tag k="ssr:date" v="2019-12-27" />
		<tag k="ssr:gruppe" v="veg" />
		<tag k="ssr:hovedgruppe" v="infrastruktur" />
		<tag k="ssr:stedsnr" v="1059760" />
		<tag k="ssr:type" v="adressenavn" />
	</node>
	<node lat="59.422818821794074" lon="10.666567113126995" id="-24199">
		<tag k="name" v="Gernerlunden" />
		<tag k="ssr:date" v="2019-12-27" />
		<tag k="ssr:gruppe" v="veg" />
		<tag k="ssr:hovedgruppe" v="infrastruktur" />
		<tag k="ssr:stedsnr" v="1059846" />
		<tag k="ssr:type" v="adressenavn" />
	</node>
	<node lat="59.4339615547592" lon="10.641394566427612" id="-24200">
		<tag k="name" v="Georg Stangs gate" />
		<tag k="ssr:date" v="2019-12-27" />
		<tag k="ssr:gruppe" v="veg" />
		<tag k="ssr:hovedgruppe" v="infrastruktur" />
		<tag k="ssr:stedsnr" v="1059853" />
		<tag k="ssr:type" v="adressenavn" />
	</node>
	<node lat="59.42837220924675" lon="10.642403967105068" id="-24202">
		<tag k="name" v="Hasselbakken" />
		<tag k="ssr:date" v="2019-12-27" />
		<tag k="ssr:gruppe" v="veg" />
		<tag k="ssr:hovedgruppe" v="infrastruktur" />
		<tag k="ssr:stedsnr" v="1059880" />
		<tag k="ssr:type" v="adressenavn" />
	</node>
	<node lat="59.43774108555238" lon="10.662749887631819" id="-24203">
		<tag k="name" v="Havnestredet" />
		<tag k="ssr:date" v="2019-12-27" />
		<tag k="ssr:gruppe" v="veg" />
		<tag k="ssr:hovedgruppe" v="infrastruktur" />
		<tag k="ssr:stedsnr" v="1059960" />
		<tag k="ssr:type" v="adressenavn" />
	</node>
	<node lat="59.44268696188181" lon="10.671764852581362" id="-24207">
		<tag k="name" v="Halløkka" />
		<tag k="ssr:date" v="2019-12-27" />
		<tag k="ssr:gruppe" v="veg" />
		<tag k="ssr:hovedgruppe" v="infrastruktur" />
		<tag k="ssr:stedsnr" v="1060058" />
		<tag k="ssr:type" v="adressenavn" />
	</node>
	<node lat="59.440846559473265" lon="10.685502207681512" id="-24208">
		<tag k="name" v="Gunhildåsen" />
		<tag k="ssr:date" v="2019-12-27" />
		<tag k="ssr:gruppe" v="veg" />
		<tag k="ssr:hovedgruppe" v="infrastruktur" />
		<tag k="ssr:stedsnr" v="1060062" />
		<tag k="ssr:type" v="adressenavn" />
	</node>
	<node lat="59.4371687003665" lon="10.667209268666738" id="-24210">
		<tag k="name" v="Gudes gate" />
		<tag k="ssr:date" v="2019-12-27" />
		<tag k="ssr:gruppe" v="veg" />
		<tag k="ssr:hovedgruppe" v="infrastruktur" />
		<tag k="ssr:stedsnr" v="1060076" />
		<tag k="ssr:type" v="adressenavn" />
	</node>
	<node lat="59.43225866895705" lon="10.665057212658494" id="-24213">
		<tag k="name" v="Hans Bloms gate" />
		<tag k="ssr:date" v="2019-12-27" />
		<tag k="ssr:gruppe" v="veg" />
		<tag k="ssr:hovedgruppe" v="infrastruktur" />
		<tag k="ssr:stedsnr" v="1060020" />
		<tag k="ssr:type" v="adressenavn" />
	</node>
	<node lat="59.432993398854464" lon="10.68965802181491" id="-24214">
		<tag k="name" v="Hammerdalen" />
		<tag k="ssr:date" v="2019-12-27" />
		<tag k="ssr:gruppe" v="veg" />
		<tag k="ssr:hovedgruppe" v="infrastruktur" />
		<tag k="ssr:stedsnr" v="1060026" />
		<tag k="ssr:type" v="adressenavn" />
	</node>
	<node lat="59.44067948594052" lon="10.620474764283516" id="-24216">
		<tag k="name" v="Fagertun" />
		<tag k="ssr:date" v="2019-12-27" />
		<tag k="ssr:gruppe" v="veg" />
		<tag k="ssr:hovedgruppe" v="infrastruktur" />
		<tag k="ssr:stedsnr" v="1060191" />
		<tag k="ssr:type" v="adressenavn" />
	</node>
	<node lat="59.43639286823877" lon="10.614114553463358" id="-24217">
		<tag k="name" v="Eikelia" />
		<tag k="ssr:date" v="2019-12-27" />
		<tag k="ssr:gruppe" v="veg" />
		<tag k="ssr:hovedgruppe" v="infrastruktur" />
		<tag k="ssr:stedsnr" v="1060201" />
		<tag k="ssr:type" v="adressenavn" />
	</node>
	<node lat="59.43229913885503" lon="10.671092408737133" id="-24219">
		<tag k="name" v="Eidsvolls gate" />
		<tag k="ssr:date" v="2019-12-27" />
		<tag k="ssr:gruppe" v="veg" />
		<tag k="ssr:hovedgruppe" v="infrastruktur" />
		<tag k="ssr:stedsnr" v="1060217" />
		<tag k="ssr:type" v="adressenavn" />
	</node>
	<node lat="59.43411337569134" lon="10.644107671099798" id="-24220">
		<tag k="name" v="Edvard Munchs gate" />
		<tag k="ssr:date" v="2019-12-27" />
		<tag k="ssr:gruppe" v="veg" />
		<tag k="ssr:hovedgruppe" v="infrastruktur" />
		<tag k="ssr:stedsnr" v="1060219" />
		<tag k="ssr:type" v="adressenavn" />
	</node>
	<node lat="59.433214903913864" lon="10.639773185518619" id="-24221">
		<tag k="name" v="Folke Bernadottes gate" />
		<tag k="ssr:date" v="2019-12-27" />
		<tag k="ssr:gruppe" v="veg" />
		<tag k="ssr:hovedgruppe" v="infrastruktur" />
		<tag k="ssr:stedsnr" v="1060295" />
		<tag k="ssr:type" v="adressenavn" />
	</node>
	<node lat="59.43778696857796" lon="10.631692935101098" id="-24224">
		<tag k="name" v="Eriksbakken" />
		<tag k="ssr:date" v="2019-12-27" />
		<tag k="ssr:gruppe" v="veg" />
		<tag k="ssr:hovedgruppe" v="infrastruktur" />
		<tag k="ssr:stedsnr" v="1060130" />
		<tag k="ssr:type" v="adressenavn" />
	</node>
	<node lat="59.441862050958555" lon="10.620288081599313" id="-24226">
		<tag k="name" v="Engfaret" />
		<tag k="ssr:date" v="2019-12-27" />
		<tag k="ssr:gruppe" v="veg" />
		<tag k="ssr:hovedgruppe" v="infrastruktur" />
		<tag k="ssr:stedsnr" v="1060135" />
		<tag k="ssr:type" v="adressenavn" />
	</node>
	<node lat="59.43351405148204" lon="10.662949329326166" id="-24227">
		<tag k="name" v="Høienhaldgata" />
		<tag k="ssr:date" v="2019-12-27" />
		<tag k="ssr:gruppe" v="veg" />
		<tag k="ssr:hovedgruppe" v="infrastruktur" />
		<tag k="ssr:stedsnr" v="1060939" />
		<tag k="ssr:type" v="adressenavn" />
	</node>
	<node lat="59.43466977886991" lon="10.638129286568159" id="-24229">
		<tag k="name" v="Elias Blix gate" />
		<tag k="ssr:date" v="2019-12-27" />
		<tag k="ssr:gruppe" v="veg" />
		<tag k="ssr:hovedgruppe" v="infrastruktur" />
		<tag k="ssr:stedsnr" v="1060236" />
		<tag k="ssr:type" v="adressenavn" />
	</node>
	<node lat="59.43803228748141" lon="10.668071080101152" id="-24233">
		<tag k="name" v="Fossen" />
		<tag k="ssr:date" v="2019-12-27" />
		<tag k="ssr:gruppe" v="veg" />
		<tag k="ssr:hovedgruppe" v="infrastruktur" />
		<tag k="ssr:stedsnr" v="1060282" />
		<tag k="ssr:type" v="adressenavn" />
	</node>
	<node lat="59.42924912976169" lon="10.667650780468264" id="-24238">
		<tag k="name" v="Fridtjof Nansens gate" />
		<tag k="ssr:date" v="2019-12-27" />
		<tag k="ssr:gruppe" v="veg" />
		<tag k="ssr:hovedgruppe" v="infrastruktur" />
		<tag k="ssr:stedsnr" v="1060327" />
		<tag k="ssr:type" v="adressenavn" />
	</node>
	<node lat="59.433375578669846" lon="10.642857542186405" id="-24241">
		<tag k="name" v="Fiskegata" />
		<tag k="ssr:date" v="2019-12-27" />
		<tag k="ssr:gruppe" v="veg" />
		<tag k="ssr:hovedgruppe" v="infrastruktur" />
		<tag k="ssr:stedsnr" v="1060412" />
		<tag k="ssr:type" v="adressenavn" />
	</node>
	<node lat="59.43527018510904" lon="10.658272050761221" id="-24242">
		<tag k="name" v="Fleischers gate" />
		<tag k="ssr:date" v="2019-12-27" />
		<tag k="ssr:gruppe" v="veg" />
		<tag k="ssr:hovedgruppe" v="infrastruktur" />
		<tag k="ssr:stedsnr" v="1060442" />
		<tag k="ssr:type" v="adressenavn" />
	</node>
	<node lat="59.430585072357495" lon="10.647377219620209" id="-24245">
		<tag k="name" v="Fjordgløtt" />
		<tag k="ssr:date" v="2019-12-27" />
		<tag k="ssr:gruppe" v="veg" />
		<tag k="ssr:hovedgruppe" v="infrastruktur" />
		<tag k="ssr:stedsnr" v="1060471" />
		<tag k="ssr:type" v="adressenavn" />
	</node>
	<node lat="59.435146876808304" lon="10.641263051349815" id="-24247">
		<tag k="name" v="Krabben" />
		<tag k="ssr:date" v="2019-12-27" />
		<tag k="ssr:gruppe" v="veg" />
		<tag k="ssr:hovedgruppe" v="infrastruktur" />
		<tag k="ssr:stedsnr" v="1060495" />
		<tag k="ssr:type" v="adressenavn" />
	</node>
	<node lat="59.434629437238" lon="10.668693559752292" id="-24251">
		<tag k="name" v="Kongens gate" />
		<tag k="ssr:date" v="2019-12-27" />
		<tag k="ssr:gruppe" v="veg" />
		<tag k="ssr:hovedgruppe" v="infrastruktur" />
		<tag k="ssr:stedsnr" v="1060519" />
		<tag k="ssr:type" v="adressenavn" />
	</node>
	<node lat="59.43991139328715" lon="10.645091304673027" id="-24253">
		<tag k="name" v="Krossern" />
		<tag k="ssr:date" v="2019-12-27" />
		<tag k="ssr:gruppe" v="veg" />
		<tag k="ssr:hovedgruppe" v="infrastruktur" />
		<tag k="ssr:stedsnr" v="1060529" />
		<tag k="ssr:type" v="adressenavn" />
	</node>
	<node lat="59.43414321689441" lon="10.665103136174096" id="-24255">
		<tag k="name" v="Kong Haakons plass" />
		<tag k="ssr:date" v="2019-12-27" />
		<tag k="ssr:gruppe" v="veg" />
		<tag k="ssr:hovedgruppe" v="infrastruktur" />
		<tag k="ssr:stedsnr" v="1060586" />
		<tag k="ssr:type" v="adressenavn" />
	</node>
	<node lat="59.46179295064691" lon="10.695615624212587" id="-24256">
		<tag k="name" v="Knuten" />
		<tag k="ssr:date" v="2019-12-27" />
		<tag k="ssr:gruppe" v="veg" />
		<tag k="ssr:hovedgruppe" v="infrastruktur" />
		<tag k="ssr:stedsnr" v="1060589" />
		<tag k="ssr:type" v="adressenavn" />
	</node>
	<node lat="59.44063148535774" lon="10.643469564299481" id="-24258">
		<tag k="name" v="Knerten" />
		<tag k="ssr:date" v="2019-12-27" />
		<tag k="ssr:gruppe" v="veg" />
		<tag k="ssr:hovedgruppe" v="infrastruktur" />
		<tag k="ssr:stedsnr" v="1060599" />
		<tag k="ssr:type" v="adressenavn" />
	</node>
	<node lat="59.44621583829999" lon="10.690123623140996" id="-24259">
		<tag k="name" v="Knappestøperen" />
		<tag k="ssr:date" v="2019-12-27" />
		<tag k="ssr:gruppe" v="veg" />
		<tag k="ssr:hovedgruppe" v="infrastruktur" />
		<tag k="ssr:stedsnr" v="1060611" />
		<tag k="ssr:type" v="adressenavn" />
	</node>
	<node lat="59.42863507669472" lon="10.670968103537053" id="-24260">
		<tag k="name" v="Klostergata" />
		<tag k="ssr:date" v="2019-12-27" />
		<tag k="ssr:gruppe" v="veg" />
		<tag k="ssr:hovedgruppe" v="infrastruktur" />
		<tag k="ssr:stedsnr" v="1060613" />
		<tag k="ssr:type" v="adressenavn" />
	</node>
	<node lat="59.42931431976348" lon="10.67149189460885" id="-24261">
		<tag k="name" v="Klommestensgata" />
		<tag k="ssr:date" v="2019-12-27" />
		<tag k="ssr:gruppe" v="veg" />
		<tag k="ssr:hovedgruppe" v="infrastruktur" />
		<tag k="ssr:stedsnr" v="1060618" />
		<tag k="ssr:type" v="adressenavn" />
	</node>
	<node lat="59.44222327140745" lon="10.645680001935908" id="-24263">
		<tag k="name" v="Kroken" />
		<tag k="ssr:date" v="2019-12-27" />
		<tag k="ssr:gruppe" v="veg" />
		<tag k="ssr:hovedgruppe" v="infrastruktur" />
		<tag k="ssr:stedsnr" v="1060536" />
		<tag k="ssr:type" v="adressenavn" />
	</node>
	<node lat="59.43329977106959" lon="10.660050067901484" id="-24265">
		<tag k="name" v="Kransen" />
		<tag k="ssr:date" v="2019-12-27" />
		<tag k="ssr:gruppe" v="veg" />
		<tag k="ssr:hovedgruppe" v="infrastruktur" />
		<tag k="ssr:stedsnr" v="1060545" />
		<tag k="ssr:type" v="adressenavn" />
	</node>
	<node lat="59.44871258899154" lon="10.684509175632424" id="-24266">
		<tag k="name" v="Kleiva" />
		<tag k="ssr:date" v="2019-12-27" />
		<tag k="ssr:gruppe" v="veg" />
		<tag k="ssr:hovedgruppe" v="infrastruktur" />
		<tag k="ssr:stedsnr" v="1060559" />
		<tag k="ssr:type" v="adressenavn" />
	</node>
	<node lat="59.424333977887926" lon="10.659934449224945" id="-24267">
		<tag k="name" v="Kleberget" />
		<tag k="ssr:date" v="2019-12-27" />
		<tag k="ssr:gruppe" v="veg" />
		<tag k="ssr:hovedgruppe" v="infrastruktur" />
		<tag k="ssr:stedsnr" v="1060566" />
		<tag k="ssr:type" v="adressenavn" />
	</node>
	<node lat="59.47113139143628" lon="10.65122351158183" id="-24269">
		<tag k="name" v="Kjørbuktstien" />
		<tag k="ssr:date" v="2019-12-27" />
		<tag k="ssr:gruppe" v="veg" />
		<tag k="ssr:hovedgruppe" v="infrastruktur" />
		<tag k="ssr:stedsnr" v="1060576" />
		<tag k="ssr:type" v="adressenavn" />
	</node>
	<node lat="59.43535841550224" lon="10.661014109412438" id="-24271">
		<tag k="name" v="Kirkegata" />
		<tag k="ssr:date" v="2019-12-27" />
		<tag k="ssr:gruppe" v="veg" />
		<tag k="ssr:hovedgruppe" v="infrastruktur" />
		<tag k="ssr:stedsnr" v="1060578" />
		<tag k="ssr:type" v="adressenavn" />
	</node>
	<node lat="59.467673978842875" lon="10.687002851096919" id="-24272">
		<tag k="name" v="Kilsbakken" />
		<tag k="ssr:date" v="2019-12-27" />
		<tag k="ssr:gruppe" v="veg" />
		<tag k="ssr:hovedgruppe" v="infrastruktur" />
		<tag k="ssr:stedsnr" v="1060579" />
		<tag k="ssr:type" v="adressenavn" />
	</node>
	<node lat="59.44235283893582" lon="10.619906689195156" id="-24279">
		<tag k="name" v="Mellomfaret" />
		<tag k="ssr:date" v="2019-12-27" />
		<tag k="ssr:gruppe" v="veg" />
		<tag k="ssr:hovedgruppe" v="infrastruktur" />
		<tag k="ssr:stedsnr" v="1060686" />
		<tag k="ssr:type" v="adressenavn" />
	</node>
	<node lat="59.43178761534772" lon="10.670338833426374" id="-24281">
		<tag k="name" v="Martebakken" />
		<tag k="ssr:date" v="2019-12-27" />
		<tag k="ssr:gruppe" v="veg" />
		<tag k="ssr:hovedgruppe" v="infrastruktur" />
		<tag k="ssr:stedsnr" v="1060712" />
		<tag k="ssr:type" v="adressenavn" />
	</node>
	<node lat="59.42701742596467" lon="10.636367674289444" id="-24284">
		<tag k="name" v="Horsens gate" />
		<tag k="ssr:date" v="2019-12-27" />
		<tag k="ssr:gruppe" v="veg" />
		<tag k="ssr:hovedgruppe" v="infrastruktur" />
		<tag k="ssr:stedsnr" v="1060833" />
		<tag k="ssr:type" v="adressenavn" />
	</node>
	<node lat="59.432956511171575" lon="10.66478774966675" id="-24288">
		<tag k="name" v="Løkkegata" />
		<tag k="ssr:date" v="2019-12-27" />
		<tag k="ssr:gruppe" v="veg" />
		<tag k="ssr:hovedgruppe" v="infrastruktur" />
		<tag k="ssr:stedsnr" v="1060763" />
		<tag k="ssr:type" v="adressenavn" />
	</node>
	<node lat="59.467371134825015" lon="10.691401140426581" id="-24290">
		<tag k="name" v="Luenbakken" />
		<tag k="ssr:date" v="2019-12-27" />
		<tag k="ssr:gruppe" v="veg" />
		<tag k="ssr:hovedgruppe" v="infrastruktur" />
		<tag k="ssr:stedsnr" v="1060773" />
		<tag k="ssr:type" v="adressenavn" />
	</node>
	<node lat="59.43343384657342" lon="10.651592058317773" id="-24291">
		<tag k="name" v="Logns plass" />
		<tag k="ssr:date" v="2019-12-27" />
		<tag k="ssr:gruppe" v="veg" />
		<tag k="ssr:hovedgruppe" v="infrastruktur" />
		<tag k="ssr:stedsnr" v="1060777" />
		<tag k="ssr:type" v="adressenavn" />
	</node>
	<node lat="59.43453783206505" lon="10.631288054872247" id="-24293">
		<tag k="name" v="Hoppern" />
		<tag k="ssr:date" v="2019-12-27" />
		<tag k="ssr:gruppe" v="veg" />
		<tag k="ssr:hovedgruppe" v="infrastruktur" />
		<tag k="ssr:stedsnr" v="1060850" />
		<tag k="ssr:type" v="adressenavn" />
	</node>
	<node lat="59.443291326899754" lon="10.640397065505997" id="-24294">
		<tag k="name" v="Skogbrynet" />
		<tag k="ssr:date" v="2019-12-27" />
		<tag k="ssr:gruppe" v="veg" />
		<tag k="ssr:hovedgruppe" v="infrastruktur" />
		<tag k="ssr:stedsnr" v="1062039" />
		<tag k="ssr:type" v="adressenavn" />
	</node>
	<node lat="59.33195148392092" lon="10.66686240197677" id="-24295">
		<tag k="name" v="Feltspatveien" />
		<tag k="ssr:date" v="2019-12-27" />
		<tag k="ssr:gruppe" v="veg" />
		<tag k="ssr:hovedgruppe" v="infrastruktur" />
		<tag k="ssr:stedsnr" v="1062041" />
		<tag k="ssr:type" v="adressenavn" />
	</node>
	<node lat="59.43561775789112" lon="10.6637820946268" id="-24296">
		<tag k="name" v="Ibsens gate" />
		<tag k="ssr:date" v="2019-12-27" />
		<tag k="ssr:gruppe" v="veg" />
		<tag k="ssr:hovedgruppe" v="infrastruktur" />
		<tag k="ssr:stedsnr" v="1060894" />
		<tag k="ssr:type" v="adressenavn" />
	</node>
	<node lat="59.43625310001295" lon="10.623177460601076" id="-24298">
		<tag k="name" v="Hellinga" />
		<tag k="ssr:date" v="2019-12-27" />
		<tag k="ssr:gruppe" v="veg" />
		<tag k="ssr:hovedgruppe" v="infrastruktur" />
		<tag k="ssr:stedsnr" v="1061073" />
		<tag k="ssr:type" v="adressenavn" />
	</node>
	<node lat="59.478091309394955" lon="10.633765080798092" id="-24299">
		<tag k="name" v="Hellebergstien" />
		<tag k="ssr:date" v="2019-12-27" />
		<tag k="ssr:gruppe" v="veg" />
		<tag k="ssr:hovedgruppe" v="infrastruktur" />
		<tag k="ssr:stedsnr" v="1061145" />
		<tag k="ssr:type" v="adressenavn" />
	</node>
	<node lat="59.43340124557441" lon="10.643410292542743" id="-24300">
		<tag k="name" v="Helgerødgata" />
		<tag k="ssr:date" v="2019-12-27" />
		<tag k="ssr:gruppe" v="veg" />
		<tag k="ssr:hovedgruppe" v="infrastruktur" />
		<tag k="ssr:stedsnr" v="1061181" />
		<tag k="ssr:type" v="adressenavn" />
	</node>
	<node lat="59.4340607496927" lon="10.662866893063827" id="-24301">
		<tag k="name" v="Holteløkka" />
		<tag k="ssr:date" v="2019-12-27" />
		<tag k="ssr:gruppe" v="veg" />
		<tag k="ssr:hovedgruppe" v="infrastruktur" />
		<tag k="ssr:stedsnr" v="1061195" />
		<tag k="ssr:type" v="adressenavn" />
	</node>
	<node lat="59.42650781294387" lon="10.68247522042836" id="-24302">
		<tag k="name" v="Holmen" />
		<tag k="ssr:date" v="2019-12-27" />
		<tag k="ssr:gruppe" v="veg" />
		<tag k="ssr:hovedgruppe" v="infrastruktur" />
		<tag k="ssr:stedsnr" v="1061197" />
		<tag k="ssr:type" v="adressenavn" />
	</node>
	<node lat="59.4941414035366" lon="10.662896195433326" id="-24304">
		<tag k="name" v="Hesteløkka" />
		<tag k="ssr:date" v="2019-12-27" />
		<tag k="ssr:gruppe" v="veg" />
		<tag k="ssr:hovedgruppe" v="infrastruktur" />
		<tag k="ssr:stedsnr" v="1061209" />
		<tag k="ssr:type" v="adressenavn" />
	</node>
	<node lat="59.43317064328016" lon="10.634769146920151" id="-24306">
		<tag k="name" v="Hermods gate" />
		<tag k="ssr:date" v="2019-12-27" />
		<tag k="ssr:gruppe" v="veg" />
		<tag k="ssr:hovedgruppe" v="infrastruktur" />
		<tag k="ssr:stedsnr" v="1061217" />
		<tag k="ssr:type" v="adressenavn" />
	</node>
	<node lat="59.43457572524812" lon="10.663787831666657" id="-24307">
		<tag k="name" v="Herføllbakken" />
		<tag k="ssr:date" v="2019-12-27" />
		<tag k="ssr:gruppe" v="veg" />
		<tag k="ssr:hovedgruppe" v="infrastruktur" />
		<tag k="ssr:stedsnr" v="1061278" />
		<tag k="ssr:type" v="adressenavn" />
	</node>
	<node lat="59.4314648057228" lon="10.668579720507328" id="-24313">
		<tag k="name" v="Herfordts gate" />
		<tag k="ssr:date" v="2019-12-27" />
		<tag k="ssr:gruppe" v="veg" />
		<tag k="ssr:hovedgruppe" v="infrastruktur" />
		<tag k="ssr:stedsnr" v="1061319" />
		<tag k="ssr:type" v="adressenavn" />
	</node>
	<node lat="59.43405652771672" lon="10.655366839889982" id="-24317">
		<tag k="name" v="Jernbanegata" />
		<tag k="ssr:date" v="2019-12-27" />
		<tag k="ssr:gruppe" v="veg" />
		<tag k="ssr:hovedgruppe" v="infrastruktur" />
		<tag k="ssr:stedsnr" v="1061420" />
		<tag k="ssr:type" v="adressenavn" />
	</node>
	<node lat="59.434055685769394" lon="10.654235410438897" id="-24318">
		<tag k="name" v="Jeløgata" />
		<tag k="ssr:date" v="2019-12-27" />
		<tag k="ssr:gruppe" v="veg" />
		<tag k="ssr:hovedgruppe" v="infrastruktur" />
		<tag k="ssr:stedsnr" v="1061429" />
		<tag k="ssr:type" v="adressenavn" />
	</node>
	<node lat="59.461933487523005" lon="10.691020267048156" id="-24319">
		<tag k="name" v="Innslaget" />
		<tag k="ssr:date" v="2019-12-27" />
		<tag k="ssr:gruppe" v="veg" />
		<tag k="ssr:hovedgruppe" v="infrastruktur" />
		<tag k="ssr:stedsnr" v="1061490" />
		<tag k="ssr:type" v="adressenavn" />
	</node>
	<node lat="59.42346023242422" lon="10.671898210167466" id="-24324">
		<tag k="name" v="Jøssinggata" />
		<tag k="ssr:date" v="2019-12-27" />
		<tag k="ssr:gruppe" v="veg" />
		<tag k="ssr:hovedgruppe" v="infrastruktur" />
		<tag k="ssr:stedsnr" v="1061474" />
		<tag k="ssr:type" v="adressenavn" />
	</node>
	<node lat="59.38823421031374" lon="10.665337077748072" id="-24329">
		<tag k="name" v="Ekebyveien" />
		<tag k="ssr:date" v="2019-12-27" />
		<tag k="ssr:gruppe" v="veg" />
		<tag k="ssr:hovedgruppe" v="infrastruktur" />
		<tag k="ssr:stedsnr" v="1061673" />
		<tag k="ssr:type" v="adressenavn" />
	</node>
	<node lat="59.434664118748785" lon="10.634172186170698" id="-24332">
		<tag k="name" v="Jacob Sømmes gate" />
		<tag k="ssr:date" v="2019-12-27" />
		<tag k="ssr:gruppe" v="veg" />
		<tag k="ssr:hovedgruppe" v="infrastruktur" />
		<tag k="ssr:stedsnr" v="1061615" />
		<tag k="ssr:type" v="adressenavn" />
	</node>
	<node lat="59.43396204002809" lon="10.656579334817469" id="-24333">
		<tag k="name" v="Rådhus plass" />
		<tag k="ssr:date" v="2019-12-27" />
		<tag k="ssr:gruppe" v="veg" />
		<tag k="ssr:hovedgruppe" v="infrastruktur" />
		<tag k="ssr:stedsnr" v="1061691" />
		<tag k="ssr:type" v="adressenavn" />
	</node>
	<node lat="59.37335201087024" lon="10.772627873292464" id="-24334">
		<tag k="name" v="Elgfaret" />
		<tag k="ssr:date" v="2019-12-27" />
		<tag k="ssr:gruppe" v="veg" />
		<tag k="ssr:hovedgruppe" v="infrastruktur" />
		<tag k="ssr:stedsnr" v="1061701" />
		<tag k="ssr:type" v="adressenavn" />
	</node>
	<node lat="59.44304407876156" lon="10.646616117577388" id="-24335">
		<tag k="name" v="Rosnesstranda" />
		<tag k="ssr:date" v="2019-12-27" />
		<tag k="ssr:gruppe" v="veg" />
		<tag k="ssr:hovedgruppe" v="infrastruktur" />
		<tag k="ssr:stedsnr" v="1061677" />
		<tag k="ssr:type" v="adressenavn" />
	</node>
	<node lat="59.42881639837176" lon="10.676296297890362" id="-24336">
		<tag k="name" v="Rønningen" />
		<tag k="ssr:date" v="2019-12-27" />
		<tag k="ssr:gruppe" v="veg" />
		<tag k="ssr:hovedgruppe" v="infrastruktur" />
		<tag k="ssr:stedsnr" v="1061747" />
		<tag k="ssr:type" v="adressenavn" />
	</node>
	<node lat="59.411296829994235" lon="10.680863684615908" id="-24338">
		<tag k="name" v="Ekholt hageby" />
		<tag k="ssr:date" v="2019-12-27" />
		<tag k="ssr:gruppe" v="veg" />
		<tag k="ssr:hovedgruppe" v="infrastruktur" />
		<tag k="ssr:stedsnr" v="1061757" />
		<tag k="ssr:type" v="adressenavn" />
	</node>
	<node lat="59.41129432757995" lon="10.678273677377973" id="-24339">
		<tag k="name" v="Ekholtveien" />
		<tag k="ssr:date" v="2019-12-27" />
		<tag k="ssr:gruppe" v="veg" />
		<tag k="ssr:hovedgruppe" v="infrastruktur" />
		<tag k="ssr:stedsnr" v="1061771" />
		<tag k="ssr:type" v="adressenavn" />
	</node>
	<node lat="59.37797085781264" lon="10.765366261727925" id="-24341">
		<tag k="name" v="Ekeberglia" />
		<tag k="ssr:date" v="2019-12-27" />
		<tag k="ssr:gruppe" v="veg" />
		<tag k="ssr:hovedgruppe" v="infrastruktur" />
		<tag k="ssr:stedsnr" v="1061844" />
		<tag k="ssr:type" v="adressenavn" />
	</node>
	<node lat="59.46310935784549" lon="10.693951530263806" id="-24342">
		<tag k="name" v="Rosengangen" />
		<tag k="ssr:date" v="2019-12-27" />
		<tag k="ssr:gruppe" v="veg" />
		<tag k="ssr:hovedgruppe" v="infrastruktur" />
		<tag k="ssr:stedsnr" v="1061859" />
		<tag k="ssr:type" v="adressenavn" />
	</node>
	<node lat="59.44311141138895" lon="10.617378744467755" id="-24346">
		<tag k="name" v="Revet" />
		<tag k="ssr:date" v="2019-12-27" />
		<tag k="ssr:gruppe" v="veg" />
		<tag k="ssr:hovedgruppe" v="infrastruktur" />
		<tag k="ssr:stedsnr" v="1061796" />
		<tag k="ssr:type" v="adressenavn" />
	</node>
	<node lat="59.4284994972916" lon="10.669566414798478" id="-24350">
		<tag k="name" v="Repslagergata" />
		<tag k="ssr:date" v="2019-12-27" />
		<tag k="ssr:gruppe" v="veg" />
		<tag k="ssr:hovedgruppe" v="infrastruktur" />
		<tag k="ssr:stedsnr" v="1061808" />
		<tag k="ssr:type" v="adressenavn" />
	</node>
	<node lat="59.443224786430456" lon="10.625521965135325" id="-24351">
		<tag k="name" v="Refsnesskogen" />
		<tag k="ssr:date" v="2019-12-27" />
		<tag k="ssr:gruppe" v="veg" />
		<tag k="ssr:hovedgruppe" v="infrastruktur" />
		<tag k="ssr:stedsnr" v="1061811" />
		<tag k="ssr:type" v="adressenavn" />
	</node>
	<node lat="59.444310322680884" lon="10.61275753604594" id="-24352">
		<tag k="name" v="Refsnesstranda" />
		<tag k="ssr:date" v="2019-12-27" />
		<tag k="ssr:gruppe" v="veg" />
		<tag k="ssr:hovedgruppe" v="infrastruktur" />
		<tag k="ssr:stedsnr" v="1061815" />
		<tag k="ssr:type" v="adressenavn" />
	</node>
	<node lat="59.43852420653173" lon="10.61954619141789" id="-24353">
		<tag k="name" v="Refsneskrona" />
		<tag k="ssr:date" v="2019-12-27" />
		<tag k="ssr:gruppe" v="veg" />
		<tag k="ssr:hovedgruppe" v="infrastruktur" />
		<tag k="ssr:stedsnr" v="1061825" />
		<tag k="ssr:type" v="adressenavn" />
	</node>
	<node lat="59.422901721822456" lon="10.668052064406854" id="-24355">
		<tag k="name" v="Roald Amundsens gate" />
		<tag k="ssr:date" v="2019-12-27" />
		<tag k="ssr:gruppe" v="veg" />
		<tag k="ssr:hovedgruppe" v="infrastruktur" />
		<tag k="ssr:stedsnr" v="1061888" />
		<tag k="ssr:type" v="adressenavn" />
	</node>
	<node lat="59.32936151811353" lon="10.674912970233672" id="-24357">
		<tag k="name" v="Faret" />
		<tag k="ssr:date" v="2019-12-27" />
		<tag k="ssr:gruppe" v="veg" />
		<tag k="ssr:hovedgruppe" v="infrastruktur" />
		<tag k="ssr:stedsnr" v="1061917" />
		<tag k="ssr:type" v="adressenavn" />
	</node>
	<node lat="59.417049857182185" lon="10.687072471037078" id="-24360">
		<tag k="name" v="Evendalen" />
		<tag k="ssr:date" v="2019-12-27" />
		<tag k="ssr:gruppe" v="veg" />
		<tag k="ssr:hovedgruppe" v="infrastruktur" />
		<tag k="ssr:stedsnr" v="1061952" />
		<tag k="ssr:type" v="adressenavn" />
	</node>
	<node lat="59.43244871524861" lon="10.651026179652158" id="-24361">
		<tag k="name" v="Sjøgata" />
		<tag k="ssr:date" v="2019-12-27" />
		<tag k="ssr:gruppe" v="veg" />
		<tag k="ssr:hovedgruppe" v="infrastruktur" />
		<tag k="ssr:stedsnr" v="1061957" />
		<tag k="ssr:type" v="adressenavn" />
	</node>
	<node lat="59.36471326657999" lon="10.776140415252543" id="-24364">
		<tag k="name" v="Eskelundveien" />
		<tag k="ssr:date" v="2019-12-27" />
		<tag k="ssr:gruppe" v="veg" />
		<tag k="ssr:hovedgruppe" v="infrastruktur" />
		<tag k="ssr:stedsnr" v="1061973" />
		<tag k="ssr:type" v="adressenavn" />
	</node>
	<node lat="59.43135777668088" lon="10.68653389335834" id="-24369">
		<tag k="name" v="Myrfaret" />
		<tag k="ssr:date" v="2019-12-27" />
		<tag k="ssr:gruppe" v="veg" />
		<tag k="ssr:hovedgruppe" v="infrastruktur" />
		<tag k="ssr:stedsnr" v="1062456" />
		<tag k="ssr:type" v="adressenavn" />
	</node>
	<node lat="59.43953949173939" lon="10.669074909001997" id="-24371">
		<tag k="name" v="Moss verk" />
		<tag k="ssr:date" v="2019-12-27" />
		<tag k="ssr:gruppe" v="veg" />
		<tag k="ssr:hovedgruppe" v="infrastruktur" />
		<tag k="ssr:stedsnr" v="1062468" />
		<tag k="ssr:type" v="adressenavn" />
	</node>
	<node lat="59.43651976188229" lon="10.614117512252855" id="-24372">
		<tag k="name" v="Morenen" />
		<tag k="ssr:date" v="2019-12-27" />
		<tag k="ssr:gruppe" v="veg" />
		<tag k="ssr:hovedgruppe" v="infrastruktur" />
		<tag k="ssr:stedsnr" v="1062476" />
		<tag k="ssr:type" v="adressenavn" />
	</node>
	<node lat="59.32657895343796" lon="10.711578881095438" id="-24373">
		<tag k="name" v="Avstikkeren" />
		<tag k="ssr:date" v="2019-12-27" />
		<tag k="ssr:gruppe" v="veg" />
		<tag k="ssr:hovedgruppe" v="infrastruktur" />
		<tag k="ssr:stedsnr" v="1062536" />
		<tag k="ssr:type" v="adressenavn" />
	</node>
	<node lat="59.34333055600819" lon="10.6655635513778" id="-24375">
		<tag k="name" v="Evjesundveien" />
		<tag k="ssr:date" v="2019-12-27" />
		<tag k="ssr:gruppe" v="veg" />
		<tag k="ssr:hovedgruppe" v="infrastruktur" />
		<tag k="ssr:stedsnr" v="1061929" />
		<tag k="ssr:type" v="adressenavn" />
	</node>
	<node lat="59.43727498513154" lon="10.62664095962803" id="-24378">
		<tag k="name" v="Skogstien" />
		<tag k="ssr:date" v="2019-12-27" />
		<tag k="ssr:gruppe" v="veg" />
		<tag k="ssr:hovedgruppe" v="infrastruktur" />
		<tag k="ssr:stedsnr" v="1061989" />
		<tag k="ssr:type" v="adressenavn" />
	</node>
	<node lat="59.436456646621245" lon="10.666932574154913" id="-24380">
		<tag k="name" v="Skoggata" />
		<tag k="ssr:date" v="2019-12-27" />
		<tag k="ssr:gruppe" v="veg" />
		<tag k="ssr:hovedgruppe" v="infrastruktur" />
		<tag k="ssr:stedsnr" v="1061998" />
		<tag k="ssr:type" v="adressenavn" />
	</node>
	<node lat="59.3978930084338" lon="10.652170972903344" id="-24381">
		<tag k="name" v="Festeveien" />
		<tag k="ssr:date" v="2019-12-27" />
		<tag k="ssr:gruppe" v="veg" />
		<tag k="ssr:hovedgruppe" v="infrastruktur" />
		<tag k="ssr:stedsnr" v="1062004" />
		<tag k="ssr:type" v="adressenavn" />
	</node>
	<node lat="59.43423204132777" lon="10.658016915437063" id="-24383">
		<tag k="name" v="Rådhusgata" />
		<tag k="ssr:date" v="2019-12-27" />
		<tag k="ssr:gruppe" v="veg" />
		<tag k="ssr:hovedgruppe" v="infrastruktur" />
		<tag k="ssr:stedsnr" v="1062091" />
		<tag k="ssr:type" v="adressenavn" />
	</node>
	<node lat="59.43004882635901" lon="10.668914523149802" id="-24385">
		<tag k="name" v="Scharres gate" />
		<tag k="ssr:date" v="2019-12-27" />
		<tag k="ssr:gruppe" v="veg" />
		<tag k="ssr:hovedgruppe" v="infrastruktur" />
		<tag k="ssr:stedsnr" v="1062124" />
		<tag k="ssr:type" v="adressenavn" />
	</node>
	<node lat="59.44239648263961" lon="10.63542183002276" id="-24386">
		<tag k="name" v="Sauåsen" />
		<tag k="ssr:date" v="2019-12-27" />
		<tag k="ssr:gruppe" v="veg" />
		<tag k="ssr:hovedgruppe" v="infrastruktur" />
		<tag k="ssr:stedsnr" v="1062126" />
		<tag k="ssr:type" v="adressenavn" />
	</node>
	<node lat="59.31765726226809" lon="10.68063494537311" id="-24387">
		<tag k="name" v="Engholmveien" />
		<tag k="ssr:date" v="2019-12-27" />
		<tag k="ssr:gruppe" v="veg" />
		<tag k="ssr:hovedgruppe" v="infrastruktur" />
		<tag k="ssr:stedsnr" v="1062129" />
		<tag k="ssr:type" v="adressenavn" />
	</node>
	<node lat="59.44398143145505" lon="10.670258805602302" id="-24391">
		<tag k="name" v="Sandbukta" />
		<tag k="ssr:date" v="2019-12-27" />
		<tag k="ssr:gruppe" v="veg" />
		<tag k="ssr:hovedgruppe" v="infrastruktur" />
		<tag k="ssr:stedsnr" v="1062067" />
		<tag k="ssr:type" v="adressenavn" />
	</node>
	<node lat="59.4553238987097" lon="10.695697490816507" id="-24392">
		<tag k="name" v="Salmakerstien" />
		<tag k="ssr:date" v="2019-12-27" />
		<tag k="ssr:gruppe" v="veg" />
		<tag k="ssr:hovedgruppe" v="infrastruktur" />
		<tag k="ssr:stedsnr" v="1062069" />
		<tag k="ssr:type" v="adressenavn" />
	</node>
	<node lat="59.322845478988256" lon="10.705214658763037" id="-24393">
		<tag k="name" v="Eneråsen" />
		<tag k="ssr:date" v="2019-12-27" />
		<tag k="ssr:gruppe" v="veg" />
		<tag k="ssr:hovedgruppe" v="infrastruktur" />
		<tag k="ssr:stedsnr" v="1062070" />
		<tag k="ssr:type" v="adressenavn" />
	</node>
	<node lat="59.400378595528636" lon="10.723319517047655" id="-24396">
		<tag k="name" v="Enerveien" />
		<tag k="ssr:date" v="2019-12-27" />
		<tag k="ssr:gruppe" v="veg" />
		<tag k="ssr:hovedgruppe" v="infrastruktur" />
		<tag k="ssr:stedsnr" v="1062079" />
		<tag k="ssr:type" v="adressenavn" />
	</node>
	<node lat="59.38568122483475" lon="10.754953601078272" id="-24397">
		<tag k="name" v="Blindveien" />
		<tag k="ssr:date" v="2019-12-27" />
		<tag k="ssr:gruppe" v="veg" />
		<tag k="ssr:hovedgruppe" v="infrastruktur" />
		<tag k="ssr:stedsnr" v="1062141" />
		<tag k="ssr:type" v="adressenavn" />
	</node>
	<node lat="59.42235456094952" lon="10.662171712090338" id="-24398">
		<tag k="name" v="Nordhenget" />
		<tag k="ssr:date" v="2019-12-27" />
		<tag k="ssr:gruppe" v="veg" />
		<tag k="ssr:hovedgruppe" v="infrastruktur" />
		<tag k="ssr:stedsnr" v="1062153" />
		<tag k="ssr:type" v="adressenavn" />
	</node>
	<node lat="59.420680116591754" lon="10.668966132947576" id="-24399">
		<tag k="name" v="Nordahl Griegs gate" />
		<tag k="ssr:date" v="2019-12-27" />
		<tag k="ssr:gruppe" v="veg" />
		<tag k="ssr:hovedgruppe" v="infrastruktur" />
		<tag k="ssr:stedsnr" v="1062184" />
		<tag k="ssr:type" v="adressenavn" />
	</node>
	<node lat="59.41251327687861" lon="10.663159036575394" id="-24400">
		<tag k="name" v="Bjerkeveien" />
		<tag k="ssr:date" v="2019-12-27" />
		<tag k="ssr:gruppe" v="veg" />
		<tag k="ssr:hovedgruppe" v="infrastruktur" />
		<tag k="ssr:stedsnr" v="1062246" />
		<tag k="ssr:type" v="adressenavn" />
	</node>
	<node lat="59.33644164179557" lon="10.662549203205504" id="-24401">
		<tag k="name" v="Billmannsbakken" />
		<tag k="ssr:date" v="2019-12-27" />
		<tag k="ssr:gruppe" v="veg" />
		<tag k="ssr:hovedgruppe" v="infrastruktur" />
		<tag k="ssr:stedsnr" v="1062254" />
		<tag k="ssr:type" v="adressenavn" />
	</node>
	<node lat="59.418817474283244" lon="10.689021074281314" id="-24404">
		<tag k="name" v="Blåbærstien" />
		<tag k="ssr:date" v="2019-12-27" />
		<tag k="ssr:gruppe" v="veg" />
		<tag k="ssr:hovedgruppe" v="infrastruktur" />
		<tag k="ssr:stedsnr" v="1062341" />
		<tag k="ssr:type" v="adressenavn" />
	</node>
	<node lat="59.436705034318265" lon="10.663881926786761" id="-24405">
		<tag k="name" v="Prinsens gate" />
		<tag k="ssr:date" v="2019-12-27" />
		<tag k="ssr:gruppe" v="veg" />
		<tag k="ssr:hovedgruppe" v="infrastruktur" />
		<tag k="ssr:stedsnr" v="1062786" />
		<tag k="ssr:type" v="adressenavn" />
	</node>
	<node lat="59.43619083309208" lon="10.669162728526816" id="-24406">
		<tag k="name" v="Prins Christian Augusts plass" />
		<tag k="ssr:date" v="2019-12-27" />
		<tag k="ssr:gruppe" v="veg" />
		<tag k="ssr:hovedgruppe" v="infrastruktur" />
		<tag k="ssr:stedsnr" v="1062796" />
		<tag k="ssr:type" v="adressenavn" />
	</node>
	<node lat="59.32727351782494" lon="10.682956554552153" id="-24412">
		<tag k="name" v="Holgerveien" />
		<tag k="ssr:date" v="2019-12-27" />
		<tag k="ssr:gruppe" v="veg" />
		<tag k="ssr:hovedgruppe" v="infrastruktur" />
		<tag k="ssr:stedsnr" v="1062323" />
		<tag k="ssr:type" v="adressenavn" />
	</node>
	<node lat="59.432081577023816" lon="10.658762422695933" id="-24413">
		<tag k="name" v="Nyquists gate" />
		<tag k="ssr:date" v="2019-12-27" />
		<tag k="ssr:gruppe" v="veg" />
		<tag k="ssr:hovedgruppe" v="infrastruktur" />
		<tag k="ssr:stedsnr" v="1062395" />
		<tag k="ssr:type" v="adressenavn" />
	</node>
	<node lat="59.433723497172544" lon="10.68256239766267" id="-24414">
		<tag k="name" v="Nordre Elvegate" />
		<tag k="ssr:date" v="2019-12-27" />
		<tag k="ssr:gruppe" v="veg" />
		<tag k="ssr:hovedgruppe" v="infrastruktur" />
		<tag k="ssr:stedsnr" v="1062411" />
		<tag k="ssr:type" v="adressenavn" />
	</node>
	<node lat="59.37647414288511" lon="10.764191020771424" id="-24415">
		<tag k="name" v="Blomsholmveien" />
		<tag k="ssr:date" v="2019-12-27" />
		<tag k="ssr:gruppe" v="veg" />
		<tag k="ssr:hovedgruppe" v="infrastruktur" />
		<tag k="ssr:stedsnr" v="1062418" />
		<tag k="ssr:type" v="adressenavn" />
	</node>
	<node lat="59.44415497627973" lon="10.647541414342356" id="-24417">
		<tag k="name" v="Midtstien" />
		<tag k="ssr:date" v="2019-12-27" />
		<tag k="ssr:gruppe" v="veg" />
		<tag k="ssr:hovedgruppe" v="infrastruktur" />
		<tag k="ssr:stedsnr" v="1062517" />
		<tag k="ssr:type" v="adressenavn" />
	</node>
	<node lat="59.433120473702225" lon="10.637891256428718" id="-24418">
		<tag k="name" v="Michael Sundts gate" />
		<tag k="ssr:date" v="2019-12-27" />
		<tag k="ssr:gruppe" v="veg" />
		<tag k="ssr:hovedgruppe" v="infrastruktur" />
		<tag k="ssr:stedsnr" v="1062530" />
		<tag k="ssr:type" v="adressenavn" />
	</node>
	<node lat="59.412787244759556" lon="10.67217400041184" id="-24420">
		<tag k="name" v="Beiteveien" />
		<tag k="ssr:date" v="2019-12-27" />
		<tag k="ssr:gruppe" v="veg" />
		<tag k="ssr:hovedgruppe" v="infrastruktur" />
		<tag k="ssr:stedsnr" v="1062588" />
		<tag k="ssr:type" v="adressenavn" />
	</node>
	<node lat="59.427459247339314" lon="10.6630528807023" id="-24421">
		<tag k="name" v="Melløsbakken" />
		<tag k="ssr:date" v="2019-12-27" />
		<tag k="ssr:gruppe" v="veg" />
		<tag k="ssr:hovedgruppe" v="infrastruktur" />
		<tag k="ssr:stedsnr" v="1062548" />
		<tag k="ssr:type" v="adressenavn" />
	</node>
	<node lat="59.365754298415986" lon="10.77566201932267" id="-24422">
		<tag k="name" v="Askekroken" />
		<tag k="ssr:date" v="2019-12-27" />
		<tag k="ssr:gruppe" v="veg" />
		<tag k="ssr:hovedgruppe" v="infrastruktur" />
		<tag k="ssr:stedsnr" v="1062551" />
		<tag k="ssr:type" v="adressenavn" />
	</node>
	<node lat="59.423353871473616" lon="10.6883339106575" id="-24423">
		<tag k="name" v="Abborveien" />
		<tag k="ssr:date" v="2019-12-27" />
		<tag k="ssr:gruppe" v="veg" />
		<tag k="ssr:hovedgruppe" v="infrastruktur" />
		<tag k="ssr:stedsnr" v="1062556" />
		<tag k="ssr:type" v="adressenavn" />
	</node>
	<node lat="59.431093521245764" lon="10.659228088941706" id="-24424">
		<tag k="name" v="Nedre Tvergate" />
		<tag k="ssr:date" v="2019-12-27" />
		<tag k="ssr:gruppe" v="veg" />
		<tag k="ssr:hovedgruppe" v="infrastruktur" />
		<tag k="ssr:stedsnr" v="1062571" />
		<tag k="ssr:type" v="adressenavn" />
	</node>
	<node lat="59.39946780934957" lon="10.657086791100076" id="-24425">
		<tag k="name" v="Baugsåsen" />
		<tag k="ssr:date" v="2019-12-27" />
		<tag k="ssr:gruppe" v="veg" />
		<tag k="ssr:hovedgruppe" v="infrastruktur" />
		<tag k="ssr:stedsnr" v="1062572" />
		<tag k="ssr:type" v="adressenavn" />
	</node>
	<node lat="59.37508871894602" lon="10.67010934284925" id="-24427">
		<tag k="name" v="Bakkeskogen" />
		<tag k="ssr:date" v="2019-12-27" />
		<tag k="ssr:gruppe" v="veg" />
		<tag k="ssr:hovedgruppe" v="infrastruktur" />
		<tag k="ssr:stedsnr" v="1062644" />
		<tag k="ssr:type" v="adressenavn" />
	</node>
	<node lat="59.4371687003665" lon="10.667209268666738" id="-24428">
		<tag k="name" v="Møllergata" />
		<tag k="ssr:date" v="2019-12-27" />
		<tag k="ssr:gruppe" v="veg" />
		<tag k="ssr:hovedgruppe" v="infrastruktur" />
		<tag k="ssr:stedsnr" v="1062678" />
		<tag k="ssr:type" v="adressenavn" />
	</node>
	<node lat="59.3791515340722" lon="10.75288457485558" id="-24431">
		<tag k="name" v="Bankveien" />
		<tag k="ssr:date" v="2019-12-27" />
		<tag k="ssr:gruppe" v="veg" />
		<tag k="ssr:hovedgruppe" v="infrastruktur" />
		<tag k="ssr:stedsnr" v="1062634" />
		<tag k="ssr:type" v="adressenavn" />
	</node>
	<node lat="59.47172437631397" lon="10.691321331874994" id="-24432">
		<tag k="name" v="Møllebakken" />
		<tag k="ssr:date" v="2019-12-27" />
		<tag k="ssr:gruppe" v="veg" />
		<tag k="ssr:hovedgruppe" v="infrastruktur" />
		<tag k="ssr:stedsnr" v="1062686" />
		<tag k="ssr:type" v="adressenavn" />
	</node>
	<node lat="59.38125806115709" lon="10.745683875580925" id="-24435">
		<tag k="name" v="Holteveien" />
		<tag k="ssr:date" v="2019-12-27" />
		<tag k="ssr:gruppe" v="veg" />
		<tag k="ssr:hovedgruppe" v="infrastruktur" />
		<tag k="ssr:stedsnr" v="1063443" />
		<tag k="ssr:type" v="adressenavn" />
	</node>
	<node lat="59.320635933812184" lon="10.7011976387958" id="-24438">
		<tag k="name" v="Hollenderstien" />
		<tag k="ssr:date" v="2019-12-27" />
		<tag k="ssr:gruppe" v="veg" />
		<tag k="ssr:hovedgruppe" v="infrastruktur" />
		<tag k="ssr:stedsnr" v="1063449" />
		<tag k="ssr:type" v="adressenavn" />
	</node>
	<node lat="59.4419706762594" lon="10.644363533494928" id="-24439">
		<tag k="name" v="Sundbakken" />
		<tag k="ssr:date" v="2019-12-27" />
		<tag k="ssr:gruppe" v="veg" />
		<tag k="ssr:hovedgruppe" v="infrastruktur" />
		<tag k="ssr:stedsnr" v="1063456" />
		<tag k="ssr:type" v="adressenavn" />
	</node>
	<node lat="59.32725257162729" lon="10.683490632528612" id="-24441">
		<tag k="name" v="Grefsrødhavna" />
		<tag k="ssr:date" v="2019-12-27" />
		<tag k="ssr:gruppe" v="veg" />
		<tag k="ssr:hovedgruppe" v="infrastruktur" />
		<tag k="ssr:stedsnr" v="1063458" />
		<tag k="ssr:type" v="adressenavn" />
	</node>
	<node lat="59.437256204035286" lon="10.627153607525894" id="-24442">
		<tag k="name" v="Stubben" />
		<tag k="ssr:date" v="2019-12-27" />
		<tag k="ssr:gruppe" v="veg" />
		<tag k="ssr:hovedgruppe" v="infrastruktur" />
		<tag k="ssr:stedsnr" v="1063463" />
		<tag k="ssr:type" v="adressenavn" />
	</node>
	<node lat="59.417110877568064" lon="10.669316879683322" id="-24444">
		<tag k="name" v="Rabekkgata" />
		<tag k="ssr:date" v="2019-12-27" />
		<tag k="ssr:gruppe" v="veg" />
		<tag k="ssr:hovedgruppe" v="infrastruktur" />
		<tag k="ssr:stedsnr" v="1062840" />
		<tag k="ssr:type" v="adressenavn" />
	</node>
	<node lat="59.43199982073133" lon="10.632756073438852" id="-24446">
		<tag k="name" v="Putten" />
		<tag k="ssr:date" v="2019-12-27" />
		<tag k="ssr:gruppe" v="veg" />
		<tag k="ssr:hovedgruppe" v="infrastruktur" />
		<tag k="ssr:stedsnr" v="1062844" />
		<tag k="ssr:type" v="adressenavn" />
	</node>
	<node lat="59.41977961780696" lon="10.682879886934142" id="-24447">
		<tag k="name" v="Buen" />
		<tag k="ssr:date" v="2019-12-27" />
		<tag k="ssr:gruppe" v="veg" />
		<tag k="ssr:hovedgruppe" v="infrastruktur" />
		<tag k="ssr:stedsnr" v="1062847" />
		<tag k="ssr:type" v="adressenavn" />
	</node>
	<node lat="59.40905857848696" lon="10.692136616647192" id="-24448">
		<tag k="name" v="Bredsandveien" />
		<tag k="ssr:date" v="2019-12-27" />
		<tag k="ssr:gruppe" v="veg" />
		<tag k="ssr:hovedgruppe" v="infrastruktur" />
		<tag k="ssr:stedsnr" v="1062854" />
		<tag k="ssr:type" v="adressenavn" />
	</node>
	<node lat="59.43523315065287" lon="10.646051892732293" id="-24451">
		<tag k="name" v="Olavs gate" />
		<tag k="ssr:date" v="2019-12-27" />
		<tag k="ssr:gruppe" v="veg" />
		<tag k="ssr:hovedgruppe" v="infrastruktur" />
		<tag k="ssr:stedsnr" v="1062866" />
		<tag k="ssr:type" v="adressenavn" />
	</node>
	<node lat="59.42334348167948" lon="10.687802297272144" id="-24452">
		<tag k="name" v="Brasmeveien" />
		<tag k="ssr:date" v="2019-12-27" />
		<tag k="ssr:gruppe" v="veg" />
		<tag k="ssr:hovedgruppe" v="infrastruktur" />
		<tag k="ssr:stedsnr" v="1062870" />
		<tag k="ssr:type" v="adressenavn" />
	</node>
	<node lat="59.433479238333916" lon="10.634083242899834" id="-24456">
		<tag k="name" v="Orkerødgata" />
		<tag k="ssr:date" v="2019-12-27" />
		<tag k="ssr:gruppe" v="veg" />
		<tag k="ssr:hovedgruppe" v="infrastruktur" />
		<tag k="ssr:stedsnr" v="1062948" />
		<tag k="ssr:type" v="adressenavn" />
	</node>
	<node lat="59.43253849003641" lon="10.632568287141215" id="-24458">
		<tag k="name" v="Ole Vigs gate" />
		<tag k="ssr:date" v="2019-12-27" />
		<tag k="ssr:gruppe" v="veg" />
		<tag k="ssr:hovedgruppe" v="infrastruktur" />
		<tag k="ssr:stedsnr" v="1062956" />
		<tag k="ssr:type" v="adressenavn" />
	</node>
	<node lat="59.38138132151181" lon="10.750892210067994" id="-24462">
		<tag k="name" v="Kjærneshagen" />
		<tag k="ssr:date" v="2019-12-27" />
		<tag k="ssr:gruppe" v="veg" />
		<tag k="ssr:hovedgruppe" v="infrastruktur" />
		<tag k="ssr:stedsnr" v="1062967" />
		<tag k="ssr:type" v="adressenavn" />
	</node>
	<node lat="59.37657632534444" lon="10.727128667487166" id="-24463">
		<tag k="name" v="Klokkersvingen" />
		<tag k="ssr:date" v="2019-12-27" />
		<tag k="ssr:gruppe" v="veg" />
		<tag k="ssr:hovedgruppe" v="infrastruktur" />
		<tag k="ssr:stedsnr" v="1062968" />
		<tag k="ssr:type" v="adressenavn" />
	</node>
	<node lat="59.41501258399759" lon="10.680133886608758" id="-24464">
		<tag k="name" v="Carlbergveien" />
		<tag k="ssr:date" v="2019-12-27" />
		<tag k="ssr:gruppe" v="veg" />
		<tag k="ssr:hovedgruppe" v="infrastruktur" />
		<tag k="ssr:stedsnr" v="1062975" />
		<tag k="ssr:type" v="adressenavn" />
	</node>
	<node lat="59.43830731593742" lon="10.614351848228102" id="-24466">
		<tag k="name" v="Posthornet" />
		<tag k="ssr:date" v="2019-12-27" />
		<tag k="ssr:gruppe" v="veg" />
		<tag k="ssr:hovedgruppe" v="infrastruktur" />
		<tag k="ssr:stedsnr" v="1062803" />
		<tag k="ssr:type" v="adressenavn" />
	</node>
	<node lat="59.378171918376935" lon="10.761125895264163" id="-24467">
		<tag k="name" v="Bråtenveien" />
		<tag k="ssr:date" v="2019-12-27" />
		<tag k="ssr:gruppe" v="veg" />
		<tag k="ssr:hovedgruppe" v="infrastruktur" />
		<tag k="ssr:stedsnr" v="1062807" />
		<tag k="ssr:type" v="adressenavn" />
	</node>
	<node lat="59.32542996199093" lon="10.679864982033676" id="-24468">
		<tag k="name" v="Bryggebakken" />
		<tag k="ssr:date" v="2019-12-27" />
		<tag k="ssr:gruppe" v="veg" />
		<tag k="ssr:hovedgruppe" v="infrastruktur" />
		<tag k="ssr:stedsnr" v="1062812" />
		<tag k="ssr:type" v="adressenavn" />
	</node>
	<node lat="59.40198921461077" lon="10.7007528921924" id="-24470">
		<tag k="name" v="Dillingveien" />
		<tag k="ssr:date" v="2019-12-27" />
		<tag k="ssr:gruppe" v="veg" />
		<tag k="ssr:hovedgruppe" v="infrastruktur" />
		<tag k="ssr:stedsnr" v="1062819" />
		<tag k="ssr:type" v="adressenavn" />
	</node>
	<node lat="59.44179959452874" lon="10.620332022677685" id="-24471">
		<tag k="name" v="Refsnesbakken" />
		<tag k="ssr:date" v="2019-12-27" />
		<tag k="ssr:gruppe" v="veg" />
		<tag k="ssr:hovedgruppe" v="infrastruktur" />
		<tag k="ssr:stedsnr" v="1062820" />
		<tag k="ssr:type" v="adressenavn" />
	</node>
	<node lat="59.435582217574485" lon="10.624060795064441" id="-24472">
		<tag k="name" v="Refsnesalleen" />
		<tag k="ssr:date" v="2019-12-27" />
		<tag k="ssr:gruppe" v="veg" />
		<tag k="ssr:hovedgruppe" v="infrastruktur" />
		<tag k="ssr:stedsnr" v="1062823" />
		<tag k="ssr:type" v="adressenavn" />
	</node>
	<node lat="59.4252295793885" lon="10.694234563747115" id="-24474">
		<tag k="name" v="Bokfinkveien" />
		<tag k="ssr:date" v="2019-12-27" />
		<tag k="ssr:gruppe" v="veg" />
		<tag k="ssr:hovedgruppe" v="infrastruktur" />
		<tag k="ssr:stedsnr" v="1062887" />
		<tag k="ssr:type" v="adressenavn" />
	</node>
	<node lat="59.4241024743069" lon="10.696480946992514" id="-24479">
		<tag k="name" v="Blåmeisveien" />
		<tag k="ssr:date" v="2019-12-27" />
		<tag k="ssr:gruppe" v="veg" />
		<tag k="ssr:hovedgruppe" v="infrastruktur" />
		<tag k="ssr:stedsnr" v="1062911" />
		<tag k="ssr:type" v="adressenavn" />
	</node>
	<node lat="59.443259731341264" lon="10.61633359189165" id="-24480">
		<tag k="name" v="Paviljongen" />
		<tag k="ssr:date" v="2019-12-27" />
		<tag k="ssr:gruppe" v="veg" />
		<tag k="ssr:hovedgruppe" v="infrastruktur" />
		<tag k="ssr:stedsnr" v="1062919" />
		<tag k="ssr:type" v="adressenavn" />
	</node>
	<node lat="59.421378631436234" lon="10.690466532678574" id="-24483">
		<tag k="name" v="Bregnestien" />
		<tag k="ssr:date" v="2019-12-27" />
		<tag k="ssr:gruppe" v="veg" />
		<tag k="ssr:hovedgruppe" v="infrastruktur" />
		<tag k="ssr:stedsnr" v="1062931" />
		<tag k="ssr:type" v="adressenavn" />
	</node>
	<node lat="59.43586438334562" lon="10.640964054856646" id="-24484">
		<tag k="name" v="Tors gate" />
		<tag k="ssr:date" v="2019-12-27" />
		<tag k="ssr:gruppe" v="veg" />
		<tag k="ssr:hovedgruppe" v="infrastruktur" />
		<tag k="ssr:stedsnr" v="1062987" />
		<tag k="ssr:type" v="adressenavn" />
	</node>
	<node lat="59.414761380086425" lon="10.668717798432866" id="-24485">
		<tag k="name" v="Kallumlia" />
		<tag k="ssr:date" v="2019-12-27" />
		<tag k="ssr:gruppe" v="veg" />
		<tag k="ssr:hovedgruppe" v="infrastruktur" />
		<tag k="ssr:stedsnr" v="1062989" />
		<tag k="ssr:type" v="adressenavn" />
	</node>
	<node lat="59.3224601066866" lon="10.694958511199417" id="-24486">
		<tag k="name" v="Jegerstien" />
		<tag k="ssr:date" v="2019-12-27" />
		<tag k="ssr:gruppe" v="veg" />
		<tag k="ssr:hovedgruppe" v="infrastruktur" />
		<tag k="ssr:stedsnr" v="1062992" />
		<tag k="ssr:type" v="adressenavn" />
	</node>
	<node lat="59.34500081073043" lon="10.668653247115008" id="-24490">
		<tag k="name" v="Kræmmerstien" />
		<tag k="ssr:date" v="2019-12-27" />
		<tag k="ssr:gruppe" v="veg" />
		<tag k="ssr:hovedgruppe" v="infrastruktur" />
		<tag k="ssr:stedsnr" v="1062997" />
		<tag k="ssr:type" v="adressenavn" />
	</node>
	<node lat="59.321123405419236" lon="10.6956521043962" id="-24491">
		<tag k="name" v="Kurefjordveien" />
		<tag k="ssr:date" v="2019-12-27" />
		<tag k="ssr:gruppe" v="veg" />
		<tag k="ssr:hovedgruppe" v="infrastruktur" />
		<tag k="ssr:stedsnr" v="1062998" />
		<tag k="ssr:type" v="adressenavn" />
	</node>
	<node lat="59.43988363760081" lon="10.62489471542041" id="-24494">
		<tag k="name" v="Utsynet" />
		<tag k="ssr:date" v="2019-12-27" />
		<tag k="ssr:gruppe" v="veg" />
		<tag k="ssr:hovedgruppe" v="infrastruktur" />
		<tag k="ssr:stedsnr" v="1063007" />
		<tag k="ssr:type" v="adressenavn" />
	</node>
	<node lat="59.39312771293591" lon="10.651159586433085" id="-24499">
		<tag k="name" v="Krokveien" />
		<tag k="ssr:date" v="2019-12-27" />
		<tag k="ssr:gruppe" v="veg" />
		<tag k="ssr:hovedgruppe" v="infrastruktur" />
		<tag k="ssr:stedsnr" v="1063015" />
		<tag k="ssr:type" v="adressenavn" />
	</node>
	<node lat="59.43548603718247" lon="10.608120325999238" id="-24500">
		<tag k="name" v="Tronvikalleen" />
		<tag k="ssr:date" v="2019-12-27" />
		<tag k="ssr:gruppe" v="veg" />
		<tag k="ssr:hovedgruppe" v="infrastruktur" />
		<tag k="ssr:stedsnr" v="1062976" />
		<tag k="ssr:type" v="adressenavn" />
	</node>
	<node lat="59.45324253259799" lon="10.691813624653642" id="-24504">
		<tag k="name" v="Trollstubben" />
		<tag k="ssr:date" v="2019-12-27" />
		<tag k="ssr:gruppe" v="veg" />
		<tag k="ssr:hovedgruppe" v="infrastruktur" />
		<tag k="ssr:stedsnr" v="1062983" />
		<tag k="ssr:type" v="adressenavn" />
	</node>
	<node lat="59.42119172715136" lon="10.693790037883321" id="-24505">
		<tag k="name" v="Kantarellstien" />
		<tag k="ssr:date" v="2019-12-27" />
		<tag k="ssr:gruppe" v="veg" />
		<tag k="ssr:hovedgruppe" v="infrastruktur" />
		<tag k="ssr:stedsnr" v="1062985" />
		<tag k="ssr:type" v="adressenavn" />
	</node>
	<node lat="59.39052924419325" lon="10.65834225383416" id="-24508">
		<tag k="name" v="Husebyskogen" />
		<tag k="ssr:date" v="2019-12-27" />
		<tag k="ssr:gruppe" v="veg" />
		<tag k="ssr:hovedgruppe" v="infrastruktur" />
		<tag k="ssr:stedsnr" v="1063045" />
		<tag k="ssr:type" v="adressenavn" />
	</node>
	<node lat="59.43686152823824" lon="10.666019203789011" id="-24510">
		<tag k="name" v="Torggata" />
		<tag k="ssr:date" v="2019-12-27" />
		<tag k="ssr:gruppe" v="veg" />
		<tag k="ssr:hovedgruppe" v="infrastruktur" />
		<tag k="ssr:stedsnr" v="1063053" />
		<tag k="ssr:type" v="adressenavn" />
	</node>
	<node lat="59.37794717226731" lon="10.65646394697848" id="-24512">
		<tag k="name" v="Jaktåsen" />
		<tag k="ssr:date" v="2019-12-27" />
		<tag k="ssr:gruppe" v="veg" />
		<tag k="ssr:hovedgruppe" v="infrastruktur" />
		<tag k="ssr:stedsnr" v="1063056" />
		<tag k="ssr:type" v="adressenavn" />
	</node>
	<node lat="59.4339615547592" lon="10.641394566427612" id="-24513">
		<tag k="name" v="Torderødgata" />
		<tag k="ssr:date" v="2019-12-27" />
		<tag k="ssr:gruppe" v="veg" />
		<tag k="ssr:hovedgruppe" v="infrastruktur" />
		<tag k="ssr:stedsnr" v="1063057" />
		<tag k="ssr:type" v="adressenavn" />
	</node>
	<node lat="59.43628359035435" lon="10.63164519262299" id="-24518">
		<tag k="name" v="Toppen" />
		<tag k="ssr:date" v="2019-12-27" />
		<tag k="ssr:gruppe" v="veg" />
		<tag k="ssr:hovedgruppe" v="infrastruktur" />
		<tag k="ssr:stedsnr" v="1063069" />
		<tag k="ssr:type" v="adressenavn" />
	</node>
	<node lat="59.3791515340722" lon="10.75288457485558" id="-24519">
		<tag k="name" v="Ilebakken" />
		<tag k="ssr:date" v="2019-12-27" />
		<tag k="ssr:gruppe" v="veg" />
		<tag k="ssr:hovedgruppe" v="infrastruktur" />
		<tag k="ssr:stedsnr" v="1063070" />
		<tag k="ssr:type" v="adressenavn" />
	</node>
	<node lat="59.37952376214535" lon="10.75100867171951" id="-24521">
		<tag k="name" v="Idrettsveien" />
		<tag k="ssr:date" v="2019-12-27" />
		<tag k="ssr:gruppe" v="veg" />
		<tag k="ssr:hovedgruppe" v="infrastruktur" />
		<tag k="ssr:stedsnr" v="1063076" />
		<tag k="ssr:type" v="adressenavn" />
	</node>
	<node lat="59.436646232821154" lon="10.667081995397028" id="-24522">
		<tag k="name" v="Vincents Buddes plass" />
		<tag k="ssr:date" v="2019-12-27" />
		<tag k="ssr:gruppe" v="veg" />
		<tag k="ssr:hovedgruppe" v="infrastruktur" />
		<tag k="ssr:stedsnr" v="1063080" />
		<tag k="ssr:type" v="adressenavn" />
	</node>
	<node lat="59.43900977082495" lon="10.669481541721249" id="-24526">
		<tag k="name" v="Verket" />
		<tag k="ssr:date" v="2019-12-27" />
		<tag k="ssr:gruppe" v="veg" />
		<tag k="ssr:hovedgruppe" v="infrastruktur" />
		<tag k="ssr:stedsnr" v="1063137" />
		<tag k="ssr:type" v="adressenavn" />
	</node>
	<node lat="59.310378680943174" lon="10.684994577129414" id="-24527">
		<tag k="name" v="Langstranda" />
		<tag k="ssr:date" v="2019-12-27" />
		<tag k="ssr:gruppe" v="veg" />
		<tag k="ssr:hovedgruppe" v="infrastruktur" />
		<tag k="ssr:stedsnr" v="1063143" />
		<tag k="ssr:type" v="adressenavn" />
	</node>
	<node lat="59.41233381511055" lon="10.661514570390347" id="-24531">
		<tag k="name" v="Kvileveien" />
		<tag k="ssr:date" v="2019-12-27" />
		<tag k="ssr:gruppe" v="veg" />
		<tag k="ssr:hovedgruppe" v="infrastruktur" />
		<tag k="ssr:stedsnr" v="1063158" />
		<tag k="ssr:type" v="adressenavn" />
	</node>
	<node lat="59.3449591355804" lon="10.726231246749252" id="-24532">
		<tag k="name" v="Kureveien" />
		<tag k="ssr:date" v="2019-12-27" />
		<tag k="ssr:gruppe" v="veg" />
		<tag k="ssr:hovedgruppe" v="infrastruktur" />
		<tag k="ssr:stedsnr" v="1063159" />
		<tag k="ssr:type" v="adressenavn" />
	</node>
	<node lat="59.337931191570796" lon="10.726351690557404" id="-24533">
		<tag k="name" v="Kureskjærveien" />
		<tag k="ssr:date" v="2019-12-27" />
		<tag k="ssr:gruppe" v="veg" />
		<tag k="ssr:hovedgruppe" v="infrastruktur" />
		<tag k="ssr:stedsnr" v="1063160" />
		<tag k="ssr:type" v="adressenavn" />
	</node>
	<node lat="59.33126206139319" lon="10.675953979654897" id="-24539">
		<tag k="name" v="Lystringsmyr" />
		<tag k="ssr:date" v="2019-12-27" />
		<tag k="ssr:gruppe" v="veg" />
		<tag k="ssr:hovedgruppe" v="infrastruktur" />
		<tag k="ssr:stedsnr" v="1063172" />
		<tag k="ssr:type" v="adressenavn" />
	</node>
	<node lat="59.37163101440849" lon="10.666767751774659" id="-24540">
		<tag k="name" v="Lunneveien" />
		<tag k="ssr:date" v="2019-12-27" />
		<tag k="ssr:gruppe" v="veg" />
		<tag k="ssr:hovedgruppe" v="infrastruktur" />
		<tag k="ssr:stedsnr" v="1063173" />
		<tag k="ssr:type" v="adressenavn" />
	</node>
	<node lat="59.421183155796875" lon="10.692224198549765" id="-24541">
		<tag k="name" v="Lyngstien" />
		<tag k="ssr:date" v="2019-12-27" />
		<tag k="ssr:gruppe" v="veg" />
		<tag k="ssr:hovedgruppe" v="infrastruktur" />
		<tag k="ssr:stedsnr" v="1063174" />
		<tag k="ssr:type" v="adressenavn" />
	</node>
	<node lat="59.43799810053239" lon="10.609653279974655" id="-24542">
		<tag k="name" v="Vestbrynet" />
		<tag k="ssr:date" v="2019-12-27" />
		<tag k="ssr:gruppe" v="veg" />
		<tag k="ssr:hovedgruppe" v="infrastruktur" />
		<tag k="ssr:stedsnr" v="1063177" />
		<tag k="ssr:type" v="adressenavn" />
	</node>
	<node lat="59.427292453227984" lon="10.695297530845801" id="-24543">
		<tag k="name" v="Linerleveien" />
		<tag k="ssr:date" v="2019-12-27" />
		<tag k="ssr:gruppe" v="veg" />
		<tag k="ssr:hovedgruppe" v="infrastruktur" />
		<tag k="ssr:stedsnr" v="1063180" />
		<tag k="ssr:type" v="adressenavn" />
	</node>
	<node lat="59.412107975515816" lon="10.69164992000598" id="-24544">
		<tag k="name" v="Liljefaret" />
		<tag k="ssr:date" v="2019-12-27" />
		<tag k="ssr:gruppe" v="veg" />
		<tag k="ssr:hovedgruppe" v="infrastruktur" />
		<tag k="ssr:stedsnr" v="1063181" />
		<tag k="ssr:type" v="adressenavn" />
	</node>
	<node lat="59.43403278548988" lon="10.654870318957977" id="-24545">
		<tag k="name" v="Storgata" />
		<tag k="ssr:date" v="2019-12-27" />
		<tag k="ssr:gruppe" v="veg" />
		<tag k="ssr:hovedgruppe" v="infrastruktur" />
		<tag k="ssr:stedsnr" v="1063238" />
		<tag k="ssr:type" v="adressenavn" />
	</node>
	<node lat="59.44451374952341" lon="10.681349200272782" id="-24546">
		<tag k="name" v="Storenga" />
		<tag k="ssr:date" v="2019-12-27" />
		<tag k="ssr:gruppe" v="veg" />
		<tag k="ssr:hovedgruppe" v="infrastruktur" />
		<tag k="ssr:stedsnr" v="1063239" />
		<tag k="ssr:type" v="adressenavn" />
	</node>
	<node lat="59.41301483923615" lon="10.665460885545546" id="-24547">
		<tag k="name" v="Kobberslagerveien" />
		<tag k="ssr:date" v="2019-12-27" />
		<tag k="ssr:gruppe" v="veg" />
		<tag k="ssr:hovedgruppe" v="infrastruktur" />
		<tag k="ssr:stedsnr" v="1063017" />
		<tag k="ssr:type" v="adressenavn" />
	</node>
	<node lat="59.39317956440095" lon="10.688870417600382" id="-24551">
		<tag k="name" v="Klosterveien" />
		<tag k="ssr:date" v="2019-12-27" />
		<tag k="ssr:gruppe" v="veg" />
		<tag k="ssr:hovedgruppe" v="infrastruktur" />
		<tag k="ssr:stedsnr" v="1063024" />
		<tag k="ssr:type" v="adressenavn" />
	</node>
	<node lat="59.326232765661175" lon="10.677394633009035" id="-24553">
		<tag k="name" v="Knarrebaugen" />
		<tag k="ssr:date" v="2019-12-27" />
		<tag k="ssr:gruppe" v="veg" />
		<tag k="ssr:hovedgruppe" v="infrastruktur" />
		<tag k="ssr:stedsnr" v="1063026" />
		<tag k="ssr:type" v="adressenavn" />
	</node>
	<node lat="59.45657641480343" lon="10.689972782735214" id="-24557">
		<tag k="name" v="Tråklestinget" />
		<tag k="ssr:date" v="2019-12-27" />
		<tag k="ssr:gruppe" v="veg" />
		<tag k="ssr:hovedgruppe" v="infrastruktur" />
		<tag k="ssr:stedsnr" v="1063033" />
		<tag k="ssr:type" v="adressenavn" />
	</node>
	<node lat="59.398905839701605" lon="10.74566639996812" id="-24558">
		<tag k="name" v="Kjellerødveien" />
		<tag k="ssr:date" v="2019-12-27" />
		<tag k="ssr:gruppe" v="veg" />
		<tag k="ssr:hovedgruppe" v="infrastruktur" />
		<tag k="ssr:stedsnr" v="1063034" />
		<tag k="ssr:type" v="adressenavn" />
	</node>
	<node lat="59.376418296297544" lon="10.732840401892899" id="-24559">
		<tag k="name" v="Kirkegrenda" />
		<tag k="ssr:date" v="2019-12-27" />
		<tag k="ssr:gruppe" v="veg" />
		<tag k="ssr:hovedgruppe" v="infrastruktur" />
		<tag k="ssr:stedsnr" v="1063035" />
		<tag k="ssr:type" v="adressenavn" />
	</node>
	<node lat="59.32813377794141" lon="10.671687047126127" id="-24560">
		<tag k="name" v="Morellskogen" />
		<tag k="ssr:date" v="2019-12-27" />
		<tag k="ssr:gruppe" v="veg" />
		<tag k="ssr:hovedgruppe" v="infrastruktur" />
		<tag k="ssr:stedsnr" v="1063087" />
		<tag k="ssr:type" v="adressenavn" />
	</node>
	<node lat="59.416420462762716" lon="10.67635433610228" id="-24561">
		<tag k="name" v="Midtveien" />
		<tag k="ssr:date" v="2019-12-27" />
		<tag k="ssr:gruppe" v="veg" />
		<tag k="ssr:hovedgruppe" v="infrastruktur" />
		<tag k="ssr:stedsnr" v="1063088" />
		<tag k="ssr:type" v="adressenavn" />
	</node>
	<node lat="59.43468469560124" lon="10.643954679790678" id="-24563">
		<tag k="name" v="Vidars gate" />
		<tag k="ssr:date" v="2019-12-27" />
		<tag k="ssr:gruppe" v="veg" />
		<tag k="ssr:hovedgruppe" v="infrastruktur" />
		<tag k="ssr:stedsnr" v="1063094" />
		<tag k="ssr:type" v="adressenavn" />
	</node>
	<node lat="59.4609843864948" lon="10.68983748647631" id="-24565">
		<tag k="name" v="Veverbakken" />
		<tag k="ssr:date" v="2019-12-27" />
		<tag k="ssr:gruppe" v="veg" />
		<tag k="ssr:hovedgruppe" v="infrastruktur" />
		<tag k="ssr:stedsnr" v="1063096" />
		<tag k="ssr:type" v="adressenavn" />
	</node>
	<node lat="59.433105172778795" lon="10.651646124341147" id="-24567">
		<tag k="name" v="Vestre Kanalgate" />
		<tag k="ssr:date" v="2019-12-27" />
		<tag k="ssr:gruppe" v="veg" />
		<tag k="ssr:hovedgruppe" v="infrastruktur" />
		<tag k="ssr:stedsnr" v="1063103" />
		<tag k="ssr:type" v="adressenavn" />
	</node>
	<node lat="59.31663733675802" lon="10.696501632462093" id="-24568">
		<tag k="name" v="Matrosveien" />
		<tag k="ssr:date" v="2019-12-27" />
		<tag k="ssr:gruppe" v="veg" />
		<tag k="ssr:hovedgruppe" v="infrastruktur" />
		<tag k="ssr:stedsnr" v="1063108" />
		<tag k="ssr:type" v="adressenavn" />
	</node>
	<node lat="59.43263086371284" lon="10.659710982512983" id="-24569">
		<tag k="name" v="Værlegata" />
		<tag k="ssr:date" v="2019-12-27" />
		<tag k="ssr:gruppe" v="veg" />
		<tag k="ssr:hovedgruppe" v="infrastruktur" />
		<tag k="ssr:stedsnr" v="1063109" />
		<tag k="ssr:type" v="adressenavn" />
	</node>
	<node lat="59.326454145837275" lon="10.68620512208038" id="-24570">
		<tag k="name" v="Nasleholtet" />
		<tag k="ssr:date" v="2019-12-27" />
		<tag k="ssr:gruppe" v="veg" />
		<tag k="ssr:hovedgruppe" v="infrastruktur" />
		<tag k="ssr:stedsnr" v="1063115" />
		<tag k="ssr:type" v="adressenavn" />
	</node>
	<node lat="59.43373962796125" lon="10.651525732561847" id="-24571">
		<tag k="name" v="Værftsgata" />
		<tag k="ssr:date" v="2019-12-27" />
		<tag k="ssr:gruppe" v="veg" />
		<tag k="ssr:hovedgruppe" v="infrastruktur" />
		<tag k="ssr:stedsnr" v="1063119" />
		<tag k="ssr:type" v="adressenavn" />
	</node>
	<node lat="59.406544700281955" lon="10.700179966723429" id="-24572">
		<tag k="name" v="Møllerstien" />
		<tag k="ssr:date" v="2019-12-27" />
		<tag k="ssr:gruppe" v="veg" />
		<tag k="ssr:hovedgruppe" v="infrastruktur" />
		<tag k="ssr:stedsnr" v="1063122" />
		<tag k="ssr:type" v="adressenavn" />
	</node>
	<node lat="59.43351405148204" lon="10.662949329326166" id="-24573">
		<tag k="name" v="Vogts gate" />
		<tag k="ssr:date" v="2019-12-27" />
		<tag k="ssr:gruppe" v="veg" />
		<tag k="ssr:hovedgruppe" v="infrastruktur" />
		<tag k="ssr:stedsnr" v="1063125" />
		<tag k="ssr:type" v="adressenavn" />
	</node>
	<node lat="59.414891130756914" lon="10.690567867325015" id="-24574">
		<tag k="name" v="Myraveien" />
		<tag k="ssr:date" v="2019-12-27" />
		<tag k="ssr:gruppe" v="veg" />
		<tag k="ssr:hovedgruppe" v="infrastruktur" />
		<tag k="ssr:stedsnr" v="1063128" />
		<tag k="ssr:type" v="adressenavn" />
	</node>
	<node lat="59.422958735522684" lon="10.695778089226703" id="-24576">
		<tag k="name" v="Morkelstien" />
		<tag k="ssr:date" v="2019-12-27" />
		<tag k="ssr:gruppe" v="veg" />
		<tag k="ssr:hovedgruppe" v="infrastruktur" />
		<tag k="ssr:stedsnr" v="1063132" />
		<tag k="ssr:type" v="adressenavn" />
	</node>
	<node lat="59.423069476353305" lon="10.685293807715363" id="-24577">
		<tag k="name" v="Mortveien" />
		<tag k="ssr:date" v="2019-12-27" />
		<tag k="ssr:gruppe" v="veg" />
		<tag k="ssr:hovedgruppe" v="infrastruktur" />
		<tag k="ssr:stedsnr" v="1063134" />
		<tag k="ssr:type" v="adressenavn" />
	</node>
	<node lat="59.33094697415238" lon="10.665953953356082" id="-24578">
		<tag k="name" v="Larkollveien" />
		<tag k="ssr:date" v="2019-12-27" />
		<tag k="ssr:gruppe" v="veg" />
		<tag k="ssr:hovedgruppe" v="infrastruktur" />
		<tag k="ssr:stedsnr" v="1063135" />
		<tag k="ssr:type" v="adressenavn" />
	</node>
	<node lat="59.32682907443609" lon="10.670068949153249" id="-24579">
		<tag k="name" v="Lersbauen" />
		<tag k="ssr:date" v="2019-12-27" />
		<tag k="ssr:gruppe" v="veg" />
		<tag k="ssr:hovedgruppe" v="infrastruktur" />
		<tag k="ssr:stedsnr" v="1063186" />
		<tag k="ssr:type" v="adressenavn" />
	</node>
	<node lat="59.41529706305327" lon="10.6938658073132" id="-24580">
		<tag k="name" v="Liastubben" />
		<tag k="ssr:date" v="2019-12-27" />
		<tag k="ssr:gruppe" v="veg" />
		<tag k="ssr:hovedgruppe" v="infrastruktur" />
		<tag k="ssr:stedsnr" v="1063187" />
		<tag k="ssr:type" v="adressenavn" />
	</node>
	<node lat="59.41462365751807" lon="10.692601472435978" id="-24581">
		<tag k="name" v="Liabakken" />
		<tag k="ssr:date" v="2019-12-27" />
		<tag k="ssr:gruppe" v="veg" />
		<tag k="ssr:hovedgruppe" v="infrastruktur" />
		<tag k="ssr:stedsnr" v="1063188" />
		<tag k="ssr:type" v="adressenavn" />
	</node>
	<node lat="59.44468000327013" lon="10.676870753821351" id="-24582">
		<tag k="name" v="Verksløkka" />
		<tag k="ssr:date" v="2019-12-27" />
		<tag k="ssr:gruppe" v="veg" />
		<tag k="ssr:hovedgruppe" v="infrastruktur" />
		<tag k="ssr:stedsnr" v="1063192" />
		<tag k="ssr:type" v="adressenavn" />
	</node>
	<node lat="59.37722902426568" lon="10.752682659738081" id="-24584">
		<tag k="name" v="Gatuveien" />
		<tag k="ssr:date" v="2019-12-27" />
		<tag k="ssr:gruppe" v="veg" />
		<tag k="ssr:hovedgruppe" v="infrastruktur" />
		<tag k="ssr:stedsnr" v="1063194" />
		<tag k="ssr:type" v="adressenavn" />
	</node>
	<node lat="59.42064107440027" lon="10.690566775280713" id="-24585">
		<tag k="name" v="Gaupefaret" />
		<tag k="ssr:date" v="2019-12-27" />
		<tag k="ssr:gruppe" v="veg" />
		<tag k="ssr:hovedgruppe" v="infrastruktur" />
		<tag k="ssr:stedsnr" v="1063195" />
		<tag k="ssr:type" v="adressenavn" />
	</node>
	<node lat="59.46248960292568" lon="10.691903381143169" id="-24586">
		<tag k="name" v="Spinnesiden" />
		<tag k="ssr:date" v="2019-12-27" />
		<tag k="ssr:gruppe" v="veg" />
		<tag k="ssr:hovedgruppe" v="infrastruktur" />
		<tag k="ssr:stedsnr" v="1063197" />
		<tag k="ssr:type" v="adressenavn" />
	</node>
	<node lat="59.4615988672794" lon="10.695456615591631" id="-24588">
		<tag k="name" v="Spolen" />
		<tag k="ssr:date" v="2019-12-27" />
		<tag k="ssr:gruppe" v="veg" />
		<tag k="ssr:hovedgruppe" v="infrastruktur" />
		<tag k="ssr:stedsnr" v="1063205" />
		<tag k="ssr:type" v="adressenavn" />
	</node>
	<node lat="59.34480532606764" lon="10.668966928421503" id="-24589">
		<tag k="name" v="Fyrgangen" />
		<tag k="ssr:date" v="2019-12-27" />
		<tag k="ssr:gruppe" v="veg" />
		<tag k="ssr:hovedgruppe" v="infrastruktur" />
		<tag k="ssr:stedsnr" v="1063206" />
		<tag k="ssr:type" v="adressenavn" />
	</node>
	<node lat="59.45023162028799" lon="10.69627160066347" id="-24591">
		<tag k="name" v="Solveigbakken" />
		<tag k="ssr:date" v="2019-12-27" />
		<tag k="ssr:gruppe" v="veg" />
		<tag k="ssr:hovedgruppe" v="infrastruktur" />
		<tag k="ssr:stedsnr" v="1063214" />
		<tag k="ssr:type" v="adressenavn" />
	</node>
	<node lat="59.326878464433506" lon="10.711117010104607" id="-24593">
		<tag k="name" v="Furukollen" />
		<tag k="ssr:date" v="2019-12-27" />
		<tag k="ssr:gruppe" v="veg" />
		<tag k="ssr:hovedgruppe" v="infrastruktur" />
		<tag k="ssr:stedsnr" v="1063221" />
		<tag k="ssr:type" v="adressenavn" />
	</node>
	<node lat="59.389562444154365" lon="10.65912192448168" id="-24594">
		<tag k="name" v="Fuglevikåsen" />
		<tag k="ssr:date" v="2019-12-27" />
		<tag k="ssr:gruppe" v="veg" />
		<tag k="ssr:hovedgruppe" v="infrastruktur" />
		<tag k="ssr:stedsnr" v="1063222" />
		<tag k="ssr:type" v="adressenavn" />
	</node>
	<node lat="59.41004267539853" lon="10.656862511906375" id="-24597">
		<tag k="name" v="Stranda" />
		<tag k="ssr:date" v="2019-12-27" />
		<tag k="ssr:gruppe" v="veg" />
		<tag k="ssr:hovedgruppe" v="infrastruktur" />
		<tag k="ssr:stedsnr" v="1063232" />
		<tag k="ssr:type" v="adressenavn" />
	</node>
	<node lat="59.454701496201174" lon="10.694549174624148" id="-24600">
		<tag k="name" v="Skomakerbakken" />
		<tag k="ssr:date" v="2019-12-27" />
		<tag k="ssr:gruppe" v="veg" />
		<tag k="ssr:hovedgruppe" v="infrastruktur" />
		<tag k="ssr:stedsnr" v="1063303" />
		<tag k="ssr:type" v="adressenavn" />
	</node>
	<node lat="59.329909346121724" lon="10.676515058775578" id="-24601">
		<tag k="name" v="Fjellgangen" />
		<tag k="ssr:date" v="2019-12-27" />
		<tag k="ssr:gruppe" v="veg" />
		<tag k="ssr:hovedgruppe" v="infrastruktur" />
		<tag k="ssr:stedsnr" v="1063304" />
		<tag k="ssr:type" v="adressenavn" />
	</node>
	<node lat="59.46975685810623" lon="10.691675267217699" id="-24602">
		<tag k="name" v="Skoleåsen" />
		<tag k="ssr:date" v="2019-12-27" />
		<tag k="ssr:gruppe" v="veg" />
		<tag k="ssr:hovedgruppe" v="infrastruktur" />
		<tag k="ssr:stedsnr" v="1063305" />
		<tag k="ssr:type" v="adressenavn" />
	</node>
	<node lat="59.387448831673" lon="10.654801122336192" id="-24603">
		<tag k="name" v="Finnebingen" />
		<tag k="ssr:date" v="2019-12-27" />
		<tag k="ssr:gruppe" v="veg" />
		<tag k="ssr:hovedgruppe" v="infrastruktur" />
		<tag k="ssr:stedsnr" v="1063309" />
		<tag k="ssr:type" v="adressenavn" />
	</node>
	<node lat="59.43054192522825" lon="10.66554191280642" id="-24604">
		<tag k="name" v="Skolegata" />
		<tag k="ssr:date" v="2019-12-27" />
		<tag k="ssr:gruppe" v="veg" />
		<tag k="ssr:hovedgruppe" v="infrastruktur" />
		<tag k="ssr:stedsnr" v="1063311" />
		<tag k="ssr:type" v="adressenavn" />
	</node>
	<node lat="59.47008617746456" lon="10.690102436123622" id="-24605">
		<tag k="name" v="Skolebakken" />
		<tag k="ssr:date" v="2019-12-27" />
		<tag k="ssr:gruppe" v="veg" />
		<tag k="ssr:hovedgruppe" v="infrastruktur" />
		<tag k="ssr:stedsnr" v="1063321" />
		<tag k="ssr:type" v="adressenavn" />
	</node>
	<node lat="59.439045203634116" lon="10.702133309266346" id="-24607">
		<tag k="name" v="Solgaard skog" />
		<tag k="ssr:date" v="2019-12-27" />
		<tag k="ssr:gruppe" v="veg" />
		<tag k="ssr:hovedgruppe" v="infrastruktur" />
		<tag k="ssr:stedsnr" v="1063330" />
		<tag k="ssr:type" v="adressenavn" />
	</node>
	<node lat="59.39225453482644" lon="10.671720880251941" id="-24608">
		<tag k="name" v="Fuglevikveien" />
		<tag k="ssr:date" v="2019-12-27" />
		<tag k="ssr:gruppe" v="veg" />
		<tag k="ssr:hovedgruppe" v="infrastruktur" />
		<tag k="ssr:stedsnr" v="1063331" />
		<tag k="ssr:type" v="adressenavn" />
	</node>
	<node lat="59.420728433327" lon="10.681376892434118" id="-24609">
		<tag k="name" v="Solielunden" />
		<tag k="ssr:date" v="2019-12-27" />
		<tag k="ssr:gruppe" v="veg" />
		<tag k="ssr:hovedgruppe" v="infrastruktur" />
		<tag k="ssr:stedsnr" v="1063334" />
		<tag k="ssr:type" v="adressenavn" />
	</node>
	<node lat="59.39191744204917" lon="10.650274678434972" id="-24612">
		<tag k="name" v="Hjørnestien" />
		<tag k="ssr:date" v="2019-12-27" />
		<tag k="ssr:gruppe" v="veg" />
		<tag k="ssr:hovedgruppe" v="infrastruktur" />
		<tag k="ssr:stedsnr" v="1063400" />
		<tag k="ssr:type" v="adressenavn" />
	</node>
	<node lat="59.417002805420104" lon="10.686819109192655" id="-24615">
		<tag k="name" v="Helgedalen" />
		<tag k="ssr:date" v="2019-12-27" />
		<tag k="ssr:gruppe" v="veg" />
		<tag k="ssr:hovedgruppe" v="infrastruktur" />
		<tag k="ssr:stedsnr" v="1063418" />
		<tag k="ssr:type" v="adressenavn" />
	</node>
	<node lat="59.42561388154962" lon="10.694026852579244" id="-24616">
		<tag k="name" v="Heireveien" />
		<tag k="ssr:date" v="2019-12-27" />
		<tag k="ssr:gruppe" v="veg" />
		<tag k="ssr:hovedgruppe" v="infrastruktur" />
		<tag k="ssr:stedsnr" v="1063422" />
		<tag k="ssr:type" v="adressenavn" />
	</node>
	<node lat="59.432557484087" lon="10.654412127501487" id="-24617">
		<tag k="name" v="Sykehusgata" />
		<tag k="ssr:date" v="2019-12-27" />
		<tag k="ssr:gruppe" v="veg" />
		<tag k="ssr:hovedgruppe" v="infrastruktur" />
		<tag k="ssr:stedsnr" v="1063429" />
		<tag k="ssr:type" v="adressenavn" />
	</node>
	<node lat="59.3250190174901" lon="10.673343657996343" id="-24618">
		<tag k="name" v="Hagastien" />
		<tag k="ssr:date" v="2019-12-27" />
		<tag k="ssr:gruppe" v="veg" />
		<tag k="ssr:hovedgruppe" v="infrastruktur" />
		<tag k="ssr:stedsnr" v="1063430" />
		<tag k="ssr:type" v="adressenavn" />
	</node>
	<node lat="59.431667063600656" lon="10.654445106883333" id="-24623">
		<tag k="name" v="Stengata" />
		<tag k="ssr:date" v="2019-12-27" />
		<tag k="ssr:gruppe" v="veg" />
		<tag k="ssr:hovedgruppe" v="infrastruktur" />
		<tag k="ssr:stedsnr" v="1063257" />
		<tag k="ssr:type" v="adressenavn" />
	</node>
	<node lat="59.433725593158414" lon="10.633724880088211" id="-24626">
		<tag k="name" v="Steinbruddet" />
		<tag k="ssr:date" v="2019-12-27" />
		<tag k="ssr:gruppe" v="veg" />
		<tag k="ssr:hovedgruppe" v="infrastruktur" />
		<tag k="ssr:stedsnr" v="1063265" />
		<tag k="ssr:type" v="adressenavn" />
	</node>
	<node lat="59.42335850936661" lon="10.688419787526628" id="-24627">
		<tag k="name" v="Gjeddeveien" />
		<tag k="ssr:date" v="2019-12-27" />
		<tag k="ssr:gruppe" v="veg" />
		<tag k="ssr:hovedgruppe" v="infrastruktur" />
		<tag k="ssr:stedsnr" v="1063266" />
		<tag k="ssr:type" v="adressenavn" />
	</node>
	<node lat="59.43938191280796" lon="10.689995093542873" id="-24628">
		<tag k="name" v="Slalåmbakken" />
		<tag k="ssr:date" v="2019-12-27" />
		<tag k="ssr:gruppe" v="veg" />
		<tag k="ssr:hovedgruppe" v="infrastruktur" />
		<tag k="ssr:stedsnr" v="1063273" />
		<tag k="ssr:type" v="adressenavn" />
	</node>
	<node lat="59.32376946240103" lon="10.692395862443162" id="-24629">
		<tag k="name" v="Florane" />
		<tag k="ssr:date" v="2019-12-27" />
		<tag k="ssr:gruppe" v="veg" />
		<tag k="ssr:hovedgruppe" v="infrastruktur" />
		<tag k="ssr:stedsnr" v="1063274" />
		<tag k="ssr:type" v="adressenavn" />
	</node>
	<node lat="59.4633214610075" lon="10.693730156653697" id="-24630">
		<tag k="name" v="Skyttelen" />
		<tag k="ssr:date" v="2019-12-27" />
		<tag k="ssr:gruppe" v="veg" />
		<tag k="ssr:hovedgruppe" v="infrastruktur" />
		<tag k="ssr:stedsnr" v="1063283" />
		<tag k="ssr:type" v="adressenavn" />
	</node>
	<node lat="59.41607509539485" lon="10.69106926596543" id="-24631">
		<tag k="name" v="Fjellom" />
		<tag k="ssr:date" v="2019-12-27" />
		<tag k="ssr:gruppe" v="veg" />
		<tag k="ssr:hovedgruppe" v="infrastruktur" />
		<tag k="ssr:stedsnr" v="1063284" />
		<tag k="ssr:type" v="adressenavn" />
	</node>
	<node lat="59.45670616724266" lon="10.698019177324932" id="-24635">
		<tag k="name" v="Snekkerfaret" />
		<tag k="ssr:date" v="2019-12-27" />
		<tag k="ssr:gruppe" v="veg" />
		<tag k="ssr:hovedgruppe" v="infrastruktur" />
		<tag k="ssr:stedsnr" v="1063350" />
		<tag k="ssr:type" v="adressenavn" />
	</node>
	<node lat="59.42085407832553" lon="10.706588741178038" id="-24636">
		<tag k="name" v="Frydenlundveien" />
		<tag k="ssr:date" v="2019-12-27" />
		<tag k="ssr:gruppe" v="veg" />
		<tag k="ssr:hovedgruppe" v="infrastruktur" />
		<tag k="ssr:stedsnr" v="1063353" />
		<tag k="ssr:type" v="adressenavn" />
	</node>
	<node lat="59.383983849912866" lon="10.747537977795849" id="-24637">
		<tag k="name" v="Flyplassveien" />
		<tag k="ssr:date" v="2019-12-27" />
		<tag k="ssr:gruppe" v="veg" />
		<tag k="ssr:hovedgruppe" v="infrastruktur" />
		<tag k="ssr:stedsnr" v="1063359" />
		<tag k="ssr:type" v="adressenavn" />
	</node>
	<node lat="59.43255760124949" lon="10.65477716294084" id="-24639">
		<tag k="name" v="Smedgata" />
		<tag k="ssr:date" v="2019-12-27" />
		<tag k="ssr:gruppe" v="veg" />
		<tag k="ssr:hovedgruppe" v="infrastruktur" />
		<tag k="ssr:stedsnr" v="1063367" />
		<tag k="ssr:type" v="adressenavn" />
	</node>
	<node lat="59.43204817686762" lon="10.681909503036644" id="-24642">
		<tag k="name" v="Søndre Elvegate" />
		<tag k="ssr:date" v="2019-12-27" />
		<tag k="ssr:gruppe" v="veg" />
		<tag k="ssr:hovedgruppe" v="infrastruktur" />
		<tag k="ssr:stedsnr" v="1063380" />
		<tag k="ssr:type" v="adressenavn" />
	</node>
	<node lat="59.459416336111445" lon="10.693227838920748" id="-24643">
		<tag k="name" v="Sømmen" />
		<tag k="ssr:date" v="2019-12-27" />
		<tag k="ssr:gruppe" v="veg" />
		<tag k="ssr:hovedgruppe" v="infrastruktur" />
		<tag k="ssr:stedsnr" v="1063382" />
		<tag k="ssr:type" v="adressenavn" />
	</node>
	<node lat="59.42099118091284" lon="10.703790451434946" id="-24645">
		<tag k="name" v="Hananveien" />
		<tag k="ssr:date" v="2019-12-27" />
		<tag k="ssr:gruppe" v="veg" />
		<tag k="ssr:hovedgruppe" v="infrastruktur" />
		<tag k="ssr:stedsnr" v="1063488" />
		<tag k="ssr:type" v="adressenavn" />
	</node>
	<node lat="59.411243705726136" lon="10.69159229665258" id="-24646">
		<tag k="name" v="Hadelandsveien" />
		<tag k="ssr:date" v="2019-12-27" />
		<tag k="ssr:gruppe" v="veg" />
		<tag k="ssr:hovedgruppe" v="infrastruktur" />
		<tag k="ssr:stedsnr" v="1063491" />
		<tag k="ssr:type" v="adressenavn" />
	</node>
	<node lat="59.42279452153066" lon="10.703775092244314" id="-24647">
		<tag k="name" v="Hananbakken" />
		<tag k="ssr:date" v="2019-12-27" />
		<tag k="ssr:gruppe" v="veg" />
		<tag k="ssr:hovedgruppe" v="infrastruktur" />
		<tag k="ssr:stedsnr" v="1063493" />
		<tag k="ssr:type" v="adressenavn" />
	</node>
	<node lat="59.43449699157961" lon="10.646707990902987" id="-24649">
		<tag k="name" v="Sverres gate" />
		<tag k="ssr:date" v="2019-12-27" />
		<tag k="ssr:gruppe" v="veg" />
		<tag k="ssr:hovedgruppe" v="infrastruktur" />
		<tag k="ssr:stedsnr" v="1063496" />
		<tag k="ssr:type" v="adressenavn" />
	</node>
	<node lat="59.427595082789864" lon="10.638360296349942" id="-24653">
		<tag k="name" v="Strandpromenaden" />
		<tag k="ssr:date" v="2019-12-27" />
		<tag k="ssr:gruppe" v="veg" />
		<tag k="ssr:hovedgruppe" v="infrastruktur" />
		<tag k="ssr:stedsnr" v="1063474" />
		<tag k="ssr:type" v="adressenavn" />
	</node>
	<node lat="59.430198921978494" lon="10.658773963644768" id="-24654">
		<tag k="name" v="Strandgata" />
		<tag k="ssr:date" v="2019-12-27" />
		<tag k="ssr:gruppe" v="veg" />
		<tag k="ssr:hovedgruppe" v="infrastruktur" />
		<tag k="ssr:stedsnr" v="1063479" />
		<tag k="ssr:type" v="adressenavn" />
	</node>
	<node lat="59.43199873749532" lon="10.682072901543128" id="-24655">
		<tag k="name" v="Svingen" />
		<tag k="ssr:date" v="2019-12-27" />
		<tag k="ssr:gruppe" v="veg" />
		<tag k="ssr:hovedgruppe" v="infrastruktur" />
		<tag k="ssr:stedsnr" v="1063480" />
		<tag k="ssr:type" v="adressenavn" />
	</node>
	<node lat="59.33517781239121" lon="10.717681391139394" id="-24656">
		<tag k="name" v="Hallingsåsen" />
		<tag k="ssr:date" v="2019-12-27" />
		<tag k="ssr:gruppe" v="veg" />
		<tag k="ssr:hovedgruppe" v="infrastruktur" />
		<tag k="ssr:stedsnr" v="1063481" />
		<tag k="ssr:type" v="adressenavn" />
	</node>
	<node lat="59.38392616536966" lon="10.749434664459764" id="-24657">
		<tag k="name" v="Halmstadveien" />
		<tag k="ssr:date" v="2019-12-27" />
		<tag k="ssr:gruppe" v="veg" />
		<tag k="ssr:hovedgruppe" v="infrastruktur" />
		<tag k="ssr:stedsnr" v="1063484" />
		<tag k="ssr:type" v="adressenavn" />
	</node>
	<node lat="59.33706572783075" lon="10.71660203323623" id="-24658">
		<tag k="name" v="Hakkeråsen" />
		<tag k="ssr:date" v="2019-12-27" />
		<tag k="ssr:gruppe" v="veg" />
		<tag k="ssr:hovedgruppe" v="infrastruktur" />
		<tag k="ssr:stedsnr" v="1063485" />
		<tag k="ssr:type" v="adressenavn" />
	</node>
	<node lat="59.38144912969863" lon="10.753881579784936" id="-24659">
		<tag k="name" v="Ryggeraet" />
		<tag k="ssr:date" v="2019-12-27" />
		<tag k="ssr:gruppe" v="veg" />
		<tag k="ssr:hovedgruppe" v="infrastruktur" />
		<tag k="ssr:stedsnr" v="1063537" />
		<tag k="ssr:type" v="adressenavn" />
	</node>
	<node lat="59.32524272615907" lon="10.688723765864653" id="-24661">
		<tag k="name" v="Rothbakken" />
		<tag k="ssr:date" v="2019-12-27" />
		<tag k="ssr:gruppe" v="veg" />
		<tag k="ssr:hovedgruppe" v="infrastruktur" />
		<tag k="ssr:stedsnr" v="1063542" />
		<tag k="ssr:type" v="adressenavn" />
	</node>
	<node lat="59.41334429298023" lon="10.692108304809413" id="-24663">
		<tag k="name" v="Roseveien" />
		<tag k="ssr:date" v="2019-12-27" />
		<tag k="ssr:gruppe" v="veg" />
		<tag k="ssr:hovedgruppe" v="infrastruktur" />
		<tag k="ssr:stedsnr" v="1063546" />
		<tag k="ssr:type" v="adressenavn" />
	</node>
	<node lat="59.42119172715136" lon="10.693790037883321" id="-24666">
		<tag k="name" v="Riskestien" />
		<tag k="ssr:date" v="2019-12-27" />
		<tag k="ssr:gruppe" v="veg" />
		<tag k="ssr:hovedgruppe" v="infrastruktur" />
		<tag k="ssr:stedsnr" v="1063551" />
		<tag k="ssr:type" v="adressenavn" />
	</node>
	<node lat="59.38399852989461" lon="10.749640616193272" id="-24667">
		<tag k="name" v="Raveien" />
		<tag k="ssr:date" v="2019-12-27" />
		<tag k="ssr:gruppe" v="veg" />
		<tag k="ssr:hovedgruppe" v="infrastruktur" />
		<tag k="ssr:stedsnr" v="1063552" />
		<tag k="ssr:type" v="adressenavn" />
	</node>
	<node lat="59.41079837522198" lon="10.684745127625103" id="-24669">
		<tag k="name" v="Perstubben" />
		<tag k="ssr:date" v="2019-12-27" />
		<tag k="ssr:gruppe" v="veg" />
		<tag k="ssr:hovedgruppe" v="infrastruktur" />
		<tag k="ssr:stedsnr" v="1063562" />
		<tag k="ssr:type" v="adressenavn" />
	</node>
	<node lat="59.41166609246153" lon="10.689680993111587" id="-24670">
		<tag k="name" v="Persvei" />
		<tag k="ssr:date" v="2019-12-27" />
		<tag k="ssr:gruppe" v="veg" />
		<tag k="ssr:hovedgruppe" v="infrastruktur" />
		<tag k="ssr:stedsnr" v="1063565" />
		<tag k="ssr:type" v="adressenavn" />
	</node>
	<node lat="59.42247513525663" lon="10.691431401215851" id="-24671">
		<tag k="name" v="Rådyrfaret" />
		<tag k="ssr:date" v="2019-12-27" />
		<tag k="ssr:gruppe" v="veg" />
		<tag k="ssr:hovedgruppe" v="infrastruktur" />
		<tag k="ssr:stedsnr" v="1063569" />
		<tag k="ssr:type" v="adressenavn" />
	</node>
	<node lat="59.385341811588276" lon="10.657328558792061" id="-24673">
		<tag k="name" v="Plassveien" />
		<tag k="ssr:date" v="2019-12-27" />
		<tag k="ssr:gruppe" v="veg" />
		<tag k="ssr:hovedgruppe" v="infrastruktur" />
		<tag k="ssr:stedsnr" v="1063584" />
		<tag k="ssr:type" v="adressenavn" />
	</node>
	<node lat="59.38849748569166" lon="10.764529002756188" id="-24674">
		<tag k="name" v="Rådeskogen" />
		<tag k="ssr:date" v="2019-12-27" />
		<tag k="ssr:gruppe" v="veg" />
		<tag k="ssr:hovedgruppe" v="infrastruktur" />
		<tag k="ssr:stedsnr" v="1063639" />
		<tag k="ssr:type" v="adressenavn" />
	</node>
	<node lat="59.32298979474319" lon="10.674545091338224" id="-24675">
		<tag k="name" v="Rørvikveien" />
		<tag k="ssr:date" v="2019-12-27" />
		<tag k="ssr:gruppe" v="veg" />
		<tag k="ssr:hovedgruppe" v="infrastruktur" />
		<tag k="ssr:stedsnr" v="1063643" />
		<tag k="ssr:type" v="adressenavn" />
	</node>
	<node lat="59.42423368175355" lon="10.692125375236571" id="-24676">
		<tag k="name" v="Rødstrupeveien" />
		<tag k="ssr:date" v="2019-12-27" />
		<tag k="ssr:gruppe" v="veg" />
		<tag k="ssr:hovedgruppe" v="infrastruktur" />
		<tag k="ssr:stedsnr" v="1063644" />
		<tag k="ssr:type" v="adressenavn" />
	</node>
	<node lat="59.37501601149295" lon="10.76907079382228" id="-24677">
		<tag k="name" v="Rørskogen" />
		<tag k="ssr:date" v="2019-12-27" />
		<tag k="ssr:gruppe" v="veg" />
		<tag k="ssr:hovedgruppe" v="infrastruktur" />
		<tag k="ssr:stedsnr" v="1063646" />
		<tag k="ssr:type" v="adressenavn" />
	</node>
	<node lat="59.37797085781264" lon="10.765366261727925" id="-24678">
		<tag k="name" v="Rygge haveby" />
		<tag k="ssr:date" v="2019-12-27" />
		<tag k="ssr:gruppe" v="veg" />
		<tag k="ssr:hovedgruppe" v="infrastruktur" />
		<tag k="ssr:stedsnr" v="1063650" />
		<tag k="ssr:type" v="adressenavn" />
	</node>
	<node lat="59.327759860476554" lon="10.677020852698615" id="-24679">
		<tag k="name" v="Seljeholtet" />
		<tag k="ssr:date" v="2019-12-27" />
		<tag k="ssr:gruppe" v="veg" />
		<tag k="ssr:hovedgruppe" v="infrastruktur" />
		<tag k="ssr:stedsnr" v="1063654" />
		<tag k="ssr:type" v="adressenavn" />
	</node>
	<node lat="59.322142387512166" lon="10.702402292654824" id="-24680">
		<tag k="name" v="Sarpemyrveien" />
		<tag k="ssr:date" v="2019-12-27" />
		<tag k="ssr:gruppe" v="veg" />
		<tag k="ssr:hovedgruppe" v="infrastruktur" />
		<tag k="ssr:stedsnr" v="1063662" />
		<tag k="ssr:type" v="adressenavn" />
	</node>
	<node lat="59.412888834069626" lon="10.690568835132847" id="-24681">
		<tag k="name" v="Sandveien" />
		<tag k="ssr:date" v="2019-12-27" />
		<tag k="ssr:gruppe" v="veg" />
		<tag k="ssr:hovedgruppe" v="infrastruktur" />
		<tag k="ssr:stedsnr" v="1063669" />
		<tag k="ssr:type" v="adressenavn" />
	</node>
	<node lat="59.3220912011072" lon="10.694788831586676" id="-24683">
		<tag k="name" v="Saltboveien" />
		<tag k="ssr:date" v="2019-12-27" />
		<tag k="ssr:gruppe" v="veg" />
		<tag k="ssr:hovedgruppe" v="infrastruktur" />
		<tag k="ssr:stedsnr" v="1063672" />
		<tag k="ssr:type" v="adressenavn" />
	</node>
	<node lat="59.42223780107555" lon="10.681539362021192" id="-24685">
		<tag k="name" v="Ørelunden" />
		<tag k="ssr:date" v="2019-12-27" />
		<tag k="ssr:gruppe" v="veg" />
		<tag k="ssr:hovedgruppe" v="infrastruktur" />
		<tag k="ssr:stedsnr" v="1063680" />
		<tag k="ssr:type" v="adressenavn" />
	</node>
	<node lat="59.436341932201344" lon="10.660671346509492" id="-24686">
		<tag k="name" v="Sundstredet" />
		<tag k="ssr:date" v="2019-12-27" />
		<tag k="ssr:gruppe" v="veg" />
		<tag k="ssr:hovedgruppe" v="infrastruktur" />
		<tag k="ssr:stedsnr" v="1063505" />
		<tag k="ssr:type" v="adressenavn" />
	</node>
	<node lat="59.4253217485401" lon="10.69171688246181" id="-24687">
		<tag k="name" v="Gulspurvveien" />
		<tag k="ssr:date" v="2019-12-27" />
		<tag k="ssr:gruppe" v="veg" />
		<tag k="ssr:hovedgruppe" v="infrastruktur" />
		<tag k="ssr:stedsnr" v="1063506" />
		<tag k="ssr:type" v="adressenavn" />
	</node>
	<node lat="59.38568670362755" lon="10.682174092128049" id="-24688">
		<tag k="name" v="Gullfunnet" />
		<tag k="ssr:date" v="2019-12-27" />
		<tag k="ssr:gruppe" v="veg" />
		<tag k="ssr:hovedgruppe" v="infrastruktur" />
		<tag k="ssr:stedsnr" v="1063508" />
		<tag k="ssr:type" v="adressenavn" />
	</node>
	<node lat="59.415241783110304" lon="10.669968963232451" id="-24689">
		<tag k="name" v="Gubbeskogveien" />
		<tag k="ssr:date" v="2019-12-27" />
		<tag k="ssr:gruppe" v="veg" />
		<tag k="ssr:hovedgruppe" v="infrastruktur" />
		<tag k="ssr:stedsnr" v="1063509" />
		<tag k="ssr:type" v="adressenavn" />
	</node>
	<node lat="59.42340991569845" lon="10.693266084132704" id="-24690">
		<tag k="name" v="Grønnspettveien" />
		<tag k="ssr:date" v="2019-12-27" />
		<tag k="ssr:gruppe" v="veg" />
		<tag k="ssr:hovedgruppe" v="infrastruktur" />
		<tag k="ssr:stedsnr" v="1063513" />
		<tag k="ssr:type" v="adressenavn" />
	</node>
	<node lat="59.324918519005486" lon="10.69109805222733" id="-24691">
		<tag k="name" v="Grefsrødveien" />
		<tag k="ssr:date" v="2019-12-27" />
		<tag k="ssr:gruppe" v="veg" />
		<tag k="ssr:hovedgruppe" v="infrastruktur" />
		<tag k="ssr:stedsnr" v="1063516" />
		<tag k="ssr:type" v="adressenavn" />
	</node>
	<node lat="59.42340991569845" lon="10.693266084132704" id="-24692">
		<tag k="name" v="Grågåsveien" />
		<tag k="ssr:date" v="2019-12-27" />
		<tag k="ssr:gruppe" v="veg" />
		<tag k="ssr:hovedgruppe" v="infrastruktur" />
		<tag k="ssr:stedsnr" v="1063517" />
		<tag k="ssr:type" v="adressenavn" />
	</node>
	<node lat="59.384393539559944" lon="10.748270937644508" id="-24693">
		<tag k="name" v="Raskogen" />
		<tag k="ssr:date" v="2019-12-27" />
		<tag k="ssr:gruppe" v="veg" />
		<tag k="ssr:hovedgruppe" v="infrastruktur" />
		<tag k="ssr:stedsnr" v="1063519" />
		<tag k="ssr:type" v="adressenavn" />
	</node>
	<node lat="59.39500684752197" lon="10.735855021576345" id="-24695">
		<tag k="name" v="Pålebingen" />
		<tag k="ssr:date" v="2019-12-27" />
		<tag k="ssr:gruppe" v="veg" />
		<tag k="ssr:hovedgruppe" v="infrastruktur" />
		<tag k="ssr:stedsnr" v="1063530" />
		<tag k="ssr:type" v="adressenavn" />
	</node>
	<node lat="59.37709582402841" lon="10.727724028999045" id="-24696">
		<tag k="name" v="Prestegårdshavna" />
		<tag k="ssr:date" v="2019-12-27" />
		<tag k="ssr:gruppe" v="veg" />
		<tag k="ssr:hovedgruppe" v="infrastruktur" />
		<tag k="ssr:stedsnr" v="1063531" />
		<tag k="ssr:type" v="adressenavn" />
	</node>
	<node lat="59.37846539394011" lon="10.75790482660823" id="-24697">
		<tag k="name" v="Posthusveien" />
		<tag k="ssr:date" v="2019-12-27" />
		<tag k="ssr:gruppe" v="veg" />
		<tag k="ssr:hovedgruppe" v="infrastruktur" />
		<tag k="ssr:stedsnr" v="1063535" />
		<tag k="ssr:type" v="adressenavn" />
	</node>
	<node lat="59.399941703485936" lon="10.72302198383776" id="-24698">
		<tag k="name" v="Sivveien" />
		<tag k="ssr:date" v="2019-12-27" />
		<tag k="ssr:gruppe" v="veg" />
		<tag k="ssr:hovedgruppe" v="infrastruktur" />
		<tag k="ssr:stedsnr" v="1063594" />
		<tag k="ssr:type" v="adressenavn" />
	</node>
	<node lat="59.32676747111372" lon="10.713288322808603" id="-24699">
		<tag k="name" v="Sildebaugen" />
		<tag k="ssr:date" v="2019-12-27" />
		<tag k="ssr:gruppe" v="veg" />
		<tag k="ssr:hovedgruppe" v="infrastruktur" />
		<tag k="ssr:stedsnr" v="1063603" />
		<tag k="ssr:type" v="adressenavn" />
	</node>
	<node lat="59.32721916320185" lon="10.679991366997768" id="-24700">
		<tag k="name" v="Skoglyveien" />
		<tag k="ssr:date" v="2019-12-27" />
		<tag k="ssr:gruppe" v="veg" />
		<tag k="ssr:hovedgruppe" v="infrastruktur" />
		<tag k="ssr:stedsnr" v="1063612" />
		<tag k="ssr:type" v="adressenavn" />
	</node>
	<node lat="59.37856688365012" lon="10.765887478461138" id="-24701">
		<tag k="name" v="Skogfaret" />
		<tag k="ssr:date" v="2019-12-27" />
		<tag k="ssr:gruppe" v="veg" />
		<tag k="ssr:hovedgruppe" v="infrastruktur" />
		<tag k="ssr:stedsnr" v="1063620" />
		<tag k="ssr:type" v="adressenavn" />
	</node>
	<node lat="59.394739171210205" lon="10.649489308874806" id="-24702">
		<tag k="name" v="Skaret" />
		<tag k="ssr:date" v="2019-12-27" />
		<tag k="ssr:gruppe" v="veg" />
		<tag k="ssr:hovedgruppe" v="infrastruktur" />
		<tag k="ssr:stedsnr" v="1063627" />
		<tag k="ssr:type" v="adressenavn" />
	</node>
	<node lat="59.43396144307751" lon="10.649489779186972" id="-24703">
		<tag k="name" v="Øisteins gate" />
		<tag k="ssr:date" v="2019-12-27" />
		<tag k="ssr:gruppe" v="veg" />
		<tag k="ssr:hovedgruppe" v="infrastruktur" />
		<tag k="ssr:stedsnr" v="1063686" />
		<tag k="ssr:type" v="adressenavn" />
	</node>
	<node lat="59.41165320409697" lon="10.662893441367446" id="-24704">
		<tag k="name" v="Nordskogveien" />
		<tag k="ssr:date" v="2019-12-27" />
		<tag k="ssr:gruppe" v="veg" />
		<tag k="ssr:hovedgruppe" v="infrastruktur" />
		<tag k="ssr:stedsnr" v="1063689" />
		<tag k="ssr:type" v="adressenavn" />
	</node>
	<node lat="59.43562549544996" lon="10.668757227194789" id="-24706">
		<tag k="name" v="Wulfsbergs gate" />
		<tag k="ssr:date" v="2019-12-27" />
		<tag k="ssr:gruppe" v="veg" />
		<tag k="ssr:hovedgruppe" v="infrastruktur" />
		<tag k="ssr:stedsnr" v="1063698" />
		<tag k="ssr:type" v="adressenavn" />
	</node>
	<node lat="59.429382552600984" lon="10.669972317434329" id="-24707">
		<tag k="name" v="Øvre gate" />
		<tag k="ssr:date" v="2019-12-27" />
		<tag k="ssr:gruppe" v="veg" />
		<tag k="ssr:hovedgruppe" v="infrastruktur" />
		<tag k="ssr:stedsnr" v="1063699" />
		<tag k="ssr:type" v="adressenavn" />
	</node>
	<node lat="59.42566461289029" lon="10.68291810714121" id="-24708">
		<tag k="name" v="Østre Øre" />
		<tag k="ssr:date" v="2019-12-27" />
		<tag k="ssr:gruppe" v="veg" />
		<tag k="ssr:hovedgruppe" v="infrastruktur" />
		<tag k="ssr:stedsnr" v="1063703" />
		<tag k="ssr:type" v="adressenavn" />
	</node>
	<node lat="59.43525924566396" lon="10.631331546255666" id="-24709">
		<tag k="name" v="Østsynet" />
		<tag k="ssr:date" v="2019-12-27" />
		<tag k="ssr:gruppe" v="veg" />
		<tag k="ssr:hovedgruppe" v="infrastruktur" />
		<tag k="ssr:stedsnr" v="1063704" />
		<tag k="ssr:type" v="adressenavn" />
	</node>
	<node lat="59.43309031508476" lon="10.65357387754143" id="-24711">
		<tag k="name" v="Østre Kanalgate" />
		<tag k="ssr:date" v="2019-12-27" />
		<tag k="ssr:gruppe" v="veg" />
		<tag k="ssr:hovedgruppe" v="infrastruktur" />
		<tag k="ssr:stedsnr" v="1063708" />
		<tag k="ssr:type" v="adressenavn" />
	</node>
	<node lat="59.4171705570128" lon="10.658234438971755" id="-24714">
		<tag k="name" v="Norrønaveien" />
		<tag k="ssr:date" v="2019-12-27" />
		<tag k="ssr:gruppe" v="veg" />
		<tag k="ssr:hovedgruppe" v="infrastruktur" />
		<tag k="ssr:stedsnr" v="1063714" />
		<tag k="ssr:type" v="adressenavn" />
	</node>
	<node lat="59.310641621232634" lon="10.685881235829951" id="-24716">
		<tag k="name" v="Nesetveien" />
		<tag k="ssr:date" v="2019-12-27" />
		<tag k="ssr:gruppe" v="veg" />
		<tag k="ssr:hovedgruppe" v="infrastruktur" />
		<tag k="ssr:stedsnr" v="1063722" />
		<tag k="ssr:type" v="adressenavn" />
	</node>
	<node lat="59.433567125863426" lon="10.65490186679027" id="-24717">
		<tag k="name" v="Værlesands bakgate" />
		<tag k="ssr:date" v="2019-12-27" />
		<tag k="ssr:gruppe" v="veg" />
		<tag k="ssr:hovedgruppe" v="infrastruktur" />
		<tag k="ssr:stedsnr" v="1063725" />
		<tag k="ssr:type" v="adressenavn" />
	</node>
	<node lat="59.382693028012326" lon="10.751988000121667" id="-24718">
		<tag k="name" v="Nedre vestlia" />
		<tag k="ssr:date" v="2019-12-27" />
		<tag k="ssr:gruppe" v="veg" />
		<tag k="ssr:hovedgruppe" v="infrastruktur" />
		<tag k="ssr:stedsnr" v="1063726" />
		<tag k="ssr:type" v="adressenavn" />
	</node>
	<node lat="59.37452285918163" lon="10.769280315275651" id="-24719">
		<tag k="name" v="Parkveien" />
		<tag k="ssr:date" v="2019-12-27" />
		<tag k="ssr:gruppe" v="veg" />
		<tag k="ssr:hovedgruppe" v="infrastruktur" />
		<tag k="ssr:stedsnr" v="1063790" />
		<tag k="ssr:type" v="adressenavn" />
	</node>
	<node lat="59.43967338951818" lon="10.624337505534651" id="-24722">
		<tag k="name" v="Åslia" />
		<tag k="ssr:date" v="2019-12-27" />
		<tag k="ssr:gruppe" v="veg" />
		<tag k="ssr:hovedgruppe" v="infrastruktur" />
		<tag k="ssr:stedsnr" v="1063803" />
		<tag k="ssr:type" v="adressenavn" />
	</node>
	<node lat="59.4435637181011" lon="10.617618537704207" id="-24723">
		<tag k="name" v="Åkerfaret" />
		<tag k="ssr:date" v="2019-12-27" />
		<tag k="ssr:gruppe" v="veg" />
		<tag k="ssr:hovedgruppe" v="infrastruktur" />
		<tag k="ssr:stedsnr" v="1063804" />
		<tag k="ssr:type" v="adressenavn" />
	</node>
	<node lat="59.4292162529145" lon="10.680423457689624" id="-24724">
		<tag k="name" v="Ørehavna" />
		<tag k="ssr:date" v="2019-12-27" />
		<tag k="ssr:gruppe" v="veg" />
		<tag k="ssr:hovedgruppe" v="infrastruktur" />
		<tag k="ssr:stedsnr" v="1063684" />
		<tag k="ssr:type" v="adressenavn" />
	</node>
	<node lat="59.433729864621135" lon="10.672144120684893" id="-24725">
		<tag k="name" v="Wergelands gate" />
		<tag k="ssr:date" v="2019-12-27" />
		<tag k="ssr:gruppe" v="veg" />
		<tag k="ssr:hovedgruppe" v="infrastruktur" />
		<tag k="ssr:stedsnr" v="1063737" />
		<tag k="ssr:type" v="adressenavn" />
	</node>
	<node lat="59.31413707565915" lon="10.693925138987819" id="-24732">
		<tag k="name" v="Oterstien" />
		<tag k="ssr:date" v="2019-12-27" />
		<tag k="ssr:gruppe" v="veg" />
		<tag k="ssr:hovedgruppe" v="infrastruktur" />
		<tag k="ssr:stedsnr" v="1063767" />
		<tag k="ssr:type" v="adressenavn" />
	</node>
	<node lat="59.462246277241526" lon="10.69428410339487" id="-24748">
		<tag k="name" v="Åvangen terrasse" />
		<tag k="ssr:date" v="2019-12-27" />
		<tag k="ssr:gruppe" v="veg" />
		<tag k="ssr:hovedgruppe" v="infrastruktur" />
		<tag k="ssr:stedsnr" v="1063854" />
		<tag k="ssr:type" v="adressenavn" />
	</node>
	<node lat="59.41301483923615" lon="10.665460885545546" id="-24750">
		<tag k="name" v="Vesthellinga" />
		<tag k="ssr:date" v="2019-12-27" />
		<tag k="ssr:gruppe" v="veg" />
		<tag k="ssr:hovedgruppe" v="infrastruktur" />
		<tag k="ssr:stedsnr" v="1063872" />
		<tag k="ssr:type" v="adressenavn" />
	</node>
	<node lat="59.386925515700696" lon="10.690581599342213" id="-24752">
		<tag k="name" v="Vesteråsveien" />
		<tag k="ssr:date" v="2019-12-27" />
		<tag k="ssr:gruppe" v="veg" />
		<tag k="ssr:hovedgruppe" v="infrastruktur" />
		<tag k="ssr:stedsnr" v="1063876" />
		<tag k="ssr:type" v="adressenavn" />
	</node>
	<node lat="59.41701093088715" lon="10.669310250266868" id="-24753">
		<tag k="name" v="Vesleveien" />
		<tag k="ssr:date" v="2019-12-27" />
		<tag k="ssr:gruppe" v="veg" />
		<tag k="ssr:hovedgruppe" v="infrastruktur" />
		<tag k="ssr:stedsnr" v="1063881" />
		<tag k="ssr:type" v="adressenavn" />
	</node>
	<node lat="59.38698278413493" lon="10.654384217321734" id="-24755">
		<tag k="name" v="Strandveien" />
		<tag k="ssr:date" v="2019-12-27" />
		<tag k="ssr:gruppe" v="veg" />
		<tag k="ssr:hovedgruppe" v="infrastruktur" />
		<tag k="ssr:stedsnr" v="1063939" />
		<tag k="ssr:type" v="adressenavn" />
	</node>
	<node lat="59.373774223883196" lon="10.771202656740659" id="-24756">
		<tag k="name" v="Utgjerdsveien" />
		<tag k="ssr:date" v="2019-12-27" />
		<tag k="ssr:gruppe" v="veg" />
		<tag k="ssr:hovedgruppe" v="infrastruktur" />
		<tag k="ssr:stedsnr" v="1063942" />
		<tag k="ssr:type" v="adressenavn" />
	</node>
	<node lat="59.33325765623651" lon="10.666606022835836" id="-24757">
		<tag k="name" v="Vardekleiva" />
		<tag k="ssr:date" v="2019-12-27" />
		<tag k="ssr:gruppe" v="veg" />
		<tag k="ssr:hovedgruppe" v="infrastruktur" />
		<tag k="ssr:stedsnr" v="1063946" />
		<tag k="ssr:type" v="adressenavn" />
	</node>
	<node lat="59.43160211008974" lon="10.659270512516548" id="-24758">
		<tag k="name" v="Øvre tvergate" />
		<tag k="ssr:date" v="2019-12-27" />
		<tag k="ssr:gruppe" v="veg" />
		<tag k="ssr:hovedgruppe" v="infrastruktur" />
		<tag k="ssr:stedsnr" v="1063807" />
		<tag k="ssr:type" v="adressenavn" />
	</node>
	<node lat="59.412367347857646" lon="10.68870317037405" id="-24760">
		<tag k="name" v="Nygårdsveien" />
		<tag k="ssr:date" v="2019-12-27" />
		<tag k="ssr:gruppe" v="veg" />
		<tag k="ssr:hovedgruppe" v="infrastruktur" />
		<tag k="ssr:stedsnr" v="1063815" />
		<tag k="ssr:type" v="adressenavn" />
	</node>
	<node lat="59.39166887501643" lon="10.665317205553196" id="-24764">
		<tag k="name" v="Oakhill" />
		<tag k="ssr:date" v="2019-12-27" />
		<tag k="ssr:gruppe" v="veg" />
		<tag k="ssr:hovedgruppe" v="infrastruktur" />
		<tag k="ssr:stedsnr" v="1063824" />
		<tag k="ssr:type" v="adressenavn" />
	</node>
	<node lat="59.40113320504376" lon="10.723735662425373" id="-24768">
		<tag k="name" v="Oreveien" />
		<tag k="ssr:date" v="2019-12-27" />
		<tag k="ssr:gruppe" v="veg" />
		<tag k="ssr:hovedgruppe" v="infrastruktur" />
		<tag k="ssr:stedsnr" v="1063830" />
		<tag k="ssr:type" v="adressenavn" />
	</node>
	<node lat="59.41433792537016" lon="10.661413030929362" id="-24776">
		<tag k="name" v="Værlebakken" />
		<tag k="ssr:date" v="2019-12-27" />
		<tag k="ssr:gruppe" v="veg" />
		<tag k="ssr:hovedgruppe" v="infrastruktur" />
		<tag k="ssr:stedsnr" v="1063892" />
		<tag k="ssr:type" v="adressenavn" />
	</node>
	<node lat="59.38465813339466" lon="10.744615633935405" id="-24777">
		<tag k="name" v="Voldskogen" />
		<tag k="ssr:date" v="2019-12-27" />
		<tag k="ssr:gruppe" v="veg" />
		<tag k="ssr:hovedgruppe" v="infrastruktur" />
		<tag k="ssr:stedsnr" v="1063895" />
		<tag k="ssr:type" v="adressenavn" />
	</node>
	<node lat="59.32405253954766" lon="10.676271385503176" id="-24778">
		<tag k="name" v="Vitnesveien" />
		<tag k="ssr:date" v="2019-12-27" />
		<tag k="ssr:gruppe" v="veg" />
		<tag k="ssr:hovedgruppe" v="infrastruktur" />
		<tag k="ssr:stedsnr" v="1063896" />
		<tag k="ssr:type" v="adressenavn" />
	</node>
	<node lat="59.41753145674381" lon="10.682714881661195" id="-24779">
		<tag k="name" v="Vinkelen" />
		<tag k="ssr:date" v="2019-12-27" />
		<tag k="ssr:gruppe" v="veg" />
		<tag k="ssr:hovedgruppe" v="infrastruktur" />
		<tag k="ssr:stedsnr" v="1063897" />
		<tag k="ssr:type" v="adressenavn" />
	</node>
	<node lat="59.385752773661345" lon="10.65689692172217" id="-24780">
		<tag k="name" v="Tømmerveien" />
		<tag k="ssr:date" v="2019-12-27" />
		<tag k="ssr:gruppe" v="veg" />
		<tag k="ssr:hovedgruppe" v="infrastruktur" />
		<tag k="ssr:stedsnr" v="1063902" />
		<tag k="ssr:type" v="adressenavn" />
	</node>
	<node lat="59.41103720500537" lon="10.665863441785191" id="-24781">
		<tag k="name" v="Tverrveien" />
		<tag k="ssr:date" v="2019-12-27" />
		<tag k="ssr:gruppe" v="veg" />
		<tag k="ssr:hovedgruppe" v="infrastruktur" />
		<tag k="ssr:stedsnr" v="1063903" />
		<tag k="ssr:type" v="adressenavn" />
	</node>
	<node lat="59.38600496719852" lon="10.656261742009518" id="-24782">
		<tag k="name" v="Triangelen" />
		<tag k="ssr:date" v="2019-12-27" />
		<tag k="ssr:gruppe" v="veg" />
		<tag k="ssr:hovedgruppe" v="infrastruktur" />
		<tag k="ssr:stedsnr" v="1063910" />
		<tag k="ssr:type" v="adressenavn" />
	</node>
	<node lat="59.418246208814296" lon="10.687980479432776" id="-24783">
		<tag k="name" v="Tranebærstien" />
		<tag k="ssr:date" v="2019-12-27" />
		<tag k="ssr:gruppe" v="veg" />
		<tag k="ssr:hovedgruppe" v="infrastruktur" />
		<tag k="ssr:stedsnr" v="1063914" />
		<tag k="ssr:type" v="adressenavn" />
	</node>
	<node lat="59.321875103899494" lon="10.694372840921028" id="-24784">
		<tag k="name" v="Tollefsrødskogen" />
		<tag k="ssr:date" v="2019-12-27" />
		<tag k="ssr:gruppe" v="veg" />
		<tag k="ssr:hovedgruppe" v="infrastruktur" />
		<tag k="ssr:stedsnr" v="1063917" />
		<tag k="ssr:type" v="adressenavn" />
	</node>
	<node lat="59.3258775371043" lon="10.687175716293519" id="-24786">
		<tag k="name" v="Tollefsrødveien" />
		<tag k="ssr:date" v="2019-12-27" />
		<tag k="ssr:gruppe" v="veg" />
		<tag k="ssr:hovedgruppe" v="infrastruktur" />
		<tag k="ssr:stedsnr" v="1063919" />
		<tag k="ssr:type" v="adressenavn" />
	</node>
	<node lat="59.41601366358946" lon="10.688368896154024" id="-24788">
		<tag k="name" v="Sørtunet" />
		<tag k="ssr:date" v="2019-12-27" />
		<tag k="ssr:gruppe" v="veg" />
		<tag k="ssr:hovedgruppe" v="infrastruktur" />
		<tag k="ssr:stedsnr" v="1063922" />
		<tag k="ssr:type" v="adressenavn" />
	</node>
	<node lat="59.40015867465859" lon="10.720236602248928" id="-24789">
		<tag k="name" v="Såstadbråten" />
		<tag k="ssr:date" v="2019-12-27" />
		<tag k="ssr:gruppe" v="veg" />
		<tag k="ssr:hovedgruppe" v="infrastruktur" />
		<tag k="ssr:stedsnr" v="1063924" />
		<tag k="ssr:type" v="adressenavn" />
	</node>
	<node lat="59.42516907738662" lon="10.69234867262413" id="-24790">
		<tag k="name" v="Svarttrostveien" />
		<tag k="ssr:date" v="2019-12-27" />
		<tag k="ssr:gruppe" v="veg" />
		<tag k="ssr:hovedgruppe" v="infrastruktur" />
		<tag k="ssr:stedsnr" v="1063925" />
		<tag k="ssr:type" v="adressenavn" />
	</node>
	<node lat="59.37967014354972" lon="10.74948706227277" id="-24791">
		<tag k="name" v="Teigenveien" />
		<tag k="ssr:date" v="2019-12-27" />
		<tag k="ssr:gruppe" v="veg" />
		<tag k="ssr:hovedgruppe" v="infrastruktur" />
		<tag k="ssr:stedsnr" v="1063928" />
		<tag k="ssr:type" v="adressenavn" />
	</node>
	<node lat="59.32911344668543" lon="10.668509892617541" id="-24793">
		<tag k="name" v="Støtvigveien" />
		<tag k="ssr:date" v="2019-12-27" />
		<tag k="ssr:gruppe" v="veg" />
		<tag k="ssr:hovedgruppe" v="infrastruktur" />
		<tag k="ssr:stedsnr" v="1063930" />
		<tag k="ssr:type" v="adressenavn" />
	</node>
	<node lat="59.39292598089857" lon="10.648861671461502" id="-24799">
		<tag k="name" v="Skråfjellet" />
		<tag k="ssr:date" v="2019-12-27" />
		<tag k="ssr:gruppe" v="veg" />
		<tag k="ssr:hovedgruppe" v="infrastruktur" />
		<tag k="ssr:stedsnr" v="1064044" />
		<tag k="ssr:type" v="adressenavn" />
	</node>
	<node lat="59.37879519745779" lon="10.751195111319545" id="-24801">
		<tag k="name" v="Skoleveien" />
		<tag k="ssr:date" v="2019-12-27" />
		<tag k="ssr:gruppe" v="veg" />
		<tag k="ssr:hovedgruppe" v="infrastruktur" />
		<tag k="ssr:stedsnr" v="1064052" />
		<tag k="ssr:type" v="adressenavn" />
	</node>
	<node lat="59.379004493860194" lon="10.756898084354441" id="-24802">
		<tag k="name" v="Solliveien" />
		<tag k="ssr:date" v="2019-12-27" />
		<tag k="ssr:gruppe" v="veg" />
		<tag k="ssr:hovedgruppe" v="infrastruktur" />
		<tag k="ssr:stedsnr" v="1064063" />
		<tag k="ssr:type" v="adressenavn" />
	</node>
	<node lat="59.332766975723814" lon="10.666237419006212" id="-24805">
		<tag k="name" v="Vardeveien" />
		<tag k="ssr:date" v="2019-12-27" />
		<tag k="ssr:gruppe" v="veg" />
		<tag k="ssr:hovedgruppe" v="infrastruktur" />
		<tag k="ssr:stedsnr" v="1063952" />
		<tag k="ssr:type" v="adressenavn" />
	</node>
	<node lat="59.408570261311944" lon="10.687524754746317" id="-24806">
		<tag k="name" v="Ungdomsveien" />
		<tag k="ssr:date" v="2019-12-27" />
		<tag k="ssr:gruppe" v="veg" />
		<tag k="ssr:hovedgruppe" v="infrastruktur" />
		<tag k="ssr:stedsnr" v="1063953" />
		<tag k="ssr:type" v="adressenavn" />
	</node>
	<node lat="59.33147137839857" lon="10.663518197053383" id="-24807">
		<tag k="name" v="Tollbuveien" />
		<tag k="ssr:date" v="2019-12-27" />
		<tag k="ssr:gruppe" v="veg" />
		<tag k="ssr:hovedgruppe" v="infrastruktur" />
		<tag k="ssr:stedsnr" v="1063957" />
		<tag k="ssr:type" v="adressenavn" />
	</node>
	<node lat="59.40734965618509" lon="10.694634076610704" id="-24808">
		<tag k="name" v="Tørkoppveien" />
		<tag k="ssr:date" v="2019-12-27" />
		<tag k="ssr:gruppe" v="veg" />
		<tag k="ssr:hovedgruppe" v="infrastruktur" />
		<tag k="ssr:stedsnr" v="1063958" />
		<tag k="ssr:type" v="adressenavn" />
	</node>
	<node lat="59.32639716940104" lon="10.69181324155404" id="-24809">
		<tag k="name" v="Tuteråsen" />
		<tag k="ssr:date" v="2019-12-27" />
		<tag k="ssr:gruppe" v="veg" />
		<tag k="ssr:hovedgruppe" v="infrastruktur" />
		<tag k="ssr:stedsnr" v="1063963" />
		<tag k="ssr:type" v="adressenavn" />
	</node>
	<node lat="59.41896854729681" lon="10.6859228886365" id="-24810">
		<tag k="name" v="Tyttebærstien" />
		<tag k="ssr:date" v="2019-12-27" />
		<tag k="ssr:gruppe" v="veg" />
		<tag k="ssr:hovedgruppe" v="infrastruktur" />
		<tag k="ssr:stedsnr" v="1063965" />
		<tag k="ssr:type" v="adressenavn" />
	</node>
	<node lat="59.37702740661309" lon="10.725392443606408" id="-24811">
		<tag k="name" v="Tunveien" />
		<tag k="ssr:date" v="2019-12-27" />
		<tag k="ssr:gruppe" v="veg" />
		<tag k="ssr:hovedgruppe" v="infrastruktur" />
		<tag k="ssr:stedsnr" v="1063966" />
		<tag k="ssr:type" v="adressenavn" />
	</node>
	<node lat="59.38946893030777" lon="10.656235634248413" id="-24812">
		<tag k="name" v="Åsfaret" />
		<tag k="ssr:date" v="2019-12-27" />
		<tag k="ssr:gruppe" v="veg" />
		<tag k="ssr:hovedgruppe" v="infrastruktur" />
		<tag k="ssr:stedsnr" v="1063971" />
		<tag k="ssr:type" v="adressenavn" />
	</node>
	<node lat="59.38803910496895" lon="10.656424152061366" id="-24813">
		<tag k="name" v="Åskanten" />
		<tag k="ssr:date" v="2019-12-27" />
		<tag k="ssr:gruppe" v="veg" />
		<tag k="ssr:hovedgruppe" v="infrastruktur" />
		<tag k="ssr:stedsnr" v="1063978" />
		<tag k="ssr:type" v="adressenavn" />
	</node>
	<node lat="59.38322334885448" lon="10.750906345474604" id="-24815">
		<tag k="name" v="Øvre vestlia" />
		<tag k="ssr:date" v="2019-12-27" />
		<tag k="ssr:gruppe" v="veg" />
		<tag k="ssr:hovedgruppe" v="infrastruktur" />
		<tag k="ssr:stedsnr" v="1063988" />
		<tag k="ssr:type" v="adressenavn" />
	</node>
	<node lat="59.37194247585342" lon="10.662982449156276" id="-24816">
		<tag k="name" v="Østre Årefjordvei" />
		<tag k="ssr:date" v="2019-12-27" />
		<tag k="ssr:gruppe" v="veg" />
		<tag k="ssr:hovedgruppe" v="infrastruktur" />
		<tag k="ssr:stedsnr" v="1063989" />
		<tag k="ssr:type" v="adressenavn" />
	</node>
	<node lat="59.41663984424141" lon="10.685905555313411" id="-24817">
		<tag k="name" v="Øreåsveien" />
		<tag k="ssr:date" v="2019-12-27" />
		<tag k="ssr:gruppe" v="veg" />
		<tag k="ssr:hovedgruppe" v="infrastruktur" />
		<tag k="ssr:stedsnr" v="1063992" />
		<tag k="ssr:type" v="adressenavn" />
	</node>
	<node lat="59.42414660579066" lon="10.685607029078051" id="-24819">
		<tag k="name" v="Ørekroken" />
		<tag k="ssr:date" v="2019-12-27" />
		<tag k="ssr:gruppe" v="veg" />
		<tag k="ssr:hovedgruppe" v="infrastruktur" />
		<tag k="ssr:stedsnr" v="1063998" />
		<tag k="ssr:type" v="adressenavn" />
	</node>
	<node lat="59.418246208814296" lon="10.687980479432776" id="-24820">
		<tag k="name" v="Øredalen" />
		<tag k="ssr:date" v="2019-12-27" />
		<tag k="ssr:gruppe" v="veg" />
		<tag k="ssr:hovedgruppe" v="infrastruktur" />
		<tag k="ssr:stedsnr" v="1064003" />
		<tag k="ssr:type" v="adressenavn" />
	</node>
	<node lat="59.412888834069626" lon="10.690568835132847" id="-24821">
		<tag k="name" v="Årvoldveien" />
		<tag k="ssr:date" v="2019-12-27" />
		<tag k="ssr:gruppe" v="veg" />
		<tag k="ssr:hovedgruppe" v="infrastruktur" />
		<tag k="ssr:stedsnr" v="1064007" />
		<tag k="ssr:type" v="adressenavn" />
	</node>
	<node lat="59.41551355550306" lon="10.695533176911887" id="-24822">
		<tag k="name" v="Årvollskogen" />
		<tag k="ssr:date" v="2019-12-27" />
		<tag k="ssr:gruppe" v="veg" />
		<tag k="ssr:hovedgruppe" v="infrastruktur" />
		<tag k="ssr:stedsnr" v="1064010" />
		<tag k="ssr:type" v="adressenavn" />
	</node>
	<node lat="59.374535110052015" lon="10.65462249381722" id="-24824">
		<tag k="name" v="Årefjordtangen" />
		<tag k="ssr:date" v="2019-12-27" />
		<tag k="ssr:gruppe" v="veg" />
		<tag k="ssr:hovedgruppe" v="infrastruktur" />
		<tag k="ssr:stedsnr" v="1064016" />
		<tag k="ssr:type" v="adressenavn" />
	</node>
	<node lat="59.41964568468794" lon="10.68364157043251" id="-24829">
		<tag k="name" v="Solborgveien" />
		<tag k="ssr:date" v="2019-12-27" />
		<tag k="ssr:gruppe" v="veg" />
		<tag k="ssr:hovedgruppe" v="infrastruktur" />
		<tag k="ssr:stedsnr" v="1064030" />
		<tag k="ssr:type" v="adressenavn" />
	</node>
	<node lat="59.371864969848005" lon="10.66303111897719" id="-24831">
		<tag k="name" v="Sjøveien" />
		<tag k="ssr:date" v="2019-12-27" />
		<tag k="ssr:gruppe" v="veg" />
		<tag k="ssr:hovedgruppe" v="infrastruktur" />
		<tag k="ssr:stedsnr" v="1064035" />
		<tag k="ssr:type" v="adressenavn" />
	</node>
	<node lat="59.40854038391857" lon="10.691647963473859" id="-24832">
		<tag k="name" v="Skogveien" />
		<tag k="ssr:date" v="2019-12-27" />
		<tag k="ssr:gruppe" v="veg" />
		<tag k="ssr:hovedgruppe" v="infrastruktur" />
		<tag k="ssr:stedsnr" v="1064086" />
		<tag k="ssr:type" v="adressenavn" />
	</node>
	<node lat="59.38885918686525" lon="10.65943623337738" id="-24836">
		<tag k="name" v="Storengveien" />
		<tag k="ssr:date" v="2019-12-27" />
		<tag k="ssr:gruppe" v="veg" />
		<tag k="ssr:hovedgruppe" v="infrastruktur" />
		<tag k="ssr:stedsnr" v="1064140" />
		<tag k="ssr:type" v="adressenavn" />
	</node>
	<node lat="59.4202506146621" lon="10.703529774448798" id="-24838">
		<tag k="name" v="Storebaugveien" />
		<tag k="ssr:date" v="2019-12-27" />
		<tag k="ssr:gruppe" v="veg" />
		<tag k="ssr:hovedgruppe" v="infrastruktur" />
		<tag k="ssr:stedsnr" v="1064147" />
		<tag k="ssr:type" v="adressenavn" />
	</node>
	<node lat="59.39019154119651" lon="10.687567931055211" id="-24839">
		<tag k="name" v="Stigningen" />
		<tag k="ssr:date" v="2019-12-27" />
		<tag k="ssr:gruppe" v="veg" />
		<tag k="ssr:hovedgruppe" v="infrastruktur" />
		<tag k="ssr:stedsnr" v="1064149" />
		<tag k="ssr:type" v="adressenavn" />
	</node>
	<node lat="59.32578254330356" lon="10.706353171292113" id="-24840">
		<tag k="name" v="Stenkjelen" />
		<tag k="ssr:date" v="2019-12-27" />
		<tag k="ssr:gruppe" v="veg" />
		<tag k="ssr:hovedgruppe" v="infrastruktur" />
		<tag k="ssr:stedsnr" v="1064155" />
		<tag k="ssr:type" v="adressenavn" />
	</node>
	<node lat="59.41059566472662" lon="10.689208658221435" id="-24841">
		<tag k="name" v="Steinveien" />
		<tag k="ssr:date" v="2019-12-27" />
		<tag k="ssr:gruppe" v="veg" />
		<tag k="ssr:hovedgruppe" v="infrastruktur" />
		<tag k="ssr:stedsnr" v="1064111" />
		<tag k="ssr:type" v="adressenavn" />
	</node>
	<node lat="59.37891880116046" lon="10.751979715613018" id="-24842">
		<tag k="name" v="Stasjonsveien" />
		<tag k="ssr:date" v="2019-12-27" />
		<tag k="ssr:gruppe" v="veg" />
		<tag k="ssr:hovedgruppe" v="infrastruktur" />
		<tag k="ssr:stedsnr" v="1064193" />
		<tag k="ssr:type" v="adressenavn" />
	</node>
	<node lat="59.350586486660866" lon="10.663323646916282" id="-24843">
		<tag k="name" v="Stangerholmen" />
		<tag k="ssr:date" v="2019-12-27" />
		<tag k="ssr:gruppe" v="veg" />
		<tag k="ssr:hovedgruppe" v="infrastruktur" />
		<tag k="ssr:stedsnr" v="1064195" />
		<tag k="ssr:type" v="adressenavn" />
	</node>
	<node lat="59.3783430063829" lon="10.654689657679663" id="-24844">
		<tag k="name" v="Årefjordstien" />
		<tag k="ssr:date" v="2019-12-27" />
		<tag k="ssr:gruppe" v="veg" />
		<tag k="ssr:hovedgruppe" v="infrastruktur" />
		<tag k="ssr:stedsnr" v="1072386" />
		<tag k="ssr:type" v="adressenavn" />
	</node>
	<node lat="59.46890078747892" lon="10.688652946178905" id="-24852">
		<tag k="name" v="Mølleåsen" />
		<tag k="ssr:date" v="2020-09-01" />
		<tag k="ssr:gruppe" v="veg" />
		<tag k="ssr:hovedgruppe" v="infrastruktur" />
		<tag k="ssr:stedsnr" v="1078106" />
		<tag k="ssr:type" v="adressenavn" />
	</node>
</osm>
