<?xml version="1.0" encoding="UTF-8"?>
<osm version="0.6" generator="osmapis">
	<node id="298505358" lat="60.8700595" lon="11.010294" version="16" timestamp="2022-01-31T06:16:31Z" changeset="116806593" uid="3497659" user="NKA">
		<tag k="junction" v="yes" />
		<tag k="name" v="Tvet-tajet" />
		<tag k="ssr:stedsnr" v="828332" />
	</node>
	<node id="299486689" lat="60.835313" lon="11.008299" version="9" timestamp="2022-01-31T06:16:31Z" changeset="116806593" uid="3497659" user="NKA">
		<tag k="junction" v="yes" />
		<tag k="name" v="Lefs-torget" />
		<tag k="ssr:stedsnr" v="768418" />
	</node>
	<node id="300063145" lat="60.7748181" lon="10.9442659" version="14" timestamp="2022-02-01T16:51:09Z" changeset="116876628" uid="3497659" user="NKA">
		<tag k="junction" v="yes" />
		<tag k="name" v="Grinikrysset" />
		<tag k="ssr:stedsnr" v="648870" />
	</node>
	<node id="302301309" lat="60.7926642" lon="10.8961083" version="10" timestamp="2022-01-31T06:16:31Z" changeset="116806593" uid="3497659" user="NKA">
		<tag k="junction" v="yes" />
		<tag k="name" v="Mailundkrysset" />
		<tag k="ssr:stedsnr" v="725798" />
	</node>
	<node id="330920793" lat="60.7881998" lon="10.8814875" version="8" timestamp="2022-02-01T16:51:09Z" changeset="116876628" uid="3497659" user="NKA">
		<tag k="junction" v="yes" />
		<tag k="name" v="Hubergkrysset" />
		<tag k="ssr:stedsnr" v="587888" />
	</node>
	<node id="3159312910" lat="60.8711168" lon="10.8350161" version="4" timestamp="2022-02-01T16:51:09Z" changeset="116876628" uid="3497659" user="NKA">
		<tag k="junction" v="yes" />
		<tag k="name" v="Gaven" />
		<tag k="ssr:stedsnr" v="810004" />
	</node>
	<node id="3220144301" lat="60.7692824" lon="10.9053873" version="3" timestamp="2022-02-01T16:51:09Z" changeset="116876628" uid="3497659" user="NKA">
		<tag k="junction" v="yes" />
		<tag k="name" v="Holskrysset" />
		<tag k="ssr:stedsnr" v="102867" />
	</node>
	<node id="3368041093" lat="60.9421153" lon="10.736078" version="4" timestamp="2022-02-01T16:51:09Z" changeset="116876628" uid="3497659" user="NKA">
		<tag k="junction" v="yes" />
		<tag k="name" v="Brandbutajet" />
		<tag k="ssr:stedsnr" v="373201" />
	</node>
	<node id="3370012584" lat="61.0558316" lon="10.8079724" version="5" timestamp="2022-02-01T16:51:09Z" changeset="116876628" uid="3497659" user="NKA">
		<tag k="junction" v="yes" />
		<tag k="name" v="Dampsagvegskillet" />
		<tag k="ssr:stedsnr" v="343699" />
	</node>
	<node id="3370334182" lat="61.0700254" lon="10.5960851" version="5" timestamp="2022-02-01T16:51:09Z" changeset="116876628" uid="3497659" user="NKA">
		<tag k="junction" v="yes" />
		<tag k="name" v="Bekkedalen" />
		<tag k="ssr:stedsnr" v="783789" />
	</node>
	<node id="3373023695" lat="61.042859" lon="10.623412" version="4" timestamp="2022-02-01T16:51:09Z" changeset="116876628" uid="3497659" user="NKA">
		<tag k="junction" v="yes" />
		<tag k="name" v="Spennivegg" />
		<tag k="ssr:stedsnr" v="585218" />
	</node>
	<node id="3842487271" lat="61.135193" lon="10.69268" version="2" timestamp="2022-01-31T06:16:31Z" changeset="116806593" uid="3497659" user="NKA">
		<tag k="junction" v="yes" />
		<tag k="name" v="Nybukrysset" />
		<tag k="ssr:stedsnr" v="361021" />
	</node>
	<node id="9080064448" lat="60.864715" lon="10.975411" version="3" timestamp="2022-02-01T16:51:09Z" changeset="116876628" uid="3497659" user="NKA">
		<tag k="junction" v="yes" />
		<tag k="name" v="Stenbekk" />
		<tag k="ssr:stedsnr" v="161470" />
	</node>
</osm>
