<?xml version="1.0" encoding="UTF-8"?>
<osm generator="osmapis" version="0.6">
	<node id="-300415" lat="58.429944445" lon="8.27936110907">
		<tag k="bridge" v="yes" />
		<tag k="layer" v="1" />
		<tag k="name" v="Risåna" />
		<tag k="ssr:stedsnr" v="775156" />
	</node>
	<node id="-300414" lat="58.382588888" lon="8.11051110464">
		<tag k="bridge" v="yes" />
		<tag k="layer" v="1" />
		<tag k="name" v="Dike-elva" />
		<tag k="ssr:stedsnr" v="775141" />
	</node>
	<node id="-300413" lat="58.2987555578" lon="8.08885555917">
		<tag k="bridge" v="yes" />
		<tag k="layer" v="1" />
		<tag k="name" v="Svalandsdalen" />
		<tag k="ssr:stedsnr" v="775117" />
	</node>
	<node id="-300412" lat="58.2771694426" lon="8.17809166392">
		<tag k="bridge" v="yes" />
		<tag k="layer" v="1" />
		<tag k="name" v="Åbål bru" />
		<tag k="ssr:stedsnr" v="775114" />
	</node>
	<node id="-299400" lat="58.4262750034" lon="8.2103777858">
		<tag k="man_made" v="cairn" />
		<tag k="name" v="Trotto" />
		<tag k="place" v="locality" />
		<tag k="ssr:stedsnr" v="590323" />
	</node>
	<node id="-296489" lat="58.5915833362" lon="8.17391945216">
		<tag k="bridge" v="yes" />
		<tag k="layer" v="1" />
		<tag k="loc_name" v="Kvennhusbekken" />
		<tag k="name" v="Kvernhusbekken" />
		<tag k="ssr:stedsnr" v="289172" />
	</node>
	<node id="-297843" lat="58.2595083312" lon="8.15966667085">
		<tag k="bridge" v="yes" />
		<tag k="layer" v="1" />
		<tag k="name" v="Foss bru" />
		<tag k="ssr:stedsnr" v="93977" />
	</node>
	<node id="-296946" lat="58.3387749966" lon="8.22128333387">
		<tag k="bridge" v="yes" />
		<tag k="layer" v="1" />
		<tag k="name" v="Flakkebrua" />
		<tag k="ssr:stedsnr" v="392411" />
	</node>
	<node id="-296944" lat="58.3436305558" lon="8.18276944459">
		<tag k="highway" v="path" />
		<tag k="name" v="Ekeli kleiver" />
		<tag k="ssr:stedsnr" v="392392" />
	</node>
	<node id="-296488" lat="58.3465361068" lon="8.31212777617">
		<tag k="bridge" v="yes" />
		<tag k="layer" v="1" />
		<tag k="name" v="Solborg" />
		<tag k="ssr:stedsnr" v="289156" />
	</node>
	<node id="-299885" lat="58.5224388914" lon="8.23403888132">
		<tag k="name" v="Fidjetun" />
		<tag k="railway" v="station" />
		<tag k="ssr:stedsnr" v="668037" />
		<tag k="train" v="yes" />
	</node>
	<node id="-296530" lat="58.4891999972" lon="8.02372222882">
		<tag k="man_made" v="cairn" />
		<tag k="name" v="Kongerøysa" />
		<tag k="place" v="locality" />
		<tag k="ssr:stedsnr" v="293047" />
	</node>
	<node id="-300951" lat="58.2969527812" lon="8.2375277696">
		<tag k="highway" v="path" />
		<tag k="name" v="Steinkleiv" />
		<tag k="ssr:stedsnr" v="938272" />
	</node>
	<node id="-298556" lat="58.5851555577" lon="8.16711943996">
		<tag k="bridge" v="yes" />
		<tag k="layer" v="1" />
		<tag k="name" v="Vegusdal" />
		<tag k="ssr:stedsnr" v="229144" />
	</node>
	<node id="-296795" lat="58.3833638909" lon="8.27030277462">
		<tag k="bridge" v="yes" />
		<tag k="layer" v="1" />
		<tag k="name" v="Flå" />
		<tag k="ssr:stedsnr" v="350140" />
	</node>
	<node id="-300126" lat="58.5249722208" lon="8.3531722194">
		<tag k="bridge" v="yes" />
		<tag k="layer" v="1" />
		<tag k="name" v="Hamnehagen" />
		<tag k="ssr:stedsnr" v="714153" />
	</node>
	<node id="-300125" lat="58.3522861115" lon="8.31369167218">
		<tag k="bridge" v="yes" />
		<tag k="layer" v="1" />
		<tag k="name" v="Hundland" />
		<tag k="ssr:stedsnr" v="714147" />
	</node>
	<node id="-300124" lat="58.5880833348" lon="8.12186666526">
		<tag k="bridge" v="yes" />
		<tag k="layer" v="1" />
		<tag k="name" v="Skåre" />
		<tag k="ssr:stedsnr" v="714134" />
	</node>
	<node id="-297947" lat="58.5236722178" lon="8.02755833435">
		<tag k="bridge" v="yes" />
		<tag k="layer" v="1" />
		<tag k="name" v="Lilleåna" />
		<tag k="ssr:stedsnr" v="107143" />
	</node>
	<node id="-297946" lat="58.5334999971" lon="7.97545277419">
		<tag k="bridge" v="yes" />
		<tag k="layer" v="1" />
		<tag k="name" v="Vatne" />
		<tag k="ssr:stedsnr" v="107102" />
	</node>
	<node id="-300121" lat="58.3074833319" lon="8.16723333831">
		<tag k="bridge" v="yes" />
		<tag k="layer" v="1" />
		<tag k="name" v="Bjorhus" />
		<tag k="ssr:stedsnr" v="714123" />
	</node>
	<node id="-299608" lat="58.3106111078" lon="8.28278333608">
		<tag k="fixme" v="verify maritime location" />
		<tag k="mooring" v="yes" />
		<tag k="name" v="Hefte" />
		<tag k="place" v="locality" />
		<tag k="ssr:stedsnr" v="634421" />
	</node>
	<node id="-300887" lat="58.5645472252" lon="8.21449167024">
		<tag k="highway" v="path" />
		<tag k="name" v="Fiskarvegen" />
		<tag k="ssr:stedsnr" v="900679" />
	</node>
	<node id="-301142" lat="58.5400527747" lon="8.18095832664">
		<tag k="alt_name" v="Mjåvatn" />
		<tag k="bridge" v="yes" />
		<tag k="layer" v="1" />
		<tag k="name" v="Mjåvatnbrua" />
		<tag k="ssr:stedsnr" v="957169" />
	</node>
	<node id="-301141" lat="58.3407388928" lon="8.22778056231">
		<tag k="bridge" v="yes" />
		<tag k="layer" v="1" />
		<tag k="name" v="Teinefoss" />
		<tag k="ssr:stedsnr" v="957131" />
	</node>
	<node id="-301140" lat="58.365063887" lon="8.24388333905">
		<tag k="bridge" v="yes" />
		<tag k="layer" v="1" />
		<tag k="name" v="Åletjenn" />
		<tag k="ssr:stedsnr" v="957128" />
	</node>
	<node id="-298069" lat="58.2971499978" lon="8.24294999249">
		<tag k="fixme" v="consider highway=path" />
		<tag k="highway" v="track" />
		<tag k="name" v="Myreveien" />
		<tag k="ssr:stedsnr" v="149250" />
	</node>
	<node id="-299474" lat="58.5651666665" lon="8.15263054808">
		<tag k="highway" v="path" />
		<tag k="name" v="Heimre Rypeheivei" />
		<tag k="ssr:stedsnr" v="595097" />
	</node>
	<node id="-297144" lat="58.5498944466" lon="8.21404722354">
		<tag k="bridge" v="yes" />
		<tag k="layer" v="1" />
		<tag k="name" v="Rekslønbrua" />
		<tag k="ssr:stedsnr" v="413493" />
	</node>
	<node id="-299470" lat="58.5326916671" lon="7.9593277796">
		<tag k="bridge" v="yes" />
		<tag k="layer" v="1" />
		<tag k="name" v="Glømsterfoss" />
		<tag k="ssr:stedsnr" v="592194" />
	</node>
	<node id="-297805" lat="58.5330805581" lon="8.36012499835">
		<tag k="highway" v="path" />
		<tag k="name" v="Brattekleiv" />
		<tag k="ssr:stedsnr" v="93262" />
	</node>
	<node id="-299468" lat="58.3272638907" lon="8.23633054884">
		<tag k="bridge" v="yes" />
		<tag k="layer" v="1" />
		<tag k="name" v="Birkeland" />
		<tag k="ssr:stedsnr" v="592162" />
	</node>
	<node id="-299467" lat="58.5327222235" lon="8.11852777681">
		<tag k="bridge" v="yes" />
		<tag k="layer" v="1" />
		<tag k="name" v="Engesland" />
		<tag k="ssr:stedsnr" v="592160" />
	</node>
	<node id="-297948" lat="58.5532694441" lon="8.37124999513">
		<tag k="bridge" v="yes" />
		<tag k="layer" v="1" />
		<tag k="name" v="Ljosåna" />
		<tag k="ssr:stedsnr" v="107142" />
	</node>
	<node id="-301089" lat="58.3710833375" lon="8.20069444849">
		<tag k="man_made" v="cairn" />
		<tag k="name" v="Varden" />
		<tag k="place" v="locality" />
		<tag k="ssr:stedsnr" v="954397" />
	</node>
	<node id="-297163" lat="58.5516111145" lon="8.03228055674">
		<tag k="man_made" v="cairn" />
		<tag k="name" v="Grønelirøysa" />
		<tag k="place" v="locality" />
		<tag k="ssr:stedsnr" v="474281" />
	</node>
	<node id="-298128" lat="58.4813444454" lon="8.33258055072">
		<tag k="fixme" v="verify maritime location" />
		<tag k="mooring" v="yes" />
		<tag k="name" v="Suggelistøa" />
		<tag k="place" v="locality" />
		<tag k="ssr:stedsnr" v="154296" />
	</node>
	<node id="-299966" lat="58.5142583305" lon="8.37946667473">
		<tag k="highway" v="path" />
		<tag k="name" v="Prestekleiva" />
		<tag k="ssr:stedsnr" v="700253" />
	</node>
	<node id="-298557" lat="58.359900004" lon="8.24963889177">
		<tag k="bridge" v="yes" />
		<tag k="layer" v="1" />
		<tag k="name" v="Hagestadbekken" />
		<tag k="ssr:stedsnr" v="229185" />
	</node>
	<node id="-300732" lat="58.3599750037" lon="8.25322500661">
		<tag k="bridge" v="yes" />
		<tag k="layer" v="1" />
		<tag k="name" v="Holtebekk" />
		<tag k="ssr:stedsnr" v="836145" />
	</node>
	<node id="-300731" lat="58.4793694439" lon="8.11906665858">
		<tag k="bridge" v="yes" />
		<tag k="layer" v="1" />
		<tag k="name" v="Homme" />
		<tag k="ssr:stedsnr" v="836143" />
	</node>
	<node id="-298537" lat="58.3528666698" lon="8.16740000599">
		<tag k="highway" v="path" />
		<tag k="name" v="Granestien" />
		<tag k="ssr:stedsnr" v="226716" />
	</node>
	<node id="-297528" lat="58.352958336" lon="8.23825556214">
		<tag k="highway" v="path" />
		<tag k="name" v="Heievegen" />
		<tag k="ssr:stedsnr" v="32897" />
	</node>
	<node id="-300726" lat="58.5019555565" lon="8.24545000535">
		<tag k="highway" v="path" />
		<tag k="name" v="Håstølveien" />
		<tag k="ssr:stedsnr" v="833928" />
	</node>
	<node id="-298933" lat="58.5378694418" lon="8.15651111285">
		<tag k="bridge" v="yes" />
		<tag k="layer" v="1" />
		<tag k="name" v="Prestsund" />
		<tag k="ssr:stedsnr" v="471178" />
	</node>
	<node id="-298932" lat="58.5408444435" lon="8.17511110612">
		<tag k="bridge" v="yes" />
		<tag k="layer" v="1" />
		<tag k="name" v="Stemlona" />
		<tag k="ssr:stedsnr" v="471172" />
	</node>
	<node id="-296798" lat="58.519711114" lon="8.36013055772">
		<tag k="bridge" v="yes" />
		<tag k="layer" v="1" />
		<tag k="name" v="Lauvlifoss" />
		<tag k="ssr:stedsnr" v="350165" />
	</node>
	<node id="-298930" lat="58.5289500016" lon="7.98748055545">
		<tag k="bridge" v="yes" />
		<tag k="layer" v="1" />
		<tag k="name" v="Vassvatn" />
		<tag k="ssr:stedsnr" v="471130" />
	</node>
	<node id="-298931" lat="58.5771694462" lon="8.1517416635">
		<tag k="bridge" v="yes" />
		<tag k="layer" v="1" />
		<tag k="name" v="Fidjedalen" />
		<tag k="ssr:stedsnr" v="471149" />
	</node>
	<node id="-299695" lat="58.5527305562" lon="8.23445555052">
		<tag k="ford" v="yes" />
		<tag k="name" v="Reinsva" />
		<tag k="place" v="locality" />
		<tag k="ssr:stedsnr" v="650100" />
	</node>
	<node id="-297646" lat="58.5619361077" lon="8.1524805589">
		<tag k="highway" v="path" />
		<tag k="name" v="Ytre Rypeheivei" />
		<tag k="ssr:stedsnr" v="49140" />
	</node>
	<node id="-296797" lat="58.4171500033" lon="8.29271388255">
		<tag k="bridge" v="yes" />
		<tag k="layer" v="1" />
		<tag k="name" v="Senumstad bru" />
		<tag k="ssr:stedsnr" v="350158" />
	</node>
	<node id="-298268" lat="58.3630500029" lon="8.2330722229">
		<tag k="bridge" v="yes" />
		<tag k="layer" v="1" />
		<tag k="name" v="Høykleivvannet" />
		<tag k="ssr:stedsnr" v="168172" />
	</node>
	<node id="-297642" lat="58.2799361113" lon="8.17964444777">
		<tag k="bridge" v="yes" />
		<tag k="layer" v="1" />
		<tag k="name" v="Myrene" />
		<tag k="ssr:stedsnr" v="46176" />
	</node>
	<node id="-296361" lat="58.5773138885" lon="8.38363888625">
		<tag k="fixme" v="verify maritime location" />
		<tag k="mooring" v="yes" />
		<tag k="name" v="Vedderstø" />
		<tag k="place" v="locality" />
		<tag k="ssr:stedsnr" v="275267" />
	</node>
	<node id="-297640" lat="58.4591861097" lon="8.33293055751">
		<tag k="bridge" v="yes" />
		<tag k="layer" v="1" />
		<tag k="name" v="Åmli sag" />
		<tag k="ssr:stedsnr" v="46126" />
	</node>
	<node id="-297127" lat="58.5342444409" lon="8.10432222101">
		<tag k="bridge" v="yes" />
		<tag k="layer" v="1" />
		<tag k="name" v="Haukhomvasstem" />
		<tag k="ssr:stedsnr" v="411184" />
	</node>
	<node id="-297126" lat="58.4412583336" lon="8.11765833116">
		<tag k="bridge" v="yes" />
		<tag k="layer" v="1" />
		<tag k="name" v="Oggevatn" />
		<tag k="ssr:stedsnr" v="411174" />
	</node>
	<node id="-297125" lat="58.4655388871" lon="8.11177222611">
		<tag k="bridge" v="yes" />
		<tag k="layer" v="1" />
		<tag k="name" v="Skreros" />
		<tag k="ssr:stedsnr" v="411166" />
	</node>
	<node id="-300123" lat="58.3484361098" lon="8.25468056383">
		<tag k="bridge" v="yes" />
		<tag k="layer" v="1" />
		<tag k="name" v="Sagbekk" />
		<tag k="ssr:stedsnr" v="714135" />
	</node>
	<node id="-298656" lat="58.540849998" lon="8.17502778054">
		<tag k="junction" v="yes" />
		<tag k="name" v="Stemlona" />
		<tag k="place" v="locality" />
		<tag k="ssr:stedsnr" v="267108" />
	</node>
	<node id="-299167" lat="58.2618583378" lon="8.16480555595">
		<tag k="bridge" v="yes" />
		<tag k="layer" v="1" />
		<tag k="name" v="Grødum" />
		<tag k="ssr:stedsnr" v="532163" />
	</node>
	<node id="-297641" lat="58.3202500039" lon="8.05958611702">
		<tag k="bridge" v="yes" />
		<tag k="layer" v="1" />
		<tag k="name" v="Torjussteane" />
		<tag k="ssr:stedsnr" v="46134" />
	</node>
	<node id="-299548" lat="58.3196888854" lon="8.10496944723">
		<tag k="man_made" v="tower" />
		<tag k="name" v="Svalandstårnet" />
		<tag k="ssr:stedsnr" v="606247" />
		<tag k="tower:type" v="communications" />
	</node>
	<node id="-300122" lat="58.5218249957" lon="8.351722226">
		<tag k="bridge" v="yes" />
		<tag k="layer" v="1" />
		<tag k="name" v="Brobakken" />
		<tag k="ssr:stedsnr" v="714124" />
	</node>
	<node id="-296309" lat="58.3058500042" lon="8.25907777695">
		<tag k="bridge" v="yes" />
		<tag k="layer" v="1" />
		<tag k="name" v="Jordbruna" />
		<tag k="ssr:stedsnr" v="270737" />
	</node>
	<node id="-297369" lat="58.3196861133" lon="8.19603611226">
		<tag k="bridge" v="yes" />
		<tag k="layer" v="1" />
		<tag k="name" v="Krokbekk" />
		<tag k="ssr:stedsnr" v="896181" />
	</node>
	<node id="-297368" lat="58.3233944489" lon="8.19698055449">
		<tag k="bridge" v="yes" />
		<tag k="layer" v="1" />
		<tag k="name" v="Mollestad" />
		<tag k="ssr:stedsnr" v="896177" />
	</node>
	<node id="-297367" lat="58.3299722184" lon="8.22352778635">
		<tag k="bridge" v="yes" />
		<tag k="layer" v="1" />
		<tag k="name" v="Ose" />
		<tag k="ssr:stedsnr" v="896174" />
	</node>
	<node id="-297366" lat="58.2933527807" lon="8.08145834118">
		<tag k="bridge" v="yes" />
		<tag k="layer" v="1" />
		<tag k="name" v="Rosseland" />
		<tag k="ssr:stedsnr" v="896173" />
	</node>
	<node id="-297365" lat="58.5084861109" lon="8.3447166669">
		<tag k="bridge" v="yes" />
		<tag k="layer" v="1" />
		<tag k="name" v="Askeråna" />
		<tag k="ssr:stedsnr" v="896149" />
	</node>
	<node id="-297364" lat="58.47098889" lon="8.33761666561">
		<tag k="bridge" v="yes" />
		<tag k="layer" v="1" />
		<tag k="name" v="Fjerdingsbekk" />
		<tag k="ssr:stedsnr" v="896143" />
	</node>
	<node id="-297363" lat="58.3304305558" lon="8.11229999944">
		<tag k="bridge" v="yes" />
		<tag k="layer" v="1" />
		<tag k="name" v="Trangedal" />
		<tag k="ssr:stedsnr" v="896125" />
	</node>
	<node id="-296796" lat="58.5173583304" lon="8.22989443799">
		<tag k="bridge" v="yes" />
		<tag k="layer" v="1" />
		<tag k="name" v="Fidje" />
		<tag k="ssr:stedsnr" v="350143" />
	</node>
	<node id="-300730" lat="58.545319441" lon="8.36296944147">
		<tag k="bridge" v="yes" />
		<tag k="layer" v="1" />
		<tag k="name" v="Byttingsbekk" />
		<tag k="ssr:stedsnr" v="836114" />
	</node>
	<node id="-300816" lat="58.5359777781" lon="8.35234999702">
		<tag k="name" v="Herefoss" />
		<tag k="railway" v="station" />
		<tag k="ssr:stedsnr" v="850209" />
		<tag k="train" v="yes" />
	</node>
	<node id="-299469" lat="58.3509611113" lon="8.24771944106">
		<tag k="bridge" v="yes" />
		<tag k="layer" v="1" />
		<tag k="name" v="Håbesland" />
		<tag k="ssr:stedsnr" v="592186" />
	</node>
	<node id="-298267" lat="58.5568583346" lon="8.37356943829">
		<tag k="bridge" v="yes" />
		<tag k="layer" v="1" />
		<tag k="name" v="Sundtjønn ytre" />
		<tag k="ssr:stedsnr" v="168138" />
	</node>
	<node id="-299658" lat="58.5066305567" lon="8.28355278292">
		<tag k="fixme" v="verify maritime location" />
		<tag k="mooring" v="yes" />
		<tag k="name" v="Vinterstøa" />
		<tag k="place" v="locality" />
		<tag k="ssr:stedsnr" v="639285" />
	</node>
	<node id="-299785" lat="58.3271500008" lon="8.23738056067">
		<tag k="bridge" v="yes" />
		<tag k="layer" v="1" />
		<tag k="name" v="Nordgården" />
		<tag k="ssr:stedsnr" v="653162" />
	</node>
	<node id="-297224" lat="58.4791555511" lon="8.33913610429">
		<tag k="fixme" v="verify maritime location" />
		<tag k="mooring" v="yes" />
		<tag k="name" v="Toplandstøa" />
		<tag k="place" v="locality" />
		<tag k="ssr:stedsnr" v="882181" />
	</node>
	<node id="-297223" lat="58.4825027811" lon="8.34172500605">
		<tag k="highway" v="path" />
		<tag k="name" v="Allmannvegen" />
		<tag k="ssr:stedsnr" v="882177" />
	</node>
	<node id="-296709" lat="58.3619749973" lon="8.24372222211">
		<tag k="highway" v="path" />
		<tag k="name" v="Gamlekleivane" />
		<tag k="ssr:stedsnr" v="336859" />
	</node>
	<node id="-299784" lat="58.5279805541" lon="7.94936945227">
		<tag k="bridge" v="yes" />
		<tag k="layer" v="1" />
		<tag k="name" v="Gjerustad" />
		<tag k="ssr:stedsnr" v="653138" />
	</node>
</osm>
