<?xml version="1.0" encoding="UTF-8"?>
<osm generator="osmapis" version="0.6">
	<node id="-296884" lat="58.4414611079" lon="8.11609445288">
		<tag k="name" v="Neset" />
		<tag k="place" v="farm" />
		<tag k="ssr:stedsnr" v="287566" />
	</node>
	<node id="-300961" lat="58.2584944416" lon="8.2106916637">
		<tag k="fixme" v="multiple name tags, choose one and add the other to alt_name; consider place=hamlet" />
		<tag k="name" v="Møretrå;Geitåsen" />
		<tag k="place" v="farm" />
		<tag k="ssr:stedsnr" v="789717" />
	</node>
	<node id="-300959" lat="58.5551750021" lon="8.04200278175">
		<tag k="alt_name" v="Grønbekkstedan" />
		<tag k="name" v="Grønebekksteane" />
		<tag k="place" v="locality" />
		<tag k="ssr:stedsnr" v="789620" />
	</node>
	<node id="-300954" lat="58.4887638879" lon="8.34553055223">
		<tag k="name" v="Støa" />
		<tag k="place" v="farm" />
		<tag k="ssr:stedsnr" v="789448" />
	</node>
	<node id="-300952" lat="58.4043361089" lon="8.2800222288">
		<tag k="fixme" v="consider place=hamlet" />
		<tag k="name" v="Kjærestrøm" />
		<tag k="place" v="farm" />
		<tag k="ssr:stedsnr" v="789439" />
	</node>
	<node id="-300950" lat="58.4457194479" lon="8.24521945056">
		<tag k="fixme" v="consider place=hamlet" />
		<tag k="name" v="Ånnesland" />
		<tag k="place" v="farm" />
		<tag k="ssr:stedsnr" v="789401" />
	</node>
	<node id="-300947" lat="58.3709999957" lon="8.17643056359">
		<tag k="fixme" v="consider place=hamlet" />
		<tag k="name" v="Knappholt" />
		<tag k="place" v="farm" />
		<tag k="ssr:stedsnr" v="789359" />
	</node>
	<node id="-300946" lat="58.3833694433" lon="8.25939443807">
		<tag k="name" v="Flå" />
		<tag k="place" v="hamlet" />
		<tag k="ssr:stedsnr" v="789349" />
	</node>
	<node id="-300945" lat="58.3818444446" lon="8.24593333662">
		<tag k="name" v="Lien" />
		<tag k="place" v="farm" />
		<tag k="ssr:stedsnr" v="789347" />
	</node>
	<node id="-300944" lat="58.3824833358" lon="8.26841111439">
		<tag k="name" v="Flå" />
		<tag k="place" v="hamlet" />
		<tag k="ssr:stedsnr" v="789348" />
	</node>
	<node id="-300939" lat="58.3133083379" lon="8.22723611828">
		<tag k="fixme" v="consider place=hamlet" />
		<tag k="name" v="Vassbotn" />
		<tag k="place" v="farm" />
		<tag k="ssr:stedsnr" v="789288" />
	</node>
	<node id="-298889" lat="58.3760277777" lon="8.26282500605">
		<tag k="name" v="Jordfallet" />
		<tag k="place" v="locality" />
		<tag k="ssr:stedsnr" v="215869" />
	</node>
	<node id="-300934" lat="58.501697225" lon="8.20478333691">
		<tag k="fixme" v="consider place=hamlet" />
		<tag k="name" v="Retterholt" />
		<tag k="place" v="farm" />
		<tag k="ssr:stedsnr" v="789045" />
	</node>
	<node id="-300932" lat="58.2829027766" lon="8.07991111224">
		<tag k="name" v="Grua" />
		<tag k="place" v="farm" />
		<tag k="ssr:stedsnr" v="789008" />
	</node>
	<node id="-300928" lat="58.3361833375" lon="8.21043889221">
		<tag k="fixme" v="consider place=hamlet" />
		<tag k="name" v="Flakk" />
		<tag k="place" v="farm" />
		<tag k="ssr:stedsnr" v="788868" />
	</node>
	<node id="-300927" lat="58.2666861145" lon="8.21311389666">
		<tag k="name" v="Myra" />
		<tag k="place" v="farm" />
		<tag k="ssr:stedsnr" v="788710" />
	</node>
	<node id="-300926" lat="58.4612497222" lon="8.36729557339">
		<tag k="name" v="Rønningen" />
		<tag k="place" v="farm" />
		<tag k="ssr:stedsnr" v="788464" />
	</node>
	<node id="-300925" lat="58.4607805567" lon="8.36085833524">
		<tag k="fixme" v="consider place=hamlet" />
		<tag k="name" v="Rosåsen" />
		<tag k="place" v="farm" />
		<tag k="ssr:stedsnr" v="788462" />
	</node>
	<node id="-300923" lat="58.4374805528" lon="8.35129445022">
		<tag k="fixme" v="consider place=hamlet" />
		<tag k="name" v="Rodalen" />
		<tag k="place" v="farm" />
		<tag k="ssr:stedsnr" v="788390" />
	</node>
	<node id="-300922" lat="58.436727775" lon="8.24679999849">
		<tag k="name" v="Risbu" />
		<tag k="place" v="isolated_dwelling" />
		<tag k="ssr:stedsnr" v="788360" />
	</node>
	<node id="-300921" lat="58.3463611124" lon="8.3086694471">
		<tag k="name" v="Lonåsen" />
		<tag k="place" v="isolated_dwelling" />
		<tag k="ssr:stedsnr" v="788352" />
	</node>
	<node id="-300920" lat="58.3457388878" lon="8.2896194381">
		<tag k="fixme" v="consider place=hamlet" />
		<tag k="name" v="Øvland" />
		<tag k="place" v="farm" />
		<tag k="ssr:stedsnr" v="788350" />
	</node>
	<node id="-300917" lat="58.3511944449" lon="8.24021666826">
		<tag k="fixme" v="consider place=hamlet" />
		<tag k="name" v="Slogedalen" />
		<tag k="place" v="farm" />
		<tag k="ssr:stedsnr" v="788340" />
	</node>
	<node id="-296819" lat="58.2583555588" lon="8.20995278233">
		<tag k="name" v="Møretrå" />
		<tag k="place" v="farm" />
		<tag k="ssr:stedsnr" v="275902" />
	</node>
	<node id="-298863" lat="58.5176472199" lon="8.34829722377">
		<tag k="name" v="Smedbakken" />
		<tag k="place" v="farm" />
		<tag k="ssr:stedsnr" v="215257" />
	</node>
	<node id="-298820" lat="58.3437083364" lon="8.29001110461">
		<tag k="name" v="Larsbakk" />
		<tag k="place" v="locality" />
		<tag k="ssr:stedsnr" v="210683" />
	</node>
	<node id="-298813" lat="58.3422055575" lon="8.22585555619">
		<tag k="name" v="Stykket" />
		<tag k="place" v="farm" />
		<tag k="ssr:stedsnr" v="210396" />
	</node>
	<node id="-298812" lat="58.32628889" lon="8.21284721475">
		<tag k="name" v="Svåberg" />
		<tag k="place" v="isolated_dwelling" />
		<tag k="ssr:stedsnr" v="210394" />
	</node>
	<node id="-298801" lat="58.6094583303" lon="8.11686388341">
		<tag k="name" v="Storeliøygarden" />
		<tag k="place" v="locality" />
		<tag k="ssr:stedsnr" v="183334" />
	</node>
	<node id="-298797" lat="58.5183361149" lon="8.22822222268">
		<tag k="fixme" v="consider place=hamlet" />
		<tag k="name" v="Fidje" />
		<tag k="place" v="farm" />
		<tag k="ssr:stedsnr" v="183055" />
	</node>
	<node id="-298794" lat="58.2739194408" lon="8.17415556365">
		<tag k="fixme" v="consider place=hamlet" />
		<tag k="name" v="Åbål" />
		<tag k="place" v="farm" />
		<tag k="ssr:stedsnr" v="182719" />
	</node>
	<node id="-298785" lat="58.4890916663" lon="8.35367500612">
		<tag k="fixme" v="consider place=hamlet" />
		<tag k="name" v="Engebu" />
		<tag k="place" v="farm" />
		<tag k="ssr:stedsnr" v="182428" />
	</node>
	<node id="-298780" lat="58.3430500026" lon="8.32421111769">
		<tag k="fixme" v="consider place=hamlet" />
		<tag k="name" v="Slottet" />
		<tag k="place" v="farm" />
		<tag k="ssr:stedsnr" v="182362" />
	</node>
	<node id="-298778" lat="58.3693083329" lon="8.2585249922">
		<tag k="name" v="Liane" />
		<tag k="place" v="farm" />
		<tag k="ssr:stedsnr" v="182333" />
	</node>
	<node id="-298776" lat="58.2858333305" lon="8.18641111148">
		<tag k="fixme" v="consider place=hamlet" />
		<tag k="name" v="Have" />
		<tag k="place" v="farm" />
		<tag k="ssr:stedsnr" v="182303" />
	</node>
	<node id="-298774" lat="58.3061388934" lon="8.18055000826">
		<tag k="fixme" v="consider place=hamlet" />
		<tag k="name" v="Bjorhus" />
		<tag k="place" v="farm" />
		<tag k="ssr:stedsnr" v="182273" />
	</node>
	<node id="-298772" lat="58.3170111069" lon="8.25180278162">
		<tag k="name" v="Øygard" />
		<tag k="place" v="farm" />
		<tag k="ssr:stedsnr" v="182264" />
	</node>
	<node id="-298771" lat="58.3308138879" lon="8.23230555336">
		<tag k="name" v="Birkeland" />
		<tag k="place" v="village" />
		<tag k="ssr:stedsnr" v="182259" />
	</node>
	<node id="-298769" lat="58.3353027771" lon="8.28367778409">
		<tag k="fixme" v="consider place=hamlet" />
		<tag k="name" v="Ås" />
		<tag k="place" v="farm" />
		<tag k="ssr:stedsnr" v="182241" />
	</node>
	<node id="-298764" lat="58.4497361079" lon="8.08631944539">
		<tag k="fixme" v="consider place=hamlet" />
		<tag k="name" v="Haugland" />
		<tag k="place" v="farm" />
		<tag k="ssr:stedsnr" v="182209" />
	</node>
	<node id="-298762" lat="58.3591055515" lon="8.05620832919">
		<tag k="fixme" v="consider place=hamlet" />
		<tag k="name" v="Dale" />
		<tag k="place" v="farm" />
		<tag k="ssr:stedsnr" v="182070" />
	</node>
	<node id="-298761" lat="58.3717694476" lon="8.05477499454">
		<tag k="name" v="Grunnetjønn" />
		<tag k="place" v="farm" />
		<tag k="ssr:stedsnr" v="182067" />
	</node>
	<node id="-300800" lat="58.4373277801" lon="8.11829999512">
		<tag k="name" v="Løynjordet" />
		<tag k="place" v="locality" />
		<tag k="ssr:stedsnr" v="772519" />
	</node>
	<node id="-298728" lat="58.5266638877" lon="8.11674166313">
		<tag k="leisure" v="pitch" />
		<tag k="name" v="Lindalsbakken" />
		<tag k="ssr:stedsnr" v="171132" />
	</node>
	<node id="-300752" lat="58.2737361104" lon="8.17361388947">
		<tag k="name" v="Åbål" />
		<tag k="place" v="farm" />
		<tag k="ssr:stedsnr" v="770806" />
	</node>
	<node id="-300720" lat="58.4794111115" lon="8.37005555173">
		<tag k="name" v="Toplandsheia" />
		<tag k="place" v="locality" />
		<tag k="ssr:stedsnr" v="761261" />
	</node>
	<node id="-298658" lat="58.4459500014" lon="8.08396944955">
		<tag k="name" v="Fredheim" />
		<tag k="ssr:stedsnr" v="165515" />
		<tag k="tourism" v="guest_house" />
	</node>
	<node id="-299971" lat="58.4981111127" lon="8.30068055018">
		<tag k="fixme" v="consider place=hamlet" />
		<tag k="name" v="Bjelland" />
		<tag k="place" v="farm" />
		<tag k="ssr:stedsnr" v="606037" />
	</node>
	<node id="-299286" lat="58.3117138876" lon="8.11707499864">
		<tag k="name" v="Lille Svaland" />
		<tag k="place" v="farm" />
		<tag k="ssr:stedsnr" v="469261" />
	</node>
	<node id="-301675" lat="58.4752960649" lon="8.19019330655">
		<tag k="fixme" v="consider place=hamlet" />
		<tag k="name" v="Lien" />
		<tag k="place" v="farm" />
		<tag k="ssr:stedsnr" v="971423" />
	</node>
	<node id="-301674" lat="58.4422327816" lon="8.12282045945">
		<tag k="name" v="Sundstøl" />
		<tag k="place" v="hamlet" />
		<tag k="ssr:stedsnr" v="971421" />
	</node>
	<node id="-300660" lat="58.2833166686" lon="8.22155277199">
		<tag k="name" v="Furåsen" />
		<tag k="place" v="locality" />
		<tag k="ssr:stedsnr" v="756286" />
	</node>
	<node id="-300650" lat="58.5375500023" lon="8.07520833628">
		<tag k="alt_name" v="Engesland, øvre" />
		<tag k="fixme" v="consider place=hamlet" />
		<tag k="name" v="Øvre Engesland" />
		<tag k="place" v="farm" />
		<tag k="ssr:stedsnr" v="729683" />
	</node>
	<node id="-298591" lat="58.3687750007" lon="8.22480000274">
		<tag k="name" v="Stølen" />
		<tag k="place" v="locality" />
		<tag k="ssr:stedsnr" v="154846" />
	</node>
	<node id="-300635" lat="58.31180278" lon="8.09684166725">
		<tag k="alt_name" v="Ås" />
		<tag k="name" v="Øvre Ås" />
		<tag k="place" v="farm" />
		<tag k="ssr:stedsnr" v="728872" />
	</node>
	<node id="-300633" lat="58.2818499958" lon="8.17720554847">
		<tag k="name" v="Myrane" />
		<tag k="place" v="farm" />
		<tag k="ssr:stedsnr" v="728704" />
	</node>
	<node id="-300629" lat="58.4600138892" lon="8.30630277406">
		<tag k="fixme" v="consider place=hamlet" />
		<tag k="name" v="Stoveland" />
		<tag k="place" v="farm" />
		<tag k="ssr:stedsnr" v="728451" />
	</node>
	<node id="-300628" lat="58.4874749992" lon="8.19199166697">
		<tag k="fixme" v="consider place=hamlet" />
		<tag k="name" v="Vestøl" />
		<tag k="place" v="farm" />
		<tag k="ssr:stedsnr" v="728429" />
	</node>
	<node id="-300623" lat="58.4426722247" lon="8.12091389732">
		<tag k="alt_name" v="Sundstøl, store" />
		<tag k="fixme" v="consider place=hamlet" />
		<tag k="name" v="Store Sundstøl" />
		<tag k="place" v="farm" />
		<tag k="ssr:stedsnr" v="728353" />
	</node>
	<node id="-300618" lat="58.393061109" lon="8.24843056379">
		<tag k="fixme" v="consider place=hamlet" />
		<tag k="name" v="Spjote" />
		<tag k="place" v="farm" />
		<tag k="ssr:stedsnr" v="728278" />
	</node>
	<node id="-300617" lat="58.3118083364" lon="8.10711388959">
		<tag k="name" v="Stølen" />
		<tag k="place" v="farm" />
		<tag k="ssr:stedsnr" v="728253" />
	</node>
	<node id="-298562" lat="58.5271749979" lon="8.35472776989">
		<tag k="name" v="Hamnehagen" />
		<tag k="place" v="quarter" />
		<tag k="ssr:stedsnr" v="154355" />
	</node>
	<node id="-300608" lat="58.4318805569" lon="8.30665555083">
		<tag k="name" v="Solbakken" />
		<tag k="place" v="farm" />
		<tag k="ssr:stedsnr" v="727026" />
	</node>
	<node id="-298546" lat="58.4701583361" lon="8.2919999951">
		<tag k="name" v="Nesbuplassen" />
		<tag k="place" v="locality" />
		<tag k="ssr:stedsnr" v="154138" />
	</node>
	<node id="-301660" lat="58.3165665535" lon="8.25237424815">
		<tag k="fixme" v="consider place=hamlet" />
		<tag k="name" v="Lille Birkeland" />
		<tag k="place" v="farm" />
		<tag k="ssr:stedsnr" v="971398" />
	</node>
	<node id="-300582" lat="58.5434944459" lon="8.02174999774">
		<tag k="name" v="Fåremyrløa" />
		<tag k="place" v="locality" />
		<tag k="ssr:stedsnr" v="717298" />
	</node>
	<node id="-298528" lat="58.421544446" lon="8.29657499949">
		<tag k="name" v="Hovet" />
		<tag k="place" v="locality" />
		<tag k="ssr:stedsnr" v="154020" />
	</node>
	<node id="-298509" lat="58.3418138917" lon="8.27542222621">
		<tag k="name" v="Øygarden" />
		<tag k="place" v="farm" />
		<tag k="ssr:stedsnr" v="149387" />
	</node>
	<node id="-298500" lat="58.2932111137" lon="8.25265000696">
		<tag k="building" v="industrial" />
		<tag k="industrial" v="factory" />
		<tag k="name" v="Myre torvstrøfabrikk" />
		<tag k="ssr:stedsnr" v="149264" />
	</node>
	<node id="-298480" lat="58.6208305596" lon="8.1631722164">
		<tag k="fixme" v="multiple name tags, choose one and add the other to alt_name" />
		<tag k="name" v="Sundsliøygarden;Øygarden" />
		<tag k="place" v="locality" />
		<tag k="ssr:stedsnr" v="122366" />
	</node>
	<node id="-298479" lat="58.5934194432" lon="8.15092222653">
		<tag k="fixme" v="consider place=hamlet" />
		<tag k="name" v="Flateland" />
		<tag k="place" v="farm" />
		<tag k="ssr:stedsnr" v="122333" />
	</node>
	<node id="-298472" lat="58.5316666631" lon="8.11779999658">
		<tag k="fixme" v="consider place=hamlet" />
		<tag k="name" v="Engesland" />
		<tag k="place" v="village" />
		<tag k="ssr:stedsnr" v="122195" />
	</node>
	<node id="-298465" lat="58.5098333311" lon="8.3330750044">
		<tag k="name" v="Bua" />
		<tag k="place" v="farm" />
		<tag k="ssr:stedsnr" v="122010" />
	</node>
	<node id="-298463" lat="58.4480861085" lon="8.10266945099">
		<tag k="alt_name" v="Orrheim" />
		<tag k="name" v="Orheim" />
		<tag k="place" v="farm" />
		<tag k="ssr:stedsnr" v="121492" />
	</node>
	<node id="-298461" lat="58.4572305581" lon="8.33177499402">
		<tag k="name" v="Åmli" />
		<tag k="ssr:stedsnr" v="121478" />
		<tag k="tourism" v="hotel" />
	</node>
	<node id="-298459" lat="58.4590166633" lon="8.26584166254">
		<tag k="fixme" v="consider place=hamlet" />
		<tag k="name" v="Væting" />
		<tag k="old_name" v="Væling" />
		<tag k="place" v="farm" />
		<tag k="ssr:stedsnr" v="121463" />
	</node>
	<node id="-298458" lat="58.4816861105" lon="8.13738332487">
		<tag k="fixme" v="consider place=hamlet" />
		<tag k="name" v="Løland" />
		<tag k="place" v="farm" />
		<tag k="ssr:stedsnr" v="121452" />
	</node>
	<node id="-300505" lat="58.4432694477" lon="8.10519167031">
		<tag k="name" v="Holmgard" />
		<tag k="place" v="farm" />
		<tag k="ssr:stedsnr" v="711529" />
	</node>
	<node id="-300502" lat="58.4850472227" lon="8.26816388111">
		<tag k="name" v="Øygarden" />
		<tag k="place" v="farm" />
		<tag k="ssr:stedsnr" v="711502" />
	</node>
	<node id="-298453" lat="58.3432583316" lon="8.23218333478">
		<tag k="alt_name" v="Ytterhus" />
		<tag k="name" v="Ydrehus" />
		<tag k="place" v="farm" />
		<tag k="ssr:stedsnr" v="121367" />
	</node>
	<node id="-298452" lat="58.3698722257" lon="8.29094721857">
		<tag k="fixme" v="consider place=hamlet" />
		<tag k="name" v="Refsteina" />
		<tag k="place" v="farm" />
		<tag k="ssr:stedsnr" v="121346" />
	</node>
	<node id="-298451" lat="58.3766027779" lon="8.30859167402">
		<tag k="fixme" v="consider place=hamlet" />
		<tag k="loc_name" v="Steinsvann" />
		<tag k="name" v="Steinsvatn" />
		<tag k="place" v="farm" />
		<tag k="ssr:stedsnr" v="121333" />
	</node>
	<node id="-298450" lat="58.3819583317" lon="8.16829166659">
		<tag k="fixme" v="consider place=hamlet" />
		<tag k="name" v="Refstad" />
		<tag k="place" v="farm" />
		<tag k="ssr:stedsnr" v="121328" />
	</node>
	<node id="-298449" lat="58.289488892" lon="8.17624722799">
		<tag k="fixme" v="consider place=hamlet" />
		<tag k="name" v="Rugsland" />
		<tag k="place" v="farm" />
		<tag k="ssr:stedsnr" v="121317" />
	</node>
	<node id="-298448" lat="58.3069833294" lon="8.25694999857">
		<tag k="name" v="Mofia" />
		<tag k="place" v="farm" />
		<tag k="ssr:stedsnr" v="121287" />
	</node>
	<node id="-299256" lat="58.4334305546" lon="8.11458055901">
		<tag k="name" v="Bergli" />
		<tag k="place" v="farm" />
		<tag k="ssr:stedsnr" v="468485" />
	</node>
	<node id="-298444" lat="58.4822222181" lon="8.05255833507">
		<tag k="alt_name" v="Fjermedal, øvre" />
		<tag k="name" v="Øvre Fjermedal" />
		<tag k="place" v="farm" />
		<tag k="ssr:stedsnr" v="121250" />
	</node>
	<node id="-299596" lat="58.5800416631" lon="8.13673334162">
		<tag k="name" v="Karten" />
		<tag k="place" v="farm" />
		<tag k="ssr:stedsnr" v="534078" />
	</node>
	<node id="-298420" lat="58.5294027783" lon="8.11793888068">
		<tag k="amenity" v="school" />
		<tag k="name" v="Engesland skole" />
		<tag k="ssr:stedsnr" v="111148" />
	</node>
	<node id="-300444" lat="58.2711694463" lon="8.17522499505">
		<tag k="name" v="Åbål" />
		<tag k="place" v="farm" />
		<tag k="ssr:stedsnr" v="709804" />
	</node>
	<node id="-300435" lat="58.2812194488" lon="8.12449999823">
		<tag k="name" v="Høyvoll" />
		<tag k="place" v="locality" />
		<tag k="ssr:stedsnr" v="700942" />
	</node>
	<node id="-298898" lat="58.3021499963" lon="8.14774165852">
		<tag k="name" v="Øygarden" />
		<tag k="place" v="locality" />
		<tag k="ssr:stedsnr" v="215955" />
	</node>
	<node id="-298334" lat="58.4275638912" lon="8.15765556271">
		<tag k="name" v="Storeheiplassen" />
		<tag k="place" v="locality" />
		<tag k="ssr:stedsnr" v="105467" />
	</node>
	<node id="-300366" lat="58.3804388886" lon="8.32290832686">
		<tag k="name" v="Ronnen" />
		<tag k="place" v="isolated_dwelling" />
		<tag k="ssr:stedsnr" v="700025" />
	</node>
	<node id="-300364" lat="58.3785249979" lon="8.3113083412">
		<tag k="name" v="Skallen" />
		<tag k="place" v="isolated_dwelling" />
		<tag k="ssr:stedsnr" v="700021" />
	</node>
	<node id="-300363" lat="58.378644448" lon="8.3154555594">
		<tag k="name" v="Rønningen" />
		<tag k="place" v="locality" />
		<tag k="ssr:stedsnr" v="700019" />
	</node>
	<node id="-300355" lat="58.3386861079" lon="8.21908610538">
		<tag k="name" v="Lunden" />
		<tag k="place" v="farm" />
		<tag k="ssr:stedsnr" v="696373" />
	</node>
	<node id="-300354" lat="58.2894361086" lon="8.25522222129">
		<tag k="name" v="Øygarden" />
		<tag k="place" v="isolated_dwelling" />
		<tag k="ssr:stedsnr" v="696285" />
	</node>
	<node id="-300350" lat="58.2989305525" lon="8.2785805596">
		<tag k="name" v="Modalen" />
		<tag k="place" v="locality" />
		<tag k="ssr:stedsnr" v="695744" />
	</node>
	<node id="-300348" lat="58.3128111099" lon="8.2334166678">
		<tag k="name" v="Herregård" />
		<tag k="place" v="isolated_dwelling" />
		<tag k="ssr:stedsnr" v="695741" />
	</node>
	<node id="-300344" lat="58.3432500039" lon="8.27335554707">
		<tag k="name" v="Østerhus" />
		<tag k="place" v="farm" />
		<tag k="ssr:stedsnr" v="695400" />
	</node>
	<node id="-300335" lat="58.5292000044" lon="7.95226110456">
		<tag k="alt_name" v="Svåland" />
		<tag k="name" v="Svaland" />
		<tag k="place" v="farm" />
		<tag k="ssr:stedsnr" v="668699" />
	</node>
	<node id="-300334" lat="58.5341027815" lon="7.97928334092">
		<tag k="name" v="Vatne" />
		<tag k="place" v="farm" />
		<tag k="ssr:stedsnr" v="668698" />
	</node>
	<node id="-300330" lat="58.5246055569" lon="8.04070554928">
		<tag k="fixme" v="consider place=hamlet" />
		<tag k="name" v="Dovland" />
		<tag k="place" v="farm" />
		<tag k="ssr:stedsnr" v="668447" />
	</node>
	<node id="-300328" lat="58.3628999978" lon="8.17249999974">
		<tag k="fixme" v="consider place=hamlet" />
		<tag k="name" v="Natveit" />
		<tag k="place" v="farm" />
		<tag k="ssr:stedsnr" v="668383" />
	</node>
	<node id="-297036" lat="58.3593333327" lon="8.28283055336">
		<tag k="fixme" v="consider place=hamlet" />
		<tag k="name" v="Jamsland" />
		<tag k="place" v="farm" />
		<tag k="ssr:stedsnr" v="304352" />
	</node>
	<node id="-300320" lat="58.5877222184" lon="8.44139445187">
		<tag k="name" v="Skogtveit" />
		<tag k="place" v="farm" />
		<tag k="ssr:stedsnr" v="668198" />
	</node>
	<node id="-300314" lat="58.524280558" lon="8.35115834004">
		<tag k="fixme" v="consider place=hamlet" />
		<tag k="name" v="Herefoss" />
		<tag k="place" v="village" />
		<tag k="ssr:stedsnr" v="668040" />
	</node>
	<node id="-300311" lat="58.2644805598" lon="8.16956389259">
		<tag k="fixme" v="consider place=hamlet" />
		<tag k="name" v="Grødum" />
		<tag k="place" v="farm" />
		<tag k="ssr:stedsnr" v="667670" />
	</node>
	<node id="-300310" lat="58.2548361143" lon="8.22443610926">
		<tag k="alt_name" v="Sagen" />
		<tag k="fixme" v="consider place=hamlet" />
		<tag k="name" v="Saga" />
		<tag k="place" v="farm" />
		<tag k="ssr:stedsnr" v="667660" />
	</node>
	<node id="-300307" lat="58.4902111119" lon="8.23849999579">
		<tag k="fixme" v="consider place=hamlet" />
		<tag k="name" v="Håstøl" />
		<tag k="place" v="farm" />
		<tag k="ssr:stedsnr" v="667418" />
	</node>
	<node id="-300300" lat="58.4407666695" lon="8.15060000064">
		<tag k="fixme" v="consider place=hamlet" />
		<tag k="name" v="Vindvann" />
		<tag k="place" v="farm" />
		<tag k="ssr:stedsnr" v="667376" />
	</node>
	<node id="-300294" lat="58.3274972265" lon="8.19715277633">
		<tag k="alt_name" v="Nesset" />
		<tag k="name" v="Neset" />
		<tag k="place" v="farm" />
		<tag k="ssr:stedsnr" v="667275" />
	</node>
	<node id="-300293" lat="58.3300222193" lon="8.27226110744">
		<tag k="fixme" v="consider place=hamlet" />
		<tag k="name" v="Risvann" />
		<tag k="place" v="farm" />
		<tag k="ssr:stedsnr" v="667268" />
	</node>
	<node id="-300292" lat="58.3334333378" lon="8.3096388805">
		<tag k="name" v="Eggevad" />
		<tag k="place" v="isolated_dwelling" />
		<tag k="ssr:stedsnr" v="667251" />
	</node>
	<node id="-300289" lat="58.4966083378" lon="8.34114999611">
		<tag k="name" v="Odden" />
		<tag k="place" v="isolated_dwelling" />
		<tag k="ssr:stedsnr" v="667055" />
	</node>
	<node id="-300288" lat="58.497236107" lon="8.3456500025">
		<tag k="fixme" v="consider place=hamlet" />
		<tag k="name" v="Direnes" />
		<tag k="place" v="farm" />
		<tag k="ssr:stedsnr" v="667050" />
	</node>
	<node id="-300286" lat="58.2860249956" lon="8.08753888483">
		<tag k="name" v="Krona" />
		<tag k="place" v="farm" />
		<tag k="ssr:stedsnr" v="667006" />
	</node>
	<node id="-298231" lat="58.571138886" lon="8.37774444535">
		<tag k="alt_name" v="Moen" />
		<tag k="name" v="Monen" />
		<tag k="place" v="farm" />
		<tag k="ssr:stedsnr" v="93244" />
	</node>
	<node id="-298175" lat="58.5158444402" lon="8.02557499503">
		<tag k="name" v="Fidjeland" />
		<tag k="place" v="farm" />
		<tag k="ssr:stedsnr" v="62422" />
	</node>
	<node id="-298869" lat="58.5678194462" lon="8.37534722546">
		<tag k="name" v="Vestli" />
		<tag k="place" v="isolated_dwelling" />
		<tag k="ssr:stedsnr" v="215347" />
	</node>
	<node id="-298170" lat="58.5017472257" lon="8.2606916664">
		<tag k="name" v="Lande" />
		<tag k="place" v="farm" />
		<tag k="ssr:stedsnr" v="62011" />
	</node>
	<node id="-298167" lat="58.5259638848" lon="7.95350278315">
		<tag k="fixme" v="consider place=hamlet" />
		<tag k="name" v="Gjerustad" />
		<tag k="place" v="farm" />
		<tag k="ssr:stedsnr" v="61653" />
	</node>
	<node id="-298165" lat="58.4664055599" lon="8.3721888944">
		<tag k="name" v="Stie" />
		<tag k="place" v="farm" />
		<tag k="ssr:stedsnr" v="61461" />
	</node>
	<node id="-298163" lat="58.4649166671" lon="8.1345527743">
		<tag k="fixme" v="consider place=hamlet" />
		<tag k="name" v="Skreros" />
		<tag k="place" v="farm" />
		<tag k="ssr:stedsnr" v="61447" />
	</node>
	<node id="-300915" lat="58.3334222192" lon="8.20632778228">
		<tag k="fixme" v="consider place=hamlet" />
		<tag k="name" v="Flakk" />
		<tag k="place" v="farm" />
		<tag k="ssr:stedsnr" v="788255" />
	</node>
	<node id="-298160" lat="58.3960583358" lon="8.10828611347">
		<tag k="name" v="Buli" />
		<tag k="place" v="farm" />
		<tag k="ssr:stedsnr" v="61425" />
	</node>
	<node id="-298158" lat="58.4331499966" lon="8.11421667003">
		<tag k="fixme" v="consider place=hamlet" />
		<tag k="name" v="Sørli" />
		<tag k="place" v="farm" />
		<tag k="ssr:stedsnr" v="61371" />
	</node>
	<node id="-298154" lat="58.3896472256" lon="8.22681665877">
		<tag k="fixme" v="consider place=hamlet" />
		<tag k="name" v="Øygarden" />
		<tag k="place" v="farm" />
		<tag k="ssr:stedsnr" v="61312" />
	</node>
	<node id="-298149" lat="58.3032249958" lon="8.1925444524">
		<tag k="name" v="Varpelia" />
		<tag k="place" v="farm" />
		<tag k="ssr:stedsnr" v="61277" />
	</node>
	<node id="-298136" lat="58.2678416667" lon="8.22851389228">
		<tag k="name" v="Klepp" />
		<tag k="place" v="isolated_dwelling" />
		<tag k="ssr:stedsnr" v="60737" />
	</node>
	<node id="-298135" lat="58.2721194449" lon="8.20653610976">
		<tag k="fixme" v="consider place=hamlet" />
		<tag k="name" v="Øvre Røynås" />
		<tag k="place" v="farm" />
		<tag k="ssr:stedsnr" v="60735" />
	</node>
	<node id="-300120" lat="58.2737361104" lon="8.17361388947">
		<tag k="name" v="Åbål" />
		<tag k="place" v="farm" />
		<tag k="ssr:stedsnr" v="648805" />
	</node>
	<node id="-298041" lat="58.3606222246" lon="8.07551110574">
		<tag k="amenity" v="school" />
		<tag k="name" v="Fjelltun skole" />
		<tag k="ssr:stedsnr" v="44675" />
	</node>
	<node id="-298161" lat="58.4935638902" lon="8.34484166262">
		<tag k="name" v="Stien" />
		<tag k="place" v="isolated_dwelling" />
		<tag k="ssr:stedsnr" v="61429" />
	</node>
	<node id="-300034" lat="58.2839694418" lon="8.27098888766">
		<tag k="name" v="Røyseland" />
		<tag k="place" v="locality" />
		<tag k="ssr:stedsnr" v="634385" />
	</node>
	<node id="-300030" lat="58.280680552" lon="8.22404721698">
		<tag k="name" v="Furåsen" />
		<tag k="place" v="locality" />
		<tag k="ssr:stedsnr" v="634345" />
	</node>
	<node id="-297972" lat="58.44466111" lon="8.10567500391">
		<tag k="name" v="Lund" />
		<tag k="place" v="farm" />
		<tag k="ssr:stedsnr" v="43524" />
	</node>
	<node id="-300019" lat="58.5297416697" lon="8.04877500314">
		<tag k="fixme" v="consider place=hamlet" />
		<tag k="name" v="Røyland" />
		<tag k="place" v="farm" />
		<tag k="ssr:stedsnr" v="607671" />
	</node>
	<node id="-300018" lat="58.4781388862" lon="8.36186388543">
		<tag k="name" v="Solheim" />
		<tag k="place" v="isolated_dwelling" />
		<tag k="ssr:stedsnr" v="607465" />
	</node>
	<node id="-300016" lat="58.5141694407" lon="8.08243055271">
		<tag k="fixme" v="consider place=hamlet" />
		<tag k="name" v="Belland" />
		<tag k="place" v="farm" />
		<tag k="ssr:stedsnr" v="607424" />
	</node>
	<node id="-300014" lat="58.3737166658" lon="8.14195000012">
		<tag k="name" v="Bjorbekk" />
		<tag k="place" v="locality" />
		<tag k="ssr:stedsnr" v="607353" />
	</node>
	<node id="-300010" lat="58.2849555597" lon="8.13595277931">
		<tag k="fixme" v="consider place=hamlet" />
		<tag k="name" v="Bjorvann" />
		<tag k="place" v="farm" />
		<tag k="ssr:stedsnr" v="607323" />
	</node>
	<node id="-300009" lat="58.5396027749" lon="8.21174444818">
		<tag k="name" v="Furholt" />
		<tag k="place" v="locality" />
		<tag k="ssr:stedsnr" v="607250" />
	</node>
	<node id="-300005" lat="58.5322833349" lon="8.26358888851">
		<tag k="name" v="Råbudalen" />
		<tag k="place" v="farm" />
		<tag k="ssr:stedsnr" v="607204" />
	</node>
	<node id="-300004" lat="58.5426472226" lon="8.32721110597">
		<tag k="name" v="Retterstøl" />
		<tag k="place" v="isolated_dwelling" />
		<tag k="ssr:stedsnr" v="607199" />
	</node>
	<node id="-300002" lat="58.556361112" lon="8.09533889683">
		<tag k="fixme" v="consider place=hamlet" />
		<tag k="name" v="Austre Haukom" />
		<tag k="place" v="farm" />
		<tag k="ssr:stedsnr" v="607155" />
	</node>
	<node id="-299991" lat="58.255088893" lon="8.17089444429">
		<tag k="fixme" v="consider place=hamlet" />
		<tag k="name" v="Espegra" />
		<tag k="place" v="farm" />
		<tag k="ssr:stedsnr" v="606701" />
	</node>
	<node id="-299989" lat="58.4853944455" lon="8.26862222939">
		<tag k="name" v="Øygarden" />
		<tag k="place" v="farm" />
		<tag k="ssr:stedsnr" v="606435" />
	</node>
	<node id="-299988" lat="58.3977601324" lon="8.20246783937">
		<tag k="fixme" v="consider place=hamlet" />
		<tag k="name" v="Øyvann" />
		<tag k="place" v="farm" />
		<tag k="ssr:stedsnr" v="606413" />
	</node>
	<node id="-299986" lat="58.4011972195" lon="8.1902416638">
		<tag k="alt_name" v="Tjørntveit" />
		<tag k="fixme" v="consider place=hamlet" />
		<tag k="loc_name" v="Tjønntveit" />
		<tag k="name" v="Øvre Tjørntveit" />
		<tag k="place" v="farm" />
		<tag k="ssr:stedsnr" v="606408" />
	</node>
	<node id="-299983" lat="58.4164694441" lon="8.28637777432">
		<tag k="alt_name" v="Sennumstad" />
		<tag k="fixme" v="consider place=hamlet" />
		<tag k="name" v="Senumstad" />
		<tag k="place" v="farm" />
		<tag k="ssr:stedsnr" v="606393" />
	</node>
	<node id="-299975" lat="58.3322749991" lon="8.2797777795">
		<tag k="name" v="Flaten" />
		<tag k="place" v="farm" />
		<tag k="ssr:stedsnr" v="606240" />
	</node>
	<node id="-297462" lat="58.2819083341" lon="8.17748055382">
		<tag k="name" v="Åbål" />
		<tag k="place" v="farm" />
		<tag k="ssr:stedsnr" v="406819" />
	</node>
	<node id="-299953" lat="58.5372249987" lon="8.06806944591">
		<tag k="name" v="Furujordet" />
		<tag k="place" v="farm" />
		<tag k="ssr:stedsnr" v="596247" />
	</node>
	<node id="-299951" lat="58.5375638853" lon="8.07472776983">
		<tag k="name" v="Haugen" />
		<tag k="place" v="farm" />
		<tag k="ssr:stedsnr" v="596217" />
	</node>
	<node id="-297897" lat="58.3274694403" lon="8.21846667484">
		<tag k="name" v="Nyhaven" />
		<tag k="place" v="farm" />
		<tag k="ssr:stedsnr" v="28386" />
	</node>
	<node id="-297880" lat="58.3235722194" lon="8.24668333915">
		<tag k="fixme" v="consider place=hamlet" />
		<tag k="name" v="Øvre Birkeland" />
		<tag k="place" v="farm" />
		<tag k="ssr:stedsnr" v="20927" />
	</node>
	<node id="-297868" lat="58.277253086" lon="8.11835780183">
		<tag k="fixme" v="consider place=hamlet" />
		<tag k="name" v="Følsvatn" />
		<tag k="place" v="farm" />
		<tag k="ssr:stedsnr" v="747" />
	</node>
	<node id="-297867" lat="58.2619055526" lon="8.17107499947">
		<tag k="fixme" v="consider place=hamlet" />
		<tag k="name" v="Mjølemonen" />
		<tag k="place" v="farm" />
		<tag k="ssr:stedsnr" v="723" />
	</node>
	<node id="-299912" lat="58.5880555539" lon="8.11829443785">
		<tag k="name" v="Skårsaga" />
		<tag k="place" v="locality" />
		<tag k="ssr:stedsnr" v="595416" />
	</node>
	<node id="-297863" lat="58.4011888929" lon="8.1109638939">
		<tag k="name" v="Røli" />
		<tag k="place" v="farm" />
		<tag k="ssr:stedsnr" v="448" />
	</node>
	<node id="-297862" lat="58.4011999972" lon="8.24702500216">
		<tag k="name" v="Foss" />
		<tag k="place" v="locality" />
		<tag k="ssr:stedsnr" v="433" />
	</node>
	<node id="-297857" lat="58.4211416632" lon="8.2878972211">
		<tag k="name" v="Rønningen" />
		<tag k="place" v="farm" />
		<tag k="ssr:stedsnr" v="404" />
	</node>
	<node id="-297856" lat="58.4438055571" lon="8.27641944507">
		<tag k="name" v="Haugen" />
		<tag k="place" v="farm" />
		<tag k="ssr:stedsnr" v="393" />
	</node>
	<node id="-297853" lat="58.3476999978" lon="8.32478889021">
		<tag k="alt_name" v="Solborg" />
		<tag k="fixme" v="consider place=hamlet" />
		<tag k="name" v="Solberg" />
		<tag k="place" v="farm" />
		<tag k="ssr:stedsnr" v="372" />
	</node>
	<node id="-297852" lat="58.3566111126" lon="8.15742499614">
		<tag k="name" v="Natveitdalen" />
		<tag k="place" v="isolated_dwelling" />
		<tag k="ssr:stedsnr" v="361" />
	</node>
	<node id="-297849" lat="58.3781694447" lon="8.21567778494">
		<tag k="name" v="Mosfjell" />
		<tag k="place" v="hamlet" />
		<tag k="ssr:stedsnr" v="332" />
	</node>
	<node id="-297848" lat="58.292649997" lon="8.1848722185">
		<tag k="fixme" v="consider place=hamlet" />
		<tag k="name" v="Høygilt" />
		<tag k="place" v="farm" />
		<tag k="ssr:stedsnr" v="317" />
	</node>
	<node id="-297844" lat="58.3186805515" lon="8.18756944128">
		<tag k="fixme" v="consider place=hamlet" />
		<tag k="name" v="Vestre Mollestad" />
		<tag k="place" v="farm" />
		<tag k="ssr:stedsnr" v="287" />
	</node>
	<node id="-299886" lat="58.4565527776" lon="8.25887500104">
		<tag k="name" v="Børufsduk" />
		<tag k="place" v="farm" />
		<tag k="ssr:stedsnr" v="590823" />
	</node>
	<node id="-299880" lat="58.4911083324" lon="8.24172222227">
		<tag k="name" v="Gamle Håstøl" />
		<tag k="place" v="locality" />
		<tag k="ssr:stedsnr" v="590757" />
	</node>
	<node id="-297826" lat="58.5313082569" lon="7.98945366446">
		<tag k="name" v="Søndre Kjelevann" />
		<tag k="place" v="farm" />
		<tag k="ssr:stedsnr" v="982286" />
	</node>
	<node id="-297806" lat="58.5469444458" lon="8.05230276999">
		<tag k="name" v="Moneløa" />
		<tag k="place" v="locality" />
		<tag k="ssr:stedsnr" v="899284" />
	</node>
	<node id="-297766" lat="58.3486805563" lon="8.17038055364">
		<tag k="name" v="Halvtekka" />
		<tag k="place" v="locality" />
		<tag k="ssr:stedsnr" v="894710" />
	</node>
	<node id="-297763" lat="58.3603833368" lon="8.07355000215">
		<tag k="name" v="Åsen" />
		<tag k="place" v="farm" />
		<tag k="ssr:stedsnr" v="894694" />
	</node>
	<node id="-299803" lat="58.2741750022" lon="8.17355277701">
		<tag k="name" v="Åbål" />
		<tag k="place" v="farm" />
		<tag k="ssr:stedsnr" v="588844" />
	</node>
	<node id="-298454" lat="58.3480916633" lon="8.2385888934">
		<tag k="fixme" v="consider place=hamlet" />
		<tag k="name" v="Årdalen" />
		<tag k="place" v="farm" />
		<tag k="ssr:stedsnr" v="121368" />
	</node>
	<node id="-297017" lat="58.4579777785" lon="8.35498055535">
		<tag k="fixme" v="consider place=hamlet" />
		<tag k="name" v="Lauvåsen" />
		<tag k="place" v="farm" />
		<tag k="ssr:stedsnr" v="303483" />
	</node>
	<node id="-297703" lat="58.2787833336" lon="8.18808610498">
		<tag k="name" v="Stolen" />
		<tag k="place" v="locality" />
		<tag k="ssr:stedsnr" v="883000" />
	</node>
	<node id="-299714" lat="58.3385861127" lon="8.32701388869">
		<tag k="name" v="Froholtskjerr" />
		<tag k="place" v="farm" />
		<tag k="ssr:stedsnr" v="573657" />
	</node>
	<node id="-297658" lat="58.498083334" lon="8.33426666097">
		<tag k="name" v="Bjelkeberga" />
		<tag k="place" v="isolated_dwelling" />
		<tag k="ssr:stedsnr" v="882207" />
	</node>
	<node id="-299704" lat="58.5688888927" lon="8.37667222002">
		<tag k="fixme" v="consider place=hamlet" />
		<tag k="name" v="Gauslå" />
		<tag k="place" v="farm" />
		<tag k="ssr:stedsnr" v="547154" />
	</node>
	<node id="-299703" lat="58.516369445" lon="8.13269443762">
		<tag k="fixme" v="consider place=hamlet" />
		<tag k="name" v="Stølen" />
		<tag k="place" v="farm" />
		<tag k="ssr:stedsnr" v="547050" />
	</node>
	<node id="-299701" lat="58.5047833299" lon="8.27502776993">
		<tag k="fixme" v="consider place=hamlet" />
		<tag k="name" v="Landås" />
		<tag k="place" v="farm" />
		<tag k="ssr:stedsnr" v="547012" />
	</node>
	<node id="-299697" lat="58.5337361094" lon="7.98913054887">
		<tag k="fixme" v="consider place=hamlet" />
		<tag k="name" v="Kjelevann" />
		<tag k="place" v="farm" />
		<tag k="ssr:stedsnr" v="546631" />
	</node>
	<node id="-299696" lat="58.5311111127" lon="7.95463888451">
		<tag k="alt_name" v="Nygard" />
		<tag k="name" v="Nygård" />
		<tag k="place" v="farm" />
		<tag k="ssr:stedsnr" v="546627" />
	</node>
	<node id="-299691" lat="58.4436777743" lon="8.10373055086">
		<tag k="alt_name" v="Orrgard" />
		<tag k="name" v="Orgard" />
		<tag k="place" v="farm" />
		<tag k="ssr:stedsnr" v="546456" />
	</node>
	<node id="-299689" lat="58.4581333308" lon="8.10320277427">
		<tag k="name" v="Hauger" />
		<tag k="place" v="farm" />
		<tag k="ssr:stedsnr" v="546446" />
	</node>
	<node id="-299685" lat="58.4762166658" lon="8.35099444169">
		<tag k="fixme" v="consider place=hamlet" />
		<tag k="name" v="Topland" />
		<tag k="place" v="farm" />
		<tag k="ssr:stedsnr" v="546432" />
	</node>
	<node id="-299682" lat="58.397044444" lon="8.19146388351">
		<tag k="fixme" v="consider place=hamlet" />
		<tag k="name" v="Nedre Tjønntveit" />
		<tag k="place" v="farm" />
		<tag k="ssr:stedsnr" v="546400" />
	</node>
	<node id="-299681" lat="58.3967999982" lon="8.27536388936">
		<tag k="name" v="Furholt" />
		<tag k="place" v="isolated_dwelling" />
		<tag k="ssr:stedsnr" v="546395" />
	</node>
	<node id="-299679" lat="58.4044500003" lon="8.11336945084">
		<tag k="fixme" v="consider place=hamlet" />
		<tag k="name" v="Joreid" />
		<tag k="place" v="farm" />
		<tag k="ssr:stedsnr" v="546379" />
	</node>
	<node id="-297630" lat="58.4494000016" lon="8.34945833726">
		<tag k="name" v="Morfjell" />
		<tag k="place" v="locality" />
		<tag k="ssr:stedsnr" v="882054" />
	</node>
	<node id="-297627" lat="58.43041667" lon="8.32125556004">
		<tag k="name" v="Ospelunden" />
		<tag k="place" v="locality" />
		<tag k="ssr:stedsnr" v="882021" />
	</node>
	<node id="-299674" lat="58.4376638897" lon="8.27163055434">
		<tag k="fixme" v="consider place=hamlet" />
		<tag k="name" v="Dalane" />
		<tag k="place" v="farm" />
		<tag k="ssr:stedsnr" v="546344" />
	</node>
	<node id="-299673" lat="58.361175002" lon="8.27223333853">
		<tag k="alt_name" v="Holte, øvre" />
		<tag k="fixme" v="consider place=hamlet" />
		<tag k="name" v="Øvre Holte" />
		<tag k="place" v="farm" />
		<tag k="ssr:stedsnr" v="546323" />
	</node>
	<node id="-299662" lat="58.492886111" lon="8.0371638845">
		<tag k="fixme" v="consider place=hamlet" />
		<tag k="name" v="Vetrhus" />
		<tag k="place" v="farm" />
		<tag k="ssr:stedsnr" v="546195" />
	</node>
	<node id="-299661" lat="58.3115611118" lon="8.09237222275">
		<tag k="alt_name" v="Ås" />
		<tag k="name" v="Nedre Ås" />
		<tag k="place" v="farm" />
		<tag k="ssr:stedsnr" v="546112" />
	</node>
	<node id="-297605" lat="58.5262444443" lon="8.00809722746">
		<tag k="name" v="Myrane" />
		<tag k="place" v="farm" />
		<tag k="ssr:stedsnr" v="474704" />
	</node>
	<node id="-301680" lat="58.327208508" lon="8.21731638196">
		<tag k="fixme" v="consider place=hamlet" />
		<tag k="name" v="Birkelandsbakken" />
		<tag k="place" v="farm" />
		<tag k="ssr:stedsnr" v="979576" />
	</node>
	<node id="-301679" lat="58.3782797051" lon="8.25180901523">
		<tag k="fixme" v="consider place=hamlet" />
		<tag k="name" v="Lien" />
		<tag k="place" v="farm" />
		<tag k="ssr:stedsnr" v="979571" />
	</node>
	<node id="-301678" lat="58.4389150954" lon="8.19164239024">
		<tag k="fixme" v="consider place=hamlet" />
		<tag k="name" v="Trolldalen" />
		<tag k="place" v="farm" />
		<tag k="ssr:stedsnr" v="971427" />
	</node>
	<node id="-301677" lat="58.5345013161" lon="8.12079995857">
		<tag k="fixme" v="consider place=hamlet" />
		<tag k="name" v="Nedre Engesland" />
		<tag k="place" v="farm" />
		<tag k="ssr:stedsnr" v="971425" />
	</node>
	<node id="-301676" lat="58.5260977752" lon="8.12362340914">
		<tag k="fixme" v="consider place=hamlet" />
		<tag k="name" v="Søndre Tveit" />
		<tag k="place" v="farm" />
		<tag k="ssr:stedsnr" v="971424" />
	</node>
	<node id="-299627" lat="58.5365805546" lon="8.07240277312">
		<tag k="name" v="Vest på haugen" />
		<tag k="place" v="farm" />
		<tag k="ssr:stedsnr" v="535213" />
	</node>
	<node id="-299626" lat="58.538494441" lon="8.07260833887">
		<tag k="name" v="Der nord" />
		<tag k="place" v="farm" />
		<tag k="ssr:stedsnr" v="535211" />
	</node>
	<node id="-301673" lat="58.4582614176" lon="8.14402654609">
		<tag k="fixme" v="consider place=hamlet" />
		<tag k="name" v="Lille Sundstøl" />
		<tag k="place" v="farm" />
		<tag k="ssr:stedsnr" v="971420" />
	</node>
	<node id="-301672" lat="58.48275162" lon="8.04919066548">
		<tag k="fixme" v="consider place=hamlet" />
		<tag k="name" v="Fjermedal" />
		<tag k="place" v="farm" />
		<tag k="ssr:stedsnr" v="971419" />
	</node>
	<node id="-301671" lat="58.5116327784" lon="8.01263428558">
		<tag k="name" v="Fidjeland" />
		<tag k="place" v="hamlet" />
		<tag k="ssr:stedsnr" v="971417" />
	</node>
	<node id="-301670" lat="58.5080973079" lon="7.99974484371">
		<tag k="fixme" v="consider place=hamlet" />
		<tag k="name" v="Øvre Fidjeland" />
		<tag k="place" v="farm" />
		<tag k="ssr:stedsnr" v="971416" />
	</node>
	<node id="-301669" lat="58.5151824759" lon="8.02513756572">
		<tag k="fixme" v="consider place=hamlet" />
		<tag k="name" v="Nedre Fidjeland" />
		<tag k="place" v="farm" />
		<tag k="ssr:stedsnr" v="971415" />
	</node>
	<node id="-301668" lat="58.5366049112" lon="7.97604604204">
		<tag k="fixme" v="consider place=hamlet" />
		<tag k="name" v="Store Vatne" />
		<tag k="place" v="farm" />
		<tag k="ssr:stedsnr" v="971409" />
	</node>
	<node id="-301667" lat="58.5792787756" lon="8.1431595694">
		<tag k="fixme" v="consider place=hamlet" />
		<tag k="name" v="Vegusdal" />
		<tag k="place" v="farm" />
		<tag k="ssr:stedsnr" v="971408" />
	</node>
	<node id="-301666" lat="58.5431943203" lon="8.32812474956">
		<tag k="fixme" v="consider place=hamlet" />
		<tag k="name" v="Retterstøl" />
		<tag k="place" v="farm" />
		<tag k="ssr:stedsnr" v="971404" />
	</node>
	<node id="-301665" lat="58.5224088089" lon="8.33420304929">
		<tag k="fixme" v="consider place=hamlet" />
		<tag k="name" v="Nes" />
		<tag k="place" v="farm" />
		<tag k="ssr:stedsnr" v="971403" />
	</node>
	<node id="-301664" lat="58.458832984" lon="8.33571144431">
		<tag k="fixme" v="consider place=hamlet" />
		<tag k="name" v="Åmli" />
		<tag k="place" v="farm" />
		<tag k="ssr:stedsnr" v="971402" />
	</node>
	<node id="-301663" lat="58.5221410304" lon="8.34942049308">
		<tag k="fixme" v="consider place=hamlet" />
		<tag k="name" v="Herefoss" />
		<tag k="place" v="farm" />
		<tag k="ssr:stedsnr" v="971401" />
	</node>
	<node id="-301662" lat="58.3288079236" lon="8.23053798264">
		<tag k="fixme" v="consider place=hamlet" />
		<tag k="name" v="Vestre Birkeland" />
		<tag k="place" v="farm" />
		<tag k="ssr:stedsnr" v="971400" />
	</node>
	<node id="-301661" lat="58.3253444321" lon="8.23214463963">
		<tag k="fixme" v="consider place=hamlet" />
		<tag k="name" v="Nedre Birkeland" />
		<tag k="place" v="farm" />
		<tag k="ssr:stedsnr" v="971399" />
	</node>
	<node id="-297564" lat="58.5414916661" lon="8.07309722249">
		<tag k="name" v="Skovedalsløa" />
		<tag k="place" v="locality" />
		<tag k="ssr:stedsnr" v="413345" />
	</node>
	<node id="-301659" lat="58.3369884069" lon="8.27008749184">
		<tag k="fixme" v="consider place=hamlet" />
		<tag k="name" v="Risviken" />
		<tag k="place" v="farm" />
		<tag k="ssr:stedsnr" v="971397" />
	</node>
	<node id="-301658" lat="58.3402407683" lon="8.27251824643">
		<tag k="name" v="Østerhus" />
		<tag k="place" v="hamlet" />
		<tag k="ssr:stedsnr" v="971395" />
	</node>
	<node id="-301657" lat="58.3409034495" lon="8.2717973832">
		<tag k="fixme" v="consider place=hamlet" />
		<tag k="name" v="Nordre Østerhus" />
		<tag k="place" v="farm" />
		<tag k="ssr:stedsnr" v="971394" />
	</node>
	<node id="-301656" lat="58.3391122345" lon="8.26809822399">
		<tag k="fixme" v="consider place=hamlet" />
		<tag k="name" v="Vestre Østerhus" />
		<tag k="place" v="farm" />
		<tag k="ssr:stedsnr" v="971393" />
	</node>
	<node id="-301655" lat="58.3417844086" lon="8.27621841821">
		<tag k="fixme" v="consider place=hamlet" />
		<tag k="name" v="Østre Østerhus" />
		<tag k="place" v="farm" />
		<tag k="ssr:stedsnr" v="971392" />
	</node>
	<node id="-301654" lat="58.3453739362" lon="8.26778374361">
		<tag k="name" v="Håbesland" />
		<tag k="place" v="hamlet" />
		<tag k="ssr:stedsnr" v="971388" />
	</node>
	<node id="-301653" lat="58.346646403" lon="8.26920033413">
		<tag k="fixme" v="consider place=hamlet" />
		<tag k="name" v="Øvre Håbesland" />
		<tag k="place" v="farm" />
		<tag k="ssr:stedsnr" v="971387" />
	</node>
	<node id="-301652" lat="58.3458068672" lon="8.26525897165">
		<tag k="fixme" v="consider place=hamlet" />
		<tag k="name" v="Nedre Håbesland" />
		<tag k="place" v="farm" />
		<tag k="ssr:stedsnr" v="971386" />
	</node>
	<node id="-301651" lat="58.3602173203" lon="8.26806866073">
		<tag k="name" v="Holte" />
		<tag k="place" v="hamlet" />
		<tag k="ssr:stedsnr" v="971385" />
	</node>
	<node id="-301650" lat="58.3831456163" lon="8.26798265653">
		<tag k="fixme" v="consider place=hamlet" />
		<tag k="name" v="Østre Flå" />
		<tag k="place" v="farm" />
		<tag k="ssr:stedsnr" v="971383" />
	</node>
	<node id="-301649" lat="58.4180163792" lon="8.27804763336">
		<tag k="fixme" v="consider place=hamlet" />
		<tag k="name" v="Uren" />
		<tag k="place" v="farm" />
		<tag k="ssr:stedsnr" v="971382" />
	</node>
	<node id="-301648" lat="58.3746476914" lon="8.21661636338">
		<tag k="fixme" v="consider place=hamlet" />
		<tag k="name" v="Vestre Mosfjell" />
		<tag k="place" v="farm" />
		<tag k="ssr:stedsnr" v="971380" />
	</node>
	<node id="-301647" lat="58.4022824533" lon="8.18979500812">
		<tag k="name" v="Tjøntveit" />
		<tag k="place" v="hamlet" />
		<tag k="ssr:stedsnr" v="971378" />
	</node>
	<node id="-301646" lat="58.4166493233" lon="8.1745810225">
		<tag k="fixme" v="consider place=hamlet" />
		<tag k="name" v="Hellerslia" />
		<tag k="place" v="farm" />
		<tag k="ssr:stedsnr" v="971377" />
	</node>
	<node id="-301645" lat="58.3974218227" lon="8.16019693313">
		<tag k="fixme" v="consider place=hamlet" />
		<tag k="name" v="Bjørkelia" />
		<tag k="place" v="farm" />
		<tag k="ssr:stedsnr" v="971376" />
	</node>
	<node id="-301644" lat="58.3569339276" lon="8.15662317851">
		<tag k="fixme" v="consider place=hamlet" />
		<tag k="name" v="Natveitdalen" />
		<tag k="place" v="farm" />
		<tag k="ssr:stedsnr" v="971375" />
	</node>
	<node id="-301643" lat="58.3508354689" lon="8.19065711093">
		<tag k="fixme" v="consider place=hamlet" />
		<tag k="name" v="Homslien" />
		<tag k="place" v="farm" />
		<tag k="ssr:stedsnr" v="971374" />
	</node>
	<node id="-301642" lat="58.3191635525" lon="8.19703641934">
		<tag k="fixme" v="consider place=hamlet" />
		<tag k="name" v="Østre Mollestad" />
		<tag k="place" v="farm" />
		<tag k="ssr:stedsnr" v="971372" />
	</node>
	<node id="-301641" lat="58.326056594" lon="8.21028801146">
		<tag k="fixme" v="consider place=hamlet" />
		<tag k="name" v="Uglandsskogen" />
		<tag k="place" v="farm" />
		<tag k="ssr:stedsnr" v="971373" />
	</node>
	<node id="-301640" lat="58.3080204848" lon="8.1852835156">
		<tag k="fixme" v="consider place=hamlet" />
		<tag k="name" v="Birkenes" />
		<tag k="place" v="farm" />
		<tag k="ssr:stedsnr" v="971371" />
	</node>
	<node id="-301639" lat="58.3268780746" lon="8.1962461242">
		<tag k="fixme" v="consider place=hamlet" />
		<tag k="name" v="Steffensvold" />
		<tag k="place" v="farm" />
		<tag k="ssr:stedsnr" v="971370" />
	</node>
	<node id="-301638" lat="58.3788003671" lon="8.12047408192">
		<tag k="fixme" v="consider place=hamlet" />
		<tag k="name" v="Odderdalen" />
		<tag k="place" v="farm" />
		<tag k="ssr:stedsnr" v="971366" />
	</node>
	<node id="-301637" lat="58.327158479" lon="8.08571274093">
		<tag k="fixme" v="consider place=hamlet" />
		<tag k="name" v="Husebakken" />
		<tag k="place" v="farm" />
		<tag k="ssr:stedsnr" v="971361" />
	</node>
	<node id="-301636" lat="58.3125623487" lon="8.09133720438">
		<tag k="fixme" v="consider place=hamlet" />
		<tag k="name" v="Ås" />
		<tag k="place" v="farm" />
		<tag k="ssr:stedsnr" v="971360" />
	</node>
	<node id="-301635" lat="58.2679956992" lon="8.22708184523">
		<tag k="fixme" v="consider place=hamlet" />
		<tag k="name" v="Klepp" />
		<tag k="place" v="farm" />
		<tag k="ssr:stedsnr" v="971357" />
	</node>
	<node id="-301634" lat="58.271576228" lon="8.20609188453">
		<tag k="name" v="Røynås" />
		<tag k="place" v="hamlet" />
		<tag k="ssr:stedsnr" v="971358" />
	</node>
	<node id="-301633" lat="58.2645927227" lon="8.19791088162">
		<tag k="fixme" v="consider place=hamlet" />
		<tag k="name" v="Lauvåsen" />
		<tag k="place" v="farm" />
		<tag k="ssr:stedsnr" v="971356" />
	</node>
	<node id="-297526" lat="58.3541250015" lon="8.06228055547">
		<tag k="name" v="Osen" />
		<tag k="place" v="farm" />
		<tag k="ssr:stedsnr" v="408644" />
	</node>
	<node id="-299511" lat="58.2745000006" lon="8.17363055663">
		<tag k="name" v="Åbål" />
		<tag k="place" v="farm" />
		<tag k="ssr:stedsnr" v="527810" />
	</node>
	<node id="-299510" lat="58.2731750031" lon="8.17444443895">
		<tag k="name" v="Åbål" />
		<tag k="place" v="farm" />
		<tag k="ssr:stedsnr" v="527808" />
	</node>
	<node id="-297461" lat="58.2733722241" lon="8.17430277894">
		<tag k="name" v="Åbål" />
		<tag k="place" v="farm" />
		<tag k="ssr:stedsnr" v="406817" />
	</node>
	<node id="-301550" lat="58.3130638914" lon="8.10638333264">
		<tag k="name" v="Solli" />
		<tag k="place" v="farm" />
		<tag k="ssr:stedsnr" v="954723" />
	</node>
	<node id="-301549" lat="58.3057861136" lon="8.09615555886">
		<tag k="name" v="Tukthuset" />
		<tag k="place" v="locality" />
		<tag k="ssr:stedsnr" v="954716" />
	</node>
	<node id="-297444" lat="58.4634333304" lon="8.36949722547">
		<tag k="name" v="Stie (nedre)" />
		<tag k="place" v="farm" />
		<tag k="ssr:stedsnr" v="396834" />
	</node>
	<node id="-297437" lat="58.3793777774" lon="8.22107500063">
		<tag k="fixme" v="consider place=hamlet" />
		<tag k="name" v="Østre Mosfjell" />
		<tag k="place" v="farm" />
		<tag k="ssr:stedsnr" v="396797" />
	</node>
	<node id="-301532" lat="58.3981083341" lon="8.18970832708">
		<tag k="name" v="Vadrås" />
		<tag k="place" v="farm" />
		<tag k="ssr:stedsnr" v="954480" />
	</node>
	<node id="-299463" lat="58.4904499996" lon="8.37231388682">
		<tag k="name" v="Kolfrajordet" />
		<tag k="place" v="locality" />
		<tag k="ssr:stedsnr" v="518225" />
	</node>
	<node id="-299462" lat="58.51125278" lon="8.34653611287">
		<tag k="name" v="Slettene" />
		<tag k="place" v="farm" />
		<tag k="ssr:stedsnr" v="518224" />
	</node>
	<node id="-297387" lat="58.4488833328" lon="8.3205722187">
		<tag k="name" v="Fossane" />
		<tag k="place" v="farm" />
		<tag k="ssr:stedsnr" v="396070" />
	</node>
	<node id="-297374" lat="58.3392694462" lon="8.26821943746">
		<tag k="name" v="Huset" />
		<tag k="place" v="farm" />
		<tag k="ssr:stedsnr" v="392416" />
	</node>
	<node id="-301463" lat="58.2754305565" lon="8.11280555">
		<tag k="name" v="Nesset" />
		<tag k="place" v="farm" />
		<tag k="ssr:stedsnr" v="943942" />
	</node>
	<node id="-301457" lat="58.3474027757" lon="8.25320832799">
		<tag k="name" v="Nyhaven" />
		<tag k="place" v="farm" />
		<tag k="ssr:stedsnr" v="943788" />
	</node>
	<node id="-297359" lat="58.535622225" lon="8.0695944411">
		<tag k="name" v="Der vest" />
		<tag k="place" v="farm" />
		<tag k="ssr:stedsnr" v="414247" />
	</node>
	<node id="-299406" lat="58.5361957214" lon="7.94329144832">
		<tag k="alt_name" v="Katterås" />
		<tag k="fixme" v="consider place=hamlet" />
		<tag k="name" v="Katerås" />
		<tag k="place" v="farm" />
		<tag k="ssr:stedsnr" v="486681" />
	</node>
	<node id="-299402" lat="58.5267166673" lon="8.12342499172">
		<tag k="name" v="Tveit" />
		<tag k="place" v="farm" />
		<tag k="ssr:stedsnr" v="486210" />
	</node>
	<node id="-299415" lat="58.3313333315" lon="8.24907500231">
		<tag k="fixme" v="consider place=hamlet" />
		<tag k="name" v="Haugelia" />
		<tag k="place" v="farm" />
		<tag k="ssr:stedsnr" v="513361" />
	</node>
	<node id="-299398" lat="58.5388138859" lon="8.26739723065">
		<tag k="alt_name" v="Neset" />
		<tag k="name" v="Plassen" />
		<tag k="place" v="farm" />
		<tag k="ssr:stedsnr" v="486181" />
	</node>
	<node id="-299395" lat="58.5614805581" lon="8.20357777623">
		<tag k="alt_name" v="Breidsåsen" />
		<tag k="fixme" v="consider place=hamlet" />
		<tag k="name" v="Breisåsen" />
		<tag k="place" v="farm" />
		<tag k="ssr:stedsnr" v="486131" />
	</node>
	<node id="-299391" lat="58.5034416631" lon="8.11508332734">
		<tag k="alt_name" v="Håvardstad" />
		<tag k="fixme" v="consider place=hamlet" />
		<tag k="name" v="Håverstad" />
		<tag k="place" v="farm" />
		<tag k="ssr:stedsnr" v="486041" />
	</node>
	<node id="-299382" lat="58.4698805585" lon="8.24607778407">
		<tag k="fixme" v="consider place=hamlet" />
		<tag k="name" v="Ramselia" />
		<tag k="place" v="farm" />
		<tag k="ssr:stedsnr" v="485395" />
	</node>
	<node id="-297330" lat="58.4578111087" lon="8.14366944875">
		<tag k="alt_name" v="Sundstøl, l" />
		<tag k="name" v="Sundstøl austre" />
		<tag k="place" v="farm" />
		<tag k="ssr:stedsnr" v="364483" />
	</node>
	<node id="-299374" lat="58.4360444445" lon="8.32734444473">
		<tag k="fixme" v="consider place=hamlet" />
		<tag k="name" v="Senningtveit" />
		<tag k="place" v="farm" />
		<tag k="ssr:stedsnr" v="485310" />
	</node>
	<node id="-299373" lat="58.3410694434" lon="8.2721194497">
		<tag k="building" v="industrial" />
		<tag k="industrial" v="factory" />
		<tag k="name" v="Bakken" />
		<tag k="ssr:stedsnr" v="485306" />
	</node>
	<node id="-299372" lat="58.342911112" lon="8.27446943954">
		<tag k="alt_name" v="Håbesland" />
		<tag k="fixme" v="consider place=hamlet" />
		<tag k="name" v="Håbbesland" />
		<tag k="place" v="village" />
		<tag k="ssr:stedsnr" v="485304" />
	</node>
	<node id="-297321" lat="58.4308888905" lon="8.30381111108">
		<tag k="alt_name" v="Hagen" />
		<tag k="name" v="Haven" />
		<tag k="place" v="farm" />
		<tag k="ssr:stedsnr" v="364407" />
	</node>
	<node id="-299368" lat="58.3548861073" lon="8.07609166559">
		<tag k="fixme" v="consider place=hamlet" />
		<tag k="name" v="Klepp" />
		<tag k="place" v="farm" />
		<tag k="ssr:stedsnr" v="485061" />
	</node>
	<node id="-297317" lat="58.3532083293" lon="8.11382777968">
		<tag k="fixme" v="consider place=hamlet" />
		<tag k="name" v="Ramselia" />
		<tag k="place" v="farm" />
		<tag k="ssr:stedsnr" v="364368" />
	</node>
	<node id="-297316" lat="58.3588416628" lon="8.26428332616">
		<tag k="alt_name" v="Holte, nedre" />
		<tag k="fixme" v="consider place=hamlet" />
		<tag k="name" v="Nedre Holte" />
		<tag k="place" v="farm" />
		<tag k="ssr:stedsnr" v="364364" />
	</node>
	<node id="-297314" lat="58.374113887" lon="8.29515000351">
		<tag k="name" v="Granåsen" />
		<tag k="place" v="farm" />
		<tag k="ssr:stedsnr" v="364354" />
	</node>
	<node id="-301403" lat="58.3834027784" lon="8.25934999335">
		<tag k="fixme" v="consider place=hamlet" />
		<tag k="name" v="Vestre Flå" />
		<tag k="place" v="farm" />
		<tag k="ssr:stedsnr" v="943817" />
	</node>
	<node id="-297306" lat="58.4722527772" lon="8.06838611478">
		<tag k="alt_name" v="Tveit" />
		<tag k="fixme" v="consider place=hamlet" />
		<tag k="name" v="Tveit vestre" />
		<tag k="place" v="farm" />
		<tag k="ssr:stedsnr" v="364260" />
	</node>
	<node id="-297302" lat="58.4989083346" lon="8.07945000303">
		<tag k="name" v="Eikelia" />
		<tag k="place" v="farm" />
		<tag k="ssr:stedsnr" v="364228" />
	</node>
	<node id="-297301" lat="58.5344916646" lon="8.23382777007">
		<tag k="fixme" v="consider place=hamlet" />
		<tag k="name" v="Furholt" />
		<tag k="place" v="farm" />
		<tag k="ssr:stedsnr" v="364219" />
	</node>
	<node id="-297016" lat="58.4630027756" lon="8.2126249989">
		<tag k="fixme" v="consider place=hamlet" />
		<tag k="name" v="Lunden" />
		<tag k="place" v="farm" />
		<tag k="ssr:stedsnr" v="303477" />
	</node>
	<node id="-301388" lat="58.321958329" lon="8.24501666117">
		<tag k="name" v="Kalvåsen" />
		<tag k="place" v="locality" />
		<tag k="ssr:stedsnr" v="938348" />
	</node>
	<node id="-299339" lat="58.354905555" lon="8.18450277333">
		<tag k="name" v="Eikhola" />
		<tag k="place" v="locality" />
		<tag k="ssr:stedsnr" v="469699" />
	</node>
	<node id="-297281" lat="58.5288555519" lon="7.94339166647">
		<tag k="name" v="Øygarden" />
		<tag k="place" v="locality" />
		<tag k="ssr:stedsnr" v="353658" />
	</node>
	<node id="-301373" lat="58.5094361084" lon="8.00190000411">
		<tag k="name" v="Fidjeland" />
		<tag k="place" v="farm" />
		<tag k="ssr:stedsnr" v="911432" />
	</node>
	<node id="-297273" lat="58.5259111111" lon="8.12295833566">
		<tag k="name" v="Litveit" />
		<tag k="place" v="farm" />
		<tag k="ssr:stedsnr" v="353175" />
	</node>
	<node id="-301368" lat="58.5589583318" lon="8.41595000821">
		<tag k="name" v="Ringstøl" />
		<tag k="place" v="isolated_dwelling" />
		<tag k="ssr:stedsnr" v="911232" />
	</node>
	<node id="-297269" lat="58.5230444453" lon="8.12526388224">
		<tag k="name" v="Linmyr" />
		<tag k="place" v="farm" />
		<tag k="ssr:stedsnr" v="353150" />
	</node>
	<node id="-301351" lat="58.2761333366" lon="8.23186388677">
		<tag k="fixme" v="consider place=hamlet" />
		<tag k="name" v="Fjellskår" />
		<tag k="place" v="farm" />
		<tag k="ssr:stedsnr" v="910722" />
	</node>
	<node id="-301345" lat="58.4164583305" lon="8.174188887">
		<tag k="name" v="Hellerslia" />
		<tag k="place" v="isolated_dwelling" />
		<tag k="ssr:stedsnr" v="910420" />
	</node>
	<node id="-301344" lat="58.4141444455" lon="8.29279445148">
		<tag k="name" v="Vinterstøa" />
		<tag k="place" v="isolated_dwelling" />
		<tag k="ssr:stedsnr" v="910417" />
	</node>
	<node id="-301339" lat="58.3138111086" lon="8.11218333783">
		<tag k="fixme" v="consider place=hamlet" />
		<tag k="name" v="Svaland" />
		<tag k="place" v="farm" />
		<tag k="ssr:stedsnr" v="910282" />
	</node>
	<node id="-301337" lat="58.3238499975" lon="8.19861389447">
		<tag k="name" v="Ugland" />
		<tag k="place" v="isolated_dwelling" />
		<tag k="ssr:stedsnr" v="910273" />
	</node>
	<node id="-301335" lat="58.4932277799" lon="8.10865554979">
		<tag k="fixme" v="consider place=hamlet" />
		<tag k="name" v="Årikstad" />
		<tag k="place" v="farm" />
		<tag k="ssr:stedsnr" v="910058" />
	</node>
	<node id="-301334" lat="58.4987083289" lon="8.32882499677">
		<tag k="name" v="Lia" />
		<tag k="place" v="farm" />
		<tag k="ssr:stedsnr" v="910055" />
	</node>
	<node id="-301333" lat="58.2951999964" lon="8.08109444377">
		<tag k="fixme" v="consider place=hamlet" />
		<tag k="name" v="Rosseland" />
		<tag k="place" v="farm" />
		<tag k="ssr:stedsnr" v="910029" />
	</node>
	<node id="-297234" lat="58.5401916711" lon="8.10023888437">
		<tag k="name" v="Sundbø" />
		<tag k="place" v="farm" />
		<tag k="ssr:stedsnr" v="352343" />
	</node>
	<node id="-299281" lat="58.4774361095" lon="8.27100277794">
		<tag k="name" v="Ytre Øygard" />
		<tag k="place" v="locality" />
		<tag k="ssr:stedsnr" v="468972" />
	</node>
	<node id="-297005" lat="58.3264305515" lon="8.11460000029">
		<tag k="fixme" v="consider place=hamlet" />
		<tag k="name" v="Dalane" />
		<tag k="place" v="farm" />
		<tag k="ssr:stedsnr" v="303256" />
	</node>
	<node id="-297004" lat="58.3212944485" lon="8.14344721986">
		<tag k="name" v="Stafjell" />
		<tag k="place" v="locality" />
		<tag k="ssr:stedsnr" v="303254" />
	</node>
	<node id="-299269" lat="58.3301138915" lon="8.08296665975">
		<tag k="name" v="Sauestøl" />
		<tag k="place" v="locality" />
		<tag k="ssr:stedsnr" v="468740" />
	</node>
	<node id="-299260" lat="58.4444999987" lon="8.10903333468">
		<tag k="name" v="Rydland" />
		<tag k="place" v="farm" />
		<tag k="ssr:stedsnr" v="468501" />
	</node>
	<node id="-297209" lat="58.345083336" lon="8.06567499327">
		<tag k="name" v="Eldhuset" />
		<tag k="place" v="isolated_dwelling" />
		<tag k="ssr:stedsnr" v="347772" />
	</node>
	<node id="-301304" lat="58.6235388901" lon="8.17798611016">
		<tag k="name" v="Gunnarsbu" />
		<tag k="place" v="isolated_dwelling" />
		<tag k="ssr:stedsnr" v="899749" />
	</node>
	<node id="-297001" lat="58.3483805572" lon="8.05729722266">
		<tag k="name" v="Fjellom" />
		<tag k="place" v="farm" />
		<tag k="ssr:stedsnr" v="303060" />
	</node>
	<node id="-299246" lat="58.3798888898" lon="8.19435555018">
		<tag k="amenity" v="school" />
		<tag k="name" v="Mosfjell skole" />
		<tag k="ssr:stedsnr" v="468359" />
	</node>
	<node id="-301287" lat="58.3229833352" lon="8.23656388151">
		<tag k="amenity" v="school" />
		<tag k="name" v="Valstrand skole" />
		<tag k="ssr:stedsnr" v="878405" />
	</node>
	<node id="-301266" lat="58.2809749986" lon="8.18101111546">
		<tag k="name" v="Bordhaugen" />
		<tag k="place" v="isolated_dwelling" />
		<tag k="ssr:stedsnr" v="850735" />
	</node>
	<node id="-301264" lat="58.4603694434" lon="8.3340138827">
		<tag k="fixme" v="consider place=hamlet" />
		<tag k="name" v="Søre Herefoss" />
		<tag k="place" v="village" />
		<tag k="ssr:stedsnr" v="850488" />
	</node>
	<node id="-301261" lat="58.4833305562" lon="8.10188611096">
		<tag k="fixme" v="consider place=hamlet" />
		<tag k="name" v="Hommen" />
		<tag k="place" v="farm" />
		<tag k="ssr:stedsnr" v="850462" />
	</node>
	<node id="-301256" lat="58.4253333336" lon="8.29431388928">
		<tag k="fixme" v="consider place=hamlet" />
		<tag k="name" v="Sønninga" />
		<tag k="place" v="farm" />
		<tag k="ssr:stedsnr" v="850417" />
	</node>
	<node id="-297334" lat="58.5529555563" lon="7.97758889041">
		<tag k="fixme" v="consider place=hamlet" />
		<tag k="name" v="Vestre Haukom" />
		<tag k="place" v="farm" />
		<tag k="ssr:stedsnr" v="364693" />
	</node>
	<node id="-301250" lat="58.3906055553" lon="8.25120278531">
		<tag k="fixme" v="consider place=hamlet" />
		<tag k="name" v="Tveiten" />
		<tag k="place" v="farm" />
		<tag k="ssr:stedsnr" v="850311" />
	</node>
	<node id="-301238" lat="58.4945777811" lon="8.12585000829">
		<tag k="name" v="Brekka" />
		<tag k="place" v="farm" />
		<tag k="ssr:stedsnr" v="850036" />
	</node>
	<node id="-301232" lat="58.4649583357" lon="8.27285833718">
		<tag k="fixme" v="consider place=hamlet" />
		<tag k="name" v="Lilleheimdal" />
		<tag k="place" v="farm" />
		<tag k="ssr:stedsnr" v="849488" />
	</node>
	<node id="-301228" lat="58.350911113" lon="8.19162778278">
		<tag k="name" v="Homslia" />
		<tag k="place" v="isolated_dwelling" />
		<tag k="ssr:stedsnr" v="849365" />
	</node>
	<node id="-299161" lat="58.4447916673" lon="8.11094721564">
		<tag k="name" v="Oggevatn" />
		<tag k="place" v="hamlet" />
		<tag k="ssr:stedsnr" v="446997" />
	</node>
	<node id="-299160" lat="58.3417249992" lon="8.2216111162">
		<tag k="name" v="Nyhus" />
		<tag k="place" v="farm" />
		<tag k="ssr:stedsnr" v="444924" />
	</node>
	<node id="-299156" lat="58.5933436741" lon="8.13443707509">
		<tag k="fixme" v="consider place=hamlet" />
		<tag k="name" v="Skåre" />
		<tag k="place" v="farm" />
		<tag k="ssr:stedsnr" v="426309" />
	</node>
	<node id="-301200" lat="58.5382166636" lon="8.09968889739">
		<tag k="name" v="Solås" />
		<tag k="place" v="farm" />
		<tag k="ssr:stedsnr" v="839222" />
	</node>
	<node id="-301197" lat="58.5285361076" lon="8.11936943836">
		<tag k="name" v="Bakke" />
		<tag k="place" v="farm" />
		<tag k="ssr:stedsnr" v="839138" />
	</node>
	<node id="-299145" lat="58.2785277788" lon="8.17078611025">
		<tag k="fixme" v="consider place=hamlet" />
		<tag k="name" v="Raen" />
		<tag k="place" v="farm" />
		<tag k="ssr:stedsnr" v="425753" />
	</node>
	<node id="-299137" lat="58.4738694436" lon="8.2977833267">
		<tag k="fixme" v="consider place=hamlet" />
		<tag k="name" v="Nesbu" />
		<tag k="place" v="farm" />
		<tag k="ssr:stedsnr" v="425464" />
	</node>
	<node id="-299136" lat="58.4803250001" lon="8.32749167184">
		<tag k="fixme" v="consider place=hamlet" />
		<tag k="name" v="Suggelia" />
		<tag k="place" v="farm" />
		<tag k="ssr:stedsnr" v="425455" />
	</node>
	<node id="-299135" lat="58.4693749988" lon="8.27381943753">
		<tag k="fixme" v="consider place=hamlet" />
		<tag k="name" v="Løland" />
		<tag k="place" v="farm" />
		<tag k="ssr:stedsnr" v="425445" />
	</node>
	<node id="-299134" lat="58.3969055515" lon="8.16050000112">
		<tag k="name" v="Bjørkelia" />
		<tag k="place" v="locality" />
		<tag k="ssr:stedsnr" v="425418" />
	</node>
	<node id="-299130" lat="58.4395361108" lon="8.19137777725">
		<tag k="name" v="Trolldalen" />
		<tag k="place" v="isolated_dwelling" />
		<tag k="ssr:stedsnr" v="425388" />
	</node>
	<node id="-299126" lat="58.3716361133" lon="8.10565555084">
		<tag k="fixme" v="consider place=hamlet" />
		<tag k="name" v="Vassbotn" />
		<tag k="place" v="farm" />
		<tag k="ssr:stedsnr" v="425345" />
	</node>
	<node id="-299125" lat="58.3694305513" lon="8.20676388735">
		<tag k="fixme" v="consider place=hamlet" />
		<tag k="name" v="Lauvdalen" />
		<tag k="place" v="farm" />
		<tag k="ssr:stedsnr" v="425343" />
	</node>
	<node id="-299124" lat="58.3793555515" lon="8.12568888304">
		<tag k="name" v="Odderdalen" />
		<tag k="place" v="isolated_dwelling" />
		<tag k="ssr:stedsnr" v="425330" />
	</node>
	<node id="-299123" lat="58.3763083374" lon="8.1572083316">
		<tag k="fixme" v="consider place=hamlet" />
		<tag k="name" v="Djupedalen" />
		<tag k="place" v="farm" />
		<tag k="ssr:stedsnr" v="425329" />
	</node>
	<node id="-297046" lat="58.3788722193" lon="8.19362499445">
		<tag k="name" v="Myrvang" />
		<tag k="place" v="farm" />
		<tag k="ssr:stedsnr" v="327337" />
	</node>
	<node id="-297041" lat="58.4812527746" lon="8.27323333058">
		<tag k="fixme" v="consider place=hamlet" />
		<tag k="name" v="Kylland" />
		<tag k="place" v="farm" />
		<tag k="ssr:stedsnr" v="304460" />
	</node>
	<node id="-297038" lat="58.4445527762" lon="8.35416388778">
		<tag k="alt_name" v="Kråkedal" />
		<tag k="name" v="Krokedal" />
		<tag k="place" v="isolated_dwelling" />
		<tag k="ssr:stedsnr" v="304388" />
	</node>
	<node id="-297037" lat="58.3660499963" lon="8.31686389044">
		<tag k="name" v="Saga" />
		<tag k="place" v="isolated_dwelling" />
		<tag k="ssr:stedsnr" v="304353" />
	</node>
	<node id="-301132" lat="58.2875611153" lon="8.09168610583">
		<tag k="name" v="Haven" />
		<tag k="place" v="farm" />
		<tag k="ssr:stedsnr" v="833569" />
	</node>
	<node id="-297035" lat="58.3644666675" lon="8.25406388068">
		<tag k="name" v="Pråmsnes" />
		<tag k="place" v="farm" />
		<tag k="ssr:stedsnr" v="304348" />
	</node>
	<node id="-297034" lat="58.5986166646" lon="8.18940832636">
		<tag k="fixme" v="consider place=hamlet" />
		<tag k="name" v="Vågsdalen" />
		<tag k="place" v="farm" />
		<tag k="ssr:stedsnr" v="304305" />
	</node>
	<node id="-297033" lat="58.2903055525" lon="8.14801388971">
		<tag k="name" v="Steane" />
		<tag k="place" v="farm" />
		<tag k="ssr:stedsnr" v="304298" />
	</node>
	<node id="-299080" lat="58.5786333366" lon="8.14724722766">
		<tag k="name" v="Vegusdal" />
		<tag k="place" v="hamlet" />
		<tag k="ssr:stedsnr" v="244188" />
	</node>
	<node id="-299074" lat="58.4538194414" lon="8.24855554801">
		<tag k="name" v="Hasllia" />
		<tag k="place" v="farm" />
		<tag k="ssr:stedsnr" v="243499" />
	</node>
	<node id="-299073" lat="58.4485888849" lon="8.22634721428">
		<tag k="fixme" v="consider place=hamlet" />
		<tag k="name" v="Heimdal" />
		<tag k="place" v="farm" />
		<tag k="ssr:stedsnr" v="243496" />
	</node>
	<node id="-299070" lat="58.4757194422" lon="8.18927778184">
		<tag k="name" v="Lia" />
		<tag k="place" v="isolated_dwelling" />
		<tag k="ssr:stedsnr" v="243460" />
	</node>
	<node id="-297019" lat="58.2629055513" lon="8.2125527789">
		<tag k="fixme" v="consider place=hamlet" />
		<tag k="name" v="Ytre Røynås" />
		<tag k="place" v="farm" />
		<tag k="ssr:stedsnr" v="303711" />
	</node>
	<node id="-301113" lat="58.4224805577" lon="8.2334999969">
		<tag k="name" v="Skauen" />
		<tag k="place" v="locality" />
		<tag k="ssr:stedsnr" v="833452" />
	</node>
	<node id="-299064" lat="58.4397138906" lon="8.30975277854">
		<tag k="alt_name" v="Sundtjørn" />
		<tag k="fixme" v="consider place=hamlet" />
		<tag k="name" v="Sundtjønn" />
		<tag k="place" v="farm" />
		<tag k="ssr:stedsnr" v="243388" />
	</node>
	<node id="-299062" lat="58.3615055588" lon="8.24961388441">
		<tag k="fixme" v="consider place=hamlet" />
		<tag k="name" v="Hagestad" />
		<tag k="place" v="farm" />
		<tag k="ssr:stedsnr" v="243343" />
	</node>
	<node id="-297011" lat="58.4216194447" lon="8.24790834159">
		<tag k="name" v="Bjelkeberg" />
		<tag k="place" v="isolated_dwelling" />
		<tag k="ssr:stedsnr" v="303390" />
	</node>
	<node id="-297010" lat="58.4238444419" lon="8.29838610489">
		<tag k="fixme" v="consider place=hamlet" />
		<tag k="name" v="Rislå" />
		<tag k="place" v="farm" />
		<tag k="ssr:stedsnr" v="303387" />
	</node>
	<node id="-297009" lat="58.355580554" lon="8.3077888838">
		<tag k="fixme" v="consider place=hamlet" />
		<tag k="name" v="Vinsland" />
		<tag k="place" v="farm" />
		<tag k="ssr:stedsnr" v="303361" />
	</node>
	<node id="-299056" lat="58.3023861104" lon="8.22948889278">
		<tag k="fixme" v="consider place=hamlet" />
		<tag k="name" v="Tveide" />
		<tag k="place" v="farm" />
		<tag k="ssr:stedsnr" v="243280" />
	</node>
	<node id="-299055" lat="58.309591667" lon="8.23166666089">
		<tag k="alt_name" v="Øydna" />
		<tag k="name" v="Øyda" />
		<tag k="place" v="farm" />
		<tag k="ssr:stedsnr" v="243269" />
	</node>
	<node id="-299054" lat="58.3249249977" lon="8.20668055077">
		<tag k="name" v="Havane" />
		<tag k="place" v="farm" />
		<tag k="ssr:stedsnr" v="243254" />
	</node>
	<node id="-299053" lat="58.3329499998" lon="8.34050555036">
		<tag k="name" v="Mannfallmyra" />
		<tag k="place" v="isolated_dwelling" />
		<tag k="ssr:stedsnr" v="243248" />
	</node>
	<node id="-299052" lat="58.5197166638" lon="8.13333333067">
		<tag k="fixme" v="consider place=hamlet" />
		<tag k="name" v="Ås" />
		<tag k="place" v="farm" />
		<tag k="ssr:stedsnr" v="243201" />
	</node>
	<node id="-299050" lat="58.3202944425" lon="8.06917778488">
		<tag k="fixme" v="consider place=hamlet" />
		<tag k="name" v="Steinsland" />
		<tag k="place" v="farm" />
		<tag k="ssr:stedsnr" v="243099" />
	</node>
	<node id="-299049" lat="58.3649805583" lon="8.0874500062">
		<tag k="fixme" v="consider place=hamlet" />
		<tag k="name" v="Sirekilen" />
		<tag k="place" v="farm" />
		<tag k="ssr:stedsnr" v="243082" />
	</node>
	<node id="-299043" lat="58.4916916681" lon="8.01942499557">
		<tag k="fixme" v="consider place=hamlet" />
		<tag k="name" v="Eveli" />
		<tag k="place" v="farm" />
		<tag k="ssr:stedsnr" v="242180" />
	</node>
	<node id="-297307" lat="58.3252249958" lon="8.18891666003">
		<tag k="fixme" v="consider place=hamlet" />
		<tag k="name" v="Moen" />
		<tag k="place" v="farm" />
		<tag k="ssr:stedsnr" v="364283" />
	</node>
	<node id="-299032" lat="58.5236166691" lon="8.03151666593">
		<tag k="name" v="Monen" />
		<tag k="place" v="farm" />
		<tag k="ssr:stedsnr" v="232648" />
	</node>
	<node id="-296978" lat="58.4649361144" lon="8.15069444679">
		<tag k="name" v="Øygarden" />
		<tag k="place" v="locality" />
		<tag k="ssr:stedsnr" v="44654" />
	</node>
</osm>
