<?xml version="1.0" encoding="UTF-8"?>
<osm generator="osmapis" version="0.6">
	<node id="-22431" lat="66.6886916682" lon="15.7386805527">
		<tag k="historic" v="boundary_stone" />
		<tag k="man_made" v="cairn" />
		<tag k="name" v="Toppfjellet" />
		<tag k="place" v="locality" />
		<tag k="ssr:stedsnr" v="839531" />
	</node>
	<node id="-20222" lat="66.9836638874" lon="16.1966916698">
		<tag k="alt_name" v="Nord-Saulo" />
		<tag k="historic" v="boundary_stone" />
		<tag k="man_made" v="cairn" />
		<tag k="name" v="Nordre Saulo" />
		<tag k="old_name" v="Saulo field;Saulo tiok;Nord Saulo" />
		<tag k="place" v="locality" />
		<tag k="ssr:stedsnr" v="292571" />
	</node>
	<node id="-21308" lat="66.6181194442" lon="15.6524138933">
		<tag k="historic" v="boundary_stone" />
		<tag k="man_made" v="cairn" />
		<tag k="name" v="Gavakecokkarøysa" />
		<tag k="place" v="locality" />
		<tag k="ssr:stedsnr" v="50492" />
	</node>
	<node id="-20031" lat="66.6684000015" lon="15.7165777825">
		<tag k="historic" v="boundary_stone" />
		<tag k="man_made" v="cairn" />
		<tag k="name" v="Toppfjellsrøysa" />
		<tag k="old_name" v="Cokkagaisse;Tioke gais Røset;Topfjell røys" />
		<tag k="place" v="locality" />
		<tag k="ssr:stedsnr" v="232475" />
	</node>
	<node id="-21847" lat="66.9708805565" lon="15.2991138836">
		<tag k="fixme" v="specify shooting=range, clay_pigeon etc" />
		<tag k="leisure" v="pitch" />
		<tag k="name" v="Saltdal skytebane" />
		<tag k="sport" v="shooting" />
		<tag k="ssr:stedsnr" v="391591" />
	</node>
	<node id="-21069" lat="66.6545999971" lon="14.7931027687">
		<tag k="fixme" v="consider boundary=protected_area and relevant protect_class if not nature reserve" />
		<tag k="leisure" v="nature_reserve" />
		<tag k="name" v="Saltfjellet-Svartisen nasjonalpark" />
		<tag k="ssr:stedsnr" v="815008" />
	</node>
	<node id="-21099" lat="66.889319442" lon="15.1750499988">
		<tag k="fixme" v="consider boundary=protected_area and relevant protect_class if not nature reserve" />
		<tag k="leisure" v="nature_reserve" />
		<tag k="name" v="Saltfjellet-Svartisen nasjonalpark" />
		<tag k="ssr:stedsnr" v="836912" />
	</node>
	<node id="-21738" lat="67.1628250011" lon="15.2171055512">
		<tag k="fixme" v="consider boundary=protected_area and relevant protect_class if not nature reserve" />
		<tag k="leisure" v="nature_reserve" />
		<tag k="name" v="Østerdalen landskapsverneområde" />
		<tag k="ssr:stedsnr" v="350261" />
	</node>
	<node id="-21436" lat="66.9687194474" lon="15.1717611034">
		<tag k="fixme" v="consider boundary=protected_area and relevant protect_class if not nature reserve" />
		<tag k="leisure" v="nature_reserve" />
		<tag k="name" v="Gåsvatnan landskapsverneområde" />
		<tag k="ssr:stedsnr" v="108926" />
	</node>
	<node id="-19974" lat="66.9067861135" lon="15.7533722146">
		<tag k="fixme" v="consider boundary=protected_area and relevant protect_class if not nature reserve" />
		<tag k="leisure" v="nature_reserve" />
		<tag k="name" v="Junkerdal nasjonalpark" />
		<tag k="ssr:stedsnr" v="223243" />
	</node>
	<node id="-21858" lat="66.657411112" lon="15.4230833334">
		<tag k="fixme" v="consider boundary=protected_area and relevant protect_class if not nature reserve" />
		<tag k="leisure" v="nature_reserve" />
		<tag k="name" v="Semska-Stødi naturreservat" />
		<tag k="ssr:stedsnr" v="391875" />
	</node>
</osm>
