<?xml version="1.0" encoding="UTF-8"?>
<osm version="0.6" generator="osmapis">
	<node lat="66.9645833298341" lon="15.25570278564539" id="-10423">
		<tag k="name" v="Gammelgammen" />
		<tag k="place" v="locality" />
		<tag k="ssr:stedsnr" v="229763" />
	</node>
	<node lat="66.89309444793382" lon="15.298855566385253" id="-10439">
		<tag k="fixme" v="consider place=hamlet" />
		<tag k="name" v="Bleiknesmo" />
		<tag k="place" v="village" />
		<tag k="ssr:stedsnr" v="16602" />
	</node>
	<node lat="66.93180555443263" lon="15.320347219125402" id="-10458">
		<tag k="name" v="Bjønnånes" />
		<tag k="place" v="farm" />
		<tag k="ssr:stedsnr" v="27606" />
	</node>
	<node lat="66.88291388597538" lon="15.287527773409979" id="-10460">
		<tag k="name" v="Krestaførrsletta" />
		<tag k="place" v="locality" />
		<tag k="ssr:stedsnr" v="27627" />
	</node>
	<node lat="66.81403333442765" lon="15.400683341830826" id="-10468">
		<tag k="fixme" v="consider tourism=alpine_hut or tourism=chalet" />
		<tag k="name" v="Storjordstua" />
		<tag k="ssr:stedsnr" v="41806" />
		<tag k="tourism" v="wilderness_hut" />
	</node>
	<node lat="66.6986222200534" lon="15.406911119250042" id="-10496">
		<tag k="name" v="Ryphågen" />
		<tag k="place" v="isolated_dwelling" />
		<tag k="ssr:stedsnr" v="77626" />
	</node>
	<node lat="66.89448610951067" lon="15.304763894076572" id="-10498">
		<tag k="name" v="Gjeslia" />
		<tag k="place" v="farm" />
		<tag k="ssr:stedsnr" v="77653" />
	</node>
	<node lat="66.9884999960773" lon="15.503638880445637" id="-10502">
		<tag k="name" v="Naboheim" />
		<tag k="place" v="farm" />
		<tag k="ssr:stedsnr" v="77698" />
	</node>
	<node lat="66.96276559979644" lon="15.314357726766442" id="-10509">
		<tag k="fixme" v="consider place=hamlet" />
		<tag k="name" v="Storalmenningen" />
		<tag k="place" v="farm" />
		<tag k="ssr:stedsnr" v="77710" />
	</node>
	<node lat="66.92524722360554" lon="15.515833342651776" id="-10510">
		<tag k="alt_name" v="Storeng, austre" />
		<tag k="name" v="Østre Storeng" />
		<tag k="place" v="farm" />
		<tag k="ssr:stedsnr" v="77748" />
	</node>
	<node lat="66.9537416659442" lon="15.3059555584505" id="-10521">
		<tag k="name" v="Almo" />
		<tag k="place" v="farm" />
		<tag k="ssr:stedsnr" v="81315" />
	</node>
	<node lat="66.96003333295748" lon="15.30602778024824" id="-10527">
		<tag k="name" v="Yttervollen" />
		<tag k="place" v="farm" />
		<tag k="ssr:stedsnr" v="88490" />
	</node>
	<node lat="67.09024722212007" lon="15.404219436328324" id="-10562">
		<tag k="name" v="Kvalnes" />
		<tag k="place" v="farm" />
		<tag k="ssr:stedsnr" v="137751" />
	</node>
	<node lat="67.09466199203773" lon="15.466733550434402" id="-10564">
		<tag k="fixme" v="consider place=hamlet" />
		<tag k="name" v="Botn" />
		<tag k="place" v="farm" />
		<tag k="ssr:stedsnr" v="137764" />
	</node>
	<node lat="67.09797499961086" lon="15.422994453325272" id="-10565">
		<tag k="name" v="Stranda" />
		<tag k="place" v="farm" />
		<tag k="ssr:stedsnr" v="137766" />
	</node>
	<node lat="66.82245000106694" lon="15.532425010891327" id="-10567">
		<tag k="name" v="Boa" />
		<tag k="place" v="farm" />
		<tag k="ssr:stedsnr" v="137643" />
	</node>
	<node lat="66.78633333052097" lon="15.706152779048505" id="-10570">
		<tag k="alt_name" v="Østerås" />
		<tag k="name" v="Austerås" />
		<tag k="place" v="farm" />
		<tag k="ssr:stedsnr" v="137810" />
	</node>
	<node lat="66.8097250036311" lon="15.57150277479948" id="-10575">
		<tag k="fixme" v="consider place=hamlet" />
		<tag k="name" v="Junkerdal" />
		<tag k="place" v="village" />
		<tag k="ssr:stedsnr" v="137824" />
	</node>
	<node lat="66.98504166753452" lon="15.454880548810854" id="-10576">
		<tag k="name" v="Gammoen" />
		<tag k="place" v="farm" />
		<tag k="ssr:stedsnr" v="142303" />
	</node>
	<node lat="66.99105278183744" lon="15.48750278079775" id="-10579">
		<tag k="name" v="Storjorda" />
		<tag k="place" v="farm" />
		<tag k="ssr:stedsnr" v="148178" />
	</node>
	<node lat="67.02553694264193" lon="15.347613594501668" id="-10580">
		<tag k="fixme" v="consider place=hamlet" />
		<tag k="name" v="Nedre Drageid" />
		<tag k="place" v="farm" />
		<tag k="ssr:stedsnr" v="148558" />
	</node>
	<node lat="67.01884444761144" lon="15.338813887020049" id="-10581">
		<tag k="name" v="Myrvoll" />
		<tag k="place" v="farm" />
		<tag k="ssr:stedsnr" v="148561" />
	</node>
	<node lat="66.87931111064194" lon="15.264133332987182" id="-10607">
		<tag k="alt_name" v="Trettnes st." />
		<tag k="name" v="Trettnes" />
		<tag k="place" v="isolated_dwelling" />
		<tag k="ssr:stedsnr" v="259617" />
	</node>
	<node lat="66.87641666791093" lon="15.293699998050768" id="-10608">
		<tag k="alt_name" v="Gammelgården" />
		<tag k="name" v="Dalmo" />
		<tag k="place" v="farm" />
		<tag k="ssr:stedsnr" v="259619" />
	</node>
	<node lat="66.93950555554225" lon="15.29749167491108" id="-10619">
		<tag k="name" v="Stolpen" />
		<tag k="place" v="farm" />
		<tag k="ssr:stedsnr" v="259712" />
	</node>
	<node lat="66.93216110921334" lon="15.438883328149872" id="-10621">
		<tag k="name" v="Forseng" />
		<tag k="place" v="farm" />
		<tag k="ssr:stedsnr" v="259727" />
	</node>
	<node lat="67.14097399985398" lon="15.39413263223356" id="-10623">
		<tag k="alt_name" v="Øksengård" />
		<tag k="fixme" v="consider place=hamlet" />
		<tag k="name" v="Øksengården" />
		<tag k="place" v="farm" />
		<tag k="ssr:stedsnr" v="259764" />
	</node>
	<node lat="67.03189721817964" lon="15.1934305631571" id="-10650">
		<tag k="name" v="Trollhågen" />
		<tag k="place" v="neighbourhood" />
		<tag k="ssr:stedsnr" v="180277" />
	</node>
	<node lat="66.9830305560698" lon="15.309997217115715" id="-10651">
		<tag k="name" v="Røklandsmoen" />
		<tag k="place" v="quarter" />
		<tag k="ssr:stedsnr" v="180377" />
	</node>
	<node lat="66.96180000104869" lon="15.384627780558471" id="-10663">
		<tag k="alt_name" v="Stormo" />
		<tag k="name" v="Stormoen" />
		<tag k="place" v="farm" />
		<tag k="ssr:stedsnr" v="198710" />
	</node>
	<node lat="67.11133888831075" lon="15.352966665891612" id="-10672">
		<tag k="alt_name" v="Breidmoen, l;Lillebreimo" />
		<tag k="name" v="Litle Breidmoen" />
		<tag k="place" v="farm" />
		<tag k="ssr:stedsnr" v="198774" />
	</node>
	<node lat="67.11296111547347" lon="15.359688880665248" id="-10673">
		<tag k="name" v="Sleppan" />
		<tag k="place" v="farm" />
		<tag k="ssr:stedsnr" v="198775" />
	</node>
	<node lat="66.87415486615718" lon="15.288526220056228" id="-10682">
		<tag k="fixme" v="consider place=hamlet" />
		<tag k="name" v="Tretneset" />
		<tag k="place" v="farm" />
		<tag k="ssr:stedsnr" v="209603" />
	</node>
	<node lat="66.9158627342645" lon="15.315339516774566" id="-10686">
		<tag k="fixme" v="consider place=hamlet" />
		<tag k="name" v="Indre-Russånes" />
		<tag k="place" v="farm" />
		<tag k="ssr:stedsnr" v="209584" />
	</node>
	<node lat="67.0208277751768" lon="15.340216659317301" id="-10710">
		<tag k="name" v="Bakken" />
		<tag k="place" v="farm" />
		<tag k="ssr:stedsnr" v="270551" />
	</node>
	<node lat="66.94580038040107" lon="15.423830222738518" id="-10730">
		<tag k="name" v="Mørenberg" />
		<tag k="place" v="farm" />
		<tag k="ssr:stedsnr" v="229036" />
	</node>
	<node lat="66.9898277738881" lon="15.481436112606904" id="-10736">
		<tag k="name" v="Vassbotnfjell" />
		<tag k="place" v="farm" />
		<tag k="ssr:stedsnr" v="229633" />
	</node>
	<node lat="67.09742500205039" lon="15.390316665846635" id="-10756">
		<tag k="amenity" v="school" />
		<tag k="name" v="Rognan barneskole" />
		<tag k="ssr:stedsnr" v="452689" />
	</node>
	<node lat="66.81714779515421" lon="15.385071769788794" id="-10772">
		<tag k="fixme" v="consider place=hamlet" />
		<tag k="name" v="Storjord" />
		<tag k="place" v="farm" />
		<tag k="ssr:stedsnr" v="452860" />
	</node>
	<node lat="66.87480833681016" lon="15.29631112121754" id="-10789">
		<tag k="name" v="Maritdalen" />
		<tag k="place" v="locality" />
		<tag k="ssr:stedsnr" v="270611" />
	</node>
	<node lat="66.97763333179884" lon="15.416275002863758" id="-10809">
		<tag k="name" v="Fredheim" />
		<tag k="place" v="farm" />
		<tag k="ssr:stedsnr" v="290579" />
	</node>
	<node lat="67.18501944140753" lon="15.391097223102609" id="-10820">
		<tag k="name" v="Skipmannsvik" />
		<tag k="place" v="farm" />
		<tag k="ssr:stedsnr" v="467644" />
	</node>
	<node lat="67.03392546368431" lon="15.379754622334266" id="-10836">
		<tag k="fixme" v="consider place=hamlet" />
		<tag k="name" v="Langvad" />
		<tag k="place" v="farm" />
		<tag k="ssr:stedsnr" v="319815" />
	</node>
	<node lat="67.0921742412949" lon="15.366806498415299" id="-10840">
		<tag k="alt_name" v="Prestegården" />
		<tag k="name" v="Fiskvåg" />
		<tag k="place" v="hamlet" />
		<tag k="ssr:stedsnr" v="320807" />
	</node>
	<node lat="67.11849444783094" lon="15.390169456199509" id="-10852">
		<tag k="name" v="Halsmoen" />
		<tag k="place" v="hamlet" />
		<tag k="ssr:stedsnr" v="331715" />
	</node>
	<node lat="66.89435558524197" lon="15.29804597739747" id="-10942">
		<tag k="alt_name" v="Skjågsletta" />
		<tag k="fixme" v="consider place=hamlet" />
		<tag k="name" v="Leirjordfall" />
		<tag k="place" v="farm" />
		<tag k="ssr:stedsnr" v="380667" />
	</node>
	<node lat="66.89146967078572" lon="15.294592939770562" id="-10944">
		<tag k="alt_name" v="Fald" />
		<tag k="name" v="Fall" />
		<tag k="place" v="farm" />
		<tag k="ssr:stedsnr" v="380676" />
	</node>
	<node lat="67.16509721930925" lon="15.488930551367464" id="-10950">
		<tag k="fixme" v="consider place=hamlet" />
		<tag k="loc_name:smj" v="Sæsso" />
		<tag k="name" v="Setså" />
		<tag k="name:no" v="Setså" />
		<tag k="place" v="village" />
		<tag k="ssr:stedsnr" v="380982" />
	</node>
	<node lat="66.92465833495041" lon="15.871308338639333" id="-10951">
		<tag k="name" v="Skiejddehytta" />
		<tag k="old_name" v="Skieidihytta;Skiei'dihytta" />
		<tag k="place" v="isolated_dwelling" />
		<tag k="ssr:stedsnr" v="380859" />
	</node>
	<node lat="67.09364722223445" lon="15.391141667449556" id="-10956">
		<tag k="name" v="Fiskvågmoen" />
		<tag k="place" v="quarter" />
		<tag k="ssr:stedsnr" v="482495" />
	</node>
	<node lat="66.89397499972868" lon="15.300422226829067" id="-10968">
		<tag k="name" v="Skogeng" />
		<tag k="place" v="farm" />
		<tag k="ssr:stedsnr" v="391642" />
	</node>
	<node lat="67.10432222503245" lon="15.463652786297821" id="-10970">
		<tag k="name" v="Kjærran" />
		<tag k="place" v="farm" />
		<tag k="ssr:stedsnr" v="391894" />
	</node>
	<node lat="66.80730000075144" lon="15.639108325304491" id="-10983">
		<tag k="name" v="Husmannsplass" />
		<tag k="place" v="locality" />
		<tag k="ssr:stedsnr" v="412212" />
	</node>
	<node lat="67.06683610979073" lon="15.252605557284923" id="-10994">
		<tag k="name" v="Ingeborgvatnet" />
		<tag k="place" v="neighbourhood" />
		<tag k="ssr:stedsnr" v="423308" />
	</node>
	<node lat="66.84948610879134" lon="15.045794432563445" id="-10996">
		<tag k="fixme" v="multiple name tags, choose one and add the other to alt_name; consider tourism=alpine_hut or tourism=chalet" />
		<tag k="name" v="Nordstua;Bjellåvasstua" />
		<tag k="old_name" v="Bjøllåvasstua" />
		<tag k="ssr:stedsnr" v="441542" />
		<tag k="tourism" v="wilderness_hut" />
	</node>
	<node lat="66.94500647510046" lon="15.422583582316875" id="-11002">
		<tag k="fixme" v="consider place=hamlet" />
		<tag k="name" v="Myrland" />
		<tag k="place" v="farm" />
		<tag k="ssr:stedsnr" v="441730" />
	</node>
	<node lat="66.84815833745766" lon="15.314050000320217" id="-11005">
		<tag k="alt_name" v="Borkamoen" />
		<tag k="name" v="Borkamo" />
		<tag k="place" v="farm" />
		<tag k="ssr:stedsnr" v="441665" />
	</node>
	<node lat="67.06530555956704" lon="15.374666659657441" id="-11007">
		<tag k="alt_name" v="Nylund" />
		<tag k="name" v="Nylend" />
		<tag k="place" v="farm" />
		<tag k="ssr:stedsnr" v="441812" />
	</node>
	<node lat="66.80771666864919" lon="15.577063898712986" id="-11011">
		<tag k="name" v="Strand" />
		<tag k="place" v="farm" />
		<tag k="ssr:stedsnr" v="441857" />
	</node>
	<node lat="67.04148888975449" lon="15.30028889237401" id="-11012">
		<tag k="name" v="Fjelleng" />
		<tag k="place" v="locality" />
		<tag k="ssr:stedsnr" v="441858" />
	</node>
	<node lat="67.04619444724096" lon="15.390677766840149" id="-11014">
		<tag k="name" v="Lieng" />
		<tag k="place" v="farm" />
		<tag k="ssr:stedsnr" v="441863" />
	</node>
	<node lat="67.08605277376562" lon="15.352252779680787" id="-11018">
		<tag k="name" v="Bakkeng" />
		<tag k="place" v="farm" />
		<tag k="ssr:stedsnr" v="441800" />
	</node>
	<node lat="66.97715000358671" lon="15.42054166458872" id="-11020">
		<tag k="alt_name" v="Engan" />
		<tag k="name" v="Engen" />
		<tag k="place" v="isolated_dwelling" />
		<tag k="ssr:stedsnr" v="445313" />
	</node>
	<node lat="66.96067500143258" lon="15.309869441178336" id="-11032">
		<tag k="name" v="Svemo" />
		<tag k="place" v="farm" />
		<tag k="ssr:stedsnr" v="452582" />
	</node>
	<node lat="67.09631388847694" lon="15.390233333633837" id="-11033">
		<tag k="name" v="Høgbakken" />
		<tag k="place" v="quarter" />
		<tag k="ssr:stedsnr" v="452704" />
	</node>
	<node lat="67.11759166811687" lon="15.381266674189082" id="-11036">
		<tag k="name" v="Kalmo" />
		<tag k="place" v="farm" />
		<tag k="ssr:stedsnr" v="452718" />
	</node>
	<node lat="67.01246388777591" lon="15.339744445958516" id="-11069">
		<tag k="alt_name" v="Skamoen" />
		<tag k="name" v="Skavmoen" />
		<tag k="place" v="quarter" />
		<tag k="ssr:stedsnr" v="484273" />
	</node>
	<node lat="66.90082222108255" lon="15.350169450305021" id="-11075">
		<tag k="alt_name" v="Standerdalen" />
		<tag k="name" v="Standardalen" />
		<tag k="place" v="isolated_dwelling" />
		<tag k="ssr:stedsnr" v="501610" />
	</node>
	<node lat="67.12170200392235" lon="15.395903058852301" id="-11079">
		<tag k="fixme" v="consider place=hamlet" />
		<tag k="loc_name:smj" v="Halsse" />
		<tag k="name" v="Hals" />
		<tag k="name:no" v="Hals" />
		<tag k="place" v="farm" />
		<tag k="ssr:stedsnr" v="501722" />
	</node>
	<node lat="67.04709627104225" lon="15.379013348862108" id="-11083">
		<tag k="fixme" v="consider place=hamlet" />
		<tag k="loc_name:smj" v="Sunbivnna" />
		<tag k="name" v="Sundby" />
		<tag k="name:no" v="Sundby" />
		<tag k="place" v="farm" />
		<tag k="ssr:stedsnr" v="501812" />
	</node>
	<node lat="67.17748055222842" lon="15.382980549621111" id="-11092">
		<tag k="alt_name" v="Skipmannvikfjellet" />
		<tag k="fixme" v="consider place=hamlet" />
		<tag k="name" v="Skipmannvikfjell" />
		<tag k="place" v="farm" />
		<tag k="ssr:stedsnr" v="501981" />
	</node>
	<node lat="66.90688805073782" lon="15.312904766553944" id="-11116">
		<tag k="fixme" v="consider place=hamlet" />
		<tag k="name" v="Bleiknes" />
		<tag k="place" v="farm" />
		<tag k="ssr:stedsnr" v="683601" />
	</node>
	<node lat="67.02038888614986" lon="15.339736104263464" id="-11118">
		<tag k="name" v="Solbakken" />
		<tag k="place" v="farm" />
		<tag k="ssr:stedsnr" v="513568" />
	</node>
	<node lat="66.98364166721997" lon="15.432463881567001" id="-11131">
		<tag k="name" v="Gammelgården" />
		<tag k="place" v="farm" />
		<tag k="ssr:stedsnr" v="683679" />
	</node>
	<node lat="67.11993610754308" lon="15.36824167554136" id="-11134">
		<tag k="alt_name" v="Lillemo" />
		<tag k="name" v="Litlemoen" />
		<tag k="place" v="farm" />
		<tag k="ssr:stedsnr" v="683761" />
	</node>
	<node lat="67.06035824767855" lon="15.373841935692456" id="-11135">
		<tag k="fixme" v="consider place=hamlet" />
		<tag k="name" v="Medby" />
		<tag k="place" v="farm" />
		<tag k="ssr:stedsnr" v="683790" />
	</node>
	<node lat="66.83486388959044" lon="15.351375010593827" id="-11150">
		<tag k="alt_name" v="Mastenes" />
		<tag k="name" v="Masternes" />
		<tag k="place" v="farm" />
		<tag k="ssr:stedsnr" v="684639" />
	</node>
	<node lat="66.94431993187825" lon="15.309321812706962" id="-11152">
		<tag k="fixme" v="consider place=hamlet" />
		<tag k="name" v="Nordnes" />
		<tag k="place" v="farm" />
		<tag k="ssr:stedsnr" v="684723" />
	</node>
	<node lat="66.92334444452248" lon="15.305372215686285" id="-11153">
		<tag k="name" v="Russåga" />
		<tag k="place" v="farm" />
		<tag k="ssr:stedsnr" v="684726" />
	</node>
	<node lat="67.09080277806905" lon="15.367891656253315" id="-11156">
		<tag k="name" v="Bakken" />
		<tag k="place" v="farm" />
		<tag k="ssr:stedsnr" v="684787" />
	</node>
	<node lat="66.78876111415592" lon="15.703755547924292" id="-11158">
		<tag k="name" v="Fredheim" />
		<tag k="place" v="farm" />
		<tag k="ssr:stedsnr" v="684842" />
	</node>
	<node lat="66.8279087770409" lon="15.365756148917649" id="-11170">
		<tag k="name" v="Stornes" />
		<tag k="place" v="farm" />
		<tag k="ssr:stedsnr" v="533068" />
	</node>
	<node lat="66.83602499583773" lon="15.36949444593366" id="-11171">
		<tag k="name" v="Innigarden" />
		<tag k="place" v="farm" />
		<tag k="ssr:stedsnr" v="533073" />
	</node>
	<node lat="67.11435832934582" lon="15.365411117367765" id="-11194">
		<tag k="name" v="Instadmyra" />
		<tag k="place" v="farm" />
		<tag k="ssr:stedsnr" v="573704" />
	</node>
	<node lat="67.04500278177785" lon="15.390349993888828" id="-11196">
		<tag k="name" v="Kløkstad" />
		<tag k="place" v="farm" />
		<tag k="ssr:stedsnr" v="573716" />
	</node>
	<node lat="66.74497500285116" lon="15.723152783019456" id="-11201">
		<tag k="name" v="Liestad" />
		<tag k="place" v="locality" />
		<tag k="ssr:stedsnr" v="573803" />
	</node>
	<node lat="67.08302500147117" lon="15.357033326727645" id="-11207">
		<tag k="name" v="Høyjarfallmoen" />
		<tag k="place" v="quarter" />
		<tag k="ssr:stedsnr" v="695697" />
	</node>
	<node lat="66.94232221904586" lon="15.411702770257804" id="-11224">
		<tag k="name" v="Neset" />
		<tag k="place" v="farm" />
		<tag k="ssr:stedsnr" v="593070" />
	</node>
	<node lat="67.01325277409472" lon="15.335722224030562" id="-11248">
		<tag k="name" v="Pinmoen" />
		<tag k="place" v="farm" />
		<tag k="ssr:stedsnr" v="622821" />
	</node>
	<node lat="67.11681666285673" lon="15.393225005333486" id="-11249">
		<tag k="name" v="Finnvika" />
		<tag k="place" v="farm" />
		<tag k="ssr:stedsnr" v="622765" />
	</node>
	<node lat="66.98399583225974" lon="15.329625682652352" id="-11252">
		<tag k="fixme" v="consider place=hamlet" />
		<tag k="name" v="Potthus" />
		<tag k="place" v="farm" />
		<tag k="ssr:stedsnr" v="623703" />
	</node>
	<node lat="67.01689444619586" lon="15.338811104162268" id="-11262">
		<tag k="name" v="Nyjord" />
		<tag k="place" v="farm" />
		<tag k="ssr:stedsnr" v="634576" />
	</node>
	<node lat="67.00077222114672" lon="15.324327767124801" id="-11269">
		<tag k="name" v="Hemmoen" />
		<tag k="place" v="quarter" />
		<tag k="ssr:stedsnr" v="646327" />
	</node>
	<node lat="67.05054444682398" lon="15.383574994201751" id="-11271">
		<tag k="name" v="Sundby" />
		<tag k="place" v="farm" />
		<tag k="ssr:stedsnr" v="647801" />
	</node>
	<node lat="67.16180277803065" lon="15.392499994066977" id="-11286">
		<tag k="historic" v="shieling" />
		<tag k="name" v="Blesen" />
		<tag k="place" v="isolated_dwelling" />
		<tag k="ssr:stedsnr" v="654890" />
	</node>
	<node lat="67.18674999995197" lon="15.486044452479945" id="-11291">
		<tag k="name" v="Grytvikmoen" />
		<tag k="place" v="farm" />
		<tag k="ssr:stedsnr" v="654983" />
	</node>
	<node lat="66.99613961346708" lon="15.326598991052423" id="-11295">
		<tag k="name" v="Kvæl" />
		<tag k="place" v="farm" />
		<tag k="ssr:stedsnr" v="709996" />
	</node>
	<node lat="66.98470310611495" lon="15.43838520348835" id="-11296">
		<tag k="alt_name" v="Vasbotn" />
		<tag k="fixme" v="consider place=hamlet" />
		<tag k="name" v="Vassbotn" />
		<tag k="place" v="farm" />
		<tag k="ssr:stedsnr" v="890784" />
	</node>
	<node lat="67.12370000059657" lon="15.382313885193675" id="-11297">
		<tag k="name" v="Vik" />
		<tag k="place" v="farm" />
		<tag k="ssr:stedsnr" v="891789" />
	</node>
	<node lat="67.05212499676934" lon="15.378200008706843" id="-11298">
		<tag k="name" v="Sundby" />
		<tag k="place" v="farm" />
		<tag k="ssr:stedsnr" v="891800" />
	</node>
	<node lat="66.89718333262743" lon="15.304244440366846" id="-11301">
		<tag k="name" v="Bleiknesmoen" />
		<tag k="place" v="farm" />
		<tag k="ssr:stedsnr" v="683604" />
	</node>
	<node lat="66.90855833014965" lon="15.314922224607459" id="-11304">
		<tag k="name" v="Yttereng" />
		<tag k="place" v="farm" />
		<tag k="ssr:stedsnr" v="683732" />
	</node>
	<node lat="67.01743629129463" lon="15.356719084442473" id="-11307">
		<tag k="fixme" v="consider place=hamlet" />
		<tag k="name" v="Nes" />
		<tag k="place" v="farm" />
		<tag k="ssr:stedsnr" v="683812" />
	</node>
	<node lat="66.96786111284044" lon="15.411102777692776" id="-11312">
		<tag k="name" v="Siriheim" />
		<tag k="place" v="farm" />
		<tag k="ssr:stedsnr" v="684697" />
	</node>
	<node lat="66.94367222355322" lon="15.419225009921258" id="-11313">
		<tag k="name" v="Petterheim" />
		<tag k="place" v="farm" />
		<tag k="ssr:stedsnr" v="684716" />
	</node>
	<node lat="67.05029166482633" lon="15.381002786964132" id="-11333">
		<tag k="name" v="Engan" />
		<tag k="place" v="farm" />
		<tag k="ssr:stedsnr" v="695717" />
	</node>
	<node lat="67.0764166634992" lon="15.32314445454918" id="-11342">
		<tag k="name" v="Sæteren" />
		<tag k="place" v="locality" />
		<tag k="ssr:stedsnr" v="897332" />
	</node>
	<node lat="66.9703472218714" lon="15.367566677082973" id="-11356">
		<tag k="name" v="Lillenes" />
		<tag k="place" v="farm" />
		<tag k="ssr:stedsnr" v="897770" />
	</node>
	<node lat="67.08882499541922" lon="15.369772232113302" id="-11386">
		<tag k="name" v="Bakken" />
		<tag k="place" v="quarter" />
		<tag k="ssr:stedsnr" v="725443" />
	</node>
	<node lat="66.881988887285" lon="15.280444439943611" id="-11391">
		<tag k="alt_name" v="Sagmoen" />
		<tag k="name" v="Sagmo" />
		<tag k="place" v="farm" />
		<tag k="ssr:stedsnr" v="744605" />
	</node>
	<node lat="66.98184444670261" lon="15.489586102587358" id="-11392">
		<tag k="name" v="Solbakk" />
		<tag k="place" v="farm" />
		<tag k="ssr:stedsnr" v="744673" />
	</node>
	<node lat="67.04713611100647" lon="15.277925008404887" id="-11398">
		<tag k="historic" v="shieling" />
		<tag k="name" v="Tverråmoen" />
		<tag k="place" v="isolated_dwelling" />
		<tag k="ssr:stedsnr" v="744822" />
	</node>
	<node lat="66.91519722376995" lon="15.370374995915123" id="-11401">
		<tag k="historic" v="shieling" />
		<tag k="name" v="Bleiknesfjellet" />
		<tag k="place" v="isolated_dwelling" />
		<tag k="ssr:stedsnr" v="744723" />
	</node>
	<node lat="67.12391111116516" lon="15.38700555022814" id="-11412">
		<tag k="name" v="Risbakk" />
		<tag k="place" v="farm" />
		<tag k="ssr:stedsnr" v="755698" />
	</node>
	<node lat="66.74479999564485" lon="15.468130559503704" id="-11413">
		<tag k="name" v="Lønsdal II" />
		<tag k="place" v="quarter" />
		<tag k="ssr:stedsnr" v="755809" />
	</node>
	<node lat="67.12349166738159" lon="15.380286102909622" id="-11420">
		<tag k="fixme" v="multiple name tags, choose one and add the other to alt_name" />
		<tag k="name" v="Fall;Vinkelmo" />
		<tag k="place" v="farm" />
		<tag k="ssr:stedsnr" v="755703" />
	</node>
	<node lat="67.1257561094726" lon="15.38075188690394" id="-11426">
		<tag k="name" v="Vik" />
		<tag k="place" v="farm" />
		<tag k="ssr:stedsnr" v="769758" />
	</node>
	<node lat="67.04661944722531" lon="15.3779750030544" id="-11427">
		<tag k="name" v="Sundby" />
		<tag k="place" v="farm" />
		<tag k="ssr:stedsnr" v="769773" />
	</node>
	<node lat="66.92301111103329" lon="15.323400000096015" id="-11460">
		<tag k="name" v="Skjelgånes" />
		<tag k="place" v="farm" />
		<tag k="ssr:stedsnr" v="816618" />
	</node>
	<node lat="66.92272500003588" lon="15.309013892781742" id="-11461">
		<tag k="name" v="Moen" />
		<tag k="place" v="farm" />
		<tag k="ssr:stedsnr" v="816619" />
	</node>
	<node lat="66.9070249982885" lon="15.316916677306233" id="-11466">
		<tag k="name" v="Reitan" />
		<tag k="place" v="farm" />
		<tag k="ssr:stedsnr" v="816682" />
	</node>
	<node lat="67.10881943985267" lon="15.469852781325503" id="-11479">
		<tag k="name" v="Trøa" />
		<tag k="place" v="farm" />
		<tag k="ssr:stedsnr" v="816885" />
	</node>
	<node lat="66.8388916675239" lon="15.338472220982867" id="-11487">
		<tag k="name" v="Innerneset" />
		<tag k="place" v="farm" />
		<tag k="ssr:stedsnr" v="837089" />
	</node>
	<node lat="66.92507480990933" lon="15.369329774945061" id="-11515">
		<tag k="alt_name" v="Kvanli gård;Kvanlien" />
		<tag k="name" v="Kvannli" />
		<tag k="place" v="farm" />
		<tag k="ssr:stedsnr" v="926735" />
	</node>
	<node lat="67.06902222475982" lon="15.372925010520657" id="-11517">
		<tag k="fixme" v="consider place=hamlet" />
		<tag k="name" v="Nestby" />
		<tag k="old_name" v="Nesby" />
		<tag k="place" v="farm" />
		<tag k="ssr:stedsnr" v="926794" />
	</node>
	<node lat="67.16759999905827" lon="15.478561117514607" id="-11522">
		<tag k="name" v="Muren" />
		<tag k="place" v="farm" />
		<tag k="ssr:stedsnr" v="926987" />
	</node>
	<node lat="66.9766438784626" lon="15.296789044360025" id="-11525">
		<tag k="alt_name" v="Lillealmenningen" />
		<tag k="fixme" v="consider place=hamlet" />
		<tag k="name" v="Litlalmenningen" />
		<tag k="place" v="farm" />
		<tag k="ssr:stedsnr" v="927686" />
	</node>
	<node lat="66.9889877689432" lon="15.49811507576875" id="-11526">
		<tag k="fixme" v="consider place=hamlet" />
		<tag k="loc_name:smj" v="Vássavárre" />
		<tag k="name" v="Vassbotnfjell" />
		<tag k="name:no" v="Vassbotnfjell" />
		<tag k="place" v="farm" />
		<tag k="ssr:stedsnr" v="927691" />
	</node>
	<node lat="66.92498055710954" lon="15.320813884340613" id="-11530">
		<tag k="fixme" v="consider place=hamlet" />
		<tag k="name" v="Russånes" />
		<tag k="place" v="village" />
		<tag k="ssr:stedsnr" v="927740" />
	</node>
	<node lat="67.02794722137969" lon="15.358736099602591" id="-11541">
		<tag k="name" v="Sveen" />
		<tag k="place" v="farm" />
		<tag k="ssr:stedsnr" v="877550" />
	</node>
	<node lat="66.97574721892855" lon="15.345144441127177" id="-11560">
		<tag k="name" v="Kvitsteinen" />
		<tag k="place" v="farm" />
		<tag k="ssr:stedsnr" v="897611" />
	</node>
	<node lat="66.74234166743021" lon="15.737994447248452" id="-11573">
		<tag k="fixme" v="consider tourism=alpine_hut or tourism=chalet" />
		<tag k="name" v="Graddis fjellstue" />
		<tag k="old_name" v="Graddis" />
		<tag k="ssr:stedsnr" v="926616" />
		<tag k="tourism" v="wilderness_hut" />
	</node>
	<node lat="66.92766111458306" lon="15.51112222281842" id="-11575">
		<tag k="name" v="Reinhagen" />
		<tag k="place" v="farm" />
		<tag k="ssr:stedsnr" v="926728" />
	</node>
	<node lat="67.13708890775155" lon="15.453138115380185" id="-11577">
		<tag k="fixme" v="consider place=hamlet" />
		<tag k="loc_name:smj" v="Laŋsæhtta" />
		<tag k="name" v="Langset" />
		<tag k="name:no" v="Langset" />
		<tag k="place" v="farm" />
		<tag k="ssr:stedsnr" v="926761" />
	</node>
	<node lat="67.12098611425714" lon="15.371144438297224" id="-11595">
		<tag k="name" v="Søbakken" />
		<tag k="place" v="farm" />
		<tag k="ssr:stedsnr" v="938712" />
	</node>
	<node lat="67.11816388890632" lon="15.3858666720729" id="-11597">
		<tag k="name" v="Bakkemo" />
		<tag k="place" v="farm" />
		<tag k="ssr:stedsnr" v="938718" />
	</node>
	<node lat="67.05689444329057" lon="15.37485554576979" id="-11598">
		<tag k="name" v="Slettvoll" />
		<tag k="place" v="farm" />
		<tag k="ssr:stedsnr" v="938720" />
	</node>
	<node lat="66.89914444681544" lon="15.303208342267046" id="-11602">
		<tag k="name" v="Skogmo" />
		<tag k="place" v="farm" />
		<tag k="ssr:stedsnr" v="938618" />
	</node>
	<node lat="67.11870555571637" lon="15.377533331175435" id="-11605">
		<tag k="name" v="Vik" />
		<tag k="place" v="farm" />
		<tag k="ssr:stedsnr" v="951792" />
	</node>
	<node lat="67.0514972189394" lon="15.38232500382889" id="-11606">
		<tag k="name" v="Sundby" />
		<tag k="place" v="farm" />
		<tag k="ssr:stedsnr" v="951793" />
	</node>
	<node lat="66.81793288858164" lon="15.473353424288247" id="-11631">
		<tag k="name" v="Kjernfjellet" />
		<tag k="place" v="farm" />
		<tag k="ssr:stedsnr" v="990943" />
	</node>
	<node lat="66.96423888902896" lon="15.431744435237533" id="-11646">
		<tag k="name" v="Pettermoen" />
		<tag k="place" v="farm" />
		<tag k="ssr:stedsnr" v="16695" />
	</node>
	<node lat="66.81458055252249" lon="15.378911105063674" id="-11649">
		<tag k="name" v="Ankermoen" />
		<tag k="place" v="farm" />
		<tag k="ssr:stedsnr" v="16644" />
	</node>
	<node lat="66.93010833649569" lon="15.466408334670673" id="-11654">
		<tag k="alt_name" v="Sandbakk" />
		<tag k="name" v="Sandbakken" />
		<tag k="place" v="farm" />
		<tag k="ssr:stedsnr" v="16719" />
	</node>
	<node lat="67.12823055712038" lon="15.400861112256667" id="-11656">
		<tag k="name" v="Kalvika" />
		<tag k="place" v="farm" />
		<tag k="ssr:stedsnr" v="16733" />
	</node>
	<node lat="67.09642222558863" lon="15.417344451806505" id="-11660">
		<tag k="name" v="Nygård" />
		<tag k="place" v="farm" />
		<tag k="ssr:stedsnr" v="16783" />
	</node>
	<node lat="67.01883888699459" lon="15.340502774219962" id="-11669">
		<tag k="fixme" v="consider place=hamlet" />
		<tag k="loc_name:smj" v="Dráhka" />
		<tag k="name" v="Drageid" />
		<tag k="name:no" v="Drageid" />
		<tag k="place" v="village" />
		<tag k="ssr:stedsnr" v="16842" />
	</node>
	<node lat="66.84790000041745" lon="15.78690834028131" id="-11670">
		<tag k="fixme" v="multiple name tags, choose one and add the other to alt_name; consider tourism=alpine_hut or tourism=chalet" />
		<tag k="name" v="Arggalájhytta;Argaladhytta" />
		<tag k="old_name" v="Argalaihytta;Arggalijhytta;Argaladeihytta" />
		<tag k="ssr:stedsnr" v="16847" />
		<tag k="tourism" v="wilderness_hut" />
	</node>
	<node lat="66.8108555590313" lon="15.40373056081507" id="-11704">
		<tag k="landuse" v="military" />
		<tag k="name" v="Hestbrinkleiren" />
		<tag k="ssr:stedsnr" v="27858" />
	</node>
	<node lat="67.16284482052262" lon="15.48996724061946" id="-11709">
		<tag k="fixme" v="consider place=hamlet" />
		<tag k="name" v="Innersetså" />
		<tag k="place" v="farm" />
		<tag k="ssr:stedsnr" v="47041" />
	</node>
	<node lat="66.93804999886189" lon="15.267813887288247" id="-11733">
		<tag k="name" v="Statskjell" />
		<tag k="place" v="isolated_dwelling" />
		<tag k="ssr:stedsnr" v="48100" />
	</node>
	<node lat="66.98625555474425" lon="15.318127788053157" id="-11752">
		<tag k="fixme" v="consider place=hamlet" />
		<tag k="loc_name:smj" v="Revkka" />
		<tag k="name" v="Røkland" />
		<tag k="name:no" v="Røkland" />
		<tag k="place" v="village" />
		<tag k="ssr:stedsnr" v="77585" />
	</node>
	<node lat="66.82017500236391" lon="15.391141670267752" id="-11758">
		<tag k="fixme" v="consider place=hamlet" />
		<tag k="name" v="Storjord" />
		<tag k="place" v="village" />
		<tag k="ssr:stedsnr" v="77683" />
	</node>
	<node lat="66.90436389300154" lon="15.315327772810127" id="-11765">
		<tag k="alt_name" v="Osbakk" />
		<tag k="name" v="Bleikosbakk" />
		<tag k="place" v="farm" />
		<tag k="ssr:stedsnr" v="77644" />
	</node>
	<node lat="66.80467222350791" lon="15.573094443372888" id="-11770">
		<tag k="name" v="Storvoll" />
		<tag k="place" v="farm" />
		<tag k="ssr:stedsnr" v="77834" />
	</node>
	<node lat="67.18300277591231" lon="15.38261389380268" id="-11786">
		<tag k="historic" v="shieling" />
		<tag k="name" v="Sæteng" />
		<tag k="place" v="isolated_dwelling" />
		<tag k="ssr:stedsnr" v="86939" />
	</node>
	<node lat="67.11565833741307" lon="15.362030558702084" id="-11791">
		<tag k="name" v="Skoglund" />
		<tag k="place" v="farm" />
		<tag k="ssr:stedsnr" v="88682" />
	</node>
	<node lat="67.08746389310863" lon="15.372191659422446" id="-11799">
		<tag k="amenity" v="school" />
		<tag k="name" v="Saltdal videregående" />
		<tag k="ssr:stedsnr" v="88637" />
	</node>
	<node lat="67.1190166649892" lon="15.377541663550044" id="-11800">
		<tag k="name" v="Kvannmo" />
		<tag k="place" v="farm" />
		<tag k="ssr:stedsnr" v="88664" />
	</node>
	<node lat="67.05768055782636" lon="15.379994439136286" id="-11805">
		<tag k="name" v="Holmen" />
		<tag k="place" v="farm" />
		<tag k="ssr:stedsnr" v="88696" />
	</node>
	<node lat="67.09596111264156" lon="15.412224990017586" id="-11815">
		<tag k="name" v="Nygård" />
		<tag k="place" v="quarter" />
		<tag k="ssr:stedsnr" v="101397" />
	</node>
	<node lat="66.98783431444048" lon="15.316877821919796" id="-11816">
		<tag k="fixme" v="consider place=hamlet" />
		<tag k="loc_name:smj" v="Revkka" />
		<tag k="name" v="Røkland" />
		<tag k="name:no" v="Røkland" />
		<tag k="place" v="farm" />
		<tag k="ssr:stedsnr" v="103354" />
	</node>
	<node lat="66.75388610900633" lon="15.424272221004905" id="-11831">
		<tag k="name" v="Fiskerihytta" />
		<tag k="place" v="locality" />
		<tag k="ssr:stedsnr" v="108427" />
	</node>
	<node lat="66.93667222654247" lon="15.427694444015724" id="-11848">
		<tag k="alt_name" v="Smeli;Snelia" />
		<tag k="name" v="Sneli" />
		<tag k="place" v="farm" />
		<tag k="ssr:stedsnr" v="137699" />
	</node>
	<node lat="66.8877322001181" lon="15.279159012384488" id="-11858">
		<tag k="fixme" v="consider place=hamlet" />
		<tag k="name" v="Langånes" />
		<tag k="place" v="farm" />
		<tag k="ssr:stedsnr" v="137609" />
	</node>
	<node lat="66.86203889271066" lon="15.31358056033194" id="-11859">
		<tag k="name" v="Lifjell" />
		<tag k="place" v="farm" />
		<tag k="ssr:stedsnr" v="137619" />
	</node>
	<node lat="66.8291555592954" lon="15.367825007088577" id="-11861">
		<tag k="alt_name" v="Stornes, nordre;Utigarden" />
		<tag k="name" v="Nordre Stornes" />
		<tag k="place" v="farm" />
		<tag k="ssr:stedsnr" v="137634" />
	</node>
	<node lat="66.98157777709203" lon="15.492727783542206" id="-11863">
		<tag k="alt_name" v="Moen" />
		<tag k="name" v="Moan" />
		<tag k="place" v="farm" />
		<tag k="ssr:stedsnr" v="137665" />
	</node>
	<node lat="66.95722499808997" lon="15.31556666911351" id="-11867">
		<tag k="alt_name" v="Holmbakken" />
		<tag k="name" v="Helmobakk" />
		<tag k="place" v="locality" />
		<tag k="ssr:stedsnr" v="137682" />
	</node>
	<node lat="67.07620533474741" lon="15.39144072399882" id="-11871">
		<tag k="fixme" v="consider place=hamlet" />
		<tag k="name" v="Os" />
		<tag k="place" v="farm" />
		<tag k="ssr:stedsnr" v="137781" />
	</node>
	<node lat="67.0813527741224" lon="15.391483341431599" id="-11873">
		<tag k="alt_name" v="Rausand" />
		<tag k="name" v="Raudsand" />
		<tag k="place" v="farm" />
		<tag k="ssr:stedsnr" v="137785" />
	</node>
	<node lat="66.99479166472226" lon="15.966375001441387" id="-11876">
		<tag k="alt_name" v="Coarvihytta" />
		<tag k="fixme" v="consider tourism=alpine_hut or tourism=chalet" />
		<tag k="name" v="Tjoarvihytta" />
		<tag k="old_name" v="Čoarvihytta" />
		<tag k="ssr:stedsnr" v="137790" />
		<tag k="tourism" v="wilderness_hut" />
	</node>
	<node lat="67.05357499960954" lon="15.276677784286274" id="-11877">
		<tag k="alt_name" v="Skard" />
		<tag k="historic" v="shieling" />
		<tag k="name" v="Skar" />
		<tag k="place" v="isolated_dwelling" />
		<tag k="ssr:stedsnr" v="137795" />
	</node>
	<node lat="67.05036944025508" lon="15.392344453372031" id="-11880">
		<tag k="alt_name" v="Libakkan" />
		<tag k="name" v="Libakken" />
		<tag k="place" v="isolated_dwelling" />
		<tag k="ssr:stedsnr" v="137800" />
	</node>
	<node lat="66.93118888525493" lon="15.441541676596922" id="-11886">
		<tag k="alt_name" v="Gammelheimen" />
		<tag k="name" v="Gammelheim" />
		<tag k="place" v="farm" />
		<tag k="ssr:stedsnr" v="137703" />
	</node>
	<node lat="66.92940555291626" lon="15.442572219254748" id="-11887">
		<tag k="name" v="Fossegård" />
		<tag k="place" v="farm" />
		<tag k="ssr:stedsnr" v="137704" />
	</node>
	<node lat="66.92899166457815" lon="15.461358341841056" id="-11888">
		<tag k="alt_name" v="Storvold" />
		<tag k="name" v="Storvollen" />
		<tag k="place" v="farm" />
		<tag k="ssr:stedsnr" v="137705" />
	</node>
	<node lat="66.91291944710014" lon="15.311944453035863" id="-11889">
		<tag k="name" v="Moen" />
		<tag k="place" v="farm" />
		<tag k="ssr:stedsnr" v="137712" />
	</node>
	<node lat="66.93593333249567" lon="15.236872228345504" id="-11899">
		<tag k="fixme" v="consider tourism=alpine_hut or tourism=chalet" />
		<tag k="name" v="Jordbruhytta" />
		<tag k="old_name" v="Jarbruhytta" />
		<tag k="ssr:stedsnr" v="146628" />
		<tag k="tourism" v="wilderness_hut" />
	</node>
	<node lat="66.8867666661793" lon="15.285469447958908" id="-11915">
		<tag k="name" v="Mellamoen" />
		<tag k="place" v="farm" />
		<tag k="ssr:stedsnr" v="148641" />
	</node>
	<node lat="66.88972221867867" lon="15.283183326726714" id="-11916">
		<tag k="name" v="Kjeldnes" />
		<tag k="place" v="farm" />
		<tag k="ssr:stedsnr" v="148643" />
	</node>
	<node lat="67.08718610676678" lon="15.510036118937045" id="-11920">
		<tag k="name" v="Breivika" />
		<tag k="place" v="isolated_dwelling" />
		<tag k="ssr:stedsnr" v="148880" />
	</node>
	<node lat="67.08863055268687" lon="15.290261109848513" id="-11930">
		<tag k="name" v="Svartvatnet" />
		<tag k="place" v="neighbourhood" />
		<tag k="ssr:stedsnr" v="180282" />
	</node>
	<node lat="67.16726853915165" lon="15.487722689224963" id="-11931">
		<tag k="fixme" v="consider place=hamlet" />
		<tag k="name" v="Yttersetså" />
		<tag k="place" v="farm" />
		<tag k="ssr:stedsnr" v="168050" />
	</node>
	<node lat="66.98803888464857" lon="15.959513895752707" id="-11956">
		<tag k="name" v="Slakteriet" />
		<tag k="place" v="locality" />
		<tag k="ssr:stedsnr" v="169448" />
	</node>
	<node lat="66.979547219954" lon="15.435313891364713" id="-11961">
		<tag k="name" v="Moen" />
		<tag k="place" v="farm" />
		<tag k="ssr:stedsnr" v="169659" />
	</node>
	<node lat="66.86051666793793" lon="15.306894444808037" id="-11981">
		<tag k="alt_name" v="Kristendalneset" />
		<tag k="name" v="Kristendalnes" />
		<tag k="place" v="farm" />
		<tag k="ssr:stedsnr" v="198640" />
	</node>
	<node lat="66.98300833285559" lon="15.441486100184424" id="-11987">
		<tag k="fixme" v="consider place=hamlet" />
		<tag k="loc_name" v="Vássavárheima" />
		<tag k="name" v="Vassbotn" />
		<tag k="place" v="village" />
		<tag k="ssr:stedsnr" v="198683" />
	</node>
	<node lat="67.07938669854101" lon="15.517783236470953" id="-11990">
		<tag k="fixme" v="consider place=hamlet" />
		<tag k="name" v="Botnvatnet" />
		<tag k="place" v="farm" />
		<tag k="ssr:stedsnr" v="198796" />
	</node>
	<node lat="67.07586944479891" lon="15.523072221200996" id="-11991">
		<tag k="alt_name" v="Monsnes" />
		<tag k="name" v="Monsneset" />
		<tag k="place" v="farm" />
		<tag k="ssr:stedsnr" v="198797" />
	</node>
	<node lat="67.03260419526322" lon="15.363795458176718" id="-11993">
		<tag k="fixme" v="consider place=hamlet" />
		<tag k="name" v="Brenne" />
		<tag k="place" v="farm" />
		<tag k="ssr:stedsnr" v="198831" />
	</node>
	<node lat="66.80400000126541" lon="15.575608325692617" id="-11994">
		<tag k="name" v="Innlandet" />
		<tag k="place" v="farm" />
		<tag k="ssr:stedsnr" v="198834" />
	</node>
	<node lat="67.04209722231359" lon="15.377650003501593" id="-12004">
		<tag k="name" v="Innerholmen" />
		<tag k="place" v="farm" />
		<tag k="ssr:stedsnr" v="209732" />
	</node>
	<node lat="67.01764722367984" lon="15.339433336596516" id="-12006">
		<tag k="name" v="Slottholm" />
		<tag k="place" v="farm" />
		<tag k="ssr:stedsnr" v="209545" />
	</node>
	<node lat="66.96197777495765" lon="15.301366672237801" id="-12009">
		<tag k="name" v="Pedernorumhei" />
		<tag k="place" v="isolated_dwelling" />
		<tag k="ssr:stedsnr" v="209562" />
	</node>
	<node lat="66.81880555669235" lon="15.395980562787244" id="-12018">
		<tag k="name" v="Fjelly" />
		<tag k="place" v="isolated_dwelling" />
		<tag k="ssr:stedsnr" v="209852" />
	</node>
	<node lat="67.0951861123483" lon="15.451444446221743" id="-12019">
		<tag k="name" v="Skogeng" />
		<tag k="place" v="farm" />
		<tag k="ssr:stedsnr" v="209855" />
	</node>
	<node lat="67.09124166715367" lon="15.380074998925975" id="-12027">
		<tag k="name" v="Fiskvågmoen industriområde" />
		<tag k="place" v="quarter" />
		<tag k="ssr:stedsnr" v="283333" />
	</node>
	<node lat="67.12074999671387" lon="15.371050010320097" id="-12082">
		<tag k="name" v="Solheim" />
		<tag k="place" v="farm" />
		<tag k="ssr:stedsnr" v="319756" />
	</node>
	<node lat="66.80919444129337" lon="15.557413889649023" id="-12091">
		<tag k="name" v="Jakobsbakken" />
		<tag k="place" v="farm" />
		<tag k="ssr:stedsnr" v="320674" />
	</node>
	<node lat="66.92496388802451" lon="15.870894453308674" id="-12094">
		<tag k="fixme" v="consider tourism=alpine_hut or tourism=chalet" />
		<tag k="name" v="Balvasshytta" />
		<tag k="ssr:stedsnr" v="328633" />
		<tag k="tourism" v="wilderness_hut" />
	</node>
	<node lat="67.01941110809011" lon="15.339005553906075" id="-12098">
		<tag k="name" v="Heimgård" />
		<tag k="place" v="farm" />
		<tag k="ssr:stedsnr" v="331536" />
	</node>
	<node lat="67.01821666690222" lon="15.339113888624155" id="-12099">
		<tag k="name" v="Mosmyr" />
		<tag k="place" v="farm" />
		<tag k="ssr:stedsnr" v="331537" />
	</node>
	<node lat="66.90823888795924" lon="15.31489721965066" id="-12102">
		<tag k="name" v="Åsen" />
		<tag k="place" v="farm" />
		<tag k="ssr:stedsnr" v="331634" />
	</node>
	<node lat="67.08675555497811" lon="15.356419449958528" id="-12106">
		<tag k="building" v="industrial" />
		<tag k="industrial" v="factory" />
		<tag k="name" v="Planteskolen" />
		<tag k="ssr:stedsnr" v="331684" />
	</node>
	<node lat="67.03898055840203" lon="15.37104445107763" id="-12112">
		<tag k="name" v="Brennmoa" />
		<tag k="place" v="isolated_dwelling" />
		<tag k="ssr:stedsnr" v="331728" />
	</node>
	<node lat="67.06564722634462" lon="15.37408054510718" id="-12114">
		<tag k="name" v="Nybakk" />
		<tag k="place" v="farm" />
		<tag k="ssr:stedsnr" v="331750" />
	</node>
	<node lat="67.12069444296932" lon="15.397824997318802" id="-12129">
		<tag k="name" v="Hals" />
		<tag k="place" v="farm" />
		<tag k="ssr:stedsnr" v="344792" />
	</node>
	<node lat="67.12484444448144" lon="15.38387777636453" id="-12130">
		<tag k="name" v="Vik" />
		<tag k="place" v="farm" />
		<tag k="ssr:stedsnr" v="344796" />
	</node>
	<node lat="67.10501666273096" lon="15.226838884395255" id="-12177">
		<tag k="name" v="Krokvatnet" />
		<tag k="place" v="neighbourhood" />
		<tag k="ssr:stedsnr" v="362298" />
	</node>
	<node lat="66.99465277447277" lon="15.371597225828415" id="-12183">
		<tag k="alt_name" v="Krykken" />
		<tag k="name" v="Krykkjo" />
		<tag k="place" v="farm" />
		<tag k="ssr:stedsnr" v="380598" />
	</node>
	<node lat="66.82766111296563" lon="15.3702027842849" id="-12186">
		<tag k="alt_name" v="Stornes, s" />
		<tag k="fixme" v="multiple name tags, choose one and add the other to alt_name" />
		<tag k="name" v="Stornes;Søre Stornes" />
		<tag k="place" v="farm" />
		<tag k="ssr:stedsnr" v="380695" />
	</node>
	<node lat="66.97839444511376" lon="15.492750006387386" id="-12187">
		<tag k="alt_name" v="Sørdal" />
		<tag k="name" v="Sørdalen" />
		<tag k="place" v="farm" />
		<tag k="ssr:stedsnr" v="380724" />
	</node>
	<node lat="67.05781388902194" lon="15.392533341937648" id="-12191">
		<tag k="name" v="Oseng" />
		<tag k="place" v="farm" />
		<tag k="ssr:stedsnr" v="380827" />
	</node>
	<node lat="66.87879167060507" lon="15.2904333338758" id="-12207">
		<tag k="name" v="Trollhola Ytre" />
		<tag k="place" v="farm" />
		<tag k="ssr:stedsnr" v="391630" />
	</node>
	<node lat="67.0971916702918" lon="15.38532776702754" id="-12208">
		<tag k="amenity" v="school" />
		<tag k="name" v="Rognan ungdomsskole" />
		<tag k="ssr:stedsnr" v="391717" />
	</node>
	<node lat="67.05833055539266" lon="15.384294444059174" id="-12216">
		<tag k="name" v="Nerholmen" />
		<tag k="place" v="farm" />
		<tag k="ssr:stedsnr" v="391750" />
	</node>
	<node lat="66.81531111042896" lon="15.384886120812801" id="-12224">
		<tag k="name" v="Skogvoktergården" />
		<tag k="place" v="farm" />
		<tag k="ssr:stedsnr" v="391871" />
	</node>
	<node lat="67.14467778052119" lon="15.449947213042728" id="-12228">
		<tag k="name" v="Breivik" />
		<tag k="place" v="isolated_dwelling" />
		<tag k="ssr:stedsnr" v="407670" />
	</node>
	<node lat="66.94154721885734" lon="15.414149999959148" id="-12244">
		<tag k="name" v="Kalpersanes" />
		<tag k="place" v="farm" />
		<tag k="ssr:stedsnr" v="412066" />
	</node>
	<node lat="66.93544722069144" lon="15.429391672638005" id="-12268">
		<tag k="alt_name" v="Skardet;Myreng" />
		<tag k="name" v="Skar" />
		<tag k="place" v="farm" />
		<tag k="ssr:stedsnr" v="441743" />
	</node>
	<node lat="66.92325000257884" lon="15.505897219030231" id="-12269">
		<tag k="alt_name" v="Storeng, vestre" />
		<tag k="name" v="Vestre Storeng" />
		<tag k="old_name" v="Storeng" />
		<tag k="place" v="farm" />
		<tag k="ssr:stedsnr" v="441747" />
	</node>
	<node lat="66.92594166901931" lon="15.518974992507777" id="-12270">
		<tag k="name" v="Skogly" />
		<tag k="place" v="farm" />
		<tag k="ssr:stedsnr" v="441749" />
	</node>
	<node lat="66.93065555768811" lon="15.44074165906142" id="-12271">
		<tag k="name" v="Vestre Sauvasstrand" />
		<tag k="old_name" v="Sauvasstrand;Vestre-Sauvalsstrand" />
		<tag k="place" v="farm" />
		<tag k="ssr:stedsnr" v="441753" />
	</node>
	<node lat="67.10912500317545" lon="15.467177786990773" id="-12277">
		<tag k="fixme" v="consider place=hamlet" />
		<tag k="loc_name:smj" v="Saksavijkka" />
		<tag k="name" v="Soksenvika" />
		<tag k="name:no" v="Soksenvika" />
		<tag k="place" v="village" />
		<tag k="ssr:stedsnr" v="441778" />
	</node>
	<node lat="66.79707500238575" lon="15.700855560016134" id="-12289">
		<tag k="name" v="Brattli" />
		<tag k="place" v="farm" />
		<tag k="ssr:stedsnr" v="441852" />
	</node>
	<node lat="66.97900832998" lon="15.491497232444173" id="-12303">
		<tag k="name" v="Sørli" />
		<tag k="place" v="farm" />
		<tag k="ssr:stedsnr" v="501673" />
	</node>
	<node lat="67.14529444189708" lon="15.453455543477856" id="-12305">
		<tag k="name" v="Stamnes" />
		<tag k="place" v="farm" />
		<tag k="ssr:stedsnr" v="501747" />
	</node>
	<node lat="66.94870124216749" lon="15.289192775849607" id="-12308">
		<tag k="fixme" v="consider place=hamlet" />
		<tag k="name" v="Tømmerdal" />
		<tag k="place" v="farm" />
		<tag k="ssr:stedsnr" v="502740" />
	</node>
	<node lat="67.02348610728583" lon="15.36854721944228" id="-12322">
		<tag k="name" v="Kleiva" />
		<tag k="place" v="locality" />
		<tag k="ssr:stedsnr" v="513544" />
	</node>
	<node lat="66.9599472234096" lon="15.311044453653682" id="-12327">
		<tag k="name" v="Innervollen" />
		<tag k="place" v="farm" />
		<tag k="ssr:stedsnr" v="513597" />
	</node>
	<node lat="66.89123611558155" lon="15.287091667979158" id="-12330">
		<tag k="name" v="Yttervollen" />
		<tag k="place" v="farm" />
		<tag k="ssr:stedsnr" v="513651" />
	</node>
	<node lat="66.90375833207445" lon="15.312763899134168" id="-12331">
		<tag k="name" v="Bådsmo" />
		<tag k="place" v="farm" />
		<tag k="ssr:stedsnr" v="513656" />
	</node>
	<node lat="67.04733457895476" lon="15.378427468887452" id="-12342">
		<tag k="name" v="Sundby" />
		<tag k="place" v="farm" />
		<tag k="ssr:stedsnr" v="526796" />
	</node>
	<node lat="67.08956111315855" lon="15.310830545150417" id="-12370">
		<tag k="name" v="Knøvelåsen" />
		<tag k="place" v="neighbourhood" />
		<tag k="ssr:stedsnr" v="544297" />
	</node>
	<node lat="67.08998055514435" lon="15.277777776127744" id="-12371">
		<tag k="name" v="Jarbruvatnet" />
		<tag k="place" v="neighbourhood" />
		<tag k="ssr:stedsnr" v="544300" />
	</node>
	<node lat="66.65864722020994" lon="15.409094436202624" id="-12390">
		<tag k="name" v="Semska" />
		<tag k="place" v="isolated_dwelling" />
		<tag k="ssr:stedsnr" v="562614" />
	</node>
	<node lat="66.99434884503239" lon="15.329834421148552" id="-12397">
		<tag k="alt_name" v="Kvæle" />
		<tag k="fixme" v="consider place=hamlet" />
		<tag k="name" v="Kvæl" />
		<tag k="place" v="farm" />
		<tag k="ssr:stedsnr" v="562567" />
	</node>
	<node lat="66.99577222397153" lon="15.320469435849335" id="-12398">
		<tag k="name" v="Vensmoen" />
		<tag k="place" v="farm" />
		<tag k="ssr:stedsnr" v="562568" />
	</node>
	<node lat="66.84376944767438" lon="15.31903889624093" id="-12401">
		<tag k="name" v="Nystadnes" />
		<tag k="place" v="farm" />
		<tag k="ssr:stedsnr" v="562654" />
	</node>
	<node lat="67.04032643794305" lon="15.39014979645591" id="-12413">
		<tag k="fixme" v="consider place=hamlet" />
		<tag k="name" v="Lia" />
		<tag k="place" v="farm" />
		<tag k="ssr:stedsnr" v="562829" />
	</node>
	<node lat="66.80079444203312" lon="15.591683340824313" id="-12415">
		<tag k="alt_name" v="Røbergvollen;Raubergvollen" />
		<tag k="name" v="Raudberglivollen" />
		<tag k="place" v="farm" />
		<tag k="ssr:stedsnr" v="562841" />
	</node>
	<node lat="66.77309999710405" lon="15.630886107168232" id="-12426">
		<tag k="alt_name" v="Junkerdal fjellsenter" />
		<tag k="name" v="Junkerdal Turistsenter" />
		<tag k="ssr:stedsnr" v="573178" />
		<tag k="tourism" v="hotel" />
	</node>
	<node lat="66.73600820418443" lon="15.465589270914714" id="-12427">
		<tag k="fixme" v="consider tourism=alpine_hut or tourism=chalet" />
		<tag k="name" v="Lønsstua" />
		<tag k="old_name" v="Lønnsstua" />
		<tag k="ssr:stedsnr" v="573289" />
		<tag k="tourism" v="wilderness_hut" />
	</node>
	<node lat="67.1001027783855" lon="15.402047221738368" id="-12433">
		<tag k="name" v="Myra" />
		<tag k="place" v="quarter" />
		<tag k="ssr:stedsnr" v="573682" />
	</node>
	<node lat="67.1098619955348" lon="15.459457666435078" id="-12438">
		<tag k="alt_name" v="Soksenvik vestre" />
		<tag k="fixme" v="consider place=hamlet" />
		<tag k="name" v="Vestre Soksenvik" />
		<tag k="place" v="farm" />
		<tag k="ssr:stedsnr" v="573634" />
	</node>
	<node lat="67.06125833472524" lon="15.378002778308318" id="-12442">
		<tag k="name" v="Nergården Medby" />
		<tag k="place" v="farm" />
		<tag k="ssr:stedsnr" v="573735" />
	</node>
	<node lat="67.05750000291567" lon="15.419986115817618" id="-12503">
		<tag k="alt_name" v="Båtskard" />
		<tag k="name" v="Båtskar" />
		<tag k="place" v="isolated_dwelling" />
		<tag k="ssr:stedsnr" v="622792" />
	</node>
	<node lat="67.16079722336855" lon="15.40668889106123" id="-12514">
		<tag k="fixme" v="consider place=hamlet" />
		<tag k="loc_name:smj" v="Værsæhtta" />
		<tag k="name" v="Dverset" />
		<tag k="name:no" v="Dverset" />
		<tag k="place" v="farm" />
		<tag k="ssr:stedsnr" v="622993" />
	</node>
	<node lat="66.92855162953138" lon="15.428375630466018" id="-12516">
		<tag k="fixme" v="multiple name tags, choose one and add the other to alt_name" />
		<tag k="name" v="Elsalia;Kristenlia" />
		<tag k="place" v="locality" />
		<tag k="ssr:stedsnr" v="622735" />
	</node>
	<node lat="66.82357845322927" lon="15.516345031406484" id="-12525">
		<tag k="name" v="Solvågli" />
		<tag k="place" v="farm" />
		<tag k="ssr:stedsnr" v="623681" />
	</node>
	<node lat="66.8853472249188" lon="15.283155556687445" id="-12533">
		<tag k="name" v="Indremo" />
		<tag k="place" v="farm" />
		<tag k="ssr:stedsnr" v="634645" />
	</node>
	<node lat="66.88918332984323" lon="15.29593332708663" id="-12534">
		<tag k="name" v="Gjerdmoen" />
		<tag k="place" v="farm" />
		<tag k="ssr:stedsnr" v="634647" />
	</node>
	<node lat="67.07384999949706" lon="15.379063878593888" id="-12547">
		<tag k="name" v="Strømsnes" />
		<tag k="place" v="farm" />
		<tag k="ssr:stedsnr" v="634769" />
	</node>
	<node lat="67.12508888581989" lon="15.40114721357645" id="-12551">
		<tag k="alt_name" v="Langstrand" />
		<tag k="name" v="Vikran" />
		<tag k="place" v="farm" />
		<tag k="ssr:stedsnr" v="647780" />
	</node>
	<node lat="67.01129444224684" lon="15.34108054552114" id="-12587">
		<tag k="name" v="Langmoen" />
		<tag k="place" v="quarter" />
		<tag k="ssr:stedsnr" v="666293" />
	</node>
	<node lat="66.99114999806824" lon="15.327069443517528" id="-12604">
		<tag k="amenity" v="school" />
		<tag k="name" v="Røkland skole" />
		<tag k="ssr:stedsnr" v="715563" />
	</node>
	<node lat="66.8500628073963" lon="15.295896826850985" id="-12633">
		<tag k="alt_name" v="Berghulnes" />
		<tag k="fixme" v="consider place=hamlet" />
		<tag k="name" v="Bergulnes" />
		<tag k="place" v="farm" />
		<tag k="ssr:stedsnr" v="744614" />
	</node>
	<node lat="66.80671666511402" lon="15.56129999956925" id="-12641">
		<tag k="name" v="Bakken" />
		<tag k="place" v="farm" />
		<tag k="ssr:stedsnr" v="744653" />
	</node>
	<node lat="66.98134830056433" lon="15.342806786501235" id="-12642">
		<tag k="fixme" v="consider place=hamlet" />
		<tag k="loc_name:smj" v="Ajvasgárdde" />
		<tag k="name" v="Evensgård" />
		<tag k="name:no" v="Evensgård" />
		<tag k="place" v="farm" />
		<tag k="ssr:stedsnr" v="744656" />
	</node>
	<node lat="67.1249138883251" lon="15.3825194549928" id="-12645">
		<tag k="fixme" v="consider place=hamlet" />
		<tag k="loc_name:smj" v="Luokta" />
		<tag k="name" v="Vik" />
		<tag k="name:no" v="Vik" />
		<tag k="place" v="farm" />
		<tag k="ssr:stedsnr" v="744734" />
	</node>
	<node lat="66.94251110891672" lon="15.400938877703" id="-12646">
		<tag k="alt_name" v="Hongdal" />
		<tag k="name" v="Hogndal" />
		<tag k="place" v="farm" />
		<tag k="ssr:stedsnr" v="744701" />
	</node>
	<node lat="66.80305000265032" lon="15.577866674480576" id="-12648">
		<tag k="name" v="Osvoll" />
		<tag k="place" v="farm" />
		<tag k="ssr:stedsnr" v="744821" />
	</node>
	<node lat="67.10074698033448" lon="15.42915535549564" id="-12656">
		<tag k="fixme" v="consider place=hamlet" />
		<tag k="name" v="Saltnes" />
		<tag k="place" v="farm" />
		<tag k="ssr:stedsnr" v="744770" />
	</node>
	<node lat="66.92216389072141" lon="15.316863896281097" id="-12668">
		<tag k="building" v="industrial" />
		<tag k="industrial" v="factory" />
		<tag k="name" v="A/S Rusaanes Fabrikker" />
		<tag k="ssr:stedsnr" v="755579" />
	</node>
	<node lat="67.08772499902742" lon="15.379086106369385" id="-12670">
		<tag k="name" v="Fiskevågmoen" />
		<tag k="place" v="quarter" />
		<tag k="ssr:stedsnr" v="755674" />
	</node>
	<node lat="67.01990000340864" lon="15.339147211595762" id="-12673">
		<tag k="name" v="Oldgård" />
		<tag k="place" v="farm" />
		<tag k="ssr:stedsnr" v="755541" />
	</node>
	<node lat="66.8777305534852" lon="15.288608340273434" id="-12675">
		<tag k="name" v="Sollund" />
		<tag k="place" v="isolated_dwelling" />
		<tag k="ssr:stedsnr" v="755608" />
	</node>
	<node lat="67.09800555658202" lon="15.413063885967013" id="-12688">
		<tag k="name" v="Skansen" />
		<tag k="place" v="quarter" />
		<tag k="ssr:stedsnr" v="755873" />
	</node>
	<node lat="66.93630555802147" lon="15.433108326674654" id="-12709">
		<tag k="name" v="Jens-Orsa-hola" />
		<tag k="place" v="isolated_dwelling" />
		<tag k="ssr:stedsnr" v="776038" />
	</node>
	<node lat="66.87070278022411" lon="15.381919452406343" id="-12711">
		<tag k="name" v="Tieggågvasshytta" />
		<tag k="place" v="isolated_dwelling" />
		<tag k="ssr:stedsnr" v="776132" />
	</node>
	<node lat="67.0732166700839" lon="15.387652766928401" id="-12759">
		<tag k="name" v="Gropa" />
		<tag k="place" v="farm" />
		<tag k="ssr:stedsnr" v="805796" />
	</node>
	<node lat="66.79883055194362" lon="15.691230564137584" id="-12767">
		<tag k="name" v="Skaiti - Skájdde" />
		<tag k="name:no" v="Skaiti" />
		<tag k="name:smj" v="Skájdde" />
		<tag k="place" v="hamlet" />
		<tag k="ssr:stedsnr" v="805828" />
	</node>
	<node lat="67.05068055895538" lon="15.380566677900232" id="-12804">
		<tag k="name" v="Mobakken" />
		<tag k="place" v="farm" />
		<tag k="ssr:stedsnr" v="816753" />
	</node>
	<node lat="67.04231944542015" lon="15.38999722926074" id="-12805">
		<tag k="name" v="Moen" />
		<tag k="place" v="farm" />
		<tag k="ssr:stedsnr" v="816758" />
	</node>
	<node lat="67.02060316823656" lon="15.342268117772752" id="-12812">
		<tag k="fixme" v="consider place=hamlet" />
		<tag k="name" v="Øvre Drageid" />
		<tag k="place" v="farm" />
		<tag k="ssr:stedsnr" v="816868" />
	</node>
	<node lat="66.89688888994746" lon="15.370283341867484" id="-12832">
		<tag k="name" v="Rundvasshytta" />
		<tag k="place" v="isolated_dwelling" />
		<tag k="ssr:stedsnr" v="837163" />
	</node>
	<node lat="67.07808227167503" lon="15.39098399296667" id="-12865">
		<tag k="name" v="Os" />
		<tag k="place" v="farm" />
		<tag k="ssr:stedsnr" v="865796" />
	</node>
	<node lat="66.91238611093715" lon="15.31380278497149" id="-12866">
		<tag k="name" v="Åkerbakk" />
		<tag k="place" v="farm" />
		<tag k="ssr:stedsnr" v="865751" />
	</node>
	<node lat="66.92171666302096" lon="15.310002770491563" id="-12867">
		<tag k="name" v="Svarven" />
		<tag k="place" v="farm" />
		<tag k="ssr:stedsnr" v="865752" />
	</node>
	<node lat="66.91666667124106" lon="15.363844439883744" id="-12868">
		<tag k="alt_name" v="Nordnesfjellet" />
		<tag k="historic" v="shieling" />
		<tag k="name" v="Nordnesfjell-gård" />
		<tag k="place" v="isolated_dwelling" />
		<tag k="ssr:stedsnr" v="865755" />
	</node>
	<node lat="66.9418090623918" lon="15.172893426236927" id="-12879">
		<tag k="alt_name" v="Jorbrufjell gård" />
		<tag k="fixme" v="consider place=hamlet" />
		<tag k="name" v="Jarbrufjell" />
		<tag k="place" v="farm" />
		<tag k="ssr:stedsnr" v="866576" />
	</node>
	<node lat="66.87529313599036" lon="15.299153456135642" id="-12885">
		<tag k="alt_name" v="Inner-Trollhola" />
		<tag k="fixme" v="consider place=hamlet" />
		<tag k="name" v="Langsandmo" />
		<tag k="place" v="farm" />
		<tag k="ssr:stedsnr" v="866625" />
	</node>
	<node lat="67.10021388677393" lon="15.390855545582506" id="-12886">
		<tag k="name" v="Rognan" />
		<tag k="place" v="village" />
		<tag k="ssr:stedsnr" v="866757" />
	</node>
	<node lat="67.10568888539859" lon="15.35027500032844" id="-12888">
		<tag k="alt_name" v="Breidmoen;Breimo" />
		<tag k="name" v="Breimoen" />
		<tag k="place" v="farm" />
		<tag k="ssr:stedsnr" v="866765" />
	</node>
	<node lat="67.1176083350497" lon="15.367538885722814" id="-12889">
		<tag k="alt_name" v="Engemo" />
		<tag k="name" v="Engmoen" />
		<tag k="place" v="farm" />
		<tag k="ssr:stedsnr" v="866774" />
	</node>
	<node lat="66.81202777903985" lon="15.552344444416498" id="-12894">
		<tag k="name" v="Stornesmoen" />
		<tag k="place" v="farm" />
		<tag k="ssr:stedsnr" v="866664" />
	</node>
	<node lat="66.95600277569363" lon="15.379255555291248" id="-12897">
		<tag k="alt_name" v="Ekornes" />
		<tag k="name" v="Ekornnes" />
		<tag k="place" v="farm" />
		<tag k="ssr:stedsnr" v="866692" />
	</node>
	<node lat="67.09866111400004" lon="15.532911104018044" id="-12899">
		<tag k="historic" v="shieling" />
		<tag k="name" v="Grønlisætra" />
		<tag k="place" v="isolated_dwelling" />
		<tag k="ssr:stedsnr" v="866785" />
	</node>
	<node lat="67.05560000185004" lon="15.392455547820934" id="-12902">
		<tag k="alt_name" v="Børåneset" />
		<tag k="name" v="Børånes" />
		<tag k="place" v="farm" />
		<tag k="ssr:stedsnr" v="866824" />
	</node>
	<node lat="66.93961111496225" lon="15.175063880566208" id="-12913">
		<tag k="name" v="Jarbu" />
		<tag k="place" v="isolated_dwelling" />
		<tag k="ssr:stedsnr" v="877982" />
	</node>
	<node lat="67.1290388858897" lon="15.405919437253063" id="-12926">
		<tag k="name" v="Tangen" />
		<tag k="place" v="farm" />
		<tag k="ssr:stedsnr" v="877699" />
	</node>
	<node lat="66.80055277867218" lon="15.688875010462407" id="-12927">
		<tag k="fixme" v="consider tourism=alpine_hut or tourism=chalet" />
		<tag k="name" v="Trygvebu" />
		<tag k="ssr:stedsnr" v="877130" />
		<tag k="tourism" v="wilderness_hut" />
	</node>
	<node lat="66.8815416694574" lon="15.293647228287206" id="-12934">
		<tag k="name" v="Nøva" />
		<tag k="place" v="farm" />
		<tag k="ssr:stedsnr" v="877633" />
	</node>
	<node lat="67.09811667016173" lon="15.3972277840835" id="-12937">
		<tag k="amenity" v="nursing_home" />
		<tag k="name" v="Saltdal sykehjem" />
		<tag k="ssr:stedsnr" v="877723" />
	</node>
	<node lat="67.0485861078206" lon="15.381099997985277" id="-12939">
		<tag k="name" v="Myro" />
		<tag k="place" v="farm" />
		<tag k="ssr:stedsnr" v="877741" />
	</node>
	<node lat="66.87828333630685" lon="15.291030557762896" id="-12950">
		<tag k="name" v="Einmoen" />
		<tag k="place" v="farm" />
		<tag k="ssr:stedsnr" v="938600" />
	</node>
	<node lat="67.12657638542028" lon="15.382385668496333" id="-12952">
		<tag k="name" v="Naushågen" />
		<tag k="place" v="locality" />
		<tag k="ssr:stedsnr" v="938662" />
	</node>
	<node lat="67.04198611387078" lon="15.373263893737265" id="-12956">
		<tag k="name" v="Plassen" />
		<tag k="place" v="farm" />
		<tag k="ssr:stedsnr" v="938726" />
	</node>
	<node lat="67.10184444118688" lon="15.425983343401853" id="-12961">
		<tag k="name" v="Saltnes" />
		<tag k="place" v="quarter" />
		<tag k="ssr:stedsnr" v="950399" />
	</node>
	<node lat="67.12869999970097" lon="15.384469442810365" id="-12962">
		<tag k="name" v="Nes" />
		<tag k="place" v="farm" />
		<tag k="ssr:stedsnr" v="953656" />
	</node>
	<node lat="66.91343333033342" lon="15.358538891311367" id="-12991">
		<tag k="name" v="Bleiknesfjell-gård" />
		<tag k="place" v="locality" />
		<tag k="ssr:stedsnr" v="958443" />
	</node>
	<node lat="66.83075278058446" lon="15.072666667759306" id="-12992">
		<tag k="name" v="Siergga hytta" />
		<tag k="place" v="isolated_dwelling" />
		<tag k="ssr:stedsnr" v="958447" />
	</node>
	<node lat="66.93277625619213" lon="15.442318398712464" id="-13008">
		<tag k="fixme" v="consider place=hamlet" />
		<tag k="name" v="Evenesdal" />
		<tag k="place" v="farm" />
		<tag k="ssr:stedsnr" v="1074888" />
	</node>
	<node lat="66.92697111254932" lon="15.31891381143195" id="-13009">
		<tag k="fixme" v="consider place=hamlet" />
		<tag k="name" v="Russånes" />
		<tag k="place" v="farm" />
		<tag k="ssr:stedsnr" v="1074889" />
	</node>
	<node lat="66.81081238920058" lon="15.574453489102154" id="-13010">
		<tag k="fixme" v="consider place=hamlet" />
		<tag k="name" v="Nordre Junkerdal" />
		<tag k="place" v="farm" />
		<tag k="ssr:stedsnr" v="1074896" />
	</node>
	<node lat="66.80492803835868" lon="15.576905206677207" id="-13011">
		<tag k="fixme" v="consider place=hamlet" />
		<tag k="name" v="Søre Junkerdal" />
		<tag k="place" v="farm" />
		<tag k="ssr:stedsnr" v="1074897" />
	</node>
	<node lat="66.94099447576161" lon="15.399698330259668" id="-13012">
		<tag k="alt_name" v="Kvandal" />
		<tag k="fixme" v="consider place=hamlet" />
		<tag k="name" v="Kvanndal" />
		<tag k="place" v="farm" />
		<tag k="ssr:stedsnr" v="1074906" />
	</node>
	<node lat="66.93739173090684" lon="15.386761243372902" id="-13013">
		<tag k="name" v="Kvannli" />
		<tag k="place" v="locality" />
		<tag k="ssr:stedsnr" v="1074907" />
	</node>
	<node lat="67.18788305886918" lon="15.377611057565378" id="-13014">
		<tag k="fixme" v="consider place=hamlet" />
		<tag k="name" v="Hjelbunes" />
		<tag k="place" v="farm" />
		<tag k="ssr:stedsnr" v="1074908" />
	</node>
	<node lat="67.10846464126195" lon="15.464033241563094" id="-13015">
		<tag k="fixme" v="consider place=hamlet" />
		<tag k="name" v="Østre Soksenvik" />
		<tag k="place" v="farm" />
		<tag k="ssr:stedsnr" v="1074860" />
	</node>
	<node lat="66.99018740101965" lon="15.31365313304994" id="-13023">
		<tag k="name" v="Dalmobakken" />
		<tag k="place" v="farm" />
		<tag k="ssr:stedsnr" v="1076850" />
	</node>
</osm>
