<?xml version="1.0" encoding="UTF-8"?>
<osm generator="osmapis" version="0.6">
	<node id="-676351" lat="66.7352666653" lon="15.723827778">
		<tag k="name" v="Firkantaskogen" />
		<tag k="place" v="locality" />
		<tag k="ssr:stedsnr" v="77647" />
	</node>
	<node id="-675837" lat="67.1752111069" lon="15.3752916661">
		<tag k="name" v="Øverheimen" />
		<tag k="place" v="locality" />
		<tag k="ssr:stedsnr" v="329931" />
	</node>
	<node id="-677881" lat="66.8082611153" lon="15.6682222247">
		<tag k="alt_name" v="Pettergammyra" />
		<tag k="name" v="Pettergammyran" />
		<tag k="natural" v="wetland" />
		<tag k="ssr:stedsnr" v="805837" />
	</node>
	<node id="-677360" lat="66.9910583297" lon="15.347122222">
		<tag k="alt_name" v="Mokkalmyra" />
		<tag k="name" v="Mokkalsmomyra" />
		<tag k="natural" v="wetland" />
		<tag k="ssr:stedsnr" v="622543" />
	</node>
	<node id="-676328" lat="66.9248000004" lon="15.4993555546">
		<tag k="name" v="Bruhågmyra" />
		<tag k="natural" v="wetland" />
		<tag k="ssr:stedsnr" v="48850" />
	</node>
	<node id="-675921" lat="66.9246611133" lon="15.4455055508">
		<tag k="name" v="Harsteinmyra" />
		<tag k="natural" v="wetland" />
		<tag k="ssr:stedsnr" v="351399" />
	</node>
	<node id="-676832" lat="67.1727000008" lon="15.5184305651">
		<tag k="name" v="Småmyran" />
		<tag k="natural" v="wetland" />
		<tag k="ssr:stedsnr" v="230997" />
	</node>
	<node id="-677855" lat="66.9336999965" lon="15.2601222116">
		<tag k="name" v="Fuglemyran" />
		<tag k="natural" v="wetland" />
		<tag k="ssr:stedsnr" v="805715" />
	</node>
	<node id="-677337" lat="66.9622666647" lon="15.4287666646">
		<tag k="landuse" v="quarry" />
		<tag k="name" v="Grustaket" />
		<tag k="ssr:stedsnr" v="593784" />
	</node>
	<node id="-676822" lat="66.8141305548" lon="15.5584333421">
		<tag k="name" v="Nordnes" />
		<tag k="place" v="locality" />
		<tag k="ssr:stedsnr" v="230216" />
	</node>
	<node id="-676820" lat="66.8557027744" lon="15.3152055576">
		<tag k="name" v="Sandfallet" />
		<tag k="natural" v="beach" />
		<tag k="ssr:stedsnr" v="230155" />
		<tag k="surface" v="sand" />
	</node>
	<node id="-677327" lat="66.9414722182" lon="15.4939916636">
		<tag k="name" v="Køtstøan" />
		<tag k="place" v="locality" />
		<tag k="ssr:stedsnr" v="593433" />
	</node>
	<node id="-676813" lat="66.7941777757" lon="15.5782249893">
		<tag k="name" v="Austervollen" />
		<tag k="place" v="locality" />
		<tag k="ssr:stedsnr" v="230054" />
	</node>
	<node id="-676300" lat="66.9905499989" lon="15.4668638851">
		<tag k="name" v="Langpermyra" />
		<tag k="natural" v="wetland" />
		<tag k="ssr:stedsnr" v="47628" />
	</node>
	<node id="-676811" lat="66.9526138936" lon="15.2345749911">
		<tag k="name" v="Sengen" />
		<tag k="natural" v="wetland" />
		<tag k="ssr:stedsnr" v="229782" />
	</node>
	<node id="-675782" lat="67.0519277787" lon="15.3192555584">
		<tag k="name" v="Nykkjekjelmyra" />
		<tag k="natural" v="wetland" />
		<tag k="ssr:stedsnr" v="47420" />
	</node>
	<node id="-677317" lat="66.9079472228" lon="15.4352749981">
		<tag k="name" v="Øverslåtten" />
		<tag k="natural" v="wetland" />
		<tag k="ssr:stedsnr" v="593140" />
	</node>
	<node id="-676803" lat="66.9740249966" lon="15.2650805516">
		<tag k="name" v="Gullmyra" />
		<tag k="natural" v="wetland" />
		<tag k="ssr:stedsnr" v="229570" />
	</node>
	<node id="-677314" lat="66.8200583307" lon="15.454724992">
		<tag k="name" v="Kløtsteinen" />
		<tag k="natural" v="stone" />
		<tag k="ssr:stedsnr" v="593100" />
	</node>
	<node id="-677825" lat="66.9825222214" lon="15.4567916594">
		<tag k="name" v="Einarmarka" />
		<tag k="place" v="locality" />
		<tag k="ssr:stedsnr" v="776608" />
	</node>
	<node id="-677823" lat="66.993050001" lon="15.3288277785">
		<tag k="name" v="Kvæl" />
		<tag k="place" v="locality" />
		<tag k="ssr:stedsnr" v="776530" />
	</node>
	<node id="-677820" lat="66.936391666" lon="15.499883325">
		<tag k="name" v="Småplankan" />
		<tag k="natural" v="wetland" />
		<tag k="ssr:stedsnr" v="776462" />
	</node>
	<node id="-677307" lat="67.0761888864" lon="15.3128305468">
		<tag k="name" v="Nonshågan" />
		<tag k="natural" v="wetland" />
		<tag k="ssr:stedsnr" v="593309" />
	</node>
	<node id="-676282" lat="67.1483833307" lon="15.378036118">
		<tag k="name" v="Gullsletta" />
		<tag k="natural" v="wetland" />
		<tag k="ssr:stedsnr" v="47055" />
	</node>
	<node id="-676255" lat="66.9009138901" lon="15.3439361068">
		<tag k="name" v="Standerdalmyra" />
		<tag k="natural" v="wetland" />
		<tag k="ssr:stedsnr" v="27640" />
	</node>
	<node id="-676280" lat="67.1669055588" lon="15.4893444435">
		<tag k="name" v="Auråkervollen" />
		<tag k="place" v="locality" />
		<tag k="ssr:stedsnr" v="47024" />
	</node>
	<node id="-676791" lat="66.8898305545" lon="15.3508388949">
		<tag k="name" v="Snielhåmyra" />
		<tag k="natural" v="wetland" />
		<tag k="ssr:stedsnr" v="229171" />
	</node>
	<node id="-676278" lat="66.9402027759" lon="15.443375">
		<tag k="name" v="Mellamoen" />
		<tag k="place" v="locality" />
		<tag k="ssr:stedsnr" v="47006" />
	</node>
	<node id="-675765" lat="66.8458722217" lon="15.3168833233">
		<tag k="name" v="Planten" />
		<tag k="place" v="locality" />
		<tag k="ssr:stedsnr" v="291249" />
	</node>
	<node id="-676274" lat="66.7557305576" lon="15.7051694348">
		<tag k="name" v="Koimyra" />
		<tag k="natural" v="wetland" />
		<tag k="ssr:stedsnr" v="27841" />
	</node>
	<node id="-676273" lat="66.8075583336" lon="15.7061305591">
		<tag k="name" v="Kallemyra" />
		<tag k="natural" v="wetland" />
		<tag k="ssr:stedsnr" v="27833" />
	</node>
	<node id="-677808" lat="66.8206333305" lon="15.5414638992">
		<tag k="name" v="Rytsletta" />
		<tag k="place" v="locality" />
		<tag k="ssr:stedsnr" v="776199" />
	</node>
	<node id="-676805" lat="66.9743555553" lon="15.3404694504">
		<tag k="name" v="Engan" />
		<tag k="place" v="locality" />
		<tag k="ssr:stedsnr" v="229599" />
	</node>
	<node id="-677292" lat="67.0080861105" lon="15.3514833347">
		<tag k="name" v="Gammelnes" />
		<tag k="place" v="locality" />
		<tag k="ssr:stedsnr" v="573752" />
	</node>
	<node id="-676267" lat="66.817216664" lon="15.4205638855">
		<tag k="name" v="Sandrønna" />
		<tag k="natural" v="scree" />
		<tag k="ssr:stedsnr" v="27863" />
	</node>
	<node id="-675754" lat="66.9182500037" lon="15.5011666672">
		<tag k="name" v="Reinhagen" />
		<tag k="place" v="locality" />
		<tag k="ssr:stedsnr" v="290767" />
	</node>
	<node id="-676264" lat="67.1369361117" lon="15.3738444452">
		<tag k="name" v="Konglomerat" />
		<tag k="natural" v="stone" />
		<tag k="ssr:stedsnr" v="27682" />
	</node>
	<node id="-677287" lat="67.0703805593" lon="15.3439638983">
		<tag k="landuse" v="meadow" />
		<tag k="name" v="Engan" />
		<tag k="ssr:stedsnr" v="573725" />
	</node>
	<node id="-677286" lat="67.0717166671" lon="15.3686638858">
		<tag k="name" v="Sveen" />
		<tag k="place" v="locality" />
		<tag k="ssr:stedsnr" v="573722" />
	</node>
	<node id="-677282" lat="67.1224111106" lon="15.3580944418">
		<tag k="name" v="Berrimyra" />
		<tag k="natural" v="wetland" />
		<tag k="ssr:stedsnr" v="573697" />
	</node>
	<node id="-677275" lat="66.8974722235" lon="15.3212638895">
		<tag k="name" v="Hagenhøgget" />
		<tag k="place" v="locality" />
		<tag k="ssr:stedsnr" v="573602" />
	</node>
	<node id="-677791" lat="67.1576166709" lon="15.5186833269">
		<tag k="name" v="Grønnlimyran" />
		<tag k="natural" v="wetland" />
		<tag k="ssr:stedsnr" v="776018" />
	</node>
	<node id="-677277" lat="67.1193527776" lon="15.4776861142">
		<tag k="name" v="Heimersurpan" />
		<tag k="place" v="locality" />
		<tag k="ssr:stedsnr" v="573627" />
	</node>
	<node id="-677276" lat="66.9049111116" lon="15.265027771">
		<tag k="name" v="Langskarmyra" />
		<tag k="natural" v="wetland" />
		<tag k="ssr:stedsnr" v="573618" />
	</node>
	<node id="-677787" lat="66.907086111" lon="15.3516500086">
		<tag k="name" v="Bestamyra" />
		<tag k="natural" v="wetland" />
		<tag k="ssr:stedsnr" v="775778" />
	</node>
	<node id="-676761" lat="66.7465666682" lon="15.4441416575">
		<tag k="name" v="Skavlen" />
		<tag k="place" v="locality" />
		<tag k="ssr:stedsnr" v="209799" />
	</node>
	<node id="-677272" lat="66.881288892" lon="15.31624166">
		<tag k="name" v="Bjørngravamyra" />
		<tag k="natural" v="wetland" />
		<tag k="ssr:stedsnr" v="573588" />
	</node>
	<node id="-677782" lat="67.0539527825" lon="15.3309138812">
		<tag k="name" v="Stormyra" />
		<tag k="natural" v="wetland" />
		<tag k="ssr:stedsnr" v="775377" />
	</node>
	<node id="-677777" lat="66.8264972191" lon="15.3747750011">
		<tag k="name" v="Kvannesbrøtet" />
		<tag k="place" v="locality" />
		<tag k="ssr:stedsnr" v="775080" />
	</node>
	<node id="-677264" lat="67.01391389" lon="15.3310027768">
		<tag k="name" v="Bjønnsletta" />
		<tag k="place" v="locality" />
		<tag k="ssr:stedsnr" v="573496" />
	</node>
	<node id="-676751" lat="67.1384166683" lon="15.3864111055">
		<tag k="name" v="Hestmoa" />
		<tag k="place" v="locality" />
		<tag k="ssr:stedsnr" v="209675" />
	</node>
	<node id="-675725" lat="66.9237472213" lon="15.2403027666">
		<tag k="name" v="Grønnskogen" />
		<tag k="place" v="locality" />
		<tag k="ssr:stedsnr" v="290120" />
	</node>
	<node id="-675719" lat="66.9369472201" lon="15.4532416555">
		<tag k="name" v="Langmyra" />
		<tag k="natural" v="wetland" />
		<tag k="ssr:stedsnr" v="290017" />
	</node>
	<node id="-676740" lat="66.9253277782" lon="15.3134666652">
		<tag k="name" v="Stormoen" />
		<tag k="place" v="locality" />
		<tag k="ssr:stedsnr" v="209582" />
	</node>
	<node id="-677315" lat="66.8253694441" lon="15.4769333283">
		<tag k="name" v="Ravasteinen" />
		<tag k="natural" v="stone" />
		<tag k="ssr:stedsnr" v="593102" />
	</node>
	<node id="-677761" lat="66.7431250001" lon="15.7705833245">
		<tag k="name" v="Godårsmyra" />
		<tag k="natural" v="wetland" />
		<tag k="ssr:stedsnr" v="755787" />
	</node>
	<node id="-677246" lat="67.0931361081" lon="15.4838666714">
		<tag k="name" v="Stormyra" />
		<tag k="natural" v="wetland" />
		<tag k="ssr:stedsnr" v="562785" />
	</node>
	<node id="-676733" lat="67.1732416638" lon="15.387980547">
		<tag k="name" v="Holen" />
		<tag k="place" v="locality" />
		<tag k="ssr:stedsnr" v="208839" />
	</node>
	<node id="-677754" lat="67.1225916689" lon="15.372297215">
		<tag k="name" v="Myra" />
		<tag k="place" v="locality" />
		<tag k="ssr:stedsnr" v="755705" />
	</node>
	<node id="-676159" lat="67.1433166627" lon="15.4770083337">
		<tag k="name" v="Limyra" />
		<tag k="natural" v="wetland" />
		<tag k="ssr:stedsnr" v="898102" />
	</node>
	<node id="-678263" lat="66.9051194465" lon="15.3494416603">
		<tag k="name" v="Bleiknesmyra" />
		<tag k="natural" v="wetland" />
		<tag k="ssr:stedsnr" v="958809" />
	</node>
	<node id="-676213" lat="67.0600722245" lon="15.2527472131">
		<tag k="name" v="Bjørklimyran" />
		<tag k="natural" v="wetland" />
		<tag k="ssr:stedsnr" v="16819" />
	</node>
	<node id="-678260" lat="66.9791694414" lon="15.4331611134">
		<tag k="name" v="Bjørklund" />
		<tag k="place" v="locality" />
		<tag k="ssr:stedsnr" v="958687" />
	</node>
	<node id="-675697" lat="66.9041611145" lon="15.3221638992">
		<tag k="name" v="Storhågmyra" />
		<tag k="natural" v="wetland" />
		<tag k="ssr:stedsnr" v="270643" />
	</node>
	<node id="-675696" lat="66.9034888873" lon="15.3305388962">
		<tag k="name" v="Andersmanuelsteinan" />
		<tag k="natural" v="stone" />
		<tag k="ssr:stedsnr" v="270640" />
	</node>
	<node id="-678252" lat="66.9899305563" lon="15.289416658">
		<tag k="name" v="Elstadmyra" />
		<tag k="natural" v="wetland" />
		<tag k="ssr:stedsnr" v="958585" />
	</node>
	<node id="-675691" lat="66.9403694446" lon="15.3334472201">
		<tag k="name" v="Brannen" />
		<tag k="place" v="locality" />
		<tag k="ssr:stedsnr" v="270605" />
	</node>
	<node id="-677737" lat="67.023052774" lon="15.3063444399">
		<tag k="name" v="Kvilatre" />
		<tag k="place" v="locality" />
		<tag k="ssr:stedsnr" v="755550" />
	</node>
	<node id="-678246" lat="66.9356722263" lon="15.4580722184">
		<tag k="name" v="Bærmyra" />
		<tag k="natural" v="wetland" />
		<tag k="ssr:stedsnr" v="958496" />
	</node>
	<node id="-677265" lat="67.0350000032" lon="15.4070111177">
		<tag k="name" v="Kvithammarmyra" />
		<tag k="natural" v="wetland" />
		<tag k="ssr:stedsnr" v="573500" />
	</node>
	<node id="-677731" lat="66.8283944469" lon="15.6278611164">
		<tag k="name" v="Storura" />
		<tag k="natural" v="scree" />
		<tag k="ssr:stedsnr" v="755133" />
	</node>
	<node id="-675682" lat="67.061691666" lon="15.3538138838">
		<tag k="name" v="Faulmyra" />
		<tag k="natural" v="wetland" />
		<tag k="ssr:stedsnr" v="270732" />
	</node>
	<node id="-676705" lat="66.8252555567" lon="15.4657694405">
		<tag k="loc_name:smj" v="Juŋkarajuovva" />
		<tag k="name" v="Junkerdalsurda" />
		<tag k="name:no" v="Junkerdalsurda" />
		<tag k="natural" v="scree" />
		<tag k="ssr:stedsnr" v="198662" />
	</node>
	<node id="-678238" lat="66.9303944465" lon="15.4859333398">
		<tag k="name" v="Lifjellmyra" />
		<tag k="natural" v="wetland" />
		<tag k="ssr:stedsnr" v="958431" />
	</node>
	<node id="-678235" lat="67.0480194459" lon="15.232538882">
		<tag k="name" v="Bjørklimyra" />
		<tag k="natural" v="wetland" />
		<tag k="ssr:stedsnr" v="958420" />
	</node>
	<node id="-678230" lat="66.806294443" lon="15.6300611079">
		<tag k="name" v="Storura" />
		<tag k="natural" v="scree" />
		<tag k="ssr:stedsnr" v="958250" />
	</node>
	<node id="-678227" lat="67.1206333334" lon="15.5158916567">
		<tag k="name" v="Kålamyran" />
		<tag k="natural" v="wetland" />
		<tag k="ssr:stedsnr" v="958206" />
	</node>
	<node id="-675919" lat="67.0803333337" lon="15.5312194468">
		<tag k="name" v="Krågmyra" />
		<tag k="natural" v="wetland" />
		<tag k="ssr:stedsnr" v="351322" />
	</node>
	<node id="-677198" lat="66.8210138932" lon="15.5233694397">
		<tag k="name" v="Kvanneset" />
		<tag k="place" v="locality" />
		<tag k="ssr:stedsnr" v="534189" />
	</node>
	<node id="-677197" lat="66.8149472234" lon="15.5449166556">
		<tag k="name" v="Tjørmyren" />
		<tag k="natural" v="wetland" />
		<tag k="ssr:stedsnr" v="534029" />
	</node>
	<node id="-676160" lat="66.8087722247" lon="15.5839527701">
		<tag k="name" v="Orresteinen" />
		<tag k="natural" v="stone" />
		<tag k="ssr:stedsnr" v="898183" />
	</node>
	<node id="-676671" lat="67.1855916635" lon="15.4808666701">
		<tag k="name" v="Moura" />
		<tag k="natural" v="scree" />
		<tag k="ssr:stedsnr" v="169980" />
	</node>
	<node id="-676155" lat="66.9453361152" lon="15.2205861146">
		<tag k="name" v="Myran" />
		<tag k="natural" v="wetland" />
		<tag k="ssr:stedsnr" v="897902" />
	</node>
	<node id="-676152" lat="66.9696555588" lon="15.3805722241">
		<tag k="name" v="Stormo-moen" />
		<tag k="place" v="locality" />
		<tag k="ssr:stedsnr" v="897768" />
	</node>
	<node id="-677173" lat="67.1057277772" lon="15.3211583349">
		<tag k="name" v="Høgmyra" />
		<tag k="natural" v="wetland" />
		<tag k="ssr:stedsnr" v="533150" />
	</node>
	<node id="-678195" lat="66.9994083318" lon="15.3312555498">
		<tag k="name" v="Slåttholmen" />
		<tag k="place" v="locality" />
		<tag k="ssr:stedsnr" v="938755" />
	</node>
	<node id="-677171" lat="66.8835305573" lon="15.351280558">
		<tag k="name" v="Snielhågmyra" />
		<tag k="natural" v="wetland" />
		<tag k="ssr:stedsnr" v="533122" />
	</node>
	<node id="-676656" lat="66.990819445" lon="16.0973111114">
		<tag k="name" v="Storsteinen" />
		<tag k="natural" v="stone" />
		<tag k="ssr:stedsnr" v="169460" />
	</node>
	<node id="-677167" lat="66.834816664" lon="15.3047222104">
		<tag k="name" v="Tjukkskogen" />
		<tag k="place" v="locality" />
		<tag k="ssr:stedsnr" v="533102" />
	</node>
	<node id="-675890" lat="67.1583666678" lon="15.4709583246">
		<tag k="name" v="Kakura" />
		<tag k="natural" v="scree" />
		<tag k="ssr:stedsnr" v="350045" />
	</node>
	<node id="-677160" lat="66.9357249976" lon="15.3918388837">
		<tag k="name" v="Lappmyra" />
		<tag k="natural" v="wetland" />
		<tag k="ssr:stedsnr" v="533055" />
	</node>
	<node id="-676647" lat="66.804130559" lon="15.3489666684">
		<tag k="name" v="Hanna-myra" />
		<tag k="natural" v="wetland" />
		<tag k="ssr:stedsnr" v="169428" />
	</node>
	<node id="-677157" lat="66.9436777755" lon="15.4224194324">
		<tag k="name" v="Nylageng" />
		<tag k="natural" v="wetland" />
		<tag k="ssr:stedsnr" v="533005" />
	</node>
	<node id="-678176" lat="66.9397305532" lon="15.2837138909">
		<tag k="name" v="Stolpmyra" />
		<tag k="natural" v="wetland" />
		<tag k="ssr:stedsnr" v="938588" />
	</node>
	<node id="-677659" lat="67.0385083368" lon="15.208197227">
		<tag k="name" v="Helgeslåtten" />
		<tag k="natural" v="wetland" />
		<tag k="ssr:stedsnr" v="716434" />
	</node>
	<node id="-677145" lat="66.7482833356" lon="15.7264166675">
		<tag k="landuse" v="meadow" />
		<tag k="name" v="Nerenga" />
		<tag k="ssr:stedsnr" v="513833" />
	</node>
	<node id="-678168" lat="66.9332083305" lon="15.2541055432">
		<tag k="alt_name" v="Fuglemyra" />
		<tag k="name" v="Fuglmyra" />
		<tag k="natural" v="wetland" />
		<tag k="ssr:stedsnr" v="931824" />
	</node>
	<node id="-677142" lat="67.000766668" lon="15.3593555632">
		<tag k="name" v="Leimyra" />
		<tag k="natural" v="wetland" />
		<tag k="ssr:stedsnr" v="513771" />
	</node>
	<node id="-677653" lat="67.1604111136" lon="15.3655805472">
		<tag k="name" v="Littjvassmyra" />
		<tag k="natural" v="wetland" />
		<tag k="ssr:stedsnr" v="715888" />
	</node>
	<node id="-677140" lat="66.9990500039" lon="15.3421000122">
		<tag k="name" v="Storauren" />
		<tag k="place" v="locality" />
		<tag k="ssr:stedsnr" v="513764" />
	</node>
	<node id="-676114" lat="67.1756166706" lon="15.5188638865">
		<tag k="name" v="Forsmyra" />
		<tag k="natural" v="wetland" />
		<tag k="ssr:stedsnr" v="473995" />
	</node>
	<node id="-677647" lat="66.9492166626" lon="15.217802786">
		<tag k="alt_name" v="Rausanden" />
		<tag k="name" v="Rausand" />
		<tag k="place" v="locality" />
		<tag k="ssr:stedsnr" v="715779" />
	</node>
	<node id="-677133" lat="66.8816916639" lon="15.2488555609">
		<tag k="name" v="Mølnmyra" />
		<tag k="natural" v="wetland" />
		<tag k="ssr:stedsnr" v="513661" />
	</node>
	<node id="-678155" lat="66.8158194454" lon="15.6644500032">
		<tag k="name" v="Snaumyran" />
		<tag k="natural" v="wetland" />
		<tag k="ssr:stedsnr" v="927675" />
	</node>
	<node id="-675884" lat="67.1038444456" lon="15.5071249944">
		<tag k="name" v="Geituran" />
		<tag k="natural" v="scree" />
		<tag k="ssr:stedsnr" v="331906" />
	</node>
	<node id="-676737" lat="66.9636305546" lon="15.2953722197">
		<tag k="name" v="Myran" />
		<tag k="natural" v="wetland" />
		<tag k="ssr:stedsnr" v="209561" />
	</node>
	<node id="-676096" lat="67.1700694473" lon="15.4912611101">
		<tag k="name" v="Myra" />
		<tag k="natural" v="wetland" />
		<tag k="ssr:stedsnr" v="412964" />
	</node>
	<node id="-677115" lat="67.1814388859" lon="15.3880472146">
		<tag k="landuse" v="meadow" />
		<tag k="name" v="Eddevarteng" />
		<tag k="ssr:stedsnr" v="512867" />
	</node>
	<node id="-677626" lat="66.881711112" lon="15.3671166693">
		<tag k="name" v="Kaffehola" />
		<tag k="natural" v="wetland" />
		<tag k="ssr:stedsnr" v="715135" />
	</node>
	<node id="-676600" lat="66.7419416701" lon="15.8076333449">
		<tag k="name" v="Sjønaparten" />
		<tag k="place" v="locality" />
		<tag k="ssr:stedsnr" v="148792" />
	</node>
	<node id="-677110" lat="67.1849416637" lon="15.3714944445">
		<tag k="name" v="Trollhammarmyra" />
		<tag k="natural" v="wetland" />
		<tag k="ssr:stedsnr" v="511926" />
	</node>
	<node id="-677618" lat="66.8284888864" lon="15.4098305618">
		<tag k="name" v="Solemmyra" />
		<tag k="natural" v="wetland" />
		<tag k="ssr:stedsnr" v="715057" />
	</node>
	<node id="-676592" lat="67.1144500008" lon="15.4504527684">
		<tag k="historic" v="shieling" />
		<tag k="name" v="Sankthansvollen" />
		<tag k="place" v="locality" />
		<tag k="ssr:stedsnr" v="148678" />
	</node>
	<node id="-677103" lat="66.9416722231" lon="15.2516777725">
		<tag k="name" v="Tverrlimyra" />
		<tag k="natural" v="wetland" />
		<tag k="ssr:stedsnr" v="506317" />
	</node>
	<node id="-676706" lat="66.823222225" lon="15.564997225">
		<tag k="name" v="Skreda" />
		<tag k="natural" v="scree" />
		<tag k="ssr:stedsnr" v="198666" />
	</node>
	<node id="-676075" lat="66.8935027813" lon="15.3521583263">
		<tag k="name" v="Langmyra" />
		<tag k="natural" v="wetland" />
		<tag k="ssr:stedsnr" v="412156" />
	</node>
	<node id="-676586" lat="66.9367583369" lon="15.2844527721">
		<tag k="name" v="Øverstolpen" />
		<tag k="place" v="locality" />
		<tag k="ssr:stedsnr" v="148621" />
	</node>
	<node id="-677096" lat="67.1030666658" lon="15.4127583336">
		<tag k="alt_name" v="Skansenøyra" />
		<tag k="name" v="Skansøyra" />
		<tag k="place" v="locality" />
		<tag k="ssr:stedsnr" v="502780" />
	</node>
	<node id="-677607" lat="67.1020055528" lon="15.5263472221">
		<tag k="name" v="Uran" />
		<tag k="natural" v="scree" />
		<tag k="ssr:stedsnr" v="695888" />
	</node>
	<node id="-676580" lat="66.9608888913" lon="15.2879861108">
		<tag k="name" v="Liteigan" />
		<tag k="place" v="locality" />
		<tag k="ssr:stedsnr" v="148587" />
	</node>
	<node id="-677603" lat="66.7603083327" lon="15.688011121">
		<tag k="name" v="Yttermyra" />
		<tag k="natural" v="wetland" />
		<tag k="ssr:stedsnr" v="695825" />
	</node>
	<node id="-678113" lat="66.819688889" lon="15.3543666636">
		<tag k="name" v="Kvannesmyra" />
		<tag k="natural" v="wetland" />
		<tag k="ssr:stedsnr" v="877875" />
	</node>
	<node id="-676064" lat="66.9499861067" lon="15.4236861173">
		<tag k="name" v="Tjeldmyra" />
		<tag k="natural" v="wetland" />
		<tag k="ssr:stedsnr" v="412012" />
	</node>
	<node id="-676063" lat="66.9506361134" lon="15.430811113">
		<tag k="name" v="Langmyra" />
		<tag k="natural" v="wetland" />
		<tag k="ssr:stedsnr" v="412010" />
	</node>
	<node id="-676574" lat="67.029761109" lon="15.3125055618">
		<tag k="name" v="Littj-Fjelleng" />
		<tag k="place" v="locality" />
		<tag k="ssr:stedsnr" v="148573" />
	</node>
	<node id="-676061" lat="67.1535250026" lon="15.3695916567">
		<tag k="name" v="Svarthammarmyra" />
		<tag k="natural" v="wetland" />
		<tag k="ssr:stedsnr" v="411927" />
	</node>
	<node id="-677595" lat="67.0799694458" lon="15.3471305527">
		<tag k="name" v="Engan" />
		<tag k="place" v="locality" />
		<tag k="ssr:stedsnr" v="695757" />
	</node>
	<node id="-678104" lat="67.1258666706" lon="15.3851444342">
		<tag k="name" v="Storleiro" />
		<tag k="place" v="locality" />
		<tag k="ssr:stedsnr" v="877704" />
	</node>
	<node id="-677591" lat="67.1180166664" lon="15.3743083381">
		<tag k="name" v="Engan" />
		<tag k="place" v="locality" />
		<tag k="ssr:stedsnr" v="695712" />
	</node>
	<node id="-676053" lat="67.1108888888" lon="15.5028777797">
		<tag k="name" v="Syllsteinen" />
		<tag k="natural" v="stone" />
		<tag k="ssr:stedsnr" v="411277" />
	</node>
	<node id="-676563" lat="67.1714083365" lon="15.369597219">
		<tag k="name" v="Vegan" />
		<tag k="place" v="locality" />
		<tag k="ssr:stedsnr" v="146797" />
	</node>
	<node id="-678098" lat="67.1125166636" lon="15.4651000064">
		<tag k="landuse" v="meadow" />
		<tag k="name" v="Kalvgarden" />
		<tag k="ssr:stedsnr" v="877679" />
	</node>
	<node id="-678097" lat="67.1172583374" lon="15.4714194381">
		<tag k="landuse" v="meadow" />
		<tag k="name" v="Hestgarden" />
		<tag k="ssr:stedsnr" v="877674" />
	</node>
	<node id="-677581" lat="66.898702774" lon="15.3395972099">
		<tag k="name" v="Svartmyra" />
		<tag k="natural" v="wetland" />
		<tag k="ssr:stedsnr" v="695636" />
	</node>
	<node id="-677575" lat="66.908380552" lon="15.3519111031">
		<tag k="name" v="Siriheim" />
		<tag k="place" v="locality" />
		<tag k="ssr:stedsnr" v="695582" />
	</node>
	<node id="-676038" lat="67.0957749987" lon="15.4712805598">
		<tag k="name" v="Brenna" />
		<tag k="place" v="locality" />
		<tag k="ssr:stedsnr" v="391882" />
	</node>
	<node id="-678110" lat="66.8170027809" lon="15.3917388866">
		<tag k="name" v="Planteskolen" />
		<tag k="place" v="locality" />
		<tag k="ssr:stedsnr" v="877865" />
	</node>
	<node id="-676034" lat="66.8199861074" lon="15.7038555434">
		<tag k="historic" v="shieling" />
		<tag k="name" v="Svartberivollen" />
		<tag k="place" v="locality" />
		<tag k="ssr:stedsnr" v="391859" />
	</node>
	<node id="-676764" lat="66.7696777785" lon="15.474169443">
		<tag k="name" v="Båtmyra" />
		<tag k="natural" v="wetland" />
		<tag k="ssr:stedsnr" v="209810" />
	</node>
	<node id="-676030" lat="67.0685277759" lon="15.3482861054">
		<tag k="name" v="Heimermyra" />
		<tag k="natural" v="wetland" />
		<tag k="ssr:stedsnr" v="391774" />
	</node>
	<node id="-678076" lat="67.1803833327" lon="15.3678916564">
		<tag k="name" v="Skipmannvikmyra" />
		<tag k="natural" v="wetland" />
		<tag k="ssr:stedsnr" v="875925" />
	</node>
	<node id="-676536" lat="67.0808777738" lon="15.2850083403">
		<tag k="name" v="Knøvlåsmyran" />
		<tag k="natural" v="wetland" />
		<tag k="ssr:stedsnr" v="137784" />
	</node>
	<node id="-675700" lat="66.9999749957" lon="15.3711277753">
		<tag k="name" v="Skarmyra" />
		<tag k="natural" v="wetland" />
		<tag k="ssr:stedsnr" v="270747" />
	</node>
	<node id="-677615" lat="67.1680194419" lon="15.4936888813">
		<tag k="name" v="Myra" />
		<tag k="place" v="locality" />
		<tag k="ssr:stedsnr" v="714035" />
	</node>
	<node id="-678067" lat="67.1548055566" lon="15.48429723">
		<tag k="name" v="Stormyra" />
		<tag k="natural" v="wetland" />
		<tag k="ssr:stedsnr" v="867000" />
	</node>
	<node id="-676014" lat="66.8888222179" lon="15.3171861196">
		<tag k="name" v="Slettfjellskavlen" />
		<tag k="place" v="locality" />
		<tag k="ssr:stedsnr" v="391639" />
	</node>
	<node id="-678061" lat="66.7927277736" lon="15.5938972317">
		<tag k="name" v="Tjårrisheia" />
		<tag k="place" v="locality" />
		<tag k="ssr:stedsnr" v="866827" />
	</node>
	<node id="-676011" lat="66.942111107" lon="15.3266666656">
		<tag k="name" v="Sveen" />
		<tag k="place" v="locality" />
		<tag k="ssr:stedsnr" v="391613" />
	</node>
	<node id="-676010" lat="66.9189749974" lon="15.3345277813">
		<tag k="name" v="Littjmyra" />
		<tag k="natural" v="wetland" />
		<tag k="ssr:stedsnr" v="391607" />
	</node>
	<node id="-677063" lat="66.8192888855" lon="15.3309611001">
		<tag k="name" v="Blåsvaet" />
		<tag k="place" v="locality" />
		<tag k="ssr:stedsnr" v="501640" />
	</node>
	<node id="-676008" lat="66.9695388857" lon="15.3434277794">
		<tag k="name" v="Engan" />
		<tag k="place" v="locality" />
		<tag k="ssr:stedsnr" v="391582" />
	</node>
	<node id="-676006" lat="66.9541444416" lon="15.3451055613">
		<tag k="name" v="Stormyra" />
		<tag k="natural" v="wetland" />
		<tag k="ssr:stedsnr" v="391572" />
	</node>
	<node id="-676421" lat="67.0528111071" lon="15.3737861134">
		<tag k="name" v="Moa" />
		<tag k="place" v="locality" />
		<tag k="ssr:stedsnr" v="88688" />
	</node>
	<node id="-677829" lat="66.9621888883" lon="15.3771416714">
		<tag k="name" v="Innernes" />
		<tag k="place" v="locality" />
		<tag k="ssr:stedsnr" v="776786" />
	</node>
	<node id="-677014" lat="67.0846392477" lon="15.5665385026">
		<tag k="name" v="Lappsteinen" />
		<tag k="natural" v="stone" />
		<tag k="ssr:stedsnr" v="472251" />
	</node>
	<node id="-676633" lat="66.8278750035" lon="15.3494361094">
		<tag k="name" v="Helliglunden" />
		<tag k="place" v="locality" />
		<tag k="ssr:stedsnr" v="169098" />
	</node>
	<node id="-676608" lat="67.0965888915" lon="15.4609972298">
		<tag k="name" v="Botnøyra" />
		<tag k="place" v="locality" />
		<tag k="ssr:stedsnr" v="148887" />
	</node>
	<node id="-677009" lat="66.8573888846" lon="15.2568027734">
		<tag k="name" v="Mikkelmyra" />
		<tag k="natural" v="wetland" />
		<tag k="ssr:stedsnr" v="472141" />
	</node>
	<node id="-677656" lat="67.1756611108" lon="15.5187916775">
		<tag k="name" v="Forsmyra" />
		<tag k="natural" v="wetland" />
		<tag k="ssr:stedsnr" v="715978" />
	</node>
	<node id="-677005" lat="66.8253638866" lon="15.4882472183">
		<tag k="name" v="Liura" />
		<tag k="natural" v="scree" />
		<tag k="ssr:stedsnr" v="472096" />
	</node>
	<node id="-676487" lat="67.2012250013" lon="15.5055944474">
		<tag k="name" v="Sørhola" />
		<tag k="natural" v="wetland" />
		<tag k="ssr:stedsnr" v="109704" />
	</node>
	<node id="-676486" lat="67.1850916702" lon="15.5563583406">
		<tag k="name" v="Stormyra" />
		<tag k="natural" v="wetland" />
		<tag k="ssr:stedsnr" v="109523" />
	</node>
	<node id="-677508" lat="66.8532111117" lon="15.3082305568">
		<tag k="name" v="Holmen" />
		<tag k="place" v="locality" />
		<tag k="ssr:stedsnr" v="655234" />
	</node>
	<node id="-676994" lat="66.9461472243" lon="15.4589916663">
		<tag k="name" v="Bjølimyra" />
		<tag k="natural" v="wetland" />
		<tag k="ssr:stedsnr" v="472010" />
	</node>
	<node id="-676993" lat="66.9491999975" lon="15.439797219">
		<tag k="name" v="Storura" />
		<tag k="natural" v="scree" />
		<tag k="ssr:stedsnr" v="472008" />
	</node>
	<node id="-676480" lat="67.0561750037" lon="15.2890083433">
		<tag k="name" v="Helligmyra" />
		<tag k="natural" v="wetland" />
		<tag k="ssr:stedsnr" v="109389" />
	</node>
	<node id="-676479" lat="66.809433338" lon="15.5661499902">
		<tag k="name" v="Nerjorda" />
		<tag k="place" v="locality" />
		<tag k="ssr:stedsnr" v="109208" />
	</node>
	<node id="-677499" lat="66.947794443" lon="15.2291138982">
		<tag k="name" v="Stormyra" />
		<tag k="natural" v="wetland" />
		<tag k="ssr:stedsnr" v="654946" />
	</node>
	<node id="-675775" lat="67.1765749971" lon="15.4713888938">
		<tag k="name" v="Størkarhella" />
		<tag k="natural" v="stone" />
		<tag k="ssr:stedsnr" v="291985" />
	</node>
	<node id="-678008" lat="66.9242777788" lon="15.5629777874">
		<tag k="name" v="Neverholmura" />
		<tag k="natural" v="scree" />
		<tag k="ssr:stedsnr" v="837766" />
	</node>
	<node id="-677493" lat="66.9705388879" lon="15.3583694523">
		<tag k="landuse" v="meadow" />
		<tag k="name" v="Hemmerengan" />
		<tag k="ssr:stedsnr" v="654783" />
	</node>
	<node id="-676465" lat="66.8661583353" lon="15.0142777747">
		<tag k="name" v="Sandbankan" />
		<tag k="place" v="locality" />
		<tag k="ssr:stedsnr" v="108466" />
	</node>
	<node id="-676475" lat="66.788569444" lon="15.5917777672">
		<tag k="name" v="Heimerneset" />
		<tag k="place" v="locality" />
		<tag k="ssr:stedsnr" v="109052" />
	</node>
	<node id="-676463" lat="66.9230027808" lon="15.3483611097">
		<tag k="name" v="Sævmyra" />
		<tag k="natural" v="wetland" />
		<tag k="ssr:stedsnr" v="108445" />
	</node>
	<node id="-676973" lat="66.9969888847" lon="15.3284083415">
		<tag k="name" v="Storvatnet" />
		<tag k="natural" v="wetland" />
		<tag k="ssr:stedsnr" v="452768" />
	</node>
	<node id="-676972" lat="66.9967333325" lon="15.2891055449">
		<tag k="name" v="Langmyra" />
		<tag k="natural" v="wetland" />
		<tag k="ssr:stedsnr" v="452767" />
	</node>
	<node id="-675943" lat="66.925224997" lon="15.629677787">
		<tag k="name" v="Tverrtjelma" />
		<tag k="place" v="locality" />
		<tag k="ssr:stedsnr" v="351796" />
	</node>
	<node id="-677308" lat="67.1680166644" lon="15.5203583412">
		<tag k="name" v="Blautslåttet" />
		<tag k="natural" v="wetland" />
		<tag k="ssr:stedsnr" v="593026" />
	</node>
	<node id="-677478" lat="66.9266555566" lon="15.3580305641">
		<tag k="name" v="Eligamskogen" />
		<tag k="place" v="locality" />
		<tag k="ssr:stedsnr" v="654451" />
	</node>
	<node id="-675942" lat="66.9679777822" lon="15.3532166633">
		<tag k="name" v="Skogflogengan" />
		<tag k="place" v="locality" />
		<tag k="ssr:stedsnr" v="351795" />
	</node>
	<node id="-677474" lat="66.9308694468" lon="15.4555638778">
		<tag k="name" v="Blauttjoksa" />
		<tag k="natural" v="wetland" />
		<tag k="ssr:stedsnr" v="654415" />
	</node>
	<node id="-677985" lat="67.0790583352" lon="15.5217416766">
		<tag k="name" v="Myra" />
		<tag k="natural" v="wetland" />
		<tag k="ssr:stedsnr" v="837324" />
	</node>
	<node id="-675870" lat="66.743816666" lon="15.7449583323">
		<tag k="name" v="Metusalem" />
		<tag k="place" v="locality" />
		<tag k="ssr:stedsnr" v="331787" />
	</node>
	<node id="-677977" lat="66.8114722247" lon="15.5742527803">
		<tag k="name" v="Jesklihågen" />
		<tag k="place" v="locality" />
		<tag k="ssr:stedsnr" v="837194" />
	</node>
	<node id="-677974" lat="66.823875" lon="15.5047694489">
		<tag k="name" v="Borvestranda" />
		<tag k="place" v="locality" />
		<tag k="ssr:stedsnr" v="837180" />
	</node>
	<node id="-675925" lat="66.9756916624" lon="15.3514472266">
		<tag k="name" v="Moan" />
		<tag k="place" v="locality" />
		<tag k="ssr:stedsnr" v="351629" />
	</node>
	<node id="-676436" lat="66.8197472255" lon="15.3942527686">
		<tag k="name" v="Heggjuta" />
		<tag k="place" v="locality" />
		<tag k="ssr:stedsnr" v="88849" />
	</node>
	<node id="-676433" lat="66.8147972228" lon="15.4021527722">
		<tag k="name" v="Roparneset" />
		<tag k="place" v="locality" />
		<tag k="ssr:stedsnr" v="88842" />
	</node>
	<node id="-675920" lat="67.197436113" lon="15.5581027791">
		<tag k="name" v="Svartvassmyra" />
		<tag k="natural" v="wetland" />
		<tag k="ssr:stedsnr" v="351390" />
	</node>
	<node id="-677455" lat="66.8018277766" lon="15.4278805606">
		<tag k="name" v="Storsteinan" />
		<tag k="natural" v="stone" />
		<tag k="ssr:stedsnr" v="654016" />
	</node>
	<node id="-677454" lat="66.9395999982" lon="15.4374861017">
		<tag k="name" v="Henrikmyra" />
		<tag k="natural" v="wetland" />
		<tag k="ssr:stedsnr" v="654003" />
	</node>
	<node id="-676109" lat="67.0516249989" lon="15.2420361016">
		<tag k="name" v="Berglømra" />
		<tag k="natural" v="wetland" />
		<tag k="ssr:stedsnr" v="473439" />
	</node>
	<node id="-676427" lat="67.0004888924" lon="15.3319194362">
		<tag k="name" v="Skoan" />
		<tag k="place" v="locality" />
		<tag k="ssr:stedsnr" v="88722" />
	</node>
	<node id="-677962" lat="66.9347972222" lon="15.3982055661">
		<tag k="name" v="Olaslåtten" />
		<tag k="natural" v="wetland" />
		<tag k="ssr:stedsnr" v="837050" />
	</node>
	<node id="-676279" lat="67.1588833323" lon="15.5055722296">
		<tag k="name" v="Sakrisura" />
		<tag k="natural" v="scree" />
		<tag k="ssr:stedsnr" v="47012" />
	</node>
	<node id="-675910" lat="66.8912805573" lon="15.3606777851">
		<tag k="name" v="Rypdalsmyra" />
		<tag k="natural" v="wetland" />
		<tag k="ssr:stedsnr" v="351187" />
	</node>
	<node id="-677445" lat="66.7407583326" lon="15.7595833225">
		<tag k="landuse" v="meadow" />
		<tag k="name" v="Øverenga" />
		<tag k="ssr:stedsnr" v="634840" />
	</node>
	<node id="-675907" lat="66.8593999987" lon="15.3343250048">
		<tag k="name" v="Sævmyra" />
		<tag k="natural" v="wetland" />
		<tag k="ssr:stedsnr" v="351146" />
	</node>
	<node id="-675906" lat="66.8733694453" lon="15.3579611063">
		<tag k="name" v="Slettfjellmyran" />
		<tag k="natural" v="wetland" />
		<tag k="ssr:stedsnr" v="351127" />
	</node>
	<node id="-676415" lat="67.1259944466" lon="15.3780277867">
		<tag k="name" v="Myra" />
		<tag k="place" v="locality" />
		<tag k="ssr:stedsnr" v="88631" />
	</node>
	<node id="-677946" lat="67.0979583349" lon="15.4740805521">
		<tag k="name" v="Øspan" />
		<tag k="place" v="locality" />
		<tag k="ssr:stedsnr" v="816878" />
	</node>
	<node id="-675897" lat="66.9332722213" lon="15.4357361061">
		<tag k="name" v="Kallemyra" />
		<tag k="natural" v="wetland" />
		<tag k="ssr:stedsnr" v="351032" />
	</node>
	<node id="-675894" lat="66.8244916658" lon="15.3508777753">
		<tag k="name" v="Giftmyra" />
		<tag k="natural" v="wetland" />
		<tag k="ssr:stedsnr" v="350106" />
	</node>
	<node id="-675892" lat="66.8236138908" lon="15.4691805554">
		<tag k="name" v="Storura" />
		<tag k="natural" v="scree" />
		<tag k="ssr:stedsnr" v="350083" />
	</node>
	<node id="-677730" lat="67.1812277757" lon="15.3961694335">
		<tag k="name" v="Myran" />
		<tag k="natural" v="wetland" />
		<tag k="ssr:stedsnr" v="754828" />
	</node>
	<node id="-676400" lat="67.0176027785" lon="15.2843305565">
		<tag k="name" v="Kjerrgramyra" />
		<tag k="natural" v="wetland" />
		<tag k="ssr:stedsnr" v="88462" />
	</node>
	<node id="-677932" lat="67.0708305572" lon="15.3641416761">
		<tag k="name" v="Myra" />
		<tag k="natural" v="wetland" />
		<tag k="ssr:stedsnr" v="816762" />
	</node>
	<node id="-675878" lat="66.6888277745" lon="15.3991527759">
		<tag k="name" v="Familiedalen" />
		<tag k="place" v="locality" />
		<tag k="ssr:stedsnr" v="331871" />
	</node>
	<node id="-675761" lat="66.8076999969" lon="15.5628749894">
		<tag k="name" v="Kristenheimen" />
		<tag k="place" v="locality" />
		<tag k="ssr:stedsnr" v="291032" />
	</node>
	<node id="-677412" lat="66.7989333325" lon="15.5850222257">
		<tag k="alt_name" v="Kåtavollheia" />
		<tag k="name" v="Kåtvollheia" />
		<tag k="place" v="locality" />
		<tag k="ssr:stedsnr" v="623862" />
	</node>
	<node id="-677923" lat="66.873608333" lon="15.2461472314">
		<tag k="name" v="Hellelvskogen" />
		<tag k="place" v="locality" />
		<tag k="ssr:stedsnr" v="816684" />
	</node>
	<node id="-677723" lat="66.9782249984" lon="15.2530916687">
		<tag k="name" v="Langmyra" />
		<tag k="natural" v="wetland" />
		<tag k="ssr:stedsnr" v="749303" />
	</node>
	<node id="-677407" lat="66.8179305539" lon="15.6471638836">
		<tag k="fixme" v="multiple name tags, choose one and add the other to alt_name" />
		<tag k="historic" v="shieling" />
		<tag k="name" v="Småvollan;Tjårris - Tjåres" />
		<tag k="name:no" v="Småvollan;Tjårris" />
		<tag k="name:smj" v="Tjåres" />
		<tag k="place" v="locality" />
		<tag k="ssr:stedsnr" v="623689" />
	</node>
	<node id="-677918" lat="66.8725861116" lon="15.3455527814">
		<tag k="name" v="Slåttan" />
		<tag k="place" v="locality" />
		<tag k="ssr:stedsnr" v="816651" />
	</node>
	<node id="-677913" lat="66.9427444401" lon="15.2729194484">
		<tag k="name" v="Littjfjellmyra" />
		<tag k="natural" v="wetland" />
		<tag k="ssr:stedsnr" v="816637" />
	</node>
	<node id="-675876" lat="66.8098861101" lon="15.4095722268">
		<tag k="name" v="Heinnermyra" />
		<tag k="natural" v="wetland" />
		<tag k="ssr:stedsnr" v="331858" />
	</node>
	<node id="-677973" lat="67.115169445" lon="15.2678777871">
		<tag k="name" v="Stormyran" />
		<tag k="natural" v="wetland" />
		<tag k="ssr:stedsnr" v="837173" />
	</node>
	<node id="-677906" lat="66.9236416628" lon="15.3310916594">
		<tag k="name" v="Hæsen" />
		<tag k="place" v="locality" />
		<tag k="ssr:stedsnr" v="816616" />
	</node>
	<node id="-677900" lat="67.0082416683" lon="15.3249694391">
		<tag k="name" v="Munnavollen" />
		<tag k="place" v="locality" />
		<tag k="ssr:stedsnr" v="816567" />
	</node>
	<node id="-675850" lat="66.9359722213" lon="15.2976110993">
		<tag k="name" v="Medti-Stolpen" />
		<tag k="place" v="locality" />
		<tag k="ssr:stedsnr" v="331593" />
	</node>
	<node id="-675756" lat="66.9691083369" lon="15.4342861146">
		<tag k="name" v="Stormyra" />
		<tag k="natural" v="wetland" />
		<tag k="ssr:stedsnr" v="290793" />
	</node>
	<node id="-675843" lat="67.0371000008" lon="15.2987861096">
		<tag k="name" v="Nilasheimen" />
		<tag k="place" v="locality" />
		<tag k="ssr:stedsnr" v="331549" />
	</node>
</osm>
