<?xml version="1.0" encoding="UTF-8"?>
<<<<<<< HEAD
<osm version="0.6" generator="osmapis">
	<node lat="67.18871388888057" lon="15.388197217579572" id="-7995">
		<tag k="name" v="Oksbåsen" />
=======
<osm generator="osmapis" version="0.6">
	<node id="-172415" lat="67.099227774" lon="15.4460666603">
		<tag k="name" v="Dalmovika" />
		<tag k="natural" v="bay" />
		<tag k="ssr:stedsnr" v="88856" />
	</node>
	<node id="-173182" lat="67.1102861074" lon="15.4428500071">
		<tag k="name" v="Oldervika" />
		<tag k="natural" v="bay" />
		<tag k="ssr:stedsnr" v="634683" />
	</node>
	<node id="-171901" lat="67.1901694458" lon="15.383691674">
		<tag k="fixme" v="consider seamark:type=rock or natural=shoal" />
		<tag k="name" v="Kobbskjæret" />
		<tag k="place" v="islet" />
		<tag k="ssr:stedsnr" v="892602" />
	</node>
	<node id="-171764" lat="67.1047527768" lon="15.3907666745">
		<tag k="name" v="Buvika" />
		<tag k="natural" v="bay" />
		<tag k="ssr:stedsnr" v="710634" />
	</node>
	<node id="-171710" lat="67.1328777745" lon="15.4449222233">
		<tag k="alt_name" v="Galtan" />
		<tag k="name" v="Galten" />
		<tag k="natural" v="cape" />
		<tag k="ssr:stedsnr" v="528629" />
	</node>
	<node id="-172654" lat="67.0990333379" lon="15.4489499957">
		<tag k="name" v="Dalmovikodden" />
		<tag k="natural" v="cape" />
		<tag k="ssr:stedsnr" v="209858" />
	</node>
	<node id="-173565" lat="67.1737777779" lon="15.4723611105">
		<tag k="name" v="Svinvika" />
		<tag k="natural" v="bay" />
		<tag k="ssr:stedsnr" v="958993" />
	</node>
	<node id="-171116" lat="67.1008722247" lon="15.457355561">
		<tag k="alt_name" v="Saksenvika" />
		<tag k="name" v="Soksenvika" />
		<tag k="natural" v="bay" />
		<tag k="ssr:stedsnr" v="137763" />
	</node>
	<node id="-171233" lat="67.1705305552" lon="15.4744000036">
		<tag k="name" v="Ersvika" />
>>>>>>> e1d4bc35ff8a6074a6f2e91616a996b547c36f15
		<tag k="natural" v="bay" />
		<tag k="ssr:stedsnr" v="26905" />
	</node>
<<<<<<< HEAD
	<node lat="67.13178333441772" lon="15.389019450701435" id="-8067">
		<tag k="name" v="Gullura" />
		<tag k="natural" v="beach" />
		<tag k="ssr:stedsnr" v="88626" />
	</node>
	<node lat="67.10087222465349" lon="15.457355561021954" id="-8102">
		<tag k="alt_name" v="Saksenvika" />
		<tag k="name" v="Soksenvika" />
		<tag k="natural" v="bay" />
		<tag k="ssr:stedsnr" v="137763" />
	</node>
	<node lat="67.17053055519953" lon="15.474400003558339" id="-8358">
		<tag k="name" v="Ersvika" />
=======
	<node id="-173018" lat="67.1682833315" lon="15.4190000107">
		<tag k="name" v="Dversetneset" />
		<tag k="natural" v="cape" />
		<tag k="ssr:stedsnr" v="654991" />
	</node>
	<node id="-171990" lat="67.1848499961" lon="15.3920888831">
		<tag k="alt_name" v="Skipmannsvika" />
		<tag k="name" v="Skipmannvik" />
		<tag k="natural" v="bay" />
		<tag k="ssr:stedsnr" v="744972" />
	</node>
	<node id="-173011" lat="67.1442249999" lon="15.4492722248">
		<tag k="alt_name" v="Breidvika" />
		<tag k="name" v="Breivika" />
>>>>>>> e1d4bc35ff8a6074a6f2e91616a996b547c36f15
		<tag k="natural" v="bay" />
		<tag k="ssr:stedsnr" v="291988" />
	</node>
<<<<<<< HEAD
	<node lat="67.1439694437709" lon="15.44271389705624" id="-8440">
=======
	<node id="-171474" lat="67.1439694438" lon="15.4427138971">
>>>>>>> e1d4bc35ff8a6074a6f2e91616a996b547c36f15
		<tag k="fixme" v="consider seamark:type=rock or natural=shoal" />
		<tag k="name" v="Stamnesskjeret" />
		<tag k="place" v="islet" />
		<tag k="ssr:stedsnr" v="473138" />
	</node>
<<<<<<< HEAD
	<node lat="67.1906166658769" lon="15.46626387679894" id="-8488">
		<tag k="alt_name" v="Menes" />
		<tag k="fixme" v="multiple name tags, choose one and add the other to alt_name" />
		<tag k="name" v="Jubbenes;Jubbeneset" />
=======
	<node id="-172624" lat="67.1624472204" lon="15.4750111047">
		<tag k="alt_name" v="Bollneset" />
		<tag k="name" v="Bollnes" />
>>>>>>> e1d4bc35ff8a6074a6f2e91616a996b547c36f15
		<tag k="natural" v="cape" />
		<tag k="ssr:stedsnr" v="380963" />
	</node>
<<<<<<< HEAD
	<node lat="67.15016389342587" lon="15.453441656603523" id="-8510">
=======
	<node id="-172877" lat="67.1501638934" lon="15.4534416566">
>>>>>>> e1d4bc35ff8a6074a6f2e91616a996b547c36f15
		<tag k="name" v="Yttervika" />
		<tag k="natural" v="bay" />
		<tag k="ssr:stedsnr" v="411050" />
	</node>
<<<<<<< HEAD
	<node lat="67.1760472179805" lon="15.403097221971766" id="-8642">
		<tag k="alt_name" v="Daumannvika" />
		<tag k="name" v="Daudmannsvika" />
		<tag k="natural" v="bay" />
		<tag k="ssr:stedsnr" v="683982" />
	</node>
	<node lat="67.10342222191342" lon="15.462747210870978" id="-8698">
		<tag k="name" v="Kjernhalsen" />
		<tag k="natural" v="cape" />
		<tag k="ssr:stedsnr" v="528623" />
	</node>
	<node lat="67.13287777448832" lon="15.44492222331211" id="-8699">
		<tag k="alt_name" v="Galtan" />
		<tag k="name" v="Galten" />
=======
	<node id="-173257" lat="67.1885472249" lon="15.3712666649">
		<tag k="name" v="Nes" />
		<tag k="natural" v="cape" />
		<tag k="ssr:stedsnr" v="753802" />
	</node>
	<node id="-173126" lat="67.1171722186" lon="15.4437805435">
		<tag k="alt_name" v="Somannvika" />
		<tag k="name" v="Saumannsvika" />
		<tag k="natural" v="bay" />
		<tag k="ssr:stedsnr" v="622759" />
	</node>
	<node id="-172098" lat="67.1350361081" lon="15.3939860996">
		<tag k="name" v="Nesodden" />
>>>>>>> e1d4bc35ff8a6074a6f2e91616a996b547c36f15
		<tag k="natural" v="cape" />
		<tag k="ssr:stedsnr" v="528629" />
	</node>
<<<<<<< HEAD
	<node lat="67.1889277788959" lon="15.471497226696444" id="-8720">
		<tag k="name" v="Jubbenesfjæra" />
		<tag k="natural" v="beach" />
		<tag k="ssr:stedsnr" v="534000" />
	</node>
	<node lat="67.16828333146726" lon="15.419000010689283" id="-8831">
		<tag k="name" v="Dversetneset" />
=======
	<node id="-173246" lat="67.1324249995" lon="15.3976388972">
		<tag k="bay" v="fjord" />
		<tag k="loc_name:smj" v="Sálatvuodna" />
		<tag k="name" v="Saltdalsfjorden" />
		<tag k="name:no" v="Saltdalsfjorden" />
		<tag k="natural" v="bay" />
		<tag k="ssr:stedsnr" v="744998" />
	</node>
	<node id="-171709" lat="67.1034222219" lon="15.4627472109">
		<tag k="name" v="Kjernhalsen" />
>>>>>>> e1d4bc35ff8a6074a6f2e91616a996b547c36f15
		<tag k="natural" v="cape" />
		<tag k="ssr:stedsnr" v="654991" />
	</node>
<<<<<<< HEAD
	<node lat="67.190169445829" lon="15.383691674013892" id="-8838">
		<tag k="fixme" v="consider seamark:type=rock or natural=shoal" />
		<tag k="name" v="Kobbskjæret" />
		<tag k="place" v="islet" />
		<tag k="ssr:stedsnr" v="892602" />
	</node>
	<node lat="67.1091055520183" lon="15.445624988458102" id="-8863">
		<tag k="name" v="Innervika" />
=======
	<node id="-173244" lat="67.1743750039" lon="15.4718722198">
		<tag k="name" v="Skruhammaren" />
		<tag k="natural" v="cape" />
		<tag k="ssr:stedsnr" v="744988" />
	</node>
	<node id="-173243" lat="67.1832111125" lon="15.479294448">
		<tag k="name" v="Grytvika" />
>>>>>>> e1d4bc35ff8a6074a6f2e91616a996b547c36f15
		<tag k="natural" v="bay" />
		<tag k="ssr:stedsnr" v="695667" />
	</node>
<<<<<<< HEAD
	<node lat="67.15011667032472" lon="15.451944446431607" id="-8874">
		<tag k="name" v="Yttervikodden" />
=======
	<node id="-173370" lat="67.1288472196" lon="15.4043860998">
		<tag k="name" v="Tangodden" />
>>>>>>> e1d4bc35ff8a6074a6f2e91616a996b547c36f15
		<tag k="natural" v="cape" />
		<tag k="ssr:stedsnr" v="897040" />
	</node>
	<node lat="67.1047527768095" lon="15.390766674477176" id="-8901">
		<tag k="name" v="Buvika" />
		<tag k="natural" v="bay" />
		<tag k="ssr:stedsnr" v="710634" />
	</node>
<<<<<<< HEAD
	<node lat="67.16976388792835" lon="15.47689165906463" id="-8906">
=======
	<node id="-172358" lat="67.115822222" lon="15.4355249908">
		<tag k="alt_name" v="Kinesodden" />
		<tag k="name" v="Kjeneset" />
		<tag k="natural" v="cape" />
		<tag k="ssr:stedsnr" v="77781" />
	</node>
	<node id="-171960" lat="67.1697638879" lon="15.4768916591">
>>>>>>> e1d4bc35ff8a6074a6f2e91616a996b547c36f15
		<tag k="name" v="Kleivbognesodden" />
		<tag k="natural" v="cape" />
		<tag k="ssr:stedsnr" v="898883" />
	</node>
<<<<<<< HEAD
	<node lat="67.18484999607576" lon="15.392088883130894" id="-8945">
		<tag k="alt_name" v="Skipmannsvika" />
		<tag k="name" v="Skipmannvik" />
		<tag k="natural" v="bay" />
		<tag k="ssr:stedsnr" v="744972" />
	</node>
	<node lat="67.18321111252467" lon="15.479294447997546" id="-8946">
		<tag k="name" v="Grytvika" />
		<tag k="natural" v="bay" />
		<tag k="ssr:stedsnr" v="744975" />
	</node>
	<node lat="67.18854722487748" lon="15.371266664859643" id="-8949">
		<tag k="name" v="Nes" />
=======
	<node id="-171060" lat="67.1317833344" lon="15.3890194507">
		<tag k="name" v="Gullura" />
		<tag k="natural" v="beach" />
		<tag k="place" v="locality" />
		<tag k="ssr:stedsnr" v="88626" />
	</node>
	<node id="-172847" lat="67.1663611075" lon="15.4169222293">
		<tag k="name" v="Reksteinvika" />
>>>>>>> e1d4bc35ff8a6074a6f2e91616a996b547c36f15
		<tag k="natural" v="cape" />
		<tag k="ssr:stedsnr" v="753802" />
	</node>
<<<<<<< HEAD
	<node lat="67.13503610807109" lon="15.393986099600083" id="-9010">
		<tag k="name" v="Nesodden" />
=======
	<node id="-173102" lat="67.18676667" lon="15.4756444478">
		<tag k="name" v="Djupvikodden" />
>>>>>>> e1d4bc35ff8a6074a6f2e91616a996b547c36f15
		<tag k="natural" v="cape" />
		<tag k="ssr:stedsnr" v="816713" />
	</node>
<<<<<<< HEAD
	<node lat="67.174574998294" lon="15.405936102502755" id="-9042">
		<tag k="fixme" v="consider seamark:type=rock or natural=shoal" />
		<tag k="name" v="Bjønnskjeret" />
		<tag k="place" v="islet" />
		<tag k="ssr:stedsnr" v="837988" />
	</node>
	<node lat="67.18371111117818" lon="15.403336113513863" id="-9060">
		<tag k="name" v="Korshammaren" />
=======
	<node id="-172845" lat="67.1906166659" lon="15.4662638768">
		<tag k="alt_name" v="Menes" />
		<tag k="fixme" v="multiple name tags, choose one and add the other to alt_name" />
		<tag k="name" v="Jubbenes;Jubbeneset" />
>>>>>>> e1d4bc35ff8a6074a6f2e91616a996b547c36f15
		<tag k="natural" v="cape" />
		<tag k="ssr:stedsnr" v="926967" />
	</node>
<<<<<<< HEAD
	<node lat="67.10479444342039" lon="15.43327778477643" id="-9126">
		<tag k="name" v="Skagodden" />
		<tag k="natural" v="cape" />
		<tag k="ssr:stedsnr" v="927770" />
	</node>
	<node lat="67.17377777793352" lon="15.472361110482943" id="-9167">
		<tag k="name" v="Svinvika" />
=======
	<node id="-172074" lat="67.1047944434" lon="15.4332777848">
		<tag k="name" v="Skagodden" />
		<tag k="natural" v="cape" />
		<tag k="ssr:stedsnr" v="927770" />
	</node>
	<node id="-171885" lat="67.109105552" lon="15.4456249885">
		<tag k="name" v="Innervika" />
		<tag k="natural" v="bay" />
		<tag k="ssr:stedsnr" v="695667" />
	</node>
	<node id="-171846" lat="67.1077555529" lon="15.4494444549">
		<tag k="name" v="Akervikodden" />
		<tag k="natural" v="cape" />
		<tag k="ssr:stedsnr" v="877683" />
	</node>
	<node id="-171682" lat="67.176047218" lon="15.403097222">
		<tag k="alt_name" v="Daumannvika" />
		<tag k="name" v="Daudmannsvika" />
>>>>>>> e1d4bc35ff8a6074a6f2e91616a996b547c36f15
		<tag k="natural" v="bay" />
		<tag k="ssr:stedsnr" v="958993" />
	</node>
<<<<<<< HEAD
	<node lat="67.16531111093052" lon="15.482624990628176" id="-9174">
		<tag k="name" v="Setsåvika" />
		<tag k="natural" v="bay" />
		<tag k="ssr:stedsnr" v="229049" />
	</node>
	<node lat="67.11582222199408" lon="15.435524990757148" id="-9313">
		<tag k="alt_name" v="Kinesodden" />
		<tag k="name" v="Kjeneset" />
=======
	<node id="-173344" lat="67.1865111126" lon="15.4772305522">
		<tag k="name" v="Djupvika" />
		<tag k="natural" v="bay" />
		<tag k="ssr:stedsnr" v="776997" />
	</node>
	<node id="-172959" lat="67.1889277789" lon="15.4714972267">
		<tag k="name" v="Jubbenesfjæra" />
		<tag k="natural" v="beach" />
		<tag k="place" v="locality" />
		<tag k="ssr:stedsnr" v="534000" />
	</node>
	<node id="-172502" lat="67.189163663" lon="15.380656708">
		<tag k="alt_name" v="Gjelbuneset;Hjelbunes" />
		<tag k="name" v="Hjelbuneset" />
		<tag k="natural" v="cape" />
		<tag k="ssr:stedsnr" v="137976" />
	</node>
	<node id="-171929" lat="67.1501166703" lon="15.4519444464">
		<tag k="name" v="Yttervikodden" />
>>>>>>> e1d4bc35ff8a6074a6f2e91616a996b547c36f15
		<tag k="natural" v="cape" />
		<tag k="ssr:stedsnr" v="77781" />
	</node>
<<<<<<< HEAD
	<node lat="67.09922777404564" lon="15.446066660329741" id="-9352">
		<tag k="name" v="Dalmovika" />
		<tag k="natural" v="bay" />
		<tag k="ssr:stedsnr" v="88856" />
	</node>
	<node lat="67.18754722049768" lon="15.474649998308044" id="-9385">
=======
	<node id="-173443" lat="67.1745749983" lon="15.4059361025">
		<tag k="fixme" v="consider seamark:type=rock or natural=shoal" />
		<tag k="name" v="Bjønnskjeret" />
		<tag k="place" v="islet" />
		<tag k="ssr:stedsnr" v="837988" />
	</node>
	<node id="-172461" lat="67.1875472205" lon="15.4746499983">
>>>>>>> e1d4bc35ff8a6074a6f2e91616a996b547c36f15
		<tag k="name" v="Fjølvika" />
		<tag k="natural" v="bay" />
		<tag k="ssr:stedsnr" v="109997" />
	</node>
<<<<<<< HEAD
	<node lat="67.1891636630497" lon="15.380656708022583" id="-9434">
		<tag k="alt_name" v="Gjelbuneset;Hjelbunes" />
		<tag k="name" v="Hjelbuneset" />
		<tag k="natural" v="cape" />
		<tag k="ssr:stedsnr" v="137976" />
	</node>
	<node lat="67.1624472203845" lon="15.475011104670727" id="-9540">
		<tag k="alt_name" v="Bollneset" />
		<tag k="name" v="Bollnes" />
		<tag k="natural" v="cape" />
		<tag k="ssr:stedsnr" v="198997" />
	</node>
	<node lat="67.09903333785658" lon="15.448949995725911" id="-9559">
		<tag k="name" v="Dalmovikodden" />
		<tag k="natural" v="cape" />
		<tag k="ssr:stedsnr" v="209858" />
	</node>
	<node lat="67.17410556034717" lon="15.471836102694436" id="-9715">
=======
	<node id="-171021" lat="67.1653111109" lon="15.4826249906">
		<tag k="name" v="Setsåvika" />
		<tag k="natural" v="bay" />
		<tag k="ssr:stedsnr" v="229049" />
	</node>
	<node id="-172807" lat="67.1741055603" lon="15.4718361027">
>>>>>>> e1d4bc35ff8a6074a6f2e91616a996b547c36f15
		<tag k="name" v="Rotnesodden" />
		<tag k="natural" v="cape" />
		<tag k="ssr:stedsnr" v="351993" />
	</node>
<<<<<<< HEAD
	<node lat="67.16636110754649" lon="15.416922229252025" id="-9737">
		<tag k="name" v="Reksteinvika" />
=======
	<node id="-172036" lat="67.1837111112" lon="15.4033361135">
		<tag k="name" v="Korshammaren" />
>>>>>>> e1d4bc35ff8a6074a6f2e91616a996b547c36f15
		<tag k="natural" v="cape" />
		<tag k="ssr:stedsnr" v="380984" />
	</node>
<<<<<<< HEAD
	<node lat="67.14422499991257" lon="15.449272224849379" id="-9949">
		<tag k="alt_name" v="Breidvika" />
		<tag k="name" v="Breivika" />
		<tag k="natural" v="bay" />
		<tag k="ssr:stedsnr" v="562748" />
	</node>
	<node lat="67.18676667001375" lon="15.475644447789291" id="-10023">
		<tag k="name" v="Djupvikodden" />
		<tag k="natural" v="cape" />
		<tag k="ssr:stedsnr" v="594998" />
	</node>
	<node lat="67.1171722185542" lon="15.443780543481267" id="-10058">
		<tag k="alt_name" v="Somannvika" />
		<tag k="name" v="Saumannsvika" />
		<tag k="natural" v="bay" />
		<tag k="ssr:stedsnr" v="622759" />
	</node>
	<node lat="67.11028610737205" lon="15.442850007128781" id="-10080">
		<tag k="name" v="Oldervika" />
		<tag k="natural" v="bay" />
		<tag k="ssr:stedsnr" v="634683" />
	</node>
	<node lat="67.17437500389649" lon="15.471872219770873" id="-10189">
		<tag k="name" v="Skruhammaren" />
		<tag k="natural" v="cape" />
		<tag k="ssr:stedsnr" v="744988" />
	</node>
	<node lat="67.13242499946718" lon="15.397638897189342" id="-10191">
		<tag k="bay" v="fjord" />
		<tag k="loc_name:smj" v="Sálatvuodna" />
		<tag k="name" v="Saltdalsfjorden" />
		<tag k="name:no" v="Saltdalsfjorden" />
		<tag k="natural" v="bay" />
		<tag k="ssr:stedsnr" v="744998" />
	</node>
	<node lat="67.18651111261632" lon="15.477230552161545" id="-10264">
		<tag k="name" v="Djupvika" />
		<tag k="natural" v="bay" />
		<tag k="ssr:stedsnr" v="776997" />
	</node>
	<node lat="67.12884721957361" lon="15.404386099803416" id="-10291">
		<tag k="name" v="Tangodden" />
		<tag k="natural" v="cape" />
		<tag k="ssr:stedsnr" v="805745" />
	</node>
	<node lat="67.10775555289132" lon="15.449444454889962" id="-10462">
		<tag k="name" v="Akervikodden" />
		<tag k="natural" v="cape" />
		<tag k="ssr:stedsnr" v="877683" />
=======
	<node id="-171011" lat="67.1887138889" lon="15.3881972176">
		<tag k="name" v="Oksbåsen" />
		<tag k="natural" v="bay" />
		<tag k="ssr:stedsnr" v="26905" />
>>>>>>> e1d4bc35ff8a6074a6f2e91616a996b547c36f15
	</node>
</osm>
