<?xml version="1.0" encoding="UTF-8"?>
<osm generator="osmapis" version="0.6">
	<node id="-676949" lat="67.1865555601" lon="15.520530546">
		<tag k="highway" v="path" />
		<tag k="name" v="Rausandvegen" />
		<tag k="ssr:stedsnr" v="291979" />
	</node>
	<node id="-678522" lat="67.1589166694" lon="15.3417388888">
		<tag k="highway" v="path" />
		<tag k="name" v="Møsværvegen" />
		<tag k="ssr:stedsnr" v="594874" />
	</node>
	<node id="-679160" lat="67.0708292821" lon="15.3348676576">
		<tag k="fixme" v="consider highway=path" />
		<tag k="highway" v="track" />
		<tag k="name" v="Øverdrovegen" />
		<tag k="ssr:stedsnr" v="837352" />
	</node>
	<node id="-677495" lat="67.0775472196" lon="15.528500003">
		<tag k="highway" v="path" />
		<tag k="name" v="Hansvegen" />
		<tag k="ssr:stedsnr" v="48310" />
	</node>
	<node id="-678773" lat="66.7434888929" lon="15.4561083309">
		<tag k="highway" v="path" />
		<tag k="name" v="Kjemåvasstien" />
		<tag k="ssr:stedsnr" v="695800" />
	</node>
	<node id="-677485" lat="66.8338166685" lon="15.3665777714">
		<tag k="fixme" v="consider highway=path" />
		<tag k="highway" v="track" />
		<tag k="name" v="Brattbakkan" />
		<tag k="ssr:stedsnr" v="48061" />
	</node>
	<node id="-678764" lat="67.0924250003" lon="15.3767750094">
		<tag k="junction" v="yes" />
		<tag k="name" v="Rønningen" />
		<tag k="place" v="locality" />
		<tag k="ssr:stedsnr" v="695706" />
	</node>
	<node id="-678761" lat="67.1123333359" lon="15.4798805465">
		<tag k="highway" v="path" />
		<tag k="name" v="Hestmovegen" />
		<tag k="ssr:stedsnr" v="695668" />
	</node>
	<node id="-677349" lat="67.1873361114" lon="15.4926416659">
		<tag k="highway" v="path" />
		<tag k="name" v="Hansvegen" />
		<tag k="ssr:stedsnr" v="898986" />
	</node>
	<node id="-677347" lat="67.1662750001" lon="15.4034694427">
		<tag k="highway" v="path" />
		<tag k="name" v="Penvegen" />
		<tag k="ssr:stedsnr" v="898903" />
	</node>
	<node id="-678010" lat="66.7431277821" lon="15.4634083367">
		<tag k="alt_name:no" v="Lønsdal stasjon" />
		<tag k="fixme" v="multiple name tags, choose one and add the other to alt_name" />
		<tag k="name" v="Lønsdal - Luonosvágge;Luonosvákke ruovdderahtestasjåvnnå" />
		<tag k="name:no" v="Lønsdal" />
		<tag k="name:smj" v="Luonosvágge;Luonosvákke ruovdderahtestasjåvnnå" />
		<tag k="railway" v="station" />
		<tag k="ssr:stedsnr" v="258597" />
		<tag k="train" v="yes" />
	</node>
	<node id="-679255" lat="67.0350138907" lon="15.3327916662">
		<tag k="fixme" v="consider highway=path" />
		<tag k="highway" v="track" />
		<tag k="name" v="Fjellvegen" />
		<tag k="ssr:stedsnr" v="877584" />
	</node>
	<node id="-677077" lat="67.1398166676" lon="15.4748833289">
		<tag k="highway" v="path" />
		<tag k="name" v="Fjellvegen" />
		<tag k="ssr:stedsnr" v="351100" />
	</node>
	<node id="-677844" lat="67.1722277778" lon="15.4908583416">
		<tag k="highway" v="path" />
		<tag k="name" v="Fjellvegen" />
		<tag k="ssr:stedsnr" v="169972" />
	</node>
	<node id="-677843" lat="67.1604055559" lon="15.3896555458">
		<tag k="highway" v="path" />
		<tag k="name" v="Sandvegen" />
		<tag k="ssr:stedsnr" v="169866" />
	</node>
	<node id="-678737" lat="67.0934944451" lon="15.3996249892">
		<tag k="alt_name" v="Rognan jernbanestasjon" />
		<tag k="name" v="Rognan" />
		<tag k="railway" v="station" />
		<tag k="ssr:stedsnr" v="684785" />
		<tag k="train" v="yes" />
	</node>
	<node id="-676856" lat="67.072508334" lon="15.3406277679">
		<tag k="fixme" v="consider highway=path" />
		<tag k="highway" v="track" />
		<tag k="name" v="Fjellvegen" />
		<tag k="ssr:stedsnr" v="270728" />
	</node>
	<node id="-678476" lat="67.1080138864" lon="15.452997226">
		<tag k="layer" v="-1" />
		<tag k="name" v="Saksenvik" />
		<tag k="ssr:stedsnr" v="590745" />
		<tag k="tunnel" v="yes" />
	</node>
	<node id="-677576" lat="67.0239722255" lon="15.3214694426">
		<tag k="landuse" v="industrial" />
		<tag k="name" v="Dragefossen" />
		<tag k="power" v="plant" />
		<tag k="ssr:stedsnr" v="88472" />
	</node>
	<node id="-677829" lat="66.9882749983" lon="15.9251055489">
		<tag k="highway" v="path" />
		<tag k="name" v="Rosnastien" />
		<tag k="ssr:stedsnr" v="169452" />
	</node>
	<node id="-676928" lat="66.9565361067" lon="15.2643666704">
		<tag k="fixme" v="consider highway=path" />
		<tag k="highway" v="track" />
		<tag k="name" v="Jarbrufjellvegen" />
		<tag k="ssr:stedsnr" v="290722" />
	</node>
	<node id="-679357" lat="67.1162722257" lon="15.3542305561">
		<tag k="fixme" v="consider highway=path" />
		<tag k="highway" v="track" />
		<tag k="name" v="Bugrøva" />
		<tag k="ssr:stedsnr" v="938706" />
	</node>
	<node id="-677308" lat="66.9863499965" lon="15.905086099">
		<tag k="highway" v="path" />
		<tag k="name" v="Balvassløypa" />
		<tag k="ssr:stedsnr" v="897415" />
	</node>
	<node id="-677044" lat="66.7452916687" lon="15.7744777858">
		<tag k="highway" v="path" />
		<tag k="name" v="Vintervegen" />
		<tag k="ssr:stedsnr" v="331780" />
	</node>
	<node id="-678962" lat="66.9371777786" lon="15.4442611055">
		<tag k="man_made" v="cairn" />
		<tag k="name" v="Høgglivarden" />
		<tag k="place" v="locality" />
		<tag k="ssr:stedsnr" v="776004" />
	</node>
	<node id="-678192" lat="67.0699658149" lon="15.3358388633">
		<tag k="fixme" v="consider highway=path" />
		<tag k="highway" v="track" />
		<tag k="name" v="Kvithammarsvingen" />
		<tag k="ssr:stedsnr" v="472324" />
	</node>
	<node id="-678447" lat="66.8950861144" lon="15.2888500011">
		<tag k="highway" v="path" />
		<tag k="name" v="Fjellvegen" />
		<tag k="ssr:stedsnr" v="573590" />
	</node>
	<node id="-678317" lat="66.7434277802" lon="15.7775833313">
		<tag k="highway" v="path" />
		<tag k="name" v="Sommervegen" />
		<tag k="ssr:stedsnr" v="513782" />
	</node>
	<node id="-678173" lat="66.8301972267" lon="15.3921944379">
		<tag k="highway" v="path" />
		<tag k="name" v="Sauvegen" />
		<tag k="ssr:stedsnr" v="472056" />
	</node>
	<node id="-679075" lat="67.0291388929" lon="15.3305638862">
		<tag k="highway" v="path" />
		<tag k="name" v="Øverlivegen" />
		<tag k="ssr:stedsnr" v="816591" />
	</node>
	<node id="-676896" lat="66.937716669" lon="15.4014138989">
		<tag k="highway" v="path" />
		<tag k="name" v="Elsavegen" />
		<tag k="ssr:stedsnr" v="290071" />
	</node>
	<node id="-679071" lat="66.98670868" lon="15.3203323545">
		<tag k="name" v="Røkland" />
		<tag k="railway" v="halt" />
		<tag k="ssr:stedsnr" v="816151" />
		<tag k="train" v="yes" />
	</node>
	<node id="-678813" lat="66.793986109" lon="15.4071777745">
		<tag k="layer" v="-1" />
		<tag k="name" v="Kjemånastunnelen" />
		<tag k="ssr:stedsnr" v="715463" />
		<tag k="tunnel" v="yes" />
	</node>
	<node id="-677268" lat="67.1631583341" lon="15.3972416614">
		<tag k="highway" v="path" />
		<tag k="name" v="Brattvegen" />
		<tag k="ssr:stedsnr" v="412853" />
	</node>
	<node id="-677424" lat="66.7419277802" lon="15.7615333254">
		<tag k="highway" v="path" />
		<tag k="name" v="Merkenegvegen" />
		<tag k="ssr:stedsnr" v="27782" />
	</node>
	<node id="-678282" lat="67.1855638855" lon="15.3765166677">
		<tag k="highway" v="path" />
		<tag k="name" v="Trollhammarvegen" />
		<tag k="ssr:stedsnr" v="511807" />
	</node>
	<node id="-677768" lat="67.0976222227" lon="15.4088555569">
		<tag k="aeroway" v="airstrip" />
		<tag k="name" v="Rognan flyplass" />
		<tag k="ssr:stedsnr" v="148718" />
	</node>
	<node id="-678508" lat="66.9643333376" lon="15.2700055504">
		<tag k="fixme" v="consider highway=path" />
		<tag k="highway" v="track" />
		<tag k="name" v="Tverrvegen" />
		<tag k="ssr:stedsnr" v="593694" />
	</node>
	<node id="-678148" lat="66.7406694438" lon="15.7694388949">
		<tag k="highway" v="path" />
		<tag k="name" v="Fiskarvegen" />
		<tag k="ssr:stedsnr" v="452790" />
	</node>
	<node id="-679170" lat="66.9339194478" lon="15.4668666654">
		<tag k="fixme" v="consider highway=path" />
		<tag k="highway" v="track" />
		<tag k="name" v="Skardalsvegen" />
		<tag k="ssr:stedsnr" v="837472" />
	</node>
	<node id="-679297" lat="66.6917666707" lon="15.4306472325">
		<tag k="alt_name" v="Sørelva brøytestasjon" />
		<tag k="barrier" v="toll_booth" />
		<tag k="name" v="Sørelva" />
		<tag k="ssr:stedsnr" v="926589" />
	</node>
</osm>
