<?xml version="1.0" encoding="UTF-8"?>
<osm version="0.6" generator="osmapis">
	<node lat="66.80947777325017" lon="15.625416672281808" id="-18357">
		<tag k="name" v="Tverrelva" />
		<tag k="ssr:stedsnr" v="230238" />
		<tag k="waterway" v="stream" />
	</node>
	<node lat="66.87223055733617" lon="15.44450833207443" id="-18364">
		<tag k="name" v="Bukkvatnet" />
		<tag k="natural" v="water" />
		<tag k="ssr:stedsnr" v="16607" />
	</node>
	<node lat="66.99014999630056" lon="15.448227779516259" id="-18365">
		<tag k="name" v="Ytterelva" />
		<tag k="ssr:stedsnr" v="16524" />
		<tag k="waterway" v="stream" />
	</node>
	<node lat="67.04713055664422" lon="15.254127777209474" id="-18371">
		<tag k="name" v="Skájddebakkelva" />
		<tag k="old_name" v="Skaitibakkelva" />
		<tag k="ssr:stedsnr" v="16811" />
		<tag k="waterway" v="stream" />
	</node>
	<node lat="67.00406388790805" lon="15.819483329685806" id="-18372">
		<tag k="name" v="Råssnejávrre" />
		<tag k="name:no" v="Stor-Rosna" />
		<tag k="name:smj" v="Råssnejávrre" />
		<tag k="natural" v="water" />
		<tag k="old_name:no" v="Rosna, store;Rosnavatnet;Stor-Rosnivatnet;Rosna" />
		<tag k="old_name:smj" v="Rostnejávri;Råstnijavri" />
		<tag k="ssr:stedsnr" v="16814" />
		<tag k="water" v="lake" />
	</node>
	<node lat="67.02557500192397" lon="15.389049992767454" id="-18374">
		<tag k="alt_name" v="Tinngrøva" />
		<tag k="name" v="Tindgrova" />
		<tag k="ssr:stedsnr" v="16852" />
		<tag k="waterway" v="stream" />
	</node>
	<node lat="66.97502222269505" lon="15.99226387942306" id="-18376">
		<tag k="name" v="Vuohppeluokta" />
		<tag k="name:smj" v="Vuohppeluokta" />
		<tag k="natural" v="bay" />
		<tag k="old_name:smj" v="Vuoppiluokta" />
		<tag k="ssr:stedsnr" v="16865" />
	</node>
	<node lat="67.1535972234075" lon="15.470199988893748" id="-18377">
		<tag k="name" v="Medelva" />
		<tag k="ssr:stedsnr" v="17000" />
		<tag k="waterway" v="stream" />
	</node>
	<node lat="66.82511944616351" lon="15.372469448486243" id="-18395">
		<tag k="name" v="Kvanneset" />
		<tag k="natural" v="cape" />
		<tag k="ssr:stedsnr" v="47077" />
	</node>
	<node lat="66.92270278029675" lon="15.8637638953983" id="-18399">
		<tag k="name" v="Skajddebukta" />
		<tag k="natural" v="bay" />
		<tag k="ssr:stedsnr" v="47504" />
	</node>
	<node lat="67.05077499782146" lon="15.335966654773687" id="-18401">
		<tag k="name" v="Oksielva" />
		<tag k="ssr:stedsnr" v="47419" />
		<tag k="waterway" v="stream" />
	</node>
	<node lat="66.75697222138503" lon="15.420777775112189" id="-18403">
		<tag k="name" v="Skjeran" />
		<tag k="place" v="islet" />
		<tag k="ssr:stedsnr" v="47421" />
	</node>
	<node lat="66.83171111122668" lon="15.757147222489255" id="-18413">
		<tag k="name" v="Rauvollbekken" />
		<tag k="ssr:stedsnr" v="48219" />
		<tag k="waterway" v="stream" />
	</node>
	<node lat="67.20047500081644" lon="15.491555553744716" id="-18416">
		<tag k="name" v="Langvatnet" />
		<tag k="natural" v="water" />
		<tag k="ssr:stedsnr" v="48724" />
		<tag k="water" v="lake" />
	</node>
	<node lat="66.74643610747698" lon="15.703155559326282" id="-18419">
		<tag k="alt_name" v="Gjerdledalsbekken" />
		<tag k="name" v="Djevledalabekken" />
		<tag k="ssr:stedsnr" v="77621" />
		<tag k="waterway" v="stream" />
	</node>
	<node lat="66.73940000332198" lon="15.29638333649628" id="-18420">
		<tag k="name" v="Giebbnejåhkå" />
		<tag k="name:no" v="Kjemåbekken" />
		<tag k="name:smj" v="Giebbnejåhkå" />
		<tag k="old_name:smj" v="Giebdnijåkka" />
		<tag k="ssr:stedsnr" v="77623" />
		<tag k="waterway" v="stream" />
	</node>
	<node lat="66.88347222298027" lon="15.389411108121658" id="-18425">
		<tag k="alt_name" v="Austerlivatnan" />
		<tag k="name" v="Austlivatna" />
		<tag k="natural" v="water" />
		<tag k="ssr:stedsnr" v="77660" />
	</node>
	<node lat="66.86097222260564" lon="15.667686108467665" id="-18426">
		<tag k="name" v="Kroken" />
		<tag k="place" v="locality" />
		<tag k="ssr:stedsnr" v="77667" />
	</node>
	<node lat="67.0836444444306" lon="15.536266665626776" id="-18428">
		<tag k="name" v="Ingeborgforsen" />
		<tag k="natural" v="waterfall" />
		<tag k="ssr:stedsnr" v="77811" />
	</node>
	<node lat="66.7565527814524" lon="15.574747230388589" id="-18431">
		<tag k="name" v="Langvatnet" />
		<tag k="natural" v="water" />
		<tag k="ssr:stedsnr" v="77821" />
	</node>
	<node lat="67.08498332933128" lon="15.215488893930283" id="-18432">
		<tag k="name" v="Nydalsvatnet" />
		<tag k="natural" v="water" />
		<tag k="ssr:stedsnr" v="77600" />
	</node>
	<node lat="66.98573889224674" lon="15.54040834477904" id="-18433">
		<tag k="name" v="Kløftelva" />
		<tag k="ssr:stedsnr" v="77706" />
		<tag k="waterway" v="stream" />
	</node>
	<node lat="67.12936111500943" lon="15.279583343239299" id="-18437">
		<tag k="name" v="Raudsteinelva" />
		<tag k="ssr:stedsnr" v="77765" />
		<tag k="waterway" v="stream" />
	</node>
	<node lat="67.10457500018552" lon="15.687975000220106" id="-18438">
		<tag k="alt_name" v="Storforselva" />
		<tag k="name" v="Storforsdalselva" />
		<tag k="ssr:stedsnr" v="77797" />
		<tag k="waterway" v="river" />
	</node>
	<node lat="67.01093055528719" lon="15.161669432771493" id="-18439">
		<tag k="name" v="Ostehellarvatnet" />
		<tag k="natural" v="water" />
		<tag k="ssr:stedsnr" v="77907" />
	</node>
	<node lat="67.02219444182077" lon="15.334844451187948" id="-18442">
		<tag k="alt_name" v="Tverrelva, in;Øver-Tverrelva" />
		<tag k="fixme" v="multiple name tags, choose one and add the other to alt_name" />
		<tag k="name" v="Øvertverrelva;Indre Tverrelva" />
		<tag k="ssr:stedsnr" v="77851" />
		<tag k="waterway" v="stream" />
	</node>
	<node lat="67.02555555301316" lon="15.667297209932201" id="-18443">
		<tag k="name" v="Tjårokjávrre" />
		<tag k="name:smj" v="Tjårokjávrre" />
		<tag k="natural" v="water" />
		<tag k="old_name:smj" v="Čorutjavri" />
		<tag k="ssr:stedsnr" v="77854" />
	</node>
	<node lat="66.78789999878006" lon="15.45423333655442" id="-18450">
		<tag k="alt_name" v="Gamfossen" />
		<tag k="name" v="Gamforsen" />
		<tag k="natural" v="waterfall" />
		<tag k="ssr:stedsnr" v="88140" />
	</node>
	<node lat="67.04566944647519" lon="15.387452784129758" id="-18459">
		<tag k="name" v="Holmen" />
		<tag k="natural" v="cape" />
		<tag k="ssr:stedsnr" v="88703" />
	</node>
	<node lat="67.1039250002054" lon="15.352930550515723" id="-18460">
		<tag k="name" v="Vervasselva" />
		<tag k="ssr:stedsnr" v="88678" />
		<tag k="waterway" v="stream" />
	</node>
	<node lat="66.81431944188508" lon="15.41287499036559" id="-18462">
		<tag k="name" v="Muggebærneset" />
		<tag k="natural" v="cape" />
		<tag k="ssr:stedsnr" v="88834" />
	</node>
	<node lat="66.81476111376352" lon="15.387522232820164" id="-18463">
		<tag k="name" v="Henrikneset" />
		<tag k="natural" v="cape" />
		<tag k="ssr:stedsnr" v="88837" />
	</node>
	<node lat="66.82616388430462" lon="15.370855561741246" id="-18466">
		<tag k="name" v="Kvannesauren" />
		<tag k="natural" v="shoal" />
		<tag k="place" v="locality" />
		<tag k="ssr:stedsnr" v="108083" />
	</node>
	<node lat="67.01539166950953" lon="15.219063883739276" id="-18470">
		<tag k="name" v="Littjvatnet" />
		<tag k="natural" v="water" />
		<tag k="ssr:stedsnr" v="108502" />
		<tag k="water" v="lake" />
	</node>
	<node lat="67.01066944504686" lon="15.851527787777092" id="-18473">
		<tag k="name" v="Skoddfjellbekken" />
		<tag k="ssr:stedsnr" v="108471" />
		<tag k="waterway" v="stream" />
	</node>
	<node lat="67.03097500284335" lon="15.99998333673619" id="-18486">
		<tag k="name" v="Risvatnet - Sierkkajávrre" />
		<tag k="name:no" v="Risvatnet" />
		<tag k="name:smj" v="Sierkkajávrre" />
		<tag k="natural" v="water" />
		<tag k="old_name:smj" v="Siedgajávri" />
		<tag k="ssr:stedsnr" v="137165" />
		<tag k="water" v="lake" />
	</node>
	<node lat="67.11810277368551" lon="15.224358337506152" id="-18487">
		<tag k="name" v="Krokvatnet" />
		<tag k="natural" v="water" />
		<tag k="ssr:stedsnr" v="137743" />
		<tag k="water" v="lake" />
	</node>
	<node lat="66.81780833558932" lon="15.535758339068984" id="-18492">
		<tag k="name" v="Engesneset" />
		<tag k="natural" v="cape" />
		<tag k="ssr:stedsnr" v="137642" />
	</node>
	<node lat="66.81234444398606" lon="15.592416675566136" id="-18494">
		<tag k="name" v="Austerbekken" />
		<tag k="ssr:stedsnr" v="137645" />
		<tag k="waterway" v="stream" />
	</node>
	<node lat="66.77672777771895" lon="15.631027769070501" id="-18495">
		<tag k="name" v="Gamforsen" />
		<tag k="natural" v="waterfall" />
		<tag k="ssr:stedsnr" v="137803" />
	</node>
	<node lat="67.00011110740007" lon="15.341858339005206" id="-18517">
		<tag k="name" v="Slettholmen" />
		<tag k="place" v="islet" />
		<tag k="ssr:stedsnr" v="148765" />
	</node>
	<node lat="66.96621110723677" lon="15.134158337152915" id="-18524">
		<tag k="name" v="Kjerrelvatnet" />
		<tag k="natural" v="water" />
		<tag k="ssr:stedsnr" v="258594" />
		<tag k="water" v="lake" />
	</node>
	<node lat="67.08579721866144" lon="15.196830558758743" id="-18526">
		<tag k="fixme" v="multiple name tags, choose one and add the other to alt_name" />
		<tag k="name" v="Krokvasselva;Krokdalselva" />
		<tag k="ssr:stedsnr" v="259128" />
		<tag k="waterway" v="river" />
	</node>
	<node lat="66.88854444090967" lon="15.41646667160752" id="-18532">
		<tag k="alt_name" v="Ner-Sauvatnet;Sauvatnet, nedre" />
		<tag k="name" v="Nedre Sauvatnet" />
		<tag k="natural" v="water" />
		<tag k="old_name" v="Ner-Lauvatnet" />
		<tag k="ssr:stedsnr" v="259615" />
		<tag k="water" v="lake" />
	</node>
	<node lat="66.84090833110407" lon="15.519713894735538" id="-18542">
		<tag k="loc_name:smj" v="Sávlojåhkå" />
		<tag k="name" v="Solvågbekken" />
		<tag k="name:no" v="Solvågbekken" />
		<tag k="ssr:stedsnr" v="259654" />
		<tag k="waterway" v="stream" />
	</node>
	<node lat="66.9849638852149" lon="15.497461105053338" id="-18544">
		<tag k="alt_name" v="Litlvatnet" />
		<tag k="name" v="Littjvatnet" />
		<tag k="natural" v="water" />
		<tag k="ssr:stedsnr" v="259687" />
	</node>
	<node lat="66.93648889103065" lon="15.676900002929687" id="-18546">
		<tag k="name" v="Tverrfjellvatnet" />
		<tag k="natural" v="water" />
		<tag k="ssr:stedsnr" v="259721" />
	</node>
	<node lat="66.82942221822519" lon="15.360794454493709" id="-18558">
		<tag k="name" v="Storstranda" />
		<tag k="natural" v="beach" />
		<tag k="ssr:stedsnr" v="169059" />
	</node>
	<node lat="66.83148611177221" lon="15.3582527686206" id="-18560">
		<tag k="name" v="Trollnesholmen" />
		<tag k="natural" v="cape" />
		<tag k="ssr:stedsnr" v="169066" />
	</node>
	<node lat="66.84133055738832" lon="15.318497212461851" id="-18575">
		<tag k="name" v="Smulakværvenosen" />
		<tag k="natural" v="bay" />
		<tag k="ssr:stedsnr" v="170115" />
	</node>
	<node lat="66.83737222192633" lon="15.018341669648734" id="-18578">
		<tag k="name" v="Hestvatnet" />
		<tag k="natural" v="water" />
		<tag k="ssr:stedsnr" v="264427" />
	</node>
	<node lat="67.01243611401459" lon="15.80342777865677" id="-18579">
		<tag k="name" v="Båtbukta" />
		<tag k="natural" v="bay" />
		<tag k="ssr:stedsnr" v="198167" />
	</node>
	<node lat="67.06282777753636" lon="15.926497215433296" id="-18580">
		<tag k="name" v="Beritvatnet - Bieritjávrre" />
		<tag k="name:no" v="Beritvatnet" />
		<tag k="name:smj" v="Bieritjávrre" />
		<tag k="natural" v="water" />
		<tag k="old_name:smj" v="Biretjávri" />
		<tag k="ssr:stedsnr" v="198179" />
		<tag k="water" v="lake" />
	</node>
	<node lat="66.69247499625516" lon="15.466911107714164" id="-18581">
		<tag k="name" v="Storsteinbekken" />
		<tag k="ssr:stedsnr" v="198605" />
		<tag k="waterway" v="stream" />
	</node>
	<node lat="66.74716110972871" lon="15.753033328687275" id="-18583">
		<tag k="name" v="Knallerdalelva - Skærrimjåhkå" />
		<tag k="name:no" v="Knallerdalelva" />
		<tag k="name:smj" v="Skærrimjåhkå" />
		<tag k="old_name:smj" v="Skærremjåkka" />
		<tag k="ssr:stedsnr" v="198628" />
		<tag k="waterway" v="river" />
	</node>
	<node lat="66.95027221852719" lon="15.083516668567727" id="-18587">
		<tag k="name" v="Langosen" />
		<tag k="natural" v="water" />
		<tag k="ssr:stedsnr" v="198581" />
	</node>
	<node lat="66.97931674896331" lon="15.252950906625786" id="-18588">
		<tag k="name" v="Sagelva" />
		<tag k="ssr:stedsnr" v="198706" />
		<tag k="waterway" v="stream" />
	</node>
	<node lat="67.07365555638191" lon="15.43121945373598" id="-18591">
		<tag k="name" v="Svartvatnet" />
		<tag k="natural" v="water" />
		<tag k="ssr:stedsnr" v="198815" />
	</node>
	<node lat="67.06685555659747" lon="15.463544439299948" id="-18592">
		<tag k="name" v="Fetjohanvatnan" />
		<tag k="natural" v="water" />
		<tag k="ssr:stedsnr" v="198818" />
	</node>
	<node lat="66.95811944098165" lon="16.04131944008903" id="-18595">
		<tag k="name" v="Gårojávrásj" />
		<tag k="name:smj" v="Gårojávrásj" />
		<tag k="natural" v="water" />
		<tag k="old_name:smj" v="Gårojavraš" />
		<tag k="ssr:stedsnr" v="198864" />
		<tag k="water" v="lake" />
	</node>
	<node lat="66.97501388802115" lon="15.483019434210876" id="-18596">
		<tag k="name" v="Sørelva" />
		<tag k="ssr:stedsnr" v="198754" />
		<tag k="waterway" v="river" />
	</node>
	<node lat="67.02325277433324" lon="15.182280555328608" id="-18600">
		<tag k="name" v="Hilmarvatnet" />
		<tag k="natural" v="water" />
		<tag k="ssr:stedsnr" v="198905" />
	</node>
	<node lat="66.96502777534559" lon="15.229016667473692" id="-18603">
		<tag k="name" v="Storkjelen" />
		<tag k="ssr:stedsnr" v="203322" />
		<tag k="waterway" v="stream" />
	</node>
	<node lat="66.80936944015538" lon="15.396397230382892" id="-18621">
		<tag k="name" v="Lønsbergneset" />
		<tag k="natural" v="cape" />
		<tag k="ssr:stedsnr" v="209804" />
	</node>
	<node lat="66.71215278059708" lon="15.46518611453331" id="-18624">
		<tag k="name" v="Lønsforsen" />
		<tag k="natural" v="waterfall" />
		<tag k="ssr:stedsnr" v="209811" />
	</node>
	<node lat="66.90020277901233" lon="15.419383328144892" id="-18627">
		<tag k="name" v="Tjelmavatna" />
		<tag k="natural" v="water" />
		<tag k="ssr:stedsnr" v="270144" />
	</node>
	<node lat="66.79097499931069" lon="15.502544432761841" id="-18628">
		<tag k="name" v="Selan" />
		<tag k="natural" v="water" />
		<tag k="ssr:stedsnr" v="270197" />
	</node>
	<node lat="67.02709722204597" lon="15.369513899361586" id="-18633">
		<tag k="name" v="Littjnes" />
		<tag k="natural" v="cape" />
		<tag k="ssr:stedsnr" v="270531" />
	</node>
	<node lat="66.75683610981395" lon="15.563111103106714" id="-18647">
		<tag k="name" v="Vesterrundvatnet" />
		<tag k="natural" v="water" />
		<tag k="ssr:stedsnr" v="270799" />
	</node>
	<node lat="66.97556666844677" lon="15.973891662693086" id="-18660">
		<tag k="name" v="Reingjerdbukta" />
		<tag k="natural" v="bay" />
		<tag k="ssr:stedsnr" v="229441" />
	</node>
	<node lat="67.01465277948934" lon="15.247361122451581" id="-18661">
		<tag k="name" v="Øvervatnet" />
		<tag k="natural" v="water" />
		<tag k="ssr:stedsnr" v="229590" />
		<tag k="water" v="lake" />
	</node>
	<node lat="66.8418388906531" lon="15.31921666540638" id="-18667">
		<tag k="name" v="Kristianneset" />
		<tag k="natural" v="cape" />
		<tag k="ssr:stedsnr" v="230109" />
	</node>
	<node lat="66.93730555307772" lon="15.417083324071722" id="-18670">
		<tag k="name" v="Innerneset" />
		<tag k="natural" v="cape" />
		<tag k="ssr:stedsnr" v="230082" />
	</node>
	<node lat="67.0205972184835" lon="15.37344722358477" id="-18678">
		<tag k="name" v="Rabbelva" />
		<tag k="ssr:stedsnr" v="452532" />
		<tag k="waterway" v="stream" />
	</node>
	<node lat="67.03526666597048" lon="15.373905545336777" id="-18679">
		<tag k="name" v="Langvadholmen" />
		<tag k="place" v="islet" />
		<tag k="ssr:stedsnr" v="452537" />
	</node>
	<node lat="67.12778888940478" lon="15.374788891452885" id="-18682">
		<tag k="name" v="Utelva" />
		<tag k="ssr:stedsnr" v="452675" />
		<tag k="waterway" v="stream" />
	</node>
	<node lat="67.08213333593004" lon="15.519291667220587" id="-18696">
		<tag k="alt_name" v="Fjosanesodden" />
		<tag k="name" v="Fjøsanesodden" />
		<tag k="natural" v="cape" />
		<tag k="ssr:stedsnr" v="452892" />
	</node>
	<node lat="66.96191666845971" lon="16.077294454693675" id="-18702">
		<tag k="name" v="Livggajávrásj" />
		<tag k="name:smj" v="Livggajávrásj" />
		<tag k="natural" v="water" />
		<tag k="old_name:smj" v="Divgajavraš" />
		<tag k="ssr:stedsnr" v="258864" />
	</node>
	<node lat="67.09307500073463" lon="15.453405557587471" id="-18706">
		<tag k="name" v="Reipelva" />
		<tag k="ssr:stedsnr" v="259826" />
		<tag k="waterway" v="stream" />
	</node>
	<node lat="66.78556666899368" lon="15.610330554880582" id="-18707">
		<tag k="loc_name:smj" v="Juŋkarjåhkå" />
		<tag k="name" v="Junkerdalselva" />
		<tag k="name:no" v="Junkerdalselva" />
		<tag k="ssr:stedsnr" v="259834" />
		<tag k="waterway" v="river" />
	</node>
	<node lat="66.79881666790293" lon="15.431038895580958" id="-18709">
		<tag k="alt_name" v="Skoltfossen" />
		<tag k="name" v="Skoltforsen" />
		<tag k="natural" v="waterfall" />
		<tag k="ssr:stedsnr" v="259851" />
	</node>
	<node lat="67.02602222165318" lon="15.32008611514644" id="-18710">
		<tag k="alt_name" v="Tverrelva, yt;Ner-Tverrelva" />
		<tag k="fixme" v="multiple name tags, choose one and add the other to alt_name" />
		<tag k="name" v="Tverrelv;Nertverrelva;Ytre Tverrelva" />
		<tag k="ssr:stedsnr" v="259858" />
		<tag k="waterway" v="river" />
	</node>
	<node lat="66.87509444860302" lon="15.828030547675935" id="-18712">
		<tag k="name" v="Hujtekjåhkå" />
		<tag k="name:smj" v="Hujtekjåhkå" />
		<tag k="old_name:smj" v="Huitejåkka" />
		<tag k="ssr:stedsnr" v="259861" />
		<tag k="waterway" v="stream" />
	</node>
	<node lat="66.8740055526208" lon="15.900483332766333" id="-18713">
		<tag k="name" v="Hujtekjávrásj" />
		<tag k="name:smj" v="Hujtekjávrásj" />
		<tag k="natural" v="water" />
		<tag k="old_name:smj" v="Huitekjavraš" />
		<tag k="ssr:stedsnr" v="259864" />
		<tag k="water" v="lake" />
	</node>
	<node lat="67.08429722697126" lon="15.389322212344432" id="-18720">
		<tag k="name" v="Osøyra" />
		<tag k="place" v="islet" />
		<tag k="ssr:stedsnr" v="270694" />
	</node>
	<node lat="67.09721944126707" lon="15.491241666928943" id="-18721">
		<tag k="name" v="Botnkrokvika" />
		<tag k="natural" v="bay" />
		<tag k="ssr:stedsnr" v="270872" />
	</node>
	<node lat="66.83296388940045" lon="15.348686121594266" id="-18725">
		<tag k="name" v="Masternesholmen" />
		<tag k="natural" v="cape" />
		<tag k="ssr:stedsnr" v="290114" />
	</node>
	<node lat="66.97933888463571" lon="15.937830558422226" id="-18728">
		<tag k="name" v="Naustbukta" />
		<tag k="natural" v="bay" />
		<tag k="ssr:stedsnr" v="290405" />
	</node>
	<node lat="67.15854721825586" lon="15.489549990227971" id="-18742">
		<tag k="alt_name" v="Grøtelva" />
		<tag k="name" v="Gøtelva" />
		<tag k="ssr:stedsnr" v="291008" />
		<tag k="waterway" v="river" />
	</node>
	<node lat="66.98993055162647" lon="15.379038888089797" id="-18750">
		<tag k="name" v="Svartvatnet" />
		<tag k="natural" v="water" />
		<tag k="ssr:stedsnr" v="319541" />
	</node>
	<node lat="66.99363888839756" lon="15.297761108307725" id="-18752">
		<tag k="alt_name" v="Dammen" />
		<tag k="name" v="Møllvatnet" />
		<tag k="natural" v="water" />
		<tag k="ssr:stedsnr" v="319550" />
	</node>
	<node lat="66.67465277783499" lon="15.321261107978076" id="-18755">
		<tag k="alt_name" v="Navnlauselva" />
		<tag k="name" v="Namnlauselva" />
		<tag k="ssr:stedsnr" v="319598" />
		<tag k="waterway" v="river" />
	</node>
	<node lat="67.06652499919979" lon="15.414516669251011" id="-18760">
		<tag k="name" v="Rundvatnet" />
		<tag k="natural" v="water" />
		<tag k="ssr:stedsnr" v="319806" />
	</node>
	<node lat="67.03938333286058" lon="15.677086120022707" id="-18761">
		<tag k="alt_name" v="Knallerdalsvatnet, øvre" />
		<tag k="name" v="Øvre Knallerdalsvatnet" />
		<tag k="natural" v="water" />
		<tag k="ssr:stedsnr" v="319811" />
	</node>
	<node lat="66.97712777466772" lon="15.630438898281632" id="-18767">
		<tag k="name" v="Daudvatnet" />
		<tag k="natural" v="water" />
		<tag k="ssr:stedsnr" v="320693" />
		<tag k="water" v="lake" />
	</node>
	<node lat="66.95865277539133" lon="15.25305556301602" id="-18769">
		<tag k="alt_name" v="Vatnet" />
		<tag k="name" v="Litlallmenningsvatnet" />
		<tag k="natural" v="water" />
		<tag k="old_name" v="Litlvatnet" />
		<tag k="ssr:stedsnr" v="320705" />
	</node>
	<node lat="67.09914722062534" lon="15.599119449243066" id="-18773">
		<tag k="name" v="Henrikdalsvatnet" />
		<tag k="natural" v="water" />
		<tag k="ssr:stedsnr" v="320795" />
	</node>
	<node lat="66.88025833390401" lon="15.32533888959585" id="-18776">
		<tag k="name" v="Nupvatnet" />
		<tag k="natural" v="water" />
		<tag k="ssr:stedsnr" v="331601" />
	</node>
	<node lat="67.09290833405063" lon="15.523908337875556" id="-18787">
		<tag k="name" v="Ørnes" />
		<tag k="natural" v="cape" />
		<tag k="ssr:stedsnr" v="331902" />
	</node>
	<node lat="67.09399999988456" lon="15.505861108772939" id="-18788">
		<tag k="name" v="Kråkneset" />
		<tag k="natural" v="cape" />
		<tag k="ssr:stedsnr" v="331904" />
	</node>
	<node lat="66.97423333707546" lon="15.99952499755787" id="-18811">
		<tag k="name" v="Kvebilok" />
		<tag k="natural" v="bay" />
		<tag k="ssr:stedsnr" v="472435" />
	</node>
	<node lat="66.95892221911575" lon="16.04323055469184" id="-18812">
		<tag k="name" v="Stor-Grensevatnet" />
		<tag k="natural" v="water" />
		<tag k="ssr:stedsnr" v="472439" />
		<tag k="water" v="lake" />
	</node>
	<node lat="66.83574722566391" lon="15.027738889568493" id="-18813">
		<tag k="name" v="Hestbekken" />
		<tag k="ssr:stedsnr" v="472443" />
		<tag k="waterway" v="stream" />
	</node>
	<node lat="66.79431944191306" lon="15.016866666247227" id="-18814">
		<tag k="name" v="Sørenden" />
		<tag k="natural" v="bay" />
		<tag k="ssr:stedsnr" v="472449" />
	</node>
	<node lat="66.97715000358671" lon="15.42054166458872" id="-18821">
		<tag k="name" v="Mariakselielva" />
		<tag k="ssr:stedsnr" v="472653" />
		<tag k="waterway" v="river" />
	</node>
	<node lat="67.1983000029157" lon="15.509483330540863" id="-18822">
		<tag k="name" v="Grytvikvassholmen" />
		<tag k="natural" v="cape" />
		<tag k="ssr:stedsnr" v="472739" />
	</node>
	<node lat="66.96818611211407" lon="15.366486103525709" id="-18823">
		<tag k="name" v="Pe-Villumsoneset" />
		<tag k="natural" v="cape" />
		<tag k="ssr:stedsnr" v="472776" />
	</node>
	<node lat="66.96029444230223" lon="15.374191659870295" id="-18827">
		<tag k="name" v="Førsneset" />
		<tag k="natural" v="cape" />
		<tag k="ssr:stedsnr" v="472797" />
	</node>
	<node lat="66.81862499691155" lon="15.554433333297872" id="-18833">
		<tag k="name" v="Skoglinosen" />
		<tag k="natural" v="bay" />
		<tag k="ssr:stedsnr" v="473227" />
	</node>
	<node lat="66.7997944423901" lon="15.431777770598288" id="-18839">
		<tag k="name" v="Skoltneset" />
		<tag k="natural" v="cape" />
		<tag k="ssr:stedsnr" v="350016" />
	</node>
	<node lat="66.841763887205" lon="15.32507499019876" id="-18845">
		<tag k="name" v="Strokhøla" />
		<tag k="place" v="locality" />
		<tag k="ssr:stedsnr" v="351111" />
	</node>
	<node lat="67.03486944316582" lon="16.04998056064683" id="-18853">
		<tag k="name" v="Syrvassbekken" />
		<tag k="ssr:stedsnr" v="351468" />
		<tag k="waterway" v="stream" />
	</node>
	<node lat="67.01736944570196" lon="15.939349989696002" id="-18864">
		<tag k="alt_name" v="Daudvatnet, øvre" />
		<tag k="name" v="Øver-Dauvannet" />
		<tag k="natural" v="water" />
		<tag k="ssr:stedsnr" v="380181" />
	</node>
	<node lat="67.02167499675456" lon="16.02535554520414" id="-18865">
		<tag k="name" v="Doarroelva - Doarrojåhkå" />
		<tag k="name:no" v="Doarroelva" />
		<tag k="name:smj" v="Doarrojåhkå" />
		<tag k="old_name:smj" v="Doarrojohka" />
		<tag k="ssr:stedsnr" v="380185" />
		<tag k="waterway" v="river" />
	</node>
	<node lat="66.66126944601524" lon="15.200927780714311" id="-18866">
		<tag k="name" v="Semskelva" />
		<tag k="ssr:stedsnr" v="380583" />
		<tag k="waterway" v="river" />
	</node>
	<node lat="66.8180027751042" lon="15.484361120691647" id="-18867">
		<tag k="name" v="Gamheibekken" />
		<tag k="ssr:stedsnr" v="380704" />
		<tag k="waterway" v="stream" />
	</node>
	<node lat="66.90965278049534" lon="15.361536103787076" id="-18870">
		<tag k="loc_name:smj" v="Sájddejávrre" />
		<tag k="name" v="Seidivatnet" />
		<tag k="name:no" v="Seidivatnet" />
		<tag k="natural" v="water" />
		<tag k="ssr:stedsnr" v="380665" />
	</node>
	<node lat="66.89352777548928" lon="15.396977776992008" id="-18872">
		<tag k="alt_name" v="Tielmmvatnan" />
		<tag k="fixme" v="multiple name tags, choose one and add the other to alt_name" />
		<tag k="name" v="Jaktvatnan;Tjelmavatna" />
		<tag k="natural" v="water" />
		<tag k="ssr:stedsnr" v="380675" />
	</node>
	<node lat="66.86652222654905" lon="15.360419439036537" id="-18875">
		<tag k="name" v="Utpålivatnet" />
		<tag k="natural" v="water" />
		<tag k="ssr:stedsnr" v="380683" />
	</node>
	<node lat="66.97315555131634" lon="15.376561112437443" id="-18876">
		<tag k="loc_name:smj" v="Vássajåhkå" />
		<tag k="name" v="Vasselva" />
		<tag k="name:no" v="Vasselva" />
		<tag k="ssr:stedsnr" v="380777" />
		<tag k="waterway" v="river" />
	</node>
	<node lat="66.9623222224672" lon="16.001569449071216" id="-18882">
		<tag k="name" v="Vuohppeluoktajávrásj" />
		<tag k="name:smj" v="Vuohppeluoktajávrásj" />
		<tag k="natural" v="water" />
		<tag k="old_name:smj" v="Vuoppiluoktajavraš" />
		<tag k="ssr:stedsnr" v="380862" />
	</node>
	<node lat="66.96031388927716" lon="15.874124990501953" id="-18883">
		<tag k="alt_name" v="Fuglvassodden" />
		<tag k="name" v="Reinskillingsodden" />
		<tag k="natural" v="cape" />
		<tag k="ssr:stedsnr" v="380867" />
	</node>
	<node lat="66.98588611024064" lon="15.4013861165893" id="-18884">
		<tag k="name" v="Notneselva" />
		<tag k="ssr:stedsnr" v="384308" />
		<tag k="waterway" v="stream" />
	</node>
	<node lat="66.93970833764192" lon="15.14003610947296" id="-18890">
		<tag k="name" v="Rypelva" />
		<tag k="ssr:stedsnr" v="391311" />
		<tag k="waterway" v="stream" />
	</node>
	<node lat="66.7609722208177" lon="15.414113891571596" id="-18903">
		<tag k="name" v="Sundet" />
		<tag k="natural" v="strait" />
		<tag k="ssr:stedsnr" v="411400" />
	</node>
	<node lat="66.96191666938219" lon="15.143877782967364" id="-18927">
		<tag k="name" v="Skjevlfjellbekken" />
		<tag k="ssr:stedsnr" v="441600" />
		<tag k="waterway" v="stream" />
	</node>
	<node lat="66.98139722567188" lon="15.709177776914991" id="-18928">
		<tag k="name" v="Langvatnet" />
		<tag k="natural" v="water" />
		<tag k="ssr:stedsnr" v="441705" />
	</node>
	<node lat="66.98140277833913" lon="15.515636100528235" id="-18929">
		<tag k="name" v="Tverrbekken" />
		<tag k="ssr:stedsnr" v="441708" />
		<tag k="waterway" v="stream" />
	</node>
	<node lat="66.94556389150718" lon="15.27011665840725" id="-18932">
		<tag k="name" v="Litlelva" />
		<tag k="ssr:stedsnr" v="441733" />
		<tag k="waterway" v="stream" />
	</node>
	<node lat="67.06778888886384" lon="15.245730563616412" id="-18937">
		<tag k="name" v="Svartvatnet" />
		<tag k="natural" v="water" />
		<tag k="ssr:stedsnr" v="441816" />
	</node>
	<node lat="66.7919611085802" lon="15.454372213316583" id="-18938">
		<tag k="name" v="Heimervatnet" />
		<tag k="natural" v="water" />
		<tag k="ssr:stedsnr" v="441854" />
	</node>
	<node lat="67.11030833024773" lon="15.35935832721797" id="-18946">
		<tag k="name" v="Vikelva" />
		<tag k="ssr:stedsnr" v="441790" />
		<tag k="waterway" v="river" />
	</node>
	<node lat="67.15186666756884" lon="15.518525006478741" id="-18948">
		<tag k="name" v="Rundvatnet" />
		<tag k="natural" v="water" />
		<tag k="ssr:stedsnr" v="442000" />
	</node>
	<node lat="66.93691666294798" lon="15.312775000343724" id="-18951">
		<tag k="name" v="Stolpholmen" />
		<tag k="natural" v="cape" />
		<tag k="ssr:stedsnr" v="452603" />
	</node>
	<node lat="66.88267777543444" lon="15.335480560888994" id="-18954">
		<tag k="name" v="Ytter-Slettfjellvatnet" />
		<tag k="natural" v="water" />
		<tag k="ssr:stedsnr" v="452618" />
	</node>
	<node lat="66.88632777888331" lon="15.347519455064939" id="-18956">
		<tag k="name" v="Standerdalvatnet" />
		<tag k="natural" v="water" />
		<tag k="ssr:stedsnr" v="452625" />
	</node>
	<node lat="67.16751944377893" lon="15.49810555227147" id="-18968">
		<tag k="name" v="Åneneset" />
		<tag k="natural" v="cape" />
		<tag k="ssr:stedsnr" v="471025" />
	</node>
	<node lat="66.94465000101309" lon="15.438352777497592" id="-18971">
		<tag k="name" v="Vøttelva" />
		<tag k="ssr:stedsnr" v="472006" />
		<tag k="waterway" v="stream" />
	</node>
	<node lat="67.14185833539017" lon="15.247358345038494" id="-18976">
		<tag k="name" v="Forselva" />
		<tag k="ssr:stedsnr" v="472082" />
		<tag k="waterway" v="river" />
	</node>
	<node lat="66.8993722198026" lon="15.370197230913837" id="-18979">
		<tag k="name" v="Krokvassbekken" />
		<tag k="ssr:stedsnr" v="472174" />
		<tag k="waterway" v="stream" />
	</node>
	<node lat="66.8211583341652" lon="15.059716660705467" id="-18985">
		<tag k="name" v="Jordkjelda" />
		<tag k="natural" v="spring" />
		<tag k="ssr:stedsnr" v="472413" />
	</node>
	<node lat="66.93360555284572" lon="15.539536106745109" id="-18986">
		<tag k="fixme" v="multiple name tags, choose one and add the other to alt_name" />
		<tag k="name" v="Rotbekken;Rotlabekken" />
		<tag k="ssr:stedsnr" v="472471" />
		<tag k="waterway" v="stream" />
	</node>
	<node lat="67.014641666728" lon="15.475941664096482" id="-18990">
		<tag k="name" v="Øvervatnet" />
		<tag k="natural" v="water" />
		<tag k="ssr:stedsnr" v="472560" />
		<tag k="water" v="lake" />
	</node>
	<node lat="66.79409721948149" lon="15.597827785323378" id="-18992">
		<tag k="name" v="Tjårrisholmen" />
		<tag k="place" v="islet" />
		<tag k="ssr:stedsnr" v="473063" />
	</node>
	<node lat="67.05561666921894" lon="15.938291655644244" id="-18999">
		<tag k="name" v="Beritelva - Bieritjåhkå" />
		<tag k="name:no" v="Beritelva" />
		<tag k="name:smj" v="Bieritjåhkå" />
		<tag k="old_name:smj" v="Biretjohka" />
		<tag k="ssr:stedsnr" v="501186" />
		<tag k="waterway" v="river" />
	</node>
	<node lat="67.02719444213884" lon="16.03621665854009" id="-19000">
		<tag k="name" v="Syrvassbekken" />
		<tag k="ssr:stedsnr" v="501187" />
		<tag k="waterway" v="stream" />
	</node>
	<node lat="66.74055000289907" lon="15.760061106210316" id="-19001">
		<tag k="name" v="Graddiselva - Gráddasjåhkå" />
		<tag k="name:no" v="Graddiselva" />
		<tag k="name:smj" v="Gráddasjåhkå" />
		<tag k="ssr:stedsnr" v="501604" />
		<tag k="waterway" v="river" />
	</node>
	<node lat="66.73818611421805" lon="15.730630555645583" id="-19002">
		<tag k="name" v="Ytterbekken" />
		<tag k="ssr:stedsnr" v="501607" />
		<tag k="waterway" v="stream" />
	</node>
	<node lat="66.90392777333005" lon="15.389544451060852" id="-19003">
		<tag k="fixme" v="multiple name tags, choose one and add the other to alt_name" />
		<tag k="name" v="Kjåltelivatnet;Tjoaltalivatnet" />
		<tag k="natural" v="water" />
		<tag k="ssr:stedsnr" v="501608" />
	</node>
	<node lat="66.818088890186" lon="15.546969447427742" id="-19007">
		<tag k="name" v="Storneset" />
		<tag k="natural" v="cape" />
		<tag k="ssr:stedsnr" v="501650" />
	</node>
	<node lat="66.89477222361994" lon="15.253608328074817" id="-19009">
		<tag k="alt_name" v="Littjelva" />
		<tag k="name" v="Litlelva" />
		<tag k="ssr:stedsnr" v="501740" />
		<tag k="waterway" v="stream" />
	</node>
	<node lat="66.90879999926244" lon="15.924769453029441" id="-19013">
		<tag k="name" v="Dábttjajågåsj" />
		<tag k="name:smj" v="Dábttjajågåsj" />
		<tag k="old_name:smj" v="Dabžajågaš" />
		<tag k="ssr:stedsnr" v="501829" />
		<tag k="waterway" v="river" />
	</node>
	<node lat="67.01602222103811" lon="15.200594438071432" id="-19015">
		<tag k="alt_name" v="Hundhaugvatnet" />
		<tag k="name" v="Hundhågvatnet" />
		<tag k="natural" v="water" />
		<tag k="ssr:stedsnr" v="501899" />
	</node>
	<node lat="67.07931388975221" lon="15.712294434494241" id="-19016">
		<tag k="alt_name" v="Akselskardvatnet" />
		<tag k="name" v="Ner-Akselskarvatnet" />
		<tag k="natural" v="water" />
		<tag k="ssr:stedsnr" v="501782" />
		<tag k="water" v="lake" />
	</node>
	<node lat="67.07310555166714" lon="15.262866670345481" id="-19017">
		<tag k="name" v="Langvatnet" />
		<tag k="natural" v="water" />
		<tag k="ssr:stedsnr" v="501783" />
	</node>
	<node lat="67.15610278252929" lon="15.505955547546636" id="-19023">
		<tag k="name" v="Litleelva" />
		<tag k="ssr:stedsnr" v="501992" />
		<tag k="waterway" v="stream" />
	</node>
	<node lat="66.95213889126727" lon="15.33927778121777" id="-19026">
		<tag k="name" v="Litlvatnet" />
		<tag k="natural" v="water" />
		<tag k="old_name" v="Litlallmenningsvatnet" />
		<tag k="ssr:stedsnr" v="502727" />
	</node>
	<node lat="66.89785277451729" lon="15.107661116657676" id="-19038">
		<tag k="loc_name:smj" v="Gierkkebánjåhkå" />
		<tag k="name" v="Hessihompelva" />
		<tag k="name:no" v="Hessihompelva" />
		<tag k="ssr:stedsnr" v="683494" />
		<tag k="waterway" v="river" />
	</node>
	<node lat="66.74079444695232" lon="15.606911104256882" id="-19040">
		<tag k="alt_name:no" v="Viskisvatnet, austre;Øver-Viskisvatnet" />
		<tag k="name" v="Austre Viskisvatnet" />
		<tag k="name:no" v="Austre Viskisvatnet" />
		<tag k="name:smj" v="Lulep Visskisjávrre" />
		<tag k="natural" v="water" />
		<tag k="ssr:stedsnr" v="683564" />
		<tag k="water" v="lake" />
	</node>
	<node lat="66.79976110777731" lon="15.523972224794088" id="-19042">
		<tag k="name" v="Birivatnet" />
		<tag k="natural" v="water" />
		<tag k="ssr:stedsnr" v="513188" />
	</node>
	<node lat="66.92150555406499" lon="15.095330554007669" id="-19044">
		<tag k="name" v="Kvassteinvatna" />
		<tag k="natural" v="water" />
		<tag k="ssr:stedsnr" v="683591" />
		<tag k="water" v="lake" />
	</node>
	<node lat="67.01665833682247" lon="15.275694453221492" id="-19046">
		<tag k="name" v="Kneppelinvatnet" />
		<tag k="natural" v="water" />
		<tag k="ssr:stedsnr" v="513566" />
		<tag k="water" v="pond" />
	</node>
	<node lat="66.99609722260982" lon="15.369808324259752" id="-19050">
		<tag k="alt_name" v="Krykkvatnet" />
		<tag k="name" v="Krykkjovatnet" />
		<tag k="natural" v="water" />
		<tag k="ssr:stedsnr" v="683521" />
	</node>
	<node lat="66.98969444770765" lon="15.486897217280157" id="-19061">
		<tag k="name" v="Einarelva" />
		<tag k="ssr:stedsnr" v="683680" />
		<tag k="waterway" v="river" />
	</node>
	<node lat="66.99444999638042" lon="15.921744451138498" id="-19065">
		<tag k="name" v="Jámekjávrásj" />
		<tag k="name:smj" v="Jámekjávrásj" />
		<tag k="natural" v="water" />
		<tag k="old_name:smj" v="Jæmekjavraš" />
		<tag k="ssr:stedsnr" v="683791" />
	</node>
	<node lat="67.07231666613232" lon="15.543508323420886" id="-19068">
		<tag k="fixme" v="multiple name tags, choose one and add the other to alt_name" />
		<tag k="name" v="Knallerdalselva;Ner-Knallerdalelva" />
		<tag k="ssr:stedsnr" v="683797" />
		<tag k="waterway" v="river" />
	</node>
	<node lat="67.007861106504" lon="15.491300003920422" id="-19069">
		<tag k="name" v="Tverrelva" />
		<tag k="ssr:stedsnr" v="683815" />
		<tag k="waterway" v="stream" />
	</node>
	<node lat="66.8132500030245" lon="15.817202786901028" id="-19071">
		<tag k="name" v="Tausafjellvatna - Devssajávrre" />
		<tag k="name:no" v="Tausafjellvatna" />
		<tag k="name:smj" v="Devssajávrre" />
		<tag k="natural" v="water" />
		<tag k="old_name:smj" v="Tevsajavri" />
		<tag k="ssr:stedsnr" v="683822" />
		<tag k="water" v="lake" />
	</node>
	<node lat="66.90370000385785" lon="15.85799722597407" id="-19074">
		<tag k="name" v="Plássakjåhkå" />
		<tag k="name:smj" v="Plássakjåhkå" />
		<tag k="old_name:smj" v="Plassakjåkka" />
		<tag k="ssr:stedsnr" v="683832" />
		<tag k="waterway" v="stream" />
	</node>
	<node lat="66.96470833303864" lon="15.834983336305777" id="-19075">
		<tag k="loc_name:smj" v="Boahttsunjárgga" />
		<tag k="name" v="Reinneset" />
		<tag k="name:no" v="Reinneset" />
		<tag k="natural" v="cape" />
		<tag k="ssr:stedsnr" v="683849" />
	</node>
	<node lat="67.00778889146186" lon="16.065583335795996" id="-19076">
		<tag k="fixme" v="multiple name:no tags, choose one and add the other to alt_name:no" />
		<tag k="name" v="Vuolep Doarrojávrre" />
		<tag k="name:no" v="Doarrovatnet, nedre;Nedre Doarrovatnet;Litj-Dorro" />
		<tag k="name:smj" v="Vuolep Doarrojávrre" />
		<tag k="natural" v="water" />
		<tag k="old_name:smj" v="Doarrojávri vuolit;Doarrojávrre" />
		<tag k="ssr:stedsnr" v="684182" />
		<tag k="water" v="lake" />
	</node>
	<node lat="67.09789999921004" lon="15.485552781146168" id="-19086">
		<tag k="alt_name" v="Lisjvatnet" />
		<tag k="name" v="Litlevatnet" />
		<tag k="natural" v="water" />
		<tag k="ssr:stedsnr" v="684791" />
	</node>
	<node lat="67.00800555282217" lon="15.841641654930585" id="-19103">
		<tag k="name" v="Paulsenbukta" />
		<tag k="natural" v="bay" />
		<tag k="ssr:stedsnr" v="533471" />
	</node>
	<node lat="66.78718888718143" lon="15.704830556252652" id="-19131">
		<tag k="name" v="Sagbekken" />
		<tag k="ssr:stedsnr" v="573799" />
		<tag k="waterway" v="stream" />
	</node>
	<node lat="67.09024721861617" lon="15.511063896989109" id="-19146">
		<tag k="name" v="Breivikneset" />
		<tag k="natural" v="cape" />
		<tag k="ssr:stedsnr" v="695885" />
	</node>
	<node lat="66.82877777363865" lon="15.358330558246545" id="-19154">
		<tag k="name" v="Borhalosen" />
		<tag k="natural" v="bay" />
		<tag k="ssr:stedsnr" v="593073" />
	</node>
	<node lat="66.83713055349541" lon="15.349219444239944" id="-19161">
		<tag k="name" v="Littjelva" />
		<tag k="ssr:stedsnr" v="594115" />
		<tag k="waterway" v="stream" />
	</node>
	<node lat="67.1600055511368" lon="15.622369453973825" id="-19163">
		<tag k="name" v="Forsen" />
		<tag k="natural" v="waterfall" />
		<tag k="ssr:stedsnr" v="594122" />
	</node>
	<node lat="67.09553889222927" lon="15.744616675802591" id="-19167">
		<tag k="alt_name" v="Storforsvatnet, øvre" />
		<tag k="name" v="Øver-Storforsvatnet" />
		<tag k="natural" v="water" />
		<tag k="ssr:stedsnr" v="622223" />
		<tag k="water" v="lake" />
	</node>
	<node lat="66.75843610895295" lon="15.817655563041777" id="-19176">
		<tag k="name" v="Grensebekken" />
		<tag k="ssr:stedsnr" v="622818" />
		<tag k="waterway" v="stream" />
	</node>
	<node lat="67.02871110858486" lon="15.205452765719174" id="-19179">
		<tag k="alt_name" v="Gullurdvatnet" />
		<tag k="name" v="Gullurvatnet" />
		<tag k="natural" v="water" />
		<tag k="ssr:stedsnr" v="622906" />
	</node>
	<node lat="67.19457499736976" lon="15.55200554714707" id="-19180">
		<tag k="name" v="Langvatnet" />
		<tag k="natural" v="water" />
		<tag k="ssr:stedsnr" v="622969" />
	</node>
	<node lat="66.98022499717209" lon="15.427466655972248" id="-19182">
		<tag k="loc_name:smj" v="Vássajávrre" />
		<tag k="name" v="Vassbotnvatnet" />
		<tag k="name:no" v="Vassbotnvatnet" />
		<tag k="natural" v="water" />
		<tag k="ssr:stedsnr" v="623720" />
		<tag k="water" v="lake" />
	</node>
	<node lat="66.80067500175431" lon="15.317741677878642" id="-19184">
		<tag k="name" v="Rotelva" />
		<tag k="ssr:stedsnr" v="623868" />
		<tag k="waterway" v="stream" />
	</node>
	<node lat="67.02858055716003" lon="15.309508332906711" id="-19193">
		<tag k="name" v="Dammen" />
		<tag k="natural" v="water" />
		<tag k="ssr:stedsnr" v="634587" />
		<tag k="water" v="lake" />
	</node>
	<node lat="67.09700555161466" lon="15.498525009953225" id="-19197">
		<tag k="name" v="Søndagsneset" />
		<tag k="natural" v="cape" />
		<tag k="ssr:stedsnr" v="634911" />
	</node>
	<node lat="66.93581666863771" lon="15.377011111452019" id="-19204">
		<tag k="name" v="Kvanndalbekken" />
		<tag k="ssr:stedsnr" v="654035" />
		<tag k="waterway" v="stream" />
	</node>
	<node lat="66.96580277788509" lon="15.36881110212719" id="-19214">
		<tag k="name" v="Innernesholman" />
		<tag k="place" v="islet" />
		<tag k="ssr:stedsnr" v="654796" />
	</node>
	<node lat="66.8164500041113" lon="15.537824998787222" id="-19217">
		<tag k="name" v="Bøverosen" />
		<tag k="natural" v="bay" />
		<tag k="ssr:stedsnr" v="655203" />
	</node>
	<node lat="67.10044999752729" lon="15.307422218561957" id="-19229">
		<tag k="name" v="Storåga" />
		<tag k="ssr:stedsnr" v="683120" />
		<tag k="waterway" v="river" />
	</node>
	<node lat="67.19679444699979" lon="15.512980560529684" id="-19237">
		<tag k="name" v="Grytvikvatnet" />
		<tag k="natural" v="water" />
		<tag k="ssr:stedsnr" v="683969" />
	</node>
	<node lat="67.00759721846121" lon="16.218500002747515" id="-19238">
		<tag k="alt_name:no" v="Mellomvatnet" />
		<tag k="name" v="Mellavatnet - Gasskajávrre" />
		<tag k="name:no" v="Mellavatnet" />
		<tag k="name:smj" v="Gasskajávrre" />
		<tag k="natural" v="water" />
		<tag k="old_name:smj" v="Gaskajávri" />
		<tag k="ssr:stedsnr" v="684165" />
		<tag k="water" v="lake" />
	</node>
	<node lat="66.94898055403004" lon="15.377069448196767" id="-19243">
		<tag k="fixme" v="multiple name tags, choose one and add the other to alt_name" />
		<tag k="name" v="Kvanndalfors;Andersfossen" />
		<tag k="natural" v="waterfall" />
		<tag k="ssr:stedsnr" v="684721" />
	</node>
	<node lat="66.76712500172698" lon="15.667413888597077" id="-19256">
		<tag k="name" v="Elvmøtan" />
		<tag k="place" v="locality" />
		<tag k="ssr:stedsnr" v="695805" />
	</node>
	<node lat="67.13632499662147" lon="15.240447232178246" id="-19268">
		<tag k="name" v="Tjønna" />
		<tag k="natural" v="water" />
		<tag k="ssr:stedsnr" v="897083" />
	</node>
	<node lat="66.84233611055035" lon="15.521588899194397" id="-19269">
		<tag k="name" v="Forsen" />
		<tag k="natural" v="waterfall" />
		<tag k="ssr:stedsnr" v="897101" />
	</node>
	<node lat="67.05720555738739" lon="15.543152768198427" id="-19270">
		<tag k="name" v="Gleinen" />
		<tag k="ssr:stedsnr" v="897360" />
		<tag k="waterway" v="stream" />
	</node>
	<node lat="67.1542305543484" lon="15.503738883912105" id="-19294">
		<tag k="name" v="Nilsvatnet" />
		<tag k="natural" v="water" />
		<tag k="ssr:stedsnr" v="715017" />
	</node>
	<node lat="67.04323611510138" lon="15.439155550344077" id="-19305">
		<tag k="name" v="Stillvatnet" />
		<tag k="natural" v="water" />
		<tag k="ssr:stedsnr" v="715390" />
		<tag k="water" v="lake" />
	</node>
	<node lat="66.69190000075245" lon="15.559422224803297" id="-19319">
		<tag k="name" v="Dibunjåhkå" />
		<tag k="name:no" v="Dypenåga" />
		<tag k="name:smj" v="Dibunjåhkå" />
		<tag k="old_name:smj" v="Dibonjåkka" />
		<tag k="ssr:stedsnr" v="744573" />
		<tag k="waterway" v="river" />
	</node>
	<node lat="66.88831666665398" lon="15.23193888956267" id="-19320">
		<tag k="alt_name" v="Mølnelva" />
		<tag k="fixme" v="multiple name tags, choose one and add the other to alt_name" />
		<tag k="name" v="Mølleelva;Sagelva" />
		<tag k="ssr:stedsnr" v="744603" />
		<tag k="waterway" v="stream" />
	</node>
	<node lat="67.06619444213659" lon="15.260511112623005" id="-19324">
		<tag k="name" v="Ingeborgvatnet" />
		<tag k="natural" v="water" />
		<tag k="ssr:stedsnr" v="744806" />
	</node>
	<node lat="66.80462778011174" lon="15.638405546393562" id="-19327">
		<tag k="name" v="Tjårriselva - Tjåresjåhkå" />
		<tag k="name:no" v="Tjårriselva" />
		<tag k="name:smj" v="Tjåresjåhkå" />
		<tag k="old_name:smj" v="Čåresjåkka" />
		<tag k="ssr:stedsnr" v="744815" />
		<tag k="waterway" v="river" />
	</node>
	<node lat="66.81167499530792" lon="15.694372227773517" id="-19329">
		<tag k="alt_name:no" v="Skajddeelva" />
		<tag k="alt_name:smj" v="Skájddejåhkå;Skajddejåhkå" />
		<tag k="name" v="Skaitielva - Skiejddejåhkå" />
		<tag k="name:no" v="Skaitielva" />
		<tag k="name:smj" v="Skiejddejåhkå" />
		<tag k="old_name:smj" v="Skieidijåkka;Skiejdejåhkå" />
		<tag k="ssr:stedsnr" v="744825" />
		<tag k="waterway" v="river" />
	</node>
	<node lat="67.08125277729063" lon="15.578008337066228" id="-19332">
		<tag k="name" v="Hestgjerdvatnan" />
		<tag k="natural" v="water" />
		<tag k="ssr:stedsnr" v="744781" />
	</node>
	<node lat="67.02586667108609" lon="15.270047222049003" id="-19345">
		<tag k="name" v="Littjkvanntovatnet" />
		<tag k="natural" v="water" />
		<tag k="ssr:stedsnr" v="755549" />
	</node>
	<node lat="66.89464722470107" lon="15.357180547137457" id="-19362">
		<tag k="name" v="Bleikneselva" />
		<tag k="ssr:stedsnr" v="776170" />
		<tag k="waterway" v="stream" />
	</node>
	<node lat="66.83704444289388" lon="15.343075006322001" id="-19369">
		<tag k="name" v="Båtneset" />
		<tag k="natural" v="cape" />
		<tag k="ssr:stedsnr" v="776101" />
	</node>
	<node lat="66.954822225871" lon="15.446261104644885" id="-19382">
		<tag k="name" v="Littjvatnet" />
		<tag k="natural" v="water" />
		<tag k="ssr:stedsnr" v="776841" />
	</node>
	<node lat="66.96782499766853" lon="15.288294451579702" id="-19388">
		<tag k="name" v="Ångrøva" />
		<tag k="ssr:stedsnr" v="816615" />
		<tag k="waterway" v="stream" />
	</node>
	<node lat="66.91630833430182" lon="15.321352783431717" id="-19392">
		<tag k="name" v="Knagholmen" />
		<tag k="natural" v="cape" />
		<tag k="ssr:stedsnr" v="816623" />
	</node>
	<node lat="66.99806110975311" lon="15.342019443172774" id="-19403">
		<tag k="name" v="Ågholmen" />
		<tag k="place" v="islet" />
		<tag k="ssr:stedsnr" v="816782" />
	</node>
	<node lat="66.82058611451818" lon="15.378230545032817" id="-19406">
		<tag k="name" v="Littjneset" />
		<tag k="natural" v="cape" />
		<tag k="ssr:stedsnr" v="816875" />
	</node>
	<node lat="66.88529721869016" lon="15.399324992581985" id="-19413">
		<tag k="name" v="Tielmmvatnan" />
		<tag k="natural" v="water" />
		<tag k="ssr:stedsnr" v="837108" />
		<tag k="water" v="lake" />
	</node>
	<node lat="67.05830000123932" lon="15.526174994661684" id="-19421">
		<tag k="name" v="Gleinen" />
		<tag k="ssr:stedsnr" v="837382" />
		<tag k="waterway" v="stream" />
	</node>
	<node lat="66.83499722009786" lon="15.083719452196716" id="-19424">
		<tag k="name" v="Unna-Siergasj" />
		<tag k="ssr:stedsnr" v="837437" />
		<tag k="waterway" v="stream" />
	</node>
	<node lat="66.83321110792741" lon="15.072736119312538" id="-19425">
		<tag k="name" v="Sierga" />
		<tag k="ssr:stedsnr" v="837439" />
		<tag k="waterway" v="river" />
	</node>
	<node lat="66.83783889043706" lon="15.076586121880112" id="-19426">
		<tag k="name" v="Littj Siergga" />
		<tag k="ssr:stedsnr" v="837441" />
		<tag k="waterway" v="river" />
	</node>
	<node lat="67.0316055563421" lon="15.451327774432704" id="-19427">
		<tag k="name" v="Tjønna" />
		<tag k="natural" v="water" />
		<tag k="ssr:stedsnr" v="837482" />
	</node>
	<node lat="66.87251110846627" lon="15.294250009440177" id="-19434">
		<tag k="alt_name:no" v="Saltdalselva" />
		<tag k="loc_name:smj" v="Sálatædno" />
		<tag k="name" v="Saltelva" />
		<tag k="name:no" v="Saltelva" />
		<tag k="ssr:stedsnr" v="926633" />
		<tag k="waterway" v="river" />
	</node>
	<node lat="67.018263888891" lon="15.404294435977736" id="-19441">
		<tag k="alt_name" v="Tinngrøvvatnet" />
		<tag k="name" v="Tindgrovvatnet" />
		<tag k="natural" v="water" />
		<tag k="ssr:stedsnr" v="926831" />
	</node>
	<node lat="66.83286944030587" lon="15.442697231223736" id="-19444">
		<tag k="alt_name" v="Traktelva, ytter" />
		<tag k="fixme" v="multiple name tags, choose one and add the other to alt_name" />
		<tag k="name" v="Yttertrektelva;Ytter Traktelva" />
		<tag k="ssr:stedsnr" v="926654" />
		<tag k="waterway" v="stream" />
	</node>
	<node lat="66.9215861143887" lon="15.57949444544648" id="-19446">
		<tag k="name" v="Tverrelva" />
		<tag k="ssr:stedsnr" v="926741" />
		<tag k="waterway" v="stream" />
	</node>
	<node lat="66.84578055890309" lon="15.85413888494989" id="-19449">
		<tag k="name" v="Arggalájjåhkå" />
		<tag k="name:smj" v="Arggalájjåhkå" />
		<tag k="old_name:smj" v="Argalaijåkka" />
		<tag k="ssr:stedsnr" v="926840" />
		<tag k="waterway" v="river" />
	</node>
	<node lat="67.03206111375084" lon="15.676358330050935" id="-19450">
		<tag k="name" v="Tjårokjåhkå" />
		<tag k="name:smj" v="Tjårokjåhkå" />
		<tag k="old_name:smj" v="Čorutjohka" />
		<tag k="ssr:stedsnr" v="926846" />
		<tag k="waterway" v="stream" />
	</node>
	<node lat="67.1383444436972" lon="15.326380545696479" id="-19453">
		<tag k="name" v="Tverrelva" />
		<tag k="ssr:stedsnr" v="926997" />
		<tag k="waterway" v="stream" />
	</node>
	<node lat="67.09715555714799" lon="15.559319443406157" id="-19461">
		<tag k="name" v="Loppenvatnet" />
		<tag k="natural" v="water" />
		<tag k="ssr:stedsnr" v="927787" />
	</node>
	<node lat="66.78715277455419" lon="15.229916675573394" id="-19463">
		<tag k="name" v="Ørvatnet - Uvbájávrre" />
		<tag k="name:no" v="Ørvatnet" />
		<tag k="name:smj" v="Uvbájávrre" />
		<tag k="natural" v="water" />
		<tag k="old_name:smj" v="Uvbajavri" />
		<tag k="ssr:stedsnr" v="927849" />
		<tag k="water" v="lake" />
	</node>
	<node lat="66.89362221844841" lon="15.712458321125679" id="-19464">
		<tag k="name" v="Salbergvatnet" />
		<tag k="natural" v="water" />
		<tag k="ssr:stedsnr" v="871017" />
		<tag k="water" v="lake" />
	</node>
	<node lat="66.81514722433346" lon="15.382700001767137" id="-19481">
		<tag k="name" v="Fløtbandet" />
		<tag k="natural" v="beach" />
		<tag k="ssr:stedsnr" v="877868" />
	</node>
	<node lat="66.86516110797038" lon="15.377411104128525" id="-19482">
		<tag k="name" v="Djupvatnet" />
		<tag k="natural" v="strait" />
		<tag k="ssr:stedsnr" v="891606" />
	</node>
	<node lat="67.07846388640812" lon="15.266672210519397" id="-19486">
		<tag k="name" v="Littj-Jarbruvatnet" />
		<tag k="natural" v="water" />
		<tag k="ssr:stedsnr" v="897261" />
		<tag k="water" v="lake" />
	</node>
	<node lat="66.97434722167006" lon="15.962738883996828" id="-19489">
		<tag k="name" v="Markusodden" />
		<tag k="natural" v="cape" />
		<tag k="ssr:stedsnr" v="897422" />
	</node>
	<node lat="67.02464722349245" lon="15.95666943726239" id="-19490">
		<tag k="name" v="Øver-Dauvassbekken" />
		<tag k="ssr:stedsnr" v="897432" />
		<tag k="waterway" v="stream" />
	</node>
	<node lat="66.89180000449706" lon="15.376619444356564" id="-19505">
		<tag k="name" v="Nevergamlivatnet" />
		<tag k="natural" v="water" />
		<tag k="ssr:stedsnr" v="926624" />
	</node>
	<node lat="67.1354833309999" lon="15.508424987582732" id="-19507">
		<tag k="name" v="Sandrønnelva" />
		<tag k="ssr:stedsnr" v="926755" />
		<tag k="waterway" v="stream" />
	</node>
	<node lat="67.12766943970207" lon="15.67401389682666" id="-19510">
		<tag k="name" v="Rundvatnet" />
		<tag k="natural" v="water" />
		<tag k="ssr:stedsnr" v="926776" />
	</node>
	<node lat="67.07716389142081" lon="15.41456110393349" id="-19511">
		<tag k="name" v="Langvatnet" />
		<tag k="natural" v="water" />
		<tag k="ssr:stedsnr" v="926803" />
	</node>
	<node lat="67.02264722237234" lon="15.455116669259425" id="-19513">
		<tag k="fixme" v="multiple name tags, choose one and add the other to alt_name" />
		<tag k="name" v="Småvatnan;Medtivatnet" />
		<tag k="natural" v="water" />
		<tag k="ssr:stedsnr" v="926853" />
		<tag k="water" v="lake" />
	</node>
	<node lat="66.92778333553473" lon="15.882580552035456" id="-19515">
		<tag k="name" v="Gálmmanjuonne" />
		<tag k="name:smj" v="Gálmmanjuonne" />
		<tag k="natural" v="cape" />
		<tag k="old_name:smj" v="Galbmanjuonni" />
		<tag k="ssr:stedsnr" v="926862" />
	</node>
	<node lat="66.79306666333264" lon="15.568438888377825" id="-19543">
		<tag k="name" v="Osvollbekken" />
		<tag k="ssr:stedsnr" v="958046" />
		<tag k="waterway" v="stream" />
	</node>
	<node lat="66.8267972255799" lon="15.362163878621814" id="-19544">
		<tag k="name" v="Halvhushøla" />
		<tag k="place" v="locality" />
		<tag k="ssr:stedsnr" v="958084" />
	</node>
	<node lat="67.02708611022254" lon="15.437683342792727" id="-19548">
		<tag k="name" v="Nervatnet" />
		<tag k="natural" v="water" />
		<tag k="ssr:stedsnr" v="958540" />
		<tag k="water" v="lake" />
	</node>
	<node lat="67.05443333410997" lon="15.840408327834348" id="-19597">
		<tag k="alt_name:no" v="Sølvbakk, øvre;Øvre Sølvbakk" />
		<tag k="name" v="Øver-Sølvvatnet - Bajep Silbbojávrre" />
		<tag k="name:no" v="Øver-Sølvvatnet" />
		<tag k="name:smj" v="Bajep Silbbojávrre" />
		<tag k="natural" v="water" />
		<tag k="old_name:smj" v="Silbojávri" />
		<tag k="ssr:stedsnr" v="16170" />
		<tag k="water" v="lake" />
	</node>
	<node lat="66.63831666585222" lon="15.54514444431715" id="-19598">
		<tag k="name" v="Liŋŋgágurájávrásj" />
		<tag k="name:smj" v="Liŋŋgágurájávrásj" />
		<tag k="natural" v="water" />
		<tag k="old_name:smj" v="Liŋ'gagurajavraš" />
		<tag k="ssr:stedsnr" v="16580" />
		<tag k="water" v="lake" />
	</node>
	<node lat="66.9070722223052" lon="15.331561112638965" id="-19599">
		<tag k="name" v="Bleikneselva" />
		<tag k="ssr:stedsnr" v="16593" />
		<tag k="waterway" v="stream" />
	</node>
	<node lat="66.98349721945607" lon="15.41254443337694" id="-19602">
		<tag k="alt_name" v="Flågelva" />
		<tag k="name" v="Flogelva" />
		<tag k="ssr:stedsnr" v="16653" />
		<tag k="waterway" v="stream" />
	</node>
	<node lat="66.99178888754523" lon="15.614061111452855" id="-19603">
		<tag k="name" v="Kløftelvvatnet" />
		<tag k="natural" v="water" />
		<tag k="ssr:stedsnr" v="16656" />
	</node>
	<node lat="66.9641777768904" lon="15.495600006887106" id="-19604">
		<tag k="alt_name" v="Middagselva" />
		<tag k="name" v="Middagsbekken" />
		<tag k="ssr:stedsnr" v="16693" />
		<tag k="waterway" v="stream" />
	</node>
	<node lat="66.95438611009115" lon="15.475627773950944" id="-19609">
		<tag k="name" v="Kalvvatnet" />
		<tag k="natural" v="water" />
		<tag k="ssr:stedsnr" v="16702" />
	</node>
	<node lat="66.92958611299431" lon="15.371227787392858" id="-19612">
		<tag k="name" v="Kvanndalselva" />
		<tag k="ssr:stedsnr" v="16714" />
		<tag k="waterway" v="stream" />
	</node>
	<node lat="66.91881667049783" lon="15.458105549863523" id="-19614">
		<tag k="name" v="Storvollbekken" />
		<tag k="ssr:stedsnr" v="16726" />
		<tag k="waterway" v="stream" />
	</node>
	<node lat="67.1168555572378" lon="15.60506667508294" id="-19616">
		<tag k="name" v="Storforsdalsvatnan" />
		<tag k="natural" v="water" />
		<tag k="ssr:stedsnr" v="16750" />
		<tag k="water" v="lake" />
	</node>
	<node lat="67.10586944429099" lon="15.328786105587875" id="-19617">
		<tag k="alt_name" v="Storkjelfossen" />
		<tag k="name" v="Storkjelforsen" />
		<tag k="natural" v="waterfall" />
		<tag k="ssr:stedsnr" v="16752" />
	</node>
	<node lat="66.7840805563577" lon="15.470061112364695" id="-19622">
		<tag k="name" v="Innervatnet" />
		<tag k="natural" v="water" />
		<tag k="ssr:stedsnr" v="16820" />
	</node>
	<node lat="66.78106666620663" lon="15.55657500196064" id="-19623">
		<tag k="alt_name" v="Brannbekken" />
		<tag k="name" v="Brannebekken" />
		<tag k="ssr:stedsnr" v="16821" />
		<tag k="waterway" v="stream" />
	</node>
	<node lat="66.78008055786675" lon="15.697841657900598" id="-19625">
		<tag k="name" v="Kvilarsteinbekken" />
		<tag k="ssr:stedsnr" v="16825" />
		<tag k="waterway" v="stream" />
	</node>
	<node lat="67.1246166711061" lon="15.388852774755764" id="-19654">
		<tag k="name" v="Øyra" />
		<tag k="natural" v="cape" />
		<tag k="ssr:stedsnr" v="27661" />
	</node>
	<node lat="67.12185833027702" lon="15.471086119126822" id="-19656">
		<tag k="name" v="Fjellvatnet" />
		<tag k="natural" v="water" />
		<tag k="ssr:stedsnr" v="27665" />
	</node>
	<node lat="67.06184444370388" lon="15.255369433215774" id="-19673">
		<tag k="name" v="Anderselva" />
		<tag k="ssr:stedsnr" v="47256" />
		<tag k="waterway" v="river" />
	</node>
	<node lat="67.04050000165276" lon="15.422619451327007" id="-19676">
		<tag k="name" v="Runddalelva" />
		<tag k="ssr:stedsnr" v="47366" />
		<tag k="waterway" v="river" />
	</node>
	<node lat="66.80108055891688" lon="15.3704249977694" id="-19677">
		<tag k="name" v="Hak-bekken" />
		<tag k="ssr:stedsnr" v="47431" />
		<tag k="waterway" v="stream" />
	</node>
	<node lat="66.99364444561711" lon="15.959802786309039" id="-19678">
		<tag k="name" v="Ner-Tjorvi" />
		<tag k="natural" v="water" />
		<tag k="ssr:stedsnr" v="47439" />
		<tag k="water" v="lake" />
	</node>
	<node lat="67.19594444413508" lon="15.592569450881967" id="-19686">
		<tag k="name" v="Grønnupvatnan" />
		<tag k="natural" v="water" />
		<tag k="ssr:stedsnr" v="48372" />
		<tag k="water" v="lake" />
	</node>
	<node lat="66.94526666210346" lon="15.386197226143745" id="-19691">
		<tag k="name" v="Svarven" />
		<tag k="place" v="locality" />
		<tag k="ssr:stedsnr" v="48069" />
	</node>
	<node lat="67.07571667060537" lon="15.525197211440338" id="-19693">
		<tag k="name" v="Langneset" />
		<tag k="natural" v="cape" />
		<tag k="ssr:stedsnr" v="48287" />
	</node>
	<node lat="66.92893055293216" lon="15.526874992745077" id="-19696">
		<tag k="name" v="Førrahågbekken" />
		<tag k="ssr:stedsnr" v="48454" />
		<tag k="waterway" v="stream" />
	</node>
	<node lat="66.82771388503808" lon="15.346508324967706" id="-19698">
		<tag k="name" v="Sjølskotbekken" />
		<tag k="ssr:stedsnr" v="229108" />
		<tag k="waterway" v="stream" />
	</node>
	<node lat="66.92989722342037" lon="15.419472217316029" id="-19708">
		<tag k="name" v="Storvassbekken" />
		<tag k="ssr:stedsnr" v="76735" />
		<tag k="waterway" v="stream" />
	</node>
	<node lat="66.62316944425517" lon="15.03402499491681" id="-19712">
		<tag k="alt_name:no" v="Bjellåga" />
		<tag k="alt_name:smj" v="Biellok-jåhkå" />
		<tag k="name" v="Bjøllåga - Biellok" />
		<tag k="name:no" v="Bjøllåga" />
		<tag k="name:smj" v="Biellok" />
		<tag k="ssr:stedsnr" v="77594" />
		<tag k="waterway" v="river" />
	</node>
	<node lat="67.01772778095946" lon="15.808297214553221" id="-19713">
		<tag k="name" v="Dobakkstilla" />
		<tag k="natural" v="water" />
		<tag k="ssr:stedsnr" v="77186" />
	</node>
	<node lat="67.04579444465605" lon="15.981297219108383" id="-19714">
		<tag k="alt_name" v="Stilla, l" />
		<tag k="name" v="Littj-Stilla" />
		<tag k="natural" v="water" />
		<tag k="ssr:stedsnr" v="77190" />
	</node>
	<node lat="67.07392500115853" lon="15.83802777299071" id="-19715">
		<tag k="alt_name:no" v="Fiskeløysvatnet" />
		<tag k="name" v="Fisklausvatnet - Guoledisjávrre" />
		<tag k="name:no" v="Fisklausvatnet" />
		<tag k="name:smj" v="Guoledisjávrre" />
		<tag k="natural" v="water" />
		<tag k="old_name:smj" v="Guolehisjávri" />
		<tag k="ssr:stedsnr" v="77196" />
		<tag k="water" v="lake" />
	</node>
	<node lat="66.82970000024028" lon="15.377275010700739" id="-19716">
		<tag k="name" v="Stubekken" />
		<tag k="ssr:stedsnr" v="77678" />
		<tag k="waterway" v="stream" />
	</node>
	<node lat="66.81728888960684" lon="15.590983334089046" id="-19718">
		<tag k="name" v="Potetbekken" />
		<tag k="ssr:stedsnr" v="77690" />
		<tag k="waterway" v="stream" />
	</node>
	<node lat="66.81377778110233" lon="15.483058335946568" id="-19719">
		<tag k="name" v="Girnnojåhkå" />
		<tag k="name:smj" v="Girnnojåhkå" />
		<tag k="old_name:smj" v="Girdnojåkka" />
		<tag k="ssr:stedsnr" v="77695" />
		<tag k="waterway" v="stream" />
	</node>
	<node lat="66.97358889263693" lon="15.722625008605732" id="-19720">
		<tag k="loc_name:no" v="Daudmannselva" />
		<tag k="name" v="Daumannselva - Dátjajåhkå" />
		<tag k="name:no" v="Daumannselva" />
		<tag k="name:smj" v="Dátjajåhkå" />
		<tag k="old_name:smj" v="Dažajåkka" />
		<tag k="ssr:stedsnr" v="77771" />
		<tag k="waterway" v="stream" />
	</node>
	<node lat="66.92071111272693" lon="15.02715277689204" id="-19721">
		<tag k="alt_name" v="Oksvatnet, øvre" />
		<tag k="name" v="Øver-Oksvatnet" />
		<tag k="natural" v="water" />
		<tag k="ssr:stedsnr" v="77635" />
		<tag k="water" v="lake" />
	</node>
	<node lat="66.60332500191552" lon="15.614697224098549" id="-19722">
		<tag k="name" v="Fiellájåhkå" />
		<tag k="name:smj" v="Fiellájåhkå" />
		<tag k="old_name:smj" v="Fiellajåkka" />
		<tag k="ssr:stedsnr" v="77636" />
		<tag k="waterway" v="stream" />
	</node>
	<node lat="66.9223222247301" lon="15.473780565205281" id="-19723">
		<tag k="alt_name:no" v="Galaelva" />
		<tag k="loc_name:smj" v="Gállájåhkå" />
		<tag k="name" v="Gallaelva" />
		<tag k="name:no" v="Gallaelva" />
		<tag k="ssr:stedsnr" v="77639" />
		<tag k="waterway" v="river" />
	</node>
	<node lat="66.77966111095658" lon="15.35215277849985" id="-19728">
		<tag k="loc_name:smj" v="Átjekjåhkå" />
		<tag k="name" v="Addjekelva" />
		<tag k="name:no" v="Addjekelva" />
		<tag k="ssr:stedsnr" v="77827" />
		<tag k="waterway" v="stream" />
	</node>
	<node lat="66.95220277728642" lon="16.10923610737221" id="-19734">
		<tag k="name" v="Grænssajávrásj" />
		<tag k="name:smj" v="Grænssajávrásj" />
		<tag k="natural" v="water" />
		<tag k="old_name:smj" v="Grensajavraš" />
		<tag k="ssr:stedsnr" v="77862" />
	</node>
	<node lat="66.98513333027877" lon="16.048611116654858" id="-19735">
		<tag k="name" v="Vuohppejåhkå" />
		<tag k="name:smj" v="Vuohppejåhkå" />
		<tag k="old_name:smj" v="Vuoppijåkka" />
		<tag k="ssr:stedsnr" v="77867" />
		<tag k="waterway" v="stream" />
	</node>
	<node lat="67.04602500303035" lon="15.997244438954693" id="-19742">
		<tag k="name" v="Barvasselva" />
		<tag k="ssr:stedsnr" v="229448" />
		<tag k="waterway" v="river" />
	</node>
	<node lat="67.03638332953918" lon="15.376033332662736" id="-19752">
		<tag k="name" v="Holmen" />
		<tag k="place" v="islet" />
		<tag k="ssr:stedsnr" v="88453" />
	</node>
	<node lat="66.79692777754353" lon="15.678569453960113" id="-19761">
		<tag k="name" v="Stuebekken" />
		<tag k="ssr:stedsnr" v="88798" />
		<tag k="waterway" v="stream" />
	</node>
	<node lat="66.81450277958513" lon="15.385294455197295" id="-19769">
		<tag k="name" v="Ågleinhøla" />
		<tag k="place" v="locality" />
		<tag k="ssr:stedsnr" v="88846" />
	</node>
	<node lat="66.81770277375732" lon="15.379327786447876" id="-19770">
		<tag k="name" v="Finnkonhella" />
		<tag k="place" v="locality" />
		<tag k="ssr:stedsnr" v="88847" />
	</node>
	<node lat="66.93893610906272" lon="15.387202783230215" id="-19781">
		<tag k="name" v="Tjønna" />
		<tag k="natural" v="water" />
		<tag k="ssr:stedsnr" v="108055" />
	</node>
	<node lat="67.08815277965097" lon="15.292652766755747" id="-19785">
		<tag k="name" v="Svartvatnet" />
		<tag k="natural" v="water" />
		<tag k="ssr:stedsnr" v="108294" />
	</node>
	<node lat="66.98328888848553" lon="15.792136103571941" id="-19787">
		<tag k="name" v="Mariavatnet" />
		<tag k="natural" v="water" />
		<tag k="ssr:stedsnr" v="108493" />
		<tag k="water" v="lake" />
	</node>
	<node lat="66.78993888483227" lon="15.58611110224145" id="-19798">
		<tag k="name" v="Branneset" />
		<tag k="natural" v="cape" />
		<tag k="ssr:stedsnr" v="109053" />
	</node>
	<node lat="67.13618610843422" lon="15.471797222640635" id="-19799">
		<tag k="name" v="Suppanelva" />
		<tag k="ssr:stedsnr" v="109101" />
		<tag k="waterway" v="stream" />
	</node>
	<node lat="66.9137166697342" lon="15.448413881194337" id="-19802">
		<tag k="name" v="Bjørnholmen" />
		<tag k="place" v="islet" />
		<tag k="ssr:stedsnr" v="109399" />
	</node>
	<node lat="67.17530277702495" lon="15.520730551166952" id="-19805">
		<tag k="name" v="Forsen" />
		<tag k="natural" v="waterfall" />
		<tag k="ssr:stedsnr" v="109995" />
	</node>
	<node lat="66.70089999902099" lon="15.414425002823553" id="-19811">
		<tag k="alt_name" v="Rausteinbekken" />
		<tag k="name" v="Raudsteinbekken" />
		<tag k="ssr:stedsnr" v="137580" />
		<tag k="waterway" v="stream" />
	</node>
	<node lat="66.90249721970503" lon="15.375405549125936" id="-19817">
		<tag k="name" v="Krokvatnet" />
		<tag k="natural" v="water" />
		<tag k="ssr:stedsnr" v="137606" />
	</node>
	<node lat="66.97698333262782" lon="15.535952772771262" id="-19822">
		<tag k="alt_name" v="Krågelva, øvre;Øvre Krågelva" />
		<tag k="fixme" v="multiple name tags, choose one and add the other to alt_name" />
		<tag k="name" v="Krågelva;Øverkrågelva" />
		<tag k="ssr:stedsnr" v="137661" />
		<tag k="waterway" v="stream" />
	</node>
	<node lat="66.95700278104997" lon="15.444844438161324" id="-19826">
		<tag k="name" v="Mariakselelva" />
		<tag k="ssr:stedsnr" v="137678" />
		<tag k="waterway" v="stream" />
	</node>
	<node lat="67.08822778055489" lon="15.581958326644207" id="-19834">
		<tag k="name" v="Ingeborgvatnet" />
		<tag k="natural" v="water" />
		<tag k="ssr:stedsnr" v="137787" />
		<tag k="water" v="lake" />
	</node>
	<node lat="67.08333333565142" lon="15.49068888332941" id="-19835">
		<tag k="name" v="Fjellklovvatnet" />
		<tag k="natural" v="water" />
		<tag k="ssr:stedsnr" v="137789" />
	</node>
	<node lat="66.76228333288564" lon="15.692019444228178" id="-19838">
		<tag k="name" v="Storgraddisvatnet" />
		<tag k="natural" v="water" />
		<tag k="ssr:stedsnr" v="137796" />
	</node>
	<node lat="66.7512777804512" lon="15.762033330248743" id="-19841">
		<tag k="fixme" v="multiple name tags, choose one and add the other to alt_name" />
		<tag k="name" v="Raudbekken;Njallavárddobekken" />
		<tag k="old_name" v="Njallavardobekken" />
		<tag k="ssr:stedsnr" v="137828" />
		<tag k="waterway" v="stream" />
	</node>
	<node lat="66.94060555632709" lon="16.088152786062697" id="-19844">
		<tag k="name" v="Grænssajåhkå" />
		<tag k="name:smj" v="Grænssajåhkå" />
		<tag k="old_name:smj" v="Grensajåkka" />
		<tag k="ssr:stedsnr" v="137846" />
		<tag k="waterway" v="river" />
	</node>
	<node lat="66.97812500386745" lon="16.16507499838274" id="-19845">
		<tag k="name" v="Lulep Sávllojávrásj" />
		<tag k="name:smj" v="Lulep Sávllojávrásj" />
		<tag k="natural" v="water" />
		<tag k="old_name:smj" v="Savlojavraš, lulip" />
		<tag k="ssr:stedsnr" v="137855" />
		<tag k="water" v="lake" />
	</node>
	<node lat="67.14321388881115" lon="15.504883322472367" id="-19851">
		<tag k="alt_name" v="Langvatnet" />
		<tag k="name" v="Langvatnan" />
		<tag k="natural" v="water" />
		<tag k="ssr:stedsnr" v="137729" />
	</node>
	<node lat="66.98444166823789" lon="15.46350833545444" id="-19863">
		<tag k="name" v="Einarforsen" />
		<tag k="natural" v="waterfall" />
		<tag k="ssr:stedsnr" v="148183" />
	</node>
	<node lat="67.005986114376" lon="15.403497226033231" id="-19877">
		<tag k="name" v="Nesmølnvatnet" />
		<tag k="natural" v="water" />
		<tag k="ssr:stedsnr" v="148780" />
	</node>
	<node lat="67.09546944539689" lon="15.50169999933953" id="-19882">
		<tag k="name" v="Bjørnskjæret" />
		<tag k="place" v="locality" />
		<tag k="ssr:stedsnr" v="148884" />
	</node>
	<node lat="66.77635277668298" lon="15.353775001672474" id="-19887">
		<tag k="name" v="Attjek" />
		<tag k="ssr:stedsnr" v="229418" />
		<tag k="waterway" v="stream" />
	</node>
	<node lat="66.82034384077926" lon="15.439999514088882" id="-19896">
		<tag k="name" v="Trektelva" />
		<tag k="ssr:stedsnr" v="169086" />
		<tag k="waterway" v="stream" />
	</node>
	<node lat="66.83185555546726" lon="15.347341671441702" id="-19898">
		<tag k="name" v="Bliksjårfallet" />
		<tag k="natural" v="beach" />
		<tag k="ssr:stedsnr" v="169095" />
	</node>
	<node lat="66.78518055671059" lon="15.58338610504477" id="-19905">
		<tag k="name" v="Brannbekken" />
		<tag k="ssr:stedsnr" v="169038" />
		<tag k="waterway" v="stream" />
	</node>
	<node lat="67.0929916632182" lon="15.289686106943787" id="-19906">
		<tag k="name" v="Jarbruelva" />
		<tag k="ssr:stedsnr" v="169289" />
		<tag k="waterway" v="river" />
	</node>
	<node lat="66.91938611019478" lon="15.52461945523428" id="-19931">
		<tag k="name" v="Kvitbekken" />
		<tag k="ssr:stedsnr" v="198731" />
		<tag k="waterway" v="stream" />
	</node>
	<node lat="66.91625555634029" lon="15.403041662039108" id="-19932">
		<tag k="loc_name:smj" v="Stuorjávrre" />
		<tag k="name" v="Storvatnet" />
		<tag k="name:no" v="Storvatnet" />
		<tag k="natural" v="water" />
		<tag k="ssr:stedsnr" v="198737" />
		<tag k="water" v="lake" />
	</node>
	<node lat="67.13411388745631" lon="15.24887500496611" id="-19933">
		<tag k="alt_name" v="Dversetvatnan" />
		<tag k="name" v="Dversetvatnet" />
		<tag k="natural" v="water" />
		<tag k="ssr:stedsnr" v="198747" />
		<tag k="water" v="lake" />
	</node>
	<node lat="66.86951388631479" lon="15.162294446099299" id="-19935">
		<tag k="name" v="Litlestuvatnet" />
		<tag k="natural" v="water" />
		<tag k="ssr:stedsnr" v="198500" />
	</node>
	<node lat="66.99848610960204" lon="15.504313886358087" id="-19937">
		<tag k="fixme" v="multiple name tags, choose one and add the other to alt_name" />
		<tag k="name" v="Storelva;Einarelva" />
		<tag k="ssr:stedsnr" v="198541" />
		<tag k="waterway" v="stream" />
	</node>
	<node lat="66.58035555708524" lon="15.528991673709564" id="-19938">
		<tag k="name" v="Strájdasjávrre" />
		<tag k="name:smj" v="Strájdasjávrre" />
		<tag k="natural" v="water" />
		<tag k="old_name:smj" v="Straitasjavri" />
		<tag k="ssr:stedsnr" v="198632" />
		<tag k="water" v="lake" />
	</node>
	<node lat="66.86306667042895" lon="15.472463889089303" id="-19940">
		<tag k="name" v="Solvågvatnet - Sávlojávrre" />
		<tag k="name:no" v="Solvågvatnet" />
		<tag k="name:smj" v="Sávlojávrre" />
		<tag k="natural" v="water" />
		<tag k="old_name:smj" v="Savlojavri" />
		<tag k="ssr:stedsnr" v="198638" />
		<tag k="water" v="lake" />
	</node>
	<node lat="66.81583333245193" lon="15.566077783590492" id="-19943">
		<tag k="name" v="Nyslåttbekken" />
		<tag k="ssr:stedsnr" v="198665" />
		<tag k="waterway" v="stream" />
	</node>
	<node lat="67.08677221962397" lon="15.26966945216833" id="-19949">
		<tag k="name" v="Jarbruvatnet" />
		<tag k="natural" v="water" />
		<tag k="ssr:stedsnr" v="198781" />
		<tag k="water" v="lake" />
	</node>
	<node lat="67.04728889296801" lon="15.577363896891548" id="-19955">
		<tag k="name" v="Storfjellelva" />
		<tag k="ssr:stedsnr" v="198836" />
		<tag k="waterway" v="stream" />
	</node>
	<node lat="66.79064166999505" lon="15.728877781454221" id="-19957">
		<tag k="name" v="Klippojåhkå" />
		<tag k="name:no" v="Klipåga" />
		<tag k="name:smj" v="Klippojåhkå" />
		<tag k="old_name:smj" v="Klibbojåkka" />
		<tag k="ssr:stedsnr" v="198847" />
		<tag k="waterway" v="river" />
	</node>
	<node lat="67.02165000384504" lon="15.278419452480218" id="-19959">
		<tag k="name" v="Heivatnet" />
		<tag k="natural" v="water" />
		<tag k="ssr:stedsnr" v="198850" />
	</node>
	<node lat="66.90103888963665" lon="15.220516665670909" id="-19971">
		<tag k="name" v="Småvatnan" />
		<tag k="natural" v="water" />
		<tag k="ssr:stedsnr" v="209653" />
	</node>
	<node lat="66.81783611377817" lon="15.367902775257" id="-19977">
		<tag k="name" v="Finnkonhellbekken" />
		<tag k="ssr:stedsnr" v="209847" />
		<tag k="waterway" v="stream" />
	</node>
	<node lat="67.1580833352296" lon="15.397347223968676" id="-19990">
		<tag k="name" v="Slettbekken" />
		<tag k="ssr:stedsnr" v="289961" />
		<tag k="waterway" v="stream" />
	</node>
	<node lat="66.80334444931901" lon="15.040613878830975" id="-19996">
		<tag k="name" v="Daumannsvika" />
		<tag k="natural" v="bay" />
		<tag k="ssr:stedsnr" v="290418" />
	</node>
	<node lat="66.90358055262418" lon="15.424661120655864" id="-20001">
		<tag k="name" v="Djupdalsvatnet" />
		<tag k="natural" v="water" />
		<tag k="ssr:stedsnr" v="290149" />
		<tag k="water" v="lake" />
	</node>
	<node lat="67.10849166614037" lon="15.787497218459297" id="-20030">
		<tag k="name" v="Hjerttjønnen" />
		<tag k="natural" v="water" />
		<tag k="ssr:stedsnr" v="299256" />
		<tag k="water" v="lake" />
	</node>
	<node lat="66.8962333354483" lon="15.368330565441477" id="-20036">
		<tag k="name" v="Rundvatnet" />
		<tag k="natural" v="water" />
		<tag k="ssr:stedsnr" v="319624" />
	</node>
	<node lat="67.02753333049947" lon="15.255169447534183" id="-20039">
		<tag k="name" v="Kvanntovatnet" />
		<tag k="natural" v="water" />
		<tag k="ssr:stedsnr" v="319839" />
	</node>
	<node lat="67.0168333336711" lon="15.258711105742735" id="-20040">
		<tag k="alt_name" v="Rundhaugvatnan" />
		<tag k="name" v="Rundhågvatnan" />
		<tag k="natural" v="water" />
		<tag k="ssr:stedsnr" v="319841" />
	</node>
	<node lat="67.00390000037801" lon="15.672147226521275" id="-20041">
		<tag k="name" v="Boattsujávrre" />
		<tag k="name:smj" v="Boattsujávrre" />
		<tag k="natural" v="water" />
		<tag k="old_name:smj" v="Bohccojávri" />
		<tag k="ssr:stedsnr" v="319863" />
	</node>
	<node lat="67.05137221796275" lon="15.5880777757906" id="-20046">
		<tag k="alt_name" v="Knallerdalsvatnet, nedre" />
		<tag k="name" v="Ner-Knallerdalsvatnet" />
		<tag k="natural" v="water" />
		<tag k="ssr:stedsnr" v="319817" />
	</node>
	<node lat="67.08974167147625" lon="15.659447213082291" id="-20052">
		<tag k="name" v="Stålbergvatnan" />
		<tag k="natural" v="water" />
		<tag k="ssr:stedsnr" v="320818" />
		<tag k="water" v="lake" />
	</node>
	<node lat="66.87749722615374" lon="15.26811943409117" id="-20063">
		<tag k="name" v="Hellelva" />
		<tag k="ssr:stedsnr" v="331641" />
		<tag k="waterway" v="river" />
	</node>
	<node lat="66.77835277700804" lon="15.61876944110978" id="-20075">
		<tag k="name" v="Auster-Brannvatnet" />
		<tag k="natural" v="water" />
		<tag k="ssr:stedsnr" v="331807" />
	</node>
	<node lat="66.76848333700018" lon="15.66771388423083" id="-20077">
		<tag k="name" v="Skájdde-neset" />
		<tag k="natural" v="cape" />
		<tag k="ssr:stedsnr" v="331812" />
	</node>
	<node lat="66.81360833517358" lon="15.385836113536287" id="-20085">
		<tag k="name" v="Tjærdalsneset" />
		<tag k="natural" v="cape" />
		<tag k="ssr:stedsnr" v="331862" />
	</node>
	<node lat="67.09621944099682" lon="15.475011110513051" id="-20087">
		<tag k="name" v="Botnelva" />
		<tag k="ssr:stedsnr" v="331875" />
		<tag k="waterway" v="river" />
	</node>
	<node lat="67.16218611240714" lon="15.487286111049725" id="-20092">
		<tag k="name" v="Litjelva" />
		<tag k="ssr:stedsnr" v="350034" />
		<tag k="waterway" v="stream" />
	</node>
	<node lat="66.85026944324186" lon="15.514674992977083" id="-20113">
		<tag k="name" v="Storbekken" />
		<tag k="ssr:stedsnr" v="351229" />
		<tag k="waterway" v="stream" />
	</node>
	<node lat="66.84497222058526" lon="15.305752776659512" id="-20115">
		<tag k="name" v="Lysbekken" />
		<tag k="ssr:stedsnr" v="351237" />
		<tag k="waterway" v="stream" />
	</node>
	<node lat="67.02129166279319" lon="16.090008332888907" id="-20117">
		<tag k="name" v="Ner-Kjertoppvatnet" />
		<tag k="natural" v="water" />
		<tag k="ssr:stedsnr" v="351475" />
		<tag k="water" v="lake" />
	</node>
	<node lat="66.92936944036843" lon="15.50590833918699" id="-20120">
		<tag k="alt_name" v="Fjellsluttbekken" />
		<tag k="name" v="Fjellslettbekken" />
		<tag k="ssr:stedsnr" v="351483" />
		<tag k="waterway" v="stream" />
	</node>
	<node lat="66.92673333188924" lon="15.535113880129604" id="-20121">
		<tag k="name" v="Djupbekken" />
		<tag k="ssr:stedsnr" v="351484" />
		<tag k="waterway" v="stream" />
	</node>
	<node lat="66.98299444826924" lon="15.941858331645975" id="-20124">
		<tag k="name" v="Øver-Tjorvi" />
		<tag k="natural" v="water" />
		<tag k="ssr:stedsnr" v="351442" />
		<tag k="water" v="lake" />
	</node>
	<node lat="66.92489999724107" lon="15.561230549219944" id="-20129">
		<tag k="name" v="Neverholmbekken" />
		<tag k="ssr:stedsnr" v="351755" />
		<tag k="waterway" v="stream" />
	</node>
	<node lat="67.02071388715527" lon="16.011208322503954" id="-20139">
		<tag k="alt_name" v="Sakariasbekken" />
		<tag k="name" v="Sakanasbekken" />
		<tag k="ssr:stedsnr" v="377156" />
		<tag k="waterway" v="stream" />
	</node>
	<node lat="66.74688333155218" lon="15.402391656035084" id="-20140">
		<tag k="name" v="Giebbnejávrre" />
		<tag k="name:no" v="Kjemåvatnet" />
		<tag k="name:smj" v="Giebbnejávrre" />
		<tag k="natural" v="water" />
		<tag k="old_name:smj" v="Giebdnijavri" />
		<tag k="ssr:stedsnr" v="380641" />
		<tag k="water" v="lake" />
	</node>
	<node lat="66.663999997576" lon="15.392799994275396" id="-20141">
		<tag k="name" v="Svartbekken" />
		<tag k="ssr:stedsnr" v="380652" />
		<tag k="waterway" v="stream" />
	</node>
	<node lat="67.03129999908529" lon="15.903705564357072" id="-20142">
		<tag k="alt_name" v="Skoddefjellvatnan" />
		<tag k="name" v="Skoddfjellvatnan" />
		<tag k="natural" v="water" />
		<tag k="ssr:stedsnr" v="380187" />
	</node>
	<node lat="67.03581110746377" lon="15.814463881200803" id="-20143">
		<tag k="name" v="Sølvbekkelva - Silbbojåhkå" />
		<tag k="name:no" v="Sølvbekkelva" />
		<tag k="name:smj" v="Silbbojåhkå" />
		<tag k="old_name:smj" v="Silbojohka" />
		<tag k="ssr:stedsnr" v="380188" />
		<tag k="waterway" v="river" />
	</node>
	<node lat="66.85621666522415" lon="15.568419450897231" id="-20145">
		<tag k="name" v="Isvatnet" />
		<tag k="natural" v="water" />
		<tag k="ssr:stedsnr" v="380687" />
	</node>
	<node lat="66.84755555689539" lon="15.359458325606752" id="-20146">
		<tag k="name" v="Langvatnet" />
		<tag k="natural" v="water" />
		<tag k="ssr:stedsnr" v="380690" />
	</node>
	<node lat="66.76717222590142" lon="15.277991657186371" id="-20154">
		<tag k="loc_name:smj" v="Átjekjávrre" />
		<tag k="name" v="Áddjekjávrre" />
		<tag k="name:smj" v="Áddjekjávrre" />
		<tag k="natural" v="water" />
		<tag k="old_name:smj" v="Addjekjavri" />
		<tag k="ssr:stedsnr" v="380833" />
		<tag k="water" v="lake" />
	</node>
	<node lat="67.0171944467162" lon="15.309491659761953" id="-20163">
		<tag k="name" v="Førsenden" />
		<tag k="natural" v="waterfall" />
		<tag k="ssr:stedsnr" v="391557" />
	</node>
	<node lat="67.12005278173673" lon="15.363605546307546" id="-20170">
		<tag k="name" v="Tverrelva" />
		<tag k="ssr:stedsnr" v="391731" />
		<tag k="waterway" v="stream" />
	</node>
	<node lat="66.99501944202719" lon="15.27724721885259" id="-20181">
		<tag k="name" v="Bjønndalsvatnet" />
		<tag k="natural" v="water" />
		<tag k="ssr:stedsnr" v="391779" />
	</node>
	<node lat="66.74731388994037" lon="15.587025000758048" id="-20184">
		<tag k="name" v="Øster-rundvatnet" />
		<tag k="natural" v="water" />
		<tag k="ssr:stedsnr" v="391857" />
	</node>
	<node lat="67.03190833014821" lon="15.9318722232778" id="-20194">
		<tag k="name" v="Skoddfjellbekken" />
		<tag k="ssr:stedsnr" v="411434" />
		<tag k="waterway" v="stream" />
	</node>
	<node lat="66.97848333721772" lon="15.511233329071842" id="-20196">
		<tag k="name" v="Kløftelva" />
		<tag k="ssr:stedsnr" v="411682" />
		<tag k="waterway" v="river" />
	</node>
	<node lat="66.86386666389079" lon="15.300177778662118" id="-20204">
		<tag k="name" v="Tiegga" />
		<tag k="natural" v="cape" />
		<tag k="ssr:stedsnr" v="412132" />
	</node>
	<node lat="67.08917787419333" lon="15.565133911096277" id="-20210">
		<tag k="name" v="Ingeborgelva" />
		<tag k="ssr:stedsnr" v="412268" />
		<tag k="waterway" v="river" />
	</node>
	<node lat="67.16993889250386" lon="15.57802499782884" id="-20213">
		<tag k="name" v="Tverrelva" />
		<tag k="ssr:stedsnr" v="412362" />
		<tag k="waterway" v="river" />
	</node>
	<node lat="66.96419722130574" lon="15.37062778258544" id="-20216">
		<tag k="name" v="Innerneset" />
		<tag k="natural" v="cape" />
		<tag k="ssr:stedsnr" v="412771" />
	</node>
	<node lat="66.90092222085973" lon="15.246883324820033" id="-20227">
		<tag k="alt_name" v="Markskjelelva" />
		<tag k="name" v="Markskjellelva" />
		<tag k="ssr:stedsnr" v="441635" />
		<tag k="waterway" v="stream" />
	</node>
	<node lat="66.82839444693332" lon="15.627861116433575" id="-20228">
		<tag k="name" v="Tverrelva" />
		<tag k="ssr:stedsnr" v="441678" />
		<tag k="waterway" v="stream" />
	</node>
	<node lat="66.78613610673361" lon="15.391369443456847" id="-20238">
		<tag k="name" v="Giebbnejåhkå" />
		<tag k="name:no" v="Kjemåga" />
		<tag k="name:smj" v="Giebbnejåhkå" />
		<tag k="old_name:smj" v="Giebdnijåkka" />
		<tag k="ssr:stedsnr" v="441775" />
		<tag k="waterway" v="river" />
	</node>
	<node lat="67.04953611066617" lon="15.318466657738538" id="-20242">
		<tag k="alt_name" v="Litlevatnet" />
		<tag k="name" v="Littjvatnet" />
		<tag k="natural" v="water" />
		<tag k="ssr:stedsnr" v="441837" />
	</node>
	<node lat="66.63529167028588" lon="15.278797222776738" id="-20243">
		<tag k="alt_name:no" v="Semska-elva" />
		<tag k="name" v="Semska - Niesskemjåhkå" />
		<tag k="name:no" v="Semska" />
		<tag k="name:smj" v="Niesskemjåhkå" />
		<tag k="ssr:stedsnr" v="441617" />
		<tag k="waterway" v="river" />
	</node>
	<node lat="67.0713527811141" lon="15.474133325144427" id="-20248">
		<tag k="fixme" v="multiple name tags, choose one and add the other to alt_name" />
		<tag k="name" v="Mølnelva;Gammelmølnelva" />
		<tag k="ssr:stedsnr" v="441845" />
		<tag k="waterway" v="stream" />
	</node>
	<node lat="67.06300555148462" lon="15.229933325587256" id="-20249">
		<tag k="name" v="Botnvatnet" />
		<tag k="natural" v="water" />
		<tag k="ssr:stedsnr" v="441848" />
	</node>
	<node lat="67.06098889162591" lon="15.282508344814783" id="-20250">
		<tag k="name" v="Havervatnet" />
		<tag k="natural" v="water" />
		<tag k="ssr:stedsnr" v="441849" />
	</node>
	<node lat="67.01708889191391" lon="15.97086666752187" id="-20256">
		<tag k="name" v="Storstilla" />
		<tag k="natural" v="water" />
		<tag k="ssr:stedsnr" v="501178" />
	</node>
	<node lat="66.98706944783315" lon="15.500150007988715" id="-20264">
		<tag k="name" v="Storvatnet" />
		<tag k="natural" v="water" />
		<tag k="ssr:stedsnr" v="501667" />
	</node>
	<node lat="67.1910465765387" lon="15.528501077662533" id="-20269">
		<tag k="alt_name" v="Valvatnet" />
		<tag k="name" v="Vallvatnet" />
		<tag k="natural" v="water" />
		<tag k="ssr:stedsnr" v="501968" />
	</node>
	<node lat="66.83356388495599" lon="15.09617221876465" id="-20271">
		<tag k="name" v="Vidjeelva - Sierkkajåhkå" />
		<tag k="name:no" v="Vidjeelva" />
		<tag k="name:smj" v="Sierkkajåhkå" />
		<tag k="old_name:smj" v="Sædgajåkka" />
		<tag k="ssr:stedsnr" v="502537" />
		<tag k="waterway" v="river" />
	</node>
	<node lat="67.08676666997184" lon="15.325302774379198" id="-20272">
		<tag k="fixme" v="multiple name tags, choose one and add the other to alt_name" />
		<tag k="name" v="Vardvatnet;Vikdalvatnet" />
		<tag k="natural" v="water" />
		<tag k="ssr:stedsnr" v="502794" />
	</node>
	<node lat="66.969500002105" lon="15.478927768012655" id="-20280">
		<tag k="alt_name" v="Rauflågbekken" />
		<tag k="name" v="Raudflogbekken" />
		<tag k="ssr:stedsnr" v="512191" />
		<tag k="waterway" v="stream" />
	</node>
	<node lat="66.9894499984566" lon="15.514277767351746" id="-20281">
		<tag k="name" v="Nabobekkan" />
		<tag k="ssr:stedsnr" v="512195" />
		<tag k="waterway" v="stream" />
	</node>
	<node lat="66.90298889094372" lon="15.593055563945134" id="-20282">
		<tag k="name" v="Tverrelvvatnan" />
		<tag k="natural" v="water" />
		<tag k="ssr:stedsnr" v="513137" />
	</node>
	<node lat="67.12231110698829" lon="15.377086103912129" id="-20295">
		<tag k="name" v="Mølnneset" />
		<tag k="natural" v="cape" />
		<tag k="ssr:stedsnr" v="513728" />
	</node>
	<node lat="66.75183889242233" lon="15.597158331286563" id="-20302">
		<tag k="name" v="Svortvatnet" />
		<tag k="natural" v="water" />
		<tag k="ssr:stedsnr" v="513849" />
	</node>
	<node lat="67.09041110801908" lon="15.551036118186591" id="-20303">
		<tag k="name" v="Løppenvatnet" />
		<tag k="natural" v="water" />
		<tag k="ssr:stedsnr" v="522054" />
	</node>
	<node lat="66.8589472206032" lon="15.304213897938002" id="-20312">
		<tag k="name" v="Kristendalnesholmen" />
		<tag k="place" v="islet" />
		<tag k="ssr:stedsnr" v="533143" />
	</node>
	<node lat="67.17264444013777" lon="15.565058338619604" id="-20318">
		<tag k="name" v="Forsen" />
		<tag k="natural" v="waterfall" />
		<tag k="ssr:stedsnr" v="533389" />
	</node>
	<node lat="66.98857777852314" lon="15.33369721666075" id="-20320">
		<tag k="name" v="Holmen" />
		<tag k="place" v="island" />
		<tag k="ssr:stedsnr" v="533559" />
	</node>
	<node lat="66.85075555814515" lon="15.30754444067652" id="-20330">
		<tag k="name" v="Skolthøla" />
		<tag k="place" v="locality" />
		<tag k="ssr:stedsnr" v="534223" />
	</node>
	<node lat="66.90962222501723" lon="15.440999992830006" id="-20335">
		<tag k="fixme" v="multiple name tags, choose one and add the other to alt_name" />
		<tag k="name" v="Sauvasselva;Sauelva" />
		<tag k="ssr:stedsnr" v="561637" />
		<tag k="waterway" v="stream" />
	</node>
	<node lat="67.06419444057437" lon="15.171061109085812" id="-20337">
		<tag k="name" v="Storholmen" />
		<tag k="place" v="islet" />
		<tag k="ssr:stedsnr" v="561611" />
	</node>
	<node lat="66.7543527804533" lon="15.535475008759644" id="-20342">
		<tag k="name" v="Ranvatnet" />
		<tag k="natural" v="water" />
		<tag k="ssr:stedsnr" v="561818" />
	</node>
	<node lat="66.94218333402901" lon="16.068555548227792" id="-20343">
		<tag k="name" v="Vuotsasjávrásj" />
		<tag k="name:no" v="Metskidalstjønna" />
		<tag k="name:smj" v="Vuotsasjávrásj" />
		<tag k="natural" v="water" />
		<tag k="old_name:smj" v="Vuozzasjavraš" />
		<tag k="ssr:stedsnr" v="561859" />
	</node>
	<node lat="67.17496111451423" lon="15.523463897781125" id="-20346">
		<tag k="name" v="Storelva" />
		<tag k="ssr:stedsnr" v="562121" />
		<tag k="waterway" v="river" />
	</node>
	<node lat="67.00434999972659" lon="15.939211121348169" id="-20347">
		<tag k="name" v="Daudvatnet - Jámekjávrre" />
		<tag k="name:no" v="Daudvatnet" />
		<tag k="name:smj" v="Jámekjávrre" />
		<tag k="natural" v="water" />
		<tag k="old_name:smj" v="Jámetjávri" />
		<tag k="ssr:stedsnr" v="562161" />
		<tag k="water" v="lake" />
	</node>
	<node lat="66.99921110879596" lon="16.064780563439882" id="-20348">
		<tag k="name" v="Rundvatnet" />
		<tag k="natural" v="water" />
		<tag k="ssr:stedsnr" v="562162" />
	</node>
	<node lat="66.88535000166661" lon="15.139594439335763" id="-20350">
		<tag k="name" v="Hessihompvatnet" />
		<tag k="natural" v="water" />
		<tag k="ssr:stedsnr" v="562500" />
		<tag k="water" v="lake" />
	</node>
	<node lat="66.63539166701939" lon="15.416522211092005" id="-20353">
		<tag k="name" v="Elgbekken - Sarvvajåhkå" />
		<tag k="name:no" v="Elgbekken" />
		<tag k="name:smj" v="Sarvvajåhkå" />
		<tag k="old_name:smj" v="Sarvajåkka" />
		<tag k="ssr:stedsnr" v="562617" />
		<tag k="waterway" v="stream" />
	</node>
	<node lat="66.98398332956477" lon="15.266272231518109" id="-20354">
		<tag k="alt_name" v="Onnvatnet" />
		<tag k="name" v="Ånvatnet" />
		<tag k="natural" v="water" />
		<tag k="ssr:stedsnr" v="562675" />
	</node>
	<node lat="66.9897805596972" lon="15.408630553966708" id="-20355">
		<tag k="name" v="Oksbergelva" />
		<tag k="ssr:stedsnr" v="562679" />
		<tag k="waterway" v="stream" />
	</node>
	<node lat="66.82682500418284" lon="15.042836115834518" id="-20356">
		<tag k="name" v="Bajep Ruovdajávrre" />
		<tag k="name:no" v="Nordre Bjøllåvatnet" />
		<tag k="name:smj" v="Bajep Ruovdajávrre" />
		<tag k="natural" v="water" />
		<tag k="old_name:smj" v="Ruovdajavri, bajit" />
		<tag k="ssr:stedsnr" v="562541" />
		<tag k="water" v="lake" />
	</node>
	<node lat="66.99340000084541" lon="15.710355564881715" id="-20357">
		<tag k="name" v="Daudvatnet" />
		<tag k="natural" v="water" />
		<tag k="ssr:stedsnr" v="562552" />
	</node>
	<node lat="66.84716110958206" lon="15.304197224753771" id="-20361">
		<tag k="alt_name" v="Gammelsagelva" />
		<tag k="name" v="Sagelva" />
		<tag k="ssr:stedsnr" v="562649" />
		<tag k="waterway" v="stream" />
	</node>
	<node lat="66.8478750001029" lon="15.427758334631648" id="-20362">
		<tag k="name" v="Kvitelva" />
		<tag k="ssr:stedsnr" v="562652" />
		<tag k="waterway" v="stream" />
	</node>
	<node lat="66.8277777763627" lon="15.450213885352488" id="-20364">
		<tag k="alt_name" v="Traktelva, inner" />
		<tag k="fixme" v="multiple name tags, choose one and add the other to alt_name" />
		<tag k="name" v="Innertrektelva;Inner Traktelva" />
		<tag k="ssr:stedsnr" v="562662" />
		<tag k="waterway" v="stream" />
	</node>
	<node lat="66.97539860733124" lon="15.248423378379176" id="-20367">
		<tag k="name" v="Øksenosen" />
		<tag k="ssr:stedsnr" v="562691" />
		<tag k="waterway" v="stream" />
	</node>
	<node lat="66.93346666477866" lon="15.532022219135692" id="-20368">
		<tag k="name" v="Storflatbekken" />
		<tag k="ssr:stedsnr" v="562708" />
		<tag k="waterway" v="stream" />
	</node>
	<node lat="66.93494166404511" lon="15.419722218264528" id="-20369">
		<tag k="name" v="Eveneselva" />
		<tag k="name:no" v="Eveneselva" />
		<tag k="name:smj" v="Ájvasjåhkå" />
		<tag k="ssr:stedsnr" v="562711" />
		<tag k="waterway" v="river" />
	</node>
	<node lat="67.09469999997752" lon="15.374097224548384" id="-20371">
		<tag k="name" v="Fiskvågvatnet" />
		<tag k="natural" v="water" />
		<tag k="ssr:stedsnr" v="562791" />
	</node>
	<node lat="66.78957703018236" lon="15.512969449936675" id="-20377">
		<tag k="name" v="Girnnojávrre" />
		<tag k="name:no" v="Kjernfjellvatnet" />
		<tag k="name:smj" v="Girnnojávrre" />
		<tag k="natural" v="water" />
		<tag k="old_name:no" v="Kvernfjellvatnet" />
		<tag k="old_name:smj" v="Girdnojavri" />
		<tag k="ssr:stedsnr" v="562838" />
		<tag k="water" v="lake" />
	</node>
	<node lat="67.0044055538103" lon="15.216766663571908" id="-20385">
		<tag k="name" v="Skjevlfjellvatnet" />
		<tag k="natural" v="water" />
		<tag k="ssr:stedsnr" v="562900" />
	</node>
	<node lat="67.1545944438224" lon="15.636216663822422" id="-20387">
		<tag k="name" v="Småvatnan" />
		<tag k="natural" v="water" />
		<tag k="ssr:stedsnr" v="570288" />
		<tag k="water" v="lake" />
	</node>
	<node lat="66.94514999807033" lon="15.301911117038154" id="-20391">
		<tag k="name" v="Bjønnholmen" />
		<tag k="natural" v="cape" />
		<tag k="ssr:stedsnr" v="573566" />
	</node>
	<node lat="66.88551944319248" lon="15.340341667633451" id="-20395">
		<tag k="name" v="Standerdalbekken" />
		<tag k="ssr:stedsnr" v="573592" />
		<tag k="waterway" v="stream" />
	</node>
	<node lat="67.001149995622" lon="15.341927781124763" id="-20406">
		<tag k="name" v="Einstakholmen" />
		<tag k="place" v="islet" />
		<tag k="ssr:stedsnr" v="573743" />
	</node>
	<node lat="67.01374999675829" lon="15.372547226771125" id="-20408">
		<tag k="name" v="Nesmølnelva" />
		<tag k="ssr:stedsnr" v="573750" />
		<tag k="waterway" v="stream" />
	</node>
	<node lat="66.74953055763812" lon="15.486516658576454" id="-20410">
		<tag k="name" v="Plurdalsbekken" />
		<tag k="ssr:stedsnr" v="573784" />
		<tag k="waterway" v="stream" />
	</node>
	<node lat="66.80640278084238" lon="15.383719437162036" id="-20411">
		<tag k="name" v="Littjrotelva" />
		<tag k="ssr:stedsnr" v="573791" />
		<tag k="waterway" v="stream" />
	</node>
	<node lat="66.8054249968841" lon="15.412758327870149" id="-20412">
		<tag k="name" v="Masterneset" />
		<tag k="natural" v="cape" />
		<tag k="ssr:stedsnr" v="573793" />
	</node>
	<node lat="67.16048333258786" lon="15.495394449846852" id="-20418">
		<tag k="name" v="Moelva" />
		<tag k="ssr:stedsnr" v="592039" />
		<tag k="waterway" v="stream" />
	</node>
	<node lat="67.12858333460868" lon="15.241988895419869" id="-20419">
		<tag k="name" v="Austerdalelva" />
		<tag k="ssr:stedsnr" v="593088" />
		<tag k="waterway" v="river" />
	</node>
	<node lat="66.74298055867364" lon="15.39687778816591" id="-20430">
		<tag k="name" v="Sør-grunnen" />
		<tag k="natural" v="shoal" />
		<tag k="place" v="locality" />
		<tag k="ssr:stedsnr" v="593391" />
	</node>
	<node lat="66.92189444777085" lon="15.529552769278425" id="-20445">
		<tag k="name" v="Johanneshågforsen" />
		<tag k="natural" v="waterfall" />
		<tag k="ssr:stedsnr" v="594742" />
	</node>
	<node lat="66.90143888864023" lon="15.055013890202694" id="-20451">
		<tag k="name" v="Hárojåhkå" />
		<tag k="name:no" v="Harondalselva" />
		<tag k="name:smj" v="Hárojåhkå" />
		<tag k="old_name:no" v="Haronelva" />
		<tag k="old_name:smj" v="Harojåkka" />
		<tag k="ssr:stedsnr" v="622596" />
		<tag k="waterway" v="river" />
	</node>
	<node lat="67.01763332953271" lon="16.01163054622893" id="-20453">
		<tag k="alt_name" v="Sakariastjønna" />
		<tag k="name" v="Sakanastjønna" />
		<tag k="natural" v="water" />
		<tag k="ssr:stedsnr" v="622194" />
	</node>
	<node lat="66.68820832932214" lon="15.173561109519984" id="-20455">
		<tag k="name" v="Semskvatna" />
		<tag k="natural" v="water" />
		<tag k="ssr:stedsnr" v="622524" />
		<tag k="water" v="lake" />
	</node>
	<node lat="66.79683888430658" lon="15.180655563830603" id="-20456">
		<tag k="name" v="Vidjevatna - Sierkkajávre" />
		<tag k="name:no" v="Vidjevatna" />
		<tag k="name:smj" v="Sierkkajávre" />
		<tag k="natural" v="water" />
		<tag k="old_name:smj" v="Sædgajavrit" />
		<tag k="ssr:stedsnr" v="622525" />
		<tag k="water" v="lake" />
	</node>
	<node lat="66.87928333111134" lon="15.436861110097562" id="-20459">
		<tag k="alt_name" v="Sauvatnet, store" />
		<tag k="name" v="Store Sauvatnet" />
		<tag k="natural" v="water" />
		<tag k="ssr:stedsnr" v="622638" />
		<tag k="water" v="lake" />
	</node>
	<node lat="66.84492777540086" lon="15.31137778257015" id="-20462">
		<tag k="name" v="Notiselva" />
		<tag k="ssr:stedsnr" v="622655" />
		<tag k="waterway" v="stream" />
	</node>
	<node lat="67.07987777936731" lon="15.635388900447406" id="-20464">
		<tag k="name" v="Ingeborgelva" />
		<tag k="ssr:stedsnr" v="622776" />
		<tag k="waterway" v="river" />
	</node>
	<node lat="67.08043333381117" lon="15.478736119075183" id="-20465">
		<tag k="name" v="Smålivatnet" />
		<tag k="natural" v="water" />
		<tag k="ssr:stedsnr" v="622781" />
	</node>
	<node lat="66.95816666799374" lon="15.74982499200334" id="-20472">
		<tag k="name" v="Låggejåhkå" />
		<tag k="name:smj" v="Låggejåhkå" />
		<tag k="old_name:smj" v="Låggijåkka;Lågijåhkå" />
		<tag k="ssr:stedsnr" v="622852" />
		<tag k="waterway" v="river" />
	</node>
	<node lat="66.98663888488319" lon="15.950616657497692" id="-20474">
		<tag k="name" v="Tjoarvvesivvun" />
		<tag k="name:smj" v="Tjoarvvesivvun" />
		<tag k="natural" v="water" />
		<tag k="old_name:smj" v="Čoarvisivvun" />
		<tag k="ssr:stedsnr" v="622858" />
		<tag k="water" v="lake" />
	</node>
	<node lat="67.15358055252757" lon="15.640455551060757" id="-20479">
		<tag k="name" v="Flygandalvatnan" />
		<tag k="natural" v="water" />
		<tag k="ssr:stedsnr" v="622995" />
		<tag k="water" v="lake" />
	</node>
	<node lat="67.0164555514977" lon="16.089016674580375" id="-20484">
		<tag k="fixme" v="multiple name tags, choose one and add the other to alt_name" />
		<tag k="name" v="Nordibekken;Kjerrtoppbekken" />
		<tag k="ssr:stedsnr" v="623199" />
		<tag k="waterway" v="stream" />
	</node>
	<node lat="66.78351389182973" lon="15.700197221095062" id="-20485">
		<tag k="name" v="Nyslåttbekken" />
		<tag k="ssr:stedsnr" v="623779" />
		<tag k="waterway" v="stream" />
	</node>
	<node lat="66.81460277703984" lon="15.554772229539118" id="-20490">
		<tag k="name" v="Storholmen" />
		<tag k="natural" v="cape" />
		<tag k="ssr:stedsnr" v="623685" />
	</node>
	<node lat="66.80704444055853" lon="15.404369443868989" id="-20492">
		<tag k="alt_name" v="Kjemåneset" />
		<tag k="name" v="Kjemågneset" />
		<tag k="place" v="islet" />
		<tag k="ssr:stedsnr" v="623694" />
	</node>
	<node lat="66.79133966174976" lon="15.528732885971808" id="-20494">
		<tag k="name" v="Krokvatnet" />
		<tag k="natural" v="water" />
		<tag k="ssr:stedsnr" v="628223" />
	</node>
	<node lat="66.8682138887122" lon="15.25422500991851" id="-20499">
		<tag k="name" v="Trettnesvatnan" />
		<tag k="natural" v="water" />
		<tag k="ssr:stedsnr" v="634660" />
	</node>
	<node lat="66.78100278146593" lon="15.610047225185584" id="-20509">
		<tag k="name" v="Vester-Brannvatnet" />
		<tag k="natural" v="water" />
		<tag k="ssr:stedsnr" v="634820" />
	</node>
	<node lat="67.00130277481169" lon="15.309819435805803" id="-20512">
		<tag k="name" v="Myro" />
		<tag k="ssr:stedsnr" v="634772" />
		<tag k="waterway" v="river" />
	</node>
	<node lat="67.16322499629129" lon="15.49839721373472" id="-20517">
		<tag k="name" v="Tverrelva" />
		<tag k="ssr:stedsnr" v="653036" />
		<tag k="waterway" v="stream" />
	</node>
	<node lat="67.06712777440443" lon="15.16930834201276" id="-20525">
		<tag k="name" v="Holmvatnet" />
		<tag k="natural" v="water" />
		<tag k="ssr:stedsnr" v="654263" />
		<tag k="water" v="lake" />
	</node>
	<node lat="67.05756666470404" lon="15.538075003724925" id="-20527">
		<tag k="name" v="Gleinen" />
		<tag k="ssr:stedsnr" v="654379" />
		<tag k="waterway" v="stream" />
	</node>
	<node lat="67.0127444436935" lon="15.240516661070373" id="-20531">
		<tag k="name" v="Nervatnet" />
		<tag k="natural" v="water" />
		<tag k="ssr:stedsnr" v="654530" />
		<tag k="water" v="lake" />
	</node>
	<node lat="66.97875000027162" lon="15.961402770788668" id="-20536">
		<tag k="name" v="Langtjønna" />
		<tag k="natural" v="water" />
		<tag k="ssr:stedsnr" v="654452" />
	</node>
	<node lat="66.83616944331007" lon="15.31821111380228" id="-20547">
		<tag k="name" v="Smulakværelva" />
		<tag k="ssr:stedsnr" v="655126" />
		<tag k="waterway" v="stream" />
	</node>
	<node lat="66.81868611243226" lon="15.438077785055773" id="-20561">
		<tag k="name" v="Trekta" />
		<tag k="ssr:stedsnr" v="715087" />
		<tag k="waterway" v="rapids" />
	</node>
	<node lat="66.75013055431282" lon="15.387661104641776" id="-20564">
		<tag k="name" v="Sanden" />
		<tag k="natural" v="bay" />
		<tag k="ssr:stedsnr" v="715448" />
	</node>
	<node lat="66.74669722330964" lon="15.412652769193446" id="-20566">
		<tag k="name" v="Holmen" />
		<tag k="place" v="islet" />
		<tag k="ssr:stedsnr" v="715454" />
	</node>
	<node lat="66.92617778195245" lon="15.543830555834695" id="-20575">
		<tag k="name" v="Øverslåttbekken" />
		<tag k="ssr:stedsnr" v="715503" />
		<tag k="waterway" v="stream" />
	</node>
	<node lat="66.92483055226894" lon="15.531905555129251" id="-20588">
		<tag k="name" v="Kattplankbekken" />
		<tag k="ssr:stedsnr" v="716770" />
		<tag k="waterway" v="stream" />
	</node>
	<node lat="67.06342777778994" lon="15.899980544849281" id="-20593">
		<tag k="name" v="Niennajávrre" />
		<tag k="name:smj" v="Niennajávrre" />
		<tag k="natural" v="water" />
		<tag k="old_name:smj" v="Niennajávri" />
		<tag k="ssr:stedsnr" v="744157" />
		<tag k="water" v="lake" />
	</node>
	<node lat="66.84634999607196" lon="14.992586098887655" id="-20595">
		<tag k="alt_name:no" v="Sandvatnan" />
		<tag k="name" v="Sundvatna - Tjoalmmejávre" />
		<tag k="name:no" v="Sundvatna" />
		<tag k="name:smj" v="Tjoalmmejávre" />
		<tag k="natural" v="water" />
		<tag k="old_name:smj" v="Coalbmejavrit" />
		<tag k="ssr:stedsnr" v="744501" />
	</node>
	<node lat="66.94271110946252" lon="15.073763884515296" id="-20603">
		<tag k="loc_name:smj" v="Skiebllejávrre" />
		<tag k="name" v="Kvitbergvatnet" />
		<tag k="name:no" v="Kvitbergvatnet" />
		<tag k="natural" v="water" />
		<tag k="ssr:stedsnr" v="744570" />
		<tag k="water" v="lake" />
	</node>
	<node lat="66.68756110780352" lon="15.437263884929912" id="-20604">
		<tag k="name" v="Lønselva - Luonosjåhkå" />
		<tag k="name:no" v="Lønselva" />
		<tag k="name:smj" v="Luonosjåhkå" />
		<tag k="old_name:smj" v="Luonosjåkka" />
		<tag k="ssr:stedsnr" v="744571" />
		<tag k="waterway" v="river" />
	</node>
	<node lat="66.7097277815528" lon="15.385000002703551" id="-20605">
		<tag k="name" v="Sørelva - Låpptåjåhkå" />
		<tag k="name:no" v="Sørelva" />
		<tag k="name:smj" v="Låpptåjåhkå" />
		<tag k="old_name:smj" v="Låptajåkka" />
		<tag k="ssr:stedsnr" v="744637" />
		<tag k="waterway" v="river" />
	</node>
	<node lat="66.97213611116953" lon="15.233202771944612" id="-20609">
		<tag k="name" v="Øksenosvatnet" />
		<tag k="natural" v="water" />
		<tag k="ssr:stedsnr" v="744666" />
	</node>
	<node lat="67.03726388956625" lon="15.195741671550458" id="-20615">
		<tag k="alt_name" v="Bjørnhivatnet" />
		<tag k="name" v="Bjørnlivatnet" />
		<tag k="natural" v="water" />
		<tag k="ssr:stedsnr" v="744874" />
	</node>
	<node lat="67.14725277696505" lon="15.286536110066857" id="-20617">
		<tag k="name" v="Dversetelva" />
		<tag k="ssr:stedsnr" v="744995" />
		<tag k="waterway" v="river" />
	</node>
	<node lat="67.11896110901303" lon="15.548508323961018" id="-20620">
		<tag k="name" v="Storforsen" />
		<tag k="natural" v="waterfall" />
		<tag k="ssr:stedsnr" v="744754" />
	</node>
	<node lat="66.98211110989162" lon="16.15245278538085" id="-20627">
		<tag k="name" v="Alep Sávllojávrásj" />
		<tag k="name:smj" v="Alep Sávllojávrásj" />
		<tag k="natural" v="water" />
		<tag k="old_name:smj" v="Savlojavraš, alip" />
		<tag k="ssr:stedsnr" v="744863" />
		<tag k="water" v="lake" />
	</node>
	<node lat="67.04844722535078" lon="15.849325000177272" id="-20629">
		<tag k="alt_name:no" v="Sølvbakk, nedre" />
		<tag k="name" v="Ner-Sølvvatnet - Vuolep Silbbojávrre" />
		<tag k="name:no" v="Ner-Sølvvatnet" />
		<tag k="name:smj" v="Vuolep Silbbojávrre" />
		<tag k="natural" v="water" />
		<tag k="old_name:smj" v="Silbojávri" />
		<tag k="ssr:stedsnr" v="753089" />
		<tag k="water" v="lake" />
	</node>
	<node lat="66.90085277812618" lon="15.95213332745463" id="-20631">
		<tag k="name" v="Klaravatnet" />
		<tag k="natural" v="water" />
		<tag k="ssr:stedsnr" v="754054" />
		<tag k="water" v="lake" />
	</node>
	<node lat="66.87765555176335" lon="15.331591674786424" id="-20640">
		<tag k="name" v="Inner-Slettfjellvatnet" />
		<tag k="natural" v="water" />
		<tag k="ssr:stedsnr" v="755607" />
	</node>
	<node lat="66.89014166244806" lon="15.216824999909454" id="-20645">
		<tag k="name" v="Littjelvvatnet" />
		<tag k="natural" v="water" />
		<tag k="ssr:stedsnr" v="755635" />
	</node>
	<node lat="66.81308888930114" lon="15.657824991293438" id="-20651">
		<tag k="name" v="Flogbekken" />
		<tag k="ssr:stedsnr" v="755824" />
		<tag k="waterway" v="stream" />
	</node>
	<node lat="66.78449444204762" lon="15.382361119800123" id="-20668">
		<tag k="name" v="Attjek" />
		<tag k="ssr:stedsnr" v="775388" />
		<tag k="waterway" v="stream" />
	</node>
	<node lat="67.12712221886542" lon="15.236138898642437" id="-20672">
		<tag k="name" v="Fossen" />
		<tag k="natural" v="waterfall" />
		<tag k="ssr:stedsnr" v="776081" />
	</node>
	<node lat="66.88122777886139" lon="15.410025006911274" id="-20677">
		<tag k="name" v="Jakkvatnet" />
		<tag k="natural" v="water" />
		<tag k="ssr:stedsnr" v="776130" />
	</node>
	<node lat="66.95962222464422" lon="15.82272776992953" id="-20684">
		<tag k="name" v="Rypholmen" />
		<tag k="place" v="islet" />
		<tag k="ssr:stedsnr" v="776439" />
	</node>
	<node lat="66.99034166312674" lon="15.428916657127099" id="-20696">
		<tag k="alt_name" v="Gammelgardselva" />
		<tag k="name" v="Gammelgårdselva" />
		<tag k="ssr:stedsnr" v="805552" />
		<tag k="waterway" v="stream" />
	</node>
	<node lat="66.59770555238052" lon="15.433158321544983" id="-20703">
		<tag k="name" v="Straitasbekken - Strájdasjåhkå" />
		<tag k="name:no" v="Straitasbekken" />
		<tag k="name:smj" v="Strájdasjåhkå" />
		<tag k="old_name:smj" v="Straitasjåkka" />
		<tag k="ssr:stedsnr" v="805612" />
		<tag k="waterway" v="river" />
	</node>
	<node lat="66.85473610844926" lon="15.358788893821638" id="-20706">
		<tag k="name" v="Rundvatnet" />
		<tag k="natural" v="water" />
		<tag k="ssr:stedsnr" v="805644" />
	</node>
	<node lat="66.94930000085444" lon="15.416244453069371" id="-20707">
		<tag k="name" v="Svartvatnet" />
		<tag k="natural" v="water" />
		<tag k="ssr:stedsnr" v="805705" />
	</node>
	<node lat="66.93180555432697" lon="15.470327770509472" id="-20710">
		<tag k="name" v="Leirbekken" />
		<tag k="ssr:stedsnr" v="805719" />
		<tag k="waterway" v="stream" />
	</node>
	<node lat="66.92446111480939" lon="15.304008342180778" id="-20711">
		<tag k="name" v="Gunhildvatnet" />
		<tag k="natural" v="water" />
		<tag k="ssr:stedsnr" v="805720" />
	</node>
	<node lat="66.92789444753328" lon="15.501744437910094" id="-20713">
		<tag k="name" v="Storengbekken" />
		<tag k="ssr:stedsnr" v="805725" />
		<tag k="waterway" v="stream" />
	</node>
	<node lat="66.98117222405249" lon="15.143941672323072" id="-20714">
		<tag k="name" v="Kvitdalsvatnet" />
		<tag k="natural" v="water" />
		<tag k="ssr:stedsnr" v="805580" />
	</node>
	<node lat="66.65961666882959" lon="15.462877781791327" id="-20715">
		<tag k="name" v="Storsteinelva - Juovvajåhkå" />
		<tag k="name:no" v="Storsteinelva" />
		<tag k="name:smj" v="Juovvajåhkå" />
		<tag k="old_name:smj" v="Juovvajåkka" />
		<tag k="ssr:stedsnr" v="805654" />
		<tag k="waterway" v="river" />
	</node>
	<node lat="66.82135555735786" lon="15.307613881791818" id="-20716">
		<tag k="alt_name" v="Smolakværbekken" />
		<tag k="name" v="Smedolakvervelva" />
		<tag k="ssr:stedsnr" v="805659" />
		<tag k="waterway" v="stream" />
	</node>
	<node lat="66.91468333460867" lon="15.384013899929375" id="-20719">
		<tag k="alt_name" v="Siri-Andersvatnet" />
		<tag k="name" v="Sirivatnet" />
		<tag k="natural" v="water" />
		<tag k="ssr:stedsnr" v="805737" />
	</node>
	<node lat="67.09842777810763" lon="15.490716660501596" id="-20725">
		<tag k="alt_name" v="Vatnmotet" />
		<tag k="name" v="Vatnemot" />
		<tag k="natural" v="bay" />
		<tag k="ssr:stedsnr" v="805784" />
	</node>
	<node lat="66.99506944115585" lon="16.12089165556012" id="-20728">
		<tag k="name" v="Bajep Doarrojávrre" />
		<tag k="name:no" v="Stor-Dorro" />
		<tag k="name:smj" v="Bajep Doarrojávrre" />
		<tag k="natural" v="water" />
		<tag k="old_name:smj" v="Doarrojávri bajit;Doarrojávrre" />
		<tag k="ssr:stedsnr" v="805807" />
		<tag k="water" v="lake" />
	</node>
	<node lat="66.7595000014705" lon="15.491086104486213" id="-20729">
		<tag k="name" v="Viskisbekken" />
		<tag k="name:no" v="Viskisbekken" />
		<tag k="name:smj" v="Visskisjåhkå" />
		<tag k="ssr:stedsnr" v="805812" />
		<tag k="waterway" v="river" />
	</node>
	<node lat="67.05370000262818" lon="15.349986119047394" id="-20730">
		<tag k="alt_name" v="Okselva" />
		<tag k="name" v="Oksielva" />
		<tag k="ssr:stedsnr" v="805815" />
		<tag k="waterway" v="stream" />
	</node>
	<node lat="66.77623333307024" lon="15.688705554151195" id="-20731">
		<tag k="name" v="Bergbekken" />
		<tag k="ssr:stedsnr" v="805817" />
		<tag k="waterway" v="stream" />
	</node>
	<node lat="66.76814444873696" lon="15.366713885873182" id="-20733">
		<tag k="name" v="Småvatnan" />
		<tag k="natural" v="water" />
		<tag k="ssr:stedsnr" v="805822" />
	</node>
	<node lat="66.80603333726498" lon="15.700922217318404" id="-20737">
		<tag k="name" v="Trongbekken" />
		<tag k="ssr:stedsnr" v="805831" />
		<tag k="waterway" v="stream" />
	</node>
	<node lat="67.04683055261157" lon="15.415319437349936" id="-20738">
		<tag k="name" v="Runddalselva" />
		<tag k="ssr:stedsnr" v="805833" />
		<tag k="waterway" v="stream" />
	</node>
	<node lat="67.03205833731991" lon="15.676355556572535" id="-20743">
		<tag k="name" v="Storfjellvatnet" />
		<tag k="natural" v="water" />
		<tag k="ssr:stedsnr" v="805850" />
	</node>
	<node lat="67.02198610903669" lon="15.189736106040227" id="-20746">
		<tag k="name" v="Havervatnet" />
		<tag k="natural" v="water" />
		<tag k="ssr:stedsnr" v="805897" />
	</node>
	<node lat="67.19345000155528" lon="15.491388878338478" id="-20747">
		<tag k="name" v="Grytvikelva" />
		<tag k="ssr:stedsnr" v="805969" />
		<tag k="waterway" v="stream" />
	</node>
	<node lat="66.98090277424316" lon="15.373541661276631" id="-20750">
		<tag k="name" v="Mølnelva" />
		<tag k="ssr:stedsnr" v="809314" />
		<tag k="waterway" v="stream" />
	</node>
	<node lat="66.79533610941651" lon="15.516508343067713" id="-20752">
		<tag k="alt_name" v="Fremre Kjernfjellvatnet" />
		<tag k="name" v="Fremmervatnet" />
		<tag k="natural" v="water" />
		<tag k="ssr:stedsnr" v="809634" />
		<tag k="water" v="lake" />
	</node>
	<node lat="67.04382500083226" lon="15.84308610848481" id="-20755">
		<tag k="name" v="Sølvbekken" />
		<tag k="ssr:stedsnr" v="815145" />
		<tag k="waterway" v="stream" />
	</node>
	<node lat="67.02661944804268" lon="15.372308332074098" id="-20757">
		<tag k="name" v="Bjørnholmen" />
		<tag k="place" v="islet" />
		<tag k="ssr:stedsnr" v="816582" />
	</node>
	<node lat="67.11873889080022" lon="15.471627780315327" id="-20760">
		<tag k="name" v="Vasskaldelva" />
		<tag k="ssr:stedsnr" v="816695" />
		<tag k="waterway" v="stream" />
	</node>
	<node lat="66.88184166935547" lon="15.285119440508474" id="-20769">
		<tag k="name" v="Holmen" />
		<tag k="natural" v="cape" />
		<tag k="ssr:stedsnr" v="816664" />
	</node>
	<node lat="66.90556111509304" lon="15.401244454331191" id="-20801">
		<tag k="name" v="Andersdalbekken" />
		<tag k="ssr:stedsnr" v="837168" />
		<tag k="waterway" v="stream" />
	</node>
	<node lat="66.84884999832612" lon="15.306119441525828" id="-20803">
		<tag k="name" v="Notisosen" />
		<tag k="natural" v="bay" />
		<tag k="ssr:stedsnr" v="837231" />
	</node>
	<node lat="67.08050278034992" lon="15.51756665978357" id="-20806">
		<tag k="name" v="Nes" />
		<tag k="natural" v="cape" />
		<tag k="ssr:stedsnr" v="837319" />
	</node>
	<node lat="66.96022222061335" lon="15.796102781839506" id="-20813">
		<tag k="name" v="Bekkmannodden" />
		<tag k="natural" v="cape" />
		<tag k="ssr:stedsnr" v="837454" />
	</node>
	<node lat="67.0071361104021" lon="15.951033324312952" id="-20814">
		<tag k="name" v="Dauvassbekken" />
		<tag k="ssr:stedsnr" v="837464" />
		<tag k="waterway" v="stream" />
	</node>
	<node lat="67.00912499853173" lon="15.577300005893939" id="-20824">
		<tag k="name" v="Einarselva" />
		<tag k="ssr:stedsnr" v="842853" />
		<tag k="waterway" v="stream" />
	</node>
	<node lat="66.96755000480762" lon="16.15057499063265" id="-20828">
		<tag k="name" v="Stjernevatna - Gásajávrásj" />
		<tag k="name:no" v="Stjernevatna" />
		<tag k="name:smj" v="Gásajávrásj" />
		<tag k="natural" v="water" />
		<tag k="old_name:smj" v="Gasajavraš" />
		<tag k="ssr:stedsnr" v="865862" />
		<tag k="water" v="lake" />
	</node>
	<node lat="66.97310555954779" lon="15.96884445636854" id="-20829">
		<tag k="name" v="Dámmanjárgga" />
		<tag k="name:smj" v="Dámmanjárgga" />
		<tag k="natural" v="cape" />
		<tag k="old_name:smj" v="Dammanjarga" />
		<tag k="ssr:stedsnr" v="865865" />
	</node>
	<node lat="66.89575277630756" lon="15.388524990430255" id="-20832">
		<tag k="alt_name" v="Kjåltelivatnet, øvre" />
		<tag k="fixme" v="multiple name tags, choose one and add the other to alt_name" />
		<tag k="name" v="Jaktvatnet;Øver Tjoaltalivatnet" />
		<tag k="natural" v="water" />
		<tag k="ssr:stedsnr" v="865654" />
	</node>
	<node lat="66.98697777817983" lon="15.28661666431885" id="-20838">
		<tag k="name" v="Storvatnet" />
		<tag k="natural" v="water" />
		<tag k="ssr:stedsnr" v="866532" />
	</node>
	<node lat="67.0138250034221" lon="15.832824991305943" id="-20841">
		<tag k="name" v="Torbjørnbukta" />
		<tag k="natural" v="bay" />
		<tag k="ssr:stedsnr" v="866170" />
	</node>
	<node lat="67.02344722547318" lon="15.820902777936226" id="-20843">
		<tag k="name" v="Råssne" />
		<tag k="name:no" v="Litj-Rosna" />
		<tag k="name:smj" v="Råssne" />
		<tag k="natural" v="water" />
		<tag k="old_name:smj" v="Rostni" />
		<tag k="ssr:stedsnr" v="866172" />
		<tag k="water" v="lake" />
	</node>
	<node lat="67.04125833713925" lon="15.994002769447281" id="-20844">
		<tag k="fixme" v="multiple name tags, choose one and add the other to alt_name" />
		<tag k="loc_name:smj" v="Sierkkajåhkå" />
		<tag k="name" v="Riselva;Risvasselva" />
		<tag k="name:no" v="Riselva;Risvasselva" />
		<tag k="ssr:stedsnr" v="866174" />
		<tag k="waterway" v="river" />
	</node>
	<node lat="66.85743055489739" lon="15.28351943819567" id="-20845">
		<tag k="alt_name" v="Stampelva" />
		<tag k="name" v="Stamyrelva" />
		<tag k="ssr:stedsnr" v="866633" />
		<tag k="waterway" v="stream" />
	</node>
	<node lat="67.0732583347132" lon="15.189091668217277" id="-20851">
		<tag k="alt_name" v="Atterheivatnet" />
		<tag k="name" v="Attervatnet" />
		<tag k="natural" v="water" />
		<tag k="ssr:stedsnr" v="866594" />
	</node>
	<node lat="67.02885555226071" lon="15.182897220746367" id="-20858">
		<tag k="name" v="Smalvatnet" />
		<tag k="natural" v="water" />
		<tag k="ssr:stedsnr" v="866899" />
	</node>
	<node lat="66.96830833648085" lon="15.576944445507403" id="-20863">
		<tag k="name" v="Krågelva" />
		<tag k="ssr:stedsnr" v="866684" />
		<tag k="waterway" v="stream" />
	</node>
	<node lat="67.09449999629047" lon="15.514058331316093" id="-20868">
		<tag k="name" v="Botnvatnet - Fievsajávrre" />
		<tag k="name:no" v="Botnvatnet" />
		<tag k="name:smj" v="Fievsajávrre" />
		<tag k="natural" v="water" />
		<tag k="old_name:smj" v="Fievssajávri" />
		<tag k="ssr:stedsnr" v="866786" />
		<tag k="water" v="lake" />
	</node>
	<node lat="67.01000277989785" lon="15.40150556096519" id="-20872">
		<tag k="name" v="Steinvatnet" />
		<tag k="natural" v="water" />
		<tag k="ssr:stedsnr" v="866841" />
	</node>
	<node lat="66.88745555489375" lon="15.41696111570482" id="-20882">
		<tag k="name" v="Sauvatnan" />
		<tag k="natural" v="water" />
		<tag k="old_name" v="Sauvatna" />
		<tag k="ssr:stedsnr" v="875039" />
		<tag k="water" v="lake" />
	</node>
	<node lat="66.88945833646135" lon="15.510800005435355" id="-20896">
		<tag k="name" v="Rykkjedalforsen" />
		<tag k="natural" v="waterfall" />
		<tag k="ssr:stedsnr" v="877132" />
	</node>
	<node lat="67.0219749975098" lon="15.364388894241538" id="-20899">
		<tag k="name" v="Holmen" />
		<tag k="place" v="islet" />
		<tag k="ssr:stedsnr" v="877534" />
	</node>
	<node lat="66.83658889045266" lon="15.322422215399447" id="-20935">
		<tag k="name" v="Sørdalsbekken" />
		<tag k="ssr:stedsnr" v="958118" />
		<tag k="waterway" v="stream" />
	</node>
	<node lat="66.94579444049667" lon="15.403872220018567" id="-20942">
		<tag k="name" v="Fullvassbekken" />
		<tag k="ssr:stedsnr" v="958063" />
		<tag k="waterway" v="stream" />
	</node>
	<node lat="66.9839416675166" lon="15.48021944719098" id="-20947">
		<tag k="name" v="Murbergvatnet" />
		<tag k="natural" v="water" />
		<tag k="ssr:stedsnr" v="958649" />
	</node>
	<node lat="67.06551667046163" lon="15.730033335001602" id="-20974">
		<tag k="alt_name" v="Akselskardvatnet" />
		<tag k="name" v="Øver-Akselskarvatnet" />
		<tag k="natural" v="water" />
		<tag k="ssr:stedsnr" v="968545" />
		<tag k="water" v="lake" />
	</node>
</osm>
