<?xml version="1.0" encoding="UTF-8"?>
<<<<<<< HEAD
<osm version="0.6" generator="osmapis">
	<node lat="58.993072219337186" lon="5.6440416735715155" id="-1">
=======
<osm generator="osmapis" version="0.6">
	<node id="-25088" lat="59.0013749974" lon="5.61412222589">
		<tag k="name" v="Valen" />
		<tag k="place" v="farm" />
		<tag k="ssr:stedsnr" v="912777" />
	</node>
	<node id="-25087" lat="59.0162928357" lon="5.62478898558">
		<tag k="fixme" v="consider place=hamlet" />
		<tag k="name" v="Todneim" />
		<tag k="place" v="farm" />
		<tag k="ssr:stedsnr" v="912765" />
	</node>
	<node id="-25086" lat="59.0080442761" lon="5.58611092711">
		<tag k="alt_name" v="Bø, indre;Bø indre" />
		<tag k="fixme" v="consider place=hamlet" />
		<tag k="name" v="Indre Bø" />
		<tag k="place" v="farm" />
		<tag k="ssr:stedsnr" v="912762" />
	</node>
	<node id="-25085" lat="59.0156666673" lon="5.56543333645">
		<tag k="name" v="Børaunen" />
		<tag k="natural" v="cape" />
		<tag k="ssr:stedsnr" v="912759" />
	</node>
	<node id="-25084" lat="59.0164717855" lon="5.57928725829">
		<tag k="name" v="Bøvika" />
		<tag k="natural" v="bay" />
		<tag k="ssr:stedsnr" v="912756" />
	</node>
	<node id="-25083" lat="59.0218800602" lon="5.62147527947">
		<tag k="name" v="Ladbergvika" />
		<tag k="natural" v="bay" />
		<tag k="ssr:stedsnr" v="912753" />
	</node>
	<node id="-25082" lat="58.9932749993" lon="5.60634999621">
		<tag k="name" v="Viste" />
		<tag k="place" v="farm" />
		<tag k="ssr:stedsnr" v="911105" />
	</node>
	<node id="-25081" lat="58.9949805537" lon="5.64988611488">
		<tag k="alt_name" v="Grødheim" />
		<tag k="name" v="Grødem" />
		<tag k="place" v="farm" />
		<tag k="ssr:stedsnr" v="911104" />
	</node>
	<node id="-25080" lat="58.9903444438" lon="5.61305278035">
		<tag k="name" v="Sørli" />
		<tag k="place" v="farm" />
		<tag k="ssr:stedsnr" v="729108" />
	</node>
	<node id="-25079" lat="59.0004194444" lon="5.65375555389">
		<tag k="name" v="Duså" />
		<tag k="place" v="locality" />
		<tag k="ssr:stedsnr" v="630576" />
	</node>
	<node id="-25078" lat="58.9959555529" lon="5.58693610586">
		<tag k="name" v="Svinaberg" />
		<tag k="natural" v="hill" />
		<tag k="place" v="locality" />
		<tag k="ssr:stedsnr" v="630420" />
	</node>
	<node id="-25077" lat="59.0114805518" lon="5.57310278646">
		<tag k="name" v="Grøde" />
		<tag k="place" v="farm" />
		<tag k="ssr:stedsnr" v="630418" />
	</node>
	<node id="-25076" lat="59.0104805567" lon="5.57229444974">
		<tag k="name" v="Ægrå" />
		<tag k="place" v="farm" />
		<tag k="ssr:stedsnr" v="630416" />
	</node>
	<node id="-25075" lat="59.0312250008" lon="5.5931500015">
		<tag k="name" v="Håbakken" />
		<tag k="natural" v="hill" />
		<tag k="place" v="locality" />
		<tag k="ssr:stedsnr" v="720074" />
	</node>
	<node id="-25074" lat="59.0083644339" lon="5.65478877407">
		<tag k="alt_name" v="Grødeimshammaren" />
		<tag k="name" v="Grødemhammaren" />
		<tag k="natural" v="hill" />
		<tag k="place" v="locality" />
		<tag k="ssr:stedsnr" v="608809" />
	</node>
	<node id="-25073" lat="59.0128555544" lon="5.64195834006">
		<tag k="name" v="Harastadvika" />
		<tag k="natural" v="bay" />
		<tag k="ssr:stedsnr" v="608807" />
	</node>
	<node id="-25072" lat="59.0231499982" lon="5.61117222608">
		<tag k="alt_name" v="Megjersvika" />
		<tag k="name" v="Mekjarvik" />
		<tag k="natural" v="bay" />
		<tag k="old_name" v="Megjervika" />
		<tag k="ssr:stedsnr" v="570317" />
	</node>
	<node id="-25071" lat="59.0115638882" lon="5.58695554966">
		<tag k="name" v="Bakkane" />
		<tag k="place" v="farm" />
		<tag k="ssr:stedsnr" v="691450" />
	</node>
	<node id="-25070" lat="59.0333138885" lon="5.59939445188">
		<tag k="name" v="Galten" />
		<tag k="natural" v="shoal" />
		<tag k="place" v="locality" />
		<tag k="ssr:stedsnr" v="527826" />
	</node>
	<node id="-25069" lat="61.2177777797" lon="6.59979722139">
		<tag k="alt_name" v="Alskori" />
		<tag k="name" v="Almskori" />
		<tag k="place" v="locality" />
		<tag k="ssr:stedsnr" v="677966" />
	</node>
	<node id="-25068" lat="59.0323611137" lon="5.58633054883">
		<tag k="name" v="Håbakken" />
		<tag k="place" v="farm" />
		<tag k="ssr:stedsnr" v="668805" />
	</node>
	<node id="-25067" lat="59.0303416636" lon="5.58051944812">
		<tag k="name" v="Holmaviga" />
		<tag k="natural" v="bay" />
		<tag k="ssr:stedsnr" v="668804" />
	</node>
	<node id="-25066" lat="58.9847805534" lon="5.62900277097">
		<tag k="name" v="Holen" />
		<tag k="place" v="farm" />
		<tag k="ssr:stedsnr" v="668107" />
	</node>
	<node id="-25064" lat="58.9813722247" lon="5.5824083397">
		<tag k="name" v="Rausteingrunnen" />
		<tag k="place" v="locality" />
		<tag k="seamark:type" v="rock" />
		<tag k="ssr:stedsnr" v="453632" />
	</node>
	<node id="-25062" lat="58.9963583336" lon="5.61951943973">
		<tag k="name" v="Torset" />
		<tag k="place" v="locality" />
		<tag k="ssr:stedsnr" v="449618" />
	</node>
	<node id="-25060" lat="59.0111611113" lon="5.58321110339">
		<tag k="name" v="Groen" />
		<tag k="place" v="farm" />
		<tag k="ssr:stedsnr" v="449414" />
	</node>
	<node id="-25059" lat="58.9805249974" lon="5.56596945096">
		<tag k="name" v="Vistnestangen" />
		<tag k="natural" v="cape" />
		<tag k="ssr:stedsnr" v="513647" />
	</node>
	<node id="-25058" lat="58.9977944423" lon="5.62647499455">
		<tag k="name" v="Stølen" />
		<tag k="place" v="farm" />
		<tag k="ssr:stedsnr" v="509602" />
	</node>
	<node id="-25057" lat="59.0094138874" lon="5.58279167397">
		<tag k="name" v="Gravet" />
		<tag k="place" v="locality" />
		<tag k="ssr:stedsnr" v="509418" />
	</node>
	<node id="-25056" lat="58.9832555599" lon="5.56970278391">
		<tag k="name" v="Vistnesvågen" />
		<tag k="natural" v="bay" />
		<tag k="ssr:stedsnr" v="387405" />
	</node>
	<node id="-25055" lat="59.006951761" lon="5.65051619151">
		<tag k="alt_name" v="Grødeim" />
		<tag k="fixme" v="consider place=hamlet" />
		<tag k="name" v="Grødem" />
		<tag k="place" v="farm" />
		<tag k="ssr:stedsnr" v="487791" />
	</node>
	<node id="-25053" lat="58.9968972244" lon="5.60557500059">
		<tag k="name" v="Dalheim" />
		<tag k="place" v="farm" />
		<tag k="ssr:stedsnr" v="485093" />
	</node>
	<node id="-25052" lat="58.9907777813" lon="5.56668888307">
		<tag k="name" v="Molviga" />
		<tag k="natural" v="bay" />
		<tag k="ssr:stedsnr" v="485087" />
	</node>
	<node id="-25051" lat="58.9954222198" lon="5.56787777727">
		<tag k="name" v="Klubben" />
		<tag k="natural" v="hill" />
		<tag k="place" v="locality" />
		<tag k="ssr:stedsnr" v="327434" />
	</node>
	<node id="-25050" lat="58.9788472248" lon="5.64526943624">
		<tag k="bridge" v="yes" />
		<tag k="layer" v="1" />
		<tag k="name" v="Leikvoll" />
		<tag k="ssr:stedsnr" v="471648" />
	</node>
	<node id="-25049" lat="58.9755722203" lon="5.64287222589">
		<tag k="name" v="Lyngnes" />
		<tag k="place" v="farm" />
		<tag k="ssr:stedsnr" v="304061" />
	</node>
	<node id="-25048" lat="58.9960750018" lon="5.52695277307">
		<tag k="name" v="Monsagrunnen" />
		<tag k="place" v="locality" />
		<tag k="seamark:type" v="rock" />
		<tag k="ssr:stedsnr" v="267560" />
	</node>
	<node id="-25047" lat="58.9791527811" lon="5.60898888785">
		<tag k="name" v="Endrestø" />
		<tag k="natural" v="bay" />
		<tag k="ssr:stedsnr" v="449297" />
	</node>
	<node id="-25046" lat="58.9857222238" lon="5.64330833721">
		<tag k="name" v="Svartholen" />
		<tag k="place" v="farm" />
		<tag k="ssr:stedsnr" v="449291" />
	</node>
	<node id="-25045" lat="59.0188027748" lon="5.5748305625">
		<tag k="name" v="Todden" />
		<tag k="natural" v="cape" />
		<tag k="ssr:stedsnr" v="244773" />
	</node>
	<node id="-25044" lat="59.0383555573" lon="5.56433055886">
		<tag k="alt_name" v="Søndre Tungeflua" />
		<tag k="name" v="Søre Tungeflua" />
		<tag k="natural" v="shoal" />
		<tag k="place" v="locality" />
		<tag k="ssr:stedsnr" v="284866" />
	</node>
	<node id="-25043" lat="59.0003555559" lon="5.64721943641">
		<tag k="name" v="Stølsbrotet" />
		<tag k="place" v="farm" />
		<tag k="ssr:stedsnr" v="266632" />
	</node>
	<node id="-25042" lat="59.000127776" lon="5.64093334079">
		<tag k="name" v="Hagen" />
		<tag k="place" v="farm" />
		<tag k="ssr:stedsnr" v="85563" />
	</node>
	<node id="-25041" lat="59.004672226" lon="5.60824444904">
		<tag k="name" v="Prestkonsrinda" />
		<tag k="place" v="locality" />
		<tag k="ssr:stedsnr" v="85253" />
	</node>
	<node id="-25040" lat="59.001577775" lon="5.62354166082">
		<tag k="name" v="Bergsagelvarden" />
		<tag k="natural" v="hill" />
		<tag k="place" v="locality" />
		<tag k="ssr:stedsnr" v="84663" />
	</node>
	<node id="-25039" lat="58.9822833304" lon="5.64414721972">
		<tag k="name" v="Heiå" />
		<tag k="place" v="farm" />
		<tag k="ssr:stedsnr" v="84322" />
	</node>
	<node id="-25038" lat="59.0038249994" lon="5.66270555747">
		<tag k="alt_name" v="Haukhammar" />
		<tag k="name" v="Haukhammaren" />
		<tag k="natural" v="hill" />
		<tag k="place" v="locality" />
		<tag k="ssr:stedsnr" v="244796" />
	</node>
	<node id="-25037" lat="59.0065027779" lon="5.5570611044">
		<tag k="name" v="Bøskjenane" />
		<tag k="place" v="locality" />
		<tag k="seamark:type" v="rock" />
		<tag k="ssr:stedsnr" v="244778" />
	</node>
	<node id="-25036" lat="58.9930722193" lon="5.64404167357">
>>>>>>> e1d4bc35ff8a6074a6f2e91616a996b547c36f15
		<tag k="bridge" v="yes" />
		<tag k="layer" v="1" />
		<tag k="name" v="Goaale" />
		<tag k="ssr:stedsnr" v="229649" />
<<<<<<< HEAD
	</node>
	<node lat="59.03623888909445" lon="5.5825666733290875" id="-2">
		<tag k="name" v="Tungeneset" />
=======
	</node>
	<node id="-25035" lat="59.0023250009" lon="5.63995833448">
		<tag k="name" v="Holen" />
		<tag k="place" v="farm" />
		<tag k="ssr:stedsnr" v="24632" />
	</node>
	<node id="-25222" lat="59.8279125227" lon="9.70560369472">
		<tag k="name" v="Grølla" />
		<tag k="natural" v="water" />
		<tag k="ssr:stedsnr" v="489738" />
		<tag k="water" v="lake" />
	</node>
	<node id="-25221" lat="58.9754983468" lon="5.6279936708">
		<tag k="name" v="Hålandsvatnet" />
		<tag k="natural" v="water" />
		<tag k="ssr:stedsnr" v="61052" />
		<tag k="water" v="lake" />
	</node>
	<node id="-25217" lat="59.0089292141" lon="5.65018800025">
		<tag k="amenity" v="place_of_worship" />
		<tag k="denomination" v="lutheran" />
		<tag k="name" v="Grødem kirke" />
		<tag k="religion" v="christian" />
		<tag k="ssr:stedsnr" v="991189" />
	</node>
	<node id="-25216" lat="59.0305861125" lon="5.57403332683">
		<tag k="name" v="Breiviga" />
>>>>>>> e1d4bc35ff8a6074a6f2e91616a996b547c36f15
		<tag k="natural" v="cape" />
		<tag k="ssr:stedsnr" v="1786" />
	</node>
<<<<<<< HEAD
	<node lat="59.002866666056576" lon="5.598972230464218" id="-4">
		<tag k="name" v="Langerind" />
		<tag k="place" v="farm" />
		<tag k="ssr:stedsnr" v="24441" />
	</node>
	<node lat="59.002325000936686" lon="5.63995833448477" id="-5">
		<tag k="name" v="Holen" />
		<tag k="place" v="farm" />
		<tag k="ssr:stedsnr" v="24632" />
	</node>
	<node lat="59.00302205986361" lon="5.575484494746629" id="-6">
		<tag k="alt_name" v="Bø, ytre" />
		<tag k="fixme" v="consider place=hamlet" />
		<tag k="name" v="Ytre Bø" />
		<tag k="place" v="farm" />
		<tag k="ssr:stedsnr" v="31771" />
	</node>
	<node lat="59.018727773590484" lon="5.627375006480587" id="-7">
		<tag k="bridge" v="yes" />
		<tag k="layer" v="1" />
		<tag k="name" v="Todnem" />
		<tag k="ssr:stedsnr" v="46721" />
	</node>
	<node lat="58.9945609290256" lon="5.577824024147272" id="-8">
=======
	<node id="-25215" lat="59.0315277791" lon="5.57568332916">
		<tag k="name" v="Skoholmen" />
		<tag k="place" v="locality" />
		<tag k="ssr:stedsnr" v="874598" />
	</node>
	<node id="-25214" lat="58.9904666641" lon="5.56376389174">
		<tag k="name" v="Gardsenden" />
		<tag k="natural" v="cape" />
		<tag k="ssr:stedsnr" v="873382" />
	</node>
	<node id="-25213" lat="58.9822194454" lon="5.57842777758">
		<tag k="name" v="Breiviga" />
		<tag k="natural" v="bay" />
		<tag k="ssr:stedsnr" v="873380" />
	</node>
	<node id="-25212" lat="59.0089821715" lon="5.62919085039">
>>>>>>> e1d4bc35ff8a6074a6f2e91616a996b547c36f15
		<tag k="fixme" v="consider place=hamlet" />
		<tag k="name" v="Vistvik" />
		<tag k="place" v="farm" />
		<tag k="ssr:stedsnr" v="61087" />
	</node>
<<<<<<< HEAD
	<node lat="58.99867814821859" lon="5.637310704335735" id="-9">
		<tag k="fixme" v="consider place=hamlet" />
		<tag k="name" v="Rygg" />
		<tag k="place" v="farm" />
		<tag k="ssr:stedsnr" v="61089" />
	</node>
	<node lat="58.9881666694285" lon="5.632913885121939" id="-10">
		<tag k="alt_name" v="austre Goa" />
		<tag k="name" v="Goa" />
		<tag k="place" v="farm" />
		<tag k="ssr:stedsnr" v="61091" />
	</node>
	<node lat="59.03073611173543" lon="5.575524994677728" id="-11">
		<tag k="name" v="Holmodden" />
		<tag k="natural" v="cape" />
		<tag k="ssr:stedsnr" v="62801" />
	</node>
	<node lat="58.99391944402548" lon="5.598202781681121" id="-12">
		<tag k="name" v="Viste" />
		<tag k="place" v="farm" />
		<tag k="ssr:stedsnr" v="62770" />
	</node>
	<node lat="59.018802774768595" lon="5.574830562497774" id="-13">
		<tag k="name" v="Todden" />
		<tag k="natural" v="cape" />
		<tag k="ssr:stedsnr" v="244773" />
	</node>
	<node lat="59.00306389032277" lon="5.590327772617974" id="-14">
		<tag k="name" v="Reverinda" />
=======
	<node id="-25211" lat="58.9876916628" lon="5.4888444446">
		<tag k="alt_name" v="Langafluskjera;Longafluskjera" />
		<tag k="fixme" v="consider seamark:type=rock or natural=shoal" />
		<tag k="name" v="Langefluskjera" />
		<tag k="place" v="islet" />
		<tag k="ssr:stedsnr" v="850103" />
	</node>
	<node id="-25210" lat="58.9901166649" lon="5.5099444434">
		<tag k="name" v="Svartaskjera" />
		<tag k="place" v="islet" />
		<tag k="ssr:stedsnr" v="847212" />
	</node>
	<node id="-25209" lat="59.0345250033" lon="5.58791389701">
		<tag k="alt_name" v="Tungevågen" />
		<tag k="name" v="Tungevika" />
		<tag k="natural" v="bay" />
		<tag k="ssr:stedsnr" v="851794" />
	</node>
	<node id="-25208" lat="59.0068555593" lon="5.64119444872">
		<tag k="bridge" v="yes" />
		<tag k="layer" v="1" />
		<tag k="name" v="Grødem" />
		<tag k="ssr:stedsnr" v="836628" />
	</node>
	<node id="-25207" lat="59.0026416638" lon="5.57671665924">
		<tag k="alt_name" v="Bø ytre" />
		<tag k="name" v="Ytre Bø" />
>>>>>>> e1d4bc35ff8a6074a6f2e91616a996b547c36f15
		<tag k="place" v="farm" />
		<tag k="ssr:stedsnr" v="84491" />
	</node>
<<<<<<< HEAD
	<node lat="58.99371944145826" lon="5.506288888717562" id="-15">
		<tag k="name" v="Høvringen" />
		<tag k="place" v="locality" />
		<tag k="seamark:type" v="rock" />
		<tag k="ssr:stedsnr" v="85523" />
	</node>
	<node lat="58.98645175572329" lon="5.6188404623990795" id="-16">
		<tag k="alt_name" v="vestre Goa" />
		<tag k="name" v="Goa" />
		<tag k="place" v="hamlet" />
		<tag k="ssr:stedsnr" v="122108" />
	</node>
	<node lat="58.986022218201754" lon="5.652416667542117" id="-17">
		<tag k="name" v="Molkeholen" />
=======
	<node id="-25206" lat="58.9747250012" lon="5.5351944462">
		<tag k="name" v="Taraldsflua" />
		<tag k="place" v="locality" />
		<tag k="seamark:type" v="rock" />
		<tag k="ssr:stedsnr" v="817606" />
	</node>
	<node id="-25205" lat="58.9889500031" lon="5.62258888427">
		<tag k="name" v="Trønå" />
		<tag k="place" v="farm" />
		<tag k="ssr:stedsnr" v="813259" />
	</node>
	<node id="-25204" lat="58.9804277757" lon="5.59250000533">
		<tag k="name" v="Visteviga" />
		<tag k="natural" v="bay" />
		<tag k="ssr:stedsnr" v="789106" />
	</node>
	<node id="-25203" lat="58.9797499967" lon="5.63116388061">
		<tag k="name" v="Båtvik" />
>>>>>>> e1d4bc35ff8a6074a6f2e91616a996b547c36f15
		<tag k="place" v="farm" />
		<tag k="ssr:stedsnr" v="145285" />
	</node>
<<<<<<< HEAD
	<node lat="58.982638887976194" lon="5.612108335297992" id="-18">
		<tag k="name" v="Varhei" />
		<tag k="natural" v="hill" />
=======
	<node id="-25202" lat="58.987716663" lon="5.45609721844">
		<tag k="name" v="Monsagrunnen" />
		<tag k="natural" v="shoal" />
>>>>>>> e1d4bc35ff8a6074a6f2e91616a996b547c36f15
		<tag k="place" v="locality" />
		<tag k="ssr:stedsnr" v="145298" />
	</node>
<<<<<<< HEAD
	<node lat="59.01054722667858" lon="5.567538896406459" id="-19">
		<tag k="name" v="Løndshaug" />
		<tag k="natural" v="hill" />
		<tag k="place" v="locality" />
		<tag k="ssr:stedsnr" v="145438" />
	</node>
	<node lat="59.03969999874417" lon="5.491488886305799" id="-20">
		<tag k="name" v="Djupaflua" />
=======
	<node id="-25201" lat="59.0175333315" lon="5.57390277171">
		<tag k="name" v="Børaunen" />
		<tag k="natural" v="cape" />
		<tag k="ssr:stedsnr" v="780310" />
	</node>
	<node id="-25200" lat="59.0440638855" lon="5.56440555608">
		<tag k="name" v="Nordre Tungeflua" />
>>>>>>> e1d4bc35ff8a6074a6f2e91616a996b547c36f15
		<tag k="natural" v="shoal" />
		<tag k="place" v="locality" />
		<tag k="ssr:stedsnr" v="183800" />
	</node>
<<<<<<< HEAD
	<node lat="58.99607500179024" lon="5.5269527730669585" id="-21">
		<tag k="name" v="Monsagrunnen" />
=======
	<node id="-25199" lat="58.9841222185" lon="5.45084166712">
		<tag k="name" v="Villeboane" />
>>>>>>> e1d4bc35ff8a6074a6f2e91616a996b547c36f15
		<tag k="place" v="locality" />
		<tag k="seamark:type" v="rock" />
		<tag k="ssr:stedsnr" v="267560" />
	</node>
<<<<<<< HEAD
	<node lat="58.98499722220794" lon="5.601761110948899" id="-22">
		<tag k="name" v="Hammaren" />
		<tag k="natural" v="cape" />
		<tag k="ssr:stedsnr" v="206353" />
	</node>
	<node lat="58.990772218424844" lon="5.603174999586447" id="-23">
		<tag k="name" v="Kulebergmyra" />
		<tag k="natural" v="wetland" />
		<tag k="ssr:stedsnr" v="206355" />
	</node>
	<node lat="58.997955551073645" lon="5.618255549107014" id="-24">
		<tag k="name" v="Heia" />
		<tag k="place" v="farm" />
		<tag k="ssr:stedsnr" v="206611" />
	</node>
	<node lat="59.00602777340129" lon="5.626761108585845" id="-25">
		<tag k="name" v="Odnaberg" />
=======
	<node id="-25198" lat="59.0068666668" lon="5.6596250024">
		<tag k="name" v="Svartufs" />
		<tag k="natural" v="hill" />
		<tag k="place" v="locality" />
		<tag k="ssr:stedsnr" v="752603" />
	</node>
	<node id="-25197" lat="58.982922224" lon="5.49780555627">
		<tag k="name" v="Store Grynningen" />
		<tag k="place" v="islet" />
		<tag k="ssr:stedsnr" v="752575" />
	</node>
	<node id="-25196" lat="59.0185222226" lon="5.60050555724">
		<tag k="fixme" v="consider natural=peak for the most distinct mountains in the district" />
		<tag k="name" v="Randabergfjellet" />
>>>>>>> e1d4bc35ff8a6074a6f2e91616a996b547c36f15
		<tag k="natural" v="hill" />
		<tag k="place" v="locality" />
		<tag k="ssr:stedsnr" v="206613" />
	</node>
<<<<<<< HEAD
	<node lat="58.99449722075271" lon="5.518402771616964" id="-26">
		<tag k="name" v="Sprettet" />
		<tag k="place" v="locality" />
		<tag k="seamark:type" v="rock" />
		<tag k="ssr:stedsnr" v="206571" />
	</node>
	<node lat="58.98572222384416" lon="5.64330833721125" id="-27">
		<tag k="name" v="Svartholen" />
=======
	<node id="-25195" lat="58.9789861145" lon="5.64183333419">
		<tag k="name" v="Nylende" />
>>>>>>> e1d4bc35ff8a6074a6f2e91616a996b547c36f15
		<tag k="place" v="farm" />
		<tag k="ssr:stedsnr" v="449291" />
	</node>
<<<<<<< HEAD
	<node lat="58.97915278112727" lon="5.608988887849513" id="-28">
		<tag k="name" v="Endrestø" />
		<tag k="natural" v="bay" />
		<tag k="ssr:stedsnr" v="449297" />
	</node>
	<node lat="59.00650277793526" lon="5.557061104399012" id="-29">
		<tag k="name" v="Bøskjenane" />
=======
	<node id="-25194" lat="59.0516555589" lon="5.50476388607">
		<tag k="name" v="Litla Kråga" />
		<tag k="place" v="islet" />
		<tag k="ssr:stedsnr" v="631612" />
	</node>
	<node id="-25193" lat="58.9973916633" lon="5.50243055444">
		<tag k="name" v="Steinboane" />
>>>>>>> e1d4bc35ff8a6074a6f2e91616a996b547c36f15
		<tag k="place" v="locality" />
		<tag k="seamark:type" v="rock" />
		<tag k="ssr:stedsnr" v="244778" />
	</node>
<<<<<<< HEAD
	<node lat="59.00382499936637" lon="5.662705557474537" id="-30">
		<tag k="alt_name" v="Haukhammar" />
		<tag k="name" v="Haukhammaren" />
=======
	<node id="-25192" lat="59.0084952644" lon="5.65423640956">
		<tag k="fixme" v="consider natural=peak for the most distinct mountains in the district" />
		<tag k="name" v="Hagafjellet" />
>>>>>>> e1d4bc35ff8a6074a6f2e91616a996b547c36f15
		<tag k="natural" v="hill" />
		<tag k="place" v="locality" />
		<tag k="ssr:stedsnr" v="244796" />
	</node>
<<<<<<< HEAD
	<node lat="58.98137222465828" lon="5.582408339695646" id="-31">
		<tag k="name" v="Rausteingrunnen" />
=======
	<node id="-25191" lat="59.0104277759" lon="5.61776111881">
		<tag k="name" v="Oddahaugen" />
		<tag k="natural" v="hill" />
>>>>>>> e1d4bc35ff8a6074a6f2e91616a996b547c36f15
		<tag k="place" v="locality" />
		<tag k="seamark:type" v="rock" />
		<tag k="ssr:stedsnr" v="453632" />
	</node>
<<<<<<< HEAD
	<node lat="59.00035555594079" lon="5.647219436408765" id="-32">
		<tag k="name" v="Stølsbrotet" />
		<tag k="place" v="farm" />
		<tag k="ssr:stedsnr" v="266632" />
	</node>
	<node lat="59.00048888564946" lon="5.5660861161976225" id="-33">
		<tag k="name" v="Einarsviga" />
		<tag k="natural" v="bay" />
		<tag k="ssr:stedsnr" v="305766" />
	</node>
	<node lat="59.019702919380755" lon="5.609287321742286" id="-34">
=======
	<node id="-25190" lat="58.9995492942" lon="5.61874496976">
		<tag k="name" v="Randaberg" />
		<tag k="place" v="village" />
		<tag k="ssr:stedsnr" v="608788" />
	</node>
	<node id="-25189" lat="58.9903611092" lon="5.50914165833">
		<tag k="fixme" v="consider seamark:type=rock or natural=shoal" />
		<tag k="name" v="Søra Svartaskjeret" />
		<tag k="place" v="islet" />
		<tag k="ssr:stedsnr" v="607098" />
	</node>
	<node id="-25188" lat="58.9788082429" lon="5.65197363166">
>>>>>>> e1d4bc35ff8a6074a6f2e91616a996b547c36f15
		<tag k="fixme" v="consider place=hamlet" />
		<tag k="name" v="Randaberg" />
		<tag k="place" v="farm" />
		<tag k="ssr:stedsnr" v="327661" />
	</node>
<<<<<<< HEAD
	<node lat="58.97884722478185" lon="5.645269436244335" id="-35">
		<tag k="bridge" v="yes" />
		<tag k="layer" v="1" />
		<tag k="name" v="Leikvoll" />
		<tag k="ssr:stedsnr" v="471648" />
	</node>
	<node lat="58.99131291171678" lon="5.593364673482692" id="-36">
		<tag k="fixme" v="consider place=hamlet" />
		<tag k="name" v="Viste" />
		<tag k="place" v="farm" />
		<tag k="ssr:stedsnr" v="364106" />
	</node>
	<node lat="58.98863888708623" lon="5.5978166684886865" id="-37">
		<tag k="name" v="Vistehola" />
		<tag k="place" v="farm" />
		<tag k="ssr:stedsnr" v="364122" />
	</node>
	<node lat="58.98614101670538" lon="5.568919952167022" id="-38">
=======
	<node id="-25187" lat="58.9775749976" lon="5.54100278457">
		<tag k="name" v="Dalhaugflua" />
		<tag k="place" v="locality" />
		<tag k="seamark:type" v="rock" />
		<tag k="ssr:stedsnr" v="574649" />
	</node>
	<node id="-25186" lat="59.0041027825" lon="5.66116389522">
		<tag k="name" v="Nodberget" />
		<tag k="natural" v="cape" />
		<tag k="ssr:stedsnr" v="570549" />
	</node>
	<node id="-25185" lat="59.0107444452" lon="5.65698333327">
		<tag k="name" v="Beinholet" />
		<tag k="natural" v="bay" />
		<tag k="ssr:stedsnr" v="569643" />
	</node>
	<node id="-25184" lat="58.9852343941" lon="5.58515556145">
>>>>>>> e1d4bc35ff8a6074a6f2e91616a996b547c36f15
		<tag k="fixme" v="consider place=hamlet" />
		<tag k="name" v="Vistnes" />
		<tag k="place" v="farm" />
		<tag k="ssr:stedsnr" v="364124" />
	</node>
<<<<<<< HEAD
	<node lat="59.00909722433978" lon="5.641961104493645" id="-39">
		<tag k="alt_name" v="Grødeim" />
		<tag k="name" v="Grødem" />
		<tag k="place" v="farm" />
		<tag k="ssr:stedsnr" v="365799" />
	</node>
	<node lat="58.98325555992926" lon="5.569702783913663" id="-40">
		<tag k="name" v="Vistnesvågen" />
=======
	<node id="-25183" lat="58.9819555595" lon="5.60797778381">
		<tag k="name" v="Goavika" />
>>>>>>> e1d4bc35ff8a6074a6f2e91616a996b547c36f15
		<tag k="natural" v="bay" />
		<tag k="ssr:stedsnr" v="387405" />
	</node>
<<<<<<< HEAD
	<node lat="58.998333336926954" lon="5.644252773108638" id="-41">
		<tag k="name" v="Klampen" />
		<tag k="place" v="locality" />
		<tag k="ssr:stedsnr" v="387641" />
	</node>
	<node lat="58.99077778127749" lon="5.566688883069057" id="-42">
		<tag k="name" v="Molviga" />
=======
	<node id="-25182" lat="58.9834444408" lon="5.6254166601">
		<tag k="name" v="Kuvomma" />
>>>>>>> e1d4bc35ff8a6074a6f2e91616a996b547c36f15
		<tag k="natural" v="bay" />
		<tag k="ssr:stedsnr" v="485087" />
	</node>
<<<<<<< HEAD
	<node lat="58.99689722441423" lon="5.605575000588637" id="-43">
		<tag k="name" v="Dalheim" />
=======
	<node id="-25181" lat="58.9860111124" lon="5.62822223049">
		<tag k="name" v="Dalen" />
>>>>>>> e1d4bc35ff8a6074a6f2e91616a996b547c36f15
		<tag k="place" v="farm" />
		<tag k="ssr:stedsnr" v="485093" />
	</node>
<<<<<<< HEAD
	<node lat="59.00695176100669" lon="5.650516191511559" id="-45">
		<tag k="alt_name" v="Grødeim" />
=======
	<node id="-25180" lat="59.0347666247" lon="5.58573759133">
>>>>>>> e1d4bc35ff8a6074a6f2e91616a996b547c36f15
		<tag k="fixme" v="consider place=hamlet" />
		<tag k="name" v="Grødem" />
		<tag k="place" v="farm" />
<<<<<<< HEAD
		<tag k="ssr:stedsnr" v="487791" />
	</node>
	<node lat="58.9680888868667" lon="5.414166663075834" id="-46">
=======
		<tag k="ssr:stedsnr" v="547831" />
	</node>
	<node id="-25179" lat="59.0220749989" lon="5.49502777033">
		<tag k="name" v="Alsteinfluene" />
		<tag k="place" v="locality" />
		<tag k="seamark:type" v="rock" />
		<tag k="ssr:stedsnr" v="547826" />
	</node>
	<node id="-25178" lat="59.0256416627" lon="5.57676666759">
		<tag k="fixme" v="consider seamark:type=rock or natural=shoal" />
		<tag k="name" v="Gunnarsskjera" />
		<tag k="place" v="islet" />
		<tag k="ssr:stedsnr" v="547821" />
	</node>
	<node id="-25177" lat="58.9827861087" lon="5.49291389343">
		<tag k="name" v="Litle Grynningen" />
		<tag k="place" v="islet" />
		<tag k="ssr:stedsnr" v="546124" />
	</node>
	<node id="-25176" lat="58.9963861092" lon="5.69309443781">
>>>>>>> e1d4bc35ff8a6074a6f2e91616a996b547c36f15
		<tag k="bay" v="fjord" />
		<tag k="name" v="Håsteinsfjorden" />
		<tag k="natural" v="bay" />
<<<<<<< HEAD
		<tag k="ssr:stedsnr" v="425114" />
	</node>
	<node lat="59.07074166413022" lon="5.563047228124893" id="-47">
=======
		<tag k="ssr:stedsnr" v="546122" />
	</node>
	<node id="-25175" lat="58.9856861152" lon="5.62951388146">
		<tag k="bridge" v="yes" />
		<tag k="layer" v="1" />
		<tag k="name" v="Goa" />
		<tag k="ssr:stedsnr" v="532636" />
	</node>
	<node id="-25174" lat="59.0707416641" lon="5.56304722812">
>>>>>>> e1d4bc35ff8a6074a6f2e91616a996b547c36f15
		<tag k="bay" v="fjord" />
		<tag k="name" v="Kvitsøyfjorden" />
		<tag k="natural" v="bay" />
		<tag k="ssr:stedsnr" v="427782" />
	</node>
<<<<<<< HEAD
	<node lat="59.011161111308404" lon="5.583211103394359" id="-48">
		<tag k="name" v="Groen" />
		<tag k="place" v="farm" />
		<tag k="ssr:stedsnr" v="449414" />
	</node>
	<node lat="58.99635833360788" lon="5.61951943973161" id="-50">
		<tag k="name" v="Torset" />
=======
	<node id="-25173" lat="59.0085416688" lon="5.60822500246">
		<tag k="alt_name" v="Steines" />
		<tag k="name" v="Steinnes" />
		<tag k="place" v="farm" />
		<tag k="ssr:stedsnr" v="426774" />
	</node>
	<node id="-25172" lat="58.9680888869" lon="5.41416666308">
		<tag k="bay" v="fjord" />
		<tag k="name" v="Håsteinsfjorden" />
		<tag k="natural" v="bay" />
		<tag k="ssr:stedsnr" v="425114" />
	</node>
	<node id="-25171" lat="58.9913527746" lon="5.64046388595">
		<tag k="name" v="Foren" />
		<tag k="place" v="farm" />
		<tag k="ssr:stedsnr" v="425089" />
	</node>
	<node id="-25170" lat="58.9985361119" lon="5.62452222691">
		<tag k="bridge" v="yes" />
		<tag k="layer" v="1" />
		<tag k="name" v="Randaberg" />
		<tag k="ssr:stedsnr" v="411623" />
	</node>
	<node id="-25169" lat="59.0236722225" lon="5.61353611698">
		<tag k="amenity" v="ferry_terminal" />
		<tag k="name" v="Randaberg ferjekai" />
		<tag k="ssr:stedsnr" v="411622" />
	</node>
	<node id="-25168" lat="58.9900333368" lon="5.53626944872">
		<tag k="name" v="Bjørnaflua" />
>>>>>>> e1d4bc35ff8a6074a6f2e91616a996b547c36f15
		<tag k="place" v="locality" />
		<tag k="ssr:stedsnr" v="449618" />
	</node>
<<<<<<< HEAD
	<node lat="59.00941388742543" lon="5.582791673973905" id="-52">
		<tag k="name" v="Gravet" />
=======
	<node id="-25167" lat="58.9983333369" lon="5.64425277311">
		<tag k="name" v="Klampen" />
>>>>>>> e1d4bc35ff8a6074a6f2e91616a996b547c36f15
		<tag k="place" v="locality" />
		<tag k="ssr:stedsnr" v="509418" />
	</node>
<<<<<<< HEAD
	<node lat="58.99779444231779" lon="5.626474994547167" id="-53">
		<tag k="name" v="Stølen" />
=======
	<node id="-25166" lat="58.9929638897" lon="5.59427778102">
		<tag k="name" v="Grøvjå" />
>>>>>>> e1d4bc35ff8a6074a6f2e91616a996b547c36f15
		<tag k="place" v="farm" />
		<tag k="ssr:stedsnr" v="509602" />
	</node>
<<<<<<< HEAD
	<node lat="58.982786108738274" lon="5.492913893430608" id="-55">
		<tag k="name" v="Litle Grynningen" />
		<tag k="place" v="islet" />
		<tag k="ssr:stedsnr" v="546124" />
	</node>
	<node lat="59.01156388823065" lon="5.586955549657997" id="-56">
		<tag k="name" v="Bakkane" />
		<tag k="place" v="farm" />
		<tag k="ssr:stedsnr" v="691450" />
	</node>
	<node lat="58.986011112421345" lon="5.62822223048777" id="-57">
		<tag k="name" v="Dalen" />
=======
	<node id="-25165" lat="59.0007888904" lon="5.56977499685">
		<tag k="name" v="Rissberg" />
		<tag k="place" v="locality" />
		<tag k="ssr:stedsnr" v="387499" />
	</node>
	<node id="-25164" lat="59.0090972243" lon="5.64196110449">
		<tag k="alt_name" v="Grødeim" />
		<tag k="name" v="Grødem" />
		<tag k="place" v="farm" />
		<tag k="ssr:stedsnr" v="365799" />
	</node>
	<node id="-25163" lat="59.0088166625" lon="5.56135832793">
		<tag k="name" v="Sandeskjeret" />
		<tag k="natural" v="shoal" />
		<tag k="place" v="locality" />
		<tag k="ssr:stedsnr" v="365782" />
	</node>
	<node id="-25162" lat="58.9861410167" lon="5.56891995217">
		<tag k="fixme" v="consider place=hamlet" />
		<tag k="name" v="Vistnes" />
>>>>>>> e1d4bc35ff8a6074a6f2e91616a996b547c36f15
		<tag k="place" v="farm" />
		<tag k="ssr:stedsnr" v="569306" />
	</node>
<<<<<<< HEAD
	<node lat="58.98344444077199" lon="5.625416660096176" id="-58">
		<tag k="name" v="Kuvomma" />
		<tag k="natural" v="bay" />
		<tag k="ssr:stedsnr" v="569313" />
	</node>
	<node lat="58.98195555952369" lon="5.607977783806305" id="-59">
		<tag k="name" v="Goavika" />
		<tag k="natural" v="bay" />
		<tag k="ssr:stedsnr" v="569321" />
	</node>
	<node lat="59.010744445160604" lon="5.656983333272914" id="-60">
		<tag k="name" v="Beinholet" />
		<tag k="natural" v="bay" />
		<tag k="ssr:stedsnr" v="569643" />
	</node>
	<node lat="59.02314999825001" lon="5.611172226078638" id="-61">
		<tag k="alt_name" v="Megjersvika" />
		<tag k="name" v="Mekjarvik" />
		<tag k="natural" v="bay" />
		<tag k="old_name" v="Megjervika" />
		<tag k="ssr:stedsnr" v="570317" />
	</node>
	<node lat="58.97757499756354" lon="5.541002784566681" id="-62">
		<tag k="name" v="Dalhaugflua" />
		<tag k="place" v="locality" />
		<tag k="seamark:type" v="rock" />
		<tag k="ssr:stedsnr" v="574649" />
	</node>
	<node lat="58.990361109184455" lon="5.509141658330857" id="-63">
		<tag k="fixme" v="consider seamark:type=rock or natural=shoal" />
		<tag k="name" v="Søra Svartaskjeret" />
		<tag k="place" v="islet" />
		<tag k="ssr:stedsnr" v="607098" />
	</node>
	<node lat="59.01285555439394" lon="5.641958340055184" id="-64">
		<tag k="name" v="Harastadvika" />
		<tag k="natural" v="bay" />
		<tag k="ssr:stedsnr" v="608807" />
	</node>
	<node lat="59.0083644339192" lon="5.654788774071515" id="-65">
		<tag k="alt_name" v="Grødeimshammaren" />
		<tag k="name" v="Grødemhammaren" />
=======
	<node id="-25161" lat="58.9886388871" lon="5.59781666849">
		<tag k="name" v="Vistehola" />
		<tag k="place" v="farm" />
		<tag k="ssr:stedsnr" v="364122" />
	</node>
	<node id="-25160" lat="58.9898898802" lon="5.58575760192">
		<tag k="fixme" v="consider place=hamlet" />
		<tag k="name" v="Viste" />
		<tag k="place" v="farm" />
		<tag k="ssr:stedsnr" v="364106" />
	</node>
	<node id="-25159" lat="59.0357749979" lon="5.55956667089">
		<tag k="name" v="Tungefluene" />
		<tag k="place" v="locality" />
		<tag k="seamark:type" v="rock" />
		<tag k="ssr:stedsnr" v="328601" />
	</node>
	<node id="-25158" lat="58.9916805545" lon="5.48071666852">
		<tag k="name" v="Langeflua" />
		<tag k="place" v="locality" />
		<tag k="seamark:type" v="rock" />
		<tag k="ssr:stedsnr" v="328588" />
	</node>
	<node id="-25157" lat="59.0010749997" lon="5.63008334133">
		<tag k="name" v="Harestadmyra" />
		<tag k="natural" v="wetland" />
		<tag k="ssr:stedsnr" v="327601" />
	</node>
	<node id="-25156" lat="59.0037805514" lon="5.65361388679">
		<tag k="name" v="Stemmen" />
		<tag k="place" v="farm" />
		<tag k="ssr:stedsnr" v="327598" />
	</node>
	<node id="-25155" lat="59.0197029194" lon="5.60928732174">
		<tag k="fixme" v="consider place=hamlet" />
		<tag k="name" v="Randaberg" />
		<tag k="place" v="farm" />
		<tag k="ssr:stedsnr" v="327661" />
	</node>
	<node id="-25154" lat="58.9839472204" lon="5.60985555963">
		<tag k="name" v="Klubben" />
		<tag k="natural" v="hill" />
		<tag k="place" v="locality" />
		<tag k="ssr:stedsnr" v="327301" />
	</node>
	<node id="-25153" lat="58.9891277736" lon="5.61907777105">
		<tag k="fixme" v="consider natural=peak for the most distinct mountains in the district" />
		<tag k="name" v="Ringaberg" />
>>>>>>> e1d4bc35ff8a6074a6f2e91616a996b547c36f15
		<tag k="natural" v="hill" />
		<tag k="place" v="locality" />
		<tag k="ssr:stedsnr" v="608809" />
	</node>
<<<<<<< HEAD
	<node lat="58.99954929418691" lon="5.618744969761386" id="-66">
		<tag k="name" v="Randaberg" />
		<tag k="place" v="village" />
		<tag k="ssr:stedsnr" v="608788" />
	</node>
	<node lat="58.997391663282464" lon="5.502430554442007" id="-67">
		<tag k="name" v="Steinboane" />
		<tag k="place" v="locality" />
		<tag k="seamark:type" v="rock" />
		<tag k="ssr:stedsnr" v="631595" />
	</node>
	<node lat="59.05165555890341" lon="5.504763886065493" id="-68">
		<tag k="name" v="Litla Kråga" />
=======
	<node id="-25152" lat="59.0004888856" lon="5.5660861162">
		<tag k="name" v="Einarsviga" />
		<tag k="natural" v="bay" />
		<tag k="ssr:stedsnr" v="305766" />
	</node>
	<node id="-25151" lat="59.0236718181" lon="5.61353577327">
		<tag k="amenity" v="ferry_terminal" />
		<tag k="name" v="Mekjarvik ferjekai" />
		<tag k="old_name" v="Randaberg ferjekai" />
		<tag k="ssr:stedsnr" v="305751" />
	</node>
	<node id="-25150" lat="58.9935722234" lon="5.50879999867">
		<tag k="fixme" v="consider seamark:type=rock or natural=shoal" />
		<tag k="name" v="Nordra Svartaskjeret" />
>>>>>>> e1d4bc35ff8a6074a6f2e91616a996b547c36f15
		<tag k="place" v="islet" />
		<tag k="ssr:stedsnr" v="631612" />
	</node>
<<<<<<< HEAD
	<node lat="59.0303416636277" lon="5.580519448120279" id="-70">
		<tag k="name" v="Holmaviga" />
		<tag k="natural" v="bay" />
		<tag k="ssr:stedsnr" v="668804" />
	</node>
	<node lat="59.032361113744436" lon="5.586330548826177" id="-71">
		<tag k="name" v="Håbakken" />
		<tag k="place" v="farm" />
		<tag k="ssr:stedsnr" v="668805" />
	</node>
	<node lat="59.03122500075759" lon="5.593150001496684" id="-72">
		<tag k="name" v="Håbakken" />
=======
	<node id="-25149" lat="59.0305861125" lon="5.57403332683">
		<tag k="name" v="Holmanebbet" />
		<tag k="natural" v="cape" />
		<tag k="ssr:stedsnr" v="207575" />
	</node>
	<node id="-25148" lat="59.0060277734" lon="5.62676110859">
		<tag k="name" v="Odnaberg" />
>>>>>>> e1d4bc35ff8a6074a6f2e91616a996b547c36f15
		<tag k="natural" v="hill" />
		<tag k="place" v="locality" />
		<tag k="ssr:stedsnr" v="720074" />
	</node>
<<<<<<< HEAD
	<node lat="58.99034444378089" lon="5.613052780353106" id="-73">
		<tag k="name" v="Sørli" />
		<tag k="place" v="farm" />
		<tag k="ssr:stedsnr" v="729108" />
	</node>
	<node lat="58.97898611446714" lon="5.641833334185925" id="-74">
		<tag k="name" v="Nylende" />
		<tag k="place" v="farm" />
		<tag k="ssr:stedsnr" v="752264" />
	</node>
	<node lat="59.00686666681534" lon="5.659625002403507" id="-75">
		<tag k="name" v="Svartufs" />
		<tag k="natural" v="hill" />
		<tag k="place" v="locality" />
		<tag k="ssr:stedsnr" v="752603" />
	</node>
	<node lat="59.0440638854838" lon="5.564405556082609" id="-76">
		<tag k="name" v="Nordre Tungeflua" />
		<tag k="natural" v="shoal" />
=======
	<node id="-25147" lat="58.9979555511" lon="5.61825554911">
		<tag k="name" v="Heia" />
		<tag k="place" v="farm" />
		<tag k="ssr:stedsnr" v="206611" />
	</node>
	<node id="-25146" lat="58.9944972208" lon="5.51840277162">
		<tag k="name" v="Sprettet" />
		<tag k="place" v="locality" />
		<tag k="seamark:type" v="rock" />
		<tag k="ssr:stedsnr" v="206571" />
	</node>
	<node id="-25145" lat="59.0372638932" lon="5.58046667065">
		<tag k="name" v="Taraboen" />
		<tag k="place" v="locality" />
		<tag k="seamark:type" v="rock" />
		<tag k="ssr:stedsnr" v="206564" />
	</node>
	<node id="-25144" lat="59.0079833304" lon="5.59859167301">
		<tag k="name" v="Vassbotnen" />
		<tag k="place" v="locality" />
		<tag k="ssr:stedsnr" v="206414" />
	</node>
	<node id="-25143" lat="58.9907722184" lon="5.60317499959">
		<tag k="name" v="Kulebergmyra" />
		<tag k="natural" v="wetland" />
		<tag k="ssr:stedsnr" v="206355" />
	</node>
	<node id="-25142" lat="58.9849972222" lon="5.60176111095">
		<tag k="name" v="Hammaren" />
		<tag k="natural" v="cape" />
		<tag k="ssr:stedsnr" v="206353" />
	</node>
	<node id="-25141" lat="59.0028777774" lon="5.61154721817">
		<tag k="name" v="Berghaug" />
		<tag k="natural" v="hill" />
>>>>>>> e1d4bc35ff8a6074a6f2e91616a996b547c36f15
		<tag k="place" v="locality" />
		<tag k="ssr:stedsnr" v="770576" />
	</node>
<<<<<<< HEAD
	<node lat="58.9877166629727" lon="5.456097218441908" id="-77">
		<tag k="name" v="Monsagrunnen" />
=======
	<node id="-25140" lat="59.0396999987" lon="5.49148888631">
		<tag k="name" v="Djupaflua" />
>>>>>>> e1d4bc35ff8a6074a6f2e91616a996b547c36f15
		<tag k="natural" v="shoal" />
		<tag k="place" v="locality" />
		<tag k="ssr:stedsnr" v="783602" />
	</node>
<<<<<<< HEAD
	<node lat="58.994980553724794" lon="5.649886114876599" id="-78">
		<tag k="alt_name" v="Grødheim" />
		<tag k="name" v="Grødem" />
		<tag k="place" v="farm" />
		<tag k="ssr:stedsnr" v="911104" />
	</node>
	<node lat="58.993274999324036" lon="5.606349996210422" id="-79">
		<tag k="name" v="Viste" />
		<tag k="place" v="farm" />
		<tag k="ssr:stedsnr" v="911105" />
	</node>
	<node lat="58.98042777572979" lon="5.592500005328609" id="-80">
		<tag k="name" v="Visteviga" />
=======
	<node id="-25139" lat="59.0138305588" lon="5.56868333689">
		<tag k="name" v="Sundet" />
		<tag k="natural" v="bay" />
		<tag k="ssr:stedsnr" v="183772" />
	</node>
	<node id="-25138" lat="59.0409555568" lon="5.57218055075">
		<tag k="name" v="Bragen" />
		<tag k="place" v="islet" />
		<tag k="ssr:stedsnr" v="162696" />
	</node>
	<node id="-25137" lat="59.0273027822" lon="5.57903334153">
		<tag k="name" v="Breiviga" />
>>>>>>> e1d4bc35ff8a6074a6f2e91616a996b547c36f15
		<tag k="natural" v="bay" />
		<tag k="ssr:stedsnr" v="789106" />
	</node>
<<<<<<< HEAD
	<node lat="58.979749996704655" lon="5.631163880607629" id="-81">
		<tag k="name" v="Båtvik" />
		<tag k="place" v="farm" />
		<tag k="ssr:stedsnr" v="789056" />
	</node>
	<node lat="59.02188006022886" lon="5.621475279466173" id="-82">
		<tag k="name" v="Ladbergvika" />
=======
	<node id="-25136" lat="59.0105472267" lon="5.56753889641">
		<tag k="name" v="Løndshaug" />
		<tag k="natural" v="hill" />
		<tag k="place" v="locality" />
		<tag k="ssr:stedsnr" v="145438" />
	</node>
	<node id="-25135" lat="58.9841916682" lon="5.5636027849">
		<tag k="name" v="Dønneviga" />
>>>>>>> e1d4bc35ff8a6074a6f2e91616a996b547c36f15
		<tag k="natural" v="bay" />
		<tag k="ssr:stedsnr" v="912753" />
	</node>
<<<<<<< HEAD
	<node lat="59.01647178550896" lon="5.579287258287233" id="-83">
		<tag k="name" v="Bøvika" />
		<tag k="natural" v="bay" />
		<tag k="ssr:stedsnr" v="912756" />
	</node>
	<node lat="59.015666667253114" lon="5.565433336448741" id="-84">
		<tag k="name" v="Børaunen" />
		<tag k="natural" v="cape" />
		<tag k="ssr:stedsnr" v="912759" />
	</node>
	<node lat="59.00804427610751" lon="5.586110927110934" id="-85">
		<tag k="alt_name" v="Bø, indre;Bø indre" />
		<tag k="fixme" v="consider place=hamlet" />
		<tag k="name" v="Indre Bø" />
=======
	<node id="-25134" lat="58.9853861109" lon="5.58134166222">
		<tag k="name" v="Stemmen" />
		<tag k="place" v="farm" />
		<tag k="ssr:stedsnr" v="145349" />
	</node>
	<node id="-25133" lat="58.982638888" lon="5.6121083353">
		<tag k="name" v="Varhei" />
		<tag k="natural" v="hill" />
		<tag k="place" v="locality" />
		<tag k="ssr:stedsnr" v="145298" />
	</node>
	<node id="-25132" lat="58.9860222182" lon="5.65241666754">
		<tag k="name" v="Molkeholen" />
>>>>>>> e1d4bc35ff8a6074a6f2e91616a996b547c36f15
		<tag k="place" v="farm" />
		<tag k="ssr:stedsnr" v="912762" />
	</node>
<<<<<<< HEAD
	<node lat="59.0162928357288" lon="5.6247889855826445" id="-86">
=======
	<node id="-25131" lat="59.02487233" lon="5.59435686759">
>>>>>>> e1d4bc35ff8a6074a6f2e91616a996b547c36f15
		<tag k="fixme" v="consider place=hamlet" />
		<tag k="name" v="Todneim" />
		<tag k="place" v="farm" />
<<<<<<< HEAD
		<tag k="ssr:stedsnr" v="912765" />
	</node>
	<node lat="59.00137499740343" lon="5.6141222258903785" id="-87">
		<tag k="name" v="Valen" />
		<tag k="place" v="farm" />
		<tag k="ssr:stedsnr" v="912777" />
	</node>
	<node lat="58.982552777911245" lon="5.602636104377343" id="-88">
		<tag k="name" v="Visteholmen" />
		<tag k="place" v="islet" />
		<tag k="ssr:stedsnr" v="813329" />
	</node>
	<node lat="58.97472500118711" lon="5.53519444619899" id="-89">
		<tag k="name" v="Taraldsflua" />
=======
		<tag k="ssr:stedsnr" v="122805" />
	</node>
	<node id="-25130" lat="59.0335222216" lon="5.57258889587">
		<tag k="name" v="Skoholmgrunnen" />
		<tag k="natural" v="shoal" />
		<tag k="place" v="locality" />
		<tag k="ssr:stedsnr" v="122781" />
	</node>
	<node id="-25129" lat="59.0116861091" lon="5.61425833096">
		<tag k="name" v="Oddaheia" />
		<tag k="place" v="farm" />
		<tag k="ssr:stedsnr" v="122759" />
	</node>
	<node id="-25128" lat="59.0173305592" lon="5.61907222446">
		<tag k="name" v="Signalhaugen" />
		<tag k="natural" v="hill" />
		<tag k="old_name" v="Varden" />
		<tag k="place" v="locality" />
		<tag k="ssr:stedsnr" v="122753" />
	</node>
	<node id="-25127" lat="58.9864517557" lon="5.6188404624">
		<tag k="alt_name" v="vestre Goa" />
		<tag k="name" v="Goa" />
		<tag k="place" v="hamlet" />
		<tag k="ssr:stedsnr" v="122108" />
	</node>
	<node id="-25126" lat="58.9937194415" lon="5.50628888872">
		<tag k="name" v="Høvringen" />
>>>>>>> e1d4bc35ff8a6074a6f2e91616a996b547c36f15
		<tag k="place" v="locality" />
		<tag k="seamark:type" v="rock" />
		<tag k="ssr:stedsnr" v="817606" />
	</node>
<<<<<<< HEAD
	<node lat="59.006855559293136" lon="5.641194448723278" id="-90">
		<tag k="bridge" v="yes" />
		<tag k="layer" v="1" />
		<tag k="name" v="Grødem" />
		<tag k="ssr:stedsnr" v="836628" />
	</node>
	<node lat="58.99011666486245" lon="5.509944443398201" id="-91">
		<tag k="name" v="Svartaskjera" />
		<tag k="place" v="islet" />
		<tag k="ssr:stedsnr" v="847212" />
	</node>
	<node lat="58.987691662769784" lon="5.488844444596414" id="-92">
		<tag k="alt_name" v="Langafluskjera;Longafluskjera" />
=======
	<node id="-25125" lat="58.9841888912" lon="5.5194416658">
>>>>>>> e1d4bc35ff8a6074a6f2e91616a996b547c36f15
		<tag k="fixme" v="consider seamark:type=rock or natural=shoal" />
		<tag k="name" v="Langefluskjera" />
		<tag k="place" v="islet" />
		<tag k="ssr:stedsnr" v="850103" />
	</node>
<<<<<<< HEAD
	<node lat="58.999780557794566" lon="5.619291673899786" id="-93">
		<tag k="alt_name" v="Randaberg" />
		<tag k="amenity" v="place_of_worship" />
		<tag k="denomination" v="lutheran" />
		<tag k="name" v="Randaberg kirke" />
		<tag k="religion" v="christian" />
		<tag k="ssr:stedsnr" v="851769" />
	</node>
	<node lat="59.0345250033443" lon="5.5879138970087805" id="-94">
		<tag k="alt_name" v="Tungevågen" />
		<tag k="name" v="Tungevika" />
=======
	<node id="-25124" lat="58.9774625659" lon="5.62797520822">
		<tag k="name" v="Båtvika" />
>>>>>>> e1d4bc35ff8a6074a6f2e91616a996b547c36f15
		<tag k="natural" v="bay" />
		<tag k="ssr:stedsnr" v="851794" />
	</node>
<<<<<<< HEAD
	<node lat="58.980944440087846" lon="5.629769439626545" id="-95">
		<tag k="name" v="Dalen" />
=======
	<node id="-25123" lat="59.0030638903" lon="5.59032777262">
		<tag k="name" v="Reverinda" />
>>>>>>> e1d4bc35ff8a6074a6f2e91616a996b547c36f15
		<tag k="place" v="farm" />
		<tag k="ssr:stedsnr" v="934276" />
	</node>
<<<<<<< HEAD
	<node lat="58.97375833511633" lon="5.643430554196385" id="-96">
		<tag k="name" v="Lyngnes" />
		<tag k="natural" v="cape" />
		<tag k="ssr:stedsnr" v="934281" />
	</node>
	<node lat="59.000919447327476" lon="5.644816672457304" id="-97">
		<tag k="bridge" v="yes" />
		<tag k="layer" v="1" />
		<tag k="name" v="Rygg" />
		<tag k="ssr:stedsnr" v="896709" />
	</node>
	<node lat="59.01191389293719" lon="5.63579722319707" id="-98">
=======
	<node id="-25122" lat="59.0307361117" lon="5.57552499468">
		<tag k="name" v="Holmodden" />
		<tag k="natural" v="cape" />
		<tag k="ssr:stedsnr" v="62801" />
	</node>
	<node id="-25121" lat="58.993919444" lon="5.59820278168">
		<tag k="name" v="Viste" />
		<tag k="place" v="farm" />
		<tag k="ssr:stedsnr" v="62770" />
	</node>
	<node id="-25120" lat="59.0000861109" lon="5.6413555495">
		<tag k="name" v="Rygg" />
		<tag k="place" v="farm" />
		<tag k="ssr:stedsnr" v="62359" />
	</node>
	<node id="-25119" lat="58.9881666694" lon="5.63291388512">
		<tag k="alt_name" v="austre Goa" />
		<tag k="name" v="Goa" />
		<tag k="place" v="farm" />
		<tag k="ssr:stedsnr" v="61091" />
	</node>
	<node id="-25118" lat="58.9986781482" lon="5.63731070434">
		<tag k="fixme" v="consider place=hamlet" />
		<tag k="name" v="Rygg" />
		<tag k="place" v="farm" />
		<tag k="ssr:stedsnr" v="61089" />
	</node>
	<node id="-25117" lat="58.994560929" lon="5.57782402415">
		<tag k="fixme" v="consider place=hamlet" />
		<tag k="name" v="Vistvik" />
		<tag k="place" v="farm" />
		<tag k="ssr:stedsnr" v="61087" />
	</node>
	<node id="-25116" lat="59.0187277736" lon="5.62737500648">
>>>>>>> e1d4bc35ff8a6074a6f2e91616a996b547c36f15
		<tag k="bridge" v="yes" />
		<tag k="layer" v="1" />
		<tag k="name" v="Harestad" />
		<tag k="ssr:stedsnr" v="896710" />
	</node>
<<<<<<< HEAD
	<node lat="59.02999722055522" lon="5.602261107782033" id="-99">
		<tag k="name" v="Galtasteinen" />
		<tag k="natural" v="cape" />
		<tag k="old_name" v="Galtehaugen;Galten" />
		<tag k="ssr:stedsnr" v="912815" />
	</node>
	<node lat="59.026463279122595" lon="5.6069117848419" id="-100">
		<tag k="name" v="Randabergbukta" />
		<tag k="natural" v="bay" />
		<tag k="ssr:stedsnr" v="912817" />
	</node>
	<node lat="59.0521750013493" lon="5.5073444413792" id="-101">
		<tag k="name" v="Stora Kråga" />
		<tag k="place" v="islet" />
		<tag k="ssr:stedsnr" v="912844" />
	</node>
	<node lat="59.01053610965951" lon="5.634002777364295" id="-102">
		<tag k="name" v="Kjelvå" />
		<tag k="place" v="farm" />
		<tag k="ssr:stedsnr" v="934603" />
	</node>
	<node lat="59.03058611245829" lon="5.574033326834842" id="-103">
		<tag k="name" v="Breiviga" />
=======
	<node id="-25115" lat="59.0030220599" lon="5.57548449475">
		<tag k="alt_name" v="Bø, ytre" />
		<tag k="fixme" v="consider place=hamlet" />
		<tag k="name" v="Ytre Bø" />
		<tag k="place" v="farm" />
		<tag k="ssr:stedsnr" v="31771" />
	</node>
	<node id="-25114" lat="59.0028666661" lon="5.59897223046">
		<tag k="name" v="Langerind" />
		<tag k="place" v="farm" />
		<tag k="ssr:stedsnr" v="24441" />
	</node>
	<node id="-25113" lat="58.9861388916" lon="5.56652776969">
		<tag k="name" v="Vedabakken" />
		<tag k="natural" v="hill" />
		<tag k="place" v="locality" />
		<tag k="ssr:stedsnr" v="24356" />
	</node>
	<node id="-25112" lat="58.9812416685" lon="5.57409722617">
		<tag k="name" v="Neset" />
		<tag k="natural" v="cape" />
		<tag k="ssr:stedsnr" v="24355" />
	</node>
	<node id="-25110" lat="59.0362388891" lon="5.58256667333">
		<tag k="name" v="Tungeneset" />
>>>>>>> e1d4bc35ff8a6074a6f2e91616a996b547c36f15
		<tag k="natural" v="cape" />
		<tag k="ssr:stedsnr" v="951684" />
	</node>
<<<<<<< HEAD
	<node lat="58.99482500335338" lon="5.567105551075522" id="-104">
		<tag k="name" v="Vistevågen" />
		<tag k="natural" v="bay" />
		<tag k="ssr:stedsnr" v="100" />
	</node>
	<node lat="59.00137679937186" lon="5.6672629435636415" id="-105">
		<tag k="loc_name" v="Dusavig" />
		<tag k="name" v="Dusaviga" />
=======
	<node id="-25109" lat="59.0355999966" lon="5.52551111953">
		<tag k="name" v="Alstein" />
		<tag k="place" v="island" />
		<tag k="ssr:stedsnr" v="1777" />
	</node>
	<node id="-25108" lat="59.0205647369" lon="5.58238954356">
		<tag k="name" v="Sandeviga" />
>>>>>>> e1d4bc35ff8a6074a6f2e91616a996b547c36f15
		<tag k="natural" v="bay" />
		<tag k="ssr:stedsnr" v="112" />
	</node>
<<<<<<< HEAD
	<node lat="58.983719441708736" lon="5.513802784377599" id="-106">
		<tag k="name" v="Eigarholmen" />
		<tag k="place" v="islet" />
		<tag k="ssr:stedsnr" v="116" />
	</node>
	<node lat="58.98747777431948" lon="5.6389805588474795" id="-107">
=======
	<node id="-25107" lat="58.9804372825" lon="5.63593100048">
		<tag k="fixme" v="consider place=hamlet" />
		<tag k="name" v="Håland" />
		<tag k="place" v="farm" />
		<tag k="ssr:stedsnr" v="127" />
	</node>
	<node id="-25106" lat="58.9874777743" lon="5.63898055885">
>>>>>>> e1d4bc35ff8a6074a6f2e91616a996b547c36f15
		<tag k="alt_name" v="Kålhaug" />
		<tag k="name" v="Kålhaugen" />
		<tag k="place" v="farm" />
		<tag k="ssr:stedsnr" v="124" />
	</node>
<<<<<<< HEAD
	<node lat="58.980437282548095" lon="5.635931000482051" id="-108">
		<tag k="fixme" v="consider place=hamlet" />
		<tag k="name" v="Håland" />
		<tag k="place" v="farm" />
		<tag k="ssr:stedsnr" v="127" />
	</node>
	<node lat="59.02056473686113" lon="5.5823895435623605" id="-109">
		<tag k="name" v="Sandeviga" />
=======
	<node id="-25105" lat="58.9837194417" lon="5.51380278438">
		<tag k="name" v="Eigarholmen" />
		<tag k="place" v="islet" />
		<tag k="ssr:stedsnr" v="116" />
	</node>
	<node id="-25104" lat="59.0013767994" lon="5.66726294356">
		<tag k="loc_name" v="Dusavig" />
		<tag k="name" v="Dusaviga" />
>>>>>>> e1d4bc35ff8a6074a6f2e91616a996b547c36f15
		<tag k="natural" v="bay" />
		<tag k="ssr:stedsnr" v="1754" />
	</node>
<<<<<<< HEAD
	<node lat="59.03559999655284" lon="5.525511119527469" id="-110">
		<tag k="name" v="Alstein" />
		<tag k="place" v="island" />
		<tag k="ssr:stedsnr" v="1777" />
	</node>
	<node lat="58.98124166852129" lon="5.574097226171724" id="-111">
		<tag k="name" v="Neset" />
		<tag k="natural" v="cape" />
		<tag k="ssr:stedsnr" v="24355" />
	</node>
	<node lat="58.986138891553146" lon="5.566527769689645" id="-112">
		<tag k="name" v="Vedabakken" />
		<tag k="natural" v="hill" />
		<tag k="place" v="locality" />
		<tag k="ssr:stedsnr" v="24356" />
	</node>
	<node lat="58.97549834681825" lon="5.62799367079849" id="-113">
		<tag k="name" v="Hålandsvatnet" />
		<tag k="natural" v="water" />
		<tag k="ssr:stedsnr" v="61052" />
		<tag k="water" v="lake" />
	</node>
	<node lat="59.000086110898934" lon="5.6413555494965895" id="-114">
=======
	<node id="-25103" lat="58.9948250034" lon="5.56710555108">
		<tag k="name" v="Vistevågen" />
		<tag k="natural" v="bay" />
		<tag k="ssr:stedsnr" v="100" />
	</node>
	<node id="-25102" lat="59.0105361097" lon="5.63400277736">
		<tag k="name" v="Kjelvå" />
		<tag k="place" v="farm" />
		<tag k="ssr:stedsnr" v="934603" />
	</node>
	<node id="-25101" lat="59.0119138929" lon="5.6357972232">
		<tag k="bridge" v="yes" />
		<tag k="layer" v="1" />
		<tag k="name" v="Harestad" />
		<tag k="ssr:stedsnr" v="896710" />
	</node>
	<node id="-25100" lat="59.0009194473" lon="5.64481667246">
		<tag k="bridge" v="yes" />
		<tag k="layer" v="1" />
>>>>>>> e1d4bc35ff8a6074a6f2e91616a996b547c36f15
		<tag k="name" v="Rygg" />
		<tag k="place" v="farm" />
		<tag k="ssr:stedsnr" v="62359" />
	</node>
<<<<<<< HEAD
	<node lat="58.982283330414496" lon="5.644147219721957" id="-115">
		<tag k="name" v="Heiå" />
		<tag k="place" v="farm" />
		<tag k="ssr:stedsnr" v="84322" />
	</node>
	<node lat="59.00157777502835" lon="5.6235416608152144" id="-116">
		<tag k="name" v="Bergsagelvarden" />
=======
	<node id="-25099" lat="58.9810250034" lon="5.61980833134">
		<tag k="fixme" v="consider natural=peak for the most distinct mountains in the district" />
		<tag k="name" v="Ørnaberget" />
>>>>>>> e1d4bc35ff8a6074a6f2e91616a996b547c36f15
		<tag k="natural" v="hill" />
		<tag k="place" v="locality" />
		<tag k="ssr:stedsnr" v="84663" />
	</node>
<<<<<<< HEAD
	<node lat="58.98418889116215" lon="5.51944166580113" id="-117">
		<tag k="fixme" v="consider seamark:type=rock or natural=shoal" />
		<tag k="name" v="Klaven" />
		<tag k="place" v="islet" />
		<tag k="ssr:stedsnr" v="85522" />
	</node>
	<node lat="58.977462565867036" lon="5.627975208222725" id="-118">
		<tag k="name" v="Båtvika" />
		<tag k="natural" v="bay" />
		<tag k="ssr:stedsnr" v="85249" />
	</node>
	<node lat="59.00467222601675" lon="5.608244449041364" id="-119">
		<tag k="name" v="Prestkonsrinda" />
		<tag k="place" v="locality" />
		<tag k="ssr:stedsnr" v="85253" />
	</node>
	<node lat="59.00012777597187" lon="5.640933340789469" id="-120">
		<tag k="name" v="Hagen" />
		<tag k="place" v="farm" />
		<tag k="ssr:stedsnr" v="85563" />
	</node>
	<node lat="59.033522221607704" lon="5.572588895874257" id="-121">
		<tag k="name" v="Skoholmgrunnen" />
		<tag k="natural" v="shoal" />
		<tag k="place" v="locality" />
		<tag k="ssr:stedsnr" v="122781" />
	</node>
	<node lat="59.017330559239625" lon="5.619072224463977" id="-122">
		<tag k="name" v="Signalhaugen" />
		<tag k="natural" v="hill" />
		<tag k="old_name" v="Varden" />
		<tag k="place" v="locality" />
		<tag k="ssr:stedsnr" v="122753" />
	</node>
	<node lat="59.01168610905306" lon="5.614258330961135" id="-123">
		<tag k="name" v="Oddaheia" />
=======
	<node id="-25098" lat="58.9997805578" lon="5.6192916739">
		<tag k="alt_name" v="Randaberg" />
		<tag k="amenity" v="place_of_worship" />
		<tag k="denomination" v="lutheran" />
		<tag k="name" v="Randaberg kirke" />
		<tag k="religion" v="christian" />
		<tag k="ssr:stedsnr" v="851769" />
	</node>
	<node id="-25097" lat="59.0125027813" lon="5.64945278582">
		<tag k="alt_name" v="Skiftesberget" />
		<tag k="name" v="Strandaberg" />
		<tag k="natural" v="cape" />
		<tag k="ssr:stedsnr" v="851761" />
	</node>
	<node id="-25096" lat="59.0027444422" lon="5.5647111075">
		<tag k="name" v="Einarsvarden" />
		<tag k="natural" v="cape" />
		<tag k="ssr:stedsnr" v="851760" />
	</node>
	<node id="-25095" lat="58.9737583351" lon="5.6434305542">
		<tag k="name" v="Lyngnes" />
		<tag k="natural" v="cape" />
		<tag k="ssr:stedsnr" v="934281" />
	</node>
	<node id="-25094" lat="58.9809444401" lon="5.62976943963">
		<tag k="name" v="Dalen" />
>>>>>>> e1d4bc35ff8a6074a6f2e91616a996b547c36f15
		<tag k="place" v="farm" />
		<tag k="ssr:stedsnr" v="122759" />
	</node>
<<<<<<< HEAD
	<node lat="59.02487233000747" lon="5.594356867586817" id="-124">
		<tag k="fixme" v="consider place=hamlet" />
		<tag k="name" v="Sande" />
		<tag k="place" v="farm" />
		<tag k="ssr:stedsnr" v="122805" />
	</node>
	<node lat="58.98538611086538" lon="5.581341662222991" id="-125">
		<tag k="name" v="Stemmen" />
		<tag k="place" v="farm" />
		<tag k="ssr:stedsnr" v="145349" />
	</node>
	<node lat="58.98419166820698" lon="5.5636027849009695" id="-126">
		<tag k="name" v="Dønneviga" />
		<tag k="natural" v="bay" />
		<tag k="ssr:stedsnr" v="145352" />
	</node>
	<node lat="59.0273027821783" lon="5.579033341525663" id="-127">
		<tag k="name" v="Breiviga" />
		<tag k="natural" v="bay" />
		<tag k="ssr:stedsnr" v="162691" />
	</node>
	<node lat="59.04095555683985" lon="5.572180550749681" id="-128">
		<tag k="name" v="Bragen" />
=======
	<node id="-25093" lat="58.9825527779" lon="5.60263610438">
		<tag k="name" v="Visteholmen" />
		<tag k="place" v="islet" />
		<tag k="ssr:stedsnr" v="813329" />
	</node>
	<node id="-25092" lat="59.0104805531" lon="5.59707499181">
		<tag k="name" v="Bøkanalen" />
		<tag k="ssr:stedsnr" v="790779" />
		<tag k="waterway" v="stream" />
	</node>
	<node id="-25091" lat="59.0521750013" lon="5.50734444138">
		<tag k="name" v="Stora Kråga" />
>>>>>>> e1d4bc35ff8a6074a6f2e91616a996b547c36f15
		<tag k="place" v="islet" />
		<tag k="ssr:stedsnr" v="162696" />
	</node>
<<<<<<< HEAD
	<node lat="59.013830558776384" lon="5.568683336891386" id="-129">
		<tag k="name" v="Sundet" />
=======
	<node id="-25090" lat="59.0264632791" lon="5.60691178484">
		<tag k="name" v="Randabergbukta" />
>>>>>>> e1d4bc35ff8a6074a6f2e91616a996b547c36f15
		<tag k="natural" v="bay" />
		<tag k="ssr:stedsnr" v="183772" />
	</node>
<<<<<<< HEAD
	<node lat="59.00287777739891" lon="5.611547218169418" id="-130">
		<tag k="name" v="Berghaug" />
		<tag k="natural" v="hill" />
		<tag k="place" v="locality" />
		<tag k="ssr:stedsnr" v="206300" />
	</node>
	<node lat="59.00798333038874" lon="5.598591673009231" id="-131">
		<tag k="name" v="Vassbotnen" />
		<tag k="place" v="locality" />
		<tag k="ssr:stedsnr" v="206414" />
	</node>
	<node lat="59.037263893178135" lon="5.58046667064901" id="-132">
		<tag k="name" v="Taraboen" />
		<tag k="place" v="locality" />
		<tag k="seamark:type" v="rock" />
		<tag k="ssr:stedsnr" v="206564" />
	</node>
	<node lat="59.03058611245829" lon="5.574033326834842" id="-133">
		<tag k="name" v="Holmanebbet" />
=======
	<node id="-25089" lat="59.0299972206" lon="5.60226110778">
		<tag k="name" v="Galtasteinen" />
>>>>>>> e1d4bc35ff8a6074a6f2e91616a996b547c36f15
		<tag k="natural" v="cape" />
		<tag k="ssr:stedsnr" v="207575" />
	</node>
<<<<<<< HEAD
	<node lat="59.0383555572841" lon="5.5643305588585745" id="-134">
		<tag k="alt_name" v="Søndre Tungeflua" />
		<tag k="name" v="Søre Tungeflua" />
		<tag k="natural" v="shoal" />
		<tag k="place" v="locality" />
		<tag k="ssr:stedsnr" v="284866" />
	</node>
	<node lat="58.975572220294715" lon="5.642872225886044" id="-135">
		<tag k="name" v="Lyngnes" />
		<tag k="place" v="farm" />
		<tag k="ssr:stedsnr" v="304061" />
	</node>
	<node lat="58.99357222344016" lon="5.508799998671642" id="-136">
		<tag k="fixme" v="consider seamark:type=rock or natural=shoal" />
		<tag k="name" v="Nordra Svartaskjeret" />
		<tag k="place" v="islet" />
		<tag k="ssr:stedsnr" v="304093" />
	</node>
	<node lat="59.023671818062766" lon="5.613535773271698" id="-137">
		<tag k="amenity" v="ferry_terminal" />
		<tag k="name" v="Mekjarvik ferjekai" />
		<tag k="old_name" v="Randaberg ferjekai" />
		<tag k="ssr:stedsnr" v="305751" />
	</node>
	<node lat="58.989127773565045" lon="5.619077771054099" id="-138">
		<tag k="fixme" v="consider natural=peak for the most distinct mountains in the district" />
		<tag k="name" v="Ringaberg" />
		<tag k="natural" v="hill" />
		<tag k="place" v="locality" />
		<tag k="ssr:stedsnr" v="327290" />
	</node>
	<node lat="58.983947220447035" lon="5.609855559625234" id="-139">
		<tag k="name" v="Klubben" />
		<tag k="natural" v="hill" />
		<tag k="place" v="locality" />
		<tag k="ssr:stedsnr" v="327301" />
	</node>
	<node lat="59.00378055144017" lon="5.653613886787391" id="-140">
		<tag k="name" v="Stemmen" />
		<tag k="place" v="farm" />
		<tag k="ssr:stedsnr" v="327598" />
	</node>
	<node lat="59.00107499965738" lon="5.630083341330221" id="-141">
		<tag k="name" v="Harestadmyra" />
		<tag k="natural" v="wetland" />
		<tag k="ssr:stedsnr" v="327601" />
	</node>
	<node lat="58.99542221978195" lon="5.567877777274495" id="-142">
		<tag k="name" v="Klubben" />
		<tag k="natural" v="hill" />
		<tag k="place" v="locality" />
		<tag k="ssr:stedsnr" v="327434" />
	</node>
	<node lat="58.99168055453393" lon="5.480716668519241" id="-143">
		<tag k="name" v="Langeflua" />
		<tag k="place" v="locality" />
		<tag k="seamark:type" v="rock" />
		<tag k="ssr:stedsnr" v="328588" />
	</node>
	<node lat="59.03577499794465" lon="5.559566670885614" id="-144">
		<tag k="name" v="Tungefluene" />
		<tag k="place" v="locality" />
		<tag k="seamark:type" v="rock" />
		<tag k="ssr:stedsnr" v="328601" />
	</node>
	<node lat="59.00881666254778" lon="5.561358327926991" id="-145">
		<tag k="name" v="Sandeskjeret" />
		<tag k="natural" v="shoal" />
		<tag k="place" v="locality" />
		<tag k="ssr:stedsnr" v="365782" />
	</node>
	<node lat="59.00078889043476" lon="5.569774996854434" id="-146">
		<tag k="name" v="Rissberg" />
		<tag k="place" v="locality" />
		<tag k="ssr:stedsnr" v="387499" />
	</node>
	<node lat="58.9929638896675" lon="5.594277781023102" id="-147">
		<tag k="name" v="Grøvjå" />
		<tag k="place" v="farm" />
		<tag k="ssr:stedsnr" v="387500" />
	</node>
	<node lat="58.99003333680004" lon="5.536269448724729" id="-148">
		<tag k="name" v="Bjørnaflua" />
		<tag k="place" v="locality" />
		<tag k="seamark:type" v="rock" />
		<tag k="ssr:stedsnr" v="388577" />
	</node>
	<node lat="59.02367222252568" lon="5.61353611697763" id="-149">
		<tag k="amenity" v="ferry_terminal" />
		<tag k="name" v="Randaberg ferjekai" />
		<tag k="ssr:stedsnr" v="411622" />
	</node>
	<node lat="58.99853611185987" lon="5.624522226905751" id="-150">
		<tag k="bridge" v="yes" />
		<tag k="layer" v="1" />
		<tag k="name" v="Randaberg" />
		<tag k="ssr:stedsnr" v="411623" />
	</node>
	<node lat="58.99135277459562" lon="5.640463885949684" id="-151">
		<tag k="name" v="Foren" />
		<tag k="place" v="farm" />
		<tag k="ssr:stedsnr" v="425089" />
	</node>
	<node lat="59.008541668826034" lon="5.6082250024594265" id="-152">
		<tag k="alt_name" v="Steines" />
		<tag k="name" v="Steinnes" />
		<tag k="place" v="farm" />
		<tag k="ssr:stedsnr" v="426774" />
	</node>
	<node lat="58.98052499743741" lon="5.565969450959634" id="-153">
		<tag k="name" v="Vistnestangen" />
		<tag k="natural" v="cape" />
		<tag k="ssr:stedsnr" v="513647" />
	</node>
	<node lat="59.03331388853091" lon="5.599394451876117" id="-154">
		<tag k="name" v="Galten" />
		<tag k="natural" v="shoal" />
		<tag k="place" v="locality" />
		<tag k="ssr:stedsnr" v="527826" />
	</node>
	<node lat="58.98568611517679" lon="5.629513881459892" id="-155">
		<tag k="bridge" v="yes" />
		<tag k="layer" v="1" />
		<tag k="name" v="Goa" />
		<tag k="ssr:stedsnr" v="532636" />
	</node>
	<node lat="58.996386109205574" lon="5.693094437808559" id="-156">
		<tag k="bay" v="fjord" />
		<tag k="name" v="Byfjorden" />
		<tag k="natural" v="bay" />
		<tag k="ssr:stedsnr" v="546122" />
	</node>
	<node lat="59.025641662679405" lon="5.576766667586193" id="-157">
		<tag k="fixme" v="consider seamark:type=rock or natural=shoal" />
		<tag k="name" v="Gunnarsskjera" />
		<tag k="place" v="islet" />
		<tag k="ssr:stedsnr" v="547821" />
	</node>
	<node lat="59.02207499886634" lon="5.495027770329002" id="-158">
		<tag k="name" v="Alsteinfluene" />
		<tag k="place" v="locality" />
		<tag k="seamark:type" v="rock" />
		<tag k="ssr:stedsnr" v="547826" />
	</node>
	<node lat="59.03476662466189" lon="5.585737591333542" id="-159">
		<tag k="fixme" v="consider place=hamlet" />
		<tag k="name" v="Tunge" />
		<tag k="place" v="farm" />
		<tag k="ssr:stedsnr" v="547831" />
	</node>
	<node lat="58.985234394107394" lon="5.585155561450734" id="-160">
		<tag k="fixme" v="consider place=hamlet" />
		<tag k="name" v="Raustein" />
		<tag k="place" v="farm" />
		<tag k="ssr:stedsnr" v="569373" />
	</node>
	<node lat="59.0041027824525" lon="5.661163895218084" id="-161">
		<tag k="name" v="Nodberget" />
		<tag k="natural" v="cape" />
		<tag k="ssr:stedsnr" v="570549" />
	</node>
	<node lat="58.97880824287122" lon="5.651973631658582" id="-162">
		<tag k="fixme" v="consider place=hamlet" />
		<tag k="name" v="Leikvoll" />
		<tag k="place" v="farm" />
		<tag k="ssr:stedsnr" v="607064" />
	</node>
	<node lat="59.01042777591628" lon="5.617761118809229" id="-164">
		<tag k="name" v="Oddahaugen" />
		<tag k="natural" v="hill" />
		<tag k="place" v="locality" />
		<tag k="ssr:stedsnr" v="630300" />
	</node>
	<node lat="59.00041944438974" lon="5.653755553885395" id="-165">
		<tag k="name" v="Duså" />
		<tag k="place" v="locality" />
		<tag k="ssr:stedsnr" v="630576" />
	</node>
	<node lat="59.00849526444681" lon="5.654236409561252" id="-166">
		<tag k="fixme" v="consider natural=peak for the most distinct mountains in the district" />
		<tag k="name" v="Hagafjellet" />
		<tag k="natural" v="hill" />
		<tag k="place" v="locality" />
		<tag k="ssr:stedsnr" v="630580" />
	</node>
	<node lat="59.01048055673356" lon="5.572294449738798" id="-167">
		<tag k="name" v="Ægrå" />
		<tag k="place" v="farm" />
		<tag k="ssr:stedsnr" v="630416" />
	</node>
	<node lat="59.011480551798954" lon="5.573102786455006" id="-168">
		<tag k="name" v="Grøde" />
		<tag k="place" v="farm" />
		<tag k="ssr:stedsnr" v="630418" />
	</node>
	<node lat="58.995955552948764" lon="5.586936105863952" id="-169">
		<tag k="name" v="Svinaberg" />
		<tag k="natural" v="hill" />
		<tag k="place" v="locality" />
		<tag k="ssr:stedsnr" v="630420" />
	</node>
	<node lat="58.984780553413" lon="5.629002770969798" id="-170">
		<tag k="name" v="Holen" />
		<tag k="place" v="farm" />
		<tag k="ssr:stedsnr" v="668107" />
	</node>
	<node lat="59.01852222262441" lon="5.600505557236723" id="-171">
		<tag k="fixme" v="consider natural=peak for the most distinct mountains in the district" />
		<tag k="name" v="Randabergfjellet" />
		<tag k="natural" v="hill" />
		<tag k="place" v="locality" />
		<tag k="ssr:stedsnr" v="752572" />
	</node>
	<node lat="58.9829222239784" lon="5.497805556273756" id="-172">
		<tag k="name" v="Store Grynningen" />
		<tag k="place" v="islet" />
		<tag k="ssr:stedsnr" v="752575" />
	</node>
	<node lat="58.98412221854138" lon="5.450841667119156" id="-173">
		<tag k="name" v="Villeboane" />
		<tag k="place" v="locality" />
		<tag k="seamark:type" v="rock" />
		<tag k="ssr:stedsnr" v="756289" />
	</node>
	<node lat="59.01753333150145" lon="5.573902771709604" id="-174">
		<tag k="name" v="Børaunen" />
		<tag k="natural" v="cape" />
		<tag k="ssr:stedsnr" v="780310" />
	</node>
	<node lat="59.01048055312372" lon="5.597074991814249" id="-175">
		<tag k="name" v="Bøkanalen" />
		<tag k="ssr:stedsnr" v="790779" />
		<tag k="waterway" v="stream" />
	</node>
	<node lat="58.988950003111796" lon="5.6225888842687075" id="-176">
		<tag k="name" v="Trønå" />
		<tag k="place" v="farm" />
		<tag k="ssr:stedsnr" v="813259" />
	</node>
	<node lat="59.00264166376485" lon="5.576716659238608" id="-177">
		<tag k="alt_name" v="Bø ytre" />
		<tag k="name" v="Ytre Bø" />
		<tag k="place" v="farm" />
		<tag k="ssr:stedsnr" v="820763" />
	</node>
	<node lat="59.002744442220624" lon="5.564711107499435" id="-178">
		<tag k="name" v="Einarsvarden" />
		<tag k="natural" v="cape" />
		<tag k="ssr:stedsnr" v="851760" />
	</node>
	<node lat="59.01250278130635" lon="5.649452785816048" id="-179">
		<tag k="alt_name" v="Skiftesberget" />
		<tag k="name" v="Strandaberg" />
		<tag k="natural" v="cape" />
		<tag k="ssr:stedsnr" v="851761" />
	</node>
	<node lat="58.981025003426375" lon="5.619808331340608" id="-180">
		<tag k="fixme" v="consider natural=peak for the most distinct mountains in the district" />
		<tag k="name" v="Ørnaberget" />
		<tag k="natural" v="hill" />
		<tag k="place" v="locality" />
		<tag k="ssr:stedsnr" v="873321" />
	</node>
	<node lat="59.008982171456935" lon="5.629190850390441" id="-181">
		<tag k="fixme" v="consider place=hamlet" />
		<tag k="name" v="Harestad" />
		<tag k="place" v="farm" />
		<tag k="ssr:stedsnr" v="873334" />
	</node>
	<node lat="58.98221944535331" lon="5.578427777583036" id="-182">
		<tag k="name" v="Breiviga" />
		<tag k="natural" v="bay" />
		<tag k="ssr:stedsnr" v="873380" />
	</node>
	<node lat="58.99046666413527" lon="5.563763891744102" id="-183">
		<tag k="name" v="Gardsenden" />
		<tag k="natural" v="cape" />
		<tag k="ssr:stedsnr" v="873382" />
	</node>
	<node lat="59.03152777909428" lon="5.575683329163211" id="-184">
		<tag k="name" v="Skoholmen" />
		<tag k="place" v="locality" />
		<tag k="ssr:stedsnr" v="874598" />
	</node>
	<node lat="59.008929214051655" lon="5.650188000254725" id="-185">
		<tag k="amenity" v="place_of_worship" />
		<tag k="denomination" v="lutheran" />
		<tag k="name" v="Grødem kirke" />
		<tag k="religion" v="christian" />
		<tag k="ssr:stedsnr" v="991189" />
	</node>
=======
>>>>>>> e1d4bc35ff8a6074a6f2e91616a996b547c36f15
</osm>
