<?xml version="1.0" encoding="UTF-8"?>
<<<<<<< HEAD
<osm version="0.6" generator="osmapis">
	<node lat="58.993072219337186" lon="5.6440416735715155" id="-1">
		<tag k="bridge" v="yes" />
		<tag k="layer" v="1" />
		<tag k="name" v="Goaale" />
		<tag k="ssr:stedsnr" v="229649" />
	</node>
	<node lat="59.018727773590484" lon="5.627375006480587" id="-7">
		<tag k="bridge" v="yes" />
		<tag k="layer" v="1" />
		<tag k="name" v="Todnem" />
		<tag k="ssr:stedsnr" v="46721" />
	</node>
	<node lat="58.97884722478185" lon="5.645269436244335" id="-35">
		<tag k="bridge" v="yes" />
		<tag k="layer" v="1" />
		<tag k="name" v="Leikvoll" />
		<tag k="ssr:stedsnr" v="471648" />
	</node>
	<node lat="59.006855559293136" lon="5.641194448723278" id="-90">
		<tag k="bridge" v="yes" />
		<tag k="layer" v="1" />
		<tag k="name" v="GrÃ¸dem" />
		<tag k="ssr:stedsnr" v="836628" />
	</node>
	<node lat="59.000919447327476" lon="5.644816672457304" id="-97">
		<tag k="bridge" v="yes" />
		<tag k="layer" v="1" />
		<tag k="name" v="Rygg" />
		<tag k="ssr:stedsnr" v="896709" />
	</node>
	<node lat="59.01191389293719" lon="5.63579722319707" id="-98">
		<tag k="bridge" v="yes" />
		<tag k="layer" v="1" />
		<tag k="name" v="Harestad" />
		<tag k="ssr:stedsnr" v="896710" />
	</node>
	<node lat="59.023671818062766" lon="5.613535773271698" id="-137">
=======
<osm generator="osmapis" version="0.6">
	<node id="-25151" lat="59.0236718181" lon="5.61353577327">
>>>>>>> e1d4bc35ff8a6074a6f2e91616a996b547c36f15
		<tag k="amenity" v="ferry_terminal" />
		<tag k="name" v="Mekjarvik ferjekai" />
		<tag k="old_name" v="Randaberg ferjekai" />
		<tag k="ssr:stedsnr" v="305751" />
	</node>
<<<<<<< HEAD
	<node lat="59.02367222252568" lon="5.61353611697763" id="-149">
		<tag k="amenity" v="ferry_terminal" />
		<tag k="name" v="Randaberg ferjekai" />
		<tag k="ssr:stedsnr" v="411622" />
	</node>
	<node lat="58.99853611185987" lon="5.624522226905751" id="-150">
=======
	<node id="-25116" lat="59.0187277736" lon="5.62737500648">
		<tag k="bridge" v="yes" />
		<tag k="layer" v="1" />
		<tag k="name" v="Todnem" />
		<tag k="ssr:stedsnr" v="46721" />
	</node>
	<node id="-25050" lat="58.9788472248" lon="5.64526943624">
		<tag k="bridge" v="yes" />
		<tag k="layer" v="1" />
		<tag k="name" v="Leikvoll" />
		<tag k="ssr:stedsnr" v="471648" />
	</node>
	<node id="-25208" lat="59.0068555593" lon="5.64119444872">
>>>>>>> e1d4bc35ff8a6074a6f2e91616a996b547c36f15
		<tag k="bridge" v="yes" />
		<tag k="layer" v="1" />
		<tag k="name" v="Randaberg" />
		<tag k="ssr:stedsnr" v="411623" />
	</node>
<<<<<<< HEAD
	<node lat="58.98568611517679" lon="5.629513881459892" id="-155">
=======
	<node id="-25175" lat="58.9856861152" lon="5.62951388146">
>>>>>>> e1d4bc35ff8a6074a6f2e91616a996b547c36f15
		<tag k="bridge" v="yes" />
		<tag k="layer" v="1" />
		<tag k="name" v="Goa" />
		<tag k="ssr:stedsnr" v="532636" />
	</node>
	<node id="-25170" lat="58.9985361119" lon="5.62452222691">
		<tag k="bridge" v="yes" />
		<tag k="layer" v="1" />
		<tag k="name" v="Randaberg" />
		<tag k="ssr:stedsnr" v="411623" />
	</node>
	<node id="-25169" lat="59.0236722225" lon="5.61353611698">
		<tag k="amenity" v="ferry_terminal" />
		<tag k="name" v="Randaberg ferjekai" />
		<tag k="ssr:stedsnr" v="411622" />
	</node>
	<node id="-25101" lat="59.0119138929" lon="5.6357972232">
		<tag k="bridge" v="yes" />
		<tag k="layer" v="1" />
		<tag k="name" v="Harestad" />
		<tag k="ssr:stedsnr" v="896710" />
	</node>
	<node id="-25036" lat="58.9930722193" lon="5.64404167357">
		<tag k="bridge" v="yes" />
		<tag k="layer" v="1" />
		<tag k="name" v="Goaale" />
		<tag k="ssr:stedsnr" v="229649" />
	</node>
	<node id="-25100" lat="59.0009194473" lon="5.64481667246">
		<tag k="bridge" v="yes" />
		<tag k="layer" v="1" />
		<tag k="name" v="Rygg" />
		<tag k="ssr:stedsnr" v="896709" />
	</node>
</osm>
