<?xml version="1.0" encoding="UTF-8"?>
<osm generator="osmapis" version="0.6">
	<node id="-25216" lat="59.0305861125" lon="5.57403332683">
		<tag k="name" v="Breiviga" />
		<tag k="natural" v="cape" />
		<tag k="ssr:stedsnr" v="951684" />
	</node>
	<node id="-25214" lat="58.9904666641" lon="5.56376389174">
		<tag k="name" v="Gardsenden" />
		<tag k="natural" v="cape" />
		<tag k="ssr:stedsnr" v="873382" />
	</node>
	<node id="-25085" lat="59.0156666673" lon="5.56543333645">
		<tag k="name" v="Børaunen" />
		<tag k="natural" v="cape" />
		<tag k="ssr:stedsnr" v="912759" />
	</node>
	<node id="-25084" lat="59.0164717855" lon="5.57928725829">
		<tag k="name" v="Bøvika" />
		<tag k="natural" v="bay" />
		<tag k="ssr:stedsnr" v="912756" />
	</node>
	<node id="-25083" lat="59.0218800602" lon="5.62147527947">
		<tag k="name" v="Ladbergvika" />
		<tag k="natural" v="bay" />
		<tag k="ssr:stedsnr" v="912753" />
	</node>
	<node id="-25210" lat="58.9901166649" lon="5.5099444434">
		<tag k="name" v="Svartaskjera" />
		<tag k="place" v="islet" />
		<tag k="ssr:stedsnr" v="847212" />
	</node>
	<node id="-25209" lat="59.0345250033" lon="5.58791389701">
		<tag k="alt_name" v="Tungevågen" />
		<tag k="name" v="Tungevika" />
		<tag k="natural" v="bay" />
		<tag k="ssr:stedsnr" v="851794" />
	</node>
	<node id="-25172" lat="58.9680888869" lon="5.41416666308">
		<tag k="bay" v="fjord" />
		<tag k="name" v="Håsteinsfjorden" />
		<tag k="natural" v="bay" />
		<tag k="ssr:stedsnr" v="425114" />
	</node>
	<node id="-25206" lat="58.9747250012" lon="5.5351944462">
		<tag k="name" v="Taraldsflua" />
		<tag k="place" v="locality" />
		<tag k="seamark:type" v="rock" />
		<tag k="ssr:stedsnr" v="817606" />
	</node>
	<node id="-25204" lat="58.9804277757" lon="5.59250000533">
		<tag k="name" v="Visteviga" />
		<tag k="natural" v="bay" />
		<tag k="ssr:stedsnr" v="789106" />
	</node>
	<node id="-25202" lat="58.987716663" lon="5.45609721844">
		<tag k="name" v="Monsagrunnen" />
		<tag k="natural" v="shoal" />
		<tag k="place" v="locality" />
		<tag k="ssr:stedsnr" v="783602" />
	</node>
	<node id="-25073" lat="59.0128555544" lon="5.64195834006">
		<tag k="name" v="Harastadvika" />
		<tag k="natural" v="bay" />
		<tag k="ssr:stedsnr" v="608807" />
	</node>
	<node id="-25072" lat="59.0231499982" lon="5.61117222608">
		<tag k="alt_name" v="Megjersvika" />
		<tag k="name" v="Mekjarvik" />
		<tag k="natural" v="bay" />
		<tag k="old_name" v="Megjervika" />
		<tag k="ssr:stedsnr" v="570317" />
	</node>
	<node id="-25199" lat="58.9841222185" lon="5.45084166712">
		<tag k="name" v="Villeboane" />
		<tag k="place" v="locality" />
		<tag k="seamark:type" v="rock" />
		<tag k="ssr:stedsnr" v="756289" />
	</node>
	<node id="-25070" lat="59.0333138885" lon="5.59939445188">
		<tag k="name" v="Galten" />
		<tag k="natural" v="shoal" />
		<tag k="place" v="locality" />
		<tag k="ssr:stedsnr" v="527826" />
	</node>
	<node id="-25213" lat="58.9822194454" lon="5.57842777758">
		<tag k="name" v="Breiviga" />
		<tag k="natural" v="bay" />
		<tag k="ssr:stedsnr" v="873380" />
	</node>
	<node id="-25067" lat="59.0303416636" lon="5.58051944812">
		<tag k="name" v="Holmaviga" />
		<tag k="natural" v="bay" />
		<tag k="ssr:stedsnr" v="668804" />
	</node>
	<node id="-25194" lat="59.0516555589" lon="5.50476388607">
		<tag k="name" v="Litla Kråga" />
		<tag k="place" v="islet" />
		<tag k="ssr:stedsnr" v="631612" />
	</node>
	<node id="-25193" lat="58.9973916633" lon="5.50243055444">
		<tag k="name" v="Steinboane" />
		<tag k="place" v="locality" />
		<tag k="seamark:type" v="rock" />
		<tag k="ssr:stedsnr" v="631595" />
	</node>
	<node id="-25064" lat="58.9813722247" lon="5.5824083397">
		<tag k="name" v="Rausteingrunnen" />
		<tag k="place" v="locality" />
		<tag k="seamark:type" v="rock" />
		<tag k="ssr:stedsnr" v="453632" />
	</node>
	<node id="-25189" lat="58.9903611092" lon="5.50914165833">
		<tag k="fixme" v="consider seamark:type=rock or natural=shoal" />
		<tag k="name" v="Søra Svartaskjeret" />
		<tag k="place" v="islet" />
		<tag k="ssr:stedsnr" v="607098" />
	</node>
	<node id="-25059" lat="58.9805249974" lon="5.56596945096">
		<tag k="name" v="Vistnestangen" />
		<tag k="natural" v="cape" />
		<tag k="ssr:stedsnr" v="513647" />
	</node>
	<node id="-25186" lat="59.0041027825" lon="5.66116389522">
		<tag k="name" v="Nodberget" />
		<tag k="natural" v="cape" />
		<tag k="ssr:stedsnr" v="570549" />
	</node>
	<node id="-25211" lat="58.9876916628" lon="5.4888444446">
		<tag k="alt_name" v="Langafluskjera;Longafluskjera" />
		<tag k="fixme" v="consider seamark:type=rock or natural=shoal" />
		<tag k="name" v="Langefluskjera" />
		<tag k="place" v="islet" />
		<tag k="ssr:stedsnr" v="850103" />
	</node>
	<node id="-25056" lat="58.9832555599" lon="5.56970278391">
		<tag k="name" v="Vistnesvågen" />
		<tag k="natural" v="bay" />
		<tag k="ssr:stedsnr" v="387405" />
	</node>
	<node id="-25183" lat="58.9819555595" lon="5.60797778381">
		<tag k="name" v="Goavika" />
		<tag k="natural" v="bay" />
		<tag k="ssr:stedsnr" v="569321" />
	</node>
	<node id="-25125" lat="58.9841888912" lon="5.5194416658">
		<tag k="fixme" v="consider seamark:type=rock or natural=shoal" />
		<tag k="name" v="Klaven" />
		<tag k="place" v="islet" />
		<tag k="ssr:stedsnr" v="85522" />
	</node>
	<node id="-25052" lat="58.9907777813" lon="5.56668888307">
		<tag k="name" v="Molviga" />
		<tag k="natural" v="bay" />
		<tag k="ssr:stedsnr" v="485087" />
	</node>
	<node id="-25179" lat="59.0220749989" lon="5.49502777033">
		<tag k="name" v="Alsteinfluene" />
		<tag k="place" v="locality" />
		<tag k="seamark:type" v="rock" />
		<tag k="ssr:stedsnr" v="547826" />
	</node>
	<node id="-25178" lat="59.0256416627" lon="5.57676666759">
		<tag k="fixme" v="consider seamark:type=rock or natural=shoal" />
		<tag k="name" v="Gunnarsskjera" />
		<tag k="place" v="islet" />
		<tag k="ssr:stedsnr" v="547821" />
	</node>
	<node id="-25177" lat="58.9827861087" lon="5.49291389343">
		<tag k="name" v="Litle Grynningen" />
		<tag k="place" v="islet" />
		<tag k="ssr:stedsnr" v="546124" />
	</node>
	<node id="-25176" lat="58.9963861092" lon="5.69309443781">
		<tag k="bay" v="fjord" />
		<tag k="name" v="Byfjorden" />
		<tag k="natural" v="bay" />
		<tag k="ssr:stedsnr" v="546122" />
	</node>
	<node id="-25047" lat="58.9791527811" lon="5.60898888785">
		<tag k="name" v="Endrestø" />
		<tag k="natural" v="bay" />
		<tag k="ssr:stedsnr" v="449297" />
	</node>
	<node id="-25174" lat="59.0707416641" lon="5.56304722812">
		<tag k="bay" v="fjord" />
		<tag k="name" v="Kvitsøyfjorden" />
		<tag k="natural" v="bay" />
		<tag k="ssr:stedsnr" v="427782" />
	</node>
	<node id="-25045" lat="59.0188027748" lon="5.5748305625">
		<tag k="name" v="Todden" />
		<tag k="natural" v="cape" />
		<tag k="ssr:stedsnr" v="244773" />
	</node>
	<node id="-25044" lat="59.0383555573" lon="5.56433055886">
		<tag k="alt_name" v="Søndre Tungeflua" />
		<tag k="name" v="Søre Tungeflua" />
		<tag k="natural" v="shoal" />
		<tag k="place" v="locality" />
		<tag k="ssr:stedsnr" v="284866" />
	</node>
	<node id="-25187" lat="58.9775749976" lon="5.54100278457">
		<tag k="name" v="Dalhaugflua" />
		<tag k="place" v="locality" />
		<tag k="seamark:type" v="rock" />
		<tag k="ssr:stedsnr" v="574649" />
	</node>
	<node id="-25168" lat="58.9900333368" lon="5.53626944872">
		<tag k="name" v="Bjørnaflua" />
		<tag k="place" v="locality" />
		<tag k="seamark:type" v="rock" />
		<tag k="ssr:stedsnr" v="388577" />
	</node>
	<node id="-25037" lat="59.0065027779" lon="5.5570611044">
		<tag k="name" v="Bøskjenane" />
		<tag k="place" v="locality" />
		<tag k="seamark:type" v="rock" />
		<tag k="ssr:stedsnr" v="244778" />
	</node>
	<node id="-25163" lat="59.0088166625" lon="5.56135832793">
		<tag k="name" v="Sandeskjeret" />
		<tag k="natural" v="shoal" />
		<tag k="place" v="locality" />
		<tag k="ssr:stedsnr" v="365782" />
	</node>
	<node id="-25159" lat="59.0357749979" lon="5.55956667089">
		<tag k="name" v="Tungefluene" />
		<tag k="place" v="locality" />
		<tag k="seamark:type" v="rock" />
		<tag k="ssr:stedsnr" v="328601" />
	</node>
	<node id="-25158" lat="58.9916805545" lon="5.48071666852">
		<tag k="name" v="Langeflua" />
		<tag k="place" v="locality" />
		<tag k="seamark:type" v="rock" />
		<tag k="ssr:stedsnr" v="328588" />
	</node>
	<node id="-25185" lat="59.0107444452" lon="5.65698333327">
		<tag k="name" v="Beinholet" />
		<tag k="natural" v="bay" />
		<tag k="ssr:stedsnr" v="569643" />
	</node>
	<node id="-25152" lat="59.0004888856" lon="5.5660861162">
		<tag k="name" v="Einarsviga" />
		<tag k="natural" v="bay" />
		<tag k="ssr:stedsnr" v="305766" />
	</node>
	<node id="-25150" lat="58.9935722234" lon="5.50879999867">
		<tag k="fixme" v="consider seamark:type=rock or natural=shoal" />
		<tag k="name" v="Nordra Svartaskjeret" />
		<tag k="place" v="islet" />
		<tag k="ssr:stedsnr" v="304093" />
	</node>
	<node id="-25149" lat="59.0305861125" lon="5.57403332683">
		<tag k="name" v="Holmanebbet" />
		<tag k="natural" v="cape" />
		<tag k="ssr:stedsnr" v="207575" />
	</node>
	<node id="-25146" lat="58.9944972208" lon="5.51840277162">
		<tag k="name" v="Sprettet" />
		<tag k="place" v="locality" />
		<tag k="seamark:type" v="rock" />
		<tag k="ssr:stedsnr" v="206571" />
	</node>
	<node id="-25145" lat="59.0372638932" lon="5.58046667065">
		<tag k="name" v="Taraboen" />
		<tag k="place" v="locality" />
		<tag k="seamark:type" v="rock" />
		<tag k="ssr:stedsnr" v="206564" />
	</node>
	<node id="-25142" lat="58.9849972222" lon="5.60176111095">
		<tag k="name" v="Hammaren" />
		<tag k="natural" v="cape" />
		<tag k="ssr:stedsnr" v="206353" />
	</node>
	<node id="-25140" lat="59.0396999987" lon="5.49148888631">
		<tag k="name" v="Djupaflua" />
		<tag k="natural" v="shoal" />
		<tag k="place" v="locality" />
		<tag k="ssr:stedsnr" v="183800" />
	</node>
	<node id="-25139" lat="59.0138305588" lon="5.56868333689">
		<tag k="name" v="Sundet" />
		<tag k="natural" v="bay" />
		<tag k="ssr:stedsnr" v="183772" />
	</node>
	<node id="-25138" lat="59.0409555568" lon="5.57218055075">
		<tag k="name" v="Bragen" />
		<tag k="place" v="islet" />
		<tag k="ssr:stedsnr" v="162696" />
	</node>
	<node id="-25137" lat="59.0273027822" lon="5.57903334153">
		<tag k="name" v="Breiviga" />
		<tag k="natural" v="bay" />
		<tag k="ssr:stedsnr" v="162691" />
	</node>
	<node id="-25135" lat="58.9841916682" lon="5.5636027849">
		<tag k="name" v="Dønneviga" />
		<tag k="natural" v="bay" />
		<tag k="ssr:stedsnr" v="145352" />
	</node>
	<node id="-25130" lat="59.0335222216" lon="5.57258889587">
		<tag k="name" v="Skoholmgrunnen" />
		<tag k="natural" v="shoal" />
		<tag k="place" v="locality" />
		<tag k="ssr:stedsnr" v="122781" />
	</node>
	<node id="-25126" lat="58.9937194415" lon="5.50628888872">
		<tag k="name" v="Høvringen" />
		<tag k="place" v="locality" />
		<tag k="seamark:type" v="rock" />
		<tag k="ssr:stedsnr" v="85523" />
	</node>
	<node id="-25201" lat="59.0175333315" lon="5.57390277171">
		<tag k="name" v="Børaunen" />
		<tag k="natural" v="cape" />
		<tag k="ssr:stedsnr" v="780310" />
	</node>
	<node id="-25122" lat="59.0307361117" lon="5.57552499468">
		<tag k="name" v="Holmodden" />
		<tag k="natural" v="cape" />
		<tag k="ssr:stedsnr" v="62801" />
	</node>
	<node id="-25200" lat="59.0440638855" lon="5.56440555608">
		<tag k="name" v="Nordre Tungeflua" />
		<tag k="natural" v="shoal" />
		<tag k="place" v="locality" />
		<tag k="ssr:stedsnr" v="770576" />
	</node>
	<node id="-25103" lat="58.9948250034" lon="5.56710555108">
		<tag k="name" v="Vistevågen" />
		<tag k="natural" v="bay" />
		<tag k="ssr:stedsnr" v="100" />
	</node>
	<node id="-25112" lat="58.9812416685" lon="5.57409722617">
		<tag k="name" v="Neset" />
		<tag k="natural" v="cape" />
		<tag k="ssr:stedsnr" v="24355" />
	</node>
	<node id="-25110" lat="59.0362388891" lon="5.58256667333">
		<tag k="name" v="Tungeneset" />
		<tag k="natural" v="cape" />
		<tag k="ssr:stedsnr" v="1786" />
	</node>
	<node id="-25109" lat="59.0355999966" lon="5.52551111953">
		<tag k="name" v="Alstein" />
		<tag k="place" v="island" />
		<tag k="ssr:stedsnr" v="1777" />
	</node>
	<node id="-25108" lat="59.0205647369" lon="5.58238954356">
		<tag k="name" v="Sandeviga" />
		<tag k="natural" v="bay" />
		<tag k="ssr:stedsnr" v="1754" />
	</node>
	<node id="-25105" lat="58.9837194417" lon="5.51380278438">
		<tag k="name" v="Eigarholmen" />
		<tag k="place" v="islet" />
		<tag k="ssr:stedsnr" v="116" />
	</node>
	<node id="-25104" lat="59.0013767994" lon="5.66726294356">
		<tag k="loc_name" v="Dusavig" />
		<tag k="name" v="Dusaviga" />
		<tag k="natural" v="bay" />
		<tag k="ssr:stedsnr" v="112" />
	</node>
	<node id="-25048" lat="58.9960750018" lon="5.52695277307">
		<tag k="name" v="Monsagrunnen" />
		<tag k="place" v="locality" />
		<tag k="seamark:type" v="rock" />
		<tag k="ssr:stedsnr" v="267560" />
	</node>
	<node id="-25197" lat="58.982922224" lon="5.49780555627">
		<tag k="name" v="Store Grynningen" />
		<tag k="place" v="islet" />
		<tag k="ssr:stedsnr" v="752575" />
	</node>
	<node id="-25097" lat="59.0125027813" lon="5.64945278582">
		<tag k="alt_name" v="Skiftesberget" />
		<tag k="name" v="Strandaberg" />
		<tag k="natural" v="cape" />
		<tag k="ssr:stedsnr" v="851761" />
	</node>
	<node id="-25096" lat="59.0027444422" lon="5.5647111075">
		<tag k="name" v="Einarsvarden" />
		<tag k="natural" v="cape" />
		<tag k="ssr:stedsnr" v="851760" />
	</node>
	<node id="-25093" lat="58.9825527779" lon="5.60263610438">
		<tag k="name" v="Visteholmen" />
		<tag k="place" v="islet" />
		<tag k="ssr:stedsnr" v="813329" />
	</node>
	<node id="-25091" lat="59.0521750013" lon="5.50734444138">
		<tag k="name" v="Stora Kråga" />
		<tag k="place" v="islet" />
		<tag k="ssr:stedsnr" v="912844" />
	</node>
	<node id="-25090" lat="59.0264632791" lon="5.60691178484">
		<tag k="name" v="Randabergbukta" />
		<tag k="natural" v="bay" />
		<tag k="ssr:stedsnr" v="912817" />
	</node>
	<node id="-25089" lat="59.0299972206" lon="5.60226110778">
		<tag k="name" v="Galtasteinen" />
		<tag k="natural" v="cape" />
		<tag k="old_name" v="Galtehaugen;Galten" />
		<tag k="ssr:stedsnr" v="912815" />
	</node>
</osm>
