<?xml version="1.0" encoding="UTF-8"?>
<osm version="0.6" generator="osmapis">
	<node lat="58.98747777431948" lon="5.6389805588474795" id="-2682">
		<tag k="alt_name" v="Kålhaug" />
		<tag k="name" v="Kålhaugen" />
		<tag k="place" v="farm" />
		<tag k="ssr:stedsnr" v="124" />
	</node>
	<node lat="58.980437282548095" lon="5.635931000482051" id="-2683">
		<tag k="name" v="Håland" />
		<tag k="place" v="farm" />
		<tag k="ssr:stedsnr" v="127" />
	</node>
	<node lat="59.00302205986361" lon="5.575484494746629" id="-2686">
		<tag k="alt_name" v="Bø, ytre" />
		<tag k="name" v="Ytre Bø" />
		<tag k="place" v="farm" />
		<tag k="ssr:stedsnr" v="31771" />
	</node>
	<node lat="58.99391944402548" lon="5.598202781681121" id="-2688">
		<tag k="name" v="Viste" />
		<tag k="place" v="farm" />
		<tag k="ssr:stedsnr" v="62770" />
	</node>
	<node lat="58.98645175572329" lon="5.6188404623990795" id="-2690">
		<tag k="alt_name" v="vestre Goa" />
		<tag k="name" v="Goa" />
		<tag k="place" v="farm" />
		<tag k="ssr:stedsnr" v="122108" />
	</node>
	<node lat="59.02487233000747" lon="5.594356867586817" id="-2692">
		<tag k="name" v="Sande" />
		<tag k="place" v="farm" />
		<tag k="ssr:stedsnr" v="122805" />
	</node>
	<node lat="58.997955551073645" lon="5.618255549107014" id="-2699">
		<tag k="name" v="Heia" />
		<tag k="place" v="farm" />
		<tag k="ssr:stedsnr" v="206611" />
	</node>
	<node lat="58.99131291171678" lon="5.593364673482692" id="-2709">
		<tag k="name" v="Viste" />
		<tag k="place" v="farm" />
		<tag k="ssr:stedsnr" v="364106" />
	</node>
	<node lat="58.98863888708623" lon="5.5978166684886865" id="-2710">
		<tag k="name" v="Vistehola" />
		<tag k="place" v="farm" />
		<tag k="ssr:stedsnr" v="364122" />
	</node>
	<node lat="58.98614101670538" lon="5.568919952167022" id="-2711">
		<tag k="name" v="Vistnes" />
		<tag k="place" v="farm" />
		<tag k="ssr:stedsnr" v="364124" />
	</node>
	<node lat="58.98572222384416" lon="5.64330833721125" id="-2716">
		<tag k="name" v="Svartholen" />
		<tag k="place" v="farm" />
		<tag k="ssr:stedsnr" v="449291" />
	</node>
	<node lat="59.011161111308404" lon="5.583211103394359" id="-2718">
		<tag k="name" v="Groen" />
		<tag k="place" v="farm" />
		<tag k="ssr:stedsnr" v="449414" />
	</node>
	<node lat="58.99779444231779" lon="5.626474994547167" id="-2721">
		<tag k="name" v="Stølen" />
		<tag k="place" v="farm" />
		<tag k="ssr:stedsnr" v="509602" />
	</node>
	<node lat="58.986011112421345" lon="5.62822223048777" id="-2725">
		<tag k="name" v="Dalen" />
		<tag k="place" v="farm" />
		<tag k="ssr:stedsnr" v="569306" />
	</node>
	<node lat="59.01156388823065" lon="5.586955549657997" id="-2731">
		<tag k="name" v="Bakkane" />
		<tag k="place" v="farm" />
		<tag k="ssr:stedsnr" v="691450" />
	</node>
	<node lat="59.01048055673356" lon="5.572294449738798" id="-2733">
		<tag k="name" v="Ægrå" />
		<tag k="place" v="farm" />
		<tag k="ssr:stedsnr" v="630416" />
	</node>
	<node lat="59.011480551798954" lon="5.573102786455006" id="-2734">
		<tag k="name" v="Grøde" />
		<tag k="place" v="farm" />
		<tag k="ssr:stedsnr" v="630418" />
	</node>
	<node lat="58.984780553413" lon="5.629002770969798" id="-2737">
		<tag k="name" v="Holen" />
		<tag k="place" v="farm" />
		<tag k="ssr:stedsnr" v="668107" />
	</node>
	<node lat="59.032361113744436" lon="5.586330548826177" id="-2740">
		<tag k="name" v="Håbakken" />
		<tag k="place" v="farm" />
		<tag k="ssr:stedsnr" v="668805" />
	</node>
	<node lat="58.99034444378089" lon="5.613052780353106" id="-2742">
		<tag k="name" v="Sørli" />
		<tag k="place" v="farm" />
		<tag k="ssr:stedsnr" v="729108" />
	</node>
	<node lat="58.97898611446714" lon="5.641833334185925" id="-2743">
		<tag k="name" v="Nylende" />
		<tag k="place" v="farm" />
		<tag k="ssr:stedsnr" v="752264" />
	</node>
	<node lat="59.00804427610751" lon="5.586110927110934" id="-2757">
		<tag k="alt_name" v="Bø, indre;Bø indre" />
		<tag k="name" v="Indre Bø" />
		<tag k="place" v="farm" />
		<tag k="ssr:stedsnr" v="912762" />
	</node>
	<node lat="59.0162928357288" lon="5.6247889855826445" id="-2758">
		<tag k="name" v="Todneim" />
		<tag k="place" v="farm" />
		<tag k="ssr:stedsnr" v="912765" />
	</node>
	<node lat="59.00137499740343" lon="5.6141222258903785" id="-2759">
		<tag k="name" v="Valen" />
		<tag k="place" v="farm" />
		<tag k="ssr:stedsnr" v="912777" />
	</node>
	<node lat="58.994980553724794" lon="5.649886114876599" id="-2765">
		<tag k="alt_name" v="Grødheim" />
		<tag k="name" v="Grødem" />
		<tag k="place" v="farm" />
		<tag k="ssr:stedsnr" v="911104" />
	</node>
	<node lat="58.993274999324036" lon="5.606349996210422" id="-2766">
		<tag k="name" v="Viste" />
		<tag k="place" v="farm" />
		<tag k="ssr:stedsnr" v="911105" />
	</node>
	<node lat="59.01053610965951" lon="5.634002777364295" id="-2772">
		<tag k="name" v="Kjelvå" />
		<tag k="place" v="farm" />
		<tag k="ssr:stedsnr" v="934603" />
	</node>
	<node lat="59.002325000936686" lon="5.63995833448477" id="-2828">
		<tag k="name" v="Holen" />
		<tag k="place" v="farm" />
		<tag k="ssr:stedsnr" v="24632" />
	</node>
	<node lat="59.002866666056576" lon="5.598972230464218" id="-2831">
		<tag k="name" v="Langerind" />
		<tag k="place" v="farm" />
		<tag k="ssr:stedsnr" v="24441" />
	</node>
	<node lat="58.9945609290256" lon="5.577824024147272" id="-2833">
		<tag k="name" v="Vistvik" />
		<tag k="place" v="farm" />
		<tag k="ssr:stedsnr" v="61087" />
	</node>
	<node lat="58.99867814821859" lon="5.637310704335735" id="-2834">
		<tag k="name" v="Rygg" />
		<tag k="place" v="farm" />
		<tag k="ssr:stedsnr" v="61089" />
	</node>
	<node lat="58.9881666694285" lon="5.632913885121939" id="-2835">
		<tag k="alt_name" v="austre Goa" />
		<tag k="name" v="Goa" />
		<tag k="place" v="farm" />
		<tag k="ssr:stedsnr" v="61091" />
	</node>
	<node lat="59.000086110898934" lon="5.6413555494965895" id="-2836">
		<tag k="name" v="Rygg" />
		<tag k="place" v="farm" />
		<tag k="ssr:stedsnr" v="62359" />
	</node>
	<node lat="58.982283330414496" lon="5.644147219721957" id="-2837">
		<tag k="name" v="Heiå" />
		<tag k="place" v="farm" />
		<tag k="ssr:stedsnr" v="84322" />
	</node>
	<node lat="59.00306389032277" lon="5.590327772617974" id="-2838">
		<tag k="name" v="Reverinda" />
		<tag k="place" v="farm" />
		<tag k="ssr:stedsnr" v="84491" />
	</node>
	<node lat="59.00012777597187" lon="5.640933340789469" id="-2844">
		<tag k="name" v="Hagen" />
		<tag k="place" v="farm" />
		<tag k="ssr:stedsnr" v="85563" />
	</node>
	<node lat="59.01168610905306" lon="5.614258330961135" id="-2846">
		<tag k="name" v="Oddaheia" />
		<tag k="place" v="farm" />
		<tag k="ssr:stedsnr" v="122759" />
	</node>
	<node lat="58.986022218201754" lon="5.652416667542117" id="-2847">
		<tag k="name" v="Molkeholen" />
		<tag k="place" v="farm" />
		<tag k="ssr:stedsnr" v="145285" />
	</node>
	<node lat="58.98538611086538" lon="5.581341662222991" id="-2849">
		<tag k="name" v="Stemmen" />
		<tag k="place" v="farm" />
		<tag k="ssr:stedsnr" v="145349" />
	</node>
	<node lat="59.00035555594079" lon="5.647219436408765" id="-2860">
		<tag k="name" v="Stølsbrotet" />
		<tag k="place" v="farm" />
		<tag k="ssr:stedsnr" v="266632" />
	</node>
	<node lat="58.975572220294715" lon="5.642872225886044" id="-2863">
		<tag k="name" v="Lyngnes" />
		<tag k="place" v="farm" />
		<tag k="ssr:stedsnr" v="304061" />
	</node>
	<node lat="59.019702919380755" lon="5.609287321742286" id="-2867">
		<tag k="name" v="Randaberg" />
		<tag k="place" v="farm" />
		<tag k="ssr:stedsnr" v="327661" />
	</node>
	<node lat="59.00378055144017" lon="5.653613886787391" id="-2869">
		<tag k="name" v="Stemmen" />
		<tag k="place" v="farm" />
		<tag k="ssr:stedsnr" v="327598" />
	</node>
	<node lat="59.00909722433978" lon="5.641961104493645" id="-2873">
		<tag k="alt_name" v="Grødeim" />
		<tag k="name" v="Grødem" />
		<tag k="place" v="farm" />
		<tag k="ssr:stedsnr" v="365799" />
	</node>
	<node lat="58.9929638896675" lon="5.594277781023102" id="-2876">
		<tag k="name" v="Grøvjå" />
		<tag k="place" v="farm" />
		<tag k="ssr:stedsnr" v="387500" />
	</node>
	<node lat="58.99135277459562" lon="5.640463885949684" id="-2881">
		<tag k="name" v="Foren" />
		<tag k="place" v="farm" />
		<tag k="ssr:stedsnr" v="425089" />
	</node>
	<node lat="59.008541668826034" lon="5.6082250024594265" id="-2882">
		<tag k="alt_name" v="Steines" />
		<tag k="name" v="Steinnes" />
		<tag k="place" v="farm" />
		<tag k="ssr:stedsnr" v="426774" />
	</node>
	<node lat="58.99689722441423" lon="5.605575000588637" id="-2884">
		<tag k="name" v="Dalheim" />
		<tag k="place" v="farm" />
		<tag k="ssr:stedsnr" v="485093" />
	</node>
	<node lat="59.00695176100669" lon="5.650516191511559" id="-2886">
		<tag k="alt_name" v="Grødeim" />
		<tag k="name" v="Grødem" />
		<tag k="place" v="farm" />
		<tag k="ssr:stedsnr" v="487791" />
	</node>
	<node lat="59.03476662466189" lon="5.585737591333542" id="-2892">
		<tag k="name" v="Tunge" />
		<tag k="place" v="farm" />
		<tag k="ssr:stedsnr" v="547831" />
	</node>
	<node lat="58.985234394107394" lon="5.585155561450734" id="-2893">
		<tag k="name" v="Raustein" />
		<tag k="place" v="farm" />
		<tag k="ssr:stedsnr" v="569373" />
	</node>
	<node lat="58.97880824287122" lon="5.651973631658582" id="-2898">
		<tag k="name" v="Leikvoll" />
		<tag k="place" v="farm" />
		<tag k="ssr:stedsnr" v="607064" />
	</node>
	<node lat="58.99954929418691" lon="5.618744969761386" id="-2900">
		<tag k="name" v="Randaberg" />
		<tag k="place" v="village" />
		<tag k="ssr:stedsnr" v="608788" />
	</node>
	<node lat="58.979749996704655" lon="5.631163880607629" id="-2905">
		<tag k="name" v="Båtvik" />
		<tag k="place" v="farm" />
		<tag k="ssr:stedsnr" v="789056" />
	</node>
	<node lat="58.988950003111796" lon="5.6225888842687075" id="-2908">
		<tag k="name" v="Trønå" />
		<tag k="place" v="farm" />
		<tag k="ssr:stedsnr" v="813259" />
	</node>
	<node lat="59.00264166376485" lon="5.576716659238608" id="-2910">
		<tag k="alt_name" v="Bø ytre" />
		<tag k="name" v="Ytre Bø" />
		<tag k="place" v="farm" />
		<tag k="ssr:stedsnr" v="820763" />
	</node>
	<node lat="59.008982171456935" lon="5.629190850390441" id="-2915">
		<tag k="name" v="Harestad" />
		<tag k="place" v="farm" />
		<tag k="ssr:stedsnr" v="873334" />
	</node>
	<node lat="58.980944440087846" lon="5.629769439626545" id="-2917">
		<tag k="name" v="Dalen" />
		<tag k="place" v="farm" />
		<tag k="ssr:stedsnr" v="934276" />
	</node>
</osm>
