<?xml version="1.0" encoding="UTF-8"?>
<<<<<<< HEAD
<osm version="0.6" generator="osmapis">
	<node lat="58.990772218424844" lon="5.603174999586447" id="-23">
		<tag k="name" v="Kulebergmyra" />
		<tag k="natural" v="wetland" />
		<tag k="ssr:stedsnr" v="206355" />
	</node>
	<node lat="58.998333336926954" lon="5.644252773108638" id="-41">
=======
<osm generator="osmapis" version="0.6">
	<node id="-25215" lat="59.0315277791" lon="5.57568332916">
		<tag k="name" v="Skoholmen" />
		<tag k="place" v="locality" />
		<tag k="ssr:stedsnr" v="874598" />
	</node>
	<node id="-25144" lat="59.0079833304" lon="5.59859167301">
		<tag k="name" v="Vassbotnen" />
		<tag k="place" v="locality" />
		<tag k="ssr:stedsnr" v="206414" />
	</node>
	<node id="-25079" lat="59.0004194444" lon="5.65375555389">
		<tag k="name" v="Duså" />
		<tag k="place" v="locality" />
		<tag k="ssr:stedsnr" v="630576" />
	</node>
	<node id="-25167" lat="58.9983333369" lon="5.64425277311">
>>>>>>> e1d4bc35ff8a6074a6f2e91616a996b547c36f15
		<tag k="name" v="Klampen" />
		<tag k="place" v="locality" />
		<tag k="ssr:stedsnr" v="387641" />
	</node>
<<<<<<< HEAD
	<node lat="58.99635833360788" lon="5.61951943973161" id="-50">
=======
	<node id="-25165" lat="59.0007888904" lon="5.56977499685">
		<tag k="name" v="Rissberg" />
		<tag k="place" v="locality" />
		<tag k="ssr:stedsnr" v="387499" />
	</node>
	<node id="-25143" lat="58.9907722184" lon="5.60317499959">
		<tag k="name" v="Kulebergmyra" />
		<tag k="natural" v="wetland" />
		<tag k="ssr:stedsnr" v="206355" />
	</node>
	<node id="-25062" lat="58.9963583336" lon="5.61951943973">
>>>>>>> e1d4bc35ff8a6074a6f2e91616a996b547c36f15
		<tag k="name" v="Torset" />
		<tag k="place" v="locality" />
		<tag k="ssr:stedsnr" v="449618" />
	</node>
<<<<<<< HEAD
	<node lat="59.00941388742543" lon="5.582791673973905" id="-52">
=======
	<node id="-25157" lat="59.0010749997" lon="5.63008334133">
		<tag k="name" v="Harestadmyra" />
		<tag k="natural" v="wetland" />
		<tag k="ssr:stedsnr" v="327601" />
	</node>
	<node id="-25057" lat="59.0094138874" lon="5.58279167397">
>>>>>>> e1d4bc35ff8a6074a6f2e91616a996b547c36f15
		<tag k="name" v="Gravet" />
		<tag k="place" v="locality" />
		<tag k="ssr:stedsnr" v="509418" />
	</node>
<<<<<<< HEAD
	<node lat="59.00798333038874" lon="5.598591673009231" id="-131">
		<tag k="name" v="Vassbotnen" />
		<tag k="place" v="locality" />
		<tag k="ssr:stedsnr" v="206414" />
	</node>
	<node lat="59.00107499965738" lon="5.630083341330221" id="-141">
		<tag k="name" v="Harestadmyra" />
		<tag k="natural" v="wetland" />
		<tag k="ssr:stedsnr" v="327601" />
	</node>
	<node lat="59.00078889043476" lon="5.569774996854434" id="-146">
		<tag k="name" v="Rissberg" />
		<tag k="place" v="locality" />
		<tag k="ssr:stedsnr" v="387499" />
	</node>
	<node lat="59.00041944438974" lon="5.653755553885395" id="-165">
		<tag k="name" v="Duså" />
		<tag k="place" v="locality" />
		<tag k="ssr:stedsnr" v="630576" />
	</node>
	<node lat="59.03152777909428" lon="5.575683329163211" id="-184">
		<tag k="name" v="Skoholmen" />
		<tag k="place" v="locality" />
		<tag k="ssr:stedsnr" v="874598" />
	</node>
=======
>>>>>>> e1d4bc35ff8a6074a6f2e91616a996b547c36f15
</osm>
