<?xml version="1.0" encoding="UTF-8"?>
<<<<<<< HEAD
<osm version="0.6" generator="osmapis">
	<node lat="58.98344444077199" lon="5.625416660096176" id="-58">
		<tag k="name" v="Kuvomma" />
		<tag k="natural" v="bay" />
		<tag k="ssr:stedsnr" v="569313" />
	</node>
	<node lat="58.97375833511633" lon="5.643430554196385" id="-96">
=======
<osm generator="osmapis" version="0.6">
	<node id="-25182" lat="58.9834444408" lon="5.6254166601">
		<tag k="name" v="Kuvomma" />
		<tag k="natural" v="bay" />
		<tag k="ssr:stedsnr" v="569313" />
	</node>
	<node id="-25092" lat="59.0104805531" lon="5.59707499181">
		<tag k="name" v="Bøkanalen" />
		<tag k="ssr:stedsnr" v="790779" />
		<tag k="waterway" v="stream" />
	</node>
	<node id="-25095" lat="58.9737583351" lon="5.6434305542">
>>>>>>> e1d4bc35ff8a6074a6f2e91616a996b547c36f15
		<tag k="name" v="Lyngnes" />
		<tag k="natural" v="cape" />
		<tag k="ssr:stedsnr" v="934281" />
	</node>
<<<<<<< HEAD
	<node lat="58.97549834681825" lon="5.62799367079849" id="-113">
=======
	<node id="-25222" lat="59.8279125227" lon="9.70560369472">
		<tag k="name" v="Grølla" />
		<tag k="natural" v="water" />
		<tag k="ssr:stedsnr" v="489738" />
		<tag k="water" v="lake" />
	</node>
	<node id="-25221" lat="58.9754983468" lon="5.6279936708">
>>>>>>> e1d4bc35ff8a6074a6f2e91616a996b547c36f15
		<tag k="name" v="Hålandsvatnet" />
		<tag k="natural" v="water" />
		<tag k="ssr:stedsnr" v="61052" />
		<tag k="water" v="lake" />
	</node>
<<<<<<< HEAD
	<node lat="58.977462565867036" lon="5.627975208222725" id="-118">
		<tag k="name" v="Båtvika" />
		<tag k="natural" v="bay" />
		<tag k="ssr:stedsnr" v="85249" />
	</node>
	<node lat="59.01048055312372" lon="5.597074991814249" id="-175">
		<tag k="name" v="Bøkanalen" />
		<tag k="ssr:stedsnr" v="790779" />
		<tag k="waterway" v="stream" />
=======
	<node id="-25124" lat="58.9774625659" lon="5.62797520822">
		<tag k="name" v="Båtvika" />
		<tag k="natural" v="bay" />
		<tag k="ssr:stedsnr" v="85249" />
>>>>>>> e1d4bc35ff8a6074a6f2e91616a996b547c36f15
	</node>
</osm>
