<?xml version="1.0" encoding="UTF-8"?>
<osm generator="osmapis" version="0.6">
	<node id="-5695" lat="62.3113222234" lon="6.93115833408">
		<tag k="loc_name" v="Stranda" />
		<tag k="name" v="Stranda kommune" />
		<tag k="ssr:date" v="2016-05-10" />
		<tag k="ssr:gruppe" v="administrativeIndelinger" />
		<tag k="ssr:hovedgruppe" v="offentligAdministrasjon" />
		<tag k="ssr:stedsnr" v="450275" />
		<tag k="ssr:type" v="kommune" />
	</node>
	<node id="-5533" lat="62.0873765741" lon="7.0638228238">
		<tag k="name" v="Syltevik" />
		<tag k="ssr:date" v="2020-09-08" />
		<tag k="ssr:gruppe" v="navigasjon" />
		<tag k="ssr:hovedgruppe" v="infrastruktur" />
		<tag k="ssr:stedsnr" v="253466" />
		<tag k="ssr:type" v="fyrlykt" />
	</node>
	<node id="-5628" lat="62.1179333362" lon="7.17610832644">
		<tag k="name" v="Grande" />
		<tag k="ssr:date" v="2016-05-10" />
		<tag k="ssr:gruppe" v="navigasjon" />
		<tag k="ssr:hovedgruppe" v="infrastruktur" />
		<tag k="ssr:stedsnr" v="152620" />
		<tag k="ssr:type" v="fyrlykt" />
	</node>
	<node id="-6739" lat="62.2871346461" lon="7.00545579715">
		<tag k="name" v="Uksneset" />
		<tag k="old_name" v="Uksneset fyrlykt" />
		<tag k="ssr:date" v="2020-09-08" />
		<tag k="ssr:gruppe" v="navigasjon" />
		<tag k="ssr:hovedgruppe" v="infrastruktur" />
		<tag k="ssr:stedsnr" v="132588" />
		<tag k="ssr:type" v="fyrlykt" />
	</node>
	<node id="-7567" lat="62.1231087634" lon="7.18321810012">
		<tag k="name" v="Ørnevegen" />
		<tag k="ssr:date" v="2019-11-26" />
		<tag k="ssr:gruppe" v="veg" />
		<tag k="ssr:hovedgruppe" v="infrastruktur" />
		<tag k="ssr:stedsnr" v="1073543" />
		<tag k="ssr:type" v="vegstrekning" />
	</node>
	<node id="-7566" lat="62.0345533004" lon="7.28862669445">
		<tag k="name" v="Nibbevegen" />
		<tag k="ssr:date" v="2019-11-14" />
		<tag k="ssr:gruppe" v="veg" />
		<tag k="ssr:hovedgruppe" v="infrastruktur" />
		<tag k="ssr:stedsnr" v="1073283" />
		<tag k="ssr:type" v="vegstrekning" />
	</node>
	<node id="-7565" lat="62.3126172377" lon="6.9386676866">
		<tag k="name" v="Veg1058" />
		<tag k="ssr:date" v="2019-05-31" />
		<tag k="ssr:gruppe" v="veg" />
		<tag k="ssr:hovedgruppe" v="infrastruktur" />
		<tag k="ssr:stedsnr" v="1057537" />
		<tag k="ssr:type" v="adressenavn" />
	</node>
	<node id="-7564" lat="62.0876545188" lon="7.22565397588">
		<tag k="name" v="Høghaugmarka" />
		<tag k="ssr:date" v="2019-05-31" />
		<tag k="ssr:gruppe" v="veg" />
		<tag k="ssr:hovedgruppe" v="infrastruktur" />
		<tag k="ssr:stedsnr" v="1057443" />
		<tag k="ssr:type" v="adressenavn" />
	</node>
	<node id="-6826" lat="62.1632777741" lon="7.0305805542">
		<tag k="name" v="Stokke" />
		<tag k="ssr:date" v="2016-05-10" />
		<tag k="ssr:gruppe" v="navigasjon" />
		<tag k="ssr:hovedgruppe" v="infrastruktur" />
		<tag k="ssr:stedsnr" v="193346" />
		<tag k="ssr:type" v="fyrlykt" />
	</node>
	<node id="-6983" lat="62.0942777759" lon="7.22071110298">
		<tag k="name" v="Kopsvingane" />
		<tag k="ssr:date" v="2016-05-10" />
		<tag k="ssr:gruppe" v="veg" />
		<tag k="ssr:hovedgruppe" v="infrastruktur" />
		<tag k="ssr:stedsnr" v="338424" />
		<tag k="ssr:type" v="vegstrekning" />
	</node>
</osm>
