<?xml version="1.0" encoding="UTF-8"?>
<osm version="0.6" generator="osmapis">
	<node lat="61.081938890776904" lon="9.349750000567981" id="-23061">
		<tag k="name" v="Haugerudtjernet" />
		<tag k="natural" v="water" />
		<tag k="ssr:date" v="2019-12-27" />
		<tag k="ssr:gruppe" v="stilleståendeVann" />
		<tag k="ssr:hovedgruppe" v="ferskvann" />
		<tag k="ssr:stedsnr" v="7896" />
		<tag k="ssr:type" v="tjern" />
	</node>
	<node lat="61.16639129218471" lon="9.470559970793097" id="-23062">
		<tag k="name" v="Fullsennbuin" />
		<tag k="place" v="isolated_dwelling" />
		<tag k="ssr:date" v="2021-05-31" />
		<tag k="ssr:gruppe" v="bolighus" />
		<tag k="ssr:hovedgruppe" v="bebyggelse" />
		<tag k="ssr:stedsnr" v="7945" />
		<tag k="ssr:type" v="fritidsbolig" />
	</node>
	<node lat="61.18505833312836" lon="9.468838897587602" id="-23063">
		<tag k="name" v="Fullsenn" />
		<tag k="natural" v="water" />
		<tag k="old_name" v="Fullsennfjorden" />
		<tag k="ssr:date" v="2019-12-27" />
		<tag k="ssr:gruppe" v="stilleståendeVann" />
		<tag k="ssr:hovedgruppe" v="ferskvann" />
		<tag k="ssr:stedsnr" v="7962" />
		<tag k="ssr:type" v="vann" />
		<tag k="water" v="lake" />
	</node>
	<node lat="60.807605556003026" lon="9.202636113123928" id="-23064">
		<tag k="alt_name" v="Flageslette" />
		<tag k="historic" v="shieling" />
		<tag k="name" v="Flageslett" />
		<tag k="place" v="isolated_dwelling" />
		<tag k="ssr:date" v="2019-12-27" />
		<tag k="ssr:gruppe" v="gardsbebyggelse" />
		<tag k="ssr:hovedgruppe" v="bebyggelse" />
		<tag k="ssr:stedsnr" v="8512" />
		<tag k="ssr:type" v="seterStøl" />
	</node>
	<node lat="60.83189444091446" lon="9.328336105231285" id="-23065">
		<tag k="historic" v="shieling" />
		<tag k="name" v="Kinn" />
		<tag k="place" v="isolated_dwelling" />
		<tag k="ssr:date" v="2019-12-27" />
		<tag k="ssr:gruppe" v="gardsbebyggelse" />
		<tag k="ssr:hovedgruppe" v="bebyggelse" />
		<tag k="ssr:stedsnr" v="8651" />
		<tag k="ssr:type" v="seterStøl" />
	</node>
	<node lat="60.874672222450926" lon="9.52982499327297" id="-23066">
		<tag k="fixme" v="multiple name tags, choose one and add the other to alt_name" />
		<tag k="loc_name" v="Tonsbakkane;Broten;Tobakkatn" />
		<tag k="name" v="Tonsbakken;Brøtin" />
		<tag k="place" v="farm" />
		<tag k="ssr:date" v="2019-12-27" />
		<tag k="ssr:gruppe" v="gardsbebyggelse" />
		<tag k="ssr:hovedgruppe" v="bebyggelse" />
		<tag k="ssr:stedsnr" v="8707" />
		<tag k="ssr:type" v="bruk" />
	</node>
	<node lat="60.996616668590484" lon="9.206297230924138" id="-23067">
		<tag k="alt_name" v="Bergatn" />
		<tag k="name" v="Bergan" />
		<tag k="place" v="farm" />
		<tag k="ssr:date" v="2019-12-27" />
		<tag k="ssr:gruppe" v="gardsbebyggelse" />
		<tag k="ssr:hovedgruppe" v="bebyggelse" />
		<tag k="ssr:stedsnr" v="9043" />
		<tag k="ssr:type" v="bruk" />
	</node>
	<node lat="60.95442777355909" lon="9.152169450009033" id="-23068">
		<tag k="name" v="Geispa" />
		<tag k="ssr:date" v="2019-12-27" />
		<tag k="ssr:gruppe" v="rennendeVann" />
		<tag k="ssr:hovedgruppe" v="ferskvann" />
		<tag k="ssr:stedsnr" v="9088" />
		<tag k="ssr:type" v="elv" />
		<tag k="waterway" v="river" />
	</node>
	<node lat="60.961136112133495" lon="9.166144443504688" id="-23069">
		<tag k="name" v="Haugen" />
		<tag k="place" v="farm" />
		<tag k="ssr:date" v="2019-12-27" />
		<tag k="ssr:gruppe" v="gardsbebyggelse" />
		<tag k="ssr:hovedgruppe" v="bebyggelse" />
		<tag k="ssr:stedsnr" v="9089" />
		<tag k="ssr:type" v="bruk" />
	</node>
	<node lat="60.99206666772921" lon="9.290941674628794" id="-23070">
		<tag k="name" v="Sustjernet" />
		<tag k="natural" v="water" />
		<tag k="old_name" v="Sustjednet" />
		<tag k="ssr:date" v="2019-12-27" />
		<tag k="ssr:gruppe" v="stilleståendeVann" />
		<tag k="ssr:hovedgruppe" v="ferskvann" />
		<tag k="ssr:stedsnr" v="9302" />
		<tag k="ssr:type" v="tjern" />
	</node>
	<node lat="60.973166663987705" lon="9.490955558228462" id="-23071">
		<tag k="name" v="Vesleskjenangen" />
		<tag k="place" v="isolated_dwelling" />
		<tag k="ssr:date" v="2019-12-27" />
		<tag k="ssr:gruppe" v="bolighus" />
		<tag k="ssr:hovedgruppe" v="bebyggelse" />
		<tag k="ssr:stedsnr" v="9332" />
		<tag k="ssr:type" v="fritidsbolig" />
	</node>
	<node lat="60.974611114767704" lon="9.39298056355545" id="-23072">
		<tag k="historic" v="shieling" />
		<tag k="loc_name" v="Ranheimset" />
		<tag k="name" v="Raneiset" />
		<tag k="place" v="isolated_dwelling" />
		<tag k="ssr:date" v="2019-12-27" />
		<tag k="ssr:gruppe" v="gardsbebyggelse" />
		<tag k="ssr:hovedgruppe" v="bebyggelse" />
		<tag k="ssr:stedsnr" v="9335" />
		<tag k="ssr:type" v="seterStøl" />
	</node>
	<node lat="60.99200833574051" lon="9.354255547516498" id="-23073">
		<tag k="historic" v="shieling" />
		<tag k="name" v="Håkontjernstølen" />
		<tag k="old_name" v="Håkontjednstølen" />
		<tag k="place" v="isolated_dwelling" />
		<tag k="ssr:date" v="2019-12-27" />
		<tag k="ssr:gruppe" v="gardsbebyggelse" />
		<tag k="ssr:hovedgruppe" v="bebyggelse" />
		<tag k="ssr:stedsnr" v="9299" />
		<tag k="ssr:type" v="seterStøl" />
	</node>
	<node lat="60.86463169268534" lon="9.155871334535032" id="-23074">
		<tag k="historic" v="shieling" />
		<tag k="name" v="Hermanstølen" />
		<tag k="place" v="isolated_dwelling" />
		<tag k="ssr:date" v="2019-12-27" />
		<tag k="ssr:gruppe" v="gardsbebyggelse" />
		<tag k="ssr:hovedgruppe" v="bebyggelse" />
		<tag k="ssr:stedsnr" v="9401" />
		<tag k="ssr:type" v="seterStøl" />
	</node>
	<node lat="60.827208330531484" lon="9.145091675748876" id="-23075">
		<tag k="alt_name" v="Stølsdokki" />
		<tag k="name" v="Stølsdokken" />
		<tag k="place" v="isolated_dwelling" />
		<tag k="ssr:date" v="2019-12-27" />
		<tag k="ssr:gruppe" v="bolighus" />
		<tag k="ssr:hovedgruppe" v="bebyggelse" />
		<tag k="ssr:stedsnr" v="9437" />
		<tag k="ssr:type" v="fritidsbolig" />
	</node>
	<node lat="60.95937222230066" lon="9.231477779016105" id="-23076">
		<tag k="fixme" v="consider natural=peak for the most distinct mountains in the district" />
		<tag k="name" v="Dugurdsknatten" />
		<tag k="natural" v="hill" />
		<tag k="place" v="locality" />
		<tag k="ssr:date" v="2019-12-27" />
		<tag k="ssr:gruppe" v="høyder" />
		<tag k="ssr:hovedgruppe" v="terreng" />
		<tag k="ssr:stedsnr" v="9606" />
		<tag k="ssr:type" v="ås" />
	</node>
	<node lat="60.96548332943501" lon="9.461041660770423" id="-23077">
		<tag k="name" v="Kivostjernet" />
		<tag k="natural" v="water" />
		<tag k="old_name" v="Kivostjednet" />
		<tag k="ssr:date" v="2019-12-27" />
		<tag k="ssr:gruppe" v="stilleståendeVann" />
		<tag k="ssr:hovedgruppe" v="ferskvann" />
		<tag k="ssr:stedsnr" v="9609" />
		<tag k="ssr:type" v="tjern" />
	</node>
	<node lat="60.96454699726172" lon="9.35341295871898" id="-23078">
		<tag k="alt_name" v="Skaveldsletti" />
		<tag k="historic" v="shieling" />
		<tag k="name" v="Skaveldslette" />
		<tag k="place" v="isolated_dwelling" />
		<tag k="ssr:date" v="2020-04-07" />
		<tag k="ssr:gruppe" v="gardsbebyggelse" />
		<tag k="ssr:hovedgruppe" v="bebyggelse" />
		<tag k="ssr:stedsnr" v="9616" />
		<tag k="ssr:type" v="seterStøl" />
	</node>
	<node lat="60.97005833351175" lon="9.294877769218546" id="-23079">
		<tag k="name" v="Leira" />
		<tag k="place" v="village" />
		<tag k="ssr:date" v="2019-12-27" />
		<tag k="ssr:gruppe" v="bebyggelsesområder" />
		<tag k="ssr:hovedgruppe" v="bebyggelse" />
		<tag k="ssr:stedsnr" v="9619" />
		<tag k="ssr:type" v="tettsted" />
	</node>
	<node lat="60.867935285728215" lon="9.183257254770673" id="-23080">
		<tag k="historic" v="shieling" />
		<tag k="name" v="Brattstølen" />
		<tag k="place" v="isolated_dwelling" />
		<tag k="ssr:date" v="2019-12-27" />
		<tag k="ssr:gruppe" v="gardsbebyggelse" />
		<tag k="ssr:hovedgruppe" v="bebyggelse" />
		<tag k="ssr:stedsnr" v="9396" />
		<tag k="ssr:type" v="seterStøl" />
	</node>
	<node lat="60.86907499727838" lon="9.217536114704389" id="-23081">
		<tag k="amenity" v="place_of_worship" />
		<tag k="denomination" v="lutheran" />
		<tag k="name" v="Tisleidalen kirke" />
		<tag k="religion" v="christian" />
		<tag k="ssr:date" v="2019-12-27" />
		<tag k="ssr:gruppe" v="kulturinstitusjoner" />
		<tag k="ssr:hovedgruppe" v="kultur" />
		<tag k="ssr:stedsnr" v="9398" />
		<tag k="ssr:type" v="kirke" />
	</node>
	<node lat="60.91508888700372" lon="9.328094444066544" id="-23082">
		<tag k="name" v="Heimli" />
		<tag k="place" v="farm" />
		<tag k="ssr:date" v="2019-12-27" />
		<tag k="ssr:gruppe" v="gardsbebyggelse" />
		<tag k="ssr:hovedgruppe" v="bebyggelse" />
		<tag k="ssr:stedsnr" v="9507" />
		<tag k="ssr:type" v="bruk" />
	</node>
	<node lat="60.91589444535721" lon="9.263697224227146" id="-23083">
		<tag k="historic" v="shieling" />
		<tag k="name" v="Svartåsen" />
		<tag k="place" v="isolated_dwelling" />
		<tag k="ssr:date" v="2019-12-27" />
		<tag k="ssr:gruppe" v="gardsbebyggelse" />
		<tag k="ssr:hovedgruppe" v="bebyggelse" />
		<tag k="ssr:stedsnr" v="9514" />
		<tag k="ssr:type" v="seterStøl" />
	</node>
	<node lat="60.95611388858223" lon="9.41412222645842" id="-23084">
		<tag k="historic" v="shieling" />
		<tag k="name" v="Gråndalen" />
		<tag k="place" v="isolated_dwelling" />
		<tag k="ssr:date" v="2019-12-27" />
		<tag k="ssr:gruppe" v="gardsbebyggelse" />
		<tag k="ssr:hovedgruppe" v="bebyggelse" />
		<tag k="ssr:stedsnr" v="9595" />
		<tag k="ssr:type" v="seterStøl" />
	</node>
	<node lat="60.87668888832643" lon="9.221861116134392" id="-23085">
		<tag k="name" v="Feten" />
		<tag k="place" v="farm" />
		<tag k="ssr:date" v="2019-12-27" />
		<tag k="ssr:gruppe" v="gardsbebyggelse" />
		<tag k="ssr:hovedgruppe" v="bebyggelse" />
		<tag k="ssr:stedsnr" v="9695" />
		<tag k="ssr:type" v="bruk" />
	</node>
	<node lat="60.806916665987174" lon="9.301541662474927" id="-23086">
		<tag k="name" v="Haugsjøen" />
		<tag k="natural" v="water" />
		<tag k="ssr:date" v="2019-12-27" />
		<tag k="ssr:gruppe" v="stilleståendeVann" />
		<tag k="ssr:hovedgruppe" v="ferskvann" />
		<tag k="ssr:stedsnr" v="9808" />
		<tag k="ssr:type" v="tjern" />
	</node>
	<node lat="60.921722222205375" lon="9.035744451403106" id="-23087">
		<tag k="junction" v="yes" />
		<tag k="name" v="Brattåsvegnasjelet" />
		<tag k="place" v="locality" />
		<tag k="ssr:date" v="2019-12-27" />
		<tag k="ssr:gruppe" v="veg" />
		<tag k="ssr:hovedgruppe" v="infrastruktur" />
		<tag k="ssr:stedsnr" v="235055" />
		<tag k="ssr:type" v="vegkryss" />
	</node>
	<node lat="60.91381666671011" lon="9.052366665665927" id="-23088">
		<tag k="highway" v="path" />
		<tag k="name" v="Kløvvegen" />
		<tag k="ssr:date" v="2019-12-27" />
		<tag k="ssr:gruppe" v="veg" />
		<tag k="ssr:hovedgruppe" v="infrastruktur" />
		<tag k="ssr:stedsnr" v="235059" />
		<tag k="ssr:type" v="sti" />
	</node>
	<node lat="60.94024166690716" lon="9.10793888585135" id="-23089">
		<tag k="name" v="Regine Nordmannkulpen" />
		<tag k="natural" v="spring" />
		<tag k="ssr:date" v="2019-12-27" />
		<tag k="ssr:gruppe" v="rennendeVann" />
		<tag k="ssr:hovedgruppe" v="ferskvann" />
		<tag k="ssr:stedsnr" v="235140" />
		<tag k="ssr:type" v="kilde" />
	</node>
	<node lat="60.87565000076545" lon="9.156050007330144" id="-23090">
		<tag k="name" v="Hermanstølhøvda" />
		<tag k="natural" v="hill" />
		<tag k="place" v="locality" />
		<tag k="ssr:date" v="2019-12-27" />
		<tag k="ssr:gruppe" v="høyder" />
		<tag k="ssr:hovedgruppe" v="terreng" />
		<tag k="ssr:stedsnr" v="235159" />
		<tag k="ssr:type" v="høyde" />
	</node>
	<node lat="60.88013610860856" lon="9.200038885126077" id="-23091">
		<tag k="historic" v="shieling" />
		<tag k="name" v="Monsetrøe" />
		<tag k="place" v="isolated_dwelling" />
		<tag k="ssr:date" v="2019-12-27" />
		<tag k="ssr:gruppe" v="gardsbebyggelse" />
		<tag k="ssr:hovedgruppe" v="bebyggelse" />
		<tag k="ssr:stedsnr" v="235170" />
		<tag k="ssr:type" v="seterStøl" />
	</node>
	<node lat="60.89296944834227" lon="9.001841665666422" id="-23092">
		<tag k="name" v="Røvshaugadn" />
		<tag k="natural" v="hill" />
		<tag k="place" v="locality" />
		<tag k="ssr:date" v="2019-12-27" />
		<tag k="ssr:gruppe" v="høyder" />
		<tag k="ssr:hovedgruppe" v="terreng" />
		<tag k="ssr:stedsnr" v="235176" />
		<tag k="ssr:type" v="haug" />
	</node>
	<node lat="60.93028055388643" lon="9.150263895980649" id="-23093">
		<tag k="name" v="Søreåne" />
		<tag k="ssr:date" v="2019-12-27" />
		<tag k="ssr:gruppe" v="rennendeVann" />
		<tag k="ssr:hovedgruppe" v="ferskvann" />
		<tag k="ssr:stedsnr" v="235122" />
		<tag k="ssr:type" v="bekk" />
		<tag k="waterway" v="stream" />
	</node>
	<node lat="60.97008611380991" lon="9.062858338238259" id="-23094">
		<tag k="historic" v="shieling" />
		<tag k="name" v="Harkjelset" />
		<tag k="place" v="isolated_dwelling" />
		<tag k="ssr:date" v="2019-12-27" />
		<tag k="ssr:gruppe" v="gardsbebyggelse" />
		<tag k="ssr:hovedgruppe" v="bebyggelse" />
		<tag k="ssr:stedsnr" v="235623" />
		<tag k="ssr:type" v="seterStøl" />
	</node>
	<node lat="60.954766667113475" lon="8.999611116335506" id="-23095">
		<tag k="name" v="Veslelie" />
		<tag k="natural" v="slope" />
		<tag k="place" v="locality" />
		<tag k="ssr:date" v="2019-12-27" />
		<tag k="ssr:gruppe" v="skråninger" />
		<tag k="ssr:hovedgruppe" v="terreng" />
		<tag k="ssr:stedsnr" v="235650" />
		<tag k="ssr:type" v="li" />
	</node>
	<node lat="61.02514444004649" lon="9.367783338826996" id="-23096">
		<tag k="name" v="Tveitastølvadet" />
		<tag k="ssr:date" v="2019-12-27" />
		<tag k="ssr:gruppe" v="rennendeVann" />
		<tag k="ssr:hovedgruppe" v="ferskvann" />
		<tag k="ssr:stedsnr" v="33614" />
		<tag k="ssr:type" v="bekk" />
		<tag k="waterway" v="stream" />
	</node>
	<node lat="60.922788890640774" lon="9.34644165869702" id="-23097">
		<tag k="name" v="Hagin" />
		<tag k="place" v="farm" />
		<tag k="ssr:date" v="2019-12-27" />
		<tag k="ssr:gruppe" v="gardsbebyggelse" />
		<tag k="ssr:hovedgruppe" v="bebyggelse" />
		<tag k="ssr:stedsnr" v="235801" />
		<tag k="ssr:type" v="bruk" />
	</node>
	<node lat="60.921544447684724" lon="9.12373888148631" id="-23098">
		<tag k="name" v="Sandbakkbekken" />
		<tag k="ssr:date" v="2019-12-27" />
		<tag k="ssr:gruppe" v="rennendeVann" />
		<tag k="ssr:hovedgruppe" v="ferskvann" />
		<tag k="ssr:stedsnr" v="235816" />
		<tag k="ssr:type" v="bekk" />
		<tag k="waterway" v="stream" />
	</node>
	<node lat="60.945697226502176" lon="9.052955549561041" id="-23099">
		<tag k="name" v="Vestre fjellet" />
		<tag k="natural" v="hill" />
		<tag k="place" v="locality" />
		<tag k="ssr:date" v="2019-12-27" />
		<tag k="ssr:gruppe" v="høyder" />
		<tag k="ssr:hovedgruppe" v="terreng" />
		<tag k="ssr:stedsnr" v="235820" />
		<tag k="ssr:type" v="høyde" />
	</node>
	<node lat="60.91729722351605" lon="9.331666663905944" id="-23100">
		<tag k="name" v="Dalen" />
		<tag k="place" v="farm" />
		<tag k="ssr:date" v="2019-12-27" />
		<tag k="ssr:gruppe" v="gardsbebyggelse" />
		<tag k="ssr:hovedgruppe" v="bebyggelse" />
		<tag k="ssr:stedsnr" v="235850" />
		<tag k="ssr:type" v="bruk" />
	</node>
	<node lat="60.9204777785445" lon="9.185611103262316" id="-23101">
		<tag k="name" v="Åkervøllstøldikjet" />
		<tag k="natural" v="wetland" />
		<tag k="ssr:date" v="2019-12-27" />
		<tag k="ssr:gruppe" v="våtmark" />
		<tag k="ssr:hovedgruppe" v="markslag" />
		<tag k="ssr:stedsnr" v="235926" />
		<tag k="ssr:type" v="myr" />
	</node>
	<node lat="60.92570555772285" lon="9.19497500860405" id="-23102">
		<tag k="bridge" v="yes" />
		<tag k="layer" v="1" />
		<tag k="name" v="Saustølbrue" />
		<tag k="ssr:date" v="2019-12-27" />
		<tag k="ssr:gruppe" v="samferdselsanlegg" />
		<tag k="ssr:hovedgruppe" v="infrastruktur" />
		<tag k="ssr:stedsnr" v="236001" />
		<tag k="ssr:type" v="klopp" />
	</node>
	<node lat="61.05931311213372" lon="9.329302348121224" id="-23103">
		<tag k="name" v="Kløvberget" />
		<tag k="natural" v="hill" />
		<tag k="place" v="locality" />
		<tag k="ssr:date" v="2020-02-05" />
		<tag k="ssr:gruppe" v="høyder" />
		<tag k="ssr:hovedgruppe" v="terreng" />
		<tag k="ssr:stedsnr" v="236072" />
		<tag k="ssr:type" v="haug" />
	</node>
	<node lat="60.86901666319941" lon="9.196672225698482" id="-23104">
		<tag k="name" v="Steinhaugen" />
		<tag k="natural" v="hill" />
		<tag k="place" v="locality" />
		<tag k="ssr:date" v="2019-12-27" />
		<tag k="ssr:gruppe" v="høyder" />
		<tag k="ssr:hovedgruppe" v="terreng" />
		<tag k="ssr:stedsnr" v="236258" />
		<tag k="ssr:type" v="haug" />
	</node>
	<node lat="60.85243333542864" lon="9.177486105030876" id="-23105">
		<tag k="alt_name" v="Vaset" />
		<tag k="historic" v="shieling" />
		<tag k="name" v="Vadset" />
		<tag k="place" v="isolated_dwelling" />
		<tag k="ssr:date" v="2019-12-27" />
		<tag k="ssr:gruppe" v="gardsbebyggelse" />
		<tag k="ssr:hovedgruppe" v="bebyggelse" />
		<tag k="ssr:stedsnr" v="39012" />
		<tag k="ssr:type" v="seterStøl" />
	</node>
	<node lat="60.98051944323267" lon="9.09178056316867" id="-23106">
		<tag k="name" v="Nedre Kruk" />
		<tag k="place" v="locality" />
		<tag k="ssr:date" v="2019-12-27" />
		<tag k="ssr:gruppe" v="terrengdetaljer" />
		<tag k="ssr:hovedgruppe" v="terreng" />
		<tag k="ssr:stedsnr" v="39305" />
		<tag k="ssr:type" v="annenTerrengdetalj" />
	</node>
	<node lat="61.0399083369734" lon="9.19943056477381" id="-23107">
		<tag k="name" v="Myrvang" />
		<tag k="place" v="isolated_dwelling" />
		<tag k="ssr:date" v="2019-12-27" />
		<tag k="ssr:gruppe" v="bolighus" />
		<tag k="ssr:hovedgruppe" v="bebyggelse" />
		<tag k="ssr:stedsnr" v="236776" />
		<tag k="ssr:type" v="eneboligMindreBoligbygg" />
	</node>
	<node lat="61.00209999967808" lon="9.23547499514088" id="-23108">
		<tag k="name" v="Skogabryn" />
		<tag k="place" v="farm" />
		<tag k="ssr:date" v="2019-12-27" />
		<tag k="ssr:gruppe" v="gardsbebyggelse" />
		<tag k="ssr:hovedgruppe" v="bebyggelse" />
		<tag k="ssr:stedsnr" v="39528" />
		<tag k="ssr:type" v="bruk" />
	</node>
	<node lat="61.00836944836027" lon="9.232377778346153" id="-23109">
		<tag k="name" v="Skogheim" />
		<tag k="place" v="farm" />
		<tag k="ssr:date" v="2019-12-27" />
		<tag k="ssr:gruppe" v="gardsbebyggelse" />
		<tag k="ssr:hovedgruppe" v="bebyggelse" />
		<tag k="ssr:stedsnr" v="39533" />
		<tag k="ssr:type" v="bruk" />
	</node>
	<node lat="60.98081944321054" lon="9.09769444412593" id="-23110">
		<tag k="name" v="Ryeelve" />
		<tag k="ssr:date" v="2019-12-27" />
		<tag k="ssr:gruppe" v="rennendeVann" />
		<tag k="ssr:hovedgruppe" v="ferskvann" />
		<tag k="ssr:stedsnr" v="39567" />
		<tag k="ssr:type" v="elv" />
		<tag k="waterway" v="river" />
	</node>
	<node lat="61.01026110720506" lon="9.229302779381053" id="-23111">
		<tag k="name" v="Nybrøtin" />
		<tag k="place" v="farm" />
		<tag k="ssr:date" v="2019-12-27" />
		<tag k="ssr:gruppe" v="gardsbebyggelse" />
		<tag k="ssr:hovedgruppe" v="bebyggelse" />
		<tag k="ssr:stedsnr" v="39466" />
		<tag k="ssr:type" v="bruk" />
	</node>
	<node lat="61.04135000350275" lon="9.411416658814327" id="-23112">
		<tag k="name" v="Øvre Bjørnaskardstjernet" />
		<tag k="natural" v="water" />
		<tag k="old_name" v="Øvre Bjødnaskardstjednet" />
		<tag k="ssr:date" v="2019-12-27" />
		<tag k="ssr:gruppe" v="stilleståendeVann" />
		<tag k="ssr:hovedgruppe" v="ferskvann" />
		<tag k="ssr:stedsnr" v="39873" />
		<tag k="ssr:type" v="tjern" />
	</node>
	<node lat="61.06626111019862" lon="9.40386943628275" id="-23113">
		<tag k="historic" v="shieling" />
		<tag k="name" v="Jøsenghaugstølen" />
		<tag k="place" v="isolated_dwelling" />
		<tag k="ssr:date" v="2019-12-27" />
		<tag k="ssr:gruppe" v="gardsbebyggelse" />
		<tag k="ssr:hovedgruppe" v="bebyggelse" />
		<tag k="ssr:stedsnr" v="39768" />
		<tag k="ssr:type" v="seterStøl" />
	</node>
	<node lat="60.92367499621835" lon="9.482133326942067" id="-23114">
		<tag k="historic" v="shieling" />
		<tag k="name" v="Søre Langevasslie" />
		<tag k="place" v="isolated_dwelling" />
		<tag k="ssr:date" v="2019-12-27" />
		<tag k="ssr:gruppe" v="gardsbebyggelse" />
		<tag k="ssr:hovedgruppe" v="bebyggelse" />
		<tag k="ssr:stedsnr" v="238059" />
		<tag k="ssr:type" v="seterStøl" />
	</node>
	<node lat="60.887922225677215" lon="9.424016669944963" id="-23115">
		<tag k="name" v="Storemyre" />
		<tag k="natural" v="wetland" />
		<tag k="ssr:date" v="2019-12-27" />
		<tag k="ssr:gruppe" v="våtmark" />
		<tag k="ssr:hovedgruppe" v="markslag" />
		<tag k="ssr:stedsnr" v="238063" />
		<tag k="ssr:type" v="myr" />
	</node>
	<node lat="60.84900833157871" lon="9.327994436892924" id="-23116">
		<tag k="alt_name" v="Eivasslie" />
		<tag k="name" v="Eidvasslii" />
		<tag k="natural" v="slope" />
		<tag k="place" v="locality" />
		<tag k="ssr:date" v="2019-12-27" />
		<tag k="ssr:gruppe" v="skråninger" />
		<tag k="ssr:hovedgruppe" v="terreng" />
		<tag k="ssr:stedsnr" v="238190" />
		<tag k="ssr:type" v="li" />
	</node>
	<node lat="60.916488885990155" lon="9.283433325231064" id="-23117">
		<tag k="bridge" v="yes" />
		<tag k="layer" v="1" />
		<tag k="name" v="Krøssåen" />
		<tag k="ssr:date" v="2019-12-27" />
		<tag k="ssr:gruppe" v="samferdselsanlegg" />
		<tag k="ssr:hovedgruppe" v="infrastruktur" />
		<tag k="ssr:stedsnr" v="46219" />
		<tag k="ssr:type" v="bru" />
	</node>
	<node lat="60.92563888576803" lon="9.247194450442493" id="-23118">
		<tag k="historic" v="shieling" />
		<tag k="name" v="Moatrøe" />
		<tag k="place" v="isolated_dwelling" />
		<tag k="ssr:date" v="2019-12-27" />
		<tag k="ssr:gruppe" v="gardsbebyggelse" />
		<tag k="ssr:hovedgruppe" v="bebyggelse" />
		<tag k="ssr:stedsnr" v="238651" />
		<tag k="ssr:type" v="seterStøl" />
	</node>
	<node lat="60.91461666847089" lon="9.236194443820368" id="-23119">
		<tag k="name" v="Mørkabekken" />
		<tag k="ssr:date" v="2019-12-27" />
		<tag k="ssr:gruppe" v="rennendeVann" />
		<tag k="ssr:hovedgruppe" v="ferskvann" />
		<tag k="ssr:stedsnr" v="238667" />
		<tag k="ssr:type" v="bekk" />
		<tag k="waterway" v="stream" />
	</node>
	<node lat="60.89935555955547" lon="9.370350002639452" id="-23120">
		<tag k="name" v="Kølhusvøllen" />
		<tag k="place" v="locality" />
		<tag k="ssr:date" v="2019-12-27" />
		<tag k="ssr:gruppe" v="flater" />
		<tag k="ssr:hovedgruppe" v="terreng" />
		<tag k="ssr:stedsnr" v="238721" />
		<tag k="ssr:type" v="slette" />
	</node>
	<node lat="60.887860406913084" lon="9.341589476365732" id="-23121">
		<tag k="alt_name" v="Timannstøltjernet" />
		<tag k="name" v="Timannsstøltjernet" />
		<tag k="natural" v="water" />
		<tag k="old_name" v="Timannstøltjedne" />
		<tag k="ssr:date" v="2020-03-31" />
		<tag k="ssr:gruppe" v="stilleståendeVann" />
		<tag k="ssr:hovedgruppe" v="ferskvann" />
		<tag k="ssr:stedsnr" v="238723" />
		<tag k="ssr:type" v="tjern" />
	</node>
	<node lat="60.89563889197545" lon="9.289663894018762" id="-23122">
		<tag k="name" v="Plukkarhølen" />
		<tag k="natural" v="valley" />
		<tag k="place" v="locality" />
		<tag k="ssr:date" v="2019-12-27" />
		<tag k="ssr:gruppe" v="senkninger" />
		<tag k="ssr:hovedgruppe" v="terreng" />
		<tag k="ssr:stedsnr" v="238881" />
		<tag k="ssr:type" v="botn" />
	</node>
	<node lat="60.89181666475698" lon="9.271477776865934" id="-23123">
		<tag k="name" v="Kvilarlågsletta" />
		<tag k="place" v="locality" />
		<tag k="ssr:date" v="2019-12-27" />
		<tag k="ssr:gruppe" v="flater" />
		<tag k="ssr:hovedgruppe" v="terreng" />
		<tag k="ssr:stedsnr" v="238873" />
		<tag k="ssr:type" v="slette" />
	</node>
	<node lat="61.03442133523344" lon="9.206440298838475" id="-23124">
		<tag k="alt_name" v="Bundeli" />
		<tag k="name" v="Bundli" />
		<tag k="place" v="hamlet" />
		<tag k="ssr:date" v="2019-12-27" />
		<tag k="ssr:gruppe" v="gardsbebyggelse" />
		<tag k="ssr:hovedgruppe" v="bebyggelse" />
		<tag k="ssr:stedsnr" v="239258" />
		<tag k="ssr:type" v="navnegard" />
	</node>
	<node lat="61.10838888813387" lon="9.641808327545299" id="-23125">
		<tag k="name" v="Skyttarøddin" />
		<tag k="natural" v="cape" />
		<tag k="ssr:date" v="2019-12-27" />
		<tag k="ssr:gruppe" v="ferskvannskontur" />
		<tag k="ssr:hovedgruppe" v="ferskvann" />
		<tag k="ssr:stedsnr" v="52619" />
		<tag k="ssr:type" v="nes" />
	</node>
	<node lat="60.93351111342687" lon="9.114652771912017" id="-23126">
		<tag k="historic" v="shieling" />
		<tag k="name" v="Jordistrøe" />
		<tag k="place" v="isolated_dwelling" />
		<tag k="ssr:date" v="2019-12-27" />
		<tag k="ssr:gruppe" v="gardsbebyggelse" />
		<tag k="ssr:hovedgruppe" v="bebyggelse" />
		<tag k="ssr:stedsnr" v="53111" />
		<tag k="ssr:type" v="seterStøl" />
	</node>
	<node lat="60.93328333434537" lon="9.09483610257228" id="-23127">
		<tag k="name" v="Nørdre Steinkjeringe" />
		<tag k="natural" v="hill" />
		<tag k="place" v="locality" />
		<tag k="ssr:date" v="2019-12-27" />
		<tag k="ssr:gruppe" v="høyder" />
		<tag k="ssr:hovedgruppe" v="terreng" />
		<tag k="ssr:stedsnr" v="53122" />
		<tag k="ssr:type" v="haug" />
	</node>
	<node lat="60.93213888463099" lon="9.12232222008693" id="-23128">
		<tag k="historic" v="shieling" />
		<tag k="name" v="Haugatrøe" />
		<tag k="place" v="isolated_dwelling" />
		<tag k="ssr:date" v="2019-12-27" />
		<tag k="ssr:gruppe" v="gardsbebyggelse" />
		<tag k="ssr:hovedgruppe" v="bebyggelse" />
		<tag k="ssr:stedsnr" v="53089" />
		<tag k="ssr:type" v="seterStøl" />
	</node>
	<node lat="60.90067500165648" lon="9.065744438491926" id="-23129">
		<tag k="name" v="Dugurdshøgde" />
		<tag k="natural" v="hill" />
		<tag k="place" v="locality" />
		<tag k="ssr:date" v="2019-12-27" />
		<tag k="ssr:gruppe" v="høyder" />
		<tag k="ssr:hovedgruppe" v="terreng" />
		<tag k="ssr:stedsnr" v="53091" />
		<tag k="ssr:type" v="høyde" />
	</node>
	<node lat="60.90344722275667" lon="8.989216666973922" id="-23130">
		<tag k="name" v="Røllångshaugen" />
		<tag k="natural" v="hill" />
		<tag k="place" v="locality" />
		<tag k="ssr:date" v="2019-12-27" />
		<tag k="ssr:gruppe" v="høyder" />
		<tag k="ssr:hovedgruppe" v="terreng" />
		<tag k="ssr:stedsnr" v="53172" />
		<tag k="ssr:type" v="haug" />
	</node>
	<node lat="60.92046388932687" lon="9.343263884741612" id="-23131">
		<tag k="name" v="Hovshagin" />
		<tag k="place" v="farm" />
		<tag k="ssr:date" v="2019-12-27" />
		<tag k="ssr:gruppe" v="gardsbebyggelse" />
		<tag k="ssr:hovedgruppe" v="bebyggelse" />
		<tag k="ssr:stedsnr" v="53818" />
		<tag k="ssr:type" v="bruk" />
	</node>
	<node lat="60.915447222618205" lon="9.166200004546257" id="-23132">
		<tag k="alt_name" v="Strøndastølvegen" />
		<tag k="highway" v="path" />
		<tag k="name" v="Strondastølvegen" />
		<tag k="ssr:date" v="2019-12-27" />
		<tag k="ssr:gruppe" v="veg" />
		<tag k="ssr:hovedgruppe" v="infrastruktur" />
		<tag k="ssr:stedsnr" v="54020" />
		<tag k="ssr:type" v="sti" />
	</node>
	<node lat="60.894961115590064" lon="9.525449991189788" id="-23133">
		<tag k="historic" v="shieling" />
		<tag k="name" v="Meinset" />
		<tag k="place" v="isolated_dwelling" />
		<tag k="ssr:date" v="2019-12-27" />
		<tag k="ssr:gruppe" v="gardsbebyggelse" />
		<tag k="ssr:hovedgruppe" v="bebyggelse" />
		<tag k="ssr:stedsnr" v="54522" />
		<tag k="ssr:type" v="seterStøl" />
	</node>
	<node lat="60.88292499892789" lon="9.396208341162401" id="-23134">
		<tag k="name" v="Bakombergmyratn" />
		<tag k="natural" v="wetland" />
		<tag k="ssr:date" v="2019-12-27" />
		<tag k="ssr:gruppe" v="våtmark" />
		<tag k="ssr:hovedgruppe" v="markslag" />
		<tag k="ssr:stedsnr" v="239842" />
		<tag k="ssr:type" v="myr" />
	</node>
	<node lat="60.881311110935314" lon="9.43282777667284" id="-23135">
		<tag k="name" v="Dalahaugen" />
		<tag k="place" v="farm" />
		<tag k="ssr:date" v="2019-12-27" />
		<tag k="ssr:gruppe" v="gardsbebyggelse" />
		<tag k="ssr:hovedgruppe" v="bebyggelse" />
		<tag k="ssr:stedsnr" v="239851" />
		<tag k="ssr:type" v="bruk" />
	</node>
	<node lat="60.90819166547561" lon="9.4549083364696" id="-23136">
		<tag k="name" v="Djupedal" />
		<tag k="natural" v="slope" />
		<tag k="place" v="locality" />
		<tag k="ssr:date" v="2019-12-27" />
		<tag k="ssr:gruppe" v="skråninger" />
		<tag k="ssr:hovedgruppe" v="terreng" />
		<tag k="ssr:stedsnr" v="56011" />
		<tag k="ssr:type" v="li" />
	</node>
	<node lat="60.91698888500617" lon="9.452472229320648" id="-23137">
		<tag k="name" v="Kolsrudåsen" />
		<tag k="natural" v="slope" />
		<tag k="place" v="locality" />
		<tag k="ssr:date" v="2019-12-27" />
		<tag k="ssr:gruppe" v="skråninger" />
		<tag k="ssr:hovedgruppe" v="terreng" />
		<tag k="ssr:stedsnr" v="56044" />
		<tag k="ssr:type" v="bakke" />
	</node>
	<node lat="60.90056388673558" lon="9.437161107969482" id="-23138">
		<tag k="name" v="Nedre Brenn" />
		<tag k="place" v="farm" />
		<tag k="ssr:date" v="2019-12-27" />
		<tag k="ssr:gruppe" v="gardsbebyggelse" />
		<tag k="ssr:hovedgruppe" v="bebyggelse" />
		<tag k="ssr:stedsnr" v="56401" />
		<tag k="ssr:type" v="bruk" />
	</node>
	<node lat="60.96652812175859" lon="9.176117266471858" id="-23139">
		<tag k="fixme" v="consider place=hamlet" />
		<tag k="name" v="Øydgarden" />
		<tag k="place" v="farm" />
		<tag k="ssr:date" v="2019-12-27" />
		<tag k="ssr:gruppe" v="gardsbebyggelse" />
		<tag k="ssr:hovedgruppe" v="bebyggelse" />
		<tag k="ssr:stedsnr" v="56469" />
		<tag k="ssr:type" v="gard" />
	</node>
	<node lat="60.99519852569759" lon="9.213960152333375" id="-23140">
		<tag k="fixme" v="consider place=hamlet" />
		<tag k="name" v="Breiset" />
		<tag k="place" v="farm" />
		<tag k="ssr:date" v="2020-03-02" />
		<tag k="ssr:gruppe" v="gardsbebyggelse" />
		<tag k="ssr:hovedgruppe" v="bebyggelse" />
		<tag k="ssr:stedsnr" v="240036" />
		<tag k="ssr:type" v="gard" />
	</node>
	<node lat="60.97527499856781" lon="9.486222222090486" id="-23141">
		<tag k="name" v="Skjenangselve" />
		<tag k="ssr:date" v="2019-12-27" />
		<tag k="ssr:gruppe" v="rennendeVann" />
		<tag k="ssr:hovedgruppe" v="ferskvann" />
		<tag k="ssr:stedsnr" v="240039" />
		<tag k="ssr:type" v="elv" />
		<tag k="waterway" v="river" />
	</node>
	<node lat="60.91083333119519" lon="9.22652221489611" id="-23142">
		<tag k="historic" v="shieling" />
		<tag k="name" v="Haisnystølen" />
		<tag k="place" v="isolated_dwelling" />
		<tag k="ssr:date" v="2019-12-27" />
		<tag k="ssr:gruppe" v="gardsbebyggelse" />
		<tag k="ssr:hovedgruppe" v="bebyggelse" />
		<tag k="ssr:stedsnr" v="56676" />
		<tag k="ssr:type" v="seterStøl" />
	</node>
	<node lat="60.91292499799106" lon="9.211472230048257" id="-23143">
		<tag k="name" v="Hyllerstøltjernet" />
		<tag k="natural" v="water" />
		<tag k="old_name" v="Hyllerstøltjednet" />
		<tag k="ssr:date" v="2019-12-27" />
		<tag k="ssr:gruppe" v="stilleståendeVann" />
		<tag k="ssr:hovedgruppe" v="ferskvann" />
		<tag k="ssr:stedsnr" v="56685" />
		<tag k="ssr:type" v="tjern" />
	</node>
	<node lat="60.94940277710742" lon="9.352288887973778" id="-23144">
		<tag k="name" v="Bakkejordet" />
		<tag k="natural" v="slope" />
		<tag k="place" v="locality" />
		<tag k="ssr:date" v="2019-12-27" />
		<tag k="ssr:gruppe" v="skråninger" />
		<tag k="ssr:hovedgruppe" v="terreng" />
		<tag k="ssr:stedsnr" v="240080" />
		<tag k="ssr:type" v="li" />
	</node>
	<node lat="60.99554166952135" lon="9.378327779009991" id="-23145">
		<tag k="name" v="Flatesteindalen" />
		<tag k="natural" v="valley" />
		<tag k="place" v="locality" />
		<tag k="ssr:date" v="2019-12-27" />
		<tag k="ssr:gruppe" v="senkninger" />
		<tag k="ssr:hovedgruppe" v="terreng" />
		<tag k="ssr:stedsnr" v="240089" />
		<tag k="ssr:type" v="dal" />
	</node>
	<node lat="61.00597778056932" lon="9.36822499379612" id="-23146">
		<tag k="name" v="Høgebrenna" />
		<tag k="natural" v="wetland" />
		<tag k="ssr:date" v="2019-12-27" />
		<tag k="ssr:gruppe" v="våtmark" />
		<tag k="ssr:hovedgruppe" v="markslag" />
		<tag k="ssr:stedsnr" v="240127" />
		<tag k="ssr:type" v="myr" />
	</node>
	<node lat="60.871019441585325" lon="9.491008336839835" id="-23147">
		<tag k="historic" v="shieling" />
		<tag k="name" v="Jakobsbrøtin" />
		<tag k="place" v="isolated_dwelling" />
		<tag k="ssr:date" v="2019-12-27" />
		<tag k="ssr:gruppe" v="gardsbebyggelse" />
		<tag k="ssr:hovedgruppe" v="bebyggelse" />
		<tag k="ssr:stedsnr" v="240165" />
		<tag k="ssr:type" v="seterStøl" />
	</node>
	<node lat="60.90224167023743" lon="9.372355548525604" id="-23148">
		<tag k="name" v="Lessarplassen" />
		<tag k="place" v="locality" />
		<tag k="ssr:date" v="2019-12-27" />
		<tag k="ssr:gruppe" v="flater" />
		<tag k="ssr:hovedgruppe" v="terreng" />
		<tag k="ssr:stedsnr" v="57688" />
		<tag k="ssr:type" v="slette" />
	</node>
	<node lat="60.87782777339723" lon="9.413183326134654" id="-23149">
		<tag k="name" v="Glennemyre" />
		<tag k="natural" v="wetland" />
		<tag k="ssr:date" v="2019-12-27" />
		<tag k="ssr:gruppe" v="våtmark" />
		<tag k="ssr:hovedgruppe" v="markslag" />
		<tag k="ssr:stedsnr" v="57813" />
		<tag k="ssr:type" v="myr" />
	</node>
	<node lat="61.007788886181515" lon="9.12043056148496" id="-23150">
		<tag k="name" v="Endrehusplassen" />
		<tag k="place" v="locality" />
		<tag k="ssr:date" v="2019-12-27" />
		<tag k="ssr:gruppe" v="flater" />
		<tag k="ssr:hovedgruppe" v="terreng" />
		<tag k="ssr:stedsnr" v="240177" />
		<tag k="ssr:type" v="slette" />
	</node>
	<node lat="60.98894444482232" lon="9.307275008292192" id="-23151">
		<tag k="alt_name" v="Vasetmyre" />
		<tag k="name" v="Vadsetmyre" />
		<tag k="natural" v="wetland" />
		<tag k="ssr:date" v="2019-12-27" />
		<tag k="ssr:gruppe" v="våtmark" />
		<tag k="ssr:hovedgruppe" v="markslag" />
		<tag k="ssr:stedsnr" v="240299" />
		<tag k="ssr:type" v="myr" />
	</node>
	<node lat="60.87973333128723" lon="9.48727223080779" id="-23152">
		<tag k="name" v="Dammen" />
		<tag k="natural" v="water" />
		<tag k="ssr:date" v="2019-12-27" />
		<tag k="ssr:gruppe" v="stilleståendeVann" />
		<tag k="ssr:hovedgruppe" v="ferskvann" />
		<tag k="ssr:stedsnr" v="240837" />
		<tag k="ssr:type" v="pytt" />
		<tag k="water" v="pond" />
	</node>
	<node lat="60.89033333234988" lon="9.476194441977302" id="-23153">
		<tag k="name" v="Såpehaugen" />
		<tag k="place" v="farm" />
		<tag k="ssr:date" v="2019-12-27" />
		<tag k="ssr:gruppe" v="gardsbebyggelse" />
		<tag k="ssr:hovedgruppe" v="bebyggelse" />
		<tag k="ssr:stedsnr" v="58068" />
		<tag k="ssr:type" v="bruk" />
	</node>
	<node lat="61.021180556091835" lon="9.211766665197318" id="-23154">
		<tag k="name" v="Blåberg" />
		<tag k="natural" v="hill" />
		<tag k="place" v="locality" />
		<tag k="ssr:date" v="2019-12-27" />
		<tag k="ssr:gruppe" v="høyder" />
		<tag k="ssr:hovedgruppe" v="terreng" />
		<tag k="ssr:stedsnr" v="58073" />
		<tag k="ssr:type" v="berg" />
	</node>
	<node lat="60.98156388648146" lon="9.147938895822533" id="-23155">
		<tag k="alt_name" v="Hømandbergødde;Hømandbergnøbbe" />
		<tag k="name" v="Homannbergnobbe" />
		<tag k="natural" v="cape" />
		<tag k="ssr:date" v="2019-12-27" />
		<tag k="ssr:gruppe" v="ferskvannskontur" />
		<tag k="ssr:hovedgruppe" v="ferskvann" />
		<tag k="ssr:stedsnr" v="58082" />
		<tag k="ssr:type" v="nes" />
	</node>
	<node lat="60.876336109316995" lon="9.533486104521142" id="-23156">
		<tag k="name" v="Fiskedalen" />
		<tag k="natural" v="slope" />
		<tag k="place" v="locality" />
		<tag k="ssr:date" v="2019-12-27" />
		<tag k="ssr:gruppe" v="skråninger" />
		<tag k="ssr:hovedgruppe" v="terreng" />
		<tag k="ssr:stedsnr" v="58204" />
		<tag k="ssr:type" v="li" />
	</node>
	<node lat="60.87630277597068" lon="9.516322219658202" id="-23157">
		<tag k="name" v="Plassajordet" />
		<tag k="place" v="farm" />
		<tag k="ssr:date" v="2019-12-27" />
		<tag k="ssr:gruppe" v="gardsbebyggelse" />
		<tag k="ssr:hovedgruppe" v="bebyggelse" />
		<tag k="ssr:stedsnr" v="58205" />
		<tag k="ssr:type" v="bruk" />
	</node>
	<node lat="60.97773671160275" lon="9.180836330669457" id="-23158">
		<tag k="alt_name" v="Midtstrønd" />
		<tag k="fixme" v="consider place=hamlet" />
		<tag k="name" v="Midtstrond" />
		<tag k="place" v="farm" />
		<tag k="ssr:date" v="2019-12-27" />
		<tag k="ssr:gruppe" v="gardsbebyggelse" />
		<tag k="ssr:hovedgruppe" v="bebyggelse" />
		<tag k="ssr:stedsnr" v="58211" />
		<tag k="ssr:type" v="gard" />
	</node>
	<node lat="60.998586110283625" lon="9.101852780156971" id="-23159">
		<tag k="alt_name" v="Ulnes skule" />
		<tag k="amenity" v="school" />
		<tag k="name" v="Valdres montessoriskule" />
		<tag k="ssr:date" v="2021-03-02" />
		<tag k="ssr:gruppe" v="institusjoner" />
		<tag k="ssr:hovedgruppe" v="bebyggelse" />
		<tag k="ssr:stedsnr" v="58269" />
		<tag k="ssr:type" v="skole" />
	</node>
	<node lat="60.89588055277056" lon="9.473883325909037" id="-23160">
		<tag k="name" v="Midtre Øydgarden" />
		<tag k="old_name" v="Midre Øydgarden" />
		<tag k="place" v="farm" />
		<tag k="ssr:date" v="2019-12-27" />
		<tag k="ssr:gruppe" v="gardsbebyggelse" />
		<tag k="ssr:hovedgruppe" v="bebyggelse" />
		<tag k="ssr:stedsnr" v="58109" />
		<tag k="ssr:type" v="bruk" />
	</node>
	<node lat="60.99798055165992" lon="9.152027773544017" id="-23161">
		<tag k="historic" v="shieling" />
		<tag k="name" v="Plassastølen" />
		<tag k="place" v="isolated_dwelling" />
		<tag k="ssr:date" v="2019-12-27" />
		<tag k="ssr:gruppe" v="gardsbebyggelse" />
		<tag k="ssr:hovedgruppe" v="bebyggelse" />
		<tag k="ssr:stedsnr" v="58173" />
		<tag k="ssr:type" v="seterStøl" />
	</node>
	<node lat="61.013366668247116" lon="9.136988885923817" id="-23162">
		<tag k="name" v="Skåleslette" />
		<tag k="natural" v="wetland" />
		<tag k="ssr:date" v="2019-12-27" />
		<tag k="ssr:gruppe" v="våtmark" />
		<tag k="ssr:hovedgruppe" v="markslag" />
		<tag k="ssr:stedsnr" v="58181" />
		<tag k="ssr:type" v="myr" />
	</node>
	<node lat="61.00928889165293" lon="9.098280550732714" id="-23163">
		<tag k="name" v="Øyre" />
		<tag k="place" v="isolated_dwelling" />
		<tag k="ssr:date" v="2019-12-27" />
		<tag k="ssr:gruppe" v="bolighus" />
		<tag k="ssr:hovedgruppe" v="bebyggelse" />
		<tag k="ssr:stedsnr" v="58186" />
		<tag k="ssr:type" v="fritidsbolig" />
	</node>
	<node lat="60.9569000043687" lon="9.355547222940622" id="-23164">
		<tag k="highway" v="path" />
		<tag k="name" v="Skålin" />
		<tag k="ssr:date" v="2019-12-27" />
		<tag k="ssr:gruppe" v="veg" />
		<tag k="ssr:hovedgruppe" v="infrastruktur" />
		<tag k="ssr:stedsnr" v="58187" />
		<tag k="ssr:type" v="sti" />
	</node>
	<node lat="60.99049722334737" lon="9.304297224435706" id="-23165">
		<tag k="alt_name" v="Vasethøgde" />
		<tag k="name" v="Vadsethøgde" />
		<tag k="natural" v="hill" />
		<tag k="place" v="locality" />
		<tag k="ssr:date" v="2019-12-27" />
		<tag k="ssr:gruppe" v="høyder" />
		<tag k="ssr:hovedgruppe" v="terreng" />
		<tag k="ssr:stedsnr" v="58307" />
		<tag k="ssr:type" v="høyde" />
	</node>
	<node lat="61.0211611066702" lon="9.2182611197771" id="-23166">
		<tag k="name" v="Flaten" />
		<tag k="place" v="farm" />
		<tag k="ssr:date" v="2019-12-27" />
		<tag k="ssr:gruppe" v="gardsbebyggelse" />
		<tag k="ssr:hovedgruppe" v="bebyggelse" />
		<tag k="ssr:stedsnr" v="240395" />
		<tag k="ssr:type" v="bruk" />
	</node>
	<node lat="60.932852776790874" lon="9.281772228899744" id="-23167">
		<tag k="historic" v="shieling" />
		<tag k="name" v="Veslestølen" />
		<tag k="place" v="locality" />
		<tag k="ssr:date" v="2019-12-27" />
		<tag k="ssr:gruppe" v="dyrkamark" />
		<tag k="ssr:hovedgruppe" v="markslag" />
		<tag k="ssr:stedsnr" v="58410" />
		<tag k="ssr:type" v="setervoll" />
	</node>
	<node lat="60.937216663238175" lon="9.350566672476349" id="-23168">
		<tag k="name" v="Djupøye" />
		<tag k="place" v="islet" />
		<tag k="ssr:date" v="2019-12-27" />
		<tag k="ssr:gruppe" v="ferskvannskontur" />
		<tag k="ssr:hovedgruppe" v="ferskvann" />
		<tag k="ssr:stedsnr" v="58605" />
		<tag k="ssr:type" v="holme" />
	</node>
	<node lat="60.92328055428342" lon="9.294341671367118" id="-23169">
		<tag k="name" v="Reistebakkin" />
		<tag k="place" v="farm" />
		<tag k="ssr:date" v="2019-12-27" />
		<tag k="ssr:gruppe" v="gardsbebyggelse" />
		<tag k="ssr:hovedgruppe" v="bebyggelse" />
		<tag k="ssr:stedsnr" v="58610" />
		<tag k="ssr:type" v="bruk" />
	</node>
	<node lat="60.96913888772571" lon="9.110161105028922" id="-23170">
		<tag k="name" v="Køpleslette" />
		<tag k="place" v="locality" />
		<tag k="ssr:date" v="2019-12-27" />
		<tag k="ssr:gruppe" v="flater" />
		<tag k="ssr:hovedgruppe" v="terreng" />
		<tag k="ssr:stedsnr" v="58636" />
		<tag k="ssr:type" v="slette" />
	</node>
	<node lat="60.998024997397785" lon="9.229141659401545" id="-23171">
		<tag k="name" v="Myraberget" />
		<tag k="natural" v="hill" />
		<tag k="place" v="locality" />
		<tag k="ssr:date" v="2019-12-27" />
		<tag k="ssr:gruppe" v="høyder" />
		<tag k="ssr:hovedgruppe" v="terreng" />
		<tag k="ssr:stedsnr" v="58639" />
		<tag k="ssr:type" v="høyde" />
	</node>
	<node lat="60.99305555904615" lon="9.256019445620762" id="-23172">
		<tag k="name" v="Olsdeilde" />
		<tag k="place" v="locality" />
		<tag k="ssr:date" v="2019-12-27" />
		<tag k="ssr:gruppe" v="flater" />
		<tag k="ssr:hovedgruppe" v="terreng" />
		<tag k="ssr:stedsnr" v="58641" />
		<tag k="ssr:type" v="slette" />
	</node>
	<node lat="60.9544419185072" lon="9.304360926607142" id="-23173">
		<tag k="name" v="Turre Syndet" />
		<tag k="natural" v="strait" />
		<tag k="ssr:date" v="2019-12-27" />
		<tag k="ssr:gruppe" v="ferskvannskontur" />
		<tag k="ssr:hovedgruppe" v="ferskvann" />
		<tag k="ssr:stedsnr" v="58373" />
		<tag k="ssr:type" v="sund" />
	</node>
	<node lat="60.938750003349554" lon="9.314469441818577" id="-23174">
		<tag k="name" v="Myratn" />
		<tag k="natural" v="wetland" />
		<tag k="ssr:date" v="2019-12-27" />
		<tag k="ssr:gruppe" v="våtmark" />
		<tag k="ssr:hovedgruppe" v="markslag" />
		<tag k="ssr:stedsnr" v="58382" />
		<tag k="ssr:type" v="myr" />
	</node>
	<node lat="61.01705000021741" lon="9.244205552350824" id="-23175">
		<tag k="name" v="Søre Vøllen" />
		<tag k="place" v="farm" />
		<tag k="ssr:date" v="2019-12-27" />
		<tag k="ssr:gruppe" v="gardsbebyggelse" />
		<tag k="ssr:hovedgruppe" v="bebyggelse" />
		<tag k="ssr:stedsnr" v="58388" />
		<tag k="ssr:type" v="bruk" />
	</node>
	<node lat="60.8906722195901" lon="9.246280556631815" id="-23176">
		<tag k="name" v="Brenderotbekken" />
		<tag k="ssr:date" v="2019-12-27" />
		<tag k="ssr:gruppe" v="rennendeVann" />
		<tag k="ssr:hovedgruppe" v="ferskvann" />
		<tag k="ssr:stedsnr" v="58501" />
		<tag k="ssr:type" v="bekk" />
		<tag k="waterway" v="stream" />
	</node>
	<node lat="60.98479444846508" lon="9.39422221381308" id="-23177">
		<tag k="name" v="Størrtjernmyrane" />
		<tag k="natural" v="wetland" />
		<tag k="old_name" v="Størrtjednmyratn" />
		<tag k="ssr:date" v="2019-12-27" />
		<tag k="ssr:gruppe" v="våtmark" />
		<tag k="ssr:hovedgruppe" v="markslag" />
		<tag k="ssr:stedsnr" v="58586" />
		<tag k="ssr:type" v="myr" />
	</node>
	<node lat="60.918955559468266" lon="9.314069438174045" id="-23178">
		<tag k="name" v="Brennaplassen" />
		<tag k="place" v="farm" />
		<tag k="ssr:date" v="2019-12-27" />
		<tag k="ssr:gruppe" v="gardsbebyggelse" />
		<tag k="ssr:hovedgruppe" v="bebyggelse" />
		<tag k="ssr:stedsnr" v="58590" />
		<tag k="ssr:type" v="bruk" />
	</node>
	<node lat="61.04487499637897" lon="9.232330553705488" id="-23179">
		<tag k="historic" v="shieling" />
		<tag k="name" v="Krøllsbekkstølen" />
		<tag k="place" v="isolated_dwelling" />
		<tag k="ssr:date" v="2019-12-27" />
		<tag k="ssr:gruppe" v="gardsbebyggelse" />
		<tag k="ssr:hovedgruppe" v="bebyggelse" />
		<tag k="ssr:stedsnr" v="240343" />
		<tag k="ssr:type" v="seterStøl" />
	</node>
	<node lat="60.966790764336366" lon="9.275061932652076" id="-23180">
		<tag k="name" v="Oddetoppen" />
		<tag k="natural" v="hill" />
		<tag k="place" v="locality" />
		<tag k="ssr:date" v="2020-03-31" />
		<tag k="ssr:gruppe" v="høyder" />
		<tag k="ssr:hovedgruppe" v="terreng" />
		<tag k="ssr:stedsnr" v="240357" />
		<tag k="ssr:type" v="haug" />
	</node>
	<node lat="60.986686110968684" lon="9.336158328678833" id="-23181">
		<tag k="name" v="Plassaskålin" />
		<tag k="natural" v="ridge" />
		<tag k="place" v="locality" />
		<tag k="ssr:date" v="2019-12-27" />
		<tag k="ssr:gruppe" v="høyder" />
		<tag k="ssr:hovedgruppe" v="terreng" />
		<tag k="ssr:stedsnr" v="58779" />
		<tag k="ssr:type" v="rygg" />
	</node>
	<node lat="60.9559666692088" lon="9.429483336558583" id="-23182">
		<tag k="name" v="Kjelmyre" />
		<tag k="natural" v="wetland" />
		<tag k="ssr:date" v="2019-12-27" />
		<tag k="ssr:gruppe" v="våtmark" />
		<tag k="ssr:hovedgruppe" v="markslag" />
		<tag k="ssr:stedsnr" v="58790" />
		<tag k="ssr:type" v="myr" />
	</node>
	<node lat="60.85199166518747" lon="9.323297224941783" id="-23183">
		<tag k="name" v="Einebuhøgde" />
		<tag k="natural" v="hill" />
		<tag k="place" v="locality" />
		<tag k="ssr:date" v="2019-12-27" />
		<tag k="ssr:gruppe" v="høyder" />
		<tag k="ssr:hovedgruppe" v="terreng" />
		<tag k="ssr:stedsnr" v="58980" />
		<tag k="ssr:type" v="høyde" />
	</node>
	<node lat="60.84782222474853" lon="9.30520278373158" id="-23184">
		<tag k="name" v="Husaskålin" />
		<tag k="place" v="locality" />
		<tag k="ssr:date" v="2019-12-27" />
		<tag k="ssr:gruppe" v="flater" />
		<tag k="ssr:hovedgruppe" v="terreng" />
		<tag k="ssr:stedsnr" v="58981" />
		<tag k="ssr:type" v="slette" />
	</node>
	<node lat="60.973033335482775" lon="9.02482777218779" id="-23185">
		<tag k="name" v="Beinstigmyre" />
		<tag k="natural" v="wetland" />
		<tag k="ssr:date" v="2019-12-27" />
		<tag k="ssr:gruppe" v="våtmark" />
		<tag k="ssr:hovedgruppe" v="markslag" />
		<tag k="ssr:stedsnr" v="240362" />
		<tag k="ssr:type" v="myr" />
	</node>
	<node lat="61.01677777708119" lon="9.325933342175862" id="-23186">
		<tag k="name" v="Sørhellbekken" />
		<tag k="ssr:date" v="2019-12-27" />
		<tag k="ssr:gruppe" v="rennendeVann" />
		<tag k="ssr:hovedgruppe" v="ferskvann" />
		<tag k="ssr:stedsnr" v="240367" />
		<tag k="ssr:type" v="bekk" />
		<tag k="waterway" v="stream" />
	</node>
	<node lat="60.93034444669187" lon="9.299222223434741" id="-23187">
		<tag k="name" v="Nedre Haugen" />
		<tag k="place" v="farm" />
		<tag k="ssr:date" v="2019-12-27" />
		<tag k="ssr:gruppe" v="gardsbebyggelse" />
		<tag k="ssr:hovedgruppe" v="bebyggelse" />
		<tag k="ssr:stedsnr" v="240370" />
		<tag k="ssr:type" v="bruk" />
	</node>
	<node lat="60.95206666230126" lon="9.306274998628373" id="-23188">
		<tag k="name" v="Geiteryggen" />
		<tag k="place" v="islet" />
		<tag k="ssr:date" v="2019-12-27" />
		<tag k="ssr:gruppe" v="ferskvannskontur" />
		<tag k="ssr:hovedgruppe" v="ferskvann" />
		<tag k="ssr:stedsnr" v="240373" />
		<tag k="ssr:type" v="holme" />
	</node>
	<node lat="60.92923055950389" lon="9.307697227213593" id="-23189">
		<tag k="name" v="Brøtatn" />
		<tag k="place" v="farm" />
		<tag k="ssr:date" v="2019-12-27" />
		<tag k="ssr:gruppe" v="gardsbebyggelse" />
		<tag k="ssr:hovedgruppe" v="bebyggelse" />
		<tag k="ssr:stedsnr" v="240374" />
		<tag k="ssr:type" v="bruk" />
	</node>
	<node lat="60.97794166659109" lon="9.289838882417609" id="-23190">
		<tag k="name" v="Skalabakkatn" />
		<tag k="natural" v="hill" />
		<tag k="place" v="locality" />
		<tag k="ssr:date" v="2019-12-27" />
		<tag k="ssr:gruppe" v="høyder" />
		<tag k="ssr:hovedgruppe" v="terreng" />
		<tag k="ssr:stedsnr" v="240422" />
		<tag k="ssr:type" v="haug" />
	</node>
	<node lat="60.97652222278913" lon="9.290325006303306" id="-23191">
		<tag k="name" v="Leren" />
		<tag k="place" v="farm" />
		<tag k="ssr:date" v="2019-12-27" />
		<tag k="ssr:gruppe" v="gardsbebyggelse" />
		<tag k="ssr:hovedgruppe" v="bebyggelse" />
		<tag k="ssr:stedsnr" v="240424" />
		<tag k="ssr:type" v="bruk" />
	</node>
	<node lat="61.00049444818416" lon="9.301155558352269" id="-23192">
		<tag k="historic" v="shieling" />
		<tag k="name" v="Øvre Sage" />
		<tag k="place" v="isolated_dwelling" />
		<tag k="ssr:date" v="2019-12-27" />
		<tag k="ssr:gruppe" v="gardsbebyggelse" />
		<tag k="ssr:hovedgruppe" v="bebyggelse" />
		<tag k="ssr:stedsnr" v="240534" />
		<tag k="ssr:type" v="seterStøl" />
	</node>
	<node lat="60.90328055777802" lon="9.243980560943124" id="-23193">
		<tag k="name" v="Øvrestølfetidn" />
		<tag k="natural" v="water" />
		<tag k="old_name" v="Øvrestølfetiden" />
		<tag k="ssr:date" v="2019-12-27" />
		<tag k="ssr:gruppe" v="stilleståendeVann" />
		<tag k="ssr:hovedgruppe" v="ferskvann" />
		<tag k="ssr:stedsnr" v="240536" />
		<tag k="ssr:type" v="tjern" />
	</node>
	<node lat="60.89282222292732" lon="9.227630546795579" id="-23194">
		<tag k="name" v="Varpamyre" />
		<tag k="natural" v="wetland" />
		<tag k="ssr:date" v="2019-12-27" />
		<tag k="ssr:gruppe" v="våtmark" />
		<tag k="ssr:hovedgruppe" v="markslag" />
		<tag k="ssr:stedsnr" v="240538" />
		<tag k="ssr:type" v="myr" />
	</node>
	<node lat="60.9858944463383" lon="9.263352776663025" id="-23195">
		<tag k="name" v="Lynghold" />
		<tag k="place" v="farm" />
		<tag k="ssr:date" v="2019-12-27" />
		<tag k="ssr:gruppe" v="gardsbebyggelse" />
		<tag k="ssr:hovedgruppe" v="bebyggelse" />
		<tag k="ssr:stedsnr" v="240455" />
		<tag k="ssr:type" v="bruk" />
	</node>
	<node lat="60.96455277716843" lon="9.269327776393274" id="-23196">
		<tag k="name" v="Førsøygarden" />
		<tag k="place" v="farm" />
		<tag k="ssr:date" v="2019-12-27" />
		<tag k="ssr:gruppe" v="gardsbebyggelse" />
		<tag k="ssr:hovedgruppe" v="bebyggelse" />
		<tag k="ssr:stedsnr" v="240468" />
		<tag k="ssr:type" v="bruk" />
	</node>
	<node lat="60.988494446320786" lon="9.252413884448082" id="-23197">
		<tag k="name" v="Brettingsberget" />
		<tag k="natural" v="hill" />
		<tag k="place" v="locality" />
		<tag k="ssr:date" v="2019-12-27" />
		<tag k="ssr:gruppe" v="høyder" />
		<tag k="ssr:hovedgruppe" v="terreng" />
		<tag k="ssr:stedsnr" v="240523" />
		<tag k="ssr:type" v="berg" />
	</node>
	<node lat="61.000113887096994" lon="9.325800004904481" id="-23198">
		<tag k="name" v="Raukøllhalle" />
		<tag k="natural" v="water" />
		<tag k="ssr:date" v="2019-12-27" />
		<tag k="ssr:gruppe" v="stilleståendeVann" />
		<tag k="ssr:hovedgruppe" v="ferskvann" />
		<tag k="ssr:stedsnr" v="240526" />
		<tag k="ssr:type" v="pytt" />
		<tag k="water" v="pond" />
	</node>
	<node lat="60.961738889998436" lon="9.124966669389492" id="-23199">
		<tag k="name" v="Lunninge" />
		<tag k="place" v="locality" />
		<tag k="ssr:date" v="2019-12-27" />
		<tag k="ssr:gruppe" v="terrengdetaljer" />
		<tag k="ssr:hovedgruppe" v="terreng" />
		<tag k="ssr:stedsnr" v="240627" />
		<tag k="ssr:type" v="annenTerrengdetalj" />
	</node>
	<node lat="60.96696944812864" lon="9.126722222144876" id="-23200">
		<tag k="name" v="Hufset" />
		<tag k="place" v="locality" />
		<tag k="ssr:date" v="2019-12-27" />
		<tag k="ssr:gruppe" v="terrengdetaljer" />
		<tag k="ssr:hovedgruppe" v="terreng" />
		<tag k="ssr:stedsnr" v="240635" />
		<tag k="ssr:type" v="annenTerrengdetalj" />
	</node>
	<node lat="60.92043333536413" lon="9.322847214284522" id="-23201">
		<tag k="name" v="Nedre Bakkatn" />
		<tag k="place" v="farm" />
		<tag k="ssr:date" v="2019-12-27" />
		<tag k="ssr:gruppe" v="gardsbebyggelse" />
		<tag k="ssr:hovedgruppe" v="bebyggelse" />
		<tag k="ssr:stedsnr" v="240725" />
		<tag k="ssr:type" v="bruk" />
	</node>
	<node lat="60.79449166823209" lon="9.244383328706123" id="-23203">
		<tag k="name" v="Vestreimnaustet" />
		<tag k="place" v="locality" />
		<tag k="ssr:date" v="2019-12-27" />
		<tag k="ssr:gruppe" v="gardsbebyggelse" />
		<tag k="ssr:hovedgruppe" v="bebyggelse" />
		<tag k="ssr:stedsnr" v="240739" />
		<tag k="ssr:type" v="byggForJordbrukFiskeOgFangst" />
	</node>
	<node lat="60.98356666281308" lon="9.35813611268169" id="-23204">
		<tag k="name" v="Tangatn" />
		<tag k="place" v="locality" />
		<tag k="ssr:date" v="2019-12-27" />
		<tag k="ssr:gruppe" v="flater" />
		<tag k="ssr:hovedgruppe" v="terreng" />
		<tag k="ssr:stedsnr" v="240763" />
		<tag k="ssr:type" v="slette" />
	</node>
	<node lat="60.96860833748058" lon="9.47237778434765" id="-23205">
		<tag k="name" v="Skjenangselve" />
		<tag k="ssr:date" v="2019-12-27" />
		<tag k="ssr:gruppe" v="rennendeVann" />
		<tag k="ssr:hovedgruppe" v="ferskvann" />
		<tag k="ssr:stedsnr" v="240547" />
		<tag k="ssr:type" v="elv" />
		<tag k="waterway" v="river" />
	</node>
	<node lat="60.96026388618986" lon="9.436538897419705" id="-23206">
		<tag k="name" v="Engihytta" />
		<tag k="place" v="locality" />
		<tag k="ssr:date" v="2019-12-27" />
		<tag k="ssr:gruppe" v="gardsbebyggelse" />
		<tag k="ssr:hovedgruppe" v="bebyggelse" />
		<tag k="ssr:stedsnr" v="240815" />
		<tag k="ssr:type" v="byggForJordbrukFiskeOgFangst" />
	</node>
	<node lat="60.96883055939115" lon="9.435511104268057" id="-23207">
		<tag k="historic" v="shieling" />
		<tag k="name" v="Søre Engatn" />
		<tag k="place" v="isolated_dwelling" />
		<tag k="ssr:date" v="2019-12-27" />
		<tag k="ssr:gruppe" v="gardsbebyggelse" />
		<tag k="ssr:hovedgruppe" v="bebyggelse" />
		<tag k="ssr:stedsnr" v="240865" />
		<tag k="ssr:type" v="seterStøl" />
	</node>
	<node lat="60.82594721972532" lon="9.220958340447918" id="-23208">
		<tag k="historic" v="shieling" />
		<tag k="name" v="Kvannefosstrøe" />
		<tag k="place" v="isolated_dwelling" />
		<tag k="ssr:date" v="2019-12-27" />
		<tag k="ssr:gruppe" v="gardsbebyggelse" />
		<tag k="ssr:hovedgruppe" v="bebyggelse" />
		<tag k="ssr:stedsnr" v="240962" />
		<tag k="ssr:type" v="seterStøl" />
	</node>
	<node lat="61.013532790965314" lon="9.3851829696369" id="-23209">
		<tag k="alt_name" v="Smørlii, nordre" />
		<tag k="historic" v="shieling" />
		<tag k="name" v="Nørdre Smørlie" />
		<tag k="place" v="isolated_dwelling" />
		<tag k="ssr:date" v="2019-12-27" />
		<tag k="ssr:gruppe" v="gardsbebyggelse" />
		<tag k="ssr:hovedgruppe" v="bebyggelse" />
		<tag k="ssr:stedsnr" v="68547" />
		<tag k="ssr:type" v="seterStøl" />
	</node>
	<node lat="61.11947734021155" lon="9.567815503030639" id="-23210">
		<tag k="name" v="Røssjøen" />
		<tag k="natural" v="water" />
		<tag k="ssr:date" v="2020-03-31" />
		<tag k="ssr:gruppe" v="stilleståendeVann" />
		<tag k="ssr:hovedgruppe" v="ferskvann" />
		<tag k="ssr:stedsnr" v="68907" />
		<tag k="ssr:type" v="vann" />
		<tag k="water" v="lake" />
	</node>
	<node lat="61.145424999302506" lon="9.526519447538872" id="-23211">
		<tag k="alt_name" v="Svarthammar" />
		<tag k="fixme" v="multiple name tags, choose one and add the other to alt_name; consider natural=peak for the most distinct mountains in the district" />
		<tag k="loc_name" v="Svarthamaren" />
		<tag k="name" v="Svarthamarknatten;Svarthamar" />
		<tag k="natural" v="hill" />
		<tag k="place" v="locality" />
		<tag k="ssr:date" v="2019-12-27" />
		<tag k="ssr:gruppe" v="høyder" />
		<tag k="ssr:hovedgruppe" v="terreng" />
		<tag k="ssr:stedsnr" v="68920" />
		<tag k="ssr:type" v="fjell" />
	</node>
	<node lat="61.125533328962646" lon="9.422499991679835" id="-23212">
		<tag k="name" v="Synhaug" />
		<tag k="natural" v="hill" />
		<tag k="place" v="locality" />
		<tag k="ssr:date" v="2019-12-27" />
		<tag k="ssr:gruppe" v="høyder" />
		<tag k="ssr:hovedgruppe" v="terreng" />
		<tag k="ssr:stedsnr" v="68924" />
		<tag k="ssr:type" v="haug" />
	</node>
	<node lat="61.14951666396726" lon="9.475502784759177" id="-23213">
		<tag k="alt_name" v="Hovda, store;Store Høvda" />
		<tag k="fixme" v="consider natural=peak for the most distinct mountains in the district" />
		<tag k="name" v="Store Hovda" />
		<tag k="natural" v="hill" />
		<tag k="place" v="locality" />
		<tag k="ssr:date" v="2019-12-27" />
		<tag k="ssr:gruppe" v="høyder" />
		<tag k="ssr:hovedgruppe" v="terreng" />
		<tag k="ssr:stedsnr" v="68943" />
		<tag k="ssr:type" v="ås" />
	</node>
	<node lat="61.06267777416003" lon="9.398155549341686" id="-23214">
		<tag k="name" v="Dalbu" />
		<tag k="place" v="farm" />
		<tag k="ssr:date" v="2019-12-27" />
		<tag k="ssr:gruppe" v="gardsbebyggelse" />
		<tag k="ssr:hovedgruppe" v="bebyggelse" />
		<tag k="ssr:stedsnr" v="68883" />
		<tag k="ssr:type" v="bruk" />
	</node>
	<node lat="61.090833335790386" lon="9.446699991218477" id="-23215">
		<tag k="alt_name" v="Valegrovelve" />
		<tag k="name" v="Veslegrovi" />
		<tag k="ssr:date" v="2019-12-27" />
		<tag k="ssr:gruppe" v="rennendeVann" />
		<tag k="ssr:hovedgruppe" v="ferskvann" />
		<tag k="ssr:stedsnr" v="68891" />
		<tag k="ssr:type" v="bekk" />
		<tag k="waterway" v="stream" />
	</node>
	<node lat="60.96792222112497" lon="9.104024997407834" id="-23216">
		<tag k="historic" v="shieling" />
		<tag k="name" v="Bakkestølen" />
		<tag k="place" v="isolated_dwelling" />
		<tag k="ssr:date" v="2019-12-27" />
		<tag k="ssr:gruppe" v="gardsbebyggelse" />
		<tag k="ssr:hovedgruppe" v="bebyggelse" />
		<tag k="ssr:stedsnr" v="69097" />
		<tag k="ssr:type" v="seterStøl" />
	</node>
	<node lat="61.00119722433944" lon="9.345261113252677" id="-23217">
		<tag k="alt_name" v="Robølstølen" />
		<tag k="name" v="Garli-Robølen" />
		<tag k="place" v="locality" />
		<tag k="ssr:date" v="2019-12-27" />
		<tag k="ssr:gruppe" v="gardsbebyggelse" />
		<tag k="ssr:hovedgruppe" v="bebyggelse" />
		<tag k="ssr:stedsnr" v="69606" />
		<tag k="ssr:type" v="byggForJordbrukFiskeOgFangst" />
	</node>
	<node lat="61.00623055341627" lon="9.260392711587407" id="-23218">
		<tag k="name" v="Koltjern" />
		<tag k="natural" v="water" />
		<tag k="old_name" v="Køltjednet" />
		<tag k="ssr:date" v="2019-12-27" />
		<tag k="ssr:gruppe" v="stilleståendeVann" />
		<tag k="ssr:hovedgruppe" v="ferskvann" />
		<tag k="ssr:stedsnr" v="69611" />
		<tag k="ssr:type" v="tjern" />
	</node>
	<node lat="60.880000002959726" lon="9.483316670532687" id="-23219">
		<tag k="alt_name" v="Hølabrøtin" />
		<tag k="name" v="Holabråten" />
		<tag k="place" v="locality" />
		<tag k="ssr:date" v="2019-12-27" />
		<tag k="ssr:gruppe" v="bolighus" />
		<tag k="ssr:hovedgruppe" v="bebyggelse" />
		<tag k="ssr:stedsnr" v="69733" />
		<tag k="ssr:type" v="gammelBosettingsplass" />
	</node>
	<node lat="60.85431667117332" lon="9.3310694447133" id="-23220">
		<tag k="alt_name" v="Lortetjernet" />
		<tag k="name" v="Lortputten" />
		<tag k="natural" v="water" />
		<tag k="old_name" v="Lortetjednet" />
		<tag k="ssr:date" v="2019-12-27" />
		<tag k="ssr:gruppe" v="stilleståendeVann" />
		<tag k="ssr:hovedgruppe" v="ferskvann" />
		<tag k="ssr:stedsnr" v="69682" />
		<tag k="ssr:type" v="tjern" />
	</node>
	<node lat="60.84604999743775" lon="9.315800000993615" id="-23221">
		<tag k="name" v="Stormyri" />
		<tag k="natural" v="wetland" />
		<tag k="ssr:date" v="2019-12-27" />
		<tag k="ssr:gruppe" v="våtmark" />
		<tag k="ssr:hovedgruppe" v="markslag" />
		<tag k="ssr:stedsnr" v="69683" />
		<tag k="ssr:type" v="myr" />
	</node>
	<node lat="60.852788893342165" lon="9.382583342053074" id="-23222">
		<tag k="alt_name" v="Grønkinndalen" />
		<tag k="name" v="Grønekinndalen" />
		<tag k="natural" v="valley" />
		<tag k="place" v="locality" />
		<tag k="ssr:date" v="2019-12-27" />
		<tag k="ssr:gruppe" v="senkninger" />
		<tag k="ssr:hovedgruppe" v="terreng" />
		<tag k="ssr:stedsnr" v="69685" />
		<tag k="ssr:type" v="dal" />
	</node>
	<node lat="60.95352777741376" lon="9.09363889627116" id="-23223">
		<tag k="alt_name" v="Jehansslette" />
		<tag k="name" v="Jehanssletti" />
		<tag k="place" v="locality" />
		<tag k="ssr:date" v="2019-12-27" />
		<tag k="ssr:gruppe" v="dyrkamark" />
		<tag k="ssr:hovedgruppe" v="markslag" />
		<tag k="ssr:stedsnr" v="70104" />
		<tag k="ssr:type" v="utmark" />
	</node>
	<node lat="60.97744722142605" lon="9.414450004906652" id="-23224">
		<tag k="name" v="Kinn" />
		<tag k="place" v="locality" />
		<tag k="ssr:date" v="2019-12-27" />
		<tag k="ssr:gruppe" v="gardsbebyggelse" />
		<tag k="ssr:hovedgruppe" v="bebyggelse" />
		<tag k="ssr:stedsnr" v="70326" />
		<tag k="ssr:type" v="eiendom" />
	</node>
	<node lat="60.97402222143698" lon="9.362369452178044" id="-23225">
		<tag k="alt_name" v="Steikjiset" />
		<tag k="name" v="Steikeset" />
		<tag k="place" v="isolated_dwelling" />
		<tag k="ssr:date" v="2019-12-27" />
		<tag k="ssr:gruppe" v="bolighus" />
		<tag k="ssr:hovedgruppe" v="bebyggelse" />
		<tag k="ssr:stedsnr" v="70329" />
		<tag k="ssr:type" v="fritidsbolig" />
	</node>
	<node lat="60.97191666250868" lon="9.1736611159012" id="-23226">
		<tag k="alt_name" v="Strøndafjorden;Strandefjorden" />
		<tag k="name" v="Strondafjorden" />
		<tag k="natural" v="water" />
		<tag k="old_name" v="Stondafjorden" />
		<tag k="ssr:date" v="2019-12-27" />
		<tag k="ssr:gruppe" v="stilleståendeVann" />
		<tag k="ssr:hovedgruppe" v="ferskvann" />
		<tag k="ssr:stedsnr" v="70076" />
		<tag k="ssr:type" v="innsjø" />
		<tag k="water" v="lake" />
	</node>
	<node lat="60.98204363333417" lon="9.106375897860323" id="-23227">
		<tag k="fixme" v="consider place=hamlet" />
		<tag k="name" v="Rye" />
		<tag k="place" v="farm" />
		<tag k="ssr:date" v="2019-12-27" />
		<tag k="ssr:gruppe" v="gardsbebyggelse" />
		<tag k="ssr:hovedgruppe" v="bebyggelse" />
		<tag k="ssr:stedsnr" v="70079" />
		<tag k="ssr:type" v="gard" />
	</node>
	<node lat="60.97638057192973" lon="9.189192507841215" id="-23228">
		<tag k="alt_name" v="Synnstrønd" />
		<tag k="fixme" v="consider place=hamlet" />
		<tag k="name" v="Synnstrond" />
		<tag k="place" v="farm" />
		<tag k="ssr:date" v="2019-12-27" />
		<tag k="ssr:gruppe" v="gardsbebyggelse" />
		<tag k="ssr:hovedgruppe" v="bebyggelse" />
		<tag k="ssr:stedsnr" v="70094" />
		<tag k="ssr:type" v="gard" />
	</node>
	<node lat="60.94836944717862" lon="8.968838879857655" id="-23229">
		<tag k="name" v="Simlebekken" />
		<tag k="ssr:date" v="2019-12-27" />
		<tag k="ssr:gruppe" v="rennendeVann" />
		<tag k="ssr:hovedgruppe" v="ferskvann" />
		<tag k="ssr:stedsnr" v="70098" />
		<tag k="ssr:type" v="bekk" />
		<tag k="waterway" v="stream" />
	</node>
	<node lat="60.83634166344703" lon="9.171933329740048" id="-23230">
		<tag k="alt_name" v="Hervassbekken" />
		<tag k="name" v="Hærvassbekken" />
		<tag k="ssr:date" v="2019-12-27" />
		<tag k="ssr:gruppe" v="rennendeVann" />
		<tag k="ssr:hovedgruppe" v="ferskvann" />
		<tag k="ssr:stedsnr" v="70428" />
		<tag k="ssr:type" v="bekk" />
		<tag k="waterway" v="stream" />
	</node>
	<node lat="60.91307222383978" lon="9.315230551860546" id="-23231">
		<tag k="name" v="Åsli" />
		<tag k="place" v="farm" />
		<tag k="ssr:date" v="2019-12-27" />
		<tag k="ssr:gruppe" v="gardsbebyggelse" />
		<tag k="ssr:hovedgruppe" v="bebyggelse" />
		<tag k="ssr:stedsnr" v="70475" />
		<tag k="ssr:type" v="bruk" />
	</node>
	<node lat="60.91992500097089" lon="9.463038888692276" id="-23232">
		<tag k="name" v="Damtjernet" />
		<tag k="natural" v="water" />
		<tag k="old_name" v="Damtjednet" />
		<tag k="ssr:date" v="2019-12-27" />
		<tag k="ssr:gruppe" v="stilleståendeVann" />
		<tag k="ssr:hovedgruppe" v="ferskvann" />
		<tag k="ssr:stedsnr" v="70487" />
		<tag k="ssr:type" v="tjern" />
	</node>
	<node lat="60.92223611410908" lon="9.506177773153581" id="-23233">
		<tag k="name" v="Langevatnet" />
		<tag k="natural" v="water" />
		<tag k="ssr:date" v="2019-12-27" />
		<tag k="ssr:gruppe" v="stilleståendeVann" />
		<tag k="ssr:hovedgruppe" v="ferskvann" />
		<tag k="ssr:stedsnr" v="70489" />
		<tag k="ssr:type" v="tjern" />
	</node>
	<node lat="60.93331990680723" lon="9.123119234493968" id="-23234">
		<tag k="alt_name" v="Breidsetstølan" />
		<tag k="historic" v="shieling" />
		<tag k="loc_name" v="Breisetstølan" />
		<tag k="name" v="Breiset" />
		<tag k="place" v="isolated_dwelling" />
		<tag k="ssr:date" v="2020-03-02" />
		<tag k="ssr:gruppe" v="gardsbebyggelse" />
		<tag k="ssr:hovedgruppe" v="bebyggelse" />
		<tag k="ssr:stedsnr" v="70377" />
		<tag k="ssr:type" v="seterStøl" />
	</node>
	<node lat="60.87576389199662" lon="9.029744437788365" id="-23235">
		<tag k="name" v="Hurrabekken" />
		<tag k="ssr:date" v="2019-12-27" />
		<tag k="ssr:gruppe" v="rennendeVann" />
		<tag k="ssr:hovedgruppe" v="ferskvann" />
		<tag k="ssr:stedsnr" v="70380" />
		<tag k="ssr:type" v="bekk" />
		<tag k="waterway" v="stream" />
	</node>
	<node lat="60.93075277680245" lon="9.438755563986593" id="-23236">
		<tag k="name" v="Åsrud" />
		<tag k="place" v="isolated_dwelling" />
		<tag k="ssr:date" v="2019-12-27" />
		<tag k="ssr:gruppe" v="bolighus" />
		<tag k="ssr:hovedgruppe" v="bebyggelse" />
		<tag k="ssr:stedsnr" v="70515" />
		<tag k="ssr:type" v="fritidsbolig" />
	</node>
	<node lat="60.93468333671076" lon="9.45875555884526" id="-23237">
		<tag k="historic" v="shieling" />
		<tag k="name" v="Storstølen" />
		<tag k="place" v="isolated_dwelling" />
		<tag k="ssr:date" v="2019-12-27" />
		<tag k="ssr:gruppe" v="gardsbebyggelse" />
		<tag k="ssr:hovedgruppe" v="bebyggelse" />
		<tag k="ssr:stedsnr" v="70526" />
		<tag k="ssr:type" v="seterStøl" />
	</node>
	<node lat="60.886925003561" lon="9.380133336477549" id="-23238">
		<tag k="name" v="Brennatjernet" />
		<tag k="natural" v="water" />
		<tag k="old_name" v="Brennatjednet" />
		<tag k="ssr:date" v="2019-12-27" />
		<tag k="ssr:gruppe" v="stilleståendeVann" />
		<tag k="ssr:hovedgruppe" v="ferskvann" />
		<tag k="ssr:stedsnr" v="70711" />
		<tag k="ssr:type" v="tjern" />
	</node>
	<node lat="60.94697222025089" lon="9.389822230487725" id="-23239">
		<tag k="alt_name" v="Gl Hjelleheimåsen" />
		<tag k="name" v="Gamle Hjelleheimåsen" />
		<tag k="place" v="isolated_dwelling" />
		<tag k="ssr:date" v="2019-12-27" />
		<tag k="ssr:gruppe" v="bolighus" />
		<tag k="ssr:hovedgruppe" v="bebyggelse" />
		<tag k="ssr:stedsnr" v="70573" />
		<tag k="ssr:type" v="fritidsbolig" />
	</node>
	<node lat="60.89060833071529" lon="9.447786117607407" id="-23240">
		<tag k="name" v="Åskjer" />
		<tag k="place" v="isolated_dwelling" />
		<tag k="ssr:date" v="2019-12-27" />
		<tag k="ssr:gruppe" v="bolighus" />
		<tag k="ssr:hovedgruppe" v="bebyggelse" />
		<tag k="ssr:stedsnr" v="70723" />
		<tag k="ssr:type" v="fritidsbolig" />
	</node>
	<node lat="60.90021111106727" lon="9.52451665779148" id="-23241">
		<tag k="name" v="Holbekkdalen" />
		<tag k="natural" v="valley" />
		<tag k="place" v="locality" />
		<tag k="ssr:date" v="2019-12-27" />
		<tag k="ssr:gruppe" v="senkninger" />
		<tag k="ssr:hovedgruppe" v="terreng" />
		<tag k="ssr:stedsnr" v="70731" />
		<tag k="ssr:type" v="dal" />
	</node>
	<node lat="60.8997916654591" lon="9.467427778405147" id="-23242">
		<tag k="name" v="Nordli" />
		<tag k="place" v="isolated_dwelling" />
		<tag k="ssr:date" v="2019-12-27" />
		<tag k="ssr:gruppe" v="bolighus" />
		<tag k="ssr:hovedgruppe" v="bebyggelse" />
		<tag k="ssr:stedsnr" v="70732" />
		<tag k="ssr:type" v="fritidsbolig" />
	</node>
	<node lat="60.7765333369585" lon="9.256688890964893" id="-23243">
		<tag k="alt_name" v="Meitebekksætri" />
		<tag k="historic" v="shieling" />
		<tag k="name" v="Meitebekken" />
		<tag k="place" v="isolated_dwelling" />
		<tag k="ssr:date" v="2019-12-27" />
		<tag k="ssr:gruppe" v="gardsbebyggelse" />
		<tag k="ssr:hovedgruppe" v="bebyggelse" />
		<tag k="ssr:stedsnr" v="70785" />
		<tag k="ssr:type" v="seterStøl" />
	</node>
	<node lat="61.01121666806425" lon="9.07351944863692" id="-23244">
		<tag k="name" v="Grånvøll" />
		<tag k="place" v="farm" />
		<tag k="ssr:date" v="2019-12-27" />
		<tag k="ssr:gruppe" v="gardsbebyggelse" />
		<tag k="ssr:hovedgruppe" v="bebyggelse" />
		<tag k="ssr:stedsnr" v="100280" />
		<tag k="ssr:type" v="bruk" />
	</node>
	<node lat="61.01366666553341" lon="9.222002783967907" id="-23245">
		<tag k="name" v="Søre Døvre" />
		<tag k="place" v="farm" />
		<tag k="ssr:date" v="2019-12-27" />
		<tag k="ssr:gruppe" v="gardsbebyggelse" />
		<tag k="ssr:hovedgruppe" v="bebyggelse" />
		<tag k="ssr:stedsnr" v="100515" />
		<tag k="ssr:type" v="bruk" />
	</node>
	<node lat="61.00893889153307" lon="9.269074999721859" id="-23246">
		<tag k="name" v="Leirekampen" />
		<tag k="natural" v="hill" />
		<tag k="place" v="locality" />
		<tag k="ssr:date" v="2019-12-27" />
		<tag k="ssr:gruppe" v="høyder" />
		<tag k="ssr:hovedgruppe" v="terreng" />
		<tag k="ssr:stedsnr" v="100475" />
		<tag k="ssr:type" v="berg" />
	</node>
	<node lat="60.98530833367365" lon="9.11001388743579" id="-23247">
		<tag k="name" v="Ryeøyne" />
		<tag k="place" v="islet" />
		<tag k="ssr:date" v="2019-12-27" />
		<tag k="ssr:gruppe" v="ferskvannskontur" />
		<tag k="ssr:hovedgruppe" v="ferskvann" />
		<tag k="ssr:stedsnr" v="100610" />
		<tag k="ssr:type" v="holme" />
	</node>
	<node lat="61.07540555125734" lon="9.376686112285354" id="-23248">
		<tag k="historic" v="shieling" />
		<tag k="name" v="Kampastølen" />
		<tag k="place" v="isolated_dwelling" />
		<tag k="ssr:date" v="2019-12-27" />
		<tag k="ssr:gruppe" v="gardsbebyggelse" />
		<tag k="ssr:hovedgruppe" v="bebyggelse" />
		<tag k="ssr:stedsnr" v="100684" />
		<tag k="ssr:type" v="seterStøl" />
	</node>
	<node lat="60.90272777696363" lon="8.910711103038775" id="-23249">
		<tag k="name" v="Torestjernet" />
		<tag k="natural" v="water" />
		<tag k="old_name" v="Torestjednet" />
		<tag k="ssr:date" v="2019-12-27" />
		<tag k="ssr:gruppe" v="stilleståendeVann" />
		<tag k="ssr:hovedgruppe" v="ferskvann" />
		<tag k="ssr:stedsnr" v="100863" />
		<tag k="ssr:type" v="tjern" />
	</node>
	<node lat="60.99805555643338" lon="9.094133334205923" id="-23250">
		<tag k="bridge" v="yes" />
		<tag k="layer" v="1" />
		<tag k="name" v="Granheim" />
		<tag k="ssr:date" v="2019-12-27" />
		<tag k="ssr:gruppe" v="samferdselsanlegg" />
		<tag k="ssr:hovedgruppe" v="infrastruktur" />
		<tag k="ssr:stedsnr" v="107196" />
		<tag k="ssr:type" v="bru" />
	</node>
	<node lat="60.83498055956546" lon="9.15226111147655" id="-23251">
		<tag k="bridge" v="yes" />
		<tag k="layer" v="1" />
		<tag k="name" v="Stogoelv" />
		<tag k="ssr:date" v="2019-12-27" />
		<tag k="ssr:gruppe" v="samferdselsanlegg" />
		<tag k="ssr:hovedgruppe" v="infrastruktur" />
		<tag k="ssr:stedsnr" v="107204" />
		<tag k="ssr:type" v="bru" />
	</node>
</osm>
