<?xml version="1.0" encoding="UTF-8"?>
<osm version="0.6" generator="osmapis">
	<node lat="61.00338055159172" lon="9.31540277591876" id="-48194">
		<tag k="name" v="Raukøllhallvegen" />
		<tag k="ssr:date" v="2019-12-27" />
		<tag k="ssr:gruppe" v="veg" />
		<tag k="ssr:hovedgruppe" v="infrastruktur" />
		<tag k="ssr:stedsnr" v="786521" />
		<tag k="ssr:type" v="vegstrekning" />
	</node>
	<node lat="60.96749444354282" lon="9.348644436398558" id="-49240">
		<tag k="alt_name" v="Kælvedalslina" />
		<tag k="name" v="Kalvedalslina" />
		<tag k="ssr:date" v="2019-12-27" />
		<tag k="ssr:gruppe" v="energi" />
		<tag k="ssr:hovedgruppe" v="infrastruktur" />
		<tag k="ssr:stedsnr" v="422234" />
		<tag k="ssr:type" v="kraftledning" />
	</node>
	<node lat="60.98531722148125" lon="9.23664391702556" id="-49673">
		<tag k="alt_name" v="Rådhus" />
		<tag k="name" v="Nord-Aurdal kommune" />
		<tag k="ssr:date" v="2019-12-27" />
		<tag k="ssr:gruppe" v="administrativeIndelinger" />
		<tag k="ssr:hovedgruppe" v="offentligAdministrasjon" />
		<tag k="ssr:stedsnr" v="751779" />
		<tag k="ssr:type" v="kommune" />
	</node>
	<node lat="60.97328763948339" lon="9.292682749118677" id="-50089">
		<tag k="name" v="Vidstevegen" />
		<tag k="ssr:date" v="2019-12-27" />
		<tag k="ssr:gruppe" v="veg" />
		<tag k="ssr:hovedgruppe" v="infrastruktur" />
		<tag k="ssr:stedsnr" v="1015692" />
		<tag k="ssr:type" v="adressenavn" />
	</node>
	<node lat="60.97479758618518" lon="9.285832290811285" id="-50091">
		<tag k="name" v="Moaåkeren" />
		<tag k="ssr:date" v="2019-12-27" />
		<tag k="ssr:gruppe" v="veg" />
		<tag k="ssr:hovedgruppe" v="infrastruktur" />
		<tag k="ssr:stedsnr" v="1015701" />
		<tag k="ssr:type" v="adressenavn" />
	</node>
	<node lat="60.971136318360124" lon="9.303529316673986" id="-50092">
		<tag k="name" v="Yrkesskulevegen" />
		<tag k="ssr:date" v="2019-12-27" />
		<tag k="ssr:gruppe" v="veg" />
		<tag k="ssr:hovedgruppe" v="infrastruktur" />
		<tag k="ssr:stedsnr" v="1015705" />
		<tag k="ssr:type" v="adressenavn" />
	</node>
	<node lat="60.97125549920979" lon="9.302399635354533" id="-50098">
		<tag k="name" v="Månovegen" />
		<tag k="ssr:date" v="2019-12-27" />
		<tag k="ssr:gruppe" v="veg" />
		<tag k="ssr:hovedgruppe" v="infrastruktur" />
		<tag k="ssr:stedsnr" v="1015735" />
		<tag k="ssr:type" v="adressenavn" />
	</node>
	<node lat="60.98098637009765" lon="9.22519044303318" id="-50099">
		<tag k="name" v="Kvitebergvegen" />
		<tag k="ssr:date" v="2019-12-27" />
		<tag k="ssr:gruppe" v="veg" />
		<tag k="ssr:hovedgruppe" v="infrastruktur" />
		<tag k="ssr:stedsnr" v="1015787" />
		<tag k="ssr:type" v="adressenavn" />
	</node>
	<node lat="60.98256573204392" lon="9.2269027996326" id="-50102">
		<tag k="name" v="Liavegen" />
		<tag k="ssr:date" v="2019-12-27" />
		<tag k="ssr:gruppe" v="veg" />
		<tag k="ssr:hovedgruppe" v="infrastruktur" />
		<tag k="ssr:stedsnr" v="1015799" />
		<tag k="ssr:type" v="adressenavn" />
	</node>
	<node lat="60.98432409389299" lon="9.225451913461239" id="-50104">
		<tag k="name" v="Øvre Lykkjevegen" />
		<tag k="ssr:date" v="2019-12-27" />
		<tag k="ssr:gruppe" v="veg" />
		<tag k="ssr:hovedgruppe" v="infrastruktur" />
		<tag k="ssr:stedsnr" v="1015810" />
		<tag k="ssr:type" v="adressenavn" />
	</node>
	<node lat="60.97053455605957" lon="9.289796408132949" id="-50106">
		<tag k="name" v="Markavegen" />
		<tag k="ssr:date" v="2019-12-27" />
		<tag k="ssr:gruppe" v="veg" />
		<tag k="ssr:hovedgruppe" v="infrastruktur" />
		<tag k="ssr:stedsnr" v="1015677" />
		<tag k="ssr:type" v="adressenavn" />
	</node>
	<node lat="60.99718923963168" lon="9.228453854936824" id="-50110">
		<tag k="name" v="Myraberget" />
		<tag k="ssr:date" v="2019-12-27" />
		<tag k="ssr:gruppe" v="veg" />
		<tag k="ssr:hovedgruppe" v="infrastruktur" />
		<tag k="ssr:stedsnr" v="1015743" />
		<tag k="ssr:type" v="adressenavn" />
	</node>
	<node lat="60.99696419577455" lon="9.225160679322698" id="-50111">
		<tag k="name" v="Ranheimskogen" />
		<tag k="ssr:date" v="2019-12-27" />
		<tag k="ssr:gruppe" v="veg" />
		<tag k="ssr:hovedgruppe" v="infrastruktur" />
		<tag k="ssr:stedsnr" v="1015748" />
		<tag k="ssr:type" v="adressenavn" />
	</node>
	<node lat="60.993863009197085" lon="9.23043756809378" id="-50112">
		<tag k="name" v="Rådyrbakken" />
		<tag k="ssr:date" v="2019-12-27" />
		<tag k="ssr:gruppe" v="veg" />
		<tag k="ssr:hovedgruppe" v="infrastruktur" />
		<tag k="ssr:stedsnr" v="1015753" />
		<tag k="ssr:type" v="adressenavn" />
	</node>
	<node lat="60.99236255023052" lon="9.233497059254285" id="-50113">
		<tag k="name" v="Elgvegen" />
		<tag k="ssr:date" v="2019-12-27" />
		<tag k="ssr:gruppe" v="veg" />
		<tag k="ssr:hovedgruppe" v="infrastruktur" />
		<tag k="ssr:stedsnr" v="1015759" />
		<tag k="ssr:type" v="adressenavn" />
	</node>
	<node lat="61.00388120654307" lon="9.220891983217053" id="-50114">
		<tag k="name" v="Marsteinvegen" />
		<tag k="ssr:date" v="2019-12-27" />
		<tag k="ssr:gruppe" v="veg" />
		<tag k="ssr:hovedgruppe" v="infrastruktur" />
		<tag k="ssr:stedsnr" v="1015764" />
		<tag k="ssr:type" v="adressenavn" />
	</node>
	<node lat="61.00129619004569" lon="9.220012048023497" id="-50116">
		<tag k="name" v="Fløtateigen" />
		<tag k="ssr:date" v="2019-12-27" />
		<tag k="ssr:gruppe" v="veg" />
		<tag k="ssr:hovedgruppe" v="infrastruktur" />
		<tag k="ssr:stedsnr" v="1015772" />
		<tag k="ssr:type" v="adressenavn" />
	</node>
	<node lat="60.984927404554945" lon="9.250871621258241" id="-50119">
		<tag k="name" v="Håvelsrudvegen" />
		<tag k="ssr:date" v="2019-12-27" />
		<tag k="ssr:gruppe" v="veg" />
		<tag k="ssr:hovedgruppe" v="infrastruktur" />
		<tag k="ssr:stedsnr" v="1015837" />
		<tag k="ssr:type" v="adressenavn" />
	</node>
	<node lat="60.98143514004378" lon="9.262767278757787" id="-50120">
		<tag k="name" v="Tingnesvegen" />
		<tag k="ssr:date" v="2019-12-27" />
		<tag k="ssr:gruppe" v="veg" />
		<tag k="ssr:hovedgruppe" v="infrastruktur" />
		<tag k="ssr:stedsnr" v="1015841" />
		<tag k="ssr:type" v="adressenavn" />
	</node>
	<node lat="60.98417030918689" lon="9.253550876250133" id="-50121">
		<tag k="name" v="Brattbakken" />
		<tag k="ssr:date" v="2019-12-27" />
		<tag k="ssr:gruppe" v="veg" />
		<tag k="ssr:hovedgruppe" v="infrastruktur" />
		<tag k="ssr:stedsnr" v="1015846" />
		<tag k="ssr:type" v="adressenavn" />
	</node>
	<node lat="60.98740509357859" lon="9.240041960994866" id="-50122">
		<tag k="name" v="Sløavegen" />
		<tag k="ssr:date" v="2019-12-27" />
		<tag k="ssr:gruppe" v="veg" />
		<tag k="ssr:hovedgruppe" v="infrastruktur" />
		<tag k="ssr:stedsnr" v="1015852" />
		<tag k="ssr:type" v="adressenavn" />
	</node>
	<node lat="60.986820212786874" lon="9.23110990523106" id="-50123">
		<tag k="name" v="Kvitvellavegen" />
		<tag k="ssr:date" v="2019-12-27" />
		<tag k="ssr:gruppe" v="veg" />
		<tag k="ssr:hovedgruppe" v="infrastruktur" />
		<tag k="ssr:stedsnr" v="1015853" />
		<tag k="ssr:type" v="adressenavn" />
	</node>
	<node lat="60.98706559702905" lon="9.24912371240345" id="-50124">
		<tag k="name" v="Øvrevegen" />
		<tag k="ssr:date" v="2019-12-27" />
		<tag k="ssr:gruppe" v="veg" />
		<tag k="ssr:hovedgruppe" v="infrastruktur" />
		<tag k="ssr:stedsnr" v="1015857" />
		<tag k="ssr:type" v="adressenavn" />
	</node>
	<node lat="60.98575419831409" lon="9.243004756815168" id="-50125">
		<tag k="name" v="Snarvegen" />
		<tag k="ssr:date" v="2019-12-27" />
		<tag k="ssr:gruppe" v="veg" />
		<tag k="ssr:hovedgruppe" v="infrastruktur" />
		<tag k="ssr:stedsnr" v="1015861" />
		<tag k="ssr:type" v="adressenavn" />
	</node>
	<node lat="60.972023941054424" lon="9.291605131432512" id="-50126">
		<tag k="name" v="Garlivegen" />
		<tag k="ssr:date" v="2019-12-27" />
		<tag k="ssr:gruppe" v="veg" />
		<tag k="ssr:hovedgruppe" v="infrastruktur" />
		<tag k="ssr:stedsnr" v="1015864" />
		<tag k="ssr:type" v="adressenavn" />
	</node>
	<node lat="60.984973956337065" lon="9.228056830489791" id="-50127">
		<tag k="name" v="Gamlevegen" />
		<tag k="ssr:date" v="2019-12-27" />
		<tag k="ssr:gruppe" v="veg" />
		<tag k="ssr:hovedgruppe" v="infrastruktur" />
		<tag k="ssr:stedsnr" v="1015868" />
		<tag k="ssr:type" v="adressenavn" />
	</node>
	<node lat="60.9837327965281" lon="9.225736138974561" id="-50128">
		<tag k="name" v="Nedre Lykkjevegen" />
		<tag k="ssr:date" v="2019-12-27" />
		<tag k="ssr:gruppe" v="veg" />
		<tag k="ssr:hovedgruppe" v="infrastruktur" />
		<tag k="ssr:stedsnr" v="1015814" />
		<tag k="ssr:type" v="adressenavn" />
	</node>
	<node lat="60.98205436335685" lon="9.265452113124779" id="-50129">
		<tag k="name" v="Fejordvegen" />
		<tag k="ssr:date" v="2019-12-27" />
		<tag k="ssr:gruppe" v="veg" />
		<tag k="ssr:hovedgruppe" v="infrastruktur" />
		<tag k="ssr:stedsnr" v="1015818" />
		<tag k="ssr:type" v="adressenavn" />
	</node>
	<node lat="60.9816578205204" lon="9.26679589499397" id="-50132">
		<tag k="name" v="Kvitterlivegen" />
		<tag k="ssr:date" v="2019-12-27" />
		<tag k="ssr:gruppe" v="veg" />
		<tag k="ssr:hovedgruppe" v="infrastruktur" />
		<tag k="ssr:stedsnr" v="1015830" />
		<tag k="ssr:type" v="adressenavn" />
	</node>
	<node lat="60.98532524695065" lon="9.253521026770736" id="-50133">
		<tag k="name" v="Moavegen" />
		<tag k="ssr:date" v="2019-12-27" />
		<tag k="ssr:gruppe" v="veg" />
		<tag k="ssr:hovedgruppe" v="infrastruktur" />
		<tag k="ssr:stedsnr" v="1015834" />
		<tag k="ssr:type" v="adressenavn" />
	</node>
	<node lat="60.98474291677088" lon="9.22856101908425" id="-50135">
		<tag k="name" v="Bygdinvegen" />
		<tag k="ssr:date" v="2019-12-27" />
		<tag k="ssr:gruppe" v="veg" />
		<tag k="ssr:hovedgruppe" v="infrastruktur" />
		<tag k="ssr:stedsnr" v="1015892" />
		<tag k="ssr:type" v="adressenavn" />
	</node>
	<node lat="60.984979643402944" lon="9.243601159564916" id="-50136">
		<tag k="name" v="Jernbanevegen" />
		<tag k="ssr:date" v="2019-12-27" />
		<tag k="ssr:gruppe" v="veg" />
		<tag k="ssr:hovedgruppe" v="infrastruktur" />
		<tag k="ssr:stedsnr" v="1015902" />
		<tag k="ssr:type" v="adressenavn" />
	</node>
	<node lat="60.98551410853347" lon="9.230768543395227" id="-50137">
		<tag k="name" v="Gullsmedvegen" />
		<tag k="ssr:date" v="2019-12-27" />
		<tag k="ssr:gruppe" v="veg" />
		<tag k="ssr:hovedgruppe" v="infrastruktur" />
		<tag k="ssr:stedsnr" v="1015872" />
		<tag k="ssr:type" v="adressenavn" />
	</node>
	<node lat="60.98743124261567" lon="9.233710514335073" id="-50138">
		<tag k="name" v="Tveitavegen" />
		<tag k="ssr:date" v="2019-12-27" />
		<tag k="ssr:gruppe" v="veg" />
		<tag k="ssr:hovedgruppe" v="infrastruktur" />
		<tag k="ssr:stedsnr" v="1015876" />
		<tag k="ssr:type" v="adressenavn" />
	</node>
	<node lat="61.01772255509672" lon="9.091448768322936" id="-50139">
		<tag k="name" v="Tyinvegen" />
		<tag k="ssr:date" v="2019-12-27" />
		<tag k="ssr:gruppe" v="veg" />
		<tag k="ssr:hovedgruppe" v="infrastruktur" />
		<tag k="ssr:stedsnr" v="1015880" />
		<tag k="ssr:type" v="adressenavn" />
	</node>
	<node lat="60.98495471757174" lon="9.247136025674584" id="-50140">
		<tag k="name" v="Valdresvegen" />
		<tag k="ssr:date" v="2019-12-27" />
		<tag k="ssr:gruppe" v="veg" />
		<tag k="ssr:hovedgruppe" v="infrastruktur" />
		<tag k="ssr:stedsnr" v="1015884" />
		<tag k="ssr:type" v="adressenavn" />
	</node>
	<node lat="60.814070831104445" lon="9.113579990646478" id="-50393">
		<tag k="name" v="Langehaugen" />
		<tag k="ssr:date" v="2019-12-27" />
		<tag k="ssr:gruppe" v="veg" />
		<tag k="ssr:hovedgruppe" v="infrastruktur" />
		<tag k="ssr:stedsnr" v="1073613" />
		<tag k="ssr:type" v="adressenavn" />
	</node>
	<node lat="60.97359891052987" lon="9.304578277246735" id="-50394">
		<tag k="name" v="Månojordet" />
		<tag k="ssr:date" v="2019-12-27" />
		<tag k="ssr:gruppe" v="veg" />
		<tag k="ssr:hovedgruppe" v="infrastruktur" />
		<tag k="ssr:stedsnr" v="1073614" />
		<tag k="ssr:type" v="adressenavn" />
	</node>
	<node lat="60.88990604441383" lon="9.05634485825453" id="-50395">
		<tag k="name" v="Klukkarhaugen" />
		<tag k="ssr:date" v="2019-12-27" />
		<tag k="ssr:gruppe" v="veg" />
		<tag k="ssr:hovedgruppe" v="infrastruktur" />
		<tag k="ssr:stedsnr" v="1073615" />
		<tag k="ssr:type" v="adressenavn" />
	</node>
	<node lat="60.947534521156115" lon="9.414950551195627" id="-50413">
		<tag k="name" v="Damstølen" />
		<tag k="ssr:date" v="2021-01-26" />
		<tag k="ssr:gruppe" v="veg" />
		<tag k="ssr:hovedgruppe" v="infrastruktur" />
		<tag k="ssr:stedsnr" v="1079758" />
		<tag k="ssr:type" v="adressenavn" />
	</node>
	<node lat="60.858671260279785" lon="9.50171500686887" id="-50414">
		<tag k="name" v="Bagnskleive" />
		<tag k="ssr:date" v="2021-05-11" />
		<tag k="ssr:gruppe" v="veg" />
		<tag k="ssr:hovedgruppe" v="infrastruktur" />
		<tag k="ssr:stedsnr" v="1081219" />
		<tag k="ssr:type" v="adressenavn" />
	</node>
</osm>
