<?xml version="1.0" encoding="UTF-8"?>
<osm version="0.6" generator="osmapis">
	<node lat="61.088419446733226" lon="8.981972221663096" id="-45288">
		<tag k="name" v="Vestre Slidre kommune" />
		<tag k="ssr:date" v="2019-12-27" />
		<tag k="ssr:gruppe" v="administrativeIndelinger" />
		<tag k="ssr:hovedgruppe" v="offentligAdministrasjon" />
		<tag k="ssr:stedsnr" v="147475" />
		<tag k="ssr:type" v="kommune" />
	</node>
	<node lat="61.002270322814674" lon="8.990370192626468" id="-45722">
		<tag k="name" v="Vasetbakkadn" />
		<tag k="ssr:date" v="2019-12-27" />
		<tag k="ssr:gruppe" v="veg" />
		<tag k="ssr:hovedgruppe" v="infrastruktur" />
		<tag k="ssr:stedsnr" v="1016057" />
		<tag k="ssr:type" v="adressenavn" />
	</node>
	<node lat="60.997944661697744" lon="8.987838876822462" id="-45723">
		<tag k="name" v="Vasetfjellvegen" />
		<tag k="ssr:date" v="2019-12-27" />
		<tag k="ssr:gruppe" v="veg" />
		<tag k="ssr:hovedgruppe" v="infrastruktur" />
		<tag k="ssr:stedsnr" v="1016061" />
		<tag k="ssr:type" v="adressenavn" />
	</node>
	<node lat="61.00651844386673" lon="9.019686526129155" id="-45724">
		<tag k="name" v="Køtastølvegen" />
		<tag k="ssr:date" v="2019-12-27" />
		<tag k="ssr:gruppe" v="veg" />
		<tag k="ssr:hovedgruppe" v="infrastruktur" />
		<tag k="ssr:stedsnr" v="1016065" />
		<tag k="ssr:type" v="adressenavn" />
	</node>
	<node lat="61.001716441248554" lon="8.98687223163829" id="-45725">
		<tag k="name" v="Utsiktsvegen" />
		<tag k="ssr:date" v="2019-12-27" />
		<tag k="ssr:gruppe" v="veg" />
		<tag k="ssr:hovedgruppe" v="infrastruktur" />
		<tag k="ssr:stedsnr" v="1016068" />
		<tag k="ssr:type" v="adressenavn" />
	</node>
	<node lat="60.99974052734786" lon="8.966603431127549" id="-45726">
		<tag k="name" v="Ålfjellvegen" />
		<tag k="ssr:date" v="2019-12-27" />
		<tag k="ssr:gruppe" v="veg" />
		<tag k="ssr:hovedgruppe" v="infrastruktur" />
		<tag k="ssr:stedsnr" v="1016073" />
		<tag k="ssr:type" v="adressenavn" />
	</node>
	<node lat="61.00244746164838" lon="8.962330417392208" id="-45727">
		<tag k="name" v="Pjåtastølvegen" />
		<tag k="ssr:date" v="2019-12-27" />
		<tag k="ssr:gruppe" v="veg" />
		<tag k="ssr:hovedgruppe" v="infrastruktur" />
		<tag k="ssr:stedsnr" v="1016077" />
		<tag k="ssr:type" v="adressenavn" />
	</node>
	<node lat="60.99666476626333" lon="8.985773219092431" id="-45728">
		<tag k="name" v="Soltjednvegen" />
		<tag k="ssr:date" v="2019-12-27" />
		<tag k="ssr:gruppe" v="veg" />
		<tag k="ssr:hovedgruppe" v="infrastruktur" />
		<tag k="ssr:stedsnr" v="1016083" />
		<tag k="ssr:type" v="adressenavn" />
	</node>
	<node lat="61.0172228906295" lon="8.934285863895273" id="-45729">
		<tag k="name" v="Brakastølvegen" />
		<tag k="ssr:date" v="2019-12-27" />
		<tag k="ssr:gruppe" v="veg" />
		<tag k="ssr:hovedgruppe" v="infrastruktur" />
		<tag k="ssr:stedsnr" v="1016137" />
		<tag k="ssr:type" v="adressenavn" />
	</node>
	<node lat="61.085901336981685" lon="8.992049327933545" id="-45730">
		<tag k="name" v="Øvre Plassen" />
		<tag k="ssr:date" v="2019-12-27" />
		<tag k="ssr:gruppe" v="veg" />
		<tag k="ssr:hovedgruppe" v="infrastruktur" />
		<tag k="ssr:stedsnr" v="1015657" />
		<tag k="ssr:type" v="adressenavn" />
	</node>
	<node lat="61.08843002053308" lon="8.986860618031242" id="-45731">
		<tag k="name" v="Tunvegen" />
		<tag k="ssr:date" v="2019-12-27" />
		<tag k="ssr:gruppe" v="veg" />
		<tag k="ssr:hovedgruppe" v="infrastruktur" />
		<tag k="ssr:stedsnr" v="1015662" />
		<tag k="ssr:type" v="adressenavn" />
	</node>
	<node lat="61.08902876722775" lon="8.985458277475947" id="-45732">
		<tag k="name" v="Sjukeheimvegen" />
		<tag k="ssr:date" v="2019-12-27" />
		<tag k="ssr:gruppe" v="veg" />
		<tag k="ssr:hovedgruppe" v="infrastruktur" />
		<tag k="ssr:stedsnr" v="1015686" />
		<tag k="ssr:type" v="adressenavn" />
	</node>
	<node lat="61.09203374664491" lon="8.977403629452017" id="-45733">
		<tag k="name" v="Gamle Slidrevegen" />
		<tag k="ssr:date" v="2019-12-27" />
		<tag k="ssr:gruppe" v="veg" />
		<tag k="ssr:hovedgruppe" v="infrastruktur" />
		<tag k="ssr:stedsnr" v="1015689" />
		<tag k="ssr:type" v="adressenavn" />
	</node>
	<node lat="61.093175684182874" lon="8.994736769646675" id="-45734">
		<tag k="name" v="Brøtavegen" />
		<tag k="ssr:date" v="2019-12-27" />
		<tag k="ssr:gruppe" v="veg" />
		<tag k="ssr:hovedgruppe" v="infrastruktur" />
		<tag k="ssr:stedsnr" v="1015693" />
		<tag k="ssr:type" v="adressenavn" />
	</node>
	<node lat="61.088994279587276" lon="8.986103428242055" id="-45735">
		<tag k="name" v="Viovegen" />
		<tag k="ssr:date" v="2019-12-27" />
		<tag k="ssr:gruppe" v="veg" />
		<tag k="ssr:hovedgruppe" v="infrastruktur" />
		<tag k="ssr:stedsnr" v="1015698" />
		<tag k="ssr:type" v="adressenavn" />
	</node>
	<node lat="61.08889828432113" lon="8.984968225391206" id="-45736">
		<tag k="name" v="Timbervegen" />
		<tag k="ssr:date" v="2019-12-27" />
		<tag k="ssr:gruppe" v="veg" />
		<tag k="ssr:hovedgruppe" v="infrastruktur" />
		<tag k="ssr:stedsnr" v="1015702" />
		<tag k="ssr:type" v="adressenavn" />
	</node>
	<node lat="61.09524644874448" lon="8.987534357095205" id="-45737">
		<tag k="name" v="Skøravegen" />
		<tag k="ssr:date" v="2019-12-27" />
		<tag k="ssr:gruppe" v="veg" />
		<tag k="ssr:hovedgruppe" v="infrastruktur" />
		<tag k="ssr:stedsnr" v="1015706" />
		<tag k="ssr:type" v="adressenavn" />
	</node>
	<node lat="61.09662362988389" lon="8.999433379687403" id="-45738">
		<tag k="name" v="Slidrestølvegen" />
		<tag k="ssr:date" v="2019-12-27" />
		<tag k="ssr:gruppe" v="veg" />
		<tag k="ssr:hovedgruppe" v="infrastruktur" />
		<tag k="ssr:stedsnr" v="1015710" />
		<tag k="ssr:type" v="adressenavn" />
	</node>
	<node lat="61.09465840074911" lon="8.995762600144763" id="-45739">
		<tag k="name" v="Sponvegen" />
		<tag k="ssr:date" v="2019-12-27" />
		<tag k="ssr:gruppe" v="veg" />
		<tag k="ssr:hovedgruppe" v="infrastruktur" />
		<tag k="ssr:stedsnr" v="1015716" />
		<tag k="ssr:type" v="adressenavn" />
	</node>
	<node lat="61.10210660904782" lon="8.967503235518178" id="-45740">
		<tag k="name" v="Vøllavegen" />
		<tag k="ssr:date" v="2019-12-27" />
		<tag k="ssr:gruppe" v="veg" />
		<tag k="ssr:hovedgruppe" v="infrastruktur" />
		<tag k="ssr:stedsnr" v="1015721" />
		<tag k="ssr:type" v="adressenavn" />
	</node>
	<node lat="61.03283090858635" lon="9.1729401217638" id="-45741">
		<tag k="name" v="Rogndokkvegen" />
		<tag k="ssr:date" v="2019-12-27" />
		<tag k="ssr:gruppe" v="veg" />
		<tag k="ssr:hovedgruppe" v="infrastruktur" />
		<tag k="ssr:stedsnr" v="1015725" />
		<tag k="ssr:type" v="adressenavn" />
	</node>
	<node lat="61.06179172387448" lon="9.048074371888282" id="-45742">
		<tag k="name" v="Plassavegen" />
		<tag k="ssr:date" v="2019-12-27" />
		<tag k="ssr:gruppe" v="veg" />
		<tag k="ssr:hovedgruppe" v="infrastruktur" />
		<tag k="ssr:stedsnr" v="1015730" />
		<tag k="ssr:type" v="adressenavn" />
	</node>
	<node lat="61.0684004465373" lon="8.981432752119836" id="-45743">
		<tag k="name" v="Einangsundet" />
		<tag k="ssr:date" v="2019-12-27" />
		<tag k="ssr:gruppe" v="veg" />
		<tag k="ssr:hovedgruppe" v="infrastruktur" />
		<tag k="ssr:stedsnr" v="1015665" />
		<tag k="ssr:type" v="adressenavn" />
	</node>
	<node lat="61.07840040510186" lon="8.99614421808819" id="-45744">
		<tag k="name" v="Ringavegen" />
		<tag k="ssr:date" v="2019-12-27" />
		<tag k="ssr:gruppe" v="veg" />
		<tag k="ssr:hovedgruppe" v="infrastruktur" />
		<tag k="ssr:stedsnr" v="1015669" />
		<tag k="ssr:type" v="adressenavn" />
	</node>
	<node lat="61.09153087114807" lon="8.988909021235802" id="-45745">
		<tag k="name" v="Elgfaret" />
		<tag k="ssr:date" v="2019-12-27" />
		<tag k="ssr:gruppe" v="veg" />
		<tag k="ssr:hovedgruppe" v="infrastruktur" />
		<tag k="ssr:stedsnr" v="1015673" />
		<tag k="ssr:type" v="adressenavn" />
	</node>
	<node lat="61.09138324596858" lon="8.988026416532465" id="-45746">
		<tag k="name" v="Kjeldelie" />
		<tag k="ssr:date" v="2019-12-27" />
		<tag k="ssr:gruppe" v="veg" />
		<tag k="ssr:hovedgruppe" v="infrastruktur" />
		<tag k="ssr:stedsnr" v="1015678" />
		<tag k="ssr:type" v="adressenavn" />
	</node>
	<node lat="61.08660259708346" lon="8.986021697409738" id="-45747">
		<tag k="name" v="Tvengisbakken" />
		<tag k="ssr:date" v="2019-12-27" />
		<tag k="ssr:gruppe" v="veg" />
		<tag k="ssr:hovedgruppe" v="infrastruktur" />
		<tag k="ssr:stedsnr" v="1015682" />
		<tag k="ssr:type" v="adressenavn" />
	</node>
	<node lat="61.06464560315269" lon="9.046692929171178" id="-45748">
		<tag k="name" v="Bergsengvegen" />
		<tag k="ssr:date" v="2019-12-27" />
		<tag k="ssr:gruppe" v="veg" />
		<tag k="ssr:hovedgruppe" v="infrastruktur" />
		<tag k="ssr:stedsnr" v="1015736" />
		<tag k="ssr:type" v="adressenavn" />
	</node>
	<node lat="61.03284456183145" lon="9.175902095951887" id="-45749">
		<tag k="name" v="Bygdinvegen" />
		<tag k="ssr:date" v="2019-12-27" />
		<tag k="ssr:gruppe" v="veg" />
		<tag k="ssr:hovedgruppe" v="infrastruktur" />
		<tag k="ssr:stedsnr" v="1015739" />
		<tag k="ssr:type" v="adressenavn" />
	</node>
	<node lat="61.03548012775439" lon="9.082537263906566" id="-45750">
		<tag k="name" v="Rebnesvegen" />
		<tag k="ssr:date" v="2019-12-27" />
		<tag k="ssr:gruppe" v="veg" />
		<tag k="ssr:hovedgruppe" v="infrastruktur" />
		<tag k="ssr:stedsnr" v="1015744" />
		<tag k="ssr:type" v="adressenavn" />
	</node>
	<node lat="61.01857036369861" lon="9.10276669856175" id="-45751">
		<tag k="name" v="Rønsvegen" />
		<tag k="ssr:date" v="2019-12-27" />
		<tag k="ssr:gruppe" v="veg" />
		<tag k="ssr:hovedgruppe" v="infrastruktur" />
		<tag k="ssr:stedsnr" v="1015749" />
		<tag k="ssr:type" v="adressenavn" />
	</node>
	<node lat="61.04652028727962" lon="9.057457411025778" id="-45752">
		<tag k="name" v="Slidrevegen" />
		<tag k="ssr:date" v="2019-12-27" />
		<tag k="ssr:gruppe" v="veg" />
		<tag k="ssr:hovedgruppe" v="infrastruktur" />
		<tag k="ssr:stedsnr" v="1015754" />
		<tag k="ssr:type" v="adressenavn" />
	</node>
	<node lat="61.0368632144261" lon="9.078391134566873" id="-45753">
		<tag k="name" v="Oldrumvegen" />
		<tag k="ssr:date" v="2019-12-27" />
		<tag k="ssr:gruppe" v="veg" />
		<tag k="ssr:hovedgruppe" v="infrastruktur" />
		<tag k="ssr:stedsnr" v="1015760" />
		<tag k="ssr:type" v="adressenavn" />
	</node>
	<node lat="61.02387420374413" lon="9.084460390718194" id="-45754">
		<tag k="name" v="Hagabekkvegen" />
		<tag k="ssr:date" v="2019-12-27" />
		<tag k="ssr:gruppe" v="veg" />
		<tag k="ssr:hovedgruppe" v="infrastruktur" />
		<tag k="ssr:stedsnr" v="1015773" />
		<tag k="ssr:type" v="adressenavn" />
	</node>
	<node lat="61.079468466869564" lon="8.993547400945902" id="-45755">
		<tag k="name" v="Tyinvegen" />
		<tag k="ssr:date" v="2019-12-27" />
		<tag k="ssr:gruppe" v="veg" />
		<tag k="ssr:hovedgruppe" v="infrastruktur" />
		<tag k="ssr:stedsnr" v="1015779" />
		<tag k="ssr:type" v="adressenavn" />
	</node>
	<node lat="60.99769380823312" lon="8.980986566041622" id="-45756">
		<tag k="name" v="Svingastølvegen" />
		<tag k="ssr:date" v="2019-12-27" />
		<tag k="ssr:gruppe" v="veg" />
		<tag k="ssr:hovedgruppe" v="infrastruktur" />
		<tag k="ssr:stedsnr" v="1016088" />
		<tag k="ssr:type" v="adressenavn" />
	</node>
	<node lat="61.01570280805335" lon="8.950110888100799" id="-45757">
		<tag k="name" v="Ulvissvingen" />
		<tag k="ssr:date" v="2019-12-27" />
		<tag k="ssr:gruppe" v="veg" />
		<tag k="ssr:hovedgruppe" v="infrastruktur" />
		<tag k="ssr:stedsnr" v="1016093" />
		<tag k="ssr:type" v="adressenavn" />
	</node>
	<node lat="61.013466720935746" lon="8.940435823139516" id="-45758">
		<tag k="name" v="Ulsetvegen" />
		<tag k="ssr:date" v="2019-12-27" />
		<tag k="ssr:gruppe" v="veg" />
		<tag k="ssr:hovedgruppe" v="infrastruktur" />
		<tag k="ssr:stedsnr" v="1016096" />
		<tag k="ssr:type" v="adressenavn" />
	</node>
	<node lat="61.00060167250308" lon="8.964366261286354" id="-45759">
		<tag k="name" v="Pålsetvegen" />
		<tag k="ssr:date" v="2019-12-27" />
		<tag k="ssr:gruppe" v="veg" />
		<tag k="ssr:hovedgruppe" v="infrastruktur" />
		<tag k="ssr:stedsnr" v="1016101" />
		<tag k="ssr:type" v="adressenavn" />
	</node>
	<node lat="61.01569720434245" lon="8.957818031062713" id="-45760">
		<tag k="name" v="Ødishøgde" />
		<tag k="ssr:date" v="2019-12-27" />
		<tag k="ssr:gruppe" v="veg" />
		<tag k="ssr:hovedgruppe" v="infrastruktur" />
		<tag k="ssr:stedsnr" v="1016105" />
		<tag k="ssr:type" v="adressenavn" />
	</node>
	<node lat="61.0220856809824" lon="8.933135309970666" id="-45761">
		<tag k="name" v="Haraldsetvegen" />
		<tag k="ssr:date" v="2019-12-27" />
		<tag k="ssr:gruppe" v="veg" />
		<tag k="ssr:hovedgruppe" v="infrastruktur" />
		<tag k="ssr:stedsnr" v="1016109" />
		<tag k="ssr:type" v="adressenavn" />
	</node>
	<node lat="61.01784246519411" lon="8.953071262465874" id="-45762">
		<tag k="name" v="Ulsetbekken" />
		<tag k="ssr:date" v="2019-12-27" />
		<tag k="ssr:gruppe" v="veg" />
		<tag k="ssr:hovedgruppe" v="infrastruktur" />
		<tag k="ssr:stedsnr" v="1016113" />
		<tag k="ssr:type" v="adressenavn" />
	</node>
	<node lat="61.01244048735303" lon="8.931015898533293" id="-45763">
		<tag k="name" v="Øyestølsvegen" />
		<tag k="ssr:date" v="2019-12-27" />
		<tag k="ssr:gruppe" v="veg" />
		<tag k="ssr:hovedgruppe" v="infrastruktur" />
		<tag k="ssr:stedsnr" v="1016118" />
		<tag k="ssr:type" v="adressenavn" />
	</node>
	<node lat="61.018590668856774" lon="8.932929857377705" id="-45764">
		<tag k="name" v="Semelengvegen" />
		<tag k="ssr:date" v="2019-12-27" />
		<tag k="ssr:gruppe" v="veg" />
		<tag k="ssr:hovedgruppe" v="infrastruktur" />
		<tag k="ssr:stedsnr" v="1016122" />
		<tag k="ssr:type" v="adressenavn" />
	</node>
	<node lat="61.02479758541399" lon="8.93198832253028" id="-45765">
		<tag k="name" v="Øvre Høysetvegen" />
		<tag k="ssr:date" v="2019-12-27" />
		<tag k="ssr:gruppe" v="veg" />
		<tag k="ssr:hovedgruppe" v="infrastruktur" />
		<tag k="ssr:stedsnr" v="1016126" />
		<tag k="ssr:type" v="adressenavn" />
	</node>
	<node lat="61.02613806552414" lon="8.93002573243445" id="-45766">
		<tag k="name" v="Nedre Høyset" />
		<tag k="ssr:date" v="2019-12-27" />
		<tag k="ssr:gruppe" v="veg" />
		<tag k="ssr:hovedgruppe" v="infrastruktur" />
		<tag k="ssr:stedsnr" v="1016130" />
		<tag k="ssr:type" v="adressenavn" />
	</node>
	<node lat="61.04653362603921" lon="8.761307178985716" id="-45767">
		<tag k="name" v="Svultavegen" />
		<tag k="ssr:date" v="2019-12-27" />
		<tag k="ssr:gruppe" v="veg" />
		<tag k="ssr:hovedgruppe" v="infrastruktur" />
		<tag k="ssr:stedsnr" v="1017287" />
		<tag k="ssr:type" v="adressenavn" />
	</node>
	<node lat="61.07639332014787" lon="8.724972757986475" id="-45768">
		<tag k="name" v="Bøastølvegen" />
		<tag k="ssr:date" v="2019-12-27" />
		<tag k="ssr:gruppe" v="veg" />
		<tag k="ssr:hovedgruppe" v="infrastruktur" />
		<tag k="ssr:stedsnr" v="1017292" />
		<tag k="ssr:type" v="adressenavn" />
	</node>
	<node lat="60.907448801811576" lon="8.855965229596002" id="-45769">
		<tag k="name" v="Baklivegen" />
		<tag k="ssr:date" v="2019-12-27" />
		<tag k="ssr:gruppe" v="veg" />
		<tag k="ssr:hovedgruppe" v="infrastruktur" />
		<tag k="ssr:stedsnr" v="1017303" />
		<tag k="ssr:type" v="adressenavn" />
	</node>
	<node lat="61.00658006931972" lon="8.753302765500175" id="-45770">
		<tag k="name" v="Kvitehaugvegen" />
		<tag k="ssr:date" v="2019-12-27" />
		<tag k="ssr:gruppe" v="veg" />
		<tag k="ssr:hovedgruppe" v="infrastruktur" />
		<tag k="ssr:stedsnr" v="1017311" />
		<tag k="ssr:type" v="adressenavn" />
	</node>
	<node lat="60.925402694641896" lon="8.896499965156288" id="-45771">
		<tag k="name" v="Revulvegen" />
		<tag k="ssr:date" v="2019-12-27" />
		<tag k="ssr:gruppe" v="veg" />
		<tag k="ssr:hovedgruppe" v="infrastruktur" />
		<tag k="ssr:stedsnr" v="1017317" />
		<tag k="ssr:type" v="adressenavn" />
	</node>
	<node lat="61.015465657628866" lon="8.937421396255798" id="-45772">
		<tag k="name" v="Nye Øyevegen" />
		<tag k="ssr:date" v="2019-12-27" />
		<tag k="ssr:gruppe" v="veg" />
		<tag k="ssr:hovedgruppe" v="infrastruktur" />
		<tag k="ssr:stedsnr" v="1016133" />
		<tag k="ssr:type" v="adressenavn" />
	</node>
	<node lat="61.04052426343194" lon="8.934896427182379" id="-45773">
		<tag k="name" v="Løtagoto" />
		<tag k="ssr:date" v="2019-12-27" />
		<tag k="ssr:gruppe" v="veg" />
		<tag k="ssr:hovedgruppe" v="infrastruktur" />
		<tag k="ssr:stedsnr" v="1016186" />
		<tag k="ssr:type" v="adressenavn" />
	</node>
	<node lat="61.04042603343759" lon="8.933800234340932" id="-45774">
		<tag k="name" v="Bakselin" />
		<tag k="ssr:date" v="2019-12-27" />
		<tag k="ssr:gruppe" v="veg" />
		<tag k="ssr:hovedgruppe" v="infrastruktur" />
		<tag k="ssr:stedsnr" v="1016192" />
		<tag k="ssr:type" v="adressenavn" />
	</node>
	<node lat="61.03973640963911" lon="8.931747032527177" id="-45775">
		<tag k="name" v="Braddestigen" />
		<tag k="ssr:date" v="2019-12-27" />
		<tag k="ssr:gruppe" v="veg" />
		<tag k="ssr:hovedgruppe" v="infrastruktur" />
		<tag k="ssr:stedsnr" v="1016197" />
		<tag k="ssr:type" v="adressenavn" />
	</node>
	<node lat="61.04240842760724" lon="8.943941417039715" id="-45776">
		<tag k="name" v="Karistigen" />
		<tag k="ssr:date" v="2019-12-27" />
		<tag k="ssr:gruppe" v="veg" />
		<tag k="ssr:hovedgruppe" v="infrastruktur" />
		<tag k="ssr:stedsnr" v="1016202" />
		<tag k="ssr:type" v="adressenavn" />
	</node>
	<node lat="61.03606553481855" lon="8.920814769035703" id="-45777">
		<tag k="name" v="Gamle Mosvegen" />
		<tag k="ssr:date" v="2019-12-27" />
		<tag k="ssr:gruppe" v="veg" />
		<tag k="ssr:hovedgruppe" v="infrastruktur" />
		<tag k="ssr:stedsnr" v="1016204" />
		<tag k="ssr:type" v="adressenavn" />
	</node>
	<node lat="61.044377742379794" lon="8.930615270668126" id="-45778">
		<tag k="name" v="Mosgoto" />
		<tag k="ssr:date" v="2019-12-27" />
		<tag k="ssr:gruppe" v="veg" />
		<tag k="ssr:hovedgruppe" v="infrastruktur" />
		<tag k="ssr:stedsnr" v="1016208" />
		<tag k="ssr:type" v="adressenavn" />
	</node>
	<node lat="61.0423878253585" lon="8.940565867508079" id="-45779">
		<tag k="name" v="Hagastigen" />
		<tag k="ssr:date" v="2019-12-27" />
		<tag k="ssr:gruppe" v="veg" />
		<tag k="ssr:hovedgruppe" v="infrastruktur" />
		<tag k="ssr:stedsnr" v="1016212" />
		<tag k="ssr:type" v="adressenavn" />
	</node>
	<node lat="61.043371074455756" lon="8.931001921600021" id="-45780">
		<tag k="name" v="Skråbakkin" />
		<tag k="ssr:date" v="2019-12-27" />
		<tag k="ssr:gruppe" v="veg" />
		<tag k="ssr:hovedgruppe" v="infrastruktur" />
		<tag k="ssr:stedsnr" v="1016216" />
		<tag k="ssr:type" v="adressenavn" />
	</node>
	<node lat="61.066529085779976" lon="8.951095754833565" id="-45781">
		<tag k="name" v="Gamlestølvegen" />
		<tag k="ssr:date" v="2019-12-27" />
		<tag k="ssr:gruppe" v="veg" />
		<tag k="ssr:hovedgruppe" v="infrastruktur" />
		<tag k="ssr:stedsnr" v="1016221" />
		<tag k="ssr:type" v="adressenavn" />
	</node>
	<node lat="61.066511301247424" lon="8.913984754279683" id="-45782">
		<tag k="name" v="Tjednstølvegen" />
		<tag k="ssr:date" v="2019-12-27" />
		<tag k="ssr:gruppe" v="veg" />
		<tag k="ssr:hovedgruppe" v="infrastruktur" />
		<tag k="ssr:stedsnr" v="1016223" />
		<tag k="ssr:type" v="adressenavn" />
	</node>
	<node lat="61.04467791661531" lon="8.927521177910942" id="-45783">
		<tag k="name" v="Åsheimslina" />
		<tag k="ssr:date" v="2019-12-27" />
		<tag k="ssr:gruppe" v="veg" />
		<tag k="ssr:hovedgruppe" v="infrastruktur" />
		<tag k="ssr:stedsnr" v="1016225" />
		<tag k="ssr:type" v="adressenavn" />
	</node>
	<node lat="61.05698439860274" lon="8.890182761542855" id="-45784">
		<tag k="name" v="Preststølvegen" />
		<tag k="ssr:date" v="2019-12-27" />
		<tag k="ssr:gruppe" v="veg" />
		<tag k="ssr:hovedgruppe" v="infrastruktur" />
		<tag k="ssr:stedsnr" v="1016229" />
		<tag k="ssr:type" v="adressenavn" />
	</node>
	<node lat="61.05308037365908" lon="8.900724144197843" id="-45785">
		<tag k="name" v="Briskehaugen" />
		<tag k="ssr:date" v="2019-12-27" />
		<tag k="ssr:gruppe" v="veg" />
		<tag k="ssr:hovedgruppe" v="infrastruktur" />
		<tag k="ssr:stedsnr" v="1016233" />
		<tag k="ssr:type" v="adressenavn" />
	</node>
	<node lat="61.07356240652708" lon="8.873163018299463" id="-45786">
		<tag k="name" v="Fiskeløysvegen" />
		<tag k="ssr:date" v="2019-12-27" />
		<tag k="ssr:gruppe" v="veg" />
		<tag k="ssr:hovedgruppe" v="infrastruktur" />
		<tag k="ssr:stedsnr" v="1016287" />
		<tag k="ssr:type" v="adressenavn" />
	</node>
	<node lat="61.07440886687558" lon="8.892352870623695" id="-45787">
		<tag k="name" v="Gamle Preststølvegen" />
		<tag k="ssr:date" v="2019-12-27" />
		<tag k="ssr:gruppe" v="veg" />
		<tag k="ssr:hovedgruppe" v="infrastruktur" />
		<tag k="ssr:stedsnr" v="1016293" />
		<tag k="ssr:type" v="adressenavn" />
	</node>
	<node lat="61.07323227294818" lon="8.887151441104633" id="-45788">
		<tag k="name" v="Fjellbandvegen" />
		<tag k="ssr:date" v="2019-12-27" />
		<tag k="ssr:gruppe" v="veg" />
		<tag k="ssr:hovedgruppe" v="infrastruktur" />
		<tag k="ssr:stedsnr" v="1016301" />
		<tag k="ssr:type" v="adressenavn" />
	</node>
	<node lat="61.04699315681707" lon="8.871402991869587" id="-45789">
		<tag k="name" v="Bjørkehaugen" />
		<tag k="ssr:date" v="2019-12-27" />
		<tag k="ssr:gruppe" v="veg" />
		<tag k="ssr:hovedgruppe" v="infrastruktur" />
		<tag k="ssr:stedsnr" v="1016314" />
		<tag k="ssr:type" v="adressenavn" />
	</node>
	<node lat="61.049016617354084" lon="8.863940144521147" id="-45790">
		<tag k="name" v="Liastølvegen" />
		<tag k="ssr:date" v="2019-12-27" />
		<tag k="ssr:gruppe" v="veg" />
		<tag k="ssr:hovedgruppe" v="infrastruktur" />
		<tag k="ssr:stedsnr" v="1016320" />
		<tag k="ssr:type" v="adressenavn" />
	</node>
	<node lat="61.0733233086781" lon="8.89530523670502" id="-45791">
		<tag k="name" v="Synsvegen" />
		<tag k="ssr:date" v="2019-12-27" />
		<tag k="ssr:gruppe" v="veg" />
		<tag k="ssr:hovedgruppe" v="infrastruktur" />
		<tag k="ssr:stedsnr" v="1016324" />
		<tag k="ssr:type" v="adressenavn" />
	</node>
	<node lat="61.06859381716717" lon="8.900761569494241" id="-45792">
		<tag k="name" v="Gråsetvegen" />
		<tag k="ssr:date" v="2019-12-27" />
		<tag k="ssr:gruppe" v="veg" />
		<tag k="ssr:hovedgruppe" v="infrastruktur" />
		<tag k="ssr:stedsnr" v="1016332" />
		<tag k="ssr:type" v="adressenavn" />
	</node>
	<node lat="61.124321385191266" lon="8.828869533318882" id="-45793">
		<tag k="name" v="Høymisvegen" />
		<tag k="ssr:date" v="2019-12-27" />
		<tag k="ssr:gruppe" v="veg" />
		<tag k="ssr:hovedgruppe" v="infrastruktur" />
		<tag k="ssr:stedsnr" v="1016439" />
		<tag k="ssr:type" v="adressenavn" />
	</node>
	<node lat="61.029326221164325" lon="8.94587824563247" id="-45794">
		<tag k="name" v="Øvre Høyset" />
		<tag k="ssr:date" v="2019-12-27" />
		<tag k="ssr:gruppe" v="veg" />
		<tag k="ssr:hovedgruppe" v="infrastruktur" />
		<tag k="ssr:stedsnr" v="1016142" />
		<tag k="ssr:type" v="adressenavn" />
	</node>
	<node lat="61.02874353078357" lon="8.943878181261175" id="-45795">
		<tag k="name" v="Høllavegen" />
		<tag k="ssr:date" v="2019-12-27" />
		<tag k="ssr:gruppe" v="veg" />
		<tag k="ssr:hovedgruppe" v="infrastruktur" />
		<tag k="ssr:stedsnr" v="1016146" />
		<tag k="ssr:type" v="adressenavn" />
	</node>
	<node lat="61.02845733311474" lon="8.928577198992786" id="-45796">
		<tag k="name" v="Mørkavegen" />
		<tag k="ssr:date" v="2019-12-27" />
		<tag k="ssr:gruppe" v="veg" />
		<tag k="ssr:hovedgruppe" v="infrastruktur" />
		<tag k="ssr:stedsnr" v="1016149" />
		<tag k="ssr:type" v="adressenavn" />
	</node>
	<node lat="61.03859974018679" lon="8.917057221656115" id="-45797">
		<tag k="name" v="Sisselsetvegen" />
		<tag k="ssr:date" v="2019-12-27" />
		<tag k="ssr:gruppe" v="veg" />
		<tag k="ssr:hovedgruppe" v="infrastruktur" />
		<tag k="ssr:stedsnr" v="1016152" />
		<tag k="ssr:type" v="adressenavn" />
	</node>
	<node lat="61.03807261618172" lon="8.954249475661328" id="-45798">
		<tag k="name" v="Jensevegen" />
		<tag k="ssr:date" v="2019-12-27" />
		<tag k="ssr:gruppe" v="veg" />
		<tag k="ssr:hovedgruppe" v="infrastruktur" />
		<tag k="ssr:stedsnr" v="1016156" />
		<tag k="ssr:type" v="adressenavn" />
	</node>
	<node lat="61.03952479122452" lon="8.951391145748307" id="-45799">
		<tag k="name" v="Harevegen" />
		<tag k="ssr:date" v="2019-12-27" />
		<tag k="ssr:gruppe" v="veg" />
		<tag k="ssr:hovedgruppe" v="infrastruktur" />
		<tag k="ssr:stedsnr" v="1016160" />
		<tag k="ssr:type" v="adressenavn" />
	</node>
	<node lat="61.0373205367787" lon="8.953189350255942" id="-45800">
		<tag k="name" v="Bakkesvingen" />
		<tag k="ssr:date" v="2019-12-27" />
		<tag k="ssr:gruppe" v="veg" />
		<tag k="ssr:hovedgruppe" v="infrastruktur" />
		<tag k="ssr:stedsnr" v="1016165" />
		<tag k="ssr:type" v="adressenavn" />
	</node>
	<node lat="61.03774928660449" lon="8.953588835848986" id="-45801">
		<tag k="name" v="Landsrudvegen" />
		<tag k="ssr:date" v="2019-12-27" />
		<tag k="ssr:gruppe" v="veg" />
		<tag k="ssr:hovedgruppe" v="infrastruktur" />
		<tag k="ssr:stedsnr" v="1016168" />
		<tag k="ssr:type" v="adressenavn" />
	</node>
	<node lat="61.04355040287613" lon="8.913317118935614" id="-45802">
		<tag k="name" v="Knippesethøgde" />
		<tag k="ssr:date" v="2019-12-27" />
		<tag k="ssr:gruppe" v="veg" />
		<tag k="ssr:hovedgruppe" v="infrastruktur" />
		<tag k="ssr:stedsnr" v="1016172" />
		<tag k="ssr:type" v="adressenavn" />
	</node>
	<node lat="61.03975928348365" lon="8.951067062661979" id="-45803">
		<tag k="name" v="Skrøvikvegen" />
		<tag k="ssr:date" v="2019-12-27" />
		<tag k="ssr:gruppe" v="veg" />
		<tag k="ssr:hovedgruppe" v="infrastruktur" />
		<tag k="ssr:stedsnr" v="1016178" />
		<tag k="ssr:type" v="adressenavn" />
	</node>
	<node lat="61.041241560288015" lon="8.948008444287165" id="-45804">
		<tag k="name" v="Dalbøvegen" />
		<tag k="ssr:date" v="2019-12-27" />
		<tag k="ssr:gruppe" v="veg" />
		<tag k="ssr:hovedgruppe" v="infrastruktur" />
		<tag k="ssr:stedsnr" v="1016181" />
		<tag k="ssr:type" v="adressenavn" />
	</node>
	<node lat="61.050302042377794" lon="8.914856379238085" id="-45805">
		<tag k="name" v="Vikavegen" />
		<tag k="ssr:date" v="2019-12-27" />
		<tag k="ssr:gruppe" v="veg" />
		<tag k="ssr:hovedgruppe" v="infrastruktur" />
		<tag k="ssr:stedsnr" v="1016242" />
		<tag k="ssr:type" v="adressenavn" />
	</node>
	<node lat="61.051883682070944" lon="8.888538574072113" id="-45806">
		<tag k="name" v="Lehøvdbakkin" />
		<tag k="ssr:date" v="2019-12-27" />
		<tag k="ssr:gruppe" v="veg" />
		<tag k="ssr:hovedgruppe" v="infrastruktur" />
		<tag k="ssr:stedsnr" v="1016248" />
		<tag k="ssr:type" v="adressenavn" />
	</node>
	<node lat="61.05170399583731" lon="8.902246898057543" id="-45807">
		<tag k="name" v="Lehøvdlivegen" />
		<tag k="ssr:date" v="2019-12-27" />
		<tag k="ssr:gruppe" v="veg" />
		<tag k="ssr:hovedgruppe" v="infrastruktur" />
		<tag k="ssr:stedsnr" v="1016255" />
		<tag k="ssr:type" v="adressenavn" />
	</node>
	<node lat="61.04825013914169" lon="8.90009005351234" id="-45808">
		<tag k="name" v="Engvegen" />
		<tag k="ssr:date" v="2019-12-27" />
		<tag k="ssr:gruppe" v="veg" />
		<tag k="ssr:hovedgruppe" v="infrastruktur" />
		<tag k="ssr:stedsnr" v="1016260" />
		<tag k="ssr:type" v="adressenavn" />
	</node>
	<node lat="61.046167338724054" lon="8.894987499737283" id="-45809">
		<tag k="name" v="Langehaugvegen" />
		<tag k="ssr:date" v="2019-12-27" />
		<tag k="ssr:gruppe" v="veg" />
		<tag k="ssr:hovedgruppe" v="infrastruktur" />
		<tag k="ssr:stedsnr" v="1016264" />
		<tag k="ssr:type" v="adressenavn" />
	</node>
	<node lat="61.070553971012494" lon="8.878603342503709" id="-45810">
		<tag k="name" v="Utsiktsbakkin" />
		<tag k="ssr:date" v="2019-12-27" />
		<tag k="ssr:gruppe" v="veg" />
		<tag k="ssr:hovedgruppe" v="infrastruktur" />
		<tag k="ssr:stedsnr" v="1016268" />
		<tag k="ssr:type" v="adressenavn" />
	</node>
	<node lat="61.07143045431111" lon="8.885978312765324" id="-45811">
		<tag k="name" v="Nedre Vikvegen" />
		<tag k="ssr:date" v="2019-12-27" />
		<tag k="ssr:gruppe" v="veg" />
		<tag k="ssr:hovedgruppe" v="infrastruktur" />
		<tag k="ssr:stedsnr" v="1016273" />
		<tag k="ssr:type" v="adressenavn" />
	</node>
	<node lat="61.07859488759496" lon="8.858668911021802" id="-45812">
		<tag k="name" v="Haugsvegen" />
		<tag k="ssr:date" v="2019-12-27" />
		<tag k="ssr:gruppe" v="veg" />
		<tag k="ssr:hovedgruppe" v="infrastruktur" />
		<tag k="ssr:stedsnr" v="1016278" />
		<tag k="ssr:type" v="adressenavn" />
	</node>
	<node lat="61.07969276212058" lon="8.853678956020758" id="-45813">
		<tag k="name" v="Fjellstølvegen" />
		<tag k="ssr:date" v="2019-12-27" />
		<tag k="ssr:gruppe" v="veg" />
		<tag k="ssr:hovedgruppe" v="infrastruktur" />
		<tag k="ssr:stedsnr" v="1016283" />
		<tag k="ssr:type" v="adressenavn" />
	</node>
	<node lat="60.9931587848709" lon="8.990874471022346" id="-45814">
		<tag k="name" v="Køta" />
		<tag k="ssr:date" v="2019-12-27" />
		<tag k="ssr:gruppe" v="veg" />
		<tag k="ssr:hovedgruppe" v="infrastruktur" />
		<tag k="ssr:stedsnr" v="1016373" />
		<tag k="ssr:type" v="adressenavn" />
	</node>
	<node lat="61.023364566605245" lon="8.937201109902821" id="-45815">
		<tag k="name" v="Høyset" />
		<tag k="ssr:date" v="2019-12-27" />
		<tag k="ssr:gruppe" v="veg" />
		<tag k="ssr:hovedgruppe" v="infrastruktur" />
		<tag k="ssr:stedsnr" v="1016377" />
		<tag k="ssr:type" v="adressenavn" />
	</node>
	<node lat="60.988252824549406" lon="8.973373282986191" id="-45816">
		<tag k="name" v="Vasetlia grendehytter" />
		<tag k="ssr:date" v="2019-12-27" />
		<tag k="ssr:gruppe" v="veg" />
		<tag k="ssr:hovedgruppe" v="infrastruktur" />
		<tag k="ssr:stedsnr" v="1016399" />
		<tag k="ssr:type" v="adressenavn" />
	</node>
	<node lat="61.07053007539925" lon="8.986976176414313" id="-45817">
		<tag k="name" v="Geiteskallin" />
		<tag k="ssr:date" v="2019-12-27" />
		<tag k="ssr:gruppe" v="veg" />
		<tag k="ssr:hovedgruppe" v="infrastruktur" />
		<tag k="ssr:stedsnr" v="1016408" />
		<tag k="ssr:type" v="adressenavn" />
	</node>
	<node lat="61.065830663872504" lon="8.778709842694997" id="-45818">
		<tag k="name" v="Øvre Ristestølvegen" />
		<tag k="ssr:date" v="2019-12-27" />
		<tag k="ssr:gruppe" v="veg" />
		<tag k="ssr:hovedgruppe" v="infrastruktur" />
		<tag k="ssr:stedsnr" v="1016418" />
		<tag k="ssr:type" v="adressenavn" />
	</node>
	<node lat="60.98258844781293" lon="8.985455148394895" id="-45819">
		<tag k="name" v="Huldervegen" />
		<tag k="ssr:date" v="2019-12-27" />
		<tag k="ssr:gruppe" v="veg" />
		<tag k="ssr:hovedgruppe" v="infrastruktur" />
		<tag k="ssr:stedsnr" v="1016421" />
		<tag k="ssr:type" v="adressenavn" />
	</node>
	<node lat="60.979711966804224" lon="8.980817281339586" id="-45820">
		<tag k="name" v="Prøvastølvegen" />
		<tag k="ssr:date" v="2019-12-27" />
		<tag k="ssr:gruppe" v="veg" />
		<tag k="ssr:hovedgruppe" v="infrastruktur" />
		<tag k="ssr:stedsnr" v="1016425" />
		<tag k="ssr:type" v="adressenavn" />
	</node>
	<node lat="60.97359526670707" lon="8.930826614907511" id="-45821">
		<tag k="name" v="Flyinvegen" />
		<tag k="ssr:date" v="2019-12-27" />
		<tag k="ssr:gruppe" v="veg" />
		<tag k="ssr:hovedgruppe" v="infrastruktur" />
		<tag k="ssr:stedsnr" v="1016430" />
		<tag k="ssr:type" v="adressenavn" />
	</node>
	<node lat="60.94931946640263" lon="8.865900086642334" id="-45822">
		<tag k="name" v="Slettebergvegen" />
		<tag k="ssr:date" v="2019-12-27" />
		<tag k="ssr:gruppe" v="veg" />
		<tag k="ssr:hovedgruppe" v="infrastruktur" />
		<tag k="ssr:stedsnr" v="1016434" />
		<tag k="ssr:type" v="adressenavn" />
	</node>
	<node lat="60.98846310544959" lon="8.986726512723076" id="-45823">
		<tag k="name" v="Stubben" />
		<tag k="ssr:date" v="2019-12-27" />
		<tag k="ssr:gruppe" v="veg" />
		<tag k="ssr:hovedgruppe" v="infrastruktur" />
		<tag k="ssr:stedsnr" v="1016489" />
		<tag k="ssr:type" v="adressenavn" />
	</node>
	<node lat="60.975583300781764" lon="8.80354310911909" id="-45824">
		<tag k="name" v="Jarstadstølvegen" />
		<tag k="ssr:date" v="2019-12-27" />
		<tag k="ssr:gruppe" v="veg" />
		<tag k="ssr:hovedgruppe" v="infrastruktur" />
		<tag k="ssr:stedsnr" v="1016494" />
		<tag k="ssr:type" v="adressenavn" />
	</node>
	<node lat="61.00600006385635" lon="8.807064146105953" id="-45825">
		<tag k="name" v="Grønsennvegen" />
		<tag k="ssr:date" v="2019-12-27" />
		<tag k="ssr:gruppe" v="veg" />
		<tag k="ssr:hovedgruppe" v="infrastruktur" />
		<tag k="ssr:stedsnr" v="1016499" />
		<tag k="ssr:type" v="adressenavn" />
	</node>
	<node lat="60.91237852057836" lon="8.879934097280007" id="-45826">
		<tag k="name" v="Gamle Flyinvegen" />
		<tag k="ssr:date" v="2019-12-27" />
		<tag k="ssr:gruppe" v="veg" />
		<tag k="ssr:hovedgruppe" v="infrastruktur" />
		<tag k="ssr:stedsnr" v="1016444" />
		<tag k="ssr:type" v="adressenavn" />
	</node>
	<node lat="60.89931443192458" lon="8.861959885884861" id="-45827">
		<tag k="name" v="Heilovegen" />
		<tag k="ssr:date" v="2019-12-27" />
		<tag k="ssr:gruppe" v="veg" />
		<tag k="ssr:hovedgruppe" v="infrastruktur" />
		<tag k="ssr:stedsnr" v="1016447" />
		<tag k="ssr:type" v="adressenavn" />
	</node>
	<node lat="60.90230850630868" lon="8.859496426437111" id="-45828">
		<tag k="name" v="Rislie" />
		<tag k="ssr:date" v="2019-12-27" />
		<tag k="ssr:gruppe" v="veg" />
		<tag k="ssr:hovedgruppe" v="infrastruktur" />
		<tag k="ssr:stedsnr" v="1016452" />
		<tag k="ssr:type" v="adressenavn" />
	</node>
	<node lat="60.948334062573394" lon="8.86798456327602" id="-45829">
		<tag k="name" v="Øvre Nøse" />
		<tag k="ssr:date" v="2019-12-27" />
		<tag k="ssr:gruppe" v="veg" />
		<tag k="ssr:hovedgruppe" v="infrastruktur" />
		<tag k="ssr:stedsnr" v="1016457" />
		<tag k="ssr:type" v="adressenavn" />
	</node>
	<node lat="60.94063208125721" lon="8.84902039177751" id="-45830">
		<tag k="name" v="Nøsasvingen" />
		<tag k="ssr:date" v="2019-12-27" />
		<tag k="ssr:gruppe" v="veg" />
		<tag k="ssr:hovedgruppe" v="infrastruktur" />
		<tag k="ssr:stedsnr" v="1016461" />
		<tag k="ssr:type" v="adressenavn" />
	</node>
	<node lat="60.9093788426951" lon="8.847022761733923" id="-45831">
		<tag k="name" v="Lykkjestølvegen" />
		<tag k="ssr:date" v="2019-12-27" />
		<tag k="ssr:gruppe" v="veg" />
		<tag k="ssr:hovedgruppe" v="infrastruktur" />
		<tag k="ssr:stedsnr" v="1016465" />
		<tag k="ssr:type" v="adressenavn" />
	</node>
	<node lat="60.91398518834107" lon="8.831591881934083" id="-45832">
		<tag k="name" v="Fauskehaugen" />
		<tag k="ssr:date" v="2019-12-27" />
		<tag k="ssr:gruppe" v="veg" />
		<tag k="ssr:hovedgruppe" v="infrastruktur" />
		<tag k="ssr:stedsnr" v="1016470" />
		<tag k="ssr:type" v="adressenavn" />
	</node>
	<node lat="60.91398518834107" lon="8.831591881934083" id="-45833">
		<tag k="name" v="Ørnestigen" />
		<tag k="ssr:date" v="2019-12-27" />
		<tag k="ssr:gruppe" v="veg" />
		<tag k="ssr:hovedgruppe" v="infrastruktur" />
		<tag k="ssr:stedsnr" v="1016474" />
		<tag k="ssr:type" v="adressenavn" />
	</node>
	<node lat="60.91249323266139" lon="8.840906864020559" id="-45834">
		<tag k="name" v="Rupevegen" />
		<tag k="ssr:date" v="2019-12-27" />
		<tag k="ssr:gruppe" v="veg" />
		<tag k="ssr:hovedgruppe" v="infrastruktur" />
		<tag k="ssr:stedsnr" v="1016479" />
		<tag k="ssr:type" v="adressenavn" />
	</node>
	<node lat="61.026505743349794" lon="8.86762689671354" id="-45835">
		<tag k="name" v="Lomtjednvegen" />
		<tag k="ssr:date" v="2019-12-27" />
		<tag k="ssr:gruppe" v="veg" />
		<tag k="ssr:hovedgruppe" v="infrastruktur" />
		<tag k="ssr:stedsnr" v="1016483" />
		<tag k="ssr:type" v="adressenavn" />
	</node>
	<node lat="60.984482006996274" lon="8.983191614808732" id="-45836">
		<tag k="name" v="Gamlevegen" />
		<tag k="ssr:date" v="2019-12-27" />
		<tag k="ssr:gruppe" v="veg" />
		<tag k="ssr:hovedgruppe" v="infrastruktur" />
		<tag k="ssr:stedsnr" v="1016537" />
		<tag k="ssr:type" v="adressenavn" />
	</node>
	<node lat="60.98622308243874" lon="8.962354370734479" id="-45837">
		<tag k="name" v="Hallestøllie" />
		<tag k="ssr:date" v="2019-12-27" />
		<tag k="ssr:gruppe" v="veg" />
		<tag k="ssr:hovedgruppe" v="infrastruktur" />
		<tag k="ssr:stedsnr" v="1016542" />
		<tag k="ssr:type" v="adressenavn" />
	</node>
	<node lat="60.98564202608144" lon="8.974111150369417" id="-45838">
		<tag k="name" v="Tubbelie" />
		<tag k="ssr:date" v="2019-12-27" />
		<tag k="ssr:gruppe" v="veg" />
		<tag k="ssr:hovedgruppe" v="infrastruktur" />
		<tag k="ssr:stedsnr" v="1016549" />
		<tag k="ssr:type" v="adressenavn" />
	</node>
	<node lat="60.9895324789842" lon="8.974274166593974" id="-45839">
		<tag k="name" v="Vasetlivegen" />
		<tag k="ssr:date" v="2019-12-27" />
		<tag k="ssr:gruppe" v="veg" />
		<tag k="ssr:hovedgruppe" v="infrastruktur" />
		<tag k="ssr:stedsnr" v="1016555" />
		<tag k="ssr:type" v="adressenavn" />
	</node>
	<node lat="60.992275594323864" lon="8.970965989143034" id="-45840">
		<tag k="name" v="Tytebærstigen" />
		<tag k="ssr:date" v="2019-12-27" />
		<tag k="ssr:gruppe" v="veg" />
		<tag k="ssr:hovedgruppe" v="infrastruktur" />
		<tag k="ssr:stedsnr" v="1016558" />
		<tag k="ssr:type" v="adressenavn" />
	</node>
	<node lat="61.00248759921845" lon="9.009213206529239" id="-45841">
		<tag k="name" v="Elvebakkin" />
		<tag k="ssr:date" v="2019-12-27" />
		<tag k="ssr:gruppe" v="veg" />
		<tag k="ssr:hovedgruppe" v="infrastruktur" />
		<tag k="ssr:stedsnr" v="1016561" />
		<tag k="ssr:type" v="adressenavn" />
	</node>
	<node lat="60.99372808536197" lon="8.976337396226981" id="-45842">
		<tag k="name" v="Sandhaugvegen" />
		<tag k="ssr:date" v="2019-12-27" />
		<tag k="ssr:gruppe" v="veg" />
		<tag k="ssr:hovedgruppe" v="infrastruktur" />
		<tag k="ssr:stedsnr" v="1016565" />
		<tag k="ssr:type" v="adressenavn" />
	</node>
	<node lat="60.99089957768313" lon="8.990815120351304" id="-45843">
		<tag k="name" v="Båtånlie" />
		<tag k="ssr:date" v="2019-12-27" />
		<tag k="ssr:gruppe" v="veg" />
		<tag k="ssr:hovedgruppe" v="infrastruktur" />
		<tag k="ssr:stedsnr" v="1016570" />
		<tag k="ssr:type" v="adressenavn" />
	</node>
	<node lat="60.989974800109835" lon="8.994697694467726" id="-45844">
		<tag k="name" v="Tildheimstubben" />
		<tag k="ssr:date" v="2019-12-27" />
		<tag k="ssr:gruppe" v="veg" />
		<tag k="ssr:hovedgruppe" v="infrastruktur" />
		<tag k="ssr:stedsnr" v="1016574" />
		<tag k="ssr:type" v="adressenavn" />
	</node>
	<node lat="61.006984626347034" lon="9.012393044930349" id="-45845">
		<tag k="name" v="Kallhaugvegen" />
		<tag k="ssr:date" v="2019-12-27" />
		<tag k="ssr:gruppe" v="veg" />
		<tag k="ssr:hovedgruppe" v="infrastruktur" />
		<tag k="ssr:stedsnr" v="1016584" />
		<tag k="ssr:type" v="adressenavn" />
	</node>
	<node lat="61.17143145714329" lon="8.869310831189022" id="-45846">
		<tag k="name" v="Raudalsvegen" />
		<tag k="ssr:date" v="2019-12-27" />
		<tag k="ssr:gruppe" v="veg" />
		<tag k="ssr:hovedgruppe" v="infrastruktur" />
		<tag k="ssr:stedsnr" v="1016637" />
		<tag k="ssr:type" v="adressenavn" />
	</node>
	<node lat="61.1592206870826" lon="8.894730003301659" id="-45847">
		<tag k="name" v="Lomislivegen" />
		<tag k="ssr:date" v="2019-12-27" />
		<tag k="ssr:gruppe" v="veg" />
		<tag k="ssr:hovedgruppe" v="infrastruktur" />
		<tag k="ssr:stedsnr" v="1016643" />
		<tag k="ssr:type" v="adressenavn" />
	</node>
	<node lat="60.98917379495427" lon="8.988664160495604" id="-45848">
		<tag k="name" v="Stubbesetmyre" />
		<tag k="ssr:date" v="2019-12-27" />
		<tag k="ssr:gruppe" v="veg" />
		<tag k="ssr:hovedgruppe" v="infrastruktur" />
		<tag k="ssr:stedsnr" v="1016504" />
		<tag k="ssr:type" v="adressenavn" />
	</node>
	<node lat="60.989539946065946" lon="8.991540122336637" id="-45849">
		<tag k="name" v="Stubbesetlie" />
		<tag k="ssr:date" v="2019-12-27" />
		<tag k="ssr:gruppe" v="veg" />
		<tag k="ssr:hovedgruppe" v="infrastruktur" />
		<tag k="ssr:stedsnr" v="1016508" />
		<tag k="ssr:type" v="adressenavn" />
	</node>
	<node lat="60.985801920470344" lon="8.983675726741506" id="-45850">
		<tag k="name" v="Stubbesethøgde" />
		<tag k="ssr:date" v="2019-12-27" />
		<tag k="ssr:gruppe" v="veg" />
		<tag k="ssr:hovedgruppe" v="infrastruktur" />
		<tag k="ssr:stedsnr" v="1016513" />
		<tag k="ssr:type" v="adressenavn" />
	</node>
	<node lat="60.98877480626146" lon="8.987534922874133" id="-45851">
		<tag k="name" v="Stubbesetkroken" />
		<tag k="ssr:date" v="2019-12-27" />
		<tag k="ssr:gruppe" v="veg" />
		<tag k="ssr:hovedgruppe" v="infrastruktur" />
		<tag k="ssr:stedsnr" v="1016518" />
		<tag k="ssr:type" v="adressenavn" />
	</node>
	<node lat="60.98513689863284" lon="8.985152714827915" id="-45852">
		<tag k="name" v="Saubekkvegen" />
		<tag k="ssr:date" v="2019-12-27" />
		<tag k="ssr:gruppe" v="veg" />
		<tag k="ssr:hovedgruppe" v="infrastruktur" />
		<tag k="ssr:stedsnr" v="1016524" />
		<tag k="ssr:type" v="adressenavn" />
	</node>
	<node lat="60.98281817421367" lon="8.975669631634458" id="-45853">
		<tag k="name" v="Jødnvegen" />
		<tag k="ssr:date" v="2019-12-27" />
		<tag k="ssr:gruppe" v="veg" />
		<tag k="ssr:hovedgruppe" v="infrastruktur" />
		<tag k="ssr:stedsnr" v="1016528" />
		<tag k="ssr:type" v="adressenavn" />
	</node>
	<node lat="60.991402557570616" lon="8.990698284834462" id="-45854">
		<tag k="name" v="Stubbesetflata" />
		<tag k="ssr:date" v="2019-12-27" />
		<tag k="ssr:gruppe" v="veg" />
		<tag k="ssr:hovedgruppe" v="infrastruktur" />
		<tag k="ssr:stedsnr" v="1016532" />
		<tag k="ssr:type" v="adressenavn" />
	</node>
	<node lat="61.00646557647904" lon="9.009541997472574" id="-45855">
		<tag k="name" v="Vesleånvegen" />
		<tag k="ssr:date" v="2019-12-27" />
		<tag k="ssr:gruppe" v="veg" />
		<tag k="ssr:hovedgruppe" v="infrastruktur" />
		<tag k="ssr:stedsnr" v="1016587" />
		<tag k="ssr:type" v="adressenavn" />
	</node>
	<node lat="60.98913373791625" lon="8.992097394808201" id="-45856">
		<tag k="name" v="Tildheimvegen" />
		<tag k="ssr:date" v="2019-12-27" />
		<tag k="ssr:gruppe" v="veg" />
		<tag k="ssr:hovedgruppe" v="infrastruktur" />
		<tag k="ssr:stedsnr" v="1016590" />
		<tag k="ssr:type" v="adressenavn" />
	</node>
	<node lat="60.995271415218205" lon="8.986146971269894" id="-45857">
		<tag k="name" v="Båtånvegen" />
		<tag k="ssr:date" v="2019-12-27" />
		<tag k="ssr:gruppe" v="veg" />
		<tag k="ssr:hovedgruppe" v="infrastruktur" />
		<tag k="ssr:stedsnr" v="1016593" />
		<tag k="ssr:type" v="adressenavn" />
	</node>
	<node lat="61.02975509952943" lon="8.883233389529948" id="-45858">
		<tag k="name" v="Jaslangvegen" />
		<tag k="ssr:date" v="2019-12-27" />
		<tag k="ssr:gruppe" v="veg" />
		<tag k="ssr:hovedgruppe" v="infrastruktur" />
		<tag k="ssr:stedsnr" v="1016597" />
		<tag k="ssr:type" v="adressenavn" />
	</node>
	<node lat="60.98545474421559" lon="8.957781550973035" id="-45859">
		<tag k="name" v="Bjødnhøvdvegen" />
		<tag k="ssr:date" v="2019-12-27" />
		<tag k="ssr:gruppe" v="veg" />
		<tag k="ssr:hovedgruppe" v="infrastruktur" />
		<tag k="ssr:stedsnr" v="1016602" />
		<tag k="ssr:type" v="adressenavn" />
	</node>
	<node lat="60.951482450337515" lon="8.922806365328277" id="-45860">
		<tag k="name" v="Kinnhøltvegen" />
		<tag k="ssr:date" v="2019-12-27" />
		<tag k="ssr:gruppe" v="veg" />
		<tag k="ssr:hovedgruppe" v="infrastruktur" />
		<tag k="ssr:stedsnr" v="1016608" />
		<tag k="ssr:type" v="adressenavn" />
	</node>
	<node lat="60.96938373220211" lon="8.7992157245112" id="-45861">
		<tag k="name" v="Grunkevegen" />
		<tag k="ssr:date" v="2019-12-27" />
		<tag k="ssr:gruppe" v="veg" />
		<tag k="ssr:hovedgruppe" v="infrastruktur" />
		<tag k="ssr:stedsnr" v="1016614" />
		<tag k="ssr:type" v="adressenavn" />
	</node>
	<node lat="61.09041765830988" lon="8.738194560465521" id="-45862">
		<tag k="name" v="Kviissyndin" />
		<tag k="ssr:date" v="2019-12-27" />
		<tag k="ssr:gruppe" v="veg" />
		<tag k="ssr:hovedgruppe" v="infrastruktur" />
		<tag k="ssr:stedsnr" v="1016619" />
		<tag k="ssr:type" v="adressenavn" />
	</node>
	<node lat="60.90803649115923" lon="8.881241064924097" id="-45863">
		<tag k="name" v="Tisleivegen" />
		<tag k="ssr:date" v="2019-12-27" />
		<tag k="ssr:gruppe" v="veg" />
		<tag k="ssr:hovedgruppe" v="infrastruktur" />
		<tag k="ssr:stedsnr" v="1016624" />
		<tag k="ssr:type" v="adressenavn" />
	</node>
	<node lat="61.06393063396939" lon="9.028422923972824" id="-45864">
		<tag k="name" v="Reiesvegen" />
		<tag k="ssr:date" v="2019-12-27" />
		<tag k="ssr:gruppe" v="veg" />
		<tag k="ssr:hovedgruppe" v="infrastruktur" />
		<tag k="ssr:stedsnr" v="1016631" />
		<tag k="ssr:type" v="adressenavn" />
	</node>
	<node lat="61.036201241212105" lon="9.16506494651979" id="-45865">
		<tag k="name" v="Høvsvegen" />
		<tag k="ssr:date" v="2019-12-27" />
		<tag k="ssr:gruppe" v="veg" />
		<tag k="ssr:hovedgruppe" v="infrastruktur" />
		<tag k="ssr:stedsnr" v="1016686" />
		<tag k="ssr:type" v="adressenavn" />
	</node>
	<node lat="61.04371343003928" lon="9.060590238888322" id="-45866">
		<tag k="name" v="Grefsrudvegen" />
		<tag k="ssr:date" v="2019-12-27" />
		<tag k="ssr:gruppe" v="veg" />
		<tag k="ssr:hovedgruppe" v="infrastruktur" />
		<tag k="ssr:stedsnr" v="1016692" />
		<tag k="ssr:type" v="adressenavn" />
	</node>
	<node lat="61.12899031825452" lon="8.939881210799363" id="-45867">
		<tag k="name" v="Hagagoto" />
		<tag k="ssr:date" v="2019-12-27" />
		<tag k="ssr:gruppe" v="veg" />
		<tag k="ssr:hovedgruppe" v="infrastruktur" />
		<tag k="ssr:stedsnr" v="1016699" />
		<tag k="ssr:type" v="adressenavn" />
	</node>
	<node lat="61.06604493240883" lon="9.020283156333244" id="-45868">
		<tag k="name" v="Handevegen" />
		<tag k="ssr:date" v="2019-12-27" />
		<tag k="ssr:gruppe" v="veg" />
		<tag k="ssr:hovedgruppe" v="infrastruktur" />
		<tag k="ssr:stedsnr" v="1016705" />
		<tag k="ssr:type" v="adressenavn" />
	</node>
	<node lat="60.995580272351155" lon="8.987910214387016" id="-45869">
		<tag k="name" v="Knippesetvegen" />
		<tag k="ssr:date" v="2019-12-27" />
		<tag k="ssr:gruppe" v="veg" />
		<tag k="ssr:hovedgruppe" v="infrastruktur" />
		<tag k="ssr:stedsnr" v="1016648" />
		<tag k="ssr:type" v="adressenavn" />
	</node>
	<node lat="60.99010356312513" lon="8.973939469963144" id="-45870">
		<tag k="name" v="Valtjednvegen" />
		<tag k="ssr:date" v="2019-12-27" />
		<tag k="ssr:gruppe" v="veg" />
		<tag k="ssr:hovedgruppe" v="infrastruktur" />
		<tag k="ssr:stedsnr" v="1016653" />
		<tag k="ssr:type" v="adressenavn" />
	</node>
	<node lat="61.01584137226656" lon="8.912007492879566" id="-45871">
		<tag k="name" v="Krokånvegen" />
		<tag k="ssr:date" v="2019-12-27" />
		<tag k="ssr:gruppe" v="veg" />
		<tag k="ssr:hovedgruppe" v="infrastruktur" />
		<tag k="ssr:stedsnr" v="1016660" />
		<tag k="ssr:type" v="adressenavn" />
	</node>
	<node lat="61.02975509952943" lon="8.883233389529948" id="-45872">
		<tag k="name" v="Haugrudvegen" />
		<tag k="ssr:date" v="2019-12-27" />
		<tag k="ssr:gruppe" v="veg" />
		<tag k="ssr:hovedgruppe" v="infrastruktur" />
		<tag k="ssr:stedsnr" v="1016666" />
		<tag k="ssr:type" v="adressenavn" />
	</node>
	<node lat="61.0640557124721" lon="8.992045373189399" id="-45873">
		<tag k="name" v="Svarvarvegen" />
		<tag k="ssr:date" v="2019-12-27" />
		<tag k="ssr:gruppe" v="veg" />
		<tag k="ssr:hovedgruppe" v="infrastruktur" />
		<tag k="ssr:stedsnr" v="1016675" />
		<tag k="ssr:type" v="adressenavn" />
	</node>
	<node lat="61.05891586615859" lon="9.001348321703727" id="-45874">
		<tag k="name" v="Jordheimsvegen" />
		<tag k="ssr:date" v="2019-12-27" />
		<tag k="ssr:gruppe" v="veg" />
		<tag k="ssr:hovedgruppe" v="infrastruktur" />
		<tag k="ssr:stedsnr" v="1016680" />
		<tag k="ssr:type" v="adressenavn" />
	</node>
	<node lat="61.131222841838756" lon="8.851058387902022" id="-45875">
		<tag k="name" v="Nordabergsvegen" />
		<tag k="ssr:date" v="2019-12-27" />
		<tag k="ssr:gruppe" v="veg" />
		<tag k="ssr:hovedgruppe" v="infrastruktur" />
		<tag k="ssr:stedsnr" v="1016736" />
		<tag k="ssr:type" v="adressenavn" />
	</node>
	<node lat="61.136173451968595" lon="8.823877333448417" id="-45876">
		<tag k="name" v="Industrivegen" />
		<tag k="ssr:date" v="2019-12-27" />
		<tag k="ssr:gruppe" v="veg" />
		<tag k="ssr:hovedgruppe" v="infrastruktur" />
		<tag k="ssr:stedsnr" v="1016742" />
		<tag k="ssr:type" v="adressenavn" />
	</node>
	<node lat="61.1327610971118" lon="8.829361499179292" id="-45877">
		<tag k="name" v="Kvednavegen" />
		<tag k="ssr:date" v="2019-12-27" />
		<tag k="ssr:gruppe" v="veg" />
		<tag k="ssr:hovedgruppe" v="infrastruktur" />
		<tag k="ssr:stedsnr" v="1016749" />
		<tag k="ssr:type" v="adressenavn" />
	</node>
	<node lat="61.118691519856846" lon="8.898403684975218" id="-45878">
		<tag k="name" v="Gardvikvegen" />
		<tag k="ssr:date" v="2019-12-27" />
		<tag k="ssr:gruppe" v="veg" />
		<tag k="ssr:hovedgruppe" v="infrastruktur" />
		<tag k="ssr:stedsnr" v="1016756" />
		<tag k="ssr:type" v="adressenavn" />
	</node>
	<node lat="61.11014341300209" lon="8.927274589259532" id="-45879">
		<tag k="name" v="Steinsvegen" />
		<tag k="ssr:date" v="2019-12-27" />
		<tag k="ssr:gruppe" v="veg" />
		<tag k="ssr:hovedgruppe" v="infrastruktur" />
		<tag k="ssr:stedsnr" v="1016761" />
		<tag k="ssr:type" v="adressenavn" />
	</node>
	<node lat="61.12875142745347" lon="8.848983574228447" id="-45880">
		<tag k="name" v="Haugovegen" />
		<tag k="ssr:date" v="2019-12-27" />
		<tag k="ssr:gruppe" v="veg" />
		<tag k="ssr:hovedgruppe" v="infrastruktur" />
		<tag k="ssr:stedsnr" v="1016766" />
		<tag k="ssr:type" v="adressenavn" />
	</node>
	<node lat="61.12213621272805" lon="8.857166155119426" id="-45881">
		<tag k="name" v="Kvislavegen" />
		<tag k="ssr:date" v="2019-12-27" />
		<tag k="ssr:gruppe" v="veg" />
		<tag k="ssr:hovedgruppe" v="infrastruktur" />
		<tag k="ssr:stedsnr" v="1016771" />
		<tag k="ssr:type" v="adressenavn" />
	</node>
	<node lat="61.05792165297441" lon="8.930513364697166" id="-45882">
		<tag k="name" v="Trillebakkadn" />
		<tag k="ssr:date" v="2019-12-27" />
		<tag k="ssr:gruppe" v="veg" />
		<tag k="ssr:hovedgruppe" v="infrastruktur" />
		<tag k="ssr:stedsnr" v="1016776" />
		<tag k="ssr:type" v="adressenavn" />
	</node>
	<node lat="61.049763696707714" lon="8.98832668574408" id="-45883">
		<tag k="name" v="Åsheimsvegen" />
		<tag k="ssr:date" v="2019-12-27" />
		<tag k="ssr:gruppe" v="veg" />
		<tag k="ssr:hovedgruppe" v="infrastruktur" />
		<tag k="ssr:stedsnr" v="1016781" />
		<tag k="ssr:type" v="adressenavn" />
	</node>
	<node lat="61.02655333026902" lon="9.047551346575391" id="-45884">
		<tag k="name" v="Brekkudn" />
		<tag k="ssr:date" v="2019-12-27" />
		<tag k="ssr:gruppe" v="veg" />
		<tag k="ssr:hovedgruppe" v="infrastruktur" />
		<tag k="ssr:stedsnr" v="1016836" />
		<tag k="ssr:type" v="adressenavn" />
	</node>
	<node lat="61.13520656072431" lon="8.885884696739137" id="-45885">
		<tag k="name" v="Lina" />
		<tag k="ssr:date" v="2019-12-27" />
		<tag k="ssr:gruppe" v="veg" />
		<tag k="ssr:hovedgruppe" v="infrastruktur" />
		<tag k="ssr:stedsnr" v="1016845" />
		<tag k="ssr:type" v="adressenavn" />
	</node>
	<node lat="61.13349171694056" lon="8.922884015237631" id="-45886">
		<tag k="name" v="Lomisgoto" />
		<tag k="ssr:date" v="2019-12-27" />
		<tag k="ssr:gruppe" v="veg" />
		<tag k="ssr:hovedgruppe" v="infrastruktur" />
		<tag k="ssr:stedsnr" v="1016849" />
		<tag k="ssr:type" v="adressenavn" />
	</node>
	<node lat="61.16892912422969" lon="8.868246503162856" id="-45887">
		<tag k="name" v="Eggeåsvegen" />
		<tag k="ssr:date" v="2019-12-27" />
		<tag k="ssr:gruppe" v="veg" />
		<tag k="ssr:hovedgruppe" v="infrastruktur" />
		<tag k="ssr:stedsnr" v="1016853" />
		<tag k="ssr:type" v="adressenavn" />
	</node>
	<node lat="61.04443795296409" lon="9.021737536181421" id="-45888">
		<tag k="name" v="Øyjarvegen" />
		<tag k="ssr:date" v="2019-12-27" />
		<tag k="ssr:gruppe" v="veg" />
		<tag k="ssr:hovedgruppe" v="infrastruktur" />
		<tag k="ssr:stedsnr" v="1016709" />
		<tag k="ssr:type" v="adressenavn" />
	</node>
	<node lat="61.10197448619935" lon="8.747726148711523" id="-45889">
		<tag k="name" v="Strøsvegen" />
		<tag k="ssr:date" v="2019-12-27" />
		<tag k="ssr:gruppe" v="veg" />
		<tag k="ssr:hovedgruppe" v="infrastruktur" />
		<tag k="ssr:stedsnr" v="1016714" />
		<tag k="ssr:type" v="adressenavn" />
	</node>
	<node lat="61.04976646650568" lon="9.055182243889622" id="-45890">
		<tag k="name" v="Snortheimsvegen" />
		<tag k="ssr:date" v="2019-12-27" />
		<tag k="ssr:gruppe" v="veg" />
		<tag k="ssr:hovedgruppe" v="infrastruktur" />
		<tag k="ssr:stedsnr" v="1016719" />
		<tag k="ssr:type" v="adressenavn" />
	</node>
	<node lat="61.03290250431241" lon="9.05486897435741" id="-45891">
		<tag k="name" v="Lundeskogen" />
		<tag k="ssr:date" v="2019-12-27" />
		<tag k="ssr:gruppe" v="veg" />
		<tag k="ssr:hovedgruppe" v="infrastruktur" />
		<tag k="ssr:stedsnr" v="1016724" />
		<tag k="ssr:type" v="adressenavn" />
	</node>
	<node lat="61.133295992938905" lon="8.832756546881463" id="-45892">
		<tag k="name" v="Høymisskogen" />
		<tag k="ssr:date" v="2019-12-27" />
		<tag k="ssr:gruppe" v="veg" />
		<tag k="ssr:hovedgruppe" v="infrastruktur" />
		<tag k="ssr:stedsnr" v="1016728" />
		<tag k="ssr:type" v="adressenavn" />
	</node>
	<node lat="61.06161058252807" lon="8.893074884754762" id="-45893">
		<tag k="name" v="Johmsvegen" />
		<tag k="ssr:date" v="2019-12-27" />
		<tag k="ssr:gruppe" v="veg" />
		<tag k="ssr:hovedgruppe" v="infrastruktur" />
		<tag k="ssr:stedsnr" v="1016786" />
		<tag k="ssr:type" v="adressenavn" />
	</node>
	<node lat="61.07341228292813" lon="8.971784901648437" id="-45894">
		<tag k="name" v="Hansegardsvegen" />
		<tag k="ssr:date" v="2019-12-27" />
		<tag k="ssr:gruppe" v="veg" />
		<tag k="ssr:hovedgruppe" v="infrastruktur" />
		<tag k="ssr:stedsnr" v="1016791" />
		<tag k="ssr:type" v="adressenavn" />
	</node>
	<node lat="61.00684879006608" lon="9.022581475904287" id="-45895">
		<tag k="name" v="Nystølvegen" />
		<tag k="ssr:date" v="2019-12-27" />
		<tag k="ssr:gruppe" v="veg" />
		<tag k="ssr:hovedgruppe" v="infrastruktur" />
		<tag k="ssr:stedsnr" v="1016797" />
		<tag k="ssr:type" v="adressenavn" />
	</node>
	<node lat="61.00695560878739" lon="9.022796867779759" id="-45896">
		<tag k="name" v="Panoramavegen" />
		<tag k="ssr:date" v="2019-12-27" />
		<tag k="ssr:gruppe" v="veg" />
		<tag k="ssr:hovedgruppe" v="infrastruktur" />
		<tag k="ssr:stedsnr" v="1016802" />
		<tag k="ssr:type" v="adressenavn" />
	</node>
	<node lat="60.99385214121677" lon="8.980731894016404" id="-45897">
		<tag k="name" v="Murkelivegen" />
		<tag k="ssr:date" v="2019-12-27" />
		<tag k="ssr:gruppe" v="veg" />
		<tag k="ssr:hovedgruppe" v="infrastruktur" />
		<tag k="ssr:stedsnr" v="1016808" />
		<tag k="ssr:type" v="adressenavn" />
	</node>
	<node lat="60.989431716436556" lon="8.974492957268826" id="-45898">
		<tag k="name" v="Stubbesetvegen" />
		<tag k="ssr:date" v="2019-12-27" />
		<tag k="ssr:gruppe" v="veg" />
		<tag k="ssr:hovedgruppe" v="infrastruktur" />
		<tag k="ssr:stedsnr" v="1016815" />
		<tag k="ssr:type" v="adressenavn" />
	</node>
	<node lat="61.01895333994081" lon="9.070795822696178" id="-45899">
		<tag k="name" v="Vestsidevegen" />
		<tag k="ssr:date" v="2019-12-27" />
		<tag k="ssr:gruppe" v="veg" />
		<tag k="ssr:hovedgruppe" v="infrastruktur" />
		<tag k="ssr:stedsnr" v="1016820" />
		<tag k="ssr:type" v="adressenavn" />
	</node>
	<node lat="61.167882007166575" lon="8.913913275974645" id="-45900">
		<tag k="name" v="Dalsvegen" />
		<tag k="ssr:date" v="2021-01-01" />
		<tag k="ssr:gruppe" v="veg" />
		<tag k="ssr:hovedgruppe" v="infrastruktur" />
		<tag k="ssr:stedsnr" v="1016826" />
		<tag k="ssr:type" v="adressenavn" />
	</node>
	<node lat="61.018010449002084" lon="9.058224846592829" id="-45901">
		<tag k="name" v="Oppheimsvegen" />
		<tag k="ssr:date" v="2019-12-27" />
		<tag k="ssr:gruppe" v="veg" />
		<tag k="ssr:hovedgruppe" v="infrastruktur" />
		<tag k="ssr:stedsnr" v="1016831" />
		<tag k="ssr:type" v="adressenavn" />
	</node>
	<node lat="61.02935456982513" lon="9.043532288433427" id="-45902">
		<tag k="name" v="Fosheimvegen" />
		<tag k="ssr:date" v="2019-12-27" />
		<tag k="ssr:gruppe" v="veg" />
		<tag k="ssr:hovedgruppe" v="infrastruktur" />
		<tag k="ssr:stedsnr" v="1016887" />
		<tag k="ssr:type" v="adressenavn" />
	</node>
	<node lat="61.038755627753886" lon="9.053982879774708" id="-45903">
		<tag k="name" v="Pjåten" />
		<tag k="ssr:date" v="2019-12-27" />
		<tag k="ssr:gruppe" v="veg" />
		<tag k="ssr:hovedgruppe" v="infrastruktur" />
		<tag k="ssr:stedsnr" v="1016892" />
		<tag k="ssr:type" v="adressenavn" />
	</node>
	<node lat="61.10139380066962" lon="8.96739021015879" id="-45904">
		<tag k="name" v="Rubenvegen" />
		<tag k="ssr:date" v="2019-12-27" />
		<tag k="ssr:gruppe" v="veg" />
		<tag k="ssr:hovedgruppe" v="infrastruktur" />
		<tag k="ssr:stedsnr" v="1016896" />
		<tag k="ssr:type" v="adressenavn" />
	</node>
	<node lat="61.09635307541503" lon="8.973323580511154" id="-45905">
		<tag k="name" v="Ølkenvegen" />
		<tag k="ssr:date" v="2019-12-27" />
		<tag k="ssr:gruppe" v="veg" />
		<tag k="ssr:hovedgruppe" v="infrastruktur" />
		<tag k="ssr:stedsnr" v="1016900" />
		<tag k="ssr:type" v="adressenavn" />
	</node>
	<node lat="61.03126319726262" lon="9.066916892832749" id="-45906">
		<tag k="name" v="Kongevegen" />
		<tag k="ssr:date" v="2019-12-27" />
		<tag k="ssr:gruppe" v="veg" />
		<tag k="ssr:hovedgruppe" v="infrastruktur" />
		<tag k="ssr:stedsnr" v="1016904" />
		<tag k="ssr:type" v="adressenavn" />
	</node>
	<node lat="61.03491529921089" lon="9.061349779197213" id="-45907">
		<tag k="name" v="Vælavegen" />
		<tag k="ssr:date" v="2019-12-27" />
		<tag k="ssr:gruppe" v="veg" />
		<tag k="ssr:hovedgruppe" v="infrastruktur" />
		<tag k="ssr:stedsnr" v="1016908" />
		<tag k="ssr:type" v="adressenavn" />
	</node>
	<node lat="61.03422782614389" lon="9.061846493062816" id="-45908">
		<tag k="name" v="Furukollen" />
		<tag k="ssr:date" v="2019-12-27" />
		<tag k="ssr:gruppe" v="veg" />
		<tag k="ssr:hovedgruppe" v="infrastruktur" />
		<tag k="ssr:stedsnr" v="1016913" />
		<tag k="ssr:type" v="adressenavn" />
	</node>
	<node lat="61.136445977418525" lon="8.889635125553468" id="-45909">
		<tag k="name" v="Slettebakke" />
		<tag k="ssr:date" v="2019-12-27" />
		<tag k="ssr:gruppe" v="veg" />
		<tag k="ssr:hovedgruppe" v="infrastruktur" />
		<tag k="ssr:stedsnr" v="1016859" />
		<tag k="ssr:type" v="adressenavn" />
	</node>
	<node lat="61.12438740977364" lon="8.952437204135416" id="-45910">
		<tag k="name" v="Kvålsvegen" />
		<tag k="ssr:date" v="2019-12-27" />
		<tag k="ssr:gruppe" v="veg" />
		<tag k="ssr:hovedgruppe" v="infrastruktur" />
		<tag k="ssr:stedsnr" v="1016866" />
		<tag k="ssr:type" v="adressenavn" />
	</node>
	<node lat="61.10894822569473" lon="8.962257134275497" id="-45911">
		<tag k="name" v="Hjellevegen" />
		<tag k="ssr:date" v="2019-12-27" />
		<tag k="ssr:gruppe" v="veg" />
		<tag k="ssr:hovedgruppe" v="infrastruktur" />
		<tag k="ssr:stedsnr" v="1016872" />
		<tag k="ssr:type" v="adressenavn" />
	</node>
	<node lat="61.13290640259319" lon="8.924761966219597" id="-45912">
		<tag k="name" v="Ellestadvegen" />
		<tag k="ssr:date" v="2019-12-27" />
		<tag k="ssr:gruppe" v="veg" />
		<tag k="ssr:hovedgruppe" v="infrastruktur" />
		<tag k="ssr:stedsnr" v="1016877" />
		<tag k="ssr:type" v="adressenavn" />
	</node>
	<node lat="61.12963560172614" lon="8.929571447987515" id="-45913">
		<tag k="name" v="Ringestadvegen" />
		<tag k="ssr:date" v="2019-12-27" />
		<tag k="ssr:gruppe" v="veg" />
		<tag k="ssr:hovedgruppe" v="infrastruktur" />
		<tag k="ssr:stedsnr" v="1016883" />
		<tag k="ssr:type" v="adressenavn" />
	</node>
	<node lat="61.10823472859068" lon="8.844803034787622" id="-45914">
		<tag k="name" v="Heimstølvegen" />
		<tag k="ssr:date" v="2019-12-27" />
		<tag k="ssr:gruppe" v="veg" />
		<tag k="ssr:hovedgruppe" v="infrastruktur" />
		<tag k="ssr:stedsnr" v="1016941" />
		<tag k="ssr:type" v="adressenavn" />
	</node>
	<node lat="61.1032169977208" lon="8.850343169007507" id="-45915">
		<tag k="name" v="Liastølane" />
		<tag k="ssr:date" v="2019-12-27" />
		<tag k="ssr:gruppe" v="veg" />
		<tag k="ssr:hovedgruppe" v="infrastruktur" />
		<tag k="ssr:stedsnr" v="1016948" />
		<tag k="ssr:type" v="adressenavn" />
	</node>
	<node lat="61.06978438842385" lon="8.794569466376254" id="-45916">
		<tag k="name" v="Vidsynvegen" />
		<tag k="ssr:date" v="2019-12-27" />
		<tag k="ssr:gruppe" v="veg" />
		<tag k="ssr:hovedgruppe" v="infrastruktur" />
		<tag k="ssr:stedsnr" v="1016955" />
		<tag k="ssr:type" v="adressenavn" />
	</node>
	<node lat="61.10379168875441" lon="8.850209937802823" id="-45917">
		<tag k="name" v="Kårstadstølvegen" />
		<tag k="ssr:date" v="2019-12-27" />
		<tag k="ssr:gruppe" v="veg" />
		<tag k="ssr:hovedgruppe" v="infrastruktur" />
		<tag k="ssr:stedsnr" v="1016961" />
		<tag k="ssr:type" v="adressenavn" />
	</node>
	<node lat="61.06906141444549" lon="8.807672862823425" id="-45918">
		<tag k="name" v="Geitebergvegen" />
		<tag k="ssr:date" v="2019-12-27" />
		<tag k="ssr:gruppe" v="veg" />
		<tag k="ssr:hovedgruppe" v="infrastruktur" />
		<tag k="ssr:stedsnr" v="1016967" />
		<tag k="ssr:type" v="adressenavn" />
	</node>
	<node lat="61.08690031556121" lon="8.848845740105876" id="-45919">
		<tag k="name" v="Svarthamarvegen" />
		<tag k="ssr:date" v="2019-12-27" />
		<tag k="ssr:gruppe" v="veg" />
		<tag k="ssr:hovedgruppe" v="infrastruktur" />
		<tag k="ssr:stedsnr" v="1016974" />
		<tag k="ssr:type" v="adressenavn" />
	</node>
	<node lat="61.105928761775395" lon="8.849089053957284" id="-45920">
		<tag k="name" v="Hølteåsvegen" />
		<tag k="ssr:date" v="2019-12-27" />
		<tag k="ssr:gruppe" v="veg" />
		<tag k="ssr:hovedgruppe" v="infrastruktur" />
		<tag k="ssr:stedsnr" v="1016980" />
		<tag k="ssr:type" v="adressenavn" />
	</node>
	<node lat="61.09121736267597" lon="8.857362013449913" id="-45921">
		<tag k="name" v="Gudbrandstølvegen" />
		<tag k="ssr:date" v="2019-12-27" />
		<tag k="ssr:gruppe" v="veg" />
		<tag k="ssr:hovedgruppe" v="infrastruktur" />
		<tag k="ssr:stedsnr" v="1016985" />
		<tag k="ssr:type" v="adressenavn" />
	</node>
	<node lat="61.07388735241106" lon="8.797862107837654" id="-45922">
		<tag k="name" v="Bekkefaret" />
		<tag k="ssr:date" v="2019-12-27" />
		<tag k="ssr:gruppe" v="veg" />
		<tag k="ssr:hovedgruppe" v="infrastruktur" />
		<tag k="ssr:stedsnr" v="1017041" />
		<tag k="ssr:type" v="adressenavn" />
	</node>
	<node lat="61.06444498742457" lon="8.784154773970515" id="-45923">
		<tag k="name" v="Heimhaugvegen" />
		<tag k="ssr:date" v="2019-12-27" />
		<tag k="ssr:gruppe" v="veg" />
		<tag k="ssr:hovedgruppe" v="infrastruktur" />
		<tag k="ssr:stedsnr" v="1017049" />
		<tag k="ssr:type" v="adressenavn" />
	</node>
	<node lat="61.07953625956101" lon="8.751347356882826" id="-45924">
		<tag k="name" v="Bakkelie" />
		<tag k="ssr:date" v="2019-12-27" />
		<tag k="ssr:gruppe" v="veg" />
		<tag k="ssr:hovedgruppe" v="infrastruktur" />
		<tag k="ssr:stedsnr" v="1017057" />
		<tag k="ssr:type" v="adressenavn" />
	</node>
	<node lat="61.06933816145199" lon="8.795664009049121" id="-45925">
		<tag k="name" v="Sleddevegen" />
		<tag k="ssr:date" v="2019-12-27" />
		<tag k="ssr:gruppe" v="veg" />
		<tag k="ssr:hovedgruppe" v="infrastruktur" />
		<tag k="ssr:stedsnr" v="1017063" />
		<tag k="ssr:type" v="adressenavn" />
	</node>
	<node lat="61.03558158564331" lon="9.059272114592376" id="-45926">
		<tag k="name" v="Blindvegen" />
		<tag k="ssr:date" v="2019-12-27" />
		<tag k="ssr:gruppe" v="veg" />
		<tag k="ssr:hovedgruppe" v="infrastruktur" />
		<tag k="ssr:stedsnr" v="1016917" />
		<tag k="ssr:type" v="adressenavn" />
	</node>
	<node lat="61.05476377401283" lon="9.041424790045474" id="-45927">
		<tag k="name" v="Kyrkjevegen" />
		<tag k="ssr:date" v="2019-12-27" />
		<tag k="ssr:gruppe" v="veg" />
		<tag k="ssr:hovedgruppe" v="infrastruktur" />
		<tag k="ssr:stedsnr" v="1016921" />
		<tag k="ssr:type" v="adressenavn" />
	</node>
	<node lat="61.067369747926655" lon="9.01850503771201" id="-45928">
		<tag k="name" v="Bergheimsvegen" />
		<tag k="ssr:date" v="2019-12-27" />
		<tag k="ssr:gruppe" v="veg" />
		<tag k="ssr:hovedgruppe" v="infrastruktur" />
		<tag k="ssr:stedsnr" v="1016925" />
		<tag k="ssr:type" v="adressenavn" />
	</node>
	<node lat="61.03718168395157" lon="9.060162636794791" id="-45929">
		<tag k="name" v="Reinavegen" />
		<tag k="ssr:date" v="2019-12-27" />
		<tag k="ssr:gruppe" v="veg" />
		<tag k="ssr:hovedgruppe" v="infrastruktur" />
		<tag k="ssr:stedsnr" v="1016929" />
		<tag k="ssr:type" v="adressenavn" />
	</node>
	<node lat="61.03914531302478" lon="9.05565998154005" id="-45930">
		<tag k="name" v="Rønebergvegen" />
		<tag k="ssr:date" v="2019-12-27" />
		<tag k="ssr:gruppe" v="veg" />
		<tag k="ssr:hovedgruppe" v="infrastruktur" />
		<tag k="ssr:stedsnr" v="1016933" />
		<tag k="ssr:type" v="adressenavn" />
	</node>
	<node lat="61.06980330502729" lon="8.818630053424572" id="-45931">
		<tag k="name" v="Djupedalsvegen" />
		<tag k="ssr:date" v="2019-12-27" />
		<tag k="ssr:gruppe" v="veg" />
		<tag k="ssr:hovedgruppe" v="infrastruktur" />
		<tag k="ssr:stedsnr" v="1016993" />
		<tag k="ssr:type" v="adressenavn" />
	</node>
	<node lat="61.07007537152495" lon="8.815955950845366" id="-45932">
		<tag k="name" v="Grønehallvegen" />
		<tag k="ssr:date" v="2019-12-27" />
		<tag k="ssr:gruppe" v="veg" />
		<tag k="ssr:hovedgruppe" v="infrastruktur" />
		<tag k="ssr:stedsnr" v="1016999" />
		<tag k="ssr:type" v="adressenavn" />
	</node>
	<node lat="61.082828170528906" lon="8.849192120444895" id="-45933">
		<tag k="name" v="Bjørkelivegen" />
		<tag k="ssr:date" v="2019-12-27" />
		<tag k="ssr:gruppe" v="veg" />
		<tag k="ssr:hovedgruppe" v="infrastruktur" />
		<tag k="ssr:stedsnr" v="1017005" />
		<tag k="ssr:type" v="adressenavn" />
	</node>
	<node lat="61.083221806128165" lon="8.84752280184114" id="-45934">
		<tag k="name" v="Øyråkervegen" />
		<tag k="ssr:date" v="2019-12-27" />
		<tag k="ssr:gruppe" v="veg" />
		<tag k="ssr:hovedgruppe" v="infrastruktur" />
		<tag k="ssr:stedsnr" v="1017013" />
		<tag k="ssr:type" v="adressenavn" />
	</node>
	<node lat="61.069848122965105" lon="8.80986649672583" id="-45935">
		<tag k="name" v="Rennefjellvegen" />
		<tag k="ssr:date" v="2019-12-27" />
		<tag k="ssr:gruppe" v="veg" />
		<tag k="ssr:hovedgruppe" v="infrastruktur" />
		<tag k="ssr:stedsnr" v="1017020" />
		<tag k="ssr:type" v="adressenavn" />
	</node>
	<node lat="61.06854336959363" lon="8.805711231078032" id="-45936">
		<tag k="name" v="Hemsenvegen" />
		<tag k="ssr:date" v="2019-12-27" />
		<tag k="ssr:gruppe" v="veg" />
		<tag k="ssr:hovedgruppe" v="infrastruktur" />
		<tag k="ssr:stedsnr" v="1017026" />
		<tag k="ssr:type" v="adressenavn" />
	</node>
	<node lat="61.07089805820187" lon="8.807504160868664" id="-45937">
		<tag k="name" v="Duratjednbakkin" />
		<tag k="ssr:date" v="2019-12-27" />
		<tag k="ssr:gruppe" v="veg" />
		<tag k="ssr:hovedgruppe" v="infrastruktur" />
		<tag k="ssr:stedsnr" v="1017032" />
		<tag k="ssr:type" v="adressenavn" />
	</node>
	<node lat="61.06621742800976" lon="8.774221215908756" id="-45938">
		<tag k="name" v="Nedre Ristestølvegen" />
		<tag k="ssr:date" v="2019-12-27" />
		<tag k="ssr:gruppe" v="veg" />
		<tag k="ssr:hovedgruppe" v="infrastruktur" />
		<tag k="ssr:stedsnr" v="1017087" />
		<tag k="ssr:type" v="adressenavn" />
	</node>
	<node lat="61.06864179912319" lon="8.776744665230652" id="-45939">
		<tag k="name" v="Stesvegen" />
		<tag k="ssr:date" v="2019-12-27" />
		<tag k="ssr:gruppe" v="veg" />
		<tag k="ssr:hovedgruppe" v="infrastruktur" />
		<tag k="ssr:stedsnr" v="1017093" />
		<tag k="ssr:type" v="adressenavn" />
	</node>
	<node lat="61.071695377567835" lon="8.768599315226826" id="-45940">
		<tag k="name" v="Kjeldeskogvegen" />
		<tag k="ssr:date" v="2019-12-27" />
		<tag k="ssr:gruppe" v="veg" />
		<tag k="ssr:hovedgruppe" v="infrastruktur" />
		<tag k="ssr:stedsnr" v="1017099" />
		<tag k="ssr:type" v="adressenavn" />
	</node>
	<node lat="61.072310160124104" lon="8.766728537302594" id="-45941">
		<tag k="name" v="Hagastølvegen" />
		<tag k="ssr:date" v="2019-12-27" />
		<tag k="ssr:gruppe" v="veg" />
		<tag k="ssr:hovedgruppe" v="infrastruktur" />
		<tag k="ssr:stedsnr" v="1017105" />
		<tag k="ssr:type" v="adressenavn" />
	</node>
	<node lat="61.069327418126946" lon="8.774952492558231" id="-45942">
		<tag k="name" v="Sandodden" />
		<tag k="ssr:date" v="2019-12-27" />
		<tag k="ssr:gruppe" v="veg" />
		<tag k="ssr:hovedgruppe" v="infrastruktur" />
		<tag k="ssr:stedsnr" v="1017110" />
		<tag k="ssr:type" v="adressenavn" />
	</node>
	<node lat="61.06876191677138" lon="8.77457281910844" id="-45943">
		<tag k="name" v="Syndisheim" />
		<tag k="ssr:date" v="2019-12-27" />
		<tag k="ssr:gruppe" v="veg" />
		<tag k="ssr:hovedgruppe" v="infrastruktur" />
		<tag k="ssr:stedsnr" v="1017114" />
		<tag k="ssr:type" v="adressenavn" />
	</node>
	<node lat="61.07379288222271" lon="8.76335375519879" id="-45944">
		<tag k="name" v="Neståkervegen" />
		<tag k="ssr:date" v="2019-12-27" />
		<tag k="ssr:gruppe" v="veg" />
		<tag k="ssr:hovedgruppe" v="infrastruktur" />
		<tag k="ssr:stedsnr" v="1017122" />
		<tag k="ssr:type" v="adressenavn" />
	</node>
	<node lat="61.067226803223924" lon="8.800121692595528" id="-45945">
		<tag k="name" v="Synhaugvegen" />
		<tag k="ssr:date" v="2019-12-27" />
		<tag k="ssr:gruppe" v="veg" />
		<tag k="ssr:hovedgruppe" v="infrastruktur" />
		<tag k="ssr:stedsnr" v="1017068" />
		<tag k="ssr:type" v="adressenavn" />
	</node>
	<node lat="61.11634766721943" lon="8.772061711720903" id="-45946">
		<tag k="name" v="Høvdestølvegen" />
		<tag k="ssr:date" v="2019-12-27" />
		<tag k="ssr:gruppe" v="veg" />
		<tag k="ssr:hovedgruppe" v="infrastruktur" />
		<tag k="ssr:stedsnr" v="1017075" />
		<tag k="ssr:type" v="adressenavn" />
	</node>
	<node lat="61.09913863405215" lon="8.74604676097661" id="-45947">
		<tag k="name" v="Gamlestølhaugen" />
		<tag k="ssr:date" v="2019-12-27" />
		<tag k="ssr:gruppe" v="veg" />
		<tag k="ssr:hovedgruppe" v="infrastruktur" />
		<tag k="ssr:stedsnr" v="1017081" />
		<tag k="ssr:type" v="adressenavn" />
	</node>
	<node lat="61.07212369095536" lon="8.767239184418072" id="-45948">
		<tag k="name" v="Losvegen" />
		<tag k="ssr:date" v="2019-12-27" />
		<tag k="ssr:gruppe" v="veg" />
		<tag k="ssr:hovedgruppe" v="infrastruktur" />
		<tag k="ssr:stedsnr" v="1017138" />
		<tag k="ssr:type" v="adressenavn" />
	</node>
	<node lat="61.087292480349625" lon="8.744190778784228" id="-45949">
		<tag k="name" v="Grytehaugstølen" />
		<tag k="ssr:date" v="2019-12-27" />
		<tag k="ssr:gruppe" v="veg" />
		<tag k="ssr:hovedgruppe" v="infrastruktur" />
		<tag k="ssr:stedsnr" v="1017145" />
		<tag k="ssr:type" v="adressenavn" />
	</node>
	<node lat="61.0771109340766" lon="8.729296916731291" id="-45950">
		<tag k="name" v="Pyttingvegen" />
		<tag k="ssr:date" v="2019-12-27" />
		<tag k="ssr:gruppe" v="veg" />
		<tag k="ssr:hovedgruppe" v="infrastruktur" />
		<tag k="ssr:stedsnr" v="1017151" />
		<tag k="ssr:type" v="adressenavn" />
	</node>
	<node lat="61.07577748222228" lon="8.756507243530057" id="-45951">
		<tag k="name" v="Øvre Høymisvegen" />
		<tag k="ssr:date" v="2019-12-27" />
		<tag k="ssr:gruppe" v="veg" />
		<tag k="ssr:hovedgruppe" v="infrastruktur" />
		<tag k="ssr:stedsnr" v="1017156" />
		<tag k="ssr:type" v="adressenavn" />
	</node>
	<node lat="61.08029949617581" lon="8.754501782732099" id="-45952">
		<tag k="name" v="Øvre Bakkelie" />
		<tag k="ssr:date" v="2019-12-27" />
		<tag k="ssr:gruppe" v="veg" />
		<tag k="ssr:hovedgruppe" v="infrastruktur" />
		<tag k="ssr:stedsnr" v="1017162" />
		<tag k="ssr:type" v="adressenavn" />
	</node>
	<node lat="61.08659247381976" lon="8.744862894085104" id="-45953">
		<tag k="name" v="Nørre Robølsvegen" />
		<tag k="ssr:date" v="2019-12-27" />
		<tag k="ssr:gruppe" v="veg" />
		<tag k="ssr:hovedgruppe" v="infrastruktur" />
		<tag k="ssr:stedsnr" v="1017168" />
		<tag k="ssr:type" v="adressenavn" />
	</node>
	<node lat="61.09075091063153" lon="8.734098422385793" id="-45954">
		<tag k="name" v="Myhrevegen" />
		<tag k="ssr:date" v="2019-12-27" />
		<tag k="ssr:gruppe" v="veg" />
		<tag k="ssr:hovedgruppe" v="infrastruktur" />
		<tag k="ssr:stedsnr" v="1017174" />
		<tag k="ssr:type" v="adressenavn" />
	</node>
	<node lat="61.083110283244395" lon="8.74722776166859" id="-45955">
		<tag k="name" v="Gullhaugvegen" />
		<tag k="ssr:date" v="2019-12-27" />
		<tag k="ssr:gruppe" v="veg" />
		<tag k="ssr:hovedgruppe" v="infrastruktur" />
		<tag k="ssr:stedsnr" v="1017180" />
		<tag k="ssr:type" v="adressenavn" />
	</node>
	<node lat="61.08479756070434" lon="8.745891943938798" id="-45956">
		<tag k="name" v="Sørre Robølsvegen" />
		<tag k="ssr:date" v="2019-12-27" />
		<tag k="ssr:gruppe" v="veg" />
		<tag k="ssr:hovedgruppe" v="infrastruktur" />
		<tag k="ssr:stedsnr" v="1017185" />
		<tag k="ssr:type" v="adressenavn" />
	</node>
	<node lat="61.062447120355245" lon="8.994369986797937" id="-45957">
		<tag k="name" v="Mosvegen" />
		<tag k="ssr:date" v="2019-12-27" />
		<tag k="ssr:gruppe" v="veg" />
		<tag k="ssr:hovedgruppe" v="infrastruktur" />
		<tag k="ssr:stedsnr" v="1017236" />
		<tag k="ssr:type" v="adressenavn" />
	</node>
	<node lat="61.10655368227739" lon="8.987724472790145" id="-45958">
		<tag k="name" v="Kvålsstølvegen" />
		<tag k="ssr:date" v="2019-12-27" />
		<tag k="ssr:gruppe" v="veg" />
		<tag k="ssr:hovedgruppe" v="infrastruktur" />
		<tag k="ssr:stedsnr" v="1017242" />
		<tag k="ssr:type" v="adressenavn" />
	</node>
	<node lat="61.04325567916789" lon="9.052707895342897" id="-45959">
		<tag k="name" v="Rønshagadn" />
		<tag k="ssr:date" v="2019-12-27" />
		<tag k="ssr:gruppe" v="veg" />
		<tag k="ssr:hovedgruppe" v="infrastruktur" />
		<tag k="ssr:stedsnr" v="1017246" />
		<tag k="ssr:type" v="adressenavn" />
	</node>
	<node lat="61.07052448693973" lon="8.987308796273501" id="-45960">
		<tag k="name" v="Øynevegen" />
		<tag k="ssr:date" v="2019-12-27" />
		<tag k="ssr:gruppe" v="veg" />
		<tag k="ssr:hovedgruppe" v="infrastruktur" />
		<tag k="ssr:stedsnr" v="1017253" />
		<tag k="ssr:type" v="adressenavn" />
	</node>
	<node lat="61.06008822411721" lon="8.83414951318332" id="-45961">
		<tag k="name" v="Gardvikstølvegen" />
		<tag k="ssr:date" v="2019-12-27" />
		<tag k="ssr:gruppe" v="veg" />
		<tag k="ssr:hovedgruppe" v="infrastruktur" />
		<tag k="ssr:stedsnr" v="1017259" />
		<tag k="ssr:type" v="adressenavn" />
	</node>
	<node lat="61.04879294776872" lon="8.861682182040598" id="-45962">
		<tag k="name" v="Haugstølvegen" />
		<tag k="ssr:date" v="2019-12-27" />
		<tag k="ssr:gruppe" v="veg" />
		<tag k="ssr:hovedgruppe" v="infrastruktur" />
		<tag k="ssr:stedsnr" v="1017265" />
		<tag k="ssr:type" v="adressenavn" />
	</node>
	<node lat="61.026377206008874" lon="8.929777578820008" id="-45963">
		<tag k="name" v="Veståsvegen" />
		<tag k="ssr:date" v="2019-12-27" />
		<tag k="ssr:gruppe" v="veg" />
		<tag k="ssr:hovedgruppe" v="infrastruktur" />
		<tag k="ssr:stedsnr" v="1017270" />
		<tag k="ssr:type" v="adressenavn" />
	</node>
	<node lat="61.061881366753234" lon="8.788977422280778" id="-45964">
		<tag k="name" v="Midtre Syndin" />
		<tag k="ssr:date" v="2019-12-27" />
		<tag k="ssr:gruppe" v="veg" />
		<tag k="ssr:hovedgruppe" v="infrastruktur" />
		<tag k="ssr:stedsnr" v="1017273" />
		<tag k="ssr:type" v="adressenavn" />
	</node>
	<node lat="61.07563817460022" lon="8.756892119396303" id="-45965">
		<tag k="name" v="Nedre Høymisvegen" />
		<tag k="ssr:date" v="2019-12-27" />
		<tag k="ssr:gruppe" v="veg" />
		<tag k="ssr:hovedgruppe" v="infrastruktur" />
		<tag k="ssr:stedsnr" v="1017127" />
		<tag k="ssr:type" v="adressenavn" />
	</node>
	<node lat="61.0705255117164" lon="8.772203767357972" id="-45966">
		<tag k="name" v="Øvre Ristevegen" />
		<tag k="ssr:date" v="2019-12-27" />
		<tag k="ssr:gruppe" v="veg" />
		<tag k="ssr:hovedgruppe" v="infrastruktur" />
		<tag k="ssr:stedsnr" v="1017132" />
		<tag k="ssr:type" v="adressenavn" />
	</node>
	<node lat="61.17890867241691" lon="8.874947672230174" id="-45967">
		<tag k="name" v="Ulvhildvegen" />
		<tag k="ssr:date" v="2019-12-27" />
		<tag k="ssr:gruppe" v="veg" />
		<tag k="ssr:hovedgruppe" v="infrastruktur" />
		<tag k="ssr:stedsnr" v="1017191" />
		<tag k="ssr:type" v="adressenavn" />
	</node>
	<node lat="61.14718875237053" lon="8.88325907718067" id="-45968">
		<tag k="name" v="Gamle Eggeåsvegen" />
		<tag k="ssr:date" v="2019-12-27" />
		<tag k="ssr:gruppe" v="veg" />
		<tag k="ssr:hovedgruppe" v="infrastruktur" />
		<tag k="ssr:stedsnr" v="1017209" />
		<tag k="ssr:type" v="adressenavn" />
	</node>
	<node lat="61.09568046692864" lon="8.973724476377518" id="-45969">
		<tag k="name" v="Bekkedalsvegen" />
		<tag k="ssr:date" v="2019-12-27" />
		<tag k="ssr:gruppe" v="veg" />
		<tag k="ssr:hovedgruppe" v="infrastruktur" />
		<tag k="ssr:stedsnr" v="1017213" />
		<tag k="ssr:type" v="adressenavn" />
	</node>
	<node lat="61.039735038901775" lon="9.05988366235926" id="-45970">
		<tag k="name" v="Hagabakken" />
		<tag k="ssr:date" v="2019-12-27" />
		<tag k="ssr:gruppe" v="veg" />
		<tag k="ssr:hovedgruppe" v="infrastruktur" />
		<tag k="ssr:stedsnr" v="1017219" />
		<tag k="ssr:type" v="adressenavn" />
	</node>
	<node lat="61.186008657801835" lon="8.90352974061889" id="-45971">
		<tag k="name" v="Ulvildsetvegen" />
		<tag k="ssr:date" v="2021-01-01" />
		<tag k="ssr:gruppe" v="veg" />
		<tag k="ssr:hovedgruppe" v="infrastruktur" />
		<tag k="ssr:stedsnr" v="1017233" />
		<tag k="ssr:type" v="adressenavn" />
	</node>
	<node lat="61.04979527897081" lon="8.918256705125685" id="-45972">
		<tag k="name" v="Lehøvdvegen" />
		<tag k="ssr:date" v="2019-12-27" />
		<tag k="ssr:gruppe" v="veg" />
		<tag k="ssr:hovedgruppe" v="infrastruktur" />
		<tag k="ssr:stedsnr" v="1017278" />
		<tag k="ssr:type" v="adressenavn" />
	</node>
	<node lat="60.999239052931344" lon="8.755546532429026" id="-45973">
		<tag k="name" v="Kjeslarånvegen" />
		<tag k="ssr:date" v="2019-12-27" />
		<tag k="ssr:gruppe" v="veg" />
		<tag k="ssr:hovedgruppe" v="infrastruktur" />
		<tag k="ssr:stedsnr" v="1017282" />
		<tag k="ssr:type" v="adressenavn" />
	</node>
	<node lat="61.01734989736249" lon="8.945908831183171" id="-45982">
		<tag k="name" v="Brakastøllie" />
		<tag k="ssr:date" v="2021-12-09" />
		<tag k="ssr:gruppe" v="veg" />
		<tag k="ssr:hovedgruppe" v="infrastruktur" />
		<tag k="ssr:stedsnr" v="1083150" />
		<tag k="ssr:type" v="adressenavn" />
	</node>
</osm>
