<?xml version="1.0" encoding="UTF-8"?>
<osm version="0.6" generator="osmapis">
	<node lat="61.08845000415875" lon="8.981949992515807" id="-21108">
		<tag k="name" v="Slidretun" />
		<tag k="place" v="farm" />
		<tag k="ssr:date" v="2019-12-27" />
		<tag k="ssr:gruppe" v="gardsbebyggelse" />
		<tag k="ssr:hovedgruppe" v="bebyggelse" />
		<tag k="ssr:stedsnr" v="7208" />
		<tag k="ssr:type" v="bruk" />
	</node>
	<node lat="61.08046389138862" lon="8.957141663165562" id="-21109">
		<tag k="alt_name" v="Hansegarden, midtre" />
		<tag k="name" v="Midtre Hansegarden" />
		<tag k="place" v="farm" />
		<tag k="ssr:date" v="2019-12-27" />
		<tag k="ssr:gruppe" v="gardsbebyggelse" />
		<tag k="ssr:hovedgruppe" v="bebyggelse" />
		<tag k="ssr:stedsnr" v="7210" />
		<tag k="ssr:type" v="bruk" />
	</node>
	<node lat="61.08933611262909" lon="8.963524998220578" id="-21110">
		<tag k="name" v="Sløtet" />
		<tag k="natural" v="cape" />
		<tag k="ssr:date" v="2019-12-27" />
		<tag k="ssr:gruppe" v="ferskvannskontur" />
		<tag k="ssr:hovedgruppe" v="ferskvann" />
		<tag k="ssr:stedsnr" v="7213" />
		<tag k="ssr:type" v="nes" />
	</node>
	<node lat="61.08609831166055" lon="8.960964975521645" id="-21111">
		<tag k="fixme" v="consider place=hamlet" />
		<tag k="name" v="Hamre" />
		<tag k="place" v="farm" />
		<tag k="ssr:date" v="2019-12-27" />
		<tag k="ssr:gruppe" v="gardsbebyggelse" />
		<tag k="ssr:hovedgruppe" v="bebyggelse" />
		<tag k="ssr:stedsnr" v="7214" />
		<tag k="ssr:type" v="gard" />
	</node>
	<node lat="61.07947777547415" lon="9.021433329609208" id="-21112">
		<tag k="name" v="Granbø" />
		<tag k="place" v="farm" />
		<tag k="ssr:date" v="2019-12-27" />
		<tag k="ssr:gruppe" v="gardsbebyggelse" />
		<tag k="ssr:hovedgruppe" v="bebyggelse" />
		<tag k="ssr:stedsnr" v="7262" />
		<tag k="ssr:type" v="bruk" />
	</node>
	<node lat="61.077250000401115" lon="8.726394449371151" id="-21113">
		<tag k="name" v="Pyttingen" />
		<tag k="natural" v="strait" />
		<tag k="ssr:date" v="2019-12-27" />
		<tag k="ssr:gruppe" v="ferskvannskontur" />
		<tag k="ssr:hovedgruppe" v="ferskvann" />
		<tag k="ssr:stedsnr" v="7401" />
		<tag k="ssr:type" v="sund" />
	</node>
	<node lat="61.12219166967247" lon="8.852038882122926" id="-21114">
		<tag k="name" v="Kårstad" />
		<tag k="place" v="farm" />
		<tag k="ssr:date" v="2019-12-27" />
		<tag k="ssr:gruppe" v="gardsbebyggelse" />
		<tag k="ssr:hovedgruppe" v="bebyggelse" />
		<tag k="ssr:stedsnr" v="7448" />
		<tag k="ssr:type" v="bruk" />
	</node>
	<node lat="61.046476824404664" lon="9.022163545388128" id="-21115">
		<tag k="alt_name" v="Hølli, øvre;Hølli;Øvre Holden" />
		<tag k="name" v="Øvre Hølli" />
		<tag k="place" v="farm" />
		<tag k="ssr:date" v="2019-12-27" />
		<tag k="ssr:gruppe" v="gardsbebyggelse" />
		<tag k="ssr:hovedgruppe" v="bebyggelse" />
		<tag k="ssr:stedsnr" v="7807" />
		<tag k="ssr:type" v="bruk" />
	</node>
	<node lat="61.04786389216586" lon="8.994052784607238" id="-21116">
		<tag k="name" v="Bakken" />
		<tag k="place" v="farm" />
		<tag k="ssr:date" v="2019-12-27" />
		<tag k="ssr:gruppe" v="gardsbebyggelse" />
		<tag k="ssr:hovedgruppe" v="bebyggelse" />
		<tag k="ssr:stedsnr" v="7809" />
		<tag k="ssr:type" v="bruk" />
	</node>
	<node lat="60.95920277685515" lon="8.959725002008351" id="-21117">
		<tag k="name" v="Rundtjernet" />
		<tag k="natural" v="water" />
		<tag k="old_name" v="Rundtjednet" />
		<tag k="ssr:date" v="2019-12-27" />
		<tag k="ssr:gruppe" v="stilleståendeVann" />
		<tag k="ssr:hovedgruppe" v="ferskvann" />
		<tag k="ssr:stedsnr" v="9092" />
		<tag k="ssr:type" v="tjern" />
	</node>
	<node lat="61.03422777515002" lon="8.757636118993512" id="-21118">
		<tag k="historic" v="shieling" />
		<tag k="name" v="Haugstølen" />
		<tag k="place" v="isolated_dwelling" />
		<tag k="ssr:date" v="2019-12-27" />
		<tag k="ssr:gruppe" v="gardsbebyggelse" />
		<tag k="ssr:hovedgruppe" v="bebyggelse" />
		<tag k="ssr:stedsnr" v="39308" />
		<tag k="ssr:type" v="seterStøl" />
	</node>
	<node lat="61.10905278098682" lon="8.911211112642853" id="-21119">
		<tag k="name" v="Hesteberget" />
		<tag k="natural" v="hill" />
		<tag k="place" v="locality" />
		<tag k="ssr:date" v="2019-12-27" />
		<tag k="ssr:gruppe" v="høyder" />
		<tag k="ssr:hovedgruppe" v="terreng" />
		<tag k="ssr:stedsnr" v="39316" />
		<tag k="ssr:type" v="berg" />
	</node>
	<node lat="61.13284502641104" lon="8.861273194608268" id="-21120">
		<tag k="building" v="industrial" />
		<tag k="name" v="Slidre Bruk" />
		<tag k="ssr:date" v="2019-12-27" />
		<tag k="ssr:gruppe" v="næring" />
		<tag k="ssr:hovedgruppe" v="bebyggelse" />
		<tag k="ssr:stedsnr" v="39065" />
		<tag k="ssr:type" v="annenIndustri-OgLagerbygning" />
	</node>
	<node lat="61.13495277816052" lon="8.892055564412852" id="-21121">
		<tag k="name" v="Høve" />
		<tag k="place" v="farm" />
		<tag k="ssr:date" v="2019-12-27" />
		<tag k="ssr:gruppe" v="gardsbebyggelse" />
		<tag k="ssr:hovedgruppe" v="bebyggelse" />
		<tag k="ssr:stedsnr" v="39069" />
		<tag k="ssr:type" v="bruk" />
	</node>
	<node lat="61.03448610924255" lon="9.157994444727569" id="-21122">
		<tag k="alt_name" v="Rogndokken" />
		<tag k="name" v="Raundokken" />
		<tag k="place" v="farm" />
		<tag k="ssr:date" v="2019-12-27" />
		<tag k="ssr:gruppe" v="gardsbebyggelse" />
		<tag k="ssr:hovedgruppe" v="bebyggelse" />
		<tag k="ssr:stedsnr" v="40992" />
		<tag k="ssr:type" v="bruk" />
	</node>
	<node lat="60.99602777700771" lon="8.988855552795899" id="-21123">
		<tag k="building" v="commercial" />
		<tag k="name" v="Vasetsenteret" />
		<tag k="ssr:date" v="2019-12-27" />
		<tag k="ssr:gruppe" v="næring" />
		<tag k="ssr:hovedgruppe" v="bebyggelse" />
		<tag k="ssr:stedsnr" v="41204" />
		<tag k="ssr:type" v="forretningsbygg" />
	</node>
	<node lat="61.10219721922785" lon="8.94058055216336" id="-21124">
		<tag k="name" v="Hagalund" />
		<tag k="place" v="isolated_dwelling" />
		<tag k="ssr:date" v="2019-12-27" />
		<tag k="ssr:gruppe" v="bolighus" />
		<tag k="ssr:hovedgruppe" v="bebyggelse" />
		<tag k="ssr:stedsnr" v="41401" />
		<tag k="ssr:type" v="eneboligMindreBoligbygg" />
	</node>
	<node lat="61.1131194440918" lon="8.920330554850123" id="-21125">
		<tag k="name" v="Hagen" />
		<tag k="place" v="farm" />
		<tag k="ssr:date" v="2019-12-27" />
		<tag k="ssr:gruppe" v="gardsbebyggelse" />
		<tag k="ssr:hovedgruppe" v="bebyggelse" />
		<tag k="ssr:stedsnr" v="41408" />
		<tag k="ssr:type" v="bruk" />
	</node>
	<node lat="61.085958333637834" lon="8.97117222856838" id="-21126">
		<tag k="name" v="Tobba" />
		<tag k="place" v="islet" />
		<tag k="ssr:date" v="2019-12-27" />
		<tag k="ssr:gruppe" v="grunnerIFerskvann" />
		<tag k="ssr:hovedgruppe" v="ferskvann" />
		<tag k="ssr:stedsnr" v="41411" />
		<tag k="ssr:type" v="skjær" />
	</node>
	<node lat="61.08199722260219" lon="8.961352775898073" id="-21127">
		<tag k="name" v="Sodoma" />
		<tag k="place" v="locality" />
		<tag k="ssr:date" v="2019-12-27" />
		<tag k="ssr:gruppe" v="terrengdetaljer" />
		<tag k="ssr:hovedgruppe" v="terreng" />
		<tag k="ssr:stedsnr" v="41412" />
		<tag k="ssr:type" v="annenTerrengdetalj" />
	</node>
	<node lat="61.072611110052165" lon="8.893641664945267" id="-21128">
		<tag k="name" v="Tjuvesteinadn" />
		<tag k="natural" v="stone" />
		<tag k="ssr:date" v="2019-12-27" />
		<tag k="ssr:gruppe" v="løsmasseavsetninger" />
		<tag k="ssr:hovedgruppe" v="markslag" />
		<tag k="ssr:stedsnr" v="41422" />
		<tag k="ssr:type" v="stein" />
	</node>
	<node lat="60.99918889216034" lon="8.941972214245393" id="-21129">
		<tag k="historic" v="shieling" />
		<tag k="name" v="Svingastølen" />
		<tag k="place" v="isolated_dwelling" />
		<tag k="ssr:date" v="2019-12-27" />
		<tag k="ssr:gruppe" v="gardsbebyggelse" />
		<tag k="ssr:hovedgruppe" v="bebyggelse" />
		<tag k="ssr:stedsnr" v="41471" />
		<tag k="ssr:type" v="seterStøl" />
	</node>
	<node lat="60.98272778014127" lon="8.903911114592324" id="-21130">
		<tag k="historic" v="shieling" />
		<tag k="name" v="Magistadstølen" />
		<tag k="place" v="isolated_dwelling" />
		<tag k="ssr:date" v="2019-12-27" />
		<tag k="ssr:gruppe" v="gardsbebyggelse" />
		<tag k="ssr:hovedgruppe" v="bebyggelse" />
		<tag k="ssr:stedsnr" v="41483" />
		<tag k="ssr:type" v="seterStøl" />
	</node>
	<node lat="61.03339166303645" lon="9.057205563295481" id="-21131">
		<tag k="amenity" v="community_centre" />
		<tag k="name" v="Furulund" />
		<tag k="ssr:date" v="2019-12-27" />
		<tag k="ssr:gruppe" v="kulturinstitusjoner" />
		<tag k="ssr:hovedgruppe" v="kultur" />
		<tag k="ssr:stedsnr" v="41812" />
		<tag k="ssr:type" v="forsamlingshusKulturhus" />
	</node>
	<node lat="61.046352774305554" lon="9.0564027813893" id="-21132">
		<tag k="amenity" v="school" />
		<tag k="name" v="Røn skule" />
		<tag k="ssr:date" v="2019-12-27" />
		<tag k="ssr:gruppe" v="institusjoner" />
		<tag k="ssr:hovedgruppe" v="bebyggelse" />
		<tag k="ssr:stedsnr" v="41877" />
		<tag k="ssr:type" v="skole" />
	</node>
	<node lat="61.04232777920639" lon="9.03161111482917" id="-21133">
		<tag k="name" v="Bergtun" />
		<tag k="place" v="isolated_dwelling" />
		<tag k="ssr:date" v="2019-12-27" />
		<tag k="ssr:gruppe" v="bolighus" />
		<tag k="ssr:hovedgruppe" v="bebyggelse" />
		<tag k="ssr:stedsnr" v="41879" />
		<tag k="ssr:type" v="fritidsbolig" />
	</node>
	<node lat="61.03807499680333" lon="9.027861103447867" id="-21134">
		<tag k="name" v="Hole" />
		<tag k="place" v="isolated_dwelling" />
		<tag k="ssr:date" v="2019-12-27" />
		<tag k="ssr:gruppe" v="bolighus" />
		<tag k="ssr:hovedgruppe" v="bebyggelse" />
		<tag k="ssr:stedsnr" v="41882" />
		<tag k="ssr:type" v="eneboligMindreBoligbygg" />
	</node>
	<node lat="61.055941670981404" lon="8.993044449251805" id="-21135">
		<tag k="name" v="Bolodalen" />
		<tag k="natural" v="valley" />
		<tag k="place" v="locality" />
		<tag k="ssr:date" v="2019-12-27" />
		<tag k="ssr:gruppe" v="senkninger" />
		<tag k="ssr:hovedgruppe" v="terreng" />
		<tag k="ssr:stedsnr" v="41884" />
		<tag k="ssr:type" v="dal" />
	</node>
	<node lat="61.05732777394134" lon="8.998291667982116" id="-21136">
		<tag k="name" v="Skogtun" />
		<tag k="place" v="farm" />
		<tag k="ssr:date" v="2019-12-27" />
		<tag k="ssr:gruppe" v="gardsbebyggelse" />
		<tag k="ssr:hovedgruppe" v="bebyggelse" />
		<tag k="ssr:stedsnr" v="41885" />
		<tag k="ssr:type" v="bruk" />
	</node>
	<node lat="61.02483333158439" lon="8.740966670452515" id="-21137">
		<tag k="alt_name" v="Geiteskardet" />
		<tag k="name" v="Geiteskard" />
		<tag k="natural" v="valley" />
		<tag k="place" v="locality" />
		<tag k="ssr:date" v="2019-12-27" />
		<tag k="ssr:gruppe" v="senkninger" />
		<tag k="ssr:hovedgruppe" v="terreng" />
		<tag k="ssr:stedsnr" v="51882" />
		<tag k="ssr:type" v="skar" />
	</node>
	<node lat="61.134811112572685" lon="8.931477783172351" id="-21138">
		<tag k="alt_name" v="Hauge, øvre" />
		<tag k="name" v="Øvre Hauge" />
		<tag k="place" v="farm" />
		<tag k="ssr:date" v="2019-12-27" />
		<tag k="ssr:gruppe" v="gardsbebyggelse" />
		<tag k="ssr:hovedgruppe" v="bebyggelse" />
		<tag k="ssr:stedsnr" v="67114" />
		<tag k="ssr:type" v="bruk" />
	</node>
	<node lat="61.13297222097041" lon="8.924766674187552" id="-21139">
		<tag k="name" v="Lome" />
		<tag k="place" v="hamlet" />
		<tag k="ssr:date" v="2019-12-27" />
		<tag k="ssr:gruppe" v="bebyggelsesområder" />
		<tag k="ssr:hovedgruppe" v="bebyggelse" />
		<tag k="ssr:stedsnr" v="67122" />
		<tag k="ssr:type" v="grend" />
	</node>
	<node lat="61.12863610983822" lon="8.957891659396626" id="-21140">
		<tag k="name" v="Yrstad" />
		<tag k="place" v="isolated_dwelling" />
		<tag k="ssr:date" v="2019-12-27" />
		<tag k="ssr:gruppe" v="bolighus" />
		<tag k="ssr:hovedgruppe" v="bebyggelse" />
		<tag k="ssr:stedsnr" v="67127" />
		<tag k="ssr:type" v="eneboligMindreBoligbygg" />
	</node>
	<node lat="61.1743138907092" lon="8.877219444437328" id="-21141">
		<tag k="historic" v="shieling" />
		<tag k="name" v="Einebu" />
		<tag k="place" v="isolated_dwelling" />
		<tag k="ssr:date" v="2019-12-27" />
		<tag k="ssr:gruppe" v="gardsbebyggelse" />
		<tag k="ssr:hovedgruppe" v="bebyggelse" />
		<tag k="ssr:stedsnr" v="67043" />
		<tag k="ssr:type" v="seterStøl" />
	</node>
</osm>
