<?xml version="1.0" encoding="UTF-8"?>
<osm generator="osmapis" version="0.6">
	<node id="-242811" lat="59.647891667" lon="8.69055277342">
		<tag k="ford" v="yes" />
		<tag k="name" v="Fjostjønnvadet" />
		<tag k="place" v="locality" />
		<tag k="ssr:stedsnr" v="287972" />
	</node>
	<node id="-244410" lat="59.6103472242" lon="8.95767500305">
		<tag k="bridge" v="yes" />
		<tag k="layer" v="1" />
		<tag k="name" v="Åmot flomløp" />
		<tag k="ssr:stedsnr" v="653487" />
	</node>
	<node id="-244089" lat="59.6202500031" lon="8.59604166185">
		<tag k="ford" v="yes" />
		<tag k="name" v="Vaberget" />
		<tag k="place" v="locality" />
		<tag k="ssr:stedsnr" v="531435" />
	</node>
	<node id="-243574" lat="59.5895250027" lon="8.74853889503">
		<tag k="ford" v="yes" />
		<tag k="name" v="Lynningsvad" />
		<tag k="place" v="locality" />
		<tag k="ssr:stedsnr" v="124913" />
	</node>
	<node id="-244980" lat="59.5842388877" lon="8.89055833173">
		<tag k="highway" v="path" />
		<tag k="name" v="Grobukleiva" />
		<tag k="ssr:stedsnr" v="955959" />
	</node>
	<node id="-243954" lat="59.6138750032" lon="8.6900916743">
		<tag k="bridge" v="yes" />
		<tag k="layer" v="1" />
		<tag k="name" v="Gjuv" />
		<tag k="ssr:stedsnr" v="471261" />
	</node>
	<node id="-243953" lat="59.6189916694" lon="8.79404721735">
		<tag k="bridge" v="yes" />
		<tag k="layer" v="1" />
		<tag k="name" v="Lonar" />
		<tag k="ssr:stedsnr" v="471255" />
	</node>
	<node id="-244079" lat="59.5875222217" lon="8.84463611242">
		<tag k="man_made" v="cairn" />
		<tag k="name" v="Varden" />
		<tag k="place" v="locality" />
		<tag k="ssr:stedsnr" v="530961" />
	</node>
	<node id="-243938" lat="59.595936109" lon="8.69911666403">
		<tag k="highway" v="path" />
		<tag k="name" v="Kleivane" />
		<tag k="ssr:stedsnr" v="470142" />
	</node>
	<node id="-243140" lat="59.7887750005" lon="8.65321111648">
		<tag k="bridge" v="yes" />
		<tag k="layer" v="1" />
		<tag k="name" v="Bergtjønn" />
		<tag k="ssr:stedsnr" v="410247" />
	</node>
	<node id="-244703" lat="59.6879138915" lon="8.48404444753">
		<tag k="ford" v="yes" />
		<tag k="name" v="Nonnevad" />
		<tag k="place" v="locality" />
		<tag k="ssr:stedsnr" v="792633" />
	</node>
	<node id="-243036" lat="59.7152694472" lon="8.69917499549">
		<tag k="landuse" v="industrial" />
		<tag k="name" v="Mydalen" />
		<tag k="power" v="plant" />
		<tag k="ssr:stedsnr" v="367556" />
	</node>
	<node id="-243163" lat="59.6646499982" lon="8.52514999637">
		<tag k="fixme" v="verify maritime location" />
		<tag k="mooring" v="yes" />
		<tag k="name" v="Båtstå" />
		<tag k="place" v="locality" />
		<tag k="ssr:stedsnr" v="894221" />
	</node>
	<node id="-243673" lat="59.6740916642" lon="8.55836110263">
		<tag k="landuse" v="industrial" />
		<tag k="name" v="Bjordalen" />
		<tag k="power" v="plant" />
		<tag k="ssr:stedsnr" v="185671" />
	</node>
	<node id="-243155" lat="59.6481777735" lon="8.5890666709">
		<tag k="name" v="Vangsåvelta" />
		<tag k="place" v="locality" />
		<tag k="ssr:stedsnr" v="894070" />
	</node>
	<node id="-244176" lat="59.7710500033" lon="8.81320000659">
		<tag k="bridge" v="yes" />
		<tag k="layer" v="1" />
		<tag k="name" v="Nybru" />
		<tag k="ssr:stedsnr" v="549947" />
	</node>
	<node id="-243853" lat="59.6565444426" lon="8.97474444421">
		<tag k="highway" v="path" />
		<tag k="name" v="Åsvegen" />
		<tag k="ssr:stedsnr" v="428182" />
	</node>
	<node id="-243654" lat="59.7026444444" lon="8.85890000258">
		<tag k="bridge" v="yes" />
		<tag k="layer" v="1" />
		<tag k="name" v="Sønderland" />
		<tag k="ssr:stedsnr" v="168471" />
	</node>
	<node id="-243141" lat="59.7548805543" lon="8.79391388118">
		<tag k="bridge" v="yes" />
		<tag k="layer" v="1" />
		<tag k="name" v="Juvå" />
		<tag k="ssr:stedsnr" v="410264" />
	</node>
	<node id="-244804" lat="59.6009833323" lon="8.65228888569">
		<tag k="alt_name" v="Flatland" />
		<tag k="bridge" v="yes" />
		<tag k="layer" v="1" />
		<tag k="name" v="Flatland bru" />
		<tag k="ssr:stedsnr" v="836932" />
	</node>
	<node id="-243011" lat="59.6189555567" lon="8.86456944368">
		<tag k="bridge" v="yes" />
		<tag k="layer" v="1" />
		<tag k="name" v="Skorve" />
		<tag k="ssr:stedsnr" v="350449" />
	</node>
	<node id="-244802" lat="59.616580553" lon="8.68680833213">
		<tag k="bridge" v="yes" />
		<tag k="layer" v="1" />
		<tag k="name" v="Skrubbfoss" />
		<tag k="ssr:stedsnr" v="836442" />
	</node>
	<node id="-243520" lat="59.7162611124" lon="8.85163611485">
		<tag k="bridge" v="yes" />
		<tag k="layer" v="1" />
		<tag k="name" v="Øystul" />
		<tag k="ssr:stedsnr" v="107520" />
	</node>
	<node id="-243647" lat="59.5852777805" lon="8.66795556317">
		<tag k="ford" v="yes" />
		<tag k="name" v="Sletteva" />
		<tag k="place" v="locality" />
		<tag k="ssr:stedsnr" v="167746" />
	</node>
	<node id="-244670" lat="59.6534722208" lon="8.90361666259">
		<tag k="bridge" v="yes" />
		<tag k="layer" v="1" />
		<tag k="name" v="Stavå" />
		<tag k="ssr:stedsnr" v="775454" />
	</node>
	<node id="-243013" lat="59.6105305532" lon="8.95695000599">
		<tag k="bridge" v="yes" />
		<tag k="layer" v="1" />
		<tag k="name" v="Åmot" />
		<tag k="ssr:stedsnr" v="350456" />
	</node>
	<node id="-243514" lat="59.6027000024" lon="8.70505834041">
		<tag k="bridge" v="yes" />
		<tag k="layer" v="1" />
		<tag k="name" v="Skeie" />
		<tag k="ssr:stedsnr" v="107244" />
	</node>
	<node id="-244409" lat="59.6005472255" lon="8.68081944919">
		<tag k="bridge" v="yes" />
		<tag k="layer" v="1" />
		<tag k="name" v="Løkslid" />
		<tag k="ssr:stedsnr" v="653238" />
	</node>
	<node id="-243768" lat="59.8128916678" lon="8.6188333265">
		<tag k="bridge" v="yes" />
		<tag k="layer" v="1" />
		<tag k="name" v="Åmot" />
		<tag k="ssr:stedsnr" v="228563" />
	</node>
	<node id="-243892" lat="59.6044027739" lon="8.7116277705">
		<tag k="landuse" v="industrial" />
		<tag k="name" v="Hjartdøla" />
		<tag k="power" v="plant" />
		<tag k="ssr:stedsnr" v="428842" />
	</node>
	<node id="-243766" lat="59.789466664" lon="8.68579721849">
		<tag k="bridge" v="yes" />
		<tag k="layer" v="1" />
		<tag k="name" v="Gausdøla" />
		<tag k="ssr:stedsnr" v="228255" />
	</node>
	<node id="-243765" lat="59.6082361074" lon="8.69772778041">
		<tag k="bridge" v="yes" />
		<tag k="layer" v="1" />
		<tag k="name" v="Djupedal" />
		<tag k="ssr:stedsnr" v="228244" />
	</node>
	<node id="-244788" lat="59.6109888852" lon="8.95537500695">
		<tag k="bridge" v="yes" />
		<tag k="layer" v="1" />
		<tag k="name" v="Hjartdøla" />
		<tag k="ssr:stedsnr" v="835261" />
	</node>
	<node id="-243633" lat="59.6221611138" lon="8.89847777978">
		<tag k="name" v="Brekkevelta" />
		<tag k="place" v="locality" />
		<tag k="ssr:stedsnr" v="167045" />
	</node>
	<node id="-244654" lat="59.6151638872" lon="8.68846110857">
		<tag k="bridge" v="yes" />
		<tag k="layer" v="1" />
		<tag k="name" v="Fossjorde" />
		<tag k="ssr:stedsnr" v="774276" />
	</node>
	<node id="-243372" lat="59.6102499984" lon="8.95888333116">
		<tag k="bridge" v="yes" />
		<tag k="layer" v="1" />
		<tag k="name" v="Mjelle" />
		<tag k="ssr:stedsnr" v="46260" />
	</node>
	<node id="-244646" lat="59.6083694435" lon="8.59387778253">
		<tag k="highway" v="path" />
		<tag k="name" v="Høljestulbrekka" />
		<tag k="ssr:stedsnr" v="773661" />
	</node>
	<node id="-244642" lat="59.5998250028" lon="8.59237222618">
		<tag k="highway" v="path" />
		<tag k="name" v="Vrestebakken" />
		<tag k="ssr:stedsnr" v="773615" />
	</node>
	<node id="-243920" lat="59.7038055562" lon="8.81667500208">
		<tag k="name" v="Rullen" />
		<tag k="place" v="locality" />
		<tag k="ssr:stedsnr" v="469187" />
	</node>
	<node id="-244640" lat="59.7863249972" lon="8.66167222985">
		<tag k="fixme" v="verify maritime location" />
		<tag k="mooring" v="yes" />
		<tag k="name" v="Båtestå" />
		<tag k="place" v="locality" />
		<tag k="ssr:stedsnr" v="773121" />
	</node>
	<node id="-242847" lat="59.6578527743" lon="8.90966388899">
		<tag k="name" v="Fantevelta" />
		<tag k="place" v="locality" />
		<tag k="ssr:stedsnr" v="44618" />
	</node>
	<node id="-243357" lat="59.6151055595" lon="8.86221111688">
		<tag k="name" v="Åsvelta" />
		<tag k="place" v="locality" />
		<tag k="ssr:stedsnr" v="45640" />
	</node>
	<node id="-244252" lat="59.6156083312" lon="8.61759166758">
		<tag k="bridge" v="yes" />
		<tag k="layer" v="1" />
		<tag k="name" v="Århus bru" />
		<tag k="ssr:stedsnr" v="592494" />
	</node>
	<node id="-244635" lat="59.7933888895" lon="8.85342778038">
		<tag k="fixme" v="verify maritime location" />
		<tag k="mooring" v="yes" />
		<tag k="name" v="Båtstå" />
		<tag k="place" v="locality" />
		<tag k="ssr:stedsnr" v="772916" />
	</node>
	<node id="-243610" lat="59.7237805545" lon="8.79343333148">
		<tag k="bridge" v="yes" />
		<tag k="layer" v="1" />
		<tag k="name" v="Hogstulbru" />
		<tag k="ssr:stedsnr" v="165356" />
	</node>
	<node id="-243012" lat="59.6110750014" lon="9.00507500653">
		<tag k="bridge" v="yes" />
		<tag k="layer" v="1" />
		<tag k="name" v="Ørvella" />
		<tag k="ssr:stedsnr" v="350454" />
	</node>
	<node id="-244246" lat="59.6111027747" lon="8.99591944245">
		<tag k="bridge" v="yes" />
		<tag k="layer" v="1" />
		<tag k="name" v="Landsverk" />
		<tag k="ssr:stedsnr" v="592281" />
	</node>
	<node id="-244245" lat="59.6761999996" lon="8.86799444458">
		<tag k="bridge" v="yes" />
		<tag k="layer" v="1" />
		<tag k="name" v="Kasin" />
		<tag k="ssr:stedsnr" v="592279" />
	</node>
	<node id="-244244" lat="59.8124777757" lon="8.61971667311">
		<tag k="bridge" v="yes" />
		<tag k="layer" v="1" />
		<tag k="name" v="Sagebru" />
		<tag k="ssr:stedsnr" v="592277" />
	</node>
	<node id="-242834" lat="59.7551361072" lon="8.78867222243">
		<tag k="bridge" v="yes" />
		<tag k="layer" v="1" />
		<tag k="name" v="Kyrkje" />
		<tag k="ssr:stedsnr" v="289237" />
	</node>
	<node id="-243472" lat="59.704941671" lon="8.86014167049">
		<tag k="name" v="Vigård" />
		<tag k="place" v="locality" />
		<tag k="ssr:stedsnr" v="105222" />
	</node>
	<node id="-244109" lat="59.6112444448" lon="8.9546527747">
		<tag k="bridge" v="yes" />
		<tag k="layer" v="1" />
		<tag k="name" v="Hjartdøla flomløp" />
		<tag k="ssr:stedsnr" v="532240" />
	</node>
	<node id="-244108" lat="59.699391665" lon="8.86113610541">
		<tag k="bridge" v="yes" />
		<tag k="layer" v="1" />
		<tag k="name" v="Grovarå" />
		<tag k="ssr:stedsnr" v="532236" />
	</node>
	<node id="-244993" lat="59.7435583318" lon="8.83445278398">
		<tag k="bridge" v="yes" />
		<tag k="layer" v="1" />
		<tag k="name" v="Dyrhaga" />
		<tag k="ssr:stedsnr" v="957256" />
	</node>
	<node id="-244097" lat="59.5910666651" lon="8.9797277771">
		<tag k="name" v="Pålen" />
		<tag k="place" v="locality" />
		<tag k="ssr:stedsnr" v="531744" />
	</node>
</osm>
