<?xml version="1.0" encoding="UTF-8"?>
<osm generator="osmapis" version="0.6">
	<node id="-243520" lat="59.6412750003" lon="8.93577221674">
		<tag k="name" v="Bringebærskotet" />
		<tag k="place" v="locality" />
		<tag k="ssr:stedsnr" v="894646" />
	</node>
	<node id="-245147" lat="59.5858388917" lon="8.88546666121">
		<tag k="name" v="Dalsposten" />
		<tag k="place" v="locality" />
		<tag k="ssr:stedsnr" v="835970" />
	</node>
	<node id="-245335" lat="59.6221111084" lon="8.8906972274">
		<tag k="name" v="Grisesvingen" />
		<tag k="place" v="locality" />
		<tag k="ssr:stedsnr" v="956731" />
	</node>
	<node id="-243828" lat="59.7740083349" lon="8.7706361079">
		<tag k="name" v="Sagstø" />
		<tag k="place" v="locality" />
		<tag k="ssr:stedsnr" v="105443" />
	</node>
	<node id="-243502" lat="59.6205805589" lon="8.92784999263">
		<tag k="amenity" v="place_of_worship" />
		<tag k="denomination" v="lutheran" />
		<tag k="name" v="Sauland kirke" />
		<tag k="religion" v="christian" />
		<tag k="ssr:stedsnr" v="894116" />
	</node>
	<node id="-243826" lat="59.7344416704" lon="8.80015833836">
		<tag k="name" v="Gutekåsa" />
		<tag k="place" v="locality" />
		<tag k="ssr:stedsnr" v="105358" />
	</node>
	<node id="-243729" lat="59.6021222235" lon="8.64425833478">
		<tag k="name" v="Hjartdal mølle" />
		<tag k="place" v="locality" />
		<tag k="ssr:stedsnr" v="47923" />
	</node>
	<node id="-244271" lat="59.7341916624" lon="8.8163694416">
		<tag k="name" v="Lofthus" />
		<tag k="place" v="locality" />
		<tag k="ssr:stedsnr" v="469361" />
	</node>
	<node id="-245294" lat="59.7557444457" lon="8.78783332896">
		<tag k="amenity" v="place_of_worship" />
		<tag k="denomination" v="lutheran" />
		<tag k="name" v="Tuddal" />
		<tag k="religion" v="christian" />
		<tag k="ssr:stedsnr" v="914959" />
	</node>
	<node id="-243313" lat="59.7080777736" lon="8.75153055418">
		<tag k="name" v="Slaveriet" />
		<tag k="place" v="locality" />
		<tag k="ssr:stedsnr" v="347399" />
	</node>
	<node id="-244468" lat="59.6207055572" lon="8.92781666593">
		<tag k="amenity" v="place_of_worship" />
		<tag k="denomination" v="lutheran" />
		<tag k="name" v="Sauland" />
		<tag k="religion" v="christian" />
		<tag k="ssr:stedsnr" v="549357" />
	</node>
	<node id="-245143" lat="59.6205027778" lon="8.89085278417">
		<tag k="name" v="Tomatsvingen" />
		<tag k="place" v="locality" />
		<tag k="ssr:stedsnr" v="835735" />
	</node>
	<node id="-244680" lat="59.7711888914" lon="8.83675834184">
		<tag k="alt_name" v="Fetjan" />
		<tag k="name" v="Fekjan" />
		<tag k="place" v="locality" />
		<tag k="ssr:stedsnr" v="610958" />
	</node>
	<node id="-243879" lat="59.6608138894" lon="8.86728332731">
		<tag k="name" v="Øvstebøhytta" />
		<tag k="place" v="locality" />
		<tag k="ssr:stedsnr" v="124188" />
	</node>
	<node id="-243333" lat="59.6012111142" lon="8.58466111544">
		<tag k="name" v="Brennun" />
		<tag k="place" v="locality" />
		<tag k="ssr:stedsnr" v="348610" />
	</node>
	<node id="-244452" lat="59.571924997" lon="8.90833610805">
		<tag k="name" v="Kvilaren" />
		<tag k="place" v="locality" />
		<tag k="ssr:stedsnr" v="531894" />
	</node>
	<node id="-243843" lat="59.6315555584" lon="8.58740833737">
		<tag k="name" v="Sågåbakken" />
		<tag k="place" v="locality" />
		<tag k="ssr:stedsnr" v="106399" />
	</node>
	<node id="-244196" lat="59.6040249967" lon="8.63948888737">
		<tag k="amenity" v="place_of_worship" />
		<tag k="denomination" v="lutheran" />
		<tag k="name" v="Hjartdal" />
		<tag k="religion" v="christian" />
		<tag k="ssr:stedsnr" v="427813" />
	</node>
</osm>
