<?xml version="1.0" encoding="UTF-8"?>
<osm generator="osmapis" version="0.6">
	<node id="-265112" lat="59.4700916657" lon="8.06955278297">
		<tag k="name" v="Stavlihei" />
		<tag k="ssr:date" v="2016-05-10" />
		<tag k="ssr:gruppe" v="veg" />
		<tag k="ssr:hovedgruppe" v="infrastruktur" />
		<tag k="ssr:stedsnr" v="656478" />
		<tag k="ssr:type" v="vegstrekning" />
	</node>
	<node id="-263695" lat="59.5438861142" lon="8.04703888916">
		<tag k="name" v="Gamleveg" />
		<tag k="ssr:date" v="2016-05-10" />
		<tag k="ssr:gruppe" v="veg" />
		<tag k="ssr:hovedgruppe" v="infrastruktur" />
		<tag k="ssr:stedsnr" v="110267" />
		<tag k="ssr:type" v="vegstrekning" />
	</node>
	<node id="-262878" lat="59.428658501" lon="8.17517487034">
		<tag k="name" v="Talleiv Røyslands veg" />
		<tag k="ssr:date" v="2019-05-31" />
		<tag k="ssr:gruppe" v="veg" />
		<tag k="ssr:hovedgruppe" v="infrastruktur" />
		<tag k="ssr:stedsnr" v="1049893" />
		<tag k="ssr:type" v="adressenavn" />
	</node>
	<node id="-266020" lat="59.4456861135" lon="8.01387499808">
		<tag k="name" v="Tokke kommune" />
		<tag k="ssr:date" v="2016-05-11" />
		<tag k="ssr:gruppe" v="administrativeIndelinger" />
		<tag k="ssr:hovedgruppe" v="offentligAdministrasjon" />
		<tag k="ssr:stedsnr" v="935930" />
		<tag k="ssr:type" v="kommune" />
	</node>
	<node id="-266145" lat="60.5908609473" lon="9.63819281559">
		<tag k="fixme" v="multiple name tags, choose one and add the other to alt_name" />
		<tag k="name" v="Austlandet;Østlandet" />
		<tag k="ssr:date" v="2018-01-09" />
		<tag k="ssr:gruppe" v="administrativeIndelinger" />
		<tag k="ssr:hovedgruppe" v="offentligAdministrasjon" />
		<tag k="ssr:stedsnr" v="974775" />
		<tag k="ssr:type" v="annenAdministrativInndeling" />
	</node>
</osm>
