<?xml version="1.0" encoding="UTF-8"?>
<osm version="0.6" generator="osmapis">
	<node lat="60.37327505106523" lon="6.011878039154346" id="-68083">
		<tag k="name" v="Alhovden" />
		<tag k="ssr:date" v="2019-12-27" />
		<tag k="ssr:gruppe" v="veg" />
		<tag k="ssr:hovedgruppe" v="infrastruktur" />
		<tag k="ssr:stedsnr" v="242528" />
		<tag k="ssr:type" v="adressenavn" />
	</node>
	<node lat="60.39528632965293" lon="5.921670188490204" id="-68178">
		<tag k="name" v="Teigen" />
		<tag k="ssr:date" v="2019-12-27" />
		<tag k="ssr:gruppe" v="veg" />
		<tag k="ssr:hovedgruppe" v="infrastruktur" />
		<tag k="ssr:stedsnr" v="120082" />
		<tag k="ssr:type" v="adressenavn" />
	</node>
	<node lat="60.24364999681614" lon="6.155802769734954" id="-68269">
		<tag k="alt_name" v="Ljonestangen" />
		<tag k="name" v="Ljonestangen lykt" />
		<tag k="ssr:date" v="2019-12-27" />
		<tag k="ssr:gruppe" v="navigasjon" />
		<tag k="ssr:hovedgruppe" v="infrastruktur" />
		<tag k="ssr:stedsnr" v="187727" />
		<tag k="ssr:type" v="fyrlykt" />
	</node>
	<node lat="60.36920047557445" lon="6.027466544774076" id="-68395">
		<tag k="name" v="Fureberghovden" />
		<tag k="ssr:date" v="2019-12-27" />
		<tag k="ssr:gruppe" v="veg" />
		<tag k="ssr:hovedgruppe" v="infrastruktur" />
		<tag k="ssr:stedsnr" v="302109" />
		<tag k="ssr:type" v="adressenavn" />
	</node>
	<node lat="60.382827927898184" lon="6.231456131972001" id="-68434">
		<tag k="name" v="Kalhageneset" />
		<tag k="ssr:date" v="2019-12-27" />
		<tag k="ssr:gruppe" v="veg" />
		<tag k="ssr:hovedgruppe" v="infrastruktur" />
		<tag k="ssr:stedsnr" v="324473" />
		<tag k="ssr:type" v="adressenavn" />
	</node>
	<node lat="60.369775003511585" lon="6.143449991954972" id="-68549">
		<tag k="alt_name" v="Kvam" />
		<tag k="name" v="Kvam herad" />
		<tag k="ssr:date" v="2019-12-27" />
		<tag k="ssr:gruppe" v="administrativeIndelinger" />
		<tag k="ssr:hovedgruppe" v="offentligAdministrasjon" />
		<tag k="ssr:stedsnr" v="388314" />
		<tag k="ssr:type" v="kommune" />
	</node>
	<node lat="60.13300555704384" lon="5.905924991508209" id="-68594">
		<tag k="alt_name" v="Bondesund" />
		<tag k="name" v="Bondesund lykt" />
		<tag k="ssr:date" v="2019-12-27" />
		<tag k="ssr:gruppe" v="navigasjon" />
		<tag k="ssr:hovedgruppe" v="infrastruktur" />
		<tag k="ssr:stedsnr" v="490579" />
		<tag k="ssr:type" v="fyrlykt" />
	</node>
	<node lat="60.43294166333366" lon="6.443652779133263" id="-68788">
		<tag k="name" v="Skjærabakken" />
		<tag k="ssr:date" v="2019-12-27" />
		<tag k="ssr:gruppe" v="veg" />
		<tag k="ssr:hovedgruppe" v="infrastruktur" />
		<tag k="ssr:stedsnr" v="481607" />
		<tag k="ssr:type" v="adressenavn" />
	</node>
	<node lat="60.38584353852436" lon="5.982428122008814" id="-68789">
		<tag k="name" v="Gråsteinsdalen" />
		<tag k="ssr:date" v="2019-12-27" />
		<tag k="ssr:gruppe" v="veg" />
		<tag k="ssr:hovedgruppe" v="infrastruktur" />
		<tag k="ssr:stedsnr" v="484604" />
		<tag k="ssr:type" v="adressenavn" />
	</node>
	<node lat="60.37509668470799" lon="5.989929717336782" id="-68860">
		<tag k="name" v="Røyro" />
		<tag k="ssr:date" v="2019-12-27" />
		<tag k="ssr:gruppe" v="veg" />
		<tag k="ssr:hovedgruppe" v="infrastruktur" />
		<tag k="ssr:stedsnr" v="545573" />
		<tag k="ssr:type" v="adressenavn" />
	</node>
	<node lat="60.37082658892642" lon="5.965357694428276" id="-68996">
		<tag k="name" v="Furedalen" />
		<tag k="ssr:date" v="2019-12-27" />
		<tag k="ssr:gruppe" v="veg" />
		<tag k="ssr:hovedgruppe" v="infrastruktur" />
		<tag k="ssr:stedsnr" v="666582" />
		<tag k="ssr:type" v="adressenavn" />
	</node>
	<node lat="60.37375628739177" lon="5.993116760671578" id="-68997">
		<tag k="name" v="Kvinnhovden" />
		<tag k="ssr:date" v="2019-12-27" />
		<tag k="ssr:gruppe" v="veg" />
		<tag k="ssr:hovedgruppe" v="infrastruktur" />
		<tag k="ssr:stedsnr" v="666587" />
		<tag k="ssr:type" v="adressenavn" />
	</node>
	<node lat="60.406027777014174" lon="6.260777772682358" id="-69038">
		<tag k="name" v="Brunnen" />
		<tag k="ssr:date" v="2019-12-27" />
		<tag k="ssr:gruppe" v="sjøbunn" />
		<tag k="ssr:hovedgruppe" v="sjø" />
		<tag k="ssr:stedsnr" v="894097" />
		<tag k="ssr:type" v="søkkISjø" />
	</node>
	<node lat="60.38088798552833" lon="5.9960463164251125" id="-69132">
		<tag k="name" v="Røyrli" />
		<tag k="ssr:date" v="2019-12-27" />
		<tag k="ssr:gruppe" v="veg" />
		<tag k="ssr:hovedgruppe" v="infrastruktur" />
		<tag k="ssr:stedsnr" v="727087" />
		<tag k="ssr:type" v="adressenavn" />
	</node>
	<node lat="60.38456287817007" lon="5.965421248473122" id="-69133">
		<tag k="name" v="Vassværena" />
		<tag k="ssr:date" v="2019-12-27" />
		<tag k="ssr:gruppe" v="veg" />
		<tag k="ssr:hovedgruppe" v="infrastruktur" />
		<tag k="ssr:stedsnr" v="727089" />
		<tag k="ssr:type" v="adressenavn" />
	</node>
	<node lat="60.36658094105715" lon="5.996395767085891" id="-69187">
		<tag k="name" v="Løkavegen" />
		<tag k="ssr:date" v="2019-12-27" />
		<tag k="ssr:gruppe" v="veg" />
		<tag k="ssr:hovedgruppe" v="infrastruktur" />
		<tag k="ssr:stedsnr" v="909575" />
		<tag k="ssr:type" v="adressenavn" />
	</node>
	<node lat="60.38742072383581" lon="5.9667430153416365" id="-69377">
		<tag k="name" v="Leitet" />
		<tag k="ssr:date" v="2019-12-27" />
		<tag k="ssr:gruppe" v="veg" />
		<tag k="ssr:hovedgruppe" v="infrastruktur" />
		<tag k="ssr:stedsnr" v="909615" />
		<tag k="ssr:type" v="adressenavn" />
	</node>
	<node lat="60.36231331898887" lon="6.282355811700889" id="-69378">
		<tag k="alt_name" v="Kvamsøy" />
		<tag k="name" v="Kvamsøy lykt" />
		<tag k="ssr:date" v="2020-09-15" />
		<tag k="ssr:gruppe" v="navigasjon" />
		<tag k="ssr:hovedgruppe" v="infrastruktur" />
		<tag k="ssr:stedsnr" v="915090" />
		<tag k="ssr:type" v="fyrlykt" />
	</node>
	<node lat="60.36567576046699" lon="5.975200979535554" id="-69533">
		<tag k="name" v="Mødalsvegen" />
		<tag k="ssr:date" v="2019-12-27" />
		<tag k="ssr:gruppe" v="veg" />
		<tag k="ssr:hovedgruppe" v="infrastruktur" />
		<tag k="ssr:stedsnr" v="44863" />
		<tag k="ssr:type" v="adressenavn" />
	</node>
	<node lat="60.39276322837404" lon="5.931177175868885" id="-69538">
		<tag k="name" v="Blombotn" />
		<tag k="ssr:date" v="2019-12-27" />
		<tag k="ssr:gruppe" v="veg" />
		<tag k="ssr:hovedgruppe" v="infrastruktur" />
		<tag k="ssr:stedsnr" v="59062" />
		<tag k="ssr:type" v="adressenavn" />
	</node>
	<node lat="60.3894812438048" lon="6.205273133115262" id="-69685">
		<tag k="name" v="Gartveitbrotet" />
		<tag k="ssr:date" v="2019-12-27" />
		<tag k="ssr:gruppe" v="veg" />
		<tag k="ssr:hovedgruppe" v="infrastruktur" />
		<tag k="ssr:stedsnr" v="141473" />
		<tag k="ssr:type" v="adressenavn" />
	</node>
	<node lat="60.432711113865324" lon="6.442491657715101" id="-69728">
		<tag k="name" v="Molovegen" />
		<tag k="ssr:date" v="2019-12-27" />
		<tag k="ssr:gruppe" v="veg" />
		<tag k="ssr:hovedgruppe" v="infrastruktur" />
		<tag k="ssr:stedsnr" v="178589" />
		<tag k="ssr:type" v="adressenavn" />
	</node>
	<node lat="60.38803910568993" lon="5.976859575068281" id="-69729">
		<tag k="name" v="Dalen" />
		<tag k="ssr:date" v="2019-12-27" />
		<tag k="ssr:gruppe" v="veg" />
		<tag k="ssr:hovedgruppe" v="infrastruktur" />
		<tag k="ssr:stedsnr" v="181086" />
		<tag k="ssr:type" v="adressenavn" />
	</node>
	<node lat="60.37584666722781" lon="5.981502706999932" id="-69730">
		<tag k="name" v="Øvre Furedalen" />
		<tag k="ssr:date" v="2019-12-27" />
		<tag k="ssr:gruppe" v="veg" />
		<tag k="ssr:hovedgruppe" v="infrastruktur" />
		<tag k="ssr:stedsnr" v="181599" />
		<tag k="ssr:type" v="adressenavn" />
	</node>
	<node lat="60.37464820608911" lon="6.013916061759375" id="-69731">
		<tag k="name" v="Øvre Kvernaskogen" />
		<tag k="ssr:date" v="2019-12-27" />
		<tag k="ssr:gruppe" v="veg" />
		<tag k="ssr:hovedgruppe" v="infrastruktur" />
		<tag k="ssr:stedsnr" v="181616" />
		<tag k="ssr:type" v="adressenavn" />
	</node>
	<node lat="60.36290375518761" lon="6.020979982102976" id="-69989">
		<tag k="name" v="Langvotnevegen" />
		<tag k="ssr:date" v="2019-12-27" />
		<tag k="ssr:gruppe" v="veg" />
		<tag k="ssr:hovedgruppe" v="infrastruktur" />
		<tag k="ssr:stedsnr" v="363077" />
		<tag k="ssr:type" v="adressenavn" />
	</node>
	<node lat="60.371441295692435" lon="6.017506218642663" id="-69990">
		<tag k="name" v="Skarbekkdalen" />
		<tag k="ssr:date" v="2019-12-27" />
		<tag k="ssr:gruppe" v="veg" />
		<tag k="ssr:hovedgruppe" v="infrastruktur" />
		<tag k="ssr:stedsnr" v="363552" />
		<tag k="ssr:type" v="adressenavn" />
	</node>
	<node lat="60.39384376757953" lon="5.9465547816835045" id="-70068">
		<tag k="name" v="Tangen" />
		<tag k="ssr:date" v="2019-12-27" />
		<tag k="ssr:gruppe" v="veg" />
		<tag k="ssr:hovedgruppe" v="infrastruktur" />
		<tag k="ssr:stedsnr" v="424591" />
		<tag k="ssr:type" v="adressenavn" />
	</node>
	<node lat="60.36920047557445" lon="6.027466544774076" id="-70145">
		<tag k="name" v="Byrkjesetevegen" />
		<tag k="ssr:date" v="2019-12-27" />
		<tag k="ssr:gruppe" v="veg" />
		<tag k="ssr:hovedgruppe" v="infrastruktur" />
		<tag k="ssr:stedsnr" v="529438" />
		<tag k="ssr:type" v="adressenavn" />
	</node>
	<node lat="60.36612424076205" lon="5.987288648344144" id="-70160">
		<tag k="name" v="Hjeltelia" />
		<tag k="ssr:date" v="2019-12-27" />
		<tag k="ssr:gruppe" v="veg" />
		<tag k="ssr:hovedgruppe" v="infrastruktur" />
		<tag k="ssr:stedsnr" v="545547" />
		<tag k="ssr:type" v="adressenavn" />
	</node>
	<node lat="60.382451319026856" lon="5.98335440148214" id="-70237">
		<tag k="name" v="Åreiane" />
		<tag k="ssr:date" v="2019-12-27" />
		<tag k="ssr:gruppe" v="veg" />
		<tag k="ssr:hovedgruppe" v="infrastruktur" />
		<tag k="ssr:stedsnr" v="605617" />
		<tag k="ssr:type" v="adressenavn" />
	</node>
	<node lat="60.37685155509454" lon="5.981735914106383" id="-70327">
		<tag k="name" v="Furedalsskaret" />
		<tag k="ssr:date" v="2019-12-27" />
		<tag k="ssr:gruppe" v="veg" />
		<tag k="ssr:hovedgruppe" v="infrastruktur" />
		<tag k="ssr:stedsnr" v="666098" />
		<tag k="ssr:type" v="adressenavn" />
	</node>
	<node lat="60.37399055759869" lon="6.01285533819477" id="-70328">
		<tag k="name" v="Nedre Kvernaskogen" />
		<tag k="ssr:date" v="2019-12-27" />
		<tag k="ssr:gruppe" v="veg" />
		<tag k="ssr:hovedgruppe" v="infrastruktur" />
		<tag k="ssr:stedsnr" v="666600" />
		<tag k="ssr:type" v="adressenavn" />
	</node>
	<node lat="60.37459797760546" lon="6.009102446587228" id="-70351">
		<tag k="name" v="Steinskvanndalsvegen" />
		<tag k="ssr:date" v="2019-12-27" />
		<tag k="ssr:gruppe" v="veg" />
		<tag k="ssr:hovedgruppe" v="infrastruktur" />
		<tag k="ssr:stedsnr" v="727612" />
		<tag k="ssr:type" v="adressenavn" />
	</node>
	<node lat="60.393763367163096" lon="5.957201936438961" id="-70655">
		<tag k="name" v="Kleven" />
		<tag k="ssr:date" v="2019-12-27" />
		<tag k="ssr:gruppe" v="veg" />
		<tag k="ssr:hovedgruppe" v="infrastruktur" />
		<tag k="ssr:stedsnr" v="969077" />
		<tag k="ssr:type" v="adressenavn" />
	</node>
	<node lat="60.40677143745668" lon="5.917435751331663" id="-70656">
		<tag k="name" v="Kråvegen" />
		<tag k="ssr:date" v="2019-12-27" />
		<tag k="ssr:gruppe" v="veg" />
		<tag k="ssr:hovedgruppe" v="infrastruktur" />
		<tag k="ssr:stedsnr" v="970167" />
		<tag k="ssr:type" v="adressenavn" />
	</node>
	<node lat="60.27233827313639" lon="6.034485711792329" id="-70672">
		<tag k="name" v="Haukåsvegen" />
		<tag k="ssr:date" v="2019-12-27" />
		<tag k="ssr:gruppe" v="veg" />
		<tag k="ssr:hovedgruppe" v="infrastruktur" />
		<tag k="ssr:stedsnr" v="1039137" />
		<tag k="ssr:type" v="adressenavn" />
	</node>
	<node lat="60.24608190985428" lon="6.154543980910719" id="-70673">
		<tag k="name" v="Tangavegen" />
		<tag k="ssr:date" v="2019-12-27" />
		<tag k="ssr:gruppe" v="veg" />
		<tag k="ssr:hovedgruppe" v="infrastruktur" />
		<tag k="ssr:stedsnr" v="1039139" />
		<tag k="ssr:type" v="adressenavn" />
	</node>
	<node lat="60.25729323539399" lon="6.1370715929162944" id="-70674">
		<tag k="name" v="Kolltveitvegen" />
		<tag k="ssr:date" v="2019-12-27" />
		<tag k="ssr:gruppe" v="veg" />
		<tag k="ssr:hovedgruppe" v="infrastruktur" />
		<tag k="ssr:stedsnr" v="1039141" />
		<tag k="ssr:type" v="adressenavn" />
	</node>
	<node lat="60.27021613554424" lon="6.038514395401257" id="-70675">
		<tag k="name" v="Fossvegen" />
		<tag k="ssr:date" v="2019-12-27" />
		<tag k="ssr:gruppe" v="veg" />
		<tag k="ssr:hovedgruppe" v="infrastruktur" />
		<tag k="ssr:stedsnr" v="1039143" />
		<tag k="ssr:type" v="adressenavn" />
	</node>
	<node lat="60.27092478377447" lon="6.012057028232915" id="-70676">
		<tag k="name" v="Strandadalsvegen" />
		<tag k="ssr:date" v="2019-12-27" />
		<tag k="ssr:gruppe" v="veg" />
		<tag k="ssr:hovedgruppe" v="infrastruktur" />
		<tag k="ssr:stedsnr" v="1039145" />
		<tag k="ssr:type" v="adressenavn" />
	</node>
	<node lat="60.285565532446974" lon="6.033573127358729" id="-70677">
		<tag k="name" v="Tordalsvegen" />
		<tag k="ssr:date" v="2019-12-27" />
		<tag k="ssr:gruppe" v="veg" />
		<tag k="ssr:hovedgruppe" v="infrastruktur" />
		<tag k="ssr:stedsnr" v="1039147" />
		<tag k="ssr:type" v="adressenavn" />
	</node>
	<node lat="60.29627898008147" lon="6.022213202657255" id="-70678">
		<tag k="name" v="Holsetevegen" />
		<tag k="ssr:date" v="2019-12-27" />
		<tag k="ssr:gruppe" v="veg" />
		<tag k="ssr:hovedgruppe" v="infrastruktur" />
		<tag k="ssr:stedsnr" v="1039149" />
		<tag k="ssr:type" v="adressenavn" />
	</node>
	<node lat="60.278319241467685" lon="6.190519832614167" id="-70679">
		<tag k="name" v="Vågavegen" />
		<tag k="ssr:date" v="2019-12-27" />
		<tag k="ssr:gruppe" v="veg" />
		<tag k="ssr:hovedgruppe" v="infrastruktur" />
		<tag k="ssr:stedsnr" v="1039151" />
		<tag k="ssr:type" v="adressenavn" />
	</node>
	<node lat="60.279313493473666" lon="6.165328829050995" id="-70680">
		<tag k="name" v="Eidesvegen" />
		<tag k="ssr:date" v="2019-12-27" />
		<tag k="ssr:gruppe" v="veg" />
		<tag k="ssr:hovedgruppe" v="infrastruktur" />
		<tag k="ssr:stedsnr" v="1039153" />
		<tag k="ssr:type" v="adressenavn" />
	</node>
	<node lat="60.28885579180505" lon="6.174711535553831" id="-70681">
		<tag k="name" v="Ramsjona" />
		<tag k="ssr:date" v="2019-12-27" />
		<tag k="ssr:gruppe" v="veg" />
		<tag k="ssr:hovedgruppe" v="infrastruktur" />
		<tag k="ssr:stedsnr" v="1039155" />
		<tag k="ssr:type" v="adressenavn" />
	</node>
	<node lat="60.28555415892553" lon="6.15407437207437" id="-70682">
		<tag k="name" v="Augastadvegen" />
		<tag k="ssr:date" v="2019-12-27" />
		<tag k="ssr:gruppe" v="veg" />
		<tag k="ssr:hovedgruppe" v="infrastruktur" />
		<tag k="ssr:stedsnr" v="1039157" />
		<tag k="ssr:type" v="adressenavn" />
	</node>
	<node lat="60.230706623226965" lon="6.000981820371175" id="-70683">
		<tag k="name" v="Strandebarmsvegen" />
		<tag k="ssr:date" v="2019-12-27" />
		<tag k="ssr:gruppe" v="veg" />
		<tag k="ssr:hovedgruppe" v="infrastruktur" />
		<tag k="ssr:stedsnr" v="1039159" />
		<tag k="ssr:type" v="adressenavn" />
	</node>
	<node lat="60.2630059448619" lon="6.141589887564476" id="-70684">
		<tag k="name" v="Ljonesvegen" />
		<tag k="ssr:date" v="2019-12-27" />
		<tag k="ssr:gruppe" v="veg" />
		<tag k="ssr:hovedgruppe" v="infrastruktur" />
		<tag k="ssr:stedsnr" v="1039160" />
		<tag k="ssr:type" v="adressenavn" />
	</node>
	<node lat="60.27741246946057" lon="6.155976958432894" id="-70685">
		<tag k="name" v="Åsevegen" />
		<tag k="ssr:date" v="2019-12-27" />
		<tag k="ssr:gruppe" v="veg" />
		<tag k="ssr:hovedgruppe" v="infrastruktur" />
		<tag k="ssr:stedsnr" v="1039163" />
		<tag k="ssr:type" v="adressenavn" />
	</node>
	<node lat="60.25305968915248" lon="6.096881852739558" id="-70686">
		<tag k="name" v="Innstrandavegen" />
		<tag k="ssr:date" v="2019-12-27" />
		<tag k="ssr:gruppe" v="veg" />
		<tag k="ssr:hovedgruppe" v="infrastruktur" />
		<tag k="ssr:stedsnr" v="1039165" />
		<tag k="ssr:type" v="adressenavn" />
	</node>
	<node lat="60.348372879307014" lon="6.167186291926089" id="-70687">
		<tag k="name" v="Fossovegen" />
		<tag k="ssr:date" v="2019-12-27" />
		<tag k="ssr:gruppe" v="veg" />
		<tag k="ssr:hovedgruppe" v="infrastruktur" />
		<tag k="ssr:stedsnr" v="1039167" />
		<tag k="ssr:type" v="adressenavn" />
	</node>
	<node lat="60.349666407622664" lon="6.175679606883478" id="-70688">
		<tag k="name" v="Byrkjelandsvegen" />
		<tag k="ssr:date" v="2019-12-27" />
		<tag k="ssr:gruppe" v="veg" />
		<tag k="ssr:hovedgruppe" v="infrastruktur" />
		<tag k="ssr:stedsnr" v="1039170" />
		<tag k="ssr:type" v="adressenavn" />
	</node>
	<node lat="60.34989989246057" lon="6.174372285317968" id="-70689">
		<tag k="name" v="Bruhaugvegen" />
		<tag k="ssr:date" v="2019-12-27" />
		<tag k="ssr:gruppe" v="veg" />
		<tag k="ssr:hovedgruppe" v="infrastruktur" />
		<tag k="ssr:stedsnr" v="1039173" />
		<tag k="ssr:type" v="adressenavn" />
	</node>
	<node lat="60.35042552347818" lon="6.173006897108199" id="-70690">
		<tag k="name" v="Gamle Tveitevegen" />
		<tag k="ssr:date" v="2019-12-27" />
		<tag k="ssr:gruppe" v="veg" />
		<tag k="ssr:hovedgruppe" v="infrastruktur" />
		<tag k="ssr:stedsnr" v="1039175" />
		<tag k="ssr:type" v="adressenavn" />
	</node>
	<node lat="60.348066159614326" lon="6.1884261097310596" id="-70691">
		<tag k="name" v="Holmen" />
		<tag k="ssr:date" v="2019-12-27" />
		<tag k="ssr:gruppe" v="veg" />
		<tag k="ssr:hovedgruppe" v="infrastruktur" />
		<tag k="ssr:stedsnr" v="1039177" />
		<tag k="ssr:type" v="adressenavn" />
	</node>
	<node lat="60.34319822312768" lon="6.211016454654171" id="-70692">
		<tag k="name" v="Aksnesvegen" />
		<tag k="ssr:date" v="2019-12-27" />
		<tag k="ssr:gruppe" v="veg" />
		<tag k="ssr:hovedgruppe" v="infrastruktur" />
		<tag k="ssr:stedsnr" v="1039179" />
		<tag k="ssr:type" v="adressenavn" />
	</node>
	<node lat="60.3440865875808" lon="6.175243202696685" id="-70693">
		<tag k="name" v="Breimyråsen" />
		<tag k="ssr:date" v="2019-12-27" />
		<tag k="ssr:gruppe" v="veg" />
		<tag k="ssr:hovedgruppe" v="infrastruktur" />
		<tag k="ssr:stedsnr" v="1039181" />
		<tag k="ssr:type" v="adressenavn" />
	</node>
	<node lat="60.34699230500936" lon="6.184898956941878" id="-70694">
		<tag k="name" v="Sørheimsvegen" />
		<tag k="ssr:date" v="2019-12-27" />
		<tag k="ssr:gruppe" v="veg" />
		<tag k="ssr:hovedgruppe" v="infrastruktur" />
		<tag k="ssr:stedsnr" v="1039183" />
		<tag k="ssr:type" v="adressenavn" />
	</node>
	<node lat="60.3652346879004" lon="6.085173773596825" id="-70695">
		<tag k="name" v="Steine" />
		<tag k="ssr:date" v="2019-12-27" />
		<tag k="ssr:gruppe" v="veg" />
		<tag k="ssr:hovedgruppe" v="infrastruktur" />
		<tag k="ssr:stedsnr" v="1039185" />
		<tag k="ssr:type" v="adressenavn" />
	</node>
	<node lat="60.39035497797273" lon="6.197838444979079" id="-70696">
		<tag k="name" v="Gartveitvegen" />
		<tag k="ssr:date" v="2019-12-27" />
		<tag k="ssr:gruppe" v="veg" />
		<tag k="ssr:hovedgruppe" v="infrastruktur" />
		<tag k="ssr:stedsnr" v="1039287" />
		<tag k="ssr:type" v="adressenavn" />
	</node>
	<node lat="60.19702737597157" lon="5.959914396219038" id="-70697">
		<tag k="name" v="Omavegen" />
		<tag k="ssr:date" v="2019-12-27" />
		<tag k="ssr:gruppe" v="veg" />
		<tag k="ssr:hovedgruppe" v="infrastruktur" />
		<tag k="ssr:stedsnr" v="1038981" />
		<tag k="ssr:type" v="adressenavn" />
	</node>
	<node lat="60.16337264350304" lon="5.905771162718308" id="-70698">
		<tag k="name" v="Mundheimsvegen" />
		<tag k="ssr:date" v="2019-12-27" />
		<tag k="ssr:gruppe" v="veg" />
		<tag k="ssr:hovedgruppe" v="infrastruktur" />
		<tag k="ssr:stedsnr" v="1038983" />
		<tag k="ssr:type" v="adressenavn" />
	</node>
	<node lat="60.23813816027059" lon="5.992953616741178" id="-70699">
		<tag k="name" v="Lambadalen" />
		<tag k="ssr:date" v="2019-12-27" />
		<tag k="ssr:gruppe" v="veg" />
		<tag k="ssr:hovedgruppe" v="infrastruktur" />
		<tag k="ssr:stedsnr" v="1038985" />
		<tag k="ssr:type" v="adressenavn" />
	</node>
	<node lat="60.231595716249316" lon="6.004781026121291" id="-70700">
		<tag k="name" v="Båtavika" />
		<tag k="ssr:date" v="2019-12-27" />
		<tag k="ssr:gruppe" v="veg" />
		<tag k="ssr:hovedgruppe" v="infrastruktur" />
		<tag k="ssr:stedsnr" v="1038987" />
		<tag k="ssr:type" v="adressenavn" />
	</node>
	<node lat="60.21865932257044" lon="5.976087916690604" id="-70701">
		<tag k="name" v="Kollen" />
		<tag k="ssr:date" v="2019-12-27" />
		<tag k="ssr:gruppe" v="veg" />
		<tag k="ssr:hovedgruppe" v="infrastruktur" />
		<tag k="ssr:stedsnr" v="1038989" />
		<tag k="ssr:type" v="adressenavn" />
	</node>
	<node lat="60.21528589344206" lon="5.967985539307696" id="-70702">
		<tag k="name" v="Gjerdavegen" />
		<tag k="ssr:date" v="2019-12-27" />
		<tag k="ssr:gruppe" v="veg" />
		<tag k="ssr:hovedgruppe" v="infrastruktur" />
		<tag k="ssr:stedsnr" v="1038991" />
		<tag k="ssr:type" v="adressenavn" />
	</node>
	<node lat="60.115352867244106" lon="5.90816218479515" id="-70703">
		<tag k="name" v="Gravdalsvegen" />
		<tag k="ssr:date" v="2019-12-27" />
		<tag k="ssr:gruppe" v="veg" />
		<tag k="ssr:hovedgruppe" v="infrastruktur" />
		<tag k="ssr:stedsnr" v="1038993" />
		<tag k="ssr:type" v="adressenavn" />
	</node>
	<node lat="60.22164451656775" lon="5.981460255579154" id="-70704">
		<tag k="name" v="Oma-Åse" />
		<tag k="ssr:date" v="2019-12-27" />
		<tag k="ssr:gruppe" v="veg" />
		<tag k="ssr:hovedgruppe" v="infrastruktur" />
		<tag k="ssr:stedsnr" v="1038995" />
		<tag k="ssr:type" v="adressenavn" />
	</node>
	<node lat="60.26111785441597" lon="6.012581411794893" id="-70705">
		<tag k="name" v="Tangeråshagen" />
		<tag k="ssr:date" v="2019-12-27" />
		<tag k="ssr:gruppe" v="veg" />
		<tag k="ssr:hovedgruppe" v="infrastruktur" />
		<tag k="ssr:stedsnr" v="1038997" />
		<tag k="ssr:type" v="adressenavn" />
	</node>
	<node lat="60.25923343448317" lon="6.00872390839874" id="-70706">
		<tag k="name" v="Tangeråslia" />
		<tag k="ssr:date" v="2019-12-27" />
		<tag k="ssr:gruppe" v="veg" />
		<tag k="ssr:hovedgruppe" v="infrastruktur" />
		<tag k="ssr:stedsnr" v="1038999" />
		<tag k="ssr:type" v="adressenavn" />
	</node>
	<node lat="60.267648851757485" lon="6.007646047381522" id="-70707">
		<tag k="name" v="Kolhaugen" />
		<tag k="ssr:date" v="2019-12-27" />
		<tag k="ssr:gruppe" v="veg" />
		<tag k="ssr:hovedgruppe" v="infrastruktur" />
		<tag k="ssr:stedsnr" v="1039001" />
		<tag k="ssr:type" v="adressenavn" />
	</node>
	<node lat="60.26117670834898" lon="6.010945352145351" id="-70708">
		<tag k="name" v="Ploganeset" />
		<tag k="ssr:date" v="2019-12-27" />
		<tag k="ssr:gruppe" v="veg" />
		<tag k="ssr:hovedgruppe" v="infrastruktur" />
		<tag k="ssr:stedsnr" v="1039003" />
		<tag k="ssr:type" v="adressenavn" />
	</node>
	<node lat="60.248783877364254" lon="6.004514476388172" id="-70709">
		<tag k="name" v="Grøningsvegen" />
		<tag k="ssr:date" v="2019-12-27" />
		<tag k="ssr:gruppe" v="veg" />
		<tag k="ssr:hovedgruppe" v="infrastruktur" />
		<tag k="ssr:stedsnr" v="1039005" />
		<tag k="ssr:type" v="adressenavn" />
	</node>
	<node lat="60.24673472000849" lon="6.006497631325555" id="-70710">
		<tag k="name" v="Eikjeneset" />
		<tag k="ssr:date" v="2019-12-27" />
		<tag k="ssr:gruppe" v="veg" />
		<tag k="ssr:hovedgruppe" v="infrastruktur" />
		<tag k="ssr:stedsnr" v="1039008" />
		<tag k="ssr:type" v="adressenavn" />
	</node>
	<node lat="60.25634446034234" lon="6.010690667613037" id="-70711">
		<tag k="name" v="Tangeråsneset" />
		<tag k="ssr:date" v="2019-12-27" />
		<tag k="ssr:gruppe" v="veg" />
		<tag k="ssr:hovedgruppe" v="infrastruktur" />
		<tag k="ssr:stedsnr" v="1039010" />
		<tag k="ssr:type" v="adressenavn" />
	</node>
	<node lat="60.25592750356004" lon="6.007735943078552" id="-70712">
		<tag k="name" v="Ytre Tangerås" />
		<tag k="ssr:date" v="2019-12-27" />
		<tag k="ssr:gruppe" v="veg" />
		<tag k="ssr:hovedgruppe" v="infrastruktur" />
		<tag k="ssr:stedsnr" v="1039013" />
		<tag k="ssr:type" v="adressenavn" />
	</node>
	<node lat="60.34492781036052" lon="6.177902872051133" id="-70713">
		<tag k="name" v="Hegrehaugen" />
		<tag k="ssr:date" v="2019-12-27" />
		<tag k="ssr:gruppe" v="veg" />
		<tag k="ssr:hovedgruppe" v="infrastruktur" />
		<tag k="ssr:stedsnr" v="1039016" />
		<tag k="ssr:type" v="adressenavn" />
	</node>
	<node lat="60.308101054244624" lon="6.156834786808927" id="-70714">
		<tag k="name" v="Torvikvegen" />
		<tag k="ssr:date" v="2019-12-27" />
		<tag k="ssr:gruppe" v="veg" />
		<tag k="ssr:hovedgruppe" v="infrastruktur" />
		<tag k="ssr:stedsnr" v="1039018" />
		<tag k="ssr:type" v="adressenavn" />
	</node>
	<node lat="60.30490092205596" lon="6.172450872292798" id="-70715">
		<tag k="name" v="Hetlevikvegen" />
		<tag k="ssr:date" v="2019-12-27" />
		<tag k="ssr:gruppe" v="veg" />
		<tag k="ssr:hovedgruppe" v="infrastruktur" />
		<tag k="ssr:stedsnr" v="1039022" />
		<tag k="ssr:type" v="adressenavn" />
	</node>
	<node lat="60.16759105458348" lon="5.933487582235826" id="-70716">
		<tag k="name" v="Nernesvegen" />
		<tag k="ssr:date" v="2019-12-27" />
		<tag k="ssr:gruppe" v="veg" />
		<tag k="ssr:hovedgruppe" v="infrastruktur" />
		<tag k="ssr:stedsnr" v="1039025" />
		<tag k="ssr:type" v="adressenavn" />
	</node>
	<node lat="60.16141102875119" lon="5.925860676339747" id="-70717">
		<tag k="name" v="Salbuvik" />
		<tag k="ssr:date" v="2019-12-27" />
		<tag k="ssr:gruppe" v="veg" />
		<tag k="ssr:hovedgruppe" v="infrastruktur" />
		<tag k="ssr:stedsnr" v="1039027" />
		<tag k="ssr:type" v="adressenavn" />
	</node>
	<node lat="60.21527198600141" lon="5.968870390120662" id="-70718">
		<tag k="name" v="Gjerdaneset" />
		<tag k="ssr:date" v="2019-12-27" />
		<tag k="ssr:gruppe" v="veg" />
		<tag k="ssr:hovedgruppe" v="infrastruktur" />
		<tag k="ssr:stedsnr" v="1039029" />
		<tag k="ssr:type" v="adressenavn" />
	</node>
	<node lat="60.19702737597157" lon="5.959914396219038" id="-70719">
		<tag k="name" v="Dysvikvegen" />
		<tag k="ssr:date" v="2019-12-27" />
		<tag k="ssr:gruppe" v="veg" />
		<tag k="ssr:hovedgruppe" v="infrastruktur" />
		<tag k="ssr:stedsnr" v="1039031" />
		<tag k="ssr:type" v="adressenavn" />
	</node>
	<node lat="60.13235928816569" lon="5.891425512259647" id="-70720">
		<tag k="name" v="Gravdalsgrenda" />
		<tag k="ssr:date" v="2019-12-27" />
		<tag k="ssr:gruppe" v="veg" />
		<tag k="ssr:hovedgruppe" v="infrastruktur" />
		<tag k="ssr:stedsnr" v="1039033" />
		<tag k="ssr:type" v="adressenavn" />
	</node>
	<node lat="60.277544837541555" lon="6.0372649017754885" id="-70721">
		<tag k="name" v="Brekkevegen" />
		<tag k="ssr:date" v="2019-12-27" />
		<tag k="ssr:gruppe" v="veg" />
		<tag k="ssr:hovedgruppe" v="infrastruktur" />
		<tag k="ssr:stedsnr" v="1039035" />
		<tag k="ssr:type" v="adressenavn" />
	</node>
	<node lat="60.398994024590216" lon="6.212551948416365" id="-70722">
		<tag k="name" v="Soldalsvegen" />
		<tag k="ssr:date" v="2019-12-27" />
		<tag k="ssr:gruppe" v="veg" />
		<tag k="ssr:hovedgruppe" v="infrastruktur" />
		<tag k="ssr:stedsnr" v="1039087" />
		<tag k="ssr:type" v="adressenavn" />
	</node>
	<node lat="60.409168745798105" lon="6.205723097615908" id="-70723">
		<tag k="name" v="Teiglandsvegen" />
		<tag k="ssr:date" v="2019-12-27" />
		<tag k="ssr:gruppe" v="veg" />
		<tag k="ssr:hovedgruppe" v="infrastruktur" />
		<tag k="ssr:stedsnr" v="1039089" />
		<tag k="ssr:type" v="adressenavn" />
	</node>
	<node lat="60.38224917784654" lon="6.157723368133546" id="-70724">
		<tag k="name" v="Sælesetvegen" />
		<tag k="ssr:date" v="2019-12-27" />
		<tag k="ssr:gruppe" v="veg" />
		<tag k="ssr:hovedgruppe" v="infrastruktur" />
		<tag k="ssr:stedsnr" v="1039091" />
		<tag k="ssr:type" v="adressenavn" />
	</node>
	<node lat="60.399397846913004" lon="6.257754518369164" id="-70725">
		<tag k="name" v="Porsmyrvegen" />
		<tag k="ssr:date" v="2019-12-27" />
		<tag k="ssr:gruppe" v="veg" />
		<tag k="ssr:hovedgruppe" v="infrastruktur" />
		<tag k="ssr:stedsnr" v="1039093" />
		<tag k="ssr:type" v="adressenavn" />
	</node>
	<node lat="60.381700750892946" lon="6.266431625096932" id="-70726">
		<tag k="name" v="Rykkjevegen" />
		<tag k="ssr:date" v="2019-12-27" />
		<tag k="ssr:gruppe" v="veg" />
		<tag k="ssr:hovedgruppe" v="infrastruktur" />
		<tag k="ssr:stedsnr" v="1039095" />
		<tag k="ssr:type" v="adressenavn" />
	</node>
	<node lat="60.39674100628787" lon="6.272865124840224" id="-70727">
		<tag k="name" v="Klyvevegen" />
		<tag k="ssr:date" v="2019-12-27" />
		<tag k="ssr:gruppe" v="veg" />
		<tag k="ssr:hovedgruppe" v="infrastruktur" />
		<tag k="ssr:stedsnr" v="1039097" />
		<tag k="ssr:type" v="adressenavn" />
	</node>
	<node lat="60.40926333299444" lon="6.205596932913413" id="-70728">
		<tag k="name" v="Hovlandsvegen" />
		<tag k="ssr:date" v="2019-12-27" />
		<tag k="ssr:gruppe" v="veg" />
		<tag k="ssr:hovedgruppe" v="infrastruktur" />
		<tag k="ssr:stedsnr" v="1039099" />
		<tag k="ssr:type" v="adressenavn" />
	</node>
	<node lat="60.41137950076828" lon="6.230811564177153" id="-70729">
		<tag k="name" v="Froastadvegen" />
		<tag k="ssr:date" v="2019-12-27" />
		<tag k="ssr:gruppe" v="veg" />
		<tag k="ssr:hovedgruppe" v="infrastruktur" />
		<tag k="ssr:stedsnr" v="1039101" />
		<tag k="ssr:type" v="adressenavn" />
	</node>
	<node lat="60.30354444057691" lon="6.165665725518529" id="-70730">
		<tag k="name" v="Dragshovden" />
		<tag k="ssr:date" v="2019-12-27" />
		<tag k="ssr:gruppe" v="veg" />
		<tag k="ssr:hovedgruppe" v="infrastruktur" />
		<tag k="ssr:stedsnr" v="1039103" />
		<tag k="ssr:type" v="adressenavn" />
	</node>
	<node lat="60.30083578083331" lon="6.149980658346441" id="-70731">
		<tag k="name" v="Lysevegen" />
		<tag k="ssr:date" v="2019-12-27" />
		<tag k="ssr:gruppe" v="veg" />
		<tag k="ssr:hovedgruppe" v="infrastruktur" />
		<tag k="ssr:stedsnr" v="1039106" />
		<tag k="ssr:type" v="adressenavn" />
	</node>
	<node lat="60.304944777149856" lon="6.152113992231811" id="-70732">
		<tag k="name" v="Torvik-Tveiten" />
		<tag k="ssr:date" v="2019-12-27" />
		<tag k="ssr:gruppe" v="veg" />
		<tag k="ssr:hovedgruppe" v="infrastruktur" />
		<tag k="ssr:stedsnr" v="1039108" />
		<tag k="ssr:type" v="adressenavn" />
	</node>
	<node lat="60.29987829008833" lon="6.1687382582356225" id="-70733">
		<tag k="name" v="Dragshagen" />
		<tag k="ssr:date" v="2019-12-27" />
		<tag k="ssr:gruppe" v="veg" />
		<tag k="ssr:hovedgruppe" v="infrastruktur" />
		<tag k="ssr:stedsnr" v="1039110" />
		<tag k="ssr:type" v="adressenavn" />
	</node>
	<node lat="60.29479286876795" lon="6.169800587759868" id="-70734">
		<tag k="name" v="Solheim" />
		<tag k="ssr:date" v="2019-12-27" />
		<tag k="ssr:gruppe" v="veg" />
		<tag k="ssr:hovedgruppe" v="infrastruktur" />
		<tag k="ssr:stedsnr" v="1039113" />
		<tag k="ssr:type" v="adressenavn" />
	</node>
	<node lat="60.30137860328789" lon="6.169573763655099" id="-70735">
		<tag k="name" v="Dalheim" />
		<tag k="ssr:date" v="2019-12-27" />
		<tag k="ssr:gruppe" v="veg" />
		<tag k="ssr:hovedgruppe" v="infrastruktur" />
		<tag k="ssr:stedsnr" v="1039116" />
		<tag k="ssr:type" v="adressenavn" />
	</node>
	<node lat="60.30109039891355" lon="6.1700833908445265" id="-70736">
		<tag k="name" v="Skutevik" />
		<tag k="ssr:date" v="2019-12-27" />
		<tag k="ssr:gruppe" v="veg" />
		<tag k="ssr:hovedgruppe" v="infrastruktur" />
		<tag k="ssr:stedsnr" v="1039118" />
		<tag k="ssr:type" v="adressenavn" />
	</node>
	<node lat="60.44703417867637" lon="6.493981847089115" id="-70737">
		<tag k="name" v="Kjepsovegen" />
		<tag k="ssr:date" v="2019-12-27" />
		<tag k="ssr:gruppe" v="veg" />
		<tag k="ssr:hovedgruppe" v="infrastruktur" />
		<tag k="ssr:stedsnr" v="1039120" />
		<tag k="ssr:type" v="adressenavn" />
	</node>
	<node lat="60.43429530513563" lon="6.4516414850287385" id="-70738">
		<tag k="name" v="Vetletveitvegen" />
		<tag k="ssr:date" v="2019-12-27" />
		<tag k="ssr:gruppe" v="veg" />
		<tag k="ssr:hovedgruppe" v="infrastruktur" />
		<tag k="ssr:stedsnr" v="1039122" />
		<tag k="ssr:type" v="adressenavn" />
	</node>
	<node lat="60.43421545467156" lon="6.435407203697472" id="-70739">
		<tag k="name" v="Elvely" />
		<tag k="ssr:date" v="2019-12-27" />
		<tag k="ssr:gruppe" v="veg" />
		<tag k="ssr:hovedgruppe" v="infrastruktur" />
		<tag k="ssr:stedsnr" v="1039124" />
		<tag k="ssr:type" v="adressenavn" />
	</node>
	<node lat="60.43283993397278" lon="6.44508150772633" id="-70740">
		<tag k="name" v="Tyrvedalen" />
		<tag k="ssr:date" v="2019-12-27" />
		<tag k="ssr:gruppe" v="veg" />
		<tag k="ssr:hovedgruppe" v="infrastruktur" />
		<tag k="ssr:stedsnr" v="1039126" />
		<tag k="ssr:type" v="adressenavn" />
	</node>
	<node lat="60.31290246818738" lon="6.161022712247428" id="-70741">
		<tag k="name" v="Stekkavegen" />
		<tag k="ssr:date" v="2019-12-27" />
		<tag k="ssr:gruppe" v="veg" />
		<tag k="ssr:hovedgruppe" v="infrastruktur" />
		<tag k="ssr:stedsnr" v="1039128" />
		<tag k="ssr:type" v="adressenavn" />
	</node>
	<node lat="60.308067751359474" lon="6.157106064079244" id="-70742">
		<tag k="name" v="Heradstveitvegen" />
		<tag k="ssr:date" v="2019-12-27" />
		<tag k="ssr:gruppe" v="veg" />
		<tag k="ssr:hovedgruppe" v="infrastruktur" />
		<tag k="ssr:stedsnr" v="1039130" />
		<tag k="ssr:type" v="adressenavn" />
	</node>
	<node lat="60.275212236693996" lon="6.151961173137836" id="-70743">
		<tag k="name" v="Tørvikbygdvegen" />
		<tag k="ssr:date" v="2019-12-27" />
		<tag k="ssr:gruppe" v="veg" />
		<tag k="ssr:hovedgruppe" v="infrastruktur" />
		<tag k="ssr:stedsnr" v="1039133" />
		<tag k="ssr:type" v="adressenavn" />
	</node>
	<node lat="60.16429532718506" lon="5.909389333667954" id="-70744">
		<tag k="name" v="Mundheimsdalen" />
		<tag k="ssr:date" v="2019-12-27" />
		<tag k="ssr:gruppe" v="veg" />
		<tag k="ssr:hovedgruppe" v="infrastruktur" />
		<tag k="ssr:stedsnr" v="1039037" />
		<tag k="ssr:type" v="adressenavn" />
	</node>
	<node lat="60.38226065659053" lon="6.234761253854952" id="-70745">
		<tag k="name" v="Kleivavegen" />
		<tag k="ssr:date" v="2019-12-27" />
		<tag k="ssr:gruppe" v="veg" />
		<tag k="ssr:hovedgruppe" v="infrastruktur" />
		<tag k="ssr:stedsnr" v="1039043" />
		<tag k="ssr:type" v="adressenavn" />
	</node>
	<node lat="60.383426497839665" lon="6.221342797109705" id="-70746">
		<tag k="name" v="Brattlivegen" />
		<tag k="ssr:date" v="2019-12-27" />
		<tag k="ssr:gruppe" v="veg" />
		<tag k="ssr:hovedgruppe" v="infrastruktur" />
		<tag k="ssr:stedsnr" v="1039045" />
		<tag k="ssr:type" v="adressenavn" />
	</node>
	<node lat="60.38444782457344" lon="6.188069531560504" id="-70747">
		<tag k="name" v="Borgevegen" />
		<tag k="ssr:date" v="2019-12-27" />
		<tag k="ssr:gruppe" v="veg" />
		<tag k="ssr:hovedgruppe" v="infrastruktur" />
		<tag k="ssr:stedsnr" v="1039046" />
		<tag k="ssr:type" v="adressenavn" />
	</node>
	<node lat="60.36863133853696" lon="6.19048887885896" id="-70748">
		<tag k="name" v="Neshagen" />
		<tag k="ssr:date" v="2019-12-27" />
		<tag k="ssr:gruppe" v="veg" />
		<tag k="ssr:hovedgruppe" v="infrastruktur" />
		<tag k="ssr:stedsnr" v="1039048" />
		<tag k="ssr:type" v="adressenavn" />
	</node>
	<node lat="60.37729210260525" lon="6.243214726188301" id="-70749">
		<tag k="name" v="Markjevegen" />
		<tag k="ssr:date" v="2019-12-27" />
		<tag k="ssr:gruppe" v="veg" />
		<tag k="ssr:hovedgruppe" v="infrastruktur" />
		<tag k="ssr:stedsnr" v="1039050" />
		<tag k="ssr:type" v="adressenavn" />
	</node>
	<node lat="60.37488077653883" lon="6.253108864858037" id="-70750">
		<tag k="name" v="Bergstøvegen" />
		<tag k="ssr:date" v="2019-12-27" />
		<tag k="ssr:gruppe" v="veg" />
		<tag k="ssr:hovedgruppe" v="infrastruktur" />
		<tag k="ssr:stedsnr" v="1039053" />
		<tag k="ssr:type" v="adressenavn" />
	</node>
	<node lat="60.37572668218885" lon="6.243501247242725" id="-70751">
		<tag k="name" v="Melstveitvegen" />
		<tag k="ssr:date" v="2019-12-27" />
		<tag k="ssr:gruppe" v="veg" />
		<tag k="ssr:hovedgruppe" v="infrastruktur" />
		<tag k="ssr:stedsnr" v="1039055" />
		<tag k="ssr:type" v="adressenavn" />
	</node>
	<node lat="60.393131052198356" lon="6.1798403717787425" id="-70752">
		<tag k="name" v="Stuvevegen" />
		<tag k="ssr:date" v="2019-12-27" />
		<tag k="ssr:gruppe" v="veg" />
		<tag k="ssr:hovedgruppe" v="infrastruktur" />
		<tag k="ssr:stedsnr" v="1039057" />
		<tag k="ssr:type" v="adressenavn" />
	</node>
	<node lat="60.38732718309344" lon="6.199443182529925" id="-70753">
		<tag k="name" v="Ingebrigt Vik-vegen" />
		<tag k="ssr:date" v="2019-12-27" />
		<tag k="ssr:gruppe" v="veg" />
		<tag k="ssr:hovedgruppe" v="infrastruktur" />
		<tag k="ssr:stedsnr" v="1039059" />
		<tag k="ssr:type" v="adressenavn" />
	</node>
	<node lat="60.37310731607292" lon="6.203322806794424" id="-70754">
		<tag k="name" v="Børvevegen" />
		<tag k="ssr:date" v="2019-12-27" />
		<tag k="ssr:gruppe" v="veg" />
		<tag k="ssr:hovedgruppe" v="infrastruktur" />
		<tag k="ssr:stedsnr" v="1039061" />
		<tag k="ssr:type" v="adressenavn" />
	</node>
	<node lat="60.38592543688666" lon="6.184219499853767" id="-70755">
		<tag k="name" v="Kjosåsvegen" />
		<tag k="ssr:date" v="2019-12-27" />
		<tag k="ssr:gruppe" v="veg" />
		<tag k="ssr:hovedgruppe" v="infrastruktur" />
		<tag k="ssr:stedsnr" v="1039063" />
		<tag k="ssr:type" v="adressenavn" />
	</node>
	<node lat="60.37806276662102" lon="6.240696393794032" id="-70756">
		<tag k="name" v="Fyksesundvegen" />
		<tag k="ssr:date" v="2019-12-27" />
		<tag k="ssr:gruppe" v="veg" />
		<tag k="ssr:hovedgruppe" v="infrastruktur" />
		<tag k="ssr:stedsnr" v="1039065" />
		<tag k="ssr:type" v="adressenavn" />
	</node>
	<node lat="60.386764268785164" lon="6.212129509868751" id="-70757">
		<tag k="name" v="Kjerringkleiv" />
		<tag k="ssr:date" v="2019-12-27" />
		<tag k="ssr:gruppe" v="veg" />
		<tag k="ssr:hovedgruppe" v="infrastruktur" />
		<tag k="ssr:stedsnr" v="1039068" />
		<tag k="ssr:type" v="adressenavn" />
	</node>
	<node lat="60.41480105785702" lon="6.372564963336184" id="-70758">
		<tag k="name" v="Krokatveitvegen" />
		<tag k="ssr:date" v="2019-12-27" />
		<tag k="ssr:gruppe" v="veg" />
		<tag k="ssr:hovedgruppe" v="infrastruktur" />
		<tag k="ssr:stedsnr" v="1039071" />
		<tag k="ssr:type" v="adressenavn" />
	</node>
	<node lat="60.432773751649236" lon="6.431684929381098" id="-70759">
		<tag k="name" v="Trånavegen" />
		<tag k="ssr:date" v="2019-12-27" />
		<tag k="ssr:gruppe" v="veg" />
		<tag k="ssr:hovedgruppe" v="infrastruktur" />
		<tag k="ssr:stedsnr" v="1039073" />
		<tag k="ssr:type" v="adressenavn" />
	</node>
	<node lat="60.40118892908878" lon="6.268751168283305" id="-70760">
		<tag k="name" v="Bjørkevegen" />
		<tag k="ssr:date" v="2019-12-27" />
		<tag k="ssr:gruppe" v="veg" />
		<tag k="ssr:hovedgruppe" v="infrastruktur" />
		<tag k="ssr:stedsnr" v="1039075" />
		<tag k="ssr:type" v="adressenavn" />
	</node>
	<node lat="60.43066988824249" lon="6.4337843862356525" id="-70761">
		<tag k="name" v="Ålvikvegen" />
		<tag k="ssr:date" v="2019-12-27" />
		<tag k="ssr:gruppe" v="veg" />
		<tag k="ssr:hovedgruppe" v="infrastruktur" />
		<tag k="ssr:stedsnr" v="1039077" />
		<tag k="ssr:type" v="adressenavn" />
	</node>
	<node lat="60.43280140887999" lon="6.436697757937872" id="-70762">
		<tag k="name" v="Skulevegen" />
		<tag k="ssr:date" v="2019-12-27" />
		<tag k="ssr:gruppe" v="veg" />
		<tag k="ssr:hovedgruppe" v="infrastruktur" />
		<tag k="ssr:stedsnr" v="1039079" />
		<tag k="ssr:type" v="adressenavn" />
	</node>
	<node lat="60.43329040065672" lon="6.434625860026637" id="-70763">
		<tag k="name" v="Haugenjordet" />
		<tag k="ssr:date" v="2019-12-27" />
		<tag k="ssr:gruppe" v="veg" />
		<tag k="ssr:hovedgruppe" v="infrastruktur" />
		<tag k="ssr:stedsnr" v="1039081" />
		<tag k="ssr:type" v="adressenavn" />
	</node>
	<node lat="60.43224254972652" lon="6.433129437330268" id="-70764">
		<tag k="name" v="Villabyen" />
		<tag k="ssr:date" v="2019-12-27" />
		<tag k="ssr:gruppe" v="veg" />
		<tag k="ssr:hovedgruppe" v="infrastruktur" />
		<tag k="ssr:stedsnr" v="1039083" />
		<tag k="ssr:type" v="adressenavn" />
	</node>
	<node lat="60.43224254972652" lon="6.433129437330268" id="-70765">
		<tag k="name" v="Brattbakken" />
		<tag k="ssr:date" v="2019-12-27" />
		<tag k="ssr:gruppe" v="veg" />
		<tag k="ssr:hovedgruppe" v="infrastruktur" />
		<tag k="ssr:stedsnr" v="1039085" />
		<tag k="ssr:type" v="adressenavn" />
	</node>
	<node lat="60.3644413783432" lon="6.076721731665624" id="-70766">
		<tag k="name" v="Liabrekka" />
		<tag k="ssr:date" v="2019-12-27" />
		<tag k="ssr:gruppe" v="veg" />
		<tag k="ssr:hovedgruppe" v="infrastruktur" />
		<tag k="ssr:stedsnr" v="1039187" />
		<tag k="ssr:type" v="adressenavn" />
	</node>
	<node lat="60.36919505634459" lon="6.103488104697279" id="-70767">
		<tag k="name" v="Dalatunvegen" />
		<tag k="ssr:date" v="2019-12-27" />
		<tag k="ssr:gruppe" v="veg" />
		<tag k="ssr:hovedgruppe" v="infrastruktur" />
		<tag k="ssr:stedsnr" v="1039189" />
		<tag k="ssr:type" v="adressenavn" />
	</node>
	<node lat="60.36025200995841" lon="6.067508365339904" id="-70768">
		<tag k="name" v="Neteland" />
		<tag k="ssr:date" v="2019-12-27" />
		<tag k="ssr:gruppe" v="veg" />
		<tag k="ssr:hovedgruppe" v="infrastruktur" />
		<tag k="ssr:stedsnr" v="1039191" />
		<tag k="ssr:type" v="adressenavn" />
	</node>
	<node lat="60.36305449594864" lon="6.154676684108511" id="-70769">
		<tag k="name" v="Tveitevegen" />
		<tag k="ssr:date" v="2019-12-27" />
		<tag k="ssr:gruppe" v="veg" />
		<tag k="ssr:hovedgruppe" v="infrastruktur" />
		<tag k="ssr:stedsnr" v="1039194" />
		<tag k="ssr:type" v="adressenavn" />
	</node>
	<node lat="60.369508733789765" lon="6.134020660950695" id="-70770">
		<tag k="name" v="Sandvenhagen" />
		<tag k="ssr:date" v="2019-12-27" />
		<tag k="ssr:gruppe" v="veg" />
		<tag k="ssr:hovedgruppe" v="infrastruktur" />
		<tag k="ssr:stedsnr" v="1039196" />
		<tag k="ssr:type" v="adressenavn" />
	</node>
	<node lat="60.36908687638254" lon="6.131465345654871" id="-70771">
		<tag k="name" v="Sæland" />
		<tag k="ssr:date" v="2019-12-27" />
		<tag k="ssr:gruppe" v="veg" />
		<tag k="ssr:hovedgruppe" v="infrastruktur" />
		<tag k="ssr:stedsnr" v="1039197" />
		<tag k="ssr:type" v="adressenavn" />
	</node>
	<node lat="60.37180301364517" lon="6.16257698025633" id="-70772">
		<tag k="name" v="Tolomarka" />
		<tag k="ssr:date" v="2019-12-27" />
		<tag k="ssr:gruppe" v="veg" />
		<tag k="ssr:hovedgruppe" v="infrastruktur" />
		<tag k="ssr:stedsnr" v="1039199" />
		<tag k="ssr:type" v="adressenavn" />
	</node>
	<node lat="60.36735853108627" lon="6.180096643482066" id="-70773">
		<tag k="name" v="Skipadalen" />
		<tag k="ssr:date" v="2019-12-27" />
		<tag k="ssr:gruppe" v="veg" />
		<tag k="ssr:hovedgruppe" v="infrastruktur" />
		<tag k="ssr:stedsnr" v="1039201" />
		<tag k="ssr:type" v="adressenavn" />
	</node>
	<node lat="60.36914327742635" lon="6.168214616812914" id="-70774">
		<tag k="name" v="Grodalsåsen" />
		<tag k="ssr:date" v="2019-12-27" />
		<tag k="ssr:gruppe" v="veg" />
		<tag k="ssr:hovedgruppe" v="infrastruktur" />
		<tag k="ssr:stedsnr" v="1039203" />
		<tag k="ssr:type" v="adressenavn" />
	</node>
	<node lat="60.37077248067109" lon="6.163199205181494" id="-70775">
		<tag k="name" v="Tololia" />
		<tag k="ssr:date" v="2019-12-27" />
		<tag k="ssr:gruppe" v="veg" />
		<tag k="ssr:hovedgruppe" v="infrastruktur" />
		<tag k="ssr:stedsnr" v="1039205" />
		<tag k="ssr:type" v="adressenavn" />
	</node>
	<node lat="60.32742180586024" lon="6.205721630344621" id="-70776">
		<tag k="name" v="Brennavegen" />
		<tag k="ssr:date" v="2019-12-27" />
		<tag k="ssr:gruppe" v="veg" />
		<tag k="ssr:hovedgruppe" v="infrastruktur" />
		<tag k="ssr:stedsnr" v="1039207" />
		<tag k="ssr:type" v="adressenavn" />
	</node>
	<node lat="60.372510757011234" lon="6.145355317727645" id="-70777">
		<tag k="name" v="Kaien" />
		<tag k="ssr:date" v="2019-12-27" />
		<tag k="ssr:gruppe" v="veg" />
		<tag k="ssr:hovedgruppe" v="infrastruktur" />
		<tag k="ssr:stedsnr" v="1039209" />
		<tag k="ssr:type" v="adressenavn" />
	</node>
	<node lat="60.367466792926585" lon="6.1812333041580425" id="-70778">
		<tag k="name" v="Skipadalsåsen" />
		<tag k="ssr:date" v="2019-12-27" />
		<tag k="ssr:gruppe" v="veg" />
		<tag k="ssr:hovedgruppe" v="infrastruktur" />
		<tag k="ssr:stedsnr" v="1039211" />
		<tag k="ssr:type" v="adressenavn" />
	</node>
	<node lat="60.36725985540452" lon="6.105929817077213" id="-70779">
		<tag k="name" v="Heleberhaugen" />
		<tag k="ssr:date" v="2019-12-27" />
		<tag k="ssr:gruppe" v="veg" />
		<tag k="ssr:hovedgruppe" v="infrastruktur" />
		<tag k="ssr:stedsnr" v="1039213" />
		<tag k="ssr:type" v="adressenavn" />
	</node>
	<node lat="60.370080450953736" lon="6.159768074264863" id="-70780">
		<tag k="name" v="Vallandsvegen" />
		<tag k="ssr:date" v="2019-12-27" />
		<tag k="ssr:gruppe" v="veg" />
		<tag k="ssr:hovedgruppe" v="infrastruktur" />
		<tag k="ssr:stedsnr" v="1039215" />
		<tag k="ssr:type" v="adressenavn" />
	</node>
	<node lat="60.366639044884586" lon="6.168660570474336" id="-70781">
		<tag k="name" v="Øvre Valland" />
		<tag k="ssr:date" v="2019-12-27" />
		<tag k="ssr:gruppe" v="veg" />
		<tag k="ssr:hovedgruppe" v="infrastruktur" />
		<tag k="ssr:stedsnr" v="1039217" />
		<tag k="ssr:type" v="adressenavn" />
	</node>
	<node lat="60.32590144770781" lon="6.1975706023359995" id="-70782">
		<tag k="name" v="Vangdalsvegen" />
		<tag k="ssr:date" v="2019-12-27" />
		<tag k="ssr:gruppe" v="veg" />
		<tag k="ssr:hovedgruppe" v="infrastruktur" />
		<tag k="ssr:stedsnr" v="1039218" />
		<tag k="ssr:type" v="adressenavn" />
	</node>
	<node lat="60.37066969597952" lon="6.157625949692843" id="-70783">
		<tag k="name" v="Tolohagen" />
		<tag k="ssr:date" v="2019-12-27" />
		<tag k="ssr:gruppe" v="veg" />
		<tag k="ssr:hovedgruppe" v="infrastruktur" />
		<tag k="ssr:stedsnr" v="1039221" />
		<tag k="ssr:type" v="adressenavn" />
	</node>
	<node lat="60.365895175925026" lon="6.1685606037037894" id="-70784">
		<tag k="name" v="Vallandshovden" />
		<tag k="ssr:date" v="2019-12-27" />
		<tag k="ssr:gruppe" v="veg" />
		<tag k="ssr:hovedgruppe" v="infrastruktur" />
		<tag k="ssr:stedsnr" v="1039223" />
		<tag k="ssr:type" v="adressenavn" />
	</node>
	<node lat="60.36778087023922" lon="6.16922662486325" id="-70785">
		<tag k="name" v="Vallandshaugen" />
		<tag k="ssr:date" v="2019-12-27" />
		<tag k="ssr:gruppe" v="veg" />
		<tag k="ssr:hovedgruppe" v="infrastruktur" />
		<tag k="ssr:stedsnr" v="1039225" />
		<tag k="ssr:type" v="adressenavn" />
	</node>
	<node lat="60.368649471501186" lon="6.163183276365758" id="-70786">
		<tag k="name" v="Tolovegen" />
		<tag k="ssr:date" v="2019-12-27" />
		<tag k="ssr:gruppe" v="veg" />
		<tag k="ssr:hovedgruppe" v="infrastruktur" />
		<tag k="ssr:stedsnr" v="1039227" />
		<tag k="ssr:type" v="adressenavn" />
	</node>
	<node lat="60.36604584497054" lon="6.169462557715353" id="-70787">
		<tag k="name" v="Vallandsåsen" />
		<tag k="ssr:date" v="2019-12-27" />
		<tag k="ssr:gruppe" v="veg" />
		<tag k="ssr:hovedgruppe" v="infrastruktur" />
		<tag k="ssr:stedsnr" v="1039229" />
		<tag k="ssr:type" v="adressenavn" />
	</node>
	<node lat="60.38555460515598" lon="6.221951849696001" id="-70788">
		<tag k="name" v="Hellestveitvegen" />
		<tag k="ssr:date" v="2019-12-27" />
		<tag k="ssr:gruppe" v="veg" />
		<tag k="ssr:hovedgruppe" v="infrastruktur" />
		<tag k="ssr:stedsnr" v="1039233" />
		<tag k="ssr:type" v="adressenavn" />
	</node>
	<node lat="60.382912710982474" lon="6.187456368444253" id="-70789">
		<tag k="name" v="Åsen" />
		<tag k="ssr:date" v="2019-12-27" />
		<tag k="ssr:gruppe" v="veg" />
		<tag k="ssr:hovedgruppe" v="infrastruktur" />
		<tag k="ssr:stedsnr" v="1039235" />
		<tag k="ssr:type" v="adressenavn" />
	</node>
	<node lat="60.262329835496985" lon="6.057445653796534" id="-70790">
		<tag k="name" v="Lingavegen" />
		<tag k="ssr:date" v="2019-12-27" />
		<tag k="ssr:gruppe" v="veg" />
		<tag k="ssr:hovedgruppe" v="infrastruktur" />
		<tag k="ssr:stedsnr" v="1039135" />
		<tag k="ssr:type" v="adressenavn" />
	</node>
	<node lat="60.38803273928029" lon="6.202761037091789" id="-70791">
		<tag k="name" v="Rokabrekka" />
		<tag k="ssr:date" v="2019-12-27" />
		<tag k="ssr:gruppe" v="veg" />
		<tag k="ssr:hovedgruppe" v="infrastruktur" />
		<tag k="ssr:stedsnr" v="1039237" />
		<tag k="ssr:type" v="adressenavn" />
	</node>
	<node lat="60.38364135745583" lon="6.165277180524245" id="-70792">
		<tag k="name" v="Sjusetevegen" />
		<tag k="ssr:date" v="2019-12-27" />
		<tag k="ssr:gruppe" v="veg" />
		<tag k="ssr:hovedgruppe" v="infrastruktur" />
		<tag k="ssr:stedsnr" v="1039239" />
		<tag k="ssr:type" v="adressenavn" />
	</node>
	<node lat="60.385288656749154" lon="6.224653465680886" id="-70793">
		<tag k="name" v="Einarhaug" />
		<tag k="ssr:date" v="2019-12-27" />
		<tag k="ssr:gruppe" v="veg" />
		<tag k="ssr:hovedgruppe" v="infrastruktur" />
		<tag k="ssr:stedsnr" v="1039241" />
		<tag k="ssr:type" v="adressenavn" />
	</node>
	<node lat="60.38759620182507" lon="6.206386080863243" id="-70794">
		<tag k="name" v="Bergtun" />
		<tag k="ssr:date" v="2019-12-27" />
		<tag k="ssr:gruppe" v="veg" />
		<tag k="ssr:hovedgruppe" v="infrastruktur" />
		<tag k="ssr:stedsnr" v="1039243" />
		<tag k="ssr:type" v="adressenavn" />
	</node>
	<node lat="60.36950725176905" lon="6.1416495488386085" id="-70795">
		<tag k="name" v="Kyrkjevegen" />
		<tag k="ssr:date" v="2019-12-27" />
		<tag k="ssr:gruppe" v="veg" />
		<tag k="ssr:hovedgruppe" v="infrastruktur" />
		<tag k="ssr:stedsnr" v="1039245" />
		<tag k="ssr:type" v="adressenavn" />
	</node>
	<node lat="60.3733643585766" lon="6.16223765905136" id="-70796">
		<tag k="name" v="Furuflaten" />
		<tag k="ssr:date" v="2019-12-27" />
		<tag k="ssr:gruppe" v="veg" />
		<tag k="ssr:hovedgruppe" v="infrastruktur" />
		<tag k="ssr:stedsnr" v="1039247" />
		<tag k="ssr:type" v="adressenavn" />
	</node>
	<node lat="60.36741686495483" lon="6.18589892950872" id="-70797">
		<tag k="name" v="Hardangerfjordvegen" />
		<tag k="ssr:date" v="2019-12-27" />
		<tag k="ssr:gruppe" v="veg" />
		<tag k="ssr:hovedgruppe" v="infrastruktur" />
		<tag k="ssr:stedsnr" v="1039250" />
		<tag k="ssr:type" v="adressenavn" />
	</node>
	<node lat="60.38332855817588" lon="6.235876131486274" id="-70798">
		<tag k="name" v="Bergshagen" />
		<tag k="ssr:date" v="2019-12-27" />
		<tag k="ssr:gruppe" v="veg" />
		<tag k="ssr:hovedgruppe" v="infrastruktur" />
		<tag k="ssr:stedsnr" v="1039252" />
		<tag k="ssr:type" v="adressenavn" />
	</node>
	<node lat="60.384878650214496" lon="6.220235370614263" id="-70799">
		<tag k="name" v="Torpevegen" />
		<tag k="ssr:date" v="2019-12-27" />
		<tag k="ssr:gruppe" v="veg" />
		<tag k="ssr:hovedgruppe" v="infrastruktur" />
		<tag k="ssr:stedsnr" v="1039254" />
		<tag k="ssr:type" v="adressenavn" />
	</node>
	<node lat="60.37091557241592" lon="6.16614661176589" id="-70800">
		<tag k="name" v="Furuåsen" />
		<tag k="ssr:date" v="2019-12-27" />
		<tag k="ssr:gruppe" v="veg" />
		<tag k="ssr:hovedgruppe" v="infrastruktur" />
		<tag k="ssr:stedsnr" v="1039256" />
		<tag k="ssr:type" v="adressenavn" />
	</node>
	<node lat="60.3699571285691" lon="6.165991042942826" id="-70801">
		<tag k="name" v="Furuhaugen" />
		<tag k="ssr:date" v="2019-12-27" />
		<tag k="ssr:gruppe" v="veg" />
		<tag k="ssr:hovedgruppe" v="infrastruktur" />
		<tag k="ssr:stedsnr" v="1039258" />
		<tag k="ssr:type" v="adressenavn" />
	</node>
	<node lat="60.38357488061611" lon="6.196865146413549" id="-70802">
		<tag k="name" v="Øvre Vik" />
		<tag k="ssr:date" v="2019-12-27" />
		<tag k="ssr:gruppe" v="veg" />
		<tag k="ssr:hovedgruppe" v="infrastruktur" />
		<tag k="ssr:stedsnr" v="1039260" />
		<tag k="ssr:type" v="adressenavn" />
	</node>
	<node lat="60.37774811943946" lon="6.195801478583709" id="-70803">
		<tag k="name" v="Vavollen" />
		<tag k="ssr:date" v="2019-12-27" />
		<tag k="ssr:gruppe" v="veg" />
		<tag k="ssr:hovedgruppe" v="infrastruktur" />
		<tag k="ssr:stedsnr" v="1039262" />
		<tag k="ssr:type" v="adressenavn" />
	</node>
	<node lat="60.38510722187706" lon="6.198800331810327" id="-70804">
		<tag k="name" v="Nedre Vik" />
		<tag k="ssr:date" v="2019-12-27" />
		<tag k="ssr:gruppe" v="veg" />
		<tag k="ssr:hovedgruppe" v="infrastruktur" />
		<tag k="ssr:stedsnr" v="1039263" />
		<tag k="ssr:type" v="adressenavn" />
	</node>
	<node lat="60.38793735699785" lon="6.195179976493135" id="-70805">
		<tag k="name" v="Holmatunvegen" />
		<tag k="ssr:date" v="2019-12-27" />
		<tag k="ssr:gruppe" v="veg" />
		<tag k="ssr:hovedgruppe" v="infrastruktur" />
		<tag k="ssr:stedsnr" v="1039265" />
		<tag k="ssr:type" v="adressenavn" />
	</node>
	<node lat="60.3802817707938" lon="6.201508285786217" id="-70806">
		<tag k="name" v="Lundanes" />
		<tag k="ssr:date" v="2019-12-27" />
		<tag k="ssr:gruppe" v="veg" />
		<tag k="ssr:hovedgruppe" v="infrastruktur" />
		<tag k="ssr:stedsnr" v="1039267" />
		<tag k="ssr:type" v="adressenavn" />
	</node>
	<node lat="60.37866396155467" lon="6.201167011723202" id="-70807">
		<tag k="name" v="Storeteigen" />
		<tag k="ssr:date" v="2019-12-27" />
		<tag k="ssr:gruppe" v="veg" />
		<tag k="ssr:hovedgruppe" v="infrastruktur" />
		<tag k="ssr:stedsnr" v="1039270" />
		<tag k="ssr:type" v="adressenavn" />
	</node>
	<node lat="60.38275185118332" lon="6.193279799880781" id="-70808">
		<tag k="name" v="Vavegen" />
		<tag k="ssr:date" v="2019-12-27" />
		<tag k="ssr:gruppe" v="veg" />
		<tag k="ssr:hovedgruppe" v="infrastruktur" />
		<tag k="ssr:stedsnr" v="1039272" />
		<tag k="ssr:type" v="adressenavn" />
	</node>
	<node lat="60.394210488621965" lon="6.190693841145813" id="-70809">
		<tag k="name" v="Kyrhagen" />
		<tag k="ssr:date" v="2019-12-27" />
		<tag k="ssr:gruppe" v="veg" />
		<tag k="ssr:hovedgruppe" v="infrastruktur" />
		<tag k="ssr:stedsnr" v="1039274" />
		<tag k="ssr:type" v="adressenavn" />
	</node>
	<node lat="60.390818650968235" lon="6.196093184447596" id="-70810">
		<tag k="name" v="Leitesdalen" />
		<tag k="ssr:date" v="2019-12-27" />
		<tag k="ssr:gruppe" v="veg" />
		<tag k="ssr:hovedgruppe" v="infrastruktur" />
		<tag k="ssr:stedsnr" v="1039276" />
		<tag k="ssr:type" v="adressenavn" />
	</node>
	<node lat="60.389170141977424" lon="6.199688517641984" id="-70811">
		<tag k="name" v="Skårdalsvegen" />
		<tag k="ssr:date" v="2019-12-27" />
		<tag k="ssr:gruppe" v="veg" />
		<tag k="ssr:hovedgruppe" v="infrastruktur" />
		<tag k="ssr:stedsnr" v="1039278" />
		<tag k="ssr:type" v="adressenavn" />
	</node>
	<node lat="60.390711011241244" lon="6.195969142470237" id="-70812">
		<tag k="name" v="Fitjadalsvegen" />
		<tag k="ssr:date" v="2019-12-27" />
		<tag k="ssr:gruppe" v="veg" />
		<tag k="ssr:hovedgruppe" v="infrastruktur" />
		<tag k="ssr:stedsnr" v="1039280" />
		<tag k="ssr:type" v="adressenavn" />
	</node>
	<node lat="60.38793735699785" lon="6.195179976493135" id="-70813">
		<tag k="name" v="Holmane" />
		<tag k="ssr:date" v="2019-12-27" />
		<tag k="ssr:gruppe" v="veg" />
		<tag k="ssr:hovedgruppe" v="infrastruktur" />
		<tag k="ssr:stedsnr" v="1039283" />
		<tag k="ssr:type" v="adressenavn" />
	</node>
	<node lat="60.38937252473714" lon="6.200003763863069" id="-70814">
		<tag k="name" v="Stoppelsgjerd" />
		<tag k="ssr:date" v="2019-12-27" />
		<tag k="ssr:gruppe" v="veg" />
		<tag k="ssr:hovedgruppe" v="infrastruktur" />
		<tag k="ssr:stedsnr" v="1039285" />
		<tag k="ssr:type" v="adressenavn" />
	</node>
	<node lat="60.37358545377344" lon="6.155824350803872" id="-70815">
		<tag k="name" v="Hatlevegen" />
		<tag k="ssr:date" v="2019-12-27" />
		<tag k="ssr:gruppe" v="veg" />
		<tag k="ssr:hovedgruppe" v="infrastruktur" />
		<tag k="ssr:stedsnr" v="1039336" />
		<tag k="ssr:type" v="adressenavn" />
	</node>
	<node lat="60.37434227386066" lon="6.1489031671922545" id="-70816">
		<tag k="name" v="Norheimshagen" />
		<tag k="ssr:date" v="2019-12-27" />
		<tag k="ssr:gruppe" v="veg" />
		<tag k="ssr:hovedgruppe" v="infrastruktur" />
		<tag k="ssr:stedsnr" v="1039342" />
		<tag k="ssr:type" v="adressenavn" />
	</node>
	<node lat="60.37428583899913" lon="6.1436820193379535" id="-70817">
		<tag k="name" v="Sundsvik" />
		<tag k="ssr:date" v="2019-12-27" />
		<tag k="ssr:gruppe" v="veg" />
		<tag k="ssr:hovedgruppe" v="infrastruktur" />
		<tag k="ssr:stedsnr" v="1039344" />
		<tag k="ssr:type" v="adressenavn" />
	</node>
	<node lat="60.37396549901037" lon="6.147676057919192" id="-70818">
		<tag k="name" v="Nedre Norheim" />
		<tag k="ssr:date" v="2019-12-27" />
		<tag k="ssr:gruppe" v="veg" />
		<tag k="ssr:hovedgruppe" v="infrastruktur" />
		<tag k="ssr:stedsnr" v="1039346" />
		<tag k="ssr:type" v="adressenavn" />
	</node>
	<node lat="60.3747767411762" lon="6.16453789234612" id="-70819">
		<tag k="name" v="Norheimsvegen" />
		<tag k="ssr:date" v="2019-12-27" />
		<tag k="ssr:gruppe" v="veg" />
		<tag k="ssr:hovedgruppe" v="infrastruktur" />
		<tag k="ssr:stedsnr" v="1039348" />
		<tag k="ssr:type" v="adressenavn" />
	</node>
	<node lat="60.36575437872595" lon="6.146345244726264" id="-70820">
		<tag k="name" v="Sandvenvegen" />
		<tag k="ssr:date" v="2019-12-27" />
		<tag k="ssr:gruppe" v="veg" />
		<tag k="ssr:hovedgruppe" v="infrastruktur" />
		<tag k="ssr:stedsnr" v="1039350" />
		<tag k="ssr:type" v="adressenavn" />
	</node>
	<node lat="60.323195969883024" lon="6.189576854001349" id="-70821">
		<tag k="name" v="Vikøyvegen" />
		<tag k="ssr:date" v="2019-12-27" />
		<tag k="ssr:gruppe" v="veg" />
		<tag k="ssr:hovedgruppe" v="infrastruktur" />
		<tag k="ssr:stedsnr" v="1039352" />
		<tag k="ssr:type" v="adressenavn" />
	</node>
	<node lat="60.367561748014694" lon="6.1455900947476545" id="-70822">
		<tag k="name" v="Gamle Sandvenvegen" />
		<tag k="ssr:date" v="2019-12-27" />
		<tag k="ssr:gruppe" v="veg" />
		<tag k="ssr:hovedgruppe" v="infrastruktur" />
		<tag k="ssr:stedsnr" v="1039353" />
		<tag k="ssr:type" v="adressenavn" />
	</node>
	<node lat="60.364689387335346" lon="6.150147647318477" id="-70823">
		<tag k="name" v="Kaldestad" />
		<tag k="ssr:date" v="2019-12-27" />
		<tag k="ssr:gruppe" v="veg" />
		<tag k="ssr:hovedgruppe" v="infrastruktur" />
		<tag k="ssr:stedsnr" v="1039355" />
		<tag k="ssr:type" v="adressenavn" />
	</node>
	<node lat="60.36894599662705" lon="6.102111605192094" id="-70824">
		<tag k="name" v="Rosselandsvegen" />
		<tag k="ssr:date" v="2019-12-27" />
		<tag k="ssr:gruppe" v="veg" />
		<tag k="ssr:hovedgruppe" v="infrastruktur" />
		<tag k="ssr:stedsnr" v="1039357" />
		<tag k="ssr:type" v="adressenavn" />
	</node>
	<node lat="60.37109688255186" lon="6.105020484757092" id="-70825">
		<tag k="name" v="Fjærabygda" />
		<tag k="ssr:date" v="2019-12-27" />
		<tag k="ssr:gruppe" v="veg" />
		<tag k="ssr:hovedgruppe" v="infrastruktur" />
		<tag k="ssr:stedsnr" v="1039359" />
		<tag k="ssr:type" v="adressenavn" />
	</node>
	<node lat="60.36894599662705" lon="6.102111605192094" id="-70826">
		<tag k="name" v="Steinsdalsvegen" />
		<tag k="ssr:date" v="2019-12-27" />
		<tag k="ssr:gruppe" v="veg" />
		<tag k="ssr:hovedgruppe" v="infrastruktur" />
		<tag k="ssr:stedsnr" v="1039361" />
		<tag k="ssr:type" v="adressenavn" />
	</node>
	<node lat="60.36970427734316" lon="6.120689294054929" id="-70827">
		<tag k="name" v="Movegen" />
		<tag k="ssr:date" v="2019-12-27" />
		<tag k="ssr:gruppe" v="veg" />
		<tag k="ssr:hovedgruppe" v="infrastruktur" />
		<tag k="ssr:stedsnr" v="1039363" />
		<tag k="ssr:type" v="adressenavn" />
	</node>
	<node lat="60.371876207102616" lon="6.146132110458379" id="-70828">
		<tag k="name" v="Nedstegata" />
		<tag k="ssr:date" v="2019-12-27" />
		<tag k="ssr:gruppe" v="veg" />
		<tag k="ssr:hovedgruppe" v="infrastruktur" />
		<tag k="ssr:stedsnr" v="1039365" />
		<tag k="ssr:type" v="adressenavn" />
	</node>
	<node lat="60.371153895609694" lon="6.145585883682536" id="-70829">
		<tag k="name" v="Grovabrotet" />
		<tag k="ssr:date" v="2019-12-27" />
		<tag k="ssr:gruppe" v="veg" />
		<tag k="ssr:hovedgruppe" v="infrastruktur" />
		<tag k="ssr:stedsnr" v="1039367" />
		<tag k="ssr:type" v="adressenavn" />
	</node>
	<node lat="60.37541243123816" lon="6.154263321375854" id="-70830">
		<tag k="name" v="Kjetilstræet" />
		<tag k="ssr:date" v="2019-12-27" />
		<tag k="ssr:gruppe" v="veg" />
		<tag k="ssr:hovedgruppe" v="infrastruktur" />
		<tag k="ssr:stedsnr" v="1039369" />
		<tag k="ssr:type" v="adressenavn" />
	</node>
	<node lat="60.37084979970018" lon="6.14575296294142" id="-70831">
		<tag k="name" v="Grova" />
		<tag k="ssr:date" v="2019-12-27" />
		<tag k="ssr:gruppe" v="veg" />
		<tag k="ssr:hovedgruppe" v="infrastruktur" />
		<tag k="ssr:stedsnr" v="1039371" />
		<tag k="ssr:type" v="adressenavn" />
	</node>
	<node lat="60.36575437872595" lon="6.146345244726264" id="-70832">
		<tag k="name" v="Haugamyrvegen" />
		<tag k="ssr:date" v="2019-12-27" />
		<tag k="ssr:gruppe" v="veg" />
		<tag k="ssr:hovedgruppe" v="infrastruktur" />
		<tag k="ssr:stedsnr" v="1039373" />
		<tag k="ssr:type" v="adressenavn" />
	</node>
	<node lat="60.36787128406958" lon="6.129680825871468" id="-70833">
		<tag k="name" v="Gamle Dalavegen" />
		<tag k="ssr:date" v="2019-12-27" />
		<tag k="ssr:gruppe" v="veg" />
		<tag k="ssr:hovedgruppe" v="infrastruktur" />
		<tag k="ssr:stedsnr" v="1039375" />
		<tag k="ssr:type" v="adressenavn" />
	</node>
	<node lat="60.37084979970018" lon="6.14575296294142" id="-70834">
		<tag k="name" v="Grovagjelet" />
		<tag k="ssr:date" v="2019-12-27" />
		<tag k="ssr:gruppe" v="veg" />
		<tag k="ssr:hovedgruppe" v="infrastruktur" />
		<tag k="ssr:stedsnr" v="1039377" />
		<tag k="ssr:type" v="adressenavn" />
	</node>
	<node lat="60.37677141260843" lon="6.143256777551865" id="-70835">
		<tag k="name" v="Gullur" />
		<tag k="ssr:date" v="2019-12-27" />
		<tag k="ssr:gruppe" v="veg" />
		<tag k="ssr:hovedgruppe" v="infrastruktur" />
		<tag k="ssr:stedsnr" v="1039322" />
		<tag k="ssr:type" v="adressenavn" />
	</node>
	<node lat="60.37727967932031" lon="6.138977844868618" id="-70836">
		<tag k="name" v="Utroningen" />
		<tag k="ssr:date" v="2019-12-27" />
		<tag k="ssr:gruppe" v="veg" />
		<tag k="ssr:hovedgruppe" v="infrastruktur" />
		<tag k="ssr:stedsnr" v="1039324" />
		<tag k="ssr:type" v="adressenavn" />
	</node>
	<node lat="60.37480799645257" lon="6.146241445409844" id="-70837">
		<tag k="name" v="Skutlalia" />
		<tag k="ssr:date" v="2019-12-27" />
		<tag k="ssr:gruppe" v="veg" />
		<tag k="ssr:hovedgruppe" v="infrastruktur" />
		<tag k="ssr:stedsnr" v="1039326" />
		<tag k="ssr:type" v="adressenavn" />
	</node>
	<node lat="60.37501673977798" lon="6.145082099725131" id="-70838">
		<tag k="name" v="Øvre Sundsvik" />
		<tag k="ssr:date" v="2019-12-27" />
		<tag k="ssr:gruppe" v="veg" />
		<tag k="ssr:hovedgruppe" v="infrastruktur" />
		<tag k="ssr:stedsnr" v="1039328" />
		<tag k="ssr:type" v="adressenavn" />
	</node>
	<node lat="60.37614857880145" lon="6.150701118315946" id="-70839">
		<tag k="name" v="Mjølstølvegen" />
		<tag k="ssr:date" v="2019-12-27" />
		<tag k="ssr:gruppe" v="veg" />
		<tag k="ssr:hovedgruppe" v="infrastruktur" />
		<tag k="ssr:stedsnr" v="1039330" />
		<tag k="ssr:type" v="adressenavn" />
	</node>
	<node lat="60.376929819556366" lon="6.149624648058827" id="-70840">
		<tag k="name" v="Hundsdalen" />
		<tag k="ssr:date" v="2019-12-27" />
		<tag k="ssr:gruppe" v="veg" />
		<tag k="ssr:hovedgruppe" v="infrastruktur" />
		<tag k="ssr:stedsnr" v="1039332" />
		<tag k="ssr:type" v="adressenavn" />
	</node>
	<node lat="60.37540195103851" lon="6.1494819932024445" id="-70841">
		<tag k="name" v="Norheimsbakken" />
		<tag k="ssr:date" v="2019-12-27" />
		<tag k="ssr:gruppe" v="veg" />
		<tag k="ssr:hovedgruppe" v="infrastruktur" />
		<tag k="ssr:stedsnr" v="1039334" />
		<tag k="ssr:type" v="adressenavn" />
	</node>
	<node lat="60.38666587132831" lon="5.332557531214444" id="-70842">
		<tag k="name" v="Vestland fylke" />
		<tag k="ssr:date" v="2022-01-03" />
		<tag k="ssr:gruppe" v="administrativeIndelinger" />
		<tag k="ssr:hovedgruppe" v="offentligAdministrasjon" />
		<tag k="ssr:stedsnr" v="1074408" />
		<tag k="ssr:type" v="fylke" />
	</node>
</osm>
