<?xml version="1.0" encoding="UTF-8"?>
<osm version="0.6" generator="osmapis">
	<node id="287064843" lat="64.2975404" lon="10.5107168" version="2" timestamp="2022-07-21T07:12:34Z" changeset="123878406" uid="3497659" user="NKA">
		<tag k="name" v="Osen" />
		<tag k="place" v="village" />
		<tag k="ssr:stedsnr" v="499497" />
	</node>
	<node id="304269089" lat="64.3065909" lon="10.4672596" version="3" timestamp="2022-07-21T07:12:34Z" changeset="123878406" uid="3497659" user="NKA">
		<tag k="name" v="Sundet" />
		<tag k="place" v="hamlet" />
		<tag k="ssr:stedsnr" v="742515" />
	</node>
	<node id="305049836" lat="64.3472987" lon="10.4632238" version="3" timestamp="2022-07-21T07:12:34Z" changeset="123878406" uid="3497659" user="NKA">
		<tag k="name" v="Vingsand" />
		<tag k="place" v="village" />
		<tag k="ssr:stedsnr" v="146457" />
	</node>
	<node id="305049840" lat="64.3247148" lon="10.4503718" version="3" timestamp="2022-07-21T07:12:34Z" changeset="123878406" uid="3497659" user="NKA">
		<tag k="name" v="Sandviksberget" />
		<tag k="place" v="quarter" />
		<tag k="ssr:stedsnr" v="317468" />
	</node>
	<node id="6211163248" lat="64.3208886" lon="10.3730614" version="2" timestamp="2022-07-21T07:12:34Z" changeset="123878406" uid="3497659" user="NKA">
		<tag k="name" v="Hepsøya" />
		<tag k="place" v="farm" />
		<tag k="ssr:stedsnr" v="75544" />
	</node>
	<node id="6211163277" lat="64.2371593" lon="10.6586645" version="2" timestamp="2022-07-21T07:12:34Z" changeset="123878406" uid="3497659" user="NKA">
		<tag k="alt_name" v="Steinsdalen" />
		<tag k="name" v="Kvernland" />
		<tag k="place" v="hamlet" />
		<tag k="ssr:stedsnr" v="499035" />
	</node>
	<node id="6211176886" lat="64.2959209" lon="10.2944505" version="2" timestamp="2022-07-21T07:12:34Z" changeset="123878406" uid="3497659" user="NKA">
		<tag k="alt_name" v="Yttervåg" />
		<tag k="name" v="Yttervågen" />
		<tag k="place" v="hamlet" />
		<tag k="ssr:stedsnr" v="620548" />
	</node>
	<node id="6211176893" lat="64.395502" lon="10.490501" version="2" timestamp="2022-07-21T07:12:34Z" changeset="123878406" uid="3497659" user="NKA">
		<tag k="name" v="Seter" />
		<tag k="place" v="village" />
		<tag k="ssr:stedsnr" v="742692" />
	</node>
	<node id="9901239973" lat="64.3231361" lon="10.3855805" version="1" timestamp="2022-07-21T07:12:34Z" changeset="123878406" uid="3497659" user="NKA">
		<tag k="alt_name" v="Gården" />
		<tag k="name" v="Nordberget" />
		<tag k="place" v="farm" />
		<tag k="ssr:stedsnr" v="864565" />
	</node>
	<node id="9901239974" lat="64.2974734" lon="10.5191161" version="1" timestamp="2022-07-21T07:12:34Z" changeset="123878406" uid="3497659" user="NKA">
		<tag k="name" v="Anegården" />
		<tag k="place" v="farm" />
		<tag k="ssr:stedsnr" v="822547" />
	</node>
	<node id="9901239975" lat="64.274379" lon="10.3977219" version="1" timestamp="2022-07-21T07:12:34Z" changeset="123878406" uid="3497659" user="NKA">
		<tag k="name" v="Vika" />
		<tag k="place" v="farm" />
		<tag k="ssr:stedsnr" v="640605" />
	</node>
	<node id="9901239976" lat="64.3399722" lon="10.6113862" version="1" timestamp="2022-07-21T07:12:34Z" changeset="123878406" uid="3497659" user="NKA">
		<tag k="name" v="Sve" />
		<tag k="place" v="farm" />
		<tag k="ssr:stedsnr" v="377723" />
	</node>
	<node id="9901239977" lat="64.3028674" lon="10.5086095" version="1" timestamp="2022-07-21T07:12:34Z" changeset="123878406" uid="3497659" user="NKA">
		<tag k="name" v="Solbakken" />
		<tag k="place" v="farm" />
		<tag k="ssr:stedsnr" v="336547" />
	</node>
	<node id="9901239978" lat="64.2919361" lon="10.5462333" version="1" timestamp="2022-07-21T07:12:34Z" changeset="123878406" uid="3497659" user="NKA">
		<tag k="name" v="Haugen" />
		<tag k="place" v="farm" />
		<tag k="ssr:stedsnr" v="559573" />
	</node>
	<node id="9901239979" lat="64.2794102" lon="10.4452958" version="1" timestamp="2022-07-21T07:12:34Z" changeset="123878406" uid="3497659" user="NKA">
		<tag k="name" v="Setran" />
		<tag k="place" v="hamlet" />
		<tag k="ssr:stedsnr" v="317545" />
	</node>
	<node id="9901239980" lat="64.3164904" lon="10.4672271" version="1" timestamp="2022-07-21T07:12:34Z" changeset="123878406" uid="3497659" user="NKA">
		<tag k="name" v="Litlhaugvollen" />
		<tag k="place" v="farm" />
		<tag k="ssr:stedsnr" v="640457" />
	</node>
	<node id="9901239981" lat="64.1890083" lon="10.6431694" version="1" timestamp="2022-07-21T07:12:34Z" changeset="123878406" uid="3497659" user="NKA">
		<tag k="name" v="Svartholet" />
		<tag k="place" v="isolated_dwelling" />
		<tag k="ssr:stedsnr" v="74478" />
	</node>
	<node id="9901239982" lat="64.1787611" lon="10.6285083" version="1" timestamp="2022-07-21T07:12:34Z" changeset="123878406" uid="3497659" user="NKA">
		<tag k="name" v="Elgsjøseteren" />
		<tag k="place" v="locality" />
		<tag k="ssr:stedsnr" v="196433" />
	</node>
	<node id="9901239983" lat="64.237414" lon="10.6405362" version="1" timestamp="2022-07-21T07:12:34Z" changeset="123878406" uid="3497659" user="NKA">
		<tag k="name" v="Storenget" />
		<tag k="place" v="farm" />
		<tag k="ssr:stedsnr" v="458416" />
	</node>
	<node id="9901239984" lat="64.3131744" lon="10.4680159" version="1" timestamp="2022-07-21T07:12:34Z" changeset="123878406" uid="3497659" user="NKA">
		<tag k="name" v="Nygården" />
		<tag k="place" v="farm" />
		<tag k="ssr:stedsnr" v="154530" />
	</node>
	<node id="9901239985" lat="64.3363333" lon="10.4628473" version="1" timestamp="2022-07-21T07:12:34Z" changeset="123878406" uid="3497659" user="NKA">
		<tag k="name" v="Salthammaren" />
		<tag k="place" v="farm" />
		<tag k="ssr:stedsnr" v="570792" />
	</node>
	<node id="9901239986" lat="64.4031625" lon="10.5249473" version="1" timestamp="2022-07-21T07:12:34Z" changeset="123878406" uid="3497659" user="NKA">
		<tag k="name" v="Angen" />
		<tag k="place" v="hamlet" />
		<tag k="ssr:stedsnr" v="924658" />
	</node>
	<node id="9901239987" lat="64.302875" lon="10.5250777" version="1" timestamp="2022-07-21T07:12:34Z" changeset="123878406" uid="3497659" user="NKA">
		<tag k="name" v="Tingvollan" />
		<tag k="place" v="farm" />
		<tag k="ssr:stedsnr" v="499504" />
	</node>
	<node id="9901239988" lat="64.275712" lon="10.4130258" version="1" timestamp="2022-07-21T07:12:34Z" changeset="123878406" uid="3497659" user="NKA">
		<tag k="name" v="Sørjer" />
		<tag k="place" v="hamlet" />
		<tag k="ssr:stedsnr" v="135590" />
	</node>
	<node id="9901239989" lat="64.3963331" lon="10.4949286" version="1" timestamp="2022-07-21T07:12:34Z" changeset="123878406" uid="3497659" user="NKA">
		<tag k="name" v="Bogen" />
		<tag k="place" v="farm" />
		<tag k="ssr:stedsnr" v="701363" />
	</node>
	<node id="9901239990" lat="64.2717041" lon="10.6128535" version="1" timestamp="2022-07-21T07:12:34Z" changeset="123878406" uid="3497659" user="NKA">
		<tag k="name" v="Mølnstranda" />
		<tag k="place" v="farm" />
		<tag k="ssr:stedsnr" v="701505" />
	</node>
	<node id="9901239991" lat="64.2918305" lon="10.5416888" version="1" timestamp="2022-07-21T07:12:34Z" changeset="123878406" uid="3497659" user="NKA">
		<tag k="name" v="Bjørnaneset" />
		<tag k="place" v="farm" />
		<tag k="ssr:stedsnr" v="458508" />
	</node>
	<node id="9901239992" lat="64.3341" lon="10.4752305" version="1" timestamp="2022-07-21T07:12:34Z" changeset="123878406" uid="3497659" user="NKA">
		<tag k="name" v="Nausthaugan" />
		<tag k="place" v="hamlet" />
		<tag k="ssr:stedsnr" v="94027" />
	</node>
	<node id="9901239993" lat="64.336725" lon="10.5158333" version="1" timestamp="2022-07-21T07:12:34Z" changeset="123878406" uid="3497659" user="NKA">
		<tag k="name" v="Botnenget" />
		<tag k="place" v="farm" />
		<tag k="ssr:stedsnr" v="620484" />
	</node>
	<node id="9901239994" lat="64.3924815" lon="10.4860949" version="1" timestamp="2022-07-21T07:12:34Z" changeset="123878406" uid="3497659" user="NKA">
		<tag k="name" v="Buhaugen" />
		<tag k="place" v="farm" />
		<tag k="ssr:stedsnr" v="701676" />
	</node>
	<node id="9901239995" lat="64.2731866" lon="10.6057954" version="1" timestamp="2022-07-21T07:12:34Z" changeset="123878406" uid="3497659" user="NKA">
		<tag k="name" v="Litlenget" />
		<tag k="place" v="farm" />
		<tag k="ssr:stedsnr" v="458485" />
	</node>
	<node id="9901239996" lat="64.2675028" lon="10.5840778" version="1" timestamp="2022-07-21T07:12:34Z" changeset="123878406" uid="3497659" user="NKA">
		<tag k="name" v="Langmoen" />
		<tag k="place" v="farm" />
		<tag k="ssr:stedsnr" v="196574" />
	</node>
	<node id="9901239997" lat="64.3294361" lon="10.4569138" version="1" timestamp="2022-07-21T07:12:34Z" changeset="123878406" uid="3497659" user="NKA">
		<tag k="name" v="Vanvika" />
		<tag k="place" v="farm" />
		<tag k="ssr:stedsnr" v="620507" />
	</node>
	<node id="9901239998" lat="64.2519833" lon="10.6294499" version="1" timestamp="2022-07-21T07:12:34Z" changeset="123878406" uid="3497659" user="NKA">
		<tag k="name" v="Vollan" />
		<tag k="place" v="farm" />
		<tag k="ssr:stedsnr" v="620398" />
	</node>
	<node id="9901239999" lat="64.3940847" lon="10.4887746" version="1" timestamp="2022-07-21T07:12:34Z" changeset="123878406" uid="3497659" user="NKA">
		<tag k="name" v="Kansbuhaugen" />
		<tag k="place" v="farm" />
		<tag k="ssr:stedsnr" v="154383" />
	</node>
	<node id="9901240000" lat="64.4032279" lon="10.5258562" version="1" timestamp="2022-07-21T07:12:34Z" changeset="123878406" uid="3497659" user="NKA">
		<tag k="name" v="Nygård" />
		<tag k="place" v="farm" />
		<tag k="ssr:stedsnr" v="94429" />
	</node>
	<node id="9901240001" lat="64.3384518" lon="10.4109847" version="1" timestamp="2022-07-21T07:12:34Z" changeset="123878406" uid="3497659" user="NKA">
		<tag k="name" v="Aune" />
		<tag k="place" v="isolated_dwelling" />
		<tag k="ssr:stedsnr" v="268806" />
	</node>
	<node id="9901240002" lat="64.2648607" lon="10.6060667" version="1" timestamp="2022-07-21T07:12:34Z" changeset="123878406" uid="3497659" user="NKA">
		<tag k="name" v="Granskogen" />
		<tag k="place" v="farm" />
		<tag k="ssr:stedsnr" v="276475" />
	</node>
	<node id="9901240003" lat="64.3357862" lon="10.4694389" version="1" timestamp="2022-07-21T07:12:34Z" changeset="123878406" uid="3497659" user="NKA">
		<tag k="name" v="Stranda" />
		<tag k="place" v="farm" />
		<tag k="ssr:stedsnr" v="579563" />
	</node>
	<node id="9901240004" lat="64.2481639" lon="10.6442084" version="1" timestamp="2022-07-21T07:12:34Z" changeset="123878406" uid="3497659" user="NKA">
		<tag k="name" v="Løsmoen" />
		<tag k="place" v="farm" />
		<tag k="ssr:stedsnr" v="276440" />
	</node>
	<node id="9901240005" lat="64.365972" lon="10.6210544" version="1" timestamp="2022-07-21T07:12:34Z" changeset="123878406" uid="3497659" user="NKA">
		<tag k="name" v="Holand" />
		<tag k="place" v="locality" />
		<tag k="ssr:stedsnr" v="944449" />
	</node>
	<node id="9901240006" lat="64.3935111" lon="10.4927862" version="1" timestamp="2022-07-21T07:12:34Z" changeset="123878406" uid="3497659" user="NKA">
		<tag k="name" v="Klaven" />
		<tag k="place" v="isolated_dwelling" />
		<tag k="ssr:stedsnr" v="519296" />
	</node>
	<node id="9901240007" lat="64.2902434" lon="10.5361352" version="1" timestamp="2022-07-21T07:12:34Z" changeset="123878406" uid="3497659" user="NKA">
		<tag k="name" v="Aftensøya" />
		<tag k="place" v="farm" />
		<tag k="ssr:stedsnr" v="943637" />
	</node>
	<node id="9901240008" lat="64.3310056" lon="10.4640555" version="1" timestamp="2022-07-21T07:12:34Z" changeset="123878406" uid="3497659" user="NKA">
		<tag k="alt_name" v="Grønnvika" />
		<tag k="name" v="Grønvika" />
		<tag k="place" v="farm" />
		<tag k="ssr:stedsnr" v="924492" />
	</node>
	<node id="9901240009" lat="64.2970746" lon="10.5169232" version="1" timestamp="2022-07-21T07:12:34Z" changeset="123878406" uid="3497659" user="NKA">
		<tag k="name" v="Nerstu" />
		<tag k="place" v="farm" />
		<tag k="ssr:stedsnr" v="276365" />
	</node>
	<node id="9901240010" lat="64.3464573" lon="10.4976531" version="1" timestamp="2022-07-21T07:12:34Z" changeset="123878406" uid="3497659" user="NKA">
		<tag k="name" v="Ytterhopen" />
		<tag k="place" v="hamlet" />
		<tag k="ssr:stedsnr" v="135727" />
	</node>
	<node id="9901240011" lat="64.2981626" lon="10.5170854" version="1" timestamp="2022-07-21T07:12:34Z" changeset="123878406" uid="3497659" user="NKA">
		<tag k="name" v="Sivertstu" />
		<tag k="place" v="farm" />
		<tag k="ssr:stedsnr" v="276108" />
	</node>
	<node id="9901240012" lat="64.3540112" lon="10.523" version="1" timestamp="2022-07-21T07:12:34Z" changeset="123878406" uid="3497659" user="NKA">
		<tag k="name" v="Tåmåsvika" />
		<tag k="place" v="isolated_dwelling" />
		<tag k="ssr:stedsnr" v="317662" />
	</node>
	<node id="9901240013" lat="64.3963949" lon="10.492437" version="1" timestamp="2022-07-21T07:12:34Z" changeset="123878406" uid="3497659" user="NKA">
		<tag k="name" v="Barland" />
		<tag k="place" v="farm" />
		<tag k="ssr:stedsnr" v="33340" />
	</node>
	<node id="9901240014" lat="64.1951027" lon="10.6625833" version="1" timestamp="2022-07-21T07:12:34Z" changeset="123878406" uid="3497659" user="NKA">
		<tag k="historic" v="shieling" />
		<tag k="name" v="Kvennlandsseteren" />
		<tag k="place" v="isolated_dwelling" />
		<tag k="ssr:stedsnr" v="499402" />
	</node>
	<node id="9901240015" lat="64.3983667" lon="10.4944445" version="1" timestamp="2022-07-21T07:12:34Z" changeset="123878406" uid="3497659" user="NKA">
		<tag k="name" v="Sæter" />
		<tag k="place" v="farm" />
		<tag k="ssr:stedsnr" v="803706" />
	</node>
	<node id="9901240016" lat="64.2736369" lon="10.5910001" version="1" timestamp="2022-07-21T07:12:34Z" changeset="123878406" uid="3497659" user="NKA">
		<tag k="name" v="Melhusmoen" />
		<tag k="place" v="farm" />
		<tag k="ssr:stedsnr" v="742578" />
	</node>
	<node id="9901251417" lat="64.3213853" lon="10.4571013" version="1" timestamp="2022-07-21T07:12:34Z" changeset="123878406" uid="3497659" user="NKA">
		<tag k="name" v="Strand" />
		<tag k="place" v="village" />
		<tag k="ssr:stedsnr" v="33553" />
	</node>
	<node id="9901251418" lat="64.3505" lon="10.4837695" version="1" timestamp="2022-07-21T07:12:34Z" changeset="123878406" uid="3497659" user="NKA">
		<tag k="name" v="Barvika" />
		<tag k="place" v="farm" />
		<tag k="ssr:stedsnr" v="195720" />
	</node>
	<node id="9901251419" lat="64.3184222" lon="10.4663306" version="1" timestamp="2022-07-21T07:12:34Z" changeset="123878406" uid="3497659" user="NKA">
		<tag k="name" v="Haugen" />
		<tag k="place" v="farm" />
		<tag k="ssr:stedsnr" v="337558" />
	</node>
	<node id="9901251420" lat="64.2829416" lon="10.4668777" version="1" timestamp="2022-07-21T07:12:34Z" changeset="123878406" uid="3497659" user="NKA">
		<tag k="name" v="Lindsetaunet" />
		<tag k="place" v="locality" />
		<tag k="ssr:stedsnr" v="620564" />
	</node>
	<node id="9901251421" lat="64.2623364" lon="10.6196999" version="1" timestamp="2022-07-21T07:12:34Z" changeset="123878406" uid="3497659" user="NKA">
		<tag k="name" v="Krommen" />
		<tag k="place" v="farm" />
		<tag k="ssr:stedsnr" v="701446" />
	</node>
	<node id="9901251422" lat="64.3311504" lon="10.3634921" version="1" timestamp="2022-07-21T07:12:34Z" changeset="123878406" uid="3497659" user="NKA">
		<tag k="name" v="Nordauna" />
		<tag k="place" v="farm" />
		<tag k="ssr:stedsnr" v="378534" />
	</node>
	<node id="9901251423" lat="64.2953519" lon="10.507402" version="1" timestamp="2022-07-21T07:12:34Z" changeset="123878406" uid="3497659" user="NKA">
		<tag k="alt_name" v="Nesmo;Nesmoen" />
		<tag k="name" v="Nesmoan" />
		<tag k="place" v="farm" />
		<tag k="ssr:stedsnr" v="256544" />
	</node>
	<node id="9901251424" lat="64.3325139" lon="10.3970611" version="1" timestamp="2022-07-21T07:12:34Z" changeset="123878406" uid="3497659" user="NKA">
		<tag k="name" v="Gløssvika" />
		<tag k="place" v="farm" />
		<tag k="ssr:stedsnr" v="317451" />
	</node>
	<node id="9901251425" lat="64.3030366" lon="10.5252287" version="1" timestamp="2022-07-21T07:12:34Z" changeset="123878406" uid="3497659" user="NKA">
		<tag k="name" v="Moen" />
		<tag k="place" v="farm" />
		<tag k="ssr:stedsnr" v="215563" />
	</node>
	<node id="9901251426" lat="64.396207" lon="10.4887078" version="1" timestamp="2022-07-21T07:12:34Z" changeset="123878406" uid="3497659" user="NKA">
		<tag k="name" v="Sjøhaugen" />
		<tag k="place" v="farm" />
		<tag k="ssr:stedsnr" v="154391" />
	</node>
	<node id="9901251427" lat="64.3979033" lon="10.4945878" version="1" timestamp="2022-07-21T07:12:34Z" changeset="123878406" uid="3497659" user="NKA">
		<tag k="name" v="Gården" />
		<tag k="place" v="farm" />
		<tag k="ssr:stedsnr" v="761414" />
	</node>
	<node id="9901251428" lat="64.3945538" lon="10.4906149" version="1" timestamp="2022-07-21T07:12:34Z" changeset="123878406" uid="3497659" user="NKA">
		<tag k="name" v="Naustbogen" />
		<tag k="place" v="farm" />
		<tag k="ssr:stedsnr" v="154382" />
	</node>
	<node id="9901251429" lat="64.3971388" lon="10.4999068" version="1" timestamp="2022-07-21T07:12:34Z" changeset="123878406" uid="3497659" user="NKA">
		<tag k="name" v="Skolstuberga" />
		<tag k="place" v="isolated_dwelling" />
		<tag k="ssr:stedsnr" v="701309" />
	</node>
	<node id="9901251430" lat="64.3286633" lon="10.4830149" version="1" timestamp="2022-07-21T07:12:34Z" changeset="123878406" uid="3497659" user="NKA">
		<tag k="name" v="Høvika" />
		<tag k="place" v="farm" />
		<tag k="ssr:stedsnr" v="439496" />
	</node>
	<node id="9901251431" lat="64.2903028" lon="10.5299222" version="1" timestamp="2022-07-21T07:12:34Z" changeset="123878406" uid="3497659" user="NKA">
		<tag k="name" v="Myrbakkan" />
		<tag k="place" v="farm" />
		<tag k="ssr:stedsnr" v="378609" />
	</node>
	<node id="9901251432" lat="64.2527361" lon="10.8144889" version="1" timestamp="2022-07-21T07:12:34Z" changeset="123878406" uid="3497659" user="NKA">
		<tag k="historic" v="shieling" />
		<tag k="name" v="Sandvassetran" />
		<tag k="place" v="isolated_dwelling" />
		<tag k="ssr:stedsnr" v="75227" />
	</node>
	<node id="9901251433" lat="64.3974015" lon="10.4892391" version="1" timestamp="2022-07-21T07:12:34Z" changeset="123878406" uid="3497659" user="NKA">
		<tag k="name" v="Husvika" />
		<tag k="place" v="hamlet" />
		<tag k="ssr:stedsnr" v="883337" />
	</node>
	<node id="9901251434" lat="64.2915247" lon="10.5526885" version="1" timestamp="2022-07-21T07:12:34Z" changeset="123878406" uid="3497659" user="NKA">
		<tag k="name" v="Småmyran" />
		<tag k="place" v="farm" />
		<tag k="ssr:stedsnr" v="154008" />
	</node>
	<node id="9901251435" lat="64.2861528" lon="10.7109139" version="1" timestamp="2022-07-21T07:12:34Z" changeset="123878406" uid="3497659" user="NKA">
		<tag k="name" v="Nesa" />
		<tag k="place" v="isolated_dwelling" />
		<tag k="ssr:stedsnr" v="14524" />
	</node>
	<node id="9901251436" lat="64.3218327" lon="10.4684026" version="1" timestamp="2022-07-21T07:12:34Z" changeset="123878406" uid="3497659" user="NKA">
		<tag k="alt_name" v="Bråten" />
		<tag k="name" v="Bråtten" />
		<tag k="place" v="farm" />
		<tag k="ssr:stedsnr" v="317470" />
	</node>
	<node id="9901251437" lat="64.395053" lon="10.4920468" version="1" timestamp="2022-07-21T07:12:34Z" changeset="123878406" uid="3497659" user="NKA">
		<tag k="name" v="Bakkan" />
		<tag k="place" v="farm" />
		<tag k="ssr:stedsnr" v="154378" />
	</node>
	<node id="9901251438" lat="64.2928652" lon="10.5191072" version="1" timestamp="2022-07-21T07:12:34Z" changeset="123878406" uid="3497659" user="NKA">
		<tag k="name" v="Mo" />
		<tag k="place" v="hamlet" />
		<tag k="ssr:stedsnr" v="256546" />
	</node>
	<node id="9901251439" lat="64.3622051" lon="10.5221522" version="1" timestamp="2022-07-21T07:12:34Z" changeset="123878406" uid="3497659" user="NKA">
		<tag k="name" v="Helvika" />
		<tag k="place" v="farm" />
		<tag k="ssr:stedsnr" v="13719" />
	</node>
	<node id="9901251440" lat="64.309" lon="10.5229139" version="1" timestamp="2022-07-21T07:12:34Z" changeset="123878406" uid="3497659" user="NKA">
		<tag k="name" v="Revegghalsen" />
		<tag k="place" v="farm" />
		<tag k="ssr:stedsnr" v="924517" />
	</node>
	<node id="9901251441" lat="64.2986333" lon="10.5170221" version="1" timestamp="2022-07-21T07:12:34Z" changeset="123878406" uid="3497659" user="NKA">
		<tag k="name" v="Framgården" />
		<tag k="place" v="farm" />
		<tag k="ssr:stedsnr" v="701305" />
	</node>
	<node id="9901251442" lat="64.2839777" lon="10.6919166" version="1" timestamp="2022-07-21T07:12:34Z" changeset="123878406" uid="3497659" user="NKA">
		<tag k="name" v="Stakkslættet" />
		<tag k="place" v="isolated_dwelling" />
		<tag k="ssr:stedsnr" v="196555" />
	</node>
	<node id="9901251443" lat="64.3015584" lon="10.5117723" version="1" timestamp="2022-07-21T07:12:34Z" changeset="123878406" uid="3497659" user="NKA">
		<tag k="name" v="Brenneset" />
		<tag k="place" v="farm" />
		<tag k="ssr:stedsnr" v="579308" />
	</node>
	<node id="9901251444" lat="64.307125" lon="10.527064" version="1" timestamp="2022-07-21T07:12:34Z" changeset="123878406" uid="3497659" user="NKA">
		<tag k="name" v="Myra" />
		<tag k="place" v="farm" />
		<tag k="ssr:stedsnr" v="943633" />
	</node>
	<node id="9901251445" lat="64.2806694" lon="10.5775806" version="1" timestamp="2022-07-21T07:12:34Z" changeset="123878406" uid="3497659" user="NKA">
		<tag k="name" v="Fuglmoen" />
		<tag k="place" v="farm" />
		<tag k="ssr:stedsnr" v="14529" />
	</node>
	<node id="9901251446" lat="64.3961695" lon="10.584975" version="1" timestamp="2022-07-21T07:12:34Z" changeset="123878406" uid="3497659" user="NKA">
		<tag k="name" v="Mårvika" />
		<tag k="place" v="isolated_dwelling" />
		<tag k="ssr:stedsnr" v="378725" />
	</node>
	<node id="9901251447" lat="64.3401972" lon="10.4138249" version="1" timestamp="2022-07-21T07:12:34Z" changeset="123878406" uid="3497659" user="NKA">
		<tag k="name" v="Ramsøyaunet" />
		<tag k="place" v="farm" />
		<tag k="ssr:stedsnr" v="135484" />
	</node>
	<node id="9901251448" lat="64.2308806" lon="10.8193055" version="1" timestamp="2022-07-21T07:12:34Z" changeset="123878406" uid="3497659" user="NKA">
		<tag k="historic" v="shieling" />
		<tag k="name" v="Vassdølsetran" />
		<tag k="place" v="isolated_dwelling" />
		<tag k="ssr:stedsnr" v="742606" />
	</node>
	<node id="9901251449" lat="64.2896751" lon="10.5410297" version="1" timestamp="2022-07-21T07:12:34Z" changeset="123878406" uid="3497659" user="NKA">
		<tag k="alt_name" v="Øren" />
		<tag k="name" v="Ørin" />
		<tag k="place" v="farm" />
		<tag k="ssr:stedsnr" v="75616" />
	</node>
	<node id="9901251450" lat="64.2704023" lon="10.5867023" version="1" timestamp="2022-07-21T07:12:34Z" changeset="123878406" uid="3497659" user="NKA">
		<tag k="name" v="Melhus" />
		<tag k="place" v="farm" />
		<tag k="ssr:stedsnr" v="803614" />
	</node>
	<node id="9901251451" lat="64.3565289" lon="10.6783463" version="1" timestamp="2022-07-21T07:12:34Z" changeset="123878406" uid="3497659" user="NKA">
		<tag k="name" v="Solløysa" />
		<tag k="place" v="locality" />
		<tag k="ssr:stedsnr" v="134749" />
	</node>
	<node id="9901251452" lat="64.3467507" lon="10.4594798" version="1" timestamp="2022-07-21T07:12:34Z" changeset="123878406" uid="3497659" user="NKA">
		<tag k="name" v="Kleiva" />
		<tag k="place" v="farm" />
		<tag k="ssr:stedsnr" v="276092" />
	</node>
	<node id="9901251453" lat="64.2639497" lon="10.6270205" version="1" timestamp="2022-07-21T07:12:34Z" changeset="123878406" uid="3497659" user="NKA">
		<tag k="name" v="Haugen" />
		<tag k="place" v="farm" />
		<tag k="ssr:stedsnr" v="13637" />
	</node>
	<node id="9901251454" lat="64.34095" lon="10.509236" version="1" timestamp="2022-07-21T07:12:34Z" changeset="123878406" uid="3497659" user="NKA">
		<tag k="name" v="Innerhopen" />
		<tag k="place" v="farm" />
		<tag k="ssr:stedsnr" v="74725" />
	</node>
	<node id="9901251455" lat="64.2420492" lon="10.6861791" version="1" timestamp="2022-07-21T07:12:34Z" changeset="123878406" uid="3497659" user="NKA">
		<tag k="name" v="Øver-Åsegg" />
		<tag k="place" v="farm" />
		<tag k="ssr:stedsnr" v="13055" />
	</node>
	<node id="9901251456" lat="64.2371389" lon="10.6787806" version="1" timestamp="2022-07-21T07:12:34Z" changeset="123878406" uid="3497659" user="NKA">
		<tag k="name" v="Lunmyra" />
		<tag k="place" v="farm" />
		<tag k="ssr:stedsnr" v="14032" />
	</node>
	<node id="9901251457" lat="64.2405071" lon="10.6470392" version="1" timestamp="2022-07-21T07:12:34Z" changeset="123878406" uid="3497659" user="NKA">
		<tag k="name" v="Godset" />
		<tag k="place" v="farm" />
		<tag k="ssr:stedsnr" v="519063" />
	</node>
	<node id="9901251458" lat="64.2491618" lon="10.6342267" version="1" timestamp="2022-07-21T07:12:34Z" changeset="123878406" uid="3497659" user="NKA">
		<tag k="name" v="Åsegg" />
		<tag k="place" v="hamlet" />
		<tag k="ssr:stedsnr" v="741044" />
	</node>
	<node id="9901251459" lat="64.1984306" lon="10.7724999" version="1" timestamp="2022-07-21T07:12:34Z" changeset="123878406" uid="3497659" user="NKA">
		<tag k="name" v="Austvassheim" />
		<tag k="place" v="isolated_dwelling" />
		<tag k="ssr:stedsnr" v="681687" />
	</node>
	<node id="9901251460" lat="64.2983473" lon="10.511239" version="1" timestamp="2022-07-21T07:12:34Z" changeset="123878406" uid="3497659" user="NKA">
		<tag k="name" v="Unlenda" />
		<tag k="place" v="farm" />
		<tag k="ssr:stedsnr" v="518250" />
	</node>
	<node id="9901251461" lat="64.2734928" lon="10.5966505" version="1" timestamp="2022-07-21T07:12:34Z" changeset="123878406" uid="3497659" user="NKA">
		<tag k="name" v="Torvenget" />
		<tag k="place" v="farm" />
		<tag k="ssr:stedsnr" v="943715" />
	</node>
	<node id="9901251462" lat="64.3646097" lon="10.6668987" version="1" timestamp="2022-07-21T07:12:34Z" changeset="123878406" uid="3497659" user="NKA">
		<tag k="name" v="Levika" />
		<tag k="place" v="hamlet" />
		<tag k="ssr:stedsnr" v="499684" />
	</node>
	<node id="9901251463" lat="64.3012945" lon="10.5129805" version="1" timestamp="2022-07-21T07:12:34Z" changeset="123878406" uid="3497659" user="NKA">
		<tag k="name" v="Tillegget" />
		<tag k="place" v="farm" />
		<tag k="ssr:stedsnr" v="196526" />
	</node>
	<node id="9901251464" lat="64.2396694" lon="10.6739611" version="1" timestamp="2022-07-21T07:12:34Z" changeset="123878406" uid="3497659" user="NKA">
		<tag k="name" v="Haugen" />
		<tag k="place" v="farm" />
		<tag k="ssr:stedsnr" v="681046" />
	</node>
	<node id="9901251465" lat="64.2562417" lon="10.6307332" version="1" timestamp="2022-07-21T07:12:34Z" changeset="123878406" uid="3497659" user="NKA">
		<tag k="name" v="Nylandet" />
		<tag k="place" v="farm" />
		<tag k="ssr:stedsnr" v="196386" />
	</node>
	<node id="9901251466" lat="64.2905647" lon="10.5582082" version="1" timestamp="2022-07-21T07:12:34Z" changeset="123878406" uid="3497659" user="NKA">
		<tag k="name" v="Raudkollenget" />
		<tag k="place" v="farm" />
		<tag k="ssr:stedsnr" v="924565" />
	</node>
	<node id="9901251467" lat="64.2879706" lon="10.5201528" version="1" timestamp="2022-07-21T07:12:34Z" changeset="123878406" uid="3497659" user="NKA">
		<tag k="name" v="Nygården" />
		<tag k="place" v="farm" />
		<tag k="ssr:stedsnr" v="943617" />
	</node>
	<node id="9901251468" lat="64.3203691" lon="10.3735626" version="1" timestamp="2022-07-21T07:12:34Z" changeset="123878406" uid="3497659" user="NKA">
		<tag k="name" v="Åkervika" />
		<tag k="place" v="hamlet" />
		<tag k="ssr:stedsnr" v="458658" />
	</node>
	<node id="9901251469" lat="64.239575" lon="10.6571445" version="1" timestamp="2022-07-21T07:12:34Z" changeset="123878406" uid="3497659" user="NKA">
		<tag k="name" v="Hestmoen" />
		<tag k="place" v="farm" />
		<tag k="ssr:stedsnr" v="681029" />
	</node>
	<node id="9901251470" lat="64.3066703" lon="10.5066897" version="1" timestamp="2022-07-21T07:12:34Z" changeset="123878406" uid="3497659" user="NKA">
		<tag k="name" v="Vika" />
		<tag k="place" v="hamlet" />
		<tag k="ssr:stedsnr" v="742504" />
	</node>
	<node id="9901251471" lat="64.2821944" lon="10.5277584" version="1" timestamp="2022-07-21T07:12:34Z" changeset="123878406" uid="3497659" user="NKA">
		<tag k="name" v="Engan" />
		<tag k="place" v="farm" />
		<tag k="ssr:stedsnr" v="924576" />
	</node>
	<node id="9901251472" lat="64.2479528" lon="10.7652529" version="1" timestamp="2022-07-21T07:12:34Z" changeset="123878406" uid="3497659" user="NKA">
		<tag k="historic" v="shieling" />
		<tag k="name" v="Melhusseteren" />
		<tag k="place" v="isolated_dwelling" />
		<tag k="ssr:stedsnr" v="438743" />
	</node>
	<node id="9901251473" lat="64.2993027" lon="10.5042083" version="1" timestamp="2022-07-21T07:12:34Z" changeset="123878406" uid="3497659" user="NKA">
		<tag k="alt_name" v="Øren" />
		<tag k="name" v="Ørin" />
		<tag k="place" v="farm" />
		<tag k="ssr:stedsnr" v="924535" />
	</node>
	<node id="9901251474" lat="64.2662769" lon="10.6124213" version="1" timestamp="2022-07-21T07:12:34Z" changeset="123878406" uid="3497659" user="NKA">
		<tag k="name" v="Onshaugen" />
		<tag k="place" v="farm" />
		<tag k="ssr:stedsnr" v="863639" />
	</node>
	<node id="9901251475" lat="64.2715852" lon="10.608665" version="1" timestamp="2022-07-21T07:12:34Z" changeset="123878406" uid="3497659" user="NKA">
		<tag k="name" v="Storvollen" />
		<tag k="place" v="hamlet" />
		<tag k="ssr:stedsnr" v="863620" />
	</node>
	<node id="9901251476" lat="64.3994992" lon="10.4886816" version="1" timestamp="2022-07-21T07:12:34Z" changeset="123878406" uid="3497659" user="NKA">
		<tag k="name" v="Myra" />
		<tag k="place" v="farm" />
		<tag k="ssr:stedsnr" v="822685" />
	</node>
	<node id="9901251477" lat="64.2883638" lon="10.2963515" version="1" timestamp="2022-07-21T07:12:34Z" changeset="123878406" uid="3497659" user="NKA">
		<tag k="name" v="Indre Skjervøya" />
		<tag k="place" v="hamlet" />
		<tag k="ssr:stedsnr" v="337441" />
	</node>
	<node id="9901251478" lat="64.3204153" lon="10.4681452" version="1" timestamp="2022-07-21T07:12:34Z" changeset="123878406" uid="3497659" user="NKA">
		<tag k="name" v="Haugtun" />
		<tag k="place" v="farm" />
		<tag k="ssr:stedsnr" v="803548" />
	</node>
	<node id="9901251479" lat="64.3521777" lon="10.4696259" version="1" timestamp="2022-07-21T07:12:34Z" changeset="123878406" uid="3497659" user="NKA">
		<tag k="alt_name" v="Aune" />
		<tag k="name" v="Vingsandaunet" />
		<tag k="place" v="farm" />
		<tag k="ssr:stedsnr" v="802756" />
	</node>
	<node id="9901251480" lat="64.3026306" lon="10.5086278" version="1" timestamp="2022-07-21T07:12:34Z" changeset="123878406" uid="3497659" user="NKA">
		<tag k="name" v="Stekshaugan" />
		<tag k="place" v="farm" />
		<tag k="ssr:stedsnr" v="803573" />
	</node>
	<node id="9901251481" lat="64.3874601" lon="10.6157353" version="1" timestamp="2022-07-21T07:12:34Z" changeset="123878406" uid="3497659" user="NKA">
		<tag k="name" v="Drageid" />
		<tag k="place" v="hamlet" />
		<tag k="ssr:stedsnr" v="378715" />
	</node>
	<node id="9901251482" lat="64.2964749" lon="10.2971751" version="1" timestamp="2022-07-21T07:12:34Z" changeset="123878406" uid="3497659" user="NKA">
		<tag k="name" v="Ytre Skjervøya" />
		<tag k="place" v="farm" />
		<tag k="ssr:stedsnr" v="215656" />
	</node>
	<node id="9901251483" lat="64.2895471" lon="10.4307314" version="1" timestamp="2022-07-21T07:12:34Z" changeset="123878406" uid="3497659" user="NKA">
		<tag k="name" v="Brattjer" />
		<tag k="place" v="hamlet" />
		<tag k="ssr:stedsnr" v="75611" />
	</node>
	<node id="9901251484" lat="64.3218413" lon="10.4550873" version="1" timestamp="2022-07-21T07:12:34Z" changeset="123878406" uid="3497659" user="NKA">
		<tag k="name" v="Solstrand" />
		<tag k="place" v="farm" />
		<tag k="ssr:stedsnr" v="761714" />
	</node>
	<node id="9901251485" lat="64.3035711" lon="10.5197186" version="1" timestamp="2022-07-21T07:12:34Z" changeset="123878406" uid="3497659" user="NKA">
		<tag k="name" v="Larsgården" />
		<tag k="place" v="farm" />
		<tag k="ssr:stedsnr" v="761488" />
	</node>
	<node id="9901251486" lat="64.2239472" lon="10.7941721" version="1" timestamp="2022-07-21T07:12:34Z" changeset="123878406" uid="3497659" user="NKA">
		<tag k="name" v="Rundførrubakksetran" />
		<tag k="place" v="isolated_dwelling" />
		<tag k="ssr:stedsnr" v="257693" />
	</node>
	<node id="9901251487" lat="64.2992112" lon="10.5200937" version="1" timestamp="2022-07-21T07:12:34Z" changeset="123878406" uid="3497659" user="NKA">
		<tag k="name" v="Kraket" />
		<tag k="place" v="farm" />
		<tag k="ssr:stedsnr" v="761483" />
	</node>
	<node id="9901251488" lat="64.2375194" lon="10.6678583" version="1" timestamp="2022-07-21T07:12:34Z" changeset="123878406" uid="3497659" user="NKA">
		<tag k="name" v="Lunmo" />
		<tag k="place" v="farm" />
		<tag k="ssr:stedsnr" v="215298" />
	</node>
	<node id="9901251489" lat="64.2972826" lon="10.5127472" version="1" timestamp="2022-07-21T07:12:34Z" changeset="123878406" uid="3497659" user="NKA">
		<tag k="name" v="Rognin" />
		<tag k="place" v="farm" />
		<tag k="ssr:stedsnr" v="276634" />
	</node>
	<node id="9901251490" lat="64.2735361" lon="10.6085973" version="1" timestamp="2022-07-21T07:12:34Z" changeset="123878406" uid="3497659" user="NKA">
		<tag k="name" v="Einmoen" />
		<tag k="place" v="farm" />
		<tag k="ssr:stedsnr" v="943719" />
	</node>
	<node id="9901251491" lat="64.3063167" lon="10.6841833" version="1" timestamp="2022-07-21T07:12:34Z" changeset="123878406" uid="3497659" user="NKA">
		<tag k="historic" v="shieling" />
		<tag k="name" v="Langliseteren" />
		<tag k="place" v="isolated_dwelling" />
		<tag k="ssr:stedsnr" v="742527" />
	</node>
	<node id="9901251492" lat="64.4023241" lon="10.5327137" version="1" timestamp="2022-07-21T07:12:34Z" changeset="123878406" uid="3497659" user="NKA">
		<tag k="name" v="Stavran" />
		<tag k="place" v="farm" />
		<tag k="ssr:stedsnr" v="883443" />
	</node>
	<node id="9901251493" lat="64.2174666" lon="10.6058638" version="1" timestamp="2022-07-21T07:12:34Z" changeset="123878406" uid="3497659" user="NKA">
		<tag k="historic" v="shieling" />
		<tag k="name" v="Geilsetran" />
		<tag k="place" v="isolated_dwelling" />
		<tag k="ssr:stedsnr" v="75008" />
	</node>
	<node id="9901251494" lat="64.2913746" lon="10.538769" version="1" timestamp="2022-07-21T07:12:34Z" changeset="123878406" uid="3497659" user="NKA">
		<tag k="name" v="Neset" />
		<tag k="place" v="farm" />
		<tag k="ssr:stedsnr" v="33701" />
	</node>
	<node id="9901251495" lat="64.2701712" lon="10.5966037" version="1" timestamp="2022-07-21T07:12:34Z" changeset="123878406" uid="3497659" user="NKA">
		<tag k="name" v="Stein" />
		<tag k="place" v="hamlet" />
		<tag k="ssr:stedsnr" v="518726" />
	</node>
	<node id="9901251496" lat="64.2922203" lon="10.4545219" version="1" timestamp="2022-07-21T07:12:34Z" changeset="123878406" uid="3497659" user="NKA">
		<tag k="name" v="Lindset" />
		<tag k="place" v="farm" />
		<tag k="ssr:stedsnr" v="196533" />
	</node>
	<node id="9901251497" lat="64.3431574" lon="10.6196868" version="1" timestamp="2022-07-21T07:12:34Z" changeset="123878406" uid="3497659" user="NKA">
		<tag k="name" v="Sandvika" />
		<tag k="place" v="farm" />
		<tag k="ssr:stedsnr" v="438736" />
	</node>
	<node id="9901251498" lat="64.2879277" lon="10.5199764" version="1" timestamp="2022-07-21T07:12:34Z" changeset="123878406" uid="3497659" user="NKA">
		<tag k="name" v="Sørmelan" />
		<tag k="place" v="hamlet" />
		<tag k="ssr:stedsnr" v="196534" />
	</node>
	<node id="9901251499" lat="64.3669778" lon="10.6579556" version="1" timestamp="2022-07-21T07:12:34Z" changeset="123878406" uid="3497659" user="NKA">
		<tag k="name" v="Ervika" />
		<tag k="old_name" v="Erivika" />
		<tag k="place" v="farm" />
		<tag k="ssr:stedsnr" v="499651" />
	</node>
	<node id="9901251500" lat="64.2914697" lon="10.5491201" version="1" timestamp="2022-07-21T07:12:34Z" changeset="123878406" uid="3497659" user="NKA">
		<tag k="name" v="Nordmelan" />
		<tag k="place" v="hamlet" />
		<tag k="ssr:stedsnr" v="439569" />
	</node>
	<node id="9901251501" lat="64.3557634" lon="10.4815133" version="1" timestamp="2022-07-21T07:12:34Z" changeset="123878406" uid="3497659" user="NKA">
		<tag k="name" v="Bjørsvika" />
		<tag k="place" v="hamlet" />
		<tag k="ssr:stedsnr" v="438717" />
	</node>
	<node id="9901251502" lat="64.2647004" lon="10.618337" version="1" timestamp="2022-07-21T07:12:34Z" changeset="123878406" uid="3497659" user="NKA">
		<tag k="name" v="Engan" />
		<tag k="place" v="farm" />
		<tag k="ssr:stedsnr" v="377621" />
	</node>
	<node id="9901251503" lat="64.2643563" lon="10.6261975" version="1" timestamp="2022-07-21T07:12:34Z" changeset="123878406" uid="3497659" user="NKA">
		<tag k="name" v="Hagen" />
		<tag k="place" v="farm" />
		<tag k="ssr:stedsnr" v="33422" />
	</node>
	<node id="5758369587" lat="64.2910719" lon="10.5510416" version="1" timestamp="2018-07-13T10:27:21Z" changeset="60683156" uid="8470372" user="Entur AS | Angie Torres" />
	<node id="5758374842" lat="64.2910353" lon="10.5513446" version="1" timestamp="2018-07-13T10:28:14Z" changeset="60683156" uid="8470372" user="Entur AS | Angie Torres" />
	<node id="5758369175" lat="64.2721137" lon="10.6075821" version="2" timestamp="2021-02-11T22:34:34Z" changeset="99136673" uid="715936" user="Gazer75" />
	<node id="5758376439" lat="64.2722208" lon="10.6064871" version="2" timestamp="2021-02-11T22:34:34Z" changeset="99136673" uid="715936" user="Gazer75" />
	<node id="8416645477" lat="64.2721998" lon="10.6067848" version="1" timestamp="2021-02-11T22:34:34Z" changeset="99136673" uid="715936" user="Gazer75" />
	<node id="8416645478" lat="64.2721766" lon="10.6070651" version="1" timestamp="2021-02-11T22:34:34Z" changeset="99136673" uid="715936" user="Gazer75" />
	<node id="8416645479" lat="64.2721451" lon="10.6073548" version="1" timestamp="2021-02-11T22:34:34Z" changeset="99136673" uid="715936" user="Gazer75" />
	<way id="607665172" version="3" timestamp="2022-01-24T21:00:15Z" changeset="116559033" uid="3497659" user="NKA">
		<tag k="bridge" v="yes" />
		<tag k="highway" v="primary" />
		<tag k="layer" v="1" />
		<tag k="maxspeed" v="50" />
		<tag k="name" v="Skippelvbrua" />
		<tag k="ref" v="715" />
		<tag k="ssr:stedsnr" v="385290" />
		<tag k="surface" v="asphalt" />
		<nd ref="5758376439" />
		<nd ref="8416645477" />
		<nd ref="8416645478" />
		<nd ref="8416645479" />
		<nd ref="5758369175" />
	</way>
	<way id="607665177" version="3" timestamp="2022-01-24T21:00:15Z" changeset="116559033" uid="3497659" user="NKA">
		<tag k="bridge" v="yes" />
		<tag k="highway" v="primary" />
		<tag k="layer" v="1" />
		<tag k="maxspeed" v="50" />
		<tag k="name" v="Grytelvbrua" />
		<tag k="ref" v="715" />
		<tag k="ssr:stedsnr" v="810282" />
		<tag k="surface" v="asphalt" />
		<nd ref="5758369587" />
		<nd ref="5758374842" />
	</way>
</osm>
