<?xml version="1.0" encoding="UTF-8"?>
<<<<<<< HEAD
<osm version="0.6" generator="osmapis">
	<node lat="60.04691667094598" lon="11.023188891231385" id="-12881">
		<tag k="name" v="Bråtemåsan" />
		<tag k="natural" v="wetland" />
		<tag k="ssr:stedsnr" v="84936" />
	</node>
	<node lat="60.085449998570304" lon="10.98986665934917" id="-12890">
		<tag k="name" v="Sørensmyra" />
		<tag k="natural" v="wetland" />
		<tag k="ssr:stedsnr" v="126519" />
	</node>
	<node lat="60.06683333165482" lon="10.985208336628512" id="-12893">
		<tag k="alt_name" v="Hønsivangen, nordre" />
		<tag k="historic" v="shieling" />
		<tag k="name" v="Nedre Hønsivangen" />
		<tag k="place" v="locality" />
		<tag k="ssr:stedsnr" v="127543" />
	</node>
	<node lat="60.07539166958658" lon="10.956769447423792" id="-12895">
		<tag k="historic" v="shieling" />
		<tag k="name" v="Sørumsvangen" />
		<tag k="place" v="locality" />
		<tag k="ssr:stedsnr" v="187512" />
	</node>
	<node lat="60.122013891350065" lon="10.957011119954178" id="-12896">
		<tag k="alt_name" v="Delemyrene" />
		<tag k="name" v="Delemyra" />
		<tag k="natural" v="wetland" />
		<tag k="ssr:stedsnr" v="187638" />
	</node>
	<node lat="60.091075002005766" lon="10.976811118133352" id="-12909">
		<tag k="name" v="Gistisoten" />
		<tag k="natural" v="wetland" />
		<tag k="ssr:stedsnr" v="266935" />
	</node>
	<node lat="60.04873333442485" lon="10.975250007175092" id="-12912">
		<tag k="alt_name" v="Hønsivangen, søndre" />
		<tag k="historic" v="shieling" />
		<tag k="name" v="Øvre Hønsivangen" />
		<tag k="place" v="locality" />
		<tag k="ssr:stedsnr" v="308407" />
	</node>
	<node lat="60.12193889032293" lon="10.992633327255364" id="-12914">
		<tag k="name" v="Rustadmåsan" />
		<tag k="natural" v="wetland" />
		<tag k="ssr:stedsnr" v="309682" />
	</node>
	<node lat="60.1224138897633" lon="10.917169437610996" id="-12916">
		<tag k="name" v="Gjermenningsmåsan" />
		<tag k="natural" v="wetland" />
		<tag k="ssr:stedsnr" v="327912" />
	</node>
	<node lat="60.0928555517195" lon="10.951163891511985" id="-12919">
		<tag k="historic" v="shieling" />
		<tag k="name" v="Henivangen" />
		<tag k="place" v="locality" />
		<tag k="ssr:stedsnr" v="369565" />
	</node>
	<node lat="60.07201111316375" lon="10.972227777266598" id="-12934">
		<tag k="name" v="Kråkvålsmåsan" />
		<tag k="natural" v="wetland" />
		<tag k="ssr:stedsnr" v="448905" />
	</node>
	<node lat="60.08647499881222" lon="10.954927771848597" id="-12938">
		<tag k="historic" v="shieling" />
		<tag k="name" v="Skeisvangen" />
		<tag k="place" v="locality" />
		<tag k="ssr:stedsnr" v="448933" />
	</node>
	<node lat="60.11889999845602" lon="10.984883337922907" id="-12947">
		<tag k="alt_name" v="Kulpemyrene" />
		<tag k="name" v="Kulpmyra" />
		<tag k="natural" v="wetland" />
		<tag k="ssr:stedsnr" v="673677" />
	</node>
	<node lat="60.09288888483557" lon="10.995891664195776" id="-12950">
		<tag k="name" v="Kleivmyra" />
=======
<osm generator="osmapis" version="0.6">
	<node id="-260352" lat="60.0851777783" lon="10.9375444416">
		<tag k="historic" v="shieling" />
		<tag k="name" v="Øvre Kokstadvangen" />
		<tag k="place" v="locality" />
		<tag k="ssr:stedsnr" v="569946" />
	</node>
	<node id="-260094" lat="60.0500166681" lon="11.0256388846">
		<tag k="name" v="Kjestinamyra" />
		<tag k="natural" v="wetland" />
		<tag k="ssr:stedsnr" v="84970" />
	</node>
	<node id="-260373" lat="60.0632388896" lon="11.040788881">
		<tag k="landuse" v="meadow" />
		<tag k="name" v="Fjellstadenga" />
		<tag k="ssr:stedsnr" v="751963" />
	</node>
	<node id="-260219" lat="60.091675001" lon="10.9630222141">
		<tag k="name" v="Stormåsan" />
>>>>>>> e1d4bc35ff8a6074a6f2e91616a996b547c36f15
		<tag k="natural" v="wetland" />
		<tag k="ssr:stedsnr" v="490611" />
	</node>
<<<<<<< HEAD
	<node lat="60.10882222248107" lon="10.989752778298469" id="-12963">
		<tag k="name" v="Steinbråtan" />
=======
	<node id="-260217" lat="60.0533" lon="11.0152722156">
		<tag k="historic" v="shieling" />
		<tag k="name" v="Asmyrvangen" />
>>>>>>> e1d4bc35ff8a6074a6f2e91616a996b547c36f15
		<tag k="place" v="locality" />
		<tag k="ssr:stedsnr" v="509908" />
	</node>
<<<<<<< HEAD
	<node lat="60.052569444397975" lon="11.008752776223048" id="-12969">
		<tag k="historic" v="shieling" />
		<tag k="name" v="Øvre Asmyrvangen" />
		<tag k="place" v="locality" />
		<tag k="ssr:stedsnr" v="691938" />
	</node>
	<node lat="60.10584444409514" lon="10.955013880657456" id="-12988">
		<tag k="historic" v="shieling" />
		<tag k="name" v="Vangsvangen" />
		<tag k="place" v="locality" />
		<tag k="ssr:stedsnr" v="673617" />
	</node>
	<node lat="60.102830551351325" lon="10.950241667469388" id="-12996">
		<tag k="alt_name" v="Langmyrene" />
		<tag k="name" v="Langmyra" />
=======
	<node id="-260222" lat="60.0325555547" lon="11.0619972281">
		<tag k="name" v="Vardemåsan" />
		<tag k="natural" v="wetland" />
		<tag k="ssr:stedsnr" v="873924" />
	</node>
	<node id="-260115" lat="60.1224138898" lon="10.9171694376">
		<tag k="name" v="Gjermenningsmåsan" />
		<tag k="natural" v="wetland" />
		<tag k="ssr:stedsnr" v="327912" />
	</node>
	<node id="-260079" lat="60.0547861084" lon="10.9763250074">
		<tag k="alt_name" v="Jordmyrene" />
		<tag k="name" v="Jordmyrane" />
>>>>>>> e1d4bc35ff8a6074a6f2e91616a996b547c36f15
		<tag k="natural" v="wetland" />
		<tag k="ssr:stedsnr" v="734635" />
	</node>
<<<<<<< HEAD
	<node lat="60.07879721943157" lon="10.98092222284678" id="-12998">
		<tag k="name" v="Sørumsmåsan" />
=======
	<node id="-260203" lat="60.1208277768" lon="10.9391638832">
		<tag k="name" v="Gjerimåsan" />
>>>>>>> e1d4bc35ff8a6074a6f2e91616a996b547c36f15
		<tag k="natural" v="wetland" />
		<tag k="ssr:stedsnr" v="751919" />
	</node>
<<<<<<< HEAD
	<node lat="60.058213892381445" lon="11.016916663607908" id="-13000">
		<tag k="name" v="Gartelarsmyra" />
=======
	<node id="-260330" lat="60.066244446" lon="10.9470444471">
		<tag k="alt_name" v="Hellemyrene" />
		<tag k="name" v="Hellemyrane" />
>>>>>>> e1d4bc35ff8a6074a6f2e91616a996b547c36f15
		<tag k="natural" v="wetland" />
		<tag k="ssr:stedsnr" v="751959" />
	</node>
<<<<<<< HEAD
	<node lat="60.06323888957265" lon="11.04078888096923" id="-13001">
		<tag k="landuse" v="meadow" />
		<tag k="name" v="Fjellstadenga" />
		<tag k="ssr:stedsnr" v="751963" />
	</node>
	<node lat="60.05430555756471" lon="11.026397219631002" id="-13002">
		<tag k="name" v="Møkkamyra" />
		<tag k="natural" v="wetland" />
		<tag k="ssr:stedsnr" v="751966" />
	</node>
	<node lat="60.12082777683347" lon="10.939163883222646" id="-13015">
		<tag k="name" v="Gjerimåsan" />
		<tag k="natural" v="wetland" />
		<tag k="ssr:stedsnr" v="916702" />
	</node>
	<node lat="60.08236944381546" lon="10.981488896660132" id="-13016">
		<tag k="historic" v="shieling" />
		<tag k="name" v="Åmotsvangen" />
		<tag k="place" v="locality" />
		<tag k="ssr:stedsnr" v="812904" />
	</node>
	<node lat="60.09167500102896" lon="10.96302221410403" id="-13027">
		<tag k="name" v="Stormåsan" />
		<tag k="natural" v="wetland" />
		<tag k="ssr:stedsnr" v="870067" />
	</node>
	<node lat="60.09463611268799" lon="10.970122231068853" id="-13039">
		<tag k="historic" v="shieling" />
		<tag k="name" v="Movangen" />
		<tag k="place" v="locality" />
		<tag k="ssr:stedsnr" v="5600" />
	</node>
	<node lat="60.069869440693566" lon="10.9765527798745" id="-13046">
		<tag k="alt_name" v="Breidmåsan" />
		<tag k="name" v="Breimåsan" />
=======
	<node id="-260108" lat="60.0714555549" lon="10.9466666711">
		<tag k="historic" v="shieling" />
		<tag k="name" v="Fossumvangen" />
		<tag k="place" v="locality" />
		<tag k="ssr:stedsnr" v="448972" />
	</node>
	<node id="-260194" lat="60.1028305514" lon="10.9502416675">
		<tag k="alt_name" v="Langmyrene" />
		<tag k="name" v="Langmyra" />
>>>>>>> e1d4bc35ff8a6074a6f2e91616a996b547c36f15
		<tag k="natural" v="wetland" />
		<tag k="ssr:stedsnr" v="66467" />
	</node>
<<<<<<< HEAD
	<node lat="60.054786108367324" lon="10.976325007434978" id="-13048">
		<tag k="alt_name" v="Jordmyrene" />
		<tag k="name" v="Jordmyrane" />
=======
	<node id="-260193" lat="60.0608499975" lon="10.9934166629">
		<tag k="name" v="Overholsmåsan" />
>>>>>>> e1d4bc35ff8a6074a6f2e91616a996b547c36f15
		<tag k="natural" v="wetland" />
		<tag k="ssr:stedsnr" v="66440" />
	</node>
<<<<<<< HEAD
	<node lat="60.090958334098744" lon="10.94512223032274" id="-13050">
		<tag k="name" v="Henimåsan" />
		<tag k="natural" v="wetland" />
		<tag k="ssr:stedsnr" v="66592" />
	</node>
	<node lat="60.07816944156525" lon="10.948675005506058" id="-13051">
		<tag k="alt_name" v="Rokstadvangen" />
=======
	<node id="-260315" lat="60.0928555517" lon="10.9511638915">
>>>>>>> e1d4bc35ff8a6074a6f2e91616a996b547c36f15
		<tag k="historic" v="shieling" />
		<tag k="name" v="Rogstadvangen" />
		<tag k="place" v="locality" />
		<tag k="ssr:stedsnr" v="66489" />
	</node>
<<<<<<< HEAD
	<node lat="60.05001666808459" lon="11.025638884620212" id="-13057">
		<tag k="name" v="Kjestinamyra" />
=======
	<node id="-260311" lat="60.0713194486" lon="10.9435333368">
		<tag k="name" v="Fossummåsan" />
>>>>>>> e1d4bc35ff8a6074a6f2e91616a996b547c36f15
		<tag k="natural" v="wetland" />
		<tag k="ssr:stedsnr" v="84970" />
	</node>
<<<<<<< HEAD
	<node lat="60.037324997049424" lon="11.003800003114767" id="-13058">
		<tag k="name" v="Høgsmåsan" />
		<tag k="natural" v="wetland" />
		<tag k="ssr:stedsnr" v="126432" />
	</node>
	<node lat="60.10277222227092" lon="11.073724996936894" id="-13064">
		<tag k="name" v="Sandummåsan" />
=======
	<node id="-260345" lat="60.0731777782" lon="10.9816666706">
		<tag k="historic" v="shieling" />
		<tag k="name" v="Rudsvangen" />
		<tag k="place" v="locality" />
		<tag k="ssr:stedsnr" v="568889" />
	</node>
	<node id="-260179" lat="60.1109805541" lon="10.9628277801">
		<tag k="historic" v="shieling" />
		<tag k="name" v="Kjærstadvangen" />
		<tag k="place" v="locality" />
		<tag k="ssr:stedsnr" v="612593" />
	</node>
	<node id="-260259" lat="60.0854499986" lon="10.9898666593">
		<tag k="name" v="Sørensmyra" />
		<tag k="natural" v="wetland" />
		<tag k="ssr:stedsnr" v="126519" />
	</node>
	<node id="-260303" lat="60.1219388903" lon="10.9926333273">
		<tag k="name" v="Rustadmåsan" />
>>>>>>> e1d4bc35ff8a6074a6f2e91616a996b547c36f15
		<tag k="natural" v="wetland" />
		<tag k="ssr:stedsnr" v="126595" />
	</node>
<<<<<<< HEAD
	<node lat="60.115555556677734" lon="10.964663883965589" id="-13065">
=======
	<node id="-260172" lat="60.0525694444" lon="11.0087527762">
>>>>>>> e1d4bc35ff8a6074a6f2e91616a996b547c36f15
		<tag k="historic" v="shieling" />
		<tag k="name" v="Tveitvangen" />
		<tag k="place" v="locality" />
		<tag k="ssr:stedsnr" v="126661" />
	</node>
<<<<<<< HEAD
	<node lat="60.08869999785449" lon="10.974816660870054" id="-13069">
		<tag k="name" v="Åmotsoten" />
		<tag k="natural" v="wetland" />
		<tag k="ssr:stedsnr" v="144918" />
	</node>
	<node lat="60.08582777815354" lon="10.951419450984728" id="-13074">
		<tag k="alt_name" v="Kokstadvangen" />
		<tag k="historic" v="shieling" />
		<tag k="name" v="Nedre Kokstadvangen" />
		<tag k="place" v="locality" />
		<tag k="ssr:stedsnr" v="187495" />
	</node>
	<node lat="60.05348888470083" lon="10.981847214975565" id="-13078">
=======
	<node id="-260298" lat="60.0487333344" lon="10.9752500072">
		<tag k="alt_name" v="Hønsivangen, søndre" />
		<tag k="historic" v="shieling" />
		<tag k="name" v="Øvre Hønsivangen" />
		<tag k="place" v="locality" />
		<tag k="ssr:stedsnr" v="308407" />
	</node>
	<node id="-260384" lat="60.0823694438" lon="10.9814888967">
		<tag k="historic" v="shieling" />
		<tag k="name" v="Åmotsvangen" />
		<tag k="place" v="locality" />
		<tag k="ssr:stedsnr" v="812904" />
	</node>
	<node id="-260295" lat="60.0591305552" lon="10.9430138897">
		<tag k="name" v="Busterudmåsan" />
		<tag k="natural" v="wetland" />
		<tag k="ssr:stedsnr" v="206951" />
	</node>
	<node id="-260293" lat="60.1035611151" lon="10.9624000065">
>>>>>>> e1d4bc35ff8a6074a6f2e91616a996b547c36f15
		<tag k="historic" v="shieling" />
		<tag k="name" v="Askvangen" />
		<tag k="place" v="locality" />
		<tag k="ssr:stedsnr" v="187441" />
	</node>
<<<<<<< HEAD
	<node lat="60.051280557852" lon="11.01421666097384" id="-13083">
=======
	<node id="-260292" lat="60.0512805579" lon="11.014216661">
>>>>>>> e1d4bc35ff8a6074a6f2e91616a996b547c36f15
		<tag k="historic" v="shieling" />
		<tag k="name" v="Nedre Asmyrvangen" />
		<tag k="place" v="locality" />
		<tag k="ssr:stedsnr" v="206913" />
	</node>
<<<<<<< HEAD
	<node lat="60.10356111513782" lon="10.962400006491196" id="-13084">
=======
	<node id="-260162" lat="60.1188999985" lon="10.9848833379">
		<tag k="alt_name" v="Kulpemyrene" />
		<tag k="name" v="Kulpmyra" />
		<tag k="natural" v="wetland" />
		<tag k="ssr:stedsnr" v="673677" />
	</node>
	<node id="-260160" lat="60.1058444441" lon="10.9550138807">
		<tag k="historic" v="shieling" />
		<tag k="name" v="Vangsvangen" />
		<tag k="place" v="locality" />
		<tag k="ssr:stedsnr" v="673617" />
	</node>
	<node id="-260287" lat="60.1220138914" lon="10.95701112">
		<tag k="alt_name" v="Delemyrene" />
		<tag k="name" v="Delemyra" />
		<tag k="natural" v="wetland" />
		<tag k="ssr:stedsnr" v="187638" />
	</node>
	<node id="-260285" lat="60.0753916696" lon="10.9567694474">
>>>>>>> e1d4bc35ff8a6074a6f2e91616a996b547c36f15
		<tag k="historic" v="shieling" />
		<tag k="name" v="Smedstadvangen" />
		<tag k="place" v="locality" />
		<tag k="ssr:stedsnr" v="206919" />
	</node>
<<<<<<< HEAD
	<node lat="60.059130555246796" lon="10.943013889729569" id="-13086">
		<tag k="name" v="Busterudmåsan" />
		<tag k="natural" v="wetland" />
		<tag k="ssr:stedsnr" v="206951" />
	</node>
	<node lat="60.07131944861305" lon="10.943533336817481" id="-13100">
		<tag k="name" v="Fossummåsan" />
		<tag k="natural" v="wetland" />
		<tag k="ssr:stedsnr" v="327947" />
	</node>
	<node lat="60.05396111501595" lon="11.046516668870597" id="-13109">
		<tag k="landuse" v="meadow" />
		<tag k="name" v="Asmyrenga" />
		<tag k="ssr:stedsnr" v="448940" />
	</node>
	<node lat="60.11025555839077" lon="10.919511105246754" id="-13110">
		<tag k="name" v="Trappemyrene" />
=======
	<node id="-260106" lat="60.053961115" lon="11.0465166689">
		<tag k="landuse" v="meadow" />
		<tag k="name" v="Asmyrenga" />
		<tag k="ssr:stedsnr" v="448940" />
	</node>
	<node id="-260282" lat="60.0858277782" lon="10.951419451">
		<tag k="alt_name" v="Kokstadvangen" />
		<tag k="historic" v="shieling" />
		<tag k="name" v="Nedre Kokstadvangen" />
		<tag k="place" v="locality" />
		<tag k="ssr:stedsnr" v="187495" />
	</node>
	<node id="-260279" lat="60.0534888847" lon="10.981847215">
		<tag k="historic" v="shieling" />
		<tag k="name" v="Askvangen" />
		<tag k="place" v="locality" />
		<tag k="ssr:stedsnr" v="187441" />
	</node>
	<node id="-260245" lat="60.0781694416" lon="10.9486750055">
		<tag k="alt_name" v="Rokstadvangen" />
		<tag k="historic" v="shieling" />
		<tag k="name" v="Rogstadvangen" />
		<tag k="place" v="locality" />
		<tag k="ssr:stedsnr" v="66489" />
	</node>
	<node id="-260147" lat="60.0720111132" lon="10.9722277773">
		<tag k="name" v="Kråkvålsmåsan" />
>>>>>>> e1d4bc35ff8a6074a6f2e91616a996b547c36f15
		<tag k="natural" v="wetland" />
		<tag k="ssr:stedsnr" v="448970" />
	</node>
<<<<<<< HEAD
	<node lat="60.07145555490151" lon="10.946666671090318" id="-13111">
		<tag k="historic" v="shieling" />
		<tag k="name" v="Fossumvangen" />
		<tag k="place" v="locality" />
		<tag k="ssr:stedsnr" v="448972" />
	</node>
	<node lat="60.09393888716141" lon="10.930877785875646" id="-13113">
=======
	<node id="-260273" lat="60.0886999979" lon="10.9748166609">
		<tag k="name" v="Åmotsoten" />
		<tag k="natural" v="wetland" />
		<tag k="ssr:stedsnr" v="144918" />
	</node>
	<node id="-260144" lat="60.0939388872" lon="10.9308777859">
>>>>>>> e1d4bc35ff8a6074a6f2e91616a996b547c36f15
		<tag k="historic" v="shieling" />
		<tag k="loc_name" v="Nebergsvangen" />
		<tag k="name" v="Nittebergvangen" />
		<tag k="place" v="locality" />
		<tag k="ssr:stedsnr" v="430618" />
	</node>
<<<<<<< HEAD
	<node lat="60.06624444603889" lon="10.947044447078772" id="-13116">
		<tag k="alt_name" v="Hellemyrene" />
		<tag k="name" v="Hellemyrane" />
=======
	<node id="-260399" lat="60.0867722257" lon="10.9975333338">
		<tag k="name" v="Spenningsmyrene" />
>>>>>>> e1d4bc35ff8a6074a6f2e91616a996b547c36f15
		<tag k="natural" v="wetland" />
		<tag k="ssr:stedsnr" v="430476" />
	</node>
<<<<<<< HEAD
	<node lat="60.045191667894244" lon="11.003338896607813" id="-13118">
		<tag k="alt_name" v="Fjellstadvangen" />
=======
	<node id="-260269" lat="60.0668333317" lon="10.9852083366">
		<tag k="alt_name" v="Hønsivangen, nordre" />
>>>>>>> e1d4bc35ff8a6074a6f2e91616a996b547c36f15
		<tag k="historic" v="shieling" />
		<tag k="name" v="Nedre Hønsivangen" />
		<tag k="place" v="locality" />
		<tag k="ssr:stedsnr" v="127543" />
	</node>
<<<<<<< HEAD
	<node lat="60.10276944052158" lon="10.972119437299368" id="-13133">
		<tag k="alt_name" v="Torshaugvangen" />
=======
	<node id="-260268" lat="60.1155555567" lon="10.964663884">
>>>>>>> e1d4bc35ff8a6074a6f2e91616a996b547c36f15
		<tag k="historic" v="shieling" />
		<tag k="loc_name" v="Tosovangen" />
		<tag k="name" v="Torshovvangen" />
		<tag k="place" v="locality" />
		<tag k="ssr:stedsnr" v="551596" />
	</node>
<<<<<<< HEAD
	<node lat="60.07317777818847" lon="10.981666670580926" id="-13139">
		<tag k="historic" v="shieling" />
		<tag k="name" v="Rudsvangen" />
		<tag k="place" v="locality" />
		<tag k="ssr:stedsnr" v="568889" />
	</node>
	<node lat="60.08517777827705" lon="10.937544441574913" id="-13141">
		<tag k="historic" v="shieling" />
		<tag k="name" v="Øvre Kokstadvangen" />
		<tag k="place" v="locality" />
		<tag k="ssr:stedsnr" v="569946" />
	</node>
	<node lat="60.03323888748152" lon="11.022330554501409" id="-13145">
		<tag k="name" v="Bakkemåsan" />
=======
	<node id="-260266" lat="60.1027722223" lon="11.0737249969">
		<tag k="name" v="Sandummåsan" />
		<tag k="natural" v="wetland" />
		<tag k="ssr:stedsnr" v="126595" />
	</node>
	<node id="-260167" lat="60.1088222225" lon="10.9897527783">
		<tag k="name" v="Steinbråtan" />
		<tag k="place" v="locality" />
		<tag k="ssr:stedsnr" v="509908" />
	</node>
	<node id="-260387" lat="60.1125694484" lon="10.9322555481">
		<tag k="name" v="Harahoppet" />
		<tag k="natural" v="wetland" />
		<tag k="ssr:stedsnr" v="812950" />
	</node>
	<node id="-260258" lat="60.037324997" lon="11.0038000031">
		<tag k="name" v="Høgsmåsan" />
		<tag k="natural" v="wetland" />
		<tag k="ssr:stedsnr" v="126432" />
	</node>
	<node id="-260256" lat="60.0469166709" lon="11.0231888912">
		<tag k="name" v="Bråtemåsan" />
>>>>>>> e1d4bc35ff8a6074a6f2e91616a996b547c36f15
		<tag k="natural" v="wetland" />
		<tag k="ssr:stedsnr" v="612439" />
	</node>
	<node lat="60.11098055406598" lon="10.962827780071342" id="-13148">
		<tag k="historic" v="shieling" />
		<tag k="name" v="Kjærstadvangen" />
		<tag k="place" v="locality" />
		<tag k="ssr:stedsnr" v="612593" />
	</node>
<<<<<<< HEAD
	<node lat="60.078780551337566" lon="10.971758329563096" id="-13151">
=======
	<node id="-260124" lat="60.0928888848" lon="10.9958916642">
		<tag k="name" v="Kleivmyra" />
		<tag k="natural" v="wetland" />
		<tag k="ssr:stedsnr" v="490611" />
	</node>
	<node id="-260249" lat="60.0909583341" lon="10.9451222303">
		<tag k="name" v="Henimåsan" />
		<tag k="natural" v="wetland" />
		<tag k="ssr:stedsnr" v="66592" />
	</node>
	<node id="-260376" lat="60.0583555597" lon="10.970775002">
		<tag k="alt_name" v="Askvangen, vesle" />
>>>>>>> e1d4bc35ff8a6074a6f2e91616a996b547c36f15
		<tag k="historic" v="shieling" />
		<tag k="name" v="Vesleaskvangen" />
		<tag k="place" v="locality" />
		<tag k="ssr:stedsnr" v="794456" />
	</node>
<<<<<<< HEAD
	<node lat="60.060849997509884" lon="10.993416662906867" id="-13162">
		<tag k="name" v="Overholsmåsan" />
		<tag k="natural" v="wetland" />
		<tag k="ssr:stedsnr" v="734552" />
	</node>
	<node lat="60.0583555596781" lon="10.970775002015518" id="-13171">
		<tag k="alt_name" v="Askvangen, vesle" />
		<tag k="historic" v="shieling" />
		<tag k="name" v="Vesleaskvangen" />
		<tag k="place" v="locality" />
		<tag k="ssr:stedsnr" v="794456" />
	</node>
	<node lat="60.11256944840603" lon="10.932255548067184" id="-13176">
		<tag k="name" v="Harahoppet" />
=======
	<node id="-260374" lat="60.0543055576" lon="11.0263972196">
		<tag k="name" v="Møkkamyra" />
		<tag k="natural" v="wetland" />
		<tag k="ssr:stedsnr" v="751966" />
	</node>
	<node id="-260117" lat="60.1027694405" lon="10.9721194373">
		<tag k="alt_name" v="Torshaugvangen" />
		<tag k="historic" v="shieling" />
		<tag k="loc_name" v="Tosovangen" />
		<tag k="name" v="Torshovvangen" />
		<tag k="place" v="locality" />
		<tag k="ssr:stedsnr" v="551596" />
	</node>
	<node id="-260372" lat="60.0582138924" lon="11.0169166636">
		<tag k="name" v="Gartelarsmyra" />
>>>>>>> e1d4bc35ff8a6074a6f2e91616a996b547c36f15
		<tag k="natural" v="wetland" />
		<tag k="ssr:stedsnr" v="751959" />
	</node>
<<<<<<< HEAD
	<node lat="60.05330000003887" lon="11.015272215619671" id="-13182">
		<tag k="historic" v="shieling" />
		<tag k="name" v="Asmyrvangen" />
		<tag k="place" v="locality" />
		<tag k="ssr:stedsnr" v="855459" />
	</node>
	<node lat="60.08677222574367" lon="10.997533333812912" id="-13189">
		<tag k="name" v="Spenningsmyrene" />
		<tag k="natural" v="wetland" />
		<tag k="ssr:stedsnr" v="872932" />
	</node>
	<node lat="60.032555554732774" lon="11.061997228128492" id="-13191">
		<tag k="name" v="Vardemåsan" />
		<tag k="natural" v="wetland" />
		<tag k="ssr:stedsnr" v="873924" />
=======
	<node id="-260243" lat="60.0698694407" lon="10.9765527799">
		<tag k="alt_name" v="Breidmåsan" />
		<tag k="name" v="Breimåsan" />
		<tag k="natural" v="wetland" />
		<tag k="ssr:stedsnr" v="66467" />
	</node>
	<node id="-260369" lat="60.0787972194" lon="10.9809222228">
		<tag k="name" v="Sørumsmåsan" />
		<tag k="natural" v="wetland" />
		<tag k="ssr:stedsnr" v="751919" />
	</node>
	<node id="-260141" lat="60.0451916679" lon="11.0033388966">
		<tag k="alt_name" v="Fjellstadvangen" />
		<tag k="historic" v="shieling" />
		<tag k="name" v="Fjælstadvangen" />
		<tag k="place" v="locality" />
		<tag k="ssr:stedsnr" v="430432" />
	</node>
	<node id="-260364" lat="60.0787805513" lon="10.9717583296">
		<tag k="historic" v="shieling" />
		<tag k="name" v="Jørnsvangen" />
		<tag k="place" v="locality" />
		<tag k="ssr:stedsnr" v="629929" />
	</node>
	<node id="-260107" lat="60.1102555584" lon="10.9195111052">
		<tag k="name" v="Trappemyrene" />
		<tag k="natural" v="wetland" />
		<tag k="ssr:stedsnr" v="448970" />
	</node>
	<node id="-260234" lat="60.0946361127" lon="10.9701222311">
		<tag k="historic" v="shieling" />
		<tag k="name" v="Movangen" />
		<tag k="place" v="locality" />
		<tag k="ssr:stedsnr" v="5600" />
	</node>
	<node id="-260104" lat="60.0864749988" lon="10.9549277718">
		<tag k="historic" v="shieling" />
		<tag k="name" v="Skeisvangen" />
		<tag k="place" v="locality" />
		<tag k="ssr:stedsnr" v="448933" />
	</node>
	<node id="-260357" lat="60.0332388875" lon="11.0223305545">
		<tag k="name" v="Bakkemåsan" />
		<tag k="natural" v="wetland" />
		<tag k="ssr:stedsnr" v="612439" />
	</node>
	<node id="-260099" lat="60.091075002" lon="10.9768111181">
		<tag k="name" v="Gistisoten" />
		<tag k="natural" v="wetland" />
		<tag k="ssr:stedsnr" v="266935" />
>>>>>>> e1d4bc35ff8a6074a6f2e91616a996b547c36f15
	</node>
</osm>
