<?xml version="1.0" encoding="UTF-8"?>
<osm generator="osmapis" version="0.6">
	<node id="-251517" lat="60.1016777741" lon="11.0499166746">
		<tag k="junction" v="yes" />
		<tag k="name" v="Korsmo" />
		<tag k="place" v="locality" />
		<tag k="ssr:stedsnr" v="84926" />
	</node>
	<node id="-251610" lat="60.0813527823" lon="11.0175194396">
		<tag k="junction" v="yes" />
		<tag k="name" v="RÃ¸nnegrinda" />
		<tag k="place" v="locality" />
		<tag k="ssr:stedsnr" v="733497" />
	</node>
	<node id="-251735" lat="60.0728694452" lon="11.0329249934">
		<tag k="junction" v="yes" />
		<tag k="name" v="Smedstuen" />
		<tag k="place" v="locality" />
		<tag k="ssr:stedsnr" v="326897" />
	</node>
	<node id="-251830" lat="60.0893500005" lon="11.0408194513">
		<tag k="bridge" v="yes" />
		<tag k="layer" v="1" />
		<tag k="name" v="Hellen" />
		<tag k="ssr:stedsnr" v="956783" />
	</node>
	<node id="-251732" lat="60.0791583336" lon="11.0186305624">
		<tag k="junction" v="yes" />
		<tag k="name" v="Leirdalen" />
		<tag k="place" v="locality" />
		<tag k="ssr:stedsnr" v="326880" />
	</node>
	<node id="-251795" lat="60.1025166668" lon="11.0042611036">
		<tag k="junction" v="yes" />
		<tag k="name" v="Eikebergstajet" />
		<tag k="place" v="locality" />
		<tag k="ssr:stedsnr" v="751948" />
	</node>
	<node id="-251700" lat="60.0897583379" lon="11.0286749945">
		<tag k="bridge" v="yes" />
		<tag k="layer" v="1" />
		<tag k="name" v="Sag" />
		<tag k="ssr:stedsnr" v="167789" />
	</node>
	<node id="-251750" lat="60.0987305511" lon="11.0048194509">
		<tag k="bridge" v="yes" />
		<tag k="layer" v="1" />
		<tag k="name" v="Eikeberg" />
		<tag k="ssr:stedsnr" v="410774" />
	</node>
	<node id="-251831" lat="60.0568666682" lon="11.0428111096">
		<tag k="bridge" v="yes" />
		<tag k="layer" v="1" />
		<tag k="name" v="Ulvedal" />
		<tag k="ssr:stedsnr" v="956786" />
	</node>
	<node id="-251526" lat="60.0761777817" lon="11.0615083391">
		<tag k="bridge" v="yes" />
		<tag k="layer" v="1" />
		<tag k="name" v="Svendsrud" />
		<tag k="ssr:stedsnr" v="289832" />
	</node>
	<node id="-251671" lat="60.0693888853" lon="11.0207166604">
		<tag k="junction" v="yes" />
		<tag k="name" v="Fjellgrinda" />
		<tag k="place" v="locality" />
		<tag k="ssr:stedsnr" v="66528" />
	</node>
	<node id="-251607" lat="60.0789388925" lon="10.9635138888">
		<tag k="junction" v="yes" />
		<tag k="name" v="Prestlykkja" />
		<tag k="place" v="locality" />
		<tag k="ssr:stedsnr" v="629927" />
	</node>
	<node id="-251779" lat="60.080427775" lon="11.0003611057">
		<tag k="bridge" v="yes" />
		<tag k="layer" v="1" />
		<tag k="name" v="Horka" />
		<tag k="ssr:stedsnr" v="592820" />
	</node>
</osm>
