<?xml version="1.0" encoding="UTF-8"?>
<osm generator="osmapis" version="0.6">
	<node id="-248821" lat="60.0553514823" lon="11.0512605514">
		<tag k="fixme" v="consider place=hamlet" />
		<tag k="name" v="Nordre Fjælstad" />
		<tag k="place" v="farm" />
		<tag k="ssr:stedsnr" v="978286" />
	</node>
	<node id="-248818" lat="60.0568666682" lon="11.0428111096">
		<tag k="bridge" v="yes" />
		<tag k="layer" v="1" />
		<tag k="name" v="Ulvedal" />
		<tag k="ssr:stedsnr" v="956786" />
	</node>
	<node id="-248817" lat="60.0893500005" lon="11.0408194513">
		<tag k="bridge" v="yes" />
		<tag k="layer" v="1" />
		<tag k="name" v="Hellen" />
		<tag k="ssr:stedsnr" v="956783" />
	</node>
	<node id="-248816" lat="60.063719443" lon="11.0194611165">
		<tag k="name" v="Askdammen" />
		<tag k="natural" v="water" />
		<tag k="ssr:stedsnr" v="873946" />
		<tag k="water" v="lake" />
	</node>
	<node id="-248815" lat="60.0612499961" lon="11.0205166697">
		<tag k="name" v="Brådalsfjellet" />
		<tag k="natural" v="hill" />
		<tag k="place" v="locality" />
		<tag k="ssr:stedsnr" v="873943" />
	</node>
	<node id="-248814" lat="60.0553722242" lon="11.0199611108">
		<tag k="name" v="Flatbyfjellet" />
		<tag k="natural" v="hill" />
		<tag k="place" v="locality" />
		<tag k="ssr:stedsnr" v="873941" />
	</node>
	<node id="-248813" lat="60.0738583356" lon="11.0173277839">
		<tag k="name" v="Kulsrud" />
		<tag k="place" v="farm" />
		<tag k="ssr:stedsnr" v="872890" />
	</node>
	<node id="-248812" lat="60.0822527785" lon="11.0351166654">
		<tag k="name" v="Nordvoll" />
		<tag k="place" v="farm" />
		<tag k="ssr:stedsnr" v="872880" />
	</node>
	<node id="-248811" lat="60.0867722257" lon="10.9975333338">
		<tag k="name" v="Spenningsmyrene" />
		<tag k="natural" v="wetland" />
		<tag k="ssr:stedsnr" v="872932" />
	</node>
	<node id="-248810" lat="60.087255558" lon="11.0155277793">
		<tag k="alt_name" v="Rud, vestre;Rud" />
		<tag k="name" v="Vestre Rud" />
		<tag k="place" v="farm" />
		<tag k="ssr:stedsnr" v="855630" />
	</node>
	<node id="-248809" lat="60.0999666659" lon="10.9802555624">
		<tag k="name" v="Slurka" />
		<tag k="ssr:stedsnr" v="855606" />
		<tag k="waterway" v="stream" />
	</node>
	<node id="-248808" lat="60.1137805524" lon="10.9959499961">
		<tag k="name" v="Rustad" />
		<tag k="place" v="farm" />
		<tag k="ssr:stedsnr" v="855694" />
	</node>
	<node id="-248807" lat="60.0824833366" lon="11.0034249998">
		<tag k="alt_name" v="Bråtan, øvre" />
		<tag k="name" v="Åmotsbråtan" />
		<tag k="place" v="farm" />
		<tag k="ssr:stedsnr" v="855500" />
	</node>
	<node id="-248806" lat="60.0859083362" lon="11.0136833308">
		<tag k="alt_name" v="Rud, søndre" />
		<tag k="name" v="Søndre Rud" />
		<tag k="place" v="farm" />
		<tag k="ssr:stedsnr" v="855487" />
	</node>
	<node id="-248805" lat="60.0992500036" lon="11.0056833299">
		<tag k="name" v="Eikeberg" />
		<tag k="place" v="farm" />
		<tag k="ssr:stedsnr" v="855603" />
	</node>
	<node id="-248804" lat="60.107599997" lon="10.9954305572">
		<tag k="name" v="Dølienga" />
		<tag k="place" v="farm" />
		<tag k="ssr:stedsnr" v="855582" />
	</node>
	<node id="-248803" lat="60.0396611142" lon="11.0171722237">
		<tag k="name" v="Ulvedalen" />
		<tag k="natural" v="valley" />
		<tag k="place" v="locality" />
		<tag k="ssr:stedsnr" v="855430" />
	</node>
	<node id="-248802" lat="60.0888611069" lon="11.0415222308">
		<tag k="name" v="Hellen" />
		<tag k="place" v="locality" />
		<tag k="ssr:stedsnr" v="855485" />
	</node>
	<node id="-248801" lat="60.063655559" lon="11.0487000052">
		<tag k="alt_name" v="Fjellstad;Fjelstad" />
		<tag k="name" v="Fjælstad" />
		<tag k="place" v="hamlet" />
		<tag k="ssr:stedsnr" v="829485" />
	</node>
	<node id="-248800" lat="60.0647166629" lon="11.0067055587">
		<tag k="name" v="Kniplia" />
		<tag k="natural" v="slope" />
		<tag k="place" v="locality" />
		<tag k="ssr:stedsnr" v="812959" />
	</node>
	<node id="-248799" lat="60.1125694484" lon="10.9322555481">
		<tag k="name" v="Harahoppet" />
		<tag k="natural" v="wetland" />
		<tag k="ssr:stedsnr" v="812950" />
	</node>
	<node id="-248798" lat="60.1065972251" lon="10.9554999973">
		<tag k="name" v="Brenna" />
		<tag k="natural" v="slope" />
		<tag k="place" v="locality" />
		<tag k="ssr:stedsnr" v="812946" />
	</node>
	<node id="-248797" lat="60.0387305512" lon="11.0232555506">
		<tag k="fixme" v="consider natural=peak for the most distinct mountains in the district" />
		<tag k="name" v="Flatnerfjellet" />
		<tag k="natural" v="hill" />
		<tag k="place" v="locality" />
		<tag k="ssr:stedsnr" v="812929" />
	</node>
	<node id="-248796" lat="60.0823694438" lon="10.9814888967">
		<tag k="historic" v="shieling" />
		<tag k="name" v="Åmotsvangen" />
		<tag k="place" v="locality" />
		<tag k="ssr:stedsnr" v="812904" />
	</node>
	<node id="-248795" lat="60.1009777801" lon="11.0777888907">
		<tag k="name" v="Belstad" />
		<tag k="place" v="isolated_dwelling" />
		<tag k="ssr:stedsnr" v="812122" />
	</node>
	<node id="-248794" lat="60.1184888852" lon="10.9908583383">
		<tag k="name" v="Rustadfjellet" />
		<tag k="natural" v="hill" />
		<tag k="place" v="locality" />
		<tag k="ssr:stedsnr" v="812093" />
	</node>
	<node id="-248793" lat="60.0994777756" lon="10.9854416729">
		<tag k="fixme" v="consider natural=peak for the most distinct mountains in the district" />
		<tag k="name" v="Eikebergsfjellet" />
		<tag k="natural" v="hill" />
		<tag k="place" v="locality" />
		<tag k="ssr:stedsnr" v="794597" />
	</node>
	<node id="-248792" lat="60.1093833306" lon="11.0766888817">
		<tag k="name" v="Berg" />
		<tag k="place" v="farm" />
		<tag k="ssr:stedsnr" v="794580" />
	</node>
	<node id="-248791" lat="60.1048333312" lon="11.0651055476">
		<tag k="name" v="Sandvoll" />
		<tag k="place" v="farm" />
		<tag k="ssr:stedsnr" v="794578" />
	</node>
	<node id="-248790" lat="60.1045166662" lon="11.0600666611">
		<tag k="name" v="Mo" />
		<tag k="place" v="farm" />
		<tag k="ssr:stedsnr" v="794577" />
	</node>
	<node id="-248789" lat="60.1126166628" lon="10.9442694365">
		<tag k="alt_name" v="Krustjern" />
		<tag k="name" v="Krustjernet" />
		<tag k="natural" v="water" />
		<tag k="ssr:stedsnr" v="794569" />
	</node>
	<node id="-248788" lat="60.0583555597" lon="10.970775002">
		<tag k="alt_name" v="Askvangen, vesle" />
		<tag k="historic" v="shieling" />
		<tag k="name" v="Vesleaskvangen" />
		<tag k="place" v="locality" />
		<tag k="ssr:stedsnr" v="794456" />
	</node>
	<node id="-248787" lat="60.1055999971" lon="10.9415249987">
		<tag k="name" v="Myrgruvefløyten" />
		<tag k="natural" v="water" />
		<tag k="ssr:stedsnr" v="751970" />
		<tag k="water" v="lake" />
	</node>
	<node id="-248786" lat="60.0543055576" lon="11.0263972196">
		<tag k="name" v="Møkkamyra" />
		<tag k="natural" v="wetland" />
		<tag k="ssr:stedsnr" v="751966" />
	</node>
	<node id="-248785" lat="60.0632388896" lon="11.040788881">
		<tag k="landuse" v="meadow" />
		<tag k="name" v="Fjellstadenga" />
		<tag k="ssr:stedsnr" v="751963" />
	</node>
	<node id="-248784" lat="60.0582138924" lon="11.0169166636">
		<tag k="name" v="Gartelarsmyra" />
		<tag k="natural" v="wetland" />
		<tag k="ssr:stedsnr" v="751959" />
	</node>
	<node id="-248783" lat="60.0570055575" lon="10.9666583257">
		<tag k="name" v="Kalverabben" />
		<tag k="natural" v="hill" />
		<tag k="place" v="locality" />
		<tag k="ssr:stedsnr" v="751956" />
	</node>
	<node id="-248782" lat="60.1025166668" lon="11.0042611036">
		<tag k="junction" v="yes" />
		<tag k="name" v="Eikebergstajet" />
		<tag k="place" v="locality" />
		<tag k="ssr:stedsnr" v="751948" />
	</node>
	<node id="-248781" lat="60.0787972194" lon="10.9809222228">
		<tag k="name" v="Sørumsmåsan" />
		<tag k="natural" v="wetland" />
		<tag k="ssr:stedsnr" v="751919" />
	</node>
	<node id="-248780" lat="60.07415556" lon="11.0245861124">
		<tag k="name" v="Nyland" />
		<tag k="place" v="farm" />
		<tag k="ssr:stedsnr" v="751898" />
	</node>
	<node id="-248779" lat="60.0625861098" lon="11.0651138884">
		<tag k="name" v="Hvalstad" />
		<tag k="place" v="locality" />
		<tag k="ssr:stedsnr" v="751117" />
	</node>
	<node id="-248778" lat="60.1073388921" lon="11.0929222175">
		<tag k="name" v="Søndre Rogstad" />
		<tag k="place" v="farm" />
		<tag k="ssr:stedsnr" v="646375" />
	</node>
	<node id="-248777" lat="60.103902779" lon="11.0198416739">
		<tag k="name" v="Nøysom" />
		<tag k="place" v="farm" />
		<tag k="ssr:stedsnr" v="630881" />
	</node>
	<node id="-248776" lat="60.0787805513" lon="10.9717583296">
		<tag k="historic" v="shieling" />
		<tag k="name" v="Jørnsvangen" />
		<tag k="place" v="locality" />
		<tag k="ssr:stedsnr" v="629929" />
	</node>
	<node id="-248775" lat="60.0836000027" lon="11.0424583325">
		<tag k="name" v="Kråkvål" />
		<tag k="place" v="farm" />
		<tag k="ssr:stedsnr" v="629898" />
	</node>
	<node id="-248774" lat="60.0705027809" lon="11.0202777806">
		<tag k="name" v="Berger" />
		<tag k="place" v="isolated_dwelling" />
		<tag k="ssr:stedsnr" v="629890" />
	</node>
	<node id="-248773" lat="60.1179944421" lon="10.9754749934">
		<tag k="name" v="Kulpemyrlia" />
		<tag k="natural" v="slope" />
		<tag k="place" v="locality" />
		<tag k="ssr:stedsnr" v="629095" />
	</node>
	<node id="-248772" lat="60.1238499998" lon="10.921999998">
		<tag k="name" v="Gjerdrumsgjermenningen" />
		<tag k="natural" v="water" />
		<tag k="ssr:stedsnr" v="612665" />
	</node>
	<node id="-248771" lat="60.1043888853" lon="10.9271805631">
		<tag k="name" v="Mårratjern" />
		<tag k="natural" v="water" />
		<tag k="ssr:stedsnr" v="612612" />
	</node>
	<node id="-248770" lat="60.0874500034" lon="11.0718916599">
		<tag k="name" v="Vangsbekken" />
		<tag k="ssr:stedsnr" v="612530" />
		<tag k="waterway" v="stream" />
	</node>
	<node id="-248769" lat="60.0332388875" lon="11.0223305545">
		<tag k="name" v="Bakkemåsan" />
		<tag k="natural" v="wetland" />
		<tag k="ssr:stedsnr" v="612439" />
	</node>
	<node id="-248768" lat="60.0940916707" lon="11.1027249941">
		<tag k="name" v="Leirud" />
		<tag k="place" v="farm" />
		<tag k="ssr:stedsnr" v="612078" />
	</node>
	<node id="-248767" lat="60.0505916643" lon="11.0907416721">
		<tag k="alt_name" v="Sørumstangen" />
		<tag k="name" v="Tangen" />
		<tag k="place" v="farm" />
		<tag k="ssr:stedsnr" v="611471" />
	</node>
	<node id="-248766" lat="60.080427775" lon="11.0003611057">
		<tag k="bridge" v="yes" />
		<tag k="layer" v="1" />
		<tag k="name" v="Horka" />
		<tag k="ssr:stedsnr" v="592820" />
	</node>
	<node id="-248765" lat="60.0828111105" lon="10.9414805621">
		<tag k="name" v="Jenselia" />
		<tag k="natural" v="slope" />
		<tag k="place" v="locality" />
		<tag k="ssr:stedsnr" v="569947" />
	</node>
	<node id="-248764" lat="60.0851777783" lon="10.9375444416">
		<tag k="historic" v="shieling" />
		<tag k="name" v="Øvre Kokstadvangen" />
		<tag k="place" v="locality" />
		<tag k="ssr:stedsnr" v="569946" />
	</node>
	<node id="-248763" lat="60.1056138897" lon="10.9378750031">
		<tag k="name" v="Myrgruva" />
		<tag k="place" v="locality" />
		<tag k="ssr:stedsnr" v="569944" />
	</node>
	<node id="-248762" lat="60.094886109" lon="10.9836888888">
		<tag k="name" v="Gistifjellet" />
		<tag k="natural" v="hill" />
		<tag k="place" v="locality" />
		<tag k="ssr:stedsnr" v="569901" />
	</node>
	<node id="-248761" lat="60.109200004" lon="11.0562472253">
		<tag k="name" v="Lundby" />
		<tag k="place" v="farm" />
		<tag k="ssr:stedsnr" v="569888" />
	</node>
	<node id="-248760" lat="60.1084138849" lon="11.0551777857">
		<tag k="name" v="Kjærstad" />
		<tag k="place" v="farm" />
		<tag k="ssr:stedsnr" v="569882" />
	</node>
	<node id="-248759" lat="60.1062833373" lon="11.0521916678">
		<tag k="name" v="Ramsli" />
		<tag k="place" v="isolated_dwelling" />
		<tag k="ssr:stedsnr" v="569880" />
	</node>
	<node id="-248758" lat="60.0912500039" lon="11.0266999942">
		<tag k="alt_name" v="Åmot østre" />
		<tag k="name" v="Østre Åmot" />
		<tag k="place" v="farm" />
		<tag k="ssr:stedsnr" v="569873" />
	</node>
	<node id="-248757" lat="60.0731777782" lon="10.9816666706">
		<tag k="historic" v="shieling" />
		<tag k="name" v="Rudsvangen" />
		<tag k="place" v="locality" />
		<tag k="ssr:stedsnr" v="568889" />
	</node>
	<node id="-248756" lat="60.0898777736" lon="11.0299055604">
		<tag k="name" v="Kvernstufossen" />
		<tag k="natural" v="waterfall" />
		<tag k="ssr:stedsnr" v="568866" />
	</node>
	<node id="-248755" lat="60.0751527745" lon="11.0285277824">
		<tag k="name" v="Bjørklund" />
		<tag k="place" v="isolated_dwelling" />
		<tag k="ssr:stedsnr" v="568864" />
	</node>
	<node id="-248754" lat="60.1209166626" lon="10.9479638809">
		<tag k="alt_name" v="Stråtjern;Stråtjernet" />
		<tag k="name" v="Stråsjøen" />
		<tag k="natural" v="water" />
		<tag k="ssr:stedsnr" v="551669" />
	</node>
	<node id="-248753" lat="60.1107249961" lon="10.9712027696">
		<tag k="name" v="Gruvebakken" />
		<tag k="place" v="locality" />
		<tag k="ssr:stedsnr" v="551570" />
	</node>
	<node id="-248752" lat="60.0791055594" lon="11.0739611081">
		<tag k="alt_name" v="Smedstad;Smedstad søndre" />
		<tag k="name" v="Søndre Smedstad" />
		<tag k="place" v="farm" />
		<tag k="ssr:stedsnr" v="551509" />
	</node>
	<node id="-248751" lat="60.0805083376" lon="11.0524361096">
		<tag k="name" v="Askenga" />
		<tag k="place" v="farm" />
		<tag k="ssr:stedsnr" v="551507" />
	</node>
	<node id="-248750" lat="60.0876777817" lon="11.0249972247">
		<tag k="name" v="Fossum" />
		<tag k="place" v="farm" />
		<tag k="ssr:stedsnr" v="551492" />
	</node>
	<node id="-248749" lat="60.0536305538" lon="10.9402250036">
		<tag k="fixme" v="consider natural=peak for the most distinct mountains in the district" />
		<tag k="name" v="Prekestolen" />
		<tag k="natural" v="hill" />
		<tag k="place" v="locality" />
		<tag k="ssr:stedsnr" v="551465" />
	</node>
	<node id="-248748" lat="60.0466499969" lon="11.0173444528">
		<tag k="alt_name" v="Ulvedalstjernet, nordre;Ulvedalstjern nordre" />
		<tag k="name" v="Nordre Ulvedalstjern" />
		<tag k="natural" v="water" />
		<tag k="ssr:stedsnr" v="551431" />
	</node>
	<node id="-248747" lat="60.046194441" lon="11.066277781">
		<tag k="alt_name" v="Ramdal" />
		<tag k="name" v="Ramdalen" />
		<tag k="place" v="farm" />
		<tag k="ssr:stedsnr" v="551428" />
	</node>
	<node id="-248746" lat="60.0256805515" lon="11.0180555517">
		<tag k="name" v="Ulvedalsbekken" />
		<tag k="ssr:stedsnr" v="551387" />
		<tag k="waterway" v="stream" />
	</node>
	<node id="-248745" lat="60.0711388902" lon="10.9650305623">
		<tag k="name" v="Steindalen" />
		<tag k="natural" v="valley" />
		<tag k="place" v="locality" />
		<tag k="ssr:stedsnr" v="430540" />
	</node>
	<node id="-248744" lat="60.0775499957" lon="11.0510666636">
		<tag k="name" v="Løken" />
		<tag k="place" v="farm" />
		<tag k="ssr:stedsnr" v="430524" />
	</node>
	<node id="-248743" lat="60.085300001" lon="11.0791305538">
		<tag k="name" v="Smedstad" />
		<tag k="place" v="farm" />
		<tag k="ssr:stedsnr" v="430514" />
	</node>
	<node id="-248742" lat="60.066244446" lon="10.9470444471">
		<tag k="alt_name" v="Hellemyrene" />
		<tag k="name" v="Hellemyrane" />
		<tag k="natural" v="wetland" />
		<tag k="ssr:stedsnr" v="430476" />
	</node>
	<node id="-248741" lat="60.0688999978" lon="11.0415805543">
		<tag k="name" v="Hønsi" />
		<tag k="place" v="farm" />
		<tag k="ssr:stedsnr" v="430472" />
	</node>
	<node id="-248740" lat="60.0664250001" lon="11.0873777726">
		<tag k="name" v="Sørum" />
		<tag k="place" v="farm" />
		<tag k="ssr:stedsnr" v="430466" />
	</node>
	<node id="-248739" lat="60.1031777733" lon="11.0611500062">
		<tag k="name" v="Korsmo" />
		<tag k="place" v="farm" />
		<tag k="ssr:stedsnr" v="430398" />
	</node>
	<node id="-248738" lat="60.0876277807" lon="11.1031250004">
		<tag k="name" v="Elverud" />
		<tag k="place" v="farm" />
		<tag k="ssr:stedsnr" v="430081" />
	</node>
	<node id="-248737" lat="60.0987305511" lon="11.0048194509">
		<tag k="bridge" v="yes" />
		<tag k="layer" v="1" />
		<tag k="name" v="Eikeberg" />
		<tag k="ssr:stedsnr" v="410774" />
	</node>
	<node id="-248736" lat="60.063655559" lon="11.0487000052">
		<tag k="name" v="Nedre Fjælstad" />
		<tag k="place" v="farm" />
		<tag k="ssr:stedsnr" v="404034" />
	</node>
	<node id="-248735" lat="60.0351666703" lon="11.0470666758">
		<tag k="name" v="Fjeldly" />
		<tag k="place" v="farm" />
		<tag k="ssr:stedsnr" v="387928" />
	</node>
	<node id="-248734" lat="60.0726583357" lon="11.0202972221">
		<tag k="name" v="Vestli" />
		<tag k="place" v="isolated_dwelling" />
		<tag k="ssr:stedsnr" v="387879" />
	</node>
	<node id="-248733" lat="60.08849722" lon="11.1013916581">
		<tag k="name" v="Blånet" />
		<tag k="place" v="farm" />
		<tag k="ssr:stedsnr" v="387011" />
	</node>
	<node id="-248732" lat="60.0765555567" lon="11.0742222156">
		<tag k="name" v="Nordli" />
		<tag k="place" v="isolated_dwelling" />
		<tag k="ssr:stedsnr" v="387132" />
	</node>
	<node id="-248731" lat="60.103113885" lon="11.0210694443">
		<tag k="name" v="Vestbyhagan" />
		<tag k="place" v="farm" />
		<tag k="ssr:stedsnr" v="384593" />
	</node>
	<node id="-248730" lat="60.0785222239" lon="11.0799333356">
		<tag k="name" v="Solheim" />
		<tag k="place" v="quarter" />
		<tag k="ssr:stedsnr" v="384062" />
	</node>
	<node id="-248729" lat="60.094686111" lon="11.0217722193">
		<tag k="alt_name" v="Åmot østre" />
		<tag k="name" v="Åmot" />
		<tag k="place" v="farm" />
		<tag k="ssr:stedsnr" v="369570" />
	</node>
	<node id="-248728" lat="60.0909611116" lon="10.9998027819">
		<tag k="name" v="Mellom" />
		<tag k="place" v="farm" />
		<tag k="ssr:stedsnr" v="369568" />
	</node>
	<node id="-248727" lat="60.0928555517" lon="10.9511638915">
		<tag k="historic" v="shieling" />
		<tag k="name" v="Henivangen" />
		<tag k="place" v="locality" />
		<tag k="ssr:stedsnr" v="369565" />
	</node>
	<node id="-248726" lat="60.1117111085" lon="10.9624083288">
		<tag k="alt_name" v="Trolsnesfjellet" />
		<tag k="fixme" v="consider natural=peak for the most distinct mountains in the district" />
		<tag k="name" v="Trollsnesfjellet" />
		<tag k="natural" v="hill" />
		<tag k="place" v="locality" />
		<tag k="ssr:stedsnr" v="369519" />
	</node>
	<node id="-248725" lat="60.0884138866" lon="11.0851527803">
		<tag k="name" v="Gjerdrum" />
		<tag k="place" v="farm" />
		<tag k="ssr:stedsnr" v="369439" />
	</node>
	<node id="-248724" lat="60.0627027542" lon="11.0349440603">
		<tag k="alt_name" v="Fjelstadbekken" />
		<tag k="name" v="Tistilbekken" />
		<tag k="ssr:stedsnr" v="369432" />
		<tag k="waterway" v="stream" />
	</node>
	<node id="-248723" lat="60.0713194486" lon="10.9435333368">
		<tag k="name" v="Fossummåsan" />
		<tag k="natural" v="wetland" />
		<tag k="ssr:stedsnr" v="327947" />
	</node>
	<node id="-248722" lat="60.0728694452" lon="11.0329249934">
		<tag k="junction" v="yes" />
		<tag k="name" v="Smedstuen" />
		<tag k="place" v="locality" />
		<tag k="ssr:stedsnr" v="326897" />
	</node>
	<node id="-248721" lat="60.0807833359" lon="11.0599833315">
		<tag k="name" v="Svensrudfossen" />
		<tag k="natural" v="waterfall" />
		<tag k="ssr:stedsnr" v="326895" />
	</node>
	<node id="-248720" lat="60.0715888894" lon="11.0359666654">
		<tag k="amenity" v="townhall" />
		<tag k="name" v="Herredshus" />
		<tag k="ssr:stedsnr" v="326892" />
	</node>
	<node id="-248719" lat="60.0791583336" lon="11.0186305624">
		<tag k="junction" v="yes" />
		<tag k="name" v="Leirdalen" />
		<tag k="place" v="locality" />
		<tag k="ssr:stedsnr" v="326880" />
	</node>
	<node id="-248718" lat="60.0901277799" lon="10.9708027858">
		<tag k="name" v="Nordlåbekken" />
		<tag k="ssr:stedsnr" v="326933" />
		<tag k="waterway" v="stream" />
	</node>
	<node id="-248717" lat="60.0988499988" lon="11.0638194452">
		<tag k="name" v="Henau" />
		<tag k="place" v="farm" />
		<tag k="ssr:stedsnr" v="326092" />
	</node>
	<node id="-248716" lat="60.1183833298" lon="10.9320999995">
		<tag k="name" v="Stårrdalen" />
		<tag k="natural" v="valley" />
		<tag k="place" v="locality" />
		<tag k="ssr:stedsnr" v="309685" />
	</node>
	<node id="-248715" lat="60.1219388903" lon="10.9926333273">
		<tag k="name" v="Rustadmåsan" />
		<tag k="natural" v="wetland" />
		<tag k="ssr:stedsnr" v="309682" />
	</node>
	<node id="-248714" lat="60.1053499963" lon="11.0830194505">
		<tag k="name" v="Sandum" />
		<tag k="place" v="farm" />
		<tag k="ssr:stedsnr" v="309621" />
	</node>
	<node id="-248713" lat="60.1095750021" lon="11.0868861158">
		<tag k="name" v="Trulsrud" />
		<tag k="place" v="farm" />
		<tag k="ssr:stedsnr" v="309620" />
	</node>
	<node id="-248712" lat="60.1068055597" lon="10.9406750017">
		<tag k="name" v="Myrgruvefossen" />
		<tag k="natural" v="waterfall" />
		<tag k="ssr:stedsnr" v="309613" />
	</node>
	<node id="-248711" lat="60.0530999962" lon="11.0410333266">
		<tag k="name" v="Høyenhall" />
		<tag k="place" v="farm" />
		<tag k="ssr:stedsnr" v="308432" />
	</node>
	<node id="-248710" lat="60.0487333344" lon="10.9752500072">
		<tag k="alt_name" v="Hønsivangen, søndre" />
		<tag k="historic" v="shieling" />
		<tag k="name" v="Øvre Hønsivangen" />
		<tag k="place" v="locality" />
		<tag k="ssr:stedsnr" v="308407" />
	</node>
	<node id="-248709" lat="60.0421111106" lon="11.0534833336">
		<tag k="alt_name" v="Skauen" />
		<tag k="name" v="Skogen" />
		<tag k="place" v="farm" />
		<tag k="ssr:stedsnr" v="308401" />
	</node>
	<node id="-248708" lat="60.0429250016" lon="11.0581472199">
		<tag k="name" v="Skaugom" />
		<tag k="place" v="farm" />
		<tag k="ssr:stedsnr" v="308398" />
	</node>
	<node id="-248707" lat="60.0591305552" lon="10.9430138897">
		<tag k="name" v="Busterudmåsan" />
		<tag k="natural" v="wetland" />
		<tag k="ssr:stedsnr" v="206951" />
	</node>
	<node id="-248706" lat="60.1025083328" lon="10.9543749996">
		<tag k="name" v="Vangslia" />
		<tag k="natural" v="slope" />
		<tag k="place" v="locality" />
		<tag k="ssr:stedsnr" v="206929" />
	</node>
	<node id="-248705" lat="60.1035611151" lon="10.9624000065">
		<tag k="historic" v="shieling" />
		<tag k="name" v="Smedstadvangen" />
		<tag k="place" v="locality" />
		<tag k="ssr:stedsnr" v="206919" />
	</node>
	<node id="-248704" lat="60.0512805579" lon="11.014216661">
		<tag k="historic" v="shieling" />
		<tag k="name" v="Nedre Asmyrvangen" />
		<tag k="place" v="locality" />
		<tag k="ssr:stedsnr" v="206913" />
	</node>
	<node id="-248703" lat="60.0809555589" lon="10.9747055535">
		<tag k="name" v="Elvesvingen" />
		<tag k="place" v="locality" />
		<tag k="ssr:stedsnr" v="205928" />
	</node>
	<node id="-248702" lat="60.0816527733" lon="11.0077138935">
		<tag k="name" v="Møllerhaugen" />
		<tag k="natural" v="hill" />
		<tag k="place" v="locality" />
		<tag k="ssr:stedsnr" v="205911" />
	</node>
	<node id="-248701" lat="60.0538972254" lon="11.0948916653">
		<tag k="name" v="Smedstuen" />
		<tag k="place" v="farm" />
		<tag k="ssr:stedsnr" v="205126" />
	</node>
	<node id="-248700" lat="60.0996861069" lon="11.0232305507">
		<tag k="name" v="Vestby" />
		<tag k="place" v="farm" />
		<tag k="ssr:stedsnr" v="188645" />
	</node>
	<node id="-248699" lat="60.1220138914" lon="10.95701112">
		<tag k="alt_name" v="Delemyrene" />
		<tag k="name" v="Delemyra" />
		<tag k="natural" v="wetland" />
		<tag k="ssr:stedsnr" v="187638" />
	</node>
	<node id="-248698" lat="60.0713500016" lon="11.0236861045">
		<tag k="name" v="Åsgård" />
		<tag k="place" v="farm" />
		<tag k="ssr:stedsnr" v="187521" />
	</node>
	<node id="-248697" lat="60.0753916696" lon="10.9567694474">
		<tag k="historic" v="shieling" />
		<tag k="name" v="Sørumsvangen" />
		<tag k="place" v="locality" />
		<tag k="ssr:stedsnr" v="187512" />
	</node>
	<node id="-248696" lat="60.077463885" lon="11.0244749988">
		<tag k="name" v="Bjørkely" />
		<tag k="place" v="farm" />
		<tag k="ssr:stedsnr" v="187501" />
	</node>
	<node id="-248695" lat="60.0842277737" lon="11.0055250038">
		<tag k="alt_name" v="Bråtan, nedre" />
		<tag k="name" v="Nedre Bråtan" />
		<tag k="place" v="farm" />
		<tag k="ssr:stedsnr" v="187500" />
	</node>
	<node id="-248694" lat="60.0858277782" lon="10.951419451">
		<tag k="alt_name" v="Kokstadvangen" />
		<tag k="historic" v="shieling" />
		<tag k="name" v="Nedre Kokstadvangen" />
		<tag k="place" v="locality" />
		<tag k="ssr:stedsnr" v="187495" />
	</node>
	<node id="-248693" lat="60.0780083358" lon="10.9873861078">
		<tag k="name" v="Harasletta" />
		<tag k="place" v="isolated_dwelling" />
		<tag k="ssr:stedsnr" v="187490" />
	</node>
	<node id="-248692" lat="60.0601250022" lon="10.9334361185">
		<tag k="name" v="Haugsputten" />
		<tag k="natural" v="water" />
		<tag k="ssr:stedsnr" v="187444" />
	</node>
	<node id="-248691" lat="60.0534888847" lon="10.981847215">
		<tag k="historic" v="shieling" />
		<tag k="name" v="Askvangen" />
		<tag k="place" v="locality" />
		<tag k="ssr:stedsnr" v="187441" />
	</node>
	<node id="-248690" lat="60.0568916675" lon="11.0026500073">
		<tag k="fixme" v="consider natural=peak for the most distinct mountains in the district" />
		<tag k="name" v="Klintehøgda" />
		<tag k="natural" v="hill" />
		<tag k="place" v="locality" />
		<tag k="ssr:stedsnr" v="187440" />
	</node>
	<node id="-248689" lat="60.0436416707" lon="11.0337194489">
		<tag k="alt_name" v="Flatner, lille;Flatner vesle;Flatner lille" />
		<tag k="name" v="Lille Flatner" />
		<tag k="place" v="farm" />
		<tag k="ssr:stedsnr" v="187400" />
	</node>
	<node id="-248688" lat="60.1071916683" lon="11.0936499937">
		<tag k="fixme" v="consider place=hamlet" />
		<tag k="name" v="Rogstad" />
		<tag k="place" v="farm" />
		<tag k="ssr:stedsnr" v="187108" />
	</node>
	<node id="-248687" lat="60.0897583379" lon="11.0286749945">
		<tag k="bridge" v="yes" />
		<tag k="layer" v="1" />
		<tag k="name" v="Sag" />
		<tag k="ssr:stedsnr" v="167789" />
	</node>
	<node id="-248686" lat="60.0584361133" lon="11.0020361097">
		<tag k="name" v="Maurholet" />
		<tag k="natural" v="valley" />
		<tag k="place" v="locality" />
		<tag k="ssr:stedsnr" v="144948" />
	</node>
	<node id="-248685" lat="60.0886999979" lon="10.9748166609">
		<tag k="name" v="Åmotsoten" />
		<tag k="natural" v="wetland" />
		<tag k="ssr:stedsnr" v="144918" />
	</node>
	<node id="-248684" lat="60.0754861103" lon="10.9667583299">
		<tag k="name" v="Olstadbekken" />
		<tag k="ssr:stedsnr" v="144914" />
		<tag k="waterway" v="stream" />
	</node>
	<node id="-248683" lat="60.076858329" lon="11.0079222264">
		<tag k="name" v="Grønlund" />
		<tag k="place" v="isolated_dwelling" />
		<tag k="ssr:stedsnr" v="144896" />
	</node>
	<node id="-248682" lat="60.0750666702" lon="11.0347416725">
		<tag k="name" v="Askjordet" />
		<tag k="place" v="quarter" />
		<tag k="ssr:stedsnr" v="144872" />
	</node>
	<node id="-248681" lat="60.0668333317" lon="10.9852083366">
		<tag k="alt_name" v="Hønsivangen, nordre" />
		<tag k="historic" v="shieling" />
		<tag k="name" v="Nedre Hønsivangen" />
		<tag k="place" v="locality" />
		<tag k="ssr:stedsnr" v="127543" />
	</node>
	<node id="-248680" lat="60.1155555567" lon="10.964663884">
		<tag k="historic" v="shieling" />
		<tag k="name" v="Tveitvangen" />
		<tag k="place" v="locality" />
		<tag k="ssr:stedsnr" v="126661" />
	</node>
	<node id="-248679" lat="60.0917805547" lon="10.9283138847">
		<tag k="name" v="Dagrosputten" />
		<tag k="natural" v="water" />
		<tag k="ssr:stedsnr" v="126604" />
	</node>
	<node id="-248678" lat="60.1027722223" lon="11.0737249969">
		<tag k="name" v="Sandummåsan" />
		<tag k="natural" v="wetland" />
		<tag k="ssr:stedsnr" v="126595" />
	</node>
	<node id="-248677" lat="60.0949277804" lon="11.0694861201">
		<tag k="name" v="Munkeli" />
		<tag k="place" v="isolated_dwelling" />
		<tag k="ssr:stedsnr" v="126594" />
	</node>
	<node id="-248676" lat="60.1008" lon="11.0525833351">
		<tag k="name" v="Korsmo" />
		<tag k="place" v="farm" />
		<tag k="ssr:stedsnr" v="126592" />
	</node>
	<node id="-248675" lat="60.0716333818" lon="11.0346883921">
		<tag k="name" v="Ask" />
		<tag k="place" v="village" />
		<tag k="ssr:stedsnr" v="126555" />
	</node>
	<node id="-248674" lat="60.0738499962" lon="11.0744388961">
		<tag k="name" v="Olstad" />
		<tag k="place" v="farm" />
		<tag k="ssr:stedsnr" v="126553" />
	</node>
	<node id="-248673" lat="60.0714111072" lon="11.0157861024">
		<tag k="alt_name" v="Kulsrud, søndre" />
		<tag k="name" v="Kulsrud" />
		<tag k="place" v="farm" />
		<tag k="ssr:stedsnr" v="126535" />
	</node>
	<node id="-248672" lat="60.0839499988" lon="10.9312250084">
		<tag k="alt_name" v="Dretnetjern" />
		<tag k="name" v="Dretnetjernet" />
		<tag k="natural" v="water" />
		<tag k="ssr:stedsnr" v="126523" />
	</node>
	<node id="-248671" lat="60.0854499986" lon="10.9898666593">
		<tag k="name" v="Sørensmyra" />
		<tag k="natural" v="wetland" />
		<tag k="ssr:stedsnr" v="126519" />
	</node>
	<node id="-248670" lat="60.037324997" lon="11.0038000031">
		<tag k="name" v="Høgsmåsan" />
		<tag k="natural" v="wetland" />
		<tag k="ssr:stedsnr" v="126432" />
	</node>
	<node id="-248669" lat="60.0833472229" lon="10.9988444424">
		<tag k="amenity" v="school" />
		<tag k="name" v="Veståsen skole" />
		<tag k="ssr:stedsnr" v="119715" />
	</node>
	<node id="-248668" lat="60.0469166709" lon="11.0231888912">
		<tag k="name" v="Bråtemåsan" />
		<tag k="natural" v="wetland" />
		<tag k="ssr:stedsnr" v="84936" />
	</node>
	<node id="-248667" lat="60.0952111104" lon="11.055063887">
		<tag k="name" v="Årstad" />
		<tag k="place" v="farm" />
		<tag k="ssr:stedsnr" v="84933" />
	</node>
	<node id="-248666" lat="60.1062361119" lon="10.9624750083">
		<tag k="name" v="Smedstadgruvene" />
		<tag k="place" v="locality" />
		<tag k="ssr:stedsnr" v="84927" />
	</node>
	<node id="-248665" lat="60.0885222195" lon="11.0294972134">
		<tag k="name" v="Fossum" />
		<tag k="place" v="farm" />
		<tag k="ssr:stedsnr" v="84890" />
	</node>
	<node id="-248664" lat="60.1102611073" lon="11.0662388874">
		<tag k="name" v="Mobekken" />
		<tag k="ssr:stedsnr" v="84142" />
		<tag k="waterway" v="stream" />
	</node>
	<node id="-248663" lat="60.0952749976" lon="11.0881000016">
		<tag k="name" v="Torshov" />
		<tag k="place" v="farm" />
		<tag k="ssr:stedsnr" v="84137" />
	</node>
	<node id="-248662" lat="60.1281361125" lon="10.9184111103">
		<tag k="name" v="Midtelva" />
		<tag k="ssr:stedsnr" v="83943" />
		<tag k="waterway" v="river" />
	</node>
	<node id="-248661" lat="60.0909583341" lon="10.9451222303">
		<tag k="name" v="Henimåsan" />
		<tag k="natural" v="wetland" />
		<tag k="ssr:stedsnr" v="66592" />
	</node>
	<node id="-248660" lat="60.1076027814" lon="11.0487249967">
		<tag k="name" v="Kjærstad" />
		<tag k="place" v="farm" />
		<tag k="ssr:stedsnr" v="66564" />
	</node>
	<node id="-248659" lat="60.1050999996" lon="10.9895583322">
		<tag k="alt_name" v="Trolsnes" />
		<tag k="name" v="Trollsnes" />
		<tag k="place" v="farm" />
		<tag k="ssr:stedsnr" v="66560" />
	</node>
	<node id="-248658" lat="60.0693888853" lon="11.0207166604">
		<tag k="junction" v="yes" />
		<tag k="name" v="Fjellgrinda" />
		<tag k="place" v="locality" />
		<tag k="ssr:stedsnr" v="66528" />
	</node>
	<node id="-248657" lat="60.0781694416" lon="10.9486750055">
		<tag k="alt_name" v="Rokstadvangen" />
		<tag k="historic" v="shieling" />
		<tag k="name" v="Rogstadvangen" />
		<tag k="place" v="locality" />
		<tag k="ssr:stedsnr" v="66489" />
	</node>
	<node id="-248656" lat="60.08682778" lon="11.037600006">
		<tag k="name" v="Gullhaug" />
		<tag k="place" v="isolated_dwelling" />
		<tag k="ssr:stedsnr" v="66476" />
	</node>
	<node id="-248655" lat="60.0698694407" lon="10.9765527799">
		<tag k="alt_name" v="Breidmåsan" />
		<tag k="name" v="Breimåsan" />
		<tag k="natural" v="wetland" />
		<tag k="ssr:stedsnr" v="66467" />
	</node>
	<node id="-248654" lat="60.0612166702" lon="11.0150166629">
		<tag k="name" v="Ulvedalshøgda" />
		<tag k="natural" v="hill" />
		<tag k="place" v="locality" />
		<tag k="ssr:stedsnr" v="66466" />
	</node>
	<node id="-248653" lat="60.0371583349" lon="11.0649194437">
		<tag k="fixme" v="multiple name tags, choose one and add the other to alt_name; consider natural=peak for the most distinct mountains in the district" />
		<tag k="name" v="Heksebergfjellet;Vardåsen;Vardfjellet" />
		<tag k="natural" v="hill" />
		<tag k="old_name" v="Heksebergfjeldet" />
		<tag k="place" v="locality" />
		<tag k="ssr:stedsnr" v="66374" />
	</node>
	<node id="-248652" lat="60.0891166635" lon="11.101636105">
		<tag k="name" v="Enger" />
		<tag k="place" v="farm" />
		<tag k="ssr:stedsnr" v="66083" />
	</node>
	<node id="-248650" lat="60.06392222" lon="11.0823111048">
		<tag k="name" v="Sørum" />
		<tag k="place" v="farm" />
		<tag k="ssr:stedsnr" v="23129" />
	</node>
	<node id="-248649" lat="60.1006999967" lon="10.9460388929">
		<tag k="name" v="Prestfossen" />
		<tag k="natural" v="waterfall" />
		<tag k="ssr:stedsnr" v="6622" />
	</node>
	<node id="-248648" lat="60.1079749988" lon="11.0369805607">
		<tag k="name" v="Oddeggen" />
		<tag k="place" v="farm" />
		<tag k="ssr:stedsnr" v="6605" />
	</node>
	<node id="-248647" lat="60.0665166672" lon="11.0281000085">
		<tag k="alt_name" v="Brådal, nordre" />
		<tag k="name" v="Nordre Brådal" />
		<tag k="place" v="farm" />
		<tag k="ssr:stedsnr" v="6539" />
	</node>
	<node id="-248646" lat="60.0946361127" lon="10.9701222311">
		<tag k="historic" v="shieling" />
		<tag k="name" v="Movangen" />
		<tag k="place" v="locality" />
		<tag k="ssr:stedsnr" v="5600" />
	</node>
	<node id="-248645" lat="60.0781166644" lon="11.0572166632">
		<tag k="name" v="Svensrud" />
		<tag k="place" v="farm" />
		<tag k="ssr:stedsnr" v="5500" />
	</node>
	<node id="-248644" lat="60.0940805579" lon="11.0413027851">
		<tag k="name" v="Ljøreggen" />
		<tag k="place" v="isolated_dwelling" />
		<tag k="ssr:stedsnr" v="5480" />
	</node>
	<node id="-248643" lat="60.0471777804" lon="11.0459305602">
		<tag k="name" v="Bråte" />
		<tag k="place" v="farm" />
		<tag k="ssr:stedsnr" v="5434" />
	</node>
	<node id="-248642" lat="60.1167666793" lon="10.9453012662">
		<tag k="fixme" v="consider boundary=protected_area and relevant protect_class if not nature reserve" />
		<tag k="leisure" v="nature_reserve" />
		<tag k="name" v="Gjerimåsan naturreservat" />
		<tag k="ssr:stedsnr" v="971492" />
	</node>
	<node id="-248641" lat="60.0914916671" lon="11.1000055591">
		<tag k="name" v="Leirenga" />
		<tag k="place" v="farm" />
		<tag k="ssr:stedsnr" v="933114" />
	</node>
	<node id="-248640" lat="60.0700638885" lon="11.0557250028">
		<tag k="name" v="Kyken" />
		<tag k="place" v="farm" />
		<tag k="ssr:stedsnr" v="916574" />
	</node>
	<node id="-248639" lat="60.0651259941" lon="10.9352237451">
		<tag k="fixme" v="multiple name tags, choose one and add the other to alt_name" />
		<tag k="name" v="Flabben;Mastutjern" />
		<tag k="natural" v="water" />
		<tag k="ssr:stedsnr" v="916527" />
	</node>
	<node id="-248638" lat="60.1037611103" lon="11.0264666719">
		<tag k="name" v="Kokstadhagan" />
		<tag k="place" v="farm" />
		<tag k="ssr:stedsnr" v="916630" />
	</node>
	<node id="-248637" lat="60.0565472232" lon="10.9536388931">
		<tag k="alt_name" v="Langvatn" />
		<tag k="name" v="Langvatnet" />
		<tag k="natural" v="water" />
		<tag k="ssr:stedsnr" v="915459" />
	</node>
	<node id="-248636" lat="60.0571749969" lon="11.0440666684">
		<tag k="alt_name" v="Fjelstadtangen" />
		<tag k="name" v="Tangen" />
		<tag k="place" v="isolated_dwelling" />
		<tag k="ssr:stedsnr" v="915455" />
	</node>
	<node id="-248635" lat="60.0573999993" lon="10.9414361102">
		<tag k="fixme" v="consider natural=peak for the most distinct mountains in the district" />
		<tag k="name" v="Lauvhaugen" />
		<tag k="natural" v="hill" />
		<tag k="place" v="locality" />
		<tag k="ssr:stedsnr" v="873959" />
	</node>
	<node id="-248634" lat="60.0325555547" lon="11.0619972281">
		<tag k="name" v="Vardemåsan" />
		<tag k="natural" v="wetland" />
		<tag k="ssr:stedsnr" v="873924" />
	</node>
	<node id="-248633" lat="60.0426527798" lon="11.0274027721">
		<tag k="name" v="Bjønndalen" />
		<tag k="natural" v="valley" />
		<tag k="place" v="locality" />
		<tag k="ssr:stedsnr" v="873918" />
	</node>
	<node id="-248632" lat="60.0826944433" lon="10.9561416607">
		<tag k="name" v="Skeisfløyten" />
		<tag k="natural" v="water" />
		<tag k="ssr:stedsnr" v="872928" />
		<tag k="water" v="lake" />
	</node>
	<node id="-248631" lat="60.091675001" lon="10.9630222141">
		<tag k="name" v="Stormåsan" />
		<tag k="natural" v="wetland" />
		<tag k="ssr:stedsnr" v="870067" />
	</node>
	<node id="-248630" lat="60.0897872131" lon="10.9376992071">
		<tag k="alt_name" v="Spiketjernhytta" />
		<tag k="fixme" v="consider tourism=alpine_hut or tourism=chalet" />
		<tag k="name" v="Spikertjernhytta" />
		<tag k="ssr:stedsnr" v="946945" />
		<tag k="tourism" v="wilderness_hut" />
	</node>
	<node id="-248629" lat="60.0533" lon="11.0152722156">
		<tag k="historic" v="shieling" />
		<tag k="name" v="Asmyrvangen" />
		<tag k="place" v="locality" />
		<tag k="ssr:stedsnr" v="855459" />
	</node>
	<node id="-248628" lat="60.0357861108" lon="11.0358583332">
		<tag k="alt_name" v="Flatner, store;Flatner" />
		<tag k="name" v="Store Flatner" />
		<tag k="place" v="farm" />
		<tag k="ssr:stedsnr" v="855410" />
	</node>
	<node id="-248627" lat="60.1155472248" lon="10.9278916732">
		<tag k="name" v="Gjermåa" />
		<tag k="ssr:stedsnr" v="855575" />
		<tag k="waterway" v="river" />
	</node>
	<node id="-248626" lat="60.0835861103" lon="11.0375250038">
		<tag k="name" v="Kråkvål" />
		<tag k="place" v="farm" />
		<tag k="ssr:stedsnr" v="855522" />
	</node>
	<node id="-248625" lat="60.0795805568" lon="11.0368638888">
		<tag k="name" v="Sørli" />
		<tag k="place" v="farm" />
		<tag k="ssr:stedsnr" v="855519" />
	</node>
	<node id="-248624" lat="60.0794750015" lon="11.0192777724">
		<tag k="alt_name" v="Fossum, vestre" />
		<tag k="name" v="Vestre Fossum" />
		<tag k="place" v="farm" />
		<tag k="ssr:stedsnr" v="855515" />
	</node>
	<node id="-248623" lat="60.0984083335" lon="11.0848694494">
		<tag k="alt_name" v="Torshaug" />
		<tag k="fixme" v="consider place=hamlet" />
		<tag k="name" v="Torshov" />
		<tag k="place" v="farm" />
		<tag k="ssr:stedsnr" v="843614" />
	</node>
	<node id="-248622" lat="60.1018194468" lon="11.0032861105">
		<tag k="name" v="Eikeberg" />
		<tag k="place" v="farm" />
		<tag k="ssr:stedsnr" v="934897" />
	</node>
	<node id="-248621" lat="60.0592798502" lon="11.0351360001">
		<tag k="name" v="Kroken" />
		<tag k="place" v="farm" />
		<tag k="ssr:stedsnr" v="934917" />
	</node>
	<node id="-248620" lat="60.1143083356" lon="11.0788888851">
		<tag k="name" v="Nitteberg" />
		<tag k="place" v="farm" />
		<tag k="ssr:stedsnr" v="794560" />
	</node>
	<node id="-248619" lat="60.0947777817" lon="10.9476277719">
		<tag k="alt_name" v="Buvannet" />
		<tag k="name" v="Buvatnet" />
		<tag k="natural" v="water" />
		<tag k="ssr:stedsnr" v="794617" />
		<tag k="water" v="lake" />
	</node>
	<node id="-248618" lat="60.0767361148" lon="11.0662583422">
		<tag k="fixme" v="multiple name tags, choose one and add the other to alt_name" />
		<tag k="name" v="Olstad;Olstadhaugen" />
		<tag k="place" v="farm" />
		<tag k="ssr:stedsnr" v="794507" />
	</node>
	<node id="-248617" lat="60.05655278" lon="11.0518833321">
		<tag k="name" v="Tangendalen" />
		<tag k="natural" v="valley" />
		<tag k="place" v="locality" />
		<tag k="ssr:stedsnr" v="794453" />
	</node>
	<node id="-248616" lat="60.0341361118" lon="11.0418583258">
		<tag k="name" v="Flaen" />
		<tag k="place" v="farm" />
		<tag k="ssr:stedsnr" v="794410" />
	</node>
	<node id="-248615" lat="60.1208277768" lon="10.9391638832">
		<tag k="name" v="Gjerimåsan" />
		<tag k="natural" v="wetland" />
		<tag k="ssr:stedsnr" v="916702" />
	</node>
	<node id="-248614" lat="60.1172138883" lon="11.0797388918">
		<tag k="alt_name" v="Løvstad, søndre;Løvstad" />
		<tag k="name" v="Søndre Løvstad" />
		<tag k="place" v="farm" />
		<tag k="ssr:stedsnr" v="916598" />
	</node>
	<node id="-248613" lat="60.0990750002" lon="11.0141472242">
		<tag k="name" v="Skei" />
		<tag k="place" v="farm" />
		<tag k="ssr:stedsnr" v="916633" />
	</node>
	<node id="-248612" lat="60.1015277776" lon="11.0208416611">
		<tag k="name" v="Gran" />
		<tag k="place" v="farm" />
		<tag k="ssr:stedsnr" v="916632" />
	</node>
	<node id="-248611" lat="60.0877250019" lon="10.9990194425">
		<tag k="alt_name" v="Bekkeberget" />
		<tag k="name" v="Bekkeberga" />
		<tag k="place" v="hamlet" />
		<tag k="ssr:stedsnr" v="915598" />
	</node>
	<node id="-248610" lat="60.0869499976" lon="11.0001888829">
		<tag k="name" v="Spenningen" />
		<tag k="place" v="farm" />
		<tag k="ssr:stedsnr" v="915501" />
	</node>
	<node id="-248609" lat="60.0859250023" lon="11.1012000006">
		<tag k="name" v="Hvam" />
		<tag k="place" v="farm" />
		<tag k="ssr:stedsnr" v="915080" />
	</node>
	<node id="-248608" lat="60.0877499975" lon="11.0652583297">
		<tag k="name" v="Tveit" />
		<tag k="place" v="farm" />
		<tag k="ssr:stedsnr" v="672464" />
	</node>
	<node id="-248607" lat="60.1001250013" lon="11.030416668">
		<tag k="name" v="Kokstad" />
		<tag k="place" v="farm" />
		<tag k="ssr:stedsnr" v="734644" />
	</node>
	<node id="-248606" lat="60.1028305514" lon="10.9502416675">
		<tag k="alt_name" v="Langmyrene" />
		<tag k="name" v="Langmyra" />
		<tag k="natural" v="wetland" />
		<tag k="ssr:stedsnr" v="734635" />
	</node>
	<node id="-248605" lat="60.0608499975" lon="10.9934166629">
		<tag k="name" v="Overholsmåsan" />
		<tag k="natural" v="wetland" />
		<tag k="ssr:stedsnr" v="734552" />
	</node>
	<node id="-248604" lat="60.0601999986" lon="11.0669333374">
		<tag k="name" v="Hval" />
		<tag k="place" v="farm" />
		<tag k="ssr:stedsnr" v="734546" />
	</node>
	<node id="-248603" lat="60.0664083313" lon="11.0615750062">
		<tag k="alt_name" v="Hammer" />
		<tag k="name" v="Hammar" />
		<tag k="place" v="farm" />
		<tag k="ssr:stedsnr" v="734543" />
	</node>
	<node id="-248602" lat="60.0618972208" lon="11.0384055611">
		<tag k="name" v="Holmen" />
		<tag k="place" v="isolated_dwelling" />
		<tag k="ssr:stedsnr" v="734541" />
	</node>
	<node id="-248601" lat="60.0546001504" lon="11.0513947934">
		<tag k="alt_name" v="Fjellstad;Nordre Fjelstad" />
		<tag k="fixme" v="multiple name tags, choose one and add the other to alt_name" />
		<tag k="name" v="Hesthagan;Nordre Fjælstad" />
		<tag k="place" v="farm" />
		<tag k="ssr:stedsnr" v="646443" />
	</node>
	<node id="-248600" lat="60.0887938868" lon="10.9365394741">
		<tag k="alt_name" v="Spikertjern" />
		<tag k="name" v="Spikertjernet" />
		<tag k="natural" v="water" />
		<tag k="ssr:stedsnr" v="733586" />
	</node>
	<node id="-248599" lat="60.0970527749" lon="11.061738893">
		<tag k="name" v="Heni" />
		<tag k="place" v="farm" />
		<tag k="ssr:stedsnr" v="733572" />
	</node>
	<node id="-248598" lat="59.9878888898" lon="11.0846555606">
		<tag k="alt_name" v="Leirelva" />
		<tag k="name" v="Leira" />
		<tag k="ssr:stedsnr" v="733534" />
		<tag k="waterway" v="river" />
	</node>
	<node id="-248597" lat="60.0813527823" lon="11.0175194396">
		<tag k="junction" v="yes" />
		<tag k="name" v="Rønnegrinda" />
		<tag k="place" v="locality" />
		<tag k="ssr:stedsnr" v="733497" />
	</node>
	<node id="-248596" lat="60.0806500006" lon="10.9842916673">
		<tag k="alt_name" v="Grytefossen" />
		<tag k="name" v="Grytfossen" />
		<tag k="natural" v="waterfall" />
		<tag k="ssr:stedsnr" v="733482" />
	</node>
	<node id="-248595" lat="60.0927083316" lon="11.0534111124">
		<tag k="name" v="Årstad" />
		<tag k="place" v="farm" />
		<tag k="ssr:stedsnr" v="733464" />
	</node>
	<node id="-248594" lat="60.0789388925" lon="10.9635138888">
		<tag k="junction" v="yes" />
		<tag k="name" v="Prestlykkja" />
		<tag k="place" v="locality" />
		<tag k="ssr:stedsnr" v="629927" />
	</node>
	<node id="-248593" lat="60.0808916663" lon="11.0059638916">
		<tag k="name" v="Mølla" />
		<tag k="place" v="locality" />
		<tag k="ssr:stedsnr" v="629908" />
	</node>
	<node id="-248592" lat="60.0752305529" lon="10.9957833291">
		<tag k="name" v="Grønlundfjellet" />
		<tag k="place" v="quarter" />
		<tag k="ssr:stedsnr" v="627057" />
	</node>
	<node id="-248591" lat="60.1109805541" lon="10.9628277801">
		<tag k="historic" v="shieling" />
		<tag k="name" v="Kjærstadvangen" />
		<tag k="place" v="locality" />
		<tag k="ssr:stedsnr" v="612593" />
	</node>
	<node id="-248590" lat="60.0761166657" lon="11.0087750034">
		<tag k="alt_name" v="Kulsrud, nordre" />
		<tag k="name" v="Kulsrud" />
		<tag k="place" v="farm" />
		<tag k="ssr:stedsnr" v="612561" />
	</node>
	<node id="-248589" lat="60.0796611144" lon="11.0778750061">
		<tag k="name" v="Hol" />
		<tag k="place" v="isolated_dwelling" />
		<tag k="ssr:stedsnr" v="612555" />
	</node>
	<node id="-248588" lat="60.0824414203" lon="11.0848230654">
		<tag k="alt_name" v="Gjerdrum søndre" />
		<tag k="name" v="Gjerdrum" />
		<tag k="place" v="farm" />
		<tag k="ssr:stedsnr" v="612554" />
	</node>
	<node id="-248587" lat="60.0936861086" lon="11.0103833275">
		<tag k="alt_name" v="Åmot;Åmot vestre" />
		<tag k="name" v="Vestre Åmot" />
		<tag k="place" v="farm" />
		<tag k="ssr:stedsnr" v="611630" />
	</node>
	<node id="-248586" lat="60.0862805563" lon="11.0176083263">
		<tag k="alt_name" v="Rud, østre;Rud" />
		<tag k="name" v="Østre Rud" />
		<tag k="place" v="farm" />
		<tag k="ssr:stedsnr" v="611502" />
	</node>
	<node id="-248585" lat="60.0511666628" lon="10.9447333398">
		<tag k="name" v="Svartputten" />
		<tag k="natural" v="water" />
		<tag k="ssr:stedsnr" v="691957" />
	</node>
	<node id="-248584" lat="60.0525694444" lon="11.0087527762">
		<tag k="historic" v="shieling" />
		<tag k="name" v="Øvre Asmyrvangen" />
		<tag k="place" v="locality" />
		<tag k="ssr:stedsnr" v="691938" />
	</node>
	<node id="-248583" lat="60.1222916665" lon="10.9129999925">
		<tag k="name" v="Vestre Gjermenningen" />
		<tag k="natural" v="water" />
		<tag k="ssr:stedsnr" v="691923" />
	</node>
	<node id="-248582" lat="60.1017333309" lon="11.0097555562">
		<tag k="name" v="Skeismoen" />
		<tag k="place" v="locality" />
		<tag k="ssr:stedsnr" v="691891" />
	</node>
	<node id="-248581" lat="60.0826611147" lon="10.9699027828">
		<tag k="name" v="Sørlåbekken" />
		<tag k="place" v="isolated_dwelling" />
		<tag k="ssr:stedsnr" v="690928" />
	</node>
	<node id="-248580" lat="60.0642611116" lon="11.0093027731">
		<tag k="landuse" v="winter_sports" />
		<tag k="name" v="Kniplia" />
		<tag k="piste:type" v="downhill" />
		<tag k="ssr:stedsnr" v="688047" />
	</node>
	<node id="-248579" lat="60.1088222225" lon="10.9897527783">
		<tag k="name" v="Steinbråtan" />
		<tag k="place" v="locality" />
		<tag k="ssr:stedsnr" v="509908" />
	</node>
	<node id="-248578" lat="60.0832055564" lon="11.0192972142">
		<tag k="name" v="Seop" />
		<tag k="place" v="isolated_dwelling" />
		<tag k="ssr:stedsnr" v="508910" />
	</node>
	<node id="-248577" lat="60.0784694475" lon="10.9976611026">
		<tag k="name" v="Hungerholt" />
		<tag k="place" v="isolated_dwelling" />
		<tag k="ssr:stedsnr" v="508907" />
	</node>
	<node id="-248576" lat="60.0727138902" lon="11.0343083417">
		<tag k="alt_name" v="Ask vestre" />
		<tag k="name" v="Vestre Ask" />
		<tag k="place" v="farm" />
		<tag k="ssr:stedsnr" v="508896" />
	</node>
	<node id="-248575" lat="60.0736111118" lon="11.027508342">
		<tag k="name" v="Grønnvoll" />
		<tag k="place" v="isolated_dwelling" />
		<tag k="ssr:stedsnr" v="508881" />
	</node>
	<node id="-248574" lat="60.1188999985" lon="10.9848833379">
		<tag k="alt_name" v="Kulpemyrene" />
		<tag k="name" v="Kulpmyra" />
		<tag k="natural" v="wetland" />
		<tag k="ssr:stedsnr" v="673677" />
	</node>
	<node id="-248573" lat="60.0977249987" lon="11.0418333421">
		<tag k="name" v="Kankedalen" />
		<tag k="natural" v="valley" />
		<tag k="place" v="locality" />
		<tag k="ssr:stedsnr" v="673620" />
	</node>
	<node id="-248572" lat="60.1058444441" lon="10.9550138807">
		<tag k="historic" v="shieling" />
		<tag k="name" v="Vangsvangen" />
		<tag k="place" v="locality" />
		<tag k="ssr:stedsnr" v="673617" />
	</node>
	<node id="-248571" lat="60.1015805514" lon="10.9996750081">
		<tag k="name" v="Mikkelsbekken" />
		<tag k="ssr:stedsnr" v="673612" />
		<tag k="waterway" v="stream" />
	</node>
	<node id="-248570" lat="60.104102781" lon="11.0483583359">
		<tag k="name" v="Kjærstadsletta" />
		<tag k="place" v="locality" />
		<tag k="ssr:stedsnr" v="673594" />
	</node>
	<node id="-248569" lat="60.1131611123" lon="10.936005549">
		<tag k="name" v="Årstadvangen" />
		<tag k="place" v="isolated_dwelling" />
		<tag k="ssr:stedsnr" v="673589" />
	</node>
	<node id="-248568" lat="60.0816388882" lon="11.000777783">
		<tag k="name" v="Horka" />
		<tag k="place" v="isolated_dwelling" />
		<tag k="ssr:stedsnr" v="673537" />
	</node>
	<node id="-248567" lat="60.0622250023" lon="11.0302444429">
		<tag k="alt_name" v="Brådal, søndre;Brådal søndre" />
		<tag k="name" v="Søndre Brådal" />
		<tag k="place" v="farm" />
		<tag k="ssr:stedsnr" v="673511" />
	</node>
	<node id="-248566" lat="60.0459416625" lon="10.9928388933">
		<tag k="name" v="Ringdalen" />
		<tag k="natural" v="valley" />
		<tag k="place" v="locality" />
		<tag k="ssr:stedsnr" v="673469" />
	</node>
	<node id="-248565" lat="60.045775" lon="10.9935305605">
		<tag k="alt_name" v="Ringdalshytta" />
		<tag k="name" v="Ringdalskoia" />
		<tag k="place" v="isolated_dwelling" />
		<tag k="ssr:stedsnr" v="673467" />
	</node>
	<node id="-248564" lat="60.0313416634" lon="11.0411694373">
		<tag k="alt_name" v="Flatner" />
		<tag k="name" v="Fløtten" />
		<tag k="place" v="farm" />
		<tag k="ssr:stedsnr" v="673435" />
	</node>
	<node id="-248563" lat="60.1008416627" lon="11.0659166685">
		<tag k="name" v="Tori" />
		<tag k="place" v="farm" />
		<tag k="ssr:stedsnr" v="672582" />
	</node>
	<node id="-248562" lat="60.0539611147" lon="11.0319499974">
		<tag k="alt_name" v="Flatby, søndre" />
		<tag k="name" v="Søndre Flatby" />
		<tag k="place" v="farm" />
		<tag k="ssr:stedsnr" v="672438" />
	</node>
	<node id="-248561" lat="60.1050305528" lon="11.0510805541">
		<tag k="name" v="Flaen" />
		<tag k="place" v="farm" />
		<tag k="ssr:stedsnr" v="448917" />
	</node>
	<node id="-248560" lat="60.1053555571" lon="11.0502750003">
		<tag k="name" v="Hellerud" />
		<tag k="place" v="farm" />
		<tag k="ssr:stedsnr" v="448913" />
	</node>
	<node id="-248559" lat="60.0720111132" lon="10.9722277773">
		<tag k="name" v="Kråkvålsmåsan" />
		<tag k="natural" v="wetland" />
		<tag k="ssr:stedsnr" v="448905" />
	</node>
	<node id="-248558" lat="60.0831916652" lon="10.9919166735">
		<tag k="name" v="Åmotsfjellet" />
		<tag k="natural" v="hill" />
		<tag k="place" v="locality" />
		<tag k="ssr:stedsnr" v="448904" />
	</node>
	<node id="-248557" lat="60.0900027803" lon="11.0930888949">
		<tag k="name" v="Gjerdrum" />
		<tag k="place" v="farm" />
		<tag k="ssr:stedsnr" v="448009" />
	</node>
	<node id="-248556" lat="60.0939388872" lon="10.9308777859">
		<tag k="historic" v="shieling" />
		<tag k="loc_name" v="Nebergsvangen" />
		<tag k="name" v="Nittebergvangen" />
		<tag k="place" v="locality" />
		<tag k="ssr:stedsnr" v="430618" />
	</node>
	<node id="-248555" lat="60.0541305591" lon="10.9544805499">
		<tag k="fixme" v="consider natural=peak for the most distinct mountains in the district" />
		<tag k="name" v="Lalaåsen" />
		<tag k="natural" v="hill" />
		<tag k="place" v="locality" />
		<tag k="ssr:stedsnr" v="430455" />
	</node>
	<node id="-248554" lat="60.0471749998" lon="11.0320666656">
		<tag k="name" v="Sagholen" />
		<tag k="place" v="isolated_dwelling" />
		<tag k="ssr:stedsnr" v="430434" />
	</node>
	<node id="-248553" lat="60.0451916679" lon="11.0033388966">
		<tag k="alt_name" v="Fjellstadvangen" />
		<tag k="historic" v="shieling" />
		<tag k="name" v="Fjælstadvangen" />
		<tag k="place" v="locality" />
		<tag k="ssr:stedsnr" v="430432" />
	</node>
	<node id="-248552" lat="60.0438916637" lon="11.0174638864">
		<tag k="alt_name" v="Ulvedalstjernet, søndre;Ulvedalstjern søndre" />
		<tag k="name" v="Søndre Ulvedalstjern" />
		<tag k="natural" v="water" />
		<tag k="ssr:stedsnr" v="430430" />
	</node>
	<node id="-248551" lat="60.0487583324" lon="11.0586194454">
		<tag k="name" v="Rud" />
		<tag k="place" v="farm" />
		<tag k="ssr:stedsnr" v="430424" />
	</node>
	<node id="-248550" lat="60.057255558" lon="11.024502784">
		<tag k="name" v="Flatbydammen" />
		<tag k="natural" v="water" />
		<tag k="ssr:stedsnr" v="509934" />
		<tag k="water" v="lake" />
	</node>
	<node id="-248549" lat="60.0508305555" lon="11.0465749986">
		<tag k="name" v="Svingen" />
		<tag k="place" v="farm" />
		<tag k="ssr:stedsnr" v="509899" />
	</node>
	<node id="-248548" lat="60.0812861135" lon="10.950633325">
		<tag k="name" v="Rogstadlia" />
		<tag k="natural" v="slope" />
		<tag k="place" v="locality" />
		<tag k="ssr:stedsnr" v="508925" />
	</node>
	<node id="-248547" lat="60.0820777795" lon="11.0863000021">
		<tag k="name" v="Gjeri" />
		<tag k="place" v="isolated_dwelling" />
		<tag k="ssr:stedsnr" v="508020" />
	</node>
	<node id="-248546" lat="60.1093916711" lon="11.0892972273">
		<tag k="name" v="Grønvoll" />
		<tag k="place" v="farm" />
		<tag k="ssr:stedsnr" v="508108" />
	</node>
	<node id="-248545" lat="60.0782305525" lon="11.0359416607">
		<tag k="name" v="Klokkerenga" />
		<tag k="place" v="farm" />
		<tag k="ssr:stedsnr" v="387872" />
	</node>
	<node id="-248544" lat="60.0963305542" lon="10.9707055589">
		<tag k="name" v="Molia" />
		<tag k="natural" v="slope" />
		<tag k="place" v="locality" />
		<tag k="ssr:stedsnr" v="387925" />
	</node>
	<node id="-248543" lat="60.0491666671" lon="11.0287249991">
		<tag k="name" v="Tuterud" />
		<tag k="place" v="farm" />
		<tag k="ssr:stedsnr" v="369404" />
	</node>
	<node id="-248542" lat="60.1166249962" lon="10.9267777812">
		<tag k="alt_name" v="Løvstadtjern" />
		<tag k="name" v="Løvstadtjernet" />
		<tag k="natural" v="water" />
		<tag k="ssr:stedsnr" v="491679" />
	</node>
	<node id="-248541" lat="60.1143000042" lon="11.087224993">
		<tag k="name" v="Smedhaugen" />
		<tag k="place" v="isolated_dwelling" />
		<tag k="ssr:stedsnr" v="491591" />
	</node>
	<node id="-248540" lat="60.0744138874" lon="11.0383499983">
		<tag k="alt_name" v="Ask, øvre;Ask store;Ask østre" />
		<tag k="name" v="Store Ask" />
		<tag k="place" v="farm" />
		<tag k="ssr:stedsnr" v="491581" />
	</node>
	<node id="-248539" lat="60.0712666648" lon="11.0377249997">
		<tag k="amenity" v="school" />
		<tag k="name" v="Gjerdrum barneskole" />
		<tag k="old_name" v="Ask skole" />
		<tag k="ssr:stedsnr" v="491576" />
	</node>
	<node id="-248538" lat="60.0743749976" lon="11.0082888831">
		<tag k="name" v="Nygård" />
		<tag k="place" v="farm" />
		<tag k="ssr:stedsnr" v="491566" />
	</node>
	<node id="-248537" lat="60.0667388865" lon="11.0157138863">
		<tag k="name" v="Modalen" />
		<tag k="natural" v="valley" />
		<tag k="place" v="locality" />
		<tag k="ssr:stedsnr" v="491530" />
	</node>
	<node id="-248536" lat="60.0928888848" lon="10.9958916642">
		<tag k="name" v="Kleivmyra" />
		<tag k="natural" v="wetland" />
		<tag k="ssr:stedsnr" v="490611" />
	</node>
	<node id="-248535" lat="60.0941888858" lon="10.9996222142">
		<tag k="name" v="Gistihaugen" />
		<tag k="place" v="isolated_dwelling" />
		<tag k="ssr:stedsnr" v="490605" />
	</node>
	<node id="-248534" lat="60.0965250041" lon="11.0599083335">
		<tag k="alt_name" v="Heni" />
		<tag k="amenity" v="place_of_worship" />
		<tag k="denomination" v="lutheran" />
		<tag k="name" v="Heni kirke" />
		<tag k="religion" v="christian" />
		<tag k="ssr:stedsnr" v="490583" />
	</node>
	<node id="-248533" lat="60.0808333291" lon="11.0279000084">
		<tag k="alt_name" v="Fossum, østre;Fossum" />
		<tag k="name" v="Østre Fossum" />
		<tag k="place" v="farm" />
		<tag k="ssr:stedsnr" v="490516" />
	</node>
	<node id="-248532" lat="60.0900249975" lon="11.0869472266">
		<tag k="alt_name" v="Gjerdrum" />
		<tag k="amenity" v="place_of_worship" />
		<tag k="denomination" v="lutheran" />
		<tag k="name" v="Gjerdrum kirke" />
		<tag k="religion" v="christian" />
		<tag k="ssr:stedsnr" v="490482" />
	</node>
	<node id="-248531" lat="60.0521000018" lon="11.0512111099">
		<tag k="alt_name" v="Skjærhaugen" />
		<tag k="name" v="Verning" />
		<tag k="place" v="farm" />
		<tag k="ssr:stedsnr" v="490453" />
	</node>
	<node id="-248530" lat="60.0440083332" lon="10.9671694491">
		<tag k="alt_name" v="Rundtjern" />
		<tag k="name" v="Rundetjern" />
		<tag k="natural" v="water" />
		<tag k="ssr:stedsnr" v="490436" />
	</node>
	<node id="-248529" lat="60.1027694405" lon="10.9721194373">
		<tag k="alt_name" v="Torshaugvangen" />
		<tag k="historic" v="shieling" />
		<tag k="loc_name" v="Tosovangen" />
		<tag k="name" v="Torshovvangen" />
		<tag k="place" v="locality" />
		<tag k="ssr:stedsnr" v="551596" />
	</node>
	<node id="-248528" lat="60.0681083368" lon="11.0389333425">
		<tag k="name" v="Hønsisletta" />
		<tag k="place" v="locality" />
		<tag k="ssr:stedsnr" v="327931" />
	</node>
	<node id="-248527" lat="60.1224138898" lon="10.9171694376">
		<tag k="name" v="Gjermenningsmåsan" />
		<tag k="natural" v="wetland" />
		<tag k="ssr:stedsnr" v="327912" />
	</node>
	<node id="-248526" lat="60.078786107" lon="11.0982083314">
		<tag k="name" v="Prestegardshagen" />
		<tag k="place" v="locality" />
		<tag k="ssr:stedsnr" v="326012" />
	</node>
	<node id="-248525" lat="60.1081944447" lon="11.0928333281">
		<tag k="name" v="Nordre Rogstad" />
		<tag k="place" v="farm" />
		<tag k="ssr:stedsnr" v="464397" />
	</node>
	<node id="-248524" lat="60.0974500015" lon="11.0571166683">
		<tag k="name" v="Heni" />
		<tag k="place" v="farm" />
		<tag k="ssr:stedsnr" v="265917" />
	</node>
	<node id="-248523" lat="60.0963916665" lon="11.0036555501">
		<tag k="name" v="Gisti" />
		<tag k="place" v="farm" />
		<tag k="ssr:stedsnr" v="248616" />
	</node>
	<node id="-248522" lat="60.1202333348" lon="11.0818361119">
		<tag k="alt_name" v="Løvstad, nordre;Løvstad" />
		<tag k="name" v="Nordre Løvstad" />
		<tag k="place" v="farm" />
		<tag k="ssr:stedsnr" v="248580" />
	</node>
	<node id="-248521" lat="60.0760194409" lon="11.0315777821">
		<tag k="alt_name" v="Ask, nedre;Ask vesle;Ask lille" />
		<tag k="name" v="Vesle Ask" />
		<tag k="place" v="farm" />
		<tag k="ssr:stedsnr" v="248560" />
	</node>
	<node id="-248520" lat="60.0714555549" lon="10.9466666711">
		<tag k="historic" v="shieling" />
		<tag k="name" v="Fossumvangen" />
		<tag k="place" v="locality" />
		<tag k="ssr:stedsnr" v="448972" />
	</node>
	<node id="-248519" lat="60.1102555584" lon="10.9195111052">
		<tag k="name" v="Trappemyrene" />
		<tag k="natural" v="wetland" />
		<tag k="ssr:stedsnr" v="448970" />
	</node>
	<node id="-248518" lat="60.053961115" lon="11.0465166689">
		<tag k="landuse" v="meadow" />
		<tag k="name" v="Asmyrenga" />
		<tag k="ssr:stedsnr" v="448940" />
	</node>
	<node id="-248517" lat="60.0582194407" lon="11.0528777785">
		<tag k="name" v="Tangeelva" />
		<tag k="ssr:stedsnr" v="448938" />
		<tag k="waterway" v="river" />
	</node>
	<node id="-248516" lat="60.0864749988" lon="10.9549277718">
		<tag k="historic" v="shieling" />
		<tag k="name" v="Skeisvangen" />
		<tag k="place" v="locality" />
		<tag k="ssr:stedsnr" v="448933" />
	</node>
	<node id="-248515" lat="60.07798611" lon="10.9538444523">
		<tag k="name" v="Rogstaddalen" />
		<tag k="natural" v="valley" />
		<tag k="place" v="locality" />
		<tag k="ssr:stedsnr" v="448925" />
	</node>
	<node id="-248514" lat="60.0725555521" lon="10.9974527749">
		<tag k="name" v="Kulsrudfjellet" />
		<tag k="place" v="quarter" />
		<tag k="ssr:stedsnr" v="445054" />
	</node>
	<node id="-248513" lat="60.0761777817" lon="11.0615083391">
		<tag k="bridge" v="yes" />
		<tag k="layer" v="1" />
		<tag k="name" v="Svendsrud" />
		<tag k="ssr:stedsnr" v="289832" />
	</node>
	<node id="-248512" lat="60.1087416639" lon="10.9287083316">
		<tag k="name" v="Sandumsvangslia" />
		<tag k="natural" v="slope" />
		<tag k="place" v="locality" />
		<tag k="ssr:stedsnr" v="266956" />
	</node>
	<node id="-248511" lat="60.091075002" lon="10.9768111181">
		<tag k="name" v="Gistisoten" />
		<tag k="natural" v="wetland" />
		<tag k="ssr:stedsnr" v="266935" />
	</node>
	<node id="-248510" lat="60.0966694408" lon="11.0312277744">
		<tag k="name" v="Kokstadhaugen" />
		<tag k="place" v="farm" />
		<tag k="ssr:stedsnr" v="266905" />
	</node>
	<node id="-248509" lat="60.085327781" lon="11.0219750057">
		<tag k="name" v="Fossum" />
		<tag k="place" v="farm" />
		<tag k="ssr:stedsnr" v="266900" />
	</node>
	<node id="-248508" lat="60.0729166688" lon="11.0822833325">
		<tag k="alt_name" v="Olstad søndre" />
		<tag k="name" v="Søndre Olstad" />
		<tag k="place" v="farm" />
		<tag k="ssr:stedsnr" v="266117" />
	</node>
	<node id="-248507" lat="60.1069805543" lon="11.0946277777">
		<tag k="name" v="Søndre Rogstad" />
		<tag k="place" v="farm" />
		<tag k="ssr:stedsnr" v="100364" />
	</node>
	<node id="-248506" lat="60.0500166681" lon="11.0256388846">
		<tag k="name" v="Kjestinamyra" />
		<tag k="natural" v="wetland" />
		<tag k="ssr:stedsnr" v="84970" />
	</node>
	<node id="-248505" lat="60.065969444" lon="11.039811116">
		<tag k="amenity" v="nursing_home" />
		<tag k="name" v="Gjerdrum aldershjem" />
		<tag k="ssr:stedsnr" v="84968" />
	</node>
	<node id="-248504" lat="60.1016777741" lon="11.0499166746">
		<tag k="junction" v="yes" />
		<tag k="name" v="Korsmo" />
		<tag k="place" v="locality" />
		<tag k="ssr:stedsnr" v="84926" />
	</node>
	<node id="-248503" lat="60.080780558" lon="11.011800001">
		<tag k="name" v="Kulsrudbekken" />
		<tag k="ssr:stedsnr" v="84917" />
		<tag k="waterway" v="stream" />
	</node>
	<node id="-248502" lat="60.0861166635" lon="11.0925249911">
		<tag k="name" v="Prestegarden" />
		<tag k="place" v="farm" />
		<tag k="ssr:stedsnr" v="84017" />
	</node>
	<node id="-248501" lat="60.0813499982" lon="11.0898138858">
		<tag k="name" v="Østvoll" />
		<tag k="place" v="farm" />
		<tag k="ssr:stedsnr" v="84015" />
	</node>
	<node id="-248500" lat="60.0887500028" lon="11.1043055559">
		<tag k="name" v="Østenga" />
		<tag k="place" v="farm" />
		<tag k="ssr:stedsnr" v="84012" />
	</node>
	<node id="-248499" lat="60.0808000021" lon="10.9894416625">
		<tag k="name" v="Lysdammen" />
		<tag k="natural" v="water" />
		<tag k="ssr:stedsnr" v="248515" />
	</node>
	<node id="-248498" lat="60.091233335" lon="11.07202223">
		<tag k="name" v="Vang" />
		<tag k="place" v="farm" />
		<tag k="ssr:stedsnr" v="248496" />
	</node>
	<node id="-248497" lat="60.0510249994" lon="11.0426305585">
		<tag k="name" v="Asmyr" />
		<tag k="place" v="farm" />
		<tag k="ssr:stedsnr" v="248462" />
	</node>
	<node id="-248496" lat="60.0564166702" lon="11.0329777805">
		<tag k="alt_name" v="Flatby, nordre;Flatby nordre" />
		<tag k="name" v="Nordre Flatby" />
		<tag k="place" v="farm" />
		<tag k="ssr:stedsnr" v="248460" />
	</node>
	<node id="-248495" lat="60.0458361102" lon="10.9626500044">
		<tag k="alt_name" v="Skututjern" />
		<tag k="name" v="Skutetjerna" />
		<tag k="natural" v="water" />
		<tag k="ssr:stedsnr" v="248443" />
	</node>
	<node id="-248494" lat="60.044450002" lon="11.0542555578">
		<tag k="name" v="Holt" />
		<tag k="place" v="isolated_dwelling" />
		<tag k="ssr:stedsnr" v="248438" />
	</node>
	<node id="-248493" lat="60.0914500009" lon="11.0203333343">
		<tag k="alt_name" v="Åmot vestre" />
		<tag k="name" v="Åmot" />
		<tag k="place" v="farm" />
		<tag k="ssr:stedsnr" v="248398" />
	</node>
	<node id="-248492" lat="60.0604555574" lon="10.9565055472">
		<tag k="name" v="Busterudvangen" />
		<tag k="place" v="isolated_dwelling" />
		<tag k="ssr:stedsnr" v="66442" />
	</node>
	<node id="-248491" lat="60.0547861084" lon="10.9763250074">
		<tag k="alt_name" v="Jordmyrene" />
		<tag k="name" v="Jordmyrane" />
		<tag k="natural" v="wetland" />
		<tag k="ssr:stedsnr" v="66440" />
	</node>
	<node id="-248490" lat="60.0420666629" lon="11.0437000081">
		<tag k="name" v="Gauterud" />
		<tag k="place" v="farm" />
		<tag k="ssr:stedsnr" v="66418" />
	</node>
</osm>
