<?xml version="1.0" encoding="UTF-8"?>
<<<<<<< HEAD
<osm version="0.6" generator="osmapis">
	<node lat="60.09451563194217" lon="11.041484717635461" id="-12868">
		<tag k="fixme" v="consider place=hamlet" />
		<tag k="name" v="Ljøreggen" />
		<tag k="place" v="farm" />
		<tag k="ssr:stedsnr" v="5480" />
	</node>
	<node lat="60.1079749987941" lon="11.0369805607424" id="-12869">
		<tag k="name" v="Oddeggen" />
		<tag k="place" v="farm" />
		<tag k="ssr:stedsnr" v="6605" />
	</node>
	<node lat="60.04206010645056" lon="11.04562678459895" id="-12871">
		<tag k="fixme" v="consider place=hamlet" />
		<tag k="name" v="Gauterud" />
		<tag k="place" v="farm" />
		<tag k="ssr:stedsnr" v="66418" />
	</node>
	<node lat="60.10549882533294" lon="10.989152332521524" id="-12872">
		<tag k="alt_name" v="Trolsnes" />
		<tag k="fixme" v="consider place=hamlet" />
		<tag k="name" v="Trollsnes" />
		<tag k="place" v="farm" />
		<tag k="ssr:stedsnr" v="66560" />
	</node>
	<node lat="60.10757364621982" lon="11.048930784517648" id="-12873">
		<tag k="fixme" v="consider place=hamlet" />
		<tag k="name" v="Kjærstad" />
		<tag k="place" v="farm" />
		<tag k="ssr:stedsnr" v="66564" />
	</node>
	<node lat="60.088750002781175" lon="11.104305555913076" id="-12874">
=======
<osm generator="osmapis" version="0.6">
	<node id="-260096" lat="60.0729166688" lon="11.0822833325">
		<tag k="alt_name" v="Olstad søndre" />
		<tag k="name" v="Søndre Olstad" />
		<tag k="place" v="farm" />
		<tag k="ssr:stedsnr" v="266117" />
	</node>
	<node id="-260095" lat="60.1069805543" lon="11.0946277777">
		<tag k="name" v="Søndre Rogstad" />
		<tag k="place" v="farm" />
		<tag k="ssr:stedsnr" v="100364" />
	</node>
	<node id="-260093" lat="60.065969444" lon="11.039811116">
		<tag k="amenity" v="nursing_home" />
		<tag k="name" v="Gjerdrum aldershjem" />
		<tag k="ssr:stedsnr" v="84968" />
	</node>
	<node id="-260090" lat="60.0861166635" lon="11.0925249911">
		<tag k="name" v="Prestegarden" />
		<tag k="place" v="farm" />
		<tag k="ssr:stedsnr" v="84017" />
	</node>
	<node id="-260089" lat="60.0813499982" lon="11.0898138858">
		<tag k="name" v="Østvoll" />
		<tag k="place" v="farm" />
		<tag k="ssr:stedsnr" v="84015" />
	</node>
	<node id="-260088" lat="60.0887500028" lon="11.1043055559">
>>>>>>> e1d4bc35ff8a6074a6f2e91616a996b547c36f15
		<tag k="name" v="Østenga" />
		<tag k="place" v="farm" />
		<tag k="ssr:stedsnr" v="84012" />
	</node>
<<<<<<< HEAD
	<node lat="60.095261719308134" lon="11.088078549258595" id="-12875">
		<tag k="name" v="Torshov" />
		<tag k="place" v="farm" />
		<tag k="ssr:stedsnr" v="84137" />
	</node>
	<node lat="60.09521111035953" lon="11.055063886963236" id="-12880">
		<tag k="name" v="Årstad" />
		<tag k="place" v="farm" />
		<tag k="ssr:stedsnr" v="84933" />
	</node>
	<node lat="60.0885222195257" lon="11.029497213447105" id="-12882">
		<tag k="name" v="Fossum" />
		<tag k="place" v="farm" />
		<tag k="ssr:stedsnr" v="84890" />
	</node>
	<node lat="60.10698055434869" lon="11.094627777720007" id="-12883">
		<tag k="name" v="Søndre Rogstad" />
		<tag k="place" v="farm" />
		<tag k="ssr:stedsnr" v="100364" />
	</node>
	<node lat="60.09145000091627" lon="11.020333334279766" id="-12884">
		<tag k="alt_name" v="Åmot vestre" />
		<tag k="name" v="Åmot" />
		<tag k="place" v="farm" />
		<tag k="ssr:stedsnr" v="248398" />
	</node>
	<node lat="60.04445000200004" lon="11.054255557812937" id="-12885">
		<tag k="name" v="Holt" />
		<tag k="place" v="isolated_dwelling" />
		<tag k="ssr:stedsnr" v="248438" />
	</node>
	<node lat="60.09213653325433" lon="11.073169688594039" id="-12887">
		<tag k="name" v="Vang" />
		<tag k="place" v="hamlet" />
		<tag k="ssr:stedsnr" v="248496" />
	</node>
	<node lat="60.12023333482529" lon="11.081836111878191" id="-12888">
		<tag k="alt_name" v="Løvstad, nordre" />
		<tag k="name" v="Nordre Løvstad" />
		<tag k="place" v="farm" />
		<tag k="ssr:stedsnr" v="248580" />
	</node>
	<node lat="60.08334722290094" lon="10.998844442439099" id="-12889">
		<tag k="amenity" v="school" />
		<tag k="name" v="Veståsen skole" />
		<tag k="ssr:stedsnr" v="119715" />
	</node>
	<node lat="60.107371555904294" lon="11.095000537659342" id="-12894">
		<tag k="name" v="Rogstad" />
		<tag k="place" v="hamlet" />
		<tag k="ssr:stedsnr" v="187108" />
	</node>
	<node lat="60.09997860782197" lon="11.02269511815317" id="-12897">
		<tag k="fixme" v="consider place=hamlet" />
		<tag k="name" v="Vestby" />
		<tag k="place" v="farm" />
		<tag k="ssr:stedsnr" v="188645" />
	</node>
	<node lat="60.085327780951474" lon="11.02197500566568" id="-12898">
		<tag k="name" v="Fossum" />
		<tag k="place" v="farm" />
		<tag k="ssr:stedsnr" v="266900" />
	</node>
	<node lat="60.056222446833495" lon="11.032285320084496" id="-12901">
		<tag k="alt_name" v="Flatby, nordre;Flatby nordre" />
		<tag k="fixme" v="consider place=hamlet" />
		<tag k="name" v="Nordre Flatby" />
		<tag k="place" v="farm" />
		<tag k="ssr:stedsnr" v="248460" />
	</node>
	<node lat="60.05076806967508" lon="11.042991334749072" id="-12902">
		<tag k="fixme" v="consider place=hamlet" />
		<tag k="name" v="Asmyr" />
		<tag k="place" v="farm" />
		<tag k="ssr:stedsnr" v="248462" />
	</node>
	<node lat="60.09627722493639" lon="11.003341415237024" id="-12903">
		<tag k="fixme" v="consider place=hamlet" />
		<tag k="name" v="Gisti" />
		<tag k="place" v="farm" />
		<tag k="ssr:stedsnr" v="248616" />
	</node>
	<node lat="60.076018958439334" lon="11.031571766685191" id="-12905">
		<tag k="alt_name" v="Ask, nedre;Ask vesle;Ask lille" />
		<tag k="fixme" v="consider place=hamlet" />
		<tag k="name" v="Vesle Ask" />
		<tag k="place" v="farm" />
		<tag k="ssr:stedsnr" v="248560" />
	</node>
	<node lat="60.097450001462875" lon="11.057116668287504" id="-12906">
		<tag k="name" v="Heni" />
		<tag k="place" v="farm" />
		<tag k="ssr:stedsnr" v="265917" />
	</node>
	<node lat="60.07291666881856" lon="11.082283332545268" id="-12907">
		<tag k="alt_name" v="Olstad søndre" />
		<tag k="name" v="Søndre Olstad" />
		<tag k="place" v="farm" />
		<tag k="ssr:stedsnr" v="266117" />
	</node>
	<node lat="60.09666944077385" lon="11.031227774390286" id="-12908">
		<tag k="name" v="Kokstadhaugen" />
		<tag k="place" v="farm" />
		<tag k="ssr:stedsnr" v="266905" />
	</node>
	<node lat="60.10819444465533" lon="11.09283332810999" id="-12911">
		<tag k="name" v="Nordre Rogstad" />
		<tag k="place" v="farm" />
		<tag k="ssr:stedsnr" v="464397" />
	</node>
	<node lat="60.042925001559674" lon="11.058147219893632" id="-12913">
		<tag k="name" v="Skaugom" />
		<tag k="place" v="farm" />
		<tag k="ssr:stedsnr" v="308398" />
	</node>
	<node lat="60.049166667105546" lon="11.028724999053855" id="-12917">
		<tag k="name" v="Tuterud" />
		<tag k="place" v="farm" />
		<tag k="ssr:stedsnr" v="369404" />
	</node>
	<node lat="60.0909611116315" lon="10.99980278192324" id="-12920">
		<tag k="name" v="Mellom" />
		<tag k="place" v="farm" />
		<tag k="ssr:stedsnr" v="369568" />
	</node>
	<node lat="60.0946861110283" lon="11.021772219299638" id="-12921">
		<tag k="alt_name" v="Åmot østre" />
		<tag k="name" v="Åmot" />
		<tag k="place" v="farm" />
		<tag k="ssr:stedsnr" v="369570" />
	</node>
	<node lat="60.07852222391476" lon="11.079933335645865" id="-12922">
		<tag k="name" v="Solheim" />
		<tag k="place" v="quarter" />
		<tag k="ssr:stedsnr" v="384062" />
	</node>
	<node lat="60.088497219968794" lon="11.101391658085305" id="-12923">
		<tag k="name" v="Blånet" />
		<tag k="place" v="farm" />
		<tag k="ssr:stedsnr" v="387011" />
	</node>
	<node lat="60.07655555668877" lon="11.074222215562985" id="-12924">
		<tag k="name" v="Nordli" />
		<tag k="place" v="isolated_dwelling" />
		<tag k="ssr:stedsnr" v="387132" />
	</node>
	<node lat="60.052100001755925" lon="11.051211109925466" id="-12925">
		<tag k="alt_name" v="Skjærhaugen" />
		<tag k="name" v="Verning" />
		<tag k="place" v="farm" />
		<tag k="ssr:stedsnr" v="490453" />
	</node>
	<node lat="60.048823314432695" lon="11.058280552724339" id="-12927">
		<tag k="fixme" v="consider place=hamlet" />
		<tag k="name" v="Rud" />
		<tag k="place" v="farm" />
		<tag k="ssr:stedsnr" v="430424" />
	</node>
	<node lat="60.066277511287694" lon="11.087786332551898" id="-12929">
		<tag k="name" v="Sørum" />
		<tag k="place" v="hamlet" />
		<tag k="ssr:stedsnr" v="430466" />
	</node>
	<node lat="60.10317777330118" lon="11.06115000619241" id="-12930">
		<tag k="name" v="Korsmo" />
		<tag k="place" v="farm" />
		<tag k="ssr:stedsnr" v="430398" />
	</node>
	<node lat="60.07437499757372" lon="11.008288883134698" id="-12931">
		<tag k="name" v="Nygård" />
		<tag k="place" v="farm" />
		<tag k="ssr:stedsnr" v="491566" />
	</node>
	<node lat="60.09000278032831" lon="11.093088894893397" id="-12932">
		<tag k="name" v="Gjerdrum" />
		<tag k="place" v="farm" />
		<tag k="ssr:stedsnr" v="448009" />
	</node>
	<node lat="60.10535555707295" lon="11.05027500026186" id="-12935">
		<tag k="name" v="Hellerud" />
		<tag k="place" v="farm" />
		<tag k="ssr:stedsnr" v="448913" />
	</node>
	<node lat="60.10503055282463" lon="11.051080554127028" id="-12936">
		<tag k="name" v="Flaen" />
		<tag k="place" v="farm" />
		<tag k="ssr:stedsnr" v="448917" />
	</node>
	<node lat="60.087847249314855" lon="11.065647573007434" id="-12940">
		<tag k="fixme" v="consider place=hamlet" />
		<tag k="name" v="Tveit" />
		<tag k="place" v="farm" />
		<tag k="ssr:stedsnr" v="672464" />
	</node>
	<node lat="60.0542898673447" lon="11.03189846424872" id="-12941">
		<tag k="alt_name" v="Flatby, søndre" />
		<tag k="fixme" v="consider place=hamlet" />
		<tag k="name" v="Søndre Flatby" />
		<tag k="place" v="farm" />
		<tag k="ssr:stedsnr" v="672438" />
	</node>
	<node lat="60.101698659498204" lon="11.065068533885944" id="-12942">
		<tag k="name" v="Tori" />
		<tag k="place" v="hamlet" />
		<tag k="ssr:stedsnr" v="672582" />
	</node>
	<node lat="60.03134166336569" lon="11.041169437336045" id="-12943">
		<tag k="alt_name" v="Flatner" />
		<tag k="name" v="Fløtten" />
		<tag k="place" v="farm" />
		<tag k="ssr:stedsnr" v="673435" />
	</node>
	<node lat="60.08163888822763" lon="11.000777783026054" id="-12944">
		<tag k="name" v="Horka" />
		<tag k="place" v="isolated_dwelling" />
		<tag k="ssr:stedsnr" v="673537" />
	</node>
	<node lat="60.11316111232037" lon="10.936005548980592" id="-12945">
		<tag k="name" v="Årstadvangen" />
		<tag k="place" v="isolated_dwelling" />
		<tag k="ssr:stedsnr" v="673589" />
	</node>
	<node lat="60.094188885820884" lon="10.999622214166186" id="-12949">
		<tag k="name" v="Gistihaugen" />
		<tag k="place" v="isolated_dwelling" />
		<tag k="ssr:stedsnr" v="490605" />
	</node>
	<node lat="60.08083332908699" lon="11.027900008415646" id="-12951">
		<tag k="alt_name" v="Fossum, østre;Fossum" />
		<tag k="name" v="Østre Fossum" />
		<tag k="place" v="farm" />
		<tag k="ssr:stedsnr" v="490516" />
	</node>
	<node lat="60.07126666482208" lon="11.037724999685327" id="-12954">
		<tag k="amenity" v="school" />
		<tag k="name" v="Gjerdrum barneskole" />
		<tag k="old_name" v="Ask skole" />
		<tag k="ssr:stedsnr" v="491576" />
	</node>
	<node lat="60.074413887350325" lon="11.03834999829974" id="-12955">
		<tag k="alt_name" v="Ask, øvre;Ask store;Ask østre" />
		<tag k="name" v="Store Ask" />
		<tag k="place" v="farm" />
		<tag k="ssr:stedsnr" v="491581" />
	</node>
	<node lat="60.114300004189424" lon="11.08722499301523" id="-12956">
		<tag k="name" v="Smedhaugen" />
		<tag k="place" v="isolated_dwelling" />
		<tag k="ssr:stedsnr" v="491591" />
	</node>
	<node lat="60.10939167110584" lon="11.089297227268395" id="-12958">
		<tag k="name" v="Grønvoll" />
		<tag k="place" v="farm" />
		<tag k="ssr:stedsnr" v="508108" />
	</node>
	<node lat="60.07265169461138" lon="11.033965280188344" id="-12959">
		<tag k="alt_name" v="Ask vestre" />
		<tag k="fixme" v="consider place=hamlet" />
		<tag k="name" v="Vestre Ask" />
=======
	<node id="-260086" lat="60.091233335" lon="11.07202223">
		<tag k="name" v="Vang" />
		<tag k="place" v="farm" />
		<tag k="ssr:stedsnr" v="248496" />
	</node>
	<node id="-260085" lat="60.0510249994" lon="11.0426305585">
		<tag k="name" v="Asmyr" />
		<tag k="place" v="farm" />
		<tag k="ssr:stedsnr" v="248462" />
	</node>
	<node id="-260084" lat="60.0564166702" lon="11.0329777805">
		<tag k="alt_name" v="Flatby, nordre;Flatby nordre" />
		<tag k="name" v="Nordre Flatby" />
		<tag k="place" v="farm" />
		<tag k="ssr:stedsnr" v="248460" />
	</node>
	<node id="-260082" lat="60.044450002" lon="11.0542555578">
		<tag k="name" v="Holt" />
		<tag k="place" v="isolated_dwelling" />
		<tag k="ssr:stedsnr" v="248438" />
	</node>
	<node id="-260081" lat="60.0914500009" lon="11.0203333343">
		<tag k="alt_name" v="Åmot vestre" />
		<tag k="name" v="Åmot" />
		<tag k="place" v="farm" />
		<tag k="ssr:stedsnr" v="248398" />
	</node>
	<node id="-260080" lat="60.0604555574" lon="10.9565055472">
		<tag k="name" v="Busterudvangen" />
		<tag k="place" v="isolated_dwelling" />
		<tag k="ssr:stedsnr" v="66442" />
	</node>
	<node id="-260078" lat="60.0420666629" lon="11.0437000081">
		<tag k="name" v="Gauterud" />
		<tag k="place" v="farm" />
		<tag k="ssr:stedsnr" v="66418" />
	</node>
	<node id="-260409" lat="60.0553514823" lon="11.0512605514">
		<tag k="fixme" v="consider place=hamlet" />
		<tag k="name" v="Nordre Fjælstad" />
		<tag k="place" v="farm" />
		<tag k="ssr:stedsnr" v="978286" />
	</node>
	<node id="-260401" lat="60.0738583356" lon="11.0173277839">
		<tag k="name" v="Kulsrud" />
		<tag k="place" v="farm" />
		<tag k="ssr:stedsnr" v="872890" />
	</node>
	<node id="-260400" lat="60.0822527785" lon="11.0351166654">
		<tag k="name" v="Nordvoll" />
		<tag k="place" v="farm" />
		<tag k="ssr:stedsnr" v="872880" />
	</node>
	<node id="-260398" lat="60.087255558" lon="11.0155277793">
		<tag k="alt_name" v="Rud, vestre;Rud" />
		<tag k="name" v="Vestre Rud" />
		<tag k="place" v="farm" />
		<tag k="ssr:stedsnr" v="855630" />
	</node>
	<node id="-260396" lat="60.1137805524" lon="10.9959499961">
		<tag k="name" v="Rustad" />
		<tag k="place" v="farm" />
		<tag k="ssr:stedsnr" v="855694" />
	</node>
	<node id="-260395" lat="60.0824833366" lon="11.0034249998">
		<tag k="alt_name" v="Bråtan, øvre" />
		<tag k="name" v="Åmotsbråtan" />
		<tag k="place" v="farm" />
		<tag k="ssr:stedsnr" v="855500" />
	</node>
	<node id="-260394" lat="60.0859083362" lon="11.0136833308">
		<tag k="alt_name" v="Rud, søndre" />
		<tag k="name" v="Søndre Rud" />
		<tag k="place" v="farm" />
		<tag k="ssr:stedsnr" v="855487" />
	</node>
	<node id="-260393" lat="60.0992500036" lon="11.0056833299">
		<tag k="name" v="Eikeberg" />
		<tag k="place" v="farm" />
		<tag k="ssr:stedsnr" v="855603" />
	</node>
	<node id="-260392" lat="60.107599997" lon="10.9954305572">
		<tag k="name" v="Dølienga" />
		<tag k="place" v="farm" />
		<tag k="ssr:stedsnr" v="855582" />
	</node>
	<node id="-260389" lat="60.063655559" lon="11.0487000052">
		<tag k="alt_name" v="Fjellstad;Fjelstad" />
		<tag k="name" v="Fjælstad" />
		<tag k="place" v="hamlet" />
		<tag k="ssr:stedsnr" v="829485" />
	</node>
	<node id="-260383" lat="60.1009777801" lon="11.0777888907">
		<tag k="name" v="Belstad" />
		<tag k="place" v="isolated_dwelling" />
		<tag k="ssr:stedsnr" v="812122" />
	</node>
	<node id="-260380" lat="60.1093833306" lon="11.0766888817">
		<tag k="name" v="Berg" />
		<tag k="place" v="farm" />
		<tag k="ssr:stedsnr" v="794580" />
	</node>
	<node id="-260379" lat="60.1048333312" lon="11.0651055476">
		<tag k="name" v="Sandvoll" />
		<tag k="place" v="farm" />
		<tag k="ssr:stedsnr" v="794578" />
	</node>
	<node id="-260378" lat="60.1045166662" lon="11.0600666611">
		<tag k="name" v="Mo" />
		<tag k="place" v="farm" />
		<tag k="ssr:stedsnr" v="794577" />
	</node>
	<node id="-260368" lat="60.07415556" lon="11.0245861124">
		<tag k="name" v="Nyland" />
		<tag k="place" v="farm" />
		<tag k="ssr:stedsnr" v="751898" />
	</node>
	<node id="-260367" lat="60.0625861098" lon="11.0651138884">
		<tag k="name" v="Hvalstad" />
		<tag k="place" v="locality" />
		<tag k="ssr:stedsnr" v="751117" />
	</node>
	<node id="-260366" lat="60.1073388921" lon="11.0929222175">
		<tag k="name" v="Søndre Rogstad" />
		<tag k="place" v="farm" />
		<tag k="ssr:stedsnr" v="646375" />
	</node>
	<node id="-260365" lat="60.103902779" lon="11.0198416739">
		<tag k="name" v="Nøysom" />
		<tag k="place" v="farm" />
		<tag k="ssr:stedsnr" v="630881" />
	</node>
	<node id="-260363" lat="60.0836000027" lon="11.0424583325">
		<tag k="name" v="Kråkvål" />
		<tag k="place" v="farm" />
		<tag k="ssr:stedsnr" v="629898" />
	</node>
	<node id="-260362" lat="60.0705027809" lon="11.0202777806">
		<tag k="name" v="Berger" />
		<tag k="place" v="isolated_dwelling" />
		<tag k="ssr:stedsnr" v="629890" />
	</node>
	<node id="-260356" lat="60.0940916707" lon="11.1027249941">
		<tag k="name" v="Leirud" />
		<tag k="place" v="farm" />
		<tag k="ssr:stedsnr" v="612078" />
	</node>
	<node id="-260355" lat="60.0505916643" lon="11.0907416721">
		<tag k="alt_name" v="Sørumstangen" />
		<tag k="name" v="Tangen" />
		<tag k="place" v="farm" />
		<tag k="ssr:stedsnr" v="611471" />
	</node>
	<node id="-260349" lat="60.109200004" lon="11.0562472253">
		<tag k="name" v="Lundby" />
		<tag k="place" v="farm" />
		<tag k="ssr:stedsnr" v="569888" />
	</node>
	<node id="-260348" lat="60.1084138849" lon="11.0551777857">
		<tag k="name" v="Kjærstad" />
		<tag k="place" v="farm" />
		<tag k="ssr:stedsnr" v="569882" />
	</node>
	<node id="-260347" lat="60.1062833373" lon="11.0521916678">
		<tag k="name" v="Ramsli" />
		<tag k="place" v="isolated_dwelling" />
		<tag k="ssr:stedsnr" v="569880" />
	</node>
	<node id="-260346" lat="60.0912500039" lon="11.0266999942">
		<tag k="alt_name" v="Åmot østre" />
		<tag k="name" v="Østre Åmot" />
		<tag k="place" v="farm" />
		<tag k="ssr:stedsnr" v="569873" />
	</node>
	<node id="-260343" lat="60.0751527745" lon="11.0285277824">
		<tag k="name" v="Bjørklund" />
		<tag k="place" v="isolated_dwelling" />
		<tag k="ssr:stedsnr" v="568864" />
	</node>
	<node id="-260340" lat="60.0791055594" lon="11.0739611081">
		<tag k="alt_name" v="Smedstad;Smedstad søndre" />
		<tag k="name" v="Søndre Smedstad" />
		<tag k="place" v="farm" />
		<tag k="ssr:stedsnr" v="551509" />
	</node>
	<node id="-260339" lat="60.0805083376" lon="11.0524361096">
		<tag k="name" v="Askenga" />
		<tag k="place" v="farm" />
		<tag k="ssr:stedsnr" v="551507" />
	</node>
	<node id="-260338" lat="60.0876777817" lon="11.0249972247">
		<tag k="name" v="Fossum" />
		<tag k="place" v="farm" />
		<tag k="ssr:stedsnr" v="551492" />
	</node>
	<node id="-260335" lat="60.046194441" lon="11.066277781">
		<tag k="alt_name" v="Ramdal" />
		<tag k="name" v="Ramdalen" />
		<tag k="place" v="farm" />
		<tag k="ssr:stedsnr" v="551428" />
	</node>
	<node id="-260332" lat="60.0775499957" lon="11.0510666636">
		<tag k="name" v="Løken" />
		<tag k="place" v="farm" />
		<tag k="ssr:stedsnr" v="430524" />
	</node>
	<node id="-260331" lat="60.085300001" lon="11.0791305538">
		<tag k="name" v="Smedstad" />
		<tag k="place" v="farm" />
		<tag k="ssr:stedsnr" v="430514" />
	</node>
	<node id="-260329" lat="60.0688999978" lon="11.0415805543">
		<tag k="name" v="Hønsi" />
		<tag k="place" v="farm" />
		<tag k="ssr:stedsnr" v="430472" />
	</node>
	<node id="-260328" lat="60.0664250001" lon="11.0873777726">
		<tag k="name" v="Sørum" />
		<tag k="place" v="farm" />
		<tag k="ssr:stedsnr" v="430466" />
	</node>
	<node id="-260327" lat="60.1031777733" lon="11.0611500062">
		<tag k="name" v="Korsmo" />
		<tag k="place" v="farm" />
		<tag k="ssr:stedsnr" v="430398" />
	</node>
	<node id="-260326" lat="60.0876277807" lon="11.1031250004">
		<tag k="name" v="Elverud" />
		<tag k="place" v="farm" />
		<tag k="ssr:stedsnr" v="430081" />
	</node>
	<node id="-260324" lat="60.063655559" lon="11.0487000052">
		<tag k="name" v="Nedre Fjælstad" />
		<tag k="place" v="farm" />
		<tag k="ssr:stedsnr" v="404034" />
	</node>
	<node id="-260323" lat="60.0351666703" lon="11.0470666758">
		<tag k="name" v="Fjeldly" />
>>>>>>> e1d4bc35ff8a6074a6f2e91616a996b547c36f15
		<tag k="place" v="farm" />
		<tag k="ssr:stedsnr" v="387928" />
	</node>
<<<<<<< HEAD
	<node lat="60.07833719943595" lon="10.997608681695205" id="-12960">
		<tag k="fixme" v="consider place=hamlet" />
		<tag k="name" v="Hungerholt" />
		<tag k="place" v="farm" />
		<tag k="ssr:stedsnr" v="508907" />
	</node>
	<node lat="60.08320555639807" lon="11.019297214166821" id="-12961">
		<tag k="name" v="Seop" />
		<tag k="place" v="isolated_dwelling" />
		<tag k="ssr:stedsnr" v="508910" />
	</node>
	<node lat="60.08050833759058" lon="11.052436109631515" id="-12965">
		<tag k="name" v="Askenga" />
		<tag k="place" v="farm" />
		<tag k="ssr:stedsnr" v="551507" />
	</node>
	<node lat="60.07910555936705" lon="11.073961108133608" id="-12966">
		<tag k="alt_name" v="Smedstad søndre" />
		<tag k="name" v="Søndre Smedstad" />
		<tag k="place" v="farm" />
		<tag k="ssr:stedsnr" v="551509" />
	</node>
	<node lat="60.08733565663607" lon="11.02514756020871" id="-12967">
		<tag k="name" v="Fossum" />
		<tag k="place" v="hamlet" />
		<tag k="ssr:stedsnr" v="551492" />
	</node>
	<node lat="60.06426111158583" lon="11.009302773144896" id="-12968">
		<tag k="landuse" v="winter_sports" />
		<tag k="name" v="Kniplia" />
		<tag k="piste:type" v="downhill" />
		<tag k="ssr:stedsnr" v="688047" />
	</node>
	<node lat="60.0751527745395" lon="11.028527782427298" id="-12971">
		<tag k="name" v="Bjørklund" />
		<tag k="place" v="isolated_dwelling" />
		<tag k="ssr:stedsnr" v="568864" />
	</node>
	<node lat="60.08627532645412" lon="11.017625555798288" id="-12975">
		<tag k="alt_name" v="Rud, østre" />
		<tag k="name" v="Østre Rud" />
		<tag k="place" v="farm" />
		<tag k="ssr:stedsnr" v="611502" />
	</node>
	<node lat="60.09409167066045" lon="11.102724994061804" id="-12976">
		<tag k="name" v="Leirud" />
		<tag k="place" v="farm" />
		<tag k="ssr:stedsnr" v="612078" />
	</node>
	<node lat="60.07611666567564" lon="11.00877500341959" id="-12980">
		<tag k="alt_name" v="Kulsrud, nordre" />
		<tag k="name" v="Kulsrud" />
		<tag k="place" v="farm" />
		<tag k="ssr:stedsnr" v="612561" />
	</node>
	<node lat="60.075230552943815" lon="10.995783329093648" id="-12981">
		<tag k="name" v="Grønlundfjellet" />
		<tag k="place" v="quarter" />
		<tag k="ssr:stedsnr" v="627057" />
	</node>
	<node lat="60.07050278092354" lon="11.020277780638114" id="-12983">
		<tag k="name" v="Berger" />
		<tag k="place" v="isolated_dwelling" />
		<tag k="ssr:stedsnr" v="629890" />
	</node>
	<node lat="60.107338892143844" lon="11.09292221747485" id="-12984">
		<tag k="name" v="Søndre Rogstad" />
		<tag k="place" v="farm" />
		<tag k="ssr:stedsnr" v="646375" />
	</node>
	<node lat="60.04577499996861" lon="10.993530560457845" id="-12985">
		<tag k="alt_name" v="Ringdalshytta" />
		<tag k="name" v="Ringdalskoia" />
		<tag k="place" v="isolated_dwelling" />
		<tag k="ssr:stedsnr" v="673467" />
	</node>
	<node lat="60.062225002342515" lon="11.03024444291669" id="-12990">
		<tag k="alt_name" v="Brådal, søndre;Brådal søndre" />
		<tag k="name" v="Søndre Brådal" />
		<tag k="place" v="farm" />
		<tag k="ssr:stedsnr" v="673511" />
	</node>
	<node lat="60.08266111465626" lon="10.969902782785644" id="-12991">
		<tag k="name" v="Sørlåbekken" />
		<tag k="place" v="isolated_dwelling" />
		<tag k="ssr:stedsnr" v="690928" />
	</node>
	<node lat="60.061897220849424" lon="11.038405561070627" id="-12997">
		<tag k="name" v="Holmen" />
		<tag k="place" v="isolated_dwelling" />
		<tag k="ssr:stedsnr" v="734541" />
	</node>
	<node lat="60.03413611180297" lon="11.04185832581799" id="-13004">
		<tag k="name" v="Flaen" />
		<tag k="place" v="farm" />
		<tag k="ssr:stedsnr" v="794410" />
	</node>
	<node lat="60.07673611483484" lon="11.06625834222585" id="-13006">
		<tag k="fixme" v="multiple name tags, choose one and add the other to alt_name" />
		<tag k="name" v="Olstad;Olstadhaugen" />
		<tag k="place" v="farm" />
		<tag k="ssr:stedsnr" v="794507" />
	</node>
	<node lat="60.05717499686097" lon="11.044066668397278" id="-13008">
		<tag k="alt_name" v="Fjelstadtangen" />
		<tag k="name" v="Tangen" />
		<tag k="place" v="isolated_dwelling" />
		<tag k="ssr:stedsnr" v="915455" />
	</node>
	<node lat="60.08694999762798" lon="11.000188882890873" id="-13010">
		<tag k="name" v="Spenningen" />
		<tag k="place" v="farm" />
		<tag k="ssr:stedsnr" v="915501" />
	</node>
	<node lat="60.10376111032244" lon="11.026466671882446" id="-13011">
		<tag k="name" v="Kokstadhagan" />
		<tag k="place" v="farm" />
		<tag k="ssr:stedsnr" v="916630" />
	</node>
	<node lat="60.10152777760431" lon="11.020841661078592" id="-13012">
		<tag k="name" v="Gran" />
		<tag k="place" v="farm" />
		<tag k="ssr:stedsnr" v="916632" />
	</node>
	<node lat="60.09937402332179" lon="11.014456560725872" id="-13013">
		<tag k="fixme" v="consider place=hamlet" />
		<tag k="name" v="Skei" />
		<tag k="place" v="farm" />
		<tag k="ssr:stedsnr" v="916633" />
	</node>
	<node lat="60.11721388827461" lon="11.079738891824455" id="-13014">
		<tag k="alt_name" v="Løvstad, søndre;Løvstad" />
		<tag k="name" v="Søndre Løvstad" />
		<tag k="place" v="farm" />
		<tag k="ssr:stedsnr" v="916598" />
	</node>
	<node lat="60.099391658718595" lon="11.085469643487063" id="-13018">
		<tag k="alt_name" v="Torshaug" />
		<tag k="name" v="Torshov" />
		<tag k="place" v="hamlet" />
		<tag k="ssr:stedsnr" v="843614" />
	</node>
	<node lat="60.07947500146297" lon="11.019277772407786" id="-13019">
		<tag k="alt_name" v="Fossum, vestre" />
		<tag k="name" v="Vestre Fossum" />
		<tag k="place" v="farm" />
		<tag k="ssr:stedsnr" v="855515" />
	</node>
	<node lat="60.035786110822535" lon="11.035858333152378" id="-13020">
		<tag k="alt_name" v="Flatner, store" />
		<tag k="name" v="Store Flatner" />
		<tag k="place" v="farm" />
		<tag k="ssr:stedsnr" v="855410" />
	</node>
	<node lat="60.08656525740893" lon="11.013922223737913" id="-13022">
		<tag k="alt_name" v="Rud, søndre" />
		<tag k="fixme" v="consider place=hamlet" />
		<tag k="name" v="Søndre Rud" />
		<tag k="place" v="farm" />
		<tag k="ssr:stedsnr" v="855487" />
	</node>
	<node lat="60.08248333655029" lon="11.003424999822785" id="-13023">
		<tag k="alt_name" v="Bråtan, øvre" />
		<tag k="name" v="Åmotsbråtan" />
		<tag k="place" v="farm" />
		<tag k="ssr:stedsnr" v="855500" />
	</node>
	<node lat="60.099652438007" lon="11.006015661644344" id="-13024">
		<tag k="fixme" v="consider place=hamlet" />
		<tag k="name" v="Eikeberg" />
		<tag k="place" v="farm" />
		<tag k="ssr:stedsnr" v="855603" />
	</node>
	<node lat="60.11388109530846" lon="10.995258408441988" id="-13026">
		<tag k="fixme" v="consider place=hamlet" />
		<tag k="name" v="Rustad" />
		<tag k="place" v="farm" />
		<tag k="ssr:stedsnr" v="855694" />
	</node>
	<node lat="60.10181944678303" lon="11.003286110514257" id="-13028">
		<tag k="name" v="Eikeberg" />
		<tag k="place" v="farm" />
		<tag k="ssr:stedsnr" v="934897" />
	</node>
	<node lat="60.085925002280135" lon="11.101200000581802" id="-13029">
		<tag k="name" v="Hvam" />
		<tag k="place" v="farm" />
		<tag k="ssr:stedsnr" v="915080" />
	</node>
	<node lat="60.08772500191253" lon="10.999019442493049" id="-13030">
		<tag k="alt_name" v="Bekkeberget" />
		<tag k="name" v="Bekkeberga" />
		<tag k="place" v="hamlet" />
		<tag k="ssr:stedsnr" v="915598" />
	</node>
	<node lat="60.07006388853355" lon="11.055725002826506" id="-13032">
		<tag k="name" v="Kyken" />
		<tag k="place" v="farm" />
		<tag k="ssr:stedsnr" v="916574" />
	</node>
	<node lat="60.0914916670848" lon="11.100005559111338" id="-13033">
		<tag k="name" v="Leirenga" />
		<tag k="place" v="farm" />
		<tag k="ssr:stedsnr" v="933114" />
	</node>
	<node lat="60.059279850177894" lon="11.035136000085819" id="-13034">
		<tag k="name" v="Kroken" />
		<tag k="place" v="farm" />
		<tag k="ssr:stedsnr" v="934917" />
	</node>
	<node lat="60.08978721305549" lon="10.937699207071677" id="-13035">
		<tag k="alt_name" v="Spiketjernhytta" />
		<tag k="fixme" v="consider tourism=alpine_hut or tourism=chalet" />
		<tag k="name" v="Spikertjernhytta" />
		<tag k="ssr:stedsnr" v="946945" />
		<tag k="tourism" v="wilderness_hut" />
	</node>
	<node lat="60.04717819265479" lon="11.045925395358099" id="-13037">
		<tag k="fixme" v="consider place=hamlet" />
		<tag k="name" v="Bråte" />
		<tag k="place" v="farm" />
		<tag k="ssr:stedsnr" v="5434" />
	</node>
	<node lat="60.078012229532646" lon="11.057058470678946" id="-13038">
		<tag k="fixme" v="consider place=hamlet" />
		<tag k="name" v="Svensrud" />
		<tag k="place" v="farm" />
		<tag k="ssr:stedsnr" v="5500" />
	</node>
	<node lat="60.06651666720088" lon="11.028100008513155" id="-13040">
		<tag k="alt_name" v="Brådal, nordre" />
		<tag k="name" v="Nordre Brådal" />
		<tag k="place" v="farm" />
		<tag k="ssr:stedsnr" v="6539" />
	</node>
	<node lat="60.06392221996881" lon="11.082311104839695" id="-13041">
		<tag k="name" v="Sørum" />
		<tag k="place" v="farm" />
		<tag k="ssr:stedsnr" v="23129" />
	</node>
	<node lat="60.08682777999368" lon="11.037600006048939" id="-13043">
		<tag k="name" v="Gullhaug" />
		<tag k="place" v="isolated_dwelling" />
		<tag k="ssr:stedsnr" v="66476" />
	</node>
	<node lat="60.08911666351111" lon="11.101636105047326" id="-13047">
		<tag k="name" v="Enger" />
		<tag k="place" v="farm" />
		<tag k="ssr:stedsnr" v="66083" />
	</node>
	<node lat="60.06045555743446" lon="10.956505547210053" id="-13049">
		<tag k="name" v="Busterudvangen" />
		<tag k="place" v="isolated_dwelling" />
		<tag k="ssr:stedsnr" v="66442" />
	</node>
	<node lat="60.08134999819418" lon="11.08981388576692" id="-13054">
		<tag k="name" v="Østvoll" />
=======
	<node id="-260322" lat="60.0726583357" lon="11.0202972221">
		<tag k="name" v="Vestli" />
		<tag k="place" v="isolated_dwelling" />
		<tag k="ssr:stedsnr" v="387879" />
	</node>
	<node id="-260321" lat="60.08849722" lon="11.1013916581">
		<tag k="name" v="Blånet" />
		<tag k="place" v="farm" />
		<tag k="ssr:stedsnr" v="387011" />
	</node>
	<node id="-260320" lat="60.0765555567" lon="11.0742222156">
		<tag k="name" v="Nordli" />
		<tag k="place" v="isolated_dwelling" />
		<tag k="ssr:stedsnr" v="387132" />
	</node>
	<node id="-260319" lat="60.103113885" lon="11.0210694443">
		<tag k="name" v="Vestbyhagan" />
		<tag k="place" v="farm" />
		<tag k="ssr:stedsnr" v="384593" />
	</node>
	<node id="-260318" lat="60.0785222239" lon="11.0799333356">
		<tag k="name" v="Solheim" />
		<tag k="place" v="quarter" />
		<tag k="ssr:stedsnr" v="384062" />
	</node>
	<node id="-260317" lat="60.094686111" lon="11.0217722193">
		<tag k="alt_name" v="Åmot østre" />
		<tag k="name" v="Åmot" />
		<tag k="place" v="farm" />
		<tag k="ssr:stedsnr" v="369570" />
	</node>
	<node id="-260316" lat="60.0909611116" lon="10.9998027819">
		<tag k="name" v="Mellom" />
		<tag k="place" v="farm" />
		<tag k="ssr:stedsnr" v="369568" />
	</node>
	<node id="-260313" lat="60.0884138866" lon="11.0851527803">
		<tag k="name" v="Gjerdrum" />
		<tag k="place" v="farm" />
		<tag k="ssr:stedsnr" v="369439" />
	</node>
	<node id="-260308" lat="60.0715888894" lon="11.0359666654">
		<tag k="amenity" v="townhall" />
		<tag k="name" v="Herredshus" />
		<tag k="ssr:stedsnr" v="326892" />
	</node>
	<node id="-260305" lat="60.0988499988" lon="11.0638194452">
		<tag k="name" v="Henau" />
		<tag k="place" v="farm" />
		<tag k="ssr:stedsnr" v="326092" />
	</node>
	<node id="-260302" lat="60.1053499963" lon="11.0830194505">
		<tag k="name" v="Sandum" />
		<tag k="place" v="farm" />
		<tag k="ssr:stedsnr" v="309621" />
	</node>
	<node id="-260301" lat="60.1095750021" lon="11.0868861158">
		<tag k="name" v="Trulsrud" />
		<tag k="place" v="farm" />
		<tag k="ssr:stedsnr" v="309620" />
	</node>
	<node id="-260299" lat="60.0530999962" lon="11.0410333266">
		<tag k="name" v="Høyenhall" />
		<tag k="place" v="farm" />
		<tag k="ssr:stedsnr" v="308432" />
	</node>
	<node id="-260297" lat="60.0421111106" lon="11.0534833336">
		<tag k="alt_name" v="Skauen" />
		<tag k="name" v="Skogen" />
		<tag k="place" v="farm" />
		<tag k="ssr:stedsnr" v="308401" />
	</node>
	<node id="-260296" lat="60.0429250016" lon="11.0581472199">
		<tag k="name" v="Skaugom" />
		<tag k="place" v="farm" />
		<tag k="ssr:stedsnr" v="308398" />
	</node>
	<node id="-260289" lat="60.0538972254" lon="11.0948916653">
		<tag k="name" v="Smedstuen" />
		<tag k="place" v="farm" />
		<tag k="ssr:stedsnr" v="205126" />
	</node>
	<node id="-260288" lat="60.0996861069" lon="11.0232305507">
		<tag k="name" v="Vestby" />
		<tag k="place" v="farm" />
		<tag k="ssr:stedsnr" v="188645" />
	</node>
	<node id="-260286" lat="60.0713500016" lon="11.0236861045">
		<tag k="name" v="Åsgård" />
		<tag k="place" v="farm" />
		<tag k="ssr:stedsnr" v="187521" />
	</node>
	<node id="-260284" lat="60.077463885" lon="11.0244749988">
		<tag k="name" v="Bjørkely" />
		<tag k="place" v="farm" />
		<tag k="ssr:stedsnr" v="187501" />
	</node>
	<node id="-260283" lat="60.0842277737" lon="11.0055250038">
		<tag k="alt_name" v="Bråtan, nedre" />
		<tag k="name" v="Nedre Bråtan" />
		<tag k="place" v="farm" />
		<tag k="ssr:stedsnr" v="187500" />
	</node>
	<node id="-260281" lat="60.0780083358" lon="10.9873861078">
		<tag k="name" v="Harasletta" />
		<tag k="place" v="isolated_dwelling" />
		<tag k="ssr:stedsnr" v="187490" />
	</node>
	<node id="-260277" lat="60.0436416707" lon="11.0337194489">
		<tag k="alt_name" v="Flatner, lille;Flatner vesle;Flatner lille" />
		<tag k="name" v="Lille Flatner" />
		<tag k="place" v="farm" />
		<tag k="ssr:stedsnr" v="187400" />
	</node>
	<node id="-260276" lat="60.1071916683" lon="11.0936499937">
		<tag k="fixme" v="consider place=hamlet" />
		<tag k="name" v="Rogstad" />
		<tag k="place" v="farm" />
		<tag k="ssr:stedsnr" v="187108" />
	</node>
	<node id="-260271" lat="60.076858329" lon="11.0079222264">
		<tag k="name" v="Grønlund" />
		<tag k="place" v="isolated_dwelling" />
		<tag k="ssr:stedsnr" v="144896" />
	</node>
	<node id="-260270" lat="60.0750666702" lon="11.0347416725">
		<tag k="name" v="Askjordet" />
		<tag k="place" v="quarter" />
		<tag k="ssr:stedsnr" v="144872" />
	</node>
	<node id="-260265" lat="60.0949277804" lon="11.0694861201">
		<tag k="name" v="Munkeli" />
		<tag k="place" v="isolated_dwelling" />
		<tag k="ssr:stedsnr" v="126594" />
	</node>
	<node id="-260264" lat="60.1008" lon="11.0525833351">
		<tag k="name" v="Korsmo" />
		<tag k="place" v="farm" />
		<tag k="ssr:stedsnr" v="126592" />
	</node>
	<node id="-260263" lat="60.0716333818" lon="11.0346883921">
		<tag k="name" v="Ask" />
		<tag k="place" v="village" />
		<tag k="ssr:stedsnr" v="126555" />
	</node>
	<node id="-260262" lat="60.0738499962" lon="11.0744388961">
		<tag k="name" v="Olstad" />
		<tag k="place" v="farm" />
		<tag k="ssr:stedsnr" v="126553" />
	</node>
	<node id="-260261" lat="60.0714111072" lon="11.0157861024">
		<tag k="alt_name" v="Kulsrud, søndre" />
		<tag k="name" v="Kulsrud" />
		<tag k="place" v="farm" />
		<tag k="ssr:stedsnr" v="126535" />
	</node>
	<node id="-260257" lat="60.0833472229" lon="10.9988444424">
		<tag k="amenity" v="school" />
		<tag k="name" v="Veståsen skole" />
		<tag k="ssr:stedsnr" v="119715" />
	</node>
	<node id="-260255" lat="60.0952111104" lon="11.055063887">
		<tag k="name" v="Årstad" />
		<tag k="place" v="farm" />
		<tag k="ssr:stedsnr" v="84933" />
	</node>
	<node id="-260253" lat="60.0885222195" lon="11.0294972134">
		<tag k="name" v="Fossum" />
		<tag k="place" v="farm" />
		<tag k="ssr:stedsnr" v="84890" />
	</node>
	<node id="-260251" lat="60.0952749976" lon="11.0881000016">
		<tag k="name" v="Torshov" />
		<tag k="place" v="farm" />
		<tag k="ssr:stedsnr" v="84137" />
	</node>
	<node id="-260248" lat="60.1076027814" lon="11.0487249967">
		<tag k="name" v="Kjærstad" />
		<tag k="place" v="farm" />
		<tag k="ssr:stedsnr" v="66564" />
	</node>
	<node id="-260247" lat="60.1050999996" lon="10.9895583322">
		<tag k="alt_name" v="Trolsnes" />
		<tag k="name" v="Trollsnes" />
		<tag k="place" v="farm" />
		<tag k="ssr:stedsnr" v="66560" />
	</node>
	<node id="-260244" lat="60.08682778" lon="11.037600006">
		<tag k="name" v="Gullhaug" />
		<tag k="place" v="isolated_dwelling" />
		<tag k="ssr:stedsnr" v="66476" />
	</node>
	<node id="-260240" lat="60.0891166635" lon="11.101636105">
		<tag k="name" v="Enger" />
>>>>>>> e1d4bc35ff8a6074a6f2e91616a996b547c36f15
		<tag k="place" v="farm" />
		<tag k="ssr:stedsnr" v="66083" />
	</node>
<<<<<<< HEAD
	<node lat="60.08611666351915" lon="11.09252499105958" id="-13055">
		<tag k="name" v="Prestegarden" />
		<tag k="place" v="farm" />
		<tag k="ssr:stedsnr" v="84017" />
	</node>
	<node lat="60.06596944403753" lon="11.03981111599462" id="-13056">
		<tag k="amenity" v="nursing_home" />
		<tag k="name" v="Gjerdrum aldershjem" />
		<tag k="ssr:stedsnr" v="84968" />
	</node>
	<node lat="60.07356909765749" lon="11.077419320591911" id="-13059">
		<tag k="name" v="Olstad" />
		<tag k="place" v="hamlet" />
		<tag k="ssr:stedsnr" v="126553" />
	</node>
	<node lat="60.07163338183153" lon="11.034688392135825" id="-13060">
		<tag k="name" v="Ask" />
		<tag k="place" v="village" />
		<tag k="ssr:stedsnr" v="126555" />
	</node>
	<node lat="60.07160798523678" lon="11.016135305750405" id="-13061">
		<tag k="alt_name" v="Kulsrud, søndre" />
		<tag k="fixme" v="consider place=hamlet" />
		<tag k="name" v="Kulsrud" />
		<tag k="place" v="farm" />
		<tag k="ssr:stedsnr" v="126535" />
	</node>
	<node lat="60.100811672603456" lon="11.05257143325059" id="-13062">
		<tag k="fixme" v="consider place=hamlet" />
		<tag k="name" v="Korsmo" />
		<tag k="place" v="farm" />
		<tag k="ssr:stedsnr" v="126592" />
	</node>
	<node lat="60.09492778039662" lon="11.069486120108618" id="-13063">
		<tag k="name" v="Munkeli" />
		<tag k="place" v="isolated_dwelling" />
		<tag k="ssr:stedsnr" v="126594" />
	</node>
	<node lat="60.075066670156204" lon="11.034741672494036" id="-13066">
		<tag k="name" v="Askjordet" />
		<tag k="place" v="quarter" />
		<tag k="ssr:stedsnr" v="144872" />
	</node>
	<node lat="60.07685832902815" lon="11.007922226393497" id="-13067">
		<tag k="name" v="Grønlund" />
		<tag k="place" v="isolated_dwelling" />
		<tag k="ssr:stedsnr" v="144896" />
	</node>
	<node lat="60.04364167069231" lon="11.033719448915635" id="-13072">
		<tag k="alt_name" v="Flatner, lille;Flatner vesle;Flatner lille" />
		<tag k="name" v="Lille Flatner" />
		<tag k="place" v="farm" />
		<tag k="ssr:stedsnr" v="187400" />
	</node>
	<node lat="60.07800833575887" lon="10.9873861078322" id="-13073">
		<tag k="name" v="Harasletta" />
		<tag k="place" v="isolated_dwelling" />
		<tag k="ssr:stedsnr" v="187490" />
	</node>
	<node lat="60.08422777374534" lon="11.00552500383284" id="-13075">
		<tag k="alt_name" v="Bråtan, nedre" />
		<tag k="name" v="Nedre Bråtan" />
		<tag k="place" v="farm" />
		<tag k="ssr:stedsnr" v="187500" />
	</node>
	<node lat="60.07746388496336" lon="11.024474998788154" id="-13076">
		<tag k="name" v="Bjørkely" />
		<tag k="place" v="farm" />
		<tag k="ssr:stedsnr" v="187501" />
	</node>
	<node lat="60.071350001601736" lon="11.02368610445466" id="-13080">
		<tag k="name" v="Åsgård" />
		<tag k="place" v="farm" />
		<tag k="ssr:stedsnr" v="187521" />
	</node>
	<node lat="60.05389722540357" lon="11.094891665317746" id="-13081">
		<tag k="name" v="Smedstuen" />
		<tag k="place" v="farm" />
		<tag k="ssr:stedsnr" v="205126" />
	</node>
	<node lat="60.04211111057718" lon="11.053483333638638" id="-13087">
		<tag k="alt_name" v="Skauen" />
		<tag k="name" v="Skogen" />
		<tag k="place" v="farm" />
		<tag k="ssr:stedsnr" v="308401" />
	</node>
	<node lat="60.053099996156575" lon="11.0410333265601" id="-13088">
		<tag k="name" v="Høyenhall" />
		<tag k="place" v="farm" />
		<tag k="ssr:stedsnr" v="308432" />
	</node>
	<node lat="60.10957500211726" lon="11.086886115782006" id="-13090">
		<tag k="name" v="Trulsrud" />
		<tag k="place" v="farm" />
		<tag k="ssr:stedsnr" v="309620" />
	</node>
	<node lat="60.10498582283537" lon="11.083867912970838" id="-13091">
		<tag k="name" v="Sandum" />
		<tag k="place" v="hamlet" />
		<tag k="ssr:stedsnr" v="309621" />
	</node>
	<node lat="60.07878610699299" lon="11.098208331366434" id="-13092">
		<tag k="name" v="Prestegardshagen" />
		<tag k="place" v="locality" />
		<tag k="ssr:stedsnr" v="326012" />
	</node>
	<node lat="60.098849998818125" lon="11.063819445181048" id="-13093">
		<tag k="name" v="Henau" />
		<tag k="place" v="farm" />
		<tag k="ssr:stedsnr" v="326092" />
	</node>
	<node lat="60.07158888937718" lon="11.035966665350104" id="-13095">
		<tag k="amenity" v="townhall" />
		<tag k="name" v="Herredshus" />
		<tag k="ssr:stedsnr" v="326892" />
	</node>
	<node lat="60.08841388659693" lon="11.085152780302362" id="-13102">
		<tag k="name" v="Gjerdrum" />
		<tag k="place" v="farm" />
		<tag k="ssr:stedsnr" v="369439" />
	</node>
	<node lat="60.10311388500165" lon="11.02106944428552" id="-13103">
		<tag k="name" v="Vestbyhagan" />
		<tag k="place" v="farm" />
		<tag k="ssr:stedsnr" v="384593" />
	</node>
	<node lat="60.03516667034673" lon="11.047066675771179" id="-13105">
		<tag k="name" v="Fjeldly" />
		<tag k="place" v="farm" />
		<tag k="ssr:stedsnr" v="387928" />
	</node>
	<node lat="60.07823055245115" lon="11.035941660715261" id="-13106">
		<tag k="name" v="Klokkerenga" />
		<tag k="place" v="farm" />
		<tag k="ssr:stedsnr" v="387872" />
	</node>
	<node lat="60.07265833571846" lon="11.020297222092504" id="-13107">
		<tag k="name" v="Vestli" />
		<tag k="place" v="isolated_dwelling" />
		<tag k="ssr:stedsnr" v="387879" />
	</node>
	<node lat="60.06365555899203" lon="11.048700005166495" id="-13108">
		<tag k="name" v="Nedre Fjælstad" />
		<tag k="place" v="farm" />
		<tag k="ssr:stedsnr" v="404034" />
	</node>
	<node lat="60.08762778074072" lon="11.103125000399896" id="-13114">
		<tag k="name" v="Elverud" />
		<tag k="place" v="farm" />
		<tag k="ssr:stedsnr" v="430081" />
	</node>
	<node lat="60.06870962527726" lon="11.041164468695033" id="-13115">
		<tag k="fixme" v="consider place=hamlet" />
		<tag k="name" v="Hønsi" />
		<tag k="place" v="farm" />
		<tag k="ssr:stedsnr" v="430472" />
	</node>
	<node lat="60.04717499980124" lon="11.032066665563136" id="-13119">
		<tag k="name" v="Sagholen" />
		<tag k="place" v="isolated_dwelling" />
		<tag k="ssr:stedsnr" v="430434" />
	</node>
	<node lat="60.085300000997414" lon="11.079130553808364" id="-13120">
		<tag k="name" v="Smedstad" />
		<tag k="place" v="farm" />
		<tag k="ssr:stedsnr" v="430514" />
	</node>
	<node lat="60.07754999573284" lon="11.051066663555119" id="-13121">
		<tag k="name" v="Løken" />
		<tag k="place" v="farm" />
		<tag k="ssr:stedsnr" v="430524" />
	</node>
	<node lat="60.07255555211534" lon="10.997452774862868" id="-13123">
		<tag k="name" v="Kulsrudfjellet" />
		<tag k="place" v="quarter" />
		<tag k="ssr:stedsnr" v="445054" />
	</node>
	<node lat="60.08207777954965" lon="11.086300002135095" id="-13124">
		<tag k="name" v="Gjeri" />
		<tag k="place" v="isolated_dwelling" />
		<tag k="ssr:stedsnr" v="508020" />
	</node>
	<node lat="60.073611111807715" lon="11.027508342007536" id="-13125">
		<tag k="name" v="Grønnvoll" />
		<tag k="place" v="isolated_dwelling" />
		<tag k="ssr:stedsnr" v="508881" />
	</node>
	<node lat="60.05083055549253" lon="11.046574998615755" id="-13126">
		<tag k="name" v="Svingen" />
		<tag k="place" v="farm" />
		<tag k="ssr:stedsnr" v="509899" />
	</node>
	<node lat="60.04619444099326" lon="11.066277781039835" id="-13131">
		<tag k="alt_name" v="Ramdal" />
		<tag k="name" v="Ramdalen" />
		<tag k="place" v="farm" />
		<tag k="ssr:stedsnr" v="551428" />
	</node>
	<node lat="60.0913666558261" lon="11.026841657605384" id="-13135">
		<tag k="alt_name" v="Åmot østre" />
		<tag k="fixme" v="consider place=hamlet" />
		<tag k="name" v="Østre Åmot" />
=======
	<node id="-260238" lat="60.06392222" lon="11.0823111048">
		<tag k="name" v="Sørum" />
		<tag k="place" v="farm" />
		<tag k="ssr:stedsnr" v="23129" />
	</node>
	<node id="-260236" lat="60.1079749988" lon="11.0369805607">
		<tag k="name" v="Oddeggen" />
		<tag k="place" v="farm" />
		<tag k="ssr:stedsnr" v="6605" />
	</node>
	<node id="-260235" lat="60.0665166672" lon="11.0281000085">
		<tag k="alt_name" v="Brådal, nordre" />
		<tag k="name" v="Nordre Brådal" />
		<tag k="place" v="farm" />
		<tag k="ssr:stedsnr" v="6539" />
	</node>
	<node id="-260233" lat="60.0781166644" lon="11.0572166632">
		<tag k="name" v="Svensrud" />
		<tag k="place" v="farm" />
		<tag k="ssr:stedsnr" v="5500" />
	</node>
	<node id="-260232" lat="60.0940805579" lon="11.0413027851">
		<tag k="name" v="Ljøreggen" />
		<tag k="place" v="isolated_dwelling" />
		<tag k="ssr:stedsnr" v="5480" />
	</node>
	<node id="-260231" lat="60.0471777804" lon="11.0459305602">
		<tag k="name" v="Bråte" />
		<tag k="place" v="farm" />
		<tag k="ssr:stedsnr" v="5434" />
	</node>
	<node id="-260229" lat="60.0914916671" lon="11.1000055591">
		<tag k="name" v="Leirenga" />
		<tag k="place" v="farm" />
		<tag k="ssr:stedsnr" v="933114" />
	</node>
	<node id="-260228" lat="60.0700638885" lon="11.0557250028">
		<tag k="name" v="Kyken" />
		<tag k="place" v="farm" />
		<tag k="ssr:stedsnr" v="916574" />
	</node>
	<node id="-260226" lat="60.1037611103" lon="11.0264666719">
		<tag k="name" v="Kokstadhagan" />
		<tag k="place" v="farm" />
		<tag k="ssr:stedsnr" v="916630" />
	</node>
	<node id="-260224" lat="60.0571749969" lon="11.0440666684">
		<tag k="alt_name" v="Fjelstadtangen" />
		<tag k="name" v="Tangen" />
		<tag k="place" v="isolated_dwelling" />
		<tag k="ssr:stedsnr" v="915455" />
	</node>
	<node id="-260218" lat="60.0897872131" lon="10.9376992071">
		<tag k="alt_name" v="Spiketjernhytta" />
		<tag k="fixme" v="consider tourism=alpine_hut or tourism=chalet" />
		<tag k="name" v="Spikertjernhytta" />
		<tag k="ssr:stedsnr" v="946945" />
		<tag k="tourism" v="wilderness_hut" />
	</node>
	<node id="-260216" lat="60.0357861108" lon="11.0358583332">
		<tag k="alt_name" v="Flatner, store;Flatner" />
		<tag k="name" v="Store Flatner" />
		<tag k="place" v="farm" />
		<tag k="ssr:stedsnr" v="855410" />
	</node>
	<node id="-260214" lat="60.0835861103" lon="11.0375250038">
		<tag k="name" v="Kråkvål" />
		<tag k="place" v="farm" />
		<tag k="ssr:stedsnr" v="855522" />
	</node>
	<node id="-260213" lat="60.0795805568" lon="11.0368638888">
		<tag k="name" v="Sørli" />
		<tag k="place" v="farm" />
		<tag k="ssr:stedsnr" v="855519" />
	</node>
	<node id="-260212" lat="60.0794750015" lon="11.0192777724">
		<tag k="alt_name" v="Fossum, vestre" />
		<tag k="name" v="Vestre Fossum" />
		<tag k="place" v="farm" />
		<tag k="ssr:stedsnr" v="855515" />
	</node>
	<node id="-260211" lat="60.0984083335" lon="11.0848694494">
		<tag k="alt_name" v="Torshaug" />
		<tag k="fixme" v="consider place=hamlet" />
		<tag k="name" v="Torshov" />
		<tag k="place" v="farm" />
		<tag k="ssr:stedsnr" v="843614" />
	</node>
	<node id="-260210" lat="60.1018194468" lon="11.0032861105">
		<tag k="name" v="Eikeberg" />
		<tag k="place" v="farm" />
		<tag k="ssr:stedsnr" v="934897" />
	</node>
	<node id="-260209" lat="60.0592798502" lon="11.0351360001">
		<tag k="name" v="Kroken" />
		<tag k="place" v="farm" />
		<tag k="ssr:stedsnr" v="934917" />
	</node>
	<node id="-260208" lat="60.1143083356" lon="11.0788888851">
		<tag k="name" v="Nitteberg" />
		<tag k="place" v="farm" />
		<tag k="ssr:stedsnr" v="794560" />
	</node>
	<node id="-260206" lat="60.0767361148" lon="11.0662583422">
		<tag k="fixme" v="multiple name tags, choose one and add the other to alt_name" />
		<tag k="name" v="Olstad;Olstadhaugen" />
		<tag k="place" v="farm" />
		<tag k="ssr:stedsnr" v="794507" />
	</node>
	<node id="-260204" lat="60.0341361118" lon="11.0418583258">
		<tag k="name" v="Flaen" />
		<tag k="place" v="farm" />
		<tag k="ssr:stedsnr" v="794410" />
	</node>
	<node id="-260202" lat="60.1172138883" lon="11.0797388918">
		<tag k="alt_name" v="Løvstad, søndre;Løvstad" />
		<tag k="name" v="Søndre Løvstad" />
		<tag k="place" v="farm" />
		<tag k="ssr:stedsnr" v="916598" />
	</node>
	<node id="-260201" lat="60.0990750002" lon="11.0141472242">
		<tag k="name" v="Skei" />
		<tag k="place" v="farm" />
		<tag k="ssr:stedsnr" v="916633" />
	</node>
	<node id="-260200" lat="60.1015277776" lon="11.0208416611">
		<tag k="name" v="Gran" />
		<tag k="place" v="farm" />
		<tag k="ssr:stedsnr" v="916632" />
	</node>
	<node id="-260199" lat="60.0877250019" lon="10.9990194425">
		<tag k="alt_name" v="Bekkeberget" />
		<tag k="name" v="Bekkeberga" />
		<tag k="place" v="hamlet" />
		<tag k="ssr:stedsnr" v="915598" />
	</node>
	<node id="-260198" lat="60.0869499976" lon="11.0001888829">
		<tag k="name" v="Spenningen" />
		<tag k="place" v="farm" />
		<tag k="ssr:stedsnr" v="915501" />
	</node>
	<node id="-260197" lat="60.0859250023" lon="11.1012000006">
		<tag k="name" v="Hvam" />
		<tag k="place" v="farm" />
		<tag k="ssr:stedsnr" v="915080" />
	</node>
	<node id="-260196" lat="60.0877499975" lon="11.0652583297">
		<tag k="name" v="Tveit" />
		<tag k="place" v="farm" />
		<tag k="ssr:stedsnr" v="672464" />
	</node>
	<node id="-260195" lat="60.1001250013" lon="11.030416668">
		<tag k="name" v="Kokstad" />
		<tag k="place" v="farm" />
		<tag k="ssr:stedsnr" v="734644" />
	</node>
	<node id="-260192" lat="60.0601999986" lon="11.0669333374">
		<tag k="name" v="Hval" />
		<tag k="place" v="farm" />
		<tag k="ssr:stedsnr" v="734546" />
	</node>
	<node id="-260191" lat="60.0664083313" lon="11.0615750062">
		<tag k="alt_name" v="Hammer" />
		<tag k="name" v="Hammar" />
>>>>>>> e1d4bc35ff8a6074a6f2e91616a996b547c36f15
		<tag k="place" v="farm" />
		<tag k="ssr:stedsnr" v="734543" />
	</node>
<<<<<<< HEAD
	<node lat="60.10628333733515" lon="11.052191667818162" id="-13136">
		<tag k="name" v="Ramsli" />
		<tag k="place" v="isolated_dwelling" />
		<tag k="ssr:stedsnr" v="569880" />
	</node>
	<node lat="60.108413884882296" lon="11.055177785738106" id="-13137">
		<tag k="name" v="Kjærstad" />
		<tag k="place" v="farm" />
		<tag k="ssr:stedsnr" v="569882" />
	</node>
	<node lat="60.10920000400407" lon="11.0562472252706" id="-13138">
		<tag k="name" v="Lundby" />
		<tag k="place" v="farm" />
		<tag k="ssr:stedsnr" v="569888" />
	</node>
	<node lat="60.05059166430283" lon="11.09074167214582" id="-13143">
		<tag k="alt_name" v="Sørumstangen" />
		<tag k="name" v="Tangen" />
		<tag k="place" v="farm" />
		<tag k="ssr:stedsnr" v="611471" />
	</node>
	<node lat="60.0936694315314" lon="11.01039204111435" id="-13144">
		<tag k="alt_name" v="Åmot;Åmot vestre" />
		<tag k="fixme" v="consider place=hamlet" />
		<tag k="name" v="Vestre Åmot" />
		<tag k="place" v="farm" />
		<tag k="ssr:stedsnr" v="611630" />
	</node>
	<node lat="60.08564713408463" lon="11.085787107158554" id="-13146">
		<tag k="name" v="Gjerdrum" />
		<tag k="place" v="hamlet" />
		<tag k="ssr:stedsnr" v="612554" />
	</node>
	<node lat="60.07966111442324" lon="11.077875006059088" id="-13147">
=======
	<node id="-260190" lat="60.0618972208" lon="11.0384055611">
		<tag k="name" v="Holmen" />
		<tag k="place" v="isolated_dwelling" />
		<tag k="ssr:stedsnr" v="734541" />
	</node>
	<node id="-260189" lat="60.0546001504" lon="11.0513947934">
		<tag k="alt_name" v="Fjellstad;Nordre Fjelstad" />
		<tag k="fixme" v="multiple name tags, choose one and add the other to alt_name" />
		<tag k="name" v="Hesthagan;Nordre Fjælstad" />
		<tag k="place" v="farm" />
		<tag k="ssr:stedsnr" v="646443" />
	</node>
	<node id="-260187" lat="60.0970527749" lon="11.061738893">
		<tag k="name" v="Heni" />
		<tag k="place" v="farm" />
		<tag k="ssr:stedsnr" v="733572" />
	</node>
	<node id="-260183" lat="60.0927083316" lon="11.0534111124">
		<tag k="name" v="Årstad" />
		<tag k="place" v="farm" />
		<tag k="ssr:stedsnr" v="733464" />
	</node>
	<node id="-260181" lat="60.0808916663" lon="11.0059638916">
		<tag k="name" v="Mølla" />
		<tag k="place" v="locality" />
		<tag k="ssr:stedsnr" v="629908" />
	</node>
	<node id="-260180" lat="60.0752305529" lon="10.9957833291">
		<tag k="name" v="Grønlundfjellet" />
		<tag k="place" v="quarter" />
		<tag k="ssr:stedsnr" v="627057" />
	</node>
	<node id="-260178" lat="60.0761166657" lon="11.0087750034">
		<tag k="alt_name" v="Kulsrud, nordre" />
		<tag k="name" v="Kulsrud" />
		<tag k="place" v="farm" />
		<tag k="ssr:stedsnr" v="612561" />
	</node>
	<node id="-260177" lat="60.0796611144" lon="11.0778750061">
>>>>>>> e1d4bc35ff8a6074a6f2e91616a996b547c36f15
		<tag k="name" v="Hol" />
		<tag k="place" v="isolated_dwelling" />
		<tag k="ssr:stedsnr" v="612555" />
	</node>
<<<<<<< HEAD
	<node lat="60.0836000027306" lon="11.042458332513563" id="-13149">
		<tag k="name" v="Kråkvål" />
		<tag k="place" v="farm" />
		<tag k="ssr:stedsnr" v="629898" />
	</node>
	<node lat="60.10390277899764" lon="11.019841673915135" id="-13152">
		<tag k="name" v="Nøysom" />
		<tag k="place" v="farm" />
		<tag k="ssr:stedsnr" v="630881" />
	</node>
	<node lat="60.05460015042649" lon="11.051394793423988" id="-13153">
		<tag k="alt_name" v="Fjellstad;Nordre Fjelstad" />
		<tag k="fixme" v="multiple name tags, choose one and add the other to alt_name" />
		<tag k="name" v="Hesthagan;Nordre Fjælstad" />
		<tag k="place" v="farm" />
		<tag k="ssr:stedsnr" v="646443" />
	</node>
	<node lat="60.09264877980831" lon="11.053410014305287" id="-13155">
		<tag k="fixme" v="consider place=hamlet" />
		<tag k="name" v="Årstad" />
		<tag k="place" v="farm" />
		<tag k="ssr:stedsnr" v="733464" />
	</node>
	<node lat="60.097836775165256" lon="11.05957217918252" id="-13157">
		<tag k="name" v="Heni" />
		<tag k="place" v="hamlet" />
		<tag k="ssr:stedsnr" v="733572" />
	</node>
	<node lat="60.099850030588534" lon="11.032146453532837" id="-13159">
		<tag k="name" v="Kokstad" />
		<tag k="place" v="hamlet" />
		<tag k="ssr:stedsnr" v="734644" />
	</node>
	<node lat="60.06640833125912" lon="11.06157500624347" id="-13160">
		<tag k="alt_name" v="Hammer" />
		<tag k="name" v="Hammar" />
		<tag k="place" v="farm" />
		<tag k="ssr:stedsnr" v="734543" />
	</node>
	<node lat="60.06019501334955" lon="11.06691266914718" id="-13161">
		<tag k="fixme" v="consider place=hamlet" />
		<tag k="name" v="Hval" />
		<tag k="place" v="farm" />
		<tag k="ssr:stedsnr" v="734546" />
	</node>
	<node lat="60.06258610981787" lon="11.06511388842282" id="-13163">
		<tag k="name" v="Hvalstad" />
		<tag k="place" v="locality" />
		<tag k="ssr:stedsnr" v="751117" />
	</node>
	<node lat="60.074155559961035" lon="11.024586112372283" id="-13165">
		<tag k="name" v="Nyland" />
		<tag k="place" v="farm" />
		<tag k="ssr:stedsnr" v="751898" />
	</node>
	<node lat="60.10441342136662" lon="11.060090652876783" id="-13166">
		<tag k="fixme" v="consider place=hamlet" />
		<tag k="name" v="Mo" />
		<tag k="place" v="farm" />
		<tag k="ssr:stedsnr" v="794577" />
	</node>
	<node lat="60.10483333116249" lon="11.065105547591507" id="-13167">
		<tag k="name" v="Sandvoll" />
		<tag k="place" v="farm" />
		<tag k="ssr:stedsnr" v="794578" />
	</node>
	<node lat="60.109128526788616" lon="11.077052876330987" id="-13168">
		<tag k="fixme" v="consider place=hamlet" />
		<tag k="name" v="Berg" />
		<tag k="place" v="farm" />
		<tag k="ssr:stedsnr" v="794580" />
	</node>
	<node lat="60.1145843935814" lon="11.078820665341526" id="-13172">
		<tag k="fixme" v="consider place=hamlet" />
		<tag k="name" v="Nitteberg" />
		<tag k="place" v="farm" />
		<tag k="ssr:stedsnr" v="794560" />
	</node>
	<node lat="60.10097778005635" lon="11.07778889071868" id="-13174">
		<tag k="name" v="Belstad" />
		<tag k="place" v="isolated_dwelling" />
		<tag k="ssr:stedsnr" v="812122" />
	</node>
	<node lat="60.06261585033885" lon="11.049073232593411" id="-13178">
		<tag k="alt_name" v="Fjellstad;Fjelstad" />
		<tag k="name" v="Fjælstad" />
		<tag k="place" v="hamlet" />
		<tag k="ssr:stedsnr" v="829485" />
	</node>
	<node lat="60.0795805568069" lon="11.036863888842369" id="-13179">
		<tag k="name" v="Sørli" />
		<tag k="place" v="farm" />
		<tag k="ssr:stedsnr" v="855519" />
	</node>
	<node lat="60.08374397535098" lon="11.037983407924324" id="-13180">
		<tag k="name" v="Kråkvål" />
		<tag k="place" v="hamlet" />
		<tag k="ssr:stedsnr" v="855522" />
	</node>
	<node lat="60.10759999695798" lon="10.995430557194112" id="-13184">
		<tag k="name" v="Dølienga" />
		<tag k="place" v="farm" />
		<tag k="ssr:stedsnr" v="855582" />
	</node>
	<node lat="60.08725555804117" lon="11.01552777928932" id="-13185">
		<tag k="alt_name" v="Rud, vestre;Rud" />
		<tag k="name" v="Vestre Rud" />
		<tag k="place" v="farm" />
		<tag k="ssr:stedsnr" v="855630" />
	</node>
	<node lat="60.08225277846997" lon="11.035116665375234" id="-13186">
		<tag k="name" v="Nordvoll" />
		<tag k="place" v="farm" />
		<tag k="ssr:stedsnr" v="872880" />
	</node>
	<node lat="60.07385833563123" lon="11.017327783904221" id="-13187">
		<tag k="name" v="Kulsrud" />
		<tag k="place" v="farm" />
		<tag k="ssr:stedsnr" v="872890" />
	</node>
	<node lat="60.05547862880885" lon="11.051021723567182" id="-13200">
		<tag k="fixme" v="consider place=hamlet" />
		<tag k="name" v="Nordre Fjælstad" />
		<tag k="place" v="farm" />
		<tag k="ssr:stedsnr" v="978286" />
	</node>
	<node lat="60.11869093873775" lon="11.082344391311715" id="-13208">
		<tag k="fixme" v="consider place=hamlet" />
		<tag k="name" v="Løvstad" />
		<tag k="place" v="farm" />
		<tag k="ssr:stedsnr" v="1078453" />
	</node>
	<node lat="60.08581578460733" lon="11.092448574653375" id="-13209">
		<tag k="fixme" v="consider place=hamlet" />
		<tag k="name" v="Gjerdrum prestegård" />
		<tag k="place" v="farm" />
		<tag k="ssr:stedsnr" v="1078454" />
	</node>
	<node lat="60.08252806364473" lon="11.084475338463854" id="-13210">
		<tag k="name" v="Gjerdrum søndre" />
		<tag k="place" v="farm" />
		<tag k="ssr:stedsnr" v="1078455" />
	</node>
	<node lat="60.08482839819064" lon="11.076584883158663" id="-13211">
		<tag k="name" v="Smedstad" />
		<tag k="place" v="hamlet" />
		<tag k="ssr:stedsnr" v="1078458" />
	</node>
	<node lat="60.039574803917766" lon="11.03348457544312" id="-13212">
		<tag k="name" v="Flatner" />
		<tag k="place" v="hamlet" />
		<tag k="ssr:stedsnr" v="1078459" />
	</node>
	<node lat="60.06493083627783" lon="11.028921736641578" id="-13213">
		<tag k="fixme" v="consider place=hamlet" />
		<tag k="name" v="Brådal" />
		<tag k="place" v="farm" />
		<tag k="ssr:stedsnr" v="1078460" />
	</node>
	<node lat="60.0870228109205" lon="11.016716270777803" id="-13214">
		<tag k="fixme" v="consider place=hamlet" />
		<tag k="name" v="Nordre Rud" />
		<tag k="place" v="farm" />
		<tag k="ssr:stedsnr" v="1080606" />
	</node>
	<node lat="60.08634155140466" lon="11.015726734796564" id="-13215">
		<tag k="name" v="Rud" />
		<tag k="place" v="hamlet" />
		<tag k="ssr:stedsnr" v="1080607" />
=======
	<node id="-260176" lat="60.0824414203" lon="11.0848230654">
		<tag k="alt_name" v="Gjerdrum søndre" />
		<tag k="name" v="Gjerdrum" />
		<tag k="place" v="farm" />
		<tag k="ssr:stedsnr" v="612554" />
	</node>
	<node id="-260175" lat="60.0936861086" lon="11.0103833275">
		<tag k="alt_name" v="Åmot;Åmot vestre" />
		<tag k="name" v="Vestre Åmot" />
		<tag k="place" v="farm" />
		<tag k="ssr:stedsnr" v="611630" />
	</node>
	<node id="-260174" lat="60.0862805563" lon="11.0176083263">
		<tag k="alt_name" v="Rud, østre;Rud" />
		<tag k="name" v="Østre Rud" />
		<tag k="place" v="farm" />
		<tag k="ssr:stedsnr" v="611502" />
	</node>
	<node id="-260169" lat="60.0826611147" lon="10.9699027828">
		<tag k="name" v="Sørlåbekken" />
		<tag k="place" v="isolated_dwelling" />
		<tag k="ssr:stedsnr" v="690928" />
	</node>
	<node id="-260168" lat="60.0642611116" lon="11.0093027731">
		<tag k="landuse" v="winter_sports" />
		<tag k="name" v="Kniplia" />
		<tag k="piste:type" v="downhill" />
		<tag k="ssr:stedsnr" v="688047" />
	</node>
	<node id="-260166" lat="60.0832055564" lon="11.0192972142">
		<tag k="name" v="Seop" />
		<tag k="place" v="isolated_dwelling" />
		<tag k="ssr:stedsnr" v="508910" />
	</node>
	<node id="-260165" lat="60.0784694475" lon="10.9976611026">
		<tag k="name" v="Hungerholt" />
		<tag k="place" v="isolated_dwelling" />
		<tag k="ssr:stedsnr" v="508907" />
	</node>
	<node id="-260164" lat="60.0727138902" lon="11.0343083417">
		<tag k="alt_name" v="Ask vestre" />
		<tag k="name" v="Vestre Ask" />
		<tag k="place" v="farm" />
		<tag k="ssr:stedsnr" v="508896" />
	</node>
	<node id="-260163" lat="60.0736111118" lon="11.027508342">
		<tag k="name" v="Grønnvoll" />
		<tag k="place" v="isolated_dwelling" />
		<tag k="ssr:stedsnr" v="508881" />
	</node>
	<node id="-260157" lat="60.1131611123" lon="10.936005549">
		<tag k="name" v="Årstadvangen" />
		<tag k="place" v="isolated_dwelling" />
		<tag k="ssr:stedsnr" v="673589" />
	</node>
	<node id="-260156" lat="60.0816388882" lon="11.000777783">
		<tag k="name" v="Horka" />
		<tag k="place" v="isolated_dwelling" />
		<tag k="ssr:stedsnr" v="673537" />
	</node>
	<node id="-260155" lat="60.0622250023" lon="11.0302444429">
		<tag k="alt_name" v="Brådal, søndre;Brådal søndre" />
		<tag k="name" v="Søndre Brådal" />
		<tag k="place" v="farm" />
		<tag k="ssr:stedsnr" v="673511" />
	</node>
	<node id="-260153" lat="60.045775" lon="10.9935305605">
		<tag k="alt_name" v="Ringdalshytta" />
		<tag k="name" v="Ringdalskoia" />
		<tag k="place" v="isolated_dwelling" />
		<tag k="ssr:stedsnr" v="673467" />
	</node>
	<node id="-260152" lat="60.0313416634" lon="11.0411694373">
		<tag k="alt_name" v="Flatner" />
		<tag k="name" v="Fløtten" />
		<tag k="place" v="farm" />
		<tag k="ssr:stedsnr" v="673435" />
	</node>
	<node id="-260151" lat="60.1008416627" lon="11.0659166685">
		<tag k="name" v="Tori" />
		<tag k="place" v="farm" />
		<tag k="ssr:stedsnr" v="672582" />
	</node>
	<node id="-260150" lat="60.0539611147" lon="11.0319499974">
		<tag k="alt_name" v="Flatby, søndre" />
		<tag k="name" v="Søndre Flatby" />
		<tag k="place" v="farm" />
		<tag k="ssr:stedsnr" v="672438" />
	</node>
	<node id="-260149" lat="60.1050305528" lon="11.0510805541">
		<tag k="name" v="Flaen" />
		<tag k="place" v="farm" />
		<tag k="ssr:stedsnr" v="448917" />
	</node>
	<node id="-260148" lat="60.1053555571" lon="11.0502750003">
		<tag k="name" v="Hellerud" />
		<tag k="place" v="farm" />
		<tag k="ssr:stedsnr" v="448913" />
	</node>
	<node id="-260145" lat="60.0900027803" lon="11.0930888949">
		<tag k="name" v="Gjerdrum" />
		<tag k="place" v="farm" />
		<tag k="ssr:stedsnr" v="448009" />
	</node>
	<node id="-260142" lat="60.0471749998" lon="11.0320666656">
		<tag k="name" v="Sagholen" />
		<tag k="place" v="isolated_dwelling" />
		<tag k="ssr:stedsnr" v="430434" />
	</node>
	<node id="-260139" lat="60.0487583324" lon="11.0586194454">
		<tag k="name" v="Rud" />
		<tag k="place" v="farm" />
		<tag k="ssr:stedsnr" v="430424" />
	</node>
	<node id="-260137" lat="60.0508305555" lon="11.0465749986">
		<tag k="name" v="Svingen" />
		<tag k="place" v="farm" />
		<tag k="ssr:stedsnr" v="509899" />
	</node>
	<node id="-260135" lat="60.0820777795" lon="11.0863000021">
		<tag k="name" v="Gjeri" />
		<tag k="place" v="isolated_dwelling" />
		<tag k="ssr:stedsnr" v="508020" />
	</node>
	<node id="-260134" lat="60.1093916711" lon="11.0892972273">
		<tag k="name" v="Grønvoll" />
		<tag k="place" v="farm" />
		<tag k="ssr:stedsnr" v="508108" />
	</node>
	<node id="-260133" lat="60.0782305525" lon="11.0359416607">
		<tag k="name" v="Klokkerenga" />
		<tag k="place" v="farm" />
		<tag k="ssr:stedsnr" v="387872" />
	</node>
	<node id="-260131" lat="60.0491666671" lon="11.0287249991">
		<tag k="name" v="Tuterud" />
		<tag k="place" v="farm" />
		<tag k="ssr:stedsnr" v="369404" />
	</node>
	<node id="-260129" lat="60.1143000042" lon="11.087224993">
		<tag k="name" v="Smedhaugen" />
		<tag k="place" v="isolated_dwelling" />
		<tag k="ssr:stedsnr" v="491591" />
	</node>
	<node id="-260128" lat="60.0744138874" lon="11.0383499983">
		<tag k="alt_name" v="Ask, øvre;Ask store;Ask østre" />
		<tag k="name" v="Store Ask" />
		<tag k="place" v="farm" />
		<tag k="ssr:stedsnr" v="491581" />
	</node>
	<node id="-260127" lat="60.0712666648" lon="11.0377249997">
		<tag k="amenity" v="school" />
		<tag k="name" v="Gjerdrum barneskole" />
		<tag k="old_name" v="Ask skole" />
		<tag k="ssr:stedsnr" v="491576" />
	</node>
	<node id="-260126" lat="60.0743749976" lon="11.0082888831">
		<tag k="name" v="Nygård" />
		<tag k="place" v="farm" />
		<tag k="ssr:stedsnr" v="491566" />
	</node>
	<node id="-260123" lat="60.0941888858" lon="10.9996222142">
		<tag k="name" v="Gistihaugen" />
		<tag k="place" v="isolated_dwelling" />
		<tag k="ssr:stedsnr" v="490605" />
	</node>
	<node id="-260121" lat="60.0808333291" lon="11.0279000084">
		<tag k="alt_name" v="Fossum, østre;Fossum" />
		<tag k="name" v="Østre Fossum" />
		<tag k="place" v="farm" />
		<tag k="ssr:stedsnr" v="490516" />
	</node>
	<node id="-260119" lat="60.0521000018" lon="11.0512111099">
		<tag k="alt_name" v="Skjærhaugen" />
		<tag k="name" v="Verning" />
		<tag k="place" v="farm" />
		<tag k="ssr:stedsnr" v="490453" />
	</node>
	<node id="-260114" lat="60.078786107" lon="11.0982083314">
		<tag k="name" v="Prestegardshagen" />
		<tag k="place" v="locality" />
		<tag k="ssr:stedsnr" v="326012" />
	</node>
	<node id="-260113" lat="60.1081944447" lon="11.0928333281">
		<tag k="name" v="Nordre Rogstad" />
		<tag k="place" v="farm" />
		<tag k="ssr:stedsnr" v="464397" />
	</node>
	<node id="-260112" lat="60.0974500015" lon="11.0571166683">
		<tag k="name" v="Heni" />
		<tag k="place" v="farm" />
		<tag k="ssr:stedsnr" v="265917" />
	</node>
	<node id="-260111" lat="60.0963916665" lon="11.0036555501">
		<tag k="name" v="Gisti" />
		<tag k="place" v="farm" />
		<tag k="ssr:stedsnr" v="248616" />
	</node>
	<node id="-260110" lat="60.1202333348" lon="11.0818361119">
		<tag k="alt_name" v="Løvstad, nordre;Løvstad" />
		<tag k="name" v="Nordre Løvstad" />
		<tag k="place" v="farm" />
		<tag k="ssr:stedsnr" v="248580" />
	</node>
	<node id="-260109" lat="60.0760194409" lon="11.0315777821">
		<tag k="alt_name" v="Ask, nedre;Ask vesle;Ask lille" />
		<tag k="name" v="Vesle Ask" />
		<tag k="place" v="farm" />
		<tag k="ssr:stedsnr" v="248560" />
	</node>
	<node id="-260102" lat="60.0725555521" lon="10.9974527749">
		<tag k="name" v="Kulsrudfjellet" />
		<tag k="place" v="quarter" />
		<tag k="ssr:stedsnr" v="445054" />
	</node>
	<node id="-260098" lat="60.0966694408" lon="11.0312277744">
		<tag k="name" v="Kokstadhaugen" />
		<tag k="place" v="farm" />
		<tag k="ssr:stedsnr" v="266905" />
	</node>
	<node id="-260097" lat="60.085327781" lon="11.0219750057">
		<tag k="name" v="Fossum" />
		<tag k="place" v="farm" />
		<tag k="ssr:stedsnr" v="266900" />
>>>>>>> e1d4bc35ff8a6074a6f2e91616a996b547c36f15
	</node>
</osm>
