<?xml version="1.0" encoding="UTF-8"?>
<osm generator="osmapis" version="0.6">
	<node id="-251648" lat="60.0573999993" lon="10.9414361102">
		<tag k="fixme" v="consider natural=peak for the most distinct mountains in the district" />
		<tag k="name" v="Lauvhaugen" />
		<tag k="natural" v="hill" />
		<tag k="place" v="locality" />
		<tag k="ssr:stedsnr" v="873959" />
	</node>
	<node id="-251775" lat="60.094886109" lon="10.9836888888">
		<tag k="name" v="Gistifjellet" />
		<tag k="natural" v="hill" />
		<tag k="place" v="locality" />
		<tag k="ssr:stedsnr" v="569901" />
	</node>
	<node id="-251646" lat="60.0426527798" lon="11.0274027721">
		<tag k="name" v="Bjønndalen" />
		<tag k="natural" v="valley" />
		<tag k="place" v="locality" />
		<tag k="ssr:stedsnr" v="873918" />
	</node>
	<node id="-251762" lat="60.0536305538" lon="10.9402250036">
		<tag k="fixme" v="consider natural=peak for the most distinct mountains in the district" />
		<tag k="name" v="Prekestolen" />
		<tag k="natural" v="hill" />
		<tag k="place" v="locality" />
		<tag k="ssr:stedsnr" v="551465" />
	</node>
	<node id="-251758" lat="60.0711388902" lon="10.9650305623">
		<tag k="name" v="Steindalen" />
		<tag k="natural" v="valley" />
		<tag k="place" v="locality" />
		<tag k="ssr:stedsnr" v="430540" />
	</node>
	<node id="-251557" lat="60.0963305542" lon="10.9707055589">
		<tag k="name" v="Molia" />
		<tag k="natural" v="slope" />
		<tag k="place" v="locality" />
		<tag k="ssr:stedsnr" v="387925" />
	</node>
	<node id="-251739" lat="60.1117111085" lon="10.9624083288">
		<tag k="alt_name" v="Trolsnesfjellet" />
		<tag k="fixme" v="consider natural=peak for the most distinct mountains in the district" />
		<tag k="name" v="Trollsnesfjellet" />
		<tag k="natural" v="hill" />
		<tag k="place" v="locality" />
		<tag k="ssr:stedsnr" v="369519" />
	</node>
	<node id="-251729" lat="60.1183833298" lon="10.9320999995">
		<tag k="name" v="Stårrdalen" />
		<tag k="natural" v="valley" />
		<tag k="place" v="locality" />
		<tag k="ssr:stedsnr" v="309685" />
	</node>
	<node id="-251595" lat="60.1017333309" lon="11.0097555562">
		<tag k="name" v="Skeismoen" />
		<tag k="place" v="locality" />
		<tag k="ssr:stedsnr" v="691891" />
	</node>
	<node id="-251719" lat="60.1025083328" lon="10.9543749996">
		<tag k="name" v="Vangslia" />
		<tag k="natural" v="slope" />
		<tag k="place" v="locality" />
		<tag k="ssr:stedsnr" v="206929" />
	</node>
	<node id="-251716" lat="60.0809555589" lon="10.9747055535">
		<tag k="name" v="Elvesvingen" />
		<tag k="place" v="locality" />
		<tag k="ssr:stedsnr" v="205928" />
	</node>
	<node id="-251715" lat="60.0816527733" lon="11.0077138935">
		<tag k="name" v="Møllerhaugen" />
		<tag k="natural" v="hill" />
		<tag k="place" v="locality" />
		<tag k="ssr:stedsnr" v="205911" />
	</node>
	<node id="-251586" lat="60.0977249987" lon="11.0418333421">
		<tag k="name" v="Kankedalen" />
		<tag k="natural" v="valley" />
		<tag k="place" v="locality" />
		<tag k="ssr:stedsnr" v="673620" />
	</node>
	<node id="-251583" lat="60.104102781" lon="11.0483583359">
		<tag k="name" v="Kjærstadsletta" />
		<tag k="place" v="locality" />
		<tag k="ssr:stedsnr" v="673594" />
	</node>
	<node id="-251579" lat="60.0459416625" lon="10.9928388933">
		<tag k="name" v="Ringdalen" />
		<tag k="natural" v="valley" />
		<tag k="place" v="locality" />
		<tag k="ssr:stedsnr" v="673469" />
	</node>
	<node id="-251703" lat="60.0568916675" lon="11.0026500073">
		<tag k="fixme" v="consider natural=peak for the most distinct mountains in the district" />
		<tag k="name" v="Klintehøgda" />
		<tag k="natural" v="hill" />
		<tag k="place" v="locality" />
		<tag k="ssr:stedsnr" v="187440" />
	</node>
	<node id="-251828" lat="60.0612499961" lon="11.0205166697">
		<tag k="name" v="Brådalsfjellet" />
		<tag k="natural" v="hill" />
		<tag k="place" v="locality" />
		<tag k="ssr:stedsnr" v="873943" />
	</node>
	<node id="-251827" lat="60.0553722242" lon="11.0199611108">
		<tag k="name" v="Flatbyfjellet" />
		<tag k="natural" v="hill" />
		<tag k="place" v="locality" />
		<tag k="ssr:stedsnr" v="873941" />
	</node>
	<node id="-251571" lat="60.0831916652" lon="10.9919166735">
		<tag k="name" v="Åmotsfjellet" />
		<tag k="natural" v="hill" />
		<tag k="place" v="locality" />
		<tag k="ssr:stedsnr" v="448904" />
	</node>
	<node id="-251568" lat="60.0541305591" lon="10.9544805499">
		<tag k="fixme" v="consider natural=peak for the most distinct mountains in the district" />
		<tag k="name" v="Lalaåsen" />
		<tag k="natural" v="hill" />
		<tag k="place" v="locality" />
		<tag k="ssr:stedsnr" v="430455" />
	</node>
	<node id="-251699" lat="60.0584361133" lon="11.0020361097">
		<tag k="name" v="Maurholet" />
		<tag k="natural" v="valley" />
		<tag k="place" v="locality" />
		<tag k="ssr:stedsnr" v="144948" />
	</node>
	<node id="-251561" lat="60.0812861135" lon="10.950633325">
		<tag k="name" v="Rogstadlia" />
		<tag k="natural" v="slope" />
		<tag k="place" v="locality" />
		<tag k="ssr:stedsnr" v="508925" />
	</node>
	<node id="-251816" lat="60.0396611142" lon="11.0171722237">
		<tag k="name" v="Ulvedalen" />
		<tag k="natural" v="valley" />
		<tag k="place" v="locality" />
		<tag k="ssr:stedsnr" v="855430" />
	</node>
	<node id="-251815" lat="60.0888611069" lon="11.0415222308">
		<tag k="name" v="Hellen" />
		<tag k="place" v="locality" />
		<tag k="ssr:stedsnr" v="855485" />
	</node>
	<node id="-251813" lat="60.0647166629" lon="11.0067055587">
		<tag k="name" v="Kniplia" />
		<tag k="natural" v="slope" />
		<tag k="place" v="locality" />
		<tag k="ssr:stedsnr" v="812959" />
	</node>
	<node id="-251811" lat="60.1065972251" lon="10.9554999973">
		<tag k="name" v="Brenna" />
		<tag k="natural" v="slope" />
		<tag k="place" v="locality" />
		<tag k="ssr:stedsnr" v="812946" />
	</node>
	<node id="-251810" lat="60.0387305512" lon="11.0232555506">
		<tag k="fixme" v="consider natural=peak for the most distinct mountains in the district" />
		<tag k="name" v="Flatnerfjellet" />
		<tag k="natural" v="hill" />
		<tag k="place" v="locality" />
		<tag k="ssr:stedsnr" v="812929" />
	</node>
	<node id="-251807" lat="60.1184888852" lon="10.9908583383">
		<tag k="name" v="Rustadfjellet" />
		<tag k="natural" v="hill" />
		<tag k="place" v="locality" />
		<tag k="ssr:stedsnr" v="812093" />
	</node>
	<node id="-251550" lat="60.0667388865" lon="11.0157138863">
		<tag k="name" v="Modalen" />
		<tag k="natural" v="valley" />
		<tag k="place" v="locality" />
		<tag k="ssr:stedsnr" v="491530" />
	</node>
	<node id="-251806" lat="60.0994777756" lon="10.9854416729">
		<tag k="fixme" v="consider natural=peak for the most distinct mountains in the district" />
		<tag k="name" v="Eikebergsfjellet" />
		<tag k="natural" v="hill" />
		<tag k="place" v="locality" />
		<tag k="ssr:stedsnr" v="794597" />
	</node>
	<node id="-251630" lat="60.05655278" lon="11.0518833321">
		<tag k="name" v="Tangendalen" />
		<tag k="natural" v="valley" />
		<tag k="place" v="locality" />
		<tag k="ssr:stedsnr" v="794453" />
	</node>
	<node id="-251541" lat="60.0681083368" lon="11.0389333425">
		<tag k="name" v="Hønsisletta" />
		<tag k="place" v="locality" />
		<tag k="ssr:stedsnr" v="327931" />
	</node>
	<node id="-251796" lat="60.0570055575" lon="10.9666583257">
		<tag k="name" v="Kalverabben" />
		<tag k="natural" v="hill" />
		<tag k="place" v="locality" />
		<tag k="ssr:stedsnr" v="751956" />
	</node>
	<node id="-251667" lat="60.0612166702" lon="11.0150166629">
		<tag k="name" v="Ulvedalshøgda" />
		<tag k="natural" v="hill" />
		<tag k="place" v="locality" />
		<tag k="ssr:stedsnr" v="66466" />
	</node>
	<node id="-251666" lat="60.0371583349" lon="11.0649194437">
		<tag k="fixme" v="multiple name tags, choose one and add the other to alt_name; consider natural=peak for the most distinct mountains in the district" />
		<tag k="name" v="Heksebergfjellet;Vardåsen;Vardfjellet" />
		<tag k="natural" v="hill" />
		<tag k="old_name" v="Heksebergfjeldet" />
		<tag k="place" v="locality" />
		<tag k="ssr:stedsnr" v="66374" />
	</node>
	<node id="-251786" lat="60.1179944421" lon="10.9754749934">
		<tag k="name" v="Kulpemyrlia" />
		<tag k="natural" v="slope" />
		<tag k="place" v="locality" />
		<tag k="ssr:stedsnr" v="629095" />
	</node>
	<node id="-251528" lat="60.07798611" lon="10.9538444523">
		<tag k="name" v="Rogstaddalen" />
		<tag k="natural" v="valley" />
		<tag k="place" v="locality" />
		<tag k="ssr:stedsnr" v="448925" />
	</node>
	<node id="-251525" lat="60.1087416639" lon="10.9287083316">
		<tag k="name" v="Sandumsvangslia" />
		<tag k="natural" v="slope" />
		<tag k="place" v="locality" />
		<tag k="ssr:stedsnr" v="266956" />
	</node>
	<node id="-251778" lat="60.0828111105" lon="10.9414805621">
		<tag k="name" v="Jenselia" />
		<tag k="natural" v="slope" />
		<tag k="place" v="locality" />
		<tag k="ssr:stedsnr" v="569947" />
	</node>
</osm>
