<?xml version="1.0" encoding="UTF-8"?>
<osm version="0.6" generator="osmapis">
	<node lat="60.850566665060335" lon="11.043102781904635" id="-35828">
		<tag k="amenity" v="community_centre" />
		<tag k="name" v="Bjørkhol" />
		<tag k="ssr:stedsnr" v="42390" />
	</node>
	<node lat="61.11416666971184" lon="10.90376110351472" id="-35852">
		<tag k="name" v="Kvelven" />
		<tag k="place" v="locality" />
		<tag k="ssr:stedsnr" v="68536" />
	</node>
	<node lat="60.7517777804655" lon="10.96524166121113" id="-35978">
		<tag k="amenity" v="community_centre" />
		<tag k="name" v="Bjørkvang" />
		<tag k="ssr:stedsnr" v="130522" />
	</node>
	<node lat="60.91200277933695" lon="10.807547216292916" id="-35987">
		<tag k="name" v="Prøysenstua" />
		<tag k="ssr:stedsnr" v="240776" />
		<tag k="tourism" v="museum" />
	</node>
	<node lat="60.88460555635313" lon="10.952805560938009" id="-35993">
		<tag k="amenity" v="place_of_worship" />
		<tag k="denomination" v="lutheran" />
		<tag k="name" v="Brumunddal kirke" />
		<tag k="religion" v="christian" />
		<tag k="ssr:stedsnr" v="241986" />
	</node>
	<node lat="61.07067499815429" lon="10.628338882484595" id="-36018">
		<tag k="amenity" v="community_centre" />
		<tag k="name" v="Hagatun" />
		<tag k="ssr:stedsnr" v="180319" />
	</node>
	<node lat="60.8835416627942" lon="10.947224992863129" id="-36313">
		<tag k="amenity" v="community_centre" />
		<tag k="name" v="Buttekverntunet" />
		<tag k="ssr:stedsnr" v="362819" />
	</node>
	<node lat="60.815080551643106" lon="10.910741669721295" id="-36493">
		<tag k="amenity" v="community_centre" />
		<tag k="name" v="Myrgård" />
		<tag k="ssr:stedsnr" v="664920" />
	</node>
	<node lat="61.011669441535915" lon="10.780119437225299" id="-36526">
		<tag k="amenity" v="place_of_worship" />
		<tag k="denomination" v="lutheran" />
		<tag k="name" v="Åsmarka kirke" />
		<tag k="old_name" v="Åsmarka kapell" />
		<tag k="religion" v="christian" />
		<tag k="ssr:stedsnr" v="492538" />
	</node>
	<node lat="61.02746388932823" lon="10.753399991670749" id="-36540">
		<tag k="amenity" v="community_centre" />
		<tag k="name" v="Åsheim" />
		<tag k="ssr:stedsnr" v="493586" />
	</node>
	<node lat="60.785347220489164" lon="10.946255556144228" id="-36628">
		<tag k="amenity" v="community_centre" />
		<tag k="name" v="Bjørktun" />
		<tag k="ssr:stedsnr" v="543809" />
	</node>
	<node lat="61.1025972188541" lon="10.69235555369069" id="-36707">
		<tag k="amenity" v="place_of_worship" />
		<tag k="denomination" v="lutheran" />
		<tag k="name" v="Mesnali kirke" />
		<tag k="religion" v="christian" />
		<tag k="ssr:stedsnr" v="600674" />
	</node>
	<node lat="61.155166667999985" lon="10.688688897089904" id="-36710">
		<tag k="amenity" v="place_of_worship" />
		<tag k="denomination" v="lutheran" />
		<tag k="name" v="Sjusjøen fjellkirke" />
		<tag k="religion" v="christian" />
		<tag k="ssr:stedsnr" v="601012" />
	</node>
	<node lat="61.1073999963036" lon="10.692077786642878" id="-36896">
		<tag k="amenity" v="community_centre" />
		<tag k="name" v="Fjellnær" />
		<tag k="ssr:stedsnr" v="725020" />
	</node>
	<node lat="61.028230558464415" lon="10.549938886428707" id="-36899">
		<tag k="amenity" v="place_of_worship" />
		<tag k="denomination" v="lutheran" />
		<tag k="name" v="Brøttum kirke" />
		<tag k="religion" v="christian" />
		<tag k="ssr:stedsnr" v="725597" />
	</node>
	<node lat="60.74457222307245" lon="10.958402769966758" id="-36920">
		<tag k="alt_name" v="Helgøya" />
		<tag k="amenity" v="place_of_worship" />
		<tag k="denomination" v="lutheran" />
		<tag k="name" v="Helgøya kirke" />
		<tag k="old_name" v="Helgøy kirke" />
		<tag k="religion" v="christian" />
		<tag k="ssr:stedsnr" v="735906" />
	</node>
	<node lat="60.92043611464391" lon="10.908083342421195" id="-36977">
		<tag k="amenity" v="community_centre" />
		<tag k="name" v="Veldrom" />
		<tag k="ssr:stedsnr" v="785514" />
	</node>
	<node lat="60.94100833775467" lon="10.97852499820227" id="-37232">
		<tag k="amenity" v="community_centre" />
		<tag k="name" v="Brumundheimen" />
		<tag k="ssr:stedsnr" v="952029" />
	</node>
	<node lat="60.90282222265148" lon="10.724774997556842" id="-37419">
		<tag k="amenity" v="place_of_worship" />
		<tag k="denomination" v="lutheran" />
		<tag k="name" v="Ringsaker kirke" />
		<tag k="religion" v="christian" />
		<tag k="ssr:stedsnr" v="9226" />
	</node>
	<node lat="60.89612777681779" lon="10.878336104624825" id="-37482">
		<tag k="name" v="Verdens ende" />
		<tag k="ssr:stedsnr" v="57955" />
		<tag k="tourism" v="viewpoint" />
	</node>
	<node lat="61.107716669905074" lon="10.981930552895031" id="-37596">
		<tag k="name" v="Linstadbua" />
		<tag k="place" v="locality" />
		<tag k="ssr:stedsnr" v="117226" />
	</node>
	<node lat="60.841041665874464" lon="11.021344446747019" id="-37782">
		<tag k="amenity" v="place_of_worship" />
		<tag k="denomination" v="lutheran" />
		<tag k="name" v="Furnes kirke" />
		<tag k="religion" v="christian" />
		<tag k="ssr:stedsnr" v="191380" />
	</node>
	<node lat="60.897880558754814" lon="10.76123332900413" id="-37872">
		<tag k="amenity" v="community_centre" />
		<tag k="name" v="Fremad" />
		<tag k="ssr:stedsnr" v="301817" />
	</node>
	<node lat="60.93166666894805" lon="10.704030559579945" id="-37965">
		<tag k="amenity" v="community_centre" />
		<tag k="name" v="Folkets hus" />
		<tag k="ssr:stedsnr" v="343677" />
	</node>
	<node lat="60.944558337544336" lon="10.687566661549488" id="-37970">
		<tag k="name" v="Tolvstenene" />
		<tag k="ssr:stedsnr" v="343284" />
		<tag k="tourism" v="attraction" />
	</node>
	<node lat="60.89653055839408" lon="10.854502776830698" id="-37999">
		<tag k="amenity" v="community_centre" />
		<tag k="name" v="Røysheim" />
		<tag k="ssr:stedsnr" v="360955" />
	</node>
	<node lat="60.91728333303228" lon="10.890533338631037" id="-38051">
		<tag k="amenity" v="place_of_worship" />
		<tag k="denomination" v="lutheran" />
		<tag k="name" v="Veldre kirke" />
		<tag k="religion" v="christian" />
		<tag k="ssr:stedsnr" v="373226" />
	</node>
	<node lat="60.98073611297019" lon="11.026238895293298" id="-38093">
		<tag k="name" v="Kjeikerud" />
		<tag k="place" v="locality" />
		<tag k="ssr:stedsnr" v="419044" />
	</node>
	<node lat="60.89461111542325" lon="10.843699992910055" id="-38105">
		<tag k="amenity" v="community_centre" />
		<tag k="name" v="Sangheim" />
		<tag k="ssr:stedsnr" v="421973" />
	</node>
	<node lat="61.10073333284282" lon="10.702188885891099" id="-38121">
		<tag k="amenity" v="community_centre" />
		<tag k="name" v="Vangen" />
		<tag k="ssr:stedsnr" v="431774" />
	</node>
	<node lat="60.90240000349757" lon="10.729455563652731" id="-38226">
		<tag k="amenity" v="community_centre" />
		<tag k="name" v="Tingvang" />
		<tag k="ssr:stedsnr" v="495266" />
	</node>
	<node lat="60.959233334252424" lon="10.689894440127214" id="-38243">
		<tag k="amenity" v="community_centre" />
		<tag k="name" v="Borgen" />
		<tag k="ssr:stedsnr" v="525332" />
	</node>
	<node lat="60.931880553353224" lon="10.697758334878907" id="-38249">
		<tag k="amenity" v="place_of_worship" />
		<tag k="fixme" v="specify religion=*, denomination=*, building=* etc" />
		<tag k="name" v="Moelv kirkesenter" />
		<tag k="ssr:stedsnr" v="525636" />
	</node>
	<node lat="60.86373333650651" lon="11.075497214604194" id="-38372">
		<tag k="amenity" v="community_centre" />
		<tag k="name" v="Gålås skole" />
		<tag k="ssr:stedsnr" v="586827" />
	</node>
	<node lat="60.762169447852315" lon="10.94311112026927" id="-38480">
		<tag k="amenity" v="place_of_worship" />
		<tag k="denomination" v="lutheran" />
		<tag k="name" v="Nes kirke" />
		<tag k="religion" v="christian" />
		<tag k="ssr:stedsnr" v="645476" />
	</node>
	<node lat="61.038074998689055" lon="10.529847214274016" id="-38548">
		<tag k="amenity" v="community_centre" />
		<tag k="name" v="Høgvang" />
		<tag k="ssr:stedsnr" v="725609" />
	</node>
	<node lat="60.80513888644246" lon="10.839852774535514" id="-38601">
		<tag k="amenity" v="place_of_worship" />
		<tag k="denomination" v="lutheran" />
		<tag k="name" v="Stavsjø kirke" />
		<tag k="religion" v="christian" />
		<tag k="ssr:stedsnr" v="737450" />
	</node>
</osm>
