<?xml version="1.0" encoding="UTF-8"?>
<<<<<<< HEAD
<osm version="0.6" generator="osmapis">
	<node lat="61.04737777963614" lon="10.69847778008992" id="-28261">
		<tag k="name" v="Kloppmyra" />
		<tag k="natural" v="wetland" />
		<tag k="ssr:stedsnr" v="8700" />
	</node>
	<node lat="61.02393611330119" lon="11.00329167267049" id="-28297">
		<tag k="name" v="Gautsætermarka" />
		<tag k="place" v="locality" />
		<tag k="ssr:stedsnr" v="40166" />
	</node>
	<node lat="61.05856111316466" lon="10.865563895797921" id="-28304">
		<tag k="name" v="Stormyra" />
		<tag k="natural" v="wetland" />
		<tag k="ssr:stedsnr" v="40408" />
	</node>
	<node lat="61.124280554341695" lon="10.794705563287291" id="-28323">
		<tag k="name" v="Saugstadmyra" />
		<tag k="natural" v="wetland" />
		<tag k="ssr:stedsnr" v="57707" />
	</node>
	<node lat="61.14057222503401" lon="10.675136108984171" id="-28326">
		<tag k="historic" v="shieling" />
		<tag k="name" v="Skulivangen" />
		<tag k="place" v="locality" />
		<tag k="ssr:stedsnr" v="58007" />
	</node>
	<node lat="61.0060027798987" lon="10.653299997790931" id="-28329">
		<tag k="name" v="Arnestumyra" />
		<tag k="natural" v="wetland" />
		<tag k="ssr:stedsnr" v="58387" />
	</node>
	<node lat="61.06239166504066" lon="10.801100008797073" id="-28341">
		<tag k="name" v="Eftasmyra" />
		<tag k="natural" v="wetland" />
		<tag k="ssr:stedsnr" v="241723" />
	</node>
	<node lat="60.90158055457071" lon="11.066777779395872" id="-28386">
		<tag k="name" v="Maritmyra" />
		<tag k="natural" v="wetland" />
		<tag k="ssr:stedsnr" v="81002" />
	</node>
	<node lat="61.02308611217897" lon="11.034855553690749" id="-28395">
		<tag k="name" v="Kyruhyttmyra" />
		<tag k="natural" v="wetland" />
		<tag k="ssr:stedsnr" v="101117" />
	</node>
	<node lat="61.075544447089214" lon="10.987205557213082" id="-28396">
		<tag k="name" v="Kjerkeholen" />
		<tag k="place" v="locality" />
		<tag k="ssr:stedsnr" v="101119" />
	</node>
	<node lat="61.00290278175059" lon="10.997394443608263" id="-28399">
		<tag k="name" v="Svartåsmyra" />
		<tag k="natural" v="wetland" />
		<tag k="ssr:stedsnr" v="101123" />
	</node>
	<node lat="61.024055555835695" lon="10.781363891730418" id="-28403">
		<tag k="name" v="Stordamskogen" />
		<tag k="place" v="locality" />
		<tag k="ssr:stedsnr" v="101679" />
	</node>
	<node lat="61.095524996330546" lon="10.875374995011466" id="-28423">
		<tag k="name" v="Stormyra" />
		<tag k="natural" v="wetland" />
		<tag k="ssr:stedsnr" v="250508" />
	</node>
	<node lat="61.10970833214818" lon="10.763005553786622" id="-28424">
		<tag k="name" v="Stormyra" />
		<tag k="natural" v="wetland" />
		<tag k="ssr:stedsnr" v="250512" />
	</node>
	<node lat="61.033852777868866" lon="10.875024994524493" id="-28427">
		<tag k="name" v="Langkloppmyra" />
		<tag k="natural" v="wetland" />
		<tag k="ssr:stedsnr" v="250588" />
	</node>
	<node lat="60.976399997233756" lon="11.043738895272" id="-28508">
		<tag k="name" v="Grønmyra" />
		<tag k="natural" v="wetland" />
		<tag k="ssr:stedsnr" v="130077" />
	</node>
	<node lat="60.99430000377777" lon="10.89657499216602" id="-28509">
		<tag k="name" v="Furumyra" />
		<tag k="natural" v="wetland" />
		<tag k="ssr:stedsnr" v="130089" />
	</node>
	<node lat="60.98948055851669" lon="10.87587777294409" id="-28510">
		<tag k="name" v="Danseråsmyra" />
		<tag k="natural" v="wetland" />
		<tag k="ssr:stedsnr" v="130091" />
	</node>
	<node lat="60.91517499743593" lon="11.07172500259863" id="-28511">
		<tag k="name" v="Lekmyr" />
		<tag k="natural" v="wetland" />
		<tag k="ssr:stedsnr" v="130202" />
	</node>
	<node lat="61.18215555425404" lon="10.964288892818823" id="-28567">
		<tag k="landuse" v="meadow" />
		<tag k="name" v="Geitryggen" />
		<tag k="ssr:stedsnr" v="180257" />
	</node>
	<node lat="60.987952780372616" lon="10.862105562543082" id="-28570">
		<tag k="name" v="Furumyra" />
		<tag k="natural" v="wetland" />
		<tag k="ssr:stedsnr" v="180322" />
	</node>
	<node lat="61.06452222356783" lon="10.704952784670112" id="-28572">
		<tag k="landuse" v="quarry" />
		<tag k="name" v="Sæterligruva" />
		<tag k="ssr:stedsnr" v="180462" />
	</node>
	<node lat="61.04888888820058" lon="11.034786117825501" id="-28582">
		<tag k="name" v="Lagerhyttmyra" />
		<tag k="natural" v="wetland" />
		<tag k="ssr:stedsnr" v="190603" />
	</node>
	<node lat="60.906808337366286" lon="11.06720276980748" id="-28599">
		<tag k="historic" v="shieling" />
		<tag k="name" v="Dekarud" />
		<tag k="place" v="locality" />
		<tag k="ssr:stedsnr" v="191224" />
	</node>
	<node lat="60.98342778230733" lon="10.954636103545413" id="-28608">
		<tag k="name" v="Nysætermyra" />
		<tag k="natural" v="wetland" />
		<tag k="ssr:stedsnr" v="264011" />
	</node>
	<node lat="60.99623055220475" lon="10.939924991588775" id="-28609">
		<tag k="name" v="Puttmyra" />
		<tag k="natural" v="wetland" />
		<tag k="ssr:stedsnr" v="264013" />
	</node>
	<node lat="60.97982222410879" lon="11.033102775757287" id="-28611">
		<tag k="historic" v="shieling" />
		<tag k="name" v="Jønnverkvollen" />
		<tag k="place" v="locality" />
		<tag k="ssr:stedsnr" v="264016" />
	</node>
	<node lat="60.982872222248034" lon="10.99070277078299" id="-28612">
		<tag k="name" v="Moltemyra" />
		<tag k="natural" v="wetland" />
		<tag k="ssr:stedsnr" v="203011" />
	</node>
	<node lat="60.86080278174235" lon="11.0338388974839" id="-28613">
		<tag k="name" v="Ampsmyra" />
		<tag k="natural" v="wetland" />
		<tag k="ssr:stedsnr" v="222305" />
	</node>
	<node lat="60.87861944072426" lon="11.069291658841498" id="-28614">
		<tag k="alt_name" v="Gålåsflåen" />
		<tag k="name" v="Gålåsflå" />
=======
<osm generator="osmapis" version="0.6">
	<node id="-309759" lat="61.0942444412" lon="10.8229972176">
		<tag k="name" v="Engemyra" />
		<tag k="natural" v="wetland" />
		<tag k="ssr:stedsnr" v="601719" />
	</node>
	<node id="-308219" lat="61.010813885" lon="10.59386944">
		<tag k="landuse" v="meadow" />
		<tag k="name" v="Øverhagen" />
		<tag k="ssr:stedsnr" v="709650" />
	</node>
	<node id="-309754" lat="60.9764749999" lon="11.0089500062">
		<tag k="name" v="Langholen" />
		<tag k="place" v="locality" />
		<tag k="ssr:stedsnr" v="600062" />
	</node>
	<node id="-308223" lat="61.0542055566" lon="11.0554916749">
		<tag k="name" v="Lortrasten" />
		<tag k="place" v="locality" />
		<tag k="ssr:stedsnr" v="586120" />
	</node>
	<node id="-307704" lat="60.9782750024" lon="11.0035361024">
		<tag k="name" v="Stormyrhalsen" />
>>>>>>> e1d4bc35ff8a6074a6f2e91616a996b547c36f15
		<tag k="place" v="locality" />
		<tag k="ssr:stedsnr" v="222320" />
	</node>
<<<<<<< HEAD
	<node lat="61.053350003675995" lon="10.842138888466907" id="-28617">
		<tag k="name" v="Tørrhaugen" />
=======
	<node id="-307703" lat="60.9860555581" lon="10.9992083271">
		<tag k="name" v="Elgholen" />
>>>>>>> e1d4bc35ff8a6074a6f2e91616a996b547c36f15
		<tag k="place" v="locality" />
		<tag k="ssr:stedsnr" v="222371" />
	</node>
<<<<<<< HEAD
	<node lat="61.102044444937206" lon="10.718188894026015" id="-28632">
		<tag k="name" v="Bergemyren" />
		<tag k="place" v="locality" />
		<tag k="ssr:stedsnr" v="237736" />
	</node>
	<node lat="60.99907777581777" lon="11.046891659717712" id="-28634">
		<tag k="name" v="Portmyra" />
=======
	<node id="-307702" lat="60.993224996" lon="11.0468694434">
		<tag k="alt_name" v="Mærraholtet" />
		<tag k="name" v="Merraholtet" />
		<tag k="place" v="locality" />
		<tag k="ssr:stedsnr" v="298046" />
	</node>
	<node id="-307349" lat="61.0533500037" lon="10.8421388885">
		<tag k="name" v="Tørrhaugen" />
		<tag k="place" v="locality" />
		<tag k="ssr:stedsnr" v="222371" />
	</node>
	<node id="-309234" lat="60.9908249998" lon="10.8535250001">
		<tag k="name" v="Eftasmyra" />
		<tag k="natural" v="wetland" />
		<tag k="ssr:stedsnr" v="302342" />
	</node>
	<node id="-308209" lat="61.0463999974" lon="11.0719361097">
		<tag k="name" v="Vannhaftet" />
		<tag k="natural" v="wetland" />
		<tag k="ssr:stedsnr" v="708159" />
	</node>
	<node id="-310254" lat="61.0797805599" lon="10.6773555649">
		<tag k="name" v="Steinmyra" />
		<tag k="natural" v="wetland" />
		<tag k="ssr:stedsnr" v="969484" />
	</node>
	<node id="-309226" lat="60.9828722222" lon="10.9907027708">
		<tag k="name" v="Moltemyra" />
		<tag k="natural" v="wetland" />
		<tag k="ssr:stedsnr" v="203011" />
	</node>
	<node id="-310249" lat="61.0445722216" lon="10.5445222204">
		<tag k="alt_name" v="Igletjennsmyra" />
		<tag k="name" v="Igletjernsmyra" />
>>>>>>> e1d4bc35ff8a6074a6f2e91616a996b547c36f15
		<tag k="natural" v="wetland" />
		<tag k="ssr:stedsnr" v="239038" />
	</node>
<<<<<<< HEAD
	<node lat="61.07082778175559" lon="10.64456388590223" id="-28641">
		<tag k="name" v="Lergravmarka" />
		<tag k="place" v="locality" />
		<tag k="ssr:stedsnr" v="241295" />
	</node>
	<node lat="61.0210194454469" lon="10.858347217354469" id="-28654">
		<tag k="name" v="Rådalsmyra" />
=======
	<node id="-308200" lat="61.0373777781" lon="10.8763833342">
		<tag k="name" v="Lauvmyra" />
>>>>>>> e1d4bc35ff8a6074a6f2e91616a996b547c36f15
		<tag k="natural" v="wetland" />
		<tag k="ssr:stedsnr" v="282376" />
	</node>
<<<<<<< HEAD
	<node lat="60.88829721841907" lon="11.101386114446921" id="-28656">
		<tag k="name" v="Røssbakkrønningen" />
		<tag k="place" v="locality" />
		<tag k="ssr:stedsnr" v="282525" />
	</node>
	<node lat="61.00881666437927" lon="10.542169448265359" id="-28672">
		<tag k="name" v="Dælimoen" />
		<tag k="place" v="locality" />
		<tag k="ssr:stedsnr" v="284728" />
	</node>
	<node lat="61.08683055645728" lon="10.599313896265551" id="-28683">
		<tag k="name" v="Dompidalshaugen" />
		<tag k="place" v="locality" />
		<tag k="ssr:stedsnr" v="298080" />
	</node>
	<node lat="61.08503333290574" lon="10.61821667350215" id="-28684">
		<tag k="name" v="Dunmyra" />
		<tag k="natural" v="wetland" />
		<tag k="ssr:stedsnr" v="298091" />
	</node>
	<node lat="61.098588888742874" lon="10.624566667343538" id="-28685">
		<tag k="name" v="Langmyråsen" />
		<tag k="place" v="locality" />
		<tag k="ssr:stedsnr" v="300079" />
	</node>
	<node lat="61.0932944445802" lon="10.673111119294724" id="-28691">
		<tag k="name" v="Lermyra" />
=======
	<node id="-308197" lat="60.9416333296" lon="10.684230557">
		<tag k="name" v="Smestadskogen" />
		<tag k="place" v="locality" />
		<tag k="ssr:stedsnr" v="707326" />
	</node>
	<node id="-310242" lat="60.9101638899" lon="10.9119861071">
		<tag k="name" v="Solstadhagan" />
		<tag k="place" v="locality" />
		<tag k="ssr:stedsnr" v="967535" />
	</node>
	<node id="-310241" lat="61.0122694474" lon="10.8590694381">
		<tag k="name" v="Slåttmyra" />
		<tag k="place" v="locality" />
		<tag k="ssr:stedsnr" v="967291" />
	</node>
	<node id="-310240" lat="61.0012777817" lon="11.0426638804">
		<tag k="name" v="Sandholmyra" />
		<tag k="natural" v="wetland" />
		<tag k="ssr:stedsnr" v="967031" />
	</node>
	<node id="-309725" lat="61.0255722195" lon="10.8369861064">
		<tag k="name" v="Øvre Heggebakkslåtten" />
		<tag k="place" v="locality" />
		<tag k="ssr:stedsnr" v="585348" />
	</node>
	<node id="-307676" lat="61.0488888882" lon="11.0347861178">
		<tag k="name" v="Lagerhyttmyra" />
		<tag k="natural" v="wetland" />
		<tag k="ssr:stedsnr" v="190603" />
	</node>
	<node id="-308699" lat="60.9783027812" lon="10.9894083391">
		<tag k="name" v="Kvitmyra" />
>>>>>>> e1d4bc35ff8a6074a6f2e91616a996b547c36f15
		<tag k="natural" v="wetland" />
		<tag k="ssr:stedsnr" v="464087" />
	</node>
<<<<<<< HEAD
	<node lat="60.9569361096383" lon="10.902591668378449" id="-28696">
		<tag k="name" v="Blekemyra" />
		<tag k="natural" v="wetland" />
		<tag k="ssr:stedsnr" v="464293" />
	</node>
	<node lat="61.00621388692081" lon="10.969308336051972" id="-28701">
		<tag k="name" v="Fløytmarka" />
		<tag k="place" v="locality" />
		<tag k="ssr:stedsnr" v="465134" />
	</node>
	<node lat="61.03385000010959" lon="10.765099993608386" id="-28707">
		<tag k="name" v="Bakmarka" />
		<tag k="place" v="locality" />
		<tag k="ssr:stedsnr" v="465672" />
	</node>
	<node lat="60.93286111563992" lon="11.058702774734154" id="-28742">
		<tag k="historic" v="shieling" />
		<tag k="name" v="Kårtorpsætervollen" />
		<tag k="place" v="locality" />
		<tag k="ssr:stedsnr" v="466514" />
	</node>
	<node lat="61.06336389343534" lon="10.887527773809136" id="-28754">
		<tag k="name" v="Gåstjernsmyra" />
=======
	<node id="-307667" lat="61.0645222236" lon="10.7049527847">
		<tag k="landuse" v="quarry" />
		<tag k="name" v="Sæterligruva" />
		<tag k="ssr:stedsnr" v="180462" />
	</node>
	<node id="-307665" lat="61.1656194449" lon="10.9363305569">
		<tag k="name" v="Børtenpussmyra" />
		<tag k="natural" v="wetland" />
		<tag k="ssr:stedsnr" v="180453" />
	</node>
	<node id="-307664" lat="61.1821555543" lon="10.9642888928">
		<tag k="landuse" v="meadow" />
		<tag k="name" v="Geitryggen" />
		<tag k="ssr:stedsnr" v="180257" />
	</node>
	<node id="-307663" lat="60.9879527804" lon="10.8621055625">
		<tag k="name" v="Furumyra" />
>>>>>>> e1d4bc35ff8a6074a6f2e91616a996b547c36f15
		<tag k="natural" v="wetland" />
		<tag k="ssr:stedsnr" v="343352" />
	</node>
<<<<<<< HEAD
	<node lat="61.06975000398611" lon="10.9252638916717" id="-28778">
		<tag k="name" v="Eftasmyra" />
=======
	<node id="-308557" lat="61.0612833342" lon="10.8121416606">
		<tag k="name" v="Kattaugmyra" />
		<tag k="natural" v="wetland" />
		<tag k="ssr:stedsnr" v="796608" />
	</node>
	<node id="-310219" lat="60.895294443" lon="11.0796027802">
		<tag k="name" v="Stikktorvmyra" />
>>>>>>> e1d4bc35ff8a6074a6f2e91616a996b547c36f15
		<tag k="natural" v="wetland" />
		<tag k="ssr:stedsnr" v="371610" />
	</node>
<<<<<<< HEAD
	<node lat="61.06988888805296" lon="10.733605552417425" id="-28811">
		<tag k="name" v="Grønbekkdorra" />
=======
	<node id="-307658" lat="61.0583638859" lon="10.6963277828">
		<tag k="name" v="Dordimyra" />
>>>>>>> e1d4bc35ff8a6074a6f2e91616a996b547c36f15
		<tag k="natural" v="wetland" />
		<tag k="ssr:stedsnr" v="481650" />
	</node>
<<<<<<< HEAD
	<node lat="61.00487222505634" lon="10.875930552470184" id="-28813">
		<tag k="name" v="Rognbrenna" />
		<tag k="place" v="locality" />
		<tag k="ssr:stedsnr" v="482333" />
	</node>
	<node lat="60.98707150956333" lon="10.932056683262651" id="-28820">
		<tag k="name" v="Kompåsmyra" />
=======
	<node id="-308471" lat="61.1549999982" lon="10.9837861187">
		<tag k="name" v="Skattumsmyra" />
		<tag k="natural" v="wetland" />
		<tag k="ssr:stedsnr" v="909291" />
	</node>
	<node id="-308163" lat="60.9972694465" lon="10.9192666645">
		<tag k="name" v="Danserdalsmyrene" />
>>>>>>> e1d4bc35ff8a6074a6f2e91616a996b547c36f15
		<tag k="natural" v="wetland" />
		<tag k="ssr:stedsnr" v="385021" />
	</node>
<<<<<<< HEAD
	<node lat="61.17357500096727" lon="10.960208340337575" id="-28829">
		<tag k="historic" v="shieling" />
		<tag k="name" v="Småvolla" />
		<tag k="place" v="locality" />
		<tag k="ssr:stedsnr" v="484244" />
	</node>
	<node lat="60.92142500378288" lon="11.064077786529593" id="-28831">
		<tag k="name" v="Rundhaugen" />
		<tag k="place" v="locality" />
		<tag k="ssr:stedsnr" v="484486" />
	</node>
	<node lat="60.91427777526151" lon="11.016077783410026" id="-28832">
		<tag k="name" v="Åsbergmyra" />
		<tag k="natural" v="wetland" />
		<tag k="ssr:stedsnr" v="484487" />
	</node>
	<node lat="60.98083333456474" lon="11.018833334855659" id="-28851">
		<tag k="historic" v="shieling" />
		<tag k="name" v="Grøna" />
=======
	<node id="-309186" lat="60.9068083374" lon="11.0672027698">
		<tag k="historic" v="shieling" />
		<tag k="name" v="Dekarud" />
		<tag k="place" v="locality" />
		<tag k="ssr:stedsnr" v="191224" />
	</node>
	<node id="-307649" lat="61.0906861145" lon="10.8035611136">
		<tag k="name" v="Jomfrumyra" />
		<tag k="natural" v="wetland" />
		<tag k="ssr:stedsnr" v="177753" />
	</node>
	<node id="-308672" lat="60.9962638897" lon="11.024230558">
		<tag k="name" v="Høljamyra" />
		<tag k="natural" v="wetland" />
		<tag k="old_name" v="Høljemyrane" />
		<tag k="ssr:stedsnr" v="919105" />
	</node>
	<node id="-307647" lat="61.0088166644" lon="10.5421694483">
		<tag k="name" v="Dælimoen" />
>>>>>>> e1d4bc35ff8a6074a6f2e91616a996b547c36f15
		<tag k="place" v="locality" />
		<tag k="ssr:stedsnr" v="419046" />
	</node>
<<<<<<< HEAD
	<node lat="61.08659444806678" lon="10.579033339111419" id="-28853">
		<tag k="name" v="Dora" />
		<tag k="place" v="locality" />
		<tag k="ssr:stedsnr" v="420043" />
	</node>
	<node lat="61.14304721941585" lon="10.70160555957676" id="-28861">
		<tag k="name" v="Fløytmyra" />
=======
	<node id="-309173" lat="61.0860638934" lon="10.8224055486">
		<tag k="name" v="Stormyra" />
>>>>>>> e1d4bc35ff8a6074a6f2e91616a996b547c36f15
		<tag k="natural" v="wetland" />
		<tag k="ssr:stedsnr" v="422013" />
	</node>
<<<<<<< HEAD
	<node lat="61.125616665795214" lon="10.84601111178629" id="-28879">
		<tag k="name" v="Ljøsmyrene" />
		<tag k="natural" v="wetland" />
		<tag k="old_name" v="Ljosmyrane" />
		<tag k="ssr:stedsnr" v="432503" />
	</node>
	<node lat="61.12962500204663" lon="10.690730552213553" id="-28888">
		<tag k="name" v="Gunhildsætermyra" />
		<tag k="natural" v="wetland" />
		<tag k="ssr:stedsnr" v="432776" />
	</node>
	<node lat="61.03453888771598" lon="10.822130552784168" id="-28901">
		<tag k="alt_name" v="Muremitten" />
		<tag k="name" v="Myremidta" />
=======
	<node id="-310196" lat="60.9058277752" lon="11.0800666628">
		<tag k="alt_name" v="Tjernsmyr" />
		<tag k="name" v="Tjernsmyra" />
		<tag k="natural" v="wetland" />
		<tag k="ssr:stedsnr" v="859237" />
	</node>
	<node id="-307635" lat="61.0233027754" lon="10.8091777703">
		<tag k="name" v="Flågåsten" />
		<tag k="natural" v="stone" />
		<tag k="ssr:stedsnr" v="283665" />
	</node>
	<node id="-308144" lat="61.0721694448" lon="10.7242694537">
		<tag k="name" v="Bjønndorra" />
>>>>>>> e1d4bc35ff8a6074a6f2e91616a996b547c36f15
		<tag k="natural" v="wetland" />
		<tag k="ssr:stedsnr" v="433576" />
	</node>
<<<<<<< HEAD
	<node lat="61.03740277822466" lon="10.713313897133933" id="-28924">
		<tag k="name" v="Kjerringrismyra" />
		<tag k="natural" v="wetland" />
		<tag k="ssr:stedsnr" v="493630" />
	</node>
	<node lat="61.0166805586528" lon="10.67071111755336" id="-28932">
		<tag k="name" v="Trekantmyra" />
=======
	<node id="-309167" lat="61.0122888927" lon="10.6678527845">
		<tag k="name" v="Hølbekkmyra" />
		<tag k="natural" v="wetland" />
		<tag k="ssr:stedsnr" v="189701" />
	</node>
	<node id="-308141" lat="61.122377776" lon="10.631222216">
		<tag k="name" v="Øyamoen" />
		<tag k="place" v="locality" />
		<tag k="ssr:stedsnr" v="541606" />
	</node>
	<node id="-309490" lat="60.9808333346" lon="11.0188333349">
		<tag k="historic" v="shieling" />
		<tag k="name" v="Grøna" />
		<tag k="place" v="locality" />
		<tag k="ssr:stedsnr" v="419046" />
	</node>
	<node id="-309161" lat="61.0667999974" lon="10.9972916735">
		<tag k="name" v="Endeløsmyrene" />
>>>>>>> e1d4bc35ff8a6074a6f2e91616a996b547c36f15
		<tag k="natural" v="wetland" />
		<tag k="ssr:stedsnr" v="493748" />
	</node>
<<<<<<< HEAD
	<node lat="60.98000833568856" lon="11.015241668965187" id="-28948">
		<tag k="name" v="Grønmyra" />
=======
	<node id="-309159" lat="61.0257888852" lon="10.8242055596">
		<tag k="name" v="Hølbekkmyra" />
>>>>>>> e1d4bc35ff8a6074a6f2e91616a996b547c36f15
		<tag k="natural" v="wetland" />
		<tag k="ssr:stedsnr" v="446002" />
	</node>
<<<<<<< HEAD
	<node lat="60.97292222325719" lon="10.8422499989404" id="-28950">
		<tag k="name" v="Vestrumsmyra" />
=======
	<node id="-308644" lat="61.22415" lon="10.7633416684">
		<tag k="name" v="Svartvadmyra" />
>>>>>>> e1d4bc35ff8a6074a6f2e91616a996b547c36f15
		<tag k="natural" v="wetland" />
		<tag k="ssr:stedsnr" v="446006" />
	</node>
<<<<<<< HEAD
	<node lat="61.10827499628669" lon="10.821288895612476" id="-28982">
		<tag k="name" v="Vakkervollmyra" />
=======
	<node id="-310178" lat="60.9886249998" lon="11.01927778">
		<tag k="name" v="Tjernhaugmyra" />
>>>>>>> e1d4bc35ff8a6074a6f2e91616a996b547c36f15
		<tag k="natural" v="wetland" />
		<tag k="ssr:stedsnr" v="675529" />
	</node>
<<<<<<< HEAD
	<node lat="60.91604999624984" lon="11.223049991871209" id="-29004">
		<tag k="name" v="Stormyra" />
		<tag k="natural" v="wetland" />
		<tag k="ssr:stedsnr" v="676624" />
	</node>
	<node lat="60.99678333771858" lon="11.004205553203855" id="-29013">
		<tag k="name" v="Mosemyra" />
		<tag k="natural" v="wetland" />
		<tag k="ssr:stedsnr" v="677116" />
	</node>
	<node lat="61.16395277868661" lon="10.69159721540794" id="-29023">
		<tag k="name" v="Tokstadmyra" />
		<tag k="natural" v="wetland" />
		<tag k="ssr:stedsnr" v="480012" />
	</node>
	<node lat="60.98147777899281" lon="10.980991675863157" id="-29031">
		<tag k="name" v="Tømmerholen" />
=======
	<node id="-309153" lat="61.1029055521" lon="10.7305666663">
		<tag k="name" v="Langmyra" />
		<tag k="natural" v="wetland" />
		<tag k="ssr:stedsnr" v="189476" />
	</node>
	<node id="-308640" lat="60.9777361154" lon="10.9986555632">
		<tag k="name" v="Kvitmyrholen" />
		<tag k="place" v="locality" />
		<tag k="ssr:stedsnr" v="904061" />
	</node>
	<node id="-308639" lat="60.9817777752" lon="11.0064305614">
		<tag k="name" v="Standerholtet" />
		<tag k="place" v="locality" />
		<tag k="ssr:stedsnr" v="904060" />
	</node>
	<node id="-307614" lat="61.0210194454" lon="10.8583472174">
		<tag k="name" v="Rådalsmyra" />
		<tag k="natural" v="wetland" />
		<tag k="ssr:stedsnr" v="282376" />
	</node>
	<node id="-308637" lat="60.9804166633" lon="11.0294499993">
		<tag k="name" v="Kjeikerudholene" />
		<tag k="place" v="locality" />
		<tag k="ssr:stedsnr" v="904025" />
	</node>
	<node id="-308636" lat="60.7889194476" lon="10.8197444407">
		<tag k="name" v="Kiseåsen" />
		<tag k="place" v="locality" />
		<tag k="ssr:stedsnr" v="892042" />
	</node>
	<node id="-308632" lat="61.0339861087" lon="10.8913166756">
		<tag k="name" v="Kirkeholene" />
		<tag k="place" v="locality" />
		<tag k="ssr:stedsnr" v="950385" />
	</node>
	<node id="-309139" lat="60.8002694444" lon="10.9066527711">
		<tag k="historic" v="shieling" />
		<tag k="name" v="Veltsætra" />
>>>>>>> e1d4bc35ff8a6074a6f2e91616a996b547c36f15
		<tag k="place" v="locality" />
		<tag k="ssr:stedsnr" v="482722" />
	</node>
<<<<<<< HEAD
	<node lat="61.12647499968931" lon="10.994280560245874" id="-29046">
		<tag k="alt_name" v="Taptbort" />
		<tag k="name" v="Tapbortmyra" />
=======
	<node id="-309650" lat="61.0260083318" lon="10.8471833361">
		<tag k="name" v="Tranbærmyra" />
>>>>>>> e1d4bc35ff8a6074a6f2e91616a996b547c36f15
		<tag k="natural" v="wetland" />
		<tag k="ssr:stedsnr" v="493525" />
	</node>
<<<<<<< HEAD
	<node lat="61.13920555285437" lon="10.68908888331571" id="-29054">
		<tag k="name" v="Steinsmyra" />
=======
	<node id="-309649" lat="61.0270361092" lon="10.7991916758">
		<tag k="fixme" v="multiple name tags, choose one and add the other to alt_name" />
		<tag k="name" v="Harbymyra;Stormyra" />
>>>>>>> e1d4bc35ff8a6074a6f2e91616a996b547c36f15
		<tag k="natural" v="wetland" />
		<tag k="ssr:stedsnr" v="493954" />
	</node>
<<<<<<< HEAD
	<node lat="60.98965277845055" lon="10.858491662369921" id="-29059">
		<tag k="name" v="Stormyr" />
		<tag k="natural" v="wetland" />
		<tag k="ssr:stedsnr" v="494110" />
	</node>
	<node lat="61.1223777760086" lon="10.631222215960026" id="-29095">
		<tag k="name" v="Øyamoen" />
=======
	<node id="-309644" lat="60.8341083291" lon="10.8487833392">
		<tag k="name" v="Syverud" />
		<tag k="place" v="locality" />
		<tag k="ssr:stedsnr" v="544901" />
	</node>
	<node id="-310150" lat="60.9349333373" lon="10.7256444536">
		<tag k="name" v="Fossmarka" />
>>>>>>> e1d4bc35ff8a6074a6f2e91616a996b547c36f15
		<tag k="place" v="locality" />
		<tag k="ssr:stedsnr" v="541606" />
	</node>
<<<<<<< HEAD
	<node lat="61.07534722592398" lon="10.677880556326011" id="-29105">
		<tag k="name" v="Veltmyra" />
=======
	<node id="-309125" lat="61.0085500044" lon="11.0334388823">
		<tag k="name" v="Veslhøljan" />
>>>>>>> e1d4bc35ff8a6074a6f2e91616a996b547c36f15
		<tag k="natural" v="wetland" />
		<tag k="ssr:stedsnr" v="544470" />
	</node>
<<<<<<< HEAD
	<node lat="61.02703610916861" lon="10.79919167577631" id="-29111">
		<tag k="fixme" v="multiple name tags, choose one and add the other to alt_name" />
		<tag k="name" v="Stormyra;Harbymyra" />
=======
	<node id="-309636" lat="61.1867277812" lon="10.9612361093">
		<tag k="name" v="Øvre Liervolla" />
>>>>>>> e1d4bc35ff8a6074a6f2e91616a996b547c36f15
		<tag k="natural" v="wetland" />
		<tag k="ssr:stedsnr" v="552641" />
	</node>
<<<<<<< HEAD
	<node lat="61.02600833182843" lon="10.847183336123836" id="-29112">
		<tag k="name" v="Tranbærmyra" />
=======
	<node id="-309635" lat="61.0753472259" lon="10.6778805563">
		<tag k="name" v="Veltmyra" />
>>>>>>> e1d4bc35ff8a6074a6f2e91616a996b547c36f15
		<tag k="natural" v="wetland" />
		<tag k="ssr:stedsnr" v="552643" />
	</node>
<<<<<<< HEAD
	<node lat="60.97398055657338" lon="11.017549993134926" id="-29147">
		<tag k="name" v="Gimsemyra" />
		<tag k="natural" v="wetland" />
		<tag k="ssr:stedsnr" v="555087" />
	</node>
	<node lat="60.997269446493846" lon="10.91926666446399" id="-29148">
		<tag k="name" v="Danserdalsmyrene" />
=======
	<node id="-310145" lat="60.9937222257" lon="10.856363894">
		<tag k="name" v="Bokkrustadmark" />
		<tag k="place" v="locality" />
		<tag k="ssr:stedsnr" v="848364" />
	</node>
	<node id="-310143" lat="61.0757527742" lon="10.6035166666">
		<tag k="name" v="Styggmyra" />
>>>>>>> e1d4bc35ff8a6074a6f2e91616a996b547c36f15
		<tag k="natural" v="wetland" />
		<tag k="old_name" v="Danserdalsmyrane" />
		<tag k="ssr:stedsnr" v="555090" />
	</node>
<<<<<<< HEAD
	<node lat="60.976474999887536" lon="11.008950006196487" id="-29188">
		<tag k="name" v="Langholen" />
=======
	<node id="-309629" lat="61.0123638931" lon="11.0381333343">
		<tag k="name" v="Lauvhyttholen" />
>>>>>>> e1d4bc35ff8a6074a6f2e91616a996b547c36f15
		<tag k="place" v="locality" />
		<tag k="ssr:stedsnr" v="600062" />
	</node>
<<<<<<< HEAD
	<node lat="60.91194721820061" lon="11.022652776979953" id="-29200">
		<tag k="name" v="Øyåkerbakken" />
		<tag k="place" v="locality" />
		<tag k="ssr:stedsnr" v="605506" />
	</node>
	<node lat="60.89508610912904" lon="11.066411104947191" id="-29221">
		<tag k="name" v="Høgsvemyra" />
		<tag k="natural" v="wetland" />
		<tag k="ssr:stedsnr" v="615257" />
	</node>
	<node lat="60.9112000015722" lon="11.037633340424199" id="-29233">
		<tag k="name" v="Kvemyra" />
=======
	<node id="-310140" lat="61.1807611129" lon="10.9766000046">
		<tag k="name" v="Mælumsenga" />
		<tag k="natural" v="wetland" />
		<tag k="ssr:stedsnr" v="848293" />
	</node>
	<node id="-310139" lat="61.0010055527" lon="10.7851638807">
		<tag k="name" v="Steinsmarka" />
		<tag k="place" v="locality" />
		<tag k="ssr:stedsnr" v="847583" />
	</node>
	<node id="-309626" lat="61.1016722232" lon="10.7597222159">
		<tag k="name" v="Rundmyra" />
>>>>>>> e1d4bc35ff8a6074a6f2e91616a996b547c36f15
		<tag k="natural" v="wetland" />
		<tag k="ssr:stedsnr" v="616246" />
	</node>
<<<<<<< HEAD
	<node lat="61.14267778011064" lon="10.97857777309228" id="-29252">
		<tag k="name" v="Granåsmyra" />
=======
	<node id="-309625" lat="61.1009416622" lon="10.7915555627">
		<tag k="name" v="Svinesundmyra" />
>>>>>>> e1d4bc35ff8a6074a6f2e91616a996b547c36f15
		<tag k="natural" v="wetland" />
		<tag k="ssr:stedsnr" v="646184" />
	</node>
<<<<<<< HEAD
	<node lat="61.020386106896794" lon="10.84430833869801" id="-29255">
		<tag k="name" v="Bøverbakkmyra" />
		<tag k="natural" v="wetland" />
		<tag k="ssr:stedsnr" v="646383" />
	</node>
	<node lat="61.00054444076731" lon="10.899511110827383" id="-29259">
		<tag k="name" v="Grasmyra" />
=======
	<node id="-310136" lat="61.0590055598" lon="10.6777000007">
		<tag k="name" v="Klumsa" />
		<tag k="natural" v="wetland" />
		<tag k="ssr:stedsnr" v="847293" />
	</node>
	<node id="-309111" lat="60.976944442" lon="11.0206444354">
		<tag k="name" v="Starrmyra" />
>>>>>>> e1d4bc35ff8a6074a6f2e91616a996b547c36f15
		<tag k="natural" v="wetland" />
		<tag k="ssr:stedsnr" v="648350" />
	</node>
<<<<<<< HEAD
	<node lat="60.790288887001225" lon="10.84407499925408" id="-29264">
		<tag k="name" v="Retterstadbakken" />
		<tag k="place" v="locality" />
		<tag k="ssr:stedsnr" v="648895" />
	</node>
	<node lat="60.94163332960287" lon="10.684230557014262" id="-29269">
		<tag k="name" v="Smestadskogen" />
=======
	<node id="-309622" lat="61.0650722232" lon="10.5563166674">
		<tag k="name" v="Jørnsvea" />
		<tag k="place" v="locality" />
		<tag k="ssr:stedsnr" v="541789" />
	</node>
	<node id="-310133" lat="61.1432805599" lon="10.6726805549">
		<tag k="name" v="Rundmyra" />
		<tag k="natural" v="wetland" />
		<tag k="ssr:stedsnr" v="847014" />
	</node>
	<node id="-309620" lat="61.0846638908" lon="10.584461105">
		<tag k="name" v="Dompidal" />
>>>>>>> e1d4bc35ff8a6074a6f2e91616a996b547c36f15
		<tag k="place" v="locality" />
		<tag k="ssr:stedsnr" v="707326" />
	</node>
<<<<<<< HEAD
	<node lat="61.01890277642902" lon="11.035258327378315" id="-29279">
		<tag k="name" v="Mælumsmyra" />
		<tag k="natural" v="wetland" />
		<tag k="ssr:stedsnr" v="708154" />
	</node>
	<node lat="61.04639999740166" lon="11.071936109660516" id="-29280">
		<tag k="name" v="Vannhaftet" />
		<tag k="natural" v="wetland" />
		<tag k="ssr:stedsnr" v="708159" />
	</node>
	<node lat="60.976466670549925" lon="10.919766663293226" id="-29288">
=======
	<node id="-308342" lat="61.0095166656" lon="11.0072333287">
		<tag k="name" v="Vivollmyra" />
		<tag k="natural" v="wetland" />
		<tag k="ssr:stedsnr" v="674560" />
	</node>
	<node id="-309616" lat="60.9751138925" lon="11.0242277784">
		<tag k="name" v="Torvmyra" />
		<tag k="natural" v="wetland" />
		<tag k="ssr:stedsnr" v="540052" />
	</node>
	<node id="-307567" lat="60.9798222241" lon="11.0331027758">
>>>>>>> e1d4bc35ff8a6074a6f2e91616a996b547c36f15
		<tag k="historic" v="shieling" />
		<tag k="name" v="Sætervollen" />
		<tag k="place" v="locality" />
		<tag k="ssr:stedsnr" v="709347" />
	</node>
<<<<<<< HEAD
	<node lat="61.08499166377729" lon="11.034669452899983" id="-29289">
		<tag k="name" v="Prestsætermyra" />
		<tag k="natural" v="wetland" />
		<tag k="ssr:stedsnr" v="663193" />
	</node>
	<node lat="61.00934721922003" lon="10.853158324858082" id="-29294">
		<tag k="landuse" v="meadow" />
		<tag k="name" v="Kluftmosveslåtten" />
		<tag k="ssr:stedsnr" v="664307" />
	</node>
	<node lat="61.00362222404139" lon="10.886663888073102" id="-29295">
		<tag k="name" v="Glemyra" />
=======
	<node id="-307680" lat="60.9761500021" lon="10.9101111146">
		<tag k="name" v="Revhibakkmyra" />
		<tag k="natural" v="wetland" />
		<tag k="ssr:stedsnr" v="191111" />
	</node>
	<node id="-310125" lat="61.0953444439" lon="10.6413916669">
		<tag k="name" v="Vollmyra" />
		<tag k="natural" v="wetland" />
		<tag k="ssr:stedsnr" v="844080" />
	</node>
	<node id="-307564" lat="60.9834277823" lon="10.9546361035">
		<tag k="name" v="Nysætermyra" />
>>>>>>> e1d4bc35ff8a6074a6f2e91616a996b547c36f15
		<tag k="natural" v="wetland" />
		<tag k="ssr:stedsnr" v="664309" />
	</node>
<<<<<<< HEAD
	<node lat="61.01081388500145" lon="10.593869439976332" id="-29300">
		<tag k="landuse" v="meadow" />
		<tag k="name" v="Øverhagen" />
		<tag k="ssr:stedsnr" v="709650" />
	</node>
	<node lat="61.01338611199866" lon="10.821983329264148" id="-29302">
		<tag k="name" v="Bolstadmarka" />
		<tag k="place" v="locality" />
		<tag k="ssr:stedsnr" v="665634" />
	</node>
	<node lat="61.024711109320194" lon="11.030913897934818" id="-29306">
		<tag k="name" v="Kyruhyttholen" />
		<tag k="place" v="locality" />
		<tag k="ssr:stedsnr" v="890130" />
	</node>
	<node lat="61.03543611110019" lon="10.992163879663192" id="-29309">
		<tag k="name" v="Døråsmarka" />
		<tag k="place" v="locality" />
		<tag k="ssr:stedsnr" v="890159" />
	</node>
	<node lat="60.945566666666195" lon="10.925572230139155" id="-29313">
		<tag k="name" v="Fuglemyrene" />
=======
	<node id="-308626" lat="60.8987694414" lon="11.0027055505">
		<tag k="name" v="Irstadsletta" />
		<tag k="place" v="locality" />
		<tag k="ssr:stedsnr" v="950314" />
	</node>
	<node id="-310113" lat="60.9470138865" lon="11.0286861052">
		<tag k="name" v="Mjølkgrasmyra" />
		<tag k="natural" v="wetland" />
		<tag k="ssr:stedsnr" v="831481" />
	</node>
	<node id="-307552" lat="61.058213885" lon="10.7155861107">
		<tag k="name" v="Ulvehagen" />
		<tag k="place" v="locality" />
		<tag k="ssr:stedsnr" v="118238" />
	</node>
	<node id="-309087" lat="61.015988893" lon="10.9582333315">
		<tag k="name" v="Storfløytmyra" />
		<tag k="natural" v="wetland" />
		<tag k="ssr:stedsnr" v="161151" />
	</node>
	<node id="-310110" lat="61.0021277776" lon="10.9110166755">
		<tag k="name" v="Leikholsmyra" />
>>>>>>> e1d4bc35ff8a6074a6f2e91616a996b547c36f15
		<tag k="natural" v="wetland" />
		<tag k="ssr:stedsnr" v="890561" />
	</node>
<<<<<<< HEAD
	<node lat="61.009516665648704" lon="11.007233328737218" id="-29316">
		<tag k="name" v="Vivollmyra" />
		<tag k="natural" v="wetland" />
		<tag k="ssr:stedsnr" v="674560" />
	</node>
	<node lat="61.0910166658541" lon="10.614525006013192" id="-29318">
		<tag k="name" v="Stormyra" />
		<tag k="natural" v="wetland" />
		<tag k="ssr:stedsnr" v="674767" />
	</node>
	<node lat="60.94961110802866" lon="11.067755557330665" id="-29356">
		<tag k="name" v="Rundmyra" />
		<tag k="natural" v="wetland" />
		<tag k="ssr:stedsnr" v="891518" />
	</node>
	<node lat="60.78891944756747" lon="10.819744440730485" id="-29365">
		<tag k="name" v="Kiseåsen" />
=======
	<node id="-308457" lat="61.052333331" lon="10.6890388865">
		<tag k="name" v="Brukmarka" />
		<tag k="place" v="locality" />
		<tag k="ssr:stedsnr" v="907227" />
	</node>
	<node id="-308057" lat="60.981477779" lon="10.9809916759">
		<tag k="name" v="Tømmerholen" />
		<tag k="place" v="locality" />
		<tag k="ssr:stedsnr" v="482722" />
	</node>
	<node id="-310097" lat="61.0648916684" lon="10.8928694416">
		<tag k="name" v="Storholen" />
>>>>>>> e1d4bc35ff8a6074a6f2e91616a996b547c36f15
		<tag k="place" v="locality" />
		<tag k="ssr:stedsnr" v="892042" />
	</node>
<<<<<<< HEAD
	<node lat="60.980416663272955" lon="11.029449999319791" id="-29368">
		<tag k="name" v="Kjeikerudholene" />
		<tag k="place" v="locality" />
		<tag k="ssr:stedsnr" v="904025" />
	</node>
	<node lat="60.96007777344208" lon="10.862905561023027" id="-29370">
		<tag k="name" v="Lagmannsvemyra" />
=======
	<node id="-310096" lat="61.0335472186" lon="10.8589194369">
		<tag k="loc_name" v="Myssmørmyra" />
		<tag k="name" v="Mysmørmyra" />
		<tag k="natural" v="wetland" />
		<tag k="ssr:stedsnr" v="829381" />
	</node>
	<node id="-308047" lat="61.1639527787" lon="10.6915972154">
		<tag k="name" v="Tokstadmyra" />
		<tag k="natural" v="wetland" />
		<tag k="ssr:stedsnr" v="480012" />
	</node>
	<node id="-310093" lat="60.8954972188" lon="11.071186108">
		<tag k="name" v="Tåsåsmyra" />
>>>>>>> e1d4bc35ff8a6074a6f2e91616a996b547c36f15
		<tag k="natural" v="wetland" />
		<tag k="ssr:stedsnr" v="707310" />
	</node>
<<<<<<< HEAD
	<node lat="61.037377778077825" lon="10.876383334209438" id="-29373">
		<tag k="name" v="Lauvmyra" />
		<tag k="natural" v="wetland" />
		<tag k="ssr:stedsnr" v="707405" />
	</node>
	<node lat="61.02199722572374" lon="10.848788882223845" id="-29374">
		<tag k="name" v="Standerholen" />
		<tag k="place" v="locality" />
		<tag k="ssr:stedsnr" v="707407" />
	</node>
	<node lat="61.09246944727303" lon="10.594033337702617" id="-29382">
		<tag k="name" v="Ringen" />
=======
	<node id="-309730" lat="61.0755722184" lon="10.8500777734">
		<tag k="name" v="Raumyra" />
		<tag k="natural" v="wetland" />
		<tag k="ssr:stedsnr" v="585369" />
	</node>
	<node id="-308042" lat="60.9328611156" lon="11.0587027747">
		<tag k="historic" v="shieling" />
		<tag k="name" v="Kårtorpsætervollen" />
		<tag k="place" v="locality" />
		<tag k="ssr:stedsnr" v="466514" />
	</node>
	<node id="-310089" lat="61.0712416643" lon="11.0184916742">
		<tag k="name" v="Thingstadmyra" />
		<tag k="natural" v="wetland" />
		<tag k="ssr:stedsnr" v="829137" />
	</node>
	<node id="-310088" lat="61.0870138931" lon="10.6734555473">
		<tag k="name" v="Mosemyrhøgda" />
>>>>>>> e1d4bc35ff8a6074a6f2e91616a996b547c36f15
		<tag k="place" v="locality" />
		<tag k="ssr:stedsnr" v="723072" />
	</node>
<<<<<<< HEAD
	<node lat="61.102927779540146" lon="10.763727782367884" id="-29383">
		<tag k="name" v="Leikmyra" />
		<tag k="natural" v="wetland" />
		<tag k="ssr:stedsnr" v="723721" />
	</node>
	<node lat="61.071824998619455" lon="10.69628055831565" id="-29387">
		<tag k="name" v="Olasveskogen" />
		<tag k="place" v="locality" />
		<tag k="ssr:stedsnr" v="726487" />
	</node>
	<node lat="61.101258333651614" lon="10.60720554922606" id="-29433">
		<tag k="historic" v="shieling" />
		<tag k="name" v="Kinnsætra" />
		<tag k="place" v="locality" />
		<tag k="ssr:stedsnr" v="907069" />
	</node>
	<node lat="61.00484444679213" lon="10.982180547651392" id="-29434">
		<tag k="name" v="Godbrannhallen" />
		<tag k="place" v="locality" />
		<tag k="ssr:stedsnr" v="768140" />
	</node>
	<node lat="61.07203055468542" lon="10.866049999579397" id="-29439">
		<tag k="name" v="Vivelstjernsmyra" />
		<tag k="natural" v="wetland" />
		<tag k="ssr:stedsnr" v="768390" />
	</node>
	<node lat="61.05233333104868" lon="10.689038886503699" id="-29446">
		<tag k="name" v="Brukmarka" />
		<tag k="place" v="locality" />
		<tag k="ssr:stedsnr" v="907227" />
	</node>
	<node lat="60.94893055684073" lon="11.030641659771767" id="-29449">
		<tag k="name" v="Nekolaibotten" />
		<tag k="place" v="locality" />
		<tag k="ssr:stedsnr" v="769504" />
	</node>
	<node lat="60.77896666586396" lon="10.923580564276042" id="-29455">
		<tag k="name" v="Prestmoen" />
		<tag k="place" v="locality" />
		<tag k="ssr:stedsnr" v="770854" />
	</node>
	<node lat="61.15499999821535" lon="10.983786118678244" id="-29461">
		<tag k="name" v="Skattumsmyra" />
		<tag k="natural" v="wetland" />
		<tag k="ssr:stedsnr" v="909291" />
	</node>
	<node lat="61.13999722655142" lon="10.651911106977861" id="-29469">
		<tag k="name" v="Blakkmyra" />
=======
	<node id="-307795" lat="61.0048722251" lon="10.8759305525">
		<tag k="name" v="Rognbrenna" />
		<tag k="place" v="locality" />
		<tag k="ssr:stedsnr" v="482333" />
	</node>
	<node id="-308705" lat="61.0282250043" lon="10.9508694365">
		<tag k="historic" v="shieling" />
		<tag k="name" v="Bergsbu" />
		<tag k="place" v="locality" />
		<tag k="ssr:stedsnr" v="965829" />
	</node>
	<node id="-308192" lat="60.9600777734" lon="10.862905561">
		<tag k="name" v="Lagmannsvemyra" />
		<tag k="natural" v="wetland" />
		<tag k="ssr:stedsnr" v="707310" />
	</node>
	<node id="-308028" lat="61.013386112" lon="10.8219833293">
		<tag k="name" v="Bolstadmarka" />
		<tag k="place" v="locality" />
		<tag k="ssr:stedsnr" v="665634" />
	</node>
	<node id="-308025" lat="61.0271833319" lon="10.6422305636">
		<tag k="name" v="Kloppmyra" />
		<tag k="natural" v="wetland" />
		<tag k="ssr:stedsnr" v="665429" />
	</node>
	<node id="-307763" lat="60.9098444405" lon="10.9035611047">
		<tag k="name" v="Byhagan" />
		<tag k="place" v="locality" />
		<tag k="ssr:stedsnr" v="300559" />
	</node>
	<node id="-308470" lat="61.077758336" lon="10.9017222135">
		<tag k="name" v="Stormyra" />
		<tag k="natural" v="wetland" />
		<tag k="ssr:stedsnr" v="908472" />
	</node>
	<node id="-309550" lat="61.0345388877" lon="10.8221305528">
		<tag k="alt_name" v="Muremitten" />
		<tag k="name" v="Myremidta" />
		<tag k="natural" v="wetland" />
		<tag k="ssr:stedsnr" v="433576" />
	</node>
	<node id="-309033" lat="60.9151749974" lon="11.0717250026">
		<tag k="name" v="Lekmyr" />
>>>>>>> e1d4bc35ff8a6074a6f2e91616a996b547c36f15
		<tag k="natural" v="wetland" />
		<tag k="ssr:stedsnr" v="784600" />
	</node>
<<<<<<< HEAD
	<node lat="61.06128333415852" lon="10.812141660602393" id="-29490">
		<tag k="name" v="Kattaugmyra" />
=======
	<node id="-309031" lat="60.9894805585" lon="10.8758777729">
		<tag k="name" v="Danseråsmyra" />
>>>>>>> e1d4bc35ff8a6074a6f2e91616a996b547c36f15
		<tag k="natural" v="wetland" />
		<tag k="ssr:stedsnr" v="796608" />
	</node>
<<<<<<< HEAD
	<node lat="61.13693333509012" lon="10.701375005214494" id="-29494">
		<tag k="name" v="Svartmyra" />
=======
	<node id="-309030" lat="60.9943000038" lon="10.8965749922">
		<tag k="name" v="Furumyra" />
>>>>>>> e1d4bc35ff8a6074a6f2e91616a996b547c36f15
		<tag k="natural" v="wetland" />
		<tag k="ssr:stedsnr" v="796954" />
	</node>
<<<<<<< HEAD
	<node lat="60.98969999574362" lon="10.996955556675887" id="-29524">
		<tag k="name" v="Stormyra" />
		<tag k="natural" v="wetland" />
		<tag k="ssr:stedsnr" v="919093" />
	</node>
	<node lat="61.00212777762917" lon="10.91101667550932" id="-29571">
		<tag k="name" v="Leikholsmyra" />
=======
	<node id="-308004" lat="60.9729222233" lon="10.8422499989">
		<tag k="name" v="Vestrumsmyra" />
		<tag k="natural" v="wetland" />
		<tag k="ssr:stedsnr" v="446006" />
	</node>
	<node id="-308561" lat="61.1369333351" lon="10.7013750052">
		<tag k="name" v="Svartmyra" />
		<tag k="natural" v="wetland" />
		<tag k="ssr:stedsnr" v="796954" />
	</node>
	<node id="-308002" lat="60.9800083357" lon="11.015241669">
		<tag k="name" v="Grønmyra" />
		<tag k="natural" v="wetland" />
		<tag k="ssr:stedsnr" v="446002" />
	</node>
	<node id="-310048" lat="61.1578138913" lon="10.6657416693">
		<tag k="name" v="Heståsmyra" />
		<tag k="natural" v="wetland" />
		<tag k="ssr:stedsnr" v="797892" />
	</node>
	<node id="-309535" lat="61.1256166658" lon="10.8460111118">
		<tag k="name" v="Ljøsmyrene" />
		<tag k="natural" v="wetland" />
		<tag k="old_name" v="Ljosmyrane" />
		<tag k="ssr:stedsnr" v="432503" />
	</node>
	<node id="-309021" lat="60.9501750039" lon="11.0802999969">
		<tag k="name" v="Blåmyra" />
		<tag k="natural" v="wetland" />
		<tag k="ssr:stedsnr" v="130150" />
	</node>
	<node id="-309020" lat="60.9763999972" lon="11.0437388953">
		<tag k="name" v="Grønmyra" />
		<tag k="natural" v="wetland" />
		<tag k="ssr:stedsnr" v="130077" />
	</node>
	<node id="-307483" lat="61.0338527779" lon="10.8750249945">
		<tag k="name" v="Langkloppmyra" />
		<tag k="natural" v="wetland" />
		<tag k="ssr:stedsnr" v="250588" />
	</node>
	<node id="-309530" lat="61.129625002" lon="10.6907305522">
		<tag k="name" v="Gunhildsætermyra" />
>>>>>>> e1d4bc35ff8a6074a6f2e91616a996b547c36f15
		<tag k="natural" v="wetland" />
		<tag k="ssr:stedsnr" v="831329" />
	</node>
<<<<<<< HEAD
	<node lat="60.94701388646841" lon="11.02868610523839" id="-29574">
		<tag k="name" v="Mjølkgrasmyra" />
		<tag k="natural" v="wetland" />
		<tag k="ssr:stedsnr" v="831481" />
	</node>
	<node lat="61.09534444392709" lon="10.641391666947422" id="-29581">
		<tag k="name" v="Vollmyra" />
=======
	<node id="-309737" lat="60.8592499979" lon="11.0840388899">
		<tag k="name" v="Markarudsletta" />
		<tag k="place" v="locality" />
		<tag k="ssr:stedsnr" v="586825" />
	</node>
	<node id="-307588" lat="61.0854472247" lon="10.6846138962">
		<tag k="name" v="Stegaholen" />
		<tag k="place" v="locality" />
		<tag k="ssr:stedsnr" v="161074" />
	</node>
	<node id="-307478" lat="61.0955249963" lon="10.875374995">
		<tag k="name" v="Stormyra" />
		<tag k="natural" v="wetland" />
		<tag k="ssr:stedsnr" v="250508" />
	</node>
	<node id="-309013" lat="61.0390361071" lon="10.7710250054">
		<tag k="name" v="Lortmyra" />
>>>>>>> e1d4bc35ff8a6074a6f2e91616a996b547c36f15
		<tag k="natural" v="wetland" />
		<tag k="ssr:stedsnr" v="844080" />
	</node>
<<<<<<< HEAD
	<node lat="61.14328055987775" lon="10.6726805549256" id="-29587">
		<tag k="name" v="Rundmyra" />
		<tag k="natural" v="wetland" />
		<tag k="ssr:stedsnr" v="847014" />
	</node>
	<node lat="61.07618888736386" lon="10.673286105424149" id="-29589">
		<tag k="name" v="Persvehøgda" />
		<tag k="place" v="locality" />
		<tag k="ssr:stedsnr" v="848488" />
	</node>
	<node lat="60.93493333727945" lon="10.725644453564797" id="-29590">
		<tag k="name" v="Fossmarka" />
		<tag k="place" v="locality" />
		<tag k="ssr:stedsnr" v="848780" />
	</node>
	<node lat="60.988624999771346" lon="11.019277779997145" id="-29617">
		<tag k="name" v="Tjernhaugmyra" />
		<tag k="natural" v="wetland" />
		<tag k="ssr:stedsnr" v="859085" />
	</node>
	<node lat="61.06283333050423" lon="10.755138891421659" id="-29633">
		<tag k="name" v="Øvre Laffinnmyra" />
		<tag k="natural" v="wetland" />
		<tag k="ssr:stedsnr" v="889624" />
	</node>
	<node lat="61.058511109334646" lon="10.76700278124187" id="-29635">
		<tag k="name" v="Stabbgardsmyra" />
=======
	<node id="-308014" lat="61.0849916638" lon="11.0346694529">
		<tag k="name" v="Prestsætermyra" />
		<tag k="natural" v="wetland" />
		<tag k="ssr:stedsnr" v="663193" />
	</node>
	<node id="-310147" lat="61.0761888874" lon="10.6732861054">
		<tag k="name" v="Persvehøgda" />
		<tag k="place" v="locality" />
		<tag k="ssr:stedsnr" v="848488" />
	</node>
	<node id="-308494" lat="60.7789666659" lon="10.9235805643">
		<tag k="name" v="Prestmoen" />
		<tag k="place" v="locality" />
		<tag k="ssr:stedsnr" v="770854" />
	</node>
	<node id="-310029" lat="61.0440305563" lon="10.7818777714">
		<tag k="name" v="Slåttmyra" />
>>>>>>> e1d4bc35ff8a6074a6f2e91616a996b547c36f15
		<tag k="natural" v="wetland" />
		<tag k="ssr:stedsnr" v="889629" />
	</node>
<<<<<<< HEAD
	<node lat="61.010066667672056" lon="11.080669448622732" id="-29643">
=======
	<node id="-309515" lat="61.1129305597" lon="10.8528805592">
>>>>>>> e1d4bc35ff8a6074a6f2e91616a996b547c36f15
		<tag k="name" v="Eftasmyra" />
		<tag k="natural" v="wetland" />
		<tag k="ssr:stedsnr" v="890912" />
	</node>
<<<<<<< HEAD
	<node lat="60.741086114245796" lon="11.007197224364306" id="-29645">
		<tag k="name" v="Lyusvea" />
		<tag k="place" v="locality" />
		<tag k="ssr:stedsnr" v="891558" />
	</node>
	<node lat="60.98177777521751" lon="11.006430561369955" id="-29650">
		<tag k="name" v="Standerholtet" />
		<tag k="place" v="locality" />
		<tag k="ssr:stedsnr" v="904060" />
	</node>
	<node lat="60.97773611541845" lon="10.998655563223032" id="-29651">
		<tag k="name" v="Kvitmyrholen" />
		<tag k="place" v="locality" />
		<tag k="ssr:stedsnr" v="904061" />
	</node>
	<node lat="61.2241500000182" lon="10.763341668386317" id="-29656">
		<tag k="name" v="Svartvadmyra" />
=======
	<node id="-309514" lat="60.9321277739" lon="10.6831527794">
		<tag k="name" v="Moskogen" />
		<tag k="place" v="locality" />
		<tag k="ssr:stedsnr" v="423673" />
	</node>
	<node id="-308488" lat="61.0466611071" lon="10.8105000089">
		<tag k="name" v="Bøverlundsmarka" />
		<tag k="place" v="locality" />
		<tag k="ssr:stedsnr" v="768681" />
	</node>
	<node id="-310023" lat="60.9168277805" lon="11.0543500043">
		<tag k="name" v="Gønnerbrenna" />
		<tag k="place" v="locality" />
		<tag k="ssr:stedsnr" v="787528" />
	</node>
	<node id="-308997" lat="61.14191111" lon="10.9452861048">
		<tag k="name" v="Olshølbrenna" />
		<tag k="place" v="locality" />
		<tag k="ssr:stedsnr" v="120418" />
	</node>
	<node id="-307972" lat="61.1430472194" lon="10.7016055596">
		<tag k="name" v="Fløytmyra" />
		<tag k="natural" v="wetland" />
		<tag k="ssr:stedsnr" v="422013" />
	</node>
	<node id="-308950" lat="61.0755444471" lon="10.9872055572">
		<tag k="name" v="Kjerkeholen" />
		<tag k="place" v="locality" />
		<tag k="ssr:stedsnr" v="101119" />
	</node>
	<node id="-310018" lat="61.1217194405" lon="10.6841611075">
		<tag k="name" v="Merramyra" />
>>>>>>> e1d4bc35ff8a6074a6f2e91616a996b547c36f15
		<tag k="natural" v="wetland" />
		<tag k="ssr:stedsnr" v="905611" />
	</node>
<<<<<<< HEAD
	<node lat="61.07775833599762" lon="10.90172221345454" id="-29670">
		<tag k="name" v="Stormyra" />
		<tag k="natural" v="wetland" />
		<tag k="ssr:stedsnr" v="908472" />
	</node>
	<node lat="60.99626388970122" lon="11.024230558043678" id="-29692">
		<tag k="name" v="Høljamyra" />
		<tag k="natural" v="wetland" />
		<tag k="old_name" v="Høljemyrane" />
		<tag k="ssr:stedsnr" v="919105" />
	</node>
	<node lat="60.898769441396446" lon="11.002705550457085" id="-29716">
		<tag k="name" v="Irstadsletta" />
=======
	<node id="-308481" lat="61.0048444468" lon="10.9821805477">
		<tag k="name" v="Godbrannhallen" />
		<tag k="place" v="locality" />
		<tag k="ssr:stedsnr" v="768140" />
	</node>
	<node id="-308479" lat="60.9946027753" lon="10.6497027703">
		<tag k="name" v="Purksvea" />
>>>>>>> e1d4bc35ff8a6074a6f2e91616a996b547c36f15
		<tag k="place" v="locality" />
		<tag k="ssr:stedsnr" v="950314" />
	</node>
<<<<<<< HEAD
	<node lat="61.001277781742765" lon="11.042663880426057" id="-29729">
		<tag k="name" v="Sandholmyra" />
		<tag k="natural" v="wetland" />
		<tag k="ssr:stedsnr" v="967031" />
	</node>
	<node lat="61.012269447365014" lon="10.859069438105488" id="-29730">
		<tag k="name" v="Slåttmyra" />
		<tag k="place" v="locality" />
		<tag k="ssr:stedsnr" v="967291" />
	</node>
	<node lat="61.04457222159547" lon="10.54452222039976" id="-29735">
		<tag k="alt_name" v="Igletjennsmyra" />
		<tag k="name" v="Igletjernsmyra" />
		<tag k="natural" v="wetland" />
		<tag k="ssr:stedsnr" v="968691" />
	</node>
	<node lat="61.07978055992624" lon="10.677355564915617" id="-29736">
		<tag k="name" v="Steinmyra" />
=======
	<node id="-307965" lat="61.0865944481" lon="10.5790333391">
		<tag k="name" v="Dora" />
		<tag k="place" v="locality" />
		<tag k="ssr:stedsnr" v="420043" />
	</node>
	<node id="-309500" lat="61.0939444408" lon="10.9564222296">
		<tag k="historic" v="shieling" />
		<tag k="name" v="Glevollene" />
		<tag k="place" v="locality" />
		<tag k="ssr:stedsnr" v="421178" />
	</node>
	<node id="-307962" lat="60.7332722221" lon="10.9382333245">
		<tag k="name" v="Moskogen" />
		<tag k="place" v="locality" />
		<tag k="ssr:stedsnr" v="406853" />
	</node>
	<node id="-309497" lat="61.0714000031" lon="10.5612055471">
		<tag k="name" v="Skålsvea" />
		<tag k="place" v="locality" />
		<tag k="ssr:stedsnr" v="420795" />
	</node>
	<node id="-309495" lat="61.115163886" lon="10.7229555588">
		<tag k="name" v="Øvre Svarthaugmyra" />
>>>>>>> e1d4bc35ff8a6074a6f2e91616a996b547c36f15
		<tag k="natural" v="wetland" />
		<tag k="ssr:stedsnr" v="969484" />
	</node>
<<<<<<< HEAD
	<node lat="61.06909999700772" lon="10.793183331568597" id="-29747">
		<tag k="alt_name" v="Ursvikmyra" />
		<tag k="name" v="Urdsvikmyra" />
		<tag k="natural" v="wetland" />
		<tag k="ssr:stedsnr" v="7598" />
	</node>
	<node lat="61.0550999965472" lon="11.00341110637604" id="-29753">
		<tag k="name" v="Gånåsmyra" />
		<tag k="natural" v="wetland" />
		<tag k="ssr:stedsnr" v="8621" />
	</node>
	<node lat="61.09565278071151" lon="10.705677780838826" id="-29802">
		<tag k="name" v="Kongen" />
		<tag k="natural" v="stone" />
		<tag k="ssr:stedsnr" v="40081" />
	</node>
	<node lat="61.132808335953975" lon="10.730713893112299" id="-29830">
		<tag k="name" v="Sjømyra" />
		<tag k="natural" v="wetland" />
		<tag k="ssr:stedsnr" v="57247" />
	</node>
	<node lat="61.118077781322185" lon="10.691344441125173" id="-29835">
		<tag k="name" v="Saltbergmyra" />
		<tag k="natural" v="wetland" />
		<tag k="ssr:stedsnr" v="58025" />
	</node>
	<node lat="61.09564166975011" lon="10.615202773870658" id="-29847">
		<tag k="name" v="Langmyra" />
		<tag k="natural" v="wetland" />
		<tag k="ssr:stedsnr" v="67770" />
	</node>
	<node lat="61.06024999980734" lon="10.74624999581957" id="-29858">
=======
	<node id="-308031" lat="61.1873805599" lon="10.972788894">
		<tag k="historic" v="shieling" />
		<tag k="name" v="Ajersætra" />
		<tag k="place" v="locality" />
		<tag k="ssr:stedsnr" v="666269" />
	</node>
	<node id="-308981" lat="61.0968222201" lon="11.0332472137">
		<tag k="landuse" v="meadow" />
		<tag k="name" v="Maurbakken" />
		<tag k="ssr:stedsnr" v="116190" />
	</node>
	<node id="-307707" lat="61.0850333329" lon="10.6182166735">
		<tag k="name" v="Dunmyra" />
		<tag k="natural" v="wetland" />
		<tag k="ssr:stedsnr" v="298091" />
	</node>
	<node id="-309491" lat="60.9905027757" lon="10.9734916702">
		<tag k="name" v="Stokholmsholtet" />
		<tag k="place" v="locality" />
		<tag k="ssr:stedsnr" v="419070" />
	</node>
	<node id="-310002" lat="61.0998888896" lon="10.6224305625">
		<tag k="name" v="Kinnsætermyrene" />
		<tag k="natural" v="wetland" />
		<tag k="ssr:stedsnr" v="785071" />
	</node>
	<node id="-307952" lat="61.048949999" lon="10.888436105">
		<tag k="name" v="Syljulimarka" />
		<tag k="place" v="locality" />
		<tag k="ssr:stedsnr" v="404358" />
	</node>
	<node id="-307439" lat="61.0602499998" lon="10.7462499958">
>>>>>>> e1d4bc35ff8a6074a6f2e91616a996b547c36f15
		<tag k="alt_name" v="Nedre Laffinnmyra" />
		<tag k="name" v="Laffinnmyra" />
		<tag k="natural" v="wetland" />
		<tag k="ssr:stedsnr" v="68621" />
	</node>
<<<<<<< HEAD
	<node lat="60.99108055217584" lon="10.923091658064223" id="-29924">
		<tag k="name" v="Langmyra" />
		<tag k="natural" v="wetland" />
		<tag k="ssr:stedsnr" v="102397" />
	</node>
	<node lat="60.98930555979192" lon="10.927716675766101" id="-29925">
=======
	<node id="-309998" lat="61.1399972266" lon="10.651911107">
		<tag k="name" v="Blakkmyra" />
		<tag k="natural" v="wetland" />
		<tag k="ssr:stedsnr" v="784600" />
	</node>
	<node id="-308970" lat="60.9893055598" lon="10.9277166758">
>>>>>>> e1d4bc35ff8a6074a6f2e91616a996b547c36f15
		<tag k="name" v="Tårnmyra" />
		<tag k="natural" v="wetland" />
		<tag k="ssr:stedsnr" v="102401" />
	</node>
<<<<<<< HEAD
	<node lat="61.09682222009585" lon="11.03324721369322" id="-29935">
		<tag k="landuse" v="meadow" />
		<tag k="name" v="Maurbakken" />
		<tag k="ssr:stedsnr" v="116190" />
	</node>
	<node lat="61.058213884994636" lon="10.715586110708303" id="-29943">
		<tag k="name" v="Ulvehagen" />
		<tag k="place" v="locality" />
		<tag k="ssr:stedsnr" v="118238" />
	</node>
	<node lat="61.14191111004437" lon="10.94528610477592" id="-29950">
		<tag k="name" v="Olshølbrenna" />
		<tag k="place" v="locality" />
		<tag k="ssr:stedsnr" v="120418" />
	</node>
	<node lat="61.03903610708361" lon="10.771025005434161" id="-29977">
		<tag k="name" v="Lortmyra" />
		<tag k="natural" v="wetland" />
		<tag k="ssr:stedsnr" v="129587" />
	</node>
	<node lat="61.078966663529044" lon="10.89838333941208" id="-29983">
		<tag k="name" v="Elgmyra" />
=======
	<node id="-308969" lat="60.9910805522" lon="10.9230916581">
		<tag k="name" v="Langmyra" />
		<tag k="natural" v="wetland" />
		<tag k="ssr:stedsnr" v="102397" />
	</node>
	<node id="-309480" lat="60.9437638922" lon="10.710663897">
		<tag k="name" v="Fjølstadmarka" />
		<tag k="place" v="locality" />
		<tag k="ssr:stedsnr" v="404633" />
	</node>
	<node id="-308455" lat="61.1012583337" lon="10.6072055492">
		<tag k="historic" v="shieling" />
		<tag k="name" v="Kinnsætra" />
		<tag k="place" v="locality" />
		<tag k="ssr:stedsnr" v="907069" />
	</node>
	<node id="-308966" lat="61.0240555558" lon="10.7813638917">
		<tag k="name" v="Stordamskogen" />
		<tag k="place" v="locality" />
		<tag k="ssr:stedsnr" v="101679" />
	</node>
	<node id="-309987" lat="60.9831305565" lon="11.0578305529">
		<tag k="name" v="Styggvakkermyrene" />
>>>>>>> e1d4bc35ff8a6074a6f2e91616a996b547c36f15
		<tag k="natural" v="wetland" />
		<tag k="ssr:stedsnr" v="129611" />
	</node>
<<<<<<< HEAD
	<node lat="60.95017500388619" lon="11.080299996880452" id="-29992">
		<tag k="name" v="Blåmyra" />
=======
	<node id="-307323" lat="61.0550999965" lon="11.0034111064">
		<tag k="name" v="Gånåsmyra" />
		<tag k="natural" v="wetland" />
		<tag k="ssr:stedsnr" v="8621" />
	</node>
	<node id="-309466" lat="60.9874138884" lon="10.930291669">
		<tag k="name" v="Kompåsmyra" />
>>>>>>> e1d4bc35ff8a6074a6f2e91616a996b547c36f15
		<tag k="natural" v="wetland" />
		<tag k="ssr:stedsnr" v="130150" />
	</node>
<<<<<<< HEAD
	<node lat="60.95407777941038" lon="10.941199994625496" id="-29994">
		<tag k="alt_name" v="Tranbergsmyra" />
		<tag k="name" v="Tranmyra" />
=======
	<node id="-308953" lat="61.0029027818" lon="10.9973944436">
		<tag k="name" v="Svartåsmyra" />
>>>>>>> e1d4bc35ff8a6074a6f2e91616a996b547c36f15
		<tag k="natural" v="wetland" />
		<tag k="ssr:stedsnr" v="130160" />
	</node>
<<<<<<< HEAD
	<node lat="61.015988892961296" lon="10.958233331477572" id="-30012">
		<tag k="name" v="Storfløytmyra" />
		<tag k="natural" v="wetland" />
		<tag k="ssr:stedsnr" v="161151" />
	</node>
	<node lat="61.085447224691535" lon="10.684613896202347" id="-30016">
		<tag k="name" v="Stegaholen" />
		<tag k="place" v="locality" />
		<tag k="ssr:stedsnr" v="161074" />
	</node>
	<node lat="60.976944441985054" lon="11.020644435370848" id="-30041">
		<tag k="name" v="Starrmyra" />
		<tag k="natural" v="wetland" />
		<tag k="ssr:stedsnr" v="176044" />
	</node>
	<node lat="61.08511667031923" lon="10.633799993125757" id="-30044">
		<tag k="name" v="Midtlishagen" />
		<tag k="place" v="locality" />
		<tag k="ssr:stedsnr" v="177076" />
	</node>
	<node lat="61.09068611449162" lon="10.803561113580361" id="-30049">
		<tag k="name" v="Jomfrumyra" />
		<tag k="natural" v="wetland" />
		<tag k="ssr:stedsnr" v="177753" />
	</node>
	<node lat="61.00855000437366" lon="11.033438882305319" id="-30053">
		<tag k="name" v="Veslhøljan" />
		<tag k="natural" v="wetland" />
		<tag k="ssr:stedsnr" v="178049" />
	</node>
	<node lat="61.058363885856814" lon="10.696327782792775" id="-30062">
		<tag k="name" v="Dordimyra" />
		<tag k="natural" v="wetland" />
		<tag k="ssr:stedsnr" v="179262" />
	</node>
	<node lat="60.9811055518953" lon="10.979105557329316" id="-30067">
		<tag k="name" v="Fuglemyra" />
		<tag k="natural" v="wetland" />
		<tag k="ssr:stedsnr" v="179729" />
	</node>
	<node lat="60.800269444427634" lon="10.906652771128316" id="-30068">
=======
	<node id="-307414" lat="60.9990777758" lon="11.0468916597">
		<tag k="name" v="Portmyra" />
		<tag k="natural" v="wetland" />
		<tag k="ssr:stedsnr" v="239038" />
	</node>
	<node id="-308949" lat="61.0230861122" lon="11.0348555537">
		<tag k="name" v="Kyruhyttmyra" />
		<tag k="natural" v="wetland" />
		<tag k="ssr:stedsnr" v="101117" />
	</node>
	<node id="-309138" lat="60.9811055519" lon="10.9791055573">
		<tag k="name" v="Fuglemyra" />
		<tag k="natural" v="wetland" />
		<tag k="ssr:stedsnr" v="179729" />
	</node>
	<node id="-307410" lat="61.1020444449" lon="10.718188894">
		<tag k="name" v="Bergemyren" />
		<tag k="place" v="locality" />
		<tag k="ssr:stedsnr" v="237736" />
	</node>
	<node id="-309624" lat="61.098327776" lon="10.7459611112">
		<tag k="name" v="Kjerringrismyra" />
		<tag k="natural" v="wetland" />
		<tag k="ssr:stedsnr" v="541733" />
	</node>
	<node id="-309831" lat="60.9112000016" lon="11.0376333404">
		<tag k="name" v="Kvemyra" />
		<tag k="natural" v="wetland" />
		<tag k="ssr:stedsnr" v="616246" />
	</node>
	<node id="-307917" lat="61.069750004" lon="10.9252638917">
		<tag k="name" v="Eftasmyra" />
		<tag k="natural" v="wetland" />
		<tag k="ssr:stedsnr" v="371610" />
	</node>
	<node id="-307706" lat="61.0868305565" lon="10.5993138963">
		<tag k="name" v="Dompidalshaugen" />
		<tag k="place" v="locality" />
		<tag k="ssr:stedsnr" v="298080" />
	</node>
	<node id="-308426" lat="60.9764666705" lon="10.9197666633">
>>>>>>> e1d4bc35ff8a6074a6f2e91616a996b547c36f15
		<tag k="historic" v="shieling" />
		<tag k="name" v="Veltsætra" />
		<tag k="place" v="locality" />
		<tag k="ssr:stedsnr" v="179830" />
	</node>
<<<<<<< HEAD
	<node lat="61.16561944490084" lon="10.93633055689105" id="-30075">
		<tag k="name" v="Børtenpussmyra" />
		<tag k="natural" v="wetland" />
		<tag k="ssr:stedsnr" v="180453" />
	</node>
	<node lat="61.02578888519882" lon="10.824205559610512" id="-30089">
		<tag k="name" v="Hølbekkmyra" />
		<tag k="natural" v="wetland" />
		<tag k="ssr:stedsnr" v="189544" />
	</node>
	<node lat="61.10290555206287" lon="10.730566666341742" id="-30092">
		<tag k="name" v="Langmyra" />
		<tag k="natural" v="wetland" />
		<tag k="ssr:stedsnr" v="189476" />
	</node>
	<node lat="61.066799997358494" lon="10.997291673493983" id="-30096">
		<tag k="name" v="Endeløsmyrene" />
=======
	<node id="-309961" lat="61.0720305547" lon="10.8660499996">
		<tag k="name" v="Vivelstjernsmyra" />
		<tag k="natural" v="wetland" />
		<tag k="ssr:stedsnr" v="768390" />
	</node>
	<node id="-309973" lat="61.1100749981" lon="10.7369388925">
		<tag k="name" v="Svarthaugmyra" />
		<tag k="natural" v="wetland" />
		<tag k="ssr:stedsnr" v="768861" />
	</node>
	<node id="-308420" lat="60.7410861142" lon="11.0071972244">
		<tag k="name" v="Lyusvea" />
		<tag k="place" v="locality" />
		<tag k="ssr:stedsnr" v="891558" />
	</node>
	<node id="-307395" lat="61.0585611132" lon="10.8655638958">
		<tag k="name" v="Stormyra" />
>>>>>>> e1d4bc35ff8a6074a6f2e91616a996b547c36f15
		<tag k="natural" v="wetland" />
		<tag k="old_name" v="Endelausmyrane" />
		<tag k="ssr:stedsnr" v="189577" />
	</node>
<<<<<<< HEAD
	<node lat="61.01228889272637" lon="10.667852784489817" id="-30098">
		<tag k="name" v="Hølbekkmyra" />
=======
	<node id="-308939" lat="60.9015805546" lon="11.0667777794">
		<tag k="name" v="Maritmyra" />
		<tag k="natural" v="wetland" />
		<tag k="ssr:stedsnr" v="81002" />
	</node>
	<node id="-308416" lat="61.0100666677" lon="11.0806694486">
		<tag k="name" v="Eftasmyra" />
>>>>>>> e1d4bc35ff8a6074a6f2e91616a996b547c36f15
		<tag k="natural" v="wetland" />
		<tag k="ssr:stedsnr" v="189701" />
	</node>
<<<<<<< HEAD
	<node lat="61.13429999892511" lon="10.675400001530958" id="-30100">
		<tag k="name" v="Langmyra" />
		<tag k="natural" v="wetland" />
		<tag k="ssr:stedsnr" v="189951" />
	</node>
	<node lat="61.086063893409744" lon="10.822405548648605" id="-30108">
		<tag k="name" v="Stormyra" />
		<tag k="natural" v="wetland" />
		<tag k="ssr:stedsnr" v="190489" />
	</node>
	<node lat="60.976150002133544" lon="10.910111114559403" id="-30121">
		<tag k="name" v="Revhibakkmyra" />
=======
	<node id="-308336" lat="61.0093472192" lon="10.8531583249">
		<tag k="landuse" v="meadow" />
		<tag k="name" v="Kluftmosveslåtten" />
		<tag k="ssr:stedsnr" v="664307" />
	</node>
	<node id="-309109" lat="61.0134972261" lon="10.8412499937">
		<tag k="name" v="Bøvermarka" />
		<tag k="place" v="locality" />
		<tag k="ssr:stedsnr" v="300351" />
	</node>
	<node id="-308411" lat="60.9455666667" lon="10.9255722301">
		<tag k="name" v="Fuglemyrene" />
>>>>>>> e1d4bc35ff8a6074a6f2e91616a996b547c36f15
		<tag k="natural" v="wetland" />
		<tag k="ssr:stedsnr" v="191111" />
	</node>
<<<<<<< HEAD
	<node lat="61.03462222542455" lon="11.025533336081194" id="-30154">
		<tag k="name" v="Høyvelta" />
=======
	<node id="-309023" lat="60.9540777794" lon="10.9411999946">
		<tag k="alt_name" v="Tranbergsmyra" />
		<tag k="name" v="Tranmyra" />
		<tag k="natural" v="wetland" />
		<tag k="ssr:stedsnr" v="130160" />
	</node>
	<node id="-308406" lat="61.0354361111" lon="10.9921638797">
		<tag k="name" v="Døråsmarka" />
>>>>>>> e1d4bc35ff8a6074a6f2e91616a996b547c36f15
		<tag k="place" v="locality" />
		<tag k="ssr:stedsnr" v="222118" />
	</node>
<<<<<<< HEAD
	<node lat="61.03433888451378" lon="10.86628611677759" id="-30165">
		<tag k="loc_name" v="Pannekakeholen" />
		<tag k="name" v="Pankakeholen" />
		<tag k="place" v="locality" />
		<tag k="ssr:stedsnr" v="222368" />
	</node>
	<node lat="61.031408336140245" lon="10.729169444297593" id="-30169">
		<tag k="name" v="Kokmoen" />
		<tag k="place" v="locality" />
		<tag k="ssr:stedsnr" v="222650" />
	</node>
	<node lat="61.218205554736045" lon="10.792911115186515" id="-30171">
		<tag k="name" v="Storstilla" />
=======
	<node id="-308425" lat="61.0189027764" lon="11.0352583274">
		<tag k="name" v="Mælumsmyra" />
		<tag k="natural" v="wetland" />
		<tag k="ssr:stedsnr" v="708154" />
	</node>
	<node id="-309628" lat="61.009691665" lon="11.0484805526">
		<tag k="name" v="Yksetvolla" />
		<tag k="place" v="locality" />
		<tag k="ssr:stedsnr" v="542046" />
	</node>
	<node id="-308402" lat="61.0247111093" lon="11.0309138979">
		<tag k="name" v="Kyruhyttholen" />
		<tag k="place" v="locality" />
		<tag k="ssr:stedsnr" v="890130" />
	</node>
	<node id="-308400" lat="61.0585111093" lon="10.7670027812">
		<tag k="name" v="Stabbgardsmyra" />
		<tag k="natural" v="wetland" />
		<tag k="ssr:stedsnr" v="889629" />
	</node>
	<node id="-308398" lat="61.0628333305" lon="10.7551388914">
		<tag k="name" v="Øvre Laffinnmyra" />
>>>>>>> e1d4bc35ff8a6074a6f2e91616a996b547c36f15
		<tag k="natural" v="wetland" />
		<tag k="ssr:stedsnr" v="224297" />
	</node>
<<<<<<< HEAD
	<node lat="61.01526944761048" lon="10.908580561257718" id="-30172">
		<tag k="name" v="Aursmotjernsmyra" />
		<tag k="natural" v="wetland" />
		<tag k="ssr:stedsnr" v="224318" />
	</node>
	<node lat="61.00284167011967" lon="10.92626944205703" id="-30173">
		<tag k="name" v="Spellmyra" />
		<tag k="natural" v="wetland" />
		<tag k="ssr:stedsnr" v="224320" />
	</node>
	<node lat="60.945963892124006" lon="11.069708336606391" id="-30176">
=======
	<node id="-309421" lat="61.0963249984" lon="11.0266083365">
		<tag k="name" v="Eftasmyra" />
		<tag k="natural" v="wetland" />
		<tag k="ssr:stedsnr" v="371496" />
	</node>
	<node id="-307372" lat="60.9459638921" lon="11.0697083366">
>>>>>>> e1d4bc35ff8a6074a6f2e91616a996b547c36f15
		<tag k="name" v="Folungsmyra" />
		<tag k="natural" v="wetland" />
		<tag k="ssr:stedsnr" v="224474" />
	</node>
<<<<<<< HEAD
	<node lat="60.93906944829586" lon="11.062883336843239" id="-30177">
		<tag k="name" v="Pålsmyra" />
		<tag k="natural" v="wetland" />
		<tag k="ssr:stedsnr" v="224476" />
	</node>
	<node lat="61.02330277541974" lon="10.809177770340394" id="-30197">
		<tag k="name" v="Flågåsten" />
		<tag k="natural" v="stone" />
		<tag k="ssr:stedsnr" v="283665" />
	</node>
	<node lat="60.99322499603265" lon="11.046869443408193" id="-30205">
		<tag k="alt_name" v="Mærraholtet" />
		<tag k="name" v="Merraholtet" />
		<tag k="place" v="locality" />
		<tag k="ssr:stedsnr" v="298046" />
	</node>
	<node lat="60.9860555580931" lon="10.999208327116163" id="-30206">
		<tag k="name" v="Elgholen" />
		<tag k="place" v="locality" />
		<tag k="ssr:stedsnr" v="298058" />
	</node>
	<node lat="60.978275002364946" lon="11.003536102352125" id="-30207">
		<tag k="name" v="Stormyrhalsen" />
		<tag k="place" v="locality" />
		<tag k="ssr:stedsnr" v="298061" />
	</node>
	<node lat="61.107833329824004" lon="10.716261117996352" id="-30216">
		<tag k="name" v="Moenmyra" />
=======
	<node id="-307371" lat="61.0028416701" lon="10.9262694421">
		<tag k="name" v="Spellmyra" />
		<tag k="natural" v="wetland" />
		<tag k="ssr:stedsnr" v="224320" />
	</node>
	<node id="-308394" lat="61.0212722258" lon="10.8379138836">
		<tag k="name" v="Nedre Heggebakkslåtten" />
		<tag k="place" v="locality" />
		<tag k="ssr:stedsnr" v="889383" />
	</node>
	<node id="-307369" lat="61.2182055547" lon="10.7929111152">
		<tag k="name" v="Storstilla" />
		<tag k="natural" v="wetland" />
		<tag k="ssr:stedsnr" v="224297" />
	</node>
	<node id="-307432" lat="61.0708277818" lon="10.6445638859">
		<tag k="name" v="Lergravmarka" />
		<tag k="place" v="locality" />
		<tag k="ssr:stedsnr" v="241295" />
	</node>
	<node id="-307825" lat="60.9033277818" lon="10.9107472217">
		<tag k="landuse" v="quarry" />
		<tag k="name" v="By grustak" />
		<tag k="ssr:stedsnr" v="360960" />
	</node>
	<node id="-307362" lat="61.0314083361" lon="10.7291694443">
		<tag k="name" v="Kokmoen" />
		<tag k="place" v="locality" />
		<tag k="ssr:stedsnr" v="222650" />
	</node>
	<node id="-309408" lat="61.0646166643" lon="10.786066663">
		<tag k="name" v="Langmyra" />
>>>>>>> e1d4bc35ff8a6074a6f2e91616a996b547c36f15
		<tag k="natural" v="wetland" />
		<tag k="ssr:stedsnr" v="300024" />
	</node>
<<<<<<< HEAD
	<node lat="60.90984444047348" lon="10.903561104740472" id="-30217">
		<tag k="name" v="Byhagan" />
		<tag k="place" v="locality" />
		<tag k="ssr:stedsnr" v="300559" />
	</node>
	<node lat="61.013497226068644" lon="10.841249993663066" id="-30218">
		<tag k="name" v="Bøvermarka" />
		<tag k="place" v="locality" />
		<tag k="ssr:stedsnr" v="300351" />
	</node>
	<node lat="61.07580278094258" lon="10.697813890532078" id="-30227">
		<tag k="name" v="Lortmarka" />
=======
	<node id="-307871" lat="60.9896527785" lon="10.8584916624">
		<tag k="name" v="Stormyr" />
		<tag k="natural" v="wetland" />
		<tag k="ssr:stedsnr" v="494110" />
	</node>
	<node id="-309406" lat="60.9315583313" lon="10.7240583317">
		<tag k="name" v="Løkkehagan" />
		<tag k="place" v="locality" />
		<tag k="ssr:stedsnr" v="362788" />
	</node>
	<node id="-307868" lat="61.1392055529" lon="10.6890888833">
		<tag k="name" v="Steinsmyra" />
		<tag k="natural" v="wetland" />
		<tag k="ssr:stedsnr" v="493954" />
	</node>
	<node id="-309403" lat="60.9686499968" lon="11.0799444522">
		<tag k="historic" v="shieling" />
		<tag k="name" v="Mørud" />
>>>>>>> e1d4bc35ff8a6074a6f2e91616a996b547c36f15
		<tag k="place" v="locality" />
		<tag k="ssr:stedsnr" v="301469" />
	</node>
<<<<<<< HEAD
	<node lat="60.990824999771625" lon="10.853525000068213" id="-30233">
		<tag k="name" v="Eftasmyra" />
		<tag k="natural" v="wetland" />
		<tag k="ssr:stedsnr" v="302342" />
	</node>
	<node lat="61.08045833676324" lon="11.050088893427123" id="-30251">
		<tag k="name" v="Harasjømyra" />
		<tag k="natural" v="wetland" />
		<tag k="ssr:stedsnr" v="311657" />
	</node>
	<node lat="61.067002780327115" lon="10.694691669432938" id="-30253">
		<tag k="name" v="Stormyra" />
=======
	<node id="-308373" lat="60.9967833377" lon="11.0042055532">
		<tag k="name" v="Mosemyra" />
>>>>>>> e1d4bc35ff8a6074a6f2e91616a996b547c36f15
		<tag k="natural" v="wetland" />
		<tag k="ssr:stedsnr" v="311857" />
	</node>
<<<<<<< HEAD
	<node lat="60.984252780299656" lon="10.860283336675053" id="-30293">
		<tag k="alt_name" v="Skållbergsmyra" />
		<tag k="name" v="Skallbergsmyra" />
		<tag k="natural" v="wetland" />
		<tag k="ssr:stedsnr" v="313120" />
	</node>
	<node lat="61.04353055661291" lon="10.610188881851613" id="-30309">
		<tag k="name" v="Kloppmyra" />
		<tag k="natural" v="wetland" />
		<tag k="ssr:stedsnr" v="343242" />
	</node>
	<node lat="60.948441664165074" lon="11.062744452428657" id="-30336">
		<tag k="name" v="Tågmyra" />
=======
	<node id="-307348" lat="61.0343388845" lon="10.8662861168">
		<tag k="loc_name" v="Pannekakeholen" />
		<tag k="name" v="Pankakeholen" />
		<tag k="place" v="locality" />
		<tag k="ssr:stedsnr" v="222368" />
	</node>
	<node id="-308370" lat="60.9160499962" lon="11.2230499919">
		<tag k="name" v="Stormyra" />
>>>>>>> e1d4bc35ff8a6074a6f2e91616a996b547c36f15
		<tag k="natural" v="wetland" />
		<tag k="ssr:stedsnr" v="345470" />
	</node>
<<<<<<< HEAD
	<node lat="61.110022217742085" lon="10.983619450295459" id="-30350">
		<tag k="name" v="Lushatten" />
		<tag k="place" v="locality" />
		<tag k="ssr:stedsnr" v="360162" />
	</node>
	<node lat="60.903327781777534" lon="10.91074722167428" id="-30360">
		<tag k="landuse" v="quarry" />
		<tag k="name" v="By grustak" />
		<tag k="ssr:stedsnr" v="360960" />
	</node>
	<node lat="60.96864999678067" lon="11.079944452242568" id="-30371">
		<tag k="historic" v="shieling" />
		<tag k="name" v="Mørud" />
		<tag k="place" v="locality" />
		<tag k="ssr:stedsnr" v="362268" />
	</node>
	<node lat="61.06461666431615" lon="10.786066663017039" id="-30373">
=======
	<node id="-308419" lat="60.949611108" lon="11.0677555573">
		<tag k="name" v="Rundmyra" />
		<tag k="natural" v="wetland" />
		<tag k="ssr:stedsnr" v="891518" />
	</node>
	<node id="-307344" lat="60.8608027817" lon="11.0338388975">
		<tag k="name" v="Ampsmyra" />
		<tag k="natural" v="wetland" />
		<tag k="ssr:stedsnr" v="222305" />
	</node>
	<node id="-307855" lat="61.0374027782" lon="10.7133138971">
		<tag k="name" v="Kjerringrismyra" />
		<tag k="natural" v="wetland" />
		<tag k="ssr:stedsnr" v="493630" />
	</node>
	<node id="-308201" lat="61.0219972257" lon="10.8487888822">
		<tag k="name" v="Standerholen" />
		<tag k="place" v="locality" />
		<tag k="ssr:stedsnr" v="707407" />
	</node>
	<node id="-308162" lat="60.9739805566" lon="11.0175499931">
		<tag k="name" v="Gimsemyra" />
		<tag k="natural" v="wetland" />
		<tag k="ssr:stedsnr" v="555087" />
	</node>
	<node id="-309898" lat="61.0460333296" lon="10.9735916727">
		<tag k="alt_name" v="Sponbergsmyra" />
		<tag k="name" v="Sponmyra" />
		<tag k="natural" v="wetland" />
		<tag k="ssr:stedsnr" v="736579" />
	</node>
	<node id="-307479" lat="61.1097083321" lon="10.7630055538">
		<tag k="name" v="Stormyra" />
		<tag k="natural" v="wetland" />
		<tag k="ssr:stedsnr" v="250512" />
	</node>
	<node id="-308872" lat="61.0956416698" lon="10.6152027739">
>>>>>>> e1d4bc35ff8a6074a6f2e91616a996b547c36f15
		<tag k="name" v="Langmyra" />
		<tag k="natural" v="wetland" />
		<tag k="ssr:stedsnr" v="362744" />
	</node>
<<<<<<< HEAD
	<node lat="60.931558331333704" lon="10.724058331685244" id="-30375">
		<tag k="name" v="Løkkehagan" />
		<tag k="place" v="locality" />
		<tag k="ssr:stedsnr" v="362788" />
	</node>
	<node lat="60.882122222762064" lon="10.92909167528388" id="-30379">
		<tag k="name" v="Granerudjordet" />
		<tag k="place" v="locality" />
		<tag k="ssr:stedsnr" v="363000" />
	</node>
	<node lat="61.09632499843204" lon="11.0266083365023" id="-30400">
		<tag k="name" v="Eftasmyra" />
		<tag k="natural" v="wetland" />
		<tag k="ssr:stedsnr" v="371496" />
	</node>
	<node lat="61.04894999898341" lon="10.888436104983308" id="-30448">
		<tag k="name" v="Syljulimarka" />
		<tag k="place" v="locality" />
		<tag k="ssr:stedsnr" v="404358" />
	</node>
	<node lat="60.94376389218012" lon="10.710663897018936" id="-30454">
		<tag k="name" v="Fjølstadmarka" />
		<tag k="place" v="locality" />
		<tag k="ssr:stedsnr" v="404633" />
	</node>
	<node lat="60.73327222207091" lon="10.938233324494519" id="-30461">
		<tag k="name" v="Moskogen" />
=======
	<node id="-307334" lat="61.0346222254" lon="11.0255333361">
		<tag k="name" v="Høyvelta" />
		<tag k="place" v="locality" />
		<tag k="ssr:stedsnr" v="222118" />
	</node>
	<node id="-307575" lat="61.0789666635" lon="10.8983833394">
		<tag k="name" v="Elgmyra" />
		<tag k="natural" v="wetland" />
		<tag k="ssr:stedsnr" v="129611" />
	</node>
	<node id="-309379" lat="60.9484416642" lon="11.0627444524">
		<tag k="name" v="Tågmyra" />
		<tag k="natural" v="wetland" />
		<tag k="ssr:stedsnr" v="345470" />
	</node>
	<node id="-310123" lat="60.9775861083" lon="11.060855564">
		<tag k="name" v="Skreppåsmyra" />
		<tag k="natural" v="wetland" />
		<tag k="ssr:stedsnr" v="844045" />
	</node>
	<node id="-308352" lat="61.1082749963" lon="10.8212888956">
		<tag k="name" v="Vakkervollmyra" />
		<tag k="natural" v="wetland" />
		<tag k="ssr:stedsnr" v="675529" />
	</node>
	<node id="-307839" lat="60.8821222228" lon="10.9290916753">
		<tag k="name" v="Granerudjordet" />
>>>>>>> e1d4bc35ff8a6074a6f2e91616a996b547c36f15
		<tag k="place" v="locality" />
		<tag k="ssr:stedsnr" v="406853" />
	</node>
<<<<<<< HEAD
	<node lat="60.990502775702666" lon="10.973491670221753" id="-30462">
		<tag k="name" v="Stokholmsholtet" />
		<tag k="place" v="locality" />
		<tag k="ssr:stedsnr" v="419070" />
	</node>
	<node lat="61.115163885959674" lon="10.722955558843655" id="-30467">
		<tag k="name" v="Øvre Svarthaugmyra" />
		<tag k="natural" v="wetland" />
		<tag k="ssr:stedsnr" v="420731" />
	</node>
	<node lat="61.07140000306884" lon="10.561205547100215" id="-30468">
		<tag k="name" v="Skålsvea" />
		<tag k="place" v="locality" />
		<tag k="ssr:stedsnr" v="420795" />
	</node>
	<node lat="61.09394444080236" lon="10.956422229564032" id="-30471">
		<tag k="historic" v="shieling" />
		<tag k="name" v="Glevollene" />
		<tag k="place" v="locality" />
		<tag k="ssr:stedsnr" v="421178" />
	</node>
	<node lat="61.11293055965171" lon="10.852880559158047" id="-30478">
		<tag k="name" v="Eftasmyra" />
=======
	<node id="-308348" lat="61.0910166659" lon="10.614525006">
		<tag k="name" v="Stormyra" />
		<tag k="natural" v="wetland" />
		<tag k="ssr:stedsnr" v="674767" />
	</node>
	<node id="-309883" lat="61.0005444408" lon="10.8995111108">
		<tag k="name" v="Grasmyra" />
		<tag k="natural" v="wetland" />
		<tag k="ssr:stedsnr" v="648350" />
	</node>
	<node id="-309881" lat="61.2164416652" lon="10.8288777721">
		<tag k="name" v="Sjuguttsteinen" />
		<tag k="natural" v="stone" />
		<tag k="ssr:stedsnr" v="648332" />
	</node>
	<node id="-308855" lat="61.0060027799" lon="10.6532999978">
		<tag k="name" v="Arnestumyra" />
		<tag k="natural" v="wetland" />
		<tag k="ssr:stedsnr" v="58387" />
	</node>
	<node id="-308854" lat="61.1180777813" lon="10.6913444411">
		<tag k="name" v="Saltbergmyra" />
>>>>>>> e1d4bc35ff8a6074a6f2e91616a996b547c36f15
		<tag k="natural" v="wetland" />
		<tag k="ssr:stedsnr" v="423486" />
	</node>
<<<<<<< HEAD
	<node lat="60.93212777387796" lon="10.683152779424967" id="-30483">
		<tag k="name" v="Moskogen" />
=======
	<node id="-308853" lat="61.140572225" lon="10.675136109">
		<tag k="historic" v="shieling" />
		<tag k="name" v="Skulivangen" />
>>>>>>> e1d4bc35ff8a6074a6f2e91616a996b547c36f15
		<tag k="place" v="locality" />
		<tag k="ssr:stedsnr" v="423673" />
	</node>
<<<<<<< HEAD
	<node lat="60.975113892525435" lon="11.024227778372133" id="-30561">
		<tag k="name" v="Torvmyra" />
=======
	<node id="-309875" lat="61.0195222208" lon="10.8275694505">
		<tag k="name" v="Starmyra" />
>>>>>>> e1d4bc35ff8a6074a6f2e91616a996b547c36f15
		<tag k="natural" v="wetland" />
		<tag k="ssr:stedsnr" v="540052" />
	</node>
	<node lat="61.08466389082135" lon="10.584461105022097" id="-30563">
		<tag k="name" v="Dompidal" />
		<tag k="place" v="locality" />
		<tag k="ssr:stedsnr" v="541057" />
	</node>
<<<<<<< HEAD
	<node lat="61.06507222320495" lon="10.556316667374908" id="-30565">
		<tag k="name" v="Jørnsvea" />
		<tag k="place" v="locality" />
		<tag k="ssr:stedsnr" v="541789" />
	</node>
	<node lat="61.09832777601647" lon="10.745961111227306" id="-30567">
		<tag k="name" v="Kjerringrismyra" />
		<tag k="natural" v="wetland" />
		<tag k="ssr:stedsnr" v="541733" />
	</node>
	<node lat="61.10094166216876" lon="10.791555562691778" id="-30568">
		<tag k="name" v="Svinesundmyra" />
=======
	<node id="-308337" lat="61.003622224" lon="10.8866638881">
		<tag k="name" v="Glemyra" />
		<tag k="natural" v="wetland" />
		<tag k="ssr:stedsnr" v="664309" />
	</node>
	<node id="-308848" lat="61.1242805543" lon="10.7947055633">
		<tag k="name" v="Saugstadmyra" />
>>>>>>> e1d4bc35ff8a6074a6f2e91616a996b547c36f15
		<tag k="natural" v="wetland" />
		<tag k="ssr:stedsnr" v="541742" />
	</node>
<<<<<<< HEAD
	<node lat="61.101672223175235" lon="10.759722215885208" id="-30569">
		<tag k="name" v="Rundmyra" />
		<tag k="natural" v="wetland" />
		<tag k="ssr:stedsnr" v="541744" />
	</node>
	<node lat="61.00969166500617" lon="11.0484805525519" id="-30571">
		<tag k="name" v="Yksetvolla" />
		<tag k="place" v="locality" />
		<tag k="ssr:stedsnr" v="542046" />
	</node>
	<node lat="61.01236389306016" lon="11.038133334308116" id="-30572">
		<tag k="name" v="Lauvhyttholen" />
		<tag k="place" v="locality" />
		<tag k="ssr:stedsnr" v="542047" />
	</node>
	<node lat="61.06875832990724" lon="10.728455559499368" id="-30574">
		<tag k="name" v="Onsummyra" />
=======
	<node id="-308840" lat="61.132808336" lon="10.7307138931">
		<tag k="name" v="Sjømyra" />
		<tag k="natural" v="wetland" />
		<tag k="ssr:stedsnr" v="57247" />
	</node>
	<node id="-307389" lat="61.0239361133" lon="11.0032916727">
		<tag k="name" v="Gautsætermarka" />
		<tag k="place" v="locality" />
		<tag k="ssr:stedsnr" v="40166" />
	</node>
	<node id="-307820" lat="61.1100222177" lon="10.9836194503">
		<tag k="name" v="Lushatten" />
		<tag k="place" v="locality" />
		<tag k="ssr:stedsnr" v="360162" />
	</node>
	<node id="-309867" lat="61.1014944475" lon="10.8537611084">
		<tag k="historic" v="shieling" />
		<tag k="name" v="Lopperud" />
		<tag k="place" v="locality" />
		<tag k="ssr:stedsnr" v="646399" />
	</node>
	<node id="-309866" lat="61.0203861069" lon="10.8443083387">
		<tag k="name" v="Bøverbakkmyra" />
		<tag k="natural" v="wetland" />
		<tag k="ssr:stedsnr" v="646383" />
	</node>
	<node id="-309864" lat="61.1426777801" lon="10.9785777731">
		<tag k="name" v="Granåsmyra" />
>>>>>>> e1d4bc35ff8a6074a6f2e91616a996b547c36f15
		<tag k="natural" v="wetland" />
		<tag k="ssr:stedsnr" v="542641" />
	</node>
<<<<<<< HEAD
	<node lat="61.07216944483965" lon="10.724269453659272" id="-30575">
		<tag k="name" v="Bjønndorra" />
		<tag k="natural" v="wetland" />
		<tag k="ssr:stedsnr" v="542642" />
	</node>
	<node lat="61.18672778117859" lon="10.961236109348933" id="-30583">
		<tag k="name" v="Øvre Liervolla" />
=======
	<node id="-309347" lat="61.0435305566" lon="10.6101888819">
		<tag k="name" v="Kloppmyra" />
>>>>>>> e1d4bc35ff8a6074a6f2e91616a996b547c36f15
		<tag k="natural" v="wetland" />
		<tag k="ssr:stedsnr" v="544263" />
	</node>
<<<<<<< HEAD
	<node lat="60.83410832907687" lon="10.84878333919789" id="-30587">
		<tag k="name" v="Syverud" />
		<tag k="place" v="locality" />
		<tag k="ssr:stedsnr" v="544901" />
	</node>
	<node lat="61.02557221952769" lon="10.836986106390173" id="-30641">
		<tag k="name" v="Øvre Heggebakkslåtten" />
		<tag k="place" v="locality" />
		<tag k="ssr:stedsnr" v="585348" />
	</node>
	<node lat="61.075572218376884" lon="10.850077773368001" id="-30644">
		<tag k="name" v="Raumyra" />
		<tag k="natural" v="wetland" />
		<tag k="ssr:stedsnr" v="585369" />
	</node>
	<node lat="61.05420555658014" lon="11.05549167486229" id="-30647">
		<tag k="name" v="Lortrasten" />
=======
	<node id="-309857" lat="61.0164611116" lon="10.9654305588">
		<tag k="name" v="Nordskattmyra" />
		<tag k="natural" v="wetland" />
		<tag k="ssr:stedsnr" v="646129" />
	</node>
	<node id="-308320" lat="61.1154666629" lon="10.7502972244">
		<tag k="name" v="Eftasmyra" />
		<tag k="natural" v="wetland" />
		<tag k="ssr:stedsnr" v="735502" />
	</node>
	<node id="-308831" lat="61.0985888887" lon="10.6245666673">
		<tag k="name" v="Langmyråsen" />
>>>>>>> e1d4bc35ff8a6074a6f2e91616a996b547c36f15
		<tag k="place" v="locality" />
		<tag k="ssr:stedsnr" v="586120" />
	</node>
	<node lat="60.85924999791568" lon="11.084038889910403" id="-30654">
		<tag k="name" v="Markarudsletta" />
		<tag k="place" v="locality" />
		<tag k="ssr:stedsnr" v="586825" />
	</node>
<<<<<<< HEAD
	<node lat="61.09424444115242" lon="10.822997217621882" id="-30670">
		<tag k="name" v="Engemyra" />
		<tag k="natural" v="wetland" />
		<tag k="ssr:stedsnr" v="601719" />
	</node>
	<node lat="61.069052779586954" lon="10.52939999577224" id="-30672">
		<tag k="name" v="Fauskerudbrenna" />
=======
	<node id="-307806" lat="61.173575001" lon="10.9602083403">
		<tag k="historic" v="shieling" />
		<tag k="name" v="Småvolla" />
		<tag k="place" v="locality" />
		<tag k="ssr:stedsnr" v="484244" />
	</node>
	<node id="-308317" lat="60.790288887" lon="10.8440749993">
		<tag k="name" v="Retterstadbakken" />
>>>>>>> e1d4bc35ff8a6074a6f2e91616a996b547c36f15
		<tag k="place" v="locality" />
		<tag k="ssr:stedsnr" v="601793" />
	</node>
<<<<<<< HEAD
	<node lat="61.06456944730815" lon="10.904980563948289" id="-30681">
		<tag k="name" v="Guritjernsmyra" />
		<tag k="natural" v="wetland" />
		<tag k="ssr:stedsnr" v="604458" />
	</node>
	<node lat="61.07386388870849" lon="10.729950003805305" id="-30701">
		<tag k="alt_name" v="Lort-Stormyra" />
		<tag k="name" v="Stormyra" />
=======
	<node id="-307804" lat="60.9214250038" lon="11.0640777865">
		<tag k="name" v="Rundhaugen" />
		<tag k="place" v="locality" />
		<tag k="ssr:stedsnr" v="484486" />
	</node>
	<node id="-309851" lat="60.9924666652" lon="10.9330027765">
		<tag k="name" v="Rismyra" />
		<tag k="natural" v="wetland" />
		<tag k="ssr:stedsnr" v="627017" />
	</node>
	<node id="-310030" lat="61.0967333324" lon="10.7730999941">
		<tag k="name" v="Hestmyra" />
		<tag k="natural" v="wetland" />
		<tag k="ssr:stedsnr" v="796501" />
	</node>
	<node id="-308818" lat="61.0956527807" lon="10.7056777808">
		<tag k="name" v="Kongen" />
		<tag k="natural" v="stone" />
		<tag k="ssr:stedsnr" v="40081" />
	</node>
	<node id="-307792" lat="61.0698888881" lon="10.7336055524">
		<tag k="name" v="Grønbekkdorra" />
		<tag k="natural" v="wetland" />
		<tag k="ssr:stedsnr" v="481650" />
	</node>
	<node id="-307844" lat="61.1264749997" lon="10.9942805602">
		<tag k="alt_name" v="Taptbort" />
		<tag k="name" v="Tapbortmyra" />
		<tag k="natural" v="wetland" />
		<tag k="ssr:stedsnr" v="493525" />
	</node>
	<node id="-308302" lat="61.0718249986" lon="10.6962805583">
		<tag k="name" v="Olasveskogen" />
		<tag k="place" v="locality" />
		<tag k="ssr:stedsnr" v="726487" />
	</node>
	<node id="-307565" lat="60.9962305522" lon="10.9399249916">
		<tag k="name" v="Puttmyra" />
		<tag k="natural" v="wetland" />
		<tag k="ssr:stedsnr" v="264013" />
	</node>
	<node id="-307370" lat="61.0152694476" lon="10.9085805613">
		<tag k="name" v="Aursmotjernsmyra" />
>>>>>>> e1d4bc35ff8a6074a6f2e91616a996b547c36f15
		<tag k="natural" v="wetland" />
		<tag k="ssr:stedsnr" v="614635" />
	</node>
<<<<<<< HEAD
	<node lat="61.06287500156683" lon="10.675575003177244" id="-30711">
		<tag k="name" v="Mysuholtmyra" />
		<tag k="natural" v="wetland" />
		<tag k="ssr:stedsnr" v="614841" />
	</node>
	<node lat="61.00867500101353" lon="10.590975003133032" id="-30714">
		<tag k="landuse" v="meadow" />
		<tag k="name" v="Nerhagen" />
		<tag k="ssr:stedsnr" v="614772" />
=======
	<node id="-307616" lat="60.8882972184" lon="11.1013861144">
		<tag k="name" v="Røssbakkrønningen" />
		<tag k="place" v="locality" />
		<tag k="ssr:stedsnr" v="282525" />
	</node>
	<node id="-307782" lat="60.9842527803" lon="10.8602833367">
		<tag k="alt_name" v="Skållbergsmyra" />
		<tag k="name" v="Skallbergsmyra" />
		<tag k="natural" v="wetland" />
		<tag k="ssr:stedsnr" v="313120" />
	</node>
	<node id="-307861" lat="61.0166805587" lon="10.6707111176">
		<tag k="name" v="Trekantmyra" />
		<tag k="natural" v="wetland" />
		<tag k="ssr:stedsnr" v="493748" />
	</node>
	<node id="-308491" lat="60.9489305568" lon="11.0306416598">
		<tag k="name" v="Nekolaibotten" />
		<tag k="place" v="locality" />
		<tag k="ssr:stedsnr" v="769504" />
	</node>
	<node id="-308287" lat="61.0155750015" lon="11.0384444356">
		<tag k="name" v="Kjølhyttholen" />
		<tag k="place" v="locality" />
		<tag k="ssr:stedsnr" v="724038" />
	</node>
	<node id="-309116" lat="61.0851166703" lon="10.6337999931">
		<tag k="name" v="Midtlishagen" />
		<tag k="place" v="locality" />
		<tag k="ssr:stedsnr" v="177076" />
	</node>
	<node id="-308285" lat="61.1029277795" lon="10.7637277824">
		<tag k="name" v="Leikmyra" />
		<tag k="natural" v="wetland" />
		<tag k="ssr:stedsnr" v="723721" />
	</node>
	<node id="-308281" lat="61.0924694473" lon="10.5940333377">
		<tag k="name" v="Ringen" />
		<tag k="place" v="locality" />
		<tag k="ssr:stedsnr" v="723072" />
	</node>
	<node id="-309172" lat="61.1342999989" lon="10.6754000015">
		<tag k="name" v="Langmyra" />
		<tag k="natural" v="wetland" />
		<tag k="ssr:stedsnr" v="189951" />
	</node>
	<node id="-307766" lat="61.0758027809" lon="10.6978138905">
		<tag k="name" v="Lortmarka" />
		<tag k="place" v="locality" />
		<tag k="ssr:stedsnr" v="301469" />
	</node>
	<node id="-307346" lat="60.8786194407" lon="11.0692916588">
		<tag k="alt_name" v="Gålåsflåen" />
		<tag k="name" v="Gålåsflå" />
		<tag k="place" v="locality" />
		<tag k="ssr:stedsnr" v="222320" />
	</node>
	<node id="-307761" lat="61.1078333298" lon="10.716261118">
		<tag k="name" v="Moenmyra" />
		<tag k="natural" v="wetland" />
		<tag k="ssr:stedsnr" v="300024" />
	</node>
	<node id="-309806" lat="60.8950861091" lon="11.0664111049">
		<tag k="name" v="Høgsvemyra" />
		<tag k="natural" v="wetland" />
		<tag k="ssr:stedsnr" v="615257" />
	</node>
	<node id="-307805" lat="60.9142777753" lon="11.0160777834">
		<tag k="name" v="Åsbergmyra" />
		<tag k="natural" v="wetland" />
		<tag k="ssr:stedsnr" v="484487" />
	</node>
	<node id="-307756" lat="61.0338500001" lon="10.7650999936">
		<tag k="name" v="Bakmarka" />
		<tag k="place" v="locality" />
		<tag k="ssr:stedsnr" v="465672" />
	</node>
	<node id="-309354" lat="61.0633638934" lon="10.8875277738">
		<tag k="name" v="Gåstjernsmyra" />
		<tag k="natural" v="wetland" />
		<tag k="ssr:stedsnr" v="343352" />
	</node>
	<node id="-308487" lat="61.0470666632" lon="10.741908337">
		<tag k="name" v="Onsummyra" />
		<tag k="natural" v="wetland" />
		<tag k="ssr:stedsnr" v="768679" />
	</node>
	<node id="-307749" lat="61.0062138869" lon="10.9693083361">
		<tag k="name" v="Fløytmarka" />
		<tag k="place" v="locality" />
		<tag k="ssr:stedsnr" v="465134" />
	</node>
	<node id="-308259" lat="61.008675001" lon="10.5909750031">
		<tag k="landuse" v="meadow" />
		<tag k="name" v="Nerhagen" />
		<tag k="ssr:stedsnr" v="614772" />
	</node>
	<node id="-309794" lat="61.0738638887" lon="10.7299500038">
		<tag k="alt_name" v="Lort-Stormyra" />
		<tag k="name" v="Stormyra" />
		<tag k="natural" v="wetland" />
		<tag k="ssr:stedsnr" v="614635" />
	</node>
	<node id="-307745" lat="60.9569361096" lon="10.9025916684">
		<tag k="name" v="Blekemyra" />
		<tag k="natural" v="wetland" />
		<tag k="ssr:stedsnr" v="464293" />
	</node>
	<node id="-309791" lat="61.0628750016" lon="10.6755750032">
		<tag k="name" v="Mysuholtmyra" />
		<tag k="natural" v="wetland" />
		<tag k="ssr:stedsnr" v="614841" />
	</node>
	<node id="-307741" lat="61.0932944446" lon="10.6731111193">
		<tag k="name" v="Lermyra" />
		<tag k="natural" v="wetland" />
		<tag k="ssr:stedsnr" v="464087" />
	</node>
	<node id="-308143" lat="61.0687583299" lon="10.7284555595">
		<tag k="name" v="Onsummyra" />
		<tag k="natural" v="wetland" />
		<tag k="ssr:stedsnr" v="542641" />
	</node>
	<node id="-309273" lat="61.0670027803" lon="10.6946916694">
		<tag k="name" v="Stormyra" />
		<tag k="natural" v="wetland" />
		<tag k="ssr:stedsnr" v="311857" />
	</node>
	<node id="-308518" lat="60.9896999957" lon="10.9969555567">
		<tag k="name" v="Stormyra" />
		<tag k="natural" v="wetland" />
		<tag k="ssr:stedsnr" v="919093" />
	</node>
	<node id="-308758" lat="61.0473777796" lon="10.6984777801">
		<tag k="name" v="Kloppmyra" />
		<tag k="natural" v="wetland" />
		<tag k="ssr:stedsnr" v="8700" />
	</node>
	<node id="-309774" lat="60.9119472182" lon="11.022652777">
		<tag k="name" v="Øyåkerbakken" />
		<tag k="place" v="locality" />
		<tag k="ssr:stedsnr" v="605506" />
	</node>
	<node id="-307373" lat="60.9390694483" lon="11.0628833368">
		<tag k="name" v="Pålsmyra" />
		<tag k="natural" v="wetland" />
		<tag k="ssr:stedsnr" v="224476" />
	</node>
	<node id="-309260" lat="61.0804583368" lon="11.0500888934">
		<tag k="name" v="Harasjømyra" />
		<tag k="natural" v="wetland" />
		<tag k="ssr:stedsnr" v="311657" />
	</node>
	<node id="-307722" lat="61.062391665" lon="10.8011000088">
		<tag k="name" v="Eftasmyra" />
		<tag k="natural" v="wetland" />
		<tag k="ssr:stedsnr" v="241723" />
	</node>
	<node id="-309768" lat="61.0645694473" lon="10.9049805639">
		<tag k="name" v="Guritjernsmyra" />
		<tag k="natural" v="wetland" />
		<tag k="ssr:stedsnr" v="604458" />
	</node>
	<node id="-308740" lat="61.069099997" lon="10.7931833316">
		<tag k="alt_name" v="Ursvikmyra" />
		<tag k="name" v="Urdsvikmyra" />
		<tag k="natural" v="wetland" />
		<tag k="ssr:stedsnr" v="7598" />
	</node>
	<node id="-309761" lat="61.0690527796" lon="10.5293999958">
		<tag k="name" v="Fauskerudbrenna" />
		<tag k="place" v="locality" />
		<tag k="ssr:stedsnr" v="601793" />
>>>>>>> e1d4bc35ff8a6074a6f2e91616a996b547c36f15
	</node>
</osm>
