<?xml version="1.0" encoding="UTF-8"?>
<<<<<<< HEAD
<osm version="0.6" generator="osmapis">
	<node lat="61.02755000047407" lon="10.919741669711494" id="-28251">
		<tag k="name" v="Bergsbutjernet" />
		<tag k="natural" v="water" />
		<tag k="ssr:stedsnr" v="6610" />
	</node>
	<node lat="61.01108333390728" lon="10.708325004490902" id="-28254">
		<tag k="name" v="Årnesodden" />
		<tag k="natural" v="cape" />
		<tag k="ssr:stedsnr" v="7708" />
	</node>
	<node lat="61.024108334084346" lon="10.488908340862482" id="-28256">
		<tag k="name" v="Bekkodden" />
		<tag k="natural" v="cape" />
		<tag k="ssr:stedsnr" v="7715" />
	</node>
	<node lat="61.03200000113922" lon="10.652727779828355" id="-28257">
		<tag k="alt_name" v="Lontjennet" />
		<tag k="name" v="Lontjernet" />
		<tag k="natural" v="water" />
		<tag k="ssr:stedsnr" v="7720" />
	</node>
	<node lat="61.16971388670722" lon="10.68089165755507" id="-28262">
		<tag k="alt_name" v="Lunken, store" />
		<tag k="name" v="Store Lunken" />
		<tag k="natural" v="water" />
		<tag k="ssr:stedsnr" v="8891" />
	</node>
	<node lat="60.990852779712846" lon="10.906124992805967" id="-28263">
		<tag k="name" v="Ellungstjernet" />
		<tag k="natural" v="water" />
		<tag k="ssr:stedsnr" v="9090" />
	</node>
	<node lat="61.015911113428515" lon="10.995955562094688" id="-28294">
		<tag k="name" v="Gautsæterdammen" />
		<tag k="ssr:stedsnr" v="40158" />
		<tag k="waterway" v="dam" />
	</node>
	<node lat="61.03699167067879" lon="10.957908325223832" id="-28295">
		<tag k="name" v="Sponbergsbekken" />
		<tag k="ssr:stedsnr" v="40162" />
		<tag k="waterway" v="stream" />
	</node>
	<node lat="61.02240277960408" lon="10.965252775284608" id="-28296">
		<tag k="name" v="Spellbekken" />
		<tag k="ssr:stedsnr" v="40165" />
		<tag k="waterway" v="stream" />
	</node>
	<node lat="60.99692499910188" lon="10.964891666522313" id="-28298">
		<tag k="name" v="Sagdammen" />
		<tag k="ssr:stedsnr" v="40176" />
		<tag k="waterway" v="dam" />
	</node>
	<node lat="60.84338611110704" lon="10.730141659432718" id="-28314">
		<tag k="name" v="Sløebekken" />
		<tag k="ssr:stedsnr" v="42207" />
		<tag k="waterway" v="stream" />
	</node>
	<node lat="61.10150555379616" lon="10.724252786273833" id="-28320">
		<tag k="name" v="Syljubekken" />
		<tag k="ssr:stedsnr" v="55683" />
		<tag k="waterway" v="stream" />
	</node>
	<node lat="61.12030278129953" lon="10.68698332491196" id="-28322">
		<tag k="name" v="Håkenstadbekken" />
		<tag k="ssr:stedsnr" v="240031" />
		<tag k="waterway" v="stream" />
	</node>
	<node lat="61.001819442840244" lon="10.733358330607034" id="-28328">
		<tag k="name" v="Kongssundbekken" />
		<tag k="ssr:stedsnr" v="58601" />
		<tag k="waterway" v="stream" />
	</node>
	<node lat="61.235236113600266" lon="10.937608334611838" id="-28351">
		<tag k="name" v="Lona" />
		<tag k="ssr:stedsnr" v="68709" />
		<tag k="waterway" v="stream" />
	</node>
	<node lat="61.06069444180967" lon="10.587599997220492" id="-28356">
		<tag k="alt_name" v="Svarttjennet" />
		<tag k="name" v="Svarttjernet" />
		<tag k="natural" v="water" />
		<tag k="ssr:stedsnr" v="68698" />
	</node>
	<node lat="61.159736260970796" lon="10.84066726921794" id="-28361">
		<tag k="name" v="Grunna" />
		<tag k="natural" v="water" />
		<tag k="ssr:stedsnr" v="69580" />
		<tag k="water" v="lake" />
	</node>
	<node lat="60.96716110817762" lon="11.046400007742317" id="-28366">
		<tag k="name" v="Svartdalsbekken" />
		<tag k="ssr:stedsnr" v="70128" />
		<tag k="waterway" v="stream" />
	</node>
	<node lat="61.0931250018557" lon="10.716169440726722" id="-28389">
		<tag k="name" v="Svensholmen" />
		<tag k="place" v="islet" />
		<tag k="ssr:stedsnr" v="100060" />
	</node>
	<node lat="61.07117500457933" lon="10.863752769001652" id="-28429">
		<tag k="name" v="Vivelsbekken" />
		<tag k="ssr:stedsnr" v="250618" />
		<tag k="waterway" v="stream" />
	</node>
	<node lat="61.11538333776517" lon="10.634183338027603" id="-28433">
		<tag k="name" v="Holman" />
		<tag k="place" v="islet" />
		<tag k="ssr:stedsnr" v="250777" />
	</node>
	<node lat="61.111455551964355" lon="10.699788885764912" id="-28434">
		<tag k="name" v="Tordammen" />
		<tag k="ssr:stedsnr" v="118014" />
		<tag k="waterway" v="dam" />
	</node>
	<node lat="61.06308888925527" lon="10.912119452914757" id="-28442">
		<tag k="name" v="Svartbekken" />
		<tag k="ssr:stedsnr" v="119479" />
		<tag k="waterway" v="stream" />
	</node>
	<node lat="60.9216249998439" lon="10.73432500889847" id="-28480">
		<tag k="name" v="Evjua" />
		<tag k="ssr:stedsnr" v="252225" />
		<tag k="waterway" v="stream" />
	</node>
	<node lat="60.91099166650074" lon="10.902680549570055" id="-28481">
		<tag k="name" v="Bybekken" />
		<tag k="ssr:stedsnr" v="252230" />
		<tag k="waterway" v="stream" />
	</node>
	<node lat="60.885955555026435" lon="10.805480557870144" id="-28484">
		<tag k="alt_name" v="Kinnlitjennet" />
		<tag k="name" v="Kinnlitjernet" />
		<tag k="natural" v="water" />
		<tag k="ssr:stedsnr" v="252276" />
	</node>
	<node lat="60.7388055592812" lon="10.979780563563459" id="-28497">
		<tag k="name" v="Helgøya" />
		<tag k="place" v="island" />
		<tag k="ssr:stedsnr" v="128907" />
	</node>
	<node lat="61.014380557848604" lon="10.636363884366668" id="-28507">
		<tag k="name" v="Hølbekkene" />
		<tag k="ssr:stedsnr" v="129746" />
		<tag k="waterway" v="stream" />
	</node>
	<node lat="60.7561249993925" lon="10.941627773229984" id="-28532">
		<tag k="name" v="Nessundet" />
		<tag k="natural" v="strait" />
		<tag k="ssr:stedsnr" v="130472" />
	</node>
	<node lat="61.12021666403596" lon="10.649505547866532" id="-28560">
		<tag k="name" v="Nordgardsvika" />
		<tag k="natural" v="bay" />
		<tag k="ssr:stedsnr" v="177617" />
	</node>
	<node lat="61.09350277562015" lon="10.817916666006722" id="-28561">
		<tag k="name" v="Svartbekken" />
		<tag k="ssr:stedsnr" v="177755" />
		<tag k="waterway" v="stream" />
	</node>
	<node lat="61.10243888927328" lon="10.771497218584194" id="-28562">
		<tag k="name" v="Hestemyrbekken" />
		<tag k="ssr:stedsnr" v="177759" />
		<tag k="waterway" v="stream" />
	</node>
	<node lat="61.00072499726201" lon="10.869163895600977" id="-28563">
		<tag k="alt_name" v="Kluftjernsbekken" />
		<tag k="name" v="Klufttjernsbekken" />
		<tag k="ssr:stedsnr" v="179329" />
		<tag k="waterway" v="stream" />
	</node>
	<node lat="60.92618332982881" lon="10.919861107229558" id="-28564">
		<tag k="name" v="Oppsalelva" />
		<tag k="ssr:stedsnr" v="179526" />
		<tag k="waterway" v="stream" />
	</node>
	<node lat="61.15731944723312" lon="11.007802782241694" id="-28566">
		<tag k="name" v="Godbakktjernet" />
=======
<osm generator="osmapis" version="0.6">
	<node id="-309758" lat="61.0999055531" lon="10.8109833306">
		<tag k="name" v="Bjørlykkjebekken" />
		<tag k="ssr:stedsnr" v="601715" />
		<tag k="waterway" v="stream" />
	</node>
	<node id="-308565" lat="61.1813388883" lon="10.9610833405">
		<tag k="name" v="Nysæterbekken" />
		<tag k="ssr:stedsnr" v="797564" />
		<tag k="waterway" v="stream" />
	</node>
	<node id="-307708" lat="61.0873222189" lon="10.6283638871">
		<tag k="name" v="Djupholmen" />
		<tag k="place" v="islet" />
		<tag k="ssr:stedsnr" v="298100" />
	</node>
	<node id="-309238" lat="60.8866166655" lon="10.9121027694">
		<tag k="name" v="Skanselva" />
		<tag k="ssr:stedsnr" v="302977" />
		<tag k="waterway" v="river" />
	</node>
	<node id="-308212" lat="60.7990944463" lon="10.8329805573">
		<tag k="alt_name" v="Stortjennet" />
		<tag k="name" v="Stortjernet" />
		<tag k="natural" v="water" />
		<tag k="ssr:stedsnr" v="709038" />
	</node>
	<node id="-308051" lat="60.9004194429" lon="10.8592333399">
		<tag k="name" v="Tokstadbekken" />
		<tag k="ssr:stedsnr" v="481960" />
		<tag k="waterway" v="stream" />
	</node>
	<node id="-310256" lat="60.8527472188" lon="10.9517138901">
		<tag k="name" v="Kommersvika" />
		<tag k="natural" v="bay" />
		<tag k="ssr:stedsnr" v="969993" />
	</node>
	<node id="-307596" lat="61.0276083329" lon="11.1045638851">
		<tag k="name" v="Osodden" />
		<tag k="natural" v="cape" />
		<tag k="ssr:stedsnr" v="161869" />
	</node>
	<node id="-309229" lat="61.1591583296" lon="10.9044499985">
		<tag k="name" v="Trillingbekken" />
		<tag k="ssr:stedsnr" v="301449" />
		<tag k="waterway" v="stream" />
	</node>
	<node id="-308329" lat="61.0860166688" lon="10.7397444442">
		<tag k="alt_name" v="Sørmesna" />
		<tag k="name" v="Sør-Mesna" />
		<tag k="natural" v="water" />
		<tag k="ssr:stedsnr" v="735860" />
		<tag k="water" v="lake" />
	</node>
	<node id="-307794" lat="61.1085416674" lon="10.6739027696">
		<tag k="name" v="Arnestadvika" />
		<tag k="natural" v="bay" />
		<tag k="ssr:stedsnr" v="482023" />
	</node>
	<node id="-309224" lat="60.8935000029" lon="11.0971250093">
		<tag k="name" v="Fallsbekken" />
		<tag k="ssr:stedsnr" v="191589" />
		<tag k="waterway" v="stream" />
	</node>
	<node id="-307684" lat="60.9437500008" lon="11.0798749965">
		<tag k="name" v="Blanktjernet" />
		<tag k="natural" v="water" />
		<tag k="ssr:stedsnr" v="191128" />
	</node>
	<node id="-308194" lat="60.9627055513" lon="10.6615527751">
		<tag k="name" v="Risvika" />
		<tag k="natural" v="bay" />
		<tag k="ssr:stedsnr" v="707318" />
	</node>
	<node id="-309727" lat="61.0709694435" lon="10.8661749986">
		<tag k="name" v="Vivelstjernet" />
		<tag k="natural" v="water" />
		<tag k="ssr:stedsnr" v="585364" />
	</node>
	<node id="-309720" lat="60.8145027776" lon="10.9628333394">
		<tag k="name" v="Munkvika" />
		<tag k="natural" v="bay" />
		<tag k="ssr:stedsnr" v="567015" />
	</node>
	<node id="-308132" lat="61.0754416702" lon="11.0573444378">
		<tag k="name" v="Nordre Kråktjernet" />
		<tag k="natural" v="water" />
		<tag k="ssr:stedsnr" v="525192" />
	</node>
	<node id="-310229" lat="60.9968638864" lon="10.9206333285">
		<tag k="name" v="Danserdalsputten" />
		<tag k="natural" v="water" />
		<tag k="ssr:stedsnr" v="952357" />
		<tag k="water" v="pond" />
	</node>
	<node id="-309715" lat="60.9282983066" lon="10.6819912881">
		<tag k="name" v="Tjuvholmen" />
		<tag k="place" v="islet" />
		<tag k="ssr:stedsnr" v="555825" />
	</node>
	<node id="-307666" lat="61.1664777769" lon="10.9014277763">
		<tag k="alt_name" v="Kvarstadsætertjernet" />
		<tag k="name" v="Kvarstadtjernet" />
		<tag k="natural" v="water" />
		<tag k="ssr:stedsnr" v="180455" />
	</node>
	<node id="-310225" lat="60.859432932" lon="10.8113824304">
		<tag k="alt_name" v="Herramstjennet" />
		<tag k="name" v="Herramstjernet" />
		<tag k="natural" v="water" />
		<tag k="ssr:stedsnr" v="952171" />
	</node>
	<node id="-310224" lat="60.7959222211" lon="10.8285416611">
		<tag k="alt_name" v="Kroktjennet" />
		<tag k="name" v="Kroktjernet" />
>>>>>>> e1d4bc35ff8a6074a6f2e91616a996b547c36f15
		<tag k="natural" v="water" />
		<tag k="ssr:stedsnr" v="179719" />
	</node>
<<<<<<< HEAD
	<node lat="61.16647777688917" lon="10.901427776269685" id="-28571">
		<tag k="alt_name" v="Kvarstadsætertjernet" />
		<tag k="name" v="Kvarstadtjernet" />
		<tag k="natural" v="water" />
		<tag k="ssr:stedsnr" v="180455" />
	</node>
	<node lat="60.747749998513214" lon="11.016033331415594" id="-28575">
		<tag k="name" v="Bergevika" />
		<tag k="natural" v="bay" />
		<tag k="ssr:stedsnr" v="188923" />
	</node>
	<node lat="61.248294447243" lon="10.794330563991535" id="-28578">
		<tag k="fixme" v="multiple name tags, choose one and add the other to alt_name" />
		<tag k="name" v="Hangenholtjernet;Øvre Hynntjernet" />
=======
	<node id="-308687" lat="60.8207944462" lon="10.8737444428">
		<tag k="name" v="Grøtlitjernet" />
		<tag k="natural" v="water" />
		<tag k="ssr:stedsnr" v="920428" />
	</node>
	<node id="-307660" lat="61.1573194472" lon="11.0078027822">
		<tag k="name" v="Godbakktjernet" />
		<tag k="natural" v="water" />
		<tag k="ssr:stedsnr" v="179719" />
	</node>
	<node id="-307659" lat="60.9261833298" lon="10.9198611072">
		<tag k="name" v="Oppsalelva" />
		<tag k="ssr:stedsnr" v="179526" />
		<tag k="waterway" v="stream" />
	</node>
	<node id="-310217" lat="61.0201555554" lon="10.7893083392">
		<tag k="name" v="Jobekken" />
		<tag k="ssr:stedsnr" v="950657" />
		<tag k="waterway" v="stream" />
	</node>
	<node id="-310215" lat="60.8641000009" lon="10.9626333277">
		<tag k="name" v="Tjernlitjernet" />
		<tag k="natural" v="water" />
		<tag k="ssr:stedsnr" v="950469" />
	</node>
	<node id="-310213" lat="60.9739305568" lon="10.8584611093">
		<tag k="name" v="Maurudputten" />
		<tag k="natural" v="water" />
		<tag k="ssr:stedsnr" v="870005" />
	</node>
	<node id="-307651" lat="61.1024388893" lon="10.7714972186">
		<tag k="name" v="Hestemyrbekken" />
		<tag k="ssr:stedsnr" v="177759" />
		<tag k="waterway" v="stream" />
	</node>
	<node id="-307650" lat="61.0935027756" lon="10.817916666">
		<tag k="name" v="Svartbekken" />
		<tag k="ssr:stedsnr" v="177755" />
		<tag k="waterway" v="stream" />
	</node>
	<node id="-309697" lat="60.9296555534" lon="10.7328333407">
		<tag k="name" v="Svarttjern" />
>>>>>>> e1d4bc35ff8a6074a6f2e91616a996b547c36f15
		<tag k="natural" v="water" />
		<tag k="ssr:stedsnr" v="189687" />
	</node>
<<<<<<< HEAD
	<node lat="60.99848332948309" lon="10.858713890605944" id="-28635">
		<tag k="name" v="Ringsrudbekken" />
		<tag k="ssr:stedsnr" v="239314" />
		<tag k="waterway" v="stream" />
	</node>
	<node lat="60.959791664908124" lon="10.885699997231201" id="-28649">
		<tag k="name" v="Sitjernet" />
		<tag k="natural" v="water" />
		<tag k="ssr:stedsnr" v="282270" />
	</node>
	<node lat="61.21945555636933" lon="10.81673333976798" id="-28666">
		<tag k="name" v="Didrikskjelda" />
		<tag k="natural" v="spring" />
		<tag k="ssr:stedsnr" v="284309" />
	</node>
	<node lat="60.88661666549286" lon="10.912102769407138" id="-28693">
		<tag k="name" v="Skanselva" />
		<tag k="ssr:stedsnr" v="302977" />
		<tag k="waterway" v="river" />
	</node>
	<node lat="61.240769447172575" lon="10.82866110412816" id="-28694">
		<tag k="name" v="Geitbutjernet" />
=======
	<node id="-309184" lat="60.9610499956" lon="10.8959444464">
		<tag k="name" v="Rognlitjernet" />
		<tag k="natural" v="water" />
		<tag k="ssr:stedsnr" v="191100" />
	</node>
	<node id="-309695" lat="60.8519277768" lon="10.7553000037">
		<tag k="alt_name" v="Tjernetjennet" />
		<tag k="name" v="Tjernetjernet" />
		<tag k="natural" v="water" />
		<tag k="ssr:stedsnr" v="555331" />
	</node>
	<node id="-309182" lat="60.9009777762" lon="10.9661138893">
		<tag k="alt_name" v="Brumundelva" />
		<tag k="name" v="Brumunda" />
		<tag k="ssr:stedsnr" v="191092" />
		<tag k="waterway" v="river" />
	</node>
	<node id="-309180" lat="61.1213305561" lon="10.697549997">
		<tag k="name" v="Tyria" />
		<tag k="ssr:stedsnr" v="190841" />
		<tag k="waterway" v="river" />
	</node>
	<node id="-309179" lat="61.1080944444" lon="10.6532361039">
		<tag k="name" v="Turven" />
		<tag k="place" v="islet" />
		<tag k="ssr:stedsnr" v="190834" />
	</node>
	<node id="-308208" lat="61.0441055589" lon="11.0671750006">
		<tag k="name" v="Vannhaftbekken" />
		<tag k="ssr:stedsnr" v="708157" />
		<tag k="waterway" v="stream" />
	</node>
	<node id="-309177" lat="61.0505250013" lon="10.6054416607">
		<tag k="alt_name" v="Langtjennet" />
		<tag k="name" v="Langtjernet" />
>>>>>>> e1d4bc35ff8a6074a6f2e91616a996b547c36f15
		<tag k="natural" v="water" />
		<tag k="ssr:stedsnr" v="464290" />
	</node>
<<<<<<< HEAD
	<node lat="60.99646944782287" lon="10.984016665538867" id="-28700">
		<tag k="name" v="Stormyrbekken" />
		<tag k="ssr:stedsnr" v="465133" />
		<tag k="waterway" v="stream" />
	</node>
	<node lat="61.07536944724582" lon="10.542311115431204" id="-28711">
		<tag k="name" v="Svartbekken" />
		<tag k="ssr:stedsnr" v="311515" />
		<tag k="waterway" v="stream" />
	</node>
	<node lat="60.962424995631125" lon="10.85135000001034" id="-28723">
		<tag k="alt_name" v="Hovesætertjernet" />
		<tag k="name" v="Hovisætertjernet" />
		<tag k="natural" v="water" />
		<tag k="ssr:stedsnr" v="312116" />
	</node>
	<node lat="60.87384999711073" lon="10.74213056442359" id="-28734">
		<tag k="name" v="Saustadvika" />
		<tag k="natural" v="bay" />
		<tag k="ssr:stedsnr" v="312319" />
	</node>
	<node lat="60.83892499568051" lon="10.918536118258313" id="-28737">
		<tag k="name" v="Nerliholmen" />
		<tag k="place" v="islet" />
		<tag k="ssr:stedsnr" v="312378" />
	</node>
	<node lat="60.97026666363793" lon="10.65304999729102" id="-28751">
		<tag k="name" v="Bergsodden" />
		<tag k="natural" v="cape" />
		<tag k="ssr:stedsnr" v="313819" />
	</node>
	<node lat="60.93057499757138" lon="10.681311106010414" id="-28764">
		<tag k="name" v="Skinkvika" />
		<tag k="natural" v="bay" />
		<tag k="ssr:stedsnr" v="344401" />
	</node>
	<node lat="61.231658331559515" lon="10.766761105395542" id="-28769">
		<tag k="name" v="Svartvadbekken" />
		<tag k="ssr:stedsnr" v="359609" />
		<tag k="waterway" v="stream" />
	</node>
	<node lat="61.07315000034485" lon="10.918449995111729" id="-28777">
		<tag k="name" v="Bubekken" />
		<tag k="ssr:stedsnr" v="371609" />
		<tag k="waterway" v="stream" />
	</node>
	<node lat="61.22238888657411" lon="10.737838879835119" id="-28779">
		<tag k="name" v="Steinsrudbekken" />
		<tag k="ssr:stedsnr" v="371706" />
		<tag k="waterway" v="stream" />
	</node>
	<node lat="60.87494166743422" lon="10.897102771560926" id="-28827">
		<tag k="name" v="Kvarbergvika" />
		<tag k="natural" v="bay" />
		<tag k="ssr:stedsnr" v="483995" />
	</node>
	<node lat="61.09671666961717" lon="10.940222217246204" id="-28830">
		<tag k="name" v="Glebekken" />
		<tag k="ssr:stedsnr" v="484397" />
		<tag k="waterway" v="stream" />
	</node>
	<node lat="60.865650001120976" lon="10.742477781505404" id="-28834">
		<tag k="name" v="Skoldvika" />
		<tag k="natural" v="bay" />
		<tag k="ssr:stedsnr" v="404126" />
	</node>
	<node lat="60.93950555205776" lon="10.68223889227907" id="-28837">
		<tag k="name" v="Hagavika" />
		<tag k="natural" v="bay" />
		<tag k="ssr:stedsnr" v="404312" />
	</node>
	<node lat="61.02258610720691" lon="11.076852772651595" id="-28840">
		<tag k="name" v="Heggholsbekken" />
		<tag k="ssr:stedsnr" v="404887" />
		<tag k="waterway" v="stream" />
	</node>
	<node lat="61.03370832887413" lon="11.105802777851935" id="-28841">
		<tag k="name" v="Andholmen" />
		<tag k="place" v="islet" />
		<tag k="ssr:stedsnr" v="404890" />
	</node>
	<node lat="61.01627777881486" lon="10.9526500089905" id="-28844">
		<tag k="name" v="Kjerringfallet" />
		<tag k="natural" v="waterfall" />
		<tag k="ssr:stedsnr" v="406351" />
	</node>
	<node lat="60.480638891947294" lon="11.195405555401956" id="-28873">
		<tag k="name" v="Mjøsa" />
		<tag k="natural" v="water" />
		<tag k="ssr:stedsnr" v="431452" />
		<tag k="water" v="lake" />
	</node>
	<node lat="61.01316110870619" lon="10.905033329416689" id="-28876">
		<tag k="name" v="Aursmotjernet" />
		<tag k="natural" v="water" />
		<tag k="ssr:stedsnr" v="431593" />
	</node>
	<node lat="61.109277780574025" lon="10.743608331009714" id="-28881">
		<tag k="name" v="Kvannbekken" />
		<tag k="ssr:stedsnr" v="432493" />
		<tag k="waterway" v="stream" />
	</node>
	<node lat="61.14110832923081" lon="10.773550009045431" id="-28883">
		<tag k="alt_name" v="Herrambbekken" />
		<tag k="name" v="Herramsbekken" />
		<tag k="ssr:stedsnr" v="432496" />
		<tag k="waterway" v="stream" />
	</node>
	<node lat="61.01120833147936" lon="10.516786115402184" id="-28885">
		<tag k="name" v="Sanden" />
		<tag k="natural" v="cape" />
		<tag k="ssr:stedsnr" v="432696" />
	</node>
	<node lat="61.01181111075261" lon="10.696874991005124" id="-28886">
		<tag k="name" v="Ekornholmen" />
		<tag k="place" v="islet" />
		<tag k="ssr:stedsnr" v="432708" />
	</node>
	<node lat="61.17174722114154" lon="10.693455557229328" id="-28895">
		<tag k="name" v="Lunkebekken" />
		<tag k="ssr:stedsnr" v="432901" />
		<tag k="waterway" v="stream" />
	</node>
	<node lat="61.18903611352438" lon="10.782302786221369" id="-28899">
		<tag k="name" v="Gjestbodsbekken" />
		<tag k="ssr:stedsnr" v="433535" />
		<tag k="waterway" v="stream" />
	</node>
	<node lat="61.2324055552269" lon="10.803480549321547" id="-28900">
		<tag k="name" v="Storstilbekken" />
		<tag k="ssr:stedsnr" v="433702" />
		<tag k="waterway" v="stream" />
	</node>
	<node lat="61.17220833170853" lon="10.820716665574201" id="-28922">
		<tag k="alt_name" v="Travelbekken" />
		<tag k="name" v="Trevlebekken" />
		<tag k="ssr:stedsnr" v="493540" />
		<tag k="waterway" v="stream" />
	</node>
	<node lat="61.179199996576756" lon="10.856924994284823" id="-28923">
		<tag k="name" v="Grunnbekken" />
		<tag k="ssr:stedsnr" v="493552" />
		<tag k="waterway" v="stream" />
	</node>
	<node lat="60.95380277932509" lon="11.01935277641045" id="-28937">
		<tag k="name" v="Lera" />
		<tag k="ssr:stedsnr" v="494150" />
		<tag k="waterway" v="river" />
	</node>
	<node lat="60.95440555956427" lon="10.914294446192608" id="-28949">
		<tag k="name" v="Glestadelva" />
		<tag k="ssr:stedsnr" v="446003" />
		<tag k="waterway" v="river" />
	</node>
	<node lat="61.066450001598724" lon="10.52908054985929" id="-28975">
		<tag k="alt_name" v="Kroktjennet" />
		<tag k="name" v="Kroktjernet" />
=======
	<node id="-307640" lat="61.2194555564" lon="10.8167333398">
		<tag k="name" v="Didrikskjelda" />
		<tag k="natural" v="spring" />
		<tag k="ssr:stedsnr" v="284309" />
	</node>
	<node id="-309175" lat="61.1821333374" lon="10.9060916729">
		<tag k="alt_name" v="Kattugletjernet" />
		<tag k="name" v="Kattugltjernet" />
		<tag k="natural" v="water" />
		<tag k="ssr:stedsnr" v="190549" />
	</node>
	<node id="-309174" lat="61.1540805555" lon="11.0065249915">
		<tag k="name" v="Kittilåkroken" />
		<tag k="place" v="locality" />
		<tag k="ssr:stedsnr" v="190535" />
	</node>
	<node id="-307637" lat="61.0133749995" lon="11.0952027831">
		<tag k="name" v="Kvilholsbekken" />
		<tag k="ssr:stedsnr" v="283881" />
		<tag k="waterway" v="stream" />
	</node>
	<node id="-308147" lat="61.1230055574" lon="10.6928972159">
		<tag k="name" v="Kanalen" />
		<tag k="ssr:stedsnr" v="543016" />
		<tag k="waterway" v="drain" />
	</node>
	<node id="-308658" lat="61.0712583304" lon="10.7702666658">
		<tag k="name" v="Hølbekken" />
		<tag k="ssr:stedsnr" v="918679" />
		<tag k="waterway" v="stream" />
	</node>
	<node id="-309166" lat="61.2482944472" lon="10.794330564">
		<tag k="fixme" v="multiple name tags, choose one and add the other to alt_name" />
		<tag k="name" v="Hangenholtjernet;Øvre Hynntjernet" />
		<tag k="natural" v="water" />
		<tag k="ssr:stedsnr" v="189687" />
	</node>
	<node id="-309155" lat="61.1185611082" lon="10.8065666702">
		<tag k="name" v="Finnøla" />
		<tag k="ssr:stedsnr" v="189486" />
		<tag k="waterway" v="river" />
	</node>
	<node id="-310134" lat="61.1238499983" lon="10.6961083282">
		<tag k="name" v="Gunhildbekken" />
		<tag k="ssr:stedsnr" v="847028" />
		<tag k="waterway" v="stream" />
	</node>
	<node id="-309673" lat="61.1468454932" lon="10.7102618119">
		<tag k="name" v="Sjusjøen" />
		<tag k="natural" v="water" />
		<tag k="ssr:stedsnr" v="553998" />
		<tag k="water" v="lake" />
	</node>
	<node id="-308892" lat="61.159736261" lon="10.8406672692">
		<tag k="name" v="Grunna" />
		<tag k="natural" v="water" />
		<tag k="ssr:stedsnr" v="69580" />
		<tag k="water" v="lake" />
	</node>
	<node id="-309158" lat="61.0164277781" lon="10.9916277713">
		<tag k="name" v="Brumunda" />
		<tag k="ssr:stedsnr" v="189537" />
		<tag k="waterway" v="stream" />
	</node>
	<node id="-308133" lat="60.9129666642" lon="10.7039527825">
		<tag k="alt_name" v="Korgerstuvika" />
		<tag k="name" v="Korgerstuguvika" />
		<tag k="natural" v="bay" />
		<tag k="ssr:stedsnr" v="688497" />
	</node>
	<node id="-309156" lat="61.1349361154" lon="10.729924991">
		<tag k="name" v="Sjøbekken" />
		<tag k="ssr:stedsnr" v="189495" />
		<tag k="waterway" v="stream" />
	</node>
	<node id="-309667" lat="61.0465194472" lon="10.5430666617">
		<tag k="alt_name" v="Igletjenn" />
		<tag k="name" v="Igletjernet" />
		<tag k="natural" v="water" />
		<tag k="ssr:stedsnr" v="553671" />
	</node>
	<node id="-309152" lat="61.0036805558" lon="10.8644250069">
		<tag k="name" v="Klufttjernbekken" />
		<tag k="ssr:stedsnr" v="189352" />
		<tag k="waterway" v="stream" />
	</node>
	<node id="-309151" lat="60.7477499985" lon="11.0160333314">
		<tag k="name" v="Bergevika" />
		<tag k="natural" v="bay" />
		<tag k="ssr:stedsnr" v="188923" />
	</node>
	<node id="-309662" lat="61.0360111102" lon="11.0459777738">
		<tag k="name" v="Storbekken" />
		<tag k="ssr:stedsnr" v="553598" />
		<tag k="waterway" v="stream" />
	</node>
	<node id="-309660" lat="61.1176638889" lon="10.8385555475">
		<tag k="name" v="Lauvlitjernet" />
		<tag k="natural" v="water" />
		<tag k="ssr:stedsnr" v="553512" />
	</node>
	<node id="-309659" lat="61.1058638923" lon="10.7651305571">
		<tag k="name" v="Tverrbekken" />
		<tag k="ssr:stedsnr" v="553495" />
		<tag k="waterway" v="stream" />
	</node>
	<node id="-307609" lat="60.9597916649" lon="10.8856999972">
		<tag k="name" v="Sitjernet" />
		<tag k="natural" v="water" />
		<tag k="ssr:stedsnr" v="282270" />
	</node>
	<node id="-310168" lat="61.1412722237" lon="10.6444194481">
		<tag k="name" v="Svartbekken" />
		<tag k="ssr:stedsnr" v="857945" />
		<tag k="waterway" v="stream" />
	</node>
	<node id="-309349" lat="61.2416027764" lon="10.8066333276">
		<tag k="name" v="Nedre Hyntjernet" />
		<tag k="natural" v="water" />
		<tag k="ssr:stedsnr" v="343270" />
	</node>
	<node id="-310163" lat="61.0530611096" lon="10.6711083329">
		<tag k="alt_name" v="Bruktjennet" />
		<tag k="name" v="Bruktjernet" />
		<tag k="natural" v="water" />
		<tag k="ssr:stedsnr" v="857685" />
	</node>
	<node id="-310162" lat="61.1299833322" lon="10.7678305643">
		<tag k="name" v="Leinbekken" />
		<tag k="ssr:stedsnr" v="857537" />
		<tag k="waterway" v="stream" />
	</node>
	<node id="-310160" lat="61.0627388855" lon="10.7992916697">
		<tag k="alt_name" v="Blisterbekken" />
		<tag k="name" v="Blesterbekken" />
		<tag k="ssr:stedsnr" v="857620" />
		<tag k="waterway" v="stream" />
	</node>
	<node id="-310159" lat="61.2131583369" lon="10.7356166704">
		<tag k="name" v="Midtvangsbekken" />
		<tag k="ssr:stedsnr" v="857580" />
		<tag k="waterway" v="stream" />
	</node>
	<node id="-307597" lat="61.0368805523" lon="11.1043611192">
		<tag k="name" v="Borkbuvika" />
		<tag k="natural" v="bay" />
		<tag k="ssr:stedsnr" v="161873" />
	</node>
	<node id="-309132" lat="61.0007249973" lon="10.8691638956">
		<tag k="alt_name" v="Kluftjernsbekken" />
		<tag k="name" v="Klufttjernsbekken" />
		<tag k="ssr:stedsnr" v="179329" />
		<tag k="waterway" v="stream" />
	</node>
	<node id="-309058" lat="60.7561249994" lon="10.9416277732">
		<tag k="name" v="Nessundet" />
		<tag k="natural" v="strait" />
		<tag k="ssr:stedsnr" v="130472" />
	</node>
	<node id="-308617" lat="60.864805556" lon="10.8789083338">
		<tag k="alt_name" v="Jønsrudtjennet" />
		<tag k="name" v="Jønsrudtjernet" />
>>>>>>> e1d4bc35ff8a6074a6f2e91616a996b547c36f15
		<tag k="natural" v="water" />
		<tag k="ssr:stedsnr" v="674829" />
	</node>
<<<<<<< HEAD
	<node lat="61.04030277344685" lon="11.024697225996544" id="-28983">
		<tag k="name" v="Gautsæterbekken" />
		<tag k="ssr:stedsnr" v="675617" />
		<tag k="waterway" v="stream" />
	</node>
	<node lat="61.07753611504221" lon="10.981152782478173" id="-28985">
		<tag k="alt_name" v="Kjerkeholtjernet" />
		<tag k="name" v="Kjerkholtjernet" />
=======
	<node id="-309144" lat="60.8948444417" lon="10.7251805543">
		<tag k="name" v="Hammerlundsberget" />
		<tag k="natural" v="cape" />
		<tag k="ssr:stedsnr" v="180793" />
	</node>
	<node id="-309126" lat="61.1871027775" lon="10.8312500055">
		<tag k="name" v="Nøkkeltjernet" />
>>>>>>> e1d4bc35ff8a6074a6f2e91616a996b547c36f15
		<tag k="natural" v="water" />
		<tag k="ssr:stedsnr" v="675640" />
	</node>
<<<<<<< HEAD
	<node lat="60.953325000462016" lon="10.841302776089739" id="-28996">
		<tag k="name" v="Rustadtjernet" />
		<tag k="natural" v="water" />
		<tag k="ssr:stedsnr" v="676184" />
	</node>
	<node lat="60.97206110759433" lon="10.801252778877348" id="-29015">
		<tag k="name" v="Fallbekken" />
		<tag k="ssr:stedsnr" v="677151" />
		<tag k="waterway" v="stream" />
	</node>
	<node lat="61.03414166447069" lon="10.944547217274991" id="-29022">
		<tag k="name" v="Hestfløyta" />
		<tag k="natural" v="water" />
		<tag k="ssr:stedsnr" v="479813" />
		<tag k="water" v="lake" />
	</node>
	<node lat="60.900419442943544" lon="10.859233339901822" id="-29026">
		<tag k="name" v="Tokstadbekken" />
		<tag k="ssr:stedsnr" v="481960" />
		<tag k="waterway" v="stream" />
	</node>
	<node lat="61.108541667369245" lon="10.673902769568855" id="-29029">
		<tag k="name" v="Arnestadvika" />
=======
	<node id="-310146" lat="61.1266000015" lon="10.9186250059">
		<tag k="name" v="Hamarsæterbekken" />
		<tag k="ssr:stedsnr" v="848444" />
		<tag k="waterway" v="stream" />
	</node>
	<node id="-309120" lat="61.120216664" lon="10.6495055479">
		<tag k="name" v="Nordgardsvika" />
>>>>>>> e1d4bc35ff8a6074a6f2e91616a996b547c36f15
		<tag k="natural" v="bay" />
		<tag k="ssr:stedsnr" v="482023" />
	</node>
<<<<<<< HEAD
	<node lat="61.13454926135183" lon="10.866871453591546" id="-29045">
		<tag k="name" v="Store Ljøsvatnet" />
		<tag k="natural" v="water" />
		<tag k="old_name" v="Ljosvatnet, store;Store Ljosvatnet" />
		<tag k="ssr:stedsnr" v="493519" />
		<tag k="water" v="lake" />
	</node>
	<node lat="61.069099995489395" lon="11.040500006085557" id="-29052">
		<tag k="name" v="Kråketjerna" />
		<tag k="natural" v="water" />
		<tag k="ssr:stedsnr" v="493617" />
	</node>
	<node lat="61.016040222231204" lon="10.711509410596653" id="-29058">
		<tag k="name" v="Næra" />
		<tag k="natural" v="water" />
		<tag k="ssr:stedsnr" v="494108" />
		<tag k="water" v="lake" />
	</node>
	<node lat="60.832924996686266" lon="10.974925004873063" id="-29070">
		<tag k="name" v="Grøtodden" />
=======
	<node id="-308605" lat="61.1646861084" lon="10.6748722285">
		<tag k="alt_name" v="Lunken, vesle" />
		<tag k="name" v="Vesle Lunken" />
		<tag k="natural" v="water" />
		<tag k="ssr:stedsnr" v="858910" />
	</node>
	<node id="-308091" lat="60.9630750029" lon="10.8091749998">
		<tag k="name" v="Bårdsettjernet" />
		<tag k="natural" v="water" />
		<tag k="ssr:stedsnr" v="676139" />
	</node>
	<node id="-308543" lat="60.9434555597" lon="11.0817111038">
		<tag k="name" v="Blåmyrtjerna" />
		<tag k="natural" v="water" />
		<tag k="ssr:stedsnr" v="786233" />
		<tag k="water" v="lake" />
	</node>
	<node id="-308598" lat="61.0196999987" lon="10.6815277818">
		<tag k="name" v="Svinesundodden" />
>>>>>>> e1d4bc35ff8a6074a6f2e91616a996b547c36f15
		<tag k="natural" v="cape" />
		<tag k="ssr:stedsnr" v="494407" />
	</node>
<<<<<<< HEAD
	<node lat="60.89236944028149" lon="11.10342778367549" id="-29072">
		<tag k="name" v="Flagstadelva" />
		<tag k="ssr:stedsnr" v="494603" />
		<tag k="waterway" v="river" />
	</node>
	<node lat="61.12300555739395" lon="10.692897215907953" id="-29098">
		<tag k="name" v="Kanalen" />
		<tag k="ssr:stedsnr" v="543016" />
		<tag k="waterway" v="drain" />
	</node>
	<node lat="60.98541389136074" lon="11.047080559827895" id="-29117">
		<tag k="name" v="Rotfarbekken" />
		<tag k="ssr:stedsnr" v="688013" />
		<tag k="waterway" v="stream" />
	</node>
	<node lat="61.11766388885582" lon="10.838555547546802" id="-29120">
		<tag k="name" v="Lauvlitjernet" />
=======
	<node id="-308597" lat="61.0327166693" lon="10.6401999961">
		<tag k="name" v="Lona" />
		<tag k="ssr:stedsnr" v="857761" />
		<tag k="waterway" v="river" />
	</node>
	<node id="-307572" lat="61.0725277756" lon="11.0647777842">
		<tag k="name" v="Harasjøen" />
>>>>>>> e1d4bc35ff8a6074a6f2e91616a996b547c36f15
		<tag k="natural" v="water" />
		<tag k="ssr:stedsnr" v="553512" />
	</node>
<<<<<<< HEAD
	<node lat="61.03601111024982" lon="11.045977773785019" id="-29121">
		<tag k="name" v="Storbekken" />
		<tag k="ssr:stedsnr" v="553598" />
		<tag k="waterway" v="stream" />
	</node>
	<node lat="61.10586389234166" lon="10.765130557069654" id="-29125">
		<tag k="name" v="Tverrbekken" />
		<tag k="ssr:stedsnr" v="553495" />
		<tag k="waterway" v="stream" />
	</node>
	<node lat="61.146845493166126" lon="10.710261811900475" id="-29128">
		<tag k="name" v="Sjusjøen" />
		<tag k="natural" v="water" />
		<tag k="ssr:stedsnr" v="553998" />
		<tag k="water" v="lake" />
	</node>
	<node lat="60.91296666417363" lon="10.703952782498304" id="-29167">
		<tag k="alt_name" v="Korgerstuvika" />
		<tag k="name" v="Korgerstuguvika" />
=======
	<node id="-310131" lat="61.1092222252" lon="10.6387638878">
		<tag k="name" v="Fleskvika" />
>>>>>>> e1d4bc35ff8a6074a6f2e91616a996b547c36f15
		<tag k="natural" v="bay" />
		<tag k="ssr:stedsnr" v="688497" />
	</node>
<<<<<<< HEAD
	<node lat="60.814502777564144" lon="10.962833339384423" id="-29170">
		<tag k="name" v="Munkvika" />
		<tag k="natural" v="bay" />
		<tag k="ssr:stedsnr" v="567015" />
	</node>
	<node lat="61.030805553778755" lon="10.580302783677366" id="-29212">
		<tag k="name" v="Kinntjernet" />
=======
	<node id="-308082" lat="60.9533250005" lon="10.8413027761">
		<tag k="name" v="Rustadtjernet" />
		<tag k="natural" v="water" />
		<tag k="ssr:stedsnr" v="676184" />
	</node>
	<node id="-309278" lat="60.9624249956" lon="10.85135">
		<tag k="alt_name" v="Hovesætertjernet" />
		<tag k="name" v="Hovisætertjernet" />
		<tag k="natural" v="water" />
		<tag k="ssr:stedsnr" v="312116" />
	</node>
	<node id="-308797" lat="60.8281750002" lon="10.9274000031">
		<tag k="name" v="Bysætervika" />
		<tag k="natural" v="bay" />
		<tag k="ssr:stedsnr" v="9422" />
	</node>
	<node id="-308076" lat="61.077536115" lon="10.9811527825">
		<tag k="alt_name" v="Kjerkeholtjernet" />
		<tag k="name" v="Kjerkholtjernet" />
>>>>>>> e1d4bc35ff8a6074a6f2e91616a996b547c36f15
		<tag k="natural" v="water" />
		<tag k="ssr:stedsnr" v="614652" />
	</node>
<<<<<<< HEAD
	<node lat="61.102575002193" lon="10.872911111773522" id="-29213">
		<tag k="name" v="Blekabekken" />
		<tag k="ssr:stedsnr" v="614513" />
		<tag k="waterway" v="stream" />
	</node>
	<node lat="61.09874999733907" lon="10.828775005737059" id="-29214">
		<tag k="name" v="Bergunda" />
		<tag k="ssr:stedsnr" v="614516" />
		<tag k="waterway" v="stream" />
	</node>
	<node lat="61.1810999992825" lon="10.938227785218976" id="-29216">
		<tag k="name" v="Øyungsåa" />
		<tag k="ssr:stedsnr" v="614563" />
		<tag k="waterway" v="river" />
	</node>
	<node lat="61.20406944424202" lon="10.742747226332538" id="-29217">
		<tag k="name" v="Presttjernet" />
		<tag k="natural" v="water" />
		<tag k="ssr:stedsnr" v="614573" />
	</node>
	<node lat="61.06119999645819" lon="10.551922221610452" id="-29219">
		<tag k="alt_name" v="Sandbakktjennet" />
		<tag k="name" v="Sandbakktjernet" />
		<tag k="natural" v="water" />
		<tag k="ssr:stedsnr" v="614708" />
	</node>
	<node lat="60.814101267839234" lon="10.831171696056781" id="-29237">
		<tag k="name" v="Stavsjøen" />
		<tag k="natural" v="water" />
		<tag k="ssr:stedsnr" v="616449" />
		<tag k="water" v="lake" />
	</node>
	<node lat="60.80368333236788" lon="10.850005552476745" id="-29287">
		<tag k="alt_name" v="Bruvolltjennet" />
		<tag k="name" v="Bruvolltjernet" />
=======
	<node id="-309611" lat="60.8067222224" lon="10.9737777868">
		<tag k="name" v="Flåtvika" />
		<tag k="natural" v="bay" />
		<tag k="ssr:stedsnr" v="527479" />
	</node>
	<node id="-308074" lat="61.0403027734" lon="11.024697226">
		<tag k="name" v="Gautsæterbekken" />
		<tag k="ssr:stedsnr" v="675617" />
		<tag k="waterway" v="stream" />
	</node>
	<node id="-308073" lat="61.0407250044" lon="10.9049666738">
		<tag k="alt_name" v="Dempenebekken" />
		<tag k="name" v="Dempenibekken" />
		<tag k="ssr:stedsnr" v="675612" />
		<tag k="waterway" v="stream" />
	</node>
	<node id="-309096" lat="60.9301805594" lon="10.6828222303">
		<tag k="name" v="Skinka" />
		<tag k="natural" v="cape" />
		<tag k="ssr:stedsnr" v="162394" />
	</node>
	<node id="-309052" lat="60.8178000036" lon="10.7669027701">
		<tag k="alt_name" v="Steinsrudtjennet" />
		<tag k="name" v="Steinsrudtjernet" />
		<tag k="natural" v="water" />
		<tag k="ssr:stedsnr" v="130419" />
	</node>
	<node id="-309604" lat="60.9114444418" lon="10.6956916684">
		<tag k="name" v="Korgerstuodden" />
		<tag k="natural" v="cape" />
		<tag k="ssr:stedsnr" v="526330" />
	</node>
	<node id="-308576" lat="60.9843638853" lon="11.0336250011">
		<tag k="name" v="Leroset" />
		<tag k="natural" v="bay" />
		<tag k="ssr:stedsnr" v="810019" />
	</node>
	<node id="-308573" lat="60.8422583338" lon="10.7668249932">
		<tag k="alt_name" v="Skredsholtjenna" />
		<tag k="name" v="Skredsholtjernet" />
>>>>>>> e1d4bc35ff8a6074a6f2e91616a996b547c36f15
		<tag k="natural" v="water" />
		<tag k="ssr:stedsnr" v="662818" />
	</node>
<<<<<<< HEAD
	<node lat="60.80132777752272" lon="10.914941663588476" id="-29299">
		<tag k="alt_name" v="Velttjennet" />
		<tag k="name" v="Velttjernet" />
		<tag k="natural" v="water" />
		<tag k="ssr:stedsnr" v="664837" />
	</node>
	<node lat="61.08688333607081" lon="10.719658328892866" id="-29320">
		<tag k="name" v="Lortholmen" />
		<tag k="place" v="islet" />
		<tag k="ssr:stedsnr" v="675521" />
	</node>
	<node lat="61.15262777609433" lon="10.733327777269409" id="-29322">
		<tag k="alt_name" v="Gulbrandbekken;Gulbrandsbekken" />
		<tag k="loc_name" v="Gullrandbekken" />
		<tag k="name" v="Gulrandbekken" />
		<tag k="ssr:stedsnr" v="675555" />
		<tag k="waterway" v="stream" />
	</node>
	<node lat="61.15841388461505" lon="10.92272777122601" id="-29323">
		<tag k="name" v="Åkersætertjernet" />
		<tag k="natural" v="water" />
		<tag k="ssr:stedsnr" v="675556" />
	</node>
	<node lat="61.04072500436876" lon="10.904966673752206" id="-29327">
		<tag k="alt_name" v="Dempenebekken" />
		<tag k="name" v="Dempenibekken" />
		<tag k="ssr:stedsnr" v="675612" />
		<tag k="waterway" v="stream" />
	</node>
	<node lat="61.02645833228721" lon="10.651105555516912" id="-29333">
		<tag k="alt_name" v="Tenvika" />
		<tag k="name" v="Teinvika" />
		<tag k="natural" v="bay" />
		<tag k="ssr:stedsnr" v="675758" />
	</node>
	<node lat="60.96307500285888" lon="10.809174999833024" id="-29336">
		<tag k="name" v="Bårdsettjernet" />
		<tag k="natural" v="water" />
		<tag k="ssr:stedsnr" v="676139" />
	</node>
	<node lat="60.88300000169158" lon="10.739524991332098" id="-29344">
		<tag k="name" v="Krokvika" />
		<tag k="natural" v="bay" />
		<tag k="ssr:stedsnr" v="676302" />
	</node>
	<node lat="60.962705551282816" lon="10.661552775104534" id="-29372">
		<tag k="name" v="Risvika" />
		<tag k="natural" v="bay" />
		<tag k="ssr:stedsnr" v="707318" />
	</node>
	<node lat="61.0441055588693" lon="11.067175000560825" id="-29375">
		<tag k="name" v="Vannhaftbekken" />
		<tag k="ssr:stedsnr" v="708157" />
		<tag k="waterway" v="stream" />
	</node>
	<node lat="60.79909444626909" lon="10.832980557265099" id="-29377">
		<tag k="alt_name" v="Stortjennet" />
		<tag k="name" v="Stortjernet" />
		<tag k="natural" v="water" />
		<tag k="ssr:stedsnr" v="709038" />
	</node>
	<node lat="61.09599166429769" lon="11.027066668909786" id="-29380">
		<tag k="loc_name" v="Djeveløya" />
		<tag k="name" v="Djæveløen" />
		<tag k="place" v="islet" />
		<tag k="ssr:stedsnr" v="722218" />
	</node>
	<node lat="61.03385555243974" lon="10.927097220747225" id="-29381">
		<tag k="name" v="Hestfløytmyra" />
		<tag k="ssr:stedsnr" v="722829" />
		<tag k="waterway" v="stream" />
	</node>
	<node lat="61.11306110791435" lon="10.771624994059305" id="-29391">
		<tag k="name" v="Samsalbekken" />
		<tag k="ssr:stedsnr" v="735508" />
		<tag k="waterway" v="stream" />
	</node>
	<node lat="61.04865833639217" lon="10.512277783712141" id="-29397">
		<tag k="alt_name" v="Hallatjennet" />
		<tag k="name" v="Hallatjernet" />
		<tag k="natural" v="water" />
		<tag k="ssr:stedsnr" v="736672" />
	</node>
	<node lat="61.229905551718886" lon="10.830463894643284" id="-29400">
		<tag k="name" v="Åsta" />
		<tag k="ssr:stedsnr" v="736725" />
		<tag k="waterway" v="river" />
	</node>
	<node lat="60.88235278188121" lon="10.912188881336832" id="-29464">
		<tag k="name" v="Pellerviken" />
		<tag k="natural" v="bay" />
		<tag k="ssr:stedsnr" v="909982" />
	</node>
	<node lat="61.13152777534325" lon="10.649836101837247" id="-29470">
		<tag k="name" v="Kvernbekken" />
		<tag k="ssr:stedsnr" v="784605" />
		<tag k="waterway" v="stream" />
	</node>
	<node lat="61.12009722582125" lon="10.637211114547295" id="-29472">
		<tag k="name" v="Tjuruverkvika" />
		<tag k="natural" v="bay" />
		<tag k="ssr:stedsnr" v="784611" />
	</node>
	<node lat="61.02628055249895" lon="10.784416669588852" id="-29484">
		<tag k="name" v="Listjernet" />
		<tag k="natural" v="water" />
		<tag k="ssr:stedsnr" v="795622" />
	</node>
	<node lat="61.10803888989562" lon="11.000808328545194" id="-29486">
		<tag k="alt_name" v="Bergetranget" />
		<tag k="name" v="Bergtronget" />
		<tag k="ssr:stedsnr" v="796512" />
		<tag k="waterway" v="rapids" />
	</node>
	<node lat="61.24618333213538" lon="10.867775004112092" id="-29492">
		<tag k="alt_name" v="Bonkerudtjernet" />
		<tag k="name" v="Bunkerudtjernet" />
=======
	<node id="-310107" lat="60.7937555561" lon="10.8315277703">
		<tag k="alt_name" v="Velttjennet" />
		<tag k="name" v="Velttjernet" />
		<tag k="natural" v="water" />
		<tag k="ssr:stedsnr" v="831044" />
	</node>
	<node id="-307574" lat="61.07320833" lon="10.7857777837">
		<tag k="alt_name" v="Ursvika" />
		<tag k="name" v="Urdsvika" />
		<tag k="natural" v="bay" />
		<tag k="ssr:stedsnr" v="129609" />
	</node>
	<node id="-309592" lat="60.9457444453" lon="10.6939861179">
		<tag k="name" v="Smestadbekken" />
		<tag k="ssr:stedsnr" v="525339" />
		<tag k="waterway" v="stream" />
	</node>
	<node id="-307542" lat="61.0931250019" lon="10.7161694407">
		<tag k="name" v="Svensholmen" />
		<tag k="place" v="islet" />
		<tag k="ssr:stedsnr" v="100060" />
	</node>
	<node id="-309077" lat="60.9219999959" lon="10.6894000001">
		<tag k="name" v="Brennerivika" />
		<tag k="natural" v="bay" />
		<tag k="ssr:stedsnr" v="141501" />
	</node>
	<node id="-309588" lat="60.9065555594" lon="10.6903749958">
		<tag k="name" v="Steinsborga" />
		<tag k="place" v="islet" />
		<tag k="ssr:stedsnr" v="434841" />
	</node>
	<node id="-309075" lat="60.7817972214" lon="10.9306083405">
		<tag k="name" v="Nes" />
		<tag k="natural" v="cape" />
		<tag k="ssr:stedsnr" v="145596" />
	</node>
	<node id="-307335" lat="60.8811138909" lon="10.7329666659">
		<tag k="name" v="Krokvikodden" />
		<tag k="natural" v="cape" />
		<tag k="ssr:stedsnr" v="222145" />
	</node>
	<node id="-308560" lat="61.1136027747" lon="10.6373027711">
		<tag k="name" v="Nord-Mesna" />
		<tag k="natural" v="water" />
		<tag k="ssr:stedsnr" v="796798" />
		<tag k="water" v="lake" />
	</node>
	<node id="-307768" lat="61.0269027787" lon="10.7099861107">
		<tag k="name" v="Mosavika" />
		<tag k="natural" v="bay" />
		<tag k="ssr:stedsnr" v="301355" />
	</node>
	<node id="-310094" lat="60.9583444425" lon="10.8720333289">
		<tag k="name" v="Lagmannsvetjernet" />
		<tag k="natural" v="water" />
		<tag k="ssr:stedsnr" v="829298" />
	</node>
	<node id="-308877" lat="61.0606944418" lon="10.5875999972">
		<tag k="alt_name" v="Svarttjennet" />
		<tag k="name" v="Svarttjernet" />
		<tag k="natural" v="water" />
		<tag k="ssr:stedsnr" v="68698" />
	</node>
	<node id="-310091" lat="61.0606472196" lon="11.0521499951">
		<tag k="name" v="Søndre Kråktjernet" />
		<tag k="natural" v="water" />
		<tag k="ssr:stedsnr" v="829172" />
	</node>
	<node id="-309576" lat="60.794825" lon="10.8643333355">
		<tag k="alt_name" v="Gårumtjennet" />
		<tag k="name" v="Gorumtjernet" />
		<tag k="natural" v="water" />
		<tag k="ssr:stedsnr" v="434453" />
	</node>
	<node id="-308108" lat="60.9720611076" lon="10.8012527789">
		<tag k="name" v="Fallbekken" />
		<tag k="ssr:stedsnr" v="677151" />
		<tag k="waterway" v="stream" />
	</node>
	<node id="-309473" lat="60.9395055521" lon="10.6822388923">
		<tag k="name" v="Hagavika" />
		<tag k="natural" v="bay" />
		<tag k="ssr:stedsnr" v="404312" />
	</node>
	<node id="-310082" lat="60.758349998" lon="10.9898027836">
		<tag k="name" v="Eskerudodden" />
		<tag k="natural" v="cape" />
		<tag k="ssr:stedsnr" v="798476" />
	</node>
	<node id="-307522" lat="60.885955555" lon="10.8054805579">
		<tag k="alt_name" v="Kinnlitjennet" />
		<tag k="name" v="Kinnlitjernet" />
		<tag k="natural" v="water" />
		<tag k="ssr:stedsnr" v="252276" />
	</node>
	<node id="-307519" lat="60.9109916665" lon="10.9026805496">
		<tag k="name" v="Bybekken" />
		<tag k="ssr:stedsnr" v="252230" />
		<tag k="waterway" v="stream" />
	</node>
	<node id="-307518" lat="60.9216249998" lon="10.7343250089">
		<tag k="name" v="Evjua" />
		<tag k="ssr:stedsnr" v="252225" />
		<tag k="waterway" v="stream" />
	</node>
	<node id="-309564" lat="60.9727591165" lon="10.7298841141">
		<tag k="name" v="Kinntjernet" />
		<tag k="natural" v="water" />
		<tag k="ssr:stedsnr" v="434131" />
	</node>
	<node id="-308361" lat="61.0264583323" lon="10.6511055555">
		<tag k="alt_name" v="Tenvika" />
		<tag k="name" v="Teinvika" />
		<tag k="natural" v="bay" />
		<tag k="ssr:stedsnr" v="675758" />
	</node>
	<node id="-309555" lat="60.8725055523" lon="10.9010999909">
		<tag k="name" v="Kvarbergvika" />
		<tag k="natural" v="bay" />
		<tag k="ssr:stedsnr" v="434284" />
	</node>
	<node id="-308531" lat="60.8098027753" lon="10.9719000044">
		<tag k="name" v="Snippsandodden" />
		<tag k="natural" v="cape" />
		<tag k="ssr:stedsnr" v="919477" />
	</node>
	<node id="-310062" lat="60.8855500036" lon="10.8791250012">
		<tag k="name" v="Botsenden" />
		<tag k="natural" v="bay" />
		<tag k="ssr:stedsnr" v="798272" />
	</node>
	<node id="-308013" lat="60.8036833324" lon="10.8500055525">
		<tag k="alt_name" v="Bruvolltjennet" />
		<tag k="name" v="Bruvolltjernet" />
>>>>>>> e1d4bc35ff8a6074a6f2e91616a996b547c36f15
		<tag k="natural" v="water" />
		<tag k="ssr:stedsnr" v="796724" />
	</node>
<<<<<<< HEAD
	<node lat="61.173686112913146" lon="10.898363883613552" id="-29496">
		<tag k="name" v="Kuøya" />
		<tag k="place" v="island" />
		<tag k="ssr:stedsnr" v="797548" />
	</node>
	<node lat="61.10102944892734" lon="10.74699066530873" id="-29520">
		<tag k="alt_name" v="Mesnlitjennet" />
		<tag k="name" v="Mesnlitjernet" />
		<tag k="natural" v="water" />
		<tag k="ssr:stedsnr" v="917491" />
	</node>
	<node lat="61.11603888663904" lon="10.936263889846048" id="-29521">
		<tag k="name" v="Koltjernet" />
		<tag k="natural" v="water" />
		<tag k="ssr:stedsnr" v="917497" />
	</node>
	<node lat="61.149103653395215" lon="10.764259493241148" id="-29527">
		<tag k="alt_name" v="Gulbrandtjernet;Gulbrandstjernet" />
		<tag k="loc_name" v="Gullrandtjernet" />
		<tag k="name" v="Gulrandtjernet" />
		<tag k="natural" v="water" />
		<tag k="ssr:stedsnr" v="918586" />
	</node>
	<node lat="61.208423026063215" lon="10.76998232546659" id="-29528">
		<tag k="name" v="Aksjøen" />
		<tag k="natural" v="water" />
		<tag k="ssr:stedsnr" v="918614" />
		<tag k="water" v="lake" />
	</node>
	<node lat="61.20211501876501" lon="10.78772027344665" id="-29530">
		<tag k="alt_name" v="Steintjernet" />
		<tag k="name" v="Steintjerna" />
		<tag k="natural" v="water" />
		<tag k="ssr:stedsnr" v="918621" />
		<tag k="water" v="lake" />
	</node>
	<node lat="61.19466944377885" lon="10.766116672931977" id="-29531">
		<tag k="name" v="Maritlona" />
		<tag k="ssr:stedsnr" v="918622" />
		<tag k="waterway" v="stream" />
	</node>
	<node lat="61.0598333316268" lon="10.485166672759783" id="-29532">
		<tag k="name" v="Bergsengelva" />
		<tag k="ssr:stedsnr" v="918735" />
		<tag k="waterway" v="stream" />
	</node>
	<node lat="60.80980277526079" lon="10.97190000443363" id="-29556">
		<tag k="name" v="Snippsandodden" />
=======
	<node id="-309548" lat="61.0230333308" lon="10.7330805619">
		<tag k="name" v="Haugsvebekken" />
		<tag k="ssr:stedsnr" v="433565" />
		<tag k="waterway" v="stream" />
	</node>
	<node id="-307591" lat="60.9580249961" lon="10.9133222211">
		<tag k="name" v="Revhibakkbekken" />
		<tag k="ssr:stedsnr" v="161307" />
		<tag k="waterway" v="stream" />
	</node>
	<node id="-309543" lat="61.1717472211" lon="10.6934555572">
		<tag k="name" v="Lunkebekken" />
		<tag k="ssr:stedsnr" v="432901" />
		<tag k="waterway" v="stream" />
	</node>
	<node id="-308017" lat="60.8013277775" lon="10.9149416636">
		<tag k="alt_name" v="Velttjennet" />
		<tag k="name" v="Velttjernet" />
		<tag k="natural" v="water" />
		<tag k="ssr:stedsnr" v="664837" />
	</node>
	<node id="-308614" lat="60.8805249999" lon="10.893652772">
		<tag k="name" v="Framnes" />
		<tag k="natural" v="cape" />
		<tag k="ssr:stedsnr" v="859271" />
	</node>
	<node id="-307489" lat="61.1153833378" lon="10.634183338">
		<tag k="name" v="Holman" />
		<tag k="place" v="islet" />
		<tag k="ssr:stedsnr" v="250777" />
	</node>
	<node id="-309536" lat="61.0671111102" lon="10.890813884">
		<tag k="name" v="Gåstjernet" />
		<tag k="natural" v="water" />
		<tag k="ssr:stedsnr" v="432595" />
	</node>
	<node id="-309534" lat="61.1411083292" lon="10.773550009">
		<tag k="alt_name" v="Herrambbekken" />
		<tag k="name" v="Herramsbekken" />
		<tag k="ssr:stedsnr" v="432496" />
		<tag k="waterway" v="stream" />
	</node>
	<node id="-310045" lat="61.1485472241" lon="10.7216555481">
		<tag k="name" v="Åtangen" />
		<tag k="natural" v="cape" />
		<tag k="ssr:stedsnr" v="797542" />
	</node>
	<node id="-309532" lat="61.1092777806" lon="10.743608331">
		<tag k="name" v="Kvannbekken" />
		<tag k="ssr:stedsnr" v="432493" />
		<tag k="waterway" v="stream" />
	</node>
	<node id="-308507" lat="61.0334305566" lon="10.4910055471">
		<tag k="name" v="Kvitsandvika" />
		<tag k="natural" v="bay" />
		<tag k="ssr:stedsnr" v="918691" />
	</node>
	<node id="-310042" lat="60.7106666667" lon="11.0166249938">
		<tag k="name" v="Holmen" />
		<tag k="place" v="islet" />
		<tag k="ssr:stedsnr" v="796947" />
	</node>
	<node id="-309529" lat="61.0112083315" lon="10.5167861154">
		<tag k="name" v="Sanden" />
		<tag k="natural" v="cape" />
		<tag k="ssr:stedsnr" v="432696" />
	</node>
	<node id="-310040" lat="61.1959500043" lon="10.7075777693">
		<tag k="name" v="Stuva" />
		<tag k="ssr:stedsnr" v="796927" />
		<tag k="waterway" v="stream" />
	</node>
	<node id="-310038" lat="61.0151861092" lon="10.6848611089">
		<tag k="name" v="Langodden" />
>>>>>>> e1d4bc35ff8a6074a6f2e91616a996b547c36f15
		<tag k="natural" v="cape" />
		<tag k="ssr:stedsnr" v="919477" />
	</node>
<<<<<<< HEAD
	<node lat="60.82079444621659" lon="10.873744442841987" id="-29563">
		<tag k="name" v="Grøtlitjernet" />
=======
	<node id="-310037" lat="61.2461833321" lon="10.8677750041">
		<tag k="alt_name" v="Bonkerudtjernet" />
		<tag k="name" v="Bunkerudtjernet" />
>>>>>>> e1d4bc35ff8a6074a6f2e91616a996b547c36f15
		<tag k="natural" v="water" />
		<tag k="ssr:stedsnr" v="920428" />
	</node>
<<<<<<< HEAD
	<node lat="61.06064721960717" lon="11.052149995125877" id="-29565">
		<tag k="name" v="Søndre Kråktjernet" />
		<tag k="natural" v="water" />
		<tag k="ssr:stedsnr" v="829172" />
	</node>
	<node lat="61.109222225215085" lon="10.63876388784387" id="-29585">
		<tag k="name" v="Fleskvika" />
		<tag k="natural" v="bay" />
		<tag k="ssr:stedsnr" v="845631" />
	</node>
	<node lat="61.123849998286516" lon="10.69610832820629" id="-29588">
		<tag k="name" v="Gunhildbekken" />
		<tag k="ssr:stedsnr" v="847028" />
		<tag k="waterway" v="stream" />
	</node>
	<node lat="61.06273888553644" lon="10.799291669731995" id="-29600">
		<tag k="alt_name" v="Blisterbekken" />
		<tag k="name" v="Blesterbekken" />
		<tag k="ssr:stedsnr" v="857620" />
		<tag k="waterway" v="stream" />
	</node>
	<node lat="61.05306110960784" lon="10.671108332935304" id="-29601">
		<tag k="alt_name" v="Bruktjennet" />
		<tag k="name" v="Bruktjernet" />
		<tag k="natural" v="water" />
		<tag k="ssr:stedsnr" v="857685" />
	</node>
	<node lat="60.86480555603325" lon="10.878908333754277" id="-29622">
		<tag k="alt_name" v="Jønsrudtjennet" />
		<tag k="name" v="Jønsrudtjernet" />
=======
	<node id="-307988" lat="61.1890361135" lon="10.7823027862">
		<tag k="name" v="Gjestbodsbekken" />
		<tag k="ssr:stedsnr" v="433535" />
		<tag k="waterway" v="stream" />
	</node>
	<node id="-309523" lat="61.0131611087" lon="10.9050333294">
		<tag k="name" v="Aursmotjernet" />
		<tag k="natural" v="water" />
		<tag k="ssr:stedsnr" v="431593" />
	</node>
	<node id="-310034" lat="61.1224000004" lon="11.0082638954">
		<tag k="name" v="Kittilåa" />
		<tag k="ssr:stedsnr" v="796519" />
		<tag k="waterway" v="stream" />
	</node>
	<node id="-309521" lat="60.4806388919" lon="11.1954055554">
		<tag k="name" v="Mjøsa" />
		<tag k="natural" v="water" />
		<tag k="ssr:stedsnr" v="431452" />
		<tag k="water" v="lake" />
	</node>
	<node id="-310032" lat="61.1080388899" lon="11.0008083285">
		<tag k="alt_name" v="Bergetranget" />
		<tag k="name" v="Bergtronget" />
		<tag k="ssr:stedsnr" v="796512" />
		<tag k="waterway" v="rapids" />
	</node>
	<node id="-308495" lat="61.1010294489" lon="10.7469906653">
		<tag k="alt_name" v="Mesnlitjennet" />
		<tag k="name" v="Mesnlitjernet" />
>>>>>>> e1d4bc35ff8a6074a6f2e91616a996b547c36f15
		<tag k="natural" v="water" />
		<tag k="ssr:stedsnr" v="859308" />
	</node>
<<<<<<< HEAD
	<node lat="61.07125833043633" lon="10.77026666580359" id="-29688">
		<tag k="name" v="Hølbekken" />
		<tag k="ssr:stedsnr" v="918679" />
		<tag k="waterway" v="stream" />
	</node>
	<node lat="61.03343055655201" lon="10.491005547126296" id="-29689">
		<tag k="name" v="Kvitsandvika" />
		<tag k="natural" v="bay" />
		<tag k="ssr:stedsnr" v="918691" />
	</node>
	<node lat="60.75086110846195" lon="10.935330554507031" id="-29714">
		<tag k="name" v="Skurven" />
		<tag k="natural" v="cape" />
		<tag k="ssr:stedsnr" v="931013" />
	</node>
	<node lat="60.79592222109721" lon="10.828541661141212" id="-29719">
		<tag k="alt_name" v="Kroktjennet" />
		<tag k="name" v="Kroktjernet" />
		<tag k="natural" v="water" />
		<tag k="ssr:stedsnr" v="952050" />
	</node>
	<node lat="61.07348333050235" lon="10.68414444471895" id="-29740">
		<tag k="alt_name" v="Olasvetjennet" />
		<tag k="name" v="Olasvetjernet" />
		<tag k="natural" v="water" />
		<tag k="ssr:stedsnr" v="6827" />
	</node>
	<node lat="61.18491388932746" lon="10.836686115320768" id="-29750">
		<tag k="name" v="Hestbekken" />
		<tag k="ssr:stedsnr" v="8569" />
		<tag k="waterway" v="stream" />
	</node>
	<node lat="61.23719166461173" lon="10.88210832414206" id="-29758">
		<tag k="name" v="Skvaldra" />
		<tag k="ssr:stedsnr" v="8741" />
		<tag k="waterway" v="stream" />
	</node>
	<node lat="61.244044441650885" lon="10.761697225733156" id="-29759">
		<tag k="name" v="Augbekken" />
		<tag k="ssr:stedsnr" v="8743" />
		<tag k="waterway" v="stream" />
	</node>
	<node lat="61.13284166683803" lon="10.659313896005814" id="-29761">
		<tag k="name" v="Kvernbekken" />
		<tag k="ssr:stedsnr" v="8962" />
		<tag k="waterway" v="stream" />
	</node>
	<node lat="60.99774999730909" lon="10.877725007205377" id="-29766">
		<tag k="alt_name" v="Kluftjernet" />
		<tag k="name" v="Klufttjernet" />
		<tag k="natural" v="water" />
		<tag k="ssr:stedsnr" v="9079" />
	</node>
	<node lat="60.82817500016084" lon="10.927400003126454" id="-29772">
		<tag k="name" v="Bysætervika" />
		<tag k="natural" v="bay" />
		<tag k="ssr:stedsnr" v="9422" />
	</node>
	<node lat="60.86131110793" lon="10.8069249959138" id="-29782">
		<tag k="alt_name" v="Saugstjennet" />
		<tag k="name" v="Sautjernet" />
=======
	<node id="-310028" lat="61.0262805525" lon="10.7844166696">
		<tag k="name" v="Listjernet" />
		<tag k="natural" v="water" />
		<tag k="ssr:stedsnr" v="795622" />
	</node>
	<node id="-308490" lat="61.0216333361" lon="10.7943416689">
		<tag k="name" v="Tjernsbekken" />
		<tag k="ssr:stedsnr" v="768687" />
		<tag k="waterway" v="stream" />
	</node>
	<node id="-309001" lat="60.8805416657" lon="10.9226555545">
		<tag k="name" v="Båhusbekken" />
		<tag k="ssr:stedsnr" v="120997" />
		<tag k="waterway" v="stream" />
	</node>
	<node id="-308999" lat="60.8646638881" lon="10.892944438">
		<tag k="name" v="Stensengbekken" />
		<tag k="ssr:stedsnr" v="120993" />
		<tag k="waterway" v="stream" />
	</node>
	<node id="-307462" lat="60.9439305513" lon="10.7512250037">
		<tag k="name" v="Moelva" />
		<tag k="ssr:stedsnr" v="70616" />
		<tag k="waterway" v="river" />
	</node>
	<node id="-308506" lat="61.1491036534" lon="10.7642594932">
		<tag k="alt_name" v="Gulbrandtjernet;Gulbrandstjernet" />
		<tag k="loc_name" v="Gullrandtjernet" />
		<tag k="name" v="Gulrandtjernet" />
		<tag k="natural" v="water" />
		<tag k="ssr:stedsnr" v="918586" />
	</node>
	<node id="-308995" lat="61.0630888893" lon="10.9121194529">
		<tag k="name" v="Svartbekken" />
		<tag k="ssr:stedsnr" v="119479" />
		<tag k="waterway" v="stream" />
	</node>
	<node id="-310017" lat="61.1380583365" lon="10.7087555629">
		<tag k="name" v="Fløythølen" />
		<tag k="place" v="locality" />
		<tag k="ssr:stedsnr" v="786026" />
	</node>
	<node id="-308480" lat="60.9831305529" lon="10.6456472131">
		<tag k="name" v="Badhusbekken" />
		<tag k="ssr:stedsnr" v="767333" />
		<tag k="waterway" v="stream" />
	</node>
	<node id="-308991" lat="61.2096361092" lon="10.8683138827">
		<tag k="name" v="Svartbekken" />
		<tag k="ssr:stedsnr" v="118424" />
		<tag k="waterway" v="stream" />
	</node>
	<node id="-308759" lat="61.1328416668" lon="10.659313896">
		<tag k="name" v="Kvernbekken" />
		<tag k="ssr:stedsnr" v="8962" />
		<tag k="waterway" v="stream" />
	</node>
	<node id="-308988" lat="61.111455552" lon="10.6997888858">
		<tag k="name" v="Tordammen" />
		<tag k="ssr:stedsnr" v="118014" />
		<tag k="waterway" v="dam" />
	</node>
	<node id="-308987" lat="61.2113111102" lon="10.7430944469">
		<tag k="name" v="Lille Aksjøen" />
>>>>>>> e1d4bc35ff8a6074a6f2e91616a996b547c36f15
		<tag k="natural" v="water" />
		<tag k="ssr:stedsnr" v="9343" />
	</node>
<<<<<<< HEAD
	<node lat="60.83522499742584" lon="10.874400000415983" id="-29787">
		<tag k="alt_name" v="Haugtjennet" />
		<tag k="name" v="Haugtjernet" />
		<tag k="natural" v="water" />
		<tag k="ssr:stedsnr" v="9382" />
	</node>
	<node lat="60.94979722305021" lon="10.676433341370593" id="-29803">
		<tag k="name" v="Vessvika" />
		<tag k="natural" v="bay" />
		<tag k="ssr:stedsnr" v="40336" />
	</node>
	<node lat="60.8137888876887" lon="10.802527784061516" id="-29815">
		<tag k="name" v="Ileputten" />
		<tag k="natural" v="water" />
		<tag k="ssr:stedsnr" v="55042" />
	</node>
	<node lat="60.97968611371294" lon="11.022794450488574" id="-29817">
		<tag k="name" v="Grønbekken" />
		<tag k="ssr:stedsnr" v="55044" />
		<tag k="waterway" v="stream" />
	</node>
	<node lat="61.03258333457924" lon="10.91376945354347" id="-29824">
		<tag k="name" v="Bergsbutjernsmyra" />
		<tag k="ssr:stedsnr" v="55794" />
		<tag k="waterway" v="stream" />
	</node>
	<node lat="61.1296083324755" lon="10.802602775823727" id="-29831">
		<tag k="name" v="Bubekken" />
		<tag k="ssr:stedsnr" v="57250" />
		<tag k="waterway" v="stream" />
	</node>
	<node lat="61.210424997927305" lon="10.878438890493575" id="-29832">
		<tag k="name" v="Nedre Svartbekktjernet" />
		<tag k="natural" v="water" />
		<tag k="ssr:stedsnr" v="57434" />
	</node>
	<node lat="61.162919447936424" lon="10.990575005182265" id="-29840">
		<tag k="name" v="Stalsbergtjernet" />
=======
	<node id="-308474" lat="60.8823527819" lon="10.9121888813">
		<tag k="name" v="Pellerviken" />
		<tag k="natural" v="bay" />
		<tag k="ssr:stedsnr" v="909982" />
	</node>
	<node id="-308985" lat="60.9806333345" lon="11.0508972199">
		<tag k="name" v="Skreppåsbekken" />
		<tag k="ssr:stedsnr" v="116049" />
		<tag k="waterway" v="stream" />
	</node>
	<node id="-307444" lat="61.2352361136" lon="10.9376083346">
		<tag k="name" v="Lona" />
		<tag k="ssr:stedsnr" v="68709" />
		<tag k="waterway" v="stream" />
	</node>
	<node id="-310003" lat="61.2094916651" lon="10.8858750089">
		<tag k="name" v="Midtre Svartbekktjernet" />
		<tag k="natural" v="water" />
		<tag k="ssr:stedsnr" v="785422" />
	</node>
	<node id="-308691" lat="60.7508611085" lon="10.9353305545">
		<tag k="name" v="Skurven" />
		<tag k="natural" v="cape" />
		<tag k="ssr:stedsnr" v="931013" />
	</node>
	<node id="-309999" lat="61.1315277753" lon="10.6498361018">
		<tag k="name" v="Kvernbekken" />
		<tag k="ssr:stedsnr" v="784605" />
		<tag k="waterway" v="stream" />
	</node>
	<node id="-309486" lat="61.0162777788" lon="10.952650009">
		<tag k="name" v="Kjerringfallet" />
		<tag k="natural" v="waterfall" />
		<tag k="ssr:stedsnr" v="406351" />
	</node>
	<node id="-309485" lat="60.9780722247" lon="10.9207361122">
		<tag k="name" v="Igleputten" />
>>>>>>> e1d4bc35ff8a6074a6f2e91616a996b547c36f15
		<tag k="natural" v="water" />
		<tag k="ssr:stedsnr" v="59266" />
	</node>
<<<<<<< HEAD
	<node lat="61.13583888570763" lon="10.886850008164576" id="-29841">
		<tag k="name" v="Steintjernet" />
		<tag k="natural" v="water" />
		<tag k="ssr:stedsnr" v="59451" />
	</node>
	<node lat="61.14671111422405" lon="10.870233329948112" id="-29855">
		<tag k="name" v="Kjerringtjernet" />
		<tag k="natural" v="water" />
		<tag k="ssr:stedsnr" v="69575" />
	</node>
	<node lat="61.16157500194592" lon="10.804136107944132" id="-29857">
		<tag k="name" v="Fjellåa" />
		<tag k="ssr:stedsnr" v="69578" />
		<tag k="waterway" v="stream" />
	</node>
	<node lat="61.06458333686589" lon="10.646627784450839" id="-29860">
		<tag k="name" v="Mysuholta" />
		<tag k="ssr:stedsnr" v="68831" />
		<tag k="waterway" v="stream" />
	</node>
	<node lat="60.957169443107524" lon="10.845322227707824" id="-29889">
		<tag k="name" v="Langtjernet" />
		<tag k="natural" v="water" />
		<tag k="ssr:stedsnr" v="70160" />
	</node>
	<node lat="60.94393055126063" lon="10.751225003734767" id="-29900">
		<tag k="name" v="Moelva" />
		<tag k="ssr:stedsnr" v="70616" />
		<tag k="waterway" v="river" />
	</node>
	<node lat="60.91495555200458" lon="10.706213882869992" id="-29901">
		<tag k="alt_name" v="Evjuvika" />
		<tag k="name" v="Evjevika" />
		<tag k="natural" v="bay" />
		<tag k="ssr:stedsnr" v="70842" />
	</node>
	<node lat="60.81906388525299" lon="10.714974991062734" id="-29902">
		<tag k="name" v="Tangnesodden" />
		<tag k="natural" v="cape" />
		<tag k="ssr:stedsnr" v="70946" />
	</node>
	<node lat="60.84734722637964" lon="10.951599995764715" id="-29904">
		<tag k="name" v="Langodden" />
		<tag k="natural" v="cape" />
		<tag k="ssr:stedsnr" v="81082" />
	</node>
	<node lat="60.81780000364098" lon="10.766902770058952" id="-29910">
		<tag k="alt_name" v="Steinsrudtjennet" />
		<tag k="name" v="Steinsrudtjernet" />
		<tag k="natural" v="water" />
		<tag k="ssr:stedsnr" v="130419" />
	</node>
	<node lat="60.90403610933978" lon="11.039844437989611" id="-29914">
		<tag k="name" v="Kanalen" />
		<tag k="ssr:stedsnr" v="101218" />
		<tag k="waterway" v="drain" />
	</node>
	<node lat="60.94425278193054" lon="10.681255558010498" id="-29917">
=======
	<node id="-309996" lat="61.0319611112" lon="10.9491388842">
		<tag k="name" v="Bergsbudammen" />
		<tag k="ssr:stedsnr" v="783835" />
		<tag k="waterway" v="dam" />
	</node>
	<node id="-307947" lat="60.7982249975" lon="10.9142055598">
		<tag k="alt_name" v="Gålåstjennet" />
		<tag k="name" v="Gålåstjernet" />
		<tag k="natural" v="water" />
		<tag k="ssr:stedsnr" v="373472" />
	</node>
	<node id="-309482" lat="61.0337083289" lon="11.1058027779">
		<tag k="name" v="Andholmen" />
		<tag k="place" v="islet" />
		<tag k="ssr:stedsnr" v="404890" />
	</node>
	<node id="-309481" lat="61.0225861072" lon="11.0768527727">
		<tag k="name" v="Heggholsbekken" />
		<tag k="ssr:stedsnr" v="404887" />
		<tag k="waterway" v="stream" />
	</node>
	<node id="-309992" lat="61.1026083294" lon="10.7926166622">
		<tag k="name" v="Nattrudstilbekken" />
		<tag k="ssr:stedsnr" v="783731" />
		<tag k="waterway" v="stream" />
	</node>
	<node id="-309372" lat="60.9305749976" lon="10.681311106">
		<tag k="name" v="Skinkvika" />
		<tag k="natural" v="bay" />
		<tag k="ssr:stedsnr" v="344401" />
	</node>
	<node id="-307429" lat="61.1203027813" lon="10.6869833249">
		<tag k="name" v="Håkenstadbekken" />
		<tag k="ssr:stedsnr" v="240031" />
		<tag k="waterway" v="stream" />
	</node>
	<node id="-308603" lat="61.1568027757" lon="10.730600004">
		<tag k="name" v="Fjellelva" />
		<tag k="ssr:stedsnr" v="858561" />
		<tag k="waterway" v="river" />
	</node>
	<node id="-308959" lat="60.9442527819" lon="10.681255558">
>>>>>>> e1d4bc35ff8a6074a6f2e91616a996b547c36f15
		<tag k="name" v="Smestadvika" />
		<tag k="natural" v="bay" />
		<tag k="ssr:stedsnr" v="101314" />
	</node>
<<<<<<< HEAD
	<node lat="60.980633334515545" lon="11.050897219859573" id="-29939">
		<tag k="name" v="Skreppåsbekken" />
		<tag k="ssr:stedsnr" v="116049" />
		<tag k="waterway" v="stream" />
	</node>
	<node lat="61.21131111017616" lon="10.74309444688464" id="-29941">
		<tag k="name" v="Lille Aksjøen" />
		<tag k="natural" v="water" />
		<tag k="ssr:stedsnr" v="116601" />
	</node>
	<node lat="61.20963610916153" lon="10.868313882681488" id="-29945">
		<tag k="name" v="Svartbekken" />
		<tag k="ssr:stedsnr" v="118424" />
		<tag k="waterway" v="stream" />
	</node>
	<node lat="60.864663888069934" lon="10.892944438000889" id="-29951">
		<tag k="name" v="Stensengbekken" />
		<tag k="ssr:stedsnr" v="120993" />
		<tag k="waterway" v="stream" />
	</node>
	<node lat="60.8805416657373" lon="10.922655554454373" id="-29953">
		<tag k="name" v="Båhusbekken" />
		<tag k="ssr:stedsnr" v="120997" />
		<tag k="waterway" v="stream" />
	</node>
	<node lat="61.026225002527696" lon="10.985502774698492" id="-29975">
		<tag k="name" v="Verkensbekken" />
		<tag k="ssr:stedsnr" v="129583" />
		<tag k="waterway" v="stream" />
	</node>
	<node lat="61.0725277756131" lon="11.06477778418804" id="-29980">
		<tag k="name" v="Harasjøen" />
		<tag k="natural" v="water" />
		<tag k="ssr:stedsnr" v="129605" />
	</node>
	<node lat="61.073208329998685" lon="10.785777783652154" id="-29982">
		<tag k="alt_name" v="Ursvika" />
		<tag k="name" v="Urdsvika" />
		<tag k="natural" v="bay" />
		<tag k="ssr:stedsnr" v="129609" />
	</node>
	<node lat="60.92199999590754" lon="10.689400000066088" id="-30004">
		<tag k="name" v="Brennerivika" />
		<tag k="natural" v="bay" />
		<tag k="ssr:stedsnr" v="141501" />
	</node>
	<node lat="60.78179722140812" lon="10.930608340474851" id="-30008">
		<tag k="name" v="Nes" />
=======
	<node id="-309469" lat="60.8656500011" lon="10.7424777815">
		<tag k="name" v="Skoldvika" />
		<tag k="natural" v="bay" />
		<tag k="ssr:stedsnr" v="404126" />
	</node>
	<node id="-308956" lat="60.9040361093" lon="11.039844438">
		<tag k="name" v="Kanalen" />
		<tag k="ssr:stedsnr" v="101218" />
		<tag k="waterway" v="drain" />
	</node>
	<node id="-307748" lat="60.9964694478" lon="10.9840166655">
		<tag k="name" v="Stormyrbekken" />
		<tag k="ssr:stedsnr" v="465133" />
		<tag k="waterway" v="stream" />
	</node>
	<node id="-308438" lat="61.1130611079" lon="10.7716249941">
		<tag k="name" v="Samsalbekken" />
		<tag k="ssr:stedsnr" v="735508" />
		<tag k="waterway" v="stream" />
	</node>
	<node id="-308089" lat="60.8830000017" lon="10.7395249913">
		<tag k="name" v="Krokvika" />
		<tag k="natural" v="bay" />
		<tag k="ssr:stedsnr" v="676302" />
	</node>
	<node id="-309458" lat="60.8083638884" lon="10.795369437">
		<tag k="alt_name" v="Herstadtjennet" />
		<tag k="name" v="Herstadtjernet" />
		<tag k="natural" v="water" />
		<tag k="ssr:stedsnr" v="373484" />
	</node>
	<node id="-308003" lat="60.9544055596" lon="10.9142944462">
		<tag k="name" v="Glestadelva" />
		<tag k="ssr:stedsnr" v="446003" />
		<tag k="waterway" v="river" />
	</node>
	<node id="-308942" lat="60.8473472264" lon="10.9515999958">
		<tag k="name" v="Langodden" />
>>>>>>> e1d4bc35ff8a6074a6f2e91616a996b547c36f15
		<tag k="natural" v="cape" />
		<tag k="ssr:stedsnr" v="145596" />
	</node>
<<<<<<< HEAD
	<node lat="60.95802499605289" lon="10.913322221130544" id="-30017">
		<tag k="name" v="Revhibakkbekken" />
		<tag k="ssr:stedsnr" v="161307" />
		<tag k="waterway" v="stream" />
	</node>
	<node lat="61.027608332895404" lon="11.104563885102966" id="-30027">
		<tag k="name" v="Osodden" />
		<tag k="natural" v="cape" />
		<tag k="ssr:stedsnr" v="161869" />
	</node>
	<node lat="61.03688055229448" lon="11.10436111919806" id="-30028">
		<tag k="name" v="Borkbuvika" />
		<tag k="natural" v="bay" />
		<tag k="ssr:stedsnr" v="161873" />
	</node>
	<node lat="60.930180559364494" lon="10.682822230265117" id="-30030">
		<tag k="name" v="Skinka" />
		<tag k="natural" v="cape" />
		<tag k="ssr:stedsnr" v="162394" />
	</node>
	<node lat="60.98285277640874" lon="11.022825008811493" id="-30040">
=======
	<node id="-308429" lat="61.0959916643" lon="11.0270666689">
		<tag k="loc_name" v="Djeveløya" />
		<tag k="name" v="Djæveløen" />
		<tag k="place" v="islet" />
		<tag k="ssr:stedsnr" v="722218" />
	</node>
	<node id="-307916" lat="61.0731500003" lon="10.9184499951">
		<tag k="name" v="Bubekken" />
		<tag k="ssr:stedsnr" v="371609" />
		<tag k="waterway" v="stream" />
	</node>
	<node id="-308770" lat="60.9977499973" lon="10.8777250072">
		<tag k="alt_name" v="Kluftjernet" />
		<tag k="name" v="Klufttjernet" />
		<tag k="natural" v="water" />
		<tag k="ssr:stedsnr" v="9079" />
	</node>
	<node id="-307402" lat="60.8433861111" lon="10.7301416594">
		<tag k="name" v="Sløebekken" />
		<tag k="ssr:stedsnr" v="42207" />
		<tag k="waterway" v="stream" />
	</node>
	<node id="-307912" lat="61.2223888866" lon="10.7378388798">
		<tag k="name" v="Steinsrudbekken" />
		<tag k="ssr:stedsnr" v="371706" />
		<tag k="waterway" v="stream" />
	</node>
	<node id="-309957" lat="61.0309333298" lon="10.8846777748">
		<tag k="name" v="Hullbekken" />
		<tag k="ssr:stedsnr" v="768376" />
		<tag k="waterway" v="stream" />
	</node>
	<node id="-309110" lat="60.9828527764" lon="11.0228250088">
>>>>>>> e1d4bc35ff8a6074a6f2e91616a996b547c36f15
		<tag k="name" v="Mosemyrbekken" />
		<tag k="ssr:stedsnr" v="176041" />
		<tag k="waterway" v="stream" />
	</node>
<<<<<<< HEAD
	<node lat="61.18710277749303" lon="10.83125000549428" id="-30043">
		<tag k="name" v="Nøkkeltjernet" />
		<tag k="natural" v="water" />
		<tag k="ssr:stedsnr" v="178279" />
	</node>
	<node lat="60.89484444168758" lon="10.725180554267885" id="-30076">
		<tag k="name" v="Hammerlundsberget" />
		<tag k="natural" v="cape" />
		<tag k="ssr:stedsnr" v="180793" />
	</node>
	<node lat="61.15408055550698" lon="11.006524991490798" id="-30085">
		<tag k="name" v="Kittilåkroken" />
		<tag k="place" v="locality" />
		<tag k="ssr:stedsnr" v="190535" />
	</node>
	<node lat="61.18213333741513" lon="10.906091672938077" id="-30086">
		<tag k="alt_name" v="Kattugletjernet" />
		<tag k="name" v="Kattugltjernet" />
		<tag k="natural" v="water" />
		<tag k="ssr:stedsnr" v="190549" />
	</node>
	<node lat="61.016427778124296" lon="10.991627771291693" id="-30088">
		<tag k="name" v="Brumunda" />
		<tag k="ssr:stedsnr" v="189537" />
		<tag k="waterway" v="stream" />
	</node>
	<node lat="61.00368055582823" lon="10.864425006932144" id="-30091">
		<tag k="name" v="Klufttjernbekken" />
		<tag k="ssr:stedsnr" v="189352" />
		<tag k="waterway" v="stream" />
	</node>
	<node lat="61.11856110817442" lon="10.806566670199677" id="-30094">
		<tag k="name" v="Finnøla" />
		<tag k="ssr:stedsnr" v="189486" />
		<tag k="waterway" v="river" />
	</node>
	<node lat="61.134936115426825" lon="10.729924991006161" id="-30095">
		<tag k="name" v="Sjøbekken" />
		<tag k="ssr:stedsnr" v="189495" />
		<tag k="waterway" v="stream" />
	</node>
	<node lat="61.05052500129517" lon="10.605441660705537" id="-30110">
		<tag k="alt_name" v="Langtjennet" />
=======
	<node id="-309784" lat="61.1120944465" lon="11.0320277737">
		<tag k="name" v="Kråleråa" />
		<tag k="ssr:stedsnr" v="614522" />
		<tag k="waterway" v="stream" />
	</node>
	<node id="-307903" lat="60.8923694403" lon="11.1034277837">
		<tag k="name" v="Flagstadelva" />
		<tag k="ssr:stedsnr" v="494603" />
		<tag k="waterway" v="river" />
	</node>
	<node id="-308585" lat="61.0229138895" lon="10.9502944445">
		<tag k="name" v="Kråktjernet" />
		<tag k="natural" v="water" />
		<tag k="ssr:stedsnr" v="844821" />
	</node>
	<node id="-307388" lat="61.0224027796" lon="10.9652527753">
		<tag k="name" v="Spellbekken" />
		<tag k="ssr:stedsnr" v="40165" />
		<tag k="waterway" v="stream" />
	</node>
	<node id="-307387" lat="61.0369916707" lon="10.9579083252">
		<tag k="name" v="Sponbergsbekken" />
		<tag k="ssr:stedsnr" v="40162" />
		<tag k="waterway" v="stream" />
	</node>
	<node id="-307386" lat="61.0159111134" lon="10.9959555621">
		<tag k="name" v="Gautsæterdammen" />
		<tag k="ssr:stedsnr" v="40158" />
		<tag k="waterway" v="dam" />
	</node>
	<node id="-308046" lat="61.0341416645" lon="10.9445472173">
		<tag k="name" v="Hestfløyta" />
		<tag k="natural" v="water" />
		<tag k="ssr:stedsnr" v="479813" />
		<tag k="water" v="lake" />
	</node>
	<node id="-307896" lat="60.8329249967" lon="10.9749250049">
		<tag k="name" v="Grøtodden" />
		<tag k="natural" v="cape" />
		<tag k="ssr:stedsnr" v="494407" />
	</node>
	<node id="-308916" lat="60.9571694431" lon="10.8453222277">
>>>>>>> e1d4bc35ff8a6074a6f2e91616a996b547c36f15
		<tag k="name" v="Langtjernet" />
		<tag k="natural" v="water" />
		<tag k="ssr:stedsnr" v="190683" />
	</node>
	<node lat="61.10809444441618" lon="10.653236103928204" id="-30113">
		<tag k="name" v="Turven" />
		<tag k="place" v="islet" />
		<tag k="ssr:stedsnr" v="190834" />
	</node>
	<node lat="61.121330556128974" lon="10.6975499969709" id="-30114">
		<tag k="name" v="Tyria" />
		<tag k="ssr:stedsnr" v="190841" />
		<tag k="waterway" v="river" />
	</node>
	<node lat="60.90097777624707" lon="10.966113889286646" id="-30116">
		<tag k="alt_name" v="Brumundelva" />
		<tag k="name" v="Brumunda" />
		<tag k="ssr:stedsnr" v="191092" />
		<tag k="waterway" v="river" />
	</node>
<<<<<<< HEAD
	<node lat="60.96104999562731" lon="10.895944446447345" id="-30118">
		<tag k="name" v="Rognlitjernet" />
		<tag k="natural" v="water" />
		<tag k="ssr:stedsnr" v="191100" />
	</node>
	<node lat="60.94375000076647" lon="11.079874996503401" id="-30125">
		<tag k="name" v="Blanktjernet" />
		<tag k="natural" v="water" />
		<tag k="ssr:stedsnr" v="191128" />
	</node>
	<node lat="60.89350000291928" lon="11.097125009286453" id="-30142">
		<tag k="name" v="Fallsbekken" />
		<tag k="ssr:stedsnr" v="191589" />
		<tag k="waterway" v="stream" />
	</node>
	<node lat="60.88111389089735" lon="10.73296666594802" id="-30155">
		<tag k="name" v="Krokvikodden" />
		<tag k="natural" v="cape" />
		<tag k="ssr:stedsnr" v="222145" />
	</node>
	<node lat="61.03577222097988" lon="10.849602778779746" id="-30160">
		<tag k="name" v="Uroligsandsbekken" />
		<tag k="ssr:stedsnr" v="222377" />
		<tag k="waterway" v="stream" />
	</node>
	<node lat="61.07093888763608" lon="10.870861103758127" id="-30161">
		<tag k="name" v="Kanalen" />
		<tag k="ssr:stedsnr" v="222389" />
		<tag k="waterway" v="drain" />
	</node>
	<node lat="61.02972222485868" lon="11.048388896967255" id="-30187">
		<tag k="name" v="Jokumshølen" />
		<tag k="place" v="locality" />
		<tag k="ssr:stedsnr" v="283100" />
	</node>
	<node lat="61.01337499950631" lon="11.095202783088904" id="-30198">
		<tag k="name" v="Kvilholsbekken" />
		<tag k="ssr:stedsnr" v="283881" />
		<tag k="waterway" v="stream" />
	</node>
	<node lat="61.033424996041155" lon="11.103911117624488" id="-30199">
		<tag k="name" v="Badholmen" />
		<tag k="place" v="islet" />
		<tag k="ssr:stedsnr" v="283890" />
	</node>
	<node lat="61.087322218866625" lon="10.628363887115938" id="-30204">
		<tag k="name" v="Djupholmen" />
		<tag k="place" v="islet" />
		<tag k="ssr:stedsnr" v="298100" />
	</node>
	<node lat="61.02802222116405" lon="10.944244442839404" id="-30208">
		<tag k="name" v="Bergsbutjernbekken" />
		<tag k="ssr:stedsnr" v="298785" />
		<tag k="waterway" v="stream" />
	</node>
	<node lat="60.82800458315285" lon="10.865240008521704" id="-30209">
		<tag k="alt_name" v="Haugomtjennet" />
		<tag k="name" v="Haugomtjernet" />
		<tag k="natural" v="water" />
		<tag k="ssr:stedsnr" v="298867" />
	</node>
	<node lat="61.02690277866521" lon="10.709986110720967" id="-30219">
		<tag k="name" v="Mosavika" />
		<tag k="natural" v="bay" />
		<tag k="ssr:stedsnr" v="301355" />
	</node>
	<node lat="61.15915832959338" lon="10.904449998490948" id="-30224">
		<tag k="name" v="Trillingbekken" />
		<tag k="ssr:stedsnr" v="301449" />
		<tag k="waterway" v="stream" />
	</node>
	<node lat="61.025975001348726" lon="10.680749996556242" id="-30244">
		<tag k="name" v="Storholmane" />
		<tag k="place" v="islet" />
		<tag k="ssr:stedsnr" v="311789" />
	</node>
	<node lat="61.22226466429755" lon="10.940497940223644" id="-30252">
		<tag k="name" v="Øyungen" />
		<tag k="natural" v="water" />
		<tag k="ssr:stedsnr" v="311753" />
		<tag k="water" v="lake" />
	</node>
	<node lat="60.98865623475528" lon="10.959050236338184" id="-30258">
		<tag k="loc_name" v="Bjønndalsbekken" />
		<tag k="name" v="Bjørndalsbekken" />
		<tag k="ssr:stedsnr" v="312099" />
		<tag k="waterway" v="stream" />
	</node>
	<node lat="60.950561110138935" lon="10.812777777969686" id="-30269">
		<tag k="name" v="Koloa" />
		<tag k="ssr:stedsnr" v="312147" />
		<tag k="waterway" v="stream" />
	</node>
	<node lat="60.997688893258186" lon="10.664408340004027" id="-30285">
		<tag k="name" v="Persvetjernet" />
		<tag k="natural" v="water" />
		<tag k="ssr:stedsnr" v="312692" />
	</node>
	<node lat="61.24160277642727" lon="10.806633327578684" id="-30311">
		<tag k="name" v="Nedre Hyntjernet" />
		<tag k="natural" v="water" />
		<tag k="ssr:stedsnr" v="343270" />
	</node>
	<node lat="60.955774996268765" lon="10.883427769614206" id="-30312">
		<tag k="name" v="Skogputten" />
		<tag k="natural" v="water" />
		<tag k="ssr:stedsnr" v="343273" />
	</node>
	<node lat="60.835733190309725" lon="10.977311574575522" id="-30319">
		<tag k="name" v="Mælumsvika" />
		<tag k="natural" v="water" />
		<tag k="ssr:stedsnr" v="343426" />
	</node>
	<node lat="60.97848333690256" lon="10.686752773259137" id="-30333">
		<tag k="name" v="Øksna" />
		<tag k="ssr:stedsnr" v="345339" />
		<tag k="waterway" v="stream" />
	</node>
	<node lat="60.743355557997525" lon="10.917324992261872" id="-30339">
		<tag k="name" v="Hornsodden" />
		<tag k="natural" v="cape" />
		<tag k="ssr:stedsnr" v="345845" />
	</node>
	<node lat="61.15690000416489" lon="10.654430558822916" id="-30347">
		<tag k="name" v="Heståsbekken" />
		<tag k="ssr:stedsnr" v="359633" />
		<tag k="waterway" v="stream" />
	</node>
	<node lat="61.01295555280226" lon="10.85361666142599" id="-30351">
		<tag k="name" v="Rådalsbekken" />
		<tag k="ssr:stedsnr" v="360296" />
		<tag k="waterway" v="stream" />
	</node>
	<node lat="61.142141663300386" lon="10.918944445047758" id="-30368">
		<tag k="name" v="Olshølbekken" />
		<tag k="ssr:stedsnr" v="362447" />
		<tag k="waterway" v="stream" />
	</node>
	<node lat="61.007725001997485" lon="10.867080563391873" id="-30383">
		<tag k="name" v="Glebekken" />
		<tag k="ssr:stedsnr" v="370591" />
		<tag k="waterway" v="stream" />
	</node>
	<node lat="61.01951389096329" lon="10.835908324554913" id="-30384">
		<tag k="name" v="Bøvra" />
		<tag k="ssr:stedsnr" v="370601" />
		<tag k="waterway" v="river" />
	</node>
	<node lat="61.09736110777413" lon="10.685427782134447" id="-30387">
		<tag k="name" v="Bustokkelva" />
		<tag k="ssr:stedsnr" v="370874" />
		<tag k="waterway" v="river" />
	</node>
	<node lat="61.06125555840178" lon="10.533025008683154" id="-30397">
		<tag k="name" v="Demmtjernet" />
=======
	<node id="-310046" lat="61.1736861129" lon="10.8983638836">
		<tag k="name" v="Kuøya" />
		<tag k="place" v="island" />
		<tag k="ssr:stedsnr" v="797548" />
	</node>
	<node id="-307571" lat="60.7388055593" lon="10.9797805636">
		<tag k="name" v="Helgøya" />
		<tag k="place" v="island" />
		<tag k="ssr:stedsnr" v="128907" />
	</node>
	<node id="-308936" lat="60.914955552" lon="10.7062138829">
		<tag k="alt_name" v="Evjuvika" />
		<tag k="name" v="Evjevika" />
		<tag k="natural" v="bay" />
		<tag k="ssr:stedsnr" v="70842" />
	</node>
	<node id="-308509" lat="61.0598333316" lon="10.4851666728">
		<tag k="name" v="Bergsengelva" />
		<tag k="ssr:stedsnr" v="918735" />
		<tag k="waterway" v="stream" />
	</node>
	<node id="-309420" lat="61.0891000014" lon="10.8902166684">
		<tag k="name" v="Ljøsåa" />
		<tag k="ssr:stedsnr" v="371487" />
		<tag k="waterway" v="river" />
	</node>
	<node id="-309419" lat="61.0973611078" lon="10.6854277821">
		<tag k="name" v="Bustokkelva" />
		<tag k="ssr:stedsnr" v="370874" />
		<tag k="waterway" v="river" />
	</node>
	<node id="-308154" lat="61.1000611124" lon="10.9530555546">
		<tag k="name" v="Glebekken" />
		<tag k="ssr:stedsnr" v="544432" />
		<tag k="waterway" v="stream" />
	</node>
	<node id="-307484" lat="61.0711750046" lon="10.863752769">
		<tag k="name" v="Vivelsbekken" />
		<tag k="ssr:stedsnr" v="250618" />
		<tag k="waterway" v="stream" />
	</node>
	<node id="-309413" lat="61.019513891" lon="10.8359083246">
		<tag k="name" v="Bøvra" />
		<tag k="ssr:stedsnr" v="370601" />
		<tag k="waterway" v="river" />
	</node>
	<node id="-309412" lat="61.007725002" lon="10.8670805634">
		<tag k="name" v="Glebekken" />
		<tag k="ssr:stedsnr" v="370591" />
		<tag k="waterway" v="stream" />
	</node>
	<node id="-307619" lat="61.0297222249" lon="11.048388897">
		<tag k="name" v="Jokumshølen" />
		<tag k="place" v="locality" />
		<tag k="ssr:stedsnr" v="283100" />
	</node>
	<node id="-307873" lat="60.9538027793" lon="11.0193527764">
		<tag k="name" v="Lera" />
		<tag k="ssr:stedsnr" v="494150" />
		<tag k="waterway" v="river" />
	</node>
	<node id="-307870" lat="61.0160402222" lon="10.7115094106">
		<tag k="name" v="Næra" />
		<tag k="natural" v="water" />
		<tag k="ssr:stedsnr" v="494108" />
		<tag k="water" v="lake" />
	</node>
	<node id="-308381" lat="61.0911194405" lon="10.6928527788">
		<tag k="name" v="Helgereva" />
		<tag k="natural" v="bay" />
		<tag k="ssr:stedsnr" v="889082" />
	</node>
	<node id="-309404" lat="61.1421416633" lon="10.918944445">
		<tag k="name" v="Olshølbekken" />
		<tag k="ssr:stedsnr" v="362447" />
		<tag k="waterway" v="stream" />
	</node>
	<node id="-308891" lat="61.1615750019" lon="10.8041361079">
		<tag k="name" v="Fjellåa" />
		<tag k="ssr:stedsnr" v="69578" />
		<tag k="waterway" v="stream" />
	</node>
	<node id="-308889" lat="61.1467111142" lon="10.8702333299">
		<tag k="name" v="Kjerringtjernet" />
		<tag k="natural" v="water" />
		<tag k="ssr:stedsnr" v="69575" />
	</node>
	<node id="-307352" lat="61.0709388876" lon="10.8708611038">
		<tag k="name" v="Kanalen" />
		<tag k="ssr:stedsnr" v="222389" />
		<tag k="waterway" v="drain" />
	</node>
	<node id="-307351" lat="61.035772221" lon="10.8496027788">
		<tag k="name" v="Uroligsandsbekken" />
		<tag k="ssr:stedsnr" v="222377" />
		<tag k="waterway" v="stream" />
	</node>
	<node id="-308761" lat="61.1697138867" lon="10.6808916576">
		<tag k="alt_name" v="Lunken, store" />
		<tag k="name" v="Store Lunken" />
		<tag k="natural" v="water" />
		<tag k="ssr:stedsnr" v="8891" />
	</node>
	<node id="-308505" lat="61.1946694438" lon="10.7661166729">
		<tag k="name" v="Maritlona" />
		<tag k="ssr:stedsnr" v="918622" />
		<tag k="waterway" v="stream" />
	</node>
	<node id="-309392" lat="61.0129555528" lon="10.8536166614">
		<tag k="name" v="Rådalsbekken" />
		<tag k="ssr:stedsnr" v="360296" />
		<tag k="waterway" v="stream" />
	</node>
	<node id="-309016" lat="61.0143805578" lon="10.6363638844">
		<tag k="name" v="Hølbekkene" />
		<tag k="ssr:stedsnr" v="129746" />
		<tag k="waterway" v="stream" />
	</node>
	<node id="-308878" lat="61.0645833369" lon="10.6466277845">
		<tag k="name" v="Mysuholta" />
		<tag k="ssr:stedsnr" v="68831" />
		<tag k="waterway" v="stream" />
	</node>
	<node id="-309901" lat="61.2299055517" lon="10.8304638946">
		<tag k="name" v="Åsta" />
		<tag k="ssr:stedsnr" v="736725" />
		<tag k="waterway" v="river" />
	</node>
	<node id="-309388" lat="61.1569000042" lon="10.6544305588">
		<tag k="name" v="Heståsbekken" />
		<tag k="ssr:stedsnr" v="359633" />
		<tag k="waterway" v="stream" />
	</node>
	<node id="-309897" lat="61.0406694433" lon="11.0378027747">
		<tag k="alt_name" v="Veltbekken" />
		<tag k="name" v="Veslebekken" />
		<tag k="ssr:stedsnr" v="736576" />
		<tag k="waterway" v="stream" />
	</node>
	<node id="-308126" lat="60.9854138914" lon="11.0470805598">
		<tag k="name" v="Rotfarbekken" />
		<tag k="ssr:stedsnr" v="688013" />
		<tag k="waterway" v="stream" />
	</node>
	<node id="-307847" lat="61.1791999966" lon="10.8569249943">
		<tag k="name" v="Grunnbekken" />
		<tag k="ssr:stedsnr" v="493552" />
		<tag k="waterway" v="stream" />
	</node>
	<node id="-307846" lat="61.1722083317" lon="10.8207166656">
		<tag k="alt_name" v="Travelbekken" />
		<tag k="name" v="Trevlebekken" />
		<tag k="ssr:stedsnr" v="493540" />
		<tag k="waterway" v="stream" />
	</node>
	<node id="-307843" lat="61.1345492614" lon="10.8668714536">
		<tag k="name" v="Store Ljøsvatnet" />
		<tag k="natural" v="water" />
		<tag k="old_name" v="Ljosvatnet, store;Store Ljosvatnet" />
		<tag k="ssr:stedsnr" v="493519" />
		<tag k="water" v="lake" />
	</node>
	<node id="-308354" lat="61.1584138846" lon="10.9227277712">
		<tag k="name" v="Åkersætertjernet" />
>>>>>>> e1d4bc35ff8a6074a6f2e91616a996b547c36f15
		<tag k="natural" v="water" />
		<tag k="ssr:stedsnr" v="371678" />
	</node>
<<<<<<< HEAD
	<node lat="61.08910000135181" lon="10.890216668393334" id="-30399">
		<tag k="name" v="Ljøsåa" />
		<tag k="ssr:stedsnr" v="371487" />
		<tag k="waterway" v="river" />
	</node>
	<node lat="61.18619987479282" lon="10.711866361198236" id="-30411">
		<tag k="name" v="Kroksjøen" />
=======
	<node id="-308353" lat="61.1526277761" lon="10.7333277773">
		<tag k="alt_name" v="Gulbrandbekken;Gulbrandsbekken" />
		<tag k="loc_name" v="Gullrandbekken" />
		<tag k="name" v="Gulrandbekken" />
		<tag k="ssr:stedsnr" v="675555" />
		<tag k="waterway" v="stream" />
	</node>
	<node id="-309376" lat="60.9784833369" lon="10.6867527733">
		<tag k="name" v="Øksna" />
		<tag k="ssr:stedsnr" v="345339" />
		<tag k="waterway" v="stream" />
	</node>
	<node id="-308863" lat="61.1358388857" lon="10.8868500082">
		<tag k="name" v="Steintjernet" />
>>>>>>> e1d4bc35ff8a6074a6f2e91616a996b547c36f15
		<tag k="natural" v="water" />
		<tag k="ssr:stedsnr" v="371935" />
		<tag k="water" v="lake" />
	</node>
	<node lat="60.79822499745141" lon="10.914205559837226" id="-30438">
		<tag k="alt_name" v="Gålåstjennet" />
		<tag k="name" v="Gålåstjernet" />
		<tag k="natural" v="water" />
		<tag k="ssr:stedsnr" v="373472" />
	</node>
	<node lat="60.80836388841739" lon="10.795369436953933" id="-30439">
		<tag k="alt_name" v="Herstadtjennet" />
		<tag k="name" v="Herstadtjernet" />
		<tag k="natural" v="water" />
		<tag k="ssr:stedsnr" v="373484" />
	</node>
<<<<<<< HEAD
	<node lat="61.03773333536803" lon="10.843319438725853" id="-30449">
		<tag k="name" v="Sisselbekken" />
		<tag k="ssr:stedsnr" v="404364" />
		<tag k="waterway" v="stream" />
	</node>
	<node lat="60.97807222468302" lon="10.920736112239982" id="-30455">
		<tag k="name" v="Igleputten" />
		<tag k="natural" v="water" />
		<tag k="ssr:stedsnr" v="406328" />
		<tag k="water" v="pond" />
	</node>
	<node lat="61.06711111022532" lon="10.890813884032418" id="-30487">
		<tag k="name" v="Gåstjernet" />
		<tag k="natural" v="water" />
		<tag k="ssr:stedsnr" v="432595" />
	</node>
	<node lat="61.19763055583744" lon="10.794400008093493" id="-30489">
		<tag k="name" v="Aksjøbekken" />
		<tag k="ssr:stedsnr" v="433545" />
		<tag k="waterway" v="stream" />
	</node>
	<node lat="61.02303333076762" lon="10.733080561945622" id="-30490">
		<tag k="name" v="Haugsvebekken" />
		<tag k="ssr:stedsnr" v="433565" />
		<tag k="waterway" v="stream" />
	</node>
	<node lat="60.87250555226515" lon="10.90109999087044" id="-30499">
		<tag k="name" v="Kvarbergvika" />
		<tag k="natural" v="bay" />
		<tag k="ssr:stedsnr" v="434284" />
	</node>
	<node lat="60.9727591165086" lon="10.729884114138274" id="-30506">
		<tag k="name" v="Kinntjernet" />
=======
	<node id="-308862" lat="61.1629194479" lon="10.9905750052">
		<tag k="name" v="Stalsbergtjernet" />
		<tag k="natural" v="water" />
		<tag k="ssr:stedsnr" v="59266" />
	</node>
	<node id="-307325" lat="61.2440444417" lon="10.7616972257">
		<tag k="name" v="Augbekken" />
		<tag k="ssr:stedsnr" v="8743" />
		<tag k="waterway" v="stream" />
	</node>
	<node id="-309884" lat="61.0118138926" lon="10.938955554">
		<tag k="name" v="Aursmotjernsbekken" />
		<tag k="ssr:stedsnr" v="648366" />
		<tag k="waterway" v="stream" />
	</node>
	<node id="-308859" lat="61.0018194428" lon="10.7333583306">
		<tag k="name" v="Kongssundbekken" />
		<tag k="ssr:stedsnr" v="58601" />
		<tag k="waterway" v="stream" />
	</node>
	<node id="-308346" lat="61.0664500016" lon="10.5290805499">
		<tag k="alt_name" v="Kroktjennet" />
		<tag k="name" v="Kroktjernet" />
>>>>>>> e1d4bc35ff8a6074a6f2e91616a996b547c36f15
		<tag k="natural" v="water" />
		<tag k="ssr:stedsnr" v="434131" />
	</node>
<<<<<<< HEAD
	<node lat="60.79482499996124" lon="10.864333335486174" id="-30527">
		<tag k="alt_name" v="Gårumtjennet" />
		<tag k="name" v="Gorumtjernet" />
=======
	<node id="-307317" lat="61.0734833305" lon="10.6841444447">
		<tag k="alt_name" v="Olasvetjennet" />
		<tag k="name" v="Olasvetjernet" />
>>>>>>> e1d4bc35ff8a6074a6f2e91616a996b547c36f15
		<tag k="natural" v="water" />
		<tag k="ssr:stedsnr" v="434453" />
	</node>
<<<<<<< HEAD
	<node lat="60.90655555942351" lon="10.690374995818974" id="-30532">
		<tag k="name" v="Steinsborga" />
		<tag k="place" v="islet" />
		<tag k="ssr:stedsnr" v="434841" />
	</node>
	<node lat="61.07544167024506" lon="11.057344437813327" id="-30538">
		<tag k="name" v="Nordre Kråktjernet" />
		<tag k="natural" v="water" />
		<tag k="ssr:stedsnr" v="525192" />
	</node>
	<node lat="60.94574444533647" lon="10.69398611788808" id="-30542">
		<tag k="name" v="Smestadbekken" />
		<tag k="ssr:stedsnr" v="525339" />
		<tag k="waterway" v="stream" />
	</node>
	<node lat="60.91144444179564" lon="10.695691668420956" id="-30554">
		<tag k="name" v="Korgerstuodden" />
		<tag k="natural" v="cape" />
		<tag k="ssr:stedsnr" v="526330" />
	</node>
	<node lat="60.806722222363085" lon="10.973777786783824" id="-30555">
		<tag k="name" v="Flåtvika" />
		<tag k="natural" v="bay" />
		<tag k="ssr:stedsnr" v="527479" />
	</node>
	<node lat="60.996591665294375" lon="11.057861113961652" id="-30570">
		<tag k="name" v="Sandholbekken" />
		<tag k="ssr:stedsnr" v="542045" />
		<tag k="waterway" v="stream" />
	</node>
	<node lat="61.100061112378036" lon="10.953055554570792" id="-30584">
		<tag k="name" v="Glebekken" />
		<tag k="ssr:stedsnr" v="544432" />
		<tag k="waterway" v="stream" />
	</node>
	<node lat="61.046519447169395" lon="10.543066661691677" id="-30598">
		<tag k="alt_name" v="Igletjenn" />
		<tag k="name" v="Igletjernet" />
		<tag k="natural" v="water" />
		<tag k="ssr:stedsnr" v="553671" />
	</node>
	<node lat="61.14777500275818" lon="10.792375008860967" id="-30607">
		<tag k="name" v="Grasbekken" />
		<tag k="ssr:stedsnr" v="554568" />
		<tag k="waterway" v="stream" />
	</node>
	<node lat="60.851927776834685" lon="10.75530000368794" id="-30619">
		<tag k="alt_name" v="Tjernetjennet" />
		<tag k="name" v="Tjernetjernet" />
		<tag k="natural" v="water" />
		<tag k="ssr:stedsnr" v="555331" />
	</node>
	<node lat="60.92965555341164" lon="10.732833340747915" id="-30624">
		<tag k="name" v="Svarttjern" />
=======
	<node id="-309885" lat="61.0047499956" lon="10.9160972196">
		<tag k="name" v="Ellungstjernsbekken" />
		<tag k="ssr:stedsnr" v="648368" />
		<tag k="waterway" v="stream" />
	</node>
	<node id="-308504" lat="61.2021150188" lon="10.7877202734">
		<tag k="alt_name" v="Steintjernet" />
		<tag k="name" v="Steintjerna" />
		<tag k="natural" v="water" />
		<tag k="ssr:stedsnr" v="918621" />
		<tag k="water" v="lake" />
	</node>
	<node id="-309011" lat="61.0262250025" lon="10.9855027747">
		<tag k="name" v="Verkensbekken" />
		<tag k="ssr:stedsnr" v="129583" />
		<tag k="waterway" v="stream" />
	</node>
	<node id="-307816" lat="61.2316583316" lon="10.7667611054">
		<tag k="name" v="Svartvadbekken" />
		<tag k="ssr:stedsnr" v="359609" />
		<tag k="waterway" v="stream" />
	</node>
	<node id="-308841" lat="61.1296083325" lon="10.8026027758">
		<tag k="name" v="Bubekken" />
		<tag k="ssr:stedsnr" v="57250" />
		<tag k="waterway" v="stream" />
	</node>
	<node id="-309382" lat="60.743355558" lon="10.9173249923">
		<tag k="name" v="Hornsodden" />
		<tag k="natural" v="cape" />
		<tag k="ssr:stedsnr" v="345845" />
	</node>
	<node id="-308844" lat="61.2104249979" lon="10.8784388905">
		<tag k="name" v="Nedre Svartbekktjernet" />
		<tag k="natural" v="water" />
		<tag k="ssr:stedsnr" v="57434" />
	</node>
	<node id="-309355" lat="60.8357331903" lon="10.9773115746">
		<tag k="name" v="Mælumsvika" />
		<tag k="natural" v="water" />
		<tag k="ssr:stedsnr" v="343426" />
	</node>
	<node id="-309865" lat="60.8973472189" lon="11.0176166739">
		<tag k="name" v="Svartbekken" />
		<tag k="ssr:stedsnr" v="646239" />
		<tag k="waterway" v="stream" />
	</node>
	<node id="-308328" lat="61.0794027783" lon="10.5789333398">
		<tag k="name" v="Puttjernet" />
		<tag k="natural" v="water" />
		<tag k="ssr:stedsnr" v="735813" />
	</node>
	<node id="-308839" lat="61.0325833346" lon="10.9137694535">
		<tag k="name" v="Bergsbutjernsmyra" />
		<tag k="ssr:stedsnr" v="55794" />
		<tag k="waterway" v="stream" />
	</node>
	<node id="-309350" lat="60.9557749963" lon="10.8834277696">
		<tag k="name" v="Skogputten" />
>>>>>>> e1d4bc35ff8a6074a6f2e91616a996b547c36f15
		<tag k="natural" v="water" />
		<tag k="ssr:stedsnr" v="555160" />
	</node>
<<<<<<< HEAD
	<node lat="60.92829830656279" lon="10.681991288122218" id="-30634">
		<tag k="name" v="Tjuvholmen" />
		<tag k="place" v="islet" />
		<tag k="ssr:stedsnr" v="555825" />
	</node>
	<node lat="61.07096944349075" lon="10.86617499861153" id="-30643">
		<tag k="name" v="Vivelstjernet" />
		<tag k="natural" v="water" />
		<tag k="ssr:stedsnr" v="585364" />
	</node>
	<node lat="60.86472500300189" lon="10.7968583261352" id="-30661">
		<tag k="name" v="Gaupa" />
		<tag k="ssr:stedsnr" v="588132" />
		<tag k="waterway" v="stream" />
	</node>
	<node lat="61.09990555311203" lon="10.81098333058787" id="-30669">
		<tag k="name" v="Bjørlykkjebekken" />
		<tag k="ssr:stedsnr" v="601715" />
		<tag k="waterway" v="stream" />
	</node>
	<node lat="61.09267499813569" lon="10.631391658167772" id="-30692">
		<tag k="alt_name" v="Botshaugtjennet" />
		<tag k="name" v="Botshaugtjernet" />
		<tag k="natural" v="water" />
		<tag k="ssr:stedsnr" v="613764" />
		<tag k="water" v="lake" />
	</node>
	<node lat="61.11209444646335" lon="11.03202777365815" id="-30694">
		<tag k="name" v="Kråleråa" />
		<tag k="ssr:stedsnr" v="614522" />
		<tag k="waterway" v="stream" />
	</node>
	<node lat="61.133302787317234" lon="10.84947448305588" id="-30695">
		<tag k="name" v="Vesle Ljøsvatnet" />
		<tag k="natural" v="water" />
		<tag k="old_name" v="Ljosvatnet, vesle" />
		<tag k="ssr:stedsnr" v="614525" />
	</node>
	<node lat="61.14983055321557" lon="10.849680546492975" id="-30700">
		<tag k="name" v="Sjurdsvika" />
		<tag k="natural" v="bay" />
		<tag k="ssr:stedsnr" v="614548" />
	</node>
	<node lat="61.03764999662916" lon="10.69169999342116" id="-30702">
		<tag k="name" v="Kvernbekken" />
		<tag k="ssr:stedsnr" v="614639" />
		<tag k="waterway" v="stream" />
	</node>
	<node lat="61.2984277767767" lon="10.821447221430095" id="-30704">
		<tag k="name" v="Skolla" />
		<tag k="ssr:stedsnr" v="614746" />
		<tag k="waterway" v="stream" />
	</node>
	<node lat="61.04097499756679" lon="10.592922226400413" id="-30707">
=======
	<node id="-310033" lat="61.092025004" lon="11.0047611169">
		<tag k="name" v="Prestsæterbekken" />
		<tag k="ssr:stedsnr" v="796517" />
		<tag k="waterway" v="stream" />
	</node>
	<node id="-308838" lat="61.1015055538" lon="10.7242527863">
		<tag k="name" v="Syljubekken" />
		<tag k="ssr:stedsnr" v="55683" />
		<tag k="waterway" v="stream" />
	</node>
	<node id="-308350" lat="61.0868833361" lon="10.7196583289">
		<tag k="name" v="Lortholmen" />
		<tag k="place" v="islet" />
		<tag k="ssr:stedsnr" v="675521" />
	</node>
	<node id="-308496" lat="61.1160388866" lon="10.9362638898">
		<tag k="name" v="Koltjernet" />
		<tag k="natural" v="water" />
		<tag k="ssr:stedsnr" v="917497" />
	</node>
	<node id="-308318" lat="61.0270319765" lon="11.1140154535">
		<tag k="name" v="Brumundsjøen" />
		<tag k="natural" v="water" />
		<tag k="ssr:stedsnr" v="735290" />
		<tag k="water" v="lake" />
	</node>
	<node id="-308837" lat="60.9796861137" lon="11.0227944505">
		<tag k="name" v="Grønbekken" />
		<tag k="ssr:stedsnr" v="55044" />
		<tag k="waterway" v="stream" />
	</node>
	<node id="-309434" lat="61.1861998748" lon="10.7118663612">
		<tag k="name" v="Kroksjøen" />
		<tag k="natural" v="water" />
		<tag k="ssr:stedsnr" v="371935" />
		<tag k="water" v="lake" />
	</node>
	<node id="-309336" lat="60.9702666636" lon="10.6530499973">
		<tag k="name" v="Bergsodden" />
		<tag k="natural" v="cape" />
		<tag k="ssr:stedsnr" v="313819" />
	</node>
	<node id="-308823" lat="60.9969249991" lon="10.9648916665">
		<tag k="name" v="Sagdammen" />
		<tag k="ssr:stedsnr" v="40176" />
		<tag k="waterway" v="dam" />
	</node>
	<node id="-308820" lat="60.9497972231" lon="10.6764333414">
		<tag k="name" v="Vessvika" />
		<tag k="natural" v="bay" />
		<tag k="ssr:stedsnr" v="40336" />
	</node>
	<node id="-308306" lat="60.9043583299" lon="11.0558277817">
		<tag k="name" v="Viubekken" />
		<tag k="ssr:stedsnr" v="627091" />
		<tag k="waterway" v="stream" />
	</node>
	<node id="-308835" lat="60.8137888877" lon="10.8025277841">
		<tag k="name" v="Ileputten" />
		<tag k="natural" v="water" />
		<tag k="ssr:stedsnr" v="55042" />
	</node>
	<node id="-308295" lat="60.9069750019" lon="10.9094777864">
		<tag k="name" v="Tverrbekken" />
		<tag k="ssr:stedsnr" v="725496" />
		<tag k="waterway" v="stream" />
	</node>
	<node id="-308332" lat="61.0911333297" lon="10.5862138894">
		<tag k="name" v="Farlibakputten" />
		<tag k="natural" v="water" />
		<tag k="ssr:stedsnr" v="662057" />
		<tag k="water" v="pond" />
	</node>
	<node id="-309317" lat="60.9976888933" lon="10.66440834">
		<tag k="name" v="Persvetjernet" />
		<tag k="natural" v="water" />
		<tag k="ssr:stedsnr" v="312692" />
	</node>
	<node id="-307638" lat="61.033424996" lon="11.1039111176">
		<tag k="name" v="Badholmen" />
		<tag k="place" v="islet" />
		<tag k="ssr:stedsnr" v="283890" />
	</node>
	<node id="-309900" lat="61.0486583364" lon="10.5122777837">
		<tag k="alt_name" v="Hallatjennet" />
		<tag k="name" v="Hallatjernet" />
		<tag k="natural" v="water" />
		<tag k="ssr:stedsnr" v="736672" />
	</node>
	<node id="-307803" lat="60.8749416674" lon="10.8971027716">
		<tag k="name" v="Kvarbergvika" />
		<tag k="natural" v="bay" />
		<tag k="ssr:stedsnr" v="483995" />
	</node>
	<node id="-309309" lat="60.8389249957" lon="10.9185361183">
		<tag k="name" v="Nerliholmen" />
		<tag k="place" v="islet" />
		<tag k="ssr:stedsnr" v="312378" />
	</node>
	<node id="-307953" lat="61.0377333354" lon="10.8433194387">
		<tag k="name" v="Sisselbekken" />
		<tag k="ssr:stedsnr" v="404364" />
		<tag k="waterway" v="stream" />
	</node>
	<node id="-308794" lat="60.8352249974" lon="10.8744000004">
		<tag k="alt_name" v="Haugtjennet" />
		<tag k="name" v="Haugtjernet" />
		<tag k="natural" v="water" />
		<tag k="ssr:stedsnr" v="9382" />
	</node>
	<node id="-307807" lat="61.0967166696" lon="10.9402222172">
		<tag k="name" v="Glebekken" />
		<tag k="ssr:stedsnr" v="484397" />
		<tag k="waterway" v="stream" />
	</node>
	<node id="-309304" lat="60.8738499971" lon="10.7421305644">
		<tag k="name" v="Saustadvika" />
		<tag k="natural" v="bay" />
		<tag k="ssr:stedsnr" v="312319" />
	</node>
	<node id="-308502" lat="61.2084230261" lon="10.7699823255">
		<tag k="name" v="Aksjøen" />
		<tag k="natural" v="water" />
		<tag k="ssr:stedsnr" v="918614" />
		<tag k="water" v="lake" />
	</node>
	<node id="-308277" lat="60.8141012678" lon="10.8311716961">
		<tag k="name" v="Stavsjøen" />
		<tag k="natural" v="water" />
		<tag k="ssr:stedsnr" v="616449" />
		<tag k="water" v="lake" />
	</node>
	<node id="-307854" lat="61.0690999955" lon="11.0405000061">
		<tag k="name" v="Kråketjerna" />
		<tag k="natural" v="water" />
		<tag k="ssr:stedsnr" v="493617" />
	</node>
	<node id="-308911" lat="60.9671611082" lon="11.0464000077">
		<tag k="name" v="Svartdalsbekken" />
		<tag k="ssr:stedsnr" v="70128" />
		<tag k="waterway" v="stream" />
	</node>
	<node id="-309269" lat="61.2222646643" lon="10.9404979402">
		<tag k="name" v="Øyungen" />
		<tag k="natural" v="water" />
		<tag k="ssr:stedsnr" v="311753" />
		<tag k="water" v="lake" />
	</node>
	<node id="-309627" lat="60.9965916653" lon="11.057861114">
		<tag k="name" v="Sandholbekken" />
		<tag k="ssr:stedsnr" v="542045" />
		<tag k="waterway" v="stream" />
	</node>
	<node id="-307421" lat="60.9984833295" lon="10.8587138906">
		<tag k="name" v="Ringsrudbekken" />
		<tag k="ssr:stedsnr" v="239314" />
		<tag k="waterway" v="stream" />
	</node>
	<node id="-308269" lat="60.8360000007" lon="10.9406055589">
		<tag k="name" v="Furnesfjorden" />
		<tag k="natural" v="bay" />
		<tag k="ssr:stedsnr" v="615378" />
	</node>
	<node id="-309804" lat="61.2984277768" lon="10.8214472214">
		<tag k="name" v="Skolla" />
		<tag k="ssr:stedsnr" v="614746" />
		<tag k="waterway" v="stream" />
	</node>
	<node id="-309802" lat="61.0611999965" lon="10.5519222216">
		<tag k="alt_name" v="Sandbakktjennet" />
		<tag k="name" v="Sandbakktjernet" />
		<tag k="natural" v="water" />
		<tag k="ssr:stedsnr" v="614708" />
	</node>
	<node id="-307463" lat="60.8190638853" lon="10.7149749911">
		<tag k="name" v="Tangnesodden" />
		<tag k="natural" v="cape" />
		<tag k="ssr:stedsnr" v="70946" />
	</node>
	<node id="-307752" lat="60.8280045832" lon="10.8652400085">
		<tag k="alt_name" v="Haugomtjennet" />
		<tag k="name" v="Haugomtjernet" />
		<tag k="natural" v="water" />
		<tag k="ssr:stedsnr" v="298867" />
	</node>
	<node id="-307990" lat="61.2324055552" lon="10.8034805493">
		<tag k="name" v="Storstilbekken" />
		<tag k="ssr:stedsnr" v="433702" />
		<tag k="waterway" v="stream" />
	</node>
	<node id="-309798" lat="61.0409749976" lon="10.5929222264">
>>>>>>> e1d4bc35ff8a6074a6f2e91616a996b547c36f15
		<tag k="alt_name" v="Erstjennet" />
		<tag k="name" v="Erstjernet" />
		<tag k="natural" v="water" />
		<tag k="ssr:stedsnr" v="614672" />
<<<<<<< HEAD
=======
	</node>
	<node id="-308772" lat="60.9908527797" lon="10.9061249928">
		<tag k="name" v="Ellungstjernet" />
		<tag k="natural" v="water" />
		<tag k="ssr:stedsnr" v="9090" />
	</node>
	<node id="-309795" lat="61.0376499966" lon="10.6916999934">
		<tag k="name" v="Kvernbekken" />
		<tag k="ssr:stedsnr" v="614639" />
		<tag k="waterway" v="stream" />
	</node>
	<node id="-309282" lat="60.9505611101" lon="10.812777778">
		<tag k="name" v="Koloa" />
		<tag k="ssr:stedsnr" v="312147" />
		<tag k="waterway" v="stream" />
	</node>
	<node id="-308257" lat="61.1810999993" lon="10.9382277852">
		<tag k="name" v="Øyungsåa" />
		<tag k="ssr:stedsnr" v="614563" />
		<tag k="waterway" v="river" />
	</node>
	<node id="-309792" lat="61.2040694442" lon="10.7427472263">
		<tag k="name" v="Presttjernet" />
		<tag k="natural" v="water" />
		<tag k="ssr:stedsnr" v="614573" />
	</node>
	<node id="-307743" lat="61.2407694472" lon="10.8286611041">
		<tag k="name" v="Geitbutjernet" />
		<tag k="natural" v="water" />
		<tag k="ssr:stedsnr" v="464290" />
	</node>
	<node id="-309790" lat="61.1498305532" lon="10.8496805465">
		<tag k="name" v="Sjurdsvika" />
		<tag k="natural" v="bay" />
		<tag k="ssr:stedsnr" v="614548" />
	</node>
	<node id="-308741" lat="61.0110833339" lon="10.7083250045">
		<tag k="name" v="Årnesodden" />
		<tag k="natural" v="cape" />
		<tag k="ssr:stedsnr" v="7708" />
	</node>
	<node id="-308764" lat="60.8613111079" lon="10.8069249959">
		<tag k="alt_name" v="Saugstjennet" />
		<tag k="name" v="Sautjernet" />
		<tag k="natural" v="water" />
		<tag k="ssr:stedsnr" v="9343" />
	</node>
	<node id="-309275" lat="60.9892" lon="10.9462749923">
		<tag k="name" v="Bjørndalsbekken" />
		<tag k="ssr:stedsnr" v="312099" />
		<tag k="waterway" v="stream" />
	</node>
	<node id="-309785" lat="61.1333027873" lon="10.8494744831">
		<tag k="name" v="Vesle Ljøsvatnet" />
		<tag k="natural" v="water" />
		<tag k="old_name" v="Ljosvatnet, vesle" />
		<tag k="ssr:stedsnr" v="614525" />
	</node>
	<node id="-308160" lat="61.1477750028" lon="10.7923750089">
		<tag k="name" v="Grasbekken" />
		<tag k="ssr:stedsnr" v="554568" />
		<tag k="waterway" v="stream" />
	</node>
	<node id="-309271" lat="61.0259750013" lon="10.6807499966">
		<tag k="name" v="Storholmane" />
		<tag k="place" v="islet" />
		<tag k="ssr:stedsnr" v="311789" />
	</node>
	<node id="-309782" lat="61.0987499973" lon="10.8287750057">
		<tag k="name" v="Bergunda" />
		<tag k="ssr:stedsnr" v="614516" />
		<tag k="waterway" v="stream" />
	</node>
	<node id="-309781" lat="61.1025750022" lon="10.8729111118">
		<tag k="name" v="Blekabekken" />
		<tag k="ssr:stedsnr" v="614513" />
		<tag k="waterway" v="stream" />
	</node>
	<node id="-307980" lat="61.0118111108" lon="10.696874991">
		<tag k="name" v="Ekornholmen" />
		<tag k="place" v="islet" />
		<tag k="ssr:stedsnr" v="432708" />
	</node>
	<node id="-308282" lat="61.0338555524" lon="10.9270972207">
		<tag k="name" v="Hestfløytmyra" />
		<tag k="ssr:stedsnr" v="722829" />
		<tag k="waterway" v="stream" />
	</node>
	<node id="-309777" lat="61.0926749981" lon="10.6313916582">
		<tag k="alt_name" v="Botshaugtjennet" />
		<tag k="name" v="Botshaugtjernet" />
		<tag k="natural" v="water" />
		<tag k="ssr:stedsnr" v="613764" />
		<tag k="water" v="lake" />
	</node>
	<node id="-310001" lat="61.1200972258" lon="10.6372111145">
		<tag k="name" v="Tjuruverkvika" />
		<tag k="natural" v="bay" />
		<tag k="ssr:stedsnr" v="784611" />
	</node>
	<node id="-308750" lat="61.1849138893" lon="10.8366861153">
		<tag k="name" v="Hestbekken" />
		<tag k="ssr:stedsnr" v="8569" />
		<tag k="waterway" v="stream" />
	</node>
	<node id="-307922" lat="61.0612555584" lon="10.5330250087">
		<tag k="name" v="Demmtjernet" />
		<tag k="natural" v="water" />
		<tag k="ssr:stedsnr" v="371678" />
	</node>
	<node id="-308226" lat="60.864725003" lon="10.7968583261">
		<tag k="name" v="Gaupa" />
		<tag k="ssr:stedsnr" v="588132" />
		<tag k="waterway" v="stream" />
	</node>
	<node id="-307989" lat="61.1976305558" lon="10.7944000081">
		<tag k="name" v="Aksjøbekken" />
		<tag k="ssr:stedsnr" v="433545" />
		<tag k="waterway" v="stream" />
	</node>
	<node id="-308744" lat="61.0320000011" lon="10.6527277798">
		<tag k="alt_name" v="Lontjennet" />
		<tag k="name" v="Lontjernet" />
		<tag k="natural" v="water" />
		<tag k="ssr:stedsnr" v="7720" />
	</node>
	<node id="-308743" lat="61.0241083341" lon="10.4889083409">
		<tag k="name" v="Bekkodden" />
		<tag k="natural" v="cape" />
		<tag k="ssr:stedsnr" v="7715" />
	</node>
	<node id="-307324" lat="61.2371916646" lon="10.8821083241">
		<tag k="name" v="Skvaldra" />
		<tag k="ssr:stedsnr" v="8741" />
		<tag k="waterway" v="stream" />
	</node>
	<node id="-309253" lat="61.0753694472" lon="10.5423111154">
		<tag k="name" v="Svartbekken" />
		<tag k="ssr:stedsnr" v="311515" />
		<tag k="waterway" v="stream" />
	</node>
	<node id="-309796" lat="61.0308055538" lon="10.5803027837">
		<tag k="name" v="Kinntjernet" />
		<tag k="natural" v="water" />
		<tag k="ssr:stedsnr" v="614652" />
	</node>
	<node id="-308738" lat="61.0275500005" lon="10.9197416697">
		<tag k="name" v="Bergsbutjernet" />
		<tag k="natural" v="water" />
		<tag k="ssr:stedsnr" v="6610" />
	</node>
	<node id="-307713" lat="61.0280222212" lon="10.9442444428">
		<tag k="name" v="Bergsbutjernbekken" />
		<tag k="ssr:stedsnr" v="298785" />
		<tag k="waterway" v="stream" />
>>>>>>> e1d4bc35ff8a6074a6f2e91616a996b547c36f15
	</node>
</osm>
