<?xml version="1.0" encoding="UTF-8"?>
<osm version="0.6" generator="osmapis">
	<node lat="60.95882500412068" lon="11.022455563451134" id="-44138">
		<tag k="name" v="Lerdalen" />
		<tag k="natural" v="valley" />
		<tag k="place" v="locality" />
		<tag k="ssr:stedsnr" v="21102" />
	</node>
	<node lat="61.01954999673847" lon="10.85532777363654" id="-44158">
		<tag k="name" v="Rådalshøgda" />
		<tag k="natural" v="hill" />
		<tag k="place" v="locality" />
		<tag k="ssr:stedsnr" v="40414" />
	</node>
	<node lat="60.994772219471045" lon="10.989158329713135" id="-44160">
		<tag k="name" v="Stormyrstrypa" />
		<tag k="natural" v="valley" />
		<tag k="place" v="locality" />
		<tag k="ssr:stedsnr" v="237065" />
	</node>
	<node lat="61.103041667460054" lon="10.605902775561361" id="-44169">
		<tag k="name" v="Tjuvdalen" />
		<tag k="natural" v="valley" />
		<tag k="place" v="locality" />
		<tag k="ssr:stedsnr" v="238614" />
	</node>
	<node lat="60.991430554701935" lon="10.884100007741559" id="-44216">
		<tag k="fixme" v="consider natural=peak for the most distinct mountains in the district" />
		<tag k="name" v="Danseråsen" />
		<tag k="natural" v="hill" />
		<tag k="place" v="locality" />
		<tag k="ssr:stedsnr" v="70103" />
	</node>
	<node lat="60.9917250011015" lon="10.987163895977336" id="-44240">
		<tag k="name" v="Raudhella" />
		<tag k="natural" v="hill" />
		<tag k="place" v="locality" />
		<tag k="ssr:stedsnr" v="82006" />
	</node>
	<node lat="61.085177777533744" lon="10.881027782132135" id="-44254">
		<tag k="name" v="Velt-Blekahaugen" />
		<tag k="natural" v="hill" />
		<tag k="place" v="locality" />
		<tag k="ssr:stedsnr" v="100382" />
	</node>
	<node lat="60.88078333687783" lon="10.806580551096296" id="-44258">
		<tag k="name" v="Farbergshøgda" />
		<tag k="natural" v="hill" />
		<tag k="place" v="locality" />
		<tag k="ssr:stedsnr" v="101121" />
	</node>
	<node lat="61.13920278225273" lon="10.755102774315382" id="-44285">
		<tag k="fixme" v="consider natural=peak for the most distinct mountains in the district" />
		<tag k="name" v="Sollifjellet" />
		<tag k="natural" v="hill" />
		<tag k="place" v="locality" />
		<tag k="ssr:stedsnr" v="250525" />
	</node>
	<node lat="61.18867500328713" lon="10.85859721907695" id="-44286">
		<tag k="name" v="Åstdalen" />
		<tag k="natural" v="valley" />
		<tag k="place" v="locality" />
		<tag k="ssr:stedsnr" v="250535" />
	</node>
	<node lat="61.16478889078907" lon="10.70120832896027" id="-44300">
		<tag k="fixme" v="consider natural=peak for the most distinct mountains in the district" />
		<tag k="name" v="Storåsen" />
		<tag k="natural" v="hill" />
		<tag k="place" v="locality" />
		<tag k="ssr:stedsnr" v="250892" />
	</node>
	<node lat="60.98105000425298" lon="10.874075006476502" id="-44328">
		<tag k="fixme" v="consider natural=peak for the most distinct mountains in the district" />
		<tag k="name" v="Haukåsen" />
		<tag k="natural" v="hill" />
		<tag k="place" v="locality" />
		<tag k="ssr:stedsnr" v="252096" />
	</node>
	<node lat="60.82877500004032" lon="10.831683335443072" id="-44361">
		<tag k="fixme" v="consider natural=peak for the most distinct mountains in the district" />
		<tag k="name" v="Solbergåsen" />
		<tag k="natural" v="hill" />
		<tag k="place" v="locality" />
		<tag k="ssr:stedsnr" v="252373" />
	</node>
	<node lat="60.965583337377275" lon="11.039516671134622" id="-44410">
		<tag k="name" v="Svartdalen" />
		<tag k="natural" v="valley" />
		<tag k="place" v="locality" />
		<tag k="ssr:stedsnr" v="163465" />
	</node>
	<node lat="61.07975000331547" lon="10.608302786237903" id="-44431">
		<tag k="fixme" v="consider natural=peak for the most distinct mountains in the district" />
		<tag k="name" v="Manenghaugen" />
		<tag k="natural" v="hill" />
		<tag k="place" v="locality" />
		<tag k="ssr:stedsnr" v="180321" />
	</node>
	<node lat="60.84758746535546" lon="10.893531054196384" id="-44436">
		<tag k="fixme" v="consider natural=peak for the most distinct mountains in the district" />
		<tag k="name" v="Bangsberget" />
		<tag k="natural" v="hill" />
		<tag k="place" v="locality" />
		<tag k="ssr:stedsnr" v="180972" />
	</node>
	<node lat="60.9859194459755" lon="10.917427777196544" id="-44513">
		<tag k="fixme" v="consider natural=peak for the most distinct mountains in the district" />
		<tag k="name" v="Høgbrenna" />
		<tag k="natural" v="hill" />
		<tag k="place" v="locality" />
		<tag k="ssr:stedsnr" v="263001" />
	</node>
	<node lat="61.015202777856366" lon="11.079027773405866" id="-44534">
		<tag k="fixme" v="consider natural=peak for the most distinct mountains in the district" />
		<tag k="name" v="Kaiberget" />
		<tag k="natural" v="hill" />
		<tag k="place" v="locality" />
		<tag k="ssr:stedsnr" v="283904" />
	</node>
	<node lat="61.10133055211106" lon="11.015733333971639" id="-44547">
		<tag k="name" v="Geitryggen" />
		<tag k="natural" v="ridge" />
		<tag k="place" v="locality" />
		<tag k="ssr:stedsnr" v="298186" />
	</node>
	<node lat="61.094886109924786" lon="10.628341663559162" id="-44551">
		<tag k="name" v="Abborberget" />
		<tag k="natural" v="hill" />
		<tag k="place" v="locality" />
		<tag k="ssr:stedsnr" v="298079" />
	</node>
	<node lat="60.784895560351856" lon="10.903731605098079" id="-44556">
		<tag k="name" v="Kaulumsbakken" />
		<tag k="old_name" v="Kaulumsmoen" />
		<tag k="place" v="locality" />
		<tag k="ssr:stedsnr" v="301824" />
	</node>
	<node lat="60.91561110802582" lon="10.740186107610812" id="-44557">
		<tag k="name" v="Pinsberget" />
		<tag k="natural" v="hill" />
		<tag k="place" v="locality" />
		<tag k="ssr:stedsnr" v="301778" />
	</node>
	<node lat="61.16226110692672" lon="10.9738694470399" id="-44561">
		<tag k="name" v="Stalsberglia" />
		<tag k="natural" v="slope" />
		<tag k="place" v="locality" />
		<tag k="ssr:stedsnr" v="302294" />
	</node>
	<node lat="61.05888333185248" lon="10.781836103878632" id="-44577">
		<tag k="name" v="Aslaberget" />
		<tag k="natural" v="hill" />
		<tag k="place" v="locality" />
		<tag k="ssr:stedsnr" v="465666" />
	</node>
	<node lat="60.96648055393641" lon="10.814925001159718" id="-44593">
		<tag k="name" v="Leinvanghøgda" />
		<tag k="natural" v="hill" />
		<tag k="place" v="locality" />
		<tag k="ssr:stedsnr" v="312111" />
	</node>
	<node lat="60.98383333130656" lon="10.908249998171906" id="-44643">
		<tag k="name" v="Styggdalen" />
		<tag k="natural" v="valley" />
		<tag k="place" v="locality" />
		<tag k="ssr:stedsnr" v="345322" />
	</node>
	<node lat="61.1113305545453" lon="10.977736107773088" id="-44654">
		<tag k="fixme" v="consider natural=peak for the most distinct mountains in the district" />
		<tag k="name" v="Hamarsæteråsen" />
		<tag k="natural" v="hill" />
		<tag k="old_name" v="Hammarsæteråsen" />
		<tag k="place" v="locality" />
		<tag k="ssr:stedsnr" v="371503" />
	</node>
	<node lat="61.061900002464434" lon="10.749049998117412" id="-44655">
		<tag k="name" v="Minnberget" />
		<tag k="natural" v="hill" />
		<tag k="place" v="locality" />
		<tag k="ssr:stedsnr" v="371604" />
	</node>
	<node lat="61.03845555266437" lon="10.527661115603685" id="-44698">
		<tag k="name" v="Solbergåsen" />
		<tag k="natural" v="hill" />
		<tag k="place" v="locality" />
		<tag k="ssr:stedsnr" v="482636" />
	</node>
	<node lat="60.8093888902842" lon="10.946808329875635" id="-44701">
		<tag k="name" v="Bukalrudberget" />
		<tag k="natural" v="slope" />
		<tag k="place" v="locality" />
		<tag k="ssr:stedsnr" v="482892" />
	</node>
	<node lat="61.06403333671499" lon="10.627786110554915" id="-44703">
		<tag k="fixme" v="consider natural=peak for the most distinct mountains in the district" />
		<tag k="name" v="Kvitberget" />
		<tag k="natural" v="hill" />
		<tag k="place" v="locality" />
		<tag k="ssr:stedsnr" v="483327" />
	</node>
	<node lat="61.14652222197244" lon="10.666688895435094" id="-44739">
		<tag k="name" v="Søthaugen" />
		<tag k="natural" v="hill" />
		<tag k="place" v="locality" />
		<tag k="ssr:stedsnr" v="421012" />
	</node>
	<node lat="61.1688000025112" lon="10.980238886627365" id="-44779">
		<tag k="fixme" v="consider natural=peak for the most distinct mountains in the district" />
		<tag k="loc_name" v="Nysæteråsen" />
		<tag k="name" v="Stalsberghøgda" />
		<tag k="natural" v="hill" />
		<tag k="place" v="locality" />
		<tag k="ssr:stedsnr" v="433527" />
	</node>
	<node lat="61.15602222443058" lon="10.778327770704244" id="-44780">
		<tag k="name" v="Snørvillen" />
		<tag k="natural" v="hill" />
		<tag k="place" v="locality" />
		<tag k="ssr:stedsnr" v="433530" />
	</node>
	<node lat="60.92752500138561" lon="10.774363884952944" id="-44788">
		<tag k="alt_name" v="Fuglsengberget" />
		<tag k="name" v="Fulseberget" />
		<tag k="natural" v="hill" />
		<tag k="place" v="locality" />
		<tag k="ssr:stedsnr" v="434185" />
	</node>
	<node lat="61.22364999732349" lon="10.915830561118185" id="-44812">
		<tag k="name" v="Danseren" />
		<tag k="natural" v="hill" />
		<tag k="place" v="locality" />
		<tag k="ssr:stedsnr" v="493716" />
	</node>
	<node lat="60.90161389243257" lon="11.07505277325543" id="-44827">
		<tag k="fixme" v="consider natural=peak for the most distinct mountains in the district" />
		<tag k="name" v="Tjernsmyrhøgda" />
		<tag k="natural" v="hill" />
		<tag k="place" v="locality" />
		<tag k="ssr:stedsnr" v="494251" />
	</node>
	<node lat="60.89179999800395" lon="11.001319438364497" id="-44855">
		<tag k="fixme" v="consider natural=peak for the most distinct mountains in the district" />
		<tag k="name" v="Duåsen" />
		<tag k="natural" v="hill" />
		<tag k="place" v="locality" />
		<tag k="ssr:stedsnr" v="465309" />
	</node>
	<node lat="60.999675004436476" lon="10.622438893329456" id="-44873">
		<tag k="fixme" v="consider natural=peak for the most distinct mountains in the district" />
		<tag k="name" v="Biskopåsen" />
		<tag k="natural" v="hill" />
		<tag k="place" v="locality" />
		<tag k="ssr:stedsnr" v="675733" />
	</node>
	<node lat="61.102191664425405" lon="10.625302784051737" id="-44878">
		<tag k="name" v="Kinnsæterhøgda" />
		<tag k="natural" v="hill" />
		<tag k="place" v="locality" />
		<tag k="ssr:stedsnr" v="675777" />
	</node>
	<node lat="60.98466111531267" lon="10.851044441110755" id="-44886">
		<tag k="fixme" v="consider natural=peak for the most distinct mountains in the district" />
		<tag k="name" v="Lauvåsen" />
		<tag k="natural" v="hill" />
		<tag k="place" v="locality" />
		<tag k="ssr:stedsnr" v="677109" />
	</node>
	<node lat="61.258530551794436" lon="10.953697223786588" id="-44888">
		<tag k="alt_name" v="Himmelkampen" />
		<tag k="fixme" v="consider natural=peak for the most distinct mountains in the district" />
		<tag k="name" v="Hemmelkampen" />
		<tag k="natural" v="hill" />
		<tag k="place" v="locality" />
		<tag k="ssr:stedsnr" v="676383" />
	</node>
	<node lat="60.809463888401766" lon="10.829855547656871" id="-44911">
		<tag k="fixme" v="consider natural=peak for the most distinct mountains in the district" />
		<tag k="name" v="Gammelgard" />
		<tag k="natural" v="hill" />
		<tag k="place" v="locality" />
		<tag k="ssr:stedsnr" v="480167" />
	</node>
	<node lat="60.96951388833299" lon="10.659947214851618" id="-44912">
		<tag k="name" v="Øksendalen" />
		<tag k="natural" v="valley" />
		<tag k="place" v="locality" />
		<tag k="ssr:stedsnr" v="480570" />
	</node>
	<node lat="60.80494999619493" lon="10.890711103493379" id="-44917">
		<tag k="alt_name" v="Trosthøgda" />
		<tag k="name" v="Trostberget" />
		<tag k="natural" v="hill" />
		<tag k="place" v="locality" />
		<tag k="ssr:stedsnr" v="482474" />
	</node>
	<node lat="60.73596389139419" lon="10.974627778064335" id="-44930">
		<tag k="alt_name" v="Eiksberget" />
		<tag k="name" v="Eksberget" />
		<tag k="natural" v="hill" />
		<tag k="place" v="locality" />
		<tag k="ssr:stedsnr" v="492904" />
	</node>
	<node lat="61.042974998862015" lon="10.975327772340018" id="-44936">
		<tag k="alt_name" v="Store Sponberget" />
		<tag k="name" v="Sponberget" />
		<tag k="natural" v="hill" />
		<tag k="place" v="locality" />
		<tag k="ssr:stedsnr" v="493603" />
	</node>
	<node lat="60.99454166528816" lon="10.924497218146497" id="-44974">
		<tag k="name" v="Danserdalslia" />
		<tag k="natural" v="slope" />
		<tag k="place" v="locality" />
		<tag k="ssr:stedsnr" v="527329" />
	</node>
	<node lat="61.00248889050829" lon="10.902424995060173" id="-44975">
		<tag k="name" v="Leikholen" />
		<tag k="natural" v="hill" />
		<tag k="place" v="locality" />
		<tag k="ssr:stedsnr" v="527347" />
	</node>
	<node lat="61.00336388788009" lon="10.94213332431868" id="-44976">
		<tag k="fixme" v="consider natural=peak for the most distinct mountains in the district" />
		<tag k="name" v="Fløytåstoppen" />
		<tag k="natural" v="hill" />
		<tag k="place" v="locality" />
		<tag k="ssr:stedsnr" v="527351" />
	</node>
	<node lat="61.13407222209719" lon="10.656858332828705" id="-44984">
		<tag k="name" v="Bjønnle" />
		<tag k="place" v="locality" />
		<tag k="ssr:stedsnr" v="541602" />
	</node>
	<node lat="61.103597226534376" lon="10.624049999840574" id="-44985">
		<tag k="name" v="Storsvehaugen" />
		<tag k="natural" v="hill" />
		<tag k="place" v="locality" />
		<tag k="ssr:stedsnr" v="541604" />
	</node>
	<node lat="61.21428333771641" lon="10.98425000108279" id="-45013">
		<tag k="name" v="Djupendal" />
		<tag k="natural" v="valley" />
		<tag k="place" v="locality" />
		<tag k="ssr:stedsnr" v="553709" />
	</node>
	<node lat="61.05552499919813" lon="10.86625000193599" id="-45018">
		<tag k="name" v="Sisselberget" />
		<tag k="natural" v="hill" />
		<tag k="place" v="locality" />
		<tag k="ssr:stedsnr" v="553606" />
	</node>
	<node lat="61.2518500010437" lon="10.918800004615813" id="-45026">
		<tag k="alt_name" v="Tuen" />
		<tag k="fixme" v="consider natural=peak for the most distinct mountains in the district" />
		<tag k="name" v="Tua" />
		<tag k="natural" v="hill" />
		<tag k="old_name" v="Tuva" />
		<tag k="place" v="locality" />
		<tag k="ssr:stedsnr" v="554388" />
	</node>
	<node lat="61.26347500339889" lon="10.866577784544921" id="-45027">
		<tag k="name" v="Godlidalen" />
		<tag k="natural" v="valley" />
		<tag k="place" v="locality" />
		<tag k="ssr:stedsnr" v="554394" />
	</node>
	<node lat="61.1776000039299" lon="10.76425000730238" id="-45035">
		<tag k="alt_name" v="Gjestebodsåsen" />
		<tag k="fixme" v="consider natural=peak for the most distinct mountains in the district" />
		<tag k="name" v="Gjestbodsåsen" />
		<tag k="natural" v="hill" />
		<tag k="place" v="locality" />
		<tag k="ssr:stedsnr" v="554584" />
	</node>
	<node lat="61.18926111069573" lon="10.802469448401908" id="-45036">
		<tag k="fixme" v="consider natural=peak for the most distinct mountains in the district" />
		<tag k="name" v="Nøkkelåsen" />
		<tag k="natural" v="hill" />
		<tag k="place" v="locality" />
		<tag k="ssr:stedsnr" v="554585" />
	</node>
	<node lat="60.94962500302801" lon="10.832777782068042" id="-45044">
		<tag k="name" v="Rustadberget" />
		<tag k="natural" v="hill" />
		<tag k="place" v="locality" />
		<tag k="ssr:stedsnr" v="555120" />
	</node>
	<node lat="60.97925555879673" lon="10.97953610568586" id="-45059">
		<tag k="fixme" v="consider natural=peak for the most distinct mountains in the district" />
		<tag k="name" v="Fuglehaugen" />
		<tag k="natural" v="hill" />
		<tag k="place" v="locality" />
		<tag k="ssr:stedsnr" v="567008" />
	</node>
	<node lat="60.89100277330174" lon="10.983097224124457" id="-45068">
		<tag k="fixme" v="consider natural=peak for the most distinct mountains in the district" />
		<tag k="name" v="Sørumsberget" />
		<tag k="natural" v="hill" />
		<tag k="place" v="locality" />
		<tag k="ssr:stedsnr" v="586320" />
	</node>
	<node lat="60.99031666803847" lon="10.91229721992455" id="-45074">
		<tag k="name" v="Ellungstjernslia" />
		<tag k="natural" v="slope" />
		<tag k="place" v="locality" />
		<tag k="ssr:stedsnr" v="587364" />
	</node>
	<node lat="60.95033610886556" lon="11.061508325287711" id="-45075">
		<tag k="name" v="Slettom" />
		<tag k="place" v="locality" />
		<tag k="ssr:stedsnr" v="587522" />
	</node>
	<node lat="61.16310555843793" lon="10.672352776040157" id="-45085">
		<tag k="name" v="Vesle Lunkefjell" />
		<tag k="natural" v="hill" />
		<tag k="place" v="locality" />
		<tag k="ssr:stedsnr" v="601015" />
	</node>
	<node lat="61.069441668220435" lon="10.585166664228707" id="-45087">
		<tag k="name" v="Svartåshøgda" />
		<tag k="natural" v="hill" />
		<tag k="place" v="locality" />
		<tag k="ssr:stedsnr" v="601767" />
	</node>
	<node lat="61.0561250011805" lon="11.053702773272764" id="-45106">
		<tag k="name" v="Lortrasten" />
		<tag k="place" v="locality" />
		<tag k="ssr:stedsnr" v="614614" />
	</node>
	<node lat="61.12120000320365" lon="10.726611115176949" id="-45111">
		<tag k="fixme" v="consider natural=peak for the most distinct mountains in the district" />
		<tag k="name" v="Heggberget" />
		<tag k="natural" v="hill" />
		<tag k="place" v="locality" />
		<tag k="ssr:stedsnr" v="614517" />
	</node>
	<node lat="60.985623577236105" lon="10.927642106273307" id="-45127">
		<tag k="fixme" v="consider natural=peak for the most distinct mountains in the district" />
		<tag k="name" v="Kompåsen" />
		<tag k="natural" v="hill" />
		<tag k="place" v="locality" />
		<tag k="ssr:stedsnr" v="616115" />
	</node>
	<node lat="60.96639722177224" lon="10.719511106662155" id="-45137">
		<tag k="name" v="Amlisberget" />
		<tag k="natural" v="hill" />
		<tag k="place" v="locality" />
		<tag k="ssr:stedsnr" v="616811" />
	</node>
	<node lat="60.93477500324588" lon="10.746324997231154" id="-45141">
		<tag k="fixme" v="consider natural=peak for the most distinct mountains in the district" />
		<tag k="name" v="Storsvehøgda" />
		<tag k="natural" v="hill" />
		<tag k="place" v="locality" />
		<tag k="ssr:stedsnr" v="627006" />
	</node>
	<node lat="60.96627222531351" lon="10.670963883200542" id="-45151">
		<tag k="fixme" v="consider natural=peak for the most distinct mountains in the district" />
		<tag k="name" v="Kjosberget" />
		<tag k="natural" v="hill" />
		<tag k="place" v="locality" />
		<tag k="ssr:stedsnr" v="646308" />
	</node>
	<node lat="60.87244722612933" lon="10.801608335050714" id="-45162">
		<tag k="fixme" v="consider natural=peak for the most distinct mountains in the district" />
		<tag k="name" v="Saugsberget" />
		<tag k="natural" v="hill" />
		<tag k="place" v="locality" />
		<tag k="ssr:stedsnr" v="707146" />
	</node>
	<node lat="60.9496777806395" lon="10.672188882657712" id="-45165">
		<tag k="name" v="Helgeberget" />
		<tag k="natural" v="hill" />
		<tag k="place" v="locality" />
		<tag k="ssr:stedsnr" v="707323" />
	</node>
	<node lat="60.79213055193155" lon="10.90548333862624" id="-45195">
		<tag k="name" v="Nettumsbakken" />
		<tag k="natural" v="slope" />
		<tag k="place" v="locality" />
		<tag k="ssr:stedsnr" v="664832" />
	</node>
	<node lat="61.03974166996096" lon="10.974563885588253" id="-45204">
		<tag k="name" v="Lille Sponberget" />
		<tag k="natural" v="hill" />
		<tag k="place" v="locality" />
		<tag k="ssr:stedsnr" v="890141" />
	</node>
	<node lat="60.905697223701665" lon="11.024733336415947" id="-45205">
		<tag k="name" v="Appelsinhaugen" />
		<tag k="natural" v="hill" />
		<tag k="place" v="locality" />
		<tag k="ssr:stedsnr" v="890251" />
	</node>
	<node lat="61.031283335731125" lon="10.770572218228622" id="-45208">
		<tag k="fixme" v="consider natural=peak for the most distinct mountains in the district" />
		<tag k="name" v="Børrestuberget" />
		<tag k="natural" v="hill" />
		<tag k="place" v="locality" />
		<tag k="ssr:stedsnr" v="890702" />
	</node>
	<node lat="61.15905277439972" lon="11.014013890844042" id="-45221">
		<tag k="name" v="Godbakka" />
		<tag k="natural" v="slope" />
		<tag k="place" v="locality" />
		<tag k="ssr:stedsnr" v="675557" />
	</node>
	<node lat="60.97950000225512" lon="10.742474993865047" id="-45246">
		<tag k="name" v="Vardeberget" />
		<tag k="natural" v="hill" />
		<tag k="place" v="locality" />
		<tag k="ssr:stedsnr" v="677099" />
	</node>
	<node lat="60.95149999550592" lon="11.070563892523408" id="-45252">
		<tag k="name" v="Hanssveryggen" />
		<tag k="natural" v="ridge" />
		<tag k="place" v="locality" />
		<tag k="ssr:stedsnr" v="891517" />
	</node>
	<node lat="60.71691666569198" lon="10.999363887052652" id="-45259">
		<tag k="name" v="Mannlausen" />
		<tag k="natural" v="hill" />
		<tag k="place" v="locality" />
		<tag k="ssr:stedsnr" v="891614" />
	</node>
	<node lat="60.82358055419508" lon="10.802552780867384" id="-45329">
		<tag k="fixme" v="consider natural=peak for the most distinct mountains in the district" />
		<tag k="name" v="Skjønsbyåsen" />
		<tag k="natural" v="hill" />
		<tag k="place" v="locality" />
		<tag k="ssr:stedsnr" v="905198" />
	</node>
	<node lat="61.08730555955782" lon="10.799419450768815" id="-45330">
		<tag k="name" v="Svarthaugen" />
		<tag k="natural" v="hill" />
		<tag k="place" v="locality" />
		<tag k="ssr:stedsnr" v="905743" />
	</node>
	<node lat="61.0724250041869" lon="10.554194448528964" id="-45331">
		<tag k="name" v="Fauskerudhøgda" />
		<tag k="natural" v="hill" />
		<tag k="place" v="locality" />
		<tag k="ssr:stedsnr" v="905784" />
	</node>
	<node lat="61.21600000279638" lon="10.972402782447483" id="-45336">
		<tag k="name" v="Finntottvolla" />
		<tag k="place" v="locality" />
		<tag k="ssr:stedsnr" v="918763" />
	</node>
	<node lat="61.008166665636324" lon="10.876427780436327" id="-45353">
		<tag k="name" v="Granlia" />
		<tag k="natural" v="slope" />
		<tag k="place" v="locality" />
		<tag k="ssr:stedsnr" v="907299" />
	</node>
	<node lat="60.79793055400711" lon="10.875122221914898" id="-45356">
		<tag k="fixme" v="consider natural=peak for the most distinct mountains in the district" />
		<tag k="name" v="Torsberget" />
		<tag k="natural" v="hill" />
		<tag k="place" v="locality" />
		<tag k="ssr:stedsnr" v="769805" />
	</node>
	<node lat="61.11994166593408" lon="10.89021666993807" id="-45368">
		<tag k="fixme" v="consider natural=peak for the most distinct mountains in the district" />
		<tag k="name" v="Bubekkberget" />
		<tag k="natural" v="hill" />
		<tag k="place" v="locality" />
		<tag k="ssr:stedsnr" v="909430" />
	</node>
	<node lat="61.03068333509161" lon="10.935494441848144" id="-45372">
		<tag k="name" v="Bergsbuholene" />
		<tag k="place" v="locality" />
		<tag k="ssr:stedsnr" v="783818" />
	</node>
	<node lat="61.02657499551733" lon="10.95080278019552" id="-45373">
		<tag k="name" v="Bergsbuvollen" />
		<tag k="place" v="locality" />
		<tag k="ssr:stedsnr" v="783832" />
	</node>
	<node lat="61.089691669414556" lon="10.873858340868928" id="-45391">
		<tag k="name" v="Blekahaugen" />
		<tag k="natural" v="hill" />
		<tag k="place" v="locality" />
		<tag k="ssr:stedsnr" v="796503" />
	</node>
	<node lat="61.05819166444159" lon="10.740600002331625" id="-45394">
		<tag k="name" v="Skutberget" />
		<tag k="natural" v="hill" />
		<tag k="place" v="locality" />
		<tag k="ssr:stedsnr" v="796605" />
	</node>
	<node lat="61.15505000108573" lon="10.802352775958777" id="-45403">
		<tag k="name" v="Kopnaglen" />
		<tag k="natural" v="hill" />
		<tag k="place" v="locality" />
		<tag k="ssr:stedsnr" v="797551" />
	</node>
	<node lat="61.15778055838977" lon="10.869716659244034" id="-45404">
		<tag k="fixme" v="consider natural=peak for the most distinct mountains in the district" />
		<tag k="name" v="Grunnåsen" />
		<tag k="natural" v="hill" />
		<tag k="place" v="locality" />
		<tag k="ssr:stedsnr" v="797554" />
	</node>
	<node lat="61.181913886653525" lon="10.729602774933545" id="-45405">
		<tag k="name" v="Kuåsen" />
		<tag k="natural" v="hill" />
		<tag k="place" v="locality" />
		<tag k="ssr:stedsnr" v="797557" />
	</node>
	<node lat="61.112524999395795" lon="10.725191659726853" id="-45428">
		<tag k="name" v="Svarthaugen" />
		<tag k="natural" v="hill" />
		<tag k="place" v="locality" />
		<tag k="ssr:stedsnr" v="917500" />
	</node>
	<node lat="61.19448055697346" lon="10.820205547936478" id="-45435">
		<tag k="name" v="Nøkkelåshallen" />
		<tag k="natural" v="slope" />
		<tag k="place" v="locality" />
		<tag k="ssr:stedsnr" v="918618" />
	</node>
	<node lat="61.058383333766734" lon="10.597008337544175" id="-45439">
		<tag k="fixme" v="consider natural=peak for the most distinct mountains in the district" />
		<tag k="name" v="Solbergåsen" />
		<tag k="natural" v="hill" />
		<tag k="place" v="locality" />
		<tag k="ssr:stedsnr" v="918745" />
	</node>
	<node lat="61.100674998677334" lon="10.645402775256702" id="-45440">
		<tag k="fixme" v="consider natural=peak for the most distinct mountains in the district" />
		<tag k="name" v="Botshaugkampen" />
		<tag k="natural" v="hill" />
		<tag k="place" v="locality" />
		<tag k="ssr:stedsnr" v="918813" />
	</node>
	<node lat="61.25860833384865" lon="10.858502785506706" id="-45456">
		<tag k="alt_name" v="Kotuen" />
		<tag k="fixme" v="consider natural=peak for the most distinct mountains in the district" />
		<tag k="name" v="Kotua" />
		<tag k="natural" v="hill" />
		<tag k="old_name" v="Kotuva" />
		<tag k="place" v="locality" />
		<tag k="ssr:stedsnr" v="919371" />
	</node>
	<node lat="61.08565555149285" lon="10.887977771846476" id="-45472">
		<tag k="name" v="Driterbakken" />
		<tag k="natural" v="slope" />
		<tag k="place" v="locality" />
		<tag k="ssr:stedsnr" v="829417" />
	</node>
	<node lat="61.08805555302635" lon="10.60310000214516" id="-45489">
		<tag k="name" v="Markeruddalen" />
		<tag k="natural" v="valley" />
		<tag k="place" v="locality" />
		<tag k="ssr:stedsnr" v="844090" />
	</node>
	<node lat="60.92396667037467" lon="10.79026665931149" id="-45498">
		<tag k="fixme" v="consider natural=peak for the most distinct mountains in the district" />
		<tag k="name" v="Skybergsberget" />
		<tag k="natural" v="hill" />
		<tag k="place" v="locality" />
		<tag k="ssr:stedsnr" v="848781" />
	</node>
	<node lat="61.23331389259974" lon="10.974213887043078" id="-45512">
		<tag k="name" v="Kroksjøhøgda" />
		<tag k="natural" v="hill" />
		<tag k="place" v="locality" />
		<tag k="ssr:stedsnr" v="857687" />
	</node>
	<node lat="60.91766944131445" lon="10.942777768759761" id="-45528">
		<tag k="name" v="Bjørgeberget" />
		<tag k="natural" v="hill" />
		<tag k="place" v="locality" />
		<tag k="ssr:stedsnr" v="859215" />
	</node>
	<node lat="61.0142722205828" lon="10.837127783613044" id="-45551">
		<tag k="name" v="Bøverbakken" />
		<tag k="natural" v="slope" />
		<tag k="place" v="locality" />
		<tag k="ssr:stedsnr" v="889844" />
	</node>
	<node lat="60.89948889205725" lon="10.996355547158297" id="-45554">
		<tag k="name" v="Slettberget" />
		<tag k="place" v="locality" />
		<tag k="ssr:stedsnr" v="890325" />
	</node>
	<node lat="60.98511667115767" lon="10.908088885456934" id="-45558">
		<tag k="name" v="Ellungstjernsbakken" />
		<tag k="natural" v="slope" />
		<tag k="place" v="locality" />
		<tag k="ssr:stedsnr" v="891377" />
	</node>
	<node lat="61.10391944723468" lon="10.608394443974692" id="-45571">
		<tag k="name" v="Sollihøgda" />
		<tag k="natural" v="hill" />
		<tag k="place" v="locality" />
		<tag k="ssr:stedsnr" v="905598" />
	</node>
	<node lat="61.102763887387745" lon="10.601324995703687" id="-45572">
		<tag k="name" v="Skjellerudberget" />
		<tag k="natural" v="hill" />
		<tag k="place" v="locality" />
		<tag k="ssr:stedsnr" v="905602" />
	</node>
	<node lat="60.9168444419077" lon="10.838547219482452" id="-45576">
		<tag k="name" v="Tokstadfurua" />
		<tag k="place" v="locality" />
		<tag k="ssr:stedsnr" v="906565" />
	</node>
	<node lat="60.91231944606371" lon="11.03244444042371" id="-45588">
		<tag k="name" v="Avundsvedalen" />
		<tag k="natural" v="valley" />
		<tag k="place" v="locality" />
		<tag k="ssr:stedsnr" v="909509" />
	</node>
	<node lat="61.005102776740124" lon="10.904050000736161" id="-45589">
		<tag k="fixme" v="consider natural=peak for the most distinct mountains in the district" />
		<tag k="name" v="Hølsbyåsen" />
		<tag k="natural" v="hill" />
		<tag k="place" v="locality" />
		<tag k="ssr:stedsnr" v="917549" />
	</node>
	<node lat="61.08477778123756" lon="10.607624997811731" id="-45592">
		<tag k="name" v="Dalhøgda" />
		<tag k="natural" v="hill" />
		<tag k="place" v="locality" />
		<tag k="ssr:stedsnr" v="917873" />
	</node>
	<node lat="61.05388888965661" lon="10.771741666363237" id="-45601">
		<tag k="name" v="Jomstelldalen" />
		<tag k="natural" v="valley" />
		<tag k="place" v="locality" />
		<tag k="ssr:stedsnr" v="918673" />
	</node>
	<node lat="60.88861388953347" lon="10.992783333493394" id="-45630">
		<tag k="name" v="Høsbjørberget" />
		<tag k="natural" v="slope" />
		<tag k="place" v="locality" />
		<tag k="ssr:stedsnr" v="950305" />
	</node>
	<node lat="61.078283330453736" lon="10.554355552146278" id="-45643">
		<tag k="name" v="Svartbekksvingen" />
		<tag k="place" v="locality" />
		<tag k="ssr:stedsnr" v="965778" />
	</node>
	<node lat="60.80522222272301" lon="10.943566669899722" id="-45648">
		<tag k="fixme" v="consider natural=peak for the most distinct mountains in the district" />
		<tag k="name" v="Solliåsen" />
		<tag k="natural" v="hill" />
		<tag k="place" v="locality" />
		<tag k="ssr:stedsnr" v="967884" />
	</node>
	<node lat="60.94003333583538" lon="10.762613880338405" id="-45649">
		<tag k="name" v="Rundhaugen" />
		<tag k="natural" v="hill" />
		<tag k="place" v="locality" />
		<tag k="ssr:stedsnr" v="968799" />
	</node>
	<node lat="61.202491666645734" lon="10.72264167427323" id="-45667">
		<tag k="fixme" v="consider natural=peak for the most distinct mountains in the district" />
		<tag k="name" v="Elgåsen" />
		<tag k="natural" v="hill" />
		<tag k="place" v="locality" />
		<tag k="ssr:stedsnr" v="8579" />
	</node>
	<node lat="61.227902775143384" lon="10.907538894889205" id="-45676">
		<tag k="alt_name" v="Jomfruen" />
		<tag k="name" v="Jomfrua" />
		<tag k="natural" v="hill" />
		<tag k="place" v="locality" />
		<tag k="ssr:stedsnr" v="8749" />
	</node>
	<node lat="60.83129444715908" lon="10.775694448651068" id="-45741">
		<tag k="name" v="Holotoppen" />
		<tag k="natural" v="hill" />
		<tag k="place" v="locality" />
		<tag k="ssr:stedsnr" v="55210" />
	</node>
	<node lat="61.00849722435784" lon="10.885302785709628" id="-45745">
		<tag k="fixme" v="consider natural=peak for the most distinct mountains in the district" />
		<tag k="name" v="Bakåsen" />
		<tag k="natural" v="hill" />
		<tag k="place" v="locality" />
		<tag k="ssr:stedsnr" v="57293" />
	</node>
	<node lat="61.0948000001152" lon="10.649349991932521" id="-45769">
		<tag k="name" v="Oddsæterhøgda" />
		<tag k="natural" v="hill" />
		<tag k="place" v="locality" />
		<tag k="ssr:stedsnr" v="67863" />
	</node>
	<node lat="61.24408333103978" lon="10.93959444768819" id="-45779">
		<tag k="name" v="Londalen" />
		<tag k="natural" v="valley" />
		<tag k="place" v="locality" />
		<tag k="ssr:stedsnr" v="68729" />
	</node>
	<node lat="61.17138889176798" lon="10.789077781157731" id="-45784">
		<tag k="fixme" v="consider natural=peak for the most distinct mountains in the district" />
		<tag k="name" v="Midtfjellet" />
		<tag k="natural" v="hill" />
		<tag k="place" v="locality" />
		<tag k="ssr:stedsnr" v="69599" />
	</node>
	<node lat="60.793575001053334" lon="10.935261109323779" id="-45818">
		<tag k="name" v="Kvamsberget" />
		<tag k="natural" v="hill" />
		<tag k="place" v="locality" />
		<tag k="ssr:stedsnr" v="70470" />
	</node>
	<node lat="61.111816668330064" lon="11.005758335130102" id="-45834">
		<tag k="name" v="Revhidalen" />
		<tag k="natural" v="valley" />
		<tag k="place" v="locality" />
		<tag k="ssr:stedsnr" v="100167" />
	</node>
	<node lat="61.00098611094197" lon="10.986713886843804" id="-45836">
		<tag k="name" v="Langdalen" />
		<tag k="natural" v="valley" />
		<tag k="place" v="locality" />
		<tag k="ssr:stedsnr" v="101136" />
	</node>
	<node lat="60.96705277406058" lon="10.673766672948494" id="-45839">
		<tag k="name" v="Kjosgraven" />
		<tag k="natural" v="valley" />
		<tag k="place" v="locality" />
		<tag k="ssr:stedsnr" v="101309" />
	</node>
	<node lat="60.803449996679284" lon="10.970647224706159" id="-45849">
		<tag k="name" v="Grefsheimberget" />
		<tag k="place" v="locality" />
		<tag k="ssr:stedsnr" v="102545" />
	</node>
	<node lat="61.00089721833473" lon="10.860922212753177" id="-45869">
		<tag k="fixme" v="consider natural=peak for the most distinct mountains in the district" />
		<tag k="name" v="Holsbyåsen" />
		<tag k="natural" v="hill" />
		<tag k="place" v="locality" />
		<tag k="ssr:stedsnr" v="118320" />
	</node>
	<node lat="60.84277121732651" lon="10.893705249742366" id="-45886">
		<tag k="name" v="Liberget" />
		<tag k="natural" v="hill" />
		<tag k="place" v="locality" />
		<tag k="ssr:stedsnr" v="130347" />
	</node>
	<node lat="61.115797219054585" lon="10.995000002199802" id="-45940">
		<tag k="name" v="Nordstjerndalen" />
		<tag k="natural" v="valley" />
		<tag k="place" v="locality" />
		<tag k="ssr:stedsnr" v="161194" />
	</node>
	<node lat="61.110211112552896" lon="10.770822225138422" id="-45952">
		<tag k="name" v="Tørrhaugen" />
		<tag k="natural" v="hill" />
		<tag k="place" v="locality" />
		<tag k="ssr:stedsnr" v="161830" />
	</node>
	<node lat="60.99014721978946" lon="10.928997213306799" id="-45959">
		<tag k="fixme" v="consider natural=peak for the most distinct mountains in the district" />
		<tag k="name" v="Kampåsen" />
		<tag k="natural" v="hill" />
		<tag k="place" v="locality" />
		<tag k="ssr:stedsnr" v="163299" />
	</node>
	<node lat="61.118125002775216" lon="10.73948333038655" id="-45975">
		<tag k="name" v="Fjelldokka" />
		<tag k="natural" v="valley" />
		<tag k="place" v="locality" />
		<tag k="ssr:stedsnr" v="177747" />
	</node>
	<node lat="61.00133055195084" lon="11.054086118934114" id="-45978">
		<tag k="name" v="Sandhola" />
		<tag k="place" v="locality" />
		<tag k="ssr:stedsnr" v="178043" />
	</node>
	<node lat="61.13344444220574" lon="10.81001943509212" id="-45990">
		<tag k="name" v="Styggryggen" />
		<tag k="natural" v="hill" />
		<tag k="place" v="locality" />
		<tag k="ssr:stedsnr" v="179300" />
	</node>
	<node lat="60.920241667771734" lon="11.017072213901152" id="-45998">
		<tag k="name" v="Åsberghalla" />
		<tag k="natural" v="slope" />
		<tag k="place" v="locality" />
		<tag k="ssr:stedsnr" v="180500" />
	</node>
	<node lat="60.83363055206878" lon="10.883694448445366" id="-46006">
		<tag k="fixme" v="consider natural=peak for the most distinct mountains in the district" />
		<tag k="name" v="Libakkåsen" />
		<tag k="natural" v="hill" />
		<tag k="place" v="locality" />
		<tag k="ssr:stedsnr" v="180889" />
	</node>
	<node lat="61.25974999896563" lon="10.90734444162314" id="-46029">
		<tag k="fixme" v="consider natural=peak for the most distinct mountains in the district" />
		<tag k="name" v="Taterungskampen" />
		<tag k="natural" v="hill" />
		<tag k="place" v="locality" />
		<tag k="ssr:stedsnr" v="191349" />
	</node>
	<node lat="60.9913999987815" lon="10.830825006659651" id="-46044">
		<tag k="fixme" v="consider natural=peak for the most distinct mountains in the district" />
		<tag k="name" v="Bokkrustadåsen" />
		<tag k="natural" v="hill" />
		<tag k="place" v="locality" />
		<tag k="ssr:stedsnr" v="191096" />
	</node>
	<node lat="60.958541662854195" lon="11.062394442322436" id="-46055">
		<tag k="alt_name" v="Blokkåshøgda" />
		<tag k="fixme" v="consider natural=peak for the most distinct mountains in the district" />
		<tag k="name" v="Brattberget" />
		<tag k="natural" v="hill" />
		<tag k="place" v="locality" />
		<tag k="ssr:stedsnr" v="191144" />
	</node>
	<node lat="61.071708331109704" lon="10.750163885823781" id="-46098">
		<tag k="name" v="Tasseladdholen" />
		<tag k="natural" v="valley" />
		<tag k="place" v="locality" />
		<tag k="ssr:stedsnr" v="222631" />
	</node>
	<node lat="61.0656361082839" lon="10.730936115591797" id="-46099">
		<tag k="name" v="Smalmyrdalen" />
		<tag k="natural" v="valley" />
		<tag k="place" v="locality" />
		<tag k="ssr:stedsnr" v="222633" />
	</node>
	<node lat="60.78633611270891" lon="10.84899999994246" id="-46112">
		<tag k="name" v="Flågåbakken" />
		<tag k="natural" v="hill" />
		<tag k="place" v="locality" />
		<tag k="ssr:stedsnr" v="224876" />
	</node>
	<node lat="60.785713884884046" lon="10.869391659664661" id="-46113">
		<tag k="name" v="Arendal" />
		<tag k="natural" v="valley" />
		<tag k="place" v="locality" />
		<tag k="ssr:stedsnr" v="224879" />
	</node>
	<node lat="60.80690555245417" lon="10.957041664687718" id="-46135">
		<tag k="fixme" v="consider natural=peak for the most distinct mountains in the district" />
		<tag k="name" v="Sveåsen" />
		<tag k="natural" v="hill" />
		<tag k="place" v="locality" />
		<tag k="ssr:stedsnr" v="284470" />
	</node>
	<node lat="61.010744444776144" lon="11.068733327002029" id="-46146">
		<tag k="name" v="Ruskåshalla" />
		<tag k="natural" v="slope" />
		<tag k="place" v="locality" />
		<tag k="ssr:stedsnr" v="299037" />
	</node>
	<node lat="61.115672222884776" lon="10.688899997995955" id="-46151">
		<tag k="fixme" v="consider natural=peak for the most distinct mountains in the district" />
		<tag k="name" v="Arnestadberget" />
		<tag k="natural" v="hill" />
		<tag k="place" v="locality" />
		<tag k="ssr:stedsnr" v="300022" />
	</node>
	<node lat="61.072791670835265" lon="10.615772215635914" id="-46159">
		<tag k="fixme" v="consider natural=peak for the most distinct mountains in the district" />
		<tag k="name" v="Bjørnsrudhaugen" />
		<tag k="natural" v="hill" />
		<tag k="place" v="locality" />
		<tag k="ssr:stedsnr" v="301310" />
	</node>
	<node lat="61.18548333445483" lon="10.921872219866998" id="-46161">
		<tag k="fixme" v="consider natural=peak for the most distinct mountains in the district" />
		<tag k="name" v="Kattugleberget" />
		<tag k="natural" v="hill" />
		<tag k="place" v="locality" />
		<tag k="ssr:stedsnr" v="301453" />
	</node>
	<node lat="61.23037500183339" lon="10.92599166623379" id="-46162">
		<tag k="name" v="Kjellerbekkdalen" />
		<tag k="natural" v="valley" />
		<tag k="place" v="locality" />
		<tag k="ssr:stedsnr" v="301462" />
	</node>
	<node lat="60.984872225756064" lon="10.889505547926596" id="-46168">
		<tag k="fixme" v="consider natural=peak for the most distinct mountains in the district" />
		<tag k="name" v="Titåsen" />
		<tag k="natural" v="hill" />
		<tag k="place" v="locality" />
		<tag k="ssr:stedsnr" v="302340" />
	</node>
	<node lat="60.91314444572748" lon="11.024894440837151" id="-46171">
		<tag k="name" v="Dorret" />
		<tag k="natural" v="hill" />
		<tag k="place" v="locality" />
		<tag k="ssr:stedsnr" v="302487" />
	</node>
	<node lat="61.12491666565316" lon="10.741702773352582" id="-46184">
		<tag k="fixme" v="consider natural=peak for the most distinct mountains in the district" />
		<tag k="name" v="Fjelldokka" />
		<tag k="natural" v="hill" />
		<tag k="place" v="locality" />
		<tag k="ssr:stedsnr" v="311566" />
	</node>
	<node lat="60.95826944532303" lon="10.822747214648313" id="-46239">
		<tag k="fixme" v="consider natural=peak for the most distinct mountains in the district" />
		<tag k="name" v="Svehøgda" />
		<tag k="natural" v="hill" />
		<tag k="place" v="locality" />
		<tag k="ssr:stedsnr" v="324014" />
	</node>
	<node lat="60.88296666856263" lon="10.782316670168962" id="-46257">
		<tag k="fixme" v="consider natural=peak for the most distinct mountains in the district" />
		<tag k="name" v="Mælumsberget" />
		<tag k="natural" v="hill" />
		<tag k="place" v="locality" />
		<tag k="ssr:stedsnr" v="343137" />
	</node>
	<node lat="60.891338888880036" lon="11.068711113947277" id="-46258">
		<tag k="fixme" v="consider natural=peak for the most distinct mountains in the district" />
		<tag k="name" v="Olaåsen" />
		<tag k="natural" v="hill" />
		<tag k="place" v="locality" />
		<tag k="ssr:stedsnr" v="343235" />
	</node>
	<node lat="61.00808888580144" lon="10.938374991819781" id="-46273">
		<tag k="name" v="Fløytåslia" />
		<tag k="natural" v="slope" />
		<tag k="place" v="locality" />
		<tag k="ssr:stedsnr" v="345329" />
	</node>
	<node lat="61.09632221827927" lon="10.757361103430524" id="-46290">
		<tag k="name" v="Gunnersæterhøgda" />
		<tag k="natural" v="hill" />
		<tag k="place" v="locality" />
		<tag k="ssr:stedsnr" v="359735" />
	</node>
	<node lat="61.11810555915168" lon="10.794375000403367" id="-46298">
		<tag k="name" v="Mostelia" />
		<tag k="natural" v="slope" />
		<tag k="place" v="locality" />
		<tag k="ssr:stedsnr" v="360707" />
	</node>
	<node lat="60.982961112901805" lon="10.872038888667328" id="-46312">
		<tag k="name" v="Svarttåsen" />
		<tag k="natural" v="hill" />
		<tag k="place" v="locality" />
		<tag k="ssr:stedsnr" v="362340" />
	</node>
	<node lat="61.05420000129161" lon="10.822963886121618" id="-46336">
		<tag k="name" v="Hestskolykkjedalen" />
		<tag k="natural" v="valley" />
		<tag k="place" v="locality" />
		<tag k="ssr:stedsnr" v="371598" />
	</node>
	<node lat="61.200305556575714" lon="10.975199991483796" id="-46343">
		<tag k="name" v="Småvolla" />
		<tag k="place" v="locality" />
		<tag k="ssr:stedsnr" v="371536" />
	</node>
	<node lat="61.13015000078723" lon="10.675924996359942" id="-46347">
		<tag k="fixme" v="consider natural=peak for the most distinct mountains in the district" />
		<tag k="name" v="Langmyråsen" />
		<tag k="natural" v="hill" />
		<tag k="place" v="locality" />
		<tag k="ssr:stedsnr" v="371796" />
	</node>
	<node lat="61.238425003400444" lon="10.955936115600654" id="-46348">
		<tag k="fixme" v="consider natural=peak for the most distinct mountains in the district" />
		<tag k="name" v="Svartkampen" />
		<tag k="natural" v="hill" />
		<tag k="place" v="locality" />
		<tag k="ssr:stedsnr" v="371695" />
	</node>
	<node lat="60.9741055533665" lon="10.902825002516648" id="-46367">
		<tag k="fixme" v="consider natural=peak for the most distinct mountains in the district" />
		<tag k="name" v="Rognåsen" />
		<tag k="natural" v="hill" />
		<tag k="place" v="locality" />
		<tag k="ssr:stedsnr" v="373137" />
	</node>
	<node lat="60.855558337307336" lon="10.9943250064905" id="-46403">
		<tag k="name" v="Bergshøgda" />
		<tag k="natural" v="hill" />
		<tag k="place" v="locality" />
		<tag k="ssr:stedsnr" v="404466" />
	</node>
	<node lat="61.105019442994646" lon="10.640066662096851" id="-46417">
		<tag k="name" v="Bothauglia" />
		<tag k="natural" v="slope" />
		<tag k="place" v="locality" />
		<tag k="ssr:stedsnr" v="420624" />
	</node>
	<node lat="61.07812777837089" lon="10.720377781294909" id="-46423">
		<tag k="name" v="Lortåsen" />
		<tag k="natural" v="hill" />
		<tag k="place" v="locality" />
		<tag k="ssr:stedsnr" v="421639" />
	</node>
	<node lat="61.02906388923088" lon="10.762291675020528" id="-46507">
		<tag k="name" v="Larsåsberget" />
		<tag k="natural" v="hill" />
		<tag k="place" v="locality" />
		<tag k="ssr:stedsnr" v="525665" />
	</node>
	<node lat="61.00030277851487" lon="10.94833611867711" id="-46546">
		<tag k="name" v="Danserdalen" />
		<tag k="natural" v="valley" />
		<tag k="place" v="locality" />
		<tag k="ssr:stedsnr" v="552419" />
	</node>
	<node lat="60.949736114187026" lon="11.04284722187271" id="-46621">
		<tag k="name" v="Brattlihalla" />
		<tag k="natural" v="slope" />
		<tag k="place" v="locality" />
		<tag k="ssr:stedsnr" v="587525" />
	</node>
	<node lat="60.93966944762531" lon="11.060102776522982" id="-46622">
		<tag k="name" v="Purkdalen" />
		<tag k="natural" v="valley" />
		<tag k="place" v="locality" />
		<tag k="ssr:stedsnr" v="587531" />
	</node>
	<node lat="61.150611112868994" lon="10.862730560476141" id="-46647">
		<tag k="fixme" v="consider natural=peak for the most distinct mountains in the district" />
		<tag k="name" v="Elgpiggen" />
		<tag k="natural" v="hill" />
		<tag k="place" v="locality" />
		<tag k="ssr:stedsnr" v="604466" />
	</node>
	<node lat="61.22301667058811" lon="10.7476694365877" id="-46658">
		<tag k="name" v="Høgåsen" />
		<tag k="natural" v="hill" />
		<tag k="place" v="locality" />
		<tag k="ssr:stedsnr" v="614476" />
	</node>
	<node lat="61.129680559117666" lon="10.757452779948201" id="-46662">
		<tag k="name" v="Leindalen" />
		<tag k="natural" v="valley" />
		<tag k="place" v="locality" />
		<tag k="ssr:stedsnr" v="614531" />
	</node>
	<node lat="61.125986113062595" lon="10.747108325296006" id="-46663">
		<tag k="name" v="Nattrudstilen" />
		<tag k="natural" v="hill" />
		<tag k="place" v="locality" />
		<tag k="ssr:stedsnr" v="614533" />
	</node>
	<node lat="61.14791666617705" lon="10.970049994865388" id="-46664">
		<tag k="fixme" v="consider natural=peak for the most distinct mountains in the district" />
		<tag k="name" v="Granåsen" />
		<tag k="natural" v="hill" />
		<tag k="place" v="locality" />
		<tag k="ssr:stedsnr" v="614544" />
	</node>
	<node lat="61.23900000127146" lon="10.784261110865572" id="-46668">
		<tag k="name" v="Hangenholen" />
		<tag k="natural" v="hill" />
		<tag k="place" v="locality" />
		<tag k="ssr:stedsnr" v="614744" />
	</node>
	<node lat="61.01947777956099" lon="11.046508325997893" id="-46736">
		<tag k="name" v="Høgrabben" />
		<tag k="natural" v="hill" />
		<tag k="place" v="locality" />
		<tag k="ssr:stedsnr" v="646119" />
	</node>
	<node lat="60.92526944740066" lon="10.713861107617628" id="-46748">
		<tag k="name" v="Ekredalen" />
		<tag k="natural" v="valley" />
		<tag k="place" v="locality" />
		<tag k="ssr:stedsnr" v="647393" />
	</node>
	<node lat="60.982775000699164" lon="10.893022230282806" id="-46775">
		<tag k="name" v="Revhibakkhøgda" />
		<tag k="natural" v="hill" />
		<tag k="place" v="locality" />
		<tag k="ssr:stedsnr" v="665376" />
	</node>
	<node lat="60.81533055261345" lon="10.809036107394075" id="-46792">
		<tag k="fixme" v="consider natural=peak for the most distinct mountains in the district" />
		<tag k="name" v="Ileåsen" />
		<tag k="natural" v="hill" />
		<tag k="place" v="locality" />
		<tag k="ssr:stedsnr" v="723034" />
	</node>
	<node lat="61.129827777322376" lon="10.943550000872905" id="-46808">
		<tag k="name" v="Kalvdalen" />
		<tag k="natural" v="valley" />
		<tag k="place" v="locality" />
		<tag k="ssr:stedsnr" v="726456" />
	</node>
	<node lat="61.007188886241316" lon="10.996399999823563" id="-46816">
		<tag k="fixme" v="consider natural=peak for the most distinct mountains in the district" />
		<tag k="name" v="Svartåsen" />
		<tag k="natural" v="hill" />
		<tag k="place" v="locality" />
		<tag k="ssr:stedsnr" v="735543" />
	</node>
	<node lat="61.02137778188266" lon="10.919183326697448" id="-46817">
		<tag k="name" v="Aursmoberget" />
		<tag k="natural" v="hill" />
		<tag k="place" v="locality" />
		<tag k="ssr:stedsnr" v="735553" />
	</node>
	<node lat="61.23620000009106" lon="10.914916660655502" id="-46823">
		<tag k="fixme" v="consider natural=peak for the most distinct mountains in the district" />
		<tag k="name" v="Øyungsfjellet" />
		<tag k="natural" v="hill" />
		<tag k="place" v="locality" />
		<tag k="ssr:stedsnr" v="736749" />
	</node>
	<node lat="60.890813891259384" lon="10.991916667418208" id="-46841">
		<tag k="name" v="Høsbjørkampen" />
		<tag k="natural" v="hill" />
		<tag k="place" v="locality" />
		<tag k="ssr:stedsnr" v="737272" />
	</node>
	<node lat="61.05775833160693" lon="10.831841658222785" id="-46876">
		<tag k="name" v="Tørhaugen" />
		<tag k="natural" v="hill" />
		<tag k="place" v="locality" />
		<tag k="ssr:stedsnr" v="768684" />
	</node>
	<node lat="60.9827361150576" lon="10.94478055309557" id="-46881">
		<tag k="name" v="Nysæterlia" />
		<tag k="natural" v="slope" />
		<tag k="place" v="locality" />
		<tag k="ssr:stedsnr" v="769334" />
	</node>
	<node lat="61.00434167026755" lon="10.937297216519674" id="-46882">
		<tag k="fixme" v="consider natural=peak for the most distinct mountains in the district" />
		<tag k="name" v="Fløytåsen" />
		<tag k="natural" v="hill" />
		<tag k="place" v="locality" />
		<tag k="ssr:stedsnr" v="769344" />
	</node>
	<node lat="60.730377775430874" lon="10.977211111835478" id="-46883">
		<tag k="name" v="Kræmerbakken" />
		<tag k="natural" v="slope" />
		<tag k="place" v="locality" />
		<tag k="ssr:stedsnr" v="770551" />
	</node>
	<node lat="61.07521666624222" lon="10.753280556821615" id="-46903">
		<tag k="name" v="Baggåsen" />
		<tag k="natural" v="hill" />
		<tag k="place" v="locality" />
		<tag k="ssr:stedsnr" v="785627" />
	</node>
	<node lat="61.00810000215051" lon="11.077666669734068" id="-46930">
		<tag k="fixme" v="consider natural=peak for the most distinct mountains in the district" />
		<tag k="name" v="Ruskåskollen" />
		<tag k="natural" v="hill" />
		<tag k="place" v="locality" />
		<tag k="ssr:stedsnr" v="795601" />
	</node>
	<node lat="61.02265833329126" lon="10.931349997784556" id="-46943">
		<tag k="fixme" v="consider natural=peak for the most distinct mountains in the district" />
		<tag k="name" v="Lauvåsen" />
		<tag k="natural" v="hill" />
		<tag k="place" v="locality" />
		<tag k="ssr:stedsnr" v="797469" />
	</node>
	<node lat="61.031016670094225" lon="10.658513882063087" id="-47012">
		<tag k="name" v="Teinvikholen" />
		<tag k="place" v="locality" />
		<tag k="ssr:stedsnr" v="847400" />
	</node>
	<node lat="61.154205558097296" lon="10.980658341186224" id="-47017">
		<tag k="name" v="Skattumshaugen" />
		<tag k="natural" v="hill" />
		<tag k="place" v="locality" />
		<tag k="ssr:stedsnr" v="848296" />
	</node>
	<node lat="60.99478332964149" lon="10.878561113728958" id="-47023">
		<tag k="alt_name" v="Kluftjernslia" />
		<tag k="name" v="Klufttjernslia" />
		<tag k="natural" v="slope" />
		<tag k="place" v="locality" />
		<tag k="ssr:stedsnr" v="848362" />
	</node>
	<node lat="60.907122221708256" lon="10.727208327666354" id="-47026">
		<tag k="name" v="Apostelhaugen" />
		<tag k="natural" v="hill" />
		<tag k="place" v="locality" />
		<tag k="ssr:stedsnr" v="848755" />
	</node>
	<node lat="61.23213332922866" lon="10.782824992777002" id="-47029">
		<tag k="fixme" v="consider natural=peak for the most distinct mountains in the district" />
		<tag k="name" v="Svartåsen" />
		<tag k="natural" v="hill" />
		<tag k="place" v="locality" />
		<tag k="ssr:stedsnr" v="857479" />
	</node>
	<node lat="61.08450277692396" lon="10.646050002479802" id="-47041">
		<tag k="name" v="Øverlihøgda" />
		<tag k="natural" v="hill" />
		<tag k="place" v="locality" />
		<tag k="ssr:stedsnr" v="857867" />
	</node>
	<node lat="61.14556389209473" lon="10.763244447249827" id="-47044">
		<tag k="fixme" v="consider natural=peak for the most distinct mountains in the district" />
		<tag k="name" v="Mostfjellet" />
		<tag k="natural" v="hill" />
		<tag k="place" v="locality" />
		<tag k="ssr:stedsnr" v="858549" />
	</node>
	<node lat="61.179538884908816" lon="10.796980551821477" id="-47046">
		<tag k="alt_name" v="Steinvikfjellet" />
		<tag k="fixme" v="consider natural=peak for the most distinct mountains in the district" />
		<tag k="name" v="Steinsvikfjellet" />
		<tag k="natural" v="hill" />
		<tag k="place" v="locality" />
		<tag k="ssr:stedsnr" v="858562" />
	</node>
	<node lat="61.07868889192368" lon="11.031550007339124" id="-47085">
		<tag k="name" v="Prestsæterhøgda" />
		<tag k="natural" v="hill" />
		<tag k="place" v="locality" />
		<tag k="ssr:stedsnr" v="877320" />
	</node>
	<node lat="61.01787222280913" lon="10.854377780473882" id="-47101">
		<tag k="name" v="Rådalen" />
		<tag k="natural" v="valley" />
		<tag k="place" v="locality" />
		<tag k="ssr:stedsnr" v="889381" />
	</node>
	<node lat="60.99566095421388" lon="10.950093679862565" id="-47126">
		<tag k="name" v="Bjønndalslia" />
		<tag k="natural" v="slope" />
		<tag k="place" v="locality" />
		<tag k="ssr:stedsnr" v="952344" />
	</node>
	<node lat="60.988963684358865" lon="10.947258832260156" id="-47127">
		<tag k="name" v="Bjønndalen" />
		<tag k="natural" v="valley" />
		<tag k="place" v="locality" />
		<tag k="ssr:stedsnr" v="952349" />
	</node>
	<node lat="61.022302780880324" lon="10.934700002085409" id="-47142">
		<tag k="name" v="Lauvåsskaret" />
		<tag k="natural" v="valley" />
		<tag k="place" v="locality" />
		<tag k="ssr:stedsnr" v="965828" />
	</node>
	<node lat="60.97269721801167" lon="11.074119450932036" id="-47152">
		<tag k="name" v="Vidalen" />
		<tag k="natural" v="valley" />
		<tag k="place" v="locality" />
		<tag k="ssr:stedsnr" v="968260" />
	</node>
	<node lat="61.17564444326238" lon="10.867877770690622" id="-47153">
		<tag k="name" v="Kvarstadsæterlia" />
		<tag k="natural" v="slope" />
		<tag k="place" v="locality" />
		<tag k="ssr:stedsnr" v="968488" />
	</node>
	<node lat="60.982561114931094" lon="10.981722226722297" id="-47154">
		<tag k="name" v="Raudhella" />
		<tag k="natural" v="hill" />
		<tag k="place" v="locality" />
		<tag k="ssr:stedsnr" v="968763" />
	</node>
</osm>
