<?xml version="1.0" encoding="UTF-8"?>
<osm version="0.6" generator="osmapis">
	<node lat="60.74314722404966" lon="11.015072228422286" id="-38246">
		<tag k="fixme" v="consider boundary=protected_area and relevant protect_class if not nature reserve" />
		<tag k="leisure" v="nature_reserve" />
		<tag k="name" v="Bergevika naturreservat" />
		<tag k="ssr:stedsnr" v="302479" />
	</node>
	<node lat="60.99602074117417" lon="10.604594997886869" id="-39291">
		<tag k="fixme" v="consider boundary=protected_area and relevant protect_class if not nature reserve" />
		<tag k="leisure" v="nature_reserve" />
		<tag k="name" v="Kløvstadhøgda naturreservat" />
		<tag k="ssr:stedsnr" v="980632" />
	</node>
	<node lat="60.883581708782096" lon="11.106837497354329" id="-39636">
		<tag k="fixme" v="consider boundary=protected_area and relevant protect_class if not nature reserve" />
		<tag k="leisure" v="nature_reserve" />
		<tag k="name" v="Holstadlia naturreservat" />
		<tag k="ssr:stedsnr" v="1083970" />
	</node>
	<node lat="60.987899118981254" lon="10.616718788894923" id="-39637">
		<tag k="fixme" v="consider boundary=protected_area and relevant protect_class if not nature reserve" />
		<tag k="leisure" v="nature_reserve" />
		<tag k="name" v="Havikberget og Nordberg naturreservat" />
		<tag k="ssr:stedsnr" v="1083971" />
	</node>
</osm>
