<?xml version="1.0" encoding="UTF-8"?>
<osm version="0.6" generator="osmapis">
	<node lat="61.12459444690554" lon="10.695086102730196" id="-19712">
		<tag k="landuse" v="industrial" />
		<tag k="name" v="Tyria II" />
		<tag k="power" v="plant" />
		<tag k="ssr:stedsnr" v="240021" />
	</node>
	<node lat="60.76995278136617" lon="10.8676083274631" id="-19772">
		<tag k="man_made" v="quay" />
		<tag k="name" v="Hagelund" />
		<tag k="place" v="locality" />
		<tag k="ssr:stedsnr" v="81003" />
	</node>
	<node lat="60.94136110804176" lon="10.769144444422007" id="-19937">
		<tag k="bridge" v="yes" />
		<tag k="layer" v="1" />
		<tag k="name" v="Kolodalsbekken" />
		<tag k="ssr:stedsnr" v="167618" />
	</node>
	<node lat="61.05961666601912" lon="10.481986107027403" id="-19938">
		<tag k="bridge" v="yes" />
		<tag k="layer" v="1" />
		<tag k="name" v="Skog" />
		<tag k="ssr:stedsnr" v="167623" />
	</node>
	<node lat="60.872463887560244" lon="11.035850003892113" id="-19939">
		<tag k="bridge" v="yes" />
		<tag k="layer" v="1" />
		<tag k="name" v="Sagstubrua" />
		<tag k="ssr:stedsnr" v="167626" />
	</node>
	<node lat="60.857074999561355" lon="11.055747217693392" id="-20061">
		<tag k="bridge" v="yes" />
		<tag k="layer" v="1" />
		<tag k="name" v="Hjellumsbekk" />
		<tag k="ssr:stedsnr" v="289628" />
	</node>
	<node lat="60.8935166671437" lon="10.868127780107592" id="-20062">
		<tag k="bridge" v="yes" />
		<tag k="layer" v="1" />
		<tag k="name" v="Brovoldsbekken" />
		<tag k="ssr:stedsnr" v="289632" />
	</node>
	<node lat="61.05571944171757" lon="10.807933326184084" id="-20148">
		<tag k="junction" v="yes" />
		<tag k="name" v="Dampsagvegskillet" />
		<tag k="place" v="locality" />
		<tag k="ssr:stedsnr" v="343699" />
	</node>
	<node lat="60.982980555640296" lon="11.063500007397804" id="-20158">
		<tag k="alt_name" v="Løstigvaet" />
		<tag k="ford" v="yes" />
		<tag k="name" v="Løstigvadet" />
		<tag k="place" v="locality" />
		<tag k="ssr:stedsnr" v="479034" />
	</node>
	<node lat="60.940650001270605" lon="10.73044999494915" id="-20177">
		<tag k="junction" v="yes" />
		<tag k="name" v="Brandbutajet" />
		<tag k="place" v="locality" />
		<tag k="ssr:stedsnr" v="373201" />
	</node>
	<node lat="61.21044166939226" lon="10.943333324606039" id="-20200">
		<tag k="ford" v="yes" />
		<tag k="name" v="Øvre Liervadet" />
		<tag k="place" v="locality" />
		<tag k="ssr:stedsnr" v="482457" />
	</node>
	<node lat="61.02451110950045" lon="10.642791674373301" id="-20210">
		<tag k="highway" v="path" />
		<tag k="name" v="Sætervegen" />
		<tag k="ssr:stedsnr" v="483398" />
	</node>
	<node lat="61.029930557525994" lon="10.83787778211098" id="-20233">
		<tag k="bridge" v="yes" />
		<tag k="layer" v="1" />
		<tag k="name" v="Muremita bru" />
		<tag k="ssr:stedsnr" v="410600" />
	</node>
	<node lat="61.20698055962525" lon="10.94258332911459" id="-20244">
		<tag k="ford" v="yes" />
		<tag k="name" v="Nedre Liervadet" />
		<tag k="place" v="locality" />
		<tag k="ssr:stedsnr" v="421446" />
	</node>
	<node lat="60.86409721938262" lon="10.887402783847282" id="-20378">
		<tag k="bridge" v="yes" />
		<tag k="layer" v="1" />
		<tag k="name" v="Holter bru" />
		<tag k="ssr:stedsnr" v="471575" />
	</node>
	<node lat="60.92993151118515" lon="10.698673117440448" id="-20397">
		<tag k="name" v="Moelv stasjon" />
		<tag k="railway" v="station" />
		<tag k="ssr:stedsnr" v="676839" />
		<tag k="train" v="yes" />
	</node>
	<node lat="61.11398055882534" lon="10.671113897890736" id="-20412">
		<tag k="landuse" v="industrial" />
		<tag k="name" v="Tyria I" />
		<tag k="power" v="plant" />
		<tag k="ssr:stedsnr" v="482018" />
	</node>
	<node lat="60.83504999599324" lon="11.084838881814541" id="-20472">
		<tag k="bridge" v="yes" />
		<tag k="layer" v="1" />
		<tag k="name" v="Grønsvebakken" />
		<tag k="ssr:stedsnr" v="531613" />
	</node>
	<node lat="61.04232500178054" lon="10.819766659303784" id="-20473">
		<tag k="bridge" v="yes" />
		<tag k="layer" v="1" />
		<tag k="name" v="Bøverlund bru" />
		<tag k="ssr:stedsnr" v="531624" />
	</node>
	<node lat="60.918183333119856" lon="10.916600007220996" id="-20474">
		<tag k="bridge" v="yes" />
		<tag k="layer" v="1" />
		<tag k="name" v="Skalløkke bru" />
		<tag k="ssr:stedsnr" v="531627" />
	</node>
	<node lat="60.91466666345921" lon="10.715794436332589" id="-20475">
		<tag k="bridge" v="yes" />
		<tag k="layer" v="1" />
		<tag k="name" v="Skarpsno" />
		<tag k="ssr:stedsnr" v="531628" />
	</node>
	<node lat="60.82894167089635" lon="10.98505555044328" id="-20545">
		<tag k="name" v="Jessnes stasjon" />
		<tag k="railway" v="station" />
		<tag k="ssr:stedsnr" v="555368" />
		<tag k="train" v="yes" />
	</node>
	<node lat="60.877836111530115" lon="10.92711110362752" id="-20588">
		<tag k="leisure" v="marina" />
		<tag k="name" v="Brumunddal småbåthavn" />
		<tag k="ssr:stedsnr" v="606000" />
	</node>
	<node lat="61.050897223489656" lon="10.69953610253747" id="-20655">
		<tag k="highway" v="path" />
		<tag k="name" v="Lotterudgutua" />
		<tag k="ssr:stedsnr" v="707282" />
	</node>
	<node lat="60.924322224177295" lon="10.685355557327918" id="-20695">
		<tag k="leisure" v="marina" />
		<tag k="name" v="Moelv brygge" />
		<tag k="ssr:stedsnr" v="890363" />
	</node>
	<node lat="60.80873333233163" lon="10.733438890386587" id="-20739">
		<tag k="man_made" v="quay" />
		<tag k="name" v="Mengshol brygge" />
		<tag k="place" v="locality" />
		<tag k="ssr:stedsnr" v="677418" />
	</node>
	<node lat="61.066172224978516" lon="10.615183340674092" id="-20752">
		<tag k="bridge" v="yes" />
		<tag k="layer" v="1" />
		<tag k="name" v="Øvre Haugselv" />
		<tag k="ssr:stedsnr" v="895554" />
	</node>
	<node lat="60.92292222223553" lon="10.68902778311946" id="-20761">
		<tag k="leisure" v="marina" />
		<tag k="name" v="Moelv småbåthavn" />
		<tag k="ssr:stedsnr" v="708370" />
	</node>
	<node lat="61.22156389101984" lon="10.772266671151682" id="-20815">
		<tag k="ford" v="yes" />
		<tag k="name" v="Svartvadet" />
		<tag k="place" v="locality" />
		<tag k="ssr:stedsnr" v="918761" />
	</node>
	<node lat="60.940527781036906" lon="10.68358611657669" id="-20821">
		<tag k="leisure" v="marina" />
		<tag k="name" v="Hagavika småbåthavn" />
		<tag k="ssr:stedsnr" v="768302" />
	</node>
	<node lat="60.83527221849812" lon="11.008327770641166" id="-20823">
		<tag k="junction" v="yes" />
		<tag k="name" v="Lefs-torget" />
		<tag k="place" v="locality" />
		<tag k="ssr:stedsnr" v="768418" />
	</node>
	<node lat="61.12521944242988" lon="10.696411118537236" id="-20844">
		<tag k="bridge" v="yes" />
		<tag k="layer" v="1" />
		<tag k="name" v="Gunhildsrud bru" />
		<tag k="ssr:stedsnr" v="774624" />
	</node>
	<node lat="60.86367221794121" lon="11.046583340510454" id="-20845">
		<tag k="bridge" v="yes" />
		<tag k="layer" v="1" />
		<tag k="name" v="Kvernvollen" />
		<tag k="ssr:stedsnr" v="774627" />
	</node>
	<node lat="60.8710055579902" lon="10.834752777375492" id="-20908">
		<tag k="junction" v="yes" />
		<tag k="name" v="Gaven" />
		<tag k="place" v="locality" />
		<tag k="ssr:stedsnr" v="810004" />
	</node>
	<node lat="60.993797218180276" lon="10.965486107823766" id="-20963">
		<tag k="bridge" v="yes" />
		<tag k="layer" v="1" />
		<tag k="name" v="Brumund sag" />
		<tag k="ssr:stedsnr" v="835604" />
	</node>
	<node lat="60.88364722660069" lon="10.912333333289148" id="-20964">
		<tag k="bridge" v="yes" />
		<tag k="layer" v="1" />
		<tag k="name" v="Skanselva" />
		<tag k="ssr:stedsnr" v="835616" />
	</node>
	<node lat="60.93628055879146" lon="10.921391667042514" id="-20965">
		<tag k="bridge" v="yes" />
		<tag k="layer" v="1" />
		<tag k="name" v="Sagstua bru" />
		<tag k="ssr:stedsnr" v="835639" />
	</node>
	<node lat="61.02767500333908" lon="11.077188892402443" id="-21027">
		<tag k="bridge" v="yes" />
		<tag k="layer" v="1" />
		<tag k="name" v="Arnekloppa" />
		<tag k="ssr:stedsnr" v="890903" />
	</node>
	<node lat="60.878830558901655" lon="10.929197213903262" id="-21032">
		<tag k="bridge" v="yes" />
		<tag k="layer" v="1" />
		<tag k="name" v="Granrud bru" />
		<tag k="ssr:stedsnr" v="896608" />
	</node>
	<node lat="60.71762221949932" lon="11.017724992138966" id="-21106">
		<tag k="man_made" v="quay" />
		<tag k="name" v="Hovinsholm brygge" />
		<tag k="place" v="locality" />
		<tag k="ssr:stedsnr" v="952571" />
	</node>
	<node lat="60.88060160567424" lon="10.937625796820903" id="-21124">
		<tag k="name" v="Brumunddal stasjon" />
		<tag k="railway" v="station" />
		<tag k="ssr:stedsnr" v="989654" />
		<tag k="train" v="yes" />
	</node>
	<node lat="60.89598611361582" lon="10.844427768779328" id="-21197">
		<tag k="bridge" v="yes" />
		<tag k="layer" v="1" />
		<tag k="name" v="Harebakksveen" />
		<tag k="ssr:stedsnr" v="46627" />
	</node>
	<node lat="60.88082777627301" lon="10.923666665820758" id="-21198">
		<tag k="bridge" v="yes" />
		<tag k="layer" v="1" />
		<tag k="name" v="Båhusbekken" />
		<tag k="ssr:stedsnr" v="46634" />
	</node>
	<node lat="60.88988889113002" lon="10.931641665780111" id="-21199">
		<tag k="bridge" v="yes" />
		<tag k="layer" v="1" />
		<tag k="name" v="Båhus bru" />
		<tag k="ssr:stedsnr" v="46636" />
	</node>
	<node lat="61.21459167079197" lon="10.94704722181341" id="-21222">
		<tag k="highway" v="path" />
		<tag k="name" v="Rondanestien" />
		<tag k="ssr:stedsnr" v="58497" />
	</node>
	<node lat="60.769183331826554" lon="10.905702775125697" id="-21315">
		<tag k="junction" v="yes" />
		<tag k="name" v="Holskrysset" />
		<tag k="place" v="locality" />
		<tag k="ssr:stedsnr" v="102867" />
	</node>
	<node lat="60.85809722580967" lon="10.866444436230847" id="-21319">
		<tag k="bridge" v="yes" />
		<tag k="layer" v="1" />
		<tag k="name" v="Haugs bru" />
		<tag k="ssr:stedsnr" v="107598" />
	</node>
	<node lat="60.86475833181664" lon="10.975391667315852" id="-21410">
		<tag k="junction" v="yes" />
		<tag k="name" v="Stenbekk" />
		<tag k="place" v="locality" />
		<tag k="ssr:stedsnr" v="161470" />
	</node>
	<node lat="61.004666666811225" lon="10.830577781949305" id="-21424">
		<tag k="bridge" v="yes" />
		<tag k="layer" v="1" />
		<tag k="name" v="Nymoen bru" />
		<tag k="ssr:stedsnr" v="167634" />
	</node>
	<node lat="60.85477777491565" lon="10.956852768865044" id="-21486">
		<tag k="name" v="Hagen" />
		<tag k="railway" v="station" />
		<tag k="ssr:stedsnr" v="191338" />
		<tag k="train" v="yes" />
	</node>
	<node lat="60.88738333119309" lon="10.911300004797715" id="-21568">
		<tag k="bridge" v="yes" />
		<tag k="layer" v="1" />
		<tag k="name" v="Pellervika" />
		<tag k="ssr:stedsnr" v="228663" />
	</node>
	<node lat="61.05980278102614" lon="10.481627776309377" id="-21576">
		<tag k="bridge" v="yes" />
		<tag k="layer" v="1" />
		<tag k="name" v="Skaug bru" />
		<tag k="ssr:stedsnr" v="283647" />
	</node>
	<node lat="61.03879444656989" lon="10.59182778458839" id="-21588">
		<tag k="bridge" v="yes" />
		<tag k="layer" v="1" />
		<tag k="name" v="Nybrua" />
		<tag k="ssr:stedsnr" v="289661" />
	</node>
	<node lat="60.90611944719277" lon="10.765075001367768" id="-21613">
		<tag k="highway" v="path" />
		<tag k="name" v="Prestvegen" />
		<tag k="ssr:stedsnr" v="301759" />
	</node>
	<node lat="60.886961112323284" lon="10.929063880597662" id="-21725">
		<tag k="bridge" v="yes" />
		<tag k="layer" v="1" />
		<tag k="name" v="Granerud bru" />
		<tag k="ssr:stedsnr" v="349624" />
	</node>
	<node lat="60.92590833052354" lon="11.006522222523547" id="-21726">
		<tag k="bridge" v="yes" />
		<tag k="layer" v="1" />
		<tag k="name" v="Mauset bru" />
		<tag k="ssr:stedsnr" v="349644" />
	</node>
	<node lat="60.82923055500087" lon="10.899088888047636" id="-21727">
		<tag k="bridge" v="yes" />
		<tag k="layer" v="1" />
		<tag k="name" v="Nerlia bru" />
		<tag k="ssr:stedsnr" v="349650" />
	</node>
	<node lat="61.13520000330107" lon="10.692608341413862" id="-21742">
		<tag k="junction" v="yes" />
		<tag k="name" v="Nybukrysset" />
		<tag k="place" v="locality" />
		<tag k="ssr:stedsnr" v="361021" />
	</node>
	<node lat="61.04961111434716" lon="10.92351667001393" id="-21971">
		<tag k="fixme" v="consider highway=path" />
		<tag k="highway" v="track" />
		<tag k="name" v="Gåstjernsvegen" />
		<tag k="ssr:stedsnr" v="544746" />
	</node>
	<node lat="61.04285000161825" lon="10.623405557626432" id="-22024">
		<tag k="junction" v="yes" />
		<tag k="name" v="Spennivegg" />
		<tag k="place" v="locality" />
		<tag k="ssr:stedsnr" v="585218" />
	</node>
	<node lat="60.7882055580431" lon="10.881502776543757" id="-22044">
		<tag k="junction" v="yes" />
		<tag k="name" v="Hubergkrysset" />
		<tag k="place" v="locality" />
		<tag k="ssr:stedsnr" v="587888" />
	</node>
	<node lat="60.880636111836594" lon="10.924188896435835" id="-22047">
		<tag k="bridge" v="yes" />
		<tag k="layer" v="1" />
		<tag k="name" v="Langmoen" />
		<tag k="ssr:stedsnr" v="592610" />
	</node>
	<node lat="61.03865555291163" lon="10.484936114746525" id="-22048">
		<tag k="bridge" v="yes" />
		<tag k="layer" v="1" />
		<tag k="name" v="Nedre Bergseng" />
		<tag k="ssr:stedsnr" v="592637" />
	</node>
	<node lat="61.05523889261348" lon="10.609111106953238" id="-22049">
		<tag k="bridge" v="yes" />
		<tag k="layer" v="1" />
		<tag k="name" v="Nedre Haugselv bru" />
		<tag k="ssr:stedsnr" v="592641" />
	</node>
	<node lat="61.03191666979757" lon="11.026377776121638" id="-22146">
		<tag k="highway" v="path" />
		<tag k="name" v="Trælsamtvegen" />
		<tag k="ssr:stedsnr" v="646118" />
	</node>
	<node lat="60.77478888801988" lon="10.94429166444428" id="-22170">
		<tag k="junction" v="yes" />
		<tag k="name" v="Grinikrysset" />
		<tag k="place" v="locality" />
		<tag k="ssr:stedsnr" v="648870" />
	</node>
	<node lat="61.06940277997365" lon="10.84148611025653" id="-22171">
		<tag k="bridge" v="yes" />
		<tag k="layer" v="1" />
		<tag k="name" v="Vivelsbekk" />
		<tag k="ssr:stedsnr" v="652578" />
	</node>
	<node lat="60.843811112360676" lon="11.046994437472009" id="-22172">
		<tag k="bridge" v="yes" />
		<tag k="layer" v="1" />
		<tag k="name" v="Deglumsbekk" />
		<tag k="ssr:stedsnr" v="653577" />
	</node>
	<node lat="60.9542277793946" lon="10.878344446112978" id="-22173">
		<tag k="bridge" v="yes" />
		<tag k="layer" v="1" />
		<tag k="name" v="Byflaten bru" />
		<tag k="ssr:stedsnr" v="653580" />
	</node>
	<node lat="61.1062416678445" lon="10.627477778749663" id="-22194">
		<tag k="fixme" v="consider highway=path" />
		<tag k="highway" v="track" />
		<tag k="name" v="Oles veg" />
		<tag k="ssr:stedsnr" v="723579" />
	</node>
	<node lat="60.79264722238411" lon="10.896086108173865" id="-22212">
		<tag k="junction" v="yes" />
		<tag k="name" v="Mailundkrysset" />
		<tag k="place" v="locality" />
		<tag k="ssr:stedsnr" v="725798" />
	</node>
	<node lat="61.030102774531336" lon="10.837797225861456" id="-22267">
		<tag k="bridge" v="yes" />
		<tag k="layer" v="1" />
		<tag k="name" v="Bøverbru" />
		<tag k="ssr:stedsnr" v="768370" />
	</node>
	<node lat="60.92215555935208" lon="11.00211667141352" id="-22292">
		<tag k="bridge" v="yes" />
		<tag k="layer" v="1" />
		<tag k="name" v="Bekkedal" />
		<tag k="ssr:stedsnr" v="774636" />
	</node>
	<node lat="60.89668610990699" lon="11.03664165867828" id="-22293">
		<tag k="bridge" v="yes" />
		<tag k="layer" v="1" />
		<tag k="name" v="Vesleelven" />
		<tag k="ssr:stedsnr" v="774642" />
	</node>
	<node lat="61.07000833165506" lon="10.596555552487038" id="-22304">
		<tag k="junction" v="yes" />
		<tag k="name" v="Bekkedalen" />
		<tag k="place" v="locality" />
		<tag k="ssr:stedsnr" v="783789" />
	</node>
	<node lat="60.87008889101781" lon="11.010241663774531" id="-22375">
		<tag k="junction" v="yes" />
		<tag k="name" v="Tvet-tajet" />
		<tag k="place" v="locality" />
		<tag k="ssr:stedsnr" v="828332" />
	</node>
	<node lat="60.89842222030132" lon="11.01843610300168" id="-22384">
		<tag k="highway" v="path" />
		<tag k="name" v="Reksla" />
		<tag k="ssr:stedsnr" v="829237" />
	</node>
	<node lat="60.92351666854576" lon="11.093488891649077" id="-22489">
		<tag k="highway" v="path" />
		<tag k="name" v="Bjørsætervegen" />
		<tag k="ssr:stedsnr" v="889241" />
	</node>
	<node lat="61.05091666448539" lon="10.908399990722142" id="-22505">
		<tag k="fixme" v="consider highway=path" />
		<tag k="highway" v="track" />
		<tag k="name" v="Syljulivegen" />
		<tag k="ssr:stedsnr" v="950383" />
	</node>
	<node lat="60.827474995836624" lon="10.928922215806137" id="-22542">
		<tag k="man_made" v="quay" />
		<tag k="name" v="Bysætervika brygge" />
		<tag k="place" v="locality" />
		<tag k="ssr:stedsnr" v="967880" />
	</node>
</osm>
