<?xml version="1.0" encoding="UTF-8"?>
<osm generator="osmapis" version="0.6">
	<node id="-63529" lat="60.7887277783" lon="4.98479166706">
		<tag k="name" v="Jessholmen" />
		<tag k="ssr:date" v="2019-12-27" />
		<tag k="ssr:gruppe" v="navigasjon" />
		<tag k="ssr:hovedgruppe" v="infrastruktur" />
		<tag k="ssr:stedsnr" v="631881" />
		<tag k="ssr:type" v="fyrlykt" />
	</node>
	<node id="-63323" lat="60.8235194478" lon="4.79328611387">
		<tag k="name" v="Rongeværsundet" />
		<tag k="ssr:date" v="2019-12-27" />
		<tag k="ssr:gruppe" v="navigasjon" />
		<tag k="ssr:hovedgruppe" v="infrastruktur" />
		<tag k="ssr:stedsnr" v="190135" />
		<tag k="ssr:type" v="fyrlykt" />
	</node>
	<node id="-63193" lat="60.7787641402" lon="4.96177981515">
		<tag k="name" v="Kluftholmen lanterne" />
		<tag k="ssr:date" v="2020-09-01" />
		<tag k="ssr:gruppe" v="navigasjon" />
		<tag k="ssr:hovedgruppe" v="infrastruktur" />
		<tag k="ssr:stedsnr" v="54260" />
		<tag k="ssr:type" v="lanterne" />
	</node>
	<node id="-62710" lat="60.8187724804" lon="4.75424992603">
		<tag k="name" v="Vetegygraflua" />
		<tag k="ssr:date" v="2020-09-08" />
		<tag k="ssr:gruppe" v="navigasjon" />
		<tag k="ssr:hovedgruppe" v="infrastruktur" />
		<tag k="ssr:stedsnr" v="129141" />
		<tag k="ssr:type" v="fyrlykt" />
	</node>
	<node id="-63093" lat="60.7368777813" lon="5.03075556267">
		<tag k="name" v="Stridsholmen lanterne" />
		<tag k="ssr:date" v="2019-12-27" />
		<tag k="ssr:gruppe" v="navigasjon" />
		<tag k="ssr:hovedgruppe" v="infrastruktur" />
		<tag k="ssr:stedsnr" v="843220" />
		<tag k="ssr:type" v="lanterne" />
	</node>
	<node id="-63316" lat="60.8055756442" lon="4.79598020805">
		<tag k="alt_name" v="Rongevær" />
		<tag k="name" v="Rongevær lykt" />
		<tag k="ssr:date" v="2020-09-08" />
		<tag k="ssr:gruppe" v="navigasjon" />
		<tag k="ssr:hovedgruppe" v="infrastruktur" />
		<tag k="ssr:stedsnr" v="190093" />
		<tag k="ssr:type" v="fyrlykt" />
	</node>
	<node id="-63655" lat="60.7982666505" lon="4.93977503569">
		<tag k="name" v="Kilstraumen" />
		<tag k="ssr:date" v="2019-12-27" />
		<tag k="ssr:gruppe" v="veg" />
		<tag k="ssr:hovedgruppe" v="infrastruktur" />
		<tag k="ssr:stedsnr" v="1040982" />
		<tag k="ssr:type" v="adressenavn" />
	</node>
	<node id="-62745" lat="60.8134722267" lon="4.77962500129">
		<tag k="name" v="Teistholmen lykt" />
		<tag k="ssr:date" v="2019-12-27" />
		<tag k="ssr:gruppe" v="navigasjon" />
		<tag k="ssr:hovedgruppe" v="infrastruktur" />
		<tag k="ssr:stedsnr" v="287840" />
		<tag k="ssr:type" v="fyrlykt" />
	</node>
	<node id="-63664" lat="60.3866658713" lon="5.33255753121">
		<tag k="name" v="Vestland fylke" />
		<tag k="ssr:date" v="2020-01-13" />
		<tag k="ssr:gruppe" v="administrativeIndelinger" />
		<tag k="ssr:hovedgruppe" v="offentligAdministrasjon" />
		<tag k="ssr:stedsnr" v="1074408" />
		<tag k="ssr:type" v="fylke" />
	</node>
	<node id="-63656" lat="60.8118184137" lon="4.80852489896">
		<tag k="name" v="Rongeværet" />
		<tag k="ssr:date" v="2019-12-27" />
		<tag k="ssr:gruppe" v="veg" />
		<tag k="ssr:hovedgruppe" v="infrastruktur" />
		<tag k="ssr:stedsnr" v="1040997" />
		<tag k="ssr:type" v="adressenavn" />
	</node>
	<node id="-63202" lat="60.8087072059" lon="4.9428439836">
		<tag k="name" v="Hagelskjeret lykt" />
		<tag k="ssr:date" v="2020-09-08" />
		<tag k="ssr:gruppe" v="navigasjon" />
		<tag k="ssr:hovedgruppe" v="infrastruktur" />
		<tag k="ssr:stedsnr" v="69023" />
		<tag k="ssr:type" v="fyrlykt" />
	</node>
	<node id="-63661" lat="60.8483942137" lon="4.75290821823">
		<tag k="name" v="Grimeskjeret varde" />
		<tag k="ssr:date" v="2019-12-27" />
		<tag k="ssr:gruppe" v="navigasjon" />
		<tag k="ssr:hovedgruppe" v="infrastruktur" />
		<tag k="ssr:stedsnr" v="1072190" />
		<tag k="ssr:type" v="sjøvarde" />
	</node>
	<node id="-63403" lat="60.7774166636" lon="4.93229445323">
		<tag k="alt_name" v="Austrheim" />
		<tag k="name" v="Austrheim kommune" />
		<tag k="ssr:date" v="2019-12-27" />
		<tag k="ssr:gruppe" v="administrativeIndelinger" />
		<tag k="ssr:hovedgruppe" v="offentligAdministrasjon" />
		<tag k="ssr:stedsnr" v="388078" />
		<tag k="ssr:type" v="kommune" />
	</node>
	<node id="-63434" lat="60.8144462071" lon="4.7749461013">
		<tag k="name" v="Teistholmen" />
		<tag k="ssr:date" v="2020-09-08" />
		<tag k="ssr:gruppe" v="navigasjon" />
		<tag k="ssr:hovedgruppe" v="infrastruktur" />
		<tag k="ssr:stedsnr" v="433092" />
		<tag k="ssr:type" v="fyrlykt" />
	</node>
	<node id="-62985" lat="60.7859008577" lon="4.7975842493">
		<tag k="name" v="Senoksen" />
		<tag k="ssr:date" v="2020-09-03" />
		<tag k="ssr:gruppe" v="navigasjon" />
		<tag k="ssr:hovedgruppe" v="infrastruktur" />
		<tag k="ssr:stedsnr" v="736008" />
		<tag k="ssr:type" v="fyrlykt" />
	</node>
	<node id="-63368" lat="60.7606506071" lon="4.868218691">
		<tag k="name" v="Vardholmen" />
		<tag k="ssr:date" v="2020-09-08" />
		<tag k="ssr:gruppe" v="navigasjon" />
		<tag k="ssr:hovedgruppe" v="infrastruktur" />
		<tag k="ssr:stedsnr" v="312195" />
		<tag k="ssr:type" v="fyrlykt" />
	</node>
	<node id="-62887" lat="60.7489944936" lon="5.0189065215">
		<tag k="name" v="Sandholmen" />
		<tag k="ssr:date" v="2020-09-08" />
		<tag k="ssr:gruppe" v="navigasjon" />
		<tag k="ssr:hovedgruppe" v="infrastruktur" />
		<tag k="ssr:stedsnr" v="431803" />
		<tag k="ssr:type" v="fyrlykt" />
	</node>
	<node id="-63653" lat="60.7613285583" lon="4.90174671892">
		<tag k="name" v="Bergsvikmarka" />
		<tag k="ssr:date" v="2019-12-27" />
		<tag k="ssr:gruppe" v="veg" />
		<tag k="ssr:hovedgruppe" v="infrastruktur" />
		<tag k="ssr:stedsnr" v="985783" />
		<tag k="ssr:type" v="adressenavn" />
	</node>
	<node id="-63043" lat="60.834547219" lon="4.76203055584">
		<tag k="name" v="Rongeværskallen lysbøye" />
		<tag k="ssr:date" v="2019-12-27" />
		<tag k="ssr:gruppe" v="navigasjon" />
		<tag k="ssr:hovedgruppe" v="infrastruktur" />
		<tag k="ssr:stedsnr" v="723804" />
		<tag k="ssr:type" v="lysbøye" />
	</node>
	<node id="-63306" lat="60.7540277742" lon="5.03166388769">
		<tag k="loc_name" v="Lamøyskjeret lanterne" />
		<tag k="name" v="Lamøyskjær" />
		<tag k="ssr:date" v="2019-12-27" />
		<tag k="ssr:gruppe" v="navigasjon" />
		<tag k="ssr:hovedgruppe" v="infrastruktur" />
		<tag k="ssr:stedsnr" v="175209" />
		<tag k="ssr:type" v="lanterne" />
	</node>
	<node id="-63329" lat="60.8485220957" lon="4.75333620491">
		<tag k="alt_name" v="Grimeskjeret" />
		<tag k="name" v="Grimeskjeret lykt" />
		<tag k="ssr:date" v="2019-12-27" />
		<tag k="ssr:gruppe" v="navigasjon" />
		<tag k="ssr:hovedgruppe" v="infrastruktur" />
		<tag k="ssr:stedsnr" v="191342" />
		<tag k="ssr:type" v="fyrlykt" />
	</node>
</osm>
