<?xml version="1.0" encoding="UTF-8"?>
<osm version="0.6" generator="osmapis">
	<node lat="60.83081388628093" lon="4.8593944371454505" id="-74327">
		<tag k="name" v="Storenesvågen" />
		<tag k="natural" v="bay" />
		<tag k="ssr:date" v="2019-12-27" />
		<tag k="ssr:gruppe" v="kystkontur" />
		<tag k="ssr:hovedgruppe" v="sjø" />
		<tag k="ssr:stedsnr" v="8103" />
		<tag k="ssr:type" v="vikISjø" />
	</node>
	<node lat="60.836313887428474" lon="4.909133334263379" id="-74328">
		<tag k="alt_name" v="Islendingen, høge" />
		<tag k="name" v="Høge Islendingen" />
		<tag k="place" v="islet" />
		<tag k="ssr:date" v="2019-12-27" />
		<tag k="ssr:gruppe" v="kystkontur" />
		<tag k="ssr:hovedgruppe" v="sjø" />
		<tag k="ssr:stedsnr" v="8107" />
		<tag k="ssr:type" v="holmeISjø" />
	</node>
	<node lat="60.78165277994846" lon="4.87748054664533" id="-74329">
		<tag k="name" v="Såtene" />
		<tag k="natural" v="hill" />
		<tag k="place" v="locality" />
		<tag k="ssr:date" v="2019-12-27" />
		<tag k="ssr:gruppe" v="høyder" />
		<tag k="ssr:hovedgruppe" v="terreng" />
		<tag k="ssr:stedsnr" v="8248" />
		<tag k="ssr:type" v="haug" />
	</node>
	<node lat="60.8096888881277" lon="4.906758329594804" id="-74333">
		<tag k="name" v="Setevika" />
		<tag k="natural" v="bay" />
		<tag k="ssr:date" v="2019-12-27" />
		<tag k="ssr:gruppe" v="kystkontur" />
		<tag k="ssr:hovedgruppe" v="sjø" />
		<tag k="ssr:stedsnr" v="44207" />
		<tag k="ssr:type" v="vikISjø" />
	</node>
	<node lat="60.804188892788915" lon="5.012494435094452" id="-74334">
		<tag k="name" v="Storospa" />
		<tag k="place" v="locality" />
		<tag k="ssr:date" v="2019-12-27" />
		<tag k="ssr:gruppe" v="terrengdetaljer" />
		<tag k="ssr:hovedgruppe" v="terreng" />
		<tag k="ssr:stedsnr" v="44902" />
		<tag k="ssr:type" v="annenTerrengdetalj" />
	</node>
	<node lat="60.80470277758682" lon="4.7763027754088725" id="-74338">
		<tag k="fixme" v="consider seamark:type=rock or natural=shoal" />
		<tag k="name" v="Tareskjeret" />
		<tag k="place" v="islet" />
		<tag k="ssr:date" v="2019-12-27" />
		<tag k="ssr:gruppe" v="grunnerISjø" />
		<tag k="ssr:hovedgruppe" v="sjø" />
		<tag k="ssr:stedsnr" v="45987" />
		<tag k="ssr:type" v="skjærISjø" />
	</node>
	<node lat="60.8114527749846" lon="4.888247214894486" id="-74339">
		<tag k="name" v="Ærholmosen" />
		<tag k="natural" v="strait" />
		<tag k="ssr:date" v="2019-12-27" />
		<tag k="ssr:gruppe" v="kystkontur" />
		<tag k="ssr:hovedgruppe" v="sjø" />
		<tag k="ssr:stedsnr" v="45884" />
		<tag k="ssr:type" v="sundISjø" />
	</node>
	<node lat="60.81463888759363" lon="4.917322214088134" id="-74340">
		<tag k="name" v="Krossneset" />
		<tag k="natural" v="cape" />
		<tag k="ssr:date" v="2019-12-27" />
		<tag k="ssr:gruppe" v="kystkontur" />
		<tag k="ssr:hovedgruppe" v="sjø" />
		<tag k="ssr:stedsnr" v="45886" />
		<tag k="ssr:type" v="nesISjø" />
	</node>
	<node lat="60.79297778197766" lon="4.825638891854485" id="-74344">
		<tag k="name" v="Skotneshaugen" />
		<tag k="natural" v="hill" />
		<tag k="place" v="locality" />
		<tag k="ssr:date" v="2019-12-27" />
		<tag k="ssr:gruppe" v="høyder" />
		<tag k="ssr:hovedgruppe" v="terreng" />
		<tag k="ssr:stedsnr" v="69057" />
		<tag k="ssr:type" v="haug" />
	</node>
	<node lat="60.80949444276129" lon="4.798755552009918" id="-74346">
		<tag k="fixme" v="consider seamark:type=rock or natural=shoal" />
		<tag k="name" v="Maiskjeret" />
		<tag k="place" v="islet" />
		<tag k="ssr:date" v="2019-12-27" />
		<tag k="ssr:gruppe" v="grunnerISjø" />
		<tag k="ssr:hovedgruppe" v="sjø" />
		<tag k="ssr:stedsnr" v="69066" />
		<tag k="ssr:type" v="skjærISjø" />
	</node>
	<node lat="60.81444999709122" lon="4.774650000546573" id="-74352">
		<tag k="fixme" v="consider seamark:type=rock or natural=shoal" />
		<tag k="name" v="Teistholmskjeret" />
		<tag k="place" v="islet" />
		<tag k="ssr:date" v="2019-12-27" />
		<tag k="ssr:gruppe" v="grunnerISjø" />
		<tag k="ssr:hovedgruppe" v="sjø" />
		<tag k="ssr:stedsnr" v="69085" />
		<tag k="ssr:type" v="skjærISjø" />
	</node>
	<node lat="60.77259166999592" lon="4.971477776416751" id="-74355">
		<tag k="name" v="Larsholmen" />
		<tag k="place" v="islet" />
		<tag k="ssr:date" v="2019-12-27" />
		<tag k="ssr:gruppe" v="kystkontur" />
		<tag k="ssr:hovedgruppe" v="sjø" />
		<tag k="ssr:stedsnr" v="69202" />
		<tag k="ssr:type" v="holmeISjø" />
	</node>
	<node lat="60.762388887008946" lon="4.937400007071149" id="-74367">
		<tag k="name" v="Svehaugen" />
		<tag k="natural" v="hill" />
		<tag k="place" v="locality" />
		<tag k="ssr:date" v="2019-12-27" />
		<tag k="ssr:gruppe" v="høyder" />
		<tag k="ssr:hovedgruppe" v="terreng" />
		<tag k="ssr:stedsnr" v="105276" />
		<tag k="ssr:type" v="haug" />
	</node>
	<node lat="60.755541666980164" lon="4.902605559525665" id="-74368">
		<tag k="name" v="Bergsvikhavnen" />
		<tag k="natural" v="beach" />
		<tag k="ssr:date" v="2019-12-27" />
		<tag k="ssr:gruppe" v="kystkontur" />
		<tag k="ssr:hovedgruppe" v="sjø" />
		<tag k="ssr:stedsnr" v="105873" />
		<tag k="ssr:type" v="strandISjø" />
	</node>
	<node lat="60.760530555518386" lon="4.954802771455997" id="-74369">
		<tag k="name" v="Vassdalen" />
		<tag k="natural" v="valley" />
		<tag k="place" v="locality" />
		<tag k="ssr:date" v="2019-12-27" />
		<tag k="ssr:gruppe" v="senkninger" />
		<tag k="ssr:hovedgruppe" v="terreng" />
		<tag k="ssr:stedsnr" v="105876" />
		<tag k="ssr:type" v="dal" />
	</node>
	<node lat="60.83386111193664" lon="4.895825003425951" id="-74371">
		<tag k="name" v="Nordre Stongevågen" />
		<tag k="natural" v="bay" />
		<tag k="ssr:date" v="2019-12-27" />
		<tag k="ssr:gruppe" v="kystkontur" />
		<tag k="ssr:hovedgruppe" v="sjø" />
		<tag k="ssr:stedsnr" v="105908" />
		<tag k="ssr:type" v="vågISjø" />
	</node>
	<node lat="60.800730557506185" lon="5.006324994068911" id="-74372">
		<tag k="name" v="Hyttena" />
		<tag k="place" v="locality" />
		<tag k="ssr:date" v="2019-12-27" />
		<tag k="ssr:gruppe" v="terrengdetaljer" />
		<tag k="ssr:hovedgruppe" v="terreng" />
		<tag k="ssr:stedsnr" v="105932" />
		<tag k="ssr:type" v="annenTerrengdetalj" />
	</node>
	<node lat="60.757922224279106" lon="4.893925008842277" id="-74373">
		<tag k="name" v="Høgholmen" />
		<tag k="place" v="islet" />
		<tag k="ssr:date" v="2019-12-27" />
		<tag k="ssr:gruppe" v="kystkontur" />
		<tag k="ssr:hovedgruppe" v="sjø" />
		<tag k="ssr:stedsnr" v="105975" />
		<tag k="ssr:type" v="holmeISjø" />
	</node>
	<node lat="60.806255553024464" lon="4.811155560542211" id="-74377">
		<tag k="name" v="Bukkholmen" />
		<tag k="place" v="islet" />
		<tag k="ssr:date" v="2019-12-27" />
		<tag k="ssr:gruppe" v="kystkontur" />
		<tag k="ssr:hovedgruppe" v="sjø" />
		<tag k="ssr:stedsnr" v="251050" />
		<tag k="ssr:type" v="holmeISjø" />
	</node>
	<node lat="60.81632778169455" lon="4.9045888971803455" id="-74383">
		<tag k="alt_name" v="Rasmusholmen" />
		<tag k="name" v="Søre Rasmusholmen" />
		<tag k="place" v="islet" />
		<tag k="ssr:date" v="2019-12-27" />
		<tag k="ssr:gruppe" v="kystkontur" />
		<tag k="ssr:hovedgruppe" v="sjø" />
		<tag k="ssr:stedsnr" v="251096" />
		<tag k="ssr:type" v="holmeISjø" />
	</node>
	<node lat="60.77083611442104" lon="4.9451749967612155" id="-74387">
		<tag k="name" v="Blomhaugane" />
		<tag k="natural" v="hill" />
		<tag k="place" v="locality" />
		<tag k="ssr:date" v="2019-12-27" />
		<tag k="ssr:gruppe" v="høyder" />
		<tag k="ssr:hovedgruppe" v="terreng" />
		<tag k="ssr:stedsnr" v="251206" />
		<tag k="ssr:type" v="haug" />
	</node>
	<node lat="60.76478611351945" lon="4.973541667612058" id="-74393">
		<tag k="name" v="Kalvstangen" />
		<tag k="natural" v="cape" />
		<tag k="ssr:date" v="2019-12-27" />
		<tag k="ssr:gruppe" v="kystkontur" />
		<tag k="ssr:hovedgruppe" v="sjø" />
		<tag k="ssr:stedsnr" v="251972" />
		<tag k="ssr:type" v="nesISjø" />
	</node>
	<node lat="60.79013055131151" lon="4.856969448922731" id="-74394">
		<tag k="name" v="Bønesholmen" />
		<tag k="place" v="islet" />
		<tag k="ssr:date" v="2019-12-27" />
		<tag k="ssr:gruppe" v="kystkontur" />
		<tag k="ssr:hovedgruppe" v="sjø" />
		<tag k="ssr:stedsnr" v="129001" />
		<tag k="ssr:type" v="holmeISjø" />
	</node>
	<node lat="60.82896944185645" lon="4.898280555036257" id="-74410">
		<tag k="name" v="Kampestøholmen" />
		<tag k="place" v="islet" />
		<tag k="ssr:date" v="2019-12-27" />
		<tag k="ssr:gruppe" v="kystkontur" />
		<tag k="ssr:hovedgruppe" v="sjø" />
		<tag k="ssr:stedsnr" v="166208" />
		<tag k="ssr:type" v="holmeISjø" />
	</node>
	<node lat="60.798686113591444" lon="4.9354222139493045" id="-74412">
		<tag k="name" v="Kilstraumen" />
		<tag k="place" v="farm" />
		<tag k="ssr:date" v="2019-12-27" />
		<tag k="ssr:gruppe" v="gardsbebyggelse" />
		<tag k="ssr:hovedgruppe" v="bebyggelse" />
		<tag k="ssr:stedsnr" v="166226" />
		<tag k="ssr:type" v="bruk" />
	</node>
	<node lat="60.797294443787536" lon="4.953980554216419" id="-74413">
		<tag k="name" v="Utkilen" />
		<tag k="place" v="farm" />
		<tag k="ssr:date" v="2019-12-27" />
		<tag k="ssr:gruppe" v="gardsbebyggelse" />
		<tag k="ssr:hovedgruppe" v="bebyggelse" />
		<tag k="ssr:stedsnr" v="166227" />
		<tag k="ssr:type" v="bruk" />
	</node>
	<node lat="60.742797225812" lon="4.954161113824277" id="-74415">
		<tag k="name" v="Eggena" />
		<tag k="natural" v="hill" />
		<tag k="place" v="locality" />
		<tag k="ssr:date" v="2019-12-27" />
		<tag k="ssr:gruppe" v="høyder" />
		<tag k="ssr:hovedgruppe" v="terreng" />
		<tag k="ssr:stedsnr" v="166857" />
		<tag k="ssr:type" v="haug" />
	</node>
	<node lat="60.737394442615994" lon="4.9829083387475235" id="-74416">
		<tag k="name" v="Stokkenesvågen" />
		<tag k="natural" v="bay" />
		<tag k="ssr:date" v="2019-12-27" />
		<tag k="ssr:gruppe" v="kystkontur" />
		<tag k="ssr:hovedgruppe" v="sjø" />
		<tag k="ssr:stedsnr" v="166861" />
		<tag k="ssr:type" v="vågISjø" />
	</node>
	<node lat="60.79392777770795" lon="4.927688889270604" id="-74417">
		<tag k="name" v="Lyngtræneset" />
		<tag k="natural" v="cape" />
		<tag k="ssr:date" v="2019-12-27" />
		<tag k="ssr:gruppe" v="kystkontur" />
		<tag k="ssr:hovedgruppe" v="sjø" />
		<tag k="ssr:stedsnr" v="166867" />
		<tag k="ssr:type" v="nesISjø" />
	</node>
	<node lat="60.78514722311319" lon="4.986802779067961" id="-74419">
		<tag k="fixme" v="consider natural=peak for the most distinct mountains in the district" />
		<tag k="name" v="Jakobsvarden" />
		<tag k="natural" v="hill" />
		<tag k="place" v="locality" />
		<tag k="ssr:date" v="2019-12-27" />
		<tag k="ssr:gruppe" v="høyder" />
		<tag k="ssr:hovedgruppe" v="terreng" />
		<tag k="ssr:stedsnr" v="166874" />
		<tag k="ssr:type" v="topp" />
	</node>
	<node lat="60.800002774148595" lon="4.819508337237495" id="-74420">
		<tag k="name" v="Sævrøyvågen" />
		<tag k="natural" v="bay" />
		<tag k="ssr:date" v="2019-12-27" />
		<tag k="ssr:gruppe" v="kystkontur" />
		<tag k="ssr:hovedgruppe" v="sjø" />
		<tag k="ssr:stedsnr" v="166903" />
		<tag k="ssr:type" v="vågISjø" />
	</node>
	<node lat="60.76918610951746" lon="4.872697223934076" id="-74421">
		<tag k="fixme" v="consider seamark:type=rock or natural=shoal" />
		<tag k="name" v="Svartskjeret" />
		<tag k="place" v="islet" />
		<tag k="ssr:date" v="2019-12-27" />
		<tag k="ssr:gruppe" v="grunnerISjø" />
		<tag k="ssr:hovedgruppe" v="sjø" />
		<tag k="ssr:stedsnr" v="166957" />
		<tag k="ssr:type" v="skjærISjø" />
	</node>
	<node lat="60.74834999748579" lon="4.9524499946934615" id="-74422">
		<tag k="name" v="Storemyra" />
		<tag k="natural" v="wetland" />
		<tag k="ssr:date" v="2019-12-27" />
		<tag k="ssr:gruppe" v="våtmark" />
		<tag k="ssr:hovedgruppe" v="markslag" />
		<tag k="ssr:stedsnr" v="166961" />
		<tag k="ssr:type" v="myr" />
	</node>
	<node lat="60.836630554032396" lon="4.878816665052981" id="-74425">
		<tag k="name" v="Beinstaren" />
		<tag k="natural" v="shoal" />
		<tag k="place" v="locality" />
		<tag k="ssr:date" v="2019-12-27" />
		<tag k="ssr:gruppe" v="grunnerISjø" />
		<tag k="ssr:hovedgruppe" v="sjø" />
		<tag k="ssr:stedsnr" v="177656" />
		<tag k="ssr:type" v="grunneISjø" />
	</node>
	<node lat="60.815411111646405" lon="4.990002778782538" id="-74426">
		<tag k="fixme" v="consider natural=peak for the most distinct mountains in the district" />
		<tag k="name" v="Mulen" />
		<tag k="natural" v="hill" />
		<tag k="place" v="locality" />
		<tag k="ssr:date" v="2019-12-27" />
		<tag k="ssr:gruppe" v="høyder" />
		<tag k="ssr:hovedgruppe" v="terreng" />
		<tag k="ssr:stedsnr" v="177658" />
		<tag k="ssr:type" v="ås" />
	</node>
	<node lat="60.79020000295684" lon="4.959958334259065" id="-74429">
		<tag k="name" v="Storhaugen" />
		<tag k="natural" v="hill" />
		<tag k="place" v="locality" />
		<tag k="ssr:date" v="2019-12-27" />
		<tag k="ssr:gruppe" v="høyder" />
		<tag k="ssr:hovedgruppe" v="terreng" />
		<tag k="ssr:stedsnr" v="190026" />
		<tag k="ssr:type" v="haug" />
	</node>
	<node lat="60.81578055473656" lon="4.836691666489889" id="-74430">
		<tag k="alt_name" v="Haugklubben" />
		<tag k="name" v="Nordre Haugklubben" />
		<tag k="place" v="islet" />
		<tag k="ssr:date" v="2019-12-27" />
		<tag k="ssr:gruppe" v="kystkontur" />
		<tag k="ssr:hovedgruppe" v="sjø" />
		<tag k="ssr:stedsnr" v="190076" />
		<tag k="ssr:type" v="holmeISjø" />
	</node>
	<node lat="60.778699998761844" lon="4.877275008502505" id="-74431">
		<tag k="name" v="Grønåsen" />
		<tag k="natural" v="hill" />
		<tag k="place" v="locality" />
		<tag k="ssr:date" v="2019-12-27" />
		<tag k="ssr:gruppe" v="høyder" />
		<tag k="ssr:hovedgruppe" v="terreng" />
		<tag k="ssr:stedsnr" v="190224" />
		<tag k="ssr:type" v="haug" />
	</node>
	<node lat="60.75283055211394" lon="4.9499500051879775" id="-74433">
		<tag k="name" v="Solvang" />
		<tag k="place" v="farm" />
		<tag k="ssr:date" v="2019-12-27" />
		<tag k="ssr:gruppe" v="gardsbebyggelse" />
		<tag k="ssr:hovedgruppe" v="bebyggelse" />
		<tag k="ssr:stedsnr" v="190163" />
		<tag k="ssr:type" v="bruk" />
	</node>
	<node lat="60.75481944858604" lon="4.900425007599389" id="-74434">
		<tag k="name" v="Hestneset" />
		<tag k="natural" v="cape" />
		<tag k="ssr:date" v="2019-12-27" />
		<tag k="ssr:gruppe" v="kystkontur" />
		<tag k="ssr:hovedgruppe" v="sjø" />
		<tag k="ssr:stedsnr" v="190166" />
		<tag k="ssr:type" v="nesISjø" />
	</node>
	<node lat="60.79812342313212" lon="4.969120315920369" id="-74435">
		<tag k="name" v="Ævatnet" />
		<tag k="natural" v="water" />
		<tag k="ssr:date" v="2019-12-27" />
		<tag k="ssr:gruppe" v="stilleståendeVann" />
		<tag k="ssr:hovedgruppe" v="ferskvann" />
		<tag k="ssr:stedsnr" v="191012" />
		<tag k="ssr:type" v="tjern" />
	</node>
	<node lat="60.76973888745783" lon="4.90394444669778" id="-74444">
		<tag k="name" v="Træsbakken" />
		<tag k="place" v="farm" />
		<tag k="ssr:date" v="2019-12-27" />
		<tag k="ssr:gruppe" v="gardsbebyggelse" />
		<tag k="ssr:hovedgruppe" v="bebyggelse" />
		<tag k="ssr:stedsnr" v="206839" />
		<tag k="ssr:type" v="bruk" />
	</node>
	<node lat="60.74700277744587" lon="4.939458333378761" id="-74450">
		<tag k="name" v="Storenyken" />
		<tag k="natural" v="hill" />
		<tag k="place" v="locality" />
		<tag k="ssr:date" v="2019-12-27" />
		<tag k="ssr:gruppe" v="høyder" />
		<tag k="ssr:hovedgruppe" v="terreng" />
		<tag k="ssr:stedsnr" v="226973" />
		<tag k="ssr:type" v="haug" />
	</node>
	<node lat="60.80414722234378" lon="4.8328333253232865" id="-74452">
		<tag k="name" v="Tjeldholmen" />
		<tag k="place" v="islet" />
		<tag k="ssr:date" v="2019-12-27" />
		<tag k="ssr:gruppe" v="kystkontur" />
		<tag k="ssr:hovedgruppe" v="sjø" />
		<tag k="ssr:stedsnr" v="227990" />
		<tag k="ssr:type" v="holmeISjø" />
	</node>
	<node lat="60.80796944665527" lon="4.824500001165691" id="-74453">
		<tag k="name" v="Eidholmen" />
		<tag k="place" v="islet" />
		<tag k="ssr:date" v="2019-12-27" />
		<tag k="ssr:gruppe" v="kystkontur" />
		<tag k="ssr:hovedgruppe" v="sjø" />
		<tag k="ssr:stedsnr" v="227994" />
		<tag k="ssr:type" v="holmeISjø" />
	</node>
	<node lat="60.830841665473436" lon="4.868622229981985" id="-74461">
		<tag k="name" v="Kluftesanden" />
		<tag k="natural" v="bay" />
		<tag k="ssr:date" v="2019-12-27" />
		<tag k="ssr:gruppe" v="kystkontur" />
		<tag k="ssr:hovedgruppe" v="sjø" />
		<tag k="ssr:stedsnr" v="238609" />
		<tag k="ssr:type" v="vikISjø" />
	</node>
	<node lat="60.83384999787371" lon="4.875288886851966" id="-74462">
		<tag k="name" v="Beinsundet" />
		<tag k="natural" v="strait" />
		<tag k="ssr:date" v="2019-12-27" />
		<tag k="ssr:gruppe" v="kystkontur" />
		<tag k="ssr:hovedgruppe" v="sjø" />
		<tag k="ssr:stedsnr" v="238633" />
		<tag k="ssr:type" v="sundISjø" />
	</node>
	<node lat="60.7951166638148" lon="5.0069666594616" id="-74474">
		<tag k="name" v="Høljedalshaugen" />
		<tag k="natural" v="hill" />
		<tag k="place" v="locality" />
		<tag k="ssr:date" v="2019-12-27" />
		<tag k="ssr:gruppe" v="høyder" />
		<tag k="ssr:hovedgruppe" v="terreng" />
		<tag k="ssr:stedsnr" v="287232" />
		<tag k="ssr:type" v="haug" />
	</node>
	<node lat="60.72493361031028" lon="5.049838252786043" id="-74475">
		<tag k="bay" v="fjord" />
		<tag k="name" v="Lurefjorden" />
		<tag k="natural" v="bay" />
		<tag k="ssr:date" v="2020-06-08" />
		<tag k="ssr:gruppe" v="farvann" />
		<tag k="ssr:hovedgruppe" v="sjø" />
		<tag k="ssr:stedsnr" v="287590" />
		<tag k="ssr:type" v="fjord" />
	</node>
	<node lat="60.82130000098378" lon="4.798944445613865" id="-74476">
		<tag k="name" v="Nautøyvågen" />
		<tag k="natural" v="bay" />
		<tag k="ssr:date" v="2019-12-27" />
		<tag k="ssr:gruppe" v="kystkontur" />
		<tag k="ssr:hovedgruppe" v="sjø" />
		<tag k="ssr:stedsnr" v="287929" />
		<tag k="ssr:type" v="vågISjø" />
	</node>
	<node lat="60.80570555958686" lon="4.840133329410027" id="-74477">
		<tag k="name" v="Grusholmen" />
		<tag k="place" v="islet" />
		<tag k="ssr:date" v="2019-12-27" />
		<tag k="ssr:gruppe" v="kystkontur" />
		<tag k="ssr:hovedgruppe" v="sjø" />
		<tag k="ssr:stedsnr" v="287994" />
		<tag k="ssr:type" v="holmeISjø" />
	</node>
	<node lat="60.79796667084665" lon="4.9235444502581185" id="-74478">
		<tag k="name" v="Ilneset" />
		<tag k="natural" v="cape" />
		<tag k="ssr:date" v="2019-12-27" />
		<tag k="ssr:gruppe" v="kystkontur" />
		<tag k="ssr:hovedgruppe" v="sjø" />
		<tag k="ssr:stedsnr" v="288902" />
		<tag k="ssr:type" v="nesISjø" />
	</node>
	<node lat="60.746250001261984" lon="4.998144446087457" id="-74480">
		<tag k="name" v="Stakken" />
		<tag k="place" v="locality" />
		<tag k="ssr:date" v="2019-12-27" />
		<tag k="ssr:gruppe" v="terrengdetaljer" />
		<tag k="ssr:hovedgruppe" v="terreng" />
		<tag k="ssr:stedsnr" v="288888" />
		<tag k="ssr:type" v="annenTerrengdetalj" />
	</node>
	<node lat="60.79128611101652" lon="4.7847166577540765" id="-74481">
		<tag k="name" v="Lyngokseskjerflua" />
		<tag k="natural" v="shoal" />
		<tag k="place" v="locality" />
		<tag k="ssr:date" v="2019-12-27" />
		<tag k="ssr:gruppe" v="grunnerISjø" />
		<tag k="ssr:hovedgruppe" v="sjø" />
		<tag k="ssr:stedsnr" v="461850" />
		<tag k="ssr:type" v="grunneISjø" />
	</node>
	<node lat="60.81830277551086" lon="4.892166663548932" id="-74482">
		<tag k="fixme" v="consider seamark:type=rock or natural=shoal" />
		<tag k="name" v="Smådynene" />
		<tag k="place" v="islet" />
		<tag k="ssr:date" v="2019-12-27" />
		<tag k="ssr:gruppe" v="grunnerISjø" />
		<tag k="ssr:hovedgruppe" v="sjø" />
		<tag k="ssr:stedsnr" v="298607" />
		<tag k="ssr:type" v="skjærISjø" />
	</node>
	<node lat="60.82471388570327" lon="4.855052781514684" id="-74483">
		<tag k="name" v="Holmetaren" />
		<tag k="natural" v="shoal" />
		<tag k="place" v="locality" />
		<tag k="ssr:date" v="2019-12-27" />
		<tag k="ssr:gruppe" v="grunnerISjø" />
		<tag k="ssr:hovedgruppe" v="sjø" />
		<tag k="ssr:stedsnr" v="298611" />
		<tag k="ssr:type" v="grunneISjø" />
	</node>
	<node lat="60.831530554586614" lon="4.811269444029276" id="-74486">
		<tag k="alt_name" v="Tjørholmen, s" />
		<tag k="name" v="Søre Tjørholmen" />
		<tag k="place" v="islet" />
		<tag k="ssr:date" v="2019-12-27" />
		<tag k="ssr:gruppe" v="kystkontur" />
		<tag k="ssr:hovedgruppe" v="sjø" />
		<tag k="ssr:stedsnr" v="311134" />
		<tag k="ssr:type" v="holmeISjø" />
	</node>
	<node lat="60.83337778067119" lon="4.807900002838907" id="-74487">
		<tag k="alt_name" v="Tjørholmen, nordre" />
		<tag k="name" v="Nordre Tjørholmen" />
		<tag k="place" v="islet" />
		<tag k="ssr:date" v="2019-12-27" />
		<tag k="ssr:gruppe" v="kystkontur" />
		<tag k="ssr:hovedgruppe" v="sjø" />
		<tag k="ssr:stedsnr" v="311135" />
		<tag k="ssr:type" v="holmeISjø" />
	</node>
	<node lat="60.799350000643514" lon="4.9160277720115335" id="-74489">
		<tag k="name" v="Kviteberget" />
		<tag k="natural" v="hill" />
		<tag k="place" v="locality" />
		<tag k="ssr:date" v="2019-12-27" />
		<tag k="ssr:gruppe" v="høyder" />
		<tag k="ssr:hovedgruppe" v="terreng" />
		<tag k="ssr:stedsnr" v="312019" />
		<tag k="ssr:type" v="haug" />
	</node>
	<node lat="60.76846944150661" lon="4.94275276953487" id="-74491">
		<tag k="name" v="Hjartåselva" />
		<tag k="ssr:date" v="2019-12-27" />
		<tag k="ssr:gruppe" v="rennendeVann" />
		<tag k="ssr:hovedgruppe" v="ferskvann" />
		<tag k="ssr:stedsnr" v="312178" />
		<tag k="ssr:type" v="bekk" />
		<tag k="waterway" v="stream" />
	</node>
	<node lat="60.77443387032385" lon="4.936736098819361" id="-74492">
		<tag k="name" v="Åråsvatnet" />
		<tag k="natural" v="water" />
		<tag k="ssr:date" v="2019-12-27" />
		<tag k="ssr:gruppe" v="stilleståendeVann" />
		<tag k="ssr:hovedgruppe" v="ferskvann" />
		<tag k="ssr:stedsnr" v="312181" />
		<tag k="ssr:type" v="tjern" />
	</node>
	<node lat="60.767247221782" lon="4.90703055564145" id="-74494">
		<tag k="name" v="Juberget" />
		<tag k="natural" v="hill" />
		<tag k="place" v="locality" />
		<tag k="ssr:date" v="2019-12-27" />
		<tag k="ssr:gruppe" v="høyder" />
		<tag k="ssr:hovedgruppe" v="terreng" />
		<tag k="ssr:stedsnr" v="469235" />
		<tag k="ssr:type" v="berg" />
	</node>
	<node lat="60.80602500345197" lon="4.924741666172438" id="-74495">
		<tag k="name" v="Vardhaugen" />
		<tag k="natural" v="hill" />
		<tag k="place" v="locality" />
		<tag k="ssr:date" v="2019-12-27" />
		<tag k="ssr:gruppe" v="høyder" />
		<tag k="ssr:hovedgruppe" v="terreng" />
		<tag k="ssr:stedsnr" v="469196" />
		<tag k="ssr:type" v="haug" />
	</node>
	<node lat="60.79968332956108" lon="4.995191662246437" id="-74496">
		<tag k="name" v="Skarphaugen" />
		<tag k="natural" v="hill" />
		<tag k="place" v="locality" />
		<tag k="ssr:date" v="2019-12-27" />
		<tag k="ssr:gruppe" v="høyder" />
		<tag k="ssr:hovedgruppe" v="terreng" />
		<tag k="ssr:stedsnr" v="469198" />
		<tag k="ssr:type" v="haug" />
	</node>
	<node lat="60.80359444161929" lon="4.817513881587005" id="-74498">
		<tag k="name" v="Neset" />
		<tag k="natural" v="cape" />
		<tag k="ssr:date" v="2019-12-27" />
		<tag k="ssr:gruppe" v="kystkontur" />
		<tag k="ssr:hovedgruppe" v="sjø" />
		<tag k="ssr:stedsnr" v="469846" />
		<tag k="ssr:type" v="nesISjø" />
	</node>
	<node lat="60.798608334035656" lon="4.860833339962935" id="-74499">
		<tag k="name" v="Kalveneset" />
		<tag k="natural" v="cape" />
		<tag k="ssr:date" v="2019-12-27" />
		<tag k="ssr:gruppe" v="kystkontur" />
		<tag k="ssr:hovedgruppe" v="sjø" />
		<tag k="ssr:stedsnr" v="469848" />
		<tag k="ssr:type" v="nesISjø" />
	</node>
	<node lat="60.776144448357684" lon="4.9523416690140145" id="-74500">
		<tag k="name" v="Eldrihaugen" />
		<tag k="natural" v="hill" />
		<tag k="place" v="locality" />
		<tag k="ssr:date" v="2019-12-27" />
		<tag k="ssr:gruppe" v="høyder" />
		<tag k="ssr:hovedgruppe" v="terreng" />
		<tag k="ssr:stedsnr" v="469853" />
		<tag k="ssr:type" v="haug" />
	</node>
	<node lat="60.81848610859415" lon="4.819805549864236" id="-74503">
		<tag k="name" v="Nordre Harhaugen" />
		<tag k="natural" v="hill" />
		<tag k="place" v="locality" />
		<tag k="ssr:date" v="2019-12-27" />
		<tag k="ssr:gruppe" v="høyder" />
		<tag k="ssr:hovedgruppe" v="terreng" />
		<tag k="ssr:stedsnr" v="469949" />
		<tag k="ssr:type" v="haug" />
	</node>
	<node lat="60.74945277779127" lon="4.918005547153444" id="-74504">
		<tag k="name" v="Storsteinen" />
		<tag k="natural" v="cape" />
		<tag k="ssr:date" v="2019-12-27" />
		<tag k="ssr:gruppe" v="kystkontur" />
		<tag k="ssr:hovedgruppe" v="sjø" />
		<tag k="ssr:stedsnr" v="469957" />
		<tag k="ssr:type" v="nesISjø" />
	</node>
	<node lat="60.831519448016316" lon="4.817997218739622" id="-74506">
		<tag k="name" v="Tjørholmskallen" />
		<tag k="natural" v="shoal" />
		<tag k="place" v="locality" />
		<tag k="ssr:date" v="2019-12-27" />
		<tag k="ssr:gruppe" v="grunnerISjø" />
		<tag k="ssr:hovedgruppe" v="sjø" />
		<tag k="ssr:stedsnr" v="328216" />
		<tag k="ssr:type" v="grunneISjø" />
	</node>
	<node lat="60.79112222164639" lon="5.007024991170629" id="-74512">
		<tag k="name" v="Straumshaugen" />
		<tag k="natural" v="hill" />
		<tag k="place" v="locality" />
		<tag k="ssr:date" v="2019-12-27" />
		<tag k="ssr:gruppe" v="høyder" />
		<tag k="ssr:hovedgruppe" v="terreng" />
		<tag k="ssr:stedsnr" v="470890" />
		<tag k="ssr:type" v="haug" />
	</node>
	<node lat="60.78951389199112" lon="4.822008324575937" id="-74514">
		<tag k="fixme" v="consider natural=peak for the most distinct mountains in the district" />
		<tag k="name" v="Storevarden" />
		<tag k="natural" v="hill" />
		<tag k="place" v="locality" />
		<tag k="ssr:date" v="2019-12-27" />
		<tag k="ssr:gruppe" v="høyder" />
		<tag k="ssr:hovedgruppe" v="terreng" />
		<tag k="ssr:stedsnr" v="470993" />
		<tag k="ssr:type" v="topp" />
	</node>
	<node lat="60.76616110892945" lon="5.002297224438445" id="-74515">
		<tag k="name" v="Ryggen" />
		<tag k="natural" v="ridge" />
		<tag k="place" v="locality" />
		<tag k="ssr:date" v="2019-12-27" />
		<tag k="ssr:gruppe" v="høyder" />
		<tag k="ssr:hovedgruppe" v="terreng" />
		<tag k="ssr:stedsnr" v="347911" />
		<tag k="ssr:type" v="rygg" />
	</node>
	<node lat="60.83046944508568" lon="4.878419447192424" id="-74517">
		<tag k="name" v="Lauvholmen" />
		<tag k="place" v="islet" />
		<tag k="ssr:date" v="2019-12-27" />
		<tag k="ssr:gruppe" v="kystkontur" />
		<tag k="ssr:hovedgruppe" v="sjø" />
		<tag k="ssr:stedsnr" v="348204" />
		<tag k="ssr:type" v="holmeISjø" />
	</node>
	<node lat="60.796533332826336" lon="4.940161119601407" id="-74519">
		<tag k="name" v="Grisholmen" />
		<tag k="place" v="islet" />
		<tag k="ssr:date" v="2019-12-27" />
		<tag k="ssr:gruppe" v="kystkontur" />
		<tag k="ssr:hovedgruppe" v="sjø" />
		<tag k="ssr:stedsnr" v="348225" />
		<tag k="ssr:type" v="holmeISjø" />
	</node>
	<node lat="60.77534167032078" lon="4.981586116092317" id="-74521">
		<tag k="name" v="Juvika" />
		<tag k="natural" v="bay" />
		<tag k="ssr:date" v="2019-12-27" />
		<tag k="ssr:gruppe" v="kystkontur" />
		<tag k="ssr:hovedgruppe" v="sjø" />
		<tag k="ssr:stedsnr" v="348903" />
		<tag k="ssr:type" v="vikISjø" />
	</node>
	<node lat="60.75866388685418" lon="4.880880564155191" id="-74522">
		<tag k="fixme" v="consider seamark:type=rock or natural=shoal" />
		<tag k="name" v="Færøyskjeret" />
		<tag k="place" v="islet" />
		<tag k="ssr:date" v="2019-12-27" />
		<tag k="ssr:gruppe" v="grunnerISjø" />
		<tag k="ssr:hovedgruppe" v="sjø" />
		<tag k="ssr:stedsnr" v="348958" />
		<tag k="ssr:type" v="skjærISjø" />
	</node>
	<node lat="60.76099721908054" lon="4.8536444423987275" id="-74523">
		<tag k="fixme" v="consider seamark:type=rock or natural=shoal" />
		<tag k="name" v="Otreskjeret" />
		<tag k="place" v="islet" />
		<tag k="ssr:date" v="2019-12-27" />
		<tag k="ssr:gruppe" v="grunnerISjø" />
		<tag k="ssr:hovedgruppe" v="sjø" />
		<tag k="ssr:stedsnr" v="348966" />
		<tag k="ssr:type" v="skjærISjø" />
	</node>
	<node lat="60.7904277818471" lon="4.817344435986967" id="-74525">
		<tag k="name" v="Høgholmen" />
		<tag k="place" v="islet" />
		<tag k="ssr:date" v="2019-12-27" />
		<tag k="ssr:gruppe" v="kystkontur" />
		<tag k="ssr:hovedgruppe" v="sjø" />
		<tag k="ssr:stedsnr" v="348978" />
		<tag k="ssr:type" v="holmeISjø" />
	</node>
	<node lat="60.807172226547166" lon="4.790686114142016" id="-74526">
		<tag k="name" v="Litle Brattholmen" />
		<tag k="place" v="islet" />
		<tag k="ssr:date" v="2019-12-27" />
		<tag k="ssr:gruppe" v="kystkontur" />
		<tag k="ssr:hovedgruppe" v="sjø" />
		<tag k="ssr:stedsnr" v="348804" />
		<tag k="ssr:type" v="holmeISjø" />
	</node>
	<node lat="60.80619721975828" lon="4.90436666262151" id="-74527">
		<tag k="name" v="Seteneset" />
		<tag k="natural" v="cape" />
		<tag k="ssr:date" v="2019-12-27" />
		<tag k="ssr:gruppe" v="kystkontur" />
		<tag k="ssr:hovedgruppe" v="sjø" />
		<tag k="ssr:stedsnr" v="348875" />
		<tag k="ssr:type" v="nesISjø" />
	</node>
	<node lat="60.828352778137464" lon="4.869572217724614" id="-74530">
		<tag k="name" v="Ternevika" />
		<tag k="natural" v="bay" />
		<tag k="ssr:date" v="2019-12-27" />
		<tag k="ssr:gruppe" v="kystkontur" />
		<tag k="ssr:hovedgruppe" v="sjø" />
		<tag k="ssr:stedsnr" v="359602" />
		<tag k="ssr:type" v="vikISjø" />
	</node>
	<node lat="60.786602776578846" lon="4.866972223038263" id="-74531">
		<tag k="name" v="Rebnor" />
		<tag k="place" v="hamlet" />
		<tag k="ssr:date" v="2019-12-27" />
		<tag k="ssr:gruppe" v="bebyggelsesområder" />
		<tag k="ssr:hovedgruppe" v="bebyggelse" />
		<tag k="ssr:stedsnr" v="372002" />
		<tag k="ssr:type" v="grend" />
	</node>
	<node lat="60.75530000306227" lon="5.005891673146425" id="-74532">
		<tag k="name" v="Kiken" />
		<tag k="natural" v="cape" />
		<tag k="ssr:date" v="2019-12-27" />
		<tag k="ssr:gruppe" v="kystkontur" />
		<tag k="ssr:hovedgruppe" v="sjø" />
		<tag k="ssr:stedsnr" v="372167" />
		<tag k="ssr:type" v="nesISjø" />
	</node>
	<node lat="60.77923610751756" lon="4.863452772718853" id="-74534">
		<tag k="alt_name" v="Bukkholmsundet" />
		<tag k="name" v="Bukkholmstraumen" />
		<tag k="natural" v="strait" />
		<tag k="ssr:date" v="2021-06-08" />
		<tag k="ssr:gruppe" v="kystkontur" />
		<tag k="ssr:hovedgruppe" v="sjø" />
		<tag k="ssr:stedsnr" v="372220" />
		<tag k="ssr:type" v="sundISjø" />
	</node>
	<node lat="60.78392971678783" lon="4.9072483611574045" id="-74535">
		<tag k="fixme" v="multiple name tags, choose one and add the other to alt_name" />
		<tag k="name" v="Rotevatnet;Klaravatnet" />
		<tag k="natural" v="water" />
		<tag k="ssr:date" v="2019-12-27" />
		<tag k="ssr:gruppe" v="stilleståendeVann" />
		<tag k="ssr:hovedgruppe" v="ferskvann" />
		<tag k="ssr:stedsnr" v="372227" />
		<tag k="ssr:type" v="tjern" />
	</node>
	<node lat="60.77142499626928" lon="4.894425007992663" id="-74536">
		<tag k="name" v="Breidvik" />
		<tag k="place" v="farm" />
		<tag k="ssr:date" v="2019-12-27" />
		<tag k="ssr:gruppe" v="gardsbebyggelse" />
		<tag k="ssr:hovedgruppe" v="bebyggelse" />
		<tag k="ssr:stedsnr" v="372256" />
		<tag k="ssr:type" v="bruk" />
	</node>
	<node lat="60.7803361145216" lon="4.907166663062211" id="-74542">
		<tag k="name" v="Langedalshaugen" />
		<tag k="natural" v="hill" />
		<tag k="place" v="locality" />
		<tag k="ssr:date" v="2019-12-27" />
		<tag k="ssr:gruppe" v="høyder" />
		<tag k="ssr:hovedgruppe" v="terreng" />
		<tag k="ssr:stedsnr" v="408254" />
		<tag k="ssr:type" v="haug" />
	</node>
	<node lat="60.7629999971752" lon="4.857552782573553" id="-74543">
		<tag k="name" v="Flatholmen" />
		<tag k="place" v="islet" />
		<tag k="ssr:date" v="2019-12-27" />
		<tag k="ssr:gruppe" v="kystkontur" />
		<tag k="ssr:hovedgruppe" v="sjø" />
		<tag k="ssr:stedsnr" v="408837" />
		<tag k="ssr:type" v="holmeISjø" />
	</node>
	<node lat="60.795991664939216" lon="4.972283334274568" id="-74544">
		<tag k="name" v="Vadmyra" />
		<tag k="natural" v="wetland" />
		<tag k="ssr:date" v="2019-12-27" />
		<tag k="ssr:gruppe" v="våtmark" />
		<tag k="ssr:hovedgruppe" v="markslag" />
		<tag k="ssr:stedsnr" v="408939" />
		<tag k="ssr:type" v="myr" />
	</node>
	<node lat="60.80706111429521" lon="4.824158340807267" id="-74546">
		<tag k="name" v="Sivertholmen" />
		<tag k="place" v="islet" />
		<tag k="ssr:date" v="2019-12-27" />
		<tag k="ssr:gruppe" v="kystkontur" />
		<tag k="ssr:hovedgruppe" v="sjø" />
		<tag k="ssr:stedsnr" v="409998" />
		<tag k="ssr:type" v="holmeISjø" />
	</node>
	<node lat="60.784786107885104" lon="4.860969448429023" id="-74549">
		<tag k="name" v="Hjeltneset" />
		<tag k="natural" v="cape" />
		<tag k="ssr:date" v="2019-12-27" />
		<tag k="ssr:gruppe" v="kystkontur" />
		<tag k="ssr:hovedgruppe" v="sjø" />
		<tag k="ssr:stedsnr" v="433002" />
		<tag k="ssr:type" v="nesISjø" />
	</node>
	<node lat="60.785527778742946" lon="4.839944435476557" id="-74551">
		<tag k="name" v="Flatholmen" />
		<tag k="place" v="islet" />
		<tag k="ssr:date" v="2019-12-27" />
		<tag k="ssr:gruppe" v="kystkontur" />
		<tag k="ssr:hovedgruppe" v="sjø" />
		<tag k="ssr:stedsnr" v="433006" />
		<tag k="ssr:type" v="holmeISjø" />
	</node>
	<node lat="60.81359444633054" lon="4.844800006895896" id="-74552">
		<tag k="name" v="Stussøyskaget" />
		<tag k="place" v="islet" />
		<tag k="ssr:date" v="2019-12-27" />
		<tag k="ssr:gruppe" v="kystkontur" />
		<tag k="ssr:hovedgruppe" v="sjø" />
		<tag k="ssr:stedsnr" v="433104" />
		<tag k="ssr:type" v="holmeISjø" />
	</node>
	<node lat="60.81281944327155" lon="4.92180000388216" id="-74554">
		<tag k="name" v="Alisholmen" />
		<tag k="place" v="islet" />
		<tag k="ssr:date" v="2019-12-27" />
		<tag k="ssr:gruppe" v="kystkontur" />
		<tag k="ssr:hovedgruppe" v="sjø" />
		<tag k="ssr:stedsnr" v="433107" />
		<tag k="ssr:type" v="holmeISjø" />
	</node>
	<node lat="60.82921110778404" lon="4.806638885387136" id="-74555">
		<tag k="name" v="Krossøygavlen" />
		<tag k="natural" v="cape" />
		<tag k="ssr:date" v="2019-12-27" />
		<tag k="ssr:gruppe" v="kystkontur" />
		<tag k="ssr:hovedgruppe" v="sjø" />
		<tag k="ssr:stedsnr" v="433110" />
		<tag k="ssr:type" v="nesISjø" />
	</node>
	<node lat="60.831688889533616" lon="4.856925000753541" id="-74556">
		<tag k="name" v="Storeneset" />
		<tag k="natural" v="cape" />
		<tag k="ssr:date" v="2019-12-27" />
		<tag k="ssr:gruppe" v="kystkontur" />
		<tag k="ssr:hovedgruppe" v="sjø" />
		<tag k="ssr:stedsnr" v="433114" />
		<tag k="ssr:type" v="nesISjø" />
	</node>
	<node lat="60.82251388928582" lon="4.8584638931946476" id="-74557">
		<tag k="name" v="Litleholmen" />
		<tag k="place" v="islet" />
		<tag k="ssr:date" v="2019-12-27" />
		<tag k="ssr:gruppe" v="kystkontur" />
		<tag k="ssr:hovedgruppe" v="sjø" />
		<tag k="ssr:stedsnr" v="433128" />
		<tag k="ssr:type" v="holmeISjø" />
	</node>
	<node lat="60.819766666832585" lon="4.78891665752018" id="-74558">
		<tag k="name" v="Ramsholmen" />
		<tag k="place" v="islet" />
		<tag k="ssr:date" v="2019-12-27" />
		<tag k="ssr:gruppe" v="kystkontur" />
		<tag k="ssr:hovedgruppe" v="sjø" />
		<tag k="ssr:stedsnr" v="433132" />
		<tag k="ssr:type" v="holmeISjø" />
	</node>
	<node lat="60.76032499854221" lon="4.906099993115837" id="-74560">
		<tag k="name" v="Brekka" />
		<tag k="place" v="farm" />
		<tag k="ssr:date" v="2019-12-27" />
		<tag k="ssr:gruppe" v="gardsbebyggelse" />
		<tag k="ssr:hovedgruppe" v="bebyggelse" />
		<tag k="ssr:stedsnr" v="433208" />
		<tag k="ssr:type" v="bruk" />
	</node>
	<node lat="60.80662778181304" lon="4.828350007615449" id="-74571">
		<tag k="name" v="Hjeltholmen" />
		<tag k="place" v="islet" />
		<tag k="ssr:date" v="2019-12-27" />
		<tag k="ssr:gruppe" v="kystkontur" />
		<tag k="ssr:hovedgruppe" v="sjø" />
		<tag k="ssr:stedsnr" v="494051" />
		<tag k="ssr:type" v="holmeISjø" />
	</node>
	<node lat="60.82909444587091" lon="4.7807999945011" id="-74573">
		<tag k="name" v="Røvelskjeret" />
		<tag k="place" v="islet" />
		<tag k="ssr:date" v="2019-12-27" />
		<tag k="ssr:gruppe" v="kystkontur" />
		<tag k="ssr:hovedgruppe" v="sjø" />
		<tag k="ssr:stedsnr" v="494101" />
		<tag k="ssr:type" v="holmeISjø" />
	</node>
	<node lat="60.749330558916476" lon="4.916908330492658" id="-74575">
		<tag k="name" v="Kjerringa" />
		<tag k="natural" v="shoal" />
		<tag k="place" v="locality" />
		<tag k="ssr:date" v="2019-12-27" />
		<tag k="ssr:gruppe" v="grunnerISjø" />
		<tag k="ssr:hovedgruppe" v="sjø" />
		<tag k="ssr:stedsnr" v="449817" />
		<tag k="ssr:type" v="grunneISjø" />
	</node>
	<node lat="60.80461094704212" lon="4.919375377622377" id="-74576">
		<tag k="name" v="Skåtenesvågen" />
		<tag k="natural" v="bay" />
		<tag k="ssr:date" v="2019-12-27" />
		<tag k="ssr:gruppe" v="kystkontur" />
		<tag k="ssr:hovedgruppe" v="sjø" />
		<tag k="ssr:stedsnr" v="452565" />
		<tag k="ssr:type" v="vikISjø" />
	</node>
	<node lat="60.820080554150806" lon="4.8335055568807626" id="-74578">
		<tag k="name" v="Terneskjerflua" />
		<tag k="natural" v="shoal" />
		<tag k="place" v="locality" />
		<tag k="ssr:date" v="2019-12-27" />
		<tag k="ssr:gruppe" v="grunnerISjø" />
		<tag k="ssr:hovedgruppe" v="sjø" />
		<tag k="ssr:stedsnr" v="675131" />
		<tag k="ssr:type" v="grunneISjø" />
	</node>
	<node lat="60.81001110950959" lon="4.945849999277168" id="-74579">
		<tag k="name" v="Vardetangen" />
		<tag k="natural" v="cape" />
		<tag k="ssr:date" v="2019-12-27" />
		<tag k="ssr:gruppe" v="kystkontur" />
		<tag k="ssr:hovedgruppe" v="sjø" />
		<tag k="ssr:stedsnr" v="469211" />
		<tag k="ssr:type" v="nesISjø" />
	</node>
	<node lat="60.81367778038613" lon="5.008791669838769" id="-74581">
		<tag k="name" v="Nordre Dyrøyvågen" />
		<tag k="natural" v="bay" />
		<tag k="ssr:date" v="2019-12-27" />
		<tag k="ssr:gruppe" v="kystkontur" />
		<tag k="ssr:hovedgruppe" v="sjø" />
		<tag k="ssr:stedsnr" v="469879" />
		<tag k="ssr:type" v="vågISjø" />
	</node>
	<node lat="60.814119445638596" lon="4.978991675367974" id="-74583">
		<tag k="name" v="Breineset" />
		<tag k="natural" v="cape" />
		<tag k="ssr:date" v="2019-12-27" />
		<tag k="ssr:gruppe" v="kystkontur" />
		<tag k="ssr:hovedgruppe" v="sjø" />
		<tag k="ssr:stedsnr" v="469916" />
		<tag k="ssr:type" v="nesISjø" />
	</node>
	<node lat="60.804995082812994" lon="4.91771035452774" id="-74584">
		<tag k="name" v="Leirvika" />
		<tag k="natural" v="bay" />
		<tag k="ssr:date" v="2019-12-27" />
		<tag k="ssr:gruppe" v="kystkontur" />
		<tag k="ssr:hovedgruppe" v="sjø" />
		<tag k="ssr:stedsnr" v="469918" />
		<tag k="ssr:type" v="vikISjø" />
	</node>
	<node lat="60.81498611335741" lon="4.891391663631541" id="-74585">
		<tag k="name" v="Bukta" />
		<tag k="natural" v="bay" />
		<tag k="ssr:date" v="2019-12-27" />
		<tag k="ssr:gruppe" v="kystkontur" />
		<tag k="ssr:hovedgruppe" v="sjø" />
		<tag k="ssr:stedsnr" v="469920" />
		<tag k="ssr:type" v="vikISjø" />
	</node>
	<node lat="60.76921389023502" lon="4.996872216730681" id="-74586">
		<tag k="name" v="Bakkavatnet" />
		<tag k="natural" v="water" />
		<tag k="ssr:date" v="2019-12-27" />
		<tag k="ssr:gruppe" v="stilleståendeVann" />
		<tag k="ssr:hovedgruppe" v="ferskvann" />
		<tag k="ssr:stedsnr" v="469968" />
		<tag k="ssr:type" v="vann" />
		<tag k="water" v="lake" />
	</node>
	<node lat="60.76304722169354" lon="4.851661111201257" id="-74587">
		<tag k="fixme" v="consider seamark:type=rock or natural=shoal" />
		<tag k="name" v="Eimberskjeret" />
		<tag k="place" v="islet" />
		<tag k="ssr:date" v="2019-12-27" />
		<tag k="ssr:gruppe" v="grunnerISjø" />
		<tag k="ssr:hovedgruppe" v="sjø" />
		<tag k="ssr:stedsnr" v="469982" />
		<tag k="ssr:type" v="skjærISjø" />
	</node>
	<node lat="60.8126472244291" lon="4.976405553599656" id="-74588">
		<tag k="name" v="Grønevikane" />
		<tag k="natural" v="bay" />
		<tag k="ssr:date" v="2019-12-27" />
		<tag k="ssr:gruppe" v="kystkontur" />
		<tag k="ssr:hovedgruppe" v="sjø" />
		<tag k="ssr:stedsnr" v="470909" />
		<tag k="ssr:type" v="vikISjø" />
	</node>
	<node lat="60.80719444662622" lon="4.919505553844362" id="-74590">
		<tag k="name" v="Hammarsholmen" />
		<tag k="place" v="islet" />
		<tag k="ssr:date" v="2019-12-27" />
		<tag k="ssr:gruppe" v="kystkontur" />
		<tag k="ssr:hovedgruppe" v="sjø" />
		<tag k="ssr:stedsnr" v="470915" />
		<tag k="ssr:type" v="holmeISjø" />
	</node>
	<node lat="60.80535555555772" lon="4.781224994951993" id="-74593">
		<tag k="fixme" v="consider seamark:type=rock or natural=shoal" />
		<tag k="name" v="Klubbeskjeret" />
		<tag k="place" v="islet" />
		<tag k="ssr:date" v="2019-12-27" />
		<tag k="ssr:gruppe" v="grunnerISjø" />
		<tag k="ssr:hovedgruppe" v="sjø" />
		<tag k="ssr:stedsnr" v="676077" />
		<tag k="ssr:type" v="skjærISjø" />
	</node>
	<node lat="60.75425278206231" lon="4.934925006870476" id="-74595">
		<tag k="name" v="Nonkletten" />
		<tag k="natural" v="hill" />
		<tag k="place" v="locality" />
		<tag k="ssr:date" v="2019-12-27" />
		<tag k="ssr:gruppe" v="høyder" />
		<tag k="ssr:hovedgruppe" v="terreng" />
		<tag k="ssr:stedsnr" v="676157" />
		<tag k="ssr:type" v="haug" />
	</node>
	<node lat="60.81220833028051" lon="4.881372222711804" id="-74599">
		<tag k="name" v="Kalvsflua" />
		<tag k="place" v="locality" />
		<tag k="seamark:type" v="rock" />
		<tag k="ssr:date" v="2019-12-27" />
		<tag k="ssr:gruppe" v="grunnerISjø" />
		<tag k="ssr:hovedgruppe" v="sjø" />
		<tag k="ssr:stedsnr" v="480567" />
		<tag k="ssr:type" v="båeISjø" />
	</node>
	<node lat="60.813877775226636" lon="4.838730554319788" id="-74600">
		<tag k="name" v="Søre Haugklubben" />
		<tag k="place" v="islet" />
		<tag k="ssr:date" v="2019-12-27" />
		<tag k="ssr:gruppe" v="kystkontur" />
		<tag k="ssr:hovedgruppe" v="sjø" />
		<tag k="ssr:stedsnr" v="480879" />
		<tag k="ssr:type" v="holmeISjø" />
	</node>
	<node lat="60.76956944525956" lon="4.958955561778538" id="-74602">
		<tag k="name" v="Buneset" />
		<tag k="natural" v="cape" />
		<tag k="ssr:date" v="2019-12-27" />
		<tag k="ssr:gruppe" v="kystkontur" />
		<tag k="ssr:hovedgruppe" v="sjø" />
		<tag k="ssr:stedsnr" v="493202" />
		<tag k="ssr:type" v="nesISjø" />
	</node>
	<node lat="60.78257777499116" lon="4.862227779523529" id="-74603">
		<tag k="name" v="Nonkletten" />
		<tag k="natural" v="hill" />
		<tag k="place" v="locality" />
		<tag k="ssr:date" v="2019-12-27" />
		<tag k="ssr:gruppe" v="høyder" />
		<tag k="ssr:hovedgruppe" v="terreng" />
		<tag k="ssr:stedsnr" v="493226" />
		<tag k="ssr:type" v="haug" />
	</node>
	<node lat="60.76136666320671" lon="4.916677772377677" id="-74605">
		<tag k="name" v="Tuftene" />
		<tag k="place" v="farm" />
		<tag k="ssr:date" v="2019-12-27" />
		<tag k="ssr:gruppe" v="gardsbebyggelse" />
		<tag k="ssr:hovedgruppe" v="bebyggelse" />
		<tag k="ssr:stedsnr" v="494180" />
		<tag k="ssr:type" v="bruk" />
	</node>
	<node lat="60.77411666883353" lon="4.850286103945561" id="-74608">
		<tag k="alt_name" v="Allersholmen" />
		<tag k="name" v="Halsholmen" />
		<tag k="place" v="islet" />
		<tag k="ssr:date" v="2021-06-08" />
		<tag k="ssr:gruppe" v="kystkontur" />
		<tag k="ssr:hovedgruppe" v="sjø" />
		<tag k="ssr:stedsnr" v="494220" />
		<tag k="ssr:type" v="holmeISjø" />
	</node>
	<node lat="60.82304444776408" lon="4.817486111196857" id="-74619">
		<tag k="name" v="Håvika" />
		<tag k="natural" v="bay" />
		<tag k="ssr:date" v="2019-12-27" />
		<tag k="ssr:gruppe" v="kystkontur" />
		<tag k="ssr:hovedgruppe" v="sjø" />
		<tag k="ssr:stedsnr" v="522786" />
		<tag k="ssr:type" v="vikISjø" />
	</node>
	<node lat="60.79217778010393" lon="4.876627773431888" id="-74620">
		<tag k="name" v="Krossmyra" />
		<tag k="natural" v="wetland" />
		<tag k="ssr:date" v="2019-12-27" />
		<tag k="ssr:gruppe" v="våtmark" />
		<tag k="ssr:hovedgruppe" v="markslag" />
		<tag k="ssr:stedsnr" v="529945" />
		<tag k="ssr:type" v="myr" />
	</node>
	<node lat="60.79940555484861" lon="5.032430561767486" id="-74621">
		<tag k="name" v="Austrerindane" />
		<tag k="natural" v="ridge" />
		<tag k="place" v="locality" />
		<tag k="ssr:date" v="2019-12-27" />
		<tag k="ssr:gruppe" v="høyder" />
		<tag k="ssr:hovedgruppe" v="terreng" />
		<tag k="ssr:stedsnr" v="529958" />
		<tag k="ssr:type" v="rygg" />
	</node>
	<node lat="60.74196389195031" lon="4.975258328386946" id="-74622">
		<tag k="fixme" v="consider natural=peak for the most distinct mountains in the district" />
		<tag k="name" v="Nipen" />
		<tag k="natural" v="hill" />
		<tag k="place" v="locality" />
		<tag k="ssr:date" v="2019-12-27" />
		<tag k="ssr:gruppe" v="høyder" />
		<tag k="ssr:hovedgruppe" v="terreng" />
		<tag k="ssr:stedsnr" v="530274" />
		<tag k="ssr:type" v="topp" />
	</node>
	<node lat="60.78773332922169" lon="4.891902778849507" id="-74623">
		<tag k="name" v="Ørnekulten" />
		<tag k="natural" v="hill" />
		<tag k="place" v="locality" />
		<tag k="ssr:date" v="2019-12-27" />
		<tag k="ssr:gruppe" v="høyder" />
		<tag k="ssr:hovedgruppe" v="terreng" />
		<tag k="ssr:stedsnr" v="530276" />
		<tag k="ssr:type" v="haug" />
	</node>
	<node lat="60.83054999967179" lon="4.858580563326257" id="-74625">
		<tag k="name" v="Skarveneset" />
		<tag k="natural" v="cape" />
		<tag k="ssr:date" v="2019-12-27" />
		<tag k="ssr:gruppe" v="kystkontur" />
		<tag k="ssr:hovedgruppe" v="sjø" />
		<tag k="ssr:stedsnr" v="530918" />
		<tag k="ssr:type" v="nesISjø" />
	</node>
	<node lat="60.79720833316922" lon="4.861374991937189" id="-74626">
		<tag k="name" v="Båteneset" />
		<tag k="natural" v="cape" />
		<tag k="ssr:date" v="2019-12-27" />
		<tag k="ssr:gruppe" v="kystkontur" />
		<tag k="ssr:hovedgruppe" v="sjø" />
		<tag k="ssr:stedsnr" v="530922" />
		<tag k="ssr:type" v="nesISjø" />
	</node>
	<node lat="60.75939444516243" lon="5.016416660771041" id="-74627">
		<tag k="name" v="Austneset" />
		<tag k="natural" v="cape" />
		<tag k="ssr:date" v="2019-12-27" />
		<tag k="ssr:gruppe" v="kystkontur" />
		<tag k="ssr:hovedgruppe" v="sjø" />
		<tag k="ssr:stedsnr" v="530925" />
		<tag k="ssr:type" v="nesISjø" />
	</node>
	<node lat="60.76279999946488" lon="4.896213893405316" id="-74628">
		<tag k="name" v="Bergsvikvågen" />
		<tag k="natural" v="bay" />
		<tag k="ssr:date" v="2019-12-27" />
		<tag k="ssr:gruppe" v="kystkontur" />
		<tag k="ssr:hovedgruppe" v="sjø" />
		<tag k="ssr:stedsnr" v="530929" />
		<tag k="ssr:type" v="vågISjø" />
	</node>
	<node lat="60.82172020097302" lon="4.770505642270581" id="-74630">
		<tag k="name" v="Nesholmen" />
		<tag k="place" v="islet" />
		<tag k="ssr:date" v="2019-12-27" />
		<tag k="ssr:gruppe" v="kystkontur" />
		<tag k="ssr:hovedgruppe" v="sjø" />
		<tag k="ssr:stedsnr" v="530824" />
		<tag k="ssr:type" v="holmeISjø" />
	</node>
	<node lat="60.80971389314214" lon="4.919441669533321" id="-74632">
		<tag k="name" v="Kvalvågstraumen" />
		<tag k="natural" v="strait" />
		<tag k="ssr:date" v="2019-12-27" />
		<tag k="ssr:gruppe" v="kystkontur" />
		<tag k="ssr:hovedgruppe" v="sjø" />
		<tag k="ssr:stedsnr" v="530887" />
		<tag k="ssr:type" v="sundISjø" />
	</node>
	<node lat="60.80869166605502" lon="4.929997221475524" id="-74633">
		<tag k="name" v="Ulvøysteinen" />
		<tag k="natural" v="stone" />
		<tag k="ssr:date" v="2019-12-27" />
		<tag k="ssr:gruppe" v="løsmasseavsetninger" />
		<tag k="ssr:hovedgruppe" v="markslag" />
		<tag k="ssr:stedsnr" v="530889" />
		<tag k="ssr:type" v="stein" />
	</node>
	<node lat="60.74880681024082" lon="4.959070692609553" id="-74634">
		<tag k="alt_name" v="Lindåsvatnet" />
		<tag k="name" v="Litlelindåsvatnet" />
		<tag k="natural" v="water" />
		<tag k="ssr:date" v="2019-12-27" />
		<tag k="ssr:gruppe" v="stilleståendeVann" />
		<tag k="ssr:hovedgruppe" v="ferskvann" />
		<tag k="ssr:stedsnr" v="552785" />
		<tag k="ssr:type" v="tjern" />
	</node>
	<node lat="60.732350004331295" lon="4.9882027719986475" id="-74635">
		<tag k="name" v="Langetangen" />
		<tag k="natural" v="cape" />
		<tag k="ssr:date" v="2019-12-27" />
		<tag k="ssr:gruppe" v="kystkontur" />
		<tag k="ssr:hovedgruppe" v="sjø" />
		<tag k="ssr:stedsnr" v="552793" />
		<tag k="ssr:type" v="nesISjø" />
	</node>
	<node lat="60.82196944052504" lon="4.805691675115942" id="-74636">
		<tag k="name" v="Gardsendosen" />
		<tag k="natural" v="strait" />
		<tag k="ssr:date" v="2019-12-27" />
		<tag k="ssr:gruppe" v="kystkontur" />
		<tag k="ssr:hovedgruppe" v="sjø" />
		<tag k="ssr:stedsnr" v="554111" />
		<tag k="ssr:type" v="sundISjø" />
	</node>
	<node lat="60.80935555597466" lon="4.904813888710145" id="-74638">
		<tag k="name" v="Toftegård" />
		<tag k="place" v="farm" />
		<tag k="ssr:date" v="2019-12-27" />
		<tag k="ssr:gruppe" v="gardsbebyggelse" />
		<tag k="ssr:hovedgruppe" v="bebyggelse" />
		<tag k="ssr:stedsnr" v="554029" />
		<tag k="ssr:type" v="bruk" />
	</node>
	<node lat="60.78193055842093" lon="4.950911117265659" id="-74653">
		<tag k="name" v="Lyngneset" />
		<tag k="natural" v="cape" />
		<tag k="ssr:date" v="2019-12-27" />
		<tag k="ssr:gruppe" v="kystkontur" />
		<tag k="ssr:hovedgruppe" v="sjø" />
		<tag k="ssr:stedsnr" v="590228" />
		<tag k="ssr:type" v="nesISjø" />
	</node>
	<node lat="60.76562222084612" lon="4.9169944441838584" id="-74654">
		<tag k="name" v="Skråhaugen" />
		<tag k="natural" v="hill" />
		<tag k="place" v="locality" />
		<tag k="ssr:date" v="2019-12-27" />
		<tag k="ssr:gruppe" v="høyder" />
		<tag k="ssr:hovedgruppe" v="terreng" />
		<tag k="ssr:stedsnr" v="590256" />
		<tag k="ssr:type" v="haug" />
	</node>
	<node lat="60.80571944603604" lon="4.808261116410915" id="-74655">
		<tag k="fixme" v="consider seamark:type=rock or natural=shoal" />
		<tag k="name" v="Lyngskjeret" />
		<tag k="place" v="islet" />
		<tag k="ssr:date" v="2019-12-27" />
		<tag k="ssr:gruppe" v="grunnerISjø" />
		<tag k="ssr:hovedgruppe" v="sjø" />
		<tag k="ssr:stedsnr" v="590919" />
		<tag k="ssr:type" v="skjærISjø" />
	</node>
	<node lat="60.79532222444612" lon="4.953922228116875" id="-74656">
		<tag k="name" v="Stølshaugen" />
		<tag k="natural" v="hill" />
		<tag k="place" v="locality" />
		<tag k="ssr:date" v="2019-12-27" />
		<tag k="ssr:gruppe" v="høyder" />
		<tag k="ssr:hovedgruppe" v="terreng" />
		<tag k="ssr:stedsnr" v="590865" />
		<tag k="ssr:type" v="haug" />
	</node>
	<node lat="60.76948055954214" lon="5.015877780077956" id="-74657">
		<tag k="name" v="Vaulen" />
		<tag k="natural" v="bay" />
		<tag k="ssr:date" v="2019-12-27" />
		<tag k="ssr:gruppe" v="kystkontur" />
		<tag k="ssr:hovedgruppe" v="sjø" />
		<tag k="ssr:stedsnr" v="590873" />
		<tag k="ssr:type" v="vågISjø" />
	</node>
	<node lat="60.7438305558273" lon="5.006197217087055" id="-74658">
		<tag k="name" v="Store Otrevikshaugen" />
		<tag k="natural" v="hill" />
		<tag k="place" v="locality" />
		<tag k="ssr:date" v="2019-12-27" />
		<tag k="ssr:gruppe" v="høyder" />
		<tag k="ssr:hovedgruppe" v="terreng" />
		<tag k="ssr:stedsnr" v="590955" />
		<tag k="ssr:type" v="haug" />
	</node>
	<node lat="60.76357500333451" lon="5.019352775738189" id="-74659">
		<tag k="name" v="Kuhalen" />
		<tag k="natural" v="hill" />
		<tag k="place" v="locality" />
		<tag k="ssr:date" v="2019-12-27" />
		<tag k="ssr:gruppe" v="høyder" />
		<tag k="ssr:hovedgruppe" v="terreng" />
		<tag k="ssr:stedsnr" v="590959" />
		<tag k="ssr:type" v="haug" />
	</node>
	<node lat="60.75373610741844" lon="4.9818222264919285" id="-74660">
		<tag k="name" v="Klubben" />
		<tag k="natural" v="hill" />
		<tag k="place" v="locality" />
		<tag k="ssr:date" v="2019-12-27" />
		<tag k="ssr:gruppe" v="høyder" />
		<tag k="ssr:hovedgruppe" v="terreng" />
		<tag k="ssr:stedsnr" v="590961" />
		<tag k="ssr:type" v="haug" />
	</node>
	<node lat="60.814836115249086" lon="4.901669445895507" id="-74661">
		<tag k="name" v="Gudmundsholmen" />
		<tag k="place" v="islet" />
		<tag k="ssr:date" v="2019-12-27" />
		<tag k="ssr:gruppe" v="kystkontur" />
		<tag k="ssr:hovedgruppe" v="sjø" />
		<tag k="ssr:stedsnr" v="591909" />
		<tag k="ssr:type" v="holmeISjø" />
	</node>
	<node lat="60.781945567277326" lon="4.896103883869679" id="-74663">
		<tag k="name" v="Klåretjørna" />
		<tag k="natural" v="water" />
		<tag k="ssr:date" v="2019-12-27" />
		<tag k="ssr:gruppe" v="stilleståendeVann" />
		<tag k="ssr:hovedgruppe" v="ferskvann" />
		<tag k="ssr:stedsnr" v="615202" />
		<tag k="ssr:type" v="tjern" />
	</node>
	<node lat="60.81275277561412" lon="4.997716664012635" id="-74671">
		<tag k="name" v="Bøhaugen" />
		<tag k="natural" v="hill" />
		<tag k="place" v="locality" />
		<tag k="ssr:date" v="2019-12-27" />
		<tag k="ssr:gruppe" v="høyder" />
		<tag k="ssr:hovedgruppe" v="terreng" />
		<tag k="ssr:stedsnr" v="651219" />
		<tag k="ssr:type" v="haug" />
	</node>
	<node lat="60.75023333240463" lon="4.966791662471036" id="-74674">
		<tag k="name" v="Skutevika" />
		<tag k="natural" v="bay" />
		<tag k="ssr:date" v="2019-12-27" />
		<tag k="ssr:gruppe" v="kystkontur" />
		<tag k="ssr:hovedgruppe" v="sjø" />
		<tag k="ssr:stedsnr" v="651245" />
		<tag k="ssr:type" v="vikISjø" />
	</node>
	<node lat="60.73947499989922" lon="4.997919439527116" id="-74675">
		<tag k="name" v="Flatholmen" />
		<tag k="place" v="islet" />
		<tag k="ssr:date" v="2019-12-27" />
		<tag k="ssr:gruppe" v="kystkontur" />
		<tag k="ssr:hovedgruppe" v="sjø" />
		<tag k="ssr:stedsnr" v="651246" />
		<tag k="ssr:type" v="holmeISjø" />
	</node>
	<node lat="60.73646666836522" lon="4.955538897553765" id="-74676">
		<tag k="name" v="Store Herslaupen" />
		<tag k="natural" v="hill" />
		<tag k="place" v="locality" />
		<tag k="ssr:date" v="2019-12-27" />
		<tag k="ssr:gruppe" v="høyder" />
		<tag k="ssr:hovedgruppe" v="terreng" />
		<tag k="ssr:stedsnr" v="651247" />
		<tag k="ssr:type" v="haug" />
	</node>
	<node lat="60.8098999983471" lon="4.915625005039676" id="-74677">
		<tag k="name" v="Kylleren" />
		<tag k="natural" v="bay" />
		<tag k="ssr:date" v="2019-12-27" />
		<tag k="ssr:gruppe" v="kystkontur" />
		<tag k="ssr:hovedgruppe" v="sjø" />
		<tag k="ssr:stedsnr" v="651906" />
		<tag k="ssr:type" v="vikISjø" />
	</node>
	<node lat="60.80594722152131" lon="4.819575004980445" id="-74678">
		<tag k="name" v="Høgholmen" />
		<tag k="place" v="islet" />
		<tag k="ssr:date" v="2019-12-27" />
		<tag k="ssr:gruppe" v="kystkontur" />
		<tag k="ssr:hovedgruppe" v="sjø" />
		<tag k="ssr:stedsnr" v="652000" />
		<tag k="ssr:type" v="holmeISjø" />
	</node>
	<node lat="60.79333610680951" lon="4.949486108121018" id="-74679">
		<tag k="name" v="Brattebrekkene" />
		<tag k="natural" v="hill" />
		<tag k="place" v="locality" />
		<tag k="ssr:date" v="2019-12-27" />
		<tag k="ssr:gruppe" v="høyder" />
		<tag k="ssr:hovedgruppe" v="terreng" />
		<tag k="ssr:stedsnr" v="662537" />
		<tag k="ssr:type" v="haug" />
	</node>
	<node lat="60.83302500057774" lon="4.854338892953984" id="-74681">
		<tag k="fixme" v="consider seamark:type=rock or natural=shoal" />
		<tag k="name" v="Svartskjeret" />
		<tag k="place" v="islet" />
		<tag k="ssr:date" v="2019-12-27" />
		<tag k="ssr:gruppe" v="grunnerISjø" />
		<tag k="ssr:hovedgruppe" v="sjø" />
		<tag k="ssr:stedsnr" v="675104" />
		<tag k="ssr:type" v="skjærISjø" />
	</node>
	<node lat="60.835450001363434" lon="4.869405561122225" id="-74682">
		<tag k="name" v="Sætreneset" />
		<tag k="natural" v="cape" />
		<tag k="ssr:date" v="2019-12-27" />
		<tag k="ssr:gruppe" v="kystkontur" />
		<tag k="ssr:hovedgruppe" v="sjø" />
		<tag k="ssr:stedsnr" v="675109" />
		<tag k="ssr:type" v="nesISjø" />
	</node>
	<node lat="60.83426389004391" lon="4.864308329970369" id="-74683">
		<tag k="name" v="Svartskjervågen" />
		<tag k="natural" v="bay" />
		<tag k="ssr:date" v="2019-12-27" />
		<tag k="ssr:gruppe" v="kystkontur" />
		<tag k="ssr:hovedgruppe" v="sjø" />
		<tag k="ssr:stedsnr" v="675111" />
		<tag k="ssr:type" v="vikISjø" />
	</node>
	<node lat="60.80717777472138" lon="4.851300001514266" id="-74686">
		<tag k="alt_name" v="Kalven, s" />
		<tag k="name" v="Søre Kalven" />
		<tag k="place" v="islet" />
		<tag k="ssr:date" v="2019-12-27" />
		<tag k="ssr:gruppe" v="kystkontur" />
		<tag k="ssr:hovedgruppe" v="sjø" />
		<tag k="ssr:stedsnr" v="676039" />
		<tag k="ssr:type" v="holmeISjø" />
	</node>
	<node lat="60.80488888534747" lon="4.87223054806991" id="-74687">
		<tag k="fixme" v="consider seamark:type=rock or natural=shoal" />
		<tag k="name" v="Seisnappane" />
		<tag k="place" v="islet" />
		<tag k="ssr:date" v="2019-12-27" />
		<tag k="ssr:gruppe" v="grunnerISjø" />
		<tag k="ssr:hovedgruppe" v="sjø" />
		<tag k="ssr:stedsnr" v="676043" />
		<tag k="ssr:type" v="skjærISjø" />
	</node>
	<node lat="60.75541110667258" lon="4.924383326117298" id="-74689">
		<tag k="name" v="Sømhaugen" />
		<tag k="natural" v="hill" />
		<tag k="place" v="locality" />
		<tag k="ssr:date" v="2019-12-27" />
		<tag k="ssr:gruppe" v="høyder" />
		<tag k="ssr:hovedgruppe" v="terreng" />
		<tag k="ssr:stedsnr" v="676151" />
		<tag k="ssr:type" v="haug" />
	</node>
	<node lat="60.81221944400418" lon="5.008538883698732" id="-74693">
		<tag k="name" v="Sanddalen" />
		<tag k="natural" v="valley" />
		<tag k="place" v="locality" />
		<tag k="ssr:date" v="2019-12-27" />
		<tag k="ssr:gruppe" v="senkninger" />
		<tag k="ssr:hovedgruppe" v="terreng" />
		<tag k="ssr:stedsnr" v="894227" />
		<tag k="ssr:type" v="dal" />
	</node>
	<node lat="60.813977781860515" lon="4.907375002001827" id="-74694">
		<tag k="name" v="Dankertholmen" />
		<tag k="place" v="islet" />
		<tag k="ssr:date" v="2019-12-27" />
		<tag k="ssr:gruppe" v="kystkontur" />
		<tag k="ssr:hovedgruppe" v="sjø" />
		<tag k="ssr:stedsnr" v="894234" />
		<tag k="ssr:type" v="holmeISjø" />
	</node>
	<node lat="60.799952774831205" lon="4.9473999947959095" id="-74695">
		<tag k="name" v="Beglholmen" />
		<tag k="place" v="islet" />
		<tag k="ssr:date" v="2019-12-27" />
		<tag k="ssr:gruppe" v="kystkontur" />
		<tag k="ssr:hovedgruppe" v="sjø" />
		<tag k="ssr:stedsnr" v="894240" />
		<tag k="ssr:type" v="holmeISjø" />
	</node>
	<node lat="60.76201111373932" lon="4.98973056324299" id="-74696">
		<tag k="name" v="Skarvholmen" />
		<tag k="place" v="islet" />
		<tag k="ssr:date" v="2019-12-27" />
		<tag k="ssr:gruppe" v="kystkontur" />
		<tag k="ssr:hovedgruppe" v="sjø" />
		<tag k="ssr:stedsnr" v="894247" />
		<tag k="ssr:type" v="holmeISjø" />
	</node>
	<node lat="60.77147778104077" lon="4.974266666101211" id="-74697">
		<tag k="name" v="Langholmen" />
		<tag k="place" v="islet" />
		<tag k="ssr:date" v="2019-12-27" />
		<tag k="ssr:gruppe" v="kystkontur" />
		<tag k="ssr:hovedgruppe" v="sjø" />
		<tag k="ssr:stedsnr" v="894258" />
		<tag k="ssr:type" v="holmeISjø" />
	</node>
	<node lat="60.82285555501376" lon="4.804066663094873" id="-74703">
		<tag k="name" v="Kumlevågen" />
		<tag k="natural" v="bay" />
		<tag k="ssr:date" v="2019-12-27" />
		<tag k="ssr:gruppe" v="kystkontur" />
		<tag k="ssr:hovedgruppe" v="sjø" />
		<tag k="ssr:stedsnr" v="894845" />
		<tag k="ssr:type" v="vågISjø" />
	</node>
	<node lat="60.810194444186344" lon="4.844469445808259" id="-74705">
		<tag k="name" v="Blåbærholmen" />
		<tag k="place" v="islet" />
		<tag k="ssr:date" v="2019-12-27" />
		<tag k="ssr:gruppe" v="kystkontur" />
		<tag k="ssr:hovedgruppe" v="sjø" />
		<tag k="ssr:stedsnr" v="894858" />
		<tag k="ssr:type" v="holmeISjø" />
	</node>
	<node lat="60.79331388685823" lon="4.89818888019094" id="-74706">
		<tag k="name" v="Sjevika" />
		<tag k="natural" v="bay" />
		<tag k="ssr:date" v="2019-12-27" />
		<tag k="ssr:gruppe" v="kystkontur" />
		<tag k="ssr:hovedgruppe" v="sjø" />
		<tag k="ssr:stedsnr" v="894926" />
		<tag k="ssr:type" v="vikISjø" />
	</node>
	<node lat="60.825672219310434" lon="4.80491667558042" id="-74708">
		<tag k="name" v="Risneset" />
		<tag k="natural" v="cape" />
		<tag k="ssr:date" v="2019-12-27" />
		<tag k="ssr:gruppe" v="kystkontur" />
		<tag k="ssr:hovedgruppe" v="sjø" />
		<tag k="ssr:stedsnr" v="894946" />
		<tag k="ssr:type" v="nesISjø" />
	</node>
	<node lat="60.76036388633992" lon="4.98535277627621" id="-74709">
		<tag k="name" v="Grindhaugen" />
		<tag k="natural" v="hill" />
		<tag k="place" v="locality" />
		<tag k="ssr:date" v="2019-12-27" />
		<tag k="ssr:gruppe" v="høyder" />
		<tag k="ssr:hovedgruppe" v="terreng" />
		<tag k="ssr:stedsnr" v="894879" />
		<tag k="ssr:type" v="haug" />
	</node>
	<node lat="60.779652774224" lon="4.994586119504167" id="-74710">
		<tag k="name" v="Straumstadvatnet" />
		<tag k="natural" v="water" />
		<tag k="ssr:date" v="2019-12-27" />
		<tag k="ssr:gruppe" v="stilleståendeVann" />
		<tag k="ssr:hovedgruppe" v="ferskvann" />
		<tag k="ssr:stedsnr" v="695617" />
		<tag k="ssr:type" v="vann" />
		<tag k="water" v="lake" />
	</node>
	<node lat="60.80435277460825" lon="4.837152779089082" id="-74711">
		<tag k="name" v="Purkholmen" />
		<tag k="place" v="islet" />
		<tag k="ssr:date" v="2019-12-27" />
		<tag k="ssr:gruppe" v="kystkontur" />
		<tag k="ssr:hovedgruppe" v="sjø" />
		<tag k="ssr:stedsnr" v="894994" />
		<tag k="ssr:type" v="holmeISjø" />
	</node>
	<node lat="60.78984166836711" lon="4.863050008873659" id="-74713">
		<tag k="name" v="Leirpollen" />
		<tag k="natural" v="bay" />
		<tag k="ssr:date" v="2019-12-27" />
		<tag k="ssr:gruppe" v="kystkontur" />
		<tag k="ssr:hovedgruppe" v="sjø" />
		<tag k="ssr:stedsnr" v="895979" />
		<tag k="ssr:type" v="vågISjø" />
	</node>
	<node lat="60.79633611361453" lon="4.9940888855904575" id="-74715">
		<tag k="name" v="Søre Fonnesvågen" />
		<tag k="natural" v="bay" />
		<tag k="ssr:date" v="2019-12-27" />
		<tag k="ssr:gruppe" v="kystkontur" />
		<tag k="ssr:hovedgruppe" v="sjø" />
		<tag k="ssr:stedsnr" v="895884" />
		<tag k="ssr:type" v="vågISjø" />
	</node>
	<node lat="60.753477781326254" lon="4.998697217325395" id="-74717">
		<tag k="name" v="Ospeskarhaugen" />
		<tag k="natural" v="hill" />
		<tag k="place" v="locality" />
		<tag k="ssr:date" v="2019-12-27" />
		<tag k="ssr:gruppe" v="høyder" />
		<tag k="ssr:hovedgruppe" v="terreng" />
		<tag k="ssr:stedsnr" v="895888" />
		<tag k="ssr:type" v="haug" />
	</node>
	<node lat="60.804327781229766" lon="4.912441661837523" id="-74718">
		<tag k="name" v="Nothuset" />
		<tag k="place" v="locality" />
		<tag k="ssr:date" v="2019-12-27" />
		<tag k="ssr:gruppe" v="gardsbebyggelse" />
		<tag k="ssr:hovedgruppe" v="bebyggelse" />
		<tag k="ssr:stedsnr" v="895899" />
		<tag k="ssr:type" v="byggForJordbrukFiskeOgFangst" />
	</node>
	<node lat="60.784836113426735" lon="4.920061110805865" id="-74720">
		<tag k="name" v="Krabbholmen" />
		<tag k="place" v="islet" />
		<tag k="ssr:date" v="2019-12-27" />
		<tag k="ssr:gruppe" v="kystkontur" />
		<tag k="ssr:hovedgruppe" v="sjø" />
		<tag k="ssr:stedsnr" v="712200" />
		<tag k="ssr:type" v="holmeISjø" />
	</node>
	<node lat="60.8214305543338" lon="4.819727769129541" id="-74721">
		<tag k="name" v="Sjokletten" />
		<tag k="natural" v="hill" />
		<tag k="place" v="locality" />
		<tag k="ssr:date" v="2019-12-27" />
		<tag k="ssr:gruppe" v="høyder" />
		<tag k="ssr:hovedgruppe" v="terreng" />
		<tag k="ssr:stedsnr" v="712944" />
		<tag k="ssr:type" v="haug" />
	</node>
	<node lat="60.80486666768729" lon="4.949352769221807" id="-74722">
		<tag k="name" v="Solisholmen" />
		<tag k="place" v="islet" />
		<tag k="ssr:date" v="2019-12-27" />
		<tag k="ssr:gruppe" v="kystkontur" />
		<tag k="ssr:hovedgruppe" v="sjø" />
		<tag k="ssr:stedsnr" v="723527" />
		<tag k="ssr:type" v="holmeISjø" />
	</node>
	<node lat="60.82562222252952" lon="4.806763893953248" id="-74724">
		<tag k="name" v="Risnesvågen" />
		<tag k="natural" v="bay" />
		<tag k="ssr:date" v="2019-12-27" />
		<tag k="ssr:gruppe" v="kystkontur" />
		<tag k="ssr:hovedgruppe" v="sjø" />
		<tag k="ssr:stedsnr" v="723877" />
		<tag k="ssr:type" v="vikISjø" />
	</node>
	<node lat="60.7594805552728" lon="4.914844440993547" id="-74726">
		<tag k="name" v="Hopland" />
		<tag k="place" v="hamlet" />
		<tag k="ssr:date" v="2019-12-27" />
		<tag k="ssr:gruppe" v="bebyggelsesområder" />
		<tag k="ssr:hovedgruppe" v="bebyggelse" />
		<tag k="ssr:stedsnr" v="736170" />
		<tag k="ssr:type" v="grend" />
	</node>
	<node lat="60.7669888873394" lon="4.947555549555696" id="-74730">
		<tag k="name" v="Rabben" />
		<tag k="place" v="farm" />
		<tag k="ssr:date" v="2019-12-27" />
		<tag k="ssr:gruppe" v="gardsbebyggelse" />
		<tag k="ssr:hovedgruppe" v="bebyggelse" />
		<tag k="ssr:stedsnr" v="736228" />
		<tag k="ssr:type" v="bruk" />
	</node>
	<node lat="60.81003055389498" lon="5.001830561431847" id="-74736">
		<tag k="name" v="Stølen" />
		<tag k="place" v="farm" />
		<tag k="ssr:date" v="2019-12-27" />
		<tag k="ssr:gruppe" v="gardsbebyggelse" />
		<tag k="ssr:hovedgruppe" v="bebyggelse" />
		<tag k="ssr:stedsnr" v="772906" />
		<tag k="ssr:type" v="bruk" />
	</node>
	<node lat="60.8172749959288" lon="4.783277770167622" id="-74737">
		<tag k="name" v="Hestholmen" />
		<tag k="place" v="islet" />
		<tag k="ssr:date" v="2019-12-27" />
		<tag k="ssr:gruppe" v="kystkontur" />
		<tag k="ssr:hovedgruppe" v="sjø" />
		<tag k="ssr:stedsnr" v="773923" />
		<tag k="ssr:type" v="holmeISjø" />
	</node>
	<node lat="60.82069166850787" lon="4.810730560074816" id="-74738">
		<tag k="name" v="Ramsberghaugen" />
		<tag k="natural" v="hill" />
		<tag k="place" v="locality" />
		<tag k="ssr:date" v="2019-12-27" />
		<tag k="ssr:gruppe" v="høyder" />
		<tag k="ssr:hovedgruppe" v="terreng" />
		<tag k="ssr:stedsnr" v="773927" />
		<tag k="ssr:type" v="haug" />
	</node>
	<node lat="60.74198055797872" lon="5.01139444611799" id="-74739">
		<tag k="name" v="Neset" />
		<tag k="natural" v="cape" />
		<tag k="ssr:date" v="2019-12-27" />
		<tag k="ssr:gruppe" v="kystkontur" />
		<tag k="ssr:hovedgruppe" v="sjø" />
		<tag k="ssr:stedsnr" v="773953" />
		<tag k="ssr:type" v="nesISjø" />
	</node>
	<node lat="60.79840833702595" lon="4.927541662574985" id="-74742">
		<tag k="name" v="Skolmena" />
		<tag k="place" v="islet" />
		<tag k="ssr:date" v="2019-12-27" />
		<tag k="ssr:gruppe" v="kystkontur" />
		<tag k="ssr:hovedgruppe" v="sjø" />
		<tag k="ssr:stedsnr" v="783501" />
		<tag k="ssr:type" v="holmeISjø" />
	</node>
	<node lat="60.81133333551036" lon="4.787708328177788" id="-74743">
		<tag k="name" v="Båteskjernakken" />
		<tag k="place" v="locality" />
		<tag k="seamark:type" v="rock" />
		<tag k="ssr:date" v="2019-12-27" />
		<tag k="ssr:gruppe" v="grunnerISjø" />
		<tag k="ssr:hovedgruppe" v="sjø" />
		<tag k="ssr:stedsnr" v="784920" />
		<tag k="ssr:type" v="båeISjø" />
	</node>
	<node lat="60.83765278181501" lon="4.898813891499513" id="-74744">
		<tag k="alt_name" v="Islendingen, låge" />
		<tag k="name" v="Låge Islendingen" />
		<tag k="place" v="islet" />
		<tag k="ssr:date" v="2019-12-27" />
		<tag k="ssr:gruppe" v="kystkontur" />
		<tag k="ssr:hovedgruppe" v="sjø" />
		<tag k="ssr:stedsnr" v="797106" />
		<tag k="ssr:type" v="holmeISjø" />
	</node>
	<node lat="60.75986944497823" lon="5.027113883879693" id="-74745">
		<tag k="name" v="Arehaugen" />
		<tag k="natural" v="hill" />
		<tag k="place" v="locality" />
		<tag k="ssr:date" v="2019-12-27" />
		<tag k="ssr:gruppe" v="høyder" />
		<tag k="ssr:hovedgruppe" v="terreng" />
		<tag k="ssr:stedsnr" v="797166" />
		<tag k="ssr:type" v="haug" />
	</node>
	<node lat="60.76387229721376" lon="4.915728523798822" id="-74748">
		<tag k="alt_name" v="Austrheim" />
		<tag k="amenity" v="place_of_worship" />
		<tag k="denomination" v="lutheran" />
		<tag k="name" v="Austrheim kyrkje" />
		<tag k="religion" v="christian" />
		<tag k="ssr:date" v="2019-12-27" />
		<tag k="ssr:gruppe" v="kulturinstitusjoner" />
		<tag k="ssr:hovedgruppe" v="kultur" />
		<tag k="ssr:stedsnr" v="797208" />
		<tag k="ssr:type" v="kirke" />
	</node>
	<node lat="60.76178611045256" lon="4.999358337548889" id="-74767">
		<tag k="name" v="Brurebykset" />
		<tag k="place" v="locality" />
		<tag k="ssr:date" v="2019-12-27" />
		<tag k="ssr:gruppe" v="terrengdetaljer" />
		<tag k="ssr:hovedgruppe" v="terreng" />
		<tag k="ssr:stedsnr" v="833906" />
		<tag k="ssr:type" v="annenTerrengdetalj" />
	</node>
	<node lat="60.8169722211246" lon="4.903880551736095" id="-74768">
		<tag k="name" v="Rasmusholmane" />
		<tag k="place" v="islet" />
		<tag k="ssr:date" v="2019-12-27" />
		<tag k="ssr:gruppe" v="kystkontur" />
		<tag k="ssr:hovedgruppe" v="sjø" />
		<tag k="ssr:stedsnr" v="845607" />
		<tag k="ssr:type" v="holmegruppeISjø" />
	</node>
	<node lat="60.80612222055426" lon="4.870858331974967" id="-74769">
		<tag k="name" v="Seisnappholmen" />
		<tag k="place" v="islet" />
		<tag k="ssr:date" v="2019-12-27" />
		<tag k="ssr:gruppe" v="kystkontur" />
		<tag k="ssr:hovedgruppe" v="sjø" />
		<tag k="ssr:stedsnr" v="845613" />
		<tag k="ssr:type" v="holmeISjø" />
	</node>
	<node lat="60.7973750013932" lon="5.01865555932615" id="-74775">
		<tag k="alt_name" v="Åse" />
		<tag k="name" v="Litlås" />
		<tag k="place" v="farm" />
		<tag k="ssr:date" v="2019-12-27" />
		<tag k="ssr:gruppe" v="gardsbebyggelse" />
		<tag k="ssr:hovedgruppe" v="bebyggelse" />
		<tag k="ssr:stedsnr" v="858023" />
		<tag k="ssr:type" v="bruk" />
	</node>
	<node lat="60.78450000315093" lon="4.8910000002807195" id="-74776">
		<tag k="name" v="Hammarsvatnet" />
		<tag k="natural" v="water" />
		<tag k="ssr:date" v="2019-12-27" />
		<tag k="ssr:gruppe" v="stilleståendeVann" />
		<tag k="ssr:hovedgruppe" v="ferskvann" />
		<tag k="ssr:stedsnr" v="858029" />
		<tag k="ssr:type" v="tjern" />
	</node>
	<node lat="60.82714444619725" lon="4.7823444428854485" id="-74778">
		<tag k="name" v="Odden" />
		<tag k="natural" v="cape" />
		<tag k="ssr:date" v="2019-12-27" />
		<tag k="ssr:gruppe" v="kystkontur" />
		<tag k="ssr:hovedgruppe" v="sjø" />
		<tag k="ssr:stedsnr" v="858091" />
		<tag k="ssr:type" v="nesISjø" />
	</node>
	<node lat="60.83618333113437" lon="4.841699994227682" id="-74779">
		<tag k="name" v="Svaene" />
		<tag k="natural" v="shoal" />
		<tag k="place" v="locality" />
		<tag k="ssr:date" v="2019-12-27" />
		<tag k="ssr:gruppe" v="grunnerISjø" />
		<tag k="ssr:hovedgruppe" v="sjø" />
		<tag k="ssr:stedsnr" v="858095" />
		<tag k="ssr:type" v="grunneISjø" />
	</node>
	<node lat="60.75976626425224" lon="4.951448309848159" id="-74781">
		<tag k="name" v="Solevatnet" />
		<tag k="natural" v="water" />
		<tag k="ssr:date" v="2019-12-27" />
		<tag k="ssr:gruppe" v="stilleståendeVann" />
		<tag k="ssr:hovedgruppe" v="ferskvann" />
		<tag k="ssr:stedsnr" v="858177" />
		<tag k="ssr:type" v="tjern" />
	</node>
	<node lat="60.79751110829215" lon="4.855811105464169" id="-74783">
		<tag k="name" v="Teistholmen" />
		<tag k="place" v="islet" />
		<tag k="ssr:date" v="2019-12-27" />
		<tag k="ssr:gruppe" v="kystkontur" />
		<tag k="ssr:hovedgruppe" v="sjø" />
		<tag k="ssr:stedsnr" v="858977" />
		<tag k="ssr:type" v="holmeISjø" />
	</node>
	<node lat="60.76367499836668" lon="4.91238055477132" id="-74789">
		<tag k="fixme" v="consider place=suburb, village or hamlet" />
		<tag k="name" v="Austrheim" />
		<tag k="place" v="quarter" />
		<tag k="ssr:date" v="2019-12-27" />
		<tag k="ssr:gruppe" v="bebyggelsesområder" />
		<tag k="ssr:hovedgruppe" v="bebyggelse" />
		<tag k="ssr:stedsnr" v="889109" />
		<tag k="ssr:type" v="tettbebyggelse" />
	</node>
	<node lat="60.789747223443776" lon="4.986811115334555" id="-74790">
		<tag k="name" v="Grønnappen" />
		<tag k="natural" v="cape" />
		<tag k="ssr:date" v="2019-12-27" />
		<tag k="ssr:gruppe" v="kystkontur" />
		<tag k="ssr:hovedgruppe" v="sjø" />
		<tag k="ssr:stedsnr" v="894925" />
		<tag k="ssr:type" v="nesISjø" />
	</node>
	<node lat="60.753147218485786" lon="4.963894438345771" id="-74791">
		<tag k="name" v="Kannedalsmyra" />
		<tag k="natural" v="wetland" />
		<tag k="ssr:date" v="2019-12-27" />
		<tag k="ssr:gruppe" v="våtmark" />
		<tag k="ssr:hovedgruppe" v="markslag" />
		<tag k="ssr:stedsnr" v="894967" />
		<tag k="ssr:type" v="myr" />
	</node>
	<node lat="60.772877775136635" lon="4.871186111277684" id="-74792">
		<tag k="name" v="Skaget" />
		<tag k="natural" v="cape" />
		<tag k="ssr:date" v="2019-12-27" />
		<tag k="ssr:gruppe" v="kystkontur" />
		<tag k="ssr:hovedgruppe" v="sjø" />
		<tag k="ssr:stedsnr" v="894972" />
		<tag k="ssr:type" v="nesISjø" />
	</node>
	<node lat="60.8062249961722" lon="4.798300005426" id="-74793">
		<tag k="name" v="Nesholmen" />
		<tag k="place" v="islet" />
		<tag k="ssr:date" v="2019-12-27" />
		<tag k="ssr:gruppe" v="kystkontur" />
		<tag k="ssr:hovedgruppe" v="sjø" />
		<tag k="ssr:stedsnr" v="895822" />
		<tag k="ssr:type" v="holmeISjø" />
	</node>
	<node lat="60.78655555482292" lon="4.9374888829258134" id="-74794">
		<tag k="fixme" v="consider place=suburb, village or hamlet" />
		<tag k="name" v="Mastrevikane" />
		<tag k="place" v="quarter" />
		<tag k="ssr:date" v="2019-12-27" />
		<tag k="ssr:gruppe" v="bebyggelsesområder" />
		<tag k="ssr:hovedgruppe" v="bebyggelse" />
		<tag k="ssr:stedsnr" v="918021" />
		<tag k="ssr:type" v="tettbebyggelse" />
	</node>
	<node lat="60.83056944278086" lon="4.810105560350958" id="-74796">
		<tag k="name" v="Tjørholmsundet" />
		<tag k="natural" v="strait" />
		<tag k="ssr:date" v="2019-12-27" />
		<tag k="ssr:gruppe" v="kystkontur" />
		<tag k="ssr:hovedgruppe" v="sjø" />
		<tag k="ssr:stedsnr" v="918111" />
		<tag k="ssr:type" v="sundISjø" />
	</node>
	<node lat="60.82521666963746" lon="4.811194439205143" id="-74797">
		<tag k="name" v="Risselen" />
		<tag k="natural" v="hill" />
		<tag k="place" v="locality" />
		<tag k="ssr:date" v="2019-12-27" />
		<tag k="ssr:gruppe" v="høyder" />
		<tag k="ssr:hovedgruppe" v="terreng" />
		<tag k="ssr:stedsnr" v="918113" />
		<tag k="ssr:type" v="haug" />
	</node>
	<node lat="60.764977777822175" lon="4.93075555119656" id="-74804">
		<tag k="name" v="Trollåsane" />
		<tag k="natural" v="hill" />
		<tag k="place" v="locality" />
		<tag k="ssr:date" v="2019-12-27" />
		<tag k="ssr:gruppe" v="høyder" />
		<tag k="ssr:hovedgruppe" v="terreng" />
		<tag k="ssr:stedsnr" v="919195" />
		<tag k="ssr:type" v="haug" />
	</node>
	<node lat="60.7594194402218" lon="4.978469447351503" id="-74810">
		<tag k="name" v="Storhaugen" />
		<tag k="natural" v="hill" />
		<tag k="place" v="locality" />
		<tag k="ssr:date" v="2019-12-27" />
		<tag k="ssr:gruppe" v="høyder" />
		<tag k="ssr:hovedgruppe" v="terreng" />
		<tag k="ssr:stedsnr" v="955216" />
		<tag k="ssr:type" v="haug" />
	</node>
	<node lat="60.76724143843643" lon="5.018870945021182" id="-74811">
		<tag k="name" v="Vaulevatnet" />
		<tag k="natural" v="water" />
		<tag k="ssr:date" v="2020-02-27" />
		<tag k="ssr:gruppe" v="stilleståendeVann" />
		<tag k="ssr:hovedgruppe" v="ferskvann" />
		<tag k="ssr:stedsnr" v="955221" />
		<tag k="ssr:type" v="vann" />
		<tag k="water" v="lake" />
	</node>
	<node lat="60.74780000275323" lon="4.984150001167038" id="-74812">
		<tag k="name" v="Rumpa" />
		<tag k="natural" v="cape" />
		<tag k="ssr:date" v="2019-12-27" />
		<tag k="ssr:gruppe" v="kystkontur" />
		<tag k="ssr:hovedgruppe" v="sjø" />
		<tag k="ssr:stedsnr" v="955228" />
		<tag k="ssr:type" v="nesISjø" />
	</node>
	<node lat="60.78424962072328" lon="4.911985266236595" id="-74813">
		<tag k="name" v="Litletjørna" />
		<tag k="natural" v="water" />
		<tag k="ssr:date" v="2019-12-27" />
		<tag k="ssr:gruppe" v="stilleståendeVann" />
		<tag k="ssr:hovedgruppe" v="ferskvann" />
		<tag k="ssr:stedsnr" v="955235" />
		<tag k="ssr:type" v="tjern" />
	</node>
	<node lat="60.763291670078814" lon="4.988916672923521" id="-74816">
		<tag k="fixme" v="consider seamark:type=rock or natural=shoal" />
		<tag k="name" v="Grønaskjeret" />
		<tag k="place" v="islet" />
		<tag k="ssr:date" v="2019-12-27" />
		<tag k="ssr:gruppe" v="grunnerISjø" />
		<tag k="ssr:hovedgruppe" v="sjø" />
		<tag k="ssr:stedsnr" v="955948" />
		<tag k="ssr:type" v="skjærISjø" />
	</node>
	<node lat="60.835572904105724" lon="4.890632020090179" id="-74818">
		<tag k="name" v="Robbersundet" />
		<tag k="natural" v="strait" />
		<tag k="ssr:date" v="2019-12-27" />
		<tag k="ssr:gruppe" v="kystkontur" />
		<tag k="ssr:hovedgruppe" v="sjø" />
		<tag k="ssr:stedsnr" v="966646" />
		<tag k="ssr:type" v="sundISjø" />
	</node>
	<node lat="60.795022224597396" lon="4.815536105502619" id="-74819">
		<tag k="name" v="Humresundet" />
		<tag k="natural" v="strait" />
		<tag k="ssr:date" v="2019-12-27" />
		<tag k="ssr:gruppe" v="kystkontur" />
		<tag k="ssr:hovedgruppe" v="sjø" />
		<tag k="ssr:stedsnr" v="966994" />
		<tag k="ssr:type" v="sundISjø" />
	</node>
	<node lat="60.81928332779178" lon="4.772604199683191" id="-74821">
		<tag k="name" v="Sauøyparten" />
		<tag k="natural" v="cape" />
		<tag k="ssr:date" v="2019-12-27" />
		<tag k="ssr:gruppe" v="kystkontur" />
		<tag k="ssr:hovedgruppe" v="sjø" />
		<tag k="ssr:stedsnr" v="989213" />
		<tag k="ssr:type" v="halvøyISjø" />
	</node>
	<node lat="60.80968333440427" lon="4.811374994232864" id="-74826">
		<tag k="name" v="Skissøyholmen" />
		<tag k="place" v="islet" />
		<tag k="ssr:date" v="2019-12-27" />
		<tag k="ssr:gruppe" v="kystkontur" />
		<tag k="ssr:hovedgruppe" v="sjø" />
		<tag k="ssr:stedsnr" v="8075" />
		<tag k="ssr:type" v="holmeISjø" />
	</node>
	<node lat="60.82286667098301" lon="4.897191669584966" id="-74827">
		<tag k="name" v="Gåsholmen" />
		<tag k="place" v="islet" />
		<tag k="ssr:date" v="2019-12-27" />
		<tag k="ssr:gruppe" v="kystkontur" />
		<tag k="ssr:hovedgruppe" v="sjø" />
		<tag k="ssr:stedsnr" v="8077" />
		<tag k="ssr:type" v="holmeISjø" />
	</node>
	<node lat="60.7560944455106" lon="4.915069439381597" id="-74828">
		<tag k="name" v="Bakken" />
		<tag k="place" v="farm" />
		<tag k="ssr:date" v="2019-12-27" />
		<tag k="ssr:gruppe" v="gardsbebyggelse" />
		<tag k="ssr:hovedgruppe" v="bebyggelse" />
		<tag k="ssr:stedsnr" v="8171" />
		<tag k="ssr:type" v="bruk" />
	</node>
	<node lat="60.7732083356527" lon="4.988788885058675" id="-74832">
		<tag k="name" v="Stølane" />
		<tag k="natural" v="hill" />
		<tag k="place" v="locality" />
		<tag k="ssr:date" v="2019-12-27" />
		<tag k="ssr:gruppe" v="høyder" />
		<tag k="ssr:hovedgruppe" v="terreng" />
		<tag k="ssr:stedsnr" v="8214" />
		<tag k="ssr:type" v="haug" />
	</node>
	<node lat="60.758863890026795" lon="4.893625001923068" id="-74833">
		<tag k="name" v="Litleosen" />
		<tag k="natural" v="bay" />
		<tag k="ssr:date" v="2019-12-27" />
		<tag k="ssr:gruppe" v="kystkontur" />
		<tag k="ssr:hovedgruppe" v="sjø" />
		<tag k="ssr:stedsnr" v="8229" />
		<tag k="ssr:type" v="vikISjø" />
	</node>
	<node lat="60.760536114247415" lon="4.931924990475976" id="-74835">
		<tag k="name" v="Snapphaugane" />
		<tag k="natural" v="hill" />
		<tag k="place" v="locality" />
		<tag k="ssr:date" v="2019-12-27" />
		<tag k="ssr:gruppe" v="høyder" />
		<tag k="ssr:hovedgruppe" v="terreng" />
		<tag k="ssr:stedsnr" v="8238" />
		<tag k="ssr:type" v="haug" />
	</node>
	<node lat="60.7990111137767" lon="4.799416668141054" id="-74849">
		<tag k="name" v="Gygreholmboen" />
		<tag k="place" v="locality" />
		<tag k="seamark:type" v="rock" />
		<tag k="ssr:date" v="2019-12-27" />
		<tag k="ssr:gruppe" v="grunnerISjø" />
		<tag k="ssr:hovedgruppe" v="sjø" />
		<tag k="ssr:stedsnr" v="36884" />
		<tag k="ssr:type" v="båeISjø" />
	</node>
	<node lat="60.77282500074374" lon="5.008461116653587" id="-74850">
		<tag k="name" v="Havnen" />
		<tag k="natural" v="bay" />
		<tag k="ssr:date" v="2019-12-27" />
		<tag k="ssr:gruppe" v="kystkontur" />
		<tag k="ssr:hovedgruppe" v="sjø" />
		<tag k="ssr:stedsnr" v="44232" />
		<tag k="ssr:type" v="vikISjø" />
	</node>
	<node lat="60.8028611140753" lon="4.869622221329846" id="-74851">
		<tag k="name" v="Åløypet" />
		<tag k="place" v="islet" />
		<tag k="ssr:date" v="2019-12-27" />
		<tag k="ssr:gruppe" v="kystkontur" />
		<tag k="ssr:hovedgruppe" v="sjø" />
		<tag k="ssr:stedsnr" v="44212" />
		<tag k="ssr:type" v="holmeISjø" />
	</node>
	<node lat="60.752005557622205" lon="4.970499995304178" id="-74852">
		<tag k="name" v="Kvernhushaugane" />
		<tag k="natural" v="hill" />
		<tag k="place" v="locality" />
		<tag k="ssr:date" v="2019-12-27" />
		<tag k="ssr:gruppe" v="høyder" />
		<tag k="ssr:hovedgruppe" v="terreng" />
		<tag k="ssr:stedsnr" v="44251" />
		<tag k="ssr:type" v="haug" />
	</node>
	<node lat="60.79329999583194" lon="4.838425005666939" id="-74853">
		<tag k="name" v="Nordre Lauvøyvågen" />
		<tag k="natural" v="bay" />
		<tag k="ssr:date" v="2019-12-27" />
		<tag k="ssr:gruppe" v="kystkontur" />
		<tag k="ssr:hovedgruppe" v="sjø" />
		<tag k="ssr:stedsnr" v="44838" />
		<tag k="ssr:type" v="vågISjø" />
	</node>
	<node lat="60.77977957548776" lon="4.9785502621717885" id="-74854">
		<tag k="name" v="Vågen" />
		<tag k="natural" v="bay" />
		<tag k="ssr:date" v="2019-12-27" />
		<tag k="ssr:gruppe" v="kystkontur" />
		<tag k="ssr:hovedgruppe" v="sjø" />
		<tag k="ssr:stedsnr" v="44844" />
		<tag k="ssr:type" v="vågISjø" />
	</node>
	<node lat="60.759227777078685" lon="5.03288333545704" id="-74856">
		<tag k="name" v="Rotevågen" />
		<tag k="natural" v="bay" />
		<tag k="ssr:date" v="2019-12-27" />
		<tag k="ssr:gruppe" v="kystkontur" />
		<tag k="ssr:hovedgruppe" v="sjø" />
		<tag k="ssr:stedsnr" v="44867" />
		<tag k="ssr:type" v="vågISjø" />
	</node>
	<node lat="60.817647218089746" lon="4.767377777470227" id="-74857">
		<tag k="fixme" v="consider seamark:type=rock or natural=shoal" />
		<tag k="name" v="Sauskjeret" />
		<tag k="place" v="islet" />
		<tag k="ssr:date" v="2019-12-27" />
		<tag k="ssr:gruppe" v="grunnerISjø" />
		<tag k="ssr:hovedgruppe" v="sjø" />
		<tag k="ssr:stedsnr" v="44930" />
		<tag k="ssr:type" v="skjærISjø" />
	</node>
	<node lat="60.74321666523621" lon="4.9365861031530525" id="-74859">
		<tag k="name" v="Kvitaberget" />
		<tag k="natural" v="cape" />
		<tag k="ssr:date" v="2019-12-27" />
		<tag k="ssr:gruppe" v="kystkontur" />
		<tag k="ssr:hovedgruppe" v="sjø" />
		<tag k="ssr:stedsnr" v="44945" />
		<tag k="ssr:type" v="nesISjø" />
	</node>
	<node lat="60.75982499899364" lon="4.915513891396469" id="-74860">
		<tag k="name" v="Leitet" />
		<tag k="natural" v="hill" />
		<tag k="place" v="locality" />
		<tag k="ssr:date" v="2019-12-27" />
		<tag k="ssr:gruppe" v="høyder" />
		<tag k="ssr:hovedgruppe" v="terreng" />
		<tag k="ssr:stedsnr" v="44957" />
		<tag k="ssr:type" v="haug" />
	</node>
	<node lat="60.77881389149709" lon="4.872363884769887" id="-74861">
		<tag k="name" v="Grønåsmyra" />
		<tag k="natural" v="wetland" />
		<tag k="ssr:date" v="2019-12-27" />
		<tag k="ssr:gruppe" v="våtmark" />
		<tag k="ssr:hovedgruppe" v="markslag" />
		<tag k="ssr:stedsnr" v="44964" />
		<tag k="ssr:type" v="myr" />
	</node>
	<node lat="60.825652779312485" lon="4.907105558370807" id="-74864">
		<tag k="fixme" v="consider seamark:type=rock or natural=shoal" />
		<tag k="name" v="Måseskjeret" />
		<tag k="place" v="islet" />
		<tag k="ssr:date" v="2019-12-27" />
		<tag k="ssr:gruppe" v="grunnerISjø" />
		<tag k="ssr:hovedgruppe" v="sjø" />
		<tag k="ssr:stedsnr" v="45894" />
		<tag k="ssr:type" v="skjærISjø" />
	</node>
	<node lat="60.83321388655532" lon="4.85752500725598" id="-74867">
		<tag k="name" v="Stykket" />
		<tag k="natural" v="cape" />
		<tag k="ssr:date" v="2019-12-27" />
		<tag k="ssr:gruppe" v="kystkontur" />
		<tag k="ssr:hovedgruppe" v="sjø" />
		<tag k="ssr:stedsnr" v="56599" />
		<tag k="ssr:type" v="nesISjø" />
	</node>
	<node lat="60.810691664530914" lon="4.915783328459429" id="-74868">
		<tag k="name" v="Kyllaren" />
		<tag k="natural" v="bay" />
		<tag k="ssr:date" v="2019-12-27" />
		<tag k="ssr:gruppe" v="kystkontur" />
		<tag k="ssr:hovedgruppe" v="sjø" />
		<tag k="ssr:stedsnr" v="56555" />
		<tag k="ssr:type" v="vikISjø" />
	</node>
	<node lat="60.805019444474524" lon="4.912291663532087" id="-74869">
		<tag k="name" v="Kvalvågen" />
		<tag k="natural" v="bay" />
		<tag k="ssr:date" v="2019-12-27" />
		<tag k="ssr:gruppe" v="kystkontur" />
		<tag k="ssr:hovedgruppe" v="sjø" />
		<tag k="ssr:stedsnr" v="56560" />
		<tag k="ssr:type" v="vikISjø" />
	</node>
	<node lat="60.824147221727195" lon="4.713708333774447" id="-74871">
		<tag k="name" v="Midsete" />
		<tag k="natural" v="shoal" />
		<tag k="place" v="locality" />
		<tag k="ssr:date" v="2019-12-27" />
		<tag k="ssr:gruppe" v="grunnerISjø" />
		<tag k="ssr:hovedgruppe" v="sjø" />
		<tag k="ssr:stedsnr" v="56839" />
		<tag k="ssr:type" v="grunneISjø" />
	</node>
	<node lat="60.791502781991156" lon="4.941566667012976" id="-74876">
		<tag k="name" v="Vikaosen" />
		<tag k="natural" v="strait" />
		<tag k="ssr:date" v="2019-12-27" />
		<tag k="ssr:gruppe" v="kystkontur" />
		<tag k="ssr:hovedgruppe" v="sjø" />
		<tag k="ssr:stedsnr" v="69020" />
		<tag k="ssr:type" v="sundISjø" />
	</node>
	<node lat="60.783550003908765" lon="4.928927768584437" id="-74881">
		<tag k="name" v="Kyrkjehaugen" />
		<tag k="natural" v="hill" />
		<tag k="place" v="locality" />
		<tag k="ssr:date" v="2019-12-27" />
		<tag k="ssr:gruppe" v="høyder" />
		<tag k="ssr:hovedgruppe" v="terreng" />
		<tag k="ssr:stedsnr" v="69225" />
		<tag k="ssr:type" v="haug" />
	</node>
	<node lat="60.82120833199687" lon="4.822016668824555" id="-74882">
		<tag k="name" v="Krossøysundet" />
		<tag k="natural" v="strait" />
		<tag k="ssr:date" v="2019-12-27" />
		<tag k="ssr:gruppe" v="kystkontur" />
		<tag k="ssr:hovedgruppe" v="sjø" />
		<tag k="ssr:stedsnr" v="69112" />
		<tag k="ssr:type" v="sundISjø" />
	</node>
	<node lat="60.82071944438275" lon="4.864902776966352" id="-74883">
		<tag k="name" v="Børildvågen" />
		<tag k="natural" v="bay" />
		<tag k="ssr:date" v="2019-12-27" />
		<tag k="ssr:gruppe" v="kystkontur" />
		<tag k="ssr:hovedgruppe" v="sjø" />
		<tag k="ssr:stedsnr" v="69120" />
		<tag k="ssr:type" v="vikISjø" />
	</node>
	<node lat="60.76607777987375" lon="4.875311107426227" id="-74886">
		<tag k="name" v="Svartholmen" />
		<tag k="place" v="islet" />
		<tag k="ssr:date" v="2019-12-27" />
		<tag k="ssr:gruppe" v="kystkontur" />
		<tag k="ssr:hovedgruppe" v="sjø" />
		<tag k="ssr:stedsnr" v="69248" />
		<tag k="ssr:type" v="holmeISjø" />
	</node>
	<node lat="60.76506388842741" lon="4.988800001639274" id="-74887">
		<tag k="name" v="Notholmen" />
		<tag k="place" v="islet" />
		<tag k="ssr:date" v="2019-12-27" />
		<tag k="ssr:gruppe" v="kystkontur" />
		<tag k="ssr:hovedgruppe" v="sjø" />
		<tag k="ssr:stedsnr" v="69956" />
		<tag k="ssr:type" v="holmeISjø" />
	</node>
	<node lat="60.81595868291513" lon="5.002659082676999" id="-74889">
		<tag k="alt_name" v="Båtholmen" />
		<tag k="name" v="Båtevikholmen" />
		<tag k="place" v="islet" />
		<tag k="ssr:date" v="2021-06-08" />
		<tag k="ssr:gruppe" v="kystkontur" />
		<tag k="ssr:hovedgruppe" v="sjø" />
		<tag k="ssr:stedsnr" v="85139" />
		<tag k="ssr:type" v="holmeISjø" />
	</node>
	<node lat="60.801191663134304" lon="4.973672220296624" id="-74897">
		<tag k="name" v="Klebakkvatnet" />
		<tag k="natural" v="water" />
		<tag k="ssr:date" v="2019-12-27" />
		<tag k="ssr:gruppe" v="stilleståendeVann" />
		<tag k="ssr:hovedgruppe" v="ferskvann" />
		<tag k="ssr:stedsnr" v="105238" />
		<tag k="ssr:type" v="vann" />
		<tag k="water" v="lake" />
	</node>
	<node lat="60.76578015170512" lon="5.000133198559331" id="-74898">
		<tag k="name" v="Monslaupvatnet" />
		<tag k="natural" v="water" />
		<tag k="ssr:date" v="2020-02-27" />
		<tag k="ssr:gruppe" v="stilleståendeVann" />
		<tag k="ssr:hovedgruppe" v="ferskvann" />
		<tag k="ssr:stedsnr" v="105242" />
		<tag k="ssr:type" v="vann" />
		<tag k="water" v="lake" />
	</node>
	<node lat="60.758233329461135" lon="5.013122228716783" id="-74899">
		<tag k="name" v="Midtneset" />
		<tag k="natural" v="cape" />
		<tag k="ssr:date" v="2019-12-27" />
		<tag k="ssr:gruppe" v="kystkontur" />
		<tag k="ssr:hovedgruppe" v="sjø" />
		<tag k="ssr:stedsnr" v="105244" />
		<tag k="ssr:type" v="nesISjø" />
	</node>
	<node lat="60.793116662520404" lon="4.918849996565757" id="-74900">
		<tag k="name" v="Pytthaugen" />
		<tag k="natural" v="hill" />
		<tag k="place" v="locality" />
		<tag k="ssr:date" v="2019-12-27" />
		<tag k="ssr:gruppe" v="høyder" />
		<tag k="ssr:hovedgruppe" v="terreng" />
		<tag k="ssr:stedsnr" v="105248" />
		<tag k="ssr:type" v="haug" />
	</node>
	<node lat="60.79519166442369" lon="4.973319449110311" id="-74901">
		<tag k="name" v="Søre Straumhaugen" />
		<tag k="natural" v="hill" />
		<tag k="place" v="locality" />
		<tag k="ssr:date" v="2019-12-27" />
		<tag k="ssr:gruppe" v="høyder" />
		<tag k="ssr:hovedgruppe" v="terreng" />
		<tag k="ssr:stedsnr" v="105251" />
		<tag k="ssr:type" v="haug" />
	</node>
	<node lat="60.73837777984134" lon="4.951452779421803" id="-74902">
		<tag k="name" v="Litle Herslaupen" />
		<tag k="natural" v="hill" />
		<tag k="place" v="locality" />
		<tag k="ssr:date" v="2019-12-27" />
		<tag k="ssr:gruppe" v="høyder" />
		<tag k="ssr:hovedgruppe" v="terreng" />
		<tag k="ssr:stedsnr" v="105253" />
		<tag k="ssr:type" v="haug" />
	</node>
	<node lat="60.79316666816177" lon="4.894074994154467" id="-74904">
		<tag k="name" v="Sjevikhaugen" />
		<tag k="natural" v="hill" />
		<tag k="place" v="locality" />
		<tag k="ssr:date" v="2019-12-27" />
		<tag k="ssr:gruppe" v="høyder" />
		<tag k="ssr:hovedgruppe" v="terreng" />
		<tag k="ssr:stedsnr" v="105264" />
		<tag k="ssr:type" v="haug" />
	</node>
	<node lat="60.77822777351723" lon="4.8511111142311405" id="-74906">
		<tag k="name" v="Skipholmen" />
		<tag k="place" v="islet" />
		<tag k="ssr:date" v="2019-12-27" />
		<tag k="ssr:gruppe" v="kystkontur" />
		<tag k="ssr:hovedgruppe" v="sjø" />
		<tag k="ssr:stedsnr" v="105839" />
		<tag k="ssr:type" v="holmeISjø" />
	</node>
	<node lat="60.825305555563894" lon="4.781119450521753" id="-74907">
		<tag k="name" v="Svehaugen" />
		<tag k="natural" v="hill" />
		<tag k="place" v="locality" />
		<tag k="ssr:date" v="2019-12-27" />
		<tag k="ssr:gruppe" v="høyder" />
		<tag k="ssr:hovedgruppe" v="terreng" />
		<tag k="ssr:stedsnr" v="105843" />
		<tag k="ssr:type" v="haug" />
	</node>
	<node lat="60.80766667038156" lon="4.818366663149428" id="-74909">
		<tag k="fixme" v="consider seamark:type=rock or natural=shoal" />
		<tag k="name" v="Keipen" />
		<tag k="place" v="islet" />
		<tag k="ssr:date" v="2019-12-27" />
		<tag k="ssr:gruppe" v="grunnerISjø" />
		<tag k="ssr:hovedgruppe" v="sjø" />
		<tag k="ssr:stedsnr" v="105858" />
		<tag k="ssr:type" v="skjærISjø" />
	</node>
	<node lat="60.808825002540594" lon="4.841011117868849" id="-74910">
		<tag k="name" v="Buskholmen" />
		<tag k="place" v="islet" />
		<tag k="ssr:date" v="2019-12-27" />
		<tag k="ssr:gruppe" v="kystkontur" />
		<tag k="ssr:hovedgruppe" v="sjø" />
		<tag k="ssr:stedsnr" v="105860" />
		<tag k="ssr:type" v="holmeISjø" />
	</node>
	<node lat="60.783133329814255" lon="4.918558336625614" id="-74911">
		<tag k="name" v="Gjerdhaugen" />
		<tag k="natural" v="hill" />
		<tag k="place" v="locality" />
		<tag k="ssr:date" v="2019-12-27" />
		<tag k="ssr:gruppe" v="høyder" />
		<tag k="ssr:hovedgruppe" v="terreng" />
		<tag k="ssr:stedsnr" v="105923" />
		<tag k="ssr:type" v="haug" />
	</node>
	<node lat="60.7557472253276" lon="5.0251388871853475" id="-74912">
		<tag k="fixme" v="consider seamark:type=rock or natural=shoal" />
		<tag k="name" v="Gulenakken" />
		<tag k="place" v="islet" />
		<tag k="ssr:date" v="2019-12-27" />
		<tag k="ssr:gruppe" v="grunnerISjø" />
		<tag k="ssr:hovedgruppe" v="sjø" />
		<tag k="ssr:stedsnr" v="105944" />
		<tag k="ssr:type" v="skjærISjø" />
	</node>
	<node lat="60.75321110873145" lon="4.910675000205277" id="-74913">
		<tag k="name" v="Stallhaugen" />
		<tag k="natural" v="hill" />
		<tag k="place" v="locality" />
		<tag k="ssr:date" v="2019-12-27" />
		<tag k="ssr:gruppe" v="høyder" />
		<tag k="ssr:hovedgruppe" v="terreng" />
		<tag k="ssr:stedsnr" v="105949" />
		<tag k="ssr:type" v="haug" />
	</node>
	<node lat="60.762780555622435" lon="4.984355557078642" id="-74914">
		<tag k="name" v="Ilnesvika" />
		<tag k="natural" v="bay" />
		<tag k="ssr:date" v="2019-12-27" />
		<tag k="ssr:gruppe" v="kystkontur" />
		<tag k="ssr:hovedgruppe" v="sjø" />
		<tag k="ssr:stedsnr" v="105953" />
		<tag k="ssr:type" v="vikISjø" />
	</node>
	<node lat="60.78049663801992" lon="4.86371590438223" id="-74916">
		<tag k="name" v="Straumsneset" />
		<tag k="natural" v="cape" />
		<tag k="ssr:date" v="2019-12-27" />
		<tag k="ssr:gruppe" v="kystkontur" />
		<tag k="ssr:hovedgruppe" v="sjø" />
		<tag k="ssr:stedsnr" v="106984" />
		<tag k="ssr:type" v="nesISjø" />
	</node>
	<node lat="60.78014999852241" lon="4.904613888725091" id="-74924">
		<tag k="name" v="Øykedalen" />
		<tag k="natural" v="valley" />
		<tag k="place" v="locality" />
		<tag k="ssr:date" v="2019-12-27" />
		<tag k="ssr:gruppe" v="senkninger" />
		<tag k="ssr:hovedgruppe" v="terreng" />
		<tag k="ssr:stedsnr" v="129244" />
		<tag k="ssr:type" v="dal" />
	</node>
	<node lat="60.78064999609238" lon="4.914899992343757" id="-74925">
		<tag k="name" v="Rasmusvatnet" />
		<tag k="natural" v="water" />
		<tag k="ssr:date" v="2019-12-27" />
		<tag k="ssr:gruppe" v="stilleståendeVann" />
		<tag k="ssr:hovedgruppe" v="ferskvann" />
		<tag k="ssr:stedsnr" v="129247" />
		<tag k="ssr:type" v="tjern" />
	</node>
	<node lat="60.79277777941289" lon="4.884899998572373" id="-74931">
		<tag k="name" v="Teindalen" />
		<tag k="natural" v="valley" />
		<tag k="place" v="locality" />
		<tag k="ssr:date" v="2019-12-27" />
		<tag k="ssr:gruppe" v="senkninger" />
		<tag k="ssr:hovedgruppe" v="terreng" />
		<tag k="ssr:stedsnr" v="130038" />
		<tag k="ssr:type" v="dal" />
	</node>
	<node lat="60.795094446078416" lon="4.9162777821673425" id="-74932">
		<tag k="name" v="Grøndalen" />
		<tag k="natural" v="valley" />
		<tag k="place" v="locality" />
		<tag k="ssr:date" v="2019-12-27" />
		<tag k="ssr:gruppe" v="senkninger" />
		<tag k="ssr:hovedgruppe" v="terreng" />
		<tag k="ssr:stedsnr" v="130039" />
		<tag k="ssr:type" v="dal" />
	</node>
	<node lat="60.790816665324655" lon="4.833797226798175" id="-74933">
		<tag k="name" v="Skjelsundet" />
		<tag k="natural" v="strait" />
		<tag k="ssr:date" v="2019-12-27" />
		<tag k="ssr:gruppe" v="kystkontur" />
		<tag k="ssr:hovedgruppe" v="sjø" />
		<tag k="ssr:stedsnr" v="130043" />
		<tag k="ssr:type" v="sundISjø" />
	</node>
	<node lat="60.81081944746157" lon="4.9569972226329995" id="-74937">
		<tag k="alt_name" v="Hageholmen" />
		<tag k="name" v="Høgholmen" />
		<tag k="place" v="islet" />
		<tag k="ssr:date" v="2021-06-08" />
		<tag k="ssr:gruppe" v="kystkontur" />
		<tag k="ssr:hovedgruppe" v="sjø" />
		<tag k="ssr:stedsnr" v="146780" />
		<tag k="ssr:type" v="holmeISjø" />
	</node>
	<node lat="60.751944448805034" lon="4.983630559369737" id="-74941">
		<tag k="name" v="Klubbevika" />
		<tag k="natural" v="bay" />
		<tag k="ssr:date" v="2019-12-27" />
		<tag k="ssr:gruppe" v="kystkontur" />
		<tag k="ssr:hovedgruppe" v="sjø" />
		<tag k="ssr:stedsnr" v="166257" />
		<tag k="ssr:type" v="vikISjø" />
	</node>
	<node lat="60.791133336161984" lon="4.983316666247882" id="-74942">
		<tag k="name" v="Grønnapprinden" />
		<tag k="natural" v="ridge" />
		<tag k="place" v="locality" />
		<tag k="ssr:date" v="2019-12-27" />
		<tag k="ssr:gruppe" v="høyder" />
		<tag k="ssr:hovedgruppe" v="terreng" />
		<tag k="ssr:stedsnr" v="166230" />
		<tag k="ssr:type" v="rygg" />
	</node>
	<node lat="60.75809999943562" lon="5.031263894233832" id="-74943">
		<tag k="name" v="Arevatnet" />
		<tag k="natural" v="water" />
		<tag k="ssr:date" v="2019-12-27" />
		<tag k="ssr:gruppe" v="stilleståendeVann" />
		<tag k="ssr:hovedgruppe" v="ferskvann" />
		<tag k="ssr:stedsnr" v="166233" />
		<tag k="ssr:type" v="vann" />
		<tag k="water" v="lake" />
	</node>
	<node lat="60.770433334233324" lon="4.970519444246526" id="-74944">
		<tag k="name" v="Mariusholmen" />
		<tag k="place" v="islet" />
		<tag k="ssr:date" v="2019-12-27" />
		<tag k="ssr:gruppe" v="kystkontur" />
		<tag k="ssr:hovedgruppe" v="sjø" />
		<tag k="ssr:stedsnr" v="166244" />
		<tag k="ssr:type" v="holmeISjø" />
	</node>
	<node lat="60.79328055257162" lon="4.965477784553746" id="-74945">
		<tag k="name" v="Olsneset" />
		<tag k="natural" v="cape" />
		<tag k="ssr:date" v="2019-12-27" />
		<tag k="ssr:gruppe" v="kystkontur" />
		<tag k="ssr:hovedgruppe" v="sjø" />
		<tag k="ssr:stedsnr" v="166247" />
		<tag k="ssr:type" v="nesISjø" />
	</node>
	<node lat="60.79721389228372" lon="4.939549990856652" id="-74946">
		<tag k="name" v="Kylleren" />
		<tag k="natural" v="bay" />
		<tag k="ssr:date" v="2019-12-27" />
		<tag k="ssr:gruppe" v="kystkontur" />
		<tag k="ssr:hovedgruppe" v="sjø" />
		<tag k="ssr:stedsnr" v="166884" />
		<tag k="ssr:type" v="vikISjø" />
	</node>
	<node lat="60.81598333007226" lon="4.889350000577983" id="-74948">
		<tag k="name" v="Storhaugen" />
		<tag k="natural" v="hill" />
		<tag k="place" v="locality" />
		<tag k="ssr:date" v="2019-12-27" />
		<tag k="ssr:gruppe" v="høyder" />
		<tag k="ssr:hovedgruppe" v="terreng" />
		<tag k="ssr:stedsnr" v="166897" />
		<tag k="ssr:type" v="haug" />
	</node>
	<node lat="60.81128055214164" lon="4.806624998740853" id="-74950">
		<tag k="name" v="Kalvholmen" />
		<tag k="place" v="islet" />
		<tag k="ssr:date" v="2019-12-27" />
		<tag k="ssr:gruppe" v="kystkontur" />
		<tag k="ssr:hovedgruppe" v="sjø" />
		<tag k="ssr:stedsnr" v="166996" />
		<tag k="ssr:type" v="holmeISjø" />
	</node>
	<node lat="60.77829444700487" lon="4.987288881796317" id="-74951">
		<tag k="name" v="Reset" />
		<tag k="natural" v="ridge" />
		<tag k="place" v="locality" />
		<tag k="ssr:date" v="2019-12-27" />
		<tag k="ssr:gruppe" v="høyder" />
		<tag k="ssr:hovedgruppe" v="terreng" />
		<tag k="ssr:stedsnr" v="166843" />
		<tag k="ssr:type" v="rygg" />
	</node>
	<node lat="60.816019369764994" lon="4.7881983555906125" id="-74954">
		<tag k="fixme" v="consider seamark:type=rock or natural=shoal" />
		<tag k="name" v="Knivskjeret" />
		<tag k="place" v="islet" />
		<tag k="ssr:date" v="2019-12-27" />
		<tag k="ssr:gruppe" v="grunnerISjø" />
		<tag k="ssr:hovedgruppe" v="sjø" />
		<tag k="ssr:stedsnr" v="175001" />
		<tag k="ssr:type" v="skjærISjø" />
	</node>
	<node lat="60.81289444329704" lon="4.801933342103303" id="-74955">
		<tag k="name" v="Eikholmsundet" />
		<tag k="natural" v="strait" />
		<tag k="ssr:date" v="2019-12-27" />
		<tag k="ssr:gruppe" v="kystkontur" />
		<tag k="ssr:hovedgruppe" v="sjø" />
		<tag k="ssr:stedsnr" v="177893" />
		<tag k="ssr:type" v="sundISjø" />
	</node>
	<node lat="60.81731843565484" lon="4.792240607212081" id="-74960">
		<tag k="name" v="Rongeværosen" />
		<tag k="natural" v="strait" />
		<tag k="ssr:date" v="2019-12-27" />
		<tag k="ssr:gruppe" v="kystkontur" />
		<tag k="ssr:hovedgruppe" v="sjø" />
		<tag k="ssr:stedsnr" v="190133" />
		<tag k="ssr:type" v="sundISjø" />
	</node>
	<node lat="60.76560277731405" lon="4.891455552866221" id="-74968">
		<tag k="name" v="Lerøysundet" />
		<tag k="natural" v="strait" />
		<tag k="ssr:date" v="2019-12-27" />
		<tag k="ssr:gruppe" v="kystkontur" />
		<tag k="ssr:hovedgruppe" v="sjø" />
		<tag k="ssr:stedsnr" v="190245" />
		<tag k="ssr:type" v="sundISjø" />
	</node>
	<node lat="60.7939583311598" lon="4.860499998465011" id="-74970">
		<tag k="name" v="Kalveneset" />
		<tag k="natural" v="cape" />
		<tag k="ssr:date" v="2019-12-27" />
		<tag k="ssr:gruppe" v="kystkontur" />
		<tag k="ssr:hovedgruppe" v="sjø" />
		<tag k="ssr:stedsnr" v="191038" />
		<tag k="ssr:type" v="nesISjø" />
	</node>
	<node lat="60.80713333479863" lon="4.972844440870745" id="-74984">
		<tag k="name" v="Træsvika" />
		<tag k="natural" v="bay" />
		<tag k="ssr:date" v="2019-12-27" />
		<tag k="ssr:gruppe" v="kystkontur" />
		<tag k="ssr:hovedgruppe" v="sjø" />
		<tag k="ssr:stedsnr" v="219662" />
		<tag k="ssr:type" v="vikISjø" />
	</node>
	<node lat="60.80376666231541" lon="4.939799991563951" id="-74985">
		<tag k="name" v="Trollholmflua" />
		<tag k="natural" v="shoal" />
		<tag k="place" v="locality" />
		<tag k="ssr:date" v="2019-12-27" />
		<tag k="ssr:gruppe" v="grunnerISjø" />
		<tag k="ssr:hovedgruppe" v="sjø" />
		<tag k="ssr:stedsnr" v="219758" />
		<tag k="ssr:type" v="grunneISjø" />
	</node>
	<node lat="60.78793610780226" lon="4.917941675490464" id="-74986">
		<tag k="name" v="Galten" />
		<tag k="natural" v="cape" />
		<tag k="ssr:date" v="2019-12-27" />
		<tag k="ssr:gruppe" v="kystkontur" />
		<tag k="ssr:hovedgruppe" v="sjø" />
		<tag k="ssr:stedsnr" v="226250" />
		<tag k="ssr:type" v="nesISjø" />
	</node>
	<node lat="60.75254999875524" lon="4.953480553258491" id="-74988">
		<tag k="name" v="Grønåsen" />
		<tag k="natural" v="hill" />
		<tag k="place" v="locality" />
		<tag k="ssr:date" v="2019-12-27" />
		<tag k="ssr:gruppe" v="høyder" />
		<tag k="ssr:hovedgruppe" v="terreng" />
		<tag k="ssr:stedsnr" v="226262" />
		<tag k="ssr:type" v="haug" />
	</node>
	<node lat="60.826769440198504" lon="4.91111944904999" id="-74989">
		<tag k="name" v="Stongebøen" />
		<tag k="natural" v="bay" />
		<tag k="ssr:date" v="2019-12-27" />
		<tag k="ssr:gruppe" v="kystkontur" />
		<tag k="ssr:hovedgruppe" v="sjø" />
		<tag k="ssr:stedsnr" v="226950" />
		<tag k="ssr:type" v="vikISjø" />
	</node>
	<node lat="60.73306944770755" lon="4.975336109757386" id="-74990">
		<tag k="name" v="Skarpeneset" />
		<tag k="natural" v="cape" />
		<tag k="ssr:date" v="2019-12-27" />
		<tag k="ssr:gruppe" v="kystkontur" />
		<tag k="ssr:hovedgruppe" v="sjø" />
		<tag k="ssr:stedsnr" v="227857" />
		<tag k="ssr:type" v="nesISjø" />
	</node>
	<node lat="60.770980554792565" lon="4.999844437660108" id="-74991">
		<tag k="name" v="Grønhaugen" />
		<tag k="natural" v="hill" />
		<tag k="place" v="locality" />
		<tag k="ssr:date" v="2019-12-27" />
		<tag k="ssr:gruppe" v="høyder" />
		<tag k="ssr:hovedgruppe" v="terreng" />
		<tag k="ssr:stedsnr" v="227868" />
		<tag k="ssr:type" v="haug" />
	</node>
	<node lat="60.74824444040383" lon="5.001930552230806" id="-74992">
		<tag k="name" v="Kjosevikhaugen" />
		<tag k="natural" v="hill" />
		<tag k="place" v="locality" />
		<tag k="ssr:date" v="2019-12-27" />
		<tag k="ssr:gruppe" v="høyder" />
		<tag k="ssr:hovedgruppe" v="terreng" />
		<tag k="ssr:stedsnr" v="227871" />
		<tag k="ssr:type" v="haug" />
	</node>
	<node lat="60.80204999983633" lon="4.964766663360465" id="-74993">
		<tag k="name" v="Altersvatnet" />
		<tag k="natural" v="water" />
		<tag k="ssr:date" v="2019-12-27" />
		<tag k="ssr:gruppe" v="stilleståendeVann" />
		<tag k="ssr:hovedgruppe" v="ferskvann" />
		<tag k="ssr:stedsnr" v="227874" />
		<tag k="ssr:type" v="vann" />
		<tag k="water" v="lake" />
	</node>
	<node lat="60.811760133164604" lon="4.974766057263695" id="-74994">
		<tag k="name" v="Rasmustangen" />
		<tag k="natural" v="cape" />
		<tag k="ssr:date" v="2019-12-27" />
		<tag k="ssr:gruppe" v="kystkontur" />
		<tag k="ssr:hovedgruppe" v="sjø" />
		<tag k="ssr:stedsnr" v="227879" />
		<tag k="ssr:type" v="nesISjø" />
	</node>
	<node lat="60.80975000082048" lon="4.8040277765699315" id="-74996">
		<tag k="name" v="Hønsevågen" />
		<tag k="natural" v="bay" />
		<tag k="ssr:date" v="2019-12-27" />
		<tag k="ssr:gruppe" v="kystkontur" />
		<tag k="ssr:hovedgruppe" v="sjø" />
		<tag k="ssr:stedsnr" v="227978" />
		<tag k="ssr:type" v="vågISjø" />
	</node>
	<node lat="60.80600277373904" lon="4.823688882529401" id="-74997">
		<tag k="name" v="Grønholmen" />
		<tag k="place" v="islet" />
		<tag k="ssr:date" v="2019-12-27" />
		<tag k="ssr:gruppe" v="kystkontur" />
		<tag k="ssr:hovedgruppe" v="sjø" />
		<tag k="ssr:stedsnr" v="227999" />
		<tag k="ssr:type" v="holmeISjø" />
	</node>
	<node lat="60.80771666811399" lon="4.924761105961739" id="-74998">
		<tag k="name" v="Ærhaugen" />
		<tag k="natural" v="hill" />
		<tag k="place" v="locality" />
		<tag k="ssr:date" v="2019-12-27" />
		<tag k="ssr:gruppe" v="høyder" />
		<tag k="ssr:hovedgruppe" v="terreng" />
		<tag k="ssr:stedsnr" v="287237" />
		<tag k="ssr:type" v="haug" />
	</node>
	<node lat="60.79891111012565" lon="4.985113891678499" id="-74999">
		<tag k="fixme" v="consider natural=peak for the most distinct mountains in the district" />
		<tag k="name" v="Kråkesåta" />
		<tag k="natural" v="hill" />
		<tag k="place" v="locality" />
		<tag k="ssr:date" v="2019-12-27" />
		<tag k="ssr:gruppe" v="høyder" />
		<tag k="ssr:hovedgruppe" v="terreng" />
		<tag k="ssr:stedsnr" v="287240" />
		<tag k="ssr:type" v="topp" />
	</node>
	<node lat="60.82644721851546" lon="4.898416664651287" id="-75000">
		<tag k="name" v="Kahrsholmane" />
		<tag k="place" v="islet" />
		<tag k="ssr:date" v="2019-12-27" />
		<tag k="ssr:gruppe" v="kystkontur" />
		<tag k="ssr:hovedgruppe" v="sjø" />
		<tag k="ssr:stedsnr" v="287219" />
		<tag k="ssr:type" v="holmeISjø" />
	</node>
	<node lat="60.83577222445497" lon="4.890941665699845" id="-75001">
		<tag k="name" v="Hammarsholmen" />
		<tag k="place" v="islet" />
		<tag k="ssr:date" v="2019-12-27" />
		<tag k="ssr:gruppe" v="kystkontur" />
		<tag k="ssr:hovedgruppe" v="sjø" />
		<tag k="ssr:stedsnr" v="287222" />
		<tag k="ssr:type" v="holmeISjø" />
	</node>
	<node lat="60.74046388559961" lon="4.956186108086076" id="-75002">
		<tag k="name" v="Bjørkhaugen" />
		<tag k="natural" v="hill" />
		<tag k="place" v="locality" />
		<tag k="ssr:date" v="2019-12-27" />
		<tag k="ssr:gruppe" v="høyder" />
		<tag k="ssr:hovedgruppe" v="terreng" />
		<tag k="ssr:stedsnr" v="287261" />
		<tag k="ssr:type" v="haug" />
	</node>
	<node lat="60.7524222224398" lon="4.915875007265943" id="-75003">
		<tag k="name" v="Hopland" />
		<tag k="place" v="farm" />
		<tag k="ssr:date" v="2019-12-27" />
		<tag k="ssr:gruppe" v="gardsbebyggelse" />
		<tag k="ssr:hovedgruppe" v="bebyggelse" />
		<tag k="ssr:stedsnr" v="287269" />
		<tag k="ssr:type" v="bruk" />
	</node>
	<node lat="60.76717777430031" lon="4.904058337450509" id="-75005">
		<tag k="name" v="Neset" />
		<tag k="natural" v="cape" />
		<tag k="ssr:date" v="2019-12-27" />
		<tag k="ssr:gruppe" v="kystkontur" />
		<tag k="ssr:hovedgruppe" v="sjø" />
		<tag k="ssr:stedsnr" v="287855" />
		<tag k="ssr:type" v="nesISjø" />
	</node>
	<node lat="60.783652780781196" lon="4.9680916671481015" id="-75006">
		<tag k="name" v="Ingridhaugen" />
		<tag k="natural" v="hill" />
		<tag k="place" v="locality" />
		<tag k="ssr:date" v="2019-12-27" />
		<tag k="ssr:gruppe" v="høyder" />
		<tag k="ssr:hovedgruppe" v="terreng" />
		<tag k="ssr:stedsnr" v="287866" />
		<tag k="ssr:type" v="haug" />
	</node>
	<node lat="60.76225555695689" lon="4.884916663294772" id="-75009">
		<tag k="name" v="Stølshaugen" />
		<tag k="natural" v="hill" />
		<tag k="place" v="locality" />
		<tag k="ssr:date" v="2019-12-27" />
		<tag k="ssr:gruppe" v="høyder" />
		<tag k="ssr:hovedgruppe" v="terreng" />
		<tag k="ssr:stedsnr" v="287966" />
		<tag k="ssr:type" v="haug" />
	</node>
	<node lat="60.78872777851429" lon="4.908225008642322" id="-75011">
		<tag k="name" v="Blodvika" />
		<tag k="natural" v="bay" />
		<tag k="ssr:date" v="2019-12-27" />
		<tag k="ssr:gruppe" v="kystkontur" />
		<tag k="ssr:hovedgruppe" v="sjø" />
		<tag k="ssr:stedsnr" v="287918" />
		<tag k="ssr:type" v="vikISjø" />
	</node>
	<node lat="60.78854999657128" lon="4.869066672631031" id="-75012">
		<tag k="name" v="Tunga" />
		<tag k="natural" v="cape" />
		<tag k="ssr:date" v="2019-12-27" />
		<tag k="ssr:gruppe" v="ferskvannskontur" />
		<tag k="ssr:hovedgruppe" v="ferskvann" />
		<tag k="ssr:stedsnr" v="287923" />
		<tag k="ssr:type" v="nes" />
	</node>
	<node lat="60.79747500202865" lon="4.978147222667744" id="-75013">
		<tag k="name" v="Krossen" />
		<tag k="place" v="locality" />
		<tag k="ssr:date" v="2019-12-27" />
		<tag k="ssr:gruppe" v="terrengdetaljer" />
		<tag k="ssr:hovedgruppe" v="terreng" />
		<tag k="ssr:stedsnr" v="288895" />
		<tag k="ssr:type" v="annenTerrengdetalj" />
	</node>
	<node lat="60.7894555518293" lon="4.836119446080366" id="-75014">
		<tag k="name" v="Klauvholmen" />
		<tag k="place" v="islet" />
		<tag k="ssr:date" v="2019-12-27" />
		<tag k="ssr:gruppe" v="kystkontur" />
		<tag k="ssr:hovedgruppe" v="sjø" />
		<tag k="ssr:stedsnr" v="288987" />
		<tag k="ssr:type" v="holmeISjø" />
	</node>
	<node lat="60.73848611157529" lon="4.988188886385902" id="-75016">
		<tag k="name" v="Naustnestangen" />
		<tag k="natural" v="cape" />
		<tag k="ssr:date" v="2019-12-27" />
		<tag k="ssr:gruppe" v="kystkontur" />
		<tag k="ssr:hovedgruppe" v="sjø" />
		<tag k="ssr:stedsnr" v="288864" />
		<tag k="ssr:type" v="nesISjø" />
	</node>
	<node lat="60.832269448747816" lon="4.841769437496343" id="-75017">
		<tag k="name" v="Tareskallen" />
		<tag k="natural" v="shoal" />
		<tag k="place" v="locality" />
		<tag k="ssr:date" v="2019-12-27" />
		<tag k="ssr:gruppe" v="grunnerISjø" />
		<tag k="ssr:hovedgruppe" v="sjø" />
		<tag k="ssr:stedsnr" v="298564" />
		<tag k="ssr:type" v="grunneISjø" />
	</node>
	<node lat="60.74040555399951" lon="4.9913972271690525" id="-75043">
		<tag k="name" v="Steinholmane" />
		<tag k="place" v="islet" />
		<tag k="ssr:date" v="2019-12-27" />
		<tag k="ssr:gruppe" v="kystkontur" />
		<tag k="ssr:hovedgruppe" v="sjø" />
		<tag k="ssr:stedsnr" v="348230" />
		<tag k="ssr:type" v="holmeISjø" />
	</node>
	<node lat="60.818286112250185" lon="4.783986107779509" id="-75044">
		<tag k="name" v="Kalvetrætåna" />
		<tag k="natural" v="cape" />
		<tag k="ssr:date" v="2019-12-27" />
		<tag k="ssr:gruppe" v="kystkontur" />
		<tag k="ssr:hovedgruppe" v="sjø" />
		<tag k="ssr:stedsnr" v="347949" />
		<tag k="ssr:type" v="nesISjø" />
	</node>
	<node lat="60.80554444916681" lon="4.831619452441001" id="-75045">
		<tag k="name" v="Langøysundet" />
		<tag k="natural" v="strait" />
		<tag k="ssr:date" v="2019-12-27" />
		<tag k="ssr:gruppe" v="kystkontur" />
		<tag k="ssr:hovedgruppe" v="sjø" />
		<tag k="ssr:stedsnr" v="348813" />
		<tag k="ssr:type" v="sundISjø" />
	</node>
	<node lat="60.76870555480673" lon="4.907399994535418" id="-75046">
		<tag k="name" v="Finnsvågen" />
		<tag k="natural" v="bay" />
		<tag k="ssr:date" v="2019-12-27" />
		<tag k="ssr:gruppe" v="kystkontur" />
		<tag k="ssr:hovedgruppe" v="sjø" />
		<tag k="ssr:stedsnr" v="348829" />
		<tag k="ssr:type" v="vågISjø" />
	</node>
	<node lat="60.76621666401618" lon="4.973011116662595" id="-75047">
		<tag k="name" v="Ilnesvågen" />
		<tag k="natural" v="bay" />
		<tag k="ssr:date" v="2019-12-27" />
		<tag k="ssr:gruppe" v="kystkontur" />
		<tag k="ssr:hovedgruppe" v="sjø" />
		<tag k="ssr:stedsnr" v="348833" />
		<tag k="ssr:type" v="vågISjø" />
	</node>
	<node lat="60.82431944769734" lon="4.868605558131326" id="-75048">
		<tag k="name" v="Storhaugen" />
		<tag k="natural" v="hill" />
		<tag k="place" v="locality" />
		<tag k="ssr:date" v="2019-12-27" />
		<tag k="ssr:gruppe" v="høyder" />
		<tag k="ssr:hovedgruppe" v="terreng" />
		<tag k="ssr:stedsnr" v="348802" />
		<tag k="ssr:type" v="haug" />
	</node>
	<node lat="60.743802781829" lon="5.002600005704076" id="-75051">
		<tag k="name" v="Otrevika" />
		<tag k="natural" v="bay" />
		<tag k="ssr:date" v="2019-12-27" />
		<tag k="ssr:gruppe" v="kystkontur" />
		<tag k="ssr:hovedgruppe" v="sjø" />
		<tag k="ssr:stedsnr" v="348944" />
		<tag k="ssr:type" v="vikISjø" />
	</node>
	<node lat="60.79338611322014" lon="4.876874994653292" id="-75052">
		<tag k="name" v="Stølshaugen" />
		<tag k="natural" v="hill" />
		<tag k="place" v="locality" />
		<tag k="ssr:date" v="2019-12-27" />
		<tag k="ssr:gruppe" v="høyder" />
		<tag k="ssr:hovedgruppe" v="terreng" />
		<tag k="ssr:stedsnr" v="373036" />
		<tag k="ssr:type" v="haug" />
	</node>
	<node lat="60.80706002121729" lon="4.912462610262674" id="-75056">
		<tag k="fixme" v="consider place=hamlet" />
		<tag k="name" v="Kvalvågen" />
		<tag k="place" v="farm" />
		<tag k="ssr:date" v="2019-12-27" />
		<tag k="ssr:gruppe" v="gardsbebyggelse" />
		<tag k="ssr:hovedgruppe" v="bebyggelse" />
		<tag k="ssr:stedsnr" v="372043" />
		<tag k="ssr:type" v="gard" />
	</node>
	<node lat="60.80370000264857" lon="4.8095083393109554" id="-75057">
		<tag k="name" v="Sævrøysundet" />
		<tag k="natural" v="strait" />
		<tag k="ssr:date" v="2019-12-27" />
		<tag k="ssr:gruppe" v="kystkontur" />
		<tag k="ssr:hovedgruppe" v="sjø" />
		<tag k="ssr:stedsnr" v="372051" />
		<tag k="ssr:type" v="sundISjø" />
	</node>
	<node lat="60.7905555597692" lon="4.83881388195182" id="-75059">
		<tag k="name" v="Lauvøystraumen" />
		<tag k="natural" v="strait" />
		<tag k="ssr:date" v="2019-12-27" />
		<tag k="ssr:gruppe" v="kystkontur" />
		<tag k="ssr:hovedgruppe" v="sjø" />
		<tag k="ssr:stedsnr" v="373041" />
		<tag k="ssr:type" v="sundISjø" />
	</node>
	<node lat="60.84048333502589" lon="4.776161103041815" id="-75061">
		<tag k="name" v="Gudmundsskallen" />
		<tag k="natural" v="shoal" />
		<tag k="place" v="locality" />
		<tag k="ssr:date" v="2019-12-27" />
		<tag k="ssr:gruppe" v="grunnerISjø" />
		<tag k="ssr:hovedgruppe" v="sjø" />
		<tag k="ssr:stedsnr" v="373086" />
		<tag k="ssr:type" v="grunneISjø" />
	</node>
	<node lat="60.834263886228925" lon="4.762600007466378" id="-75062">
		<tag k="name" v="Rongeværskallen" />
		<tag k="natural" v="shoal" />
		<tag k="place" v="locality" />
		<tag k="ssr:date" v="2019-12-27" />
		<tag k="ssr:gruppe" v="grunnerISjø" />
		<tag k="ssr:hovedgruppe" v="sjø" />
		<tag k="ssr:stedsnr" v="373377" />
		<tag k="ssr:type" v="grunneISjø" />
	</node>
	<node lat="60.84926944692317" lon="4.7227055579642085" id="-75068">
		<tag k="name" v="Kråkeflua" />
		<tag k="natural" v="shoal" />
		<tag k="place" v="locality" />
		<tag k="ssr:date" v="2019-12-27" />
		<tag k="ssr:gruppe" v="grunnerISjø" />
		<tag k="ssr:hovedgruppe" v="sjø" />
		<tag k="ssr:stedsnr" v="389265" />
		<tag k="ssr:type" v="grunneISjø" />
	</node>
	<node lat="60.817538890154175" lon="4.905116663376777" id="-75070">
		<tag k="name" v="Nordre Rasmusholmen" />
		<tag k="place" v="islet" />
		<tag k="ssr:date" v="2019-12-27" />
		<tag k="ssr:gruppe" v="kystkontur" />
		<tag k="ssr:hovedgruppe" v="sjø" />
		<tag k="ssr:stedsnr" v="391610" />
		<tag k="ssr:type" v="holmeISjø" />
	</node>
	<node lat="60.76535833554358" lon="4.984211115429267" id="-75071">
		<tag k="fixme" v="consider seamark:type=rock or natural=shoal" />
		<tag k="name" v="Fella" />
		<tag k="place" v="islet" />
		<tag k="ssr:date" v="2019-12-27" />
		<tag k="ssr:gruppe" v="grunnerISjø" />
		<tag k="ssr:hovedgruppe" v="sjø" />
		<tag k="ssr:stedsnr" v="408222" />
		<tag k="ssr:type" v="skjærISjø" />
	</node>
	<node lat="60.76200277451816" lon="5.004305549628786" id="-75072">
		<tag k="name" v="Hellhaugen" />
		<tag k="natural" v="hill" />
		<tag k="place" v="locality" />
		<tag k="ssr:date" v="2019-12-27" />
		<tag k="ssr:gruppe" v="høyder" />
		<tag k="ssr:hovedgruppe" v="terreng" />
		<tag k="ssr:stedsnr" v="408223" />
		<tag k="ssr:type" v="haug" />
	</node>
	<node lat="60.74117221859033" lon="5.0172333379459255" id="-75073">
		<tag k="name" v="Støvlefluholmen" />
		<tag k="place" v="islet" />
		<tag k="ssr:date" v="2019-12-27" />
		<tag k="ssr:gruppe" v="kystkontur" />
		<tag k="ssr:hovedgruppe" v="sjø" />
		<tag k="ssr:stedsnr" v="408228" />
		<tag k="ssr:type" v="holmeISjø" />
	</node>
	<node lat="60.761538886272504" lon="5.015494447950231" id="-75074">
		<tag k="name" v="Åløypet" />
		<tag k="place" v="islet" />
		<tag k="ssr:date" v="2019-12-27" />
		<tag k="ssr:gruppe" v="kystkontur" />
		<tag k="ssr:hovedgruppe" v="sjø" />
		<tag k="ssr:stedsnr" v="408229" />
		<tag k="ssr:type" v="holmeISjø" />
	</node>
	<node lat="60.82510555570344" lon="4.9039027777892175" id="-75076">
		<tag k="name" v="Små Krabbholmen" />
		<tag k="place" v="islet" />
		<tag k="ssr:date" v="2019-12-27" />
		<tag k="ssr:gruppe" v="kystkontur" />
		<tag k="ssr:hovedgruppe" v="sjø" />
		<tag k="ssr:stedsnr" v="408951" />
		<tag k="ssr:type" v="holmeISjø" />
	</node>
	<node lat="60.761527780422924" lon="4.880705549364723" id="-75078">
		<tag k="name" v="Vaulen" />
		<tag k="natural" v="bay" />
		<tag k="ssr:date" v="2019-12-27" />
		<tag k="ssr:gruppe" v="kystkontur" />
		<tag k="ssr:hovedgruppe" v="sjø" />
		<tag k="ssr:stedsnr" v="408978" />
		<tag k="ssr:type" v="vågISjø" />
	</node>
	<node lat="60.81998333630425" lon="4.891305548303114" id="-75079">
		<tag k="fixme" v="consider seamark:type=rock or natural=shoal" />
		<tag k="name" v="Dyneskjera" />
		<tag k="place" v="islet" />
		<tag k="ssr:date" v="2019-12-27" />
		<tag k="ssr:gruppe" v="grunnerISjø" />
		<tag k="ssr:hovedgruppe" v="sjø" />
		<tag k="ssr:stedsnr" v="409225" />
		<tag k="ssr:type" v="skjærISjø" />
	</node>
	<node lat="60.744563888072825" lon="5.0135111129348475" id="-75080">
		<tag k="fixme" v="consider natural=peak for the most distinct mountains in the district" />
		<tag k="name" v="Varden" />
		<tag k="natural" v="hill" />
		<tag k="place" v="locality" />
		<tag k="ssr:date" v="2019-12-27" />
		<tag k="ssr:gruppe" v="høyder" />
		<tag k="ssr:hovedgruppe" v="terreng" />
		<tag k="ssr:stedsnr" v="409867" />
		<tag k="ssr:type" v="topp" />
	</node>
	<node lat="60.743499998265015" lon="5.01288611811914" id="-75082">
		<tag k="name" v="Alskogvika" />
		<tag k="natural" v="bay" />
		<tag k="ssr:date" v="2019-12-27" />
		<tag k="ssr:gruppe" v="kystkontur" />
		<tag k="ssr:hovedgruppe" v="sjø" />
		<tag k="ssr:stedsnr" v="409955" />
		<tag k="ssr:type" v="vikISjø" />
	</node>
	<node lat="60.75988332994118" lon="5.034152784298604" id="-75083">
		<tag k="fixme" v="consider seamark:type=rock or natural=shoal" />
		<tag k="name" v="Klungreskjeret" />
		<tag k="place" v="islet" />
		<tag k="ssr:date" v="2019-12-27" />
		<tag k="ssr:gruppe" v="grunnerISjø" />
		<tag k="ssr:hovedgruppe" v="sjø" />
		<tag k="ssr:stedsnr" v="409956" />
		<tag k="ssr:type" v="skjærISjø" />
	</node>
	<node lat="60.746241663036685" lon="4.998150004016337" id="-75085">
		<tag k="name" v="Naustneset" />
		<tag k="natural" v="cape" />
		<tag k="ssr:date" v="2019-12-27" />
		<tag k="ssr:gruppe" v="kystkontur" />
		<tag k="ssr:hovedgruppe" v="sjø" />
		<tag k="ssr:stedsnr" v="431801" />
		<tag k="ssr:type" v="nesISjø" />
	</node>
	<node lat="60.80107221958794" lon="4.864202777117573" id="-75087">
		<tag k="name" v="Øksnesvågen" />
		<tag k="natural" v="bay" />
		<tag k="ssr:date" v="2019-12-27" />
		<tag k="ssr:gruppe" v="kystkontur" />
		<tag k="ssr:hovedgruppe" v="sjø" />
		<tag k="ssr:stedsnr" v="433046" />
		<tag k="ssr:type" v="vikISjø" />
	</node>
	<node lat="60.815783336768455" lon="4.783441673041877" id="-75091">
		<tag k="fixme" v="consider seamark:type=rock or natural=shoal" />
		<tag k="name" v="Høgholmen" />
		<tag k="place" v="islet" />
		<tag k="ssr:date" v="2019-12-27" />
		<tag k="ssr:gruppe" v="grunnerISjø" />
		<tag k="ssr:hovedgruppe" v="sjø" />
		<tag k="ssr:stedsnr" v="433073" />
		<tag k="ssr:type" v="skjærISjø" />
	</node>
	<node lat="60.78493611488597" lon="4.948538889152797" id="-75096">
		<tag k="name" v="Geitholmen" />
		<tag k="place" v="islet" />
		<tag k="ssr:date" v="2019-12-27" />
		<tag k="ssr:gruppe" v="kystkontur" />
		<tag k="ssr:hovedgruppe" v="sjø" />
		<tag k="ssr:stedsnr" v="433223" />
		<tag k="ssr:type" v="holmeISjø" />
	</node>
	<node lat="60.78847499695298" lon="4.856738890367268" id="-75098">
		<tag k="name" v="Bøneset" />
		<tag k="natural" v="cape" />
		<tag k="ssr:date" v="2019-12-27" />
		<tag k="ssr:gruppe" v="kystkontur" />
		<tag k="ssr:hovedgruppe" v="sjø" />
		<tag k="ssr:stedsnr" v="433981" />
		<tag k="ssr:type" v="nesISjø" />
	</node>
	<node lat="60.84140277504945" lon="4.867769438736116" id="-75100">
		<tag k="name" v="Beinsskallen" />
		<tag k="natural" v="shoal" />
		<tag k="place" v="locality" />
		<tag k="ssr:date" v="2019-12-27" />
		<tag k="ssr:gruppe" v="grunnerISjø" />
		<tag k="ssr:hovedgruppe" v="sjø" />
		<tag k="ssr:stedsnr" v="434345" />
		<tag k="ssr:type" v="grunneISjø" />
	</node>
	<node lat="60.792633332598555" lon="4.781833331737482" id="-75109">
		<tag k="name" v="Tverrflua" />
		<tag k="natural" v="shoal" />
		<tag k="place" v="locality" />
		<tag k="ssr:date" v="2019-12-27" />
		<tag k="ssr:gruppe" v="grunnerISjø" />
		<tag k="ssr:hovedgruppe" v="sjø" />
		<tag k="ssr:stedsnr" v="521856" />
		<tag k="ssr:type" v="grunneISjø" />
	</node>
	<node lat="60.80674444421145" lon="5.00871945022475" id="-75110">
		<tag k="name" v="Høghaugane" />
		<tag k="natural" v="hill" />
		<tag k="place" v="locality" />
		<tag k="ssr:date" v="2019-12-27" />
		<tag k="ssr:gruppe" v="høyder" />
		<tag k="ssr:hovedgruppe" v="terreng" />
		<tag k="ssr:stedsnr" v="529900" />
		<tag k="ssr:type" v="haug" />
	</node>
	<node lat="60.751088890207704" lon="4.944102779882308" id="-75111">
		<tag k="name" v="Oksla" />
		<tag k="natural" v="hill" />
		<tag k="place" v="locality" />
		<tag k="ssr:date" v="2019-12-27" />
		<tag k="ssr:gruppe" v="høyder" />
		<tag k="ssr:hovedgruppe" v="terreng" />
		<tag k="ssr:stedsnr" v="530960" />
		<tag k="ssr:type" v="haug" />
	</node>
	<node lat="60.81133055925492" lon="4.974038887054852" id="-75112">
		<tag k="fixme" v="consider seamark:type=rock or natural=shoal" />
		<tag k="name" v="Måseklubben" />
		<tag k="place" v="islet" />
		<tag k="ssr:date" v="2019-12-27" />
		<tag k="ssr:gruppe" v="grunnerISjø" />
		<tag k="ssr:hovedgruppe" v="sjø" />
		<tag k="ssr:stedsnr" v="530247" />
		<tag k="ssr:type" v="skjærISjø" />
	</node>
	<node lat="60.810022221222226" lon="4.957555549199334" id="-75113">
		<tag k="name" v="Grunnholmen" />
		<tag k="place" v="islet" />
		<tag k="ssr:date" v="2019-12-27" />
		<tag k="ssr:gruppe" v="kystkontur" />
		<tag k="ssr:hovedgruppe" v="sjø" />
		<tag k="ssr:stedsnr" v="530257" />
		<tag k="ssr:type" v="holmeISjø" />
	</node>
	<node lat="60.772805559193934" lon="5.010944452474445" id="-75114">
		<tag k="fixme" v="consider seamark:type=rock or natural=shoal" />
		<tag k="name" v="Flateskjeret" />
		<tag k="place" v="islet" />
		<tag k="ssr:date" v="2019-12-27" />
		<tag k="ssr:gruppe" v="grunnerISjø" />
		<tag k="ssr:hovedgruppe" v="sjø" />
		<tag k="ssr:stedsnr" v="530268" />
		<tag k="ssr:type" v="skjærISjø" />
	</node>
	<node lat="60.79240277705011" lon="4.858255554441484" id="-75115">
		<tag k="name" v="Kattegat" />
		<tag k="natural" v="strait" />
		<tag k="ssr:date" v="2019-12-27" />
		<tag k="ssr:gruppe" v="kystkontur" />
		<tag k="ssr:hovedgruppe" v="sjø" />
		<tag k="ssr:stedsnr" v="530840" />
		<tag k="ssr:type" v="sundISjø" />
	</node>
	<node lat="60.78031389168861" lon="4.988322215088782" id="-75117">
		<tag k="name" v="Geitarhaugen" />
		<tag k="natural" v="hill" />
		<tag k="place" v="locality" />
		<tag k="ssr:date" v="2019-12-27" />
		<tag k="ssr:gruppe" v="høyder" />
		<tag k="ssr:hovedgruppe" v="terreng" />
		<tag k="ssr:stedsnr" v="530844" />
		<tag k="ssr:type" v="haug" />
	</node>
	<node lat="60.76573055683791" lon="4.880991664583497" id="-75118">
		<tag k="name" v="Grønholmen" />
		<tag k="place" v="islet" />
		<tag k="ssr:date" v="2019-12-27" />
		<tag k="ssr:gruppe" v="kystkontur" />
		<tag k="ssr:hovedgruppe" v="sjø" />
		<tag k="ssr:stedsnr" v="530845" />
		<tag k="ssr:type" v="holmeISjø" />
	</node>
	<node lat="60.80096110903374" lon="4.982088884982616" id="-75119">
		<tag k="name" v="Sjågodthaugen" />
		<tag k="natural" v="hill" />
		<tag k="place" v="locality" />
		<tag k="ssr:date" v="2019-12-27" />
		<tag k="ssr:gruppe" v="høyder" />
		<tag k="ssr:hovedgruppe" v="terreng" />
		<tag k="ssr:stedsnr" v="530878" />
		<tag k="ssr:type" v="haug" />
	</node>
	<node lat="60.76960833226542" lon="4.9152944355561266" id="-75120">
		<tag k="name" v="Slettebakken" />
		<tag k="natural" v="slope" />
		<tag k="place" v="locality" />
		<tag k="ssr:date" v="2019-12-27" />
		<tag k="ssr:gruppe" v="skråninger" />
		<tag k="ssr:hovedgruppe" v="terreng" />
		<tag k="ssr:stedsnr" v="530846" />
		<tag k="ssr:type" v="bakke" />
	</node>
	<node lat="60.74671111529677" lon="4.991930547717434" id="-75121">
		<tag k="name" v="Naustneset" />
		<tag k="natural" v="cape" />
		<tag k="ssr:date" v="2019-12-27" />
		<tag k="ssr:gruppe" v="kystkontur" />
		<tag k="ssr:hovedgruppe" v="sjø" />
		<tag k="ssr:stedsnr" v="530854" />
		<tag k="ssr:type" v="nesISjø" />
	</node>
	<node lat="60.78400000068649" lon="4.8837194398728245" id="-75122">
		<tag k="name" v="Høshaugane" />
		<tag k="natural" v="hill" />
		<tag k="place" v="locality" />
		<tag k="ssr:date" v="2019-12-27" />
		<tag k="ssr:gruppe" v="høyder" />
		<tag k="ssr:hovedgruppe" v="terreng" />
		<tag k="ssr:stedsnr" v="530858" />
		<tag k="ssr:type" v="haug" />
	</node>
	<node lat="60.794697219019795" lon="4.884286107614456" id="-75123">
		<tag k="name" v="Midthaugen" />
		<tag k="natural" v="hill" />
		<tag k="place" v="locality" />
		<tag k="ssr:date" v="2019-12-27" />
		<tag k="ssr:gruppe" v="høyder" />
		<tag k="ssr:hovedgruppe" v="terreng" />
		<tag k="ssr:stedsnr" v="530859" />
		<tag k="ssr:type" v="haug" />
	</node>
	<node lat="60.78958610749443" lon="4.98390277762359" id="-75124">
		<tag k="name" v="Rotevågen" />
		<tag k="natural" v="bay" />
		<tag k="ssr:date" v="2019-12-27" />
		<tag k="ssr:gruppe" v="kystkontur" />
		<tag k="ssr:hovedgruppe" v="sjø" />
		<tag k="ssr:stedsnr" v="530863" />
		<tag k="ssr:type" v="vågISjø" />
	</node>
	<node lat="60.78327042259594" lon="4.8785178622921705" id="-75126">
		<tag k="name" v="Lonevatnet" />
		<tag k="natural" v="water" />
		<tag k="ssr:date" v="2020-02-27" />
		<tag k="ssr:gruppe" v="stilleståendeVann" />
		<tag k="ssr:hovedgruppe" v="ferskvann" />
		<tag k="ssr:stedsnr" v="530984" />
		<tag k="ssr:type" v="vann" />
		<tag k="water" v="lake" />
	</node>
	<node lat="60.83243610642359" lon="4.858194436590709" id="-75128">
		<tag k="name" v="Stykkevågen" />
		<tag k="natural" v="bay" />
		<tag k="ssr:date" v="2019-12-27" />
		<tag k="ssr:gruppe" v="kystkontur" />
		<tag k="ssr:hovedgruppe" v="sjø" />
		<tag k="ssr:stedsnr" v="541600" />
		<tag k="ssr:type" v="vikISjø" />
	</node>
	<node lat="60.83706388940667" lon="4.711475005197" id="-75129">
		<tag k="name" v="Bøskallen" />
		<tag k="natural" v="shoal" />
		<tag k="place" v="locality" />
		<tag k="ssr:date" v="2019-12-27" />
		<tag k="ssr:gruppe" v="grunnerISjø" />
		<tag k="ssr:hovedgruppe" v="sjø" />
		<tag k="ssr:stedsnr" v="553752" />
		<tag k="ssr:type" v="grunneISjø" />
	</node>
	<node lat="60.789542959119935" lon="4.888711278234858" id="-75131">
		<tag k="name" v="Auretjørna" />
		<tag k="natural" v="water" />
		<tag k="ssr:date" v="2019-12-27" />
		<tag k="ssr:gruppe" v="stilleståendeVann" />
		<tag k="ssr:hovedgruppe" v="ferskvann" />
		<tag k="ssr:stedsnr" v="554023" />
		<tag k="ssr:type" v="tjern" />
	</node>
	<node lat="60.8359694446656" lon="4.893466664102315" id="-75133">
		<tag k="name" v="Skillingsholmane" />
		<tag k="place" v="islet" />
		<tag k="ssr:date" v="2019-12-27" />
		<tag k="ssr:gruppe" v="kystkontur" />
		<tag k="ssr:hovedgruppe" v="sjø" />
		<tag k="ssr:stedsnr" v="554098" />
		<tag k="ssr:type" v="holmeISjø" />
	</node>
	<node lat="60.76372777709666" lon="4.895702775165226" id="-75135">
		<tag k="name" v="Kråka" />
		<tag k="place" v="islet" />
		<tag k="ssr:date" v="2019-12-27" />
		<tag k="ssr:gruppe" v="kystkontur" />
		<tag k="ssr:hovedgruppe" v="sjø" />
		<tag k="ssr:stedsnr" v="554215" />
		<tag k="ssr:type" v="holmeISjø" />
	</node>
	<node lat="60.794224999339335" lon="4.805247230106856" id="-75136">
		<tag k="name" v="Ivarsskjeret" />
		<tag k="place" v="islet" />
		<tag k="ssr:date" v="2019-12-27" />
		<tag k="ssr:gruppe" v="kystkontur" />
		<tag k="ssr:hovedgruppe" v="sjø" />
		<tag k="ssr:stedsnr" v="554053" />
		<tag k="ssr:type" v="holmeISjø" />
	</node>
	<node lat="60.83516666630706" lon="4.807036117369641" id="-75139">
		<tag k="name" v="Tjørholmrumpa" />
		<tag k="natural" v="shoal" />
		<tag k="place" v="locality" />
		<tag k="ssr:date" v="2019-12-27" />
		<tag k="ssr:gruppe" v="grunnerISjø" />
		<tag k="ssr:hovedgruppe" v="sjø" />
		<tag k="ssr:stedsnr" v="554401" />
		<tag k="ssr:type" v="grunneISjø" />
	</node>
	<node lat="60.7599138931362" lon="4.902686106123556" id="-75149">
		<tag k="name" v="Stølshaugen" />
		<tag k="natural" v="hill" />
		<tag k="place" v="locality" />
		<tag k="ssr:date" v="2019-12-27" />
		<tag k="ssr:gruppe" v="høyder" />
		<tag k="ssr:hovedgruppe" v="terreng" />
		<tag k="ssr:stedsnr" v="590843" />
		<tag k="ssr:type" v="haug" />
	</node>
	<node lat="60.763941669364485" lon="4.948391659900273" id="-75150">
		<tag k="name" v="Brubrekka" />
		<tag k="natural" v="slope" />
		<tag k="place" v="locality" />
		<tag k="ssr:date" v="2019-12-27" />
		<tag k="ssr:gruppe" v="skråninger" />
		<tag k="ssr:hovedgruppe" v="terreng" />
		<tag k="ssr:stedsnr" v="590852" />
		<tag k="ssr:type" v="bakke" />
	</node>
	<node lat="60.74784999581546" lon="4.964974992015457" id="-75151">
		<tag k="name" v="Storehaugen" />
		<tag k="natural" v="hill" />
		<tag k="place" v="locality" />
		<tag k="ssr:date" v="2019-12-27" />
		<tag k="ssr:gruppe" v="høyder" />
		<tag k="ssr:hovedgruppe" v="terreng" />
		<tag k="ssr:stedsnr" v="591859" />
		<tag k="ssr:type" v="haug" />
	</node>
	<node lat="60.809897226616236" lon="4.974844446496336" id="-75152">
		<tag k="name" v="Hamaltangen" />
		<tag k="natural" v="cape" />
		<tag k="ssr:date" v="2019-12-27" />
		<tag k="ssr:gruppe" v="kystkontur" />
		<tag k="ssr:hovedgruppe" v="sjø" />
		<tag k="ssr:stedsnr" v="591891" />
		<tag k="ssr:type" v="nesISjø" />
	</node>
	<node lat="60.80788055379697" lon="4.809672229150047" id="-75155">
		<tag k="name" v="Baløykalven" />
		<tag k="place" v="island" />
		<tag k="ssr:date" v="2019-12-27" />
		<tag k="ssr:gruppe" v="kystkontur" />
		<tag k="ssr:hovedgruppe" v="sjø" />
		<tag k="ssr:stedsnr" v="591994" />
		<tag k="ssr:type" v="øyISjø" />
	</node>
	<node lat="60.77287500168362" lon="4.965083327317819" id="-75159">
		<tag k="name" v="Hansholmen" />
		<tag k="place" v="islet" />
		<tag k="ssr:date" v="2019-12-27" />
		<tag k="ssr:gruppe" v="kystkontur" />
		<tag k="ssr:hovedgruppe" v="sjø" />
		<tag k="ssr:stedsnr" v="614197" />
		<tag k="ssr:type" v="holmeISjø" />
	</node>
	<node lat="60.75660600447635" lon="4.940287450766565" id="-75164">
		<tag k="name" v="Førlandsvatnet" />
		<tag k="natural" v="water" />
		<tag k="ssr:date" v="2019-12-27" />
		<tag k="ssr:gruppe" v="stilleståendeVann" />
		<tag k="ssr:hovedgruppe" v="ferskvann" />
		<tag k="ssr:stedsnr" v="615151" />
		<tag k="ssr:type" v="tjern" />
	</node>
	<node lat="60.75935000439476" lon="4.9173388882830436" id="-75165">
		<tag k="name" v="Åsen" />
		<tag k="place" v="farm" />
		<tag k="ssr:date" v="2019-12-27" />
		<tag k="ssr:gruppe" v="gardsbebyggelse" />
		<tag k="ssr:hovedgruppe" v="bebyggelse" />
		<tag k="ssr:stedsnr" v="615187" />
		<tag k="ssr:type" v="bruk" />
	</node>
	<node lat="60.76533333405544" lon="4.922975006523889" id="-75166">
		<tag k="name" v="Solhaugen" />
		<tag k="place" v="farm" />
		<tag k="ssr:date" v="2019-12-27" />
		<tag k="ssr:gruppe" v="gardsbebyggelse" />
		<tag k="ssr:hovedgruppe" v="bebyggelse" />
		<tag k="ssr:stedsnr" v="615188" />
		<tag k="ssr:type" v="bruk" />
	</node>
	<node lat="60.75208610925083" lon="4.91245832504364" id="-75167">
		<tag k="name" v="Hoplandssjøen" />
		<tag k="place" v="isolated_dwelling" />
		<tag k="ssr:date" v="2019-12-27" />
		<tag k="ssr:gruppe" v="bolighus" />
		<tag k="ssr:hovedgruppe" v="bebyggelse" />
		<tag k="ssr:stedsnr" v="615141" />
		<tag k="ssr:type" v="fritidsbolig" />
	</node>
	<node lat="60.81597560771758" lon="4.788220298085559" id="-75175">
		<tag k="fixme" v="consider seamark:type=rock or natural=shoal" />
		<tag k="name" v="Kniveskjeret" />
		<tag k="place" v="islet" />
		<tag k="ssr:date" v="2019-12-27" />
		<tag k="ssr:gruppe" v="grunnerISjø" />
		<tag k="ssr:hovedgruppe" v="sjø" />
		<tag k="ssr:stedsnr" v="650927" />
		<tag k="ssr:type" v="skjærISjø" />
	</node>
	<node lat="60.801744444010275" lon="4.952616675460398" id="-75177">
		<tag k="fixme" v="consider seamark:type=rock or natural=shoal" />
		<tag k="name" v="Nordre Ervikskjera" />
		<tag k="place" v="islet" />
		<tag k="ssr:date" v="2019-12-27" />
		<tag k="ssr:gruppe" v="grunnerISjø" />
		<tag k="ssr:hovedgruppe" v="sjø" />
		<tag k="ssr:stedsnr" v="651228" />
		<tag k="ssr:type" v="skjærISjø" />
	</node>
	<node lat="60.74251666758556" lon="4.939352784617267" id="-75178">
		<tag k="fixme" v="consider seamark:type=rock or natural=shoal" />
		<tag k="name" v="Sygneskjeret" />
		<tag k="place" v="islet" />
		<tag k="ssr:date" v="2019-12-27" />
		<tag k="ssr:gruppe" v="grunnerISjø" />
		<tag k="ssr:hovedgruppe" v="sjø" />
		<tag k="ssr:stedsnr" v="651255" />
		<tag k="ssr:type" v="skjærISjø" />
	</node>
	<node lat="60.798767598453814" lon="4.980363212195784" id="-75179">
		<tag k="name" v="Vestretjørna" />
		<tag k="natural" v="water" />
		<tag k="ssr:date" v="2019-12-27" />
		<tag k="ssr:gruppe" v="stilleståendeVann" />
		<tag k="ssr:hovedgruppe" v="ferskvann" />
		<tag k="ssr:stedsnr" v="651917" />
		<tag k="ssr:type" v="tjern" />
	</node>
	<node lat="60.8075749989578" lon="4.961805559653613" id="-75180">
		<tag k="name" v="Kvernhuselva" />
		<tag k="ssr:date" v="2019-12-27" />
		<tag k="ssr:gruppe" v="rennendeVann" />
		<tag k="ssr:hovedgruppe" v="ferskvann" />
		<tag k="ssr:stedsnr" v="651919" />
		<tag k="ssr:type" v="elv" />
		<tag k="waterway" v="river" />
	</node>
	<node lat="60.81025277839403" lon="4.90409722773123" id="-75181">
		<tag k="name" v="Ryggjeneset" />
		<tag k="natural" v="cape" />
		<tag k="ssr:date" v="2019-12-27" />
		<tag k="ssr:gruppe" v="kystkontur" />
		<tag k="ssr:hovedgruppe" v="sjø" />
		<tag k="ssr:stedsnr" v="651923" />
		<tag k="ssr:type" v="nesISjø" />
	</node>
	<node lat="60.74750278152139" lon="4.924594449245528" id="-75182">
		<tag k="name" v="Tjuvvika" />
		<tag k="natural" v="bay" />
		<tag k="ssr:date" v="2019-12-27" />
		<tag k="ssr:gruppe" v="kystkontur" />
		<tag k="ssr:hovedgruppe" v="sjø" />
		<tag k="ssr:stedsnr" v="651959" />
		<tag k="ssr:type" v="vikISjø" />
	</node>
	<node lat="60.73786110755445" lon="4.956291674707113" id="-75184">
		<tag k="name" v="Herslaupsmyrane" />
		<tag k="natural" v="wetland" />
		<tag k="ssr:date" v="2019-12-27" />
		<tag k="ssr:gruppe" v="våtmark" />
		<tag k="ssr:hovedgruppe" v="markslag" />
		<tag k="ssr:stedsnr" v="651876" />
		<tag k="ssr:type" v="myr" />
	</node>
	<node lat="60.82317222631334" lon="4.77767500112815" id="-75186">
		<tag k="name" v="Kusundet" />
		<tag k="natural" v="strait" />
		<tag k="ssr:date" v="2019-12-27" />
		<tag k="ssr:gruppe" v="kystkontur" />
		<tag k="ssr:hovedgruppe" v="sjø" />
		<tag k="ssr:stedsnr" v="651826" />
		<tag k="ssr:type" v="sundISjø" />
	</node>
	<node lat="60.83060555237157" lon="4.866919453291063" id="-75187">
		<tag k="name" v="Kluftholmen" />
		<tag k="place" v="islet" />
		<tag k="ssr:date" v="2019-12-27" />
		<tag k="ssr:gruppe" v="kystkontur" />
		<tag k="ssr:hovedgruppe" v="sjø" />
		<tag k="ssr:stedsnr" v="651827" />
		<tag k="ssr:type" v="holmeISjø" />
	</node>
	<node lat="60.76672221999894" lon="4.9004666646777775" id="-75188">
		<tag k="name" v="Austre Purkholmen" />
		<tag k="place" v="islet" />
		<tag k="ssr:date" v="2019-12-27" />
		<tag k="ssr:gruppe" v="kystkontur" />
		<tag k="ssr:hovedgruppe" v="sjø" />
		<tag k="ssr:stedsnr" v="651973" />
		<tag k="ssr:type" v="holmeISjø" />
	</node>
	<node lat="60.79116666226626" lon="4.851502771138453" id="-75189">
		<tag k="name" v="Skagen" />
		<tag k="place" v="island" />
		<tag k="ssr:date" v="2019-12-27" />
		<tag k="ssr:gruppe" v="kystkontur" />
		<tag k="ssr:hovedgruppe" v="sjø" />
		<tag k="ssr:stedsnr" v="651983" />
		<tag k="ssr:type" v="øyISjø" />
	</node>
	<node lat="60.83384444769182" lon="4.8516944431759965" id="-75190">
		<tag k="name" v="Svartskjerfluene" />
		<tag k="natural" v="shoal" />
		<tag k="place" v="locality" />
		<tag k="ssr:date" v="2019-12-27" />
		<tag k="ssr:gruppe" v="grunnerISjø" />
		<tag k="ssr:hovedgruppe" v="sjø" />
		<tag k="ssr:stedsnr" v="662594" />
		<tag k="ssr:type" v="grunneISjø" />
	</node>
	<node lat="60.82068889295391" lon="4.886947217669661" id="-75191">
		<tag k="name" v="Dynekyllaren" />
		<tag k="natural" v="bay" />
		<tag k="ssr:date" v="2019-12-27" />
		<tag k="ssr:gruppe" v="kystkontur" />
		<tag k="ssr:hovedgruppe" v="sjø" />
		<tag k="ssr:stedsnr" v="662650" />
		<tag k="ssr:type" v="vikISjø" />
	</node>
	<node lat="60.796150002390874" lon="5.039808337165139" id="-75193">
		<tag k="name" v="Austremyrane" />
		<tag k="natural" v="wetland" />
		<tag k="ssr:date" v="2019-12-27" />
		<tag k="ssr:gruppe" v="våtmark" />
		<tag k="ssr:hovedgruppe" v="markslag" />
		<tag k="ssr:stedsnr" v="712885" />
		<tag k="ssr:type" v="myr" />
	</node>
	<node lat="60.80063055738868" lon="4.988988887990032" id="-75194">
		<tag k="name" v="Merkesåen" />
		<tag k="ssr:date" v="2019-12-27" />
		<tag k="ssr:gruppe" v="rennendeVann" />
		<tag k="ssr:hovedgruppe" v="ferskvann" />
		<tag k="ssr:stedsnr" v="712889" />
		<tag k="ssr:type" v="elv" />
		<tag k="waterway" v="river" />
	</node>
	<node lat="60.81218888517451" lon="4.9613833337449424" id="-75195">
		<tag k="name" v="Krossnesholmen" />
		<tag k="place" v="islet" />
		<tag k="ssr:date" v="2019-12-27" />
		<tag k="ssr:gruppe" v="kystkontur" />
		<tag k="ssr:hovedgruppe" v="sjø" />
		<tag k="ssr:stedsnr" v="712891" />
		<tag k="ssr:type" v="holmeISjø" />
	</node>
	<node lat="60.816038886495384" lon="4.984102776576036" id="-75196">
		<tag k="name" v="Juvika" />
		<tag k="natural" v="bay" />
		<tag k="ssr:date" v="2019-12-27" />
		<tag k="ssr:gruppe" v="kystkontur" />
		<tag k="ssr:hovedgruppe" v="sjø" />
		<tag k="ssr:stedsnr" v="712910" />
		<tag k="ssr:type" v="vikISjø" />
	</node>
	<node lat="60.769297223015776" lon="4.903213886952458" id="-75197">
		<tag k="name" v="Træsbakken" />
		<tag k="natural" v="slope" />
		<tag k="place" v="locality" />
		<tag k="ssr:date" v="2019-12-27" />
		<tag k="ssr:gruppe" v="skråninger" />
		<tag k="ssr:hovedgruppe" v="terreng" />
		<tag k="ssr:stedsnr" v="712852" />
		<tag k="ssr:type" v="bakke" />
	</node>
	<node lat="60.77462500035352" lon="4.924991662494107" id="-75198">
		<tag k="leisure" v="pitch" />
		<tag k="name" v="Idrettsplass" />
		<tag k="ssr:date" v="2019-12-27" />
		<tag k="ssr:gruppe" v="fritidsanlegg" />
		<tag k="ssr:hovedgruppe" v="bebyggelse" />
		<tag k="ssr:stedsnr" v="712855" />
		<tag k="ssr:type" v="idrettsanlegg" />
	</node>
	<node lat="60.75457777688405" lon="4.903391663819286" id="-75200">
		<tag k="name" v="Brøkneset" />
		<tag k="natural" v="cape" />
		<tag k="ssr:date" v="2019-12-27" />
		<tag k="ssr:gruppe" v="kystkontur" />
		<tag k="ssr:hovedgruppe" v="sjø" />
		<tag k="ssr:stedsnr" v="712859" />
		<tag k="ssr:type" v="nesISjø" />
	</node>
	<node lat="60.761502779621736" lon="4.894566663886892" id="-75201">
		<tag k="name" v="Buholmen" />
		<tag k="place" v="islet" />
		<tag k="ssr:date" v="2019-12-27" />
		<tag k="ssr:gruppe" v="kystkontur" />
		<tag k="ssr:hovedgruppe" v="sjø" />
		<tag k="ssr:stedsnr" v="712982" />
		<tag k="ssr:type" v="holmeISjø" />
	</node>
	<node lat="60.787158336655004" lon="4.843119452547816" id="-75202">
		<tag k="name" v="Tingsholmen" />
		<tag k="place" v="islet" />
		<tag k="ssr:date" v="2019-12-27" />
		<tag k="ssr:gruppe" v="kystkontur" />
		<tag k="ssr:hovedgruppe" v="sjø" />
		<tag k="ssr:stedsnr" v="712985" />
		<tag k="ssr:type" v="holmeISjø" />
	</node>
	<node lat="60.810405555956535" lon="4.8017222163368025" id="-75203">
		<tag k="name" v="Trollholmen" />
		<tag k="place" v="islet" />
		<tag k="ssr:date" v="2019-12-27" />
		<tag k="ssr:gruppe" v="kystkontur" />
		<tag k="ssr:hovedgruppe" v="sjø" />
		<tag k="ssr:stedsnr" v="712994" />
		<tag k="ssr:type" v="holmeISjø" />
	</node>
	<node lat="60.80623055622862" lon="4.796080557954239" id="-75204">
		<tag k="name" v="Fyrsundet" />
		<tag k="natural" v="strait" />
		<tag k="ssr:date" v="2019-12-27" />
		<tag k="ssr:gruppe" v="kystkontur" />
		<tag k="ssr:hovedgruppe" v="sjø" />
		<tag k="ssr:stedsnr" v="712820" />
		<tag k="ssr:type" v="sundISjø" />
	</node>
	<node lat="60.76290277521887" lon="4.863174997553183" id="-75205">
		<tag k="name" v="Vardholmen" />
		<tag k="place" v="islet" />
		<tag k="ssr:date" v="2019-12-27" />
		<tag k="ssr:gruppe" v="kystkontur" />
		<tag k="ssr:hovedgruppe" v="sjø" />
		<tag k="ssr:stedsnr" v="712953" />
		<tag k="ssr:type" v="holmeISjø" />
	</node>
	<node lat="60.81287222326264" lon="4.892716662059049" id="-75207">
		<tag k="name" v="Austnesfluene" />
		<tag k="natural" v="shoal" />
		<tag k="place" v="locality" />
		<tag k="ssr:date" v="2019-12-27" />
		<tag k="ssr:gruppe" v="grunnerISjø" />
		<tag k="ssr:hovedgruppe" v="sjø" />
		<tag k="ssr:stedsnr" v="723559" />
		<tag k="ssr:type" v="grunneISjø" />
	</node>
	<node lat="60.77729166945637" lon="4.916175007012069" id="-75212">
		<tag k="name" v="Makdalshaugen" />
		<tag k="natural" v="hill" />
		<tag k="place" v="locality" />
		<tag k="ssr:date" v="2019-12-27" />
		<tag k="ssr:gruppe" v="høyder" />
		<tag k="ssr:hovedgruppe" v="terreng" />
		<tag k="ssr:stedsnr" v="736232" />
		<tag k="ssr:type" v="haug" />
	</node>
	<node lat="60.81485555688358" lon="4.876627778299957" id="-75216">
		<tag k="name" v="Jarnneset" />
		<tag k="natural" v="cape" />
		<tag k="ssr:date" v="2019-12-27" />
		<tag k="ssr:gruppe" v="kystkontur" />
		<tag k="ssr:hovedgruppe" v="sjø" />
		<tag k="ssr:stedsnr" v="736092" />
		<tag k="ssr:type" v="nesISjø" />
	</node>
	<node lat="60.76758611571079" lon="4.896350002955636" id="-75218">
		<tag k="name" v="Austrheimsvågen" />
		<tag k="natural" v="bay" />
		<tag k="ssr:date" v="2019-12-27" />
		<tag k="ssr:gruppe" v="kystkontur" />
		<tag k="ssr:hovedgruppe" v="sjø" />
		<tag k="ssr:stedsnr" v="736259" />
		<tag k="ssr:type" v="vikISjø" />
	</node>
	<node lat="60.77231666803229" lon="4.906661119474067" id="-75219">
		<tag k="name" v="Resnipa" />
		<tag k="natural" v="hill" />
		<tag k="place" v="locality" />
		<tag k="ssr:date" v="2019-12-27" />
		<tag k="ssr:gruppe" v="høyder" />
		<tag k="ssr:hovedgruppe" v="terreng" />
		<tag k="ssr:stedsnr" v="736260" />
		<tag k="ssr:type" v="haug" />
	</node>
	<node lat="60.802619447386945" lon="4.8620111075194945" id="-75220">
		<tag k="name" v="Horsøyna" />
		<tag k="place" v="islet" />
		<tag k="ssr:date" v="2019-12-27" />
		<tag k="ssr:gruppe" v="kystkontur" />
		<tag k="ssr:hovedgruppe" v="sjø" />
		<tag k="ssr:stedsnr" v="736980" />
		<tag k="ssr:type" v="holmeISjø" />
	</node>
	<node lat="60.77408333399829" lon="4.950299997966092" id="-75221">
		<tag k="name" v="Vaulen" />
		<tag k="natural" v="bay" />
		<tag k="ssr:date" v="2019-12-27" />
		<tag k="ssr:gruppe" v="kystkontur" />
		<tag k="ssr:hovedgruppe" v="sjø" />
		<tag k="ssr:stedsnr" v="736984" />
		<tag k="ssr:type" v="vikISjø" />
	</node>
	<node lat="60.80301388641139" lon="4.979800000810363" id="-75222">
		<tag k="fixme" v="consider place=suburb, village or hamlet" />
		<tag k="name" v="Fonnes" />
		<tag k="place" v="quarter" />
		<tag k="ssr:date" v="2019-12-27" />
		<tag k="ssr:gruppe" v="bebyggelsesområder" />
		<tag k="ssr:hovedgruppe" v="bebyggelse" />
		<tag k="ssr:stedsnr" v="737024" />
		<tag k="ssr:type" v="tettbebyggelse" />
	</node>
	<node lat="60.80130278123502" lon="4.95609444902406" id="-75234">
		<tag k="name" v="Ervikholmen" />
		<tag k="place" v="islet" />
		<tag k="ssr:date" v="2019-12-27" />
		<tag k="ssr:gruppe" v="kystkontur" />
		<tag k="ssr:hovedgruppe" v="sjø" />
		<tag k="ssr:stedsnr" v="753849" />
		<tag k="ssr:type" v="holmeISjø" />
	</node>
	<node lat="60.80390555832095" lon="5.008277778245433" id="-75237">
		<tag k="name" v="Kistehaugane" />
		<tag k="natural" v="hill" />
		<tag k="place" v="locality" />
		<tag k="ssr:date" v="2019-12-27" />
		<tag k="ssr:gruppe" v="høyder" />
		<tag k="ssr:hovedgruppe" v="terreng" />
		<tag k="ssr:stedsnr" v="772220" />
		<tag k="ssr:type" v="haug" />
	</node>
	<node lat="60.80384722385183" lon="4.99863610581917" id="-75239">
		<tag k="fixme" v="consider natural=peak for the most distinct mountains in the district" />
		<tag k="name" v="Ekornsåta" />
		<tag k="natural" v="hill" />
		<tag k="place" v="locality" />
		<tag k="ssr:date" v="2019-12-27" />
		<tag k="ssr:gruppe" v="høyder" />
		<tag k="ssr:hovedgruppe" v="terreng" />
		<tag k="ssr:stedsnr" v="772883" />
		<tag k="ssr:type" v="topp" />
	</node>
	<node lat="60.73486388740832" lon="4.966322220632018" id="-75240">
		<tag k="name" v="Straumskletten" />
		<tag k="natural" v="hill" />
		<tag k="place" v="locality" />
		<tag k="ssr:date" v="2019-12-27" />
		<tag k="ssr:gruppe" v="høyder" />
		<tag k="ssr:hovedgruppe" v="terreng" />
		<tag k="ssr:stedsnr" v="772244" />
		<tag k="ssr:type" v="haug" />
	</node>
	<node lat="60.765316667423576" lon="4.883980560909878" id="-75241">
		<tag k="name" v="Småholmen" />
		<tag k="place" v="islet" />
		<tag k="ssr:date" v="2019-12-27" />
		<tag k="ssr:gruppe" v="kystkontur" />
		<tag k="ssr:hovedgruppe" v="sjø" />
		<tag k="ssr:stedsnr" v="772959" />
		<tag k="ssr:type" v="holmeISjø" />
	</node>
	<node lat="60.83007778231561" lon="4.804575007739388" id="-75242">
		<tag k="name" v="Gavlen" />
		<tag k="natural" v="cape" />
		<tag k="ssr:date" v="2019-12-27" />
		<tag k="ssr:gruppe" v="kystkontur" />
		<tag k="ssr:hovedgruppe" v="sjø" />
		<tag k="ssr:stedsnr" v="772830" />
		<tag k="ssr:type" v="nesISjø" />
	</node>
	<node lat="60.829400001564096" lon="4.806163886052926" id="-75243">
		<tag k="name" v="Gavletua" />
		<tag k="natural" v="hill" />
		<tag k="place" v="locality" />
		<tag k="ssr:date" v="2019-12-27" />
		<tag k="ssr:gruppe" v="høyder" />
		<tag k="ssr:hovedgruppe" v="terreng" />
		<tag k="ssr:stedsnr" v="772831" />
		<tag k="ssr:type" v="haug" />
	</node>
	<node lat="60.78191110714518" lon="4.9848555490755455" id="-75244">
		<tag k="name" v="Sjoelva" />
		<tag k="ssr:date" v="2019-12-27" />
		<tag k="ssr:gruppe" v="rennendeVann" />
		<tag k="ssr:hovedgruppe" v="ferskvann" />
		<tag k="ssr:stedsnr" v="772920" />
		<tag k="ssr:type" v="elv" />
		<tag k="waterway" v="river" />
	</node>
	<node lat="60.76550832997275" lon="4.940375000124494" id="-75246">
		<tag k="name" v="Tverrhaugen" />
		<tag k="natural" v="hill" />
		<tag k="place" v="locality" />
		<tag k="ssr:date" v="2019-12-27" />
		<tag k="ssr:gruppe" v="høyder" />
		<tag k="ssr:hovedgruppe" v="terreng" />
		<tag k="ssr:stedsnr" v="773834" />
		<tag k="ssr:type" v="haug" />
	</node>
	<node lat="60.82954722201746" lon="4.8566638845547825" id="-75247">
		<tag k="name" v="Torvneset" />
		<tag k="natural" v="cape" />
		<tag k="ssr:date" v="2019-12-27" />
		<tag k="ssr:gruppe" v="kystkontur" />
		<tag k="ssr:hovedgruppe" v="sjø" />
		<tag k="ssr:stedsnr" v="773931" />
		<tag k="ssr:type" v="nesISjø" />
	</node>
	<node lat="60.79168611093165" lon="4.834252773333387" id="-75248">
		<tag k="name" v="Nordre Lauvøyholmen" />
		<tag k="place" v="islet" />
		<tag k="ssr:date" v="2019-12-27" />
		<tag k="ssr:gruppe" v="kystkontur" />
		<tag k="ssr:hovedgruppe" v="sjø" />
		<tag k="ssr:stedsnr" v="773976" />
		<tag k="ssr:type" v="holmeISjø" />
	</node>
	<node lat="60.80558888862687" lon="4.802136110763618" id="-75249">
		<tag k="name" v="Baløyhaugen" />
		<tag k="natural" v="hill" />
		<tag k="place" v="locality" />
		<tag k="ssr:date" v="2019-12-27" />
		<tag k="ssr:gruppe" v="høyder" />
		<tag k="ssr:hovedgruppe" v="terreng" />
		<tag k="ssr:stedsnr" v="773977" />
		<tag k="ssr:type" v="haug" />
	</node>
	<node lat="60.8029027812022" lon="4.833119452001621" id="-75251">
		<tag k="name" v="Bjørnøysundet" />
		<tag k="natural" v="strait" />
		<tag k="ssr:date" v="2019-12-27" />
		<tag k="ssr:gruppe" v="kystkontur" />
		<tag k="ssr:hovedgruppe" v="sjø" />
		<tag k="ssr:stedsnr" v="773987" />
		<tag k="ssr:type" v="sundISjø" />
	</node>
	<node lat="60.746036113136455" lon="4.967544450573714" id="-75254">
		<tag k="name" v="Litlelindås" />
		<tag k="place" v="hamlet" />
		<tag k="ssr:date" v="2019-12-27" />
		<tag k="ssr:gruppe" v="bebyggelsesområder" />
		<tag k="ssr:hovedgruppe" v="bebyggelse" />
		<tag k="ssr:stedsnr" v="795780" />
		<tag k="ssr:type" v="grend" />
	</node>
	<node lat="60.80185278052735" lon="4.878125000763148" id="-75255">
		<tag k="fixme" v="consider seamark:type=rock or natural=shoal" />
		<tag k="name" v="Seisnappen" />
		<tag k="place" v="islet" />
		<tag k="ssr:date" v="2019-12-27" />
		<tag k="ssr:gruppe" v="grunnerISjø" />
		<tag k="ssr:hovedgruppe" v="sjø" />
		<tag k="ssr:stedsnr" v="797038" />
		<tag k="ssr:type" v="skjærISjø" />
	</node>
	<node lat="60.77922493719591" lon="4.892133689169786" id="-75258">
		<tag k="name" v="Austrheimstjørna" />
		<tag k="natural" v="water" />
		<tag k="ssr:date" v="2019-12-27" />
		<tag k="ssr:gruppe" v="stilleståendeVann" />
		<tag k="ssr:hovedgruppe" v="ferskvann" />
		<tag k="ssr:stedsnr" v="797223" />
		<tag k="ssr:type" v="tjern" />
	</node>
	<node lat="60.77740833506337" lon="4.932741660625586" id="-75259">
		<tag k="fixme" v="consider place=suburb, village or hamlet" />
		<tag k="name" v="Årås" />
		<tag k="place" v="quarter" />
		<tag k="ssr:date" v="2019-12-27" />
		<tag k="ssr:gruppe" v="bebyggelsesområder" />
		<tag k="ssr:hovedgruppe" v="bebyggelse" />
		<tag k="ssr:stedsnr" v="797224" />
		<tag k="ssr:type" v="tettbebyggelse" />
	</node>
	<node lat="60.76796389079226" lon="4.95428611094295" id="-75260">
		<tag k="name" v="Åsen" />
		<tag k="natural" v="hill" />
		<tag k="place" v="locality" />
		<tag k="ssr:date" v="2019-12-27" />
		<tag k="ssr:gruppe" v="høyder" />
		<tag k="ssr:hovedgruppe" v="terreng" />
		<tag k="ssr:stedsnr" v="797192" />
		<tag k="ssr:type" v="haug" />
	</node>
	<node lat="60.758383336533605" lon="5.015391669286036" id="-75266">
		<tag k="name" v="Grunnevågen" />
		<tag k="natural" v="bay" />
		<tag k="ssr:date" v="2019-12-27" />
		<tag k="ssr:gruppe" v="kystkontur" />
		<tag k="ssr:hovedgruppe" v="sjø" />
		<tag k="ssr:stedsnr" v="833899" />
		<tag k="ssr:type" v="vågISjø" />
	</node>
	<node lat="60.81843333709762" lon="4.780936118276616" id="-75267">
		<tag k="name" v="Sjøbuosen" />
		<tag k="natural" v="strait" />
		<tag k="ssr:date" v="2019-12-27" />
		<tag k="ssr:gruppe" v="kystkontur" />
		<tag k="ssr:hovedgruppe" v="sjø" />
		<tag k="ssr:stedsnr" v="833957" />
		<tag k="ssr:type" v="sundISjø" />
	</node>
	<node lat="60.80075277865975" lon="4.938500002372295" id="-75268">
		<tag k="fixme" v="consider seamark:type=rock or natural=shoal" />
		<tag k="name" v="Trollholmskjeret" />
		<tag k="place" v="islet" />
		<tag k="ssr:date" v="2019-12-27" />
		<tag k="ssr:gruppe" v="grunnerISjø" />
		<tag k="ssr:hovedgruppe" v="sjø" />
		<tag k="ssr:stedsnr" v="834229" />
		<tag k="ssr:type" v="skjærISjø" />
	</node>
	<node lat="60.742452780212496" lon="5.007849998977702" id="-75269">
		<tag k="name" v="Grønåsvika" />
		<tag k="natural" v="bay" />
		<tag k="ssr:date" v="2019-12-27" />
		<tag k="ssr:gruppe" v="kystkontur" />
		<tag k="ssr:hovedgruppe" v="sjø" />
		<tag k="ssr:stedsnr" v="834232" />
		<tag k="ssr:type" v="vikISjø" />
	</node>
	<node lat="60.765952779232634" lon="4.901186103844966" id="-75270">
		<tag k="name" v="Vestre Purkholmen" />
		<tag k="place" v="islet" />
		<tag k="ssr:date" v="2019-12-27" />
		<tag k="ssr:gruppe" v="kystkontur" />
		<tag k="ssr:hovedgruppe" v="sjø" />
		<tag k="ssr:stedsnr" v="834257" />
		<tag k="ssr:type" v="holmeISjø" />
	</node>
	<node lat="60.81460277644959" lon="4.896547218158225" id="-75271">
		<tag k="name" v="Austretangen" />
		<tag k="natural" v="cape" />
		<tag k="ssr:date" v="2019-12-27" />
		<tag k="ssr:gruppe" v="kystkontur" />
		<tag k="ssr:hovedgruppe" v="sjø" />
		<tag k="ssr:stedsnr" v="834888" />
		<tag k="ssr:type" v="nesISjø" />
	</node>
	<node lat="60.759444447742574" lon="4.948161118046121" id="-75272">
		<tag k="name" v="Ørnetua" />
		<tag k="place" v="farm" />
		<tag k="ssr:date" v="2019-12-27" />
		<tag k="ssr:gruppe" v="gardsbebyggelse" />
		<tag k="ssr:hovedgruppe" v="bebyggelse" />
		<tag k="ssr:stedsnr" v="834855" />
		<tag k="ssr:type" v="bruk" />
	</node>
	<node lat="60.75821666870281" lon="5.008813891157329" id="-75274">
		<tag k="name" v="Breivika" />
		<tag k="natural" v="bay" />
		<tag k="ssr:date" v="2019-12-27" />
		<tag k="ssr:gruppe" v="kystkontur" />
		<tag k="ssr:hovedgruppe" v="sjø" />
		<tag k="ssr:stedsnr" v="834933" />
		<tag k="ssr:type" v="vikISjø" />
	</node>
	<node lat="60.76423333273506" lon="4.926108339531619" id="-75276">
		<tag k="name" v="Skulehusmyra" />
		<tag k="natural" v="wetland" />
		<tag k="ssr:date" v="2019-12-27" />
		<tag k="ssr:gruppe" v="våtmark" />
		<tag k="ssr:hovedgruppe" v="markslag" />
		<tag k="ssr:stedsnr" v="834942" />
		<tag k="ssr:type" v="myr" />
	</node>
	<node lat="60.76311111451617" lon="5.025422218082997" id="-75278">
		<tag k="name" v="Breivika" />
		<tag k="natural" v="bay" />
		<tag k="ssr:date" v="2019-12-27" />
		<tag k="ssr:gruppe" v="kystkontur" />
		<tag k="ssr:hovedgruppe" v="sjø" />
		<tag k="ssr:stedsnr" v="834953" />
		<tag k="ssr:type" v="vikISjø" />
	</node>
	<node lat="60.79642500194559" lon="5.0227194486906255" id="-75279">
		<tag k="name" v="Litlås" />
		<tag k="place" v="farm" />
		<tag k="ssr:date" v="2019-12-27" />
		<tag k="ssr:gruppe" v="gardsbebyggelse" />
		<tag k="ssr:hovedgruppe" v="bebyggelse" />
		<tag k="ssr:stedsnr" v="834959" />
		<tag k="ssr:type" v="bruk" />
	</node>
	<node lat="60.817500001787515" lon="4.779152779744581" id="-75280">
		<tag k="name" v="Bukkholmen" />
		<tag k="place" v="islet" />
		<tag k="ssr:date" v="2019-12-27" />
		<tag k="ssr:gruppe" v="kystkontur" />
		<tag k="ssr:hovedgruppe" v="sjø" />
		<tag k="ssr:stedsnr" v="834926" />
		<tag k="ssr:type" v="holmeISjø" />
	</node>
	<node lat="60.79331944406699" lon="4.831591664766032" id="-75282">
		<tag k="name" v="Porsneset" />
		<tag k="natural" v="cape" />
		<tag k="ssr:date" v="2019-12-27" />
		<tag k="ssr:gruppe" v="kystkontur" />
		<tag k="ssr:hovedgruppe" v="sjø" />
		<tag k="ssr:stedsnr" v="834999" />
		<tag k="ssr:type" v="nesISjø" />
	</node>
	<node lat="60.80099722292426" lon="4.904488897341657" id="-75284">
		<tag k="fixme" v="consider seamark:type=rock or natural=shoal" />
		<tag k="name" v="Tangane" />
		<tag k="place" v="islet" />
		<tag k="ssr:date" v="2019-12-27" />
		<tag k="ssr:gruppe" v="grunnerISjø" />
		<tag k="ssr:hovedgruppe" v="sjø" />
		<tag k="ssr:stedsnr" v="845554" />
		<tag k="ssr:type" v="skjærISjø" />
	</node>
	<node lat="60.83371388835356" lon="4.881177770730177" id="-75285">
		<tag k="name" v="Beinsholmen" />
		<tag k="place" v="islet" />
		<tag k="ssr:date" v="2019-12-27" />
		<tag k="ssr:gruppe" v="kystkontur" />
		<tag k="ssr:hovedgruppe" v="sjø" />
		<tag k="ssr:stedsnr" v="858100" />
		<tag k="ssr:type" v="holmeISjø" />
	</node>
	<node lat="60.76669166685285" lon="4.90515833261913" id="-75289">
		<tag k="name" v="Neset" />
		<tag k="place" v="farm" />
		<tag k="ssr:date" v="2019-12-27" />
		<tag k="ssr:gruppe" v="gardsbebyggelse" />
		<tag k="ssr:hovedgruppe" v="bebyggelse" />
		<tag k="ssr:stedsnr" v="858246" />
		<tag k="ssr:type" v="bruk" />
	</node>
	<node lat="60.763552780326506" lon="4.957305557938736" id="-75291">
		<tag k="name" v="Solheim" />
		<tag k="place" v="farm" />
		<tag k="ssr:date" v="2019-12-27" />
		<tag k="ssr:gruppe" v="gardsbebyggelse" />
		<tag k="ssr:hovedgruppe" v="bebyggelse" />
		<tag k="ssr:stedsnr" v="858218" />
		<tag k="ssr:type" v="bruk" />
	</node>
	<node lat="60.827688891588345" lon="4.793527771740867" id="-75298">
		<tag k="name" v="Steinsøyflua" />
		<tag k="natural" v="shoal" />
		<tag k="place" v="locality" />
		<tag k="ssr:date" v="2019-12-27" />
		<tag k="ssr:gruppe" v="grunnerISjø" />
		<tag k="ssr:hovedgruppe" v="sjø" />
		<tag k="ssr:stedsnr" v="875280" />
		<tag k="ssr:type" v="grunneISjø" />
	</node>
	<node lat="60.79843055868571" lon="4.912913894083378" id="-75309">
		<tag k="name" v="Sætre" />
		<tag k="natural" v="hill" />
		<tag k="place" v="locality" />
		<tag k="ssr:date" v="2019-12-27" />
		<tag k="ssr:gruppe" v="høyder" />
		<tag k="ssr:hovedgruppe" v="terreng" />
		<tag k="ssr:stedsnr" v="935866" />
		<tag k="ssr:type" v="haug" />
	</node>
	<node lat="60.80321666625433" lon="4.806966671314627" id="-75311">
		<tag k="name" v="Sundflua" />
		<tag k="natural" v="shoal" />
		<tag k="place" v="locality" />
		<tag k="ssr:date" v="2019-12-27" />
		<tag k="ssr:gruppe" v="grunnerISjø" />
		<tag k="ssr:hovedgruppe" v="sjø" />
		<tag k="ssr:stedsnr" v="946764" />
		<tag k="ssr:type" v="grunneISjø" />
	</node>
	<node lat="60.79530277621022" lon="4.789811119501102" id="-75312">
		<tag k="name" v="Lyngokseboen" />
		<tag k="place" v="locality" />
		<tag k="seamark:type" v="rock" />
		<tag k="ssr:date" v="2019-12-27" />
		<tag k="ssr:gruppe" v="grunnerISjø" />
		<tag k="ssr:hovedgruppe" v="sjø" />
		<tag k="ssr:stedsnr" v="946843" />
		<tag k="ssr:type" v="båeISjø" />
	</node>
	<node lat="60.78527222404283" lon="4.81265833626157" id="-75313">
		<tag k="name" v="Nordre Myrbærholmen" />
		<tag k="place" v="islet" />
		<tag k="ssr:date" v="2019-12-27" />
		<tag k="ssr:gruppe" v="kystkontur" />
		<tag k="ssr:hovedgruppe" v="sjø" />
		<tag k="ssr:stedsnr" v="954927" />
		<tag k="ssr:type" v="holmeISjø" />
	</node>
	<node lat="60.81242777504984" lon="4.804125002619707" id="-75314">
		<tag k="name" v="Husøyna" />
		<tag k="place" v="island" />
		<tag k="ssr:date" v="2019-12-27" />
		<tag k="ssr:gruppe" v="kystkontur" />
		<tag k="ssr:hovedgruppe" v="sjø" />
		<tag k="ssr:stedsnr" v="955993" />
		<tag k="ssr:type" v="øyISjø" />
	</node>
	<node lat="60.81817423424332" lon="4.804794680749056" id="-75315">
		<tag k="name" v="Indre Kastholmen" />
		<tag k="place" v="islet" />
		<tag k="ssr:date" v="2019-12-27" />
		<tag k="ssr:gruppe" v="kystkontur" />
		<tag k="ssr:hovedgruppe" v="sjø" />
		<tag k="ssr:stedsnr" v="955831" />
		<tag k="ssr:type" v="holmeISjø" />
	</node>
	<node lat="60.82054166524516" lon="4.778350001077987" id="-75316">
		<tag k="name" v="Kastevågen" />
		<tag k="natural" v="bay" />
		<tag k="ssr:date" v="2019-12-27" />
		<tag k="ssr:gruppe" v="kystkontur" />
		<tag k="ssr:hovedgruppe" v="sjø" />
		<tag k="ssr:stedsnr" v="955837" />
		<tag k="ssr:type" v="vågISjø" />
	</node>
	<node lat="60.82383611092089" lon="4.860497219255935" id="-75317">
		<tag k="name" v="Sengeneset" />
		<tag k="natural" v="cape" />
		<tag k="ssr:date" v="2019-12-27" />
		<tag k="ssr:gruppe" v="kystkontur" />
		<tag k="ssr:hovedgruppe" v="sjø" />
		<tag k="ssr:stedsnr" v="955840" />
		<tag k="ssr:type" v="nesISjø" />
	</node>
	<node lat="60.816027778311536" lon="4.800491667715866" id="-75318">
		<tag k="name" v="Kastholmsundet" />
		<tag k="natural" v="strait" />
		<tag k="ssr:date" v="2019-12-27" />
		<tag k="ssr:gruppe" v="kystkontur" />
		<tag k="ssr:hovedgruppe" v="sjø" />
		<tag k="ssr:stedsnr" v="955842" />
		<tag k="ssr:type" v="sundISjø" />
	</node>
	<node lat="60.79961110765803" lon="4.855524997815964" id="-75319">
		<tag k="name" v="Skarholmen" />
		<tag k="place" v="islet" />
		<tag k="ssr:date" v="2019-12-27" />
		<tag k="ssr:gruppe" v="kystkontur" />
		<tag k="ssr:hovedgruppe" v="sjø" />
		<tag k="ssr:stedsnr" v="955855" />
		<tag k="ssr:type" v="holmeISjø" />
	</node>
	<node lat="60.79272777465934" lon="5.017255557304905" id="-75321">
		<tag k="name" v="Storhaugen" />
		<tag k="natural" v="hill" />
		<tag k="place" v="locality" />
		<tag k="ssr:date" v="2019-12-27" />
		<tag k="ssr:gruppe" v="høyder" />
		<tag k="ssr:hovedgruppe" v="terreng" />
		<tag k="ssr:stedsnr" v="955884" />
		<tag k="ssr:type" v="haug" />
	</node>
	<node lat="60.79947221789042" lon="4.945052776295324" id="-75322">
		<tag k="name" v="Bøneset" />
		<tag k="natural" v="cape" />
		<tag k="ssr:date" v="2019-12-27" />
		<tag k="ssr:gruppe" v="kystkontur" />
		<tag k="ssr:hovedgruppe" v="sjø" />
		<tag k="ssr:stedsnr" v="955902" />
		<tag k="ssr:type" v="nesISjø" />
	</node>
	<node lat="60.80505277786407" lon="4.948336113241806" id="-75323">
		<tag k="name" v="Solisholmbukta" />
		<tag k="natural" v="bay" />
		<tag k="ssr:date" v="2019-12-27" />
		<tag k="ssr:gruppe" v="kystkontur" />
		<tag k="ssr:hovedgruppe" v="sjø" />
		<tag k="ssr:stedsnr" v="955907" />
		<tag k="ssr:type" v="vikISjø" />
	</node>
	<node lat="60.82019721884778" lon="4.769230546813206" id="-75324">
		<tag k="name" v="Vardholmen" />
		<tag k="place" v="islet" />
		<tag k="ssr:date" v="2019-12-27" />
		<tag k="ssr:gruppe" v="kystkontur" />
		<tag k="ssr:hovedgruppe" v="sjø" />
		<tag k="ssr:stedsnr" v="955928" />
		<tag k="ssr:type" v="holmeISjø" />
	</node>
	<node lat="60.75076389025202" lon="4.916383336864746" id="-75326">
		<tag k="name" v="Juvikhaugen" />
		<tag k="natural" v="hill" />
		<tag k="place" v="locality" />
		<tag k="ssr:date" v="2019-12-27" />
		<tag k="ssr:gruppe" v="høyder" />
		<tag k="ssr:hovedgruppe" v="terreng" />
		<tag k="ssr:stedsnr" v="955978" />
		<tag k="ssr:type" v="haug" />
	</node>
	<node lat="60.72861944823124" lon="4.972611102085135" id="-75327">
		<tag k="bridge" v="yes" />
		<tag k="layer" v="1" />
		<tag k="name" v="Fosnstraumen" />
		<tag k="ssr:date" v="2019-12-27" />
		<tag k="ssr:gruppe" v="samferdselsanlegg" />
		<tag k="ssr:hovedgruppe" v="infrastruktur" />
		<tag k="ssr:stedsnr" v="957020" />
		<tag k="ssr:type" v="bru" />
	</node>
	<node lat="60.800224998999354" lon="4.956122224186713" id="-75328">
		<tag k="name" v="Ervikskjera" />
		<tag k="place" v="islet" />
		<tag k="ssr:date" v="2019-12-27" />
		<tag k="ssr:gruppe" v="kystkontur" />
		<tag k="ssr:hovedgruppe" v="sjø" />
		<tag k="ssr:stedsnr" v="966565" />
		<tag k="ssr:type" v="holmeISjø" />
	</node>
	<node lat="60.83188055392698" lon="4.780416665986759" id="-75329">
		<tag k="name" v="Røvelskjerskallen" />
		<tag k="natural" v="shoal" />
		<tag k="place" v="locality" />
		<tag k="ssr:date" v="2019-12-27" />
		<tag k="ssr:gruppe" v="grunnerISjø" />
		<tag k="ssr:hovedgruppe" v="sjø" />
		<tag k="ssr:stedsnr" v="966855" />
		<tag k="ssr:type" v="grunneISjø" />
	</node>
	<node lat="60.829788887354866" lon="4.780213883537706" id="-75330">
		<tag k="name" v="Røvelskjerflua" />
		<tag k="natural" v="shoal" />
		<tag k="place" v="locality" />
		<tag k="ssr:date" v="2019-12-27" />
		<tag k="ssr:gruppe" v="grunnerISjø" />
		<tag k="ssr:hovedgruppe" v="sjø" />
		<tag k="ssr:stedsnr" v="966856" />
		<tag k="ssr:type" v="grunneISjø" />
	</node>
	<node lat="60.78932487338235" lon="4.857186701678315" id="-75405">
		<tag k="name" v="Bønesvika" />
		<tag k="natural" v="bay" />
		<tag k="ssr:date" v="2019-12-27" />
		<tag k="ssr:gruppe" v="kystkontur" />
		<tag k="ssr:hovedgruppe" v="sjø" />
		<tag k="ssr:stedsnr" v="1072113" />
		<tag k="ssr:type" v="vikISjø" />
	</node>
	<node lat="60.81358713526088" lon="4.7915949410072525" id="-75406">
		<tag k="name" v="Rongeværleia" />
		<tag k="natural" v="strait" />
		<tag k="ssr:date" v="2019-12-27" />
		<tag k="ssr:gruppe" v="kystkontur" />
		<tag k="ssr:hovedgruppe" v="sjø" />
		<tag k="ssr:stedsnr" v="1072114" />
		<tag k="ssr:type" v="sundISjø" />
	</node>
	<node lat="60.804769507809176" lon="4.796725441640382" id="-75407">
		<tag k="name" v="Brattholmflua" />
		<tag k="natural" v="shoal" />
		<tag k="place" v="locality" />
		<tag k="ssr:date" v="2019-12-27" />
		<tag k="ssr:gruppe" v="grunnerISjø" />
		<tag k="ssr:hovedgruppe" v="sjø" />
		<tag k="ssr:stedsnr" v="1072116" />
		<tag k="ssr:type" v="grunneISjø" />
	</node>
	<node lat="60.75170883987601" lon="4.984392711337792" id="-75408">
		<tag k="man_made" v="quay" />
		<tag k="name" v="Njøta" />
		<tag k="place" v="locality" />
		<tag k="ssr:date" v="2019-12-27" />
		<tag k="ssr:gruppe" v="sjøfart" />
		<tag k="ssr:hovedgruppe" v="infrastruktur" />
		<tag k="ssr:stedsnr" v="1072188" />
		<tag k="ssr:type" v="kai" />
	</node>
	<node lat="60.81010390240417" lon="4.968386949669391" id="-75410">
		<tag k="name" v="Gylnakken" />
		<tag k="natural" v="cape" />
		<tag k="ssr:date" v="2019-12-27" />
		<tag k="ssr:gruppe" v="kystkontur" />
		<tag k="ssr:hovedgruppe" v="sjø" />
		<tag k="ssr:stedsnr" v="1072191" />
		<tag k="ssr:type" v="nesISjø" />
	</node>
	<node lat="60.80743355419428" lon="4.977475780190273" id="-75411">
		<tag k="name" v="Kolevika" />
		<tag k="natural" v="bay" />
		<tag k="ssr:date" v="2019-12-27" />
		<tag k="ssr:gruppe" v="kystkontur" />
		<tag k="ssr:hovedgruppe" v="sjø" />
		<tag k="ssr:stedsnr" v="1072192" />
		<tag k="ssr:type" v="vikISjø" />
	</node>
</osm>
