<?xml version="1.0" encoding="UTF-8"?>
<osm generator="osmapis" version="0.6">
	<node id="-41983" lat="60.4726805538" lon="11.1167000023">
		<tag k="name" v="Høgdeputten" />
		<tag k="natural" v="water" />
		<tag k="ssr:stedsnr" v="673439" />
	</node>
	<node id="-41980" lat="60.4964999966" lon="11.1689555633">
		<tag k="alt_name" v="Kalbråttåvika" />
		<tag k="name" v="Kalvbråtavika" />
		<tag k="natural" v="bay" />
		<tag k="ssr:stedsnr" v="673415" />
	</node>
	<node id="-41977" lat="60.3368277771" lon="11.3146777801">
		<tag k="name" v="Vidtjennet" />
		<tag k="natural" v="water" />
		<tag k="ssr:stedsnr" v="673114" />
	</node>
	<node id="-41973" lat="60.3973111147" lon="11.2364250074">
		<tag k="name" v="Minnesund" />
		<tag k="natural" v="strait" />
		<tag k="ssr:stedsnr" v="673030" />
	</node>
	<node id="-40946" lat="60.3676444487" lon="11.4158611168">
		<tag k="name" v="Bjugen" />
		<tag k="natural" v="water" />
		<tag k="ssr:stedsnr" v="406075" />
	</node>
	<node id="-40940" lat="60.3496194462" lon="11.2629805623">
		<tag k="name" v="Måevja" />
		<tag k="natural" v="bay" />
		<tag k="ssr:stedsnr" v="404053" />
	</node>
	<node id="-41468" lat="60.2972388886" lon="11.1891722195">
		<tag k="name" v="Venjarfossen" />
		<tag k="natural" v="waterfall" />
		<tag k="ssr:stedsnr" v="241685" />
	</node>
	<node id="-41382" lat="60.29020278" lon="11.3160472298">
		<tag k="name" v="Frilsettjennet" />
		<tag k="natural" v="water" />
		<tag k="ssr:stedsnr" v="188206" />
	</node>
	<node id="-41952" lat="60.5014777773" lon="11.1679722143">
		<tag k="name" v="Nygårdsbekken" />
		<tag k="ssr:stedsnr" v="664305" />
		<tag k="waterway" v="stream" />
	</node>
	<node id="-40927" lat="60.4519500016" lon="11.2725999912">
		<tag k="name" v="Trehørningen" />
		<tag k="natural" v="water" />
		<tag k="ssr:stedsnr" v="370458" />
	</node>
	<node id="-41945" lat="60.3869527819" lon="11.1805305563">
		<tag k="name" v="Gruvebekken" />
		<tag k="ssr:stedsnr" v="662991" />
		<tag k="waterway" v="stream" />
	</node>
	<node id="-40920" lat="60.3006555568" lon="11.3610250015">
		<tag k="name" v="Kvetjennet" />
		<tag k="natural" v="water" />
		<tag k="ssr:stedsnr" v="370192" />
	</node>
	<node id="-40919" lat="60.3172000023" lon="11.376752783">
		<tag k="name" v="Fiskeløysa" />
		<tag k="natural" v="water" />
		<tag k="ssr:stedsnr" v="370160" />
	</node>
	<node id="-41430" lat="60.3961222223" lon="11.2448611091">
		<tag k="name" v="Toftnesevja" />
		<tag k="natural" v="bay" />
		<tag k="ssr:stedsnr" v="224817" />
	</node>
	<node id="-40917" lat="60.323327779" lon="11.1268750017">
		<tag k="name" v="Rødvika" />
		<tag k="natural" v="bay" />
		<tag k="ssr:stedsnr" v="370145" />
	</node>
	<node id="-41426" lat="60.4436305521" lon="11.1207583357">
		<tag k="name" v="Brustadsetervika" />
		<tag k="natural" v="bay" />
		<tag k="ssr:stedsnr" v="224711" />
	</node>
	<node id="-40913" lat="60.3405972236" lon="11.3359500033">
		<tag k="alt_name" v="Morttjennet" />
		<tag k="name" v="Morttjenn" />
		<tag k="natural" v="water" />
		<tag k="ssr:stedsnr" v="370124" />
	</node>
	<node id="-41421" lat="60.2872638859" lon="11.1197916654">
		<tag k="name" v="Bukkeskjærene" />
		<tag k="place" v="islet" />
		<tag k="ssr:stedsnr" v="224531" />
	</node>
	<node id="-41420" lat="60.437911109" lon="11.2477611158">
		<tag k="name" v="Dalsrudbekken" />
		<tag k="ssr:stedsnr" v="224520" />
		<tag k="waterway" v="stream" />
	</node>
	<node id="-42440" lat="60.4529916687" lon="11.120113888">
		<tag k="name" v="Hølbekken" />
		<tag k="ssr:stedsnr" v="952700" />
		<tag k="waterway" v="stream" />
	</node>
	<node id="-40903" lat="60.3680388902" lon="11.387991667">
		<tag k="alt_name" v="Benketjennet" />
		<tag k="name" v="Benketjenn" />
		<tag k="natural" v="water" />
		<tag k="ssr:stedsnr" v="370066" />
	</node>
	<node id="-41414" lat="60.3088055581" lon="11.2797083345">
		<tag k="name" v="Nordtangen" />
		<tag k="natural" v="cape" />
		<tag k="ssr:stedsnr" v="223332" />
	</node>
	<node id="-40899" lat="60.3784138906" lon="11.3989249987">
		<tag k="name" v="Larsputten" />
		<tag k="natural" v="water" />
		<tag k="ssr:stedsnr" v="370046" />
	</node>
	<node id="-40897" lat="60.3775611092" lon="11.206180562">
		<tag k="name" v="Julsrudåa" />
		<tag k="ssr:stedsnr" v="370042" />
		<tag k="waterway" v="stream" />
	</node>
	<node id="-40896" lat="60.3932499984" lon="11.1905055586">
		<tag k="alt_name" v="Stensbyåa" />
		<tag k="name" v="Stensbyelva" />
		<tag k="ssr:stedsnr" v="370040" />
		<tag k="waterway" v="stream" />
	</node>
	<node id="-41918" lat="60.303347219" lon="11.1727666729">
		<tag k="name" v="Sumpen" />
		<tag k="natural" v="water" />
		<tag k="ssr:stedsnr" v="648607" />
		<tag k="water" v="lake" />
	</node>
	<node id="-41400" lat="60.3466027747" lon="11.322213888">
		<tag k="name" v="Fløyta" />
		<tag k="natural" v="water" />
		<tag k="ssr:stedsnr" v="188703" />
		<tag k="water" v="lake" />
	</node>
	<node id="-42423" lat="60.5547249983" lon="11.1073083293">
		<tag k="name" v="Fallabekken" />
		<tag k="ssr:stedsnr" v="950962" />
		<tag k="waterway" v="stream" />
	</node>
	<node id="-41909" lat="60.5499444489" lon="11.1084916608">
		<tag k="name" v="Storvatnbekken" />
		<tag k="ssr:stedsnr" v="647967" />
		<tag k="waterway" v="stream" />
	</node>
	<node id="-41396" lat="60.5240888891" lon="11.1315583411">
		<tag k="name" v="Offsettjennet" />
		<tag k="natural" v="water" />
		<tag k="ssr:stedsnr" v="188546" />
	</node>
	<node id="-41395" lat="60.4781777813" lon="11.2662500054">
		<tag k="name" v="Ulvintjenn" />
		<tag k="natural" v="water" />
		<tag k="ssr:stedsnr" v="188472" />
	</node>
	<node id="-42417" lat="60.3972250017" lon="11.2432055629">
		<tag k="name" v="Storenga" />
		<tag k="natural" v="cape" />
		<tag k="ssr:stedsnr" v="931000" />
	</node>
	<node id="-42416" lat="60.3057833326" lon="11.1165027839">
		<tag k="name" v="Lortvika" />
		<tag k="natural" v="bay" />
		<tag k="ssr:stedsnr" v="930992" />
	</node>
	<node id="-41391" lat="60.2621527778" lon="11.277330555">
		<tag k="alt_name" v="Borstadtjennet" />
		<tag k="name" v="Bårstadtjennet" />
		<tag k="natural" v="water" />
		<tag k="ssr:stedsnr" v="188237" />
	</node>
	<node id="-42413" lat="60.4335250006" lon="11.1661222261">
		<tag k="name" v="Svartputten" />
		<tag k="natural" v="water" />
		<tag k="ssr:stedsnr" v="917463" />
	</node>
	<node id="-42412" lat="60.5321944457" lon="11.1251277843">
		<tag k="name" v="Bladtjennet" />
		<tag k="natural" v="water" />
		<tag k="ssr:stedsnr" v="917455" />
	</node>
	<node id="-42411" lat="60.5393583305" lon="11.146324995">
		<tag k="name" v="Atthaldsdammen" />
		<tag k="natural" v="water" />
		<tag k="ssr:stedsnr" v="917448" />
	</node>
	<node id="-41897" lat="60.4313777762" lon="11.2649000063">
		<tag k="name" v="Helgelitjennet" />
		<tag k="natural" v="water" />
		<tag k="ssr:stedsnr" v="613497" />
	</node>
	<node id="-41392" lat="60.2500944432" lon="11.2538833367">
		<tag k="alt_name" v="Svintjennet" />
		<tag k="name" v="Svintjenn" />
		<tag k="natural" v="water" />
		<tag k="ssr:stedsnr" v="188251" />
	</node>
	<node id="-41895" lat="60.4470083311" lon="11.3335499913">
		<tag k="name" v="Grønnsjøen" />
		<tag k="natural" v="water" />
		<tag k="ssr:stedsnr" v="613468" />
		<tag k="water" v="lake" />
	</node>
	<node id="-41894" lat="60.4120111128" lon="11.1969555516">
		<tag k="name" v="Byrudelva" />
		<tag k="ssr:stedsnr" v="613454" />
		<tag k="waterway" v="stream" />
	</node>
	<node id="-41381" lat="60.3412888876" lon="11.149574998">
		<tag k="name" v="Parisbekken" />
		<tag k="ssr:stedsnr" v="188131" />
		<tag k="waterway" v="stream" />
	</node>
	<node id="-40868" lat="60.3233861101" lon="11.3940027705">
		<tag k="name" v="Settungen" />
		<tag k="natural" v="water" />
		<tag k="ssr:stedsnr" v="361000" />
		<tag k="water" v="lake" />
	</node>
	<node id="-41379" lat="60.3408833368" lon="11.3780694438">
		<tag k="alt_name" v="Tretjennet" />
		<tag k="name" v="Tretjenn" />
		<tag k="natural" v="water" />
		<tag k="ssr:stedsnr" v="188118" />
	</node>
	<node id="-42400" lat="60.4656916653" lon="11.1553777848">
		<tag k="name" v="Trilterudbekken" />
		<tag k="ssr:stedsnr" v="916458" />
		<tag k="waterway" v="stream" />
	</node>
	<node id="-41943" lat="60.3853222263" lon="11.1830166643">
		<tag k="name" v="Breibekken" />
		<tag k="ssr:stedsnr" v="662981" />
		<tag k="waterway" v="stream" />
	</node>
	<node id="-40862" lat="60.3720166671" lon="11.2281277767">
		<tag k="name" v="Julsruddalsevja" />
		<tag k="natural" v="bay" />
		<tag k="ssr:stedsnr" v="358985" />
	</node>
	<node id="-42390" lat="60.2840250031" lon="11.1248250024">
		<tag k="name" v="Frankøya" />
		<tag k="place" v="islet" />
		<tag k="ssr:stedsnr" v="916168" />
	</node>
	<node id="-41877" lat="60.407574997" lon="11.1456250063">
		<tag k="alt_name" v="Tisjøen, vesle" />
		<tag k="name" v="Vesle Tisjøen" />
		<tag k="natural" v="water" />
		<tag k="ssr:stedsnr" v="612498" />
	</node>
	<node id="-42387" lat="60.3164777793" lon="11.3395305636">
		<tag k="alt_name" v="Lomtjennet" />
		<tag k="name" v="Lomtjenn" />
		<tag k="natural" v="water" />
		<tag k="ssr:stedsnr" v="916139" />
	</node>
	<node id="-40846" lat="60.3939305527" lon="11.2330916744">
		<tag k="name" v="Minnevika" />
		<tag k="natural" v="bay" />
		<tag k="ssr:stedsnr" v="345808" />
	</node>
	<node id="-41865" lat="60.3567444428" lon="11.3814527791">
		<tag k="name" v="Sandholttjennet" />
		<tag k="natural" v="water" />
		<tag k="ssr:stedsnr" v="612114" />
	</node>
	<node id="-41350" lat="60.2959527745" lon="11.1909138922">
		<tag k="name" v="Badevika" />
		<tag k="natural" v="bay" />
		<tag k="ssr:stedsnr" v="180689" />
	</node>
	<node id="-41878" lat="60.4167083375" lon="11.177291673">
		<tag k="name" v="Himtjenn" />
		<tag k="natural" v="water" />
		<tag k="ssr:stedsnr" v="612520" />
	</node>
	<node id="-40834" lat="60.2844916662" lon="11.1313361025">
		<tag k="name" v="Skjul" />
		<tag k="place" v="islet" />
		<tag k="ssr:stedsnr" v="345499" />
	</node>
	<node id="-41857" lat="60.4028999992" lon="11.334894449">
		<tag k="alt_name" v="Rumpetjennet" />
		<tag k="name" v="Rumpetjenn" />
		<tag k="natural" v="water" />
		<tag k="ssr:stedsnr" v="612013" />
	</node>
	<node id="-41510" lat="60.262569442" lon="11.1710194521">
		<tag k="name" v="Køla" />
		<tag k="natural" v="water" />
		<tag k="ssr:stedsnr" v="479791" />
	</node>
	<node id="-42365" lat="60.3169750007" lon="11.3813472133">
		<tag k="name" v="Vesle Fiskeløysa" />
		<tag k="natural" v="water" />
		<tag k="ssr:stedsnr" v="907476" />
	</node>
	<node id="-41336" lat="60.2797499958" lon="11.1166111081">
		<tag k="name" v="Bergersundet" />
		<tag k="natural" v="strait" />
		<tag k="ssr:stedsnr" v="176782" />
	</node>
	<node id="-41331" lat="60.3861833339" lon="11.3935861148">
		<tag k="name" v="Tretjenna" />
		<tag k="natural" v="water" />
		<tag k="ssr:stedsnr" v="168171" />
	</node>
	<node id="-42351" lat="60.3814222208" lon="11.3163555603">
		<tag k="name" v="Fiskeløysa" />
		<tag k="natural" v="water" />
		<tag k="ssr:stedsnr" v="905773" />
	</node>
	<node id="-40813" lat="60.512711111" lon="11.15465278">
		<tag k="name" v="Sandbekken" />
		<tag k="ssr:stedsnr" v="310501" />
		<tag k="waterway" v="stream" />
	</node>
	<node id="-41835" lat="60.4744916649" lon="11.2834277815">
		<tag k="name" v="Skrårudseterbekken" />
		<tag k="ssr:stedsnr" v="603389" />
		<tag k="waterway" v="stream" />
	</node>
	<node id="-40810" lat="60.4368527742" lon="11.1519944354">
		<tag k="alt_name" v="Byua, store" />
		<tag k="name" v="Store Byua" />
		<tag k="natural" v="water" />
		<tag k="ssr:stedsnr" v="310471" />
	</node>
	<node id="-40809" lat="60.4375249981" lon="11.3489750069">
		<tag k="name" v="Raudvatnet" />
		<tag k="natural" v="water" />
		<tag k="ssr:stedsnr" v="310464" />
	</node>
	<node id="-42344" lat="60.5637249966" lon="11.1315222165">
		<tag k="name" v="Skomakartjennet" />
		<tag k="natural" v="water" />
		<tag k="ssr:stedsnr" v="857416" />
	</node>
	<node id="-42343" lat="60.4289222242" lon="11.3491361128">
		<tag k="name" v="Lønntjennet" />
		<tag k="natural" v="water" />
		<tag k="ssr:stedsnr" v="856545" />
	</node>
	<node id="-42342" lat="60.4404250044" lon="11.1350999965">
		<tag k="name" v="Agavatnet" />
		<tag k="natural" v="water" />
		<tag k="ssr:stedsnr" v="856527" />
	</node>
	<node id="-42340" lat="60.4709333316" lon="11.1810333388">
		<tag k="name" v="Ekornholmen" />
		<tag k="place" v="islet" />
		<tag k="ssr:stedsnr" v="856481" />
	</node>
	<node id="-41315" lat="60.4580833335" lon="11.2948249928">
		<tag k="name" v="Lysjøåa" />
		<tag k="ssr:stedsnr" v="163690" />
		<tag k="waterway" v="river" />
	</node>
	<node id="-40800" lat="60.2956277794" lon="11.1174027735">
		<tag k="name" v="Nordre Kvernvika" />
		<tag k="natural" v="bay" />
		<tag k="ssr:stedsnr" v="309944" />
	</node>
	<node id="-42333" lat="60.3182166651" lon="11.165877784">
		<tag k="name" v="Nessa" />
		<tag k="ssr:stedsnr" v="856154" />
		<tag k="waterway" v="stream" />
	</node>
	<node id="-41306" lat="60.2881361141" lon="11.1548388971">
		<tag k="name" v="Martiniustjennet" />
		<tag k="natural" v="water" />
		<tag k="ssr:stedsnr" v="163504" />
	</node>
	<node id="-41817" lat="60.272197225" lon="11.1296138958">
		<tag k="name" v="Elvebekken" />
		<tag k="ssr:stedsnr" v="600791" />
		<tag k="waterway" v="stream" />
	</node>
	<node id="-41206" lat="60.4011999964" lon="11.1521833292">
		<tag k="name" v="Karusstjennet" />
		<tag k="natural" v="water" />
		<tag k="ssr:stedsnr" v="102859" />
	</node>
	<node id="-41564" lat="60.4616249955" lon="11.3182722304">
		<tag k="name" v="Digerauget" />
		<tag k="natural" v="water" />
		<tag k="ssr:stedsnr" v="431439" />
	</node>
	<node id="-41294" lat="60.5295111146" lon="11.1546444515">
		<tag k="name" v="Kolltjennet" />
		<tag k="natural" v="water" />
		<tag k="ssr:stedsnr" v="161022" />
	</node>
	<node id="-41293" lat="60.5388305587" lon="11.1764694474">
		<tag k="name" v="Skautjennet" />
		<tag k="natural" v="water" />
		<tag k="ssr:stedsnr" v="161023" />
	</node>
	<node id="-41285" lat="60.4214944465" lon="11.2883027718">
		<tag k="name" v="Fløyta" />
		<tag k="natural" v="water" />
		<tag k="ssr:stedsnr" v="127545" />
		<tag k="water" v="lake" />
	</node>
	<node id="-41284" lat="60.4237589795" lon="11.3569062115">
		<tag k="alt_name" v="Holsjøen, nordre;Nordre Holsjø" />
		<tag k="loc_name" v="Øvre Holsjøen" />
		<tag k="name" v="Nordre Holsjøen" />
		<tag k="natural" v="water" />
		<tag k="ssr:stedsnr" v="127520" />
		<tag k="water" v="lake" />
	</node>
	<node id="-41283" lat="60.4327500015" lon="11.3405527745">
		<tag k="name" v="Putten" />
		<tag k="natural" v="water" />
		<tag k="ssr:stedsnr" v="127486" />
	</node>
	<node id="-41793" lat="60.3922333307" lon="11.1506472306">
		<tag k="name" v="Slåssvangputten" />
		<tag k="natural" v="water" />
		<tag k="ssr:stedsnr" v="587842" />
	</node>
	<node id="-40768" lat="60.2986833339" lon="11.1860833306">
		<tag k="name" v="Eivindsvika" />
		<tag k="natural" v="bay" />
		<tag k="ssr:stedsnr" v="301688" />
	</node>
	<node id="-41279" lat="60.4577916659" lon="11.1199000055">
		<tag k="alt_name" v="Nordre Morttjenn" />
		<tag k="name" v="Nordre Morttjennet" />
		<tag k="natural" v="water" />
		<tag k="ssr:stedsnr" v="127449" />
	</node>
	<node id="-41788" lat="60.2958249967" lon="11.1526138854">
		<tag k="name" v="Skriverodden" />
		<tag k="natural" v="cape" />
		<tag k="ssr:stedsnr" v="587579" />
	</node>
	<node id="-41787" lat="60.2943277741" lon="11.1458194483">
		<tag k="name" v="Gudbrandsodden" />
		<tag k="natural" v="cape" />
		<tag k="ssr:stedsnr" v="587576" />
	</node>
	<node id="-40928" lat="60.4479749988" lon="11.3157833272">
		<tag k="name" v="Grønnsjøbekken" />
		<tag k="ssr:stedsnr" v="370459" />
		<tag k="waterway" v="stream" />
	</node>
	<node id="-41272" lat="60.318158337" lon="11.1182000042">
		<tag k="name" v="Larsvika" />
		<tag k="natural" v="bay" />
		<tag k="ssr:stedsnr" v="127144" />
	</node>
	<node id="-41781" lat="60.5509972248" lon="11.1484499967">
		<tag k="name" v="Daltjennet" />
		<tag k="natural" v="water" />
		<tag k="ssr:stedsnr" v="586939" />
	</node>
	<node id="-42290" lat="60.5162138923" lon="11.1173944484">
		<tag k="name" v="Støputten" />
		<tag k="natural" v="water" />
		<tag k="ssr:stedsnr" v="847354" />
		<tag k="water" v="pond" />
	</node>
	<node id="-41777" lat="60.357169447" lon="11.1079055598">
		<tag k="name" v="Linbroktjennet" />
		<tag k="natural" v="water" />
		<tag k="ssr:stedsnr" v="586243" />
	</node>
	<node id="-42283" lat="60.2817166672" lon="11.1121611102">
		<tag k="name" v="Kuodden" />
		<tag k="place" v="islet" />
		<tag k="ssr:stedsnr" v="844791" />
	</node>
	<node id="-41255" lat="60.3533611121" lon="11.1366750085">
		<tag k="name" v="Rømdalsputten" />
		<tag k="natural" v="water" />
		<tag k="ssr:stedsnr" v="127065" />
	</node>
	<node id="-40741" lat="60.4317694422" lon="11.14360833">
		<tag k="name" v="Kinngåsputten" />
		<tag k="natural" v="water" />
		<tag k="ssr:stedsnr" v="285843" />
	</node>
	<node id="-41762" lat="60.3037611148" lon="11.1170361075">
		<tag k="name" v="Brennbergodden" />
		<tag k="natural" v="cape" />
		<tag k="ssr:stedsnr" v="565993" />
	</node>
	<node id="-41761" lat="60.5311694428" lon="11.1059222139">
		<tag k="name" v="Syljutjennet" />
		<tag k="natural" v="water" />
		<tag k="ssr:stedsnr" v="553469" />
	</node>
	<node id="-42271" lat="60.2849027745" lon="11.1134166658">
		<tag k="name" v="Vadraget" />
		<tag k="natural" v="bay" />
		<tag k="ssr:stedsnr" v="831522" />
	</node>
	<node id="-41246" lat="60.3036027797" lon="11.2959805528">
		<tag k="name" v="Jondalsåa" />
		<tag k="ssr:stedsnr" v="119725" />
		<tag k="waterway" v="river" />
	</node>
	<node id="-41245" lat="60.2955805513" lon="11.2928666662">
		<tag k="name" v="Langåa" />
		<tag k="natural" v="bay" />
		<tag k="ssr:stedsnr" v="119726" />
	</node>
	<node id="-42268" lat="60.2958222262" lon="11.1637777825">
		<tag k="name" v="Perssvingen" />
		<tag k="place" v="locality" />
		<tag k="ssr:stedsnr" v="831509" />
	</node>
	<node id="-41755" lat="60.4423750031" lon="11.1437750055">
		<tag k="alt_name" v="Byua, vesle" />
		<tag k="name" v="Vesle Byua" />
		<tag k="natural" v="water" />
		<tag k="ssr:stedsnr" v="552519" />
	</node>
	<node id="-42264" lat="60.3057166651" lon="11.2061055535">
		<tag k="name" v="Nesfossen" />
		<tag k="natural" v="waterfall" />
		<tag k="ssr:stedsnr" v="830275" />
	</node>
	<node id="-41092" lat="60.2863027766" lon="11.1180666629">
		<tag k="name" v="Tollskjæret" />
		<tag k="place" v="islet" />
		<tag k="ssr:stedsnr" v="42534" />
	</node>
	<node id="-40726" lat="60.309525004" lon="11.2847722155">
		<tag k="name" v="Vålerevja" />
		<tag k="natural" v="bay" />
		<tag k="ssr:stedsnr" v="284324" />
	</node>
	<node id="-40725" lat="60.3089694457" lon="11.2790138949">
		<tag k="name" v="Strandsevja" />
		<tag k="natural" v="bay" />
		<tag k="ssr:stedsnr" v="284323" />
	</node>
	<node id="-41745" lat="60.3229722199" lon="11.3179722243">
		<tag k="name" v="Jøndalsåa" />
		<tag k="ssr:stedsnr" v="552154" />
		<tag k="waterway" v="river" />
	</node>
	<node id="-41744" lat="60.3173305584" lon="11.3450805549">
		<tag k="alt_name" v="Setertjennet" />
		<tag k="name" v="Setertjenn" />
		<tag k="natural" v="water" />
		<tag k="ssr:stedsnr" v="552137" />
	</node>
	<node id="-42456" lat="60.5140472205" lon="11.1208249939">
		<tag k="name" v="Stårrputten" />
		<tag k="natural" v="water" />
		<tag k="ssr:stedsnr" v="968350" />
	</node>
	<node id="-41517" lat="60.383438889" lon="11.246472219">
		<tag k="name" v="Fremminøya" />
		<tag k="place" v="islet" />
		<tag k="ssr:stedsnr" v="419958" />
	</node>
	<node id="-42249" lat="60.354408332" lon="11.340691663">
		<tag k="name" v="Rennåa" />
		<tag k="ssr:stedsnr" v="829016" />
		<tag k="waterway" v="river" />
	</node>
	<node id="-41736" lat="60.3649111088" lon="11.1438944407">
		<tag k="name" v="Røssbekken" />
		<tag k="ssr:stedsnr" v="552065" />
		<tag k="waterway" v="stream" />
	</node>
	<node id="-41345" lat="60.5094897456" lon="11.1524669616">
		<tag k="name" v="Stutjennet" />
		<tag k="natural" v="water" />
		<tag k="ssr:stedsnr" v="179320" />
	</node>
	<node id="-42243" lat="60.5030833291" lon="11.0812805608">
		<tag k="alt_name" v="Kleivtjennet" />
		<tag k="name" v="Kleivtjenn" />
		<tag k="natural" v="water" />
		<tag k="ssr:stedsnr" v="796728" />
	</node>
	<node id="-41728" lat="60.401477776" lon="11.310300008">
		<tag k="name" v="Ristjennet" />
		<tag k="natural" v="water" />
		<tag k="ssr:stedsnr" v="552011" />
	</node>
	<node id="-42235" lat="60.4241111133" lon="11.2744750047">
		<tag k="name" v="Holtsjøen" />
		<tag k="natural" v="water" />
		<tag k="ssr:stedsnr" v="795544" />
		<tag k="water" v="lake" />
	</node>
	<node id="-42230" lat="60.4581999964" lon="11.3286861098">
		<tag k="name" v="Ottbekken" />
		<tag k="ssr:stedsnr" v="795475" />
		<tag k="waterway" v="stream" />
	</node>
	<node id="-41205" lat="60.3993861088" lon="11.1698361133">
		<tag k="name" v="Julsrudbekken" />
		<tag k="ssr:stedsnr" v="102858" />
		<tag k="waterway" v="stream" />
	</node>
	<node id="-41712" lat="60.3421111104" lon="11.2566055536">
		<tag k="name" v="Sandholtevja" />
		<tag k="natural" v="bay" />
		<tag k="ssr:stedsnr" v="544364" />
	</node>
	<node id="-42223" lat="60.2791749964" lon="11.1195500038">
		<tag k="name" v="Skurvøya" />
		<tag k="place" v="islet" />
		<tag k="ssr:stedsnr" v="795218" />
	</node>
	<node id="-42221" lat="60.2835749997" lon="11.1158194513">
		<tag k="name" v="Bergerøya" />
		<tag k="place" v="island" />
		<tag k="ssr:stedsnr" v="795206" />
	</node>
	<node id="-40999" lat="60.3480361093" lon="11.0403250073">
		<tag k="name" v="Hurdalssjøen" />
		<tag k="natural" v="water" />
		<tag k="ssr:stedsnr" v="384430" />
		<tag k="water" v="lake" />
	</node>
	<node id="-42216" lat="60.3080000037" lon="11.3749000017">
		<tag k="alt_name" v="Svartpytt, vestre;Vestre Svartputten" />
		<tag k="name" v="Vestre Svartpytt" />
		<tag k="natural" v="water" />
		<tag k="ssr:stedsnr" v="795183" />
		<tag k="water" v="pond" />
	</node>
	<node id="-41702" lat="60.51976389" lon="11.109191673">
		<tag k="name" v="Sølvputten" />
		<tag k="natural" v="water" />
		<tag k="ssr:stedsnr" v="543351" />
		<tag k="water" v="pond" />
	</node>
	<node id="-41937" lat="60.2569750003" lon="11.2460611048">
		<tag k="name" v="Svintjennsbekken" />
		<tag k="ssr:stedsnr" v="661756" />
		<tag k="waterway" v="stream" />
	</node>
	<node id="-42211" lat="60.330030557" lon="11.3268416649">
		<tag k="name" v="Jønsjøen" />
		<tag k="natural" v="water" />
		<tag k="ssr:stedsnr" v="795145" />
		<tag k="water" v="lake" />
	</node>
	<node id="-42210" lat="60.3445777789" lon="11.3516222137">
		<tag k="alt_name" v="Rautjennet" />
		<tag k="name" v="Raudtjenn" />
		<tag k="natural" v="water" />
		<tag k="ssr:stedsnr" v="795138" />
	</node>
	<node id="-41189" lat="60.3617888895" lon="11.1094166588">
		<tag k="name" v="Kyllingtjennet" />
		<tag k="natural" v="water" />
		<tag k="ssr:stedsnr" v="101223" />
	</node>
	<node id="-41694" lat="60.3749361132" lon="11.2504416699">
		<tag k="name" v="Smørtynnevja" />
		<tag k="natural" v="bay" />
		<tag k="ssr:stedsnr" v="540974" />
	</node>
	<node id="-41181" lat="60.5112583379" lon="11.0979083301">
		<tag k="name" v="Åstjennet" />
		<tag k="natural" v="water" />
		<tag k="ssr:stedsnr" v="67532" />
	</node>
	<node id="-41691" lat="60.3849194484" lon="11.2534333356">
		<tag k="name" v="Lynesdalsevja" />
		<tag k="natural" v="bay" />
		<tag k="ssr:stedsnr" v="540963" />
	</node>
	<node id="-42201" lat="60.3948999963" lon="11.3289750061">
		<tag k="name" v="Svartputten" />
		<tag k="natural" v="water" />
		<tag k="ssr:stedsnr" v="795040" />
	</node>
	<node id="-41778" lat="60.3689944403" lon="11.1223972242">
		<tag k="name" v="Buksetjennet" />
		<tag k="natural" v="water" />
		<tag k="ssr:stedsnr" v="586251" />
	</node>
	<node id="-41175" lat="60.4534833373" lon="11.1264555483">
		<tag k="alt_name" v="Søndre Morttjenn" />
		<tag k="name" v="Søndre Morttjennet" />
		<tag k="natural" v="water" />
		<tag k="ssr:stedsnr" v="67439" />
	</node>
	<node id="-41172" lat="60.2683777784" lon="11.2716694479">
		<tag k="alt_name" v="Vardumstjennet" />
		<tag k="name" v="Vardrumstjennet" />
		<tag k="natural" v="water" />
		<tag k="ssr:stedsnr" v="67239" />
	</node>
	<node id="-41680" lat="60.4011749982" lon="11.3603888942">
		<tag k="name" v="Åa" />
		<tag k="ssr:stedsnr" v="527872" />
		<tag k="waterway" v="river" />
	</node>
	<node id="-41164" lat="60.3607805599" lon="11.4183249939">
		<tag k="name" v="Bjugåa" />
		<tag k="ssr:stedsnr" v="67082" />
		<tag k="waterway" v="river" />
	</node>
	<node id="-41673" lat="60.2852722261" lon="11.1263027746">
		<tag k="name" v="Store Sundgapet" />
		<tag k="natural" v="strait" />
		<tag k="ssr:stedsnr" v="527564" />
	</node>
	<node id="-41159" lat="60.3051527784" lon="11.3697499985">
		<tag k="name" v="Tretjennet" />
		<tag k="natural" v="water" />
		<tag k="ssr:stedsnr" v="67184" />
	</node>
	<node id="-41156" lat="60.309575001" lon="11.3367833375">
		<tag k="name" v="Igleputten" />
		<tag k="natural" v="water" />
		<tag k="ssr:stedsnr" v="67166" />
	</node>
	<node id="-41665" lat="60.5451750034" lon="11.1530249956">
		<tag k="name" v="Alnesputten" />
		<tag k="natural" v="water" />
		<tag k="ssr:stedsnr" v="526950" />
	</node>
	<node id="-42176" lat="60.4638861114" lon="11.3030027687">
		<tag k="name" v="Pinnfellvika" />
		<tag k="natural" v="bay" />
		<tag k="ssr:stedsnr" v="786900" />
	</node>
	<node id="-42172" lat="60.5082027779" lon="11.1331750026">
		<tag k="name" v="Åtjenn" />
		<tag k="natural" v="water" />
		<tag k="ssr:stedsnr" v="786311" />
	</node>
	<node id="-41654" lat="60.3633277779" lon="11.254372231">
		<tag k="name" v="Rønsenevja" />
		<tag k="natural" v="bay" />
		<tag k="ssr:stedsnr" v="525001" />
	</node>
	<node id="-42165" lat="60.3867222219" lon="11.1933833257">
		<tag k="name" v="Stensbydammen" />
		<tag k="natural" v="water" />
		<tag k="ssr:stedsnr" v="783985" />
	</node>
	<node id="-41649" lat="60.4100194463" lon="11.2942166649">
		<tag k="name" v="Djupdalsbekken" />
		<tag k="ssr:stedsnr" v="505976" />
		<tag k="waterway" v="stream" />
	</node>
	<node id="-41648" lat="60.2926611109" lon="11.1152583315">
		<tag k="name" v="Søndre Kvernvika" />
		<tag k="natural" v="bay" />
		<tag k="ssr:stedsnr" v="505933" />
	</node>
	<node id="-42013" lat="60.2907333307" lon="11.1375499908">
		<tag k="name" v="Langholmen" />
		<tag k="place" v="islet" />
		<tag k="ssr:stedsnr" v="709549" />
	</node>
	<node id="-41927" lat="60.4019138906" lon="11.1496694371">
		<tag k="name" v="Henriksputten" />
		<tag k="natural" v="water" />
		<tag k="ssr:stedsnr" v="648838" />
		<tag k="water" v="pond" />
	</node>
	<node id="-42151" lat="60.405961108" lon="11.1477027764">
		<tag k="name" v="Fløyta" />
		<tag k="natural" v="water" />
		<tag k="ssr:stedsnr" v="770826" />
	</node>
	<node id="-41123" lat="60.4941527821" lon="11.165497231">
		<tag k="name" v="Flesvika" />
		<tag k="natural" v="bay" />
		<tag k="ssr:stedsnr" v="58415" />
	</node>
	<node id="-41634" lat="60.3095000011" lon="11.3911499991">
		<tag k="alt_name" v="Svartpytt, østre;Østre Svartputten" />
		<tag k="name" v="Østre Svartpytt" />
		<tag k="natural" v="water" />
		<tag k="ssr:stedsnr" v="491156" />
	</node>
	<node id="-42143" lat="60.3834472184" lon="11.1652000037">
		<tag k="name" v="Askjumbekken" />
		<tag k="ssr:stedsnr" v="770079" />
		<tag k="waterway" v="stream" />
	</node>
	<node id="-41118" lat="60.3368777807" lon="11.1176472279">
		<tag k="name" v="Bønseterbekken" />
		<tag k="ssr:stedsnr" v="57990" />
		<tag k="waterway" v="stream" />
	</node>
	<node id="-41116" lat="60.3399555576" lon="11.1569333292">
		<tag k="name" v="Sjøtangen" />
		<tag k="natural" v="cape" />
		<tag k="ssr:stedsnr" v="57883" />
	</node>
	<node id="-41839" lat="60.3279472259" lon="11.2627472155">
		<tag k="name" v="Sundevja" />
		<tag k="natural" v="bay" />
		<tag k="ssr:stedsnr" v="604401" />
	</node>
	<node id="-42009" lat="60.5220861117" lon="11.1388249917">
		<tag k="name" v="Svartputten" />
		<tag k="natural" v="water" />
		<tag k="ssr:stedsnr" v="708033" />
	</node>
	<node id="-41070" lat="60.4667611113" lon="11.2981750016">
		<tag k="name" v="Lysjøen" />
		<tag k="natural" v="water" />
		<tag k="old_name" v="Lysjø" />
		<tag k="ssr:stedsnr" v="6440" />
		<tag k="water" v="lake" />
	</node>
	<node id="-41240" lat="60.3297888914" lon="11.2458638822">
		<tag k="name" v="Holsevja" />
		<tag k="natural" v="bay" />
		<tag k="ssr:stedsnr" v="119413" />
	</node>
	<node id="-41614" lat="60.4944722248" lon="11.1675222186">
		<tag k="name" v="Bærtangen" />
		<tag k="natural" v="cape" />
		<tag k="ssr:stedsnr" v="482377" />
	</node>
	<node id="-42124" lat="60.5165333314" lon="11.1193666735">
		<tag k="name" v="Flesvikelva" />
		<tag k="ssr:stedsnr" v="735479" />
		<tag k="waterway" v="stream" />
	</node>
	<node id="-41606" lat="60.3760722234" lon="11.3356777811">
		<tag k="name" v="Sjøbotn" />
		<tag k="natural" v="bay" />
		<tag k="ssr:stedsnr" v="480778" />
	</node>
	<node id="-41153" lat="60.3938027776" lon="11.140294448">
		<tag k="name" v="Tasketjennet" />
		<tag k="natural" v="water" />
		<tag k="ssr:stedsnr" v="67001" />
	</node>
	<node id="-41341" lat="60.3415083366" lon="11.1604083327">
		<tag k="name" v="Lauvodden" />
		<tag k="natural" v="cape" />
		<tag k="ssr:stedsnr" v="178866" />
	</node>
	<node id="-42115" lat="60.4737472219" lon="11.1082944444">
		<tag k="name" v="Brågåtjenna" />
		<tag k="natural" v="water" />
		<tag k="ssr:stedsnr" v="734459" />
	</node>
	<node id="-41067" lat="60.480949996" lon="11.0994499982">
		<tag k="alt_name" v="Agavatn" />
		<tag k="name" v="Agavatnet" />
		<tag k="natural" v="water" />
		<tag k="ssr:stedsnr" v="6420" />
	</node>
	<node id="-41597" lat="60.4018305554" lon="11.2788416674">
		<tag k="loc_name" v="Lya" />
		<tag k="name" v="Holtåa" />
		<tag k="ssr:stedsnr" v="466880" />
		<tag k="waterway" v="river" />
	</node>
	<node id="-41834" lat="60.4623611143" lon="11.2963444523">
		<tag k="name" v="Lysjødammen" />
		<tag k="ssr:stedsnr" v="603387" />
		<tag k="waterway" v="dam" />
	</node>
	<node id="-42106" lat="60.2651713339" lon="11.1941536403">
		<tag k="alt_name" v="Huldretjenn" />
		<tag k="name" v="Huldertjennet" />
		<tag k="natural" v="water" />
		<tag k="ssr:stedsnr" v="734222" />
	</node>
	<node id="-41591" lat="60.2828249988" lon="11.1237388904">
		<tag k="name" v="Veslesundet" />
		<tag k="natural" v="strait" />
		<tag k="ssr:stedsnr" v="466581" />
	</node>
	<node id="-41073" lat="60.4448750008" lon="11.1591444522">
		<tag k="name" v="Årnestjenn" />
		<tag k="natural" v="water" />
		<tag k="ssr:stedsnr" v="6494" />
	</node>
	<node id="-41177" lat="60.4276361151" lon="11.1664305531">
		<tag k="name" v="Langtjenn" />
		<tag k="natural" v="water" />
		<tag k="ssr:stedsnr" v="67478" />
	</node>
	<node id="-42094" lat="60.3724027742" lon="11.3200305643">
		<tag k="name" v="Ørkyttjennet" />
		<tag k="natural" v="water" />
		<tag k="ssr:stedsnr" v="734062" />
	</node>
	<node id="-42092" lat="60.3690111119" lon="11.1741444451">
		<tag k="name" v="Gørstadtjennet" />
		<tag k="natural" v="water" />
		<tag k="ssr:stedsnr" v="734055" />
	</node>
	<node id="-42091" lat="60.3669000046" lon="11.117780552">
		<tag k="name" v="Djuptjenn" />
		<tag k="natural" v="water" />
		<tag k="ssr:stedsnr" v="734053" />
	</node>
	<node id="-41063" lat="60.296247221" lon="11.3456861124">
		<tag k="alt_name" v="Storrtjennet" />
		<tag k="name" v="Starrtjennet" />
		<tag k="natural" v="water" />
		<tag k="ssr:stedsnr" v="6172" />
	</node>
	<node id="-41062" lat="60.3080888927" lon="11.2307749965">
		<tag k="name" v="Andelva" />
		<tag k="ssr:stedsnr" v="6143" />
		<tag k="waterway" v="river" />
	</node>
	<node id="-42085" lat="60.2731444481" lon="11.2089194508">
		<tag k="name" v="Risa" />
		<tag k="ssr:stedsnr" v="733302" />
		<tag k="waterway" v="river" />
	</node>
	<node id="-41570" lat="60.529022226" lon="11.1342333317">
		<tag k="name" v="Disserudtjennet" />
		<tag k="natural" v="water" />
		<tag k="ssr:stedsnr" v="432455" />
	</node>
	<node id="-41566" lat="60.5016249967" lon="11.0999083406">
		<tag k="name" v="Damtjennet" />
		<tag k="natural" v="water" />
		<tag k="ssr:stedsnr" v="431475" />
	</node>
	<node id="-41565" lat="60.4806388919" lon="11.1954055554">
		<tag k="name" v="Mjøsa" />
		<tag k="natural" v="water" />
		<tag k="ssr:stedsnr" v="431452" />
		<tag k="water" v="lake" />
	</node>
	<node id="-42076" lat="60.4579222236" lon="11.3381333386">
		<tag k="name" v="Durålvika" />
		<tag k="natural" v="bay" />
		<tag k="ssr:stedsnr" v="726897" />
	</node>
	<node id="-41756" lat="60.4407000032" lon="11.3572833314">
		<tag k="fixme" v="multiple name tags, choose one and add the other to alt_name" />
		<tag k="name" v="Røyvatnet;Vesle Raudvatnet" />
		<tag k="natural" v="water" />
		<tag k="ssr:stedsnr" v="552530" />
	</node>
	<node id="-42072" lat="60.2879805594" lon="11.29595277">
		<tag k="name" v="Hummelievja" />
		<tag k="natural" v="bay" />
		<tag k="ssr:stedsnr" v="726690" />
	</node>
	<node id="-41047" lat="60.3888555556" lon="11.2732222275">
		<tag k="name" v="Holtdammen" />
		<tag k="natural" v="water" />
		<tag k="ssr:stedsnr" v="6031" />
	</node>
	<node id="-41044" lat="60.403252779" lon="11.3788250061">
		<tag k="name" v="Røysitjennet" />
		<tag k="natural" v="water" />
		<tag k="ssr:stedsnr" v="6009" />
	</node>
	<node id="-42066" lat="60.4795944428" lon="11.2574194355">
		<tag k="name" v="Ulvinbekken" />
		<tag k="ssr:stedsnr" v="726288" />
		<tag k="waterway" v="stream" />
	</node>
	<node id="-41551" lat="60.3332277759" lon="11.1325222311">
		<tag k="name" v="Makrellbekken" />
		<tag k="ssr:stedsnr" v="431134" />
		<tag k="waterway" v="stream" />
	</node>
	<node id="-41550" lat="60.3340972231" lon="11.1581055526">
		<tag k="name" v="Netsjøen" />
		<tag k="natural" v="water" />
		<tag k="ssr:stedsnr" v="431133" />
		<tag k="water" v="lake" />
	</node>
	<node id="-41244" lat="60.2984166678" lon="11.2930277801">
		<tag k="name" v="Sagåa" />
		<tag k="natural" v="bay" />
		<tag k="ssr:stedsnr" v="119722" />
	</node>
	<node id="-42058" lat="60.5095305552" lon="11.1488361188">
		<tag k="name" v="Sandbekken" />
		<tag k="ssr:stedsnr" v="725303" />
		<tag k="waterway" v="stream" />
	</node>
	<node id="-41704" lat="60.4974833329" lon="11.1750055625">
		<tag k="name" v="Nygardsodden" />
		<tag k="natural" v="cape" />
		<tag k="ssr:stedsnr" v="543358" />
	</node>
	<node id="-42045" lat="60.3830222251" lon="11.2472416627">
		<tag k="name" v="Vesleelva" />
		<tag k="natural" v="strait" />
		<tag k="ssr:stedsnr" v="723954" />
	</node>
	<node id="-42039" lat="60.2830527819" lon="11.1779305526">
		<tag k="name" v="Kjeldalsbekken" />
		<tag k="ssr:stedsnr" v="722819" />
		<tag k="waterway" v="stream" />
	</node>
	<node id="-41737" lat="60.3692749958" lon="11.3411083415">
		<tag k="alt_name" v="Holsjøen, søndre" />
		<tag k="loc_name" v="Nedre Holsjøen" />
		<tag k="name" v="Søndre Holsjøen" />
		<tag k="natural" v="water" />
		<tag k="ssr:stedsnr" v="552070" />
		<tag k="water" v="lake" />
	</node>
	<node id="-41054" lat="60.3608111143" lon="11.1031361145">
		<tag k="alt_name" v="Totjenn" />
		<tag k="name" v="Totjenna" />
		<tag k="natural" v="water" />
		<tag k="ssr:stedsnr" v="6072" />
	</node>
	<node id="-41192" lat="60.5458166655" lon="11.1465916723">
		<tag k="name" v="Midttjennet" />
		<tag k="natural" v="water" />
		<tag k="ssr:stedsnr" v="101942" />
	</node>
	<node id="-42077" lat="60.2741250026" lon="11.2314833371">
		<tag k="name" v="Svangerudbekken" />
		<tag k="ssr:stedsnr" v="726954" />
		<tag k="waterway" v="stream" />
	</node>
	<node id="-41514" lat="60.2761777772" lon="11.1199250039">
		<tag k="name" v="Bergersumpa" />
		<tag k="natural" v="bay" />
		<tag k="ssr:stedsnr" v="419788" />
	</node>
	<node id="-40967" lat="60.3602999986" lon="11.3417472223">
		<tag k="name" v="Fosstjennet" />
		<tag k="natural" v="water" />
		<tag k="ssr:stedsnr" v="890024" />
	</node>
	<node id="-42023" lat="60.4212249994" lon="11.3002555529">
		<tag k="name" v="Bjønngjellerbekken" />
		<tag k="ssr:stedsnr" v="709718" />
		<tag k="waterway" v="stream" />
	</node>
	<node id="-42022" lat="60.4475361073" lon="11.12152222">
		<tag k="name" v="Bjørtjenn" />
		<tag k="natural" v="water" />
		<tag k="ssr:stedsnr" v="709710" />
	</node>
	<node id="-40997" lat="60.4223633048" lon="11.3733371834">
		<tag k="name" v="Store Lønnvangtjennet" />
		<tag k="natural" v="water" />
		<tag k="ssr:stedsnr" v="654893" />
	</node>
	<node id="-41051" lat="60.3661749998" lon="11.1362333303">
		<tag k="alt_name" v="Himtjennet" />
		<tag k="name" v="Himtjenn" />
		<tag k="natural" v="water" />
		<tag k="ssr:stedsnr" v="6055" />
	</node>
	<node id="-41504" lat="60.5461138915" lon="11.1173972178">
		<tag k="name" v="Langtjennet" />
		<tag k="natural" v="water" />
		<tag k="ssr:stedsnr" v="250398" />
	</node>
	<node id="-41503" lat="60.4345749988" lon="11.1338055465">
		<tag k="name" v="Tommesjøen" />
		<tag k="natural" v="water" />
		<tag k="ssr:stedsnr" v="249480" />
	</node>
	<node id="-42245" lat="60.3575388898" lon="11.1004416718">
		<tag k="name" v="Elgputten" />
		<tag k="natural" v="water" />
		<tag k="ssr:stedsnr" v="829235" />
	</node>
	<node id="-41447" lat="60.3180194446" lon="11.2708416583">
		<tag k="name" v="Verdens ende" />
		<tag k="natural" v="cape" />
		<tag k="ssr:stedsnr" v="239474" />
	</node>
	<node id="-41497" lat="60.468480558" lon="11.0960916657">
		<tag k="alt_name" v="Høltjenn" />
		<tag k="name" v="Holtjennet" />
		<tag k="natural" v="water" />
		<tag k="ssr:stedsnr" v="249448" />
	</node>
	<node id="-40982" lat="60.2953805558" lon="11.1301083311">
		<tag k="name" v="Staviåstjennet" />
		<tag k="natural" v="water" />
		<tag k="ssr:stedsnr" v="891569" />
	</node>
	<node id="-42004" lat="60.5325888883" lon="11.1708888861">
		<tag k="name" v="Torgunrudelva" />
		<tag k="ssr:stedsnr" v="675506" />
		<tag k="waterway" v="stream" />
	</node>
	<node id="-42002" lat="60.5127472208" lon="11.1082611113">
		<tag k="name" v="Bjørntjennet" />
		<tag k="natural" v="water" />
		<tag k="ssr:stedsnr" v="674494" />
	</node>
	<node id="-42001" lat="60.5452416662" lon="11.1381833337">
		<tag k="name" v="Holmtjennet" />
		<tag k="natural" v="water" />
		<tag k="ssr:stedsnr" v="674463" />
	</node>
	<node id="-40976" lat="60.3707722205" lon="11.2101027726">
		<tag k="name" v="Tømtebekken" />
		<tag k="ssr:stedsnr" v="890865" />
		<tag k="waterway" v="stream" />
	</node>
	<node id="-41999" lat="60.2892749985" lon="11.1812750044">
		<tag k="name" v="Mobekken" />
		<tag k="ssr:stedsnr" v="674177" />
		<tag k="waterway" v="stream" />
	</node>
	<node id="-41276" lat="60.2730805558" lon="11.27716667">
		<tag k="alt_name" v="Dølitjennet" />
		<tag k="name" v="Dølitjenn" />
		<tag k="natural" v="water" />
		<tag k="ssr:stedsnr" v="127208" />
	</node>
	<node id="-41483" lat="60.3641750043" lon="11.3885805626">
		<tag k="alt_name" v="Rundtjennet" />
		<tag k="name" v="Rundtjenn" />
		<tag k="natural" v="water" />
		<tag k="ssr:stedsnr" v="248067" />
	</node>
	<node id="-41991" lat="60.369036113" lon="11.1621944381">
		<tag k="alt_name" v="Kampetjennet" />
		<tag k="name" v="Kampetjenn" />
		<tag k="natural" v="water" />
		<tag k="ssr:stedsnr" v="674044" />
	</node>
	<node id="-41989" lat="60.417152775" lon="11.1593222244">
		<tag k="name" v="Rynestjenn" />
		<tag k="natural" v="water" />
		<tag k="ssr:stedsnr" v="673506" />
	</node>
	<node id="-40964" lat="60.3461499971" lon="11.1061055531">
		<tag k="name" v="Skillebekken" />
		<tag k="old_name" v="Snøplogbekken" />
		<tag k="ssr:stedsnr" v="479083" />
		<tag k="waterway" v="stream" />
	</node>
	<node id="-41987" lat="60.4134499959" lon="11.1372805557">
		<tag k="name" v="Lyngholmen" />
		<tag k="place" v="islet" />
		<tag k="ssr:stedsnr" v="673488" />
	</node>
</osm>
