<?xml version="1.0" encoding="UTF-8"?>
<osm generator="osmapis" version="0.6">
	<node id="-42495" lat="60.5394473962" lon="11.1622266459">
		<tag k="name" v="Feiring jernverk" />
		<tag k="ssr:stedsnr" v="976164" />
		<tag k="tourism" v="attraction" />
	</node>
	<node id="-41981" lat="60.2855388895" lon="11.3037055492">
		<tag k="name" v="Flira gravrøyser" />
		<tag k="place" v="locality" />
		<tag k="ssr:stedsnr" v="665751" />
	</node>
	<node id="-41329" lat="60.4680027821" lon="11.24023612">
		<tag k="amenity" v="community_centre" />
		<tag k="name" v="Morskogen velhus" />
		<tag k="ssr:stedsnr" v="163544" />
	</node>
	<node id="-41199" lat="60.4072611144" lon="11.242613893">
		<tag k="alt_name" v="Langset" />
		<tag k="amenity" v="place_of_worship" />
		<tag k="denomination" v="lutheran" />
		<tag k="name" v="Langset kirke" />
		<tag k="religion" v="christian" />
		<tag k="ssr:stedsnr" v="67512" />
	</node>
	<node id="-41469" lat="60.3415861112" lon="11.1158138821">
		<tag k="name" v="Langset" />
		<tag k="place" v="locality" />
		<tag k="ssr:stedsnr" v="239994" />
	</node>
	<node id="-41874" lat="60.3262333355" lon="11.2446583367">
		<tag k="amenity" v="community_centre" />
		<tag k="name" v="Badet kulturtun" />
		<tag k="ssr:stedsnr" v="606710" />
	</node>
	<node id="-42090" lat="60.2950861084" lon="11.1906388946">
		<tag k="name" v="Kattstrupen" />
		<tag k="place" v="locality" />
		<tag k="ssr:stedsnr" v="726687" />
	</node>
	<node id="-42212" lat="60.3291472264" lon="11.2604555544">
		<tag k="amenity" v="community_centre" />
		<tag k="name" v="Wergelandssalen" />
		<tag k="ssr:stedsnr" v="788666" />
	</node>
	<node id="-42083" lat="60.483611113" lon="11.1531999967">
		<tag k="name" v="Østby" />
		<tag k="place" v="locality" />
		<tag k="ssr:stedsnr" v="725355" />
	</node>
	<node id="-41314" lat="60.3657500044" lon="11.2128277808">
		<tag k="name" v="Malerhaugen" />
		<tag k="place" v="locality" />
		<tag k="ssr:stedsnr" v="161069" />
	</node>
	<node id="-40801" lat="60.3104888875" lon="11.1461555597">
		<tag k="alt_name" v="Toppholet" />
		<tag k="name" v="Tapphølet" />
		<tag k="place" v="locality" />
		<tag k="ssr:stedsnr" v="309159" />
	</node>
	<node id="-41952" lat="60.2519749961" lon="11.1838916673">
		<tag k="name" v="Ørn" />
		<tag k="place" v="locality" />
		<tag k="ssr:stedsnr" v="661188" />
	</node>
	<node id="-42079" lat="60.5023861145" lon="11.1277833357">
		<tag k="name" v="Jelbekk" />
		<tag k="place" v="locality" />
		<tag k="ssr:stedsnr" v="725311" />
	</node>
	<node id="-41436" lat="60.295500002" lon="11.1510527776">
		<tag k="name" v="Borgerstøa" />
		<tag k="place" v="locality" />
		<tag k="ssr:stedsnr" v="224518" />
	</node>
	<node id="-42459" lat="60.4402638878" lon="11.1487305485">
		<tag k="name" v="Tappen" />
		<tag k="place" v="locality" />
		<tag k="ssr:stedsnr" v="952723" />
	</node>
	<node id="-42330" lat="60.2832256131" lon="11.1726105519">
		<tag k="name" v="Eidsvoll bibliotek filial Råholt" />
		<tag k="ssr:stedsnr" v="849722" />
		<tag k="tourism" v="museum" />
	</node>
	<node id="-41431" lat="60.3241027797" lon="11.199158338">
		<tag k="name" v="Siggerudtoppen" />
		<tag k="place" v="locality" />
		<tag k="ssr:stedsnr" v="223323" />
	</node>
	<node id="-41171" lat="60.2832611142" lon="11.1728249918">
		<tag k="amenity" v="community_centre" />
		<tag k="name" v="Søndre samfunn" />
		<tag k="ssr:stedsnr" v="60716" />
	</node>
	<node id="-41571" lat="60.3234083353" lon="11.2443750078">
		<tag k="alt_name" v="Eidsvoll" />
		<tag k="amenity" v="place_of_worship" />
		<tag k="denomination" v="lutheran" />
		<tag k="name" v="Eidsvoll kirke" />
		<tag k="religion" v="christian" />
		<tag k="ssr:stedsnr" v="431154" />
	</node>
	<node id="-41168" lat="60.3584527743" lon="11.3497027839">
		<tag k="name" v="Gullverket" />
		<tag k="ssr:stedsnr" v="60564" />
		<tag k="tourism" v="attraction" />
	</node>
	<node id="-41167" lat="60.3966694476" lon="11.2341888836">
		<tag k="name" v="Mjøssamlingene" />
		<tag k="ssr:stedsnr" v="60547" />
		<tag k="tourism" v="museum" />
	</node>
	<node id="-41294" lat="60.2756611082" lon="11.1796277701">
		<tag k="alt_name" v="Råholt" />
		<tag k="amenity" v="place_of_worship" />
		<tag k="denomination" v="lutheran" />
		<tag k="name" v="Råholt kirke" />
		<tag k="religion" v="christian" />
		<tag k="ssr:stedsnr" v="127199" />
	</node>
	<node id="-42317" lat="60.2913916655" lon="11.1990055549">
		<tag k="amenity" v="community_centre" />
		<tag k="name" v="Bønslund" />
		<tag k="ssr:stedsnr" v="848687" />
	</node>
	<node id="-41932" lat="60.4348138901" lon="11.2950916671">
		<tag k="name" v="Åsmyrdalen" />
		<tag k="place" v="locality" />
		<tag k="ssr:stedsnr" v="648554" />
	</node>
	<node id="-41931" lat="60.3042916659" lon="11.1321722257">
		<tag k="name" v="Bjønnbakken" />
		<tag k="place" v="locality" />
		<tag k="ssr:stedsnr" v="648549" />
	</node>
	<node id="-40971" lat="60.3648388879" lon="11.2779999967">
		<tag k="amenity" v="place_of_worship" />
		<tag k="fixme" v="specify religion=*, denomination=*, building=* etc" />
		<tag k="name" v="Effata" />
		<tag k="ssr:stedsnr" v="890002" />
	</node>
	<node id="-40897" lat="60.2451861129" lon="11.2060777837">
		<tag k="amenity" v="community_centre" />
		<tag k="name" v="Dal grendehus" />
		<tag k="ssr:stedsnr" v="363678" />
	</node>
	<node id="-40896" lat="60.3290475757" lon="11.2602743891">
		<tag k="amenity" v="community_centre" />
		<tag k="name" v="Panorama kulturhus" />
		<tag k="ssr:stedsnr" v="363646" />
	</node>
	<node id="-40767" lat="60.3328916624" lon="11.215694443">
		<tag k="name" v="Morland" />
		<tag k="place" v="locality" />
		<tag k="ssr:stedsnr" v="300927" />
	</node>
	<node id="-40894" lat="60.2761083353" lon="11.1790611173">
		<tag k="amenity" v="place_of_worship" />
		<tag k="denomination" v="lutheran" />
		<tag k="name" v="Råholt kapell" />
		<tag k="religion" v="christian" />
		<tag k="ssr:stedsnr" v="363437" />
	</node>
	<node id="-41402" lat="60.3007888915" lon="11.1710749946">
		<tag k="alt_name" v="Eidsvollbygningen" />
		<tag k="name" v="Eidsvollsbygningen" />
		<tag k="ssr:stedsnr" v="188189" />
		<tag k="tourism" v="attraction" />
	</node>
	<node id="-41695" lat="60.4031277736" lon="11.1805972285">
		<tag k="name" v="Spinneritomta" />
		<tag k="place" v="locality" />
		<tag k="ssr:stedsnr" v="527840" />
	</node>
	<node id="-40756" lat="60.3880111128" lon="11.2738833316">
		<tag k="name" v="Holteie" />
		<tag k="place" v="locality" />
		<tag k="ssr:stedsnr" v="298730" />
	</node>
	<node id="-41614" lat="60.4473583312" lon="11.1325833286">
		<tag k="name" v="Festningen" />
		<tag k="place" v="locality" />
		<tag k="ssr:stedsnr" v="466780" />
	</node>
	<node id="-40753" lat="60.2604027772" lon="11.1413916702">
		<tag k="name" v="Pens" />
		<tag k="place" v="locality" />
		<tag k="ssr:stedsnr" v="297759" />
	</node>
	<node id="-41644" lat="60.3031861131" lon="11.1728277787">
		<tag k="name" v="Wergelands hus" />
		<tag k="ssr:stedsnr" v="485525" />
		<tag k="tourism" v="museum" />
	</node>
	<node id="-41131" lat="60.3749805594" lon="11.2366750023">
		<tag k="name" v="Haugen" />
		<tag k="place" v="locality" />
		<tag k="ssr:stedsnr" v="55978" />
	</node>
	<node id="-41227" lat="60.3973249964" lon="11.3253833346">
		<tag k="name" v="Høgbruhaugen" />
		<tag k="place" v="locality" />
		<tag k="ssr:stedsnr" v="102879" />
	</node>
	<node id="-41894" lat="60.4634833365" lon="11.1813499972">
		<tag k="amenity" v="community_centre" />
		<tag k="name" v="Hasselbakken" />
		<tag k="ssr:stedsnr" v="612455" />
	</node>
	<node id="-41166" lat="60.4235527748" lon="11.1947916641">
		<tag k="name" v="Smaragdgruvene" />
		<tag k="ssr:stedsnr" v="60546" />
		<tag k="tourism" v="attraction" />
	</node>
	<node id="-41379" lat="60.3291922756" lon="11.259838914">
		<tag k="name" v="Eidsvoll bibliotek" />
		<tag k="ssr:stedsnr" v="181703" />
		<tag k="tourism" v="museum" />
	</node>
	<node id="-40734" lat="60.3961111155" lon="11.1719222214">
		<tag k="name" v="Husmannsledet" />
		<tag k="place" v="locality" />
		<tag k="ssr:stedsnr" v="284864" />
	</node>
	<node id="-41370" lat="60.2957083325" lon="11.186680557">
		<tag k="name" v="Venjarmoen" />
		<tag k="place" v="locality" />
		<tag k="ssr:stedsnr" v="180690" />
	</node>
	<node id="-41879" lat="60.3867694486" lon="11.2007888964">
		<tag k="amenity" v="community_centre" />
		<tag k="name" v="Stensby skole" />
		<tag k="ssr:stedsnr" v="612055" />
	</node>
	<node id="-41494" lat="60.3344166654" lon="11.1951055536">
		<tag k="name" v="Okkupasjonsmuseet" />
		<tag k="ssr:stedsnr" v="242540" />
		<tag k="tourism" v="museum" />
	</node>
	<node id="-42386" lat="60.2873194435" lon="11.2416638831">
		<tag k="amenity" v="community_centre" />
		<tag k="name" v="Elim" />
		<tag k="ssr:stedsnr" v="908700" />
	</node>
	<node id="-42128" lat="60.4847194436" lon="11.1495416716">
		<tag k="alt_name" v="Feiring" />
		<tag k="amenity" v="place_of_worship" />
		<tag k="denomination" v="lutheran" />
		<tag k="name" v="Feiring kirke" />
		<tag k="religion" v="christian" />
		<tag k="ssr:stedsnr" v="734427" />
	</node>
	<node id="-41870" lat="60.3010138904" lon="11.173677781">
		<tag k="name" v="Stallgården" />
		<tag k="ssr:stedsnr" v="606565" />
		<tag k="tourism" v="attraction" />
	</node>
	<node id="-42380" lat="60.4828583343" lon="11.1552250055">
		<tag k="name" v="Fløygir" />
		<tag k="place" v="locality" />
		<tag k="ssr:stedsnr" v="907351" />
	</node>
	<node id="-40843" lat="60.286750004" lon="11.1847638948">
		<tag k="name" v="Søndre Bøn" />
		<tag k="place" v="locality" />
		<tag k="ssr:stedsnr" v="345540" />
	</node>
	<node id="-42243" lat="60.2588027758" lon="11.1864972137">
		<tag k="name" v="Vestby" />
		<tag k="place" v="locality" />
		<tag k="ssr:stedsnr" v="795244" />
	</node>
	<node id="-40834" lat="60.2883999967" lon="11.156847218">
		<tag k="name" v="Moberget" />
		<tag k="place" v="locality" />
		<tag k="ssr:stedsnr" v="345503" />
	</node>
</osm>
