<?xml version="1.0" encoding="UTF-8"?>
<osm version="0.6" generator="osmapis">
	<node lat="61.691068551070934" lon="6.8169510101662" id="-32773">
		<tag k="name" v="Oldedalen" />
		<tag k="natural" v="valley" />
		<tag k="place" v="locality" />
		<tag k="ssr:stedsnr" v="9909" />
	</node>
	<node lat="61.6817999988227" lon="6.772477768736335" id="-32774">
		<tag k="fixme" v="consider natural=peak for the most distinct mountains in the district" />
		<tag k="name" v="Flatefjellet" />
		<tag k="natural" v="hill" />
		<tag k="place" v="locality" />
		<tag k="ssr:stedsnr" v="9911" />
	</node>
	<node lat="61.87314444365903" lon="6.335786116345814" id="-32776">
		<tag k="name" v="Dyrstigen" />
		<tag k="natural" v="hill" />
		<tag k="place" v="locality" />
		<tag k="ssr:stedsnr" v="10042" />
	</node>
	<node lat="61.93827499908424" lon="6.820494450216439" id="-32779">
		<tag k="name" v="Ørnereirfjellet" />
		<tag k="natural" v="hill" />
		<tag k="place" v="locality" />
		<tag k="ssr:stedsnr" v="10205" />
	</node>
	<node lat="61.80667599479892" lon="6.615439732308091" id="-32782">
		<tag k="fixme" v="consider natural=peak for the most distinct mountains in the district" />
		<tag k="name" v="Middagsfjellet" />
		<tag k="natural" v="hill" />
		<tag k="place" v="locality" />
		<tag k="ssr:stedsnr" v="10303" />
	</node>
	<node lat="61.83360000430573" lon="7.1832638891681535" id="-32791">
		<tag k="name" v="Storedalen" />
		<tag k="natural" v="valley" />
		<tag k="place" v="locality" />
		<tag k="ssr:stedsnr" v="10439" />
	</node>
	<node lat="61.85381111240358" lon="7.220311109947551" id="-32792">
		<tag k="fixme" v="consider natural=peak for the most distinct mountains in the district" />
		<tag k="name" v="Seltuftefjellet" />
		<tag k="natural" v="hill" />
		<tag k="place" v="locality" />
		<tag k="ssr:stedsnr" v="10440" />
	</node>
	<node lat="61.78001389230135" lon="7.1741250032362345" id="-32793">
		<tag k="name" v="Ståleskaret" />
		<tag k="natural" v="valley" />
		<tag k="place" v="locality" />
		<tag k="ssr:stedsnr" v="10582" />
	</node>
	<node lat="61.97797499957538" lon="7.16193610739211" id="-32797">
		<tag k="name" v="Stolskaret" />
		<tag k="natural" v="valley" />
		<tag k="place" v="locality" />
		<tag k="ssr:stedsnr" v="20497" />
	</node>
	<node lat="61.65665833764429" lon="6.827102776669965" id="-32798">
		<tag k="name" v="Sauskåra" />
		<tag k="natural" v="hill" />
		<tag k="place" v="locality" />
		<tag k="ssr:stedsnr" v="33005" />
	</node>
	<node lat="61.92334167096471" lon="6.772033323829649" id="-32801">
		<tag k="name" v="Skuten" />
		<tag k="natural" v="hill" />
		<tag k="place" v="locality" />
		<tag k="ssr:stedsnr" v="33017" />
	</node>
	<node lat="61.92316944853367" lon="6.757547214617131" id="-32802">
		<tag k="name" v="Ytreeide" />
		<tag k="natural" v="slope" />
		<tag k="place" v="locality" />
		<tag k="ssr:stedsnr" v="33021" />
	</node>
	<node lat="61.86679797819449" lon="6.303732875154184" id="-32805">
		<tag k="name" v="Oskeberg" />
		<tag k="natural" v="hill" />
		<tag k="old_name" v="Okseberg" />
		<tag k="place" v="locality" />
		<tag k="ssr:stedsnr" v="33172" />
	</node>
	<node lat="61.84941944410591" lon="6.8611444383769875" id="-32806">
		<tag k="name" v="Treføttingen" />
		<tag k="natural" v="hill" />
		<tag k="place" v="locality" />
		<tag k="ssr:stedsnr" v="33173" />
	</node>
	<node lat="61.948833333951974" lon="7.012977776507914" id="-32809">
		<tag k="name" v="Kolstoda" />
		<tag k="natural" v="slope" />
		<tag k="place" v="locality" />
		<tag k="ssr:stedsnr" v="33305" />
	</node>
	<node lat="61.83788055490996" lon="6.4988361054548465" id="-32810">
		<tag k="name" v="Skogane" />
		<tag k="place" v="locality" />
		<tag k="ssr:stedsnr" v="33308" />
	</node>
	<node lat="61.912805558835416" lon="7.0370722144941515" id="-32813">
		<tag k="name" v="Kviene" />
		<tag k="natural" v="slope" />
		<tag k="place" v="locality" />
		<tag k="ssr:stedsnr" v="33363" />
	</node>
	<node lat="61.861561112913684" lon="7.135319441274689" id="-32814">
		<tag k="name" v="Furehaugen" />
		<tag k="natural" v="hill" />
		<tag k="place" v="locality" />
		<tag k="ssr:stedsnr" v="33366" />
	</node>
	<node lat="61.922569448457" lon="7.1996805493286615" id="-32815">
		<tag k="name" v="Dragholen" />
		<tag k="natural" v="hill" />
		<tag k="place" v="locality" />
		<tag k="ssr:stedsnr" v="33205" />
	</node>
	<node lat="61.88031666838257" lon="6.297327785238772" id="-32817">
		<tag k="name" v="Skjerdalen" />
		<tag k="natural" v="valley" />
		<tag k="place" v="locality" />
		<tag k="ssr:stedsnr" v="33210" />
	</node>
	<node lat="61.844211114652296" lon="6.408169437247342" id="-32818">
		<tag k="name" v="Brendehaugane" />
		<tag k="natural" v="hill" />
		<tag k="place" v="locality" />
		<tag k="ssr:stedsnr" v="33214" />
	</node>
	<node lat="61.77776111151362" lon="6.980983329467453" id="-32819">
		<tag k="name" v="Lida" />
		<tag k="natural" v="slope" />
		<tag k="place" v="locality" />
		<tag k="ssr:stedsnr" v="33215" />
	</node>
	<node lat="61.81384444489174" lon="6.949177773406131" id="-32820">
		<tag k="name" v="Stingenda" />
		<tag k="natural" v="hill" />
		<tag k="place" v="locality" />
		<tag k="ssr:stedsnr" v="33220" />
	</node>
	<node lat="61.81540278004192" lon="6.9380972248952935" id="-32822">
		<tag k="name" v="Brennenatgjølet" />
		<tag k="natural" v="gorge" />
		<tag k="ssr:stedsnr" v="33225" />
	</node>
	<node lat="61.872686107518085" lon="6.366763891310726" id="-32823">
		<tag k="name" v="Strengemerke" />
		<tag k="natural" v="hill" />
		<tag k="place" v="locality" />
		<tag k="ssr:stedsnr" v="33263" />
	</node>
	<node lat="61.93193888995086" lon="6.832158337663218" id="-32824">
		<tag k="name" v="Skorgjølet" />
		<tag k="natural" v="valley" />
		<tag k="place" v="locality" />
		<tag k="ssr:stedsnr" v="33264" />
	</node>
	<node lat="61.839608329483966" lon="6.296850005505222" id="-32826">
		<tag k="name" v="Fosserabben" />
		<tag k="natural" v="hill" />
		<tag k="place" v="locality" />
		<tag k="ssr:stedsnr" v="33270" />
	</node>
	<node lat="61.88087500092441" lon="6.804197225287905" id="-32827">
		<tag k="name" v="Lessebakken" />
		<tag k="natural" v="slope" />
		<tag k="place" v="locality" />
		<tag k="ssr:stedsnr" v="33271" />
	</node>
	<node lat="61.852733331439396" lon="6.531883326889575" id="-32829">
		<tag k="name" v="Øyestadberget" />
		<tag k="natural" v="hill" />
		<tag k="place" v="locality" />
		<tag k="ssr:stedsnr" v="33283" />
	</node>
	<node lat="61.80011666552533" lon="7.027405562992835" id="-32830">
		<tag k="name" v="Kvilebakken" />
		<tag k="natural" v="slope" />
		<tag k="place" v="locality" />
		<tag k="ssr:stedsnr" v="33412" />
	</node>
	<node lat="61.81652222337194" lon="6.5515111098902015" id="-32831">
		<tag k="fixme" v="consider natural=peak for the most distinct mountains in the district" />
		<tag k="name" v="Tyttebæråsen" />
		<tag k="natural" v="hill" />
		<tag k="place" v="locality" />
		<tag k="ssr:stedsnr" v="33417" />
	</node>
	<node lat="61.778922225026314" lon="7.024583330952903" id="-32832">
		<tag k="fixme" v="consider natural=peak for the most distinct mountains in the district" />
		<tag k="name" v="Kvitefjellet" />
		<tag k="natural" v="hill" />
		<tag k="place" v="locality" />
		<tag k="ssr:stedsnr" v="33418" />
	</node>
	<node lat="61.825663887682225" lon="6.641977768622489" id="-32833">
		<tag k="name" v="Hamrane" />
		<tag k="natural" v="hill" />
		<tag k="place" v="locality" />
		<tag k="ssr:stedsnr" v="33402" />
	</node>
	<node lat="61.896083336425434" lon="6.607536104451315" id="-32834">
		<tag k="name" v="Gamlehella" />
		<tag k="place" v="locality" />
		<tag k="ssr:stedsnr" v="33423" />
	</node>
	<node lat="61.91754722616291" lon="7.1082305588838715" id="-32835">
		<tag k="name" v="Vaulhammaren" />
		<tag k="natural" v="hill" />
		<tag k="place" v="locality" />
		<tag k="ssr:stedsnr" v="33424" />
	</node>
	<node lat="61.864561112344255" lon="6.693591673514766" id="-32837">
		<tag k="name" v="Nonsfurhaugen" />
		<tag k="natural" v="hill" />
		<tag k="place" v="locality" />
		<tag k="ssr:stedsnr" v="33520" />
	</node>
	<node lat="61.743883332010036" lon="6.77672499591619" id="-32838">
		<tag k="name" v="Nedre Holten" />
		<tag k="natural" v="hill" />
		<tag k="place" v="locality" />
		<tag k="ssr:stedsnr" v="33521" />
	</node>
	<node lat="61.869158334860636" lon="6.690433334681551" id="-32839">
		<tag k="name" v="Merkingshaugen" />
		<tag k="natural" v="hill" />
		<tag k="place" v="locality" />
		<tag k="ssr:stedsnr" v="33523" />
	</node>
	<node lat="61.79037499997697" lon="6.469747229102312" id="-32840">
		<tag k="name" v="Austre Stilleranten" />
		<tag k="natural" v="hill" />
		<tag k="place" v="locality" />
		<tag k="ssr:stedsnr" v="33524" />
	</node>
	<node lat="61.82614166428386" lon="6.827547225746992" id="-32841">
		<tag k="loc_name" v="Meleidalen" />
		<tag k="name" v="Melheimsdalen" />
		<tag k="natural" v="valley" />
		<tag k="place" v="locality" />
		<tag k="ssr:stedsnr" v="33561" />
	</node>
	<node lat="61.840686111414215" lon="7.185975009335699" id="-32842">
		<tag k="name" v="Vesledalsgrandane" />
		<tag k="place" v="locality" />
		<tag k="ssr:stedsnr" v="33564" />
	</node>
	<node lat="61.85069444544726" lon="7.160300007876925" id="-32844">
		<tag k="name" v="Sandane" />
		<tag k="place" v="locality" />
		<tag k="ssr:stedsnr" v="33570" />
	</node>
	<node lat="61.89361666377739" lon="7.060397223176273" id="-32845">
		<tag k="name" v="Breisvadet" />
		<tag k="natural" v="gorge" />
		<tag k="ssr:stedsnr" v="33466" />
	</node>
	<node lat="61.883672222666725" lon="7.297505549615956" id="-32847">
		<tag k="name" v="Kupene" />
		<tag k="natural" v="hill" />
		<tag k="place" v="locality" />
		<tag k="ssr:stedsnr" v="60081" />
	</node>
	<node lat="61.90109444236875" lon="7.256086106419439" id="-32848">
		<tag k="name" v="Svorahammaren" />
		<tag k="natural" v="hill" />
		<tag k="place" v="locality" />
		<tag k="ssr:stedsnr" v="60676" />
	</node>
	<node lat="61.904652776807076" lon="7.228763894555896" id="-32849">
		<tag k="name" v="Myntebakken" />
		<tag k="natural" v="slope" />
		<tag k="place" v="locality" />
		<tag k="ssr:stedsnr" v="241747" />
	</node>
	<node lat="61.96036110886385" lon="6.776897226011247" id="-32851">
		<tag k="loc_name" v="Skoraskaret;Skorskaret" />
		<tag k="name" v="Knutsdalsskaret" />
		<tag k="natural" v="valley" />
		<tag k="place" v="locality" />
		<tag k="ssr:stedsnr" v="70175" />
	</node>
	<node lat="61.96087499833142" lon="6.647788894093674" id="-32852">
		<tag k="name" v="Holskaret" />
		<tag k="natural" v="valley" />
		<tag k="place" v="locality" />
		<tag k="ssr:stedsnr" v="70178" />
	</node>
	<node lat="61.84797777425815" lon="7.178199996629222" id="-32855">
		<tag k="name" v="Reset" />
		<tag k="natural" v="slope" />
		<tag k="place" v="locality" />
		<tag k="ssr:stedsnr" v="70431" />
	</node>
	<node lat="61.89384444223914" lon="7.268755564964381" id="-32856">
		<tag k="name" v="Brattestigen" />
		<tag k="natural" v="slope" />
		<tag k="place" v="locality" />
		<tag k="ssr:stedsnr" v="242652" />
	</node>
	<node lat="61.865152777453346" lon="6.404436119251207" id="-32860">
		<tag k="name" v="Høgenakkane" />
		<tag k="natural" v="hill" />
		<tag k="place" v="locality" />
		<tag k="ssr:stedsnr" v="71008" />
	</node>
	<node lat="61.72083611552427" lon="6.743786108448273" id="-32862">
		<tag k="fixme" v="consider natural=peak for the most distinct mountains in the district" />
		<tag k="name" v="Yrifjellet" />
		<tag k="natural" v="hill" />
		<tag k="place" v="locality" />
		<tag k="ssr:stedsnr" v="70903" />
	</node>
	<node lat="61.70543332995538" lon="6.755225006368131" id="-32863">
		<tag k="fixme" v="consider natural=peak for the most distinct mountains in the district" />
		<tag k="name" v="Rustøyfjellet" />
		<tag k="natural" v="hill" />
		<tag k="place" v="locality" />
		<tag k="ssr:stedsnr" v="70906" />
	</node>
	<node lat="61.70806944173762" lon="6.863927779459513" id="-32865">
		<tag k="fixme" v="consider natural=peak for the most distinct mountains in the district" />
		<tag k="name" v="Høgefjellet" />
		<tag k="natural" v="hill" />
		<tag k="place" v="locality" />
		<tag k="ssr:stedsnr" v="70909" />
	</node>
	<node lat="61.89694166328969" lon="6.584013885873228" id="-32867">
		<tag k="name" v="Fossedalen" />
		<tag k="natural" v="valley" />
		<tag k="place" v="locality" />
		<tag k="ssr:stedsnr" v="70981" />
	</node>
	<node lat="61.889636113544626" lon="7.1934527773844" id="-32872">
		<tag k="name" v="Skipedalsskaret" />
		<tag k="natural" v="valley" />
		<tag k="place" v="locality" />
		<tag k="ssr:stedsnr" v="71496" />
	</node>
	<node lat="61.8883555601468" lon="6.968991675676748" id="-32874">
		<tag k="name" v="Tyvadalen" />
		<tag k="natural" v="valley" />
		<tag k="place" v="locality" />
		<tag k="ssr:stedsnr" v="71506" />
	</node>
	<node lat="61.90448610953511" lon="7.006024999502092" id="-32876">
		<tag k="fixme" v="consider natural=peak for the most distinct mountains in the district" />
		<tag k="name" v="Veslehyrna" />
		<tag k="natural" v="hill" />
		<tag k="place" v="locality" />
		<tag k="ssr:stedsnr" v="71517" />
	</node>
	<node lat="62.00542500314457" lon="7.193227776220782" id="-32879">
		<tag k="name" v="Skjerdingsdalsbotnen" />
		<tag k="natural" v="valley" />
		<tag k="place" v="locality" />
		<tag k="ssr:stedsnr" v="71527" />
	</node>
	<node lat="61.92921110771927" lon="6.454044449131379" id="-32880">
		<tag k="name" v="Steffanakken" />
		<tag k="natural" v="hill" />
		<tag k="place" v="locality" />
		<tag k="ssr:stedsnr" v="71939" />
	</node>
	<node lat="61.91290555941414" lon="6.5041361027309685" id="-32882">
		<tag k="name" v="Mosehaugane" />
		<tag k="natural" v="hill" />
		<tag k="place" v="locality" />
		<tag k="ssr:stedsnr" v="71971" />
	</node>
	<node lat="61.919891665241515" lon="6.495686110890291" id="-32883">
		<tag k="name" v="Pynten" />
		<tag k="natural" v="hill" />
		<tag k="place" v="locality" />
		<tag k="ssr:stedsnr" v="71976" />
	</node>
	<node lat="61.92363333734463" lon="6.469008340872305" id="-32884">
		<tag k="name" v="Nakkane" />
		<tag k="natural" v="hill" />
		<tag k="place" v="locality" />
		<tag k="ssr:stedsnr" v="71985" />
	</node>
	<node lat="61.925677781038786" lon="6.765977770424002" id="-32887">
		<tag k="name" v="Styggerashamrane" />
		<tag k="natural" v="hill" />
		<tag k="place" v="locality" />
		<tag k="ssr:stedsnr" v="94011" />
	</node>
	<node lat="61.65586944255506" lon="6.8182666672127" id="-32888">
		<tag k="name" v="Melkevolldalen" />
		<tag k="natural" v="valley" />
		<tag k="place" v="locality" />
		<tag k="ssr:stedsnr" v="94013" />
	</node>
	<node lat="61.9232750037915" lon="6.702111113242972" id="-32889">
		<tag k="name" v="Fehammaren" />
		<tag k="natural" v="hill" />
		<tag k="place" v="locality" />
		<tag k="ssr:stedsnr" v="94021" />
	</node>
	<node lat="61.87938610803245" lon="6.777116660433144" id="-32890">
		<tag k="fixme" v="consider natural=peak for the most distinct mountains in the district" />
		<tag k="name" v="Marsåfjellet" />
		<tag k="natural" v="hill" />
		<tag k="place" v="locality" />
		<tag k="ssr:stedsnr" v="94024" />
	</node>
	<node lat="61.913919443887885" lon="6.7629694386078985" id="-32891">
		<tag k="name" v="Sætre" />
		<tag k="place" v="locality" />
		<tag k="ssr:stedsnr" v="94060" />
	</node>
	<node lat="61.806824998835054" lon="6.807586105944446" id="-32896">
		<tag k="name" v="Instesvora" />
		<tag k="place" v="locality" />
		<tag k="ssr:stedsnr" v="94083" />
	</node>
	<node lat="61.7800916661202" lon="6.847897214436783" id="-32897">
		<tag k="name" v="Høghammaren" />
		<tag k="natural" v="hill" />
		<tag k="place" v="locality" />
		<tag k="ssr:stedsnr" v="94106" />
	</node>
	<node lat="61.78611666549492" lon="6.843602772379425" id="-32898">
		<tag k="name" v="Stølen" />
		<tag k="natural" v="hill" />
		<tag k="place" v="locality" />
		<tag k="ssr:stedsnr" v="94107" />
	</node>
	<node lat="61.786794445257115" lon="6.83718332983826" id="-32899">
		<tag k="name" v="Veltegjølet" />
		<tag k="natural" v="valley" />
		<tag k="place" v="locality" />
		<tag k="ssr:stedsnr" v="94116" />
	</node>
	<node lat="61.771883333389674" lon="6.814616670767596" id="-32900">
		<tag k="fixme" v="consider natural=peak for the most distinct mountains in the district" />
		<tag k="name" v="Kvitefjellet" />
		<tag k="natural" v="hill" />
		<tag k="place" v="locality" />
		<tag k="ssr:stedsnr" v="94118" />
	</node>
	<node lat="61.83232222364438" lon="6.342222228999438" id="-32901">
		<tag k="name" v="Kleiva" />
		<tag k="natural" v="slope" />
		<tag k="place" v="locality" />
		<tag k="ssr:stedsnr" v="94161" />
	</node>
	<node lat="61.82721388623541" lon="6.346913892639163" id="-32902">
		<tag k="name" v="Liabakkane" />
		<tag k="natural" v="slope" />
		<tag k="place" v="locality" />
		<tag k="ssr:stedsnr" v="94164" />
	</node>
	<node lat="61.92351944291792" lon="6.809916668014957" id="-32903">
		<tag k="name" v="Bolthammaren" />
		<tag k="natural" v="hill" />
		<tag k="place" v="locality" />
		<tag k="ssr:stedsnr" v="94278" />
	</node>
	<node lat="61.86681944674169" lon="6.318547225097665" id="-32904">
		<tag k="name" v="Lindahaug" />
		<tag k="natural" v="hill" />
		<tag k="place" v="locality" />
		<tag k="ssr:stedsnr" v="94279" />
	</node>
	<node lat="61.93283333281615" lon="6.8499805629308455" id="-32905">
		<tag k="name" v="Haugane" />
		<tag k="natural" v="hill" />
		<tag k="place" v="locality" />
		<tag k="ssr:stedsnr" v="94281" />
	</node>
	<node lat="61.93184999586807" lon="6.845188886437219" id="-32906">
		<tag k="name" v="Laugeberget" />
		<tag k="natural" v="hill" />
		<tag k="place" v="locality" />
		<tag k="ssr:stedsnr" v="94282" />
	</node>
	<node lat="61.87449166244577" lon="6.376147227081608" id="-32907">
		<tag k="name" v="Skrestølsnakken" />
		<tag k="natural" v="hill" />
		<tag k="place" v="locality" />
		<tag k="ssr:stedsnr" v="94283" />
	</node>
	<node lat="61.84245277833937" lon="6.304977785028322" id="-32908">
		<tag k="fixme" v="consider natural=peak for the most distinct mountains in the district" />
		<tag k="name" v="Stegfjellet" />
		<tag k="natural" v="hill" />
		<tag k="place" v="locality" />
		<tag k="ssr:stedsnr" v="94291" />
	</node>
	<node lat="61.83681389081531" lon="6.314433337501565" id="-32909">
		<tag k="fixme" v="consider natural=peak for the most distinct mountains in the district" />
		<tag k="name" v="Tverrfjellet" />
		<tag k="natural" v="hill" />
		<tag k="place" v="locality" />
		<tag k="ssr:stedsnr" v="94293" />
	</node>
	<node lat="61.883274998356306" lon="6.802163879582253" id="-32910">
		<tag k="name" v="Kopehammaren" />
		<tag k="natural" v="hill" />
		<tag k="place" v="locality" />
		<tag k="ssr:stedsnr" v="94294" />
	</node>
	<node lat="61.91625555543023" lon="7.139811105775037" id="-32911">
		<tag k="name" v="Hesthola" />
		<tag k="natural" v="valley" />
		<tag k="place" v="locality" />
		<tag k="ssr:stedsnr" v="94403" />
	</node>
	<node lat="61.91030277565967" lon="7.1280527822682895" id="-32912">
		<tag k="name" v="Uksen" />
		<tag k="natural" v="hill" />
		<tag k="place" v="locality" />
		<tag k="ssr:stedsnr" v="94407" />
	</node>
	<node lat="61.89135833327873" lon="7.028936103426457" id="-32913">
		<tag k="name" v="Tverrbotnen" />
		<tag k="natural" v="valley" />
		<tag k="place" v="locality" />
		<tag k="ssr:stedsnr" v="94408" />
	</node>
	<node lat="61.92113610888534" lon="7.139819435922104" id="-32914">
		<tag k="name" v="Haugen" />
		<tag k="natural" v="hill" />
		<tag k="place" v="locality" />
		<tag k="ssr:stedsnr" v="94461" />
	</node>
	<node lat="61.92367500015143" lon="7.136911109630736" id="-32915">
		<tag k="name" v="Skuten" />
		<tag k="natural" v="hill" />
		<tag k="place" v="locality" />
		<tag k="ssr:stedsnr" v="94462" />
	</node>
	<node lat="61.89000555210657" lon="6.658586102136367" id="-32916">
		<tag k="name" v="Øykjeberget" />
		<tag k="natural" v="hill" />
		<tag k="place" v="locality" />
		<tag k="ssr:stedsnr" v="94467" />
	</node>
	<node lat="61.85745833555433" lon="7.160833324457252" id="-32918">
		<tag k="name" v="Bolleberget" />
		<tag k="natural" v="hill" />
		<tag k="place" v="locality" />
		<tag k="ssr:stedsnr" v="94471" />
	</node>
	<node lat="61.85364166508644" lon="7.16739999639067" id="-32919">
		<tag k="name" v="Lidasvadene" />
		<tag k="natural" v="hill" />
		<tag k="place" v="locality" />
		<tag k="ssr:stedsnr" v="94473" />
	</node>
	<node lat="61.85122778204518" lon="6.374477786336091" id="-32920">
		<tag k="name" v="Fagrehaugen" />
		<tag k="natural" v="hill" />
		<tag k="place" v="locality" />
		<tag k="ssr:stedsnr" v="94304" />
	</node>
	<node lat="61.944619443788746" lon="6.885297226962947" id="-32921">
		<tag k="fixme" v="consider natural=peak for the most distinct mountains in the district" />
		<tag k="name" v="Kjølingefjellet" />
		<tag k="natural" v="hill" />
		<tag k="place" v="locality" />
		<tag k="ssr:stedsnr" v="94305" />
	</node>
	<node lat="61.84688610699764" lon="6.522227770058688" id="-32922">
		<tag k="name" v="Løypet" />
		<tag k="natural" v="slope" />
		<tag k="place" v="locality" />
		<tag k="ssr:stedsnr" v="94309" />
	</node>
	<node lat="61.836761108192064" lon="6.505266671068882" id="-32925">
		<tag k="name" v="Nylendene" />
		<tag k="natural" v="slope" />
		<tag k="place" v="locality" />
		<tag k="ssr:stedsnr" v="94315" />
	</node>
	<node lat="61.84787221873369" lon="6.630183340389321" id="-32926">
		<tag k="name" v="Småbakken" />
		<tag k="natural" v="slope" />
		<tag k="place" v="locality" />
		<tag k="ssr:stedsnr" v="94394" />
	</node>
	<node lat="61.93407777336383" lon="7.057638882937388" id="-32932">
		<tag k="name" v="Kvernhammaren" />
		<tag k="natural" v="hill" />
		<tag k="place" v="locality" />
		<tag k="ssr:stedsnr" v="94509" />
	</node>
	<node lat="61.935633331088475" lon="7.05408889429054" id="-32933">
		<tag k="name" v="Jutulen" />
		<tag k="natural" v="slope" />
		<tag k="place" v="locality" />
		<tag k="ssr:stedsnr" v="94510" />
	</node>
	<node lat="61.92612222650301" lon="7.07726110247754" id="-32934">
		<tag k="name" v="Æveskora" />
		<tag k="natural" v="hill" />
		<tag k="place" v="locality" />
		<tag k="ssr:stedsnr" v="94515" />
	</node>
	<node lat="61.85170832961906" lon="7.14811944865135" id="-32935">
		<tag k="name" v="Muren" />
		<tag k="place" v="locality" />
		<tag k="ssr:stedsnr" v="94522" />
	</node>
	<node lat="61.955797226309144" lon="6.841674990541112" id="-32941">
		<tag k="name" v="Tennafjellet" />
		<tag k="natural" v="hill" />
		<tag k="place" v="locality" />
		<tag k="ssr:stedsnr" v="252147" />
	</node>
	<node lat="61.836741669613666" lon="6.488555563116404" id="-32942">
		<tag k="fixme" v="consider natural=peak for the most distinct mountains in the district" />
		<tag k="name" v="Åsane" />
		<tag k="natural" v="hill" />
		<tag k="place" v="locality" />
		<tag k="ssr:stedsnr" v="252099" />
	</node>
	<node lat="61.83041666348261" lon="6.314366671561279" id="-32943">
		<tag k="name" v="Strupen" />
		<tag k="natural" v="valley" />
		<tag k="place" v="locality" />
		<tag k="ssr:stedsnr" v="252100" />
	</node>
	<node lat="61.86364722615371" lon="6.617483336111259" id="-32947">
		<tag k="fixme" v="consider natural=peak for the most distinct mountains in the district" />
		<tag k="name" v="Hildahalsen" />
		<tag k="natural" v="hill" />
		<tag k="place" v="locality" />
		<tag k="ssr:stedsnr" v="252340" />
	</node>
	<node lat="61.86809331676377" lon="6.966990235514151" id="-32950">
		<tag k="fixme" v="consider natural=peak for the most distinct mountains in the district" />
		<tag k="loc_name" v="Loskåla" />
		<tag k="name" v="Skåla" />
		<tag k="natural" v="hill" />
		<tag k="place" v="locality" />
		<tag k="ssr:stedsnr" v="252346" />
	</node>
	<node lat="61.98950000406008" lon="7.066961117630353" id="-32951">
		<tag k="name" v="Vesledalen" />
		<tag k="natural" v="valley" />
		<tag k="place" v="locality" />
		<tag k="ssr:stedsnr" v="252366" />
	</node>
	<node lat="61.841100000901896" lon="7.039888887415706" id="-32954">
		<tag k="fixme" v="consider natural=peak for the most distinct mountains in the district" />
		<tag k="name" v="Tungefjellet" />
		<tag k="natural" v="hill" />
		<tag k="place" v="locality" />
		<tag k="ssr:stedsnr" v="252418" />
	</node>
	<node lat="61.853665368978525" lon="6.973830354136006" id="-32955">
		<tag k="name" v="Brengsdalen" />
		<tag k="natural" v="valley" />
		<tag k="place" v="locality" />
		<tag k="ssr:stedsnr" v="252422" />
	</node>
	<node lat="61.8844416675864" lon="7.34718056309082" id="-32957">
		<tag k="name" v="Kamperhamrane" />
		<tag k="natural" v="valley" />
		<tag k="place" v="locality" />
		<tag k="ssr:stedsnr" v="252534" />
	</node>
	<node lat="61.65261111354663" lon="6.836300001931822" id="-32958">
		<tag k="fixme" v="consider natural=peak for the most distinct mountains in the district" />
		<tag k="name" v="Kattanakken" />
		<tag k="natural" v="hill" />
		<tag k="place" v="locality" />
		<tag k="ssr:stedsnr" v="130789" />
	</node>
	<node lat="61.690655552059305" lon="6.906313897447655" id="-32960">
		<tag k="fixme" v="consider natural=peak for the most distinct mountains in the district" />
		<tag k="name" v="Brenndalsnibba" />
		<tag k="natural" v="hill" />
		<tag k="place" v="locality" />
		<tag k="ssr:stedsnr" v="130914" />
	</node>
	<node lat="61.86738055275405" lon="6.425400001219391" id="-32963">
		<tag k="fixme" v="consider natural=peak for the most distinct mountains in the district" />
		<tag k="name" v="Heida" />
		<tag k="natural" v="hill" />
		<tag k="place" v="locality" />
		<tag k="ssr:stedsnr" v="131003" />
	</node>
	<node lat="61.87191666681706" lon="6.542899996366189" id="-32964">
		<tag k="alt_name" v="Svartesvedene" />
		<tag k="name" v="Svartsvedene" />
		<tag k="natural" v="slope" />
		<tag k="place" v="locality" />
		<tag k="ssr:stedsnr" v="131006" />
	</node>
	<node lat="61.87499392992727" lon="6.522713981243576" id="-32965">
		<tag k="name" v="Mothammaren" />
		<tag k="natural" v="hill" />
		<tag k="place" v="locality" />
		<tag k="ssr:stedsnr" v="131011" />
	</node>
	<node lat="61.95803055738087" lon="6.774338896479757" id="-32966">
		<tag k="fixme" v="consider natural=peak for the most distinct mountains in the district" />
		<tag k="name" v="Steindalsegga" />
		<tag k="natural" v="hill" />
		<tag k="place" v="locality" />
		<tag k="ssr:stedsnr" v="131183" />
	</node>
	<node lat="61.80689444365471" lon="6.714036103904579" id="-32967">
		<tag k="fixme" v="consider natural=peak for the most distinct mountains in the district" />
		<tag k="name" v="Torvfjellet" />
		<tag k="natural" v="hill" />
		<tag k="place" v="locality" />
		<tag k="ssr:stedsnr" v="131305" />
	</node>
	<node lat="61.9579138914604" lon="6.938911109910437" id="-32973">
		<tag k="name" v="Furedalen" />
		<tag k="natural" v="valley" />
		<tag k="place" v="locality" />
		<tag k="ssr:stedsnr" v="131206" />
	</node>
	<node lat="61.90376944043189" lon="6.84482777484009" id="-32977">
		<tag k="name" v="Lundedalen" />
		<tag k="natural" v="valley" />
		<tag k="place" v="locality" />
		<tag k="ssr:stedsnr" v="131268" />
	</node>
	<node lat="61.91523055876606" lon="6.603791673924388" id="-32979">
		<tag k="alt_name" v="Lunnahaugane" />
		<tag k="name" v="Lunnahaugen" />
		<tag k="natural" v="hill" />
		<tag k="place" v="locality" />
		<tag k="ssr:stedsnr" v="131272" />
	</node>
	<node lat="61.666799996855744" lon="6.789352783874715" id="-32982">
		<tag k="fixme" v="consider natural=peak for the most distinct mountains in the district" />
		<tag k="name" v="Blåfjellet" />
		<tag k="natural" v="hill" />
		<tag k="place" v="locality" />
		<tag k="ssr:stedsnr" v="252690" />
	</node>
	<node lat="62.001619447250036" lon="7.147294434766884" id="-32983">
		<tag k="name" v="Glomsdalen" />
		<tag k="natural" v="valley" />
		<tag k="place" v="locality" />
		<tag k="ssr:stedsnr" v="131468" />
	</node>
	<node lat="61.96323611248597" lon="6.9690749924690705" id="-32984">
		<tag k="fixme" v="consider natural=peak for the most distinct mountains in the district" />
		<tag k="name" v="Marsåhyrna" />
		<tag k="natural" v="hill" />
		<tag k="place" v="locality" />
		<tag k="ssr:stedsnr" v="131368" />
	</node>
	<node lat="61.731919443378594" lon="7.075480557888225" id="-32988">
		<tag k="fixme" v="consider natural=peak for the most distinct mountains in the district" />
		<tag k="name" v="Kjenndalskruna" />
		<tag k="natural" v="hill" />
		<tag k="place" v="locality" />
		<tag k="ssr:stedsnr" v="252660" />
	</node>
	<node lat="61.73916110697595" lon="6.946899998625147" id="-32991">
		<tag k="name" v="Ruteflotdalen" />
		<tag k="natural" v="valley" />
		<tag k="place" v="locality" />
		<tag k="ssr:stedsnr" v="252880" />
	</node>
	<node lat="61.89974166429126" lon="6.465119450416046" id="-32992">
		<tag k="fixme" v="consider natural=peak for the most distinct mountains in the district" />
		<tag k="name" v="Kvanngrøskaregga" />
		<tag k="natural" v="hill" />
		<tag k="place" v="locality" />
		<tag k="ssr:stedsnr" v="252983" />
	</node>
	<node lat="61.89875832970444" lon="6.426150004911724" id="-32993">
		<tag k="fixme" v="consider natural=peak for the most distinct mountains in the district" />
		<tag k="name" v="Blåegga" />
		<tag k="natural" v="hill" />
		<tag k="place" v="locality" />
		<tag k="ssr:stedsnr" v="252986" />
	</node>
	<node lat="62.01873889009706" lon="7.24051667488601" id="-32999">
		<tag k="fixme" v="consider natural=peak for the most distinct mountains in the district" />
		<tag k="name" v="Blåtind" />
		<tag k="natural" v="hill" />
		<tag k="place" v="locality" />
		<tag k="ssr:stedsnr" v="253175" />
	</node>
	<node lat="61.83352500408304" lon="6.700255550152423" id="-33004">
		<tag k="name" v="Blåloftet" />
		<tag k="natural" v="hill" />
		<tag k="place" v="locality" />
		<tag k="ssr:stedsnr" v="253394" />
	</node>
	<node lat="62.00925000257388" lon="7.073602770549873" id="-33009">
		<tag k="fixme" v="consider natural=peak for the most distinct mountains in the district" />
		<tag k="name" v="Vollsetskåla" />
		<tag k="natural" v="hill" />
		<tag k="place" v="locality" />
		<tag k="ssr:stedsnr" v="253528" />
	</node>
	<node lat="61.93375555564076" lon="7.079791660870474" id="-33014">
		<tag k="name" v="Lægdene" />
		<tag k="natural" v="slope" />
		<tag k="place" v="locality" />
		<tag k="ssr:stedsnr" v="141484" />
	</node>
	<node lat="61.71277778156544" lon="6.983130564580722" id="-33016">
		<tag k="fixme" v="consider natural=peak for the most distinct mountains in the district" />
		<tag k="name" v="Nordfjordvarden" />
		<tag k="natural" v="hill" />
		<tag k="place" v="locality" />
		<tag k="ssr:stedsnr" v="146111" />
	</node>
	<node lat="61.94038888845941" lon="6.579994450097198" id="-33017">
		<tag k="name" v="Moshammarene" />
		<tag k="natural" v="hill" />
		<tag k="place" v="locality" />
		<tag k="ssr:stedsnr" v="153410" />
	</node>
	<node lat="61.90380555780413" lon="6.797594451121161" id="-33018">
		<tag k="name" v="Blåsvedene" />
		<tag k="natural" v="hill" />
		<tag k="place" v="locality" />
		<tag k="ssr:stedsnr" v="154151" />
	</node>
	<node lat="61.815141669008085" lon="6.3244083329542065" id="-33020">
		<tag k="name" v="Bjørnabakkane" />
		<tag k="natural" v="slope" />
		<tag k="place" v="locality" />
		<tag k="ssr:stedsnr" v="154159" />
	</node>
	<node lat="61.903841665060526" lon="6.82611388952162" id="-33021">
		<tag k="name" v="Lynghammaren" />
		<tag k="natural" v="hill" />
		<tag k="place" v="locality" />
		<tag k="ssr:stedsnr" v="154160" />
	</node>
	<node lat="61.9267166623559" lon="6.8596722295914905" id="-33023">
		<tag k="name" v="Bjørgane" />
		<tag k="natural" v="hill" />
		<tag k="place" v="locality" />
		<tag k="ssr:stedsnr" v="154312" />
	</node>
	<node lat="61.8366472226406" lon="6.335444437141235" id="-33024">
		<tag k="name" v="Buskora" />
		<tag k="place" v="locality" />
		<tag k="ssr:stedsnr" v="154318" />
	</node>
	<node lat="61.848519441454286" lon="6.379855547282338" id="-33025">
		<tag k="name" v="Torvehola" />
		<tag k="natural" v="valley" />
		<tag k="place" v="locality" />
		<tag k="ssr:stedsnr" v="154323" />
	</node>
	<node lat="61.95477221796826" lon="6.939786109726192" id="-33027">
		<tag k="name" v="Nakken" />
		<tag k="natural" v="hill" />
		<tag k="place" v="locality" />
		<tag k="ssr:stedsnr" v="154340" />
	</node>
	<node lat="61.91352777798853" lon="6.536383342626682" id="-33029">
		<tag k="fixme" v="consider natural=peak for the most distinct mountains in the district" />
		<tag k="name" v="Osphella" />
		<tag k="natural" v="hill" />
		<tag k="place" v="locality" />
		<tag k="ssr:stedsnr" v="154344" />
	</node>
	<node lat="61.86392777495229" lon="6.893199996330117" id="-33031">
		<tag k="fixme" v="consider natural=peak for the most distinct mountains in the district" />
		<tag k="name" v="Sandsåsen" />
		<tag k="natural" v="hill" />
		<tag k="place" v="locality" />
		<tag k="ssr:stedsnr" v="154206" />
	</node>
	<node lat="61.92794722352942" lon="7.149544453340081" id="-33032">
		<tag k="name" v="Sørdalsgjølet" />
		<tag k="natural" v="gorge" />
		<tag k="ssr:stedsnr" v="154224" />
	</node>
	<node lat="61.92426389131879" lon="7.203594444959906" id="-33033">
		<tag k="name" v="Bjorkhaugen" />
		<tag k="natural" v="hill" />
		<tag k="place" v="locality" />
		<tag k="ssr:stedsnr" v="154249" />
	</node>
	<node lat="61.87361111144664" lon="6.85034999630343" id="-33034">
		<tag k="name" v="Apalhola" />
		<tag k="natural" v="valley" />
		<tag k="place" v="locality" />
		<tag k="ssr:stedsnr" v="154250" />
	</node>
	<node lat="61.916852775914585" lon="7.203352785632441" id="-33035">
		<tag k="name" v="Kvannsvorhammaren" />
		<tag k="natural" v="hill" />
		<tag k="place" v="locality" />
		<tag k="ssr:stedsnr" v="154251" />
	</node>
	<node lat="61.92078055178116" lon="7.196011112603081" id="-33036">
		<tag k="name" v="Djupedalsgjølet" />
		<tag k="natural" v="gorge" />
		<tag k="ssr:stedsnr" v="154254" />
	</node>
	<node lat="61.77293888606541" lon="6.965991661486317" id="-33037">
		<tag k="name" v="Kvandalen" />
		<tag k="natural" v="valley" />
		<tag k="place" v="locality" />
		<tag k="ssr:stedsnr" v="154255" />
	</node>
	<node lat="61.81974444087489" lon="6.926338886515373" id="-33038">
		<tag k="name" v="Seglenska" />
		<tag k="natural" v="hill" />
		<tag k="place" v="locality" />
		<tag k="ssr:stedsnr" v="154266" />
	</node>
	<node lat="61.88767499549872" lon="6.346283329266331" id="-33039">
		<tag k="fixme" v="consider natural=peak for the most distinct mountains in the district" />
		<tag k="name" v="Djupegrovrenden" />
		<tag k="natural" v="hill" />
		<tag k="place" v="locality" />
		<tag k="ssr:stedsnr" v="154269" />
	</node>
	<node lat="61.82774444069475" lon="6.932238890680843" id="-33040">
		<tag k="name" v="Auresvadet" />
		<tag k="natural" v="hill" />
		<tag k="place" v="locality" />
		<tag k="ssr:stedsnr" v="154270" />
	</node>
	<node lat="61.88097499940596" lon="6.337091663820335" id="-33041">
		<tag k="name" v="Langerusta" />
		<tag k="natural" v="ridge" />
		<tag k="place" v="locality" />
		<tag k="ssr:stedsnr" v="154271" />
	</node>
	<node lat="61.91753333445407" lon="6.560622216814194" id="-33043">
		<tag k="name" v="Tangane" />
		<tag k="place" v="locality" />
		<tag k="ssr:stedsnr" v="154498" />
	</node>
	<node lat="61.93517778082417" lon="7.053011112052827" id="-33045">
		<tag k="name" v="Høgesvedene" />
		<tag k="natural" v="slope" />
		<tag k="place" v="locality" />
		<tag k="ssr:stedsnr" v="154505" />
	</node>
	<node lat="61.907413887500546" lon="6.7133611071800114" id="-33050">
		<tag k="name" v="Tonningsbakkane" />
		<tag k="natural" v="slope" />
		<tag k="place" v="locality" />
		<tag k="ssr:stedsnr" v="154520" />
	</node>
	<node lat="61.81291110855016" lon="6.8002638908456445" id="-33051">
		<tag k="name" v="Hushammaren" />
		<tag k="natural" v="hill" />
		<tag k="place" v="locality" />
		<tag k="ssr:stedsnr" v="154554" />
	</node>
	<node lat="61.92127499651425" lon="6.57067221743707" id="-33052">
		<tag k="name" v="Geilane" />
		<tag k="natural" v="hill" />
		<tag k="place" v="locality" />
		<tag k="ssr:stedsnr" v="154557" />
	</node>
	<node lat="61.81345555205676" lon="6.827380551658584" id="-33053">
		<tag k="name" v="Stegane" />
		<tag k="natural" v="slope" />
		<tag k="place" v="locality" />
		<tag k="ssr:stedsnr" v="154558" />
	</node>
	<node lat="61.92423888693123" lon="6.589736102575097" id="-33055">
		<tag k="name" v="Storehaugen" />
		<tag k="natural" v="hill" />
		<tag k="place" v="locality" />
		<tag k="ssr:stedsnr" v="154564" />
	</node>
	<node lat="61.92218610942161" lon="6.57833054979764" id="-33056">
		<tag k="name" v="Merkingshaugen" />
		<tag k="natural" v="hill" />
		<tag k="place" v="locality" />
		<tag k="ssr:stedsnr" v="154565" />
	</node>
	<node lat="61.9229166668083" lon="6.58038332459029" id="-33057">
		<tag k="name" v="Marsteinstrupen" />
		<tag k="natural" v="hill" />
		<tag k="place" v="locality" />
		<tag k="ssr:stedsnr" v="154567" />
	</node>
	<node lat="61.857316670526565" lon="6.360102786588197" id="-33062">
		<tag k="name" v="Stegen" />
		<tag k="natural" v="slope" />
		<tag k="place" v="locality" />
		<tag k="ssr:stedsnr" v="192012" />
	</node>
	<node lat="61.67477777451302" lon="6.845516675041087" id="-33065">
		<tag k="fixme" v="consider natural=peak for the most distinct mountains in the district" />
		<tag k="name" v="Storeskaret" />
		<tag k="natural" v="hill" />
		<tag k="place" v="locality" />
		<tag k="ssr:stedsnr" v="191906" />
	</node>
	<node lat="61.988208331135866" lon="7.331216668302578" id="-33066">
		<tag k="fixme" v="consider natural=peak for the most distinct mountains in the district" />
		<tag k="name" v="Kvitenova" />
		<tag k="natural" v="hill" />
		<tag k="place" v="locality" />
		<tag k="ssr:stedsnr" v="263531" />
	</node>
</osm>
