<?xml version="1.0" encoding="UTF-8"?>
<osm version="0.6" generator="osmapis">
	<node lat="61.9511861081178" lon="7.241724998905507" id="-45801">
		<tag k="highway" v="path" />
		<tag k="name" v="Glæra" />
		<tag k="ssr:stedsnr" v="141483" />
	</node>
	<node lat="61.78933611253958" lon="6.517769444824939" id="-45995">
		<tag k="fixme" v="consider highway=path" />
		<tag k="highway" v="track" />
		<tag k="name" v="Gamlevegen" />
		<tag k="ssr:stedsnr" v="458891" />
	</node>
	<node lat="61.79856388925851" lon="6.523516657558432" id="-46048">
		<tag k="bridge" v="yes" />
		<tag k="layer" v="1" />
		<tag k="name" v="Verlo Øvre" />
		<tag k="ssr:stedsnr" v="289580" />
	</node>
	<node lat="61.94489166887135" lon="6.939363897480405" id="-46049">
		<tag k="bridge" v="yes" />
		<tag k="layer" v="1" />
		<tag k="name" v="Lindvik" />
		<tag k="ssr:stedsnr" v="290706" />
	</node>
	<node lat="61.86973055983856" lon="6.7080944351001035" id="-46050">
		<tag k="bridge" v="yes" />
		<tag k="layer" v="1" />
		<tag k="name" v="Algjeld" />
		<tag k="ssr:stedsnr" v="290683" />
	</node>
	<node lat="61.94948888591451" lon="7.0169361156480985" id="-46051">
		<tag k="bridge" v="yes" />
		<tag k="layer" v="1" />
		<tag k="name" v="Geitåna" />
		<tag k="ssr:stedsnr" v="290693" />
	</node>
	<node lat="61.80779999750673" lon="6.522155564762798" id="-46086">
		<tag k="bridge" v="yes" />
		<tag k="layer" v="1" />
		<tag k="name" v="Storelva" />
		<tag k="ssr:stedsnr" v="470501" />
	</node>
	<node lat="61.90998855537836" lon="7.053091823776637" id="-46118">
		<tag k="alt_name" v="Fossdøla Østre" />
		<tag k="bridge" v="yes" />
		<tag k="layer" v="1" />
		<tag k="name" v="Austre Fossdøla" />
		<tag k="ssr:stedsnr" v="472728" />
	</node>
	<node lat="61.948383334686675" lon="7.028783330474297" id="-46119">
		<tag k="bridge" v="yes" />
		<tag k="layer" v="1" />
		<tag k="name" v="Flo" />
		<tag k="ssr:stedsnr" v="472730" />
	</node>
	<node lat="61.93834166532644" lon="6.900730555525142" id="-46120">
		<tag k="bridge" v="yes" />
		<tag k="layer" v="1" />
		<tag k="name" v="Grønenes" />
		<tag k="ssr:stedsnr" v="472747" />
	</node>
	<node lat="61.84605555575369" lon="6.453441669652265" id="-46238">
		<tag k="highway" v="path" />
		<tag k="name" v="Indrestølsvegen" />
		<tag k="ssr:stedsnr" v="458319" />
	</node>
	<node lat="61.86127755590537" lon="6.606421814550197" id="-46354">
		<tag k="name" v="Rognekleiva" />
		<tag k="place" v="locality" />
		<tag k="ssr:stedsnr" v="518344" />
	</node>
	<node lat="61.802677777286405" lon="6.523425008253641" id="-46370">
		<tag k="bridge" v="yes" />
		<tag k="layer" v="1" />
		<tag k="name" v="Verlo Nedre" />
		<tag k="ssr:stedsnr" v="531580" />
	</node>
	<node lat="61.944927781616876" lon="7.295780546914729" id="-46559">
		<tag k="bridge" v="yes" />
		<tag k="layer" v="1" />
		<tag k="name" v="Steinhus" />
		<tag k="ssr:stedsnr" v="652498" />
	</node>
	<node lat="61.95087777996526" lon="7.329791660711055" id="-46560">
		<tag k="bridge" v="yes" />
		<tag k="layer" v="1" />
		<tag k="name" v="Tystig Nedre" />
		<tag k="ssr:stedsnr" v="652504" />
	</node>
	<node lat="61.91815552381695" lon="6.772744884998898" id="-46648">
		<tag k="bridge" v="yes" />
		<tag k="layer" v="1" />
		<tag k="name" v="Ytre-Eide" />
		<tag k="ssr:stedsnr" v="896584" />
	</node>
	<node lat="61.90131388770979" lon="6.716716665575556" id="-46649">
		<tag k="bridge" v="yes" />
		<tag k="layer" v="1" />
		<tag k="name" v="Visnes" />
		<tag k="ssr:stedsnr" v="896589" />
	</node>
	<node lat="61.84136110859419" lon="6.810619451613661" id="-46651">
		<tag k="bridge" v="yes" />
		<tag k="layer" v="1" />
		<tag k="name" v="Murvika" />
		<tag k="ssr:stedsnr" v="897465" />
	</node>
	<node lat="61.75876944080559" lon="6.822608329406704" id="-46713">
		<tag k="bridge" v="yes" />
		<tag k="layer" v="1" />
		<tag k="name" v="Sundeelva" />
		<tag k="ssr:stedsnr" v="774561" />
	</node>
	<node lat="61.927483336285654" lon="7.222433341752955" id="-46714">
		<tag k="bridge" v="yes" />
		<tag k="layer" v="1" />
		<tag k="name" v="Skåre Vest" />
		<tag k="ssr:stedsnr" v="774564" />
	</node>
	<node lat="61.92453888729386" lon="7.021647215652557" id="-46715">
		<tag k="bridge" v="yes" />
		<tag k="layer" v="1" />
		<tag k="name" v="Nesje" />
		<tag k="ssr:stedsnr" v="775471" />
	</node>
	<node lat="61.8044222241061" lon="6.525633325544105" id="-46911">
		<tag k="bridge" v="yes" />
		<tag k="layer" v="1" />
		<tag k="name" v="Utvik Nedre" />
		<tag k="ssr:stedsnr" v="896558" />
	</node>
	<node lat="61.91578333603506" lon="7.035277780753939" id="-46912">
		<tag k="bridge" v="yes" />
		<tag k="layer" v="1" />
		<tag k="name" v="Bulega" />
		<tag k="ssr:stedsnr" v="897711" />
	</node>
	<node lat="61.845058334185545" lon="6.390572216656006" id="-46913">
		<tag k="bridge" v="yes" />
		<tag k="layer" v="1" />
		<tag k="name" v="Fjellkorstad" />
		<tag k="ssr:stedsnr" v="897714" />
	</node>
	<node lat="61.75518888980154" lon="6.801638886975828" id="-46914">
		<tag k="bridge" v="yes" />
		<tag k="layer" v="1" />
		<tag k="name" v="Kroka" />
		<tag k="ssr:stedsnr" v="897717" />
	</node>
	<node lat="61.93021666285621" lon="6.537286116578197" id="-46915">
		<tag k="bridge" v="yes" />
		<tag k="layer" v="1" />
		<tag k="name" v="Øen" />
		<tag k="ssr:stedsnr" v="897678" />
	</node>
	<node lat="61.917737538275205" lon="7.0319704001774825" id="-46957">
		<tag k="bridge" v="yes" />
		<tag k="layer" v="1" />
		<tag k="name" v="Bulega kulvert" />
		<tag k="ssr:stedsnr" v="957751" />
	</node>
	<node lat="61.929994443890834" lon="7.227266658476516" id="-47093">
		<tag k="bridge" v="yes" />
		<tag k="layer" v="1" />
		<tag k="name" v="Skåre" />
		<tag k="ssr:stedsnr" v="46554" />
	</node>
	<node lat="61.87013055931379" lon="6.323538895864429" id="-47094">
		<tag k="bridge" v="yes" />
		<tag k="layer" v="1" />
		<tag k="name" v="Randaelva" />
		<tag k="ssr:stedsnr" v="46560" />
	</node>
	<node lat="61.91033362337172" lon="7.050021620559055" id="-47095">
		<tag k="alt_name" v="Fossdøla Vestre" />
		<tag k="bridge" v="yes" />
		<tag k="layer" v="1" />
		<tag k="name" v="Vestre Fossdøla" />
		<tag k="ssr:stedsnr" v="47737" />
	</node>
	<node lat="61.82303055230171" lon="6.8098111094689004" id="-47096">
		<tag k="bridge" v="yes" />
		<tag k="layer" v="1" />
		<tag k="name" v="Brynestad" />
		<tag k="ssr:stedsnr" v="47744" />
	</node>
	<node lat="61.90009444152725" lon="6.69941944667861" id="-47097">
		<tag k="bridge" v="yes" />
		<tag k="layer" v="1" />
		<tag k="name" v="Grønnevik" />
		<tag k="ssr:stedsnr" v="47754" />
	</node>
	<node lat="61.83183888527486" lon="7.192902772330597" id="-47112">
		<tag k="highway" v="path" />
		<tag k="name" v="Ulvestigen" />
		<tag k="ssr:stedsnr" v="70420" />
	</node>
	<node lat="61.859183329787236" lon="6.769438891352267" id="-47220">
		<tag k="bridge" v="yes" />
		<tag k="layer" v="1" />
		<tag k="name" v="Vanberg" />
		<tag k="ssr:stedsnr" v="107531" />
	</node>
	<node lat="61.83887778133932" lon="6.49456111511031" id="-47221">
		<tag k="bridge" v="yes" />
		<tag k="layer" v="1" />
		<tag k="name" v="Ulvedal" />
		<tag k="ssr:stedsnr" v="107533" />
	</node>
	<node lat="61.93164444176771" lon="6.906519441943791" id="-47222">
		<tag k="bridge" v="yes" />
		<tag k="layer" v="1" />
		<tag k="name" v="Rosdøla" />
		<tag k="ssr:stedsnr" v="107539" />
	</node>
	<node lat="61.94922222378561" lon="6.94839167141402" id="-47223">
		<tag k="bridge" v="yes" />
		<tag k="layer" v="1" />
		<tag k="name" v="Furerinden" />
		<tag k="ssr:stedsnr" v="108736" />
	</node>
	<node lat="61.922505556982934" lon="7.198072218332192" id="-47224">
		<tag k="bridge" v="yes" />
		<tag k="layer" v="1" />
		<tag k="name" v="Fureneset halvbru" />
		<tag k="ssr:stedsnr" v="108739" />
	</node>
	<node lat="61.80173055369305" lon="6.521741676084669" id="-47352">
		<tag k="bridge" v="yes" />
		<tag k="layer" v="1" />
		<tag k="name" v="Verlo Midtre" />
		<tag k="ssr:stedsnr" v="167582" />
	</node>
	<node lat="61.843330554522666" lon="6.937502770242536" id="-47353">
		<tag k="bridge" v="yes" />
		<tag k="layer" v="1" />
		<tag k="name" v="Breng" />
		<tag k="ssr:stedsnr" v="168745" />
	</node>
	<node lat="61.82560555214554" lon="6.9709305505620796" id="-47354">
		<tag k="bridge" v="yes" />
		<tag k="layer" v="1" />
		<tag k="name" v="Hellset" />
		<tag k="ssr:stedsnr" v="169745" />
	</node>
	<node lat="61.888794445172095" lon="6.581708333747087" id="-47355">
		<tag k="bridge" v="yes" />
		<tag k="layer" v="1" />
		<tag k="name" v="Gjølvestøylen" />
		<tag k="ssr:stedsnr" v="169751" />
	</node>
	<node lat="61.87408055415103" lon="6.841141667670158" id="-47356">
		<tag k="bridge" v="yes" />
		<tag k="layer" v="1" />
		<tag k="name" v="Gjølsmunna" />
		<tag k="ssr:stedsnr" v="169752" />
	</node>
	<node lat="61.87765000420351" lon="6.551422223469901" id="-47490">
		<tag k="layer" v="-1" />
		<tag k="name" v="Blakset II" />
		<tag k="ssr:stedsnr" v="226145" />
		<tag k="tunnel" v="yes" />
	</node>
	<node lat="61.95192500173712" lon="6.969355546043175" id="-47561">
		<tag k="bridge" v="yes" />
		<tag k="layer" v="1" />
		<tag k="name" v="Seljevik" />
		<tag k="ssr:stedsnr" v="289559" />
	</node>
	<node lat="61.8167277747552" lon="6.988663895396532" id="-47562">
		<tag k="bridge" v="yes" />
		<tag k="layer" v="1" />
		<tag k="name" v="Raudi" />
		<tag k="ssr:stedsnr" v="289564" />
	</node>
	<node lat="61.806725001670934" lon="6.822616666475236" id="-47656">
		<tag k="bridge" v="yes" />
		<tag k="layer" v="1" />
		<tag k="name" v="Solheim" />
		<tag k="ssr:stedsnr" v="349570" />
	</node>
	<node lat="61.822783332981416" lon="6.372025003131764" id="-47657">
		<tag k="bridge" v="yes" />
		<tag k="layer" v="1" />
		<tag k="name" v="Sagelva" />
		<tag k="ssr:stedsnr" v="349580" />
	</node>
	<node lat="61.911919445568714" lon="6.748583333113137" id="-47658">
		<tag k="bridge" v="yes" />
		<tag k="layer" v="1" />
		<tag k="name" v="Rise" />
		<tag k="ssr:stedsnr" v="349581" />
	</node>
	<node lat="61.7236138885714" lon="6.79393055808142" id="-47659">
		<tag k="bridge" v="yes" />
		<tag k="layer" v="1" />
		<tag k="name" v="Bakyri" />
		<tag k="ssr:stedsnr" v="350718" />
	</node>
	<node lat="61.79228611294126" lon="6.509002778775827" id="-47660">
		<tag k="bridge" v="yes" />
		<tag k="layer" v="1" />
		<tag k="name" v="Bruland" />
		<tag k="ssr:stedsnr" v="350723" />
	</node>
	<node lat="61.74036388838471" lon="6.790374999865575" id="-47661">
		<tag k="bridge" v="yes" />
		<tag k="layer" v="1" />
		<tag k="name" v="Gytri" />
		<tag k="ssr:stedsnr" v="350740" />
	</node>
	<node lat="61.92015535714421" lon="6.595255254322384" id="-47759">
		<tag k="fixme" v="verify maritime location" />
		<tag k="mooring" v="yes" />
		<tag k="name" v="Båtstøda" />
		<tag k="place" v="locality" />
		<tag k="ssr:stedsnr" v="397350" />
	</node>
	<node lat="61.93715833264841" lon="7.260405563262508" id="-47779">
		<tag k="bridge" v="yes" />
		<tag k="layer" v="1" />
		<tag k="name" v="Øvstefoss" />
		<tag k="ssr:stedsnr" v="410545" />
	</node>
	<node lat="61.91811666488602" lon="7.172744442320441" id="-47780">
		<tag k="bridge" v="yes" />
		<tag k="layer" v="1" />
		<tag k="name" v="Folven" />
		<tag k="ssr:stedsnr" v="411725" />
	</node>
	<node lat="61.88304999586331" lon="6.560602770859013" id="-47781">
		<tag k="bridge" v="yes" />
		<tag k="layer" v="1" />
		<tag k="name" v="Dalseth" />
		<tag k="ssr:stedsnr" v="411734" />
	</node>
	<node lat="61.854333337142066" lon="6.613269437601034" id="-47782">
		<tag k="bridge" v="yes" />
		<tag k="layer" v="1" />
		<tag k="name" v="Hilde" />
		<tag k="ssr:stedsnr" v="411737" />
	</node>
	<node lat="61.8991583355722" lon="6.613530562673101" id="-47783">
		<tag k="bridge" v="yes" />
		<tag k="layer" v="1" />
		<tag k="name" v="Langeset" />
		<tag k="ssr:stedsnr" v="411741" />
	</node>
	<node lat="61.87926111308289" lon="6.554400006910138" id="-47901">
		<tag k="layer" v="-1" />
		<tag k="name" v="Blakset I" />
		<tag k="ssr:stedsnr" v="529132" />
		<tag k="tunnel" v="yes" />
	</node>
	<node lat="61.83480555122571" lon="6.8032138943885405" id="-47902">
		<tag k="bridge" v="yes" />
		<tag k="layer" v="1" />
		<tag k="name" v="Olden" />
		<tag k="ssr:stedsnr" v="531560" />
	</node>
	<node lat="61.88128333309517" lon="6.558758339949639" id="-47903">
		<tag k="bridge" v="yes" />
		<tag k="layer" v="1" />
		<tag k="name" v="Rødberg" />
		<tag k="ssr:stedsnr" v="531569" />
	</node>
	<node lat="61.84001944401439" lon="6.465519448330309" id="-47904">
		<tag k="bridge" v="yes" />
		<tag k="layer" v="1" />
		<tag k="name" v="Bergseth" />
		<tag k="ssr:stedsnr" v="533743" />
	</node>
	<node lat="61.950077777217864" lon="7.003019450433644" id="-47905">
		<tag k="bridge" v="yes" />
		<tag k="layer" v="1" />
		<tag k="name" v="Marsåna" />
		<tag k="ssr:stedsnr" v="533761" />
	</node>
	<node lat="61.96602222519619" lon="7.254486102686667" id="-48009">
		<tag k="bridge" v="yes" />
		<tag k="layer" v="1" />
		<tag k="name" v="Skjæringsdalseter" />
		<tag k="ssr:stedsnr" v="592545" />
	</node>
	<node lat="61.872136107705956" lon="6.3133027801783435" id="-48010">
		<tag k="bridge" v="yes" />
		<tag k="layer" v="1" />
		<tag k="name" v="Hoplandselva" />
		<tag k="ssr:stedsnr" v="593684" />
	</node>
	<node lat="61.86438889262881" lon="6.370933336224497" id="-48098">
		<tag k="bridge" v="yes" />
		<tag k="layer" v="1" />
		<tag k="name" v="Tvinna" />
		<tag k="ssr:stedsnr" v="652509" />
	</node>
	<node lat="61.78966944758281" lon="6.8319083266890805" id="-48099">
		<tag k="bridge" v="yes" />
		<tag k="layer" v="1" />
		<tag k="name" v="Sandnes" />
		<tag k="ssr:stedsnr" v="652515" />
	</node>
	<node lat="61.67517500381768" lon="6.814263887381578" id="-48100">
		<tag k="bridge" v="yes" />
		<tag k="layer" v="1" />
		<tag k="name" v="Melkevoll" />
		<tag k="ssr:stedsnr" v="654502" />
	</node>
	<node lat="61.81787499625728" lon="6.381988887415874" id="-48101">
		<tag k="bridge" v="yes" />
		<tag k="layer" v="1" />
		<tag k="name" v="Frøyset" />
		<tag k="ssr:stedsnr" v="654752" />
	</node>
	<node lat="61.99215277378583" lon="7.312719437137327" id="-48102">
		<tag k="bridge" v="yes" />
		<tag k="layer" v="1" />
		<tag k="name" v="Grasdøla" />
		<tag k="ssr:stedsnr" v="654762" />
	</node>
	<node lat="61.921133334822656" lon="6.552347216714623" id="-48105">
		<tag k="bridge" v="yes" />
		<tag k="layer" v="1" />
		<tag k="name" v="Hatledal" />
		<tag k="ssr:stedsnr" v="715756" />
	</node>
	<node lat="61.77123055578631" lon="6.834105555518276" id="-48191">
		<tag k="bridge" v="yes" />
		<tag k="layer" v="1" />
		<tag k="name" v="Ornes" />
		<tag k="ssr:stedsnr" v="774579" />
	</node>
	<node lat="61.894250004509345" lon="7.093975001079708" id="-48192">
		<tag k="bridge" v="yes" />
		<tag k="layer" v="1" />
		<tag k="name" v="Grandøla" />
		<tag k="ssr:stedsnr" v="775740" />
	</node>
	<node lat="61.905255558797116" lon="6.691613881184186" id="-48294">
		<tag k="highway" v="path" />
		<tag k="name" v="Lidavegen" />
		<tag k="ssr:stedsnr" v="822497" />
	</node>
	<node lat="61.803527777595676" lon="6.5272361058942145" id="-48307">
		<tag k="bridge" v="yes" />
		<tag k="layer" v="1" />
		<tag k="name" v="Utvik Øvre" />
		<tag k="ssr:stedsnr" v="835553" />
	</node>
	<node lat="61.95610277738847" lon="7.362291660238212" id="-48308">
		<tag k="bridge" v="yes" />
		<tag k="layer" v="1" />
		<tag k="name" v="Tystig" />
		<tag k="ssr:stedsnr" v="835554" />
	</node>
	<node lat="61.910819448975225" lon="7.04568889256566" id="-48309">
		<tag k="bridge" v="yes" />
		<tag k="layer" v="1" />
		<tag k="name" v="Sandvik" />
		<tag k="ssr:stedsnr" v="835558" />
	</node>
	<node lat="61.93436389028369" lon="6.8809638904201655" id="-48310">
		<tag k="bridge" v="yes" />
		<tag k="layer" v="1" />
		<tag k="name" v="Mindresunde" />
		<tag k="ssr:stedsnr" v="836460" />
	</node>
	<node lat="61.93100000287004" lon="6.911211104715119" id="-48311">
		<tag k="bridge" v="yes" />
		<tag k="layer" v="1" />
		<tag k="name" v="Dispen" />
		<tag k="ssr:stedsnr" v="836740" />
	</node>
	<node lat="61.85634999967578" lon="6.618027782197877" id="-48452">
		<tag k="highway" v="path" />
		<tag k="name" v="Årevegen" />
		<tag k="ssr:stedsnr" v="943348" />
	</node>
	<node lat="61.83044166674779" lon="6.428422229047514" id="-48522">
		<tag k="fixme" v="verify maritime location" />
		<tag k="mooring" v="yes" />
		<tag k="name" v="Lindestøa" />
		<tag k="place" v="locality" />
		<tag k="ssr:stedsnr" v="949062" />
	</node>
	<node lat="61.949930553932504" lon="7.012258340479157" id="-48523">
		<tag k="bridge" v="yes" />
		<tag k="layer" v="1" />
		<tag k="name" v="Stølsgrova" />
		<tag k="ssr:stedsnr" v="956561" />
	</node>
	<node lat="61.866630553499654" lon="6.881886112191422" id="-48524">
		<tag k="bridge" v="yes" />
		<tag k="layer" v="1" />
		<tag k="name" v="Tjugen" />
		<tag k="ssr:stedsnr" v="956569" />
	</node>
	<node lat="61.93822222509377" lon="7.2624527864854524" id="-48525">
		<tag k="bridge" v="yes" />
		<tag k="layer" v="1" />
		<tag k="name" v="Ospeli" />
		<tag k="ssr:stedsnr" v="956570" />
	</node>
	<node lat="61.93206111240615" lon="6.9196833333066525" id="-48526">
		<tag k="bridge" v="yes" />
		<tag k="layer" v="1" />
		<tag k="name" v="Meland bru" />
		<tag k="ssr:stedsnr" v="957753" />
	</node>
	<node lat="61.87582373336934" lon="6.5492678755595" id="-48552">
		<tag k="layer" v="-1" />
		<tag k="name" v="Blaksettunnelen" />
		<tag k="ssr:stedsnr" v="989011" />
		<tag k="tunnel" v="yes" />
	</node>
</osm>
