<?xml version="1.0" encoding="UTF-8"?>
<osm version="0.6" generator="osmapis">
	<node lat="61.84701702598374" lon="6.813199486438215" id="-79827">
		<tag k="name" v="Muristranda" />
		<tag k="natural" v="beach" />
		<tag k="ssr:stedsnr" v="10348" />
	</node>
	<node lat="61.8355083370153" lon="6.344719448483018" id="-79863">
		<tag k="name" v="Nautevika" />
		<tag k="natural" v="bay" />
		<tag k="ssr:stedsnr" v="33266" />
	</node>
	<node lat="61.84192500118861" lon="6.379352779118063" id="-79866">
		<tag k="name" v="Nosanaustet" />
		<tag k="natural" v="bay" />
		<tag k="ssr:stedsnr" v="33273" />
	</node>
	<node lat="61.870583335942754" lon="6.703188889071349" id="-79874">
		<tag k="name" v="Areneset" />
		<tag k="natural" v="cape" />
		<tag k="ssr:stedsnr" v="33516" />
	</node>
	<node lat="61.86044730197523" lon="6.2655225147980875" id="-79897">
		<tag k="name" v="Kvalsvika" />
		<tag k="natural" v="bay" />
		<tag k="ssr:stedsnr" v="71005" />
	</node>
	<node lat="61.84749999576083" lon="6.293419444616461" id="-79975">
		<tag k="name" v="Linda" />
		<tag k="natural" v="cape" />
		<tag k="ssr:stedsnr" v="99908" />
	</node>
	<node lat="61.8052916649804" lon="6.464691670028605" id="-80008">
		<tag k="alt_name" v="Uspasete" />
		<tag k="name" v="Uspaset" />
		<tag k="natural" v="cape" />
		<tag k="ssr:stedsnr" v="131083" />
	</node>
	<node lat="61.85387500384165" lon="6.331394446312111" id="-80102">
		<tag k="bay" v="fjord" />
		<tag k="name" v="Utvikfjorden" />
		<tag k="natural" v="bay" />
		<tag k="ssr:stedsnr" v="192024" />
	</node>
	<node lat="61.85400833269942" lon="6.611963887674537" id="-80142">
		<tag k="name" v="Gamlebryggja" />
		<tag k="natural" v="cape" />
		<tag k="ssr:stedsnr" v="215379" />
	</node>
	<node lat="61.844808336491454" lon="6.308252778469431" id="-80171">
		<tag k="name" v="Brattestøa" />
		<tag k="natural" v="cape" />
		<tag k="ssr:stedsnr" v="253015" />
	</node>
	<node lat="61.87882777689924" lon="6.763888881595668" id="-80192">
		<tag k="name" v="Vetlevika" />
		<tag k="natural" v="bay" />
		<tag k="ssr:stedsnr" v="458026" />
	</node>
	<node lat="61.85241389109178" lon="6.791541659367746" id="-80198">
		<tag k="name" v="Råaneset" />
		<tag k="natural" v="cape" />
		<tag k="ssr:stedsnr" v="458195" />
	</node>
	<node lat="61.841561108058315" lon="6.800800003584214" id="-80200">
		<tag k="name" v="Kvitsanden" />
		<tag k="natural" v="beach" />
		<tag k="ssr:stedsnr" v="458201" />
	</node>
	<node lat="61.8522944404943" lon="6.358766659241094" id="-80212">
		<tag k="name" v="Tosken" />
		<tag k="natural" v="bay" />
		<tag k="ssr:stedsnr" v="458295" />
	</node>
	<node lat="61.874686115396" lon="6.550461110560169" id="-80295">
		<tag k="name" v="Dokksetstranda" />
		<tag k="natural" v="beach" />
		<tag k="ssr:stedsnr" v="282104" />
	</node>
	<node lat="61.81071944324535" lon="6.425611102829756" id="-80296">
		<tag k="name" v="Hushamrane" />
		<tag k="natural" v="beach" />
		<tag k="ssr:stedsnr" v="282076" />
	</node>
	<node lat="61.87531389163621" lon="6.769902776419062" id="-80367">
		<tag k="fixme" v="consider seamark:type=rock or natural=shoal" />
		<tag k="name" v="Skjeret" />
		<tag k="place" v="islet" />
		<tag k="ssr:stedsnr" v="336426" />
	</node>
	<node lat="61.8730138877302" lon="6.777266671282532" id="-80368">
		<tag k="name" v="Kleiva" />
		<tag k="natural" v="cape" />
		<tag k="ssr:stedsnr" v="336428" />
	</node>
	<node lat="61.81310277628513" lon="6.407702784749762" id="-80404">
		<tag k="name" v="Gjuvsvika" />
		<tag k="natural" v="bay" />
		<tag k="ssr:stedsnr" v="397189" />
	</node>
	<node lat="61.87479444727539" lon="6.836975006731777" id="-80442">
		<tag k="name" v="Korsvika" />
		<tag k="natural" v="bay" />
		<tag k="ssr:stedsnr" v="403493" />
	</node>
	<node lat="61.80707221852567" lon="6.4516194358274435" id="-80551">
		<tag k="name" v="Halvrø" />
		<tag k="natural" v="cape" />
		<tag k="ssr:stedsnr" v="678241" />
	</node>
	<node lat="61.83164166489807" lon="6.484377770884374" id="-80596">
		<tag k="name" v="Opleningen" />
		<tag k="natural" v="bay" />
		<tag k="ssr:stedsnr" v="518203" />
	</node>
	<node lat="61.813172223642695" lon="6.411141661941956" id="-80600">
		<tag k="name" v="Gjuvnes" />
		<tag k="natural" v="cape" />
		<tag k="ssr:stedsnr" v="518160" />
	</node>
	<node lat="61.808372220575755" lon="6.525972230482486" id="-80601">
		<tag k="name" v="Utvikstranda" />
		<tag k="natural" v="beach" />
		<tag k="ssr:stedsnr" v="518303" />
	</node>
	<node lat="61.80522222035312" lon="6.5009805588357645" id="-80605">
		<tag k="name" v="Brulandsstranda" />
		<tag k="natural" v="beach" />
		<tag k="ssr:stedsnr" v="518316" />
	</node>
	<node lat="61.86882778017573" lon="6.823647213220535" id="-80625">
		<tag k="name" v="Engagrunnen" />
		<tag k="natural" v="shoal" />
		<tag k="place" v="locality" />
		<tag k="ssr:stedsnr" v="524434" />
	</node>
	<node lat="61.81687777904027" lon="6.38444723108086" id="-80658">
		<tag k="name" v="Bukta" />
		<tag k="natural" v="bay" />
		<tag k="ssr:stedsnr" v="579146" />
	</node>
	<node lat="61.89309721931979" lon="6.706730563231345" id="-80696">
		<tag k="name" v="Visnestranda" />
		<tag k="natural" v="beach" />
		<tag k="ssr:stedsnr" v="585023" />
	</node>
	<node lat="61.818994442989556" lon="6.379083338665962" id="-80706">
		<tag k="name" v="Åretangane" />
		<tag k="natural" v="cape" />
		<tag k="ssr:stedsnr" v="700156" />
	</node>
	<node lat="61.86711667038218" lon="6.725833325469074" id="-80860">
		<tag k="name" v="Leirneset" />
		<tag k="natural" v="cape" />
		<tag k="ssr:stedsnr" v="700472" />
	</node>
	<node lat="61.86655832969701" lon="6.729786110166383" id="-80861">
		<tag k="name" v="Ugla" />
		<tag k="natural" v="cape" />
		<tag k="ssr:stedsnr" v="700474" />
	</node>
	<node lat="61.86950833487996" lon="6.592852772168742" id="-80959">
		<tag k="name" v="Nesagarden" />
		<tag k="natural" v="cape" />
		<tag k="ssr:stedsnr" v="761403" />
	</node>
	<node lat="61.86984999975955" lon="6.8242388920385135" id="-80969">
		<tag k="name" v="Engasteinen" />
		<tag k="place" v="locality" />
		<tag k="seamark:type" v="rock" />
		<tag k="ssr:stedsnr" v="767497" />
	</node>
	<node lat="61.80440832964579" lon="6.483952778339577" id="-81085">
		<tag k="name" v="Saltkjelen" />
		<tag k="natural" v="cape" />
		<tag k="ssr:stedsnr" v="859072" />
	</node>
	<node lat="61.818052777126404" lon="6.463088880064065" id="-81086">
		<tag k="bay" v="fjord" />
		<tag k="name" v="Innvikfjorden" />
		<tag k="natural" v="bay" />
		<tag k="ssr:stedsnr" v="859089" />
	</node>
	<node lat="61.85866667023254" lon="6.771361106031645" id="-81165">
		<tag k="name" v="Søtekjelda" />
		<tag k="natural" v="beach" />
		<tag k="ssr:stedsnr" v="883552" />
	</node>
	<node lat="61.83944999732926" lon="6.33139444896795" id="-81178">
		<tag k="name" v="Geitvika" />
		<tag k="natural" v="bay" />
		<tag k="ssr:stedsnr" v="920113" />
	</node>
	<node lat="61.87285277363505" lon="6.6889111168134905" id="-81386">
		<tag k="name" v="Treføttingen" />
		<tag k="natural" v="cape" />
		<tag k="ssr:stedsnr" v="33529" />
	</node>
	<node lat="61.87052500147768" lon="6.66640554706174" id="-81389">
		<tag k="name" v="Hjellsnes" />
		<tag k="natural" v="cape" />
		<tag k="ssr:stedsnr" v="33548" />
	</node>
	<node lat="61.831850001799246" lon="6.473424993477125" id="-81414">
		<tag k="alt_name" v="Sølvbergjekteløken" />
		<tag k="name" v="Sølvbergsjekteløken" />
		<tag k="natural" v="bay" />
		<tag k="ssr:stedsnr" v="33233" />
	</node>
	<node lat="61.843555551387034" lon="6.811091659538136" id="-81449">
		<tag k="name" v="Sandnesvika" />
		<tag k="natural" v="bay" />
		<tag k="ssr:stedsnr" v="39449" />
	</node>
	<node lat="61.8460194450624" lon="6.813025008366506" id="-81510">
		<tag k="name" v="Solstrand" />
		<tag k="natural" v="beach" />
		<tag k="ssr:stedsnr" v="100481" />
	</node>
	<node lat="61.88685833270715" lon="6.678722224610825" id="-81528">
		<tag k="name" v="Isakestoda" />
		<tag k="natural" v="bay" />
		<tag k="ssr:stedsnr" v="94052" />
	</node>
	<node lat="61.84732499781491" lon="6.289666663031052" id="-81531">
		<tag k="name" v="Benken" />
		<tag k="natural" v="cape" />
		<tag k="ssr:stedsnr" v="94156" />
	</node>
	<node lat="61.89651111144015" lon="6.69712222344388" id="-81631">
		<tag k="alt_name" v="Grønevik" />
		<tag k="name" v="Grønnevik" />
		<tag k="natural" v="bay" />
		<tag k="ssr:stedsnr" v="154029" />
	</node>
	<node lat="61.81977500290953" lon="6.376233332841335" id="-81653">
		<tag k="name" v="Hamna" />
		<tag k="natural" v="bay" />
		<tag k="ssr:stedsnr" v="154181" />
	</node>
	<node lat="61.83035555918497" lon="6.453461105709134" id="-81664">
		<tag k="name" v="Meistarjobordet" />
		<tag k="natural" v="cape" />
		<tag k="ssr:stedsnr" v="154286" />
	</node>
	<node lat="61.80585277928572" lon="6.458852786338684" id="-81677">
		<tag k="name" v="Brulandsstranda" />
		<tag k="natural" v="beach" />
		<tag k="ssr:stedsnr" v="154393" />
	</node>
	<node lat="61.86953889261081" lon="6.609619435326916" id="-81701">
		<tag k="name" v="Frøholmstranda" />
		<tag k="natural" v="beach" />
		<tag k="ssr:stedsnr" v="154420" />
	</node>
	<node lat="61.86727221994034" lon="6.540544452528703" id="-81702">
		<tag k="name" v="Doksetøyra" />
		<tag k="place" v="islet" />
		<tag k="ssr:stedsnr" v="154421" />
	</node>
	<node lat="61.81614444854048" lon="6.388488880737934" id="-81710">
		<tag k="name" v="Frøysetstranda" />
		<tag k="natural" v="beach" />
		<tag k="ssr:stedsnr" v="160050" />
	</node>
	<node lat="61.8466472201087" lon="6.2827083425461545" id="-81785">
		<tag k="name" v="Helgheimsvika" />
		<tag k="natural" v="bay" />
		<tag k="ssr:stedsnr" v="215134" />
	</node>
	<node lat="61.842602781028006" lon="6.810644452051921" id="-81791">
		<tag k="name" v="Sandneset" />
		<tag k="natural" v="cape" />
		<tag k="ssr:stedsnr" v="215157" />
	</node>
	<node lat="61.8493805532791" lon="6.8138888980347865" id="-81795">
		<tag k="alt_name" v="Flåtaneset" />
		<tag k="name" v="Flataneset" />
		<tag k="natural" v="cape" />
		<tag k="ssr:stedsnr" v="215167" />
	</node>
	<node lat="61.83065278051469" lon="6.456774991664165" id="-81796">
		<tag k="name" v="Foreneset" />
		<tag k="natural" v="cape" />
		<tag k="ssr:stedsnr" v="215233" />
	</node>
	<node lat="61.83090833099745" lon="6.445377769694994" id="-81797">
		<tag k="alt_name" v="Sølvbergstranda" />
		<tag k="name" v="Sølvbergsstranda" />
		<tag k="natural" v="beach" />
		<tag k="ssr:stedsnr" v="215236" />
	</node>
	<node lat="61.80603888655411" lon="6.50904999591383" id="-81814">
		<tag k="name" v="Fransøyra" />
		<tag k="natural" v="cape" />
		<tag k="ssr:stedsnr" v="215359" />
	</node>
	<node lat="61.875011109164156" lon="6.821713888728061" id="-81817">
		<tag k="name" v="Hellevika" />
		<tag k="natural" v="bay" />
		<tag k="ssr:stedsnr" v="215200" />
	</node>
	<node lat="61.81818055920501" lon="6.543652786220813" id="-81830">
		<tag k="name" v="Brangsneset" />
		<tag k="natural" v="cape" />
		<tag k="ssr:stedsnr" v="215433" />
	</node>
	<node lat="61.85984166342782" lon="6.814738890548947" id="-81850">
		<tag k="name" v="Kråkeneset" />
		<tag k="natural" v="cape" />
		<tag k="ssr:stedsnr" v="221466" />
	</node>
	<node lat="61.80511111508312" lon="6.498386113105519" id="-81893">
		<tag k="name" v="Djupevika" />
		<tag k="natural" v="bay" />
		<tag k="ssr:stedsnr" v="276361" />
	</node>
	<node lat="61.82972304937726" lon="6.440637454635552" id="-81937">
		<tag k="name" v="Lindestøneset" />
		<tag k="natural" v="cape" />
		<tag k="ssr:stedsnr" v="313124" />
	</node>
	<node lat="61.83268611491384" lon="6.520933334930322" id="-81938">
		<tag k="name" v="Ulvedalsneset" />
		<tag k="natural" v="cape" />
		<tag k="ssr:stedsnr" v="313141" />
	</node>
	<node lat="61.80469722454002" lon="6.4712833359272475" id="-81998">
		<tag k="name" v="Svinaneset" />
		<tag k="natural" v="cape" />
		<tag k="ssr:stedsnr" v="336318" />
	</node>
	<node lat="61.829519448223806" lon="6.5647194499039205" id="-82076">
		<tag k="alt_name" v="Halrø" />
		<tag k="name" v="Halvrø" />
		<tag k="natural" v="cape" />
		<tag k="ssr:stedsnr" v="495090" />
	</node>
	<node lat="61.888627776345096" lon="6.707022223271228" id="-82086">
		<tag k="name" v="Skoganeset" />
		<tag k="natural" v="cape" />
		<tag k="ssr:stedsnr" v="397032" />
	</node>
	<node lat="61.871466670842594" lon="6.6604333342539395" id="-82144">
		<tag k="name" v="Lasen" />
		<tag k="natural" v="cape" />
		<tag k="ssr:stedsnr" v="397516" />
	</node>
	<node lat="61.876766667239586" lon="6.769472220285099" id="-82162">
		<tag k="name" v="Marsåvika" />
		<tag k="natural" v="bay" />
		<tag k="ssr:stedsnr" v="435285" />
	</node>
	<node lat="61.845675003166555" lon="6.371380548210716" id="-82232">
		<tag k="name" v="Trynsvika" />
		<tag k="natural" v="bay" />
		<tag k="ssr:stedsnr" v="518238" />
	</node>
	<node lat="61.872136110566366" lon="6.6954444410576865" id="-82266">
		<tag k="name" v="Steinastoda" />
		<tag k="natural" v="cape" />
		<tag k="ssr:stedsnr" v="518458" />
	</node>
	<node lat="61.86716944471258" lon="6.582086120171904" id="-82350">
		<tag k="name" v="Saltkjelen" />
		<tag k="natural" v="beach" />
		<tag k="ssr:stedsnr" v="579376" />
	</node>
	<node lat="61.84363333689314" lon="6.800483331414638" id="-82413">
		<tag k="name" v="Skarsteinneset" />
		<tag k="natural" v="cape" />
		<tag k="ssr:stedsnr" v="639188" />
	</node>
	<node lat="61.824255554381395" lon="6.3695611175168" id="-82424">
		<tag k="name" v="Korset" />
		<tag k="natural" v="cape" />
		<tag k="ssr:stedsnr" v="639157" />
	</node>
	<node lat="61.86520277441854" lon="6.740036113522768" id="-82452">
		<tag k="name" v="Knarren" />
		<tag k="natural" v="cape" />
		<tag k="ssr:stedsnr" v="639492" />
	</node>
	<node lat="61.822994442167534" lon="6.3732972308696745" id="-82518">
		<tag k="name" v="Sagebryggja" />
		<tag k="natural" v="cape" />
		<tag k="ssr:stedsnr" v="761170" />
	</node>
	<node lat="61.80936666537472" lon="6.522505548572382" id="-82557">
		<tag k="name" v="Kårstadbukta" />
		<tag k="natural" v="bay" />
		<tag k="ssr:stedsnr" v="767896" />
	</node>
	<node lat="61.85285832925781" lon="6.609958339502233" id="-82558">
		<tag k="name" v="Innvikbukta" />
		<tag k="natural" v="bay" />
		<tag k="ssr:stedsnr" v="767900" />
	</node>
	<node lat="61.832477774766446" lon="6.574058331354638" id="-82571">
		<tag k="name" v="Kollesteinane" />
		<tag k="natural" v="cape" />
		<tag k="ssr:stedsnr" v="799130" />
	</node>
	<node lat="61.896350004095666" lon="5.275972217222969" id="-82573">
		<tag k="alt_name" v="Nordfjorden" />
		<tag k="bay" v="fjord" />
		<tag k="name" v="Nordfjord" />
		<tag k="natural" v="bay" />
		<tag k="ssr:stedsnr" v="799219" />
	</node>
	<node lat="61.87818332945497" lon="6.593941659774947" id="-82584">
		<tag k="alt_name" v="Faleidfjorden" />
		<tag k="bay" v="fjord" />
		<tag k="name" v="Faleidsfjorden" />
		<tag k="natural" v="bay" />
		<tag k="ssr:stedsnr" v="799265" />
	</node>
	<node lat="61.84718055749905" lon="6.2867305593786975" id="-82618">
		<tag k="name" v="Helgheimsvikneset" />
		<tag k="natural" v="cape" />
		<tag k="ssr:stedsnr" v="822135" />
	</node>
	<node lat="61.88356110869153" lon="6.573555565164191" id="-82776">
		<tag k="name" v="Bjørneskorvika" />
		<tag k="natural" v="bay" />
		<tag k="ssr:stedsnr" v="883528" />
	</node>
	<node lat="61.84771389220476" lon="6.60845833478922" id="-82781">
		<tag k="name" v="Bogen" />
		<tag k="natural" v="bay" />
		<tag k="ssr:stedsnr" v="888884" />
	</node>
	<node lat="61.82714999567372" lon="6.356922223662829" id="-82791">
		<tag k="name" v="Sagesanden" />
		<tag k="natural" v="beach" />
		<tag k="ssr:stedsnr" v="943153" />
	</node>
	<node lat="61.83945277582651" lon="6.334363893275358" id="-82813">
		<tag k="alt_name" v="Moldrheimsneset" />
		<tag k="name" v="Moldreimsneset" />
		<tag k="natural" v="cape" />
		<tag k="ssr:stedsnr" v="943251" />
	</node>
	<node lat="61.85965555257758" lon="6.8123861107526125" id="-82827">
		<tag k="fixme" v="consider seamark:type=rock or natural=shoal" />
		<tag k="name" v="Kråka" />
		<tag k="place" v="islet" />
		<tag k="ssr:stedsnr" v="943204" />
	</node>
	<node lat="61.89040277727812" lon="6.6288249931873" id="-82864">
		<tag k="name" v="Svarstadvika" />
		<tag k="natural" v="bay" />
		<tag k="ssr:stedsnr" v="943399" />
	</node>
</osm>
