<?xml version="1.0" encoding="UTF-8"?>
<osm version="0.6" generator="osmapis">
	<node lat="61.869255558859535" lon="6.317352777658259" id="-79813">
		<tag k="name" v="Hoplandselva" />
		<tag k="ssr:stedsnr" v="10040" />
		<tag k="waterway" v="stream" />
	</node>
	<node lat="61.97208333762862" lon="6.928777778221719" id="-79816">
		<tag k="name" v="Tverrelva" />
		<tag k="ssr:stedsnr" v="10202" />
		<tag k="waterway" v="stream" />
	</node>
	<node lat="61.99182305925304" lon="7.362331249275411" id="-79828">
		<tag k="name" v="Oppljosvatnet" />
		<tag k="natural" v="water" />
		<tag k="ssr:stedsnr" v="10404" />
		<tag k="water" v="lake" />
	</node>
	<node lat="61.896577779568325" lon="6.3343388850491475" id="-79832">
		<tag k="name" v="Skadevatnet" />
		<tag k="natural" v="water" />
		<tag k="ssr:stedsnr" v="10986" />
	</node>
	<node lat="61.77265555865792" lon="6.832941672833164" id="-79841">
		<tag k="name" v="Årnes" />
		<tag k="natural" v="cape" />
		<tag k="ssr:stedsnr" v="33106" />
	</node>
	<node lat="61.852077775097996" lon="6.891855548445501" id="-79842">
		<tag k="name" v="Fureneset" />
		<tag k="natural" v="cape" />
		<tag k="ssr:stedsnr" v="33171" />
	</node>
	<node lat="61.91618611368965" lon="6.788713895342598" id="-79845">
		<tag k="name" v="Heggeøyna" />
		<tag k="place" v="islet" />
		<tag k="ssr:stedsnr" v="33175" />
	</node>
	<node lat="61.918611107491266" lon="6.800669437540787" id="-79846">
		<tag k="name" v="Stauriøyna" />
		<tag k="natural" v="water" />
		<tag k="ssr:stedsnr" v="33178" />
		<tag k="water" v="lake" />
	</node>
	<node lat="61.95286666845196" lon="6.965147223553665" id="-79849">
		<tag k="name" v="Snytta" />
		<tag k="ssr:stedsnr" v="33311" />
		<tag k="waterway" v="stream" />
	</node>
	<node lat="61.84524722329856" lon="6.446538885968323" id="-79850">
		<tag k="name" v="Resene" />
		<tag k="natural" v="water" />
		<tag k="ssr:stedsnr" v="33313" />
		<tag k="water" v="lake" />
	</node>
	<node lat="61.867666668381304" lon="6.867524998097056" id="-79854">
		<tag k="name" v="Lofossen" />
		<tag k="natural" v="waterfall" />
		<tag k="ssr:stedsnr" v="33208" />
	</node>
	<node lat="61.817499995466804" lon="6.949674993350578" id="-79859">
		<tag k="name" v="Stingendevika" />
		<tag k="natural" v="bay" />
		<tag k="ssr:stedsnr" v="33221" />
	</node>
	<node lat="61.84765000312712" lon="7.155358342216262" id="-79881">
		<tag k="name" v="Guriholtjørna" />
		<tag k="natural" v="water" />
		<tag k="ssr:stedsnr" v="33568" />
	</node>
	<node lat="61.82162778188744" lon="6.360833324035756" id="-79888">
		<tag k="name" v="Storøyelva" />
		<tag k="ssr:stedsnr" v="70107" />
		<tag k="waterway" v="stream" />
	</node>
	<node lat="61.88850832955024" lon="6.526402770557167" id="-79891">
		<tag k="name" v="Robjørgdemma" />
		<tag k="natural" v="water" />
		<tag k="ssr:stedsnr" v="70028" />
	</node>
	<node lat="61.89845833411945" lon="6.519336113714606" id="-79904">
		<tag k="name" v="Storevatnet" />
		<tag k="natural" v="water" />
		<tag k="ssr:stedsnr" v="70980" />
	</node>
	<node lat="61.89551389157845" lon="6.552602774274911" id="-79906">
		<tag k="name" v="Storvasselva" />
		<tag k="ssr:stedsnr" v="70982" />
		<tag k="waterway" v="stream" />
	</node>
	<node lat="62.02277888077185" lon="7.223298551621908" id="-79907">
		<tag k="name" v="Skjerdingdalsvatna" />
		<tag k="natural" v="water" />
		<tag k="ssr:stedsnr" v="71181" />
		<tag k="water" v="lake" />
	</node>
	<node lat="61.94105277361161" lon="7.109849990840916" id="-79909">
		<tag k="name" v="Nøkkvatnet" />
		<tag k="natural" v="water" />
		<tag k="ssr:stedsnr" v="71423" />
	</node>
	<node lat="61.90228888711692" lon="7.252652771956325" id="-79915">
		<tag k="name" v="Svoragrova" />
		<tag k="ssr:stedsnr" v="71518" />
		<tag k="waterway" v="stream" />
	</node>
	<node lat="61.909724569213445" lon="6.7437187336057205" id="-79931">
		<tag k="alt_name" v="Sundeløkken" />
		<tag k="name" v="Sundeløken" />
		<tag k="natural" v="water" />
		<tag k="ssr:stedsnr" v="94067" />
		<tag k="water" v="lake" />
	</node>
	<node lat="61.799866663373955" lon="6.823583330873473" id="-79932">
		<tag k="name" v="Osneset" />
		<tag k="natural" v="cape" />
		<tag k="ssr:stedsnr" v="94070" />
	</node>
	<node lat="61.79766389080097" lon="6.82091387947121" id="-79933">
		<tag k="name" v="Storøyra" />
		<tag k="natural" v="cape" />
		<tag k="ssr:stedsnr" v="94075" />
	</node>
	<node lat="61.92974999619927" lon="6.592811110352935" id="-79955">
		<tag k="name" v="Sauetjørna" />
		<tag k="natural" v="water" />
		<tag k="ssr:stedsnr" v="94470" />
	</node>
	<node lat="61.80460833253465" lon="7.098236110469026" id="-79965">
		<tag k="name" v="Skålelva" />
		<tag k="ssr:stedsnr" v="94397" />
		<tag k="waterway" v="river" />
	</node>
	<node lat="61.946158337701426" lon="7.112327769882841" id="-79968">
		<tag k="name" v="Øykeskargrova" />
		<tag k="ssr:stedsnr" v="94505" />
		<tag k="waterway" v="stream" />
	</node>
	<node lat="61.955119446339324" lon="7.038441659126798" id="-79969">
		<tag k="name" v="Oppigardselva" />
		<tag k="ssr:stedsnr" v="94507" />
		<tag k="waterway" v="stream" />
	</node>
	<node lat="61.830725004047615" lon="6.9761194383181415" id="-79974">
		<tag k="name" v="Glæra" />
		<tag k="ssr:stedsnr" v="94525" />
		<tag k="waterway" v="stream" />
	</node>
	<node lat="61.874377776508936" lon="6.3298388937696535" id="-79977">
		<tag k="name" v="Randaelva" />
		<tag k="ssr:stedsnr" v="252038" />
		<tag k="waterway" v="stream" />
	</node>
	<node lat="61.796031347064876" lon="7.102821049996962" id="-79994">
		<tag k="name" v="Sætrevatnet" />
		<tag k="natural" v="water" />
		<tag k="ssr:stedsnr" v="252527" />
	</node>
	<node lat="61.68221388707673" lon="6.831916669568783" id="-79999">
		<tag k="name" v="Brenna" />
		<tag k="ssr:stedsnr" v="130917" />
		<tag k="waterway" v="stream" />
	</node>
	<node lat="61.78858610749861" lon="6.535711102171834" id="-80012">
		<tag k="name" v="Tverrelva" />
		<tag k="ssr:stedsnr" v="131209" />
		<tag k="waterway" v="stream" />
	</node>
	<node lat="61.920202775076696" lon="6.89817222398577" id="-80018">
		<tag k="alt_name" v="Rasdøla" />
		<tag k="name" v="Råsdøla" />
		<tag k="ssr:stedsnr" v="131277" />
		<tag k="waterway" v="stream" />
	</node>
	<node lat="61.74644722572364" lon="7.0456083333091355" id="-80025">
		<tag k="name" v="Kruneelva" />
		<tag k="ssr:stedsnr" v="252657" />
		<tag k="waterway" v="river" />
	</node>
	<node lat="61.76903333569816" lon="6.843383326446148" id="-80044">
		<tag k="name" v="Reidåna" />
		<tag k="ssr:stedsnr" v="253478" />
		<tag k="waterway" v="stream" />
	</node>
	<node lat="61.92941111318064" lon="6.463286101953014" id="-80064">
		<tag k="name" v="Kupegrova" />
		<tag k="ssr:stedsnr" v="154339" />
		<tag k="waterway" v="stream" />
	</node>
	<node lat="61.92677222594271" lon="6.465358342479937" id="-80066">
		<tag k="name" v="Demma" />
		<tag k="natural" v="water" />
		<tag k="ssr:stedsnr" v="154341" />
		<tag k="water" v="lake" />
	</node>
	<node lat="61.91131388849153" lon="6.697711116567607" id="-80068">
		<tag k="name" v="Busvadet" />
		<tag k="natural" v="water" />
		<tag k="ssr:stedsnr" v="154052" />
		<tag k="water" v="lake" />
	</node>
	<node lat="61.85744444266903" lon="6.347113884075164" id="-80080">
		<tag k="name" v="Trollfossen" />
		<tag k="natural" v="waterfall" />
		<tag k="ssr:stedsnr" v="154298" />
	</node>
	<node lat="61.79719721955234" lon="6.507747213674293" id="-80085">
		<tag k="name" v="Brulandselva" />
		<tag k="ssr:stedsnr" v="154515" />
		<tag k="waterway" v="river" />
	</node>
	<node lat="61.85901944264149" lon="6.490550003370144" id="-80086">
		<tag k="name" v="Kjerringeskarelva" />
		<tag k="ssr:stedsnr" v="154516" />
		<tag k="waterway" v="stream" />
	</node>
	<node lat="61.92710000235337" lon="6.557436114538689" id="-80092">
		<tag k="name" v="Mattistjørna" />
		<tag k="natural" v="water" />
		<tag k="ssr:stedsnr" v="154561" />
	</node>
	<node lat="61.74839444154423" lon="6.781494445443676" id="-80097">
		<tag k="alt_name" v="Heimefonna" />
		<tag k="name" v="Heimgrova" />
		<tag k="ssr:stedsnr" v="191857" />
		<tag k="waterway" v="stream" />
	</node>
	<node lat="61.67493611371755" lon="6.807480550681738" id="-80098">
		<tag k="alt_name" v="Blåfossen" />
		<tag k="name" v="Melkevollfossen" />
		<tag k="natural" v="waterfall" />
		<tag k="ssr:stedsnr" v="191901" />
	</node>
	<node lat="61.850266665178715" lon="6.918325005659679" id="-80120">
		<tag k="name" v="Meisa" />
		<tag k="natural" v="cape" />
		<tag k="ssr:stedsnr" v="215310" />
	</node>
	<node lat="61.8640222234105" lon="6.85424167181283" id="-80131">
		<tag k="name" v="Glennegrova" />
		<tag k="ssr:stedsnr" v="215208" />
		<tag k="waterway" v="stream" />
	</node>
	<node lat="61.84924722176075" lon="6.38304165891712" id="-80136">
		<tag k="name" v="Instegrova" />
		<tag k="ssr:stedsnr" v="215283" />
		<tag k="waterway" v="stream" />
	</node>
	<node lat="61.915336114702086" lon="6.614541675869177" id="-80143">
		<tag k="name" v="Embrevika" />
		<tag k="natural" v="bay" />
		<tag k="ssr:stedsnr" v="215502" />
	</node>
	<node lat="61.939016669008716" lon="7.045519440913522" id="-80146">
		<tag k="name" v="Bulegene" />
		<tag k="natural" v="beach" />
		<tag k="ssr:stedsnr" v="215511" />
	</node>
	<node lat="61.85778055611114" lon="6.7615861064697835" id="-80148">
		<tag k="name" v="Stølsgrova" />
		<tag k="ssr:stedsnr" v="215532" />
		<tag k="waterway" v="stream" />
	</node>
	<node lat="61.90615278173563" lon="6.657352781471544" id="-80153">
		<tag k="name" v="Skarseldalstjørna" />
		<tag k="natural" v="water" />
		<tag k="ssr:stedsnr" v="215474" />
	</node>
	<node lat="61.891341667861575" lon="6.755661116587566" id="-80176">
		<tag k="name" v="Langevatnet" />
		<tag k="natural" v="water" />
		<tag k="ssr:stedsnr" v="253323" />
	</node>
	<node lat="61.873766666878986" lon="7.128544440953003" id="-80179">
		<tag k="name" v="Greidungssvora" />
		<tag k="ssr:stedsnr" v="253504" />
		<tag k="waterway" v="stream" />
	</node>
	<node lat="61.89572222536643" lon="6.314822216785865" id="-80186">
		<tag k="name" v="Daurdalsvatnet" />
		<tag k="natural" v="water" />
		<tag k="ssr:stedsnr" v="253989" />
	</node>
	<node lat="61.92751111353257" lon="6.859638897399703" id="-80202">
		<tag k="name" v="Eineneset" />
		<tag k="natural" v="cape" />
		<tag k="ssr:stedsnr" v="458267" />
	</node>
	<node lat="61.924616664780416" lon="6.828813884087854" id="-80203">
		<tag k="name" v="Gjørveøyane" />
		<tag k="natural" v="water" />
		<tag k="ssr:stedsnr" v="458272" />
		<tag k="water" v="lake" />
	</node>
	<node lat="61.92706944449626" lon="6.7831249953193185" id="-80211">
		<tag k="name" v="Forhammarsgrova" />
		<tag k="ssr:stedsnr" v="458284" />
		<tag k="waterway" v="stream" />
	</node>
	<node lat="61.95839444382297" lon="6.9323861103141144" id="-80213">
		<tag k="name" v="Kvitlefossen" />
		<tag k="natural" v="waterfall" />
		<tag k="ssr:stedsnr" v="458299" />
	</node>
	<node lat="61.81132499697202" lon="6.964022217936778" id="-80218">
		<tag k="name" v="Årena" />
		<tag k="natural" v="cape" />
		<tag k="ssr:stedsnr" v="458349" />
	</node>
	<node lat="61.91270278011242" lon="7.029688880137691" id="-80226">
		<tag k="name" v="Bulega" />
		<tag k="natural" v="cape" />
		<tag k="ssr:stedsnr" v="458374" />
	</node>
	<node lat="61.902580553261814" lon="6.699063882275604" id="-80234">
		<tag k="name" v="Vikaleirane" />
		<tag k="natural" v="bay" />
		<tag k="ssr:stedsnr" v="458530" />
	</node>
	<node lat="61.81824166702606" lon="6.699302770069125" id="-80241">
		<tag k="name" v="Storelva" />
		<tag k="ssr:stedsnr" v="458546" />
		<tag k="waterway" v="river" />
	</node>
	<node lat="61.92052222490863" lon="6.767358336603474" id="-80248">
		<tag k="name" v="Arnekvia" />
		<tag k="natural" v="water" />
		<tag k="ssr:stedsnr" v="276016" />
		<tag k="water" v="lake" />
	</node>
	<node lat="61.905108333913724" lon="6.730372231101582" id="-80257">
		<tag k="name" v="Årheimsøya" />
		<tag k="place" v="islet" />
		<tag k="ssr:stedsnr" v="276076" />
	</node>
	<node lat="61.78006944694568" lon="6.84115277463306" id="-80258">
		<tag k="name" v="Svora" />
		<tag k="ssr:stedsnr" v="276109" />
		<tag k="waterway" v="stream" />
	</node>
	<node lat="61.70866111085182" lon="6.8082833302074235" id="-80260">
		<tag k="name" v="Dalelvesanden" />
		<tag k="natural" v="bay" />
		<tag k="ssr:stedsnr" v="276118" />
	</node>
	<node lat="61.84292777973008" lon="6.824347228465088" id="-80262">
		<tag k="name" v="Fossagrova" />
		<tag k="ssr:stedsnr" v="276175" />
		<tag k="waterway" v="stream" />
	</node>
	<node lat="61.8384166699305" lon="6.830277769561829" id="-80263">
		<tag k="name" v="Tjøta" />
		<tag k="ssr:stedsnr" v="276177" />
		<tag k="waterway" v="river" />
	</node>
	<node lat="61.86755000239146" lon="6.366280555607839" id="-80270">
		<tag k="name" v="Tverrgrova" />
		<tag k="ssr:stedsnr" v="276286" />
		<tag k="waterway" v="stream" />
	</node>
	<node lat="61.93197222271606" lon="6.930966665423958" id="-80277">
		<tag k="name" v="Øyraneset" />
		<tag k="natural" v="cape" />
		<tag k="ssr:stedsnr" v="276415" />
	</node>
	<node lat="61.83821666402257" lon="6.774899997575759" id="-80292">
		<tag k="name" v="Simaelva" />
		<tag k="ssr:stedsnr" v="276514" />
		<tag k="waterway" v="stream" />
	</node>
	<node lat="61.90008611038864" lon="6.705797217274757" id="-80293">
		<tag k="name" v="Storeleira" />
		<tag k="place" v="islet" />
		<tag k="ssr:stedsnr" v="276516" />
	</node>
	<node lat="61.858245263502454" lon="6.414452094772455" id="-80312">
		<tag k="name" v="Budalsvatna" />
		<tag k="natural" v="water" />
		<tag k="ssr:stedsnr" v="313017" />
		<tag k="water" v="lake" />
	</node>
	<node lat="61.81555555708555" lon="6.564802785464363" id="-80315">
		<tag k="name" v="Innlegdelva" />
		<tag k="ssr:stedsnr" v="313082" />
		<tag k="waterway" v="stream" />
	</node>
	<node lat="61.92554999899243" lon="6.918666666187779" id="-80320">
		<tag k="name" v="Rjupedalselva" />
		<tag k="ssr:stedsnr" v="313309" />
		<tag k="waterway" v="stream" />
	</node>
	<node lat="61.94164444625269" lon="7.237333332654888" id="-80324">
		<tag k="name" v="Glera" />
		<tag k="ssr:stedsnr" v="313374" />
		<tag k="waterway" v="stream" />
	</node>
	<node lat="61.917058330568224" lon="6.964444453510323" id="-80327">
		<tag k="name" v="Brekkedalsvatnet" />
		<tag k="natural" v="water" />
		<tag k="ssr:stedsnr" v="313270" />
	</node>
	<node lat="61.90310277388373" lon="7.1726333408719976" id="-80329">
		<tag k="alt_name" v="Svellingsfonngrova" />
		<tag k="name" v="Svelingsgrova" />
		<tag k="ssr:stedsnr" v="313466" />
		<tag k="waterway" v="stream" />
	</node>
	<node lat="61.775536106941935" lon="6.941691657862754" id="-80334">
		<tag k="name" v="Vesledalselva" />
		<tag k="ssr:stedsnr" v="314471" />
		<tag k="waterway" v="stream" />
	</node>
	<node lat="61.91787777773911" lon="6.853030552850064" id="-80345">
		<tag k="name" v="Svortesvada" />
		<tag k="ssr:stedsnr" v="336147" />
		<tag k="waterway" v="stream" />
	</node>
	<node lat="61.78251389179907" lon="6.817799999111479" id="-80354">
		<tag k="name" v="Breinnesvikane" />
		<tag k="natural" v="bay" />
		<tag k="ssr:stedsnr" v="336098" />
	</node>
	<node lat="61.91431388798836" lon="7.109330555453462" id="-80356">
		<tag k="name" v="Odden" />
		<tag k="natural" v="cape" />
		<tag k="ssr:stedsnr" v="336343" />
	</node>
	<node lat="61.89750555544572" lon="7.190727777249481" id="-80361">
		<tag k="name" v="Trongurgrova" />
		<tag k="ssr:stedsnr" v="336395" />
		<tag k="waterway" v="stream" />
	</node>
	<node lat="61.89541111385961" lon="7.09024721803046" id="-80364">
		<tag k="name" v="Kupenes" />
		<tag k="natural" v="cape" />
		<tag k="ssr:stedsnr" v="336404" />
	</node>
	<node lat="61.948477781098426" lon="6.69203054814329" id="-80375">
		<tag k="name" v="Svartevatnet" />
		<tag k="natural" v="water" />
		<tag k="ssr:stedsnr" v="373198" />
	</node>
	<node lat="61.800794441109446" lon="6.427024994462021" id="-80385">
		<tag k="name" v="Svorelva" />
		<tag k="ssr:stedsnr" v="374094" />
		<tag k="waterway" v="stream" />
	</node>
	<node lat="61.81543055408141" lon="6.873636104190122" id="-80390">
		<tag k="name" v="Solheimsvatnet" />
		<tag k="natural" v="water" />
		<tag k="ssr:stedsnr" v="374339" />
	</node>
	<node lat="61.814905559167265" lon="6.956836105896934" id="-80415">
		<tag k="name" v="Pjånkevika" />
		<tag k="natural" v="bay" />
		<tag k="ssr:stedsnr" v="397230" />
	</node>
	<node lat="61.82743055460538" lon="6.64641388500658" id="-80427">
		<tag k="name" v="Tverrelva" />
		<tag k="ssr:stedsnr" v="397393" />
		<tag k="waterway" v="river" />
	</node>
	<node lat="61.842338888963255" lon="6.932727784132632" id="-80461">
		<tag k="name" v="Lovatnet" />
		<tag k="natural" v="water" />
		<tag k="ssr:stedsnr" v="435383" />
		<tag k="water" v="lake" />
	</node>
	<node lat="61.92492777992582" lon="6.511430548290166" id="-80469">
		<tag k="name" v="Kvithella" />
		<tag k="ssr:stedsnr" v="435980" />
		<tag k="waterway" v="stream" />
	</node>
	<node lat="61.932497221504846" lon="6.525480552593228" id="-80474">
		<tag k="name" v="Grotjørna" />
		<tag k="natural" v="water" />
		<tag k="ssr:stedsnr" v="457279" />
	</node>
	<node lat="61.84982222542852" lon="6.494011119959601" id="-80493">
		<tag k="name" v="Brekkeøyrane" />
		<tag k="natural" v="cape" />
		<tag k="ssr:stedsnr" v="458318" />
	</node>
	<node lat="61.92704999698576" lon="6.917430550371202" id="-80497">
		<tag k="name" v="Veslefossen" />
		<tag k="natural" v="waterfall" />
		<tag k="ssr:stedsnr" v="458406" />
	</node>
	<node lat="61.9198000020171" lon="7.084222226316956" id="-80509">
		<tag k="name" v="Skarpenes" />
		<tag k="natural" v="cape" />
		<tag k="ssr:stedsnr" v="458511" />
	</node>
	<node lat="61.66491389046959" lon="6.838141657792741" id="-80510">
		<tag k="name" v="Briksdalselva" />
		<tag k="ssr:stedsnr" v="458519" />
		<tag k="waterway" v="river" />
	</node>
	<node lat="61.70523611535555" lon="6.800844441499625" id="-80511">
		<tag k="name" v="Rustøyelva" />
		<tag k="ssr:stedsnr" v="458520" />
		<tag k="waterway" v="river" />
	</node>
	<node lat="61.92576944791122" lon="6.592611105102166" id="-80512">
		<tag k="name" v="Grønesøyla" />
		<tag k="ssr:stedsnr" v="458560" />
		<tag k="waterway" v="stream" />
	</node>
	<node lat="61.87469166866254" lon="7.104191666419309" id="-80540">
		<tag k="name" v="Tundra" />
		<tag k="ssr:stedsnr" v="677449" />
		<tag k="waterway" v="stream" />
	</node>
	<node lat="61.90745277937586" lon="7.006836107413631" id="-80541">
		<tag k="name" v="Bulega" />
		<tag k="ssr:stedsnr" v="677482" />
		<tag k="waterway" v="stream" />
	</node>
	<node lat="61.92161388668784" lon="6.550074991303296" id="-80546">
		<tag k="name" v="Sindreelva" />
		<tag k="ssr:stedsnr" v="677968" />
		<tag k="waterway" v="river" />
	</node>
	<node lat="61.75557222140683" lon="6.823850001090786" id="-80556">
		<tag k="name" v="Storelva" />
		<tag k="ssr:stedsnr" v="678436" />
		<tag k="waterway" v="stream" />
	</node>
	<node lat="61.65634166992391" lon="6.811652782297371" id="-80562">
		<tag k="name" v="Svadåna" />
		<tag k="ssr:stedsnr" v="494933" />
		<tag k="waterway" v="stream" />
	</node>
	<node lat="61.79021666858443" lon="6.845016661658357" id="-80579">
		<tag k="alt_name" v="Aksneselva" />
		<tag k="name" v="Aksnesa" />
		<tag k="ssr:stedsnr" v="495430" />
		<tag k="waterway" v="stream" />
	</node>
	<node lat="61.84763055222276" lon="6.951608329491682" id="-80604">
		<tag k="name" v="Grønefossen" />
		<tag k="natural" v="waterfall" />
		<tag k="ssr:stedsnr" v="518310" />
	</node>
	<node lat="61.917341671087165" lon="6.6558777768260375" id="-80621">
		<tag k="name" v="Lomtjørna" />
		<tag k="natural" v="water" />
		<tag k="ssr:stedsnr" v="518420" />
	</node>
	<node lat="61.79720555451555" lon="6.514072219463463" id="-80638">
		<tag k="name" v="Suggegrova" />
		<tag k="ssr:stedsnr" v="556099" />
		<tag k="waterway" v="stream" />
	</node>
	<node lat="61.87916388549205" lon="6.810536115108499" id="-80657">
		<tag k="name" v="Gjølelva" />
		<tag k="ssr:stedsnr" v="579255" />
		<tag k="waterway" v="stream" />
	</node>
	<node lat="61.85339166788855" lon="6.889352785656844" id="-80660">
		<tag k="name" v="Fiskekoven" />
		<tag k="natural" v="bay" />
		<tag k="ssr:stedsnr" v="579149" />
	</node>
	<node lat="61.84420278179795" lon="6.888361104364004" id="-80664">
		<tag k="name" v="Vikagjølet" />
		<tag k="ssr:stedsnr" v="579156" />
		<tag k="waterway" v="stream" />
	</node>
	<node lat="61.852805554625334" lon="6.497416663396931" id="-80672">
		<tag k="name" v="Hopen" />
		<tag k="natural" v="bay" />
		<tag k="ssr:stedsnr" v="579295" />
	</node>
	<node lat="61.85102777880935" lon="6.495636107496803" id="-80673">
		<tag k="name" v="Langøyrane" />
		<tag k="natural" v="cape" />
		<tag k="ssr:stedsnr" v="579296" />
	</node>
	<node lat="61.9357944467386" lon="6.670202778008063" id="-80701">
		<tag k="name" v="Holtevasselva" />
		<tag k="ssr:stedsnr" v="700047" />
		<tag k="waterway" v="river" />
	</node>
	<node lat="61.839847222424844" lon="6.630133333808454" id="-80714">
		<tag k="name" v="Drivfossen" />
		<tag k="natural" v="waterfall" />
		<tag k="ssr:stedsnr" v="700338" />
	</node>
	<node lat="61.8242888845727" lon="6.616944437223956" id="-80721">
		<tag k="name" v="Oppigardselva" />
		<tag k="ssr:stedsnr" v="700382" />
		<tag k="waterway" v="stream" />
	</node>
	<node lat="61.767655553669194" lon="6.835766668252863" id="-80725">
		<tag k="name" v="Kvernelva" />
		<tag k="ssr:stedsnr" v="700457" />
		<tag k="waterway" v="stream" />
	</node>
	<node lat="61.95906110832235" lon="7.032319444378385" id="-80746">
		<tag k="name" v="Seltuftegrova" />
		<tag k="ssr:stedsnr" v="701480" />
		<tag k="waterway" v="stream" />
	</node>
	<node lat="61.87125833692852" lon="6.525058329306214" id="-80754">
		<tag k="name" v="Steindøla" />
		<tag k="ssr:stedsnr" v="616005" />
		<tag k="waterway" v="stream" />
	</node>
	<node lat="61.91653333599388" lon="6.812786112371946" id="-80760">
		<tag k="name" v="Fessa" />
		<tag k="ssr:stedsnr" v="616252" />
		<tag k="waterway" v="stream" />
	</node>
	<node lat="61.86789999777683" lon="6.872869440948053" id="-80770">
		<tag k="name" v="Loelva" />
		<tag k="ssr:stedsnr" v="616343" />
		<tag k="waterway" v="river" />
	</node>
	<node lat="61.88298493835369" lon="6.782016619509217" id="-80776">
		<tag k="name" v="Marsåelva" />
		<tag k="ssr:stedsnr" v="617295" />
		<tag k="waterway" v="stream" />
	</node>
	<node lat="61.76115833124291" lon="6.792650007909725" id="-80780">
		<tag k="name" v="Kroka" />
		<tag k="ssr:stedsnr" v="617439" />
		<tag k="waterway" v="stream" />
	</node>
	<node lat="61.771224998045454" lon="6.834455546981035" id="-80787">
		<tag k="name" v="Årneselva" />
		<tag k="ssr:stedsnr" v="639107" />
		<tag k="waterway" v="river" />
	</node>
	<node lat="61.923286108039406" lon="6.882947218401699" id="-80793">
		<tag k="name" v="Slokgrova" />
		<tag k="ssr:stedsnr" v="639228" />
		<tag k="waterway" v="stream" />
	</node>
	<node lat="61.903005554375454" lon="6.5983638870852515" id="-80803">
		<tag k="name" v="Sundet" />
		<tag k="natural" v="strait" />
		<tag k="ssr:stedsnr" v="639332" />
	</node>
	<node lat="61.921166668229944" lon="6.555463881681639" id="-80813">
		<tag k="name" v="Bulegane" />
		<tag k="natural" v="cape" />
		<tag k="ssr:stedsnr" v="639512" />
	</node>
	<node lat="61.96591389229964" lon="7.045947229930007" id="-80852">
		<tag k="name" v="Holmen" />
		<tag k="place" v="islet" />
		<tag k="ssr:stedsnr" v="700407" />
	</node>
	<node lat="61.837222221559685" lon="6.897141660471227" id="-80857">
		<tag k="alt_name" v="Kroka" />
		<tag k="name" v="Krokegrova" />
		<tag k="ssr:stedsnr" v="700467" />
		<tag k="waterway" v="stream" />
	</node>
	<node lat="61.90531944447354" lon="6.697630552229324" id="-80859">
		<tag k="name" v="Alegrova" />
		<tag k="ssr:stedsnr" v="700469" />
		<tag k="waterway" v="stream" />
	</node>
	<node lat="61.65989722294713" lon="6.820900007941218" id="-80868">
		<tag k="name" v="Melkevollelva" />
		<tag k="ssr:stedsnr" v="701015" />
		<tag k="waterway" v="river" />
	</node>
	<node lat="61.74099722305992" lon="6.8050750070259305" id="-80870">
		<tag k="name" v="Skjeret" />
		<tag k="natural" v="cape" />
		<tag k="ssr:stedsnr" v="701109" />
	</node>
	<node lat="61.783925000192546" lon="6.999672230777838" id="-80877">
		<tag k="name" v="Espeneset" />
		<tag k="natural" v="cape" />
		<tag k="ssr:stedsnr" v="701225" />
	</node>
	<node lat="61.84431558007096" lon="6.268162432688505" id="-80881">
		<tag k="name" v="Skårsvikgrova" />
		<tag k="ssr:stedsnr" v="701282" />
		<tag k="waterway" v="stream" />
	</node>
	<node lat="61.93985833566882" lon="6.94248056207767" id="-80884">
		<tag k="name" v="Erlesteinen" />
		<tag k="natural" v="cape" />
		<tag k="ssr:stedsnr" v="701405" />
	</node>
	<node lat="61.686886109118184" lon="6.80144721439678" id="-80911">
		<tag k="name" v="Skrova" />
		<tag k="ssr:stedsnr" v="737921" />
		<tag k="waterway" v="stream" />
	</node>
	<node lat="61.69075833530495" lon="6.801488885565101" id="-80940">
		<tag k="name" v="Høgalmeelva" />
		<tag k="ssr:stedsnr" v="761011" />
		<tag k="waterway" v="river" />
	</node>
	<node lat="61.777355552419806" lon="6.822544448311734" id="-80942">
		<tag k="name" v="Halldresneset" />
		<tag k="natural" v="cape" />
		<tag k="ssr:stedsnr" v="761107" />
	</node>
	<node lat="61.92955277570371" lon="7.152441674480974" id="-80946">
		<tag k="name" v="Fykaren" />
		<tag k="ssr:stedsnr" v="761198" />
		<tag k="waterway" v="stream" />
	</node>
	<node lat="61.81735833149949" lon="6.987861112432462" id="-80953">
		<tag k="name" v="Raudivika" />
		<tag k="natural" v="bay" />
		<tag k="ssr:stedsnr" v="761344" />
	</node>
	<node lat="61.81049444666719" lon="7.071913890120813" id="-80960">
		<tag k="name" v="Kloppelva" />
		<tag k="ssr:stedsnr" v="761506" />
		<tag k="waterway" v="river" />
	</node>
	<node lat="61.81272777851854" lon="6.817711113082688" id="-80965">
		<tag k="name" v="Maurhammarneset" />
		<tag k="natural" v="cape" />
		<tag k="ssr:stedsnr" v="761553" />
	</node>
	<node lat="61.90701388991761" lon="6.584188879643224" id="-80967">
		<tag k="name" v="Kattetjørna" />
		<tag k="natural" v="water" />
		<tag k="ssr:stedsnr" v="761493" />
	</node>
	<node lat="61.70391110902975" lon="6.830811112593705" id="-80975">
		<tag k="name" v="Sulkja" />
		<tag k="ssr:stedsnr" v="798895" />
		<tag k="waterway" v="stream" />
	</node>
	<node lat="61.8387833372796" lon="6.314030555162953" id="-80982">
		<tag k="name" v="Middagsgrova" />
		<tag k="ssr:stedsnr" v="799104" />
		<tag k="waterway" v="stream" />
	</node>
	<node lat="61.84515000348453" lon="6.402080560963699" id="-80983">
		<tag k="name" v="Joelva" />
		<tag k="ssr:stedsnr" v="799108" />
		<tag k="waterway" v="stream" />
	</node>
	<node lat="61.9362722228281" lon="6.598558331601358" id="-80988">
		<tag k="name" v="Aurbakkegrova" />
		<tag k="ssr:stedsnr" v="799217" />
		<tag k="waterway" v="stream" />
	</node>
	<node lat="61.75769166600949" lon="6.957208329931899" id="-81001">
		<tag k="name" v="Utigardselva" />
		<tag k="ssr:stedsnr" v="920371" />
		<tag k="waterway" v="stream" />
	</node>
	<node lat="61.753886111448374" lon="6.820686102648182" id="-81002">
		<tag k="name" v="Kaldåna" />
		<tag k="ssr:stedsnr" v="920384" />
		<tag k="waterway" v="stream" />
	</node>
	<node lat="61.751416668052116" lon="6.789169442764533" id="-81003">
		<tag k="name" v="Sandvika" />
		<tag k="ssr:stedsnr" v="920385" />
		<tag k="waterway" v="stream" />
	</node>
	<node lat="61.86110555201054" lon="6.500641663479908" id="-81008">
		<tag k="name" v="Snikkargrova" />
		<tag k="ssr:stedsnr" v="920023" />
		<tag k="waterway" v="stream" />
	</node>
	<node lat="61.82240555415017" lon="6.687852780943596" id="-81014">
		<tag k="name" v="Tverrelva" />
		<tag k="ssr:stedsnr" v="920323" />
		<tag k="waterway" v="stream" />
	</node>
	<node lat="61.847930557488354" lon="6.698091661249071" id="-81018">
		<tag k="name" v="Skaklevatnet" />
		<tag k="natural" v="water" />
		<tag k="ssr:stedsnr" v="920330" />
	</node>
	<node lat="61.92033598967681" lon="6.608892972384914" id="-81027">
		<tag k="name" v="Svingesetvatnet" />
		<tag k="natural" v="water" />
		<tag k="ssr:stedsnr" v="920278" />
	</node>
	<node lat="61.66438333263627" lon="6.834383329890361" id="-81043">
		<tag k="name" v="Kleivafossen" />
		<tag k="natural" v="waterfall" />
		<tag k="ssr:stedsnr" v="822123" />
	</node>
	<node lat="61.7692361150803" lon="6.841022214496195" id="-81048">
		<tag k="name" v="Fossen" />
		<tag k="natural" v="waterfall" />
		<tag k="ssr:stedsnr" v="822087" />
	</node>
	<node lat="61.8766500028093" lon="6.8654555574908525" id="-81054">
		<tag k="name" v="Kopegrova" />
		<tag k="ssr:stedsnr" v="822268" />
		<tag k="waterway" v="stream" />
	</node>
	<node lat="61.84745278151674" lon="6.4903611060907345" id="-81061">
		<tag k="name" v="Vesletjørna" />
		<tag k="natural" v="water" />
		<tag k="ssr:stedsnr" v="822318" />
	</node>
	<node lat="61.980143264412185" lon="6.948608078251982" id="-81081">
		<tag k="name" v="Botnevatna" />
		<tag k="natural" v="water" />
		<tag k="ssr:stedsnr" v="859174" />
		<tag k="water" v="lake" />
	</node>
	<node lat="61.96795277629959" lon="7.259086106943638" id="-81089">
		<tag k="name" v="Grasdøla" />
		<tag k="ssr:stedsnr" v="859367" />
		<tag k="waterway" v="river" />
	</node>
	<node lat="61.958374998703746" lon="7.0165388799017085" id="-81090">
		<tag k="name" v="Geitåna" />
		<tag k="ssr:stedsnr" v="859370" />
		<tag k="waterway" v="stream" />
	</node>
	<node lat="61.94547222251804" lon="6.574191665424779" id="-81093">
		<tag k="name" v="Småskorvatnet" />
		<tag k="natural" v="water" />
		<tag k="ssr:stedsnr" v="859908" />
	</node>
	<node lat="61.73269722138702" lon="6.793608332893092" id="-81098">
		<tag k="name" v="Oldevatnet" />
		<tag k="natural" v="water" />
		<tag k="ssr:stedsnr" v="859876" />
		<tag k="water" v="lake" />
	</node>
	<node lat="61.72014722345213" lon="6.811577777675389" id="-81125">
		<tag k="name" v="Netlineset" />
		<tag k="natural" v="cape" />
		<tag k="ssr:stedsnr" v="883105" />
	</node>
	<node lat="61.92201666663879" lon="7.152611103219696" id="-81129">
		<tag k="name" v="Kvernhusgrova" />
		<tag k="ssr:stedsnr" v="883211" />
		<tag k="waterway" v="stream" />
	</node>
	<node lat="61.945583333614685" lon="6.875647230342395" id="-81133">
		<tag k="loc_name" v="Sundselva" />
		<tag k="name" v="Sundeelva" />
		<tag k="ssr:stedsnr" v="883304" />
		<tag k="waterway" v="river" />
	</node>
	<node lat="61.88829444028402" lon="6.600216671871822" id="-81145">
		<tag k="name" v="Utigardsdemma" />
		<tag k="place" v="locality" />
		<tag k="ssr:stedsnr" v="883507" />
	</node>
	<node lat="61.88690833427952" lon="7.280475005884502" id="-81175">
		<tag k="name" v="Setrefossen" />
		<tag k="natural" v="waterfall" />
		<tag k="ssr:stedsnr" v="909551" />
	</node>
	<node lat="61.7968000037147" lon="6.503174991823877" id="-81183">
		<tag k="alt_name" v="Kleiveelva" />
		<tag k="name" v="Kleivelva" />
		<tag k="ssr:stedsnr" v="920096" />
		<tag k="waterway" v="stream" />
	</node>
	<node lat="61.79588888848828" lon="6.810152780344397" id="-81187">
		<tag k="alt_name" v="Liaelva" />
		<tag k="name" v="Lidaelva" />
		<tag k="ssr:stedsnr" v="920308" />
		<tag k="waterway" v="stream" />
	</node>
	<node lat="61.83950833399586" lon="6.796200001232148" id="-81214">
		<tag k="name" v="Storegrova" />
		<tag k="ssr:stedsnr" v="949514" />
		<tag k="waterway" v="stream" />
	</node>
	<node lat="61.847263886053554" lon="6.482108333119339" id="-81329">
		<tag k="name" v="Løkja" />
		<tag k="ssr:stedsnr" v="10114" />
		<tag k="waterway" v="stream" />
	</node>
	<node lat="61.864436028723695" lon="6.933595661273654" id="-81337">
		<tag k="name" v="Skålavatnet" />
		<tag k="natural" v="water" />
		<tag k="ssr:stedsnr" v="10355" />
	</node>
	<node lat="61.87108333445863" lon="6.919663891214535" id="-81338">
		<tag k="alt_name" v="Skåleelva" />
		<tag k="name" v="Skålelva" />
		<tag k="ssr:stedsnr" v="10356" />
		<tag k="waterway" v="stream" />
	</node>
	<node lat="61.853819447449915" lon="6.487505552234427" id="-81344">
		<tag k="alt_name" v="Støylselva" />
		<tag k="name" v="Stølsgrova" />
		<tag k="ssr:stedsnr" v="10020" />
		<tag k="waterway" v="stream" />
	</node>
	<node lat="61.8497916644318" lon="6.454611102350163" id="-81345">
		<tag k="alt_name" v="Storelva" />
		<tag k="name" v="Bergsetelva" />
		<tag k="ssr:stedsnr" v="10025" />
		<tag k="waterway" v="stream" />
	</node>
	<node lat="61.74141944413024" lon="6.780411105002331" id="-81349">
		<tag k="name" v="Gytrielva" />
		<tag k="ssr:stedsnr" v="9877" />
		<tag k="waterway" v="stream" />
	</node>
	<node lat="61.87569999965211" lon="6.502552779020481" id="-81350">
		<tag k="name" v="Smørdalselva" />
		<tag k="ssr:stedsnr" v="10046" />
		<tag k="waterway" v="stream" />
	</node>
	<node lat="61.86936666475137" lon="6.3876166705836015" id="-81353">
		<tag k="name" v="Tvinna" />
		<tag k="ssr:stedsnr" v="10060" />
		<tag k="waterway" v="river" />
	</node>
	<node lat="61.81858611182225" lon="6.364044435694843" id="-81355">
		<tag k="name" v="Spelbruelva" />
		<tag k="ssr:stedsnr" v="10068" />
		<tag k="waterway" v="stream" />
	</node>
	<node lat="61.75125833061198" lon="6.815488887420155" id="-81359">
		<tag k="name" v="Kaldåvika" />
		<tag k="natural" v="bay" />
		<tag k="ssr:stedsnr" v="10416" />
	</node>
	<node lat="61.89167777934055" lon="7.1977666698092975" id="-81364">
		<tag k="name" v="Skipedøla" />
		<tag k="ssr:stedsnr" v="10468" />
		<tag k="waterway" v="stream" />
	</node>
	<node lat="61.834324997481176" lon="6.81378610680408" id="-81398">
		<tag k="name" v="Teina" />
		<tag k="ssr:stedsnr" v="33191" />
		<tag k="waterway" v="stream" />
	</node>
	<node lat="61.85558889129351" lon="6.518122217020417" id="-81403">
		<tag k="name" v="Øyestadelva" />
		<tag k="ssr:stedsnr" v="33300" />
		<tag k="waterway" v="stream" />
	</node>
	<node lat="61.837622217954234" lon="6.918794447143942" id="-81429">
		<tag k="name" v="Sannes" />
		<tag k="natural" v="cape" />
		<tag k="ssr:stedsnr" v="33349" />
	</node>
	<node lat="61.8376527784422" lon="6.909491669613239" id="-81430">
		<tag k="name" v="Skavteigelva" />
		<tag k="ssr:stedsnr" v="33353" />
		<tag k="waterway" v="stream" />
	</node>
	<node lat="61.93954167107605" lon="6.966997219906613" id="-81437">
		<tag k="name" v="Vesleholmen" />
		<tag k="place" v="islet" />
		<tag k="ssr:stedsnr" v="33389" />
	</node>
	<node lat="61.79450000046948" lon="6.543897224666963" id="-81439">
		<tag k="name" v="Åsebruvadet" />
		<tag k="natural" v="water" />
		<tag k="ssr:stedsnr" v="33393" />
		<tag k="water" v="lake" />
	</node>
	<node lat="61.931677777780266" lon="6.926177781157524" id="-81441">
		<tag k="name" v="Melandsbryggja" />
		<tag k="natural" v="cape" />
		<tag k="ssr:stedsnr" v="33400" />
	</node>
	<node lat="61.83106388971271" lon="6.569477775255176" id="-81442">
		<tag k="name" v="Saugrova" />
		<tag k="ssr:stedsnr" v="33407" />
		<tag k="waterway" v="stream" />
	</node>
	<node lat="61.87604444322804" lon="6.341419451990329" id="-81446">
		<tag k="name" v="Blomteigelva" />
		<tag k="ssr:stedsnr" v="33499" />
		<tag k="waterway" v="river" />
	</node>
	<node lat="61.83133055761723" lon="6.432941663407177" id="-81447">
		<tag k="name" v="Inste Liaelva" />
		<tag k="ssr:stedsnr" v="33503" />
		<tag k="waterway" v="river" />
	</node>
	<node lat="61.893580559564946" lon="7.066024995272061" id="-81448">
		<tag k="name" v="Djupesvora" />
		<tag k="ssr:stedsnr" v="33510" />
		<tag k="waterway" v="stream" />
	</node>
	<node lat="61.95276110987239" lon="6.652780552699687" id="-81462">
		<tag k="name" v="Holevatnet" />
		<tag k="natural" v="water" />
		<tag k="ssr:stedsnr" v="70170" />
	</node>
	<node lat="61.804722222279366" lon="6.649247215836696" id="-81491">
		<tag k="name" v="Storeloga" />
		<tag k="natural" v="water" />
		<tag k="ssr:stedsnr" v="71349" />
	</node>
	<node lat="61.805675003055605" lon="6.752294452482069" id="-81492">
		<tag k="name" v="Fessene" />
		<tag k="ssr:stedsnr" v="71351" />
		<tag k="waterway" v="river" />
	</node>
	<node lat="61.847316670088006" lon="6.644469435820456" id="-81498">
		<tag k="name" v="Meelva" />
		<tag k="ssr:stedsnr" v="71384" />
		<tag k="waterway" v="stream" />
	</node>
	<node lat="61.76339166437394" lon="6.829986110244924" id="-81512">
		<tag k="name" v="Byleida" />
		<tag k="natural" v="cape" />
		<tag k="ssr:stedsnr" v="94096" />
	</node>
	<node lat="61.847352778745005" lon="6.7843138907030465" id="-81513">
		<tag k="name" v="Sveltelva" />
		<tag k="ssr:stedsnr" v="94192" />
		<tag k="waterway" v="stream" />
	</node>
	<node lat="61.84083611342756" lon="6.7907249959527825" id="-81514">
		<tag k="name" v="Røsegrova" />
		<tag k="ssr:stedsnr" v="94198" />
		<tag k="waterway" v="stream" />
	</node>
	<node lat="61.90841619343681" lon="6.743424799021947" id="-81529">
		<tag k="name" v="Haraldløken" />
		<tag k="natural" v="water" />
		<tag k="ssr:stedsnr" v="94054" />
		<tag k="water" v="lake" />
	</node>
	<node lat="61.95062777730707" lon="7.018147230969854" id="-81544">
		<tag k="name" v="Russefossen" />
		<tag k="natural" v="waterfall" />
		<tag k="ssr:stedsnr" v="94332" />
	</node>
	<node lat="61.805858336367976" lon="6.541305546973322" id="-81553">
		<tag k="name" v="Ingebriktelva" />
		<tag k="ssr:stedsnr" v="94432" />
		<tag k="waterway" v="stream" />
	</node>
	<node lat="61.92518610913096" lon="6.91824166805008" id="-81554">
		<tag k="name" v="Storefossen" />
		<tag k="natural" v="waterfall" />
		<tag k="ssr:stedsnr" v="94434" />
	</node>
	<node lat="61.81525277412952" lon="6.795408329104685" id="-81572">
		<tag k="name" v="Svoragrova" />
		<tag k="ssr:stedsnr" v="94555" />
		<tag k="waterway" v="stream" />
	</node>
	<node lat="61.83595277939821" lon="6.7945361040399055" id="-81578">
		<tag k="name" v="Øyragrova" />
		<tag k="ssr:stedsnr" v="100553" />
		<tag k="waterway" v="stream" />
	</node>
	<node lat="61.720194440218314" lon="6.770444449748891" id="-81594">
		<tag k="name" v="Yrielva" />
		<tag k="ssr:stedsnr" v="130898" />
		<tag k="waterway" v="stream" />
	</node>
	<node lat="61.86260833532321" lon="6.3838666758694025" id="-81595">
		<tag k="alt_name" v="Langeskårelva" />
		<tag k="name" v="Langeskorelva" />
		<tag k="ssr:stedsnr" v="131017" />
		<tag k="waterway" v="stream" />
	</node>
	<node lat="61.9490305591462" lon="6.759911116184449" id="-81598">
		<tag k="name" v="Trollvatnet" />
		<tag k="natural" v="water" />
		<tag k="ssr:stedsnr" v="131200" />
	</node>
	<node lat="61.94461388787471" lon="7.2982527799155354" id="-81613">
		<tag k="name" v="Videdøla" />
		<tag k="ssr:stedsnr" v="131361" />
		<tag k="waterway" v="river" />
	</node>
	<node lat="61.95745000259581" lon="7.158111114634834" id="-81614">
		<tag k="name" v="Tverrelva" />
		<tag k="ssr:stedsnr" v="131366" />
		<tag k="waterway" v="stream" />
	</node>
	<node lat="61.869358330128435" lon="7.127863890339515" id="-81618">
		<tag k="name" v="Erdalselva" />
		<tag k="ssr:stedsnr" v="131438" />
		<tag k="waterway" v="river" />
	</node>
	<node lat="61.91930277921254" lon="7.170552782471372" id="-81621">
		<tag k="name" v="Sunndøla" />
		<tag k="ssr:stedsnr" v="131456" />
		<tag k="waterway" v="river" />
	</node>
	<node lat="61.842080554281814" lon="6.41864722780812" id="-81628">
		<tag k="name" v="Yste Liaelva" />
		<tag k="ssr:stedsnr" v="154475" />
		<tag k="waterway" v="stream" />
	</node>
	<node lat="61.788713886599474" lon="6.8324638938866125" id="-81635">
		<tag k="name" v="Aksnes" />
		<tag k="natural" v="cape" />
		<tag k="ssr:stedsnr" v="154103" />
	</node>
	<node lat="61.7062305531799" lon="6.789886111930893" id="-81637">
		<tag k="name" v="Svoragrova" />
		<tag k="ssr:stedsnr" v="154121" />
		<tag k="waterway" v="stream" />
	</node>
	<node lat="61.74422500358921" lon="6.80547499281404" id="-81638">
		<tag k="name" v="Hundshamreneset" />
		<tag k="natural" v="cape" />
		<tag k="ssr:stedsnr" v="154124" />
	</node>
	<node lat="61.663336106831196" lon="6.817980549827253" id="-81641">
		<tag k="name" v="Kvitla" />
		<tag k="natural" v="water" />
		<tag k="ssr:stedsnr" v="154137" />
		<tag k="water" v="lake" />
	</node>
	<node lat="61.809083329394916" lon="6.808499996899272" id="-81645">
		<tag k="name" v="Skarvebakkvika" />
		<tag k="natural" v="bay" />
		<tag k="ssr:stedsnr" v="154074" />
	</node>
	<node lat="61.91568055459684" lon="6.807172213049419" id="-81651">
		<tag k="name" v="Statgrova" />
		<tag k="ssr:stedsnr" v="154177" />
		<tag k="waterway" v="stream" />
	</node>
	<node lat="61.85943611262123" lon="6.88840554702674" id="-81657">
		<tag k="name" v="Vassenden" />
		<tag k="place" v="islet" />
		<tag k="ssr:stedsnr" v="154197" />
	</node>
	<node lat="61.910863891200805" lon="7.054536115547512" id="-81660">
		<tag k="name" v="Kyrkjenes" />
		<tag k="natural" v="cape" />
		<tag k="ssr:stedsnr" v="154402" />
	</node>
	<node lat="61.94679444005499" lon="7.025908329730769" id="-81669">
		<tag k="name" v="Storelva" />
		<tag k="ssr:stedsnr" v="154363" />
		<tag k="waterway" v="river" />
	</node>
	<node lat="61.81895555491173" lon="6.983524999140722" id="-81673">
		<tag k="name" v="Slettenes" />
		<tag k="natural" v="cape" />
		<tag k="ssr:stedsnr" v="154384" />
	</node>
	<node lat="61.843816667485065" lon="6.937194449388273" id="-81676">
		<tag k="name" v="Brengsøyna" />
		<tag k="natural" v="cape" />
		<tag k="ssr:stedsnr" v="154390" />
	</node>
	<node lat="61.86644166967023" lon="7.147636111948708" id="-81684">
		<tag k="name" v="Alkrågrova" />
		<tag k="ssr:stedsnr" v="154459" />
		<tag k="waterway" v="stream" />
	</node>
	<node lat="61.94018611523448" lon="6.594388891387023" id="-81685">
		<tag k="name" v="Trollhammarfossen" />
		<tag k="natural" v="waterfall" />
		<tag k="ssr:stedsnr" v="154464" />
	</node>
	<node lat="61.90344722426214" lon="6.60867221490967" id="-81688">
		<tag k="name" v="Sageelva" />
		<tag k="ssr:stedsnr" v="154480" />
		<tag k="waterway" v="stream" />
	</node>
	<node lat="61.888702779869426" lon="7.117641674137115" id="-81691">
		<tag k="name" v="Gjølgrova" />
		<tag k="ssr:stedsnr" v="154488" />
		<tag k="waterway" v="river" />
	</node>
	<node lat="61.77712222667502" lon="6.955938892081303" id="-81693">
		<tag k="name" v="Tverrelva" />
		<tag k="ssr:stedsnr" v="154526" />
		<tag k="waterway" v="river" />
	</node>
	<node lat="61.8520861093513" lon="6.618641660557815" id="-81700">
		<tag k="name" v="Floelva" />
		<tag k="ssr:stedsnr" v="154411" />
		<tag k="waterway" v="river" />
	</node>
	<node lat="61.931338891125016" lon="6.909244450089227" id="-81706">
		<tag k="name" v="Dispavika" />
		<tag k="natural" v="bay" />
		<tag k="ssr:stedsnr" v="154436" />
	</node>
	<node lat="61.812455555936566" lon="6.819113888325367" id="-81709">
		<tag k="name" v="Solheimsvika" />
		<tag k="natural" v="bay" />
		<tag k="ssr:stedsnr" v="154573" />
	</node>
	<node lat="61.84753055414565" lon="6.512769453614867" id="-81732">
		<tag k="name" v="Svåna" />
		<tag k="ssr:stedsnr" v="192121" />
		<tag k="waterway" v="stream" />
	</node>
	<node lat="61.97182500227769" lon="6.885077772937916" id="-81740">
		<tag k="name" v="Skihellevatnet" />
		<tag k="natural" v="water" />
		<tag k="ssr:stedsnr" v="192225" />
	</node>
	<node lat="61.822033329795424" lon="6.362030561183911" id="-81741">
		<tag k="name" v="Sagelva" />
		<tag k="ssr:stedsnr" v="192232" />
		<tag k="waterway" v="stream" />
	</node>
	<node lat="61.91435833706061" lon="7.120963884120089" id="-81743">
		<tag k="name" v="Hjelledøla" />
		<tag k="ssr:stedsnr" v="192237" />
		<tag k="waterway" v="river" />
	</node>
	<node lat="61.90076388573521" lon="6.757349992919049" id="-81750">
		<tag k="alt_name" v="Østenåna" />
		<tag k="name" v="Østenåda" />
		<tag k="ssr:stedsnr" v="192293" />
		<tag k="waterway" v="stream" />
	</node>
	<node lat="61.97109444043907" lon="7.239674997231497" id="-81764">
		<tag k="alt_name" v="Skjeringsdøla" />
		<tag k="name" v="Skjerdingsdøla" />
		<tag k="ssr:stedsnr" v="192412" />
		<tag k="waterway" v="river" />
	</node>
	<node lat="61.80891666283823" lon="7.073374993960693" id="-81766">
		<tag k="name" v="Huldrefossen" />
		<tag k="natural" v="waterfall" />
		<tag k="ssr:stedsnr" v="192465" />
	</node>
	<node lat="61.88557500427382" lon="7.258249992741556" id="-81771">
		<tag k="alt_name" v="Sandsvorgrova" />
		<tag k="name" v="Sandsvora" />
		<tag k="ssr:stedsnr" v="192494" />
		<tag k="waterway" v="stream" />
	</node>
	<node lat="61.91768055265812" lon="6.976550009011937" id="-81774">
		<tag k="name" v="Instevatnet" />
		<tag k="natural" v="water" />
		<tag k="ssr:stedsnr" v="192522" />
	</node>
	<node lat="61.799401639861586" lon="7.174034841251022" id="-81775">
		<tag k="name" v="Kåpevatnet" />
		<tag k="natural" v="water" />
		<tag k="ssr:stedsnr" v="192600" />
		<tag k="water" v="lake" />
	</node>
	<node lat="61.936841663841626" lon="6.592527776966226" id="-81778">
		<tag k="name" v="Nordåna" />
		<tag k="ssr:stedsnr" v="192918" />
		<tag k="waterway" v="stream" />
	</node>
	<node lat="61.78886111311129" lon="6.974766657239134" id="-81799">
		<tag k="name" v="Utigardselva" />
		<tag k="ssr:stedsnr" v="215238" />
		<tag k="waterway" v="river" />
	</node>
	<node lat="61.79543888890498" lon="6.988402771112993" id="-81811">
		<tag k="name" v="Nesodden" />
		<tag k="natural" v="cape" />
		<tag k="ssr:stedsnr" v="215340" />
	</node>
	<node lat="61.86971389259123" lon="7.112258337576119" id="-81816">
		<tag k="name" v="Sletteskregrova" />
		<tag k="ssr:stedsnr" v="215370" />
		<tag k="waterway" v="stream" />
	</node>
	<node lat="61.932836115282726" lon="6.972063895321816" id="-81822">
		<tag k="name" v="Glæra" />
		<tag k="ssr:stedsnr" v="215397" />
		<tag k="waterway" v="stream" />
	</node>
	<node lat="61.89702777840525" lon="7.199302770428928" id="-81839">
		<tag k="name" v="Skipedalsgrova" />
		<tag k="ssr:stedsnr" v="215457" />
		<tag k="waterway" v="river" />
	</node>
	<node lat="61.89259722336506" lon="7.0803555497094335" id="-81842">
		<tag k="name" v="Kupegrova" />
		<tag k="ssr:stedsnr" v="215465" />
		<tag k="waterway" v="stream" />
	</node>
	<node lat="61.88668055475573" lon="7.104566672498266" id="-81843">
		<tag k="name" v="Fossane" />
		<tag k="natural" v="waterfall" />
		<tag k="ssr:stedsnr" v="215469" />
	</node>
	<node lat="61.75338610720188" lon="6.827741662916835" id="-81857">
		<tag k="name" v="Hundefossen" />
		<tag k="natural" v="waterfall" />
		<tag k="ssr:stedsnr" v="276097" />
	</node>
	<node lat="61.87881111435197" lon="6.819338885790901" id="-81861">
		<tag k="name" v="Merkingselva" />
		<tag k="ssr:stedsnr" v="276300" />
		<tag k="waterway" v="stream" />
	</node>
	<node lat="61.94469999779062" lon="7.024947214088825" id="-81863">
		<tag k="name" v="Flobryggja" />
		<tag k="natural" v="cape" />
		<tag k="ssr:stedsnr" v="276318" />
	</node>
	<node lat="61.91716666502734" lon="7.109016659587444" id="-81865">
		<tag k="name" v="Vaulen" />
		<tag k="natural" v="bay" />
		<tag k="ssr:stedsnr" v="276400" />
	</node>
	<node lat="61.876697224775754" lon="7.104180558184443" id="-81870">
		<tag k="name" v="Skotlandsgrova" />
		<tag k="ssr:stedsnr" v="276480" />
		<tag k="waterway" v="stream" />
	</node>
	<node lat="61.90813333100974" lon="6.82384722268032" id="-81872">
		<tag k="name" v="Tessa" />
		<tag k="ssr:stedsnr" v="276164" />
		<tag k="waterway" v="stream" />
	</node>
	<node lat="61.919827779680546" lon="7.162949993218155" id="-81876">
		<tag k="name" v="Kvilagrova" />
		<tag k="ssr:stedsnr" v="276237" />
		<tag k="waterway" v="stream" />
	</node>
	<node lat="61.849163888869406" lon="6.9433222220016955" id="-81889">
		<tag k="name" v="Storeglera" />
		<tag k="ssr:stedsnr" v="276347" />
		<tag k="waterway" v="stream" />
	</node>
	<node lat="61.767822217885055" lon="7.0411611118765185" id="-81896">
		<tag k="name" v="Åremorkegrova" />
		<tag k="ssr:stedsnr" v="276434" />
		<tag k="waterway" v="river" />
	</node>
	<node lat="61.8549888903437" lon="7.167886112540237" id="-81903">
		<tag k="name" v="Lidagrova" />
		<tag k="ssr:stedsnr" v="276457" />
		<tag k="waterway" v="stream" />
	</node>
	<node lat="61.89013333603046" lon="6.566252768131276" id="-81904">
		<tag k="name" v="Nilsvadet" />
		<tag k="natural" v="water" />
		<tag k="ssr:stedsnr" v="276464" />
		<tag k="water" v="lake" />
	</node>
	<node lat="61.81617499699148" lon="6.795975006603141" id="-81908">
		<tag k="name" v="Fonnagrova" />
		<tag k="ssr:stedsnr" v="276547" />
		<tag k="waterway" v="stream" />
	</node>
	<node lat="61.82330277857766" lon="6.8147416737021995" id="-81911">
		<tag k="loc_name" v="Meleielva" />
		<tag k="name" v="Melheimselva" />
		<tag k="ssr:stedsnr" v="276556" />
		<tag k="waterway" v="river" />
	</node>
	<node lat="61.91434166962732" lon="6.611327771482002" id="-81920">
		<tag k="name" v="Djupevika" />
		<tag k="natural" v="bay" />
		<tag k="ssr:stedsnr" v="276500" />
	</node>
	<node lat="61.76301729173753" lon="6.837380172554681" id="-81921">
		<tag k="name" v="Breiskreda" />
		<tag k="ssr:stedsnr" v="276518" />
		<tag k="waterway" v="stream" />
	</node>
	<node lat="61.892497218528106" lon="7.27689721444109" id="-81926">
		<tag k="name" v="Tverrelva" />
		<tag k="ssr:stedsnr" v="302070" />
		<tag k="waterway" v="river" />
	</node>
	<node lat="61.884366670634705" lon="6.53830833378123" id="-81929">
		<tag k="name" v="Storelva" />
		<tag k="ssr:stedsnr" v="313031" />
		<tag k="waterway" v="stream" />
	</node>
	<node lat="61.93965277977053" lon="6.964502775557226" id="-81939">
		<tag k="alt_name" v="Holmane" />
		<tag k="name" v="Knarteholmane" />
		<tag k="place" v="islet" />
		<tag k="ssr:stedsnr" v="313293" />
	</node>
	<node lat="61.8483611082889" lon="6.755555561484543" id="-81944">
		<tag k="name" v="Heimelva" />
		<tag k="ssr:stedsnr" v="313357" />
		<tag k="waterway" v="stream" />
	</node>
	<node lat="61.91347222063292" lon="6.531622229271442" id="-81952">
		<tag k="name" v="Floreelva" />
		<tag k="ssr:stedsnr" v="313960" />
		<tag k="waterway" v="stream" />
	</node>
	<node lat="61.89435555945272" lon="6.445900001142539" id="-81956">
		<tag k="name" v="Svartevatnet" />
		<tag k="natural" v="water" />
		<tag k="ssr:stedsnr" v="313990" />
	</node>
	<node lat="62.007974997298454" lon="7.296324992341182" id="-81959">
		<tag k="name" v="Grasdalsvatnet" />
		<tag k="natural" v="water" />
		<tag k="ssr:stedsnr" v="314149" />
	</node>
	<node lat="61.78635000205719" lon="6.561750004958517" id="-81960">
		<tag k="name" v="Storelva" />
		<tag k="ssr:stedsnr" v="314247" />
		<tag k="waterway" v="river" />
	</node>
	<node lat="61.820302777198464" lon="6.3137194373958145" id="-81970">
		<tag k="name" v="Storøyvatnet" />
		<tag k="natural" v="water" />
		<tag k="ssr:stedsnr" v="336135" />
		<tag k="water" v="lake" />
	</node>
	<node lat="61.92471388478874" lon="6.869119448062252" id="-81978">
		<tag k="name" v="Flåna" />
		<tag k="ssr:stedsnr" v="336208" />
		<tag k="waterway" v="stream" />
	</node>
	<node lat="61.92981666744833" lon="6.838105559936039" id="-81981">
		<tag k="name" v="Øvreidselva" />
		<tag k="ssr:stedsnr" v="336231" />
		<tag k="waterway" v="river" />
	</node>
	<node lat="61.928227773769926" lon="6.785822215344568" id="-81984">
		<tag k="name" v="Kilegrova" />
		<tag k="ssr:stedsnr" v="336240" />
		<tag k="waterway" v="stream" />
	</node>
	<node lat="61.95051388645727" lon="6.921627782490791" id="-81986">
		<tag k="name" v="Fossen" />
		<tag k="natural" v="waterfall" />
		<tag k="ssr:stedsnr" v="336244" />
	</node>
	<node lat="61.843066663492465" lon="6.60727777633088" id="-82001">
		<tag k="name" v="Hågjølselva" />
		<tag k="ssr:stedsnr" v="336330" />
		<tag k="waterway" v="stream" />
	</node>
	<node lat="61.87493889234598" lon="6.842519446120141" id="-82009">
		<tag k="alt_name" v="Gjølmunda" />
		<tag k="name" v="Gjølmunna" />
		<tag k="ssr:stedsnr" v="336187" />
		<tag k="waterway" v="river" />
	</node>
	<node lat="61.84519444103744" lon="6.391041669244079" id="-82010">
		<tag k="name" v="Kårstadelva" />
		<tag k="ssr:stedsnr" v="336192" />
		<tag k="waterway" v="stream" />
	</node>
	<node lat="61.96687499823861" lon="7.049549995315001" id="-82035">
		<tag k="name" v="Ångelsvatnet" />
		<tag k="natural" v="water" />
		<tag k="ssr:stedsnr" v="373388" />
		<tag k="water" v="lake" />
	</node>
	<node lat="61.802697219045434" lon="7.051769450721624" id="-82038">
		<tag k="name" v="Bødalselva" />
		<tag k="ssr:stedsnr" v="373586" />
		<tag k="waterway" v="river" />
	</node>
	<node lat="61.93174310583497" lon="6.611155992410562" id="-82043">
		<tag k="name" v="Sagelva" />
		<tag k="ssr:stedsnr" v="374231" />
		<tag k="waterway" v="stream" />
	</node>
	<node lat="61.8304361089566" lon="6.788852777333745" id="-82045">
		<tag k="name" v="Håskreda" />
		<tag k="ssr:stedsnr" v="374357" />
		<tag k="waterway" v="stream" />
	</node>
	<node lat="61.895472218372575" lon="6.519197213893612" id="-82047">
		<tag k="name" v="Hågademma" />
		<tag k="natural" v="water" />
		<tag k="ssr:stedsnr" v="373977" />
	</node>
	<node lat="61.810836111150365" lon="6.362983340259949" id="-82053">
		<tag k="alt_name" v="Frøsetelva" />
		<tag k="name" v="Frøysetelva" />
		<tag k="ssr:stedsnr" v="374080" />
		<tag k="waterway" v="stream" />
	</node>
	<node lat="61.84767777353999" lon="6.952286117641574" id="-82056">
		<tag k="name" v="Brengselva" />
		<tag k="ssr:stedsnr" v="374372" />
		<tag k="waterway" v="stream" />
	</node>
	<node lat="61.94435833622501" lon="6.685341668078495" id="-82069">
		<tag k="name" v="Fosselva" />
		<tag k="ssr:stedsnr" v="495227" />
		<tag k="waterway" v="stream" />
	</node>
	<node lat="61.841627781112756" lon="6.495602778019258" id="-82080">
		<tag k="name" v="Ulva" />
		<tag k="ssr:stedsnr" v="495135" />
		<tag k="waterway" v="stream" />
	</node>
	<node lat="61.71661944446687" lon="6.795633338885331" id="-82091">
		<tag k="name" v="Glafletene" />
		<tag k="natural" v="beach" />
		<tag k="ssr:stedsnr" v="397122" />
	</node>
	<node lat="61.845799999624695" lon="6.424538894326984" id="-82095">
		<tag k="name" v="Grøneløkane" />
		<tag k="natural" v="water" />
		<tag k="ssr:stedsnr" v="397321" />
		<tag k="water" v="lake" />
	</node>
	<node lat="61.799986107866815" lon="6.973800004184339" id="-82097">
		<tag k="name" v="Oksejua" />
		<tag k="ssr:stedsnr" v="397325" />
		<tag k="waterway" v="stream" />
	</node>
	<node lat="61.806163893073624" lon="6.426886118391327" id="-82116">
		<tag k="name" v="Kristisonelva" />
		<tag k="ssr:stedsnr" v="397243" />
		<tag k="waterway" v="stream" />
	</node>
	<node lat="61.930491666830655" lon="6.86768333182136" id="-82117">
		<tag k="name" v="Nedrefloen" />
		<tag k="natural" v="water" />
		<tag k="ssr:stedsnr" v="397244" />
		<tag k="water" v="lake" />
	</node>
	<node lat="61.73066944509442" lon="6.783447222178306" id="-82152">
		<tag k="name" v="Fossvega" />
		<tag k="ssr:stedsnr" v="434890" />
		<tag k="waterway" v="stream" />
	</node>
	<node lat="61.94381944598798" lon="6.596116660087547" id="-82159">
		<tag k="name" v="Nordelva" />
		<tag k="ssr:stedsnr" v="435252" />
		<tag k="waterway" v="stream" />
	</node>
	<node lat="61.84612500241067" lon="6.641494446765309" id="-82164">
		<tag k="name" v="Remeelva" />
		<tag k="ssr:stedsnr" v="435393" />
		<tag k="waterway" v="stream" />
	</node>
	<node lat="61.80984722619059" lon="6.841372222006202" id="-82174">
		<tag k="name" v="Solheimselva" />
		<tag k="ssr:stedsnr" v="435350" />
		<tag k="waterway" v="stream" />
	</node>
	<node lat="61.93786667009907" lon="7.048202781031857" id="-82177">
		<tag k="name" v="Felåna" />
		<tag k="ssr:stedsnr" v="435441" />
		<tag k="waterway" v="stream" />
	</node>
	<node lat="61.97252499689038" lon="7.031861112401189" id="-82178">
		<tag k="name" v="Fedøla" />
		<tag k="ssr:stedsnr" v="435444" />
		<tag k="waterway" v="stream" />
	</node>
	<node lat="61.92463333007779" lon="6.9382027852696355" id="-82181">
		<tag k="name" v="Berstadelva" />
		<tag k="ssr:stedsnr" v="495295" />
		<tag k="waterway" v="stream" />
	</node>
	<node lat="61.92666666543096" lon="6.62524722015806" id="-82184">
		<tag k="name" v="Matgrova" />
		<tag k="ssr:stedsnr" v="495304" />
		<tag k="waterway" v="stream" />
	</node>
	<node lat="61.84123332917971" lon="6.600761109501009" id="-82191">
		<tag k="name" v="Utigardselva" />
		<tag k="ssr:stedsnr" v="495351" />
		<tag k="waterway" v="stream" />
	</node>
	<node lat="61.89995277895717" lon="6.345716669804985" id="-82199">
		<tag k="name" v="Langevatnet" />
		<tag k="natural" v="water" />
		<tag k="ssr:stedsnr" v="495949" />
	</node>
	<node lat="61.755244442319444" lon="6.804330546461967" id="-82206">
		<tag k="name" v="Krokesandane" />
		<tag k="natural" v="beach" />
		<tag k="ssr:stedsnr" v="518088" />
	</node>
	<node lat="61.86585833301829" lon="6.845902772376129" id="-82225">
		<tag k="name" v="Lovik" />
		<tag k="natural" v="bay" />
		<tag k="ssr:stedsnr" v="518182" />
	</node>
	<node lat="61.88067777586463" lon="6.5096305475088245" id="-82234">
		<tag k="name" v="Gamlestølselva" />
		<tag k="ssr:stedsnr" v="518251" />
		<tag k="waterway" v="river" />
	</node>
	<node lat="61.953800003963714" lon="6.96689167503651" id="-82238">
		<tag k="name" v="Seljevikfonna" />
		<tag k="ssr:stedsnr" v="518277" />
		<tag k="waterway" v="stream" />
	</node>
	<node lat="61.92819444865151" lon="6.941038885911023" id="-82244">
		<tag k="name" v="Telhauggrova" />
		<tag k="ssr:stedsnr" v="518364" />
		<tag k="waterway" v="stream" />
	</node>
	<node lat="61.843244445848846" lon="6.7755694369373805" id="-82253">
		<tag k="alt_name" v="Svorelva" />
		<tag k="name" v="Svoraelva" />
		<tag k="ssr:stedsnr" v="518464" />
		<tag k="waterway" v="stream" />
	</node>
	<node lat="61.86264166565673" lon="6.7004722289401375" id="-82265">
		<tag k="name" v="Agjeldselva" />
		<tag k="ssr:stedsnr" v="518456" />
		<tag k="waterway" v="stream" />
	</node>
	<node lat="61.93024249603407" lon="6.800242812955296" id="-82285">
		<tag k="alt_name" v="Kverna" />
		<tag k="name" v="Kverva" />
		<tag k="ssr:stedsnr" v="555251" />
		<tag k="waterway" v="stream" />
	</node>
	<node lat="61.84724444147563" lon="6.394052775762987" id="-82292">
		<tag k="name" v="Kvernelva" />
		<tag k="ssr:stedsnr" v="556025" />
		<tag k="waterway" v="stream" />
	</node>
	<node lat="61.88347777968778" lon="6.346316669948304" id="-82304">
		<tag k="name" v="Djupegrova" />
		<tag k="ssr:stedsnr" v="556986" />
		<tag k="waterway" v="stream" />
	</node>
	<node lat="61.92855278055806" lon="6.849669438407045" id="-82311">
		<tag k="name" v="Kleiveneset" />
		<tag k="natural" v="cape" />
		<tag k="ssr:stedsnr" v="579238" />
	</node>
	<node lat="61.77910555711598" lon="6.971238887564866" id="-82326">
		<tag k="name" v="Inigardselva" />
		<tag k="ssr:stedsnr" v="579228" />
		<tag k="waterway" v="river" />
	</node>
	<node lat="61.800605559924946" lon="6.826286119689403" id="-82331">
		<tag k="name" v="Svinevika" />
		<tag k="natural" v="bay" />
		<tag k="ssr:stedsnr" v="579071" />
	</node>
	<node lat="61.909461111238485" lon="6.59014444935319" id="-82344">
		<tag k="name" v="Skarsneset" />
		<tag k="natural" v="cape" />
		<tag k="ssr:stedsnr" v="579349" />
	</node>
	<node lat="61.86785833127133" lon="6.539474996780978" id="-82349">
		<tag k="name" v="Kvitla" />
		<tag k="ssr:stedsnr" v="579371" />
		<tag k="waterway" v="river" />
	</node>
	<node lat="61.92652222108719" lon="6.541847221315162" id="-82357">
		<tag k="name" v="Storelva" />
		<tag k="ssr:stedsnr" v="579566" />
		<tag k="waterway" v="river" />
	</node>
	<node lat="61.95254999563874" lon="7.002716669744189" id="-82358">
		<tag k="name" v="Marsåna" />
		<tag k="ssr:stedsnr" v="579287" />
		<tag k="waterway" v="river" />
	</node>
	<node lat="61.89498611295118" lon="6.557911110357462" id="-82363">
		<tag k="name" v="Løkane" />
		<tag k="natural" v="water" />
		<tag k="ssr:stedsnr" v="579449" />
		<tag k="water" v="lake" />
	</node>
	<node lat="61.8925833355745" lon="7.075055550154287" id="-82367">
		<tag k="name" v="Tunskregrova" />
		<tag k="ssr:stedsnr" v="579470" />
		<tag k="waterway" v="stream" />
	</node>
	<node lat="61.90931388929464" lon="6.648875008440607" id="-82374">
		<tag k="name" v="Hogdetjørna" />
		<tag k="natural" v="water" />
		<tag k="ssr:stedsnr" v="579485" />
	</node>
	<node lat="61.91608888876567" lon="6.686013885347322" id="-82396">
		<tag k="name" v="Vikaelva" />
		<tag k="ssr:stedsnr" v="616267" />
		<tag k="waterway" v="river" />
	</node>
	<node lat="61.90932222069358" lon="6.758475005650276" id="-82397">
		<tag k="alt_name" v="Strynselva" />
		<tag k="name" v="Stryneelva" />
		<tag k="ssr:stedsnr" v="616283" />
		<tag k="waterway" v="river" />
	</node>
	<node lat="61.92260833345617" lon="7.08863333977072" id="-82399">
		<tag k="alt_name" v="Glomneselva" />
		<tag k="name" v="Glomsdøla" />
		<tag k="ssr:stedsnr" v="616370" />
		<tag k="waterway" v="river" />
	</node>
	<node lat="61.98069999654901" lon="7.056661104485755" id="-82401">
		<tag k="name" v="Smådøla" />
		<tag k="ssr:stedsnr" v="616386" />
		<tag k="waterway" v="stream" />
	</node>
	<node lat="61.77357500281848" lon="7.012686110016853" id="-82405">
		<tag k="name" v="Kjenndalselva" />
		<tag k="ssr:stedsnr" v="616565" />
		<tag k="waterway" v="river" />
	</node>
	<node lat="61.80543611374659" lon="6.815747230503492" id="-82410">
		<tag k="name" v="Nylednesete" />
		<tag k="natural" v="cape" />
		<tag k="ssr:stedsnr" v="639091" />
	</node>
	<node lat="61.84954444818178" lon="6.784599990311221" id="-82411">
		<tag k="name" v="Råagjølelva" />
		<tag k="ssr:stedsnr" v="639181" />
		<tag k="waterway" v="stream" />
	</node>
	<node lat="61.79218333029794" lon="6.82704722786402" id="-82416">
		<tag k="name" v="Sandnesøyra" />
		<tag k="natural" v="cape" />
		<tag k="ssr:stedsnr" v="639196" />
	</node>
	<node lat="61.82118333440099" lon="6.352444438517756" id="-82422">
		<tag k="name" v="Granvadet" />
		<tag k="natural" v="water" />
		<tag k="ssr:stedsnr" v="639151" />
		<tag k="water" v="lake" />
	</node>
	<node lat="61.843397224674135" lon="6.950136107001786" id="-82448">
		<tag k="name" v="Langesvadet" />
		<tag k="ssr:stedsnr" v="639319" />
		<tag k="waterway" v="stream" />
	</node>
	<node lat="61.91667499767039" lon="6.6061666598751465" id="-82464">
		<tag k="name" v="Merkevika" />
		<tag k="natural" v="bay" />
		<tag k="ssr:stedsnr" v="639461" />
	</node>
	<node lat="61.80534166916686" lon="6.423255554706142" id="-82479">
		<tag k="name" v="Sandåna" />
		<tag k="ssr:stedsnr" v="738094" />
		<tag k="waterway" v="stream" />
	</node>
	<node lat="61.809355556286754" lon="6.688322220528746" id="-82488">
		<tag k="name" v="Vesleloga" />
		<tag k="natural" v="water" />
		<tag k="ssr:stedsnr" v="738330" />
	</node>
	<node lat="61.961561113934124" lon="6.972155556566573" id="-82493">
		<tag k="name" v="Marsåna" />
		<tag k="ssr:stedsnr" v="738395" />
		<tag k="waterway" v="stream" />
	</node>
	<node lat="61.937627776715736" lon="6.974455562570299" id="-82505">
		<tag k="name" v="Årneskråna" />
		<tag k="natural" v="bay" />
		<tag k="ssr:stedsnr" v="761432" />
	</node>
	<node lat="61.71500833607958" lon="6.796124991046801" id="-82511">
		<tag k="name" v="Jonsoketrilla" />
		<tag k="natural" v="cape" />
		<tag k="ssr:stedsnr" v="761120" />
	</node>
	<node lat="61.8493666651319" lon="6.37978333224403" id="-82527">
		<tag k="name" v="Merkingsgrova" />
		<tag k="ssr:stedsnr" v="761285" />
		<tag k="waterway" v="stream" />
	</node>
	<node lat="61.90599725172581" lon="6.591258657677521" id="-82528">
		<tag k="name" v="Vasskjelhola" />
		<tag k="natural" v="bay" />
		<tag k="ssr:stedsnr" v="761365" />
	</node>
	<node lat="61.84840555324578" lon="6.449333339279091" id="-82541">
		<tag k="name" v="Tverrelva" />
		<tag k="ssr:stedsnr" v="761336" />
		<tag k="waterway" v="stream" />
	</node>
	<node lat="61.832130556421426" lon="6.950502781033413" id="-82542">
		<tag k="name" v="Helsetneset" />
		<tag k="natural" v="cape" />
		<tag k="ssr:stedsnr" v="761340" />
	</node>
	<node lat="61.897286111621554" lon="7.1061416644208535" id="-82553">
		<tag k="name" v="Juvika" />
		<tag k="natural" v="bay" />
		<tag k="ssr:stedsnr" v="761389" />
	</node>
	<node lat="61.83359444842784" lon="6.803802778838816" id="-82562">
		<tag k="name" v="Oldeelva" />
		<tag k="ssr:stedsnr" v="779566" />
		<tag k="waterway" v="river" />
	</node>
	<node lat="61.80860000036393" lon="6.814963882887525" id="-82566">
		<tag k="name" v="Floen" />
		<tag k="natural" v="water" />
		<tag k="ssr:stedsnr" v="799331" />
		<tag k="water" v="lake" />
	</node>
	<node lat="61.89281944093595" lon="6.5840166651127845" id="-82568">
		<tag k="alt_name" v="Sætredemma" />
		<tag k="name" v="Demma" />
		<tag k="place" v="locality" />
		<tag k="ssr:stedsnr" v="799030" />
	</node>
	<node lat="61.88601666343534" lon="6.2675944539571935" id="-82579">
		<tag k="name" v="Tangevatna" />
		<tag k="natural" v="water" />
		<tag k="ssr:stedsnr" v="798981" />
		<tag k="water" v="lake" />
	</node>
	<node lat="61.814288891140606" lon="6.551630556445965" id="-82582">
		<tag k="name" v="Sandelva" />
		<tag k="ssr:stedsnr" v="799083" />
		<tag k="waterway" v="stream" />
	</node>
	<node lat="61.932497225204585" lon="6.543927775172364" id="-82595">
		<tag k="name" v="Noraelva" />
		<tag k="ssr:stedsnr" v="821247" />
		<tag k="waterway" v="river" />
	</node>
	<node lat="61.82830278008241" lon="6.624058326109142" id="-82601">
		<tag k="name" v="Hagjølselva" />
		<tag k="ssr:stedsnr" v="822406" />
		<tag k="waterway" v="stream" />
	</node>
	<node lat="61.770152776631726" lon="6.835002778843981" id="-82606">
		<tag k="name" v="Mellavika" />
		<tag k="natural" v="bay" />
		<tag k="ssr:stedsnr" v="822093" />
	</node>
	<node lat="61.85778332920973" lon="6.891138890214549" id="-82607">
		<tag k="name" v="Skokkvikneset" />
		<tag k="natural" v="cape" />
		<tag k="ssr:stedsnr" v="822169" />
	</node>
	<node lat="61.9061583362094" lon="6.745033326251168" id="-82612">
		<tag k="name" v="Holmane" />
		<tag k="place" v="islet" />
		<tag k="ssr:stedsnr" v="822049" />
	</node>
	<node lat="61.911194440524625" lon="6.733316670649373" id="-82614">
		<tag k="name" v="Kvernhusgrova" />
		<tag k="ssr:stedsnr" v="822060" />
		<tag k="waterway" v="stream" />
	</node>
	<node lat="61.87008055795496" lon="6.2959749940287155" id="-82620">
		<tag k="name" v="Demma" />
		<tag k="ssr:stedsnr" v="822159" />
		<tag k="waterway" v="stream" />
	</node>
	<node lat="61.835172221810396" lon="6.913961110022261" id="-82646">
		<tag k="name" v="Sannesgrova" />
		<tag k="ssr:stedsnr" v="822355" />
		<tag k="waterway" v="stream" />
	</node>
	<node lat="61.9032666635535" lon="7.194550002990618" id="-82653">
		<tag k="name" v="Klagehølen" />
		<tag k="place" v="locality" />
		<tag k="ssr:stedsnr" v="822450" />
	</node>
	<node lat="61.85377500222413" lon="6.4633361097167015" id="-82660">
		<tag k="name" v="Latebakkelva" />
		<tag k="ssr:stedsnr" v="822491" />
		<tag k="waterway" v="stream" />
	</node>
	<node lat="61.81814444455627" lon="6.795311115468689" id="-82665">
		<tag k="name" v="Gyttagrova" />
		<tag k="ssr:stedsnr" v="822514" />
		<tag k="waterway" v="stream" />
	</node>
	<node lat="61.81810555916315" lon="6.810325006056747" id="-82668">
		<tag k="name" v="Laukifossen" />
		<tag k="natural" v="waterfall" />
		<tag k="ssr:stedsnr" v="822533" />
	</node>
	<node lat="61.93423333056848" lon="6.655552775575103" id="-82674">
		<tag k="name" v="Storetjørna" />
		<tag k="natural" v="water" />
		<tag k="ssr:stedsnr" v="822553" />
	</node>
	<node lat="61.87261388803928" lon="6.877583325576182" id="-82690">
		<tag k="name" v="Hagedøla" />
		<tag k="ssr:stedsnr" v="859243" />
		<tag k="waterway" v="stream" />
	</node>
	<node lat="61.95745000219413" lon="7.045361119706942" id="-82692">
		<tag k="name" v="Floåna" />
		<tag k="ssr:stedsnr" v="859353" />
		<tag k="waterway" v="stream" />
	</node>
	<node lat="61.888237328668474" lon="6.398147077266668" id="-82698">
		<tag k="name" v="Høgefjellvatnet" />
		<tag k="natural" v="water" />
		<tag k="ssr:stedsnr" v="859957" />
	</node>
	<node lat="61.78765277668097" lon="6.5423305636143425" id="-82701">
		<tag k="name" v="Storegrova" />
		<tag k="ssr:stedsnr" v="860193" />
		<tag k="waterway" v="stream" />
	</node>
	<node lat="61.83260000326569" lon="6.640955549700571" id="-82706">
		<tag k="name" v="Storelva" />
		<tag k="ssr:stedsnr" v="860255" />
		<tag k="waterway" v="river" />
	</node>
	<node lat="61.90689207847285" lon="6.593522928157008" id="-82710">
		<tag k="alt_name" v="Langesetevatnet" />
		<tag k="name" v="Langesetvatnet" />
		<tag k="natural" v="water" />
		<tag k="ssr:stedsnr" v="860349" />
		<tag k="water" v="lake" />
	</node>
	<node lat="61.846469440355776" lon="6.757422230357466" id="-82714">
		<tag k="name" v="Svåna" />
		<tag k="ssr:stedsnr" v="860426" />
		<tag k="waterway" v="stream" />
	</node>
	<node lat="61.934011111612826" lon="6.91704443570864" id="-82716">
		<tag k="name" v="Dispaholmen" />
		<tag k="place" v="islet" />
		<tag k="ssr:stedsnr" v="860374" />
	</node>
	<node lat="61.79333888693439" lon="6.656341662196578" id="-82717">
		<tag k="name" v="Høgmannsvatnet" />
		<tag k="natural" v="water" />
		<tag k="ssr:stedsnr" v="860401" />
	</node>
	<node lat="61.74638566740934" lon="7.045838222686227" id="-82718">
		<tag k="name" v="Krunefossen" />
		<tag k="natural" v="waterfall" />
		<tag k="ssr:stedsnr" v="860724" />
	</node>
	<node lat="61.69671389138055" lon="6.813483324120795" id="-82720">
		<tag k="name" v="Dalelva" />
		<tag k="ssr:stedsnr" v="860739" />
		<tag k="waterway" v="river" />
	</node>
	<node lat="61.905422222507504" lon="6.46441944354127" id="-82722">
		<tag k="name" v="Nykkjedalsvatnet" />
		<tag k="natural" v="water" />
		<tag k="ssr:stedsnr" v="860995" />
		<tag k="water" v="lake" />
	</node>
	<node lat="61.81808611073962" lon="6.34416388156907" id="-82737">
		<tag k="name" v="Fagelielva" />
		<tag k="ssr:stedsnr" v="883154" />
		<tag k="waterway" v="stream" />
	</node>
	<node lat="61.82088055278833" lon="6.936877778482281" id="-82752">
		<tag k="name" v="Bredeelva" />
		<tag k="ssr:stedsnr" v="883235" />
		<tag k="waterway" v="river" />
	</node>
	<node lat="61.94536388801893" lon="7.022063887962716" id="-82759">
		<tag k="name" v="Skoraneset" />
		<tag k="natural" v="cape" />
		<tag k="ssr:stedsnr" v="883342" />
	</node>
	<node lat="61.88105555829725" lon="6.831730562515647" id="-82765">
		<tag k="name" v="Kupegrova" />
		<tag k="ssr:stedsnr" v="883282" />
		<tag k="waterway" v="stream" />
	</node>
	<node lat="61.803250000131506" lon="6.82211388460161" id="-82788">
		<tag k="name" v="Olaneset" />
		<tag k="natural" v="cape" />
		<tag k="ssr:stedsnr" v="943074" />
	</node>
	<node lat="61.77569166298299" lon="6.836361112953059" id="-82794">
		<tag k="name" v="Stampevika" />
		<tag k="natural" v="bay" />
		<tag k="ssr:stedsnr" v="943098" />
	</node>
	<node lat="61.727705553509196" lon="6.810052770720806" id="-82798">
		<tag k="name" v="Skreda" />
		<tag k="ssr:stedsnr" v="943116" />
		<tag k="waterway" v="stream" />
	</node>
	<node lat="61.724150002987024" lon="6.795494439542732" id="-82799">
		<tag k="name" v="Yrineset" />
		<tag k="natural" v="cape" />
		<tag k="ssr:stedsnr" v="943117" />
	</node>
	<node lat="61.746405554240546" lon="6.807277772287871" id="-82800">
		<tag k="name" v="Ospeneset" />
		<tag k="natural" v="cape" />
		<tag k="ssr:stedsnr" v="943121" />
	</node>
	<node lat="61.73912499957223" lon="6.808783338877245" id="-82801">
		<tag k="name" v="Sjølskorfossen" />
		<tag k="natural" v="waterfall" />
		<tag k="ssr:stedsnr" v="943123" />
	</node>
	<node lat="61.86181469419592" lon="6.643491711801536" id="-82819">
		<tag k="name" v="Tjønnane" />
		<tag k="natural" v="water" />
		<tag k="ssr:stedsnr" v="943344" />
		<tag k="water" v="lake" />
	</node>
	<node lat="61.91369721790974" lon="7.114494440174256" id="-82821">
		<tag k="name" v="Hjellebukta" />
		<tag k="natural" v="bay" />
		<tag k="ssr:stedsnr" v="943352" />
	</node>
	<node lat="61.926891670225224" lon="6.868527771501654" id="-82834">
		<tag k="name" v="Fjellvadet" />
		<tag k="natural" v="water" />
		<tag k="ssr:stedsnr" v="943227" />
		<tag k="water" v="lake" />
	</node>
	<node lat="61.95566944580017" lon="7.022447226720591" id="-82838">
		<tag k="name" v="Jaregrova" />
		<tag k="ssr:stedsnr" v="943290" />
		<tag k="waterway" v="stream" />
	</node>
	<node lat="61.82485555945473" lon="6.970097221034056" id="-82840">
		<tag k="name" v="Elvanes" />
		<tag k="natural" v="cape" />
		<tag k="ssr:stedsnr" v="943310" />
	</node>
	<node lat="61.832016664482694" lon="6.616511108050278" id="-82844">
		<tag k="name" v="Utigardselva" />
		<tag k="ssr:stedsnr" v="943380" />
		<tag k="waterway" v="stream" />
	</node>
	<node lat="61.83060555903299" lon="6.640133335484523" id="-82846">
		<tag k="name" v="Slokelva" />
		<tag k="ssr:stedsnr" v="943372" />
		<tag k="waterway" v="stream" />
	</node>
	<node lat="61.924900000621506" lon="7.07874999914176" id="-82850">
		<tag k="name" v="Steinsvika" />
		<tag k="natural" v="bay" />
		<tag k="ssr:stedsnr" v="943447" />
	</node>
	<node lat="61.81322499898585" lon="6.811386107376035" id="-82877">
		<tag k="name" v="Gjertrudneset" />
		<tag k="natural" v="cape" />
		<tag k="ssr:stedsnr" v="943496" />
	</node>
	<node lat="61.83924722180533" lon="6.945750000408191" id="-82883">
		<tag k="name" v="Viljenes" />
		<tag k="natural" v="cape" />
		<tag k="ssr:stedsnr" v="944311" />
	</node>
	<node lat="61.93857221838597" lon="6.94112222722274" id="-82887">
		<tag k="name" v="Vikanes" />
		<tag k="natural" v="cape" />
		<tag k="ssr:stedsnr" v="944370" />
	</node>
</osm>
