<?xml version="1.0" encoding="UTF-8"?>
<osm version="0.6" generator="osmapis">
	<node lat="61.871074105562066" lon="6.531389348936657" id="-79810">
		<tag k="fixme" v="consider place=hamlet" />
		<tag k="name" v="Teigen" />
		<tag k="place" v="farm" />
		<tag k="ssr:stedsnr" v="10009" />
	</node>
	<node lat="61.94367414526952" lon="6.929761697576103" id="-79818">
		<tag k="fixme" v="consider place=hamlet" />
		<tag k="name" v="Ljåstad" />
		<tag k="place" v="farm" />
		<tag k="ssr:stedsnr" v="10284" />
	</node>
	<node lat="61.92219013273143" lon="6.617781549211527" id="-79819">
		<tag k="fixme" v="consider place=hamlet" />
		<tag k="name" v="Svingeset" />
		<tag k="place" v="farm" />
		<tag k="ssr:stedsnr" v="10291" />
	</node>
	<node lat="61.79659401196397" lon="6.828477622019456" id="-79821">
		<tag k="fixme" v="consider place=hamlet" />
		<tag k="name" v="Sandnes" />
		<tag k="place" v="farm" />
		<tag k="ssr:stedsnr" v="10308" />
	</node>
	<node lat="61.82747545588459" lon="6.8120174977442485" id="-79824">
		<tag k="fixme" v="consider place=hamlet" />
		<tag k="name" v="Brynestad" />
		<tag k="place" v="farm" />
		<tag k="ssr:stedsnr" v="10322" />
	</node>
	<node lat="61.84177158790205" lon="6.60421179772879" id="-79825">
		<tag k="fixme" v="consider place=hamlet" />
		<tag k="name" v="Lyslo" />
		<tag k="place" v="farm" />
		<tag k="ssr:stedsnr" v="10331" />
	</node>
	<node lat="61.697582070441165" lon="6.809771008166803" id="-79838">
		<tag k="fixme" v="consider place=hamlet" />
		<tag k="name" v="Mykløy" />
		<tag k="place" v="farm" />
		<tag k="ssr:stedsnr" v="33010" />
	</node>
	<node lat="61.837249997605426" lon="6.470055551992333" id="-79884">
		<tag k="name" v="Lillejord" />
		<tag k="old_name" v="Litlejordet" />
		<tag k="place" v="farm" />
		<tag k="ssr:stedsnr" v="53124" />
	</node>
	<node lat="61.83172222276342" lon="6.467430547590765" id="-79892">
		<tag k="name" v="Bergsetnausta" />
		<tag k="place" v="locality" />
		<tag k="ssr:stedsnr" v="70096" />
	</node>
	<node lat="61.743353071862714" lon="6.788208037240421" id="-79896">
		<tag k="fixme" v="consider place=hamlet" />
		<tag k="name" v="Gytri" />
		<tag k="place" v="farm" />
		<tag k="ssr:stedsnr" v="70880" />
	</node>
	<node lat="61.873977777545186" lon="6.303116660061285" id="-79899">
		<tag k="name" v="Brekkene" />
		<tag k="place" v="locality" />
		<tag k="ssr:stedsnr" v="71033" />
	</node>
	<node lat="61.913544790256516" lon="6.752555318008897" id="-79908">
		<tag k="alt_name" v="Ytre Rise;Inste Rise" />
		<tag k="fixme" v="consider place=hamlet" />
		<tag k="name" v="Rise" />
		<tag k="place" v="farm" />
		<tag k="ssr:stedsnr" v="71321" />
	</node>
	<node lat="61.88887967990013" lon="7.10640213764388" id="-79911">
		<tag k="fixme" v="consider place=hamlet" />
		<tag k="name" v="Rygg" />
		<tag k="place" v="farm" />
		<tag k="ssr:stedsnr" v="71502" />
	</node>
	<node lat="61.89965599316338" lon="7.239337139825605" id="-79913">
		<tag k="historic" v="shieling" />
		<tag k="name" v="Sunndalen" />
		<tag k="place" v="isolated_dwelling" />
		<tag k="ssr:stedsnr" v="71507" />
	</node>
	<node lat="61.91812071344456" lon="7.092044515696597" id="-79916">
		<tag k="fixme" v="consider place=hamlet" />
		<tag k="name" v="Glomnes" />
		<tag k="place" v="farm" />
		<tag k="ssr:stedsnr" v="71523" />
	</node>
	<node lat="61.90164722251112" lon="6.7229583330241525" id="-79930">
		<tag k="name" v="Bruagrenda" />
		<tag k="place" v="hamlet" />
		<tag k="ssr:stedsnr" v="94066" />
	</node>
	<node lat="61.84382500407047" lon="6.622358332580759" id="-79966">
		<tag k="name" v="Einebakk" />
		<tag k="place" v="farm" />
		<tag k="ssr:stedsnr" v="94400" />
	</node>
	<node lat="61.842993894659074" lon="6.634011392383127" id="-79986">
		<tag k="fixme" v="consider place=hamlet" />
		<tag k="name" v="Taraldset" />
		<tag k="place" v="farm" />
		<tag k="ssr:stedsnr" v="252318" />
	</node>
	<node lat="61.82720833387833" lon="6.679741662726694" id="-80006">
		<tag k="alt_name" v="Dragesetstølen" />
		<tag k="historic" v="shieling" />
		<tag k="name" v="Dragesetstøylen" />
		<tag k="place" v="isolated_dwelling" />
		<tag k="ssr:stedsnr" v="131316" />
	</node>
	<node lat="61.864855783013866" lon="6.521874267175522" id="-80007">
		<tag k="alt_name" v="Nygard" />
		<tag k="fixme" v="consider place=hamlet" />
		<tag k="name" v="Nygård" />
		<tag k="place" v="farm" />
		<tag k="ssr:stedsnr" v="131020" />
	</node>
	<node lat="61.8887666674783" lon="6.61739722310896" id="-80016">
		<tag k="fixme" v="consider place=hamlet" />
		<tag k="name" v="Faleide" />
		<tag k="place" v="village" />
		<tag k="ssr:stedsnr" v="131271" />
	</node>
	<node lat="61.92733055411609" lon="6.598802783910319" id="-80019">
		<tag k="name" v="Bakkevoll" />
		<tag k="place" v="farm" />
		<tag k="ssr:stedsnr" v="131292" />
	</node>
	<node lat="61.93094167110234" lon="6.902216661426803" id="-80036">
		<tag k="loc_name" v="Gjerdane" />
		<tag k="name" v="Gjerane" />
		<tag k="place" v="farm" />
		<tag k="ssr:stedsnr" v="253365" />
	</node>
	<node lat="61.83280000056596" lon="6.808038880736988" id="-80041">
		<tag k="fixme" v="consider place=hamlet" />
		<tag k="name" v="Olden" />
		<tag k="place" v="village" />
		<tag k="ssr:stedsnr" v="253391" />
	</node>
	<node lat="61.92475702663442" lon="6.561571922828728" id="-80049">
		<tag k="fixme" v="consider place=hamlet" />
		<tag k="name" v="Hatledal" />
		<tag k="place" v="farm" />
		<tag k="ssr:stedsnr" v="253963" />
	</node>
	<node lat="61.910358330274896" lon="6.813080555417503" id="-80057">
		<tag k="name" v="Nedsetra" />
		<tag k="place" v="farm" />
		<tag k="ssr:stedsnr" v="154158" />
	</node>
	<node lat="61.83200555429136" lon="6.3363888818041785" id="-80060">
		<tag k="historic" v="shieling" />
		<tag k="name" v="Nerstølen" />
		<tag k="place" v="isolated_dwelling" />
		<tag k="ssr:stedsnr" v="154164" />
	</node>
	<node lat="61.86952227281195" lon="6.540983900202715" id="-80099">
		<tag k="fixme" v="consider place=hamlet" />
		<tag k="name" v="Dokset" />
		<tag k="place" v="farm" />
		<tag k="ssr:stedsnr" v="192006" />
	</node>
	<node lat="61.86321668064341" lon="6.3299501825968765" id="-80101">
		<tag k="fixme" v="consider place=hamlet" />
		<tag k="name" v="Hammar" />
		<tag k="place" v="farm" />
		<tag k="ssr:stedsnr" v="192014" />
	</node>
	<node lat="61.84021111508799" lon="6.8114361172586255" id="-80117">
		<tag k="name" v="Murinausta" />
		<tag k="place" v="locality" />
		<tag k="ssr:stedsnr" v="215191" />
	</node>
	<node lat="61.948786109849955" lon="6.875358330413532" id="-80137">
		<tag k="historic" v="shieling" />
		<tag k="name" v="Høgesetra" />
		<tag k="place" v="isolated_dwelling" />
		<tag k="ssr:stedsnr" v="215286" />
	</node>
	<node lat="61.84199722619687" lon="6.527986112500063" id="-80140">
		<tag k="name" v="Ulvedalsnausta" />
		<tag k="place" v="locality" />
		<tag k="ssr:stedsnr" v="215297" />
	</node>
	<node lat="61.72398055750062" lon="6.782849993371109" id="-80147">
		<tag k="historic" v="shieling" />
		<tag k="name" v="Ytre Yrisetra" />
		<tag k="place" v="isolated_dwelling" />
		<tag k="ssr:stedsnr" v="215528" />
	</node>
	<node lat="61.89960555475232" lon="6.697980562235639" id="-80163">
		<tag k="name" v="Grønevik" />
		<tag k="place" v="farm" />
		<tag k="ssr:stedsnr" v="221089" />
	</node>
	<node lat="61.907838890814034" lon="6.518455564572788" id="-80166">
		<tag k="name" v="Florehytta" />
		<tag k="place" v="isolated_dwelling" />
		<tag k="ssr:stedsnr" v="495998" />
	</node>
	<node lat="61.90397876111585" lon="6.733438838451115" id="-80174">
		<tag k="fixme" v="consider place=hamlet" />
		<tag k="name" v="Årheim" />
		<tag k="place" v="farm" />
		<tag k="ssr:stedsnr" v="253313" />
	</node>
	<node lat="61.82110278162446" lon="6.806555561175966" id="-80178">
		<tag k="name" v="Bruvoll" />
		<tag k="place" v="farm" />
		<tag k="ssr:stedsnr" v="253401" />
	</node>
	<node lat="61.886000530898436" lon="7.109244922937855" id="-80180">
		<tag k="fixme" v="consider place=hamlet" />
		<tag k="name" v="Berge" />
		<tag k="place" v="farm" />
		<tag k="ssr:stedsnr" v="253512" />
	</node>
	<node lat="61.89401130449838" lon="7.089531936576702" id="-80181">
		<tag k="fixme" v="consider place=hamlet" />
		<tag k="name" v="Grønfor" />
		<tag k="place" v="farm" />
		<tag k="ssr:stedsnr" v="253519" />
	</node>
	<node lat="61.932205554871025" lon="6.565447231270178" id="-80184">
		<tag k="name" v="Åsen" />
		<tag k="place" v="farm" />
		<tag k="ssr:stedsnr" v="253906" />
	</node>
	<node lat="61.8231499997004" lon="6.980930564297474" id="-80219">
		<tag k="historic" v="shieling" />
		<tag k="name" v="Gardsstølane" />
		<tag k="place" v="isolated_dwelling" />
		<tag k="ssr:stedsnr" v="458352" />
	</node>
	<node lat="61.70291666283306" lon="6.788366660630933" id="-80247">
		<tag k="name" v="Rustøysetra" />
		<tag k="place" v="farm" />
		<tag k="ssr:stedsnr" v="276007" />
	</node>
	<node lat="61.77115277578403" lon="6.964927779855448" id="-80267">
		<tag k="historic" v="shieling" />
		<tag k="name" v="Framsetra" />
		<tag k="place" v="isolated_dwelling" />
		<tag k="ssr:stedsnr" v="276277" />
	</node>
	<node lat="61.926300830886184" lon="6.8585356780955955" id="-80269">
		<tag k="name" v="Hatlen" />
		<tag k="place" v="farm" />
		<tag k="ssr:stedsnr" v="276285" />
	</node>
	<node lat="61.93735644682756" lon="6.905422022449871" id="-80273">
		<tag k="fixme" v="consider place=hamlet" />
		<tag k="name" v="Eikenes" />
		<tag k="place" v="farm" />
		<tag k="ssr:stedsnr" v="276403" />
	</node>
	<node lat="61.84114863759579" lon="6.6102550213068625" id="-80298">
		<tag k="alt_name" v="Gjeilemyra" />
		<tag k="name" v="Geilemyra" />
		<tag k="place" v="farm" />
		<tag k="ssr:stedsnr" v="282888" />
	</node>
	<node lat="61.84751111310725" lon="6.4688638892532815" id="-80313">
		<tag k="name" v="Vangen" />
		<tag k="place" v="farm" />
		<tag k="ssr:stedsnr" v="313023" />
	</node>
	<node lat="61.85225555227481" lon="6.615080552562305" id="-80323">
		<tag k="name" v="Innvik" />
		<tag k="place" v="village" />
		<tag k="ssr:stedsnr" v="313372" />
	</node>
	<node lat="61.923203622879036" lon="7.180582093242306" id="-80330">
		<tag k="alt_name" v="Guddal;Gutdalen" />
		<tag k="fixme" v="consider place=hamlet" />
		<tag k="loc_name" v="Gudal;Guddalen" />
		<tag k="name" v="Gutdal" />
		<tag k="place" v="farm" />
		<tag k="ssr:stedsnr" v="313480" />
	</node>
	<node lat="61.92253889196202" lon="7.191000000153694" id="-80331">
		<tag k="name" v="Haugane" />
		<tag k="place" v="farm" />
		<tag k="ssr:stedsnr" v="313482" />
	</node>
	<node lat="61.70606111319821" lon="6.8318861016398795" id="-80342">
		<tag k="historic" v="shieling" />
		<tag k="name" v="Utforsetra" />
		<tag k="place" v="isolated_dwelling" />
		<tag k="ssr:stedsnr" v="336102" />
	</node>
	<node lat="61.87855277719546" lon="6.353694435899146" id="-80355">
		<tag k="historic" v="shieling" />
		<tag k="name" v="Nedrestølen" />
		<tag k="place" v="isolated_dwelling" />
		<tag k="ssr:stedsnr" v="336203" />
	</node>
	<node lat="61.90615555977675" lon="6.702972227698159" id="-80371">
		<tag k="name" v="Sandberg" />
		<tag k="place" v="isolated_dwelling" />
		<tag k="ssr:stedsnr" v="342010" />
	</node>
	<node lat="61.86234444027734" lon="6.490727772823337" id="-80381">
		<tag k="historic" v="shieling" />
		<tag k="name" v="Bulægene" />
		<tag k="place" v="isolated_dwelling" />
		<tag k="ssr:stedsnr" v="374012" />
	</node>
	<node lat="61.80962951626299" lon="6.533267964359584" id="-80384">
		<tag k="fixme" v="consider place=hamlet" />
		<tag k="name" v="Kårstad" />
		<tag k="place" v="farm" />
		<tag k="ssr:stedsnr" v="374091" />
	</node>
	<node lat="61.90692222106617" lon="6.7435305604288445" id="-80389">
		<tag k="name" v="Skjolden" />
		<tag k="place" v="farm" />
		<tag k="ssr:stedsnr" v="374322" />
	</node>
	<node lat="61.94902767746266" lon="7.029818831995838" id="-80394">
		<tag k="name" v="Flo" />
		<tag k="place" v="hamlet" />
		<tag k="ssr:stedsnr" v="374395" />
	</node>
	<node lat="61.932652059432776" lon="6.53878282739719" id="-80396">
		<tag k="alt_name" v="Øen" />
		<tag k="fixme" v="consider place=hamlet" />
		<tag k="name" v="Øyane" />
		<tag k="place" v="farm" />
		<tag k="ssr:stedsnr" v="374910" />
	</node>
	<node lat="61.94073888664499" lon="6.562225006128664" id="-80399">
		<tag k="historic" v="shieling" />
		<tag k="name" v="Høgestølen" />
		<tag k="place" v="isolated_dwelling" />
		<tag k="ssr:stedsnr" v="396204" />
	</node>
	<node lat="61.673852777025864" lon="6.822355555820083" id="-80400">
		<tag k="historic" v="shieling" />
		<tag k="name" v="Setra" />
		<tag k="place" v="isolated_dwelling" />
		<tag k="ssr:stedsnr" v="397131" />
	</node>
	<node lat="61.680358331575405" lon="6.823566666742999" id="-80401">
		<tag k="historic" v="shieling" />
		<tag k="name" v="Brenndalsetra" />
		<tag k="place" v="isolated_dwelling" />
		<tag k="ssr:stedsnr" v="397140" />
	</node>
	<node lat="61.84550833158242" lon="7.186127783016958" id="-80430">
		<tag k="historic" v="shieling" />
		<tag k="name" v="Vesledalssetra" />
		<tag k="place" v="isolated_dwelling" />
		<tag k="ssr:stedsnr" v="397532" />
	</node>
	<node lat="61.71715833288919" lon="6.783694453134628" id="-80440">
		<tag k="historic" v="shieling" />
		<tag k="name" v="Indre Yrisetra" />
		<tag k="place" v="isolated_dwelling" />
		<tag k="ssr:stedsnr" v="397496" />
	</node>
	<node lat="61.70090000331139" lon="6.835049995860274" id="-80448">
		<tag k="historic" v="shieling" />
		<tag k="name" v="Kvamssætra" />
		<tag k="place" v="isolated_dwelling" />
		<tag k="ssr:stedsnr" v="434906" />
	</node>
	<node lat="61.80615277880161" lon="6.435755558810678" id="-80449">
		<tag k="name" v="Svorane" />
		<tag k="place" v="locality" />
		<tag k="ssr:stedsnr" v="435113" />
	</node>
	<node lat="61.8454452527612" lon="6.38653211952917" id="-80450">
		<tag k="fixme" v="consider place=hamlet" />
		<tag k="name" v="Gald" />
		<tag k="place" v="farm" />
		<tag k="ssr:stedsnr" v="435132" />
	</node>
	<node lat="61.89747013060405" lon="7.081563049724126" id="-80462">
		<tag k="fixme" v="consider place=hamlet" />
		<tag k="name" v="Mork" />
		<tag k="place" v="farm" />
		<tag k="ssr:stedsnr" v="435510" />
	</node>
	<node lat="61.90783408026433" lon="7.055278919956204" id="-80463">
		<tag k="fixme" v="consider place=hamlet" />
		<tag k="name" v="Fosnes" />
		<tag k="place" v="farm" />
		<tag k="ssr:stedsnr" v="435512" />
	</node>
	<node lat="61.78128540524359" lon="6.835861973041904" id="-80467">
		<tag k="fixme" v="consider place=hamlet" />
		<tag k="name" v="Håheim" />
		<tag k="place" v="farm" />
		<tag k="ssr:stedsnr" v="435481" />
	</node>
	<node lat="61.80813213198077" lon="6.822920647416608" id="-80480">
		<tag k="fixme" v="consider place=hamlet" />
		<tag k="name" v="Solheim" />
		<tag k="place" v="farm" />
		<tag k="ssr:stedsnr" v="458083" />
	</node>
	<node lat="61.84889444267999" lon="6.814302768500995" id="-80490">
		<tag k="fixme" v="consider place=suburb, village or hamlet" />
		<tag k="name" v="Flata" />
		<tag k="place" v="quarter" />
		<tag k="ssr:stedsnr" v="458165" />
	</node>
	<node lat="61.87016110760158" lon="6.308813885590803" id="-80492">
		<tag k="name" v="Haugen" />
		<tag k="place" v="farm" />
		<tag k="ssr:stedsnr" v="458178" />
	</node>
	<node lat="61.809774998618366" lon="6.553147215915212" id="-80496">
		<tag k="name" v="Gamlestølen" />
		<tag k="place" v="farm" />
		<tag k="ssr:stedsnr" v="458404" />
	</node>
	<node lat="61.85974166655135" lon="6.343569451735486" id="-80518">
		<tag k="name" v="Kvia" />
		<tag k="place" v="locality" />
		<tag k="ssr:stedsnr" v="677014" />
	</node>
	<node lat="61.83567222468682" lon="6.438794444371292" id="-80520">
		<tag k="name" v="Løfteng" />
		<tag k="place" v="farm" />
		<tag k="ssr:stedsnr" v="677120" />
	</node>
	<node lat="61.83548399061023" lon="6.584403151693398" id="-80521">
		<tag k="name" v="Skogstad" />
		<tag k="place" v="farm" />
		<tag k="ssr:stedsnr" v="677126" />
	</node>
	<node lat="61.8333374248779" lon="6.592098502986592" id="-80522">
		<tag k="alt_name" v="Li" />
		<tag k="fixme" v="consider place=hamlet" />
		<tag k="name" v="Lid" />
		<tag k="place" v="farm" />
		<tag k="ssr:stedsnr" v="677127" />
	</node>
	<node lat="61.79024721799166" lon="6.442602777332468" id="-80524">
		<tag k="name" v="Hytteranten" />
		<tag k="place" v="locality" />
		<tag k="ssr:stedsnr" v="677164" />
	</node>
	<node lat="61.83161944516572" lon="6.813936113892482" id="-80535">
		<tag k="name" v="Dalheim" />
		<tag k="place" v="farm" />
		<tag k="ssr:stedsnr" v="677314" />
	</node>
	<node lat="61.78590502300326" lon="6.986163308319334" id="-80543">
		<tag k="name" v="Nesdal" />
		<tag k="place" v="hamlet" />
		<tag k="ssr:stedsnr" v="677573" />
	</node>
	<node lat="61.84528611492602" lon="7.185799991995406" id="-80549">
		<tag k="fixme" v="consider tourism=alpine_hut or tourism=chalet" />
		<tag k="name" v="Vetledalseter" />
		<tag k="old_name" v="Vetledalssætra;Vetledalsseter" />
		<tag k="ssr:stedsnr" v="480323" />
		<tag k="tourism" v="wilderness_hut" />
	</node>
	<node lat="61.66488888641408" lon="6.78140277402457" id="-80561">
		<tag k="name" v="Jarbu" />
		<tag k="place" v="isolated_dwelling" />
		<tag k="ssr:stedsnr" v="494926" />
	</node>
	<node lat="61.855964888701685" lon="6.530259935326592" id="-80567">
		<tag k="fixme" v="consider place=hamlet" />
		<tag k="name" v="Øyestad" />
		<tag k="place" v="farm" />
		<tag k="ssr:stedsnr" v="495038" />
	</node>
	<node lat="61.81624406550091" lon="6.380390111003084" id="-80568">
		<tag k="fixme" v="consider place=hamlet" />
		<tag k="name" v="Frøyset" />
		<tag k="place" v="farm" />
		<tag k="ssr:stedsnr" v="495084" />
	</node>
	<node lat="61.80378479890205" lon="6.504030300522303" id="-80569">
		<tag k="fixme" v="consider place=hamlet" />
		<tag k="name" v="Bruland" />
		<tag k="place" v="farm" />
		<tag k="ssr:stedsnr" v="495111" />
	</node>
	<node lat="61.84346405678345" lon="6.397877579693949" id="-80572">
		<tag k="fixme" v="consider place=hamlet" />
		<tag k="name" v="Fjellkårstad" />
		<tag k="place" v="farm" />
		<tag k="ssr:stedsnr" v="495122" />
	</node>
	<node lat="61.89864722158034" lon="6.710427777801898" id="-80575">
		<tag k="fixme" v="consider place=suburb, village or hamlet" />
		<tag k="name" v="Visnes" />
		<tag k="place" v="quarter" />
		<tag k="ssr:stedsnr" v="495280" />
	</node>
	<node lat="61.92171984580387" lon="7.17290592067602" id="-80581">
		<tag k="fixme" v="consider place=hamlet" />
		<tag k="name" v="Grov" />
		<tag k="place" v="farm" />
		<tag k="ssr:stedsnr" v="495483" />
	</node>
	<node lat="61.93943889090317" lon="7.269380550373242" id="-80582">
		<tag k="alt_name" v="Videseter" />
		<tag k="name" v="Videsæter" />
		<tag k="ssr:stedsnr" v="495484" />
		<tag k="tourism" v="hotel" />
	</node>
	<node lat="61.80021666283883" lon="6.817199994531215" id="-80592">
		<tag k="historic" v="shieling" />
		<tag k="name" v="Gardstølane" />
		<tag k="place" v="isolated_dwelling" />
		<tag k="ssr:stedsnr" v="518077" />
	</node>
	<node lat="61.84425555806974" lon="6.631713890511893" id="-80608">
		<tag k="name" v="Torvund" />
		<tag k="place" v="farm" />
		<tag k="ssr:stedsnr" v="518328" />
	</node>
	<node lat="61.806286110041945" lon="6.5543749998974" id="-80612">
		<tag k="historic" v="shieling" />
		<tag k="name" v="Sverkestølen" />
		<tag k="place" v="isolated_dwelling" />
		<tag k="ssr:stedsnr" v="518360" />
	</node>
	<node lat="61.80642222581039" lon="6.5191749950137785" id="-80628">
		<tag k="fixme" v="consider place=hamlet" />
		<tag k="name" v="Utvik" />
		<tag k="place" v="village" />
		<tag k="ssr:stedsnr" v="555074" />
	</node>
	<node lat="61.936824626596106" lon="6.979243792644363" id="-80629">
		<tag k="fixme" v="consider place=hamlet" />
		<tag k="name" v="Årnes" />
		<tag k="place" v="farm" />
		<tag k="ssr:stedsnr" v="555316" />
	</node>
	<node lat="61.90258611226615" lon="6.717900002823087" id="-80635">
		<tag k="name" v="Stryn" />
		<tag k="place" v="village" />
		<tag k="ssr:stedsnr" v="556333" />
	</node>
	<node lat="61.90476121480402" lon="6.69993025215901" id="-80636">
		<tag k="fixme" v="consider place=hamlet" />
		<tag k="name" v="Vik" />
		<tag k="place" v="farm" />
		<tag k="ssr:stedsnr" v="556334" />
	</node>
	<node lat="61.801096227073124" lon="6.522969946097018" id="-80637">
		<tag k="fixme" v="consider place=hamlet" />
		<tag k="name" v="Verlo" />
		<tag k="place" v="farm" />
		<tag k="ssr:stedsnr" v="556097" />
	</node>
	<node lat="61.6922027797199" lon="6.802408336370114" id="-80646">
		<tag k="historic" v="shieling" />
		<tag k="name" v="Gardstølane" />
		<tag k="place" v="isolated_dwelling" />
		<tag k="ssr:stedsnr" v="579006" />
	</node>
	<node lat="61.94988333273516" lon="7.03385555493941" id="-80685">
		<tag k="fixme" v="consider place=hamlet" />
		<tag k="name" v="Øvre Flo" />
		<tag k="place" v="farm" />
		<tag k="ssr:stedsnr" v="579518" />
	</node>
	<node lat="61.83477778200296" lon="6.804688887872821" id="-80687">
		<tag k="alt_name" v="Oldøyra" />
		<tag k="name" v="Øyra" />
		<tag k="place" v="hamlet" />
		<tag k="ssr:stedsnr" v="579521" />
	</node>
	<node lat="61.73768610957585" lon="6.776241658512427" id="-80694">
		<tag k="historic" v="shieling" />
		<tag k="name" v="Gytrisetra" />
		<tag k="place" v="isolated_dwelling" />
		<tag k="ssr:stedsnr" v="579551" />
	</node>
	<node lat="61.79715833756682" lon="7.0035777774936046" id="-80695">
		<tag k="name" v="Gjerdshaugen" />
		<tag k="place" v="isolated_dwelling" />
		<tag k="ssr:stedsnr" v="695895" />
	</node>
	<node lat="61.8184527808414" lon="6.377674995219217" id="-80707">
		<tag k="name" v="Utigard" />
		<tag k="place" v="farm" />
		<tag k="ssr:stedsnr" v="700159" />
	</node>
	<node lat="61.69916111282456" lon="6.7925194537736795" id="-80731">
		<tag k="historic" v="shieling" />
		<tag k="name" v="Høgalmesetra" />
		<tag k="place" v="isolated_dwelling" />
		<tag k="ssr:stedsnr" v="701002" />
	</node>
	<node lat="61.86299253373745" lon="6.531082450753786" id="-80756">
		<tag k="fixme" v="consider place=hamlet" />
		<tag k="name" v="Hatleim" />
		<tag k="place" v="farm" />
		<tag k="ssr:stedsnr" v="616014" />
	</node>
	<node lat="61.87199444134025" lon="6.513125004225212" id="-80757">
		<tag k="name" v="Hellgardsvad" />
		<tag k="place" v="locality" />
		<tag k="ssr:stedsnr" v="616001" />
	</node>
	<node lat="61.83152499929" lon="6.466061115926009" id="-80758">
		<tag k="alt_name" v="Sølvbergnausta" />
		<tag k="name" v="Sølvbergsnausta" />
		<tag k="place" v="locality" />
		<tag k="ssr:stedsnr" v="616107" />
	</node>
	<node lat="61.8731666690321" lon="6.809186107156134" id="-80759">
		<tag k="name" v="Solvik" />
		<tag k="place" v="farm" />
		<tag k="ssr:stedsnr" v="616249" />
	</node>
	<node lat="61.930424198472544" lon="6.929456599523872" id="-80762">
		<tag k="fixme" v="consider place=hamlet" />
		<tag k="name" v="Berstad" />
		<tag k="place" v="farm" />
		<tag k="ssr:stedsnr" v="616294" />
	</node>
	<node lat="61.932288197916776" lon="6.884564349804107" id="-80764">
		<tag k="fixme" v="consider place=hamlet" />
		<tag k="name" v="Mindresunde" />
		<tag k="place" v="farm" />
		<tag k="ssr:stedsnr" v="616298" />
	</node>
	<node lat="61.8447239365295" lon="6.79167994394931" id="-80769">
		<tag k="name" v="Skarstein" />
		<tag k="place" v="hamlet" />
		<tag k="ssr:stedsnr" v="616340" />
	</node>
	<node lat="61.90791388620412" lon="6.582405563927121" id="-80783">
		<tag k="name" v="Skogtun" />
		<tag k="place" v="farm" />
		<tag k="ssr:stedsnr" v="617997" />
	</node>
	<node lat="61.8886527748133" lon="6.580041668431942" id="-80799">
		<tag k="historic" v="shieling" />
		<tag k="name" v="Gjølvestølen" />
		<tag k="place" v="isolated_dwelling" />
		<tag k="ssr:stedsnr" v="639427" />
	</node>
	<node lat="61.835897218542556" lon="6.43239999676425" id="-80801">
		<tag k="name" v="Pertun" />
		<tag k="place" v="farm" />
		<tag k="ssr:stedsnr" v="639304" />
	</node>
	<node lat="61.82190555713654" lon="6.687858335510221" id="-80811">
		<tag k="historic" v="shieling" />
		<tag k="name" v="Prestestølen" />
		<tag k="place" v="isolated_dwelling" />
		<tag k="ssr:stedsnr" v="639505" />
	</node>
	<node lat="61.79004971349405" lon="6.820492447271239" id="-80821">
		<tag k="fixme" v="consider place=hamlet" />
		<tag k="name" v="Beinnes" />
		<tag k="place" v="farm" />
		<tag k="ssr:stedsnr" v="677405" />
	</node>
	<node lat="61.86580555359251" lon="6.734024998638806" id="-80823">
		<tag k="name" v="Ugla" />
		<tag k="place" v="farm" />
		<tag k="ssr:stedsnr" v="677339" />
	</node>
	<node lat="61.84914952857234" lon="6.3728188529899" id="-80829">
		<tag k="fixme" v="consider place=hamlet" />
		<tag k="name" v="Nos" />
		<tag k="place" v="farm" />
		<tag k="ssr:stedsnr" v="678034" />
	</node>
	<node lat="61.86791666870559" lon="6.718913887941335" id="-80862">
		<tag k="name" v="Agjeldnausta" />
		<tag k="place" v="locality" />
		<tag k="ssr:stedsnr" v="700476" />
	</node>
	<node lat="61.688205551218516" lon="6.794274993216661" id="-80865">
		<tag k="historic" v="shieling" />
		<tag k="name" v="Myklebustsetra" />
		<tag k="place" v="isolated_dwelling" />
		<tag k="ssr:stedsnr" v="701004" />
	</node>
	<node lat="61.948308336365514" lon="7.021855555467549" id="-80892">
		<tag k="name" v="Holen" />
		<tag k="place" v="farm" />
		<tag k="ssr:stedsnr" v="701328" />
	</node>
	<node lat="61.84255708710294" lon="6.906941683136511" id="-80897">
		<tag k="historic" v="shieling" />
		<tag k="name" v="Sandsstølen" />
		<tag k="place" v="isolated_dwelling" />
		<tag k="ssr:stedsnr" v="701370" />
	</node>
	<node lat="61.87565555753671" lon="6.828983334186034" id="-80907">
		<tag k="name" v="Hella" />
		<tag k="place" v="isolated_dwelling" />
		<tag k="ssr:stedsnr" v="706475" />
	</node>
	<node lat="61.86719166230366" lon="6.328336108955247" id="-80916">
		<tag k="name" v="Randabygda" />
		<tag k="place" v="hamlet" />
		<tag k="ssr:stedsnr" v="738066" />
	</node>
	<node lat="61.838005555374814" lon="6.459405557348268" id="-80921">
		<tag k="name" v="Øverland" />
		<tag k="place" v="farm" />
		<tag k="ssr:stedsnr" v="738107" />
	</node>
	<node lat="61.84804722617285" lon="6.763313898011728" id="-80924">
		<tag k="name" v="Fossen" />
		<tag k="place" v="isolated_dwelling" />
		<tag k="ssr:stedsnr" v="738362" />
	</node>
	<node lat="61.890258757410365" lon="7.103558810836653" id="-80930">
		<tag k="fixme" v="consider place=hamlet" />
		<tag k="name" v="Erdal" />
		<tag k="place" v="farm" />
		<tag k="ssr:stedsnr" v="738458" />
	</node>
	<node lat="61.922862832124856" lon="6.5124087190941005" id="-80933">
		<tag k="fixme" v="consider place=hamlet" />
		<tag k="name" v="Nybø" />
		<tag k="place" v="farm" />
		<tag k="ssr:stedsnr" v="738967" />
	</node>
	<node lat="61.86838888510779" lon="6.965719440474574" id="-80939">
		<tag k="fixme" v="consider tourism=alpine_hut or tourism=chalet" />
		<tag k="name" v="Skålatårnet" />
		<tag k="ssr:stedsnr" v="756164" />
		<tag k="tourism" v="wilderness_hut" />
	</node>
	<node lat="61.85560555176275" lon="6.5267611146015385" id="-80957">
		<tag k="name" v="Kleiva" />
		<tag k="place" v="farm" />
		<tag k="ssr:stedsnr" v="761296" />
	</node>
	<node lat="61.814338885409526" lon="6.99372499914859" id="-80974">
		<tag k="name" v="Raudi" />
		<tag k="place" v="locality" />
		<tag k="ssr:stedsnr" v="798406" />
	</node>
	<node lat="61.69601666245033" lon="6.877224995869189" id="-80979">
		<tag k="fixme" v="consider tourism=alpine_hut or tourism=chalet" />
		<tag k="name" v="Flatsteinbu" />
		<tag k="ssr:stedsnr" v="798906" />
		<tag k="tourism" v="wilderness_hut" />
	</node>
	<node lat="61.901747219840836" lon="6.764188892905835" id="-80989">
		<tag k="alt_name" v="Sætresetra" />
		<tag k="historic" v="shieling" />
		<tag k="name" v="Sætresætra" />
		<tag k="place" v="isolated_dwelling" />
		<tag k="ssr:stedsnr" v="799295" />
	</node>
	<node lat="61.924118929717025" lon="7.009294290468383" id="-80992">
		<tag k="fixme" v="consider place=hamlet" />
		<tag k="name" v="Åning" />
		<tag k="place" v="farm" />
		<tag k="ssr:stedsnr" v="799505" />
	</node>
	<node lat="61.91699721838963" lon="7.118776179300466" id="-80995">
		<tag k="fixme" v="consider place=hamlet" />
		<tag k="name" v="Vollsnes" />
		<tag k="place" v="farm" />
		<tag k="ssr:stedsnr" v="799493" />
	</node>
	<node lat="61.89934999867814" lon="7.107413884263865" id="-81004">
		<tag k="name" v="Årnes" />
		<tag k="place" v="farm" />
		<tag k="ssr:stedsnr" v="920463" />
	</node>
	<node lat="61.90172907150147" lon="7.073414419851772" id="-81005">
		<tag k="fixme" v="consider place=hamlet" />
		<tag k="name" v="Dårflot" />
		<tag k="place" v="farm" />
		<tag k="ssr:stedsnr" v="920464" />
	</node>
	<node lat="61.91569329219837" lon="7.114702239213337" id="-81006">
		<tag k="fixme" v="consider place=hamlet" />
		<tag k="name" v="Hjelle" />
		<tag k="place" v="village" />
		<tag k="ssr:stedsnr" v="920473" />
	</node>
	<node lat="61.8481999968624" lon="6.527391661212537" id="-81009">
		<tag k="name" v="Solvang" />
		<tag k="place" v="farm" />
		<tag k="ssr:stedsnr" v="920032" />
	</node>
	<node lat="61.86754721829102" lon="6.313372228007098" id="-81010">
		<tag k="name" v="Hopland" />
		<tag k="place" v="hamlet" />
		<tag k="ssr:stedsnr" v="920063" />
	</node>
	<node lat="61.823811122087704" lon="6.808912155841824" id="-81015">
		<tag k="name" v="Brynestad" />
		<tag k="place" v="farm" />
		<tag k="ssr:stedsnr" v="920327" />
	</node>
	<node lat="61.83565000226516" lon="6.925124994767847" id="-81017">
		<tag k="alt_name" v="Nesbønen" />
		<tag k="name" v="Nesbøen" />
		<tag k="place" v="locality" />
		<tag k="ssr:stedsnr" v="920329" />
	</node>
	<node lat="61.921415323161646" lon="7.144306834885319" id="-81029">
		<tag k="fixme" v="consider place=hamlet" />
		<tag k="name" v="Bolstad" />
		<tag k="place" v="farm" />
		<tag k="ssr:stedsnr" v="920481" />
	</node>
	<node lat="61.91888814538235" lon="6.5531357319378465" id="-81035">
		<tag k="fixme" v="consider place=hamlet" />
		<tag k="name" v="Haugen" />
		<tag k="place" v="farm" />
		<tag k="ssr:stedsnr" v="920955" />
	</node>
	<node lat="61.92039166831068" lon="6.4524916642610535" id="-81036">
		<tag k="name" v="Randasaga" />
		<tag k="place" v="locality" />
		<tag k="ssr:stedsnr" v="920973" />
	</node>
	<node lat="61.78888055766371" lon="6.500469437747528" id="-81077">
		<tag k="name" v="Karistova" />
		<tag k="place" v="isolated_dwelling" />
		<tag k="ssr:stedsnr" v="822893" />
	</node>
	<node lat="61.83759166670216" lon="6.417086116161639" id="-81079">
		<tag k="name" v="Heimli" />
		<tag k="place" v="farm" />
		<tag k="ssr:stedsnr" v="859103" />
	</node>
	<node lat="61.836162226301184" lon="6.585981295349695" id="-81080">
		<tag k="name" v="Geilane" />
		<tag k="place" v="locality" />
		<tag k="ssr:stedsnr" v="859108" />
	</node>
	<node lat="61.81440555191615" lon="6.5810305599959875" id="-81082">
		<tag k="name" v="Svartesvad" />
		<tag k="place" v="locality" />
		<tag k="ssr:stedsnr" v="859068" />
	</node>
	<node lat="61.80698419305055" lon="6.528210130646958" id="-81083">
		<tag k="fixme" v="consider place=hamlet" />
		<tag k="name" v="Hage" />
		<tag k="place" v="farm" />
		<tag k="ssr:stedsnr" v="859069" />
	</node>
	<node lat="61.67828553125509" lon="6.809394656746832" id="-81094">
		<tag k="fixme" v="consider place=hamlet" />
		<tag k="name" v="Melkevoll" />
		<tag k="place" v="farm" />
		<tag k="ssr:stedsnr" v="859909" />
	</node>
	<node lat="61.72267062713147" lon="6.793148979256063" id="-81099">
		<tag k="name" v="Yri" />
		<tag k="place" v="hamlet" />
		<tag k="ssr:stedsnr" v="859884" />
	</node>
	<node lat="61.84516666341177" lon="6.461133342834093" id="-81106">
		<tag k="name" v="Bergli" />
		<tag k="place" v="farm" />
		<tag k="ssr:stedsnr" v="860111" />
	</node>
	<node lat="61.84181388558436" lon="6.942569437047344" id="-81109">
		<tag k="historic" v="shieling" />
		<tag k="name" v="Breng" />
		<tag k="place" v="isolated_dwelling" />
		<tag k="ssr:stedsnr" v="860403" />
	</node>
	<node lat="61.83633055722633" lon="6.673675005494716" id="-81110">
		<tag k="name" v="Hestehytta" />
		<tag k="place" v="isolated_dwelling" />
		<tag k="ssr:stedsnr" v="860405" />
	</node>
	<node lat="61.93042491884072" lon="6.923257269410537" id="-81111">
		<tag k="fixme" v="consider place=hamlet" />
		<tag k="name" v="Meland" />
		<tag k="place" v="farm" />
		<tag k="ssr:stedsnr" v="860370" />
	</node>
	<node lat="61.91048054863096" lon="7.0424053433588085" id="-81114">
		<tag k="fixme" v="consider place=hamlet" />
		<tag k="name" v="Sandvik" />
		<tag k="place" v="farm" />
		<tag k="ssr:stedsnr" v="860524" />
	</node>
	<node lat="61.756536114137695" lon="6.824266667517881" id="-81116">
		<tag k="name" v="Sandbrekka" />
		<tag k="place" v="farm" />
		<tag k="ssr:stedsnr" v="860480" />
	</node>
	<node lat="61.69361168454658" lon="6.81537938028916" id="-81176">
		<tag k="fixme" v="consider place=hamlet" />
		<tag k="name" v="Åberg" />
		<tag k="place" v="farm" />
		<tag k="ssr:stedsnr" v="919915" />
	</node>
	<node lat="61.863577775211404" lon="6.5246555593304745" id="-81181">
		<tag k="name" v="Nytun" />
		<tag k="place" v="farm" />
		<tag k="ssr:stedsnr" v="920020" />
	</node>
	<node lat="61.94119722289119" lon="6.826366667954125" id="-81184">
		<tag k="alt_name" v="Skårsetra;Kopasetra" />
		<tag k="historic" v="shieling" />
		<tag k="name" v="Kopasætra" />
		<tag k="place" v="isolated_dwelling" />
		<tag k="ssr:stedsnr" v="920192" />
	</node>
	<node lat="61.86621776479873" lon="6.7234537954033815" id="-81188">
		<tag k="name" v="Agjeld" />
		<tag k="place" v="farm" />
		<tag k="ssr:stedsnr" v="920338" />
	</node>
	<node lat="61.86900061977264" lon="6.701242592022845" id="-81189">
		<tag k="fixme" v="consider place=hamlet" />
		<tag k="name" v="Agjeld" />
		<tag k="place" v="farm" />
		<tag k="ssr:stedsnr" v="920339" />
	</node>
	<node lat="61.85595456944936" lon="6.772424714930931" id="-81190">
		<tag k="fixme" v="consider place=hamlet" />
		<tag k="name" v="Heggestad" />
		<tag k="place" v="farm" />
		<tag k="ssr:stedsnr" v="920340" />
	</node>
	<node lat="61.93299156192969" lon="6.5694890486677595" id="-81204">
		<tag k="fixme" v="consider place=hamlet" />
		<tag k="name" v="Maurset" />
		<tag k="place" v="farm" />
		<tag k="ssr:stedsnr" v="920910" />
	</node>
	<node lat="61.921494441037765" lon="6.917861115044688" id="-81213">
		<tag k="historic" v="shieling" />
		<tag k="name" v="Dispasetra" />
		<tag k="place" v="isolated_dwelling" />
		<tag k="ssr:stedsnr" v="944385" />
	</node>
	<node lat="61.89710679671036" lon="6.707584922189807" id="-81320">
		<tag k="fixme" v="consider place=hamlet" />
		<tag k="name" v="Visnes" />
		<tag k="place" v="farm" />
		<tag k="ssr:stedsnr" v="977948" />
	</node>
	<node lat="61.93185932549092" lon="6.573593644491605" id="-81321">
		<tag k="fixme" v="consider place=hamlet" />
		<tag k="name" v="Maurset" />
		<tag k="place" v="farm" />
		<tag k="ssr:stedsnr" v="977953" />
	</node>
	<node lat="61.87280858605168" lon="6.858017940067421" id="-81322">
		<tag k="fixme" v="consider place=hamlet" />
		<tag k="name" v="Loen" />
		<tag k="place" v="farm" />
		<tag k="ssr:stedsnr" v="977960" />
	</node>
	<node lat="61.88817699253833" lon="6.609332591724859" id="-81323">
		<tag k="fixme" v="consider place=hamlet" />
		<tag k="name" v="Faleide" />
		<tag k="place" v="farm" />
		<tag k="ssr:stedsnr" v="978017" />
	</node>
	<node lat="61.8409884879329" lon="6.612680101649424" id="-81326">
		<tag k="name" v="Indrebø" />
		<tag k="place" v="locality" />
		<tag k="ssr:stedsnr" v="990830" />
	</node>
	<node lat="61.801150001645226" lon="6.827599999294962" id="-81333">
		<tag k="name" v="Eide" />
		<tag k="place" v="farm" />
		<tag k="ssr:stedsnr" v="10223" />
	</node>
	<node lat="61.87782839581309" lon="6.795356066452255" id="-81334">
		<tag k="fixme" v="consider place=hamlet" />
		<tag k="name" v="Oppheim" />
		<tag k="place" v="farm" />
		<tag k="ssr:stedsnr" v="10254" />
	</node>
	<node lat="61.91873481516354" lon="6.539176112366582" id="-81348">
		<tag k="fixme" v="consider place=hamlet" />
		<tag k="name" v="Flore" />
		<tag k="place" v="farm" />
		<tag k="ssr:stedsnr" v="10960" />
	</node>
	<node lat="61.882800390789804" lon="6.55070990416177" id="-81351">
		<tag k="name" v="Robjørgane" />
		<tag k="place" v="hamlet" />
		<tag k="ssr:stedsnr" v="10047" />
	</node>
	<node lat="61.87018055798147" lon="6.308994437957017" id="-81352">
		<tag k="name" v="Nykvia" />
		<tag k="place" v="locality" />
		<tag k="ssr:stedsnr" v="10055" />
	</node>
	<node lat="61.86513888846283" lon="6.385191675082509" id="-81354">
		<tag k="name" v="Langeskor" />
		<tag k="place" v="locality" />
		<tag k="ssr:stedsnr" v="10063" />
	</node>
	<node lat="61.87068338923275" lon="7.12832004626085" id="-81363">
		<tag k="fixme" v="consider place=hamlet" />
		<tag k="name" v="Greidung" />
		<tag k="place" v="farm" />
		<tag k="ssr:stedsnr" v="10455" />
	</node>
	<node lat="61.778300000575356" lon="7.0159416650715425" id="-81366">
		<tag k="name" v="Sanden" />
		<tag k="place" v="locality" />
		<tag k="ssr:stedsnr" v="10576" />
	</node>
	<node lat="61.760441666582" lon="6.826819439531059" id="-81397">
		<tag k="loc_name" v="Gjerdanausta" />
		<tag k="name" v="Gjerdenausta" />
		<tag k="place" v="locality" />
		<tag k="ssr:stedsnr" v="33096" />
	</node>
	<node lat="61.85948611205168" lon="6.53323056244318" id="-81473">
		<tag k="name" v="Steinset" />
		<tag k="place" v="farm" />
		<tag k="ssr:stedsnr" v="71018" />
	</node>
	<node lat="61.807396207540144" lon="6.538231861097809" id="-81477">
		<tag k="fixme" v="consider place=hamlet" />
		<tag k="name" v="Berge" />
		<tag k="place" v="farm" />
		<tag k="ssr:stedsnr" v="71079" />
	</node>
	<node lat="61.83665555499085" lon="6.430808341851784" id="-81479">
		<tag k="name" v="Hogstad" />
		<tag k="place" v="farm" />
		<tag k="ssr:stedsnr" v="71097" />
	</node>
	<node lat="61.83928889258896" lon="6.472524992911553" id="-81480">
		<tag k="name" v="Lundberg" />
		<tag k="place" v="farm" />
		<tag k="ssr:stedsnr" v="71110" />
	</node>
	<node lat="61.93502250103855" lon="6.844781089240841" id="-81481">
		<tag k="alt_name" v="Bakkeli;Bakkelia" />
		<tag k="fixme" v="consider place=hamlet" />
		<tag k="name" v="Bakkelid" />
		<tag k="place" v="farm" />
		<tag k="ssr:stedsnr" v="71224" />
	</node>
	<node lat="61.855621584087004" lon="6.906412706424509" id="-81484">
		<tag k="fixme" v="consider place=hamlet" />
		<tag k="name" v="Sande" />
		<tag k="place" v="farm" />
		<tag k="ssr:stedsnr" v="71241" />
	</node>
	<node lat="61.886783333168836" lon="6.727372214596539" id="-81487">
		<tag k="alt_name" v="Strandasetra" />
		<tag k="historic" v="shieling" />
		<tag k="name" v="Strandasætra" />
		<tag k="place" v="isolated_dwelling" />
		<tag k="ssr:stedsnr" v="71274" />
	</node>
	<node lat="61.92956996393388" lon="6.8340950651849965" id="-81490">
		<tag k="fixme" v="consider place=hamlet" />
		<tag k="name" v="Øvreeide" />
		<tag k="place" v="farm" />
		<tag k="ssr:stedsnr" v="71333" />
	</node>
	<node lat="61.84241111300174" lon="6.660499994615922" id="-81499">
		<tag k="historic" v="shieling" />
		<tag k="name" v="Remestøylen" />
		<tag k="place" v="isolated_dwelling" />
		<tag k="ssr:stedsnr" v="71386" />
	</node>
	<node lat="61.911152778691466" lon="6.567350005126304" id="-81501">
		<tag k="name" v="Bruheim" />
		<tag k="place" v="farm" />
		<tag k="ssr:stedsnr" v="71998" />
	</node>
	<node lat="61.87010833058482" lon="6.385636111557166" id="-81518">
		<tag k="historic" v="shieling" />
		<tag k="name" v="Tvinnereimstølen" />
		<tag k="place" v="isolated_dwelling" />
		<tag k="ssr:stedsnr" v="94299" />
	</node>
	<node lat="61.804677780617155" lon="6.5258305603957165" id="-81520">
		<tag k="name" v="Dalen" />
		<tag k="place" v="farm" />
		<tag k="ssr:stedsnr" v="94362" />
	</node>
	<node lat="61.857855555540425" lon="6.606108331164047" id="-81551">
		<tag k="name" v="Hilde" />
		<tag k="place" v="hamlet" />
		<tag k="ssr:stedsnr" v="94416" />
	</node>
	<node lat="61.85191388894725" lon="6.4924916579902785" id="-81587">
		<tag k="name" v="Brekkene" />
		<tag k="place" v="locality" />
		<tag k="ssr:stedsnr" v="131034" />
	</node>
	<node lat="61.86988055165043" lon="6.278183340862643" id="-81591">
		<tag k="historic" v="shieling" />
		<tag k="name" v="Holesætra" />
		<tag k="place" v="isolated_dwelling" />
		<tag k="ssr:stedsnr" v="131054" />
	</node>
	<node lat="61.81538611352937" lon="6.54174722575416" id="-81592">
		<tag k="name" v="Innlegda" />
		<tag k="place" v="farm" />
		<tag k="ssr:stedsnr" v="131066" />
	</node>
	<node lat="61.76028304333119" lon="6.81120977995932" id="-81601">
		<tag k="fixme" v="consider place=hamlet" />
		<tag k="name" v="Mindresunde" />
		<tag k="place" v="farm" />
		<tag k="ssr:stedsnr" v="131395" />
	</node>
	<node lat="61.88527222100929" lon="6.775591663551311" id="-81604">
		<tag k="alt_name" v="Rakesetra" />
		<tag k="historic" v="shieling" />
		<tag k="name" v="Raksætra" />
		<tag k="place" v="isolated_dwelling" />
		<tag k="ssr:stedsnr" v="131246" />
	</node>
	<node lat="61.827109467106666" lon="6.802642223281048" id="-81608">
		<tag k="fixme" v="consider place=hamlet" />
		<tag k="name" v="Bruvoll" />
		<tag k="place" v="farm" />
		<tag k="ssr:stedsnr" v="131328" />
	</node>
	<node lat="61.837949928182304" lon="6.596225614981155" id="-81609">
		<tag k="fixme" v="consider place=hamlet" />
		<tag k="name" v="Heggdal" />
		<tag k="old_name" v="Heggedal" />
		<tag k="place" v="farm" />
		<tag k="ssr:stedsnr" v="131340" />
	</node>
	<node lat="61.87151111375903" lon="6.845900001276778" id="-81611">
		<tag k="fixme" v="consider place=hamlet" />
		<tag k="name" v="Loen" />
		<tag k="place" v="village" />
		<tag k="ssr:stedsnr" v="131345" />
	</node>
	<node lat="61.93692222241677" lon="6.684747224938702" id="-81630">
		<tag k="historic" v="shieling" />
		<tag k="name" v="Gamlesetra" />
		<tag k="place" v="isolated_dwelling" />
		<tag k="ssr:stedsnr" v="154025" />
	</node>
	<node lat="61.86455846204651" lon="6.304271059897257" id="-81655">
		<tag k="alt_name" v="Bjerkeli" />
		<tag k="name" v="Bjørkelid" />
		<tag k="place" v="farm" />
		<tag k="ssr:stedsnr" v="154191" />
	</node>
	<node lat="61.87631111025865" lon="6.489513881066698" id="-81672">
		<tag k="historic" v="shieling" />
		<tag k="name" v="Smørdalstølen" />
		<tag k="place" v="isolated_dwelling" />
		<tag k="ssr:stedsnr" v="154377" />
	</node>
	<node lat="61.944033337012854" lon="7.035888893602056" id="-81692">
		<tag k="name" v="Oppigardsnausta" />
		<tag k="place" v="locality" />
		<tag k="ssr:stedsnr" v="154494" />
	</node>
	<node lat="61.8508194451248" lon="6.519766657955522" id="-81711">
		<tag k="name" v="Ekrene" />
		<tag k="place" v="farm" />
		<tag k="ssr:stedsnr" v="160052" />
	</node>
	<node lat="61.89057034407551" lon="6.638174867792007" id="-81721">
		<tag k="fixme" v="consider place=hamlet" />
		<tag k="name" v="Svarstad" />
		<tag k="place" v="farm" />
		<tag k="ssr:stedsnr" v="192297" />
	</node>
	<node lat="61.9087692239779" lon="6.728733508798574" id="-81725">
		<tag k="alt_name" v="Bø Indre;Bø Ytre" />
		<tag k="name" v="Bø" />
		<tag k="place" v="hamlet" />
		<tag k="ssr:stedsnr" v="192322" />
	</node>
	<node lat="61.68203465199302" lon="6.8058594943709565" id="-81728">
		<tag k="fixme" v="consider place=hamlet" />
		<tag k="name" v="Myklebust" />
		<tag k="place" v="farm" />
		<tag k="ssr:stedsnr" v="191890" />
	</node>
	<node lat="61.83763055462882" lon="6.4005888920448575" id="-81730">
		<tag k="name" v="Skora" />
		<tag k="place" v="farm" />
		<tag k="ssr:stedsnr" v="192104" />
	</node>
	<node lat="61.846066668532515" lon="6.521688882035438" id="-81731">
		<tag k="name" v="Svanheim" />
		<tag k="place" v="farm" />
		<tag k="ssr:stedsnr" v="192120" />
	</node>
	<node lat="61.835933329282824" lon="6.447911102756514" id="-81733">
		<tag k="name" v="Fjellvang" />
		<tag k="place" v="farm" />
		<tag k="ssr:stedsnr" v="192124" />
	</node>
	<node lat="61.87137329977215" lon="6.325492001877555" id="-81735">
		<tag k="fixme" v="consider place=hamlet" />
		<tag k="name" v="Rand" />
		<tag k="place" v="farm" />
		<tag k="ssr:stedsnr" v="192066" />
	</node>
	<node lat="61.87653415877655" lon="6.8063741104391555" id="-81747">
		<tag k="name" v="Hola" />
		<tag k="place" v="farm" />
		<tag k="ssr:stedsnr" v="192282" />
	</node>
	<node lat="61.80109817373873" lon="6.81962588246029" id="-81751">
		<tag k="fixme" v="consider place=hamlet" />
		<tag k="name" v="Eide" />
		<tag k="place" v="farm" />
		<tag k="ssr:stedsnr" v="192352" />
	</node>
	<node lat="61.823569447575984" lon="6.648527772880841" id="-81753">
		<tag k="historic" v="shieling" />
		<tag k="name" v="Prestestøylen" />
		<tag k="place" v="isolated_dwelling" />
		<tag k="ssr:stedsnr" v="192367" />
	</node>
	<node lat="61.830777777498476" lon="6.831755552885268" id="-81754">
		<tag k="historic" v="shieling" />
		<tag k="name" v="Murisætra" />
		<tag k="place" v="isolated_dwelling" />
		<tag k="ssr:stedsnr" v="192371" />
	</node>
	<node lat="61.8458797372701" lon="6.62852698585461" id="-81755">
		<tag k="fixme" v="consider place=hamlet" />
		<tag k="name" v="Langvin" />
		<tag k="place" v="farm" />
		<tag k="ssr:stedsnr" v="192375" />
	</node>
	<node lat="61.84424698302221" lon="6.638215799029289" id="-81756">
		<tag k="fixme" v="consider place=hamlet" />
		<tag k="name" v="Reme" />
		<tag k="place" v="farm" />
		<tag k="ssr:stedsnr" v="192376" />
	</node>
	<node lat="61.91903055304363" lon="7.153544452063541" id="-81773">
		<tag k="alt_name" v="Grovaøyane" />
		<tag k="name" v="Grovøyane" />
		<tag k="place" v="farm" />
		<tag k="ssr:stedsnr" v="192514" />
	</node>
	<node lat="61.81827222102484" lon="6.3726722297481615" id="-81792">
		<tag k="name" v="Skogly" />
		<tag k="place" v="farm" />
		<tag k="ssr:stedsnr" v="215158" />
	</node>
	<node lat="61.68639444506547" lon="6.8159555609650555" id="-81853">
		<tag k="name" v="Tungøy" />
		<tag k="place" v="farm" />
		<tag k="ssr:stedsnr" v="276147" />
	</node>
	<node lat="61.749708334124335" lon="6.82989999938809" id="-81858">
		<tag k="historic" v="shieling" />
		<tag k="name" v="Sundssetra" />
		<tag k="place" v="isolated_dwelling" />
		<tag k="ssr:stedsnr" v="276099" />
	</node>
	<node lat="61.9216694470019" lon="6.567811116493586" id="-81933">
		<tag k="name" v="Hatledal" />
		<tag k="place" v="farm" />
		<tag k="ssr:stedsnr" v="314263" />
	</node>
	<node lat="61.88003968352168" lon="6.747492020791055" id="-81935">
		<tag k="alt_name" v="Stranda" />
		<tag k="fixme" v="consider place=hamlet" />
		<tag k="name" v="Strand" />
		<tag k="place" v="farm" />
		<tag k="ssr:stedsnr" v="314286" />
	</node>
	<node lat="61.88193333176128" lon="6.879755560859655" id="-81936">
		<tag k="historic" v="shieling" />
		<tag k="name" v="Lohøgesætra" />
		<tag k="place" v="isolated_dwelling" />
		<tag k="ssr:stedsnr" v="314288" />
	</node>
	<node lat="61.93698288837993" lon="6.87613708248548" id="-81940">
		<tag k="fixme" v="consider place=hamlet" />
		<tag k="name" v="Storesunde" />
		<tag k="place" v="farm" />
		<tag k="ssr:stedsnr" v="313298" />
	</node>
	<node lat="61.92561186701398" lon="6.540857233140062" id="-81953">
		<tag k="fixme" v="consider place=hamlet" />
		<tag k="name" v="Sindre" />
		<tag k="place" v="farm" />
		<tag k="ssr:stedsnr" v="313962" />
	</node>
	<node lat="61.77944166235647" lon="7.010413891268903" id="-81962">
		<tag k="amenity" v="cafe" />
		<tag k="name" v="Kjenndalsbre fjellstove" />
		<tag k="ssr:stedsnr" v="331986" />
	</node>
	<node lat="61.77818055417276" lon="7.0157555645404175" id="-81976">
		<tag k="historic" v="shieling" />
		<tag k="name" v="Dalefjøsane" />
		<tag k="place" v="isolated_dwelling" />
		<tag k="ssr:stedsnr" v="336195" />
	</node>
	<node lat="61.952597221934894" lon="6.977619440818552" id="-81992">
		<tag k="historic" v="shieling" />
		<tag k="name" v="Vikasetra" />
		<tag k="place" v="isolated_dwelling" />
		<tag k="ssr:stedsnr" v="336284" />
	</node>
	<node lat="61.86127500196282" lon="6.5344194534576365" id="-81994">
		<tag k="name" v="Blaksetnausta" />
		<tag k="place" v="locality" />
		<tag k="ssr:stedsnr" v="336290" />
	</node>
	<node lat="61.83656479042816" lon="6.807724212971665" id="-82019">
		<tag k="name" v="Flinta" />
		<tag k="place" v="locality" />
		<tag k="ssr:stedsnr" v="342848" />
	</node>
	<node lat="61.83765650398636" lon="6.503718879553295" id="-82029">
		<tag k="fixme" v="consider place=hamlet" />
		<tag k="name" v="Ulvedal" />
		<tag k="place" v="farm" />
		<tag k="ssr:stedsnr" v="373101" />
	</node>
	<node lat="61.85194628967646" lon="6.518975181662468" id="-82041">
		<tag k="fixme" v="consider place=hamlet" />
		<tag k="name" v="Roset" />
		<tag k="place" v="farm" />
		<tag k="ssr:stedsnr" v="374036" />
	</node>
	<node lat="61.842124041841515" lon="6.4687967760630585" id="-82042">
		<tag k="fixme" v="consider place=hamlet" />
		<tag k="name" v="Bergset" />
		<tag k="place" v="farm" />
		<tag k="ssr:stedsnr" v="374119" />
	</node>
	<node lat="61.82550278192526" lon="6.675502769115129" id="-82046">
		<tag k="alt_name" v="Skådistølen" />
		<tag k="historic" v="shieling" />
		<tag k="name" v="Skådistøylen" />
		<tag k="place" v="isolated_dwelling" />
		<tag k="ssr:stedsnr" v="374360" />
	</node>
	<node lat="61.788972226704615" lon="6.501002782764558" id="-82048">
		<tag k="name" v="Karistova" />
		<tag k="ssr:stedsnr" v="374182" />
		<tag k="tourism" v="hotel" />
	</node>
	<node lat="61.86484531953714" lon="6.3309229648803536" id="-82051">
		<tag k="fixme" v="consider place=hamlet" />
		<tag k="name" v="Skrede" />
		<tag k="place" v="farm" />
		<tag k="ssr:stedsnr" v="374069" />
	</node>
	<node lat="61.89615000448917" lon="7.108811108838703" id="-82060">
		<tag k="name" v="Sandbu" />
		<tag k="place" v="farm" />
		<tag k="ssr:stedsnr" v="374474" />
	</node>
	<node lat="61.9366722207458" lon="6.645591658477568" id="-82068">
		<tag k="alt_name" v="Holesetra" />
		<tag k="historic" v="shieling" />
		<tag k="name" v="Holesætra" />
		<tag k="place" v="isolated_dwelling" />
		<tag k="ssr:stedsnr" v="495218" />
	</node>
	<node lat="61.663030556539326" lon="6.822358339349325" id="-82074">
		<tag k="fixme" v="consider tourism=alpine_hut or tourism=chalet" />
		<tag k="name" v="Briksdalsbre Fjellstove" />
		<tag k="old_name" v="Brigsdal" />
		<tag k="ssr:stedsnr" v="388174" />
		<tag k="tourism" v="wilderness_hut" />
	</node>
	<node lat="61.946941670085" lon="7.3513888907037455" id="-82078">
		<tag k="alt_name" v="Stryn sommarskisenter" />
		<tag k="landuse" v="winter_sports" />
		<tag k="name" v="Strynefjellet Sommarski" />
		<tag k="piste:type" v="downhill" />
		<tag k="ssr:stedsnr" v="389460" />
	</node>
	<node lat="61.845099998279046" lon="6.462372228466079" id="-82079">
		<tag k="name" v="Heiberg" />
		<tag k="place" v="farm" />
		<tag k="ssr:stedsnr" v="495128" />
	</node>
	<node lat="61.93064444017617" lon="6.679822228109878" id="-82089">
		<tag k="name" v="Fellesfjøsen" />
		<tag k="place" v="locality" />
		<tag k="ssr:stedsnr" v="397024" />
	</node>
	<node lat="61.93734722557316" lon="6.6755777864370645" id="-82090">
		<tag k="historic" v="shieling" />
		<tag k="name" v="Karisetra" />
		<tag k="place" v="isolated_dwelling" />
		<tag k="ssr:stedsnr" v="397025" />
	</node>
	<node lat="61.907408329425856" lon="6.815786105303618" id="-82113">
		<tag k="name" v="Kviesetra" />
		<tag k="place" v="farm" />
		<tag k="ssr:stedsnr" v="397163" />
	</node>
	<node lat="61.83556944482871" lon="6.432816673364488" id="-82151">
		<tag k="name" v="Fjelli" />
		<tag k="place" v="farm" />
		<tag k="ssr:stedsnr" v="434100" />
	</node>
	<node lat="61.800414891725126" lon="7.010116933235998" id="-82155">
		<tag k="fixme" v="consider place=hamlet" />
		<tag k="name" v="Bødal" />
		<tag k="place" v="farm" />
		<tag k="ssr:stedsnr" v="434395" />
	</node>
	<node lat="61.94762364090953" lon="6.934377926382957" id="-82158">
		<tag k="alt_name" v="Solli" />
		<tag k="fixme" v="consider place=hamlet" />
		<tag k="name" v="Sollida" />
		<tag k="place" v="farm" />
		<tag k="ssr:stedsnr" v="435245" />
	</node>
	<node lat="61.87417915424394" lon="6.320592901703292" id="-82167">
		<tag k="fixme" v="consider place=hamlet" />
		<tag k="name" v="Åland" />
		<tag k="place" v="farm" />
		<tag k="ssr:stedsnr" v="435056" />
	</node>
	<node lat="61.87918611364316" lon="7.117902783695294" id="-82180">
		<tag k="name" v="Nytun" />
		<tag k="place" v="farm" />
		<tag k="ssr:stedsnr" v="435499" />
	</node>
	<node lat="61.93420277384151" lon="6.841902774294913" id="-82185">
		<tag k="alt_name" v="Garli" />
		<tag k="name" v="Garlid" />
		<tag k="place" v="farm" />
		<tag k="ssr:stedsnr" v="495306" />
	</node>
	<node lat="61.914341666043285" lon="6.564391661809207" id="-82198">
		<tag k="name" v="Kroken" />
		<tag k="place" v="farm" />
		<tag k="ssr:stedsnr" v="495947" />
	</node>
	<node lat="61.809244444558146" lon="7.085230556452676" id="-82201">
		<tag k="alt_name" v="Bødalseter" />
		<tag k="name" v="Bødalsseter" />
		<tag k="place" v="isolated_dwelling" />
		<tag k="ssr:stedsnr" v="511084" />
	</node>
	<node lat="61.71098782087421" lon="6.815852512466308" id="-82208">
		<tag k="name" v="For" />
		<tag k="place" v="locality" />
		<tag k="ssr:stedsnr" v="518109" />
	</node>
	<node lat="61.66166944434125" lon="6.844072227478242" id="-82211">
		<tag k="historic" v="shieling" />
		<tag k="name" v="Briksdalssetra" />
		<tag k="place" v="isolated_dwelling" />
		<tag k="ssr:stedsnr" v="518123" />
	</node>
	<node lat="61.84413888900079" lon="6.901444446847094" id="-82219">
		<tag k="name" v="Vikane" />
		<tag k="place" v="farm" />
		<tag k="ssr:stedsnr" v="518162" />
	</node>
	<node lat="61.9078861074346" lon="6.684191661011631" id="-82263">
		<tag k="historic" v="shieling" />
		<tag k="name" v="Ryggen" />
		<tag k="place" v="isolated_dwelling" />
		<tag k="ssr:stedsnr" v="518440" />
	</node>
	<node lat="61.85425296155601" lon="7.16082912931956" id="-82277">
		<tag k="alt_name" v="Erdalssetra" />
		<tag k="historic" v="shieling" />
		<tag k="name" v="Storesætra" />
		<tag k="place" v="isolated_dwelling" />
		<tag k="ssr:stedsnr" v="555393" />
	</node>
	<node lat="61.94036944646115" lon="6.88746389567069" id="-82282">
		<tag k="name" v="Vonheim" />
		<tag k="place" v="farm" />
		<tag k="ssr:stedsnr" v="555240" />
	</node>
	<node lat="61.932963890260154" lon="7.104175005543978" id="-82286">
		<tag k="alt_name" v="Glomnessetra" />
		<tag k="historic" v="shieling" />
		<tag k="name" v="Glomnessætra" />
		<tag k="place" v="isolated_dwelling" />
		<tag k="ssr:stedsnr" v="555321" />
	</node>
	<node lat="61.927941969467575" lon="7.00364673619192" id="-82290">
		<tag k="fixme" v="consider place=hamlet" />
		<tag k="name" v="Brekke" />
		<tag k="place" v="farm" />
		<tag k="ssr:stedsnr" v="555444" />
	</node>
	<node lat="61.75658379488883" lon="6.817862809402616" id="-82298">
		<tag k="fixme" v="consider place=hamlet" />
		<tag k="name" v="Sunde" />
		<tag k="place" v="farm" />
		<tag k="ssr:stedsnr" v="556458" />
	</node>
	<node lat="61.766141392654774" lon="6.835689347808054" id="-82299">
		<tag k="fixme" v="consider place=hamlet" />
		<tag k="name" v="Strand" />
		<tag k="place" v="farm" />
		<tag k="ssr:stedsnr" v="556471" />
	</node>
	<node lat="61.896880558967815" lon="6.634122215265151" id="-82361">
		<tag k="historic" v="shieling" />
		<tag k="name" v="Gamlesetra" />
		<tag k="place" v="isolated_dwelling" />
		<tag k="ssr:stedsnr" v="579427" />
	</node>
	<node lat="61.739419443441335" lon="6.787916665536398" id="-82380">
		<tag k="name" v="Gytri" />
		<tag k="place" v="farm" />
		<tag k="ssr:stedsnr" v="615876" />
	</node>
	<node lat="61.80317183169273" lon="6.534687574868854" id="-82385">
		<tag k="fixme" v="consider place=hamlet" />
		<tag k="name" v="Myklebust" />
		<tag k="place" v="farm" />
		<tag k="ssr:stedsnr" v="616074" />
	</node>
	<node lat="61.860722220190745" lon="6.890861106320206" id="-82391">
		<tag k="name" v="Sande" />
		<tag k="place" v="farm" />
		<tag k="ssr:stedsnr" v="616332" />
	</node>
	<node lat="61.92042763809432" lon="7.0236789674574185" id="-82404">
		<tag k="fixme" v="consider place=hamlet" />
		<tag k="name" v="Nesje" />
		<tag k="place" v="farm" />
		<tag k="ssr:stedsnr" v="616486" />
	</node>
	<node lat="61.94776111204476" lon="7.029000009453406" id="-82414">
		<tag k="fixme" v="consider place=hamlet" />
		<tag k="name" v="Nedre Flo" />
		<tag k="place" v="farm" />
		<tag k="ssr:stedsnr" v="639193" />
	</node>
	<node lat="61.77541111452369" lon="6.968952774262064" id="-82429">
		<tag k="historic" v="shieling" />
		<tag k="name" v="Utigardsetra" />
		<tag k="place" v="isolated_dwelling" />
		<tag k="ssr:stedsnr" v="639241" />
	</node>
	<node lat="61.847941664335046" lon="6.762622220708899" id="-82454">
		<tag k="historic" v="shieling" />
		<tag k="name" v="Øvstesetra" />
		<tag k="place" v="isolated_dwelling" />
		<tag k="ssr:stedsnr" v="639498" />
	</node>
	<node lat="61.88878313572212" lon="6.5603318296723625" id="-82478">
		<tag k="fixme" v="consider place=hamlet" />
		<tag k="name" v="Haugen" />
		<tag k="place" v="farm" />
		<tag k="ssr:stedsnr" v="738033" />
	</node>
	<node lat="61.824482758301855" lon="6.9780690063521185" id="-82481">
		<tag k="fixme" v="consider place=hamlet" />
		<tag k="name" v="Hogrenning" />
		<tag k="old_name" v="Høgrenning" />
		<tag k="place" v="farm" />
		<tag k="ssr:stedsnr" v="738440" />
	</node>
	<node lat="61.87206876231141" lon="6.627354450100104" id="-82483">
		<tag k="fixme" v="consider place=hamlet" />
		<tag k="name" v="Frøholm" />
		<tag k="old_name" v="Freholme" />
		<tag k="place" v="farm" />
		<tag k="ssr:stedsnr" v="738267" />
	</node>
	<node lat="61.90088593893462" lon="6.612029175194195" id="-82486">
		<tag k="fixme" v="consider place=hamlet" />
		<tag k="name" v="Langeset" />
		<tag k="place" v="farm" />
		<tag k="ssr:stedsnr" v="738276" />
	</node>
	<node lat="61.9289277818211" lon="6.5746472230230815" id="-82494">
		<tag k="name" v="Arnehaugen" />
		<tag k="place" v="farm" />
		<tag k="ssr:stedsnr" v="738970" />
	</node>
	<node lat="61.85253333130769" lon="6.8151944430899905" id="-82519">
		<tag k="name" v="Avleinausta" />
		<tag k="place" v="locality" />
		<tag k="ssr:stedsnr" v="761175" />
	</node>
	<node lat="61.853619447395424" lon="6.457050001854297" id="-82538">
		<tag k="historic" v="shieling" />
		<tag k="name" v="Gamlestølen" />
		<tag k="place" v="isolated_dwelling" />
		<tag k="ssr:stedsnr" v="761323" />
	</node>
	<node lat="61.91175555688586" lon="7.183147229279604" id="-82544">
		<tag k="name" v="Åsefjøsane" />
		<tag k="place" v="locality" />
		<tag k="ssr:stedsnr" v="761450" />
	</node>
	<node lat="61.936452773485804" lon="6.602466667914881" id="-82554">
		<tag k="historic" v="shieling" />
		<tag k="name" v="Gamlesetra" />
		<tag k="place" v="isolated_dwelling" />
		<tag k="ssr:stedsnr" v="761525" />
	</node>
	<node lat="61.86815000437522" lon="6.3919333260835165" id="-82580">
		<tag k="alt_name" v="Øvsteladene" />
		<tag k="name" v="Øvsteløene" />
		<tag k="place" v="locality" />
		<tag k="ssr:stedsnr" v="799050" />
	</node>
	<node lat="61.83900523490893" lon="6.638116881495694" id="-82586">
		<tag k="fixme" v="consider place=hamlet" />
		<tag k="name" v="Drageset" />
		<tag k="place" v="farm" />
		<tag k="ssr:stedsnr" v="799363" />
	</node>
	<node lat="61.91662912988226" lon="6.5903953875925145" id="-82590">
		<tag k="fixme" v="consider place=hamlet" />
		<tag k="name" v="Dale" />
		<tag k="place" v="farm" />
		<tag k="ssr:stedsnr" v="799949" />
	</node>
	<node lat="61.935719443611156" lon="6.961122225035574" id="-82598">
		<tag k="name" v="Holmevik" />
		<tag k="place" v="farm" />
		<tag k="ssr:stedsnr" v="822394" />
	</node>
	<node lat="61.874487731961395" lon="6.781579841061063" id="-82628">
		<tag k="fixme" v="consider place=hamlet" />
		<tag k="name" v="Marså" />
		<tag k="place" v="farm" />
		<tag k="ssr:stedsnr" v="822195" />
	</node>
	<node lat="61.83626279430521" lon="6.461295357793136" id="-82686">
		<tag k="fixme" v="consider place=hamlet" />
		<tag k="name" v="Sølvberg" />
		<tag k="place" v="farm" />
		<tag k="ssr:stedsnr" v="859097" />
	</node>
	<node lat="61.87532409489293" lon="6.798438721751102" id="-82689">
		<tag k="name" v="Åheim" />
		<tag k="place" v="farm" />
		<tag k="ssr:stedsnr" v="859242" />
	</node>
	<node lat="61.945769448051294" lon="6.940361109036409" id="-82704">
		<tag k="name" v="Veslebygda" />
		<tag k="place" v="hamlet" />
		<tag k="ssr:stedsnr" v="860244" />
	</node>
	<node lat="61.89042732850058" lon="6.677469404405728" id="-82707">
		<tag k="name" v="Bergsida" />
		<tag k="place" v="hamlet" />
		<tag k="ssr:stedsnr" v="860328" />
	</node>
	<node lat="61.907822219612726" lon="6.697400004631383" id="-82712">
		<tag k="name" v="Hol" />
		<tag k="place" v="farm" />
		<tag k="ssr:stedsnr" v="860354" />
	</node>
	<node lat="61.8533087188051" lon="6.908938409643665" id="-82713">
		<tag k="name" v="Sande" />
		<tag k="place" v="farm" />
		<tag k="ssr:stedsnr" v="860422" />
	</node>
	<node lat="61.929974788740566" lon="6.910441833181169" id="-82715">
		<tag k="fixme" v="consider place=hamlet" />
		<tag k="name" v="Dispen" />
		<tag k="place" v="farm" />
		<tag k="ssr:stedsnr" v="860372" />
	</node>
	<node lat="61.86354166299136" lon="6.315061110632335" id="-82740">
		<tag k="name" v="Hoplandsnausta" />
		<tag k="place" v="locality" />
		<tag k="ssr:stedsnr" v="883178" />
	</node>
	<node lat="61.91663055450694" lon="7.010180549273043" id="-82755">
		<tag k="historic" v="shieling" />
		<tag k="name" v="Setra" />
		<tag k="place" v="isolated_dwelling" />
		<tag k="ssr:stedsnr" v="883332" />
	</node>
	<node lat="61.86334166241831" lon="6.338538881163884" id="-82764">
		<tag k="name" v="Gamlegarden" />
		<tag k="place" v="farm" />
		<tag k="ssr:stedsnr" v="883264" />
	</node>
	<node lat="61.78083610981552" lon="6.974725002351997" id="-82808">
		<tag k="historic" v="shieling" />
		<tag k="name" v="Bakkesetra" />
		<tag k="place" v="isolated_dwelling" />
		<tag k="ssr:stedsnr" v="943235" />
	</node>
	<node lat="61.79491944760864" lon="6.566319438567987" id="-82822">
		<tag k="historic" v="shieling" />
		<tag k="name" v="Gjøljestølen" />
		<tag k="place" v="isolated_dwelling" />
		<tag k="ssr:stedsnr" v="943362" />
	</node>
	<node lat="61.95896667040133" lon="6.929547213493787" id="-82885">
		<tag k="historic" v="shieling" />
		<tag k="name" v="Vikasetra" />
		<tag k="place" v="isolated_dwelling" />
		<tag k="ssr:stedsnr" v="944268" />
	</node>
	<node lat="61.78633222888574" lon="6.98258653024166" id="-82896">
		<tag k="fixme" v="consider place=hamlet" />
		<tag k="name" v="Ytre Nesdal" />
		<tag k="place" v="farm" />
		<tag k="ssr:stedsnr" v="972226" />
	</node>
	<node lat="61.78546757505397" lon="6.988398100976008" id="-82897">
		<tag k="fixme" v="consider place=hamlet" />
		<tag k="name" v="Indre Nesdal" />
		<tag k="place" v="farm" />
		<tag k="ssr:stedsnr" v="972227" />
	</node>
	<node lat="61.94094858809934" lon="6.940497630594497" id="-82906">
		<tag k="name" v="Nestun" />
		<tag k="place" v="farm" />
		<tag k="ssr:stedsnr" v="975244" />
	</node>
	<node lat="61.911561785835666" lon="7.118837722547452" id="-82913">
		<tag k="fixme" v="consider place=hamlet" />
		<tag k="name" v="Hjelle" />
		<tag k="place" v="farm" />
		<tag k="ssr:stedsnr" v="977943" />
	</node>
	<node lat="61.917175794365306" lon="7.134845984114411" id="-82914">
		<tag k="fixme" v="consider place=hamlet" />
		<tag k="name" v="Einebakken" />
		<tag k="place" v="farm" />
		<tag k="ssr:stedsnr" v="977941" />
	</node>
	<node lat="61.86680759443188" lon="6.315381244655338" id="-82915">
		<tag k="fixme" v="consider place=hamlet" />
		<tag k="name" v="Hopland" />
		<tag k="place" v="farm" />
		<tag k="ssr:stedsnr" v="978024" />
	</node>
	<node lat="61.8681399056655" lon="6.965658539035041" id="-82930">
		<tag k="fixme" v="consider tourism=alpine_hut or tourism=chalet" />
		<tag k="name" v="Skålabu" />
		<tag k="ssr:stedsnr" v="987020" />
		<tag k="tourism" v="wilderness_hut" />
	</node>
	<node lat="61.82681468970834" lon="7.209816533834788" id="-82932">
		<tag k="fixme" v="consider tourism=alpine_hut or tourism=chalet" />
		<tag k="name" v="Infimus" />
		<tag k="ssr:stedsnr" v="986948" />
		<tag k="tourism" v="wilderness_hut" />
	</node>
	<node lat="61.922083800046785" lon="6.6912245909178445" id="-83043">
		<tag k="aerialway" v="drag_lift" />
		<tag k="fixme" v="consider the other aerialway types" />
		<tag k="name" v="Stryn Vinterski" />
		<tag k="ssr:stedsnr" v="1071914" />
	</node>
	<node lat="61.90811305145609" lon="7.05262068198284" id="-83054">
		<tag k="loc_name" v="Espholen;Ospholen" />
		<tag k="name" v="Aspholen" />
		<tag k="place" v="farm" />
		<tag k="ssr:stedsnr" v="1079996" />
	</node>
	<node lat="61.89001077087144" lon="6.683901361571615" id="-83068">
		<tag k="name" v="Lindset" />
		<tag k="place" v="quarter" />
		<tag k="ssr:stedsnr" v="1083294" />
	</node>
</osm>
