<?xml version="1.0" encoding="UTF-8"?>
<osm generator="osmapis" version="0.6">
	<node id="-690172" lat="61.8506249977" lon="6.45056388216">
		<tag k="name" v="Svartediket" />
		<tag k="natural" v="wetland" />
		<tag k="ssr:stedsnr" v="215329" />
	</node>
	<node id="-689659" lat="61.8431361077" lon="6.43051944045">
		<tag k="name" v="Skarsmyra" />
		<tag k="natural" v="wetland" />
		<tag k="ssr:stedsnr" v="33324" />
	</node>
	<node id="-690169" lat="61.8553944469" lon="6.47839166434">
		<tag k="name" v="Gamlestølsmyra" />
		<tag k="natural" v="wetland" />
		<tag k="ssr:stedsnr" v="215321" />
	</node>
	<node id="-690166" lat="61.8468277735" lon="6.49973611268">
		<tag k="name" v="Breimyr" />
		<tag k="natural" v="wetland" />
		<tag k="ssr:stedsnr" v="215311" />
	</node>
	<node id="-689141" lat="61.6924805587" lon="6.79898334158">
		<tag k="name" v="Kvitura" />
		<tag k="natural" v="scree" />
		<tag k="ssr:stedsnr" v="701008" />
	</node>
	<node id="-689652" lat="61.8497611112" lon="6.50078889613">
		<tag k="name" v="Farmyr" />
		<tag k="natural" v="wetland" />
		<tag k="ssr:stedsnr" v="33295" />
	</node>
	<node id="-688114" lat="61.8721805563" lon="7.20033888034">
		<tag k="name" v="Skipedalsfonna" />
		<tag k="natural" v="glacier" />
		<tag k="ssr:stedsnr" v="10449" />
	</node>
	<node id="-688111" lat="61.7778749991" lon="6.89873889821">
		<tag k="name" v="Vesledalsbreen" />
		<tag k="natural" v="glacier" />
		<tag k="ssr:stedsnr" v="10420" />
	</node>
	<node id="-690669" lat="61.998166665" lon="7.18203056095">
		<tag k="name" v="Nautbreen" />
		<tag k="natural" v="glacier" />
		<tag k="ssr:stedsnr" v="616400" />
	</node>
	<node id="-688620" lat="61.7668833351" lon="6.76128610446">
		<tag k="name" v="Krokebreen" />
		<tag k="natural" v="glacier" />
		<tag k="ssr:stedsnr" v="495422" />
	</node>
	<node id="-688722" lat="61.8454916632" lon="6.50579445399">
		<tag k="name" v="Skarsmyra" />
		<tag k="natural" v="wetland" />
		<tag k="ssr:stedsnr" v="518254" />
	</node>
	<node id="-689127" lat="61.8575166693" lon="6.7742999907">
		<tag k="name" v="Heggestadura" />
		<tag k="natural" v="scree" />
		<tag k="ssr:stedsnr" v="700460" />
	</node>
	<node id="-689233" lat="61.7982250012" lon="7.20754999124">
		<tag k="name" v="Strupebreen" />
		<tag k="natural" v="glacier" />
		<tag k="ssr:stedsnr" v="920562" />
	</node>
	<node id="-689124" lat="61.9827444444" lon="7.06171944632">
		<tag k="name" v="Ausbreen" />
		<tag k="natural" v="glacier" />
		<tag k="ssr:stedsnr" v="700404" />
	</node>
	<node id="-689121" lat="61.9275916642" lon="6.56699999925">
		<tag k="name" v="Storemyra" />
		<tag k="natural" v="wetland" />
		<tag k="ssr:stedsnr" v="700517" />
	</node>
	<node id="-689119" lat="61.8301472256" lon="6.62818333388">
		<tag k="name" v="Bergemyra" />
		<tag k="natural" v="wetland" />
		<tag k="ssr:stedsnr" v="700374" />
	</node>
	<node id="-689118" lat="61.8125027785" lon="6.55343332503">
		<tag k="name" v="Myrane" />
		<tag k="natural" v="wetland" />
		<tag k="ssr:stedsnr" v="700370" />
	</node>
	<node id="-689117" lat="61.8613833295" lon="6.58916666993">
		<tag k="name" v="Blåura" />
		<tag k="natural" v="scree" />
		<tag k="ssr:stedsnr" v="700365" />
	</node>
	<node id="-688599" lat="61.8507777793" lon="6.5030861023">
		<tag k="name" v="Mosemyrane" />
		<tag k="natural" v="wetland" />
		<tag k="ssr:stedsnr" v="495035" />
	</node>
	<node id="-690644" lat="61.9314972217" lon="6.60955555155">
		<tag k="name" v="Skitnemyra" />
		<tag k="natural" v="wetland" />
		<tag k="ssr:stedsnr" v="579542" />
	</node>
	<node id="-689618" lat="61.8277611089" lon="6.34333610663">
		<tag k="name" v="Marsteinen" />
		<tag k="natural" v="stone" />
		<tag k="ssr:stedsnr" v="33157" />
	</node>
	<node id="-688291" lat="61.9183888894" lon="7.10613332879">
		<tag k="name" v="Storura" />
		<tag k="natural" v="wetland" />
		<tag k="ssr:stedsnr" v="276445" />
	</node>
	<node id="-689104" lat="61.8376519479" lon="7.19764035155">
		<tag k="name" v="Kåpeskredene" />
		<tag k="natural" v="scree" />
		<tag k="place" v="locality" />
		<tag k="ssr:stedsnr" v="883585" />
	</node>
	<node id="-688590" lat="61.8406999966" lon="6.46614445407">
		<tag k="name" v="Mathismyrane" />
		<tag k="natural" v="wetland" />
		<tag k="ssr:stedsnr" v="336286" />
	</node>
	<node id="-690637" lat="61.9107583305" lon="6.7083750068">
		<tag k="name" v="Endrielmyra" />
		<tag k="natural" v="wetland" />
		<tag k="ssr:stedsnr" v="579519" />
	</node>
	<node id="-690123" lat="61.7538416641" lon="6.74756945228">
		<tag k="name" v="Instebreen" />
		<tag k="natural" v="glacier" />
		<tag k="ssr:stedsnr" v="192446" />
	</node>
	<node id="-689610" lat="61.9223055533" lon="6.68050555786">
		<tag k="name" v="Hydlamyrane" />
		<tag k="natural" v="wetland" />
		<tag k="ssr:stedsnr" v="33034" />
	</node>
	<node id="-688583" lat="61.8335500039" lon="6.92144722917">
		<tag k="loc_name" v="Høysteinen" />
		<tag k="name" v="Heisteinen" />
		<tag k="natural" v="stone" />
		<tag k="ssr:stedsnr" v="336307" />
	</node>
	<node id="-689605" lat="61.6489805578" lon="6.82539444782">
		<tag k="name" v="Melkevollbreen" />
		<tag k="natural" v="glacier" />
		<tag k="ssr:stedsnr" v="33007" />
	</node>
	<node id="-689909" lat="61.8975444419" lon="7.24693056356">
		<tag k="name" v="Grønebakksteinen" />
		<tag k="natural" v="stone" />
		<tag k="ssr:stedsnr" v="120678" />
	</node>
	<node id="-691018" lat="61.894716668" lon="7.26203055006">
		<tag k="name" v="Storemyra" />
		<tag k="natural" v="wetland" />
		<tag k="ssr:stedsnr" v="849151" />
	</node>
	<node id="-689396" lat="61.8950833361" lon="7.07296944273">
		<tag k="name" v="Telesteinen" />
		<tag k="natural" v="stone" />
		<tag k="ssr:stedsnr" v="943422" />
	</node>
	<node id="-690568" lat="61.6972555577" lon="6.8205888829">
		<tag k="name" v="Fellemyra" />
		<tag k="natural" v="wetland" />
		<tag k="ssr:stedsnr" v="579122" />
	</node>
	<node id="-689071" lat="61.9567444474" lon="7.01756667227">
		<tag k="name" v="Svarthella" />
		<tag k="natural" v="stone" />
		<tag k="ssr:stedsnr" v="883340" />
	</node>
	<node id="-689581" lat="61.9324777821" lon="7.15832499786">
		<tag k="name" v="Akura" />
		<tag k="natural" v="scree" />
		<tag k="ssr:stedsnr" v="10368" />
	</node>
	<node id="-690162" lat="61.8007611104" lon="6.83427778724">
		<tag k="name" v="Morsteinen" />
		<tag k="natural" v="stone" />
		<tag k="ssr:stedsnr" v="215192" />
	</node>
	<node id="-690088" lat="61.9680416662" lon="7.25941666503">
		<tag k="name" v="Storesteinane" />
		<tag k="natural" v="stone" />
		<tag k="ssr:stedsnr" v="181553" />
	</node>
	<node id="-690597" lat="61.8397305573" lon="6.91290554747">
		<tag k="name" v="Skavteigsteinen" />
		<tag k="natural" v="stone" />
		<tag k="ssr:stedsnr" v="579346" />
	</node>
	<node id="-688548" lat="61.7159861119" lon="6.93992500399">
		<tag k="name" v="Ruteflotbreen" />
		<tag k="natural" v="glacier" />
		<tag k="ssr:stedsnr" v="312905" />
	</node>
	<node id="-688483" lat="61.923117321" lon="6.56942885064">
		<tag k="name" v="Gardfjøsmyra" />
		<tag k="natural" v="wetland" />
		<tag k="ssr:stedsnr" v="458555" />
	</node>
	<node id="-688453" lat="61.9346888882" lon="6.95683611277">
		<tag k="name" v="Hattesteinen" />
		<tag k="natural" v="stone" />
		<tag k="ssr:stedsnr" v="458400" />
	</node>
	<node id="-689564" lat="61.8051083359" lon="6.4948111159">
		<tag k="name" v="Fransøyra" />
		<tag k="place" v="locality" />
		<tag k="ssr:stedsnr" v="10089" />
	</node>
	<node id="-688181" lat="61.6856500026" lon="6.88024443522">
		<tag k="name" v="Brenndalsbreen" />
		<tag k="natural" v="glacier" />
		<tag k="ssr:stedsnr" v="252904" />
	</node>
	<node id="-690671" lat="61.9011527734" lon="6.97996388772">
		<tag k="name" v="Breifonna" />
		<tag k="natural" v="glacier" />
		<tag k="ssr:stedsnr" v="616476" />
	</node>
	<node id="-690583" lat="61.7499111084" lon="6.95326388118">
		<tag k="name" v="Storeskreda" />
		<tag k="natural" v="stone" />
		<tag k="ssr:stedsnr" v="579200" />
	</node>
	<node id="-689045" lat="61.7061972241" lon="6.8197305544">
		<tag k="name" v="Storurasteinen" />
		<tag k="natural" v="stone" />
		<tag k="ssr:stedsnr" v="883101" />
	</node>
	<node id="-690065" lat="61.9117388879" lon="6.70701111291">
		<tag k="name" v="Langårsmyra" />
		<tag k="natural" v="wetland" />
		<tag k="ssr:stedsnr" v="154517" />
	</node>
	<node id="-690576" lat="61.8440611096" lon="6.88254999437">
		<tag k="name" v="Innsteinen" />
		<tag k="natural" v="stone" />
		<tag k="ssr:stedsnr" v="579154" />
	</node>
	<node id="-690062" lat="61.9316972242" lon="7.09601944727">
		<tag k="name" v="Storeskreda" />
		<tag k="natural" v="scree" />
		<tag k="place" v="locality" />
		<tag k="ssr:stedsnr" v="154506" />
	</node>
	<node id="-689047" lat="61.7299000024" lon="6.80840555105">
		<tag k="name" v="Halrøssura" />
		<tag k="natural" v="scree" />
		<tag k="ssr:stedsnr" v="883116" />
	</node>
	<node id="-690056" lat="61.893664649" lon="7.07151235407">
		<tag k="alt_name" v="Svortesvoda" />
		<tag k="name" v="Svartesvoda" />
		<tag k="place" v="locality" />
		<tag k="ssr:stedsnr" v="154482" />
	</node>
	<node id="-690566" lat="61.7679972208" lon="6.81952777054">
		<tag k="name" v="Oksesteinen" />
		<tag k="natural" v="stone" />
		<tag k="ssr:stedsnr" v="579085" />
	</node>
	<node id="-688449" lat="61.8489666656" lon="6.61875000184">
		<tag k="name" v="Morskogen" />
		<tag k="place" v="locality" />
		<tag k="ssr:stedsnr" v="458379" />
	</node>
	<node id="-689540" lat="61.6926444429" lon="6.80078611447">
		<tag k="name" v="Kvitura" />
		<tag k="natural" v="scree" />
		<tag k="ssr:stedsnr" v="943012" />
	</node>
	<node id="-690596" lat="61.8585083308" lon="6.91533054785">
		<tag k="name" v="Heidaskogen" />
		<tag k="place" v="locality" />
		<tag k="ssr:stedsnr" v="579344" />
	</node>
	<node id="-689535" lat="61.8259750026" lon="7.13371666035">
		<tag k="name" v="Skålebreen" />
		<tag k="natural" v="glacier" />
		<tag k="ssr:stedsnr" v="920416" />
	</node>
	<node id="-690042" lat="61.8281833302" lon="6.63549444052">
		<tag k="name" v="Gamlestølsteinen" />
		<tag k="natural" v="stone" />
		<tag k="ssr:stedsnr" v="154434" />
	</node>
	<node id="-688504" lat="61.800463891" lon="6.44726944219">
		<tag k="name" v="Skarsmyra" />
		<tag k="natural" v="wetland" />
		<tag k="ssr:stedsnr" v="276272" />
	</node>
	<node id="-690551" lat="61.9650583376" lon="7.27430278621">
		<tag k="name" v="Ryggfonna" />
		<tag k="natural" v="glacier" />
		<tag k="ssr:stedsnr" v="566504" />
	</node>
	<node id="-688500" lat="61.8111916675" lon="6.95793612013">
		<tag k="name" v="Synnevskreda" />
		<tag k="natural" v="scree" />
		<tag k="place" v="locality" />
		<tag k="ssr:stedsnr" v="276253" />
	</node>
	<node id="-690032" lat="61.9199027816" lon="6.57655000021">
		<tag k="name" v="Bjørnamyra" />
		<tag k="natural" v="wetland" />
		<tag k="ssr:stedsnr" v="154399" />
	</node>
	<node id="-688720" lat="61.8727611103" lon="7.23807500734">
		<tag k="name" v="Sandskarfonna" />
		<tag k="natural" v="glacier" />
		<tag k="ssr:stedsnr" v="434417" />
	</node>
	<node id="-691051" lat="61.6778555575" lon="7.03732499644">
		<tag k="name" v="Høgste Breakulen" />
		<tag k="natural" v="glacier" />
		<tag k="ssr:stedsnr" v="860729" />
	</node>
	<node id="-690536" lat="61.648366663" lon="6.85868610582">
		<tag k="loc_name" v="Tjøtebreen" />
		<tag k="name" v="Tjøtabreen" />
		<tag k="natural" v="glacier" />
		<tag k="ssr:stedsnr" v="555806" />
	</node>
	<node id="-690748" lat="61.8331027796" lon="6.62449445145">
		<tag k="name" v="Storemyra" />
		<tag k="natural" v="wetland" />
		<tag k="ssr:stedsnr" v="639381" />
	</node>
	<node id="-689508" lat="61.8050999975" lon="7.02573332729">
		<tag k="name" v="Breiskredene" />
		<tag k="natural" v="scree" />
		<tag k="place" v="locality" />
		<tag k="ssr:stedsnr" v="883461" />
	</node>
	<node id="-688995" lat="61.774633331" lon="6.88242777119">
		<tag k="name" v="Årnesbreen" />
		<tag k="natural" v="glacier" />
		<tag k="ssr:stedsnr" v="617446" />
	</node>
	<node id="-689506" lat="61.9111194471" lon="7.12815832671">
		<tag k="name" v="Storesteinen" />
		<tag k="natural" v="stone" />
		<tag k="ssr:stedsnr" v="883422" />
	</node>
	<node id="-688479" lat="61.8307916639" lon="6.82256665781">
		<tag k="name" v="Fletesteinen" />
		<tag k="natural" v="stone" />
		<tag k="ssr:stedsnr" v="458545" />
	</node>
	<node id="-689499" lat="61.8729916674" lon="7.10490277537">
		<tag k="name" v="Dalsskredene" />
		<tag k="natural" v="scree" />
		<tag k="place" v="locality" />
		<tag k="ssr:stedsnr" v="883406" />
	</node>
	<node id="-688986" lat="61.8113749998" lon="7.21656110306">
		<tag k="name" v="Teibreen" />
		<tag k="natural" v="glacier" />
		<tag k="ssr:stedsnr" v="616423" />
	</node>
	<node id="-691031" lat="61.7822388889" lon="7.14786111003">
		<tag k="name" v="Bohrsbreen" />
		<tag k="natural" v="glacier" />
		<tag k="ssr:stedsnr" v="859536" />
	</node>
	<node id="-691030" lat="61.996455552" lon="7.0974249995">
		<tag k="name" v="Ausebreen" />
		<tag k="natural" v="glacier" />
		<tag k="ssr:stedsnr" v="859378" />
	</node>
	<node id="-688978" lat="61.8680777754" lon="6.82615277571">
		<tag k="landuse" v="meadow" />
		<tag k="name" v="Engane" />
		<tag k="ssr:stedsnr" v="585455" />
	</node>
	<node id="-689489" lat="61.8305555588" lon="6.98736944186">
		<tag k="name" v="Myra" />
		<tag k="natural" v="wetland" />
		<tag k="ssr:stedsnr" v="883363" />
	</node>
	<node id="-688974" lat="61.8368138879" lon="6.94815278373">
		<tag k="name" v="Nebbesteinen" />
		<tag k="natural" v="stone" />
		<tag k="ssr:stedsnr" v="579326" />
	</node>
	<node id="-688460" lat="61.9193138863" lon="7.09875555011">
		<tag k="name" v="Storesteinen" />
		<tag k="natural" v="stone" />
		<tag k="ssr:stedsnr" v="458432" />
	</node>
	<node id="-688458" lat="61.7344833299" lon="7.02994723137">
		<tag k="name" v="Kjenndalsbreen" />
		<tag k="natural" v="glacier" />
		<tag k="ssr:stedsnr" v="458423" />
	</node>
	<node id="-691017" lat="61.894438885" lon="7.27164445381">
		<tag k="name" v="Pineguristeinen" />
		<tag k="natural" v="stone" />
		<tag k="ssr:stedsnr" v="848770" />
	</node>
	<node id="-691015" lat="61.867516664" lon="6.83840278611">
		<tag k="name" v="Svartesvedene" />
		<tag k="place" v="locality" />
		<tag k="ssr:stedsnr" v="828472" />
	</node>
	<node id="-690502" lat="62.0133500026" lon="7.25173611482">
		<tag k="name" v="Skjerdingdalsbreen" />
		<tag k="natural" v="glacier" />
		<tag k="ssr:stedsnr" v="435184" />
	</node>
	<node id="-688965" lat="61.9166527756" lon="7.01941111364">
		<tag k="name" v="Fosseskreda" />
		<tag k="natural" v="scree" />
		<tag k="place" v="locality" />
		<tag k="ssr:stedsnr" v="579279" />
	</node>
	<node id="-689974" lat="61.7335833344" lon="6.80752500542">
		<tag k="name" v="Galtura" />
		<tag k="natural" v="scree" />
		<tag k="ssr:stedsnr" v="154127" />
	</node>
	<node id="-688961" lat="61.9282277741" lon="6.80118610424">
		<tag k="loc_name" v="Høysteinen" />
		<tag k="name" v="Heisteinen" />
		<tag k="natural" v="stone" />
		<tag k="ssr:stedsnr" v="579259" />
	</node>
	<node id="-690493" lat="61.8637777744" lon="6.28009165957">
		<tag k="name" v="Kvalsmyra" />
		<tag k="natural" v="wetland" />
		<tag k="ssr:stedsnr" v="435081" />
	</node>
	<node id="-691002" lat="61.8719194418" lon="6.29246389662">
		<tag k="name" v="Tussemyra" />
		<tag k="natural" v="wetland" />
		<tag k="ssr:stedsnr" v="822452" />
	</node>
	<node id="-689977" lat="61.6652166627" lon="6.81444167385">
		<tag k="name" v="Storura" />
		<tag k="natural" v="wetland" />
		<tag k="ssr:stedsnr" v="154139" />
	</node>
	<node id="-689975" lat="61.7371694409" lon="6.78400833621">
		<tag k="name" v="Brandsura" />
		<tag k="natural" v="scree" />
		<tag k="ssr:stedsnr" v="154134" />
	</node>
	<node id="-690998" lat="61.8877083324" lon="6.65717778096">
		<tag k="name" v="Langesvadurene" />
		<tag k="natural" v="scree" />
		<tag k="ssr:stedsnr" v="822433" />
	</node>
	<node id="-688436" lat="61.9518305553" lon="6.95291110946">
		<tag k="name" v="Lidafonna" />
		<tag k="natural" v="scree" />
		<tag k="place" v="locality" />
		<tag k="ssr:stedsnr" v="458320" />
	</node>
	<node id="-689970" lat="61.7696944455" lon="6.84320277259">
		<tag k="name" v="Merkingsura" />
		<tag k="natural" v="scree" />
		<tag k="ssr:stedsnr" v="154093" />
	</node>
	<node id="-688520" lat="61.9014694421" lon="6.62840833056">
		<tag k="name" v="Storemyra" />
		<tag k="natural" v="wetland" />
		<tag k="ssr:stedsnr" v="276473" />
	</node>
	<node id="-690989" lat="61.806644446" lon="7.00176388421">
		<tag k="name" v="Bøaurene" />
		<tag k="natural" v="scree" />
		<tag k="ssr:stedsnr" v="822338" />
	</node>
	<node id="-690988" lat="61.8467138925" lon="6.41987221436">
		<tag k="name" v="Veitemyrane" />
		<tag k="natural" v="wetland" />
		<tag k="ssr:stedsnr" v="822337" />
	</node>
	<node id="-688178" lat="61.7376500008" lon="7.08742778272">
		<tag k="name" v="Krunebreen" />
		<tag k="natural" v="glacier" />
		<tag k="ssr:stedsnr" v="252661" />
	</node>
	<node id="-688938" lat="61.8696444443" lon="7.05391389645">
		<tag k="loc_name" v="Tindefjellsbreen" />
		<tag k="name" v="Tindefjellbreen" />
		<tag k="natural" v="glacier" />
		<tag k="ssr:stedsnr" v="555410" />
	</node>
	<node id="-690985" lat="61.849716671" lon="6.45974166826">
		<tag k="name" v="Momyra" />
		<tag k="natural" v="wetland" />
		<tag k="ssr:stedsnr" v="822331" />
	</node>
	<node id="-689448" lat="61.7379249975" lon="6.88218055494">
		<tag k="name" v="Sundsbreen" />
		<tag k="natural" v="glacier" />
		<tag k="ssr:stedsnr" v="859873" />
	</node>
	<node id="-690471" lat="61.8446166624" lon="7.15835832721">
		<tag k="name" v="Langesandskredene" />
		<tag k="natural" v="scree" />
		<tag k="place" v="locality" />
		<tag k="ssr:stedsnr" v="397537" />
	</node>
	<node id="-690981" lat="61.8463749984" lon="6.48655832718">
		<tag k="name" v="Demmemyra" />
		<tag k="natural" v="wetland" />
		<tag k="ssr:stedsnr" v="822315" />
	</node>
	<node id="-689956" lat="61.9288472207" lon="7.25062500087">
		<tag k="name" v="Napefonna" />
		<tag k="natural" v="glacier" />
		<tag k="ssr:stedsnr" v="141482" />
	</node>
	<node id="-690978" lat="61.9570111148" lon="6.93105277508">
		<tag k="name" v="Vedasteinane" />
		<tag k="natural" v="stone" />
		<tag k="ssr:stedsnr" v="822292" />
	</node>
	<node id="-689541" lat="61.9225194408" lon="6.68653611373">
		<tag k="name" v="Hydlamyrane" />
		<tag k="natural" v="wetland" />
		<tag k="ssr:stedsnr" v="943029" />
	</node>
	<node id="-690460" lat="61.9190555554" lon="6.67337778401">
		<tag k="name" v="Kistesteinen" />
		<tag k="natural" v="stone" />
		<tag k="ssr:stedsnr" v="397478" />
	</node>
	<node id="-690970" lat="61.8987999977" lon="7.06431665882">
		<tag k="name" v="Dårflotstoresteinane" />
		<tag k="natural" v="stone" />
		<tag k="ssr:stedsnr" v="822382" />
	</node>
	<node id="-690456" lat="61.9141777777" lon="6.60709999627">
		<tag k="name" v="Breimyra" />
		<tag k="natural" v="wetland" />
		<tag k="ssr:stedsnr" v="397469" />
	</node>
	<node id="-688406" lat="61.8390277774" lon="6.82146665789">
		<tag k="name" v="Tjøtura" />
		<tag k="natural" v="wetland" />
		<tag k="ssr:stedsnr" v="458162" />
	</node>
	<node id="-689369" lat="61.9421916709" lon="6.89116944293">
		<tag k="name" v="Nyesvorsteinen" />
		<tag k="natural" v="stone" />
		<tag k="ssr:stedsnr" v="943261" />
	</node>
	<node id="-689939" lat="61.8834583288" lon="7.17570555137">
		<tag k="name" v="Halvardsvorfonna" />
		<tag k="natural" v="glacier" />
		<tag k="ssr:stedsnr" v="131441" />
	</node>
	<node id="-690450" lat="61.8873194434" lon="6.57639167575">
		<tag k="name" v="Kyrkjemyra" />
		<tag k="natural" v="wetland" />
		<tag k="ssr:stedsnr" v="397428" />
	</node>
	<node id="-690449" lat="61.9021249991" lon="7.17601389261">
		<tag k="name" v="Storeskreda" />
		<tag k="natural" v="scree" />
		<tag k="place" v="locality" />
		<tag k="ssr:stedsnr" v="397423" />
	</node>
	<node id="-689424" lat="61.9561500012" lon="6.99849999584">
		<tag k="name" v="Sveimyrane" />
		<tag k="natural" v="wetland" />
		<tag k="ssr:stedsnr" v="944288" />
	</node>
	<node id="-690446" lat="61.8540125902" lon="7.16134584749">
		<tag k="name" v="Setreura" />
		<tag k="natural" v="wetland" />
		<tag k="ssr:stedsnr" v="397413" />
	</node>
	<node id="-690221" lat="61.9298000033" lon="6.60275277345">
		<tag k="name" v="Holemyra" />
		<tag k="natural" v="wetland" />
		<tag k="ssr:stedsnr" v="215548" />
	</node>
	<node id="-689930" lat="61.9044000027" lon="6.7081499916">
		<tag k="name" v="Tonningsøyra" />
		<tag k="place" v="locality" />
		<tag k="ssr:stedsnr" v="131265" />
	</node>
	<node id="-688940" lat="61.9317999963" lon="6.9680666585">
		<tag k="name" v="Kolsteinane" />
		<tag k="natural" v="stone" />
		<tag k="ssr:stedsnr" v="701437" />
	</node>
	<node id="-690438" lat="61.9376888888" lon="6.91401388892">
		<tag k="name" v="Eikeneurane" />
		<tag k="natural" v="wetland" />
		<tag k="ssr:stedsnr" v="397382" />
	</node>
	<node id="-690768" lat="61.8306999998" lon="6.98055833379">
		<tag k="name" v="Storefonna" />
		<tag k="natural" v="scree" />
		<tag k="place" v="locality" />
		<tag k="ssr:stedsnr" v="639476" />
	</node>
	<node id="-689407" lat="61.9150361157" lon="6.6683166757">
		<tag k="name" v="Slettemyrene" />
		<tag k="natural" v="wetland" />
		<tag k="ssr:stedsnr" v="943457" />
	</node>
	<node id="-688380" lat="61.9078333342" lon="6.70010278638">
		<tag k="name" v="Porsemyra" />
		<tag k="natural" v="wetland" />
		<tag k="ssr:stedsnr" v="215518" />
	</node>
	<node id="-688377" lat="61.9051194465" lon="6.68357500301">
		<tag k="name" v="Kolemyra" />
		<tag k="natural" v="wetland" />
		<tag k="ssr:stedsnr" v="215503" />
	</node>
	<node id="-689400" lat="61.9158194433" lon="6.57100832496">
		<tag k="name" v="Søndsmyra" />
		<tag k="natural" v="wetland" />
		<tag k="ssr:stedsnr" v="943436" />
	</node>
	<node id="-689961" lat="61.929822219" lon="6.68974999604">
		<tag k="name" v="Høymyrane" />
		<tag k="natural" v="wetland" />
		<tag k="ssr:stedsnr" v="154017" />
	</node>
	<node id="-689908" lat="61.9011777785" lon="7.26109722184">
		<tag k="name" v="Kuftesteinen" />
		<tag k="natural" v="stone" />
		<tag k="ssr:stedsnr" v="120527" />
	</node>
	<node id="-689106" lat="61.9377916691" lon="6.56929999471">
		<tag k="name" v="Gildremyra" />
		<tag k="natural" v="wetland" />
		<tag k="ssr:stedsnr" v="699227" />
	</node>
	<node id="-690409" lat="61.8795138866" lon="6.78631111414">
		<tag k="name" v="Dalesteinen" />
		<tag k="natural" v="stone" />
		<tag k="ssr:stedsnr" v="397177" />
	</node>
	<node id="-688358" lat="61.8287833378" lon="6.33535555714">
		<tag k="name" v="Storemyra" />
		<tag k="natural" v="wetland" />
		<tag k="ssr:stedsnr" v="215144" />
	</node>
	<node id="-688354" lat="61.6881361154" lon="6.81041943571">
		<tag k="name" v="Hugleiksteinen" />
		<tag k="natural" v="stone" />
		<tag k="ssr:stedsnr" v="215128" />
	</node>
	<node id="-689377" lat="61.876208333" lon="6.51827777811">
		<tag k="name" v="Leitemyra" />
		<tag k="natural" v="wetland" />
		<tag k="ssr:stedsnr" v="943314" />
	</node>
	<node id="-688352" lat="61.7178277783" lon="7.02614999574">
		<tag k="name" v="Kjenndalsbreen" />
		<tag k="natural" v="glacier" />
		<tag k="ssr:stedsnr" v="192728" />
	</node>
	<node id="-689887" lat="61.9141333366" lon="6.55736944083">
		<tag k="name" v="Sagemyra" />
		<tag k="natural" v="wetland" />
		<tag k="ssr:stedsnr" v="94504" />
	</node>
	<node id="-689374" lat="61.8524277807" lon="6.47076388816">
		<tag k="name" v="Kjennhaugmyra" />
		<tag k="natural" v="wetland" />
		<tag k="ssr:stedsnr" v="943303" />
	</node>
	<node id="-689372" lat="61.8533833374" lon="6.48355555929">
		<tag k="name" v="Langemyra" />
		<tag k="natural" v="wetland" />
		<tag k="ssr:stedsnr" v="943288" />
	</node>
	<node id="-688685" lat="61.9238416678" lon="6.67780555679">
		<tag k="name" v="Hestesteinen" />
		<tag k="natural" v="stone" />
		<tag k="ssr:stedsnr" v="518023" />
	</node>
	<node id="-689881" lat="61.9084749956" lon="7.16670555133">
		<tag k="name" v="Histeinskreda" />
		<tag k="natural" v="scree" />
		<tag k="place" v="locality" />
		<tag k="ssr:stedsnr" v="94479" />
	</node>
	<node id="-688932" lat="61.8174249957" lon="7.23587499095">
		<tag k="name" v="Erdalsbreen" />
		<tag k="natural" v="glacier" />
		<tag k="ssr:stedsnr" v="555378" />
	</node>
	<node id="-688839" lat="61.8931861071" lon="6.28810555723">
		<tag k="name" v="Skarsmyra" />
		<tag k="natural" v="wetland" />
		<tag k="ssr:stedsnr" v="678971" />
	</node>
	<node id="-690882" lat="61.8857999995" lon="6.54043055113">
		<tag k="name" v="Storemyra" />
		<tag k="natural" v="wetland" />
		<tag k="ssr:stedsnr" v="761477" />
	</node>
	<node id="-689856" lat="61.9109749984" lon="6.59419443974">
		<tag k="name" v="Maramyra" />
		<tag k="natural" v="wetland" />
		<tag k="ssr:stedsnr" v="94384" />
	</node>
	<node id="-690877" lat="61.8316472211" lon="6.46174444037">
		<tag k="name" v="Rolsura" />
		<tag k="natural" v="scree" />
		<tag k="ssr:stedsnr" v="761236" />
	</node>
	<node id="-689098" lat="61.8211305584" lon="6.7968722134">
		<tag k="name" v="Høgemyrane" />
		<tag k="natural" v="wetland" />
		<tag k="ssr:stedsnr" v="883561" />
	</node>
	<node id="-689850" lat="61.8361888911" lon="6.95163889082">
		<tag k="name" v="Storesteinen" />
		<tag k="natural" v="stone" />
		<tag k="ssr:stedsnr" v="94364" />
	</node>
	<node id="-690360" lat="61.6701277738" lon="6.75296666226">
		<tag k="name" v="Flatebreen" />
		<tag k="natural" v="glacier" />
		<tag k="ssr:stedsnr" v="373939" />
	</node>
	<node id="-689965" lat="61.9080972204" lon="6.76123889704">
		<tag k="name" v="Storesteinen" />
		<tag k="natural" v="stone" />
		<tag k="ssr:stedsnr" v="154046" />
	</node>
	<node id="-688304" lat="61.9027750042" lon="6.55956666498">
		<tag k="name" v="Storemyra" />
		<tag k="natural" v="wetland" />
		<tag k="ssr:stedsnr" v="276490" />
	</node>
	<node id="-689838" lat="61.9416805553" lon="6.92872500627">
		<tag k="name" v="Vegaskitmyrane" />
		<tag k="natural" v="wetland" />
		<tag k="ssr:stedsnr" v="94312" />
	</node>
	<node id="-689837" lat="61.9464972192" lon="6.93100833516">
		<tag k="name" v="Storesteinane" />
		<tag k="natural" v="stone" />
		<tag k="ssr:stedsnr" v="94311" />
	</node>
	<node id="-689324" lat="61.9359055513" lon="6.54445555561">
		<tag k="name" v="Demmemyra" />
		<tag k="natural" v="wetland" />
		<tag k="ssr:stedsnr" v="942230" />
	</node>
	<node id="-688754" lat="61.858724996" lon="7.15714444116">
		<tag k="name" v="Skipesteinen" />
		<tag k="natural" v="stone" />
		<tag k="ssr:stedsnr" v="518388" />
	</node>
	<node id="-688884" lat="61.8574305552" lon="6.52544443978">
		<tag k="landuse" v="meadow" />
		<tag k="name" v="Bårnebøen" />
		<tag k="ssr:stedsnr" v="700319" />
	</node>
	<node id="-689833" lat="61.8697750005" lon="6.39661111182">
		<tag k="name" v="Fjellvadet" />
		<tag k="natural" v="wetland" />
		<tag k="ssr:stedsnr" v="94301" />
	</node>
	<node id="-688609" lat="61.8278638861" lon="6.31420833401">
		<tag k="name" v="Grasmyra" />
		<tag k="natural" v="wetland" />
		<tag k="ssr:stedsnr" v="495149" />
	</node>
	<node id="-690340" lat="61.9338388847" lon="6.64954721767">
		<tag k="name" v="Pølsesteinen" />
		<tag k="natural" v="stone" />
		<tag k="ssr:stedsnr" v="336489" />
	</node>
	<node id="-690339" lat="61.9245111126" lon="6.56667500483">
		<tag k="name" v="Hillersmyra" />
		<tag k="natural" v="wetland" />
		<tag k="ssr:stedsnr" v="336475" />
	</node>
	<node id="-689314" lat="61.8905361079" lon="7.07982777054">
		<tag k="name" v="Tosteinane" />
		<tag k="natural" v="stone" />
		<tag k="ssr:stedsnr" v="822460" />
	</node>
	<node id="-690337" lat="61.8266944471" lon="6.66876666582">
		<tag k="name" v="Geilemyra" />
		<tag k="natural" v="wetland" />
		<tag k="ssr:stedsnr" v="336467" />
	</node>
	<node id="-688284" lat="61.8978083374" lon="7.1074472219">
		<tag k="name" v="Jørnstoresteinen" />
		<tag k="natural" v="stone" />
		<tag k="ssr:stedsnr" v="276396" />
	</node>
	<node id="-688280" lat="61.8366916622" lon="6.61482221469">
		<tag k="name" v="Grautasteinen" />
		<tag k="natural" v="stone" />
		<tag k="ssr:stedsnr" v="276378" />
	</node>
	<node id="-688790" lat="61.8449083319" lon="7.1841305594">
		<tag k="name" v="Klovningsteinen" />
		<tag k="natural" v="stone" />
		<tag k="ssr:stedsnr" v="518488" />
	</node>
	<node id="-688788" lat="61.9274916658" lon="6.58524723018">
		<tag k="name" v="Storesteinen" />
		<tag k="natural" v="stone" />
		<tag k="ssr:stedsnr" v="518482" />
	</node>
	<node id="-689297" lat="61.9040916644" lon="7.04706111087">
		<tag k="name" v="Røvsteinane" />
		<tag k="natural" v="stone" />
		<tag k="ssr:stedsnr" v="822359" />
	</node>
	<node id="-689296" lat="61.8393555523" lon="6.90657500259">
		<tag k="name" v="Storeskreda" />
		<tag k="natural" v="scree" />
		<tag k="place" v="locality" />
		<tag k="ssr:stedsnr" v="822357" />
	</node>
	<node id="-688269" lat="61.8838805569" lon="6.7970472278">
		<tag k="name" v="Furemyra" />
		<tag k="natural" v="wetland" />
		<tag k="ssr:stedsnr" v="276293" />
	</node>
	<node id="-689285" lat="61.7125416666" lon="6.79686665798">
		<tag k="name" v="Merkingsura" />
		<tag k="natural" v="scree" />
		<tag k="ssr:stedsnr" v="822110" />
	</node>
	<node id="-690820" lat="61.8907611133" lon="7.15827776995">
		<tag k="name" v="Svelingsfonna" />
		<tag k="natural" v="glacier" />
		<tag k="ssr:stedsnr" v="738452" />
	</node>
	<node id="-690818" lat="61.7881111074" lon="6.76611666475">
		<tag k="name" v="Eidsbreen" />
		<tag k="natural" v="glacier" />
		<tag k="ssr:stedsnr" v="738427" />
	</node>
	<node id="-688491" lat="61.9100249982" lon="6.7776638899">
		<tag k="name" v="Stavsteinen" />
		<tag k="natural" v="stone" />
		<tag k="ssr:stedsnr" v="276056" />
	</node>
	<node id="-688768" lat="61.9236444456" lon="7.08023888517">
		<tag k="name" v="Måsesteinane" />
		<tag k="natural" v="stone" />
		<tag k="ssr:stedsnr" v="518429" />
	</node>
	<node id="-688251" lat="61.929238887" lon="6.6816972301">
		<tag k="name" v="Setremyrane" />
		<tag k="natural" v="wetland" />
		<tag k="ssr:stedsnr" v="276027" />
	</node>
	<node id="-689269" lat="61.6835833343" lon="6.80432499466">
		<tag k="name" v="Storesteinen" />
		<tag k="natural" v="stone" />
		<tag k="ssr:stedsnr" v="822003" />
	</node>
	<node id="-688755" lat="61.8545222235" lon="7.15691945327">
		<tag k="name" v="Klovningsteinen" />
		<tag k="natural" v="stone" />
		<tag k="ssr:stedsnr" v="518389" />
	</node>
	<node id="-689266" lat="61.8555666656" lon="7.13945555808">
		<tag k="name" v="Skadefonna" />
		<tag k="natural" v="glacier" />
		<tag k="ssr:stedsnr" v="931492" />
	</node>
	<node id="-688239" lat="61.8463000034" lon="7.26534166126">
		<tag k="name" v="Vesledalsbreen" />
		<tag k="natural" v="glacier" />
		<tag k="ssr:stedsnr" v="131211" />
	</node>
	<node id="-688402" lat="61.678402778" lon="6.80753333126">
		<tag k="name" v="Storesteinen" />
		<tag k="natural" v="stone" />
		<tag k="ssr:stedsnr" v="458135" />
	</node>
	<node id="-690281" lat="61.8690750024" lon="7.12012499571">
		<tag k="name" v="Erikesteinen" />
		<tag k="natural" v="stone" />
		<tag k="ssr:stedsnr" v="336329" />
	</node>
	<node id="-690280" lat="61.8342277739" lon="6.62928611538">
		<tag k="name" v="Setrevadmyra" />
		<tag k="natural" v="wetland" />
		<tag k="ssr:stedsnr" v="336326" />
	</node>
	<node id="-690791" lat="61.8781027745" lon="6.5196777727">
		<tag k="name" v="Leitemyra" />
		<tag k="natural" v="wetland" />
		<tag k="ssr:stedsnr" v="738056" />
	</node>
	<node id="-689764" lat="61.8273111125" lon="6.75785278553">
		<tag k="name" v="Håskredskavlen" />
		<tag k="natural" v="glacier" />
		<tag k="ssr:stedsnr" v="71370" />
	</node>
	<node id="-688739" lat="61.8364638909" lon="6.62861388417">
		<tag k="name" v="Skitnemyra" />
		<tag k="natural" v="wetland" />
		<tag k="ssr:stedsnr" v="518327" />
	</node>
	<node id="-690786" lat="61.6660166681" lon="6.89020554602">
		<tag k="name" v="Briksdalsbreen" />
		<tag k="natural" v="glacier" />
		<tag k="ssr:stedsnr" v="737937" />
	</node>
	<node id="-688353" lat="61.9347" lon="6.54868055953">
		<tag k="name" v="Myrane" />
		<tag k="natural" v="wetland" />
		<tag k="ssr:stedsnr" v="214225" />
	</node>
	<node id="-688222" lat="61.9075722266" lon="7.13474999516">
		<tag k="name" v="Hjelleuksen" />
		<tag k="natural" v="glacier" />
		<tag k="ssr:stedsnr" v="263503" />
	</node>
	<node id="-689244" lat="62.0034444489" lon="7.27700277721">
		<tag k="name" v="Grasdalsbreen" />
		<tag k="natural" v="glacier" />
		<tag k="ssr:stedsnr" v="921141" />
	</node>
	<node id="-688438" lat="61.8495000035" lon="6.44210832996">
		<tag k="name" v="Storetjørnmyra" />
		<tag k="natural" v="wetland" />
		<tag k="ssr:stedsnr" v="458342" />
	</node>
	<node id="-688726" lat="61.8382638932" lon="6.48909166666">
		<tag k="name" v="Skitnemyra" />
		<tag k="natural" v="wetland" />
		<tag k="ssr:stedsnr" v="518271" />
	</node>
	<node id="-689234" lat="61.7798000035" lon="7.09860000544">
		<tag k="name" v="Bødalsbreen" />
		<tag k="natural" v="glacier" />
		<tag k="ssr:stedsnr" v="920566" />
	</node>
	<node id="-690257" lat="61.9172361108" lon="7.35322222143">
		<tag k="name" v="Tystigbreen" />
		<tag k="natural" v="glacier" />
		<tag k="ssr:stedsnr" v="313597" />
	</node>
	<node id="-689744" lat="61.8686111106" lon="6.99658056128">
		<tag k="name" v="Skålabreen" />
		<tag k="natural" v="glacier" />
		<tag k="ssr:stedsnr" v="70450" />
	</node>
	<node id="-689742" lat="61.8562000035" lon="7.08791111316">
		<tag k="name" v="Tundraskarsbreen" />
		<tag k="natural" v="glacier" />
		<tag k="ssr:stedsnr" v="70435" />
	</node>
	<node id="-690957" lat="61.8002527807" lon="6.82918610541">
		<tag k="name" v="Kalvehagesteinen" />
		<tag k="natural" v="stone" />
		<tag k="ssr:stedsnr" v="822184" />
	</node>
	<node id="-688716" lat="61.864063889" lon="6.35209166981">
		<tag k="name" v="Spelsmyrane" />
		<tag k="natural" v="wetland" />
		<tag k="ssr:stedsnr" v="518221" />
	</node>
	<node id="-689762" lat="61.8066638888" lon="6.90441944408">
		<tag k="name" v="Senlenskebreen" />
		<tag k="natural" v="glacier" />
		<tag k="ssr:stedsnr" v="71364" />
	</node>
	<node id="-689738" lat="61.8617277783" lon="7.39655833766">
		<tag k="name" v="Sikilbreen" />
		<tag k="natural" v="glacier" />
		<tag k="ssr:stedsnr" v="70593" />
	</node>
	<node id="-690761" lat="61.8998444488" lon="6.63081665962">
		<tag k="name" v="Såmyra" />
		<tag k="natural" v="wetland" />
		<tag k="ssr:stedsnr" v="639440" />
	</node>
	<node id="-688199" lat="61.8012805546" lon="6.93436944247">
		<tag k="name" v="Helsetbreen" />
		<tag k="natural" v="glacier" />
		<tag k="ssr:stedsnr" v="253386" />
	</node>
	<node id="-688198" lat="61.7943916666" lon="6.90056944095">
		<tag k="name" v="Ramnefjellbreen" />
		<tag k="natural" v="glacier" />
		<tag k="ssr:stedsnr" v="253381" />
	</node>
	<node id="-688693" lat="61.7862055571" lon="6.83709166775">
		<tag k="name" v="Gråbeinsura" />
		<tag k="natural" v="wetland" />
		<tag k="ssr:stedsnr" v="518100" />
	</node>
	<node id="-690753" lat="61.8871277813" lon="6.6516722289">
		<tag k="name" v="Skjorasteinen" />
		<tag k="natural" v="stone" />
		<tag k="ssr:stedsnr" v="639414" />
	</node>
	<node id="-690752" lat="61.893936111" lon="6.62188888469">
		<tag k="name" v="Bleket" />
		<tag k="place" v="locality" />
		<tag k="ssr:stedsnr" v="639400" />
	</node>
	<node id="-690784" lat="61.7106138871" lon="6.92420555188">
		<tag k="name" v="Jostedalsbreen" />
		<tag k="natural" v="glacier" />
		<tag k="ssr:stedsnr" v="737912" />
	</node>
	<node id="-688744" lat="61.9003611115" lon="7.07002500928">
		<tag k="name" v="Brurasteinen" />
		<tag k="natural" v="stone" />
		<tag k="ssr:stedsnr" v="518354" />
	</node>
	<node id="-690749" lat="61.8266777759" lon="6.61321111277">
		<tag k="name" v="Juledagsmyra" />
		<tag k="natural" v="wetland" />
		<tag k="ssr:stedsnr" v="639387" />
	</node>
	<node id="-690236" lat="61.6381694434" lon="6.8248861118">
		<tag k="name" v="Melkevollbreen" />
		<tag k="natural" v="glacier" />
		<tag k="ssr:stedsnr" v="312798" />
	</node>
	<node id="-690235" lat="61.6845305572" lon="6.75275277868">
		<tag k="name" v="Høgalmebreen" />
		<tag k="natural" v="glacier" />
		<tag k="ssr:stedsnr" v="312916" />
	</node>
	<node id="-690746" lat="61.9000472251" lon="7.06163055013">
		<tag k="name" v="Telsteinen" />
		<tag k="natural" v="stone" />
		<tag k="ssr:stedsnr" v="639362" />
	</node>
	<node id="-690743" lat="61.8406527742" lon="6.62993054893">
		<tag k="name" v="Revsteinen" />
		<tag k="natural" v="stone" />
		<tag k="ssr:stedsnr" v="639342" />
	</node>
	<node id="-690742" lat="61.8719083366" lon="7.13787778343">
		<tag k="name" v="Svinebolsteinen" />
		<tag k="natural" v="stone" />
		<tag k="ssr:stedsnr" v="639340" />
	</node>
	<node id="-690741" lat="61.9116472226" lon="7.02677778341">
		<tag k="name" v="Svorasteinane" />
		<tag k="natural" v="stone" />
		<tag k="ssr:stedsnr" v="639335" />
	</node>
	<node id="-690227" lat="61.9155861121" lon="6.57583333425">
		<tag k="name" v="Bjørnamyra" />
		<tag k="natural" v="wetland" />
		<tag k="ssr:stedsnr" v="215480" />
	</node>
	<node id="-690226" lat="61.8945333319" lon="6.55224721998">
		<tag k="name" v="Spelhaugmyra" />
		<tag k="natural" v="wetland" />
		<tag k="ssr:stedsnr" v="215478" />
	</node>
	<node id="-689712" lat="61.8288472193" lon="6.79531388464">
		<tag k="name" v="Ulvesteinen" />
		<tag k="natural" v="stone" />
		<tag k="ssr:stedsnr" v="33541" />
	</node>
	<node id="-689711" lat="61.8604861078" lon="6.75478611192">
		<tag k="name" v="Revasteinen" />
		<tag k="natural" v="stone" />
		<tag k="ssr:stedsnr" v="33533" />
	</node>
	<node id="-690733" lat="61.8755416701" lon="6.40902500201">
		<tag k="name" v="Svartesteinen" />
		<tag k="natural" v="stone" />
		<tag k="ssr:stedsnr" v="639254" />
	</node>
	<node id="-688171" lat="61.8521555562" lon="7.33208333705">
		<tag k="name" v="Sygneskarsbreen" />
		<tag k="natural" v="glacier" />
		<tag k="ssr:stedsnr" v="252414" />
	</node>
	<node id="-688732" lat="61.8361777746" lon="6.94933332816">
		<tag k="name" v="Avura" />
		<tag k="natural" v="scree" />
		<tag k="ssr:stedsnr" v="518300" />
	</node>
	<node id="-690724" lat="61.8299166675" lon="6.43833056448">
		<tag k="name" v="Oppkasteura" />
		<tag k="natural" v="scree" />
		<tag k="ssr:stedsnr" v="639231" />
	</node>
	<node id="-689414" lat="61.742261114" lon="6.76905555712">
		<tag k="name" v="Storesteinen" />
		<tag k="natural" v="stone" />
		<tag k="ssr:stedsnr" v="943484" />
	</node>
	<node id="-689697" lat="61.9107972237" lon="6.6211611128">
		<tag k="name" v="Orremyra" />
		<tag k="natural" v="wetland" />
		<tag k="ssr:stedsnr" v="33468" />
	</node>
	<node id="-690208" lat="61.8618361079" lon="6.50299443527">
		<tag k="name" v="Stillemyra" />
		<tag k="natural" v="wetland" />
		<tag k="ssr:stedsnr" v="215348" />
	</node>
	<node id="-688158" lat="61.8181750002" lon="6.55861389426">
		<tag k="name" v="Kårstadmarka" />
		<tag k="place" v="locality" />
		<tag k="ssr:stedsnr" v="252071" />
	</node>
	<node id="-689179" lat="61.8743805571" lon="6.38170555097">
		<tag k="name" v="Skrestølsmyra" />
		<tag k="natural" v="wetland" />
		<tag k="ssr:stedsnr" v="761263" />
	</node>
	<node id="-689178" lat="61.8696749981" lon="6.38031111321">
		<tag k="name" v="Stølsmyra" />
		<tag k="natural" v="wetland" />
		<tag k="ssr:stedsnr" v="761262" />
	</node>
	<node id="-689174" lat="61.7873852053" lon="6.50289898112">
		<tag k="name" v="Mosemyrane" />
		<tag k="natural" v="wetland" />
		<tag k="ssr:stedsnr" v="761226" />
	</node>
	<node id="-690195" lat="61.8972194463" lon="6.62282499577">
		<tag k="name" v="Skarsmyra" />
		<tag k="natural" v="wetland" />
		<tag k="ssr:stedsnr" v="215435" />
	</node>
	<node id="-689787" lat="61.7925249978" lon="6.50855556463">
		<tag k="name" v="Trollevadet" />
		<tag k="natural" v="wetland" />
		<tag k="ssr:stedsnr" v="94365" />
	</node>
	<node id="-688655" lat="61.8873750036" lon="7.16700555924">
		<tag k="name" v="Trongurskarfonna" />
		<tag k="natural" v="glacier" />
		<tag k="ssr:stedsnr" v="374463" />
	</node>
	<node id="-690186" lat="61.8401249981" lon="6.32221111011">
		<tag k="name" v="Storura" />
		<tag k="natural" v="scree" />
		<tag k="ssr:stedsnr" v="215270" />
	</node>
	<node id="-689673" lat="61.892713885" lon="7.02615555083">
		<tag k="name" v="Storeskreda" />
		<tag k="natural" v="scree" />
		<tag k="place" v="locality" />
		<tag k="ssr:stedsnr" v="33374" />
	</node>
	<node id="-690182" lat="61.8654833293" lon="6.3206916703">
		<tag k="name" v="Djuvstein" />
		<tag k="natural" v="stone" />
		<tag k="ssr:stedsnr" v="215255" />
	</node>
	<node id="-690693" lat="61.7668611156" lon="7.01448055999">
		<tag k="name" v="Gjørpa" />
		<tag k="natural" v="glacier" />
		<tag k="ssr:stedsnr" v="627498" />
	</node>
	<node id="-690179" lat="61.9377611104" lon="6.83153888726">
		<tag k="name" v="Skormyrane" />
		<tag k="natural" v="wetland" />
		<tag k="ssr:stedsnr" v="215251" />
	</node>
	<node id="-690178" lat="61.7831194413" lon="6.97745000121">
		<tag k="name" v="Storesteinen" />
		<tag k="natural" v="stone" />
		<tag k="ssr:stedsnr" v="215244" />
	</node>
</osm>
