<?xml version="1.0" encoding="UTF-8"?>
<osm version="0.6" generator="osmapis">
	<node lat="61.87154303769396" lon="6.857662775478138" id="-40631">
		<tag k="alt_name" v="Loen;Loen kirke" />
		<tag k="amenity" v="place_of_worship" />
		<tag k="denomination" v="lutheran" />
		<tag k="name" v="Loen kyrkje" />
		<tag k="religion" v="christian" />
		<tag k="ssr:stedsnr" v="252239" />
	</node>
	<node lat="61.90887500390153" lon="6.821788883914432" id="-40823">
		<tag k="name" v="Staurisætra" />
		<tag k="place" v="locality" />
		<tag k="ssr:stedsnr" v="253342" />
	</node>
	<node lat="61.82738889148188" lon="6.808272223904044" id="-41175">
		<tag k="alt_name" v="Olden" />
		<tag k="amenity" v="place_of_worship" />
		<tag k="denomination" v="lutheran" />
		<tag k="name" v="Olden nye kyrkje" />
		<tag k="religion" v="christian" />
		<tag k="ssr:stedsnr" v="677312" />
	</node>
	<node lat="61.85367777712496" lon="6.617024995200038" id="-41323">
		<tag k="amenity" v="place_of_worship" />
		<tag k="denomination" v="lutheran" />
		<tag k="name" v="Innvik kyrkje" />
		<tag k="religion" v="christian" />
		<tag k="ssr:stedsnr" v="579511" />
	</node>
	<node lat="61.80688889152832" lon="6.520233341818144" id="-41325">
		<tag k="alt_name" v="Utvik kirke" />
		<tag k="amenity" v="place_of_worship" />
		<tag k="denomination" v="lutheran" />
		<tag k="name" v="Utvik kyrkje" />
		<tag k="religion" v="christian" />
		<tag k="ssr:stedsnr" v="579516" />
	</node>
	<node lat="61.86383055391163" lon="6.3209611200396845" id="-41552">
		<tag k="alt_name" v="Randabygd" />
		<tag k="amenity" v="place_of_worship" />
		<tag k="denomination" v="lutheran" />
		<tag k="name" v="Randabygd kyrkje" />
		<tag k="religion" v="christian" />
		<tag k="ssr:stedsnr" v="738011" />
	</node>
	<node lat="61.85166388982355" lon="6.520725002135659" id="-41617">
		<tag k="alt_name" v="Nordsida" />
		<tag k="amenity" v="place_of_worship" />
		<tag k="denomination" v="lutheran" />
		<tag k="name" v="Nordsida kyrkje" />
		<tag k="religion" v="christian" />
		<tag k="ssr:stedsnr" v="799022" />
	</node>
	<node lat="61.8341769205474" lon="6.805642057320846" id="-41867">
		<tag k="amenity" v="place_of_worship" />
		<tag k="denomination" v="lutheran" />
		<tag k="name" v="Olden gamle kyrkje" />
		<tag k="religion" v="christian" />
		<tag k="ssr:stedsnr" v="991235" />
	</node>
	<node lat="61.911086112306755" lon="7.049374997747365" id="-41914">
		<tag k="name" v="Jostedalsbreen nasjonalparksenter" />
		<tag k="ssr:stedsnr" v="27897" />
		<tag k="tourism" v="museum" />
	</node>
	<node lat="61.877138888764584" lon="6.304197228119311" id="-42127">
		<tag k="name" v="Eidsholen" />
		<tag k="place" v="locality" />
		<tag k="ssr:stedsnr" v="131047" />
	</node>
	<node lat="61.81040000447437" lon="6.3650083399857404" id="-42273">
		<tag k="name" v="Gamlestøylen" />
		<tag k="place" v="locality" />
		<tag k="ssr:stedsnr" v="192070" />
	</node>
	<node lat="61.90989793724423" lon="7.055196261483131" id="-42595">
		<tag k="alt_name" v="Oppstryn" />
		<tag k="amenity" v="place_of_worship" />
		<tag k="denomination" v="lutheran" />
		<tag k="name" v="Oppstryn kyrkje" />
		<tag k="religion" v="christian" />
		<tag k="ssr:stedsnr" v="374484" />
	</node>
	<node lat="61.9105861111892" lon="6.586005558337457" id="-43120">
		<tag k="amenity" v="community_centre" />
		<tag k="name" v="Isbakken" />
		<tag k="ssr:stedsnr" v="799951" />
	</node>
	<node lat="61.9188861108783" lon="6.783433328446606" id="-43237">
		<tag k="alt_name" v="Nedstryn" />
		<tag k="amenity" v="place_of_worship" />
		<tag k="denomination" v="lutheran" />
		<tag k="name" v="Nedstryn kyrkje" />
		<tag k="religion" v="christian" />
		<tag k="ssr:stedsnr" v="860340" />
	</node>
</osm>
