<?xml version="1.0" encoding="UTF-8"?>
<osm version="0.6" generator="osmapis">
	<node lat="62.73392710705581" lon="7.14918030614603" id="-5187">
		<tag k="alt_name" v="Møre og Romsdal" />
		<tag k="name" v="Møre og Romsdal fylke" />
		<tag k="ssr:date" v="2021-09-21" />
		<tag k="ssr:gruppe" v="administrativeIndelinger" />
		<tag k="ssr:hovedgruppe" v="offentligAdministrasjon" />
		<tag k="ssr:stedsnr" v="145583" />
		<tag k="ssr:type" v="fylke" />
	</node>
	<node lat="62.76477222261365" lon="8.045394449310477" id="-5249">
		<tag k="name" v="Moddsteinen" />
		<tag k="ssr:date" v="2019-12-27" />
		<tag k="ssr:gruppe" v="farvann" />
		<tag k="ssr:hovedgruppe" v="sjø" />
		<tag k="ssr:stedsnr" v="159451" />
		<tag k="ssr:type" v="fiskeplassISjø" />
	</node>
	<node lat="62.737175003662614" lon="6.72141667113706" id="-5393">
		<tag k="name" v="Buanesleira" />
		<tag k="ssr:date" v="2019-12-27" />
		<tag k="ssr:gruppe" v="sjøbunn" />
		<tag k="ssr:hovedgruppe" v="sjø" />
		<tag k="ssr:stedsnr" v="455046" />
		<tag k="ssr:type" v="bankeISjø" />
	</node>
	<node lat="62.74366944252027" lon="7.266722217540181" id="-5627">
		<tag k="name" v="Årø" />
		<tag k="ssr:date" v="2019-12-27" />
		<tag k="ssr:gruppe" v="navigasjon" />
		<tag k="ssr:hovedgruppe" v="infrastruktur" />
		<tag k="ssr:stedsnr" v="293178" />
		<tag k="ssr:type" v="fyrlykt" />
	</node>
	<node lat="62.71079166606133" lon="7.110900008159682" id="-5808">
		<tag k="name" v="Hjertøytangen" />
		<tag k="ssr:date" v="2019-12-27" />
		<tag k="ssr:gruppe" v="navigasjon" />
		<tag k="ssr:hovedgruppe" v="infrastruktur" />
		<tag k="ssr:stedsnr" v="353163" />
		<tag k="ssr:type" v="fyrlykt" />
	</node>
	<node lat="62.797877775898264" lon="7.624224996298877" id="-6490">
		<tag k="name" v="Romsdal" />
		<tag k="ssr:date" v="2019-12-27" />
		<tag k="ssr:gruppe" v="terrengområder" />
		<tag k="ssr:hovedgruppe" v="terreng" />
		<tag k="ssr:stedsnr" v="603302" />
		<tag k="ssr:type" v="landskapsområde" />
	</node>
	<node lat="62.72445833319324" lon="7.124366671343663" id="-6786">
		<tag k="name" v="Bjørsetholmen" />
		<tag k="ssr:date" v="2019-12-27" />
		<tag k="ssr:gruppe" v="navigasjon" />
		<tag k="ssr:hovedgruppe" v="infrastruktur" />
		<tag k="ssr:stedsnr" v="891036" />
		<tag k="ssr:type" v="lanterne" />
	</node>
	<node lat="62.65730277549148" lon="6.872930549843941" id="-7087">
		<tag k="name" v="Stabbeflua lysbøye" />
		<tag k="ssr:date" v="2019-12-27" />
		<tag k="ssr:gruppe" v="navigasjon" />
		<tag k="ssr:hovedgruppe" v="infrastruktur" />
		<tag k="ssr:stedsnr" v="769128" />
		<tag k="ssr:type" v="lysbøye" />
	</node>
	<node lat="62.662372218971115" lon="6.571102787497435" id="-7459">
		<tag k="name" v="Drønesundvågen" />
		<tag k="ssr:date" v="2019-12-27" />
		<tag k="ssr:gruppe" v="navigasjon" />
		<tag k="ssr:hovedgruppe" v="infrastruktur" />
		<tag k="ssr:stedsnr" v="900611" />
		<tag k="ssr:type" v="fyrlykt" />
	</node>
	<node lat="62.75980278217784" lon="6.895827784088108" id="-7539">
		<tag k="name" v="Forholmdjupet" />
		<tag k="ssr:date" v="2019-12-27" />
		<tag k="ssr:gruppe" v="sjøbunn" />
		<tag k="ssr:hovedgruppe" v="sjø" />
		<tag k="ssr:stedsnr" v="946397" />
		<tag k="ssr:type" v="havdyp" />
	</node>
	<node lat="62.748024997650504" lon="8.011380564736704" id="-7773">
		<tag k="name" v="Egga" />
		<tag k="ssr:date" v="2019-12-27" />
		<tag k="ssr:gruppe" v="farvann" />
		<tag k="ssr:hovedgruppe" v="sjø" />
		<tag k="ssr:stedsnr" v="37091" />
		<tag k="ssr:type" v="fiskeplassISjø" />
	</node>
	<node lat="62.73886388993055" lon="6.7419527790116005" id="-7866">
		<tag k="name" v="Klepskjær" />
		<tag k="ssr:date" v="2019-12-27" />
		<tag k="ssr:gruppe" v="navigasjon" />
		<tag k="ssr:hovedgruppe" v="infrastruktur" />
		<tag k="ssr:stedsnr" v="51150" />
		<tag k="ssr:type" v="fyrlykt" />
	</node>
	<node lat="62.69360833349945" lon="7.981461107500885" id="-8082">
		<tag k="name" v="Øygardsvegen" />
		<tag k="ssr:date" v="2019-12-27" />
		<tag k="ssr:gruppe" v="veg" />
		<tag k="ssr:hovedgruppe" v="infrastruktur" />
		<tag k="ssr:stedsnr" v="98892" />
		<tag k="ssr:type" v="vegstrekning" />
	</node>
	<node lat="62.73498611067904" lon="6.968552772112849" id="-8102">
		<tag k="name" v="Julholmen" />
		<tag k="ssr:date" v="2019-12-27" />
		<tag k="ssr:gruppe" v="navigasjon" />
		<tag k="ssr:hovedgruppe" v="infrastruktur" />
		<tag k="ssr:stedsnr" v="111126" />
		<tag k="ssr:type" v="fyrlykt" />
	</node>
	<node lat="62.737336111237674" lon="7.361330564053261" id="-8103">
		<tag k="name" v="Dvergsnes" />
		<tag k="ssr:date" v="2019-12-27" />
		<tag k="ssr:gruppe" v="navigasjon" />
		<tag k="ssr:hovedgruppe" v="infrastruktur" />
		<tag k="ssr:stedsnr" v="111879" />
		<tag k="ssr:type" v="fyrlykt" />
	</node>
	<node lat="62.71224444346811" lon="7.928600008757812" id="-9216">
		<tag k="name" v="Langedalsvegen" />
		<tag k="ssr:date" v="2019-12-27" />
		<tag k="ssr:gruppe" v="veg" />
		<tag k="ssr:hovedgruppe" v="infrastruktur" />
		<tag k="ssr:stedsnr" v="401938" />
		<tag k="ssr:type" v="vegstrekning" />
	</node>
	<node lat="62.6373500010022" lon="6.518694447868123" id="-9238">
		<tag k="name" v="Drønenholmen" />
		<tag k="ssr:date" v="2019-12-27" />
		<tag k="ssr:gruppe" v="navigasjon" />
		<tag k="ssr:hovedgruppe" v="infrastruktur" />
		<tag k="ssr:stedsnr" v="415908" />
		<tag k="ssr:type" v="fyrlykt" />
	</node>
	<node lat="62.75793055146739" lon="8.01461944570197" id="-9739">
		<tag k="name" v="Prestgrunna" />
		<tag k="ssr:date" v="2019-12-27" />
		<tag k="ssr:gruppe" v="farvann" />
		<tag k="ssr:hovedgruppe" v="sjø" />
		<tag k="ssr:stedsnr" v="583387" />
		<tag k="ssr:type" v="fiskeplassISjø" />
	</node>
	<node lat="62.803894441423665" lon="8.172708341691257" id="-9966">
		<tag k="name" v="Djuphølen" />
		<tag k="ssr:date" v="2019-12-27" />
		<tag k="ssr:gruppe" v="sjøbunn" />
		<tag k="ssr:hovedgruppe" v="sjø" />
		<tag k="ssr:stedsnr" v="644271" />
		<tag k="ssr:type" v="søkkISjø" />
	</node>
	<node lat="62.723363888886325" lon="7.097672219245701" id="-10003">
		<tag k="name" v="Mekgrunnen" />
		<tag k="ssr:date" v="2019-12-27" />
		<tag k="ssr:gruppe" v="navigasjon" />
		<tag k="ssr:hovedgruppe" v="infrastruktur" />
		<tag k="ssr:stedsnr" v="647036" />
		<tag k="ssr:type" v="lanterne" />
	</node>
	<node lat="62.79506944419083" lon="8.285386103041478" id="-10015">
		<tag k="name" v="Meløy" />
		<tag k="ssr:date" v="2019-12-27" />
		<tag k="ssr:gruppe" v="navigasjon" />
		<tag k="ssr:hovedgruppe" v="infrastruktur" />
		<tag k="ssr:stedsnr" v="716557" />
		<tag k="ssr:type" v="fyrlykt" />
	</node>
	<node lat="62.67246110856765" lon="6.871922230559309" id="-10021">
		<tag k="name" v="Storbrauta" />
		<tag k="ssr:date" v="2019-12-27" />
		<tag k="ssr:gruppe" v="sjøbunn" />
		<tag k="ssr:hovedgruppe" v="sjø" />
		<tag k="ssr:stedsnr" v="718727" />
		<tag k="ssr:type" v="bakkeISjø" />
	</node>
	<node lat="62.715663892284304" lon="7.223341658889734" id="-10025">
		<tag k="name" v="Klaveråsa" />
		<tag k="ssr:date" v="2019-12-27" />
		<tag k="ssr:gruppe" v="sjøbunn" />
		<tag k="ssr:hovedgruppe" v="sjø" />
		<tag k="ssr:stedsnr" v="725851" />
		<tag k="ssr:type" v="renneKløftISjø" />
	</node>
	<node lat="62.71544166387773" lon="7.928233330267149" id="-10199">
		<tag k="name" v="Langevegen" />
		<tag k="ssr:date" v="2019-12-27" />
		<tag k="ssr:gruppe" v="veg" />
		<tag k="ssr:hovedgruppe" v="infrastruktur" />
		<tag k="ssr:stedsnr" v="765951" />
		<tag k="ssr:type" v="vegstrekning" />
	</node>
	<node lat="62.73806388747001" lon="7.158813889704271" id="-10307">
		<tag k="alt_name" v="Molde" />
		<tag k="name" v="Molde kommune" />
		<tag k="ssr:date" v="2019-12-27" />
		<tag k="ssr:gruppe" v="administrativeIndelinger" />
		<tag k="ssr:hovedgruppe" v="offentligAdministrasjon" />
		<tag k="ssr:stedsnr" v="814760" />
		<tag k="ssr:type" v="kommune" />
	</node>
	<node lat="62.793491670498916" lon="8.216802781587582" id="-10412">
		<tag k="name" v="Svensligrunna" />
		<tag k="ssr:date" v="2019-12-27" />
		<tag k="ssr:gruppe" v="farvann" />
		<tag k="ssr:hovedgruppe" v="sjø" />
		<tag k="ssr:stedsnr" v="827391" />
		<tag k="ssr:type" v="fiskeplassISjø" />
	</node>
	<node lat="62.717119444804936" lon="8.122052778518892" id="-10469">
		<tag k="name" v="Eresfjorden" />
		<tag k="ssr:date" v="2019-12-27" />
		<tag k="ssr:gruppe" v="navigasjon" />
		<tag k="ssr:hovedgruppe" v="infrastruktur" />
		<tag k="ssr:stedsnr" v="840890" />
		<tag k="ssr:type" v="fyrlykt" />
	</node>
	<node lat="62.7326277797535" lon="7.151441661348245" id="-10893">
		<tag k="name" v="Molde havnelykt" />
		<tag k="ssr:date" v="2019-12-27" />
		<tag k="ssr:gruppe" v="navigasjon" />
		<tag k="ssr:hovedgruppe" v="infrastruktur" />
		<tag k="ssr:stedsnr" v="961318" />
		<tag k="ssr:type" v="fyrlykt" />
	</node>
	<node lat="62.67786666501382" lon="7.448216671295336" id="-10894">
		<tag k="name" v="Sølsnesholmene" />
		<tag k="ssr:date" v="2019-12-27" />
		<tag k="ssr:gruppe" v="navigasjon" />
		<tag k="ssr:hovedgruppe" v="infrastruktur" />
		<tag k="ssr:stedsnr" v="961966" />
		<tag k="ssr:type" v="fyrlykt" />
	</node>
	<node lat="62.6639619957204" lon="6.590738555297835" id="-10966">
		<tag k="name" v="Båtvikvegen" />
		<tag k="old_name" v="Storvikvegen" />
		<tag k="ssr:date" v="2019-12-27" />
		<tag k="ssr:gruppe" v="veg" />
		<tag k="ssr:hovedgruppe" v="infrastruktur" />
		<tag k="ssr:stedsnr" v="992789" />
		<tag k="ssr:type" v="adressenavn" />
	</node>
	<node lat="62.74085477032586" lon="7.185204425888875" id="-10986">
		<tag k="name" v="Fuglsetvegen" />
		<tag k="ssr:date" v="2019-12-27" />
		<tag k="ssr:gruppe" v="veg" />
		<tag k="ssr:hovedgruppe" v="infrastruktur" />
		<tag k="ssr:stedsnr" v="1057588" />
		<tag k="ssr:type" v="adressenavn" />
	</node>
	<node lat="62.78548306936206" lon="7.536527044329935" id="-10987">
		<tag k="name" v="Høglivegen" />
		<tag k="ssr:date" v="2019-12-27" />
		<tag k="ssr:gruppe" v="veg" />
		<tag k="ssr:hovedgruppe" v="infrastruktur" />
		<tag k="ssr:stedsnr" v="1057630" />
		<tag k="ssr:type" v="adressenavn" />
	</node>
	<node lat="62.7415112186389" lon="7.1850109175579275" id="-10988">
		<tag k="name" v="Boråsvegen" />
		<tag k="ssr:date" v="2019-12-27" />
		<tag k="ssr:gruppe" v="veg" />
		<tag k="ssr:hovedgruppe" v="infrastruktur" />
		<tag k="ssr:stedsnr" v="1056659" />
		<tag k="ssr:type" v="adressenavn" />
	</node>
	<node lat="62.730941169469084" lon="7.4229749320317735" id="-10989">
		<tag k="name" v="Borvikvegen" />
		<tag k="ssr:date" v="2019-12-27" />
		<tag k="ssr:gruppe" v="veg" />
		<tag k="ssr:hovedgruppe" v="infrastruktur" />
		<tag k="ssr:stedsnr" v="1056672" />
		<tag k="ssr:type" v="adressenavn" />
	</node>
	<node lat="62.75412701766658" lon="7.247130014091744" id="-10990">
		<tag k="name" v="Blåmeisvegen" />
		<tag k="ssr:date" v="2019-12-27" />
		<tag k="ssr:gruppe" v="veg" />
		<tag k="ssr:hovedgruppe" v="infrastruktur" />
		<tag k="ssr:stedsnr" v="1056674" />
		<tag k="ssr:type" v="adressenavn" />
	</node>
	<node lat="62.741562976952814" lon="7.189676939877761" id="-10991">
		<tag k="name" v="Bolsøyvegen" />
		<tag k="ssr:date" v="2019-12-27" />
		<tag k="ssr:gruppe" v="veg" />
		<tag k="ssr:hovedgruppe" v="infrastruktur" />
		<tag k="ssr:stedsnr" v="1056679" />
		<tag k="ssr:type" v="adressenavn" />
	</node>
	<node lat="62.755155431317355" lon="7.243352801070923" id="-10992">
		<tag k="name" v="Bokfinkvegen" />
		<tag k="ssr:date" v="2019-12-27" />
		<tag k="ssr:gruppe" v="veg" />
		<tag k="ssr:hovedgruppe" v="infrastruktur" />
		<tag k="ssr:stedsnr" v="1056680" />
		<tag k="ssr:type" v="adressenavn" />
	</node>
	<node lat="62.73506593900084" lon="7.151522986031524" id="-10993">
		<tag k="name" v="Bjørnstjerne Bjørnsons veg" />
		<tag k="ssr:date" v="2019-12-27" />
		<tag k="ssr:gruppe" v="veg" />
		<tag k="ssr:hovedgruppe" v="infrastruktur" />
		<tag k="ssr:stedsnr" v="1056684" />
		<tag k="ssr:type" v="adressenavn" />
	</node>
	<node lat="62.75045699205755" lon="7.267269415855781" id="-10994">
		<tag k="name" v="Bjørnebakken" />
		<tag k="ssr:date" v="2019-12-27" />
		<tag k="ssr:gruppe" v="veg" />
		<tag k="ssr:hovedgruppe" v="infrastruktur" />
		<tag k="ssr:stedsnr" v="1056685" />
		<tag k="ssr:type" v="adressenavn" />
	</node>
	<node lat="62.73946290311218" lon="7.170982393939721" id="-10995">
		<tag k="name" v="Fjellbruvegen" />
		<tag k="ssr:date" v="2019-12-27" />
		<tag k="ssr:gruppe" v="veg" />
		<tag k="ssr:hovedgruppe" v="infrastruktur" />
		<tag k="ssr:stedsnr" v="1056791" />
		<tag k="ssr:type" v="adressenavn" />
	</node>
	<node lat="62.74463968242175" lon="7.220275793455397" id="-10996">
		<tag k="name" v="Bjørkevegen" />
		<tag k="ssr:date" v="2019-12-27" />
		<tag k="ssr:gruppe" v="veg" />
		<tag k="ssr:hovedgruppe" v="infrastruktur" />
		<tag k="ssr:stedsnr" v="1056687" />
		<tag k="ssr:type" v="adressenavn" />
	</node>
	<node lat="62.753063691570496" lon="7.243336480550825" id="-10997">
		<tag k="name" v="Bjørkfinkvegen" />
		<tag k="ssr:date" v="2019-12-27" />
		<tag k="ssr:gruppe" v="veg" />
		<tag k="ssr:hovedgruppe" v="infrastruktur" />
		<tag k="ssr:stedsnr" v="1056688" />
		<tag k="ssr:type" v="adressenavn" />
	</node>
	<node lat="62.73894186196613" lon="7.128606877382538" id="-10998">
		<tag k="name" v="Bjørsetalleen" />
		<tag k="ssr:date" v="2019-12-27" />
		<tag k="ssr:gruppe" v="veg" />
		<tag k="ssr:hovedgruppe" v="infrastruktur" />
		<tag k="ssr:stedsnr" v="1056692" />
		<tag k="ssr:type" v="adressenavn" />
	</node>
	<node lat="62.73561163946968" lon="7.120261487081277" id="-10999">
		<tag k="name" v="Bjørsetbovegen" />
		<tag k="ssr:date" v="2019-12-27" />
		<tag k="ssr:gruppe" v="veg" />
		<tag k="ssr:hovedgruppe" v="infrastruktur" />
		<tag k="ssr:stedsnr" v="1056693" />
		<tag k="ssr:type" v="adressenavn" />
	</node>
	<node lat="62.73897413228047" lon="7.1321836043518445" id="-11000">
		<tag k="name" v="Blomstervegen" />
		<tag k="ssr:date" v="2019-12-27" />
		<tag k="ssr:gruppe" v="veg" />
		<tag k="ssr:hovedgruppe" v="infrastruktur" />
		<tag k="ssr:stedsnr" v="1056696" />
		<tag k="ssr:type" v="adressenavn" />
	</node>
	<node lat="62.73820146893598" lon="7.137411519972949" id="-11001">
		<tag k="name" v="Cecilienfrydvegen" />
		<tag k="ssr:date" v="2019-12-27" />
		<tag k="ssr:gruppe" v="veg" />
		<tag k="ssr:hovedgruppe" v="infrastruktur" />
		<tag k="ssr:stedsnr" v="1056700" />
		<tag k="ssr:type" v="adressenavn" />
	</node>
	<node lat="62.74167666307864" lon="7.168326356629718" id="-11002">
		<tag k="name" v="Damvegen" />
		<tag k="ssr:date" v="2019-12-27" />
		<tag k="ssr:gruppe" v="veg" />
		<tag k="ssr:hovedgruppe" v="infrastruktur" />
		<tag k="ssr:stedsnr" v="1056706" />
		<tag k="ssr:type" v="adressenavn" />
	</node>
	<node lat="62.73542754449216" lon="7.104988562070733" id="-11003">
		<tag k="name" v="Britvegen" />
		<tag k="ssr:date" v="2019-12-27" />
		<tag k="ssr:gruppe" v="veg" />
		<tag k="ssr:hovedgruppe" v="infrastruktur" />
		<tag k="ssr:stedsnr" v="1056708" />
		<tag k="ssr:type" v="adressenavn" />
	</node>
	<node lat="62.73562872095186" lon="7.154931948501218" id="-11004">
		<tag k="name" v="Byfogd Motzfeldts gate" />
		<tag k="ssr:date" v="2019-12-27" />
		<tag k="ssr:gruppe" v="veg" />
		<tag k="ssr:hovedgruppe" v="infrastruktur" />
		<tag k="ssr:stedsnr" v="1056709" />
		<tag k="ssr:type" v="adressenavn" />
	</node>
	<node lat="62.71873964813896" lon="7.427715119296766" id="-11005">
		<tag k="name" v="Brubakken" />
		<tag k="ssr:date" v="2019-12-27" />
		<tag k="ssr:gruppe" v="veg" />
		<tag k="ssr:hovedgruppe" v="infrastruktur" />
		<tag k="ssr:stedsnr" v="1056710" />
		<tag k="ssr:type" v="adressenavn" />
	</node>
	<node lat="62.74861453745629" lon="7.220173483141238" id="-11006">
		<tag k="name" v="Brattåsen" />
		<tag k="ssr:date" v="2019-12-27" />
		<tag k="ssr:gruppe" v="veg" />
		<tag k="ssr:hovedgruppe" v="infrastruktur" />
		<tag k="ssr:stedsnr" v="1056718" />
		<tag k="ssr:type" v="adressenavn" />
	</node>
	<node lat="62.740317691932134" lon="7.137073177850914" id="-11007">
		<tag k="name" v="Brattlivegen" />
		<tag k="ssr:date" v="2019-12-27" />
		<tag k="ssr:gruppe" v="veg" />
		<tag k="ssr:hovedgruppe" v="infrastruktur" />
		<tag k="ssr:stedsnr" v="1056732" />
		<tag k="ssr:type" v="adressenavn" />
	</node>
	<node lat="62.748439700902765" lon="7.21400680863732" id="-11009">
		<tag k="name" v="Bergsvingen" />
		<tag k="ssr:date" v="2019-12-27" />
		<tag k="ssr:gruppe" v="veg" />
		<tag k="ssr:hovedgruppe" v="infrastruktur" />
		<tag k="ssr:stedsnr" v="1056742" />
		<tag k="ssr:type" v="adressenavn" />
	</node>
	<node lat="62.73496013128928" lon="7.1386597093462285" id="-11010">
		<tag k="name" v="Bergvegen" />
		<tag k="ssr:date" v="2019-12-27" />
		<tag k="ssr:gruppe" v="veg" />
		<tag k="ssr:hovedgruppe" v="infrastruktur" />
		<tag k="ssr:stedsnr" v="1056744" />
		<tag k="ssr:type" v="adressenavn" />
	</node>
	<node lat="62.744386226879875" lon="7.199491988662179" id="-11011">
		<tag k="name" v="Birkelandvegen" />
		<tag k="ssr:date" v="2019-12-27" />
		<tag k="ssr:gruppe" v="veg" />
		<tag k="ssr:hovedgruppe" v="infrastruktur" />
		<tag k="ssr:stedsnr" v="1056749" />
		<tag k="ssr:type" v="adressenavn" />
	</node>
	<node lat="62.73800426367334" lon="7.142142668252595" id="-11012">
		<tag k="name" v="Bekkevollvegen" />
		<tag k="ssr:date" v="2019-12-27" />
		<tag k="ssr:gruppe" v="veg" />
		<tag k="ssr:hovedgruppe" v="infrastruktur" />
		<tag k="ssr:stedsnr" v="1056754" />
		<tag k="ssr:type" v="adressenavn" />
	</node>
	<node lat="62.748132066988695" lon="7.218785941514709" id="-11013">
		<tag k="name" v="Bergsbakken" />
		<tag k="ssr:date" v="2019-12-27" />
		<tag k="ssr:gruppe" v="veg" />
		<tag k="ssr:hovedgruppe" v="infrastruktur" />
		<tag k="ssr:stedsnr" v="1056755" />
		<tag k="ssr:type" v="adressenavn" />
	</node>
	<node lat="62.74362317258058" lon="7.218580837813501" id="-11014">
		<tag k="name" v="Bergmovegen" />
		<tag k="ssr:date" v="2019-12-27" />
		<tag k="ssr:gruppe" v="veg" />
		<tag k="ssr:hovedgruppe" v="infrastruktur" />
		<tag k="ssr:stedsnr" v="1056757" />
		<tag k="ssr:type" v="adressenavn" />
	</node>
	<node lat="62.738962359703976" lon="7.172034584096935" id="-11015">
		<tag k="name" v="Bastian Widths gate" />
		<tag k="ssr:date" v="2019-12-27" />
		<tag k="ssr:gruppe" v="veg" />
		<tag k="ssr:hovedgruppe" v="infrastruktur" />
		<tag k="ssr:stedsnr" v="1056759" />
		<tag k="ssr:type" v="adressenavn" />
	</node>
	<node lat="62.74963126803339" lon="7.230285703066734" id="-11016">
		<tag k="name" v="Fjellvegen" />
		<tag k="ssr:date" v="2019-12-27" />
		<tag k="ssr:gruppe" v="veg" />
		<tag k="ssr:hovedgruppe" v="infrastruktur" />
		<tag k="ssr:stedsnr" v="1056774" />
		<tag k="ssr:type" v="adressenavn" />
	</node>
	<node lat="62.74557471049161" lon="7.200682373706575" id="-11017">
		<tag k="name" v="Fjellskaret" />
		<tag k="ssr:date" v="2019-12-27" />
		<tag k="ssr:gruppe" v="veg" />
		<tag k="ssr:hovedgruppe" v="infrastruktur" />
		<tag k="ssr:stedsnr" v="1056776" />
		<tag k="ssr:type" v="adressenavn" />
	</node>
	<node lat="62.74365407895645" lon="7.196504956533637" id="-11018">
		<tag k="name" v="Fasanvegen" />
		<tag k="ssr:date" v="2019-12-27" />
		<tag k="ssr:gruppe" v="veg" />
		<tag k="ssr:hovedgruppe" v="infrastruktur" />
		<tag k="ssr:stedsnr" v="1056783" />
		<tag k="ssr:type" v="adressenavn" />
	</node>
	<node lat="62.74002572258016" lon="7.215378570737191" id="-11019">
		<tag k="name" v="Fannestrandvegen" />
		<tag k="ssr:date" v="2019-12-27" />
		<tag k="ssr:gruppe" v="veg" />
		<tag k="ssr:hovedgruppe" v="infrastruktur" />
		<tag k="ssr:stedsnr" v="1057027" />
		<tag k="ssr:type" v="adressenavn" />
	</node>
	<node lat="62.74391887783505" lon="7.166445118815759" id="-11020">
		<tag k="name" v="Farstadbakken" />
		<tag k="ssr:date" v="2019-12-27" />
		<tag k="ssr:gruppe" v="veg" />
		<tag k="ssr:hovedgruppe" v="infrastruktur" />
		<tag k="ssr:stedsnr" v="1056813" />
		<tag k="ssr:type" v="adressenavn" />
	</node>
	<node lat="62.73572758863014" lon="7.157394025123581" id="-11021">
		<tag k="name" v="Fløtmannsgata" />
		<tag k="ssr:date" v="2019-12-27" />
		<tag k="ssr:gruppe" v="veg" />
		<tag k="ssr:hovedgruppe" v="infrastruktur" />
		<tag k="ssr:stedsnr" v="1056886" />
		<tag k="ssr:type" v="adressenavn" />
	</node>
	<node lat="62.73727342528079" lon="7.085518016010794" id="-11022">
		<tag k="name" v="Forhjellen" />
		<tag k="ssr:date" v="2019-12-27" />
		<tag k="ssr:gruppe" v="veg" />
		<tag k="ssr:hovedgruppe" v="infrastruktur" />
		<tag k="ssr:stedsnr" v="1056896" />
		<tag k="ssr:type" v="adressenavn" />
	</node>
	<node lat="62.78661398145339" lon="7.529930324942429" id="-11023">
		<tag k="name" v="Framvegen" />
		<tag k="ssr:date" v="2019-12-27" />
		<tag k="ssr:gruppe" v="veg" />
		<tag k="ssr:hovedgruppe" v="infrastruktur" />
		<tag k="ssr:stedsnr" v="1056901" />
		<tag k="ssr:type" v="adressenavn" />
	</node>
	<node lat="62.752794847712074" lon="7.243744056755384" id="-11024">
		<tag k="name" v="Flaggspettvegen" />
		<tag k="ssr:date" v="2019-12-27" />
		<tag k="ssr:gruppe" v="veg" />
		<tag k="ssr:hovedgruppe" v="infrastruktur" />
		<tag k="ssr:stedsnr" v="1056909" />
		<tag k="ssr:type" v="adressenavn" />
	</node>
	<node lat="62.75326630189139" lon="7.239581637949201" id="-11025">
		<tag k="name" v="Fjellvåkvegen" />
		<tag k="ssr:date" v="2019-12-27" />
		<tag k="ssr:gruppe" v="veg" />
		<tag k="ssr:hovedgruppe" v="infrastruktur" />
		<tag k="ssr:stedsnr" v="1056917" />
		<tag k="ssr:type" v="adressenavn" />
	</node>
	<node lat="62.73667211275654" lon="7.157136408461702" id="-11026">
		<tag k="name" v="Fjordgata" />
		<tag k="ssr:date" v="2019-12-27" />
		<tag k="ssr:gruppe" v="veg" />
		<tag k="ssr:hovedgruppe" v="infrastruktur" />
		<tag k="ssr:stedsnr" v="1056922" />
		<tag k="ssr:type" v="adressenavn" />
	</node>
	<node lat="62.738560363648375" lon="7.167361901376835" id="-11027">
		<tag k="name" v="Fabrikkvegen" />
		<tag k="ssr:date" v="2019-12-27" />
		<tag k="ssr:gruppe" v="veg" />
		<tag k="ssr:hovedgruppe" v="infrastruktur" />
		<tag k="ssr:stedsnr" v="1056930" />
		<tag k="ssr:type" v="adressenavn" />
	</node>
	<node lat="62.74936760115474" lon="7.234891763430544" id="-11028">
		<tag k="name" v="Faret" />
		<tag k="ssr:date" v="2019-12-27" />
		<tag k="ssr:gruppe" v="veg" />
		<tag k="ssr:hovedgruppe" v="infrastruktur" />
		<tag k="ssr:stedsnr" v="1056869" />
		<tag k="ssr:type" v="adressenavn" />
	</node>
	<node lat="62.738609770256694" lon="7.163613054539679" id="-11029">
		<tag k="name" v="Fridtjof Nansens gate" />
		<tag k="ssr:date" v="2019-12-27" />
		<tag k="ssr:gruppe" v="veg" />
		<tag k="ssr:hovedgruppe" v="infrastruktur" />
		<tag k="ssr:stedsnr" v="1056881" />
		<tag k="ssr:type" v="adressenavn" />
	</node>
	<node lat="62.73969800324809" lon="7.1982020276326315" id="-11030">
		<tag k="name" v="Enenvegen" />
		<tag k="ssr:date" v="2019-12-27" />
		<tag k="ssr:gruppe" v="veg" />
		<tag k="ssr:hovedgruppe" v="infrastruktur" />
		<tag k="ssr:stedsnr" v="1056943" />
		<tag k="ssr:type" v="adressenavn" />
	</node>
	<node lat="62.74639338572804" lon="7.206020395310622" id="-11031">
		<tag k="name" v="Elvaskaret" />
		<tag k="ssr:date" v="2019-12-27" />
		<tag k="ssr:gruppe" v="veg" />
		<tag k="ssr:hovedgruppe" v="infrastruktur" />
		<tag k="ssr:stedsnr" v="1056948" />
		<tag k="ssr:type" v="adressenavn" />
	</node>
	<node lat="62.738974901108335" lon="7.166323123669775" id="-11032">
		<tag k="name" v="Elvegata" />
		<tag k="ssr:date" v="2019-12-27" />
		<tag k="ssr:gruppe" v="veg" />
		<tag k="ssr:hovedgruppe" v="infrastruktur" />
		<tag k="ssr:stedsnr" v="1056951" />
		<tag k="ssr:type" v="adressenavn" />
	</node>
	<node lat="62.747027369833056" lon="7.206562605027684" id="-11033">
		<tag k="name" v="Dyrkornbakken" />
		<tag k="ssr:date" v="2019-12-27" />
		<tag k="ssr:gruppe" v="veg" />
		<tag k="ssr:hovedgruppe" v="infrastruktur" />
		<tag k="ssr:stedsnr" v="1056957" />
		<tag k="ssr:type" v="adressenavn" />
	</node>
	<node lat="62.729358597874395" lon="7.318857716051865" id="-11034">
		<tag k="name" v="Dragarøra" />
		<tag k="ssr:date" v="2019-12-27" />
		<tag k="ssr:gruppe" v="veg" />
		<tag k="ssr:hovedgruppe" v="infrastruktur" />
		<tag k="ssr:stedsnr" v="1056958" />
		<tag k="ssr:type" v="adressenavn" />
	</node>
	<node lat="62.749514409427945" lon="7.233312169596027" id="-11035">
		<tag k="name" v="Fanneenga" />
		<tag k="ssr:date" v="2019-12-27" />
		<tag k="ssr:gruppe" v="veg" />
		<tag k="ssr:hovedgruppe" v="infrastruktur" />
		<tag k="ssr:stedsnr" v="1056976" />
		<tag k="ssr:type" v="adressenavn" />
	</node>
	<node lat="62.74909554152852" lon="7.237954261810628" id="-11036">
		<tag k="name" v="Fannebostadvegen" />
		<tag k="ssr:date" v="2019-12-27" />
		<tag k="ssr:gruppe" v="veg" />
		<tag k="ssr:hovedgruppe" v="infrastruktur" />
		<tag k="ssr:stedsnr" v="1057101" />
		<tag k="ssr:type" v="adressenavn" />
	</node>
	<node lat="62.73877071997901" lon="7.166163114081858" id="-11037">
		<tag k="name" v="Fagerlivegen" />
		<tag k="ssr:date" v="2019-12-27" />
		<tag k="ssr:gruppe" v="veg" />
		<tag k="ssr:hovedgruppe" v="infrastruktur" />
		<tag k="ssr:stedsnr" v="1057114" />
		<tag k="ssr:type" v="adressenavn" />
	</node>
	<node lat="62.750303576786855" lon="7.234216637076042" id="-11038">
		<tag k="name" v="Fannebakken" />
		<tag k="ssr:date" v="2019-12-27" />
		<tag k="ssr:gruppe" v="veg" />
		<tag k="ssr:hovedgruppe" v="infrastruktur" />
		<tag k="ssr:stedsnr" v="1057117" />
		<tag k="ssr:type" v="adressenavn" />
	</node>
	<node lat="62.737299668878855" lon="7.178696426829235" id="-11039">
		<tag k="name" v="Fannebovegen" />
		<tag k="ssr:date" v="2019-12-27" />
		<tag k="ssr:gruppe" v="veg" />
		<tag k="ssr:hovedgruppe" v="infrastruktur" />
		<tag k="ssr:stedsnr" v="1057043" />
		<tag k="ssr:type" v="adressenavn" />
	</node>
	<node lat="62.73805025832347" lon="7.164541602209812" id="-11040">
		<tag k="name" v="Gotfred Lies plass" />
		<tag k="ssr:date" v="2019-12-27" />
		<tag k="ssr:gruppe" v="veg" />
		<tag k="ssr:hovedgruppe" v="infrastruktur" />
		<tag k="ssr:stedsnr" v="1057149" />
		<tag k="ssr:type" v="adressenavn" />
	</node>
	<node lat="62.737386518562545" lon="7.143328402552643" id="-11042">
		<tag k="name" v="Glomstuvegen" />
		<tag k="ssr:date" v="2019-12-27" />
		<tag k="ssr:gruppe" v="veg" />
		<tag k="ssr:hovedgruppe" v="infrastruktur" />
		<tag k="ssr:stedsnr" v="1057236" />
		<tag k="ssr:type" v="adressenavn" />
	</node>
	<node lat="62.73663675038942" lon="7.155207192960767" id="-11043">
		<tag k="name" v="Gørvellalleen" />
		<tag k="ssr:date" v="2019-12-27" />
		<tag k="ssr:gruppe" v="veg" />
		<tag k="ssr:hovedgruppe" v="infrastruktur" />
		<tag k="ssr:stedsnr" v="1057242" />
		<tag k="ssr:type" v="adressenavn" />
	</node>
	<node lat="62.73999286423478" lon="7.2004839311594635" id="-11044">
		<tag k="name" v="Fuglsetbakken" />
		<tag k="ssr:date" v="2019-12-27" />
		<tag k="ssr:gruppe" v="veg" />
		<tag k="ssr:hovedgruppe" v="infrastruktur" />
		<tag k="ssr:stedsnr" v="1057297" />
		<tag k="ssr:type" v="adressenavn" />
	</node>
	<node lat="62.73929231894487" lon="7.170711655261922" id="-11045">
		<tag k="name" v="Frænavegen" />
		<tag k="ssr:date" v="2019-12-27" />
		<tag k="ssr:gruppe" v="veg" />
		<tag k="ssr:hovedgruppe" v="infrastruktur" />
		<tag k="ssr:stedsnr" v="1057307" />
		<tag k="ssr:type" v="adressenavn" />
	</node>
	<node lat="62.734236071194886" lon="7.152397764202541" id="-11046">
		<tag k="name" v="Friervegen" />
		<tag k="ssr:date" v="2019-12-27" />
		<tag k="ssr:gruppe" v="veg" />
		<tag k="ssr:hovedgruppe" v="infrastruktur" />
		<tag k="ssr:stedsnr" v="1057308" />
		<tag k="ssr:type" v="adressenavn" />
	</node>
	<node lat="62.73702826824854" lon="7.155490239536767" id="-11047">
		<tag k="name" v="Gartnerivegen" />
		<tag k="ssr:date" v="2019-12-27" />
		<tag k="ssr:gruppe" v="veg" />
		<tag k="ssr:hovedgruppe" v="infrastruktur" />
		<tag k="ssr:stedsnr" v="1057340" />
		<tag k="ssr:type" v="adressenavn" />
	</node>
	<node lat="62.74492487947078" lon="7.179809795531158" id="-11048">
		<tag k="name" v="Granlia" />
		<tag k="ssr:date" v="2019-12-27" />
		<tag k="ssr:gruppe" v="veg" />
		<tag k="ssr:hovedgruppe" v="infrastruktur" />
		<tag k="ssr:stedsnr" v="1057265" />
		<tag k="ssr:type" v="adressenavn" />
	</node>
	<node lat="62.73728267069493" lon="7.1778821250773674" id="-11049">
		<tag k="name" v="Grandvegen" />
		<tag k="ssr:date" v="2019-12-27" />
		<tag k="ssr:gruppe" v="veg" />
		<tag k="ssr:hovedgruppe" v="infrastruktur" />
		<tag k="ssr:stedsnr" v="1057271" />
		<tag k="ssr:type" v="adressenavn" />
	</node>
	<node lat="62.74900408995902" lon="7.223137287587551" id="-11050">
		<tag k="name" v="Gamlevegen" />
		<tag k="ssr:date" v="2019-12-27" />
		<tag k="ssr:gruppe" v="veg" />
		<tag k="ssr:hovedgruppe" v="infrastruktur" />
		<tag k="ssr:stedsnr" v="1057448" />
		<tag k="ssr:type" v="adressenavn" />
	</node>
	<node lat="62.76639784640691" lon="7.2761624242119645" id="-11051">
		<tag k="name" v="Gammelseterlia" />
		<tag k="ssr:date" v="2019-12-27" />
		<tag k="ssr:gruppe" v="veg" />
		<tag k="ssr:hovedgruppe" v="infrastruktur" />
		<tag k="ssr:stedsnr" v="1057494" />
		<tag k="ssr:type" v="adressenavn" />
	</node>
	<node lat="62.741189279860734" lon="7.162876980535955" id="-11052">
		<tag k="name" v="Henrik Ibsens veg" />
		<tag k="ssr:date" v="2019-12-27" />
		<tag k="ssr:gruppe" v="veg" />
		<tag k="ssr:hovedgruppe" v="infrastruktur" />
		<tag k="ssr:stedsnr" v="1057688" />
		<tag k="ssr:type" v="adressenavn" />
	</node>
	<node lat="62.74463197340013" lon="7.147389690786119" id="-11053">
		<tag k="name" v="Heramb-Aamots veg" />
		<tag k="ssr:date" v="2019-12-27" />
		<tag k="ssr:gruppe" v="veg" />
		<tag k="ssr:hovedgruppe" v="infrastruktur" />
		<tag k="ssr:stedsnr" v="1057690" />
		<tag k="ssr:type" v="adressenavn" />
	</node>
	<node lat="62.75482724556878" lon="7.270554561312954" id="-11054">
		<tag k="name" v="Gamle Årødalsvegen" />
		<tag k="ssr:date" v="2019-12-27" />
		<tag k="ssr:gruppe" v="veg" />
		<tag k="ssr:hovedgruppe" v="infrastruktur" />
		<tag k="ssr:stedsnr" v="1057455" />
		<tag k="ssr:type" v="adressenavn" />
	</node>
	<node lat="62.74253167064147" lon="7.231198477406061" id="-11056">
		<tag k="name" v="Kviltorpvegen" />
		<tag k="ssr:date" v="2019-12-27" />
		<tag k="ssr:gruppe" v="veg" />
		<tag k="ssr:hovedgruppe" v="infrastruktur" />
		<tag k="ssr:stedsnr" v="1058743" />
		<tag k="ssr:type" v="adressenavn" />
	</node>
	<node lat="62.73910527056756" lon="7.156809173440579" id="-11057">
		<tag k="name" v="Idrettsvegen" />
		<tag k="ssr:date" v="2019-12-27" />
		<tag k="ssr:gruppe" v="veg" />
		<tag k="ssr:hovedgruppe" v="infrastruktur" />
		<tag k="ssr:stedsnr" v="1057642" />
		<tag k="ssr:type" v="adressenavn" />
	</node>
	<node lat="62.7177977721229" lon="7.427727996223572" id="-11058">
		<tag k="name" v="Holbakken" />
		<tag k="ssr:date" v="2019-12-27" />
		<tag k="ssr:gruppe" v="veg" />
		<tag k="ssr:hovedgruppe" v="infrastruktur" />
		<tag k="ssr:stedsnr" v="1057652" />
		<tag k="ssr:type" v="adressenavn" />
	</node>
	<node lat="62.74082773135369" lon="7.142810672079901" id="-11059">
		<tag k="name" v="Holvegen" />
		<tag k="ssr:date" v="2019-12-27" />
		<tag k="ssr:gruppe" v="veg" />
		<tag k="ssr:hovedgruppe" v="infrastruktur" />
		<tag k="ssr:stedsnr" v="1057659" />
		<tag k="ssr:type" v="adressenavn" />
	</node>
	<node lat="62.75131499728738" lon="7.267527648982099" id="-11060">
		<tag k="name" v="Huflakvegen" />
		<tag k="ssr:date" v="2019-12-27" />
		<tag k="ssr:gruppe" v="veg" />
		<tag k="ssr:hovedgruppe" v="infrastruktur" />
		<tag k="ssr:stedsnr" v="1057665" />
		<tag k="ssr:type" v="adressenavn" />
	</node>
	<node lat="62.7833137497534" lon="7.526813805358319" id="-11061">
		<tag k="name" v="Hungnesvegen" />
		<tag k="ssr:date" v="2019-12-27" />
		<tag k="ssr:gruppe" v="veg" />
		<tag k="ssr:hovedgruppe" v="infrastruktur" />
		<tag k="ssr:stedsnr" v="1057666" />
		<tag k="ssr:type" v="adressenavn" />
	</node>
	<node lat="62.71770627738717" lon="7.426495069652716" id="-11062">
		<tag k="name" v="Hovdenakvågen" />
		<tag k="ssr:date" v="2019-12-27" />
		<tag k="ssr:gruppe" v="veg" />
		<tag k="ssr:hovedgruppe" v="infrastruktur" />
		<tag k="ssr:stedsnr" v="1057669" />
		<tag k="ssr:type" v="adressenavn" />
	</node>
	<node lat="62.78235370457386" lon="7.5016953512601905" id="-11063">
		<tag k="name" v="Hjelsetvegen" />
		<tag k="ssr:date" v="2019-12-27" />
		<tag k="ssr:gruppe" v="veg" />
		<tag k="ssr:hovedgruppe" v="infrastruktur" />
		<tag k="ssr:stedsnr" v="1057676" />
		<tag k="ssr:type" v="adressenavn" />
	</node>
	<node lat="62.737489641769216" lon="7.125217529336328" id="-11064">
		<tag k="name" v="Ingebriktvegen" />
		<tag k="ssr:date" v="2019-12-27" />
		<tag k="ssr:gruppe" v="veg" />
		<tag k="ssr:hovedgruppe" v="infrastruktur" />
		<tag k="ssr:stedsnr" v="1057744" />
		<tag k="ssr:type" v="adressenavn" />
	</node>
	<node lat="62.71300714416882" lon="7.424333890766393" id="-11065">
		<tag k="name" v="Isdamvegen" />
		<tag k="ssr:date" v="2019-12-27" />
		<tag k="ssr:gruppe" v="veg" />
		<tag k="ssr:hovedgruppe" v="infrastruktur" />
		<tag k="ssr:stedsnr" v="1057747" />
		<tag k="ssr:type" v="adressenavn" />
	</node>
	<node lat="62.73585990114592" lon="7.117200665158374" id="-11066">
		<tag k="name" v="Johannes Bjordals veg" />
		<tag k="ssr:date" v="2019-12-27" />
		<tag k="ssr:gruppe" v="veg" />
		<tag k="ssr:hovedgruppe" v="infrastruktur" />
		<tag k="ssr:stedsnr" v="1057749" />
		<tag k="ssr:type" v="adressenavn" />
	</node>
	<node lat="62.75488591015076" lon="7.2342611773011765" id="-11067">
		<tag k="name" v="Jernspurvbakken" />
		<tag k="ssr:date" v="2019-12-27" />
		<tag k="ssr:gruppe" v="veg" />
		<tag k="ssr:hovedgruppe" v="infrastruktur" />
		<tag k="ssr:stedsnr" v="1057751" />
		<tag k="ssr:type" v="adressenavn" />
	</node>
	<node lat="62.786196475445266" lon="7.530779216509286" id="-11068">
		<tag k="name" v="Innlegvegen" />
		<tag k="ssr:date" v="2019-12-27" />
		<tag k="ssr:gruppe" v="veg" />
		<tag k="ssr:hovedgruppe" v="infrastruktur" />
		<tag k="ssr:stedsnr" v="1057753" />
		<tag k="ssr:type" v="adressenavn" />
	</node>
	<node lat="62.695990966030585" lon="7.429115886724554" id="-11069">
		<tag k="name" v="Hamnevikbøen" />
		<tag k="ssr:date" v="2019-12-27" />
		<tag k="ssr:gruppe" v="veg" />
		<tag k="ssr:hovedgruppe" v="infrastruktur" />
		<tag k="ssr:stedsnr" v="1057758" />
		<tag k="ssr:type" v="adressenavn" />
	</node>
	<node lat="62.74447761633611" lon="7.216038879626761" id="-11070">
		<tag k="name" v="Jupitervegen" />
		<tag k="ssr:date" v="2019-12-27" />
		<tag k="ssr:gruppe" v="veg" />
		<tag k="ssr:hovedgruppe" v="infrastruktur" />
		<tag k="ssr:stedsnr" v="1057707" />
		<tag k="ssr:type" v="adressenavn" />
	</node>
	<node lat="62.73854595904436" lon="7.159657909081685" id="-11071">
		<tag k="name" v="Kirkebakken" />
		<tag k="ssr:date" v="2019-12-27" />
		<tag k="ssr:gruppe" v="veg" />
		<tag k="ssr:hovedgruppe" v="infrastruktur" />
		<tag k="ssr:stedsnr" v="1057720" />
		<tag k="ssr:type" v="adressenavn" />
	</node>
	<node lat="62.73416654877429" lon="7.142202801294961" id="-11072">
		<tag k="name" v="Julsundvegen" />
		<tag k="ssr:date" v="2019-12-27" />
		<tag k="ssr:gruppe" v="veg" />
		<tag k="ssr:hovedgruppe" v="infrastruktur" />
		<tag k="ssr:stedsnr" v="1057726" />
		<tag k="ssr:type" v="adressenavn" />
	</node>
	<node lat="62.73855042099116" lon="7.171977501691399" id="-11073">
		<tag k="name" v="Hans Thiis Møllers gate" />
		<tag k="ssr:date" v="2019-12-27" />
		<tag k="ssr:gruppe" v="veg" />
		<tag k="ssr:hovedgruppe" v="infrastruktur" />
		<tag k="ssr:stedsnr" v="1057855" />
		<tag k="ssr:type" v="adressenavn" />
	</node>
	<node lat="62.73549169372074" lon="7.155214247027301" id="-11074">
		<tag k="name" v="Gørvellplassen" />
		<tag k="ssr:date" v="2019-12-27" />
		<tag k="ssr:gruppe" v="veg" />
		<tag k="ssr:hovedgruppe" v="infrastruktur" />
		<tag k="ssr:stedsnr" v="1058038" />
		<tag k="ssr:type" v="adressenavn" />
	</node>
	<node lat="62.74178889147863" lon="7.159524585911128" id="-11075">
		<tag k="name" v="Hauanvegen" />
		<tag k="ssr:date" v="2019-12-27" />
		<tag k="ssr:gruppe" v="veg" />
		<tag k="ssr:hovedgruppe" v="infrastruktur" />
		<tag k="ssr:stedsnr" v="1058043" />
		<tag k="ssr:type" v="adressenavn" />
	</node>
	<node lat="62.734428118845415" lon="7.154963889637684" id="-11076">
		<tag k="name" v="Hamnegata" />
		<tag k="ssr:date" v="2019-12-27" />
		<tag k="ssr:gruppe" v="veg" />
		<tag k="ssr:hovedgruppe" v="infrastruktur" />
		<tag k="ssr:stedsnr" v="1057935" />
		<tag k="ssr:type" v="adressenavn" />
	</node>
	<node lat="62.77840079328022" lon="7.483906718172127" id="-11077">
		<tag k="name" v="Hagavegen" />
		<tag k="ssr:date" v="2019-12-27" />
		<tag k="ssr:gruppe" v="veg" />
		<tag k="ssr:hovedgruppe" v="infrastruktur" />
		<tag k="ssr:stedsnr" v="1058013" />
		<tag k="ssr:type" v="adressenavn" />
	</node>
	<node lat="62.74703751452266" lon="7.203912828393826" id="-11078">
		<tag k="name" v="Hauglegda" />
		<tag k="ssr:date" v="2019-12-27" />
		<tag k="ssr:gruppe" v="veg" />
		<tag k="ssr:hovedgruppe" v="infrastruktur" />
		<tag k="ssr:stedsnr" v="1058050" />
		<tag k="ssr:type" v="adressenavn" />
	</node>
	<node lat="62.744752577761105" lon="7.159358915364781" id="-11079">
		<tag k="name" v="Hatlehaugvegen" />
		<tag k="ssr:date" v="2019-12-27" />
		<tag k="ssr:gruppe" v="veg" />
		<tag k="ssr:hovedgruppe" v="infrastruktur" />
		<tag k="ssr:stedsnr" v="1058111" />
		<tag k="ssr:type" v="adressenavn" />
	</node>
	<node lat="62.73501012661476" lon="7.134113417072363" id="-11083">
		<tag k="name" v="Lillevikvegen" />
		<tag k="ssr:date" v="2019-12-27" />
		<tag k="ssr:gruppe" v="veg" />
		<tag k="ssr:hovedgruppe" v="infrastruktur" />
		<tag k="ssr:stedsnr" v="1058306" />
		<tag k="ssr:type" v="adressenavn" />
	</node>
	<node lat="62.744074685980486" lon="7.235421130903936" id="-11092">
		<tag k="name" v="Lergrovikvegen" />
		<tag k="ssr:date" v="2019-12-27" />
		<tag k="ssr:gruppe" v="veg" />
		<tag k="ssr:hovedgruppe" v="infrastruktur" />
		<tag k="ssr:stedsnr" v="1058342" />
		<tag k="ssr:type" v="adressenavn" />
	</node>
	<node lat="62.74268441416691" lon="7.183037071833931" id="-11094">
		<tag k="name" v="Lars Dahles veg" />
		<tag k="ssr:date" v="2019-12-27" />
		<tag k="ssr:gruppe" v="veg" />
		<tag k="ssr:hovedgruppe" v="infrastruktur" />
		<tag k="ssr:stedsnr" v="1058365" />
		<tag k="ssr:type" v="adressenavn" />
	</node>
	<node lat="62.742664795674926" lon="7.173476196650355" id="-11102">
		<tag k="name" v="Lars Nøsens veg" />
		<tag k="ssr:date" v="2019-12-27" />
		<tag k="ssr:gruppe" v="veg" />
		<tag k="ssr:hovedgruppe" v="infrastruktur" />
		<tag k="ssr:stedsnr" v="1058385" />
		<tag k="ssr:type" v="adressenavn" />
	</node>
	<node lat="62.73268630816479" lon="7.427173726314964" id="-11103">
		<tag k="name" v="Lauvåsvegen" />
		<tag k="ssr:date" v="2019-12-27" />
		<tag k="ssr:gruppe" v="veg" />
		<tag k="ssr:hovedgruppe" v="infrastruktur" />
		<tag k="ssr:stedsnr" v="1058329" />
		<tag k="ssr:type" v="adressenavn" />
	</node>
	<node lat="62.781572813931646" lon="7.516033724774355" id="-11104">
		<tag k="name" v="Langåsvegen" />
		<tag k="ssr:date" v="2019-12-27" />
		<tag k="ssr:gruppe" v="veg" />
		<tag k="ssr:hovedgruppe" v="infrastruktur" />
		<tag k="ssr:stedsnr" v="1058388" />
		<tag k="ssr:type" v="adressenavn" />
	</node>
	<node lat="62.74386872668562" lon="7.199883830336736" id="-11114">
		<tag k="name" v="Lunheimvegen" />
		<tag k="ssr:date" v="2019-12-27" />
		<tag k="ssr:gruppe" v="veg" />
		<tag k="ssr:hovedgruppe" v="infrastruktur" />
		<tag k="ssr:stedsnr" v="1058464" />
		<tag k="ssr:type" v="adressenavn" />
	</node>
	<node lat="62.754111114842246" lon="7.2384736154882585" id="-11116">
		<tag k="name" v="Løvsangervegen" />
		<tag k="ssr:date" v="2019-12-27" />
		<tag k="ssr:gruppe" v="veg" />
		<tag k="ssr:hovedgruppe" v="infrastruktur" />
		<tag k="ssr:stedsnr" v="1058468" />
		<tag k="ssr:type" v="adressenavn" />
	</node>
	<node lat="62.73696455624427" lon="7.150507069771035" id="-11117">
		<tag k="name" v="Margareta Dahls gate" />
		<tag k="ssr:date" v="2019-12-27" />
		<tag k="ssr:gruppe" v="veg" />
		<tag k="ssr:hovedgruppe" v="infrastruktur" />
		<tag k="ssr:stedsnr" v="1058471" />
		<tag k="ssr:type" v="adressenavn" />
	</node>
	<node lat="62.742137621145055" lon="7.145263426032934" id="-11118">
		<tag k="name" v="Mali Furunes veg" />
		<tag k="ssr:date" v="2019-12-27" />
		<tag k="ssr:gruppe" v="veg" />
		<tag k="ssr:hovedgruppe" v="infrastruktur" />
		<tag k="ssr:stedsnr" v="1058473" />
		<tag k="ssr:type" v="adressenavn" />
	</node>
	<node lat="62.74830640122404" lon="7.2286949784201715" id="-11119">
		<tag k="name" v="Løkenvegen" />
		<tag k="ssr:date" v="2019-12-27" />
		<tag k="ssr:gruppe" v="veg" />
		<tag k="ssr:hovedgruppe" v="infrastruktur" />
		<tag k="ssr:stedsnr" v="1058480" />
		<tag k="ssr:type" v="adressenavn" />
	</node>
	<node lat="62.73900542227388" lon="7.174516126737989" id="-11122">
		<tag k="name" v="Lingedalsvegen" />
		<tag k="ssr:date" v="2019-12-27" />
		<tag k="ssr:gruppe" v="veg" />
		<tag k="ssr:hovedgruppe" v="infrastruktur" />
		<tag k="ssr:stedsnr" v="1058539" />
		<tag k="ssr:type" v="adressenavn" />
	</node>
	<node lat="62.73736986915228" lon="7.087816795168273" id="-11136">
		<tag k="name" v="Kvam terrasse" />
		<tag k="ssr:date" v="2019-12-27" />
		<tag k="ssr:gruppe" v="veg" />
		<tag k="ssr:hovedgruppe" v="infrastruktur" />
		<tag k="ssr:stedsnr" v="1058566" />
		<tag k="ssr:type" v="adressenavn" />
	</node>
	<node lat="62.7461026508994" lon="7.234377387796154" id="-11144">
		<tag k="name" v="Lundsengvegen" />
		<tag k="ssr:date" v="2019-12-27" />
		<tag k="ssr:gruppe" v="veg" />
		<tag k="ssr:hovedgruppe" v="infrastruktur" />
		<tag k="ssr:stedsnr" v="1058516" />
		<tag k="ssr:type" v="adressenavn" />
	</node>
	<node lat="62.73517398842456" lon="7.085266065230337" id="-11148">
		<tag k="name" v="Kringstadvegen" />
		<tag k="ssr:date" v="2019-12-27" />
		<tag k="ssr:gruppe" v="veg" />
		<tag k="ssr:hovedgruppe" v="infrastruktur" />
		<tag k="ssr:stedsnr" v="1058589" />
		<tag k="ssr:type" v="adressenavn" />
	</node>
	<node lat="62.739165648783576" lon="7.122243006997358" id="-11157">
		<tag k="name" v="Kristianplassen" />
		<tag k="ssr:date" v="2019-12-27" />
		<tag k="ssr:gruppe" v="veg" />
		<tag k="ssr:hovedgruppe" v="infrastruktur" />
		<tag k="ssr:stedsnr" v="1058599" />
		<tag k="ssr:type" v="adressenavn" />
	</node>
	<node lat="62.748655909611784" lon="7.266185794657417" id="-11158">
		<tag k="name" v="Krohnsvingen" />
		<tag k="ssr:date" v="2019-12-27" />
		<tag k="ssr:gruppe" v="veg" />
		<tag k="ssr:hovedgruppe" v="infrastruktur" />
		<tag k="ssr:stedsnr" v="1058604" />
		<tag k="ssr:type" v="adressenavn" />
	</node>
	<node lat="62.73775153310873" lon="7.165876485648714" id="-11159">
		<tag k="name" v="Krubba" />
		<tag k="ssr:date" v="2019-12-27" />
		<tag k="ssr:gruppe" v="veg" />
		<tag k="ssr:hovedgruppe" v="infrastruktur" />
		<tag k="ssr:stedsnr" v="1058608" />
		<tag k="ssr:type" v="adressenavn" />
	</node>
	<node lat="62.7426833988746" lon="7.225886001274345" id="-11160">
		<tag k="name" v="Kometvegen" />
		<tag k="ssr:date" v="2019-12-27" />
		<tag k="ssr:gruppe" v="veg" />
		<tag k="ssr:hovedgruppe" v="infrastruktur" />
		<tag k="ssr:stedsnr" v="1058611" />
		<tag k="ssr:type" v="adressenavn" />
	</node>
	<node lat="62.7431805314273" lon="7.1489477961065555" id="-11173">
		<tag k="name" v="Kringsjåvegen" />
		<tag k="ssr:date" v="2019-12-27" />
		<tag k="ssr:gruppe" v="veg" />
		<tag k="ssr:hovedgruppe" v="infrastruktur" />
		<tag k="ssr:stedsnr" v="1058633" />
		<tag k="ssr:type" v="adressenavn" />
	</node>
	<node lat="62.732986506894726" lon="7.426640393928728" id="-11184">
		<tag k="name" v="Kyrkjevegen" />
		<tag k="ssr:date" v="2019-12-27" />
		<tag k="ssr:gruppe" v="veg" />
		<tag k="ssr:hovedgruppe" v="infrastruktur" />
		<tag k="ssr:stedsnr" v="1058700" />
		<tag k="ssr:type" v="adressenavn" />
	</node>
	<node lat="62.73793024398151" lon="7.159605780931714" id="-11191">
		<tag k="name" v="Kirkekråpet" />
		<tag k="ssr:date" v="2019-12-27" />
		<tag k="ssr:gruppe" v="veg" />
		<tag k="ssr:hovedgruppe" v="infrastruktur" />
		<tag k="ssr:stedsnr" v="1058651" />
		<tag k="ssr:type" v="adressenavn" />
	</node>
	<node lat="62.751988133351944" lon="7.238983532045006" id="-11198">
		<tag k="name" v="Råkhaugvegen" />
		<tag k="ssr:date" v="2019-12-27" />
		<tag k="ssr:gruppe" v="veg" />
		<tag k="ssr:hovedgruppe" v="infrastruktur" />
		<tag k="ssr:stedsnr" v="1059288" />
		<tag k="ssr:type" v="adressenavn" />
	</node>
	<node lat="62.78469993819406" lon="7.534561289437764" id="-11199">
		<tag k="name" v="Råket" />
		<tag k="ssr:date" v="2019-12-27" />
		<tag k="ssr:gruppe" v="veg" />
		<tag k="ssr:hovedgruppe" v="infrastruktur" />
		<tag k="ssr:stedsnr" v="1059291" />
		<tag k="ssr:type" v="adressenavn" />
	</node>
	<node lat="62.69635609651757" lon="7.425703142956895" id="-11200">
		<tag k="name" v="Saksebakken" />
		<tag k="ssr:date" v="2019-12-27" />
		<tag k="ssr:gruppe" v="veg" />
		<tag k="ssr:hovedgruppe" v="infrastruktur" />
		<tag k="ssr:stedsnr" v="1059294" />
		<tag k="ssr:type" v="adressenavn" />
	</node>
	<node lat="62.736284968318984" lon="7.126914452528561" id="-11201">
		<tag k="name" v="Sagvegen" />
		<tag k="ssr:date" v="2019-12-27" />
		<tag k="ssr:gruppe" v="veg" />
		<tag k="ssr:hovedgruppe" v="infrastruktur" />
		<tag k="ssr:stedsnr" v="1059304" />
		<tag k="ssr:type" v="adressenavn" />
	</node>
	<node lat="62.734633173045914" lon="7.091799817669082" id="-11202">
		<tag k="name" v="Sagsletta" />
		<tag k="ssr:date" v="2019-12-27" />
		<tag k="ssr:gruppe" v="veg" />
		<tag k="ssr:hovedgruppe" v="infrastruktur" />
		<tag k="ssr:stedsnr" v="1059305" />
		<tag k="ssr:type" v="adressenavn" />
	</node>
	<node lat="62.697535723987876" lon="7.430087042035874" id="-11203">
		<tag k="name" v="Saksegjerdet" />
		<tag k="ssr:date" v="2019-12-27" />
		<tag k="ssr:gruppe" v="veg" />
		<tag k="ssr:hovedgruppe" v="infrastruktur" />
		<tag k="ssr:stedsnr" v="1059322" />
		<tag k="ssr:type" v="adressenavn" />
	</node>
	<node lat="62.75211498337068" lon="7.28718821368067" id="-11204">
		<tag k="name" v="Røbekkvegen" />
		<tag k="ssr:date" v="2019-12-27" />
		<tag k="ssr:gruppe" v="veg" />
		<tag k="ssr:hovedgruppe" v="infrastruktur" />
		<tag k="ssr:stedsnr" v="1059327" />
		<tag k="ssr:type" v="adressenavn" />
	</node>
	<node lat="62.753538362671726" lon="7.246669365693641" id="-11205">
		<tag k="name" v="Rødstrupevegen" />
		<tag k="ssr:date" v="2019-12-27" />
		<tag k="ssr:gruppe" v="veg" />
		<tag k="ssr:hovedgruppe" v="infrastruktur" />
		<tag k="ssr:stedsnr" v="1059328" />
		<tag k="ssr:type" v="adressenavn" />
	</node>
	<node lat="62.75123543147182" lon="7.28648775051623" id="-11210">
		<tag k="name" v="Myrvegen" />
		<tag k="ssr:date" v="2019-12-27" />
		<tag k="ssr:gruppe" v="veg" />
		<tag k="ssr:hovedgruppe" v="infrastruktur" />
		<tag k="ssr:stedsnr" v="1058778" />
		<tag k="ssr:type" v="adressenavn" />
	</node>
	<node lat="62.753241602624534" lon="7.245403400051257" id="-11211">
		<tag k="name" v="Måltrostvegen" />
		<tag k="ssr:date" v="2019-12-27" />
		<tag k="ssr:gruppe" v="veg" />
		<tag k="ssr:hovedgruppe" v="infrastruktur" />
		<tag k="ssr:stedsnr" v="1058781" />
		<tag k="ssr:type" v="adressenavn" />
	</node>
	<node lat="62.73727552884547" lon="7.157843561536963" id="-11212">
		<tag k="name" v="Myrabakken" />
		<tag k="ssr:date" v="2019-12-27" />
		<tag k="ssr:gruppe" v="veg" />
		<tag k="ssr:hovedgruppe" v="infrastruktur" />
		<tag k="ssr:stedsnr" v="1058807" />
		<tag k="ssr:type" v="adressenavn" />
	</node>
	<node lat="62.73740056222444" lon="7.1525593080156" id="-11213">
		<tag k="name" v="Museumsvegen" />
		<tag k="ssr:date" v="2019-12-27" />
		<tag k="ssr:gruppe" v="veg" />
		<tag k="ssr:hovedgruppe" v="infrastruktur" />
		<tag k="ssr:stedsnr" v="1058811" />
		<tag k="ssr:type" v="adressenavn" />
	</node>
	<node lat="62.73601469925424" lon="7.141328644609805" id="-11214">
		<tag k="name" v="Nini Roll Ankers veg" />
		<tag k="ssr:date" v="2019-12-27" />
		<tag k="ssr:gruppe" v="veg" />
		<tag k="ssr:hovedgruppe" v="infrastruktur" />
		<tag k="ssr:stedsnr" v="1058833" />
		<tag k="ssr:type" v="adressenavn" />
	</node>
	<node lat="62.74340857438196" lon="7.195771084489649" id="-11217">
		<tag k="name" v="Langmyrvegen" />
		<tag k="ssr:date" v="2019-12-27" />
		<tag k="ssr:gruppe" v="veg" />
		<tag k="ssr:hovedgruppe" v="infrastruktur" />
		<tag k="ssr:stedsnr" v="1058706" />
		<tag k="ssr:type" v="adressenavn" />
	</node>
	<node lat="62.75549418303169" lon="7.514353465043396" id="-11226">
		<tag k="name" v="Kvernhuslia" />
		<tag k="ssr:date" v="2019-12-27" />
		<tag k="ssr:gruppe" v="veg" />
		<tag k="ssr:hovedgruppe" v="infrastruktur" />
		<tag k="ssr:stedsnr" v="1058722" />
		<tag k="ssr:type" v="adressenavn" />
	</node>
	<node lat="62.74311379782779" lon="7.1703354307281515" id="-11227">
		<tag k="name" v="Kveldrovegen" />
		<tag k="ssr:date" v="2019-12-27" />
		<tag k="ssr:gruppe" v="veg" />
		<tag k="ssr:hovedgruppe" v="infrastruktur" />
		<tag k="ssr:stedsnr" v="1058724" />
		<tag k="ssr:type" v="adressenavn" />
	</node>
	<node lat="62.744118323413076" lon="7.198338987758033" id="-11228">
		<tag k="name" v="Kvernvegen" />
		<tag k="ssr:date" v="2019-12-27" />
		<tag k="ssr:gruppe" v="veg" />
		<tag k="ssr:hovedgruppe" v="infrastruktur" />
		<tag k="ssr:stedsnr" v="1058732" />
		<tag k="ssr:type" v="adressenavn" />
	</node>
	<node lat="62.74125164147891" lon="7.160027869936628" id="-11229">
		<tag k="name" v="Nils Hertzbergs veg" />
		<tag k="ssr:date" v="2019-12-27" />
		<tag k="ssr:gruppe" v="veg" />
		<tag k="ssr:hovedgruppe" v="infrastruktur" />
		<tag k="ssr:stedsnr" v="1058848" />
		<tag k="ssr:type" v="adressenavn" />
	</node>
	<node lat="62.74728346015283" lon="7.231172618994244" id="-11231">
		<tag k="name" v="Neptunvegen" />
		<tag k="ssr:date" v="2019-12-27" />
		<tag k="ssr:gruppe" v="veg" />
		<tag k="ssr:hovedgruppe" v="infrastruktur" />
		<tag k="ssr:stedsnr" v="1058911" />
		<tag k="ssr:type" v="adressenavn" />
	</node>
	<node lat="62.742664795674926" lon="7.173476196650355" id="-11232">
		<tag k="name" v="Mikkelivegen" />
		<tag k="ssr:date" v="2019-12-27" />
		<tag k="ssr:gruppe" v="veg" />
		<tag k="ssr:hovedgruppe" v="infrastruktur" />
		<tag k="ssr:stedsnr" v="1058923" />
		<tag k="ssr:type" v="adressenavn" />
	</node>
	<node lat="62.73901361380495" lon="7.154759862214848" id="-11233">
		<tag k="name" v="Markvegen" />
		<tag k="ssr:date" v="2019-12-27" />
		<tag k="ssr:gruppe" v="veg" />
		<tag k="ssr:hovedgruppe" v="infrastruktur" />
		<tag k="ssr:stedsnr" v="1058992" />
		<tag k="ssr:type" v="adressenavn" />
	</node>
	<node lat="62.74596614649961" lon="7.224212366056712" id="-11234">
		<tag k="name" v="Marsvegen" />
		<tag k="ssr:date" v="2019-12-27" />
		<tag k="ssr:gruppe" v="veg" />
		<tag k="ssr:hovedgruppe" v="infrastruktur" />
		<tag k="ssr:stedsnr" v="1059001" />
		<tag k="ssr:type" v="adressenavn" />
	</node>
	<node lat="62.73508480389209" lon="7.087660887538686" id="-11235">
		<tag k="name" v="Mekvegen" />
		<tag k="ssr:date" v="2019-12-27" />
		<tag k="ssr:gruppe" v="veg" />
		<tag k="ssr:hovedgruppe" v="infrastruktur" />
		<tag k="ssr:stedsnr" v="1059004" />
		<tag k="ssr:type" v="adressenavn" />
	</node>
	<node lat="62.73361213947101" lon="7.095362655004335" id="-11236">
		<tag k="name" v="Mekvorpvegen" />
		<tag k="ssr:date" v="2019-12-27" />
		<tag k="ssr:gruppe" v="veg" />
		<tag k="ssr:hovedgruppe" v="infrastruktur" />
		<tag k="ssr:stedsnr" v="1059009" />
		<tag k="ssr:type" v="adressenavn" />
	</node>
	<node lat="62.74362317258058" lon="7.218580837813501" id="-11237">
		<tag k="name" v="Merkurvegen" />
		<tag k="ssr:date" v="2019-12-27" />
		<tag k="ssr:gruppe" v="veg" />
		<tag k="ssr:hovedgruppe" v="infrastruktur" />
		<tag k="ssr:stedsnr" v="1059014" />
		<tag k="ssr:type" v="adressenavn" />
	</node>
	<node lat="62.74048984491182" lon="7.174133517178863" id="-11238">
		<tag k="name" v="Moldelivegen" />
		<tag k="ssr:date" v="2019-12-27" />
		<tag k="ssr:gruppe" v="veg" />
		<tag k="ssr:hovedgruppe" v="infrastruktur" />
		<tag k="ssr:stedsnr" v="1059035" />
		<tag k="ssr:type" v="adressenavn" />
	</node>
	<node lat="62.745305843722456" lon="7.221640139083979" id="-11239">
		<tag k="name" v="Rognevegen" />
		<tag k="ssr:date" v="2019-12-27" />
		<tag k="ssr:gruppe" v="veg" />
		<tag k="ssr:hovedgruppe" v="infrastruktur" />
		<tag k="ssr:stedsnr" v="1059086" />
		<tag k="ssr:type" v="adressenavn" />
	</node>
	<node lat="62.74600190516075" lon="7.230417260146544" id="-11240">
		<tag k="name" v="Meteorvegen" />
		<tag k="ssr:date" v="2019-12-27" />
		<tag k="ssr:gruppe" v="veg" />
		<tag k="ssr:hovedgruppe" v="infrastruktur" />
		<tag k="ssr:stedsnr" v="1058972" />
		<tag k="ssr:type" v="adressenavn" />
	</node>
	<node lat="62.73848349567277" lon="7.179854515748458" id="-11241">
		<tag k="name" v="Moldegårdsvegen" />
		<tag k="ssr:date" v="2019-12-27" />
		<tag k="ssr:gruppe" v="veg" />
		<tag k="ssr:hovedgruppe" v="infrastruktur" />
		<tag k="ssr:stedsnr" v="1059063" />
		<tag k="ssr:type" v="adressenavn" />
	</node>
	<node lat="62.74038290593324" lon="7.211180377768444" id="-11242">
		<tag k="name" v="Retirovegen" />
		<tag k="ssr:date" v="2019-12-27" />
		<tag k="ssr:gruppe" v="veg" />
		<tag k="ssr:hovedgruppe" v="infrastruktur" />
		<tag k="ssr:stedsnr" v="1059129" />
		<tag k="ssr:type" v="adressenavn" />
	</node>
	<node lat="62.73607973229649" lon="7.123355667100545" id="-11243">
		<tag k="name" v="Raumavegen" />
		<tag k="ssr:date" v="2019-12-27" />
		<tag k="ssr:gruppe" v="veg" />
		<tag k="ssr:hovedgruppe" v="infrastruktur" />
		<tag k="ssr:stedsnr" v="1059186" />
		<tag k="ssr:type" v="adressenavn" />
	</node>
	<node lat="62.754518244395605" lon="7.231153904475573" id="-11244">
		<tag k="name" v="Ravnebakken" />
		<tag k="ssr:date" v="2019-12-27" />
		<tag k="ssr:gruppe" v="veg" />
		<tag k="ssr:hovedgruppe" v="infrastruktur" />
		<tag k="ssr:stedsnr" v="1059188" />
		<tag k="ssr:type" v="adressenavn" />
	</node>
	<node lat="62.74275777622483" lon="7.142810978824433" id="-11245">
		<tag k="name" v="Reinhold Zieglers veg" />
		<tag k="ssr:date" v="2019-12-27" />
		<tag k="ssr:gruppe" v="veg" />
		<tag k="ssr:hovedgruppe" v="infrastruktur" />
		<tag k="ssr:stedsnr" v="1059195" />
		<tag k="ssr:type" v="adressenavn" />
	</node>
	<node lat="62.78459064265831" lon="7.529001782252374" id="-11246">
		<tag k="name" v="Reitbakken" />
		<tag k="ssr:date" v="2019-12-27" />
		<tag k="ssr:gruppe" v="veg" />
		<tag k="ssr:hovedgruppe" v="infrastruktur" />
		<tag k="ssr:stedsnr" v="1059198" />
		<tag k="ssr:type" v="adressenavn" />
	</node>
	<node lat="62.73664515930122" lon="7.126951126809546" id="-11247">
		<tag k="name" v="Rekkebovegen" />
		<tag k="ssr:date" v="2019-12-27" />
		<tag k="ssr:gruppe" v="veg" />
		<tag k="ssr:hovedgruppe" v="infrastruktur" />
		<tag k="ssr:stedsnr" v="1059199" />
		<tag k="ssr:type" v="adressenavn" />
	</node>
	<node lat="62.73474270916933" lon="7.1488301563373575" id="-11248">
		<tag k="name" v="Sandvegen" />
		<tag k="ssr:date" v="2019-12-27" />
		<tag k="ssr:gruppe" v="veg" />
		<tag k="ssr:hovedgruppe" v="infrastruktur" />
		<tag k="ssr:stedsnr" v="1059229" />
		<tag k="ssr:type" v="adressenavn" />
	</node>
	<node lat="62.729358597874395" lon="7.318857716051865" id="-11249">
		<tag k="name" v="Steinhoggarvegen" />
		<tag k="ssr:date" v="2019-12-27" />
		<tag k="ssr:gruppe" v="veg" />
		<tag k="ssr:hovedgruppe" v="infrastruktur" />
		<tag k="ssr:stedsnr" v="1060093" />
		<tag k="ssr:type" v="adressenavn" />
	</node>
	<node lat="62.73835718389963" lon="7.149278543452478" id="-11250">
		<tag k="name" v="Reknesvegen" />
		<tag k="ssr:date" v="2019-12-27" />
		<tag k="ssr:gruppe" v="veg" />
		<tag k="ssr:hovedgruppe" v="infrastruktur" />
		<tag k="ssr:stedsnr" v="1059149" />
		<tag k="ssr:type" v="adressenavn" />
	</node>
	<node lat="62.719213528313475" lon="7.417715165679361" id="-11251">
		<tag k="name" v="Raneshøgda" />
		<tag k="ssr:date" v="2019-12-27" />
		<tag k="ssr:gruppe" v="veg" />
		<tag k="ssr:hovedgruppe" v="infrastruktur" />
		<tag k="ssr:stedsnr" v="1059177" />
		<tag k="ssr:type" v="adressenavn" />
	</node>
	<node lat="62.71868678235615" lon="7.428124358388106" id="-11252">
		<tag k="name" v="Ranesvegen" />
		<tag k="ssr:date" v="2019-12-27" />
		<tag k="ssr:gruppe" v="veg" />
		<tag k="ssr:hovedgruppe" v="infrastruktur" />
		<tag k="ssr:stedsnr" v="1059178" />
		<tag k="ssr:type" v="adressenavn" />
	</node>
	<node lat="62.7292240775279" lon="7.41941703867788" id="-11253">
		<tag k="name" v="Refsnesvegen" />
		<tag k="ssr:date" v="2019-12-27" />
		<tag k="ssr:gruppe" v="veg" />
		<tag k="ssr:hovedgruppe" v="infrastruktur" />
		<tag k="ssr:stedsnr" v="1059181" />
		<tag k="ssr:type" v="adressenavn" />
	</node>
	<node lat="62.746494479682184" lon="7.2171554517340955" id="-11254">
		<tag k="name" v="Saturnvegen" />
		<tag k="ssr:date" v="2019-12-27" />
		<tag k="ssr:gruppe" v="veg" />
		<tag k="ssr:hovedgruppe" v="infrastruktur" />
		<tag k="ssr:stedsnr" v="1059268" />
		<tag k="ssr:type" v="adressenavn" />
	</node>
	<node lat="62.73788925689226" lon="7.159020576288924" id="-11255">
		<tag k="name" v="Rådhusplassen" />
		<tag k="ssr:date" v="2019-12-27" />
		<tag k="ssr:gruppe" v="veg" />
		<tag k="ssr:hovedgruppe" v="infrastruktur" />
		<tag k="ssr:stedsnr" v="1059281" />
		<tag k="ssr:type" v="adressenavn" />
	</node>
	<node lat="62.78377312222446" lon="7.532696008129901" id="-11256">
		<tag k="name" v="Røravegen" />
		<tag k="ssr:date" v="2019-12-27" />
		<tag k="ssr:gruppe" v="veg" />
		<tag k="ssr:hovedgruppe" v="infrastruktur" />
		<tag k="ssr:stedsnr" v="1059336" />
		<tag k="ssr:type" v="adressenavn" />
	</node>
	<node lat="62.73491126121579" lon="7.144702589014524" id="-11257">
		<tag k="name" v="Røysan" />
		<tag k="ssr:date" v="2019-12-27" />
		<tag k="ssr:gruppe" v="veg" />
		<tag k="ssr:hovedgruppe" v="infrastruktur" />
		<tag k="ssr:stedsnr" v="1059340" />
		<tag k="ssr:type" v="adressenavn" />
	</node>
	<node lat="62.73787200971443" lon="7.1630860129501865" id="-11258">
		<tag k="name" v="Romsdalsgata" />
		<tag k="ssr:date" v="2019-12-27" />
		<tag k="ssr:gruppe" v="veg" />
		<tag k="ssr:hovedgruppe" v="infrastruktur" />
		<tag k="ssr:stedsnr" v="1059352" />
		<tag k="ssr:type" v="adressenavn" />
	</node>
	<node lat="62.74131274449728" lon="7.194059596170715" id="-11259">
		<tag k="name" v="Rypevegen" />
		<tag k="ssr:date" v="2019-12-27" />
		<tag k="ssr:gruppe" v="veg" />
		<tag k="ssr:hovedgruppe" v="infrastruktur" />
		<tag k="ssr:stedsnr" v="1059370" />
		<tag k="ssr:type" v="adressenavn" />
	</node>
	<node lat="62.74378298043077" lon="7.211275736221137" id="-11260">
		<tag k="name" v="Nøisomhedvegen" />
		<tag k="ssr:date" v="2019-12-27" />
		<tag k="ssr:gruppe" v="veg" />
		<tag k="ssr:hovedgruppe" v="infrastruktur" />
		<tag k="ssr:stedsnr" v="1059438" />
		<tag k="ssr:type" v="adressenavn" />
	</node>
	<node lat="62.74704936759906" lon="7.18802636987504" id="-11261">
		<tag k="name" v="Olav Oksviks veg" />
		<tag k="ssr:date" v="2019-12-27" />
		<tag k="ssr:gruppe" v="veg" />
		<tag k="ssr:hovedgruppe" v="infrastruktur" />
		<tag k="ssr:stedsnr" v="1059451" />
		<tag k="ssr:type" v="adressenavn" />
	</node>
	<node lat="62.79379849337883" lon="7.625540876826312" id="-11262">
		<tag k="name" v="Nørstebøen" />
		<tag k="ssr:date" v="2019-12-27" />
		<tag k="ssr:gruppe" v="veg" />
		<tag k="ssr:hovedgruppe" v="infrastruktur" />
		<tag k="ssr:stedsnr" v="1059461" />
		<tag k="ssr:type" v="adressenavn" />
	</node>
	<node lat="62.737598232817696" lon="7.165846540004298" id="-11263">
		<tag k="name" v="Olsmedbakken" />
		<tag k="ssr:date" v="2019-12-27" />
		<tag k="ssr:gruppe" v="veg" />
		<tag k="ssr:hovedgruppe" v="infrastruktur" />
		<tag k="ssr:stedsnr" v="1059485" />
		<tag k="ssr:type" v="adressenavn" />
	</node>
	<node lat="62.747002624380805" lon="7.208237969220111" id="-11264">
		<tag k="name" v="Nordteigen" />
		<tag k="ssr:date" v="2019-12-27" />
		<tag k="ssr:gruppe" v="veg" />
		<tag k="ssr:hovedgruppe" v="infrastruktur" />
		<tag k="ssr:stedsnr" v="1059537" />
		<tag k="ssr:type" v="adressenavn" />
	</node>
	<node lat="62.78068144456952" lon="7.512609674285746" id="-11265">
		<tag k="name" v="Opdølvegen" />
		<tag k="ssr:date" v="2019-12-27" />
		<tag k="ssr:gruppe" v="veg" />
		<tag k="ssr:hovedgruppe" v="infrastruktur" />
		<tag k="ssr:stedsnr" v="1059404" />
		<tag k="ssr:type" v="adressenavn" />
	</node>
	<node lat="62.74439329451315" lon="7.2279423338581115" id="-11266">
		<tag k="name" v="Orionvegen" />
		<tag k="ssr:date" v="2019-12-27" />
		<tag k="ssr:gruppe" v="veg" />
		<tag k="ssr:hovedgruppe" v="infrastruktur" />
		<tag k="ssr:stedsnr" v="1059418" />
		<tag k="ssr:type" v="adressenavn" />
	</node>
	<node lat="62.73816892189798" lon="7.140389043805678" id="-11267">
		<tag k="name" v="Nordskogvegen" />
		<tag k="ssr:date" v="2019-12-27" />
		<tag k="ssr:gruppe" v="veg" />
		<tag k="ssr:hovedgruppe" v="infrastruktur" />
		<tag k="ssr:stedsnr" v="1059508" />
		<tag k="ssr:type" v="adressenavn" />
	</node>
	<node lat="62.743593020768955" lon="7.182701824642041" id="-11268">
		<tag k="name" v="Overlærer Schneiders veg" />
		<tag k="ssr:date" v="2019-12-27" />
		<tag k="ssr:gruppe" v="veg" />
		<tag k="ssr:hovedgruppe" v="infrastruktur" />
		<tag k="ssr:stedsnr" v="1059716" />
		<tag k="ssr:type" v="adressenavn" />
	</node>
	<node lat="62.73666482210268" lon="7.087750883483272" id="-11269">
		<tag k="name" v="Nordstien" />
		<tag k="ssr:date" v="2019-12-27" />
		<tag k="ssr:gruppe" v="veg" />
		<tag k="ssr:hovedgruppe" v="infrastruktur" />
		<tag k="ssr:stedsnr" v="1059559" />
		<tag k="ssr:type" v="adressenavn" />
	</node>
	<node lat="62.73689555504568" lon="7.117168534560671" id="-11270">
		<tag k="name" v="Nybøvegen" />
		<tag k="ssr:date" v="2019-12-27" />
		<tag k="ssr:gruppe" v="veg" />
		<tag k="ssr:hovedgruppe" v="infrastruktur" />
		<tag k="ssr:stedsnr" v="1059572" />
		<tag k="ssr:type" v="adressenavn" />
	</node>
	<node lat="62.734698929917634" lon="7.1448105021404045" id="-11271">
		<tag k="name" v="Pebakken" />
		<tag k="ssr:date" v="2019-12-27" />
		<tag k="ssr:gruppe" v="veg" />
		<tag k="ssr:hovedgruppe" v="infrastruktur" />
		<tag k="ssr:stedsnr" v="1059664" />
		<tag k="ssr:type" v="adressenavn" />
	</node>
	<node lat="62.73886048762892" lon="7.120112226381519" id="-11273">
		<tag k="name" v="Pedervegen" />
		<tag k="ssr:date" v="2019-12-27" />
		<tag k="ssr:gruppe" v="veg" />
		<tag k="ssr:hovedgruppe" v="infrastruktur" />
		<tag k="ssr:stedsnr" v="1059673" />
		<tag k="ssr:type" v="adressenavn" />
	</node>
	<node lat="62.743582911539335" lon="7.200130913272951" id="-11274">
		<tag k="name" v="Pålplassvegen" />
		<tag k="ssr:date" v="2019-12-27" />
		<tag k="ssr:gruppe" v="veg" />
		<tag k="ssr:hovedgruppe" v="infrastruktur" />
		<tag k="ssr:stedsnr" v="1059682" />
		<tag k="ssr:type" v="adressenavn" />
	</node>
	<node lat="62.7459449220562" lon="7.216864205620789" id="-11275">
		<tag k="name" v="Plutovegen" />
		<tag k="ssr:date" v="2019-12-27" />
		<tag k="ssr:gruppe" v="veg" />
		<tag k="ssr:hovedgruppe" v="infrastruktur" />
		<tag k="ssr:stedsnr" v="1059684" />
		<tag k="ssr:type" v="adressenavn" />
	</node>
	<node lat="62.69749983141523" lon="7.430170504950535" id="-11276">
		<tag k="name" v="Paradiset" />
		<tag k="ssr:date" v="2019-12-27" />
		<tag k="ssr:gruppe" v="veg" />
		<tag k="ssr:hovedgruppe" v="infrastruktur" />
		<tag k="ssr:stedsnr" v="1059736" />
		<tag k="ssr:type" v="adressenavn" />
	</node>
	<node lat="62.73726349409423" lon="7.144274600410548" id="-11277">
		<tag k="name" v="Parkvegen" />
		<tag k="ssr:date" v="2019-12-27" />
		<tag k="ssr:gruppe" v="veg" />
		<tag k="ssr:hovedgruppe" v="infrastruktur" />
		<tag k="ssr:stedsnr" v="1059741" />
		<tag k="ssr:type" v="adressenavn" />
	</node>
	<node lat="62.73676312331256" lon="7.084708092880651" id="-11278">
		<tag k="name" v="Statsråd Qvams veg" />
		<tag k="ssr:date" v="2019-12-27" />
		<tag k="ssr:gruppe" v="veg" />
		<tag k="ssr:hovedgruppe" v="infrastruktur" />
		<tag k="ssr:stedsnr" v="1059806" />
		<tag k="ssr:type" v="adressenavn" />
	</node>
	<node lat="62.735304436468574" lon="7.150971602483949" id="-11279">
		<tag k="name" v="Statsråd Astrups gate" />
		<tag k="ssr:date" v="2019-12-27" />
		<tag k="ssr:gruppe" v="veg" />
		<tag k="ssr:hovedgruppe" v="infrastruktur" />
		<tag k="ssr:stedsnr" v="1059807" />
		<tag k="ssr:type" v="adressenavn" />
	</node>
	<node lat="62.74310541215699" lon="7.160872802024045" id="-11280">
		<tag k="name" v="Sollivegen" />
		<tag k="ssr:date" v="2019-12-27" />
		<tag k="ssr:gruppe" v="veg" />
		<tag k="ssr:hovedgruppe" v="infrastruktur" />
		<tag k="ssr:stedsnr" v="1059809" />
		<tag k="ssr:type" v="adressenavn" />
	</node>
	<node lat="62.73600885098797" lon="7.133627873751919" id="-11281">
		<tag k="name" v="Solheimvegen" />
		<tag k="ssr:date" v="2019-12-27" />
		<tag k="ssr:gruppe" v="veg" />
		<tag k="ssr:hovedgruppe" v="infrastruktur" />
		<tag k="ssr:stedsnr" v="1059829" />
		<tag k="ssr:type" v="adressenavn" />
	</node>
	<node lat="62.73730476219441" lon="7.181575279722617" id="-11282">
		<tag k="name" v="Oscar Hanssens veg" />
		<tag k="ssr:date" v="2019-12-27" />
		<tag k="ssr:gruppe" v="veg" />
		<tag k="ssr:hovedgruppe" v="infrastruktur" />
		<tag k="ssr:stedsnr" v="1059761" />
		<tag k="ssr:type" v="adressenavn" />
	</node>
	<node lat="62.74472040572619" lon="7.185737296244623" id="-11283">
		<tag k="name" v="Solbakken" />
		<tag k="ssr:date" v="2019-12-27" />
		<tag k="ssr:gruppe" v="veg" />
		<tag k="ssr:hovedgruppe" v="infrastruktur" />
		<tag k="ssr:stedsnr" v="1059849" />
		<tag k="ssr:type" v="adressenavn" />
	</node>
	<node lat="62.7833882156734" lon="7.5035720962362085" id="-11284">
		<tag k="name" v="Storteigen" />
		<tag k="ssr:date" v="2019-12-27" />
		<tag k="ssr:gruppe" v="veg" />
		<tag k="ssr:hovedgruppe" v="infrastruktur" />
		<tag k="ssr:stedsnr" v="1059861" />
		<tag k="ssr:type" v="adressenavn" />
	</node>
	<node lat="62.73633749606813" lon="7.1244770710705545" id="-11285">
		<tag k="name" v="Storvikvegen" />
		<tag k="ssr:date" v="2019-12-27" />
		<tag k="ssr:gruppe" v="veg" />
		<tag k="ssr:hovedgruppe" v="infrastruktur" />
		<tag k="ssr:stedsnr" v="1059882" />
		<tag k="ssr:type" v="adressenavn" />
	</node>
	<node lat="62.74145464125019" lon="7.179099435244079" id="-11286">
		<tag k="name" v="Skogvegen" />
		<tag k="ssr:date" v="2019-12-27" />
		<tag k="ssr:gruppe" v="veg" />
		<tag k="ssr:hovedgruppe" v="infrastruktur" />
		<tag k="ssr:stedsnr" v="1060137" />
		<tag k="ssr:type" v="adressenavn" />
	</node>
	<node lat="62.73989564183585" lon="7.147748046180932" id="-11287">
		<tag k="name" v="Storlivegen" />
		<tag k="ssr:date" v="2019-12-27" />
		<tag k="ssr:gruppe" v="veg" />
		<tag k="ssr:hovedgruppe" v="infrastruktur" />
		<tag k="ssr:stedsnr" v="1060001" />
		<tag k="ssr:type" v="adressenavn" />
	</node>
	<node lat="62.73779611331307" lon="7.162732252427595" id="-11288">
		<tag k="name" v="Storgata" />
		<tag k="ssr:date" v="2019-12-27" />
		<tag k="ssr:gruppe" v="veg" />
		<tag k="ssr:hovedgruppe" v="infrastruktur" />
		<tag k="ssr:stedsnr" v="1060035" />
		<tag k="ssr:type" v="adressenavn" />
	</node>
	<node lat="62.73761508483164" lon="7.089149742672106" id="-11289">
		<tag k="name" v="Setervegen" />
		<tag k="ssr:date" v="2019-12-27" />
		<tag k="ssr:gruppe" v="veg" />
		<tag k="ssr:hovedgruppe" v="infrastruktur" />
		<tag k="ssr:stedsnr" v="1060232" />
		<tag k="ssr:type" v="adressenavn" />
	</node>
	<node lat="62.736147284013036" lon="7.085371787476963" id="-11290">
		<tag k="name" v="Sirivegen" />
		<tag k="ssr:date" v="2019-12-27" />
		<tag k="ssr:gruppe" v="veg" />
		<tag k="ssr:hovedgruppe" v="infrastruktur" />
		<tag k="ssr:stedsnr" v="1060233" />
		<tag k="ssr:type" v="adressenavn" />
	</node>
	<node lat="62.74666626398761" lon="7.2080969625152935" id="-11291">
		<tag k="name" v="Steinskaret" />
		<tag k="ssr:date" v="2019-12-27" />
		<tag k="ssr:gruppe" v="veg" />
		<tag k="ssr:hovedgruppe" v="infrastruktur" />
		<tag k="ssr:stedsnr" v="1060103" />
		<tag k="ssr:type" v="adressenavn" />
	</node>
	<node lat="62.69820163165618" lon="7.42854943706164" id="-11292">
		<tag k="name" v="Stensåberget" />
		<tag k="ssr:date" v="2019-12-27" />
		<tag k="ssr:gruppe" v="veg" />
		<tag k="ssr:hovedgruppe" v="infrastruktur" />
		<tag k="ssr:stedsnr" v="1060105" />
		<tag k="ssr:type" v="adressenavn" />
	</node>
	<node lat="62.783198955631306" lon="7.5310991408696975" id="-11293">
		<tag k="name" v="Sjøvegen" />
		<tag k="ssr:date" v="2019-12-27" />
		<tag k="ssr:gruppe" v="veg" />
		<tag k="ssr:hovedgruppe" v="infrastruktur" />
		<tag k="ssr:stedsnr" v="1060113" />
		<tag k="ssr:type" v="adressenavn" />
	</node>
	<node lat="62.78163798686533" lon="7.5195284066643975" id="-11294">
		<tag k="name" v="Skjevikvegen" />
		<tag k="ssr:date" v="2019-12-27" />
		<tag k="ssr:gruppe" v="veg" />
		<tag k="ssr:hovedgruppe" v="infrastruktur" />
		<tag k="ssr:stedsnr" v="1060132" />
		<tag k="ssr:type" v="adressenavn" />
	</node>
	<node lat="62.75412597563595" lon="7.236093913086205" id="-11295">
		<tag k="name" v="Svarttrastvegen" />
		<tag k="ssr:date" v="2019-12-27" />
		<tag k="ssr:gruppe" v="veg" />
		<tag k="ssr:hovedgruppe" v="infrastruktur" />
		<tag k="ssr:stedsnr" v="1060970" />
		<tag k="ssr:type" v="adressenavn" />
	</node>
	<node lat="62.742297687971856" lon="7.155673461849699" id="-11296">
		<tag k="name" v="Sivertvegen" />
		<tag k="ssr:date" v="2019-12-27" />
		<tag k="ssr:gruppe" v="veg" />
		<tag k="ssr:hovedgruppe" v="infrastruktur" />
		<tag k="ssr:stedsnr" v="1060163" />
		<tag k="ssr:type" v="adressenavn" />
	</node>
	<node lat="62.743015433745974" lon="7.225804030753294" id="-11297">
		<tag k="name" v="Siriusvegen" />
		<tag k="ssr:date" v="2019-12-27" />
		<tag k="ssr:gruppe" v="veg" />
		<tag k="ssr:hovedgruppe" v="infrastruktur" />
		<tag k="ssr:stedsnr" v="1060240" />
		<tag k="ssr:type" v="adressenavn" />
	</node>
	<node lat="62.73776950968092" lon="7.187865274066509" id="-11298">
		<tag k="name" v="Sofus Jørgensens veg" />
		<tag k="ssr:date" v="2019-12-27" />
		<tag k="ssr:gruppe" v="veg" />
		<tag k="ssr:hovedgruppe" v="infrastruktur" />
		<tag k="ssr:stedsnr" v="1060269" />
		<tag k="ssr:type" v="adressenavn" />
	</node>
	<node lat="62.71475019952882" lon="7.426502124332466" id="-11299">
		<tag k="name" v="Skårabakken" />
		<tag k="ssr:date" v="2019-12-27" />
		<tag k="ssr:gruppe" v="veg" />
		<tag k="ssr:hovedgruppe" v="infrastruktur" />
		<tag k="ssr:stedsnr" v="1060350" />
		<tag k="ssr:type" v="adressenavn" />
	</node>
	<node lat="62.73534138787889" lon="7.096410207555319" id="-11300">
		<tag k="name" v="Skrenten" />
		<tag k="ssr:date" v="2019-12-27" />
		<tag k="ssr:gruppe" v="veg" />
		<tag k="ssr:hovedgruppe" v="infrastruktur" />
		<tag k="ssr:stedsnr" v="1060355" />
		<tag k="ssr:type" v="adressenavn" />
	</node>
	<node lat="62.73577965389594" lon="7.123303125220728" id="-11301">
		<tag k="name" v="Skolevegen" />
		<tag k="ssr:date" v="2019-12-27" />
		<tag k="ssr:gruppe" v="veg" />
		<tag k="ssr:hovedgruppe" v="infrastruktur" />
		<tag k="ssr:stedsnr" v="1060475" />
		<tag k="ssr:type" v="adressenavn" />
	</node>
	<node lat="62.74196346481018" lon="7.155475425906341" id="-11302">
		<tag k="name" v="Snarvegen" />
		<tag k="ssr:date" v="2019-12-27" />
		<tag k="ssr:gruppe" v="veg" />
		<tag k="ssr:hovedgruppe" v="infrastruktur" />
		<tag k="ssr:stedsnr" v="1060381" />
		<tag k="ssr:type" v="adressenavn" />
	</node>
	<node lat="62.73796028399985" lon="7.158004911814853" id="-11303">
		<tag k="name" v="Vektergata" />
		<tag k="ssr:date" v="2019-12-27" />
		<tag k="ssr:gruppe" v="veg" />
		<tag k="ssr:hovedgruppe" v="infrastruktur" />
		<tag k="ssr:stedsnr" v="1060490" />
		<tag k="ssr:type" v="adressenavn" />
	</node>
	<node lat="62.73759656565551" lon="7.159794962256054" id="-11304">
		<tag k="name" v="Tårngata" />
		<tag k="ssr:date" v="2019-12-27" />
		<tag k="ssr:gruppe" v="veg" />
		<tag k="ssr:hovedgruppe" v="infrastruktur" />
		<tag k="ssr:stedsnr" v="1060593" />
		<tag k="ssr:type" v="adressenavn" />
	</node>
	<node lat="62.754433228011195" lon="7.2445828415266185" id="-11305">
		<tag k="name" v="Uglevegen" />
		<tag k="ssr:date" v="2019-12-27" />
		<tag k="ssr:gruppe" v="veg" />
		<tag k="ssr:hovedgruppe" v="infrastruktur" />
		<tag k="ssr:stedsnr" v="1060558" />
		<tag k="ssr:type" v="adressenavn" />
	</node>
	<node lat="62.74253870132408" lon="7.177443265768711" id="-11306">
		<tag k="name" v="Vejlevegen" />
		<tag k="ssr:date" v="2019-12-27" />
		<tag k="ssr:gruppe" v="veg" />
		<tag k="ssr:hovedgruppe" v="infrastruktur" />
		<tag k="ssr:stedsnr" v="1060582" />
		<tag k="ssr:type" v="adressenavn" />
	</node>
	<node lat="62.7404958600047" lon="7.175031698120801" id="-11307">
		<tag k="name" v="Vestnesvegen" />
		<tag k="ssr:date" v="2019-12-27" />
		<tag k="ssr:gruppe" v="veg" />
		<tag k="ssr:hovedgruppe" v="infrastruktur" />
		<tag k="ssr:stedsnr" v="1060714" />
		<tag k="ssr:type" v="adressenavn" />
	</node>
	<node lat="62.74458355803419" lon="7.2309130245502935" id="-11308">
		<tag k="name" v="Venusvegen" />
		<tag k="ssr:date" v="2019-12-27" />
		<tag k="ssr:gruppe" v="veg" />
		<tag k="ssr:hovedgruppe" v="infrastruktur" />
		<tag k="ssr:stedsnr" v="1060755" />
		<tag k="ssr:type" v="adressenavn" />
	</node>
	<node lat="62.73510142855676" lon="7.144232725760535" id="-11309">
		<tag k="name" v="Tinthamran" />
		<tag k="ssr:date" v="2019-12-27" />
		<tag k="ssr:gruppe" v="veg" />
		<tag k="ssr:hovedgruppe" v="infrastruktur" />
		<tag k="ssr:stedsnr" v="1060854" />
		<tag k="ssr:type" v="adressenavn" />
	</node>
	<node lat="62.74574574489551" lon="7.16774323492877" id="-11318">
		<tag k="name" v="Thiisløypa" />
		<tag k="ssr:date" v="2019-12-27" />
		<tag k="ssr:gruppe" v="veg" />
		<tag k="ssr:hovedgruppe" v="infrastruktur" />
		<tag k="ssr:stedsnr" v="1060888" />
		<tag k="ssr:type" v="adressenavn" />
	</node>
	<node lat="62.73818001111845" lon="7.139133541534762" id="-11319">
		<tag k="name" v="Stuevollvegen" />
		<tag k="ssr:date" v="2019-12-27" />
		<tag k="ssr:gruppe" v="veg" />
		<tag k="ssr:hovedgruppe" v="infrastruktur" />
		<tag k="ssr:stedsnr" v="1060991" />
		<tag k="ssr:type" v="adressenavn" />
	</node>
	<node lat="62.745307398483156" lon="7.182227263345014" id="-11320">
		<tag k="name" v="Synnøves veg" />
		<tag k="ssr:date" v="2019-12-27" />
		<tag k="ssr:gruppe" v="veg" />
		<tag k="ssr:hovedgruppe" v="infrastruktur" />
		<tag k="ssr:stedsnr" v="1061009" />
		<tag k="ssr:type" v="adressenavn" />
	</node>
	<node lat="62.735317444055326" lon="7.090219714386453" id="-11321">
		<tag k="name" v="Sørstien" />
		<tag k="ssr:date" v="2019-12-27" />
		<tag k="ssr:gruppe" v="veg" />
		<tag k="ssr:hovedgruppe" v="infrastruktur" />
		<tag k="ssr:stedsnr" v="1061107" />
		<tag k="ssr:type" v="adressenavn" />
	</node>
	<node lat="62.74686183271577" lon="7.209629246497341" id="-11322">
		<tag k="name" v="Sørteigen" />
		<tag k="ssr:date" v="2019-12-27" />
		<tag k="ssr:gruppe" v="veg" />
		<tag k="ssr:hovedgruppe" v="infrastruktur" />
		<tag k="ssr:stedsnr" v="1061120" />
		<tag k="ssr:type" v="adressenavn" />
	</node>
	<node lat="62.74676430729965" lon="7.226441229652845" id="-11323">
		<tag k="name" v="Tellusvegen" />
		<tag k="ssr:date" v="2019-12-27" />
		<tag k="ssr:gruppe" v="veg" />
		<tag k="ssr:hovedgruppe" v="infrastruktur" />
		<tag k="ssr:stedsnr" v="1061135" />
		<tag k="ssr:type" v="adressenavn" />
	</node>
	<node lat="62.73781042052826" lon="7.174493048158041" id="-11324">
		<tag k="name" v="Strandgata" />
		<tag k="ssr:date" v="2019-12-27" />
		<tag k="ssr:gruppe" v="veg" />
		<tag k="ssr:hovedgruppe" v="infrastruktur" />
		<tag k="ssr:stedsnr" v="1061223" />
		<tag k="ssr:type" v="adressenavn" />
	</node>
	<node lat="62.73462601211632" lon="7.116417170804254" id="-11325">
		<tag k="name" v="Strandheimvegen" />
		<tag k="ssr:date" v="2019-12-27" />
		<tag k="ssr:gruppe" v="veg" />
		<tag k="ssr:hovedgruppe" v="infrastruktur" />
		<tag k="ssr:stedsnr" v="1061357" />
		<tag k="ssr:type" v="adressenavn" />
	</node>
	<node lat="62.74447572920422" lon="7.1972766925256995" id="-11326">
		<tag k="name" v="Torleifvegen" />
		<tag k="ssr:date" v="2019-12-27" />
		<tag k="ssr:gruppe" v="veg" />
		<tag k="ssr:hovedgruppe" v="infrastruktur" />
		<tag k="ssr:stedsnr" v="1061390" />
		<tag k="ssr:type" v="adressenavn" />
	</node>
	<node lat="62.74065969772141" lon="7.205784492815292" id="-11327">
		<tag k="name" v="Tøndervegen" />
		<tag k="ssr:date" v="2019-12-27" />
		<tag k="ssr:gruppe" v="veg" />
		<tag k="ssr:hovedgruppe" v="infrastruktur" />
		<tag k="ssr:stedsnr" v="1061399" />
		<tag k="ssr:type" v="adressenavn" />
	</node>
	<node lat="62.741961599754404" lon="7.158543619930611" id="-11328">
		<tag k="name" v="Tømmervegen" />
		<tag k="ssr:date" v="2019-12-27" />
		<tag k="ssr:gruppe" v="veg" />
		<tag k="ssr:hovedgruppe" v="infrastruktur" />
		<tag k="ssr:stedsnr" v="1061411" />
		<tag k="ssr:type" v="adressenavn" />
	</node>
	<node lat="62.75037491357381" lon="7.267229233935442" id="-11329">
		<tag k="name" v="Tuesenvegen" />
		<tag k="ssr:date" v="2019-12-27" />
		<tag k="ssr:gruppe" v="veg" />
		<tag k="ssr:hovedgruppe" v="infrastruktur" />
		<tag k="ssr:stedsnr" v="1061416" />
		<tag k="ssr:type" v="adressenavn" />
	</node>
	<node lat="62.736865795265764" lon="7.159151651362098" id="-11330">
		<tag k="name" v="Torget" />
		<tag k="ssr:date" v="2019-12-27" />
		<tag k="ssr:gruppe" v="veg" />
		<tag k="ssr:hovedgruppe" v="infrastruktur" />
		<tag k="ssr:stedsnr" v="1061470" />
		<tag k="ssr:type" v="adressenavn" />
	</node>
	<node lat="62.73466905740615" lon="7.154520072986404" id="-11331">
		<tag k="name" v="Tollbugata" />
		<tag k="ssr:date" v="2019-12-27" />
		<tag k="ssr:gruppe" v="veg" />
		<tag k="ssr:hovedgruppe" v="infrastruktur" />
		<tag k="ssr:stedsnr" v="1061484" />
		<tag k="ssr:type" v="adressenavn" />
	</node>
	<node lat="62.744884997540865" lon="7.220014031424598" id="-11332">
		<tag k="name" v="Tollevegen" />
		<tag k="ssr:date" v="2019-12-27" />
		<tag k="ssr:gruppe" v="veg" />
		<tag k="ssr:hovedgruppe" v="infrastruktur" />
		<tag k="ssr:stedsnr" v="1061537" />
		<tag k="ssr:type" v="adressenavn" />
	</node>
	<node lat="62.745716854151645" lon="7.185178399228245" id="-11333">
		<tag k="name" v="Torbjørns veg" />
		<tag k="ssr:date" v="2019-12-27" />
		<tag k="ssr:gruppe" v="veg" />
		<tag k="ssr:hovedgruppe" v="infrastruktur" />
		<tag k="ssr:stedsnr" v="1061564" />
		<tag k="ssr:type" v="adressenavn" />
	</node>
	<node lat="62.74270443869656" lon="7.19749844777667" id="-11345">
		<tag k="name" v="Tiurvegen" />
		<tag k="ssr:date" v="2019-12-27" />
		<tag k="ssr:gruppe" v="veg" />
		<tag k="ssr:hovedgruppe" v="infrastruktur" />
		<tag k="ssr:stedsnr" v="1061606" />
		<tag k="ssr:type" v="adressenavn" />
	</node>
	<node lat="62.75082549639875" lon="7.530805203737161" id="-11346">
		<tag k="name" v="Breiskarvegen" />
		<tag k="ssr:date" v="2019-12-27" />
		<tag k="ssr:gruppe" v="veg" />
		<tag k="ssr:hovedgruppe" v="infrastruktur" />
		<tag k="ssr:stedsnr" v="1061687" />
		<tag k="ssr:type" v="adressenavn" />
	</node>
	<node lat="62.721148618876455" lon="7.41023476915192" id="-11347">
		<tag k="name" v="Geitnesvegen" />
		<tag k="ssr:date" v="2019-12-27" />
		<tag k="ssr:gruppe" v="veg" />
		<tag k="ssr:hovedgruppe" v="infrastruktur" />
		<tag k="ssr:stedsnr" v="1061688" />
		<tag k="ssr:type" v="adressenavn" />
	</node>
	<node lat="62.69591301688243" lon="7.450100438975016" id="-11348">
		<tag k="name" v="Bergsvikvegen" />
		<tag k="ssr:date" v="2019-12-27" />
		<tag k="ssr:gruppe" v="veg" />
		<tag k="ssr:hovedgruppe" v="infrastruktur" />
		<tag k="ssr:stedsnr" v="1061690" />
		<tag k="ssr:type" v="adressenavn" />
	</node>
	<node lat="62.75107027238059" lon="7.2024389568623" id="-11350">
		<tag k="name" v="Einebæråsen" />
		<tag k="ssr:date" v="2019-12-27" />
		<tag k="ssr:gruppe" v="veg" />
		<tag k="ssr:hovedgruppe" v="infrastruktur" />
		<tag k="ssr:stedsnr" v="1061693" />
		<tag k="ssr:type" v="adressenavn" />
	</node>
	<node lat="62.8132861036044" lon="7.712103682226651" id="-11351">
		<tag k="name" v="Øvre Istad veg" />
		<tag k="ssr:date" v="2019-12-27" />
		<tag k="ssr:gruppe" v="veg" />
		<tag k="ssr:hovedgruppe" v="infrastruktur" />
		<tag k="ssr:stedsnr" v="1061695" />
		<tag k="ssr:type" v="adressenavn" />
	</node>
	<node lat="62.776756183128626" lon="7.628594160105129" id="-11352">
		<tag k="name" v="Nakkvegen" />
		<tag k="ssr:date" v="2019-12-27" />
		<tag k="ssr:gruppe" v="veg" />
		<tag k="ssr:hovedgruppe" v="infrastruktur" />
		<tag k="ssr:stedsnr" v="1061697" />
		<tag k="ssr:type" v="adressenavn" />
	</node>
	<node lat="62.75486750801401" lon="7.567644890582846" id="-11353">
		<tag k="name" v="Tollåsvegen" />
		<tag k="ssr:date" v="2019-12-27" />
		<tag k="ssr:gruppe" v="veg" />
		<tag k="ssr:hovedgruppe" v="infrastruktur" />
		<tag k="ssr:stedsnr" v="1061698" />
		<tag k="ssr:type" v="adressenavn" />
	</node>
	<node lat="62.80887486136956" lon="7.7520458474700975" id="-11354">
		<tag k="name" v="Langholvegen" />
		<tag k="ssr:date" v="2019-12-27" />
		<tag k="ssr:gruppe" v="veg" />
		<tag k="ssr:hovedgruppe" v="infrastruktur" />
		<tag k="ssr:stedsnr" v="1061700" />
		<tag k="ssr:type" v="adressenavn" />
	</node>
	<node lat="62.81176835194904" lon="7.767058800764045" id="-11355">
		<tag k="name" v="Nyjordsvegen" />
		<tag k="ssr:date" v="2019-12-27" />
		<tag k="ssr:gruppe" v="veg" />
		<tag k="ssr:hovedgruppe" v="infrastruktur" />
		<tag k="ssr:stedsnr" v="1061702" />
		<tag k="ssr:type" v="adressenavn" />
	</node>
	<node lat="62.80508786619548" lon="7.572083552849002" id="-11356">
		<tag k="name" v="Eidssetervegen" />
		<tag k="ssr:date" v="2019-12-27" />
		<tag k="ssr:gruppe" v="veg" />
		<tag k="ssr:hovedgruppe" v="infrastruktur" />
		<tag k="ssr:stedsnr" v="1061703" />
		<tag k="ssr:type" v="adressenavn" />
	</node>
	<node lat="62.803045066022555" lon="7.548569771150022" id="-11357">
		<tag k="name" v="Roaldsetlia" />
		<tag k="ssr:date" v="2019-12-27" />
		<tag k="ssr:gruppe" v="veg" />
		<tag k="ssr:hovedgruppe" v="infrastruktur" />
		<tag k="ssr:stedsnr" v="1061704" />
		<tag k="ssr:type" v="adressenavn" />
	</node>
	<node lat="62.689559604993974" lon="7.458235717160289" id="-11358">
		<tag k="name" v="Vikdalsvegen" />
		<tag k="ssr:date" v="2019-12-27" />
		<tag k="ssr:gruppe" v="veg" />
		<tag k="ssr:hovedgruppe" v="infrastruktur" />
		<tag k="ssr:stedsnr" v="1061705" />
		<tag k="ssr:type" v="adressenavn" />
	</node>
	<node lat="62.78586941768542" lon="7.569340637156957" id="-11359">
		<tag k="name" v="Eidshalsen" />
		<tag k="ssr:date" v="2019-12-27" />
		<tag k="ssr:gruppe" v="veg" />
		<tag k="ssr:hovedgruppe" v="infrastruktur" />
		<tag k="ssr:stedsnr" v="1061706" />
		<tag k="ssr:type" v="adressenavn" />
	</node>
	<node lat="62.80805166334743" lon="7.702836020432537" id="-11360">
		<tag k="name" v="Istadlivegen" />
		<tag k="ssr:date" v="2019-12-27" />
		<tag k="ssr:gruppe" v="veg" />
		<tag k="ssr:hovedgruppe" v="infrastruktur" />
		<tag k="ssr:stedsnr" v="1061707" />
		<tag k="ssr:type" v="adressenavn" />
	</node>
	<node lat="62.82153552036608" lon="7.768048448085905" id="-11361">
		<tag k="name" v="Hatlabakken" />
		<tag k="ssr:date" v="2019-12-27" />
		<tag k="ssr:gruppe" v="veg" />
		<tag k="ssr:hovedgruppe" v="infrastruktur" />
		<tag k="ssr:stedsnr" v="1061708" />
		<tag k="ssr:type" v="adressenavn" />
	</node>
	<node lat="62.756070532676524" lon="7.320966223278446" id="-11362">
		<tag k="name" v="Smievegen" />
		<tag k="ssr:date" v="2019-12-27" />
		<tag k="ssr:gruppe" v="veg" />
		<tag k="ssr:hovedgruppe" v="infrastruktur" />
		<tag k="ssr:stedsnr" v="1061710" />
		<tag k="ssr:type" v="adressenavn" />
	</node>
	<node lat="62.75550985692404" lon="7.312661359370449" id="-11363">
		<tag k="name" v="Hestehagen" />
		<tag k="ssr:date" v="2019-12-27" />
		<tag k="ssr:gruppe" v="veg" />
		<tag k="ssr:hovedgruppe" v="infrastruktur" />
		<tag k="ssr:stedsnr" v="1061712" />
		<tag k="ssr:type" v="adressenavn" />
	</node>
	<node lat="62.75281721009115" lon="7.204246549392504" id="-11364">
		<tag k="name" v="Romemyra" />
		<tag k="ssr:date" v="2019-12-27" />
		<tag k="ssr:gruppe" v="veg" />
		<tag k="ssr:hovedgruppe" v="infrastruktur" />
		<tag k="ssr:stedsnr" v="1061714" />
		<tag k="ssr:type" v="adressenavn" />
	</node>
	<node lat="62.751904660492556" lon="7.200471534567807" id="-11365">
		<tag k="name" v="Lyngvegen" />
		<tag k="ssr:date" v="2019-12-27" />
		<tag k="ssr:gruppe" v="veg" />
		<tag k="ssr:hovedgruppe" v="infrastruktur" />
		<tag k="ssr:stedsnr" v="1061715" />
		<tag k="ssr:type" v="adressenavn" />
	</node>
	<node lat="62.756745665183594" lon="7.333491872095219" id="-11367">
		<tag k="name" v="Strandefaret" />
		<tag k="ssr:date" v="2019-12-27" />
		<tag k="ssr:gruppe" v="veg" />
		<tag k="ssr:hovedgruppe" v="infrastruktur" />
		<tag k="ssr:stedsnr" v="1061717" />
		<tag k="ssr:type" v="adressenavn" />
	</node>
	<node lat="62.758507149409" lon="7.3533074225551385" id="-11373">
		<tag k="name" v="Rusketeigen" />
		<tag k="ssr:date" v="2019-12-27" />
		<tag k="ssr:gruppe" v="veg" />
		<tag k="ssr:hovedgruppe" v="infrastruktur" />
		<tag k="ssr:stedsnr" v="1061741" />
		<tag k="ssr:type" v="adressenavn" />
	</node>
	<node lat="62.73837154515837" lon="7.122659582666397" id="-11375">
		<tag k="name" v="Karenvegen" />
		<tag k="ssr:date" v="2019-12-27" />
		<tag k="ssr:gruppe" v="veg" />
		<tag k="ssr:hovedgruppe" v="infrastruktur" />
		<tag k="ssr:stedsnr" v="1061745" />
		<tag k="ssr:type" v="adressenavn" />
	</node>
	<node lat="62.760995351767725" lon="7.367763213951941" id="-11377">
		<tag k="name" v="Brennhammervegen" />
		<tag k="ssr:date" v="2019-12-27" />
		<tag k="ssr:gruppe" v="veg" />
		<tag k="ssr:hovedgruppe" v="infrastruktur" />
		<tag k="ssr:stedsnr" v="1061748" />
		<tag k="ssr:type" v="adressenavn" />
	</node>
	<node lat="62.76788768514142" lon="7.278608274335769" id="-11396">
		<tag k="name" v="Årøsetervegen" />
		<tag k="ssr:date" v="2019-12-27" />
		<tag k="ssr:gruppe" v="veg" />
		<tag k="ssr:hovedgruppe" v="infrastruktur" />
		<tag k="ssr:stedsnr" v="1061777" />
		<tag k="ssr:type" v="adressenavn" />
	</node>
	<node lat="62.75179800775354" lon="7.264347164662601" id="-11397">
		<tag k="name" v="Årølivegen" />
		<tag k="ssr:date" v="2019-12-27" />
		<tag k="ssr:gruppe" v="veg" />
		<tag k="ssr:hovedgruppe" v="infrastruktur" />
		<tag k="ssr:stedsnr" v="1061782" />
		<tag k="ssr:type" v="adressenavn" />
	</node>
	<node lat="62.752312397030074" lon="7.219229267912636" id="-11398">
		<tag k="name" v="Mårskrenten" />
		<tag k="ssr:date" v="2019-12-27" />
		<tag k="ssr:gruppe" v="veg" />
		<tag k="ssr:hovedgruppe" v="infrastruktur" />
		<tag k="ssr:stedsnr" v="1061836" />
		<tag k="ssr:type" v="adressenavn" />
	</node>
	<node lat="62.753765770876804" lon="7.219889366861432" id="-11399">
		<tag k="name" v="Ulvestien" />
		<tag k="ssr:date" v="2019-12-27" />
		<tag k="ssr:gruppe" v="veg" />
		<tag k="ssr:hovedgruppe" v="infrastruktur" />
		<tag k="ssr:stedsnr" v="1061838" />
		<tag k="ssr:type" v="adressenavn" />
	</node>
	<node lat="62.73166035417608" lon="7.054765130423381" id="-11400">
		<tag k="name" v="Severines veg" />
		<tag k="ssr:date" v="2019-12-27" />
		<tag k="ssr:gruppe" v="veg" />
		<tag k="ssr:hovedgruppe" v="infrastruktur" />
		<tag k="ssr:stedsnr" v="1061839" />
		<tag k="ssr:type" v="adressenavn" />
	</node>
	<node lat="62.73154093420027" lon="7.052668957965921" id="-11401">
		<tag k="name" v="Hansbakken" />
		<tag k="ssr:date" v="2019-12-27" />
		<tag k="ssr:gruppe" v="veg" />
		<tag k="ssr:hovedgruppe" v="infrastruktur" />
		<tag k="ssr:stedsnr" v="1061840" />
		<tag k="ssr:type" v="adressenavn" />
	</node>
	<node lat="62.73123001431168" lon="7.049475517659824" id="-11402">
		<tag k="name" v="Pelskroken" />
		<tag k="ssr:date" v="2019-12-27" />
		<tag k="ssr:gruppe" v="veg" />
		<tag k="ssr:hovedgruppe" v="infrastruktur" />
		<tag k="ssr:stedsnr" v="1061841" />
		<tag k="ssr:type" v="adressenavn" />
	</node>
	<node lat="62.73227661928575" lon="7.056466107890746" id="-11403">
		<tag k="name" v="Djupdalsvegen" />
		<tag k="ssr:date" v="2019-12-27" />
		<tag k="ssr:gruppe" v="veg" />
		<tag k="ssr:hovedgruppe" v="infrastruktur" />
		<tag k="ssr:stedsnr" v="1061843" />
		<tag k="ssr:type" v="adressenavn" />
	</node>
	<node lat="62.75661048056196" lon="7.330396871996673" id="-11404">
		<tag k="name" v="Rabben" />
		<tag k="ssr:date" v="2019-12-27" />
		<tag k="ssr:gruppe" v="veg" />
		<tag k="ssr:hovedgruppe" v="infrastruktur" />
		<tag k="ssr:stedsnr" v="1061719" />
		<tag k="ssr:type" v="adressenavn" />
	</node>
	<node lat="62.69688154480482" lon="7.411474045095891" id="-11405">
		<tag k="name" v="Åsleet" />
		<tag k="ssr:date" v="2019-12-27" />
		<tag k="ssr:gruppe" v="veg" />
		<tag k="ssr:hovedgruppe" v="infrastruktur" />
		<tag k="ssr:stedsnr" v="1061720" />
		<tag k="ssr:type" v="adressenavn" />
	</node>
	<node lat="62.751741694341796" lon="7.204639733470128" id="-11406">
		<tag k="name" v="Grasskaret" />
		<tag k="ssr:date" v="2019-12-27" />
		<tag k="ssr:gruppe" v="veg" />
		<tag k="ssr:hovedgruppe" v="infrastruktur" />
		<tag k="ssr:stedsnr" v="1061721" />
		<tag k="ssr:type" v="adressenavn" />
	</node>
	<node lat="62.752681659712884" lon="7.201979577879002" id="-11407">
		<tag k="name" v="Bregnelia" />
		<tag k="ssr:date" v="2019-12-27" />
		<tag k="ssr:gruppe" v="veg" />
		<tag k="ssr:hovedgruppe" v="infrastruktur" />
		<tag k="ssr:stedsnr" v="1061722" />
		<tag k="ssr:type" v="adressenavn" />
	</node>
	<node lat="62.75089289271638" lon="7.204273201643002" id="-11408">
		<tag k="name" v="Jensgurilia" />
		<tag k="ssr:date" v="2019-12-27" />
		<tag k="ssr:gruppe" v="veg" />
		<tag k="ssr:hovedgruppe" v="infrastruktur" />
		<tag k="ssr:stedsnr" v="1061724" />
		<tag k="ssr:type" v="adressenavn" />
	</node>
	<node lat="62.74081261059913" lon="7.202105945053079" id="-11409">
		<tag k="name" v="Nerlandsvegen" />
		<tag k="ssr:date" v="2019-12-27" />
		<tag k="ssr:gruppe" v="veg" />
		<tag k="ssr:hovedgruppe" v="infrastruktur" />
		<tag k="ssr:stedsnr" v="1061726" />
		<tag k="ssr:type" v="adressenavn" />
	</node>
	<node lat="62.79625003942935" lon="7.637372610998027" id="-11410">
		<tag k="name" v="Nesvegen" />
		<tag k="ssr:date" v="2019-12-27" />
		<tag k="ssr:gruppe" v="veg" />
		<tag k="ssr:hovedgruppe" v="infrastruktur" />
		<tag k="ssr:stedsnr" v="1061728" />
		<tag k="ssr:type" v="adressenavn" />
	</node>
	<node lat="62.795352443698924" lon="7.634444878005545" id="-11411">
		<tag k="name" v="Nesbakken" />
		<tag k="ssr:date" v="2019-12-27" />
		<tag k="ssr:gruppe" v="veg" />
		<tag k="ssr:hovedgruppe" v="infrastruktur" />
		<tag k="ssr:stedsnr" v="1061729" />
		<tag k="ssr:type" v="adressenavn" />
	</node>
	<node lat="62.776691235468135" lon="7.650772939517656" id="-11412">
		<tag k="name" v="Osvegen" />
		<tag k="ssr:date" v="2019-12-27" />
		<tag k="ssr:gruppe" v="veg" />
		<tag k="ssr:hovedgruppe" v="infrastruktur" />
		<tag k="ssr:stedsnr" v="1061731" />
		<tag k="ssr:type" v="adressenavn" />
	</node>
	<node lat="62.75037491357381" lon="7.267229233935442" id="-11416">
		<tag k="name" v="Årøråket" />
		<tag k="ssr:date" v="2019-12-27" />
		<tag k="ssr:gruppe" v="veg" />
		<tag k="ssr:hovedgruppe" v="infrastruktur" />
		<tag k="ssr:stedsnr" v="1061786" />
		<tag k="ssr:type" v="adressenavn" />
	</node>
	<node lat="62.78604734785038" lon="7.5320915623535125" id="-11417">
		<tag k="name" v="Åsvegen" />
		<tag k="ssr:date" v="2019-12-27" />
		<tag k="ssr:gruppe" v="veg" />
		<tag k="ssr:hovedgruppe" v="infrastruktur" />
		<tag k="ssr:stedsnr" v="1061792" />
		<tag k="ssr:type" v="adressenavn" />
	</node>
	<node lat="62.754328375818034" lon="7.222340544013532" id="-11418">
		<tag k="name" v="Gaupevegen" />
		<tag k="ssr:date" v="2019-12-27" />
		<tag k="ssr:gruppe" v="veg" />
		<tag k="ssr:hovedgruppe" v="infrastruktur" />
		<tag k="ssr:stedsnr" v="1061799" />
		<tag k="ssr:type" v="adressenavn" />
	</node>
	<node lat="62.7529609666352" lon="7.210172452034012" id="-11419">
		<tag k="name" v="Litlereset" />
		<tag k="ssr:date" v="2019-12-27" />
		<tag k="ssr:gruppe" v="veg" />
		<tag k="ssr:hovedgruppe" v="infrastruktur" />
		<tag k="ssr:stedsnr" v="1061802" />
		<tag k="ssr:type" v="adressenavn" />
	</node>
	<node lat="62.75513490951316" lon="7.219808081294552" id="-11420">
		<tag k="name" v="Ekornbakken" />
		<tag k="ssr:date" v="2019-12-27" />
		<tag k="ssr:gruppe" v="veg" />
		<tag k="ssr:hovedgruppe" v="infrastruktur" />
		<tag k="ssr:stedsnr" v="1061804" />
		<tag k="ssr:type" v="adressenavn" />
	</node>
	<node lat="62.75313076940558" lon="7.216461889161161" id="-11421">
		<tag k="name" v="Gjerdhaugvegen" />
		<tag k="ssr:date" v="2019-12-27" />
		<tag k="ssr:gruppe" v="veg" />
		<tag k="ssr:hovedgruppe" v="infrastruktur" />
		<tag k="ssr:stedsnr" v="1061805" />
		<tag k="ssr:type" v="adressenavn" />
	</node>
	<node lat="62.75371447594681" lon="7.222125222416977" id="-11422">
		<tag k="name" v="Hjortefaret" />
		<tag k="ssr:date" v="2019-12-27" />
		<tag k="ssr:gruppe" v="veg" />
		<tag k="ssr:hovedgruppe" v="infrastruktur" />
		<tag k="ssr:stedsnr" v="1061806" />
		<tag k="ssr:type" v="adressenavn" />
	</node>
	<node lat="62.754204272818285" lon="7.22377489791639" id="-11423">
		<tag k="name" v="Revestien" />
		<tag k="ssr:date" v="2019-12-27" />
		<tag k="ssr:gruppe" v="veg" />
		<tag k="ssr:hovedgruppe" v="infrastruktur" />
		<tag k="ssr:stedsnr" v="1061807" />
		<tag k="ssr:type" v="adressenavn" />
	</node>
	<node lat="62.75398480197332" lon="7.219849043405889" id="-11424">
		<tag k="name" v="Bevermyra" />
		<tag k="ssr:date" v="2019-12-27" />
		<tag k="ssr:gruppe" v="veg" />
		<tag k="ssr:hovedgruppe" v="infrastruktur" />
		<tag k="ssr:stedsnr" v="1061809" />
		<tag k="ssr:type" v="adressenavn" />
	</node>
	<node lat="62.73696415495523" lon="7.160461472921865" id="-11425">
		<tag k="name" v="Rutebilholdeplassen" />
		<tag k="ssr:date" v="2019-12-27" />
		<tag k="ssr:gruppe" v="veg" />
		<tag k="ssr:hovedgruppe" v="infrastruktur" />
		<tag k="ssr:stedsnr" v="1061810" />
		<tag k="ssr:type" v="adressenavn" />
	</node>
	<node lat="62.73692070666035" lon="7.163052498372617" id="-11426">
		<tag k="name" v="Rektor Brinchmanns gate" />
		<tag k="ssr:date" v="2019-12-27" />
		<tag k="ssr:gruppe" v="veg" />
		<tag k="ssr:hovedgruppe" v="infrastruktur" />
		<tag k="ssr:stedsnr" v="1061812" />
		<tag k="ssr:type" v="adressenavn" />
	</node>
	<node lat="62.74332335563147" lon="7.197085337934448" id="-11427">
		<tag k="name" v="Kalkunvegen" />
		<tag k="ssr:date" v="2019-12-27" />
		<tag k="ssr:gruppe" v="veg" />
		<tag k="ssr:hovedgruppe" v="infrastruktur" />
		<tag k="ssr:stedsnr" v="1061813" />
		<tag k="ssr:type" v="adressenavn" />
	</node>
	<node lat="62.73760805309614" lon="7.163970919728272" id="-11428">
		<tag k="name" v="Elvemoloen" />
		<tag k="ssr:date" v="2019-12-27" />
		<tag k="ssr:gruppe" v="veg" />
		<tag k="ssr:hovedgruppe" v="infrastruktur" />
		<tag k="ssr:stedsnr" v="1061814" />
		<tag k="ssr:type" v="adressenavn" />
	</node>
	<node lat="62.75531305690811" lon="7.22062502798508" id="-11429">
		<tag k="name" v="Rådyrvegen" />
		<tag k="ssr:date" v="2019-12-27" />
		<tag k="ssr:gruppe" v="veg" />
		<tag k="ssr:hovedgruppe" v="infrastruktur" />
		<tag k="ssr:stedsnr" v="1061816" />
		<tag k="ssr:type" v="adressenavn" />
	</node>
	<node lat="62.75456383220101" lon="7.209851537528777" id="-11430">
		<tag k="name" v="Røyskattsvingen" />
		<tag k="ssr:date" v="2019-12-27" />
		<tag k="ssr:gruppe" v="veg" />
		<tag k="ssr:hovedgruppe" v="infrastruktur" />
		<tag k="ssr:stedsnr" v="1061817" />
		<tag k="ssr:type" v="adressenavn" />
	</node>
	<node lat="62.739565310063284" lon="7.137144700379582" id="-11431">
		<tag k="name" v="Ola Fladmarks veg" />
		<tag k="ssr:date" v="2019-12-27" />
		<tag k="ssr:gruppe" v="veg" />
		<tag k="ssr:hovedgruppe" v="infrastruktur" />
		<tag k="ssr:stedsnr" v="1061818" />
		<tag k="ssr:type" v="adressenavn" />
	</node>
	<node lat="62.75118208244464" lon="7.169848076848454" id="-11432">
		<tag k="name" v="Vardevegen" />
		<tag k="ssr:date" v="2019-12-27" />
		<tag k="ssr:gruppe" v="veg" />
		<tag k="ssr:hovedgruppe" v="infrastruktur" />
		<tag k="ssr:stedsnr" v="1061820" />
		<tag k="ssr:type" v="adressenavn" />
	</node>
	<node lat="62.794852561766625" lon="7.639759787929091" id="-11433">
		<tag k="name" v="Skulesvingen" />
		<tag k="ssr:date" v="2019-12-27" />
		<tag k="ssr:gruppe" v="veg" />
		<tag k="ssr:hovedgruppe" v="infrastruktur" />
		<tag k="ssr:stedsnr" v="1061821" />
		<tag k="ssr:type" v="adressenavn" />
	</node>
	<node lat="62.74750995577671" lon="7.25131829047531" id="-11434">
		<tag k="name" v="Tennstikkvegen" />
		<tag k="ssr:date" v="2019-12-27" />
		<tag k="ssr:gruppe" v="veg" />
		<tag k="ssr:hovedgruppe" v="infrastruktur" />
		<tag k="ssr:stedsnr" v="1061823" />
		<tag k="ssr:type" v="adressenavn" />
	</node>
	<node lat="62.7464935140956" lon="7.251866432589507" id="-11435">
		<tag k="name" v="Eikremsvingen" />
		<tag k="ssr:date" v="2019-12-27" />
		<tag k="ssr:gruppe" v="veg" />
		<tag k="ssr:hovedgruppe" v="infrastruktur" />
		<tag k="ssr:stedsnr" v="1061824" />
		<tag k="ssr:type" v="adressenavn" />
	</node>
	<node lat="62.739042381030494" lon="7.193720967469381" id="-11436">
		<tag k="name" v="Verftsgata" />
		<tag k="ssr:date" v="2019-12-27" />
		<tag k="ssr:gruppe" v="veg" />
		<tag k="ssr:hovedgruppe" v="infrastruktur" />
		<tag k="ssr:stedsnr" v="1061826" />
		<tag k="ssr:type" v="adressenavn" />
	</node>
	<node lat="62.78789205760568" lon="7.505880071047347" id="-11437">
		<tag k="name" v="Gujordsvegen" />
		<tag k="ssr:date" v="2019-12-27" />
		<tag k="ssr:gruppe" v="veg" />
		<tag k="ssr:hovedgruppe" v="infrastruktur" />
		<tag k="ssr:stedsnr" v="1061828" />
		<tag k="ssr:type" v="adressenavn" />
	</node>
	<node lat="62.7803060244051" lon="7.480644565893649" id="-11438">
		<tag k="name" v="Geilvegen" />
		<tag k="ssr:date" v="2019-12-27" />
		<tag k="ssr:gruppe" v="veg" />
		<tag k="ssr:hovedgruppe" v="infrastruktur" />
		<tag k="ssr:stedsnr" v="1061830" />
		<tag k="ssr:type" v="adressenavn" />
	</node>
	<node lat="62.77157690338044" lon="7.454573569895437" id="-11439">
		<tag k="name" v="Mjelvehagen" />
		<tag k="ssr:date" v="2019-12-27" />
		<tag k="ssr:gruppe" v="veg" />
		<tag k="ssr:hovedgruppe" v="infrastruktur" />
		<tag k="ssr:stedsnr" v="1061832" />
		<tag k="ssr:type" v="adressenavn" />
	</node>
	<node lat="62.754263072053114" lon="7.237695515371893" id="-11440">
		<tag k="name" v="Orrevegen" />
		<tag k="ssr:date" v="2019-12-27" />
		<tag k="ssr:gruppe" v="veg" />
		<tag k="ssr:hovedgruppe" v="infrastruktur" />
		<tag k="ssr:stedsnr" v="1061833" />
		<tag k="ssr:type" v="adressenavn" />
	</node>
	<node lat="62.752380085763136" lon="7.2857710596603855" id="-11441">
		<tag k="name" v="Skoglia" />
		<tag k="ssr:date" v="2019-12-27" />
		<tag k="ssr:gruppe" v="veg" />
		<tag k="ssr:hovedgruppe" v="infrastruktur" />
		<tag k="ssr:stedsnr" v="1061834" />
		<tag k="ssr:type" v="adressenavn" />
	</node>
	<node lat="62.79300233415032" lon="7.6241079913691" id="-11442">
		<tag k="name" v="Øygardsvegen" />
		<tag k="ssr:date" v="2019-12-27" />
		<tag k="ssr:gruppe" v="veg" />
		<tag k="ssr:hovedgruppe" v="infrastruktur" />
		<tag k="ssr:stedsnr" v="1061893" />
		<tag k="ssr:type" v="adressenavn" />
	</node>
	<node lat="62.747665066000856" lon="7.249063725038348" id="-11443">
		<tag k="name" v="Årøhagen" />
		<tag k="ssr:date" v="2019-12-27" />
		<tag k="ssr:gruppe" v="veg" />
		<tag k="ssr:hovedgruppe" v="infrastruktur" />
		<tag k="ssr:stedsnr" v="1061910" />
		<tag k="ssr:type" v="adressenavn" />
	</node>
	<node lat="62.748189822805124" lon="7.257887030621995" id="-11444">
		<tag k="name" v="Årtunvegen" />
		<tag k="ssr:date" v="2019-12-27" />
		<tag k="ssr:gruppe" v="veg" />
		<tag k="ssr:hovedgruppe" v="infrastruktur" />
		<tag k="ssr:stedsnr" v="1061914" />
		<tag k="ssr:type" v="adressenavn" />
	</node>
	<node lat="62.731397516078935" lon="7.314572705283567" id="-11485">
		<tag k="name" v="Vardholmvegen" />
		<tag k="old_name" v="Orvikvegen" />
		<tag k="ssr:date" v="2019-12-27" />
		<tag k="ssr:gruppe" v="veg" />
		<tag k="ssr:hovedgruppe" v="infrastruktur" />
		<tag k="ssr:stedsnr" v="1062005" />
		<tag k="ssr:type" v="adressenavn" />
	</node>
	<node lat="62.742300747349745" lon="7.170684577256612" id="-11536">
		<tag k="name" v="Vonheimvegen" />
		<tag k="ssr:date" v="2019-12-27" />
		<tag k="ssr:gruppe" v="veg" />
		<tag k="ssr:hovedgruppe" v="infrastruktur" />
		<tag k="ssr:stedsnr" v="1062149" />
		<tag k="ssr:type" v="adressenavn" />
	</node>
	<node lat="62.78145124116603" lon="7.497028718404889" id="-11537">
		<tag k="name" v="Vigvollvegen" />
		<tag k="ssr:date" v="2019-12-27" />
		<tag k="ssr:gruppe" v="veg" />
		<tag k="ssr:hovedgruppe" v="infrastruktur" />
		<tag k="ssr:stedsnr" v="1062337" />
		<tag k="ssr:type" v="adressenavn" />
	</node>
	<node lat="62.78188284341207" lon="7.498136075499966" id="-11538">
		<tag k="name" v="Vollan" />
		<tag k="ssr:date" v="2019-12-27" />
		<tag k="ssr:gruppe" v="veg" />
		<tag k="ssr:hovedgruppe" v="infrastruktur" />
		<tag k="ssr:stedsnr" v="1062369" />
		<tag k="ssr:type" v="adressenavn" />
	</node>
	<node lat="62.78176775731445" lon="7.498304555997803" id="-11539">
		<tag k="name" v="Vårbekkvegen" />
		<tag k="ssr:date" v="2019-12-27" />
		<tag k="ssr:gruppe" v="veg" />
		<tag k="ssr:hovedgruppe" v="infrastruktur" />
		<tag k="ssr:stedsnr" v="1062267" />
		<tag k="ssr:type" v="adressenavn" />
	</node>
	<node lat="62.739038649033944" lon="7.1609587914237265" id="-11540">
		<tag k="name" v="Veøygata" />
		<tag k="ssr:date" v="2019-12-27" />
		<tag k="ssr:gruppe" v="veg" />
		<tag k="ssr:hovedgruppe" v="infrastruktur" />
		<tag k="ssr:stedsnr" v="1062511" />
		<tag k="ssr:type" v="adressenavn" />
	</node>
	<node lat="62.74107876037563" lon="7.172366329837965" id="-11541">
		<tag k="name" v="Vestre Plassveg" />
		<tag k="ssr:date" v="2019-12-27" />
		<tag k="ssr:gruppe" v="veg" />
		<tag k="ssr:hovedgruppe" v="infrastruktur" />
		<tag k="ssr:stedsnr" v="1062610" />
		<tag k="ssr:type" v="adressenavn" />
	</node>
	<node lat="62.73689903650144" lon="7.098071491955624" id="-11542">
		<tag k="name" v="Øverbøen" />
		<tag k="ssr:date" v="2019-12-27" />
		<tag k="ssr:gruppe" v="veg" />
		<tag k="ssr:hovedgruppe" v="infrastruktur" />
		<tag k="ssr:stedsnr" v="1062857" />
		<tag k="ssr:type" v="adressenavn" />
	</node>
	<node lat="62.74583007188753" lon="7.234292028461548" id="-11543">
		<tag k="name" v="Østtorpvegen" />
		<tag k="ssr:date" v="2019-12-27" />
		<tag k="ssr:gruppe" v="veg" />
		<tag k="ssr:hovedgruppe" v="infrastruktur" />
		<tag k="ssr:stedsnr" v="1062862" />
		<tag k="ssr:type" v="adressenavn" />
	</node>
	<node lat="62.7419362228069" lon="7.201105268549463" id="-11544">
		<tag k="name" v="Øverlandsvegen" />
		<tag k="ssr:date" v="2019-12-27" />
		<tag k="ssr:gruppe" v="veg" />
		<tag k="ssr:hovedgruppe" v="infrastruktur" />
		<tag k="ssr:stedsnr" v="1062881" />
		<tag k="ssr:type" v="adressenavn" />
	</node>
	<node lat="62.74187085106383" lon="7.186680226228391" id="-11545">
		<tag k="name" v="Østre Plassveg" />
		<tag k="ssr:date" v="2019-12-27" />
		<tag k="ssr:gruppe" v="veg" />
		<tag k="ssr:hovedgruppe" v="infrastruktur" />
		<tag k="ssr:stedsnr" v="1062952" />
		<tag k="ssr:type" v="adressenavn" />
	</node>
	<node lat="62.74502049047099" lon="7.178798440774026" id="-11546">
		<tag k="name" v="Øivinds veg" />
		<tag k="ssr:date" v="2019-12-27" />
		<tag k="ssr:gruppe" v="veg" />
		<tag k="ssr:hovedgruppe" v="infrastruktur" />
		<tag k="ssr:stedsnr" v="1062808" />
		<tag k="ssr:type" v="adressenavn" />
	</node>
	<node lat="62.73834547235471" lon="7.168743883405071" id="-11547">
		<tag k="name" v="Øvre veg" />
		<tag k="ssr:date" v="2019-12-27" />
		<tag k="ssr:gruppe" v="veg" />
		<tag k="ssr:hovedgruppe" v="infrastruktur" />
		<tag k="ssr:stedsnr" v="1062829" />
		<tag k="ssr:type" v="adressenavn" />
	</node>
	<node lat="62.74293868456692" lon="7.191988268606667" id="-11548">
		<tag k="name" v="Østbovegen" />
		<tag k="ssr:date" v="2019-12-27" />
		<tag k="ssr:gruppe" v="veg" />
		<tag k="ssr:hovedgruppe" v="infrastruktur" />
		<tag k="ssr:stedsnr" v="1062923" />
		<tag k="ssr:type" v="adressenavn" />
	</node>
	<node lat="62.73129728409145" lon="7.322601287694117" id="-11578">
		<tag k="name" v="Kjerkjehaugvegen" />
		<tag k="ssr:date" v="2020-04-29" />
		<tag k="ssr:gruppe" v="veg" />
		<tag k="ssr:hovedgruppe" v="infrastruktur" />
		<tag k="ssr:stedsnr" v="1076702" />
		<tag k="ssr:type" v="adressenavn" />
	</node>
	<node lat="62.75865502957803" lon="8.030720268362007" id="-11579">
		<tag k="name" v="Kalvskinnet" />
		<tag k="ssr:date" v="2020-06-10" />
		<tag k="ssr:gruppe" v="veg" />
		<tag k="ssr:hovedgruppe" v="infrastruktur" />
		<tag k="ssr:stedsnr" v="1077309" />
		<tag k="ssr:type" v="adressenavn" />
	</node>
</osm>
