<?xml version="1.0" encoding="UTF-8"?>
<<<<<<< HEAD
<osm version="0.6" generator="osmapis">
	<node lat="58.623527777987285" lon="5.661247215580757" id="-9">
		<tag k="bridge" v="yes" />
		<tag k="layer" v="1" />
		<tag k="name" v="Brekkå" />
		<tag k="ssr:stedsnr" v="229716" />
	</node>
	<node lat="58.574663888514095" lon="5.761861108603827" id="-10">
=======
<osm generator="osmapis" version="0.6">
	<node id="-20096" lat="58.6574266066" lon="5.60080506715">
		<tag k="man_made" v="tower" />
		<tag k="name" v="Rogaland Radio" />
		<tag k="ssr:stedsnr" v="482345" />
		<tag k="tower:type" v="communications" />
	</node>
	<node id="-19965" lat="58.6107138902" lon="5.65198334015">
		<tag k="bridge" v="yes" />
		<tag k="layer" v="1" />
		<tag k="name" v="Reiestad (Øvre)" />
		<tag k="ssr:stedsnr" v="229732" />
	</node>
	<node id="-20087" lat="58.567672222" lon="5.69879167479">
		<tag k="bridge" v="yes" />
		<tag k="layer" v="1" />
		<tag k="name" v="Rothaugane" />
		<tag k="ssr:stedsnr" v="471735" />
	</node>
	<node id="-20086" lat="58.6573416692" lon="5.6550333264">
		<tag k="bridge" v="yes" />
		<tag k="layer" v="1" />
		<tag k="name" v="Dalabekk" />
		<tag k="ssr:stedsnr" v="471725" />
	</node>
	<node id="-20085" lat="58.6145222267" lon="5.64785833877">
		<tag k="bridge" v="yes" />
		<tag k="layer" v="1" />
		<tag k="name" v="Djupholen" />
		<tag k="ssr:stedsnr" v="471724" />
	</node>
	<node id="-20084" lat="58.6920694399" lon="5.64426665861">
		<tag k="bridge" v="yes" />
		<tag k="layer" v="1" />
		<tag k="name" v="Haugland (Nedre)" />
		<tag k="ssr:stedsnr" v="471722" />
	</node>
	<node id="-20083" lat="58.6808638854" lon="5.6172194367">
		<tag k="bridge" v="yes" />
		<tag k="layer" v="1" />
		<tag k="name" v="Bjorland" />
		<tag k="ssr:stedsnr" v="471716" />
	</node>
	<node id="-20338" lat="58.6094472188" lon="5.845880552">
		<tag k="bridge" v="yes" />
		<tag k="layer" v="1" />
		<tag k="name" v="Topdal" />
		<tag k="ssr:stedsnr" v="775723" />
	</node>
	<node id="-20465" lat="58.6842361076" lon="5.68064166802">
		<tag k="bridge" v="yes" />
		<tag k="layer" v="1" />
		<tag k="name" v="Njølstad" />
		<tag k="ssr:stedsnr" v="107761" />
	</node>
	<node id="-20464" lat="58.6635861072" lon="5.63383333144">
		<tag k="bridge" v="yes" />
		<tag k="layer" v="1" />
		<tag k="name" v="Skjærpebekken" />
		<tag k="ssr:stedsnr" v="107756" />
	</node>
	<node id="-20463" lat="58.5213222241" lon="5.8008416655">
		<tag k="bridge" v="yes" />
		<tag k="layer" v="1" />
		<tag k="name" v="Helgå" />
		<tag k="ssr:stedsnr" v="107742" />
	</node>
	<node id="-20462" lat="58.5409750043" lon="5.73254166995">
		<tag k="bridge" v="yes" />
		<tag k="layer" v="1" />
		<tag k="name" v="Brusand" />
		<tag k="ssr:stedsnr" v="107735" />
	</node>
	<node id="-20461" lat="58.6537083316" lon="5.6414805609">
		<tag k="bridge" v="yes" />
		<tag k="layer" v="1" />
		<tag k="name" v="Kvie" />
		<tag k="ssr:stedsnr" v="107728" />
	</node>
	<node id="-20460" lat="58.5929944482" lon="5.83316944874">
		<tag k="bridge" v="yes" />
		<tag k="layer" v="1" />
		<tag k="name" v="Matnisdal" />
		<tag k="ssr:stedsnr" v="107725" />
	</node>
	<node id="-20839" lat="58.585449999" lon="5.63982500438">
		<tag k="fixme" v="verify maritime location" />
		<tag k="mooring" v="yes" />
		<tag k="name" v="Årslandsstøa" />
		<tag k="place" v="locality" />
		<tag k="ssr:stedsnr" v="848896" />
	</node>
	<node id="-20709" lat="58.5702759526" lon="5.68797653943">
		<tag k="name" v="Vigrestad stasjon" />
		<tag k="railway" v="station" />
		<tag k="ssr:stedsnr" v="603893" />
		<tag k="train" v="yes" />
	</node>
	<node id="-20706" lat="58.5876333332" lon="5.80951111892">
		<tag k="bridge" v="yes" />
		<tag k="layer" v="1" />
		<tag k="name" v="Fossefjellet" />
		<tag k="ssr:stedsnr" v="592768" />
	</node>
	<node id="-20705" lat="58.673216662" lon="5.65425277024">
		<tag k="bridge" v="yes" />
		<tag k="layer" v="1" />
		<tag k="name" v="Bjørhaug" />
		<tag k="ssr:stedsnr" v="592764" />
	</node>
	<node id="-20704" lat="58.6127833313" lon="5.62563889137">
		<tag k="bridge" v="yes" />
		<tag k="layer" v="1" />
		<tag k="name" v="Bratland" />
		<tag k="ssr:stedsnr" v="592763" />
	</node>
	<node id="-20703" lat="58.5477138868" lon="5.69079722827">
		<tag k="bridge" v="yes" />
		<tag k="layer" v="1" />
		<tag k="name" v="Kvassheim" />
		<tag k="ssr:stedsnr" v="592756" />
	</node>
	<node id="-20830" lat="58.6093916685" lon="5.62942777251">
		<tag k="bridge" v="yes" />
		<tag k="layer" v="1" />
		<tag k="name" v="Varhaug" />
		<tag k="ssr:stedsnr" v="836728" />
	</node>
	<node id="-20829" lat="58.5854583326" lon="5.64683888256">
		<tag k="bridge" v="yes" />
		<tag k="layer" v="1" />
		<tag k="name" v="Årsland" />
		<tag k="ssr:stedsnr" v="836716" />
	</node>
	<node id="-20828" lat="58.621500002" lon="5.64000000401">
		<tag k="bridge" v="yes" />
		<tag k="layer" v="1" />
		<tag k="name" v="Nygård" />
		<tag k="ssr:stedsnr" v="836698" />
	</node>
	<node id="-20773" lat="58.6732749997" lon="5.60714721863">
		<tag k="bridge" v="yes" />
		<tag k="layer" v="1" />
		<tag k="name" v="Nesheimsstemmen" />
		<tag k="ssr:stedsnr" v="775700" />
	</node>
	<node id="-20310" lat="58.5198293662" lon="5.80328602896">
		<tag k="name" v="Ogna stasjon" />
		<tag k="railway" v="station" />
		<tag k="ssr:stedsnr" v="728408" />
		<tag k="train" v="yes" />
	</node>
	<node id="-20749" lat="58.6246444413" lon="5.6440555584">
		<tag k="bridge" v="yes" />
		<tag k="layer" v="1" />
		<tag k="name" v="Hobberstad" />
		<tag k="ssr:stedsnr" v="653735" />
	</node>
	<node id="-20748" lat="58.6177249965" lon="5.61113611679">
		<tag k="bridge" v="yes" />
		<tag k="layer" v="1" />
		<tag k="name" v="Bodle" />
		<tag k="ssr:stedsnr" v="653732" />
	</node>
	<node id="-20037" lat="58.5746638885" lon="5.7618611086">
>>>>>>> e1d4bc35ff8a6074a6f2e91616a996b547c36f15
		<tag k="bridge" v="yes" />
		<tag k="layer" v="1" />
		<tag k="name" v="Aniksdal" />
		<tag k="ssr:stedsnr" v="229718" />
	</node>
<<<<<<< HEAD
	<node lat="58.65991110812552" lon="5.59873333121767" id="-35">
=======
	<node id="-20036" lat="58.623527778" lon="5.66124721558">
>>>>>>> e1d4bc35ff8a6074a6f2e91616a996b547c36f15
		<tag k="bridge" v="yes" />
		<tag k="layer" v="1" />
		<tag k="name" v="Vigre" />
		<tag k="ssr:stedsnr" v="289798" />
	</node>
<<<<<<< HEAD
	<node lat="58.59299444820322" lon="5.833169448737665" id="-69">
		<tag k="bridge" v="yes" />
		<tag k="layer" v="1" />
		<tag k="name" v="Matnisdal" />
		<tag k="ssr:stedsnr" v="107725" />
	</node>
	<node lat="58.653708331638" lon="5.64148056089673" id="-70">
=======
	<node id="-20419" lat="58.5965388884" lon="5.62533055292">
		<tag k="fixme" v="verify maritime location" />
		<tag k="mooring" v="yes" />
		<tag k="name" v="Husveggstøa" />
		<tag k="place" v="locality" />
		<tag k="ssr:stedsnr" v="59896" />
	</node>
	<node id="-20034" lat="58.6221944409" lon="5.66018611061">
>>>>>>> e1d4bc35ff8a6074a6f2e91616a996b547c36f15
		<tag k="bridge" v="yes" />
		<tag k="layer" v="1" />
		<tag k="name" v="Kvie" />
		<tag k="ssr:stedsnr" v="107728" />
	</node>
<<<<<<< HEAD
	<node lat="58.54097500433784" lon="5.732541669950808" id="-71">
=======
	<node id="-20033" lat="58.5312527804" lon="5.77646945256">
>>>>>>> e1d4bc35ff8a6074a6f2e91616a996b547c36f15
		<tag k="bridge" v="yes" />
		<tag k="layer" v="1" />
		<tag k="name" v="Brusand" />
		<tag k="ssr:stedsnr" v="107735" />
	</node>
<<<<<<< HEAD
	<node lat="58.52132222405328" lon="5.800841665496251" id="-72">
		<tag k="bridge" v="yes" />
		<tag k="layer" v="1" />
		<tag k="name" v="Helgå" />
		<tag k="ssr:stedsnr" v="107742" />
	</node>
	<node lat="58.61071389021153" lon="5.6519833401498945" id="-112">
		<tag k="bridge" v="yes" />
		<tag k="layer" v="1" />
		<tag k="name" v="Reiestad (Øvre)" />
		<tag k="ssr:stedsnr" v="229732" />
	</node>
	<node lat="58.54961388814521" lon="5.671544447010729" id="-114">
=======
	<node id="-20415" lat="58.5403716759" lon="5.7488407215">
		<tag k="name" v="Brusand stasjon" />
		<tag k="railway" v="station" />
		<tag k="ssr:stedsnr" v="57945" />
		<tag k="train" v="yes" />
	</node>
	<node id="-20414" lat="58.62656111" lon="5.62706944531">
		<tag k="man_made" v="tower" />
		<tag k="name" v="Varhaug" />
		<tag k="ssr:stedsnr" v="57552" />
		<tag k="tower:type" v="communications" />
	</node>
	<node id="-19975" lat="58.5496138881" lon="5.67154444701">
>>>>>>> e1d4bc35ff8a6074a6f2e91616a996b547c36f15
		<tag k="fixme" v="verify maritime location" />
		<tag k="mooring" v="yes" />
		<tag k="name" v="Øyra" />
		<tag k="place" v="locality" />
		<tag k="ssr:stedsnr" v="239992" />
<<<<<<< HEAD
	</node>
	<node lat="58.53125278040064" lon="5.776469452562903" id="-127">
		<tag k="bridge" v="yes" />
		<tag k="layer" v="1" />
		<tag k="name" v="Varden" />
		<tag k="ssr:stedsnr" v="289793" />
	</node>
	<node lat="58.622194440877806" lon="5.660186110605627" id="-128">
=======
	</node>
	<node id="-20027" lat="58.6183746089" lon="5.64615398503">
		<tag k="name" v="Varhaug stasjon" />
		<tag k="railway" v="station" />
		<tag k="ssr:stedsnr" v="283486" />
		<tag k="train" v="yes" />
	</node>
	<node id="-20410" lat="58.6237777738" lon="5.65551666526">
>>>>>>> e1d4bc35ff8a6074a6f2e91616a996b547c36f15
		<tag k="bridge" v="yes" />
		<tag k="layer" v="1" />
		<tag k="name" v="Varhaug" />
		<tag k="ssr:stedsnr" v="289796" />
	</node>
<<<<<<< HEAD
	<node lat="58.68086388543936" lon="5.617219436703904" id="-143">
=======
	<node id="-20409" lat="58.5971416636" lon="5.65544721877">
>>>>>>> e1d4bc35ff8a6074a6f2e91616a996b547c36f15
		<tag k="bridge" v="yes" />
		<tag k="layer" v="1" />
		<tag k="name" v="Bjorland" />
		<tag k="ssr:stedsnr" v="471716" />
	</node>
<<<<<<< HEAD
	<node lat="58.69206943986526" lon="5.644266658611651" id="-144">
=======
	<node id="-20408" lat="58.6206638851" lon="5.62110000237">
>>>>>>> e1d4bc35ff8a6074a6f2e91616a996b547c36f15
		<tag k="bridge" v="yes" />
		<tag k="layer" v="1" />
		<tag k="name" v="Haugland (Nedre)" />
		<tag k="ssr:stedsnr" v="471722" />
	</node>
<<<<<<< HEAD
	<node lat="58.614522226740625" lon="5.647858338766284" id="-145">
=======
	<node id="-20407" lat="58.6076277774" lon="5.67253889421">
>>>>>>> e1d4bc35ff8a6074a6f2e91616a996b547c36f15
		<tag k="bridge" v="yes" />
		<tag k="layer" v="1" />
		<tag k="name" v="Djupholen" />
		<tag k="ssr:stedsnr" v="471724" />
	</node>
<<<<<<< HEAD
	<node lat="58.65734166919509" lon="5.655033326404197" id="-146">
		<tag k="bridge" v="yes" />
		<tag k="layer" v="1" />
		<tag k="name" v="Dalabekk" />
		<tag k="ssr:stedsnr" v="471725" />
	</node>
	<node lat="58.567672222013314" lon="5.698791674793647" id="-147">
		<tag k="bridge" v="yes" />
		<tag k="layer" v="1" />
		<tag k="name" v="Rothaugane" />
		<tag k="ssr:stedsnr" v="471735" />
	</node>
	<node lat="58.65742660657925" lon="5.600805067150901" id="-163">
		<tag k="man_made" v="tower" />
		<tag k="name" v="Rogaland Radio" />
		<tag k="ssr:stedsnr" v="482345" />
		<tag k="tower:type" v="communications" />
	</node>
	<node lat="58.571686109238435" lon="5.686941672074196" id="-198">
=======
	<node id="-20411" lat="58.5940361075" lon="5.71049723101">
		<tag k="bridge" v="yes" />
		<tag k="layer" v="1" />
		<tag k="name" v="Årslandsåna" />
		<tag k="ssr:stedsnr" v="46760" />
	</node>
	<node id="-20574" lat="58.67590833" lon="5.59065832645">
		<tag k="bridge" v="yes" />
		<tag k="layer" v="1" />
		<tag k="name" v="Nesheim" />
		<tag k="ssr:stedsnr" v="350692" />
	</node>
	<node id="-20529" lat="58.5027611074" lon="5.80682777429">
		<tag k="name" v="Sirevåg stasjon" />
		<tag k="railway" v="station" />
		<tag k="ssr:stedsnr" v="182375" />
		<tag k="train" v="yes" />
	</node>
	<node id="-20653" lat="58.5665027771" lon="5.65562223027">
>>>>>>> e1d4bc35ff8a6074a6f2e91616a996b547c36f15
		<tag k="bridge" v="yes" />
		<tag k="layer" v="1" />
		<tag k="name" v="Vigrestad" />
		<tag k="ssr:stedsnr" v="411702" />
	</node>
<<<<<<< HEAD
	<node lat="58.645433334709935" lon="5.670136104028947" id="-199">
=======
	<node id="-20652" lat="58.6810194446" lon="5.59157777575">
>>>>>>> e1d4bc35ff8a6074a6f2e91616a996b547c36f15
		<tag k="bridge" v="yes" />
		<tag k="layer" v="1" />
		<tag k="name" v="Rongen" />
		<tag k="ssr:stedsnr" v="411715" />
	</node>
<<<<<<< HEAD
	<node lat="58.566886112281175" lon="5.6975305549221025" id="-243">
=======
	<node id="-20651" lat="58.5668861123" lon="5.69753055492">
>>>>>>> e1d4bc35ff8a6074a6f2e91616a996b547c36f15
		<tag k="bridge" v="yes" />
		<tag k="layer" v="1" />
		<tag k="name" v="Rundvegen" />
		<tag k="ssr:stedsnr" v="532730" />
	</node>
<<<<<<< HEAD
	<node lat="58.624630555399584" lon="5.684963881755124" id="-314">
=======
	<node id="-20650" lat="58.6121277758" lon="5.63887500838">
>>>>>>> e1d4bc35ff8a6074a6f2e91616a996b547c36f15
		<tag k="bridge" v="yes" />
		<tag k="layer" v="1" />
		<tag k="name" v="Primstad" />
		<tag k="ssr:stedsnr" v="653727" />
	</node>
<<<<<<< HEAD
	<node lat="58.61772499646245" lon="5.611136116788954" id="-315">
=======
	<node id="-20649" lat="58.6871583335" lon="5.56100554907">
>>>>>>> e1d4bc35ff8a6074a6f2e91616a996b547c36f15
		<tag k="bridge" v="yes" />
		<tag k="layer" v="1" />
		<tag k="name" v="Bodle" />
		<tag k="ssr:stedsnr" v="653732" />
	</node>
<<<<<<< HEAD
	<node lat="58.6246444412671" lon="5.644055558398548" id="-316">
		<tag k="bridge" v="yes" />
		<tag k="layer" v="1" />
		<tag k="name" v="Hobberstad" />
		<tag k="ssr:stedsnr" v="653735" />
	</node>
	<node lat="58.56068809619924" lon="5.655393257108183" id="-328">
=======
	<node id="-20776" lat="58.5534361148" lon="5.66266943727">
		<tag k="fixme" v="verify maritime location" />
		<tag k="mooring" v="yes" />
		<tag k="name" v="Litle Skarstein" />
		<tag k="place" v="locality" />
		<tag k="ssr:stedsnr" v="785766" />
	</node>
	<node id="-20775" lat="58.5580527766" lon="5.65695000754">
>>>>>>> e1d4bc35ff8a6074a6f2e91616a996b547c36f15
		<tag k="fixme" v="verify maritime location" />
		<tag k="mooring" v="yes" />
		<tag k="name" v="Kjellestø" />
		<tag k="place" v="locality" />
<<<<<<< HEAD
		<tag k="ssr:stedsnr" v="709896" />
	</node>
	<node lat="58.51982936620273" lon="5.803286028956345" id="-369">
		<tag k="name" v="Ogna stasjon" />
=======
		<tag k="ssr:stedsnr" v="785765" />
	</node>
	<node id="-20337" lat="58.6274305529" lon="5.61481667361">
		<tag k="bridge" v="yes" />
		<tag k="layer" v="1" />
		<tag k="name" v="Hobberstad" />
		<tag k="ssr:stedsnr" v="775709" />
	</node>
	<node id="-20772" lat="58.6212472204" lon="5.73288611632">
		<tag k="bridge" v="yes" />
		<tag k="layer" v="1" />
		<tag k="name" v="Kloppesteinen" />
		<tag k="ssr:stedsnr" v="775698" />
	</node>
	<node id="-20899" lat="58.6657763877" lon="5.64055360282">
		<tag k="name" v="Nærbø stasjon" />
>>>>>>> e1d4bc35ff8a6074a6f2e91616a996b547c36f15
		<tag k="railway" v="station" />
		<tag k="ssr:stedsnr" v="728408" />
		<tag k="train" v="yes" />
	</node>
<<<<<<< HEAD
	<node lat="58.62743055289054" lon="5.614816673608965" id="-396">
		<tag k="bridge" v="yes" />
		<tag k="layer" v="1" />
		<tag k="name" v="Hobberstad" />
		<tag k="ssr:stedsnr" v="775709" />
	</node>
	<node lat="58.609447218845794" lon="5.845880552004778" id="-397">
=======
	<node id="-20575" lat="58.7002805601" lon="5.59023056326">
		<tag k="bridge" v="yes" />
		<tag k="layer" v="1" />
		<tag k="name" v="Salte (Ytre)" />
		<tag k="ssr:stedsnr" v="350715" />
	</node>
	<node id="-20894" lat="58.6396861121" lon="5.67062500591">
>>>>>>> e1d4bc35ff8a6074a6f2e91616a996b547c36f15
		<tag k="bridge" v="yes" />
		<tag k="layer" v="1" />
		<tag k="name" v="Topdal" />
		<tag k="ssr:stedsnr" v="775723" />
	</node>
<<<<<<< HEAD
	<node lat="58.558052776599446" lon="5.656950007541378" id="-407">
		<tag k="fixme" v="verify maritime location" />
		<tag k="mooring" v="yes" />
		<tag k="name" v="Store Skarstein" />
		<tag k="place" v="locality" />
		<tag k="ssr:stedsnr" v="785765" />
	</node>
	<node lat="58.553436114806736" lon="5.662669437270599" id="-408">
		<tag k="fixme" v="verify maritime location" />
		<tag k="mooring" v="yes" />
		<tag k="name" v="Litle Skarstein" />
		<tag k="place" v="locality" />
		<tag k="ssr:stedsnr" v="785766" />
	</node>
	<node lat="58.60939166849736" lon="5.6294277725063635" id="-437">
=======
	<node id="-20893" lat="58.6441694482" lon="5.66038611097">
		<tag k="bridge" v="yes" />
		<tag k="layer" v="1" />
		<tag k="name" v="Rangen" />
		<tag k="ssr:stedsnr" v="957715" />
	</node>
	<node id="-20506" lat="58.5382999983" lon="5.75416110511">
>>>>>>> e1d4bc35ff8a6074a6f2e91616a996b547c36f15
		<tag k="bridge" v="yes" />
		<tag k="layer" v="1" />
		<tag k="name" v="Varhaug" />
		<tag k="ssr:stedsnr" v="836728" />
	</node>
<<<<<<< HEAD
	<node lat="58.62150000198937" lon="5.640000004005103" id="-438">
		<tag k="bridge" v="yes" />
		<tag k="layer" v="1" />
		<tag k="name" v="Nygård" />
		<tag k="ssr:stedsnr" v="836698" />
	</node>
	<node lat="58.585449998958346" lon="5.639825004384882" id="-444">
		<tag k="fixme" v="verify maritime location" />
		<tag k="mooring" v="yes" />
		<tag k="name" v="Årslandsstøa" />
		<tag k="place" v="locality" />
		<tag k="ssr:stedsnr" v="848896" />
	</node>
	<node lat="58.69770555614357" lon="5.603136115724899" id="-476">
=======
	<node id="-20035" lat="58.6599111081" lon="5.59873333122">
		<tag k="bridge" v="yes" />
		<tag k="layer" v="1" />
		<tag k="name" v="Vigre" />
		<tag k="ssr:stedsnr" v="289798" />
	</node>
	<node id="-20750" lat="58.6117388846" lon="5.84731944134">
>>>>>>> e1d4bc35ff8a6074a6f2e91616a996b547c36f15
		<tag k="bridge" v="yes" />
		<tag k="layer" v="1" />
		<tag k="name" v="Kongeheia" />
		<tag k="ssr:stedsnr" v="896757" />
	</node>
<<<<<<< HEAD
	<node lat="58.51388610997234" lon="5.8055694469682955" id="-477">
=======
	<node id="-20365" lat="58.51388611" lon="5.80556944697">
>>>>>>> e1d4bc35ff8a6074a6f2e91616a996b547c36f15
		<tag k="bridge" v="yes" />
		<tag k="layer" v="1" />
		<tag k="name" v="Ogna" />
		<tag k="ssr:stedsnr" v="896759" />
	</node>
<<<<<<< HEAD
	<node lat="58.644169448214285" lon="5.660386110967909" id="-506">
=======
	<node id="-20364" lat="58.6977055561" lon="5.60313611572">
>>>>>>> e1d4bc35ff8a6074a6f2e91616a996b547c36f15
		<tag k="bridge" v="yes" />
		<tag k="layer" v="1" />
		<tag k="name" v="Rangen" />
		<tag k="ssr:stedsnr" v="957715" />
	</node>
<<<<<<< HEAD
	<node lat="58.63968611211693" lon="5.670625005907717" id="-507">
=======
	<node id="-20747" lat="58.6246305554" lon="5.68496388176">
>>>>>>> e1d4bc35ff8a6074a6f2e91616a996b547c36f15
		<tag k="bridge" v="yes" />
		<tag k="layer" v="1" />
		<tag k="name" v="Tvihaug" />
		<tag k="ssr:stedsnr" v="957743" />
	</node>
<<<<<<< HEAD
	<node lat="58.597141663638624" lon="5.655447218773027" id="-536">
=======
	<node id="-20618" lat="58.6454333347" lon="5.67013610403">
>>>>>>> e1d4bc35ff8a6074a6f2e91616a996b547c36f15
		<tag k="bridge" v="yes" />
		<tag k="layer" v="1" />
		<tag k="name" v="Odland" />
		<tag k="ssr:stedsnr" v="46753" />
	</node>
<<<<<<< HEAD
	<node lat="58.60762777737807" lon="5.6725388942066575" id="-537">
=======
	<node id="-20617" lat="58.5716861092" lon="5.68694167207">
>>>>>>> e1d4bc35ff8a6074a6f2e91616a996b547c36f15
		<tag k="bridge" v="yes" />
		<tag k="layer" v="1" />
		<tag k="name" v="Kydland" />
		<tag k="ssr:stedsnr" v="46746" />
	</node>
<<<<<<< HEAD
	<node lat="58.62066388506101" lon="5.6211000023740985" id="-538">
=======
	<node id="-20232" lat="58.5174555513" lon="5.82096389638">
>>>>>>> e1d4bc35ff8a6074a6f2e91616a996b547c36f15
		<tag k="bridge" v="yes" />
		<tag k="layer" v="1" />
		<tag k="name" v="Lerbrekke" />
		<tag k="ssr:stedsnr" v="46747" />
	</node>
<<<<<<< HEAD
	<node lat="58.62377777382934" lon="5.655516665261998" id="-539">
=======
	<node id="-20231" lat="58.5714472265" lon="5.65382500719">
>>>>>>> e1d4bc35ff8a6074a6f2e91616a996b547c36f15
		<tag k="bridge" v="yes" />
		<tag k="layer" v="1" />
		<tag k="name" v="Ånestad" />
		<tag k="ssr:stedsnr" v="46758" />
	</node>
<<<<<<< HEAD
	<node lat="58.59403610745663" lon="5.710497231008815" id="-540">
		<tag k="bridge" v="yes" />
		<tag k="layer" v="1" />
		<tag k="name" v="Årslandsåna" />
		<tag k="ssr:stedsnr" v="46760" />
	</node>
	<node lat="58.626561109951275" lon="5.627069445306966" id="-543">
		<tag k="man_made" v="tower" />
		<tag k="name" v="Varhaug" />
		<tag k="ssr:stedsnr" v="57552" />
		<tag k="tower:type" v="communications" />
	</node>
	<node lat="58.540371675908276" lon="5.748840721503246" id="-544">
		<tag k="name" v="Brusand stasjon" />
		<tag k="railway" v="station" />
		<tag k="ssr:stedsnr" v="57945" />
		<tag k="train" v="yes" />
	</node>
	<node lat="58.59653888839759" lon="5.625330552918046" id="-550">
		<tag k="fixme" v="verify maritime location" />
		<tag k="mooring" v="yes" />
		<tag k="name" v="Husveggstøa" />
		<tag k="place" v="locality" />
		<tag k="ssr:stedsnr" v="59896" />
	</node>
	<node lat="58.66358610719562" lon="5.6338333314440465" id="-576">
		<tag k="bridge" v="yes" />
		<tag k="layer" v="1" />
		<tag k="name" v="Skjærpebekken" />
		<tag k="ssr:stedsnr" v="107756" />
	</node>
	<node lat="58.684236107643365" lon="5.6806416680178184" id="-577">
		<tag k="bridge" v="yes" />
		<tag k="layer" v="1" />
		<tag k="name" v="Njølstad" />
		<tag k="ssr:stedsnr" v="107761" />
	</node>
	<node lat="58.538299998303984" lon="5.754161105107087" id="-610">
		<tag k="bridge" v="yes" />
		<tag k="layer" v="1" />
		<tag k="name" v="Vaule" />
		<tag k="ssr:stedsnr" v="168739" />
	</node>
	<node lat="58.50276110737163" lon="5.806827774291664" id="-633">
		<tag k="name" v="Sirevåg stasjon" />
		<tag k="railway" v="station" />
		<tag k="ssr:stedsnr" v="182375" />
		<tag k="train" v="yes" />
	</node>
	<node lat="58.61837460894996" lon="5.646153985033228" id="-650">
		<tag k="name" v="Varhaug stasjon" />
		<tag k="railway" v="station" />
		<tag k="ssr:stedsnr" v="283486" />
		<tag k="train" v="yes" />
	</node>
	<node lat="58.700280560090626" lon="5.59023056326075" id="-690">
		<tag k="bridge" v="yes" />
		<tag k="layer" v="1" />
		<tag k="name" v="Salte (Ytre)" />
		<tag k="ssr:stedsnr" v="350715" />
	</node>
	<node lat="58.67590832998227" lon="5.590658326446926" id="-691">
		<tag k="bridge" v="yes" />
		<tag k="layer" v="1" />
		<tag k="name" v="Nesheim" />
		<tag k="ssr:stedsnr" v="350692" />
	</node>
	<node lat="58.68715833345647" lon="5.5610055490663335" id="-768">
		<tag k="bridge" v="yes" />
		<tag k="layer" v="1" />
		<tag k="name" v="Refsnes" />
		<tag k="ssr:stedsnr" v="532710" />
	</node>
	<node lat="58.612127775761934" lon="5.638875008381067" id="-769">
		<tag k="bridge" v="yes" />
		<tag k="layer" v="1" />
		<tag k="name" v="Reiestad (Nedre)" />
		<tag k="ssr:stedsnr" v="532711" />
	</node>
	<node lat="58.68101944455951" lon="5.591577775747278" id="-770">
		<tag k="bridge" v="yes" />
		<tag k="layer" v="1" />
		<tag k="name" v="Søyland" />
		<tag k="ssr:stedsnr" v="532733" />
	</node>
	<node lat="58.56650277710607" lon="5.65562223027332" id="-771">
		<tag k="bridge" v="yes" />
		<tag k="layer" v="1" />
		<tag k="name" v="Stavnheimsvika" />
		<tag k="ssr:stedsnr" v="532735" />
	</node>
	<node lat="58.54771388676667" lon="5.690797228266093" id="-800">
		<tag k="bridge" v="yes" />
		<tag k="layer" v="1" />
		<tag k="name" v="Kvassheim" />
		<tag k="ssr:stedsnr" v="592756" />
	</node>
	<node lat="58.61278333134167" lon="5.6256388913737965" id="-801">
		<tag k="bridge" v="yes" />
		<tag k="layer" v="1" />
		<tag k="name" v="Bratland" />
		<tag k="ssr:stedsnr" v="592763" />
	</node>
	<node lat="58.6732166620188" lon="5.654252770238552" id="-802">
		<tag k="bridge" v="yes" />
		<tag k="layer" v="1" />
		<tag k="name" v="Bjørhaug" />
		<tag k="ssr:stedsnr" v="592764" />
	</node>
	<node lat="58.58763333318973" lon="5.809511118922002" id="-803">
		<tag k="bridge" v="yes" />
		<tag k="layer" v="1" />
		<tag k="name" v="Fossefjellet" />
		<tag k="ssr:stedsnr" v="592768" />
	</node>
	<node lat="58.57027595257556" lon="5.687976539425196" id="-805">
		<tag k="name" v="Vigrestad stasjon" />
		<tag k="railway" v="station" />
		<tag k="ssr:stedsnr" v="603893" />
		<tag k="train" v="yes" />
	</node>
	<node lat="58.61173888456337" lon="5.847319441336658" id="-831">
		<tag k="bridge" v="yes" />
		<tag k="layer" v="1" />
		<tag k="name" v="Topdal (Øvre)" />
		<tag k="ssr:stedsnr" v="653751" />
	</node>
	<node lat="58.57144722650308" lon="5.653825007193372" id="-847">
		<tag k="bridge" v="yes" />
		<tag k="layer" v="1" />
		<tag k="name" v="Bakken" />
		<tag k="ssr:stedsnr" v="714696" />
	</node>
	<node lat="58.51745555129456" lon="5.820963896384574" id="-848">
		<tag k="bridge" v="yes" />
		<tag k="layer" v="1" />
		<tag k="name" v="Hølland" />
		<tag k="ssr:stedsnr" v="714697" />
	</node>
	<node lat="58.621247220354576" lon="5.732886116318773" id="-871">
		<tag k="bridge" v="yes" />
		<tag k="layer" v="1" />
		<tag k="name" v="Kloppesteinen" />
		<tag k="ssr:stedsnr" v="775698" />
	</node>
	<node lat="58.67327499966094" lon="5.607147218630487" id="-872">
		<tag k="bridge" v="yes" />
		<tag k="layer" v="1" />
		<tag k="name" v="Nesheimsstemmen" />
		<tag k="ssr:stedsnr" v="775700" />
	</node>
	<node lat="58.58545833255723" lon="5.646838882558544" id="-909">
		<tag k="bridge" v="yes" />
		<tag k="layer" v="1" />
		<tag k="name" v="Årsland" />
		<tag k="ssr:stedsnr" v="836716" />
	</node>
	<node lat="58.665776387663236" lon="5.640553602824721" id="-958">
		<tag k="name" v="Nærbø stasjon" />
		<tag k="railway" v="station" />
		<tag k="ssr:stedsnr" v="990085" />
		<tag k="train" v="yes" />
	</node>
=======
	<node id="-20226" lat="58.5606880962" lon="5.65539325711">
		<tag k="fixme" v="verify maritime location" />
		<tag k="mooring" v="yes" />
		<tag k="name" v="Kjellestø" />
		<tag k="place" v="locality" />
		<tag k="ssr:stedsnr" v="709896" />
	</node>
>>>>>>> e1d4bc35ff8a6074a6f2e91616a996b547c36f15
</osm>
