<?xml version="1.0" encoding="UTF-8"?>
<<<<<<< HEAD
<osm version="0.6" generator="osmapis">
	<node lat="58.612274998607035" lon="5.8206611179779015" id="-3">
		<tag k="name" v="Vardurda" />
=======
<osm generator="osmapis" version="0.6">
	<node id="-19968" lat="58.6379111132" lon="5.67632778215">
		<tag k="fixme" v="consider natural=peak for the most distinct mountains in the district" />
		<tag k="name" v="Pighaug" />
		<tag k="natural" v="hill" />
		<tag k="place" v="locality" />
		<tag k="ssr:stedsnr" v="40608" />
	</node>
	<node id="-20475" lat="58.5215166655" lon="5.8081166659">
		<tag k="fixme" v="consider natural=peak for the most distinct mountains in the district" />
		<tag k="name" v="Salthelleren" />
		<tag k="natural" v="hill" />
		<tag k="place" v="locality" />
		<tag k="ssr:stedsnr" v="119954" />
	</node>
	<node id="-19958" lat="58.5158031882" lon="5.82895465319">
		<tag k="name" v="Svarte Lønning" />
		<tag k="natural" v="hill" />
		<tag k="place" v="locality" />
		<tag k="ssr:stedsnr" v="224250" />
	</node>
	<node id="-19947" lat="58.530361115" lon="5.79560555283">
		<tag k="name" v="Revafjellet" />
		<tag k="natural" v="hill" />
		<tag k="place" v="locality" />
		<tag k="ssr:stedsnr" v="447" />
	</node>
	<node id="-20819" lat="58.5828416708" lon="5.8237333319">
		<tag k="fixme" v="consider natural=peak for the most distinct mountains in the district" />
		<tag k="name" v="Grønåsen" />
		<tag k="natural" v="hill" />
		<tag k="place" v="locality" />
		<tag k="ssr:stedsnr" v="829611" />
	</node>
	<node id="-20459" lat="58.5591916709" lon="5.79177221787">
		<tag k="fixme" v="consider natural=peak for the most distinct mountains in the district" />
		<tag k="name" v="Kvennhamrane" />
		<tag k="natural" v="hill" />
		<tag k="place" v="locality" />
		<tag k="ssr:stedsnr" v="103932" />
	</node>
	<node id="-19941" lat="58.6122749986" lon="5.82066111798">
		<tag k="name" v="Vardurda" />
		<tag k="natural" v="hill" />
		<tag k="place" v="locality" />
		<tag k="ssr:stedsnr" v="360" />
	</node>
	<node id="-19963" lat="58.5551305535" lon="5.79147222773">
		<tag k="name" v="Hinnarsland" />
		<tag k="natural" v="hill" />
		<tag k="place" v="locality" />
		<tag k="ssr:stedsnr" v="224939" />
	</node>
	<node id="-20445" lat="58.5876111142" lon="5.85910833291">
		<tag k="fixme" v="consider natural=peak for the most distinct mountains in the district" />
		<tag k="name" v="Perafjella" />
		<tag k="natural" v="hill" />
		<tag k="place" v="locality" />
		<tag k="ssr:stedsnr" v="83750" />
	</node>
	<node id="-20443" lat="58.5061277737" lon="5.85909722494">
		<tag k="name" v="Ulvhus" />
		<tag k="place" v="locality" />
		<tag k="ssr:stedsnr" v="83125" />
	</node>
	<node id="-20437" lat="58.4992750034" lon="5.85318054692">
		<tag k="fixme" v="consider natural=peak for the most distinct mountains in the district" />
		<tag k="name" v="Krokafjellet" />
		<tag k="natural" v="hill" />
		<tag k="place" v="locality" />
		<tag k="ssr:stedsnr" v="61741" />
	</node>
	<node id="-20728" lat="58.6017596703" lon="5.79187881752">
		<tag k="name" v="Anisdalheia" />
		<tag k="natural" v="hill" />
		<tag k="place" v="locality" />
		<tag k="ssr:stedsnr" v="629335" />
	</node>
	<node id="-20730" lat="58.5827055558" lon="5.83543055759">
		<tag k="fixme" v="consider natural=peak for the most distinct mountains in the district" />
		<tag k="name" v="Hedlarfjellet" />
		<tag k="natural" v="hill" />
		<tag k="place" v="locality" />
		<tag k="ssr:stedsnr" v="629733" />
	</node>
	<node id="-20421" lat="58.5342861145" lon="5.78607499529">
		<tag k="fixme" v="consider natural=peak for the most distinct mountains in the district" />
		<tag k="name" v="Orretua" />
>>>>>>> e1d4bc35ff8a6074a6f2e91616a996b547c36f15
		<tag k="natural" v="hill" />
		<tag k="place" v="locality" />
		<tag k="ssr:stedsnr" v="360" />
	</node>
<<<<<<< HEAD
	<node lat="58.53036111498255" lon="5.795605552829506" id="-7">
		<tag k="name" v="Revafjellet" />
=======
	<node id="-20420" lat="58.5225194411" lon="5.7920833265">
		<tag k="fixme" v="consider natural=peak for the most distinct mountains in the district" />
		<tag k="name" v="Kattafjellet" />
>>>>>>> e1d4bc35ff8a6074a6f2e91616a996b547c36f15
		<tag k="natural" v="hill" />
		<tag k="place" v="locality" />
		<tag k="ssr:stedsnr" v="447" />
	</node>
<<<<<<< HEAD
	<node lat="58.50448888777447" lon="5.842858327764389" id="-11">
		<tag k="fixme" v="consider natural=peak for the most distinct mountains in the district" />
		<tag k="name" v="Beinskinnfjellet" />
=======
	<node id="-20413" lat="58.4881249961" lon="5.83845832575">
		<tag k="name" v="Numberget" />
>>>>>>> e1d4bc35ff8a6074a6f2e91616a996b547c36f15
		<tag k="natural" v="hill" />
		<tag k="place" v="locality" />
		<tag k="ssr:stedsnr" v="23144" />
	</node>
<<<<<<< HEAD
	<node lat="58.63791111319774" lon="5.676327782148621" id="-16">
		<tag k="fixme" v="consider natural=peak for the most distinct mountains in the district" />
		<tag k="name" v="Pighaug" />
=======
	<node id="-20412" lat="58.4868055541" lon="5.81595556118">
		<tag k="name" v="Kontralen" />
>>>>>>> e1d4bc35ff8a6074a6f2e91616a996b547c36f15
		<tag k="natural" v="hill" />
		<tag k="place" v="locality" />
		<tag k="ssr:stedsnr" v="40608" />
	</node>
<<<<<<< HEAD
	<node lat="58.5949166650974" lon="5.797572227856646" id="-17">
		<tag k="fixme" v="consider natural=peak for the most distinct mountains in the district" />
		<tag k="name" v="Kristianfjellet" />
=======
	<node id="-20406" lat="58.6035722194" lon="5.71637500833">
		<tag k="name" v="Skjengbakken" />
>>>>>>> e1d4bc35ff8a6074a6f2e91616a996b547c36f15
		<tag k="natural" v="hill" />
		<tag k="place" v="locality" />
		<tag k="ssr:stedsnr" v="40613" />
	</node>
<<<<<<< HEAD
	<node lat="58.56550000375361" lon="5.761366671066912" id="-19">
=======
	<node id="-20404" lat="58.5655000038" lon="5.76136667107">
>>>>>>> e1d4bc35ff8a6074a6f2e91616a996b547c36f15
		<tag k="fixme" v="consider natural=peak for the most distinct mountains in the district" />
		<tag k="name" v="Hadlandsfjellet" />
		<tag k="natural" v="hill" />
		<tag k="place" v="locality" />
		<tag k="ssr:stedsnr" v="42588" />
	</node>
<<<<<<< HEAD
	<node lat="58.538997220807566" lon="5.809552772580785" id="-37">
=======
	<node id="-20403" lat="58.5791416704" lon="5.75516665817">
		<tag k="name" v="Håbakken" />
		<tag k="natural" v="slope" />
		<tag k="place" v="locality" />
		<tag k="ssr:stedsnr" v="42570" />
	</node>
	<node id="-20400" lat="58.5949166651" lon="5.79757222786">
>>>>>>> e1d4bc35ff8a6074a6f2e91616a996b547c36f15
		<tag k="fixme" v="consider natural=peak for the most distinct mountains in the district" />
		<tag k="name" v="Kallesteinen" />
		<tag k="natural" v="hill" />
		<tag k="place" v="locality" />
		<tag k="ssr:stedsnr" v="241939" />
	</node>
<<<<<<< HEAD
	<node lat="58.53237778167622" lon="5.791972224656334" id="-38">
		<tag k="fixme" v="consider natural=peak for the most distinct mountains in the district" />
		<tag k="name" v="Risfjell" />
		<tag k="natural" v="hill" />
		<tag k="place" v="locality" />
		<tag k="ssr:stedsnr" v="241943" />
	</node>
	<node lat="58.47832505364848" lon="5.847725931025697" id="-39">
=======
	<node id="-20390" lat="58.5044888878" lon="5.84285832776">
>>>>>>> e1d4bc35ff8a6074a6f2e91616a996b547c36f15
		<tag k="fixme" v="consider natural=peak for the most distinct mountains in the district" />
		<tag k="name" v="Moifjellet" />
		<tag k="natural" v="hill" />
		<tag k="place" v="locality" />
		<tag k="ssr:stedsnr" v="242628" />
	</node>
<<<<<<< HEAD
	<node lat="58.65385833482947" lon="5.622063886315699" id="-46">
		<tag k="name" v="Hanaberget" />
		<tag k="natural" v="hill" />
		<tag k="place" v="locality" />
		<tag k="ssr:stedsnr" v="243289" />
	</node>
	<node lat="58.54160555810166" lon="5.825300001992222" id="-58">
=======
	<node id="-20549" lat="58.5293222206" lon="5.81000277174">
		<tag k="fixme" v="consider natural=peak for the most distinct mountains in the district" />
		<tag k="name" v="Borgåsen" />
		<tag k="natural" v="hill" />
		<tag k="place" v="locality" />
		<tag k="ssr:stedsnr" v="301951" />
	</node>
	<node id="-20892" lat="58.550663887" lon="5.78790834005">
>>>>>>> e1d4bc35ff8a6074a6f2e91616a996b547c36f15
		<tag k="fixme" v="consider natural=peak for the most distinct mountains in the district" />
		<tag k="name" v="Grønåsen" />
		<tag k="natural" v="hill" />
		<tag k="place" v="locality" />
		<tag k="ssr:stedsnr" v="243432" />
	</node>
<<<<<<< HEAD
	<node lat="58.506127773692725" lon="5.85909722493507" id="-60">
		<tag k="name" v="Ulvhus" />
=======
	<node id="-20891" lat="58.5679972218" lon="5.7609277819">
		<tag k="name" v="Grøne haugen" />
		<tag k="natural" v="hill" />
>>>>>>> e1d4bc35ff8a6074a6f2e91616a996b547c36f15
		<tag k="place" v="locality" />
		<tag k="ssr:stedsnr" v="83125" />
	</node>
<<<<<<< HEAD
	<node lat="58.55919167091212" lon="5.791772217865239" id="-68">
=======
	<node id="-20378" lat="58.52391111" lon="5.78839723081">
>>>>>>> e1d4bc35ff8a6074a6f2e91616a996b547c36f15
		<tag k="fixme" v="consider natural=peak for the most distinct mountains in the district" />
		<tag k="name" v="Kvennhamrane" />
		<tag k="natural" v="hill" />
		<tag k="place" v="locality" />
		<tag k="ssr:stedsnr" v="103932" />
	</node>
<<<<<<< HEAD
	<node lat="58.592944442762125" lon="5.788208340856824" id="-78">
		<tag k="name" v="Harafjellet" />
=======
	<node id="-20887" lat="58.5835027818" lon="5.69366111027">
		<tag k="name" v="Runde Høyebakk" />
>>>>>>> e1d4bc35ff8a6074a6f2e91616a996b547c36f15
		<tag k="natural" v="hill" />
		<tag k="place" v="locality" />
		<tag k="ssr:stedsnr" v="121371" />
	</node>
<<<<<<< HEAD
	<node lat="58.62028333365496" lon="5.7906277830320265" id="-82">
=======
	<node id="-20883" lat="58.5825999959" lon="5.80423889779">
>>>>>>> e1d4bc35ff8a6074a6f2e91616a996b547c36f15
		<tag k="fixme" v="consider natural=peak for the most distinct mountains in the district" />
		<tag k="name" v="Snødehaugen" />
		<tag k="natural" v="hill" />
		<tag k="place" v="locality" />
		<tag k="ssr:stedsnr" v="121284" />
	</node>
<<<<<<< HEAD
	<node lat="58.588411109222086" lon="5.84327777003171" id="-86">
		<tag k="name" v="Slåttedalen" />
		<tag k="natural" v="valley" />
=======
	<node id="-20363" lat="58.5522444466" lon="5.77921944245">
		<tag k="fixme" v="consider natural=peak for the most distinct mountains in the district" />
		<tag k="name" v="Skallen" />
		<tag k="natural" v="hill" />
>>>>>>> e1d4bc35ff8a6074a6f2e91616a996b547c36f15
		<tag k="place" v="locality" />
		<tag k="ssr:stedsnr" v="144725" />
	</node>
<<<<<<< HEAD
	<node lat="58.59840833269018" lon="5.787299996975355" id="-87">
		<tag k="name" v="Burstølen" />
		<tag k="natural" v="hill" />
		<tag k="place" v="locality" />
		<tag k="ssr:stedsnr" v="161567" />
	</node>
	<node lat="58.49990833277373" lon="5.795383329645612" id="-95">
		<tag k="fixme" v="consider natural=peak for the most distinct mountains in the district" />
		<tag k="name" v="Vedafjellet" />
=======
	<node id="-20362" lat="58.6149166654" lon="5.76144166924">
		<tag k="name" v="Snøderyggen" />
		<tag k="natural" v="hill" />
		<tag k="place" v="locality" />
		<tag k="ssr:stedsnr" v="890528" />
	</node>
	<node id="-20360" lat="58.5941833334" lon="5.85808888261">
		<tag k="name" v="Buskogliane" />
		<tag k="natural" v="slope" />
		<tag k="place" v="locality" />
		<tag k="ssr:stedsnr" v="872771" />
	</node>
	<node id="-20359" lat="58.6188138866" lon="5.84672499782">
		<tag k="name" v="Marsteinberget" />
>>>>>>> e1d4bc35ff8a6074a6f2e91616a996b547c36f15
		<tag k="natural" v="hill" />
		<tag k="place" v="locality" />
		<tag k="ssr:stedsnr" v="182416" />
	</node>
<<<<<<< HEAD
	<node lat="58.613130555391784" lon="5.843519452338169" id="-101">
		<tag k="name" v="Rennefjellet" />
=======
	<node id="-20523" lat="58.608152781" lon="5.74816389327">
		<tag k="name" v="Likholen" />
		<tag k="natural" v="hill" />
		<tag k="place" v="locality" />
		<tag k="ssr:stedsnr" v="182339" />
	</node>
	<node id="-20867" lat="58.6006055533" lon="5.82516389596">
		<tag k="name" v="Ruskefjellet" />
>>>>>>> e1d4bc35ff8a6074a6f2e91616a996b547c36f15
		<tag k="natural" v="hill" />
		<tag k="place" v="locality" />
		<tag k="ssr:stedsnr" v="205751" />
	</node>
<<<<<<< HEAD
	<node lat="58.51580318817423" lon="5.828954653194982" id="-106">
		<tag k="name" v="Svarte Lønning" />
=======
	<node id="-20353" lat="58.5798277816" lon="5.79979444634">
		<tag k="fixme" v="consider natural=peak for the most distinct mountains in the district" />
		<tag k="name" v="Hyljafjellet" />
>>>>>>> e1d4bc35ff8a6074a6f2e91616a996b547c36f15
		<tag k="natural" v="hill" />
		<tag k="place" v="locality" />
		<tag k="ssr:stedsnr" v="224250" />
	</node>
<<<<<<< HEAD
	<node lat="58.55513055345825" lon="5.791472227733827" id="-108">
		<tag k="name" v="Hinnarsland" />
=======
	<node id="-20352" lat="58.6669333364" lon="5.65344722494">
		<tag k="name" v="Skjeraberget" />
>>>>>>> e1d4bc35ff8a6074a6f2e91616a996b547c36f15
		<tag k="natural" v="hill" />
		<tag k="place" v="locality" />
		<tag k="ssr:stedsnr" v="224939" />
	</node>
<<<<<<< HEAD
	<node lat="58.606869442684605" lon="5.6192527720124525" id="-115">
		<tag k="alt_name" v="Djupedal litle" />
		<tag k="name" v="Litle Djupedal" />
		<tag k="natural" v="valley" />
=======
	<node id="-20350" lat="58.587583336" lon="5.83627222819">
		<tag k="fixme" v="consider natural=peak for the most distinct mountains in the district" />
		<tag k="name" v="Augarfjellet" />
		<tag k="natural" v="hill" />
>>>>>>> e1d4bc35ff8a6074a6f2e91616a996b547c36f15
		<tag k="place" v="locality" />
		<tag k="ssr:stedsnr" v="241537" />
	</node>
<<<<<<< HEAD
	<node lat="58.61579344292076" lon="5.726493532802219" id="-125">
		<tag k="name" v="Bergarholen" />
=======
	<node id="-20349" lat="58.6033500021" lon="5.84445555965">
		<tag k="fixme" v="consider natural=peak for the most distinct mountains in the district" />
		<tag k="name" v="Kråkefjellet" />
>>>>>>> e1d4bc35ff8a6074a6f2e91616a996b547c36f15
		<tag k="natural" v="hill" />
		<tag k="place" v="locality" />
		<tag k="ssr:stedsnr" v="282474" />
	</node>
<<<<<<< HEAD
	<node lat="58.52490555769972" lon="5.823719448843836" id="-131">
		<tag k="name" v="Klakken" />
=======
	<node id="-20348" lat="58.6068277749" lon="5.85303332677">
		<tag k="name" v="Liafjellet" />
		<tag k="natural" v="hill" />
>>>>>>> e1d4bc35ff8a6074a6f2e91616a996b547c36f15
		<tag k="place" v="locality" />
		<tag k="ssr:stedsnr" v="301926" />
	</node>
<<<<<<< HEAD
	<node lat="58.56040833187903" lon="5.781547225047038" id="-141">
=======
	<node id="-20346" lat="58.5262277749" lon="5.83491389404">
>>>>>>> e1d4bc35ff8a6074a6f2e91616a996b547c36f15
		<tag k="fixme" v="consider natural=peak for the most distinct mountains in the district" />
		<tag k="name" v="Kråkefjell" />
		<tag k="natural" v="hill" />
		<tag k="place" v="locality" />
		<tag k="ssr:stedsnr" v="467940" />
	</node>
<<<<<<< HEAD
	<node lat="58.654611108747645" lon="5.711336106043105" id="-149">
		<tag k="name" v="Kleggjavarden" />
=======
	<node id="-20855" lat="58.5859638861" lon="5.72380832701">
		<tag k="name" v="Kongvarden" />
>>>>>>> e1d4bc35ff8a6074a6f2e91616a996b547c36f15
		<tag k="natural" v="hill" />
		<tag k="place" v="locality" />
		<tag k="ssr:stedsnr" v="343308" />
	</node>
<<<<<<< HEAD
	<node lat="58.574230552405126" lon="5.736313891665293" id="-154">
		<tag k="name" v="Legeberget" />
=======
	<node id="-20850" lat="58.657361109" lon="5.65674166926">
		<tag k="name" v="Rosk" />
>>>>>>> e1d4bc35ff8a6074a6f2e91616a996b547c36f15
		<tag k="natural" v="hill" />
		<tag k="place" v="locality" />
		<tag k="ssr:stedsnr" v="345563" />
	</node>
<<<<<<< HEAD
	<node lat="58.550480551339774" lon="5.769872218009137" id="-168">
		<tag k="fixme" v="consider natural=peak for the most distinct mountains in the district" />
		<tag k="name" v="Torshammaren" />
=======
	<node id="-20336" lat="58.5032388876" lon="5.84548610812">
		<tag k="alt_name" v="Skansarudla" />
		<tag k="name" v="Skansarulla" />
>>>>>>> e1d4bc35ff8a6074a6f2e91616a996b547c36f15
		<tag k="natural" v="hill" />
		<tag k="place" v="locality" />
		<tag k="ssr:stedsnr" v="482948" />
	</node>
<<<<<<< HEAD
	<node lat="58.557480552047316" lon="5.747727772302719" id="-169">
		<tag k="fixme" v="consider natural=peak for the most distinct mountains in the district" />
		<tag k="name" v="Svarta-fjellet" />
		<tag k="natural" v="hill" />
		<tag k="place" v="locality" />
		<tag k="ssr:stedsnr" v="482949" />
	</node>
	<node lat="58.518483334153736" lon="5.8271166720066985" id="-170">
		<tag k="fixme" v="consider natural=peak for the most distinct mountains in the district" />
		<tag k="name" v="Risetind" />
		<tag k="natural" v="hill" />
		<tag k="place" v="locality" />
		<tag k="ssr:stedsnr" v="483950" />
	</node>
	<node lat="58.61593055508925" lon="5.7022944493177645" id="-186">
		<tag k="name" v="Lyngbakkane" />
		<tag k="natural" v="slope" />
		<tag k="place" v="locality" />
		<tag k="ssr:stedsnr" v="403532" />
	</node>
	<node lat="58.56732777500503" lon="5.784024994328213" id="-193">
=======
	<node id="-20712" lat="58.5194472257" lon="5.79896111896">
		<tag k="fixme" v="consider natural=peak for the most distinct mountains in the district" />
		<tag k="name" v="Lyptingen" />
		<tag k="natural" v="hill" />
		<tag k="place" v="locality" />
		<tag k="ssr:stedsnr" v="604950" />
	</node>
	<node id="-20334" lat="58.4920305549" lon="5.82524722909">
		<tag k="fixme" v="consider natural=peak for the most distinct mountains in the district" />
		<tag k="name" v="Joknuden" />
		<tag k="natural" v="hill" />
		<tag k="place" v="locality" />
		<tag k="ssr:stedsnr" v="910732" />
	</node>
	<node id="-20840" lat="58.5289583335" lon="5.79511944826">
>>>>>>> e1d4bc35ff8a6074a6f2e91616a996b547c36f15
		<tag k="fixme" v="consider natural=peak for the most distinct mountains in the district" />
		<tag k="name" v="Pigane" />
		<tag k="natural" v="hill" />
		<tag k="place" v="locality" />
		<tag k="ssr:stedsnr" v="404610" />
	</node>
<<<<<<< HEAD
	<node lat="58.56190000337456" lon="5.79917777317179" id="-194">
		<tag k="fixme" v="consider natural=peak for the most distinct mountains in the district" />
		<tag k="name" v="Høgevarden" />
		<tag k="natural" v="hill" />
		<tag k="place" v="locality" />
		<tag k="ssr:stedsnr" v="404613" />
	</node>
	<node lat="58.5053111085728" lon="5.797997215546582" id="-202">
		<tag k="name" v="Veten" />
		<tag k="natural" v="hill" />
		<tag k="place" v="locality" />
		<tag k="ssr:stedsnr" v="423247" />
	</node>
	<node lat="58.522491669717354" lon="5.813630560827293" id="-205">
		<tag k="name" v="Krasen" />
=======
	<node id="-20834" lat="58.5500249959" lon="5.79255832932">
		<tag k="fixme" v="consider natural=peak for the most distinct mountains in the district" />
		<tag k="name" v="Hestafjellet" />
>>>>>>> e1d4bc35ff8a6074a6f2e91616a996b547c36f15
		<tag k="natural" v="hill" />
		<tag k="place" v="locality" />
		<tag k="ssr:stedsnr" v="423950" />
	</node>
<<<<<<< HEAD
	<node lat="58.584127774230154" lon="5.883316663349358" id="-206">
		<tag k="name" v="Skinansfjellet" />
=======
	<node id="-20833" lat="58.603333338" lon="5.64250000705">
		<tag k="name" v="Grønhaugen" />
>>>>>>> e1d4bc35ff8a6074a6f2e91616a996b547c36f15
		<tag k="natural" v="hill" />
		<tag k="place" v="locality" />
		<tag k="ssr:stedsnr" v="425010" />
	</node>
<<<<<<< HEAD
	<node lat="58.58085555667665" lon="5.8735472296084295" id="-216">
		<tag k="fixme" v="consider natural=peak for the most distinct mountains in the district" />
		<tag k="name" v="Skjeralifjellet" />
=======
	<node id="-20320" lat="58.5370783054" lon="5.72763688657">
		<tag k="name" v="Laksaberget" />
>>>>>>> e1d4bc35ff8a6074a6f2e91616a996b547c36f15
		<tag k="natural" v="hill" />
		<tag k="place" v="locality" />
		<tag k="ssr:stedsnr" v="448183" />
	</node>
<<<<<<< HEAD
	<node lat="58.59195555823475" lon="5.746936103801497" id="-223">
		<tag k="name" v="Kusteinen" />
=======
	<node id="-20319" lat="58.5355527779" lon="5.72270832811">
		<tag k="name" v="Holmestøfjellet" />
>>>>>>> e1d4bc35ff8a6074a6f2e91616a996b547c36f15
		<tag k="natural" v="hill" />
		<tag k="place" v="locality" />
		<tag k="ssr:stedsnr" v="467622" />
	</node>
	<node lat="58.60548055918772" lon="5.799136118547778" id="-224">
		<tag k="name" v="Legå" />
		<tag k="place" v="locality" />
		<tag k="ssr:stedsnr" v="480717" />
	</node>
<<<<<<< HEAD
	<node lat="58.604033333695945" lon="5.82368888423107" id="-225">
=======
	<node id="-20827" lat="58.5568638865" lon="5.81709167357">
>>>>>>> e1d4bc35ff8a6074a6f2e91616a996b547c36f15
		<tag k="fixme" v="consider natural=peak for the most distinct mountains in the district" />
		<tag k="name" v="Ternefjellet" />
		<tag k="natural" v="hill" />
		<tag k="place" v="locality" />
		<tag k="ssr:stedsnr" v="480722" />
	</node>
<<<<<<< HEAD
	<node lat="58.52857221914481" lon="5.778227781114008" id="-226">
		<tag k="name" v="Varatua" />
		<tag k="natural" v="hill" />
		<tag k="place" v="locality" />
		<tag k="ssr:stedsnr" v="483963" />
	</node>
	<node lat="58.67639722472049" lon="5.66035833557722" id="-237">
		<tag k="name" v="Støberget" />
=======
	<node id="-20307" lat="58.4998666704" lon="5.80484721848">
		<tag k="name" v="Kråfjellet" />
>>>>>>> e1d4bc35ff8a6074a6f2e91616a996b547c36f15
		<tag k="natural" v="hill" />
		<tag k="place" v="locality" />
		<tag k="ssr:stedsnr" v="525374" />
	</node>
<<<<<<< HEAD
	<node lat="58.56775277660544" lon="5.743455554132529" id="-240">
=======
	<node id="-20818" lat="58.5898527763" lon="5.79486667511">
>>>>>>> e1d4bc35ff8a6074a6f2e91616a996b547c36f15
		<tag k="fixme" v="consider natural=peak for the most distinct mountains in the district" />
		<tag k="name" v="Mauravarden" />
		<tag k="natural" v="hill" />
		<tag k="place" v="locality" />
		<tag k="ssr:stedsnr" v="527612" />
	</node>
<<<<<<< HEAD
	<node lat="58.48282777434266" lon="5.848166666961316" id="-244">
		<tag k="name" v="Moikleiva" />
=======
	<node id="-20305" lat="58.5941555548" lon="5.79794999992">
		<tag k="name" v="Uvarden" />
>>>>>>> e1d4bc35ff8a6074a6f2e91616a996b547c36f15
		<tag k="natural" v="hill" />
		<tag k="place" v="locality" />
		<tag k="ssr:stedsnr" v="543065" />
	</node>
<<<<<<< HEAD
	<node lat="58.53624167081257" lon="5.813241660059745" id="-249">
=======
	<node id="-20504" lat="58.6090055567" lon="5.67738610882">
		<tag k="name" v="Langhaug" />
		<tag k="natural" v="hill" />
		<tag k="place" v="locality" />
		<tag k="ssr:stedsnr" v="161518" />
	</node>
	<node id="-20807" lat="58.5997277739" lon="5.83206666747">
>>>>>>> e1d4bc35ff8a6074a6f2e91616a996b547c36f15
		<tag k="fixme" v="consider natural=peak for the most distinct mountains in the district" />
		<tag k="name" v="Bekkjadalen" />
		<tag k="natural" v="hill" />
		<tag k="place" v="locality" />
		<tag k="ssr:stedsnr" v="544916" />
	</node>
<<<<<<< HEAD
	<node lat="58.53284444206022" lon="5.842238895248326" id="-261">
		<tag k="name" v="Langgårdslia" />
		<tag k="natural" v="ridge" />
=======
	<node id="-20806" lat="58.5797500034" lon="5.85326943849">
		<tag k="name" v="Podladalen" />
		<tag k="natural" v="valley" />
>>>>>>> e1d4bc35ff8a6074a6f2e91616a996b547c36f15
		<tag k="place" v="locality" />
		<tag k="ssr:stedsnr" v="690158" />
	</node>
<<<<<<< HEAD
	<node lat="58.598016670735724" lon="5.752761112648571" id="-281">
		<tag k="name" v="Hyljebakkane" />
		<tag k="natural" v="slope" />
=======
	<node id="-20282" lat="58.5669333328" lon="5.75245556374">
		<tag k="alt_name" v="Borgarfjellet" />
		<tag k="name" v="Borgaberget" />
		<tag k="natural" v="hill" />
>>>>>>> e1d4bc35ff8a6074a6f2e91616a996b547c36f15
		<tag k="place" v="locality" />
		<tag k="ssr:stedsnr" v="588615" />
	</node>
<<<<<<< HEAD
	<node lat="58.522597223646464" lon="5.824788887204265" id="-283">
		<tag k="name" v="Hauskonhelleren" />
=======
	<node id="-20532" lat="58.4999083328" lon="5.79538332965">
		<tag k="fixme" v="consider natural=peak for the most distinct mountains in the district" />
		<tag k="name" v="Vedafjellet" />
		<tag k="natural" v="hill" />
		<tag k="place" v="locality" />
		<tag k="ssr:stedsnr" v="182416" />
	</node>
	<node id="-20276" lat="58.5368361119" lon="5.72863888788">
		<tag k="name" v="S Laksaberget" />
		<tag k="natural" v="hill" />
>>>>>>> e1d4bc35ff8a6074a6f2e91616a996b547c36f15
		<tag k="place" v="locality" />
		<tag k="ssr:stedsnr" v="604917" />
	</node>
<<<<<<< HEAD
	<node lat="58.59787222609239" lon="5.636033336345627" id="-284">
		<tag k="name" v="Husveggberget" />
=======
	<node id="-20275" lat="58.5185305511" lon="5.7871555534">
		<tag k="name" v="Laugaberget" />
>>>>>>> e1d4bc35ff8a6074a6f2e91616a996b547c36f15
		<tag k="natural" v="hill" />
		<tag k="place" v="locality" />
		<tag k="ssr:stedsnr" v="605903" />
	</node>
<<<<<<< HEAD
	<node lat="58.6076666647529" lon="5.784619441858573" id="-287">
		<tag k="fixme" v="consider natural=peak for the most distinct mountains in the district" />
		<tag k="name" v="Gauleksvarden" />
=======
	<node id="-20784" lat="58.5531305597" lon="5.88356944829">
		<tag k="name" v="Bjørndalsniben" />
>>>>>>> e1d4bc35ff8a6074a6f2e91616a996b547c36f15
		<tag k="natural" v="hill" />
		<tag k="place" v="locality" />
		<tag k="ssr:stedsnr" v="606319" />
	</node>
<<<<<<< HEAD
	<node lat="58.6517361083029" lon="5.677097229881043" id="-304">
		<tag k="name" v="Hålandshaugen" />
=======
	<node id="-20783" lat="58.523733335" lon="5.78315832978">
		<tag k="fixme" v="consider natural=peak for the most distinct mountains in the district" />
		<tag k="name" v="Heptetokula" />
>>>>>>> e1d4bc35ff8a6074a6f2e91616a996b547c36f15
		<tag k="natural" v="hill" />
		<tag k="place" v="locality" />
		<tag k="ssr:stedsnr" v="646331" />
	</node>
<<<<<<< HEAD
	<node lat="58.57824741481136" lon="5.820683654092187" id="-308">
		<tag k="name" v="Slettene" />
		<tag k="natural" v="slope" />
=======
	<node id="-20782" lat="58.526211111" lon="5.81653888222">
		<tag k="fixme" v="consider natural=peak for the most distinct mountains in the district" />
		<tag k="name" v="Bukkaknuten" />
		<tag k="natural" v="hill" />
>>>>>>> e1d4bc35ff8a6074a6f2e91616a996b547c36f15
		<tag k="place" v="locality" />
		<tag k="ssr:stedsnr" v="648640" />
	</node>
	<node lat="58.614438886076094" lon="5.691477784054663" id="-313">
		<tag k="name" v="Torvleitet" />
		<tag k="place" v="locality" />
		<tag k="ssr:stedsnr" v="707555" />
	</node>
<<<<<<< HEAD
	<node lat="58.492888884651435" lon="5.794300007930087" id="-317">
=======
	<node id="-20781" lat="58.5319055597" lon="5.81999166526">
>>>>>>> e1d4bc35ff8a6074a6f2e91616a996b547c36f15
		<tag k="fixme" v="consider natural=peak for the most distinct mountains in the district" />
		<tag k="name" v="Haverhesten" />
		<tag k="natural" v="hill" />
		<tag k="place" v="locality" />
		<tag k="ssr:stedsnr" v="708881" />
	</node>
<<<<<<< HEAD
	<node lat="58.49764166252883" lon="5.7848694380111585" id="-318">
=======
	<node id="-20771" lat="58.5730499961" lon="5.77279721704">
>>>>>>> e1d4bc35ff8a6074a6f2e91616a996b547c36f15
		<tag k="fixme" v="consider natural=peak for the most distinct mountains in the district" />
		<tag k="name" v="Larsberget" />
		<tag k="natural" v="hill" />
		<tag k="place" v="locality" />
		<tag k="ssr:stedsnr" v="708987" />
	</node>
<<<<<<< HEAD
	<node lat="58.49986667038432" lon="5.804847218477" id="-319">
		<tag k="name" v="Kråfjellet" />
=======
	<node id="-20768" lat="58.6409222264" lon="5.7665833369">
		<tag k="name" v="Olsholen" />
>>>>>>> e1d4bc35ff8a6074a6f2e91616a996b547c36f15
		<tag k="natural" v="hill" />
		<tag k="place" v="locality" />
		<tag k="ssr:stedsnr" v="709276" />
	</node>
<<<<<<< HEAD
	<node lat="58.50293333598962" lon="5.807883329840591" id="-321">
		<tag k="name" v="Svalhelleren" />
=======
	<node id="-20765" lat="58.6181055545" lon="5.77558332722">
		<tag k="name" v="Snøden" />
>>>>>>> e1d4bc35ff8a6074a6f2e91616a996b547c36f15
		<tag k="natural" v="hill" />
		<tag k="place" v="locality" />
		<tag k="ssr:stedsnr" v="709236" />
	</node>
<<<<<<< HEAD
	<node lat="58.50712500297725" lon="5.809030560152971" id="-322">
		<tag k="name" v="Påskevarden" />
=======
	<node id="-20248" lat="58.6636444403" lon="5.58006388679">
		<tag k="name" v="Elisberget" />
>>>>>>> e1d4bc35ff8a6074a6f2e91616a996b547c36f15
		<tag k="natural" v="hill" />
		<tag k="place" v="locality" />
		<tag k="ssr:stedsnr" v="709238" />
	</node>
<<<<<<< HEAD
	<node lat="58.518530551117024" lon="5.787155553400491" id="-327">
		<tag k="name" v="Laugaberget" />
=======
	<node id="-20759" lat="58.5370472189" lon="5.71228888935">
		<tag k="fixme" v="consider natural=peak for the most distinct mountains in the district" />
		<tag k="name" v="Ørnakula" />
>>>>>>> e1d4bc35ff8a6074a6f2e91616a996b547c36f15
		<tag k="natural" v="hill" />
		<tag k="place" v="locality" />
		<tag k="ssr:stedsnr" v="665932" />
	</node>
<<<<<<< HEAD
	<node lat="58.557138891175114" lon="5.783411103700518" id="-329">
		<tag k="fixme" v="consider natural=peak for the most distinct mountains in the district" />
		<tag k="name" v="Hanakleiva" />
=======
	<node id="-20246" lat="58.4807805547" lon="5.84052499518">
		<tag k="name" v="Hattaknuten" />
>>>>>>> e1d4bc35ff8a6074a6f2e91616a996b547c36f15
		<tag k="natural" v="hill" />
		<tag k="place" v="locality" />
		<tag k="ssr:stedsnr" v="709942" />
	</node>
<<<<<<< HEAD
	<node lat="58.566933332807444" lon="5.752455563741518" id="-339">
		<tag k="alt_name" v="Borgarfjellet" />
		<tag k="name" v="Borgaberget" />
=======
	<node id="-20245" lat="58.615413886" lon="5.60993333222">
		<tag k="name" v="Sjøarshøyen" />
>>>>>>> e1d4bc35ff8a6074a6f2e91616a996b547c36f15
		<tag k="natural" v="hill" />
		<tag k="place" v="locality" />
		<tag k="ssr:stedsnr" v="667327" />
	</node>
<<<<<<< HEAD
	<node lat="58.49723888527688" lon="5.839136105266226" id="-346">
		<tag k="fixme" v="consider natural=peak for the most distinct mountains in the district" />
		<tag k="name" v="Hettua" />
		<tag k="natural" v="hill" />
		<tag k="place" v="locality" />
		<tag k="ssr:stedsnr" v="667693" />
	</node>
	<node lat="58.61491666537058" lon="5.761441669240525" id="-350">
		<tag k="name" v="Snøderyggen" />
=======
	<node id="-20754" lat="58.6004611071" lon="5.87800832726">
		<tag k="name" v="Middagsrudla" />
>>>>>>> e1d4bc35ff8a6074a6f2e91616a996b547c36f15
		<tag k="natural" v="hill" />
		<tag k="place" v="locality" />
		<tag k="ssr:stedsnr" v="890528" />
	</node>
<<<<<<< HEAD
	<node lat="58.59415555482138" lon="5.797949999915997" id="-351">
		<tag k="name" v="Uvarden" />
=======
	<node id="-20751" lat="58.5173583316" lon="5.87048054788">
		<tag k="fixme" v="consider natural=peak for the most distinct mountains in the district" />
		<tag k="name" v="Gudlaknuten" />
>>>>>>> e1d4bc35ff8a6074a6f2e91616a996b547c36f15
		<tag k="natural" v="hill" />
		<tag k="place" v="locality" />
		<tag k="ssr:stedsnr" v="892580" />
	</node>
<<<<<<< HEAD
	<node lat="58.55614444333991" lon="5.882622222660124" id="-355">
		<tag k="name" v="Bjønndalen" />
		<tag k="natural" v="valley" />
=======
	<node id="-20746" lat="58.5782474148" lon="5.82068365409">
		<tag k="name" v="Slettene" />
		<tag k="natural" v="slope" />
>>>>>>> e1d4bc35ff8a6074a6f2e91616a996b547c36f15
		<tag k="place" v="locality" />
		<tag k="ssr:stedsnr" v="690130" />
	</node>
<<<<<<< HEAD
	<node lat="58.628622223553236" lon="5.738974997726455" id="-361">
		<tag k="name" v="Ualandsvarden" />
=======
	<node id="-20233" lat="58.5980079727" lon="5.75276439901">
		<tag k="name" v="Hyljebakkane" />
>>>>>>> e1d4bc35ff8a6074a6f2e91616a996b547c36f15
		<tag k="natural" v="hill" />
		<tag k="place" v="locality" />
		<tag k="ssr:stedsnr" v="707514" />
	</node>
<<<<<<< HEAD
	<node lat="58.61541388595578" lon="5.609933332224689" id="-363">
		<tag k="name" v="Sjøarshøyen" />
=======
	<node id="-20744" lat="58.6135972186" lon="5.71791389408">
		<tag k="name" v="Småelgane" />
>>>>>>> e1d4bc35ff8a6074a6f2e91616a996b547c36f15
		<tag k="natural" v="hill" />
		<tag k="place" v="locality" />
		<tag k="ssr:stedsnr" v="724570" />
	</node>
<<<<<<< HEAD
	<node lat="58.60046110708733" lon="5.878008327264689" id="-381">
		<tag k="name" v="Middagsrudla" />
		<tag k="natural" v="hill" />
=======
	<node id="-20229" lat="58.6471222195" lon="5.65379443702">
		<tag k="name" v="Rongjå" />
>>>>>>> e1d4bc35ff8a6074a6f2e91616a996b547c36f15
		<tag k="place" v="locality" />
		<tag k="ssr:stedsnr" v="751757" />
	</node>
<<<<<<< HEAD
	<node lat="58.640922226419256" lon="5.766583336900273" id="-388">
		<tag k="name" v="Olsholen" />
		<tag k="natural" v="hill" />
		<tag k="place" v="locality" />
		<tag k="ssr:stedsnr" v="768503" />
	</node>
	<node lat="58.57304999605426" lon="5.772797217035883" id="-393">
=======
	<node id="-20227" lat="58.5571388912" lon="5.7834111037">
>>>>>>> e1d4bc35ff8a6074a6f2e91616a996b547c36f15
		<tag k="fixme" v="consider natural=peak for the most distinct mountains in the district" />
		<tag k="name" v="Oksefjellet" />
		<tag k="natural" v="hill" />
		<tag k="place" v="locality" />
		<tag k="ssr:stedsnr" v="770573" />
	</node>
<<<<<<< HEAD
	<node lat="58.49203055492634" lon="5.82524722909163" id="-411">
		<tag k="fixme" v="consider natural=peak for the most distinct mountains in the district" />
		<tag k="name" v="Joknuden" />
=======
	<node id="-20225" lat="58.507125003" lon="5.80903056015">
		<tag k="name" v="Påskevarden" />
>>>>>>> e1d4bc35ff8a6074a6f2e91616a996b547c36f15
		<tag k="natural" v="hill" />
		<tag k="place" v="locality" />
		<tag k="ssr:stedsnr" v="910732" />
	</node>
<<<<<<< HEAD
	<node lat="58.50323888760113" lon="5.845486108120828" id="-413">
		<tag k="alt_name" v="Skansarudla" />
		<tag k="name" v="Skansarulla" />
=======
	<node id="-20224" lat="58.502933336" lon="5.80788332984">
		<tag k="name" v="Svalhelleren" />
>>>>>>> e1d4bc35ff8a6074a6f2e91616a996b547c36f15
		<tag k="natural" v="hill" />
		<tag k="old_name" v="Skansefjellet" />
		<tag k="place" v="locality" />
		<tag k="ssr:stedsnr" v="911158" />
	</node>
	<node lat="58.579750003429716" lon="5.853269438493226" id="-428">
		<tag k="name" v="Podladalen" />
		<tag k="natural" v="valley" />
		<tag k="place" v="locality" />
		<tag k="ssr:stedsnr" v="812183" />
	</node>
<<<<<<< HEAD
	<node lat="58.556863886509696" lon="5.81709167356529" id="-436">
		<tag k="fixme" v="consider natural=peak for the most distinct mountains in the district" />
		<tag k="name" v="Middagsknuten" />
		<tag k="natural" v="hill" />
		<tag k="place" v="locality" />
		<tag k="ssr:stedsnr" v="831933" />
	</node>
	<node lat="58.52895833348117" lon="5.79511944826357" id="-443">
=======
	<node id="-20222" lat="58.4976416625" lon="5.78486943801">
>>>>>>> e1d4bc35ff8a6074a6f2e91616a996b547c36f15
		<tag k="fixme" v="consider natural=peak for the most distinct mountains in the district" />
		<tag k="name" v="Skolmafjelltua" />
		<tag k="natural" v="hill" />
		<tag k="place" v="locality" />
		<tag k="ssr:stedsnr" v="848930" />
	</node>
<<<<<<< HEAD
	<node lat="58.58596388605023" lon="5.723808327007191" id="-449">
		<tag k="name" v="Kongvarden" />
=======
	<node id="-20221" lat="58.4928888847" lon="5.79430000793">
		<tag k="fixme" v="consider natural=peak for the most distinct mountains in the district" />
		<tag k="name" v="Haverhesten" />
>>>>>>> e1d4bc35ff8a6074a6f2e91616a996b547c36f15
		<tag k="natural" v="hill" />
		<tag k="place" v="locality" />
		<tag k="ssr:stedsnr" v="850314" />
	</node>
<<<<<<< HEAD
	<node lat="58.56252499567571" lon="5.73943055492156" id="-451">
		<tag k="name" v="Hæen" />
		<tag k="natural" v="hill" />
		<tag k="place" v="locality" />
		<tag k="ssr:stedsnr" v="850330" />
	</node>
	<node lat="58.657361109017685" lon="5.656741669258439" id="-455">
		<tag k="name" v="Rosk" />
=======
	<node id="-20218" lat="58.6144388861" lon="5.69147778405">
		<tag k="name" v="Torvleitet" />
		<tag k="place" v="locality" />
		<tag k="ssr:stedsnr" v="707555" />
	</node>
	<node id="-20216" lat="58.6286222236" lon="5.73897499773">
		<tag k="name" v="Ualandsvarden" />
>>>>>>> e1d4bc35ff8a6074a6f2e91616a996b547c36f15
		<tag k="natural" v="hill" />
		<tag k="place" v="locality" />
		<tag k="ssr:stedsnr" v="850277" />
	</node>
<<<<<<< HEAD
	<node lat="58.60682777494976" lon="5.853033326770016" id="-462">
		<tag k="name" v="Liafjellet" />
=======
	<node id="-20211" lat="58.5362416708" lon="5.81324166006">
		<tag k="fixme" v="consider natural=peak for the most distinct mountains in the district" />
		<tag k="name" v="Bekkjadalen" />
>>>>>>> e1d4bc35ff8a6074a6f2e91616a996b547c36f15
		<tag k="natural" v="hill" />
		<tag k="place" v="locality" />
		<tag k="ssr:stedsnr" v="933761" />
	</node>
<<<<<<< HEAD
	<node lat="58.6033500020554" lon="5.844455559652559" id="-463">
=======
	<node id="-20720" lat="58.6076666648" lon="5.78461944186">
>>>>>>> e1d4bc35ff8a6074a6f2e91616a996b547c36f15
		<tag k="fixme" v="consider natural=peak for the most distinct mountains in the district" />
		<tag k="name" v="Kråkefjellet" />
		<tag k="natural" v="hill" />
		<tag k="place" v="locality" />
		<tag k="ssr:stedsnr" v="933766" />
	</node>
<<<<<<< HEAD
	<node lat="58.58758333604832" lon="5.836272228193155" id="-464">
		<tag k="fixme" v="consider natural=peak for the most distinct mountains in the district" />
		<tag k="name" v="Augarfjellet" />
=======
	<node id="-20207" lat="58.615413886" lon="5.60993333222">
		<tag k="name" v="Kålhaug" />
>>>>>>> e1d4bc35ff8a6074a6f2e91616a996b547c36f15
		<tag k="natural" v="hill" />
		<tag k="place" v="locality" />
		<tag k="ssr:stedsnr" v="933768" />
	</node>
<<<<<<< HEAD
	<node lat="58.552244446637765" lon="5.7792194424503815" id="-473">
		<tag k="fixme" v="consider natural=peak for the most distinct mountains in the district" />
		<tag k="name" v="Skallen" />
=======
	<node id="-20714" lat="58.5978722261" lon="5.63603333635">
		<tag k="name" v="Husveggberget" />
>>>>>>> e1d4bc35ff8a6074a6f2e91616a996b547c36f15
		<tag k="natural" v="hill" />
		<tag k="place" v="locality" />
		<tag k="ssr:stedsnr" v="892915" />
	</node>
<<<<<<< HEAD
	<node lat="58.53555277790676" lon="5.722708328108617" id="-482">
		<tag k="name" v="Holmestøfjellet" />
		<tag k="natural" v="hill" />
		<tag k="place" v="locality" />
		<tag k="ssr:stedsnr" v="908956" />
	</node>
	<node lat="58.53707830541127" lon="5.727636886566235" id="-483">
		<tag k="name" v="Laksaberget" />
		<tag k="natural" v="hill" />
		<tag k="place" v="locality" />
		<tag k="ssr:stedsnr" v="908957" />
	</node>
	<node lat="58.52622777489144" lon="5.834913894043192" id="-494">
=======
	<node id="-20201" lat="58.5328444421" lon="5.84223889525">
		<tag k="name" v="Langgårdslia" />
		<tag k="natural" v="ridge" />
		<tag k="place" v="locality" />
		<tag k="ssr:stedsnr" v="690158" />
	</node>
	<node id="-20200" lat="58.5561444433" lon="5.88262222266">
		<tag k="name" v="Bjønndalen" />
		<tag k="natural" v="valley" />
		<tag k="place" v="locality" />
		<tag k="ssr:stedsnr" v="690130" />
	</node>
	<node id="-20711" lat="58.5375611082" lon="5.8117111102">
>>>>>>> e1d4bc35ff8a6074a6f2e91616a996b547c36f15
		<tag k="fixme" v="consider natural=peak for the most distinct mountains in the district" />
		<tag k="name" v="Lomsåsen" />
		<tag k="natural" v="hill" />
		<tag k="place" v="locality" />
		<tag k="ssr:stedsnr" v="933153" />
	</node>
<<<<<<< HEAD
	<node lat="58.58259999591817" lon="5.804238897792444" id="-499">
		<tag k="fixme" v="consider natural=peak for the most distinct mountains in the district" />
		<tag k="name" v="Fossfjellet" />
		<tag k="natural" v="hill" />
=======
	<node id="-20710" lat="58.5225972236" lon="5.8247888872">
		<tag k="name" v="Hauskonhelleren" />
>>>>>>> e1d4bc35ff8a6074a6f2e91616a996b547c36f15
		<tag k="place" v="locality" />
		<tag k="ssr:stedsnr" v="950579" />
	</node>
<<<<<<< HEAD
	<node lat="58.55066388697372" lon="5.787908340049964" id="-505">
=======
	<node id="-20195" lat="58.5677527766" lon="5.74345555413">
>>>>>>> e1d4bc35ff8a6074a6f2e91616a996b547c36f15
		<tag k="fixme" v="consider natural=peak for the most distinct mountains in the district" />
		<tag k="name" v="Daurmålsknuten" />
		<tag k="natural" v="hill" />
		<tag k="place" v="locality" />
		<tag k="ssr:stedsnr" v="952950" />
	</node>
<<<<<<< HEAD
	<node lat="58.57914167036455" lon="5.755166658167369" id="-533">
		<tag k="name" v="Håbakken" />
		<tag k="natural" v="slope" />
		<tag k="place" v="locality" />
		<tag k="ssr:stedsnr" v="42570" />
	</node>
	<node lat="58.60357221940252" lon="5.716375008325976" id="-535">
		<tag k="name" v="Skjengbakken" />
		<tag k="natural" v="hill" />
		<tag k="place" v="locality" />
		<tag k="ssr:stedsnr" v="42866" />
	</node>
	<node lat="58.48680555412812" lon="5.8159555611806" id="-541">
		<tag k="name" v="Kontralen" />
=======
	<node id="-20603" lat="58.5479277755" lon="5.82371111318">
		<tag k="fixme" v="consider natural=peak for the most distinct mountains in the district" />
		<tag k="name" v="Smøråsen" />
		<tag k="natural" v="hill" />
		<tag k="place" v="locality" />
		<tag k="ssr:stedsnr" v="365185" />
	</node>
	<node id="-20702" lat="58.5980166707" lon="5.75276111265">
		<tag k="name" v="Hyljebakkane" />
		<tag k="natural" v="slope" />
		<tag k="place" v="locality" />
		<tag k="ssr:stedsnr" v="588615" />
	</node>
	<node id="-20858" lat="58.5625249957" lon="5.73943055492">
		<tag k="name" v="Hæen" />
		<tag k="natural" v="hill" />
		<tag k="place" v="locality" />
		<tag k="ssr:stedsnr" v="850330" />
	</node>
	<node id="-20181" lat="58.5285722191" lon="5.77822778111">
		<tag k="name" v="Varatua" />
>>>>>>> e1d4bc35ff8a6074a6f2e91616a996b547c36f15
		<tag k="natural" v="hill" />
		<tag k="place" v="locality" />
		<tag k="ssr:stedsnr" v="55029" />
	</node>
<<<<<<< HEAD
	<node lat="58.48812499610916" lon="5.838458325745774" id="-542">
		<tag k="name" v="Numberget" />
=======
	<node id="-20175" lat="58.4972388853" lon="5.83913610527">
		<tag k="fixme" v="consider natural=peak for the most distinct mountains in the district" />
		<tag k="name" v="Hettua" />
>>>>>>> e1d4bc35ff8a6074a6f2e91616a996b547c36f15
		<tag k="natural" v="hill" />
		<tag k="place" v="locality" />
		<tag k="ssr:stedsnr" v="57052" />
	</node>
<<<<<<< HEAD
	<node lat="58.52251944107418" lon="5.792083326500605" id="-548">
=======
	<node id="-20685" lat="58.5938694466" lon="5.83931666378">
>>>>>>> e1d4bc35ff8a6074a6f2e91616a996b547c36f15
		<tag k="fixme" v="consider natural=peak for the most distinct mountains in the district" />
		<tag k="name" v="Kattafjellet" />
		<tag k="natural" v="hill" />
		<tag k="place" v="locality" />
		<tag k="ssr:stedsnr" v="59930" />
	</node>
<<<<<<< HEAD
	<node lat="58.534286114497235" lon="5.786074995292958" id="-549">
		<tag k="fixme" v="consider natural=peak for the most distinct mountains in the district" />
		<tag k="name" v="Orretua" />
=======
	<node id="-20682" lat="58.5242194405" lon="5.85236111188">
		<tag k="fixme" v="consider natural=peak for the most distinct mountains in the district" />
		<tag k="name" v="Vadlåsen" />
		<tag k="natural" v="hill" />
		<tag k="place" v="locality" />
		<tag k="ssr:stedsnr" v="568152" />
	</node>
	<node id="-20155" lat="58.5546583352" lon="5.70723334109">
		<tag k="name" v="Grønhaugen" />
>>>>>>> e1d4bc35ff8a6074a6f2e91616a996b547c36f15
		<tag k="natural" v="hill" />
		<tag k="place" v="locality" />
		<tag k="ssr:stedsnr" v="59931" />
	</node>
<<<<<<< HEAD
	<node lat="58.49927500337314" lon="5.85318054691891" id="-556">
=======
	<node id="-20665" lat="58.5772138898" lon="5.81613888346">
>>>>>>> e1d4bc35ff8a6074a6f2e91616a996b547c36f15
		<tag k="fixme" v="consider natural=peak for the most distinct mountains in the district" />
		<tag k="name" v="Krokafjellet" />
		<tag k="natural" v="hill" />
		<tag k="place" v="locality" />
		<tag k="ssr:stedsnr" v="61741" />
	</node>
<<<<<<< HEAD
	<node lat="58.58761111418173" lon="5.859108332909812" id="-565">
=======
	<node id="-20664" lat="58.6545861097" lon="5.71114443699">
>>>>>>> e1d4bc35ff8a6074a6f2e91616a996b547c36f15
		<tag k="fixme" v="consider natural=peak for the most distinct mountains in the district" />
		<tag k="name" v="Perafjella" />
		<tag k="natural" v="hill" />
		<tag k="place" v="locality" />
		<tag k="ssr:stedsnr" v="83750" />
	</node>
<<<<<<< HEAD
	<node lat="58.521516665509274" lon="5.808116665904015" id="-586">
=======
	<node id="-20661" lat="58.6168361097" lon="5.77747499501">
>>>>>>> e1d4bc35ff8a6074a6f2e91616a996b547c36f15
		<tag k="fixme" v="consider natural=peak for the most distinct mountains in the district" />
		<tag k="name" v="Salthelleren" />
		<tag k="natural" v="hill" />
		<tag k="place" v="locality" />
		<tag k="ssr:stedsnr" v="119954" />
	</node>
<<<<<<< HEAD
	<node lat="58.51689166456563" lon="5.856194447816213" id="-593">
=======
	<node id="-20660" lat="58.6279500021" lon="5.79025000518">
		<tag k="alt_name" v="Obrestadheia" />
>>>>>>> e1d4bc35ff8a6074a6f2e91616a996b547c36f15
		<tag k="fixme" v="consider natural=peak for the most distinct mountains in the district" />
		<tag k="name" v="Spørjefjellet" />
		<tag k="natural" v="hill" />
		<tag k="place" v="locality" />
		<tag k="ssr:stedsnr" v="144134" />
	</node>
<<<<<<< HEAD
	<node lat="58.52079444126991" lon="5.834519439559249" id="-594">
		<tag k="fixme" v="consider natural=peak for the most distinct mountains in the district" />
		<tag k="name" v="Rudlebakkane" />
=======
	<node id="-20143" lat="58.5841277742" lon="5.88331666335">
		<tag k="name" v="Skinansfjellet" />
>>>>>>> e1d4bc35ff8a6074a6f2e91616a996b547c36f15
		<tag k="natural" v="hill" />
		<tag k="place" v="locality" />
		<tag k="ssr:stedsnr" v="144164" />
	</node>
<<<<<<< HEAD
	<node lat="58.520433336559115" lon="5.857075005780723" id="-595">
		<tag k="fixme" v="consider natural=peak for the most distinct mountains in the district" />
		<tag k="name" v="Gudlandsknuten" />
=======
	<node id="-20654" lat="58.4828277743" lon="5.84816666696">
		<tag k="name" v="Moikleiva" />
>>>>>>> e1d4bc35ff8a6074a6f2e91616a996b547c36f15
		<tag k="natural" v="hill" />
		<tag k="place" v="locality" />
		<tag k="ssr:stedsnr" v="144165" />
	</node>
<<<<<<< HEAD
	<node lat="58.67161666336674" lon="5.654827780253907" id="-605">
		<tag k="name" v="Skatteberget" />
=======
	<node id="-20141" lat="58.5053111086" lon="5.79799721555">
		<tag k="name" v="Veten" />
>>>>>>> e1d4bc35ff8a6074a6f2e91616a996b547c36f15
		<tag k="natural" v="hill" />
		<tag k="place" v="locality" />
		<tag k="ssr:stedsnr" v="161351" />
	</node>
<<<<<<< HEAD
	<node lat="58.609005556704005" lon="5.677386108819544" id="-606">
		<tag k="name" v="Langhaug" />
=======
	<node id="-20136" lat="58.502830559" lon="5.8276388845">
		<tag k="name" v="Dauremålsfjellet" />
>>>>>>> e1d4bc35ff8a6074a6f2e91616a996b547c36f15
		<tag k="natural" v="hill" />
		<tag k="place" v="locality" />
		<tag k="ssr:stedsnr" v="161518" />
	</node>
<<<<<<< HEAD
	<node lat="58.5795833340974" lon="5.6803333261839395" id="-612">
		<tag k="name" v="Vierrudla" />
=======
	<node id="-20135" lat="58.5619000034" lon="5.79917777317">
		<tag k="fixme" v="consider natural=peak for the most distinct mountains in the district" />
		<tag k="name" v="Høgevarden" />
>>>>>>> e1d4bc35ff8a6074a6f2e91616a996b547c36f15
		<tag k="natural" v="hill" />
		<tag k="place" v="locality" />
		<tag k="ssr:stedsnr" v="179898" />
	</node>
<<<<<<< HEAD
	<node lat="58.608152781042655" lon="5.748163893265282" id="-628">
		<tag k="name" v="Likholen" />
=======
	<node id="-20134" lat="58.567327775" lon="5.78402499433">
		<tag k="fixme" v="consider natural=peak for the most distinct mountains in the district" />
		<tag k="name" v="Pigane" />
>>>>>>> e1d4bc35ff8a6074a6f2e91616a996b547c36f15
		<tag k="natural" v="hill" />
		<tag k="place" v="locality" />
		<tag k="ssr:stedsnr" v="182339" />
	</node>
<<<<<<< HEAD
	<node lat="58.607563889933274" lon="5.697483337193311" id="-646">
		<tag k="name" v="Steinholen" />
=======
	<node id="-20645" lat="58.6763972247" lon="5.66035833558">
		<tag k="name" v="Støberget" />
>>>>>>> e1d4bc35ff8a6074a6f2e91616a996b547c36f15
		<tag k="natural" v="hill" />
		<tag k="place" v="locality" />
		<tag k="ssr:stedsnr" v="282545" />
	</node>
<<<<<<< HEAD
	<node lat="58.62164999803254" lon="5.694069451099081" id="-647">
		<tag k="name" v="Bubakken" />
=======
	<node id="-20131" lat="58.5316722263" lon="5.85510833678">
		<tag k="name" v="Rabali" />
>>>>>>> e1d4bc35ff8a6074a6f2e91616a996b547c36f15
		<tag k="natural" v="slope" />
		<tag k="place" v="locality" />
		<tag k="ssr:stedsnr" v="282546" />
	</node>
<<<<<<< HEAD
	<node lat="58.61823611358601" lon="5.639724993672853" id="-649">
		<tag k="name" v="Revhaug" />
=======
	<node id="-20124" lat="58.600311114" lon="5.65198611398">
		<tag k="name" v="Kjørkjeholen" />
>>>>>>> e1d4bc35ff8a6074a6f2e91616a996b547c36f15
		<tag k="natural" v="hill" />
		<tag k="place" v="locality" />
		<tag k="ssr:stedsnr" v="283485" />
	</node>
<<<<<<< HEAD
	<node lat="58.58210000236594" lon="5.765597225037007" id="-656">
		<tag k="name" v="Geithammaren" />
		<tag k="natural" v="cliff" />
		<tag k="ssr:stedsnr" v="285591" />
	</node>
	<node lat="58.52932222060164" lon="5.810002771743804" id="-661">
		<tag k="fixme" v="consider natural=peak for the most distinct mountains in the district" />
		<tag k="name" v="Borgåsen" />
=======
	<node id="-20123" lat="58.5989722219" lon="5.62733333863">
		<tag k="name" v="Skifteshaugen" />
>>>>>>> e1d4bc35ff8a6074a6f2e91616a996b547c36f15
		<tag k="natural" v="hill" />
		<tag k="place" v="locality" />
		<tag k="ssr:stedsnr" v="301951" />
	</node>
<<<<<<< HEAD
	<node lat="58.60646388937641" lon="5.883675006776376" id="-662">
		<tag k="fixme" v="multiple name tags, choose one and add the other to alt_name" />
		<tag k="name" v="Eikelandsknuten;Storeknuten" />
=======
	<node id="-20120" lat="58.5742305524" lon="5.73631389167">
		<tag k="name" v="Legeberget" />
>>>>>>> e1d4bc35ff8a6074a6f2e91616a996b547c36f15
		<tag k="natural" v="hill" />
		<tag k="place" v="locality" />
		<tag k="ssr:stedsnr" v="303001" />
	</node>
<<<<<<< HEAD
	<node lat="58.555374998010436" lon="5.718752779322699" id="-672">
		<tag k="name" v="Grønhaugen" />
=======
	<node id="-20628" lat="58.5224916697" lon="5.81363056083">
		<tag k="name" v="Krasen" />
>>>>>>> e1d4bc35ff8a6074a6f2e91616a996b547c36f15
		<tag k="natural" v="hill" />
		<tag k="place" v="locality" />
		<tag k="ssr:stedsnr" v="303336" />
	</node>
<<<<<<< HEAD
	<node lat="58.59177222564424" lon="5.748933338149367" id="-675">
		<tag k="name" v="Korphaugane" />
=======
	<node id="-20623" lat="58.5644999983" lon="5.68587222246">
		<tag k="name" v="Rothaugane" />
>>>>>>> e1d4bc35ff8a6074a6f2e91616a996b547c36f15
		<tag k="natural" v="hill" />
		<tag k="place" v="locality" />
		<tag k="ssr:stedsnr" v="303366" />
	</node>
<<<<<<< HEAD
	<node lat="58.58351666849445" lon="5.8401416659216565" id="-681">
		<tag k="name" v="Presten" />
=======
	<node id="-20616" lat="58.5152277821" lon="5.81179721746">
		<tag k="name" v="Gurihelleren" />
>>>>>>> e1d4bc35ff8a6074a6f2e91616a996b547c36f15
		<tag k="natural" v="hill" />
		<tag k="place" v="locality" />
		<tag k="ssr:stedsnr" v="326740" />
	</node>
<<<<<<< HEAD
	<node lat="58.61027777932478" lon="5.691872228244313" id="-686">
		<tag k="name" v="Håbakken" />
		<tag k="natural" v="slope" />
=======
	<node id="-20102" lat="58.5184833342" lon="5.82711667201">
		<tag k="fixme" v="consider natural=peak for the most distinct mountains in the district" />
		<tag k="name" v="Risetind" />
		<tag k="natural" v="hill" />
>>>>>>> e1d4bc35ff8a6074a6f2e91616a996b547c36f15
		<tag k="place" v="locality" />
		<tag k="ssr:stedsnr" v="343558" />
	</node>
<<<<<<< HEAD
	<node lat="58.580802781625216" lon="5.829219435516159" id="-687">
=======
	<node id="-20101" lat="58.557480552" lon="5.7477277723">
>>>>>>> e1d4bc35ff8a6074a6f2e91616a996b547c36f15
		<tag k="fixme" v="consider natural=peak for the most distinct mountains in the district" />
		<tag k="name" v="Hammaren" />
		<tag k="natural" v="hill" />
		<tag k="place" v="locality" />
		<tag k="ssr:stedsnr" v="345598" />
	</node>
<<<<<<< HEAD
	<node lat="58.562127775317045" lon="5.694233326639046" id="-695">
		<tag k="name" v="Havreshøyen" />
		<tag k="natural" v="hill" />
		<tag k="place" v="locality" />
		<tag k="ssr:stedsnr" v="361632" />
	</node>
	<node lat="58.59897222188545" lon="5.627333338630993" id="-696">
		<tag k="name" v="Skifteshaugen" />
		<tag k="natural" v="hill" />
		<tag k="place" v="locality" />
		<tag k="ssr:stedsnr" v="361915" />
	</node>
	<node lat="58.60031111401196" lon="5.6519861139761245" id="-697">
		<tag k="name" v="Kjørkjeholen" />
=======
	<node id="-20100" lat="58.5504805513" lon="5.76987221801">
		<tag k="fixme" v="consider natural=peak for the most distinct mountains in the district" />
		<tag k="name" v="Torshammaren" />
		<tag k="natural" v="hill" />
		<tag k="place" v="locality" />
		<tag k="ssr:stedsnr" v="482948" />
	</node>
	<node id="-20610" lat="58.6159305551" lon="5.70229444932">
		<tag k="name" v="Lyngbakkane" />
		<tag k="natural" v="slope" />
		<tag k="place" v="locality" />
		<tag k="ssr:stedsnr" v="403532" />
	</node>
	<node id="-20095" lat="58.6040333337" lon="5.82368888423">
		<tag k="fixme" v="consider natural=peak for the most distinct mountains in the district" />
		<tag k="name" v="Ternefjellet" />
		<tag k="natural" v="hill" />
		<tag k="place" v="locality" />
		<tag k="ssr:stedsnr" v="480722" />
	</node>
	<node id="-20094" lat="58.6054805592" lon="5.79913611855">
		<tag k="name" v="Legå" />
		<tag k="place" v="locality" />
		<tag k="ssr:stedsnr" v="480717" />
	</node>
	<node id="-20605" lat="58.5019888883" lon="5.85275278195">
		<tag k="fixme" v="consider natural=peak for the most distinct mountains in the district" />
		<tag k="name" v="Tydletofjellet" />
		<tag k="natural" v="hill" />
		<tag k="place" v="locality" />
		<tag k="ssr:stedsnr" v="386143" />
	</node>
	<node id="-20091" lat="58.5835166685" lon="5.84014166592">
		<tag k="name" v="Presten" />
>>>>>>> e1d4bc35ff8a6074a6f2e91616a996b547c36f15
		<tag k="natural" v="hill" />
		<tag k="place" v="locality" />
		<tag k="ssr:stedsnr" v="361918" />
	</node>
<<<<<<< HEAD
	<node lat="58.518424995946106" lon="5.803400002506481" id="-702">
		<tag k="fixme" v="consider natural=peak for the most distinct mountains in the district" />
		<tag k="name" v="Tuberget" />
		<tag k="natural" v="hill" />
		<tag k="place" v="locality" />
		<tag k="ssr:stedsnr" v="362938" />
	</node>
	<node lat="58.612849998483995" lon="5.808980559685535" id="-710">
=======
	<node id="-20190" lat="61.2177777797" lon="6.59979722139">
		<tag k="alt_name" v="Alskori" />
		<tag k="name" v="Almskori" />
		<tag k="place" v="locality" />
		<tag k="ssr:stedsnr" v="677966" />
	</node>
	<node id="-20595" lat="58.6128499985" lon="5.80898055969">
>>>>>>> e1d4bc35ff8a6074a6f2e91616a996b547c36f15
		<tag k="name" v="Ihamaren" />
		<tag k="natural" v="hill" />
		<tag k="place" v="locality" />
		<tag k="ssr:stedsnr" v="364369" />
	</node>
<<<<<<< HEAD
	<node lat="58.547927775472566" lon="5.823711113184212" id="-721">
		<tag k="fixme" v="consider natural=peak for the most distinct mountains in the district" />
		<tag k="name" v="Smøråsen" />
		<tag k="natural" v="hill" />
		<tag k="place" v="locality" />
		<tag k="ssr:stedsnr" v="365185" />
	</node>
	<node lat="58.50198888834761" lon="5.852752781950928" id="-723">
=======
	<node id="-20081" lat="58.5917722256" lon="5.74893333815">
		<tag k="name" v="Korphaugane" />
		<tag k="natural" v="hill" />
		<tag k="place" v="locality" />
		<tag k="ssr:stedsnr" v="303366" />
	</node>
	<node id="-20071" lat="58.5249055577" lon="5.82371944884">
		<tag k="name" v="Klakken" />
		<tag k="place" v="locality" />
		<tag k="ssr:stedsnr" v="301926" />
	</node>
	<node id="-20582" lat="58.5184249959" lon="5.80340000251">
>>>>>>> e1d4bc35ff8a6074a6f2e91616a996b547c36f15
		<tag k="fixme" v="consider natural=peak for the most distinct mountains in the district" />
		<tag k="name" v="Tydletofjellet" />
		<tag k="natural" v="hill" />
		<tag k="place" v="locality" />
		<tag k="ssr:stedsnr" v="386143" />
	</node>
<<<<<<< HEAD
	<node lat="58.50283055895314" lon="5.827638884502085" id="-730">
		<tag k="name" v="Dauremålsfjellet" />
=======
	<node id="-20068" lat="58.5604083319" lon="5.78154722505">
		<tag k="fixme" v="consider natural=peak for the most distinct mountains in the district" />
		<tag k="name" v="Kråkefjell" />
>>>>>>> e1d4bc35ff8a6074a6f2e91616a996b547c36f15
		<tag k="natural" v="hill" />
		<tag k="place" v="locality" />
		<tag k="ssr:stedsnr" v="406225" />
	</node>
<<<<<<< HEAD
	<node lat="58.51522778214298" lon="5.811797217456571" id="-733">
		<tag k="name" v="Gurihelleren" />
=======
	<node id="-20066" lat="58.5919555582" lon="5.7469361038">
		<tag k="name" v="Kusteinen" />
>>>>>>> e1d4bc35ff8a6074a6f2e91616a996b547c36f15
		<tag k="natural" v="hill" />
		<tag k="place" v="locality" />
		<tag k="ssr:stedsnr" v="406270" />
	</node>
<<<<<<< HEAD
	<node lat="58.56449999828166" lon="5.68587222246072" id="-738">
		<tag k="name" v="Rothaugane" />
=======
	<node id="-20577" lat="58.5621277753" lon="5.69423332664">
		<tag k="name" v="Havreshøyen" />
>>>>>>> e1d4bc35ff8a6074a6f2e91616a996b547c36f15
		<tag k="natural" v="hill" />
		<tag k="place" v="locality" />
		<tag k="ssr:stedsnr" v="422896" />
	</node>
<<<<<<< HEAD
	<node lat="58.58706666305519" lon="5.845758337506968" id="-754">
		<tag k="name" v="Revdalen" />
		<tag k="natural" v="valley" />
=======
	<node id="-20496" lat="58.5204333366" lon="5.85707500578">
		<tag k="fixme" v="consider natural=peak for the most distinct mountains in the district" />
		<tag k="name" v="Gudlandsknuten" />
		<tag k="natural" v="hill" />
		<tag k="place" v="locality" />
		<tag k="ssr:stedsnr" v="144165" />
	</node>
	<node id="-20571" lat="58.5808027816" lon="5.82921943552">
		<tag k="fixme" v="consider natural=peak for the most distinct mountains in the district" />
		<tag k="name" v="Hammaren" />
		<tag k="natural" v="hill" />
>>>>>>> e1d4bc35ff8a6074a6f2e91616a996b547c36f15
		<tag k="place" v="locality" />
		<tag k="ssr:stedsnr" v="447717" />
	</node>
<<<<<<< HEAD
	<node lat="58.58379166263553" lon="5.846719436202162" id="-755">
		<tag k="name" v="Goabakkane" />
=======
	<node id="-20569" lat="58.6102777793" lon="5.69187222824">
		<tag k="name" v="Håbakken" />
>>>>>>> e1d4bc35ff8a6074a6f2e91616a996b547c36f15
		<tag k="natural" v="slope" />
		<tag k="place" v="locality" />
		<tag k="ssr:stedsnr" v="447718" />
	</node>
<<<<<<< HEAD
	<node lat="58.53167222632983" lon="5.855108336776689" id="-760">
		<tag k="name" v="Rabali" />
		<tag k="natural" v="slope" />
=======
	<node id="-20054" lat="58.5808555567" lon="5.87354722961">
		<tag k="fixme" v="consider natural=peak for the most distinct mountains in the district" />
		<tag k="name" v="Skjeralifjellet" />
		<tag k="natural" v="hill" />
>>>>>>> e1d4bc35ff8a6074a6f2e91616a996b547c36f15
		<tag k="place" v="locality" />
		<tag k="ssr:stedsnr" v="508147" />
	</node>
<<<<<<< HEAD
	<node lat="58.61541388595578" lon="5.609933332224689" id="-772">
		<tag k="name" v="Kålhaug" />
=======
	<node id="-20564" lat="58.6546111087" lon="5.71133610604">
		<tag k="name" v="Kleggjavarden" />
>>>>>>> e1d4bc35ff8a6074a6f2e91616a996b547c36f15
		<tag k="natural" v="hill" />
		<tag k="place" v="locality" />
		<tag k="ssr:stedsnr" v="542567" />
	</node>
<<<<<<< HEAD
	<node lat="58.627950002137844" lon="5.790250005177361" id="-779">
		<tag k="alt_name" v="Obrestadheia" />
		<tag k="fixme" v="consider natural=peak for the most distinct mountains in the district" />
		<tag k="name" v="Storamosheia" />
=======
	<node id="-20554" lat="58.555374998" lon="5.71875277932">
		<tag k="name" v="Grønhaugen" />
>>>>>>> e1d4bc35ff8a6074a6f2e91616a996b547c36f15
		<tag k="natural" v="hill" />
		<tag k="place" v="locality" />
		<tag k="ssr:stedsnr" v="546261" />
	</node>
<<<<<<< HEAD
	<node lat="58.6168361097091" lon="5.7774749950056865" id="-780">
		<tag k="fixme" v="consider natural=peak for the most distinct mountains in the district" />
		<tag k="name" v="Årnistheia" />
		<tag k="natural" v="hill" />
=======
	<node id="-20040" lat="58.5837916626" lon="5.8467194362">
		<tag k="name" v="Goabakkane" />
		<tag k="natural" v="slope" />
>>>>>>> e1d4bc35ff8a6074a6f2e91616a996b547c36f15
		<tag k="place" v="locality" />
		<tag k="ssr:stedsnr" v="546266" />
	</node>
<<<<<<< HEAD
	<node lat="58.65458610967364" lon="5.711144436992178" id="-784">
		<tag k="fixme" v="consider natural=peak for the most distinct mountains in the district" />
		<tag k="name" v="Kanaheia" />
		<tag k="natural" v="hill" />
=======
	<node id="-20039" lat="58.5870666631" lon="5.84575833751">
		<tag k="name" v="Revdalen" />
		<tag k="natural" v="valley" />
>>>>>>> e1d4bc35ff8a6074a6f2e91616a996b547c36f15
		<tag k="place" v="locality" />
		<tag k="ssr:stedsnr" v="546282" />
	</node>
<<<<<<< HEAD
	<node lat="58.577213889762824" lon="5.816138883456215" id="-785">
		<tag k="fixme" v="consider natural=peak for the most distinct mountains in the district" />
		<tag k="name" v="Knuten" />
=======
	<node id="-20550" lat="58.6064638894" lon="5.88367500678">
		<tag k="fixme" v="multiple name tags, choose one and add the other to alt_name" />
		<tag k="name" v="Eikelandsknuten;Storeknuten" />
>>>>>>> e1d4bc35ff8a6074a6f2e91616a996b547c36f15
		<tag k="natural" v="hill" />
		<tag k="old_name" v="Knuden;Åsaknuten" />
		<tag k="place" v="locality" />
		<tag k="ssr:stedsnr" v="546298" />
	</node>
<<<<<<< HEAD
	<node lat="58.52421944047646" lon="5.8523611118758385" id="-792">
		<tag k="fixme" v="consider natural=peak for the most distinct mountains in the district" />
		<tag k="name" v="Vadlåsen" />
		<tag k="natural" v="hill" />
		<tag k="place" v="locality" />
		<tag k="ssr:stedsnr" v="568152" />
	</node>
	<node lat="58.593869446569904" lon="5.839316663777605" id="-795">
		<tag k="fixme" v="consider natural=peak for the most distinct mountains in the district" />
		<tag k="name" v="Kvernhammaren" />
		<tag k="natural" v="hill" />
		<tag k="place" v="locality" />
		<tag k="ssr:stedsnr" v="568733" />
	</node>
	<node lat="58.59800797271822" lon="5.752764399005341" id="-806">
		<tag k="name" v="Hyljebakkane" />
=======
	<node id="-20321" lat="58.5366972234" lon="5.72713888487">
		<tag k="name" v="N Laksaberget" />
		<tag k="natural" v="hill" />
		<tag k="place" v="locality" />
		<tag k="ssr:stedsnr" v="908959" />
	</node>
	<node id="-20031" lat="58.5821000024" lon="5.76559722504">
		<tag k="name" v="Geithammaren" />
		<tag k="natural" v="cliff" />
		<tag k="ssr:stedsnr" v="285591" />
	</node>
	<node id="-20542" lat="58.6131305554" lon="5.84351945234">
		<tag k="name" v="Rennefjellet" />
>>>>>>> e1d4bc35ff8a6074a6f2e91616a996b547c36f15
		<tag k="natural" v="hill" />
		<tag k="place" v="locality" />
		<tag k="ssr:stedsnr" v="603974" />
	</node>
<<<<<<< HEAD
	<node lat="58.519447225724704" lon="5.798961118963169" id="-808">
		<tag k="fixme" v="consider natural=peak for the most distinct mountains in the district" />
		<tag k="name" v="Lyptingen" />
=======
	<node id="-20495" lat="58.5207944413" lon="5.83451943956">
		<tag k="fixme" v="consider natural=peak for the most distinct mountains in the district" />
		<tag k="name" v="Rudlebakkane" />
		<tag k="natural" v="hill" />
		<tag k="place" v="locality" />
		<tag k="ssr:stedsnr" v="144164" />
	</node>
	<node id="-20026" lat="58.6182361136" lon="5.63972499367">
		<tag k="name" v="Revhaug" />
>>>>>>> e1d4bc35ff8a6074a6f2e91616a996b547c36f15
		<tag k="natural" v="hill" />
		<tag k="place" v="locality" />
		<tag k="ssr:stedsnr" v="604950" />
	</node>
<<<<<<< HEAD
	<node lat="58.53756110819941" lon="5.811711110200062" id="-809">
		<tag k="fixme" v="consider natural=peak for the most distinct mountains in the district" />
		<tag k="name" v="Stølsfjellet" />
		<tag k="natural" v="hill" />
=======
	<node id="-20024" lat="58.621649998" lon="5.6940694511">
		<tag k="name" v="Bubakken" />
		<tag k="natural" v="slope" />
>>>>>>> e1d4bc35ff8a6074a6f2e91616a996b547c36f15
		<tag k="place" v="locality" />
		<tag k="ssr:stedsnr" v="604947" />
	</node>
<<<<<<< HEAD
	<node lat="58.60175967034316" lon="5.7918788175206455" id="-821">
		<tag k="name" v="Anisdalheia" />
=======
	<node id="-20023" lat="58.6075638899" lon="5.69748333719">
		<tag k="name" v="Steinholen" />
>>>>>>> e1d4bc35ff8a6074a6f2e91616a996b547c36f15
		<tag k="natural" v="hill" />
		<tag k="place" v="locality" />
		<tag k="ssr:stedsnr" v="629335" />
	</node>
<<<<<<< HEAD
	<node lat="58.58270555584566" lon="5.8354305575889285" id="-822">
		<tag k="fixme" v="consider natural=peak for the most distinct mountains in the district" />
		<tag k="name" v="Hedlarfjellet" />
=======
	<node id="-20020" lat="58.6157934429" lon="5.7264935328">
		<tag k="name" v="Bergarholen" />
>>>>>>> e1d4bc35ff8a6074a6f2e91616a996b547c36f15
		<tag k="natural" v="hill" />
		<tag k="place" v="locality" />
		<tag k="ssr:stedsnr" v="629733" />
	</node>
<<<<<<< HEAD
	<node lat="58.61359721863285" lon="5.7179138940819705" id="-828">
		<tag k="name" v="Småelgane" />
=======
	<node id="-20011" lat="58.5984083327" lon="5.78729999698">
		<tag k="name" v="Burstølen" />
>>>>>>> e1d4bc35ff8a6074a6f2e91616a996b547c36f15
		<tag k="natural" v="hill" />
		<tag k="place" v="locality" />
		<tag k="ssr:stedsnr" v="646558" />
	</node>
<<<<<<< HEAD
	<node lat="58.55465833517717" lon="5.707233341093614" id="-833">
		<tag k="name" v="Grønhaugen" />
=======
	<node id="-19997" lat="58.5416055581" lon="5.82530000199">
		<tag k="fixme" v="consider natural=peak for the most distinct mountains in the district" />
		<tag k="name" v="Grønåsen" />
>>>>>>> e1d4bc35ff8a6074a6f2e91616a996b547c36f15
		<tag k="natural" v="hill" />
		<tag k="place" v="locality" />
		<tag k="ssr:stedsnr" v="664975" />
	</node>
<<<<<<< HEAD
	<node lat="58.663644440330096" lon="5.580063886789632" id="-850">
		<tag k="name" v="Elisberget" />
=======
	<node id="-20508" lat="58.5795833341" lon="5.68033332618">
		<tag k="name" v="Vierrudla" />
>>>>>>> e1d4bc35ff8a6074a6f2e91616a996b547c36f15
		<tag k="natural" v="hill" />
		<tag k="place" v="locality" />
		<tag k="ssr:stedsnr" v="725326" />
	</node>
<<<<<<< HEAD
	<node lat="58.48078055474505" lon="5.840524995181162" id="-851">
		<tag k="name" v="Hattaknuten" />
=======
	<node id="-19992" lat="58.6538583348" lon="5.62206388632">
		<tag k="name" v="Hanaberget" />
>>>>>>> e1d4bc35ff8a6074a6f2e91616a996b547c36f15
		<tag k="natural" v="hill" />
		<tag k="place" v="locality" />
		<tag k="ssr:stedsnr" v="725051" />
	</node>
<<<<<<< HEAD
	<node lat="58.51735833161347" lon="5.8704805478810655" id="-864">
		<tag k="fixme" v="consider natural=peak for the most distinct mountains in the district" />
		<tag k="name" v="Gudlaknuten" />
=======
	<node id="-20501" lat="58.6716166634" lon="5.65482778025">
		<tag k="name" v="Skatteberget" />
>>>>>>> e1d4bc35ff8a6074a6f2e91616a996b547c36f15
		<tag k="natural" v="hill" />
		<tag k="place" v="locality" />
		<tag k="ssr:stedsnr" v="751126" />
	</node>
<<<<<<< HEAD
	<node lat="58.53704721885304" lon="5.7122888893462695" id="-868">
		<tag k="fixme" v="consider natural=peak for the most distinct mountains in the district" />
		<tag k="name" v="Ørnakula" />
		<tag k="natural" v="hill" />
=======
	<node id="-20499" lat="58.5884111092" lon="5.84327777003">
		<tag k="name" v="Slåttedalen" />
		<tag k="natural" v="valley" />
>>>>>>> e1d4bc35ff8a6074a6f2e91616a996b547c36f15
		<tag k="place" v="locality" />
		<tag k="ssr:stedsnr" v="767180" />
	</node>
<<<<<<< HEAD
	<node lat="58.618105554544485" lon="5.775583327223321" id="-870">
		<tag k="name" v="Snøden" />
=======
	<node id="-19985" lat="58.4783250536" lon="5.84772593103">
		<tag k="fixme" v="consider natural=peak for the most distinct mountains in the district" />
		<tag k="name" v="Moifjellet" />
>>>>>>> e1d4bc35ff8a6074a6f2e91616a996b547c36f15
		<tag k="natural" v="hill" />
		<tag k="place" v="locality" />
		<tag k="ssr:stedsnr" v="768481" />
	</node>
<<<<<<< HEAD
	<node lat="58.533356860674154" lon="5.8115771244347725" id="-878">
=======
	<node id="-19984" lat="58.5323777817" lon="5.79197222466">
>>>>>>> e1d4bc35ff8a6074a6f2e91616a996b547c36f15
		<tag k="fixme" v="consider natural=peak for the most distinct mountains in the district" />
		<tag k="name" v="Hattafjellet" />
		<tag k="natural" v="hill" />
		<tag k="place" v="locality" />
		<tag k="ssr:stedsnr" v="787927" />
	</node>
<<<<<<< HEAD
	<node lat="58.52621111097136" lon="5.816538882221938" id="-879">
=======
	<node id="-19983" lat="58.5389972208" lon="5.80955277258">
>>>>>>> e1d4bc35ff8a6074a6f2e91616a996b547c36f15
		<tag k="fixme" v="consider natural=peak for the most distinct mountains in the district" />
		<tag k="name" v="Bukkaknuten" />
		<tag k="natural" v="hill" />
		<tag k="place" v="locality" />
		<tag k="ssr:stedsnr" v="787928" />
	</node>
<<<<<<< HEAD
	<node lat="58.52373333502312" lon="5.783158329776027" id="-880">
=======
	<node id="-20494" lat="58.5168916646" lon="5.85619444782">
>>>>>>> e1d4bc35ff8a6074a6f2e91616a996b547c36f15
		<tag k="fixme" v="consider natural=peak for the most distinct mountains in the district" />
		<tag k="name" v="Heptetokula" />
		<tag k="natural" v="hill" />
		<tag k="place" v="locality" />
		<tag k="ssr:stedsnr" v="787933" />
	</node>
<<<<<<< HEAD
	<node lat="58.55313055974563" lon="5.883569448294269" id="-881">
		<tag k="name" v="Bjørndalsniben" />
		<tag k="natural" v="hill" />
=======
	<node id="-19979" lat="58.6068694427" lon="5.61925277201">
		<tag k="alt_name" v="Djupedal litle" />
		<tag k="name" v="Litle Djupedal" />
		<tag k="natural" v="valley" />
>>>>>>> e1d4bc35ff8a6074a6f2e91616a996b547c36f15
		<tag k="place" v="locality" />
		<tag k="ssr:stedsnr" v="788080" />
	</node>
<<<<<<< HEAD
	<node lat="58.59972777391215" lon="5.832066667473181" id="-894">
		<tag k="fixme" v="consider natural=peak for the most distinct mountains in the district" />
		<tag k="name" v="Torsfjellet" />
=======
	<node id="-20489" lat="58.5929444428" lon="5.78820834086">
		<tag k="name" v="Harafjellet" />
>>>>>>> e1d4bc35ff8a6074a6f2e91616a996b547c36f15
		<tag k="natural" v="hill" />
		<tag k="place" v="locality" />
		<tag k="ssr:stedsnr" v="812746" />
	</node>
<<<<<<< HEAD
	<node lat="58.66693333635437" lon="5.653447224938212" id="-897">
		<tag k="name" v="Skjeraberget" />
		<tag k="natural" v="hill" />
		<tag k="place" v="locality" />
		<tag k="ssr:stedsnr" v="829352" />
	</node>
	<node lat="58.631933329131584" lon="5.711969450130239" id="-899">
		<tag k="fixme" v="consider natural=peak for the most distinct mountains in the district" />
		<tag k="name" v="Kobben" />
		<tag k="natural" v="hill" />
		<tag k="place" v="locality" />
		<tag k="ssr:stedsnr" v="829601" />
	</node>
	<node lat="58.58985277626847" lon="5.794866675105599" id="-900">
		<tag k="fixme" v="consider natural=peak for the most distinct mountains in the district" />
		<tag k="name" v="Kufjellet" />
		<tag k="natural" v="hill" />
		<tag k="place" v="locality" />
		<tag k="ssr:stedsnr" v="829602" />
	</node>
	<node lat="58.582841670776446" lon="5.823733331900108" id="-901">
		<tag k="fixme" v="consider natural=peak for the most distinct mountains in the district" />
		<tag k="name" v="Grønåsen" />
		<tag k="natural" v="hill" />
		<tag k="place" v="locality" />
		<tag k="ssr:stedsnr" v="829611" />
	</node>
	<node lat="58.579827781573485" lon="5.799794446337979" id="-905">
		<tag k="fixme" v="consider natural=peak for the most distinct mountains in the district" />
		<tag k="name" v="Hyljafjellet" />
		<tag k="natural" v="hill" />
		<tag k="place" v="locality" />
		<tag k="ssr:stedsnr" v="831572" />
	</node>
	<node lat="58.60333333803572" lon="5.642500007053356" id="-911">
		<tag k="name" v="Grønhaugen" />
		<tag k="natural" v="hill" />
		<tag k="place" v="locality" />
		<tag k="ssr:stedsnr" v="847908" />
	</node>
	<node lat="58.55002499588615" lon="5.792558329318456" id="-912">
		<tag k="fixme" v="consider natural=peak for the most distinct mountains in the district" />
		<tag k="name" v="Hestafjellet" />
		<tag k="natural" v="hill" />
		<tag k="place" v="locality" />
		<tag k="ssr:stedsnr" v="847961" />
	</node>
	<node lat="58.60060555333146" lon="5.825163895964928" id="-934">
		<tag k="name" v="Ruskefjellet" />
		<tag k="natural" v="hill" />
		<tag k="place" v="locality" />
		<tag k="ssr:stedsnr" v="850374" />
	</node>
	<node lat="58.6188138866336" lon="5.846724997821045" id="-939">
		<tag k="name" v="Marsteinberget" />
		<tag k="natural" v="hill" />
		<tag k="place" v="locality" />
		<tag k="ssr:stedsnr" v="872763" />
	</node>
	<node lat="58.59418333341707" lon="5.858088882609043" id="-940">
		<tag k="name" v="Buskogliane" />
		<tag k="natural" v="slope" />
=======
	<node id="-20737" lat="58.6517361083" lon="5.67709722988">
		<tag k="name" v="Hålandshaugen" />
		<tag k="natural" v="hill" />
		<tag k="place" v="locality" />
		<tag k="ssr:stedsnr" v="646331" />
	</node>
	<node id="-20817" lat="58.6319333291" lon="5.71196945013">
		<tag k="fixme" v="consider natural=peak for the most distinct mountains in the district" />
		<tag k="name" v="Kobben" />
		<tag k="natural" v="hill" />
>>>>>>> e1d4bc35ff8a6074a6f2e91616a996b547c36f15
		<tag k="place" v="locality" />
		<tag k="ssr:stedsnr" v="872771" />
	</node>
<<<<<<< HEAD
	<node lat="58.58350278181249" lon="5.693661110273024" id="-950">
		<tag k="name" v="Runde Høyebakk" />
		<tag k="natural" v="hill" />
		<tag k="place" v="locality" />
		<tag k="ssr:stedsnr" v="952871" />
	</node>
	<node lat="58.56799722178409" lon="5.760927781897166" id="-953">
		<tag k="name" v="Grøne haugen" />
		<tag k="natural" v="hill" />
		<tag k="place" v="locality" />
		<tag k="ssr:stedsnr" v="952596" />
	</node>
	<node lat="58.52391111004487" lon="5.78839723080923" id="-956">
		<tag k="fixme" v="consider natural=peak for the most distinct mountains in the district" />
		<tag k="name" v="Steinstufjellet" />
		<tag k="natural" v="hill" />
		<tag k="place" v="locality" />
		<tag k="ssr:stedsnr" v="969922" />
=======
	<node id="-20481" lat="58.6202833337" lon="5.79062778303">
		<tag k="fixme" v="consider natural=peak for the most distinct mountains in the district" />
		<tag k="name" v="Snødehaugen" />
		<tag k="natural" v="hill" />
		<tag k="place" v="locality" />
		<tag k="ssr:stedsnr" v="121284" />
>>>>>>> e1d4bc35ff8a6074a6f2e91616a996b547c36f15
	</node>
</osm>
