<?xml version="1.0" encoding="UTF-8"?>
<osm version="0.6" generator="osmapis">
	<node lat="58.66431111196839" lon="5.697461105306717" id="-863">
		<tag k="alt_name" v="Bøbakkane" />
		<tag k="name" v="Bøbakken" />
		<tag k="place" v="farm" />
		<tag k="ssr:stedsnr" v="301" />
	</node>
	<node lat="58.636779616131264" lon="5.652726793722617" id="-865">
		<tag k="name" v="Kvasselbakken" />
		<tag k="place" v="farm" />
		<tag k="ssr:stedsnr" v="269" />
	</node>
	<node lat="58.65958888695529" lon="5.704427783485241" id="-866">
		<tag k="name" v="Indrebø" />
		<tag k="place" v="farm" />
		<tag k="ssr:stedsnr" v="299" />
	</node>
	<node lat="58.52171111434829" lon="5.802338896020599" id="-869">
		<tag k="name" v="Kvianes" />
		<tag k="place" v="farm" />
		<tag k="ssr:stedsnr" v="450" />
	</node>
	<node lat="58.54823889343759" lon="5.736652783338996" id="-879">
		<tag k="name" v="Stovebakken" />
		<tag k="place" v="farm" />
		<tag k="ssr:stedsnr" v="41973" />
	</node>
	<node lat="58.64179166955322" lon="5.62229999172016" id="-886">
		<tag k="alt_name" v="Storebakken" />
		<tag k="name" v="Storbakken" />
		<tag k="place" v="farm" />
		<tag k="ssr:stedsnr" v="61301" />
	</node>
	<node lat="58.584836107504195" lon="5.802566670824894" id="-887">
		<tag k="name" v="Neset" />
		<tag k="place" v="farm" />
		<tag k="ssr:stedsnr" v="61308" />
	</node>
	<node lat="58.634413889747805" lon="5.696222229214615" id="-903">
		<tag k="alt_name" v="Hukkjen" />
		<tag k="name" v="Hukken" />
		<tag k="old_name" v="Huken" />
		<tag k="place" v="farm" />
		<tag k="ssr:stedsnr" v="243240" />
	</node>
	<node lat="58.62458888519052" lon="5.7398666656482815" id="-905">
		<tag k="alt_name" v="Kloppstein" />
		<tag k="name" v="Klopsteinen" />
		<tag k="old_name" v="Kloppsteinen" />
		<tag k="place" v="farm" />
		<tag k="ssr:stedsnr" v="243264" />
	</node>
	<node lat="58.64111388726559" lon="5.663466666381308" id="-908">
		<tag k="alt_name" v="Leite" />
		<tag k="name" v="Leitet" />
		<tag k="place" v="farm" />
		<tag k="ssr:stedsnr" v="243303" />
	</node>
	<node lat="58.60759999712741" lon="5.722536117373902" id="-912">
		<tag k="name" v="Marsteinbakken" />
		<tag k="place" v="farm" />
		<tag k="ssr:stedsnr" v="243340" />
	</node>
	<node lat="58.60591666842536" lon="5.638663884263543" id="-913">
		<tag k="name" v="Dalen" />
		<tag k="place" v="farm" />
		<tag k="ssr:stedsnr" v="243345" />
	</node>
	<node lat="58.60013610778289" lon="5.704125000076374" id="-915">
		<tag k="alt_name" v="Graheia" />
		<tag k="name" v="Heia" />
		<tag k="place" v="farm" />
		<tag k="ssr:stedsnr" v="243351" />
	</node>
	<node lat="58.66346666743853" lon="5.718402780996412" id="-926">
		<tag k="name" v="Areholen" />
		<tag k="place" v="farm" />
		<tag k="ssr:stedsnr" v="100323" />
	</node>
	<node lat="58.52407222333919" lon="5.809258337997432" id="-928">
		<tag k="name" v="Røyrmyr" />
		<tag k="place" v="farm" />
		<tag k="ssr:stedsnr" v="103609" />
	</node>
	<node lat="58.600433332771054" lon="5.750263892426597" id="-929">
		<tag k="name" v="Vasshølen" />
		<tag k="place" v="locality" />
		<tag k="ssr:stedsnr" v="103612" />
	</node>
	<node lat="58.568291663189946" lon="5.663125002656217" id="-937">
		<tag k="name" v="Bakken" />
		<tag k="place" v="farm" />
		<tag k="ssr:stedsnr" v="121318" />
	</node>
	<node lat="58.62448611328299" lon="5.6745305522153915" id="-942">
		<tag k="name" v="Primstad" />
		<tag k="place" v="farm" />
		<tag k="ssr:stedsnr" v="121275" />
	</node>
	<node lat="58.5506555586517" lon="5.723944438697497" id="-951">
		<tag k="name" v="Heia" />
		<tag k="place" v="farm" />
		<tag k="ssr:stedsnr" v="162959" />
	</node>
	<node lat="58.57899444747641" lon="5.764536116622744" id="-955">
		<tag k="alt_name" v="Teigen" />
		<tag k="name" v="Teigane" />
		<tag k="place" v="farm" />
		<tag k="ssr:stedsnr" v="182313" />
	</node>
	<node lat="58.546874999408146" lon="5.776713888185383" id="-959">
		<tag k="alt_name" v="Hedlevollen" />
		<tag k="name" v="Hellevollen" />
		<tag k="place" v="farm" />
		<tag k="ssr:stedsnr" v="182400" />
	</node>
	<node lat="58.61826110690936" lon="5.654144440464403" id="-966">
		<tag k="name" v="Dubland" />
		<tag k="place" v="farm" />
		<tag k="ssr:stedsnr" v="222504" />
	</node>
	<node lat="58.55122499704359" lon="5.780858325643466" id="-970">
		<tag k="name" v="Kyrkjeneset" />
		<tag k="place" v="farm" />
		<tag k="ssr:stedsnr" v="224938" />
	</node>
	<node lat="58.56528610871718" lon="5.65731111616314" id="-973">
		<tag k="name" v="Røseneset" />
		<tag k="place" v="farm" />
		<tag k="ssr:stedsnr" v="224885" />
	</node>
	<node lat="58.58675555793938" lon="5.6761583415537515" id="-974">
		<tag k="name" v="Mælandsholen" />
		<tag k="place" v="farm" />
		<tag k="ssr:stedsnr" v="224888" />
	</node>
	<node lat="58.63513055843202" lon="5.658147224931236" id="-976">
		<tag k="name" v="Nordheim" />
		<tag k="place" v="farm" />
		<tag k="ssr:stedsnr" v="239580" />
	</node>
	<node lat="58.5276388920705" lon="5.801994442370245" id="-981">
		<tag k="name" v="Nestangen" />
		<tag k="place" v="locality" />
		<tag k="ssr:stedsnr" v="241927" />
	</node>
	<node lat="58.64941666663817" lon="5.638725008406526" id="-987">
		<tag k="name" v="Kviagjerda" />
		<tag k="place" v="farm" />
		<tag k="ssr:stedsnr" v="282317" />
	</node>
	<node lat="58.652938886721934" lon="5.6569277695016265" id="-988">
		<tag k="name" v="Raudarudla" />
		<tag k="place" v="locality" />
		<tag k="ssr:stedsnr" v="282320" />
	</node>
	<node lat="58.58544444699258" lon="5.763186105051802" id="-998">
		<tag k="name" v="Finnarvollen" />
		<tag k="place" v="locality" />
		<tag k="ssr:stedsnr" v="303310" />
	</node>
	<node lat="58.54903610928648" lon="5.780538886918969" id="-1001">
		<tag k="name" v="Hovdavollen" />
		<tag k="place" v="farm" />
		<tag k="ssr:stedsnr" v="303405" />
	</node>
	<node lat="58.54102500307306" lon="5.7002111147210535" id="-1019">
		<tag k="name" v="Kvalbein" />
		<tag k="place" v="farm" />
		<tag k="ssr:stedsnr" v="344600" />
	</node>
	<node lat="58.56728055368254" lon="5.738319450572808" id="-1020">
		<tag k="name" v="Mauraheia" />
		<tag k="place" v="locality" />
		<tag k="ssr:stedsnr" v="345559" />
	</node>
	<node lat="58.662299996421886" lon="5.735224993358223" id="-1025">
		<tag k="name" v="Are" />
		<tag k="place" v="farm" />
		<tag k="ssr:stedsnr" v="364298" />
	</node>
	<node lat="58.50739722448403" lon="5.795111106855629" id="-1028">
		<tag k="name" v="Oddane" />
		<tag k="place" v="farm" />
		<tag k="ssr:stedsnr" v="480130" />
	</node>
	<node lat="58.50061431245361" lon="5.803430970481364" id="-1029">
		<tag k="fixme" v="consider place=hamlet" />
		<tag k="name" v="Nygård" />
		<tag k="place" v="farm" />
		<tag k="ssr:stedsnr" v="482176" />
	</node>
	<node lat="58.57398332974898" lon="5.681016668167565" id="-1031">
		<tag k="name" v="Høyen" />
		<tag k="place" v="farm" />
		<tag k="ssr:stedsnr" v="482598" />
	</node>
	<node lat="58.564166665330866" lon="5.692508328156934" id="-1033">
		<tag k="name" v="Jersheia" />
		<tag k="place" v="farm" />
		<tag k="ssr:stedsnr" v="482882" />
	</node>
	<node lat="58.5767999957232" lon="5.715836113369014" id="-1043">
		<tag k="name" v="Øydgardsheia" />
		<tag k="old_name" v="Øygardsheia" />
		<tag k="place" v="farm" />
		<tag k="ssr:stedsnr" v="485266" />
	</node>
	<node lat="58.566786115475225" lon="5.72007499428157" id="-1044">
		<tag k="name" v="Torvholen" />
		<tag k="place" v="farm" />
		<tag k="ssr:stedsnr" v="485271" />
	</node>
	<node lat="58.57184999559463" lon="5.812924999899796" id="-1045">
		<tag k="name" v="Åsane" />
		<tag k="place" v="farm" />
		<tag k="ssr:stedsnr" v="485279" />
	</node>
	<node lat="58.665341670131426" lon="5.70931943928393" id="-1047">
		<tag k="alt_name" v="Trikanten" />
		<tag k="name" v="Trekanten" />
		<tag k="place" v="farm" />
		<tag k="ssr:stedsnr" v="485234" />
	</node>
	<node lat="58.582008333307954" lon="5.7950638969814365" id="-1049">
		<tag k="name" v="Engjane" />
		<tag k="place" v="farm" />
		<tag k="ssr:stedsnr" v="485250" />
	</node>
	<node lat="58.61365833301665" lon="5.728400006750929" id="-1054">
		<tag k="name" v="Karitufta" />
		<tag k="place" v="locality" />
		<tag k="ssr:stedsnr" v="403484" />
	</node>
	<node lat="58.588466665626164" lon="5.722508330099596" id="-1063">
		<tag k="name" v="Steinhuset" />
		<tag k="place" v="farm" />
		<tag k="ssr:stedsnr" v="406608" />
	</node>
	<node lat="58.597163892303264" lon="5.642608330481918" id="-1067">
		<tag k="name" v="Sørvoll" />
		<tag k="place" v="farm" />
		<tag k="ssr:stedsnr" v="422912" />
	</node>
	<node lat="58.517599997033024" lon="5.809230551127463" id="-1071">
		<tag k="amenity" v="school" />
		<tag k="name" v="Ogna" />
		<tag k="ssr:stedsnr" v="423941" />
	</node>
	<node lat="58.650191667368404" lon="5.6190250046830945" id="-1075">
		<tag k="name" v="Høneland" />
		<tag k="place" v="farm" />
		<tag k="ssr:stedsnr" v="425302" />
	</node>
	<node lat="58.504241662246244" lon="5.826566667502398" id="-1084">
		<tag k="name" v="Nordskog" />
		<tag k="place" v="farm" />
		<tag k="ssr:stedsnr" v="464172" />
	</node>
	<node lat="58.6166138915461" lon="5.7549277711354065" id="-1085">
		<tag k="name" v="Myrane" />
		<tag k="place" v="locality" />
		<tag k="ssr:stedsnr" v="464505" />
	</node>
	<node lat="58.63275555960189" lon="5.6129361038085435" id="-1095">
		<tag k="name" v="Sunde" />
		<tag k="place" v="farm" />
		<tag k="ssr:stedsnr" v="485203" />
	</node>
	<node lat="58.59959166733576" lon="5.731327785444264" id="-1099">
		<tag k="name" v="Hålandsbotn" />
		<tag k="place" v="farm" />
		<tag k="ssr:stedsnr" v="485298" />
	</node>
	<node lat="58.61547221968316" lon="5.708641661292739" id="-1105">
		<tag k="name" v="Rudlå" />
		<tag k="place" v="locality" />
		<tag k="ssr:stedsnr" v="525568" />
	</node>
	<node lat="58.58006389093924" lon="5.722847224636415" id="-1106">
		<tag k="name" v="Østerig" />
		<tag k="place" v="farm" />
		<tag k="ssr:stedsnr" v="527606" />
	</node>
	<node lat="58.58383333282231" lon="5.725127780993846" id="-1108">
		<tag k="name" v="Tolleivplasset" />
		<tag k="place" v="locality" />
		<tag k="ssr:stedsnr" v="527618" />
	</node>
	<node lat="58.58856944255689" lon="5.697022218125964" id="-1109">
		<tag k="name" v="Trillura" />
		<tag k="place" v="locality" />
		<tag k="ssr:stedsnr" v="527888" />
	</node>
	<node lat="58.57330000262063" lon="5.709352775973676" id="-1112">
		<tag k="name" v="Øygard (Hadland nordre)" />
		<tag k="place" v="farm" />
		<tag k="ssr:stedsnr" v="543867" />
	</node>
	<node lat="58.586841666224224" lon="5.643874994792689" id="-1113">
		<tag k="name" v="Stamphuset" />
		<tag k="place" v="farm" />
		<tag k="ssr:stedsnr" v="544902" />
	</node>
	<node lat="58.60168055166383" lon="5.623972216270043" id="-1114">
		<tag k="name" v="Varhaug" />
		<tag k="place" v="farm" />
		<tag k="ssr:stedsnr" v="544906" />
	</node>
	<node lat="58.59655555259827" lon="5.65521944793396" id="-1115">
		<tag k="name" v="Odland" />
		<tag k="place" v="farm" />
		<tag k="ssr:stedsnr" v="544907" />
	</node>
	<node lat="58.577624999683835" lon="5.718888893456667" id="-1119">
		<tag k="name" v="Prøysen" />
		<tag k="place" v="farm" />
		<tag k="ssr:stedsnr" v="546303" />
	</node>
	<node lat="58.5525666630838" lon="5.674030547964652" id="-1120">
		<tag k="name" v="Nygard" />
		<tag k="place" v="farm" />
		<tag k="ssr:stedsnr" v="546314" />
	</node>
	<node lat="58.52467229041361" lon="5.7987808309298545" id="-1123">
		<tag k="alt_name" v="Grønefit" />
		<tag k="name" v="Grønefet" />
		<tag k="place" v="locality" />
		<tag k="ssr:stedsnr" v="546405" />
	</node>
	<node lat="58.646673929967044" lon="5.65244910498009" id="-1142">
		<tag k="name" v="Rongjå" />
		<tag k="place" v="farm" />
		<tag k="ssr:stedsnr" v="585311" />
	</node>
	<node lat="58.61621389083616" lon="5.651755548192755" id="-1146">
		<tag k="amenity" v="school" />
		<tag k="name" v="Varhaug" />
		<tag k="ssr:stedsnr" v="586549" />
	</node>
	<node lat="58.62258333612649" lon="5.606738880949786" id="-1150">
		<tag k="name" v="Oterbekk" />
		<tag k="place" v="farm" />
		<tag k="ssr:stedsnr" v="604120" />
	</node>
	<node lat="58.60465000309643" lon="5.670099995267903" id="-1156">
		<tag k="name" v="Toppaland" />
		<tag k="place" v="farm" />
		<tag k="ssr:stedsnr" v="606320" />
	</node>
	<node lat="58.60228888878413" lon="5.701374992210213" id="-1157">
		<tag k="name" v="Lobekk" />
		<tag k="place" v="farm" />
		<tag k="ssr:stedsnr" v="606329" />
	</node>
	<node lat="58.54664999667754" lon="5.791905551109746" id="-1158">
		<tag k="alt_name" v="Tårland" />
		<tag k="name" v="Torland" />
		<tag k="place" v="farm" />
		<tag k="ssr:stedsnr" v="606385" />
	</node>
	<node lat="58.61192777502959" lon="5.66291389423761" id="-1175">
		<tag k="name" v="Fagerheim" />
		<tag k="place" v="farm" />
		<tag k="ssr:stedsnr" v="646535" />
	</node>
	<node lat="58.67044999808554" lon="5.623913889659682" id="-1179">
		<tag k="name" v="Steinen" />
		<tag k="place" v="farm" />
		<tag k="ssr:stedsnr" v="707381" />
	</node>
	<node lat="58.67200278045522" lon="5.624902779433462" id="-1180">
		<tag k="name" v="Nesheimhaugen" />
		<tag k="place" v="farm" />
		<tag k="ssr:stedsnr" v="707382" />
	</node>
	<node lat="58.57218611493858" lon="5.715330551717849" id="-1182">
		<tag k="name" v="Brekka" />
		<tag k="place" v="farm" />
		<tag k="ssr:stedsnr" v="707537" />
	</node>
	<node lat="58.63602709851508" lon="5.6372964081886145" id="-1194">
		<tag k="name" v="Dysjalandronga" />
		<tag k="place" v="farm" />
		<tag k="ssr:stedsnr" v="664545" />
	</node>
	<node lat="58.581525004566736" lon="5.719525004849644" id="-1195">
		<tag k="name" v="Andreasplasset" />
		<tag k="place" v="locality" />
		<tag k="ssr:stedsnr" v="664905" />
	</node>
	<node lat="58.55615000259157" lon="5.775866659765629" id="-1200">
		<tag k="name" v="Litle Bjelland" />
		<tag k="place" v="farm" />
		<tag k="ssr:stedsnr" v="709965" />
	</node>
	<node lat="58.66428889334431" lon="5.704591666672834" id="-1202">
		<tag k="alt_name" v="Spogerholen" />
		<tag k="name" v="Spogarholen" />
		<tag k="old_name" v="Spogaholen" />
		<tag k="place" v="farm" />
		<tag k="ssr:stedsnr" v="667295" />
	</node>
	<node lat="58.523836112555735" lon="5.8086055473374545" id="-1203">
		<tag k="name" v="Røyrmyra" />
		<tag k="place" v="farm" />
		<tag k="ssr:stedsnr" v="667405" />
	</node>
	<node lat="58.64536111451651" lon="5.619869447307994" id="-1206">
		<tag k="alt_name" v="Båden" />
		<tag k="name" v="Båten" />
		<tag k="place" v="farm" />
		<tag k="ssr:stedsnr" v="667308" />
	</node>
	<node lat="58.58225833346024" lon="5.802991668786035" id="-1207">
		<tag k="alt_name" v="Fossfjell" />
		<tag k="name" v="Fossfjellet" />
		<tag k="place" v="farm" />
		<tag k="ssr:stedsnr" v="667314" />
	</node>
	<node lat="58.57055833212561" lon="5.75998055661138" id="-1210">
		<tag k="name" v="Tua" />
		<tag k="place" v="farm" />
		<tag k="ssr:stedsnr" v="667329" />
	</node>
	<node lat="58.68150555873221" lon="5.555233339592427" id="-1218">
		<tag k="amenity" v="hospital" />
		<tag k="name" v="Nærlandsheimen" />
		<tag k="ssr:stedsnr" v="667706" />
	</node>
	<node lat="58.67714444332886" lon="5.63605000188324" id="-1219">
		<tag k="name" v="Torlandsmyra" />
		<tag k="place" v="farm" />
		<tag k="ssr:stedsnr" v="667711" />
	</node>
	<node lat="58.591227776071115" lon="5.731355547338559" id="-1222">
		<tag k="name" v="Kvassteinen" />
		<tag k="place" v="locality" />
		<tag k="ssr:stedsnr" v="892585" />
	</node>
	<node lat="58.58541111524317" lon="5.739244441570957" id="-1236">
		<tag k="alt_name" v="Korphaugen" />
		<tag k="name" v="Korphaugan" />
		<tag k="place" v="farm" />
		<tag k="ssr:stedsnr" v="728279" />
	</node>
	<node lat="58.573611115693666" lon="5.702711113523941" id="-1237">
		<tag k="alt_name" v="Hadlandshaugen" />
		<tag k="name" v="Hadlandshøyen" />
		<tag k="place" v="farm" />
		<tag k="ssr:stedsnr" v="728285" />
	</node>
	<node lat="58.60371666350693" lon="5.72572500090341" id="-1241">
		<tag k="name" v="Myrstad" />
		<tag k="place" v="farm" />
		<tag k="ssr:stedsnr" v="728315" />
	</node>
	<node lat="58.601949999898125" lon="5.694530560713027" id="-1242">
		<tag k="alt_name" v="Sælandsbakken" />
		<tag k="name" v="Bakken" />
		<tag k="place" v="farm" />
		<tag k="ssr:stedsnr" v="728318" />
	</node>
	<node lat="58.59186667005433" lon="5.663427769022678" id="-1244">
		<tag k="name" v="Holmen" />
		<tag k="place" v="farm" />
		<tag k="ssr:stedsnr" v="728323" />
	</node>
	<node lat="58.54391111064968" lon="5.78826389163734" id="-1246">
		<tag k="name" v="Djupemyr" />
		<tag k="place" v="farm" />
		<tag k="ssr:stedsnr" v="728384" />
	</node>
	<node lat="58.61542499984304" lon="5.684477783203926" id="-1258">
		<tag k="name" v="Ækrå" />
		<tag k="place" v="farm" />
		<tag k="ssr:stedsnr" v="768542" />
	</node>
	<node lat="58.63050277641839" lon="5.6499027771460835" id="-1262">
		<tag k="name" v="Ullanhaug" />
		<tag k="place" v="farm" />
		<tag k="ssr:stedsnr" v="907532" />
	</node>
	<node lat="58.663205555796196" lon="5.713972221953799" id="-1271">
		<tag k="name" v="Løgesteinen" />
		<tag k="place" v="farm" />
		<tag k="ssr:stedsnr" v="910286" />
	</node>
	<node lat="58.59724722019238" lon="5.839094451245578" id="-1272">
		<tag k="name" v="Åmot" />
		<tag k="place" v="farm" />
		<tag k="ssr:stedsnr" v="910363" />
	</node>
	<node lat="58.66340833495216" lon="5.670169438105791" id="-1286">
		<tag k="alt_name" v="Bøgjerda" />
		<tag k="name" v="Gjerda" />
		<tag k="old_name" v="Gjerdo" />
		<tag k="place" v="farm" />
		<tag k="ssr:stedsnr" v="789307" />
	</node>
	<node lat="58.56282777551926" lon="5.784983327480376" id="-1289">
		<tag k="alt_name" v="Skjebaskaret" />
		<tag k="name" v="Skipaskardet" />
		<tag k="place" v="farm" />
		<tag k="ssr:stedsnr" v="789366" />
	</node>
	<node lat="58.63462499899886" lon="5.730174995521057" id="-1291">
		<tag k="name" v="Småvarden" />
		<tag k="place" v="farm" />
		<tag k="ssr:stedsnr" v="789268" />
	</node>
	<node lat="58.55043333110012" lon="5.773463889213038" id="-1292">
		<tag k="name" v="Langholen" />
		<tag k="place" v="farm" />
		<tag k="ssr:stedsnr" v="789419" />
	</node>
	<node lat="58.677725003559665" lon="5.646194444771412" id="-1296">
		<tag k="name" v="Midtholen" />
		<tag k="place" v="farm" />
		<tag k="ssr:stedsnr" v="789766" />
	</node>
	<node lat="58.700115364864324" lon="5.618650529793983" id="-1297">
		<tag k="name" v="Toppen" />
		<tag k="place" v="farm" />
		<tag k="ssr:stedsnr" v="789799" />
	</node>
	<node lat="58.629311687024746" lon="5.7193829746470355" id="-1305">
		<tag k="name" v="Såbrekk" />
		<tag k="place" v="locality" />
		<tag k="ssr:stedsnr" v="829578" />
	</node>
	<node lat="58.61671111093984" lon="5.845230557963916" id="-1318">
		<tag k="name" v="Fredheim" />
		<tag k="place" v="farm" />
		<tag k="ssr:stedsnr" v="850015" />
	</node>
	<node lat="58.58479999863061" lon="5.792038881386713" id="-1320">
		<tag k="alt_name" v="Lasseskaret" />
		<tag k="name" v="Lasseskardet" />
		<tag k="place" v="farm" />
		<tag k="ssr:stedsnr" v="850309" />
	</node>
	<node lat="58.586444442154914" lon="5.706000006134394" id="-1322">
		<tag k="name" v="Grønholen" />
		<tag k="place" v="farm" />
		<tag k="ssr:stedsnr" v="850315" />
	</node>
	<node lat="58.540630560241304" lon="5.744633340343241" id="-1330">
		<tag k="name" v="Brusand" />
		<tag k="place" v="village" />
		<tag k="ssr:stedsnr" v="850431" />
	</node>
	<node lat="58.67231389211153" lon="5.610791673431296" id="-1341">
		<tag k="name" v="Dampen" />
		<tag k="place" v="farm" />
		<tag k="ssr:stedsnr" v="889352" />
	</node>
	<node lat="58.64120278022813" lon="5.712027769704771" id="-1342">
		<tag k="name" v="Nygård" />
		<tag k="place" v="farm" />
		<tag k="ssr:stedsnr" v="890621" />
	</node>
	<node lat="58.59383333663904" lon="5.704563896626585" id="-1347">
		<tag k="name" v="Melholen" />
		<tag k="place" v="farm" />
		<tag k="ssr:stedsnr" v="892871" />
	</node>
	<node lat="58.65317777581478" lon="5.589661106329546" id="-1350">
		<tag k="amenity" v="school" />
		<tag k="name" v="Vigre" />
		<tag k="ssr:stedsnr" v="907311" />
	</node>
	<node lat="58.57103333136852" lon="5.681824992755272" id="-1360">
		<tag k="name" v="Vigrestad" />
		<tag k="place" v="village" />
		<tag k="ssr:stedsnr" v="910322" />
	</node>
	<node lat="58.63988888550522" lon="5.715008333991576" id="-1363">
		<tag k="name" v="Nygard" />
		<tag k="place" v="farm" />
		<tag k="ssr:stedsnr" v="910264" />
	</node>
	<node lat="58.624030558629215" lon="5.666700007867172" id="-1364">
		<tag k="alt_name" v="Brekkå" />
		<tag k="name" v="Brekka" />
		<tag k="place" v="farm" />
		<tag k="ssr:stedsnr" v="910271" />
	</node>
	<node lat="58.550813893191396" lon="5.784777782026005" id="-1365">
		<tag k="alt_name" v="Monå" />
		<tag k="name" v="Mona" />
		<tag k="place" v="farm" />
		<tag k="ssr:stedsnr" v="910402" />
	</node>
	<node lat="58.61115555564634" lon="5.628794446797863" id="-1369">
		<tag k="name" v="Ævestvollen" />
		<tag k="place" v="farm" />
		<tag k="ssr:stedsnr" v="950534" />
	</node>
	<node lat="58.64201666892206" lon="5.716830557661025" id="-1370">
		<tag k="building" v="industrial" />
		<tag k="industrial" v="factory" />
		<tag k="name" v="Verket" />
		<tag k="ssr:stedsnr" v="950578" />
	</node>
	<node lat="58.616622225017416" lon="5.754911114297678" id="-1373">
		<tag k="name" v="Myrstad" />
		<tag k="place" v="farm" />
		<tag k="ssr:stedsnr" v="950482" />
	</node>
	<node lat="58.60063889311362" lon="5.740222227392623" id="-1376">
		<tag k="name" v="Bølge" />
		<tag k="place" v="locality" />
		<tag k="ssr:stedsnr" v="952587" />
	</node>
	<node lat="58.62028639141499" lon="5.720417076037359" id="-1385">
		<tag k="alt_name" v="Heddå" />
		<tag k="name" v="Litlaland" />
		<tag k="place" v="farm" />
		<tag k="ssr:stedsnr" v="283" />
	</node>
	<node lat="58.642375001449814" lon="5.7249138884349415" id="-1389">
		<tag k="name" v="Årdal" />
		<tag k="place" v="farm" />
		<tag k="ssr:stedsnr" v="319" />
	</node>
	<node lat="58.570802780444495" lon="5.710463891109789" id="-1390">
		<tag k="name" v="Øydgard" />
		<tag k="old_name" v="Øygard" />
		<tag k="place" v="farm" />
		<tag k="ssr:stedsnr" v="334" />
	</node>
	<node lat="58.564947225127234" lon="5.7876333272143565" id="-1407">
		<tag k="name" v="Kvitemyr" />
		<tag k="place" v="farm" />
		<tag k="ssr:stedsnr" v="40647" />
	</node>
	<node lat="58.55922500175463" lon="5.747377774989634" id="-1420">
		<tag k="name" v="Dalen" />
		<tag k="place" v="locality" />
		<tag k="ssr:stedsnr" v="57946" />
	</node>
	<node lat="58.68053611136433" lon="5.608419452094983" id="-1433">
		<tag k="name" v="Søyland" />
		<tag k="place" v="farm" />
		<tag k="ssr:stedsnr" v="61750" />
	</node>
	<node lat="58.61603889246349" lon="5.624430555737673" id="-1446">
		<tag k="name" v="Bråtenhaugen" />
		<tag k="place" v="farm" />
		<tag k="ssr:stedsnr" v="101545" />
	</node>
	<node lat="58.57239444318385" lon="5.663444448409754" id="-1450">
		<tag k="name" v="Steinhuset" />
		<tag k="place" v="farm" />
		<tag k="ssr:stedsnr" v="103874" />
	</node>
	<node lat="58.51527042357686" lon="5.809202782079659" id="-1454">
		<tag k="fixme" v="consider place=hamlet" />
		<tag k="name" v="Ogna" />
		<tag k="place" v="farm" />
		<tag k="ssr:stedsnr" v="118164" />
	</node>
	<node lat="58.58248611105744" lon="5.654722228718423" id="-1486">
		<tag k="amenity" v="school" />
		<tag k="name" v="Stavnheim" />
		<tag k="ssr:stedsnr" v="179896" />
	</node>
	<node lat="58.633883334573405" lon="5.747408339486738" id="-1492">
		<tag k="name" v="Myrvoll" />
		<tag k="place" v="farm" />
		<tag k="ssr:stedsnr" v="182247" />
	</node>
	<node lat="58.630052775073025" lon="5.6421861102406705" id="-1493">
		<tag k="alt_name" v="Joster" />
		<tag k="name" v="Jåstad" />
		<tag k="place" v="farm" />
		<tag k="ssr:stedsnr" v="182251" />
	</node>
	<node lat="58.6163111074319" lon="5.666677771956688" id="-1495">
		<tag k="name" v="Dalen" />
		<tag k="place" v="farm" />
		<tag k="ssr:stedsnr" v="182263" />
	</node>
	<node lat="58.56920000262882" lon="5.723033338842806" id="-1498">
		<tag k="alt_name" v="Trollsheia" />
		<tag k="name" v="Trollaheia" />
		<tag k="place" v="farm" />
		<tag k="ssr:stedsnr" v="182328" />
	</node>
	<node lat="58.5655444470602" lon="5.705933326342905" id="-1499">
		<tag k="name" v="Rulla" />
		<tag k="old_name" v="Rudla;Rudlå" />
		<tag k="place" v="farm" />
		<tag k="ssr:stedsnr" v="182330" />
	</node>
	<node lat="58.55603055512246" lon="5.801449994451989" id="-1501">
		<tag k="name" v="Kvernhusdalen" />
		<tag k="place" v="farm" />
		<tag k="ssr:stedsnr" v="182334" />
	</node>
	<node lat="58.570541665267335" lon="5.794083334108886" id="-1502">
		<tag k="name" v="Høgeli" />
		<tag k="place" v="farm" />
		<tag k="ssr:stedsnr" v="182336" />
	</node>
	<node lat="58.59818889063362" lon="5.7383999924267055" id="-1505">
		<tag k="name" v="Vallastøl" />
		<tag k="place" v="locality" />
		<tag k="ssr:stedsnr" v="182351" />
	</node>
	<node lat="58.670350000092576" lon="5.59260555734096" id="-1510">
		<tag k="name" v="Alvaneset" />
		<tag k="old_name" v="Elvenes" />
		<tag k="place" v="farm" />
		<tag k="ssr:stedsnr" v="182760" />
	</node>
	<node lat="58.6634083299686" lon="5.714405556569582" id="-1518">
		<tag k="name" v="Løgestein" />
		<tag k="place" v="farm" />
		<tag k="ssr:stedsnr" v="222328" />
	</node>
	<node lat="58.643902778827716" lon="5.715049995480118" id="-1519">
		<tag k="name" v="Kanaheia" />
		<tag k="place" v="locality" />
		<tag k="ssr:stedsnr" v="222542" />
	</node>
	<node lat="58.61281944186353" lon="5.690424992765097" id="-1522">
		<tag k="name" v="Vollen" />
		<tag k="place" v="farm" />
		<tag k="ssr:stedsnr" v="282541" />
	</node>
	<node lat="58.62390000318273" lon="5.634236107292276" id="-1529">
		<tag k="name" v="Gjerderudla" />
		<tag k="place" v="farm" />
		<tag k="ssr:stedsnr" v="283492" />
	</node>
	<node lat="58.67235555436294" lon="5.651133331243548" id="-1531">
		<tag k="amenity" v="school" />
		<tag k="name" v="Bø" />
		<tag k="ssr:stedsnr" v="282331" />
	</node>
	<node lat="58.59073055618912" lon="5.727322214371267" id="-1535">
		<tag k="fixme" v="consider place=hamlet" />
		<tag k="name" v="Hålandsbakken" />
		<tag k="place" v="farm" />
		<tag k="ssr:stedsnr" v="285595" />
	</node>
	<node lat="58.6241638891857" lon="5.640358333662153" id="-1541">
		<tag k="name" v="Jarholen" />
		<tag k="place" v="farm" />
		<tag k="ssr:stedsnr" v="303260" />
	</node>
	<node lat="58.65425000242903" lon="5.676113883836586" id="-1544">
		<tag k="name" v="Hagen" />
		<tag k="place" v="farm" />
		<tag k="ssr:stedsnr" v="303293" />
	</node>
	<node lat="58.55844444567594" lon="5.7732444510205845" id="-1549">
		<tag k="name" v="Bjelland" />
		<tag k="place" v="farm" />
		<tag k="ssr:stedsnr" v="303332" />
	</node>
	<node lat="58.61521110836249" lon="5.712361111621508" id="-1551">
		<tag k="name" v="Høgjæren" />
		<tag k="place" v="farm" />
		<tag k="ssr:stedsnr" v="303344" />
	</node>
	<node lat="58.593230557868765" lon="5.724777780793163" id="-1552">
		<tag k="name" v="Røyrmyra" />
		<tag k="place" v="farm" />
		<tag k="ssr:stedsnr" v="303364" />
	</node>
	<node lat="58.699261106861144" lon="5.590174993075922" id="-1554">
		<tag k="name" v="Tangen" />
		<tag k="place" v="farm" />
		<tag k="ssr:stedsnr" v="303785" />
	</node>
	<node lat="58.673233332030684" lon="5.628127778493403" id="-1555">
		<tag k="name" v="Bjårland" />
		<tag k="place" v="farm" />
		<tag k="ssr:stedsnr" v="303763" />
	</node>
	<node lat="58.505755553101956" lon="5.790555556046446" id="-1571">
		<tag k="fixme" v="consider place=hamlet" />
		<tag k="name" v="Sirevåg" />
		<tag k="place" v="farm" />
		<tag k="ssr:stedsnr" v="358156" />
	</node>
	<node lat="58.565044445173335" lon="5.779791670465717" id="-1585">
		<tag k="alt_name" v="Rudlå" />
		<tag k="name" v="Rudla" />
		<tag k="place" v="farm" />
		<tag k="ssr:stedsnr" v="364353" />
	</node>
	<node lat="58.61075278143552" lon="5.736244446254287" id="-1586">
		<tag k="name" v="Elgane" />
		<tag k="place" v="farm" />
		<tag k="ssr:stedsnr" v="364360" />
	</node>
	<node lat="58.60753889091431" lon="5.629844441553992" id="-1587">
		<tag k="alt_name" v="Nøvlestad" />
		<tag k="name" v="Nuvlust" />
		<tag k="place" v="farm" />
		<tag k="ssr:stedsnr" v="364363" />
	</node>
	<node lat="58.61810277976777" lon="5.65701943651858" id="-1588">
		<tag k="name" v="Varhaug" />
		<tag k="place" v="village" />
		<tag k="ssr:stedsnr" v="364365" />
	</node>
	<node lat="58.50386388766791" lon="5.801958336673405" id="-1594">
		<tag k="name" v="Sirevåg" />
		<tag k="place" v="village" />
		<tag k="ssr:stedsnr" v="364434" />
	</node>
	<node lat="58.69900000053539" lon="5.609591670976445" id="-1598">
		<tag k="name" v="Kongaheia" />
		<tag k="place" v="farm" />
		<tag k="ssr:stedsnr" v="364815" />
	</node>
	<node lat="58.67050277386625" lon="5.638369437052043" id="-1605">
		<tag k="amenity" v="school" />
		<tag k="name" v="Nærbø" />
		<tag k="ssr:stedsnr" v="403336" />
	</node>
	<node lat="58.655355557408896" lon="5.694122223838758" id="-1606">
		<tag k="name" v="Åretua" />
		<tag k="place" v="farm" />
		<tag k="ssr:stedsnr" v="404334" />
	</node>
	<node lat="58.61106111163639" lon="5.64821666866485" id="-1607">
		<tag k="name" v="Leksaren" />
		<tag k="place" v="locality" />
		<tag k="ssr:stedsnr" v="404533" />
	</node>
	<node lat="58.68591944192241" lon="5.593641669771851" id="-1613">
		<tag k="amenity" v="school" />
		<tag k="name" v="Høyland" />
		<tag k="ssr:stedsnr" v="406657" />
	</node>
	<node lat="58.64243611252082" lon="5.640897223549466" id="-1615">
		<tag k="name" v="Varden" />
		<tag k="place" v="locality" />
		<tag k="ssr:stedsnr" v="421580" />
	</node>
	<node lat="58.627141662197566" lon="5.665008331441295" id="-1621">
		<tag k="name" v="Sørheim" />
		<tag k="place" v="farm" />
		<tag k="ssr:stedsnr" v="425270" />
	</node>
	<node lat="58.61569722165741" lon="5.841280556687403" id="-1628">
		<tag k="name" v="Nordheim" />
		<tag k="place" v="farm" />
		<tag k="ssr:stedsnr" v="425362" />
	</node>
	<node lat="58.59022778103617" lon="5.81410833769212" id="-1630">
		<tag k="name" v="Fjellheim" />
		<tag k="place" v="farm" />
		<tag k="ssr:stedsnr" v="425375" />
	</node>
	<node lat="58.501894446871034" lon="5.810208338423995" id="-1631">
		<tag k="name" v="Kleven" />
		<tag k="place" v="farm" />
		<tag k="ssr:stedsnr" v="425384" />
	</node>
	<node lat="58.61394722147333" lon="5.632488892462518" id="-1648">
		<tag k="name" v="Komlarvoll" />
		<tag k="place" v="farm" />
		<tag k="ssr:stedsnr" v="525554" />
	</node>
	<node lat="58.60494166241136" lon="5.728313886218856" id="-1656">
		<tag k="name" v="Skutholen" />
		<tag k="place" v="farm" />
		<tag k="ssr:stedsnr" v="546322" />
	</node>
	<node lat="58.61042778067511" lon="5.83465833518773" id="-1657">
		<tag k="name" v="Dalheim" />
		<tag k="place" v="farm" />
		<tag k="ssr:stedsnr" v="546328" />
	</node>
	<node lat="58.5895500018737" lon="5.830194445968109" id="-1659">
		<tag k="name" v="Heia" />
		<tag k="place" v="farm" />
		<tag k="ssr:stedsnr" v="546341" />
	</node>
	<node lat="58.613533330498704" lon="5.6638944407185" id="-1669">
		<tag k="name" v="Tjemsland" />
		<tag k="place" v="farm" />
		<tag k="ssr:stedsnr" v="547165" />
	</node>
	<node lat="58.67101110897072" lon="5.654208337053787" id="-1672">
		<tag k="name" v="Bø" />
		<tag k="place" v="farm" />
		<tag k="ssr:stedsnr" v="546744" />
	</node>
	<node lat="58.557036111592424" lon="5.774977779989872" id="-1679">
		<tag k="name" v="Brotet" />
		<tag k="place" v="farm" />
		<tag k="ssr:stedsnr" v="587971" />
	</node>
	<node lat="58.57640000279793" lon="5.672958333711946" id="-1685">
		<tag k="name" v="Kringla" />
		<tag k="place" v="farm" />
		<tag k="ssr:stedsnr" v="603888" />
	</node>
	<node lat="58.50850555126575" lon="5.818383329668677" id="-1705">
		<tag k="name" v="Skogaskaret" />
		<tag k="place" v="farm" />
		<tag k="ssr:stedsnr" v="646158" />
	</node>
	<node lat="58.67335555281838" lon="5.636713892515518" id="-1708">
		<tag k="amenity" v="school" />
		<tag k="name" v="Tryggheim" />
		<tag k="ssr:stedsnr" v="646344" />
	</node>
	<node lat="58.61616944609009" lon="5.678497225035949" id="-1709">
		<tag k="name" v="Rindå" />
		<tag k="place" v="farm" />
		<tag k="ssr:stedsnr" v="646546" />
	</node>
	<node lat="58.631577774647226" lon="5.679291674014705" id="-1711">
		<tag k="name" v="Raudaland" />
		<tag k="place" v="locality" />
		<tag k="ssr:stedsnr" v="646587" />
	</node>
	<node lat="58.5867750026659" lon="5.648527778797634" id="-1717">
		<tag k="name" v="Røysa" />
		<tag k="place" v="farm" />
		<tag k="ssr:stedsnr" v="666882" />
	</node>
	<node lat="58.63755833357896" lon="5.643533331761372" id="-1718">
		<tag k="name" v="Goabakken" />
		<tag k="place" v="farm" />
		<tag k="ssr:stedsnr" v="667255" />
	</node>
	<node lat="58.59188611127483" lon="5.8171583398650375" id="-1727">
		<tag k="name" v="Øyestad" />
		<tag k="place" v="farm" />
		<tag k="ssr:stedsnr" v="667362" />
	</node>
	<node lat="58.504472224196384" lon="5.809338886729914" id="-1728">
		<tag k="name" v="Skorane" />
		<tag k="place" v="farm" />
		<tag k="ssr:stedsnr" v="667374" />
	</node>
	<node lat="58.57690833580362" lon="5.699997230260564" id="-1735">
		<tag k="name" v="Voll" />
		<tag k="place" v="farm" />
		<tag k="ssr:stedsnr" v="725552" />
	</node>
	<node lat="58.62676944772851" lon="5.647602781225626" id="-1741">
		<tag k="name" v="Fidjane" />
		<tag k="place" v="farm" />
		<tag k="ssr:stedsnr" v="728230" />
	</node>
	<node lat="58.676341665554794" lon="5.6138361072335865" id="-1751">
		<tag k="name" v="Stølen" />
		<tag k="place" v="farm" />
		<tag k="ssr:stedsnr" v="768327" />
	</node>
	<node lat="58.585361112116345" lon="5.830969451673884" id="-1767">
		<tag k="alt_name" v="Bruarvoll" />
		<tag k="name" v="Bruavollen" />
		<tag k="place" v="farm" />
		<tag k="ssr:stedsnr" v="789329" />
	</node>
	<node lat="58.57995833432081" lon="5.698022216028778" id="-1768">
		<tag k="name" v="Kvitlabrotet" />
		<tag k="place" v="farm" />
		<tag k="ssr:stedsnr" v="789336" />
	</node>
	<node lat="58.57513610841104" lon="5.75945554952339" id="-1769">
		<tag k="name" v="India" />
		<tag k="place" v="farm" />
		<tag k="ssr:stedsnr" v="789338" />
	</node>
	<node lat="58.575252780251866" lon="5.731019447768822" id="-1770">
		<tag k="alt_name" v="Krånå" />
		<tag k="name" v="Kråna" />
		<tag k="place" v="farm" />
		<tag k="ssr:stedsnr" v="789339" />
	</node>
	<node lat="58.594199996263086" lon="5.66725278117705" id="-1771">
		<tag k="alt_name" v="Hetlura" />
		<tag k="name" v="Hetlurda" />
		<tag k="place" v="farm" />
		<tag k="ssr:stedsnr" v="789382" />
	</node>
	<node lat="58.66546389093115" lon="5.637883339954097" id="-1773">
		<tag k="name" v="Nærbø" />
		<tag k="place" v="village" />
		<tag k="ssr:stedsnr" v="789781" />
	</node>
	<node lat="58.67146944007685" lon="5.6401916587749445" id="-1780">
		<tag k="leisure" v="pitch" />
		<tag k="name" v="Idrettslunden" />
		<tag k="ssr:stedsnr" v="829360" />
	</node>
	<node lat="58.584633332867405" lon="5.717411112378825" id="-1788">
		<tag k="name" v="Katthuset" />
		<tag k="place" v="locality" />
		<tag k="ssr:stedsnr" v="831870" />
	</node>
	<node lat="58.59472499750217" lon="5.687575003080429" id="-1790">
		<tag k="name" v="Labbetufta" />
		<tag k="place" v="locality" />
		<tag k="ssr:stedsnr" v="831877" />
	</node>
	<node lat="58.62715277956259" lon="5.647933336819968" id="-1792">
		<tag k="name" v="Lerbrekk" />
		<tag k="place" v="farm" />
		<tag k="ssr:stedsnr" v="846568" />
	</node>
	<node lat="58.50795556005417" lon="5.817658340186581" id="-1797">
		<tag k="name" v="Skoga" />
		<tag k="place" v="farm" />
		<tag k="ssr:stedsnr" v="849399" />
	</node>
	<node lat="58.61638888489806" lon="5.880963882495436" id="-1798">
		<tag k="name" v="Brusali" />
		<tag k="place" v="farm" />
		<tag k="ssr:stedsnr" v="850017" />
	</node>
	<node lat="58.6130666670067" lon="5.88973054903827" id="-1799">
		<tag k="name" v="Fjellund" />
		<tag k="place" v="farm" />
		<tag k="ssr:stedsnr" v="850019" />
	</node>
	<node lat="58.61813611377932" lon="5.71490000193987" id="-1804">
		<tag k="name" v="Jorenkjøl" />
		<tag k="place" v="farm" />
		<tag k="ssr:stedsnr" v="850267" />
	</node>
	<node lat="58.609438887304236" lon="5.719919437694478" id="-1807">
		<tag k="name" v="Høgemork" />
		<tag k="place" v="farm" />
		<tag k="ssr:stedsnr" v="850350" />
	</node>
	<node lat="58.60018055451778" lon="5.679666674901216" id="-1810">
		<tag k="alt_name" v="Auestadenga" />
		<tag k="name" v="Enga" />
		<tag k="place" v="farm" />
		<tag k="ssr:stedsnr" v="850359" />
	</node>
	<node lat="58.60410277729493" lon="5.655855552686705" id="-1811">
		<tag k="name" v="Gråstein" />
		<tag k="place" v="farm" />
		<tag k="ssr:stedsnr" v="850363" />
	</node>
	<node lat="58.69394444259604" lon="5.598099997084675" id="-1813">
		<tag k="alt_name" v="Høyland" />
		<tag k="name" v="Høylandsheia" />
		<tag k="place" v="farm" />
		<tag k="ssr:stedsnr" v="850788" />
	</node>
	<node lat="58.591427780217046" lon="5.674591674837232" id="-1814">
		<tag k="name" v="Kalsvarden" />
		<tag k="place" v="farm" />
		<tag k="ssr:stedsnr" v="850367" />
	</node>
	<node lat="58.59152778001874" lon="5.697580555378991" id="-1815">
		<tag k="alt_name" v="Stølane" />
		<tag k="name" v="Stølan" />
		<tag k="place" v="farm" />
		<tag k="ssr:stedsnr" v="850370" />
	</node>
	<node lat="58.59212778171745" lon="5.706791673217941" id="-1834">
		<tag k="name" v="Ånå" />
		<tag k="place" v="farm" />
		<tag k="ssr:stedsnr" v="952878" />
	</node>
	<node lat="58.57535277954184" lon="5.6510138907612975" id="-1835">
		<tag k="name" v="Heia" />
		<tag k="place" v="farm" />
		<tag k="ssr:stedsnr" v="952888" />
	</node>
</osm>
