<?xml version="1.0" encoding="UTF-8"?>
<osm generator="osmapis" version="0.6">
	<node id="-402431" lat="58.6011083359" lon="5.75238611661">
		<tag k="name" v="Vandavatnet" />
		<tag k="natural" v="water" />
		<tag k="ssr:stedsnr" v="182355" />
	</node>
	<node id="-402940" lat="58.5333916675" lon="5.89003888591">
		<tag k="alt_name" v="Husavatnet" />
		<tag k="name" v="Ualandsvatnet" />
		<tag k="natural" v="water" />
		<tag k="ssr:stedsnr" v="849106" />
	</node>
	<node id="-402934" lat="58.5372388929" lon="5.7204527846">
		<tag k="name" v="Surtebekken" />
		<tag k="ssr:stedsnr" v="847980" />
		<tag k="waterway" v="stream" />
	</node>
	<node id="-402421" lat="58.5877888865" lon="5.75473889263">
		<tag k="name" v="Vandaåna" />
		<tag k="ssr:stedsnr" v="182309" />
		<tag k="waterway" v="river" />
	</node>
	<node id="-402413" lat="58.5089252883" lon="5.78932311379">
		<tag k="name" v="Skurveholmen" />
		<tag k="place" v="islet" />
		<tag k="ssr:stedsnr" v="180247" />
	</node>
	<node id="-402921" lat="58.5152290456" lon="5.7904014461">
		<tag k="name" v="Ytre Stoholmen" />
		<tag k="place" v="islet" />
		<tag k="ssr:stedsnr" v="831207" />
	</node>
	<node id="-402407" lat="58.5005888902" lon="5.81698888658">
		<tag k="name" v="Blanketjørna" />
		<tag k="natural" v="water" />
		<tag k="ssr:stedsnr" v="163211" />
	</node>
	<node id="-402918" lat="58.6090416629" lon="5.70108333915">
		<tag k="name" v="Morenekjelda" />
		<tag k="natural" v="spring" />
		<tag k="ssr:stedsnr" v="830443" />
	</node>
	<node id="-402391" lat="58.5270472267" lon="5.90370833393">
		<tag k="name" v="Skoglundtjørna" />
		<tag k="natural" v="water" />
		<tag k="ssr:stedsnr" v="144719" />
	</node>
	<node id="-402390" lat="58.5358583318" lon="5.867636116">
		<tag k="name" v="Fossbekken" />
		<tag k="ssr:stedsnr" v="144167" />
		<tag k="waterway" v="stream" />
	</node>
	<node id="-402901" lat="58.5903277751" lon="5.85159444543">
		<tag k="name" v="Slåttedalstjørn" />
		<tag k="natural" v="water" />
		<tag k="ssr:stedsnr" v="811722" />
	</node>
	<node id="-402900" lat="58.5311722267" lon="5.89987778192">
		<tag k="name" v="Indra Ualandsvatnet" />
		<tag k="natural" v="water" />
		<tag k="ssr:stedsnr" v="811701" />
		<tag k="water" v="lake" />
	</node>
	<node id="-402385" lat="58.6889861083" lon="5.57085832592">
		<tag k="name" v="Vågakanalen" />
		<tag k="ssr:stedsnr" v="121804" />
		<tag k="waterway" v="stream" />
	</node>
	<node id="-402384" lat="58.5444638878" lon="5.7538000022">
		<tag k="name" v="Bjåvatnet" />
		<tag k="natural" v="water" />
		<tag k="ssr:stedsnr" v="121411" />
		<tag k="water" v="lake" />
	</node>
	<node id="-402894" lat="58.4953861083" lon="5.80933610909">
		<tag k="name" v="Revurstjørna" />
		<tag k="natural" v="water" />
		<tag k="ssr:stedsnr" v="789752" />
	</node>
	<node id="-402381" lat="58.5994888851" lon="5.77204444173">
		<tag k="alt_name" v="Vandavatnet, litla;Litle Vandavatnet" />
		<tag k="name" v="Litla Vandavatnet" />
		<tag k="natural" v="water" />
		<tag k="ssr:stedsnr" v="121363" />
	</node>
	<node id="-402373" lat="58.6265416699" lon="5.76528889351">
		<tag k="name" v="Grastjørna" />
		<tag k="natural" v="water" />
		<tag k="ssr:stedsnr" v="121277" />
	</node>
	<node id="-402371" lat="58.6255888861" lon="5.7023250039">
		<tag k="name" v="Varhaugåna" />
		<tag k="ssr:stedsnr" v="121269" />
		<tag k="waterway" v="river" />
	</node>
	<node id="-402367" lat="58.5313888886" lon="5.81253055008">
		<tag k="name" v="Dybingstjørna" />
		<tag k="natural" v="water" />
		<tag k="ssr:stedsnr" v="119941" />
	</node>
	<node id="-402877" lat="58.5054083293" lon="5.83421666171">
		<tag k="name" v="Beinskinnvatnet" />
		<tag k="natural" v="water" />
		<tag k="ssr:stedsnr" v="788364" />
	</node>
	<node id="-402363" lat="58.6184888909" lon="5.62734722306">
		<tag k="name" v="Brattlandsåa" />
		<tag k="ssr:stedsnr" v="119584" />
		<tag k="waterway" v="river" />
	</node>
	<node id="-402872" lat="58.5386444429" lon="5.74077777479">
		<tag k="name" v="Rennå" />
		<tag k="natural" v="water" />
		<tag k="ssr:stedsnr" v="787924" />
		<tag k="water" v="lake" />
	</node>
	<node id="-402869" lat="58.5025805517" lon="5.78112777176">
		<tag k="name" v="Skjeret" />
		<tag k="place" v="islet" />
		<tag k="ssr:stedsnr" v="787272" />
	</node>
	<node id="-402353" lat="58.5509138849" lon="5.80012778206">
		<tag k="name" v="Store Kvittjørna" />
		<tag k="natural" v="water" />
		<tag k="ssr:stedsnr" v="103933" />
		<tag k="water" v="lake" />
	</node>
	<node id="-402864" lat="58.6303027755" lon="5.59687222258">
		<tag k="name" v="Grødalandsbekken" />
		<tag k="ssr:stedsnr" v="785584" />
		<tag k="waterway" v="stream" />
	</node>
	<node id="-402335" lat="58.6108666703" lon="5.8604666643">
		<tag k="name" v="Grastjørna" />
		<tag k="natural" v="water" />
		<tag k="ssr:stedsnr" v="83742" />
	</node>
	<node id="-402333" lat="58.6930888905" lon="5.60368055359">
		<tag k="name" v="Søylandsvatnet" />
		<tag k="natural" v="water" />
		<tag k="ssr:stedsnr" v="61799" />
		<tag k="water" v="lake" />
	</node>
	<node id="-402842" lat="58.5917555578" lon="5.86218332867">
		<tag k="name" v="Store Buskavatnet" />
		<tag k="natural" v="water" />
		<tag k="ssr:stedsnr" v="751726" />
		<tag k="water" v="lake" />
	</node>
	<node id="-402841" lat="58.5264749986" lon="5.85126945254">
		<tag k="name" v="Forevadhølen" />
		<tag k="place" v="locality" />
		<tag k="ssr:stedsnr" v="751163" />
	</node>
	<node id="-402838" lat="58.4937777754" lon="5.79957221387">
		<tag k="name" v="Saltatjørna" />
		<tag k="natural" v="water" />
		<tag k="ssr:stedsnr" v="728709" />
	</node>
	<node id="-402837" lat="58.4965055512" lon="5.84954444548">
		<tag k="name" v="Småtjørna" />
		<tag k="natural" v="water" />
		<tag k="ssr:stedsnr" v="728703" />
	</node>
	<node id="-402836" lat="58.4915861138" lon="5.8487833409">
		<tag k="name" v="Søra Krogavatnet" />
		<tag k="natural" v="water" />
		<tag k="ssr:stedsnr" v="728702" />
		<tag k="water" v="lake" />
	</node>
	<node id="-402323" lat="58.5205055574" lon="5.83859443572">
		<tag k="alt_name" v="øvra Grolandstjørna;nedra Grolandstjørna" />
		<tag k="name" v="Grolandsvatnet" />
		<tag k="natural" v="water" />
		<tag k="ssr:stedsnr" v="61409" />
	</node>
	<node id="-402318" lat="58.5556055591" lon="5.6999722218">
		<tag k="alt_name" v="Kvassheimsåa" />
		<tag k="name" v="Kvassheimsåna" />
		<tag k="ssr:stedsnr" v="61332" />
		<tag k="waterway" v="stream" />
	</node>
	<node id="-402828" lat="58.5479916704" lon="5.80310832604">
		<tag k="name" v="Tvitjørna" />
		<tag k="natural" v="water" />
		<tag k="ssr:stedsnr" v="728380" />
	</node>
	<node id="-403010" lat="58.5348555563" lon="5.76054999136">
		<tag k="name" v="Vaulen" />
		<tag k="natural" v="water" />
		<tag k="ssr:stedsnr" v="910432" />
	</node>
	<node id="-402826" lat="58.6155000021" lon="5.78968888349">
		<tag k="name" v="Romavatnet" />
		<tag k="natural" v="water" />
		<tag k="ssr:stedsnr" v="728321" />
	</node>
	<node id="-402311" lat="58.6412861112" lon="5.75546110772">
		<tag k="alt_name" v="Steinsvassåa" />
		<tag k="name" v="Steinsvassåna" />
		<tag k="ssr:stedsnr" v="61245" />
		<tag k="waterway" v="stream" />
	</node>
	<node id="-402819" lat="58.5378916677" lon="5.81604721936">
		<tag k="name" v="Rannveigstjørna" />
		<tag k="natural" v="water" />
		<tag k="ssr:stedsnr" v="726935" />
	</node>
	<node id="-402815" lat="58.5652777738" lon="5.67177777137">
		<tag k="name" v="Vollbekken" />
		<tag k="ssr:stedsnr" v="725553" />
		<tag k="waterway" v="stream" />
	</node>
	<node id="-402325" lat="58.5140638867" lon="5.83490277627">
		<tag k="alt_name" v="Kvednatjørna" />
		<tag k="name" v="Kvernatjørni" />
		<tag k="natural" v="water" />
		<tag k="ssr:stedsnr" v="61416" />
	</node>
	<node id="-402809" lat="58.6230083298" lon="5.78188610646">
		<tag k="name" v="Hommeltjørna" />
		<tag k="natural" v="water" />
		<tag k="ssr:stedsnr" v="723695" />
		<tag k="water" v="lake" />
	</node>
	<node id="-402286" lat="58.6158638869" lon="5.69242777486">
		<tag k="name" v="Sjoarskjella" />
		<tag k="natural" v="spring" />
		<tag k="ssr:stedsnr" v="39492" />
	</node>
	<node id="-402279" lat="58.5544888848" lon="5.85824444707">
		<tag k="name" v="Øvre Hedlevatnet" />
		<tag k="natural" v="water" />
		<tag k="ssr:stedsnr" v="23166" />
		<tag k="water" v="lake" />
	</node>
	<node id="-402278" lat="58.5327027787" lon="5.87132777498">
		<tag k="name" v="Kvednahølen" />
		<tag k="place" v="locality" />
		<tag k="ssr:stedsnr" v="23149" />
	</node>
	<node id="-402277" lat="58.5261083289" lon="5.88648888565">
		<tag k="name" v="Glovetjørn" />
		<tag k="natural" v="water" />
		<tag k="ssr:stedsnr" v="23148" />
		<tag k="water" v="lake" />
	</node>
	<node id="-402780" lat="58.5307083298" lon="5.88222777644">
		<tag k="name" v="Ytra Ualandsvatnet" />
		<tag k="natural" v="water" />
		<tag k="ssr:stedsnr" v="690116" />
		<tag k="water" v="lake" />
	</node>
	<node id="-402779" lat="58.5145388872" lon="5.85791666243">
		<tag k="name" v="Langevatnet" />
		<tag k="natural" v="water" />
		<tag k="ssr:stedsnr" v="690106" />
		<tag k="water" v="lake" />
	</node>
	<node id="-402778" lat="58.6860138932" lon="5.55245278417">
		<tag k="alt_name" v="Salteåa" />
		<tag k="name" v="Salteåna" />
		<tag k="ssr:stedsnr" v="667774" />
		<tag k="waterway" v="stream" />
	</node>
	<node id="-402261" lat="58.6223305513" lon="5.76354721975">
		<tag k="alt_name" v="Haugtjelmtjørna" />
		<tag k="name" v="Høykimmeltjørna" />
		<tag k="natural" v="water" />
		<tag k="old_name" v="Høykjimmeltjørna" />
		<tag k="ssr:stedsnr" v="288" />
	</node>
	<node id="-402772" lat="58.5299833309" lon="5.82482223091">
		<tag k="name" v="Timmerholtvatnet" />
		<tag k="natural" v="water" />
		<tag k="old_name" v="Timberholt" />
		<tag k="ssr:stedsnr" v="667414" />
	</node>
	<node id="-402770" lat="58.5146111142" lon="5.80905278342">
		<tag k="alt_name" v="Ognaåni;Ognaåna" />
		<tag k="name" v="Ognaelva" />
		<tag k="old_name" v="Ognaelvi" />
		<tag k="ssr:stedsnr" v="667406" />
		<tag k="waterway" v="river" />
	</node>
	<node id="-402257" lat="58.5374444481" lon="5.92044444144">
		<tag k="alt_name" v="Auratjørna" />
		<tag k="name" v="Auratjørn" />
		<tag k="natural" v="water" />
		<tag k="ssr:stedsnr" v="75" />
	</node>
	<node id="-402256" lat="58.6020749968" lon="5.89811111056">
		<tag k="name" v="Vollskardvatnet" />
		<tag k="natural" v="water" />
		<tag k="ssr:stedsnr" v="3" />
	</node>
	<node id="-402249" lat="58.5911499978" lon="5.68658611203">
		<tag k="name" v="Mælandsgrova" />
		<tag k="natural" v="water" />
		<tag k="ssr:stedsnr" v="892868" />
	</node>
	<node id="-402245" lat="58.5165833332" lon="5.79154167355">
		<tag k="name" v="Osen" />
		<tag k="natural" v="bay" />
		<tag k="ssr:stedsnr" v="892210" />
	</node>
	<node id="-402753" lat="58.6171305578" lon="5.74943610849">
		<tag k="name" v="Myratjørna" />
		<tag k="natural" v="water" />
		<tag k="ssr:stedsnr" v="667281" />
	</node>
	<node id="-402752" lat="58.6340249987" lon="5.79405833687">
		<tag k="name" v="Storamoset" />
		<tag k="natural" v="water" />
		<tag k="ssr:stedsnr" v="667265" />
		<tag k="water" v="lake" />
	</node>
	<node id="-402235" lat="58.6776555581" lon="5.6084611112">
		<tag k="name" v="Håelva" />
		<tag k="ssr:stedsnr" v="889056" />
		<tag k="waterway" v="river" />
	</node>
	<node id="-402740" lat="58.4922027802" lon="5.81577500411">
		<tag k="name" v="Stemmavatnet" />
		<tag k="natural" v="water" />
		<tag k="ssr:stedsnr" v="662020" />
		<tag k="water" v="lake" />
	</node>
	<node id="-402482" lat="58.6337703662" lon="5.7762618819">
		<tag k="name" v="Steinsvatnet" />
		<tag k="natural" v="water" />
		<tag k="ssr:stedsnr" v="243259" />
	</node>
	<node id="-402215" lat="58.6302055594" lon="5.80852222582">
		<tag k="name" v="Ryggen" />
		<tag k="natural" v="cape" />
		<tag k="ssr:stedsnr" v="403488" />
	</node>
	<node id="-402726" lat="58.6818416665" lon="5.70628332478">
		<tag k="name" v="Risabekken" />
		<tag k="ssr:stedsnr" v="646338" />
		<tag k="waterway" v="stream" />
	</node>
	<node id="-402207" lat="58.5292749989" lon="5.84404722161">
		<tag k="name" v="Kvassåstjørna" />
		<tag k="natural" v="water" />
		<tag k="ssr:stedsnr" v="386131" />
		<tag k="water" v="lake" />
	</node>
	<node id="-402206" lat="58.513205554" lon="5.8482222149">
		<tag k="alt_name" v="Tvitjørn nedra" />
		<tag k="name" v="Nedra Tvitjørn" />
		<tag k="natural" v="water" />
		<tag k="ssr:stedsnr" v="386119" />
		<tag k="water" v="lake" />
	</node>
	<node id="-402714" lat="58.5729500039" lon="5.86258333846">
		<tag k="name" v="Bjørnsivatnet" />
		<tag k="natural" v="water" />
		<tag k="ssr:stedsnr" v="629132" />
		<tag k="water" v="lake" />
	</node>
	<node id="-402713" lat="58.5808750038" lon="5.86239166226">
		<tag k="name" v="Litle Buskavatnet" />
		<tag k="natural" v="water" />
		<tag k="ssr:stedsnr" v="629127" />
		<tag k="water" v="lake" />
	</node>
	<node id="-402712" lat="58.5188000017" lon="5.84790555931">
		<tag k="name" v="Hedletjørna" />
		<tag k="natural" v="water" />
		<tag k="ssr:stedsnr" v="629114" />
		<tag k="water" v="lake" />
	</node>
	<node id="-402198" lat="58.5852027752" lon="5.68616389597">
		<tag k="alt_name" v="Årslandsåa" />
		<tag k="name" v="Årslandsåna" />
		<tag k="ssr:stedsnr" v="364382" />
		<tag k="waterway" v="stream" />
	</node>
	<node id="-402708" lat="58.4952083349" lon="5.79719722647">
		<tag k="name" v="Husatjørna" />
		<tag k="natural" v="water" />
		<tag k="ssr:stedsnr" v="606734" />
	</node>
	<node id="-402191" lat="58.5671833304" lon="5.83931666702">
		<tag k="alt_name" v="Ostjørna" />
		<tag k="name" v="Ljostjørna" />
		<tag k="natural" v="water" />
		<tag k="ssr:stedsnr" v="364351" />
	</node>
	<node id="-402186" lat="58.5623778635" lon="5.86730322192">
		<tag k="name" v="Homsevatnet" />
		<tag k="natural" v="water" />
		<tag k="ssr:stedsnr" v="364105" />
		<tag k="water" v="lake" />
	</node>
	<node id="-402185" lat="58.5975333304" lon="5.88401943906">
		<tag k="name" v="Hagavatnet" />
		<tag k="natural" v="water" />
		<tag k="ssr:stedsnr" v="364006" />
		<tag k="water" v="lake" />
	</node>
	<node id="-402696" lat="58.5587888886" lon="5.78915555953">
		<tag k="alt_name" v="Fuglestadåa" />
		<tag k="name" v="Fuglestadåna" />
		<tag k="ssr:stedsnr" v="606314" />
		<tag k="waterway" v="river" />
	</node>
	<node id="-402692" lat="58.6310583316" lon="5.62930555562">
		<tag k="name" v="Rongjabekken" />
		<tag k="old_name" v="Rognabekken" />
		<tag k="ssr:stedsnr" v="606244" />
		<tag k="waterway" v="stream" />
	</node>
	<node id="-402902" lat="58.5629166677" lon="5.83533611485">
		<tag k="name" v="Medosen" />
		<tag k="natural" v="water" />
		<tag k="ssr:stedsnr" v="812161" />
		<tag k="water" v="lake" />
	</node>
	<node id="-402177" lat="58.6115638864" lon="5.641708337">
		<tag k="name" v="Reiestadbekken" />
		<tag k="ssr:stedsnr" v="362550" />
		<tag k="waterway" v="stream" />
	</node>
	<node id="-402685" lat="58.535486108" lon="5.71026944105">
		<tag k="name" v="Kvalbeinsanden" />
		<tag k="natural" v="beach" />
		<tag k="ssr:stedsnr" v="603980" />
	</node>
	<node id="-402675" lat="58.4995305516" lon="5.79246388328">
		<tag k="name" v="Legetjørna" />
		<tag k="natural" v="water" />
		<tag k="ssr:stedsnr" v="588209" />
	</node>
	<node id="-402150" lat="58.5820444455" lon="5.81917499711">
		<tag k="name" v="Litle Trettesvatnet" />
		<tag k="natural" v="water" />
		<tag k="ssr:stedsnr" v="103619" />
		<tag k="water" v="lake" />
	</node>
	<node id="-402148" lat="58.5682333317" lon="5.85764721588">
		<tag k="name" v="Klemmavatnet" />
		<tag k="natural" v="water" />
		<tag k="ssr:stedsnr" v="326132" />
		<tag k="water" v="lake" />
	</node>
	<node id="-402147" lat="58.5724416629" lon="5.87672777568">
		<tag k="name" v="Kinnetjørna" />
		<tag k="natural" v="water" />
		<tag k="ssr:stedsnr" v="326130" />
		<tag k="water" v="lake" />
	</node>
	<node id="-402657" lat="58.605038885" lon="5.85465554809">
		<tag k="name" v="Hundstjørna" />
		<tag k="natural" v="water" />
		<tag k="ssr:stedsnr" v="568728" />
	</node>
	<node id="-402656" lat="58.6083388867" lon="5.87899999678">
		<tag k="name" v="Brusatjørna" />
		<tag k="natural" v="water" />
		<tag k="ssr:stedsnr" v="568726" />
	</node>
	<node id="-402143" lat="58.5606138921" lon="5.83291667455">
		<tag k="name" v="Jotjørna" />
		<tag k="natural" v="water" />
		<tag k="ssr:stedsnr" v="303412" />
	</node>
	<node id="-402654" lat="58.5112777804" lon="5.85324722706">
		<tag k="name" v="Rauetjørna" />
		<tag k="natural" v="water" />
		<tag k="ssr:stedsnr" v="568115" />
	</node>
	<node id="-402134" lat="58.5648416633" lon="5.66803055221">
		<tag k="alt_name" v="Hårråa" />
		<tag k="name" v="Horråna" />
		<tag k="ssr:stedsnr" v="303330" />
		<tag k="waterway" v="stream" />
	</node>
	<node id="-402645" lat="58.5380166662" lon="5.79083610545">
		<tag k="name" v="Dybingen" />
		<tag k="natural" v="water" />
		<tag k="ssr:stedsnr" v="546403" />
		<tag k="water" v="lake" />
	</node>
	<node id="-402644" lat="58.5111000027" lon="5.8350750023">
		<tag k="alt_name" v="Surtetjørna" />
		<tag k="name" v="Skjortetjørni" />
		<tag k="natural" v="water" />
		<tag k="ssr:stedsnr" v="546401" />
	</node>
	<node id="-402129" lat="58.6315777742" lon="5.73626667398">
		<tag k="name" v="Sauatjørna" />
		<tag k="natural" v="water" />
		<tag k="ssr:stedsnr" v="303267" />
	</node>
	<node id="-402637" lat="58.5662527747" lon="5.82877499502">
		<tag k="alt_name" v="Gulldrag" />
		<tag k="name" v="Gulldragvatnet" />
		<tag k="natural" v="water" />
		<tag k="ssr:stedsnr" v="546316" />
	</node>
	<node id="-402630" lat="58.6617888894" lon="5.61261944099">
		<tag k="name" v="Lodetjørna" />
		<tag k="natural" v="water" />
		<tag k="ssr:stedsnr" v="546268" />
	</node>
	<node id="-402627" lat="58.541866671" lon="5.90957222282">
		<tag k="name" v="Øvrabøvatnet" />
		<tag k="natural" v="water" />
		<tag k="ssr:stedsnr" v="546094" />
		<tag k="water" v="lake" />
	</node>
	<node id="-402626" lat="58.5478083338" lon="5.87810556207">
		<tag k="alt_name" v="Bjønndalsvatnet" />
		<tag k="name" v="Bjørndalsvatni" />
		<tag k="natural" v="water" />
		<tag k="ssr:stedsnr" v="546088" />
	</node>
	<node id="-402111" lat="58.4989666655" lon="5.80406943763">
		<tag k="name" v="Litla Krokavatnet" />
		<tag k="natural" v="water" />
		<tag k="ssr:stedsnr" v="285237" />
	</node>
	<node id="-402326" lat="58.5150694438" lon="5.84149723029">
		<tag k="name" v="Lauvåsvatnet" />
		<tag k="natural" v="water" />
		<tag k="ssr:stedsnr" v="61417" />
	</node>
	<node id="-402602" lat="58.6588055595" lon="5.62485000226">
		<tag k="name" v="Audamotlandstjørna" />
		<tag k="natural" v="water" />
		<tag k="ssr:stedsnr" v="525366" />
	</node>
	<node id="-402595" lat="58.689530559" lon="5.65920000681">
		<tag k="alt_name" v="Tverråa" />
		<tag k="name" v="Tverråna" />
		<tag k="ssr:stedsnr" v="485782" />
		<tag k="waterway" v="stream" />
	</node>
	<node id="-402575" lat="58.5659499959" lon="5.85109722667">
		<tag k="alt_name" v="Røyrtjørna" />
		<tag k="name" v="Røyrtjørni" />
		<tag k="natural" v="water" />
		<tag k="old_name" v="Røyrvatnet" />
		<tag k="ssr:stedsnr" v="485086" />
	</node>
	<node id="-402574" lat="58.6152777821" lon="5.85864166438">
		<tag k="name" v="Dagvelja" />
		<tag k="natural" v="water" />
		<tag k="ssr:stedsnr" v="485023" />
	</node>
	<node id="-402573" lat="58.5271222186" lon="5.85128610702">
		<tag k="name" v="Forevad" />
		<tag k="place" v="locality" />
		<tag k="ssr:stedsnr" v="484886" />
	</node>
	<node id="-402555" lat="58.573752776" lon="5.82441943653">
		<tag k="name" v="Rånå" />
		<tag k="natural" v="water" />
		<tag k="ssr:stedsnr" v="467636" />
		<tag k="water" v="lake" />
	</node>
	<node id="-402551" lat="58.624791671" lon="5.70583610336">
		<tag k="name" v="Skrettinglandsåa" />
		<tag k="ssr:stedsnr" v="464554" />
		<tag k="waterway" v="river" />
	</node>
	<node id="-402541" lat="58.5579944411" lon="5.84783611963">
		<tag k="name" v="Romatjørna" />
		<tag k="natural" v="water" />
		<tag k="ssr:stedsnr" v="448151" />
		<tag k="water" v="lake" />
	</node>
	<node id="-402540" lat="58.5513777772" lon="5.84968056331">
		<tag k="name" v="Nedre Hedlevatnet" />
		<tag k="natural" v="water" />
		<tag k="ssr:stedsnr" v="448148" />
		<tag k="water" v="lake" />
	</node>
	<node id="-402539" lat="58.5287416625" lon="5.85436944031">
		<tag k="name" v="Rabalihølen" />
		<tag k="place" v="locality" />
		<tag k="ssr:stedsnr" v="448137" />
	</node>
	<node id="-403040" lat="58.4920972249" lon="5.8304277697">
		<tag k="name" v="Hattabukta" />
		<tag k="natural" v="bay" />
		<tag k="ssr:stedsnr" v="965031" />
	</node>
	<node id="-402525" lat="58.5740499976" lon="5.84639167449">
		<tag k="name" v="Rosselandsvatnet" />
		<tag k="natural" v="water" />
		<tag k="ssr:stedsnr" v="425341" />
	</node>
	<node id="-402516" lat="58.6326888854" lon="5.6034472256">
		<tag k="alt_name" v="Stemmå" />
		<tag k="name" v="Stemmen" />
		<tag k="natural" v="water" />
		<tag k="old_name" v="Stemma" />
		<tag k="ssr:stedsnr" v="425252" />
	</node>
	<node id="-403007" lat="58.5936500021" lon="5.74259166">
		<tag k="name" v="Korphaugtjørna" />
		<tag k="natural" v="water" />
		<tag k="ssr:stedsnr" v="910368" />
	</node>
	<node id="-403020" lat="58.5921194418" lon="5.84319444416">
		<tag k="name" v="Torstjørna" />
		<tag k="natural" v="water" />
		<tag k="ssr:stedsnr" v="933771" />
	</node>
	<node id="-402501" lat="58.534999999" lon="5.93149167413">
		<tag k="name" v="Skinansvatnet" />
		<tag k="natural" v="water" />
		<tag k="ssr:stedsnr" v="265757" />
		<tag k="water" v="lake" />
	</node>
	<node id="-402500" lat="58.5806777781" lon="5.88048610848">
		<tag k="name" v="Bessetjørna" />
		<tag k="natural" v="water" />
		<tag k="ssr:stedsnr" v="265141" />
		<tag k="water" v="lake" />
	</node>
	<node id="-402267" lat="58.5915694468" lon="5.80513611445">
		<tag k="name" v="Kutjørna" />
		<tag k="natural" v="water" />
		<tag k="ssr:stedsnr" v="375" />
	</node>
	<node id="-402498" lat="58.4972694444" lon="5.81270277303">
		<tag k="name" v="Nordra Krogavatnet" />
		<tag k="natural" v="water" />
		<tag k="ssr:stedsnr" v="243754" />
		<tag k="water" v="lake" />
	</node>
	<node id="-403009" lat="58.5362194482" lon="5.83330277314">
		<tag k="name" v="Holmavatnet" />
		<tag k="natural" v="water" />
		<tag k="ssr:stedsnr" v="910430" />
		<tag k="water" v="lake" />
	</node>
	<node id="-402496" lat="58.5497555586" lon="5.82667500451">
		<tag k="name" v="Hundsvatnet" />
		<tag k="natural" v="water" />
		<tag k="ssr:stedsnr" v="243410" />
		<tag k="water" v="lake" />
	</node>
	<node id="-402495" lat="58.5934416677" lon="5.82593611445">
		<tag k="name" v="Engjatjørna" />
		<tag k="natural" v="water" />
		<tag k="ssr:stedsnr" v="243365" />
	</node>
	<node id="-403005" lat="58.5711138858" lon="5.83127778013">
		<tag k="alt_name" v="Skitdrag" />
		<tag k="name" v="Skitdragvatnet" />
		<tag k="natural" v="water" />
		<tag k="ssr:stedsnr" v="910339" />
	</node>
	<node id="-402442" lat="58.5111083371" lon="5.84809167136">
		<tag k="alt_name" v="Tvitjørn øvra" />
		<tag k="name" v="Øvra Tvitjørn" />
		<tag k="natural" v="water" />
		<tag k="ssr:stedsnr" v="205124" />
		<tag k="water" v="lake" />
	</node>
	<node id="-402998" lat="58.6379749995" lon="5.68700556239">
		<tag k="alt_name" v="Tvihaugåa" />
		<tag k="name" v="Tvihaugbekken" />
		<tag k="ssr:stedsnr" v="910251" />
		<tag k="waterway" v="stream" />
	</node>
	<node id="-402995" lat="58.6177722251" lon="5.88485833355">
		<tag k="alt_name" v="Støvelstjørna" />
		<tag k="name" v="Stølsvatnet" />
		<tag k="natural" v="water" />
		<tag k="ssr:stedsnr" v="910023" />
	</node>
	<node id="-402994" lat="58.5905805554" lon="5.86127500822">
		<tag k="name" v="Buarskogvatna" />
		<tag k="natural" v="water" />
		<tag k="ssr:stedsnr" v="910020" />
	</node>
	<node id="-402480" lat="58.5529605099" lon="5.85443259079">
		<tag k="name" v="Hellevatni" />
		<tag k="natural" v="water" />
		<tag k="ssr:stedsnr" v="243101" />
		<tag k="water" v="lake" />
	</node>
	<node id="-402479" lat="58.5992277793" lon="5.8624527835">
		<tag k="name" v="Strandvatnet" />
		<tag k="natural" v="water" />
		<tag k="ssr:stedsnr" v="243011" />
	</node>
	<node id="-402475" lat="58.5351749984" lon="5.80043055168">
		<tag k="name" v="Nordrevatnet" />
		<tag k="natural" v="water" />
		<tag k="ssr:stedsnr" v="241930" />
	</node>
	<node id="-402474" lat="58.5261249977" lon="5.80867777162">
		<tag k="name" v="Nestjørna" />
		<tag k="natural" v="water" />
		<tag k="ssr:stedsnr" v="241926" />
	</node>
	<node id="-402268" lat="58.5536555534" lon="5.82267500823">
		<tag k="name" v="Fisketjørna" />
		<tag k="natural" v="water" />
		<tag k="ssr:stedsnr" v="419" />
	</node>
	<node id="-402470" lat="58.507883334" lon="5.78900556049">
		<tag k="name" v="Gule Holmen" />
		<tag k="place" v="islet" />
		<tag k="ssr:stedsnr" v="241250" />
	</node>
	<node id="-402979" lat="58.5199250019" lon="5.86911945135">
		<tag k="name" v="Forevasstangen" />
		<tag k="natural" v="cape" />
		<tag k="ssr:stedsnr" v="872150" />
	</node>
	<node id="-402978" lat="58.5229666702" lon="5.85561666428">
		<tag k="name" v="Vadlåstjørna" />
		<tag k="natural" v="water" />
		<tag k="ssr:stedsnr" v="872128" />
		<tag k="water" v="lake" />
	</node>
	<node id="-402977" lat="58.5149500035" lon="5.86543333849">
		<tag k="name" v="Bastaskogstjørna" />
		<tag k="natural" v="water" />
		<tag k="ssr:stedsnr" v="872112" />
	</node>
	<node id="-402180" lat="58.5334861084" lon="5.80615277648">
		<tag k="name" v="Mjølhustjørna" />
		<tag k="natural" v="water" />
		<tag k="ssr:stedsnr" v="362928" />
	</node>
	<node id="-402435" lat="58.5598416677" lon="5.83923334164">
		<tag k="name" v="Revtjørna" />
		<tag k="natural" v="water" />
		<tag k="ssr:stedsnr" v="182407" />
	</node>
	<node id="-402954" lat="58.5850361099" lon="5.81385833532">
		<tag k="alt_name" v="Trettesvatnet" />
		<tag k="name" v="Trettesvatna" />
		<tag k="natural" v="water" />
		<tag k="ssr:stedsnr" v="850307" />
		<tag k="water" v="lake" />
	</node>
	<node id="-402953" lat="58.6619999967" lon="5.74561944577">
		<tag k="name" v="Vålandstjørna" />
		<tag k="natural" v="water" />
		<tag k="ssr:stedsnr" v="850284" />
	</node>
	<node id="-402437" lat="58.528925001" lon="5.80216388933">
		<tag k="name" v="Helgåvatnet" />
		<tag k="natural" v="water" />
		<tag k="ssr:stedsnr" v="182424" />
		<tag k="water" v="lake" />
	</node>
	<node id="-402947" lat="58.6283194404" lon="5.7766555532">
		<tag k="name" v="Holmavatnet" />
		<tag k="natural" v="water" />
		<tag k="ssr:stedsnr" v="850266" />
	</node>
</osm>
