<?xml version="1.0" encoding="UTF-8"?>
<osm generator="osmapis" version="0.6">
	<node id="-403045" lat="58.52391111" lon="5.78839723081">
		<tag k="fixme" v="consider natural=peak for the most distinct mountains in the district" />
		<tag k="name" v="Steinstufjellet" />
		<tag k="natural" v="hill" />
		<tag k="place" v="locality" />
		<tag k="ssr:stedsnr" v="969922" />
	</node>
	<node id="-403044" lat="58.4808138885" lon="5.82838333041">
		<tag k="name" v="Engjavika" />
		<tag k="natural" v="bay" />
		<tag k="ssr:stedsnr" v="969537" />
	</node>
	<node id="-403043" lat="58.6523444446" lon="5.55471388191">
		<tag k="fixme" v="consider seamark:type=rock or natural=shoal" />
		<tag k="name" v="Prestskjer" />
		<tag k="place" v="islet" />
		<tag k="ssr:stedsnr" v="968976" />
	</node>
	<node id="-403042" lat="58.6195750002" lon="5.59431666597">
		<tag k="name" v="Bollen" />
		<tag k="place" v="locality" />
		<tag k="seamark:type" v="rock" />
		<tag k="ssr:stedsnr" v="968113" />
	</node>
	<node id="-403041" lat="58.4807805515" lon="5.81076943645">
		<tag k="name" v="Mågagrunnen" />
		<tag k="natural" v="shoal" />
		<tag k="place" v="locality" />
		<tag k="ssr:stedsnr" v="967806" />
	</node>
	<node id="-403040" lat="58.4920972249" lon="5.8304277697">
		<tag k="name" v="Hattabukta" />
		<tag k="natural" v="bay" />
		<tag k="ssr:stedsnr" v="965031" />
	</node>
	<node id="-403039" lat="58.6396861121" lon="5.67062500591">
		<tag k="bridge" v="yes" />
		<tag k="layer" v="1" />
		<tag k="name" v="Tvihaug" />
		<tag k="ssr:stedsnr" v="957743" />
	</node>
	<node id="-403038" lat="58.6441694482" lon="5.66038611097">
		<tag k="bridge" v="yes" />
		<tag k="layer" v="1" />
		<tag k="name" v="Rangen" />
		<tag k="ssr:stedsnr" v="957715" />
	</node>
	<node id="-403037" lat="58.550663887" lon="5.78790834005">
		<tag k="fixme" v="consider natural=peak for the most distinct mountains in the district" />
		<tag k="name" v="Daurmålsknuten" />
		<tag k="natural" v="hill" />
		<tag k="place" v="locality" />
		<tag k="ssr:stedsnr" v="952950" />
	</node>
	<node id="-403036" lat="58.5753527795" lon="5.65101389076">
		<tag k="name" v="Heia" />
		<tag k="place" v="farm" />
		<tag k="ssr:stedsnr" v="952888" />
	</node>
	<node id="-403035" lat="58.5921277817" lon="5.70679167322">
		<tag k="name" v="Ånå" />
		<tag k="place" v="farm" />
		<tag k="ssr:stedsnr" v="952878" />
	</node>
	<node id="-403034" lat="58.5835027818" lon="5.69366111027">
		<tag k="name" v="Runde Høyebakk" />
		<tag k="natural" v="hill" />
		<tag k="place" v="locality" />
		<tag k="ssr:stedsnr" v="952871" />
	</node>
	<node id="-403033" lat="58.5679972218" lon="5.7609277819">
		<tag k="name" v="Grøne haugen" />
		<tag k="natural" v="hill" />
		<tag k="place" v="locality" />
		<tag k="ssr:stedsnr" v="952596" />
	</node>
	<node id="-403032" lat="58.6006388931" lon="5.74022222739">
		<tag k="name" v="Bølge" />
		<tag k="place" v="locality" />
		<tag k="ssr:stedsnr" v="952587" />
	</node>
	<node id="-403031" lat="58.5230583367" lon="5.77913056194">
		<tag k="name" v="Holmasanden" />
		<tag k="natural" v="beach" />
		<tag k="place" v="locality" />
		<tag k="ssr:stedsnr" v="951975" />
	</node>
	<node id="-403030" lat="58.5163888902" lon="5.69090278013">
		<tag k="name" v="Krakken" />
		<tag k="natural" v="shoal" />
		<tag k="place" v="locality" />
		<tag k="ssr:stedsnr" v="951594" />
	</node>
	<node id="-403029" lat="58.5825999959" lon="5.80423889779">
		<tag k="fixme" v="consider natural=peak for the most distinct mountains in the district" />
		<tag k="name" v="Fossfjellet" />
		<tag k="natural" v="hill" />
		<tag k="place" v="locality" />
		<tag k="ssr:stedsnr" v="950579" />
	</node>
	<node id="-403028" lat="58.6420166689" lon="5.71683055766">
		<tag k="building" v="industrial" />
		<tag k="industrial" v="factory" />
		<tag k="name" v="Verket" />
		<tag k="ssr:stedsnr" v="950578" />
	</node>
	<node id="-403027" lat="58.6111555556" lon="5.6287944468">
		<tag k="name" v="Ævestvollen" />
		<tag k="place" v="farm" />
		<tag k="ssr:stedsnr" v="950534" />
	</node>
	<node id="-403025" lat="58.616622225" lon="5.7549111143">
		<tag k="name" v="Myrstad" />
		<tag k="place" v="farm" />
		<tag k="ssr:stedsnr" v="950482" />
	</node>
	<node id="-403024" lat="58.4762027753" lon="5.82078611104">
		<tag k="name" v="Underbåen" />
		<tag k="place" v="locality" />
		<tag k="seamark:type" v="rock" />
		<tag k="ssr:stedsnr" v="950481" />
	</node>
	<node id="-403023" lat="58.6529443674" lon="5.67501045477">
		<tag k="fixme" v="consider place=hamlet" />
		<tag k="name" v="Vestra Håland" />
		<tag k="place" v="farm" />
		<tag k="ssr:stedsnr" v="934618" />
	</node>
	<node id="-403022" lat="58.5001666694" lon="5.83748055172">
		<tag k="name" v="Vatnamot" />
		<tag k="place" v="farm" />
		<tag k="ssr:stedsnr" v="933951" />
	</node>
	<node id="-403021" lat="58.4860083354" lon="5.81636111384">
		<tag k="name" v="Holmane" />
		<tag k="place" v="farm" />
		<tag k="ssr:stedsnr" v="933944" />
	</node>
	<node id="-403020" lat="58.5921194418" lon="5.84319444416">
		<tag k="name" v="Torstjørna" />
		<tag k="natural" v="water" />
		<tag k="ssr:stedsnr" v="933771" />
	</node>
	<node id="-403019" lat="58.587583336" lon="5.83627222819">
		<tag k="fixme" v="consider natural=peak for the most distinct mountains in the district" />
		<tag k="name" v="Augarfjellet" />
		<tag k="natural" v="hill" />
		<tag k="place" v="locality" />
		<tag k="ssr:stedsnr" v="933768" />
	</node>
	<node id="-403018" lat="58.6033500021" lon="5.84445555965">
		<tag k="fixme" v="consider natural=peak for the most distinct mountains in the district" />
		<tag k="name" v="Kråkefjellet" />
		<tag k="natural" v="hill" />
		<tag k="place" v="locality" />
		<tag k="ssr:stedsnr" v="933766" />
	</node>
	<node id="-403017" lat="58.6068277749" lon="5.85303332677">
		<tag k="name" v="Liafjellet" />
		<tag k="natural" v="hill" />
		<tag k="place" v="locality" />
		<tag k="ssr:stedsnr" v="933761" />
	</node>
	<node id="-403016" lat="58.5721944441" lon="5.86330555995">
		<tag k="name" v="Bjørnahola" />
		<tag k="ssr:stedsnr" v="933166" />
		<tag k="tourism" v="attraction" />
	</node>
	<node id="-403015" lat="58.5262277749" lon="5.83491389404">
		<tag k="fixme" v="consider natural=peak for the most distinct mountains in the district" />
		<tag k="name" v="Lomsåsen" />
		<tag k="natural" v="hill" />
		<tag k="place" v="locality" />
		<tag k="ssr:stedsnr" v="933153" />
	</node>
	<node id="-403014" lat="58.5032388876" lon="5.84548610812">
		<tag k="alt_name" v="Skansarudla" />
		<tag k="name" v="Skansarulla" />
		<tag k="natural" v="hill" />
		<tag k="old_name" v="Skansefjellet" />
		<tag k="place" v="locality" />
		<tag k="ssr:stedsnr" v="911158" />
	</node>
	<node id="-403013" lat="58.6784167289" lon="5.62657668377">
		<tag k="fixme" v="consider place=hamlet" />
		<tag k="name" v="Bjorland" />
		<tag k="place" v="farm" />
		<tag k="ssr:stedsnr" v="910749" />
	</node>
	<node id="-403012" lat="58.4920305549" lon="5.82524722909">
		<tag k="fixme" v="consider natural=peak for the most distinct mountains in the district" />
		<tag k="name" v="Joknuden" />
		<tag k="natural" v="hill" />
		<tag k="place" v="locality" />
		<tag k="ssr:stedsnr" v="910732" />
	</node>
	<node id="-403011" lat="58.515405555" lon="5.80959166244">
		<tag k="name" v="Ogna" />
		<tag k="place" v="farm" />
		<tag k="ssr:stedsnr" v="910434" />
	</node>
	<node id="-403010" lat="58.5348555563" lon="5.76054999136">
		<tag k="name" v="Vaulen" />
		<tag k="natural" v="water" />
		<tag k="ssr:stedsnr" v="910432" />
	</node>
	<node id="-403009" lat="58.5362194482" lon="5.83330277314">
		<tag k="name" v="Holmavatnet" />
		<tag k="natural" v="water" />
		<tag k="ssr:stedsnr" v="910430" />
		<tag k="water" v="lake" />
	</node>
	<node id="-403008" lat="58.5508138932" lon="5.78477778203">
		<tag k="alt_name" v="Monå" />
		<tag k="name" v="Mona" />
		<tag k="place" v="farm" />
		<tag k="ssr:stedsnr" v="910402" />
	</node>
	<node id="-403007" lat="58.5936500021" lon="5.74259166">
		<tag k="name" v="Korphaugtjørna" />
		<tag k="natural" v="water" />
		<tag k="ssr:stedsnr" v="910368" />
	</node>
	<node id="-403006" lat="58.5972472202" lon="5.83909445125">
		<tag k="name" v="Åmot" />
		<tag k="place" v="farm" />
		<tag k="ssr:stedsnr" v="910363" />
	</node>
	<node id="-403005" lat="58.5711138858" lon="5.83127778013">
		<tag k="alt_name" v="Skitdrag" />
		<tag k="name" v="Skitdragvatnet" />
		<tag k="natural" v="water" />
		<tag k="ssr:stedsnr" v="910339" />
	</node>
	<node id="-403004" lat="58.5710333314" lon="5.68182499276">
		<tag k="name" v="Vigrestad" />
		<tag k="place" v="village" />
		<tag k="ssr:stedsnr" v="910322" />
	</node>
	<node id="-403003" lat="58.5716967716" lon="5.74905484684">
		<tag k="fixme" v="consider place=hamlet" />
		<tag k="name" v="Anisdal" />
		<tag k="place" v="farm" />
		<tag k="ssr:stedsnr" v="910316" />
	</node>
	<node id="-403002" lat="58.6632055558" lon="5.71397222195">
		<tag k="name" v="Løgesteinen" />
		<tag k="place" v="farm" />
		<tag k="ssr:stedsnr" v="910286" />
	</node>
	<node id="-403001" lat="58.6624388889" lon="5.62626111278">
		<tag k="amenity" v="place_of_worship" />
		<tag k="denomination" v="lutheran" />
		<tag k="name" v="Nærbø gamle kyrkje" />
		<tag k="religion" v="christian" />
		<tag k="ssr:stedsnr" v="910284" />
	</node>
	<node id="-403000" lat="58.6240305586" lon="5.66670000787">
		<tag k="alt_name" v="Brekkå" />
		<tag k="name" v="Brekka" />
		<tag k="place" v="farm" />
		<tag k="ssr:stedsnr" v="910271" />
	</node>
	<node id="-402999" lat="58.6398888855" lon="5.71500833399">
		<tag k="name" v="Nygard" />
		<tag k="place" v="farm" />
		<tag k="ssr:stedsnr" v="910264" />
	</node>
	<node id="-402998" lat="58.6379749995" lon="5.68700556239">
		<tag k="alt_name" v="Tvihaugåa" />
		<tag k="name" v="Tvihaugbekken" />
		<tag k="ssr:stedsnr" v="910251" />
		<tag k="waterway" v="stream" />
	</node>
	<node id="-402997" lat="58.6364582977" lon="5.5989503845">
		<tag k="fixme" v="consider place=hamlet" />
		<tag k="name" v="Grødaland" />
		<tag k="place" v="farm" />
		<tag k="ssr:stedsnr" v="910248" />
	</node>
	<node id="-402996" lat="58.5352961908" lon="5.88767085926">
		<tag k="fixme" v="consider place=hamlet" />
		<tag k="name" v="Ualand" />
		<tag k="place" v="farm" />
		<tag k="ssr:stedsnr" v="910078" />
	</node>
	<node id="-402995" lat="58.6177722251" lon="5.88485833355">
		<tag k="alt_name" v="Støvelstjørna" />
		<tag k="name" v="Stølsvatnet" />
		<tag k="natural" v="water" />
		<tag k="ssr:stedsnr" v="910023" />
	</node>
	<node id="-402994" lat="58.5905805554" lon="5.86127500822">
		<tag k="name" v="Buarskogvatna" />
		<tag k="natural" v="water" />
		<tag k="ssr:stedsnr" v="910020" />
	</node>
	<node id="-402993" lat="58.5366972234" lon="5.72713888487">
		<tag k="name" v="N Laksaberget" />
		<tag k="natural" v="hill" />
		<tag k="place" v="locality" />
		<tag k="ssr:stedsnr" v="908959" />
	</node>
	<node id="-402992" lat="58.5355527779" lon="5.72270832811">
		<tag k="name" v="Holmestøfjellet" />
		<tag k="natural" v="hill" />
		<tag k="place" v="locality" />
		<tag k="ssr:stedsnr" v="908956" />
	</node>
	<node id="-402991" lat="58.5370783054" lon="5.72763688657">
		<tag k="name" v="Laksaberget" />
		<tag k="natural" v="hill" />
		<tag k="place" v="locality" />
		<tag k="ssr:stedsnr" v="908957" />
	</node>
	<node id="-402990" lat="58.503638892" lon="5.78782500609">
		<tag k="name" v="Laksodden" />
		<tag k="natural" v="cape" />
		<tag k="ssr:stedsnr" v="908600" />
	</node>
	<node id="-402989" lat="58.4860111124" lon="5.80572221458">
		<tag k="fixme" v="consider seamark:type=rock or natural=shoal" />
		<tag k="name" v="Kinnarvågskjeret" />
		<tag k="place" v="islet" />
		<tag k="ssr:stedsnr" v="908561" />
	</node>
	<node id="-402988" lat="58.4797027807" lon="5.8267833375">
		<tag k="name" v="Kilen" />
		<tag k="natural" v="strait" />
		<tag k="ssr:stedsnr" v="908560" />
	</node>
	<node id="-402987" lat="58.5481361122" lon="5.68048888935">
		<tag k="cemetery" v="grave" />
		<tag k="name" v="Røysane" />
		<tag k="place" v="locality" />
		<tag k="ssr:stedsnr" v="907995" />
	</node>
	<node id="-402986" lat="58.5367000019" lon="5.70933056059">
		<tag k="name" v="Gunnarsteinen" />
		<tag k="natural" v="stone" />
		<tag k="ssr:stedsnr" v="907984" />
	</node>
	<node id="-402985" lat="58.6305027764" lon="5.64990277715">
		<tag k="name" v="Ullanhaug" />
		<tag k="place" v="farm" />
		<tag k="ssr:stedsnr" v="907532" />
	</node>
	<node id="-402984" lat="58.6531777758" lon="5.58966110633">
		<tag k="amenity" v="school" />
		<tag k="name" v="Vigre" />
		<tag k="ssr:stedsnr" v="907311" />
	</node>
	<node id="-402983" lat="58.4903583346" lon="5.83973611533">
		<tag k="name" v="Vatnamot" />
		<tag k="place" v="farm" />
		<tag k="ssr:stedsnr" v="872945" />
	</node>
	<node id="-402982" lat="58.4885722226" lon="5.83949165978">
		<tag k="name" v="Vatnamot" />
		<tag k="place" v="farm" />
		<tag k="ssr:stedsnr" v="872942" />
	</node>
	<node id="-402981" lat="58.5941833334" lon="5.85808888261">
		<tag k="name" v="Buskogliane" />
		<tag k="natural" v="slope" />
		<tag k="place" v="locality" />
		<tag k="ssr:stedsnr" v="872771" />
	</node>
	<node id="-402980" lat="58.6188138866" lon="5.84672499782">
		<tag k="name" v="Marsteinberget" />
		<tag k="natural" v="hill" />
		<tag k="place" v="locality" />
		<tag k="ssr:stedsnr" v="872763" />
	</node>
	<node id="-402979" lat="58.5199250019" lon="5.86911945135">
		<tag k="name" v="Forevasstangen" />
		<tag k="natural" v="cape" />
		<tag k="ssr:stedsnr" v="872150" />
	</node>
	<node id="-402978" lat="58.5229666702" lon="5.85561666428">
		<tag k="name" v="Vadlåstjørna" />
		<tag k="natural" v="water" />
		<tag k="ssr:stedsnr" v="872128" />
		<tag k="water" v="lake" />
	</node>
	<node id="-402977" lat="58.5149500035" lon="5.86543333849">
		<tag k="name" v="Bastaskogstjørna" />
		<tag k="natural" v="water" />
		<tag k="ssr:stedsnr" v="872112" />
	</node>
	<node id="-402976" lat="58.6944533094" lon="5.62616295751">
		<tag k="fixme" v="consider place=hamlet" />
		<tag k="name" v="Rimestad" />
		<tag k="place" v="farm" />
		<tag k="ssr:stedsnr" v="850806" />
	</node>
	<node id="-402975" lat="58.6939444426" lon="5.59809999708">
		<tag k="alt_name" v="Høyland" />
		<tag k="name" v="Høylandsheia" />
		<tag k="place" v="farm" />
		<tag k="ssr:stedsnr" v="850788" />
	</node>
	<node id="-402974" lat="58.6815666707" lon="5.6504027734">
		<tag k="name" v="Torland" />
		<tag k="place" v="farm" />
		<tag k="ssr:stedsnr" v="850756" />
	</node>
	<node id="-402973" lat="58.6757100779" lon="5.56532111243">
		<tag k="fixme" v="consider place=hamlet" />
		<tag k="name" v="Nærland" />
		<tag k="place" v="farm" />
		<tag k="ssr:stedsnr" v="850754" />
	</node>
	<node id="-402972" lat="58.5275444441" lon="5.70506389644">
		<tag k="name" v="Raunen" />
		<tag k="place" v="islet" />
		<tag k="ssr:stedsnr" v="850453" />
	</node>
	<node id="-402971" lat="58.5406305602" lon="5.74463334034">
		<tag k="name" v="Brusand" />
		<tag k="place" v="village" />
		<tag k="ssr:stedsnr" v="850431" />
	</node>
	<node id="-402970" lat="58.5844231048" lon="5.65179660619">
		<tag k="fixme" v="consider place=hamlet" />
		<tag k="name" v="Årsland" />
		<tag k="place" v="farm" />
		<tag k="ssr:stedsnr" v="850378" />
	</node>
	<node id="-402969" lat="58.5821259418" lon="5.67729210745">
		<tag k="fixme" v="consider place=hamlet" />
		<tag k="name" v="Ævestad" />
		<tag k="place" v="farm" />
		<tag k="ssr:stedsnr" v="850379" />
	</node>
	<node id="-402968" lat="58.6006055533" lon="5.82516389596">
		<tag k="name" v="Ruskefjellet" />
		<tag k="natural" v="hill" />
		<tag k="place" v="locality" />
		<tag k="ssr:stedsnr" v="850374" />
	</node>
	<node id="-402967" lat="58.59152778" lon="5.69758055538">
		<tag k="alt_name" v="Stølane" />
		<tag k="name" v="Stølan" />
		<tag k="place" v="farm" />
		<tag k="ssr:stedsnr" v="850370" />
	</node>
	<node id="-402966" lat="58.5914277802" lon="5.67459167484">
		<tag k="name" v="Kalsvarden" />
		<tag k="place" v="farm" />
		<tag k="ssr:stedsnr" v="850367" />
	</node>
	<node id="-402965" lat="58.6041027773" lon="5.65585555269">
		<tag k="name" v="Gråstein" />
		<tag k="place" v="farm" />
		<tag k="ssr:stedsnr" v="850363" />
	</node>
	<node id="-402964" lat="58.6001805545" lon="5.6796666749">
		<tag k="alt_name" v="Auestadenga" />
		<tag k="name" v="Enga" />
		<tag k="place" v="farm" />
		<tag k="ssr:stedsnr" v="850359" />
	</node>
	<node id="-402963" lat="58.6108121728" lon="5.6390812017">
		<tag k="fixme" v="consider place=hamlet" />
		<tag k="name" v="Reiestad" />
		<tag k="place" v="farm" />
		<tag k="ssr:stedsnr" v="850356" />
	</node>
	<node id="-402962" lat="58.6150457533" lon="5.69968508802">
		<tag k="fixme" v="consider place=hamlet" />
		<tag k="name" v="Refsland" />
		<tag k="place" v="farm" />
		<tag k="ssr:stedsnr" v="850352" />
	</node>
	<node id="-402961" lat="58.6094388873" lon="5.71991943769">
		<tag k="name" v="Høgemork" />
		<tag k="place" v="farm" />
		<tag k="ssr:stedsnr" v="850350" />
	</node>
	<node id="-402960" lat="58.5625508806" lon="5.68162501711">
		<tag k="fixme" v="consider place=hamlet" />
		<tag k="name" v="Voll" />
		<tag k="place" v="farm" />
		<tag k="ssr:stedsnr" v="850332" />
	</node>
	<node id="-402959" lat="58.5625249957" lon="5.73943055492">
		<tag k="name" v="Hæen" />
		<tag k="natural" v="hill" />
		<tag k="place" v="locality" />
		<tag k="ssr:stedsnr" v="850330" />
	</node>
	<node id="-402958" lat="58.5643997532" lon="5.74745178229">
		<tag k="fixme" v="consider place=hamlet" />
		<tag k="name" v="Søra Hadland" />
		<tag k="place" v="farm" />
		<tag k="ssr:stedsnr" v="850326" />
	</node>
	<node id="-402957" lat="58.5864444422" lon="5.70600000613">
		<tag k="name" v="Grønholen" />
		<tag k="place" v="farm" />
		<tag k="ssr:stedsnr" v="850315" />
	</node>
	<node id="-402956" lat="58.5859638861" lon="5.72380832701">
		<tag k="name" v="Kongvarden" />
		<tag k="natural" v="hill" />
		<tag k="place" v="locality" />
		<tag k="ssr:stedsnr" v="850314" />
	</node>
	<node id="-402955" lat="58.5847999986" lon="5.79203888139">
		<tag k="alt_name" v="Lasseskaret" />
		<tag k="name" v="Lasseskardet" />
		<tag k="place" v="farm" />
		<tag k="ssr:stedsnr" v="850309" />
	</node>
	<node id="-402954" lat="58.5850361099" lon="5.81385833532">
		<tag k="alt_name" v="Trettesvatnet" />
		<tag k="name" v="Trettesvatna" />
		<tag k="natural" v="water" />
		<tag k="ssr:stedsnr" v="850307" />
		<tag k="water" v="lake" />
	</node>
	<node id="-402953" lat="58.6619999967" lon="5.74561944577">
		<tag k="name" v="Vålandstjørna" />
		<tag k="natural" v="water" />
		<tag k="ssr:stedsnr" v="850284" />
	</node>
	<node id="-402952" lat="58.6577801572" lon="5.63846764813">
		<tag k="fixme" v="consider place=hamlet" />
		<tag k="name" v="Motland" />
		<tag k="place" v="farm" />
		<tag k="ssr:stedsnr" v="850279" />
	</node>
	<node id="-402951" lat="58.657361109" lon="5.65674166926">
		<tag k="name" v="Rosk" />
		<tag k="natural" v="hill" />
		<tag k="place" v="locality" />
		<tag k="ssr:stedsnr" v="850277" />
	</node>
	<node id="-402949" lat="58.6630111089" lon="5.55201944882">
		<tag k="name" v="Fuglavika" />
		<tag k="natural" v="bay" />
		<tag k="old_name" v="Fuglevika" />
		<tag k="ssr:stedsnr" v="850273" />
	</node>
	<node id="-402948" lat="58.6181361138" lon="5.71490000194">
		<tag k="name" v="Jorenkjøl" />
		<tag k="place" v="farm" />
		<tag k="ssr:stedsnr" v="850267" />
	</node>
	<node id="-402947" lat="58.6283194404" lon="5.7766555532">
		<tag k="name" v="Holmavatnet" />
		<tag k="natural" v="water" />
		<tag k="ssr:stedsnr" v="850266" />
	</node>
	<node id="-402946" lat="58.62554047" lon="5.61724735821">
		<tag k="fixme" v="consider place=hamlet" />
		<tag k="name" v="Hobberstad" />
		<tag k="place" v="farm" />
		<tag k="ssr:stedsnr" v="850257" />
	</node>
	<node id="-402945" lat="58.613066667" lon="5.88973054904">
		<tag k="name" v="Fjellund" />
		<tag k="place" v="farm" />
		<tag k="ssr:stedsnr" v="850019" />
	</node>
	<node id="-402944" lat="58.6163888849" lon="5.8809638825">
		<tag k="name" v="Brusali" />
		<tag k="place" v="farm" />
		<tag k="ssr:stedsnr" v="850017" />
	</node>
	<node id="-402943" lat="58.6167111109" lon="5.84523055796">
		<tag k="name" v="Fredheim" />
		<tag k="place" v="farm" />
		<tag k="ssr:stedsnr" v="850015" />
	</node>
	<node id="-402942" lat="58.4797222193" lon="5.8252833343">
		<tag k="name" v="Engjavikholmen" />
		<tag k="place" v="islet" />
		<tag k="ssr:stedsnr" v="849740" />
	</node>
	<node id="-402941" lat="58.5079555601" lon="5.81765834019">
		<tag k="name" v="Skoga" />
		<tag k="place" v="farm" />
		<tag k="ssr:stedsnr" v="849399" />
	</node>
	<node id="-402940" lat="58.5333916675" lon="5.89003888591">
		<tag k="alt_name" v="Husavatnet" />
		<tag k="name" v="Ualandsvatnet" />
		<tag k="natural" v="water" />
		<tag k="ssr:stedsnr" v="849106" />
	</node>
	<node id="-402939" lat="58.5289583335" lon="5.79511944826">
		<tag k="fixme" v="consider natural=peak for the most distinct mountains in the district" />
		<tag k="name" v="Skolmafjelltua" />
		<tag k="natural" v="hill" />
		<tag k="place" v="locality" />
		<tag k="ssr:stedsnr" v="848930" />
	</node>
	<node id="-402938" lat="58.585449999" lon="5.63982500438">
		<tag k="fixme" v="verify maritime location" />
		<tag k="mooring" v="yes" />
		<tag k="name" v="Årslandsstøa" />
		<tag k="place" v="locality" />
		<tag k="ssr:stedsnr" v="848896" />
	</node>
	<node id="-402937" lat="58.4971972213" lon="5.78331388568">
		<tag k="name" v="Ramnatangen" />
		<tag k="natural" v="cape" />
		<tag k="ssr:stedsnr" v="848577" />
	</node>
	<node id="-402936" lat="58.527769441" lon="5.69574999624">
		<tag k="name" v="Raunagarden" />
		<tag k="place" v="locality" />
		<tag k="seamark:type" v="rock" />
		<tag k="ssr:stedsnr" v="847985" />
	</node>
	<node id="-402935" lat="58.6541722182" lon="5.55782778648">
		<tag k="name" v="Peparvika" />
		<tag k="natural" v="bay" />
		<tag k="ssr:stedsnr" v="847983" />
	</node>
	<node id="-402934" lat="58.5372388929" lon="5.7204527846">
		<tag k="name" v="Surtebekken" />
		<tag k="ssr:stedsnr" v="847980" />
		<tag k="waterway" v="stream" />
	</node>
	<node id="-402933" lat="58.5500249959" lon="5.79255832932">
		<tag k="fixme" v="consider natural=peak for the most distinct mountains in the district" />
		<tag k="name" v="Hestafjellet" />
		<tag k="natural" v="hill" />
		<tag k="place" v="locality" />
		<tag k="ssr:stedsnr" v="847961" />
	</node>
	<node id="-402932" lat="58.603333338" lon="5.64250000705">
		<tag k="name" v="Grønhaugen" />
		<tag k="natural" v="hill" />
		<tag k="place" v="locality" />
		<tag k="ssr:stedsnr" v="847908" />
	</node>
	<node id="-402931" lat="58.6225638922" lon="5.59952222423">
		<tag k="name" v="Klobnesteinen" />
		<tag k="natural" v="stone" />
		<tag k="ssr:stedsnr" v="846604" />
	</node>
	<node id="-402930" lat="58.6271527796" lon="5.64793333682">
		<tag k="name" v="Lerbrekk" />
		<tag k="place" v="farm" />
		<tag k="ssr:stedsnr" v="846568" />
	</node>
	<node id="-402929" lat="58.6093916685" lon="5.62942777251">
		<tag k="bridge" v="yes" />
		<tag k="layer" v="1" />
		<tag k="name" v="Varhaug" />
		<tag k="ssr:stedsnr" v="836728" />
	</node>
	<node id="-402928" lat="58.5854583326" lon="5.64683888256">
		<tag k="bridge" v="yes" />
		<tag k="layer" v="1" />
		<tag k="name" v="Årsland" />
		<tag k="ssr:stedsnr" v="836716" />
	</node>
	<node id="-402927" lat="58.621500002" lon="5.64000000401">
		<tag k="bridge" v="yes" />
		<tag k="layer" v="1" />
		<tag k="name" v="Nygård" />
		<tag k="ssr:stedsnr" v="836698" />
	</node>
	<node id="-402926" lat="58.5568638865" lon="5.81709167357">
		<tag k="fixme" v="consider natural=peak for the most distinct mountains in the district" />
		<tag k="name" v="Middagsknuten" />
		<tag k="natural" v="hill" />
		<tag k="place" v="locality" />
		<tag k="ssr:stedsnr" v="831933" />
	</node>
	<node id="-402925" lat="58.5947249975" lon="5.68757500308">
		<tag k="name" v="Labbetufta" />
		<tag k="place" v="locality" />
		<tag k="ssr:stedsnr" v="831877" />
	</node>
	<node id="-402924" lat="58.5846333329" lon="5.71741111238">
		<tag k="name" v="Katthuset" />
		<tag k="place" v="locality" />
		<tag k="ssr:stedsnr" v="831870" />
	</node>
	<node id="-402923" lat="58.5702000039" lon="5.65678888644">
		<tag k="landuse" v="peat_cutting" />
		<tag k="name" v="Sortemyr" />
		<tag k="ssr:stedsnr" v="831871" />
	</node>
	<node id="-402922" lat="58.5798277816" lon="5.79979444634">
		<tag k="fixme" v="consider natural=peak for the most distinct mountains in the district" />
		<tag k="name" v="Hyljafjellet" />
		<tag k="natural" v="hill" />
		<tag k="place" v="locality" />
		<tag k="ssr:stedsnr" v="831572" />
	</node>
	<node id="-402921" lat="58.5152290456" lon="5.7904014461">
		<tag k="name" v="Ytre Stoholmen" />
		<tag k="place" v="islet" />
		<tag k="ssr:stedsnr" v="831207" />
	</node>
	<node id="-402920" lat="58.4940833295" lon="5.78355278605">
		<tag k="fixme" v="consider seamark:type=rock or natural=shoal" />
		<tag k="name" v="Tvibogen" />
		<tag k="place" v="islet" />
		<tag k="ssr:stedsnr" v="830897" />
	</node>
	<node id="-402919" lat="58.5136222182" lon="5.71221665877">
		<tag k="name" v="Tangen" />
		<tag k="natural" v="shoal" />
		<tag k="place" v="locality" />
		<tag k="ssr:stedsnr" v="830567" />
	</node>
	<node id="-402918" lat="58.6090416629" lon="5.70108333915">
		<tag k="name" v="Morenekjelda" />
		<tag k="natural" v="spring" />
		<tag k="ssr:stedsnr" v="830443" />
	</node>
	<node id="-402917" lat="58.5898527763" lon="5.79486667511">
		<tag k="fixme" v="consider natural=peak for the most distinct mountains in the district" />
		<tag k="name" v="Kufjellet" />
		<tag k="natural" v="hill" />
		<tag k="place" v="locality" />
		<tag k="ssr:stedsnr" v="829602" />
	</node>
	<node id="-402916" lat="58.6319333291" lon="5.71196945013">
		<tag k="fixme" v="consider natural=peak for the most distinct mountains in the district" />
		<tag k="name" v="Kobben" />
		<tag k="natural" v="hill" />
		<tag k="place" v="locality" />
		<tag k="ssr:stedsnr" v="829601" />
	</node>
	<node id="-402915" lat="58.6440805536" lon="5.6841194433">
		<tag k="amenity" v="prison" />
		<tag k="name" v="Åna" />
		<tag k="ssr:stedsnr" v="829579" />
	</node>
	<node id="-402914" lat="58.629311687" lon="5.71938297465">
		<tag k="name" v="Såbrekk" />
		<tag k="place" v="locality" />
		<tag k="ssr:stedsnr" v="829578" />
	</node>
	<node id="-402913" lat="58.4822527747" lon="5.8140083336">
		<tag k="name" v="Ytre Varholmane" />
		<tag k="place" v="islet" />
		<tag k="ssr:stedsnr" v="829520" />
	</node>
	<node id="-402912" lat="58.4833333301" lon="5.81511388165">
		<tag k="name" v="Indre Varholmane" />
		<tag k="place" v="islet" />
		<tag k="ssr:stedsnr" v="829517" />
	</node>
	<node id="-402911" lat="58.6714694401" lon="5.64019165877">
		<tag k="leisure" v="pitch" />
		<tag k="name" v="Idrettslunden" />
		<tag k="ssr:stedsnr" v="829360" />
	</node>
	<node id="-402910" lat="58.6669333364" lon="5.65344722494">
		<tag k="name" v="Skjeraberget" />
		<tag k="natural" v="hill" />
		<tag k="place" v="locality" />
		<tag k="ssr:stedsnr" v="829352" />
	</node>
	<node id="-402909" lat="58.5828416708" lon="5.8237333319">
		<tag k="fixme" v="consider natural=peak for the most distinct mountains in the district" />
		<tag k="name" v="Grønåsen" />
		<tag k="natural" v="hill" />
		<tag k="place" v="locality" />
		<tag k="ssr:stedsnr" v="829611" />
	</node>
	<node id="-402908" lat="58.5541194408" lon="5.66165833015">
		<tag k="name" v="Skardsteinen" />
		<tag k="natural" v="cape" />
		<tag k="ssr:stedsnr" v="828203" />
	</node>
	<node id="-402907" lat="58.5234638912" lon="5.6877194443">
		<tag k="name" v="Huset" />
		<tag k="natural" v="shoal" />
		<tag k="place" v="locality" />
		<tag k="ssr:stedsnr" v="828204" />
	</node>
	<node id="-402906" lat="58.549861112" lon="5.66966389389">
		<tag k="name" v="Øyren" />
		<tag k="place" v="farm" />
		<tag k="ssr:stedsnr" v="828197" />
	</node>
	<node id="-402905" lat="58.5701916626" lon="5.64276665862">
		<tag k="name" v="Sloen" />
		<tag k="place" v="locality" />
		<tag k="seamark:type" v="rock" />
		<tag k="ssr:stedsnr" v="828196" />
	</node>
	<node id="-402904" lat="58.5997277739" lon="5.83206666747">
		<tag k="fixme" v="consider natural=peak for the most distinct mountains in the district" />
		<tag k="name" v="Torsfjellet" />
		<tag k="natural" v="hill" />
		<tag k="place" v="locality" />
		<tag k="ssr:stedsnr" v="812746" />
	</node>
	<node id="-402903" lat="58.5797500034" lon="5.85326943849">
		<tag k="name" v="Podladalen" />
		<tag k="natural" v="valley" />
		<tag k="place" v="locality" />
		<tag k="ssr:stedsnr" v="812183" />
	</node>
	<node id="-402902" lat="58.5629166677" lon="5.83533611485">
		<tag k="name" v="Medosen" />
		<tag k="natural" v="water" />
		<tag k="ssr:stedsnr" v="812161" />
		<tag k="water" v="lake" />
	</node>
	<node id="-402901" lat="58.5903277751" lon="5.85159444543">
		<tag k="name" v="Slåttedalstjørn" />
		<tag k="natural" v="water" />
		<tag k="ssr:stedsnr" v="811722" />
	</node>
	<node id="-402900" lat="58.5311722267" lon="5.89987778192">
		<tag k="name" v="Indra Ualandsvatnet" />
		<tag k="natural" v="water" />
		<tag k="ssr:stedsnr" v="811701" />
		<tag k="water" v="lake" />
	</node>
	<node id="-402899" lat="58.6830750019" lon="5.53995278599">
		<tag k="name" v="Raunen" />
		<tag k="place" v="islet" />
		<tag k="ssr:stedsnr" v="789815" />
	</node>
	<node id="-402898" lat="58.7001153649" lon="5.61865052979">
		<tag k="name" v="Toppen" />
		<tag k="place" v="farm" />
		<tag k="ssr:stedsnr" v="789799" />
	</node>
	<node id="-402897" lat="58.6654638909" lon="5.63788333995">
		<tag k="name" v="Nærbø" />
		<tag k="place" v="village" />
		<tag k="ssr:stedsnr" v="789781" />
	</node>
	<node id="-402896" lat="58.6712584951" lon="5.60028370203">
		<tag k="fixme" v="consider place=hamlet" />
		<tag k="name" v="Nesheim" />
		<tag k="place" v="farm" />
		<tag k="ssr:stedsnr" v="789778" />
	</node>
	<node id="-402895" lat="58.6777250036" lon="5.64619444477">
		<tag k="name" v="Midtholen" />
		<tag k="place" v="farm" />
		<tag k="ssr:stedsnr" v="789766" />
	</node>
	<node id="-402894" lat="58.4953861083" lon="5.80933610909">
		<tag k="name" v="Revurstjørna" />
		<tag k="natural" v="water" />
		<tag k="ssr:stedsnr" v="789752" />
	</node>
	<node id="-402893" lat="58.4921564545" lon="5.81149990019">
		<tag k="fixme" v="consider place=hamlet" />
		<tag k="name" v="Stølen" />
		<tag k="place" v="farm" />
		<tag k="ssr:stedsnr" v="789747" />
	</node>
	<node id="-402892" lat="58.5504333311" lon="5.77346388921">
		<tag k="name" v="Langholen" />
		<tag k="place" v="farm" />
		<tag k="ssr:stedsnr" v="789419" />
	</node>
	<node id="-402891" lat="58.5941999963" lon="5.66725278118">
		<tag k="alt_name" v="Hetlura" />
		<tag k="name" v="Hetlurda" />
		<tag k="place" v="farm" />
		<tag k="ssr:stedsnr" v="789382" />
	</node>
	<node id="-402890" lat="58.5628277755" lon="5.78498332748">
		<tag k="alt_name" v="Skjebaskaret" />
		<tag k="name" v="Skipaskardet" />
		<tag k="place" v="farm" />
		<tag k="ssr:stedsnr" v="789366" />
	</node>
	<node id="-402889" lat="58.5752527803" lon="5.73101944777">
		<tag k="alt_name" v="Krånå" />
		<tag k="name" v="Kråna" />
		<tag k="place" v="farm" />
		<tag k="ssr:stedsnr" v="789339" />
	</node>
	<node id="-402888" lat="58.5751361084" lon="5.75945554952">
		<tag k="name" v="India" />
		<tag k="place" v="farm" />
		<tag k="ssr:stedsnr" v="789338" />
	</node>
	<node id="-402887" lat="58.5799583343" lon="5.69802221603">
		<tag k="name" v="Kvitlabrotet" />
		<tag k="place" v="farm" />
		<tag k="ssr:stedsnr" v="789336" />
	</node>
	<node id="-402886" lat="58.5853611121" lon="5.83096945167">
		<tag k="alt_name" v="Bruarvoll" />
		<tag k="name" v="Bruavollen" />
		<tag k="place" v="farm" />
		<tag k="ssr:stedsnr" v="789329" />
	</node>
	<node id="-402884" lat="58.6555543372" lon="5.5681988098">
		<tag k="fixme" v="consider place=hamlet" />
		<tag k="name" v="Obrestad" />
		<tag k="place" v="farm" />
		<tag k="ssr:stedsnr" v="789314" />
	</node>
	<node id="-402883" lat="58.65096389" lon="5.56645277521">
		<tag k="name" v="Obrestadhamna" />
		<tag k="natural" v="cape" />
		<tag k="ssr:stedsnr" v="789312" />
	</node>
	<node id="-402882" lat="58.663408335" lon="5.67016943811">
		<tag k="alt_name" v="Bøgjerda" />
		<tag k="name" v="Gjerda" />
		<tag k="old_name" v="Gjerdo" />
		<tag k="place" v="farm" />
		<tag k="ssr:stedsnr" v="789307" />
	</node>
	<node id="-402881" lat="58.6641361297" lon="5.62975472767">
		<tag k="fixme" v="consider place=hamlet" />
		<tag k="name" v="Skjerpe" />
		<tag k="place" v="farm" />
		<tag k="ssr:stedsnr" v="789302" />
	</node>
	<node id="-402880" lat="58.6155483308" lon="5.62568451072">
		<tag k="fixme" v="consider place=hamlet" />
		<tag k="name" v="Brattlend" />
		<tag k="place" v="farm" />
		<tag k="ssr:stedsnr" v="789280" />
	</node>
	<node id="-402879" lat="58.634624999" lon="5.73017499552">
		<tag k="name" v="Småvarden" />
		<tag k="place" v="farm" />
		<tag k="ssr:stedsnr" v="789268" />
	</node>
	<node id="-402878" lat="58.6328673443" lon="5.62973718347">
		<tag k="fixme" v="consider place=hamlet" />
		<tag k="name" v="Dysjaland" />
		<tag k="place" v="farm" />
		<tag k="ssr:stedsnr" v="789262" />
	</node>
	<node id="-402877" lat="58.5054083293" lon="5.83421666171">
		<tag k="name" v="Beinskinnvatnet" />
		<tag k="natural" v="water" />
		<tag k="ssr:stedsnr" v="788364" />
	</node>
	<node id="-402876" lat="58.5531305597" lon="5.88356944829">
		<tag k="name" v="Bjørndalsniben" />
		<tag k="natural" v="hill" />
		<tag k="place" v="locality" />
		<tag k="ssr:stedsnr" v="788080" />
	</node>
	<node id="-402875" lat="58.523733335" lon="5.78315832978">
		<tag k="fixme" v="consider natural=peak for the most distinct mountains in the district" />
		<tag k="name" v="Heptetokula" />
		<tag k="natural" v="hill" />
		<tag k="place" v="locality" />
		<tag k="ssr:stedsnr" v="787933" />
	</node>
	<node id="-402874" lat="58.526211111" lon="5.81653888222">
		<tag k="fixme" v="consider natural=peak for the most distinct mountains in the district" />
		<tag k="name" v="Bukkaknuten" />
		<tag k="natural" v="hill" />
		<tag k="place" v="locality" />
		<tag k="ssr:stedsnr" v="787928" />
	</node>
	<node id="-402873" lat="58.5319055597" lon="5.81999166526">
		<tag k="fixme" v="consider natural=peak for the most distinct mountains in the district" />
		<tag k="name" v="Hattafjellet" />
		<tag k="natural" v="hill" />
		<tag k="place" v="locality" />
		<tag k="ssr:stedsnr" v="787927" />
	</node>
	<node id="-402872" lat="58.5386444429" lon="5.74077777479">
		<tag k="name" v="Rennå" />
		<tag k="natural" v="water" />
		<tag k="ssr:stedsnr" v="787924" />
		<tag k="water" v="lake" />
	</node>
	<node id="-402871" lat="58.5069444448" lon="5.78997778059">
		<tag k="name" v="Persodden" />
		<tag k="natural" v="cape" />
		<tag k="ssr:stedsnr" v="787596" />
	</node>
	<node id="-402870" lat="58.4901212176" lon="5.79952138789">
		<tag k="alt_name" v="Hedlesundsholmane" />
		<tag k="name" v="Hellesundholmane" />
		<tag k="place" v="islet" />
		<tag k="ssr:stedsnr" v="787593" />
	</node>
	<node id="-402869" lat="58.5025805517" lon="5.78112777176">
		<tag k="name" v="Skjeret" />
		<tag k="place" v="islet" />
		<tag k="ssr:stedsnr" v="787272" />
	</node>
	<node id="-402868" lat="58.6534388857" lon="5.55938332718">
		<tag k="name" v="Daursbeietet" />
		<tag k="natural" v="cape" />
		<tag k="ssr:stedsnr" v="786965" />
	</node>
	<node id="-402867" lat="58.6333111125" lon="5.58725555751">
		<tag k="name" v="Hummarskjeret" />
		<tag k="natural" v="cape" />
		<tag k="ssr:stedsnr" v="786012" />
	</node>
	<node id="-402866" lat="58.5534361148" lon="5.66266943727">
		<tag k="fixme" v="verify maritime location" />
		<tag k="mooring" v="yes" />
		<tag k="name" v="Litle Skarstein" />
		<tag k="place" v="locality" />
		<tag k="ssr:stedsnr" v="785766" />
	</node>
	<node id="-402865" lat="58.5580527766" lon="5.65695000754">
		<tag k="fixme" v="verify maritime location" />
		<tag k="mooring" v="yes" />
		<tag k="name" v="Store Skarstein" />
		<tag k="place" v="locality" />
		<tag k="ssr:stedsnr" v="785765" />
	</node>
	<node id="-402864" lat="58.6303027755" lon="5.59687222258">
		<tag k="name" v="Grødalandsbekken" />
		<tag k="ssr:stedsnr" v="785584" />
		<tag k="waterway" v="stream" />
	</node>
	<node id="-402863" lat="58.6094472188" lon="5.845880552">
		<tag k="bridge" v="yes" />
		<tag k="layer" v="1" />
		<tag k="name" v="Topdal" />
		<tag k="ssr:stedsnr" v="775723" />
	</node>
	<node id="-402862" lat="58.6274305529" lon="5.61481667361">
		<tag k="bridge" v="yes" />
		<tag k="layer" v="1" />
		<tag k="name" v="Hobberstad" />
		<tag k="ssr:stedsnr" v="775709" />
	</node>
	<node id="-402861" lat="58.6732749997" lon="5.60714721863">
		<tag k="bridge" v="yes" />
		<tag k="layer" v="1" />
		<tag k="name" v="Nesheimsstemmen" />
		<tag k="ssr:stedsnr" v="775700" />
	</node>
	<node id="-402860" lat="58.6212472204" lon="5.73288611632">
		<tag k="bridge" v="yes" />
		<tag k="layer" v="1" />
		<tag k="name" v="Kloppesteinen" />
		<tag k="ssr:stedsnr" v="775698" />
	</node>
	<node id="-402859" lat="58.5730499961" lon="5.77279721704">
		<tag k="fixme" v="consider natural=peak for the most distinct mountains in the district" />
		<tag k="name" v="Oksefjellet" />
		<tag k="natural" v="hill" />
		<tag k="place" v="locality" />
		<tag k="ssr:stedsnr" v="770573" />
	</node>
	<node id="-402858" lat="58.6154249998" lon="5.6844777832">
		<tag k="name" v="Ækrå" />
		<tag k="place" v="farm" />
		<tag k="ssr:stedsnr" v="768542" />
	</node>
	<node id="-402857" lat="58.6409222264" lon="5.7665833369">
		<tag k="name" v="Olsholen" />
		<tag k="natural" v="hill" />
		<tag k="place" v="locality" />
		<tag k="ssr:stedsnr" v="768503" />
	</node>
	<node id="-402856" lat="58.4834555594" lon="5.81101665869">
		<tag k="name" v="Varholmsundet" />
		<tag k="natural" v="strait" />
		<tag k="ssr:stedsnr" v="768500" />
	</node>
	<node id="-402855" lat="58.4836833297" lon="5.80794166822">
		<tag k="alt_name" v="Porthunden" />
		<tag k="fixme" v="consider seamark:type=rock or natural=shoal" />
		<tag k="name" v="Porthundane" />
		<tag k="place" v="islet" />
		<tag k="ssr:stedsnr" v="768495" />
	</node>
	<node id="-402854" lat="58.6181055545" lon="5.77558332722">
		<tag k="name" v="Snøden" />
		<tag k="natural" v="hill" />
		<tag k="place" v="locality" />
		<tag k="ssr:stedsnr" v="768481" />
	</node>
	<node id="-402853" lat="58.6763416656" lon="5.61383610723">
		<tag k="name" v="Stølen" />
		<tag k="place" v="farm" />
		<tag k="ssr:stedsnr" v="768327" />
	</node>
	<node id="-402851" lat="58.5809361154" lon="5.64318333917">
		<tag k="name" v="Årslandsstranda" />
		<tag k="natural" v="beach" />
		<tag k="place" v="locality" />
		<tag k="ssr:stedsnr" v="767211" />
	</node>
	<node id="-402850" lat="58.5851833291" lon="5.63993610662">
		<tag k="name" v="Humraskjera" />
		<tag k="natural" v="cape" />
		<tag k="ssr:stedsnr" v="767206" />
	</node>
	<node id="-402849" lat="58.5948305573" lon="5.62322221867">
		<tag k="name" v="Ryggjasteinen" />
		<tag k="place" v="locality" />
		<tag k="seamark:type" v="rock" />
		<tag k="ssr:stedsnr" v="767202" />
	</node>
	<node id="-402848" lat="58.5370472189" lon="5.71228888935">
		<tag k="fixme" v="consider natural=peak for the most distinct mountains in the district" />
		<tag k="name" v="Ørnakula" />
		<tag k="natural" v="hill" />
		<tag k="place" v="locality" />
		<tag k="ssr:stedsnr" v="767180" />
	</node>
	<node id="-402847" lat="58.6742277752" lon="5.53947222593">
		<tag k="fixme" v="consider seamark:type=rock or natural=shoal" />
		<tag k="name" v="Seiasteinen" />
		<tag k="place" v="islet" />
		<tag k="ssr:stedsnr" v="767036" />
	</node>
	<node id="-402846" lat="58.6472694453" lon="5.72201389727">
		<tag k="name" v="Sveine" />
		<tag k="place" v="farm" />
		<tag k="ssr:stedsnr" v="752607" />
	</node>
	<node id="-402844" lat="58.4852527817" lon="5.81593888683">
		<tag k="name" v="Holmane" />
		<tag k="place" v="farm" />
		<tag k="ssr:stedsnr" v="751942" />
	</node>
	<node id="-402843" lat="58.6004611071" lon="5.87800832726">
		<tag k="name" v="Middagsrudla" />
		<tag k="natural" v="hill" />
		<tag k="place" v="locality" />
		<tag k="ssr:stedsnr" v="751757" />
	</node>
	<node id="-402842" lat="58.5917555578" lon="5.86218332867">
		<tag k="name" v="Store Buskavatnet" />
		<tag k="natural" v="water" />
		<tag k="ssr:stedsnr" v="751726" />
		<tag k="water" v="lake" />
	</node>
	<node id="-402841" lat="58.5264749986" lon="5.85126945254">
		<tag k="name" v="Forevadhølen" />
		<tag k="place" v="locality" />
		<tag k="ssr:stedsnr" v="751163" />
	</node>
	<node id="-402840" lat="58.5173583316" lon="5.87048054788">
		<tag k="fixme" v="consider natural=peak for the most distinct mountains in the district" />
		<tag k="name" v="Gudlaknuten" />
		<tag k="natural" v="hill" />
		<tag k="place" v="locality" />
		<tag k="ssr:stedsnr" v="751126" />
	</node>
	<node id="-402839" lat="58.6792594411" lon="5.67951760378">
		<tag k="fixme" v="consider place=hamlet" />
		<tag k="name" v="Njølstad" />
		<tag k="place" v="farm" />
		<tag k="ssr:stedsnr" v="728733" />
	</node>
	<node id="-402838" lat="58.4937777754" lon="5.79957221387">
		<tag k="name" v="Saltatjørna" />
		<tag k="natural" v="water" />
		<tag k="ssr:stedsnr" v="728709" />
	</node>
	<node id="-402837" lat="58.4965055512" lon="5.84954444548">
		<tag k="name" v="Småtjørna" />
		<tag k="natural" v="water" />
		<tag k="ssr:stedsnr" v="728703" />
	</node>
	<node id="-402836" lat="58.4915861138" lon="5.8487833409">
		<tag k="name" v="Søra Krogavatnet" />
		<tag k="natural" v="water" />
		<tag k="ssr:stedsnr" v="728702" />
		<tag k="water" v="lake" />
	</node>
	<node id="-402835" lat="58.4848277735" lon="5.80987222676">
		<tag k="name" v="Austmannsholmen" />
		<tag k="place" v="islet" />
		<tag k="ssr:stedsnr" v="728655" />
	</node>
	<node id="-402834" lat="58.4902499973" lon="5.79447777145">
		<tag k="name" v="Hellesund" />
		<tag k="natural" v="strait" />
		<tag k="ssr:stedsnr" v="728654" />
	</node>
	<node id="-402833" lat="58.4863967167" lon="5.82934768552">
		<tag k="fixme" v="consider place=hamlet" />
		<tag k="name" v="Holmane" />
		<tag k="place" v="farm" />
		<tag k="ssr:stedsnr" v="728652" />
	</node>
	<node id="-402832" lat="58.5198293662" lon="5.80328602896">
		<tag k="name" v="Ogna stasjon" />
		<tag k="railway" v="station" />
		<tag k="ssr:stedsnr" v="728408" />
		<tag k="train" v="yes" />
	</node>
	<node id="-402831" lat="58.5346451044" lon="5.80447057871">
		<tag k="fixme" v="consider place=hamlet" />
		<tag k="name" v="Mjølhus" />
		<tag k="place" v="farm" />
		<tag k="ssr:stedsnr" v="728405" />
	</node>
	<node id="-402830" lat="58.5452055518" lon="5.68126111609">
		<tag k="name" v="Kvassheimhamna" />
		<tag k="natural" v="cape" />
		<tag k="ssr:stedsnr" v="728387" />
	</node>
	<node id="-402829" lat="58.5439111106" lon="5.78826389164">
		<tag k="name" v="Djupemyr" />
		<tag k="place" v="farm" />
		<tag k="ssr:stedsnr" v="728384" />
	</node>
	<node id="-402828" lat="58.5479916704" lon="5.80310832604">
		<tag k="name" v="Tvitjørna" />
		<tag k="natural" v="water" />
		<tag k="ssr:stedsnr" v="728380" />
	</node>
	<node id="-402827" lat="58.5918666701" lon="5.66342776902">
		<tag k="name" v="Holmen" />
		<tag k="place" v="farm" />
		<tag k="ssr:stedsnr" v="728323" />
	</node>
	<node id="-402826" lat="58.6155000021" lon="5.78968888349">
		<tag k="name" v="Romavatnet" />
		<tag k="natural" v="water" />
		<tag k="ssr:stedsnr" v="728321" />
	</node>
	<node id="-402825" lat="58.6019499999" lon="5.69453056071">
		<tag k="alt_name" v="Sælandsbakken" />
		<tag k="name" v="Bakken" />
		<tag k="place" v="farm" />
		<tag k="ssr:stedsnr" v="728318" />
	</node>
	<node id="-402824" lat="58.6037166635" lon="5.7257250009">
		<tag k="name" v="Myrstad" />
		<tag k="place" v="farm" />
		<tag k="ssr:stedsnr" v="728315" />
	</node>
	<node id="-402823" lat="58.5739097288" lon="5.67516081853">
		<tag k="fixme" v="consider place=hamlet" />
		<tag k="name" v="Vadland" />
		<tag k="place" v="farm" />
		<tag k="ssr:stedsnr" v="728289" />
	</node>
	<node id="-402822" lat="58.5736111157" lon="5.70271111352">
		<tag k="alt_name" v="Hadlandshaugen" />
		<tag k="name" v="Hadlandshøyen" />
		<tag k="place" v="farm" />
		<tag k="ssr:stedsnr" v="728285" />
	</node>
	<node id="-402821" lat="58.5854111152" lon="5.73924444157">
		<tag k="alt_name" v="Korphaugen" />
		<tag k="name" v="Korphaugan" />
		<tag k="place" v="farm" />
		<tag k="ssr:stedsnr" v="728279" />
	</node>
	<node id="-402820" lat="58.6267694477" lon="5.64760278123">
		<tag k="name" v="Fidjane" />
		<tag k="place" v="farm" />
		<tag k="ssr:stedsnr" v="728230" />
	</node>
	<node id="-402819" lat="58.5378916677" lon="5.81604721936">
		<tag k="name" v="Rannveigstjørna" />
		<tag k="natural" v="water" />
		<tag k="ssr:stedsnr" v="726935" />
	</node>
	<node id="-402818" lat="58.6070833327" lon="5.61168889187">
		<tag k="name" v="Åfluna" />
		<tag k="place" v="locality" />
		<tag k="seamark:type" v="rock" />
		<tag k="ssr:stedsnr" v="726100" />
	</node>
	<node id="-402817" lat="58.6094277742" lon="5.61335556059">
		<tag k="name" v="Luggarsteinen" />
		<tag k="natural" v="cape" />
		<tag k="ssr:stedsnr" v="726094" />
	</node>
	<node id="-402816" lat="58.5536277757" lon="5.66278889183">
		<tag k="name" v="Kalshagen" />
		<tag k="place" v="locality" />
		<tag k="ssr:stedsnr" v="725736" />
	</node>
	<node id="-402815" lat="58.5652777738" lon="5.67177777137">
		<tag k="name" v="Vollbekken" />
		<tag k="ssr:stedsnr" v="725553" />
		<tag k="waterway" v="stream" />
	</node>
	<node id="-402814" lat="58.5769083358" lon="5.69999723026">
		<tag k="name" v="Voll" />
		<tag k="place" v="farm" />
		<tag k="ssr:stedsnr" v="725552" />
	</node>
	<node id="-402813" lat="58.6636444403" lon="5.58006388679">
		<tag k="name" v="Elisberget" />
		<tag k="natural" v="hill" />
		<tag k="place" v="locality" />
		<tag k="ssr:stedsnr" v="725326" />
	</node>
	<node id="-402812" lat="58.4810805544" lon="5.83708333398">
		<tag k="name" v="Djube Odden" />
		<tag k="natural" v="cape" />
		<tag k="ssr:stedsnr" v="725053" />
	</node>
	<node id="-402811" lat="58.4807805547" lon="5.84052499518">
		<tag k="name" v="Hattaknuten" />
		<tag k="natural" v="hill" />
		<tag k="place" v="locality" />
		<tag k="ssr:stedsnr" v="725051" />
	</node>
	<node id="-402810" lat="58.615413886" lon="5.60993333222">
		<tag k="name" v="Sjøarshøyen" />
		<tag k="natural" v="hill" />
		<tag k="place" v="locality" />
		<tag k="ssr:stedsnr" v="724570" />
	</node>
	<node id="-402809" lat="58.6230083298" lon="5.78188610646">
		<tag k="name" v="Hommeltjørna" />
		<tag k="natural" v="water" />
		<tag k="ssr:stedsnr" v="723695" />
		<tag k="water" v="lake" />
	</node>
	<node id="-402808" lat="58.5174555513" lon="5.82096389638">
		<tag k="bridge" v="yes" />
		<tag k="layer" v="1" />
		<tag k="name" v="Hølland" />
		<tag k="ssr:stedsnr" v="714697" />
	</node>
	<node id="-402807" lat="58.5714472265" lon="5.65382500719">
		<tag k="bridge" v="yes" />
		<tag k="layer" v="1" />
		<tag k="name" v="Bakken" />
		<tag k="ssr:stedsnr" v="714696" />
	</node>
	<node id="-402806" lat="58.5561500026" lon="5.77586665977">
		<tag k="name" v="Litle Bjelland" />
		<tag k="place" v="farm" />
		<tag k="ssr:stedsnr" v="709965" />
	</node>
	<node id="-402805" lat="58.5571388912" lon="5.7834111037">
		<tag k="fixme" v="consider natural=peak for the most distinct mountains in the district" />
		<tag k="name" v="Hanakleiva" />
		<tag k="natural" v="hill" />
		<tag k="place" v="locality" />
		<tag k="ssr:stedsnr" v="709942" />
	</node>
	<node id="-402804" lat="58.5606880962" lon="5.65539325711">
		<tag k="fixme" v="verify maritime location" />
		<tag k="mooring" v="yes" />
		<tag k="name" v="Kjellestø" />
		<tag k="place" v="locality" />
		<tag k="ssr:stedsnr" v="709896" />
	</node>
	<node id="-402803" lat="58.4998666704" lon="5.80484721848">
		<tag k="name" v="Kråfjellet" />
		<tag k="natural" v="hill" />
		<tag k="place" v="locality" />
		<tag k="ssr:stedsnr" v="709276" />
	</node>
	<node id="-402802" lat="58.507125003" lon="5.80903056015">
		<tag k="name" v="Påskevarden" />
		<tag k="natural" v="hill" />
		<tag k="place" v="locality" />
		<tag k="ssr:stedsnr" v="709238" />
	</node>
	<node id="-402801" lat="58.502933336" lon="5.80788332984">
		<tag k="name" v="Svalhelleren" />
		<tag k="natural" v="hill" />
		<tag k="place" v="locality" />
		<tag k="ssr:stedsnr" v="709236" />
	</node>
	<node id="-402800" lat="58.5097527773" lon="5.82371666421">
		<tag k="name" v="Kleivamyra" />
		<tag k="natural" v="wetland" />
		<tag k="ssr:stedsnr" v="709231" />
	</node>
	<node id="-402799" lat="58.4976416625" lon="5.78486943801">
		<tag k="fixme" v="consider natural=peak for the most distinct mountains in the district" />
		<tag k="name" v="Larsberget" />
		<tag k="natural" v="hill" />
		<tag k="place" v="locality" />
		<tag k="ssr:stedsnr" v="708987" />
	</node>
	<node id="-402798" lat="58.4928888847" lon="5.79430000793">
		<tag k="fixme" v="consider natural=peak for the most distinct mountains in the district" />
		<tag k="name" v="Haverhesten" />
		<tag k="natural" v="hill" />
		<tag k="place" v="locality" />
		<tag k="ssr:stedsnr" v="708881" />
	</node>
	<node id="-402797" lat="58.5795527738" lon="5.80744167379">
		<tag k="landuse" v="quarry" />
		<tag k="name" v="Fossfjellgruva" />
		<tag k="ssr:stedsnr" v="707633" />
	</node>
	<node id="-402796" lat="58.6144388861" lon="5.69147778405">
		<tag k="name" v="Torvleitet" />
		<tag k="place" v="locality" />
		<tag k="ssr:stedsnr" v="707555" />
	</node>
	<node id="-402795" lat="58.5721861149" lon="5.71533055172">
		<tag k="name" v="Brekka" />
		<tag k="place" v="farm" />
		<tag k="ssr:stedsnr" v="707537" />
	</node>
	<node id="-402794" lat="58.6286222236" lon="5.73897499773">
		<tag k="name" v="Ualandsvarden" />
		<tag k="natural" v="hill" />
		<tag k="place" v="locality" />
		<tag k="ssr:stedsnr" v="707514" />
	</node>
	<node id="-402793" lat="58.481958332" lon="5.84090834073">
		<tag k="name" v="Laugavika" />
		<tag k="natural" v="bay" />
		<tag k="ssr:stedsnr" v="707501" />
	</node>
	<node id="-402792" lat="58.6720027805" lon="5.62490277943">
		<tag k="name" v="Nesheimhaugen" />
		<tag k="place" v="farm" />
		<tag k="ssr:stedsnr" v="707382" />
	</node>
	<node id="-402791" lat="58.6704499981" lon="5.62391388966">
		<tag k="name" v="Steinen" />
		<tag k="place" v="farm" />
		<tag k="ssr:stedsnr" v="707381" />
	</node>
	<node id="-402790" lat="58.5291111142" lon="5.70081388698">
		<tag k="fixme" v="consider seamark:type=rock or natural=shoal" />
		<tag k="name" v="Raunasteinen" />
		<tag k="place" v="islet" />
		<tag k="ssr:stedsnr" v="706222" />
	</node>
	<node id="-402789" lat="58.5341611078" lon="5.6971777708">
		<tag k="fixme" v="consider seamark:type=rock or natural=shoal" />
		<tag k="name" v="Humrasteinane" />
		<tag k="place" v="islet" />
		<tag k="ssr:stedsnr" v="706219" />
	</node>
	<node id="-402788" lat="58.5899305527" lon="5.63419722299">
		<tag k="name" v="Skipasteinen" />
		<tag k="natural" v="cape" />
		<tag k="ssr:stedsnr" v="706213" />
	</node>
	<node id="-402787" lat="58.5743092429" lon="5.69542249755">
		<tag k="fixme" v="consider place=hamlet" />
		<tag k="name" v="Lagård" />
		<tag k="place" v="farm" />
		<tag k="ssr:stedsnr" v="691669" />
	</node>
	<node id="-402786" lat="58.4948805591" lon="5.7942999942">
		<tag k="name" v="Haver" />
		<tag k="place" v="farm" />
		<tag k="ssr:stedsnr" v="691633" />
	</node>
	<node id="-402785" lat="58.6453611122" lon="5.65638055865">
		<tag k="name" v="Ronga" />
		<tag k="place" v="farm" />
		<tag k="ssr:stedsnr" v="691358" />
	</node>
	<node id="-402784" lat="58.6439027779" lon="5.66383889021">
		<tag k="name" v="Ronga" />
		<tag k="place" v="farm" />
		<tag k="ssr:stedsnr" v="691354" />
	</node>
	<node id="-402783" lat="58.6371722251" lon="5.64750555278">
		<tag k="name" v="Ronga" />
		<tag k="place" v="farm" />
		<tag k="ssr:stedsnr" v="691350" />
	</node>
	<node id="-402782" lat="58.5328444421" lon="5.84223889525">
		<tag k="name" v="Langgårdslia" />
		<tag k="natural" v="ridge" />
		<tag k="place" v="locality" />
		<tag k="ssr:stedsnr" v="690158" />
	</node>
	<node id="-402781" lat="58.5561444433" lon="5.88262222266">
		<tag k="name" v="Bjønndalen" />
		<tag k="natural" v="valley" />
		<tag k="place" v="locality" />
		<tag k="ssr:stedsnr" v="690130" />
	</node>
	<node id="-402780" lat="58.5307083298" lon="5.88222777644">
		<tag k="name" v="Ytra Ualandsvatnet" />
		<tag k="natural" v="water" />
		<tag k="ssr:stedsnr" v="690116" />
		<tag k="water" v="lake" />
	</node>
	<node id="-402779" lat="58.5145388872" lon="5.85791666243">
		<tag k="name" v="Langevatnet" />
		<tag k="natural" v="water" />
		<tag k="ssr:stedsnr" v="690106" />
		<tag k="water" v="lake" />
	</node>
	<node id="-402778" lat="58.6860138932" lon="5.55245278417">
		<tag k="alt_name" v="Salteåa" />
		<tag k="name" v="Salteåna" />
		<tag k="ssr:stedsnr" v="667774" />
		<tag k="waterway" v="stream" />
	</node>
	<node id="-402777" lat="58.6771444433" lon="5.63605000188">
		<tag k="name" v="Torlandsmyra" />
		<tag k="place" v="farm" />
		<tag k="ssr:stedsnr" v="667711" />
	</node>
	<node id="-402776" lat="58.6815055587" lon="5.55523333959">
		<tag k="amenity" v="hospital" />
		<tag k="name" v="Nærlandsheimen" />
		<tag k="ssr:stedsnr" v="667706" />
	</node>
	<node id="-402775" lat="58.4935778659" lon="5.80772408112">
		<tag k="fixme" v="consider place=hamlet" />
		<tag k="name" v="Kinnarvåg" />
		<tag k="place" v="farm" />
		<tag k="ssr:stedsnr" v="667694" />
	</node>
	<node id="-402774" lat="58.4972388853" lon="5.83913610527">
		<tag k="fixme" v="consider natural=peak for the most distinct mountains in the district" />
		<tag k="name" v="Hettua" />
		<tag k="natural" v="hill" />
		<tag k="place" v="locality" />
		<tag k="ssr:stedsnr" v="667693" />
	</node>
	<node id="-402773" lat="58.4809472249" lon="5.81574722811">
		<tag k="name" v="Mågatåna" />
		<tag k="place" v="islet" />
		<tag k="ssr:stedsnr" v="667664" />
	</node>
	<node id="-402772" lat="58.5299833309" lon="5.82482223091">
		<tag k="name" v="Timmerholtvatnet" />
		<tag k="natural" v="water" />
		<tag k="old_name" v="Timberholt" />
		<tag k="ssr:stedsnr" v="667414" />
	</node>
	<node id="-402771" lat="58.5238361126" lon="5.80860554734">
		<tag k="name" v="Røyrmyra" />
		<tag k="place" v="farm" />
		<tag k="ssr:stedsnr" v="667405" />
	</node>
	<node id="-402770" lat="58.5146111142" lon="5.80905278342">
		<tag k="alt_name" v="Ognaåni;Ognaåna" />
		<tag k="name" v="Ognaelva" />
		<tag k="old_name" v="Ognaelvi" />
		<tag k="ssr:stedsnr" v="667406" />
		<tag k="waterway" v="river" />
	</node>
	<node id="-402769" lat="58.5411508174" lon="5.77846560126">
		<tag k="fixme" v="consider place=hamlet" />
		<tag k="name" v="Veggjaberget" />
		<tag k="place" v="farm" />
		<tag k="ssr:stedsnr" v="667398" />
	</node>
	<node id="-402768" lat="58.5358694474" lon="5.72339444043">
		<tag k="name" v="Holmestø" />
		<tag k="natural" v="cape" />
		<tag k="ssr:stedsnr" v="667397" />
	</node>
	<node id="-402767" lat="58.5044722242" lon="5.80933888673">
		<tag k="name" v="Skorane" />
		<tag k="place" v="farm" />
		<tag k="ssr:stedsnr" v="667374" />
	</node>
	<node id="-402766" lat="58.5918861113" lon="5.81715833987">
		<tag k="name" v="Øyestad" />
		<tag k="place" v="farm" />
		<tag k="ssr:stedsnr" v="667362" />
	</node>
	<node id="-402765" lat="58.5815946647" lon="5.70064116318">
		<tag k="fixme" v="consider place=hamlet" />
		<tag k="name" v="Hjertholen" />
		<tag k="place" v="farm" />
		<tag k="ssr:stedsnr" v="667360" />
	</node>
	<node id="-402764" lat="58.5898626259" lon="5.64011592749">
		<tag k="fixme" v="consider place=hamlet" />
		<tag k="name" v="Madland" />
		<tag k="place" v="farm" />
		<tag k="ssr:stedsnr" v="667351" />
	</node>
	<node id="-402763" lat="58.6120555543" lon="5.79051944138">
		<tag k="name" v="Skrivnahella" />
		<tag k="natural" v="stone" />
		<tag k="ssr:stedsnr" v="667349" />
	</node>
	<node id="-402762" lat="58.5971804023" lon="5.65861764919">
		<tag k="fixme" v="consider place=hamlet" />
		<tag k="name" v="Odland" />
		<tag k="place" v="farm" />
		<tag k="ssr:stedsnr" v="667345" />
	</node>
	<node id="-402761" lat="58.6098478551" lon="5.66924318319">
		<tag k="fixme" v="consider place=hamlet" />
		<tag k="name" v="Kydland" />
		<tag k="place" v="farm" />
		<tag k="ssr:stedsnr" v="667338" />
	</node>
	<node id="-402760" lat="58.5556324983" lon="5.68941931049">
		<tag k="fixme" v="consider place=hamlet" />
		<tag k="name" v="Heia" />
		<tag k="place" v="farm" />
		<tag k="ssr:stedsnr" v="667334" />
	</node>
	<node id="-402759" lat="58.5598242385" lon="5.66142672603">
		<tag k="fixme" v="consider place=hamlet" />
		<tag k="name" v="Hårr" />
		<tag k="place" v="farm" />
		<tag k="ssr:stedsnr" v="667332" />
	</node>
	<node id="-402758" lat="58.5705583321" lon="5.75998055661">
		<tag k="name" v="Tua" />
		<tag k="place" v="farm" />
		<tag k="ssr:stedsnr" v="667329" />
	</node>
	<node id="-402757" lat="58.5794694434" lon="5.70471389303">
		<tag k="name" v="Røysaland" />
		<tag k="place" v="farm" />
		<tag k="ssr:stedsnr" v="667318" />
	</node>
	<node id="-402756" lat="58.5822583335" lon="5.80299166879">
		<tag k="alt_name" v="Fossfjell" />
		<tag k="name" v="Fossfjellet" />
		<tag k="place" v="farm" />
		<tag k="ssr:stedsnr" v="667314" />
	</node>
	<node id="-402755" lat="58.6453611145" lon="5.61986944731">
		<tag k="alt_name" v="Båden" />
		<tag k="name" v="Båten" />
		<tag k="place" v="farm" />
		<tag k="ssr:stedsnr" v="667308" />
	</node>
	<node id="-402754" lat="58.6642888933" lon="5.70459166667">
		<tag k="alt_name" v="Spogerholen" />
		<tag k="name" v="Spogarholen" />
		<tag k="old_name" v="Spogaholen" />
		<tag k="place" v="farm" />
		<tag k="ssr:stedsnr" v="667295" />
	</node>
	<node id="-402753" lat="58.6171305578" lon="5.74943610849">
		<tag k="name" v="Myratjørna" />
		<tag k="natural" v="water" />
		<tag k="ssr:stedsnr" v="667281" />
	</node>
	<node id="-402752" lat="58.6340249987" lon="5.79405833687">
		<tag k="name" v="Storamoset" />
		<tag k="natural" v="water" />
		<tag k="ssr:stedsnr" v="667265" />
		<tag k="water" v="lake" />
	</node>
	<node id="-402751" lat="58.6397837202" lon="5.72773702824">
		<tag k="fixme" v="consider place=hamlet" />
		<tag k="name" v="Tjelmsenga" />
		<tag k="place" v="farm" />
		<tag k="ssr:stedsnr" v="667259" />
	</node>
	<node id="-402750" lat="58.6375583336" lon="5.64353333176">
		<tag k="name" v="Goabakken" />
		<tag k="place" v="farm" />
		<tag k="ssr:stedsnr" v="667255" />
	</node>
	<node id="-402749" lat="58.5669333328" lon="5.75245556374">
		<tag k="alt_name" v="Borgarfjellet" />
		<tag k="name" v="Borgaberget" />
		<tag k="natural" v="hill" />
		<tag k="place" v="locality" />
		<tag k="ssr:stedsnr" v="667327" />
	</node>
	<node id="-402748" lat="58.5867750027" lon="5.6485277788">
		<tag k="name" v="Røysa" />
		<tag k="place" v="farm" />
		<tag k="ssr:stedsnr" v="666882" />
	</node>
	<node id="-402747" lat="58.5368361119" lon="5.72863888788">
		<tag k="name" v="S Laksaberget" />
		<tag k="natural" v="hill" />
		<tag k="place" v="locality" />
		<tag k="ssr:stedsnr" v="665952" />
	</node>
	<node id="-402746" lat="58.5185305511" lon="5.7871555534">
		<tag k="name" v="Laugaberget" />
		<tag k="natural" v="hill" />
		<tag k="place" v="locality" />
		<tag k="ssr:stedsnr" v="665932" />
	</node>
	<node id="-402745" lat="58.6170194413" lon="5.59856111779">
		<tag k="name" v="Tvibogan" />
		<tag k="place" v="locality" />
		<tag k="seamark:type" v="rock" />
		<tag k="ssr:stedsnr" v="665101" />
	</node>
	<node id="-402744" lat="58.5546583352" lon="5.70723334109">
		<tag k="name" v="Grønhaugen" />
		<tag k="natural" v="hill" />
		<tag k="place" v="locality" />
		<tag k="ssr:stedsnr" v="664975" />
	</node>
	<node id="-402743" lat="58.5815250046" lon="5.71952500485">
		<tag k="name" v="Andreasplasset" />
		<tag k="place" v="locality" />
		<tag k="ssr:stedsnr" v="664905" />
	</node>
	<node id="-402742" lat="58.6360270985" lon="5.63729640819">
		<tag k="name" v="Dysjalandronga" />
		<tag k="place" v="farm" />
		<tag k="ssr:stedsnr" v="664545" />
	</node>
	<node id="-402741" lat="58.6065999992" lon="5.8083166747">
		<tag k="name" v="Hårrsteinen" />
		<tag k="natural" v="stone" />
		<tag k="ssr:stedsnr" v="662716" />
	</node>
	<node id="-402740" lat="58.4922027802" lon="5.81577500411">
		<tag k="name" v="Stemmavatnet" />
		<tag k="natural" v="water" />
		<tag k="ssr:stedsnr" v="662020" />
		<tag k="water" v="lake" />
	</node>
	<node id="-402739" lat="58.6117388846" lon="5.84731944134">
		<tag k="bridge" v="yes" />
		<tag k="layer" v="1" />
		<tag k="name" v="Topdal (Øvre)" />
		<tag k="ssr:stedsnr" v="653751" />
	</node>
	<node id="-402738" lat="58.6246444413" lon="5.6440555584">
		<tag k="bridge" v="yes" />
		<tag k="layer" v="1" />
		<tag k="name" v="Hobberstad" />
		<tag k="ssr:stedsnr" v="653735" />
	</node>
	<node id="-402737" lat="58.6177249965" lon="5.61113611679">
		<tag k="bridge" v="yes" />
		<tag k="layer" v="1" />
		<tag k="name" v="Bodle" />
		<tag k="ssr:stedsnr" v="653732" />
	</node>
	<node id="-402736" lat="58.6246305554" lon="5.68496388176">
		<tag k="bridge" v="yes" />
		<tag k="layer" v="1" />
		<tag k="name" v="Primstad" />
		<tag k="ssr:stedsnr" v="653727" />
	</node>
	<node id="-402735" lat="58.578252776" lon="5.82067222323">
		<tag k="name" v="Slettene" />
		<tag k="natural" v="slope" />
		<tag k="place" v="locality" />
		<tag k="ssr:stedsnr" v="648640" />
	</node>
	<node id="-402734" lat="58.6315777746" lon="5.67929167401">
		<tag k="name" v="Raudaland" />
		<tag k="place" v="locality" />
		<tag k="ssr:stedsnr" v="646587" />
	</node>
	<node id="-402733" lat="58.6135972186" lon="5.71791389408">
		<tag k="name" v="Småelgane" />
		<tag k="natural" v="hill" />
		<tag k="place" v="locality" />
		<tag k="ssr:stedsnr" v="646558" />
	</node>
	<node id="-402732" lat="58.6161694461" lon="5.67849722504">
		<tag k="name" v="Rindå" />
		<tag k="place" v="farm" />
		<tag k="ssr:stedsnr" v="646546" />
	</node>
	<node id="-402731" lat="58.611927775" lon="5.66291389424">
		<tag k="name" v="Fagerheim" />
		<tag k="place" v="farm" />
		<tag k="ssr:stedsnr" v="646535" />
	</node>
	<node id="-402730" lat="58.6066000039" lon="5.73036667274">
		<tag k="alt_name" v="Søndre Skuthella" />
		<tag k="name" v="Søre Skuthella" />
		<tag k="natural" v="stone" />
		<tag k="ssr:stedsnr" v="646528" />
	</node>
	<node id="-402729" lat="58.5043166662" lon="5.78985555095">
		<tag k="name" v="Vestre Odden" />
		<tag k="natural" v="cape" />
		<tag k="ssr:stedsnr" v="646513" />
	</node>
	<node id="-402728" lat="58.4842749984" lon="5.81545555943">
		<tag k="name" v="Svenskevika" />
		<tag k="natural" v="bay" />
		<tag k="ssr:stedsnr" v="646486" />
	</node>
	<node id="-402727" lat="58.6733555528" lon="5.63671389252">
		<tag k="amenity" v="school" />
		<tag k="name" v="Tryggheim" />
		<tag k="ssr:stedsnr" v="646344" />
	</node>
	<node id="-402726" lat="58.6818416665" lon="5.70628332478">
		<tag k="name" v="Risabekken" />
		<tag k="ssr:stedsnr" v="646338" />
		<tag k="waterway" v="stream" />
	</node>
	<node id="-402725" lat="58.6517361083" lon="5.67709722988">
		<tag k="name" v="Hålandshaugen" />
		<tag k="natural" v="hill" />
		<tag k="place" v="locality" />
		<tag k="ssr:stedsnr" v="646331" />
	</node>
	<node id="-402724" lat="58.5855916702" lon="5.63943332508">
		<tag k="name" v="Skrettingskjeret" />
		<tag k="natural" v="cape" />
		<tag k="ssr:stedsnr" v="645206" />
	</node>
	<node id="-402723" lat="58.5801611091" lon="5.63998888608">
		<tag k="name" v="Skålasteinen" />
		<tag k="place" v="locality" />
		<tag k="seamark:type" v="rock" />
		<tag k="ssr:stedsnr" v="645205" />
	</node>
	<node id="-402722" lat="58.5193444469" lon="5.78412500371">
		<tag k="name" v="Austmannsberget" />
		<tag k="natural" v="cape" />
		<tag k="ssr:stedsnr" v="645189" />
	</node>
	<node id="-402721" lat="58.6911499958" lon="5.55043055091">
		<tag k="name" v="Revsnessanden" />
		<tag k="natural" v="beach" />
		<tag k="place" v="locality" />
		<tag k="ssr:stedsnr" v="645038" />
	</node>
	<node id="-402720" lat="58.634530557" lon="5.58608332979">
		<tag k="name" v="Kvassesteinen" />
		<tag k="natural" v="cape" />
		<tag k="ssr:stedsnr" v="645009" />
	</node>
	<node id="-402719" lat="58.5085055513" lon="5.81838332967">
		<tag k="name" v="Skogaskaret" />
		<tag k="place" v="farm" />
		<tag k="ssr:stedsnr" v="646158" />
	</node>
	<node id="-402718" lat="58.5827055558" lon="5.83543055759">
		<tag k="fixme" v="consider natural=peak for the most distinct mountains in the district" />
		<tag k="name" v="Hedlarfjellet" />
		<tag k="natural" v="hill" />
		<tag k="place" v="locality" />
		<tag k="ssr:stedsnr" v="629733" />
	</node>
	<node id="-402717" lat="58.642222224" lon="5.65204445168">
		<tag k="name" v="Ronga" />
		<tag k="place" v="farm" />
		<tag k="ssr:stedsnr" v="629340" />
	</node>
	<node id="-402716" lat="58.6017596703" lon="5.79187881752">
		<tag k="name" v="Anisdalheia" />
		<tag k="natural" v="hill" />
		<tag k="place" v="locality" />
		<tag k="ssr:stedsnr" v="629335" />
	</node>
	<node id="-402715" lat="58.5215694412" lon="5.86148889699">
		<tag k="name" v="Ruskeslåtta" />
		<tag k="natural" v="wetland" />
		<tag k="ssr:stedsnr" v="629146" />
	</node>
	<node id="-402714" lat="58.5729500039" lon="5.86258333846">
		<tag k="name" v="Bjørnsivatnet" />
		<tag k="natural" v="water" />
		<tag k="ssr:stedsnr" v="629132" />
		<tag k="water" v="lake" />
	</node>
	<node id="-402713" lat="58.5808750038" lon="5.86239166226">
		<tag k="name" v="Litle Buskavatnet" />
		<tag k="natural" v="water" />
		<tag k="ssr:stedsnr" v="629127" />
		<tag k="water" v="lake" />
	</node>
	<node id="-402712" lat="58.5188000017" lon="5.84790555931">
		<tag k="name" v="Hedletjørna" />
		<tag k="natural" v="water" />
		<tag k="ssr:stedsnr" v="629114" />
		<tag k="water" v="lake" />
	</node>
	<node id="-402711" lat="58.6888138908" lon="5.54865555927">
		<tag k="name" v="Saltebukta" />
		<tag k="natural" v="bay" />
		<tag k="ssr:stedsnr" v="606794" />
	</node>
	<node id="-402709" lat="58.6741793736" lon="5.6713854833">
		<tag k="fixme" v="consider place=hamlet" />
		<tag k="name" v="Gudmestad" />
		<tag k="place" v="farm" />
		<tag k="ssr:stedsnr" v="606751" />
	</node>
	<node id="-402708" lat="58.4952083349" lon="5.79719722647">
		<tag k="name" v="Husatjørna" />
		<tag k="natural" v="water" />
		<tag k="ssr:stedsnr" v="606734" />
	</node>
	<node id="-402707" lat="58.4851021163" lon="5.81739561557">
		<tag k="name" v="Holmavågen" />
		<tag k="natural" v="bay" />
		<tag k="ssr:stedsnr" v="606682" />
	</node>
	<node id="-402706" lat="58.5138166633" lon="5.7953277708">
		<tag k="name" v="Ognasanden" />
		<tag k="natural" v="beach" />
		<tag k="place" v="locality" />
		<tag k="ssr:stedsnr" v="606406" />
	</node>
	<node id="-402705" lat="58.5472306313" lon="5.74414258634">
		<tag k="fixme" v="consider place=hamlet" />
		<tag k="name" v="Sandve" />
		<tag k="place" v="farm" />
		<tag k="ssr:stedsnr" v="606399" />
	</node>
	<node id="-402704" lat="58.5502441326" lon="5.71959249997">
		<tag k="fixme" v="consider place=hamlet" />
		<tag k="name" v="Roligheden" />
		<tag k="place" v="farm" />
		<tag k="ssr:stedsnr" v="606397" />
	</node>
	<node id="-402703" lat="58.5484166639" lon="5.67584999886">
		<tag k="name" v="Øyrvika" />
		<tag k="natural" v="bay" />
		<tag k="ssr:stedsnr" v="606394" />
	</node>
	<node id="-402702" lat="58.5502805592" lon="5.66711389674">
		<tag k="name" v="Øyrtangen" />
		<tag k="natural" v="cape" />
		<tag k="ssr:stedsnr" v="606392" />
	</node>
	<node id="-402701" lat="58.538366525" lon="5.76218658027">
		<tag k="fixme" v="consider place=hamlet" />
		<tag k="name" v="Bru" />
		<tag k="place" v="farm" />
		<tag k="ssr:stedsnr" v="606388" />
	</node>
	<node id="-402700" lat="58.5466499967" lon="5.79190555111">
		<tag k="alt_name" v="Tårland" />
		<tag k="name" v="Torland" />
		<tag k="place" v="farm" />
		<tag k="ssr:stedsnr" v="606385" />
	</node>
	<node id="-402699" lat="58.6022888888" lon="5.70137499221">
		<tag k="name" v="Lobekk" />
		<tag k="place" v="farm" />
		<tag k="ssr:stedsnr" v="606329" />
	</node>
	<node id="-402698" lat="58.6076666648" lon="5.78461944186">
		<tag k="fixme" v="consider natural=peak for the most distinct mountains in the district" />
		<tag k="name" v="Gauleksvarden" />
		<tag k="natural" v="hill" />
		<tag k="place" v="locality" />
		<tag k="ssr:stedsnr" v="606319" />
	</node>
	<node id="-402697" lat="58.6046500031" lon="5.67009999527">
		<tag k="name" v="Toppaland" />
		<tag k="place" v="farm" />
		<tag k="ssr:stedsnr" v="606320" />
	</node>
	<node id="-402696" lat="58.5587888886" lon="5.78915555953">
		<tag k="alt_name" v="Fuglestadåa" />
		<tag k="name" v="Fuglestadåna" />
		<tag k="ssr:stedsnr" v="606314" />
		<tag k="waterway" v="river" />
	</node>
	<node id="-402695" lat="58.6436888874" lon="5.57556944417">
		<tag k="name" v="Kummelskjeret" />
		<tag k="natural" v="cape" />
		<tag k="ssr:stedsnr" v="606293" />
	</node>
	<node id="-402694" lat="58.6574544468" lon="5.62324663224">
		<tag k="fixme" v="consider place=hamlet" />
		<tag k="name" v="Audamotland" />
		<tag k="place" v="farm" />
		<tag k="ssr:stedsnr" v="606286" />
	</node>
	<node id="-402693" lat="58.6122047852" lon="5.67915961202">
		<tag k="fixme" v="consider place=hamlet" />
		<tag k="name" v="Skretting" />
		<tag k="place" v="farm" />
		<tag k="ssr:stedsnr" v="606268" />
	</node>
	<node id="-402692" lat="58.6310583316" lon="5.62930555562">
		<tag k="name" v="Rongjabekken" />
		<tag k="old_name" v="Rognabekken" />
		<tag k="ssr:stedsnr" v="606244" />
		<tag k="waterway" v="stream" />
	</node>
	<node id="-402691" lat="58.5664259771" lon="5.86945141398">
		<tag k="fixme" v="consider place=hamlet" />
		<tag k="name" v="Homse" />
		<tag k="place" v="farm" />
		<tag k="ssr:stedsnr" v="606101" />
	</node>
	<node id="-402690" lat="58.5978722261" lon="5.63603333635">
		<tag k="name" v="Husveggberget" />
		<tag k="natural" v="hill" />
		<tag k="place" v="locality" />
		<tag k="ssr:stedsnr" v="605903" />
	</node>
	<node id="-402689" lat="58.5194472257" lon="5.79896111896">
		<tag k="fixme" v="consider natural=peak for the most distinct mountains in the district" />
		<tag k="name" v="Lyptingen" />
		<tag k="natural" v="hill" />
		<tag k="place" v="locality" />
		<tag k="ssr:stedsnr" v="604950" />
	</node>
	<node id="-402688" lat="58.5375611082" lon="5.8117111102">
		<tag k="fixme" v="consider natural=peak for the most distinct mountains in the district" />
		<tag k="name" v="Stølsfjellet" />
		<tag k="natural" v="hill" />
		<tag k="place" v="locality" />
		<tag k="ssr:stedsnr" v="604947" />
	</node>
	<node id="-402687" lat="58.5225972236" lon="5.8247888872">
		<tag k="name" v="Hauskonhelleren" />
		<tag k="place" v="locality" />
		<tag k="ssr:stedsnr" v="604917" />
	</node>
	<node id="-402686" lat="58.6225833361" lon="5.60673888095">
		<tag k="name" v="Oterbekk" />
		<tag k="place" v="farm" />
		<tag k="ssr:stedsnr" v="604120" />
	</node>
	<node id="-402685" lat="58.535486108" lon="5.71026944105">
		<tag k="name" v="Kvalbeinsanden" />
		<tag k="natural" v="beach" />
		<tag k="ssr:stedsnr" v="603980" />
	</node>
	<node id="-402684" lat="58.5980079727" lon="5.75276439901">
		<tag k="name" v="Hyljebakkane" />
		<tag k="natural" v="hill" />
		<tag k="place" v="locality" />
		<tag k="ssr:stedsnr" v="603974" />
	</node>
	<node id="-402683" lat="58.5702759526" lon="5.68797653943">
		<tag k="name" v="Vigrestad stasjon" />
		<tag k="railway" v="station" />
		<tag k="ssr:stedsnr" v="603893" />
		<tag k="train" v="yes" />
	</node>
	<node id="-402682" lat="58.5764000028" lon="5.67295833371">
		<tag k="name" v="Kringla" />
		<tag k="place" v="farm" />
		<tag k="ssr:stedsnr" v="603888" />
	</node>
	<node id="-402681" lat="58.5876333332" lon="5.80951111892">
		<tag k="bridge" v="yes" />
		<tag k="layer" v="1" />
		<tag k="name" v="Fossefjellet" />
		<tag k="ssr:stedsnr" v="592768" />
	</node>
	<node id="-402680" lat="58.673216662" lon="5.65425277024">
		<tag k="bridge" v="yes" />
		<tag k="layer" v="1" />
		<tag k="name" v="Bjørhaug" />
		<tag k="ssr:stedsnr" v="592764" />
	</node>
	<node id="-402679" lat="58.6127833313" lon="5.62563889137">
		<tag k="bridge" v="yes" />
		<tag k="layer" v="1" />
		<tag k="name" v="Bratland" />
		<tag k="ssr:stedsnr" v="592763" />
	</node>
	<node id="-402678" lat="58.5477138868" lon="5.69079722827">
		<tag k="bridge" v="yes" />
		<tag k="layer" v="1" />
		<tag k="name" v="Kvassheim" />
		<tag k="ssr:stedsnr" v="592756" />
	</node>
	<node id="-402677" lat="58.5980166707" lon="5.75276111265">
		<tag k="name" v="Hyljebakkane" />
		<tag k="natural" v="slope" />
		<tag k="place" v="locality" />
		<tag k="ssr:stedsnr" v="588615" />
	</node>
	<node id="-402676" lat="58.5799305589" lon="5.74693610424">
		<tag k="landuse" v="meadow" />
		<tag k="name" v="Slåtta" />
		<tag k="ssr:stedsnr" v="588609" />
	</node>
	<node id="-402675" lat="58.4995305516" lon="5.79246388328">
		<tag k="name" v="Legetjørna" />
		<tag k="natural" v="water" />
		<tag k="ssr:stedsnr" v="588209" />
	</node>
	<node id="-402674" lat="58.5570361116" lon="5.77497777999">
		<tag k="name" v="Brotet" />
		<tag k="place" v="farm" />
		<tag k="ssr:stedsnr" v="587971" />
	</node>
	<node id="-402673" lat="58.5096222237" lon="5.79205833714">
		<tag k="name" v="Klubben" />
		<tag k="natural" v="cape" />
		<tag k="ssr:stedsnr" v="586997" />
	</node>
	<node id="-402672" lat="58.6162138908" lon="5.65175554819">
		<tag k="amenity" v="school" />
		<tag k="name" v="Varhaug" />
		<tag k="ssr:stedsnr" v="586549" />
	</node>
	<node id="-402671" lat="58.5061000008" lon="5.78963054853">
		<tag k="name" v="Indre Odden" />
		<tag k="natural" v="cape" />
		<tag k="ssr:stedsnr" v="585457" />
	</node>
	<node id="-402670" lat="58.4811388887" lon="5.82231389579">
		<tag k="name" v="Austmannholmen" />
		<tag k="place" v="islet" />
		<tag k="ssr:stedsnr" v="585445" />
	</node>
	<node id="-402669" lat="58.4843583303" lon="5.81809721485">
		<tag k="name" v="Fortunholmen" />
		<tag k="place" v="islet" />
		<tag k="ssr:stedsnr" v="585443" />
	</node>
	<node id="-402668" lat="58.6471222195" lon="5.65379443702">
		<tag k="name" v="Rongjå" />
		<tag k="place" v="locality" />
		<tag k="ssr:stedsnr" v="585311" />
	</node>
	<node id="-402667" lat="58.5759694441" lon="5.64949443901">
		<tag k="name" v="Brekkedalen" />
		<tag k="place" v="farm" />
		<tag k="ssr:stedsnr" v="585206" />
	</node>
	<node id="-402666" lat="58.5438361151" lon="5.67996944232">
		<tag k="name" v="Kvassheimstangen" />
		<tag k="natural" v="cape" />
		<tag k="ssr:stedsnr" v="585187" />
	</node>
	<node id="-402665" lat="58.6727555555" lon="5.54320833063">
		<tag k="name" v="Selvågsholet" />
		<tag k="natural" v="bay" />
		<tag k="ssr:stedsnr" v="585045" />
	</node>
	<node id="-402664" lat="58.6700111093" lon="5.54178888081">
		<tag k="name" v="Håtangen" />
		<tag k="natural" v="cape" />
		<tag k="ssr:stedsnr" v="585040" />
	</node>
	<node id="-402663" lat="58.6354305523" lon="5.58618611611">
		<tag k="name" v="Grødalandstangen" />
		<tag k="natural" v="cape" />
		<tag k="ssr:stedsnr" v="585017" />
	</node>
	<node id="-402662" lat="58.6403796091" lon="5.68558267975">
		<tag k="fixme" v="consider place=hamlet" />
		<tag k="name" v="Åna" />
		<tag k="place" v="farm" />
		<tag k="ssr:stedsnr" v="570615" />
	</node>
	<node id="-402661" lat="58.4904388902" lon="5.83375276908">
		<tag k="name" v="Vatnamot" />
		<tag k="place" v="farm" />
		<tag k="ssr:stedsnr" v="569902" />
	</node>
	<node id="-402660" lat="58.6430861134" lon="5.65804444183">
		<tag k="name" v="Ronga" />
		<tag k="place" v="farm" />
		<tag k="ssr:stedsnr" v="569323" />
	</node>
	<node id="-402659" lat="58.643422223" lon="5.65995277719">
		<tag k="name" v="Ronga" />
		<tag k="place" v="farm" />
		<tag k="ssr:stedsnr" v="569322" />
	</node>
	<node id="-402658" lat="58.5938694466" lon="5.83931666378">
		<tag k="fixme" v="consider natural=peak for the most distinct mountains in the district" />
		<tag k="name" v="Kvernhammaren" />
		<tag k="natural" v="hill" />
		<tag k="place" v="locality" />
		<tag k="ssr:stedsnr" v="568733" />
	</node>
	<node id="-402657" lat="58.605038885" lon="5.85465554809">
		<tag k="name" v="Hundstjørna" />
		<tag k="natural" v="water" />
		<tag k="ssr:stedsnr" v="568728" />
	</node>
	<node id="-402656" lat="58.6083388867" lon="5.87899999678">
		<tag k="name" v="Brusatjørna" />
		<tag k="natural" v="water" />
		<tag k="ssr:stedsnr" v="568726" />
	</node>
	<node id="-402655" lat="58.5242194405" lon="5.85236111188">
		<tag k="fixme" v="consider natural=peak for the most distinct mountains in the district" />
		<tag k="name" v="Vadlåsen" />
		<tag k="natural" v="hill" />
		<tag k="place" v="locality" />
		<tag k="ssr:stedsnr" v="568152" />
	</node>
	<node id="-402654" lat="58.5112777804" lon="5.85324722706">
		<tag k="name" v="Rauetjørna" />
		<tag k="natural" v="water" />
		<tag k="ssr:stedsnr" v="568115" />
	</node>
	<node id="-402653" lat="58.6135333305" lon="5.66389444072">
		<tag k="name" v="Tjemsland" />
		<tag k="place" v="farm" />
		<tag k="ssr:stedsnr" v="547165" />
	</node>
	<node id="-402652" lat="58.6872046046" lon="5.58120407978">
		<tag k="fixme" v="consider place=hamlet" />
		<tag k="name" v="Høyland" />
		<tag k="place" v="farm" />
		<tag k="ssr:stedsnr" v="546775" />
	</node>
	<node id="-402651" lat="58.671011109" lon="5.65420833705">
		<tag k="name" v="Bø" />
		<tag k="place" v="farm" />
		<tag k="ssr:stedsnr" v="546744" />
	</node>
	<node id="-402650" lat="58.6686912906" lon="5.67907010214">
		<tag k="fixme" v="consider place=hamlet" />
		<tag k="name" v="Grødheim" />
		<tag k="place" v="farm" />
		<tag k="ssr:stedsnr" v="546743" />
	</node>
	<node id="-402649" lat="58.6706000033" lon="5.55553054809">
		<tag k="name" v="Nærland" />
		<tag k="place" v="farm" />
		<tag k="ssr:stedsnr" v="546738" />
	</node>
	<node id="-402648" lat="58.6815583477" lon="5.72362491023">
		<tag k="fixme" v="consider place=hamlet" />
		<tag k="name" v="Risa" />
		<tag k="place" v="farm" />
		<tag k="ssr:stedsnr" v="546729" />
	</node>
	<node id="-402647" lat="58.4920000035" lon="5.80388888267">
		<tag k="name" v="Bekkjarvika" />
		<tag k="place" v="farm" />
		<tag k="ssr:stedsnr" v="546708" />
	</node>
	<node id="-402646" lat="58.5244861099" lon="5.79741666534">
		<tag k="name" v="Grønefit" />
		<tag k="old_name" v="Grønefet" />
		<tag k="place" v="farm" />
		<tag k="ssr:stedsnr" v="546405" />
	</node>
	<node id="-402645" lat="58.5380166662" lon="5.79083610545">
		<tag k="name" v="Dybingen" />
		<tag k="natural" v="water" />
		<tag k="ssr:stedsnr" v="546403" />
		<tag k="water" v="lake" />
	</node>
	<node id="-402644" lat="58.5111000027" lon="5.8350750023">
		<tag k="alt_name" v="Surtetjørna" />
		<tag k="name" v="Skjortetjørni" />
		<tag k="natural" v="water" />
		<tag k="ssr:stedsnr" v="546401" />
	</node>
	<node id="-402643" lat="58.5241452934" lon="5.83099218538">
		<tag k="fixme" v="consider place=hamlet" />
		<tag k="name" v="Søra Hetland" />
		<tag k="place" v="farm" />
		<tag k="ssr:stedsnr" v="546394" />
	</node>
	<node id="-402642" lat="58.5451275781" lon="5.73247811008">
		<tag k="fixme" v="consider place=hamlet" />
		<tag k="name" v="Kverme" />
		<tag k="place" v="farm" />
		<tag k="ssr:stedsnr" v="546392" />
	</node>
	<node id="-402641" lat="58.5895500019" lon="5.83019444597">
		<tag k="name" v="Heia" />
		<tag k="place" v="farm" />
		<tag k="ssr:stedsnr" v="546341" />
	</node>
	<node id="-402640" lat="58.5783586384" lon="5.69171306041">
		<tag k="fixme" v="consider place=hamlet" />
		<tag k="name" v="Småhaugane" />
		<tag k="place" v="farm" />
		<tag k="ssr:stedsnr" v="546336" />
	</node>
	<node id="-402639" lat="58.6104277807" lon="5.83465833519">
		<tag k="name" v="Dalheim" />
		<tag k="place" v="farm" />
		<tag k="ssr:stedsnr" v="546328" />
	</node>
	<node id="-402638" lat="58.6049416624" lon="5.72831388622">
		<tag k="name" v="Skutholen" />
		<tag k="place" v="farm" />
		<tag k="ssr:stedsnr" v="546322" />
	</node>
	<node id="-402637" lat="58.5662527747" lon="5.82877499502">
		<tag k="alt_name" v="Gulldrag" />
		<tag k="name" v="Gulldragvatnet" />
		<tag k="natural" v="water" />
		<tag k="ssr:stedsnr" v="546316" />
	</node>
	<node id="-402636" lat="58.5525666631" lon="5.67403054796">
		<tag k="name" v="Nygard" />
		<tag k="place" v="farm" />
		<tag k="ssr:stedsnr" v="546314" />
	</node>
	<node id="-402635" lat="58.5776249997" lon="5.71888889346">
		<tag k="name" v="Prøysen" />
		<tag k="place" v="farm" />
		<tag k="ssr:stedsnr" v="546303" />
	</node>
	<node id="-402634" lat="58.5772138898" lon="5.81613888346">
		<tag k="fixme" v="consider natural=peak for the most distinct mountains in the district" />
		<tag k="name" v="Knuten" />
		<tag k="natural" v="hill" />
		<tag k="old_name" v="Knuden;Åsaknuten" />
		<tag k="place" v="locality" />
		<tag k="ssr:stedsnr" v="546298" />
	</node>
	<node id="-402633" lat="58.6545861097" lon="5.71114443699">
		<tag k="fixme" v="consider natural=peak for the most distinct mountains in the district" />
		<tag k="name" v="Kanaheia" />
		<tag k="natural" v="hill" />
		<tag k="place" v="locality" />
		<tag k="ssr:stedsnr" v="546282" />
	</node>
	<node id="-402632" lat="58.6517677604" lon="5.68760069986">
		<tag k="fixme" v="consider place=hamlet" />
		<tag k="name" v="Oppstad" />
		<tag k="place" v="farm" />
		<tag k="ssr:stedsnr" v="546281" />
	</node>
	<node id="-402631" lat="58.6451154127" lon="5.59148117278">
		<tag k="fixme" v="consider place=hamlet" />
		<tag k="name" v="Reime" />
		<tag k="place" v="farm" />
		<tag k="ssr:stedsnr" v="546278" />
	</node>
	<node id="-402630" lat="58.6617888894" lon="5.61261944099">
		<tag k="name" v="Lodetjørna" />
		<tag k="natural" v="water" />
		<tag k="ssr:stedsnr" v="546268" />
	</node>
	<node id="-402629" lat="58.6168361097" lon="5.77747499501">
		<tag k="fixme" v="consider natural=peak for the most distinct mountains in the district" />
		<tag k="name" v="Årnistheia" />
		<tag k="natural" v="hill" />
		<tag k="place" v="locality" />
		<tag k="ssr:stedsnr" v="546266" />
	</node>
	<node id="-402628" lat="58.6279500021" lon="5.79025000518">
		<tag k="alt_name" v="Obrestadheia" />
		<tag k="fixme" v="consider natural=peak for the most distinct mountains in the district" />
		<tag k="name" v="Storamosheia" />
		<tag k="natural" v="hill" />
		<tag k="place" v="locality" />
		<tag k="ssr:stedsnr" v="546261" />
	</node>
	<node id="-402627" lat="58.541866671" lon="5.90957222282">
		<tag k="name" v="Øvrabøvatnet" />
		<tag k="natural" v="water" />
		<tag k="ssr:stedsnr" v="546094" />
		<tag k="water" v="lake" />
	</node>
	<node id="-402626" lat="58.5478083338" lon="5.87810556207">
		<tag k="alt_name" v="Bjønndalsvatnet" />
		<tag k="name" v="Bjørndalsvatni" />
		<tag k="natural" v="water" />
		<tag k="ssr:stedsnr" v="546088" />
	</node>
	<node id="-402625" lat="58.5362416708" lon="5.81324166006">
		<tag k="fixme" v="consider natural=peak for the most distinct mountains in the district" />
		<tag k="name" v="Bekkjadalen" />
		<tag k="natural" v="hill" />
		<tag k="place" v="locality" />
		<tag k="ssr:stedsnr" v="544916" />
	</node>
	<node id="-402624" lat="58.5965555526" lon="5.65521944793">
		<tag k="name" v="Odland" />
		<tag k="place" v="farm" />
		<tag k="ssr:stedsnr" v="544907" />
	</node>
	<node id="-402623" lat="58.6016805517" lon="5.62397221627">
		<tag k="name" v="Varhaug" />
		<tag k="place" v="farm" />
		<tag k="ssr:stedsnr" v="544906" />
	</node>
	<node id="-402622" lat="58.5868416662" lon="5.64387499479">
		<tag k="name" v="Stamphuset" />
		<tag k="place" v="farm" />
		<tag k="ssr:stedsnr" v="544902" />
	</node>
	<node id="-402621" lat="58.4876555558" lon="5.80830834088">
		<tag k="bay" v="fjord" />
		<tag k="name" v="Kinnarvåggapet" />
		<tag k="natural" v="bay" />
		<tag k="ssr:stedsnr" v="544566" />
	</node>
	<node id="-402620" lat="58.5002361134" lon="5.78444445006">
		<tag k="name" v="Bekkjarvikodden" />
		<tag k="natural" v="cape" />
		<tag k="ssr:stedsnr" v="544564" />
	</node>
	<node id="-402619" lat="58.5733000026" lon="5.70935277597">
		<tag k="name" v="Øygard (Hadland nordre)" />
		<tag k="place" v="farm" />
		<tag k="ssr:stedsnr" v="543867" />
	</node>
	<node id="-402618" lat="58.4828277743" lon="5.84816666696">
		<tag k="name" v="Moikleiva" />
		<tag k="natural" v="hill" />
		<tag k="place" v="locality" />
		<tag k="ssr:stedsnr" v="543065" />
	</node>
	<node id="-402617" lat="58.615413886" lon="5.60993333222">
		<tag k="name" v="Kålhaug" />
		<tag k="natural" v="hill" />
		<tag k="place" v="locality" />
		<tag k="ssr:stedsnr" v="542567" />
	</node>
	<node id="-402616" lat="58.5665027771" lon="5.65562223027">
		<tag k="bridge" v="yes" />
		<tag k="layer" v="1" />
		<tag k="name" v="Stavnheimsvika" />
		<tag k="ssr:stedsnr" v="532735" />
	</node>
	<node id="-402615" lat="58.6810194446" lon="5.59157777575">
		<tag k="bridge" v="yes" />
		<tag k="layer" v="1" />
		<tag k="name" v="Søyland" />
		<tag k="ssr:stedsnr" v="532733" />
	</node>
	<node id="-402614" lat="58.5668861123" lon="5.69753055492">
		<tag k="bridge" v="yes" />
		<tag k="layer" v="1" />
		<tag k="name" v="Rundvegen" />
		<tag k="ssr:stedsnr" v="532730" />
	</node>
	<node id="-402613" lat="58.6121277758" lon="5.63887500838">
		<tag k="bridge" v="yes" />
		<tag k="layer" v="1" />
		<tag k="name" v="Reiestad (Nedre)" />
		<tag k="ssr:stedsnr" v="532711" />
	</node>
	<node id="-402612" lat="58.6871583335" lon="5.56100554907">
		<tag k="bridge" v="yes" />
		<tag k="layer" v="1" />
		<tag k="name" v="Refsnes" />
		<tag k="ssr:stedsnr" v="532710" />
	</node>
	<node id="-402611" lat="58.5885694426" lon="5.69702221813">
		<tag k="name" v="Trillura" />
		<tag k="place" v="locality" />
		<tag k="ssr:stedsnr" v="527888" />
	</node>
	<node id="-402610" lat="58.5838333328" lon="5.72512778099">
		<tag k="name" v="Tolleivplasset" />
		<tag k="place" v="locality" />
		<tag k="ssr:stedsnr" v="527618" />
	</node>
	<node id="-402609" lat="58.5677527766" lon="5.74345555413">
		<tag k="fixme" v="consider natural=peak for the most distinct mountains in the district" />
		<tag k="name" v="Mauravarden" />
		<tag k="natural" v="hill" />
		<tag k="place" v="locality" />
		<tag k="ssr:stedsnr" v="527612" />
	</node>
	<node id="-402608" lat="58.5800638909" lon="5.72284722464">
		<tag k="name" v="Østerig" />
		<tag k="place" v="farm" />
		<tag k="ssr:stedsnr" v="527606" />
	</node>
	<node id="-402607" lat="58.6154722197" lon="5.70864166129">
		<tag k="name" v="Rudlå" />
		<tag k="place" v="locality" />
		<tag k="ssr:stedsnr" v="525568" />
	</node>
	<node id="-402606" lat="58.6139472215" lon="5.63248889246">
		<tag k="name" v="Komlarvoll" />
		<tag k="place" v="farm" />
		<tag k="ssr:stedsnr" v="525554" />
	</node>
	<node id="-402604" lat="58.5027194423" lon="5.78525277643">
		<tag k="name" v="Klenavika" />
		<tag k="natural" v="bay" />
		<tag k="ssr:stedsnr" v="525492" />
	</node>
	<node id="-402603" lat="58.6763972247" lon="5.66035833558">
		<tag k="name" v="Støberget" />
		<tag k="natural" v="hill" />
		<tag k="place" v="locality" />
		<tag k="ssr:stedsnr" v="525374" />
	</node>
	<node id="-402602" lat="58.6588055595" lon="5.62485000226">
		<tag k="name" v="Audamotlandstjørna" />
		<tag k="natural" v="water" />
		<tag k="ssr:stedsnr" v="525366" />
	</node>
	<node id="-402601" lat="58.6687999968" lon="5.5458777737">
		<tag k="name" v="Brennevinsholet" />
		<tag k="natural" v="bay" />
		<tag k="ssr:stedsnr" v="524030" />
	</node>
	<node id="-402600" lat="58.6848305583" lon="5.54907222729">
		<tag k="name" v="Nærlandssanden" />
		<tag k="natural" v="beach" />
		<tag k="place" v="locality" />
		<tag k="ssr:stedsnr" v="524025" />
	</node>
	<node id="-402599" lat="58.6764583337" lon="5.54425554828">
		<tag k="name" v="Selvågstangen" />
		<tag k="natural" v="cape" />
		<tag k="ssr:stedsnr" v="524026" />
	</node>
	<node id="-402598" lat="58.5629388932" lon="5.65961666859">
		<tag k="name" v="Åros" />
		<tag k="place" v="farm" />
		<tag k="ssr:stedsnr" v="524203" />
	</node>
	<node id="-402597" lat="58.4832361115" lon="5.82707777946">
		<tag k="name" v="Holmane" />
		<tag k="place" v="farm" />
		<tag k="ssr:stedsnr" v="508935" />
	</node>
	<node id="-402596" lat="58.5316722263" lon="5.85510833678">
		<tag k="name" v="Rabali" />
		<tag k="natural" v="slope" />
		<tag k="place" v="locality" />
		<tag k="ssr:stedsnr" v="508147" />
	</node>
	<node id="-402595" lat="58.689530559" lon="5.65920000681">
		<tag k="alt_name" v="Tverråa" />
		<tag k="name" v="Tverråna" />
		<tag k="ssr:stedsnr" v="485782" />
		<tag k="waterway" v="stream" />
	</node>
	<node id="-402594" lat="58.694501896" lon="5.56584351518">
		<tag k="fixme" v="consider place=hamlet" />
		<tag k="name" v="Refsnes" />
		<tag k="place" v="farm" />
		<tag k="ssr:stedsnr" v="485779" />
	</node>
	<node id="-402593" lat="58.670318105" lon="5.57562994553">
		<tag k="fixme" v="consider place=hamlet" />
		<tag k="name" v="Njærheim" />
		<tag k="place" v="farm" />
		<tag k="ssr:stedsnr" v="485727" />
	</node>
	<node id="-402592" lat="58.482730555" lon="5.81041389222">
		<tag k="name" v="Svarte Odden" />
		<tag k="place" v="islet" />
		<tag k="ssr:stedsnr" v="485638" />
	</node>
	<node id="-402591" lat="58.508769449" lon="5.79113889578">
		<tag k="name" v="Sannarvågen" />
		<tag k="natural" v="bay" />
		<tag k="ssr:stedsnr" v="485362" />
	</node>
	<node id="-402590" lat="58.5156111086" lon="5.80827499562">
		<tag k="alt_name" v="Ogna" />
		<tag k="amenity" v="place_of_worship" />
		<tag k="denomination" v="lutheran" />
		<tag k="name" v="Ogna kyrkje" />
		<tag k="religion" v="christian" />
		<tag k="ssr:stedsnr" v="485358" />
	</node>
	<node id="-402589" lat="58.5496622454" lon="5.76496554738">
		<tag k="fixme" v="consider place=hamlet" />
		<tag k="name" v="Bø" />
		<tag k="place" v="farm" />
		<tag k="ssr:stedsnr" v="485355" />
	</node>
	<node id="-402588" lat="58.5420507661" lon="5.70899522927">
		<tag k="fixme" v="consider place=hamlet" />
		<tag k="name" v="Kvalbein" />
		<tag k="place" v="farm" />
		<tag k="ssr:stedsnr" v="485347" />
	</node>
	<node id="-402587" lat="58.5995916673" lon="5.73132778544">
		<tag k="name" v="Hålandsbotn" />
		<tag k="place" v="farm" />
		<tag k="ssr:stedsnr" v="485298" />
	</node>
	<node id="-402586" lat="58.6029204815" lon="5.68123061124">
		<tag k="fixme" v="consider place=hamlet" />
		<tag k="name" v="Auestad" />
		<tag k="place" v="farm" />
		<tag k="ssr:stedsnr" v="485286" />
	</node>
	<node id="-402585" lat="58.5718499956" lon="5.8129249999">
		<tag k="name" v="Åsane" />
		<tag k="place" v="farm" />
		<tag k="ssr:stedsnr" v="485279" />
	</node>
	<node id="-402584" lat="58.5667861155" lon="5.72007499428">
		<tag k="name" v="Torvholen" />
		<tag k="place" v="farm" />
		<tag k="ssr:stedsnr" v="485271" />
	</node>
	<node id="-402583" lat="58.5767999957" lon="5.71583611337">
		<tag k="name" v="Øydgardsheia" />
		<tag k="old_name" v="Øygardsheia" />
		<tag k="place" v="farm" />
		<tag k="ssr:stedsnr" v="485266" />
	</node>
	<node id="-402582" lat="58.5728325562" lon="5.76441333012">
		<tag k="fixme" v="consider place=hamlet" />
		<tag k="name" v="Egra" />
		<tag k="place" v="farm" />
		<tag k="ssr:stedsnr" v="485261" />
	</node>
	<node id="-402581" lat="58.5820083333" lon="5.79506389698">
		<tag k="name" v="Engjane" />
		<tag k="place" v="farm" />
		<tag k="ssr:stedsnr" v="485250" />
	</node>
	<node id="-402580" lat="58.6412138897" lon="5.6478361097">
		<tag k="name" v="Ronga" />
		<tag k="place" v="farm" />
		<tag k="ssr:stedsnr" v="485247" />
	</node>
	<node id="-402579" lat="58.6653416701" lon="5.70931943928">
		<tag k="alt_name" v="Trikanten" />
		<tag k="name" v="Trekanten" />
		<tag k="place" v="farm" />
		<tag k="ssr:stedsnr" v="485234" />
	</node>
	<node id="-402578" lat="58.6643527012" lon="5.61032286495">
		<tag k="fixme" v="consider place=hamlet" />
		<tag k="name" v="Lode" />
		<tag k="place" v="farm" />
		<tag k="ssr:stedsnr" v="485230" />
	</node>
	<node id="-402577" lat="58.6346466944" lon="5.67332100808">
		<tag k="fixme" v="consider place=hamlet" />
		<tag k="name" v="Tvihaug" />
		<tag k="place" v="farm" />
		<tag k="ssr:stedsnr" v="485208" />
	</node>
	<node id="-402576" lat="58.6327555596" lon="5.61293610381">
		<tag k="name" v="Sunde" />
		<tag k="place" v="farm" />
		<tag k="ssr:stedsnr" v="485203" />
	</node>
	<node id="-402575" lat="58.5659499959" lon="5.85109722667">
		<tag k="alt_name" v="Røyrtjørna" />
		<tag k="name" v="Røyrtjørni" />
		<tag k="natural" v="water" />
		<tag k="old_name" v="Røyrvatnet" />
		<tag k="ssr:stedsnr" v="485086" />
	</node>
	<node id="-402574" lat="58.6152777821" lon="5.85864166438">
		<tag k="name" v="Dagvelja" />
		<tag k="natural" v="water" />
		<tag k="ssr:stedsnr" v="485023" />
	</node>
	<node id="-402573" lat="58.5271222186" lon="5.85128610702">
		<tag k="name" v="Forevad" />
		<tag k="place" v="locality" />
		<tag k="ssr:stedsnr" v="484886" />
	</node>
	<node id="-402572" lat="58.5285722191" lon="5.77822778111">
		<tag k="name" v="Varatua" />
		<tag k="natural" v="hill" />
		<tag k="place" v="locality" />
		<tag k="ssr:stedsnr" v="483963" />
	</node>
	<node id="-402571" lat="58.5184833342" lon="5.82711667201">
		<tag k="fixme" v="consider natural=peak for the most distinct mountains in the district" />
		<tag k="name" v="Risetind" />
		<tag k="natural" v="hill" />
		<tag k="place" v="locality" />
		<tag k="ssr:stedsnr" v="483950" />
	</node>
	<node id="-402570" lat="58.557480552" lon="5.7477277723">
		<tag k="fixme" v="consider natural=peak for the most distinct mountains in the district" />
		<tag k="name" v="Svarta-fjellet" />
		<tag k="natural" v="hill" />
		<tag k="place" v="locality" />
		<tag k="ssr:stedsnr" v="482949" />
	</node>
	<node id="-402569" lat="58.5504805513" lon="5.76987221801">
		<tag k="fixme" v="consider natural=peak for the most distinct mountains in the district" />
		<tag k="name" v="Torshammaren" />
		<tag k="natural" v="hill" />
		<tag k="place" v="locality" />
		<tag k="ssr:stedsnr" v="482948" />
	</node>
	<node id="-402568" lat="58.648238885" lon="5.57129444711">
		<tag k="name" v="Kvalabukta" />
		<tag k="natural" v="bay" />
		<tag k="ssr:stedsnr" v="482943" />
	</node>
	<node id="-402567" lat="58.5641666653" lon="5.69250832816">
		<tag k="name" v="Jersheia" />
		<tag k="place" v="farm" />
		<tag k="ssr:stedsnr" v="482882" />
	</node>
	<node id="-402566" lat="58.5739833297" lon="5.68101666817">
		<tag k="name" v="Høyen" />
		<tag k="place" v="farm" />
		<tag k="ssr:stedsnr" v="482598" />
	</node>
	<node id="-402565" lat="58.6574266066" lon="5.60080506715">
		<tag k="man_made" v="tower" />
		<tag k="name" v="Rogaland Radio" />
		<tag k="ssr:stedsnr" v="482345" />
		<tag k="tower:type" v="communications" />
	</node>
	<node id="-402564" lat="58.5006143125" lon="5.80343097048">
		<tag k="fixme" v="consider place=hamlet" />
		<tag k="name" v="Nygård" />
		<tag k="place" v="farm" />
		<tag k="ssr:stedsnr" v="482176" />
	</node>
	<node id="-402563" lat="58.6040333337" lon="5.82368888423">
		<tag k="fixme" v="consider natural=peak for the most distinct mountains in the district" />
		<tag k="name" v="Ternefjellet" />
		<tag k="natural" v="hill" />
		<tag k="place" v="locality" />
		<tag k="ssr:stedsnr" v="480722" />
	</node>
	<node id="-402562" lat="58.6054805592" lon="5.79913611855">
		<tag k="name" v="Legå" />
		<tag k="place" v="locality" />
		<tag k="ssr:stedsnr" v="480717" />
	</node>
	<node id="-402561" lat="58.567672222" lon="5.69879167479">
		<tag k="bridge" v="yes" />
		<tag k="layer" v="1" />
		<tag k="name" v="Rothaugane" />
		<tag k="ssr:stedsnr" v="471735" />
	</node>
	<node id="-402560" lat="58.6145222267" lon="5.64785833877">
		<tag k="bridge" v="yes" />
		<tag k="layer" v="1" />
		<tag k="name" v="Djupholen" />
		<tag k="ssr:stedsnr" v="471724" />
	</node>
	<node id="-402559" lat="58.6573416692" lon="5.6550333264">
		<tag k="bridge" v="yes" />
		<tag k="layer" v="1" />
		<tag k="name" v="Dalabekk" />
		<tag k="ssr:stedsnr" v="471725" />
	</node>
	<node id="-402558" lat="58.6920694399" lon="5.64426665861">
		<tag k="bridge" v="yes" />
		<tag k="layer" v="1" />
		<tag k="name" v="Haugland (Nedre)" />
		<tag k="ssr:stedsnr" v="471722" />
	</node>
	<node id="-402557" lat="58.6808638854" lon="5.6172194367">
		<tag k="bridge" v="yes" />
		<tag k="layer" v="1" />
		<tag k="name" v="Bjorland" />
		<tag k="ssr:stedsnr" v="471716" />
	</node>
	<node id="-402556" lat="58.5604083319" lon="5.78154722505">
		<tag k="fixme" v="consider natural=peak for the most distinct mountains in the district" />
		<tag k="name" v="Kråkefjell" />
		<tag k="natural" v="hill" />
		<tag k="place" v="locality" />
		<tag k="ssr:stedsnr" v="467940" />
	</node>
	<node id="-402555" lat="58.573752776" lon="5.82441943653">
		<tag k="name" v="Rånå" />
		<tag k="natural" v="water" />
		<tag k="ssr:stedsnr" v="467636" />
		<tag k="water" v="lake" />
	</node>
	<node id="-402554" lat="58.5919555582" lon="5.7469361038">
		<tag k="name" v="Kusteinen" />
		<tag k="natural" v="hill" />
		<tag k="place" v="locality" />
		<tag k="ssr:stedsnr" v="467622" />
	</node>
	<node id="-402553" lat="58.5026027757" lon="5.78100555421">
		<tag k="fixme" v="consider seamark:type=rock or natural=shoal" />
		<tag k="name" v="Skjevlingen" />
		<tag k="place" v="islet" />
		<tag k="ssr:stedsnr" v="465990" />
	</node>
	<node id="-402552" lat="58.6009944478" lon="5.77821111427">
		<tag k="name" v="Hårrhagen" />
		<tag k="place" v="locality" />
		<tag k="ssr:stedsnr" v="465590" />
	</node>
	<node id="-402551" lat="58.624791671" lon="5.70583610336">
		<tag k="name" v="Skrettinglandsåa" />
		<tag k="ssr:stedsnr" v="464554" />
		<tag k="waterway" v="river" />
	</node>
	<node id="-402549" lat="58.6166138915" lon="5.75492777114">
		<tag k="name" v="Myrane" />
		<tag k="place" v="locality" />
		<tag k="ssr:stedsnr" v="464505" />
	</node>
	<node id="-402548" lat="58.4821620164" lon="5.82266714252">
		<tag k="name" v="Blåstakkholmen" />
		<tag k="place" v="islet" />
		<tag k="ssr:stedsnr" v="464499" />
	</node>
	<node id="-402547" lat="58.4838583352" lon="5.82395554918">
		<tag k="name" v="Båtavika" />
		<tag k="natural" v="bay" />
		<tag k="ssr:stedsnr" v="464497" />
	</node>
	<node id="-402546" lat="58.5894027736" lon="5.63221666122">
		<tag k="name" v="Skipasteinfluna" />
		<tag k="place" v="locality" />
		<tag k="seamark:type" v="rock" />
		<tag k="ssr:stedsnr" v="464246" />
	</node>
	<node id="-402545" lat="58.5042416622" lon="5.8265666675">
		<tag k="name" v="Nordskog" />
		<tag k="place" v="farm" />
		<tag k="ssr:stedsnr" v="464172" />
	</node>
	<node id="-402544" lat="58.4893143137" lon="5.83814929235">
		<tag k="name" v="Vatnamot" />
		<tag k="place" v="farm" />
		<tag k="ssr:stedsnr" v="448943" />
	</node>
	<node id="-402543" lat="58.4959083372" lon="5.79634999621">
		<tag k="name" v="Haver" />
		<tag k="place" v="farm" />
		<tag k="ssr:stedsnr" v="448677" />
	</node>
	<node id="-402542" lat="58.5808555567" lon="5.87354722961">
		<tag k="fixme" v="consider natural=peak for the most distinct mountains in the district" />
		<tag k="name" v="Skjeralifjellet" />
		<tag k="natural" v="hill" />
		<tag k="place" v="locality" />
		<tag k="ssr:stedsnr" v="448183" />
	</node>
	<node id="-402541" lat="58.5579944411" lon="5.84783611963">
		<tag k="name" v="Romatjørna" />
		<tag k="natural" v="water" />
		<tag k="ssr:stedsnr" v="448151" />
		<tag k="water" v="lake" />
	</node>
	<node id="-402540" lat="58.5513777772" lon="5.84968056331">
		<tag k="name" v="Nedre Hedlevatnet" />
		<tag k="natural" v="water" />
		<tag k="ssr:stedsnr" v="448148" />
		<tag k="water" v="lake" />
	</node>
	<node id="-402539" lat="58.5287416625" lon="5.85436944031">
		<tag k="name" v="Rabalihølen" />
		<tag k="place" v="locality" />
		<tag k="ssr:stedsnr" v="448137" />
	</node>
	<node id="-402538" lat="58.599227779" lon="5.78596388157">
		<tag k="alt_name" v="Steinkjerringa" />
		<tag k="name" v="Steinkjeringa" />
		<tag k="ssr:stedsnr" v="448105" />
		<tag k="tourism" v="attraction" />
	</node>
	<node id="-402537" lat="58.5837916626" lon="5.8467194362">
		<tag k="name" v="Goabakkane" />
		<tag k="natural" v="slope" />
		<tag k="place" v="locality" />
		<tag k="ssr:stedsnr" v="447718" />
	</node>
	<node id="-402536" lat="58.5870666631" lon="5.84575833751">
		<tag k="name" v="Revdalen" />
		<tag k="natural" v="valley" />
		<tag k="place" v="locality" />
		<tag k="ssr:stedsnr" v="447717" />
	</node>
	<node id="-402535" lat="58.5073972245" lon="5.79511110686">
		<tag k="name" v="Oddane" />
		<tag k="place" v="farm" />
		<tag k="ssr:stedsnr" v="480130" />
	</node>
	<node id="-402534" lat="58.6739749959" lon="5.54361667207">
		<tag k="name" v="Selvåg" />
		<tag k="natural" v="bay" />
		<tag k="ssr:stedsnr" v="425773" />
	</node>
	<node id="-402533" lat="58.491827776" lon="5.7896416594">
		<tag k="name" v="Havstangen" />
		<tag k="natural" v="cape" />
		<tag k="ssr:stedsnr" v="425756" />
	</node>
	<node id="-402532" lat="58.4822537646" lon="5.82187207283">
		<tag k="name" v="Vardholmane" />
		<tag k="place" v="islet" />
		<tag k="ssr:stedsnr" v="425695" />
	</node>
	<node id="-402531" lat="58.5202388878" lon="5.77691111257">
		<tag k="name" v="Ognaholman" />
		<tag k="place" v="islet" />
		<tag k="ssr:stedsnr" v="425426" />
	</node>
	<node id="-402529" lat="58.5018944469" lon="5.81020833842">
		<tag k="name" v="Kleven" />
		<tag k="place" v="farm" />
		<tag k="ssr:stedsnr" v="425384" />
	</node>
	<node id="-402528" lat="58.590227781" lon="5.81410833769">
		<tag k="name" v="Fjellheim" />
		<tag k="place" v="farm" />
		<tag k="ssr:stedsnr" v="425375" />
	</node>
	<node id="-402527" lat="58.6011777791" lon="5.80734166634">
		<tag k="name" v="Vigresmyrane" />
		<tag k="natural" v="wetland" />
		<tag k="ssr:stedsnr" v="425368" />
	</node>
	<node id="-402526" lat="58.6156972217" lon="5.84128055669">
		<tag k="name" v="Nordheim" />
		<tag k="place" v="farm" />
		<tag k="ssr:stedsnr" v="425362" />
	</node>
	<node id="-402525" lat="58.5740499976" lon="5.84639167449">
		<tag k="name" v="Rosselandsvatnet" />
		<tag k="natural" v="water" />
		<tag k="ssr:stedsnr" v="425341" />
	</node>
	<node id="-402524" lat="58.5617792874" lon="5.71443001223">
		<tag k="fixme" v="consider place=hamlet" />
		<tag k="name" v="Haugstad" />
		<tag k="place" v="farm" />
		<tag k="ssr:stedsnr" v="425337" />
	</node>
	<node id="-402523" lat="58.5683861741" lon="5.77099750118">
		<tag k="fixme" v="consider place=hamlet" />
		<tag k="name" v="Haugsenga" />
		<tag k="place" v="farm" />
		<tag k="ssr:stedsnr" v="425331" />
	</node>
	<node id="-402522" lat="58.5880731677" lon="5.83368862939">
		<tag k="fixme" v="consider place=hamlet" />
		<tag k="name" v="Matningsdal" />
		<tag k="place" v="farm" />
		<tag k="ssr:stedsnr" v="425319" />
	</node>
	<node id="-402521" lat="58.6501916674" lon="5.61902500468">
		<tag k="name" v="Høneland" />
		<tag k="place" v="farm" />
		<tag k="ssr:stedsnr" v="425302" />
	</node>
	<node id="-402520" lat="58.6221467545" lon="5.6080919841">
		<tag k="fixme" v="consider place=hamlet" />
		<tag k="name" v="Nord-Varhaug" />
		<tag k="place" v="farm" />
		<tag k="ssr:stedsnr" v="425272" />
	</node>
	<node id="-402519" lat="58.6271416622" lon="5.66500833144">
		<tag k="name" v="Sørheim" />
		<tag k="place" v="farm" />
		<tag k="ssr:stedsnr" v="425270" />
	</node>
	<node id="-402518" lat="58.6365266627" lon="5.70480861236">
		<tag k="fixme" v="consider place=hamlet" />
		<tag k="name" v="Bjorheim" />
		<tag k="place" v="farm" />
		<tag k="ssr:stedsnr" v="425263" />
	</node>
	<node id="-402517" lat="58.6329137076" lon="5.71825859898">
		<tag k="fixme" v="consider place=hamlet" />
		<tag k="name" v="Elvarulla" />
		<tag k="place" v="farm" />
		<tag k="ssr:stedsnr" v="425262" />
	</node>
	<node id="-402516" lat="58.6326888854" lon="5.6034472256">
		<tag k="alt_name" v="Stemmå" />
		<tag k="name" v="Stemmen" />
		<tag k="natural" v="water" />
		<tag k="old_name" v="Stemma" />
		<tag k="ssr:stedsnr" v="425252" />
	</node>
	<node id="-402515" lat="58.5841277742" lon="5.88331666335">
		<tag k="name" v="Skinansfjellet" />
		<tag k="natural" v="hill" />
		<tag k="place" v="locality" />
		<tag k="ssr:stedsnr" v="425010" />
	</node>
	<node id="-402514" lat="58.5224916697" lon="5.81363056083">
		<tag k="name" v="Krasen" />
		<tag k="natural" v="hill" />
		<tag k="place" v="locality" />
		<tag k="ssr:stedsnr" v="423950" />
	</node>
	<node id="-402513" lat="58.517599997" lon="5.80923055113">
		<tag k="amenity" v="school" />
		<tag k="name" v="Ogna" />
		<tag k="ssr:stedsnr" v="423941" />
	</node>
	<node id="-402512" lat="58.4962583378" lon="5.78497777748">
		<tag k="alt_name" v="Rabnabukta" />
		<tag k="name" v="Ramnabukta" />
		<tag k="natural" v="bay" />
		<tag k="ssr:stedsnr" v="423604" />
	</node>
	<node id="-402511" lat="58.5053111086" lon="5.79799721555">
		<tag k="name" v="Veten" />
		<tag k="natural" v="hill" />
		<tag k="place" v="locality" />
		<tag k="ssr:stedsnr" v="423247" />
	</node>
	<node id="-402510" lat="58.488819441" lon="5.83013889554">
		<tag k="name" v="Hunnamyra" />
		<tag k="place" v="farm" />
		<tag k="ssr:stedsnr" v="423031" />
	</node>
	<node id="-402509" lat="58.5359611122" lon="5.69800555942">
		<tag k="name" v="Krossen" />
		<tag k="place" v="locality" />
		<tag k="ssr:stedsnr" v="422988" />
	</node>
	<node id="-402508" lat="58.6510055588" lon="5.55268888193">
		<tag k="name" v="Obrestadgrunnen" />
		<tag k="natural" v="shoal" />
		<tag k="place" v="locality" />
		<tag k="ssr:stedsnr" v="422976" />
	</node>
	<node id="-402507" lat="58.6470027806" lon="5.57215555998">
		<tag k="name" v="Kalvaheistangen" />
		<tag k="natural" v="cape" />
		<tag k="ssr:stedsnr" v="422954" />
	</node>
	<node id="-402506" lat="58.5971638923" lon="5.64260833048">
		<tag k="name" v="Sørvoll" />
		<tag k="place" v="farm" />
		<tag k="ssr:stedsnr" v="422912" />
	</node>
	<node id="-402505" lat="58.5644999983" lon="5.68587222246">
		<tag k="name" v="Rothaugane" />
		<tag k="natural" v="hill" />
		<tag k="place" v="locality" />
		<tag k="ssr:stedsnr" v="422896" />
	</node>
	<node id="-402504" lat="58.4813472262" lon="5.84392222222">
		<tag k="fixme" v="consider seamark:type=rock or natural=shoal" />
		<tag k="name" v="Moiskjeret" />
		<tag k="place" v="islet" />
		<tag k="ssr:stedsnr" v="422070" />
	</node>
	<node id="-402503" lat="58.6424361125" lon="5.64089722355">
		<tag k="name" v="Varden" />
		<tag k="place" v="locality" />
		<tag k="ssr:stedsnr" v="421580" />
	</node>
	<node id="-402502" lat="58.5039018143" lon="5.79427385992">
		<tag k="name" v="Sirevåg" />
		<tag k="natural" v="bay" />
		<tag k="ssr:stedsnr" v="419166" />
	</node>
	<node id="-402501" lat="58.534999999" lon="5.93149167413">
		<tag k="name" v="Skinansvatnet" />
		<tag k="natural" v="water" />
		<tag k="ssr:stedsnr" v="265757" />
		<tag k="water" v="lake" />
	</node>
	<node id="-402500" lat="58.5806777781" lon="5.88048610848">
		<tag k="name" v="Bessetjørna" />
		<tag k="natural" v="water" />
		<tag k="ssr:stedsnr" v="265141" />
		<tag k="water" v="lake" />
	</node>
	<node id="-402499" lat="58.6757767114" lon="5.69130796807">
		<tag k="fixme" v="consider place=hamlet" />
		<tag k="name" v="Gausland" />
		<tag k="place" v="farm" />
		<tag k="ssr:stedsnr" v="243778" />
	</node>
	<node id="-402498" lat="58.4972694444" lon="5.81270277303">
		<tag k="name" v="Nordra Krogavatnet" />
		<tag k="natural" v="water" />
		<tag k="ssr:stedsnr" v="243754" />
		<tag k="water" v="lake" />
	</node>
	<node id="-402497" lat="58.5416055581" lon="5.82530000199">
		<tag k="fixme" v="consider natural=peak for the most distinct mountains in the district" />
		<tag k="name" v="Grønåsen" />
		<tag k="natural" v="hill" />
		<tag k="place" v="locality" />
		<tag k="ssr:stedsnr" v="243432" />
	</node>
	<node id="-402496" lat="58.5497555586" lon="5.82667500451">
		<tag k="name" v="Hundsvatnet" />
		<tag k="natural" v="water" />
		<tag k="ssr:stedsnr" v="243410" />
		<tag k="water" v="lake" />
	</node>
	<node id="-402495" lat="58.5934416677" lon="5.82593611445">
		<tag k="name" v="Engjatjørna" />
		<tag k="natural" v="water" />
		<tag k="ssr:stedsnr" v="243365" />
	</node>
	<node id="-402494" lat="58.5872193287" lon="5.67189428843">
		<tag k="fixme" v="consider place=hamlet" />
		<tag k="name" v="Mæland" />
		<tag k="place" v="farm" />
		<tag k="ssr:stedsnr" v="243362" />
	</node>
	<node id="-402493" lat="58.6001361078" lon="5.70412500008">
		<tag k="alt_name" v="Graheia" />
		<tag k="name" v="Heia" />
		<tag k="place" v="farm" />
		<tag k="ssr:stedsnr" v="243351" />
	</node>
	<node id="-402492" lat="58.5997688459" lon="5.68679776442">
		<tag k="fixme" v="consider place=hamlet" />
		<tag k="name" v="Sæland" />
		<tag k="place" v="farm" />
		<tag k="ssr:stedsnr" v="243349" />
	</node>
	<node id="-402491" lat="58.6059166684" lon="5.63866388426">
		<tag k="name" v="Dalen" />
		<tag k="place" v="farm" />
		<tag k="ssr:stedsnr" v="243345" />
	</node>
	<node id="-402490" lat="58.6075999971" lon="5.72253611737">
		<tag k="name" v="Marsteinbakken" />
		<tag k="place" v="farm" />
		<tag k="ssr:stedsnr" v="243340" />
	</node>
	<node id="-402489" lat="58.5658377383" lon="5.793874032">
		<tag k="fixme" v="consider place=hamlet" />
		<tag k="name" v="Vettaland" />
		<tag k="place" v="farm" />
		<tag k="ssr:stedsnr" v="243334" />
	</node>
	<node id="-402488" lat="58.5554438184" lon="5.7797831236">
		<tag k="fixme" v="consider place=hamlet" />
		<tag k="name" v="Fuglestad" />
		<tag k="place" v="farm" />
		<tag k="ssr:stedsnr" v="243329" />
	</node>
	<node id="-402487" lat="58.5751639438" lon="5.76658887037">
		<tag k="fixme" v="consider place=hamlet" />
		<tag k="name" v="Nordra Hetland" />
		<tag k="place" v="farm" />
		<tag k="ssr:stedsnr" v="243318" />
	</node>
	<node id="-402486" lat="58.6411138873" lon="5.66346666638">
		<tag k="alt_name" v="Leite" />
		<tag k="name" v="Leitet" />
		<tag k="place" v="farm" />
		<tag k="ssr:stedsnr" v="243303" />
	</node>
	<node id="-402485" lat="58.6538583348" lon="5.62206388632">
		<tag k="name" v="Hanaberget" />
		<tag k="natural" v="hill" />
		<tag k="place" v="locality" />
		<tag k="ssr:stedsnr" v="243289" />
	</node>
	<node id="-402484" lat="58.6556615654" lon="5.59324800563">
		<tag k="fixme" v="consider place=hamlet" />
		<tag k="name" v="Vigre" />
		<tag k="place" v="farm" />
		<tag k="ssr:stedsnr" v="243272" />
	</node>
	<node id="-402483" lat="58.6245888852" lon="5.73986666565">
		<tag k="alt_name" v="Kloppstein" />
		<tag k="name" v="Klopsteinen" />
		<tag k="old_name" v="Kloppsteinen" />
		<tag k="place" v="farm" />
		<tag k="ssr:stedsnr" v="243264" />
	</node>
	<node id="-402482" lat="58.6337703662" lon="5.7762618819">
		<tag k="name" v="Steinsvatnet" />
		<tag k="natural" v="water" />
		<tag k="ssr:stedsnr" v="243259" />
	</node>
	<node id="-402481" lat="58.6344138897" lon="5.69622222921">
		<tag k="alt_name" v="Hukkjen" />
		<tag k="name" v="Hukken" />
		<tag k="old_name" v="Huken" />
		<tag k="place" v="farm" />
		<tag k="ssr:stedsnr" v="243240" />
	</node>
	<node id="-402480" lat="58.5529605099" lon="5.85443259079">
		<tag k="name" v="Hellevatni" />
		<tag k="natural" v="water" />
		<tag k="ssr:stedsnr" v="243101" />
		<tag k="water" v="lake" />
	</node>
	<node id="-402479" lat="58.5992277793" lon="5.8624527835">
		<tag k="name" v="Strandvatnet" />
		<tag k="natural" v="water" />
		<tag k="ssr:stedsnr" v="243011" />
	</node>
	<node id="-402478" lat="58.4783250536" lon="5.84772593103">
		<tag k="fixme" v="consider natural=peak for the most distinct mountains in the district" />
		<tag k="name" v="Moifjellet" />
		<tag k="natural" v="hill" />
		<tag k="place" v="locality" />
		<tag k="ssr:stedsnr" v="242628" />
	</node>
	<node id="-402477" lat="58.5323777817" lon="5.79197222466">
		<tag k="fixme" v="consider natural=peak for the most distinct mountains in the district" />
		<tag k="name" v="Risfjell" />
		<tag k="natural" v="hill" />
		<tag k="place" v="locality" />
		<tag k="ssr:stedsnr" v="241943" />
	</node>
	<node id="-402476" lat="58.5389972208" lon="5.80955277258">
		<tag k="fixme" v="consider natural=peak for the most distinct mountains in the district" />
		<tag k="name" v="Kallesteinen" />
		<tag k="natural" v="hill" />
		<tag k="place" v="locality" />
		<tag k="ssr:stedsnr" v="241939" />
	</node>
	<node id="-402475" lat="58.5351749984" lon="5.80043055168">
		<tag k="name" v="Nordrevatnet" />
		<tag k="natural" v="water" />
		<tag k="ssr:stedsnr" v="241930" />
	</node>
	<node id="-402474" lat="58.5261249977" lon="5.80867777162">
		<tag k="name" v="Nestjørna" />
		<tag k="natural" v="water" />
		<tag k="ssr:stedsnr" v="241926" />
	</node>
	<node id="-402473" lat="58.5276388921" lon="5.80199444237">
		<tag k="name" v="Nestangen" />
		<tag k="place" v="locality" />
		<tag k="ssr:stedsnr" v="241927" />
	</node>
	<node id="-402472" lat="58.6068694427" lon="5.61925277201">
		<tag k="alt_name" v="Djupedal litle" />
		<tag k="name" v="Litle Djupedal" />
		<tag k="natural" v="valley" />
		<tag k="place" v="locality" />
		<tag k="ssr:stedsnr" v="241537" />
	</node>
	<node id="-402471" lat="58.4820416637" lon="5.82542222828">
		<tag k="name" v="Kaggavika" />
		<tag k="natural" v="bay" />
		<tag k="ssr:stedsnr" v="241502" />
	</node>
	<node id="-402470" lat="58.507883334" lon="5.78900556049">
		<tag k="name" v="Gule Holmen" />
		<tag k="place" v="islet" />
		<tag k="ssr:stedsnr" v="241250" />
	</node>
	<node id="-402469" lat="58.6059388847" lon="5.61296944214">
		<tag k="name" v="Kjeltrafluene" />
		<tag k="place" v="locality" />
		<tag k="seamark:type" v="rock" />
		<tag k="ssr:stedsnr" v="240116" />
	</node>
	<node id="-402468" lat="58.5496138881" lon="5.67154444701">
		<tag k="fixme" v="verify maritime location" />
		<tag k="mooring" v="yes" />
		<tag k="name" v="Øyra" />
		<tag k="place" v="locality" />
		<tag k="ssr:stedsnr" v="239992" />
	</node>
	<node id="-402467" lat="58.48940191" lon="5.80802784927">
		<tag k="name" v="Kinnarvågen" />
		<tag k="natural" v="bay" />
		<tag k="ssr:stedsnr" v="240026" />
	</node>
	<node id="-402466" lat="58.5531499982" lon="5.66376389478">
		<tag k="name" v="Opheliasteinen" />
		<tag k="place" v="locality" />
		<tag k="ssr:stedsnr" v="239799" />
	</node>
	<node id="-402465" lat="58.6351305584" lon="5.65814722493">
		<tag k="name" v="Nordheim" />
		<tag k="place" v="farm" />
		<tag k="ssr:stedsnr" v="239580" />
	</node>
	<node id="-402464" lat="58.4778250019" lon="5.84542223018">
		<tag k="fixme" v="consider seamark:type=rock or natural=shoal" />
		<tag k="name" v="Søra Moiskjeret" />
		<tag k="place" v="islet" />
		<tag k="ssr:stedsnr" v="239053" />
	</node>
	<node id="-402463" lat="58.6107138902" lon="5.65198334015">
		<tag k="bridge" v="yes" />
		<tag k="layer" v="1" />
		<tag k="name" v="Reiestad (Øvre)" />
		<tag k="ssr:stedsnr" v="229732" />
	</node>
	<node id="-402462" lat="58.5746638885" lon="5.7618611086">
		<tag k="bridge" v="yes" />
		<tag k="layer" v="1" />
		<tag k="name" v="Aniksdal" />
		<tag k="ssr:stedsnr" v="229718" />
	</node>
	<node id="-402461" lat="58.623527778" lon="5.66124721558">
		<tag k="bridge" v="yes" />
		<tag k="layer" v="1" />
		<tag k="name" v="Brekkå" />
		<tag k="ssr:stedsnr" v="229716" />
	</node>
	<node id="-402460" lat="58.5867555579" lon="5.67615834155">
		<tag k="name" v="Mælandsholen" />
		<tag k="place" v="farm" />
		<tag k="ssr:stedsnr" v="224888" />
	</node>
	<node id="-402459" lat="58.5683444405" lon="5.65323333129">
		<tag k="name" v="Tvihaugane" />
		<tag k="place" v="locality" />
		<tag k="ssr:stedsnr" v="224884" />
	</node>
	<node id="-402458" lat="58.5652861087" lon="5.65731111616">
		<tag k="name" v="Røseneset" />
		<tag k="place" v="farm" />
		<tag k="ssr:stedsnr" v="224885" />
	</node>
	<node id="-402457" lat="58.5551305535" lon="5.79147222773">
		<tag k="name" v="Hinnarsland" />
		<tag k="natural" v="hill" />
		<tag k="place" v="locality" />
		<tag k="ssr:stedsnr" v="224939" />
	</node>
	<node id="-402456" lat="58.551224997" lon="5.78085832564">
		<tag k="name" v="Kyrkjeneset" />
		<tag k="place" v="farm" />
		<tag k="ssr:stedsnr" v="224938" />
	</node>
	<node id="-402455" lat="58.5158031882" lon="5.82895465319">
		<tag k="name" v="Svarte Lønning" />
		<tag k="natural" v="hill" />
		<tag k="place" v="locality" />
		<tag k="ssr:stedsnr" v="224250" />
	</node>
	<node id="-402454" lat="58.510219443" lon="5.79406388483">
		<tag k="name" v="Varpet" />
		<tag k="natural" v="bay" />
		<tag k="ssr:stedsnr" v="224213" />
	</node>
	<node id="-402453" lat="58.4870694468" lon="5.79842499584">
		<tag k="name" v="Hellesundfluene" />
		<tag k="natural" v="shoal" />
		<tag k="place" v="locality" />
		<tag k="ssr:stedsnr" v="223923" />
	</node>
	<node id="-402452" lat="58.4835027775" lon="5.80025832915">
		<tag k="name" v="Kinnarvågskoltane" />
		<tag k="natural" v="shoal" />
		<tag k="place" v="locality" />
		<tag k="ssr:stedsnr" v="223924" />
	</node>
	<node id="-402451" lat="58.6439027788" lon="5.71504999548">
		<tag k="name" v="Kanaheia" />
		<tag k="place" v="locality" />
		<tag k="ssr:stedsnr" v="222542" />
	</node>
	<node id="-402450" lat="58.6182611069" lon="5.65414444046">
		<tag k="name" v="Dubland" />
		<tag k="place" v="farm" />
		<tag k="ssr:stedsnr" v="222504" />
	</node>
	<node id="-402449" lat="58.66340833" lon="5.71440555657">
		<tag k="name" v="Løgestein" />
		<tag k="place" v="farm" />
		<tag k="ssr:stedsnr" v="222328" />
	</node>
	<node id="-402448" lat="58.5866861147" lon="5.63760555042">
		<tag k="name" v="Madlandstranda" />
		<tag k="natural" v="beach" />
		<tag k="place" v="locality" />
		<tag k="ssr:stedsnr" v="221197" />
	</node>
	<node id="-402447" lat="58.6424805531" lon="5.62889444888">
		<tag k="name" v="Dansarhella" />
		<tag k="natural" v="stone" />
		<tag k="ssr:stedsnr" v="207817" />
	</node>
	<node id="-402446" lat="58.7007361068" lon="5.59724200645">
		<tag k="fixme" v="consider place=hamlet" />
		<tag k="name" v="Bekkjaheia" />
		<tag k="place" v="farm" />
		<tag k="ssr:stedsnr" v="206743" />
	</node>
	<node id="-402445" lat="58.486272218" lon="5.81905277967">
		<tag k="name" v="Holmane" />
		<tag k="place" v="farm" />
		<tag k="ssr:stedsnr" v="205940" />
	</node>
	<node id="-402444" lat="58.6131305554" lon="5.84351945234">
		<tag k="name" v="Rennefjellet" />
		<tag k="natural" v="hill" />
		<tag k="place" v="locality" />
		<tag k="ssr:stedsnr" v="205751" />
	</node>
	<node id="-402443" lat="58.4934083329" lon="5.79521943917">
		<tag k="name" v="Haver" />
		<tag k="place" v="farm" />
		<tag k="ssr:stedsnr" v="205676" />
	</node>
	<node id="-402442" lat="58.5111083371" lon="5.84809167136">
		<tag k="alt_name" v="Tvitjørn øvra" />
		<tag k="name" v="Øvra Tvitjørn" />
		<tag k="natural" v="water" />
		<tag k="ssr:stedsnr" v="205124" />
		<tag k="water" v="lake" />
	</node>
	<node id="-402441" lat="58.6703500001" lon="5.59260555734">
		<tag k="name" v="Alvaneset" />
		<tag k="old_name" v="Elvenes" />
		<tag k="place" v="farm" />
		<tag k="ssr:stedsnr" v="182760" />
	</node>
	<node id="-402440" lat="58.6660860257" lon="5.55307834599">
		<tag k="fixme" v="consider place=hamlet" />
		<tag k="name" v="Hå" />
		<tag k="place" v="farm" />
		<tag k="ssr:stedsnr" v="182759" />
	</node>
	<node id="-402439" lat="58.4831361143" lon="5.82618888503">
		<tag k="name" v="Tua" />
		<tag k="place" v="locality" />
		<tag k="ssr:stedsnr" v="182693" />
	</node>
	<node id="-402438" lat="58.4830196611" lon="5.83779814055">
		<tag k="fixme" v="consider place=hamlet" />
		<tag k="name" v="Kalvshagen" />
		<tag k="place" v="farm" />
		<tag k="ssr:stedsnr" v="182692" />
	</node>
	<node id="-402437" lat="58.528925001" lon="5.80216388933">
		<tag k="name" v="Helgåvatnet" />
		<tag k="natural" v="water" />
		<tag k="ssr:stedsnr" v="182424" />
		<tag k="water" v="lake" />
	</node>
	<node id="-402436" lat="58.4999083328" lon="5.79538332965">
		<tag k="fixme" v="consider natural=peak for the most distinct mountains in the district" />
		<tag k="name" v="Vedafjellet" />
		<tag k="natural" v="hill" />
		<tag k="place" v="locality" />
		<tag k="ssr:stedsnr" v="182416" />
	</node>
	<node id="-402435" lat="58.5598416677" lon="5.83923334164">
		<tag k="name" v="Revtjørna" />
		<tag k="natural" v="water" />
		<tag k="ssr:stedsnr" v="182407" />
	</node>
	<node id="-402434" lat="58.5468749994" lon="5.77671388819">
		<tag k="alt_name" v="Hedlevollen" />
		<tag k="name" v="Hellevollen" />
		<tag k="place" v="farm" />
		<tag k="ssr:stedsnr" v="182400" />
	</node>
	<node id="-402433" lat="58.5027611074" lon="5.80682777429">
		<tag k="name" v="Sirevåg stasjon" />
		<tag k="railway" v="station" />
		<tag k="ssr:stedsnr" v="182375" />
		<tag k="train" v="yes" />
	</node>
	<node id="-402432" lat="58.6045526159" lon="5.83975546959">
		<tag k="fixme" v="consider place=hamlet" />
		<tag k="name" v="Tovdal" />
		<tag k="place" v="farm" />
		<tag k="ssr:stedsnr" v="182357" />
	</node>
	<node id="-402431" lat="58.6011083359" lon="5.75238611661">
		<tag k="name" v="Vandavatnet" />
		<tag k="natural" v="water" />
		<tag k="ssr:stedsnr" v="182355" />
	</node>
	<node id="-402430" lat="58.5981888906" lon="5.73839999243">
		<tag k="name" v="Vallastøl" />
		<tag k="place" v="locality" />
		<tag k="ssr:stedsnr" v="182351" />
	</node>
	<node id="-402429" lat="58.6151709756" lon="5.61254870385">
		<tag k="fixme" v="consider place=hamlet" />
		<tag k="name" v="Varhaug" />
		<tag k="place" v="farm" />
		<tag k="ssr:stedsnr" v="182341" />
	</node>
	<node id="-402428" lat="58.608152781" lon="5.74816389327">
		<tag k="name" v="Likholen" />
		<tag k="natural" v="hill" />
		<tag k="place" v="locality" />
		<tag k="ssr:stedsnr" v="182339" />
	</node>
	<node id="-402427" lat="58.5705416653" lon="5.79408333411">
		<tag k="name" v="Høgeli" />
		<tag k="place" v="farm" />
		<tag k="ssr:stedsnr" v="182336" />
	</node>
	<node id="-402426" lat="58.5560305551" lon="5.80144999445">
		<tag k="name" v="Kvernhusdalen" />
		<tag k="place" v="farm" />
		<tag k="ssr:stedsnr" v="182334" />
	</node>
	<node id="-402425" lat="58.5735611145" lon="5.82914999235">
		<tag k="name" v="Rånaheia" />
		<tag k="place" v="farm" />
		<tag k="ssr:stedsnr" v="182331" />
	</node>
	<node id="-402424" lat="58.5655444471" lon="5.70593332634">
		<tag k="name" v="Rulla" />
		<tag k="old_name" v="Rudla;Rudlå" />
		<tag k="place" v="farm" />
		<tag k="ssr:stedsnr" v="182330" />
	</node>
	<node id="-402423" lat="58.5692000026" lon="5.72303333884">
		<tag k="alt_name" v="Trollsheia" />
		<tag k="name" v="Trollaheia" />
		<tag k="place" v="farm" />
		<tag k="ssr:stedsnr" v="182328" />
	</node>
	<node id="-402422" lat="58.5789944475" lon="5.76453611662">
		<tag k="alt_name" v="Teigen" />
		<tag k="name" v="Teigane" />
		<tag k="place" v="farm" />
		<tag k="ssr:stedsnr" v="182313" />
	</node>
	<node id="-402421" lat="58.5877888865" lon="5.75473889263">
		<tag k="name" v="Vandaåna" />
		<tag k="ssr:stedsnr" v="182309" />
		<tag k="waterway" v="river" />
	</node>
	<node id="-402420" lat="58.6397840584" lon="5.59048764327">
		<tag k="fixme" v="consider place=hamlet" />
		<tag k="name" v="Sør-Reime" />
		<tag k="place" v="farm" />
		<tag k="ssr:stedsnr" v="182299" />
	</node>
	<node id="-402419" lat="58.6521516633" lon="5.64169706555">
		<tag k="fixme" v="consider place=hamlet" />
		<tag k="name" v="Kvia" />
		<tag k="place" v="farm" />
		<tag k="ssr:stedsnr" v="182290" />
	</node>
	<node id="-402418" lat="58.6163111074" lon="5.66667777196">
		<tag k="name" v="Dalen" />
		<tag k="place" v="farm" />
		<tag k="ssr:stedsnr" v="182263" />
	</node>
	<node id="-402417" lat="58.6177026757" lon="5.62374629227">
		<tag k="fixme" v="consider place=hamlet" />
		<tag k="name" v="Lerbrekk" />
		<tag k="place" v="farm" />
		<tag k="ssr:stedsnr" v="182256" />
	</node>
	<node id="-402416" lat="58.6300527751" lon="5.64218611024">
		<tag k="alt_name" v="Joster" />
		<tag k="name" v="Jåstad" />
		<tag k="place" v="farm" />
		<tag k="ssr:stedsnr" v="182251" />
	</node>
	<node id="-402415" lat="58.6338833346" lon="5.74740833949">
		<tag k="name" v="Myrvoll" />
		<tag k="place" v="farm" />
		<tag k="ssr:stedsnr" v="182247" />
	</node>
	<node id="-402414" lat="58.6328420079" lon="5.66171533771">
		<tag k="fixme" v="consider place=hamlet" />
		<tag k="name" v="Ånestad" />
		<tag k="place" v="farm" />
		<tag k="ssr:stedsnr" v="182244" />
	</node>
	<node id="-402413" lat="58.5089252883" lon="5.78932311379">
		<tag k="name" v="Skurveholmen" />
		<tag k="place" v="islet" />
		<tag k="ssr:stedsnr" v="180247" />
	</node>
	<node id="-402412" lat="58.6608944448" lon="5.55312777417">
		<tag k="name" v="Søra Fuglavika" />
		<tag k="natural" v="bay" />
		<tag k="ssr:stedsnr" v="179981" />
	</node>
	<node id="-402411" lat="58.5795833341" lon="5.68033332618">
		<tag k="name" v="Vierrudla" />
		<tag k="natural" v="hill" />
		<tag k="place" v="locality" />
		<tag k="ssr:stedsnr" v="179898" />
	</node>
	<node id="-402410" lat="58.5824861111" lon="5.65472222872">
		<tag k="amenity" v="school" />
		<tag k="name" v="Stavnheim" />
		<tag k="ssr:stedsnr" v="179896" />
	</node>
	<node id="-402409" lat="58.4807805547" lon="5.84052499518">
		<tag k="fixme" v="consider seamark:type=rock or natural=shoal" />
		<tag k="name" v="Laugaskjeret" />
		<tag k="place" v="islet" />
		<tag k="ssr:stedsnr" v="179061" />
	</node>
	<node id="-402408" lat="58.5382999983" lon="5.75416110511">
		<tag k="bridge" v="yes" />
		<tag k="layer" v="1" />
		<tag k="name" v="Vaule" />
		<tag k="ssr:stedsnr" v="168739" />
	</node>
	<node id="-402407" lat="58.5005888902" lon="5.81698888658">
		<tag k="name" v="Blanketjørna" />
		<tag k="natural" v="water" />
		<tag k="ssr:stedsnr" v="163211" />
	</node>
	<node id="-402406" lat="58.5506555587" lon="5.7239444387">
		<tag k="name" v="Heia" />
		<tag k="place" v="farm" />
		<tag k="ssr:stedsnr" v="162959" />
	</node>
	<node id="-402405" lat="58.5984083327" lon="5.78729999698">
		<tag k="name" v="Burstølen" />
		<tag k="natural" v="hill" />
		<tag k="place" v="locality" />
		<tag k="ssr:stedsnr" v="161567" />
	</node>
	<node id="-402404" lat="58.6090055567" lon="5.67738610882">
		<tag k="name" v="Langhaug" />
		<tag k="natural" v="hill" />
		<tag k="place" v="locality" />
		<tag k="ssr:stedsnr" v="161518" />
	</node>
	<node id="-402402" lat="58.6430472249" lon="5.76990277675">
		<tag k="historic" v="shieling" />
		<tag k="name" v="Skrettingstølen" />
		<tag k="place" v="locality" />
		<tag k="ssr:stedsnr" v="161488" />
	</node>
	<node id="-402401" lat="58.5032638911" lon="5.784783339">
		<tag k="alt_name" v="Småskjerene" />
		<tag k="fixme" v="consider seamark:type=rock or natural=shoal" />
		<tag k="name" v="Småskjera" />
		<tag k="place" v="islet" />
		<tag k="ssr:stedsnr" v="161486" />
	</node>
	<node id="-402400" lat="58.6716166634" lon="5.65482778025">
		<tag k="name" v="Skatteberget" />
		<tag k="natural" v="hill" />
		<tag k="place" v="locality" />
		<tag k="ssr:stedsnr" v="161351" />
	</node>
	<node id="-402399" lat="58.5724055555" lon="5.64936945235">
		<tag k="name" v="Skarvasteinen" />
		<tag k="natural" v="cape" />
		<tag k="ssr:stedsnr" v="160187" />
	</node>
	<node id="-402398" lat="58.525283334" lon="5.70921666841">
		<tag k="fixme" v="consider seamark:type=rock or natural=shoal" />
		<tag k="name" v="Onglaskjeret" />
		<tag k="place" v="islet" />
		<tag k="ssr:stedsnr" v="160188" />
	</node>
	<node id="-402397" lat="58.592819449" lon="5.62983889367">
		<tag k="name" v="Rortangen" />
		<tag k="natural" v="cape" />
		<tag k="ssr:stedsnr" v="160181" />
	</node>
	<node id="-402396" lat="58.5239805574" lon="5.77543611942">
		<tag k="alt_name" v="Varaskjeret" />
		<tag k="fixme" v="consider seamark:type=rock or natural=shoal" />
		<tag k="name" v="Vardaskjeret" />
		<tag k="place" v="islet" />
		<tag k="ssr:stedsnr" v="160174" />
	</node>
	<node id="-402395" lat="58.5194777783" lon="5.75047777414">
		<tag k="name" v="Krotle" />
		<tag k="natural" v="shoal" />
		<tag k="place" v="locality" />
		<tag k="ssr:stedsnr" v="160173" />
	</node>
	<node id="-402394" lat="58.5392666653" lon="5.69126388422">
		<tag k="alt_name" v="Fuglevika" />
		<tag k="name" v="Fuglavika" />
		<tag k="natural" v="bay" />
		<tag k="ssr:stedsnr" v="160162" />
	</node>
	<node id="-402393" lat="58.5996555534" lon="5.62143056089">
		<tag k="name" v="Skrytevika" />
		<tag k="natural" v="bay" />
		<tag k="ssr:stedsnr" v="160139" />
	</node>
	<node id="-402392" lat="58.5884111092" lon="5.84327777003">
		<tag k="name" v="Slåttedalen" />
		<tag k="natural" v="valley" />
		<tag k="place" v="locality" />
		<tag k="ssr:stedsnr" v="144725" />
	</node>
	<node id="-402391" lat="58.5270472267" lon="5.90370833393">
		<tag k="name" v="Skoglundtjørna" />
		<tag k="natural" v="water" />
		<tag k="ssr:stedsnr" v="144719" />
	</node>
	<node id="-402390" lat="58.5358583318" lon="5.867636116">
		<tag k="name" v="Fossbekken" />
		<tag k="ssr:stedsnr" v="144167" />
		<tag k="waterway" v="stream" />
	</node>
	<node id="-402389" lat="58.5204333366" lon="5.85707500578">
		<tag k="fixme" v="consider natural=peak for the most distinct mountains in the district" />
		<tag k="name" v="Gudlandsknuten" />
		<tag k="natural" v="hill" />
		<tag k="place" v="locality" />
		<tag k="ssr:stedsnr" v="144165" />
	</node>
	<node id="-402388" lat="58.5207944413" lon="5.83451943956">
		<tag k="fixme" v="consider natural=peak for the most distinct mountains in the district" />
		<tag k="name" v="Rudlebakkane" />
		<tag k="natural" v="hill" />
		<tag k="place" v="locality" />
		<tag k="ssr:stedsnr" v="144164" />
	</node>
	<node id="-402387" lat="58.5168916646" lon="5.85619444782">
		<tag k="fixme" v="consider natural=peak for the most distinct mountains in the district" />
		<tag k="name" v="Spørjefjellet" />
		<tag k="natural" v="hill" />
		<tag k="place" v="locality" />
		<tag k="ssr:stedsnr" v="144134" />
	</node>
	<node id="-402386" lat="58.5129472261" lon="5.83799444973">
		<tag k="name" v="Gomamyra" />
		<tag k="natural" v="wetland" />
		<tag k="ssr:stedsnr" v="144133" />
	</node>
	<node id="-402385" lat="58.6889861083" lon="5.57085832592">
		<tag k="name" v="Vågakanalen" />
		<tag k="ssr:stedsnr" v="121804" />
		<tag k="waterway" v="stream" />
	</node>
	<node id="-402384" lat="58.5444638878" lon="5.7538000022">
		<tag k="name" v="Bjåvatnet" />
		<tag k="natural" v="water" />
		<tag k="ssr:stedsnr" v="121411" />
		<tag k="water" v="lake" />
	</node>
	<node id="-402383" lat="58.5047571648" lon="5.82786004791">
		<tag k="fixme" v="consider place=hamlet" />
		<tag k="name" v="Sørskog" />
		<tag k="place" v="farm" />
		<tag k="ssr:stedsnr" v="121382" />
	</node>
	<node id="-402382" lat="58.5929444428" lon="5.78820834086">
		<tag k="name" v="Harafjellet" />
		<tag k="natural" v="hill" />
		<tag k="place" v="locality" />
		<tag k="ssr:stedsnr" v="121371" />
	</node>
	<node id="-402381" lat="58.5994888851" lon="5.77204444173">
		<tag k="alt_name" v="Vandavatnet, litla;Litle Vandavatnet" />
		<tag k="name" v="Litla Vandavatnet" />
		<tag k="natural" v="water" />
		<tag k="ssr:stedsnr" v="121363" />
	</node>
	<node id="-402380" lat="58.5903889118" lon="5.69317083795">
		<tag k="fixme" v="consider place=hamlet" />
		<tag k="name" v="Sør-Tjemsland" />
		<tag k="place" v="farm" />
		<tag k="ssr:stedsnr" v="121360" />
	</node>
	<node id="-402379" lat="58.5966254739" lon="5.64110614672">
		<tag k="fixme" v="consider place=hamlet" />
		<tag k="name" v="Husvegg" />
		<tag k="place" v="farm" />
		<tag k="ssr:stedsnr" v="121358" />
	</node>
	<node id="-402378" lat="58.5742805562" lon="5.69768610526">
		<tag k="name" v="Flådå" />
		<tag k="place" v="farm" />
		<tag k="ssr:stedsnr" v="121329" />
	</node>
	<node id="-402377" lat="58.5682916632" lon="5.66312500266">
		<tag k="name" v="Bakken" />
		<tag k="place" v="farm" />
		<tag k="ssr:stedsnr" v="121318" />
	</node>
	<node id="-402376" lat="58.652813478" lon="5.68221996875">
		<tag k="fixme" v="consider place=hamlet" />
		<tag k="name" v="Austra Håland" />
		<tag k="place" v="farm" />
		<tag k="ssr:stedsnr" v="121301" />
	</node>
	<node id="-402375" lat="58.6655576111" lon="5.66785990475">
		<tag k="fixme" v="consider place=hamlet" />
		<tag k="name" v="Bø" />
		<tag k="place" v="farm" />
		<tag k="ssr:stedsnr" v="121290" />
	</node>
	<node id="-402374" lat="58.6202833337" lon="5.79062778303">
		<tag k="fixme" v="consider natural=peak for the most distinct mountains in the district" />
		<tag k="name" v="Snødehaugen" />
		<tag k="natural" v="hill" />
		<tag k="place" v="locality" />
		<tag k="ssr:stedsnr" v="121284" />
	</node>
	<node id="-402373" lat="58.6265416699" lon="5.76528889351">
		<tag k="name" v="Grastjørna" />
		<tag k="natural" v="water" />
		<tag k="ssr:stedsnr" v="121277" />
	</node>
	<node id="-402372" lat="58.6244861133" lon="5.67453055222">
		<tag k="name" v="Primstad" />
		<tag k="place" v="farm" />
		<tag k="ssr:stedsnr" v="121275" />
	</node>
	<node id="-402371" lat="58.6255888861" lon="5.7023250039">
		<tag k="name" v="Varhaugåna" />
		<tag k="ssr:stedsnr" v="121269" />
		<tag k="waterway" v="river" />
	</node>
	<node id="-402370" lat="58.5380848671" lon="5.90476197133">
		<tag k="fixme" v="consider place=hamlet" />
		<tag k="name" v="Øvrabø" />
		<tag k="place" v="farm" />
		<tag k="ssr:stedsnr" v="121080" />
	</node>
	<node id="-402369" lat="58.6150954428" lon="5.85295192725">
		<tag k="fixme" v="consider place=hamlet" />
		<tag k="name" v="Risnes" />
		<tag k="place" v="farm" />
		<tag k="ssr:stedsnr" v="121031" />
	</node>
	<node id="-402368" lat="58.5215166655" lon="5.8081166659">
		<tag k="fixme" v="consider natural=peak for the most distinct mountains in the district" />
		<tag k="name" v="Salthelleren" />
		<tag k="natural" v="hill" />
		<tag k="place" v="locality" />
		<tag k="ssr:stedsnr" v="119954" />
	</node>
	<node id="-402367" lat="58.5313888886" lon="5.81253055008">
		<tag k="name" v="Dybingstjørna" />
		<tag k="natural" v="water" />
		<tag k="ssr:stedsnr" v="119941" />
	</node>
	<node id="-402366" lat="58.5047111188" lon="5.78342807381">
		<tag k="name" v="Vågsgapgrunnen" />
		<tag k="natural" v="shoal" />
		<tag k="place" v="locality" />
		<tag k="ssr:stedsnr" v="119600" />
	</node>
	<node id="-402365" lat="58.4995805578" lon="5.7851805495">
		<tag k="name" v="Indre Seiavika" />
		<tag k="natural" v="bay" />
		<tag k="ssr:stedsnr" v="119599" />
	</node>
	<node id="-402364" lat="58.4984416668" lon="5.78488888828">
		<tag k="name" v="Ytre Seiavika" />
		<tag k="natural" v="bay" />
		<tag k="ssr:stedsnr" v="119598" />
	</node>
	<node id="-402363" lat="58.6184888909" lon="5.62734722306">
		<tag k="name" v="Brattlandsåa" />
		<tag k="ssr:stedsnr" v="119584" />
		<tag k="waterway" v="river" />
	</node>
	<node id="-402362" lat="58.4822555552" lon="5.83473888985">
		<tag k="alt_name" v="Kobbervika" />
		<tag k="name" v="Kobbavika" />
		<tag k="natural" v="bay" />
		<tag k="ssr:stedsnr" v="119549" />
	</node>
	<node id="-402361" lat="58.5396861128" lon="5.68837222673">
		<tag k="fixme" v="consider seamark:type=rock or natural=shoal" />
		<tag k="name" v="Hesten" />
		<tag k="place" v="islet" />
		<tag k="ssr:stedsnr" v="118974" />
	</node>
	<node id="-402360" lat="58.5152704236" lon="5.80920278208">
		<tag k="fixme" v="consider place=hamlet" />
		<tag k="name" v="Ogna" />
		<tag k="place" v="farm" />
		<tag k="ssr:stedsnr" v="118164" />
	</node>
	<node id="-402359" lat="58.4803111111" lon="5.83174722528">
		<tag k="name" v="Urvika" />
		<tag k="natural" v="bay" />
		<tag k="ssr:stedsnr" v="116035" />
	</node>
	<node id="-402358" lat="58.6635861072" lon="5.63383333144">
		<tag k="bridge" v="yes" />
		<tag k="layer" v="1" />
		<tag k="name" v="Skjærpebekken" />
		<tag k="ssr:stedsnr" v="107756" />
	</node>
	<node id="-402357" lat="58.5213222241" lon="5.8008416655">
		<tag k="bridge" v="yes" />
		<tag k="layer" v="1" />
		<tag k="name" v="Helgå" />
		<tag k="ssr:stedsnr" v="107742" />
	</node>
	<node id="-402356" lat="58.5409750043" lon="5.73254166995">
		<tag k="bridge" v="yes" />
		<tag k="layer" v="1" />
		<tag k="name" v="Brusand" />
		<tag k="ssr:stedsnr" v="107735" />
	</node>
	<node id="-402355" lat="58.6537083316" lon="5.6414805609">
		<tag k="bridge" v="yes" />
		<tag k="layer" v="1" />
		<tag k="name" v="Kvie" />
		<tag k="ssr:stedsnr" v="107728" />
	</node>
	<node id="-402354" lat="58.5929944482" lon="5.83316944874">
		<tag k="bridge" v="yes" />
		<tag k="layer" v="1" />
		<tag k="name" v="Matnisdal" />
		<tag k="ssr:stedsnr" v="107725" />
	</node>
	<node id="-402353" lat="58.5509138849" lon="5.80012778206">
		<tag k="name" v="Store Kvittjørna" />
		<tag k="natural" v="water" />
		<tag k="ssr:stedsnr" v="103933" />
		<tag k="water" v="lake" />
	</node>
	<node id="-402352" lat="58.5591916709" lon="5.79177221787">
		<tag k="fixme" v="consider natural=peak for the most distinct mountains in the district" />
		<tag k="name" v="Kvennhamrane" />
		<tag k="natural" v="hill" />
		<tag k="place" v="locality" />
		<tag k="ssr:stedsnr" v="103932" />
	</node>
	<node id="-402351" lat="58.5723944432" lon="5.66344444841">
		<tag k="name" v="Steinhuset" />
		<tag k="place" v="farm" />
		<tag k="ssr:stedsnr" v="103874" />
	</node>
	<node id="-402350" lat="58.6004333328" lon="5.75026389243">
		<tag k="name" v="Vasshølen" />
		<tag k="place" v="locality" />
		<tag k="ssr:stedsnr" v="103612" />
	</node>
	<node id="-402349" lat="58.5240722233" lon="5.809258338">
		<tag k="name" v="Røyrmyr" />
		<tag k="place" v="farm" />
		<tag k="ssr:stedsnr" v="103609" />
	</node>
	<node id="-402348" lat="58.6160388925" lon="5.62443055574">
		<tag k="name" v="Bråtenhaugen" />
		<tag k="place" v="farm" />
		<tag k="ssr:stedsnr" v="101545" />
	</node>
	<node id="-402347" lat="58.4905305566" lon="5.80207499798">
		<tag k="name" v="Bekkjarvika" />
		<tag k="natural" v="bay" />
		<tag k="ssr:stedsnr" v="101227" />
	</node>
	<node id="-402346" lat="58.6090944419" lon="5.71549445102">
		<tag k="name" v="Skuthella nordre" />
		<tag k="natural" v="stone" />
		<tag k="ssr:stedsnr" v="100540" />
	</node>
	<node id="-402344" lat="58.6634666674" lon="5.718402781">
		<tag k="name" v="Areholen" />
		<tag k="place" v="farm" />
		<tag k="ssr:stedsnr" v="100323" />
	</node>
	<node id="-402343" lat="58.5371722213" lon="5.69407500512">
		<tag k="alt_name" v="Kjørkjetangen" />
		<tag k="name" v="Kyrkjetangen" />
		<tag k="natural" v="cape" />
		<tag k="ssr:stedsnr" v="100186" />
	</node>
	<node id="-402342" lat="58.6652657901" lon="5.6417796626">
		<tag k="fixme" v="consider place=hamlet" />
		<tag k="name" v="Nærbø" />
		<tag k="place" v="farm" />
		<tag k="ssr:stedsnr" v="85571" />
	</node>
	<node id="-402341" lat="58.4899944406" lon="5.83708055443">
		<tag k="name" v="Vatnamot" />
		<tag k="place" v="farm" />
		<tag k="ssr:stedsnr" v="84948" />
	</node>
	<node id="-402340" lat="58.4835206252" lon="5.82657637016">
		<tag k="name" v="Holmane" />
		<tag k="place" v="farm" />
		<tag k="ssr:stedsnr" v="84939" />
	</node>
	<node id="-402339" lat="58.6688102179" lon="5.64864567562">
		<tag k="fixme" v="consider place=hamlet" />
		<tag k="name" v="Bjorhaug" />
		<tag k="place" v="farm" />
		<tag k="ssr:stedsnr" v="84741" />
	</node>
	<node id="-402338" lat="58.5753611081" lon="5.70221111647">
		<tag k="name" v="Flota" />
		<tag k="place" v="farm" />
		<tag k="ssr:stedsnr" v="84331" />
	</node>
	<node id="-402337" lat="58.6378843005" lon="5.64377705058">
		<tag k="name" v="Ronga" />
		<tag k="place" v="farm" />
		<tag k="ssr:stedsnr" v="84326" />
	</node>
	<node id="-402336" lat="58.5876111142" lon="5.85910833291">
		<tag k="fixme" v="consider natural=peak for the most distinct mountains in the district" />
		<tag k="name" v="Perafjella" />
		<tag k="natural" v="hill" />
		<tag k="place" v="locality" />
		<tag k="ssr:stedsnr" v="83750" />
	</node>
	<node id="-402335" lat="58.6108666703" lon="5.8604666643">
		<tag k="name" v="Grastjørna" />
		<tag k="natural" v="water" />
		<tag k="ssr:stedsnr" v="83742" />
	</node>
	<node id="-402334" lat="58.5061277737" lon="5.85909722494">
		<tag k="name" v="Ulvhus" />
		<tag k="place" v="locality" />
		<tag k="ssr:stedsnr" v="83125" />
	</node>
	<node id="-402333" lat="58.6930888905" lon="5.60368055359">
		<tag k="name" v="Søylandsvatnet" />
		<tag k="natural" v="water" />
		<tag k="ssr:stedsnr" v="61799" />
		<tag k="water" v="lake" />
	</node>
	<node id="-402332" lat="58.6876300054" lon="5.64513190999">
		<tag k="fixme" v="consider place=hamlet" />
		<tag k="name" v="Torland" />
		<tag k="place" v="farm" />
		<tag k="ssr:stedsnr" v="61797" />
	</node>
	<node id="-402331" lat="58.6810120055" lon="5.60953846907">
		<tag k="fixme" v="consider place=hamlet" />
		<tag k="name" v="Søyland" />
		<tag k="place" v="farm" />
		<tag k="ssr:stedsnr" v="61751" />
	</node>
	<node id="-402330" lat="58.6805361114" lon="5.60841945209">
		<tag k="name" v="Søyland" />
		<tag k="place" v="farm" />
		<tag k="ssr:stedsnr" v="61750" />
	</node>
	<node id="-402329" lat="58.4942277809" lon="5.79505833531">
		<tag k="fixme" v="consider place=hamlet" />
		<tag k="name" v="Haver" />
		<tag k="place" v="farm" />
		<tag k="ssr:stedsnr" v="61742" />
	</node>
	<node id="-402328" lat="58.4992750034" lon="5.85318054692">
		<tag k="fixme" v="consider natural=peak for the most distinct mountains in the district" />
		<tag k="name" v="Krokafjellet" />
		<tag k="natural" v="hill" />
		<tag k="place" v="locality" />
		<tag k="ssr:stedsnr" v="61741" />
	</node>
	<node id="-402327" lat="58.4885497109" lon="5.83139502467">
		<tag k="name" v="Hundamyra" />
		<tag k="natural" v="wetland" />
		<tag k="ssr:stedsnr" v="61692" />
	</node>
	<node id="-402326" lat="58.5150694438" lon="5.84149723029">
		<tag k="name" v="Lauvåsvatnet" />
		<tag k="natural" v="water" />
		<tag k="ssr:stedsnr" v="61417" />
	</node>
	<node id="-402325" lat="58.5140638867" lon="5.83490277627">
		<tag k="alt_name" v="Kvednatjørna" />
		<tag k="name" v="Kvernatjørni" />
		<tag k="natural" v="water" />
		<tag k="ssr:stedsnr" v="61416" />
	</node>
	<node id="-402324" lat="58.5227727079" lon="5.82098623228">
		<tag k="fixme" v="consider place=hamlet" />
		<tag k="name" v="Lindtjørn" />
		<tag k="place" v="farm" />
		<tag k="ssr:stedsnr" v="61412" />
	</node>
	<node id="-402323" lat="58.5205055574" lon="5.83859443572">
		<tag k="alt_name" v="øvra Grolandstjørna;nedra Grolandstjørna" />
		<tag k="name" v="Grolandsvatnet" />
		<tag k="natural" v="water" />
		<tag k="ssr:stedsnr" v="61409" />
	</node>
	<node id="-402322" lat="58.5449458523" lon="5.69454429062">
		<tag k="fixme" v="consider place=hamlet" />
		<tag k="name" v="Kvassheim" />
		<tag k="place" v="farm" />
		<tag k="ssr:stedsnr" v="61402" />
	</node>
	<node id="-402321" lat="58.5789056594" lon="5.6620864214">
		<tag k="fixme" v="consider place=hamlet" />
		<tag k="name" v="Stavnheim" />
		<tag k="place" v="farm" />
		<tag k="ssr:stedsnr" v="61358" />
	</node>
	<node id="-402320" lat="58.5871527809" lon="5.63656388388">
		<tag k="name" v="Madlandshamna" />
		<tag k="natural" v="cape" />
		<tag k="ssr:stedsnr" v="61357" />
	</node>
	<node id="-402319" lat="58.5977241004" lon="5.66219002222">
		<tag k="alt_name" v="Varhaug" />
		<tag k="amenity" v="place_of_worship" />
		<tag k="denomination" v="lutheran" />
		<tag k="name" v="Varhaug kyrkje" />
		<tag k="religion" v="christian" />
		<tag k="ssr:stedsnr" v="61346" />
	</node>
	<node id="-402318" lat="58.5556055591" lon="5.6999722218">
		<tag k="alt_name" v="Kvassheimsåa" />
		<tag k="name" v="Kvassheimsåna" />
		<tag k="ssr:stedsnr" v="61332" />
		<tag k="waterway" v="stream" />
	</node>
	<node id="-402317" lat="58.5617430892" lon="5.70232594305">
		<tag k="fixme" v="consider place=hamlet" />
		<tag k="name" v="Haugland" />
		<tag k="place" v="farm" />
		<tag k="ssr:stedsnr" v="61324" />
	</node>
	<node id="-402316" lat="58.5741823024" lon="5.72393633936">
		<tag k="fixme" v="consider place=hamlet" />
		<tag k="name" v="Rugland" />
		<tag k="place" v="farm" />
		<tag k="ssr:stedsnr" v="61318" />
	</node>
	<node id="-402315" lat="58.5700895396" lon="5.73697980571">
		<tag k="fixme" v="consider place=hamlet" />
		<tag k="name" v="Herikstad" />
		<tag k="place" v="farm" />
		<tag k="ssr:stedsnr" v="61315" />
	</node>
	<node id="-402314" lat="58.5848361075" lon="5.80256667082">
		<tag k="name" v="Neset" />
		<tag k="place" v="farm" />
		<tag k="ssr:stedsnr" v="61308" />
	</node>
	<node id="-402313" lat="58.6417916696" lon="5.62229999172">
		<tag k="alt_name" v="Storebakken" />
		<tag k="name" v="Storbakken" />
		<tag k="place" v="farm" />
		<tag k="ssr:stedsnr" v="61301" />
	</node>
	<node id="-402312" lat="58.6405440506" lon="5.58523090025">
		<tag k="name" v="Sørreimsvika" />
		<tag k="natural" v="bay" />
		<tag k="old_name" v="Sør-Reimsvika" />
		<tag k="ssr:stedsnr" v="61300" />
	</node>
	<node id="-402311" lat="58.6412861112" lon="5.75546110772">
		<tag k="alt_name" v="Steinsvassåa" />
		<tag k="name" v="Steinsvassåna" />
		<tag k="ssr:stedsnr" v="61245" />
		<tag k="waterway" v="stream" />
	</node>
	<node id="-402310" lat="58.5124749967" lon="5.78070277934">
		<tag k="alt_name" v="Ognabukti" />
		<tag k="name" v="Ognabukta" />
		<tag k="natural" v="bay" />
		<tag k="ssr:stedsnr" v="60377" />
	</node>
	<node id="-402309" lat="58.5342861145" lon="5.78607499529">
		<tag k="fixme" v="consider natural=peak for the most distinct mountains in the district" />
		<tag k="name" v="Orretua" />
		<tag k="natural" v="hill" />
		<tag k="place" v="locality" />
		<tag k="ssr:stedsnr" v="59931" />
	</node>
	<node id="-402308" lat="58.5225194411" lon="5.7920833265">
		<tag k="fixme" v="consider natural=peak for the most distinct mountains in the district" />
		<tag k="name" v="Kattafjellet" />
		<tag k="natural" v="hill" />
		<tag k="place" v="locality" />
		<tag k="ssr:stedsnr" v="59930" />
	</node>
	<node id="-402307" lat="58.5965388884" lon="5.62533055292">
		<tag k="fixme" v="verify maritime location" />
		<tag k="mooring" v="yes" />
		<tag k="name" v="Husveggstøa" />
		<tag k="place" v="locality" />
		<tag k="ssr:stedsnr" v="59896" />
	</node>
	<node id="-402306" lat="58.650483332" lon="5.567174996">
		<tag k="name" v="Naustertangen" />
		<tag k="natural" v="cape" />
		<tag k="ssr:stedsnr" v="58958" />
	</node>
	<node id="-402305" lat="58.5547194433" lon="5.6684972296">
		<tag k="cemetery" v="grave" />
		<tag k="name" v="Langhaug" />
		<tag k="place" v="locality" />
		<tag k="ssr:stedsnr" v="57957" />
	</node>
	<node id="-402304" lat="58.5592250018" lon="5.74737777499">
		<tag k="name" v="Dalen" />
		<tag k="place" v="locality" />
		<tag k="ssr:stedsnr" v="57946" />
	</node>
	<node id="-402303" lat="58.5403716759" lon="5.7488407215">
		<tag k="name" v="Brusand stasjon" />
		<tag k="railway" v="station" />
		<tag k="ssr:stedsnr" v="57945" />
		<tag k="train" v="yes" />
	</node>
	<node id="-402302" lat="58.62656111" lon="5.62706944531">
		<tag k="man_made" v="tower" />
		<tag k="name" v="Varhaug" />
		<tag k="ssr:stedsnr" v="57552" />
		<tag k="tower:type" v="communications" />
	</node>
	<node id="-402301" lat="58.4881249961" lon="5.83845832575">
		<tag k="name" v="Numberget" />
		<tag k="natural" v="hill" />
		<tag k="place" v="locality" />
		<tag k="ssr:stedsnr" v="57052" />
	</node>
	<node id="-402300" lat="58.4868055541" lon="5.81595556118">
		<tag k="name" v="Kontralen" />
		<tag k="natural" v="hill" />
		<tag k="place" v="locality" />
		<tag k="ssr:stedsnr" v="55029" />
	</node>
	<node id="-402299" lat="58.5940361075" lon="5.71049723101">
		<tag k="bridge" v="yes" />
		<tag k="layer" v="1" />
		<tag k="name" v="Årslandsåna" />
		<tag k="ssr:stedsnr" v="46760" />
	</node>
	<node id="-402298" lat="58.6237777738" lon="5.65551666526">
		<tag k="bridge" v="yes" />
		<tag k="layer" v="1" />
		<tag k="name" v="Ånestad" />
		<tag k="ssr:stedsnr" v="46758" />
	</node>
	<node id="-402297" lat="58.5971416636" lon="5.65544721877">
		<tag k="bridge" v="yes" />
		<tag k="layer" v="1" />
		<tag k="name" v="Odland" />
		<tag k="ssr:stedsnr" v="46753" />
	</node>
	<node id="-402296" lat="58.6035722194" lon="5.71637500833">
		<tag k="name" v="Skjengbakken" />
		<tag k="natural" v="hill" />
		<tag k="place" v="locality" />
		<tag k="ssr:stedsnr" v="42866" />
	</node>
	<node id="-402295" lat="58.5630500031" lon="5.66149722872">
		<tag k="name" v="Harakalvane" />
		<tag k="place" v="locality" />
		<tag k="ssr:stedsnr" v="42859" />
	</node>
	<node id="-402294" lat="58.5655000038" lon="5.76136667107">
		<tag k="fixme" v="consider natural=peak for the most distinct mountains in the district" />
		<tag k="name" v="Hadlandsfjellet" />
		<tag k="natural" v="hill" />
		<tag k="place" v="locality" />
		<tag k="ssr:stedsnr" v="42588" />
	</node>
	<node id="-402293" lat="58.5791416704" lon="5.75516665817">
		<tag k="name" v="Håbakken" />
		<tag k="natural" v="slope" />
		<tag k="place" v="locality" />
		<tag k="ssr:stedsnr" v="42570" />
	</node>
	<node id="-402292" lat="58.5482388934" lon="5.73665278334">
		<tag k="name" v="Stovebakken" />
		<tag k="place" v="farm" />
		<tag k="ssr:stedsnr" v="41973" />
	</node>
	<node id="-402291" lat="58.5649472251" lon="5.78763332721">
		<tag k="name" v="Kvitemyr" />
		<tag k="place" v="farm" />
		<tag k="ssr:stedsnr" v="40647" />
	</node>
	<node id="-402290" lat="58.5949166651" lon="5.79757222786">
		<tag k="fixme" v="consider natural=peak for the most distinct mountains in the district" />
		<tag k="name" v="Kristianfjellet" />
		<tag k="natural" v="hill" />
		<tag k="place" v="locality" />
		<tag k="ssr:stedsnr" v="40613" />
	</node>
	<node id="-402289" lat="58.6379111132" lon="5.67632778215">
		<tag k="fixme" v="consider natural=peak for the most distinct mountains in the district" />
		<tag k="name" v="Pighaug" />
		<tag k="natural" v="hill" />
		<tag k="place" v="locality" />
		<tag k="ssr:stedsnr" v="40608" />
	</node>
	<node id="-402288" lat="58.480752774" lon="5.8187083396">
		<tag k="bay" v="fjord" />
		<tag k="name" v="Breidagapet" />
		<tag k="natural" v="bay" />
		<tag k="ssr:stedsnr" v="40515" />
	</node>
	<node id="-402287" lat="58.6446999971" lon="5.57334721621">
		<tag k="name" v="Kummeltangen" />
		<tag k="natural" v="cape" />
		<tag k="ssr:stedsnr" v="39929" />
	</node>
	<node id="-402286" lat="58.6158638869" lon="5.69242777486">
		<tag k="name" v="Sjoarskjella" />
		<tag k="natural" v="spring" />
		<tag k="ssr:stedsnr" v="39492" />
	</node>
	<node id="-402285" lat="58.5672972208" lon="5.6444555556">
		<tag k="name" v="Stavnheimsfluna" />
		<tag k="place" v="locality" />
		<tag k="seamark:type" v="rock" />
		<tag k="ssr:stedsnr" v="39186" />
	</node>
	<node id="-402284" lat="58.5967805582" lon="5.62081389535">
		<tag k="name" v="Skipteshaugfluna" />
		<tag k="place" v="locality" />
		<tag k="seamark:type" v="rock" />
		<tag k="ssr:stedsnr" v="39178" />
	</node>
	<node id="-402283" lat="58.5510166631" lon="5.66644166447">
		<tag k="name" v="Bringsvågen" />
		<tag k="natural" v="bay" />
		<tag k="ssr:stedsnr" v="39158" />
	</node>
	<node id="-402282" lat="58.651891669" lon="5.72465833882">
		<tag k="fixme" v="consider place=hamlet" />
		<tag k="name" v="Sveine" />
		<tag k="place" v="farm" />
		<tag k="ssr:stedsnr" v="24633" />
	</node>
	<node id="-402281" lat="58.4900249964" lon="5.83843611347">
		<tag k="name" v="Vatnamot" />
		<tag k="place" v="farm" />
		<tag k="ssr:stedsnr" v="23942" />
	</node>
	<node id="-402279" lat="58.5544888848" lon="5.85824444707">
		<tag k="name" v="Øvre Hedlevatnet" />
		<tag k="natural" v="water" />
		<tag k="ssr:stedsnr" v="23166" />
		<tag k="water" v="lake" />
	</node>
	<node id="-402278" lat="58.5327027787" lon="5.87132777498">
		<tag k="name" v="Kvednahølen" />
		<tag k="place" v="locality" />
		<tag k="ssr:stedsnr" v="23149" />
	</node>
	<node id="-402277" lat="58.5261083289" lon="5.88648888565">
		<tag k="name" v="Glovetjørn" />
		<tag k="natural" v="water" />
		<tag k="ssr:stedsnr" v="23148" />
		<tag k="water" v="lake" />
	</node>
	<node id="-402276" lat="58.5044888878" lon="5.84285832776">
		<tag k="fixme" v="consider natural=peak for the most distinct mountains in the district" />
		<tag k="name" v="Beinskinnfjellet" />
		<tag k="natural" v="hill" />
		<tag k="place" v="locality" />
		<tag k="ssr:stedsnr" v="23144" />
	</node>
	<node id="-402275" lat="58.4905011259" lon="5.79860467953">
		<tag k="name" v="Store Hellesundholmen" />
		<tag k="place" v="islet" />
		<tag k="ssr:stedsnr" v="20929" />
	</node>
	<node id="-402274" lat="58.4811499998" lon="5.81560555134">
		<tag k="fixme" v="consider seamark:type=rock or natural=shoal" />
		<tag k="name" v="Svarta Skjeret" />
		<tag k="place" v="islet" />
		<tag k="ssr:stedsnr" v="717" />
	</node>
	<node id="-402273" lat="58.5217111143" lon="5.80233889602">
		<tag k="name" v="Kvianes" />
		<tag k="place" v="farm" />
		<tag k="ssr:stedsnr" v="450" />
	</node>
	<node id="-402272" lat="58.530361115" lon="5.79560555283">
		<tag k="name" v="Revafjellet" />
		<tag k="natural" v="hill" />
		<tag k="place" v="locality" />
		<tag k="ssr:stedsnr" v="447" />
	</node>
	<node id="-402271" lat="58.5168852071" lon="5.82488495648">
		<tag k="fixme" v="consider place=hamlet" />
		<tag k="name" v="Hylland" />
		<tag k="place" v="farm" />
		<tag k="ssr:stedsnr" v="436" />
	</node>
	<node id="-402270" lat="58.552416157" lon="5.73123585134">
		<tag k="fixme" v="consider place=hamlet" />
		<tag k="name" v="Stokkaland" />
		<tag k="place" v="farm" />
		<tag k="ssr:stedsnr" v="428" />
	</node>
	<node id="-402268" lat="58.5536555534" lon="5.82267500823">
		<tag k="name" v="Fisketjørna" />
		<tag k="natural" v="water" />
		<tag k="ssr:stedsnr" v="419" />
	</node>
	<node id="-402267" lat="58.5915694468" lon="5.80513611445">
		<tag k="name" v="Kutjørna" />
		<tag k="natural" v="water" />
		<tag k="ssr:stedsnr" v="375" />
	</node>
	<node id="-402266" lat="58.6122749986" lon="5.82066111798">
		<tag k="name" v="Vardurda" />
		<tag k="natural" v="hill" />
		<tag k="place" v="locality" />
		<tag k="ssr:stedsnr" v="360" />
	</node>
	<node id="-402265" lat="58.5708027804" lon="5.71046389111">
		<tag k="name" v="Øydgard" />
		<tag k="old_name" v="Øygard" />
		<tag k="place" v="farm" />
		<tag k="ssr:stedsnr" v="334" />
	</node>
	<node id="-402264" lat="58.6423750014" lon="5.72491388843">
		<tag k="name" v="Årdal" />
		<tag k="place" v="farm" />
		<tag k="ssr:stedsnr" v="319" />
	</node>
	<node id="-402263" lat="58.664311112" lon="5.69746110531">
		<tag k="alt_name" v="Bøbakkane" />
		<tag k="name" v="Bøbakken" />
		<tag k="place" v="farm" />
		<tag k="ssr:stedsnr" v="301" />
	</node>
	<node id="-402262" lat="58.659588887" lon="5.70442778349">
		<tag k="name" v="Indrebø" />
		<tag k="place" v="farm" />
		<tag k="ssr:stedsnr" v="299" />
	</node>
	<node id="-402261" lat="58.6223305513" lon="5.76354721975">
		<tag k="alt_name" v="Haugtjelmtjørna" />
		<tag k="name" v="Høykimmeltjørna" />
		<tag k="natural" v="water" />
		<tag k="old_name" v="Høykjimmeltjørna" />
		<tag k="ssr:stedsnr" v="288" />
	</node>
	<node id="-402260" lat="58.6201358818" lon="5.68327193343">
		<tag k="fixme" v="consider place=hamlet" />
		<tag k="name" v="Skrettingland" />
		<tag k="place" v="farm" />
		<tag k="ssr:stedsnr" v="286" />
	</node>
	<node id="-402259" lat="58.6202863914" lon="5.72041707604">
		<tag k="alt_name" v="Heddå" />
		<tag k="name" v="Litlaland" />
		<tag k="place" v="farm" />
		<tag k="ssr:stedsnr" v="283" />
	</node>
	<node id="-402258" lat="58.6367796161" lon="5.65272679372">
		<tag k="name" v="Kvasselbakken" />
		<tag k="place" v="farm" />
		<tag k="ssr:stedsnr" v="269" />
	</node>
	<node id="-402257" lat="58.5374444481" lon="5.92044444144">
		<tag k="alt_name" v="Auratjørna" />
		<tag k="name" v="Auratjørn" />
		<tag k="natural" v="water" />
		<tag k="ssr:stedsnr" v="75" />
	</node>
	<node id="-402256" lat="58.6020749968" lon="5.89811111056">
		<tag k="name" v="Vollskardvatnet" />
		<tag k="natural" v="water" />
		<tag k="ssr:stedsnr" v="3" />
	</node>
	<node id="-402255" lat="58.4947992925" lon="5.83060920539">
		<tag k="name" v="Vatnamot" />
		<tag k="place" v="farm" />
		<tag k="ssr:stedsnr" v="266932" />
	</node>
	<node id="-402254" lat="58.6582924044" lon="5.65691511292">
		<tag k="amenity" v="place_of_worship" />
		<tag k="denomination" v="lutheran" />
		<tag k="name" v="Nærbø kyrkje" />
		<tag k="religion" v="christian" />
		<tag k="ssr:stedsnr" v="991196" />
	</node>
	<node id="-402253" lat="58.6657763877" lon="5.64055360282">
		<tag k="name" v="Nærbø stasjon" />
		<tag k="railway" v="station" />
		<tag k="ssr:stedsnr" v="990085" />
		<tag k="train" v="yes" />
	</node>
	<node id="-402252" lat="58.51388611" lon="5.80556944697">
		<tag k="bridge" v="yes" />
		<tag k="layer" v="1" />
		<tag k="name" v="Ogna" />
		<tag k="ssr:stedsnr" v="896759" />
	</node>
	<node id="-402251" lat="58.6977055561" lon="5.60313611572">
		<tag k="bridge" v="yes" />
		<tag k="layer" v="1" />
		<tag k="name" v="Kongeheia" />
		<tag k="ssr:stedsnr" v="896757" />
	</node>
	<node id="-402250" lat="58.5938333366" lon="5.70456389663">
		<tag k="name" v="Melholen" />
		<tag k="place" v="farm" />
		<tag k="ssr:stedsnr" v="892871" />
	</node>
	<node id="-402249" lat="58.5911499978" lon="5.68658611203">
		<tag k="name" v="Mælandsgrova" />
		<tag k="natural" v="water" />
		<tag k="ssr:stedsnr" v="892868" />
	</node>
	<node id="-402248" lat="58.5912277761" lon="5.73135554734">
		<tag k="name" v="Kvassteinen" />
		<tag k="place" v="locality" />
		<tag k="ssr:stedsnr" v="892585" />
	</node>
	<node id="-402247" lat="58.5941555548" lon="5.79794999992">
		<tag k="name" v="Uvarden" />
		<tag k="natural" v="hill" />
		<tag k="place" v="locality" />
		<tag k="ssr:stedsnr" v="892580" />
	</node>
	<node id="-402246" lat="58.5155472225" lon="5.79182499795">
		<tag k="name" v="Indre Stoholmen" />
		<tag k="natural" v="bay" />
		<tag k="ssr:stedsnr" v="892211" />
	</node>
	<node id="-402245" lat="58.5165833332" lon="5.79154167355">
		<tag k="name" v="Osen" />
		<tag k="natural" v="bay" />
		<tag k="ssr:stedsnr" v="892210" />
	</node>
	<node id="-402244" lat="58.6412027802" lon="5.7120277697">
		<tag k="name" v="Nygård" />
		<tag k="place" v="farm" />
		<tag k="ssr:stedsnr" v="890621" />
	</node>
	<node id="-402243" lat="58.6149166654" lon="5.76144166924">
		<tag k="name" v="Snøderyggen" />
		<tag k="natural" v="hill" />
		<tag k="place" v="locality" />
		<tag k="ssr:stedsnr" v="890528" />
	</node>
	<node id="-402242" lat="58.622806307" lon="5.70941708149">
		<tag k="name" v="Ryggjasteinen" />
		<tag k="natural" v="stone" />
		<tag k="ssr:stedsnr" v="889536" />
	</node>
	<node id="-402241" lat="58.5065138883" lon="5.78922777962">
		<tag k="name" v="Store Hola" />
		<tag k="natural" v="bay" />
		<tag k="ssr:stedsnr" v="889496" />
	</node>
	<node id="-402239" lat="58.6157916672" lon="5.7427388864">
		<tag k="name" v="Kråkura" />
		<tag k="natural" v="scree" />
		<tag k="ssr:stedsnr" v="889484" />
	</node>
	<node id="-402238" lat="58.6723138921" lon="5.61079167343">
		<tag k="name" v="Dampen" />
		<tag k="place" v="farm" />
		<tag k="ssr:stedsnr" v="889352" />
	</node>
	<node id="-402237" lat="58.5366722212" lon="5.68583611404">
		<tag k="name" v="Hestasteinen" />
		<tag k="place" v="locality" />
		<tag k="seamark:type" v="rock" />
		<tag k="ssr:stedsnr" v="889247" />
	</node>
	<node id="-402236" lat="58.6672472196" lon="5.54068056013">
		<tag k="name" v="Øyrsteinen" />
		<tag k="place" v="locality" />
		<tag k="seamark:type" v="rock" />
		<tag k="ssr:stedsnr" v="889063" />
	</node>
	<node id="-402235" lat="58.6776555581" lon="5.6084611112">
		<tag k="name" v="Håelva" />
		<tag k="ssr:stedsnr" v="889056" />
		<tag k="waterway" v="river" />
	</node>
	<node id="-402234" lat="58.6398918484" lon="5.584500174">
		<tag k="name" v="Hella" />
		<tag k="natural" v="stone" />
		<tag k="ssr:stedsnr" v="889016" />
	</node>
	<node id="-402233" lat="58.5522444466" lon="5.77921944245">
		<tag k="fixme" v="consider natural=peak for the most distinct mountains in the district" />
		<tag k="name" v="Skallen" />
		<tag k="natural" v="hill" />
		<tag k="place" v="locality" />
		<tag k="ssr:stedsnr" v="892915" />
	</node>
	<node id="-402232" lat="58.5013916657" lon="5.78660278212">
		<tag k="name" v="Bekkjarvika" />
		<tag k="natural" v="bay" />
		<tag k="old_name" v="Bekkjaviki;Bekkjarviki" />
		<tag k="ssr:stedsnr" v="477439" />
	</node>
	<node id="-402231" lat="58.6454333347" lon="5.67013610403">
		<tag k="bridge" v="yes" />
		<tag k="layer" v="1" />
		<tag k="name" v="Rongen" />
		<tag k="ssr:stedsnr" v="411715" />
	</node>
	<node id="-402230" lat="58.5716861092" lon="5.68694167207">
		<tag k="bridge" v="yes" />
		<tag k="layer" v="1" />
		<tag k="name" v="Vigrestad" />
		<tag k="ssr:stedsnr" v="411702" />
	</node>
	<node id="-402229" lat="58.6859194419" lon="5.59364166977">
		<tag k="amenity" v="school" />
		<tag k="name" v="Høyland" />
		<tag k="ssr:stedsnr" v="406657" />
	</node>
	<node id="-402228" lat="58.5884666656" lon="5.7225083301">
		<tag k="name" v="Steinhuset" />
		<tag k="place" v="farm" />
		<tag k="ssr:stedsnr" v="406608" />
	</node>
	<node id="-402227" lat="58.5152277821" lon="5.81179721746">
		<tag k="name" v="Gurihelleren" />
		<tag k="natural" v="hill" />
		<tag k="place" v="locality" />
		<tag k="ssr:stedsnr" v="406270" />
	</node>
	<node id="-402226" lat="58.502830559" lon="5.8276388845">
		<tag k="name" v="Dauremålsfjellet" />
		<tag k="natural" v="hill" />
		<tag k="place" v="locality" />
		<tag k="ssr:stedsnr" v="406225" />
	</node>
	<node id="-402225" lat="58.5153991625" lon="5.79057266825">
		<tag k="fixme" v="consider seamark:type=rock or natural=shoal" />
		<tag k="name" v="Stoholmen" />
		<tag k="place" v="islet" />
		<tag k="ssr:stedsnr" v="405999" />
	</node>
	<node id="-402224" lat="58.4922277779" lon="5.78544167224">
		<tag k="name" v="Løflua" />
		<tag k="place" v="locality" />
		<tag k="seamark:type" v="rock" />
		<tag k="ssr:stedsnr" v="405896" />
	</node>
	<node id="-402223" lat="58.5619000034" lon="5.79917777317">
		<tag k="fixme" v="consider natural=peak for the most distinct mountains in the district" />
		<tag k="name" v="Høgevarden" />
		<tag k="natural" v="hill" />
		<tag k="place" v="locality" />
		<tag k="ssr:stedsnr" v="404613" />
	</node>
	<node id="-402222" lat="58.567327775" lon="5.78402499433">
		<tag k="fixme" v="consider natural=peak for the most distinct mountains in the district" />
		<tag k="name" v="Pigane" />
		<tag k="natural" v="hill" />
		<tag k="place" v="locality" />
		<tag k="ssr:stedsnr" v="404610" />
	</node>
	<node id="-402221" lat="58.6110611116" lon="5.64821666866">
		<tag k="name" v="Leksaren" />
		<tag k="place" v="locality" />
		<tag k="ssr:stedsnr" v="404533" />
	</node>
	<node id="-402219" lat="58.4797555576" lon="5.82094444918">
		<tag k="fixme" v="consider seamark:type=rock or natural=shoal" />
		<tag k="name" v="Svartaskjeret" />
		<tag k="place" v="islet" />
		<tag k="ssr:stedsnr" v="404477" />
	</node>
	<node id="-402218" lat="58.4834638864" lon="5.82079722074">
		<tag k="name" v="Guleklumpen" />
		<tag k="place" v="islet" />
		<tag k="ssr:stedsnr" v="404474" />
	</node>
	<node id="-402217" lat="58.6553555574" lon="5.69412222384">
		<tag k="name" v="Åretua" />
		<tag k="place" v="farm" />
		<tag k="ssr:stedsnr" v="404334" />
	</node>
	<node id="-402216" lat="58.6159305551" lon="5.70229444932">
		<tag k="name" v="Lyngbakkane" />
		<tag k="natural" v="slope" />
		<tag k="place" v="locality" />
		<tag k="ssr:stedsnr" v="403532" />
	</node>
	<node id="-402215" lat="58.6302055594" lon="5.80852222582">
		<tag k="name" v="Ryggen" />
		<tag k="natural" v="cape" />
		<tag k="ssr:stedsnr" v="403488" />
	</node>
	<node id="-402214" lat="58.613658333" lon="5.72840000675">
		<tag k="name" v="Karitufta" />
		<tag k="place" v="locality" />
		<tag k="ssr:stedsnr" v="403484" />
	</node>
	<node id="-402213" lat="58.6705027739" lon="5.63836943705">
		<tag k="amenity" v="school" />
		<tag k="name" v="Nærbø" />
		<tag k="ssr:stedsnr" v="403336" />
	</node>
	<node id="-402212" lat="58.5662277751" lon="5.65441665859">
		<tag k="name" v="Høgsetet" />
		<tag k="place" v="farm" />
		<tag k="ssr:stedsnr" v="403215" />
	</node>
	<node id="-402211" lat="58.6630111089" lon="5.55201944882">
		<tag k="name" v="Nørdra Fuglavika" />
		<tag k="natural" v="bay" />
		<tag k="ssr:stedsnr" v="403046" />
	</node>
	<node id="-402210" lat="58.5019888883" lon="5.85275278195">
		<tag k="fixme" v="consider natural=peak for the most distinct mountains in the district" />
		<tag k="name" v="Tydletofjellet" />
		<tag k="natural" v="hill" />
		<tag k="place" v="locality" />
		<tag k="ssr:stedsnr" v="386143" />
	</node>
	<node id="-402209" lat="58.5486166629" lon="5.90647777985">
		<tag k="name" v="Mushola" />
		<tag k="natural" v="wetland" />
		<tag k="ssr:stedsnr" v="386139" />
	</node>
	<node id="-402208" lat="58.5468583333" lon="5.91227499334">
		<tag k="fixme" v="consider natural=peak for the most distinct mountains in the district" />
		<tag k="name" v="Soltua" />
		<tag k="natural" v="hill" />
		<tag k="place" v="locality" />
		<tag k="ssr:stedsnr" v="386138" />
	</node>
	<node id="-402207" lat="58.5292749989" lon="5.84404722161">
		<tag k="name" v="Kvassåstjørna" />
		<tag k="natural" v="water" />
		<tag k="ssr:stedsnr" v="386131" />
		<tag k="water" v="lake" />
	</node>
	<node id="-402206" lat="58.513205554" lon="5.8482222149">
		<tag k="alt_name" v="Tvitjørn nedra" />
		<tag k="name" v="Nedra Tvitjørn" />
		<tag k="natural" v="water" />
		<tag k="ssr:stedsnr" v="386119" />
		<tag k="water" v="lake" />
	</node>
	<node id="-402205" lat="58.5479277755" lon="5.82371111318">
		<tag k="fixme" v="consider natural=peak for the most distinct mountains in the district" />
		<tag k="name" v="Smøråsen" />
		<tag k="natural" v="hill" />
		<tag k="place" v="locality" />
		<tag k="ssr:stedsnr" v="365185" />
	</node>
	<node id="-402203" lat="58.4815194435" lon="5.84200277762">
		<tag k="name" v="Moivika" />
		<tag k="natural" v="bay" />
		<tag k="ssr:stedsnr" v="364731" />
	</node>
	<node id="-402202" lat="58.488303994" lon="5.83971392965">
		<tag k="fixme" v="consider place=hamlet" />
		<tag k="name" v="Vatnamot" />
		<tag k="place" v="farm" />
		<tag k="ssr:stedsnr" v="364719" />
	</node>
	<node id="-402201" lat="58.5301535472" lon="5.78442180857">
		<tag k="fixme" v="consider place=hamlet" />
		<tag k="name" v="Varden" />
		<tag k="place" v="farm" />
		<tag k="ssr:stedsnr" v="364438" />
	</node>
	<node id="-402200" lat="58.5038638877" lon="5.80195833667">
		<tag k="name" v="Sirevåg" />
		<tag k="place" v="village" />
		<tag k="ssr:stedsnr" v="364434" />
	</node>
	<node id="-402199" lat="58.5391169083" lon="5.78809297728">
		<tag k="fixme" v="consider place=hamlet" />
		<tag k="name" v="Bogsdalen" />
		<tag k="place" v="farm" />
		<tag k="ssr:stedsnr" v="364423" />
	</node>
	<node id="-402198" lat="58.5852027752" lon="5.68616389597">
		<tag k="alt_name" v="Årslandsåa" />
		<tag k="name" v="Årslandsåna" />
		<tag k="ssr:stedsnr" v="364382" />
		<tag k="waterway" v="stream" />
	</node>
	<node id="-402197" lat="58.5967982034" lon="5.69739975679">
		<tag k="fixme" v="consider place=hamlet" />
		<tag k="name" v="Håland" />
		<tag k="place" v="farm" />
		<tag k="ssr:stedsnr" v="364377" />
	</node>
	<node id="-402196" lat="58.6128499985" lon="5.80898055969">
		<tag k="name" v="Ihamaren" />
		<tag k="natural" v="hill" />
		<tag k="place" v="locality" />
		<tag k="ssr:stedsnr" v="364369" />
	</node>
	<node id="-402195" lat="58.6181027798" lon="5.65701943652">
		<tag k="name" v="Varhaug" />
		<tag k="place" v="village" />
		<tag k="ssr:stedsnr" v="364365" />
	</node>
	<node id="-402194" lat="58.6075388909" lon="5.62984444155">
		<tag k="alt_name" v="Nøvlestad" />
		<tag k="name" v="Nuvlust" />
		<tag k="place" v="farm" />
		<tag k="ssr:stedsnr" v="364363" />
	</node>
	<node id="-402193" lat="58.6107527814" lon="5.73624444625">
		<tag k="name" v="Elgane" />
		<tag k="place" v="farm" />
		<tag k="ssr:stedsnr" v="364360" />
	</node>
	<node id="-402192" lat="58.5650444452" lon="5.77979167047">
		<tag k="alt_name" v="Rudlå" />
		<tag k="name" v="Rudla" />
		<tag k="place" v="farm" />
		<tag k="ssr:stedsnr" v="364353" />
	</node>
	<node id="-402191" lat="58.5671833304" lon="5.83931666702">
		<tag k="alt_name" v="Ostjørna" />
		<tag k="name" v="Ljostjørna" />
		<tag k="natural" v="water" />
		<tag k="ssr:stedsnr" v="364351" />
	</node>
	<node id="-402190" lat="58.5715277784" lon="5.65036111925">
		<tag k="name" v="Stavnheimsvika" />
		<tag k="natural" v="bay" />
		<tag k="ssr:stedsnr" v="364315" />
	</node>
	<node id="-402189" lat="58.6622999964" lon="5.73522499336">
		<tag k="name" v="Are" />
		<tag k="place" v="farm" />
		<tag k="ssr:stedsnr" v="364298" />
	</node>
	<node id="-402188" lat="58.6119338658" lon="5.66015157873">
		<tag k="fixme" v="consider place=hamlet" />
		<tag k="name" v="Nordra Tjemsland" />
		<tag k="place" v="farm" />
		<tag k="ssr:stedsnr" v="364284" />
	</node>
	<node id="-402187" lat="58.6268571653" lon="5.73681805362">
		<tag k="fixme" v="consider place=hamlet" />
		<tag k="name" v="Ualand" />
		<tag k="place" v="farm" />
		<tag k="ssr:stedsnr" v="364279" />
	</node>
	<node id="-402186" lat="58.5623778635" lon="5.86730322192">
		<tag k="name" v="Homsevatnet" />
		<tag k="natural" v="water" />
		<tag k="ssr:stedsnr" v="364105" />
		<tag k="water" v="lake" />
	</node>
	<node id="-402185" lat="58.5975333304" lon="5.88401943906">
		<tag k="name" v="Hagavatnet" />
		<tag k="natural" v="water" />
		<tag k="ssr:stedsnr" v="364006" />
		<tag k="water" v="lake" />
	</node>
	<node id="-402184" lat="58.6033614127" lon="5.87552985512">
		<tag k="fixme" v="consider place=hamlet" />
		<tag k="name" v="Eikeland" />
		<tag k="place" v="farm" />
		<tag k="ssr:stedsnr" v="364001" />
	</node>
	<node id="-402183" lat="58.6835643124" lon="5.61423937126">
		<tag k="fixme" v="consider place=hamlet" />
		<tag k="name" v="Kaffiholen" />
		<tag k="place" v="farm" />
		<tag k="ssr:stedsnr" v="364835" />
	</node>
	<node id="-402182" lat="58.6990000005" lon="5.60959167098">
		<tag k="name" v="Kongaheia" />
		<tag k="place" v="farm" />
		<tag k="ssr:stedsnr" v="364815" />
	</node>
	<node id="-402181" lat="58.5184249959" lon="5.80340000251">
		<tag k="fixme" v="consider natural=peak for the most distinct mountains in the district" />
		<tag k="name" v="Tuberget" />
		<tag k="natural" v="hill" />
		<tag k="place" v="locality" />
		<tag k="ssr:stedsnr" v="362938" />
	</node>
	<node id="-402180" lat="58.5334861084" lon="5.80615277648">
		<tag k="name" v="Mjølhustjørna" />
		<tag k="natural" v="water" />
		<tag k="ssr:stedsnr" v="362928" />
	</node>
	<node id="-402179" lat="58.5358249966" lon="5.82109721577">
		<tag k="name" v="Poddemyra" />
		<tag k="natural" v="wetland" />
		<tag k="ssr:stedsnr" v="362924" />
	</node>
	<node id="-402178" lat="58.4951555519" lon="5.78901111019">
		<tag k="name" v="Havrabukta" />
		<tag k="natural" v="bay" />
		<tag k="ssr:stedsnr" v="362576" />
	</node>
	<node id="-402177" lat="58.6115638864" lon="5.641708337">
		<tag k="name" v="Reiestadbekken" />
		<tag k="ssr:stedsnr" v="362550" />
		<tag k="waterway" v="stream" />
	</node>
	<node id="-402176" lat="58.5358583333" lon="5.71851945222">
		<tag k="name" v="Humrura" />
		<tag k="natural" v="scree" />
		<tag k="ssr:stedsnr" v="361993" />
	</node>
	<node id="-402175" lat="58.600311114" lon="5.65198611398">
		<tag k="name" v="Kjørkjeholen" />
		<tag k="natural" v="hill" />
		<tag k="place" v="locality" />
		<tag k="ssr:stedsnr" v="361918" />
	</node>
	<node id="-402174" lat="58.5989722219" lon="5.62733333863">
		<tag k="name" v="Skifteshaugen" />
		<tag k="natural" v="hill" />
		<tag k="place" v="locality" />
		<tag k="ssr:stedsnr" v="361915" />
	</node>
	<node id="-402173" lat="58.5621277753" lon="5.69423332664">
		<tag k="name" v="Havreshøyen" />
		<tag k="natural" v="hill" />
		<tag k="place" v="locality" />
		<tag k="ssr:stedsnr" v="361632" />
	</node>
	<node id="-402172" lat="58.5611944474" lon="5.68179722582">
		<tag k="name" v="Sjøhøyen" />
		<tag k="place" v="locality" />
		<tag k="ssr:stedsnr" v="361630" />
	</node>
	<node id="-402171" lat="58.4835055588" lon="5.8268416747">
		<tag k="alt_name" v="Tuva" />
		<tag k="name" v="Tua" />
		<tag k="place" v="farm" />
		<tag k="ssr:stedsnr" v="360018" />
	</node>
	<node id="-402170" lat="58.5057555531" lon="5.79055555605">
		<tag k="fixme" v="consider place=hamlet" />
		<tag k="name" v="Sirevåg" />
		<tag k="place" v="farm" />
		<tag k="ssr:stedsnr" v="358156" />
	</node>
	<node id="-402169" lat="58.7002805601" lon="5.59023056326">
		<tag k="bridge" v="yes" />
		<tag k="layer" v="1" />
		<tag k="name" v="Salte (Ytre)" />
		<tag k="ssr:stedsnr" v="350715" />
	</node>
	<node id="-402168" lat="58.67590833" lon="5.59065832645">
		<tag k="bridge" v="yes" />
		<tag k="layer" v="1" />
		<tag k="name" v="Nesheim" />
		<tag k="ssr:stedsnr" v="350692" />
	</node>
	<node id="-402167" lat="58.5726166667" lon="5.65779722149">
		<tag k="landuse" v="peat_cutting" />
		<tag k="name" v="Stavnheimsmyra" />
		<tag k="ssr:stedsnr" v="345886" />
	</node>
	<node id="-402166" lat="58.5981361152" lon="5.7206027743">
		<tag k="name" v="Blåsteinen" />
		<tag k="natural" v="stone" />
		<tag k="ssr:stedsnr" v="345872" />
	</node>
	<node id="-402165" lat="58.5808027816" lon="5.82921943552">
		<tag k="fixme" v="consider natural=peak for the most distinct mountains in the district" />
		<tag k="name" v="Hammaren" />
		<tag k="natural" v="hill" />
		<tag k="place" v="locality" />
		<tag k="ssr:stedsnr" v="345598" />
	</node>
	<node id="-402164" lat="58.5742305524" lon="5.73631389167">
		<tag k="name" v="Legeberget" />
		<tag k="natural" v="hill" />
		<tag k="place" v="locality" />
		<tag k="ssr:stedsnr" v="345563" />
	</node>
	<node id="-402163" lat="58.5672805537" lon="5.73831945057">
		<tag k="name" v="Mauraheia" />
		<tag k="place" v="locality" />
		<tag k="ssr:stedsnr" v="345559" />
	</node>
	<node id="-402162" lat="58.5410250031" lon="5.70021111472">
		<tag k="name" v="Kvalbein" />
		<tag k="place" v="farm" />
		<tag k="ssr:stedsnr" v="344600" />
	</node>
	<node id="-402161" lat="58.6102777793" lon="5.69187222824">
		<tag k="name" v="Håbakken" />
		<tag k="natural" v="slope" />
		<tag k="place" v="locality" />
		<tag k="ssr:stedsnr" v="343558" />
	</node>
	<node id="-402158" lat="58.4786111076" lon="5.82544166773">
		<tag k="alt_name" v="Lædresundholmen" />
		<tag k="name" v="Ledresundholmen" />
		<tag k="place" v="islet" />
		<tag k="ssr:stedsnr" v="343489" />
	</node>
	<node id="-402156" lat="58.6546111087" lon="5.71133610604">
		<tag k="name" v="Kleggjavarden" />
		<tag k="natural" v="hill" />
		<tag k="place" v="locality" />
		<tag k="ssr:stedsnr" v="343308" />
	</node>
	<node id="-402155" lat="58.5335638858" lon="5.67688333813">
		<tag k="name" v="Raunafluna" />
		<tag k="place" v="locality" />
		<tag k="seamark:type" v="rock" />
		<tag k="ssr:stedsnr" v="342220" />
	</node>
	<node id="-402154" lat="58.5214416692" lon="5.77096388952">
		<tag k="name" v="Holmaflu" />
		<tag k="place" v="locality" />
		<tag k="seamark:type" v="rock" />
		<tag k="ssr:stedsnr" v="342192" />
	</node>
	<node id="-402153" lat="58.6844444474" lon="5.54173889069">
		<tag k="name" v="Lyren" />
		<tag k="place" v="locality" />
		<tag k="seamark:type" v="rock" />
		<tag k="ssr:stedsnr" v="342032" />
	</node>
	<node id="-402152" lat="58.5659341872" lon="5.69681683014">
		<tag k="fixme" v="consider place=hamlet" />
		<tag k="name" v="Vigrestad" />
		<tag k="place" v="farm" />
		<tag k="ssr:stedsnr" v="327621" />
	</node>
	<node id="-402151" lat="58.5835166685" lon="5.84014166592">
		<tag k="name" v="Presten" />
		<tag k="natural" v="hill" />
		<tag k="place" v="locality" />
		<tag k="ssr:stedsnr" v="326740" />
	</node>
	<node id="-402150" lat="58.5820444455" lon="5.81917499711">
		<tag k="name" v="Litle Trettesvatnet" />
		<tag k="natural" v="water" />
		<tag k="ssr:stedsnr" v="103619" />
		<tag k="water" v="lake" />
	</node>
	<node id="-402149" lat="58.5766250017" lon="5.69821110902">
		<tag k="name" v="Røysaland" />
		<tag k="place" v="farm" />
		<tag k="ssr:stedsnr" v="326351" />
	</node>
	<node id="-402148" lat="58.5682333317" lon="5.85764721588">
		<tag k="name" v="Klemmavatnet" />
		<tag k="natural" v="water" />
		<tag k="ssr:stedsnr" v="326132" />
		<tag k="water" v="lake" />
	</node>
	<node id="-402147" lat="58.5724416629" lon="5.87672777568">
		<tag k="name" v="Kinnetjørna" />
		<tag k="natural" v="water" />
		<tag k="ssr:stedsnr" v="326130" />
		<tag k="water" v="lake" />
	</node>
	<node id="-402146" lat="58.6992611069" lon="5.59017499308">
		<tag k="name" v="Tangen" />
		<tag k="place" v="farm" />
		<tag k="ssr:stedsnr" v="303785" />
	</node>
	<node id="-402145" lat="58.673233332" lon="5.62812777849">
		<tag k="name" v="Bjårland" />
		<tag k="place" v="farm" />
		<tag k="ssr:stedsnr" v="303763" />
	</node>
	<node id="-402144" lat="58.5464400213" lon="5.70231404797">
		<tag k="fixme" v="consider place=hamlet" />
		<tag k="name" v="Friestad" />
		<tag k="place" v="farm" />
		<tag k="ssr:stedsnr" v="303418" />
	</node>
	<node id="-402143" lat="58.5606138921" lon="5.83291667455">
		<tag k="name" v="Jotjørna" />
		<tag k="natural" v="water" />
		<tag k="ssr:stedsnr" v="303412" />
	</node>
	<node id="-402142" lat="58.5603187105" lon="5.81387043015">
		<tag k="fixme" v="consider place=hamlet" />
		<tag k="name" v="Heresvela" />
		<tag k="place" v="farm" />
		<tag k="ssr:stedsnr" v="303411" />
	</node>
	<node id="-402141" lat="58.5359444473" lon="5.74365278252">
		<tag k="name" v="Brusanden" />
		<tag k="natural" v="beach" />
		<tag k="place" v="locality" />
		<tag k="ssr:stedsnr" v="303409" />
	</node>
	<node id="-402140" lat="58.5490361093" lon="5.78053888692">
		<tag k="name" v="Hovdavollen" />
		<tag k="place" v="farm" />
		<tag k="ssr:stedsnr" v="303405" />
	</node>
	<node id="-402139" lat="58.5917722256" lon="5.74893333815">
		<tag k="name" v="Korphaugane" />
		<tag k="natural" v="hill" />
		<tag k="place" v="locality" />
		<tag k="ssr:stedsnr" v="303366" />
	</node>
	<node id="-402138" lat="58.5932305579" lon="5.72477778079">
		<tag k="name" v="Røyrmyra" />
		<tag k="place" v="farm" />
		<tag k="ssr:stedsnr" v="303364" />
	</node>
	<node id="-402137" lat="58.6152111084" lon="5.71236111162">
		<tag k="name" v="Høgjæren" />
		<tag k="place" v="farm" />
		<tag k="ssr:stedsnr" v="303344" />
	</node>
	<node id="-402136" lat="58.555374998" lon="5.71875277932">
		<tag k="name" v="Grønhaugen" />
		<tag k="natural" v="hill" />
		<tag k="place" v="locality" />
		<tag k="ssr:stedsnr" v="303336" />
	</node>
	<node id="-402135" lat="58.5584444457" lon="5.77324445102">
		<tag k="name" v="Bjelland" />
		<tag k="place" v="farm" />
		<tag k="ssr:stedsnr" v="303332" />
	</node>
	<node id="-402134" lat="58.5648416633" lon="5.66803055221">
		<tag k="alt_name" v="Hårråa" />
		<tag k="name" v="Horråna" />
		<tag k="ssr:stedsnr" v="303330" />
		<tag k="waterway" v="stream" />
	</node>
	<node id="-402133" lat="58.585444447" lon="5.76318610505">
		<tag k="name" v="Finnarvollen" />
		<tag k="place" v="locality" />
		<tag k="ssr:stedsnr" v="303310" />
	</node>
	<node id="-402132" lat="58.6553822798" lon="5.73832317659">
		<tag k="fixme" v="consider place=hamlet" />
		<tag k="name" v="Lindal" />
		<tag k="place" v="farm" />
		<tag k="ssr:stedsnr" v="303295" />
	</node>
	<node id="-402131" lat="58.6542500024" lon="5.67611388384">
		<tag k="name" v="Hagen" />
		<tag k="place" v="farm" />
		<tag k="ssr:stedsnr" v="303293" />
	</node>
	<node id="-402130" lat="58.6595141882" lon="5.74280149434">
		<tag k="fixme" v="consider place=hamlet" />
		<tag k="name" v="Våland" />
		<tag k="place" v="farm" />
		<tag k="ssr:stedsnr" v="303285" />
	</node>
	<node id="-402129" lat="58.6315777742" lon="5.73626667398">
		<tag k="name" v="Sauatjørna" />
		<tag k="natural" v="water" />
		<tag k="ssr:stedsnr" v="303267" />
	</node>
	<node id="-402127" lat="58.6241638892" lon="5.64035833366">
		<tag k="name" v="Jarholen" />
		<tag k="place" v="farm" />
		<tag k="ssr:stedsnr" v="303260" />
	</node>
	<node id="-402126" lat="58.6064638894" lon="5.88367500678">
		<tag k="fixme" v="multiple name tags, choose one and add the other to alt_name" />
		<tag k="name" v="Eikelandsknuten;Storeknuten" />
		<tag k="natural" v="hill" />
		<tag k="place" v="locality" />
		<tag k="ssr:stedsnr" v="303001" />
	</node>
	<node id="-402125" lat="58.5293222206" lon="5.81000277174">
		<tag k="fixme" v="consider natural=peak for the most distinct mountains in the district" />
		<tag k="name" v="Borgåsen" />
		<tag k="natural" v="hill" />
		<tag k="place" v="locality" />
		<tag k="ssr:stedsnr" v="301951" />
	</node>
	<node id="-402124" lat="58.5298277785" lon="5.79821943716">
		<tag k="amenity" v="place_of_worship" />
		<tag k="fixme" v="specify religion=*, denomination=*, building=* etc" />
		<tag k="name" v="Ognatun" />
		<tag k="ssr:stedsnr" v="301947" />
	</node>
	<node id="-402123" lat="58.5249055577" lon="5.82371944884">
		<tag k="name" v="Klakken" />
		<tag k="place" v="locality" />
		<tag k="ssr:stedsnr" v="301926" />
	</node>
	<node id="-402122" lat="58.6578444462" lon="5.55132500046">
		<tag k="name" v="Revtangen" />
		<tag k="natural" v="cape" />
		<tag k="ssr:stedsnr" v="300980" />
	</node>
	<node id="-402121" lat="58.5367277756" lon="5.70441389385">
		<tag k="name" v="Nedre Dunkjen" />
		<tag k="natural" v="wetland" />
		<tag k="ssr:stedsnr" v="300973" />
	</node>
	<node id="-402120" lat="58.6555777755" lon="5.55594722844">
		<tag k="name" v="Vetabukta" />
		<tag k="natural" v="bay" />
		<tag k="ssr:stedsnr" v="300961" />
	</node>
	<node id="-402119" lat="58.6552337284" lon="5.56792918593">
		<tag k="name" v="Sanden" />
		<tag k="place" v="farm" />
		<tag k="ssr:stedsnr" v="300946" />
	</node>
	<node id="-402118" lat="58.6206638851" lon="5.62110000237">
		<tag k="bridge" v="yes" />
		<tag k="layer" v="1" />
		<tag k="name" v="Lerbrekke" />
		<tag k="ssr:stedsnr" v="46747" />
	</node>
	<node id="-402117" lat="58.6076277774" lon="5.67253889421">
		<tag k="bridge" v="yes" />
		<tag k="layer" v="1" />
		<tag k="name" v="Kydland" />
		<tag k="ssr:stedsnr" v="46746" />
	</node>
	<node id="-402116" lat="58.6599111081" lon="5.59873333122">
		<tag k="bridge" v="yes" />
		<tag k="layer" v="1" />
		<tag k="name" v="Vigre" />
		<tag k="ssr:stedsnr" v="289798" />
	</node>
	<node id="-402115" lat="58.6221944409" lon="5.66018611061">
		<tag k="bridge" v="yes" />
		<tag k="layer" v="1" />
		<tag k="name" v="Varhaug" />
		<tag k="ssr:stedsnr" v="289796" />
	</node>
	<node id="-402114" lat="58.5312527804" lon="5.77646945256">
		<tag k="bridge" v="yes" />
		<tag k="layer" v="1" />
		<tag k="name" v="Varden" />
		<tag k="ssr:stedsnr" v="289793" />
	</node>
	<node id="-402113" lat="58.5907305562" lon="5.72732221437">
		<tag k="fixme" v="consider place=hamlet" />
		<tag k="name" v="Hålandsbakken" />
		<tag k="place" v="farm" />
		<tag k="ssr:stedsnr" v="285595" />
	</node>
	<node id="-402112" lat="58.5821000024" lon="5.76559722504">
		<tag k="name" v="Geithammaren" />
		<tag k="natural" v="cliff" />
		<tag k="ssr:stedsnr" v="285591" />
	</node>
	<node id="-402111" lat="58.4989666655" lon="5.80406943763">
		<tag k="name" v="Litla Krokavatnet" />
		<tag k="natural" v="water" />
		<tag k="ssr:stedsnr" v="285237" />
	</node>
	<node id="-402110" lat="58.6239000032" lon="5.63423610729">
		<tag k="name" v="Gjerderudla" />
		<tag k="place" v="farm" />
		<tag k="ssr:stedsnr" v="283492" />
	</node>
	<node id="-402109" lat="58.6183746089" lon="5.64615398503">
		<tag k="name" v="Varhaug stasjon" />
		<tag k="railway" v="station" />
		<tag k="ssr:stedsnr" v="283486" />
		<tag k="train" v="yes" />
	</node>
	<node id="-402108" lat="58.6182361136" lon="5.63972499367">
		<tag k="name" v="Revhaug" />
		<tag k="natural" v="hill" />
		<tag k="place" v="locality" />
		<tag k="ssr:stedsnr" v="283485" />
	</node>
	<node id="-402107" lat="58.5031666699" lon="5.79451110487">
		<tag k="name" v="Svinholmen" />
		<tag k="natural" v="cape" />
		<tag k="ssr:stedsnr" v="283463" />
	</node>
	<node id="-402106" lat="58.6075638899" lon="5.69748333719">
		<tag k="name" v="Steinholen" />
		<tag k="natural" v="hill" />
		<tag k="place" v="locality" />
		<tag k="ssr:stedsnr" v="282545" />
	</node>
	<node id="-402105" lat="58.621649998" lon="5.6940694511">
		<tag k="name" v="Bubakken" />
		<tag k="natural" v="slope" />
		<tag k="place" v="locality" />
		<tag k="ssr:stedsnr" v="282546" />
	</node>
	<node id="-402104" lat="58.6128194419" lon="5.69042499277">
		<tag k="name" v="Vollen" />
		<tag k="place" v="farm" />
		<tag k="ssr:stedsnr" v="282541" />
	</node>
	<node id="-402103" lat="58.5036264662" lon="5.78070369215">
		<tag k="name" v="Skjevlingflua" />
		<tag k="natural" v="shoal" />
		<tag k="place" v="locality" />
		<tag k="ssr:stedsnr" v="282484" />
	</node>
	<node id="-402102" lat="58.6157934429" lon="5.7264935328">
		<tag k="name" v="Bergarholen" />
		<tag k="natural" v="hill" />
		<tag k="place" v="locality" />
		<tag k="ssr:stedsnr" v="282474" />
	</node>
	<node id="-402101" lat="58.6723555544" lon="5.65113333124">
		<tag k="amenity" v="school" />
		<tag k="name" v="Bø" />
		<tag k="ssr:stedsnr" v="282331" />
	</node>
	<node id="-402100" lat="58.6529388867" lon="5.6569277695">
		<tag k="name" v="Raudarudla" />
		<tag k="place" v="locality" />
		<tag k="ssr:stedsnr" v="282320" />
	</node>
	<node id="-402099" lat="58.6494166666" lon="5.63872500841">
		<tag k="name" v="Kviagjerda" />
		<tag k="place" v="farm" />
		<tag k="ssr:stedsnr" v="282317" />
	</node>
	<node id="-402098" lat="58.5792694424" lon="5.6447194515">
		<tag k="name" v="Piksteinstangen" />
		<tag k="natural" v="cape" />
		<tag k="ssr:stedsnr" v="282212" />
	</node>
	<node id="-402097" lat="58.583895022" lon="5.64151678421">
		<tag k="name" v="Årslandsvika" />
		<tag k="natural" v="bay" />
		<tag k="ssr:stedsnr" v="282207" />
	</node>
</osm>
