<?xml version="1.0" encoding="UTF-8"?>
<<<<<<< HEAD
<osm version="0.6" generator="osmapis">
	<node lat="58.488549710870856" lon="5.831395024668926" id="-34">
		<tag k="name" v="Hundamyra" />
		<tag k="natural" v="wetland" />
		<tag k="ssr:stedsnr" v="61692" />
	</node>
	<node lat="58.5367277756468" lon="5.70441389384531" id="-129">
		<tag k="name" v="Nedre Dunkjen" />
		<tag k="natural" v="wetland" />
		<tag k="ssr:stedsnr" v="300973" />
	</node>
	<node lat="58.60099444780562" lon="5.778211114265805" id="-221">
		<tag k="name" v="Hårrhagen" />
		<tag k="place" v="locality" />
		<tag k="ssr:stedsnr" v="465590" />
	</node>
	<node lat="58.57993055888941" lon="5.746936104240707" id="-280">
		<tag k="landuse" v="meadow" />
		<tag k="name" v="Slåtta" />
		<tag k="ssr:stedsnr" v="588609" />
	</node>
	<node lat="58.52156944123183" lon="5.8614888969882974" id="-298">
		<tag k="name" v="Ruskeslåtta" />
		<tag k="natural" v="wetland" />
		<tag k="ssr:stedsnr" v="629146" />
	</node>
	<node lat="58.60660000386077" lon="5.730366672735426" id="-305">
		<tag k="alt_name" v="Søndre Skuthella" />
		<tag k="name" v="Søre Skuthella" />
		<tag k="natural" v="stone" />
		<tag k="ssr:stedsnr" v="646528" />
	</node>
	<node lat="58.509752777293734" lon="5.823716664214195" id="-320">
=======
<osm generator="osmapis" version="0.6">
	<node id="-20223" lat="58.5097527773" lon="5.82371666421">
>>>>>>> e1d4bc35ff8a6074a6f2e91616a996b547c36f15
		<tag k="name" v="Kleivamyra" />
		<tag k="natural" v="wetland" />
		<tag k="ssr:stedsnr" v="709231" />
	</node>
<<<<<<< HEAD
	<node lat="58.606599999183715" lon="5.808316674695843" id="-323">
		<tag k="name" v="Hårrsteinen" />
		<tag k="natural" v="stone" />
		<tag k="ssr:stedsnr" v="662716" />
	</node>
	<node lat="58.57955277384788" lon="5.807441673789801" id="-360">
=======
	<node id="-20219" lat="58.5795527738" lon="5.80744167379">
>>>>>>> e1d4bc35ff8a6074a6f2e91616a996b547c36f15
		<tag k="landuse" v="quarry" />
		<tag k="name" v="Fossfjellgruva" />
		<tag k="ssr:stedsnr" v="707633" />
	</node>
<<<<<<< HEAD
	<node lat="58.53670000186123" lon="5.709330560592261" id="-394">
		<tag k="name" v="Gunnarsteinen" />
		<tag k="natural" v="stone" />
		<tag k="ssr:stedsnr" v="907984" />
	</node>
	<node lat="58.62256389224403" lon="5.599522224231562" id="-439">
		<tag k="name" v="Klobnesteinen" />
		<tag k="natural" v="stone" />
		<tag k="ssr:stedsnr" v="846604" />
	</node>
	<node lat="58.56305000311725" lon="5.66149722872443" id="-534">
		<tag k="name" v="Harakalvane" />
		<tag k="place" v="locality" />
		<tag k="ssr:stedsnr" v="42859" />
	</node>
	<node lat="58.6090944419247" lon="5.715494451018074" id="-570">
=======
	<node id="-20727" lat="58.5215694412" lon="5.86148889699">
		<tag k="name" v="Ruskeslåtta" />
		<tag k="natural" v="wetland" />
		<tag k="ssr:stedsnr" v="629146" />
	</node>
	<node id="-20160" lat="58.6120555543" lon="5.79051944138">
		<tag k="name" v="Skrivnahella" />
		<tag k="natural" v="stone" />
		<tag k="ssr:stedsnr" v="667349" />
	</node>
	<node id="-20070" lat="58.5367277756" lon="5.70441389385">
		<tag k="name" v="Nedre Dunkjen" />
		<tag k="natural" v="wetland" />
		<tag k="ssr:stedsnr" v="300973" />
	</node>
	<node id="-20580" lat="58.5358249966" lon="5.82109721577">
		<tag k="name" v="Poddemyra" />
		<tag k="natural" v="wetland" />
		<tag k="ssr:stedsnr" v="362924" />
	</node>
	<node id="-20451" lat="58.6090944419" lon="5.71549445102">
>>>>>>> e1d4bc35ff8a6074a6f2e91616a996b547c36f15
		<tag k="name" v="Skuthella nordre" />
		<tag k="natural" v="stone" />
		<tag k="ssr:stedsnr" v="100540" />
	</node>
<<<<<<< HEAD
	<node lat="58.51294722612306" lon="5.837994449731226" id="-592">
		<tag k="name" v="Gomamyra" />
		<tag k="natural" v="wetland" />
		<tag k="ssr:stedsnr" v="144133" />
	</node>
	<node lat="58.64248055307134" lon="5.628894448880651" id="-639">
		<tag k="name" v="Dansarhella" />
		<tag k="natural" v="stone" />
		<tag k="ssr:stedsnr" v="207817" />
	</node>
	<node lat="58.59813611519603" lon="5.720602774297995" id="-688">
		<tag k="name" v="Blåsteinen" />
		<tag k="natural" v="stone" />
		<tag k="ssr:stedsnr" v="345872" />
	</node>
	<node lat="58.572616666672985" lon="5.657797221489897" id="-689">
		<tag k="landuse" v="peat_cutting" />
		<tag k="name" v="Stavnheimsmyra" />
		<tag k="ssr:stedsnr" v="345886" />
	</node>
	<node lat="58.53585833327721" lon="5.718519452218875" id="-693">
		<tag k="name" v="Humrura" />
		<tag k="natural" v="scree" />
		<tag k="ssr:stedsnr" v="361993" />
	</node>
	<node lat="58.53895772577411" lon="5.817634683835932" id="-700">
		<tag k="name" v="Poddemyra" />
		<tag k="natural" v="wetland" />
		<tag k="ssr:stedsnr" v="362924" />
	</node>
	<node lat="58.60117777909618" lon="5.807341666344937" id="-750">
		<tag k="name" v="Vigresmyrane" />
		<tag k="natural" v="wetland" />
		<tag k="ssr:stedsnr" v="425368" />
	</node>
	<node lat="58.61205555430249" lon="5.790519441376575" id="-840">
		<tag k="name" v="Skrivnahella" />
=======
	<node id="-20578" lat="58.5358583333" lon="5.71851945222">
		<tag k="name" v="Humrura" />
		<tag k="natural" v="scree" />
		<tag k="ssr:stedsnr" v="361993" />
	</node>
	<node id="-20832" lat="58.6225638922" lon="5.59952222423">
		<tag k="name" v="Klobnesteinen" />
		<tag k="natural" v="stone" />
		<tag k="ssr:stedsnr" v="846604" />
	</node>
	<node id="-20701" lat="58.5799305589" lon="5.74693610424">
		<tag k="landuse" v="meadow" />
		<tag k="name" v="Slåtta" />
		<tag k="ssr:stedsnr" v="588609" />
	</node>
	<node id="-20572" lat="58.5981361152" lon="5.7206027743">
		<tag k="name" v="Blåsteinen" />
		<tag k="natural" v="stone" />
		<tag k="ssr:stedsnr" v="345872" />
	</node>
	<node id="-20314" lat="58.5367000019" lon="5.70933056059">
		<tag k="name" v="Gunnarsteinen" />
>>>>>>> e1d4bc35ff8a6074a6f2e91616a996b547c36f15
		<tag k="natural" v="stone" />
		<tag k="ssr:stedsnr" v="667349" />
	</node>
	<node lat="58.553627775711654" lon="5.662788891834104" id="-855">
		<tag k="name" v="Kalshagen" />
		<tag k="place" v="locality" />
		<tag k="ssr:stedsnr" v="725736" />
	</node>
<<<<<<< HEAD
	<node lat="58.5702000038548" lon="5.656788886439403" id="-907">
=======
	<node id="-20825" lat="58.5702000039" lon="5.65678888644">
>>>>>>> e1d4bc35ff8a6074a6f2e91616a996b547c36f15
		<tag k="landuse" v="peat_cutting" />
		<tag k="name" v="Sortemyr" />
		<tag k="ssr:stedsnr" v="831871" />
	</node>
<<<<<<< HEAD
	<node lat="58.63989184835998" lon="5.584500173995503" id="-943">
		<tag k="name" v="Hella" />
		<tag k="natural" v="stone" />
		<tag k="ssr:stedsnr" v="889016" />
	</node>
	<node lat="58.61579166716201" lon="5.742738886396996" id="-945">
		<tag k="name" v="Kråkura" />
		<tag k="natural" v="scree" />
		<tag k="ssr:stedsnr" v="889484" />
	</node>
	<node lat="58.62280630703512" lon="5.709417081493268" id="-948">
		<tag k="name" v="Ryggjasteinen" />
		<tag k="natural" v="stone" />
		<tag k="ssr:stedsnr" v="889536" />
=======
	<node id="-20436" lat="58.4885497109" lon="5.83139502467">
		<tag k="name" v="Hundamyra" />
		<tag k="natural" v="wetland" />
		<tag k="ssr:stedsnr" v="61692" />
	</node>
	<node id="-20296" lat="58.622806307" lon="5.70941708149">
		<tag k="name" v="Ryggjasteinen" />
		<tag k="natural" v="stone" />
		<tag k="ssr:stedsnr" v="889536" />
	</node>
	<node id="-20293" lat="58.6157916672" lon="5.7427388864">
		<tag k="name" v="Kråkura" />
		<tag k="natural" v="scree" />
		<tag k="ssr:stedsnr" v="889484" />
	</node>
	<node id="-20545" lat="58.6424805531" lon="5.62889444888">
		<tag k="name" v="Dansarhella" />
		<tag k="natural" v="stone" />
		<tag k="ssr:stedsnr" v="207817" />
	</node>
	<node id="-20288" lat="58.6398918484" lon="5.584500174">
		<tag k="name" v="Hella" />
		<tag k="natural" v="stone" />
		<tag k="ssr:stedsnr" v="889016" />
	</node>
	<node id="-20064" lat="58.6009944478" lon="5.77821111427">
		<tag k="name" v="Hårrhagen" />
		<tag k="place" v="locality" />
		<tag k="ssr:stedsnr" v="465590" />
	</node>
	<node id="-20536" lat="58.4831361143" lon="5.82618888503">
		<tag k="name" v="Tua" />
		<tag k="place" v="locality" />
		<tag k="ssr:stedsnr" v="182693" />
	</node>
	<node id="-20405" lat="58.5630500031" lon="5.66149722872">
		<tag k="name" v="Harakalvane" />
		<tag k="place" v="locality" />
		<tag k="ssr:stedsnr" v="42859" />
	</node>
	<node id="-20273" lat="58.6065999992" lon="5.8083166747">
		<tag k="name" v="Hårrsteinen" />
		<tag k="natural" v="stone" />
		<tag k="ssr:stedsnr" v="662716" />
	</node>
	<node id="-20573" lat="58.5726166667" lon="5.65779722149">
		<tag k="landuse" v="peat_cutting" />
		<tag k="name" v="Stavnheimsmyra" />
		<tag k="ssr:stedsnr" v="345886" />
	</node>
	<node id="-20636" lat="58.6011777791" lon="5.80734166634">
		<tag k="name" v="Vigresmyrane" />
		<tag k="natural" v="wetland" />
		<tag k="ssr:stedsnr" v="425368" />
	</node>
	<node id="-20250" lat="58.5536277757" lon="5.66278889183">
		<tag k="name" v="Kalshagen" />
		<tag k="place" v="locality" />
		<tag k="ssr:stedsnr" v="725736" />
	</node>
	<node id="-20493" lat="58.5129472261" lon="5.83799444973">
		<tag k="name" v="Gomamyra" />
		<tag k="natural" v="wetland" />
		<tag k="ssr:stedsnr" v="144133" />
	</node>
	<node id="-20741" lat="58.6066000039" lon="5.73036667274">
		<tag k="alt_name" v="Søndre Skuthella" />
		<tag k="name" v="Søre Skuthella" />
		<tag k="natural" v="stone" />
		<tag k="ssr:stedsnr" v="646528" />
>>>>>>> e1d4bc35ff8a6074a6f2e91616a996b547c36f15
	</node>
</osm>
