<?xml version="1.0" encoding="UTF-8"?>
<osm version="0.6" generator="osmapis">
	<node lat="58.553149998206536" lon="5.6637638947757205" id="-879">
		<tag k="name" v="Opheliasteinen" />
		<tag k="place" v="locality" />
		<tag k="ssr:stedsnr" v="239799" />
	</node>
	<node lat="58.56834444053336" lon="5.6532333312901075" id="-967">
		<tag k="name" v="Tvihaugane" />
		<tag k="place" v="locality" />
		<tag k="ssr:stedsnr" v="224884" />
	</node>
	<node lat="58.59922777903409" lon="5.78596388157332" id="-1073">
		<tag k="alt_name" v="Steinkjerringa" />
		<tag k="name" v="Steinkjeringa" />
		<tag k="ssr:stedsnr" v="448105" />
		<tag k="tourism" v="attraction" />
	</node>
	<node lat="58.51561110862776" lon="5.808274995624635" id="-1088">
		<tag k="alt_name" v="Ogna" />
		<tag k="amenity" v="place_of_worship" />
		<tag k="denomination" v="lutheran" />
		<tag k="name" v="Ogna kyrkje" />
		<tag k="religion" v="christian" />
		<tag k="ssr:stedsnr" v="485358" />
	</node>
	<node lat="58.548136112241565" lon="5.680488889348378" id="-1253">
		<tag k="cemetery" v="grave" />
		<tag k="name" v="Røysane" />
		<tag k="place" v="locality" />
		<tag k="ssr:stedsnr" v="907995" />
	</node>
	<node lat="58.66243888888034" lon="5.626261112780765" id="-1257">
		<tag k="amenity" v="place_of_worship" />
		<tag k="denomination" v="lutheran" />
		<tag k="name" v="Nærbø gamle kyrkje" />
		<tag k="religion" v="christian" />
		<tag k="ssr:stedsnr" v="910284" />
	</node>
	<node lat="58.57219444408194" lon="5.8633055599477615" id="-1319">
		<tag k="name" v="Bjørnahola" />
		<tag k="ssr:stedsnr" v="933166" />
		<tag k="tourism" v="attraction" />
	</node>
	<node lat="58.55471944334009" lon="5.668497229602562" id="-1404">
		<tag k="cemetery" v="grave" />
		<tag k="name" v="Langhaug" />
		<tag k="place" v="locality" />
		<tag k="ssr:stedsnr" v="57957" />
	</node>
	<node lat="58.59772410037694" lon="5.662190022220334" id="-1419">
		<tag k="alt_name" v="Varhaug" />
		<tag k="amenity" v="place_of_worship" />
		<tag k="denomination" v="lutheran" />
		<tag k="name" v="Varhaug kyrkje" />
		<tag k="religion" v="christian" />
		<tag k="ssr:stedsnr" v="61346" />
	</node>
	<node lat="58.52982777847432" lon="5.7982194371588465" id="-1518">
		<tag k="amenity" v="place_of_worship" />
		<tag k="fixme" v="specify religion=*, denomination=*, building=* etc" />
		<tag k="name" v="Ognatun" />
		<tag k="ssr:stedsnr" v="301947" />
	</node>
	<node lat="58.56119444736257" lon="5.681797225824994" id="-1552">
		<tag k="name" v="Sjøhøyen" />
		<tag k="place" v="locality" />
		<tag k="ssr:stedsnr" v="361630" />
	</node>
	<node lat="58.658292404428195" lon="5.656915112917836" id="-1817">
		<tag k="amenity" v="place_of_worship" />
		<tag k="denomination" v="lutheran" />
		<tag k="name" v="Nærbø kyrkje" />
		<tag k="religion" v="christian" />
		<tag k="ssr:stedsnr" v="991196" />
	</node>
</osm>
