<?xml version="1.0" encoding="UTF-8"?>
<<<<<<< HEAD
<osm version="0.6" generator="osmapis">
	<node lat="58.55101666311669" lon="5.666441664473887" id="-15">
		<tag k="name" v="Bringsvågen" />
		<tag k="natural" v="bay" />
		<tag k="ssr:stedsnr" v="39158" />
	</node>
	<node lat="58.477825001867664" lon="5.8454222301755605" id="-20">
		<tag k="fixme" v="consider seamark:type=rock or natural=shoal" />
		<tag k="name" v="Søra Moiskjeret" />
		<tag k="place" v="islet" />
		<tag k="ssr:stedsnr" v="239053" />
	</node>
	<node lat="58.60593888467855" lon="5.612969442136016" id="-22">
		<tag k="name" v="Kjeltrafluene" />
=======
<osm generator="osmapis" version="0.6">
	<node id="-19967" lat="58.480752774" lon="5.8187083396">
		<tag k="bay" v="fjord" />
		<tag k="name" v="Breidagapet" />
		<tag k="natural" v="bay" />
		<tag k="ssr:stedsnr" v="40515" />
	</node>
	<node id="-19966" lat="58.5510166631" lon="5.66644166447">
		<tag k="name" v="Bringsvågen" />
		<tag k="natural" v="bay" />
		<tag k="ssr:stedsnr" v="39158" />
	</node>
	<node id="-20473" lat="58.5047111188" lon="5.78342807381">
		<tag k="name" v="Vågsgapgrunnen" />
		<tag k="natural" v="shoal" />
		<tag k="place" v="locality" />
		<tag k="ssr:stedsnr" v="119600" />
	</node>
	<node id="-20472" lat="58.4995805578" lon="5.7851805495">
		<tag k="name" v="Indre Seiavika" />
		<tag k="natural" v="bay" />
		<tag k="ssr:stedsnr" v="119599" />
	</node>
	<node id="-20471" lat="58.4984416668" lon="5.78488888828">
		<tag k="name" v="Ytre Seiavika" />
		<tag k="natural" v="bay" />
		<tag k="ssr:stedsnr" v="119598" />
	</node>
	<node id="-20469" lat="58.4822555552" lon="5.83473888985">
		<tag k="alt_name" v="Kobbervika" />
		<tag k="name" v="Kobbavika" />
		<tag k="natural" v="bay" />
		<tag k="ssr:stedsnr" v="119549" />
	</node>
	<node id="-20468" lat="58.5396861128" lon="5.68837222673">
		<tag k="fixme" v="consider seamark:type=rock or natural=shoal" />
		<tag k="name" v="Hesten" />
		<tag k="place" v="islet" />
		<tag k="ssr:stedsnr" v="118974" />
	</node>
	<node id="-19955" lat="58.4870694468" lon="5.79842499584">
		<tag k="name" v="Hellesundfluene" />
		<tag k="natural" v="shoal" />
		<tag k="place" v="locality" />
		<tag k="ssr:stedsnr" v="223923" />
	</node>
	<node id="-20466" lat="58.4803111111" lon="5.83174722528">
		<tag k="name" v="Urvika" />
		<tag k="natural" v="bay" />
		<tag k="ssr:stedsnr" v="116035" />
	</node>
	<node id="-19950" lat="58.5866861147" lon="5.63760555042">
		<tag k="name" v="Madlandstranda" />
		<tag k="natural" v="beach" />
		<tag k="place" v="locality" />
		<tag k="ssr:stedsnr" v="221197" />
	</node>
	<node id="-19949" lat="58.4811499998" lon="5.81560555134">
		<tag k="fixme" v="consider seamark:type=rock or natural=shoal" />
		<tag k="name" v="Svarta Skjeret" />
		<tag k="place" v="islet" />
		<tag k="ssr:stedsnr" v="717" />
	</node>
	<node id="-20732" lat="58.6911499958" lon="5.55043055091">
		<tag k="name" v="Revsnessanden" />
		<tag k="natural" v="beach" />
		<tag k="place" v="locality" />
		<tag k="ssr:stedsnr" v="645038" />
	</node>
	<node id="-20454" lat="58.4725055535" lon="5.82435278435">
		<tag k="name" v="Hella" />
		<tag k="place" v="locality" />
		<tag k="seamark:type" v="rock" />
		<tag k="ssr:stedsnr" v="101759" />
	</node>
	<node id="-20452" lat="58.4905305566" lon="5.80207499798">
		<tag k="name" v="Bekkjarvika" />
		<tag k="natural" v="bay" />
		<tag k="ssr:stedsnr" v="101227" />
	</node>
	<node id="-20450" lat="58.5371722213" lon="5.69407500512">
		<tag k="alt_name" v="Kjørkjetangen" />
		<tag k="name" v="Kyrkjetangen" />
		<tag k="natural" v="cape" />
		<tag k="ssr:stedsnr" v="100186" />
	</node>
	<node id="-20814" lat="58.4822527747" lon="5.8140083336">
		<tag k="name" v="Ytre Varholmane" />
		<tag k="place" v="islet" />
		<tag k="ssr:stedsnr" v="829520" />
	</node>
	<node id="-20431" lat="58.5871527809" lon="5.63656388388">
		<tag k="name" v="Madlandshamna" />
		<tag k="natural" v="cape" />
		<tag k="ssr:stedsnr" v="61357" />
	</node>
	<node id="-20813" lat="58.4833333301" lon="5.81511388165">
		<tag k="name" v="Indre Varholmane" />
		<tag k="place" v="islet" />
		<tag k="ssr:stedsnr" v="829517" />
	</node>
	<node id="-20422" lat="58.5124749967" lon="5.78070277934">
		<tag k="alt_name" v="Ognabukti" />
		<tag k="name" v="Ognabukta" />
		<tag k="natural" v="bay" />
		<tag k="ssr:stedsnr" v="60377" />
	</node>
	<node id="-20418" lat="58.650483332" lon="5.567174996">
		<tag k="name" v="Naustertangen" />
		<tag k="natural" v="cape" />
		<tag k="ssr:stedsnr" v="58958" />
	</node>
	<node id="-19957" lat="58.510219443" lon="5.79406388483">
		<tag k="name" v="Varpet" />
		<tag k="natural" v="bay" />
		<tag k="ssr:stedsnr" v="224213" />
	</node>
	<node id="-19956" lat="58.4835027775" lon="5.80025832915">
		<tag k="name" v="Kinnarvågskoltane" />
		<tag k="natural" v="shoal" />
		<tag k="place" v="locality" />
		<tag k="ssr:stedsnr" v="223924" />
	</node>
	<node id="-20399" lat="58.6446999971" lon="5.57334721621">
		<tag k="name" v="Kummeltangen" />
		<tag k="natural" v="cape" />
		<tag k="ssr:stedsnr" v="39929" />
	</node>
	<node id="-20397" lat="58.5672972208" lon="5.6444555556">
		<tag k="name" v="Stavnheimsfluna" />
>>>>>>> e1d4bc35ff8a6074a6f2e91616a996b547c36f15
		<tag k="place" v="locality" />
		<tag k="seamark:type" v="rock" />
		<tag k="ssr:stedsnr" v="240116" />
	</node>
<<<<<<< HEAD
	<node lat="58.489401910039895" lon="5.808027849271449" id="-23">
		<tag k="name" v="Kinnarvågen" />
		<tag k="natural" v="bay" />
		<tag k="ssr:stedsnr" v="240026" />
	</node>
	<node lat="58.51247499669772" lon="5.780702779343131" id="-24">
		<tag k="alt_name" v="Ognabukti" />
		<tag k="name" v="Ognabukta" />
		<tag k="natural" v="bay" />
		<tag k="ssr:stedsnr" v="60377" />
	</node>
	<node lat="58.53968611275124" lon="5.688372226725417" id="-73">
		<tag k="fixme" v="consider seamark:type=rock or natural=shoal" />
		<tag k="name" v="Hesten" />
=======
	<node id="-20396" lat="58.5967805582" lon="5.62081389535">
		<tag k="name" v="Skipteshaugfluna" />
		<tag k="place" v="locality" />
		<tag k="seamark:type" v="rock" />
		<tag k="ssr:stedsnr" v="39178" />
	</node>
	<node id="-19954" lat="58.4795666646" lon="5.80754999433">
		<tag k="name" v="Vestreflua" />
		<tag k="natural" v="shoal" />
		<tag k="place" v="locality" />
		<tag k="ssr:stedsnr" v="223802" />
	</node>
	<node id="-20389" lat="58.4905011259" lon="5.79860467953">
		<tag k="name" v="Store Hellesundholmen" />
>>>>>>> e1d4bc35ff8a6074a6f2e91616a996b547c36f15
		<tag k="place" v="islet" />
		<tag k="ssr:stedsnr" v="118974" />
	</node>
<<<<<<< HEAD
	<node lat="58.48588055771582" lon="5.810941664822258" id="-88">
		<tag k="name" v="Vatnamotholmane" />
		<tag k="old_name" v="Vatnamoholman" />
		<tag k="place" v="islet" />
		<tag k="ssr:stedsnr" v="162810" />
	</node>
	<node lat="58.48078055474505" lon="5.840524995181162" id="-91">
=======
	<node id="-20897" lat="58.4808138885" lon="5.82838333041">
		<tag k="name" v="Engjavika" />
		<tag k="natural" v="bay" />
		<tag k="ssr:stedsnr" v="969537" />
	</node>
	<node id="-20896" lat="58.6523444446" lon="5.55471388191">
>>>>>>> e1d4bc35ff8a6074a6f2e91616a996b547c36f15
		<tag k="fixme" v="consider seamark:type=rock or natural=shoal" />
		<tag k="name" v="Laugaskjeret" />
		<tag k="place" v="islet" />
		<tag k="ssr:stedsnr" v="179061" />
	</node>
<<<<<<< HEAD
	<node lat="58.479566664647" lon="5.807549994329818" id="-104">
		<tag k="name" v="Vestreflua" />
		<tag k="natural" v="shoal" />
=======
	<node id="-20377" lat="58.6195750002" lon="5.59431666597">
		<tag k="name" v="Bollen" />
>>>>>>> e1d4bc35ff8a6074a6f2e91616a996b547c36f15
		<tag k="place" v="locality" />
		<tag k="ssr:stedsnr" v="223802" />
	</node>
<<<<<<< HEAD
	<node lat="58.510219442989154" lon="5.794063884834626" id="-105">
		<tag k="name" v="Varpet" />
		<tag k="natural" v="bay" />
		<tag k="ssr:stedsnr" v="224213" />
	</node>
	<node lat="58.482041663748674" lon="5.825422228278895" id="-116">
		<tag k="name" v="Kaggavika" />
		<tag k="natural" v="bay" />
		<tag k="ssr:stedsnr" v="241502" />
	</node>
	<node lat="58.50362646618053" lon="5.780703692151022" id="-126">
		<tag k="name" v="Skjevlingflua" />
=======
	<node id="-20376" lat="58.4807805515" lon="5.81076943645">
		<tag k="name" v="Mågagrunnen" />
>>>>>>> e1d4bc35ff8a6074a6f2e91616a996b547c36f15
		<tag k="natural" v="shoal" />
		<tag k="place" v="locality" />
		<tag k="ssr:stedsnr" v="282484" />
	</node>
<<<<<<< HEAD
	<node lat="58.65784444622512" lon="5.551325000458899" id="-130">
		<tag k="name" v="Revtangen" />
		<tag k="natural" v="cape" />
		<tag k="ssr:stedsnr" v="300980" />
	</node>
	<node lat="58.535944447341606" lon="5.74365278252217" id="-136">
		<tag k="name" v="Brusanden" />
=======
	<node id="-20886" lat="58.5230583367" lon="5.77913056194">
		<tag k="name" v="Holmasanden" />
>>>>>>> e1d4bc35ff8a6074a6f2e91616a996b547c36f15
		<tag k="natural" v="beach" />
		<tag k="ssr:stedsnr" v="303409" />
	</node>
<<<<<<< HEAD
	<node lat="58.589402773624684" lon="5.6322166612216344" id="-137">
		<tag k="name" v="Skipasteinfluna" />
=======
	<node id="-20885" lat="58.5163888902" lon="5.69090278013">
		<tag k="name" v="Krakken" />
		<tag k="natural" v="shoal" />
>>>>>>> e1d4bc35ff8a6074a6f2e91616a996b547c36f15
		<tag k="place" v="locality" />
		<tag k="seamark:type" v="rock" />
		<tag k="ssr:stedsnr" v="464246" />
	</node>
<<<<<<< HEAD
	<node lat="58.483858335199294" lon="5.823955549182022" id="-138">
		<tag k="name" v="Båtavika" />
		<tag k="natural" v="bay" />
		<tag k="ssr:stedsnr" v="464497" />
	</node>
	<node lat="58.48216201642795" lon="5.822667142522676" id="-139">
		<tag k="name" v="Blåstakkholmen" />
		<tag k="place" v="islet" />
		<tag k="ssr:stedsnr" v="464499" />
	</node>
	<node lat="58.5214416691884" lon="5.770963889524023" id="-148">
		<tag k="name" v="Holmaflu" />
=======
	<node id="-20879" lat="58.4762027753" lon="5.82078611104">
		<tag k="name" v="Underbåen" />
>>>>>>> e1d4bc35ff8a6074a6f2e91616a996b547c36f15
		<tag k="place" v="locality" />
		<tag k="seamark:type" v="rock" />
		<tag k="ssr:stedsnr" v="342192" />
	</node>
<<<<<<< HEAD
	<node lat="58.50139166574684" lon="5.786602782118942" id="-155">
		<tag k="name" v="Bekkjarvika" />
		<tag k="natural" v="bay" />
		<tag k="old_name" v="Bekkjaviki;Bekkjarviki" />
		<tag k="ssr:stedsnr" v="477439" />
	</node>
	<node lat="58.648238885021165" lon="5.571294447112314" id="-167">
		<tag k="name" v="Kvalabukta" />
		<tag k="natural" v="bay" />
		<tag k="ssr:stedsnr" v="482943" />
	</node>
	<node lat="58.48273055497628" lon="5.810413892224333" id="-189">
		<tag k="name" v="Svarte Odden" />
=======
	<node id="-20871" lat="58.5275444441" lon="5.70506389644">
		<tag k="name" v="Raunen" />
>>>>>>> e1d4bc35ff8a6074a6f2e91616a996b547c36f15
		<tag k="place" v="islet" />
		<tag k="ssr:stedsnr" v="485638" />
	</node>
<<<<<<< HEAD
	<node lat="58.48346388641197" lon="5.8207972207383705" id="-191">
		<tag k="name" v="Guleklumpen" />
=======
	<node id="-20342" lat="58.6830750019" lon="5.53995278599">
		<tag k="name" v="Raunen" />
>>>>>>> e1d4bc35ff8a6074a6f2e91616a996b547c36f15
		<tag k="place" v="islet" />
		<tag k="ssr:stedsnr" v="404474" />
	</node>
<<<<<<< HEAD
	<node lat="58.479755557588895" lon="5.820944449182758" id="-192">
		<tag k="fixme" v="consider seamark:type=rock or natural=shoal" />
		<tag k="name" v="Svartaskjeret" />
=======
	<node id="-20340" lat="58.4901212176" lon="5.79952138789">
		<tag k="alt_name" v="Hedlesundsholmane" />
		<tag k="name" v="Hellesundholmane" />
>>>>>>> e1d4bc35ff8a6074a6f2e91616a996b547c36f15
		<tag k="place" v="islet" />
		<tag k="ssr:stedsnr" v="404477" />
	</node>
<<<<<<< HEAD
	<node lat="58.64700278061996" lon="5.572155559980692" id="-201">
		<tag k="name" v="Kalvaheistangen" />
=======
	<node id="-20339" lat="58.6534388857" lon="5.55938332718">
		<tag k="name" v="Daursbeietet" />
>>>>>>> e1d4bc35ff8a6074a6f2e91616a996b547c36f15
		<tag k="natural" v="cape" />
		<tag k="ssr:stedsnr" v="422954" />
	</node>
<<<<<<< HEAD
	<node lat="58.496258337831506" lon="5.784977777482245" id="-203">
		<tag k="alt_name" v="Rabnabukta" />
		<tag k="name" v="Ramnabukta" />
=======
	<node id="-20848" lat="58.6630111089" lon="5.55201944882">
		<tag k="name" v="Fuglavika" />
>>>>>>> e1d4bc35ff8a6074a6f2e91616a996b547c36f15
		<tag k="natural" v="bay" />
		<tag k="ssr:stedsnr" v="423604" />
	</node>
<<<<<<< HEAD
	<node lat="58.482253764607016" lon="5.821872072829141" id="-213">
		<tag k="name" v="Vardholmane" />
		<tag k="place" v="islet" />
		<tag k="ssr:stedsnr" v="425695" />
	</node>
	<node lat="58.49182777603155" lon="5.789641659398855" id="-214">
		<tag k="name" v="Havstangen" />
=======
	<node id="-20843" lat="58.4797222193" lon="5.8252833343">
		<tag k="name" v="Engjavikholmen" />
		<tag k="place" v="islet" />
		<tag k="ssr:stedsnr" v="849740" />
	</node>
	<node id="-20838" lat="58.4971972213" lon="5.78331388568">
		<tag k="name" v="Ramnatangen" />
		<tag k="natural" v="cape" />
		<tag k="ssr:stedsnr" v="848577" />
	</node>
	<node id="-20837" lat="58.527769441" lon="5.69574999624">
		<tag k="name" v="Raunagarden" />
		<tag k="place" v="locality" />
		<tag k="seamark:type" v="rock" />
		<tag k="ssr:stedsnr" v="847985" />
	</node>
	<node id="-20836" lat="58.6541722182" lon="5.55782778648">
		<tag k="name" v="Peparvika" />
		<tag k="natural" v="bay" />
		<tag k="ssr:stedsnr" v="847983" />
	</node>
	<node id="-20318" lat="58.503638892" lon="5.78782500609">
		<tag k="name" v="Laksodden" />
>>>>>>> e1d4bc35ff8a6074a6f2e91616a996b547c36f15
		<tag k="natural" v="cape" />
		<tag k="ssr:stedsnr" v="425756" />
	</node>
<<<<<<< HEAD
	<node lat="58.50260277568544" lon="5.781005554211217" id="-222">
=======
	<node id="-20317" lat="58.4860111124" lon="5.80572221458">
>>>>>>> e1d4bc35ff8a6074a6f2e91616a996b547c36f15
		<tag k="fixme" v="consider seamark:type=rock or natural=shoal" />
		<tag k="name" v="Skjevlingen" />
		<tag k="place" v="islet" />
		<tag k="ssr:stedsnr" v="465990" />
	</node>
<<<<<<< HEAD
	<node lat="58.50876944902794" lon="5.791138895779257" id="-231">
		<tag k="name" v="Sannarvågen" />
		<tag k="natural" v="bay" />
		<tag k="ssr:stedsnr" v="485362" />
	</node>
	<node lat="58.635430552303255" lon="5.586186116109783" id="-271">
		<tag k="name" v="Grødalandstangen" />
		<tag k="natural" v="cape" />
		<tag k="ssr:stedsnr" v="585017" />
	</node>
	<node lat="58.67001110932001" lon="5.541788880811863" id="-272">
		<tag k="name" v="Håtangen" />
		<tag k="natural" v="cape" />
		<tag k="ssr:stedsnr" v="585040" />
	</node>
	<node lat="58.67275555545691" lon="5.543208330633554" id="-273">
		<tag k="name" v="Selvågsholet" />
=======
	<node id="-20316" lat="58.4797027807" lon="5.8267833375">
		<tag k="name" v="Kilen" />
		<tag k="natural" v="strait" />
		<tag k="ssr:stedsnr" v="908560" />
	</node>
	<node id="-20822" lat="58.4940833295" lon="5.78355278605">
		<tag k="fixme" v="consider seamark:type=rock or natural=shoal" />
		<tag k="name" v="Tvibogen" />
		<tag k="place" v="islet" />
		<tag k="ssr:stedsnr" v="830897" />
	</node>
	<node id="-20821" lat="58.5136222182" lon="5.71221665877">
		<tag k="name" v="Tangen" />
		<tag k="natural" v="shoal" />
		<tag k="place" v="locality" />
		<tag k="ssr:stedsnr" v="830567" />
	</node>
	<node id="-20304" lat="58.5155472225" lon="5.79182499795">
		<tag k="name" v="Indre Stoholmen" />
>>>>>>> e1d4bc35ff8a6074a6f2e91616a996b547c36f15
		<tag k="natural" v="bay" />
		<tag k="ssr:stedsnr" v="585045" />
	</node>
<<<<<<< HEAD
	<node lat="58.48435833034183" lon="5.8180972148466" id="-275">
		<tag k="name" v="Fortunholmen" />
=======
	<node id="-20302" lat="58.5291111142" lon="5.70081388698">
		<tag k="fixme" v="consider seamark:type=rock or natural=shoal" />
		<tag k="name" v="Raunasteinen" />
>>>>>>> e1d4bc35ff8a6074a6f2e91616a996b547c36f15
		<tag k="place" v="islet" />
		<tag k="ssr:stedsnr" v="585443" />
	</node>
<<<<<<< HEAD
	<node lat="58.48113888865872" lon="5.822313895792995" id="-276">
		<tag k="name" v="Austmannholmen" />
=======
	<node id="-20301" lat="58.5341611078" lon="5.6971777708">
		<tag k="fixme" v="consider seamark:type=rock or natural=shoal" />
		<tag k="name" v="Humrasteinane" />
>>>>>>> e1d4bc35ff8a6074a6f2e91616a996b547c36f15
		<tag k="place" v="islet" />
		<tag k="ssr:stedsnr" v="585445" />
	</node>
<<<<<<< HEAD
	<node lat="58.50610000077351" lon="5.78963054852518" id="-277">
		<tag k="name" v="Indre Odden" />
		<tag k="natural" v="cape" />
		<tag k="ssr:stedsnr" v="585457" />
	</node>
	<node lat="58.50962222373321" lon="5.792058337137568" id="-279">
		<tag k="name" v="Klubben" />
=======
	<node id="-20300" lat="58.5899305527" lon="5.63419722299">
		<tag k="name" v="Skipasteinen" />
		<tag k="natural" v="cape" />
		<tag k="ssr:stedsnr" v="706213" />
	</node>
	<node id="-20811" lat="58.5234638912" lon="5.6877194443">
		<tag k="name" v="Huset" />
		<tag k="natural" v="shoal" />
		<tag k="place" v="locality" />
		<tag k="ssr:stedsnr" v="828204" />
	</node>
	<node id="-20810" lat="58.5541194408" lon="5.66165833015">
		<tag k="name" v="Skardsteinen" />
>>>>>>> e1d4bc35ff8a6074a6f2e91616a996b547c36f15
		<tag k="natural" v="cape" />
		<tag k="ssr:stedsnr" v="586997" />
	</node>
<<<<<<< HEAD
	<node lat="58.51381666332812" lon="5.795327770802539" id="-291">
		<tag k="name" v="Ognasanden" />
		<tag k="natural" v="beach" />
		<tag k="ssr:stedsnr" v="606406" />
	</node>
	<node lat="58.688813890784544" lon="5.548655559265082" id="-296">
		<tag k="name" v="Saltebukta" />
=======
	<node id="-20808" lat="58.5701916626" lon="5.64276665862">
		<tag k="name" v="Sloen" />
		<tag k="place" v="locality" />
		<tag k="seamark:type" v="rock" />
		<tag k="ssr:stedsnr" v="828196" />
	</node>
	<node id="-20295" lat="58.5065138883" lon="5.78922777962">
		<tag k="name" v="Store Hola" />
>>>>>>> e1d4bc35ff8a6074a6f2e91616a996b547c36f15
		<tag k="natural" v="bay" />
		<tag k="ssr:stedsnr" v="606794" />
	</node>
<<<<<<< HEAD
	<node lat="58.634530557005" lon="5.586083329792442" id="-300">
		<tag k="name" v="Kvassesteinen" />
		<tag k="natural" v="cape" />
		<tag k="ssr:stedsnr" v="645009" />
	</node>
	<node lat="58.58016110912479" lon="5.6399888860793075" id="-301">
		<tag k="name" v="Skålasteinen" />
=======
	<node id="-20291" lat="58.5366722212" lon="5.68583611404">
		<tag k="name" v="Hestasteinen" />
		<tag k="place" v="locality" />
		<tag k="seamark:type" v="rock" />
		<tag k="ssr:stedsnr" v="889247" />
	</node>
	<node id="-20290" lat="58.6672472196" lon="5.54068056013">
		<tag k="name" v="Øyrsteinen" />
>>>>>>> e1d4bc35ff8a6074a6f2e91616a996b547c36f15
		<tag k="place" v="locality" />
		<tag k="seamark:type" v="rock" />
		<tag k="ssr:stedsnr" v="645205" />
	</node>
<<<<<<< HEAD
	<node lat="58.585591670153825" lon="5.639433325082916" id="-302">
		<tag k="name" v="Skrettingskjeret" />
=======
	<node id="-20792" lat="58.65096389" lon="5.56645277521">
		<tag k="name" v="Obrestadhamna" />
>>>>>>> e1d4bc35ff8a6074a6f2e91616a996b547c36f15
		<tag k="natural" v="cape" />
		<tag k="ssr:stedsnr" v="645206" />
	</node>
<<<<<<< HEAD
	<node lat="58.51934444686043" lon="5.784125003706119" id="-303">
		<tag k="name" v="Austmannsberget" />
=======
	<node id="-20272" lat="58.5043166662" lon="5.78985555095">
		<tag k="name" v="Vestre Odden" />
>>>>>>> e1d4bc35ff8a6074a6f2e91616a996b547c36f15
		<tag k="natural" v="cape" />
		<tag k="ssr:stedsnr" v="645189" />
	</node>
<<<<<<< HEAD
	<node lat="58.484274998412324" lon="5.81545555943323" id="-307">
		<tag k="name" v="Svenskevika" />
		<tag k="natural" v="bay" />
		<tag k="ssr:stedsnr" v="646486" />
	</node>
	<node lat="58.481958331966574" lon="5.8409083407268545" id="-311">
		<tag k="name" v="Laugavika" />
		<tag k="natural" v="bay" />
		<tag k="ssr:stedsnr" v="707501" />
	</node>
	<node lat="58.61701944129912" lon="5.598561117786478" id="-326">
		<tag k="name" v="Tvibogan" />
		<tag k="place" v="locality" />
		<tag k="seamark:type" v="rock" />
		<tag k="ssr:stedsnr" v="665101" />
	</node>
	<node lat="58.5358694473715" lon="5.7233944404270645" id="-344">
		<tag k="name" v="Holmestø" />
=======
	<node id="-20269" lat="58.4848277735" lon="5.80987222676">
		<tag k="name" v="Austmannsholmen" />
		<tag k="place" v="islet" />
		<tag k="ssr:stedsnr" v="728655" />
	</node>
	<node id="-20268" lat="58.4902499973" lon="5.79447777145">
		<tag k="name" v="Hellesund" />
		<tag k="natural" v="strait" />
		<tag k="ssr:stedsnr" v="728654" />
	</node>
	<node id="-20779" lat="58.5069444448" lon="5.78997778059">
		<tag k="name" v="Persodden" />
		<tag k="natural" v="cape" />
		<tag k="ssr:stedsnr" v="787596" />
	</node>
	<node id="-20266" lat="58.5452055518" lon="5.68126111609">
		<tag k="name" v="Kvassheimhamna" />
>>>>>>> e1d4bc35ff8a6074a6f2e91616a996b547c36f15
		<tag k="natural" v="cape" />
		<tag k="ssr:stedsnr" v="667397" />
	</node>
<<<<<<< HEAD
	<node lat="58.58993055271799" lon="5.634197222989933" id="-357">
		<tag k="name" v="Skipasteinen" />
=======
	<node id="-20777" lat="58.6333111125" lon="5.58725555751">
		<tag k="name" v="Hummarskjeret" />
>>>>>>> e1d4bc35ff8a6074a6f2e91616a996b547c36f15
		<tag k="natural" v="cape" />
		<tag k="ssr:stedsnr" v="706213" />
	</node>
<<<<<<< HEAD
	<node lat="58.53416110783921" lon="5.697177770802672" id="-358">
		<tag k="fixme" v="consider seamark:type=rock or natural=shoal" />
		<tag k="name" v="Humrasteinane" />
		<tag k="place" v="islet" />
		<tag k="ssr:stedsnr" v="706219" />
	</node>
	<node lat="58.529111114154084" lon="5.7008138869829175" id="-359">
=======
	<node id="-20770" lat="58.4746944471" lon="5.81799444355">
		<tag k="name" v="Vatnamotflua" />
		<tag k="natural" v="shoal" />
		<tag k="old_name" v="Vatnamoflua" />
		<tag k="place" v="locality" />
		<tag k="ssr:stedsnr" v="769764" />
	</node>
	<node id="-20767" lat="58.4834555594" lon="5.81101665869">
		<tag k="name" v="Varholmsundet" />
		<tag k="natural" v="strait" />
		<tag k="ssr:stedsnr" v="768500" />
	</node>
	<node id="-20766" lat="58.4836833297" lon="5.80794166822">
		<tag k="alt_name" v="Porthunden" />
>>>>>>> e1d4bc35ff8a6074a6f2e91616a996b547c36f15
		<tag k="fixme" v="consider seamark:type=rock or natural=shoal" />
		<tag k="name" v="Raunasteinen" />
		<tag k="place" v="islet" />
		<tag k="ssr:stedsnr" v="706222" />
	</node>
<<<<<<< HEAD
	<node lat="58.47727222267821" lon="5.827352786143994" id="-362">
		<tag k="name" v="Oddeflua" />
		<tag k="natural" v="shoal" />
=======
	<node id="-20252" lat="58.6070833327" lon="5.61168889187">
		<tag k="name" v="Åfluna" />
>>>>>>> e1d4bc35ff8a6074a6f2e91616a996b547c36f15
		<tag k="place" v="locality" />
		<tag k="ssr:stedsnr" v="708770" />
	</node>
<<<<<<< HEAD
	<node lat="58.60942777421813" lon="5.613355560593327" id="-364">
=======
	<node id="-20251" lat="58.6094277742" lon="5.61335556059">
>>>>>>> e1d4bc35ff8a6074a6f2e91616a996b547c36f15
		<tag k="name" v="Luggarsteinen" />
		<tag k="natural" v="cape" />
		<tag k="ssr:stedsnr" v="726094" />
	</node>
<<<<<<< HEAD
	<node lat="58.54520555181033" lon="5.681261116091616" id="-376">
		<tag k="name" v="Kvassheimhamna" />
=======
	<node id="-20762" lat="58.5809361154" lon="5.64318333917">
		<tag k="name" v="Årslandsstranda" />
		<tag k="natural" v="beach" />
		<tag k="place" v="locality" />
		<tag k="ssr:stedsnr" v="767211" />
	</node>
	<node id="-20761" lat="58.5851833291" lon="5.63993610662">
		<tag k="name" v="Humraskjera" />
>>>>>>> e1d4bc35ff8a6074a6f2e91616a996b547c36f15
		<tag k="natural" v="cape" />
		<tag k="ssr:stedsnr" v="728387" />
	</node>
<<<<<<< HEAD
	<node lat="58.59483055733968" lon="5.623222218668998" id="-383">
=======
	<node id="-20760" lat="58.5948305573" lon="5.62322221867">
>>>>>>> e1d4bc35ff8a6074a6f2e91616a996b547c36f15
		<tag k="name" v="Ryggjasteinen" />
		<tag k="place" v="locality" />
		<tag k="seamark:type" v="rock" />
		<tag k="ssr:stedsnr" v="767202" />
	</node>
<<<<<<< HEAD
	<node lat="58.585183329137685" lon="5.639936106616832" id="-384">
		<tag k="name" v="Humraskjera" />
=======
	<node id="-20247" lat="58.4810805544" lon="5.83708333398">
		<tag k="name" v="Djube Odden" />
>>>>>>> e1d4bc35ff8a6074a6f2e91616a996b547c36f15
		<tag k="natural" v="cape" />
		<tag k="ssr:stedsnr" v="767206" />
	</node>
	<node lat="58.58093611543768" lon="5.643183339167653" id="-385">
		<tag k="name" v="Årslandsstranda" />
		<tag k="natural" v="beach" />
		<tag k="ssr:stedsnr" v="767211" />
	</node>
<<<<<<< HEAD
	<node lat="58.483683329658675" lon="5.807941668215937" id="-389">
		<tag k="alt_name" v="Porthunden" />
=======
	<node id="-20758" lat="58.6742277752" lon="5.53947222593">
>>>>>>> e1d4bc35ff8a6074a6f2e91616a996b547c36f15
		<tag k="fixme" v="consider seamark:type=rock or natural=shoal" />
		<tag k="name" v="Porthundane" />
		<tag k="place" v="islet" />
<<<<<<< HEAD
		<tag k="ssr:stedsnr" v="768495" />
	</node>
	<node lat="58.483455559438184" lon="5.811016658690554" id="-390">
		<tag k="name" v="Varholmsundet" />
		<tag k="natural" v="strait" />
		<tag k="ssr:stedsnr" v="768500" />
	</node>
	<node lat="58.47469444714368" lon="5.817994443551609" id="-392">
		<tag k="name" v="Vatnamotflua" />
		<tag k="natural" v="shoal" />
		<tag k="old_name" v="Vatnamoflua" />
=======
		<tag k="ssr:stedsnr" v="767036" />
	</node>
	<node id="-20243" lat="58.6888138908" lon="5.54865555927">
		<tag k="name" v="Saltebukta" />
		<tag k="natural" v="bay" />
		<tag k="ssr:stedsnr" v="606794" />
	</node>
	<node id="-20239" lat="58.5484166639" lon="5.67584999886">
		<tag k="name" v="Øyrvika" />
		<tag k="natural" v="bay" />
		<tag k="ssr:stedsnr" v="606394" />
	</node>
	<node id="-20238" lat="58.5502805592" lon="5.66711389674">
		<tag k="name" v="Øyrtangen" />
		<tag k="natural" v="cape" />
		<tag k="ssr:stedsnr" v="606392" />
	</node>
	<node id="-20235" lat="58.5138166633" lon="5.7953277708">
		<tag k="name" v="Ognasanden" />
		<tag k="natural" v="beach" />
>>>>>>> e1d4bc35ff8a6074a6f2e91616a996b547c36f15
		<tag k="place" v="locality" />
		<tag k="ssr:stedsnr" v="769764" />
	</node>
<<<<<<< HEAD
	<node lat="58.633311112496315" lon="5.587255557506388" id="-410">
		<tag k="name" v="Hummarskjeret" />
=======
	<node id="-20230" lat="58.5061000008" lon="5.78963054853">
		<tag k="name" v="Indre Odden" />
>>>>>>> e1d4bc35ff8a6074a6f2e91616a996b547c36f15
		<tag k="natural" v="cape" />
		<tag k="ssr:stedsnr" v="786012" />
	</node>
<<<<<<< HEAD
	<node lat="58.506944444760464" lon="5.789977780591973" id="-412">
		<tag k="name" v="Persodden" />
		<tag k="natural" v="cape" />
		<tag k="ssr:stedsnr" v="787596" />
	</node>
	<node lat="58.65096389003947" lon="5.566452775205673" id="-416">
		<tag k="name" v="Obrestadhamna" />
=======
	<node id="-20740" lat="58.4842749984" lon="5.81545555943">
		<tag k="name" v="Svenskevika" />
		<tag k="natural" v="bay" />
		<tag k="ssr:stedsnr" v="646486" />
	</node>
	<node id="-20735" lat="58.5855916702" lon="5.63943332508">
		<tag k="name" v="Skrettingskjeret" />
>>>>>>> e1d4bc35ff8a6074a6f2e91616a996b547c36f15
		<tag k="natural" v="cape" />
		<tag k="ssr:stedsnr" v="789312" />
	</node>
<<<<<<< HEAD
	<node lat="58.6830750018829" lon="5.539952785985913" id="-422">
		<tag k="name" v="Raunen" />
		<tag k="place" v="islet" />
		<tag k="ssr:stedsnr" v="789815" />
	</node>
	<node lat="58.554119440836274" lon="5.66165833015471" id="-429">
		<tag k="name" v="Skardsteinen" />
=======
	<node id="-20734" lat="58.5801611091" lon="5.63998888608">
		<tag k="name" v="Skålasteinen" />
		<tag k="place" v="locality" />
		<tag k="seamark:type" v="rock" />
		<tag k="ssr:stedsnr" v="645205" />
	</node>
	<node id="-20733" lat="58.5193444469" lon="5.78412500371">
		<tag k="name" v="Austmannsberget" />
>>>>>>> e1d4bc35ff8a6074a6f2e91616a996b547c36f15
		<tag k="natural" v="cape" />
		<tag k="ssr:stedsnr" v="828203" />
	</node>
<<<<<<< HEAD
	<node lat="58.52346389118486" lon="5.68771944429606" id="-430">
		<tag k="name" v="Huset" />
=======
	<node id="-20220" lat="58.4772722227" lon="5.82735278614">
		<tag k="name" v="Oddeflua" />
>>>>>>> e1d4bc35ff8a6074a6f2e91616a996b547c36f15
		<tag k="natural" v="shoal" />
		<tag k="place" v="locality" />
		<tag k="ssr:stedsnr" v="828204" />
	</node>
<<<<<<< HEAD
	<node lat="58.483333330087774" lon="5.815113881646786" id="-431">
		<tag k="name" v="Indre Varholmane" />
		<tag k="place" v="islet" />
		<tag k="ssr:stedsnr" v="829517" />
	</node>
	<node lat="58.48225277467822" lon="5.8140083335989345" id="-432">
		<tag k="name" v="Ytre Varholmane" />
		<tag k="place" v="islet" />
		<tag k="ssr:stedsnr" v="829520" />
	</node>
	<node lat="58.65417221820621" lon="5.557827786484" id="-441">
		<tag k="name" v="Peparvika" />
=======
	<node id="-20731" lat="58.634530557" lon="5.58608332979">
		<tag k="name" v="Kvassesteinen" />
		<tag k="natural" v="cape" />
		<tag k="ssr:stedsnr" v="645009" />
	</node>
	<node id="-20215" lat="58.481958332" lon="5.84090834073">
		<tag k="name" v="Laugavika" />
>>>>>>> e1d4bc35ff8a6074a6f2e91616a996b547c36f15
		<tag k="natural" v="bay" />
		<tag k="ssr:stedsnr" v="847983" />
	</node>
<<<<<<< HEAD
	<node lat="58.52776944095582" lon="5.695749996241345" id="-442">
		<tag k="name" v="Raunagarden" />
		<tag k="place" v="locality" />
		<tag k="seamark:type" v="rock" />
		<tag k="ssr:stedsnr" v="847985" />
	</node>
	<node lat="58.536672221205485" lon="5.685836114037509" id="-468">
		<tag k="name" v="Hestasteinen" />
		<tag k="place" v="locality" />
		<tag k="seamark:type" v="rock" />
		<tag k="ssr:stedsnr" v="889247" />
	</node>
	<node lat="58.515547222482525" lon="5.791824997954459" id="-472">
		<tag k="name" v="Indre Stoholmen" />
		<tag k="natural" v="bay" />
		<tag k="ssr:stedsnr" v="892211" />
	</node>
	<node lat="58.47970278067136" lon="5.8267833374997835" id="-479">
		<tag k="name" v="Kilen" />
		<tag k="natural" v="strait" />
		<tag k="ssr:stedsnr" v="908560" />
	</node>
	<node lat="58.48601111238274" lon="5.805722214579258" id="-480">
		<tag k="fixme" v="consider seamark:type=rock or natural=shoal" />
		<tag k="name" v="Kinnarvågskjeret" />
		<tag k="place" v="islet" />
		<tag k="ssr:stedsnr" v="908561" />
	</node>
	<node lat="58.50363889199972" lon="5.787825006087884" id="-481">
		<tag k="name" v="Laksodden" />
		<tag k="natural" v="cape" />
		<tag k="ssr:stedsnr" v="908600" />
	</node>
	<node lat="58.536192787931" lon="5.726898432207088" id="-484">
		<tag k="fixme" v="consider seamark:type=rock or natural=shoal" />
		<tag k="name" v="N Laksaberget" />
		<tag k="place" v="islet" />
		<tag k="ssr:stedsnr" v="908959" />
	</node>
	<node lat="58.47620277534548" lon="5.820786111042579" id="-500">
		<tag k="name" v="Underbåen" />
		<tag k="place" v="locality" />
		<tag k="seamark:type" v="rock" />
		<tag k="ssr:stedsnr" v="950481" />
	</node>
	<node lat="58.51638889020819" lon="5.690902780126362" id="-503">
		<tag k="name" v="Krakken" />
		<tag k="natural" v="shoal" />
		<tag k="place" v="locality" />
		<tag k="ssr:stedsnr" v="951594" />
	</node>
	<node lat="58.48078055152325" lon="5.810769436451544" id="-508">
		<tag k="name" v="Mågagrunnen" />
		<tag k="natural" v="shoal" />
		<tag k="place" v="locality" />
		<tag k="ssr:stedsnr" v="967806" />
	</node>
	<node lat="58.61957500018501" lon="5.5943166659738495" id="-509">
		<tag k="name" v="Bollen" />
		<tag k="place" v="locality" />
		<tag k="seamark:type" v="rock" />
		<tag k="ssr:stedsnr" v="968113" />
	</node>
	<node lat="58.48081388847122" lon="5.828383330405132" id="-510">
		<tag k="name" v="Engjavika" />
		<tag k="natural" v="bay" />
		<tag k="ssr:stedsnr" v="969537" />
	</node>
	<node lat="58.481149999778616" lon="5.815605551342899" id="-522">
		<tag k="fixme" v="consider seamark:type=rock or natural=shoal" />
		<tag k="name" v="Svarta Skjeret" />
		<tag k="place" v="islet" />
		<tag k="ssr:stedsnr" v="717" />
	</node>
	<node lat="58.49050112591551" lon="5.798604679531408" id="-523">
		<tag k="name" v="Store Hellesundholmen" />
		<tag k="place" v="islet" />
		<tag k="ssr:stedsnr" v="20929" />
	</node>
	<node lat="58.59678055822281" lon="5.620813895349629" id="-527">
		<tag k="name" v="Skipteshaugfluna" />
=======
	<node id="-20723" lat="58.4851021163" lon="5.81739561557">
		<tag k="name" v="Holmavågen" />
		<tag k="natural" v="bay" />
		<tag k="ssr:stedsnr" v="606682" />
	</node>
	<node id="-20718" lat="58.6436888874" lon="5.57556944417">
		<tag k="name" v="Kummelskjeret" />
		<tag k="natural" v="cape" />
		<tag k="ssr:stedsnr" v="606293" />
	</node>
	<node id="-20698" lat="58.5096222237" lon="5.79205833714">
		<tag k="name" v="Klubben" />
		<tag k="natural" v="cape" />
		<tag k="ssr:stedsnr" v="586997" />
	</node>
	<node id="-20696" lat="58.4811388887" lon="5.82231389579">
		<tag k="name" v="Austmannholmen" />
		<tag k="place" v="islet" />
		<tag k="ssr:stedsnr" v="585445" />
	</node>
	<node id="-20695" lat="58.4843583303" lon="5.81809721485">
		<tag k="name" v="Fortunholmen" />
		<tag k="place" v="islet" />
		<tag k="ssr:stedsnr" v="585443" />
	</node>
	<node id="-20693" lat="58.5438361151" lon="5.67996944232">
		<tag k="name" v="Kvassheimstangen" />
		<tag k="natural" v="cape" />
		<tag k="ssr:stedsnr" v="585187" />
	</node>
	<node id="-20692" lat="58.6727555555" lon="5.54320833063">
		<tag k="name" v="Selvågsholet" />
		<tag k="natural" v="bay" />
		<tag k="ssr:stedsnr" v="585045" />
	</node>
	<node id="-20691" lat="58.6700111093" lon="5.54178888081">
		<tag k="name" v="Håtangen" />
		<tag k="natural" v="cape" />
		<tag k="ssr:stedsnr" v="585040" />
	</node>
	<node id="-20690" lat="58.6354305523" lon="5.58618611611">
		<tag k="name" v="Grødalandstangen" />
		<tag k="natural" v="cape" />
		<tag k="ssr:stedsnr" v="585017" />
	</node>
	<node id="-20174" lat="58.4809472249" lon="5.81574722811">
		<tag k="name" v="Mågatåna" />
		<tag k="place" v="islet" />
		<tag k="ssr:stedsnr" v="667664" />
	</node>
	<node id="-20166" lat="58.5358694474" lon="5.72339444043">
		<tag k="name" v="Holmestø" />
		<tag k="natural" v="cape" />
		<tag k="ssr:stedsnr" v="667397" />
	</node>
	<node id="-20153" lat="58.6170194413" lon="5.59856111779">
		<tag k="name" v="Tvibogan" />
>>>>>>> e1d4bc35ff8a6074a6f2e91616a996b547c36f15
		<tag k="place" v="locality" />
		<tag k="seamark:type" v="rock" />
		<tag k="ssr:stedsnr" v="39178" />
	</node>
<<<<<<< HEAD
	<node lat="58.56729722080967" lon="5.644455555603122" id="-528">
		<tag k="name" v="Stavnheimsfluna" />
		<tag k="place" v="locality" />
		<tag k="seamark:type" v="rock" />
		<tag k="ssr:stedsnr" v="39186" />
	</node>
	<node lat="58.644699997145324" lon="5.573347216206048" id="-530">
		<tag k="name" v="Kummeltangen" />
		<tag k="natural" v="cape" />
		<tag k="ssr:stedsnr" v="39929" />
	</node>
	<node lat="58.48075277397648" lon="5.818708339597343" id="-531">
=======
	<node id="-20151" lat="58.491827776" lon="5.7896416594">
		<tag k="name" v="Havstangen" />
		<tag k="natural" v="cape" />
		<tag k="ssr:stedsnr" v="425756" />
	</node>
	<node id="-20150" lat="58.5202388878" lon="5.77691111257">
		<tag k="name" v="Ognaholman" />
		<tag k="place" v="islet" />
		<tag k="ssr:stedsnr" v="425426" />
	</node>
	<node id="-20657" lat="58.4876555558" lon="5.80830834088">
>>>>>>> e1d4bc35ff8a6074a6f2e91616a996b547c36f15
		<tag k="bay" v="fjord" />
		<tag k="name" v="Breidagapet" />
		<tag k="natural" v="bay" />
		<tag k="ssr:stedsnr" v="40515" />
	</node>
<<<<<<< HEAD
	<node lat="58.650483331982855" lon="5.567174996002191" id="-547">
		<tag k="name" v="Naustertangen" />
		<tag k="natural" v="cape" />
		<tag k="ssr:stedsnr" v="58958" />
	</node>
	<node lat="58.6405440505728" lon="5.585230900253516" id="-551">
		<tag k="name" v="Sørreimsvika" />
=======
	<node id="-20656" lat="58.5002361134" lon="5.78444445006">
		<tag k="name" v="Bekkjarvikodden" />
		<tag k="natural" v="cape" />
		<tag k="ssr:stedsnr" v="544564" />
	</node>
	<node id="-20142" lat="58.4962583378" lon="5.78497777748">
		<tag k="alt_name" v="Rabnabukta" />
		<tag k="name" v="Ramnabukta" />
		<tag k="natural" v="bay" />
		<tag k="ssr:stedsnr" v="423604" />
	</node>
	<node id="-20646" lat="58.5027194423" lon="5.78525277643">
		<tag k="name" v="Klenavika" />
>>>>>>> e1d4bc35ff8a6074a6f2e91616a996b547c36f15
		<tag k="natural" v="bay" />
		<tag k="old_name" v="Sør-Reimsvika" />
		<tag k="ssr:stedsnr" v="61300" />
	</node>
<<<<<<< HEAD
	<node lat="58.58715278094378" lon="5.636563883878595" id="-562">
		<tag k="name" v="Madlandshamna" />
		<tag k="natural" v="cape" />
		<tag k="ssr:stedsnr" v="61357" />
	</node>
	<node lat="58.537172221289225" lon="5.694075005117099" id="-569">
		<tag k="alt_name" v="Kjørkjetangen" />
		<tag k="name" v="Kyrkjetangen" />
		<tag k="natural" v="cape" />
		<tag k="ssr:stedsnr" v="100186" />
	</node>
	<node lat="58.49053055661591" lon="5.802074997975528" id="-572">
		<tag k="name" v="Bekkjarvika" />
		<tag k="natural" v="bay" />
		<tag k="ssr:stedsnr" v="101227" />
	</node>
	<node lat="58.47250555354351" lon="5.824352784347937" id="-573">
		<tag k="name" v="Hella" />
=======
	<node id="-20133" lat="58.4797555576" lon="5.82094444918">
		<tag k="fixme" v="consider seamark:type=rock or natural=shoal" />
		<tag k="name" v="Svartaskjeret" />
		<tag k="place" v="islet" />
		<tag k="ssr:stedsnr" v="404477" />
	</node>
	<node id="-20132" lat="58.4834638864" lon="5.82079722074">
		<tag k="name" v="Guleklumpen" />
		<tag k="place" v="islet" />
		<tag k="ssr:stedsnr" v="404474" />
	</node>
	<node id="-20643" lat="58.6687999968" lon="5.5458777737">
		<tag k="name" v="Brennevinsholet" />
		<tag k="natural" v="bay" />
		<tag k="ssr:stedsnr" v="524030" />
	</node>
	<node id="-20642" lat="58.6764583337" lon="5.54425554828">
		<tag k="name" v="Selvågstangen" />
		<tag k="natural" v="cape" />
		<tag k="ssr:stedsnr" v="524026" />
	</node>
	<node id="-20641" lat="58.6848305583" lon="5.54907222729">
		<tag k="name" v="Nærlandssanden" />
		<tag k="natural" v="beach" />
>>>>>>> e1d4bc35ff8a6074a6f2e91616a996b547c36f15
		<tag k="place" v="locality" />
		<tag k="seamark:type" v="rock" />
		<tag k="ssr:stedsnr" v="101759" />
	</node>
<<<<<<< HEAD
	<node lat="58.48031111113933" lon="5.831747225282451" id="-578">
		<tag k="name" v="Urvika" />
=======
	<node id="-20640" lat="58.6739749959" lon="5.54361667207">
		<tag k="name" v="Selvåg" />
>>>>>>> e1d4bc35ff8a6074a6f2e91616a996b547c36f15
		<tag k="natural" v="bay" />
		<tag k="ssr:stedsnr" v="116035" />
	</node>
<<<<<<< HEAD
	<node lat="58.498441666807174" lon="5.784888888283185" id="-581">
		<tag k="name" v="Ytre Seiavika" />
		<tag k="natural" v="bay" />
		<tag k="ssr:stedsnr" v="119598" />
	</node>
	<node lat="58.499580557766784" lon="5.785180549501037" id="-582">
		<tag k="name" v="Indre Seiavika" />
=======
	<node id="-20639" lat="58.4822537646" lon="5.82187207283">
		<tag k="name" v="Vardholmane" />
		<tag k="place" v="islet" />
		<tag k="ssr:stedsnr" v="425695" />
	</node>
	<node id="-20125" lat="58.4951555519" lon="5.78901111019">
		<tag k="name" v="Havrabukta" />
>>>>>>> e1d4bc35ff8a6074a6f2e91616a996b547c36f15
		<tag k="natural" v="bay" />
		<tag k="ssr:stedsnr" v="119599" />
	</node>
<<<<<<< HEAD
	<node lat="58.50471111876683" lon="5.783428073810309" id="-583">
		<tag k="name" v="Vågsgapgrunnen" />
		<tag k="natural" v="shoal" />
		<tag k="place" v="locality" />
		<tag k="ssr:stedsnr" v="119600" />
	</node>
	<node lat="58.482255555161515" lon="5.834738889852897" id="-584">
		<tag k="alt_name" v="Kobbervika" />
		<tag k="name" v="Kobbavika" />
=======
	<node id="-20117" lat="58.482730555" lon="5.81041389222">
		<tag k="name" v="Svarte Odden" />
		<tag k="place" v="islet" />
		<tag k="ssr:stedsnr" v="485638" />
	</node>
	<node id="-20115" lat="58.508769449" lon="5.79113889578">
		<tag k="name" v="Sannarvågen" />
>>>>>>> e1d4bc35ff8a6074a6f2e91616a996b547c36f15
		<tag k="natural" v="bay" />
		<tag k="ssr:stedsnr" v="119549" />
	</node>
<<<<<<< HEAD
	<node lat="58.5392666652847" lon="5.691263884217193" id="-598">
		<tag k="alt_name" v="Fuglevika" />
		<tag k="name" v="Fuglavika" />
		<tag k="natural" v="bay" />
		<tag k="ssr:stedsnr" v="160162" />
	</node>
	<node lat="58.519477778308044" lon="5.7504777741370665" id="-599">
		<tag k="name" v="Krotle" />
		<tag k="natural" v="shoal" />
		<tag k="place" v="locality" />
		<tag k="ssr:stedsnr" v="160173" />
	</node>
	<node lat="58.523980557411186" lon="5.77543611941734" id="-600">
		<tag k="alt_name" v="Varaskjeret" />
=======
	<node id="-20626" lat="58.5359611122" lon="5.69800555942">
		<tag k="name" v="Krossen" />
		<tag k="place" v="locality" />
		<tag k="ssr:stedsnr" v="422988" />
	</node>
	<node id="-20625" lat="58.6510055588" lon="5.55268888193">
		<tag k="name" v="Obrestadgrunnen" />
		<tag k="natural" v="shoal" />
		<tag k="place" v="locality" />
		<tag k="ssr:stedsnr" v="422976" />
	</node>
	<node id="-20624" lat="58.6470027806" lon="5.57215555998">
		<tag k="name" v="Kalvaheistangen" />
		<tag k="natural" v="cape" />
		<tag k="ssr:stedsnr" v="422954" />
	</node>
	<node id="-20621" lat="58.4813472262" lon="5.84392222222">
>>>>>>> e1d4bc35ff8a6074a6f2e91616a996b547c36f15
		<tag k="fixme" v="consider seamark:type=rock or natural=shoal" />
		<tag k="name" v="Vardaskjeret" />
		<tag k="place" v="islet" />
		<tag k="ssr:stedsnr" v="160174" />
	</node>
<<<<<<< HEAD
	<node lat="58.59281944898202" lon="5.629838893674405" id="-601">
		<tag k="name" v="Rortangen" />
		<tag k="natural" v="cape" />
		<tag k="ssr:stedsnr" v="160181" />
	</node>
	<node lat="58.59965555337469" lon="5.621430560887699" id="-602">
		<tag k="name" v="Skrytevika" />
=======
	<node id="-20619" lat="58.5039018143" lon="5.79427385992">
		<tag k="name" v="Sirevåg" />
>>>>>>> e1d4bc35ff8a6074a6f2e91616a996b547c36f15
		<tag k="natural" v="bay" />
		<tag k="ssr:stedsnr" v="160139" />
	</node>
<<<<<<< HEAD
	<node lat="58.572405555466844" lon="5.649369452345447" id="-603">
		<tag k="name" v="Skarvasteinen" />
		<tag k="natural" v="cape" />
		<tag k="ssr:stedsnr" v="160187" />
	</node>
	<node lat="58.5252833340345" lon="5.709216668412974" id="-604">
=======
	<node id="-20615" lat="58.5153991625" lon="5.79057266825">
>>>>>>> e1d4bc35ff8a6074a6f2e91616a996b547c36f15
		<tag k="fixme" v="consider seamark:type=rock or natural=shoal" />
		<tag k="name" v="Onglaskjeret" />
		<tag k="place" v="islet" />
		<tag k="ssr:stedsnr" v="160188" />
	</node>
<<<<<<< HEAD
	<node lat="58.50326389106797" lon="5.784783338999953" id="-607">
		<tag k="alt_name" v="Småskjerene" />
		<tag k="fixme" v="consider seamark:type=rock or natural=shoal" />
		<tag k="name" v="Småskjera" />
		<tag k="place" v="islet" />
		<tag k="ssr:stedsnr" v="161486" />
	</node>
	<node lat="58.47153055205158" lon="5.813597220116109" id="-609">
		<tag k="name" v="Storaflua" />
		<tag k="natural" v="shoal" />
		<tag k="place" v="locality" />
		<tag k="ssr:stedsnr" v="162798" />
	</node>
	<node lat="58.660894444832834" lon="5.55312777416701" id="-613">
		<tag k="name" v="Søra Fuglavika" />
=======
	<node id="-20614" lat="58.4922277779" lon="5.78544167224">
		<tag k="name" v="Løflua" />
		<tag k="place" v="locality" />
		<tag k="seamark:type" v="rock" />
		<tag k="ssr:stedsnr" v="405896" />
	</node>
	<node id="-20099" lat="58.648238885" lon="5.57129444711">
		<tag k="name" v="Kvalabukta" />
		<tag k="natural" v="bay" />
		<tag k="ssr:stedsnr" v="482943" />
	</node>
	<node id="-20606" lat="58.6630111089" lon="5.55201944882">
		<tag k="name" v="Nørdra Fuglavika" />
>>>>>>> e1d4bc35ff8a6074a6f2e91616a996b547c36f15
		<tag k="natural" v="bay" />
		<tag k="ssr:stedsnr" v="179981" />
	</node>
<<<<<<< HEAD
	<node lat="58.15130833030587" lon="6.29712777180919" id="-616">
		<tag k="name" v="Nordsjøen" />
		<tag k="name:en" v="North Sea" />
		<tag k="name:no" v="Nordsjøen" />
		<tag k="place" v="sea" />
		<tag k="ssr:stedsnr" v="182096" />
	</node>
	<node lat="58.58668611471639" lon="5.637605550420802" id="-640">
		<tag k="name" v="Madlandstranda" />
		<tag k="natural" v="beach" />
		<tag k="ssr:stedsnr" v="221197" />
	</node>
	<node lat="58.487069446764224" lon="5.798424995839834" id="-643">
		<tag k="name" v="Hellesundfluene" />
		<tag k="natural" v="shoal" />
		<tag k="place" v="locality" />
		<tag k="ssr:stedsnr" v="223923" />
	</node>
	<node lat="58.48350277745776" lon="5.800258329153616" id="-644">
		<tag k="name" v="Kinnarvågskoltane" />
		<tag k="natural" v="shoal" />
=======
	<node id="-20602" lat="58.4815194435" lon="5.84200277762">
		<tag k="name" v="Moivika" />
		<tag k="natural" v="bay" />
		<tag k="ssr:stedsnr" v="364731" />
	</node>
	<node id="-20088" lat="58.5013916657" lon="5.78660278212">
		<tag k="name" v="Bekkjarvika" />
		<tag k="natural" v="bay" />
		<tag k="old_name" v="Bekkjaviki;Bekkjarviki" />
		<tag k="ssr:stedsnr" v="477439" />
	</node>
	<node id="-20589" lat="58.5715277784" lon="5.65036111925">
		<tag k="name" v="Stavnheimsvika" />
		<tag k="natural" v="bay" />
		<tag k="ssr:stedsnr" v="364315" />
	</node>
	<node id="-20076" lat="58.5359444473" lon="5.74365278252">
		<tag k="name" v="Brusanden" />
		<tag k="natural" v="beach" />
>>>>>>> e1d4bc35ff8a6074a6f2e91616a996b547c36f15
		<tag k="place" v="locality" />
		<tag k="ssr:stedsnr" v="223924" />
	</node>
<<<<<<< HEAD
	<node lat="58.58389502197573" lon="5.641516784210719" id="-648">
		<tag k="name" v="Årslandsvika" />
		<tag k="natural" v="bay" />
		<tag k="ssr:stedsnr" v="282207" />
	</node>
	<node lat="58.57926944238399" lon="5.644719451497382" id="-652">
		<tag k="name" v="Piksteinstangen" />
		<tag k="natural" v="cape" />
		<tag k="ssr:stedsnr" v="282212" />
	</node>
	<node lat="58.50316666986439" lon="5.79451110487413" id="-654">
		<tag k="name" v="Svinholmen" />
		<tag k="natural" v="cape" />
		<tag k="ssr:stedsnr" v="283463" />
	</node>
	<node lat="58.65557777554265" lon="5.555947228436297" id="-659">
=======
	<node id="-20069" lat="58.6555777755" lon="5.55594722844">
>>>>>>> e1d4bc35ff8a6074a6f2e91616a996b547c36f15
		<tag k="name" v="Vetabukta" />
		<tag k="natural" v="bay" />
		<tag k="ssr:stedsnr" v="300961" />
	</node>
<<<<<<< HEAD
	<node lat="58.68444444742488" lon="5.541738890694631" id="-682">
		<tag k="name" v="Lyren" />
		<tag k="place" v="locality" />
		<tag k="seamark:type" v="rock" />
		<tag k="ssr:stedsnr" v="342032" />
	</node>
	<node lat="58.533563885825075" lon="5.676883338133574" id="-683">
		<tag k="name" v="Raunafluna" />
=======
	<node id="-20065" lat="58.5026027757" lon="5.78100555421">
		<tag k="fixme" v="consider seamark:type=rock or natural=shoal" />
		<tag k="name" v="Skjevlingen" />
		<tag k="place" v="islet" />
		<tag k="ssr:stedsnr" v="465990" />
	</node>
	<node id="-20063" lat="58.4821620164" lon="5.82266714252">
		<tag k="name" v="Blåstakkholmen" />
		<tag k="place" v="islet" />
		<tag k="ssr:stedsnr" v="464499" />
	</node>
	<node id="-20062" lat="58.4838583352" lon="5.82395554918">
		<tag k="name" v="Båtavika" />
		<tag k="natural" v="bay" />
		<tag k="ssr:stedsnr" v="464497" />
	</node>
	<node id="-20061" lat="58.5894027736" lon="5.63221666122">
		<tag k="name" v="Skipasteinfluna" />
>>>>>>> e1d4bc35ff8a6074a6f2e91616a996b547c36f15
		<tag k="place" v="locality" />
		<tag k="seamark:type" v="rock" />
		<tag k="ssr:stedsnr" v="342220" />
	</node>
<<<<<<< HEAD
	<node lat="58.47861110760849" lon="5.825441667731816" id="-685">
=======
	<node id="-20566" lat="58.4786111076" lon="5.82544166773">
>>>>>>> e1d4bc35ff8a6074a6f2e91616a996b547c36f15
		<tag k="alt_name" v="Lædresundholmen" />
		<tag k="name" v="Ledresundholmen" />
		<tag k="place" v="islet" />
		<tag k="ssr:stedsnr" v="343489" />
	</node>
<<<<<<< HEAD
	<node lat="58.49515555185678" lon="5.789011110187086" id="-699">
		<tag k="name" v="Havrabukta" />
		<tag k="natural" v="bay" />
		<tag k="ssr:stedsnr" v="362576" />
	</node>
	<node lat="58.571527778367546" lon="5.650361119247696" id="-713">
		<tag k="name" v="Stavnheimsvika" />
		<tag k="natural" v="bay" />
		<tag k="ssr:stedsnr" v="364315" />
	</node>
	<node lat="58.48151944354511" lon="5.842002777620991" id="-718">
		<tag k="name" v="Moivika" />
		<tag k="natural" v="bay" />
		<tag k="ssr:stedsnr" v="364731" />
	</node>
	<node lat="58.663011108908144" lon="5.55201944882438" id="-725">
		<tag k="name" v="Nørdra Fuglavika" />
=======
	<node id="-20563" lat="58.5335638858" lon="5.67688333813">
		<tag k="name" v="Raunafluna" />
		<tag k="place" v="locality" />
		<tag k="seamark:type" v="rock" />
		<tag k="ssr:stedsnr" v="342220" />
	</node>
	<node id="-20562" lat="58.5214416692" lon="5.77096388952">
		<tag k="name" v="Holmaflu" />
		<tag k="place" v="locality" />
		<tag k="seamark:type" v="rock" />
		<tag k="ssr:stedsnr" v="342192" />
	</node>
	<node id="-20561" lat="58.6844444474" lon="5.54173889069">
		<tag k="name" v="Lyren" />
		<tag k="place" v="locality" />
		<tag k="seamark:type" v="rock" />
		<tag k="ssr:stedsnr" v="342032" />
	</node>
	<node id="-20038" lat="58.4820416637" lon="5.82542222828">
		<tag k="name" v="Kaggavika" />
>>>>>>> e1d4bc35ff8a6074a6f2e91616a996b547c36f15
		<tag k="natural" v="bay" />
		<tag k="ssr:stedsnr" v="403046" />
	</node>
<<<<<<< HEAD
	<node lat="58.492227777919354" lon="5.785441672239722" id="-731">
		<tag k="name" v="Løflua" />
		<tag k="place" v="locality" />
		<tag k="seamark:type" v="rock" />
		<tag k="ssr:stedsnr" v="405896" />
	</node>
	<node lat="58.515399162503776" lon="5.790572668253054" id="-732">
=======
	<node id="-20546" lat="58.6578444462" lon="5.55132500046">
		<tag k="name" v="Revtangen" />
		<tag k="natural" v="cape" />
		<tag k="ssr:stedsnr" v="300980" />
	</node>
	<node id="-20029" lat="58.4807805547" lon="5.84052499518">
>>>>>>> e1d4bc35ff8a6074a6f2e91616a996b547c36f15
		<tag k="fixme" v="consider seamark:type=rock or natural=shoal" />
		<tag k="name" v="Stoholmen" />
		<tag k="place" v="islet" />
		<tag k="ssr:stedsnr" v="405999" />
	</node>
<<<<<<< HEAD
	<node lat="58.50390181429808" lon="5.794273859921487" id="-735">
		<tag k="name" v="Sirevåg" />
		<tag k="natural" v="bay" />
		<tag k="ssr:stedsnr" v="419166" />
	</node>
	<node lat="58.481347226221786" lon="5.84392222221761" id="-737">
		<tag k="fixme" v="consider seamark:type=rock or natural=shoal" />
		<tag k="name" v="Moiskjeret" />
		<tag k="place" v="islet" />
		<tag k="ssr:stedsnr" v="422070" />
	</node>
	<node lat="58.651005558777904" lon="5.552688881932462" id="-739">
		<tag k="name" v="Obrestadgrunnen" />
=======
	<node id="-20025" lat="58.5031666699" lon="5.79451110487">
		<tag k="name" v="Svinholmen" />
		<tag k="natural" v="cape" />
		<tag k="ssr:stedsnr" v="283463" />
	</node>
	<node id="-20021" lat="58.5036264662" lon="5.78070369215">
		<tag k="name" v="Skjevlingflua" />
>>>>>>> e1d4bc35ff8a6074a6f2e91616a996b547c36f15
		<tag k="natural" v="shoal" />
		<tag k="place" v="locality" />
		<tag k="ssr:stedsnr" v="422976" />
	</node>
<<<<<<< HEAD
	<node lat="58.52023888778566" lon="5.77691111257025" id="-748">
		<tag k="name" v="Ognaholman" />
		<tag k="place" v="islet" />
		<tag k="ssr:stedsnr" v="425426" />
	</node>
	<node lat="58.67397499592092" lon="5.543616672071732" id="-753">
		<tag k="name" v="Selvåg" />
		<tag k="natural" v="bay" />
		<tag k="ssr:stedsnr" v="425773" />
	</node>
	<node lat="58.68483055827382" lon="5.5490722272855715" id="-762">
		<tag k="name" v="Nærlandssanden" />
		<tag k="natural" v="beach" />
		<tag k="ssr:stedsnr" v="524025" />
	</node>
	<node lat="58.67645833373745" lon="5.544255548275657" id="-763">
		<tag k="name" v="Selvågstangen" />
=======
	<node id="-20016" lat="58.5792694424" lon="5.6447194515">
		<tag k="name" v="Piksteinstangen" />
		<tag k="natural" v="cape" />
		<tag k="ssr:stedsnr" v="282212" />
	</node>
	<node id="-20015" lat="58.583895022" lon="5.64151678421">
		<tag k="name" v="Årslandsvika" />
		<tag k="natural" v="bay" />
		<tag k="ssr:stedsnr" v="282207" />
	</node>
	<node id="-20012" lat="58.4858805577" lon="5.81094166482">
		<tag k="name" v="Vatnamotholmane" />
		<tag k="old_name" v="Vatnamoholman" />
		<tag k="place" v="islet" />
		<tag k="ssr:stedsnr" v="162810" />
	</node>
	<node id="-20010" lat="58.525283334" lon="5.70921666841">
		<tag k="fixme" v="consider seamark:type=rock or natural=shoal" />
		<tag k="name" v="Onglaskjeret" />
		<tag k="place" v="islet" />
		<tag k="ssr:stedsnr" v="160188" />
	</node>
	<node id="-20009" lat="58.5724055555" lon="5.64936945235">
		<tag k="name" v="Skarvasteinen" />
>>>>>>> e1d4bc35ff8a6074a6f2e91616a996b547c36f15
		<tag k="natural" v="cape" />
		<tag k="ssr:stedsnr" v="524026" />
	</node>
<<<<<<< HEAD
	<node lat="58.6687999967939" lon="5.545877773699695" id="-764">
		<tag k="name" v="Brennevinsholet" />
		<tag k="natural" v="bay" />
		<tag k="ssr:stedsnr" v="524030" />
	</node>
	<node lat="58.50271944225869" lon="5.785252776431666" id="-765">
		<tag k="name" v="Klenavika" />
		<tag k="natural" v="bay" />
		<tag k="ssr:stedsnr" v="525492" />
	</node>
	<node lat="58.500236113409294" lon="5.784444450058839" id="-773">
		<tag k="name" v="Bekkjarvikodden" />
=======
	<node id="-20008" lat="58.592819449" lon="5.62983889367">
		<tag k="name" v="Rortangen" />
>>>>>>> e1d4bc35ff8a6074a6f2e91616a996b547c36f15
		<tag k="natural" v="cape" />
		<tag k="ssr:stedsnr" v="544564" />
	</node>
<<<<<<< HEAD
	<node lat="58.487655555761364" lon="5.808308340876144" id="-774">
		<tag k="bay" v="fjord" />
		<tag k="name" v="Kinnarvåggapet" />
		<tag k="natural" v="bay" />
		<tag k="ssr:stedsnr" v="544566" />
	</node>
	<node lat="58.54383611511416" lon="5.679969442320805" id="-797">
		<tag k="name" v="Kvassheimstangen" />
		<tag k="natural" v="cape" />
		<tag k="ssr:stedsnr" v="585187" />
	</node>
	<node lat="58.5502805591753" lon="5.66711389674482" id="-813">
		<tag k="name" v="Øyrtangen" />
		<tag k="natural" v="cape" />
		<tag k="ssr:stedsnr" v="606392" />
	</node>
	<node lat="58.54841666391124" lon="5.6758499988589195" id="-814">
		<tag k="name" v="Øyrvika" />
=======
	<node id="-20007" lat="58.5239805574" lon="5.77543611942">
		<tag k="alt_name" v="Varaskjeret" />
		<tag k="fixme" v="consider seamark:type=rock or natural=shoal" />
		<tag k="name" v="Vardaskjeret" />
		<tag k="place" v="islet" />
		<tag k="ssr:stedsnr" v="160174" />
	</node>
	<node id="-20006" lat="58.5194777783" lon="5.75047777414">
		<tag k="name" v="Krotle" />
		<tag k="natural" v="shoal" />
		<tag k="place" v="locality" />
		<tag k="ssr:stedsnr" v="160173" />
	</node>
	<node id="-20005" lat="58.5392666653" lon="5.69126388422">
		<tag k="alt_name" v="Fuglevika" />
		<tag k="name" v="Fuglavika" />
>>>>>>> e1d4bc35ff8a6074a6f2e91616a996b547c36f15
		<tag k="natural" v="bay" />
		<tag k="ssr:stedsnr" v="606394" />
	</node>
<<<<<<< HEAD
	<node lat="58.64368888739672" lon="5.5755694441704655" id="-816">
		<tag k="name" v="Kummelskjeret" />
		<tag k="natural" v="cape" />
		<tag k="ssr:stedsnr" v="606293" />
	</node>
	<node lat="58.48510211633572" lon="5.817395615569655" id="-817">
		<tag k="name" v="Holmavågen" />
=======
	<node id="-20511" lat="58.1513083303" lon="6.29712777181">
		<tag k="name" v="Nordsjøen" />
		<tag k="name:en" v="North Sea" />
		<tag k="name:no" v="Nordsjøen" />
		<tag k="place" v="sea" />
		<tag k="ssr:stedsnr" v="182096" />
	</node>
	<node id="-20509" lat="58.6608944448" lon="5.55312777417">
		<tag k="name" v="Søra Fuglavika" />
>>>>>>> e1d4bc35ff8a6074a6f2e91616a996b547c36f15
		<tag k="natural" v="bay" />
		<tag k="ssr:stedsnr" v="606682" />
	</node>
<<<<<<< HEAD
	<node lat="58.69114999582391" lon="5.550430550906125" id="-823">
		<tag k="name" v="Revsnessanden" />
		<tag k="natural" v="beach" />
		<tag k="ssr:stedsnr" v="645038" />
	</node>
	<node lat="58.50431666621189" lon="5.789855550951654" id="-830">
		<tag k="name" v="Vestre Odden" />
		<tag k="natural" v="cape" />
		<tag k="ssr:stedsnr" v="646513" />
	</node>
	<node lat="58.53637411408895" lon="5.728787377757108" id="-834">
=======
	<node id="-20505" lat="58.4715305521" lon="5.81359722012">
		<tag k="name" v="Storaflua" />
		<tag k="natural" v="shoal" />
		<tag k="place" v="locality" />
		<tag k="ssr:stedsnr" v="162798" />
	</node>
	<node id="-20502" lat="58.5032638911" lon="5.784783339">
		<tag k="alt_name" v="Småskjerene" />
>>>>>>> e1d4bc35ff8a6074a6f2e91616a996b547c36f15
		<tag k="fixme" v="consider seamark:type=rock or natural=shoal" />
		<tag k="name" v="S Laksaberget" />
		<tag k="place" v="islet" />
		<tag k="ssr:stedsnr" v="665952" />
	</node>
<<<<<<< HEAD
	<node lat="58.48094722493957" lon="5.8157472281130325" id="-843">
		<tag k="name" v="Mågatåna" />
		<tag k="place" v="islet" />
		<tag k="ssr:stedsnr" v="667664" />
	</node>
	<node lat="58.4810805544376" lon="5.837083333980402" id="-852">
		<tag k="name" v="Djube Odden" />
		<tag k="natural" v="cape" />
		<tag k="ssr:stedsnr" v="725053" />
	</node>
	<node lat="58.60708333273159" lon="5.61168889187331" id="-856">
		<tag k="name" v="Åfluna" />
=======
	<node id="-20500" lat="58.5996555534" lon="5.62143056089">
		<tag k="name" v="Skrytevika" />
		<tag k="natural" v="bay" />
		<tag k="ssr:stedsnr" v="160139" />
	</node>
	<node id="-19977" lat="58.6059388847" lon="5.61296944214">
		<tag k="name" v="Kjeltrafluene" />
>>>>>>> e1d4bc35ff8a6074a6f2e91616a996b547c36f15
		<tag k="place" v="locality" />
		<tag k="seamark:type" v="rock" />
		<tag k="ssr:stedsnr" v="726100" />
	</node>
<<<<<<< HEAD
	<node lat="58.49024999734183" lon="5.794477771446902" id="-861">
		<tag k="name" v="Hellesund" />
		<tag k="natural" v="strait" />
		<tag k="ssr:stedsnr" v="728654" />
	</node>
	<node lat="58.484827773527186" lon="5.809872226763558" id="-862">
		<tag k="name" v="Austmannsholmen" />
		<tag k="place" v="islet" />
		<tag k="ssr:stedsnr" v="728655" />
	</node>
	<node lat="58.67422777520142" lon="5.53947222593436" id="-867">
=======
	<node id="-19976" lat="58.48940191" lon="5.80802784927">
		<tag k="name" v="Kinnarvågen" />
		<tag k="natural" v="bay" />
		<tag k="ssr:stedsnr" v="240026" />
	</node>
	<node id="-19972" lat="58.6405440506" lon="5.58523090025">
		<tag k="name" v="Sørreimsvika" />
		<tag k="natural" v="bay" />
		<tag k="old_name" v="Sør-Reimsvika" />
		<tag k="ssr:stedsnr" v="61300" />
	</node>
	<node id="-19969" lat="58.4778250019" lon="5.84542223018">
>>>>>>> e1d4bc35ff8a6074a6f2e91616a996b547c36f15
		<tag k="fixme" v="consider seamark:type=rock or natural=shoal" />
		<tag k="name" v="Seiasteinen" />
		<tag k="place" v="islet" />
		<tag k="ssr:stedsnr" v="767036" />
	</node>
<<<<<<< HEAD
	<node lat="58.65343888573734" lon="5.559383327177667" id="-874">
		<tag k="name" v="Daursbeietet" />
		<tag k="natural" v="cape" />
		<tag k="ssr:stedsnr" v="786965" />
	</node>
	<node lat="58.490121217580416" lon="5.799521387888649" id="-875">
		<tag k="alt_name" v="Hedlesundsholmane" />
		<tag k="name" v="Hellesundholmane" />
		<tag k="place" v="islet" />
		<tag k="ssr:stedsnr" v="787593" />
	</node>
	<node lat="58.57019166264181" lon="5.642766658615567" id="-895">
		<tag k="name" v="Sloen" />
		<tag k="place" v="locality" />
		<tag k="seamark:type" v="rock" />
		<tag k="ssr:stedsnr" v="828196" />
	</node>
	<node lat="58.51362221815086" lon="5.712216658770497" id="-903">
		<tag k="name" v="Tangen" />
		<tag k="natural" v="shoal" />
		<tag k="place" v="locality" />
		<tag k="ssr:stedsnr" v="830567" />
	</node>
	<node lat="58.494083329478684" lon="5.783552786050534" id="-904">
		<tag k="fixme" v="consider seamark:type=rock or natural=shoal" />
		<tag k="name" v="Tvibogen" />
		<tag k="place" v="islet" />
		<tag k="ssr:stedsnr" v="830897" />
	</node>
	<node lat="58.49719722132335" lon="5.783313885679611" id="-913">
		<tag k="name" v="Ramnatangen" />
		<tag k="natural" v="cape" />
		<tag k="ssr:stedsnr" v="848577" />
	</node>
	<node lat="58.5275444440776" lon="5.705063896441863" id="-914">
		<tag k="name" v="Raunen" />
		<tag k="place" v="islet" />
		<tag k="ssr:stedsnr" v="850453" />
	</node>
	<node lat="58.47972221934664" lon="5.825283334296348" id="-918">
		<tag k="name" v="Engjavikholmen" />
		<tag k="place" v="islet" />
		<tag k="ssr:stedsnr" v="849740" />
	</node>
	<node lat="58.663011108908144" lon="5.55201944882438" id="-923">
		<tag k="name" v="Fuglavika" />
		<tag k="natural" v="bay" />
		<tag k="old_name" v="Fuglevika" />
		<tag k="ssr:stedsnr" v="850273" />
	</node>
	<node lat="58.66724721955717" lon="5.540680560134606" id="-944">
		<tag k="name" v="Øyrsteinen" />
		<tag k="place" v="locality" />
		<tag k="seamark:type" v="rock" />
		<tag k="ssr:stedsnr" v="889063" />
	</node>
	<node lat="58.506513888339256" lon="5.789227779619393" id="-947">
		<tag k="name" v="Store Hola" />
		<tag k="natural" v="bay" />
		<tag k="ssr:stedsnr" v="889496" />
	</node>
	<node lat="58.5230583367459" lon="5.779130561936096" id="-949">
		<tag k="name" v="Holmasanden" />
		<tag k="natural" v="beach" />
		<tag k="ssr:stedsnr" v="951975" />
	</node>
	<node lat="58.65234444459703" lon="5.554713881912296" id="-955">
		<tag k="fixme" v="consider seamark:type=rock or natural=shoal" />
		<tag k="name" v="Prestskjer" />
		<tag k="place" v="islet" />
		<tag k="ssr:stedsnr" v="968976" />
	</node>
=======
>>>>>>> e1d4bc35ff8a6074a6f2e91616a996b547c36f15
</osm>
