<?xml version="1.0" encoding="UTF-8"?>
<<<<<<< HEAD
<osm version="0.6" generator="osmapis">
	<node lat="60.094099996464195" lon="10.292591662556816" id="-13203">
		<tag k="bridge" v="yes" />
		<tag k="layer" v="1" />
		<tag k="name" v="Høyenhall" />
		<tag k="ssr:stedsnr" v="46801" />
	</node>
	<node lat="60.046458328932474" lon="10.276802772072221" id="-13228">
		<tag k="bridge" v="yes" />
		<tag k="layer" v="1" />
		<tag k="name" v="Waltersbråten" />
		<tag k="ssr:stedsnr" v="107799" />
	</node>
	<node lat="60.09140833291746" lon="10.210608334595575" id="-13236">
		<tag k="junction" v="yes" />
		<tag k="name" v="Familiekroken" />
		<tag k="place" v="locality" />
		<tag k="ssr:stedsnr" v="146665" />
	</node>
	<node lat="60.01159999674935" lon="10.270916675065253" id="-13270">
=======
<osm generator="osmapis" version="0.6">
	<node id="-269632" lat="60.0519416695" lon="10.2824944394">
		<tag k="bridge" v="yes" />
		<tag k="layer" v="1" />
		<tag k="name" v="Rørvik" />
		<tag k="ssr:stedsnr" v="592833" />
	</node>
	<node id="-269631" lat="60.0906888876" lon="10.2897499965">
>>>>>>> e1d4bc35ff8a6074a6f2e91616a996b547c36f15
		<tag k="bridge" v="yes" />
		<tag k="layer" v="1" />
		<tag k="name" v="Berget" />
		<tag k="ssr:stedsnr" v="228811" />
	</node>
<<<<<<< HEAD
	<node lat="60.06338055401861" lon="10.300594448876797" id="-13271">
=======
	<node id="-269086" lat="60.0274249992" lon="10.2689749955">
>>>>>>> e1d4bc35ff8a6074a6f2e91616a996b547c36f15
		<tag k="bridge" v="yes" />
		<tag k="layer" v="1" />
		<tag k="name" v="Kroksund" />
		<tag k="ssr:stedsnr" v="228813" />
	</node>
<<<<<<< HEAD
	<node lat="59.97905513454528" lon="10.32053319559056" id="-13303">
=======
	<node id="-269085" lat="60.063380554" lon="10.3005944489">
>>>>>>> e1d4bc35ff8a6074a6f2e91616a996b547c36f15
		<tag k="bridge" v="yes" />
		<tag k="layer" v="1" />
		<tag k="name" v="Portal Ø Skaret" />
		<tag k="ssr:stedsnr" v="289835" />
	</node>
<<<<<<< HEAD
	<node lat="59.992769441122746" lon="10.301438880694711" id="-13320">
=======
	<node id="-269084" lat="60.0115999967" lon="10.2709166751">
>>>>>>> e1d4bc35ff8a6074a6f2e91616a996b547c36f15
		<tag k="bridge" v="yes" />
		<tag k="layer" v="1" />
		<tag k="name" v="Sønsterud" />
		<tag k="ssr:stedsnr" v="471791" />
	</node>
<<<<<<< HEAD
	<node lat="60.08090277475267" lon="10.28549444832805" id="-13382">
=======
	<node id="-269594" lat="60.0809027748" lon="10.2854944483">
>>>>>>> e1d4bc35ff8a6074a6f2e91616a996b547c36f15
		<tag k="bridge" v="yes" />
		<tag k="layer" v="1" />
		<tag k="name" v="Ringhaug" />
		<tag k="ssr:stedsnr" v="532772" />
	</node>
<<<<<<< HEAD
	<node lat="60.08948332154406" lon="10.26694182935408" id="-13430">
		<tag k="highway" v="path" />
		<tag k="loc_name" v="Gjota;Gjotakleiva;Brennakleiva" />
		<tag k="name" v="Urdskleiva" />
		<tag k="ssr:stedsnr" v="891118" />
	</node>
	<node lat="59.97680277548832" lon="10.321347220426894" id="-13452">
=======
	<node id="-269375" lat="60.087649997" lon="10.2669388886">
		<tag k="highway" v="path" />
		<tag k="loc_name" v="Brennakleiva;Gjota;Gjotakleiva" />
		<tag k="name" v="Urdskleiva" />
		<tag k="ssr:stedsnr" v="891118" />
	</node>
	<node id="-269688" lat="59.9768027755" lon="10.3213472204">
>>>>>>> e1d4bc35ff8a6074a6f2e91616a996b547c36f15
		<tag k="bridge" v="yes" />
		<tag k="layer" v="1" />
		<tag k="name" v="Nordland" />
		<tag k="ssr:stedsnr" v="775771" />
	</node>
<<<<<<< HEAD
	<node lat="60.0834749989656" lon="10.23444722162366" id="-13490">
		<tag k="alt_name" v="Sveinsrudbrygga" />
		<tag k="man_made" v="quay" />
		<tag k="name" v="Svensrudbrygga" />
		<tag k="place" v="locality" />
		<tag k="ssr:stedsnr" v="875994" />
	</node>
	<node lat="60.02742499924625" lon="10.268974995475089" id="-13504">
=======
	<node id="-269465" lat="60.0464583289" lon="10.2768027721">
		<tag k="bridge" v="yes" />
		<tag k="layer" v="1" />
		<tag k="name" v="Waltersbråten" />
		<tag k="ssr:stedsnr" v="107799" />
	</node>
	<node id="-269429" lat="60.0940999965" lon="10.2925916626">
>>>>>>> e1d4bc35ff8a6074a6f2e91616a996b547c36f15
		<tag k="bridge" v="yes" />
		<tag k="layer" v="1" />
		<tag k="name" v="Trappa" />
		<tag k="ssr:stedsnr" v="228818" />
	</node>
<<<<<<< HEAD
	<node lat="59.981907882927594" lon="10.311174910872964" id="-13513">
		<tag k="bridge" v="yes" />
		<tag k="layer" v="1" />
		<tag k="name" v="Arve Harald" />
		<tag k="ssr:stedsnr" v="956789" />
	</node>
	<node lat="60.07792777800793" lon="10.286569440006232" id="-13625">
=======
	<node id="-269362" lat="60.0329027756" lon="10.271244441">
>>>>>>> e1d4bc35ff8a6074a6f2e91616a996b547c36f15
		<tag k="bridge" v="yes" />
		<tag k="layer" v="1" />
		<tag k="name" v="Garntangen" />
		<tag k="ssr:stedsnr" v="288764" />
	</node>
	<node lat="60.000844446127395" lon="10.272583334062524" id="-13660">
		<tag k="fixme" v="verify maritime location" />
		<tag k="mooring" v="yes" />
		<tag k="name" v="Dalakøya" />
		<tag k="place" v="locality" />
		<tag k="ssr:stedsnr" v="390355" />
	</node>
<<<<<<< HEAD
	<node lat="60.08438888537186" lon="10.286347217319635" id="-13665">
		<tag k="bridge" v="yes" />
		<tag k="layer" v="1" />
		<tag k="name" v="Kroksvik" />
		<tag k="ssr:stedsnr" v="410779" />
	</node>
	<node lat="60.09068888755803" lon="10.289749996482879" id="-13722">
=======
	<node id="-269137" lat="59.9790551345" lon="10.3205331956">
>>>>>>> e1d4bc35ff8a6074a6f2e91616a996b547c36f15
		<tag k="bridge" v="yes" />
		<tag k="layer" v="1" />
		<tag k="name" v="Rudshøgda" />
		<tag k="ssr:stedsnr" v="592827" />
	</node>
<<<<<<< HEAD
	<node lat="60.051941669487114" lon="10.282494439353284" id="-13723">
=======
	<node id="-269167" lat="60.077927778" lon="10.28656944">
>>>>>>> e1d4bc35ff8a6074a6f2e91616a996b547c36f15
		<tag k="bridge" v="yes" />
		<tag k="layer" v="1" />
		<tag k="name" v="Rørvik" />
		<tag k="ssr:stedsnr" v="592833" />
	</node>
<<<<<<< HEAD
	<node lat="60.032902775568964" lon="10.271244440958778" id="-13812">
=======
	<node id="-269582" lat="60.0843888854" lon="10.2863472173">
>>>>>>> e1d4bc35ff8a6074a6f2e91616a996b547c36f15
		<tag k="bridge" v="yes" />
		<tag k="layer" v="1" />
		<tag k="name" v="Øverby" />
		<tag k="ssr:stedsnr" v="836759" />
	</node>
	<node lat="60.06157222278587" lon="10.181527777067135" id="-13841">
		<tag k="junction" v="yes" />
		<tag k="name" v="Kroken" />
		<tag k="place" v="locality" />
		<tag k="ssr:stedsnr" v="936525" />
	</node>
	<node id="-269197" lat="60.0008444461" lon="10.2725833341">
		<tag k="fixme" v="verify maritime location" />
		<tag k="mooring" v="yes" />
		<tag k="name" v="Dalakøya" />
		<tag k="place" v="locality" />
		<tag k="ssr:stedsnr" v="390355" />
	</node>
	<node id="-269740" lat="59.9819333359" lon="10.3111222265">
		<tag k="bridge" v="yes" />
		<tag k="layer" v="1" />
		<tag k="name" v="Arve Harald" />
		<tag k="ssr:stedsnr" v="956789" />
	</node>
	<node id="-269170" lat="59.9927694411" lon="10.3014388807">
		<tag k="bridge" v="yes" />
		<tag k="layer" v="1" />
		<tag k="name" v="Sønsterud" />
		<tag k="ssr:stedsnr" v="471791" />
	</node>
	<node id="-269738" lat="60.083474999" lon="10.2344472216">
		<tag k="alt_name" v="Sveinsrudbrygga" />
		<tag k="man_made" v="quay" />
		<tag k="name" v="Svensrudbrygga" />
		<tag k="place" v="locality" />
		<tag k="ssr:stedsnr" v="875994" />
	</node>
	<node id="-269384" lat="60.0615722228" lon="10.1815277771">
		<tag k="junction" v="yes" />
		<tag k="name" v="Kroken" />
		<tag k="place" v="locality" />
		<tag k="ssr:stedsnr" v="936525" />
	</node>
	<node id="-269128" lat="60.0914083329" lon="10.2106083346">
		<tag k="junction" v="yes" />
		<tag k="name" v="Familiekroken" />
		<tag k="place" v="locality" />
		<tag k="ssr:stedsnr" v="146665" />
	</node>
</osm>
