<?xml version="1.0" encoding="UTF-8"?>
<osm generator="osmapis" version="0.6">
	<node id="-241664" lat="60.1199305583" lon="10.3338222204">
		<tag k="name" v="Steinsfjorden" />
		<tag k="natural" v="water" />
		<tag k="ssr:stedsnr" v="247269" />
	</node>
	<node id="-241663" lat="60.0692249998" lon="10.198650008">
		<tag k="name" v="Mosenga" />
		<tag k="place" v="farm" />
		<tag k="ssr:stedsnr" v="247252" />
	</node>
	<node id="-241662" lat="60.0815717915" lon="10.2731645944">
		<tag k="name" v="Skredderrudberget" />
		<tag k="natural" v="hill" />
		<tag k="place" v="locality" />
		<tag k="ssr:stedsnr" v="210522" />
	</node>
	<node id="-241661" lat="60.0441777799" lon="10.241791668">
		<tag k="alt_name" v="Dypdalen" />
		<tag k="name" v="Djupdalen" />
		<tag k="natural" v="valley" />
		<tag k="place" v="locality" />
		<tag k="ssr:stedsnr" v="209722" />
	</node>
	<node id="-241660" lat="60.0075500036" lon="10.3550888818">
		<tag k="historic" v="shieling" />
		<tag k="name" v="Øvre Steinlaussetra" />
		<tag k="place" v="locality" />
		<tag k="ssr:stedsnr" v="296881" />
	</node>
	<node id="-241659" lat="59.9790551345" lon="10.3205331956">
		<tag k="bridge" v="yes" />
		<tag k="layer" v="1" />
		<tag k="name" v="Portal Ø Skaret" />
		<tag k="ssr:stedsnr" v="289835" />
	</node>
	<node id="-241658" lat="60.0966499987" lon="10.2344416744">
		<tag k="name" v="Svingerud" />
		<tag k="place" v="farm" />
		<tag k="ssr:stedsnr" v="186752" />
	</node>
	<node id="-241657" lat="59.9842527807" lon="10.3490805505">
		<tag k="alt_name" v="Nissetjern" />
		<tag k="name" v="Nisseputten" />
		<tag k="natural" v="water" />
		<tag k="ssr:stedsnr" v="186111" />
		<tag k="water" v="pond" />
	</node>
	<node id="-241656" lat="60.0981111126" lon="10.2687611176">
		<tag k="name" v="Solvang" />
		<tag k="place" v="farm" />
		<tag k="ssr:stedsnr" v="147655" />
	</node>
	<node id="-241655" lat="60.0638416653" lon="10.1777805564">
		<tag k="name" v="Leinetajet" />
		<tag k="place" v="hamlet" />
		<tag k="ssr:stedsnr" v="147521" />
	</node>
	<node id="-241654" lat="60.0581638924" lon="10.1861138819">
		<tag k="name" v="Elstøa" />
		<tag k="place" v="farm" />
		<tag k="ssr:stedsnr" v="147514" />
	</node>
	<node id="-241653" lat="59.9996249996" lon="10.3419555472">
		<tag k="fixme" v="consider natural=peak for the most distinct mountains in the district" />
		<tag k="name" v="Finnehøgda" />
		<tag k="natural" v="hill" />
		<tag k="place" v="locality" />
		<tag k="ssr:stedsnr" v="147368" />
	</node>
	<node id="-241652" lat="60.0004694447" lon="10.3811388896">
		<tag k="name" v="Bjerkesetra" />
		<tag k="place" v="locality" />
		<tag k="ssr:stedsnr" v="147155" />
	</node>
	<node id="-241651" lat="59.9654055582" lon="10.3400555506">
		<tag k="name" v="Kleiva" />
		<tag k="place" v="farm" />
		<tag k="ssr:stedsnr" v="147274" />
	</node>
	<node id="-241650" lat="60.0914083329" lon="10.2106083346">
		<tag k="junction" v="yes" />
		<tag k="name" v="Familiekroken" />
		<tag k="place" v="locality" />
		<tag k="ssr:stedsnr" v="146665" />
	</node>
	<node id="-241649" lat="60.1132499991" lon="10.3006333357">
		<tag k="name" v="Hårum" />
		<tag k="place" v="farm" />
		<tag k="ssr:stedsnr" v="146411" />
	</node>
	<node id="-241648" lat="60.0578472198" lon="10.3136388975">
		<tag k="name" v="Kleivbekken" />
		<tag k="place" v="locality" />
		<tag k="ssr:stedsnr" v="145569" />
	</node>
	<node id="-241647" lat="60.0888720577" lon="10.2738309925">
		<tag k="name" v="Steinsrud" />
		<tag k="place" v="farm" />
		<tag k="ssr:stedsnr" v="271696" />
	</node>
	<node id="-241646" lat="59.9745138897" lon="10.3552444427">
		<tag k="fixme" v="consider natural=peak for the most distinct mountains in the district" />
		<tag k="name" v="Leikemyrveien" />
		<tag k="natural" v="hill" />
		<tag k="place" v="locality" />
		<tag k="ssr:stedsnr" v="270284" />
	</node>
	<node id="-241645" lat="60.0643972256" lon="10.2823138826">
		<tag k="alt_name" v="Fekjæråsen" />
		<tag k="fixme" v="consider natural=peak for the most distinct mountains in the district" />
		<tag k="name" v="Fetjaråsen" />
		<tag k="natural" v="hill" />
		<tag k="place" v="locality" />
		<tag k="ssr:stedsnr" v="269737" />
	</node>
	<node id="-241644" lat="60.1024638925" lon="10.2959527849">
		<tag k="name" v="Sopet" />
		<tag k="place" v="locality" />
		<tag k="ssr:stedsnr" v="269681" />
	</node>
	<node id="-241643" lat="59.9923750038" lon="10.2984638873">
		<tag k="fixme" v="consider natural=peak for the most distinct mountains in the district" />
		<tag k="name" v="Østbråtakollen" />
		<tag k="natural" v="hill" />
		<tag k="place" v="locality" />
		<tag k="ssr:stedsnr" v="269466" />
	</node>
	<node id="-241642" lat="59.9921388867" lon="10.3415583354">
		<tag k="historic" v="shieling" />
		<tag k="name" v="Nysetra" />
		<tag k="place" v="locality" />
		<tag k="ssr:stedsnr" v="269345" />
	</node>
	<node id="-241641" lat="60.0385166706" lon="10.3813944516">
		<tag k="name" v="Dælihøggbekken" />
		<tag k="ssr:stedsnr" v="269020" />
		<tag k="waterway" v="stream" />
	</node>
	<node id="-241640" lat="60.0462888901" lon="10.3952388804">
		<tag k="name" v="Gampedalsbekken" />
		<tag k="ssr:stedsnr" v="269019" />
		<tag k="waterway" v="stream" />
	</node>
	<node id="-241639" lat="60.0879222195" lon="10.2529805639">
		<tag k="name" v="Hvitmyr" />
		<tag k="natural" v="wetland" />
		<tag k="ssr:stedsnr" v="268989" />
	</node>
	<node id="-241638" lat="60.07079722" lon="10.2027027704">
		<tag k="name" v="Steinbakken" />
		<tag k="place" v="locality" />
		<tag k="ssr:stedsnr" v="268987" />
	</node>
	<node id="-241637" lat="60.0756833329" lon="10.1704527827">
		<tag k="name" v="Langpløya" />
		<tag k="place" v="locality" />
		<tag k="ssr:stedsnr" v="268838" />
	</node>
	<node id="-241636" lat="60.0221777747" lon="10.4168194494">
		<tag k="name" v="Puttmyrene" />
		<tag k="natural" v="wetland" />
		<tag k="ssr:stedsnr" v="268079" />
	</node>
	<node id="-241635" lat="60.0560638874" lon="10.2623888912">
		<tag k="name" v="Heslebergvika" />
		<tag k="natural" v="bay" />
		<tag k="ssr:stedsnr" v="267631" />
	</node>
	<node id="-241634" lat="59.9577138899" lon="10.3407166674">
		<tag k="name" v="Seimskollen" />
		<tag k="place" v="isolated_dwelling" />
		<tag k="ssr:stedsnr" v="265608" />
	</node>
	<node id="-241633" lat="59.9587861114" lon="10.3423166651">
		<tag k="name" v="Lille B" />
		<tag k="place" v="isolated_dwelling" />
		<tag k="ssr:stedsnr" v="265607" />
	</node>
	<node id="-241632" lat="60.0744838772" lon="10.2983421179">
		<tag k="name" v="Paddevika" />
		<tag k="natural" v="bay" />
		<tag k="ssr:stedsnr" v="86872" />
	</node>
	<node id="-241631" lat="60.0662999986" lon="10.2634861084">
		<tag k="name" v="Borgenvika" />
		<tag k="natural" v="bay" />
		<tag k="ssr:stedsnr" v="85607" />
	</node>
	<node id="-241630" lat="59.9729442145" lon="10.3638113087">
		<tag k="alt_name" v="Niskinnvannet" />
		<tag k="fixme" v="multiple name tags, choose one and add the other to alt_name" />
		<tag k="name" v="Holmevatnet;Niskinnvatnet" />
		<tag k="natural" v="water" />
		<tag k="ssr:stedsnr" v="83026" />
		<tag k="water" v="lake" />
	</node>
	<node id="-241629" lat="60.0293166627" lon="10.4083111048">
		<tag k="name" v="Myrehytta" />
		<tag k="place" v="isolated_dwelling" />
		<tag k="ssr:stedsnr" v="248985" />
	</node>
	<node id="-241628" lat="60.035785205" lon="10.3564218514">
		<tag k="name" v="Attogfram" />
		<tag k="natural" v="water" />
		<tag k="ssr:stedsnr" v="248956" />
	</node>
	<node id="-241627" lat="60.0126472191" lon="10.4026694361">
		<tag k="name" v="Soterudhytta" />
		<tag k="place" v="isolated_dwelling" />
		<tag k="ssr:stedsnr" v="248891" />
	</node>
	<node id="-241626" lat="60.0095975128" lon="10.3144779917">
		<tag k="name" v="Rokketjern" />
		<tag k="natural" v="water" />
		<tag k="ssr:stedsnr" v="248416" />
	</node>
	<node id="-241625" lat="60.0034749961" lon="10.3171055471">
		<tag k="name" v="Ormetjern" />
		<tag k="natural" v="water" />
		<tag k="ssr:stedsnr" v="248409" />
	</node>
	<node id="-241624" lat="60.0134000002" lon="10.2919277851">
		<tag k="historic" v="shieling" />
		<tag k="name" v="Nessetra" />
		<tag k="place" v="locality" />
		<tag k="ssr:stedsnr" v="248388" />
	</node>
	<node id="-241623" lat="59.993005557" lon="10.3136916651">
		<tag k="fixme" v="consider natural=peak for the most distinct mountains in the district" />
		<tag k="name" v="Nordlandsåsen" />
		<tag k="natural" v="hill" />
		<tag k="place" v="locality" />
		<tag k="ssr:stedsnr" v="247438" />
	</node>
	<node id="-241622" lat="60.053024996" lon="10.315583333">
		<tag k="name" v="Krokkleiva" />
		<tag k="natural" v="valley" />
		<tag k="place" v="locality" />
		<tag k="ssr:stedsnr" v="247346" />
	</node>
	<node id="-241621" lat="60.0211083327" lon="10.3118999984">
		<tag k="alt_name" v="Uksemyra" />
		<tag k="name" v="Oksemyr" />
		<tag k="natural" v="wetland" />
		<tag k="ssr:stedsnr" v="247316" />
	</node>
	<node id="-241620" lat="60.0255499959" lon="10.2508333284">
		<tag k="name" v="Utøya" />
		<tag k="place" v="island" />
		<tag k="ssr:stedsnr" v="247315" />
	</node>
	<node id="-241619" lat="60.076524998" lon="10.2163805529">
		<tag k="amenity" v="nursing_home" />
		<tag k="name" v="Nøstret" />
		<tag k="ssr:stedsnr" v="247244" />
	</node>
	<node id="-241618" lat="60.0738333363" lon="10.3137361025">
		<tag k="name" v="Tvehjulingen" />
		<tag k="place" v="island" />
		<tag k="ssr:stedsnr" v="247243" />
	</node>
	<node id="-241617" lat="59.9905861151" lon="10.4065416679">
		<tag k="name" v="Svarttjern" />
		<tag k="natural" v="water" />
		<tag k="ssr:stedsnr" v="247077" />
	</node>
	<node id="-241616" lat="59.9890277775" lon="10.3518027779">
		<tag k="fixme" v="consider natural=peak for the most distinct mountains in the district" />
		<tag k="name" v="Rønningsåsen" />
		<tag k="natural" v="hill" />
		<tag k="place" v="locality" />
		<tag k="ssr:stedsnr" v="247076" />
	</node>
	<node id="-241615" lat="59.9761111149" lon="10.3811777767">
		<tag k="name" v="Grautturubekken" />
		<tag k="ssr:stedsnr" v="247026" />
		<tag k="waterway" v="stream" />
	</node>
	<node id="-241614" lat="60.0611999956" lon="10.4013166627">
		<tag k="fixme" v="consider natural=peak for the most distinct mountains in the district" />
		<tag k="name" v="Elgsbrenna" />
		<tag k="natural" v="hill" />
		<tag k="place" v="locality" />
		<tag k="ssr:stedsnr" v="66203" />
	</node>
	<node id="-241613" lat="60.0988777592" lon="10.1939443994">
		<tag k="name" v="Stadum" />
		<tag k="place" v="farm" />
		<tag k="ssr:stedsnr" v="65734" />
	</node>
	<node id="-241612" lat="60.0971555583" lon="10.2676416597">
		<tag k="name" v="Brenna" />
		<tag k="place" v="farm" />
		<tag k="ssr:stedsnr" v="65725" />
	</node>
	<node id="-241611" lat="60.0559333345" lon="10.1784805492">
		<tag k="alt_name" v="Breidvika" />
		<tag k="name" v="Breivika" />
		<tag k="natural" v="bay" />
		<tag k="ssr:stedsnr" v="65335" />
	</node>
	<node id="-241610" lat="60.0365158867" lon="10.2880642856">
		<tag k="name" v="Manaskardet" />
		<tag k="natural" v="valley" />
		<tag k="place" v="locality" />
		<tag k="ssr:stedsnr" v="65302" />
	</node>
	<node id="-241609" lat="60.0609499966" lon="10.1975916745">
		<tag k="fixme" v="consider place=hamlet" />
		<tag k="name" v="Bønsnes" />
		<tag k="place" v="farm" />
		<tag k="ssr:stedsnr" v="65252" />
	</node>
	<node id="-241608" lat="60.0274249992" lon="10.2689749955">
		<tag k="bridge" v="yes" />
		<tag k="layer" v="1" />
		<tag k="name" v="Trappa" />
		<tag k="ssr:stedsnr" v="228818" />
	</node>
	<node id="-241607" lat="60.063380554" lon="10.3005944489">
		<tag k="bridge" v="yes" />
		<tag k="layer" v="1" />
		<tag k="name" v="Kroksund" />
		<tag k="ssr:stedsnr" v="228813" />
	</node>
	<node id="-241606" lat="60.0115999967" lon="10.2709166751">
		<tag k="bridge" v="yes" />
		<tag k="layer" v="1" />
		<tag k="name" v="Berget" />
		<tag k="ssr:stedsnr" v="228811" />
	</node>
	<node id="-241605" lat="60.074977776" lon="10.2802750056">
		<tag k="name" v="Nordre Gjesval" />
		<tag k="place" v="farm" />
		<tag k="ssr:stedsnr" v="28651" />
	</node>
	<node id="-241604" lat="60.0845134968" lon="10.3462230384">
		<tag k="name" v="Bråtan" />
		<tag k="place" v="farm" />
		<tag k="ssr:stedsnr" v="26936" />
	</node>
	<node id="-241603" lat="60.0628361071" lon="10.1830222175">
		<tag k="name" v="Søndre Leine" />
		<tag k="place" v="farm" />
		<tag k="ssr:stedsnr" v="26522" />
	</node>
	<node id="-241602" lat="60.0611944452" lon="10.2876527841">
		<tag k="name" v="Rudstangen" />
		<tag k="natural" v="cape" />
		<tag k="ssr:stedsnr" v="26643" />
	</node>
	<node id="-241601" lat="60.1026722191" lon="10.2909722307">
		<tag k="name" v="Sørjordet" />
		<tag k="place" v="locality" />
		<tag k="ssr:stedsnr" v="26642" />
	</node>
	<node id="-241600" lat="60.0974333315" lon="10.2836333294">
		<tag k="name" v="Steinsåkeren" />
		<tag k="place" v="locality" />
		<tag k="ssr:stedsnr" v="26641" />
	</node>
	<node id="-241599" lat="60.0561941267" lon="10.2898912653">
		<tag k="name" v="Rørvik Camping" />
		<tag k="ssr:stedsnr" v="26612" />
		<tag k="tourism" v="camp_site" />
	</node>
	<node id="-241598" lat="60.0408194456" lon="10.4619361034">
		<tag k="name" v="Kryssbystupmyra" />
		<tag k="natural" v="wetland" />
		<tag k="ssr:stedsnr" v="26024" />
	</node>
	<node id="-241597" lat="60.0366944456" lon="10.3987805594">
		<tag k="name" v="Steinvika" />
		<tag k="natural" v="bay" />
		<tag k="ssr:stedsnr" v="26008" />
	</node>
	<node id="-241596" lat="60.1147083298" lon="10.2352861184">
		<tag k="name" v="Helgelandsmoen" />
		<tag k="old_name" v="Snadden" />
		<tag k="place" v="quarter" />
		<tag k="ssr:stedsnr" v="222326" />
	</node>
	<node id="-241595" lat="60.0072694447" lon="10.3622333411">
		<tag k="fixme" v="multiple name tags, choose one and add the other to alt_name" />
		<tag k="historic" v="shieling" />
		<tag k="name" v="Nedre Steinlausa;Nedre Steinlaussetra" />
		<tag k="old_name" v="Ned SteinlaussSr" />
		<tag k="place" v="locality" />
		<tag k="ssr:stedsnr" v="6895" />
	</node>
	<node id="-242305" lat="60.0644394974" lon="10.4557065488">
		<tag k="fixme" v="consider boundary=protected_area and relevant protect_class if not nature reserve" />
		<tag k="leisure" v="nature_reserve" />
		<tag k="name" v="Krokskogen naturreservat" />
		<tag k="ssr:stedsnr" v="987926" />
	</node>
	<node id="-242304" lat="60.1347222237" lon="10.5716611029">
		<tag k="name" v="Nordmarka" />
		<tag k="natural" v="wood" />
		<tag k="ssr:stedsnr" v="874528" />
	</node>
	<node id="-242302" lat="60.0941600536" lon="10.2912030199">
		<tag k="name" v="Steinsbyhaugen" />
		<tag k="place" v="farm" />
		<tag k="ssr:stedsnr" v="1077069" />
	</node>
	<node id="-242301" lat="60.0931639577" lon="10.293162121">
		<tag k="name" v="Steinsby" />
		<tag k="place" v="farm" />
		<tag k="ssr:stedsnr" v="1077068" />
	</node>
	<node id="-242300" lat="60.0470566445" lon="10.3290898817">
		<tag k="name" v="Solstua" />
		<tag k="place" v="farm" />
		<tag k="ssr:stedsnr" v="1076994" />
	</node>
	<node id="-242298" lat="60.1230373582" lon="10.2270691215">
		<tag k="fixme" v="consider boundary=protected_area and relevant protect_class if not nature reserve" />
		<tag k="leisure" v="nature_reserve" />
		<tag k="name" v="Nordre Tyrifjorden og Storelva naturreservat" />
		<tag k="ssr:stedsnr" v="1076535" />
	</node>
	<node id="-242297" lat="60.0321710874" lon="10.4130744718">
		<tag k="fixme" v="consider tourism=alpine_hut or tourism=chalet" />
		<tag k="name" v="Drømmen" />
		<tag k="ssr:stedsnr" v="1075832" />
		<tag k="tourism" v="wilderness_hut" />
	</node>
	<node id="-242286" lat="60.0628002324" lon="10.3160918885">
		<tag k="name" v="Jonsbråten" />
		<tag k="place" v="locality" />
		<tag k="ssr:stedsnr" v="989045" />
	</node>
	<node id="-242285" lat="60.0235133587" lon="10.2478684593">
		<tag k="fixme" v="consider place=hamlet" />
		<tag k="name" v="Utøya" />
		<tag k="place" v="farm" />
		<tag k="ssr:stedsnr" v="989043" />
	</node>
	<node id="-242284" lat="60.0990979938" lon="10.2047546283">
		<tag k="fixme" v="consider place=hamlet" />
		<tag k="name" v="Hafnor" />
		<tag k="place" v="farm" />
		<tag k="ssr:stedsnr" v="989042" />
	</node>
	<node id="-242283" lat="60.0967903952" lon="10.1931459346">
		<tag k="fixme" v="consider place=hamlet" />
		<tag k="name" v="Stadum" />
		<tag k="place" v="farm" />
		<tag k="ssr:stedsnr" v="989041" />
	</node>
	<node id="-242282" lat="60.0933402258" lon="10.2038178801">
		<tag k="fixme" v="consider place=hamlet" />
		<tag k="name" v="Frøyshov" />
		<tag k="place" v="farm" />
		<tag k="ssr:stedsnr" v="989017" />
	</node>
	<node id="-242281" lat="60.0751614294" lon="10.1889350069">
		<tag k="fixme" v="consider place=hamlet" />
		<tag k="name" v="Fjell" />
		<tag k="place" v="farm" />
		<tag k="ssr:stedsnr" v="988954" />
	</node>
	<node id="-242280" lat="60.0657929311" lon="10.1875354977">
		<tag k="name" v="Leine" />
		<tag k="place" v="hamlet" />
		<tag k="ssr:stedsnr" v="988953" />
	</node>
	<node id="-242279" lat="60.0735894531" lon="10.1999542855">
		<tag k="name" v="Hundstad" />
		<tag k="place" v="hamlet" />
		<tag k="ssr:stedsnr" v="988952" />
	</node>
	<node id="-242278" lat="60.0849139647" lon="10.2086169811">
		<tag k="fixme" v="consider place=hamlet" />
		<tag k="name" v="Fjelstad" />
		<tag k="place" v="farm" />
		<tag k="ssr:stedsnr" v="988951" />
	</node>
	<node id="-242277" lat="60.0887027704" lon="10.2160431272">
		<tag k="fixme" v="consider place=hamlet" />
		<tag k="name" v="Frøyhov" />
		<tag k="place" v="farm" />
		<tag k="ssr:stedsnr" v="988950" />
	</node>
	<node id="-242276" lat="60.0711964122" lon="10.2603520902">
		<tag k="fixme" v="consider place=hamlet" />
		<tag k="name" v="Borgen" />
		<tag k="place" v="farm" />
		<tag k="ssr:stedsnr" v="988949" />
	</node>
	<node id="-242275" lat="60.0727109882" lon="10.297040873">
		<tag k="fixme" v="consider place=hamlet" />
		<tag k="name" v="Sundet" />
		<tag k="place" v="farm" />
		<tag k="ssr:stedsnr" v="988948" />
	</node>
	<node id="-242274" lat="60.0742772031" lon="10.2795254044">
		<tag k="name" v="Gjesval" />
		<tag k="place" v="hamlet" />
		<tag k="ssr:stedsnr" v="988947" />
	</node>
	<node id="-242273" lat="60.0849456061" lon="10.1767155783">
		<tag k="fixme" v="consider place=hamlet" />
		<tag k="name" v="Gomnes" />
		<tag k="place" v="farm" />
		<tag k="ssr:stedsnr" v="989016" />
	</node>
	<node id="-242268" lat="60.0190972235" lon="10.2603601633">
		<tag k="fixme" v="consider boundary=protected_area and relevant protect_class if not nature reserve" />
		<tag k="leisure" v="nature_reserve" />
		<tag k="name" v="Lienskjæret biotopvernområde" />
		<tag k="ssr:stedsnr" v="985414" />
	</node>
	<node id="-242267" lat="60.1002857809" lon="10.3031144741">
		<tag k="fixme" v="consider boundary=protected_area and relevant protect_class if not nature reserve" />
		<tag k="leisure" v="nature_reserve" />
		<tag k="name" v="Steinsvika naturreservat" />
		<tag k="ssr:stedsnr" v="985405" />
	</node>
	<node id="-242266" lat="60.0974154277" lon="10.3026693108">
		<tag k="fixme" v="consider boundary=protected_area and relevant protect_class if not nature reserve" />
		<tag k="leisure" v="nature_reserve" />
		<tag k="name" v="Steinsfjorden biotopvernområde" />
		<tag k="ssr:stedsnr" v="985404" />
	</node>
	<node id="-242265" lat="60.0695599672" lon="10.2373878742">
		<tag k="fixme" v="consider boundary=protected_area and relevant protect_class if not nature reserve" />
		<tag k="leisure" v="nature_reserve" />
		<tag k="name" v="Storøysundet - Sælabonn naturreservat" />
		<tag k="ssr:stedsnr" v="985403" />
	</node>
	<node id="-242264" lat="60.068007743" lon="10.3233953198">
		<tag k="name" v="Sundvollen næringspark" />
		<tag k="place" v="quarter" />
		<tag k="ssr:stedsnr" v="978846" />
	</node>
	<node id="-242263" lat="60.093116445" lon="10.2968882782">
		<tag k="name" v="Steinsbystranda" />
		<tag k="natural" v="beach" />
		<tag k="ssr:stedsnr" v="977323" />
	</node>
	<node id="-242262" lat="59.9819333359" lon="10.3111222265">
		<tag k="bridge" v="yes" />
		<tag k="layer" v="1" />
		<tag k="name" v="Arve Harald" />
		<tag k="ssr:stedsnr" v="956789" />
	</node>
	<node id="-242261" lat="60.0739555579" lon="10.2528722264">
		<tag k="name" v="Tangen" />
		<tag k="natural" v="cape" />
		<tag k="ssr:stedsnr" v="875997" />
	</node>
	<node id="-242260" lat="60.083474999" lon="10.2344472216">
		<tag k="alt_name" v="Sveinsrudbrygga" />
		<tag k="man_made" v="quay" />
		<tag k="name" v="Svensrudbrygga" />
		<tag k="place" v="locality" />
		<tag k="ssr:stedsnr" v="875994" />
	</node>
	<node id="-242259" lat="59.9916138893" lon="10.30010277">
		<tag k="name" v="Sønsterudelva" />
		<tag k="ssr:stedsnr" v="875487" />
		<tag k="waterway" v="river" />
	</node>
	<node id="-242258" lat="60.0654916623" lon="10.2713083346">
		<tag k="alt_name" v="Fekjærvika" />
		<tag k="name" v="Fetjarvika" />
		<tag k="natural" v="bay" />
		<tag k="ssr:stedsnr" v="874677" />
	</node>
	<node id="-242257" lat="60.0487583333" lon="10.2627250036">
		<tag k="name" v="Blomsplassen" />
		<tag k="place" v="farm" />
		<tag k="ssr:stedsnr" v="874652" />
	</node>
	<node id="-242256" lat="60.097891668" lon="10.2207666623">
		<tag k="name" v="Østvoll" />
		<tag k="place" v="farm" />
		<tag k="ssr:stedsnr" v="854713" />
	</node>
	<node id="-242255" lat="60.0999083374" lon="10.2763416627">
		<tag k="name" v="Selte" />
		<tag k="old_name" v="Sælte" />
		<tag k="place" v="farm" />
		<tag k="ssr:stedsnr" v="854709" />
	</node>
	<node id="-242254" lat="60.1165500035" lon="10.2370166708">
		<tag k="name" v="Lamyra" />
		<tag k="natural" v="wetland" />
		<tag k="ssr:stedsnr" v="854683" />
	</node>
	<node id="-242253" lat="59.9926333352" lon="10.3242472303">
		<tag k="fixme" v="consider natural=peak for the most distinct mountains in the district" />
		<tag k="name" v="Høgås" />
		<tag k="natural" v="hill" />
		<tag k="old_name" v="Høgåsen;Højaas" />
		<tag k="place" v="locality" />
		<tag k="ssr:stedsnr" v="854452" />
	</node>
	<node id="-242252" lat="60.090436886" lon="10.2212185135">
		<tag k="fixme" v="consider place=hamlet" />
		<tag k="name" v="Mo" />
		<tag k="place" v="farm" />
		<tag k="ssr:stedsnr" v="854248" />
	</node>
	<node id="-242251" lat="60.0801249982" lon="10.2484722237">
		<tag k="name" v="Pålerud" />
		<tag k="place" v="isolated_dwelling" />
		<tag k="ssr:stedsnr" v="854284" />
	</node>
	<node id="-242250" lat="60.0770611092" lon="10.2790777847">
		<tag k="name" v="Vik" />
		<tag k="place" v="village" />
		<tag k="ssr:stedsnr" v="854282" />
	</node>
	<node id="-242249" lat="60.084011115" lon="10.2757500033">
		<tag k="fixme" v="multiple name tags, choose one and add the other to alt_name" />
		<tag k="name" v="Halden;Viksbråtan" />
		<tag k="place" v="farm" />
		<tag k="ssr:stedsnr" v="854280" />
	</node>
	<node id="-242248" lat="60.0926750023" lon="10.2685638881">
		<tag k="fixme" v="multiple name tags, choose one and add the other to alt_name" />
		<tag k="name" v="Haugen;Sørumshaugen" />
		<tag k="place" v="farm" />
		<tag k="ssr:stedsnr" v="854265" />
	</node>
	<node id="-242247" lat="60.0650277762" lon="10.1869805496">
		<tag k="alt_name" v="Nordre Leine" />
		<tag k="name" v="Leine" />
		<tag k="place" v="farm" />
		<tag k="ssr:stedsnr" v="854245" />
	</node>
	<node id="-242246" lat="60.0734833291" lon="10.2552499951">
		<tag k="name" v="Borgenvika" />
		<tag k="natural" v="bay" />
		<tag k="ssr:stedsnr" v="854232" />
	</node>
	<node id="-242245" lat="60.0406055578" lon="10.4508583423">
		<tag k="historic" v="shieling" />
		<tag k="name" v="Kampesetra" />
		<tag k="place" v="locality" />
		<tag k="ssr:stedsnr" v="843943" />
	</node>
	<node id="-242244" lat="60.0288805555" lon="10.4003277812">
		<tag k="alt_name" v="Lille Lomma" />
		<tag k="name" v="Vesle Lomma" />
		<tag k="ssr:stedsnr" v="842184" />
		<tag k="waterway" v="river" />
	</node>
	<node id="-242243" lat="60.0759368844" lon="10.2675095617">
		<tag k="amenity" v="community_centre" />
		<tag k="name" v="Menighetshus" />
		<tag k="ssr:stedsnr" v="875924" />
	</node>
	<node id="-242242" lat="60.0788847744" lon="10.2822674261">
		<tag k="amenity" v="school" />
		<tag k="name" v="Vik skole" />
		<tag k="ssr:stedsnr" v="875911" />
	</node>
	<node id="-242241" lat="60.0815365743" lon="10.2647193703">
		<tag k="name" v="Borgeng" />
		<tag k="place" v="farm" />
		<tag k="ssr:stedsnr" v="875890" />
	</node>
	<node id="-242240" lat="60.0775001979" lon="10.2768600938">
		<tag k="alt_name" v="Vik Søndre" />
		<tag k="name" v="Søndre Vik" />
		<tag k="place" v="farm" />
		<tag k="ssr:stedsnr" v="817610" />
	</node>
	<node id="-242239" lat="60.0776944404" lon="10.2683722156">
		<tag k="name" v="Løkenmoen" />
		<tag k="place" v="hamlet" />
		<tag k="ssr:stedsnr" v="815939" />
	</node>
	<node id="-242238" lat="60.0863161553" lon="10.283280447">
		<tag k="amenity" v="school" />
		<tag k="name" v="Hole ungdomsskole" />
		<tag k="ssr:stedsnr" v="815931" />
	</node>
	<node id="-242237" lat="60.0618361067" lon="10.2810916753">
		<tag k="name" v="Hammeren" />
		<tag k="natural" v="cape" />
		<tag k="ssr:stedsnr" v="815640" />
	</node>
	<node id="-242236" lat="60.064455559" lon="10.2996055539">
		<tag k="name" v="Slettøya" />
		<tag k="place" v="island" />
		<tag k="ssr:stedsnr" v="815638" />
	</node>
	<node id="-242235" lat="60.1067944408" lon="10.2917277715">
		<tag k="name" v="Nordjordet" />
		<tag k="place" v="locality" />
		<tag k="ssr:stedsnr" v="815637" />
	</node>
	<node id="-242234" lat="60.0933527818" lon="10.1960555553">
		<tag k="name" v="Frøyshov" />
		<tag k="place" v="farm" />
		<tag k="ssr:stedsnr" v="815576" />
	</node>
	<node id="-242233" lat="60.0107916646" lon="10.2659055515">
		<tag k="name" v="Nes" />
		<tag k="place" v="farm" />
		<tag k="ssr:stedsnr" v="814493" />
	</node>
	<node id="-242232" lat="60.1220941536" lon="10.2813936339">
		<tag k="name" v="Gile" />
		<tag k="place" v="farm" />
		<tag k="ssr:stedsnr" v="814417" />
	</node>
	<node id="-242231" lat="60.0632166629" lon="10.2751472206">
		<tag k="name" v="Furutangen" />
		<tag k="natural" v="cape" />
		<tag k="ssr:stedsnr" v="813644" />
	</node>
	<node id="-242230" lat="60.0476777781" lon="10.2616444444">
		<tag k="name" v="Blomsplassvika" />
		<tag k="natural" v="bay" />
		<tag k="ssr:stedsnr" v="813637" />
	</node>
	<node id="-242229" lat="60.0547694473" lon="10.2590694467">
		<tag k="name" v="Gulsplassen" />
		<tag k="place" v="farm" />
		<tag k="ssr:stedsnr" v="813630" />
	</node>
	<node id="-242228" lat="60.0656111085" lon="10.2594749966">
		<tag k="name" v="Hvelven" />
		<tag k="place" v="locality" />
		<tag k="ssr:stedsnr" v="813624" />
	</node>
	<node id="-242227" lat="60.0637611074" lon="10.3075500056">
		<tag k="fixme" v="consider place=hamlet" />
		<tag k="name" v="Sundvollen" />
		<tag k="place" v="farm" />
		<tag k="ssr:stedsnr" v="813618" />
	</node>
	<node id="-242226" lat="60.062008333" lon="10.216305555">
		<tag k="name" v="Svarstadstøa" />
		<tag k="natural" v="bay" />
		<tag k="ssr:stedsnr" v="815514" />
	</node>
	<node id="-242225" lat="60.081227777" lon="10.2076027727">
		<tag k="name" v="Nedre Fjelstad" />
		<tag k="place" v="farm" />
		<tag k="ssr:stedsnr" v="814979" />
	</node>
	<node id="-242224" lat="60.0807750003" lon="10.1979444394">
		<tag k="amenity" v="nursing_home" />
		<tag k="name" v="Røysetoppen" />
		<tag k="ssr:stedsnr" v="875849" />
	</node>
	<node id="-242223" lat="60.049513886" lon="10.4539583261">
		<tag k="name" v="Kattjern" />
		<tag k="natural" v="water" />
		<tag k="ssr:stedsnr" v="794188" />
	</node>
	<node id="-242222" lat="60.0990583333" lon="10.3073305622">
		<tag k="name" v="Loretangen" />
		<tag k="natural" v="cape" />
		<tag k="ssr:stedsnr" v="793748" />
	</node>
	<node id="-242221" lat="60.1091106962" lon="10.270189184">
		<tag k="fixme" v="consider place=hamlet" />
		<tag k="name" v="Mo" />
		<tag k="place" v="farm" />
		<tag k="ssr:stedsnr" v="793765" />
	</node>
	<node id="-242220" lat="60.0288972249" lon="10.2858833296">
		<tag k="historic" v="shieling" />
		<tag k="name" v="By-Flaksetra" />
		<tag k="place" v="locality" />
		<tag k="ssr:stedsnr" v="793346" />
	</node>
	<node id="-242219" lat="60.0324277796" lon="10.2625027778">
		<tag k="alt_name" v="Sørbråtan" />
		<tag k="name" v="Sørbråten" />
		<tag k="place" v="farm" />
		<tag k="ssr:stedsnr" v="793342" />
	</node>
	<node id="-242218" lat="60.0384249959" lon="10.3316111105">
		<tag k="name" v="Nordsetertjern" />
		<tag k="natural" v="water" />
		<tag k="ssr:stedsnr" v="793336" />
	</node>
	<node id="-242217" lat="60.0879250044" lon="10.2815416691">
		<tag k="fixme" v="consider place=hamlet" />
		<tag k="name" v="Koksrud" />
		<tag k="place" v="farm" />
		<tag k="ssr:stedsnr" v="793305" />
	</node>
	<node id="-242216" lat="59.9866694404" lon="10.3558305524">
		<tag k="fixme" v="multiple name tags, choose one and add the other to alt_name" />
		<tag k="name" v="Rønningen;Rønningsetra" />
		<tag k="place" v="locality" />
		<tag k="ssr:stedsnr" v="793108" />
	</node>
	<node id="-242215" lat="59.9935444475" lon="10.4086388861">
		<tag k="fixme" v="consider natural=peak for the most distinct mountains in the district" />
		<tag k="name" v="Barlindåsen" />
		<tag k="natural" v="hill" />
		<tag k="place" v="locality" />
		<tag k="ssr:stedsnr" v="793086" />
	</node>
	<node id="-242214" lat="60.0776888918" lon="10.293150006">
		<tag k="name" v="Garntangen" />
		<tag k="natural" v="cape" />
		<tag k="ssr:stedsnr" v="793275" />
	</node>
	<node id="-242213" lat="60.0754361122" lon="10.3212583303">
		<tag k="name" v="Ulvøya" />
		<tag k="place" v="island" />
		<tag k="ssr:stedsnr" v="793274" />
	</node>
	<node id="-242212" lat="60.0720583325" lon="10.2867305598">
		<tag k="fixme" v="consider natural=peak for the most distinct mountains in the district" />
		<tag k="name" v="Gjesvalåsen" />
		<tag k="natural" v="hill" />
		<tag k="place" v="locality" />
		<tag k="ssr:stedsnr" v="793266" />
	</node>
	<node id="-242211" lat="60.0773722245" lon="10.190330555">
		<tag k="name" v="Fjell" />
		<tag k="place" v="farm" />
		<tag k="ssr:stedsnr" v="793262" />
	</node>
	<node id="-242210" lat="59.9768027755" lon="10.3213472204">
		<tag k="bridge" v="yes" />
		<tag k="layer" v="1" />
		<tag k="name" v="Nordland" />
		<tag k="ssr:stedsnr" v="775771" />
	</node>
	<node id="-242209" lat="60.0856777794" lon="10.2262027731">
		<tag k="name" v="Utenga" />
		<tag k="place" v="locality" />
		<tag k="ssr:stedsnr" v="875756" />
	</node>
	<node id="-242208" lat="60.0713895438" lon="10.2895078314">
		<tag k="name" v="Åsplassen" />
		<tag k="place" v="locality" />
		<tag k="ssr:stedsnr" v="756532" />
	</node>
	<node id="-242207" lat="60.0524638926" lon="10.2729416736">
		<tag k="name" v="Storøyskjæret" />
		<tag k="place" v="island" />
		<tag k="ssr:stedsnr" v="755732" />
	</node>
	<node id="-242206" lat="60.0464416693" lon="10.2398749918">
		<tag k="name" v="Utsikten" />
		<tag k="ssr:stedsnr" v="755725" />
		<tag k="tourism" v="viewpoint" />
	</node>
	<node id="-242205" lat="60.0666944484" lon="10.2167027801">
		<tag k="name" v="Stamnesbakken" />
		<tag k="natural" v="slope" />
		<tag k="place" v="locality" />
		<tag k="ssr:stedsnr" v="755577" />
	</node>
	<node id="-242204" lat="60.0217777819" lon="10.3512777752">
		<tag k="name" v="Djupedalsbekken" />
		<tag k="ssr:stedsnr" v="755488" />
		<tag k="waterway" v="stream" />
	</node>
	<node id="-242203" lat="60.0444444414" lon="10.4319388803">
		<tag k="name" v="Monsebråtavika" />
		<tag k="natural" v="bay" />
		<tag k="ssr:stedsnr" v="754965" />
	</node>
	<node id="-242202" lat="60.0970277794" lon="10.2723166676">
		<tag k="name" v="Seltebekken" />
		<tag k="ssr:stedsnr" v="754678" />
		<tag k="waterway" v="stream" />
	</node>
	<node id="-242201" lat="60.1101138904" lon="10.2700333418">
		<tag k="name" v="Haugejordet" />
		<tag k="place" v="locality" />
		<tag k="ssr:stedsnr" v="754668" />
	</node>
	<node id="-242200" lat="60.10824167" lon="10.2633722173">
		<tag k="name" v="Storjordet" />
		<tag k="place" v="locality" />
		<tag k="ssr:stedsnr" v="754665" />
	</node>
	<node id="-242199" lat="59.9679916643" lon="10.3380027736">
		<tag k="name" v="Briskehaugen" />
		<tag k="natural" v="hill" />
		<tag k="place" v="locality" />
		<tag k="ssr:stedsnr" v="754327" />
	</node>
	<node id="-242198" lat="60.0054472191" lon="10.3902111187">
		<tag k="name" v="Øyerseterbakkane" />
		<tag k="natural" v="slope" />
		<tag k="place" v="locality" />
		<tag k="ssr:stedsnr" v="754089" />
	</node>
	<node id="-242197" lat="60.0829222254" lon="10.2306472271">
		<tag k="name" v="Evja" />
		<tag k="natural" v="bay" />
		<tag k="ssr:stedsnr" v="753996" />
	</node>
	<node id="-242196" lat="60.0883305557" lon="10.2396777743">
		<tag k="name" v="Hardbakka" />
		<tag k="natural" v="slope" />
		<tag k="place" v="locality" />
		<tag k="ssr:stedsnr" v="753984" />
	</node>
	<node id="-242195" lat="60.0862444466" lon="10.2195833366">
		<tag k="name" v="Smiubakken" />
		<tag k="place" v="farm" />
		<tag k="ssr:stedsnr" v="753981" />
	</node>
	<node id="-242194" lat="60.0778500026" lon="10.1976861143">
		<tag k="name" v="Skinnillen" />
		<tag k="natural" v="slope" />
		<tag k="place" v="locality" />
		<tag k="ssr:stedsnr" v="753852" />
	</node>
	<node id="-242193" lat="60.0687777792" lon="10.1759750043">
		<tag k="name" v="Gata" />
		<tag k="place" v="farm" />
		<tag k="ssr:stedsnr" v="753847" />
	</node>
	<node id="-242192" lat="60.0847333314" lon="10.1712722269">
		<tag k="name" v="Olastua" />
		<tag k="place" v="isolated_dwelling" />
		<tag k="ssr:stedsnr" v="753828" />
	</node>
	<node id="-242191" lat="60.0765277767" lon="10.1683916627">
		<tag k="name" v="Plassen" />
		<tag k="place" v="farm" />
		<tag k="ssr:stedsnr" v="753778" />
	</node>
	<node id="-242190" lat="60.0778166706" lon="10.2463138807">
		<tag k="name" v="Rolighet" />
		<tag k="place" v="isolated_dwelling" />
		<tag k="ssr:stedsnr" v="753750" />
	</node>
	<node id="-242189" lat="60.0747277755" lon="10.1977805541">
		<tag k="name" v="Hundstad lille" />
		<tag k="place" v="farm" />
		<tag k="ssr:stedsnr" v="753710" />
	</node>
	<node id="-242188" lat="60.0867388929" lon="10.1786055564">
		<tag k="name" v="Tyribakken" />
		<tag k="place" v="farm" />
		<tag k="ssr:stedsnr" v="753708" />
	</node>
	<node id="-242187" lat="60.0958805518" lon="10.2138805502">
		<tag k="name" v="Kirkevoll" />
		<tag k="place" v="farm" />
		<tag k="ssr:stedsnr" v="753639" />
	</node>
	<node id="-242186" lat="60.0234833335" lon="10.28145833">
		<tag k="fixme" v="consider natural=peak for the most distinct mountains in the district" />
		<tag k="name" v="Tømmerås" />
		<tag k="natural" v="hill" />
		<tag k="place" v="locality" />
		<tag k="ssr:stedsnr" v="753412" />
	</node>
	<node id="-242185" lat="60.0458784074" lon="10.3058567086">
		<tag k="name" v="Kavledalen" />
		<tag k="natural" v="valley" />
		<tag k="place" v="locality" />
		<tag k="ssr:stedsnr" v="752527" />
	</node>
	<node id="-242184" lat="60.0202016373" lon="10.3237802316">
		<tag k="fixme" v="consider tourism=alpine_hut or tourism=chalet" />
		<tag k="name" v="Jørgenhytta" />
		<tag k="ssr:stedsnr" v="648009" />
		<tag k="tourism" v="wilderness_hut" />
	</node>
	<node id="-242183" lat="60.0957444449" lon="10.2782111026">
		<tag k="name" v="Kjerkebakke" />
		<tag k="natural" v="slope" />
		<tag k="place" v="locality" />
		<tag k="ssr:stedsnr" v="633723" />
	</node>
	<node id="-242182" lat="60.1036444422" lon="10.2972138871">
		<tag k="name" v="Evja" />
		<tag k="natural" v="water" />
		<tag k="ssr:stedsnr" v="633722" />
		<tag k="water" v="lake" />
	</node>
	<node id="-242181" lat="60.0961555529" lon="10.2968444417">
		<tag k="name" v="Berga" />
		<tag k="natural" v="hill" />
		<tag k="place" v="locality" />
		<tag k="ssr:stedsnr" v="633718" />
	</node>
	<node id="-242180" lat="60.1099055541" lon="10.2772111115">
		<tag k="name" v="Knausen" />
		<tag k="natural" v="hill" />
		<tag k="place" v="locality" />
		<tag k="ssr:stedsnr" v="633717" />
	</node>
	<node id="-242179" lat="60.0213222195" lon="10.3241499981">
		<tag k="name" v="Løkketjern" />
		<tag k="natural" v="water" />
		<tag k="ssr:stedsnr" v="633497" />
	</node>
	<node id="-242178" lat="59.9752305521" lon="10.3329222193">
		<tag k="name" v="Berntsegård" />
		<tag k="place" v="farm" />
		<tag k="ssr:stedsnr" v="633301" />
	</node>
	<node id="-242177" lat="60.0817361076" lon="10.2306111106">
		<tag k="name" v="Skjæret" />
		<tag k="place" v="islet" />
		<tag k="ssr:stedsnr" v="632996" />
	</node>
	<node id="-242176" lat="60.0784972256" lon="10.3338249929">
		<tag k="name" v="Korneliusbråten" />
		<tag k="place" v="farm" />
		<tag k="ssr:stedsnr" v="632944" />
	</node>
	<node id="-242175" lat="60.0846653415" lon="10.2896663377">
		<tag k="name" v="Kroksvik" />
		<tag k="place" v="farm" />
		<tag k="ssr:stedsnr" v="632920" />
	</node>
	<node id="-242174" lat="60.0801777821" lon="10.229000004">
		<tag k="name" v="Bergehagan" />
		<tag k="place" v="locality" />
		<tag k="ssr:stedsnr" v="632743" />
	</node>
	<node id="-242173" lat="60.0790027696" lon="10.1697687551">
		<tag k="name" v="Gomnesbråten" />
		<tag k="old_name" v="Braataan;Braaten" />
		<tag k="place" v="farm" />
		<tag k="ssr:stedsnr" v="632779" />
	</node>
	<node id="-242172" lat="60.0942500028" lon="10.218886117">
		<tag k="name" v="Nedre Libakke" />
		<tag k="place" v="farm" />
		<tag k="ssr:stedsnr" v="632602" />
	</node>
	<node id="-242171" lat="60.1078249977" lon="10.2419083366">
		<tag k="name" v="Sørmoen" />
		<tag k="place" v="locality" />
		<tag k="ssr:stedsnr" v="632674" />
	</node>
	<node id="-242170" lat="60.0538638847" lon="10.4376888896">
		<tag k="name" v="Steinbråtadalen" />
		<tag k="natural" v="valley" />
		<tag k="place" v="locality" />
		<tag k="ssr:stedsnr" v="632004" />
	</node>
	<node id="-242169" lat="59.9739388886" lon="10.3192444438">
		<tag k="name" v="Skaret" />
		<tag k="natural" v="valley" />
		<tag k="place" v="locality" />
		<tag k="ssr:stedsnr" v="631867" />
	</node>
	<node id="-242168" lat="60.0179972268" lon="10.314166661">
		<tag k="name" v="Dalebekken" />
		<tag k="ssr:stedsnr" v="631446" />
		<tag k="waterway" v="stream" />
	</node>
	<node id="-242167" lat="60.01098611" lon="10.2749194416">
		<tag k="name" v="Heggedalsvannet" />
		<tag k="natural" v="water" />
		<tag k="ssr:stedsnr" v="631444" />
	</node>
	<node id="-242166" lat="60.0257862716" lon="10.372216104">
		<tag k="alt_name" v="Rundtomtjernet" />
		<tag k="name" v="Rundtomtjern" />
		<tag k="natural" v="water" />
		<tag k="old_name" v="Runtom Tj." />
		<tag k="ssr:stedsnr" v="612999" />
	</node>
	<node id="-242165" lat="60.0642335918" lon="10.3537740583">
		<tag k="name" v="Olasputt" />
		<tag k="natural" v="water" />
		<tag k="ssr:stedsnr" v="612233" />
	</node>
	<node id="-242164" lat="60.0097461992" lon="10.372760553">
		<tag k="name" v="Midtskogtjerna" />
		<tag k="natural" v="water" />
		<tag k="ssr:stedsnr" v="611899" />
		<tag k="water" v="lake" />
	</node>
	<node id="-242163" lat="60.0854583324" lon="10.3409305584">
		<tag k="name" v="Hellerud" />
		<tag k="place" v="farm" />
		<tag k="ssr:stedsnr" v="611299" />
	</node>
	<node id="-242162" lat="60.0919000033" lon="10.2442416626">
		<tag k="alt_name" v="Flatmoen" />
		<tag k="name" v="Bymoen" />
		<tag k="place" v="locality" />
		<tag k="ssr:stedsnr" v="611274" />
	</node>
	<node id="-242161" lat="60.0689000038" lon="10.1856277775">
		<tag k="fixme" v="consider natural=peak for the most distinct mountains in the district" />
		<tag k="name" v="Leinåsen" />
		<tag k="natural" v="hill" />
		<tag k="place" v="locality" />
		<tag k="ssr:stedsnr" v="611269" />
	</node>
	<node id="-242160" lat="60.0658166639" lon="10.1699222225">
		<tag k="name" v="Solheim" />
		<tag k="place" v="isolated_dwelling" />
		<tag k="ssr:stedsnr" v="611267" />
	</node>
	<node id="-242159" lat="60.0667257363" lon="10.2109081458">
		<tag k="fixme" v="consider place=hamlet" />
		<tag k="name" v="Svarstad" />
		<tag k="place" v="farm" />
		<tag k="ssr:stedsnr" v="611265" />
	</node>
	<node id="-242158" lat="60.0722416623" lon="10.3166250003">
		<tag k="alt_name" v="Grisøya" />
		<tag k="name" v="Svinøya" />
		<tag k="place" v="island" />
		<tag k="ssr:stedsnr" v="611263" />
	</node>
	<node id="-242157" lat="60.0726249967" lon="10.1875388847">
		<tag k="name" v="Myra" />
		<tag k="place" v="farm" />
		<tag k="ssr:stedsnr" v="611257" />
	</node>
	<node id="-242156" lat="60.0748055532" lon="10.1878527704">
		<tag k="name" v="Fjell" />
		<tag k="place" v="farm" />
		<tag k="ssr:stedsnr" v="611441" />
	</node>
	<node id="-242155" lat="60.0887583376" lon="10.2144222168">
		<tag k="name" v="Frøyhov" />
		<tag k="place" v="farm" />
		<tag k="ssr:stedsnr" v="594139" />
	</node>
	<node id="-242154" lat="60.0519416695" lon="10.2824944394">
		<tag k="bridge" v="yes" />
		<tag k="layer" v="1" />
		<tag k="name" v="Rørvik" />
		<tag k="ssr:stedsnr" v="592833" />
	</node>
	<node id="-242153" lat="60.0906888876" lon="10.2897499965">
		<tag k="bridge" v="yes" />
		<tag k="layer" v="1" />
		<tag k="name" v="Rudshøgda" />
		<tag k="ssr:stedsnr" v="592827" />
	</node>
	<node id="-242152" lat="60.0935944457" lon="10.1850722289">
		<tag k="name" v="Onsakerbråten" />
		<tag k="place" v="farm" />
		<tag k="ssr:stedsnr" v="572633" />
	</node>
	<node id="-242151" lat="60.1083666633" lon="10.281438891">
		<tag k="name" v="Skolejordet" />
		<tag k="place" v="locality" />
		<tag k="ssr:stedsnr" v="572678" />
	</node>
	<node id="-242150" lat="60.048480559" lon="10.2500944405">
		<tag k="name" v="Kvislahaugen" />
		<tag k="natural" v="hill" />
		<tag k="place" v="locality" />
		<tag k="ssr:stedsnr" v="572583" />
	</node>
	<node id="-242149" lat="60.0578888896" lon="10.1937305641">
		<tag k="name" v="Pålerud" />
		<tag k="place" v="farm" />
		<tag k="ssr:stedsnr" v="572543" />
	</node>
	<node id="-242148" lat="60.0590500011" lon="10.1786666664">
		<tag k="name" v="Leinestranda" />
		<tag k="natural" v="beach" />
		<tag k="ssr:stedsnr" v="572542" />
	</node>
	<node id="-242147" lat="60.0238638925" lon="10.4316888916">
		<tag k="name" v="Steffensberget" />
		<tag k="natural" v="hill" />
		<tag k="place" v="locality" />
		<tag k="ssr:stedsnr" v="572177" />
	</node>
	<node id="-242146" lat="60.0446305538" lon="10.4557500015">
		<tag k="name" v="Heimkleivmyra" />
		<tag k="natural" v="wetland" />
		<tag k="ssr:stedsnr" v="572039" />
	</node>
	<node id="-242145" lat="60.0397999973" lon="10.4031638869">
		<tag k="fixme" v="consider natural=peak for the most distinct mountains in the district" />
		<tag k="name" v="Kallebråtaåsen" />
		<tag k="natural" v="hill" />
		<tag k="place" v="locality" />
		<tag k="ssr:stedsnr" v="572030" />
	</node>
	<node id="-242144" lat="60.0725972208" lon="10.2019361113">
		<tag k="name" v="Skolejordet" />
		<tag k="place" v="locality" />
		<tag k="ssr:stedsnr" v="571983" />
	</node>
	<node id="-242143" lat="60.0746861081" lon="10.2541194484">
		<tag k="name" v="Vestbråtan" />
		<tag k="place" v="farm" />
		<tag k="ssr:stedsnr" v="571971" />
	</node>
	<node id="-242142" lat="60.0755888888" lon="10.3334638969">
		<tag k="name" v="Skogli" />
		<tag k="place" v="farm" />
		<tag k="ssr:stedsnr" v="571944" />
	</node>
	<node id="-242141" lat="60.105733332" lon="10.2015222139">
		<tag k="name" v="Engetangen" />
		<tag k="natural" v="cape" />
		<tag k="ssr:stedsnr" v="571644" />
	</node>
	<node id="-242140" lat="60.0999777806" lon="10.2150222286">
		<tag k="name" v="Ringhol" />
		<tag k="place" v="farm" />
		<tag k="ssr:stedsnr" v="571613" />
	</node>
	<node id="-242139" lat="60.0954944446" lon="10.227780553">
		<tag k="name" v="Skogstad" />
		<tag k="place" v="farm" />
		<tag k="ssr:stedsnr" v="571605" />
	</node>
	<node id="-242138" lat="60.0624277804" lon="10.2914611059">
		<tag k="name" v="Pilevika" />
		<tag k="natural" v="bay" />
		<tag k="ssr:stedsnr" v="570628" />
	</node>
	<node id="-242137" lat="60.0683250596" lon="10.2969688177">
		<tag k="name" v="Øverjordet" />
		<tag k="place" v="farm" />
		<tag k="ssr:stedsnr" v="570600" />
	</node>
	<node id="-242136" lat="60.0641083324" lon="10.2792833278">
		<tag k="name" v="Langåkeren" />
		<tag k="place" v="locality" />
		<tag k="ssr:stedsnr" v="570598" />
	</node>
	<node id="-242135" lat="60.0527111085" lon="10.2666555576">
		<tag k="name" v="Kuskeplassen" />
		<tag k="place" v="farm" />
		<tag k="ssr:stedsnr" v="570595" />
	</node>
	<node id="-242134" lat="59.9807638919" lon="10.3122583418">
		<tag k="name" v="Humledal" />
		<tag k="place" v="farm" />
		<tag k="ssr:stedsnr" v="570438" />
	</node>
	<node id="-242133" lat="60.07736667" lon="10.1972638874">
		<tag k="name" v="Røyse" />
		<tag k="natural" v="cape" />
		<tag k="ssr:stedsnr" v="566177" />
	</node>
	<node id="-242132" lat="60.0339472231" lon="10.4779750035">
		<tag k="name" v="Dammyra" />
		<tag k="natural" v="wetland" />
		<tag k="ssr:stedsnr" v="551940" />
	</node>
	<node id="-242131" lat="60.0259068372" lon="10.3598227203">
		<tag k="alt_name" v="Bruløkka" />
		<tag k="fixme" v="consider place=hamlet" />
		<tag k="name" v="Bruløkkene" />
		<tag k="place" v="farm" />
		<tag k="ssr:stedsnr" v="551999" />
	</node>
	<node id="-242130" lat="60.0389000011" lon="10.4414772581">
		<tag k="name" v="Trehørningen" />
		<tag k="natural" v="water" />
		<tag k="ssr:stedsnr" v="551969" />
		<tag k="water" v="lake" />
	</node>
	<node id="-242129" lat="60.0220417962" lon="10.4281602384">
		<tag k="name" v="Steffenstjernet" />
		<tag k="natural" v="water" />
		<tag k="ssr:stedsnr" v="551904" />
	</node>
	<node id="-242128" lat="60.0093555528" lon="10.3420583339">
		<tag k="name" v="Auretjernsbekken" />
		<tag k="ssr:stedsnr" v="551891" />
		<tag k="waterway" v="stream" />
	</node>
	<node id="-242127" lat="60.0137083364" lon="10.2835277706">
		<tag k="fixme" v="consider natural=peak for the most distinct mountains in the district" />
		<tag k="name" v="Hvalpåsen" />
		<tag k="natural" v="hill" />
		<tag k="place" v="locality" />
		<tag k="ssr:stedsnr" v="551388" />
	</node>
	<node id="-242126" lat="60.1239150473" lon="10.3085967907">
		<tag k="name" v="Hårum" />
		<tag k="place" v="farm" />
		<tag k="ssr:stedsnr" v="550692" />
	</node>
	<node id="-242125" lat="59.9899262776" lon="10.2927376417">
		<tag k="fixme" v="consider place=hamlet" />
		<tag k="name" v="Sønsterud" />
		<tag k="place" v="farm" />
		<tag k="ssr:stedsnr" v="550452" />
	</node>
	<node id="-242124" lat="59.9810027803" lon="10.3366555566">
		<tag k="name" v="Damtjern" />
		<tag k="natural" v="water" />
		<tag k="ssr:stedsnr" v="550442" />
	</node>
	<node id="-242123" lat="60.0797305587" lon="10.2649388804">
		<tag k="name" v="Borgestad" />
		<tag k="place" v="farm" />
		<tag k="ssr:stedsnr" v="550292" />
	</node>
	<node id="-242122" lat="60.0668999994" lon="10.1752416683">
		<tag k="name" v="Vestbråtan" />
		<tag k="place" v="farm" />
		<tag k="ssr:stedsnr" v="550268" />
	</node>
	<node id="-242121" lat="60.0727166626" lon="10.3319499915">
		<tag k="name" v="Lyse" />
		<tag k="place" v="farm" />
		<tag k="ssr:stedsnr" v="550263" />
	</node>
	<node id="-242120" lat="60.0760117622" lon="10.2105383388">
		<tag k="fixme" v="consider place=hamlet" />
		<tag k="name" v="Søhol" />
		<tag k="place" v="farm" />
		<tag k="ssr:stedsnr" v="550256" />
	</node>
	<node id="-242119" lat="60.0752750022" lon="10.2685944505">
		<tag k="fixme" v="consider place=hamlet" />
		<tag k="name" v="Løken" />
		<tag k="place" v="farm" />
		<tag k="ssr:stedsnr" v="550253" />
	</node>
	<node id="-242118" lat="60.0738777758" lon="10.1700833275">
		<tag k="name" v="Sersjantløkka" />
		<tag k="place" v="farm" />
		<tag k="ssr:stedsnr" v="550250" />
	</node>
	<node id="-242117" lat="59.9823527812" lon="10.3595805492">
		<tag k="name" v="Leikemyr" />
		<tag k="natural" v="wetland" />
		<tag k="ssr:stedsnr" v="550118" />
	</node>
	<node id="-242116" lat="60.0809027748" lon="10.2854944483">
		<tag k="bridge" v="yes" />
		<tag k="layer" v="1" />
		<tag k="name" v="Ringhaug" />
		<tag k="ssr:stedsnr" v="532772" />
	</node>
	<node id="-242115" lat="60.0182247515" lon="10.3743659279">
		<tag k="alt_name" v="Sakromstjernet" />
		<tag k="name" v="Sakromstjern" />
		<tag k="natural" v="water" />
		<tag k="ssr:stedsnr" v="430974" />
	</node>
	<node id="-242114" lat="60.0060777792" lon="10.3818944383">
		<tag k="name" v="Benteplassen" />
		<tag k="place" v="isolated_dwelling" />
		<tag k="ssr:stedsnr" v="430872" />
	</node>
	<node id="-242113" lat="60.0057888924" lon="10.2714249924">
		<tag k="alt_name" v="Øgarden" />
		<tag k="name" v="Øvre Nes" />
		<tag k="place" v="farm" />
		<tag k="ssr:stedsnr" v="430392" />
	</node>
	<node id="-242112" lat="60.0073007209" lon="10.2645475018">
		<tag k="name" v="Kløvvika" />
		<tag k="place" v="farm" />
		<tag k="ssr:stedsnr" v="430390" />
	</node>
	<node id="-242111" lat="60.0214861111" lon="10.338661117">
		<tag k="alt_name" v="Kneikasetra" />
		<tag k="historic" v="shieling" />
		<tag k="name" v="Kneika" />
		<tag k="place" v="locality" />
		<tag k="ssr:stedsnr" v="430337" />
	</node>
	<node id="-242110" lat="60.0369302242" lon="10.3066685295">
		<tag k="alt_name" v="Abborås" />
		<tag k="fixme" v="consider natural=peak for the most distinct mountains in the district" />
		<tag k="name" v="Åboråsen" />
		<tag k="natural" v="hill" />
		<tag k="place" v="locality" />
		<tag k="ssr:stedsnr" v="430318" />
	</node>
	<node id="-242109" lat="60.0369866365" lon="10.2866010245">
		<tag k="fixme" v="consider natural=peak for the most distinct mountains in the district" />
		<tag k="name" v="Gjertrussen" />
		<tag k="natural" v="hill" />
		<tag k="place" v="locality" />
		<tag k="ssr:stedsnr" v="430317" />
	</node>
	<node id="-242108" lat="60.0373388906" lon="10.2408083293">
		<tag k="name" v="Geitøya" />
		<tag k="place" v="island" />
		<tag k="ssr:stedsnr" v="430316" />
	</node>
	<node id="-242107" lat="59.9943555565" lon="10.3198138839">
		<tag k="name" v="Møllbakk" />
		<tag k="place" v="isolated_dwelling" />
		<tag k="ssr:stedsnr" v="429449" />
	</node>
	<node id="-242106" lat="60.08185278" lon="10.304583338">
		<tag k="alt_name" v="Pipeøya" />
		<tag k="name" v="Pipøya" />
		<tag k="place" v="island" />
		<tag k="ssr:stedsnr" v="429281" />
	</node>
	<node id="-242105" lat="59.9880194445" lon="10.3810527852">
		<tag k="name" v="Djupedalen" />
		<tag k="natural" v="valley" />
		<tag k="place" v="locality" />
		<tag k="ssr:stedsnr" v="429078" />
	</node>
	<node id="-242104" lat="60.0843888854" lon="10.2863472173">
		<tag k="bridge" v="yes" />
		<tag k="layer" v="1" />
		<tag k="name" v="Kroksvik" />
		<tag k="ssr:stedsnr" v="410779" />
	</node>
	<node id="-242103" lat="60.0490694461" lon="10.3210388901">
		<tag k="name" v="Dronningens utsikt" />
		<tag k="ssr:stedsnr" v="404191" />
		<tag k="tourism" v="viewpoint" />
	</node>
	<node id="-242102" lat="60.048861113" lon="10.253516662">
		<tag k="name" v="Kvisla" />
		<tag k="natural" v="slope" />
		<tag k="place" v="locality" />
		<tag k="ssr:stedsnr" v="390547" />
	</node>
	<node id="-242101" lat="60.1036166647" lon="10.277961106">
		<tag k="name" v="Danmark" />
		<tag k="place" v="locality" />
		<tag k="ssr:stedsnr" v="390649" />
	</node>
	<node id="-242100" lat="60.0958557482" lon="10.1892458572">
		<tag k="name" v="Stadum" />
		<tag k="place" v="farm" />
		<tag k="ssr:stedsnr" v="390589" />
	</node>
	<node id="-242099" lat="60.0742611133" lon="10.2554916617">
		<tag k="name" v="Jansvika" />
		<tag k="natural" v="bay" />
		<tag k="ssr:stedsnr" v="389999" />
	</node>
	<node id="-242098" lat="60.0854027739" lon="10.1831027717">
		<tag k="name" v="Tuløkka" />
		<tag k="place" v="farm" />
		<tag k="ssr:stedsnr" v="389737" />
	</node>
	<node id="-242097" lat="60.1195782288" lon="10.3056962992">
		<tag k="name" v="Fossum" />
		<tag k="place" v="isolated_dwelling" />
		<tag k="ssr:stedsnr" v="389488" />
	</node>
	<node id="-242096" lat="60.058761114" lon="10.3463555566">
		<tag k="name" v="St Olavs kilde" />
		<tag k="place" v="locality" />
		<tag k="ssr:stedsnr" v="388524" />
	</node>
	<node id="-242095" lat="60.004991671" lon="10.3969277774">
		<tag k="historic" v="shieling" />
		<tag k="name" v="Øyersetra" />
		<tag k="place" v="locality" />
		<tag k="ssr:stedsnr" v="369876" />
	</node>
	<node id="-242094" lat="60.034177777" lon="10.2859555607">
		<tag k="fixme" v="consider natural=peak for the most distinct mountains in the district" />
		<tag k="name" v="Solkollen" />
		<tag k="natural" v="hill" />
		<tag k="place" v="locality" />
		<tag k="ssr:stedsnr" v="369384" />
	</node>
	<node id="-242093" lat="60.0436499996" lon="10.2684611135">
		<tag k="alt_name" v="Bråtan" />
		<tag k="name" v="Bråten" />
		<tag k="place" v="isolated_dwelling" />
		<tag k="ssr:stedsnr" v="369345" />
	</node>
	<node id="-242092" lat="60.0499805548" lon="10.285402771">
		<tag k="name" v="Klokkerbråtan" />
		<tag k="place" v="isolated_dwelling" />
		<tag k="ssr:stedsnr" v="369344" />
	</node>
	<node id="-242091" lat="60.0494527808" lon="10.3087166732">
		<tag k="name" v="Kongens utsikt" />
		<tag k="ssr:stedsnr" v="369343" />
		<tag k="tourism" v="viewpoint" />
	</node>
	<node id="-242090" lat="60.0164166663" lon="10.3204638968">
		<tag k="name" v="Govletjern" />
		<tag k="natural" v="water" />
		<tag k="ssr:stedsnr" v="369315" />
	</node>
	<node id="-242089" lat="60.0398000035" lon="10.3103388975">
		<tag k="alt_name" v="Abbortjern" />
		<tag k="name" v="Åbortjern" />
		<tag k="natural" v="water" />
		<tag k="ssr:stedsnr" v="369303" />
	</node>
	<node id="-242088" lat="60.0501972259" lon="10.4450111141">
		<tag k="name" v="Gampetjern" />
		<tag k="natural" v="water" />
		<tag k="ssr:stedsnr" v="369189" />
	</node>
	<node id="-242087" lat="60.0506027818" lon="10.420783328">
		<tag k="name" v="Monsebråtan" />
		<tag k="place" v="farm" />
		<tag k="ssr:stedsnr" v="369186" />
	</node>
	<node id="-242086" lat="60.0941777755" lon="10.3458583373">
		<tag k="name" v="Nordenga" />
		<tag k="place" v="farm" />
		<tag k="ssr:stedsnr" v="369133" />
	</node>
	<node id="-242085" lat="60.0608694432" lon="10.3175944377">
		<tag k="name" v="Grøndokka" />
		<tag k="place" v="quarter" />
		<tag k="ssr:stedsnr" v="368360" />
	</node>
	<node id="-242084" lat="60.0822500019" lon="10.2064249958">
		<tag k="name" v="Fjelstad" />
		<tag k="place" v="farm" />
		<tag k="ssr:stedsnr" v="368313" />
	</node>
	<node id="-242083" lat="60.0891527744" lon="10.2630750044">
		<tag k="fixme" v="multiple name tags, choose one and add the other to alt_name" />
		<tag k="name" v="Bråtan;Storbråtan" />
		<tag k="place" v="farm" />
		<tag k="ssr:stedsnr" v="368310" />
	</node>
	<node id="-242082" lat="60.0643916663" lon="10.2545861037">
		<tag k="alt_name" v="Rytteraker" />
		<tag k="name" v="Rytteråker" />
		<tag k="place" v="farm" />
		<tag k="ssr:stedsnr" v="368299" />
	</node>
	<node id="-242081" lat="60.0681111119" lon="10.2228805598">
		<tag k="name" v="Stamnes" />
		<tag k="natural" v="cape" />
		<tag k="ssr:stedsnr" v="368294" />
	</node>
	<node id="-242080" lat="60.0710138853" lon="10.2145888904">
		<tag k="name" v="Svarstadvika" />
		<tag k="natural" v="bay" />
		<tag k="ssr:stedsnr" v="368285" />
	</node>
	<node id="-242079" lat="60.0718249991" lon="10.3087138969">
		<tag k="name" v="Amundøya" />
		<tag k="place" v="island" />
		<tag k="ssr:stedsnr" v="368281" />
	</node>
	<node id="-242078" lat="60.0423057198" lon="10.3430144293">
		<tag k="historic" v="shieling" />
		<tag k="name" v="Torgesetra" />
		<tag k="place" v="locality" />
		<tag k="ssr:stedsnr" v="356970" />
	</node>
	<node id="-242077" lat="60.0858305544" lon="10.2553083279">
		<tag k="name" v="Kjellerbergenga" />
		<tag k="natural" v="hill" />
		<tag k="place" v="locality" />
		<tag k="ssr:stedsnr" v="341804" />
	</node>
	<node id="-242076" lat="60.1049249982" lon="10.2938555524">
		<tag k="name" v="Halvdanshaugen" />
		<tag k="place" v="locality" />
		<tag k="ssr:stedsnr" v="330736" />
	</node>
	<node id="-242075" lat="60.0643138909" lon="10.2021222206">
		<tag k="name" v="Veslemyra" />
		<tag k="natural" v="wetland" />
		<tag k="ssr:stedsnr" v="330600" />
	</node>
	<node id="-242074" lat="60.0702611098" lon="10.3568388931">
		<tag k="name" v="Kirketjern" />
		<tag k="natural" v="water" />
		<tag k="ssr:stedsnr" v="329873" />
	</node>
	<node id="-242073" lat="60.0826073548" lon="10.2895926971">
		<tag k="name" v="Kråkevika" />
		<tag k="natural" v="bay" />
		<tag k="ssr:stedsnr" v="329865" />
	</node>
	<node id="-242072" lat="60.0609361093" lon="10.2515666587">
		<tag k="name" v="Telefontangen" />
		<tag k="natural" v="cape" />
		<tag k="ssr:stedsnr" v="329573" />
	</node>
	<node id="-242071" lat="60.1198897672" lon="10.2736701453">
		<tag k="name" v="Bergerstua" />
		<tag k="place" v="isolated_dwelling" />
		<tag k="ssr:stedsnr" v="328349" />
	</node>
	<node id="-242070" lat="60.0313188031" lon="10.2900043294">
		<tag k="name" v="Tjyruhjellen" />
		<tag k="place" v="locality" />
		<tag k="ssr:stedsnr" v="327499" />
	</node>
	<node id="-242069" lat="60.0059999962" lon="10.3107583327">
		<tag k="fixme" v="consider natural=peak for the most distinct mountains in the district" />
		<tag k="name" v="Ullernåsen" />
		<tag k="natural" v="hill" />
		<tag k="place" v="locality" />
		<tag k="ssr:stedsnr" v="309484" />
	</node>
	<node id="-242068" lat="60.049450002" lon="10.3966888878">
		<tag k="name" v="Gampedalen" />
		<tag k="natural" v="valley" />
		<tag k="place" v="locality" />
		<tag k="ssr:stedsnr" v="309222" />
	</node>
	<node id="-242067" lat="60.0319944473" lon="10.4473194407">
		<tag k="fixme" v="consider natural=peak for the most distinct mountains in the district" />
		<tag k="name" v="Slåttmyråsen" />
		<tag k="natural" v="hill" />
		<tag k="place" v="locality" />
		<tag k="ssr:stedsnr" v="308939" />
	</node>
	<node id="-242066" lat="60.1021527805" lon="10.3184611032">
		<tag k="name" v="Herøya" />
		<tag k="place" v="island" />
		<tag k="ssr:stedsnr" v="308700" />
	</node>
	<node id="-242065" lat="60.0492388849" lon="10.2455277714">
		<tag k="alt_name" v="Storøen" />
		<tag k="fixme" v="consider place=hamlet" />
		<tag k="name" v="Storøya" />
		<tag k="place" v="farm" />
		<tag k="ssr:stedsnr" v="308348" />
	</node>
	<node id="-242064" lat="60.0429805593" lon="10.2350749913">
		<tag k="name" v="Purkøya" />
		<tag k="place" v="island" />
		<tag k="ssr:stedsnr" v="308341" />
	</node>
	<node id="-242063" lat="60.0536361138" lon="10.2908999962">
		<tag k="name" v="Rørvikberget" />
		<tag k="place" v="isolated_dwelling" />
		<tag k="ssr:stedsnr" v="308333" />
	</node>
	<node id="-242062" lat="60.0632500042" lon="10.2998055544">
		<tag k="name" v="Kroksund" />
		<tag k="natural" v="strait" />
		<tag k="ssr:stedsnr" v="308315" />
	</node>
	<node id="-242061" lat="60.0293999965" lon="10.3185222149">
		<tag k="fixme" v="consider natural=peak for the most distinct mountains in the district" />
		<tag k="name" v="Geitstigen" />
		<tag k="natural" v="hill" />
		<tag k="place" v="locality" />
		<tag k="ssr:stedsnr" v="308294" />
	</node>
	<node id="-242060" lat="60.0272307146" lon="10.2617454774">
		<tag k="fixme" v="consider place=hamlet" />
		<tag k="name" v="Utvika" />
		<tag k="place" v="farm" />
		<tag k="ssr:stedsnr" v="308290" />
	</node>
	<node id="-242059" lat="60.0375361118" lon="10.2657111057">
		<tag k="fixme" v="consider place=hamlet" />
		<tag k="name" v="Øverby" />
		<tag k="place" v="farm" />
		<tag k="ssr:stedsnr" v="308282" />
	</node>
	<node id="-242058" lat="60.0801922813" lon="10.2185013484">
		<tag k="alt_name" v="Ulleren" />
		<tag k="fixme" v="consider place=hamlet" />
		<tag k="name" v="Ullern" />
		<tag k="place" v="farm" />
		<tag k="ssr:stedsnr" v="308274" />
	</node>
	<node id="-242057" lat="60.0638000003" lon="10.1733250017">
		<tag k="alt_name" v="Hodt" />
		<tag k="name" v="Hott" />
		<tag k="place" v="farm" />
		<tag k="ssr:stedsnr" v="308251" />
	</node>
	<node id="-242056" lat="60.0734666627" lon="10.4083777781">
		<tag k="name" v="Krokskogen" />
		<tag k="natural" v="wood" />
		<tag k="ssr:stedsnr" v="308206" />
	</node>
	<node id="-242055" lat="59.9987893766" lon="10.2801197405">
		<tag k="name" v="Nedre Nes" />
		<tag k="place" v="farm" />
		<tag k="ssr:stedsnr" v="307479" />
	</node>
	<node id="-242054" lat="60.076294443" lon="10.367602786">
		<tag k="name" v="Fiskebekken" />
		<tag k="ssr:stedsnr" v="307260" />
		<tag k="waterway" v="stream" />
	</node>
	<node id="-242053" lat="59.9964277747" lon="10.3503611059">
		<tag k="name" v="Toresplassen" />
		<tag k="place" v="farm" />
		<tag k="ssr:stedsnr" v="307095" />
	</node>
	<node id="-242052" lat="60.0707138859" lon="10.1668194393">
		<tag k="amenity" v="school" />
		<tag k="name" v="Tyrifjord videregående skole" />
		<tag k="old_name" v="Tyrifjord høyere skole" />
		<tag k="ssr:stedsnr" v="301895" />
	</node>
	<node id="-242051" lat="60.0838270711" lon="10.2617450722">
		<tag k="name" v="Skredshaugen" />
		<tag k="place" v="farm" />
		<tag k="ssr:stedsnr" v="210648" />
	</node>
	<node id="-242049" lat="59.9746222188" lon="10.336691663">
		<tag k="name" v="Damtjernbekken" />
		<tag k="ssr:stedsnr" v="209291" />
		<tag k="waterway" v="stream" />
	</node>
	<node id="-242048" lat="59.9771194413" lon="10.313880556">
		<tag k="amenity" v="community_centre" />
		<tag k="name" v="Fjellstua" />
		<tag k="ssr:stedsnr" v="209359" />
	</node>
	<node id="-242047" lat="60.0747666646" lon="10.1941805534">
		<tag k="name" v="Fjell" />
		<tag k="place" v="farm" />
		<tag k="ssr:stedsnr" v="208814" />
	</node>
	<node id="-242046" lat="60.0959388878" lon="10.2364027713">
		<tag k="amenity" v="community_centre" />
		<tag k="name" v="Moholt" />
		<tag k="ssr:stedsnr" v="208702" />
	</node>
	<node id="-242045" lat="60.1198625814" lon="10.3200185775">
		<tag k="name" v="Framdalsvika" />
		<tag k="natural" v="bay" />
		<tag k="ssr:stedsnr" v="208699" />
	</node>
	<node id="-242044" lat="60.1018722265" lon="10.2828555575">
		<tag k="name" v="Storåkeren" />
		<tag k="place" v="locality" />
		<tag k="ssr:stedsnr" v="208661" />
	</node>
	<node id="-242043" lat="60.0974166708" lon="10.1867888909">
		<tag k="name" v="Tjernet" />
		<tag k="natural" v="water" />
		<tag k="ssr:stedsnr" v="208618" />
	</node>
	<node id="-242042" lat="60.049355559" lon="10.2485388842">
		<tag k="name" v="Ollejordet" />
		<tag k="place" v="locality" />
		<tag k="ssr:stedsnr" v="208575" />
	</node>
	<node id="-242041" lat="60.0563777809" lon="10.2574138831">
		<tag k="name" v="Sjølyst" />
		<tag k="natural" v="cape" />
		<tag k="ssr:stedsnr" v="208574" />
	</node>
	<node id="-242040" lat="60.0603416709" lon="10.2072250058">
		<tag k="name" v="Søndre Svarstad" />
		<tag k="place" v="farm" />
		<tag k="ssr:stedsnr" v="208561" />
	</node>
	<node id="-242039" lat="60.0533306152" lon="10.1796674281">
		<tag k="name" v="Bakkestøvika" />
		<tag k="natural" v="bay" />
		<tag k="ssr:stedsnr" v="208532" />
	</node>
	<node id="-242038" lat="59.9986944428" lon="10.3182388901">
		<tag k="fixme" v="consider natural=peak for the most distinct mountains in the district" />
		<tag k="name" v="Preståsen" />
		<tag k="natural" v="hill" />
		<tag k="place" v="locality" />
		<tag k="ssr:stedsnr" v="208358" />
	</node>
	<node id="-242037" lat="59.978136111" lon="10.3260999915">
		<tag k="name" v="Finnedal" />
		<tag k="natural" v="hill" />
		<tag k="place" v="locality" />
		<tag k="ssr:stedsnr" v="208273" />
	</node>
	<node id="-242036" lat="60.058655873" lon="10.3738876113">
		<tag k="name" v="Lorttjern" />
		<tag k="natural" v="water" />
		<tag k="ssr:stedsnr" v="208087" />
	</node>
	<node id="-242035" lat="60.0135833318" lon="10.3853611167">
		<tag k="name" v="Damersplassbakkane" />
		<tag k="natural" v="slope" />
		<tag k="place" v="locality" />
		<tag k="ssr:stedsnr" v="208071" />
	</node>
	<node id="-242034" lat="60.0955222202" lon="10.2113527754">
		<tag k="name" v="Lysgård" />
		<tag k="place" v="farm" />
		<tag k="ssr:stedsnr" v="207660" />
	</node>
	<node id="-242033" lat="60.0518250018" lon="10.2595777794">
		<tag k="name" v="Rosenlundjordet" />
		<tag k="place" v="locality" />
		<tag k="ssr:stedsnr" v="207626" />
	</node>
	<node id="-242032" lat="59.9606222228" lon="10.3403805468">
		<tag k="name" v="Skrenten" />
		<tag k="place" v="isolated_dwelling" />
		<tag k="ssr:stedsnr" v="204540" />
	</node>
	<node id="-242031" lat="60.0001583379" lon="10.3007249922">
		<tag k="historic" v="shieling" />
		<tag k="name" v="Sønsterudsetra" />
		<tag k="place" v="locality" />
		<tag k="ssr:stedsnr" v="188476" />
	</node>
	<node id="-242030" lat="60.0436315003" lon="10.3957590724">
		<tag k="fixme" v="consider place=hamlet" />
		<tag k="name" v="Mattisplassen" />
		<tag k="place" v="farm" />
		<tag k="ssr:stedsnr" v="187959" />
	</node>
	<node id="-242029" lat="60.010825002" lon="10.3163638837">
		<tag k="name" v="Dalebekken" />
		<tag k="ssr:stedsnr" v="187405" />
		<tag k="waterway" v="stream" />
	</node>
	<node id="-242028" lat="60.0515227862" lon="10.2536604446">
		<tag k="name" v="Storøya" />
		<tag k="place" v="island" />
		<tag k="ssr:stedsnr" v="187343" />
	</node>
	<node id="-242027" lat="60.1065222187" lon="10.2464222209">
		<tag k="name" v="Mosmoen" />
		<tag k="place" v="locality" />
		<tag k="ssr:stedsnr" v="186751" />
	</node>
	<node id="-242026" lat="60.1248673665" lon="10.2979139213">
		<tag k="alt_name" v="Kleiva" />
		<tag k="name" v="Kleven" />
		<tag k="place" v="farm" />
		<tag k="ssr:stedsnr" v="186742" />
	</node>
	<node id="-242025" lat="60.1204777772" lon="10.2803111181">
		<tag k="alt_name" v="Øde-Rå" />
		<tag k="name" v="Øderå" />
		<tag k="place" v="farm" />
		<tag k="ssr:stedsnr" v="186723" />
	</node>
	<node id="-242024" lat="60.1154330475" lon="10.2653740134">
		<tag k="alt_name" v="Motjernet" />
		<tag k="name" v="Mostjern" />
		<tag k="natural" v="water" />
		<tag k="ssr:stedsnr" v="186720" />
	</node>
	<node id="-242023" lat="59.9697819712" lon="10.3232692261">
		<tag k="fixme" v="consider place=hamlet" />
		<tag k="name" v="Fjulsrud" />
		<tag k="place" v="farm" />
		<tag k="ssr:stedsnr" v="186532" />
	</node>
	<node id="-242022" lat="60.0840277748" lon="10.2646527741">
		<tag k="name" v="Viksenga" />
		<tag k="place" v="farm" />
		<tag k="ssr:stedsnr" v="186317" />
	</node>
	<node id="-242021" lat="60.0836777815" lon="10.2692249934">
		<tag k="fixme" v="consider natural=peak for the most distinct mountains in the district" />
		<tag k="name" v="Viksåsen" />
		<tag k="natural" v="hill" />
		<tag k="place" v="locality" />
		<tag k="ssr:stedsnr" v="186315" />
	</node>
	<node id="-242020" lat="60.0819472197" lon="10.1701694442">
		<tag k="alt_name" v="Hagastu" />
		<tag k="name" v="Hagastua" />
		<tag k="place" v="farm" />
		<tag k="ssr:stedsnr" v="186299" />
	</node>
	<node id="-242019" lat="60.0929388854" lon="10.177399994">
		<tag k="name" v="Onsakervika" />
		<tag k="natural" v="bay" />
		<tag k="ssr:stedsnr" v="186279" />
	</node>
	<node id="-242018" lat="60.0691713314" lon="10.3499527394">
		<tag k="alt_name" v="Lårviktjernet" />
		<tag k="name" v="Lårviktjern" />
		<tag k="natural" v="water" />
		<tag k="ssr:stedsnr" v="186241" />
	</node>
	<node id="-242017" lat="59.9930138877" lon="10.3479638862">
		<tag k="fixme" v="multiple name tags, choose one and add the other to alt_name" />
		<tag k="name" v="Plassevatnet;Toresplasstjern" />
		<tag k="natural" v="water" />
		<tag k="ssr:stedsnr" v="186089" />
	</node>
	<node id="-242016" lat="60.1144305516" lon="10.2313527729">
		<tag k="name" v="Helgelandsmoen Næringspark AS" />
		<tag k="place" v="quarter" />
		<tag k="ssr:stedsnr" v="179992" />
	</node>
	<node id="-242015" lat="60.0447111144" lon="10.4506611155">
		<tag k="alt_name" v="Seterhaugen" />
		<tag k="fixme" v="consider natural=peak for the most distinct mountains in the district" />
		<tag k="name" v="Sæterhaugen" />
		<tag k="natural" v="hill" />
		<tag k="place" v="locality" />
		<tag k="ssr:stedsnr" v="174976" />
	</node>
	<node id="-242014" lat="60.0072385721" lon="10.3621895659">
		<tag k="fixme" v="multiple name tags, choose one and add the other to alt_name" />
		<tag k="historic" v="shieling" />
		<tag k="name" v="Nedre Steinlausa;Steinlaussetra" />
		<tag k="place" v="locality" />
		<tag k="ssr:stedsnr" v="162780" />
	</node>
	<node id="-242013" lat="60.0777728712" lon="10.2596971949">
		<tag k="name" v="Bråtan" />
		<tag k="place" v="farm" />
		<tag k="ssr:stedsnr" v="149628" />
	</node>
	<node id="-242012" lat="60.0764722201" lon="10.275219438">
		<tag k="name" v="Sørenga" />
		<tag k="place" v="farm" />
		<tag k="ssr:stedsnr" v="149618" />
	</node>
	<node id="-242011" lat="60.0395222216" lon="10.2478527842">
		<tag k="name" v="Bombeøya" />
		<tag k="place" v="island" />
		<tag k="ssr:stedsnr" v="148734" />
	</node>
	<node id="-242010" lat="60.0713194415" lon="10.1878055468">
		<tag k="name" v="Kalvbråtan" />
		<tag k="place" v="locality" />
		<tag k="ssr:stedsnr" v="147792" />
	</node>
	<node id="-242009" lat="60.0649944466" lon="10.2468777692">
		<tag k="name" v="Verkensvika" />
		<tag k="natural" v="bay" />
		<tag k="ssr:stedsnr" v="147528" />
	</node>
	<node id="-242008" lat="59.9850027755" lon="10.3292611087">
		<tag k="name" v="Tvetjerna" />
		<tag k="natural" v="water" />
		<tag k="ssr:stedsnr" v="147349" />
		<tag k="water" v="lake" />
	</node>
	<node id="-242007" lat="59.9774722207" lon="10.3203972298">
		<tag k="name" v="Nordlandsdalen" />
		<tag k="natural" v="valley" />
		<tag k="place" v="locality" />
		<tag k="ssr:stedsnr" v="147346" />
	</node>
	<node id="-242006" lat="59.9665944476" lon="10.3485972153">
		<tag k="alt_name" v="Sollihøgda" />
		<tag k="amenity" v="place_of_worship" />
		<tag k="denomination" v="lutheran" />
		<tag k="name" v="Sollihøgda kapell" />
		<tag k="religion" v="christian" />
		<tag k="ssr:stedsnr" v="147298" />
	</node>
	<node id="-242005" lat="60.0058239433" lon="10.3356924334">
		<tag k="name" v="Auretjern" />
		<tag k="natural" v="water" />
		<tag k="ssr:stedsnr" v="127458" />
	</node>
	<node id="-242004" lat="60.0103833327" lon="10.2857305473">
		<tag k="name" v="Nesseterdalen" />
		<tag k="natural" v="valley" />
		<tag k="place" v="locality" />
		<tag k="ssr:stedsnr" v="127436" />
	</node>
	<node id="-242003" lat="60.0310416653" lon="10.4008472268">
		<tag k="alt_name" v="Lomvollhytta" />
		<tag k="name" v="Lomvoll" />
		<tag k="place" v="isolated_dwelling" />
		<tag k="ssr:stedsnr" v="127000" />
	</node>
	<node id="-242002" lat="60.0461666677" lon="10.4669388944">
		<tag k="fixme" v="consider natural=peak for the most distinct mountains in the district" />
		<tag k="name" v="Mørkreiåsen" />
		<tag k="natural" v="hill" />
		<tag k="place" v="locality" />
		<tag k="ssr:stedsnr" v="126949" />
	</node>
	<node id="-242001" lat="60.040672147" lon="10.3945930886">
		<tag k="name" v="Plassedammen" />
		<tag k="natural" v="water" />
		<tag k="ssr:stedsnr" v="126934" />
		<tag k="water" v="lake" />
	</node>
	<node id="-242000" lat="60.0122305518" lon="10.3772527856">
		<tag k="fixme" v="consider place=hamlet" />
		<tag k="name" v="Midtskogen" />
		<tag k="place" v="farm" />
		<tag k="ssr:stedsnr" v="126878" />
	</node>
	<node id="-241999" lat="60.1129319662" lon="10.2754887518">
		<tag k="name" v="Bjørke" />
		<tag k="place" v="hamlet" />
		<tag k="ssr:stedsnr" v="126715" />
	</node>
	<node id="-241998" lat="60.1132885741" lon="10.3090383694">
		<tag k="alt_name" v="Lore søndre" />
		<tag k="fixme" v="consider place=hamlet" />
		<tag k="name" v="Lore" />
		<tag k="place" v="farm" />
		<tag k="ssr:stedsnr" v="126709" />
	</node>
	<node id="-241997" lat="60.1102861121" lon="10.309899995">
		<tag k="fixme" v="consider natural=peak for the most distinct mountains in the district" />
		<tag k="name" v="Loreåsen" />
		<tag k="natural" v="hill" />
		<tag k="place" v="locality" />
		<tag k="ssr:stedsnr" v="126708" />
	</node>
	<node id="-241996" lat="60.0982744347" lon="10.2031951038">
		<tag k="alt_name" v="Hamnor" />
		<tag k="name" v="Hafnor" />
		<tag k="place" v="farm" />
		<tag k="ssr:stedsnr" v="126701" />
	</node>
	<node id="-241995" lat="60.0569666672" lon="10.1933361137">
		<tag k="name" v="Bønsnestangen" />
		<tag k="natural" v="cape" />
		<tag k="ssr:stedsnr" v="126351" />
	</node>
	<node id="-241994" lat="60.0214833288" lon="10.2613833416">
		<tag k="name" v="Lia" />
		<tag k="place" v="farm" />
		<tag k="ssr:stedsnr" v="126338" />
	</node>
	<node id="-241993" lat="60.0836166703" lon="10.2271583257">
		<tag k="fixme" v="consider place=hamlet" />
		<tag k="name" v="Berg" />
		<tag k="place" v="farm" />
		<tag k="ssr:stedsnr" v="126297" />
	</node>
	<node id="-241992" lat="60.078224997" lon="10.1743194511">
		<tag k="name" v="Gomnes" />
		<tag k="place" v="quarter" />
		<tag k="ssr:stedsnr" v="126286" />
	</node>
	<node id="-241991" lat="60.0765499978" lon="10.1817305571">
		<tag k="name" v="Øgarden" />
		<tag k="place" v="isolated_dwelling" />
		<tag k="ssr:stedsnr" v="126282" />
	</node>
	<node id="-241990" lat="60.0887555578" lon="10.3425388942">
		<tag k="name" v="Bjørnsvika" />
		<tag k="place" v="farm" />
		<tag k="ssr:stedsnr" v="126273" />
	</node>
	<node id="-241989" lat="60.0780916625" lon="10.2283361185">
		<tag k="alt_name" v="Ullerentangen" />
		<tag k="name" v="Ullerntangen" />
		<tag k="natural" v="cape" />
		<tag k="ssr:stedsnr" v="126246" />
	</node>
	<node id="-241988" lat="60.0724722222" lon="10.2000722295">
		<tag k="alt_name" v="Hundstad Store" />
		<tag k="name" v="Hundstad" />
		<tag k="place" v="farm" />
		<tag k="ssr:stedsnr" v="126241" />
	</node>
	<node id="-241987" lat="60.0464583289" lon="10.2768027721">
		<tag k="bridge" v="yes" />
		<tag k="layer" v="1" />
		<tag k="name" v="Waltersbråten" />
		<tag k="ssr:stedsnr" v="107799" />
	</node>
	<node id="-241986" lat="60.0904688296" lon="10.1745810465">
		<tag k="alt_name" v="Gomnes" />
		<tag k="name" v="Nordre Gomnes" />
		<tag k="place" v="farm" />
		<tag k="ssr:stedsnr" v="101266" />
	</node>
	<node id="-241985" lat="60.0730666654" lon="10.2986138855">
		<tag k="name" v="Sundet" />
		<tag k="place" v="farm" />
		<tag k="ssr:stedsnr" v="89611" />
	</node>
	<node id="-241984" lat="60.0764453817" lon="10.2833394635">
		<tag k="name" v="Tajet" />
		<tag k="place" v="locality" />
		<tag k="ssr:stedsnr" v="88449" />
	</node>
	<node id="-241983" lat="60.0532416628" lon="10.2484833361">
		<tag k="name" v="Nordjordet" />
		<tag k="place" v="locality" />
		<tag k="ssr:stedsnr" v="87592" />
	</node>
	<node id="-241982" lat="60.0617138862" lon="10.2485944499">
		<tag k="name" v="Roberget" />
		<tag k="natural" v="hill" />
		<tag k="place" v="locality" />
		<tag k="ssr:stedsnr" v="87585" />
	</node>
	<node id="-241981" lat="60.0502944431" lon="10.2401972147">
		<tag k="name" v="Vestmarka" />
		<tag k="natural" v="slope" />
		<tag k="place" v="locality" />
		<tag k="ssr:stedsnr" v="87580" />
	</node>
	<node id="-241980" lat="60.0566611141" lon="10.209888894">
		<tag k="name" v="Svartøysundet" />
		<tag k="natural" v="strait" />
		<tag k="ssr:stedsnr" v="87567" />
	</node>
	<node id="-241979" lat="60.0664305542" lon="10.2445222275">
		<tag k="name" v="Haugertangen" />
		<tag k="natural" v="cape" />
		<tag k="ssr:stedsnr" v="87562" />
	</node>
	<node id="-241978" lat="60.0630249987" lon="10.2169361092">
		<tag k="name" v="Snekkerstuvika" />
		<tag k="natural" v="bay" />
		<tag k="ssr:stedsnr" v="87548" />
	</node>
	<node id="-241977" lat="60.0941999989" lon="10.2727499997">
		<tag k="name" v="Bergebråtan" />
		<tag k="place" v="farm" />
		<tag k="ssr:stedsnr" v="87694" />
	</node>
	<node id="-241976" lat="60.1093611142" lon="10.2599749919">
		<tag k="name" v="Hanserud" />
		<tag k="place" v="locality" />
		<tag k="ssr:stedsnr" v="87675" />
	</node>
	<node id="-241975" lat="60.1067444487" lon="10.2741249979">
		<tag k="name" v="Stalljordet" />
		<tag k="place" v="locality" />
		<tag k="ssr:stedsnr" v="87670" />
	</node>
	<node id="-241974" lat="60.0993249958" lon="10.2968944409">
		<tag k="name" v="Strandjordet" />
		<tag k="place" v="locality" />
		<tag k="ssr:stedsnr" v="87666" />
	</node>
	<node id="-241973" lat="60.0938527777" lon="10.1975388935">
		<tag k="name" v="Frøyshov" />
		<tag k="place" v="farm" />
		<tag k="ssr:stedsnr" v="87642" />
	</node>
	<node id="-241972" lat="60.0956492228" lon="10.1969126266">
		<tag k="name" v="Stadum" />
		<tag k="place" v="farm" />
		<tag k="ssr:stedsnr" v="87614" />
	</node>
	<node id="-241971" lat="60.0951055534" lon="10.194500002">
		<tag k="name" v="Frøystad" />
		<tag k="place" v="farm" />
		<tag k="ssr:stedsnr" v="87612" />
	</node>
	<node id="-241970" lat="60.0135833318" lon="10.3853611167">
		<tag k="name" v="Hygga" />
		<tag k="place" v="isolated_dwelling" />
		<tag k="ssr:stedsnr" v="87074" />
	</node>
	<node id="-241969" lat="60.0793166654" lon="10.2031055491">
		<tag k="name" v="Sørdalen" />
		<tag k="place" v="farm" />
		<tag k="ssr:stedsnr" v="86982" />
	</node>
	<node id="-241968" lat="60.1063888872" lon="10.2036138937">
		<tag k="name" v="Evja" />
		<tag k="ssr:stedsnr" v="86680" />
		<tag k="waterway" v="river" />
	</node>
	<node id="-241967" lat="60.1237554108" lon="10.2992126209">
		<tag k="fixme" v="consider natural=peak for the most distinct mountains in the district" />
		<tag k="name" v="Hurumåsen" />
		<tag k="natural" v="hill" />
		<tag k="place" v="locality" />
		<tag k="ssr:stedsnr" v="86474" />
	</node>
	<node id="-241966" lat="60.0557861073" lon="10.2702750005">
		<tag k="name" v="Vinterguten" />
		<tag k="natural" v="cape" />
		<tag k="ssr:stedsnr" v="85599" />
	</node>
	<node id="-241965" lat="60.0533611156" lon="10.3230277758">
		<tag k="name" v="Kronprinsens utsikt" />
		<tag k="ssr:stedsnr" v="85442" />
		<tag k="tourism" v="viewpoint" />
	</node>
	<node id="-241964" lat="60.0413916676" lon="10.3299361137">
		<tag k="name" v="Holiattentitt" />
		<tag k="place" v="isolated_dwelling" />
		<tag k="ssr:stedsnr" v="85435" />
	</node>
	<node id="-241963" lat="60.0413916676" lon="10.3299361137">
		<tag k="name" v="Djupedalsbekken" />
		<tag k="ssr:stedsnr" v="85433" />
		<tag k="waterway" v="stream" />
	</node>
	<node id="-241962" lat="60.0212194423" lon="10.3773749924">
		<tag k="name" v="Helvetesmyra" />
		<tag k="natural" v="wetland" />
		<tag k="ssr:stedsnr" v="66964" />
	</node>
	<node id="-241961" lat="60.0448666671" lon="10.3827111075">
		<tag k="alt_name" v="Bukkebekk" />
		<tag k="name" v="Bukkebekken" />
		<tag k="ssr:stedsnr" v="66957" />
		<tag k="waterway" v="stream" />
	</node>
	<node id="-241960" lat="60.1222500007" lon="10.2964500055">
		<tag k="alt_name" v="Veisten søndre" />
		<tag k="fixme" v="multiple name tags, choose one and add the other to alt_name" />
		<tag k="name" v="Kongelv;Veisten" />
		<tag k="place" v="farm" />
		<tag k="ssr:stedsnr" v="65698" />
	</node>
	<node id="-241959" lat="60.0517250029" lon="10.1782583298">
		<tag k="fixme" v="consider place=hamlet" />
		<tag k="name" v="Frognøya" />
		<tag k="place" v="farm" />
		<tag k="ssr:stedsnr" v="65354" />
	</node>
	<node id="-241958" lat="60.0852527757" lon="10.2181055552">
		<tag k="alt_name" v="Søndre By" />
		<tag k="fixme" v="consider place=hamlet" />
		<tag k="name" v="By" />
		<tag k="place" v="farm" />
		<tag k="ssr:stedsnr" v="65280" />
	</node>
	<node id="-241957" lat="60.0878222183" lon="10.2316722278">
		<tag k="name" v="Svensrud" />
		<tag k="place" v="quarter" />
		<tag k="ssr:stedsnr" v="65278" />
	</node>
	<node id="-241956" lat="59.9861194483" lon="10.3494555531">
		<tag k="name" v="Stormyr" />
		<tag k="natural" v="wetland" />
		<tag k="ssr:stedsnr" v="65097" />
	</node>
	<node id="-241955" lat="59.9792611126" lon="10.39124166">
		<tag k="name" v="Isielva" />
		<tag k="ssr:stedsnr" v="65023" />
		<tag k="waterway" v="river" />
	</node>
	<node id="-241954" lat="59.97203889" lon="10.3232527794">
		<tag k="name" v="Nordland" />
		<tag k="place" v="farm" />
		<tag k="ssr:stedsnr" v="64485" />
	</node>
	<node id="-241953" lat="59.9684166626" lon="10.3290194444">
		<tag k="name" v="Myra" />
		<tag k="place" v="locality" />
		<tag k="ssr:stedsnr" v="64470" />
	</node>
	<node id="-241952" lat="59.9718194428" lon="10.4046527743">
		<tag k="fixme" v="consider boundary=protected_area and relevant protect_class if not nature reserve" />
		<tag k="leisure" v="nature_reserve" />
		<tag k="name" v="Djupdalen og Kjaglidalen naturreservat" />
		<tag k="ssr:stedsnr" v="60491" />
	</node>
	<node id="-241951" lat="60.0940999965" lon="10.2925916626">
		<tag k="bridge" v="yes" />
		<tag k="layer" v="1" />
		<tag k="name" v="Høyenhall" />
		<tag k="ssr:stedsnr" v="46801" />
	</node>
	<node id="-241950" lat="60.0942777749" lon="10.180233329">
		<tag k="name" v="Onsakervika Camping" />
		<tag k="ssr:stedsnr" v="34705" />
		<tag k="tourism" v="camp_site" />
	</node>
	<node id="-241949" lat="60.0683166706" lon="10.166824992">
		<tag k="name" v="Roaløkka" />
		<tag k="place" v="farm" />
		<tag k="ssr:stedsnr" v="26771" />
	</node>
	<node id="-241948" lat="60.0998741428" lon="10.2057686632">
		<tag k="name" v="Hafnor" />
		<tag k="place" v="farm" />
		<tag k="ssr:stedsnr" v="26681" />
	</node>
	<node id="-241947" lat="59.9969555563" lon="10.2798944513">
		<tag k="name" v="Nesvika" />
		<tag k="natural" v="bay" />
		<tag k="ssr:stedsnr" v="26389" />
	</node>
	<node id="-241946" lat="59.9962444478" lon="10.2959583401">
		<tag k="fixme" v="consider natural=peak for the most distinct mountains in the district" />
		<tag k="name" v="Bråtafjellet" />
		<tag k="natural" v="hill" />
		<tag k="place" v="locality" />
		<tag k="ssr:stedsnr" v="26387" />
	</node>
	<node id="-241945" lat="60.0615390166" lon="10.2106071162">
		<tag k="name" v="Engen" />
		<tag k="place" v="farm" />
		<tag k="ssr:stedsnr" v="26560" />
	</node>
	<node id="-241944" lat="60.0480277769" lon="10.2364972241">
		<tag k="name" v="Abborvika" />
		<tag k="natural" v="bay" />
		<tag k="ssr:stedsnr" v="26554" />
	</node>
	<node id="-241943" lat="59.9690611069" lon="10.3535138965">
		<tag k="historic" v="shieling" />
		<tag k="name" v="Furumoen" />
		<tag k="place" v="locality" />
		<tag k="ssr:stedsnr" v="26313" />
	</node>
	<node id="-241941" lat="60.0541722236" lon="10.1824805513">
		<tag k="name" v="Sørtangen" />
		<tag k="natural" v="cape" />
		<tag k="ssr:stedsnr" v="25697" />
	</node>
	<node id="-241940" lat="60.0365833354" lon="10.337044446">
		<tag k="name" v="Grantopp" />
		<tag k="place" v="isolated_dwelling" />
		<tag k="ssr:stedsnr" v="25488" />
	</node>
	<node id="-241939" lat="60.0757583362" lon="10.1800638942">
		<tag k="name" v="Stubberud" />
		<tag k="place" v="farm" />
		<tag k="ssr:stedsnr" v="25746" />
	</node>
	<node id="-241938" lat="60.1189969793" lon="10.2934693695">
		<tag k="landuse" v="meadow" />
		<tag k="name" v="Vekkeren" />
		<tag k="ssr:stedsnr" v="25377" />
	</node>
	<node id="-241937" lat="59.9612555579" lon="10.3390305488">
		<tag k="name" v="Skaustua" />
		<tag k="place" v="isolated_dwelling" />
		<tag k="ssr:stedsnr" v="22575" />
	</node>
	<node id="-241936" lat="60.0592666663" lon="10.3475361081">
		<tag k="historic" v="shieling" />
		<tag k="name" v="Retthella" />
		<tag k="place" v="locality" />
		<tag k="ssr:stedsnr" v="6213" />
	</node>
	<node id="-241935" lat="60.0252222258" lon="10.3691805636">
		<tag k="name" v="Rundtom" />
		<tag k="natural" v="hill" />
		<tag k="place" v="locality" />
		<tag k="ssr:stedsnr" v="5999" />
	</node>
	<node id="-241934" lat="60.0159944429" lon="10.3686194429">
		<tag k="name" v="Frøshaug" />
		<tag k="place" v="isolated_dwelling" />
		<tag k="ssr:stedsnr" v="5962" />
	</node>
	<node id="-241933" lat="60.0003916651" lon="10.3692416723">
		<tag k="name" v="Isielva" />
		<tag k="ssr:stedsnr" v="5919" />
		<tag k="waterway" v="stream" />
	</node>
	<node id="-241932" lat="60.1599972267" lon="10.2459916657">
		<tag k="name" v="Storelva" />
		<tag k="ssr:stedsnr" v="5650" />
		<tag k="waterway" v="river" />
	</node>
	<node id="-241931" lat="60.0489638891" lon="10.177533337">
		<tag k="name" v="Frognøya" />
		<tag k="place" v="island" />
		<tag k="ssr:stedsnr" v="5354" />
	</node>
	<node id="-241930" lat="60.0568944403" lon="10.2982166631">
		<tag k="name" v="Tyriheim" />
		<tag k="old_name" v="Tyriheimen" />
		<tag k="place" v="isolated_dwelling" />
		<tag k="ssr:stedsnr" v="5348" />
	</node>
	<node id="-241929" lat="60.0557749969" lon="10.2478388927">
		<tag k="alt_name" v="Hareøya" />
		<tag k="name" v="Haraøya" />
		<tag k="place" v="island" />
		<tag k="ssr:stedsnr" v="5342" />
	</node>
	<node id="-241928" lat="60.0664805552" lon="10.2972388947">
		<tag k="name" v="Kroksund" />
		<tag k="place" v="farm" />
		<tag k="ssr:stedsnr" v="5328" />
	</node>
	<node id="-241927" lat="60.0184888884" lon="10.2942500044">
		<tag k="name" v="Kroktjern" />
		<tag k="natural" v="water" />
		<tag k="ssr:stedsnr" v="5322" />
	</node>
	<node id="-241926" lat="60.0978333318" lon="10.2162305634">
		<tag k="alt_name" v="Hole" />
		<tag k="amenity" v="place_of_worship" />
		<tag k="denomination" v="lutheran" />
		<tag k="name" v="Hole kirke" />
		<tag k="religion" v="christian" />
		<tag k="ssr:stedsnr" v="4748" />
	</node>
	<node id="-241925" lat="60.102113891" lon="10.3014944368">
		<tag k="name" v="Steinsvika" />
		<tag k="natural" v="bay" />
		<tag k="ssr:stedsnr" v="4741" />
	</node>
	<node id="-241924" lat="60.1176913302" lon="10.2831382773">
		<tag k="fixme" v="consider place=hamlet" />
		<tag k="name" v="Sonerud" />
		<tag k="place" v="farm" />
		<tag k="ssr:stedsnr" v="4705" />
	</node>
	<node id="-241923" lat="59.9965750021" lon="10.2848249913">
		<tag k="name" v="Oreløkka" />
		<tag k="place" v="isolated_dwelling" />
		<tag k="ssr:stedsnr" v="4454" />
	</node>
	<node id="-241922" lat="59.9880235852" lon="10.3320478582">
		<tag k="name" v="Langtjern" />
		<tag k="natural" v="water" />
		<tag k="ssr:stedsnr" v="4445" />
	</node>
	<node id="-241921" lat="60.0848035572" lon="10.1899680291">
		<tag k="fixme" v="consider place=hamlet" />
		<tag k="name" v="Dæli" />
		<tag k="place" v="farm" />
		<tag k="ssr:stedsnr" v="4292" />
	</node>
	<node id="-241920" lat="60.092716671" lon="10.2827972181">
		<tag k="fixme" v="consider natural=peak for the most distinct mountains in the district" />
		<tag k="name" v="Steinsåsen" />
		<tag k="natural" v="hill" />
		<tag k="place" v="locality" />
		<tag k="ssr:stedsnr" v="4290" />
	</node>
	<node id="-241919" lat="60.092470555" lon="10.2921554311">
		<tag k="alt_name" v="Rud" />
		<tag k="fixme" v="consider place=hamlet" />
		<tag k="name" v="Østre Rud" />
		<tag k="place" v="farm" />
		<tag k="ssr:stedsnr" v="4289" />
	</node>
	<node id="-241918" lat="60.0903999963" lon="10.3095999957">
		<tag k="alt_name" v="Småøyane" />
		<tag k="name" v="Småøyene" />
		<tag k="place" v="island" />
		<tag k="ssr:stedsnr" v="4287" />
	</node>
	<node id="-241917" lat="60.0919780966" lon="10.1899866891">
		<tag k="fixme" v="consider place=hamlet" />
		<tag k="name" v="Onsaker" />
		<tag k="place" v="farm" />
		<tag k="ssr:stedsnr" v="4273" />
	</node>
	<node id="-241916" lat="60.0744301104" lon="10.3307695539">
		<tag k="alt_name" v="Lårvika" />
		<tag k="fixme" v="consider place=hamlet" />
		<tag k="name" v="Lorvika" />
		<tag k="place" v="farm" />
		<tag k="ssr:stedsnr" v="4266" />
	</node>
	<node id="-241915" lat="60.0717833362" lon="10.2780388836">
		<tag k="name" v="Gjesval" />
		<tag k="place" v="farm" />
		<tag k="ssr:stedsnr" v="4256" />
	</node>
	<node id="-241914" lat="59.9852301851" lon="10.4109864353">
		<tag k="alt_name" v="Langbru" />
		<tag k="fixme" v="consider place=hamlet" />
		<tag k="name" v="Langebru" />
		<tag k="place" v="farm" />
		<tag k="ssr:stedsnr" v="4113" />
	</node>
	<node id="-241913" lat="59.9824944455" lon="10.381016674">
		<tag k="fixme" v="consider natural=peak for the most distinct mountains in the district" />
		<tag k="name" v="Kallmyråsen" />
		<tag k="natural" v="hill" />
		<tag k="old_name" v="Kalomyråsen" />
		<tag k="place" v="locality" />
		<tag k="ssr:stedsnr" v="4110" />
	</node>
	<node id="-241912" lat="59.9791892029" lon="10.3705420406">
		<tag k="name" v="Bjørntjernet" />
		<tag k="natural" v="water" />
		<tag k="ssr:stedsnr" v="4109" />
	</node>
	<node id="-241911" lat="59.9572166685" lon="10.3488138907">
		<tag k="alt_name" v="Tjernslitjern" />
		<tag k="name" v="Tjernslitjernet" />
		<tag k="natural" v="water" />
		<tag k="ssr:stedsnr" v="4058" />
	</node>
	<node id="-241908" lat="60.1002277768" lon="10.2905527694">
		<tag k="name" v="Damjordet" />
		<tag k="place" v="locality" />
		<tag k="ssr:stedsnr" v="937709" />
	</node>
	<node id="-241907" lat="60.0798611129" lon="10.1983555598">
		<tag k="leisure" v="pitch" />
		<tag k="name" v="Vestjordsbakken" />
		<tag k="ssr:stedsnr" v="936849" />
	</node>
	<node id="-241906" lat="60.0615722228" lon="10.1815277771">
		<tag k="junction" v="yes" />
		<tag k="name" v="Kroken" />
		<tag k="place" v="locality" />
		<tag k="ssr:stedsnr" v="936525" />
	</node>
	<node id="-241905" lat="60.0152222207" lon="10.3901333298">
		<tag k="alt_name" v="Dammersplass" />
		<tag k="name" v="Dammersplassen" />
		<tag k="place" v="isolated_dwelling" />
		<tag k="ssr:stedsnr" v="916978" />
	</node>
	<node id="-241904" lat="60.0248694433" lon="10.3865166612">
		<tag k="name" v="Tverrelva" />
		<tag k="ssr:stedsnr" v="916977" />
		<tag k="waterway" v="stream" />
	</node>
	<node id="-241903" lat="60.0229750002" lon="10.4103222168">
		<tag k="alt_name" v="Lauvhaugene" />
		<tag k="fixme" v="consider natural=peak for the most distinct mountains in the district" />
		<tag k="name" v="Lauvhaugane" />
		<tag k="natural" v="hill" />
		<tag k="place" v="locality" />
		<tag k="ssr:stedsnr" v="916975" />
	</node>
	<node id="-241902" lat="60.0595138844" lon="10.359050008">
		<tag k="fixme" v="consider natural=peak for the most distinct mountains in the district" />
		<tag k="name" v="Bukkehøgda" />
		<tag k="natural" v="hill" />
		<tag k="place" v="locality" />
		<tag k="ssr:stedsnr" v="916230" />
	</node>
	<node id="-241901" lat="60.0542055546" lon="10.3778027828">
		<tag k="name" v="Fjellstadhytta" />
		<tag k="place" v="isolated_dwelling" />
		<tag k="ssr:stedsnr" v="916211" />
	</node>
	<node id="-241900" lat="60.0528972221" lon="10.3943194394">
		<tag k="alt_name" v="Svingkringen" />
		<tag k="fixme" v="consider natural=peak for the most distinct mountains in the district" />
		<tag k="name" v="Svingomkringen" />
		<tag k="natural" v="hill" />
		<tag k="place" v="locality" />
		<tag k="ssr:stedsnr" v="916207" />
	</node>
	<node id="-241899" lat="60.0347583347" lon="10.3391666599">
		<tag k="name" v="Bureheim" />
		<tag k="place" v="isolated_dwelling" />
		<tag k="ssr:stedsnr" v="915307" />
	</node>
	<node id="-241898" lat="60.0725500006" lon="10.1726999957">
		<tag k="alt_name" v="Rud vestre;Rud" />
		<tag k="fixme" v="consider place=hamlet" />
		<tag k="name" v="Vestre Rud" />
		<tag k="place" v="farm" />
		<tag k="ssr:stedsnr" v="915234" />
	</node>
	<node id="-241897" lat="60.087649997" lon="10.2669388886">
		<tag k="highway" v="path" />
		<tag k="loc_name" v="Brennakleiva;Gjota;Gjotakleiva" />
		<tag k="name" v="Urdskleiva" />
		<tag k="ssr:stedsnr" v="891118" />
	</node>
	<node id="-241896" lat="60.0454943215" lon="10.4400684927">
		<tag k="name" v="Vintervegmyra" />
		<tag k="natural" v="wetland" />
		<tag k="ssr:stedsnr" v="876036" />
	</node>
	<node id="-241895" lat="60.0468222235" lon="10.4080305476">
		<tag k="name" v="Furumyr" />
		<tag k="natural" v="wetland" />
		<tag k="ssr:stedsnr" v="876029" />
	</node>
	<node id="-241894" lat="60.1106416669" lon="10.2075583345">
		<tag k="name" v="Tjernet" />
		<tag k="place" v="farm" />
		<tag k="ssr:stedsnr" v="875661" />
	</node>
	<node id="-241893" lat="60.0972722179" lon="10.206866666">
		<tag k="name" v="Mønstreplassen" />
		<tag k="place" v="locality" />
		<tag k="ssr:stedsnr" v="875658" />
	</node>
	<node id="-241892" lat="60.0669222231" lon="10.3626611177">
		<tag k="alt_name" v="Myromstjernet" />
		<tag k="name" v="Myromstjern" />
		<tag k="natural" v="water" />
		<tag k="ssr:stedsnr" v="855212" />
	</node>
	<node id="-241891" lat="60.05103889" lon="10.4370388923">
		<tag k="fixme" v="consider natural=peak for the most distinct mountains in the district" />
		<tag k="name" v="Rustbråtåbrenna" />
		<tag k="natural" v="hill" />
		<tag k="place" v="locality" />
		<tag k="ssr:stedsnr" v="855204" />
	</node>
	<node id="-241890" lat="59.98333611" lon="10.3994000035">
		<tag k="name" v="Gaupehaugen" />
		<tag k="natural" v="hill" />
		<tag k="place" v="locality" />
		<tag k="ssr:stedsnr" v="854097" />
	</node>
	<node id="-241889" lat="59.9948749962" lon="10.3907111159">
		<tag k="alt_name" v="Briskehøgda" />
		<tag k="fixme" v="consider natural=peak for the most distinct mountains in the district" />
		<tag k="name" v="Briskehaugen" />
		<tag k="natural" v="hill" />
		<tag k="place" v="locality" />
		<tag k="ssr:stedsnr" v="854075" />
	</node>
	<node id="-241888" lat="60.0566719683" lon="10.2901988562">
		<tag k="name" v="Rørvika" />
		<tag k="place" v="farm" />
		<tag k="ssr:stedsnr" v="854329" />
	</node>
	<node id="-241887" lat="59.9944916692" lon="10.4032277755">
		<tag k="name" v="Salmakerdalen" />
		<tag k="natural" v="valley" />
		<tag k="place" v="locality" />
		<tag k="ssr:stedsnr" v="853060" />
	</node>
	<node id="-241886" lat="60.0327833311" lon="10.3755694521">
		<tag k="alt_name" v="Øskjevallsetrene" />
		<tag k="historic" v="shieling" />
		<tag k="name" v="Øskjevallsetra" />
		<tag k="place" v="locality" />
		<tag k="ssr:stedsnr" v="842956" />
	</node>
	<node id="-241885" lat="60.0325821378" lon="10.4126284129">
		<tag k="historic" v="shieling" />
		<tag k="name" v="Myrsetra" />
		<tag k="place" v="locality" />
		<tag k="ssr:stedsnr" v="842954" />
	</node>
	<node id="-241884" lat="60.0329027756" lon="10.271244441">
		<tag k="bridge" v="yes" />
		<tag k="layer" v="1" />
		<tag k="name" v="Øverby" />
		<tag k="ssr:stedsnr" v="836759" />
	</node>
	<node id="-241883" lat="60.1166527761" lon="10.3156444452">
		<tag k="name" v="Loreåsen" />
		<tag k="place" v="neighbourhood" />
		<tag k="ssr:stedsnr" v="937729" />
	</node>
	<node id="-241882" lat="60.1026055513" lon="10.3042222199">
		<tag k="name" v="Langengskjæret" />
		<tag k="place" v="islet" />
		<tag k="ssr:stedsnr" v="937728" />
	</node>
	<node id="-241881" lat="60.1079444412" lon="10.295199992">
		<tag k="name" v="Pommern" />
		<tag k="place" v="locality" />
		<tag k="ssr:stedsnr" v="937715" />
	</node>
	<node id="-241880" lat="60.0806638864" lon="10.2540527843">
		<tag k="name" v="Byrhaugen" />
		<tag k="place" v="farm" />
		<tag k="ssr:stedsnr" v="936965" />
	</node>
	<node id="-241879" lat="60.0825194447" lon="10.251169436">
		<tag k="name" v="Faltinrud" />
		<tag k="place" v="farm" />
		<tag k="ssr:stedsnr" v="936964" />
	</node>
	<node id="-241878" lat="60.0389611076" lon="10.4573222194">
		<tag k="fixme" v="consider natural=peak for the most distinct mountains in the district" />
		<tag k="name" v="Kampeseterbrenna" />
		<tag k="natural" v="hill" />
		<tag k="place" v="locality" />
		<tag k="ssr:stedsnr" v="937035" />
	</node>
	<node id="-241877" lat="60.0763412353" lon="10.294709799">
		<tag k="name" v="Løkkevika" />
		<tag k="natural" v="bay" />
		<tag k="ssr:stedsnr" v="936859" />
	</node>
	<node id="-241876" lat="60.102886112" lon="10.2220444447">
		<tag k="name" v="Helvetesmyra" />
		<tag k="natural" v="wetland" />
		<tag k="ssr:stedsnr" v="936674" />
	</node>
	<node id="-241875" lat="60.0955749975" lon="10.2203194524">
		<tag k="name" v="Sauløkka" />
		<tag k="place" v="farm" />
		<tag k="ssr:stedsnr" v="936614" />
	</node>
	<node id="-241874" lat="60.0521972209" lon="10.2526249976">
		<tag k="name" v="Gulshaugen" />
		<tag k="natural" v="hill" />
		<tag k="place" v="locality" />
		<tag k="ssr:stedsnr" v="936574" />
	</node>
	<node id="-241873" lat="60.0167666638" lon="10.2862444456">
		<tag k="name" v="Kuputten" />
		<tag k="natural" v="water" />
		<tag k="ssr:stedsnr" v="935479" />
	</node>
	<node id="-241872" lat="60.1164277792" lon="10.3010250062">
		<tag k="name" v="Hårum" />
		<tag k="place" v="farm" />
		<tag k="ssr:stedsnr" v="935464" />
	</node>
	<node id="-241871" lat="60.0845145858" lon="10.1772448207">
		<tag k="alt_name" v="Gomnes" />
		<tag k="name" v="Søndre Gomnes" />
		<tag k="place" v="farm" />
		<tag k="ssr:stedsnr" v="829303" />
	</node>
	<node id="-241869" lat="60.042433332" lon="10.4396527846">
		<tag k="name" v="Bjørnstadbekken" />
		<tag k="ssr:stedsnr" v="815968" />
		<tag k="waterway" v="stream" />
	</node>
	<node id="-241868" lat="60.0955361114" lon="10.2664416731">
		<tag k="name" v="Sørmoen" />
		<tag k="place" v="farm" />
		<tag k="ssr:stedsnr" v="815667" />
	</node>
	<node id="-241867" lat="60.1015611116" lon="10.3086222255">
		<tag k="name" v="Rognsvika" />
		<tag k="natural" v="bay" />
		<tag k="ssr:stedsnr" v="815663" />
	</node>
	<node id="-241866" lat="60.0626388848" lon="10.2936666753">
		<tag k="name" v="Tangen" />
		<tag k="natural" v="cape" />
		<tag k="ssr:stedsnr" v="815713" />
	</node>
	<node id="-241865" lat="60.0639527815" lon="10.1974222199">
		<tag k="name" v="Rønningen" />
		<tag k="place" v="farm" />
		<tag k="ssr:stedsnr" v="815503" />
	</node>
	<node id="-241863" lat="60.0798388895" lon="10.2442027733">
		<tag k="name" v="Evangelieholmen" />
		<tag k="place" v="islet" />
		<tag k="ssr:stedsnr" v="814972" />
	</node>
	<node id="-241862" lat="60.0859361087" lon="10.2378249982">
		<tag k="name" v="Sjellom" />
		<tag k="place" v="farm" />
		<tag k="ssr:stedsnr" v="814968" />
	</node>
	<node id="-241861" lat="60.1049249991" lon="10.2154694365">
		<tag k="name" v="Bråtan" />
		<tag k="place" v="farm" />
		<tag k="ssr:stedsnr" v="814673" />
	</node>
	<node id="-241860" lat="60.03944167" lon="10.3511527806">
		<tag k="alt_name" v="Torgetjernet;Torgtjern" />
		<tag k="name" v="Torgetjern" />
		<tag k="natural" v="water" />
		<tag k="ssr:stedsnr" v="794962" />
	</node>
	<node id="-241859" lat="60.037172219" lon="10.3474333267">
		<tag k="name" v="Oterbu" />
		<tag k="place" v="isolated_dwelling" />
		<tag k="ssr:stedsnr" v="794961" />
	</node>
	<node id="-241858" lat="60.0092277772" lon="10.2955861108">
		<tag k="alt_name" v="Skarpsnoås" />
		<tag k="fixme" v="consider natural=peak for the most distinct mountains in the district" />
		<tag k="name" v="Skarpsnoåsen" />
		<tag k="natural" v="hill" />
		<tag k="place" v="locality" />
		<tag k="ssr:stedsnr" v="794383" />
	</node>
	<node id="-241857" lat="60.0026583356" lon="10.2681277782">
		<tag k="alt_name" v="Nes Store" />
		<tag k="fixme" v="multiple name tags, choose one and add the other to alt_name" />
		<tag k="name" v="Øvre Nes;Store Nes" />
		<tag k="place" v="farm" />
		<tag k="ssr:stedsnr" v="916452" />
	</node>
	<node id="-241856" lat="60.0028333331" lon="10.3515416647">
		<tag k="name" v="Tapatjern" />
		<tag k="natural" v="water" />
		<tag k="ssr:stedsnr" v="915921" />
	</node>
	<node id="-241855" lat="60.111286112" lon="10.2507222258">
		<tag k="name" v="Lamoen" />
		<tag k="place" v="locality" />
		<tag k="ssr:stedsnr" v="915682" />
	</node>
	<node id="-241854" lat="60.1088555549" lon="10.20920833">
		<tag k="name" v="Tjernet" />
		<tag k="natural" v="water" />
		<tag k="ssr:stedsnr" v="915736" />
	</node>
	<node id="-241853" lat="60.1087999988" lon="10.2958249994">
		<tag k="name" v="Hungerholt" />
		<tag k="place" v="farm" />
		<tag k="ssr:stedsnr" v="915732" />
	</node>
	<node id="-241852" lat="60.0128666702" lon="10.2658944374">
		<tag k="name" v="Berget" />
		<tag k="place" v="farm" />
		<tag k="ssr:stedsnr" v="915391" />
	</node>
	<node id="-241851" lat="60.095055552" lon="10.2637805612">
		<tag k="name" v="Bråtan" />
		<tag k="place" v="farm" />
		<tag k="ssr:stedsnr" v="915280" />
	</node>
	<node id="-241850" lat="60.0554888908" lon="10.339338896">
		<tag k="name" v="Retthelltjernet" />
		<tag k="natural" v="water" />
		<tag k="ssr:stedsnr" v="915338" />
	</node>
	<node id="-241849" lat="60.0599500015" lon="10.2435055495">
		<tag k="alt_name" v="Lemostangen" />
		<tag k="name" v="Limovnstangen" />
		<tag k="natural" v="cape" />
		<tag k="ssr:stedsnr" v="915335" />
	</node>
	<node id="-241848" lat="60.0795833352" lon="10.2370194444">
		<tag k="name" v="Sælabonn" />
		<tag k="natural" v="bay" />
		<tag k="ssr:stedsnr" v="915249" />
	</node>
	<node id="-241847" lat="60.0706361073" lon="10.2928027797">
		<tag k="alt_name" v="Sundet" />
		<tag k="name" v="Kroksundøgarden" />
		<tag k="place" v="farm" />
		<tag k="ssr:stedsnr" v="915245" />
	</node>
	<node id="-241846" lat="59.9901916697" lon="10.4265638892">
		<tag k="name" v="Lomma" />
		<tag k="ssr:stedsnr" v="914113" />
		<tag k="waterway" v="river" />
	</node>
	<node id="-241845" lat="59.9877027788" lon="10.397330555">
		<tag k="historic" v="shieling" />
		<tag k="name" v="Steinsvollen" />
		<tag k="place" v="locality" />
		<tag k="ssr:stedsnr" v="914110" />
	</node>
	<node id="-241844" lat="59.9691055563" lon="10.347927782">
		<tag k="name" v="Høymyr" />
		<tag k="place" v="farm" />
		<tag k="ssr:stedsnr" v="914030" />
	</node>
	<node id="-241843" lat="60.0381611153" lon="10.4278444424">
		<tag k="alt_name" v="Stemnålstjernet" />
		<tag k="name" v="Stemmenålstjern" />
		<tag k="natural" v="water" />
		<tag k="ssr:stedsnr" v="733925" />
	</node>
	<node id="-241842" lat="59.9988694445" lon="10.363308342">
		<tag k="name" v="Plassebekken" />
		<tag k="ssr:stedsnr" v="732110" />
		<tag k="waterway" v="stream" />
	</node>
	<node id="-241841" lat="60.0735218954" lon="10.2614899128">
		<tag k="name" v="Borgen" />
		<tag k="place" v="farm" />
		<tag k="ssr:stedsnr" v="696623" />
	</node>
	<node id="-241840" lat="60.0872962648" lon="10.2635431855">
		<tag k="name" v="Jomfruland" />
		<tag k="place" v="farm" />
		<tag k="ssr:stedsnr" v="695654" />
	</node>
	<node id="-241839" lat="60.0540916642" lon="10.2659722276">
		<tag k="landuse" v="meadow" />
		<tag k="name" v="Rosenlund" />
		<tag k="ssr:stedsnr" v="694710" />
	</node>
	<node id="-241838" lat="60.0751972184" lon="10.1877611141">
		<tag k="name" v="Fjell" />
		<tag k="place" v="farm" />
		<tag k="ssr:stedsnr" v="693763" />
	</node>
	<node id="-241837" lat="60.0806027773" lon="10.1685222135">
		<tag k="name" v="Hassellykkja" />
		<tag k="place" v="farm" />
		<tag k="ssr:stedsnr" v="693762" />
	</node>
	<node id="-241836" lat="60.0821361074" lon="10.1919944419">
		<tag k="name" v="Nordenga" />
		<tag k="place" v="farm" />
		<tag k="ssr:stedsnr" v="693758" />
	</node>
	<node id="-241835" lat="60.0531027772" lon="10.1692333294">
		<tag k="name" v="Høgberga" />
		<tag k="natural" v="hill" />
		<tag k="place" v="locality" />
		<tag k="ssr:stedsnr" v="693722" />
	</node>
	<node id="-241834" lat="60.0569611132" lon="10.1951472239">
		<tag k="name" v="Tangerud" />
		<tag k="place" v="farm" />
		<tag k="ssr:stedsnr" v="693555" />
	</node>
	<node id="-241833" lat="60.070249996" lon="10.1875166706">
		<tag k="name" v="Persmyr" />
		<tag k="natural" v="wetland" />
		<tag k="ssr:stedsnr" v="693807" />
	</node>
	<node id="-241832" lat="60.0910111073" lon="10.2194138944">
		<tag k="amenity" v="school" />
		<tag k="name" v="Røyse skole" />
		<tag k="ssr:stedsnr" v="878830" />
	</node>
	<node id="-241831" lat="60.0776393452" lon="10.2840466432">
		<tag k="name" v="Raudberget" />
		<tag k="natural" v="hill" />
		<tag k="place" v="locality" />
		<tag k="ssr:stedsnr" v="877537" />
	</node>
	<node id="-241830" lat="60.0883770015" lon="10.2662437667">
		<tag k="name" v="Åsstua" />
		<tag k="place" v="farm" />
		<tag k="ssr:stedsnr" v="877535" />
	</node>
	<node id="-241829" lat="60.0629361104" lon="10.3022805558">
		<tag k="name" v="Sundøya" />
		<tag k="place" v="island" />
		<tag k="ssr:stedsnr" v="876740" />
	</node>
	<node id="-241828" lat="60.1053805532" lon="10.290236115">
		<tag k="name" v="Gygerputten" />
		<tag k="place" v="locality" />
		<tag k="ssr:stedsnr" v="876709" />
	</node>
	<node id="-241827" lat="60.1058055574" lon="10.2971861193">
		<tag k="name" v="Snekkerevja" />
		<tag k="natural" v="water" />
		<tag k="ssr:stedsnr" v="876708" />
		<tag k="water" v="lake" />
	</node>
	<node id="-241826" lat="60.099425002" lon="10.3140944476">
		<tag k="name" v="Maurøya" />
		<tag k="place" v="island" />
		<tag k="ssr:stedsnr" v="876703" />
	</node>
	<node id="-241825" lat="60.1093277748" lon="10.2736583383">
		<tag k="name" v="Gongjordet" />
		<tag k="place" v="locality" />
		<tag k="ssr:stedsnr" v="876684" />
	</node>
	<node id="-241824" lat="60.0197583294" lon="10.4045499961">
		<tag k="name" v="Soterud" />
		<tag k="place" v="isolated_dwelling" />
		<tag k="ssr:stedsnr" v="734984" />
	</node>
	<node id="-241823" lat="60.0254555552" lon="10.4242805592">
		<tag k="name" v="Steffensberget" />
		<tag k="natural" v="hill" />
		<tag k="place" v="locality" />
		<tag k="ssr:stedsnr" v="733978" />
	</node>
	<node id="-241822" lat="60.1041916664" lon="10.2015000081">
		<tag k="fixme" v="consider place=hamlet" />
		<tag k="name" v="Domholt" />
		<tag k="place" v="farm" />
		<tag k="ssr:stedsnr" v="733703" />
	</node>
	<node id="-241821" lat="60.1048170199" lon="10.268009466">
		<tag k="fixme" v="consider place=hamlet" />
		<tag k="name" v="Sørum" />
		<tag k="place" v="farm" />
		<tag k="ssr:stedsnr" v="733702" />
	</node>
	<node id="-241820" lat="60.0526025559" lon="10.280327381">
		<tag k="alt_name" v="Elgstangen" />
		<tag k="fixme" v="consider place=hamlet" />
		<tag k="name" v="Elstangen" />
		<tag k="place" v="farm" />
		<tag k="ssr:stedsnr" v="733336" />
	</node>
	<node id="-241819" lat="60.0531333337" lon="10.2458166601">
		<tag k="name" v="Sundland" />
		<tag k="place" v="isolated_dwelling" />
		<tag k="ssr:stedsnr" v="733332" />
	</node>
	<node id="-241818" lat="60.0217888915" lon="10.3056472187">
		<tag k="historic" v="shieling" />
		<tag k="name" v="Finneflaksetra" />
		<tag k="place" v="locality" />
		<tag k="ssr:stedsnr" v="733318" />
	</node>
	<node id="-241817" lat="60.0202472262" lon="10.3281083331">
		<tag k="historic" v="shieling" />
		<tag k="name" v="Sørsetra" />
		<tag k="place" v="locality" />
		<tag k="ssr:stedsnr" v="733317" />
	</node>
	<node id="-241816" lat="60.027388889" lon="10.2850999952">
		<tag k="alt_name" v="Tømmerås" />
		<tag k="fixme" v="consider natural=peak for the most distinct mountains in the district" />
		<tag k="name" v="Tømmeråsen" />
		<tag k="natural" v="hill" />
		<tag k="place" v="locality" />
		<tag k="ssr:stedsnr" v="733312" />
	</node>
	<node id="-241815" lat="60.0241749991" lon="10.2891555612">
		<tag k="name" v="Hundstadhytta" />
		<tag k="place" v="isolated_dwelling" />
		<tag k="ssr:stedsnr" v="733311" />
	</node>
	<node id="-241814" lat="60.080449996" lon="10.2683638813">
		<tag k="fixme" v="consider place=hamlet" />
		<tag k="name" v="Bili" />
		<tag k="place" v="farm" />
		<tag k="ssr:stedsnr" v="733294" />
	</node>
	<node id="-241813" lat="60.0889250027" lon="10.2879472161">
		<tag k="name" v="Steinsåsen" />
		<tag k="place" v="quarter" />
		<tag k="ssr:stedsnr" v="733276" />
	</node>
	<node id="-241812" lat="60.0186333328" lon="10.2447111158">
		<tag k="name" v="Tyrifjorden" />
		<tag k="natural" v="water" />
		<tag k="ssr:stedsnr" v="732462" />
		<tag k="water" v="lake" />
	</node>
	<node id="-241811" lat="60.0818035525" lon="10.258291384">
		<tag k="name" v="Rønningen" />
		<tag k="place" v="farm" />
		<tag k="ssr:stedsnr" v="634659" />
	</node>
	<node id="-241810" lat="60.0740161391" lon="10.2709397794">
		<tag k="name" v="Smiujordet" />
		<tag k="place" v="locality" />
		<tag k="ssr:stedsnr" v="634566" />
	</node>
	<node id="-241809" lat="60.0968972202" lon="10.1892583379">
		<tag k="landuse" v="meadow" />
		<tag k="name" v="Stadumsenga" />
		<tag k="ssr:stedsnr" v="633675" />
	</node>
	<node id="-241808" lat="60.1030138853" lon="10.1992111026">
		<tag k="name" v="Tomta" />
		<tag k="place" v="isolated_dwelling" />
		<tag k="ssr:stedsnr" v="633673" />
	</node>
	<node id="-241807" lat="60.077516666" lon="10.1955361083">
		<tag k="name" v="Fjell" />
		<tag k="place" v="farm" />
		<tag k="ssr:stedsnr" v="632726" />
	</node>
	<node id="-241805" lat="60.0989999991" lon="10.217286105">
		<tag k="fixme" v="consider place=hamlet" />
		<tag k="name" v="Hole prestegård" />
		<tag k="place" v="farm" />
		<tag k="ssr:stedsnr" v="632667" />
	</node>
	<node id="-241804" lat="60.1202156328" lon="10.2960912854">
		<tag k="name" v="Hagen" />
		<tag k="place" v="isolated_dwelling" />
		<tag k="ssr:stedsnr" v="631353" />
	</node>
	<node id="-241802" lat="60.0413388871" lon="10.3726611081">
		<tag k="name" v="Borgenbakkane" />
		<tag k="natural" v="slope" />
		<tag k="place" v="locality" />
		<tag k="ssr:stedsnr" v="611972" />
	</node>
	<node id="-241800" lat="60.1109055586" lon="10.2597388902">
		<tag k="alt_name" v="Lamyra" />
		<tag k="name" v="Mosmyra" />
		<tag k="natural" v="wetland" />
		<tag k="ssr:stedsnr" v="611759" />
	</node>
	<node id="-241799" lat="60.0602817303" lon="10.1958380745">
		<tag k="alt_name" v="Bønsnes" />
		<tag k="amenity" v="place_of_worship" />
		<tag k="denomination" v="lutheran" />
		<tag k="name" v="Bønsnes kirke" />
		<tag k="old_name" v="Bønsnæs" />
		<tag k="religion" v="christian" />
		<tag k="ssr:stedsnr" v="611359" />
	</node>
	<node id="-241797" lat="60.0326194427" lon="10.412580557">
		<tag k="fixme" v="consider tourism=alpine_hut or tourism=chalet" />
		<tag k="name" v="Myrsetra" />
		<tag k="old_name" v="Myrseter" />
		<tag k="ssr:stedsnr" v="600554" />
		<tag k="tourism" v="wilderness_hut" />
	</node>
	<node id="-241796" lat="60.0180555521" lon="10.4261111102">
		<tag k="name" v="Oslograbenen" />
		<tag k="place" v="locality" />
		<tag k="ssr:stedsnr" v="708753" />
	</node>
	<node id="-241795" lat="60.1056416661" lon="10.2636777849">
		<tag k="name" v="Låvestykket" />
		<tag k="place" v="locality" />
		<tag k="ssr:stedsnr" v="572673" />
	</node>
	<node id="-241794" lat="60.1095638858" lon="10.2964194511">
		<tag k="name" v="Hårkenga" />
		<tag k="place" v="locality" />
		<tag k="ssr:stedsnr" v="572670" />
	</node>
	<node id="-241793" lat="60.0850416623" lon="10.2430499929">
		<tag k="name" v="Sandstranda" />
		<tag k="natural" v="beach" />
		<tag k="ssr:stedsnr" v="571739" />
		<tag k="surface" v="sand" />
	</node>
	<node id="-241792" lat="60.0727777773" lon="10.1818888915">
		<tag k="name" v="Bråtan" />
		<tag k="place" v="farm" />
		<tag k="ssr:stedsnr" v="571703" />
	</node>
	<node id="-241791" lat="60.0058944454" lon="10.2657277759">
		<tag k="alt_name" v="Appendiks" />
		<tag k="name" v="Rovestuen" />
		<tag k="place" v="isolated_dwelling" />
		<tag k="ssr:stedsnr" v="571486" />
	</node>
	<node id="-241790" lat="60.1254642771" lon="10.3079161838">
		<tag k="name" v="Sjåheim" />
		<tag k="place" v="isolated_dwelling" />
		<tag k="ssr:stedsnr" v="571479" />
	</node>
	<node id="-241789" lat="60.0901305517" lon="10.1986944401">
		<tag k="name" v="Åsjordet" />
		<tag k="place" v="locality" />
		<tag k="ssr:stedsnr" v="694640" />
	</node>
	<node id="-241788" lat="60.0645789138" lon="10.2125560346">
		<tag k="name" v="Dokka" />
		<tag k="place" v="locality" />
		<tag k="ssr:stedsnr" v="694559" />
	</node>
	<node id="-241787" lat="59.9810805555" lon="10.3199944448">
		<tag k="name" v="Nordlandsbekken" />
		<tag k="ssr:stedsnr" v="694244" />
		<tag k="waterway" v="stream" />
	</node>
	<node id="-241786" lat="60.0791638847" lon="10.2078527802">
		<tag k="name" v="Skrangledalen" />
		<tag k="natural" v="valley" />
		<tag k="place" v="locality" />
		<tag k="ssr:stedsnr" v="693781" />
	</node>
	<node id="-241785" lat="60.0951555549" lon="10.2257555567">
		<tag k="name" v="Nygård" />
		<tag k="place" v="farm" />
		<tag k="ssr:stedsnr" v="693641" />
	</node>
	<node id="-241784" lat="60.0497027737" lon="10.2558555602">
		<tag k="name" v="Hansehaugen" />
		<tag k="natural" v="hill" />
		<tag k="place" v="locality" />
		<tag k="ssr:stedsnr" v="693593" />
	</node>
	<node id="-241783" lat="60.1007555564" lon="10.2304694474">
		<tag k="name" v="Prestemoen" />
		<tag k="place" v="farm" />
		<tag k="ssr:stedsnr" v="693696" />
	</node>
	<node id="-241782" lat="60.0674305591" lon="10.1913527841">
		<tag k="name" v="Kolsås" />
		<tag k="place" v="hamlet" />
		<tag k="ssr:stedsnr" v="693552" />
	</node>
	<node id="-241781" lat="60.0582750034" lon="10.178286116">
		<tag k="name" v="Strandvika" />
		<tag k="natural" v="bay" />
		<tag k="ssr:stedsnr" v="693549" />
	</node>
	<node id="-241780" lat="60.0661833365" lon="10.1895027728">
		<tag k="name" v="Øvre Leine" />
		<tag k="place" v="farm" />
		<tag k="ssr:stedsnr" v="693547" />
	</node>
	<node id="-241779" lat="60.0620888864" lon="10.1983333245">
		<tag k="name" v="Nylendet" />
		<tag k="place" v="farm" />
		<tag k="ssr:stedsnr" v="693545" />
	</node>
	<node id="-241778" lat="60.0623777796" lon="10.2770083323">
		<tag k="alt_name" v="Fekjærtangen" />
		<tag k="name" v="Fetjartangen" />
		<tag k="natural" v="cape" />
		<tag k="ssr:stedsnr" v="692641" />
	</node>
	<node id="-241777" lat="60.1162728352" lon="10.2899224209">
		<tag k="name" v="Vestigardsbekken" />
		<tag k="ssr:stedsnr" v="692347" />
		<tag k="waterway" v="stream" />
	</node>
	<node id="-241776" lat="60.0440916693" lon="10.3542138821">
		<tag k="alt_name" v="Torgseterhøgda" />
		<tag k="fixme" v="consider natural=peak for the most distinct mountains in the district" />
		<tag k="name" v="Torgeseterhøgda" />
		<tag k="natural" v="hill" />
		<tag k="place" v="locality" />
		<tag k="ssr:stedsnr" v="538971" />
	</node>
	<node id="-241775" lat="59.9595777781" lon="10.3401222156">
		<tag k="name" v="Rotaryhytta" />
		<tag k="place" v="isolated_dwelling" />
		<tag k="ssr:stedsnr" v="690634" />
	</node>
	<node id="-241774" lat="60.0378083308" lon="10.4467805533">
		<tag k="name" v="Kampesetervika" />
		<tag k="natural" v="bay" />
		<tag k="ssr:stedsnr" v="512027" />
	</node>
	<node id="-241773" lat="60.0690257402" lon="10.2636132586">
		<tag k="name" v="Flata" />
		<tag k="place" v="farm" />
		<tag k="ssr:stedsnr" v="511882" />
	</node>
	<node id="-241772" lat="60.0197583294" lon="10.4045499961">
		<tag k="name" v="Soterudsetrene" />
		<tag k="place" v="locality" />
		<tag k="ssr:stedsnr" v="511067" />
	</node>
	<node id="-241771" lat="60.1223555522" lon="10.3025138824">
		<tag k="name" v="Åserud" />
		<tag k="place" v="farm" />
		<tag k="ssr:stedsnr" v="510453" />
	</node>
	<node id="-241770" lat="60.0429204006" lon="10.3114272277">
		<tag k="name" v="Abboråsbekken" />
		<tag k="ssr:stedsnr" v="509529" />
		<tag k="waterway" v="stream" />
	</node>
	<node id="-241769" lat="60.0343749999" lon="10.3629000087">
		<tag k="fixme" v="consider natural=peak for the most distinct mountains in the district" />
		<tag k="name" v="Øskjevallsbrenna" />
		<tag k="natural" v="hill" />
		<tag k="place" v="locality" />
		<tag k="ssr:stedsnr" v="673948" />
	</node>
	<node id="-241768" lat="60.0182111106" lon="10.4240416665">
		<tag k="fixme" v="consider natural=peak for the most distinct mountains in the district" />
		<tag k="name" v="Soterudleiken" />
		<tag k="natural" v="hill" />
		<tag k="place" v="locality" />
		<tag k="ssr:stedsnr" v="673921" />
	</node>
	<node id="-241767" lat="60.0546249983" lon="10.4563388852">
		<tag k="fixme" v="consider natural=peak for the most distinct mountains in the district" />
		<tag k="name" v="Kattjernåsen" />
		<tag k="natural" v="hill" />
		<tag k="place" v="locality" />
		<tag k="ssr:stedsnr" v="673216" />
	</node>
	<node id="-241766" lat="60.0115760143" lon="10.4154207422">
		<tag k="name" v="Ristjern" />
		<tag k="natural" v="water" />
		<tag k="ssr:stedsnr" v="672885" />
	</node>
	<node id="-241765" lat="60.1092166628" lon="10.2767000044">
		<tag k="fixme" v="consider place=hamlet" />
		<tag k="name" v="Bjørnstad" />
		<tag k="place" v="farm" />
		<tag k="ssr:stedsnr" v="672740" />
	</node>
	<node id="-241764" lat="60.1012498562" lon="10.2961308371">
		<tag k="fixme" v="consider place=hamlet" />
		<tag k="name" v="Stein" />
		<tag k="place" v="farm" />
		<tag k="ssr:stedsnr" v="672718" />
	</node>
	<node id="-241763" lat="60.1157749978" lon="10.2928305634">
		<tag k="name" v="Hårum" />
		<tag k="place" v="farm" />
		<tag k="ssr:stedsnr" v="672674" />
	</node>
	<node id="-241762" lat="60.0457888846" lon="10.2795833309">
		<tag k="name" v="Manaskardbekken" />
		<tag k="ssr:stedsnr" v="672343" />
		<tag k="waterway" v="stream" />
	</node>
	<node id="-241761" lat="60.0485361152" lon="10.3403666634">
		<tag k="alt_name" v="Bønnerudtjernet" />
		<tag k="name" v="Bønnerudtjern" />
		<tag k="natural" v="water" />
		<tag k="ssr:stedsnr" v="672340" />
	</node>
	<node id="-241760" lat="60.0576333323" lon="10.3252361173">
		<tag k="name" v="Nordkleiva" />
		<tag k="natural" v="slope" />
		<tag k="place" v="locality" />
		<tag k="ssr:stedsnr" v="672326" />
	</node>
	<node id="-241759" lat="60.0558138847" lon="10.2174500078">
		<tag k="name" v="Store Svartøya" />
		<tag k="place" v="island" />
		<tag k="ssr:stedsnr" v="672320" />
	</node>
	<node id="-241758" lat="60.0574777789" lon="10.2250916676">
		<tag k="name" v="Lille Svartøya" />
		<tag k="place" v="island" />
		<tag k="ssr:stedsnr" v="672319" />
	</node>
	<node id="-241757" lat="60.0594555563" lon="10.2592555591">
		<tag k="name" v="Storøysundet" />
		<tag k="natural" v="strait" />
		<tag k="ssr:stedsnr" v="672316" />
	</node>
	<node id="-241756" lat="60.0790805515" lon="10.304383325">
		<tag k="name" v="Braksøya" />
		<tag k="place" v="island" />
		<tag k="ssr:stedsnr" v="672273" />
	</node>
	<node id="-241755" lat="60.0930941788" lon="10.2030240242">
		<tag k="name" v="Frøyshov" />
		<tag k="place" v="farm" />
		<tag k="ssr:stedsnr" v="672256" />
	</node>
	<node id="-241754" lat="60.0890027789" lon="10.2150666648">
		<tag k="name" v="Frøyhov" />
		<tag k="old_name" v="Frøyshov" />
		<tag k="place" v="farm" />
		<tag k="ssr:stedsnr" v="672253" />
	</node>
	<node id="-241753" lat="60.0659067148" lon="10.2800307344">
		<tag k="alt_name" v="Fekjær" />
		<tag k="fixme" v="consider place=hamlet" />
		<tag k="name" v="Fetjar" />
		<tag k="old_name" v="Fækjær;Fekjer" />
		<tag k="place" v="farm" />
		<tag k="ssr:stedsnr" v="672247" />
	</node>
	<node id="-241752" lat="60.0752027765" lon="10.2502499935">
		<tag k="name" v="Sandvika" />
		<tag k="place" v="isolated_dwelling" />
		<tag k="ssr:stedsnr" v="672238" />
	</node>
	<node id="-241751" lat="60.0715305585" lon="10.2605499944">
		<tag k="name" v="Borgen" />
		<tag k="place" v="farm" />
		<tag k="ssr:stedsnr" v="672235" />
	</node>
	<node id="-241750" lat="59.9934777742" lon="10.2875916624">
		<tag k="alt_name" v="Skjelegarden" />
		<tag k="name" v="Skjellegård" />
		<tag k="place" v="farm" />
		<tag k="ssr:stedsnr" v="671459" />
	</node>
	<node id="-241749" lat="59.9638583301" lon="10.3456555528">
		<tag k="name" v="Sollihøgda" />
		<tag k="old_name" v="Solihøjden" />
		<tag k="place" v="village" />
		<tag k="ssr:stedsnr" v="671044" />
	</node>
	<node id="-241748" lat="59.9700249986" lon="10.3601638858">
		<tag k="name" v="Niskinn" />
		<tag k="place" v="farm" />
		<tag k="ssr:stedsnr" v="671033" />
	</node>
	<node id="-241747" lat="60.0749055557" lon="10.1692111123">
		<tag k="name" v="Langløkka" />
		<tag k="place" v="farm" />
		<tag k="ssr:stedsnr" v="451828" />
	</node>
	<node id="-241746" lat="60.104674999" lon="10.2996472134">
		<tag k="name" v="Storren" />
		<tag k="natural" v="wetland" />
		<tag k="ssr:stedsnr" v="451702" />
	</node>
	<node id="-241745" lat="60.0432333311" lon="10.4081722151">
		<tag k="name" v="Rosentorvmyra" />
		<tag k="natural" v="wetland" />
		<tag k="ssr:stedsnr" v="451029" />
	</node>
	<node id="-241744" lat="60.0654972243" lon="10.3781805614">
		<tag k="alt_name" v="Fjellsetrene" />
		<tag k="historic" v="shieling" />
		<tag k="name" v="Fjellsetra" />
		<tag k="place" v="locality" />
		<tag k="ssr:stedsnr" v="660213" />
	</node>
	<node id="-241743" lat="60.0408416685" lon="10.4240638813">
		<tag k="fixme" v="consider natural=peak for the most distinct mountains in the district" />
		<tag k="name" v="Brennåsen" />
		<tag k="natural" v="hill" />
		<tag k="place" v="locality" />
		<tag k="ssr:stedsnr" v="430403" />
	</node>
	<node id="-241742" lat="60.0901722576" lon="10.3450660143">
		<tag k="fixme" v="consider place=hamlet" />
		<tag k="name" v="Steinsetra" />
		<tag k="old_name" v="Steinsæteren" />
		<tag k="place" v="farm" />
		<tag k="ssr:stedsnr" v="430128" />
	</node>
	<node id="-241741" lat="60.1011844189" lon="10.211643378">
		<tag k="fixme" v="consider place=hamlet" />
		<tag k="name" v="Helgeland" />
		<tag k="place" v="farm" />
		<tag k="ssr:stedsnr" v="429723" />
	</node>
	<node id="-241740" lat="60.0675027769" lon="10.3035499958">
		<tag k="name" v="Pålsøya" />
		<tag k="place" v="island" />
		<tag k="ssr:stedsnr" v="429312" />
	</node>
	<node id="-241739" lat="60.0775388922" lon="10.1935222308">
		<tag k="name" v="Røysetangen" />
		<tag k="natural" v="cape" />
		<tag k="ssr:stedsnr" v="429237" />
	</node>
	<node id="-241738" lat="59.9784138891" lon="10.3403861114">
		<tag k="name" v="Løkenmyra" />
		<tag k="place" v="locality" />
		<tag k="ssr:stedsnr" v="428448" />
	</node>
	<node id="-241737" lat="60.0486111097" lon="10.1834333351">
		<tag k="name" v="Auredjupet" />
		<tag k="natural" v="shoal" />
		<tag k="place" v="locality" />
		<tag k="ssr:stedsnr" v="512756" />
	</node>
	<node id="-241736" lat="60.1196805544" lon="10.3102472189">
		<tag k="name" v="Myrabekken" />
		<tag k="ssr:stedsnr" v="512723" />
		<tag k="waterway" v="stream" />
	</node>
	<node id="-241735" lat="60.0922638859" lon="10.2652999981">
		<tag k="name" v="Sønsteby" />
		<tag k="place" v="farm" />
		<tag k="ssr:stedsnr" v="512722" />
	</node>
	<node id="-241734" lat="60.1043249982" lon="10.3027249932">
		<tag k="name" v="Gruvika" />
		<tag k="natural" v="bay" />
		<tag k="ssr:stedsnr" v="512716" />
	</node>
	<node id="-241733" lat="59.9947138889" lon="10.2908666661">
		<tag k="name" v="Bråtan" />
		<tag k="place" v="hamlet" />
		<tag k="ssr:stedsnr" v="512388" />
	</node>
	<node id="-241732" lat="59.9817527797" lon="10.317388891">
		<tag k="name" v="Utsikten" />
		<tag k="natural" v="hill" />
		<tag k="place" v="locality" />
		<tag k="ssr:stedsnr" v="512343" />
	</node>
	<node id="-241731" lat="60.0857194422" lon="10.2090805541">
		<tag k="name" v="Øvre Fjelstad" />
		<tag k="place" v="farm" />
		<tag k="ssr:stedsnr" v="511971" />
	</node>
	<node id="-241730" lat="60.0871593818" lon="10.2912206604">
		<tag k="name" v="Rudshagan" />
		<tag k="place" v="farm" />
		<tag k="ssr:stedsnr" v="511916" />
	</node>
	<node id="-241729" lat="60.070602782" lon="10.2570861118">
		<tag k="name" v="Borgen" />
		<tag k="place" v="farm" />
		<tag k="ssr:stedsnr" v="511733" />
	</node>
	<node id="-241728" lat="60.1051777749" lon="10.2199055585">
		<tag k="name" v="Skog" />
		<tag k="place" v="farm" />
		<tag k="ssr:stedsnr" v="511650" />
	</node>
	<node id="-241727" lat="60.0959722236" lon="10.2238388894">
		<tag k="name" v="Klokkerplassen" />
		<tag k="place" v="farm" />
		<tag k="ssr:stedsnr" v="511601" />
	</node>
	<node id="-241726" lat="60.0944166654" lon="10.2087277762">
		<tag k="name" v="Bredvoll" />
		<tag k="place" v="farm" />
		<tag k="ssr:stedsnr" v="511656" />
	</node>
	<node id="-241725" lat="60.1243358352" lon="10.30837968">
		<tag k="fixme" v="consider place=hamlet" />
		<tag k="name" v="Hårum" />
		<tag k="old_name" v="Haarum" />
		<tag k="place" v="farm" />
		<tag k="ssr:stedsnr" v="509898" />
	</node>
	<node id="-241724" lat="60.0167694469" lon="10.4342972174">
		<tag k="name" v="Byvasselva" />
		<tag k="ssr:stedsnr" v="507969" />
		<tag k="waterway" v="stream" />
	</node>
	<node id="-241723" lat="60.0873022367" lon="10.2678107929">
		<tag k="name" v="Halvorsbråtan" />
		<tag k="place" v="farm" />
		<tag k="ssr:stedsnr" v="391660" />
	</node>
	<node id="-241722" lat="60.0992555516" lon="10.2919861108">
		<tag k="name" v="Brynhildshaugen" />
		<tag k="place" v="locality" />
		<tag k="ssr:stedsnr" v="390665" />
	</node>
	<node id="-241721" lat="60.0561055579" lon="10.2540972139">
		<tag k="name" v="Telefontangen" />
		<tag k="natural" v="cape" />
		<tag k="ssr:stedsnr" v="390559" />
	</node>
	<node id="-241720" lat="59.9776527776" lon="10.3267527722">
		<tag k="name" v="Skjærebenken" />
		<tag k="natural" v="hill" />
		<tag k="place" v="locality" />
		<tag k="ssr:stedsnr" v="390265" />
	</node>
	<node id="-241719" lat="60.0008444461" lon="10.2725833341">
		<tag k="fixme" v="verify maritime location" />
		<tag k="mooring" v="yes" />
		<tag k="name" v="Dalakøya" />
		<tag k="place" v="locality" />
		<tag k="ssr:stedsnr" v="390355" />
	</node>
	<node id="-241718" lat="59.9762805548" lon="10.3122611057">
		<tag k="name" v="Geiterenna" />
		<tag k="ssr:stedsnr" v="390317" />
		<tag k="waterway" v="stream" />
	</node>
	<node id="-241717" lat="60.0836972251" lon="10.2491055482">
		<tag k="name" v="Hunangen" />
		<tag k="place" v="farm" />
		<tag k="ssr:stedsnr" v="389969" />
	</node>
	<node id="-241716" lat="60.0851194479" lon="10.2529833326">
		<tag k="name" v="Kjellerberget" />
		<tag k="natural" v="hill" />
		<tag k="place" v="locality" />
		<tag k="ssr:stedsnr" v="389767" />
	</node>
	<node id="-241715" lat="60.0768972192" lon="10.2137083362">
		<tag k="amenity" v="nursing_home" />
		<tag k="name" v="Pleiehjem" />
		<tag k="ssr:stedsnr" v="389759" />
	</node>
	<node id="-241714" lat="60.0334055539" lon="10.3828111147">
		<tag k="name" v="Øskjevallbakkane" />
		<tag k="natural" v="slope" />
		<tag k="place" v="locality" />
		<tag k="ssr:stedsnr" v="390012" />
	</node>
	<node id="-241713" lat="60.0653777784" lon="10.2682166599">
		<tag k="name" v="Bjørketangen" />
		<tag k="natural" v="cape" />
		<tag k="ssr:stedsnr" v="389674" />
	</node>
	<node id="-241712" lat="60.0940749982" lon="10.3983083345">
		<tag k="name" v="Store Lomma" />
		<tag k="ssr:stedsnr" v="491244" />
		<tag k="waterway" v="river" />
	</node>
	<node id="-241711" lat="60.0503055569" lon="10.4083972311">
		<tag k="fixme" v="consider natural=peak for the most distinct mountains in the district" />
		<tag k="name" v="Dåstjernbrenna" />
		<tag k="natural" v="hill" />
		<tag k="place" v="locality" />
		<tag k="ssr:stedsnr" v="491197" />
	</node>
	<node id="-241710" lat="60.0998138865" lon="10.3153111103">
		<tag k="name" v="Maurøya" />
		<tag k="place" v="island" />
		<tag k="ssr:stedsnr" v="490731" />
	</node>
	<node id="-241709" lat="60.1111222234" lon="10.2981805489">
		<tag k="name" v="Hårum" />
		<tag k="place" v="farm" />
		<tag k="ssr:stedsnr" v="490412" />
	</node>
	<node id="-241708" lat="60.0468503789" lon="10.3214669052">
		<tag k="name" v="Kleivstua" />
		<tag k="ssr:stedsnr" v="490358" />
		<tag k="tourism" v="hotel" />
	</node>
	<node id="-241707" lat="60.0626861111" lon="10.3072833251">
		<tag k="fixme" v="consider place=suburb, village or hamlet" />
		<tag k="name" v="Sundvollen" />
		<tag k="place" v="quarter" />
		<tag k="ssr:stedsnr" v="490334" />
	</node>
	<node id="-241706" lat="60.0423906128" lon="10.3419222845">
		<tag k="name" v="Torget" />
		<tag k="place" v="farm" />
		<tag k="ssr:stedsnr" v="490313" />
	</node>
	<node id="-241705" lat="60.0355416624" lon="10.3233805611">
		<tag k="historic" v="shieling" />
		<tag k="name" v="Nordsetra" />
		<tag k="place" v="locality" />
		<tag k="ssr:stedsnr" v="490312" />
	</node>
	<node id="-241704" lat="60.0786583326" lon="10.3359111172">
		<tag k="name" v="Baserud" />
		<tag k="place" v="farm" />
		<tag k="ssr:stedsnr" v="490290" />
	</node>
	<node id="-241703" lat="60.0923388859" lon="10.3139333244">
		<tag k="name" v="Tjuvholmen" />
		<tag k="place" v="island" />
		<tag k="ssr:stedsnr" v="490274" />
	</node>
	<node id="-241702" lat="60.0932083366" lon="10.2182361163">
		<tag k="name" v="Libakke" />
		<tag k="place" v="farm" />
		<tag k="ssr:stedsnr" v="490264" />
	</node>
	<node id="-241701" lat="60.0646750033" lon="10.2900500046">
		<tag k="name" v="Rudsøgarden" />
		<tag k="place" v="farm" />
		<tag k="ssr:stedsnr" v="490260" />
	</node>
	<node id="-241700" lat="60.0408749616" lon="10.3598023373">
		<tag k="alt_name" v="Stormyrtjernet" />
		<tag k="name" v="Stormyrtjern" />
		<tag k="natural" v="water" />
		<tag k="old_name" v="Stormyr Tj." />
		<tag k="ssr:stedsnr" v="490970" />
	</node>
	<node id="-241699" lat="59.9831416647" lon="10.3658055592">
		<tag k="alt_name" v="Kallåsen" />
		<tag k="fixme" v="consider natural=peak for the most distinct mountains in the district" />
		<tag k="name" v="Kaloåsen" />
		<tag k="natural" v="hill" />
		<tag k="place" v="locality" />
		<tag k="ssr:stedsnr" v="489124" />
	</node>
	<node id="-241698" lat="60.0872492147" lon="10.2624013543">
		<tag k="name" v="Jenserud" />
		<tag k="place" v="farm" />
		<tag k="ssr:stedsnr" v="331640" />
	</node>
	<node id="-241697" lat="60.0760424986" lon="10.2623569926">
		<tag k="name" v="Østeng" />
		<tag k="place" v="farm" />
		<tag k="ssr:stedsnr" v="331629" />
	</node>
	<node id="-241696" lat="60.0815829878" lon="10.280275023">
		<tag k="fixme" v="consider place=hamlet" />
		<tag k="name" v="Vik" />
		<tag k="place" v="farm" />
		<tag k="ssr:stedsnr" v="331628" />
	</node>
	<node id="-241695" lat="60.060733332" lon="10.2027527773">
		<tag k="amenity" v="community_centre" />
		<tag k="name" v="Malerstua" />
		<tag k="ssr:stedsnr" v="330617" />
	</node>
	<node id="-241694" lat="60.0887749972" lon="10.1874138949">
		<tag k="name" v="Teigen" />
		<tag k="place" v="farm" />
		<tag k="ssr:stedsnr" v="329714" />
	</node>
	<node id="-241693" lat="60.048783337" lon="10.4635416729">
		<tag k="name" v="Gullikskollen" />
		<tag k="natural" v="valley" />
		<tag k="place" v="locality" />
		<tag k="ssr:stedsnr" v="329003" />
	</node>
	<node id="-241692" lat="59.9927694411" lon="10.3014388807">
		<tag k="bridge" v="yes" />
		<tag k="layer" v="1" />
		<tag k="name" v="Sønsterud" />
		<tag k="ssr:stedsnr" v="471791" />
	</node>
	<node id="-241691" lat="59.989813891" lon="10.3647722285">
		<tag k="name" v="Rønningsbekken" />
		<tag k="ssr:stedsnr" v="307104" />
		<tag k="waterway" v="stream" />
	</node>
	<node id="-241690" lat="60.0014233257" lon="10.277664459">
		<tag k="fixme" v="consider place=hamlet" />
		<tag k="name" v="Nes" />
		<tag k="place" v="farm" />
		<tag k="ssr:stedsnr" v="301808" />
	</node>
	<node id="-241689" lat="60.077927778" lon="10.28656944">
		<tag k="bridge" v="yes" />
		<tag k="layer" v="1" />
		<tag k="name" v="Garntangen" />
		<tag k="ssr:stedsnr" v="288764" />
	</node>
	<node id="-241688" lat="60.0801947212" lon="10.2818011224">
		<tag k="name" v="Vik gjestgiveri" />
		<tag k="old_name" v="Vik gjestegiveri" />
		<tag k="place" v="locality" />
		<tag k="ssr:stedsnr" v="269924" />
	</node>
	<node id="-241687" lat="60.096877774" lon="10.1842638888">
		<tag k="name" v="Rundtom" />
		<tag k="place" v="isolated_dwelling" />
		<tag k="ssr:stedsnr" v="269657" />
	</node>
	<node id="-241686" lat="60.0906888849" lon="10.2641361175">
		<tag k="name" v="Storbråtan" />
		<tag k="place" v="farm" />
		<tag k="ssr:stedsnr" v="269712" />
	</node>
	<node id="-241685" lat="59.9822083305" lon="10.3109888911">
		<tag k="name" v="Lauvkastet" />
		<tag k="natural" v="slope" />
		<tag k="place" v="locality" />
		<tag k="ssr:stedsnr" v="269322" />
	</node>
	<node id="-241684" lat="60.0700027743" lon="10.1907527745">
		<tag k="leisure" v="park" />
		<tag k="name" v="Røyseparken" />
		<tag k="ssr:stedsnr" v="268854" />
	</node>
	<node id="-241683" lat="60.0943277768" lon="10.2114777824">
		<tag k="name" v="Kirkenær" />
		<tag k="place" v="farm" />
		<tag k="ssr:stedsnr" v="268663" />
	</node>
	<node id="-241682" lat="60.0653749955" lon="10.4004027828">
		<tag k="name" v="Elgsmyr" />
		<tag k="natural" v="wetland" />
		<tag k="ssr:stedsnr" v="269105" />
	</node>
	<node id="-241681" lat="60.1179472255" lon="10.2822833398">
		<tag k="name" v="Vangen" />
		<tag k="place" v="farm" />
		<tag k="ssr:stedsnr" v="268365" />
	</node>
	<node id="-241680" lat="59.9773611103" lon="10.3690194442">
		<tag k="fixme" v="consider natural=peak for the most distinct mountains in the district" />
		<tag k="name" v="Bjørnetjernåsen" />
		<tag k="natural" v="hill" />
		<tag k="place" v="locality" />
		<tag k="ssr:stedsnr" v="452264" />
	</node>
	<node id="-241679" lat="60.088095593" lon="10.2865201638">
		<tag k="amenity" v="community_centre" />
		<tag k="name" v="Rudvang" />
		<tag k="ssr:stedsnr" v="451932" />
	</node>
	<node id="-241678" lat="60.0960638849" lon="10.2713944518">
		<tag k="name" v="Bekkebråtan" />
		<tag k="place" v="farm" />
		<tag k="ssr:stedsnr" v="451696" />
	</node>
	<node id="-241677" lat="60.064500004" lon="10.2570666659">
		<tag k="name" v="Klaserud" />
		<tag k="place" v="locality" />
		<tag k="ssr:stedsnr" v="451593" />
	</node>
	<node id="-241676" lat="60.0644833312" lon="10.1973972148">
		<tag k="name" v="Sandhaugen" />
		<tag k="place" v="farm" />
		<tag k="ssr:stedsnr" v="451544" />
	</node>
	<node id="-241675" lat="60.0657638891" lon="10.1970166585">
		<tag k="name" v="Jurpland" />
		<tag k="place" v="farm" />
		<tag k="ssr:stedsnr" v="451542" />
	</node>
	<node id="-241674" lat="59.96982222" lon="10.3551249955">
		<tag k="historic" v="shieling" />
		<tag k="name" v="Sørumsetra" />
		<tag k="place" v="locality" />
		<tag k="ssr:stedsnr" v="451299" />
	</node>
	<node id="-241673" lat="59.9805611074" lon="10.3331111022">
		<tag k="name" v="Kjerringhaugen" />
		<tag k="natural" v="hill" />
		<tag k="place" v="locality" />
		<tag k="ssr:stedsnr" v="451296" />
	</node>
	<node id="-241672" lat="59.9815166662" lon="10.3103527763">
		<tag k="name" v="Furuhaugen" />
		<tag k="place" v="isolated_dwelling" />
		<tag k="ssr:stedsnr" v="451354" />
	</node>
	<node id="-241671" lat="60.0820388906" lon="10.2014472251">
		<tag k="name" v="Vestjordet" />
		<tag k="place" v="locality" />
		<tag k="ssr:stedsnr" v="450993" />
	</node>
	<node id="-241670" lat="60.0838472222" lon="10.2307416709">
		<tag k="name" v="Gunnhaug" />
		<tag k="place" v="farm" />
		<tag k="ssr:stedsnr" v="450986" />
	</node>
	<node id="-241669" lat="60.0164777783" lon="10.263997225">
		<tag k="name" v="Portebakken" />
		<tag k="place" v="hamlet" />
		<tag k="ssr:stedsnr" v="450481" />
	</node>
	<node id="-241668" lat="60.0137138931" lon="10.3083194461">
		<tag k="name" v="Nylandsmyra" />
		<tag k="natural" v="wetland" />
		<tag k="ssr:stedsnr" v="450477" />
	</node>
	<node id="-241667" lat="60.0362440199" lon="10.3381100536">
		<tag k="name" v="Svarttjern" />
		<tag k="natural" v="water" />
		<tag k="ssr:stedsnr" v="449440" />
	</node>
	<node id="-241666" lat="60.0390652436" lon="10.2717558408">
		<tag k="name" v="Høgkastet" />
		<tag k="place" v="isolated_dwelling" />
		<tag k="ssr:stedsnr" v="247301" />
	</node>
	<node id="-241665" lat="60.0869500026" lon="10.2317249911">
		<tag k="alt_name" v="Lille By" />
		<tag k="name" v="Lilleby" />
		<tag k="place" v="farm" />
		<tag k="ssr:stedsnr" v="247289" />
	</node>
</osm>
