<?xml version="1.0" encoding="UTF-8"?>
<<<<<<< HEAD
<osm version="0.6" generator="osmapis">
	<node lat="60.06955996719103" lon="10.237387874153486" id="-13514">
		<tag k="fixme" v="consider boundary=protected_area and relevant protect_class if not nature reserve" />
		<tag k="leisure" v="nature_reserve" />
		<tag k="name" v="Storøysundet - Sælabonn naturreservat" />
		<tag k="ssr:stedsnr" v="985403" />
	</node>
	<node lat="60.09741542766047" lon="10.302669310790344" id="-13515">
		<tag k="fixme" v="consider boundary=protected_area and relevant protect_class if not nature reserve" />
		<tag k="leisure" v="nature_reserve" />
		<tag k="name" v="Steinsfjorden biotopvernområde" />
		<tag k="ssr:stedsnr" v="985404" />
	</node>
	<node lat="60.100285780860865" lon="10.303114474072498" id="-13516">
		<tag k="fixme" v="consider boundary=protected_area and relevant protect_class if not nature reserve" />
		<tag k="leisure" v="nature_reserve" />
		<tag k="name" v="Steinsvika naturreservat" />
		<tag k="ssr:stedsnr" v="985405" />
	</node>
	<node lat="59.97164144693468" lon="10.40524333289964" id="-13547">
=======
<osm generator="osmapis" version="0.6">
	<node id="-269744" lat="60.0974154277" lon="10.3026693108">
		<tag k="fixme" v="consider boundary=protected_area and relevant protect_class if not nature reserve" />
		<tag k="leisure" v="nature_reserve" />
		<tag k="name" v="Steinsfjorden biotopvernområde" />
		<tag k="ssr:stedsnr" v="985404" />
	</node>
	<node id="-269783" lat="60.0644394974" lon="10.4557065488">
		<tag k="fixme" v="consider boundary=protected_area and relevant protect_class if not nature reserve" />
		<tag k="leisure" v="nature_reserve" />
		<tag k="name" v="Krokskogen naturreservat" />
		<tag k="ssr:stedsnr" v="987926" />
	</node>
	<node id="-269430" lat="59.9718194428" lon="10.4046527743">
>>>>>>> e1d4bc35ff8a6074a6f2e91616a996b547c36f15
		<tag k="fixme" v="consider boundary=protected_area and relevant protect_class if not nature reserve" />
		<tag k="leisure" v="nature_reserve" />
		<tag k="name" v="Djupdalen og Kjaglidalen naturreservat" />
		<tag k="ssr:stedsnr" v="60491" />
	</node>
<<<<<<< HEAD
	<node lat="60.01909722347581" lon="10.260360163329924" id="-13853">
=======
	<node id="-269746" lat="60.0190972235" lon="10.2603601633">
>>>>>>> e1d4bc35ff8a6074a6f2e91616a996b547c36f15
		<tag k="fixme" v="consider boundary=protected_area and relevant protect_class if not nature reserve" />
		<tag k="leisure" v="nature_reserve" />
		<tag k="name" v="Lienskjæret biotopvernområde" />
		<tag k="ssr:stedsnr" v="985414" />
	</node>
<<<<<<< HEAD
	<node lat="60.06443949735676" lon="10.455706548788957" id="-13855">
		<tag k="fixme" v="consider boundary=protected_area and relevant protect_class if not nature reserve" />
		<tag k="leisure" v="nature_reserve" />
		<tag k="name" v="Krokskogen naturreservat" />
		<tag k="ssr:stedsnr" v="987926" />
	</node>
	<node lat="60.123037358213686" lon="10.227069121543462" id="-13884">
=======
	<node id="-269745" lat="60.1002857809" lon="10.3031144741">
		<tag k="fixme" v="consider boundary=protected_area and relevant protect_class if not nature reserve" />
		<tag k="leisure" v="nature_reserve" />
		<tag k="name" v="Steinsvika naturreservat" />
		<tag k="ssr:stedsnr" v="985405" />
	</node>
	<node id="-269776" lat="60.1230373582" lon="10.2270691215">
		<tag k="fixme" v="consider boundary=protected_area and relevant protect_class if not nature reserve" />
		<tag k="leisure" v="nature_reserve" />
		<tag k="name" v="Nordre Tyrifjorden og Storelva naturreservat" />
		<tag k="ssr:stedsnr" v="1076535" />
	</node>
	<node id="-269743" lat="60.0695599672" lon="10.2373878742">
>>>>>>> e1d4bc35ff8a6074a6f2e91616a996b547c36f15
		<tag k="fixme" v="consider boundary=protected_area and relevant protect_class if not nature reserve" />
		<tag k="leisure" v="nature_reserve" />
		<tag k="name" v="Nordre Tyrifjorden og Storelva naturreservat" />
		<tag k="ssr:stedsnr" v="1076535" />
	</node>
</osm>
