<?xml version="1.0" encoding="UTF-8"?>
<<<<<<< HEAD
<osm version="0.6" generator="osmapis">
	<node lat="60.095938887815656" lon="10.236402771273033" id="-13259">
		<tag k="amenity" v="community_centre" />
		<tag k="name" v="Moholt" />
		<tag k="ssr:stedsnr" v="208702" />
	</node>
	<node lat="60.080194721204435" lon="10.28180112237032" id="-13301">
		<tag k="name" v="Vik gjestgiveri" />
		<tag k="old_name" v="Vik gjestegiveri" />
		<tag k="place" v="locality" />
		<tag k="ssr:stedsnr" v="269924" />
	</node>
	<node lat="60.06073333204327" lon="10.202752777342614" id="-13318">
		<tag k="amenity" v="community_centre" />
		<tag k="name" v="Malerstua" />
		<tag k="ssr:stedsnr" v="330617" />
	</node>
	<node lat="60.04906944610987" lon="10.321038890142301" id="-13336">
		<tag k="name" v="Dronningens utsikt" />
		<tag k="ssr:stedsnr" v="404191" />
		<tag k="tourism" v="viewpoint" />
	</node>
	<node lat="60.08809559298669" lon="10.28652016382042" id="-13356">
		<tag k="amenity" v="community_centre" />
		<tag k="name" v="Rudvang" />
		<tag k="ssr:stedsnr" v="451932" />
	</node>
	<node lat="60.105380553196206" lon="10.290236114961527" id="-13494">
		<tag k="name" v="Gygerputten" />
		<tag k="place" v="locality" />
		<tag k="ssr:stedsnr" v="876709" />
	</node>
	<node lat="60.09783333178774" lon="10.216230563410347" id="-13530">
=======
<osm generator="osmapis" version="0.6">
	<node id="-269277" lat="60.0602817303" lon="10.1958380745">
		<tag k="alt_name" v="Bønsnes" />
		<tag k="amenity" v="place_of_worship" />
		<tag k="denomination" v="lutheran" />
		<tag k="name" v="Bønsnes kirke" />
		<tag k="old_name" v="Bønsnæs" />
		<tag k="religion" v="christian" />
		<tag k="ssr:stedsnr" v="611359" />
	</node>
	<node id="-269404" lat="60.0978333318" lon="10.2162305634">
>>>>>>> e1d4bc35ff8a6074a6f2e91616a996b547c36f15
		<tag k="alt_name" v="Hole" />
		<tag k="amenity" v="place_of_worship" />
		<tag k="denomination" v="lutheran" />
		<tag k="name" v="Hole kirke" />
		<tag k="religion" v="christian" />
		<tag k="ssr:stedsnr" v="4748" />
	</node>
<<<<<<< HEAD
	<node lat="60.053361115623" lon="10.323027775790594" id="-13562">
		<tag k="name" v="Kronprinsens utsikt" />
		<tag k="ssr:stedsnr" v="85442" />
		<tag k="tourism" v="viewpoint" />
	</node>
	<node lat="59.9665944475887" lon="10.348597215250368" id="-13591">
		<tag k="alt_name" v="Sollihøgda" />
		<tag k="amenity" v="place_of_worship" />
		<tag k="denomination" v="lutheran" />
		<tag k="name" v="Sollihøgda kapell" />
		<tag k="religion" v="christian" />
		<tag k="ssr:stedsnr" v="147298" />
	</node>
	<node lat="59.97711944132508" lon="10.313880555975866" id="-13619">
=======
	<node id="-269306" lat="60.1053805532" lon="10.290236115">
		<tag k="name" v="Gygerputten" />
		<tag k="place" v="locality" />
		<tag k="ssr:stedsnr" v="876709" />
	</node>
	<node id="-269721" lat="60.0759368844" lon="10.2675095617">
		<tag k="amenity" v="community_centre" />
		<tag k="name" v="Menighetshus" />
		<tag k="ssr:stedsnr" v="875924" />
	</node>
	<node id="-269524" lat="60.0959388878" lon="10.2364027713">
		<tag k="amenity" v="community_centre" />
		<tag k="name" v="Moholt" />
		<tag k="ssr:stedsnr" v="208702" />
	</node>
	<node id="-269526" lat="59.9771194413" lon="10.313880556">
>>>>>>> e1d4bc35ff8a6074a6f2e91616a996b547c36f15
		<tag k="amenity" v="community_centre" />
		<tag k="name" v="Fjellstua" />
		<tag k="ssr:stedsnr" v="209359" />
	</node>
<<<<<<< HEAD
	<node lat="60.03131880310628" lon="10.29000432942325" id="-13637">
		<tag k="name" v="Tjyruhjellen" />
		<tag k="place" v="locality" />
		<tag k="ssr:stedsnr" v="327499" />
	</node>
	<node lat="60.10492499821196" lon="10.29385555244708" id="-13641">
=======
	<node id="-269173" lat="60.060733332" lon="10.2027527773">
		<tag k="amenity" v="community_centre" />
		<tag k="name" v="Malerstua" />
		<tag k="ssr:stedsnr" v="330617" />
	</node>
	<node id="-269684" lat="60.0464416693" lon="10.2398749918">
		<tag k="name" v="Utsikten" />
		<tag k="ssr:stedsnr" v="755725" />
		<tag k="tourism" v="viewpoint" />
	</node>
	<node id="-269554" lat="60.1049249982" lon="10.2938555524">
>>>>>>> e1d4bc35ff8a6074a6f2e91616a996b547c36f15
		<tag k="name" v="Halvdanshaugen" />
		<tag k="place" v="locality" />
		<tag k="ssr:stedsnr" v="330736" />
	</node>
<<<<<<< HEAD
	<node lat="60.04945278081157" lon="10.308716673192656" id="-13650">
		<tag k="name" v="Kongens utsikt" />
		<tag k="ssr:stedsnr" v="369343" />
		<tag k="tourism" v="viewpoint" />
	</node>
	<node lat="60.05876111399555" lon="10.346355556583852" id="-13653">
		<tag k="name" v="St Olavs kilde" />
=======
	<node id="-269200" lat="60.0992555516" lon="10.2919861108">
		<tag k="name" v="Brynhildshaugen" />
		<tag k="place" v="locality" />
		<tag k="ssr:stedsnr" v="390665" />
	</node>
	<node id="-269166" lat="60.0801947212" lon="10.2818011224">
		<tag k="name" v="Vik gjestgiveri" />
		<tag k="old_name" v="Vik gjestegiveri" />
>>>>>>> e1d4bc35ff8a6074a6f2e91616a996b547c36f15
		<tag k="place" v="locality" />
		<tag k="ssr:stedsnr" v="388524" />
	</node>
<<<<<<< HEAD
	<node lat="60.099255551615016" lon="10.29198611075926" id="-13663">
		<tag k="name" v="Brynhildshaugen" />
=======
	<node id="-269581" lat="60.0490694461" lon="10.3210388901">
		<tag k="name" v="Dronningens utsikt" />
		<tag k="ssr:stedsnr" v="404191" />
		<tag k="tourism" v="viewpoint" />
	</node>
	<node id="-269548" lat="60.0313188031" lon="10.2900043294">
		<tag k="name" v="Tjyruhjellen" />
>>>>>>> e1d4bc35ff8a6074a6f2e91616a996b547c36f15
		<tag k="place" v="locality" />
		<tag k="ssr:stedsnr" v="327499" />
	</node>
<<<<<<< HEAD
	<node lat="60.06028173025375" lon="10.195838074522095" id="-13735">
		<tag k="alt_name" v="Bønsnes" />
		<tag k="amenity" v="place_of_worship" />
		<tag k="denomination" v="lutheran" />
		<tag k="name" v="Bønsnes kirke" />
		<tag k="old_name" v="Bønsnæs" />
		<tag k="religion" v="christian" />
		<tag k="ssr:stedsnr" v="611359" />
	</node>
	<node lat="60.046441669299114" lon="10.239874991819434" id="-13782">
		<tag k="name" v="Utsikten" />
		<tag k="ssr:stedsnr" v="755725" />
		<tag k="tourism" v="viewpoint" />
	</node>
	<node lat="60.07593688444682" lon="10.267509561687547" id="-13833">
		<tag k="amenity" v="community_centre" />
		<tag k="name" v="Menighetshus" />
		<tag k="ssr:stedsnr" v="875924" />
=======
	<node id="-269574" lat="60.058761114" lon="10.3463555566">
		<tag k="name" v="St Olavs kilde" />
		<tag k="place" v="locality" />
		<tag k="ssr:stedsnr" v="388524" />
	</node>
	<node id="-269484" lat="59.9665944476" lon="10.3485972153">
		<tag k="alt_name" v="Sollihøgda" />
		<tag k="amenity" v="place_of_worship" />
		<tag k="denomination" v="lutheran" />
		<tag k="name" v="Sollihøgda kapell" />
		<tag k="religion" v="christian" />
		<tag k="ssr:stedsnr" v="147298" />
	</node>
	<node id="-269126" lat="60.0578472198" lon="10.3136388975">
		<tag k="name" v="Kleivbekken" />
		<tag k="place" v="locality" />
		<tag k="ssr:stedsnr" v="145569" />
	</node>
	<node id="-269157" lat="60.088095593" lon="10.2865201638">
		<tag k="amenity" v="community_centre" />
		<tag k="name" v="Rudvang" />
		<tag k="ssr:stedsnr" v="451932" />
	</node>
	<node id="-269443" lat="60.0533611156" lon="10.3230277758">
		<tag k="name" v="Kronprinsens utsikt" />
		<tag k="ssr:stedsnr" v="85442" />
		<tag k="tourism" v="viewpoint" />
	</node>
	<node id="-269569" lat="60.0494527808" lon="10.3087166732">
		<tag k="name" v="Kongens utsikt" />
		<tag k="ssr:stedsnr" v="369343" />
		<tag k="tourism" v="viewpoint" />
>>>>>>> e1d4bc35ff8a6074a6f2e91616a996b547c36f15
	</node>
</osm>
