<?xml version="1.0" encoding="UTF-8"?>
<<<<<<< HEAD
<osm version="0.6" generator="osmapis">
	<node lat="59.98523018507661" lon="10.410986435316014" id="-13184">
		<tag k="alt_name" v="Langbru" />
		<tag k="fixme" v="consider place=hamlet" />
		<tag k="name" v="Langebru" />
		<tag k="place" v="farm" />
		<tag k="ssr:stedsnr" v="4113" />
	</node>
	<node lat="60.11769133023488" lon="10.28313827727341" id="-13185">
		<tag k="fixme" v="consider place=hamlet" />
		<tag k="name" v="Sonerud" />
		<tag k="place" v="farm" />
		<tag k="ssr:stedsnr" v="4705" />
	</node>
	<node lat="60.06648055520764" lon="10.297238894653367" id="-13187">
		<tag k="name" v="Kroksund" />
		<tag k="place" v="farm" />
		<tag k="ssr:stedsnr" v="5328" />
	</node>
	<node lat="60.01614866475026" lon="10.369000020743321" id="-13189">
		<tag k="historic" v="shieling" />
		<tag k="loc_name" v="Frøyshovsetra" />
		<tag k="name" v="Frøshaug" />
		<tag k="place" v="isolated_dwelling" />
		<tag k="ssr:stedsnr" v="5962" />
	</node>
	<node lat="60.03658333536482" lon="10.337044446025411" id="-13192">
		<tag k="name" v="Grantopp" />
		<tag k="place" v="isolated_dwelling" />
		<tag k="ssr:stedsnr" v="25488" />
	</node>
	<node lat="60.06283610714314" lon="10.183022217516854" id="-13199">
		<tag k="name" v="Søndre Leine" />
		<tag k="place" v="farm" />
		<tag k="ssr:stedsnr" v="26522" />
	</node>
	<node lat="60.056194126678676" lon="10.289891265282504" id="-13200">
		<tag k="name" v="Rørvik Camping" />
		<tag k="ssr:stedsnr" v="26612" />
		<tag k="tourism" v="camp_site" />
	</node>
	<node lat="60.06831667059125" lon="10.16682499199046" id="-13201">
		<tag k="name" v="Roaløkka" />
		<tag k="place" v="farm" />
		<tag k="ssr:stedsnr" v="26771" />
	</node>
	<node lat="60.0942777748948" lon="10.180233329043444" id="-13202">
		<tag k="name" v="Onsakervika Camping" />
		<tag k="ssr:stedsnr" v="34705" />
		<tag k="tourism" v="camp_site" />
	</node>
	<node lat="59.96865063276737" lon="10.329606967692188" id="-13204">
		<tag k="name" v="Myra" />
		<tag k="place" v="isolated_dwelling" />
		<tag k="ssr:stedsnr" v="64470" />
	</node>
	<node lat="60.122250000683835" lon="10.296450005458851" id="-13206">
		<tag k="alt_name" v="Veisten søndre" />
		<tag k="fixme" v="multiple name tags, choose one and add the other to alt_name" />
		<tag k="name" v="Kongelv;Veisten" />
		<tag k="place" v="farm" />
		<tag k="ssr:stedsnr" v="65698" />
	</node>
	<node lat="60.07931666541399" lon="10.203105549141483" id="-13211">
		<tag k="name" v="Sørdalen" />
		<tag k="place" v="farm" />
		<tag k="ssr:stedsnr" v="86982" />
	</node>
	<node lat="60.013583331795864" lon="10.385361116711733" id="-13213">
		<tag k="name" v="Hygga" />
		<tag k="place" v="isolated_dwelling" />
		<tag k="ssr:stedsnr" v="87074" />
	</node>
	<node lat="60.09419999890214" lon="10.272749999730285" id="-13214">
		<tag k="name" v="Bergebråtan" />
		<tag k="place" v="farm" />
		<tag k="ssr:stedsnr" v="87694" />
	</node>
	<node lat="60.07306666543926" lon="10.298613885489166" id="-13216">
		<tag k="name" v="Sundet" />
		<tag k="place" v="farm" />
		<tag k="ssr:stedsnr" v="89611" />
	</node>
	<node lat="60.07659328040567" lon="10.215928612110197" id="-13218">
		<tag k="name" v="Nøstret" />
		<tag k="place" v="farm" />
		<tag k="ssr:stedsnr" v="247244" />
	</node>
	<node lat="60.0692249997729" lon="10.198650007953473" id="-13219">
		<tag k="name" v="Mosenga" />
		<tag k="place" v="farm" />
		<tag k="ssr:stedsnr" v="247252" />
	</node>
	<node lat="60.039065243586684" lon="10.271755840792482" id="-13220">
		<tag k="name" v="Høgkastet" />
		<tag k="place" v="isolated_dwelling" />
		<tag k="ssr:stedsnr" v="247301" />
	</node>
	<node lat="60.013467617969674" lon="10.291724370782074" id="-13225">
		<tag k="historic" v="shieling" />
		<tag k="name" v="Nessetra" />
		<tag k="place" v="isolated_dwelling" />
		<tag k="ssr:stedsnr" v="248388" />
	</node>
	<node lat="60.01264721911779" lon="10.402669436082302" id="-13226">
		<tag k="name" v="Soterudhytta" />
		<tag k="place" v="isolated_dwelling" />
		<tag k="ssr:stedsnr" v="248891" />
	</node>
	<node lat="60.0293166627484" lon="10.408311104778944" id="-13227">
		<tag k="name" v="Myrehytta" />
		<tag k="place" v="isolated_dwelling" />
		<tag k="ssr:stedsnr" v="248985" />
	</node>
	<node lat="60.08361667025185" lon="10.227158325678591" id="-13231">
		<tag k="fixme" v="consider place=hamlet" />
		<tag k="name" v="Berg" />
		<tag k="place" v="farm" />
		<tag k="ssr:stedsnr" v="126297" />
	</node>
	<node lat="60.09827443472593" lon="10.203195103837576" id="-13232">
		<tag k="alt_name" v="Hamnor" />
		<tag k="name" v="Hafnor" />
		<tag k="place" v="farm" />
		<tag k="ssr:stedsnr" v="126701" />
	</node>
	<node lat="60.03104166528418" lon="10.400847226758724" id="-13233">
		<tag k="alt_name" v="Lomvollhytta" />
		<tag k="name" v="Lomvoll" />
		<tag k="place" v="isolated_dwelling" />
		<tag k="ssr:stedsnr" v="127000" />
	</node>
	<node lat="60.113249999109726" lon="10.300633335741624" id="-13235">
		<tag k="name" v="Hårum" />
		<tag k="place" v="farm" />
		<tag k="ssr:stedsnr" v="146411" />
	</node>
	<node lat="59.965405558220624" lon="10.340055550601404" id="-13237">
		<tag k="name" v="Kleiva" />
		<tag k="place" v="farm" />
		<tag k="ssr:stedsnr" v="147274" />
	</node>
	<node lat="60.05816389238593" lon="10.186113881875768" id="-13238">
		<tag k="name" v="Elstøa" />
		<tag k="place" v="farm" />
		<tag k="ssr:stedsnr" v="147514" />
	</node>
	<node lat="60.063841665309205" lon="10.177780556422366" id="-13239">
		<tag k="name" v="Leinetajet" />
		<tag k="place" v="hamlet" />
		<tag k="ssr:stedsnr" v="147521" />
	</node>
	<node lat="60.08402777484331" lon="10.264652774054689" id="-13244">
		<tag k="name" v="Viksenga" />
		<tag k="place" v="farm" />
		<tag k="ssr:stedsnr" v="186317" />
	</node>
	<node lat="59.96978197119274" lon="10.323269226107062" id="-13245">
		<tag k="fixme" v="consider place=hamlet" />
		<tag k="name" v="Fjulsrud" />
		<tag k="place" v="farm" />
		<tag k="ssr:stedsnr" v="186532" />
	</node>
	<node lat="60.124867366477936" lon="10.297913921334747" id="-13246">
		<tag k="alt_name" v="Kleiva" />
		<tag k="name" v="Kleven" />
		<tag k="place" v="farm" />
		<tag k="ssr:stedsnr" v="186742" />
	</node>
	<node lat="60.00015833786035" lon="10.300724992246927" id="-13249">
		<tag k="historic" v="shieling" />
		<tag k="name" v="Sønsterudsetra" />
		<tag k="place" v="isolated_dwelling" />
		<tag k="ssr:stedsnr" v="188476" />
	</node>
	<node lat="59.960622222796076" lon="10.34038054680124" id="-13250">
		<tag k="name" v="Skrenten" />
		<tag k="place" v="isolated_dwelling" />
		<tag k="ssr:stedsnr" v="204540" />
	</node>
	<node lat="60.11794722552273" lon="10.282283339770988" id="-13251">
		<tag k="name" v="Vangen" />
		<tag k="place" v="farm" />
		<tag k="ssr:stedsnr" v="268365" />
	</node>
	<node lat="60.09432777675508" lon="10.211477782432974" id="-13252">
		<tag k="name" v="Kirkenær" />
		<tag k="place" v="farm" />
		<tag k="ssr:stedsnr" v="268663" />
	</node>
	<node lat="60.070002774286586" lon="10.19075277454847" id="-13255">
		<tag k="leisure" v="park" />
		<tag k="name" v="Røyseparken" />
		<tag k="ssr:stedsnr" v="268854" />
	</node>
	<node lat="60.07476666462913" lon="10.194180553386875" id="-13260">
		<tag k="name" v="Fjell" />
		<tag k="place" v="farm" />
		<tag k="ssr:stedsnr" v="208814" />
	</node>
	<node lat="59.9921388867346" lon="10.341558335391769" id="-13264">
		<tag k="historic" v="shieling" />
		<tag k="name" v="Nysetra" />
		<tag k="place" v="isolated_dwelling" />
		<tag k="ssr:stedsnr" v="269345" />
	</node>
	<node lat="60.09687777404973" lon="10.184263888750602" id="-13266">
		<tag k="name" v="Rundtom" />
		<tag k="place" v="isolated_dwelling" />
		<tag k="ssr:stedsnr" v="269657" />
	</node>
	<node lat="60.114708329774594" lon="10.23528611835923" id="-13268">
		<tag k="name" v="Helgelandsmoen" />
		<tag k="old_name" v="Snadden" />
		<tag k="place" v="quarter" />
		<tag k="ssr:stedsnr" v="222326" />
	</node>
	<node lat="60.08887205769427" lon="10.273830992490701" id="-13269">
		<tag k="name" v="Steinsrud" />
		<tag k="place" v="farm" />
		<tag k="ssr:stedsnr" v="271696" />
	</node>
	<node lat="60.08384722224459" lon="10.23074167085565" id="-13273">
		<tag k="name" v="Gunnhaug" />
		<tag k="place" v="farm" />
		<tag k="ssr:stedsnr" v="450986" />
	</node>
	<node lat="59.96989610495454" lon="10.354822123120291" id="-13277">
		<tag k="historic" v="shieling" />
		<tag k="name" v="Sørumsetra" />
		<tag k="place" v="isolated_dwelling" />
		<tag k="ssr:stedsnr" v="451299" />
	</node>
	<node lat="59.98151666620277" lon="10.310352776332342" id="-13278">
		<tag k="name" v="Furuhaugen" />
		<tag k="place" v="isolated_dwelling" />
		<tag k="ssr:stedsnr" v="451354" />
	</node>
	<node lat="60.06576388912023" lon="10.197016658474114" id="-13279">
		<tag k="name" v="Jurpland" />
=======
<osm generator="osmapis" version="0.6">
	<node id="-269312" lat="60.0569611132" lon="10.1951472239">
		<tag k="name" v="Tangerud" />
>>>>>>> e1d4bc35ff8a6074a6f2e91616a996b547c36f15
		<tag k="place" v="farm" />
		<tag k="ssr:stedsnr" v="451542" />
	</node>
<<<<<<< HEAD
	<node lat="60.06448333116637" lon="10.197397214828984" id="-13280">
		<tag k="name" v="Sandhaugen" />
		<tag k="place" v="farm" />
		<tag k="ssr:stedsnr" v="451544" />
	</node>
	<node lat="60.09606388491664" lon="10.271394451751569" id="-13282">
		<tag k="name" v="Bekkebråtan" />
		<tag k="place" v="farm" />
		<tag k="ssr:stedsnr" v="451696" />
	</node>
	<node lat="60.07490555568898" lon="10.169211112274212" id="-13283">
		<tag k="name" v="Langløkka" />
=======
	<node id="-269310" lat="60.0910111073" lon="10.2194138944">
		<tag k="amenity" v="school" />
		<tag k="name" v="Røyse skole" />
		<tag k="ssr:stedsnr" v="878830" />
	</node>
	<node id="-269141" lat="60.0692249998" lon="10.198650008">
		<tag k="name" v="Mosenga" />
		<tag k="place" v="farm" />
		<tag k="ssr:stedsnr" v="247252" />
	</node>
	<node id="-269308" lat="60.0883770015" lon="10.2662437667">
		<tag k="name" v="Åsstua" />
>>>>>>> e1d4bc35ff8a6074a6f2e91616a996b547c36f15
		<tag k="place" v="farm" />
		<tag k="ssr:stedsnr" v="451828" />
	</node>
<<<<<<< HEAD
	<node lat="60.0870644307915" lon="10.231439136934732" id="-13288">
		<tag k="alt_name" v="Lille By" />
		<tag k="name" v="Lilleby" />
		<tag k="place" v="farm" />
		<tag k="ssr:stedsnr" v="247289" />
	</node>
	<node lat="59.958786111370536" lon="10.3423166650827" id="-13292">
		<tag k="name" v="Lille B" />
=======
	<node id="-269302" lat="60.0197583294" lon="10.4045499961">
		<tag k="name" v="Soterud" />
>>>>>>> e1d4bc35ff8a6074a6f2e91616a996b547c36f15
		<tag k="place" v="isolated_dwelling" />
		<tag k="ssr:stedsnr" v="265607" />
	</node>
<<<<<<< HEAD
	<node lat="59.95771388985116" lon="10.340716667421383" id="-13293">
		<tag k="name" v="Seimskollen" />
		<tag k="place" v="isolated_dwelling" />
		<tag k="ssr:stedsnr" v="265608" />
	</node>
	<node lat="60.0906888849348" lon="10.264136117520307" id="-13300">
		<tag k="name" v="Storbråtan" />
=======
	<node id="-269300" lat="60.1041916664" lon="10.2015000081">
		<tag k="fixme" v="consider place=hamlet" />
		<tag k="name" v="Domholt" />
>>>>>>> e1d4bc35ff8a6074a6f2e91616a996b547c36f15
		<tag k="place" v="farm" />
		<tag k="ssr:stedsnr" v="269712" />
	</node>
<<<<<<< HEAD
	<node lat="60.080192281253055" lon="10.218501348385441" id="-13307">
		<tag k="alt_name" v="Ulleren" />
=======
	<node id="-269299" lat="60.1048170199" lon="10.268009466">
>>>>>>> e1d4bc35ff8a6074a6f2e91616a996b547c36f15
		<tag k="fixme" v="consider place=hamlet" />
		<tag k="name" v="Ullern" />
		<tag k="place" v="farm" />
		<tag k="ssr:stedsnr" v="308274" />
	</node>
<<<<<<< HEAD
	<node lat="60.04923888485074" lon="10.245527771378345" id="-13311">
		<tag k="alt_name" v="Storøen" />
=======
	<node id="-269298" lat="60.0526025559" lon="10.280327381">
		<tag k="alt_name" v="Elgstangen" />
>>>>>>> e1d4bc35ff8a6074a6f2e91616a996b547c36f15
		<tag k="fixme" v="consider place=hamlet" />
		<tag k="name" v="Storøya" />
		<tag k="place" v="farm" />
		<tag k="ssr:stedsnr" v="308348" />
	</node>
<<<<<<< HEAD
	<node lat="60.08877499717756" lon="10.187413894855435" id="-13317">
		<tag k="name" v="Teigen" />
		<tag k="place" v="farm" />
		<tag k="ssr:stedsnr" v="329714" />
	</node>
	<node lat="60.081582987831744" lon="10.280275023021282" id="-13319">
		<tag k="fixme" v="consider place=hamlet" />
		<tag k="name" v="Vik" />
		<tag k="place" v="farm" />
		<tag k="ssr:stedsnr" v="331628" />
	</node>
	<node lat="60.08915277435962" lon="10.263075004444772" id="-13325">
		<tag k="fixme" v="multiple name tags, choose one and add the other to alt_name" />
		<tag k="name" v="Bråtan;Storbråtan" />
		<tag k="place" v="farm" />
		<tag k="ssr:stedsnr" v="368310" />
	</node>
	<node lat="60.08225000187974" lon="10.206424995833036" id="-13326">
		<tag k="name" v="Fjelstad" />
		<tag k="place" v="farm" />
		<tag k="ssr:stedsnr" v="368313" />
	</node>
	<node lat="60.05060278177896" lon="10.420783328008982" id="-13327">
		<tag k="name" v="Monsebråtan" />
=======
	<node id="-269297" lat="60.0531333337" lon="10.2458166601">
		<tag k="name" v="Sundland" />
		<tag k="place" v="isolated_dwelling" />
		<tag k="ssr:stedsnr" v="733332" />
	</node>
	<node id="-269296" lat="60.0217888915" lon="10.3056472187">
		<tag k="historic" v="shieling" />
		<tag k="name" v="Finneflaksetra" />
		<tag k="place" v="locality" />
		<tag k="ssr:stedsnr" v="733318" />
	</node>
	<node id="-269295" lat="60.0202472262" lon="10.3281083331">
		<tag k="historic" v="shieling" />
		<tag k="name" v="Sørsetra" />
		<tag k="place" v="locality" />
		<tag k="ssr:stedsnr" v="733317" />
	</node>
	<node id="-269293" lat="60.0241749991" lon="10.2891555612">
		<tag k="name" v="Hundstadhytta" />
		<tag k="place" v="isolated_dwelling" />
		<tag k="ssr:stedsnr" v="733311" />
	</node>
	<node id="-269292" lat="60.080449996" lon="10.2683638813">
		<tag k="fixme" v="consider place=hamlet" />
		<tag k="name" v="Bili" />
>>>>>>> e1d4bc35ff8a6074a6f2e91616a996b547c36f15
		<tag k="place" v="farm" />
		<tag k="ssr:stedsnr" v="369186" />
	</node>
<<<<<<< HEAD
	<node lat="60.09585574818651" lon="10.189245857233491" id="-13335">
		<tag k="name" v="Stadum" />
		<tag k="place" v="farm" />
		<tag k="ssr:stedsnr" v="390589" />
	</node>
	<node lat="60.06268611111019" lon="10.30728332514232" id="-13338">
		<tag k="fixme" v="consider place=suburb, village or hamlet" />
		<tag k="name" v="Sundvollen" />
=======
	<node id="-269291" lat="60.0889250027" lon="10.2879472161">
		<tag k="name" v="Steinsåsen" />
>>>>>>> e1d4bc35ff8a6074a6f2e91616a996b547c36f15
		<tag k="place" v="quarter" />
		<tag k="ssr:stedsnr" v="490334" />
	</node>
<<<<<<< HEAD
	<node lat="60.0646750033205" lon="10.290050004635363" id="-13339">
		<tag k="name" v="Rudsøgarden" />
		<tag k="place" v="farm" />
		<tag k="ssr:stedsnr" v="490260" />
	</node>
	<node lat="60.093208336616286" lon="10.218236116252275" id="-13340">
		<tag k="name" v="Libakke" />
=======
	<node id="-269289" lat="60.0818035525" lon="10.258291384">
		<tag k="name" v="Rønningen" />
		<tag k="place" v="farm" />
		<tag k="ssr:stedsnr" v="634659" />
	</node>
	<node id="-269286" lat="60.1030138853" lon="10.1992111026">
		<tag k="name" v="Tomta" />
		<tag k="place" v="isolated_dwelling" />
		<tag k="ssr:stedsnr" v="633673" />
	</node>
	<node id="-269285" lat="60.077516666" lon="10.1955361083">
		<tag k="name" v="Fjell" />
>>>>>>> e1d4bc35ff8a6074a6f2e91616a996b547c36f15
		<tag k="place" v="farm" />
		<tag k="ssr:stedsnr" v="490264" />
	</node>
<<<<<<< HEAD
	<node lat="60.07865833262447" lon="10.335911117227738" id="-13342">
		<tag k="name" v="Baserud" />
=======
	<node id="-269283" lat="60.0989999991" lon="10.217286105">
		<tag k="fixme" v="consider place=hamlet" />
		<tag k="name" v="Hole prestegård" />
>>>>>>> e1d4bc35ff8a6074a6f2e91616a996b547c36f15
		<tag k="place" v="farm" />
		<tag k="ssr:stedsnr" v="490290" />
	</node>
<<<<<<< HEAD
	<node lat="60.046850378926315" lon="10.321466905166078" id="-13343">
		<tag k="name" v="Kleivstua" />
		<tag k="ssr:stedsnr" v="490358" />
		<tag k="tourism" v="hotel" />
	</node>
	<node lat="59.994355556499585" lon="10.319813883856568" id="-13345">
		<tag k="name" v="Møllbakk" />
		<tag k="place" v="isolated_dwelling" />
		<tag k="ssr:stedsnr" v="429449" />
	</node>
	<node lat="60.01647777826766" lon="10.263997225007921" id="-13353">
		<tag k="name" v="Portebakken" />
		<tag k="place" v="hamlet" />
		<tag k="ssr:stedsnr" v="450481" />
	</node>
	<node lat="59.99347777419826" lon="10.287591662444848" id="-13354">
		<tag k="alt_name" v="Skjelegarden" />
		<tag k="name" v="Skjellegård" />
=======
	<node id="-269282" lat="60.1202156328" lon="10.2960912854">
		<tag k="name" v="Hagen" />
		<tag k="place" v="isolated_dwelling" />
		<tag k="ssr:stedsnr" v="631353" />
	</node>
	<node id="-269275" lat="60.0326194427" lon="10.412580557">
		<tag k="fixme" v="consider tourism=alpine_hut or tourism=chalet" />
		<tag k="name" v="Myrsetra" />
		<tag k="old_name" v="Myrseter" />
		<tag k="ssr:stedsnr" v="600554" />
		<tag k="tourism" v="wilderness_hut" />
	</node>
	<node id="-269270" lat="60.0727777773" lon="10.1818888915">
		<tag k="name" v="Bråtan" />
>>>>>>> e1d4bc35ff8a6074a6f2e91616a996b547c36f15
		<tag k="place" v="farm" />
		<tag k="ssr:stedsnr" v="671459" />
	</node>
<<<<<<< HEAD
	<node lat="60.07153055846535" lon="10.260549994382497" id="-13358">
		<tag k="name" v="Borgen" />
		<tag k="place" v="farm" />
		<tag k="ssr:stedsnr" v="672235" />
	</node>
	<node lat="60.075202776485085" lon="10.25024999345947" id="-13359">
		<tag k="name" v="Sandvika" />
		<tag k="place" v="isolated_dwelling" />
		<tag k="ssr:stedsnr" v="672238" />
	</node>
	<node lat="60.065906714842946" lon="10.280030734405818" id="-13360">
		<tag k="alt_name" v="Fekjær" />
		<tag k="fixme" v="consider place=hamlet" />
		<tag k="name" v="Fetjar" />
		<tag k="old_name" v="Fækjær;Fekjer" />
		<tag k="place" v="farm" />
		<tag k="ssr:stedsnr" v="672247" />
	</node>
	<node lat="60.08900277887335" lon="10.215066664814012" id="-13361">
		<tag k="name" v="Frøyhov" />
		<tag k="old_name" v="Frøyshov" />
		<tag k="place" v="farm" />
		<tag k="ssr:stedsnr" v="672253" />
	</node>
	<node lat="60.093070479846624" lon="10.20304283146164" id="-13362">
		<tag k="name" v="Frøyshov" />
=======
	<node id="-269269" lat="60.0058944454" lon="10.2657277759">
		<tag k="alt_name" v="Appendiks" />
		<tag k="name" v="Rovestuen" />
		<tag k="place" v="isolated_dwelling" />
		<tag k="ssr:stedsnr" v="571486" />
	</node>
	<node id="-269780" lat="60.0941600536" lon="10.2912030199">
		<tag k="name" v="Steinsbyhaugen" />
		<tag k="place" v="farm" />
		<tag k="ssr:stedsnr" v="1077069" />
	</node>
	<node id="-269779" lat="60.0931639577" lon="10.293162121">
		<tag k="name" v="Steinsby" />
		<tag k="place" v="farm" />
		<tag k="ssr:stedsnr" v="1077068" />
	</node>
	<node id="-269778" lat="60.0470566445" lon="10.3290898817">
		<tag k="name" v="Solstua" />
		<tag k="place" v="farm" />
		<tag k="ssr:stedsnr" v="1076994" />
	</node>
	<node id="-269775" lat="60.0321710874" lon="10.4130744718">
		<tag k="fixme" v="consider tourism=alpine_hut or tourism=chalet" />
		<tag k="name" v="Drømmen" />
		<tag k="ssr:stedsnr" v="1075832" />
		<tag k="tourism" v="wilderness_hut" />
	</node>
	<node id="-269261" lat="60.1007555564" lon="10.2304694474">
		<tag k="name" v="Prestemoen" />
>>>>>>> e1d4bc35ff8a6074a6f2e91616a996b547c36f15
		<tag k="place" v="farm" />
		<tag k="ssr:stedsnr" v="672256" />
	</node>
<<<<<<< HEAD
	<node lat="60.115774997757036" lon="10.292830563367472" id="-13363">
		<tag k="name" v="Hårum" />
		<tag k="place" v="farm" />
		<tag k="ssr:stedsnr" v="672674" />
	</node>
	<node lat="60.10921666280119" lon="10.276700004368534" id="-13366">
		<tag k="fixme" v="consider place=hamlet" />
		<tag k="name" v="Bjørnstad" />
=======
	<node id="-269260" lat="60.0674305591" lon="10.1913527841">
		<tag k="name" v="Kolsås" />
		<tag k="place" v="hamlet" />
		<tag k="ssr:stedsnr" v="693552" />
	</node>
	<node id="-269258" lat="60.0661833365" lon="10.1895027728">
		<tag k="name" v="Øvre Leine" />
>>>>>>> e1d4bc35ff8a6074a6f2e91616a996b547c36f15
		<tag k="place" v="farm" />
		<tag k="ssr:stedsnr" v="672740" />
	</node>
	<node lat="60.035465087762915" lon="10.323350824316712" id="-13370">
		<tag k="historic" v="shieling" />
		<tag k="name" v="Nordsetra" />
		<tag k="place" v="isolated_dwelling" />
		<tag k="ssr:stedsnr" v="490312" />
	</node>
<<<<<<< HEAD
	<node lat="60.042390612800105" lon="10.341922284476624" id="-13371">
		<tag k="name" v="Torget" />
		<tag k="place" v="farm" />
		<tag k="ssr:stedsnr" v="490313" />
	</node>
	<node lat="60.11112222336567" lon="10.298180548949123" id="-13372">
		<tag k="name" v="Hårum" />
=======
	<node id="-269257" lat="60.0620888864" lon="10.1983333245">
		<tag k="name" v="Nylendet" />
		<tag k="place" v="farm" />
		<tag k="ssr:stedsnr" v="693545" />
	</node>
	<node id="-269253" lat="59.9595777781" lon="10.3401222156">
		<tag k="name" v="Rotaryhytta" />
		<tag k="place" v="isolated_dwelling" />
		<tag k="ssr:stedsnr" v="690634" />
	</node>
	<node id="-269764" lat="60.0628002324" lon="10.3160918885">
		<tag k="name" v="Jonsbråten" />
		<tag k="place" v="locality" />
		<tag k="ssr:stedsnr" v="989045" />
	</node>
	<node id="-269763" lat="60.0235133587" lon="10.2478684593">
		<tag k="fixme" v="consider place=hamlet" />
		<tag k="name" v="Utøya" />
>>>>>>> e1d4bc35ff8a6074a6f2e91616a996b547c36f15
		<tag k="place" v="farm" />
		<tag k="ssr:stedsnr" v="490412" />
	</node>
<<<<<<< HEAD
	<node lat="60.12235555224728" lon="10.302513882376195" id="-13375">
		<tag k="name" v="Åserud" />
		<tag k="place" v="farm" />
		<tag k="ssr:stedsnr" v="510453" />
	</node>
	<node lat="60.09597222362262" lon="10.22383888935791" id="-13376">
		<tag k="name" v="Klokkerplassen" />
=======
	<node id="-269762" lat="60.0990979938" lon="10.2047546283">
		<tag k="fixme" v="consider place=hamlet" />
		<tag k="name" v="Hafnor" />
		<tag k="place" v="farm" />
		<tag k="ssr:stedsnr" v="989042" />
	</node>
	<node id="-269761" lat="60.0967903952" lon="10.1931459346">
		<tag k="fixme" v="consider place=hamlet" />
		<tag k="name" v="Stadum" />
>>>>>>> e1d4bc35ff8a6074a6f2e91616a996b547c36f15
		<tag k="place" v="farm" />
		<tag k="ssr:stedsnr" v="511601" />
	</node>
<<<<<<< HEAD
	<node lat="60.08715938182321" lon="10.291220660388392" id="-13377">
		<tag k="name" v="Rudshagan" />
=======
	<node id="-269760" lat="60.0933402258" lon="10.2038178801">
		<tag k="fixme" v="consider place=hamlet" />
		<tag k="name" v="Frøyshov" />
>>>>>>> e1d4bc35ff8a6074a6f2e91616a996b547c36f15
		<tag k="place" v="farm" />
		<tag k="ssr:stedsnr" v="511916" />
	</node>
<<<<<<< HEAD
	<node lat="60.085719442229255" lon="10.209080554124276" id="-13378">
		<tag k="name" v="Øvre Fjelstad" />
=======
	<node id="-269759" lat="60.0751614294" lon="10.1889350069">
		<tag k="fixme" v="consider place=hamlet" />
		<tag k="name" v="Fjell" />
>>>>>>> e1d4bc35ff8a6074a6f2e91616a996b547c36f15
		<tag k="place" v="farm" />
		<tag k="ssr:stedsnr" v="511971" />
	</node>
<<<<<<< HEAD
	<node lat="60.09226388587259" lon="10.265299998094912" id="-13380">
		<tag k="name" v="Sønsteby" />
		<tag k="place" v="farm" />
		<tag k="ssr:stedsnr" v="512722" />
	</node>
	<node lat="60.07387777576197" lon="10.170083327517926" id="-13384">
		<tag k="name" v="Sersjantløkka" />
		<tag k="place" v="farm" />
		<tag k="ssr:stedsnr" v="550250" />
	</node>
	<node lat="60.075275002248226" lon="10.268594450545843" id="-13385">
=======
	<node id="-269758" lat="60.0657929311" lon="10.1875354977">
		<tag k="name" v="Leine" />
		<tag k="place" v="hamlet" />
		<tag k="ssr:stedsnr" v="988953" />
	</node>
	<node id="-269757" lat="60.0735894531" lon="10.1999542855">
		<tag k="name" v="Hundstad" />
		<tag k="place" v="hamlet" />
		<tag k="ssr:stedsnr" v="988952" />
	</node>
	<node id="-269756" lat="60.0849139647" lon="10.2086169811">
>>>>>>> e1d4bc35ff8a6074a6f2e91616a996b547c36f15
		<tag k="fixme" v="consider place=hamlet" />
		<tag k="name" v="Løken" />
		<tag k="place" v="farm" />
		<tag k="ssr:stedsnr" v="550253" />
	</node>
<<<<<<< HEAD
	<node lat="60.07601176222896" lon="10.210538338824175" id="-13386">
=======
	<node id="-269755" lat="60.0887027704" lon="10.2160431272">
>>>>>>> e1d4bc35ff8a6074a6f2e91616a996b547c36f15
		<tag k="fixme" v="consider place=hamlet" />
		<tag k="name" v="Søhol" />
		<tag k="place" v="farm" />
		<tag k="ssr:stedsnr" v="550256" />
	</node>
<<<<<<< HEAD
	<node lat="59.989926277561544" lon="10.292737641690124" id="-13387">
=======
	<node id="-269754" lat="60.0711964122" lon="10.2603520902">
>>>>>>> e1d4bc35ff8a6074a6f2e91616a996b547c36f15
		<tag k="fixme" v="consider place=hamlet" />
		<tag k="name" v="Sønsterud" />
		<tag k="place" v="farm" />
		<tag k="ssr:stedsnr" v="550452" />
	</node>
<<<<<<< HEAD
	<node lat="60.025906837154615" lon="10.359822720257261" id="-13390">
		<tag k="alt_name" v="Bruløkka" />
=======
	<node id="-269753" lat="60.0727109882" lon="10.297040873">
>>>>>>> e1d4bc35ff8a6074a6f2e91616a996b547c36f15
		<tag k="fixme" v="consider place=hamlet" />
		<tag k="name" v="Bruløkkene" />
		<tag k="place" v="farm" />
		<tag k="ssr:stedsnr" v="551999" />
	</node>
<<<<<<< HEAD
	<node lat="60.087296264761875" lon="10.26354318545966" id="-13391">
		<tag k="name" v="Jomfruland" />
		<tag k="place" v="farm" />
		<tag k="ssr:stedsnr" v="695654" />
	</node>
	<node lat="60.06208888639323" lon="10.198333324526608" id="-13394">
		<tag k="name" v="Nylendet" />
=======
	<node id="-269752" lat="60.0742772031" lon="10.2795254044">
		<tag k="name" v="Gjesval" />
		<tag k="place" v="hamlet" />
		<tag k="ssr:stedsnr" v="988947" />
	</node>
	<node id="-269751" lat="60.0849456061" lon="10.1767155783">
		<tag k="fixme" v="consider place=hamlet" />
		<tag k="name" v="Gomnes" />
>>>>>>> e1d4bc35ff8a6074a6f2e91616a996b547c36f15
		<tag k="place" v="farm" />
		<tag k="ssr:stedsnr" v="693545" />
	</node>
<<<<<<< HEAD
	<node lat="60.06618333653051" lon="10.189502772782083" id="-13395">
		<tag k="name" v="Øvre Leine" />
=======
	<node id="-269129" lat="59.9654055582" lon="10.3400555506">
		<tag k="name" v="Kleiva" />
		<tag k="place" v="farm" />
		<tag k="ssr:stedsnr" v="147274" />
	</node>
	<node id="-269233" lat="60.0930941788" lon="10.2030240242">
		<tag k="name" v="Frøyshov" />
>>>>>>> e1d4bc35ff8a6074a6f2e91616a996b547c36f15
		<tag k="place" v="farm" />
		<tag k="ssr:stedsnr" v="693547" />
	</node>
<<<<<<< HEAD
	<node lat="60.06832505963785" lon="10.296968817653777" id="-13397">
		<tag k="name" v="Øverjordet" />
		<tag k="place" v="farm" />
		<tag k="ssr:stedsnr" v="570600" />
	</node>
	<node lat="60.067430559133314" lon="10.19135278411201" id="-13398">
		<tag k="name" v="Kolsås" />
		<tag k="place" v="hamlet" />
		<tag k="ssr:stedsnr" v="693552" />
	</node>
	<node lat="60.05696111324686" lon="10.195147223908398" id="-13399">
		<tag k="name" v="Tangerud" />
=======
	<node id="-269232" lat="60.0890027789" lon="10.2150666648">
		<tag k="name" v="Frøyhov" />
		<tag k="old_name" v="Frøyshov" />
		<tag k="place" v="farm" />
		<tag k="ssr:stedsnr" v="672253" />
	</node>
	<node id="-269231" lat="60.0659067148" lon="10.2800307344">
		<tag k="alt_name" v="Fekjær" />
		<tag k="fixme" v="consider place=hamlet" />
		<tag k="name" v="Fetjar" />
		<tag k="old_name" v="Fækjær;Fekjer" />
		<tag k="place" v="farm" />
		<tag k="ssr:stedsnr" v="672247" />
	</node>
	<node id="-269742" lat="60.068007743" lon="10.3233953198">
		<tag k="name" v="Sundvollen næringspark" />
		<tag k="place" v="quarter" />
		<tag k="ssr:stedsnr" v="978846" />
	</node>
	<node id="-269229" lat="60.0715305585" lon="10.2605499944">
		<tag k="name" v="Borgen" />
>>>>>>> e1d4bc35ff8a6074a6f2e91616a996b547c36f15
		<tag k="place" v="farm" />
		<tag k="ssr:stedsnr" v="693555" />
	</node>
<<<<<<< HEAD
	<node lat="60.095155554918975" lon="10.22575555666854" id="-13400">
		<tag k="name" v="Nygård" />
		<tag k="place" v="farm" />
		<tag k="ssr:stedsnr" v="693641" />
	</node>
	<node lat="60.100755556417965" lon="10.230469447373109" id="-13401">
		<tag k="name" v="Prestemoen" />
=======
	<node id="-269228" lat="59.9934777742" lon="10.2875916624">
		<tag k="alt_name" v="Skjelegarden" />
		<tag k="name" v="Skjellegård" />
		<tag k="place" v="farm" />
		<tag k="ssr:stedsnr" v="671459" />
	</node>
	<node id="-269227" lat="59.9638583301" lon="10.3456555528">
		<tag k="name" v="Sollihøgda" />
		<tag k="old_name" v="Solihøjden" />
		<tag k="place" v="village" />
		<tag k="ssr:stedsnr" v="671044" />
	</node>
	<node id="-269226" lat="59.9700249986" lon="10.3601638858">
		<tag k="name" v="Niskinn" />
>>>>>>> e1d4bc35ff8a6074a6f2e91616a996b547c36f15
		<tag k="place" v="farm" />
		<tag k="ssr:stedsnr" v="693696" />
	</node>
<<<<<<< HEAD
	<node lat="60.08213610741484" lon="10.191994441920833" id="-13402">
		<tag k="name" v="Nordenga" />
=======
	<node id="-269225" lat="60.0749055557" lon="10.1692111123">
		<tag k="name" v="Langløkka" />
>>>>>>> e1d4bc35ff8a6074a6f2e91616a996b547c36f15
		<tag k="place" v="farm" />
		<tag k="ssr:stedsnr" v="693758" />
	</node>
<<<<<<< HEAD
	<node lat="60.08060277730701" lon="10.168522213465" id="-13403">
		<tag k="name" v="Hassellykkja" />
=======
	<node id="-269735" lat="60.0487583333" lon="10.2627250036">
		<tag k="name" v="Blomsplassen" />
>>>>>>> e1d4bc35ff8a6074a6f2e91616a996b547c36f15
		<tag k="place" v="farm" />
		<tag k="ssr:stedsnr" v="693762" />
	</node>
<<<<<<< HEAD
	<node lat="60.075197218405314" lon="10.187761114065248" id="-13404">
		<tag k="name" v="Fjell" />
=======
	<node id="-269734" lat="60.097891668" lon="10.2207666623">
		<tag k="name" v="Østvoll" />
>>>>>>> e1d4bc35ff8a6074a6f2e91616a996b547c36f15
		<tag k="place" v="farm" />
		<tag k="ssr:stedsnr" v="693763" />
	</node>
<<<<<<< HEAD
	<node lat="60.07277777733561" lon="10.18188889154121" id="-13406">
		<tag k="name" v="Bråtan" />
=======
	<node id="-269733" lat="60.0999083374" lon="10.2763416627">
		<tag k="name" v="Selte" />
		<tag k="old_name" v="Sælte" />
>>>>>>> e1d4bc35ff8a6074a6f2e91616a996b547c36f15
		<tag k="place" v="farm" />
		<tag k="ssr:stedsnr" v="571703" />
	</node>
<<<<<<< HEAD
	<node lat="60.073521895412064" lon="10.261489912813856" id="-13410">
		<tag k="name" v="Borgen" />
=======
	<node id="-269220" lat="60.0901722576" lon="10.3450660143">
		<tag k="fixme" v="consider place=hamlet" />
		<tag k="name" v="Steinsetra" />
		<tag k="old_name" v="Steinsæteren" />
>>>>>>> e1d4bc35ff8a6074a6f2e91616a996b547c36f15
		<tag k="place" v="farm" />
		<tag k="ssr:stedsnr" v="696623" />
	</node>
<<<<<<< HEAD
	<node lat="60.0775166659935" lon="10.195536108341885" id="-13414">
		<tag k="name" v="Fjell" />
		<tag k="place" v="farm" />
		<tag k="ssr:stedsnr" v="632726" />
	</node>
	<node lat="60.08466534154352" lon="10.289666337697968" id="-13415">
		<tag k="name" v="Kroksvik" />
=======
	<node id="-269219" lat="60.1011844189" lon="10.211643378">
		<tag k="fixme" v="consider place=hamlet" />
		<tag k="name" v="Helgeland" />
		<tag k="place" v="farm" />
		<tag k="ssr:stedsnr" v="429723" />
	</node>
	<node id="-269730" lat="60.090436886" lon="10.2212185135">
		<tag k="fixme" v="consider place=hamlet" />
		<tag k="name" v="Mo" />
		<tag k="place" v="farm" />
		<tag k="ssr:stedsnr" v="854248" />
	</node>
	<node id="-269729" lat="60.0801249982" lon="10.2484722237">
		<tag k="name" v="Pålerud" />
		<tag k="place" v="isolated_dwelling" />
		<tag k="ssr:stedsnr" v="854284" />
	</node>
	<node id="-269728" lat="60.0770611092" lon="10.2790777847">
		<tag k="name" v="Vik" />
		<tag k="place" v="village" />
		<tag k="ssr:stedsnr" v="854282" />
	</node>
	<node id="-269727" lat="60.084011115" lon="10.2757500033">
		<tag k="fixme" v="multiple name tags, choose one and add the other to alt_name" />
		<tag k="name" v="Halden;Viksbråtan" />
>>>>>>> e1d4bc35ff8a6074a6f2e91616a996b547c36f15
		<tag k="place" v="farm" />
		<tag k="ssr:stedsnr" v="632920" />
	</node>
<<<<<<< HEAD
	<node lat="60.020201637266545" lon="10.323780231627019" id="-13418">
		<tag k="fixme" v="consider tourism=alpine_hut or tourism=chalet" />
		<tag k="name" v="Jørgenhytta" />
		<tag k="ssr:stedsnr" v="648009" />
		<tag k="tourism" v="wilderness_hut" />
	</node>
	<node lat="59.97002499855674" lon="10.360163885790609" id="-13420">
		<tag k="name" v="Niskinn" />
=======
	<node id="-269726" lat="60.0926750023" lon="10.2685638881">
		<tag k="fixme" v="multiple name tags, choose one and add the other to alt_name" />
		<tag k="name" v="Haugen;Sørumshaugen" />
		<tag k="place" v="farm" />
		<tag k="ssr:stedsnr" v="854265" />
	</node>
	<node id="-269725" lat="60.0650277762" lon="10.1869805496">
		<tag k="alt_name" v="Nordre Leine" />
		<tag k="name" v="Leine" />
>>>>>>> e1d4bc35ff8a6074a6f2e91616a996b547c36f15
		<tag k="place" v="farm" />
		<tag k="ssr:stedsnr" v="671033" />
	</node>
<<<<<<< HEAD
	<node lat="59.96385833005945" lon="10.345655552801531" id="-13421">
		<tag k="name" v="Sollihøgda" />
		<tag k="old_name" v="Solihøjden" />
		<tag k="place" v="village" />
		<tag k="ssr:stedsnr" v="671044" />
	</node>
	<node lat="60.10124985624545" lon="10.296130837093786" id="-13427">
		<tag k="fixme" v="consider place=hamlet" />
		<tag k="name" v="Stein" />
		<tag k="place" v="farm" />
		<tag k="ssr:stedsnr" v="672718" />
	</node>
	<node lat="59.95957777811139" lon="10.340122215646579" id="-13431">
		<tag k="name" v="Rotaryhytta" />
		<tag k="place" v="isolated_dwelling" />
		<tag k="ssr:stedsnr" v="690634" />
	</node>
	<node lat="60.02417499914251" lon="10.28915556123781" id="-13437">
		<tag k="name" v="Hundstadhytta" />
		<tag k="place" v="isolated_dwelling" />
		<tag k="ssr:stedsnr" v="733311" />
	</node>
	<node lat="60.020247226187834" lon="10.328108333070663" id="-13439">
		<tag k="historic" v="shieling" />
		<tag k="name" v="Sørsetra" />
		<tag k="place" v="isolated_dwelling" />
		<tag k="ssr:stedsnr" v="733317" />
	</node>
	<node lat="60.08044999601045" lon="10.268363881326081" id="-13440">
		<tag k="fixme" v="consider place=hamlet" />
		<tag k="name" v="Bili" />
		<tag k="place" v="farm" />
		<tag k="ssr:stedsnr" v="733294" />
	</node>
	<node lat="60.10481701991783" lon="10.268009465971437" id="-13441">
		<tag k="fixme" v="consider place=hamlet" />
		<tag k="name" v="Sørum" />
=======
	<node id="-269723" lat="60.0406055578" lon="10.4508583423">
		<tag k="historic" v="shieling" />
		<tag k="name" v="Kampesetra" />
		<tag k="place" v="locality" />
		<tag k="ssr:stedsnr" v="843943" />
	</node>
	<node id="-269209" lat="60.0857194422" lon="10.2090805541">
		<tag k="name" v="Øvre Fjelstad" />
		<tag k="place" v="farm" />
		<tag k="ssr:stedsnr" v="511971" />
	</node>
	<node id="-269720" lat="60.0788847744" lon="10.2822674261">
		<tag k="amenity" v="school" />
		<tag k="name" v="Vik skole" />
		<tag k="ssr:stedsnr" v="875911" />
	</node>
	<node id="-269207" lat="60.070602782" lon="10.2570861118">
		<tag k="name" v="Borgen" />
		<tag k="place" v="farm" />
		<tag k="ssr:stedsnr" v="511733" />
	</node>
	<node id="-269718" lat="60.0775001979" lon="10.2768600938">
		<tag k="alt_name" v="Vik Søndre" />
		<tag k="name" v="Søndre Vik" />
>>>>>>> e1d4bc35ff8a6074a6f2e91616a996b547c36f15
		<tag k="place" v="farm" />
		<tag k="ssr:stedsnr" v="733702" />
	</node>
<<<<<<< HEAD
	<node lat="60.10419166635797" lon="10.201500008126974" id="-13442">
		<tag k="fixme" v="consider place=hamlet" />
		<tag k="name" v="Domholt" />
		<tag k="place" v="farm" />
		<tag k="ssr:stedsnr" v="733703" />
	</node>
	<node lat="60.018702566373676" lon="10.408137009751826" id="-13444">
		<tag k="alt_name" v="Soterudsetrene" />
		<tag k="name" v="Soterud" />
		<tag k="place" v="locality" />
		<tag k="ssr:stedsnr" v="734984" />
	</node>
	<node lat="60.086738892901316" lon="10.17860555641648" id="-13447">
		<tag k="name" v="Tyribakken" />
		<tag k="place" v="farm" />
		<tag k="ssr:stedsnr" v="753708" />
	</node>
	<node lat="59.986669440357204" lon="10.355830552392598" id="-13453">
		<tag k="fixme" v="multiple name tags, choose one and add the other to alt_name" />
		<tag k="name" v="Rønningen;Rønningsetra" />
		<tag k="place" v="locality" />
		<tag k="ssr:stedsnr" v="793108" />
	</node>
	<node lat="60.087925004424775" lon="10.28154166907701" id="-13454">
=======
	<node id="-269717" lat="60.0776944404" lon="10.2683722156">
		<tag k="name" v="Løkenmoen" />
		<tag k="place" v="hamlet" />
		<tag k="ssr:stedsnr" v="815939" />
	</node>
	<node id="-269716" lat="60.0863161553" lon="10.283280447">
		<tag k="amenity" v="school" />
		<tag k="name" v="Hole ungdomsskole" />
		<tag k="ssr:stedsnr" v="815931" />
	</node>
	<node id="-269203" lat="60.1243358352" lon="10.30837968">
>>>>>>> e1d4bc35ff8a6074a6f2e91616a996b547c36f15
		<tag k="fixme" v="consider place=hamlet" />
		<tag k="name" v="Koksrud" />
		<tag k="place" v="farm" />
		<tag k="ssr:stedsnr" v="793305" />
	</node>
<<<<<<< HEAD
	<node lat="60.03717221900314" lon="10.347433326666652" id="-13459">
		<tag k="name" v="Oterbu" />
		<tag k="place" v="isolated_dwelling" />
		<tag k="ssr:stedsnr" v="794961" />
	</node>
	<node lat="60.012866670172784" lon="10.265894437435655" id="-13461">
		<tag k="name" v="Berget" />
=======
	<node id="-269201" lat="60.0873022367" lon="10.2678107929">
		<tag k="name" v="Halvorsbråtan" />
		<tag k="place" v="farm" />
		<tag k="ssr:stedsnr" v="391660" />
	</node>
	<node id="-269712" lat="60.0933527818" lon="10.1960555553">
		<tag k="name" v="Frøyshov" />
		<tag k="place" v="farm" />
		<tag k="ssr:stedsnr" v="815576" />
	</node>
	<node id="-269711" lat="60.0107916646" lon="10.2659055515">
		<tag k="name" v="Nes" />
>>>>>>> e1d4bc35ff8a6074a6f2e91616a996b547c36f15
		<tag k="place" v="farm" />
		<tag k="ssr:stedsnr" v="915391" />
	</node>
<<<<<<< HEAD
	<node lat="60.07238639698677" lon="10.172439093170363" id="-13464">
		<tag k="alt_name" v="Rud vestre;Vestre Rud" />
		<tag k="fixme" v="consider place=hamlet" />
		<tag k="name" v="Rud" />
=======
	<node id="-269710" lat="60.1220941536" lon="10.2813936339">
		<tag k="name" v="Gile" />
>>>>>>> e1d4bc35ff8a6074a6f2e91616a996b547c36f15
		<tag k="place" v="farm" />
		<tag k="ssr:stedsnr" v="915234" />
	</node>
<<<<<<< HEAD
	<node lat="60.07063610726564" lon="10.292802779739507" id="-13465">
		<tag k="alt_name" v="Sundet" />
		<tag k="name" v="Kroksundøgarden" />
		<tag k="place" v="farm" />
		<tag k="ssr:stedsnr" v="915245" />
	</node>
	<node lat="60.108799998765235" lon="10.295824999371721" id="-13468">
		<tag k="name" v="Hungerholt" />
=======
	<node id="-269707" lat="60.0547694473" lon="10.2590694467">
		<tag k="name" v="Gulsplassen" />
>>>>>>> e1d4bc35ff8a6074a6f2e91616a996b547c36f15
		<tag k="place" v="farm" />
		<tag k="ssr:stedsnr" v="915732" />
	</node>
<<<<<<< HEAD
	<node lat="60.00284062205037" lon="10.268840920579835" id="-13470">
		<tag k="alt_name" v="Nes Store;Store Nes" />
		<tag k="name" v="Øvre Nes" />
		<tag k="place" v="farm" />
		<tag k="ssr:stedsnr" v="916452" />
	</node>
	<node lat="60.06391399867705" lon="10.30728377299885" id="-13471">
=======
	<node id="-269705" lat="60.0637611074" lon="10.3075500056">
>>>>>>> e1d4bc35ff8a6074a6f2e91616a996b547c36f15
		<tag k="fixme" v="consider place=hamlet" />
		<tag k="name" v="Sundvollen" />
		<tag k="place" v="farm" />
		<tag k="ssr:stedsnr" v="813618" />
	</node>
<<<<<<< HEAD
	<node lat="60.08122777704248" lon="10.207602772690155" id="-13473">
=======
	<node id="-269703" lat="60.081227777" lon="10.2076027727">
>>>>>>> e1d4bc35ff8a6074a6f2e91616a996b547c36f15
		<tag k="name" v="Nedre Fjelstad" />
		<tag k="place" v="farm" />
		<tag k="ssr:stedsnr" v="814979" />
	</node>
<<<<<<< HEAD
	<node lat="60.063952781525536" lon="10.197422219915845" id="-13474">
		<tag k="name" v="Rønningen" />
		<tag k="place" v="farm" />
		<tag k="ssr:stedsnr" v="815503" />
	</node>
	<node lat="60.09357204045186" lon="10.195944268223633" id="-13475">
		<tag k="name" v="Frøyshov" />
		<tag k="place" v="farm" />
		<tag k="ssr:stedsnr" v="815576" />
	</node>
	<node lat="60.084514585764694" lon="10.177244820676561" id="-13477">
		<tag k="alt_name" v="Gomnes" />
		<tag k="name" v="Søndre Gomnes" />
		<tag k="place" v="farm" />
		<tag k="ssr:stedsnr" v="829303" />
	</node>
	<node lat="60.065027776153556" lon="10.186980549631382" id="-13480">
		<tag k="alt_name" v="Nordre Leine" />
		<tag k="name" v="Leine" />
		<tag k="place" v="farm" />
		<tag k="ssr:stedsnr" v="854245" />
	</node>
	<node lat="60.090436886037594" lon="10.221218513540716" id="-13481">
=======
	<node id="-269702" lat="60.0807750003" lon="10.1979444394">
		<tag k="amenity" v="nursing_home" />
		<tag k="name" v="Røysetoppen" />
		<tag k="ssr:stedsnr" v="875849" />
	</node>
	<node id="-269187" lat="60.1111222234" lon="10.2981805489">
		<tag k="name" v="Hårum" />
		<tag k="place" v="farm" />
		<tag k="ssr:stedsnr" v="490412" />
	</node>
	<node id="-269698" lat="60.0288972249" lon="10.2858833296">
		<tag k="historic" v="shieling" />
		<tag k="name" v="By-Flaksetra" />
		<tag k="place" v="locality" />
		<tag k="ssr:stedsnr" v="793346" />
	</node>
	<node id="-269185" lat="60.0626861111" lon="10.3072833251">
		<tag k="fixme" v="consider place=suburb, village or hamlet" />
		<tag k="name" v="Sundvollen" />
		<tag k="place" v="quarter" />
		<tag k="ssr:stedsnr" v="490334" />
	</node>
	<node id="-269184" lat="60.0423906128" lon="10.3419222845">
		<tag k="name" v="Torget" />
		<tag k="place" v="farm" />
		<tag k="ssr:stedsnr" v="490313" />
	</node>
	<node id="-269695" lat="60.0879250044" lon="10.2815416691">
>>>>>>> e1d4bc35ff8a6074a6f2e91616a996b547c36f15
		<tag k="fixme" v="consider place=hamlet" />
		<tag k="name" v="Mo" />
		<tag k="place" v="farm" />
<<<<<<< HEAD
		<tag k="ssr:stedsnr" v="854248" />
	</node>
	<node lat="60.0999083373589" lon="10.27634166271137" id="-13483">
		<tag k="name" v="Selte" />
		<tag k="old_name" v="Sælte" />
		<tag k="place" v="farm" />
		<tag k="ssr:stedsnr" v="854709" />
	</node>
	<node lat="60.097891667981365" lon="10.220766662252087" id="-13484">
		<tag k="name" v="Østvoll" />
=======
		<tag k="ssr:stedsnr" v="793305" />
	</node>
	<node id="-269694" lat="59.9866694404" lon="10.3558305524">
		<tag k="fixme" v="multiple name tags, choose one and add the other to alt_name" />
		<tag k="name" v="Rønningen;Rønningsetra" />
		<tag k="place" v="locality" />
		<tag k="ssr:stedsnr" v="793108" />
	</node>
	<node id="-269205" lat="60.0959722236" lon="10.2238388894">
		<tag k="name" v="Klokkerplassen" />
		<tag k="place" v="farm" />
		<tag k="ssr:stedsnr" v="511601" />
	</node>
	<node id="-269180" lat="60.0932083366" lon="10.2182361163">
		<tag k="name" v="Libakke" />
>>>>>>> e1d4bc35ff8a6074a6f2e91616a996b547c36f15
		<tag k="place" v="farm" />
		<tag k="ssr:stedsnr" v="854713" />
	</node>
<<<<<<< HEAD
	<node lat="60.110641666874116" lon="10.207558334495953" id="-13489">
		<tag k="name" v="Tjernet" />
=======
	<node id="-269179" lat="60.0646750033" lon="10.2900500046">
		<tag k="name" v="Rudsøgarden" />
>>>>>>> e1d4bc35ff8a6074a6f2e91616a996b547c36f15
		<tag k="place" v="farm" />
		<tag k="ssr:stedsnr" v="875661" />
	</node>
<<<<<<< HEAD
	<node lat="59.96910555625556" lon="10.34792778202497" id="-13495">
		<tag k="name" v="Høymyr" />
=======
	<node id="-269689" lat="60.0773722245" lon="10.190330555">
		<tag k="name" v="Fjell" />
>>>>>>> e1d4bc35ff8a6074a6f2e91616a996b547c36f15
		<tag k="place" v="farm" />
		<tag k="ssr:stedsnr" v="914030" />
	</node>
<<<<<<< HEAD
	<node lat="59.98770277882926" lon="10.397330555034097" id="-13496">
		<tag k="historic" v="shieling" />
		<tag k="name" v="Steinsvollen" />
		<tag k="place" v="isolated_dwelling" />
		<tag k="ssr:stedsnr" v="914110" />
	</node>
	<node lat="60.03475833465304" lon="10.339166659866068" id="-13498">
		<tag k="name" v="Bureheim" />
		<tag k="place" v="isolated_dwelling" />
		<tag k="ssr:stedsnr" v="915307" />
	</node>
	<node lat="60.09505555204066" lon="10.26378056123898" id="-13499">
		<tag k="name" v="Bråtan" />
=======
	<node id="-269176" lat="60.0872492147" lon="10.2624013543">
		<tag k="name" v="Jenserud" />
>>>>>>> e1d4bc35ff8a6074a6f2e91616a996b547c36f15
		<tag k="place" v="farm" />
		<tag k="ssr:stedsnr" v="915280" />
	</node>
<<<<<<< HEAD
	<node lat="60.05420555457957" lon="10.37780278283791" id="-13502">
		<tag k="name" v="Fjellstadhytta" />
		<tag k="place" v="isolated_dwelling" />
		<tag k="ssr:stedsnr" v="916211" />
	</node>
	<node lat="60.01522222065217" lon="10.390133329769935" id="-13507">
		<tag k="alt_name" v="Dammersplass" />
		<tag k="name" v="Dammersplassen" />
		<tag k="place" v="isolated_dwelling" />
		<tag k="ssr:stedsnr" v="916978" />
	</node>
	<node lat="60.11642777921564" lon="10.3010250061996" id="-13509">
		<tag k="name" v="Hårum" />
		<tag k="place" v="farm" />
		<tag k="ssr:stedsnr" v="935464" />
	</node>
	<node lat="60.09679039515194" lon="10.193145934614835" id="-13518">
=======
	<node id="-269204" lat="60.0944166654" lon="10.2087277762">
		<tag k="name" v="Bredvoll" />
		<tag k="place" v="farm" />
		<tag k="ssr:stedsnr" v="511656" />
	</node>
	<node id="-269174" lat="60.0815829878" lon="10.280275023">
>>>>>>> e1d4bc35ff8a6074a6f2e91616a996b547c36f15
		<tag k="fixme" v="consider place=hamlet" />
		<tag k="name" v="Stadum" />
		<tag k="place" v="farm" />
		<tag k="ssr:stedsnr" v="989041" />
	</node>
<<<<<<< HEAD
	<node lat="60.07443011040711" lon="10.330769553900268" id="-13520">
		<tag k="alt_name" v="Lorvika" />
		<tag k="fixme" v="consider place=hamlet" />
		<tag k="name" v="Lårvika" />
		<tag k="place" v="farm" />
		<tag k="ssr:stedsnr" v="4266" />
	</node>
	<node lat="60.09197809661253" lon="10.189986689127634" id="-13521">
=======
	<node id="-269172" lat="60.0887749972" lon="10.1874138949">
		<tag k="name" v="Teigen" />
		<tag k="place" v="farm" />
		<tag k="ssr:stedsnr" v="329714" />
	</node>
	<node id="-269168" lat="60.0014233257" lon="10.277664459">
>>>>>>> e1d4bc35ff8a6074a6f2e91616a996b547c36f15
		<tag k="fixme" v="consider place=hamlet" />
		<tag k="name" v="Onsaker" />
		<tag k="place" v="farm" />
<<<<<<< HEAD
		<tag k="ssr:stedsnr" v="4273" />
	</node>
	<node lat="60.091934900295804" lon="10.289458025563716" id="-13523">
		<tag k="alt_name" v="Østre Rud" />
		<tag k="fixme" v="consider place=hamlet" />
		<tag k="name" v="Rud" />
=======
		<tag k="ssr:stedsnr" v="301808" />
	</node>
	<node id="-269165" lat="60.096877774" lon="10.1842638888">
		<tag k="name" v="Rundtom" />
		<tag k="place" v="isolated_dwelling" />
		<tag k="ssr:stedsnr" v="269657" />
	</node>
	<node id="-269164" lat="60.0906888849" lon="10.2641361175">
		<tag k="name" v="Storbråtan" />
>>>>>>> e1d4bc35ff8a6074a6f2e91616a996b547c36f15
		<tag k="place" v="farm" />
		<tag k="ssr:stedsnr" v="4289" />
	</node>
<<<<<<< HEAD
	<node lat="60.08480355717915" lon="10.189968029112835" id="-13525">
		<tag k="fixme" v="consider place=hamlet" />
		<tag k="name" v="Dæli" />
		<tag k="place" v="farm" />
		<tag k="ssr:stedsnr" v="4292" />
	</node>
	<node lat="60.071783336174754" lon="10.27803888360128" id="-13526">
		<tag k="name" v="Gjesval" />
		<tag k="place" v="farm" />
		<tag k="ssr:stedsnr" v="4256" />
	</node>
	<node lat="59.99661407417549" lon="10.284765154214858" id="-13528">
		<tag k="name" v="Oreløkka" />
=======
	<node id="-269162" lat="60.0700027743" lon="10.1907527745">
		<tag k="leisure" v="park" />
		<tag k="name" v="Røyseparken" />
		<tag k="ssr:stedsnr" v="268854" />
	</node>
	<node id="-269673" lat="60.0862444466" lon="10.2195833366">
		<tag k="name" v="Smiubakken" />
		<tag k="place" v="farm" />
		<tag k="ssr:stedsnr" v="753981" />
	</node>
	<node id="-269671" lat="60.0687777792" lon="10.1759750043">
		<tag k="name" v="Gata" />
>>>>>>> e1d4bc35ff8a6074a6f2e91616a996b547c36f15
		<tag k="place" v="farm" />
		<tag k="ssr:stedsnr" v="4454" />
	</node>
<<<<<<< HEAD
	<node lat="60.05689444028991" lon="10.298216663122206" id="-13533">
		<tag k="name" v="Tyriheim" />
		<tag k="old_name" v="Tyriheimen" />
=======
	<node id="-269670" lat="60.0847333314" lon="10.1712722269">
		<tag k="name" v="Olastua" />
>>>>>>> e1d4bc35ff8a6074a6f2e91616a996b547c36f15
		<tag k="place" v="isolated_dwelling" />
		<tag k="ssr:stedsnr" v="5348" />
	</node>
<<<<<<< HEAD
	<node lat="60.05915449009562" lon="10.346882248065668" id="-13536">
		<tag k="historic" v="shieling" />
		<tag k="name" v="Retthella" />
		<tag k="place" v="isolated_dwelling" />
		<tag k="ssr:stedsnr" v="6213" />
	</node>
	<node lat="59.9612555579342" lon="10.339030548760663" id="-13537">
		<tag k="name" v="Skaustua" />
=======
	<node id="-269669" lat="60.0765277767" lon="10.1683916627">
		<tag k="name" v="Plassen" />
		<tag k="place" v="farm" />
		<tag k="ssr:stedsnr" v="753778" />
	</node>
	<node id="-269668" lat="60.0778166706" lon="10.2463138807">
		<tag k="name" v="Rolighet" />
>>>>>>> e1d4bc35ff8a6074a6f2e91616a996b547c36f15
		<tag k="place" v="isolated_dwelling" />
		<tag k="ssr:stedsnr" v="22575" />
	</node>
<<<<<<< HEAD
	<node lat="60.07575833617365" lon="10.18006389417177" id="-13538">
		<tag k="name" v="Stubberud" />
=======
	<node id="-269667" lat="60.0747277755" lon="10.1977805541">
		<tag k="name" v="Hundstad lille" />
>>>>>>> e1d4bc35ff8a6074a6f2e91616a996b547c36f15
		<tag k="place" v="farm" />
		<tag k="ssr:stedsnr" v="25746" />
	</node>
<<<<<<< HEAD
	<node lat="60.09987414277426" lon="10.20576866321515" id="-13539">
		<tag k="name" v="Hafnor" />
=======
	<node id="-269666" lat="60.0867388929" lon="10.1786055564">
		<tag k="name" v="Tyribakken" />
>>>>>>> e1d4bc35ff8a6074a6f2e91616a996b547c36f15
		<tag k="place" v="farm" />
		<tag k="ssr:stedsnr" v="26681" />
	</node>
<<<<<<< HEAD
	<node lat="60.06153901663126" lon="10.210607116158426" id="-13541">
		<tag k="name" v="Engen" />
		<tag k="place" v="farm" />
		<tag k="ssr:stedsnr" v="26560" />
	</node>
	<node lat="60.08451349684447" lon="10.34622303836843" id="-13545">
		<tag k="name" v="Bråtan" />
		<tag k="place" v="farm" />
		<tag k="ssr:stedsnr" v="26936" />
	</node>
	<node lat="60.07497777595153" lon="10.280275005581622" id="-13546">
		<tag k="name" v="Nordre Gjesval" />
		<tag k="place" v="farm" />
		<tag k="ssr:stedsnr" v="28651" />
	</node>
	<node lat="59.97203889004091" lon="10.323252779442305" id="-13548">
		<tag k="name" v="Nordland" />
		<tag k="place" v="farm" />
		<tag k="ssr:stedsnr" v="64485" />
	</node>
	<node lat="60.09715555830234" lon="10.267641659731764" id="-13550">
		<tag k="name" v="Brenna" />
=======
	<node id="-269665" lat="60.0958805518" lon="10.2138805502">
		<tag k="name" v="Kirkevoll" />
		<tag k="place" v="farm" />
		<tag k="ssr:stedsnr" v="753639" />
	</node>
	<node id="-269152" lat="59.96982222" lon="10.3551249955">
		<tag k="historic" v="shieling" />
		<tag k="name" v="Sørumsetra" />
		<tag k="place" v="locality" />
		<tag k="ssr:stedsnr" v="451299" />
	</node>
	<node id="-269150" lat="59.9815166662" lon="10.3103527763">
		<tag k="name" v="Furuhaugen" />
		<tag k="place" v="isolated_dwelling" />
		<tag k="ssr:stedsnr" v="451354" />
	</node>
	<node id="-269148" lat="60.0838472222" lon="10.2307416709">
		<tag k="name" v="Gunnhaug" />
		<tag k="place" v="farm" />
		<tag k="ssr:stedsnr" v="450986" />
	</node>
	<node id="-269147" lat="60.0164777783" lon="10.263997225">
		<tag k="name" v="Portebakken" />
		<tag k="place" v="hamlet" />
		<tag k="ssr:stedsnr" v="450481" />
	</node>
	<node id="-269589" lat="60.0214861111" lon="10.338661117">
		<tag k="alt_name" v="Kneikasetra" />
		<tag k="historic" v="shieling" />
		<tag k="name" v="Kneika" />
		<tag k="place" v="locality" />
		<tag k="ssr:stedsnr" v="430337" />
	</node>
	<node id="-269656" lat="59.9752305521" lon="10.3329222193">
		<tag k="name" v="Berntsegård" />
		<tag k="place" v="farm" />
		<tag k="ssr:stedsnr" v="633301" />
	</node>
	<node id="-269143" lat="60.0869500026" lon="10.2317249911">
		<tag k="alt_name" v="Lille By" />
		<tag k="name" v="Lilleby" />
		<tag k="place" v="farm" />
		<tag k="ssr:stedsnr" v="247289" />
	</node>
	<node id="-269654" lat="60.0784972256" lon="10.3338249929">
		<tag k="name" v="Korneliusbråten" />
>>>>>>> e1d4bc35ff8a6074a6f2e91616a996b547c36f15
		<tag k="place" v="farm" />
		<tag k="ssr:stedsnr" v="65725" />
	</node>
<<<<<<< HEAD
	<node lat="60.098877759239386" lon="10.193944399384648" id="-13551">
		<tag k="name" v="Stadum" />
=======
	<node id="-269653" lat="60.0846653415" lon="10.2896663377">
		<tag k="name" v="Kroksvik" />
>>>>>>> e1d4bc35ff8a6074a6f2e91616a996b547c36f15
		<tag k="place" v="farm" />
		<tag k="ssr:stedsnr" v="65734" />
	</node>
<<<<<<< HEAD
	<node lat="60.06094999656787" lon="10.197591674524912" id="-13553">
		<tag k="fixme" v="consider place=hamlet" />
		<tag k="name" v="Bønsnes" />
		<tag k="place" v="farm" />
		<tag k="ssr:stedsnr" v="65252" />
	</node>
	<node lat="60.08782221828941" lon="10.231672227775293" id="-13554">
		<tag k="name" v="Svensrud" />
		<tag k="place" v="quarter" />
		<tag k="ssr:stedsnr" v="65278" />
	</node>
	<node lat="60.085309114961206" lon="10.216901580103896" id="-13555">
		<tag k="alt_name" v="Søndre By" />
		<tag k="fixme" v="consider place=hamlet" />
		<tag k="name" v="By" />
=======
	<node id="-269651" lat="60.0790027696" lon="10.1697687551">
		<tag k="name" v="Gomnesbråten" />
		<tag k="old_name" v="Braataan;Braaten" />
		<tag k="place" v="farm" />
		<tag k="ssr:stedsnr" v="632779" />
	</node>
	<node id="-269650" lat="60.0942500028" lon="10.218886117">
		<tag k="name" v="Nedre Libakke" />
>>>>>>> e1d4bc35ff8a6074a6f2e91616a996b547c36f15
		<tag k="place" v="farm" />
		<tag k="ssr:stedsnr" v="65280" />
	</node>
<<<<<<< HEAD
	<node lat="60.05156108983382" lon="10.1781029685339" id="-13556">
		<tag k="fixme" v="consider place=hamlet" />
		<tag k="name" v="Frognøya" />
=======
	<node id="-269136" lat="60.0966499987" lon="10.2344416744">
		<tag k="name" v="Svingerud" />
>>>>>>> e1d4bc35ff8a6074a6f2e91616a996b547c36f15
		<tag k="place" v="farm" />
		<tag k="ssr:stedsnr" v="65354" />
	</node>
<<<<<<< HEAD
	<node lat="60.041391667571666" lon="10.329936113655824" id="-13561">
		<tag k="name" v="Holiattentitt" />
		<tag k="place" v="isolated_dwelling" />
		<tag k="ssr:stedsnr" v="85435" />
	</node>
	<node lat="60.09510555337892" lon="10.194500002024752" id="-13565">
		<tag k="name" v="Frøystad" />
=======
	<node id="-269134" lat="60.0981111126" lon="10.2687611176">
		<tag k="name" v="Solvang" />
>>>>>>> e1d4bc35ff8a6074a6f2e91616a996b547c36f15
		<tag k="place" v="farm" />
		<tag k="ssr:stedsnr" v="87612" />
	</node>
<<<<<<< HEAD
	<node lat="60.095649222826594" lon="10.1969126265664" id="-13566">
		<tag k="name" v="Stadum" />
		<tag k="place" v="farm" />
		<tag k="ssr:stedsnr" v="87614" />
	</node>
	<node lat="60.093857752212756" lon="10.197544899885393" id="-13571">
		<tag k="name" v="Frøyshov" />
=======
	<node id="-269133" lat="60.0638416653" lon="10.1777805564">
		<tag k="name" v="Leinetajet" />
		<tag k="place" v="hamlet" />
		<tag k="ssr:stedsnr" v="147521" />
	</node>
	<node id="-269132" lat="60.0581638924" lon="10.1861138819">
		<tag k="name" v="Elstøa" />
>>>>>>> e1d4bc35ff8a6074a6f2e91616a996b547c36f15
		<tag k="place" v="farm" />
		<tag k="ssr:stedsnr" v="87642" />
	</node>
<<<<<<< HEAD
	<node lat="60.07644538167767" lon="10.283339463469824" id="-13574">
		<tag k="name" v="Tajet" />
		<tag k="place" v="locality" />
		<tag k="ssr:stedsnr" v="88449" />
	</node>
	<node lat="60.090468829625216" lon="10.174581046520123" id="-13575">
		<tag k="alt_name" v="Gomnes" />
		<tag k="name" v="Nordre Gomnes" />
=======
	<node id="-269130" lat="60.0004694447" lon="10.3811388896">
		<tag k="name" v="Bjerkesetra" />
		<tag k="place" v="locality" />
		<tag k="ssr:stedsnr" v="147155" />
	</node>
	<node id="-269641" lat="60.0854583324" lon="10.3409305584">
		<tag k="name" v="Hellerud" />
>>>>>>> e1d4bc35ff8a6074a6f2e91616a996b547c36f15
		<tag k="place" v="farm" />
		<tag k="ssr:stedsnr" v="101266" />
	</node>
<<<<<<< HEAD
	<node lat="60.08875555781019" lon="10.342538894201613" id="-13576">
		<tag k="name" v="Bjørnsvika" />
		<tag k="place" v="farm" />
		<tag k="ssr:stedsnr" v="126273" />
	</node>
	<node lat="60.07654999779168" lon="10.181730557098781" id="-13577">
		<tag k="name" v="Øgarden" />
=======
	<node id="-269127" lat="60.1132499991" lon="10.3006333357">
		<tag k="name" v="Hårum" />
		<tag k="place" v="farm" />
		<tag k="ssr:stedsnr" v="146411" />
	</node>
	<node id="-269638" lat="60.0658166639" lon="10.1699222225">
		<tag k="name" v="Solheim" />
>>>>>>> e1d4bc35ff8a6074a6f2e91616a996b547c36f15
		<tag k="place" v="isolated_dwelling" />
		<tag k="ssr:stedsnr" v="126282" />
	</node>
	<node lat="60.07822499703139" lon="10.17431945105718" id="-13578">
		<tag k="name" v="Gomnes" />
		<tag k="place" v="quarter" />
		<tag k="ssr:stedsnr" v="126286" />
	</node>
<<<<<<< HEAD
	<node lat="60.012230551849605" lon="10.377252785582762" id="-13579">
=======
	<node id="-269637" lat="60.0667257363" lon="10.2109081458">
>>>>>>> e1d4bc35ff8a6074a6f2e91616a996b547c36f15
		<tag k="fixme" v="consider place=hamlet" />
		<tag k="name" v="Midtskogen" />
		<tag k="place" v="farm" />
		<tag k="ssr:stedsnr" v="126878" />
	</node>
<<<<<<< HEAD
	<node lat="60.072472222196254" lon="10.200072229480302" id="-13580">
		<tag k="alt_name" v="Hundstad Store" />
		<tag k="name" v="Hundstad" />
		<tag k="place" v="farm" />
		<tag k="ssr:stedsnr" v="126241" />
	</node>
	<node lat="60.02148332879653" lon="10.261383341642318" id="-13581">
		<tag k="name" v="Lia" />
=======
	<node id="-269635" lat="60.0726249967" lon="10.1875388847">
		<tag k="name" v="Myra" />
>>>>>>> e1d4bc35ff8a6074a6f2e91616a996b547c36f15
		<tag k="place" v="farm" />
		<tag k="ssr:stedsnr" v="126338" />
	</node>
<<<<<<< HEAD
	<node lat="60.11328857409302" lon="10.309038369389867" id="-13583">
		<tag k="alt_name" v="Lore søndre" />
		<tag k="fixme" v="consider place=hamlet" />
		<tag k="name" v="Lore" />
=======
	<node id="-269634" lat="60.0748055532" lon="10.1878527704">
		<tag k="name" v="Fjell" />
>>>>>>> e1d4bc35ff8a6074a6f2e91616a996b547c36f15
		<tag k="place" v="farm" />
		<tag k="ssr:stedsnr" v="126709" />
	</node>
<<<<<<< HEAD
	<node lat="60.112931966214546" lon="10.27548875179584" id="-13584">
		<tag k="name" v="Bjørke" />
		<tag k="place" v="hamlet" />
		<tag k="ssr:stedsnr" v="126715" />
	</node>
	<node lat="60.00046944465632" lon="10.381138889592508" id="-13589">
		<tag k="name" v="Bjerkesetra" />
		<tag k="place" v="locality" />
		<tag k="ssr:stedsnr" v="147155" />
	</node>
	<node lat="60.098111112632296" lon="10.268761117607038" id="-13594">
		<tag k="name" v="Solvang" />
		<tag k="place" v="farm" />
		<tag k="ssr:stedsnr" v="147655" />
	</node>
	<node lat="60.076472220086046" lon="10.275219438009934" id="-13597">
		<tag k="name" v="Sørenga" />
		<tag k="place" v="farm" />
		<tag k="ssr:stedsnr" v="149618" />
	</node>
	<node lat="60.077772871243155" lon="10.25969719490649" id="-13598">
		<tag k="name" v="Bråtan" />
=======
	<node id="-269633" lat="60.0887583376" lon="10.2144222168">
		<tag k="name" v="Frøyhov" />
		<tag k="place" v="farm" />
		<tag k="ssr:stedsnr" v="594139" />
	</node>
	<node id="-269120" lat="59.9921388867" lon="10.3415583354">
		<tag k="historic" v="shieling" />
		<tag k="name" v="Nysetra" />
		<tag k="place" v="locality" />
		<tag k="ssr:stedsnr" v="269345" />
	</node>
	<node id="-269630" lat="60.0935944457" lon="10.1850722289">
		<tag k="name" v="Onsakerbråten" />
		<tag k="place" v="farm" />
		<tag k="ssr:stedsnr" v="572633" />
	</node>
	<node id="-269213" lat="60.0922638859" lon="10.2652999981">
		<tag k="name" v="Sønsteby" />
		<tag k="place" v="farm" />
		<tag k="ssr:stedsnr" v="512722" />
	</node>
	<node id="-269230" lat="60.0752027765" lon="10.2502499935">
		<tag k="name" v="Sandvika" />
		<tag k="place" v="isolated_dwelling" />
		<tag k="ssr:stedsnr" v="672238" />
	</node>
	<node id="-269627" lat="60.0578888896" lon="10.1937305641">
		<tag k="name" v="Pålerud" />
		<tag k="place" v="farm" />
		<tag k="ssr:stedsnr" v="572543" />
	</node>
	<node id="-269112" lat="59.9577138899" lon="10.3407166674">
		<tag k="name" v="Seimskollen" />
		<tag k="place" v="isolated_dwelling" />
		<tag k="ssr:stedsnr" v="265608" />
	</node>
	<node id="-269111" lat="59.9587861114" lon="10.3423166651">
		<tag k="name" v="Lille B" />
		<tag k="place" v="isolated_dwelling" />
		<tag k="ssr:stedsnr" v="265607" />
	</node>
	<node id="-269193" lat="60.0768972192" lon="10.2137083362">
		<tag k="amenity" v="nursing_home" />
		<tag k="name" v="Pleiehjem" />
		<tag k="ssr:stedsnr" v="389759" />
	</node>
	<node id="-269620" lat="60.0755888888" lon="10.3334638969">
		<tag k="name" v="Skogli" />
>>>>>>> e1d4bc35ff8a6074a6f2e91616a996b547c36f15
		<tag k="place" v="farm" />
		<tag k="ssr:stedsnr" v="149628" />
	</node>
<<<<<<< HEAD
	<node lat="60.11443055158258" lon="10.231352772940818" id="-13601">
		<tag k="name" v="Helgelandsmoen Næringspark AS" />
		<tag k="place" v="quarter" />
		<tag k="ssr:stedsnr" v="179992" />
	</node>
	<node lat="60.08194721965382" lon="10.170169444167295" id="-13603">
		<tag k="alt_name" v="Hagastu" />
		<tag k="name" v="Hagastua" />
		<tag k="place" v="farm" />
		<tag k="ssr:stedsnr" v="186299" />
	</node>
	<node lat="60.12047777717864" lon="10.28031111809977" id="-13606">
		<tag k="alt_name" v="Øde-Rå" />
		<tag k="name" v="Øderå" />
=======
	<node id="-269107" lat="60.0293166627" lon="10.4083111048">
		<tag k="name" v="Myrehytta" />
		<tag k="place" v="isolated_dwelling" />
		<tag k="ssr:stedsnr" v="248985" />
	</node>
	<node id="-269618" lat="60.0999777806" lon="10.2150222286">
		<tag k="name" v="Ringhol" />
		<tag k="place" v="farm" />
		<tag k="ssr:stedsnr" v="571613" />
	</node>
	<node id="-269617" lat="60.0954944446" lon="10.227780553">
		<tag k="name" v="Skogstad" />
		<tag k="place" v="farm" />
		<tag k="ssr:stedsnr" v="571605" />
	</node>
	<node id="-269615" lat="60.0683250596" lon="10.2969688177">
		<tag k="name" v="Øverjordet" />
>>>>>>> e1d4bc35ff8a6074a6f2e91616a996b547c36f15
		<tag k="place" v="farm" />
		<tag k="ssr:stedsnr" v="186723" />
	</node>
<<<<<<< HEAD
	<node lat="60.09664999871413" lon="10.234441674437788" id="-13607">
		<tag k="name" v="Svingerud" />
=======
	<node id="-269102" lat="60.0134000002" lon="10.2919277851">
		<tag k="historic" v="shieling" />
		<tag k="name" v="Nessetra" />
		<tag k="place" v="locality" />
		<tag k="ssr:stedsnr" v="248388" />
	</node>
	<node id="-269613" lat="60.0527111085" lon="10.2666555576">
		<tag k="name" v="Kuskeplassen" />
>>>>>>> e1d4bc35ff8a6074a6f2e91616a996b547c36f15
		<tag k="place" v="farm" />
		<tag k="ssr:stedsnr" v="186752" />
	</node>
<<<<<<< HEAD
	<node lat="60.04363150034493" lon="10.39575907236481" id="-13609">
		<tag k="fixme" v="consider place=hamlet" />
		<tag k="name" v="Mattisplassen" />
=======
	<node id="-269612" lat="59.9807638919" lon="10.3122583418">
		<tag k="name" v="Humledal" />
>>>>>>> e1d4bc35ff8a6074a6f2e91616a996b547c36f15
		<tag k="place" v="farm" />
		<tag k="ssr:stedsnr" v="187959" />
	</node>
<<<<<<< HEAD
	<node lat="60.09552222023719" lon="10.211352775417906" id="-13611">
		<tag k="name" v="Lysgård" />
=======
	<node id="-269609" lat="60.0259068372" lon="10.3598227203">
		<tag k="alt_name" v="Bruløkka" />
		<tag k="fixme" v="consider place=hamlet" />
		<tag k="name" v="Bruløkkene" />
>>>>>>> e1d4bc35ff8a6074a6f2e91616a996b547c36f15
		<tag k="place" v="farm" />
		<tag k="ssr:stedsnr" v="207660" />
	</node>
<<<<<<< HEAD
	<node lat="60.0603416709395" lon="10.207225005804524" id="-13613">
		<tag k="name" v="Søndre Svarstad" />
		<tag k="place" v="farm" />
		<tag k="ssr:stedsnr" v="208561" />
	</node>
	<node lat="60.08382707108468" lon="10.261745072225288" id="-13624">
		<tag k="name" v="Skredshaugen" />
=======
	<node id="-269105" lat="60.0126472191" lon="10.4026694361">
		<tag k="name" v="Soterudhytta" />
		<tag k="place" v="isolated_dwelling" />
		<tag k="ssr:stedsnr" v="248891" />
	</node>
	<node id="-269604" lat="60.1239150473" lon="10.3085967907">
		<tag k="name" v="Hårum" />
>>>>>>> e1d4bc35ff8a6074a6f2e91616a996b547c36f15
		<tag k="place" v="farm" />
		<tag k="ssr:stedsnr" v="210648" />
	</node>
<<<<<<< HEAD
	<node lat="59.99840478220312" lon="10.279483115189704" id="-13627">
=======
	<node id="-269603" lat="59.9899262776" lon="10.2927376417">
>>>>>>> e1d4bc35ff8a6074a6f2e91616a996b547c36f15
		<tag k="fixme" v="consider place=hamlet" />
		<tag k="name" v="Nes" />
		<tag k="place" v="farm" />
		<tag k="ssr:stedsnr" v="301808" />
	</node>
<<<<<<< HEAD
	<node lat="60.07071388585402" lon="10.166819439346524" id="-13628">
		<tag k="amenity" v="school" />
		<tag k="name" v="Tyrifjord videregående skole" />
		<tag k="old_name" v="Tyrifjord høyere skole" />
		<tag k="ssr:stedsnr" v="301895" />
	</node>
	<node lat="59.99642777473114" lon="10.350361105865613" id="-13629">
		<tag k="name" v="Toresplassen" />
=======
	<node id="-269090" lat="60.0971555583" lon="10.2676416597">
		<tag k="name" v="Brenna" />
		<tag k="place" v="farm" />
		<tag k="ssr:stedsnr" v="65725" />
	</node>
	<node id="-269601" lat="60.0797305587" lon="10.2649388804">
		<tag k="name" v="Borgestad" />
>>>>>>> e1d4bc35ff8a6074a6f2e91616a996b547c36f15
		<tag k="place" v="farm" />
		<tag k="ssr:stedsnr" v="307095" />
	</node>
<<<<<<< HEAD
	<node lat="59.998811154862594" lon="10.28015948987439" id="-13630">
		<tag k="name" v="Nedre Nes" />
=======
	<node id="-269600" lat="60.0668999994" lon="10.1752416683">
		<tag k="name" v="Vestbråtan" />
>>>>>>> e1d4bc35ff8a6074a6f2e91616a996b547c36f15
		<tag k="place" v="farm" />
		<tag k="ssr:stedsnr" v="307479" />
	</node>
<<<<<<< HEAD
	<node lat="60.05363611375036" lon="10.29089999615056" id="-13631">
		<tag k="name" v="Rørvikberget" />
		<tag k="place" v="isolated_dwelling" />
		<tag k="ssr:stedsnr" v="308333" />
	</node>
	<node lat="60.06380000030414" lon="10.173325001689502" id="-13632">
		<tag k="alt_name" v="Hodt" />
		<tag k="name" v="Hott" />
=======
	<node id="-269599" lat="60.0727166626" lon="10.3319499915">
		<tag k="name" v="Lyse" />
>>>>>>> e1d4bc35ff8a6074a6f2e91616a996b547c36f15
		<tag k="place" v="farm" />
		<tag k="ssr:stedsnr" v="308251" />
	</node>
<<<<<<< HEAD
	<node lat="60.037536111771395" lon="10.265711105729096" id="-13633">
=======
	<node id="-269598" lat="60.0760117622" lon="10.2105383388">
>>>>>>> e1d4bc35ff8a6074a6f2e91616a996b547c36f15
		<tag k="fixme" v="consider place=hamlet" />
		<tag k="name" v="Øverby" />
		<tag k="place" v="farm" />
		<tag k="ssr:stedsnr" v="308282" />
	</node>
<<<<<<< HEAD
	<node lat="60.02749887380884" lon="10.261459728216153" id="-13634">
=======
	<node id="-269597" lat="60.0752750022" lon="10.2685944505">
>>>>>>> e1d4bc35ff8a6074a6f2e91616a996b547c36f15
		<tag k="fixme" v="consider place=hamlet" />
		<tag k="name" v="Utvika" />
		<tag k="place" v="farm" />
		<tag k="ssr:stedsnr" v="308290" />
	</node>
<<<<<<< HEAD
	<node lat="60.11988976719947" lon="10.273670145297778" id="-13638">
		<tag k="name" v="Bergerstua" />
		<tag k="place" v="isolated_dwelling" />
		<tag k="ssr:stedsnr" v="328349" />
	</node>
	<node lat="60.07604249863976" lon="10.262356992586987" id="-13642">
		<tag k="name" v="Østeng" />
=======
	<node id="-269596" lat="60.0738777758" lon="10.1700833275">
		<tag k="name" v="Sersjantløkka" />
		<tag k="place" v="farm" />
		<tag k="ssr:stedsnr" v="550250" />
	</node>
	<node id="-269083" lat="60.074977776" lon="10.2802750056">
		<tag k="name" v="Nordre Gjesval" />
>>>>>>> e1d4bc35ff8a6074a6f2e91616a996b547c36f15
		<tag k="place" v="farm" />
		<tag k="ssr:stedsnr" v="331629" />
	</node>
<<<<<<< HEAD
	<node lat="60.08724921473718" lon="10.262401354348512" id="-13643">
		<tag k="name" v="Jenserud" />
		<tag k="place" v="farm" />
		<tag k="ssr:stedsnr" v="331640" />
	</node>
	<node lat="60.004991670967115" lon="10.39692777736191" id="-13644">
		<tag k="historic" v="shieling" />
		<tag k="name" v="Øyersetra" />
		<tag k="place" v="isolated_dwelling" />
		<tag k="ssr:stedsnr" v="369876" />
	</node>
	<node lat="60.0423057198061" lon="10.343014429256579" id="-13645">
		<tag k="historic" v="shieling" />
		<tag k="name" v="Torgesetra" />
		<tag k="place" v="isolated_dwelling" />
		<tag k="ssr:stedsnr" v="356970" />
	</node>
	<node lat="60.06439166632048" lon="10.254586103669437" id="-13646">
		<tag k="alt_name" v="Rytteraker" />
		<tag k="name" v="Rytteråker" />
		<tag k="place" v="farm" />
		<tag k="ssr:stedsnr" v="368299" />
	</node>
	<node lat="60.09417777551875" lon="10.345858337287536" id="-13648">
		<tag k="name" v="Nordenga" />
		<tag k="place" v="farm" />
		<tag k="ssr:stedsnr" v="369133" />
	</node>
	<node lat="60.04998055481952" lon="10.285402770990686" id="-13651">
		<tag k="name" v="Klokkerbråtan" />
		<tag k="place" v="isolated_dwelling" />
		<tag k="ssr:stedsnr" v="369344" />
	</node>
	<node lat="60.043649999577404" lon="10.268461113535688" id="-13652">
		<tag k="alt_name" v="Bråtan" />
		<tag k="name" v="Bråten" />
		<tag k="place" v="isolated_dwelling" />
		<tag k="ssr:stedsnr" v="369345" />
	</node>
	<node lat="60.119578228779524" lon="10.305696299174098" id="-13654">
		<tag k="name" v="Fossum" />
		<tag k="place" v="isolated_dwelling" />
		<tag k="ssr:stedsnr" v="389488" />
	</node>
	<node lat="60.08540277389334" lon="10.183102771734212" id="-13656">
=======
	<node id="-269621" lat="60.0746861081" lon="10.2541194484">
		<tag k="name" v="Vestbråtan" />
		<tag k="place" v="farm" />
		<tag k="ssr:stedsnr" v="571971" />
	</node>
	<node id="-269081" lat="60.0628361071" lon="10.1830222175">
		<tag k="name" v="Søndre Leine" />
		<tag k="place" v="farm" />
		<tag k="ssr:stedsnr" v="26522" />
	</node>
	<node id="-269592" lat="60.0060777792" lon="10.3818944383">
		<tag k="name" v="Benteplassen" />
		<tag k="place" v="isolated_dwelling" />
		<tag k="ssr:stedsnr" v="430872" />
	</node>
	<node id="-269591" lat="60.0057888924" lon="10.2714249924">
		<tag k="alt_name" v="Øgarden" />
		<tag k="name" v="Øvre Nes" />
		<tag k="place" v="farm" />
		<tag k="ssr:stedsnr" v="430392" />
	</node>
	<node id="-269590" lat="60.0073007209" lon="10.2645475018">
		<tag k="name" v="Kløvvika" />
		<tag k="place" v="farm" />
		<tag k="ssr:stedsnr" v="430390" />
	</node>
	<node id="-269077" lat="60.0561941267" lon="10.2898912653">
		<tag k="name" v="Rørvik Camping" />
		<tag k="ssr:stedsnr" v="26612" />
		<tag k="tourism" v="camp_site" />
	</node>
	<node id="-269074" lat="60.1147083298" lon="10.2352861184">
		<tag k="name" v="Helgelandsmoen" />
		<tag k="old_name" v="Snadden" />
		<tag k="place" v="quarter" />
		<tag k="ssr:stedsnr" v="222326" />
	</node>
	<node id="-269699" lat="60.1091106962" lon="10.270189184">
		<tag k="fixme" v="consider place=hamlet" />
		<tag k="name" v="Mo" />
		<tag k="place" v="farm" />
		<tag k="ssr:stedsnr" v="793765" />
	</node>
	<node id="-269186" lat="60.0468503789" lon="10.3214669052">
		<tag k="name" v="Kleivstua" />
		<tag k="ssr:stedsnr" v="490358" />
		<tag k="tourism" v="hotel" />
	</node>
	<node id="-269578" lat="60.0958557482" lon="10.1892458572">
		<tag k="name" v="Stadum" />
		<tag k="place" v="farm" />
		<tag k="ssr:stedsnr" v="390589" />
	</node>
	<node id="-269576" lat="60.0854027739" lon="10.1831027717">
>>>>>>> e1d4bc35ff8a6074a6f2e91616a996b547c36f15
		<tag k="name" v="Tuløkka" />
		<tag k="place" v="farm" />
		<tag k="ssr:stedsnr" v="389737" />
	</node>
<<<<<<< HEAD
	<node lat="60.076897219208696" lon="10.213708336244903" id="-13657">
		<tag k="amenity" v="nursing_home" />
		<tag k="name" v="Pleiehjem" />
		<tag k="ssr:stedsnr" v="389759" />
	</node>
	<node lat="60.08369722514022" lon="10.249105548204323" id="-13659">
		<tag k="name" v="Hunangen" />
		<tag k="place" v="farm" />
		<tag k="ssr:stedsnr" v="389969" />
	</node>
	<node lat="60.08730223671476" lon="10.267810792905951" id="-13664">
		<tag k="name" v="Halvorsbråtan" />
		<tag k="place" v="farm" />
		<tag k="ssr:stedsnr" v="391660" />
	</node>
	<node lat="59.97841388908945" lon="10.34038611138108" id="-13666">
		<tag k="name" v="Løkenmyra" />
		<tag k="place" v="locality" />
		<tag k="ssr:stedsnr" v="428448" />
	</node>
	<node lat="60.101184418859425" lon="10.211643378000993" id="-13670">
		<tag k="fixme" v="consider place=hamlet" />
		<tag k="name" v="Helgeland" />
		<tag k="place" v="farm" />
		<tag k="ssr:stedsnr" v="429723" />
	</node>
	<node lat="60.090172257590794" lon="10.345066014279281" id="-13671">
		<tag k="fixme" v="consider place=hamlet" />
		<tag k="name" v="Steinsetra" />
		<tag k="old_name" v="Steinsæteren" />
		<tag k="place" v="farm" />
		<tag k="ssr:stedsnr" v="430128" />
	</node>
	<node lat="60.02148611112045" lon="10.338661117039626" id="-13672">
		<tag k="alt_name" v="Kneikasetra" />
		<tag k="historic" v="shieling" />
		<tag k="name" v="Kneika" />
=======
	<node id="-269575" lat="60.1195782288" lon="10.3056962992">
		<tag k="name" v="Fossum" />
		<tag k="place" v="isolated_dwelling" />
		<tag k="ssr:stedsnr" v="389488" />
	</node>
	<node id="-269697" lat="60.0324277796" lon="10.2625027778">
		<tag k="alt_name" v="Sørbråtan" />
		<tag k="name" v="Sørbråten" />
		<tag k="place" v="farm" />
		<tag k="ssr:stedsnr" v="793342" />
	</node>
	<node id="-269571" lat="60.0436499996" lon="10.2684611135">
		<tag k="alt_name" v="Bråtan" />
		<tag k="name" v="Bråten" />
>>>>>>> e1d4bc35ff8a6074a6f2e91616a996b547c36f15
		<tag k="place" v="isolated_dwelling" />
		<tag k="ssr:stedsnr" v="430337" />
	</node>
<<<<<<< HEAD
	<node lat="60.00730072092331" lon="10.26454750181202" id="-13673">
		<tag k="name" v="Kløvvika" />
		<tag k="place" v="farm" />
		<tag k="ssr:stedsnr" v="430390" />
	</node>
	<node lat="60.005891834343515" lon="10.271672196825435" id="-13674">
		<tag k="alt_name" v="Øvre Nes" />
		<tag k="name" v="Øgarden" />
		<tag k="place" v="farm" />
		<tag k="ssr:stedsnr" v="430392" />
	</node>
	<node lat="60.00607777915224" lon="10.381894438285908" id="-13675">
		<tag k="name" v="Benteplassen" />
		<tag k="place" v="isolated_dwelling" />
		<tag k="ssr:stedsnr" v="430872" />
	</node>
	<node lat="60.12433583516105" lon="10.308379680027535" id="-13679">
		<tag k="fixme" v="consider place=hamlet" />
		<tag k="name" v="Hårum" />
		<tag k="old_name" v="Haarum" />
		<tag k="place" v="farm" />
		<tag k="ssr:stedsnr" v="509898" />
	</node>
	<node lat="60.105177774904874" lon="10.219905558520793" id="-13681">
		<tag k="name" v="Skog" />
=======
	<node id="-269570" lat="60.0499805548" lon="10.285402771">
		<tag k="name" v="Klokkerbråtan" />
		<tag k="place" v="isolated_dwelling" />
		<tag k="ssr:stedsnr" v="369344" />
	</node>
	<node id="-269211" lat="59.9947138889" lon="10.2908666661">
		<tag k="name" v="Bråtan" />
		<tag k="place" v="hamlet" />
		<tag k="ssr:stedsnr" v="512388" />
	</node>
	<node id="-269565" lat="60.0506027818" lon="10.420783328">
		<tag k="name" v="Monsebråtan" />
>>>>>>> e1d4bc35ff8a6074a6f2e91616a996b547c36f15
		<tag k="place" v="farm" />
		<tag k="ssr:stedsnr" v="511650" />
	</node>
<<<<<<< HEAD
	<node lat="60.09441666537915" lon="10.208727776240744" id="-13682">
		<tag k="name" v="Bredvoll" />
		<tag k="place" v="farm" />
		<tag k="ssr:stedsnr" v="511656" />
	</node>
	<node lat="60.070602782017296" lon="10.25708611178385" id="-13683">
		<tag k="name" v="Borgen" />
		<tag k="place" v="farm" />
		<tag k="ssr:stedsnr" v="511733" />
	</node>
	<node lat="60.06902574017156" lon="10.263613258585968" id="-13684">
		<tag k="name" v="Flata" />
=======
	<node id="-269564" lat="60.0941777755" lon="10.3458583373">
		<tag k="name" v="Nordenga" />
		<tag k="place" v="farm" />
		<tag k="ssr:stedsnr" v="369133" />
	</node>
	<node id="-269563" lat="60.0608694432" lon="10.3175944377">
		<tag k="name" v="Grøndokka" />
		<tag k="place" v="quarter" />
		<tag k="ssr:stedsnr" v="368360" />
	</node>
	<node id="-269562" lat="60.0822500019" lon="10.2064249958">
		<tag k="name" v="Fjelstad" />
>>>>>>> e1d4bc35ff8a6074a6f2e91616a996b547c36f15
		<tag k="place" v="farm" />
		<tag k="ssr:stedsnr" v="511882" />
	</node>
<<<<<<< HEAD
	<node lat="59.994713888932914" lon="10.290866666071759" id="-13685">
		<tag k="name" v="Bråtan" />
		<tag k="place" v="hamlet" />
		<tag k="ssr:stedsnr" v="512388" />
	</node>
	<node lat="60.07271666255457" lon="10.331949991476977" id="-13689">
		<tag k="name" v="Lyse" />
=======
	<node id="-269561" lat="60.0891527744" lon="10.2630750044">
		<tag k="fixme" v="multiple name tags, choose one and add the other to alt_name" />
		<tag k="name" v="Bråtan;Storbråtan" />
>>>>>>> e1d4bc35ff8a6074a6f2e91616a996b547c36f15
		<tag k="place" v="farm" />
		<tag k="ssr:stedsnr" v="550263" />
	</node>
<<<<<<< HEAD
	<node lat="60.06689999940268" lon="10.17524166833141" id="-13690">
		<tag k="name" v="Vestbråtan" />
=======
	<node id="-269560" lat="60.0643916663" lon="10.2545861037">
		<tag k="alt_name" v="Rytteraker" />
		<tag k="name" v="Rytteråker" />
>>>>>>> e1d4bc35ff8a6074a6f2e91616a996b547c36f15
		<tag k="place" v="farm" />
		<tag k="ssr:stedsnr" v="550268" />
	</node>
<<<<<<< HEAD
	<node lat="60.079730558725615" lon="10.264938880378716" id="-13691">
		<tag k="name" v="Borgestad" />
		<tag k="place" v="farm" />
		<tag k="ssr:stedsnr" v="550292" />
	</node>
	<node lat="60.12391504731367" lon="10.30859679072838" id="-13693">
		<tag k="name" v="Hårum" />
		<tag k="place" v="farm" />
		<tag k="ssr:stedsnr" v="550692" />
	</node>
	<node lat="59.980763891899386" lon="10.312258341773385" id="-13699">
		<tag k="name" v="Humledal" />
		<tag k="place" v="farm" />
		<tag k="ssr:stedsnr" v="570438" />
	</node>
	<node lat="60.05271110846394" lon="10.266655557634676" id="-13701">
		<tag k="name" v="Kuskeplassen" />
=======
	<node id="-269268" lat="60.1254642771" lon="10.3079161838">
		<tag k="name" v="Sjåheim" />
		<tag k="place" v="isolated_dwelling" />
		<tag k="ssr:stedsnr" v="571479" />
	</node>
	<node id="-269097" lat="60.076524998" lon="10.2163805529">
		<tag k="amenity" v="nursing_home" />
		<tag k="name" v="Nøstret" />
		<tag k="ssr:stedsnr" v="247244" />
	</node>
	<node id="-269556" lat="60.0423057198" lon="10.3430144293">
		<tag k="historic" v="shieling" />
		<tag k="name" v="Torgesetra" />
		<tag k="place" v="locality" />
		<tag k="ssr:stedsnr" v="356970" />
	</node>
	<node id="-269182" lat="60.0786583326" lon="10.3359111172">
		<tag k="name" v="Baserud" />
		<tag k="place" v="farm" />
		<tag k="ssr:stedsnr" v="490290" />
	</node>
	<node id="-269250" lat="60.0197583294" lon="10.4045499961">
		<tag k="name" v="Soterudsetrene" />
		<tag k="place" v="locality" />
		<tag k="ssr:stedsnr" v="511067" />
	</node>
	<node id="-269549" lat="60.1198897672" lon="10.2736701453">
		<tag k="name" v="Bergerstua" />
		<tag k="place" v="isolated_dwelling" />
		<tag k="ssr:stedsnr" v="328349" />
	</node>
	<node id="-269125" lat="60.0888720577" lon="10.2738309925">
		<tag k="name" v="Steinsrud" />
		<tag k="place" v="farm" />
		<tag k="ssr:stedsnr" v="271696" />
	</node>
	<node id="-269159" lat="60.1179472255" lon="10.2822833398">
		<tag k="name" v="Vangen" />
		<tag k="place" v="farm" />
		<tag k="ssr:stedsnr" v="268365" />
	</node>
	<node id="-269543" lat="60.0492388849" lon="10.2455277714">
		<tag k="alt_name" v="Storøen" />
		<tag k="fixme" v="consider place=hamlet" />
		<tag k="name" v="Storøya" />
>>>>>>> e1d4bc35ff8a6074a6f2e91616a996b547c36f15
		<tag k="place" v="farm" />
		<tag k="ssr:stedsnr" v="570595" />
	</node>
<<<<<<< HEAD
	<node lat="60.125464277116734" lon="10.307916183768075" id="-13704">
		<tag k="name" v="Sjåheim" />
=======
	<node id="-269541" lat="60.0536361138" lon="10.2908999962">
		<tag k="name" v="Rørvikberget" />
>>>>>>> e1d4bc35ff8a6074a6f2e91616a996b547c36f15
		<tag k="place" v="isolated_dwelling" />
		<tag k="ssr:stedsnr" v="571479" />
	</node>
<<<<<<< HEAD
	<node lat="60.00589444536782" lon="10.265727775887886" id="-13705">
		<tag k="alt_name" v="Appendiks" />
		<tag k="name" v="Rovestuen" />
		<tag k="place" v="isolated_dwelling" />
		<tag k="ssr:stedsnr" v="571486" />
	</node>
	<node lat="60.095494444555065" lon="10.227780552976618" id="-13706">
		<tag k="name" v="Skogstad" />
=======
	<node id="-269538" lat="60.0272307146" lon="10.2617454774">
		<tag k="fixme" v="consider place=hamlet" />
		<tag k="name" v="Utvika" />
>>>>>>> e1d4bc35ff8a6074a6f2e91616a996b547c36f15
		<tag k="place" v="farm" />
		<tag k="ssr:stedsnr" v="571605" />
	</node>
<<<<<<< HEAD
	<node lat="60.09997778061614" lon="10.215022228557974" id="-13707">
		<tag k="name" v="Ringhol" />
=======
	<node id="-269537" lat="60.0375361118" lon="10.2657111057">
		<tag k="fixme" v="consider place=hamlet" />
		<tag k="name" v="Øverby" />
>>>>>>> e1d4bc35ff8a6074a6f2e91616a996b547c36f15
		<tag k="place" v="farm" />
		<tag k="ssr:stedsnr" v="571613" />
	</node>
<<<<<<< HEAD
	<node lat="60.09359444573441" lon="10.185072228853686" id="-13708">
		<tag k="name" v="Onsakerbråten" />
=======
	<node id="-269536" lat="60.0801922813" lon="10.2185013484">
		<tag k="alt_name" v="Ulleren" />
		<tag k="fixme" v="consider place=hamlet" />
		<tag k="name" v="Ullern" />
>>>>>>> e1d4bc35ff8a6074a6f2e91616a996b547c36f15
		<tag k="place" v="farm" />
		<tag k="ssr:stedsnr" v="572633" />
	</node>
<<<<<<< HEAD
	<node lat="60.07558888877425" lon="10.333463896912813" id="-13711">
		<tag k="name" v="Skogli" />
=======
	<node id="-269535" lat="60.0638000003" lon="10.1733250017">
		<tag k="alt_name" v="Hodt" />
		<tag k="name" v="Hott" />
>>>>>>> e1d4bc35ff8a6074a6f2e91616a996b547c36f15
		<tag k="place" v="farm" />
		<tag k="ssr:stedsnr" v="571944" />
	</node>
<<<<<<< HEAD
	<node lat="60.07468610809023" lon="10.25411944843499" id="-13712">
		<tag k="name" v="Vestbråtan" />
=======
	<node id="-269533" lat="59.9987893766" lon="10.2801197405">
		<tag k="name" v="Nedre Nes" />
>>>>>>> e1d4bc35ff8a6074a6f2e91616a996b547c36f15
		<tag k="place" v="farm" />
		<tag k="ssr:stedsnr" v="571971" />
	</node>
<<<<<<< HEAD
	<node lat="60.05788888961315" lon="10.193730564052503" id="-13717">
		<tag k="name" v="Pålerud" />
=======
	<node id="-269531" lat="59.9964277747" lon="10.3503611059">
		<tag k="name" v="Toresplassen" />
>>>>>>> e1d4bc35ff8a6074a6f2e91616a996b547c36f15
		<tag k="place" v="farm" />
		<tag k="ssr:stedsnr" v="572543" />
	</node>
<<<<<<< HEAD
	<node lat="60.08875833760963" lon="10.21442221677065" id="-13724">
		<tag k="name" v="Frøyhov" />
		<tag k="place" v="farm" />
		<tag k="ssr:stedsnr" v="594139" />
	</node>
	<node lat="60.032620464105975" lon="10.412616910846282" id="-13725">
		<tag k="fixme" v="consider tourism=alpine_hut or tourism=chalet" />
		<tag k="name" v="Myrsetra" />
		<tag k="old_name" v="Myrseter" />
		<tag k="ssr:stedsnr" v="600554" />
		<tag k="tourism" v="wilderness_hut" />
	</node>
	<node lat="60.07262499672944" lon="10.187538884674927" id="-13727">
		<tag k="name" v="Myra" />
		<tag k="place" v="farm" />
		<tag k="ssr:stedsnr" v="611257" />
	</node>
	<node lat="60.085458332413936" lon="10.34093055836666" id="-13728">
		<tag k="name" v="Hellerud" />
=======
	<node id="-269530" lat="60.0707138859" lon="10.1668194393">
		<tag k="amenity" v="school" />
		<tag k="name" v="Tyrifjord videregående skole" />
		<tag k="old_name" v="Tyrifjord høyere skole" />
		<tag k="ssr:stedsnr" v="301895" />
	</node>
	<node id="-269263" lat="60.0951555549" lon="10.2257555567">
		<tag k="name" v="Nygård" />
		<tag k="place" v="farm" />
		<tag k="ssr:stedsnr" v="693641" />
	</node>
	<node id="-269525" lat="60.0747666646" lon="10.1941805534">
		<tag k="name" v="Fjell" />
>>>>>>> e1d4bc35ff8a6074a6f2e91616a996b547c36f15
		<tag k="place" v="farm" />
		<tag k="ssr:stedsnr" v="611299" />
	</node>
<<<<<<< HEAD
	<node lat="60.06672573625297" lon="10.210908145807998" id="-13732">
		<tag k="fixme" v="consider place=hamlet" />
		<tag k="name" v="Svarstad" />
		<tag k="place" v="farm" />
		<tag k="ssr:stedsnr" v="611265" />
	</node>
	<node lat="60.065816663917175" lon="10.16992222252292" id="-13733">
		<tag k="name" v="Solheim" />
		<tag k="place" v="isolated_dwelling" />
		<tag k="ssr:stedsnr" v="611267" />
	</node>
	<node lat="60.07480555324569" lon="10.187852770414406" id="-13736">
		<tag k="name" v="Fjell" />
		<tag k="place" v="farm" />
		<tag k="ssr:stedsnr" v="611441" />
	</node>
	<node lat="60.12021563283779" lon="10.296091285351775" id="-13741">
		<tag k="name" v="Hagen" />
		<tag k="place" v="isolated_dwelling" />
		<tag k="ssr:stedsnr" v="631353" />
	</node>
	<node lat="60.09425000279414" lon="10.218886117033213" id="-13744">
		<tag k="name" v="Nedre Libakke" />
=======
	<node id="-269091" lat="60.0988777592" lon="10.1939443994">
		<tag k="name" v="Stadum" />
		<tag k="place" v="farm" />
		<tag k="ssr:stedsnr" v="65734" />
	</node>
	<node id="-269518" lat="60.0603416709" lon="10.2072250058">
		<tag k="name" v="Søndre Svarstad" />
		<tag k="place" v="farm" />
		<tag k="ssr:stedsnr" v="208561" />
	</node>
	<node id="-269175" lat="60.0760424986" lon="10.2623569926">
		<tag k="name" v="Østeng" />
		<tag k="place" v="farm" />
		<tag k="ssr:stedsnr" v="331629" />
	</node>
	<node id="-269512" lat="60.0955222202" lon="10.2113527754">
		<tag k="name" v="Lysgård" />
>>>>>>> e1d4bc35ff8a6074a6f2e91616a996b547c36f15
		<tag k="place" v="farm" />
		<tag k="ssr:stedsnr" v="632602" />
	</node>
<<<<<<< HEAD
	<node lat="60.07900276955684" lon="10.169768755087606" id="-13745">
		<tag k="name" v="Gomnesbråten" />
		<tag k="old_name" v="Braataan;Braaten" />
		<tag k="place" v="farm" />
		<tag k="ssr:stedsnr" v="632779" />
	</node>
	<node lat="60.098999999148305" lon="10.217286105042449" id="-13746">
=======
	<node id="-269510" lat="59.9606222228" lon="10.3403805468">
		<tag k="name" v="Skrenten" />
		<tag k="place" v="isolated_dwelling" />
		<tag k="ssr:stedsnr" v="204540" />
	</node>
	<node id="-269509" lat="60.0001583379" lon="10.3007249922">
		<tag k="historic" v="shieling" />
		<tag k="name" v="Sønsterudsetra" />
		<tag k="place" v="locality" />
		<tag k="ssr:stedsnr" v="188476" />
	</node>
	<node id="-269508" lat="60.0436315003" lon="10.3957590724">
>>>>>>> e1d4bc35ff8a6074a6f2e91616a996b547c36f15
		<tag k="fixme" v="consider place=hamlet" />
		<tag k="name" v="Hole prestegård" />
		<tag k="place" v="farm" />
<<<<<<< HEAD
		<tag k="ssr:stedsnr" v="632667" />
	</node>
	<node lat="60.07849722563744" lon="10.333824992872852" id="-13750">
		<tag k="name" v="Korneliusbråten" />
=======
		<tag k="ssr:stedsnr" v="187959" />
	</node>
	<node id="-269504" lat="60.1248673665" lon="10.2979139213">
		<tag k="alt_name" v="Kleiva" />
		<tag k="name" v="Kleven" />
>>>>>>> e1d4bc35ff8a6074a6f2e91616a996b547c36f15
		<tag k="place" v="farm" />
		<tag k="ssr:stedsnr" v="632944" />
	</node>
<<<<<<< HEAD
	<node lat="59.97523055211092" lon="10.332922219265098" id="-13751">
		<tag k="name" v="Berntsegård" />
=======
	<node id="-269503" lat="60.1204777772" lon="10.2803111181">
		<tag k="alt_name" v="Øde-Rå" />
		<tag k="name" v="Øderå" />
>>>>>>> e1d4bc35ff8a6074a6f2e91616a996b547c36f15
		<tag k="place" v="farm" />
		<tag k="ssr:stedsnr" v="633301" />
	</node>
<<<<<<< HEAD
	<node lat="60.103013885268446" lon="10.199211102585686" id="-13756">
		<tag k="name" v="Tomta" />
		<tag k="place" v="isolated_dwelling" />
		<tag k="ssr:stedsnr" v="633673" />
	</node>
	<node lat="60.08180355245326" lon="10.258291384037117" id="-13759">
		<tag k="name" v="Rønningen" />
=======
	<node id="-269501" lat="59.9697819712" lon="10.3232692261">
		<tag k="fixme" v="consider place=hamlet" />
		<tag k="name" v="Fjulsrud" />
		<tag k="place" v="farm" />
		<tag k="ssr:stedsnr" v="186532" />
	</node>
	<node id="-269500" lat="60.0840277748" lon="10.2646527741">
		<tag k="name" v="Viksenga" />
>>>>>>> e1d4bc35ff8a6074a6f2e91616a996b547c36f15
		<tag k="place" v="farm" />
		<tag k="ssr:stedsnr" v="634659" />
	</node>
<<<<<<< HEAD
	<node lat="60.06644140507901" lon="10.377951267188573" id="-13760">
		<tag k="alt_name" v="Fjellsetrene" />
		<tag k="historic" v="shieling" />
		<tag k="name" v="Fjellsetra" />
		<tag k="place" v="isolated_dwelling" />
		<tag k="ssr:stedsnr" v="660213" />
	</node>
	<node lat="60.02178889152166" lon="10.3056472187368" id="-13763">
		<tag k="historic" v="shieling" />
		<tag k="name" v="Finneflaksetra" />
		<tag k="place" v="isolated_dwelling" />
		<tag k="ssr:stedsnr" v="733318" />
	</node>
	<node lat="60.05313333373368" lon="10.24581666010012" id="-13764">
		<tag k="name" v="Sundland" />
		<tag k="place" v="isolated_dwelling" />
		<tag k="ssr:stedsnr" v="733332" />
	</node>
	<node lat="60.08892500268285" lon="10.28794721611718" id="-13765">
		<tag k="name" v="Steinsåsen" />
		<tag k="place" v="quarter" />
		<tag k="ssr:stedsnr" v="733276" />
	</node>
	<node lat="60.05215191850471" lon="10.280080289439816" id="-13766">
		<tag k="alt_name" v="Elgstangen" />
		<tag k="name" v="Elstangen" />
		<tag k="place" v="farm" />
		<tag k="ssr:stedsnr" v="733336" />
	</node>
	<node lat="60.09588055184683" lon="10.21388055017518" id="-13768">
		<tag k="name" v="Kirkevoll" />
		<tag k="place" v="farm" />
		<tag k="ssr:stedsnr" v="753639" />
	</node>
	<node lat="60.074727775511256" lon="10.197780554060003" id="-13769">
		<tag k="name" v="Hundstad lille" />
		<tag k="place" v="farm" />
		<tag k="ssr:stedsnr" v="753710" />
	</node>
	<node lat="60.077816670572034" lon="10.246313880692284" id="-13770">
		<tag k="name" v="Rolighet" />
=======
	<node id="-269498" lat="60.0819472197" lon="10.1701694442">
		<tag k="alt_name" v="Hagastu" />
		<tag k="name" v="Hagastua" />
		<tag k="place" v="farm" />
		<tag k="ssr:stedsnr" v="186299" />
	</node>
	<node id="-269087" lat="60.0609499966" lon="10.1975916745">
		<tag k="fixme" v="consider place=hamlet" />
		<tag k="name" v="Bønsnes" />
		<tag k="place" v="farm" />
		<tag k="ssr:stedsnr" v="65252" />
	</node>
	<node id="-269494" lat="60.1144305516" lon="10.2313527729">
		<tag k="name" v="Helgelandsmoen Næringspark AS" />
		<tag k="place" v="quarter" />
		<tag k="ssr:stedsnr" v="179992" />
	</node>
	<node id="-269491" lat="60.0777728712" lon="10.2596971949">
		<tag k="name" v="Bråtan" />
		<tag k="place" v="farm" />
		<tag k="ssr:stedsnr" v="149628" />
	</node>
	<node id="-269490" lat="60.0764722201" lon="10.275219438">
		<tag k="name" v="Sørenga" />
		<tag k="place" v="farm" />
		<tag k="ssr:stedsnr" v="149618" />
	</node>
	<node id="-269195" lat="60.0836972251" lon="10.2491055482">
		<tag k="name" v="Hunangen" />
		<tag k="place" v="farm" />
		<tag k="ssr:stedsnr" v="389969" />
	</node>
	<node id="-269481" lat="60.0310416653" lon="10.4008472268">
		<tag k="alt_name" v="Lomvollhytta" />
		<tag k="name" v="Lomvoll" />
>>>>>>> e1d4bc35ff8a6074a6f2e91616a996b547c36f15
		<tag k="place" v="isolated_dwelling" />
		<tag k="ssr:stedsnr" v="753750" />
	</node>
<<<<<<< HEAD
	<node lat="60.07652777669594" lon="10.168391662713939" id="-13772">
		<tag k="name" v="Plassen" />
		<tag k="place" v="farm" />
		<tag k="ssr:stedsnr" v="753778" />
	</node>
	<node lat="60.08624444663727" lon="10.219583336598694" id="-13773">
		<tag k="name" v="Smiubakken" />
=======
	<node id="-269208" lat="60.0871593818" lon="10.2912206604">
		<tag k="name" v="Rudshagan" />
		<tag k="place" v="farm" />
		<tag k="ssr:stedsnr" v="511916" />
	</node>
	<node id="-269478" lat="60.0122305518" lon="10.3772527856">
		<tag k="fixme" v="consider place=hamlet" />
		<tag k="name" v="Midtskogen" />
		<tag k="place" v="farm" />
		<tag k="ssr:stedsnr" v="126878" />
	</node>
	<node id="-269477" lat="60.1129319662" lon="10.2754887518">
		<tag k="name" v="Bjørke" />
		<tag k="place" v="hamlet" />
		<tag k="ssr:stedsnr" v="126715" />
	</node>
	<node id="-269476" lat="60.1132885741" lon="10.3090383694">
		<tag k="alt_name" v="Lore søndre" />
		<tag k="fixme" v="consider place=hamlet" />
		<tag k="name" v="Lore" />
>>>>>>> e1d4bc35ff8a6074a6f2e91616a996b547c36f15
		<tag k="place" v="farm" />
		<tag k="ssr:stedsnr" v="753981" />
	</node>
<<<<<<< HEAD
	<node lat="60.08473333139476" lon="10.171272226880141" id="-13775">
		<tag k="name" v="Olastua" />
		<tag k="place" v="isolated_dwelling" />
		<tag k="ssr:stedsnr" v="753828" />
	</node>
	<node lat="60.068777779198484" lon="10.175975004299216" id="-13776">
		<tag k="name" v="Gata" />
=======
	<node id="-269474" lat="60.0982744347" lon="10.2031951038">
		<tag k="alt_name" v="Hamnor" />
		<tag k="name" v="Hafnor" />
>>>>>>> e1d4bc35ff8a6074a6f2e91616a996b547c36f15
		<tag k="place" v="farm" />
		<tag k="ssr:stedsnr" v="753847" />
	</node>
<<<<<<< HEAD
	<node lat="60.07737222447747" lon="10.190330554999548" id="-13786">
		<tag k="name" v="Fjell" />
=======
	<node id="-269472" lat="60.0214833288" lon="10.2613833416">
		<tag k="name" v="Lia" />
>>>>>>> e1d4bc35ff8a6074a6f2e91616a996b547c36f15
		<tag k="place" v="farm" />
		<tag k="ssr:stedsnr" v="793262" />
	</node>
<<<<<<< HEAD
	<node lat="60.03242777963379" lon="10.26250277780717" id="-13789">
		<tag k="alt_name" v="Sørbråtan" />
		<tag k="name" v="Sørbråten" />
		<tag k="place" v="farm" />
		<tag k="ssr:stedsnr" v="793342" />
	</node>
	<node lat="60.02889722488911" lon="10.285883329609172" id="-13790">
		<tag k="historic" v="shieling" />
		<tag k="name" v="By-Flaksetra" />
=======
	<node id="-269471" lat="60.0836166703" lon="10.2271583257">
		<tag k="fixme" v="consider place=hamlet" />
		<tag k="name" v="Berg" />
		<tag k="place" v="farm" />
		<tag k="ssr:stedsnr" v="126297" />
	</node>
	<node id="-269470" lat="60.078224997" lon="10.1743194511">
		<tag k="name" v="Gomnes" />
		<tag k="place" v="quarter" />
		<tag k="ssr:stedsnr" v="126286" />
	</node>
	<node id="-269469" lat="60.0765499978" lon="10.1817305571">
		<tag k="name" v="Øgarden" />
>>>>>>> e1d4bc35ff8a6074a6f2e91616a996b547c36f15
		<tag k="place" v="isolated_dwelling" />
		<tag k="ssr:stedsnr" v="793346" />
	</node>
<<<<<<< HEAD
	<node lat="60.109110696161835" lon="10.270189184044144" id="-13792">
		<tag k="fixme" v="consider place=hamlet" />
		<tag k="name" v="Mo" />
=======
	<node id="-269468" lat="60.0887555578" lon="10.3425388942">
		<tag k="name" v="Bjørnsvika" />
>>>>>>> e1d4bc35ff8a6074a6f2e91616a996b547c36f15
		<tag k="place" v="farm" />
		<tag k="ssr:stedsnr" v="793765" />
	</node>
<<<<<<< HEAD
	<node lat="60.05476944725627" lon="10.259069446703384" id="-13793">
		<tag k="name" v="Gulsplassen" />
=======
	<node id="-269082" lat="60.0845134968" lon="10.3462230384">
		<tag k="name" v="Bråtan" />
		<tag k="place" v="farm" />
		<tag k="ssr:stedsnr" v="26936" />
	</node>
	<node id="-269466" lat="60.0724722222" lon="10.2000722295">
		<tag k="alt_name" v="Hundstad Store" />
		<tag k="name" v="Hundstad" />
>>>>>>> e1d4bc35ff8a6074a6f2e91616a996b547c36f15
		<tag k="place" v="farm" />
		<tag k="ssr:stedsnr" v="813630" />
	</node>
<<<<<<< HEAD
	<node lat="60.01079166459044" lon="10.265905551459383" id="-13796">
		<tag k="name" v="Nes" />
		<tag k="place" v="farm" />
		<tag k="ssr:stedsnr" v="814493" />
	</node>
	<node lat="60.12209415361056" lon="10.2813936339063" id="-13797">
		<tag k="name" v="Gile" />
		<tag k="place" v="farm" />
		<tag k="ssr:stedsnr" v="814417" />
	</node>
	<node lat="60.104924999055704" lon="10.21546943652692" id="-13798">
		<tag k="name" v="Bråtan" />
		<tag k="place" v="farm" />
		<tag k="ssr:stedsnr" v="814673" />
	</node>
	<node lat="60.085936108710506" lon="10.237824998184577" id="-13799">
		<tag k="name" v="Sjellom" />
=======
	<node id="-269719" lat="60.0815365743" lon="10.2647193703">
		<tag k="name" v="Borgeng" />
		<tag k="place" v="farm" />
		<tag k="ssr:stedsnr" v="875890" />
	</node>
	<node id="-269464" lat="60.0904688296" lon="10.1745810465">
		<tag k="alt_name" v="Gomnes" />
		<tag k="name" v="Nordre Gomnes" />
		<tag k="place" v="farm" />
		<tag k="ssr:stedsnr" v="101266" />
	</node>
	<node id="-269463" lat="60.0730666654" lon="10.2986138855">
		<tag k="name" v="Sundet" />
		<tag k="place" v="farm" />
		<tag k="ssr:stedsnr" v="89611" />
	</node>
	<node id="-269462" lat="60.0764453817" lon="10.2833394635">
		<tag k="name" v="Tajet" />
		<tag k="place" v="locality" />
		<tag k="ssr:stedsnr" v="88449" />
	</node>
	<node id="-269662" lat="60.0202016373" lon="10.3237802316">
		<tag k="fixme" v="consider tourism=alpine_hut or tourism=chalet" />
		<tag k="name" v="Jørgenhytta" />
		<tag k="ssr:stedsnr" v="648009" />
		<tag k="tourism" v="wilderness_hut" />
	</node>
	<node id="-269251" lat="60.0690257402" lon="10.2636132586">
		<tag k="name" v="Flata" />
		<tag k="place" v="farm" />
		<tag k="ssr:stedsnr" v="511882" />
	</node>
	<node id="-269455" lat="60.0941999989" lon="10.2727499997">
		<tag k="name" v="Bergebråtan" />
>>>>>>> e1d4bc35ff8a6074a6f2e91616a996b547c36f15
		<tag k="place" v="farm" />
		<tag k="ssr:stedsnr" v="814968" />
	</node>
<<<<<<< HEAD
	<node lat="60.095536111438875" lon="10.266441673105923" id="-13807">
		<tag k="name" v="Sørmoen" />
=======
	<node id="-269451" lat="60.0938527777" lon="10.1975388935">
		<tag k="name" v="Frøyshov" />
>>>>>>> e1d4bc35ff8a6074a6f2e91616a996b547c36f15
		<tag k="place" v="farm" />
		<tag k="ssr:stedsnr" v="815667" />
	</node>
<<<<<<< HEAD
	<node lat="60.08631615529084" lon="10.283280447043113" id="-13808">
		<tag k="amenity" v="school" />
		<tag k="name" v="Hole ungdomsskole" />
		<tag k="ssr:stedsnr" v="815931" />
	</node>
	<node lat="60.077694440397025" lon="10.268372215554209" id="-13809">
		<tag k="name" v="Løkenmoen" />
		<tag k="place" v="hamlet" />
		<tag k="ssr:stedsnr" v="815939" />
	</node>
	<node lat="60.07750019794853" lon="10.27686009382143" id="-13811">
		<tag k="alt_name" v="Vik Søndre" />
		<tag k="name" v="Søndre Vik" />
=======
	<node id="-269450" lat="60.0956492228" lon="10.1969126266">
		<tag k="name" v="Stadum" />
		<tag k="place" v="farm" />
		<tag k="ssr:stedsnr" v="87614" />
	</node>
	<node id="-269449" lat="60.0951055534" lon="10.194500002">
		<tag k="name" v="Frøystad" />
>>>>>>> e1d4bc35ff8a6074a6f2e91616a996b547c36f15
		<tag k="place" v="farm" />
		<tag k="ssr:stedsnr" v="817610" />
	</node>
<<<<<<< HEAD
	<node lat="60.032567287733706" lon="10.412668378785789" id="-13813">
		<tag k="historic" v="shieling" />
		<tag k="name" v="Myrsetra" />
=======
	<node id="-269448" lat="60.0135833318" lon="10.3853611167">
		<tag k="name" v="Hygga" />
>>>>>>> e1d4bc35ff8a6074a6f2e91616a996b547c36f15
		<tag k="place" v="isolated_dwelling" />
		<tag k="ssr:stedsnr" v="842954" />
	</node>
<<<<<<< HEAD
	<node lat="60.03278333112263" lon="10.375569452100093" id="-13814">
		<tag k="alt_name" v="Øskjevallsetrene" />
		<tag k="historic" v="shieling" />
		<tag k="name" v="Øskjevallsetra" />
		<tag k="place" v="isolated_dwelling" />
		<tag k="ssr:stedsnr" v="842956" />
	</node>
	<node lat="60.04060555777436" lon="10.450858342336874" id="-13815">
		<tag k="historic" v="shieling" />
		<tag k="name" v="Kampesetra" />
=======
	<node id="-269447" lat="60.0793166654" lon="10.2031055491">
		<tag k="name" v="Sørdalen" />
		<tag k="place" v="farm" />
		<tag k="ssr:stedsnr" v="86982" />
	</node>
	<node id="-269241" lat="60.1157749978" lon="10.2928305634">
		<tag k="name" v="Hårum" />
		<tag k="place" v="farm" />
		<tag k="ssr:stedsnr" v="672674" />
	</node>
	<node id="-269249" lat="60.1223555522" lon="10.3025138824">
		<tag k="name" v="Åserud" />
		<tag k="place" v="farm" />
		<tag k="ssr:stedsnr" v="510453" />
	</node>
	<node id="-269442" lat="60.0413916676" lon="10.3299361137">
		<tag k="name" v="Holiattentitt" />
>>>>>>> e1d4bc35ff8a6074a6f2e91616a996b547c36f15
		<tag k="place" v="isolated_dwelling" />
		<tag k="ssr:stedsnr" v="843943" />
	</node>
<<<<<<< HEAD
	<node lat="60.09267500227643" lon="10.268563888114624" id="-13818">
		<tag k="fixme" v="multiple name tags, choose one and add the other to alt_name" />
		<tag k="name" v="Haugen;Sørumshaugen" />
		<tag k="place" v="farm" />
		<tag k="ssr:stedsnr" v="854265" />
	</node>
	<node lat="60.08401111497561" lon="10.275750003305124" id="-13819">
=======
	<node id="-269438" lat="60.1222500007" lon="10.2964500055">
		<tag k="alt_name" v="Veisten søndre" />
>>>>>>> e1d4bc35ff8a6074a6f2e91616a996b547c36f15
		<tag k="fixme" v="multiple name tags, choose one and add the other to alt_name" />
		<tag k="name" v="Viksbråtan;Halden" />
		<tag k="place" v="farm" />
		<tag k="ssr:stedsnr" v="854280" />
	</node>
	<node lat="60.07706110920745" lon="10.279077784657044" id="-13820">
		<tag k="name" v="Vik" />
		<tag k="place" v="village" />
		<tag k="ssr:stedsnr" v="854282" />
	</node>
	<node lat="60.08012499821745" lon="10.248472223683669" id="-13821">
		<tag k="name" v="Pålerud" />
		<tag k="place" v="isolated_dwelling" />
		<tag k="ssr:stedsnr" v="854284" />
	</node>
<<<<<<< HEAD
	<node lat="60.056646671138026" lon="10.289934645784774" id="-13823">
=======
	<node id="-269437" lat="60.0517250029" lon="10.1782583298">
>>>>>>> e1d4bc35ff8a6074a6f2e91616a996b547c36f15
		<tag k="fixme" v="consider place=hamlet" />
		<tag k="name" v="Rørvika" />
		<tag k="place" v="farm" />
		<tag k="ssr:stedsnr" v="854329" />
	</node>
<<<<<<< HEAD
	<node lat="60.048758333322084" lon="10.262725003598096" id="-13826">
		<tag k="name" v="Blomsplassen" />
=======
	<node id="-269436" lat="60.0852527757" lon="10.2181055552">
		<tag k="alt_name" v="Søndre By" />
		<tag k="fixme" v="consider place=hamlet" />
		<tag k="name" v="By" />
>>>>>>> e1d4bc35ff8a6074a6f2e91616a996b547c36f15
		<tag k="place" v="farm" />
		<tag k="ssr:stedsnr" v="874652" />
	</node>
<<<<<<< HEAD
	<node lat="60.08077500032002" lon="10.197944439392337" id="-13830">
		<tag k="amenity" v="nursing_home" />
		<tag k="name" v="Røysetoppen" />
		<tag k="ssr:stedsnr" v="875849" />
	</node>
	<node lat="60.08153657429015" lon="10.264719370308102" id="-13831">
		<tag k="name" v="Borgeng" />
		<tag k="place" v="farm" />
		<tag k="ssr:stedsnr" v="875890" />
	</node>
	<node lat="60.078884774432794" lon="10.282267426078727" id="-13832">
		<tag k="amenity" v="school" />
		<tag k="name" v="Vik skole" />
		<tag k="ssr:stedsnr" v="875911" />
	</node>
	<node lat="60.08837700151276" lon="10.26624376666403" id="-13838">
		<tag k="name" v="Åsstua" />
=======
	<node id="-269435" lat="60.0878222183" lon="10.2316722278">
		<tag k="name" v="Svensrud" />
		<tag k="place" v="quarter" />
		<tag k="ssr:stedsnr" v="65278" />
	</node>
	<node id="-269216" lat="59.9784138891" lon="10.3403861114">
		<tag k="name" v="Løkenmyra" />
		<tag k="place" v="locality" />
		<tag k="ssr:stedsnr" v="428448" />
	</node>
	<node id="-269432" lat="59.97203889" lon="10.3232527794">
		<tag k="name" v="Nordland" />
		<tag k="place" v="farm" />
		<tag k="ssr:stedsnr" v="64485" />
	</node>
	<node id="-269431" lat="59.9684166626" lon="10.3290194444">
		<tag k="name" v="Myra" />
		<tag k="place" v="locality" />
		<tag k="ssr:stedsnr" v="64470" />
	</node>
	<node id="-269161" lat="60.0943277768" lon="10.2114777824">
		<tag k="name" v="Kirkenær" />
		<tag k="place" v="farm" />
		<tag k="ssr:stedsnr" v="268663" />
	</node>
	<node id="-269428" lat="60.0942777749" lon="10.180233329">
		<tag k="name" v="Onsakervika Camping" />
		<tag k="ssr:stedsnr" v="34705" />
		<tag k="tourism" v="camp_site" />
	</node>
	<node id="-269427" lat="60.0683166706" lon="10.166824992">
		<tag k="name" v="Roaløkka" />
>>>>>>> e1d4bc35ff8a6074a6f2e91616a996b547c36f15
		<tag k="place" v="farm" />
		<tag k="ssr:stedsnr" v="877535" />
	</node>
<<<<<<< HEAD
	<node lat="60.09101110727692" lon="10.219413894438043" id="-13840">
		<tag k="amenity" v="school" />
		<tag k="name" v="Røyse skole" />
		<tag k="ssr:stedsnr" v="878830" />
	</node>
	<node lat="60.095574997511676" lon="10.220319452367814" id="-13843">
		<tag k="name" v="Sauløkka" />
		<tag k="place" v="farm" />
		<tag k="ssr:stedsnr" v="936614" />
	</node>
	<node lat="60.07986111292491" lon="10.19835555981786" id="-13845">
		<tag k="leisure" v="pitch" />
		<tag k="name" v="Vestjordsbakken" />
		<tag k="ssr:stedsnr" v="936849" />
	</node>
	<node lat="60.082519444691954" lon="10.251169436035589" id="-13847">
		<tag k="name" v="Faltinrud" />
		<tag k="place" v="farm" />
		<tag k="ssr:stedsnr" v="936964" />
	</node>
	<node lat="60.080663886375504" lon="10.254052784272439" id="-13848">
		<tag k="name" v="Byrhaugen" />
=======
	<node id="-269426" lat="60.0998741428" lon="10.2057686632">
		<tag k="name" v="Hafnor" />
		<tag k="place" v="farm" />
		<tag k="ssr:stedsnr" v="26681" />
	</node>
	<node id="-269423" lat="60.0615390166" lon="10.2106071162">
		<tag k="name" v="Engen" />
		<tag k="place" v="farm" />
		<tag k="ssr:stedsnr" v="26560" />
	</node>
	<node id="-269206" lat="60.1051777749" lon="10.2199055585">
		<tag k="name" v="Skog" />
		<tag k="place" v="farm" />
		<tag k="ssr:stedsnr" v="511650" />
	</node>
	<node id="-269418" lat="60.0365833354" lon="10.337044446">
		<tag k="name" v="Grantopp" />
		<tag k="place" v="isolated_dwelling" />
		<tag k="ssr:stedsnr" v="25488" />
	</node>
	<node id="-269417" lat="60.0757583362" lon="10.1800638942">
		<tag k="name" v="Stubberud" />
>>>>>>> e1d4bc35ff8a6074a6f2e91616a996b547c36f15
		<tag k="place" v="farm" />
		<tag k="ssr:stedsnr" v="936965" />
	</node>
<<<<<<< HEAD
	<node lat="60.11665277605451" lon="10.315644445174291" id="-13850">
		<tag k="name" v="Loreåsen" />
		<tag k="place" v="neighbourhood" />
		<tag k="ssr:stedsnr" v="937729" />
	</node>
	<node lat="60.06800774298444" lon="10.323395319752382" id="-13852">
		<tag k="name" v="Sundvollen næringspark" />
		<tag k="place" v="quarter" />
		<tag k="ssr:stedsnr" v="978846" />
	</node>
	<node lat="60.07427720309244" lon="10.279525404438912" id="-13858">
		<tag k="name" v="Gjesval" />
		<tag k="place" v="hamlet" />
		<tag k="ssr:stedsnr" v="988947" />
	</node>
	<node lat="60.072710988154924" lon="10.297040872962118" id="-13859">
		<tag k="fixme" v="consider place=hamlet" />
		<tag k="name" v="Sundet" />
		<tag k="place" v="farm" />
		<tag k="ssr:stedsnr" v="988948" />
	</node>
	<node lat="60.07119641224856" lon="10.26035209015884" id="-13860">
		<tag k="fixme" v="consider place=hamlet" />
		<tag k="name" v="Borgen" />
=======
	<node id="-269415" lat="59.9612555579" lon="10.3390305488">
		<tag k="name" v="Skaustua" />
		<tag k="place" v="isolated_dwelling" />
		<tag k="ssr:stedsnr" v="22575" />
	</node>
	<node id="-269414" lat="60.0592666663" lon="10.3475361081">
		<tag k="historic" v="shieling" />
		<tag k="name" v="Retthella" />
		<tag k="place" v="locality" />
		<tag k="ssr:stedsnr" v="6213" />
	</node>
	<node id="-269585" lat="59.9943555565" lon="10.3198138839">
		<tag k="name" v="Møllbakk" />
		<tag k="place" v="isolated_dwelling" />
		<tag k="ssr:stedsnr" v="429449" />
	</node>
	<node id="-269412" lat="60.0159944429" lon="10.3686194429">
		<tag k="name" v="Frøshaug" />
		<tag k="place" v="isolated_dwelling" />
		<tag k="ssr:stedsnr" v="5962" />
	</node>
	<node id="-269243" lat="60.1092166628" lon="10.2767000044">
		<tag k="fixme" v="consider place=hamlet" />
		<tag k="name" v="Bjørnstad" />
		<tag k="place" v="farm" />
		<tag k="ssr:stedsnr" v="672740" />
	</node>
	<node id="-269408" lat="60.0568944403" lon="10.2982166631">
		<tag k="name" v="Tyriheim" />
		<tag k="old_name" v="Tyriheimen" />
		<tag k="place" v="isolated_dwelling" />
		<tag k="ssr:stedsnr" v="5348" />
	</node>
	<node id="-269406" lat="60.0664805552" lon="10.2972388947">
		<tag k="name" v="Kroksund" />
>>>>>>> e1d4bc35ff8a6074a6f2e91616a996b547c36f15
		<tag k="place" v="farm" />
		<tag k="ssr:stedsnr" v="988949" />
	</node>
<<<<<<< HEAD
	<node lat="60.08870277042647" lon="10.216043127165356" id="-13861">
		<tag k="fixme" v="consider place=hamlet" />
		<tag k="name" v="Frøyhov" />
		<tag k="place" v="farm" />
		<tag k="ssr:stedsnr" v="988950" />
	</node>
	<node lat="60.08491396465076" lon="10.20861698108362" id="-13862">
=======
	<node id="-269242" lat="60.1012498562" lon="10.2961308371">
		<tag k="fixme" v="consider place=hamlet" />
		<tag k="name" v="Stein" />
		<tag k="place" v="farm" />
		<tag k="ssr:stedsnr" v="672718" />
	</node>
	<node id="-269402" lat="60.1176913302" lon="10.2831382773">
>>>>>>> e1d4bc35ff8a6074a6f2e91616a996b547c36f15
		<tag k="fixme" v="consider place=hamlet" />
		<tag k="name" v="Fjelstad" />
		<tag k="place" v="farm" />
		<tag k="ssr:stedsnr" v="988951" />
	</node>
<<<<<<< HEAD
	<node lat="60.0735894531304" lon="10.199954285455943" id="-13863">
		<tag k="name" v="Hundstad" />
		<tag k="place" v="hamlet" />
		<tag k="ssr:stedsnr" v="988952" />
	</node>
	<node lat="60.065792931094016" lon="10.187535497744008" id="-13864">
		<tag k="name" v="Leine" />
		<tag k="place" v="hamlet" />
		<tag k="ssr:stedsnr" v="988953" />
	</node>
	<node lat="60.07516142944511" lon="10.188935006860738" id="-13865">
		<tag k="fixme" v="consider place=hamlet" />
		<tag k="name" v="Fjell" />
		<tag k="place" v="farm" />
		<tag k="ssr:stedsnr" v="988954" />
	</node>
	<node lat="60.0849456060626" lon="10.176715578257765" id="-13866">
=======
	<node id="-269401" lat="59.9965750021" lon="10.2848249913">
		<tag k="name" v="Oreløkka" />
		<tag k="place" v="isolated_dwelling" />
		<tag k="ssr:stedsnr" v="4454" />
	</node>
	<node id="-269156" lat="60.0960638849" lon="10.2713944518">
		<tag k="name" v="Bekkebråtan" />
		<tag k="place" v="farm" />
		<tag k="ssr:stedsnr" v="451696" />
	</node>
	<node id="-269397" lat="60.092470555" lon="10.2921554311">
		<tag k="alt_name" v="Rud" />
>>>>>>> e1d4bc35ff8a6074a6f2e91616a996b547c36f15
		<tag k="fixme" v="consider place=hamlet" />
		<tag k="name" v="Gomnes" />
		<tag k="place" v="farm" />
		<tag k="ssr:stedsnr" v="989016" />
	</node>
<<<<<<< HEAD
	<node lat="60.09374131649228" lon="10.19739896551865" id="-13867">
=======
	<node id="-269395" lat="60.0919780966" lon="10.1899866891">
>>>>>>> e1d4bc35ff8a6074a6f2e91616a996b547c36f15
		<tag k="fixme" v="consider place=hamlet" />
		<tag k="name" v="Frøyshov" />
		<tag k="place" v="farm" />
		<tag k="ssr:stedsnr" v="989017" />
	</node>
<<<<<<< HEAD
	<node lat="60.09909799383191" lon="10.204754628267887" id="-13868">
=======
	<node id="-269394" lat="60.0744301104" lon="10.3307695539">
		<tag k="alt_name" v="Lårvika" />
>>>>>>> e1d4bc35ff8a6074a6f2e91616a996b547c36f15
		<tag k="fixme" v="consider place=hamlet" />
		<tag k="name" v="Hafnor" />
		<tag k="place" v="farm" />
		<tag k="ssr:stedsnr" v="989042" />
	</node>
<<<<<<< HEAD
	<node lat="60.02410572724592" lon="10.249771613076446" id="-13869">
		<tag k="fixme" v="consider place=hamlet" />
		<tag k="name" v="Utøya" />
=======
	<node id="-269393" lat="60.0717833362" lon="10.2780388836">
		<tag k="name" v="Gjesval" />
>>>>>>> e1d4bc35ff8a6074a6f2e91616a996b547c36f15
		<tag k="place" v="farm" />
		<tag k="ssr:stedsnr" v="989043" />
	</node>
<<<<<<< HEAD
	<node lat="60.06280023238371" lon="10.316091888493881" id="-13870">
		<tag k="name" v="Jonsbråten" />
		<tag k="place" v="locality" />
		<tag k="ssr:stedsnr" v="989045" />
	</node>
	<node lat="60.03217108737662" lon="10.413074471771916" id="-13883">
		<tag k="fixme" v="consider tourism=alpine_hut or tourism=chalet" />
		<tag k="name" v="Drømmen" />
		<tag k="ssr:stedsnr" v="1075832" />
		<tag k="tourism" v="wilderness_hut" />
	</node>
	<node lat="60.093163957747485" lon="10.293162121041952" id="-13886">
		<tag k="name" v="Steinsby" />
=======
	<node id="-269392" lat="59.9852301851" lon="10.4109864353">
		<tag k="alt_name" v="Langbru" />
		<tag k="fixme" v="consider place=hamlet" />
		<tag k="name" v="Langebru" />
>>>>>>> e1d4bc35ff8a6074a6f2e91616a996b547c36f15
		<tag k="place" v="farm" />
		<tag k="ssr:stedsnr" v="1077068" />
	</node>
	<node lat="60.094160053563236" lon="10.29120301989311" id="-13887">
		<tag k="name" v="Steinsbyhaugen" />
		<tag k="place" v="farm" />
		<tag k="ssr:stedsnr" v="1077069" />
	</node>
	<node lat="60.04705664445187" lon="10.329089881724252" id="-13888">
		<tag k="name" v="Solstua" />
		<tag k="place" v="farm" />
		<tag k="ssr:stedsnr" v="1076994" />
	</node>
	<node lat="59.99625124306317" lon="10.287286092609262" id="-13911">
		<tag k="name" v="Hassellund" />
		<tag k="place" v="farm" />
		<tag k="ssr:stedsnr" v="1081606" />
	</node>
	<node id="-269529" lat="60.0838270711" lon="10.2617450722">
		<tag k="name" v="Skredshaugen" />
		<tag k="place" v="farm" />
		<tag k="ssr:stedsnr" v="210648" />
	</node>
	<node id="-269222" lat="60.0654972243" lon="10.3781805614">
		<tag k="alt_name" v="Fjellsetrene" />
		<tag k="historic" v="shieling" />
		<tag k="name" v="Fjellsetra" />
		<tag k="place" v="locality" />
		<tag k="ssr:stedsnr" v="660213" />
	</node>
	<node id="-269154" lat="60.0644833312" lon="10.1973972148">
		<tag k="name" v="Sandhaugen" />
		<tag k="place" v="farm" />
		<tag k="ssr:stedsnr" v="451544" />
	</node>
	<node id="-269385" lat="60.0798611129" lon="10.1983555598">
		<tag k="leisure" v="pitch" />
		<tag k="name" v="Vestjordsbakken" />
		<tag k="ssr:stedsnr" v="936849" />
	</node>
	<node id="-269383" lat="60.0152222207" lon="10.3901333298">
		<tag k="alt_name" v="Dammersplass" />
		<tag k="name" v="Dammersplassen" />
		<tag k="place" v="isolated_dwelling" />
		<tag k="ssr:stedsnr" v="916978" />
	</node>
	<node id="-269153" lat="60.0657638891" lon="10.1970166585">
		<tag k="name" v="Jurpland" />
		<tag k="place" v="farm" />
		<tag k="ssr:stedsnr" v="451542" />
	</node>
	<node id="-269379" lat="60.0542055546" lon="10.3778027828">
		<tag k="name" v="Fjellstadhytta" />
		<tag k="place" v="isolated_dwelling" />
		<tag k="ssr:stedsnr" v="916211" />
	</node>
	<node id="-269377" lat="60.0347583347" lon="10.3391666599">
		<tag k="name" v="Bureheim" />
		<tag k="place" v="isolated_dwelling" />
		<tag k="ssr:stedsnr" v="915307" />
	</node>
	<node id="-269376" lat="60.0725500006" lon="10.1726999957">
		<tag k="alt_name" v="Rud vestre;Rud" />
		<tag k="fixme" v="consider place=hamlet" />
		<tag k="name" v="Vestre Rud" />
		<tag k="place" v="farm" />
		<tag k="ssr:stedsnr" v="915234" />
	</node>
	<node id="-269372" lat="60.1106416669" lon="10.2075583345">
		<tag k="name" v="Tjernet" />
		<tag k="place" v="farm" />
		<tag k="ssr:stedsnr" v="875661" />
	</node>
	<node id="-269366" lat="60.0566719683" lon="10.2901988562">
		<tag k="name" v="Rørvika" />
		<tag k="place" v="farm" />
		<tag k="ssr:stedsnr" v="854329" />
	</node>
	<node id="-269364" lat="60.0327833311" lon="10.3755694521">
		<tag k="alt_name" v="Øskjevallsetrene" />
		<tag k="historic" v="shieling" />
		<tag k="name" v="Øskjevallsetra" />
		<tag k="place" v="locality" />
		<tag k="ssr:stedsnr" v="842956" />
	</node>
	<node id="-269363" lat="60.0325821378" lon="10.4126284129">
		<tag k="historic" v="shieling" />
		<tag k="name" v="Myrsetra" />
		<tag k="place" v="locality" />
		<tag k="ssr:stedsnr" v="842954" />
	</node>
	<node id="-269361" lat="60.1166527761" lon="10.3156444452">
		<tag k="name" v="Loreåsen" />
		<tag k="place" v="neighbourhood" />
		<tag k="ssr:stedsnr" v="937729" />
	</node>
	<node id="-269358" lat="60.0806638864" lon="10.2540527843">
		<tag k="name" v="Byrhaugen" />
		<tag k="place" v="farm" />
		<tag k="ssr:stedsnr" v="936965" />
	</node>
	<node id="-269357" lat="60.0825194447" lon="10.251169436">
		<tag k="name" v="Faltinrud" />
		<tag k="place" v="farm" />
		<tag k="ssr:stedsnr" v="936964" />
	</node>
	<node id="-269353" lat="60.0955749975" lon="10.2203194524">
		<tag k="name" v="Sauløkka" />
		<tag k="place" v="farm" />
		<tag k="ssr:stedsnr" v="936614" />
	</node>
	<node id="-269350" lat="60.1164277792" lon="10.3010250062">
		<tag k="name" v="Hårum" />
		<tag k="place" v="farm" />
		<tag k="ssr:stedsnr" v="935464" />
	</node>
	<node id="-269349" lat="60.0845145858" lon="10.1772448207">
		<tag k="alt_name" v="Gomnes" />
		<tag k="name" v="Søndre Gomnes" />
		<tag k="place" v="farm" />
		<tag k="ssr:stedsnr" v="829303" />
	</node>
	<node id="-269346" lat="60.0955361114" lon="10.2664416731">
		<tag k="name" v="Sørmoen" />
		<tag k="place" v="farm" />
		<tag k="ssr:stedsnr" v="815667" />
	</node>
	<node id="-269343" lat="60.0639527815" lon="10.1974222199">
		<tag k="name" v="Rønningen" />
		<tag k="place" v="farm" />
		<tag k="ssr:stedsnr" v="815503" />
	</node>
	<node id="-269183" lat="60.0355416624" lon="10.3233805611">
		<tag k="historic" v="shieling" />
		<tag k="name" v="Nordsetra" />
		<tag k="place" v="locality" />
		<tag k="ssr:stedsnr" v="490312" />
	</node>
	<node id="-269573" lat="60.004991671" lon="10.3969277774">
		<tag k="historic" v="shieling" />
		<tag k="name" v="Øyersetra" />
		<tag k="place" v="locality" />
		<tag k="ssr:stedsnr" v="369876" />
	</node>
	<node id="-269340" lat="60.0859361087" lon="10.2378249982">
		<tag k="name" v="Sjellom" />
		<tag k="place" v="farm" />
		<tag k="ssr:stedsnr" v="814968" />
	</node>
	<node id="-269339" lat="60.1049249991" lon="10.2154694365">
		<tag k="name" v="Bråtan" />
		<tag k="place" v="farm" />
		<tag k="ssr:stedsnr" v="814673" />
	</node>
	<node id="-269337" lat="60.037172219" lon="10.3474333267">
		<tag k="name" v="Oterbu" />
		<tag k="place" v="isolated_dwelling" />
		<tag k="ssr:stedsnr" v="794961" />
	</node>
	<node id="-269335" lat="60.0026583356" lon="10.2681277782">
		<tag k="alt_name" v="Nes Store" />
		<tag k="fixme" v="multiple name tags, choose one and add the other to alt_name" />
		<tag k="name" v="Øvre Nes;Store Nes" />
		<tag k="place" v="farm" />
		<tag k="ssr:stedsnr" v="916452" />
	</node>
	<node id="-269331" lat="60.1087999988" lon="10.2958249994">
		<tag k="name" v="Hungerholt" />
		<tag k="place" v="farm" />
		<tag k="ssr:stedsnr" v="915732" />
	</node>
	<node id="-269330" lat="60.0128666702" lon="10.2658944374">
		<tag k="name" v="Berget" />
		<tag k="place" v="farm" />
		<tag k="ssr:stedsnr" v="915391" />
	</node>
	<node id="-269329" lat="60.095055552" lon="10.2637805612">
		<tag k="name" v="Bråtan" />
		<tag k="place" v="farm" />
		<tag k="ssr:stedsnr" v="915280" />
	</node>
	<node id="-269144" lat="60.0390652436" lon="10.2717558408">
		<tag k="name" v="Høgkastet" />
		<tag k="place" v="isolated_dwelling" />
		<tag k="ssr:stedsnr" v="247301" />
	</node>
	<node id="-269325" lat="60.0706361073" lon="10.2928027797">
		<tag k="alt_name" v="Sundet" />
		<tag k="name" v="Kroksundøgarden" />
		<tag k="place" v="farm" />
		<tag k="ssr:stedsnr" v="915245" />
	</node>
	<node id="-269323" lat="59.9877027788" lon="10.397330555">
		<tag k="historic" v="shieling" />
		<tag k="name" v="Steinsvollen" />
		<tag k="place" v="locality" />
		<tag k="ssr:stedsnr" v="914110" />
	</node>
	<node id="-269322" lat="59.9691055563" lon="10.347927782">
		<tag k="name" v="Høymyr" />
		<tag k="place" v="farm" />
		<tag k="ssr:stedsnr" v="914030" />
	</node>
	<node id="-269399" lat="60.0848035572" lon="10.1899680291">
		<tag k="fixme" v="consider place=hamlet" />
		<tag k="name" v="Dæli" />
		<tag k="place" v="farm" />
		<tag k="ssr:stedsnr" v="4292" />
	</node>
	<node id="-269319" lat="60.0735218954" lon="10.2614899128">
		<tag k="name" v="Borgen" />
		<tag k="place" v="farm" />
		<tag k="ssr:stedsnr" v="696623" />
	</node>
	<node id="-269318" lat="60.0872962648" lon="10.2635431855">
		<tag k="name" v="Jomfruland" />
		<tag k="place" v="farm" />
		<tag k="ssr:stedsnr" v="695654" />
	</node>
	<node id="-269316" lat="60.0751972184" lon="10.1877611141">
		<tag k="name" v="Fjell" />
		<tag k="place" v="farm" />
		<tag k="ssr:stedsnr" v="693763" />
	</node>
	<node id="-269315" lat="60.0806027773" lon="10.1685222135">
		<tag k="name" v="Hassellykkja" />
		<tag k="place" v="farm" />
		<tag k="ssr:stedsnr" v="693762" />
	</node>
	<node id="-269314" lat="60.0821361074" lon="10.1919944419">
		<tag k="name" v="Nordenga" />
		<tag k="place" v="farm" />
		<tag k="ssr:stedsnr" v="693758" />
	</node>
</osm>
