<?xml version="1.0" encoding="UTF-8"?>
<osm generator="osmapis" version="0.6">
	<node id="-171007" lat="60.5908609473" lon="9.63819281559">
		<tag k="fixme" v="multiple name tags, choose one and add the other to alt_name" />
		<tag k="name" v="Austlandet;Østlandet" />
		<tag k="ssr:date" v="2018-01-09" />
		<tag k="ssr:gruppe" v="administrativeIndelinger" />
		<tag k="ssr:hovedgruppe" v="offentligAdministrasjon" />
		<tag k="ssr:stedsnr" v="974775" />
		<tag k="ssr:type" v="annenAdministrativInndeling" />
	</node>
	<node id="-170976" lat="60.5680388855" lon="9.101688891">
		<tag k="name" v="Nes kommune" />
		<tag k="ssr:date" v="2016-05-11" />
		<tag k="ssr:gruppe" v="administrativeIndelinger" />
		<tag k="ssr:hovedgruppe" v="offentligAdministrasjon" />
		<tag k="ssr:stedsnr" v="934801" />
		<tag k="ssr:type" v="kommune" />
	</node>
	<node id="-169635" lat="60.5272601872" lon="9.02639022336">
		<tag k="name" v="Blåbærvegen" />
		<tag k="ssr:date" v="2019-05-30" />
		<tag k="ssr:gruppe" v="veg" />
		<tag k="ssr:hovedgruppe" v="infrastruktur" />
		<tag k="ssr:stedsnr" v="1032688" />
		<tag k="ssr:type" v="adressenavn" />
	</node>
	<node id="-169634" lat="60.5286817463" lon="9.02946141652">
		<tag k="name" v="Tyttebærvegen" />
		<tag k="ssr:date" v="2019-05-30" />
		<tag k="ssr:gruppe" v="veg" />
		<tag k="ssr:hovedgruppe" v="infrastruktur" />
		<tag k="ssr:stedsnr" v="1032684" />
		<tag k="ssr:type" v="adressenavn" />
	</node>
	<node id="-169633" lat="60.5273454773" lon="9.02140738267">
		<tag k="name" v="Moltevegen" />
		<tag k="ssr:date" v="2019-05-30" />
		<tag k="ssr:gruppe" v="veg" />
		<tag k="ssr:hovedgruppe" v="infrastruktur" />
		<tag k="ssr:stedsnr" v="1032683" />
		<tag k="ssr:type" v="adressenavn" />
	</node>
	<node id="-169632" lat="60.5238139254" lon="9.01719873147">
		<tag k="name" v="Tyrihjelmvegen" />
		<tag k="ssr:date" v="2019-05-30" />
		<tag k="ssr:gruppe" v="veg" />
		<tag k="ssr:hovedgruppe" v="infrastruktur" />
		<tag k="ssr:stedsnr" v="1032682" />
		<tag k="ssr:type" v="adressenavn" />
	</node>
	<node id="-169631" lat="60.5229210278" lon="9.02026228419">
		<tag k="name" v="Marikåpevegen" />
		<tag k="ssr:date" v="2019-05-30" />
		<tag k="ssr:gruppe" v="veg" />
		<tag k="ssr:hovedgruppe" v="infrastruktur" />
		<tag k="ssr:stedsnr" v="1032681" />
		<tag k="ssr:type" v="adressenavn" />
	</node>
	<node id="-169630" lat="60.5256400663" lon="9.01792660161">
		<tag k="name" v="Viervegen" />
		<tag k="ssr:date" v="2019-05-30" />
		<tag k="ssr:gruppe" v="veg" />
		<tag k="ssr:hovedgruppe" v="infrastruktur" />
		<tag k="ssr:stedsnr" v="1032679" />
		<tag k="ssr:type" v="adressenavn" />
	</node>
	<node id="-169629" lat="60.5246064886" lon="9.02450255188">
		<tag k="name" v="Bergveronikavegen" />
		<tag k="ssr:date" v="2019-05-30" />
		<tag k="ssr:gruppe" v="veg" />
		<tag k="ssr:hovedgruppe" v="infrastruktur" />
		<tag k="ssr:stedsnr" v="1032678" />
		<tag k="ssr:type" v="adressenavn" />
	</node>
	<node id="-169628" lat="60.5246957112" lon="9.02739921155">
		<tag k="name" v="Knoppsildrevegen" />
		<tag k="ssr:date" v="2019-05-30" />
		<tag k="ssr:gruppe" v="veg" />
		<tag k="ssr:hovedgruppe" v="infrastruktur" />
		<tag k="ssr:stedsnr" v="1032677" />
		<tag k="ssr:type" v="adressenavn" />
	</node>
	<node id="-169627" lat="60.5236030228" lon="9.02259812287">
		<tag k="name" v="Lapprosevegen" />
		<tag k="ssr:date" v="2019-05-30" />
		<tag k="ssr:gruppe" v="veg" />
		<tag k="ssr:hovedgruppe" v="infrastruktur" />
		<tag k="ssr:stedsnr" v="1032676" />
		<tag k="ssr:type" v="adressenavn" />
	</node>
	<node id="-169626" lat="60.5213297738" lon="9.02187702032">
		<tag k="name" v="Grepplyngvegen" />
		<tag k="ssr:date" v="2019-05-30" />
		<tag k="ssr:gruppe" v="veg" />
		<tag k="ssr:hovedgruppe" v="infrastruktur" />
		<tag k="ssr:stedsnr" v="1032675" />
		<tag k="ssr:type" v="adressenavn" />
	</node>
	<node id="-169625" lat="60.5253572329" lon="9.03229857263">
		<tag k="name" v="Moselyngvegen" />
		<tag k="ssr:date" v="2019-05-30" />
		<tag k="ssr:gruppe" v="veg" />
		<tag k="ssr:hovedgruppe" v="infrastruktur" />
		<tag k="ssr:stedsnr" v="1032674" />
		<tag k="ssr:type" v="adressenavn" />
	</node>
	<node id="-169624" lat="60.5267054447" lon="9.03377745103">
		<tag k="name" v="Bergfruevegen" />
		<tag k="ssr:date" v="2019-05-30" />
		<tag k="ssr:gruppe" v="veg" />
		<tag k="ssr:hovedgruppe" v="infrastruktur" />
		<tag k="ssr:stedsnr" v="1032673" />
		<tag k="ssr:type" v="adressenavn" />
	</node>
	<node id="-169623" lat="60.5206071297" lon="9.03039034813">
		<tag k="name" v="Ålsvasshaugan" />
		<tag k="ssr:date" v="2019-05-30" />
		<tag k="ssr:gruppe" v="veg" />
		<tag k="ssr:hovedgruppe" v="infrastruktur" />
		<tag k="ssr:stedsnr" v="1032672" />
		<tag k="ssr:type" v="adressenavn" />
	</node>
	<node id="-169622" lat="60.5262752304" lon="9.03064342975">
		<tag k="name" v="Rypefotvegen" />
		<tag k="ssr:date" v="2019-05-30" />
		<tag k="ssr:gruppe" v="veg" />
		<tag k="ssr:hovedgruppe" v="infrastruktur" />
		<tag k="ssr:stedsnr" v="1032669" />
		<tag k="ssr:type" v="adressenavn" />
	</node>
	<node id="-169621" lat="60.5240831093" lon="9.03607008983">
		<tag k="name" v="Raudsildrevegen" />
		<tag k="ssr:date" v="2019-05-30" />
		<tag k="ssr:gruppe" v="veg" />
		<tag k="ssr:hovedgruppe" v="infrastruktur" />
		<tag k="ssr:stedsnr" v="1032666" />
		<tag k="ssr:type" v="adressenavn" />
	</node>
	<node id="-169620" lat="60.5256902443" lon="9.03616296765">
		<tag k="name" v="Tiriltungevegen" />
		<tag k="ssr:date" v="2019-05-30" />
		<tag k="ssr:gruppe" v="veg" />
		<tag k="ssr:hovedgruppe" v="infrastruktur" />
		<tag k="ssr:stedsnr" v="1032665" />
		<tag k="ssr:type" v="adressenavn" />
	</node>
	<node id="-169619" lat="60.5340394276" lon="9.04750869085">
		<tag k="name" v="Solsteinvegen" />
		<tag k="ssr:date" v="2019-05-30" />
		<tag k="ssr:gruppe" v="veg" />
		<tag k="ssr:hovedgruppe" v="infrastruktur" />
		<tag k="ssr:stedsnr" v="1032664" />
		<tag k="ssr:type" v="adressenavn" />
	</node>
	<node id="-169618" lat="60.5359763034" lon="9.04692654175">
		<tag k="name" v="Alpinvegen" />
		<tag k="ssr:date" v="2019-05-30" />
		<tag k="ssr:gruppe" v="veg" />
		<tag k="ssr:hovedgruppe" v="infrastruktur" />
		<tag k="ssr:stedsnr" v="1032660" />
		<tag k="ssr:type" v="adressenavn" />
	</node>
	<node id="-169617" lat="60.5357147828" lon="9.04503089274">
		<tag k="name" v="Olaf Rodegårds veg" />
		<tag k="ssr:date" v="2019-05-30" />
		<tag k="ssr:gruppe" v="veg" />
		<tag k="ssr:hovedgruppe" v="infrastruktur" />
		<tag k="ssr:stedsnr" v="1032659" />
		<tag k="ssr:type" v="adressenavn" />
	</node>
	<node id="-169616" lat="60.5402088965" lon="9.03481766019">
		<tag k="name" v="Glimmervegen" />
		<tag k="ssr:date" v="2019-05-30" />
		<tag k="ssr:gruppe" v="veg" />
		<tag k="ssr:hovedgruppe" v="infrastruktur" />
		<tag k="ssr:stedsnr" v="1032658" />
		<tag k="ssr:type" v="adressenavn" />
	</node>
	<node id="-169615" lat="60.5399300912" lon="9.03657982684">
		<tag k="name" v="Granatvegen" />
		<tag k="ssr:date" v="2019-05-30" />
		<tag k="ssr:gruppe" v="veg" />
		<tag k="ssr:hovedgruppe" v="infrastruktur" />
		<tag k="ssr:stedsnr" v="1032654" />
		<tag k="ssr:type" v="adressenavn" />
	</node>
	<node id="-169614" lat="60.5196088178" lon="9.03370084645">
		<tag k="name" v="Kvitveisvegen" />
		<tag k="ssr:date" v="2019-05-30" />
		<tag k="ssr:gruppe" v="veg" />
		<tag k="ssr:hovedgruppe" v="infrastruktur" />
		<tag k="ssr:stedsnr" v="1032638" />
		<tag k="ssr:type" v="adressenavn" />
	</node>
	<node id="-169613" lat="60.5227915167" lon="9.03080408726">
		<tag k="name" v="Reinrosevegen" />
		<tag k="ssr:date" v="2019-05-30" />
		<tag k="ssr:gruppe" v="veg" />
		<tag k="ssr:hovedgruppe" v="infrastruktur" />
		<tag k="ssr:stedsnr" v="1032637" />
		<tag k="ssr:type" v="adressenavn" />
	</node>
	<node id="-169612" lat="60.5383105551" lon="9.00937322595">
		<tag k="name" v="Solrenningvegen" />
		<tag k="ssr:date" v="2019-05-30" />
		<tag k="ssr:gruppe" v="veg" />
		<tag k="ssr:hovedgruppe" v="infrastruktur" />
		<tag k="ssr:stedsnr" v="1032636" />
		<tag k="ssr:type" v="adressenavn" />
	</node>
	<node id="-169609" lat="60.499677493" lon="8.85517269968">
		<tag k="name" v="Synstevasshjallen" />
		<tag k="ssr:date" v="2019-05-30" />
		<tag k="ssr:gruppe" v="veg" />
		<tag k="ssr:hovedgruppe" v="infrastruktur" />
		<tag k="ssr:stedsnr" v="985397" />
		<tag k="ssr:type" v="adressenavn" />
	</node>
	<node id="-169732" lat="60.4989805589" lon="9.08819444381">
		<tag k="name" v="Liaberg" />
		<tag k="ssr:date" v="2019-05-30" />
		<tag k="ssr:gruppe" v="veg" />
		<tag k="ssr:hovedgruppe" v="infrastruktur" />
		<tag k="ssr:stedsnr" v="60640" />
		<tag k="ssr:type" v="adressenavn" />
	</node>
</osm>
