<?xml version="1.0" encoding="UTF-8"?>
<osm generator="osmapis" version="0.6">
	<node id="-153216" lat="61.2852043381" lon="9.12501388395">
		<tag k="name" v="Svarthamar" />
		<tag k="ssr:date" v="2019-05-30" />
		<tag k="ssr:gruppe" v="veg" />
		<tag k="ssr:hovedgruppe" v="infrastruktur" />
		<tag k="ssr:stedsnr" v="1014927" />
		<tag k="ssr:type" v="adressenavn" />
	</node>
	<node id="-154843" lat="60.5908609473" lon="9.63819281559">
		<tag k="fixme" v="multiple name tags, choose one and add the other to alt_name" />
		<tag k="name" v="Austlandet;Østlandet" />
		<tag k="ssr:date" v="2018-01-09" />
		<tag k="ssr:gruppe" v="administrativeIndelinger" />
		<tag k="ssr:hovedgruppe" v="offentligAdministrasjon" />
		<tag k="ssr:stedsnr" v="974775" />
		<tag k="ssr:type" v="annenAdministrativInndeling" />
	</node>
	<node id="-153219" lat="61.3601310254" lon="8.91871641685">
		<tag k="name" v="Langeråk" />
		<tag k="ssr:date" v="2019-05-30" />
		<tag k="ssr:gruppe" v="veg" />
		<tag k="ssr:hovedgruppe" v="infrastruktur" />
		<tag k="ssr:stedsnr" v="1014962" />
		<tag k="ssr:type" v="adressenavn" />
	</node>
	<node id="-153223" lat="61.1852110192" lon="9.14763553145">
		<tag k="name" v="Gamasama" />
		<tag k="ssr:date" v="2019-05-30" />
		<tag k="ssr:gruppe" v="veg" />
		<tag k="ssr:hovedgruppe" v="infrastruktur" />
		<tag k="ssr:stedsnr" v="1016557" />
		<tag k="ssr:type" v="adressenavn" />
	</node>
	<node id="-154758" lat="61.1337666703" lon="9.07871943735">
		<tag k="name" v="Øystre Slidre kommune" />
		<tag k="ssr:date" v="2016-05-11" />
		<tag k="ssr:gruppe" v="administrativeIndelinger" />
		<tag k="ssr:hovedgruppe" v="offentligAdministrasjon" />
		<tag k="ssr:stedsnr" v="936989" />
		<tag k="ssr:type" v="kommune" />
	</node>
	<node id="-153221" lat="61.2604885416" lon="8.94645740918">
		<tag k="name" v="Melbisheimstølen" />
		<tag k="ssr:date" v="2019-05-30" />
		<tag k="ssr:gruppe" v="veg" />
		<tag k="ssr:hovedgruppe" v="infrastruktur" />
		<tag k="ssr:stedsnr" v="1016395" />
		<tag k="ssr:type" v="adressenavn" />
	</node>
	<node id="-153220" lat="61.3364439202" lon="9.01209055562">
		<tag k="name" v="Brende Øddin" />
		<tag k="ssr:date" v="2019-05-30" />
		<tag k="ssr:gruppe" v="veg" />
		<tag k="ssr:hovedgruppe" v="infrastruktur" />
		<tag k="ssr:stedsnr" v="1014982" />
		<tag k="ssr:type" v="adressenavn" />
	</node>
	<node id="-153222" lat="61.227912178" lon="9.15433645253">
		<tag k="name" v="Kristianstølen" />
		<tag k="ssr:date" v="2019-05-30" />
		<tag k="ssr:gruppe" v="veg" />
		<tag k="ssr:hovedgruppe" v="infrastruktur" />
		<tag k="ssr:stedsnr" v="1016523" />
		<tag k="ssr:type" v="adressenavn" />
	</node>
	<node id="-153218" lat="61.0867203967" lon="9.19196359301">
		<tag k="name" v="Bølstadtjednet" />
		<tag k="ssr:date" v="2019-05-30" />
		<tag k="ssr:gruppe" v="veg" />
		<tag k="ssr:hovedgruppe" v="infrastruktur" />
		<tag k="ssr:stedsnr" v="1014940" />
		<tag k="ssr:type" v="adressenavn" />
	</node>
	<node id="-153217" lat="61.1258856739" lon="9.25771738898">
		<tag k="name" v="Rabalsvatnet" />
		<tag k="ssr:date" v="2019-05-30" />
		<tag k="ssr:gruppe" v="veg" />
		<tag k="ssr:hovedgruppe" v="infrastruktur" />
		<tag k="ssr:stedsnr" v="1014930" />
		<tag k="ssr:type" v="adressenavn" />
	</node>
</osm>
