<?xml version="1.0" encoding="UTF-8"?>
<osm version="0.6" generator="osmapis">
	<node lat="61.74770277509166" lon="8.396691667158688" id="-15968">
		<tag k="amenity" v="community_centre" />
		<tag k="fixme" v="multiple name tags, choose one and add the other to alt_name" />
		<tag k="name" v="Visheim;Vårvon grendehus" />
		<tag k="ssr:stedsnr" v="131180" />
	</node>
	<node lat="61.848019442599536" lon="8.812513881834633" id="-16028">
		<tag k="name" v="Hamsunstugu" />
		<tag k="ssr:stedsnr" v="149521" />
		<tag k="tourism" v="museum" />
	</node>
	<node lat="61.84087493258168" lon="8.562431480897283" id="-16263">
		<tag k="alt_name" v="Lom samfunnshus" />
		<tag k="amenity" v="community_centre" />
		<tag k="name" v="Utgard fleirbrukshus" />
		<tag k="ssr:stedsnr" v="391503" />
	</node>
	<node lat="61.83676388761714" lon="8.56023888070732" id="-16265">
		<tag k="name" v="Presthaugen" />
		<tag k="ssr:stedsnr" v="391483" />
		<tag k="tourism" v="attraction" />
	</node>
	<node lat="61.83670000125235" lon="8.56179443550814" id="-16474">
		<tag k="name" v="Lom Bygdamuseum" />
		<tag k="ssr:stedsnr" v="573441" />
		<tag k="tourism" v="museum" />
	</node>
	<node lat="61.84910277431383" lon="8.779311105390606" id="-16487">
		<tag k="amenity" v="community_centre" />
		<tag k="name" v="Garmo bygdahus" />
		<tag k="ssr:stedsnr" v="696631" />
	</node>
	<node lat="61.865175000290826" lon="8.76665277764876" id="-17049">
		<tag k="amenity" v="place_of_worship" />
		<tag k="denomination" v="lutheran" />
		<tag k="name" v="Sandom kapell" />
		<tag k="religion" v="christian" />
		<tag k="ssr:stedsnr" v="70063" />
	</node>
	<node lat="61.8741277733488" lon="8.74426111970228" id="-17204">
		<tag k="amenity" v="place_of_worship" />
		<tag k="fixme" v="specify religion=*, denomination=*, building=* etc" />
		<tag k="name" v="Søre Lia bedehus" />
		<tag k="ssr:stedsnr" v="175941" />
	</node>
	<node lat="61.67799431255139" lon="8.777918119250012" id="-17270">
		<tag k="name" v="Saubue" />
		<tag k="place" v="locality" />
		<tag k="ssr:stedsnr" v="192907" />
	</node>
	<node lat="61.847408334916935" lon="8.804555553489152" id="-17420">
		<tag k="amenity" v="place_of_worship" />
		<tag k="denomination" v="lutheran" />
		<tag k="name" v="Garmo kyrkje" />
		<tag k="old_name" v="Garmo-Kyrkja" />
		<tag k="religion" v="christian" />
		<tag k="ssr:stedsnr" v="374062" />
	</node>
	<node lat="61.81919721921469" lon="8.501841671654647" id="-17483">
		<tag k="amenity" v="community_centre" />
		<tag k="name" v="Stubbom" />
		<tag k="ssr:stedsnr" v="389942" />
	</node>
	<node lat="61.72066944757065" lon="8.347913883063548" id="-17508">
		<tag k="amenity" v="community_centre" />
		<tag k="name" v="Bøverdalen samfunnshus" />
		<tag k="ssr:stedsnr" v="418261" />
	</node>
	<node lat="61.71984722337339" lon="8.344533339628057" id="-17545">
		<tag k="alt_name" v="Bøverdalskyrkja;Bøverdalen" />
		<tag k="amenity" v="place_of_worship" />
		<tag k="denomination" v="lutheran" />
		<tag k="name" v="Bøverdal kyrkje" />
		<tag k="religion" v="christian" />
		<tag k="ssr:stedsnr" v="435177" />
	</node>
</osm>
