<?xml version="1.0" encoding="UTF-8"?>
<osm version="0.6" generator="osmapis">
	<node lat="61.48055000058132" lon="8.481316672318153" id="-40854">
		<tag k="fixme" v="consider natural=peak for the most distinct mountains in the district" />
		<tag k="name" v="Høgtunga" />
		<tag k="natural" v="hill" />
		<tag k="place" v="locality" />
		<tag k="ssr:stedsnr" v="8790" />
	</node>
	<node lat="61.49508055393631" lon="8.580047215970742" id="-40855">
		<tag k="name" v="Memurudalen" />
		<tag k="natural" v="valley" />
		<tag k="place" v="locality" />
		<tag k="ssr:stedsnr" v="8797" />
	</node>
	<node lat="61.553683337358876" lon="8.104094442644763" id="-40859">
		<tag k="fixme" v="consider natural=peak for the most distinct mountains in the district" />
		<tag k="name" v="Kalven" />
		<tag k="natural" v="hill" />
		<tag k="place" v="locality" />
		<tag k="ssr:stedsnr" v="10006" />
	</node>
	<node lat="61.559852781995424" lon="8.238550003546463" id="-40861">
		<tag k="fixme" v="consider natural=peak for the most distinct mountains in the district" />
		<tag k="name" v="Presten" />
		<tag k="natural" v="hill" />
		<tag k="place" v="locality" />
		<tag k="ssr:stedsnr" v="10014" />
	</node>
	<node lat="61.72089721805495" lon="8.587333328572655" id="-40865">
		<tag k="fixme" v="consider natural=peak for the most distinct mountains in the district" />
		<tag k="name" v="Finnshalspiggen" />
		<tag k="natural" v="hill" />
		<tag k="old_name" v="Finnhalspiggen" />
		<tag k="place" v="locality" />
		<tag k="ssr:stedsnr" v="10099" />
	</node>
	<node lat="61.66981666294737" lon="8.342130546715461" id="-40866">
		<tag k="name" v="Kjelen" />
		<tag k="natural" v="valley" />
		<tag k="place" v="locality" />
		<tag k="ssr:stedsnr" v="10203" />
	</node>
	<node lat="61.66517222144669" lon="8.21197500029722" id="-40867">
		<tag k="alt_name" v="Kleivbergje" />
		<tag k="name" v="Kleivberget" />
		<tag k="natural" v="hill" />
		<tag k="place" v="locality" />
		<tag k="ssr:stedsnr" v="10207" />
	</node>
	<node lat="61.692427781541376" lon="8.23460278276891" id="-40869">
		<tag k="alt_name" v="Raudskriduhø;Søre Rauskryuhøe" />
		<tag k="name" v="Raudskriduhøe" />
		<tag k="natural" v="hill" />
		<tag k="place" v="locality" />
		<tag k="ssr:stedsnr" v="10237" />
	</node>
	<node lat="61.64852222284139" lon="8.062333328912583" id="-40880">
		<tag k="fixme" v="consider natural=peak for the most distinct mountains in the district" />
		<tag k="name" v="Høyrokampen" />
		<tag k="natural" v="hill" />
		<tag k="place" v="locality" />
		<tag k="ssr:stedsnr" v="10442" />
	</node>
	<node lat="61.640236112480395" lon="8.792200000534534" id="-40884">
		<tag k="name" v="Båsen" />
		<tag k="natural" v="valley" />
		<tag k="place" v="locality" />
		<tag k="ssr:stedsnr" v="10910" />
	</node>
	<node lat="61.63331666231918" lon="8.68416389297063" id="-40885">
		<tag k="name" v="Veodalen" />
		<tag k="natural" v="valley" />
		<tag k="place" v="locality" />
		<tag k="ssr:stedsnr" v="10912" />
	</node>
	<node lat="61.89965000237185" lon="8.663552785029006" id="-40888">
		<tag k="fixme" v="consider natural=peak for the most distinct mountains in the district" />
		<tag k="name" v="Storteppingsranden" />
		<tag k="natural" v="hill" />
		<tag k="place" v="locality" />
		<tag k="ssr:stedsnr" v="10934" />
	</node>
	<node lat="61.7705472228206" lon="8.512149995715676" id="-40890">
		<tag k="name" v="Vidjan" />
		<tag k="natural" v="valley" />
		<tag k="place" v="locality" />
		<tag k="ssr:stedsnr" v="11202" />
	</node>
	<node lat="61.83617499598648" lon="8.842588898402985" id="-40898">
		<tag k="name" v="Svartholet" />
		<tag k="natural" v="valley" />
		<tag k="place" v="locality" />
		<tag k="ssr:stedsnr" v="28578" />
	</node>
	<node lat="61.82588055493229" lon="8.86737223167555" id="-40899">
		<tag k="name" v="Hellberge" />
		<tag k="natural" v="slope" />
		<tag k="place" v="locality" />
		<tag k="ssr:stedsnr" v="28606" />
	</node>
	<node lat="61.7322888897464" lon="8.402366673614532" id="-40905">
		<tag k="name" v="Ørneholet" />
		<tag k="natural" v="valley" />
		<tag k="place" v="locality" />
		<tag k="ssr:stedsnr" v="235469" />
	</node>
	<node lat="61.63910555424641" lon="8.41801944025867" id="-40907">
		<tag k="name" v="Breabakkjen" />
		<tag k="natural" v="slope" />
		<tag k="place" v="locality" />
		<tag k="ssr:stedsnr" v="235530" />
	</node>
	<node lat="61.67498889126134" lon="8.207894436318172" id="-40909">
		<tag k="name" v="Gomobreinnhaugen" />
		<tag k="natural" v="hill" />
		<tag k="place" v="locality" />
		<tag k="ssr:stedsnr" v="235752" />
	</node>
	<node lat="61.80016944767091" lon="8.418325006902696" id="-40910">
		<tag k="fixme" v="consider natural=peak for the most distinct mountains in the district" />
		<tag k="name" v="Åmillomknubben" />
		<tag k="natural" v="hill" />
		<tag k="place" v="locality" />
		<tag k="ssr:stedsnr" v="236044" />
	</node>
	<node lat="61.87125278221526" lon="8.839669436508455" id="-40911">
		<tag k="name" v="Stålein" />
		<tag k="natural" v="slope" />
		<tag k="place" v="locality" />
		<tag k="ssr:stedsnr" v="236259" />
	</node>
	<node lat="61.67997222306139" lon="8.087197225181724" id="-40912">
		<tag k="name" v="Dyrskruvubakkein" />
		<tag k="natural" v="slope" />
		<tag k="place" v="locality" />
		<tag k="ssr:stedsnr" v="236667" />
	</node>
	<node lat="61.65532500253256" lon="8.163188881251752" id="-40913">
		<tag k="name" v="Bægarmein" />
		<tag k="natural" v="ridge" />
		<tag k="place" v="locality" />
		<tag k="ssr:stedsnr" v="236674" />
	</node>
	<node lat="61.71004444869694" lon="8.29054999913595" id="-40917">
		<tag k="name" v="Grønlie" />
		<tag k="natural" v="slope" />
		<tag k="place" v="locality" />
		<tag k="ssr:stedsnr" v="53384" />
	</node>
	<node lat="61.71080833645775" lon="8.251736114594916" id="-40919">
		<tag k="name" v="Skardbakkjen" />
		<tag k="natural" v="slope" />
		<tag k="place" v="locality" />
		<tag k="ssr:stedsnr" v="53616" />
	</node>
	<node lat="61.75448610677615" lon="8.414797225132585" id="-40924">
		<tag k="name" v="Tusslie" />
		<tag k="natural" v="slope" />
		<tag k="place" v="locality" />
		<tag k="ssr:stedsnr" v="54417" />
	</node>
	<node lat="61.66875000280521" lon="8.186877774669092" id="-40925">
		<tag k="name" v="Øvre Kleivholet" />
		<tag k="natural" v="valley" />
		<tag k="place" v="locality" />
		<tag k="ssr:stedsnr" v="54705" />
	</node>
	<node lat="61.4858805560128" lon="8.615313880470302" id="-40926">
		<tag k="fixme" v="consider natural=peak for the most distinct mountains in the district" />
		<tag k="name" v="Sjugurdtinden" />
		<tag k="natural" v="hill" />
		<tag k="place" v="locality" />
		<tag k="ssr:stedsnr" v="69799" />
	</node>
	<node lat="61.86821944399859" lon="8.842555547915426" id="-40932">
		<tag k="name" v="Stålhaugen" />
		<tag k="natural" v="hill" />
		<tag k="place" v="locality" />
		<tag k="ssr:stedsnr" v="70080" />
	</node>
	<node lat="61.8114666679678" lon="8.557819448999004" id="-40934">
		<tag k="alt_name" v="Hegsethøi" />
		<tag k="fixme" v="consider natural=peak for the most distinct mountains in the district" />
		<tag k="name" v="Hegsethøe" />
		<tag k="natural" v="hill" />
		<tag k="place" v="locality" />
		<tag k="ssr:stedsnr" v="70232" />
	</node>
	<node lat="61.612966667504175" lon="8.555488886740923" id="-40935">
		<tag k="name" v="Veslglupen" />
		<tag k="natural" v="valley" />
		<tag k="place" v="locality" />
		<tag k="ssr:stedsnr" v="70884" />
	</node>
	<node lat="61.64521666934231" lon="8.518725002371367" id="-40941">
		<tag k="name" v="Steindalen" />
		<tag k="natural" v="valley" />
		<tag k="place" v="locality" />
		<tag k="ssr:stedsnr" v="70904" />
	</node>
	<node lat="61.973750000837015" lon="8.673666662176046" id="-40951">
		<tag k="loc_name" v="Steinflye" />
		<tag k="name" v="Steinflyi" />
		<tag k="place" v="locality" />
		<tag k="ssr:stedsnr" v="71908" />
	</node>
	<node lat="61.97243610883439" lon="8.817583326839483" id="-40952">
		<tag k="name" v="Gjerdingsdalen" />
		<tag k="natural" v="valley" />
		<tag k="place" v="locality" />
		<tag k="ssr:stedsnr" v="71909" />
	</node>
	<node lat="61.76060555577058" lon="8.308936119104699" id="-40956">
		<tag k="alt_name" v="Storhøi" />
		<tag k="fixme" v="consider natural=peak for the most distinct mountains in the district" />
		<tag k="name" v="Storhøe" />
		<tag k="natural" v="hill" />
		<tag k="place" v="locality" />
		<tag k="ssr:stedsnr" v="71994" />
	</node>
	<node lat="61.83080277412725" lon="8.453533333674779" id="-40961">
		<tag k="fixme" v="consider natural=peak for the most distinct mountains in the district" />
		<tag k="name" v="Vardhøe" />
		<tag k="natural" v="hill" />
		<tag k="place" v="locality" />
		<tag k="ssr:stedsnr" v="88972" />
	</node>
	<node lat="61.86931666682681" lon="8.774741670259633" id="-40962">
		<tag k="name" v="Dalom" />
		<tag k="natural" v="slope" />
		<tag k="place" v="locality" />
		<tag k="ssr:stedsnr" v="90423" />
	</node>
	<node lat="61.788291664704936" lon="8.392877781104225" id="-40966">
		<tag k="name" v="Langdalshøe" />
		<tag k="natural" v="hill" />
		<tag k="place" v="locality" />
		<tag k="ssr:stedsnr" v="114036" />
	</node>
	<node lat="61.856208336313784" lon="8.867600002129507" id="-40969">
		<tag k="name" v="Sjellen" />
		<tag k="natural" v="hill" />
		<tag k="place" v="locality" />
		<tag k="ssr:stedsnr" v="114320" />
	</node>
	<node lat="61.720433330078855" lon="8.189774993240743" id="-40971">
		<tag k="name" v="Geitågjelet" />
		<tag k="natural" v="gorge" />
		<tag k="ssr:stedsnr" v="114585" />
	</node>
	<node lat="61.88584444208576" lon="8.737416671413493" id="-40972">
		<tag k="name" v="Krossbakkjen" />
		<tag k="natural" v="slope" />
		<tag k="place" v="locality" />
		<tag k="ssr:stedsnr" v="114614" />
	</node>
	<node lat="61.46141389030842" lon="8.523663896022835" id="-40978">
		<tag k="name" v="Bukkelægret" />
		<tag k="place" v="locality" />
		<tag k="ssr:stedsnr" v="251790" />
	</node>
	<node lat="61.80914444403368" lon="8.7369861061583" id="-40999">
		<tag k="fixme" v="consider natural=peak for the most distinct mountains in the district" />
		<tag k="name" v="Kvithøe" />
		<tag k="natural" v="hill" />
		<tag k="place" v="locality" />
		<tag k="ssr:stedsnr" v="252226" />
	</node>
	<node lat="61.642136113289496" lon="8.0567277779062" id="-41003">
		<tag k="name" v="Snipen" />
		<tag k="place" v="locality" />
		<tag k="ssr:stedsnr" v="252411" />
	</node>
	<node lat="61.816430554975064" lon="8.86752777676249" id="-41006">
		<tag k="alt_name" v="Havyrjun" />
		<tag k="fixme" v="consider natural=peak for the most distinct mountains in the district" />
		<tag k="name" v="Havyrju" />
		<tag k="natural" v="hill" />
		<tag k="place" v="locality" />
		<tag k="ssr:stedsnr" v="252444" />
	</node>
	<node lat="61.55799166707696" lon="8.463902774662333" id="-41016">
		<tag k="alt_name" v="Memurutindan, vestre;Vestre Memurutinden" />
		<tag k="fixme" v="consider natural=peak for the most distinct mountains in the district" />
		<tag k="name" v="Memurutindan" />
		<tag k="natural" v="hill" />
		<tag k="place" v="locality" />
		<tag k="ssr:stedsnr" v="131019" />
	</node>
	<node lat="61.82018333411788" lon="8.572952778274058" id="-41023">
		<tag k="alt_name" v="Skutlein" />
		<tag k="name" v="Skutlan" />
		<tag k="natural" v="valley" />
		<tag k="place" v="locality" />
		<tag k="ssr:stedsnr" v="131213" />
	</node>
	<node lat="61.82009999745762" lon="8.83555832386328" id="-41026">
		<tag k="fixme" v="consider natural=peak for the most distinct mountains in the district" />
		<tag k="name" v="Tvillinghaug" />
		<tag k="natural" v="hill" />
		<tag k="place" v="locality" />
		<tag k="ssr:stedsnr" v="131223" />
	</node>
	<node lat="61.5899666659312" lon="8.033216665462415" id="-41029">
		<tag k="name" v="Nufshaugen" />
		<tag k="natural" v="hill" />
		<tag k="place" v="locality" />
		<tag k="ssr:stedsnr" v="131273" />
	</node>
	<node lat="61.57420555572824" lon="7.956686116514371" id="-41030">
		<tag k="name" v="Sovarhaugen" />
		<tag k="natural" v="hill" />
		<tag k="place" v="locality" />
		<tag k="ssr:stedsnr" v="131285" />
	</node>
	<node lat="61.80264167087307" lon="8.722833326638384" id="-41036">
		<tag k="fixme" v="consider natural=peak for the most distinct mountains in the district" />
		<tag k="loc_name" v="Skarvhøa" />
		<tag k="name" v="Skarvhøe" />
		<tag k="natural" v="hill" />
		<tag k="place" v="locality" />
		<tag k="ssr:stedsnr" v="132185" />
	</node>
	<node lat="61.75688333770002" lon="8.543297219615397" id="-41037">
		<tag k="name" v="Elgsløyfti" />
		<tag k="natural" v="valley" />
		<tag k="place" v="locality" />
		<tag k="ssr:stedsnr" v="132202" />
	</node>
	<node lat="61.98361110773151" lon="8.720294450419267" id="-41039">
		<tag k="name" v="Grufsa" />
		<tag k="natural" v="valley" />
		<tag k="place" v="locality" />
		<tag k="ssr:stedsnr" v="132977" />
	</node>
	<node lat="61.98641508256337" lon="8.570169990065667" id="-41040">
		<tag k="fixme" v="consider natural=peak for the most distinct mountains in the district" />
		<tag k="loc_name" v="Ryggjehøe" />
		<tag k="name" v="Rygghøe" />
		<tag k="natural" v="hill" />
		<tag k="place" v="locality" />
		<tag k="ssr:stedsnr" v="132979" />
	</node>
	<node lat="61.69873610721423" lon="8.166566674889614" id="-41046">
		<tag k="fixme" v="consider natural=peak for the most distinct mountains in the district" />
		<tag k="name" v="Hovdestulfjellet" />
		<tag k="natural" v="hill" />
		<tag k="place" v="locality" />
		<tag k="ssr:stedsnr" v="253152" />
	</node>
	<node lat="61.736932268879904" lon="8.352615505861408" id="-41050">
		<tag k="fixme" v="multiple name tags, choose one and add the other to alt_name; consider natural=peak for the most distinct mountains in the district" />
		<tag k="name" v="Sauåsen;Mundgjelsåsen" />
		<tag k="natural" v="hill" />
		<tag k="place" v="locality" />
		<tag k="ssr:stedsnr" v="253188" />
	</node>
	<node lat="61.75336944894909" lon="8.806419451230864" id="-41051">
		<tag k="loc_name" v="Grjotåflye" />
		<tag k="name" v="Grjotåflyi" />
		<tag k="place" v="locality" />
		<tag k="ssr:stedsnr" v="253191" />
	</node>
	<node lat="61.73131667102449" lon="8.260683337630965" id="-41052">
		<tag k="name" v="Haukaberget" />
		<tag k="natural" v="hill" />
		<tag k="place" v="locality" />
		<tag k="ssr:stedsnr" v="253201" />
	</node>
	<node lat="61.82924166637988" lon="8.822463894788136" id="-41053">
		<tag k="name" v="Liaranden" />
		<tag k="natural" v="ridge" />
		<tag k="place" v="locality" />
		<tag k="ssr:stedsnr" v="253257" />
	</node>
	<node lat="61.69252500297191" lon="8.126283331133669" id="-41059">
		<tag k="alt_name" v="Håleinndalen" />
		<tag k="name" v="Håleindalen" />
		<tag k="natural" v="valley" />
		<tag k="place" v="locality" />
		<tag k="ssr:stedsnr" v="253278" />
	</node>
	<node lat="61.8904305592038" lon="8.860380564678294" id="-41061">
		<tag k="alt_name" v="Skansein" />
		<tag k="fixme" v="consider natural=peak for the most distinct mountains in the district" />
		<tag k="name" v="Skansan" />
		<tag k="natural" v="hill" />
		<tag k="place" v="locality" />
		<tag k="ssr:stedsnr" v="253417" />
	</node>
	<node lat="61.59705555330411" lon="8.045358328643054" id="-41063">
		<tag k="alt_name" v="Breisæterdalen" />
		<tag k="name" v="Breidsæterdalen" />
		<tag k="natural" v="valley" />
		<tag k="place" v="locality" />
		<tag k="ssr:stedsnr" v="253500" />
	</node>
	<node lat="61.826141667096195" lon="8.78530277090626" id="-41074">
		<tag k="name" v="Storviein" />
		<tag k="natural" v="slope" />
		<tag k="place" v="locality" />
		<tag k="ssr:stedsnr" v="149612" />
	</node>
	<node lat="61.61012778134392" lon="8.113486106891099" id="-41076">
		<tag k="fixme" v="consider natural=peak for the most distinct mountains in the district" />
		<tag k="name" v="Veslfjelltinden" />
		<tag k="natural" v="hill" />
		<tag k="place" v="locality" />
		<tag k="ssr:stedsnr" v="313035" />
	</node>
	<node lat="61.818297221539204" lon="8.670211110037798" id="-41082">
		<tag k="alt_name" v="Svarvehøi" />
		<tag k="fixme" v="consider natural=peak for the most distinct mountains in the district" />
		<tag k="name" v="Svarvehøe" />
		<tag k="natural" v="hill" />
		<tag k="place" v="locality" />
		<tag k="ssr:stedsnr" v="174261" />
	</node>
	<node lat="61.690441664795856" lon="8.250761118498993" id="-41083">
		<tag k="loc_name" v="Høgbergje" />
		<tag k="name" v="Høgberget" />
		<tag k="natural" v="hill" />
		<tag k="place" v="locality" />
		<tag k="ssr:stedsnr" v="174771" />
	</node>
	<node lat="61.75220000330374" lon="8.4366222143708" id="-41086">
		<tag k="fixme" v="consider natural=peak for the most distinct mountains in the district" />
		<tag k="name" v="Bakkesæterfjellet" />
		<tag k="natural" v="hill" />
		<tag k="place" v="locality" />
		<tag k="ssr:stedsnr" v="175406" />
	</node>
	<node lat="61.76133055621959" lon="8.4221499987143" id="-41088">
		<tag k="name" v="Kåvålie" />
		<tag k="natural" v="slope" />
		<tag k="place" v="locality" />
		<tag k="ssr:stedsnr" v="175422" />
	</node>
	<node lat="61.72855833088182" lon="8.307366665888285" id="-41089">
		<tag k="name" v="Svartbergje" />
		<tag k="natural" v="hill" />
		<tag k="place" v="locality" />
		<tag k="ssr:stedsnr" v="175469" />
	</node>
	<node lat="61.70893888998052" lon="8.267661113236064" id="-41090">
		<tag k="name" v="Eiggjen" />
		<tag k="natural" v="ridge" />
		<tag k="place" v="locality" />
		<tag k="ssr:stedsnr" v="175358" />
	</node>
	<node lat="61.65989444131393" lon="8.080786106875765" id="-41091">
		<tag k="name" v="Søre Snipen" />
		<tag k="place" v="locality" />
		<tag k="ssr:stedsnr" v="175700" />
	</node>
	<node lat="61.67238888775861" lon="8.135288885013424" id="-41092">
		<tag k="name" v="Vesltrongdalen" />
		<tag k="natural" v="valley" />
		<tag k="place" v="locality" />
		<tag k="ssr:stedsnr" v="175704" />
	</node>
	<node lat="61.550974997599226" lon="8.295288885215676" id="-41096">
		<tag k="name" v="Kyrkjeglupen" />
		<tag k="natural" v="valley" />
		<tag k="place" v="locality" />
		<tag k="ssr:stedsnr" v="192016" />
	</node>
	<node lat="61.821994441760694" lon="8.779802775883672" id="-41104">
		<tag k="name" v="Veslviein" />
		<tag k="natural" v="slope" />
		<tag k="place" v="locality" />
		<tag k="ssr:stedsnr" v="210625" />
	</node>
	<node lat="61.839655558108674" lon="8.66885000596557" id="-41107">
		<tag k="name" v="Elibrenndalen" />
		<tag k="natural" v="valley" />
		<tag k="place" v="locality" />
		<tag k="ssr:stedsnr" v="210831" />
	</node>
	<node lat="61.82558333716607" lon="8.473491660996038" id="-41109">
		<tag k="name" v="Høenden" />
		<tag k="natural" v="cliff" />
		<tag k="ssr:stedsnr" v="270948" />
	</node>
	<node lat="61.8423222183666" lon="8.597808326569783" id="-41110">
		<tag k="name" v="Stordalen" />
		<tag k="natural" v="valley" />
		<tag k="place" v="locality" />
		<tag k="ssr:stedsnr" v="271044" />
	</node>
	<node lat="61.84363333722315" lon="8.619158338538453" id="-41111">
		<tag k="name" v="Høgberget" />
		<tag k="place" v="locality" />
		<tag k="ssr:stedsnr" v="271046" />
	</node>
	<node lat="61.7164111141656" lon="8.35397221799914" id="-41119">
		<tag k="name" v="Saltslette" />
		<tag k="place" v="locality" />
		<tag k="ssr:stedsnr" v="235307" />
	</node>
	<node lat="61.74681389302222" lon="8.372580553682017" id="-41121">
		<tag k="fixme" v="consider natural=peak for the most distinct mountains in the district" />
		<tag k="name" v="Røysheimåsen" />
		<tag k="natural" v="hill" />
		<tag k="place" v="locality" />
		<tag k="ssr:stedsnr" v="235274" />
	</node>
	<node lat="61.73381944325281" lon="8.329411102560696" id="-41122">
		<tag k="name" v="Skoghøe" />
		<tag k="natural" v="hill" />
		<tag k="place" v="locality" />
		<tag k="ssr:stedsnr" v="235285" />
	</node>
	<node lat="61.89077778132893" lon="8.70497499566064" id="-41124">
		<tag k="name" v="Kvamsbakkein" />
		<tag k="natural" v="slope" />
		<tag k="place" v="locality" />
		<tag k="ssr:stedsnr" v="235634" />
	</node>
	<node lat="61.79577221796586" lon="8.408063880254037" id="-41127">
		<tag k="name" v="Slåkåbakkein" />
		<tag k="natural" v="slope" />
		<tag k="place" v="locality" />
		<tag k="ssr:stedsnr" v="236039" />
	</node>
	<node lat="61.83146666239041" lon="8.51325277884511" id="-41130">
		<tag k="name" v="Marsteinhåmårn" />
		<tag k="place" v="locality" />
		<tag k="ssr:stedsnr" v="451183" />
	</node>
	<node lat="61.82617500056609" lon="8.588416675806412" id="-41135">
		<tag k="fixme" v="consider natural=peak for the most distinct mountains in the district" />
		<tag k="name" v="Hesthøe" />
		<tag k="natural" v="hill" />
		<tag k="place" v="locality" />
		<tag k="ssr:stedsnr" v="452430" />
	</node>
	<node lat="61.83960555615771" lon="8.857980550669822" id="-41139">
		<tag k="name" v="Storskardet" />
		<tag k="natural" v="valley" />
		<tag k="place" v="locality" />
		<tag k="ssr:stedsnr" v="453585" />
	</node>
	<node lat="61.82181666839651" lon="8.866966667918504" id="-41140">
		<tag k="name" v="Havyrju" />
		<tag k="natural" v="hill" />
		<tag k="place" v="locality" />
		<tag k="ssr:stedsnr" v="453597" />
	</node>
	<node lat="61.887587776382574" lon="8.673952221565983" id="-41144">
		<tag k="alt_name" v="Heillreo" />
		<tag k="name" v="Hellreo" />
		<tag k="place" v="locality" />
		<tag k="ssr:stedsnr" v="253109" />
	</node>
	<node lat="61.736661112352664" lon="8.271347222851828" id="-41148">
		<tag k="fixme" v="consider natural=peak for the most distinct mountains in the district" />
		<tag k="name" v="Monsholknubben" />
		<tag k="natural" v="hill" />
		<tag k="place" v="locality" />
		<tag k="ssr:stedsnr" v="253210" />
	</node>
	<node lat="61.673086108933354" lon="8.302841660979531" id="-41152">
		<tag k="name" v="Tverrgjelet" />
		<tag k="natural" v="valley" />
		<tag k="place" v="locality" />
		<tag k="ssr:stedsnr" v="253249" />
	</node>
	<node lat="61.93343332933172" lon="8.691891674901818" id="-41160">
		<tag k="alt_name" v="Brettingskollen" />
		<tag k="fixme" v="consider natural=peak for the most distinct mountains in the district" />
		<tag k="name" v="Brettingskollan" />
		<tag k="natural" v="hill" />
		<tag k="place" v="locality" />
		<tag k="ssr:stedsnr" v="253890" />
	</node>
	<node lat="61.80846389070493" lon="8.268494438579177" id="-41162">
		<tag k="alt_name" v="Moyldurhøe;Moldurdhø" />
		<tag k="fixme" v="consider natural=peak for the most distinct mountains in the district" />
		<tag k="loc_name" v="Moldulhøe" />
		<tag k="name" v="Moldulhøi" />
		<tag k="natural" v="hill" />
		<tag k="place" v="locality" />
		<tag k="ssr:stedsnr" v="253971" />
	</node>
	<node lat="61.75047778062592" lon="8.231136110707402" id="-41163">
		<tag k="fixme" v="consider natural=peak for the most distinct mountains in the district" />
		<tag k="name" v="Runningsfjellet" />
		<tag k="natural" v="hill" />
		<tag k="place" v="locality" />
		<tag k="ssr:stedsnr" v="253984" />
	</node>
	<node lat="61.8482083333997" lon="8.525286114750658" id="-41166">
		<tag k="name" v="Vikedalane" />
		<tag k="natural" v="valley" />
		<tag k="place" v="locality" />
		<tag k="ssr:stedsnr" v="270422" />
	</node>
	<node lat="61.726319442121095" lon="8.266911113814748" id="-41173">
		<tag k="name" v="Svadalen" />
		<tag k="natural" v="valley" />
		<tag k="place" v="locality" />
		<tag k="ssr:stedsnr" v="296287" />
	</node>
	<node lat="61.76937499834587" lon="8.386586101809808" id="-41174">
		<tag k="name" v="Vesllie" />
		<tag k="natural" v="slope" />
		<tag k="place" v="locality" />
		<tag k="ssr:stedsnr" v="296375" />
	</node>
	<node lat="61.68147500145042" lon="8.147413881591188" id="-41177">
		<tag k="name" v="Hansstulbandet" />
		<tag k="place" v="locality" />
		<tag k="ssr:stedsnr" v="296703" />
	</node>
	<node lat="61.66124444188894" lon="8.0638972231302" id="-41178">
		<tag k="name" v="Kleive" />
		<tag k="natural" v="slope" />
		<tag k="place" v="locality" />
		<tag k="ssr:stedsnr" v="297687" />
	</node>
	<node lat="61.41575833467" lon="8.381077775319802" id="-41181">
		<tag k="fixme" v="consider natural=peak for the most distinct mountains in the district" />
		<tag k="name" v="Grøneberget" />
		<tag k="natural" v="hill" />
		<tag k="place" v="locality" />
		<tag k="ssr:stedsnr" v="311876" />
	</node>
	<node lat="61.707066669982005" lon="8.174949998524708" id="-41184">
		<tag k="alt_name" v="Rauberg" />
		<tag k="name" v="Raudberget" />
		<tag k="natural" v="hill" />
		<tag k="place" v="locality" />
		<tag k="ssr:stedsnr" v="313168" />
	</node>
	<node lat="61.74177499964297" lon="8.68910554949651" id="-41185">
		<tag k="alt_name" v="Børjeholet, øvre" />
		<tag k="loc_name" v="Øvre Børgjeholet" />
		<tag k="name" v="Øvre Børjeholet" />
		<tag k="natural" v="valley" />
		<tag k="place" v="locality" />
		<tag k="ssr:stedsnr" v="313112" />
	</node>
	<node lat="61.5712583301464" lon="8.369899998637452" id="-41187">
		<tag k="name" v="Grønbakkan" />
		<tag k="natural" v="slope" />
		<tag k="place" v="locality" />
		<tag k="ssr:stedsnr" v="313002" />
	</node>
	<node lat="61.552275002876314" lon="8.424127781247712" id="-41188">
		<tag k="alt_name" v="Heillstugutindan" />
		<tag k="fixme" v="consider natural=peak for the most distinct mountains in the district" />
		<tag k="name" v="Hellstugutindan" />
		<tag k="natural" v="hill" />
		<tag k="place" v="locality" />
		<tag k="ssr:stedsnr" v="313006" />
	</node>
	<node lat="61.54815278038014" lon="8.13708055790697" id="-41190">
		<tag k="fixme" v="consider natural=peak for the most distinct mountains in the district" />
		<tag k="name" v="Storebjørn" />
		<tag k="natural" v="hill" />
		<tag k="place" v="locality" />
		<tag k="ssr:stedsnr" v="313010" />
	</node>
	<node lat="61.568027776375075" lon="8.124872222337448" id="-41192">
		<tag k="fixme" v="consider natural=peak for the most distinct mountains in the district" />
		<tag k="name" v="Kniven" />
		<tag k="natural" v="hill" />
		<tag k="place" v="locality" />
		<tag k="ssr:stedsnr" v="313028" />
	</node>
	<node lat="61.62405277892147" lon="8.209000008690381" id="-41194">
		<tag k="fixme" v="consider natural=peak for the most distinct mountains in the district" />
		<tag k="name" v="Raudhamran" />
		<tag k="natural" v="hill" />
		<tag k="place" v="locality" />
		<tag k="ssr:stedsnr" v="313066" />
	</node>
	<node lat="61.7238249972269" lon="8.494811117644392" id="-41197">
		<tag k="name" v="Guristeinhaugen" />
		<tag k="natural" v="hill" />
		<tag k="place" v="locality" />
		<tag k="ssr:stedsnr" v="313084" />
	</node>
	<node lat="61.7845638846592" lon="8.850719442617539" id="-41202">
		<tag k="alt_name" v="Hestdalen, nordre" />
		<tag k="name" v="Nordre Hestdalen" />
		<tag k="natural" v="valley" />
		<tag k="place" v="locality" />
		<tag k="ssr:stedsnr" v="313412" />
	</node>
	<node lat="61.62690833210941" lon="8.07837499963354" id="-41203">
		<tag k="fixme" v="consider natural=peak for the most distinct mountains in the district" />
		<tag k="name" v="Bøvertunfjellet" />
		<tag k="natural" v="hill" />
		<tag k="place" v="locality" />
		<tag k="ssr:stedsnr" v="313426" />
	</node>
	<node lat="61.66455833148235" lon="8.683649990973631" id="-41205">
		<tag k="name" v="Bergenusshaugen" />
		<tag k="natural" v="hill" />
		<tag k="place" v="locality" />
		<tag k="ssr:stedsnr" v="313906" />
	</node>
	<node lat="61.89108055401385" lon="8.619986112810277" id="-41208">
		<tag k="alt_name" v="Teppingshøi, vesle" />
		<tag k="name" v="Vesle Teppingshøe" />
		<tag k="natural" v="hill" />
		<tag k="place" v="locality" />
		<tag k="ssr:stedsnr" v="313922" />
	</node>
	<node lat="61.89365833252819" lon="8.73203610210776" id="-41209">
		<tag k="fixme" v="consider natural=peak for the most distinct mountains in the district" />
		<tag k="name" v="Snauskallen" />
		<tag k="natural" v="hill" />
		<tag k="place" v="locality" />
		<tag k="ssr:stedsnr" v="313924" />
	</node>
	<node lat="61.91434166487307" lon="8.658438884935533" id="-41211">
		<tag k="alt_name" v="Veingen" />
		<tag k="name" v="Vangen" />
		<tag k="natural" v="valley" />
		<tag k="place" v="locality" />
		<tag k="ssr:stedsnr" v="313940" />
	</node>
	<node lat="61.90409866374048" lon="8.868111996667574" id="-41214">
		<tag k="fixme" v="consider natural=peak for the most distinct mountains in the district" />
		<tag k="loc_name" v="Skaihøa" />
		<tag k="name" v="Skaihøe" />
		<tag k="natural" v="hill" />
		<tag k="place" v="locality" />
		<tag k="ssr:stedsnr" v="314402" />
	</node>
	<node lat="61.80229166458773" lon="8.385608340880484" id="-41215">
		<tag k="alt_name" v="Bjøllungshøi" />
		<tag k="fixme" v="consider natural=peak for the most distinct mountains in the district" />
		<tag k="name" v="Bjøllungshøe" />
		<tag k="natural" v="hill" />
		<tag k="place" v="locality" />
		<tag k="ssr:stedsnr" v="314916" />
	</node>
	<node lat="61.83872777734995" lon="8.599852780080196" id="-41220">
		<tag k="name" v="Gråhåmårn" />
		<tag k="place" v="locality" />
		<tag k="ssr:stedsnr" v="332038" />
	</node>
	<node lat="61.8267916640219" lon="8.780641660698848" id="-41221">
		<tag k="alt_name" v="Vaet" />
		<tag k="name" v="Vadet" />
		<tag k="place" v="locality" />
		<tag k="ssr:stedsnr" v="332609" />
	</node>
	<node lat="61.821102780981285" lon="8.647583326974177" id="-41223">
		<tag k="name" v="Svarttjønnholet" />
		<tag k="natural" v="valley" />
		<tag k="place" v="locality" />
		<tag k="ssr:stedsnr" v="332814" />
	</node>
	<node lat="61.771488888429865" lon="8.417633331422858" id="-41227">
		<tag k="name" v="Roberg" />
		<tag k="natural" v="hill" />
		<tag k="place" v="locality" />
		<tag k="ssr:stedsnr" v="357068" />
	</node>
	<node lat="61.785919445732304" lon="8.477741674808916" id="-41228">
		<tag k="name" v="Vaglhaug" />
		<tag k="natural" v="hill" />
		<tag k="place" v="locality" />
		<tag k="ssr:stedsnr" v="357101" />
	</node>
	<node lat="61.86264444874773" lon="8.812922227287824" id="-41231">
		<tag k="name" v="Skorpbergje" />
		<tag k="natural" v="hill" />
		<tag k="place" v="locality" />
		<tag k="ssr:stedsnr" v="357254" />
	</node>
	<node lat="61.71340833333931" lon="8.387005562875478" id="-41233">
		<tag k="name" v="Røysheimhaugen" />
		<tag k="natural" v="hill" />
		<tag k="place" v="locality" />
		<tag k="ssr:stedsnr" v="357423" />
	</node>
	<node lat="61.874322222684356" lon="8.712255556303814" id="-41236">
		<tag k="name" v="Honnbekkflaten" />
		<tag k="place" v="locality" />
		<tag k="ssr:stedsnr" v="357952" />
	</node>
	<node lat="61.839133336129024" lon="8.815483335083632" id="-41237">
		<tag k="alt_name" v="Oksle" />
		<tag k="fixme" v="consider natural=peak for the most distinct mountains in the district" />
		<tag k="name" v="Oksli" />
		<tag k="natural" v="hill" />
		<tag k="place" v="locality" />
		<tag k="ssr:stedsnr" v="477033" />
	</node>
	<node lat="61.6895916671266" lon="8.215119451961277" id="-41243">
		<tag k="name" v="Lessingein" />
		<tag k="place" v="locality" />
		<tag k="ssr:stedsnr" v="477768" />
	</node>
	<node lat="61.69917500369504" lon="8.208850003463894" id="-41245">
		<tag k="name" v="Veslgeithøe" />
		<tag k="natural" v="hill" />
		<tag k="place" v="locality" />
		<tag k="ssr:stedsnr" v="477778" />
	</node>
	<node lat="61.798799999804764" lon="8.436619436240813" id="-41252">
		<tag k="name" v="Borgastordalen" />
		<tag k="natural" v="valley" />
		<tag k="place" v="locality" />
		<tag k="ssr:stedsnr" v="478032" />
	</node>
	<node lat="61.70938611263892" lon="8.330366669399385" id="-41253">
		<tag k="name" v="Rothaugen" />
		<tag k="natural" v="hill" />
		<tag k="place" v="locality" />
		<tag k="ssr:stedsnr" v="478287" />
	</node>
	<node lat="61.786297222049335" lon="8.440577783246654" id="-41259">
		<tag k="name" v="Grindurddalen" />
		<tag k="natural" v="slope" />
		<tag k="place" v="locality" />
		<tag k="ssr:stedsnr" v="478761" />
	</node>
	<node lat="61.79606388559503" lon="8.472861119622175" id="-41260">
		<tag k="name" v="Flåkinn" />
		<tag k="place" v="locality" />
		<tag k="ssr:stedsnr" v="478762" />
	</node>
	<node lat="61.567161107927184" lon="8.256855561591804" id="-41268">
		<tag k="name" v="Leirholet" />
		<tag k="natural" v="valley" />
		<tag k="place" v="locality" />
		<tag k="ssr:stedsnr" v="373019" />
	</node>
	<node lat="61.67572222000402" lon="8.113922217426348" id="-41272">
		<tag k="name" v="Goknubbein" />
		<tag k="natural" v="ridge" />
		<tag k="place" v="locality" />
		<tag k="ssr:stedsnr" v="479695" />
	</node>
	<node lat="61.81819166879282" lon="8.889216662871528" id="-41273">
		<tag k="alt_name" v="Bjørnskardryggen" />
		<tag k="fixme" v="consider natural=peak for the most distinct mountains in the district" />
		<tag k="name" v="Bjønnskardryggen" />
		<tag k="natural" v="hill" />
		<tag k="place" v="locality" />
		<tag k="ssr:stedsnr" v="373506" />
	</node>
	<node lat="61.65831666584841" lon="7.935425004892362" id="-41274">
		<tag k="name" v="Geitryggen" />
		<tag k="natural" v="ridge" />
		<tag k="place" v="locality" />
		<tag k="ssr:stedsnr" v="373497" />
	</node>
	<node lat="61.87417778215891" lon="8.61389999567818" id="-41275">
		<tag k="name" v="Trongdalen" />
		<tag k="natural" v="valley" />
		<tag k="place" v="locality" />
		<tag k="ssr:stedsnr" v="374110" />
	</node>
	<node lat="61.55138611372976" lon="8.232300006620227" id="-41277">
		<tag k="name" v="Bandet" />
		<tag k="natural" v="valley" />
		<tag k="place" v="locality" />
		<tag k="ssr:stedsnr" v="374006" />
	</node>
	<node lat="61.541366667407054" lon="8.292027777096925" id="-41279">
		<tag k="fixme" v="consider natural=peak for the most distinct mountains in the district" />
		<tag k="name" v="Kyrkja" />
		<tag k="natural" v="hill" />
		<tag k="place" v="locality" />
		<tag k="ssr:stedsnr" v="374014" />
	</node>
	<node lat="61.54101512608489" lon="8.38616751587757" id="-41280">
		<tag k="fixme" v="consider natural=peak for the most distinct mountains in the district" />
		<tag k="name" v="Urdadalstindan" />
		<tag k="natural" v="hill" />
		<tag k="place" v="locality" />
		<tag k="ssr:stedsnr" v="374016" />
	</node>
	<node lat="61.82423888725376" lon="8.700541661163623" id="-41281">
		<tag k="fixme" v="consider natural=peak for the most distinct mountains in the district" />
		<tag k="name" v="Rivillan" />
		<tag k="natural" v="hill" />
		<tag k="place" v="locality" />
		<tag k="ssr:stedsnr" v="374020" />
	</node>
	<node lat="61.60893611263637" lon="8.40523333566246" id="-41283">
		<tag k="name" v="Hellstuguhaugen" />
		<tag k="natural" v="hill" />
		<tag k="old_name" v="Heillstuguhaugen" />
		<tag k="place" v="locality" />
		<tag k="ssr:stedsnr" v="374045" />
	</node>
	<node lat="61.74147778160934" lon="8.370061104111263" id="-41290">
		<tag k="name" v="Mjo" />
		<tag k="natural" v="slope" />
		<tag k="place" v="locality" />
		<tag k="ssr:stedsnr" v="374199" />
	</node>
	<node lat="61.73596389033327" lon="8.3948249908791" id="-41291">
		<tag k="alt_name" v="Rauberget" />
		<tag k="name" v="Raudberget" />
		<tag k="natural" v="hill" />
		<tag k="place" v="locality" />
		<tag k="ssr:stedsnr" v="374201" />
	</node>
	<node lat="61.710491662908126" lon="8.688027768916253" id="-41296">
		<tag k="name" v="Smådalen" />
		<tag k="natural" v="valley" />
		<tag k="place" v="locality" />
		<tag k="ssr:stedsnr" v="374820" />
	</node>
	<node lat="61.91477991505942" lon="8.536660157718929" id="-41297">
		<tag k="fixme" v="consider natural=peak for the most distinct mountains in the district" />
		<tag k="loc_name" v="Lokkerhøe" />
		<tag k="name" v="Låkkerhøe" />
		<tag k="natural" v="hill" />
		<tag k="place" v="locality" />
		<tag k="ssr:stedsnr" v="374903" />
	</node>
	<node lat="61.60245278066204" lon="8.54588889089785" id="-41298">
		<tag k="fixme" v="consider natural=peak for the most distinct mountains in the district" />
		<tag k="name" v="Veopallan" />
		<tag k="natural" v="hill" />
		<tag k="place" v="locality" />
		<tag k="ssr:stedsnr" v="374904" />
	</node>
	<node lat="61.98296388983055" lon="8.82488611631332" id="-41299">
		<tag k="name" v="Jonshamn" />
		<tag k="natural" v="slope" />
		<tag k="place" v="locality" />
		<tag k="ssr:stedsnr" v="374905" />
	</node>
	<node lat="61.91267500246271" lon="8.726799993671602" id="-41301">
		<tag k="name" v="Measæterknubben" />
		<tag k="natural" v="hill" />
		<tag k="place" v="locality" />
		<tag k="ssr:stedsnr" v="374934" />
	</node>
	<node lat="61.83413333553285" lon="8.593633334955966" id="-41309">
		<tag k="name" v="Kinsarhåmåren" />
		<tag k="place" v="locality" />
		<tag k="ssr:stedsnr" v="391442" />
	</node>
	<node lat="61.84413611005905" lon="8.663080547087336" id="-41317">
		<tag k="name" v="Andberg" />
		<tag k="natural" v="hill" />
		<tag k="place" v="locality" />
		<tag k="ssr:stedsnr" v="392840" />
	</node>
	<node lat="61.79133333190009" lon="8.39850833599463" id="-41324">
		<tag k="name" v="Langdalsranden" />
		<tag k="natural" v="ridge" />
		<tag k="place" v="locality" />
		<tag k="ssr:stedsnr" v="418040" />
	</node>
	<node lat="61.72149166638009" lon="8.265116663240208" id="-41329">
		<tag k="name" v="Brennhaugen" />
		<tag k="natural" v="hill" />
		<tag k="place" v="locality" />
		<tag k="ssr:stedsnr" v="418301" />
	</node>
	<node lat="61.714755557906315" lon="8.322905551080238" id="-41330">
		<tag k="name" v="Leirmo Ra" />
		<tag k="place" v="locality" />
		<tag k="ssr:stedsnr" v="418335" />
	</node>
	<node lat="61.70888333468868" lon="8.300272219377822" id="-41331">
		<tag k="name" v="Barsjeillein" />
		<tag k="natural" v="slope" />
		<tag k="place" v="locality" />
		<tag k="ssr:stedsnr" v="418337" />
	</node>
	<node lat="61.71526944371757" lon="8.235227785566527" id="-41332">
		<tag k="name" v="Kleive" />
		<tag k="natural" v="slope" />
		<tag k="place" v="locality" />
		<tag k="ssr:stedsnr" v="418562" />
	</node>
	<node lat="61.819419447387766" lon="8.72188333441041" id="-41341">
		<tag k="fixme" v="consider natural=peak for the most distinct mountains in the district" />
		<tag k="name" v="Kyreggi" />
		<tag k="natural" v="hill" />
		<tag k="place" v="locality" />
		<tag k="ssr:stedsnr" v="434210" />
	</node>
	<node lat="61.72444166559014" lon="8.51909999868474" id="-41346">
		<tag k="name" v="Kitilbotthaugen" />
		<tag k="natural" v="hill" />
		<tag k="place" v="locality" />
		<tag k="ssr:stedsnr" v="435105" />
	</node>
	<node lat="61.52041666561011" lon="8.417680552352065" id="-41348">
		<tag k="name" v="Semelholet" />
		<tag k="natural" v="valley" />
		<tag k="place" v="locality" />
		<tag k="ssr:stedsnr" v="435116" />
	</node>
	<node lat="61.50234166665991" lon="8.290113890902443" id="-41349">
		<tag k="name" v="Semeldalsmunnen" />
		<tag k="natural" v="valley" />
		<tag k="place" v="locality" />
		<tag k="ssr:stedsnr" v="435120" />
	</node>
	<node lat="61.88080000127811" lon="8.653833324717578" id="-41352">
		<tag k="alt_name" v="Buruslii" />
		<tag k="name" v="Buruslie" />
		<tag k="natural" v="slope" />
		<tag k="place" v="locality" />
		<tag k="ssr:stedsnr" v="435134" />
	</node>
	<node lat="61.73036388873415" lon="8.151652774697014" id="-41356">
		<tag k="name" v="Geitåholet" />
		<tag k="natural" v="valley" />
		<tag k="place" v="locality" />
		<tag k="ssr:stedsnr" v="435207" />
	</node>
	<node lat="61.80113333659565" lon="8.60749722630908" id="-41361">
		<tag k="name" v="Skarddalen" />
		<tag k="natural" v="valley" />
		<tag k="place" v="locality" />
		<tag k="ssr:stedsnr" v="435223" />
	</node>
	<node lat="61.79133888723204" lon="8.546755548477847" id="-41362">
		<tag k="fixme" v="consider natural=peak for the most distinct mountains in the district" />
		<tag k="loc_name" v="Raudskryuhøa" />
		<tag k="name" v="Raudskryuhøe" />
		<tag k="natural" v="hill" />
		<tag k="place" v="locality" />
		<tag k="ssr:stedsnr" v="435227" />
	</node>
	<node lat="61.68949722528182" lon="8.20980000151802" id="-41365">
		<tag k="name" v="Slokjeskardet" />
		<tag k="natural" v="valley" />
		<tag k="place" v="locality" />
		<tag k="ssr:stedsnr" v="435271" />
	</node>
	<node lat="61.704077778849324" lon="8.310008334316462" id="-41367">
		<tag k="alt_name" v="Breinnkampen;Breinnkampein" />
		<tag k="fixme" v="consider natural=peak for the most distinct mountains in the district" />
		<tag k="name" v="Brennkampan" />
		<tag k="natural" v="hill" />
		<tag k="place" v="locality" />
		<tag k="ssr:stedsnr" v="435166" />
	</node>
	<node lat="61.66545277995208" lon="8.041074991444415" id="-41369">
		<tag k="name" v="Tøften" />
		<tag k="natural" v="slope" />
		<tag k="place" v="locality" />
		<tag k="ssr:stedsnr" v="435521" />
	</node>
	<node lat="61.61636110739757" lon="8.074016673642593" id="-41371">
		<tag k="name" v="Brangsdalen" />
		<tag k="natural" v="valley" />
		<tag k="place" v="locality" />
		<tag k="ssr:stedsnr" v="435484" />
	</node>
	<node lat="61.974230556149294" lon="8.553574994919583" id="-41372">
		<tag k="loc_name" v="Rygghøflye" />
		<tag k="name" v="Rygghøflyi" />
		<tag k="place" v="locality" />
		<tag k="ssr:stedsnr" v="435904" />
	</node>
	<node lat="61.74569999938134" lon="8.865772216094033" id="-41373">
		<tag k="name" v="Liaberget" />
		<tag k="natural" v="hill" />
		<tag k="place" v="locality" />
		<tag k="ssr:stedsnr" v="435959" />
	</node>
	<node lat="61.77105555493412" lon="8.83600277451096" id="-41375">
		<tag k="name" v="Grjotåskardet" />
		<tag k="natural" v="valley" />
		<tag k="place" v="locality" />
		<tag k="ssr:stedsnr" v="436203" />
	</node>
	<node lat="61.869038888860246" lon="8.777683326950003" id="-41384">
		<tag k="name" v="Bakkom" />
		<tag k="natural" v="slope" />
		<tag k="place" v="locality" />
		<tag k="ssr:stedsnr" v="272420" />
	</node>
	<node lat="61.85375278174158" lon="8.693975001106514" id="-41387">
		<tag k="name" v="Rådsbakken" />
		<tag k="natural" v="slope" />
		<tag k="place" v="locality" />
		<tag k="ssr:stedsnr" v="454781" />
	</node>
	<node lat="61.555166664507254" lon="8.127702769147902" id="-41392">
		<tag k="fixme" v="consider natural=peak for the most distinct mountains in the district" />
		<tag k="name" v="Veslebjørn" />
		<tag k="natural" v="hill" />
		<tag k="place" v="locality" />
		<tag k="ssr:stedsnr" v="677002" />
	</node>
	<node lat="61.884116668858205" lon="8.788894453504902" id="-41401">
		<tag k="name" v="Hullarhaugen" />
		<tag k="natural" v="hill" />
		<tag k="place" v="locality" />
		<tag k="ssr:stedsnr" v="677113" />
	</node>
	<node lat="61.81292777691903" lon="8.586452769273869" id="-41406">
		<tag k="name" v="Fossbrekk" />
		<tag k="natural" v="valley" />
		<tag k="place" v="locality" />
		<tag k="ssr:stedsnr" v="677224" />
	</node>
	<node lat="61.67694444334567" lon="8.252150005851867" id="-41408">
		<tag k="name" v="Gudbrandhåmåren" />
		<tag k="natural" v="hill" />
		<tag k="place" v="locality" />
		<tag k="ssr:stedsnr" v="477760" />
	</node>
	<node lat="61.70554999837275" lon="8.293911106058115" id="-41411">
		<tag k="name" v="Elvesætermoen" />
		<tag k="place" v="locality" />
		<tag k="ssr:stedsnr" v="478359" />
	</node>
	<node lat="61.758247219710064" lon="8.36945000010298" id="-41412">
		<tag k="name" v="Havsæterfonne" />
		<tag k="natural" v="slope" />
		<tag k="place" v="locality" />
		<tag k="ssr:stedsnr" v="478507" />
	</node>
	<node lat="61.75745833589001" lon="8.397794449266996" id="-41414">
		<tag k="name" v="Gauparhaugen" />
		<tag k="natural" v="hill" />
		<tag k="place" v="locality" />
		<tag k="ssr:stedsnr" v="478405" />
	</node>
	<node lat="61.485972224461904" lon="8.154638890110064" id="-41415">
		<tag k="name" v="Rauddalen" />
		<tag k="natural" v="valley" />
		<tag k="place" v="locality" />
		<tag k="ssr:stedsnr" v="677756" />
	</node>
	<node lat="61.72707222253717" lon="8.34611944804317" id="-41419">
		<tag k="name" v="Bøverdalen" />
		<tag k="natural" v="valley" />
		<tag k="place" v="locality" />
		<tag k="ssr:stedsnr" v="678166" />
	</node>
	<node lat="61.78841110709883" lon="8.895030554184059" id="-41425">
		<tag k="fixme" v="consider natural=peak for the most distinct mountains in the district" />
		<tag k="name" v="Tessefjellet" />
		<tag k="natural" v="hill" />
		<tag k="place" v="locality" />
		<tag k="ssr:stedsnr" v="678454" />
	</node>
	<node lat="61.92213611083549" lon="8.698308324987588" id="-41427">
		<tag k="alt_name" v="Brettingsmoen, s" />
		<tag k="name" v="Søre Brettingsmoen" />
		<tag k="place" v="locality" />
		<tag k="ssr:stedsnr" v="678866" />
	</node>
	<node lat="61.55773889250245" lon="8.307030556057715" id="-41428">
		<tag k="fixme" v="consider natural=peak for the most distinct mountains in the district" />
		<tag k="name" v="Tverrbytthornet" />
		<tag k="natural" v="hill" />
		<tag k="place" v="locality" />
		<tag k="ssr:stedsnr" v="495008" />
	</node>
	<node lat="61.57000746811332" lon="8.121110652805664" id="-41435">
		<tag k="fixme" v="consider natural=peak for the most distinct mountains in the district" />
		<tag k="name" v="Smørstabbtindan" />
		<tag k="natural" v="hill" />
		<tag k="place" v="locality" />
		<tag k="ssr:stedsnr" v="495027" />
	</node>
	<node lat="61.5668749984475" lon="8.251872219610393" id="-41437">
		<tag k="name" v="Leirhaugen" />
		<tag k="natural" v="hill" />
		<tag k="place" v="locality" />
		<tag k="ssr:stedsnr" v="495033" />
	</node>
	<node lat="61.64516110967943" lon="8.440286120202295" id="-41449">
		<tag k="alt_name" v="Skautkampein" />
		<tag k="name" v="Skautkampan" />
		<tag k="natural" v="hill" />
		<tag k="place" v="locality" />
		<tag k="ssr:stedsnr" v="495205" />
	</node>
	<node lat="61.73301389133887" lon="8.405413890342983" id="-41454">
		<tag k="fixme" v="consider natural=peak for the most distinct mountains in the district" />
		<tag k="name" v="Ørnekampen" />
		<tag k="natural" v="hill" />
		<tag k="place" v="locality" />
		<tag k="ssr:stedsnr" v="495182" />
	</node>
	<node lat="61.769088888018366" lon="8.91370554835593" id="-41458">
		<tag k="name" v="Heggeberget" />
		<tag k="natural" v="hill" />
		<tag k="place" v="locality" />
		<tag k="ssr:stedsnr" v="495408" />
	</node>
	<node lat="61.684649996786426" lon="8.055355549400828" id="-41461">
		<tag k="name" v="Sekken" />
		<tag k="natural" v="slope" />
		<tag k="place" v="locality" />
		<tag k="ssr:stedsnr" v="495466" />
	</node>
	<node lat="61.683338890138366" lon="7.913961106385685" id="-41462">
		<tag k="fixme" v="consider natural=peak for the most distinct mountains in the district" />
		<tag k="loc_name" v="Merrahøe" />
		<tag k="name" v="Merrahøi" />
		<tag k="natural" v="hill" />
		<tag k="place" v="locality" />
		<tag k="ssr:stedsnr" v="495467" />
	</node>
	<node lat="61.794350000858266" lon="9.297950004647465" id="-41465">
		<tag k="name" v="Ottadalen" />
		<tag k="natural" v="valley" />
		<tag k="place" v="locality" />
		<tag k="ssr:stedsnr" v="495867" />
	</node>
	<node lat="61.63493610748041" lon="8.555052785637546" id="-41466">
		<tag k="name" v="Steinbuholet" />
		<tag k="natural" v="valley" />
		<tag k="place" v="locality" />
		<tag k="ssr:stedsnr" v="495915" />
	</node>
	<node lat="61.8904861104801" lon="8.645886120528921" id="-41467">
		<tag k="alt_name" v="Storteppingshogget, øvste" />
		<tag k="fixme" v="consider natural=peak for the most distinct mountains in the district" />
		<tag k="name" v="Øvste Storteppingshogget" />
		<tag k="natural" v="hill" />
		<tag k="old_name" v="Øvste Storsteppingshogget" />
		<tag k="place" v="locality" />
		<tag k="ssr:stedsnr" v="495923" />
	</node>
	<node lat="61.79724721983708" lon="8.460344451518328" id="-41468">
		<tag k="name" v="Hestdalen" />
		<tag k="natural" v="valley" />
		<tag k="place" v="locality" />
		<tag k="ssr:stedsnr" v="495953" />
	</node>
	<node lat="61.79688332913899" lon="8.643055547366558" id="-41469">
		<tag k="fixme" v="consider natural=peak for the most distinct mountains in the district" />
		<tag k="name" v="Høin" />
		<tag k="natural" v="hill" />
		<tag k="place" v="locality" />
		<tag k="ssr:stedsnr" v="496207" />
	</node>
	<node lat="61.77344444358895" lon="8.609763891145379" id="-41470">
		<tag k="name" v="Rundhaugen" />
		<tag k="natural" v="hill" />
		<tag k="place" v="locality" />
		<tag k="ssr:stedsnr" v="496226" />
	</node>
	<node lat="61.92715277587975" lon="8.670030555883057" id="-41472">
		<tag k="name" v="Grufsa" />
		<tag k="place" v="locality" />
		<tag k="ssr:stedsnr" v="496868" />
	</node>
	<node lat="61.874305552005026" lon="8.51160276965111" id="-41482">
		<tag k="name" v="Bjønnakleive" />
		<tag k="natural" v="slope" />
		<tag k="place" v="locality" />
		<tag k="ssr:stedsnr" v="539119" />
	</node>
	<node lat="61.72243055528272" lon="8.257586110282496" id="-41498">
		<tag k="name" v="Flekkakampen" />
		<tag k="natural" v="hill" />
		<tag k="place" v="locality" />
		<tag k="ssr:stedsnr" v="555106" />
	</node>
	<node lat="61.627425003866136" lon="8.795150007314177" id="-41504">
		<tag k="fixme" v="consider natural=peak for the most distinct mountains in the district" />
		<tag k="name" v="Stornubben" />
		<tag k="natural" v="hill" />
		<tag k="place" v="locality" />
		<tag k="ssr:stedsnr" v="555877" />
	</node>
	<node lat="61.80731944275893" lon="8.666252779224644" id="-41511">
		<tag k="name" v="Mjølkehaugen" />
		<tag k="natural" v="hill" />
		<tag k="place" v="locality" />
		<tag k="ssr:stedsnr" v="556224" />
	</node>
	<node lat="61.79555555788144" lon="8.734161120195928" id="-41512">
		<tag k="name" v="Veslhaugen" />
		<tag k="natural" v="hill" />
		<tag k="place" v="locality" />
		<tag k="ssr:stedsnr" v="556230" />
	</node>
	<node lat="61.79721389309607" lon="8.783213892060754" id="-41513">
		<tag k="fixme" v="consider natural=peak for the most distinct mountains in the district" />
		<tag k="loc_name" v="Gråvåhøa" />
		<tag k="name" v="Gråvåhøe" />
		<tag k="natural" v="hill" />
		<tag k="place" v="locality" />
		<tag k="ssr:stedsnr" v="556234" />
	</node>
	<node lat="61.89945555185213" lon="8.601119441306125" id="-41514">
		<tag k="name" v="Lusdalen" />
		<tag k="natural" v="valley" />
		<tag k="place" v="locality" />
		<tag k="ssr:stedsnr" v="556929" />
	</node>
	<node lat="61.84181111264051" lon="8.613791669078422" id="-41529">
		<tag k="name" v="Furuhorten" />
		<tag k="natural" v="slope" />
		<tag k="place" v="locality" />
		<tag k="ssr:stedsnr" v="696054" />
	</node>
	<node lat="61.66761388691087" lon="8.228875007245357" id="-41539">
		<tag k="name" v="Geitdalen" />
		<tag k="natural" v="valley" />
		<tag k="place" v="locality" />
		<tag k="ssr:stedsnr" v="598703" />
	</node>
	<node lat="61.773230551255516" lon="8.413941664853994" id="-41540">
		<tag k="name" v="Reppaholet" />
		<tag k="natural" v="valley" />
		<tag k="place" v="locality" />
		<tag k="ssr:stedsnr" v="599054" />
	</node>
	<node lat="61.776080555807724" lon="8.432586115539378" id="-41541">
		<tag k="name" v="Djupberget" />
		<tag k="natural" v="hill" />
		<tag k="place" v="locality" />
		<tag k="ssr:stedsnr" v="599062" />
	</node>
	<node lat="61.73182222316628" lon="8.26706111694565" id="-41543">
		<tag k="name" v="Skardet" />
		<tag k="natural" v="valley" />
		<tag k="place" v="locality" />
		<tag k="ssr:stedsnr" v="599461" />
	</node>
	<node lat="61.7228416631785" lon="8.26083610635968" id="-41544">
		<tag k="name" v="Klypa" />
		<tag k="natural" v="slope" />
		<tag k="place" v="locality" />
		<tag k="ssr:stedsnr" v="599605" />
	</node>
	<node lat="61.726136113855055" lon="8.261541675731088" id="-41546">
		<tag k="name" v="Langberg" />
		<tag k="natural" v="hill" />
		<tag k="place" v="locality" />
		<tag k="ssr:stedsnr" v="599601" />
	</node>
	<node lat="61.48911388910511" lon="8.290775005398226" id="-41549">
		<tag k="name" v="Rauddalsbandet" />
		<tag k="natural" v="valley" />
		<tag k="place" v="locality" />
		<tag k="ssr:stedsnr" v="614862" />
	</node>
	<node lat="61.47857777411602" lon="8.563516668885583" id="-41551">
		<tag k="fixme" v="consider natural=peak for the most distinct mountains in the district" />
		<tag k="name" v="Lågtunga" />
		<tag k="natural" v="hill" />
		<tag k="place" v="locality" />
		<tag k="ssr:stedsnr" v="614800" />
	</node>
	<node lat="61.59086666518121" lon="8.282741670878796" id="-41555">
		<tag k="name" v="Bukkeholsbandet" />
		<tag k="natural" v="valley" />
		<tag k="place" v="locality" />
		<tag k="ssr:stedsnr" v="616016" />
	</node>
	<node lat="61.7357999968462" lon="8.56390000026659" id="-41558">
		<tag k="name" v="Fossbotn" />
		<tag k="natural" v="valley" />
		<tag k="place" v="locality" />
		<tag k="ssr:stedsnr" v="616103" />
	</node>
	<node lat="61.6283250023951" lon="8.60224999076987" id="-41572">
		<tag k="name" v="Steinbudalen" />
		<tag k="natural" v="valley" />
		<tag k="place" v="locality" />
		<tag k="ssr:stedsnr" v="616916" />
	</node>
	<node lat="61.63810833764964" lon="8.307838894821261" id="-41576">
		<tag k="name" v="Porten" />
		<tag k="natural" v="valley" />
		<tag k="place" v="locality" />
		<tag k="ssr:stedsnr" v="617062" />
	</node>
	<node lat="61.74501388925492" lon="8.323713897662067" id="-41579">
		<tag k="fixme" v="consider natural=peak for the most distinct mountains in the district" />
		<tag k="name" v="Bakkebergsfjellet" />
		<tag k="natural" v="hill" />
		<tag k="place" v="locality" />
		<tag k="ssr:stedsnr" v="617214" />
	</node>
	<node lat="61.79686388602026" lon="8.71558333853384" id="-41580">
		<tag k="name" v="Svarvebotn" />
		<tag k="natural" v="valley" />
		<tag k="place" v="locality" />
		<tag k="ssr:stedsnr" v="617232" />
	</node>
	<node lat="61.75739999609808" lon="8.814236106019738" id="-41581">
		<tag k="name" v="Grjotåknubben" />
		<tag k="natural" v="hill" />
		<tag k="place" v="locality" />
		<tag k="ssr:stedsnr" v="617192" />
	</node>
	<node lat="61.919580554968825" lon="8.687461104251886" id="-41587">
		<tag k="alt_name" v="Brettingsmoen, nordre" />
		<tag k="name" v="Nordre Brettingsmoen" />
		<tag k="place" v="locality" />
		<tag k="ssr:stedsnr" v="617881" />
	</node>
	<node lat="61.92097500294764" lon="8.630488889746376" id="-41588">
		<tag k="name" v="Salthaugen" />
		<tag k="natural" v="hill" />
		<tag k="place" v="locality" />
		<tag k="ssr:stedsnr" v="617883" />
	</node>
	<node lat="61.92167778066918" lon="8.790825000626093" id="-41589">
		<tag k="name" v="Finndalen" />
		<tag k="natural" v="valley" />
		<tag k="place" v="locality" />
		<tag k="ssr:stedsnr" v="617894" />
	</node>
	<node lat="61.85205278121329" lon="8.622411117928724" id="-41600">
		<tag k="name" v="Rettarstaden" />
		<tag k="place" v="locality" />
		<tag k="ssr:stedsnr" v="635038" />
	</node>
	<node lat="61.60372778044731" lon="8.272086110521926" id="-41624">
		<tag k="alt_name" v="Tverråbandet, øvre" />
		<tag k="name" v="Øvre Tverråbandet" />
		<tag k="natural" v="valley" />
		<tag k="place" v="locality" />
		<tag k="ssr:stedsnr" v="677036" />
	</node>
	<node lat="61.85634999698526" lon="8.571330553491165" id="-41626">
		<tag k="name" v="Tronoberget" />
		<tag k="natural" v="hill" />
		<tag k="place" v="locality" />
		<tag k="ssr:stedsnr" v="677091" />
	</node>
	<node lat="61.80387500216995" lon="8.488552769946166" id="-41634">
		<tag k="alt_name" v="Øygardshamrein" />
		<tag k="name" v="Øygardshamran" />
		<tag k="natural" v="hill" />
		<tag k="place" v="locality" />
		<tag k="ssr:stedsnr" v="677237" />
	</node>
	<node lat="61.545833330303324" lon="8.039749992307298" id="-41642">
		<tag k="name" v="Falkeberget" />
		<tag k="natural" v="hill" />
		<tag k="place" v="locality" />
		<tag k="ssr:stedsnr" v="677331" />
	</node>
	<node lat="61.905955560039615" lon="8.624102771260501" id="-41647">
		<tag k="name" v="Lushaugen" />
		<tag k="natural" v="hill" />
		<tag k="place" v="locality" />
		<tag k="ssr:stedsnr" v="677935" />
	</node>
	<node lat="61.86841944171126" lon="8.639294442035581" id="-41652">
		<tag k="alt_name" v="Oksle" />
		<tag k="name" v="Oksli" />
		<tag k="natural" v="hill" />
		<tag k="place" v="locality" />
		<tag k="ssr:stedsnr" v="678082" />
	</node>
	<node lat="61.781127776043206" lon="8.53954445020311" id="-41653">
		<tag k="fixme" v="consider natural=peak for the most distinct mountains in the district" />
		<tag k="name" v="Klimpan" />
		<tag k="natural" v="hill" />
		<tag k="place" v="locality" />
		<tag k="ssr:stedsnr" v="678215" />
	</node>
	<node lat="61.67357499998232" lon="8.003077773838145" id="-41656">
		<tag k="name" v="Høygjelet" />
		<tag k="natural" v="valley" />
		<tag k="place" v="locality" />
		<tag k="ssr:stedsnr" v="678485" />
	</node>
	<node lat="61.67052499583338" lon="8.037538891806582" id="-41657">
		<tag k="fixme" v="consider natural=peak for the most distinct mountains in the district" />
		<tag k="name" v="Vardhøknubben" />
		<tag k="natural" v="hill" />
		<tag k="place" v="locality" />
		<tag k="ssr:stedsnr" v="678503" />
	</node>
	<node lat="61.95895277882391" lon="8.6915777717684" id="-41658">
		<tag k="loc_name" v="Brettingstungun" />
		<tag k="name" v="Brettingstungan" />
		<tag k="place" v="locality" />
		<tag k="ssr:stedsnr" v="678885" />
	</node>
	<node lat="61.953141664161805" lon="8.738169444171785" id="-41659">
		<tag k="fixme" v="consider natural=peak for the most distinct mountains in the district" />
		<tag k="name" v="Lauvhalsen" />
		<tag k="natural" v="hill" />
		<tag k="place" v="locality" />
		<tag k="ssr:stedsnr" v="678887" />
	</node>
	<node lat="61.77294999986485" lon="8.289441659055289" id="-41661">
		<tag k="name" v="Stordalen" />
		<tag k="natural" v="valley" />
		<tag k="place" v="locality" />
		<tag k="ssr:stedsnr" v="678976" />
	</node>
	<node lat="61.83023055639695" lon="8.560505564244272" id="-41664">
		<tag k="name" v="Øyahåmårn" />
		<tag k="place" v="locality" />
		<tag k="ssr:stedsnr" v="693177" />
	</node>
	<node lat="61.83239444337525" lon="8.760688896600142" id="-41666">
		<tag k="name" v="Krosstjønnhaugen" />
		<tag k="natural" v="hill" />
		<tag k="place" v="locality" />
		<tag k="ssr:stedsnr" v="696616" />
	</node>
	<node lat="61.81610278200123" lon="8.630427784113502" id="-41669">
		<tag k="name" v="Vesllie" />
		<tag k="natural" v="slope" />
		<tag k="place" v="locality" />
		<tag k="ssr:stedsnr" v="696866" />
	</node>
	<node lat="61.84439166286939" lon="8.690255550496769" id="-41671">
		<tag k="name" v="Måsårandein" />
		<tag k="natural" v="slope" />
		<tag k="place" v="locality" />
		<tag k="ssr:stedsnr" v="696775" />
	</node>
	<node lat="61.8183611075576" lon="8.560194441353683" id="-41678">
		<tag k="alt_name" v="Veslhøi" />
		<tag k="fixme" v="consider natural=peak for the most distinct mountains in the district" />
		<tag k="name" v="Veslhøe" />
		<tag k="natural" v="hill" />
		<tag k="place" v="locality" />
		<tag k="ssr:stedsnr" v="721207" />
	</node>
	<node lat="61.816197221489055" lon="8.615877777032289" id="-41679">
		<tag k="alt_name" v="Vesllii" />
		<tag k="name" v="Vesllie" />
		<tag k="natural" v="slope" />
		<tag k="place" v="locality" />
		<tag k="ssr:stedsnr" v="721223" />
	</node>
	<node lat="61.66606666584121" lon="8.472075005748138" id="-41681">
		<tag k="name" v="Gokkeroksle" />
		<tag k="natural" v="hill" />
		<tag k="place" v="locality" />
		<tag k="ssr:stedsnr" v="721416" />
	</node>
	<node lat="61.83713055815272" lon="8.822405562127978" id="-41686">
		<tag k="alt_name" v="Kleppdalen, nordre" />
		<tag k="name" v="Nørdre Kleppdalen" />
		<tag k="natural" v="valley" />
		<tag k="place" v="locality" />
		<tag k="ssr:stedsnr" v="738028" />
	</node>
	<node lat="61.6229111086948" lon="8.126041665878788" id="-41692">
		<tag k="fixme" v="consider natural=peak for the most distinct mountains in the district" />
		<tag k="name" v="Loftet" />
		<tag k="natural" v="hill" />
		<tag k="place" v="locality" />
		<tag k="ssr:stedsnr" v="738067" />
	</node>
	<node lat="61.56283055924548" lon="7.980880553026793" id="-41694">
		<tag k="name" v="Rauskjøl" />
		<tag k="place" v="locality" />
		<tag k="ssr:stedsnr" v="738262" />
	</node>
	<node lat="61.742488888929884" lon="8.407680562514688" id="-41700">
		<tag k="alt_name" v="Bakve" />
		<tag k="name" v="Bakved" />
		<tag k="natural" v="slope" />
		<tag k="place" v="locality" />
		<tag k="ssr:stedsnr" v="738169" />
	</node>
	<node lat="61.74732500409213" lon="8.44464722069349" id="-41701">
		<tag k="alt_name" v="Skolen" />
		<tag k="fixme" v="consider natural=peak for the most distinct mountains in the district" />
		<tag k="name" v="Skolon" />
		<tag k="natural" v="hill" />
		<tag k="place" v="locality" />
		<tag k="ssr:stedsnr" v="738173" />
	</node>
	<node lat="61.72578889056903" lon="8.194241665944931" id="-41703">
		<tag k="fixme" v="consider natural=peak for the most distinct mountains in the district" />
		<tag k="name" v="Netosæterfjellet" />
		<tag k="natural" v="hill" />
		<tag k="place" v="locality" />
		<tag k="ssr:stedsnr" v="738175" />
	</node>
	<node lat="61.79473889112709" lon="8.823588890553797" id="-41709">
		<tag k="alt_name" v="Koppflyi, s" />
		<tag k="name" v="Søre Koppflyi" />
		<tag k="natural" v="hill" />
		<tag k="place" v="locality" />
		<tag k="ssr:stedsnr" v="739197" />
	</node>
	<node lat="61.78528055885707" lon="8.799261119862539" id="-41710">
		<tag k="loc_name" v="Ilveflye" />
		<tag k="name" v="Ilveflyi" />
		<tag k="natural" v="slope" />
		<tag k="place" v="locality" />
		<tag k="ssr:stedsnr" v="739199" />
	</node>
	<node lat="61.68784999640035" lon="8.231130560061358" id="-41712">
		<tag k="name" v="Kringfuruhaugen" />
		<tag k="natural" v="hill" />
		<tag k="old_name" v="Kringturuhaugen" />
		<tag k="place" v="locality" />
		<tag k="ssr:stedsnr" v="902759" />
	</node>
	<node lat="61.826324999532616" lon="8.405649992270835" id="-41715">
		<tag k="fixme" v="consider natural=peak for the most distinct mountains in the district" />
		<tag k="name" v="Veslivilen" />
		<tag k="natural" v="hill" />
		<tag k="place" v="locality" />
		<tag k="ssr:stedsnr" v="739959" />
	</node>
	<node lat="61.79412222466988" lon="8.39844999638628" id="-41716">
		<tag k="name" v="Bakdalsranden" />
		<tag k="natural" v="slope" />
		<tag k="place" v="locality" />
		<tag k="ssr:stedsnr" v="903041" />
	</node>
	<node lat="61.78975277419366" lon="8.40216388205818" id="-41717">
		<tag k="name" v="Langdalen" />
		<tag k="natural" v="slope" />
		<tag k="place" v="locality" />
		<tag k="ssr:stedsnr" v="903044" />
	</node>
	<node lat="61.72214166620497" lon="8.307686108629504" id="-41721">
		<tag k="name" v="Rustahalsen" />
		<tag k="natural" v="valley" />
		<tag k="place" v="locality" />
		<tag k="ssr:stedsnr" v="903314" />
	</node>
	<node lat="61.686580552672815" lon="8.292761110418823" id="-41724">
		<tag k="name" v="Stor-Juvgjelet" />
		<tag k="natural" v="gorge" />
		<tag k="ssr:stedsnr" v="903334" />
	</node>
	<node lat="61.703677781592766" lon="8.28446666193801" id="-41725">
		<tag k="name" v="Handklabergje" />
		<tag k="natural" v="hill" />
		<tag k="place" v="locality" />
		<tag k="ssr:stedsnr" v="903362" />
	</node>
	<node lat="61.670113892251074" lon="8.485283324380656" id="-41727">
		<tag k="name" v="Ækslein" />
		<tag k="place" v="locality" />
		<tag k="ssr:stedsnr" v="903423" />
	</node>
	<node lat="61.669338891511536" lon="8.240363896831548" id="-41729">
		<tag k="name" v="Øvre Stålebakkjen" />
		<tag k="natural" v="slope" />
		<tag k="place" v="locality" />
		<tag k="ssr:stedsnr" v="903701" />
	</node>
	<node lat="61.66187777367573" lon="8.046750002270132" id="-41734">
		<tag k="name" v="Nørdre Snipen" />
		<tag k="place" v="locality" />
		<tag k="ssr:stedsnr" v="903680" />
	</node>
	<node lat="61.83558055385243" lon="8.592730556652809" id="-41741">
		<tag k="name" v="Sjellen" />
		<tag k="place" v="locality" />
		<tag k="ssr:stedsnr" v="756246" />
	</node>
	<node lat="61.829461108135824" lon="8.573938889181946" id="-41742">
		<tag k="name" v="Ljomarberget" />
		<tag k="natural" v="hill" />
		<tag k="place" v="locality" />
		<tag k="ssr:stedsnr" v="756410" />
	</node>
	<node lat="61.72517222532864" lon="8.34068333884048" id="-41748">
		<tag k="name" v="Storberget" />
		<tag k="natural" v="hill" />
		<tag k="place" v="locality" />
		<tag k="ssr:stedsnr" v="781322" />
	</node>
	<node lat="61.76660277497014" lon="8.401322222646463" id="-41750">
		<tag k="name" v="Sulheimsholen" />
		<tag k="natural" v="slope" />
		<tag k="place" v="locality" />
		<tag k="ssr:stedsnr" v="781423" />
	</node>
	<node lat="61.80262500269844" lon="8.584547225272548" id="-41769">
		<tag k="fixme" v="consider natural=peak for the most distinct mountains in the district" />
		<tag k="loc_name" v="Såleggje" />
		<tag k="name" v="Såleggi" />
		<tag k="natural" v="hill" />
		<tag k="place" v="locality" />
		<tag k="ssr:stedsnr" v="799197" />
	</node>
	<node lat="61.582575001037654" lon="7.942766674915382" id="-41772">
		<tag k="name" v="Dyrhaugen" />
		<tag k="natural" v="hill" />
		<tag k="place" v="locality" />
		<tag k="ssr:stedsnr" v="799310" />
	</node>
	<node lat="61.72502777924325" lon="8.712799994522076" id="-41773">
		<tag k="name" v="Tavelflyi" />
		<tag k="natural" v="slope" />
		<tag k="place" v="locality" />
		<tag k="ssr:stedsnr" v="799096" />
	</node>
	<node lat="61.81668888844237" lon="8.920155564139487" id="-41783">
		<tag k="alt_name" v="Måne" />
		<tag k="name" v="Måni" />
		<tag k="natural" v="ridge" />
		<tag k="place" v="locality" />
		<tag k="ssr:stedsnr" v="799506" />
	</node>
	<node lat="61.991091663711714" lon="8.745344437277467" id="-41785">
		<tag k="fixme" v="consider natural=peak for the most distinct mountains in the district" />
		<tag k="name" v="Storbrettingskollen" />
		<tag k="natural" v="hill" />
		<tag k="place" v="locality" />
		<tag k="ssr:stedsnr" v="799988" />
	</node>
	<node lat="61.778091666247235" lon="8.192274993660511" id="-41787">
		<tag k="fixme" v="consider natural=peak for the most distinct mountains in the district" />
		<tag k="loc_name" v="Hesthøe" />
		<tag k="name" v="Hesthøi" />
		<tag k="natural" v="hill" />
		<tag k="place" v="locality" />
		<tag k="ssr:stedsnr" v="799992" />
	</node>
	<node lat="61.69498055423574" lon="8.85169443829049" id="-41789">
		<tag k="fixme" v="consider natural=peak for the most distinct mountains in the district" />
		<tag k="name" v="Heranostangen" />
		<tag k="natural" v="hill" />
		<tag k="place" v="locality" />
		<tag k="ssr:stedsnr" v="799999" />
	</node>
	<node lat="61.43214166877652" lon="8.47873332983114" id="-41790">
		<tag k="name" v="Langedalen" />
		<tag k="natural" v="valley" />
		<tag k="place" v="locality" />
		<tag k="ssr:stedsnr" v="918138" />
	</node>
	<node lat="61.702049998115626" lon="7.9715499907511935" id="-41792">
		<tag k="name" v="Steindalen" />
		<tag k="natural" v="valley" />
		<tag k="place" v="locality" />
		<tag k="ssr:stedsnr" v="920467" />
	</node>
	<node lat="61.65206111095753" lon="8.078097223129197" id="-41793">
		<tag k="alt_name" v="Høyroe" />
		<tag k="name" v="Høyroi" />
		<tag k="natural" v="slope" />
		<tag k="place" v="locality" />
		<tag k="ssr:stedsnr" v="920470" />
	</node>
	<node lat="61.39755833609887" lon="8.466086106433732" id="-41797">
		<tag k="fixme" v="consider natural=peak for the most distinct mountains in the district" />
		<tag k="name" v="Slettmarkpiggen" />
		<tag k="natural" v="hill" />
		<tag k="place" v="locality" />
		<tag k="ssr:stedsnr" v="918872" />
	</node>
	<node lat="61.844827775875004" lon="8.502200002803082" id="-41801">
		<tag k="name" v="Synstneskampen" />
		<tag k="place" v="locality" />
		<tag k="ssr:stedsnr" v="816981" />
	</node>
	<node lat="61.82703055623059" lon="8.843497227011177" id="-41803">
		<tag k="name" v="Hovdemillom" />
		<tag k="place" v="locality" />
		<tag k="ssr:stedsnr" v="817575" />
	</node>
	<node lat="61.83871388985206" lon="8.672163890080988" id="-41804">
		<tag k="name" v="Hellreo" />
		<tag k="place" v="locality" />
		<tag k="ssr:stedsnr" v="817830" />
	</node>
	<node lat="61.6086500010879" lon="8.235991665257593" id="-41808">
		<tag k="fixme" v="consider natural=peak for the most distinct mountains in the district" />
		<tag k="name" v="Tunga" />
		<tag k="natural" v="hill" />
		<tag k="place" v="locality" />
		<tag k="ssr:stedsnr" v="920040" />
	</node>
	<node lat="61.68186667014294" lon="8.775136104436845" id="-41815">
		<tag k="name" v="Saubuhaugen" />
		<tag k="natural" v="hill" />
		<tag k="place" v="locality" />
		<tag k="ssr:stedsnr" v="920076" />
	</node>
	<node lat="61.70648610719729" lon="8.432216668062157" id="-41829">
		<tag k="alt_name" v="Ormelii" />
		<tag k="name" v="Ormelie" />
		<tag k="natural" v="slope" />
		<tag k="place" v="locality" />
		<tag k="ssr:stedsnr" v="920235" />
	</node>
	<node lat="61.779655553346146" lon="8.496519447480695" id="-41840">
		<tag k="name" v="Langhaug" />
		<tag k="natural" v="hill" />
		<tag k="place" v="locality" />
		<tag k="ssr:stedsnr" v="921220" />
	</node>
	<node lat="61.91558610911387" lon="8.738908326801273" id="-41842">
		<tag k="name" v="Reinskinnhaugen" />
		<tag k="natural" v="hill" />
		<tag k="place" v="locality" />
		<tag k="ssr:stedsnr" v="921879" />
	</node>
	<node lat="61.83244166397265" lon="8.447024994442264" id="-41843">
		<tag k="alt_name" v="Lomseggi" />
		<tag k="fixme" v="consider natural=peak for the most distinct mountains in the district" />
		<tag k="name" v="Lomseggje" />
		<tag k="natural" v="hill" />
		<tag k="place" v="locality" />
		<tag k="ssr:stedsnr" v="921949" />
	</node>
	<node lat="61.83551111322943" lon="8.716419445695957" id="-41848">
		<tag k="alt_name" v="Lyngveshøi" />
		<tag k="fixme" v="consider natural=peak for the most distinct mountains in the district" />
		<tag k="name" v="Lyngveshøe" />
		<tag k="natural" v="hill" />
		<tag k="place" v="locality" />
		<tag k="ssr:stedsnr" v="842004" />
	</node>
	<node lat="61.696161109966766" lon="8.278747218585238" id="-41850">
		<tag k="name" v="Rennarsletta" />
		<tag k="place" v="locality" />
		<tag k="ssr:stedsnr" v="842326" />
	</node>
	<node lat="61.70819722604177" lon="8.186641671130388" id="-41851">
		<tag k="fixme" v="consider natural=peak for the most distinct mountains in the district" />
		<tag k="name" v="Hovdestulkampen" />
		<tag k="natural" v="hill" />
		<tag k="place" v="locality" />
		<tag k="ssr:stedsnr" v="842584" />
	</node>
	<node lat="61.77030000393029" lon="8.43286111689419" id="-41857">
		<tag k="name" v="Engjehaugen" />
		<tag k="natural" v="hill" />
		<tag k="place" v="locality" />
		<tag k="ssr:stedsnr" v="843423" />
	</node>
	<node lat="61.76962499680851" lon="8.398955564133939" id="-41858">
		<tag k="name" v="Fuglleiken" />
		<tag k="place" v="locality" />
		<tag k="ssr:stedsnr" v="843429" />
	</node>
	<node lat="61.65600833140802" lon="8.148574998107618" id="-41861">
		<tag k="name" v="Tjønnholet" />
		<tag k="natural" v="valley" />
		<tag k="place" v="locality" />
		<tag k="ssr:stedsnr" v="843725" />
	</node>
	<node lat="61.6707611109545" lon="8.19322778596692" id="-41862">
		<tag k="name" v="Kleivbergje" />
		<tag k="natural" v="hill" />
		<tag k="place" v="locality" />
		<tag k="ssr:stedsnr" v="843733" />
	</node>
	<node lat="61.73431388585247" lon="8.273766675123372" id="-41863">
		<tag k="name" v="Monsholranden" />
		<tag k="natural" v="slope" />
		<tag k="place" v="locality" />
		<tag k="ssr:stedsnr" v="843473" />
	</node>
	<node lat="61.47723888565497" lon="8.497650006040518" id="-41866">
		<tag k="fixme" v="consider natural=peak for the most distinct mountains in the district" />
		<tag k="name" v="Memurutunga" />
		<tag k="natural" v="hill" />
		<tag k="place" v="locality" />
		<tag k="ssr:stedsnr" v="858804" />
	</node>
	<node lat="61.57705833202772" lon="8.217013884171383" id="-41870">
		<tag k="name" v="Sletthamn" />
		<tag k="natural" v="slope" />
		<tag k="place" v="locality" />
		<tag k="ssr:stedsnr" v="859016" />
	</node>
	<node lat="61.62243055340924" lon="8.005724992441587" id="-41876">
		<tag k="name" v="Dumdalen" />
		<tag k="natural" v="valley" />
		<tag k="place" v="locality" />
		<tag k="ssr:stedsnr" v="859410" />
	</node>
	<node lat="61.64467500148497" lon="8.009802785566075" id="-41878">
		<tag k="fixme" v="consider natural=peak for the most distinct mountains in the district" />
		<tag k="name" v="Høyfjellet" />
		<tag k="natural" v="hill" />
		<tag k="place" v="locality" />
		<tag k="ssr:stedsnr" v="859416" />
	</node>
	<node lat="61.83925278228478" lon="8.635205554684665" id="-41882">
		<tag k="fixme" v="consider natural=peak for the most distinct mountains in the district" />
		<tag k="name" v="Ausfjellet" />
		<tag k="natural" v="hill" />
		<tag k="place" v="locality" />
		<tag k="ssr:stedsnr" v="860011" />
	</node>
	<node lat="61.83962499918924" lon="8.710825004676002" id="-41884">
		<tag k="name" v="Smørgrovberget" />
		<tag k="natural" v="hill" />
		<tag k="place" v="locality" />
		<tag k="ssr:stedsnr" v="860004" />
	</node>
	<node lat="61.5133111083281" lon="8.406594450154538" id="-41888">
		<tag k="fixme" v="consider natural=peak for the most distinct mountains in the district" />
		<tag k="name" v="Semeltinden" />
		<tag k="natural" v="hill" />
		<tag k="place" v="locality" />
		<tag k="ssr:stedsnr" v="860114" />
	</node>
	<node lat="61.74683055491234" lon="8.649575005535654" id="-41890">
		<tag k="name" v="Brenna" />
		<tag k="natural" v="slope" />
		<tag k="place" v="locality" />
		<tag k="ssr:stedsnr" v="860122" />
	</node>
	<node lat="61.83914999816326" lon="8.862625002451347" id="-41891">
		<tag k="alt_name" v="Storskardskampen" />
		<tag k="name" v="Torgerhaugen" />
		<tag k="natural" v="hill" />
		<tag k="place" v="locality" />
		<tag k="ssr:stedsnr" v="860307" />
	</node>
	<node lat="61.863638888668035" lon="8.56607777333836" id="-41896">
		<tag k="alt_name" v="Geittopphøi" />
		<tag k="name" v="Geittopphøe" />
		<tag k="natural" v="hill" />
		<tag k="place" v="locality" />
		<tag k="ssr:stedsnr" v="860082" />
	</node>
	<node lat="61.734761107012346" lon="8.30201945261718" id="-41897">
		<tag k="name" v="Styggeberget" />
		<tag k="natural" v="hill" />
		<tag k="place" v="locality" />
		<tag k="ssr:stedsnr" v="860206" />
	</node>
	<node lat="61.73956389236168" lon="8.39137776873719" id="-41899">
		<tag k="fixme" v="consider natural=peak for the most distinct mountains in the district" />
		<tag k="name" v="Knippen" />
		<tag k="natural" v="hill" />
		<tag k="place" v="locality" />
		<tag k="ssr:stedsnr" v="860214" />
	</node>
	<node lat="61.936038892148716" lon="8.65536111276694" id="-41904">
		<tag k="name" v="Hømillom" />
		<tag k="natural" v="slope" />
		<tag k="place" v="locality" />
		<tag k="ssr:stedsnr" v="860910" />
	</node>
	<node lat="61.8171694482579" lon="8.640283326318947" id="-41910">
		<tag k="name" v="Hardbakkjen" />
		<tag k="natural" v="ridge" />
		<tag k="place" v="locality" />
		<tag k="ssr:stedsnr" v="878857" />
	</node>
	<node lat="61.77612777445913" lon="8.418566659284604" id="-41914">
		<tag k="name" v="Bærlikampen" />
		<tag k="natural" v="hill" />
		<tag k="place" v="locality" />
		<tag k="ssr:stedsnr" v="903055" />
	</node>
	<node lat="61.82481944572602" lon="8.807941667771523" id="-41915">
		<tag k="alt_name" v="Snauhøi" />
		<tag k="name" v="Snauhøe" />
		<tag k="natural" v="hill" />
		<tag k="place" v="locality" />
		<tag k="ssr:stedsnr" v="903212" />
	</node>
	<node lat="61.883541663882646" lon="8.860116674228486" id="-41916">
		<tag k="name" v="Skåphaugen" />
		<tag k="natural" v="hill" />
		<tag k="place" v="locality" />
		<tag k="ssr:stedsnr" v="903300" />
	</node>
	<node lat="61.71764722231319" lon="8.24885000845392" id="-41931">
		<tag k="name" v="Kvanndalsvollkampen" />
		<tag k="natural" v="hill" />
		<tag k="place" v="locality" />
		<tag k="ssr:stedsnr" v="920153" />
	</node>
	<node lat="61.56210277727135" lon="8.395580556164271" id="-41933">
		<tag k="name" v="Urdadalen" />
		<tag k="natural" v="valley" />
		<tag k="old_name" v="Urdalen" />
		<tag k="place" v="locality" />
		<tag k="ssr:stedsnr" v="920005" />
	</node>
	<node lat="61.55906111085256" lon="8.193205560053467" id="-41934">
		<tag k="fixme" v="consider natural=peak for the most distinct mountains in the district" />
		<tag k="name" v="Steet" />
		<tag k="natural" v="hill" />
		<tag k="place" v="locality" />
		<tag k="ssr:stedsnr" v="920008" />
	</node>
	<node lat="61.61517222033284" lon="8.30178889278622" id="-41937">
		<tag k="fixme" v="consider natural=peak for the most distinct mountains in the district" />
		<tag k="name" v="Tverråtindan" />
		<tag k="natural" v="hill" />
		<tag k="place" v="locality" />
		<tag k="ssr:stedsnr" v="920043" />
	</node>
	<node lat="61.72528333619626" lon="8.741194438350968" id="-41940">
		<tag k="name" v="Reset" />
		<tag k="natural" v="slope" />
		<tag k="place" v="locality" />
		<tag k="ssr:stedsnr" v="920094" />
	</node>
	<node lat="61.695899997321085" lon="8.337472222823818" id="-41946">
		<tag k="fixme" v="consider natural=peak for the most distinct mountains in the district" />
		<tag k="name" v="Mjefjellsknubban" />
		<tag k="natural" v="hill" />
		<tag k="place" v="locality" />
		<tag k="ssr:stedsnr" v="920224" />
	</node>
	<node lat="61.81201944489592" lon="8.817036110288294" id="-41949">
		<tag k="fixme" v="consider natural=peak for the most distinct mountains in the district" />
		<tag k="name" v="Kopphatten" />
		<tag k="natural" v="hill" />
		<tag k="place" v="locality" />
		<tag k="ssr:stedsnr" v="920237" />
	</node>
	<node lat="61.803919442083895" lon="8.928555549580476" id="-41951">
		<tag k="name" v="Tverrlandet" />
		<tag k="place" v="locality" />
		<tag k="ssr:stedsnr" v="920439" />
	</node>
	<node lat="61.896786111082584" lon="8.575922216128266" id="-41955">
		<tag k="name" v="Mefjellshaugen" />
		<tag k="natural" v="hill" />
		<tag k="place" v="locality" />
		<tag k="ssr:stedsnr" v="920914" />
	</node>
	<node lat="61.76274166995802" lon="8.644947228090713" id="-41957">
		<tag k="fixme" v="consider natural=peak for the most distinct mountains in the district" />
		<tag k="name" v="Rupknubben" />
		<tag k="natural" v="hill" />
		<tag k="place" v="locality" />
		<tag k="ssr:stedsnr" v="921244" />
	</node>
	<node lat="62.00791975867683" lon="8.59135871221126" id="-41963">
		<tag k="fixme" v="consider natural=peak for the most distinct mountains in the district" />
		<tag k="name" v="Skardtind" />
		<tag k="natural" v="hill" />
		<tag k="place" v="locality" />
		<tag k="ssr:stedsnr" v="921975" />
	</node>
	<node lat="61.99358055391102" lon="8.599638889472986" id="-41964">
		<tag k="name" v="Vesleskardet" />
		<tag k="natural" v="valley" />
		<tag k="place" v="locality" />
		<tag k="ssr:stedsnr" v="921984" />
	</node>
	<node lat="61.87679166951672" lon="8.771511109621915" id="-41967">
		<tag k="name" v="Flatein" />
		<tag k="natural" v="slope" />
		<tag k="place" v="locality" />
		<tag k="ssr:stedsnr" v="939293" />
	</node>
	<node lat="61.85951111258714" lon="8.795383331465384" id="-41968">
		<tag k="name" v="Britbergje" />
		<tag k="natural" v="cliff" />
		<tag k="ssr:stedsnr" v="939440" />
	</node>
	<node lat="61.74458611173248" lon="8.324963896607068" id="-41974">
		<tag k="name" v="Svartnebbein" />
		<tag k="natural" v="hill" />
		<tag k="place" v="locality" />
		<tag k="ssr:stedsnr" v="963291" />
	</node>
	<node lat="61.724122224463265" lon="8.399280547057113" id="-41978">
		<tag k="name" v="Langmyrdalen" />
		<tag k="natural" v="valley" />
		<tag k="place" v="locality" />
		<tag k="ssr:stedsnr" v="963484" />
	</node>
	<node lat="61.65208610679941" lon="8.192461104149999" id="-41985">
		<tag k="name" v="Dumgjelet" />
		<tag k="natural" v="gorge" />
		<tag k="ssr:stedsnr" v="964683" />
	</node>
	<node lat="61.87172777722841" lon="8.54624722539105" id="-42001">
		<tag k="name" v="Geitådalen" />
		<tag k="natural" v="valley" />
		<tag k="place" v="locality" />
		<tag k="ssr:stedsnr" v="10107" />
	</node>
	<node lat="61.72632500377467" lon="8.551711114161215" id="-42003">
		<tag k="name" v="Bandet" />
		<tag k="natural" v="valley" />
		<tag k="place" v="locality" />
		<tag k="ssr:stedsnr" v="10110" />
	</node>
	<node lat="61.88671110677169" lon="8.756597215644963" id="-42004">
		<tag k="alt_name" v="Vamhaug, øvre" />
		<tag k="name" v="Øvre Vamhaug" />
		<tag k="natural" v="hill" />
		<tag k="place" v="locality" />
		<tag k="ssr:stedsnr" v="10115" />
	</node>
	<node lat="61.876683332506964" lon="8.834261113032987" id="-42005">
		<tag k="name" v="Stålberget" />
		<tag k="natural" v="hill" />
		<tag k="place" v="locality" />
		<tag k="ssr:stedsnr" v="10122" />
	</node>
	<node lat="61.81661389325495" lon="8.738191657252129" id="-42013">
		<tag k="name" v="Kyreggdalen" />
		<tag k="natural" v="valley" />
		<tag k="place" v="locality" />
		<tag k="ssr:stedsnr" v="10233" />
	</node>
	<node lat="61.89672777486218" lon="8.613902780497128" id="-42040">
		<tag k="name" v="Lusberget" />
		<tag k="natural" v="hill" />
		<tag k="place" v="locality" />
		<tag k="ssr:stedsnr" v="10914" />
	</node>
	<node lat="61.894816664781324" lon="8.70928887963137" id="-42041">
		<tag k="name" v="Brennhaugen" />
		<tag k="natural" v="hill" />
		<tag k="place" v="locality" />
		<tag k="ssr:stedsnr" v="10915" />
	</node>
	<node lat="61.88044166873892" lon="8.559391671113914" id="-42042">
		<tag k="name" v="Storådalen" />
		<tag k="natural" v="valley" />
		<tag k="place" v="locality" />
		<tag k="ssr:stedsnr" v="10921" />
	</node>
	<node lat="61.768686107696745" lon="8.489175004916287" id="-42045">
		<tag k="alt_name" v="Ringlishøi" />
		<tag k="fixme" v="consider natural=peak for the most distinct mountains in the district" />
		<tag k="name" v="Ringlishøe" />
		<tag k="natural" v="hill" />
		<tag k="place" v="locality" />
		<tag k="ssr:stedsnr" v="11200" />
	</node>
	<node lat="62.00792499779043" lon="8.685713894664625" id="-42047">
		<tag k="name" v="Skjervedalen" />
		<tag k="natural" v="valley" />
		<tag k="place" v="locality" />
		<tag k="ssr:stedsnr" v="11977" />
	</node>
	<node lat="61.95971111189852" lon="8.801777775433175" id="-42048">
		<tag k="fixme" v="consider natural=peak for the most distinct mountains in the district" />
		<tag k="loc_name" v="Gjerdinghøa" />
		<tag k="name" v="Gjerdinghøe" />
		<tag k="natural" v="hill" />
		<tag k="place" v="locality" />
		<tag k="ssr:stedsnr" v="11892" />
	</node>
	<node lat="61.56387222259859" lon="7.890058325525894" id="-42050">
		<tag k="alt_name" v="Sognefjellet" />
		<tag k="name" v="Dølafjell" />
		<tag k="natural" v="mountain_range" />
		<tag k="ssr:stedsnr" v="23309" />
	</node>
	<node lat="61.83382499764543" lon="8.524916663373935" id="-42051">
		<tag k="name" v="Torekveslågøyn" />
		<tag k="place" v="locality" />
		<tag k="ssr:stedsnr" v="26186" />
	</node>
	<node lat="61.83006389280967" lon="8.668591659031799" id="-42066">
		<tag k="name" v="Svarvegjelet" />
		<tag k="natural" v="gorge" />
		<tag k="ssr:stedsnr" v="28947" />
	</node>
	<node lat="61.8442638863223" lon="8.711483341480298" id="-42068">
		<tag k="name" v="Tjukkruste" />
		<tag k="natural" v="slope" />
		<tag k="place" v="locality" />
		<tag k="ssr:stedsnr" v="29746" />
	</node>
	<node lat="61.72555832999057" lon="8.341591661374316" id="-42074">
		<tag k="name" v="Rustadalen" />
		<tag k="natural" v="valley" />
		<tag k="place" v="locality" />
		<tag k="ssr:stedsnr" v="53335" />
	</node>
	<node lat="61.685608334039124" lon="8.289872231425978" id="-42075">
		<tag k="name" v="Kvølven" />
		<tag k="place" v="locality" />
		<tag k="ssr:stedsnr" v="53354" />
	</node>
	<node lat="61.69719444206137" lon="8.280952781156357" id="-42076">
		<tag k="name" v="Svattfram" />
		<tag k="natural" v="hill" />
		<tag k="place" v="locality" />
		<tag k="ssr:stedsnr" v="53361" />
	</node>
	<node lat="61.66586111155657" lon="8.218500000558318" id="-42079">
		<tag k="name" v="Illåkroken" />
		<tag k="natural" v="valley" />
		<tag k="place" v="locality" />
		<tag k="ssr:stedsnr" v="53742" />
	</node>
	<node lat="61.66867777858287" lon="8.23464722457624" id="-42080">
		<tag k="name" v="Søre Stålebakkjen" />
		<tag k="natural" v="slope" />
		<tag k="place" v="locality" />
		<tag k="ssr:stedsnr" v="53744" />
	</node>
	<node lat="61.67503333234515" lon="8.25211943975142" id="-42081">
		<tag k="name" v="Storviein" />
		<tag k="natural" v="slope" />
		<tag k="place" v="locality" />
		<tag k="ssr:stedsnr" v="53746" />
	</node>
	<node lat="61.68180832955168" lon="8.227119453191092" id="-42082">
		<tag k="name" v="Håmåren" />
		<tag k="natural" v="hill" />
		<tag k="place" v="locality" />
		<tag k="ssr:stedsnr" v="53749" />
	</node>
	<node lat="61.68883889170684" lon="8.223927770452576" id="-42084">
		<tag k="alt_name" v="Søndre Glåmberg" />
		<tag k="name" v="Søre Glåmberg" />
		<tag k="natural" v="hill" />
		<tag k="place" v="locality" />
		<tag k="ssr:stedsnr" v="53757" />
	</node>
	<node lat="61.86413333036639" lon="8.823927774737925" id="-42085">
		<tag k="name" v="Veslsæterhøe" />
		<tag k="natural" v="hill" />
		<tag k="place" v="locality" />
		<tag k="ssr:stedsnr" v="54309" />
	</node>
	<node lat="61.80257222032903" lon="8.425930557062191" id="-42088">
		<tag k="name" v="Oksle" />
		<tag k="natural" v="ridge" />
		<tag k="place" v="locality" />
		<tag k="ssr:stedsnr" v="54042" />
	</node>
	<node lat="61.799627781652866" lon="8.46680556482762" id="-42090">
		<tag k="name" v="Hestdalskampein" />
		<tag k="natural" v="hill" />
		<tag k="place" v="locality" />
		<tag k="ssr:stedsnr" v="54045" />
	</node>
	<node lat="61.747750003690065" lon="8.386908336871084" id="-42093">
		<tag k="name" v="Merraholet" />
		<tag k="natural" v="slope" />
		<tag k="place" v="locality" />
		<tag k="ssr:stedsnr" v="54458" />
	</node>
	<node lat="61.59654166383258" lon="8.264200001891998" id="-42099">
		<tag k="name" v="Vakkerbandet" />
		<tag k="natural" v="valley" />
		<tag k="place" v="locality" />
		<tag k="ssr:stedsnr" v="70016" />
	</node>
	<node lat="61.70881388806046" lon="8.261316658011186" id="-42101">
		<tag k="name" v="Langhaugen" />
		<tag k="natural" v="hill" />
		<tag k="place" v="locality" />
		<tag k="ssr:stedsnr" v="70119" />
	</node>
	<node lat="61.68786666235418" lon="8.518799996161217" id="-42106">
		<tag k="name" v="Smiugjelholet" />
		<tag k="natural" v="valley" />
		<tag k="place" v="locality" />
		<tag k="ssr:stedsnr" v="70070" />
	</node>
	<node lat="61.63044999950284" lon="8.549836114724666" id="-42110">
		<tag k="fixme" v="consider natural=peak for the most distinct mountains in the district" />
		<tag k="name" v="Steinbukampen" />
		<tag k="natural" v="hill" />
		<tag k="place" v="locality" />
		<tag k="ssr:stedsnr" v="70898" />
	</node>
	<node lat="61.65122349775799" lon="8.557591416317292" id="-42113">
		<tag k="fixme" v="consider natural=peak for the most distinct mountains in the district" />
		<tag k="name" v="Glittertinden" />
		<tag k="natural" v="hill" />
		<tag k="old_name" v="Glittertind" />
		<tag k="place" v="locality" />
		<tag k="ssr:stedsnr" v="70857" />
	</node>
	<node lat="61.63490555255193" lon="8.32594999360524" id="-42121">
		<tag k="fixme" v="consider natural=peak for the most distinct mountains in the district" />
		<tag k="name" v="Keilhaus topp" />
		<tag k="natural" v="hill" />
		<tag k="place" v="locality" />
		<tag k="ssr:stedsnr" v="71052" />
	</node>
	<node lat="61.728325000453594" lon="8.684377768534619" id="-42124">
		<tag k="name" v="Lønnsæterholet" />
		<tag k="natural" v="valley" />
		<tag k="place" v="locality" />
		<tag k="ssr:stedsnr" v="71082" />
	</node>
	<node lat="61.735588893242195" lon="8.682655555206196" id="-42125">
		<tag k="alt_name" v="Børjeholet, nordre" />
		<tag k="loc_name" v="Nørdre Børgjeholet" />
		<tag k="name" v="Nordre Børjeholet" />
		<tag k="natural" v="valley" />
		<tag k="place" v="locality" />
		<tag k="ssr:stedsnr" v="71104" />
	</node>
	<node lat="61.74062777946386" lon="8.82910000715103" id="-42126">
		<tag k="name" v="Grjotåmillom" />
		<tag k="natural" v="slope" />
		<tag k="place" v="locality" />
		<tag k="ssr:stedsnr" v="71107" />
	</node>
	<node lat="61.77098055669893" lon="8.469180551148993" id="-42129">
		<tag k="alt_name" v="Bukkeskåre" />
		<tag k="name" v="Bukkeskori" />
		<tag k="natural" v="valley" />
		<tag k="place" v="locality" />
		<tag k="ssr:stedsnr" v="71236" />
	</node>
	<node lat="61.67828333191038" lon="8.182566670315937" id="-42130">
		<tag k="alt_name" v="Leirlistein" />
		<tag k="name" v="Leirlisteinen" />
		<tag k="place" v="locality" />
		<tag k="ssr:stedsnr" v="71239" />
	</node>
	<node lat="61.680413888012176" lon="8.322838893501718" id="-42131">
		<tag k="alt_name" v="Myttingsfjellet" />
		<tag k="fixme" v="consider natural=peak for the most distinct mountains in the district" />
		<tag k="name" v="Mytingsfjellet" />
		<tag k="natural" v="hill" />
		<tag k="place" v="locality" />
		<tag k="ssr:stedsnr" v="71242" />
	</node>
	<node lat="61.69815555967149" lon="8.153391658789346" id="-42134">
		<tag k="name" v="Håleinna" />
		<tag k="natural" v="slope" />
		<tag k="place" v="locality" />
		<tag k="ssr:stedsnr" v="71261" />
	</node>
	<node lat="61.69491944376225" lon="8.096030554567099" id="-42136">
		<tag k="name" v="Søre Sekken" />
		<tag k="natural" v="valley" />
		<tag k="place" v="locality" />
		<tag k="ssr:stedsnr" v="71269" />
	</node>
	<node lat="61.83439999992433" lon="8.863372221232604" id="-42137">
		<tag k="name" v="Kvitberget" />
		<tag k="natural" v="hill" />
		<tag k="place" v="locality" />
		<tag k="ssr:stedsnr" v="71281" />
	</node>
	<node lat="61.939252780834366" lon="8.727272228416195" id="-42143">
		<tag k="alt_name" v="Brosthaugein" />
		<tag k="name" v="Brosthaugan" />
		<tag k="natural" v="hill" />
		<tag k="place" v="locality" />
		<tag k="ssr:stedsnr" v="71899" />
	</node>
	<node lat="61.79576111015002" lon="8.35175000215778" id="-42145">
		<tag k="name" v="Bordranden" />
		<tag k="natural" v="hill" />
		<tag k="place" v="locality" />
		<tag k="ssr:stedsnr" v="72939" />
	</node>
	<node lat="61.83340555727597" lon="8.589433328257234" id="-42146">
		<tag k="name" v="Brennhaug" />
		<tag k="natural" v="hill" />
		<tag k="place" v="locality" />
		<tag k="ssr:stedsnr" v="88358" />
	</node>
	<node lat="61.84513333459118" lon="8.623308340839927" id="-42149">
		<tag k="name" v="Glenna" />
		<tag k="natural" v="hill" />
		<tag k="place" v="locality" />
		<tag k="ssr:stedsnr" v="89045" />
	</node>
	<node lat="61.85582500335141" lon="8.788136110179721" id="-42153">
		<tag k="name" v="Gråndalen" />
		<tag k="natural" v="valley" />
		<tag k="place" v="locality" />
		<tag k="ssr:stedsnr" v="89650" />
	</node>
	<node lat="61.84477777901536" lon="8.677763889616582" id="-42154">
		<tag k="name" v="Kvennhusdalen" />
		<tag k="natural" v="valley" />
		<tag k="place" v="locality" />
		<tag k="ssr:stedsnr" v="89808" />
	</node>
	<node lat="61.66500555727348" lon="8.231927784925178" id="-42158">
		<tag k="name" v="Nørdre Stålebakkein" />
		<tag k="natural" v="slope" />
		<tag k="place" v="locality" />
		<tag k="ssr:stedsnr" v="113712" />
	</node>
	<node lat="61.69490555336934" lon="8.258305549323255" id="-42159">
		<tag k="name" v="Grindurddalen" />
		<tag k="natural" v="valley" />
		<tag k="place" v="locality" />
		<tag k="ssr:stedsnr" v="113735" />
	</node>
	<node lat="61.86250833377877" lon="8.841363879643874" id="-42162">
		<tag k="name" v="Ivabergje" />
		<tag k="natural" v="hill" />
		<tag k="place" v="locality" />
		<tag k="ssr:stedsnr" v="114315" />
	</node>
	<node lat="61.687083336652016" lon="8.270447228770696" id="-42164">
		<tag k="name" v="Nedre Heggjesletta" />
		<tag k="place" v="locality" />
		<tag k="ssr:stedsnr" v="114374" />
	</node>
	<node lat="61.672713885770655" lon="8.231038890987788" id="-42168">
		<tag k="name" v="Svarthåmåren" />
		<tag k="natural" v="hill" />
		<tag k="place" v="locality" />
		<tag k="ssr:stedsnr" v="114739" />
	</node>
	<node lat="61.6875696514273" lon="8.24662497593468" id="-42171">
		<tag k="loc_name" v="Bjønnaholet" />
		<tag k="name" v="Bjøynnaholet" />
		<tag k="natural" v="valley" />
		<tag k="place" v="locality" />
		<tag k="ssr:stedsnr" v="114745" />
	</node>
	<node lat="61.87064166564906" lon="8.716244443689906" id="-42173">
		<tag k="name" v="Sagholet" />
		<tag k="natural" v="valley" />
		<tag k="place" v="locality" />
		<tag k="ssr:stedsnr" v="114960" />
	</node>
	<node lat="61.67374444514647" lon="8.130347219492934" id="-42175">
		<tag k="name" v="Stortrongdalen" />
		<tag k="natural" v="valley" />
		<tag k="place" v="locality" />
		<tag k="ssr:stedsnr" v="115663" />
	</node>
	<node lat="61.8309611093226" lon="8.578522217096557" id="-42178">
		<tag k="name" v="Nonshaugen" />
		<tag k="natural" v="hill" />
		<tag k="place" v="locality" />
		<tag k="ssr:stedsnr" v="131032" />
	</node>
	<node lat="61.60044999677902" lon="8.220738890379213" id="-42180">
		<tag k="name" v="Illåskardet" />
		<tag k="natural" v="valley" />
		<tag k="place" v="locality" />
		<tag k="ssr:stedsnr" v="131048" />
	</node>
	<node lat="61.869658331932904" lon="8.69941667444557" id="-42184">
		<tag k="fixme" v="consider natural=peak for the most distinct mountains in the district" />
		<tag k="name" v="Måni" />
		<tag k="natural" v="hill" />
		<tag k="place" v="locality" />
		<tag k="ssr:stedsnr" v="131067" />
	</node>
	<node lat="61.53500277852668" lon="8.40421388634823" id="-42185">
		<tag k="name" v="Urdadalsbandet" />
		<tag k="natural" v="valley" />
		<tag k="place" v="locality" />
		<tag k="ssr:stedsnr" v="131129" />
	</node>
	<node lat="61.72137777773552" lon="8.401408336395955" id="-42188">
		<tag k="alt_name" v="Sygardshaug" />
		<tag k="name" v="Sygardshaugen" />
		<tag k="natural" v="hill" />
		<tag k="place" v="locality" />
		<tag k="ssr:stedsnr" v="131139" />
	</node>
	<node lat="61.721941666424364" lon="8.297802785897286" id="-42190">
		<tag k="name" v="Tuvberget" />
		<tag k="natural" v="hill" />
		<tag k="place" v="locality" />
		<tag k="ssr:stedsnr" v="131153" />
	</node>
	<node lat="61.73177499847559" lon="8.435213892419569" id="-42191">
		<tag k="name" v="Sæterhaugen" />
		<tag k="natural" v="hill" />
		<tag k="place" v="locality" />
		<tag k="ssr:stedsnr" v="131156" />
	</node>
	<node lat="61.80902222370014" lon="8.809977777451873" id="-42196">
		<tag k="alt_name" v="Koppe, nordre;Koppe" />
		<tag k="fixme" v="consider natural=peak for the most distinct mountains in the district" />
		<tag k="name" v="Nordre Koppe" />
		<tag k="natural" v="hill" />
		<tag k="place" v="locality" />
		<tag k="ssr:stedsnr" v="131229" />
	</node>
	<node lat="61.82573611303101" lon="8.854561109660008" id="-42197">
		<tag k="fixme" v="consider natural=peak for the most distinct mountains in the district" />
		<tag k="name" v="Langhovden" />
		<tag k="natural" v="hill" />
		<tag k="place" v="locality" />
		<tag k="ssr:stedsnr" v="131237" />
	</node>
	<node lat="61.84420000451303" lon="8.73833889429649" id="-42198">
		<tag k="name" v="Vårdalen" />
		<tag k="natural" v="valley" />
		<tag k="place" v="locality" />
		<tag k="ssr:stedsnr" v="131001" />
	</node>
	<node lat="61.65479999679532" lon="8.062383338529436" id="-42204">
		<tag k="alt_name" v="Kveinnslæein" />
		<tag k="name" v="Kveinslein" />
		<tag k="natural" v="slope" />
		<tag k="place" v="locality" />
		<tag k="ssr:stedsnr" v="131460" />
	</node>
	<node lat="61.902483329362454" lon="8.648200003197884" id="-42212">
		<tag k="alt_name" v="Lushøi" />
		<tag k="fixme" v="consider natural=peak for the most distinct mountains in the district" />
		<tag k="name" v="Lushøe" />
		<tag k="natural" v="hill" />
		<tag k="place" v="locality" />
		<tag k="ssr:stedsnr" v="131946" />
	</node>
	<node lat="61.792241666975855" lon="8.683008327684927" id="-42214">
		<tag k="fixme" v="consider natural=peak for the most distinct mountains in the district" />
		<tag k="name" v="Veslkjølen" />
		<tag k="natural" v="hill" />
		<tag k="place" v="locality" />
		<tag k="ssr:stedsnr" v="132240" />
	</node>
	<node lat="61.79678055849702" lon="8.57766111414682" id="-42215">
		<tag k="fixme" v="consider natural=peak for the most distinct mountains in the district" />
		<tag k="name" v="Vindsjokampen" />
		<tag k="natural" v="hill" />
		<tag k="place" v="locality" />
		<tag k="ssr:stedsnr" v="132190" />
	</node>
	<node lat="61.78625555298359" lon="8.489358326723918" id="-42216">
		<tag k="name" v="Grøna" />
		<tag k="natural" v="valley" />
		<tag k="place" v="locality" />
		<tag k="ssr:stedsnr" v="132191" />
	</node>
	<node lat="61.7695388918174" lon="8.656144446189387" id="-42218">
		<tag k="name" v="Krokågjelet" />
		<tag k="natural" v="valley" />
		<tag k="place" v="locality" />
		<tag k="ssr:stedsnr" v="132198" />
	</node>
	<node lat="61.91006111305337" lon="8.5007916735203" id="-42222">
		<tag k="name" v="Honnsjodalen" />
		<tag k="natural" v="valley" />
		<tag k="place" v="locality" />
		<tag k="ssr:stedsnr" v="132885" />
	</node>
	<node lat="61.953513885891915" lon="8.51962222709257" id="-42223">
		<tag k="name" v="Bukkeholet" />
		<tag k="natural" v="valley" />
		<tag k="place" v="locality" />
		<tag k="ssr:stedsnr" v="132891" />
	</node>
	<node lat="61.95148055161398" lon="8.605663884269234" id="-42224">
		<tag k="name" v="Slettgjelet" />
		<tag k="natural" v="valley" />
		<tag k="place" v="locality" />
		<tag k="ssr:stedsnr" v="132893" />
	</node>
	<node lat="61.93697222104649" lon="8.497436112588598" id="-42225">
		<tag k="fixme" v="consider natural=peak for the most distinct mountains in the district" />
		<tag k="name" v="Finndalshorungen" />
		<tag k="natural" v="hill" />
		<tag k="place" v="locality" />
		<tag k="ssr:stedsnr" v="132895" />
	</node>
	<node lat="61.84312221841025" lon="8.865855553284907" id="-42229">
		<tag k="name" v="Snålteigen" />
		<tag k="natural" v="slope" />
		<tag k="place" v="locality" />
		<tag k="ssr:stedsnr" v="149547" />
	</node>
	<node lat="61.84710833287297" lon="8.783844453556142" id="-42230">
		<tag k="name" v="Synsthol" />
		<tag k="natural" v="valley" />
		<tag k="place" v="locality" />
		<tag k="ssr:stedsnr" v="149634" />
	</node>
	<node lat="61.84356110697142" lon="8.629258327614709" id="-42232">
		<tag k="name" v="Krossfurudalen" />
		<tag k="natural" v="slope" />
		<tag k="place" v="locality" />
		<tag k="ssr:stedsnr" v="149838" />
	</node>
	<node lat="61.82573611326074" lon="8.660033334392415" id="-42233">
		<tag k="name" v="Svartlie" />
		<tag k="natural" v="slope" />
		<tag k="place" v="locality" />
		<tag k="ssr:stedsnr" v="149934" />
	</node>
	<node lat="61.874827778008935" lon="8.813186108891664" id="-42244">
		<tag k="name" v="Kolhytthaugen" />
		<tag k="natural" v="hill" />
		<tag k="place" v="locality" />
		<tag k="ssr:stedsnr" v="175248" />
	</node>
	<node lat="61.71186388599597" lon="8.377288893856516" id="-42245">
		<tag k="name" v="Veslsæterberget" />
		<tag k="natural" v="hill" />
		<tag k="place" v="locality" />
		<tag k="ssr:stedsnr" v="175298" />
	</node>
	<node lat="61.72129722243394" lon="8.32049165729356" id="-42247">
		<tag k="name" v="Skardet" />
		<tag k="natural" v="valley" />
		<tag k="place" v="locality" />
		<tag k="ssr:stedsnr" v="175315" />
	</node>
	<node lat="61.720302778207625" lon="8.306988891267826" id="-42248">
		<tag k="name" v="Rustagjelet" />
		<tag k="natural" v="gorge" />
		<tag k="ssr:stedsnr" v="175317" />
	</node>
	<node lat="61.74465000391042" lon="8.413802771433433" id="-42250">
		<tag k="name" v="Brekk" />
		<tag k="natural" v="slope" />
		<tag k="place" v="locality" />
		<tag k="ssr:stedsnr" v="175448" />
	</node>
	<node lat="61.70691111148664" lon="8.146119443027457" id="-42252">
		<tag k="fixme" v="consider natural=peak for the most distinct mountains in the district" />
		<tag k="name" v="Søre Sekken" />
		<tag k="natural" v="hill" />
		<tag k="place" v="locality" />
		<tag k="ssr:stedsnr" v="175562" />
	</node>
	<node lat="61.67621944380219" lon="8.442755558686052" id="-42254">
		<tag k="name" v="Magelihaugen" />
		<tag k="natural" v="hill" />
		<tag k="place" v="locality" />
		<tag k="ssr:stedsnr" v="175502" />
	</node>
	<node lat="61.667583330552176" lon="8.21890555286269" id="-42255">
		<tag k="name" v="Illågjelet" />
		<tag k="natural" v="gorge" />
		<tag k="ssr:stedsnr" v="175720" />
	</node>
	<node lat="61.4776861082451" lon="8.405416661569596" id="-42262">
		<tag k="fixme" v="consider natural=peak for the most distinct mountains in the district" />
		<tag k="name" v="Hellerkampen" />
		<tag k="natural" v="hill" />
		<tag k="place" v="locality" />
		<tag k="ssr:stedsnr" v="189850" />
	</node>
	<node lat="61.71229166647115" lon="8.28024999256614" id="-42264">
		<tag k="alt_name" v="Rustakampen" />
		<tag k="name" v="Rustadkampen" />
		<tag k="natural" v="hill" />
		<tag k="place" v="locality" />
		<tag k="ssr:stedsnr" v="192156" />
	</node>
	<node lat="61.7059833306311" lon="8.101355551715372" id="-42265">
		<tag k="fixme" v="consider natural=peak for the most distinct mountains in the district" />
		<tag k="name" v="Tverråfjellet" />
		<tag k="natural" v="hill" />
		<tag k="place" v="locality" />
		<tag k="ssr:stedsnr" v="192158" />
	</node>
	<node lat="61.709708330389894" lon="8.223316664884907" id="-42268">
		<tag k="fixme" v="consider natural=peak for the most distinct mountains in the district" />
		<tag k="name" v="Veslfjellet" />
		<tag k="natural" v="hill" />
		<tag k="place" v="locality" />
		<tag k="ssr:stedsnr" v="192166" />
	</node>
	<node lat="61.71988610680428" lon="8.317433331895838" id="-42271">
		<tag k="alt_name" v="Haugein" />
		<tag k="name" v="Slålihaugen" />
		<tag k="natural" v="hill" />
		<tag k="place" v="locality" />
		<tag k="ssr:stedsnr" v="192179" />
	</node>
	<node lat="61.51102500101804" lon="8.27642777253514" id="-42280">
		<tag k="alt_name" v="Høgvagltindane, austre" />
		<tag k="fixme" v="consider natural=peak for the most distinct mountains in the district" />
		<tag k="name" v="Austre Høgvagltindane" />
		<tag k="natural" v="hill" />
		<tag k="old_name" v="Høgvalgtindane, austre" />
		<tag k="place" v="locality" />
		<tag k="ssr:stedsnr" v="192108" />
	</node>
	<node lat="61.87557222054442" lon="8.602455553814863" id="-42281">
		<tag k="fixme" v="consider natural=peak for the most distinct mountains in the district" />
		<tag k="name" v="Tverrfjellet" />
		<tag k="natural" v="hill" />
		<tag k="place" v="locality" />
		<tag k="ssr:stedsnr" v="192112" />
	</node>
	<node lat="61.878975000475315" lon="8.790375003117493" id="-42283">
		<tag k="name" v="Blåfuruhaugen" />
		<tag k="natural" v="hill" />
		<tag k="place" v="locality" />
		<tag k="ssr:stedsnr" v="192123" />
	</node>
	<node lat="61.53421388464578" lon="8.37480556103026" id="-42284">
		<tag k="name" v="Semelholet" />
		<tag k="natural" v="valley" />
		<tag k="place" v="locality" />
		<tag k="ssr:stedsnr" v="192126" />
	</node>
	<node lat="61.83745833497096" lon="8.493974997260368" id="-42288">
		<tag k="fixme" v="consider natural=peak for the most distinct mountains in the district" />
		<tag k="name" v="Eggjapiken" />
		<tag k="natural" v="hill" />
		<tag k="place" v="locality" />
		<tag k="ssr:stedsnr" v="192056" />
	</node>
	<node lat="61.807233335930285" lon="8.609638892497172" id="-42297">
		<tag k="name" v="Stordøkti" />
		<tag k="natural" v="valley" />
		<tag k="place" v="locality" />
		<tag k="ssr:stedsnr" v="192211" />
	</node>
	<node lat="61.80514166282055" lon="8.646147220802161" id="-42299">
		<tag k="name" v="Såta" />
		<tag k="natural" v="hill" />
		<tag k="place" v="locality" />
		<tag k="ssr:stedsnr" v="192214" />
	</node>
	<node lat="61.65126666295757" lon="8.148158324547875" id="-42301">
		<tag k="alt_name" v="Bægarmein Langranden" />
		<tag k="name" v="Langranden" />
		<tag k="natural" v="slope" />
		<tag k="place" v="locality" />
		<tag k="ssr:stedsnr" v="192219" />
	</node>
	<node lat="61.82043611404766" lon="8.769119445341262" id="-42307">
		<tag k="name" v="Storsteinhaugen" />
		<tag k="natural" v="hill" />
		<tag k="place" v="locality" />
		<tag k="ssr:stedsnr" v="192250" />
	</node>
	<node lat="61.55731388722257" lon="7.95902500791545" id="-42312">
		<tag k="name" v="Kammerherren" />
		<tag k="place" v="locality" />
		<tag k="ssr:stedsnr" v="192290" />
	</node>
	<node lat="61.54580555631382" lon="8.008594447165017" id="-42314">
		<tag k="name" v="Rundhaugan" />
		<tag k="natural" v="hill" />
		<tag k="place" v="locality" />
		<tag k="ssr:stedsnr" v="192384" />
	</node>
	<node lat="61.72756388583217" lon="8.021091674547762" id="-42315">
		<tag k="fixme" v="consider natural=peak for the most distinct mountains in the district" />
		<tag k="name" v="Utløyparen" />
		<tag k="natural" v="hill" />
		<tag k="place" v="locality" />
		<tag k="ssr:stedsnr" v="192417" />
	</node>
	<node lat="61.75135277807285" lon="8.919852770468742" id="-42316">
		<tag k="name" v="Låni" />
		<tag k="natural" v="slope" />
		<tag k="place" v="locality" />
		<tag k="ssr:stedsnr" v="192427" />
	</node>
	<node lat="61.78453333373187" lon="8.230513889982454" id="-42323">
		<tag k="fixme" v="consider natural=peak for the most distinct mountains in the district" />
		<tag k="loc_name" v="Sandgrovhøe" />
		<tag k="name" v="Sandgrovhøi" />
		<tag k="natural" v="hill" />
		<tag k="place" v="locality" />
		<tag k="ssr:stedsnr" v="192989" />
	</node>
	<node lat="61.963030551618694" lon="8.6308944494517" id="-42328">
		<tag k="loc_name" v="Gråhøflye" />
		<tag k="name" v="Gråhøflyi" />
		<tag k="place" v="locality" />
		<tag k="ssr:stedsnr" v="192912" />
	</node>
	<node lat="61.89079166294926" lon="8.5853638836251" id="-42331">
		<tag k="alt_name" v="Happretthaugein" />
		<tag k="name" v="Happrethaugen" />
		<tag k="natural" v="hill" />
		<tag k="place" v="locality" />
		<tag k="ssr:stedsnr" v="192919" />
	</node>
	<node lat="61.894858335336075" lon="8.832391663474063" id="-42332">
		<tag k="alt_name" v="Skurvehøi" />
		<tag k="fixme" v="consider natural=peak for the most distinct mountains in the district" />
		<tag k="name" v="Skurvehøe" />
		<tag k="natural" v="hill" />
		<tag k="place" v="locality" />
		<tag k="ssr:stedsnr" v="192924" />
	</node>
	<node lat="61.603300001041816" lon="8.759425003181498" id="-42333">
		<tag k="fixme" v="consider natural=peak for the most distinct mountains in the district" />
		<tag k="name" v="Nautgardstinden" />
		<tag k="natural" v="hill" />
		<tag k="place" v="locality" />
		<tag k="ssr:stedsnr" v="192925" />
	</node>
	<node lat="61.78364444890132" lon="8.473058338673727" id="-42336">
		<tag k="name" v="Hansdalen" />
		<tag k="natural" v="valley" />
		<tag k="place" v="locality" />
		<tag k="ssr:stedsnr" v="193200" />
	</node>
	<node lat="61.77146388471306" lon="8.811441663271331" id="-42337">
		<tag k="fixme" v="consider natural=peak for the most distinct mountains in the district" />
		<tag k="name" v="Grjothovden" />
		<tag k="natural" v="hill" />
		<tag k="place" v="locality" />
		<tag k="ssr:stedsnr" v="193205" />
	</node>
	<node lat="61.759013885813594" lon="8.500019440287756" id="-42338">
		<tag k="alt_name" v="Vardknubbein" />
		<tag k="name" v="Vardknubban" />
		<tag k="natural" v="hill" />
		<tag k="place" v="locality" />
		<tag k="ssr:stedsnr" v="193213" />
	</node>
	<node lat="61.79894999808671" lon="8.369227769543484" id="-42340">
		<tag k="alt_name" v="Bord, søre" />
		<tag k="name" v="Søre Bord" />
		<tag k="place" v="locality" />
		<tag k="ssr:stedsnr" v="193933" />
	</node>
	<node lat="61.82624722482988" lon="8.53756111801774" id="-42345">
		<tag k="name" v="Kvernhaugen" />
		<tag k="place" v="locality" />
		<tag k="ssr:stedsnr" v="208153" />
	</node>
	<node lat="61.81396110891608" lon="8.588280561927416" id="-42350">
		<tag k="name" v="Fossbrekk" />
		<tag k="place" v="locality" />
		<tag k="ssr:stedsnr" v="210431" />
	</node>
	<node lat="61.832149999474595" lon="8.568508339591743" id="-42351">
		<tag k="name" v="Kuslette" />
		<tag k="place" v="locality" />
		<tag k="ssr:stedsnr" v="210433" />
	</node>
	<node lat="61.85243888537508" lon="8.68364722844578" id="-42357">
		<tag k="name" v="Vassvegflaten" />
		<tag k="place" v="locality" />
		<tag k="ssr:stedsnr" v="210814" />
	</node>
	<node lat="61.84451111404269" lon="8.64979165824417" id="-42358">
		<tag k="name" v="Veslklympen" />
		<tag k="natural" v="hill" />
		<tag k="place" v="locality" />
		<tag k="ssr:stedsnr" v="210819" />
	</node>
	<node lat="61.8219388930199" lon="8.661363887907147" id="-42360">
		<tag k="name" v="Mjølkehaug" />
		<tag k="natural" v="hill" />
		<tag k="place" v="locality" />
		<tag k="ssr:stedsnr" v="210936" />
	</node>
	<node lat="61.868558334427476" lon="8.782258334096081" id="-42361">
		<tag k="name" v="Svarthåmåren" />
		<tag k="natural" v="cliff" />
		<tag k="ssr:stedsnr" v="211443" />
	</node>
	<node lat="61.69710833187132" lon="8.18221667553478" id="-42363">
		<tag k="name" v="Helleren" />
		<tag k="place" v="locality" />
		<tag k="ssr:stedsnr" v="295519" />
	</node>
	<node lat="61.696911107514275" lon="8.26207777379191" id="-42365">
		<tag k="name" v="Massurdkampen" />
		<tag k="natural" v="hill" />
		<tag k="place" v="locality" />
		<tag k="ssr:stedsnr" v="295759" />
	</node>
	<node lat="61.77525278177975" lon="8.435730554208211" id="-42370">
		<tag k="name" v="Svarttjønnmørkje" />
		<tag k="natural" v="valley" />
		<tag k="place" v="locality" />
		<tag k="ssr:stedsnr" v="296054" />
	</node>
	<node lat="61.711416666012596" lon="8.317299998890961" id="-42371">
		<tag k="name" v="Mobergje" />
		<tag k="natural" v="hill" />
		<tag k="place" v="locality" />
		<tag k="ssr:stedsnr" v="296313" />
	</node>
	<node lat="61.675569442881724" lon="8.2427500093952" id="-42377">
		<tag k="name" v="Storhåmåren" />
		<tag k="natural" v="hill" />
		<tag k="place" v="locality" />
		<tag k="ssr:stedsnr" v="296740" />
	</node>
	<node lat="61.876997226121446" lon="8.730283329140887" id="-42378">
		<tag k="name" v="Marsteinlie" />
		<tag k="natural" v="slope" />
		<tag k="place" v="locality" />
		<tag k="ssr:stedsnr" v="296962" />
	</node>
	<node lat="61.72812499788655" lon="8.70319166987262" id="-42383">
		<tag k="name" v="Tavelflyholet" />
		<tag k="natural" v="valley" />
		<tag k="place" v="locality" />
		<tag k="ssr:stedsnr" v="313094" />
	</node>
	<node lat="61.714558336264446" lon="8.570230547373503" id="-42384">
		<tag k="name" v="Finnshalsen" />
		<tag k="natural" v="valley" />
		<tag k="place" v="locality" />
		<tag k="ssr:stedsnr" v="313101" />
	</node>
	<node lat="61.717163892259066" lon="8.11841667337278" id="-42385">
		<tag k="fixme" v="consider natural=peak for the most distinct mountains in the district" />
		<tag k="name" v="Steinahøfjellet" />
		<tag k="natural" v="hill" />
		<tag k="place" v="locality" />
		<tag k="ssr:stedsnr" v="313182" />
	</node>
	<node lat="61.82403611250131" lon="8.75462777972166" id="-42388">
		<tag k="fixme" v="consider natural=peak for the most distinct mountains in the district" />
		<tag k="name" v="Knappen" />
		<tag k="natural" v="hill" />
		<tag k="place" v="locality" />
		<tag k="ssr:stedsnr" v="313230" />
	</node>
	<node lat="61.81633333473379" lon="8.563538880200078" id="-42391">
		<tag k="name" v="Myrskardet" />
		<tag k="natural" v="valley" />
		<tag k="place" v="locality" />
		<tag k="ssr:stedsnr" v="313236" />
	</node>
	<node lat="61.608791668761775" lon="8.28504999413557" id="-42396">
		<tag k="alt_name" v="Tverråbandet, nedre" />
		<tag k="name" v="Nedre Tverråbandet" />
		<tag k="natural" v="valley" />
		<tag k="place" v="locality" />
		<tag k="ssr:stedsnr" v="313041" />
	</node>
	<node lat="61.636439504137535" lon="8.312477373217199" id="-42400">
		<tag k="fixme" v="consider natural=peak for the most distinct mountains in the district" />
		<tag k="name" v="Galdhøpiggen" />
		<tag k="natural" v="hill" />
		<tag k="place" v="locality" />
		<tag k="ssr:stedsnr" v="313058" />
	</node>
	<node lat="61.89140000140004" lon="8.533933338211739" id="-42412">
		<tag k="alt_name" v="Knubbein" />
		<tag k="fixme" v="consider natural=peak for the most distinct mountains in the district" />
		<tag k="name" v="Knubban" />
		<tag k="natural" v="hill" />
		<tag k="place" v="locality" />
		<tag k="ssr:stedsnr" v="313949" />
	</node>
	<node lat="61.77795000211214" lon="8.532161101627493" id="-42414">
		<tag k="name" v="Rundhaugen" />
		<tag k="natural" v="hill" />
		<tag k="place" v="locality" />
		<tag k="ssr:stedsnr" v="314236" />
	</node>
	<node lat="61.759069441575484" lon="8.565127772171254" id="-42415">
		<tag k="fixme" v="consider natural=peak for the most distinct mountains in the district" />
		<tag k="name" v="Eisteinhovde" />
		<tag k="natural" v="hill" />
		<tag k="old_name" v="Einsteinhovde" />
		<tag k="place" v="locality" />
		<tag k="ssr:stedsnr" v="314239" />
	</node>
	<node lat="61.92727222107251" lon="8.58469999062681" id="-42419">
		<tag k="name" v="Bråskarvet" />
		<tag k="natural" v="slope" />
		<tag k="place" v="locality" />
		<tag k="ssr:stedsnr" v="314858" />
	</node>
	<node lat="61.792227779673844" lon="8.418538882845663" id="-42421">
		<tag k="alt_name" v="Tongein" />
		<tag k="name" v="Tunga" />
		<tag k="natural" v="slope" />
		<tag k="place" v="locality" />
		<tag k="ssr:stedsnr" v="314930" />
	</node>
	<node lat="61.81568889264638" lon="8.298361108424404" id="-42422">
		<tag k="fixme" v="consider natural=peak for the most distinct mountains in the district" />
		<tag k="name" v="Lendfjellet" />
		<tag k="natural" v="hill" />
		<tag k="place" v="locality" />
		<tag k="ssr:stedsnr" v="314952" />
	</node>
	<node lat="61.75856111531927" lon="8.259691658014066" id="-42423">
		<tag k="name" v="Stordalsreset" />
		<tag k="natural" v="ridge" />
		<tag k="place" v="locality" />
		<tag k="ssr:stedsnr" v="314965" />
	</node>
	<node lat="61.99333888539074" lon="8.80785832558189" id="-42424">
		<tag k="fixme" v="consider natural=peak for the most distinct mountains in the district" />
		<tag k="name" v="Steinkollen" />
		<tag k="natural" v="hill" />
		<tag k="place" v="locality" />
		<tag k="ssr:stedsnr" v="314970" />
	</node>
	<node lat="61.999497732283515" lon="8.839669415094178" id="-42425">
		<tag k="fixme" v="consider natural=peak for the most distinct mountains in the district" />
		<tag k="name" v="Jonshamnknubben" />
		<tag k="natural" v="hill" />
		<tag k="place" v="locality" />
		<tag k="ssr:stedsnr" v="314975" />
	</node>
	<node lat="61.77348888974305" lon="8.36527776884039" id="-42427">
		<tag k="name" v="Sulegjelet" />
		<tag k="natural" v="valley" />
		<tag k="place" v="locality" />
		<tag k="ssr:stedsnr" v="314995" />
	</node>
	<node lat="61.605002778559296" lon="8.477502784998814" id="-42428">
		<tag k="name" v="Jotunheimen" />
		<tag k="natural" v="mountain_range" />
		<tag k="ssr:stedsnr" v="328584" />
	</node>
	<node lat="61.83181110899877" lon="8.465552770564074" id="-42431">
		<tag k="name" v="Aukrustdalen" />
		<tag k="natural" v="valley" />
		<tag k="place" v="locality" />
		<tag k="ssr:stedsnr" v="329976" />
	</node>
	<node lat="61.82308055497922" lon="8.609763885057223" id="-42433">
		<tag k="name" v="Nørdre Meadalen" />
		<tag k="natural" v="valley" />
		<tag k="place" v="locality" />
		<tag k="ssr:stedsnr" v="331386" />
	</node>
	<node lat="61.835988885615336" lon="8.583924997494423" id="-42435">
		<tag k="name" v="Svarthamrein" />
		<tag k="place" v="locality" />
		<tag k="ssr:stedsnr" v="332243" />
	</node>
	<node lat="61.86876388466682" lon="8.789122229413588" id="-42436">
		<tag k="name" v="Svadalen" />
		<tag k="natural" v="valley" />
		<tag k="place" v="locality" />
		<tag k="ssr:stedsnr" v="332427" />
	</node>
	<node lat="61.83777777744789" lon="8.862222216725163" id="-42438">
		<tag k="fixme" v="consider natural=peak for the most distinct mountains in the district" />
		<tag k="name" v="Kampein" />
		<tag k="natural" v="hill" />
		<tag k="place" v="locality" />
		<tag k="ssr:stedsnr" v="332545" />
	</node>
	<node lat="61.743155555772425" lon="8.936455553952817" id="-42443">
		<tag k="name" v="Kyrkjeflate" />
		<tag k="place" v="locality" />
		<tag k="ssr:stedsnr" v="344374" />
	</node>
	<node lat="61.79946389068523" lon="8.527477768687369" id="-42444">
		<tag k="name" v="Vittingsdalen" />
		<tag k="natural" v="valley" />
		<tag k="place" v="locality" />
		<tag k="ssr:stedsnr" v="357134" />
	</node>
	<node lat="61.680724998185084" lon="8.215622225028346" id="-42447">
		<tag k="name" v="Fauskesteinhole" />
		<tag k="natural" v="valley" />
		<tag k="place" v="locality" />
		<tag k="ssr:stedsnr" v="356728" />
	</node>
	<node lat="61.798008332023954" lon="8.408594435617005" id="-42451">
		<tag k="name" v="Hærakampen" />
		<tag k="natural" v="hill" />
		<tag k="place" v="locality" />
		<tag k="ssr:stedsnr" v="357042" />
	</node>
	<node lat="61.7013722234499" lon="8.285419451428103" id="-42453">
		<tag k="name" v="Kålvangen" />
		<tag k="natural" v="hill" />
		<tag k="place" v="locality" />
		<tag k="ssr:stedsnr" v="357339" />
	</node>
	<node lat="61.713711112689964" lon="8.368872229850014" id="-42455">
		<tag k="name" v="Brekkein" />
		<tag k="natural" v="slope" />
		<tag k="place" v="locality" />
		<tag k="ssr:stedsnr" v="357286" />
	</node>
	<node lat="61.7548000017919" lon="8.411616663250365" id="-42456">
		<tag k="name" v="Omneberget" />
		<tag k="natural" v="hill" />
		<tag k="place" v="locality" />
		<tag k="ssr:stedsnr" v="357387" />
	</node>
	<node lat="61.74873333521972" lon="8.442863897916666" id="-42461">
		<tag k="name" v="Skolkampen" />
		<tag k="natural" v="hill" />
		<tag k="place" v="locality" />
		<tag k="ssr:stedsnr" v="357426" />
	</node>
	<node lat="61.72369444701288" lon="8.426041663049922" id="-42462">
		<tag k="name" v="Kolvangholet" />
		<tag k="place" v="locality" />
		<tag k="ssr:stedsnr" v="357427" />
	</node>
	<node lat="61.71542222467055" lon="8.153750008304637" id="-42464">
		<tag k="fixme" v="consider natural=peak for the most distinct mountains in the district" />
		<tag k="name" v="Langfjellet" />
		<tag k="natural" v="hill" />
		<tag k="place" v="locality" />
		<tag k="ssr:stedsnr" v="357536" />
	</node>
	<node lat="61.66377222293504" lon="8.160011117451768" id="-42469">
		<tag k="fixme" v="consider natural=peak for the most distinct mountains in the district" />
		<tag k="name" v="Halsafjellet" />
		<tag k="natural" v="hill" />
		<tag k="place" v="locality" />
		<tag k="ssr:stedsnr" v="357695" />
	</node>
	<node lat="61.68849444323788" lon="8.24608333497316" id="-42470">
		<tag k="alt_name" v="Orrbergje" />
		<tag k="loc_name" v="Orrberget" />
		<tag k="name" v="Orreberget" />
		<tag k="natural" v="hill" />
		<tag k="place" v="locality" />
		<tag k="ssr:stedsnr" v="362145" />
	</node>
	<node lat="61.604336113330405" lon="8.280224992746751" id="-42471">
		<tag k="fixme" v="consider natural=peak for the most distinct mountains in the district" />
		<tag k="name" v="Lindbergtinden" />
		<tag k="natural" v="hill" />
		<tag k="place" v="locality" />
		<tag k="ssr:stedsnr" v="373033" />
	</node>
	<node lat="61.59263888819376" lon="8.161677776864039" id="-42472">
		<tag k="name" v="Breamillom" />
		<tag k="natural" v="slope" />
		<tag k="place" v="locality" />
		<tag k="ssr:stedsnr" v="373034" />
	</node>
	<node lat="61.813277780253145" lon="8.696586102546112" id="-42475">
		<tag k="name" v="Svarveflyi" />
		<tag k="natural" v="slope" />
		<tag k="place" v="locality" />
		<tag k="ssr:stedsnr" v="373235" />
	</node>
	<node lat="61.77783888573265" lon="8.750463887914558" id="-42487">
		<tag k="name" v="Ilvetjørnholet" />
		<tag k="natural" v="valley" />
		<tag k="place" v="locality" />
		<tag k="ssr:stedsnr" v="374232" />
	</node>
	<node lat="61.64776388884064" lon="8.82423055430848" id="-42488">
		<tag k="name" v="Veslnautgarden" />
		<tag k="natural" v="valley" />
		<tag k="place" v="locality" />
		<tag k="ssr:stedsnr" v="373880" />
	</node>
	<node lat="61.6586666675533" lon="8.800833338702049" id="-42489">
		<tag k="name" v="Nautgardsmillom" />
		<tag k="place" v="locality" />
		<tag k="ssr:stedsnr" v="373883" />
	</node>
	<node lat="61.70036110848401" lon="8.258422216205481" id="-42490">
		<tag k="name" v="Høghaugen" />
		<tag k="natural" v="hill" />
		<tag k="place" v="locality" />
		<tag k="ssr:stedsnr" v="374151" />
	</node>
	<node lat="61.6936888878749" lon="8.206724993629402" id="-42495">
		<tag k="fixme" v="consider natural=peak for the most distinct mountains in the district" />
		<tag k="name" v="Leiråsfjellet" />
		<tag k="natural" v="hill" />
		<tag k="place" v="locality" />
		<tag k="ssr:stedsnr" v="374242" />
	</node>
	<node lat="61.678633331942436" lon="8.158725001736231" id="-42498">
		<tag k="alt_name" v="Borgasæterkampen" />
		<tag k="fixme" v="consider natural=peak for the most distinct mountains in the district" />
		<tag k="name" v="Borgakampen" />
		<tag k="natural" v="hill" />
		<tag k="place" v="locality" />
		<tag k="ssr:stedsnr" v="374256" />
	</node>
	<node lat="61.69396666841664" lon="8.25329999646991" id="-42499">
		<tag k="fixme" v="consider natural=peak for the most distinct mountains in the district" />
		<tag k="name" v="Nibben" />
		<tag k="natural" v="hill" />
		<tag k="place" v="locality" />
		<tag k="ssr:stedsnr" v="374262" />
	</node>
	<node lat="61.81902500347101" lon="8.36677222992331" id="-42502">
		<tag k="fixme" v="consider natural=peak for the most distinct mountains in the district" />
		<tag k="name" v="Storivilen" />
		<tag k="natural" v="hill" />
		<tag k="place" v="locality" />
		<tag k="ssr:stedsnr" v="375950" />
	</node>
	<node lat="61.75511111236949" lon="8.867224993900985" id="-42505">
		<tag k="name" v="Gullfjørhaugan" />
		<tag k="natural" v="hill" />
		<tag k="place" v="locality" />
		<tag k="ssr:stedsnr" v="374400" />
	</node>
	<node lat="61.667699997651994" lon="8.007063884046824" id="-42506">
		<tag k="fixme" v="consider natural=peak for the most distinct mountains in the district" />
		<tag k="name" v="Brustuguberget" />
		<tag k="natural" v="hill" />
		<tag k="place" v="locality" />
		<tag k="ssr:stedsnr" v="374486" />
	</node>
	<node lat="61.79026111506891" lon="8.452466666272148" id="-42507">
		<tag k="name" v="Flåklypa" />
		<tag k="natural" v="valley" />
		<tag k="place" v="locality" />
		<tag k="ssr:stedsnr" v="374965" />
	</node>
	<node lat="61.753883332038114" lon="8.420324995940534" id="-42508">
		<tag k="fixme" v="consider natural=peak for the most distinct mountains in the district" />
		<tag k="name" v="Tusshaugen" />
		<tag k="natural" v="hill" />
		<tag k="place" v="locality" />
		<tag k="ssr:stedsnr" v="374980" />
	</node>
	<node lat="61.92064999619642" lon="8.586408339263148" id="-42511">
		<tag k="loc_name" v="Lokkerbakkan" />
		<tag k="name" v="Låkkerbakkan" />
		<tag k="natural" v="slope" />
		<tag k="place" v="locality" />
		<tag k="ssr:stedsnr" v="374900" />
	</node>
	<node lat="61.90906944063818" lon="8.592122220845933" id="-42512">
		<tag k="fixme" v="consider natural=peak for the most distinct mountains in the district" />
		<tag k="name" v="Langhøe" />
		<tag k="natural" v="hill" />
		<tag k="place" v="locality" />
		<tag k="ssr:stedsnr" v="374929" />
	</node>
	<node lat="61.659002774929" lon="8.173891672682567" id="-42516">
		<tag k="name" v="Bruberget" />
		<tag k="natural" v="hill" />
		<tag k="place" v="locality" />
		<tag k="ssr:stedsnr" v="495210" />
	</node>
	<node lat="61.68061388964776" lon="8.239524996300297" id="-42520">
		<tag k="alt_name" v="Liasandein" />
		<tag k="name" v="Liasanden" />
		<tag k="place" v="locality" />
		<tag k="ssr:stedsnr" v="495236" />
	</node>
	<node lat="61.82153888547044" lon="8.797308336537036" id="-42524">
		<tag k="alt_name" v="Langhaug" />
		<tag k="name" v="Langhaugen" />
		<tag k="natural" v="hill" />
		<tag k="place" v="locality" />
		<tag k="ssr:stedsnr" v="495243" />
	</node>
	<node lat="61.68433055141432" lon="8.807733332828228" id="-42527">
		<tag k="name" v="Heranosranden" />
		<tag k="natural" v="slope" />
		<tag k="place" v="locality" />
		<tag k="ssr:stedsnr" v="495095" />
	</node>
	<node lat="61.87381388773687" lon="8.635105547532904" id="-42537">
		<tag k="name" v="Storhaugen" />
		<tag k="natural" v="hill" />
		<tag k="place" v="locality" />
		<tag k="ssr:stedsnr" v="495142" />
	</node>
	<node lat="61.829330551275916" lon="8.563841669348472" id="-42541">
		<tag k="name" v="Steinflaten" />
		<tag k="place" v="locality" />
		<tag k="ssr:stedsnr" v="390168" />
	</node>
	<node lat="61.83971111054128" lon="8.59668889364548" id="-42542">
		<tag k="name" v="Stymmehåmårn" />
		<tag k="place" v="locality" />
		<tag k="ssr:stedsnr" v="392048" />
	</node>
	<node lat="61.81903888655904" lon="8.64327776906636" id="-42549">
		<tag k="name" v="Svarttjønnkleive" />
		<tag k="natural" v="slope" />
		<tag k="place" v="locality" />
		<tag k="ssr:stedsnr" v="392864" />
	</node>
	<node lat="61.68707777648561" lon="8.285391667984825" id="-42555">
		<tag k="name" v="Juvflaten" />
		<tag k="place" v="locality" />
		<tag k="ssr:stedsnr" v="417374" />
	</node>
	<node lat="61.81027500083963" lon="8.476049995777823" id="-42558">
		<tag k="name" v="Eldrihaugen" />
		<tag k="natural" v="hill" />
		<tag k="place" v="locality" />
		<tag k="ssr:stedsnr" v="418025" />
	</node>
	<node lat="61.87606111224245" lon="8.721169453172664" id="-42561">
		<tag k="name" v="Grånholet" />
		<tag k="natural" v="valley" />
		<tag k="place" v="locality" />
		<tag k="ssr:stedsnr" v="418092" />
	</node>
	<node lat="61.8610444418782" lon="8.588377778399607" id="-42563">
		<tag k="name" v="Sæterdalen" />
		<tag k="natural" v="valley" />
		<tag k="place" v="locality" />
		<tag k="ssr:stedsnr" v="418150" />
	</node>
	<node lat="61.71726666757232" lon="8.337216667480657" id="-42566">
		<tag k="name" v="Geidde" />
		<tag k="natural" v="slope" />
		<tag k="place" v="locality" />
		<tag k="ssr:stedsnr" v="418276" />
	</node>
	<node lat="61.69319722419287" lon="8.284747212778276" id="-42568">
		<tag k="name" v="Brånån" />
		<tag k="natural" v="slope" />
		<tag k="place" v="locality" />
		<tag k="ssr:stedsnr" v="418325" />
	</node>
	<node lat="61.73750000084061" lon="8.315933335003919" id="-42571">
		<tag k="name" v="Nibben" />
		<tag k="natural" v="hill" />
		<tag k="place" v="locality" />
		<tag k="ssr:stedsnr" v="418454" />
	</node>
	<node lat="61.661408332177096" lon="7.989733327076039" id="-42572">
		<tag k="name" v="Storlibrote" />
		<tag k="natural" v="slope" />
		<tag k="place" v="locality" />
		<tag k="ssr:stedsnr" v="418656" />
	</node>
	<node lat="61.671952776356314" lon="8.136783330849209" id="-42574">
		<tag k="name" v="Vassendbergje" />
		<tag k="natural" v="hill" />
		<tag k="place" v="locality" />
		<tag k="ssr:stedsnr" v="418664" />
	</node>
	<node lat="61.726980555552544" lon="8.434052770781028" id="-42581">
		<tag k="name" v="Saghaugen" />
		<tag k="natural" v="hill" />
		<tag k="place" v="locality" />
		<tag k="ssr:stedsnr" v="434139" />
	</node>
	<node lat="61.79593055470221" lon="8.558555563298674" id="-42586">
		<tag k="name" v="Vindsjodalen" />
		<tag k="natural" v="valley" />
		<tag k="place" v="locality" />
		<tag k="ssr:stedsnr" v="435231" />
	</node>
	<node lat="61.78906944146614" lon="8.57795554833799" id="-42587">
		<tag k="name" v="Vindsjo" />
		<tag k="natural" v="valley" />
		<tag k="place" v="locality" />
		<tag k="ssr:stedsnr" v="435234" />
	</node>
	<node lat="61.77427500126645" lon="8.598797215545018" id="-42589">
		<tag k="fixme" v="consider natural=peak for the most distinct mountains in the district" />
		<tag k="name" v="Blåhøe" />
		<tag k="natural" v="hill" />
		<tag k="place" v="locality" />
		<tag k="ssr:stedsnr" v="435246" />
	</node>
	<node lat="61.653413890594756" lon="8.766433336225052" id="-42593">
		<tag k="name" v="Stornautgarden" />
		<tag k="natural" v="valley" />
		<tag k="place" v="locality" />
		<tag k="ssr:stedsnr" v="434851" />
	</node>
	<node lat="61.6592777763064" lon="8.516750005816254" id="-42595">
		<tag k="name" v="Glitterholet" />
		<tag k="natural" v="valley" />
		<tag k="place" v="locality" />
		<tag k="ssr:stedsnr" v="434860" />
	</node>
	<node lat="61.55155527462173" lon="8.37758630632914" id="-42597">
		<tag k="alt_name" v="Urdadalstinden, store" />
		<tag k="fixme" v="consider natural=peak for the most distinct mountains in the district" />
		<tag k="name" v="Store Urdadalstinden" />
		<tag k="natural" v="hill" />
		<tag k="place" v="locality" />
		<tag k="ssr:stedsnr" v="435021" />
	</node>
	<node lat="61.54139166835402" lon="8.239563893168931" id="-42599">
		<tag k="name" v="Nøgla" />
		<tag k="natural" v="hill" />
		<tag k="place" v="locality" />
		<tag k="ssr:stedsnr" v="435013" />
	</node>
	<node lat="61.866113892466664" lon="8.548136107010437" id="-42601">
		<tag k="name" v="Langberget" />
		<tag k="natural" v="hill" />
		<tag k="place" v="locality" />
		<tag k="ssr:stedsnr" v="435099" />
	</node>
	<node lat="61.62507222537911" lon="8.548486111740369" id="-42610">
		<tag k="name" v="Storglupen" />
		<tag k="natural" v="valley" />
		<tag k="place" v="locality" />
		<tag k="ssr:stedsnr" v="435909" />
	</node>
	<node lat="61.94994444420106" lon="8.652019444324695" id="-42612">
		<tag k="fixme" v="consider natural=peak for the most distinct mountains in the district" />
		<tag k="loc_name" v="Gråhøa" />
		<tag k="name" v="Gråhøe" />
		<tag k="natural" v="hill" />
		<tag k="place" v="locality" />
		<tag k="ssr:stedsnr" v="435915" />
	</node>
	<node lat="61.517066668836314" lon="8.496327768732915" id="-42616">
		<tag k="fixme" v="consider natural=peak for the most distinct mountains in the district" />
		<tag k="name" v="Reinstinden" />
		<tag k="natural" v="hill" />
		<tag k="place" v="locality" />
		<tag k="ssr:stedsnr" v="435945" />
	</node>
	<node lat="61.90354166292684" lon="8.705647226791942" id="-42617">
		<tag k="name" v="Stordøkti" />
		<tag k="natural" v="valley" />
		<tag k="place" v="locality" />
		<tag k="ssr:stedsnr" v="435953" />
	</node>
	<node lat="61.90246667076813" lon="8.766766673174155" id="-42618">
		<tag k="name" v="Rundhaugan" />
		<tag k="natural" v="hill" />
		<tag k="place" v="locality" />
		<tag k="ssr:stedsnr" v="435954" />
	</node>
	<node lat="61.63474722204034" lon="8.023316670770857" id="-42623">
		<tag k="alt_name" v="Bøvertonhøe" />
		<tag k="fixme" v="consider natural=peak for the most distinct mountains in the district" />
		<tag k="name" v="Bøvertunhøe" />
		<tag k="natural" v="hill" />
		<tag k="place" v="locality" />
		<tag k="ssr:stedsnr" v="435489" />
	</node>
	<node lat="61.964375512220236" lon="8.767375911794083" id="-42624">
		<tag k="fixme" v="multiple name tags, choose one and add the other to alt_name; consider natural=peak for the most distinct mountains in the district" />
		<tag k="name" v="Skårvangen;Lauvknubben" />
		<tag k="natural" v="hill" />
		<tag k="place" v="locality" />
		<tag k="ssr:stedsnr" v="435906" />
	</node>
	<node lat="61.965586111605866" lon="8.576569452302389" id="-42625">
		<tag k="name" v="Råkåflyi" />
		<tag k="place" v="locality" />
		<tag k="ssr:stedsnr" v="435907" />
	</node>
	<node lat="61.63998055821063" lon="8.030427778600297" id="-42632">
		<tag k="alt_name" v="Bøvertonholet" />
		<tag k="name" v="Bøvertunholet" />
		<tag k="natural" v="valley" />
		<tag k="place" v="locality" />
		<tag k="ssr:stedsnr" v="495439" />
	</node>
	<node lat="61.64872500412261" lon="8.738702771952967" id="-42633">
		<tag k="fixme" v="consider natural=peak for the most distinct mountains in the district" />
		<tag k="name" v="Veslkjølen" />
		<tag k="natural" v="hill" />
		<tag k="place" v="locality" />
		<tag k="ssr:stedsnr" v="495897" />
	</node>
	<node lat="61.58138888552561" lon="8.468725000428988" id="-42636">
		<tag k="name" v="Veoskardet" />
		<tag k="natural" v="valley" />
		<tag k="place" v="locality" />
		<tag k="ssr:stedsnr" v="495929" />
	</node>
	<node lat="61.51863333481885" lon="8.56318333542502" id="-42637">
		<tag k="name" v="Hestdalen" />
		<tag k="natural" v="valley" />
		<tag k="place" v="locality" />
		<tag k="ssr:stedsnr" v="495932" />
	</node>
	<node lat="61.75178611391996" lon="8.64429722667332" id="-42639">
		<tag k="name" v="Brenna" />
		<tag k="natural" v="slope" />
		<tag k="place" v="locality" />
		<tag k="ssr:stedsnr" v="496158" />
	</node>
	<node lat="61.76270277561735" lon="8.735827780388266" id="-42640">
		<tag k="fixme" v="consider natural=peak for the most distinct mountains in the district" />
		<tag k="name" v="Kvitingskjølen" />
		<tag k="natural" v="hill" />
		<tag k="place" v="locality" />
		<tag k="ssr:stedsnr" v="496164" />
	</node>
	<node lat="61.75218611048798" lon="8.476966661723651" id="-42641">
		<tag k="name" v="Kitilbotthaugen" />
		<tag k="natural" v="hill" />
		<tag k="place" v="locality" />
		<tag k="ssr:stedsnr" v="496169" />
	</node>
	<node lat="61.75458888911573" lon="8.848041672070417" id="-42642">
		<tag k="name" v="Grjotåtunga" />
		<tag k="natural" v="valley" />
		<tag k="place" v="locality" />
		<tag k="ssr:stedsnr" v="496433" />
	</node>
	<node lat="61.968752778077594" lon="8.622147222048746" id="-42644">
		<tag k="name" v="Skardådraget" />
		<tag k="natural" v="valley" />
		<tag k="place" v="locality" />
		<tag k="ssr:stedsnr" v="496884" />
	</node>
	<node lat="61.94665000232525" lon="8.480713894646524" id="-42645">
		<tag k="fixme" v="consider natural=peak for the most distinct mountains in the district" />
		<tag k="loc_name" v="Leirungshøa" />
		<tag k="name" v="Leirungshøe" />
		<tag k="natural" v="hill" />
		<tag k="place" v="locality" />
		<tag k="ssr:stedsnr" v="496889" />
	</node>
	<node lat="61.944461110844614" lon="8.836294437001579" id="-42646">
		<tag k="fixme" v="consider natural=peak for the most distinct mountains in the district" />
		<tag k="name" v="Klympen" />
		<tag k="natural" v="hill" />
		<tag k="place" v="locality" />
		<tag k="ssr:stedsnr" v="496894" />
	</node>
	<node lat="61.798058334825534" lon="8.42446389035341" id="-42647">
		<tag k="alt_name" v="Borgakampen" />
		<tag k="fixme" v="consider natural=peak for the most distinct mountains in the district" />
		<tag k="name" v="Borgarkampen" />
		<tag k="natural" v="hill" />
		<tag k="place" v="locality" />
		<tag k="ssr:stedsnr" v="496940" />
	</node>
	<node lat="61.853802778861905" lon="8.780397218751235" id="-42658">
		<tag k="name" v="Sprekkberget" />
		<tag k="natural" v="ridge" />
		<tag k="place" v="locality" />
		<tag k="ssr:stedsnr" v="514653" />
	</node>
	<node lat="61.879433335471006" lon="8.77914722655832" id="-42664">
		<tag k="name" v="Langmyrsbergje" />
		<tag k="natural" v="hill" />
		<tag k="place" v="locality" />
		<tag k="ssr:stedsnr" v="539252" />
	</node>
	<node lat="61.88445555895766" lon="8.860416657897913" id="-42665">
		<tag k="name" v="Djupdalen" />
		<tag k="natural" v="valley" />
		<tag k="place" v="locality" />
		<tag k="ssr:stedsnr" v="539256" />
	</node>
	<node lat="61.67305833058352" lon="8.227127772063538" id="-42667">
		<tag k="name" v="Stålehåmåren" />
		<tag k="natural" v="hill" />
		<tag k="place" v="locality" />
		<tag k="ssr:stedsnr" v="538739" />
	</node>
	<node lat="61.79881666296068" lon="8.395133337629888" id="-42670">
		<tag k="name" v="Nørdre Bord" />
		<tag k="natural" v="hill" />
		<tag k="place" v="locality" />
		<tag k="ssr:stedsnr" v="539033" />
	</node>
	<node lat="61.79095555691699" lon="8.408741658391017" id="-42671">
		<tag k="name" v="Rondhøe" />
		<tag k="natural" v="hill" />
		<tag k="place" v="locality" />
		<tag k="ssr:stedsnr" v="539038" />
	</node>
	<node lat="61.77308610837673" lon="8.421461112804725" id="-42672">
		<tag k="name" v="Robergsnebben" />
		<tag k="natural" v="hill" />
		<tag k="place" v="locality" />
		<tag k="ssr:stedsnr" v="539047" />
	</node>
	<node lat="61.712511114806226" lon="8.301905552905922" id="-42675">
		<tag k="name" v="Rustahaugein" />
		<tag k="natural" v="hill" />
		<tag k="place" v="locality" />
		<tag k="ssr:stedsnr" v="539297" />
	</node>
	<node lat="61.812372226510774" lon="8.87300554955457" id="-42679">
		<tag k="name" v="Grønbakkein" />
		<tag k="natural" v="slope" />
		<tag k="place" v="locality" />
		<tag k="ssr:stedsnr" v="539400" />
	</node>
	<node lat="61.86216944271461" lon="8.731733325136338" id="-42686">
		<tag k="name" v="Grånhåmårn" />
		<tag k="natural" v="hill" />
		<tag k="place" v="locality" />
		<tag k="ssr:stedsnr" v="539943" />
	</node>
	<node lat="61.43227499695631" lon="8.415016669501993" id="-42687">
		<tag k="fixme" v="consider natural=peak for the most distinct mountains in the district" />
		<tag k="name" v="Tungepiggan" />
		<tag k="natural" v="hill" />
		<tag k="place" v="locality" />
		<tag k="ssr:stedsnr" v="553853" />
	</node>
	<node lat="61.672616667072234" lon="8.446049997054095" id="-42689">
		<tag k="name" v="Visdalen" />
		<tag k="natural" v="valley" />
		<tag k="place" v="locality" />
		<tag k="ssr:stedsnr" v="555145" />
	</node>
	<node lat="61.83016666855302" lon="8.481052771159423" id="-42700">
		<tag k="name" v="Aukrustdalen" />
		<tag k="natural" v="valley" />
		<tag k="place" v="locality" />
		<tag k="ssr:stedsnr" v="556028" />
	</node>
	<node lat="61.62896987463873" lon="8.27888765263091" id="-42703">
		<tag k="name" v="Illåbandet" />
		<tag k="natural" v="ridge" />
		<tag k="place" v="locality" />
		<tag k="ssr:stedsnr" v="556057" />
	</node>
	<node lat="61.88361111385202" lon="8.754777778171698" id="-42704">
		<tag k="alt_name" v="Vamhaug, nedre" />
		<tag k="name" v="Nedre Vamhaug" />
		<tag k="natural" v="hill" />
		<tag k="place" v="locality" />
		<tag k="ssr:stedsnr" v="556122" />
	</node>
	<node lat="61.63270000323138" lon="8.66695833088773" id="-42709">
		<tag k="name" v="Åmillom" />
		<tag k="place" v="locality" />
		<tag k="ssr:stedsnr" v="555879" />
	</node>
	<node lat="61.56516666780276" lon="8.49670000321096" id="-42710">
		<tag k="name" v="Memuruskardet" />
		<tag k="natural" v="valley" />
		<tag k="place" v="locality" />
		<tag k="ssr:stedsnr" v="555890" />
	</node>
	<node lat="61.86783610886956" lon="8.612327783248253" id="-42714">
		<tag k="alt_name" v="Skryulaupet" />
		<tag k="name" v="Skridulaupet" />
		<tag k="natural" v="slope" />
		<tag k="place" v="locality" />
		<tag k="ssr:stedsnr" v="556072" />
	</node>
	<node lat="61.73116666537875" lon="8.667827786329818" id="-42717">
		<tag k="fixme" v="consider natural=peak for the most distinct mountains in the district" />
		<tag k="name" v="Lønnsæterkampen" />
		<tag k="natural" v="hill" />
		<tag k="place" v="locality" />
		<tag k="ssr:stedsnr" v="556093" />
	</node>
	<node lat="61.827469448347806" lon="8.83819166079411" id="-42719">
		<tag k="name" v="Rundhovden" />
		<tag k="natural" v="hill" />
		<tag k="place" v="locality" />
		<tag k="ssr:stedsnr" v="556251" />
	</node>
	<node lat="61.797041663939254" lon="8.497788892206165" id="-42727">
		<tag k="fixme" v="consider natural=peak for the most distinct mountains in the district" />
		<tag k="loc_name" v="Storhøa" />
		<tag k="name" v="Storhøe" />
		<tag k="natural" v="hill" />
		<tag k="place" v="locality" />
		<tag k="ssr:stedsnr" v="556298" />
	</node>
	<node lat="61.79367777826664" lon="8.861655561414697" id="-42730">
		<tag k="alt_name" v="Hestdalen, s" />
		<tag k="name" v="Søre Hestdalen" />
		<tag k="natural" v="valley" />
		<tag k="place" v="locality" />
		<tag k="ssr:stedsnr" v="556487" />
	</node>
	<node lat="61.94877222073474" lon="8.74857499077675" id="-42733">
		<tag k="fixme" v="consider natural=peak for the most distinct mountains in the district" />
		<tag k="loc_name" v="Lauvhøa" />
		<tag k="name" v="Lauvhøe" />
		<tag k="natural" v="hill" />
		<tag k="place" v="locality" />
		<tag k="ssr:stedsnr" v="556898" />
	</node>
	<node lat="61.94477222155328" lon="8.777669437833561" id="-42734">
		<tag k="name" v="Lauvgjelet" />
		<tag k="natural" v="valley" />
		<tag k="place" v="locality" />
		<tag k="ssr:stedsnr" v="556900" />
	</node>
	<node lat="61.99391666914937" lon="8.65764722062748" id="-42735">
		<tag k="fixme" v="consider natural=peak for the most distinct mountains in the district" />
		<tag k="name" v="Rundkollan" />
		<tag k="natural" v="hill" />
		<tag k="place" v="locality" />
		<tag k="ssr:stedsnr" v="556981" />
	</node>
	<node lat="61.77655555444596" lon="8.456458341949661" id="-42737">
		<tag k="alt_name" v="Jyrudalshøe" />
		<tag k="fixme" v="consider natural=peak for the most distinct mountains in the district" />
		<tag k="name" v="Gyrudalshøe" />
		<tag k="natural" v="hill" />
		<tag k="place" v="locality" />
		<tag k="ssr:stedsnr" v="556998" />
	</node>
	<node lat="61.792485911176264" lon="8.395355104917897" id="-42738">
		<tag k="fixme" v="multiple name tags, choose one and add the other to alt_name; consider natural=peak for the most distinct mountains in the district" />
		<tag k="loc_name" v="Eirikhøa" />
		<tag k="name" v="Rundkampen;Eirikhøe" />
		<tag k="natural" v="hill" />
		<tag k="place" v="locality" />
		<tag k="ssr:stedsnr" v="557935" />
	</node>
	<node lat="61.78995278092715" lon="8.4221500089279" id="-42739">
		<tag k="alt_name" v="Rondkampen" />
		<tag k="name" v="Rundkampen" />
		<tag k="natural" v="hill" />
		<tag k="place" v="locality" />
		<tag k="ssr:stedsnr" v="557938" />
	</node>
	<node lat="61.8254944482601" lon="8.53822221326063" id="-42741">
		<tag k="name" v="Kvernvollen" />
		<tag k="place" v="locality" />
		<tag k="ssr:stedsnr" v="572186" />
	</node>
	<node lat="61.85484166776659" lon="8.590238894430248" id="-42746">
		<tag k="name" v="Blakarsberget" />
		<tag k="place" v="locality" />
		<tag k="ssr:stedsnr" v="574273" />
	</node>
	<node lat="61.858452773329624" lon="8.78915833775686" id="-42748">
		<tag k="name" v="Skrymtbergje" />
		<tag k="natural" v="ridge" />
		<tag k="place" v="locality" />
		<tag k="ssr:stedsnr" v="574471" />
	</node>
	<node lat="61.84565278050319" lon="8.86859166004015" id="-42751">
		<tag k="name" v="Byrbergje" />
		<tag k="natural" v="cliff" />
		<tag k="ssr:stedsnr" v="574585" />
	</node>
	<node lat="61.871858331695734" lon="8.807255562500854" id="-42753">
		<tag k="name" v="Jotberget" />
		<tag k="natural" v="cliff" />
		<tag k="ssr:stedsnr" v="575424" />
	</node>
	<node lat="61.81247222056473" lon="8.410330556396048" id="-42757">
		<tag k="name" v="Bordranden" />
		<tag k="natural" v="slope" />
		<tag k="place" v="locality" />
		<tag k="ssr:stedsnr" v="599026" />
	</node>
	<node lat="61.80898055894077" lon="8.408108332402872" id="-42758">
		<tag k="name" v="Søre Bord" />
		<tag k="natural" v="hill" />
		<tag k="place" v="locality" />
		<tag k="ssr:stedsnr" v="599027" />
	</node>
	<node lat="61.79858333337716" lon="8.458347228395676" id="-42759">
		<tag k="name" v="Kløvvollkampen" />
		<tag k="natural" v="hill" />
		<tag k="place" v="locality" />
		<tag k="ssr:stedsnr" v="599031" />
	</node>
	<node lat="61.692524996432155" lon="8.222169439688313" id="-42762">
		<tag k="name" v="Nørdre Rauskryuhøe" />
		<tag k="natural" v="hill" />
		<tag k="place" v="locality" />
		<tag k="ssr:stedsnr" v="598728" />
	</node>
	<node lat="61.68690555548181" lon="8.182188896264334" id="-42763">
		<tag k="name" v="Fiskebubergje" />
		<tag k="natural" v="hill" />
		<tag k="place" v="locality" />
		<tag k="ssr:stedsnr" v="598730" />
	</node>
	<node lat="61.70563333121871" lon="8.214766661411474" id="-42764">
		<tag k="name" v="Attvenda" />
		<tag k="natural" v="valley" />
		<tag k="place" v="locality" />
		<tag k="ssr:stedsnr" v="598731" />
	</node>
	<node lat="61.710225001089434" lon="8.350158326898173" id="-42765">
		<tag k="name" v="Hestkleive" />
		<tag k="natural" v="slope" />
		<tag k="place" v="locality" />
		<tag k="ssr:stedsnr" v="599263" />
	</node>
	<node lat="61.7450833317627" lon="8.398699997739028" id="-42768">
		<tag k="name" v="Hoftalie" />
		<tag k="natural" v="slope" />
		<tag k="place" v="locality" />
		<tag k="ssr:stedsnr" v="599435" />
	</node>
	<node lat="61.66781944488481" lon="8.194361111096562" id="-42772">
		<tag k="name" v="Nedre Kleivholet" />
		<tag k="natural" v="valley" />
		<tag k="place" v="locality" />
		<tag k="ssr:stedsnr" v="600687" />
	</node>
	<node lat="61.855891664144146" lon="8.731130547726398" id="-42774">
		<tag k="name" v="Lågkollen" />
		<tag k="natural" v="ridge" />
		<tag k="place" v="locality" />
		<tag k="ssr:stedsnr" v="616035" />
	</node>
	<node lat="61.857773970249454" lon="8.748722110432615" id="-42775">
		<tag k="fixme" v="multiple name tags, choose one and add the other to alt_name" />
		<tag k="name" v="Høgkollen;Lomskollen" />
		<tag k="natural" v="ridge" />
		<tag k="place" v="locality" />
		<tag k="ssr:stedsnr" v="616036" />
	</node>
	<node lat="61.88603333278961" lon="8.830099992510291" id="-42779">
		<tag k="name" v="Såvårhaugen" />
		<tag k="natural" v="hill" />
		<tag k="place" v="locality" />
		<tag k="ssr:stedsnr" v="616085" />
	</node>
	<node lat="61.65962506682562" lon="8.153107570455694" id="-42783">
		<tag k="loc_name" v="Bøverkinn" />
		<tag k="name" v="Bøverkinnhalsen" />
		<tag k="natural" v="valley" />
		<tag k="place" v="locality" />
		<tag k="ssr:stedsnr" v="616173" />
	</node>
	<node lat="61.66790833102324" lon="8.250433327696944" id="-42786">
		<tag k="fixme" v="consider natural=peak for the most distinct mountains in the district" />
		<tag k="name" v="Heimesæterfjellet" />
		<tag k="natural" v="hill" />
		<tag k="place" v="locality" />
		<tag k="ssr:stedsnr" v="616183" />
	</node>
	<node lat="61.738858337687496" lon="8.702008334696451" id="-42788">
		<tag k="fixme" v="consider natural=peak for the most distinct mountains in the district" />
		<tag k="name" v="Eilevskampen" />
		<tag k="natural" v="hill" />
		<tag k="place" v="locality" />
		<tag k="ssr:stedsnr" v="616096" />
	</node>
	<node lat="61.88176110818998" lon="8.679136102244515" id="-42789">
		<tag k="name" v="Dyrmyrberget" />
		<tag k="natural" v="hill" />
		<tag k="place" v="locality" />
		<tag k="ssr:stedsnr" v="616100" />
	</node>
	<node lat="61.69648889299151" lon="8.26689165860586" id="-42798">
		<tag k="name" v="Leirdalen" />
		<tag k="natural" v="valley" />
		<tag k="place" v="locality" />
		<tag k="ssr:stedsnr" v="616221" />
	</node>
	<node lat="61.814458334684815" lon="8.673691657739168" id="-42800">
		<tag k="alt_name" v="Flyi, nedre" />
		<tag k="name" v="Nedre Flyi" />
		<tag k="place" v="locality" />
		<tag k="ssr:stedsnr" v="616224" />
	</node>
	<node lat="61.81150833398102" lon="8.780247214496836" id="-42801">
		<tag k="alt_name" v="Koppflyi, nordre" />
		<tag k="name" v="Nordre Koppflyi" />
		<tag k="place" v="locality" />
		<tag k="ssr:stedsnr" v="616229" />
	</node>
	<node lat="61.80837222273268" lon="8.710163882585944" id="-42802">
		<tag k="name" v="Sauhøe" />
		<tag k="natural" v="hill" />
		<tag k="place" v="locality" />
		<tag k="ssr:stedsnr" v="616230" />
	</node>
	<node lat="61.63710000278778" lon="8.664724994784898" id="-42810">
		<tag k="name" v="Raudsteinspranget" />
		<tag k="natural" v="slope" />
		<tag k="place" v="locality" />
		<tag k="ssr:stedsnr" v="616929" />
	</node>
	<node lat="61.82791666257371" lon="8.643208327024572" id="-42812">
		<tag k="name" v="Meadalen" />
		<tag k="natural" v="valley" />
		<tag k="place" v="locality" />
		<tag k="ssr:stedsnr" v="617024" />
	</node>
	<node lat="61.61812499869186" lon="8.23485278259189" id="-42813">
		<tag k="fixme" v="consider natural=peak for the most distinct mountains in the district" />
		<tag k="name" v="Svarttinden" />
		<tag k="natural" v="hill" />
		<tag k="place" v="locality" />
		<tag k="ssr:stedsnr" v="617033" />
	</node>
	<node lat="61.77171388572003" lon="8.91830277734292" id="-42829">
		<tag k="name" v="Heggemorki" />
		<tag k="natural" v="slope" />
		<tag k="place" v="locality" />
		<tag k="ssr:stedsnr" v="617453" />
	</node>
	<node lat="61.77518889043113" lon="8.863483331705293" id="-42830">
		<tag k="fixme" v="consider natural=peak for the most distinct mountains in the district" />
		<tag k="name" v="Saukampen" />
		<tag k="natural" v="hill" />
		<tag k="place" v="locality" />
		<tag k="ssr:stedsnr" v="617454" />
	</node>
	<node lat="61.88923888692795" lon="8.76884721765348" id="-42832">
		<tag k="name" v="Vardhøe" />
		<tag k="natural" v="hill" />
		<tag k="place" v="locality" />
		<tag k="ssr:stedsnr" v="617915" />
	</node>
	<node lat="61.91565278097346" lon="8.801205555711306" id="-42834">
		<tag k="fixme" v="consider natural=peak for the most distinct mountains in the district" />
		<tag k="loc_name" v="Sterringhøa" />
		<tag k="name" v="Sterringhøe" />
		<tag k="natural" v="hill" />
		<tag k="place" v="locality" />
		<tag k="ssr:stedsnr" v="617921" />
	</node>
	<node lat="61.858875000967394" lon="8.782933335071935" id="-42845">
		<tag k="name" v="Kolbottflaten" />
		<tag k="place" v="locality" />
		<tag k="ssr:stedsnr" v="635431" />
	</node>
	<node lat="61.873805559961625" lon="8.807111105010847" id="-42846">
		<tag k="name" v="Sneibergje" />
		<tag k="natural" v="ridge" />
		<tag k="place" v="locality" />
		<tag k="ssr:stedsnr" v="635452" />
	</node>
	<node lat="61.850416662393464" lon="8.672100000638432" id="-42848">
		<tag k="name" v="Måne" />
		<tag k="natural" v="slope" />
		<tag k="place" v="locality" />
		<tag k="ssr:stedsnr" v="635764" />
	</node>
	<node lat="61.840997219824146" lon="8.638200005018897" id="-42849">
		<tag k="name" v="Frøyseklympen" />
		<tag k="natural" v="hill" />
		<tag k="place" v="locality" />
		<tag k="ssr:stedsnr" v="635769" />
	</node>
	<node lat="61.77803333524402" lon="8.954733334515705" id="-42850">
		<tag k="name" v="Gobjørke" />
		<tag k="place" v="locality" />
		<tag k="ssr:stedsnr" v="645336" />
	</node>
	<node lat="61.69213055579575" lon="8.214613897810317" id="-42853">
		<tag k="name" v="Stokkeskardet" />
		<tag k="natural" v="valley" />
		<tag k="place" v="locality" />
		<tag k="ssr:stedsnr" v="659748" />
	</node>
	<node lat="61.926330558151136" lon="8.759088887235459" id="-42858">
		<tag k="name" v="Reinskinn" />
		<tag k="natural" v="slope" />
		<tag k="place" v="locality" />
		<tag k="ssr:stedsnr" v="660715" />
	</node>
	<node lat="61.790102780942426" lon="8.443011108199126" id="-42860">
		<tag k="name" v="Storskardet" />
		<tag k="natural" v="valley" />
		<tag k="place" v="locality" />
		<tag k="ssr:stedsnr" v="660053" />
	</node>
	<node lat="61.73260555865922" lon="8.427736114839552" id="-42863">
		<tag k="name" v="Kauvbergje" />
		<tag k="natural" v="hill" />
		<tag k="place" v="locality" />
		<tag k="ssr:stedsnr" v="660445" />
	</node>
	<node lat="61.731719446851706" lon="8.298144442434214" id="-42865">
		<tag k="name" v="Brustuguhaugen" />
		<tag k="natural" v="hill" />
		<tag k="place" v="locality" />
		<tag k="ssr:stedsnr" v="660477" />
	</node>
	<node lat="61.68592500408762" lon="8.281200007251096" id="-42867">
		<tag k="name" v="Øvre Heggjesletta" />
		<tag k="place" v="locality" />
		<tag k="ssr:stedsnr" v="660361" />
	</node>
	<node lat="61.65261388586221" lon="8.173283329816819" id="-42871">
		<tag k="name" v="Dalasandein" />
		<tag k="place" v="locality" />
		<tag k="ssr:stedsnr" v="661674" />
	</node>
	<node lat="61.85790555397126" lon="8.581366664621958" id="-42872">
		<tag k="name" v="Gråhesten" />
		<tag k="natural" v="hill" />
		<tag k="place" v="locality" />
		<tag k="ssr:stedsnr" v="721136" />
	</node>
	<node lat="61.67251111174551" lon="8.244822216918205" id="-42874">
		<tag k="name" v="Godbakkein" />
		<tag k="natural" v="slope" />
		<tag k="place" v="locality" />
		<tag k="ssr:stedsnr" v="720745" />
	</node>
	<node lat="61.69347499557262" lon="8.206558328913202" id="-42875">
		<tag k="fixme" v="consider natural=peak for the most distinct mountains in the district" />
		<tag k="name" v="Nørdre Geithøe" />
		<tag k="natural" v="hill" />
		<tag k="place" v="locality" />
		<tag k="ssr:stedsnr" v="720757" />
	</node>
	<node lat="61.68690833088592" lon="8.223958340793489" id="-42876">
		<tag k="name" v="Nørdre Glåmberg" />
		<tag k="natural" v="hill" />
		<tag k="place" v="locality" />
		<tag k="ssr:stedsnr" v="720761" />
	</node>
	<node lat="61.6997000022564" lon="8.282608335166591" id="-42888">
		<tag k="name" v="Elvesætergjelet" />
		<tag k="natural" v="hill" />
		<tag k="place" v="locality" />
		<tag k="ssr:stedsnr" v="721356" />
	</node>
	<node lat="61.74296666852271" lon="8.406458336203022" id="-42893">
		<tag k="name" v="Måne" />
		<tag k="place" v="locality" />
		<tag k="ssr:stedsnr" v="721429" />
	</node>
	<node lat="61.82045555676003" lon="8.886319438810132" id="-42894">
		<tag k="name" v="Ormeholet" />
		<tag k="natural" v="valley" />
		<tag k="place" v="locality" />
		<tag k="ssr:stedsnr" v="721435" />
	</node>
	<node lat="61.73220833578391" lon="8.292108325398106" id="-42895">
		<tag k="name" v="Nyhusbergje" />
		<tag k="natural" v="hill" />
		<tag k="place" v="locality" />
		<tag k="ssr:stedsnr" v="721455" />
	</node>
	<node lat="61.71812222162429" lon="8.169441670595312" id="-42897">
		<tag k="fixme" v="consider natural=peak for the most distinct mountains in the district" />
		<tag k="name" v="Geitåfjellet" />
		<tag k="natural" v="hill" />
		<tag k="place" v="locality" />
		<tag k="ssr:stedsnr" v="721548" />
	</node>
	<node lat="61.66364722114015" lon="8.228083325464699" id="-42900">
		<tag k="name" v="Øvre Høgberg" />
		<tag k="natural" v="hill" />
		<tag k="place" v="locality" />
		<tag k="ssr:stedsnr" v="721698" />
	</node>
	<node lat="61.657536113238166" lon="7.9912361147473305" id="-42901">
		<tag k="name" v="Asbjørnsletta" />
		<tag k="place" v="locality" />
		<tag k="ssr:stedsnr" v="721665" />
	</node>
	<node lat="61.46447500058613" lon="8.431133326838012" id="-42904">
		<tag k="name" v="Storådalen" />
		<tag k="natural" v="valley" />
		<tag k="place" v="locality" />
		<tag k="ssr:stedsnr" v="735858" />
	</node>
	<node lat="61.47854444681638" lon="8.340088885948266" id="-42905">
		<tag k="name" v="Skarddalen" />
		<tag k="natural" v="valley" />
		<tag k="place" v="locality" />
		<tag k="ssr:stedsnr" v="735863" />
	</node>
	<node lat="61.58376666829648" lon="8.358683340492604" id="-42910">
		<tag k="name" v="Bukkeholet" />
		<tag k="natural" v="valley" />
		<tag k="place" v="locality" />
		<tag k="ssr:stedsnr" v="738021" />
	</node>
	<node lat="61.59675555410216" lon="8.190924993654608" id="-42917">
		<tag k="alt_name" v="Sletthamnbakkan" />
		<tag k="name" v="Breabakkan" />
		<tag k="natural" v="slope" />
		<tag k="place" v="locality" />
		<tag k="ssr:stedsnr" v="738047" />
	</node>
	<node lat="61.85078333748929" lon="8.468866666501931" id="-42918">
		<tag k="alt_name" v="Nørstnesslakkjen" />
		<tag k="name" v="Slakkjen" />
		<tag k="natural" v="slope" />
		<tag k="place" v="locality" />
		<tag k="ssr:stedsnr" v="738048" />
	</node>
	<node lat="61.81825832978537" lon="8.81409444137816" id="-42933">
		<tag k="fixme" v="consider natural=peak for the most distinct mountains in the district" />
		<tag k="name" v="Berghaug" />
		<tag k="natural" v="hill" />
		<tag k="place" v="locality" />
		<tag k="ssr:stedsnr" v="738248" />
	</node>
	<node lat="61.8822972218181" lon="8.63194445285361" id="-42937">
		<tag k="alt_name" v="Åslii" />
		<tag k="name" v="Åslie" />
		<tag k="natural" v="slope" />
		<tag k="place" v="locality" />
		<tag k="ssr:stedsnr" v="738118" />
	</node>
	<node lat="61.53017979408911" lon="8.335468868387764" id="-42940">
		<tag k="fixme" v="consider natural=peak for the most distinct mountains in the district" />
		<tag k="name" v="Visbretinden" />
		<tag k="natural" v="hill" />
		<tag k="place" v="locality" />
		<tag k="ssr:stedsnr" v="738128" />
	</node>
	<node lat="61.711233333579926" lon="8.404127772969172" id="-42944">
		<tag k="fixme" v="consider natural=peak for the most distinct mountains in the district" />
		<tag k="name" v="Ljoslifjellet" />
		<tag k="natural" v="hill" />
		<tag k="place" v="locality" />
		<tag k="ssr:stedsnr" v="738151" />
	</node>
	<node lat="61.80514722177989" lon="8.580772213495223" id="-42948">
		<tag k="fixme" v="consider natural=peak for the most distinct mountains in the district" />
		<tag k="name" v="Rupknubben" />
		<tag k="natural" v="hill" />
		<tag k="place" v="locality" />
		<tag k="ssr:stedsnr" v="738198" />
	</node>
	<node lat="61.906291670067894" lon="8.599391664022182" id="-42961">
		<tag k="name" v="Grønhøe" />
		<tag k="natural" v="hill" />
		<tag k="place" v="locality" />
		<tag k="ssr:stedsnr" v="738935" />
	</node>
	<node lat="61.7567694430781" lon="8.391819452871475" id="-42963">
		<tag k="name" v="Medalen" />
		<tag k="natural" v="valley" />
		<tag k="place" v="locality" />
		<tag k="ssr:stedsnr" v="738978" />
	</node>
	<node lat="61.775005556658094" lon="8.26284166412633" id="-42964">
		<tag k="fixme" v="consider natural=peak for the most distinct mountains in the district" />
		<tag k="name" v="Geitryggen" />
		<tag k="natural" v="hill" />
		<tag k="place" v="locality" />
		<tag k="ssr:stedsnr" v="738991" />
	</node>
	<node lat="61.865663885762594" lon="8.86115833055096" id="-42966">
		<tag k="name" v="Nyrneskampen" />
		<tag k="natural" v="hill" />
		<tag k="place" v="locality" />
		<tag k="ssr:stedsnr" v="739307" />
	</node>
	<node lat="62.02704999976104" lon="8.754155551760455" id="-42968">
		<tag k="name" v="Skjervekroken" />
		<tag k="natural" v="valley" />
		<tag k="place" v="locality" />
		<tag k="ssr:stedsnr" v="739556" />
	</node>
	<node lat="61.798258336891735" lon="8.758891669476856" id="-42969">
		<tag k="name" v="Gjerdingtjørnholet" />
		<tag k="natural" v="valley" />
		<tag k="place" v="locality" />
		<tag k="ssr:stedsnr" v="739187" />
	</node>
	<node lat="61.79191944210586" lon="8.511886112387987" id="-42970">
		<tag k="fixme" v="consider natural=peak for the most distinct mountains in the district" />
		<tag k="name" v="Vittingskampen" />
		<tag k="natural" v="hill" />
		<tag k="place" v="locality" />
		<tag k="ssr:stedsnr" v="739188" />
	</node>
	<node lat="61.80440832946011" lon="8.668694447771232" id="-42971">
		<tag k="alt_name" v="Flyi, øvre" />
		<tag k="name" v="Øvre Flyi" />
		<tag k="place" v="locality" />
		<tag k="ssr:stedsnr" v="739189" />
	</node>
	<node lat="61.908688892378834" lon="8.564297221640357" id="-42975">
		<tag k="name" v="Lægret" />
		<tag k="place" v="locality" />
		<tag k="ssr:stedsnr" v="739872" />
	</node>
	<node lat="61.93364166987286" lon="8.630505547882855" id="-42976">
		<tag k="name" v="Råkågjelet" />
		<tag k="natural" v="valley" />
		<tag k="place" v="locality" />
		<tag k="ssr:stedsnr" v="739885" />
	</node>
	<node lat="61.856513891294725" lon="8.592947217401488" id="-42985">
		<tag k="name" v="Mjølkehåmårflaten" />
		<tag k="place" v="locality" />
		<tag k="ssr:stedsnr" v="756241" />
	</node>
	<node lat="61.83918610996929" lon="8.841552786293718" id="-42989">
		<tag k="name" v="Geitryggen" />
		<tag k="natural" v="ridge" />
		<tag k="place" v="locality" />
		<tag k="ssr:stedsnr" v="756568" />
	</node>
	<node lat="61.84558055573179" lon="8.634800002914202" id="-42991">
		<tag k="name" v="Skutlein" />
		<tag k="natural" v="valley" />
		<tag k="place" v="locality" />
		<tag k="ssr:stedsnr" v="756843" />
	</node>
	<node lat="61.743858328889" lon="8.933494441496702" id="-42993">
		<tag k="name" v="Steinkyrkja" />
		<tag k="place" v="locality" />
		<tag k="ssr:stedsnr" v="769360" />
	</node>
	<node lat="61.697569443395516" lon="8.27562222111801" id="-42996">
		<tag k="name" v="Skålberget" />
		<tag k="natural" v="hill" />
		<tag k="place" v="locality" />
		<tag k="ssr:stedsnr" v="781337" />
	</node>
	<node lat="61.70178332971904" lon="8.273661116296257" id="-42997">
		<tag k="name" v="Liaflaten" />
		<tag k="place" v="locality" />
		<tag k="ssr:stedsnr" v="781340" />
	</node>
	<node lat="61.77797222474825" lon="8.439486104682569" id="-42999">
		<tag k="name" v="Brennhaug" />
		<tag k="natural" v="hill" />
		<tag k="place" v="locality" />
		<tag k="ssr:stedsnr" v="781070" />
	</node>
	<node lat="61.66549999671796" lon="8.225938891005441" id="-43003">
		<tag k="name" v="Nedre Høgberg" />
		<tag k="natural" v="hill" />
		<tag k="place" v="locality" />
		<tag k="ssr:stedsnr" v="781734" />
	</node>
	<node lat="61.68327221975636" lon="8.215022221056321" id="-43005">
		<tag k="name" v="Elgedalen" />
		<tag k="natural" v="valley" />
		<tag k="place" v="locality" />
		<tag k="ssr:stedsnr" v="781742" />
	</node>
	<node lat="61.65726110925648" lon="8.19580555271247" id="-43006">
		<tag k="name" v="Dalarandein" />
		<tag k="natural" v="slope" />
		<tag k="place" v="locality" />
		<tag k="ssr:stedsnr" v="782666" />
	</node>
	<node lat="61.657491669416885" lon="8.159566674035736" id="-43007">
		<tag k="name" v="Reinstråe" />
		<tag k="place" v="locality" />
		<tag k="ssr:stedsnr" v="782669" />
	</node>
	<node lat="61.684191665786415" lon="8.210219441428086" id="-43008">
		<tag k="name" v="Slokkein" />
		<tag k="natural" v="hill" />
		<tag k="place" v="locality" />
		<tag k="ssr:stedsnr" v="781750" />
	</node>
	<node lat="61.794786108734414" lon="8.401616660585274" id="-43011">
		<tag k="name" v="Bakdalen" />
		<tag k="natural" v="valley" />
		<tag k="place" v="locality" />
		<tag k="ssr:stedsnr" v="782040" />
	</node>
	<node lat="61.790261110997896" lon="8.44807221985462" id="-43014">
		<tag k="name" v="Veslskardet" />
		<tag k="natural" v="valley" />
		<tag k="place" v="locality" />
		<tag k="ssr:stedsnr" v="782090" />
	</node>
	<node lat="61.470749999265" lon="8.537277778449816" id="-43018">
		<tag k="name" v="Kjuklingen" />
		<tag k="natural" v="hill" />
		<tag k="place" v="locality" />
		<tag k="ssr:stedsnr" v="797773" />
	</node>
	<node lat="61.587083329293236" lon="8.126147229638276" id="-43019">
		<tag k="fixme" v="consider natural=peak for the most distinct mountains in the district" />
		<tag k="name" v="Storbreatinden" />
		<tag k="natural" v="hill" />
		<tag k="place" v="locality" />
		<tag k="ssr:stedsnr" v="798028" />
	</node>
	<node lat="61.57164999632924" lon="8.11899167305614" id="-43020">
		<tag k="alt_name" v="Smørstabbtinden, store" />
		<tag k="fixme" v="consider natural=peak for the most distinct mountains in the district" />
		<tag k="name" v="Store Smørstabbtinden" />
		<tag k="natural" v="hill" />
		<tag k="place" v="locality" />
		<tag k="ssr:stedsnr" v="798033" />
	</node>
	<node lat="61.81342777596219" lon="8.834836109011727" id="-43022">
		<tag k="alt_name" v="Koppe, s" />
		<tag k="fixme" v="consider natural=peak for the most distinct mountains in the district" />
		<tag k="name" v="Søre Koppe" />
		<tag k="natural" v="hill" />
		<tag k="place" v="locality" />
		<tag k="ssr:stedsnr" v="798232" />
	</node>
	<node lat="61.684941665146056" lon="8.553727774265704" id="-43023">
		<tag k="name" v="Svartholsglupen" />
		<tag k="natural" v="valley" />
		<tag k="place" v="locality" />
		<tag k="ssr:stedsnr" v="798068" />
	</node>
	<node lat="61.7440111134524" lon="8.79560555136805" id="-43026">
		<tag k="fixme" v="consider natural=peak for the most distinct mountains in the district" />
		<tag k="name" v="Herbersknubben" />
		<tag k="natural" v="hill" />
		<tag k="place" v="locality" />
		<tag k="ssr:stedsnr" v="799118" />
	</node>
	<node lat="61.87111111114058" lon="8.842349997110427" id="-43028">
		<tag k="name" v="Stålsletta" />
		<tag k="place" v="locality" />
		<tag k="ssr:stedsnr" v="799123" />
	</node>
	<node lat="61.53510206251951" lon="8.356497810029149" id="-43029">
		<tag k="fixme" v="consider natural=peak for the most distinct mountains in the district" />
		<tag k="name" v="Semelholstinden" />
		<tag k="natural" v="hill" />
		<tag k="place" v="locality" />
		<tag k="ssr:stedsnr" v="799124" />
	</node>
	<node lat="61.84795278200978" lon="8.661444448047316" id="-43037">
		<tag k="alt_name" v="Rauberg" />
		<tag k="name" v="Raudberget" />
		<tag k="natural" v="hill" />
		<tag k="place" v="locality" />
		<tag k="ssr:stedsnr" v="799047" />
	</node>
	<node lat="61.86332500111344" lon="8.633994440449515" id="-43041">
		<tag k="name" v="Ørneberget" />
		<tag k="natural" v="hill" />
		<tag k="place" v="locality" />
		<tag k="ssr:stedsnr" v="799082" />
	</node>
	<node lat="61.74164166476775" lon="8.282797214431412" id="-43043">
		<tag k="name" v="Storhøskardet" />
		<tag k="natural" v="valley" />
		<tag k="place" v="locality" />
		<tag k="ssr:stedsnr" v="799183" />
	</node>
	<node lat="61.673136110160094" lon="8.177233332735977" id="-43050">
		<tag k="alt_name" v="Leirhøi" />
		<tag k="fixme" v="consider natural=peak for the most distinct mountains in the district" />
		<tag k="name" v="Leirhøe" />
		<tag k="natural" v="hill" />
		<tag k="place" v="locality" />
		<tag k="ssr:stedsnr" v="799232" />
	</node>
	<node lat="61.60487499860357" lon="8.07113055503403" id="-43058">
		<tag k="alt_name" v="Storflye" />
		<tag k="name" v="Storflyi" />
		<tag k="place" v="locality" />
		<tag k="ssr:stedsnr" v="799463" />
	</node>
	<node lat="61.742405553044854" lon="8.95154444861263" id="-43060">
		<tag k="name" v="Nåvårsætervangen" />
		<tag k="place" v="locality" />
		<tag k="ssr:stedsnr" v="799948" />
	</node>
	<node lat="61.76653889294928" lon="8.783430548034652" id="-43061">
		<tag k="fixme" v="consider natural=peak for the most distinct mountains in the district" />
		<tag k="name" v="Herebergshøe" />
		<tag k="natural" v="hill" />
		<tag k="place" v="locality" />
		<tag k="ssr:stedsnr" v="800225" />
	</node>
	<node lat="61.94151389220931" lon="8.806011104972479" id="-43062">
		<tag k="alt_name" v="Lauvlii" />
		<tag k="name" v="Lauvlie" />
		<tag k="natural" v="slope" />
		<tag k="place" v="locality" />
		<tag k="ssr:stedsnr" v="800864" />
	</node>
	<node lat="61.7913583347587" lon="8.320969447986714" id="-43065">
		<tag k="alt_name" v="Bord, nordre" />
		<tag k="name" v="Nordre Bord" />
		<tag k="place" v="locality" />
		<tag k="ssr:stedsnr" v="800947" />
	</node>
	<node lat="61.84221111491476" lon="8.62212778614241" id="-43071">
		<tag k="name" v="Svarthåmårn" />
		<tag k="place" v="locality" />
		<tag k="ssr:stedsnr" v="817050" />
	</node>
	<node lat="61.830138887825356" lon="8.60114166392824" id="-43080">
		<tag k="alt_name" v="Læshøi" />
		<tag k="fixme" v="consider natural=peak for the most distinct mountains in the district" />
		<tag k="name" v="Læshøe" />
		<tag k="natural" v="hill" />
		<tag k="place" v="locality" />
		<tag k="ssr:stedsnr" v="842023" />
	</node>
	<node lat="61.69354999943812" lon="8.289733342683054" id="-43081">
		<tag k="name" v="Langberg" />
		<tag k="natural" v="hill" />
		<tag k="place" v="locality" />
		<tag k="ssr:stedsnr" v="842319" />
	</node>
	<node lat="61.697113888027104" lon="8.162844443085394" id="-43084">
		<tag k="name" v="Klæbberget" />
		<tag k="natural" v="hill" />
		<tag k="place" v="locality" />
		<tag k="ssr:stedsnr" v="842745" />
	</node>
	<node lat="61.791438892359736" lon="8.50086388228714" id="-43086">
		<tag k="name" v="Hestskardet" />
		<tag k="natural" v="valley" />
		<tag k="place" v="locality" />
		<tag k="ssr:stedsnr" v="843103" />
	</node>
	<node lat="61.78965000279251" lon="8.449227769862699" id="-43087">
		<tag k="name" v="Staberg" />
		<tag k="natural" v="hill" />
		<tag k="place" v="locality" />
		<tag k="ssr:stedsnr" v="843106" />
	</node>
	<node lat="61.781927781262674" lon="8.44360277080222" id="-43089">
		<tag k="name" v="Brekkøyhåmårn" />
		<tag k="natural" v="hill" />
		<tag k="place" v="locality" />
		<tag k="ssr:stedsnr" v="843048" />
	</node>
	<node lat="61.77405833637491" lon="8.406949992755147" id="-43090">
		<tag k="fixme" v="consider natural=peak for the most distinct mountains in the district" />
		<tag k="name" v="Reppakollen" />
		<tag k="natural" v="hill" />
		<tag k="place" v="locality" />
		<tag k="ssr:stedsnr" v="843054" />
	</node>
	<node lat="61.873116669239785" lon="8.735886116214425" id="-43092">
		<tag k="name" v="Jøynnholet" />
		<tag k="natural" v="valley" />
		<tag k="place" v="locality" />
		<tag k="ssr:stedsnr" v="843941" />
	</node>
	<node lat="61.743858333447704" lon="8.31016389026245" id="-43093">
		<tag k="name" v="Drivdalein" />
		<tag k="natural" v="valley" />
		<tag k="place" v="locality" />
		<tag k="ssr:stedsnr" v="843265" />
	</node>
	<node lat="61.76356667068422" lon="8.418213897400358" id="-43097">
		<tag k="name" v="Svarthåmårn" />
		<tag k="natural" v="hill" />
		<tag k="place" v="locality" />
		<tag k="ssr:stedsnr" v="843417" />
	</node>
	<node lat="61.53359502700462" lon="8.26256691788395" id="-43107">
		<tag k="name" v="Høgvaglen" />
		<tag k="natural" v="valley" />
		<tag k="place" v="locality" />
		<tag k="ssr:stedsnr" v="859101" />
	</node>
	<node lat="61.704838885880214" lon="8.266611119431063" id="-43112">
		<tag k="name" v="Rasmushaugen" />
		<tag k="natural" v="hill" />
		<tag k="place" v="locality" />
		<tag k="ssr:stedsnr" v="860153" />
	</node>
	<node lat="61.83607499730133" lon="8.785430550401358" id="-43114">
		<tag k="fixme" v="consider natural=peak for the most distinct mountains in the district" />
		<tag k="name" v="Eklehaugen" />
		<tag k="natural" v="hill" />
		<tag k="place" v="locality" />
		<tag k="ssr:stedsnr" v="860034" />
	</node>
	<node lat="61.60634133049492" lon="8.1475357921777" id="-43116">
		<tag k="fixme" v="consider natural=peak for the most distinct mountains in the district" />
		<tag k="name" v="Skagsnebb" />
		<tag k="natural" v="hill" />
		<tag k="place" v="locality" />
		<tag k="ssr:stedsnr" v="860039" />
	</node>
	<node lat="61.78719722200573" lon="8.737761101912271" id="-43121">
		<tag k="fixme" v="consider natural=peak for the most distinct mountains in the district" />
		<tag k="loc_name" v="Ilvetjønnhøa" />
		<tag k="name" v="Ilvetjørnhøe" />
		<tag k="natural" v="hill" />
		<tag k="place" v="locality" />
		<tag k="ssr:stedsnr" v="860241" />
	</node>
	<node lat="61.78380277460635" lon="8.663624997420172" id="-43122">
		<tag k="name" v="Kvitingsgjelet" />
		<tag k="natural" v="valley" />
		<tag k="place" v="locality" />
		<tag k="ssr:stedsnr" v="860242" />
	</node>
	<node lat="61.79336666560692" lon="8.905825000874811" id="-43126">
		<tag k="name" v="Byrtneshåmåren" />
		<tag k="natural" v="hill" />
		<tag k="place" v="locality" />
		<tag k="ssr:stedsnr" v="860495" />
	</node>
	<node lat="61.79613611420768" lon="8.900030558985103" id="-43127">
		<tag k="alt_name" v="Hømillom" />
		<tag k="name" v="Hømellom" />
		<tag k="natural" v="valley" />
		<tag k="place" v="locality" />
		<tag k="ssr:stedsnr" v="860496" />
	</node>
	<node lat="61.90654722200034" lon="8.708208334178707" id="-43128">
		<tag k="alt_name" v="Liaoksle" />
		<tag k="fixme" v="consider natural=peak for the most distinct mountains in the district" />
		<tag k="name" v="Liaoksli" />
		<tag k="natural" v="hill" />
		<tag k="place" v="locality" />
		<tag k="ssr:stedsnr" v="860940" />
	</node>
	<node lat="61.51206110715977" lon="8.557261113334667" id="-43129">
		<tag k="fixme" v="consider natural=peak for the most distinct mountains in the district" />
		<tag k="name" v="Raudhamran" />
		<tag k="natural" v="hill" />
		<tag k="place" v="locality" />
		<tag k="ssr:stedsnr" v="860942" />
	</node>
	<node lat="61.8211444459647" lon="8.412752786917677" id="-43133">
		<tag k="fixme" v="consider natural=peak for the most distinct mountains in the district" />
		<tag k="name" v="Bjøllungsdalshovden" />
		<tag k="natural" v="hill" />
		<tag k="place" v="locality" />
		<tag k="ssr:stedsnr" v="861973" />
	</node>
	<node lat="61.84486944041844" lon="8.818336116606996" id="-43140">
		<tag k="name" v="Skjellbergje" />
		<tag k="place" v="locality" />
		<tag k="ssr:stedsnr" v="878599" />
	</node>
	<node lat="61.85374722564318" lon="8.623355550070976" id="-43142">
		<tag k="name" v="Duvdalskleive" />
		<tag k="natural" v="slope" />
		<tag k="place" v="locality" />
		<tag k="ssr:stedsnr" v="878049" />
	</node>
	<node lat="61.81385277561689" lon="8.828375003229588" id="-43145">
		<tag k="fixme" v="consider natural=peak for the most distinct mountains in the district" />
		<tag k="name" v="Kopphatten" />
		<tag k="natural" v="hill" />
		<tag k="place" v="locality" />
		<tag k="ssr:stedsnr" v="878629" />
	</node>
	<node lat="61.85753333784849" lon="8.790341662993862" id="-43146">
		<tag k="name" v="Haukdalen" />
		<tag k="natural" v="valley" />
		<tag k="place" v="locality" />
		<tag k="ssr:stedsnr" v="878490" />
	</node>
	<node lat="61.84177222516455" lon="8.66011667112299" id="-43148">
		<tag k="name" v="Skårådalsberget" />
		<tag k="natural" v="hill" />
		<tag k="place" v="locality" />
		<tag k="ssr:stedsnr" v="878811" />
	</node>
	<node lat="61.83180833316303" lon="8.661830548598664" id="-43151">
		<tag k="name" v="Bakve" />
		<tag k="place" v="locality" />
		<tag k="ssr:stedsnr" v="878936" />
	</node>
	<node lat="61.81822500400749" lon="8.553666672547662" id="-43154">
		<tag k="name" v="Hågåhåmårn" />
		<tag k="place" v="locality" />
		<tag k="ssr:stedsnr" v="936139" />
	</node>
	<node lat="61.83910833707458" lon="8.52606110780694" id="-43158">
		<tag k="name" v="Vikeskåre" />
		<tag k="natural" v="valley" />
		<tag k="place" v="locality" />
		<tag k="ssr:stedsnr" v="936331" />
	</node>
	<node lat="61.82683055645847" lon="8.611099997345317" id="-43159">
		<tag k="name" v="Labbelie" />
		<tag k="natural" v="slope" />
		<tag k="place" v="locality" />
		<tag k="ssr:stedsnr" v="938390" />
	</node>
	<node lat="61.84735833089391" lon="8.855230550444773" id="-43163">
		<tag k="name" v="Trondplassen" />
		<tag k="natural" v="cliff" />
		<tag k="ssr:stedsnr" v="939553" />
	</node>
	<node lat="61.845902779084604" lon="8.851069449264452" id="-43164">
		<tag k="name" v="Byrøygard" />
		<tag k="natural" v="cliff" />
		<tag k="ssr:stedsnr" v="939554" />
	</node>
	<node lat="61.81338332963928" lon="8.803158324503283" id="-43165">
		<tag k="fixme" v="consider natural=peak for the most distinct mountains in the district" />
		<tag k="name" v="Nørdre Koppe" />
		<tag k="natural" v="hill" />
		<tag k="place" v="locality" />
		<tag k="ssr:stedsnr" v="939617" />
	</node>
	<node lat="61.8227777747243" lon="8.635224993717392" id="-43168">
		<tag k="name" v="Vamhaug" />
		<tag k="natural" v="hill" />
		<tag k="place" v="locality" />
		<tag k="ssr:stedsnr" v="939825" />
	</node>
	<node lat="61.78887222237714" lon="8.415716658917944" id="-43173">
		<tag k="name" v="Vassdalen" />
		<tag k="natural" v="valley" />
		<tag k="place" v="locality" />
		<tag k="ssr:stedsnr" v="963046" />
	</node>
	<node lat="61.77886666985304" lon="8.4142666666519" id="-43174">
		<tag k="name" v="Brengsdalen" />
		<tag k="natural" v="valley" />
		<tag k="place" v="locality" />
		<tag k="ssr:stedsnr" v="963051" />
	</node>
	<node lat="61.780761110597055" lon="8.393916665933334" id="-43175">
		<tag k="name" v="Eirikshøe" />
		<tag k="natural" v="hill" />
		<tag k="place" v="locality" />
		<tag k="ssr:stedsnr" v="963055" />
	</node>
	<node lat="61.87778333094929" lon="8.591150008642659" id="-43176">
		<tag k="name" v="Kampen" />
		<tag k="natural" v="hill" />
		<tag k="place" v="locality" />
		<tag k="ssr:stedsnr" v="963158" />
	</node>
	<node lat="61.726247223587876" lon="8.369280563942906" id="-43178">
		<tag k="name" v="Skardlie" />
		<tag k="natural" v="slope" />
		<tag k="place" v="locality" />
		<tag k="ssr:stedsnr" v="963326" />
	</node>
	<node lat="61.70458889041014" lon="8.304138886412515" id="-43180">
		<tag k="name" v="Hekkelbergje" />
		<tag k="natural" v="hill" />
		<tag k="place" v="locality" />
		<tag k="ssr:stedsnr" v="963401" />
	</node>
	<node lat="61.75643333444636" lon="8.403455564726482" id="-43182">
		<tag k="name" v="Haustolhaugen" />
		<tag k="natural" v="hill" />
		<tag k="place" v="locality" />
		<tag k="ssr:stedsnr" v="963446" />
	</node>
	<node lat="61.69059167012675" lon="8.452130546607455" id="-43183">
		<tag k="name" v="Heggjestulsbakkein" />
		<tag k="natural" v="slope" />
		<tag k="place" v="locality" />
		<tag k="ssr:stedsnr" v="963478" />
	</node>
	<node lat="61.67068610917886" lon="8.39961944954988" id="-43184">
		<tag k="name" v="Stordokkje" />
		<tag k="natural" v="valley" />
		<tag k="place" v="locality" />
		<tag k="ssr:stedsnr" v="963549" />
	</node>
	<node lat="61.67551388772969" lon="8.258405561802153" id="-43185">
		<tag k="name" v="Storgrovknubben" />
		<tag k="natural" v="ridge" />
		<tag k="place" v="locality" />
		<tag k="ssr:stedsnr" v="963744" />
	</node>
	<node lat="61.6732472209558" lon="8.20713055171662" id="-43186">
		<tag k="name" v="Gomobreinngjelet" />
		<tag k="natural" v="gorge" />
		<tag k="ssr:stedsnr" v="963750" />
	</node>
	<node lat="61.863127773413005" lon="8.703225002472244" id="-43192">
		<tag k="name" v="Hamrom" />
		<tag k="natural" v="hill" />
		<tag k="place" v="locality" />
		<tag k="ssr:stedsnr" v="963964" />
	</node>
	<node lat="61.77901667012609" lon="8.466866675078922" id="-43197">
		<tag k="name" v="Sørhovdhøe" />
		<tag k="natural" v="hill" />
		<tag k="place" v="locality" />
		<tag k="ssr:stedsnr" v="964121" />
	</node>
	<node lat="61.791872218774984" lon="8.47110555638121" id="-43199">
		<tag k="name" v="Heimskardet" />
		<tag k="natural" v="valley" />
		<tag k="place" v="locality" />
		<tag k="ssr:stedsnr" v="964125" />
	</node>
</osm>
