<?xml version="1.0" encoding="UTF-8"?>
<osm version="0.6" generator="osmapis">
	<node lat="61.492580557238135" lon="8.57816389652979" id="-40856">
		<tag k="name" v="Muru" />
		<tag k="ssr:stedsnr" v="8798" />
		<tag k="waterway" v="river" />
	</node>
	<node lat="61.839741664636236" lon="8.753905560066228" id="-40858">
		<tag k="alt_name" v="Laingsåe" />
		<tag k="name" v="Laingsåi" />
		<tag k="ssr:stedsnr" v="10005" />
		<tag k="waterway" v="stream" />
	</node>
	<node lat="61.56874444016548" lon="7.983102778401274" id="-40872">
		<tag k="name" v="Kakken" />
		<tag k="natural" v="water" />
		<tag k="ssr:stedsnr" v="10253" />
	</node>
	<node lat="61.57535000281868" lon="8.004708341824871" id="-40873">
		<tag k="name" v="Skurva" />
		<tag k="natural" v="water" />
		<tag k="ssr:stedsnr" v="10286" />
	</node>
	<node lat="61.55013333035126" lon="8.048700008790425" id="-40878">
		<tag k="name" v="Falkebergtjørni" />
		<tag k="natural" v="water" />
		<tag k="ssr:stedsnr" v="10333" />
	</node>
	<node lat="61.95481902160902" lon="8.558199658271137" id="-40882">
		<tag k="name" v="Råkåvatnet" />
		<tag k="natural" v="water" />
		<tag k="ssr:stedsnr" v="10906" />
		<tag k="water" v="lake" />
	</node>
	<node lat="61.90354722284699" lon="8.524383329137518" id="-40886">
		<tag k="name" v="Honnsjogrovi" />
		<tag k="ssr:stedsnr" v="10929" />
		<tag k="waterway" v="stream" />
	</node>
	<node lat="61.90144999809734" lon="8.549194443681008" id="-40887">
		<tag k="name" v="Buodden" />
		<tag k="natural" v="cape" />
		<tag k="ssr:stedsnr" v="10930" />
	</node>
	<node lat="61.91291944546961" lon="8.594355561807472" id="-40891">
		<tag k="name" v="Trongtjørni" />
		<tag k="natural" v="water" />
		<tag k="ssr:stedsnr" v="11924" />
	</node>
	<node lat="61.71802777788776" lon="8.373388882648177" id="-40902">
		<tag k="name" v="Bytesteingrove" />
		<tag k="ssr:stedsnr" v="235324" />
		<tag k="waterway" v="stream" />
	</node>
	<node lat="61.80431944790439" lon="8.931891660540083" id="-40906">
		<tag k="name" v="Storvikje" />
		<tag k="natural" v="bay" />
		<tag k="ssr:stedsnr" v="235471" />
	</node>
	<node lat="61.688683328905654" lon="8.165230554733618" id="-40921">
		<tag k="name" v="Purkeøya" />
		<tag k="place" v="islet" />
		<tag k="ssr:stedsnr" v="53772" />
	</node>
	<node lat="61.757616665637656" lon="8.415083335706042" id="-40923">
		<tag k="name" v="Miltjesgrøvein" />
		<tag k="ssr:stedsnr" v="54416" />
		<tag k="waterway" v="stream" />
	</node>
	<node lat="61.544522218836164" lon="8.030063880108601" id="-40931">
		<tag k="name" v="Skåli" />
		<tag k="natural" v="water" />
		<tag k="ssr:stedsnr" v="70334" />
	</node>
	<node lat="61.80966667114922" lon="8.522061102435229" id="-40933">
		<tag k="name" v="Skiftesgrovi" />
		<tag k="ssr:stedsnr" v="70226" />
		<tag k="waterway" v="stream" />
	</node>
	<node lat="61.813330554072216" lon="8.940261104037091" id="-40945">
		<tag k="name" v="Tessosen" />
		<tag k="natural" v="bay" />
		<tag k="ssr:stedsnr" v="71505" />
	</node>
	<node lat="61.93137222226985" lon="8.761938888594992" id="-40949">
		<tag k="name" v="Svarttjørni" />
		<tag k="natural" v="water" />
		<tag k="ssr:stedsnr" v="71903" />
	</node>
	<node lat="61.9196500022311" lon="8.838083341030986" id="-40950">
		<tag k="alt_name" v="Gymmergrovi, nordre" />
		<tag k="name" v="Nørdre Gymmergrove" />
		<tag k="ssr:stedsnr" v="71907" />
		<tag k="waterway" v="stream" />
	</node>
	<node lat="61.89815833620404" lon="8.778483329021608" id="-40953">
		<tag k="alt_name" v="Grøna, nordre" />
		<tag k="name" v="Nørdre Grøna" />
		<tag k="ssr:stedsnr" v="71937" />
		<tag k="waterway" v="stream" />
	</node>
	<node lat="61.786638887772554" lon="8.332336116299683" id="-40955">
		<tag k="name" v="Lenda" />
		<tag k="ssr:stedsnr" v="71992" />
		<tag k="waterway" v="stream" />
	</node>
	<node lat="61.8326416684581" lon="8.488430553738286" id="-40957">
		<tag k="name" v="Vekkjegrove" />
		<tag k="ssr:stedsnr" v="86975" />
		<tag k="waterway" v="stream" />
	</node>
	<node lat="61.74193333675676" lon="8.97788055701767" id="-40964">
		<tag k="name" v="Storvikje" />
		<tag k="natural" v="bay" />
		<tag k="ssr:stedsnr" v="102343" />
	</node>
	<node lat="61.49679999990429" lon="8.617113888840825" id="-40976">
		<tag k="name" v="Hestbekken" />
		<tag k="ssr:stedsnr" v="250770" />
		<tag k="waterway" v="stream" />
	</node>
	<node lat="61.851191669984416" lon="8.852783328609659" id="-40985">
		<tag k="name" v="Vågåvatnet" />
		<tag k="natural" v="water" />
		<tag k="ssr:stedsnr" v="252035" />
		<tag k="water" v="lake" />
	</node>
	<node lat="61.82485278117209" lon="8.771791675281913" id="-40997">
		<tag k="name" v="Kyreggbekken" />
		<tag k="ssr:stedsnr" v="252207" />
		<tag k="waterway" v="stream" />
	</node>
	<node lat="61.55163055345927" lon="8.031641664115758" id="-41001">
		<tag k="name" v="Bøvervatnet" />
		<tag k="natural" v="water" />
		<tag k="ssr:stedsnr" v="252327" />
	</node>
	<node lat="61.81232499757231" lon="8.942902776335066" id="-41002">
		<tag k="alt_name" v="Lonein" />
		<tag k="name" v="Lonin" />
		<tag k="natural" v="water" />
		<tag k="ssr:stedsnr" v="252434" />
		<tag k="water" v="lake" />
	</node>
	<node lat="61.86468055695124" lon="8.517402777565854" id="-41010">
		<tag k="alt_name" v="Staurustøye" />
		<tag k="name" v="Staurustøyi" />
		<tag k="place" v="islet" />
		<tag k="ssr:stedsnr" v="131122" />
	</node>
	<node lat="61.85710833150625" lon="8.531869438731194" id="-41018">
		<tag k="name" v="Skim" />
		<tag k="natural" v="water" />
		<tag k="ssr:stedsnr" v="131079" />
	</node>
	<node lat="61.67399999654042" lon="8.225350000028667" id="-41021">
		<tag k="name" v="Ståla" />
		<tag k="ssr:stedsnr" v="131202" />
		<tag k="waterway" v="stream" />
	</node>
	<node lat="61.578116662569336" lon="7.964674991844617" id="-41031">
		<tag k="name" v="Aurpina" />
		<tag k="natural" v="water" />
		<tag k="ssr:stedsnr" v="131290" />
	</node>
	<node lat="61.6731222207818" lon="8.819730559229395" id="-41033">
		<tag k="name" v="Veo" />
		<tag k="ssr:stedsnr" v="131922" />
		<tag k="waterway" v="river" />
	</node>
	<node lat="61.733474998023695" lon="8.859425000574506" id="-41034">
		<tag k="name" v="Veslloni" />
		<tag k="place" v="locality" />
		<tag k="ssr:stedsnr" v="131978" />
	</node>
	<node lat="61.72089166728773" lon="8.652958341831646" id="-41035">
		<tag k="name" v="Smådøla" />
		<tag k="ssr:stedsnr" v="252780" />
		<tag k="waterway" v="river" />
	</node>
	<node lat="61.979841668578004" lon="8.609780553924397" id="-41038">
		<tag k="name" v="Skardåi" />
		<tag k="ssr:stedsnr" v="132976" />
		<tag k="waterway" v="river" />
	</node>
	<node lat="61.71942560044396" lon="8.671548312133552" id="-41044">
		<tag k="name" v="Steinvatni" />
		<tag k="natural" v="water" />
		<tag k="ssr:stedsnr" v="253083" />
		<tag k="water" v="lake" />
	</node>
	<node lat="61.86802814588839" lon="8.554239657926484" id="-41048">
		<tag k="name" v="Bergetjørnin" />
		<tag k="natural" v="water" />
		<tag k="ssr:stedsnr" v="253067" />
		<tag k="water" v="lake" />
	</node>
	<node lat="61.67930278015385" lon="8.461866669155352" id="-41056">
		<tag k="name" v="Grjota" />
		<tag k="ssr:stedsnr" v="253262" />
		<tag k="waterway" v="river" />
	</node>
	<node lat="61.56753055424787" lon="7.968702774088309" id="-41060">
		<tag k="name" v="Lækja" />
		<tag k="natural" v="water" />
		<tag k="ssr:stedsnr" v="253293" />
	</node>
	<node lat="61.59213333647539" lon="7.953274991967399" id="-41062">
		<tag k="name" v="Kulpen" />
		<tag k="natural" v="water" />
		<tag k="ssr:stedsnr" v="253496" />
	</node>
	<node lat="62.01540833239853" lon="8.710374992630587" id="-41064">
		<tag k="name" v="Skjerva" />
		<tag k="ssr:stedsnr" v="253701" />
		<tag k="waterway" v="river" />
	</node>
	<node lat="61.5292000032713" lon="8.530138897474663" id="-41065">
		<tag k="name" v="Surtningssubekken" />
		<tag k="ssr:stedsnr" v="253932" />
		<tag k="waterway" v="stream" />
	</node>
	<node lat="61.738102780238655" lon="8.98732777890576" id="-41066">
		<tag k="name" v="Kalven" />
		<tag k="natural" v="bay" />
		<tag k="ssr:stedsnr" v="253943" />
	</node>
	<node lat="61.7456641067647" lon="8.96697581485094" id="-41067">
		<tag k="alt_name" v="Sørenebben" />
		<tag k="name" v="Sørånebben" />
		<tag k="natural" v="cape" />
		<tag k="ssr:stedsnr" v="253948" />
	</node>
	<node lat="61.89637778039938" lon="8.634305553832359" id="-41068">
		<tag k="alt_name" v="Lusa, vesle" />
		<tag k="name" v="Vesl-Lusa" />
		<tag k="natural" v="water" />
		<tag k="ssr:stedsnr" v="253914" />
	</node>
	<node lat="61.89170555197439" lon="8.671572213667012" id="-41069">
		<tag k="alt_name" v="Storrtjørni" />
		<tag k="name" v="Stortjønne" />
		<tag k="natural" v="water" />
		<tag k="ssr:stedsnr" v="253916" />
	</node>
	<node lat="61.81703333458347" lon="8.580694453876074" id="-41070">
		<tag k="name" v="Nørdre Fossbrekkgrove" />
		<tag k="ssr:stedsnr" v="148415" />
		<tag k="waterway" v="stream" />
	</node>
	<node lat="61.767025004063" lon="8.395241657550987" id="-41087">
		<tag k="name" v="Tunga" />
		<tag k="natural" v="cape" />
		<tag k="ssr:stedsnr" v="175414" />
	</node>
	<node lat="61.75538055505643" lon="8.45452499306458" id="-41094">
		<tag k="alt_name" v="Teppingstjørni, s;Teppingstjørni, søre;Søre Teppingstjørni" />
		<tag k="name" v="Søre Teppingje" />
		<tag k="natural" v="water" />
		<tag k="old_name" v="s Teppinge" />
		<tag k="ssr:stedsnr" v="180979" />
	</node>
	<node lat="61.83874999745107" lon="8.585916670062945" id="-41095">
		<tag k="name" v="Læsa" />
		<tag k="ssr:stedsnr" v="192010" />
		<tag k="waterway" v="stream" />
	</node>
	<node lat="61.77859166689808" lon="8.566288895073118" id="-41099">
		<tag k="name" v="Hansgrovi" />
		<tag k="ssr:stedsnr" v="206935" />
		<tag k="waterway" v="stream" />
	</node>
	<node lat="61.84377222048699" lon="8.867327777131125" id="-41103">
		<tag k="name" v="Kleivvegen" />
		<tag k="ssr:stedsnr" v="210534" />
		<tag k="waterway" v="drain" />
	</node>
	<node lat="61.822763886168886" lon="8.623480550856039" id="-41108">
		<tag k="name" v="Meadalsbekken" />
		<tag k="ssr:stedsnr" v="270396" />
		<tag k="waterway" v="stream" />
	</node>
	<node lat="61.834063889872745" lon="8.78278332693135" id="-41114">
		<tag k="name" v="Eklesætertjønne" />
		<tag k="natural" v="water" />
		<tag k="ssr:stedsnr" v="271669" />
	</node>
	<node lat="61.83218888725768" lon="8.757022227922896" id="-41118">
		<tag k="alt_name" v="Krosstjønne" />
		<tag k="name" v="Krosstjørni" />
		<tag k="natural" v="water" />
		<tag k="ssr:stedsnr" v="235033" />
	</node>
	<node lat="61.81295000301849" lon="8.457544453622036" id="-41125">
		<tag k="name" v="Styggeskryugrove" />
		<tag k="ssr:stedsnr" v="236030" />
		<tag k="waterway" v="stream" />
	</node>
	<node lat="61.815466667508666" lon="8.516166661991686" id="-41131">
		<tag k="name" v="Skiftesgrove" />
		<tag k="ssr:stedsnr" v="451187" />
		<tag k="waterway" v="stream" />
	</node>
	<node lat="61.88080000281956" lon="8.69548055702585" id="-41145">
		<tag k="alt_name" v="Sagelvi, s" />
		<tag k="name" v="Søre Sagelve" />
		<tag k="ssr:stedsnr" v="253115" />
		<tag k="waterway" v="stream" />
	</node>
	<node lat="61.55737500235777" lon="7.988669453215236" id="-41155">
		<tag k="name" v="Sleivgrovi" />
		<tag k="ssr:stedsnr" v="253315" />
		<tag k="waterway" v="stream" />
	</node>
	<node lat="61.56002777971132" lon="8.015927772413704" id="-41156">
		<tag k="name" v="Tussevatnet" />
		<tag k="natural" v="water" />
		<tag k="ssr:stedsnr" v="253319" />
	</node>
	<node lat="61.67991666688383" lon="8.023911116954984" id="-41158">
		<tag k="name" v="Høya" />
		<tag k="ssr:stedsnr" v="253511" />
		<tag k="waterway" v="river" />
	</node>
	<node lat="61.97590278206525" lon="8.826127782945873" id="-41161">
		<tag k="alt_name" v="Gjerdingåi" />
		<tag k="loc_name" v="Gjerdingåa" />
		<tag k="name" v="Gjerdingåe" />
		<tag k="ssr:stedsnr" v="253896" />
		<tag k="waterway" v="river" />
	</node>
	<node lat="61.8513194469988" lon="8.826955559570496" id="-41169">
		<tag k="name" v="Nebben" />
		<tag k="natural" v="cape" />
		<tag k="ssr:stedsnr" v="271588" />
	</node>
	<node lat="61.67334721988016" lon="8.262624998889251" id="-41170">
		<tag k="name" v="Øver Storgrovfossen" />
		<tag k="natural" v="waterfall" />
		<tag k="ssr:stedsnr" v="295727" />
	</node>
	<node lat="61.75462777609046" lon="8.94184722387458" id="-41179">
		<tag k="name" v="Bekken" />
		<tag k="ssr:stedsnr" v="464346" />
		<tag k="waterway" v="stream" />
	</node>
	<node lat="61.68118055796276" lon="8.719797213979568" id="-41195">
		<tag k="name" v="Grønbekken" />
		<tag k="ssr:stedsnr" v="313078" />
		<tag k="waterway" v="stream" />
	</node>
	<node lat="61.66908056001621" lon="8.66773888213323" id="-41206">
		<tag k="name" v="Bergenussa" />
		<tag k="ssr:stedsnr" v="313907" />
		<tag k="waterway" v="river" />
	</node>
	<node lat="61.510588886150686" lon="8.490308330887869" id="-41212">
		<tag k="name" v="Reinstindvatnet" />
		<tag k="natural" v="water" />
		<tag k="ssr:stedsnr" v="313942" />
		<tag k="water" v="lake" />
	</node>
	<node lat="61.67622221792564" lon="8.258855553252117" id="-41239">
		<tag k="name" v="Nedre Storgrovfossen" />
		<tag k="natural" v="waterfall" />
		<tag k="ssr:stedsnr" v="477749" />
	</node>
	<node lat="61.67578333207567" lon="8.232872213211534" id="-41240">
		<tag k="name" v="Bakkebergsgrove" />
		<tag k="ssr:stedsnr" v="477753" />
		<tag k="waterway" v="stream" />
	</node>
	<node lat="61.704908332387795" lon="8.229116672889038" id="-41246">
		<tag k="name" v="Kvamsvikje" />
		<tag k="natural" v="bay" />
		<tag k="ssr:stedsnr" v="477779" />
	</node>
	<node lat="61.69123888814958" lon="8.169783342617402" id="-41249">
		<tag k="name" v="Snipen" />
		<tag k="natural" v="cape" />
		<tag k="ssr:stedsnr" v="477789" />
	</node>
	<node lat="61.8647305537623" lon="8.722927783657724" id="-41265">
		<tag k="name" v="Stastjønne" />
		<tag k="natural" v="water" />
		<tag k="ssr:stedsnr" v="478951" />
	</node>
	<node lat="61.7282999990046" lon="8.836249994084838" id="-41285">
		<tag k="name" v="Langloni" />
		<tag k="place" v="locality" />
		<tag k="ssr:stedsnr" v="374090" />
	</node>
	<node lat="61.72674166536291" lon="8.708075009119542" id="-41286">
		<tag k="name" v="Tavelflybekken" />
		<tag k="ssr:stedsnr" v="374097" />
		<tag k="waterway" v="stream" />
	</node>
	<node lat="61.80361388580248" lon="8.752227773955784" id="-41287">
		<tag k="name" v="Gjerdingtjørni" />
		<tag k="natural" v="water" />
		<tag k="ssr:stedsnr" v="374214" />
	</node>
	<node lat="61.55972499980857" lon="7.984752782303098" id="-41293">
		<tag k="name" v="Rosttjørn" />
		<tag k="natural" v="water" />
		<tag k="ssr:stedsnr" v="374292" />
	</node>
	<node lat="61.79736388632887" lon="8.924644439957481" id="-41294">
		<tag k="name" v="Vassenden" />
		<tag k="natural" v="cape" />
		<tag k="ssr:stedsnr" v="374441" />
	</node>
	<node lat="61.88979722653618" lon="8.557622223158067" id="-41300">
		<tag k="alt_name" v="Kverngrovtjørni, øvre" />
		<tag k="name" v="Øvre Kverngrovtjønne" />
		<tag k="natural" v="water" />
		<tag k="ssr:stedsnr" v="374911" />
	</node>
	<node lat="61.902127781089376" lon="8.579386118767578" id="-41302">
		<tag k="name" v="Liaholmen" />
		<tag k="place" v="islet" />
		<tag k="ssr:stedsnr" v="374944" />
	</node>
	<node lat="61.9008203581542" lon="8.56246207525765" id="-41303">
		<tag k="alt_name" v="Honnsjon" />
		<tag k="loc_name" v="Honnsjøen" />
		<tag k="name" v="Honnsjoen" />
		<tag k="natural" v="water" />
		<tag k="ssr:stedsnr" v="374945" />
		<tag k="water" v="lake" />
	</node>
	<node lat="61.8187361137872" lon="8.615897224798417" id="-41310">
		<tag k="name" v="Nordstrondvassvegen" />
		<tag k="ssr:stedsnr" v="391444" />
		<tag k="waterway" v="drain" />
	</node>
	<node lat="61.85301110697873" lon="8.805116662997532" id="-41315">
		<tag k="name" v="Oddeåe" />
		<tag k="ssr:stedsnr" v="392708" />
		<tag k="waterway" v="river" />
	</node>
	<node lat="61.753305553517265" lon="8.949547214210696" id="-41320">
		<tag k="name" v="Naustervikje" />
		<tag k="natural" v="bay" />
		<tag k="ssr:stedsnr" v="403325" />
	</node>
	<node lat="61.82050277586696" lon="8.642872224558195" id="-41322">
		<tag k="alt_name" v="Svarttjønne" />
		<tag k="name" v="Svarttjørni" />
		<tag k="natural" v="water" />
		<tag k="ssr:stedsnr" v="417237" />
	</node>
	<node lat="61.689841667071434" lon="8.265147217803795" id="-41323">
		<tag k="name" v="Rausteinsanden" />
		<tag k="natural" v="beach" />
		<tag k="ssr:stedsnr" v="417390" />
	</node>
	<node lat="61.86708055666411" lon="8.853061109526138" id="-41328">
		<tag k="name" v="Nyrnesbekken" />
		<tag k="ssr:stedsnr" v="418294" />
		<tag k="waterway" v="stream" />
	</node>
	<node lat="61.48107499856392" lon="8.561305559258889" id="-41335">
		<tag k="name" v="Grunnevatnet" />
		<tag k="natural" v="water" />
		<tag k="ssr:stedsnr" v="433786" />
	</node>
	<node lat="61.508805554411545" lon="8.372686113775279" id="-41351">
		<tag k="name" v="Urdadøla" />
		<tag k="ssr:stedsnr" v="435128" />
		<tag k="waterway" v="stream" />
	</node>
	<node lat="61.7283222263475" lon="8.31136110486426" id="-41357">
		<tag k="name" v="Driva" />
		<tag k="ssr:stedsnr" v="435208" />
		<tag k="waterway" v="stream" />
	</node>
	<node lat="61.74889167109418" lon="8.36578054930588" id="-41360">
		<tag k="name" v="Storgrovi" />
		<tag k="ssr:stedsnr" v="435220" />
		<tag k="waterway" v="stream" />
	</node>
	<node lat="61.56791389206772" lon="7.997063890127104" id="-41366">
		<tag k="name" v="Trøyse" />
		<tag k="natural" v="water" />
		<tag k="ssr:stedsnr" v="435281" />
	</node>
	<node lat="61.95834166996868" lon="8.848022222371826" id="-41374">
		<tag k="name" v="Stula" />
		<tag k="ssr:stedsnr" v="436174" />
		<tag k="waterway" v="river" />
	</node>
	<node lat="61.91296388869057" lon="8.612669447092014" id="-41376">
		<tag k="name" v="Tronga" />
		<tag k="ssr:stedsnr" v="436913" />
		<tag k="waterway" v="stream" />
	</node>
	<node lat="61.77707499841476" lon="8.934594435113942" id="-41388">
		<tag k="name" v="Angrevsnebben" />
		<tag k="natural" v="cape" />
		<tag k="ssr:stedsnr" v="464359" />
	</node>
	<node lat="61.83900555692425" lon="8.761527784899107" id="-41391">
		<tag k="alt_name" v="Krossgrovi" />
		<tag k="name" v="Krossgrove" />
		<tag k="ssr:stedsnr" v="677001" />
		<tag k="waterway" v="stream" />
	</node>
	<node lat="61.83986944522052" lon="8.681858324041707" id="-41393">
		<tag k="name" v="Nysæterbekken" />
		<tag k="ssr:stedsnr" v="677007" />
		<tag k="waterway" v="stream" />
	</node>
	<node lat="61.54487778124575" lon="8.258027786350572" id="-41395">
		<tag k="name" v="Leirvatnet" />
		<tag k="natural" v="water" />
		<tag k="ssr:stedsnr" v="677018" />
		<tag k="water" v="lake" />
	</node>
	<node lat="61.714272672593616" lon="8.785528406856564" id="-41397">
		<tag k="name" v="Smådalsvatni" />
		<tag k="natural" v="water" />
		<tag k="ssr:stedsnr" v="677070" />
		<tag k="water" v="lake" />
	</node>
	<node lat="61.682561107353266" lon="8.440480555342754" id="-41402">
		<tag k="name" v="Visa" />
		<tag k="ssr:stedsnr" v="677211" />
		<tag k="waterway" v="river" />
	</node>
	<node lat="61.81384999897639" lon="8.53451944614417" id="-41407">
		<tag k="alt_name" v="Vittingi" />
		<tag k="name" v="Vittingje" />
		<tag k="ssr:stedsnr" v="677225" />
		<tag k="waterway" v="stream" />
	</node>
	<node lat="61.80896666659415" lon="8.844775002092199" id="-41410">
		<tag k="name" v="Kopptjørni" />
		<tag k="natural" v="water" />
		<tag k="ssr:stedsnr" v="677471" />
	</node>
	<node lat="61.92592777433124" lon="8.857058325261725" id="-41417">
		<tag k="alt_name" v="Gymmergrovi, s" />
		<tag k="name" v="Søre Gymmergrove" />
		<tag k="ssr:stedsnr" v="678147" />
		<tag k="waterway" v="stream" />
	</node>
	<node lat="61.55875000199659" lon="7.949588888238958" id="-41421">
		<tag k="name" v="Søla" />
		<tag k="natural" v="water" />
		<tag k="ssr:stedsnr" v="678290" />
	</node>
	<node lat="61.77687499806165" lon="8.388427783353977" id="-41423">
		<tag k="name" v="Sætergrovi" />
		<tag k="ssr:stedsnr" v="678266" />
		<tag k="waterway" v="stream" />
	</node>
	<node lat="61.93301944472555" lon="8.781622214392922" id="-41424">
		<tag k="name" v="Finna" />
		<tag k="ssr:stedsnr" v="678268" />
		<tag k="waterway" v="river" />
	</node>
	<node lat="61.92793055909583" lon="8.717280551751937" id="-41426">
		<tag k="alt_name" v="Kvitgrove" />
		<tag k="name" v="Kvitgrovi" />
		<tag k="ssr:stedsnr" v="678857" />
		<tag k="waterway" v="stream" />
	</node>
	<node lat="61.845127778784715" lon="8.728694449089755" id="-41431">
		<tag k="name" v="Prinsbekken" />
		<tag k="ssr:stedsnr" v="495003" />
		<tag k="waterway" v="stream" />
	</node>
	<node lat="61.72376111444141" lon="8.82342500728168" id="-41450">
		<tag k="name" v="Kjellarkrokan" />
		<tag k="place" v="locality" />
		<tag k="ssr:stedsnr" v="495110" />
	</node>
	<node lat="61.8865555570028" lon="8.745033340944273" id="-41451">
		<tag k="name" v="Vamba" />
		<tag k="ssr:stedsnr" v="495127" />
		<tag k="waterway" v="stream" />
	</node>
	<node lat="61.72271111301032" lon="8.10883610910595" id="-41455">
		<tag k="name" v="Geitåvatnet" />
		<tag k="natural" v="water" />
		<tag k="ssr:stedsnr" v="495183" />
	</node>
	<node lat="61.765288885594366" lon="8.940261106211427" id="-41457">
		<tag k="name" v="Kjeppen" />
		<tag k="natural" v="cape" />
		<tag k="ssr:stedsnr" v="495407" />
	</node>
	<node lat="61.78176666368152" lon="8.932683330301744" id="-41459">
		<tag k="alt_name" v="Byrtnes, søre;Søndre Byrtnes" />
		<tag k="name" v="Søre Byrtnes" />
		<tag k="natural" v="cape" />
		<tag k="ssr:stedsnr" v="495414" />
	</node>
	<node lat="61.70719722099285" lon="8.301227772193913" id="-41464">
		<tag k="name" v="Leira" />
		<tag k="ssr:stedsnr" v="495824" />
		<tag k="waterway" v="river" />
	</node>
	<node lat="61.767613889679374" lon="8.630944438299348" id="-41471">
		<tag k="name" v="Krokåi" />
		<tag k="ssr:stedsnr" v="496231" />
		<tag k="waterway" v="stream" />
	</node>
	<node lat="61.870830551639784" lon="8.800038879777748" id="-41473">
		<tag k="name" v="Jotbekken" />
		<tag k="ssr:stedsnr" v="272436" />
		<tag k="waterway" v="stream" />
	</node>
	<node lat="61.704519448773404" lon="8.234958334600089" id="-41479">
		<tag k="name" v="Osen" />
		<tag k="natural" v="bay" />
		<tag k="ssr:stedsnr" v="538768" />
	</node>
	<node lat="61.86124999694008" lon="8.529791658608854" id="-41492">
		<tag k="name" v="Bergeodden" />
		<tag k="natural" v="cape" />
		<tag k="ssr:stedsnr" v="555071" />
	</node>
	<node lat="61.858075541217715" lon="8.51020783261693" id="-41495">
		<tag k="name" v="Synstnes" />
		<tag k="natural" v="cape" />
		<tag k="ssr:stedsnr" v="555080" />
	</node>
	<node lat="61.55153611382874" lon="8.000488891787588" id="-41499">
		<tag k="name" v="Torkjellgrovi" />
		<tag k="ssr:stedsnr" v="555303" />
		<tag k="waterway" v="stream" />
	</node>
	<node lat="61.837530553502475" lon="8.671755556177335" id="-41505">
		<tag k="name" v="Vulu" />
		<tag k="ssr:stedsnr" v="556005" />
		<tag k="waterway" v="river" />
	</node>
	<node lat="61.71855000280368" lon="8.80614166768283" id="-41506">
		<tag k="name" v="Gamsen" />
		<tag k="place" v="locality" />
		<tag k="ssr:stedsnr" v="556102" />
	</node>
	<node lat="61.56373888799804" lon="8.005174991453515" id="-41508">
		<tag k="name" v="Fantesteinsvatnet" />
		<tag k="natural" v="water" />
		<tag k="ssr:stedsnr" v="556311" />
	</node>
	<node lat="61.757177774966365" lon="8.222294435234504" id="-41515">
		<tag k="alt_name" v="Runningen, søre" />
		<tag k="name" v="Søre Runningen" />
		<tag k="ssr:stedsnr" v="556977" />
		<tag k="waterway" v="stream" />
	</node>
	<node lat="61.75542500308402" lon="8.354249998156678" id="-41516">
		<tag k="name" v="Kutjørni" />
		<tag k="natural" v="water" />
		<tag k="ssr:stedsnr" v="556978" />
	</node>
	<node lat="61.76680277779269" lon="8.940266659481486" id="-41530">
		<tag k="name" v="Blakken" />
		<tag k="natural" v="cape" />
		<tag k="ssr:stedsnr" v="585307" />
	</node>
	<node lat="61.76052500347453" lon="8.944016671294081" id="-41531">
		<tag k="name" v="Søre Spakroe" />
		<tag k="natural" v="bay" />
		<tag k="ssr:stedsnr" v="585309" />
	</node>
	<node lat="61.772002775284605" lon="8.963772226205565" id="-41532">
		<tag k="name" v="Steindjupet" />
		<tag k="natural" v="bay" />
		<tag k="ssr:stedsnr" v="585310" />
	</node>
	<node lat="61.859169443962585" lon="8.80145833493388" id="-41534">
		<tag k="name" v="Skomakervikje" />
		<tag k="natural" v="bay" />
		<tag k="ssr:stedsnr" v="696498" />
	</node>
	<node lat="61.706974995788705" lon="8.198141659430037" id="-41545">
		<tag k="name" v="Grønkrok" />
		<tag k="natural" v="beach" />
		<tag k="ssr:stedsnr" v="599573" />
	</node>
	<node lat="61.79923333407923" lon="8.424769452062263" id="-41547">
		<tag k="name" v="Stordalsgrove" />
		<tag k="ssr:stedsnr" v="599755" />
		<tag k="waterway" v="stream" />
	</node>
	<node lat="61.8810694455157" lon="8.748730559922317" id="-41557">
		<tag k="name" v="Styggedalsbekken" />
		<tag k="ssr:stedsnr" v="616102" />
		<tag k="waterway" v="stream" />
	</node>
	<node lat="61.57297222668921" lon="7.984055550590804" id="-41567">
		<tag k="name" v="Såi" />
		<tag k="natural" v="water" />
		<tag k="ssr:stedsnr" v="616292" />
	</node>
	<node lat="61.7667472187938" lon="8.89059444949061" id="-41568">
		<tag k="loc_name" v="Sylvetjønne" />
		<tag k="name" v="Sylvetjørni" />
		<tag k="natural" v="water" />
		<tag k="ssr:stedsnr" v="616407" />
	</node>
	<node lat="61.63276111319361" lon="8.604305562184184" id="-41574">
		<tag k="name" v="Glitterbekken" />
		<tag k="ssr:stedsnr" v="616922" />
		<tag k="waterway" v="stream" />
	</node>
	<node lat="61.66052777647007" lon="8.712849992710316" id="-41575">
		<tag k="name" v="Veslkjølbekken" />
		<tag k="ssr:stedsnr" v="616898" />
		<tag k="waterway" v="stream" />
	</node>
	<node lat="61.7724249980023" lon="8.366113893989933" id="-41584">
		<tag k="name" v="Sula" />
		<tag k="ssr:stedsnr" v="617287" />
		<tag k="waterway" v="river" />
	</node>
	<node lat="61.771327777491905" lon="8.452933328417735" id="-41585">
		<tag k="name" v="Glåma" />
		<tag k="ssr:stedsnr" v="617288" />
		<tag k="waterway" v="river" />
	</node>
	<node lat="61.74304166800299" lon="8.851558332260568" id="-41590">
		<tag k="alt_name" v="Grjotåi, nedre" />
		<tag k="name" v="Nedre Grjotåi" />
		<tag k="ssr:stedsnr" v="617932" />
		<tag k="waterway" v="river" />
	</node>
	<node lat="61.77913889330368" lon="8.280049999830165" id="-41592">
		<tag k="name" v="Stugujordselvi" />
		<tag k="ssr:stedsnr" v="617989" />
		<tag k="waterway" v="stream" />
	</node>
	<node lat="61.842788884946465" lon="8.496152781636424" id="-41599">
		<tag k="name" v="Knutstugugrove" />
		<tag k="ssr:stedsnr" v="633982" />
		<tag k="waterway" v="stream" />
	</node>
	<node lat="61.85270832910616" lon="8.699111106244004" id="-41606">
		<tag k="name" v="Ulstjønne" />
		<tag k="natural" v="water" />
		<tag k="ssr:stedsnr" v="635743" />
	</node>
	<node lat="61.764480551313476" lon="8.942572229214004" id="-41608">
		<tag k="name" v="Kjeppvikje" />
		<tag k="natural" v="bay" />
		<tag k="ssr:stedsnr" v="645325" />
	</node>
	<node lat="61.77264444429075" lon="8.936202773060234" id="-41609">
		<tag k="name" v="Raustein" />
		<tag k="natural" v="bay" />
		<tag k="ssr:stedsnr" v="645328" />
	</node>
	<node lat="61.77458055368034" lon="8.934361102792701" id="-41610">
		<tag k="name" v="Nykastet" />
		<tag k="natural" v="cape" />
		<tag k="ssr:stedsnr" v="707369" />
	</node>
	<node lat="61.74971389116942" lon="8.94800555289221" id="-41612">
		<tag k="name" v="Dågåtjønne" />
		<tag k="natural" v="water" />
		<tag k="ssr:stedsnr" v="707354" />
	</node>
	<node lat="61.867063885656606" lon="8.54785000935904" id="-41616">
		<tag k="name" v="Nedre Bergetjønne" />
		<tag k="natural" v="water" />
		<tag k="ssr:stedsnr" v="660133" />
	</node>
	<node lat="61.561591668508214" lon="8.186891668311903" id="-41622">
		<tag k="name" v="Tverrbyttbekken" />
		<tag k="ssr:stedsnr" v="677003" />
		<tag k="waterway" v="stream" />
	</node>
	<node lat="61.730700003839104" lon="8.631777771157868" id="-41628">
		<tag k="name" v="Langstilla" />
		<tag k="ssr:stedsnr" v="677093" />
		<tag k="waterway" v="river" />
	</node>
	<node lat="61.692763891112484" lon="8.178111111955257" id="-41632">
		<tag k="name" v="Dalsvatnet" />
		<tag k="natural" v="water" />
		<tag k="ssr:stedsnr" v="677231" />
	</node>
	<node lat="61.73322778203419" lon="8.618555564758115" id="-41635">
		<tag k="name" v="Nonshøbekken" />
		<tag k="ssr:stedsnr" v="677106" />
		<tag k="waterway" v="stream" />
	</node>
	<node lat="61.64274444476951" lon="8.073719445021135" id="-41640">
		<tag k="alt_name" v="Bøvertonvatnet" />
		<tag k="name" v="Bøvertunvatnet" />
		<tag k="natural" v="water" />
		<tag k="ssr:stedsnr" v="677428" />
		<tag k="water" v="lake" />
	</node>
	<node lat="61.59959099121499" lon="7.980100213813594" id="-41641">
		<tag k="name" v="Turru" />
		<tag k="natural" v="water" />
		<tag k="ssr:stedsnr" v="677442" />
	</node>
	<node lat="61.89381110704929" lon="8.575030560452676" id="-41645">
		<tag k="alt_name" v="Mefjellstjørni" />
		<tag k="name" v="Mefjellstjønne" />
		<tag k="natural" v="water" />
		<tag k="ssr:stedsnr" v="677918" />
	</node>
	<node lat="61.885627779619625" lon="8.550302771674168" id="-41646">
		<tag k="alt_name" v="Kverngrovtjørni, nedre" />
		<tag k="name" v="Nedre Kverngrovtjønne" />
		<tag k="natural" v="water" />
		<tag k="ssr:stedsnr" v="677919" />
	</node>
	<node lat="61.90481663799044" lon="8.76738651901249" id="-41648">
		<tag k="loc_name" v="Vikateppingje" />
		<tag k="name" v="Vikateppingi" />
		<tag k="natural" v="water" />
		<tag k="ssr:stedsnr" v="677939" />
	</node>
	<node lat="61.82585555498528" lon="8.845738881968012" id="-41667">
		<tag k="name" v="Søre Kleppdalsbekken" />
		<tag k="ssr:stedsnr" v="696578" />
		<tag k="waterway" v="stream" />
	</node>
	<node lat="61.85975277470214" lon="8.710752786372904" id="-41673">
		<tag k="name" v="Kollaneset" />
		<tag k="natural" v="cape" />
		<tag k="ssr:stedsnr" v="903954" />
	</node>
	<node lat="61.82059444187705" lon="8.622266660364264" id="-41677">
		<tag k="alt_name" v="Labbetjønnen" />
		<tag k="name" v="Labbetjørnin" />
		<tag k="natural" v="water" />
		<tag k="ssr:stedsnr" v="720240" />
		<tag k="water" v="lake" />
	</node>
	<node lat="61.87959444036805" lon="8.788577778721093" id="-41680">
		<tag k="name" v="Svarttjønne" />
		<tag k="natural" v="water" />
		<tag k="ssr:stedsnr" v="721278" />
	</node>
	<node lat="61.87254722466832" lon="8.523438884188824" id="-41697">
		<tag k="alt_name" v="Kvenngrove;Kverngrove" />
		<tag k="name" v="Kverngrovi" />
		<tag k="ssr:stedsnr" v="738111" />
		<tag k="waterway" v="stream" />
	</node>
	<node lat="61.73186388680303" lon="8.431636115644286" id="-41698">
		<tag k="name" v="Lauva" />
		<tag k="ssr:stedsnr" v="738166" />
		<tag k="waterway" v="stream" />
	</node>
	<node lat="61.694622222795104" lon="8.228508334624298" id="-41713">
		<tag k="name" v="Øvre Teppingstjønne" />
		<tag k="natural" v="water" />
		<tag k="ssr:stedsnr" v="902767" />
	</node>
	<node lat="61.82378333338847" lon="8.455172216882739" id="-41714">
		<tag k="name" v="Bordvassvegen" />
		<tag k="ssr:stedsnr" v="739951" />
		<tag k="waterway" v="stream" />
	</node>
	<node lat="61.65755833710962" lon="8.068313879406544" id="-41736">
		<tag k="name" v="Felodden" />
		<tag k="natural" v="cape" />
		<tag k="ssr:stedsnr" v="904674" />
	</node>
	<node lat="61.8321166711145" lon="8.503091675634602" id="-41740">
		<tag k="name" v="Herabotta" />
		<tag k="ssr:stedsnr" v="754958" />
		<tag k="waterway" v="stream" />
	</node>
	<node lat="61.826702776108775" lon="8.833777784946092" id="-41743">
		<tag k="name" v="Nørdre Kleppdalsbekken" />
		<tag k="ssr:stedsnr" v="756600" />
		<tag k="waterway" v="stream" />
	</node>
	<node lat="61.625330557228835" lon="8.414838883081625" id="-41752">
		<tag k="name" v="Spitra" />
		<tag k="ssr:stedsnr" v="782466" />
		<tag k="waterway" v="stream" />
	</node>
	<node lat="61.657183330917285" lon="7.966366662949859" id="-41758">
		<tag k="alt_name" v="Tverrbytne" />
		<tag k="name" v="Tverrbytna" />
		<tag k="ssr:stedsnr" v="798450" />
		<tag k="waterway" v="stream" />
	</node>
	<node lat="61.56413610733682" lon="8.391127779026226" id="-41759">
		<tag k="name" v="Urdadalsbekken" />
		<tag k="ssr:stedsnr" v="799003" />
		<tag k="waterway" v="stream" />
	</node>
	<node lat="61.87085000267903" lon="8.531505557586843" id="-41765">
		<tag k="alt_name" v="Storåe" />
		<tag k="name" v="Storåi" />
		<tag k="ssr:stedsnr" v="799107" />
		<tag k="waterway" v="stream" />
	</node>
	<node lat="61.80164722602252" lon="8.815769448309462" id="-41770">
		<tag k="name" v="Erløken" />
		<tag k="ssr:stedsnr" v="799198" />
		<tag k="waterway" v="stream" />
	</node>
	<node lat="61.59109765834227" lon="7.99551223829383" id="-41771">
		<tag k="name" v="Skuggevatnet" />
		<tag k="natural" v="water" />
		<tag k="ssr:stedsnr" v="799305" />
	</node>
	<node lat="61.558038885733545" lon="7.980066668498049" id="-41779">
		<tag k="name" v="Spongi" />
		<tag k="natural" v="water" />
		<tag k="ssr:stedsnr" v="799291" />
	</node>
	<node lat="61.85212499963903" lon="8.873480556526149" id="-41780">
		<tag k="name" v="Nyrnesodden" />
		<tag k="natural" v="cape" />
		<tag k="ssr:stedsnr" v="799300" />
	</node>
	<node lat="61.78606666853748" lon="8.45930832633027" id="-41786">
		<tag k="alt_name" v="Hestberggrove" />
		<tag k="name" v="Hestberggrovi" />
		<tag k="ssr:stedsnr" v="799991" />
		<tag k="waterway" v="stream" />
	</node>
	<node lat="61.479063885713444" lon="8.575713891315075" id="-41795">
		<tag k="name" v="Ånde" />
		<tag k="natural" v="water" />
		<tag k="ssr:stedsnr" v="918825" />
	</node>
	<node lat="61.8657583349534" lon="8.502291672035522" id="-41809">
		<tag k="alt_name" v="Bakkeøye" />
		<tag k="name" v="Bakkeøyi" />
		<tag k="place" v="islet" />
		<tag k="ssr:stedsnr" v="920126" />
	</node>
	<node lat="61.86974444209421" lon="8.731047224746002" id="-41810">
		<tag k="alt_name" v="Vamtjørni" />
		<tag k="name" v="Vamtjønne" />
		<tag k="natural" v="water" />
		<tag k="ssr:stedsnr" v="920129" />
	</node>
	<node lat="61.85411110990859" lon="8.59815276997501" id="-41817">
		<tag k="alt_name" v="Geitøyi" />
		<tag k="name" v="Geitøye" />
		<tag k="place" v="islet" />
		<tag k="ssr:stedsnr" v="920081" />
	</node>
	<node lat="61.86851110709551" lon="8.82287778011636" id="-41820">
		<tag k="name" v="Veldra" />
		<tag k="ssr:stedsnr" v="920090" />
		<tag k="waterway" v="stream" />
	</node>
	<node lat="61.74783055978234" lon="8.243761116289358" id="-41821">
		<tag k="name" v="Rudningi" />
		<tag k="ssr:stedsnr" v="920174" />
		<tag k="waterway" v="stream" />
	</node>
	<node lat="61.651549996074856" lon="8.64512500794815" id="-41822">
		<tag k="name" v="Gråsubekken" />
		<tag k="ssr:stedsnr" v="920897" />
		<tag k="waterway" v="stream" />
	</node>
	<node lat="61.87889722604137" lon="8.591897228858564" id="-41824">
		<tag k="alt_name" v="Kampetjørni" />
		<tag k="name" v="Kampetjønne" />
		<tag k="natural" v="water" />
		<tag k="ssr:stedsnr" v="920930" />
	</node>
	<node lat="61.55590555659943" lon="7.985136120356103" id="-41830">
		<tag k="name" v="Gilkjeret" />
		<tag k="natural" v="water" />
		<tag k="ssr:stedsnr" v="920272" />
	</node>
	<node lat="61.79933055755459" lon="8.876444439879759" id="-41831">
		<tag k="alt_name" v="Torfinna, nordre" />
		<tag k="name" v="Nørdre Torfinna" />
		<tag k="ssr:stedsnr" v="920435" />
		<tag k="waterway" v="stream" />
	</node>
	<node lat="61.74302777608518" lon="8.961377770949744" id="-41846">
		<tag k="name" v="Meløken" />
		<tag k="ssr:stedsnr" v="830342" />
		<tag k="waterway" v="stream" />
	</node>
	<node lat="61.73408610874873" lon="8.295922217911592" id="-41864">
		<tag k="name" v="Brustugugrove" />
		<tag k="ssr:stedsnr" v="843474" />
		<tag k="waterway" v="stream" />
	</node>
	<node lat="61.86314166701251" lon="8.802419445765958" id="-41873">
		<tag k="name" v="Sagodden" />
		<tag k="natural" v="cape" />
		<tag k="ssr:stedsnr" v="859079" />
	</node>
	<node lat="61.71747499978834" lon="8.685566665154523" id="-41886">
		<tag k="name" v="Langloni" />
		<tag k="place" v="locality" />
		<tag k="ssr:stedsnr" v="860106" />
	</node>
	<node lat="61.87705000414638" lon="8.6335277851311" id="-41887">
		<tag k="alt_name" v="Åsteppingje" />
		<tag k="name" v="Åsteppingi" />
		<tag k="natural" v="water" />
		<tag k="ssr:stedsnr" v="860113" />
	</node>
	<node lat="61.55622222360744" lon="7.977413879441026" id="-41892">
		<tag k="name" v="Kaggen" />
		<tag k="natural" v="water" />
		<tag k="ssr:stedsnr" v="860315" />
	</node>
	<node lat="61.61708889267937" lon="8.161075003303505" id="-41894">
		<tag k="name" v="Hurra" />
		<tag k="ssr:stedsnr" v="860065" />
		<tag k="waterway" v="stream" />
	</node>
	<node lat="61.89619166317147" lon="8.80163610685614" id="-41906">
		<tag k="alt_name" v="Grøna, s" />
		<tag k="name" v="Søre Grøna" />
		<tag k="ssr:stedsnr" v="860924" />
		<tag k="waterway" v="stream" />
	</node>
	<node lat="61.886513892948614" lon="8.627536116346652" id="-41925">
		<tag k="alt_name" v="Veslteppingi, nordre" />
		<tag k="name" v="Nørdre Veslteppingje" />
		<tag k="natural" v="water" />
		<tag k="ssr:stedsnr" v="920116" />
	</node>
	<node lat="61.87604999966613" lon="8.814905558117907" id="-41926">
		<tag k="alt_name" v="Helga, s;Helga" />
		<tag k="name" v="Søre Helga" />
		<tag k="ssr:stedsnr" v="920122" />
		<tag k="waterway" v="stream" />
	</node>
	<node lat="61.71066666422144" lon="8.232222220689698" id="-41930">
		<tag k="alt_name" v="Kveinndalsgrove" />
		<tag k="name" v="Kverndalsgrovi" />
		<tag k="ssr:stedsnr" v="920151" />
		<tag k="waterway" v="stream" />
	</node>
	<node lat="61.54761388902208" lon="8.30565833068427" id="-41935">
		<tag k="name" v="Panna" />
		<tag k="natural" v="water" />
		<tag k="ssr:stedsnr" v="920010" />
	</node>
	<node lat="61.86505555116291" lon="8.732669439203315" id="-41948">
		<tag k="name" v="Otta" />
		<tag k="ssr:stedsnr" v="920504" />
		<tag k="waterway" v="river" />
	</node>
	<node lat="61.67809159811042" lon="7.9342891418376835" id="-41952">
		<tag k="name" v="Merrahøvatnet" />
		<tag k="natural" v="water" />
		<tag k="ssr:stedsnr" v="920446" />
		<tag k="water" v="lake" />
	</node>
	<node lat="61.894619446499306" lon="8.662638888157094" id="-41956">
		<tag k="alt_name" v="Storteppingi, søre" />
		<tag k="name" v="Søre Storteppingje" />
		<tag k="natural" v="water" />
		<tag k="ssr:stedsnr" v="920917" />
	</node>
	<node lat="61.77374712545578" lon="8.238677859260015" id="-41958">
		<tag k="name" v="Sultjørnin" />
		<tag k="natural" v="water" />
		<tag k="ssr:stedsnr" v="920987" />
		<tag k="water" v="lake" />
	</node>
	<node lat="61.7801999958378" lon="8.367433340115866" id="-41959">
		<tag k="name" v="Fjellgrovi" />
		<tag k="ssr:stedsnr" v="920991" />
		<tag k="waterway" v="stream" />
	</node>
	<node lat="61.77580555896193" lon="8.435263890473456" id="-41961">
		<tag k="alt_name" v="Svarttjørni" />
		<tag k="name" v="Svarttjønne" />
		<tag k="natural" v="water" />
		<tag k="ssr:stedsnr" v="920999" />
	</node>
	<node lat="61.74400833363526" lon="8.318075007011462" id="-41973">
		<tag k="name" v="Søre Driva" />
		<tag k="ssr:stedsnr" v="963290" />
		<tag k="waterway" v="stream" />
	</node>
	<node lat="61.79895833572557" lon="8.92586389380984" id="-41979">
		<tag k="name" v="Vassenden" />
		<tag k="natural" v="bay" />
		<tag k="ssr:stedsnr" v="963490" />
	</node>
	<node lat="61.70948889053365" lon="8.174344438400974" id="-41982">
		<tag k="name" v="Håleinna" />
		<tag k="ssr:stedsnr" v="963635" />
		<tag k="waterway" v="stream" />
	</node>
	<node lat="61.80838055532944" lon="8.49079999053027" id="-41984">
		<tag k="name" v="Øygardsgrove" />
		<tag k="ssr:stedsnr" v="964036" />
		<tag k="waterway" v="stream" />
	</node>
	<node lat="61.873205557586104" lon="8.590908333105725" id="-42002">
		<tag k="alt_name" v="Svarttjønne" />
		<tag k="name" v="Svarttjørnin" />
		<tag k="natural" v="water" />
		<tag k="ssr:stedsnr" v="10108" />
		<tag k="water" v="lake" />
	</node>
	<node lat="61.87853888910263" lon="8.68011943753514" id="-42007">
		<tag k="name" v="Dyrmyrtjørni" />
		<tag k="natural" v="water" />
		<tag k="ssr:stedsnr" v="10133" />
	</node>
	<node lat="61.661505555205835" lon="8.459633337568974" id="-42009">
		<tag k="name" v="Glitra" />
		<tag k="ssr:stedsnr" v="10198" />
		<tag k="waterway" v="river" />
	</node>
	<node lat="61.6822611102886" lon="8.404416663580845" id="-42012">
		<tag k="alt_name" v="Løyfte" />
		<tag k="name" v="Gudda" />
		<tag k="ssr:stedsnr" v="10228" />
		<tag k="waterway" v="stream" />
	</node>
	<node lat="61.559419448549725" lon="8.02150555609836" id="-42014">
		<tag k="name" v="Skolven" />
		<tag k="natural" v="water" />
		<tag k="ssr:stedsnr" v="10267" />
	</node>
	<node lat="61.59314166368366" lon="8.017591660358034" id="-42016">
		<tag k="name" v="Nufsvatnet" />
		<tag k="natural" v="water" />
		<tag k="ssr:stedsnr" v="10275" />
	</node>
	<node lat="61.83676388824046" lon="8.798763880671013" id="-42019">
		<tag k="alt_name" v="Gjerdingi;Gjelingje" />
		<tag k="name" v="Gjerdingje" />
		<tag k="ssr:stedsnr" v="10028" />
		<tag k="waterway" v="river" />
	</node>
	<node lat="61.86913611477097" lon="8.74751666936596" id="-42027">
		<tag k="alt_name" v="Ytterviki" />
		<tag k="name" v="Yttervikje" />
		<tag k="natural" v="bay" />
		<tag k="ssr:stedsnr" v="10075" />
	</node>
	<node lat="61.714613886718965" lon="8.738352774163868" id="-42030">
		<tag k="name" v="Veslvatnet" />
		<tag k="natural" v="water" />
		<tag k="ssr:stedsnr" v="10080" />
	</node>
	<node lat="61.75766666444222" lon="8.89634721855353" id="-42035">
		<tag k="name" v="Sylva" />
		<tag k="ssr:stedsnr" v="10388" />
		<tag k="waterway" v="river" />
	</node>
	<node lat="61.616841069415045" lon="7.962875298980077" id="-42039">
		<tag k="name" v="Storevatnet" />
		<tag k="natural" v="water" />
		<tag k="ssr:stedsnr" v="10429" />
		<tag k="water" v="lake" />
	</node>
	<node lat="61.77982126676787" lon="8.53590714067376" id="-42044">
		<tag k="name" v="Klimpetjørnin" />
		<tag k="natural" v="water" />
		<tag k="ssr:stedsnr" v="11195" />
		<tag k="water" v="lake" />
	</node>
	<node lat="61.75644166275406" lon="8.836799996417696" id="-42046">
		<tag k="alt_name" v="Grjotåi, nedre" />
		<tag k="name" v="Nedre Grjotåi" />
		<tag k="ssr:stedsnr" v="11150" />
		<tag k="waterway" v="stream" />
	</node>
	<node lat="61.80337777994898" lon="8.42433889391797" id="-42049">
		<tag k="alt_name" v="Storåe" />
		<tag k="name" v="Storåi" />
		<tag k="ssr:stedsnr" v="11940" />
		<tag k="waterway" v="stream" />
	</node>
	<node lat="61.85179444494328" lon="8.553658331759275" id="-42062">
		<tag k="name" v="Tronoodden" />
		<tag k="natural" v="cape" />
		<tag k="ssr:stedsnr" v="28453" />
	</node>
	<node lat="61.84267222527682" lon="8.676150000678822" id="-42064">
		<tag k="name" v="Sørstrondvassvegen" />
		<tag k="ssr:stedsnr" v="28838" />
		<tag k="waterway" v="drain" />
	</node>
	<node lat="61.75810000363341" lon="8.944219439069988" id="-42069">
		<tag k="name" v="Tuva" />
		<tag k="natural" v="cape" />
		<tag k="ssr:stedsnr" v="39283" />
	</node>
	<node lat="61.761894447132434" lon="8.94290554731324" id="-42070">
		<tag k="name" v="Nørdre Spakroe" />
		<tag k="natural" v="bay" />
		<tag k="ssr:stedsnr" v="39293" />
	</node>
	<node lat="61.668066670416096" lon="8.132511105046811" id="-42072">
		<tag k="name" v="Høyfossen" />
		<tag k="natural" v="waterfall" />
		<tag k="ssr:stedsnr" v="54695" />
	</node>
	<node lat="61.80059444641145" lon="8.918630563438557" id="-42078">
		<tag k="name" v="Gamelilva" />
		<tag k="ssr:stedsnr" v="53459" />
		<tag k="waterway" v="stream" />
	</node>
	<node lat="61.49683888804629" lon="8.358074996301486" id="-42098">
		<tag k="name" v="Langvatnet" />
		<tag k="natural" v="water" />
		<tag k="ssr:stedsnr" v="68865" />
		<tag k="water" v="lake" />
	</node>
	<node lat="61.56780000171468" lon="8.309950007377731" id="-42100">
		<tag k="name" v="Tverrbytna" />
		<tag k="ssr:stedsnr" v="70023" />
		<tag k="waterway" v="stream" />
	</node>
	<node lat="61.717475000730424" lon="8.695991658536663" id="-42122">
		<tag k="name" v="Storkroken" />
		<tag k="place" v="locality" />
		<tag k="ssr:stedsnr" v="71061" />
	</node>
	<node lat="61.80496388475029" lon="8.63598055966091" id="-42127">
		<tag k="name" v="Syngjarbekken" />
		<tag k="ssr:stedsnr" v="71217" />
		<tag k="waterway" v="stream" />
	</node>
	<node lat="61.66519722006759" lon="8.117688886366546" id="-42128">
		<tag k="name" v="Holmen" />
		<tag k="place" v="islet" />
		<tag k="ssr:stedsnr" v="71229" />
	</node>
	<node lat="61.55909167030068" lon="7.9497444462544555" id="-42138">
		<tag k="name" v="Panna" />
		<tag k="natural" v="water" />
		<tag k="ssr:stedsnr" v="71288" />
	</node>
	<node lat="61.745172222278526" lon="8.975477782228376" id="-42141">
		<tag k="name" v="Tesse" />
		<tag k="natural" v="water" />
		<tag k="ssr:stedsnr" v="71964" />
		<tag k="water" v="lake" />
	</node>
	<node lat="61.767191669137176" lon="8.279077777093432" id="-42142">
		<tag k="name" v="Langsula" />
		<tag k="ssr:stedsnr" v="71997" />
		<tag k="waterway" v="river" />
	</node>
	<node lat="61.83875277883232" lon="8.831369445760632" id="-42148">
		<tag k="name" v="Kleppdalsbekken" />
		<tag k="ssr:stedsnr" v="89570" />
		<tag k="waterway" v="stream" />
	</node>
	<node lat="61.837016666910195" lon="8.57969999724295" id="-42150">
		<tag k="name" v="Vittingsvassvegen" />
		<tag k="ssr:stedsnr" v="89270" />
		<tag k="waterway" v="drain" />
	</node>
	<node lat="61.68605277918767" lon="8.263386116430826" id="-42170">
		<tag k="name" v="Arnegrove" />
		<tag k="ssr:stedsnr" v="114744" />
		<tag k="waterway" v="stream" />
	</node>
	<node lat="61.8260388924531" lon="8.643713884151202" id="-42177">
		<tag k="alt_name" v="Sålellsbekken" />
		<tag k="name" v="Meadalsbekken" />
		<tag k="ssr:stedsnr" v="131030" />
		<tag k="waterway" v="stream" />
	</node>
	<node lat="61.84488333711117" lon="8.7150583384871" id="-42183">
		<tag k="alt_name" v="Smørgrovi" />
		<tag k="name" v="Smørgrove" />
		<tag k="ssr:stedsnr" v="131064" />
		<tag k="waterway" v="stream" />
	</node>
	<node lat="61.684627774064566" lon="8.86009722755008" id="-42206">
		<tag k="name" v="Rindbekken" />
		<tag k="ssr:stedsnr" v="131993" />
		<tag k="waterway" v="stream" />
	</node>
	<node lat="61.62392917957601" lon="8.600953014446812" id="-42210">
		<tag k="alt_name" v="Steinbuvatnet, nedre;Steinbuvatnet" />
		<tag k="name" v="Nedre Steinbuvatnet" />
		<tag k="natural" v="water" />
		<tag k="ssr:stedsnr" v="131933" />
		<tag k="water" v="lake" />
	</node>
	<node lat="61.89520833285355" lon="8.527158331666113" id="-42213">
		<tag k="alt_name" v="Tjørnin, s" />
		<tag k="name" v="Søre Tjørnin" />
		<tag k="natural" v="water" />
		<tag k="ssr:stedsnr" v="131950" />
	</node>
	<node lat="61.791952773717526" lon="8.835816666500389" id="-42217">
		<tag k="name" v="Ilva" />
		<tag k="ssr:stedsnr" v="132192" />
		<tag k="waterway" v="river" />
	</node>
	<node lat="61.915774996903785" lon="8.559761111027909" id="-42219">
		<tag k="loc_name" v="Fjellokra" />
		<tag k="name" v="Fjellåkkra" />
		<tag k="ssr:stedsnr" v="132876" />
		<tag k="waterway" v="stream" />
	</node>
	<node lat="61.91504185868235" lon="8.59609573891493" id="-42221">
		<tag k="loc_name" v="Lokkertjønne" />
		<tag k="name" v="Låkkertjørni" />
		<tag k="natural" v="water" />
		<tag k="ssr:stedsnr" v="132882" />
	</node>
	<node lat="61.750355559167126" lon="8.953583338292926" id="-42237">
		<tag k="name" v="Dågåtjønnvikje" />
		<tag k="natural" v="bay" />
		<tag k="ssr:stedsnr" v="160308" />
	</node>
	<node lat="61.76869444673818" lon="8.938972221793692" id="-42238">
		<tag k="name" v="Vikje" />
		<tag k="natural" v="bay" />
		<tag k="ssr:stedsnr" v="160309" />
	</node>
	<node lat="61.74661666870261" lon="8.963147218458767" id="-42239">
		<tag k="name" v="Steinvikje" />
		<tag k="natural" v="bay" />
		<tag k="ssr:stedsnr" v="162369" />
	</node>
	<node lat="61.720699997846914" lon="8.311944439917868" id="-42249">
		<tag k="name" v="Hynngrove" />
		<tag k="ssr:stedsnr" v="175319" />
		<tag k="waterway" v="stream" />
	</node>
	<node lat="61.71408611484959" lon="8.458644444395818" id="-42266">
		<tag k="name" v="Gokra" />
		<tag k="ssr:stedsnr" v="192159" />
		<tag k="waterway" v="stream" />
	</node>
	<node lat="61.72163610953518" lon="8.214541674023318" id="-42270">
		<tag k="name" v="Stula" />
		<tag k="ssr:stedsnr" v="192176" />
		<tag k="waterway" v="stream" />
	</node>
	<node lat="61.84856388656013" lon="8.57441667482692" id="-42278">
		<tag k="alt_name" v="Ulvestuguodden" />
		<tag k="name" v="Tronoodden" />
		<tag k="natural" v="cape" />
		<tag k="ssr:stedsnr" v="192042" />
	</node>
	<node lat="61.69975555838228" lon="8.48057777783219" id="-42292">
		<tag k="name" v="Smiugjela" />
		<tag k="ssr:stedsnr" v="192076" />
		<tag k="waterway" v="river" />
	</node>
	<node lat="61.86737777577009" lon="8.570566659648138" id="-42293">
		<tag k="alt_name" v="Grjotheimstjørni, nedre" />
		<tag k="name" v="Nedre Grjotheimstjønne" />
		<tag k="natural" v="water" />
		<tag k="ssr:stedsnr" v="192084" />
	</node>
	<node lat="61.695558336056436" lon="8.253130563451649" id="-42308">
		<tag k="alt_name" v="Nibbetjørni" />
		<tag k="name" v="Nibbetjønne" />
		<tag k="natural" v="water" />
		<tag k="ssr:stedsnr" v="192256" />
	</node>
	<node lat="61.769469444765015" lon="8.448719435447728" id="-42310">
		<tag k="alt_name" v="Storgrove" />
		<tag k="name" v="Storgrovi" />
		<tag k="ssr:stedsnr" v="192270" />
		<tag k="waterway" v="stream" />
	</node>
	<node lat="61.57007222102319" lon="7.982947221324794" id="-42311">
		<tag k="alt_name" v="Silen" />
		<tag k="name" v="Øskja" />
		<tag k="natural" v="water" />
		<tag k="ssr:stedsnr" v="192279" />
	</node>
	<node lat="61.55498889003401" lon="8.004550008910467" id="-42313">
		<tag k="name" v="Trollauga" />
		<tag k="natural" v="water" />
		<tag k="ssr:stedsnr" v="192296" />
	</node>
	<node lat="61.75169999870659" lon="8.95083611234437" id="-42317">
		<tag k="name" v="Volnebben" />
		<tag k="natural" v="cape" />
		<tag k="ssr:stedsnr" v="192428" />
	</node>
	<node lat="61.69545277697204" lon="7.945316660643636" id="-42319">
		<tag k="name" v="Svartdalsvatnet" />
		<tag k="natural" v="water" />
		<tag k="ssr:stedsnr" v="192501" />
		<tag k="water" v="lake" />
	</node>
	<node lat="61.66250833223823" lon="8.702875003229147" id="-42325">
		<tag k="name" v="Bergenussøyin" />
		<tag k="place" v="island" />
		<tag k="ssr:stedsnr" v="192903" />
	</node>
	<node lat="61.95805555769657" lon="8.708363886390439" id="-42339">
		<tag k="alt_name" v="Brettingje" />
		<tag k="name" v="Brettingi" />
		<tag k="ssr:stedsnr" v="193895" />
		<tag k="waterway" v="river" />
	</node>
	<node lat="61.8266805558483" lon="8.485619435374407" id="-42346">
		<tag k="name" v="Aukrustgrøvein" />
		<tag k="ssr:stedsnr" v="208966" />
		<tag k="waterway" v="stream" />
	</node>
	<node lat="61.81953332926491" lon="8.594388897131862" id="-42349">
		<tag k="name" v="Søre Fossbrekkgrove" />
		<tag k="ssr:stedsnr" v="210430" />
		<tag k="waterway" v="stream" />
	</node>
	<node lat="61.88201388594932" lon="8.818275005364814" id="-42402">
		<tag k="alt_name" v="Helga, nordre" />
		<tag k="name" v="Nørdre Helga" />
		<tag k="ssr:stedsnr" v="313118" />
		<tag k="waterway" v="stream" />
	</node>
	<node lat="61.56332500145372" lon="7.970949999449607" id="-42408">
		<tag k="name" v="Rauskjølelvi" />
		<tag k="ssr:stedsnr" v="313255" />
		<tag k="waterway" v="stream" />
	</node>
	<node lat="61.59190833303735" lon="7.9437499917941965" id="-42410">
		<tag k="name" v="Attgløyma" />
		<tag k="natural" v="water" />
		<tag k="ssr:stedsnr" v="313442" />
	</node>
	<node lat="61.80003611343451" lon="8.895219442035625" id="-42411">
		<tag k="alt_name" v="Torfinna, s" />
		<tag k="name" v="Søre Torfinna" />
		<tag k="ssr:stedsnr" v="313443" />
		<tag k="waterway" v="stream" />
	</node>
	<node lat="61.63797778011812" lon="8.474575005562318" id="-42413">
		<tag k="name" v="Skauta" />
		<tag k="ssr:stedsnr" v="313898" />
		<tag k="waterway" v="river" />
	</node>
	<node lat="61.75978889006654" lon="8.944041668573702" id="-42442">
		<tag k="name" v="Steinnebben" />
		<tag k="natural" v="cape" />
		<tag k="ssr:stedsnr" v="342324" />
	</node>
	<node lat="61.70103888552187" lon="8.22953334226004" id="-42446">
		<tag k="name" v="Blomlivikje" />
		<tag k="natural" v="bay" />
		<tag k="ssr:stedsnr" v="356757" />
	</node>
	<node lat="61.679269447466424" lon="8.246094444987861" id="-42448">
		<tag k="name" v="Liagrove" />
		<tag k="ssr:stedsnr" v="356735" />
		<tag k="waterway" v="stream" />
	</node>
	<node lat="61.80311388485492" lon="8.916530546322036" id="-42463">
		<tag k="name" v="Krokotbekken" />
		<tag k="ssr:stedsnr" v="357432" />
		<tag k="waterway" v="stream" />
	</node>
	<node lat="61.66012222424275" lon="8.070155548049947" id="-42467">
		<tag k="name" v="Vassberget" />
		<tag k="natural" v="cape" />
		<tag k="ssr:stedsnr" v="357684" />
	</node>
	<node lat="61.80879826479612" lon="8.834487666785583" id="-42476">
		<tag k="name" v="Kopptjørnin" />
		<tag k="natural" v="water" />
		<tag k="ssr:stedsnr" v="373239" />
		<tag k="water" v="lake" />
	</node>
	<node lat="61.652499999822275" lon="8.190150004101389" id="-42480">
		<tag k="name" v="Dumma" />
		<tag k="ssr:stedsnr" v="373171" />
		<tag k="waterway" v="stream" />
	</node>
	<node lat="61.86995555599791" lon="8.795711103037558" id="-42503">
		<tag k="name" v="Grøna" />
		<tag k="ssr:stedsnr" v="374271" />
		<tag k="waterway" v="river" />
	</node>
	<node lat="61.754311111457014" lon="8.248847221927022" id="-42509">
		<tag k="name" v="Galdvassvegen" />
		<tag k="ssr:stedsnr" v="374981" />
		<tag k="waterway" v="stream" />
	</node>
	<node lat="61.844666664401615" lon="8.510819445134203" id="-42513">
		<tag k="alt_name" v="Knutstugugrovi" />
		<tag k="name" v="Knutstugugrove" />
		<tag k="ssr:stedsnr" v="495048" />
		<tag k="waterway" v="stream" />
	</node>
	<node lat="61.665363886611985" lon="8.14684721782313" id="-42517">
		<tag k="name" v="Krokabekken" />
		<tag k="ssr:stedsnr" v="495219" />
		<tag k="waterway" v="stream" />
	</node>
	<node lat="61.85436666580735" lon="8.612800008546518" id="-42529">
		<tag k="name" v="Høgsand" />
		<tag k="place" v="islet" />
		<tag k="ssr:stedsnr" v="495100" />
	</node>
	<node lat="61.73421389013066" lon="8.651049995943154" id="-42531">
		<tag k="loc_name" v="Børgja" />
		<tag k="name" v="Børja" />
		<tag k="ssr:stedsnr" v="495106" />
		<tag k="waterway" v="stream" />
	</node>
	<node lat="61.742813891530055" lon="8.638677779684185" id="-42535">
		<tag k="alt_name" v="Fegra, nedre" />
		<tag k="name" v="Nedre Fegra" />
		<tag k="ssr:stedsnr" v="495131" />
		<tag k="waterway" v="stream" />
	</node>
	<node lat="61.853786108591876" lon="8.850819436132632" id="-42539">
		<tag k="name" v="Veslodden" />
		<tag k="natural" v="cape" />
		<tag k="ssr:stedsnr" v="495289" />
	</node>
	<node lat="61.83400277864926" lon="8.639852782529482" id="-42548">
		<tag k="name" v="Vannkanal" />
		<tag k="ssr:stedsnr" v="392863" />
		<tag k="waterway" v="drain" />
	</node>
	<node lat="61.751233337567896" lon="8.953977783466515" id="-42551">
		<tag k="name" v="Djupkastet" />
		<tag k="natural" v="bay" />
		<tag k="ssr:stedsnr" v="403323" />
	</node>
	<node lat="61.74443889132947" lon="8.971625006556025" id="-42552">
		<tag k="name" v="Gryta" />
		<tag k="natural" v="bay" />
		<tag k="ssr:stedsnr" v="405368" />
	</node>
	<node lat="61.67765555499498" lon="8.254261103803884" id="-42556">
		<tag k="name" v="Mikkelsgrove" />
		<tag k="ssr:stedsnr" v="417763" />
		<tag k="waterway" v="stream" />
	</node>
	<node lat="61.86902499790593" lon="8.559774998061673" id="-42562">
		<tag k="name" v="Øvre Bergetjønne" />
		<tag k="natural" v="water" />
		<tag k="ssr:stedsnr" v="418134" />
	</node>
	<node lat="61.646569446502184" lon="8.106105554978704" id="-42573">
		<tag k="name" v="Rustasæterfossen" />
		<tag k="natural" v="waterfall" />
		<tag k="ssr:stedsnr" v="418663" />
	</node>
	<node lat="61.83356389094096" lon="8.873172225970253" id="-42582">
		<tag k="alt_name" v="Krosstjørni" />
		<tag k="name" v="Krosstjønne" />
		<tag k="natural" v="water" />
		<tag k="ssr:stedsnr" v="434450" />
	</node>
	<node lat="61.780880555510855" lon="8.745263891338892" id="-42588">
		<tag k="name" v="Ilvetjørni" />
		<tag k="natural" v="water" />
		<tag k="ssr:stedsnr" v="435242" />
	</node>
	<node lat="61.83634166818586" lon="8.632580555743825" id="-42598">
		<tag k="alt_name" v="Ausa" />
		<tag k="name" v="Ause" />
		<tag k="natural" v="water" />
		<tag k="ssr:stedsnr" v="435009" />
	</node>
	<node lat="61.824750001708274" lon="8.677102769971" id="-42605">
		<tag k="name" v="Svarva" />
		<tag k="ssr:stedsnr" v="435026" />
		<tag k="waterway" v="river" />
	</node>
	<node lat="61.855413889432285" lon="8.805794441952319" id="-42608">
		<tag k="name" v="Odde" />
		<tag k="natural" v="cape" />
		<tag k="ssr:stedsnr" v="435052" />
	</node>
	<node lat="61.89179721871265" lon="8.606869443415496" id="-42613">
		<tag k="alt_name" v="Glassteintjørni" />
		<tag k="name" v="Glassteintjønne" />
		<tag k="natural" v="water" />
		<tag k="ssr:stedsnr" v="435918" />
	</node>
	<node lat="61.884911113610926" lon="8.613080556250654" id="-42614">
		<tag k="alt_name" v="Storteppingi, nørdre" />
		<tag k="name" v="Nørdre Storteppingje" />
		<tag k="natural" v="water" />
		<tag k="ssr:stedsnr" v="435933" />
	</node>
	<node lat="61.783161111204" lon="8.453255558079057" id="-42619">
		<tag k="alt_name" v="Hansgrove" />
		<tag k="name" v="Hansgrovi" />
		<tag k="ssr:stedsnr" v="435993" />
		<tag k="waterway" v="stream" />
	</node>
	<node lat="61.57155832980322" lon="8.066402775144928" id="-42620">
		<tag k="name" v="Leira" />
		<tag k="ssr:stedsnr" v="435345" />
		<tag k="waterway" v="stream" />
	</node>
	<node lat="61.7168388923132" lon="8.0628083357621" id="-42621">
		<tag k="name" v="Anekset" />
		<tag k="natural" v="water" />
		<tag k="ssr:stedsnr" v="435448" />
	</node>
	<node lat="61.80212221862716" lon="8.427333333583528" id="-42628">
		<tag k="alt_name" v="Oksle" />
		<tag k="name" v="Okslegrovi" />
		<tag k="ssr:stedsnr" v="436929" />
		<tag k="waterway" v="stream" />
	</node>
	<node lat="61.80611388683556" lon="8.427830559818572" id="-42629">
		<tag k="alt_name" v="Veslåe" />
		<tag k="name" v="Vesleåi" />
		<tag k="ssr:stedsnr" v="436959" />
		<tag k="waterway" v="stream" />
	</node>
	<node lat="61.58899999668044" lon="7.957733329226895" id="-42630">
		<tag k="name" v="Spile" />
		<tag k="natural" v="water" />
		<tag k="ssr:stedsnr" v="495292" />
	</node>
	<node lat="61.639526422274784" lon="7.911800484684561" id="-42631">
		<tag k="name" v="Liabrevatnet" />
		<tag k="natural" v="water" />
		<tag k="ssr:stedsnr" v="495437" />
		<tag k="water" v="lake" />
	</node>
	<node lat="61.91859285625048" lon="8.61320583340122" id="-42643">
		<tag k="loc_name" v="Lokra" />
		<tag k="name" v="Låkkra" />
		<tag k="ssr:stedsnr" v="496879" />
		<tag k="waterway" v="stream" />
	</node>
	<node lat="61.85944722411036" lon="8.807369448802367" id="-42654">
		<tag k="name" v="Grønfjorden" />
		<tag k="natural" v="water" />
		<tag k="ssr:stedsnr" v="514543" />
	</node>
	<node lat="61.85138332888632" lon="8.823594437131439" id="-42655">
		<tag k="name" v="Naustervikje" />
		<tag k="natural" v="bay" />
		<tag k="ssr:stedsnr" v="514555" />
	</node>
	<node lat="61.840061110504614" lon="8.831652777012476" id="-42656">
		<tag k="name" v="Byrvassvegen" />
		<tag k="ssr:stedsnr" v="514580" />
		<tag k="waterway" v="drain" />
	</node>
	<node lat="61.69675000229514" lon="8.182672219548815" id="-42666">
		<tag k="name" v="Snipen" />
		<tag k="natural" v="cape" />
		<tag k="ssr:stedsnr" v="538531" />
	</node>
	<node lat="61.68169166894248" lon="8.139083325876301" id="-42681">
		<tag k="name" v="Hansstula" />
		<tag k="ssr:stedsnr" v="539683" />
		<tag k="waterway" v="stream" />
	</node>
	<node lat="61.47389166756829" lon="8.343216671724266" id="-42688">
		<tag k="name" v="Skarddalsvatnet" />
		<tag k="natural" v="water" />
		<tag k="old_name" v="Skardalsvatnet" />
		<tag k="ssr:stedsnr" v="553868" />
		<tag k="water" v="lake" />
	</node>
	<node lat="61.549350002207944" lon="8.288627774638165" id="-42693">
		<tag k="name" v="Troget" />
		<tag k="natural" v="water" />
		<tag k="ssr:stedsnr" v="555010" />
	</node>
	<node lat="61.551113890581725" lon="7.984638884276164" id="-42696">
		<tag k="name" v="Erlingtjørni" />
		<tag k="natural" v="water" />
		<tag k="ssr:stedsnr" v="555283" />
	</node>
	<node lat="61.8704944470126" lon="8.573166671958202" id="-42715">
		<tag k="alt_name" v="Grjotheimstjørni, øvre" />
		<tag k="name" v="Øvre Grjotheimstjønne" />
		<tag k="natural" v="water" />
		<tag k="ssr:stedsnr" v="556073" />
	</node>
	<node lat="61.761405559270244" lon="8.47258611231884" id="-42718">
		<tag k="name" v="Ringlistjørni" />
		<tag k="natural" v="water" />
		<tag k="ssr:stedsnr" v="556247" />
	</node>
	<node lat="61.58173674330262" lon="7.968087500437365" id="-42721">
		<tag k="name" v="Tvillingtjørnin" />
		<tag k="natural" v="water" />
		<tag k="ssr:stedsnr" v="556350" />
		<tag k="water" v="lake" />
	</node>
	<node lat="61.78742222375017" lon="8.932480564334671" id="-42729">
		<tag k="alt_name" v="Byrtnes, nordre;Byrtnes" />
		<tag k="name" v="Nørdre Byrtnes" />
		<tag k="natural" v="cape" />
		<tag k="ssr:stedsnr" v="556462" />
	</node>
	<node lat="61.943388890506114" lon="8.62038333289342" id="-42732">
		<tag k="alt_name" v="Råkååe" />
		<tag k="name" v="Råkååi" />
		<tag k="ssr:stedsnr" v="556894" />
		<tag k="waterway" v="river" />
	</node>
	<node lat="61.815949997364314" lon="8.550694445755983" id="-42743">
		<tag k="name" v="Hågågrove" />
		<tag k="ssr:stedsnr" v="572193" />
		<tag k="waterway" v="stream" />
	</node>
	<node lat="61.83828888801852" lon="8.567708334857425" id="-42747">
		<tag k="name" v="Prestfossen" />
		<tag k="natural" v="waterfall" />
		<tag k="ssr:stedsnr" v="574287" />
	</node>
	<node lat="61.812541664098234" lon="8.465283328950392" id="-42756">
		<tag k="name" v="Gardgrove" />
		<tag k="ssr:stedsnr" v="599021" />
		<tag k="waterway" v="stream" />
	</node>
	<node lat="61.875611113716474" lon="8.51163889172146" id="-42780">
		<tag k="alt_name" v="Søregrove;Sørgrove" />
		<tag k="name" v="Søregrovi" />
		<tag k="ssr:stedsnr" v="616087" />
		<tag k="waterway" v="stream" />
	</node>
	<node lat="61.80000000037941" lon="8.540913898362707" id="-42781">
		<tag k="alt_name" v="Vittingstjønne" />
		<tag k="name" v="Vittingstjørni" />
		<tag k="natural" v="water" />
		<tag k="ssr:stedsnr" v="616165" />
	</node>
	<node lat="61.67089722311471" lon="8.420252776066496" id="-42785">
		<tag k="name" v="Stula" />
		<tag k="ssr:stedsnr" v="616180" />
		<tag k="waterway" v="stream" />
	</node>
	<node lat="61.66622500312394" lon="8.14121110804091" id="-42787">
		<tag k="name" v="Høyfossen" />
		<tag k="natural" v="waterfall" />
		<tag k="ssr:stedsnr" v="616187" />
	</node>
	<node lat="61.708850001563015" lon="8.424077774310454" id="-42791">
		<tag k="name" v="Orma" />
		<tag k="ssr:stedsnr" v="616130" />
		<tag k="waterway" v="stream" />
	</node>
	<node lat="61.577833335710785" lon="7.948750005246715" id="-42806">
		<tag k="name" v="Gryta" />
		<tag k="natural" v="water" />
		<tag k="ssr:stedsnr" v="616288" />
	</node>
	<node lat="61.573302780525985" lon="7.9742361033810525" id="-42807">
		<tag k="name" v="Kinna" />
		<tag k="natural" v="water" />
		<tag k="ssr:stedsnr" v="616289" />
	</node>
	<node lat="61.65461269005415" lon="7.949615948839721" id="-42809">
		<tag k="name" v="Tverrbytnet" />
		<tag k="natural" v="water" />
		<tag k="ssr:stedsnr" v="616477" />
		<tag k="water" v="lake" />
	</node>
	<node lat="61.62219999620111" lon="8.373700000112683" id="-42816">
		<tag k="name" v="Dyrskridubekken" />
		<tag k="ssr:stedsnr" v="617040" />
		<tag k="waterway" v="stream" />
	</node>
	<node lat="61.78548333491221" lon="8.629897229135342" id="-42824">
		<tag k="name" v="Kvitingi" />
		<tag k="ssr:stedsnr" v="617239" />
		<tag k="waterway" v="river" />
	</node>
	<node lat="61.895425002803144" lon="8.687572227464292" id="-42831">
		<tag k="alt_name" v="Veslteppingi, s" />
		<tag k="name" v="Søre Veslteppingje" />
		<tag k="natural" v="water" />
		<tag k="ssr:stedsnr" v="617913" />
	</node>
	<node lat="61.824077775526284" lon="8.537208342268556" id="-42838">
		<tag k="name" v="Hågåfossen" />
		<tag k="natural" v="waterfall" />
		<tag k="ssr:stedsnr" v="632177" />
	</node>
	<node lat="61.74413333646284" lon="8.956741673513248" id="-42851">
		<tag k="name" v="Nørdre Elve" />
		<tag k="ssr:stedsnr" v="647374" />
		<tag k="waterway" v="stream" />
	</node>
	<node lat="61.87620555846479" lon="8.863833335164822" id="-42854">
		<tag k="alt_name" v="Teppingen, øvre;Øvre Teppingen" />
		<tag k="name" v="Øvre Teppingje" />
		<tag k="natural" v="water" />
		<tag k="ssr:stedsnr" v="660316" />
	</node>
	<node lat="61.67356666708595" lon="8.23303611982274" id="-42873">
		<tag k="name" v="Heimsætergrove" />
		<tag k="ssr:stedsnr" v="720743" />
		<tag k="waterway" v="stream" />
	</node>
	<node lat="61.742105557803455" lon="8.302049997178234" id="-42883">
		<tag k="name" v="Nedre Driva" />
		<tag k="ssr:stedsnr" v="721242" />
		<tag k="waterway" v="stream" />
	</node>
	<node lat="61.4804416688168" lon="8.411708337980608" id="-42906">
		<tag k="name" v="Hellerfossen" />
		<tag k="natural" v="waterfall" />
		<tag k="ssr:stedsnr" v="735867" />
	</node>
	<node lat="61.58879166673379" lon="8.37951110184776" id="-42909">
		<tag k="name" v="Bukkeholsbekken" />
		<tag k="ssr:stedsnr" v="738020" />
		<tag k="waterway" v="stream" />
	</node>
	<node lat="61.583674996807154" lon="8.103241658772571" id="-42912">
		<tag k="name" v="Leirvatnet" />
		<tag k="natural" v="water" />
		<tag k="ssr:stedsnr" v="738024" />
	</node>
	<node lat="61.67273333643489" lon="8.135897221557107" id="-42928">
		<tag k="name" v="Trongedalsbekken" />
		<tag k="ssr:stedsnr" v="738229" />
		<tag k="waterway" v="stream" />
	</node>
	<node lat="61.817847218438516" lon="8.70033889388109" id="-42931">
		<tag k="name" v="Bredalsbekken" />
		<tag k="ssr:stedsnr" v="738241" />
		<tag k="waterway" v="stream" />
	</node>
	<node lat="61.62790000343098" lon="8.020499991284199" id="-42934">
		<tag k="name" v="Dumma" />
		<tag k="ssr:stedsnr" v="738437" />
		<tag k="waterway" v="stream" />
	</node>
	<node lat="61.799469447045624" lon="8.919555558791977" id="-42935">
		<tag k="name" v="Erløken" />
		<tag k="ssr:stedsnr" v="738446" />
		<tag k="waterway" v="stream" />
	</node>
	<node lat="61.74212777742193" lon="8.625950002848759" id="-42938">
		<tag k="name" v="Holbekken" />
		<tag k="ssr:stedsnr" v="738121" />
		<tag k="waterway" v="stream" />
	</node>
	<node lat="61.80336111538441" lon="8.560894452551329" id="-42947">
		<tag k="alt_name" v="Hågålangtjønne" />
		<tag k="name" v="Langtjørni" />
		<tag k="natural" v="water" />
		<tag k="ssr:stedsnr" v="738195" />
	</node>
	<node lat="61.55361388904176" lon="7.98512222890987" id="-42950">
		<tag k="name" v="Perstjørn" />
		<tag k="natural" v="water" />
		<tag k="ssr:stedsnr" v="738284" />
	</node>
	<node lat="61.561008329551115" lon="7.9909805599623205" id="-42951">
		<tag k="name" v="Meiskekjeret" />
		<tag k="natural" v="water" />
		<tag k="ssr:stedsnr" v="738285" />
	</node>
	<node lat="61.55734166291018" lon="8.00137500536883" id="-42952">
		<tag k="name" v="Stetta" />
		<tag k="natural" v="water" />
		<tag k="ssr:stedsnr" v="738286" />
	</node>
	<node lat="61.60608055316967" lon="8.646830562724489" id="-42954">
		<tag k="name" v="Hestbekken" />
		<tag k="ssr:stedsnr" v="738910" />
		<tag k="waterway" v="stream" />
	</node>
	<node lat="61.630452776594105" lon="8.57075555360586" id="-42958">
		<tag k="alt_name" v="Steinbuvatnet, øvre" />
		<tag k="name" v="Øvre Steinbuvatnet" />
		<tag k="natural" v="water" />
		<tag k="ssr:stedsnr" v="738918" />
	</node>
	<node lat="61.88875555499788" lon="8.562508326495792" id="-42959">
		<tag k="alt_name" v="Småtjønnen" />
		<tag k="name" v="Småtjørnin" />
		<tag k="natural" v="water" />
		<tag k="ssr:stedsnr" v="738921" />
		<tag k="water" v="lake" />
	</node>
	<node lat="61.90084166402904" lon="8.617808325721889" id="-42962">
		<tag k="alt_name" v="Lusa, store" />
		<tag k="name" v="Stor-Lusa" />
		<tag k="natural" v="water" />
		<tag k="ssr:stedsnr" v="738939" />
		<tag k="water" v="lake" />
	</node>
	<node lat="61.871580553172116" lon="8.861683326561925" id="-42967">
		<tag k="alt_name" v="Teppingen, nedre" />
		<tag k="name" v="Nedre Teppingje" />
		<tag k="natural" v="water" />
		<tag k="ssr:stedsnr" v="739329" />
	</node>
	<node lat="61.795722224067966" lon="8.617805559446316" id="-42972">
		<tag k="name" v="Sålellselvi" />
		<tag k="ssr:stedsnr" v="739192" />
		<tag k="waterway" v="stream" />
	</node>
	<node lat="61.940049998424044" lon="8.783038885645983" id="-42973">
		<tag k="name" v="Lauva" />
		<tag k="ssr:stedsnr" v="739859" />
		<tag k="waterway" v="river" />
	</node>
	<node lat="61.91955555657548" lon="8.726991662758415" id="-42974">
		<tag k="alt_name" v="Measætergrove" />
		<tag k="name" v="Measætergrovi" />
		<tag k="ssr:stedsnr" v="739866" />
		<tag k="waterway" v="stream" />
	</node>
	<node lat="61.7602138871453" lon="8.452733330690057" id="-42977">
		<tag k="name" v="Skoltjørni" />
		<tag k="natural" v="water" />
		<tag k="ssr:stedsnr" v="739965" />
	</node>
	<node lat="61.84466944249163" lon="8.615824997409863" id="-42983">
		<tag k="name" v="Nordstrondvassvegen" />
		<tag k="ssr:stedsnr" v="756036" />
		<tag k="waterway" v="drain" />
	</node>
	<node lat="61.67073333525081" lon="8.226308324887867" id="-43004">
		<tag k="name" v="Nørdre Ståla" />
		<tag k="ssr:stedsnr" v="781738" />
		<tag k="waterway" v="stream" />
	</node>
	<node lat="61.8103472235857" lon="8.455755550262026" id="-43009">
		<tag k="name" v="Nyskryugrove" />
		<tag k="ssr:stedsnr" v="782027" />
		<tag k="waterway" v="stream" />
	</node>
	<node lat="61.81310278204519" lon="8.45924999171681" id="-43010">
		<tag k="name" v="Engjegrove" />
		<tag k="ssr:stedsnr" v="782029" />
		<tag k="waterway" v="stream" />
	</node>
	<node lat="61.7117777746341" lon="8.753905563327173" id="-43040">
		<tag k="name" v="Storodden" />
		<tag k="natural" v="cape" />
		<tag k="ssr:stedsnr" v="799067" />
	</node>
	<node lat="61.566263884820685" lon="7.976858336589929" id="-43044">
		<tag k="name" v="Troget" />
		<tag k="natural" v="water" />
		<tag k="ssr:stedsnr" v="799266" />
	</node>
	<node lat="61.56971111324577" lon="7.977780553705303" id="-43045">
		<tag k="name" v="Emnarn" />
		<tag k="natural" v="water" />
		<tag k="ssr:stedsnr" v="799273" />
	</node>
	<node lat="61.54953333163099" lon="8.013624992878844" id="-43046">
		<tag k="name" v="Djupholet" />
		<tag k="natural" v="water" />
		<tag k="ssr:stedsnr" v="799368" />
	</node>
	<node lat="61.8953083327558" lon="8.856438889646668" id="-43047">
		<tag k="alt_name" v="Blakkstjørni" />
		<tag k="name" v="Blakkstjønne" />
		<tag k="natural" v="water" />
		<tag k="ssr:stedsnr" v="799374" />
	</node>
	<node lat="61.75745000163672" lon="8.918813886632908" id="-43052">
		<tag k="name" v="Nåvårsæterbekken" />
		<tag k="ssr:stedsnr" v="799395" />
		<tag k="waterway" v="stream" />
	</node>
	<node lat="61.7983222256728" lon="8.96409444569907" id="-43057">
		<tag k="alt_name" v="Djupviki" />
		<tag k="name" v="Djupvikje" />
		<tag k="natural" v="bay" />
		<tag k="ssr:stedsnr" v="799459" />
	</node>
	<node lat="61.918886268650056" lon="8.531023199668484" id="-43063">
		<tag k="loc_name" v="Fjellokkertjønne" />
		<tag k="name" v="Fjellåkkertjørni" />
		<tag k="natural" v="water" />
		<tag k="ssr:stedsnr" v="800869" />
	</node>
	<node lat="61.82936666770384" lon="8.60113611826007" id="-43067">
		<tag k="name" v="Læsa" />
		<tag k="natural" v="water" />
		<tag k="ssr:stedsnr" v="816425" />
	</node>
	<node lat="61.83960555133264" lon="8.618463897448656" id="-43070">
		<tag k="name" v="Hansvegen" />
		<tag k="ssr:stedsnr" v="817048" />
		<tag k="waterway" v="drain" />
	</node>
	<node lat="61.86721944703356" lon="8.78590833467601" id="-43074">
		<tag k="name" v="Svadalsøyre" />
		<tag k="natural" v="bay" />
		<tag k="ssr:stedsnr" v="818442" />
	</node>
	<node lat="61.7684611081336" lon="8.977497226640958" id="-43077">
		<tag k="name" v="Silungsvikje" />
		<tag k="natural" v="bay" />
		<tag k="ssr:stedsnr" v="828343" />
	</node>
	<node lat="61.74616666492473" lon="8.412783332099352" id="-43078">
		<tag k="name" v="Tandgrove" />
		<tag k="ssr:stedsnr" v="843443" />
		<tag k="waterway" v="stream" />
	</node>
	<node lat="61.69861111521868" lon="8.22466944380279" id="-43083">
		<tag k="name" v="Blomligrove" />
		<tag k="ssr:stedsnr" v="842738" />
		<tag k="waterway" v="stream" />
	</node>
	<node lat="61.65419444721891" lon="8.12256666848592" id="-43095">
		<tag k="name" v="Daudmannvikje" />
		<tag k="natural" v="bay" />
		<tag k="ssr:stedsnr" v="843717" />
	</node>
	<node lat="61.84381944794354" lon="8.58589443947951" id="-43102">
		<tag k="name" v="Årsjo" />
		<tag k="natural" v="water" />
		<tag k="ssr:stedsnr" v="859026" />
	</node>
	<node lat="61.84821944414729" lon="8.639625003499582" id="-43105">
		<tag k="alt_name" v="Nordstrondvassvegen" />
		<tag k="name" v="Sålellvassvegen" />
		<tag k="ssr:stedsnr" v="859050" />
		<tag k="waterway" v="drain" />
	</node>
	<node lat="61.65862500204914" lon="8.05755278175114" id="-43110">
		<tag k="alt_name" v="Høyvatnet" />
		<tag k="name" v="Høydalsvatnet" />
		<tag k="natural" v="water" />
		<tag k="ssr:stedsnr" v="859444" />
		<tag k="water" v="lake" />
	</node>
	<node lat="61.875527780522816" lon="8.649386108556946" id="-43111">
		<tag k="alt_name" v="Sagelvi, nordre;Sagelve" />
		<tag k="name" v="Nordre Sagelvi" />
		<tag k="ssr:stedsnr" v="860139" />
		<tag k="waterway" v="stream" />
	</node>
	<node lat="61.78221110827435" lon="8.549424995386834" id="-43113">
		<tag k="name" v="Hovdelangtjørni" />
		<tag k="natural" v="water" />
		<tag k="ssr:stedsnr" v="860233" />
	</node>
	<node lat="61.86678611098329" lon="8.531949992917843" id="-43118">
		<tag k="alt_name" v="Geitåe" />
		<tag k="name" v="Geitåi" />
		<tag k="ssr:stedsnr" v="860085" />
		<tag k="waterway" v="stream" />
	</node>
	<node lat="61.753519445798894" lon="8.63401111669065" id="-43119">
		<tag k="alt_name" v="Fegra, øvre" />
		<tag k="name" v="Øvre Fegra" />
		<tag k="ssr:stedsnr" v="860196" />
		<tag k="waterway" v="stream" />
	</node>
	<node lat="61.56273611463689" lon="7.959072227444324" id="-43120">
		<tag k="name" v="Pytten" />
		<tag k="natural" v="water" />
		<tag k="ssr:stedsnr" v="860296" />
	</node>
	<node lat="61.765380553204196" lon="8.605394448241814" id="-43123">
		<tag k="name" v="Ragnhildgrovi" />
		<tag k="ssr:stedsnr" v="860247" />
		<tag k="waterway" v="stream" />
	</node>
	<node lat="61.92289722399637" lon="8.751091660575991" id="-43130">
		<tag k="alt_name" v="Reinskinngrove" />
		<tag k="name" v="Reinskinngrovi" />
		<tag k="ssr:stedsnr" v="860900" />
		<tag k="waterway" v="stream" />
	</node>
	<node lat="61.757561106742216" lon="8.445466665134669" id="-43131">
		<tag k="name" v="Skardstula" />
		<tag k="natural" v="water" />
		<tag k="ssr:stedsnr" v="860984" />
	</node>
	<node lat="61.738855551923734" lon="8.88552499939012" id="-43132">
		<tag k="name" v="Storbekken" />
		<tag k="ssr:stedsnr" v="860955" />
		<tag k="waterway" v="stream" />
	</node>
	<node lat="61.832236114500105" lon="8.507713891616207" id="-43135">
		<tag k="name" v="Marsteingrove" />
		<tag k="ssr:stedsnr" v="875164" />
		<tag k="waterway" v="stream" />
	</node>
	<node lat="61.82651944697117" lon="8.631116664199114" id="-43167">
		<tag k="name" v="Vannkanal" />
		<tag k="ssr:stedsnr" v="939824" />
		<tag k="waterway" v="drain" />
	</node>
	<node lat="61.79041944548396" lon="8.932044440706612" id="-43171">
		<tag k="name" v="Raustein" />
		<tag k="natural" v="bay" />
		<tag k="ssr:stedsnr" v="949315" />
	</node>
	<node lat="61.86608611340129" lon="8.863686104694963" id="-43177">
		<tag k="name" v="Sandvikteppingje" />
		<tag k="natural" v="water" />
		<tag k="ssr:stedsnr" v="963320" />
	</node>
	<node lat="61.82038055743957" lon="8.610008334810512" id="-43181">
		<tag k="alt_name" v="Vassvegtjønne" />
		<tag k="name" v="Vassvegtjørni" />
		<tag k="natural" v="water" />
		<tag k="ssr:stedsnr" v="963253" />
	</node>
	<node lat="61.68423332952461" lon="8.246091663225762" id="-43187">
		<tag k="name" v="Storgrovodden" />
		<tag k="natural" v="cape" />
		<tag k="ssr:stedsnr" v="963753" />
	</node>
	<node lat="61.69498889266131" lon="8.224222229664274" id="-43190">
		<tag k="name" v="Nedre Teppingstjønne" />
		<tag k="natural" v="water" />
		<tag k="ssr:stedsnr" v="963763" />
	</node>
	<node lat="61.68875555485869" lon="8.200483326715279" id="-43191">
		<tag k="name" v="Teppingstjønne" />
		<tag k="natural" v="water" />
		<tag k="ssr:stedsnr" v="963765" />
	</node>
	<node lat="61.80005277970243" lon="8.40823610408482" id="-43196">
		<tag k="name" v="Åvang" />
		<tag k="natural" v="water" />
		<tag k="ssr:stedsnr" v="964053" />
	</node>
	<node lat="61.864747222094046" lon="8.727525002935101" id="-43204">
		<tag k="name" v="Osen" />
		<tag k="natural" v="bay" />
		<tag k="ssr:stedsnr" v="964937" />
	</node>
	<node lat="61.651188887419565" lon="8.198277786934828" id="-43206">
		<tag k="name" v="Dumfossen" />
		<tag k="natural" v="waterfall" />
		<tag k="ssr:stedsnr" v="964681" />
	</node>
</osm>
