<?xml version="1.0" encoding="UTF-8"?>
<<<<<<< HEAD
<osm version="0.6" generator="osmapis">
	<node lat="61.55331944377434" lon="8.140011118040892" id="-15814">
		<tag k="name" v="Bjørnbrean" />
		<tag k="natural" v="glacier" />
		<tag k="ssr:stedsnr" v="10001" />
	</node>
	<node lat="61.55730508134941" lon="8.436582953444418" id="-15817">
		<tag k="name" v="Hellstugubrean" />
		<tag k="natural" v="glacier" />
		<tag k="ssr:stedsnr" v="10007" />
	</node>
	<node lat="61.77554444582266" lon="8.425822227334027" id="-15857">
		<tag k="name" v="Sulheimsøyen" />
		<tag k="place" v="locality" />
		<tag k="ssr:stedsnr" v="235069" />
	</node>
	<node lat="61.69288611359611" lon="8.26849721608902" id="-15860">
		<tag k="name" v="Grindurde" />
		<tag k="natural" v="scree" />
		<tag k="ssr:stedsnr" v="235366" />
	</node>
	<node lat="61.75102500432073" lon="8.39629722161804" id="-15878">
		<tag k="name" v="Stugukvee" />
		<tag k="old_name" v="Stugykvee" />
		<tag k="place" v="locality" />
		<tag k="ssr:stedsnr" v="54404" />
	</node>
	<node lat="61.6657666624931" lon="8.342486113426908" id="-15885">
		<tag k="name" v="Vesljuvbrean" />
		<tag k="natural" v="glacier" />
		<tag k="ssr:stedsnr" v="70185" />
	</node>
	<node lat="61.74023612575555" lon="8.137313244420788" id="-15898">
		<tag k="name" v="Heksetebrean" />
		<tag k="natural" v="glacier" />
		<tag k="ssr:stedsnr" v="71212" />
	</node>
	<node lat="61.858394444594886" lon="8.57417221394035" id="-15943">
		<tag k="alt_name" v="Vetamyre" />
		<tag k="name" v="Vetamyri" />
		<tag k="natural" v="wetland" />
		<tag k="ssr:stedsnr" v="252075" />
	</node>
	<node lat="61.56052222512194" lon="8.083397214599051" id="-15956">
		<tag k="name" v="Smørstabbrean" />
		<tag k="natural" v="glacier" />
		<tag k="ssr:stedsnr" v="252251" />
	</node>
	<node lat="61.64873055577567" lon="8.57807777008548" id="-15988">
		<tag k="name" v="Glitterbrean" />
		<tag k="natural" v="glacier" />
		<tag k="ssr:stedsnr" v="131920" />
	</node>
	<node lat="61.84540555504625" lon="8.669016660299961" id="-16031">
		<tag k="name" v="Øverjordet" />
		<tag k="place" v="locality" />
		<tag k="ssr:stedsnr" v="149811" />
	</node>
	<node lat="61.88929722607435" lon="8.837688882609534" id="-16039">
		<tag k="name" v="Jordet" />
=======
<osm generator="osmapis" version="0.6">
	<node id="-366078" lat="61.6883638847" lon="8.24048054954">
		<tag k="name" v="Morkje" />
>>>>>>> e1d4bc35ff8a6074a6f2e91616a996b547c36f15
		<tag k="place" v="locality" />
		<tag k="ssr:stedsnr" v="175302" />
	</node>
<<<<<<< HEAD
	<node lat="61.59786110969182" lon="8.396361111732107" id="-16051">
		<tag k="name" v="Hellstugu" />
		<tag k="place" v="locality" />
		<tag k="ssr:stedsnr" v="192019" />
	</node>
	<node lat="61.59731666307445" lon="8.294336113105551" id="-16052">
		<tag k="name" v="Tverråbrean" />
		<tag k="natural" v="glacier" />
		<tag k="ssr:stedsnr" v="192021" />
	</node>
	<node lat="61.6980388861007" lon="8.180433329102598" id="-16077">
=======
	<node id="-364541" lat="61.6788722195" lon="8.22545555314">
		<tag k="name" v="Nedre Saltsletta" />
		<tag k="place" v="locality" />
		<tag k="ssr:stedsnr" v="53752" />
	</node>
	<node id="-365050" lat="61.750530553" lon="8.56943055311">
		<tag k="name" v="Raudurdi" />
		<tag k="natural" v="scree" />
		<tag k="ssr:stedsnr" v="436145" />
	</node>
	<node id="-366071" lat="61.8486861072" lon="8.68046111157">
		<tag k="name" v="Kismyre" />
		<tag k="natural" v="wetland" />
		<tag k="ssr:stedsnr" v="332777" />
	</node>
	<node id="-364528" lat="61.6980388861" lon="8.1804333291">
>>>>>>> e1d4bc35ff8a6074a6f2e91616a996b547c36f15
		<tag k="name" v="Prestsæterura" />
		<tag k="natural" v="scree" />
		<tag k="ssr:stedsnr" v="235552" />
	</node>
<<<<<<< HEAD
	<node lat="61.849577774715605" lon="8.636902768825305" id="-16094">
		<tag k="name" v="Granskogen" />
		<tag k="place" v="locality" />
		<tag k="ssr:stedsnr" v="453828" />
	</node>
	<node lat="61.78548611312023" lon="8.426308327382886" id="-16123">
		<tag k="name" v="Steinauren" />
=======
	<node id="-366063" lat="61.8208666646" lon="8.5977944423">
		<tag k="name" v="Stymmesmyre" />
		<tag k="natural" v="wetland" />
		<tag k="ssr:stedsnr" v="331412" />
	</node>
	<node id="-366571" lat="61.7645916639" lon="8.69822221602">
		<tag k="name" v="Storfonne" />
		<tag k="natural" v="glacier" />
		<tag k="ssr:stedsnr" v="739210" />
	</node>
	<node id="-365543" lat="61.832194444" lon="8.72300278451">
		<tag k="name" v="Fosstulmyri" />
		<tag k="natural" v="wetland" />
		<tag k="ssr:stedsnr" v="860021" />
	</node>
	<node id="-366054" lat="61.772186112" lon="8.21715834055">
		<tag k="name" v="Sulbrean" />
		<tag k="natural" v="glacier" />
		<tag k="ssr:stedsnr" v="314978" />
	</node>
	<node id="-364516" lat="61.7755444458" lon="8.42582222733">
		<tag k="name" v="Sulheimsøyen" />
		<tag k="place" v="locality" />
		<tag k="ssr:stedsnr" v="235069" />
	</node>
	<node id="-365027" lat="61.5922833304" lon="8.1286416736">
		<tag k="name" v="Veslbrean" />
		<tag k="natural" v="glacier" />
		<tag k="ssr:stedsnr" v="434027" />
	</node>
	<node id="-364709" lat="61.6082246177" lon="8.74739519687">
		<tag k="loc_name" v="Nautgardsbreane" />
		<tag k="name" v="Nautgardsbrean" />
		<tag k="natural" v="glacier" />
		<tag k="ssr:stedsnr" v="131930" />
	</node>
	<node id="-365531" lat="61.8596305564" lon="8.81843055041">
		<tag k="name" v="Storurde" />
>>>>>>> e1d4bc35ff8a6074a6f2e91616a996b547c36f15
		<tag k="natural" v="scree" />
		<tag k="ssr:stedsnr" v="296038" />
	</node>
	<node lat="61.68120277759236" lon="8.150855555482323" id="-16128">
		<tag k="name" v="Blanksteinen" />
		<tag k="natural" v="stone" />
		<tag k="ssr:stedsnr" v="296702" />
	</node>
<<<<<<< HEAD
	<node lat="61.82086666459966" lon="8.597794442300255" id="-16171">
		<tag k="name" v="Stymmesmyre" />
=======
	<node id="-365530" lat="61.8762277793" lon="8.82210278545">
		<tag k="name" v="Ålmannmyre" />
>>>>>>> e1d4bc35ff8a6074a6f2e91616a996b547c36f15
		<tag k="natural" v="wetland" />
		<tag k="ssr:stedsnr" v="331412" />
	</node>
<<<<<<< HEAD
	<node lat="61.76862777641442" lon="8.409372219381861" id="-16184">
		<tag k="name" v="Rojordet" />
		<tag k="place" v="locality" />
		<tag k="ssr:stedsnr" v="357414" />
	</node>
	<node lat="61.69675833152414" lon="8.187149996762193" id="-16190">
		<tag k="name" v="Søre Rausteinen" />
		<tag k="natural" v="stone" />
		<tag k="ssr:stedsnr" v="477549" />
	</node>
	<node lat="61.69013055960966" lon="8.247744445452422" id="-16194">
		<tag k="name" v="Vesllimorkje" />
		<tag k="place" v="locality" />
		<tag k="ssr:stedsnr" v="477766" />
	</node>
	<node lat="61.68726389232227" lon="8.236330547236197" id="-16196">
		<tag k="name" v="Syljuflaten" />
		<tag k="place" v="locality" />
		<tag k="ssr:stedsnr" v="477772" />
	</node>
	<node lat="61.68755555377035" lon="8.276094446668285" id="-16206">
		<tag k="name" v="Leirdalsmorkje" />
=======
	<node id="-365015" lat="61.723136108" lon="8.32249166985">
		<tag k="name" v="Hynnstulein" />
		<tag k="place" v="locality" />
		<tag k="ssr:stedsnr" v="418319" />
	</node>
	<node id="-364500" lat="61.8817388865" lon="8.51823611626">
		<tag k="alt_name" v="Søremyre" />
		<tag k="name" v="Søremyri" />
		<tag k="natural" v="wetland" />
		<tag k="ssr:stedsnr" v="10923" />
	</node>
	<node id="-365390" lat="61.6829611121" lon="8.22514999506">
		<tag k="name" v="Øvre Saltsletta" />
		<tag k="place" v="locality" />
		<tag k="ssr:stedsnr" v="902750" />
	</node>
	<node id="-366543" lat="61.5645833339" lon="8.01676665857">
		<tag k="name" v="Fantesteinen" />
		<tag k="natural" v="stone" />
		<tag k="ssr:stedsnr" v="738265" />
	</node>
	<node id="-365559" lat="61.5506305553" lon="8.49701389279">
		<tag k="name" v="Austre Memurubrean" />
		<tag k="natural" v="glacier" />
		<tag k="ssr:stedsnr" v="860916" />
	</node>
	<node id="-365130" lat="61.7867083312" lon="8.65538333448">
		<tag k="name" v="Kjølsteinen" />
		<tag k="natural" v="stone" />
		<tag k="ssr:stedsnr" v="678222" />
	</node>
	<node id="-366512" lat="61.5155611085" lon="8.41501388983">
		<tag k="name" v="Semelbrean" />
		<tag k="natural" v="glacier" />
		<tag k="ssr:stedsnr" v="738115" />
	</node>
	<node id="-365485" lat="61.6142361093" lon="8.17902499165">
		<tag k="historic" v="shieling" />
		<tag k="name" v="Hammarstulen" />
>>>>>>> e1d4bc35ff8a6074a6f2e91616a996b547c36f15
		<tag k="place" v="locality" />
		<tag k="ssr:stedsnr" v="478347" />
	</node>
<<<<<<< HEAD
	<node lat="61.744386108026426" lon="8.434280557824628" id="-16209">
		<tag k="name" v="Sveagrovmyren" />
		<tag k="natural" v="wetland" />
		<tag k="ssr:stedsnr" v="478438" />
	</node>
	<node lat="61.79401388797053" lon="8.927994444263033" id="-16210">
		<tag k="name" v="Raustein" />
		<tag k="natural" v="stone" />
		<tag k="ssr:stedsnr" v="478440" />
	</node>
	<node lat="61.86938611314427" lon="8.741772220928691" id="-16215">
		<tag k="landuse" v="quarry" />
		<tag k="name" v="Haugholet" />
		<tag k="ssr:stedsnr" v="478947" />
	</node>
	<node lat="61.86892777555202" lon="8.713488889018684" id="-16216">
		<tag k="name" v="Løyfte" />
		<tag k="place" v="locality" />
		<tag k="ssr:stedsnr" v="478950" />
	</node>
	<node lat="61.58901389151259" lon="8.204961105871812" id="-16219">
=======
	<node id="-365484" lat="61.6199249987" lon="8.26642223115">
		<tag k="name" v="Nørdre Illåbrean" />
		<tag k="natural" v="glacier" />
		<tag k="ssr:stedsnr" v="799027" />
	</node>
	<node id="-366504" lat="61.6442861147" lon="8.28422777333">
		<tag k="name" v="Storjuvbrean" />
		<tag k="natural" v="glacier" />
		<tag k="ssr:stedsnr" v="738058" />
	</node>
	<node id="-366502" lat="61.637933332" lon="8.32610833496">
		<tag k="name" v="Piggbrean" />
		<tag k="natural" v="glacier" />
		<tag k="ssr:stedsnr" v="738055" />
	</node>
	<node id="-365477" lat="61.5784194478" lon="8.13539722527">
		<tag k="name" v="Storbrean" />
		<tag k="natural" v="glacier" />
		<tag k="ssr:stedsnr" v="798034" />
	</node>
	<node id="-364963" lat="61.5890138915" lon="8.20496110587">
>>>>>>> e1d4bc35ff8a6074a6f2e91616a996b547c36f15
		<tag k="historic" v="shieling" />
		<tag k="name" v="Sletthamnsætre" />
		<tag k="place" v="locality" />
		<tag k="ssr:stedsnr" v="373013" />
	</node>
<<<<<<< HEAD
	<node lat="61.934577777905" lon="8.821697213357792" id="-16258">
		<tag k="alt_name" v="Odden" />
		<tag k="name" v="Oddan" />
		<tag k="place" v="locality" />
		<tag k="ssr:stedsnr" v="374895" />
	</node>
	<node lat="61.848083331777794" lon="8.826225000212713" id="-16266">
		<tag k="name" v="Dokkøygarden" />
		<tag k="place" v="locality" />
		<tag k="ssr:stedsnr" v="392591" />
	</node>
	<node lat="61.88059722022555" lon="8.78026388797463" id="-16278">
		<tag k="name" v="Langmyre" />
		<tag k="natural" v="wetland" />
		<tag k="ssr:stedsnr" v="418284" />
	</node>
	<node lat="61.592283330447614" lon="8.12864167359524" id="-16288">
		<tag k="name" v="Veslbrean" />
		<tag k="natural" v="glacier" />
		<tag k="ssr:stedsnr" v="434027" />
	</node>
	<node lat="61.660816664405495" lon="8.547547216405237" id="-16296">
		<tag k="name" v="Grotbrean" />
=======
	<node id="-365472" lat="61.7593750006" lon="8.1874388941">
		<tag k="name" v="Runningsbrean" />
		<tag k="natural" v="glacier" />
		<tag k="ssr:stedsnr" v="921967" />
	</node>
	<node id="-364869" lat="61.6875555538" lon="8.27609444667">
		<tag k="name" v="Leirdalsmorkje" />
		<tag k="place" v="locality" />
		<tag k="ssr:stedsnr" v="478347" />
	</node>
	<node id="-365980" lat="61.5843611093" lon="8.50004722429">
		<tag k="name" v="Veobrean" />
		<tag k="natural" v="glacier" />
		<tag k="ssr:stedsnr" v="192928" />
	</node>
	<node id="-366490" lat="61.5827972188" lon="8.32248888459">
		<tag k="name" v="Bukkeholsbrean" />
		<tag k="natural" v="glacier" />
		<tag k="ssr:stedsnr" v="738022" />
	</node>
	<node id="-365465" lat="61.7569666623" lon="8.74945832744">
		<tag k="name" v="Langfonne" />
		<tag k="natural" v="glacier" />
		<tag k="ssr:stedsnr" v="921167" />
	</node>
	<node id="-365976" lat="61.7532184218" lon="8.16933461911">
		<tag k="name" v="Hestbrean" />
		<tag k="natural" v="glacier" />
		<tag k="ssr:stedsnr" v="192829" />
	</node>
	<node id="-366484" lat="61.4032249989" lon="8.45364999786">
		<tag k="name" v="Slettmarkbrean" />
		<tag k="natural" v="glacier" />
		<tag k="ssr:stedsnr" v="736850" />
	</node>
	<node id="-364946" lat="61.9093111094" lon="8.78116388142">
		<tag k="name" v="Tuvmyri" />
		<tag k="natural" v="wetland" />
		<tag k="ssr:stedsnr" v="495933" />
	</node>
	<node id="-365201" lat="61.6654916659" lon="8.61707499525">
		<tag k="name" v="Gråsusnippen" />
		<tag k="natural" v="glacier" />
		<tag k="ssr:stedsnr" v="555865" />
	</node>
	<node id="-365963" lat="61.7295333325" lon="8.12719166349">
		<tag k="name" v="Geitåbrean" />
>>>>>>> e1d4bc35ff8a6074a6f2e91616a996b547c36f15
		<tag k="natural" v="glacier" />
		<tag k="ssr:stedsnr" v="434871" />
	</node>
<<<<<<< HEAD
	<node lat="61.786708331180684" lon="8.655383334483425" id="-16372">
		<tag k="name" v="Kjølsteinen" />
		<tag k="natural" v="stone" />
		<tag k="ssr:stedsnr" v="678222" />
	</node>
	<node lat="61.60301388659635" lon="8.11784167160023" id="-16393">
=======
	<node id="-364523" lat="61.6928861136" lon="8.26849721609">
		<tag k="name" v="Grindurde" />
		<tag k="natural" v="scree" />
		<tag k="ssr:stedsnr" v="235366" />
	</node>
	<node id="-364920" lat="61.529930553" lon="8.28093612035">
		<tag k="name" v="Høgvaglurde" />
		<tag k="natural" v="scree" />
		<tag k="ssr:stedsnr" v="495134" />
	</node>
	<node id="-364914" lat="61.6030138866" lon="8.1178416716">
>>>>>>> e1d4bc35ff8a6074a6f2e91616a996b547c36f15
		<tag k="name" v="Hurrbrean" />
		<tag k="natural" v="glacier" />
		<tag k="ssr:stedsnr" v="495047" />
	</node>
<<<<<<< HEAD
	<node lat="61.72326666526457" lon="8.25323055714349" id="-16435">
		<tag k="name" v="Kvandalsvolløyen" />
		<tag k="place" v="locality" />
		<tag k="ssr:stedsnr" v="539575" />
	</node>
	<node lat="61.55456110895926" lon="8.061236108530887" id="-16447">
		<tag k="name" v="Bøverbrean" />
		<tag k="natural" v="glacier" />
		<tag k="ssr:stedsnr" v="555221" />
	</node>
	<node lat="61.716774999743954" lon="8.424541663129178" id="-16448">
		<tag k="name" v="Brennmyre" />
		<tag k="natural" v="wetland" />
		<tag k="ssr:stedsnr" v="555102" />
	</node>
	<node lat="61.6654916659216" lon="8.617074995249343" id="-16453">
		<tag k="name" v="Gråsusnippen" />
		<tag k="natural" v="glacier" />
		<tag k="ssr:stedsnr" v="555865" />
	</node>
	<node lat="61.67540833417008" lon="8.81695834024444" id="-16454">
		<tag k="name" v="Heranosmyren" />
		<tag k="natural" v="wetland" />
		<tag k="ssr:stedsnr" v="555868" />
	</node>
	<node lat="61.837369445281446" lon="8.663761117430846" id="-16488">
		<tag k="name" v="Omondjordet" />
=======
	<node id="-365937" lat="61.5973166631" lon="8.29433611311">
		<tag k="name" v="Tverråbrean" />
		<tag k="natural" v="glacier" />
		<tag k="ssr:stedsnr" v="192021" />
	</node>
	<node id="-365936" lat="61.5978611097" lon="8.39636111173">
		<tag k="name" v="Hellstugu" />
		<tag k="place" v="locality" />
		<tag k="ssr:stedsnr" v="192019" />
	</node>
	<node id="-365422" lat="61.6769833325" lon="8.35097500587">
		<tag k="name" v="Juvfonne" />
		<tag k="natural" v="glacier" />
		<tag k="ssr:stedsnr" v="920202" />
	</node>
	<node id="-366442" lat="61.677811115" lon="8.43683054674">
		<tag k="name" v="Guddemyren" />
		<tag k="natural" v="wetland" />
		<tag k="ssr:stedsnr" v="617242" />
	</node>
	<node id="-366440" lat="61.7872305529" lon="8.59944445325">
		<tag k="name" v="Stormyri" />
		<tag k="natural" v="wetland" />
		<tag k="ssr:stedsnr" v="617234" />
	</node>
	<node id="-365927" lat="61.9406805557" lon="8.86313056426">
		<tag k="historic" v="shieling" />
		<tag k="name" v="Søre Ramstad sætre" />
		<tag k="place" v="locality" />
		<tag k="ssr:stedsnr" v="175725" />
	</node>
	<node id="-365925" lat="61.8811777776" lon="8.7345333277">
		<tag k="name" v="Rognesætergeilen" />
		<tag k="place" v="locality" />
		<tag k="ssr:stedsnr" v="175597" />
	</node>
	<node id="-366430" lat="61.6444555566" lon="8.33570832512">
		<tag k="name" v="Styggebrean" />
		<tag k="natural" v="glacier" />
		<tag k="ssr:stedsnr" v="617067" />
	</node>
	<node id="-365797" lat="61.8026750003" lon="8.28278054926">
		<tag k="name" v="Møyldulbreen" />
		<tag k="natural" v="glacier" />
		<tag k="ssr:stedsnr" v="72930" />
	</node>
	<node id="-365404" lat="61.6664194445" lon="8.10690555605">
		<tag k="historic" v="shieling" />
		<tag k="name" v="Gammelsætre" />
		<tag k="place" v="locality" />
		<tag k="ssr:stedsnr" v="904680" />
	</node>
	<node id="-364739" lat="61.4081722244" lon="8.48833054699">
		<tag k="name" v="Langedalsbrean" />
		<tag k="natural" v="glacier" />
		<tag k="ssr:stedsnr" v="189114" />
	</node>
	<node id="-365910" lat="61.8892972261" lon="8.83768888261">
		<tag k="name" v="Jordet" />
		<tag k="place" v="locality" />
		<tag k="ssr:stedsnr" v="175302" />
	</node>
	<node id="-366414" lat="61.7301361134" lon="8.03481389555">
		<tag k="name" v="Høybrean" />
		<tag k="natural" v="glacier" />
		<tag k="ssr:stedsnr" v="616378" />
	</node>
	<node id="-364877" lat="61.8689277756" lon="8.71348888902">
		<tag k="name" v="Løyfte" />
		<tag k="place" v="locality" />
		<tag k="ssr:stedsnr" v="478950" />
	</node>
	<node id="-364876" lat="61.8693861131" lon="8.74177222093">
		<tag k="landuse" v="quarry" />
		<tag k="name" v="Haugholet" />
		<tag k="ssr:stedsnr" v="478947" />
	</node>
	<node id="-364872" lat="61.794013888" lon="8.92799444426">
		<tag k="name" v="Raustein" />
		<tag k="natural" v="stone" />
		<tag k="ssr:stedsnr" v="478440" />
	</node>
	<node id="-364871" lat="61.744386108" lon="8.43428055782">
		<tag k="name" v="Sveagrovmyren" />
		<tag k="natural" v="wetland" />
		<tag k="ssr:stedsnr" v="478438" />
	</node>
	<node id="-366405" lat="61.5336583355" lon="8.44694444328">
		<tag k="name" v="Vestre Memurubrean" />
		<tag k="natural" v="glacier" />
		<tag k="ssr:stedsnr" v="616117" />
	</node>
	<node id="-364863" lat="61.6967583315" lon="8.18714999676">
		<tag k="name" v="Søre Rausteinen" />
		<tag k="natural" v="stone" />
		<tag k="ssr:stedsnr" v="477549" />
	</node>
	<node id="-364859" lat="61.9320055555" lon="8.73025278116">
		<tag k="alt_name" v="Kvitgrovmorkje" />
		<tag k="name" v="Kvitgrovsmorki" />
>>>>>>> e1d4bc35ff8a6074a6f2e91616a996b547c36f15
		<tag k="place" v="locality" />
		<tag k="ssr:stedsnr" v="696801" />
	</node>
<<<<<<< HEAD
	<node lat="61.533658335521615" lon="8.446944443275434" id="-16510">
		<tag k="name" v="Vestre Memurubrean" />
=======
	<node id="-364841" lat="61.6157777748" lon="8.0967944524">
		<tag k="name" v="Brangsbrean" />
>>>>>>> e1d4bc35ff8a6074a6f2e91616a996b547c36f15
		<tag k="natural" v="glacier" />
		<tag k="ssr:stedsnr" v="616117" />
	</node>
<<<<<<< HEAD
	<node lat="61.69521110812055" lon="8.184344438784674" id="-16563">
		<tag k="name" v="Nørdre Rausteinen" />
		<tag k="natural" v="stone" />
		<tag k="ssr:stedsnr" v="659512" />
	</node>
	<node lat="61.871583329652836" lon="8.507772226840732" id="-16566">
		<tag k="name" v="Grovakroken" />
=======
	<node id="-366357" lat="61.8427277769" lon="8.57789167279">
		<tag k="name" v="Skjæsarøye" />
		<tag k="place" v="locality" />
		<tag k="ssr:stedsnr" v="574226" />
	</node>
	<node id="-365330" lat="61.84227222" lon="8.57469999662">
		<tag k="name" v="Gjeisarøye" />
>>>>>>> e1d4bc35ff8a6074a6f2e91616a996b547c36f15
		<tag k="place" v="locality" />
		<tag k="ssr:stedsnr" v="660134" />
	</node>
<<<<<<< HEAD
	<node lat="61.66963611025112" lon="8.435947229035841" id="-16567">
=======
	<node id="-365324" lat="61.6696361103" lon="8.43594722904">
>>>>>>> e1d4bc35ff8a6074a6f2e91616a996b547c36f15
		<tag k="historic" v="shieling" />
		<tag k="name" v="Stulein" />
		<tag k="place" v="locality" />
		<tag k="ssr:stedsnr" v="660506" />
	</node>
<<<<<<< HEAD
	<node lat="61.58994722516954" lon="8.151241672455148" id="-16573">
		<tag k="name" v="Jervefonne" />
		<tag k="natural" v="glacier" />
		<tag k="ssr:stedsnr" v="677037" />
	</node>
	<node lat="61.662375001519166" lon="8.280711105618419" id="-16586">
		<tag k="name" v="Storgrovbrean" />
		<tag k="natural" v="glacier" />
		<tag k="ssr:stedsnr" v="677190" />
	</node>
	<node lat="61.77778333117191" lon="8.73575555729993" id="-16602">
		<tag k="fixme" v="multiple name tags, choose one and add the other to alt_name" />
		<tag k="name" v="Handklefonne;Kniplingsfonne" />
		<tag k="natural" v="glacier" />
		<tag k="ssr:stedsnr" v="678228" />
	</node>
	<node lat="61.762013890792524" lon="8.982505554709576" id="-16620">
		<tag k="name" v="Gulstein" />
=======
	<node id="-365323" lat="61.8423666628" lon="8.55865834095">
		<tag k="name" v="Grov" />
		<tag k="place" v="locality" />
		<tag k="ssr:stedsnr" v="877438" />
	</node>
	<node id="-365320" lat="61.7460972193" lon="8.38013333052">
		<tag k="name" v="Volkvee" />
		<tag k="place" v="locality" />
		<tag k="ssr:stedsnr" v="660270" />
	</node>
	<node id="-365314" lat="61.6952111081" lon="8.18434443878">
		<tag k="name" v="Nørdre Rausteinen" />
>>>>>>> e1d4bc35ff8a6074a6f2e91616a996b547c36f15
		<tag k="natural" v="stone" />
		<tag k="ssr:stedsnr" v="707357" />
	</node>
<<<<<<< HEAD
	<node lat="61.637933332027316" lon="8.326108334956515" id="-16635">
		<tag k="name" v="Piggbrean" />
		<tag k="natural" v="glacier" />
		<tag k="ssr:stedsnr" v="738055" />
	</node>
	<node lat="61.644286114715186" lon="8.284227773327963" id="-16637">
		<tag k="name" v="Storjuvbrean" />
		<tag k="natural" v="glacier" />
		<tag k="ssr:stedsnr" v="738058" />
	</node>
	<node lat="61.71047777670735" lon="8.786449993224501" id="-16641">
		<tag k="name" v="Svartholmyrin" />
		<tag k="natural" v="wetland" />
		<tag k="ssr:stedsnr" v="738079" />
	</node>
	<node lat="61.76459166389166" lon="8.698222216024188" id="-16656">
		<tag k="name" v="Storfonne" />
		<tag k="natural" v="glacier" />
		<tag k="ssr:stedsnr" v="739210" />
	</node>
	<node lat="61.682961112097345" lon="8.225149995059112" id="-16659">
		<tag k="name" v="Øvre Saltsletta" />
=======
	<node id="-365825" lat="61.7332499996" lon="8.28147222313">
		<tag k="historic" v="shieling" />
		<tag k="name" v="Fjellstulein" />
>>>>>>> e1d4bc35ff8a6074a6f2e91616a996b547c36f15
		<tag k="place" v="locality" />
		<tag k="ssr:stedsnr" v="902750" />
	</node>
<<<<<<< HEAD
	<node lat="61.666419444515995" lon="8.106905556048137" id="-16685">
=======
	<node id="-365824" lat="61.6898861106" lon="8.44751943991">
>>>>>>> e1d4bc35ff8a6074a6f2e91616a996b547c36f15
		<tag k="historic" v="shieling" />
		<tag k="name" v="Gammelsætre" />
		<tag k="place" v="locality" />
		<tag k="ssr:stedsnr" v="904680" />
	</node>
<<<<<<< HEAD
	<node lat="61.682411106662585" lon="8.208605555864668" id="-16697">
		<tag k="name" v="Langmyre" />
=======
	<node id="-365299" lat="61.8955972267" lon="8.74117222088">
		<tag k="alt_name" v="Vammyre" />
		<tag k="name" v="Vammyri" />
>>>>>>> e1d4bc35ff8a6074a6f2e91616a996b547c36f15
		<tag k="natural" v="wetland" />
		<tag k="ssr:stedsnr" v="781748" />
	</node>
<<<<<<< HEAD
	<node lat="61.70541944074211" lon="8.700463881387812" id="-16760">
		<tag k="name" v="Rjupurde" />
		<tag k="natural" v="scree" />
		<tag k="ssr:stedsnr" v="920070" />
	</node>
	<node lat="61.6769833325138" lon="8.350975005867943" id="-16772">
		<tag k="name" v="Juvfonne" />
		<tag k="natural" v="glacier" />
		<tag k="ssr:stedsnr" v="920202" />
	</node>
	<node lat="61.75937500058082" lon="8.18743889409653" id="-16791">
		<tag k="name" v="Runningsbrean" />
=======
	<node id="-364786" lat="61.6812027776" lon="8.15085555548">
		<tag k="name" v="Blanksteinen" />
		<tag k="natural" v="stone" />
		<tag k="ssr:stedsnr" v="296702" />
	</node>
	<node id="-364781" lat="61.7030333361" lon="8.2769833411">
		<tag k="name" v="Elvesætermorkje" />
		<tag k="natural" v="wetland" />
		<tag k="ssr:stedsnr" v="296323" />
	</node>
	<node id="-366316" lat="61.554561109" lon="8.06123610853">
		<tag k="name" v="Bøverbrean" />
>>>>>>> e1d4bc35ff8a6074a6f2e91616a996b547c36f15
		<tag k="natural" v="glacier" />
		<tag k="ssr:stedsnr" v="921967" />
	</node>
<<<<<<< HEAD
	<node lat="61.83219444399061" lon="8.723002784508928" id="-16829">
		<tag k="name" v="Fosstulmyri" />
=======
	<node id="-365291" lat="61.8349416686" lon="8.81342500407">
		<tag k="alt_name" v="Elgsmyri" />
		<tag k="name" v="Elgsmyre" />
>>>>>>> e1d4bc35ff8a6074a6f2e91616a996b547c36f15
		<tag k="natural" v="wetland" />
		<tag k="ssr:stedsnr" v="860021" />
	</node>
<<<<<<< HEAD
	<node lat="61.55063055533163" lon="8.497013892794616" id="-16851">
		<tag k="name" v="Austre Memurubrean" />
=======
	<node id="-366313" lat="61.585913892" lon="8.25886111666">
		<tag k="name" v="Søre Illåbrean" />
>>>>>>> e1d4bc35ff8a6074a6f2e91616a996b547c36f15
		<tag k="natural" v="glacier" />
		<tag k="ssr:stedsnr" v="860916" />
	</node>
<<<<<<< HEAD
	<node lat="61.84227221998656" lon="8.574699996615108" id="-16855">
		<tag k="name" v="Gjeisarøye" />
		<tag k="place" v="locality" />
		<tag k="ssr:stedsnr" v="878269" />
	</node>
	<node lat="61.75696666229734" lon="8.749458327435205" id="-16908">
		<tag k="name" v="Langfonne" />
		<tag k="natural" v="glacier" />
		<tag k="ssr:stedsnr" v="921167" />
	</node>
	<node lat="61.75287222063102" lon="8.376572214668663" id="-16922">
=======
	<node id="-364773" lat="61.7854861131" lon="8.42630832738">
		<tag k="name" v="Steinauren" />
		<tag k="natural" v="scree" />
		<tag k="ssr:stedsnr" v="296038" />
	</node>
	<node id="-366508" lat="61.7104777767" lon="8.78644999322">
		<tag k="name" v="Svartholmyrin" />
		<tag k="natural" v="wetland" />
		<tag k="ssr:stedsnr" v="738079" />
	</node>
	<node id="-366300" lat="61.9378638911" lon="8.85301111419">
>>>>>>> e1d4bc35ff8a6074a6f2e91616a996b547c36f15
		<tag k="historic" v="shieling" />
		<tag k="name" v="Gamelsætre" />
		<tag k="place" v="locality" />
		<tag k="ssr:stedsnr" v="963540" />
	</node>
<<<<<<< HEAD
	<node lat="61.64499444640498" lon="8.242461119121746" id="-16953">
		<tag k="name" v="Heimre Illåbrean" />
		<tag k="natural" v="glacier" />
		<tag k="ssr:stedsnr" v="10194" />
	</node>
	<node lat="61.593636112408156" lon="8.085436107504473" id="-16960">
		<tag k="name" v="Nufsfonne" />
		<tag k="natural" v="glacier" />
		<tag k="ssr:stedsnr" v="10272" />
	</node>
	<node lat="61.62406388820989" lon="8.13842499392331" id="-16970">
		<tag k="name" v="Høgskridubrean" />
=======
	<node id="-366299" lat="61.6755138875" lon="8.14561110495">
		<tag k="name" v="Rolvkvee" />
		<tag k="place" v="locality" />
		<tag k="ssr:stedsnr" v="539695" />
	</node>
	<node id="-365272" lat="61.6408000011" lon="8.22278610335">
		<tag k="name" v="Dumhøbrean" />
>>>>>>> e1d4bc35ff8a6074a6f2e91616a996b547c36f15
		<tag k="natural" v="glacier" />
		<tag k="ssr:stedsnr" v="10057" />
	</node>
<<<<<<< HEAD
	<node lat="61.81470833271094" lon="8.910844446686639" id="-16983">
		<tag k="alt_name" v="Langmyre" />
		<tag k="name" v="Langmyri" />
		<tag k="natural" v="wetland" />
		<tag k="ssr:stedsnr" v="10465" />
	</node>
	<node lat="61.88173888649935" lon="8.518236116260443" id="-16988">
		<tag k="alt_name" v="Søremyre" />
		<tag k="name" v="Søremyri" />
		<tag k="natural" v="wetland" />
		<tag k="ssr:stedsnr" v="10923" />
	</node>
	<node lat="61.88313611272415" lon="8.82778888047288" id="-17018">
		<tag k="name" v="Helgslåe" />
=======
	<node id="-366293" lat="61.8850833291" lon="8.72204722632">
		<tag k="historic" v="shieling" />
		<tag k="name" v="Nysætre" />
		<tag k="place" v="locality" />
		<tag k="ssr:stedsnr" v="539585" />
	</node>
	<node id="-366292" lat="61.7232666653" lon="8.25323055714">
		<tag k="name" v="Kvandalsvolløyen" />
>>>>>>> e1d4bc35ff8a6074a6f2e91616a996b547c36f15
		<tag k="place" v="locality" />
		<tag k="ssr:stedsnr" v="53300" />
	</node>
<<<<<<< HEAD
	<node lat="61.76252777512763" lon="8.39758888962622" id="-17022">
		<tag k="name" v="Flaskom" />
=======
	<node id="-366803" lat="61.7528722206" lon="8.37657221467">
		<tag k="historic" v="shieling" />
		<tag k="name" v="Gamelsætre" />
>>>>>>> e1d4bc35ff8a6074a6f2e91616a996b547c36f15
		<tag k="place" v="locality" />
		<tag k="ssr:stedsnr" v="53443" />
	</node>
<<<<<<< HEAD
	<node lat="61.67887221953253" lon="8.225455553139698" id="-17028">
		<tag k="name" v="Nedre Saltsletta" />
=======
	<node id="-366289" lat="61.7115527738" lon="8.30551944863">
		<tag k="name" v="Svartkjørre" />
>>>>>>> e1d4bc35ff8a6074a6f2e91616a996b547c36f15
		<tag k="place" v="locality" />
		<tag k="ssr:stedsnr" v="53752" />
	</node>
<<<<<<< HEAD
	<node lat="61.709430555765586" lon="8.443286108125902" id="-17037">
		<tag k="historic" v="shieling" />
		<tag k="name" v="Langstulen" />
=======
	<node id="-366288" lat="61.7162638922" lon="8.29191111533">
		<tag k="name" v="Rustamorkje" />
>>>>>>> e1d4bc35ff8a6074a6f2e91616a996b547c36f15
		<tag k="place" v="locality" />
		<tag k="ssr:stedsnr" v="54451" />
	</node>
<<<<<<< HEAD
	<node lat="61.86239444342999" lon="8.785599991744828" id="-17062">
		<tag k="alt_name" v="Gregoskvee" />
		<tag k="landuse" v="meadow" />
		<tag k="name" v="Gregorskvei" />
		<tag k="ssr:stedsnr" v="71039" />
	</node>
	<node lat="61.80267500026061" lon="8.282780549264878" id="-17089">
		<tag k="name" v="Møyldulbreen" />
=======
	<node id="-364746" lat="61.5381472198" lon="8.14406110845">
		<tag k="name" v="Sandelvbrean" />
>>>>>>> e1d4bc35ff8a6074a6f2e91616a996b547c36f15
		<tag k="natural" v="glacier" />
		<tag k="ssr:stedsnr" v="72930" />
	</node>
<<<<<<< HEAD
	<node lat="61.68988611061722" lon="8.447519439905113" id="-17111">
=======
	<node id="-365257" lat="61.7250027783" lon="8.43551944012">
>>>>>>> e1d4bc35ff8a6074a6f2e91616a996b547c36f15
		<tag k="historic" v="shieling" />
		<tag k="name" v="Heggjestulen" />
		<tag k="place" v="locality" />
		<tag k="ssr:stedsnr" v="114458" />
	</node>
<<<<<<< HEAD
	<node lat="61.73324999963742" lon="8.281472223134477" id="-17112">
=======
	<node id="-365256" lat="61.7135611142" lon="8.43826388134">
>>>>>>> e1d4bc35ff8a6074a6f2e91616a996b547c36f15
		<tag k="historic" v="shieling" />
		<tag k="name" v="Fjellstulein" />
		<tag k="place" v="locality" />
		<tag k="ssr:stedsnr" v="114491" />
	</node>
	<node lat="61.60822461774229" lon="8.747395196869947" id="-17153">
		<tag k="loc_name" v="Nautgardsbreane" />
		<tag k="name" v="Nautgardsbrean" />
		<tag k="natural" v="glacier" />
		<tag k="ssr:stedsnr" v="131930" />
	</node>
<<<<<<< HEAD
	<node lat="61.88117777764854" lon="8.734533327700357" id="-17197">
		<tag k="name" v="Rognesætergeilen" />
		<tag k="place" v="locality" />
		<tag k="ssr:stedsnr" v="175597" />
	</node>
	<node lat="61.94068055568578" lon="8.863130564262795" id="-17200">
		<tag k="historic" v="shieling" />
		<tag k="name" v="Søre Ramstad sætre" />
		<tag k="place" v="locality" />
		<tag k="ssr:stedsnr" v="175725" />
	</node>
	<node lat="61.408172224388444" lon="8.488330546989921" id="-17205">
		<tag k="name" v="Langedalsbrean" />
		<tag k="natural" v="glacier" />
		<tag k="ssr:stedsnr" v="189114" />
	</node>
	<node lat="61.72953333247888" lon="8.127191663493377" id="-17216">
		<tag k="name" v="Geitåbrean" />
		<tag k="natural" v="glacier" />
		<tag k="ssr:stedsnr" v="192186" />
	</node>
	<node lat="61.53814721976306" lon="8.144061108450302" id="-17229">
		<tag k="name" v="Sandelvbrean" />
		<tag k="natural" v="glacier" />
		<tag k="ssr:stedsnr" v="192128" />
	</node>
	<node lat="61.753218421816015" lon="8.169334619106316" id="-17264">
		<tag k="name" v="Hestbrean" />
		<tag k="natural" v="glacier" />
		<tag k="ssr:stedsnr" v="192829" />
	</node>
	<node lat="61.58436110926539" lon="8.500047224285364" id="-17278">
		<tag k="name" v="Veobrean" />
=======
	<node id="-365765" lat="61.6657666625" lon="8.34248611343">
		<tag k="name" v="Vesljuvbrean" />
		<tag k="natural" v="glacier" />
		<tag k="ssr:stedsnr" v="70185" />
	</node>
	<node id="-365252" lat="61.6954194408" lon="8.27051110642">
		<tag k="name" v="Massurde" />
		<tag k="natural" v="scree" />
		<tag k="ssr:stedsnr" v="721335" />
	</node>
	<node id="-365251" lat="61.6985472247" lon="8.30236111089">
		<tag k="name" v="Bottmyre" />
		<tag k="natural" v="wetland" />
		<tag k="ssr:stedsnr" v="721328" />
	</node>
	<node id="-365250" lat="61.7270222202" lon="8.33969722601">
		<tag k="name" v="Breinnsætein" />
		<tag k="place" v="locality" />
		<tag k="ssr:stedsnr" v="721323" />
	</node>
	<node id="-365246" lat="61.7585527746" lon="8.40860833506">
		<tag k="name" v="Glømsdalsøye" />
		<tag k="place" v="locality" />
		<tag k="ssr:stedsnr" v="721396" />
	</node>
	<node id="-364728" lat="61.845405555" lon="8.6690166603">
		<tag k="name" v="Øverjordet" />
		<tag k="place" v="locality" />
		<tag k="ssr:stedsnr" v="149811" />
	</node>
	<node id="-366771" lat="61.757850003" lon="8.62219722868">
		<tag k="name" v="Illmyri" />
		<tag k="natural" v="wetland" />
		<tag k="ssr:stedsnr" v="860250" />
	</node>
	<node id="-366763" lat="61.6240611148" lon="8.31070277791">
		<tag k="name" v="Svellnosbrean" />
>>>>>>> e1d4bc35ff8a6074a6f2e91616a996b547c36f15
		<tag k="natural" v="glacier" />
		<tag k="ssr:stedsnr" v="192928" />
	</node>
<<<<<<< HEAD
	<node lat="61.70303333609696" lon="8.276983341102031" id="-17313">
		<tag k="name" v="Elvesætermorkje" />
		<tag k="natural" v="wetland" />
		<tag k="ssr:stedsnr" v="296323" />
	</node>
	<node lat="61.615777774778685" lon="8.09679445239629" id="-17345">
		<tag k="name" v="Brangsbrean" />
		<tag k="natural" v="glacier" />
		<tag k="ssr:stedsnr" v="313060" />
	</node>
	<node lat="61.93200555551282" lon="8.730252781158061" id="-17364">
		<tag k="alt_name" v="Kvitgrovmorkje" />
		<tag k="name" v="Kvitgrovsmorki" />
=======
	<node id="-365226" lat="61.7620138908" lon="8.98250555471">
		<tag k="name" v="Gulstein" />
		<tag k="natural" v="stone" />
		<tag k="ssr:stedsnr" v="707357" />
	</node>
	<node id="-365734" lat="61.8831361127" lon="8.82778888047">
		<tag k="name" v="Helgslåe" />
		<tag k="place" v="locality" />
		<tag k="ssr:stedsnr" v="53300" />
	</node>
	<node id="-365733" lat="61.7625277751" lon="8.39758888963">
		<tag k="name" v="Flaskom" />
>>>>>>> e1d4bc35ff8a6074a6f2e91616a996b547c36f15
		<tag k="place" v="locality" />
		<tag k="ssr:stedsnr" v="314863" />
	</node>
<<<<<<< HEAD
	<node lat="61.77218611201494" lon="8.217158340549176" id="-17370">
		<tag k="name" v="Sulbrean" />
=======
	<node id="-364707" lat="61.6487305558" lon="8.57807777009">
		<tag k="name" v="Glitterbrean" />
>>>>>>> e1d4bc35ff8a6074a6f2e91616a996b547c36f15
		<tag k="natural" v="glacier" />
		<tag k="ssr:stedsnr" v="314978" />
	</node>
<<<<<<< HEAD
	<node lat="61.84868610719209" lon="8.680461111566663" id="-17384">
		<tag k="name" v="Kismyre" />
		<tag k="natural" v="wetland" />
		<tag k="ssr:stedsnr" v="332777" />
	</node>
	<node lat="61.874911112873356" lon="8.517630564240957" id="-17388">
		<tag k="name" v="Larskvee" />
		<tag k="place" v="locality" />
		<tag k="ssr:stedsnr" v="357135" />
	</node>
	<node lat="61.68836388469995" lon="8.240480549538844" id="-17392">
		<tag k="name" v="Morkje" />
=======
	<node id="-365253" lat="61.8855722259" lon="8.71283056409">
		<tag k="name" v="Runningein" />
		<tag k="place" v="locality" />
		<tag k="ssr:stedsnr" v="721579" />
	</node>
	<node id="-366748" lat="61.6003749991" lon="8.37937777606">
		<tag k="historic" v="shieling" />
		<tag k="name" v="Gamelsætre" />
		<tag k="place" v="locality" />
		<tag k="ssr:stedsnr" v="859040" />
	</node>
	<node id="-366233" lat="61.6608166644" lon="8.54754721641">
		<tag k="name" v="Grotbrean" />
		<tag k="natural" v="glacier" />
		<tag k="ssr:stedsnr" v="434871" />
	</node>
	<node id="-366232" lat="61.6709611068" lon="8.79297499524">
		<tag k="name" v="Storkroken" />
>>>>>>> e1d4bc35ff8a6074a6f2e91616a996b547c36f15
		<tag k="place" v="locality" />
		<tag k="ssr:stedsnr" v="356744" />
	</node>
<<<<<<< HEAD
	<node lat="61.664647217823365" lon="8.433466668347005" id="-17400">
		<tag k="name" v="Reinstråe" />
		<tag k="place" v="locality" />
		<tag k="ssr:stedsnr" v="357474" />
	</node>
	<node lat="61.57575833720894" lon="8.086358339757027" id="-17447">
		<tag k="name" v="Leirbrean" />
=======
	<node id="-365202" lat="61.6754083342" lon="8.81695834024">
		<tag k="name" v="Heranosmyren" />
		<tag k="natural" v="wetland" />
		<tag k="ssr:stedsnr" v="555868" />
	</node>
	<node id="-366225" lat="61.6588166648" lon="8.6008805531">
		<tag k="name" v="Gråsubrean" />
>>>>>>> e1d4bc35ff8a6074a6f2e91616a996b547c36f15
		<tag k="natural" v="glacier" />
		<tag k="ssr:stedsnr" v="374332" />
	</node>
<<<<<<< HEAD
	<node lat="61.52993055299062" lon="8.280936120352491" id="-17479">
		<tag k="name" v="Høgvaglurde" />
		<tag k="natural" v="scree" />
		<tag k="ssr:stedsnr" v="495134" />
	</node>
	<node lat="61.690486110348765" lon="8.176572226989768" id="-17500">
		<tag k="name" v="Fiskebumyre" />
=======
	<node id="-366731" lat="61.8694722188" lon="8.63636111092">
		<tag k="name" v="Snertingdalsmyre" />
		<tag k="natural" v="wetland" />
		<tag k="ssr:stedsnr" v="843820" />
	</node>
	<node id="-365194" lat="61.7167749997" lon="8.42454166313">
		<tag k="name" v="Brennmyre" />
>>>>>>> e1d4bc35ff8a6074a6f2e91616a996b547c36f15
		<tag k="natural" v="wetland" />
		<tag k="ssr:stedsnr" v="417782" />
	</node>
<<<<<<< HEAD
	<node lat="61.71320555534115" lon="8.32599167310096" id="-17507">
		<tag k="name" v="Vassmyre" />
=======
	<node id="-365701" lat="61.8147083327" lon="8.91084444669">
		<tag k="alt_name" v="Langmyre" />
		<tag k="name" v="Langmyri" />
>>>>>>> e1d4bc35ff8a6074a6f2e91616a996b547c36f15
		<tag k="natural" v="wetland" />
		<tag k="ssr:stedsnr" v="418280" />
	</node>
<<<<<<< HEAD
	<node lat="61.72313610798633" lon="8.322491669849223" id="-17510">
		<tag k="name" v="Hynnstulein" />
=======
	<node id="-365186" lat="61.8373694453" lon="8.66376111743">
		<tag k="name" v="Omondjordet" />
>>>>>>> e1d4bc35ff8a6074a6f2e91616a996b547c36f15
		<tag k="place" v="locality" />
		<tag k="ssr:stedsnr" v="418319" />
	</node>
<<<<<<< HEAD
	<node lat="61.65881666476069" lon="8.600880553099945" id="-17537">
		<tag k="name" v="Gråsubrean" />
=======
	<node id="-365695" lat="61.5936361124" lon="8.0854361075">
		<tag k="name" v="Nufsfonne" />
>>>>>>> e1d4bc35ff8a6074a6f2e91616a996b547c36f15
		<tag k="natural" v="glacier" />
		<tag k="ssr:stedsnr" v="434857" />
	</node>
<<<<<<< HEAD
	<node lat="61.67096110675036" lon="8.792974995239488" id="-17539">
		<tag k="name" v="Storkroken" />
		<tag k="place" v="locality" />
		<tag k="ssr:stedsnr" v="434864" />
	</node>
	<node lat="61.75053055303697" lon="8.56943055310877" id="-17569">
		<tag k="name" v="Raudurdi" />
		<tag k="natural" v="scree" />
		<tag k="ssr:stedsnr" v="436145" />
	</node>
	<node lat="61.909311109418894" lon="8.781163881418598" id="-17581">
		<tag k="name" v="Tuvmyri" />
=======
	<node id="-364564" lat="61.8623944434" lon="8.78559999174">
		<tag k="alt_name" v="Gregoskvee" />
		<tag k="landuse" v="meadow" />
		<tag k="name" v="Gregorskvei" />
		<tag k="ssr:stedsnr" v="71039" />
	</node>
	<node id="-366194" lat="61.8805972202" lon="8.78026388797">
		<tag k="name" v="Langmyre" />
		<tag k="natural" v="wetland" />
		<tag k="ssr:stedsnr" v="418284" />
	</node>
	<node id="-366193" lat="61.7132055553" lon="8.3259916731">
		<tag k="name" v="Vassmyre" />
		<tag k="natural" v="wetland" />
		<tag k="ssr:stedsnr" v="418280" />
	</node>
	<node id="-366189" lat="61.6904861103" lon="8.17657222699">
		<tag k="name" v="Fiskebumyre" />
>>>>>>> e1d4bc35ff8a6074a6f2e91616a996b547c36f15
		<tag k="natural" v="wetland" />
		<tag k="ssr:stedsnr" v="495933" />
	</node>
	<node id="-364818" lat="61.8495777747" lon="8.63690276883">
		<tag k="name" v="Granskogen" />
		<tag k="place" v="locality" />
		<tag k="ssr:stedsnr" v="453828" />
	</node>
	<node id="-365674" lat="61.6240638882" lon="8.13842499392">
		<tag k="name" v="Høgskridubrean" />
		<tag k="natural" v="glacier" />
		<tag k="ssr:stedsnr" v="10057" />
	</node>
	<node id="-366176" lat="61.8480833318" lon="8.82622500021">
		<tag k="name" v="Dokkøygarden" />
		<tag k="place" v="locality" />
		<tag k="ssr:stedsnr" v="392591" />
	</node>
	<node id="-365661" lat="61.5573050813" lon="8.43658295344">
		<tag k="name" v="Hellstugubrean" />
		<tag k="natural" v="glacier" />
		<tag k="ssr:stedsnr" v="10007" />
	</node>
	<node id="-365658" lat="61.5533194438" lon="8.14001111804">
		<tag k="name" v="Bjørnbrean" />
		<tag k="natural" v="glacier" />
		<tag k="ssr:stedsnr" v="10001" />
	</node>
	<node id="-365657" lat="61.6449944464" lon="8.24246111912">
		<tag k="name" v="Heimre Illåbrean" />
		<tag k="natural" v="glacier" />
		<tag k="ssr:stedsnr" v="10194" />
	</node>
	<node id="-365131" lat="61.7777833312" lon="8.7357555573">
		<tag k="fixme" v="multiple name tags, choose one and add the other to alt_name" />
		<tag k="name" v="Handklefonne;Kniplingsfonne" />
		<tag k="natural" v="glacier" />
		<tag k="ssr:stedsnr" v="678228" />
	</node>
	<node id="-366154" lat="61.9345777779" lon="8.82169721336">
		<tag k="alt_name" v="Odden" />
		<tag k="name" v="Oddan" />
		<tag k="place" v="locality" />
		<tag k="ssr:stedsnr" v="374895" />
	</node>
	<node id="-364614" lat="61.5605222251" lon="8.0833972146">
		<tag k="name" v="Smørstabbrean" />
		<tag k="natural" v="glacier" />
		<tag k="ssr:stedsnr" v="252251" />
	</node>
	<node id="-366149" lat="61.5757583372" lon="8.08635833976">
		<tag k="name" v="Leirbrean" />
		<tag k="natural" v="glacier" />
		<tag k="ssr:stedsnr" v="374332" />
	</node>
	<node id="-366660" lat="61.5322138896" lon="8.34762222411">
		<tag k="name" v="Visbrean" />
		<tag k="natural" v="glacier" />
		<tag k="ssr:stedsnr" v="799131" />
	</node>
	<node id="-365629" lat="61.8704888863" lon="8.69311388191">
		<tag k="name" v="Måsåmyre" />
		<tag k="natural" v="wetland" />
		<tag k="ssr:stedsnr" v="963975" />
	</node>
	<node id="-365628" lat="61.8731027789" lon="8.70766110737">
		<tag k="name" v="Myre" />
		<tag k="natural" v="wetland" />
		<tag k="ssr:stedsnr" v="963973" />
	</node>
	<node id="-365625" lat="61.6840166644" lon="8.22803332485">
		<tag k="name" v="Orderkjørre" />
		<tag k="place" v="locality" />
		<tag k="ssr:stedsnr" v="963755" />
	</node>
	<node id="-364600" lat="61.8583944446" lon="8.57417221394">
		<tag k="alt_name" v="Vetamyre" />
		<tag k="name" v="Vetamyri" />
		<tag k="natural" v="wetland" />
		<tag k="ssr:stedsnr" v="252075" />
	</node>
	<node id="-365105" lat="61.5899472252" lon="8.15124167246">
		<tag k="name" v="Jervefonne" />
		<tag k="natural" v="glacier" />
		<tag k="ssr:stedsnr" v="677037" />
	</node>
	<node id="-365102" lat="61.6623750015" lon="8.28071110562">
		<tag k="name" v="Storgrovbrean" />
		<tag k="natural" v="glacier" />
		<tag k="ssr:stedsnr" v="677190" />
	</node>
	<node id="-366429" lat="61.6287138904" lon="8.1835888934">
		<tag k="name" v="Blåurde" />
		<tag k="natural" v="scree" />
		<tag k="ssr:stedsnr" v="617064" />
	</node>
	<node id="-366636" lat="61.6944638865" lon="8.56178054746">
		<tag k="name" v="Smiugjelsbrean" />
		<tag k="natural" v="glacier" />
		<tag k="ssr:stedsnr" v="799051" />
	</node>
	<node id="-365604" lat="61.7054194407" lon="8.70046388139">
		<tag k="name" v="Rjupurde" />
		<tag k="natural" v="scree" />
		<tag k="ssr:stedsnr" v="920070" />
	</node>
	<node id="-365085" lat="61.6872638923" lon="8.23633054724">
		<tag k="name" v="Syljuflaten" />
		<tag k="place" v="locality" />
		<tag k="ssr:stedsnr" v="477772" />
	</node>
	<node id="-364572" lat="61.7402361258" lon="8.13731324442">
		<tag k="name" v="Heksetebrean" />
		<tag k="natural" v="glacier" />
		<tag k="ssr:stedsnr" v="71212" />
	</node>
	<node id="-365083" lat="61.6901305596" lon="8.24774444545">
		<tag k="name" v="Vesllimorkje" />
		<tag k="place" v="locality" />
		<tag k="ssr:stedsnr" v="477766" />
	</node>
	<node id="-366614" lat="61.6824111067" lon="8.20860555586">
		<tag k="name" v="Langmyre" />
		<tag k="natural" v="wetland" />
		<tag k="ssr:stedsnr" v="781748" />
	</node>
	<node id="-366100" lat="61.6646472178" lon="8.43346666835">
		<tag k="name" v="Reinstråe" />
		<tag k="place" v="locality" />
		<tag k="ssr:stedsnr" v="357474" />
	</node>
	<node id="-366610" lat="61.7167333297" lon="8.20594721457">
		<tag k="historic" v="shieling" />
		<tag k="name" v="Øverstulen" />
		<tag k="place" v="locality" />
		<tag k="ssr:stedsnr" v="781597" />
	</node>
	<node id="-366094" lat="61.7686277764" lon="8.40937221938">
		<tag k="name" v="Rojordet" />
		<tag k="place" v="locality" />
		<tag k="ssr:stedsnr" v="357414" />
	</node>
	<node id="-365067" lat="61.7657055599" lon="8.39541110182">
		<tag k="name" v="Tøften" />
		<tag k="place" v="locality" />
		<tag k="ssr:stedsnr" v="660423" />
	</node>
	<node id="-366087" lat="61.8749111129" lon="8.51763056424">
		<tag k="name" v="Larskvee" />
		<tag k="place" v="locality" />
		<tag k="ssr:stedsnr" v="357135" />
	</node>
	<node id="-364549" lat="61.7094305558" lon="8.44328610813">
		<tag k="historic" v="shieling" />
		<tag k="name" v="Langstulen" />
		<tag k="place" v="locality" />
		<tag k="ssr:stedsnr" v="54451" />
	</node>
	<node id="-365060" lat="61.8715833297" lon="8.50777222684">
		<tag k="name" v="Grovakroken" />
		<tag k="place" v="locality" />
		<tag k="ssr:stedsnr" v="660134" />
	</node>
	<node id="-364546" lat="61.7510250043" lon="8.39629722162">
		<tag k="name" v="Stugukvee" />
		<tag k="old_name" v="Stugykvee" />
		<tag k="place" v="locality" />
		<tag k="ssr:stedsnr" v="54404" />
	</node>
</osm>
