<?xml version="1.0" encoding="UTF-8"?>
<<<<<<< HEAD
<osm version="0.6" generator="osmapis">
	<node lat="61.86411666953239" lon="8.614391664366218" id="-15872">
		<tag k="fixme" v="consider highway=path" />
		<tag k="highway" v="track" />
		<tag k="name" v="Grjotheimsvegen" />
		<tag k="ssr:stedsnr" v="53173" />
	</node>
	<node lat="61.86526110999337" lon="8.751472224136716" id="-15919">
		<tag k="fixme" v="consider highway=path" />
		<tag k="highway" v="track" />
		<tag k="name" v="Sandomvegen" />
		<tag k="ssr:stedsnr" v="90427" />
	</node>
	<node lat="61.71516944259682" lon="8.197883339320708" id="-15926">
=======
<osm generator="osmapis" version="0.6">
	<node id="-366208" lat="61.6654194413" lon="8.18474999223">
		<tag k="junction" v="yes" />
		<tag k="name" v="Vegaskjelet" />
		<tag k="place" v="locality" />
		<tag k="ssr:stedsnr" v="418680" />
	</node>
	<node id="-366718" lat="61.8736527774" lon="8.81932777785">
		<tag k="highway" v="path" />
		<tag k="name" v="Gamle Liasætervegen" />
		<tag k="ssr:stedsnr" v="843101" />
	</node>
	<node id="-366845" lat="61.8313449521" lon="8.6581201637">
		<tag k="highway" v="path" />
		<tag k="name" v="Brukvee" />
		<tag k="ssr:stedsnr" v="1073517" />
	</node>
	<node id="-366844" lat="61.9110386677" lon="8.64202754519">
		<tag k="highway" v="path" />
		<tag k="name" v="Aukvei" />
		<tag k="ssr:stedsnr" v="1073341" />
	</node>
	<node id="-366843" lat="61.695411254" lon="8.72885538058">
		<tag k="highway" v="path" />
		<tag k="name" v="Hestvegen" />
		<tag k="ssr:stedsnr" v="1073326" />
	</node>
	<node id="-365811" lat="61.86526111" lon="8.75147222414">
		<tag k="fixme" v="consider highway=path" />
		<tag k="highway" v="track" />
		<tag k="name" v="Sandomvegen" />
		<tag k="ssr:stedsnr" v="90427" />
	</node>
	<node id="-364785" lat="61.6586333316" lon="8.00143332551">
		<tag k="fixme" v="consider highway=path" />
		<tag k="highway" v="track" />
		<tag k="name" v="Tverrbyttvegen" />
		<tag k="ssr:stedsnr" v="296678" />
	</node>
	<node id="-365317" lat="61.8847972221" lon="8.84382222659">
		<tag k="highway" v="path" />
		<tag k="name" v="Blakkstjønnråket" />
		<tag k="ssr:stedsnr" v="660319" />
	</node>
	<node id="-365821" lat="61.767091671" lon="8.46825555841">
		<tag k="highway" v="path" />
		<tag k="name" v="Viein" />
		<tag k="ssr:stedsnr" v="114095" />
	</node>
	<node id="-366060" lat="61.838038889" lon="8.51893611328">
		<tag k="highway" v="path" />
		<tag k="name" v="Lomseggstigen" />
		<tag k="ssr:stedsnr" v="329355" />
	</node>
	<node id="-366059" lat="61.8263194421" lon="8.55424166196">
		<tag k="fixme" v="consider highway=path" />
		<tag k="highway" v="track" />
		<tag k="name" v="Steinflatvegen" />
		<tag k="ssr:stedsnr" v="329156" />
	</node>
	<node id="-366185" lat="61.7037000035" lon="8.28786111467">
		<tag k="bridge" v="yes" />
		<tag k="layer" v="1" />
		<tag k="name" v="Elveseter" />
		<tag k="ssr:stedsnr" v="410488" />
	</node>
	<node id="-366184" lat="61.5921888885" lon="8.03768611021">
>>>>>>> e1d4bc35ff8a6074a6f2e91616a996b547c36f15
		<tag k="bridge" v="yes" />
		<tag k="layer" v="1" />
		<tag k="name" v="Geitåbrue" />
		<tag k="ssr:stedsnr" v="114582" />
	</node>
<<<<<<< HEAD
	<node lat="61.592852778455224" lon="8.038122215425963" id="-16033">
=======
	<node id="-364518" lat="61.6166666675" lon="8.04342777455">
>>>>>>> e1d4bc35ff8a6074a6f2e91616a996b547c36f15
		<tag k="bridge" v="yes" />
		<tag k="layer" v="1" />
		<tag k="name" v="Øvre Nufsgrov" />
		<tag k="ssr:stedsnr" v="167506" />
	</node>
<<<<<<< HEAD
	<node lat="61.56045277740638" lon="7.971144445419622" id="-16034">
=======
	<node id="-365411" lat="61.8637638888" lon="8.80349443746">
>>>>>>> e1d4bc35ff8a6074a6f2e91616a996b547c36f15
		<tag k="bridge" v="yes" />
		<tag k="layer" v="1" />
		<tag k="name" v="Raudskjøla" />
		<tag k="ssr:stedsnr" v="167515" />
	</node>
<<<<<<< HEAD
	<node lat="61.71305833083781" lon="8.329088883628803" id="-16035">
=======
	<node id="-365410" lat="61.7256527747" lon="8.28528889347">
>>>>>>> e1d4bc35ff8a6074a6f2e91616a996b547c36f15
		<tag k="bridge" v="yes" />
		<tag k="layer" v="1" />
		<tag k="name" v="Hjortagrovi" />
		<tag k="ssr:stedsnr" v="167524" />
	</node>
<<<<<<< HEAD
	<node lat="61.85150833157059" lon="8.788477782871288" id="-16069">
		<tag k="highway" v="path" />
		<tag k="name" v="Kvitbergdrågje" />
		<tag k="ssr:stedsnr" v="271697" />
	</node>
	<node lat="61.86769999804012" lon="8.793961106902534" id="-16070">
=======
	<node id="-364513" lat="61.867699998" lon="8.7939611069">
		<tag k="bridge" v="yes" />
		<tag k="layer" v="1" />
		<tag k="name" v="Grøna" />
		<tag k="ssr:stedsnr" v="228536" />
	</node>
	<node id="-364512" lat="61.8389944402" lon="8.56188055809">
>>>>>>> e1d4bc35ff8a6074a6f2e91616a996b547c36f15
		<tag k="bridge" v="yes" />
		<tag k="layer" v="1" />
		<tag k="name" v="Grøna" />
		<tag k="ssr:stedsnr" v="228536" />
	</node>
<<<<<<< HEAD
	<node lat="61.81353888531685" lon="8.411622223257393" id="-16080">
		<tag k="highway" v="path" />
		<tag k="name" v="Bordvassvegen" />
		<tag k="ssr:stedsnr" v="236037" />
	</node>
	<node lat="61.82631944205464" lon="8.554241661957846" id="-16169">
		<tag k="fixme" v="consider highway=path" />
		<tag k="highway" v="track" />
		<tag k="name" v="Steinflatvegen" />
		<tag k="ssr:stedsnr" v="329156" />
	</node>
	<node lat="61.83803888902227" lon="8.518936113279334" id="-16170">
		<tag k="highway" v="path" />
		<tag k="name" v="Lomseggstigen" />
		<tag k="ssr:stedsnr" v="329355" />
	</node>
	<node lat="61.68714166574021" lon="8.165638882195227" id="-16200">
=======
	<node id="-365654" lat="61.7414359253" lon="8.37736896635">
		<tag k="bridge" v="yes" />
		<tag k="layer" v="1" />
		<tag k="name" v="Sprangsbrue" />
		<tag k="ssr:stedsnr" v="10183" />
	</node>
	<node id="-364757" lat="61.6885472248" lon="8.29083333164">
		<tag k="fixme" v="consider highway=path" />
		<tag k="highway" v="track" />
		<tag k="name" v="Brånåvegen" />
		<tag k="ssr:stedsnr" v="192236" />
	</node>
	<node id="-365396" lat="61.8628388884" lon="8.81651667381">
>>>>>>> e1d4bc35ff8a6074a6f2e91616a996b547c36f15
		<tag k="highway" v="path" />
		<tag k="name" v="Fiskestigen" />
		<tag k="ssr:stedsnr" v="477788" />
	</node>
<<<<<<< HEAD
	<node lat="61.76170278177708" lon="8.401641670548733" id="-16207">
		<tag k="highway" v="path" />
		<tag k="name" v="Stigen" />
		<tag k="ssr:stedsnr" v="478416" />
	</node>
	<node lat="61.85424999893695" lon="8.684177770243181" id="-16268">
		<tag k="highway" v="path" />
		<tag k="name" v="Måndrågje" />
		<tag k="ssr:stedsnr" v="392834" />
	</node>
	<node lat="61.64511110741763" lon="8.103616659780782" id="-16342">
=======
	<node id="-365731" lat="61.8641166695" lon="8.61439166437">
		<tag k="fixme" v="consider highway=path" />
		<tag k="highway" v="track" />
		<tag k="name" v="Grjotheimsvegen" />
		<tag k="ssr:stedsnr" v="53173" />
	</node>
	<node id="-365902" lat="61.7705749987" lon="8.41923333052">
		<tag k="bridge" v="yes" />
		<tag k="layer" v="1" />
		<tag k="name" v="Sula" />
		<tag k="ssr:stedsnr" v="167538" />
	</node>
	<node id="-365901" lat="61.7130583308" lon="8.32908888363">
>>>>>>> e1d4bc35ff8a6074a6f2e91616a996b547c36f15
		<tag k="bridge" v="yes" />
		<tag k="layer" v="1" />
		<tag k="name" v="Rustadsæter" />
		<tag k="ssr:stedsnr" v="470460" />
	</node>
<<<<<<< HEAD
	<node lat="61.86627222647893" lon="8.820708335002692" id="-16432">
=======
	<node id="-365383" lat="61.8634750013" lon="8.83337777836">
>>>>>>> e1d4bc35ff8a6074a6f2e91616a996b547c36f15
		<tag k="highway" v="path" />
		<tag k="name" v="Nørdre Byggingsvegen" />
		<tag k="ssr:stedsnr" v="539216" />
	</node>
<<<<<<< HEAD
	<node lat="61.85587777806259" lon="8.488791674657193" id="-16547">
		<tag k="fixme" v="consider highway=path" />
		<tag k="highway" v="track" />
		<tag k="name" v="Nørstnesvegen" />
		<tag k="ssr:stedsnr" v="633980" />
	</node>
	<node lat="61.851124998444114" lon="8.784977776967626" id="-16552">
		<tag k="highway" v="path" />
		<tag k="name" v="Måndrågje" />
		<tag k="ssr:stedsnr" v="635615" />
	</node>
	<node lat="61.8028166686836" lon="8.449013889884135" id="-16623">
		<tag k="bridge" v="yes" />
		<tag k="layer" v="1" />
		<tag k="name" v="Aksla" />
		<tag k="ssr:stedsnr" v="713516" />
	</node>
	<node lat="61.86283888842254" lon="8.816516673808973" id="-16668">
=======
	<node id="-366277" lat="61.8380361094" lon="8.56757222643">
		<tag k="bridge" v="yes" />
		<tag k="layer" v="1" />
		<tag k="name" v="Ulstad" />
		<tag k="ssr:stedsnr" v="531523" />
	</node>
	<node id="-364734" lat="61.5604527774" lon="7.97114444542">
		<tag k="bridge" v="yes" />
		<tag k="layer" v="1" />
		<tag k="name" v="Raudskjøla" />
		<tag k="ssr:stedsnr" v="167515" />
	</node>
	<node id="-365376" lat="61.7260465228" lon="8.29623840385">
		<tag k="bridge" v="yes" />
		<tag k="layer" v="1" />
		<tag k="name" v="Brustuen" />
		<tag k="ssr:stedsnr" v="895478" />
	</node>
	<node id="-365565" lat="61.8593416634" lon="8.82446666312">
		<tag k="highway" v="path" />
		<tag k="name" v="Garmosøygardsbakkjen" />
		<tag k="ssr:stedsnr" v="903304" />
	</node>
	<node id="-365502" lat="61.8223027819" lon="8.577824998">
>>>>>>> e1d4bc35ff8a6074a6f2e91616a996b547c36f15
		<tag k="highway" v="path" />
		<tag k="name" v="Beinstigen" />
		<tag k="ssr:stedsnr" v="903241" />
	</node>
<<<<<<< HEAD
	<node lat="61.72565277465152" lon="8.285288893468227" id="-16690">
		<tag k="bridge" v="yes" />
		<tag k="layer" v="1" />
		<tag k="name" v="Runningen" />
		<tag k="ssr:stedsnr" v="774521" />
	</node>
	<node lat="61.863763888824266" lon="8.803494437461927" id="-16691">
		<tag k="bridge" v="yes" />
		<tag k="layer" v="1" />
		<tag k="name" v="Helgå" />
		<tag k="ssr:stedsnr" v="774526" />
	</node>
	<node lat="61.63018888837219" lon="8.050019450715451" id="-16692">
		<tag k="bridge" v="yes" />
		<tag k="layer" v="1" />
		<tag k="name" v="Dumma" />
		<tag k="ssr:stedsnr" v="774555" />
	</node>
	<node lat="61.71376944419943" lon="8.334458328305196" id="-16793">
		<tag k="bridge" v="yes" />
		<tag k="layer" v="1" />
		<tag k="name" v="Juvbrua" />
		<tag k="ssr:stedsnr" v="835518" />
	</node>
	<node lat="61.6996305549642" lon="8.44910832456212" id="-16805">
=======
	<node id="-365501" lat="61.7137694442" lon="8.33445832831">
		<tag k="bridge" v="yes" />
		<tag k="layer" v="1" />
		<tag k="name" v="Juvbrua" />
		<tag k="ssr:stedsnr" v="835518" />
	</node>
	<node id="-365244" lat="61.7921722243" lon="8.44875834053">
		<tag k="bridge" v="yes" />
		<tag k="layer" v="1" />
		<tag k="name" v="Flåbrue" />
		<tag k="ssr:stedsnr" v="721090" />
	</node>
	<node id="-364801" lat="61.8135388853" lon="8.41162222326">
		<tag k="highway" v="path" />
		<tag k="name" v="Bordvassvegen" />
		<tag k="ssr:stedsnr" v="236037" />
	</node>
	<node id="-364809" lat="61.8662722265" lon="8.820708335">
		<tag k="highway" v="path" />
		<tag k="name" v="Nørdre Byggingsvegen" />
		<tag k="ssr:stedsnr" v="539216" />
	</node>
	<node id="-365234" lat="61.8028166687" lon="8.44901388988">
		<tag k="bridge" v="yes" />
		<tag k="layer" v="1" />
		<tag k="name" v="Aksla" />
		<tag k="ssr:stedsnr" v="713516" />
	</node>
	<node id="-364721" lat="61.8515083316" lon="8.78847778287">
		<tag k="highway" v="path" />
		<tag k="name" v="Kvitbergdrågje" />
		<tag k="ssr:stedsnr" v="271697" />
	</node>
	<node id="-365997" lat="61.853227781" lon="8.50395833882">
>>>>>>> e1d4bc35ff8a6074a6f2e91616a996b547c36f15
		<tag k="fixme" v="consider highway=path" />
		<tag k="highway" v="track" />
		<tag k="name" v="Ormelivegen" />
		<tag k="ssr:stedsnr" v="843434" />
	</node>
<<<<<<< HEAD
	<node lat="61.72604652275179" lon="8.29623840384634" id="-16857">
		<tag k="bridge" v="yes" />
		<tag k="layer" v="1" />
		<tag k="name" v="Brustuen" />
		<tag k="ssr:stedsnr" v="895478" />
	</node>
	<node lat="61.859341663362" lon="8.824466663116352" id="-16859">
		<tag k="highway" v="path" />
		<tag k="name" v="Garmosøygardsbakkjen" />
		<tag k="ssr:stedsnr" v="903304" />
	</node>
	<node lat="61.82230278185253" lon="8.577824997999295" id="-16912">
=======
	<node id="-365831" lat="61.859633332" lon="8.7341944409">
		<tag k="fixme" v="consider highway=path" />
		<tag k="highway" v="track" />
		<tag k="name" v="Lågkollvegen" />
		<tag k="ssr:stedsnr" v="114955" />
	</node>
	<node id="-366376" lat="61.8729694441" lon="8.85531666647">
		<tag k="highway" v="path" />
		<tag k="name" v="Djupdalsråket" />
		<tag k="ssr:stedsnr" v="599280" />
	</node>
	<node id="-364828" lat="61.6451111074" lon="8.10361665978">
		<tag k="bridge" v="yes" />
		<tag k="layer" v="1" />
		<tag k="name" v="Rustadsæter" />
		<tag k="ssr:stedsnr" v="470460" />
	</node>
	<node id="-364733" lat="61.5928527785" lon="8.03812221543">
		<tag k="bridge" v="yes" />
		<tag k="layer" v="1" />
		<tag k="name" v="Øvre Nufsgrov" />
		<tag k="ssr:stedsnr" v="167506" />
	</node>
	<node id="-365092" lat="61.7617027818" lon="8.40164167055">
		<tag k="highway" v="path" />
		<tag k="name" v="Stigen" />
		<tag k="ssr:stedsnr" v="478416" />
	</node>
	<node id="-366627" lat="61.876574997" lon="8.71999722996">
		<tag k="fixme" v="consider highway=path" />
		<tag k="highway" v="track" />
		<tag k="name" v="Øvre Liavegen" />
		<tag k="ssr:stedsnr" v="782934" />
	</node>
	<node id="-365089" lat="61.6871416657" lon="8.1656388822">
>>>>>>> e1d4bc35ff8a6074a6f2e91616a996b547c36f15
		<tag k="highway" v="path" />
		<tag k="name" v="Sponset" />
		<tag k="ssr:stedsnr" v="938420" />
	</node>
<<<<<<< HEAD
	<node lat="61.74143592526846" lon="8.377368966353885" id="-16979">
		<tag k="bridge" v="yes" />
		<tag k="layer" v="1" />
		<tag k="name" v="Sprangsbrue" />
		<tag k="ssr:stedsnr" v="10183" />
	</node>
	<node lat="61.616666667512916" lon="8.043427774549501" id="-17016">
=======
	<node id="-366476" lat="61.8511249984" lon="8.78497777697">
		<tag k="highway" v="path" />
		<tag k="name" v="Måndrågje" />
		<tag k="ssr:stedsnr" v="635615" />
	</node>
	<node id="-364997" lat="61.860558336" lon="8.77461388836">
		<tag k="fixme" v="consider highway=path" />
		<tag k="highway" v="track" />
		<tag k="name" v="Kolbottvegen" />
		<tag k="ssr:stedsnr" v="392464" />
	</node>
	<node id="-366364" lat="61.8634805556" lon="8.68150000666">
>>>>>>> e1d4bc35ff8a6074a6f2e91616a996b547c36f15
		<tag k="bridge" v="yes" />
		<tag k="layer" v="1" />
		<tag k="name" v="Breiseterstul" />
		<tag k="ssr:stedsnr" v="46544" />
	</node>
<<<<<<< HEAD
	<node lat="61.76709167100068" lon="8.468255558409725" id="-17108">
		<tag k="highway" v="path" />
		<tag k="name" v="Viein" />
		<tag k="ssr:stedsnr" v="114095" />
	</node>
	<node lat="61.85963333200962" lon="8.734194440900056" id="-17117">
=======
	<node id="-366365" lat="61.750683337" lon="8.38666111552">
		<tag k="bridge" v="yes" />
		<tag k="layer" v="1" />
		<tag k="name" v="Hofta" />
		<tag k="ssr:stedsnr" v="591462" />
	</node>
	<node id="-366203" lat="61.8799805544" lon="8.71431111539">
>>>>>>> e1d4bc35ff8a6074a6f2e91616a996b547c36f15
		<tag k="fixme" v="consider highway=path" />
		<tag k="highway" v="track" />
		<tag k="name" v="Rognsætervegen" />
		<tag k="ssr:stedsnr" v="418570" />
	</node>
<<<<<<< HEAD
	<node lat="61.77057499867149" lon="8.419233330518091" id="-17184">
		<tag k="bridge" v="yes" />
		<tag k="layer" v="1" />
		<tag k="name" v="Sula" />
		<tag k="ssr:stedsnr" v="167538" />
	</node>
	<node lat="61.68854722477843" lon="8.290833331637282" id="-17247">
		<tag k="fixme" v="consider highway=path" />
		<tag k="highway" v="track" />
		<tag k="name" v="Brånåvegen" />
		<tag k="ssr:stedsnr" v="192236" />
	</node>
	<node lat="61.853227780971174" lon="8.5039583388229" id="-17291">
		<tag k="fixme" v="consider highway=path" />
		<tag k="highway" v="track" />
		<tag k="name" v="Knutstuguvegen" />
		<tag k="ssr:stedsnr" v="209973" />
	</node>
	<node lat="61.83899444017741" lon="8.561880558089209" id="-17306">
		<tag k="bridge" v="yes" />
		<tag k="layer" v="1" />
		<tag k="name" v="Loar" />
		<tag k="ssr:stedsnr" v="228530" />
	</node>
	<node lat="61.65863333156542" lon="8.001433325509621" id="-17320">
		<tag k="fixme" v="consider highway=path" />
		<tag k="highway" v="track" />
		<tag k="name" v="Tverrbyttvegen" />
		<tag k="ssr:stedsnr" v="296678" />
	</node>
	<node lat="61.86055833597958" lon="8.77461388835796" id="-17489">
=======
	<node id="-365333" lat="61.8621611119" lon="8.78213888316">
		<tag k="fixme" v="consider highway=path" />
		<tag k="highway" v="track" />
		<tag k="name" v="Gregoskvevegen" />
		<tag k="ssr:stedsnr" v="878492" />
	</node>
	<node id="-366483" lat="61.7916305556" lon="8.44910278308">
		<tag k="bridge" v="yes" />
		<tag k="layer" v="1" />
		<tag k="name" v="Flå flomløp" />
		<tag k="ssr:stedsnr" v="652468" />
	</node>
	<node id="-365464" lat="61.8156305543" lon="8.88341387958">
		<tag k="highway" v="path" />
		<tag k="name" v="Havyrjuvegen" />
		<tag k="ssr:stedsnr" v="782410" />
	</node>
	<node id="-365070" lat="61.8152527791" lon="8.92392777669">
		<tag k="highway" v="path" />
		<tag k="name" v="Karibrennråket" />
		<tag k="ssr:stedsnr" v="660446" />
	</node>
	<node id="-366177" lat="61.8542499989" lon="8.68417777024">
		<tag k="highway" v="path" />
		<tag k="name" v="Måndrågje" />
		<tag k="ssr:stedsnr" v="392834" />
	</node>
	<node id="-365321" lat="61.8214472221" lon="8.58013332463">
		<tag k="highway" v="path" />
		<tag k="name" v="Sæterråket" />
		<tag k="ssr:stedsnr" v="877425" />
	</node>
	<node id="-366727" lat="61.699630555" lon="8.44910832456">
>>>>>>> e1d4bc35ff8a6074a6f2e91616a996b547c36f15
		<tag k="fixme" v="consider highway=path" />
		<tag k="highway" v="track" />
		<tag k="name" v="Kolbottvegen" />
		<tag k="ssr:stedsnr" v="392464" />
	</node>
<<<<<<< HEAD
	<node lat="61.59218888851393" lon="8.037686110211986" id="-17496">
=======
	<node id="-366597" lat="61.6301888884" lon="8.05001945072">
>>>>>>> e1d4bc35ff8a6074a6f2e91616a996b547c36f15
		<tag k="bridge" v="yes" />
		<tag k="layer" v="1" />
		<tag k="name" v="Nedre Nufsgrov" />
		<tag k="ssr:stedsnr" v="410481" />
	</node>
<<<<<<< HEAD
	<node lat="61.70370000346392" lon="8.287861114673438" id="-17497">
=======
	<node id="-365828" lat="61.7151694426" lon="8.19788333932">
>>>>>>> e1d4bc35ff8a6074a6f2e91616a996b547c36f15
		<tag k="bridge" v="yes" />
		<tag k="layer" v="1" />
		<tag k="name" v="Elveseter" />
		<tag k="ssr:stedsnr" v="410488" />
	</node>
<<<<<<< HEAD
	<node lat="61.879980554369105" lon="8.714311115392011" id="-17513">
		<tag k="fixme" v="consider highway=path" />
		<tag k="highway" v="track" />
		<tag k="name" v="Rognsætervegen" />
		<tag k="ssr:stedsnr" v="418570" />
	</node>
	<node lat="61.66541944134879" lon="8.18474999222906" id="-17519">
		<tag k="junction" v="yes" />
		<tag k="name" v="Vegaskjelet" />
		<tag k="place" v="locality" />
		<tag k="ssr:stedsnr" v="418680" />
	</node>
	<node lat="61.83803610939546" lon="8.567572226433224" id="-17605">
		<tag k="bridge" v="yes" />
		<tag k="layer" v="1" />
		<tag k="name" v="Ulstad" />
		<tag k="ssr:stedsnr" v="531523" />
=======
	<node id="-365526" lat="61.850155553" lon="8.63986944543">
		<tag k="fixme" v="consider highway=path" />
		<tag k="highway" v="track" />
		<tag k="name" v="Granskogvegen" />
		<tag k="ssr:stedsnr" v="939801" />
	</node>
	<node id="-366465" lat="61.8558777781" lon="8.48879167466">
		<tag k="fixme" v="consider highway=path" />
		<tag k="highway" v="track" />
		<tag k="name" v="Nørstnesvegen" />
		<tag k="ssr:stedsnr" v="633980" />
>>>>>>> e1d4bc35ff8a6074a6f2e91616a996b547c36f15
	</node>
</osm>
