<?xml version="1.0" encoding="UTF-8"?>
<osm version="0.6" generator="osmapis">
	<node lat="61.845903237215005" lon="8.6127210744328" id="-21530">
		<tag k="fixme" v="consider place=hamlet" />
		<tag k="name" v="Mork" />
		<tag k="place" v="farm" />
		<tag k="ssr:stedsnr" v="10037" />
	</node>
	<node lat="61.8582611116607" lon="8.696563895422369" id="-21532">
		<tag k="name" v="Kollen" />
		<tag k="place" v="farm" />
		<tag k="ssr:stedsnr" v="10045" />
	</node>
	<node lat="61.69238333554096" lon="8.268911103119708" id="-21539">
		<tag k="name" v="Bakken" />
		<tag k="place" v="farm" />
		<tag k="ssr:stedsnr" v="10240" />
	</node>
	<node lat="61.712687335375335" lon="8.346457362123044" id="-21542">
		<tag k="fixme" v="consider place=hamlet" />
		<tag k="name" v="Storhaugen" />
		<tag k="place" v="farm" />
		<tag k="ssr:stedsnr" v="10138" />
	</node>
	<node lat="61.6427055581451" lon="8.10018055434155" id="-21545">
		<tag k="historic" v="shieling" />
		<tag k="name" v="Rustasætre" />
		<tag k="place" v="isolated_dwelling" />
		<tag k="ssr:stedsnr" v="10192" />
	</node>
	<node lat="61.955263890174535" lon="8.585291662552896" id="-21551">
		<tag k="name" v="Falkefangarbui" />
		<tag k="place" v="isolated_dwelling" />
		<tag k="ssr:stedsnr" v="10908" />
	</node>
	<node lat="61.77016388460454" lon="8.39116944707364" id="-21557">
		<tag k="alt_name" v="Leiksætre" />
		<tag k="historic" v="shieling" />
		<tag k="name" v="Leiksæter" />
		<tag k="place" v="isolated_dwelling" />
		<tag k="ssr:stedsnr" v="10997" />
	</node>
	<node lat="61.564736111772085" lon="7.997950002283899" id="-21560">
		<tag k="fixme" v="consider tourism=alpine_hut or tourism=chalet" />
		<tag k="name" v="Sognefjellshytta" />
		<tag k="old_name" v="Sognefjellhytta" />
		<tag k="ssr:stedsnr" v="234255" />
		<tag k="tourism" v="wilderness_hut" />
	</node>
	<node lat="61.84959722613728" lon="8.61483611824398" id="-21564">
		<tag k="name" v="Hellkvee" />
		<tag k="place" v="farm" />
		<tag k="ssr:stedsnr" v="28075" />
	</node>
	<node lat="61.836913886961874" lon="8.570169447053292" id="-21565">
		<tag k="amenity" v="townhall" />
		<tag k="name" v="Midtgard" />
		<tag k="ssr:stedsnr" v="28268" />
	</node>
	<node lat="61.77147499935075" lon="8.439208334106201" id="-21569">
		<tag k="historic" v="shieling" />
		<tag k="name" v="Nerhovde" />
		<tag k="place" v="isolated_dwelling" />
		<tag k="ssr:stedsnr" v="235075" />
	</node>
	<node lat="61.76458333127285" lon="8.407436101859355" id="-21572">
		<tag k="name" v="Gryting camping" />
		<tag k="ssr:stedsnr" v="235451" />
		<tag k="tourism" v="camp_site" />
	</node>
	<node lat="61.71748888610168" lon="8.215550007547378" id="-21576">
		<tag k="historic" v="shieling" />
		<tag k="name" v="Nørdre Gjeilosætre" />
		<tag k="place" v="isolated_dwelling" />
		<tag k="ssr:stedsnr" v="235608" />
	</node>
	<node lat="61.8736083354708" lon="8.725077779183131" id="-21582">
		<tag k="name" v="Søre Marstein" />
		<tag k="place" v="farm" />
		<tag k="ssr:stedsnr" v="236963" />
	</node>
	<node lat="61.731766668947046" lon="8.37610832916586" id="-21585">
		<tag k="name" v="Søre Repp" />
		<tag k="place" v="farm" />
		<tag k="ssr:stedsnr" v="53267" />
	</node>
	<node lat="61.66079722295042" lon="8.01788333943968" id="-21587">
		<tag k="historic" v="shieling" />
		<tag k="name" v="Brustugusætre" />
		<tag k="place" v="isolated_dwelling" />
		<tag k="ssr:stedsnr" v="53721" />
	</node>
	<node lat="61.71867778071268" lon="8.20372499188344" id="-21594">
		<tag k="historic" v="shieling" />
		<tag k="name" v="Netosætre" />
		<tag k="place" v="isolated_dwelling" />
		<tag k="ssr:stedsnr" v="70132" />
	</node>
	<node lat="61.71509166659929" lon="8.314027779861792" id="-21595">
		<tag k="fixme" v="consider place=hamlet" />
		<tag k="name" v="Slåligrende" />
		<tag k="place" v="village" />
		<tag k="ssr:stedsnr" v="70134" />
	</node>
	<node lat="61.84185555364817" lon="8.69007500418171" id="-21604">
		<tag k="name" v="Gamelsætri" />
		<tag k="place" v="locality" />
		<tag k="ssr:stedsnr" v="71004" />
	</node>
	<node lat="61.83062500268715" lon="8.539327772711518" id="-21605">
		<tag k="alt_name" v="Øvre Haugen" />
		<tag k="name" v="Haugen" />
		<tag k="place" v="farm" />
		<tag k="ssr:stedsnr" v="71025" />
	</node>
	<node lat="61.84306111260377" lon="8.784019444881773" id="-21606">
		<tag k="alt_name" v="Storøygard" />
		<tag k="name" v="Storøygarden" />
		<tag k="place" v="locality" />
		<tag k="ssr:stedsnr" v="71026" />
	</node>
	<node lat="61.573950002963485" lon="8.032400006882286" id="-21610">
		<tag k="fixme" v="consider tourism=alpine_hut or tourism=chalet" />
		<tag k="name" v="Krossbu" />
		<tag k="ssr:stedsnr" v="71330" />
		<tag k="tourism" v="wilderness_hut" />
	</node>
	<node lat="61.662702781727575" lon="8.025166661552774" id="-21614">
		<tag k="fixme" v="consider tourism=alpine_hut or tourism=chalet" />
		<tag k="name" v="Høydalssæter" />
		<tag k="ssr:stedsnr" v="71524" />
		<tag k="tourism" v="wilderness_hut" />
	</node>
	<node lat="61.928525001420574" lon="8.761941666732124" id="-21615">
		<tag k="name" v="Reinskinn" />
		<tag k="place" v="isolated_dwelling" />
		<tag k="ssr:stedsnr" v="71901" />
	</node>
	<node lat="61.79352702421458" lon="8.448583059345316" id="-21621">
		<tag k="fixme" v="consider place=hamlet" />
		<tag k="name" v="Flå" />
		<tag k="place" v="farm" />
		<tag k="ssr:stedsnr" v="71967" />
	</node>
	<node lat="61.8412833321476" lon="8.555366664598873" id="-21627">
		<tag k="building" v="industrial" />
		<tag k="industrial" v="factory" />
		<tag k="name" v="Møbelindustri" />
		<tag k="ssr:stedsnr" v="88369" />
	</node>
	<node lat="61.8589083329845" lon="8.50018056465869" id="-21632">
		<tag k="name" v="Byskjede" />
		<tag k="place" v="farm" />
		<tag k="ssr:stedsnr" v="111780" />
	</node>
	<node lat="61.7719277758655" lon="8.44781111244511" id="-21634">
		<tag k="historic" v="shieling" />
		<tag k="name" v="Andvordssætre" />
		<tag k="place" v="isolated_dwelling" />
		<tag k="ssr:stedsnr" v="114080" />
	</node>
	<node lat="61.86079722355751" lon="8.82927499341285" id="-21635">
		<tag k="name" v="Midtre Veslsætre" />
		<tag k="place" v="farm" />
		<tag k="ssr:stedsnr" v="114319" />
	</node>
	<node lat="61.865316667313024" lon="8.677844440272482" id="-21640">
		<tag k="name" v="Søre Sveine" />
		<tag k="place" v="farm" />
		<tag k="ssr:stedsnr" v="115784" />
	</node>
	<node lat="61.656897219640214" lon="8.158872214641265" id="-21641">
		<tag k="name" v="Reinshytta" />
		<tag k="place" v="isolated_dwelling" />
		<tag k="ssr:stedsnr" v="115674" />
	</node>
	<node lat="61.848147227882606" lon="8.60128051740184" id="-21647">
		<tag k="alt_name" v="Stamstad" />
		<tag k="name" v="Sygard Stamstad" />
		<tag k="place" v="farm" />
		<tag k="ssr:stedsnr" v="252032" />
	</node>
	<node lat="61.54845555505687" lon="8.247555555850228" id="-21648">
		<tag k="fixme" v="consider tourism=alpine_hut or tourism=chalet" />
		<tag k="name" v="Leirvassbu" />
		<tag k="ssr:stedsnr" v="252008" />
		<tag k="tourism" v="wilderness_hut" />
	</node>
	<node lat="61.849058329409395" lon="8.621211118468322" id="-21650">
		<tag k="name" v="Bryn" />
		<tag k="place" v="farm" />
		<tag k="ssr:stedsnr" v="252027" />
	</node>
	<node lat="61.860345094324" lon="8.486432620620617" id="-21651">
		<tag k="fixme" v="consider place=hamlet" />
		<tag k="name" v="Nørstnes" />
		<tag k="place" v="farm" />
		<tag k="ssr:stedsnr" v="252084" />
	</node>
	<node lat="61.86635833402434" lon="8.690736107209597" id="-21653">
		<tag k="name" v="Furuheim" />
		<tag k="place" v="farm" />
		<tag k="ssr:stedsnr" v="252059" />
	</node>
	<node lat="61.864999998870516" lon="8.802333328445062" id="-21655">
		<tag k="alt_name" v="Torstugu" />
		<tag k="name" v="Torsstugu" />
		<tag k="place" v="farm" />
		<tag k="ssr:stedsnr" v="252079" />
	</node>
	<node lat="61.7257277766897" lon="8.287316666601708" id="-21656">
		<tag k="name" v="Nyhus" />
		<tag k="place" v="farm" />
		<tag k="ssr:stedsnr" v="252113" />
	</node>
	<node lat="61.72547777931142" lon="8.297500006604993" id="-21658">
		<tag k="alt_name" v="Brustugu" />
		<tag k="name" v="Brustugun" />
		<tag k="place" v="farm" />
		<tag k="ssr:stedsnr" v="252123" />
	</node>
	<node lat="61.83182222094588" lon="8.85339721853757" id="-21662">
		<tag k="name" v="Kleppdalen" />
		<tag k="place" v="hamlet" />
		<tag k="ssr:stedsnr" v="252235" />
	</node>
	<node lat="61.82009722252492" lon="8.63444444894303" id="-21663">
		<tag k="alt_name" v="Vamhaug sæter" />
		<tag k="historic" v="shieling" />
		<tag k="name" v="Vamhaug" />
		<tag k="place" v="isolated_dwelling" />
		<tag k="ssr:stedsnr" v="252202" />
	</node>
	<node lat="61.81524444783742" lon="8.511080558215268" id="-21665">
		<tag k="alt_name" v="Nørjordet, nedre" />
		<tag k="name" v="Nedre Nørjordet" />
		<tag k="place" v="farm" />
		<tag k="ssr:stedsnr" v="252214" />
	</node>
	<node lat="61.874236108980064" lon="8.531797215546483" id="-21675">
		<tag k="historic" v="shieling" />
		<tag k="name" v="Stavåsen" />
		<tag k="place" v="isolated_dwelling" />
		<tag k="ssr:stedsnr" v="131104" />
	</node>
	<node lat="61.86805007131251" lon="8.512064277489745" id="-21676">
		<tag k="fixme" v="consider place=hamlet" />
		<tag k="name" v="Staurust" />
		<tag k="place" v="farm" />
		<tag k="ssr:stedsnr" v="131121" />
	</node>
	<node lat="61.665138506331715" lon="8.150629606877647" id="-21682">
		<tag k="historic" v="shieling" />
		<tag k="name" v="Krokasætre" />
		<tag k="place" v="isolated_dwelling" />
		<tag k="ssr:stedsnr" v="131195" />
	</node>
	<node lat="61.869200000791054" lon="8.807902778251472" id="-21686">
		<tag k="alt_name" v="Løyfti" />
		<tag k="name" v="Øvre Løyfte" />
		<tag k="place" v="farm" />
		<tag k="ssr:stedsnr" v="131088" />
	</node>
	<node lat="61.72117222330946" lon="8.72886111058777" id="-21687">
		<tag k="historic" v="shieling" />
		<tag k="name" v="Smådalssætren" />
		<tag k="place" v="isolated_dwelling" />
		<tag k="ssr:stedsnr" v="131093" />
	</node>
	<node lat="61.67750000087298" lon="8.145966666492534" id="-21689">
		<tag k="historic" v="shieling" />
		<tag k="name" v="Bøverlie" />
		<tag k="place" v="isolated_dwelling" />
		<tag k="ssr:stedsnr" v="131207" />
	</node>
	<node lat="61.824061115409975" lon="8.611758330335068" id="-21691">
		<tag k="historic" v="shieling" />
		<tag k="name" v="Labben" />
		<tag k="place" v="isolated_dwelling" />
		<tag k="ssr:stedsnr" v="131215" />
	</node>
	<node lat="61.67758946652296" lon="8.146138720092305" id="-21692">
		<tag k="fixme" v="multiple name tags, choose one and add the other to alt_name" />
		<tag k="historic" v="shieling" />
		<tag k="name" v="Tykkjesætre;Krokasætre" />
		<tag k="place" v="isolated_dwelling" />
		<tag k="ssr:stedsnr" v="131217" />
	</node>
	<node lat="61.81328333638124" lon="8.484575005738039" id="-21694">
		<tag k="name" v="Gutubøteigen" />
		<tag k="place" v="farm" />
		<tag k="ssr:stedsnr" v="131224" />
	</node>
	<node lat="61.69046666400775" lon="8.166338881903728" id="-21695">
		<tag k="alt_name" v="Glåmbakkjen" />
		<tag k="historic" v="shieling" />
		<tag k="name" v="Glåmbakken" />
		<tag k="place" v="isolated_dwelling" />
		<tag k="ssr:stedsnr" v="131225" />
	</node>
	<node lat="61.82628544425105" lon="8.544357744356237" id="-21710">
		<tag k="alt_name" v="Sørhågå" />
		<tag k="fixme" v="consider place=hamlet" />
		<tag k="name" v="Sørhågån" />
		<tag k="place" v="farm" />
		<tag k="ssr:stedsnr" v="253021" />
	</node>
	<node lat="61.87321111137667" lon="8.722563888912745" id="-21712">
		<tag k="alt_name" v="Marstein" />
		<tag k="name" v="Nørdre Marstein" />
		<tag k="place" v="farm" />
		<tag k="ssr:stedsnr" v="253142" />
	</node>
	<node lat="61.845391669896735" lon="8.784222231362856" id="-21714">
		<tag k="name" v="Eklestugu" />
		<tag k="place" v="farm" />
		<tag k="ssr:stedsnr" v="253049" />
	</node>
	<node lat="61.72082500125701" lon="8.348011119231865" id="-21716">
		<tag k="name" v="Galdbygde" />
		<tag k="place" v="village" />
		<tag k="ssr:stedsnr" v="253185" />
	</node>
	<node lat="61.82059956047139" lon="8.509123680106216" id="-21722">
		<tag k="fixme" v="consider place=hamlet" />
		<tag k="name" v="Vekkje" />
		<tag k="place" v="farm" />
		<tag k="ssr:stedsnr" v="253261" />
	</node>
	<node lat="61.69760278126755" lon="8.228013898051708" id="-21724">
		<tag k="historic" v="shieling" />
		<tag k="name" v="Blomlisætre" />
		<tag k="place" v="isolated_dwelling" />
		<tag k="ssr:stedsnr" v="253273" />
	</node>
	<node lat="61.851272223627255" lon="8.81373610786512" id="-21738">
		<tag k="name" v="Systugun Garmo" />
		<tag k="place" v="farm" />
		<tag k="ssr:stedsnr" v="149518" />
	</node>
	<node lat="61.84598055893754" lon="8.835861116124127" id="-21740">
		<tag k="name" v="Nyhus" />
		<tag k="place" v="farm" />
		<tag k="ssr:stedsnr" v="149530" />
	</node>
	<node lat="61.85766110817135" lon="8.50055554792267" id="-21747">
		<tag k="name" v="Øvre Stusnes" />
		<tag k="place" v="farm" />
		<tag k="ssr:stedsnr" v="171813" />
	</node>
	<node lat="61.724339557280274" lon="8.346555463877982" id="-21751">
		<tag k="name" v="Uppigard Galde" />
		<tag k="place" v="farm" />
		<tag k="ssr:stedsnr" v="175306" />
	</node>
	<node lat="61.849869447003954" lon="8.720144442937944" id="-21777">
		<tag k="name" v="Runningje" />
		<tag k="place" v="farm" />
		<tag k="ssr:stedsnr" v="272748" />
	</node>
	<node lat="61.840688889529005" lon="8.577747213767791" id="-21778">
		<tag k="building" v="industrial" />
		<tag k="industrial" v="factory" />
		<tag k="name" v="Betongindustri" />
		<tag k="ssr:stedsnr" v="271293" />
	</node>
	<node lat="61.694466666512795" lon="8.276449999375277" id="-21782">
		<tag k="name" v="Fjellro" />
		<tag k="ssr:stedsnr" v="449501" />
		<tag k="tourism" v="camp_site" />
	</node>
	<node lat="61.72382895097487" lon="8.278106833027172" id="-21785">
		<tag k="fixme" v="consider place=hamlet" />
		<tag k="name" v="Runningom" />
		<tag k="place" v="farm" />
		<tag k="ssr:stedsnr" v="235336" />
	</node>
	<node lat="61.86505277890626" lon="8.688138883379365" id="-21793">
		<tag k="name" v="Skjerpingstad" />
		<tag k="place" v="farm" />
		<tag k="ssr:stedsnr" v="236778" />
	</node>
	<node lat="61.84184722286355" lon="8.556794442058278" id="-21800">
		<tag k="building" v="industrial" />
		<tag k="industrial" v="factory" />
		<tag k="name" v="Mølle" />
		<tag k="ssr:stedsnr" v="452450" />
	</node>
	<node lat="61.84834166618116" lon="8.81508054907391" id="-21801">
		<tag k="name" v="Oppigard Garmo" />
		<tag k="place" v="farm" />
		<tag k="ssr:stedsnr" v="453549" />
	</node>
	<node lat="61.84600000199996" lon="8.845619442264226" id="-21802">
		<tag k="name" v="Nedre Byrkveen" />
		<tag k="place" v="farm" />
		<tag k="ssr:stedsnr" v="453561" />
	</node>
	<node lat="61.86565278003893" lon="8.799836118348527" id="-21806">
		<tag k="building" v="industrial" />
		<tag k="name" v="Grøna sag" />
		<tag k="ssr:stedsnr" v="454447" />
	</node>
	<node lat="61.835533337837305" lon="8.651538892900218" id="-21807">
		<tag k="alt_name" v="Stamstadsætre" />
		<tag k="historic" v="shieling" />
		<tag k="name" v="Stamstadsætri" />
		<tag k="place" v="isolated_dwelling" />
		<tag k="ssr:stedsnr" v="253002" />
	</node>
	<node lat="61.87206388699192" lon="8.667827768685989" id="-21810">
		<tag k="alt_name" v="Søre Bakkjen" />
		<tag k="name" v="Bakken" />
		<tag k="place" v="farm" />
		<tag k="ssr:stedsnr" v="253137" />
	</node>
	<node lat="61.87503174474089" lon="8.70915319904295" id="-21811">
		<tag k="alt_name" v="Rusti" />
		<tag k="fixme" v="consider place=hamlet" />
		<tag k="name" v="Ruste" />
		<tag k="place" v="farm" />
		<tag k="ssr:stedsnr" v="253139" />
	</node>
	<node lat="61.79727221945218" lon="8.613974992984415" id="-21814">
		<tag k="historic" v="shieling" />
		<tag k="name" v="Sålell" />
		<tag k="place" v="isolated_dwelling" />
		<tag k="ssr:stedsnr" v="253237" />
	</node>
	<node lat="61.672761056552396" lon="8.370589529410218" id="-21815">
		<tag k="alt_name" v="Juvasshytta" />
		<tag k="fixme" v="consider tourism=alpine_hut or tourism=chalet" />
		<tag k="name" v="Juvvasshytta" />
		<tag k="ssr:stedsnr" v="253246" />
		<tag k="tourism" v="wilderness_hut" />
	</node>
	<node lat="61.85455277716288" lon="8.869338886237507" id="-21831">
		<tag k="name" v="Hagen" />
		<tag k="place" v="farm" />
		<tag k="ssr:stedsnr" v="271581" />
	</node>
	<node lat="61.71485277348722" lon="8.301522215400746" id="-21835">
		<tag k="name" v="Rustahaugen" />
		<tag k="place" v="locality" />
		<tag k="ssr:stedsnr" v="296280" />
	</node>
	<node lat="61.75174166431644" lon="8.38215833339091" id="-21838">
		<tag k="name" v="Hoftaskjeillen" />
		<tag k="place" v="locality" />
		<tag k="ssr:stedsnr" v="296460" />
	</node>
	<node lat="61.86130325101069" lon="8.827366489779633" id="-21845">
		<tag k="alt_name" v="Veslsætri" />
		<tag k="name" v="Veslsætre" />
		<tag k="place" v="hamlet" />
		<tag k="ssr:stedsnr" v="313105" />
	</node>
	<node lat="61.723052776642454" lon="8.367775008187218" id="-21846">
		<tag k="name" v="Myre" />
		<tag k="place" v="farm" />
		<tag k="ssr:stedsnr" v="313165" />
	</node>
	<node lat="61.88017777483515" lon="8.74250555579767" id="-21849">
		<tag k="name" v="Barlundlykkja" />
		<tag k="place" v="locality" />
		<tag k="ssr:stedsnr" v="313113" />
	</node>
	<node lat="61.84358611207262" lon="8.603149995807634" id="-21852">
		<tag k="name" v="Blakarstugu" />
		<tag k="place" v="farm" />
		<tag k="ssr:stedsnr" v="313009" />
	</node>
	<node lat="61.82743610725907" lon="8.534094453784169" id="-21854">
		<tag k="name" v="Tykket" />
		<tag k="place" v="farm" />
		<tag k="ssr:stedsnr" v="313024" />
	</node>
	<node lat="61.6204138859333" lon="8.178769443116373" id="-21856">
		<tag k="historic" v="shieling" />
		<tag k="name" v="Geitsætre" />
		<tag k="place" v="isolated_dwelling" />
		<tag k="ssr:stedsnr" v="313064" />
	</node>
	<node lat="61.66793055249222" lon="8.43351665913002" id="-21862">
		<tag k="historic" v="shieling" />
		<tag k="name" v="Heimresætre" />
		<tag k="place" v="isolated_dwelling" />
		<tag k="ssr:stedsnr" v="313206" />
	</node>
	<node lat="61.67385277879881" lon="8.760855547579041" id="-21870">
		<tag k="name" v="Stallhytta" />
		<tag k="place" v="isolated_dwelling" />
		<tag k="ssr:stedsnr" v="313908" />
	</node>
	<node lat="61.77633888864414" lon="8.471686114703388" id="-21876">
		<tag k="historic" v="shieling" />
		<tag k="name" v="Sørhovde" />
		<tag k="place" v="isolated_dwelling" />
		<tag k="ssr:stedsnr" v="314224" />
	</node>
	<node lat="61.85047778157901" lon="8.797066662788938" id="-21885">
		<tag k="amenity" v="school" />
		<tag k="name" v="Garmo-skulen" />
		<tag k="ssr:stedsnr" v="332648" />
	</node>
	<node lat="61.8402333310244" lon="8.65843332809253" id="-21887">
		<tag k="alt_name" v="Skårådalssætre" />
		<tag k="historic" v="shieling" />
		<tag k="name" v="Skårådalssætri" />
		<tag k="place" v="isolated_dwelling" />
		<tag k="ssr:stedsnr" v="356007" />
	</node>
	<node lat="61.83258888446498" lon="8.643255546923195" id="-21888">
		<tag k="alt_name" v="Meadalssætren" />
		<tag k="historic" v="shieling" />
		<tag k="name" v="Meadalssætrin" />
		<tag k="place" v="isolated_dwelling" />
		<tag k="ssr:stedsnr" v="356022" />
	</node>
	<node lat="61.68606667102818" lon="8.2416444528051" id="-21889">
		<tag k="name" v="Haugli" />
		<tag k="place" v="farm" />
		<tag k="ssr:stedsnr" v="356749" />
	</node>
	<node lat="61.772477775550904" lon="8.463819440173717" id="-21892">
		<tag k="historic" v="shieling" />
		<tag k="name" v="Vågåsarsætre" />
		<tag k="place" v="isolated_dwelling" />
		<tag k="ssr:stedsnr" v="357111" />
	</node>
	<node lat="61.72606944652444" lon="8.287605551898283" id="-21893">
		<tag k="name" v="Nyhus" />
		<tag k="place" v="farm" />
		<tag k="ssr:stedsnr" v="357313" />
	</node>
	<node lat="61.74975832966261" lon="8.37536110607755" id="-21897">
		<tag k="name" v="Røysheimskjeillen" />
		<tag k="place" v="locality" />
		<tag k="ssr:stedsnr" v="357468" />
	</node>
	<node lat="61.939263890666545" lon="8.8660611179377" id="-21898">
		<tag k="historic" v="shieling" />
		<tag k="name" v="Bølesætre" />
		<tag k="place" v="isolated_dwelling" />
		<tag k="ssr:stedsnr" v="357715" />
	</node>
	<node lat="61.68505479015986" lon="8.239327369163876" id="-21904">
		<tag k="alt_name" v="Storlie øvre" />
		<tag k="fixme" v="consider place=hamlet" />
		<tag k="name" v="Øvre Storlie" />
		<tag k="place" v="farm" />
		<tag k="ssr:stedsnr" v="477763" />
	</node>
	<node lat="61.687277774192125" lon="8.156833338309495" id="-21910">
		<tag k="name" v="Prestsætre" />
		<tag k="place" v="locality" />
		<tag k="ssr:stedsnr" v="477786" />
	</node>
	<node lat="61.77438610676467" lon="8.468786112833365" id="-21913">
		<tag k="historic" v="shieling" />
		<tag k="name" v="Vågåsarøygardsætre" />
		<tag k="place" v="isolated_dwelling" />
		<tag k="ssr:stedsnr" v="478101" />
	</node>
	<node lat="61.79971763317882" lon="8.443888452503993" id="-21914">
		<tag k="fixme" v="consider place=hamlet" />
		<tag k="name" v="Borgen" />
		<tag k="place" v="farm" />
		<tag k="ssr:stedsnr" v="478028" />
	</node>
	<node lat="61.749997220335246" lon="8.420263887195695" id="-21919">
		<tag k="historic" v="shieling" />
		<tag k="name" v="Tussheim" />
		<tag k="place" v="isolated_dwelling" />
		<tag k="ssr:stedsnr" v="478401" />
	</node>
	<node lat="61.92984166525199" lon="8.773963894015704" id="-21924">
		<tag k="historic" v="shieling" />
		<tag k="name" v="Sveine" />
		<tag k="place" v="isolated_dwelling" />
		<tag k="ssr:stedsnr" v="478726" />
	</node>
	<node lat="61.92974366424849" lon="8.778249477718548" id="-21925">
		<tag k="historic" v="shieling" />
		<tag k="name" v="Nistugun Rudsar" />
		<tag k="place" v="isolated_dwelling" />
		<tag k="ssr:stedsnr" v="478729" />
	</node>
	<node lat="61.865167781764306" lon="8.7131830068436" id="-21932">
		<tag k="fixme" v="consider place=hamlet" />
		<tag k="name" v="Barlund" />
		<tag k="place" v="farm" />
		<tag k="ssr:stedsnr" v="373057" />
	</node>
	<node lat="61.852013890041334" lon="8.619222230150676" id="-21933">
		<tag k="name" v="Duvdalen" />
		<tag k="place" v="farm" />
		<tag k="ssr:stedsnr" v="373064" />
	</node>
	<node lat="61.7076203144207" lon="8.299653606666032" id="-21934">
		<tag k="fixme" v="consider place=hamlet" />
		<tag k="name" v="Brenna" />
		<tag k="place" v="farm" />
		<tag k="ssr:stedsnr" v="373114" />
	</node>
	<node lat="61.84236944402927" lon="8.588694437019047" id="-21941">
		<tag k="alt_name" v="Kjørri" />
		<tag k="name" v="Kjørre" />
		<tag k="place" v="farm" />
		<tag k="ssr:stedsnr" v="374010" />
	</node>
	<node lat="61.85184722549286" lon="8.521541658986525" id="-21945">
		<tag k="fixme" v="consider place=hamlet" />
		<tag k="name" v="Knutstugu" />
		<tag k="place" v="farm" />
		<tag k="ssr:stedsnr" v="374044" />
	</node>
	<node lat="61.84693055494493" lon="8.806952775726097" id="-21947">
		<tag k="alt_name" v="Frisvollmoen" />
		<tag k="name" v="Moen" />
		<tag k="place" v="farm" />
		<tag k="ssr:stedsnr" v="374054" />
	</node>
	<node lat="61.723904864821336" lon="8.273063648444655" id="-21952">
		<tag k="alt_name" v="Storøygard" />
		<tag k="name" v="Storøygarden" />
		<tag k="place" v="farm" />
		<tag k="ssr:stedsnr" v="374193" />
	</node>
	<node lat="61.764790355567726" lon="8.403746833193223" id="-21967">
		<tag k="alt_name" v="Sulheim" />
		<tag k="name" v="Nigard Sulheim" />
		<tag k="place" v="farm" />
		<tag k="ssr:stedsnr" v="374991" />
	</node>
	<node lat="61.771327778353694" lon="8.444872224283134" id="-21968">
		<tag k="alt_name" v="Engjom" />
		<tag k="historic" v="shieling" />
		<tag k="name" v="Engom" />
		<tag k="place" v="isolated_dwelling" />
		<tag k="ssr:stedsnr" v="374998" />
	</node>
	<node lat="61.833849996433784" lon="8.559066664738353" id="-21970">
		<tag k="name" v="Lom Camping" />
		<tag k="ssr:stedsnr" v="390164" />
		<tag k="tourism" v="camp_site" />
	</node>
	<node lat="61.83986395383845" lon="8.561995636358054" id="-21975">
		<tag k="fixme" v="consider place=hamlet" />
		<tag k="name" v="Lom prestegard" />
		<tag k="place" v="farm" />
		<tag k="ssr:stedsnr" v="391509" />
	</node>
	<node lat="61.8673249975652" lon="8.795619446151356" id="-21981">
		<tag k="name" v="Grønbakkjen" />
		<tag k="place" v="locality" />
		<tag k="ssr:stedsnr" v="393432" />
	</node>
	<node lat="61.86631110681841" lon="8.758313895677471" id="-21982">
		<tag k="name" v="Nord-Sandom" />
		<tag k="place" v="farm" />
		<tag k="ssr:stedsnr" v="393433" />
	</node>
	<node lat="61.807166671001454" lon="8.940066674491892" id="-21984">
		<tag k="name" v="Hjeltarbue" />
		<tag k="place" v="locality" />
		<tag k="ssr:stedsnr" v="407647" />
	</node>
	<node lat="61.735741668620285" lon="8.378622215981236" id="-21988">
		<tag k="name" v="Kleivbakkjen" />
		<tag k="place" v="locality" />
		<tag k="ssr:stedsnr" v="418244" />
	</node>
	<node lat="61.86048611229098" lon="8.830886104977411" id="-21990">
		<tag k="name" v="Søre Veslsætre" />
		<tag k="place" v="farm" />
		<tag k="ssr:stedsnr" v="418293" />
	</node>
	<node lat="61.938397226504804" lon="8.867227786062159" id="-21996">
		<tag k="historic" v="shieling" />
		<tag k="name" v="Nørdre Ramstad" />
		<tag k="place" v="isolated_dwelling" />
		<tag k="ssr:stedsnr" v="418704" />
	</node>
	<node lat="61.85393629811429" lon="8.637457157387571" id="-22000">
		<tag k="fixme" v="consider place=hamlet" />
		<tag k="name" v="Kvåle" />
		<tag k="place" v="farm" />
		<tag k="ssr:stedsnr" v="434070" />
	</node>
	<node lat="61.86602403720512" lon="8.79638869590861" id="-22001">
		<tag k="fixme" v="consider place=hamlet" />
		<tag k="name" v="Grøna" />
		<tag k="place" v="farm" />
		<tag k="ssr:stedsnr" v="434076" />
	</node>
	<node lat="61.867326155779644" lon="8.790858705755012" id="-22002">
		<tag k="fixme" v="consider place=hamlet" />
		<tag k="name" v="Grasdalen" />
		<tag k="place" v="farm" />
		<tag k="ssr:stedsnr" v="434077" />
	</node>
	<node lat="61.87043610864743" lon="8.802541669508287" id="-22003">
		<tag k="name" v="Nørdre Jota" />
		<tag k="place" v="farm" />
		<tag k="ssr:stedsnr" v="434079" />
	</node>
	<node lat="61.656727036840245" lon="8.183552953770775" id="-22006">
		<tag k="historic" v="shieling" />
		<tag k="name" v="Ytterdalssætre" />
		<tag k="place" v="isolated_dwelling" />
		<tag k="ssr:stedsnr" v="434181" />
	</node>
	<node lat="61.869355552106455" lon="8.66054999851341" id="-22008">
		<tag k="alt_name" v="Haugen, øvre" />
		<tag k="name" v="Øvre Haugen" />
		<tag k="place" v="farm" />
		<tag k="ssr:stedsnr" v="435104" />
	</node>
	<node lat="61.72756111525987" lon="8.640974992399135" id="-22010">
		<tag k="name" v="Finnshalshytta" />
		<tag k="place" v="isolated_dwelling" />
		<tag k="ssr:stedsnr" v="435111" />
	</node>
	<node lat="61.87013610870535" lon="8.508544436089155" id="-22013">
		<tag k="name" v="Staurustøygarden" />
		<tag k="place" v="farm" />
		<tag k="ssr:stedsnr" v="435123" />
	</node>
	<node lat="61.88389721784022" lon="8.797494438984415" id="-22016">
		<tag k="alt_name" v="Liasætren" />
		<tag k="historic" v="shieling" />
		<tag k="name" v="Liasætrin" />
		<tag k="place" v="isolated_dwelling" />
		<tag k="ssr:stedsnr" v="435140" />
	</node>
	<node lat="61.83213294247208" lon="8.547776232663965" id="-22017">
		<tag k="alt_name" v="Nordre Andvord;Andvord, nordre" />
		<tag k="name" v="Nordgard Andvord" />
		<tag k="place" v="farm" />
		<tag k="ssr:stedsnr" v="435018" />
	</node>
	<node lat="61.62687778074542" lon="8.182750004598878" id="-22018">
		<tag k="name" v="Veslbue" />
		<tag k="place" v="isolated_dwelling" />
		<tag k="ssr:stedsnr" v="435076" />
	</node>
	<node lat="61.83764167112072" lon="8.569319437921388" id="-22048">
		<tag k="name" v="Fossberg" />
		<tag k="ssr:stedsnr" v="453283" />
		<tag k="tourism" v="hotel" />
	</node>
	<node lat="61.84850833392763" lon="8.722808338348035" id="-22049">
		<tag k="name" v="Reite" />
		<tag k="place" v="farm" />
		<tag k="ssr:stedsnr" v="454803" />
	</node>
	<node lat="61.842736111291536" lon="8.569888881147133" id="-22052">
		<tag k="building" v="industrial" />
		<tag k="name" v="Fossbergom R.A." />
		<tag k="ssr:stedsnr" v="467710" />
	</node>
	<node lat="61.83841667090176" lon="8.572380552768" id="-22057">
		<tag k="name" v="Fossheim" />
		<tag k="ssr:stedsnr" v="677012" />
		<tag k="tourism" v="hotel" />
	</node>
	<node lat="61.870536109412924" lon="8.78443054625267" id="-22061">
		<tag k="alt_name" v="Grasdalsmoen" />
		<tag k="name" v="Moen" />
		<tag k="place" v="farm" />
		<tag k="ssr:stedsnr" v="677071" />
	</node>
	<node lat="61.86720173004623" lon="8.718313849848037" id="-22062">
		<tag k="alt_name" v="Stadsviki, øvre" />
		<tag k="fixme" v="consider place=hamlet" />
		<tag k="name" v="Øvre Stasvikje" />
		<tag k="place" v="farm" />
		<tag k="ssr:stedsnr" v="677073" />
	</node>
	<node lat="61.823313492525465" lon="8.538631122212012" id="-22085">
		<tag k="alt_name" v="Hågå" />
		<tag k="fixme" v="consider place=hamlet" />
		<tag k="name" v="Hågån" />
		<tag k="place" v="farm" />
		<tag k="ssr:stedsnr" v="678245" />
	</node>
	<node lat="61.842791662334015" lon="8.600677787093847" id="-22092">
		<tag k="alt_name" v="Veslhagen" />
		<tag k="name" v="Veslhågån" />
		<tag k="place" v="farm" />
		<tag k="ssr:stedsnr" v="495009" />
	</node>
	<node lat="61.83481388890887" lon="8.565308324547226" id="-22093">
		<tag k="alt_name" v="Fossbergi" />
		<tag k="name" v="Fossbergom" />
		<tag k="place" v="quarter" />
		<tag k="ssr:stedsnr" v="495013" />
	</node>
	<node lat="61.84120832932075" lon="8.550902785974456" id="-22095">
		<tag k="name" v="Prestegardsskogen" />
		<tag k="place" v="quarter" />
		<tag k="ssr:stedsnr" v="495021" />
	</node>
	<node lat="61.828827777993105" lon="8.540572221074552" id="-22099">
		<tag k="name" v="Jordet" />
		<tag k="place" v="farm" />
		<tag k="ssr:stedsnr" v="495030" />
	</node>
	<node lat="61.856194448726505" lon="8.80274723113224" id="-22103">
		<tag k="name" v="Hammerdalen" />
		<tag k="place" v="farm" />
		<tag k="ssr:stedsnr" v="495046" />
	</node>
	<node lat="61.84920961654488" lon="8.762981848734459" id="-22105">
		<tag k="alt_name" v="Brimi, nordre;Brimi;Nørder-Brimi;Nordre Brimi" />
		<tag k="fixme" v="consider place=hamlet" />
		<tag k="name" v="Nørdre Brimi" />
		<tag k="place" v="farm" />
		<tag k="ssr:stedsnr" v="495059" />
	</node>
	<node lat="61.845291662404534" lon="8.782338885113724" id="-22107">
		<tag k="alt_name" v="Ekle, s" />
		<tag k="name" v="Søre Ekle" />
		<tag k="place" v="farm" />
		<tag k="ssr:stedsnr" v="495065" />
	</node>
	<node lat="61.84932777727479" lon="8.728761108359345" id="-22108">
		<tag k="name" v="Øygarden" />
		<tag k="place" v="farm" />
		<tag k="ssr:stedsnr" v="495070" />
	</node>
	<node lat="61.84573914900822" lon="8.756178075513933" id="-22109">
		<tag k="alt_name" v="Laingen" />
		<tag k="fixme" v="consider place=hamlet" />
		<tag k="name" v="Laingje" />
		<tag k="place" v="farm" />
		<tag k="ssr:stedsnr" v="495073" />
	</node>
	<node lat="61.84436944483445" lon="8.765277771438635" id="-22110">
		<tag k="alt_name" v="Biløygard" />
		<tag k="name" v="Biløygarden" />
		<tag k="place" v="farm" />
		<tag k="ssr:stedsnr" v="495076" />
	</node>
	<node lat="61.700783335668866" lon="8.282652779680596" id="-22115">
		<tag k="historic" v="shieling" />
		<tag k="name" v="Heimesætri" />
		<tag k="place" v="isolated_dwelling" />
		<tag k="ssr:stedsnr" v="495158" />
	</node>
	<node lat="61.65694166540904" lon="7.995291665375347" id="-22126">
		<tag k="name" v="Asbjørnhytta" />
		<tag k="place" v="isolated_dwelling" />
		<tag k="ssr:stedsnr" v="495477" />
	</node>
	<node lat="61.85638888489806" lon="8.509594451588915" id="-22139">
		<tag k="name" v="Nordistugun Synstnes" />
		<tag k="place" v="farm" />
		<tag k="ssr:stedsnr" v="513469" />
	</node>
	<node lat="61.84835555322762" lon="8.531705549122762" id="-22140">
		<tag k="name" v="Nørder-Vike" />
		<tag k="place" v="farm" />
		<tag k="ssr:stedsnr" v="513473" />
	</node>
	<node lat="61.714272220742174" lon="8.205074999307767" id="-22145">
		<tag k="historic" v="shieling" />
		<tag k="name" v="Kummesætre" />
		<tag k="place" v="isolated_dwelling" />
		<tag k="ssr:stedsnr" v="539569" />
	</node>
	<node lat="61.848488893096444" lon="8.612566664543637" id="-22150">
		<tag k="alt_name" v="Sletti" />
		<tag k="name" v="Søre Slette" />
		<tag k="place" v="farm" />
		<tag k="ssr:stedsnr" v="555031" />
	</node>
	<node lat="61.845561107039764" lon="8.542780553740133" id="-22151">
		<tag k="alt_name" v="Vesløyi" />
		<tag k="name" v="Vesløye" />
		<tag k="place" v="farm" />
		<tag k="ssr:stedsnr" v="555033" />
	</node>
	<node lat="61.85000655613654" lon="8.749674360784214" id="-22152">
		<tag k="alt_name" v="Lyngve" />
		<tag k="name" v="Nordgard Lyngve" />
		<tag k="place" v="farm" />
		<tag k="ssr:stedsnr" v="555054" />
	</node>
	<node lat="61.85133055249747" lon="8.709430555976049" id="-22153">
		<tag k="alt_name" v="Øyi" />
		<tag k="name" v="Øye" />
		<tag k="place" v="farm" />
		<tag k="ssr:stedsnr" v="555058" />
	</node>
	<node lat="61.86068889172587" lon="8.659191660734077" id="-22155">
		<tag k="alt_name" v="Sandviki" />
		<tag k="name" v="Sandvikje" />
		<tag k="place" v="farm" />
		<tag k="ssr:stedsnr" v="555073" />
	</node>
	<node lat="61.858936095888865" lon="8.504367656681934" id="-22156">
		<tag k="fixme" v="consider place=hamlet" />
		<tag k="name" v="Stusnes" />
		<tag k="place" v="farm" />
		<tag k="ssr:stedsnr" v="555079" />
	</node>
	<node lat="61.82705278147559" lon="8.532555564118528" id="-22179">
		<tag k="name" v="Grindstugu" />
		<tag k="place" v="farm" />
		<tag k="ssr:stedsnr" v="693158" />
	</node>
	<node lat="61.82368333762491" lon="8.507244449160877" id="-22180">
		<tag k="name" v="Kvålshågån" />
		<tag k="place" v="isolated_dwelling" />
		<tag k="ssr:stedsnr" v="693166" />
	</node>
	<node lat="61.84717499692553" lon="8.598541670301753" id="-22186">
		<tag k="name" v="Nordgard Stamstad" />
		<tag k="place" v="farm" />
		<tag k="ssr:stedsnr" v="574263" />
	</node>
	<node lat="61.85159167027488" lon="8.735013883191979" id="-22187">
		<tag k="name" v="Orderøygarden" />
		<tag k="place" v="farm" />
		<tag k="ssr:stedsnr" v="575745" />
	</node>
	<node lat="61.85622777737573" lon="8.51027777526185" id="-22189">
		<tag k="name" v="Uppistugun Synstnes" />
		<tag k="place" v="farm" />
		<tag k="ssr:stedsnr" v="695448" />
	</node>
	<node lat="61.83904433633616" lon="8.56396251881669" id="-22190">
		<tag k="amenity" v="school" />
		<tag k="name" v="Lom ungdomsskule" />
		<tag k="ssr:stedsnr" v="695494" />
	</node>
	<node lat="61.84614444312199" lon="8.829330551058048" id="-22195">
		<tag k="building" v="industrial" />
		<tag k="name" v="Garmo sag" />
		<tag k="ssr:stedsnr" v="696493" />
	</node>
	<node lat="61.85091666283648" lon="8.812133336837281" id="-22197">
		<tag k="name" v="Nordgard Garmo" />
		<tag k="place" v="farm" />
		<tag k="ssr:stedsnr" v="696537" />
	</node>
	<node lat="61.720541666764476" lon="8.339688881212531" id="-22203">
		<tag k="name" v="Nigard Galde" />
		<tag k="place" v="farm" />
		<tag k="ssr:stedsnr" v="599316" />
	</node>
	<node lat="61.83924189477331" lon="8.582806811894114" id="-22213">
		<tag k="fixme" v="consider place=hamlet" />
		<tag k="name" v="Skjæsar" />
		<tag k="place" v="farm" />
		<tag k="ssr:stedsnr" v="616007" />
	</node>
	<node lat="61.83858933364838" lon="8.569432353908995" id="-22214">
		<tag k="name" v="Nordal" />
		<tag k="ssr:stedsnr" v="616010" />
		<tag k="tourism" v="camp_site" />
	</node>
	<node lat="61.837722217740655" lon="8.568419435792205" id="-22215">
		<tag k="fixme" v="multiple name tags, choose one and add the other to alt_name" />
		<tag k="name" v="Lom;Fossbergom" />
		<tag k="place" v="village" />
		<tag k="ssr:stedsnr" v="616011" />
	</node>
	<node lat="61.70622777703102" lon="8.225963897536191" id="-22222">
		<tag k="historic" v="shieling" />
		<tag k="name" v="Søre Kvammesætre" />
		<tag k="place" v="isolated_dwelling" />
		<tag k="ssr:stedsnr" v="616120" />
	</node>
	<node lat="61.71213333446057" lon="8.340702784822705" id="-22223">
		<tag k="name" v="Slettede" />
		<tag k="place" v="farm" />
		<tag k="ssr:stedsnr" v="616127" />
	</node>
	<node lat="61.71180239846838" lon="8.311590637559013" id="-22224">
		<tag k="alt_name" v="Åmot" />
		<tag k="fixme" v="consider place=hamlet" />
		<tag k="name" v="Åmoten" />
		<tag k="place" v="farm" />
		<tag k="ssr:stedsnr" v="616128" />
	</node>
	<node lat="61.73125573628566" lon="8.375056777130435" id="-22226">
		<tag k="fixme" v="consider place=hamlet" />
		<tag k="name" v="Repp" />
		<tag k="place" v="farm" />
		<tag k="ssr:stedsnr" v="616148" />
	</node>
	<node lat="61.806730553267315" lon="8.914641670062386" id="-22229">
		<tag k="alt_name" v="Nordsætren" />
		<tag k="historic" v="shieling" />
		<tag k="name" v="Nordsætrin" />
		<tag k="place" v="isolated_dwelling" />
		<tag k="ssr:stedsnr" v="616443" />
	</node>
	<node lat="61.724328984154624" lon="8.251411351895847" id="-22238">
		<tag k="name" v="Flekken" />
		<tag k="place" v="locality" />
		<tag k="ssr:stedsnr" v="617204" />
	</node>
	<node lat="61.85959166826163" lon="8.8492250065627" id="-22243">
		<tag k="name" v="Vesløygarden" />
		<tag k="place" v="isolated_dwelling" />
		<tag k="ssr:stedsnr" v="617331" />
	</node>
	<node lat="61.738700003305155" lon="8.86918333374772" id="-22251">
		<tag k="historic" v="shieling" />
		<tag k="name" v="Kjestadstugu" />
		<tag k="place" v="isolated_dwelling" />
		<tag k="ssr:stedsnr" v="617936" />
	</node>
	<node lat="61.76894810739728" lon="8.423667716665882" id="-22253">
		<tag k="fixme" v="consider place=hamlet" />
		<tag k="name" v="Glømsdal" />
		<tag k="place" v="farm" />
		<tag k="ssr:stedsnr" v="617994" />
	</node>
	<node lat="61.768505553519965" lon="8.434544450874723" id="-22254">
		<tag k="alt_name" v="Glømsdalsøygarden" />
		<tag k="historic" v="shieling" />
		<tag k="name" v="Glømsdalslitløygarden" />
		<tag k="place" v="isolated_dwelling" />
		<tag k="ssr:stedsnr" v="617995" />
	</node>
	<node lat="61.85868055782897" lon="8.802705559632273" id="-22261">
		<tag k="building" v="industrial" />
		<tag k="name" v="Garmo R.A." />
		<tag k="ssr:stedsnr" v="635437" />
	</node>
	<node lat="61.8500222248648" lon="8.75176667092363" id="-22262">
		<tag k="name" v="Hidem" />
		<tag k="place" v="farm" />
		<tag k="ssr:stedsnr" v="635608" />
	</node>
	<node lat="61.83128055809228" lon="8.637702774567403" id="-22264">
		<tag k="historic" v="shieling" />
		<tag k="name" v="Skånsarsætre" />
		<tag k="place" v="isolated_dwelling" />
		<tag k="ssr:stedsnr" v="635806" />
	</node>
	<node lat="61.84664721823253" lon="8.731255547999762" id="-22265">
		<tag k="name" v="Skogøygarden" />
		<tag k="place" v="locality" />
		<tag k="ssr:stedsnr" v="635728" />
	</node>
	<node lat="61.8553888930279" lon="8.6394388879884" id="-22267">
		<tag k="name" v="Søre Stronde" />
		<tag k="place" v="hamlet" />
		<tag k="ssr:stedsnr" v="635786" />
	</node>
	<node lat="61.74860277477948" lon="8.934186105398624" id="-22271">
		<tag k="historic" v="shieling" />
		<tag k="name" v="Mosætre" />
		<tag k="place" v="isolated_dwelling" />
		<tag k="ssr:stedsnr" v="707352" />
	</node>
	<node lat="61.85810277600294" lon="8.499911107895661" id="-22273">
		<tag k="name" v="Ospebakkjen" />
		<tag k="place" v="isolated_dwelling" />
		<tag k="ssr:stedsnr" v="657787" />
	</node>
	<node lat="61.77374166917571" lon="8.467155559870527" id="-22275">
		<tag k="historic" v="shieling" />
		<tag k="name" v="Flåsætre" />
		<tag k="place" v="isolated_dwelling" />
		<tag k="ssr:stedsnr" v="660112" />
	</node>
	<node lat="61.85763610834421" lon="8.69101110699346" id="-22279">
		<tag k="name" v="Søre Rådsbakken" />
		<tag k="place" v="farm" />
		<tag k="ssr:stedsnr" v="661090" />
	</node>
	<node lat="61.86140870735323" lon="8.637430767516133" id="-22280">
		<tag k="name" v="Søre Kollen" />
		<tag k="place" v="farm" />
		<tag k="ssr:stedsnr" v="661787" />
	</node>
	<node lat="61.839983337769354" lon="8.680141670197875" id="-22282">
		<tag k="name" v="Nysætri" />
		<tag k="place" v="locality" />
		<tag k="ssr:stedsnr" v="677006" />
	</node>
	<node lat="61.864550570672264" lon="8.672459225141687" id="-22308">
		<tag k="fixme" v="consider place=hamlet" />
		<tag k="name" v="Sveine" />
		<tag k="place" v="farm" />
		<tag k="ssr:stedsnr" v="678074" />
	</node>
	<node lat="61.76495000332056" lon="8.618833330961415" id="-22314">
		<tag k="name" v="Illmyrbråtet" />
		<tag k="place" v="locality" />
		<tag k="ssr:stedsnr" v="678230" />
	</node>
	<node lat="61.80388291368656" lon="8.448663256692049" id="-22319">
		<tag k="fixme" v="consider place=hamlet" />
		<tag k="name" v="Åmillom" />
		<tag k="place" v="farm" />
		<tag k="ssr:stedsnr" v="678918" />
	</node>
	<node lat="61.78436388561165" lon="8.450580563449396" id="-22321">
		<tag k="name" v="Bergheim" />
		<tag k="place" v="farm" />
		<tag k="ssr:stedsnr" v="678986" />
	</node>
	<node lat="61.816252778534555" lon="8.508713893274175" id="-22322">
		<tag k="name" v="Haugro" />
		<tag k="place" v="farm" />
		<tag k="ssr:stedsnr" v="693171" />
	</node>
	<node lat="61.83098888788535" lon="8.853880563816837" id="-22327">
		<tag k="historic" v="shieling" />
		<tag k="name" v="Hesthågåsætre" />
		<tag k="place" v="isolated_dwelling" />
		<tag k="ssr:stedsnr" v="696581" />
	</node>
	<node lat="61.851265604595035" lon="8.736649483301322" id="-22329">
		<tag k="fixme" v="consider place=hamlet" />
		<tag k="name" v="Fyrustugu" />
		<tag k="place" v="farm" />
		<tag k="ssr:stedsnr" v="696772" />
	</node>
	<node lat="61.87334939689509" lon="8.746669029779698" id="-22333">
		<tag k="fixme" v="consider place=hamlet" />
		<tag k="name" v="Nystugu" />
		<tag k="place" v="farm" />
		<tag k="ssr:stedsnr" v="903962" />
	</node>
	<node lat="61.867649998092624" lon="8.69023610818277" id="-22335">
		<tag k="name" v="Måsåmyrbakkjen" />
		<tag k="place" v="isolated_dwelling" />
		<tag k="ssr:stedsnr" v="903944" />
	</node>
	<node lat="61.917222218570174" lon="8.65439167373503" id="-22341">
		<tag k="historic" v="shieling" />
		<tag k="name" v="Staurustøygardsætre" />
		<tag k="place" v="isolated_dwelling" />
		<tag k="ssr:stedsnr" v="721508" />
	</node>
	<node lat="61.6553499963577" lon="8.185172225748852" id="-22342">
		<tag k="historic" v="shieling" />
		<tag k="name" v="Synstnessætre" />
		<tag k="place" v="isolated_dwelling" />
		<tag k="ssr:stedsnr" v="721682" />
	</node>
	<node lat="61.834611114805334" lon="8.552311110922885" id="-22343">
		<tag k="alt_name" v="Søre Andvord;Andvord, s" />
		<tag k="name" v="Sygard Andvord" />
		<tag k="place" v="farm" />
		<tag k="ssr:stedsnr" v="738013" />
	</node>
	<node lat="61.83907777488141" lon="8.547133332978403" id="-22344">
		<tag k="alt_name" v="Eggi" />
		<tag k="name" v="Øver-Eggje" />
		<tag k="place" v="farm" />
		<tag k="ssr:stedsnr" v="738015" />
	</node>
	<node lat="61.84694868806353" lon="8.825330086523465" id="-22347">
		<tag k="fixme" v="consider place=hamlet" />
		<tag k="name" v="Hesthagen" />
		<tag k="place" v="farm" />
		<tag k="ssr:stedsnr" v="738057" />
	</node>
	<node lat="61.84848105397725" lon="8.788541630066536" id="-22349">
		<tag k="fixme" v="consider place=hamlet" />
		<tag k="name" v="Einarsvoll" />
		<tag k="place" v="farm" />
		<tag k="ssr:stedsnr" v="738061" />
	</node>
	<node lat="61.84983055358841" lon="8.717502768671416" id="-22350">
		<tag k="alt_name" v="Rudningi" />
		<tag k="name" v="Nørdre Runningje" />
		<tag k="place" v="farm" />
		<tag k="ssr:stedsnr" v="738063" />
	</node>
	<node lat="61.661052780294" lon="8.157186101911106" id="-22354">
		<tag k="historic" v="shieling" />
		<tag k="name" v="Bakkebergsætre" />
		<tag k="place" v="isolated_dwelling" />
		<tag k="ssr:stedsnr" v="738205" />
	</node>
	<node lat="61.939016668175285" lon="8.865705562999354" id="-22366">
		<tag k="alt_name" v="Breistulen" />
		<tag k="historic" v="shieling" />
		<tag k="name" v="Breidstulen" />
		<tag k="place" v="isolated_dwelling" />
		<tag k="ssr:stedsnr" v="739110" />
	</node>
	<node lat="61.86774166236277" lon="8.516783330091377" id="-22377">
		<tag k="name" v="Staurustgrende" />
		<tag k="place" v="hamlet" />
		<tag k="ssr:stedsnr" v="903134" />
	</node>
	<node lat="61.861197218492514" lon="8.610741663641857" id="-22378">
		<tag k="name" v="Nørdre Grjotheim" />
		<tag k="place" v="farm" />
		<tag k="ssr:stedsnr" v="903146" />
	</node>
	<node lat="61.7130722248028" lon="8.331230552361252" id="-22381">
		<tag k="name" v="Horten" />
		<tag k="place" v="farm" />
		<tag k="ssr:stedsnr" v="903287" />
	</node>
	<node lat="61.72139133842332" lon="8.329464792624398" id="-22382">
		<tag k="fixme" v="consider place=hamlet" />
		<tag k="name" v="Upphaug" />
		<tag k="place" v="farm" />
		<tag k="ssr:stedsnr" v="903323" />
	</node>
	<node lat="61.91685000247498" lon="8.637524991476653" id="-22385">
		<tag k="historic" v="shieling" />
		<tag k="name" v="Midtre Ramstad sætre" />
		<tag k="place" v="isolated_dwelling" />
		<tag k="ssr:stedsnr" v="903498" />
	</node>
	<node lat="61.71432222397483" lon="8.208116675007927" id="-22387">
		<tag k="historic" v="shieling" />
		<tag k="name" v="Brandsarsætre" />
		<tag k="place" v="isolated_dwelling" />
		<tag k="ssr:stedsnr" v="903579" />
	</node>
	<node lat="61.93058888964681" lon="8.773402771954249" id="-22389">
		<tag k="historic" v="shieling" />
		<tag k="name" v="Øvre Hjeltar" />
		<tag k="place" v="isolated_dwelling" />
		<tag k="ssr:stedsnr" v="903710" />
	</node>
	<node lat="61.930469447117304" lon="8.777952769467511" id="-22390">
		<tag k="historic" v="shieling" />
		<tag k="name" v="Nedre Håvesætre" />
		<tag k="place" v="isolated_dwelling" />
		<tag k="ssr:stedsnr" v="903713" />
	</node>
	<node lat="61.93031944198244" lon="8.78013889257989" id="-22391">
		<tag k="historic" v="shieling" />
		<tag k="name" v="Vangsbakkjen" />
		<tag k="place" v="isolated_dwelling" />
		<tag k="ssr:stedsnr" v="903714" />
	</node>
	<node lat="61.94188055147642" lon="8.866863883107614" id="-22392">
		<tag k="historic" v="shieling" />
		<tag k="name" v="Vangsætren" />
		<tag k="place" v="isolated_dwelling" />
		<tag k="ssr:stedsnr" v="903726" />
	</node>
	<node lat="61.636741663698" lon="8.050272231378399" id="-22395">
		<tag k="historic" v="shieling" />
		<tag k="name" v="Nørdre Bakkebergsætre" />
		<tag k="place" v="isolated_dwelling" />
		<tag k="ssr:stedsnr" v="904675" />
	</node>
	<node lat="61.86310833256501" lon="8.617613881874588" id="-22404">
		<tag k="name" v="Søre Grjotheim" />
		<tag k="place" v="farm" />
		<tag k="ssr:stedsnr" v="781158" />
	</node>
	<node lat="61.72826666403145" lon="8.365930559064358" id="-22406">
		<tag k="name" v="Vollakvee" />
		<tag k="place" v="farm" />
		<tag k="ssr:stedsnr" v="781267" />
	</node>
	<node lat="61.93694167089085" lon="8.883033323844156" id="-22410">
		<tag k="historic" v="shieling" />
		<tag k="name" v="Øvre Håve sætre" />
		<tag k="place" v="isolated_dwelling" />
		<tag k="ssr:stedsnr" v="782317" />
	</node>
	<node lat="61.863069445099164" lon="8.688233338976158" id="-22412">
		<tag k="name" v="Honn" />
		<tag k="place" v="farm" />
		<tag k="ssr:stedsnr" v="798061" />
	</node>
	<node lat="61.66864721915103" lon="8.131983340248285" id="-22414">
		<tag k="historic" v="shieling" />
		<tag k="name" v="Vassenden" />
		<tag k="place" v="isolated_dwelling" />
		<tag k="ssr:stedsnr" v="798198" />
	</node>
	<node lat="61.838892714080586" lon="8.57710745872041" id="-22417">
		<tag k="fixme" v="consider place=hamlet" />
		<tag k="name" v="Gjeisar" />
		<tag k="place" v="farm" />
		<tag k="ssr:stedsnr" v="799007" />
	</node>
	<node lat="61.83751944723507" lon="8.551605561759992" id="-22419">
		<tag k="name" v="Kroken" />
		<tag k="place" v="farm" />
		<tag k="ssr:stedsnr" v="799011" />
	</node>
	<node lat="61.82668333392881" lon="8.822694451845306" id="-22420">
		<tag k="alt_name" v="Bjørnalii, s" />
		<tag k="historic" v="shieling" />
		<tag k="name" v="Søre Bjønnalie" />
		<tag k="place" v="isolated_dwelling" />
		<tag k="ssr:stedsnr" v="799013" />
	</node>
	<node lat="61.84855336176068" lon="8.80586038594376" id="-22421">
		<tag k="fixme" v="consider place=hamlet" />
		<tag k="name" v="Garmo" />
		<tag k="place" v="village" />
		<tag k="ssr:stedsnr" v="799041" />
	</node>
	<node lat="61.70505555950204" lon="8.184233342171607" id="-22423">
		<tag k="historic" v="shieling" />
		<tag k="name" v="Hovdestulen" />
		<tag k="place" v="isolated_dwelling" />
		<tag k="ssr:stedsnr" v="799140" />
	</node>
	<node lat="61.70801666502004" lon="8.440686115551767" id="-22425">
		<tag k="name" v="Gokkerbue" />
		<tag k="place" v="isolated_dwelling" />
		<tag k="ssr:stedsnr" v="799156" />
	</node>
	<node lat="61.74857222149262" lon="8.620511120466945" id="-22433">
		<tag k="historic" v="shieling" />
		<tag k="name" v="Fossætren" />
		<tag k="place" v="isolated_dwelling" />
		<tag k="ssr:stedsnr" v="799102" />
	</node>
	<node lat="61.818704076807485" lon="8.521831993616333" id="-22435">
		<tag k="fixme" v="consider place=hamlet" />
		<tag k="name" v="Ofigsbø" />
		<tag k="place" v="farm" />
		<tag k="ssr:stedsnr" v="799238" />
	</node>
	<node lat="61.66246321622595" lon="8.022517934055548" id="-22439">
		<tag k="alt_name" v="Høydalen, nordre" />
		<tag k="historic" v="shieling" />
		<tag k="name" v="Nørdre Høydalen" />
		<tag k="place" v="isolated_dwelling" />
		<tag k="ssr:stedsnr" v="799503" />
	</node>
	<node lat="61.78759444153819" lon="8.447641669115145" id="-22445">
		<tag k="alt_name" v="Vekkjøygarden" />
		<tag k="name" v="Vesløygarden" />
		<tag k="place" v="farm" />
		<tag k="ssr:stedsnr" v="799995" />
	</node>
	<node lat="61.490986107607625" lon="8.631063890521226" id="-22453">
		<tag k="fixme" v="consider tourism=alpine_hut or tourism=chalet" />
		<tag k="name" v="Memurubu" />
		<tag k="ssr:stedsnr" v="918832" />
		<tag k="tourism" v="wilderness_hut" />
	</node>
	<node lat="61.84546666516652" lon="8.819691663402057" id="-22459">
		<tag k="name" v="Langøygard" />
		<tag k="place" v="farm" />
		<tag k="ssr:stedsnr" v="817528" />
	</node>
	<node lat="61.82982043633781" lon="8.55444351430852" id="-22463">
		<tag k="fixme" v="consider place=hamlet" />
		<tag k="name" v="Andberg" />
		<tag k="place" v="farm" />
		<tag k="ssr:stedsnr" v="920029" />
	</node>
	<node lat="61.849980555419506" lon="8.61628056308007" id="-22464">
		<tag k="alt_name" v="Søre Kveom" />
		<tag k="name" v="Kveom" />
		<tag k="place" v="farm" />
		<tag k="ssr:stedsnr" v="920035" />
	</node>
	<node lat="61.851324995702704" lon="8.730358336226343" id="-22468">
		<tag k="alt_name" v="Bruøygard" />
		<tag k="name" v="Bruøygarden" />
		<tag k="place" v="farm" />
		<tag k="ssr:stedsnr" v="920061" />
	</node>
	<node lat="61.854116668249574" lon="8.643511103296824" id="-22476">
		<tag k="alt_name" v="Skånsar, nedre;Skånsar" />
		<tag k="name" v="Nedre Skånsar" />
		<tag k="place" v="farm" />
		<tag k="ssr:stedsnr" v="920088" />
	</node>
	<node lat="61.71196944111977" lon="8.314480557015976" id="-22482">
		<tag k="alt_name" v="Leirmo nødre" />
		<tag k="name" v="Leirmoen" />
		<tag k="place" v="farm" />
		<tag k="ssr:stedsnr" v="920139" />
	</node>
	<node lat="61.89797127101786" lon="8.731655391976826" id="-22492">
		<tag k="alt_name" v="Snauskallbue" />
		<tag k="name" v="Snauskallbui" />
		<tag k="place" v="locality" />
		<tag k="ssr:stedsnr" v="920941" />
	</node>
	<node lat="61.90326110968472" lon="8.77595556083425" id="-22493">
		<tag k="name" v="Rundhaugbui" />
		<tag k="place" v="isolated_dwelling" />
		<tag k="ssr:stedsnr" v="920943" />
	</node>
	<node lat="61.79406666687411" lon="8.443227785009624" id="-22494">
		<tag k="alt_name" v="Ule" />
		<tag k="name" v="Urdi" />
		<tag k="place" v="farm" />
		<tag k="ssr:stedsnr" v="920953" />
	</node>
	<node lat="61.7278805559905" lon="8.844974995746222" id="-22495">
		<tag k="name" v="Eklebui" />
		<tag k="place" v="isolated_dwelling" />
		<tag k="ssr:stedsnr" v="920971" />
	</node>
	<node lat="61.936694447536674" lon="8.884227771245873" id="-22496">
		<tag k="alt_name" v="Gjerdingodden" />
		<tag k="historic" v="shieling" />
		<tag k="name" v="Odden" />
		<tag k="place" v="isolated_dwelling" />
		<tag k="ssr:stedsnr" v="921128" />
	</node>
	<node lat="61.777047220073676" lon="8.623611117272246" id="-22498">
		<tag k="name" v="Skjenarvollan" />
		<tag k="place" v="locality" />
		<tag k="ssr:stedsnr" v="921226" />
	</node>
	<node lat="61.7520343478737" lon="8.398394997406298" id="-22501">
		<tag k="alt_name" v="Øyjordet" />
		<tag k="fixme" v="consider place=hamlet" />
		<tag k="name" v="Øyjordi" />
		<tag k="place" v="farm" />
		<tag k="ssr:stedsnr" v="921961" />
	</node>
	<node lat="61.72400555128363" lon="8.33573056344654" id="-22506">
		<tag k="alt_name" v="Bakkeberg Uppistugun" />
		<tag k="name" v="Uppistugun Bakkeberg" />
		<tag k="place" v="farm" />
		<tag k="ssr:stedsnr" v="842307" />
	</node>
	<node lat="61.66188610978992" lon="8.01873889744716" id="-22509">
		<tag k="historic" v="shieling" />
		<tag k="name" v="Nyhussætre" />
		<tag k="place" v="isolated_dwelling" />
		<tag k="ssr:stedsnr" v="842711" />
	</node>
	<node lat="61.8117083337147" lon="8.479563894141448" id="-22510">
		<tag k="name" v="Krøkje" />
		<tag k="place" v="farm" />
		<tag k="ssr:stedsnr" v="843028" />
	</node>
	<node lat="61.93758333352842" lon="8.886622226799677" id="-22511">
		<tag k="historic" v="shieling" />
		<tag k="name" v="Nordre Bustad sætre" />
		<tag k="place" v="isolated_dwelling" />
		<tag k="ssr:stedsnr" v="843334" />
	</node>
	<node lat="61.712419445153536" lon="8.315461105258091" id="-22512">
		<tag k="name" v="Søre Leirmo" />
		<tag k="place" v="isolated_dwelling" />
		<tag k="ssr:stedsnr" v="843338" />
	</node>
	<node lat="61.70993333295609" lon="8.312047224011952" id="-22513">
		<tag k="name" v="Veslhalsen" />
		<tag k="place" v="isolated_dwelling" />
		<tag k="ssr:stedsnr" v="843339" />
	</node>
	<node lat="61.71545277879941" lon="8.222027779701273" id="-22517">
		<tag k="historic" v="shieling" />
		<tag k="name" v="Nerholsætre" />
		<tag k="place" v="isolated_dwelling" />
		<tag k="ssr:stedsnr" v="843573" />
	</node>
	<node lat="61.865013890000576" lon="8.672616667856584" id="-22522">
		<tag k="name" v="Nørdre Sveine" />
		<tag k="place" v="farm" />
		<tag k="ssr:stedsnr" v="843827" />
	</node>
	<node lat="61.723240649522715" lon="8.346058178546523" id="-22524">
		<tag k="alt_name" v="Galde" />
		<tag k="name" v="Sygard Galde" />
		<tag k="place" v="farm" />
		<tag k="ssr:stedsnr" v="859122" />
	</node>
	<node lat="61.721691663948945" lon="8.354383326034293" id="-22525">
		<tag k="name" v="Galdesanden" />
		<tag k="place" v="hamlet" />
		<tag k="ssr:stedsnr" v="859124" />
	</node>
	<node lat="61.84649741410813" lon="8.594915149173195" id="-22528">
		<tag k="fixme" v="consider place=hamlet" />
		<tag k="name" v="Blakar" />
		<tag k="place" v="farm" />
		<tag k="ssr:stedsnr" v="859019" />
	</node>
	<node lat="61.8556059136221" lon="8.657711208086429" id="-22529">
		<tag k="fixme" v="consider place=hamlet" />
		<tag k="name" v="Kjæstad" />
		<tag k="place" v="farm" />
		<tag k="ssr:stedsnr" v="859073" />
	</node>
	<node lat="61.85338055786133" lon="8.513683324814613" id="-22531">
		<tag k="name" v="Ekre" />
		<tag k="place" v="farm" />
		<tag k="ssr:stedsnr" v="859080" />
	</node>
	<node lat="61.81320912546954" lon="8.641460931411116" id="-22532">
		<tag k="alt_name" v="Svartlii" />
		<tag k="historic" v="shieling" />
		<tag k="name" v="Svartlie" />
		<tag k="place" v="isolated_dwelling" />
		<tag k="ssr:stedsnr" v="859227" />
	</node>
	<node lat="61.88619999910322" lon="8.70213056407656" id="-22546">
		<tag k="name" v="Kvammen" />
		<tag k="place" v="isolated_dwelling" />
		<tag k="ssr:stedsnr" v="860117" />
	</node>
	<node lat="61.74773889248165" lon="8.409641663514355" id="-22555">
		<tag k="alt_name" v="Kringlehaugen" />
		<tag k="name" v="Kringelhaugen" />
		<tag k="place" v="farm" />
		<tag k="ssr:stedsnr" v="860209" />
	</node>
	<node lat="61.74964444010005" lon="8.618566663169855" id="-22558">
		<tag k="historic" v="shieling" />
		<tag k="loc_name" v="Fossætre" />
		<tag k="name" v="Fossætri" />
		<tag k="place" v="isolated_dwelling" />
		<tag k="ssr:stedsnr" v="860279" />
	</node>
	<node lat="61.93317778063578" lon="8.57297777932325" id="-22560">
		<tag k="name" v="Råkåhytta" />
		<tag k="place" v="isolated_dwelling" />
		<tag k="ssr:stedsnr" v="860909" />
	</node>
	<node lat="61.74233055706146" lon="8.87750000887723" id="-22564">
		<tag k="alt_name" v="Smørlii" />
		<tag k="historic" v="shieling" />
		<tag k="name" v="Smørlie" />
		<tag k="place" v="isolated_dwelling" />
		<tag k="ssr:stedsnr" v="860957" />
	</node>
	<node lat="61.85759444573284" lon="8.504716665901933" id="-22569">
		<tag k="name" v="Skogstad" />
		<tag k="place" v="isolated_dwelling" />
		<tag k="ssr:stedsnr" v="900804" />
	</node>
	<node lat="61.71515555852929" lon="8.214219449596307" id="-22574">
		<tag k="historic" v="shieling" />
		<tag k="name" v="Nørstnessætre" />
		<tag k="place" v="isolated_dwelling" />
		<tag k="ssr:stedsnr" v="903552" />
	</node>
	<node lat="61.715958328885705" lon="8.210774995763538" id="-22575">
		<tag k="name" v="Neto" />
		<tag k="place" v="hamlet" />
		<tag k="ssr:stedsnr" v="903555" />
	</node>
	<node lat="61.87123611068578" lon="8.662733334838205" id="-22576">
		<tag k="name" v="Nørdre Bakkjen" />
		<tag k="place" v="farm" />
		<tag k="ssr:stedsnr" v="904805" />
	</node>
	<node lat="61.86182499575027" lon="8.633297213486907" id="-22577">
		<tag k="name" v="Nørdre Kollen" />
		<tag k="place" v="farm" />
		<tag k="ssr:stedsnr" v="904812" />
	</node>
	<node lat="61.858088887134244" lon="8.700894437313467" id="-22578">
		<tag k="name" v="Grafferskollen" />
		<tag k="place" v="farm" />
		<tag k="ssr:stedsnr" v="904954" />
	</node>
	<node lat="61.85671666351299" lon="8.499208329424542" id="-22581">
		<tag k="name" v="Gran" />
		<tag k="place" v="farm" />
		<tag k="ssr:stedsnr" v="920104" />
	</node>
	<node lat="61.71963610695435" lon="8.403986115323647" id="-22586">
		<tag k="historic" v="shieling" />
		<tag k="name" v="Raudbergstulsætren" />
		<tag k="place" v="isolated_dwelling" />
		<tag k="ssr:stedsnr" v="920146" />
	</node>
	<node lat="61.717705338827884" lon="8.301012098109837" id="-22589">
		<tag k="fixme" v="consider place=hamlet" />
		<tag k="name" v="Ruste" />
		<tag k="place" v="farm" />
		<tag k="ssr:stedsnr" v="920157" />
	</node>
	<node lat="61.85069166857859" lon="8.609430556080271" id="-22593">
		<tag k="name" v="Synstad" />
		<tag k="place" v="farm" />
		<tag k="ssr:stedsnr" v="920041" />
	</node>
	<node lat="61.84489444477441" lon="8.827091663255949" id="-22595">
		<tag k="alt_name" v="Flaten" />
		<tag k="name" v="Sagflaten" />
		<tag k="place" v="farm" />
		<tag k="ssr:stedsnr" v="920052" />
	</node>
	<node lat="61.823427774082035" lon="8.506072215823378" id="-22598">
		<tag k="alt_name" v="Kvålshagen" />
		<tag k="name" v="Kvålshågån" />
		<tag k="place" v="farm" />
		<tag k="ssr:stedsnr" v="920206" />
	</node>
	<node lat="61.81638478148021" lon="8.485475642453057" id="-22599">
		<tag k="alt_name" v="Gutebø" />
		<tag k="fixme" v="consider place=hamlet" />
		<tag k="name" v="Gutubø" />
		<tag k="place" v="farm" />
		<tag k="ssr:stedsnr" v="920209" />
	</node>
	<node lat="61.81610000347619" lon="8.509624998352974" id="-22600">
		<tag k="alt_name" v="Nørjordskvee" />
		<tag k="name" v="Kvei" />
		<tag k="place" v="farm" />
		<tag k="ssr:stedsnr" v="920210" />
	</node>
	<node lat="61.687747220533865" lon="8.251955551497609" id="-22601">
		<tag k="alt_name" v="Veslelia" />
		<tag k="loc_name" v="Vesllie;Vetllie" />
		<tag k="name" v="Vesllii" />
		<tag k="place" v="farm" />
		<tag k="ssr:stedsnr" v="920219" />
	</node>
	<node lat="61.63760833729719" lon="8.052338881239157" id="-22607">
		<tag k="fixme" v="consider tourism=alpine_hut or tourism=chalet" />
		<tag k="name" v="Bøvertun" />
		<tag k="ssr:stedsnr" v="920422" />
		<tag k="tourism" v="wilderness_hut" />
	</node>
	<node lat="61.622647225577374" lon="8.632372227821365" id="-22611">
		<tag k="fixme" v="consider tourism=alpine_hut or tourism=chalet" />
		<tag k="name" v="Glitterheim" />
		<tag k="ssr:stedsnr" v="920906" />
		<tag k="tourism" v="wilderness_hut" />
	</node>
	<node lat="61.78258333535542" lon="8.436044452302502" id="-22617">
		<tag k="name" v="Stein" />
		<tag k="place" v="farm" />
		<tag k="ssr:stedsnr" v="920993" />
	</node>
	<node lat="61.832555558710915" lon="8.854702781721361" id="-22626">
		<tag k="historic" v="shieling" />
		<tag k="name" v="Søre Garmosætre" />
		<tag k="place" v="isolated_dwelling" />
		<tag k="ssr:stedsnr" v="939592" />
	</node>
	<node lat="61.85150833546113" lon="8.635644439229122" id="-22627">
		<tag k="name" v="Kvålsstugu" />
		<tag k="place" v="locality" />
		<tag k="ssr:stedsnr" v="939811" />
	</node>
	<node lat="61.83246389034008" lon="8.787130559844554" id="-22628">
		<tag k="alt_name" v="Eklesætre" />
		<tag k="historic" v="shieling" />
		<tag k="name" v="Eklesætri" />
		<tag k="place" v="isolated_dwelling" />
		<tag k="ssr:stedsnr" v="963020" />
	</node>
	<node lat="61.70922777509946" lon="8.303294452290992" id="-22631">
		<tag k="name" v="Åmotlykkja" />
		<tag k="place" v="locality" />
		<tag k="ssr:stedsnr" v="963390" />
	</node>
	<node lat="61.717188890457685" lon="8.30731943963373" id="-22632">
		<tag k="name" v="Brukvee" />
		<tag k="place" v="farm" />
		<tag k="ssr:stedsnr" v="963392" />
	</node>
	<node lat="61.74767499707065" lon="8.41498055936057" id="-22636">
		<tag k="name" v="Tande" />
		<tag k="place" v="farm" />
		<tag k="ssr:stedsnr" v="963492" />
	</node>
	<node lat="61.71528333146203" lon="8.20287499170972" id="-22637">
		<tag k="historic" v="shieling" />
		<tag k="name" v="Hosarsætre" />
		<tag k="place" v="isolated_dwelling" />
		<tag k="ssr:stedsnr" v="963613" />
	</node>
	<node lat="61.8024573189827" lon="8.447883110899529" id="-22639">
		<tag k="fixme" v="consider place=hamlet" />
		<tag k="name" v="Oksle" />
		<tag k="place" v="farm" />
		<tag k="ssr:stedsnr" v="964035" />
	</node>
	<node lat="61.65613889309641" lon="8.183941666816697" id="-22642">
		<tag k="historic" v="shieling" />
		<tag k="name" v="Nordistugun" />
		<tag k="place" v="isolated_dwelling" />
		<tag k="ssr:stedsnr" v="964686" />
	</node>
	<node lat="61.850424078688604" lon="8.802909661420065" id="-22643">
		<tag k="fixme" v="consider place=hamlet" />
		<tag k="name" v="Frisvoll" />
		<tag k="place" v="farm" />
		<tag k="ssr:stedsnr" v="984342" />
	</node>
	<node lat="61.84684231048528" lon="8.778483180187228" id="-22644">
		<tag k="fixme" v="consider place=hamlet" />
		<tag k="name" v="Ekle" />
		<tag k="place" v="farm" />
		<tag k="ssr:stedsnr" v="984343" />
	</node>
	<node lat="61.84874038270377" lon="8.765328444705933" id="-22645">
		<tag k="name" v="Brimi" />
		<tag k="place" v="hamlet" />
		<tag k="ssr:stedsnr" v="984344" />
	</node>
	<node lat="61.84935308789765" lon="8.74957561407966" id="-22646">
		<tag k="name" v="Lyngve" />
		<tag k="place" v="hamlet" />
		<tag k="ssr:stedsnr" v="984345" />
	</node>
	<node lat="61.85329063756781" lon="8.644608340138394" id="-22648">
		<tag k="fixme" v="consider place=hamlet" />
		<tag k="name" v="Skånsar" />
		<tag k="place" v="farm" />
		<tag k="ssr:stedsnr" v="984351" />
	</node>
	<node lat="61.848278421328196" lon="8.598831346044438" id="-22649">
		<tag k="fixme" v="consider place=hamlet" />
		<tag k="name" v="Stamstad" />
		<tag k="place" v="farm" />
		<tag k="ssr:stedsnr" v="984362" />
	</node>
	<node lat="61.83754304909787" lon="8.572260704120053" id="-22650">
		<tag k="name" v="Ulstad" />
		<tag k="place" v="hamlet" />
		<tag k="ssr:stedsnr" v="984364" />
	</node>
	<node lat="61.83236788951535" lon="8.559830149337607" id="-22651">
		<tag k="fixme" v="consider place=hamlet" />
		<tag k="name" v="Øy" />
		<tag k="place" v="farm" />
		<tag k="ssr:stedsnr" v="984365" />
	</node>
	<node lat="61.814629724013486" lon="8.512845820783358" id="-22652">
		<tag k="fixme" v="consider place=hamlet" />
		<tag k="name" v="Nørjordet" />
		<tag k="place" v="farm" />
		<tag k="ssr:stedsnr" v="984366" />
	</node>
	<node lat="61.72305719181379" lon="8.331570396905034" id="-22653">
		<tag k="alt_name" v="Bakkeberg Nordistugun" />
		<tag k="name" v="Nordistugun Bakkeberg" />
		<tag k="place" v="farm" />
		<tag k="ssr:stedsnr" v="985307" />
	</node>
	<node lat="61.857306690893395" lon="8.687078363149682" id="-22655">
		<tag k="name" v="Nørdre Rådsbakken" />
		<tag k="place" v="farm" />
		<tag k="ssr:stedsnr" v="987367" />
	</node>
	<node lat="61.83042221931621" lon="8.806366664318544" id="-22673">
		<tag k="alt_name" v="Bjørnalii, nordre" />
		<tag k="historic" v="shieling" />
		<tag k="name" v="Nørdre Bjønnalie" />
		<tag k="place" v="isolated_dwelling" />
		<tag k="ssr:stedsnr" v="10022" />
	</node>
	<node lat="61.85127777466057" lon="8.625330563766974" id="-22676">
		<tag k="alt_name" v="Frøysehågein" />
		<tag k="name" v="Hågån" />
		<tag k="place" v="farm" />
		<tag k="ssr:stedsnr" v="10034" />
	</node>
	<node lat="61.845727774214026" lon="8.830272215215148" id="-22677">
		<tag k="name" v="Brekka" />
		<tag k="place" v="farm" />
		<tag k="ssr:stedsnr" v="10048" />
	</node>
	<node lat="61.84815160295892" lon="8.769559946723211" id="-22678">
		<tag k="alt_name" v="Søre Brimi;Brimi, s" />
		<tag k="fixme" v="consider place=hamlet" />
		<tag k="name" v="Sygard Brimi" />
		<tag k="place" v="farm" />
		<tag k="ssr:stedsnr" v="10049" />
	</node>
	<node lat="61.63208055801639" lon="8.405302784320853" id="-22679">
		<tag k="alt_name" v="Sygard, heimi" />
		<tag k="name" v="Heimi Sygard" />
		<tag k="place" v="locality" />
		<tag k="ssr:stedsnr" v="10053" />
	</node>
	<node lat="61.84622778205882" lon="8.744222231170092" id="-22680">
		<tag k="name" v="Hidemstrædet" />
		<tag k="place" v="farm" />
		<tag k="ssr:stedsnr" v="10054" />
	</node>
	<node lat="61.71777499826831" lon="8.715852777892067" id="-22684">
		<tag k="name" v="Ormehaugen" />
		<tag k="place" v="locality" />
		<tag k="ssr:stedsnr" v="10077" />
	</node>
	<node lat="61.865170102905374" lon="8.718018767058197" id="-22685">
		<tag k="alt_name" v="Stadsviki, nedre" />
		<tag k="fixme" v="consider place=hamlet" />
		<tag k="name" v="Nedre Stasvikje" />
		<tag k="place" v="farm" />
		<tag k="ssr:stedsnr" v="10078" />
	</node>
	<node lat="61.870441670583816" lon="8.72481389233724" id="-22687">
		<tag k="name" v="Turtumøygarden" />
		<tag k="place" v="farm" />
		<tag k="ssr:stedsnr" v="10081" />
	</node>
	<node lat="61.86740833154207" lon="8.6732833426505" id="-22688">
		<tag k="name" v="Olsonstugu" />
		<tag k="place" v="farm" />
		<tag k="ssr:stedsnr" v="10083" />
	</node>
	<node lat="61.74908333773562" lon="8.416363885398177" id="-22689">
		<tag k="name" v="Bakkom" />
		<tag k="place" v="farm" />
		<tag k="ssr:stedsnr" v="10176" />
	</node>
	<node lat="61.83496063083599" lon="8.55049764500752" id="-22708">
		<tag k="name" v="Uppigard Andvord" />
		<tag k="place" v="farm" />
		<tag k="ssr:stedsnr" v="26164" />
	</node>
	<node lat="61.85088889294993" lon="8.621872218403054" id="-22716">
		<tag k="name" v="Berget" />
		<tag k="place" v="farm" />
		<tag k="ssr:stedsnr" v="28051" />
	</node>
	<node lat="61.85329444315488" lon="8.518013892758937" id="-22717">
		<tag k="name" v="Gjerdet" />
		<tag k="place" v="farm" />
		<tag k="ssr:stedsnr" v="28448" />
	</node>
	<node lat="61.84134999924327" lon="8.55965833265965" id="-22719">
		<tag k="name" v="Furulund" />
		<tag k="ssr:stedsnr" v="28457" />
		<tag k="tourism" v="camp_site" />
	</node>
	<node lat="61.829505558454116" lon="8.637213896840187" id="-22721">
		<tag k="historic" v="shieling" />
		<tag k="name" v="Kvålssætre" />
		<tag k="place" v="isolated_dwelling" />
		<tag k="ssr:stedsnr" v="28875" />
	</node>
	<node lat="61.87318610957175" lon="8.753655546430037" id="-22723">
		<tag k="name" v="Søre Vikje" />
		<tag k="place" v="farm" />
		<tag k="ssr:stedsnr" v="29456" />
	</node>
	<node lat="61.81119722552981" lon="8.463211101888655" id="-22742">
		<tag k="name" v="Nordgard Kvamme" />
		<tag k="place" v="farm" />
		<tag k="ssr:stedsnr" v="54039" />
	</node>
	<node lat="61.807074998094144" lon="8.451044451445288" id="-22743">
		<tag k="name" v="Kvamshågån" />
		<tag k="place" v="locality" />
		<tag k="ssr:stedsnr" v="54040" />
	</node>
	<node lat="61.802769443568216" lon="8.450713897798908" id="-22745">
		<tag k="name" v="Kløvvollein" />
		<tag k="place" v="locality" />
		<tag k="ssr:stedsnr" v="54044" />
	</node>
	<node lat="61.870747224072325" lon="8.818355554288846" id="-22747">
		<tag k="historic" v="shieling" />
		<tag k="name" v="Grønsætre" />
		<tag k="place" v="isolated_dwelling" />
		<tag k="ssr:stedsnr" v="54262" />
	</node>
	<node lat="61.86921388769384" lon="8.668263884880036" id="-22750">
		<tag k="name" v="Søre Øverli" />
		<tag k="place" v="farm" />
		<tag k="ssr:stedsnr" v="54802" />
	</node>
	<node lat="61.867696445514596" lon="8.712886878440495" id="-22759">
		<tag k="fixme" v="consider place=hamlet" />
		<tag k="name" v="Nyøygard" />
		<tag k="place" v="farm" />
		<tag k="ssr:stedsnr" v="70060" />
	</node>
	<node lat="61.86712339656793" lon="8.722803503755785" id="-22761">
		<tag k="fixme" v="consider place=hamlet" />
		<tag k="name" v="Turtum" />
		<tag k="place" v="farm" />
		<tag k="ssr:stedsnr" v="70065" />
	</node>
	<node lat="61.86099168632343" lon="8.63549758453993" id="-22763">
		<tag k="name" v="Kollen" />
		<tag k="place" v="hamlet" />
		<tag k="ssr:stedsnr" v="70075" />
	</node>
	<node lat="61.61052777695608" lon="8.042661104498384" id="-22764">
		<tag k="historic" v="shieling" />
		<tag k="name" v="Breidsæterstulen" />
		<tag k="place" v="isolated_dwelling" />
		<tag k="ssr:stedsnr" v="70448" />
	</node>
	<node lat="61.86371389036507" lon="8.484752780570119" id="-22767">
		<tag k="alt_name" v="Resvollen" />
		<tag k="name" v="Resvollan" />
		<tag k="place" v="isolated_dwelling" />
		<tag k="ssr:stedsnr" v="71124" />
	</node>
	<node lat="61.875788397775594" lon="8.700509839794057" id="-22768">
		<tag k="fixme" v="consider place=hamlet" />
		<tag k="name" v="Flatmo" />
		<tag k="place" v="farm" />
		<tag k="ssr:stedsnr" v="71133" />
	</node>
	<node lat="61.656112080243666" lon="8.673173906149893" id="-22770">
		<tag k="name" v="Bergenussbue" />
		<tag k="place" v="locality" />
		<tag k="ssr:stedsnr" v="70868" />
	</node>
	<node lat="61.828107287124695" lon="8.54680825239654" id="-22771">
		<tag k="alt_name" v="Øyøygard" />
		<tag k="fixme" v="consider place=hamlet" />
		<tag k="name" v="Øyøygarden" />
		<tag k="place" v="farm" />
		<tag k="ssr:stedsnr" v="71019" />
	</node>
	<node lat="61.8279991499508" lon="8.537552431071514" id="-22772">
		<tag k="alt_name" v="Torekvei" />
		<tag k="fixme" v="consider place=hamlet" />
		<tag k="name" v="Torekvee" />
		<tag k="place" v="farm" />
		<tag k="ssr:stedsnr" v="71021" />
	</node>
	<node lat="61.85050000023144" lon="8.73420555514174" id="-22776">
		<tag k="name" v="Mo" />
		<tag k="place" v="farm" />
		<tag k="ssr:stedsnr" v="71051" />
	</node>
	<node lat="61.68834166824141" lon="8.158444435698623" id="-22788">
		<tag k="historic" v="shieling" />
		<tag k="name" v="Vekkjesætre" />
		<tag k="place" v="isolated_dwelling" />
		<tag k="ssr:stedsnr" v="71251" />
	</node>
	<node lat="61.85411603745539" lon="8.864176161688555" id="-22795">
		<tag k="fixme" v="consider place=hamlet" />
		<tag k="name" v="Nyrnes" />
		<tag k="place" v="farm" />
		<tag k="ssr:stedsnr" v="71331" />
	</node>
	<node lat="61.835561259016636" lon="8.551618779637181" id="-22803">
		<tag k="name" v="Andvordstrædet" />
		<tag k="place" v="quarter" />
		<tag k="ssr:stedsnr" v="88395" />
	</node>
	<node lat="61.84932499941161" lon="8.753791667437806" id="-22807">
		<tag k="name" v="Søre Lyngve" />
		<tag k="place" v="farm" />
		<tag k="ssr:stedsnr" v="89644" />
	</node>
	<node lat="61.845747223584404" lon="8.759863895617706" id="-22808">
		<tag k="name" v="Nystuen" />
		<tag k="place" v="locality" />
		<tag k="ssr:stedsnr" v="89646" />
	</node>
	<node lat="61.84944731044121" lon="8.732943219570442" id="-22811">
		<tag k="fixme" v="consider place=hamlet" />
		<tag k="name" v="Lyngvesøygarden" />
		<tag k="place" v="farm" />
		<tag k="ssr:stedsnr" v="90753" />
	</node>
	<node lat="61.851811107165084" lon="8.714941658789389" id="-22812">
		<tag k="name" v="Turrmoen" />
		<tag k="place" v="farm" />
		<tag k="ssr:stedsnr" v="90756" />
	</node>
	<node lat="61.70357500336326" lon="8.19226666883878" id="-22813">
		<tag k="historic" v="shieling" />
		<tag k="name" v="Nørstnes-hågåsætre" />
		<tag k="place" v="isolated_dwelling" />
		<tag k="ssr:stedsnr" v="113484" />
	</node>
	<node lat="61.73051944299063" lon="8.373441675495714" id="-22816">
		<tag k="name" v="Nørdre Repp" />
		<tag k="place" v="farm" />
		<tag k="ssr:stedsnr" v="114268" />
	</node>
	<node lat="61.72090555389588" lon="8.355347227553903" id="-22817">
		<tag k="name" v="Heggjeruste" />
		<tag k="place" v="farm" />
		<tag k="ssr:stedsnr" v="114284" />
	</node>
	<node lat="61.70233888642602" lon="8.28312778421373" id="-22821">
		<tag k="name" v="Røvshusbakkjen" />
		<tag k="place" v="farm" />
		<tag k="ssr:stedsnr" v="114386" />
	</node>
	<node lat="61.92879999708969" lon="8.77390278727707" id="-22825">
		<tag k="historic" v="shieling" />
		<tag k="name" v="Nordgard Rudsar" />
		<tag k="place" v="isolated_dwelling" />
		<tag k="ssr:stedsnr" v="114740" />
	</node>
	<node lat="61.63734722194212" lon="8.05153056346304" id="-22830">
		<tag k="historic" v="shieling" />
		<tag k="name" v="Opphaugsætre" />
		<tag k="place" v="isolated_dwelling" />
		<tag k="ssr:stedsnr" v="115658" />
	</node>
	<node lat="61.84967337494788" lon="8.691369786321275" id="-22837">
		<tag k="fixme" v="consider place=hamlet" />
		<tag k="name" v="Graffer" />
		<tag k="place" v="farm" />
		<tag k="ssr:stedsnr" v="131061" />
	</node>
	<node lat="61.849499996324454" lon="8.71374166860406" id="-22838">
		<tag k="name" v="Haug" />
		<tag k="place" v="farm" />
		<tag k="ssr:stedsnr" v="131063" />
	</node>
	<node lat="61.704511210105906" lon="8.287209111549652" id="-22842">
		<tag k="name" v="Elvesæter" />
		<tag k="ssr:stedsnr" v="131131" />
		<tag k="tourism" v="hotel" />
	</node>
	<node lat="61.700755557727206" lon="8.282880546122358" id="-22843">
		<tag k="historic" v="shieling" />
		<tag k="name" v="Vesløygarden" />
		<tag k="place" v="isolated_dwelling" />
		<tag k="ssr:stedsnr" v="131132" />
	</node>
	<node lat="61.72592221830462" lon="8.284030556103303" id="-22849">
		<tag k="name" v="Runningsgrende" />
		<tag k="place" v="hamlet" />
		<tag k="ssr:stedsnr" v="131163" />
	</node>
	<node lat="61.726475002010716" lon="8.286180551516658" id="-22850">
		<tag k="name" v="Runningen" />
		<tag k="place" v="farm" />
		<tag k="ssr:stedsnr" v="131167" />
	</node>
	<node lat="61.67959722597495" lon="8.231863889318234" id="-22854">
		<tag k="historic" v="shieling" />
		<tag k="name" v="Heimsetren" />
		<tag k="place" v="isolated_dwelling" />
		<tag k="ssr:stedsnr" v="131201" />
	</node>
	<node lat="61.66056666892805" lon="8.057355550887127" id="-22860">
		<tag k="alt_name" v="Høydalen, s;Søre Høydalssætren" />
		<tag k="historic" v="shieling" />
		<tag k="name" v="Søre Høydalen" />
		<tag k="place" v="isolated_dwelling" />
		<tag k="ssr:stedsnr" v="131465" />
	</node>
	<node lat="61.77270833336155" lon="8.448172230556084" id="-22862">
		<tag k="alt_name" v="Nerhovde" />
		<tag k="historic" v="shieling" />
		<tag k="name" v="Nerhovdsætri" />
		<tag k="place" v="isolated_dwelling" />
		<tag k="ssr:stedsnr" v="132000" />
	</node>
	<node lat="61.91682499771614" lon="8.659583336250192" id="-22875">
		<tag k="historic" v="shieling" />
		<tag k="name" v="Sørstulen" />
		<tag k="place" v="isolated_dwelling" />
		<tag k="ssr:stedsnr" v="132880" />
	</node>
	<node lat="61.83041389189551" lon="8.543558327441241" id="-22881">
		<tag k="name" v="Lyuengje" />
		<tag k="place" v="farm" />
		<tag k="ssr:stedsnr" v="147141" />
	</node>
	<node lat="61.82286666492014" lon="8.499638885175909" id="-22882">
		<tag k="name" v="Slettom" />
		<tag k="place" v="farm" />
		<tag k="ssr:stedsnr" v="147952" />
	</node>
	<node lat="61.85644166459414" lon="8.804213886696708" id="-22886">
		<tag k="name" v="Nørdre Odde" />
		<tag k="place" v="farm" />
		<tag k="ssr:stedsnr" v="149491" />
	</node>
	<node lat="61.87344385521025" lon="8.749426827124395" id="-22889">
		<tag k="name" v="Nørdre Vikje" />
		<tag k="place" v="farm" />
		<tag k="ssr:stedsnr" v="150437" />
	</node>
	<node lat="61.8707805567268" lon="8.779872220373397" id="-22890">
		<tag k="alt_name" v="Søre Botten" />
		<tag k="name" v="Søre Botn" />
		<tag k="place" v="farm" />
		<tag k="ssr:stedsnr" v="150438" />
	</node>
	<node lat="61.84539444347442" lon="8.718405548763032" id="-22891">
		<tag k="name" v="Øvstøygarden" />
		<tag k="place" v="locality" />
		<tag k="ssr:stedsnr" v="150716" />
	</node>
	<node lat="61.83934444371277" lon="8.831511109348396" id="-22896">
		<tag k="alt_name" v="Byrsætre" />
		<tag k="historic" v="shieling" />
		<tag k="name" v="Byrsætri" />
		<tag k="place" v="isolated_dwelling" />
		<tag k="ssr:stedsnr" v="174031" />
	</node>
	<node lat="61.775677778035245" lon="8.46841110968483" id="-22897">
		<tag k="historic" v="shieling" />
		<tag k="name" v="Aukrustsætre" />
		<tag k="place" v="isolated_dwelling" />
		<tag k="ssr:stedsnr" v="175093" />
	</node>
	<node lat="61.77261666251014" lon="8.45457499727068" id="-22898">
		<tag k="historic" v="shieling" />
		<tag k="name" v="Brekkøysætre" />
		<tag k="place" v="isolated_dwelling" />
		<tag k="ssr:stedsnr" v="175096" />
	</node>
	<node lat="61.725694441362364" lon="8.278413882488099" id="-22901">
		<tag k="name" v="Runningshaugen" />
		<tag k="place" v="farm" />
		<tag k="ssr:stedsnr" v="175312" />
	</node>
	<node lat="61.71569444438387" lon="8.215899996195168" id="-22906">
		<tag k="historic" v="shieling" />
		<tag k="name" v="Nerstulen" />
		<tag k="place" v="isolated_dwelling" />
		<tag k="ssr:stedsnr" v="175557" />
	</node>
	<node lat="61.930555553799756" lon="8.781780551543429" id="-22912">
		<tag k="historic" v="shieling" />
		<tag k="name" v="Rudsarsætren" />
		<tag k="place" v="isolated_dwelling" />
		<tag k="ssr:stedsnr" v="175726" />
	</node>
	<node lat="61.9384027758242" lon="8.863019440469808" id="-22913">
		<tag k="historic" v="shieling" />
		<tag k="name" v="Bøjesætren" />
		<tag k="place" v="isolated_dwelling" />
		<tag k="ssr:stedsnr" v="175736" />
	</node>
	<node lat="61.872216670394266" lon="8.73285277172644" id="-22914">
		<tag k="name" v="Liasagje" />
		<tag k="place" v="locality" />
		<tag k="ssr:stedsnr" v="175940" />
	</node>
	<node lat="61.69843055563142" lon="8.314091669345876" id="-22918">
		<tag k="historic" v="shieling" />
		<tag k="name" v="Mytingje" />
		<tag k="place" v="isolated_dwelling" />
		<tag k="ssr:stedsnr" v="192150" />
	</node>
	<node lat="61.71733055109469" lon="8.391505552439572" id="-22922">
		<tag k="alt_name" v="Raudbergstulen Turisthytte" />
		<tag k="fixme" v="consider tourism=alpine_hut or tourism=chalet" />
		<tag k="name" v="Raudbergstulen" />
		<tag k="ssr:stedsnr" v="192162" />
		<tag k="tourism" v="wilderness_hut" />
	</node>
	<node lat="61.72087500027568" lon="8.441247220226625" id="-22924">
		<tag k="historic" v="shieling" />
		<tag k="name" v="Visdalssætren" />
		<tag k="place" v="isolated_dwelling" />
		<tag k="ssr:stedsnr" v="192172" />
	</node>
	<node lat="61.84365000288908" lon="8.848625002543619" id="-22928">
		<tag k="name" v="Bjørgen" />
		<tag k="place" v="farm" />
		<tag k="ssr:stedsnr" v="192312" />
	</node>
	<node lat="61.83211388654409" lon="8.557938884044495" id="-22930">
		<tag k="alt_name" v="Øy" />
		<tag k="name" v="Nørderøy" />
		<tag k="place" v="farm" />
		<tag k="ssr:stedsnr" v="192030" />
	</node>
	<node lat="61.84375000130987" lon="8.548847228152631" id="-22932">
		<tag k="alt_name" v="Svei" />
		<tag k="name" v="Svee" />
		<tag k="place" v="farm" />
		<tag k="ssr:stedsnr" v="192039" />
	</node>
	<node lat="61.85130833235204" lon="8.767583339742819" id="-22944">
		<tag k="name" v="Brimiskjellen" />
		<tag k="place" v="isolated_dwelling" />
		<tag k="ssr:stedsnr" v="192061" />
	</node>
	<node lat="61.86774938392725" lon="8.686839187203322" id="-22946">
		<tag k="fixme" v="consider place=hamlet" />
		<tag k="name" v="Gaukstad" />
		<tag k="place" v="farm" />
		<tag k="ssr:stedsnr" v="192071" />
	</node>
	<node lat="61.86436944622769" lon="8.664061114838809" id="-22949">
		<tag k="name" v="Blekastad" />
		<tag k="place" v="farm" />
		<tag k="ssr:stedsnr" v="192088" />
	</node>
	<node lat="61.86953888820164" lon="8.669511116031755" id="-22959">
		<tag k="alt_name" v="Lii, nordre;Nørdre Lie" />
		<tag k="fixme" v="consider place=hamlet" />
		<tag k="name" v="Nørdre Lii" />
		<tag k="place" v="village" />
		<tag k="ssr:stedsnr" v="192136" />
	</node>
	<node lat="61.70365833195586" lon="8.220922220092952" id="-22960">
		<tag k="historic" v="shieling" />
		<tag k="name" v="Nørdre Kvammesætre" />
		<tag k="place" v="isolated_dwelling" />
		<tag k="ssr:stedsnr" v="192146" />
	</node>
	<node lat="61.813745537514606" lon="8.50175068160431" id="-22964">
		<tag k="fixme" v="consider place=hamlet" />
		<tag k="name" v="Vågåsar" />
		<tag k="place" v="farm" />
		<tag k="ssr:stedsnr" v="192259" />
	</node>
	<node lat="61.7499663067468" lon="8.387383635669858" id="-22977">
		<tag k="fixme" v="consider place=hamlet" />
		<tag k="name" v="Hoft" />
		<tag k="place" v="farm" />
		<tag k="ssr:stedsnr" v="192973" />
	</node>
	<node lat="61.96308888958216" lon="8.53669167354484" id="-22982">
		<tag k="name" v="Vassmillom" />
		<tag k="place" v="locality" />
		<tag k="ssr:stedsnr" v="192911" />
	</node>
	<node lat="61.8082583377184" lon="8.911308329234256" id="-22999">
		<tag k="name" v="Brimi fjellstugu" />
		<tag k="ssr:stedsnr" v="207498" />
		<tag k="tourism" v="hotel" />
	</node>
	<node lat="61.84867648402362" lon="8.599521256592515" id="-23003">
		<tag k="name" v="Nørdre Stronde" />
		<tag k="place" v="hamlet" />
		<tag k="ssr:stedsnr" v="210045" />
	</node>
	<node lat="61.83936111097941" lon="8.551558336547963" id="-23007">
		<tag k="name" v="Ner-Eggje" />
		<tag k="place" v="farm" />
		<tag k="ssr:stedsnr" v="210438" />
	</node>
	<node lat="61.84955833486137" lon="8.771038888249238" id="-23008">
		<tag k="name" v="Bakke" />
		<tag k="place" v="farm" />
		<tag k="ssr:stedsnr" v="210653" />
	</node>
	<node lat="61.83802581716975" lon="8.559968318975738" id="-23009">
		<tag k="amenity" v="kindergarten" />
		<tag k="name" v="Loar barnehage" />
		<tag k="ssr:stedsnr" v="210469" />
	</node>
	<node lat="61.83021666427859" lon="8.861822216290442" id="-23010">
		<tag k="historic" v="shieling" />
		<tag k="name" v="Oppigard Garmosætre" />
		<tag k="place" v="isolated_dwelling" />
		<tag k="ssr:stedsnr" v="210600" />
	</node>
	<node lat="61.85497777660765" lon="8.80028888739958" id="-23011">
		<tag k="name" v="Gjeilhaugen" />
		<tag k="place" v="quarter" />
		<tag k="ssr:stedsnr" v="210673" />
	</node>
	<node lat="61.8333083335549" lon="8.647380558013838" id="-23014">
		<tag k="historic" v="shieling" />
		<tag k="name" v="Kjæstadsætre" />
		<tag k="place" v="isolated_dwelling" />
		<tag k="ssr:stedsnr" v="210862" />
	</node>
	<node lat="61.68503055134194" lon="8.236227782845958" id="-23019">
		<tag k="name" v="Midtlie" />
		<tag k="place" v="farm" />
		<tag k="ssr:stedsnr" v="295744" />
	</node>
	<node lat="61.691250001856034" lon="8.170050001850345" id="-23021">
		<tag k="name" v="Presthytta" />
		<tag k="place" v="isolated_dwelling" />
		<tag k="ssr:stedsnr" v="295765" />
	</node>
	<node lat="61.80831389148333" lon="8.45315277418064" id="-23022">
		<tag k="name" v="Vålvål" />
		<tag k="place" v="locality" />
		<tag k="ssr:stedsnr" v="296019" />
	</node>
	<node lat="61.86736944041825" lon="8.52155000787716" id="-23023">
		<tag k="name" v="Storåe" />
		<tag k="place" v="isolated_dwelling" />
		<tag k="ssr:stedsnr" v="296117" />
	</node>
	<node lat="61.71449722247405" lon="8.309086106483987" id="-23027">
		<tag k="building" v="industrial" />
		<tag k="name" v="Bøvra Sag" />
		<tag k="ssr:stedsnr" v="296315" />
	</node>
	<node lat="61.71548055431482" lon="8.315058335794754" id="-23028">
		<tag k="name" v="Søre Slålien" />
		<tag k="place" v="farm" />
		<tag k="ssr:stedsnr" v="296319" />
	</node>
	<node lat="61.91611389042097" lon="8.646272227976716" id="-23029">
		<tag k="historic" v="shieling" />
		<tag k="name" v="Nordre Bakken sætre" />
		<tag k="place" v="isolated_dwelling" />
		<tag k="ssr:stedsnr" v="296493" />
	</node>
	<node lat="61.91679722373684" lon="8.64633611603195" id="-23030">
		<tag k="historic" v="shieling" />
		<tag k="name" v="Øvre Bakken sætre" />
		<tag k="place" v="isolated_dwelling" />
		<tag k="ssr:stedsnr" v="296494" />
	</node>
	<node lat="61.65903055753832" lon="8.184488885637762" id="-23034">
		<tag k="historic" v="shieling" />
		<tag k="name" v="Uppistugun Synstnessætre" />
		<tag k="place" v="isolated_dwelling" />
		<tag k="ssr:stedsnr" v="297701" />
	</node>
	<node lat="61.85545103507123" lon="8.647863877792386" id="-23037">
		<tag k="fixme" v="consider place=hamlet" />
		<tag k="name" v="Rostad" />
		<tag k="place" v="farm" />
		<tag k="ssr:stedsnr" v="313091" />
	</node>
	<node lat="61.68794978042171" lon="8.262352474286736" id="-23041">
		<tag k="fixme" v="consider place=hamlet" />
		<tag k="name" v="Leirdalen" />
		<tag k="place" v="farm" />
		<tag k="ssr:stedsnr" v="313224" />
	</node>
	<node lat="61.815129893608336" lon="8.480534406768637" id="-23045">
		<tag k="fixme" v="consider place=hamlet" />
		<tag k="name" v="Bø" />
		<tag k="place" v="farm" />
		<tag k="ssr:stedsnr" v="313234" />
	</node>
	<node lat="61.707058333672485" lon="8.444441670069702" id="-23048">
		<tag k="name" v="Langstulen" />
		<tag k="place" v="isolated_dwelling" />
		<tag k="ssr:stedsnr" v="313244" />
	</node>
	<node lat="61.85256944208355" lon="8.71643055559612" id="-23050">
		<tag k="name" v="Granrud" />
		<tag k="place" v="farm" />
		<tag k="ssr:stedsnr" v="313040" />
	</node>
	<node lat="61.85733398310759" lon="8.688860299585324" id="-23052">
		<tag k="name" v="Rådsbakken" />
		<tag k="place" v="locality" />
		<tag k="ssr:stedsnr" v="313042" />
	</node>
	<node lat="61.846636114978146" lon="8.818569452098753" id="-23053">
		<tag k="alt_name" v="Fyrun" />
		<tag k="name" v="Fyru" />
		<tag k="place" v="farm" />
		<tag k="ssr:stedsnr" v="313048" />
	</node>
	<node lat="61.84764999769794" lon="8.775894449254631" id="-23054">
		<tag k="alt_name" v="Nordre Ekle;Ekle, nordre" />
		<tag k="name" v="Nørdre Ekle" />
		<tag k="place" v="farm" />
		<tag k="ssr:stedsnr" v="313054" />
	</node>
	<node lat="61.871852777617875" lon="8.77505833263044" id="-23058">
		<tag k="fixme" v="consider place=hamlet" />
		<tag k="name" v="Randen" />
		<tag k="place" v="farm" />
		<tag k="ssr:stedsnr" v="313125" />
	</node>
	<node lat="61.70653333575743" lon="8.2451500044036" id="-23062">
		<tag k="historic" v="shieling" />
		<tag k="name" v="Vålvålsætre" />
		<tag k="place" v="isolated_dwelling" />
		<tag k="ssr:stedsnr" v="313151" />
	</node>
	<node lat="61.82297777542429" lon="8.525116674198863" id="-23084">
		<tag k="name" v="Nordgard Marstein" />
		<tag k="place" v="farm" />
		<tag k="ssr:stedsnr" v="329146" />
	</node>
	<node lat="61.85609166474139" lon="8.804325004805635" id="-23088">
		<tag k="name" v="Nørdre Odde" />
		<tag k="place" v="farm" />
		<tag k="ssr:stedsnr" v="332274" />
	</node>
	<node lat="61.846666664946675" lon="8.828483331859521" id="-23091">
		<tag k="name" v="Kvila" />
		<tag k="ssr:stedsnr" v="332521" />
		<tag k="tourism" v="guest_house" />
	</node>
	<node lat="61.8491166693245" lon="8.744405553268397" id="-23093">
		<tag k="name" v="Lyngheim" />
		<tag k="place" v="farm" />
		<tag k="ssr:stedsnr" v="332734" />
	</node>
	<node lat="61.853308330578365" lon="8.718908330660888" id="-23094">
		<tag k="name" v="Teigen" />
		<tag k="place" v="farm" />
		<tag k="ssr:stedsnr" v="332771" />
	</node>
	<node lat="61.81230555818698" lon="8.468580560174576" id="-23104">
		<tag k="name" v="Sygard Kvamme" />
		<tag k="place" v="farm" />
		<tag k="ssr:stedsnr" v="357028" />
	</node>
	<node lat="61.716130559450185" lon="8.308211106425514" id="-23106">
		<tag k="name" v="Nordre Slålien" />
		<tag k="place" v="farm" />
		<tag k="ssr:stedsnr" v="357334" />
	</node>
	<node lat="61.662238892753344" lon="8.019925003282838" id="-23108">
		<tag k="historic" v="shieling" />
		<tag k="name" v="Åkerjordsætre" />
		<tag k="place" v="isolated_dwelling" />
		<tag k="ssr:stedsnr" v="357681" />
	</node>
	<node lat="61.917169445342545" lon="8.662080548147083" id="-23112">
		<tag k="historic" v="shieling" />
		<tag k="name" v="Kjekasætre" />
		<tag k="place" v="isolated_dwelling" />
		<tag k="ssr:stedsnr" v="357490" />
	</node>
	<node lat="61.91233888606513" lon="8.650161102306432" id="-23113">
		<tag k="historic" v="shieling" />
		<tag k="name" v="Øygardsætre" />
		<tag k="place" v="isolated_dwelling" />
		<tag k="ssr:stedsnr" v="357576" />
	</node>
	<node lat="61.66307412077193" lon="8.039139235571094" id="-23114">
		<tag k="historic" v="shieling" />
		<tag k="loc_name" v="Høydalen;Høydalssætren" />
		<tag k="name" v="Høydalssæteren" />
		<tag k="place" v="isolated_dwelling" />
		<tag k="ssr:stedsnr" v="357680" />
	</node>
	<node lat="61.71396110910532" lon="8.214530562049713" id="-23119">
		<tag k="historic" v="shieling" />
		<tag k="name" v="Stusnessætre" />
		<tag k="place" v="isolated_dwelling" />
		<tag k="ssr:stedsnr" v="357538" />
	</node>
	<node lat="61.85843333769053" lon="8.69968334022126" id="-23120">
		<tag k="name" v="Nedre Kollen" />
		<tag k="place" v="farm" />
		<tag k="ssr:stedsnr" v="357921" />
	</node>
	<node lat="61.64858611563609" lon="8.105125008900625" id="-23122">
		<tag k="historic" v="shieling" />
		<tag k="name" v="Kvålssætre" />
		<tag k="place" v="isolated_dwelling" />
		<tag k="ssr:stedsnr" v="357686" />
	</node>
	<node lat="61.85288055531907" lon="8.518791663004178" id="-23127">
		<tag k="name" v="Bakkejordet" />
		<tag k="place" v="farm" />
		<tag k="ssr:stedsnr" v="373074" />
	</node>
	<node lat="61.812577686444314" lon="8.473547401477957" id="-23128">
		<tag k="fixme" v="consider place=hamlet" />
		<tag k="name" v="Krøkje" />
		<tag k="place" v="farm" />
		<tag k="ssr:stedsnr" v="373224" />
	</node>
	<node lat="61.71184524949961" lon="8.230988253365311" id="-23132">
		<tag k="alt_name" v="Kveinndalen" />
		<tag k="historic" v="shieling" />
		<tag k="name" v="Kvanndalen" />
		<tag k="place" v="isolated_dwelling" />
		<tag k="ssr:stedsnr" v="373125" />
	</node>
	<node lat="61.720473559484866" lon="8.242692405285226" id="-23133">
		<tag k="alt_name" v="Kvandalsvoll" />
		<tag k="fixme" v="consider place=hamlet" />
		<tag k="name" v="Kvanndalsvollan" />
		<tag k="place" v="farm" />
		<tag k="ssr:stedsnr" v="373132" />
	</node>
	<node lat="61.663777495245405" lon="8.150494466306617" id="-23136">
		<tag k="historic" v="shieling" />
		<tag k="name" v="Aukrustsætre" />
		<tag k="place" v="isolated_dwelling" />
		<tag k="ssr:stedsnr" v="373191" />
	</node>
	<node lat="61.82585277793737" lon="8.52892500857705" id="-23137">
		<tag k="alt_name" v="Marsteinsvee" />
		<tag k="name" v="Svei" />
		<tag k="place" v="farm" />
		<tag k="ssr:stedsnr" v="374033" />
	</node>
	<node lat="61.86736666964428" lon="8.516913885064435" id="-23138">
		<tag k="name" v="Bergon" />
		<tag k="place" v="farm" />
		<tag k="ssr:stedsnr" v="374128" />
	</node>
	<node lat="61.86917658490956" lon="8.670589955442825" id="-23139">
		<tag k="fixme" v="consider place=hamlet" />
		<tag k="name" v="Øverli" />
		<tag k="place" v="farm" />
		<tag k="ssr:stedsnr" v="374132" />
	</node>
	<node lat="61.72816629662249" lon="8.358711617775064" id="-23147">
		<tag k="fixme" v="consider place=hamlet" />
		<tag k="name" v="Mundgjel" />
		<tag k="place" v="farm" />
		<tag k="ssr:stedsnr" v="374180" />
	</node>
	<node lat="61.728921327798126" lon="8.371570520631353" id="-23148">
		<tag k="fixme" v="consider place=hamlet" />
		<tag k="name" v="Mundgjelsøygarden" />
		<tag k="place" v="farm" />
		<tag k="ssr:stedsnr" v="374183" />
	</node>
	<node lat="61.685869445691615" lon="8.152216658779624" id="-23151">
		<tag k="historic" v="shieling" />
		<tag k="name" v="Aukrustsætre" />
		<tag k="place" v="isolated_dwelling" />
		<tag k="ssr:stedsnr" v="374252" />
	</node>
	<node lat="61.705250000583554" lon="8.727300005244954" id="-23154">
		<tag k="name" v="Sætrin" />
		<tag k="place" v="locality" />
		<tag k="ssr:stedsnr" v="374074" />
	</node>
	<node lat="61.861151094324846" lon="8.534706399241013" id="-23155">
		<tag k="name" v="Staurustberget" />
		<tag k="place" v="locality" />
		<tag k="ssr:stedsnr" v="374082" />
	</node>
	<node lat="61.929763887476554" lon="8.775741673711153" id="-23164">
		<tag k="alt_name" v="Sterringje" />
		<tag k="name" v="Sterringi" />
		<tag k="place" v="hamlet" />
		<tag k="ssr:stedsnr" v="374897" />
	</node>
	<node lat="61.853580559725415" lon="8.722083340387314" id="-23168">
		<tag k="alt_name" v="Ulmo" />
		<tag k="name" v="Urdmo" />
		<tag k="place" v="farm" />
		<tag k="ssr:stedsnr" v="495051" />
	</node>
	<node lat="61.664774995601086" lon="8.121175005213919" id="-23172">
		<tag k="name" v="Bergehytta" />
		<tag k="place" v="isolated_dwelling" />
		<tag k="ssr:stedsnr" v="495221" />
	</node>
	<node lat="61.81759483584022" lon="8.495951319845933" id="-23173">
		<tag k="alt_name" v="Aukrust" />
		<tag k="name" v="Nordgard Aukrust" />
		<tag k="place" v="farm" />
		<tag k="ssr:stedsnr" v="495229" />
	</node>
	<node lat="61.82218610911169" lon="8.590497229701347" id="-23175">
		<tag k="historic" v="shieling" />
		<tag k="name" v="Stymme" />
		<tag k="place" v="isolated_dwelling" />
		<tag k="ssr:stedsnr" v="495237" />
	</node>
	<node lat="61.82405277921905" lon="8.624949999108695" id="-23176">
		<tag k="alt_name" v="Soleggen Fjellstugu" />
		<tag k="name" v="Soleggen" />
		<tag k="ssr:stedsnr" v="495238" />
		<tag k="tourism" v="hotel" />
	</node>
	<node lat="61.69718333766977" lon="8.451405548903764" id="-23177">
		<tag k="historic" v="shieling" />
		<tag k="name" v="Smiugjelsøygarden" />
		<tag k="place" v="isolated_dwelling" />
		<tag k="ssr:stedsnr" v="495239" />
	</node>
	<node lat="61.86240277893199" lon="8.672552779132033" id="-23179">
		<tag k="name" v="Sveinhaugen" />
		<tag k="place" v="farm" />
		<tag k="ssr:stedsnr" v="495086" />
	</node>
	<node lat="61.67567778173627" lon="8.73496667044193" id="-23180">
		<tag k="name" v="Grønbue" />
		<tag k="place" v="isolated_dwelling" />
		<tag k="ssr:stedsnr" v="495093" />
	</node>
	<node lat="61.86995833388867" lon="8.664394439468417" id="-23182">
		<tag k="alt_name" v="Haugen, nedre" />
		<tag k="name" v="Nedre Haugen" />
		<tag k="place" v="farm" />
		<tag k="ssr:stedsnr" v="495097" />
	</node>
	<node lat="61.8524805523515" lon="8.644294441075733" id="-23184">
		<tag k="alt_name" v="Skånsar, øvre" />
		<tag k="name" v="Øvre Skånsar" />
		<tag k="place" v="farm" />
		<tag k="ssr:stedsnr" v="495105" />
	</node>
	<node lat="61.84834167083229" lon="8.610180553347725" id="-23197">
		<tag k="name" v="Øvergrende" />
		<tag k="place" v="hamlet" />
		<tag k="ssr:stedsnr" v="392054" />
	</node>
	<node lat="61.84183611182707" lon="8.586752781824726" id="-23198">
		<tag k="building" v="industrial" />
		<tag k="industrial" v="factory" />
		<tag k="name" v="Giax" />
		<tag k="ssr:stedsnr" v="392138" />
	</node>
	<node lat="61.848777779294885" lon="8.610916675817382" id="-23199">
		<tag k="name" v="Haugomkvee" />
		<tag k="place" v="farm" />
		<tag k="ssr:stedsnr" v="392144" />
	</node>
	<node lat="61.85415269262289" lon="8.849623105686677" id="-23201">
		<tag k="fixme" v="consider place=hamlet" />
		<tag k="name" v="Veslodden" />
		<tag k="place" v="farm" />
		<tag k="ssr:stedsnr" v="392577" />
	</node>
	<node lat="61.85142221978548" lon="8.727075002072906" id="-23204">
		<tag k="name" v="Molykkja" />
		<tag k="place" v="farm" />
		<tag k="ssr:stedsnr" v="393745" />
	</node>
	<node lat="61.81218055315962" lon="8.471350007276476" id="-23213">
		<tag k="name" v="Nerkrøkje" />
		<tag k="place" v="farm" />
		<tag k="ssr:stedsnr" v="418031" />
	</node>
	<node lat="61.81148333325306" lon="8.48108056460769" id="-23214">
		<tag k="name" v="Sygard Krøkje" />
		<tag k="place" v="farm" />
		<tag k="ssr:stedsnr" v="418033" />
	</node>
	<node lat="61.7469916646418" lon="8.417552774326477" id="-23223">
		<tag k="name" v="Lunna" />
		<tag k="place" v="farm" />
		<tag k="ssr:stedsnr" v="418433" />
	</node>
	<node lat="61.65556944181557" lon="8.181888886320147" id="-23229">
		<tag k="historic" v="shieling" />
		<tag k="name" v="Ekressætre" />
		<tag k="place" v="isolated_dwelling" />
		<tag k="ssr:stedsnr" v="418674" />
	</node>
	<node lat="61.45158055570249" lon="8.487825003484295" id="-23233">
		<tag k="fixme" v="consider tourism=alpine_hut or tourism=chalet" />
		<tag k="name" v="Gjendebu" />
		<tag k="ssr:stedsnr" v="433760" />
		<tag k="tourism" v="wilderness_hut" />
	</node>
	<node lat="61.6995638898251" lon="8.236416673892203" id="-23239">
		<tag k="historic" v="shieling" />
		<tag k="name" v="Skamsdalssætre" />
		<tag k="place" v="isolated_dwelling" />
		<tag k="ssr:stedsnr" v="435159" />
	</node>
	<node lat="61.82464999847512" lon="8.521580561451936" id="-23244">
		<tag k="alt_name" v="Marstein, øvre;Marstein" />
		<tag k="name" v="Øvre Marstein" />
		<tag k="place" v="farm" />
		<tag k="ssr:stedsnr" v="435257" />
	</node>
	<node lat="61.68096111379222" lon="8.14386944063245" id="-23245">
		<tag k="historic" v="shieling" />
		<tag k="name" v="Borgasætre" />
		<tag k="place" v="isolated_dwelling" />
		<tag k="ssr:stedsnr" v="435260" />
	</node>
	<node lat="61.86634977297907" lon="8.680395271804842" id="-23254">
		<tag k="fixme" v="consider place=hamlet" />
		<tag k="name" v="Sjurgard" />
		<tag k="place" v="farm" />
		<tag k="ssr:stedsnr" v="435094" />
	</node>
	<node lat="61.71980927565081" lon="8.262231688104405" id="-23257">
		<tag k="fixme" v="consider place=hamlet" />
		<tag k="name" v="Skamsdalen" />
		<tag k="place" v="farm" />
		<tag k="ssr:stedsnr" v="435186" />
	</node>
	<node lat="61.83363610682817" lon="8.562019443383214" id="-23260">
		<tag k="name" v="Steine" />
		<tag k="place" v="farm" />
		<tag k="ssr:stedsnr" v="435033" />
	</node>
	<node lat="61.824925003957354" lon="8.5236055506462" id="-23261">
		<tag k="alt_name" v="Trædet" />
		<tag k="name" v="Marsteintrædet" />
		<tag k="place" v="farm" />
		<tag k="ssr:stedsnr" v="435036" />
	</node>
	<node lat="61.85553610678995" lon="8.838866668693948" id="-23263">
		<tag k="alt_name" v="Urdi" />
		<tag k="name" v="Ule" />
		<tag k="place" v="farm" />
		<tag k="ssr:stedsnr" v="435058" />
	</node>
	<node lat="61.91255277517773" lon="8.646752778143423" id="-23269">
		<tag k="alt_name" v="Norstulen" />
		<tag k="historic" v="shieling" />
		<tag k="name" v="Nordstulen" />
		<tag k="place" v="isolated_dwelling" />
		<tag k="ssr:stedsnr" v="435939" />
	</node>
	<node lat="61.75411944627848" lon="8.938483339291874" id="-23276">
		<tag k="alt_name" v="Nåvårsæter;Nåvårsætren" />
		<tag k="historic" v="shieling" />
		<tag k="name" v="Nåvårsætrin" />
		<tag k="place" v="isolated_dwelling" />
		<tag k="ssr:stedsnr" v="435451" />
	</node>
	<node lat="61.93110833149408" lon="8.792627768336214" id="-23281">
		<tag k="historic" v="shieling" />
		<tag k="name" v="Selbu" />
		<tag k="place" v="isolated_dwelling" />
		<tag k="ssr:stedsnr" v="436873" />
	</node>
	<node lat="61.81978611525309" lon="8.49839999436735" id="-23303">
		<tag k="name" v="Sygard Aukrust" />
		<tag k="place" v="farm" />
		<tag k="ssr:stedsnr" v="511936" />
	</node>
	<node lat="61.81948333629773" lon="8.574219436796836" id="-23306">
		<tag k="name" v="Andbergsgammeløygarden" />
		<tag k="place" v="locality" />
		<tag k="ssr:stedsnr" v="513457" />
	</node>
	<node lat="61.837738885126306" lon="8.556183332227038" id="-23307">
		<tag k="amenity" v="nursing_home" />
		<tag k="name" v="Lom helseheim" />
		<tag k="ssr:stedsnr" v="513500" />
	</node>
	<node lat="61.849419242267885" lon="8.768803235703949" id="-23311">
		<tag k="fixme" v="consider place=hamlet" />
		<tag k="name" v="Flåteigen" />
		<tag k="place" v="farm" />
		<tag k="ssr:stedsnr" v="514647" />
	</node>
	<node lat="61.84988888740728" lon="8.726374993355916" id="-23313">
		<tag k="name" v="Stokke" />
		<tag k="place" v="farm" />
		<tag k="ssr:stedsnr" v="514763" />
	</node>
	<node lat="61.831166662745474" lon="8.64603610180191" id="-23314">
		<tag k="historic" v="shieling" />
		<tag k="name" v="Slettasætre" />
		<tag k="place" v="isolated_dwelling" />
		<tag k="ssr:stedsnr" v="514799" />
	</node>
	<node lat="61.85320277519034" lon="8.652372231695237" id="-23315">
		<tag k="name" v="Kjæstadplassen" />
		<tag k="place" v="locality" />
		<tag k="ssr:stedsnr" v="514750" />
	</node>
	<node lat="61.87044752662115" lon="8.505342624231847" id="-23317">
		<tag k="alt_name" v="Bakkjen" />
		<tag k="fixme" v="consider place=hamlet" />
		<tag k="name" v="Bakken" />
		<tag k="place" v="farm" />
		<tag k="ssr:stedsnr" v="536796" />
	</node>
	<node lat="61.68189444579184" lon="8.231538885844937" id="-23322">
		<tag k="name" v="Nordli" />
		<tag k="place" v="farm" />
		<tag k="ssr:stedsnr" v="538749" />
	</node>
	<node lat="61.8063111146935" lon="8.45400277085505" id="-23323">
		<tag k="name" v="Kvamsøygarden" />
		<tag k="place" v="isolated_dwelling" />
		<tag k="ssr:stedsnr" v="539026" />
	</node>
	<node lat="61.69976111501727" lon="8.280547214355249" id="-23330">
		<tag k="name" v="Vesleøygarden" />
		<tag k="place" v="isolated_dwelling" />
		<tag k="ssr:stedsnr" v="539308" />
	</node>
	<node lat="61.917736111804835" lon="8.652738891953721" id="-23331">
		<tag k="historic" v="shieling" />
		<tag k="name" v="Hågåsætre" />
		<tag k="place" v="isolated_dwelling" />
		<tag k="ssr:stedsnr" v="539492" />
	</node>
	<node lat="61.72949167013403" lon="8.424308334302403" id="-23332">
		<tag k="name" v="Lauvbakkjen" />
		<tag k="place" v="isolated_dwelling" />
		<tag k="ssr:stedsnr" v="539396" />
	</node>
	<node lat="61.86278333518668" lon="8.679224998758029" id="-23338">
		<tag k="amenity" v="school" />
		<tag k="name" v="Liaskulen" />
		<tag k="ssr:stedsnr" v="539788" />
	</node>
	<node lat="61.81083667858154" lon="8.488858471468426" id="-23348">
		<tag k="fixme" v="consider place=hamlet" />
		<tag k="name" v="Vågåsarøygarden" />
		<tag k="place" v="farm" />
		<tag k="ssr:stedsnr" v="555196" />
	</node>
	<node lat="61.814191670231345" lon="8.51572499110316" id="-23349">
		<tag k="alt_name" v="Nørjordet, øvre" />
		<tag k="name" v="Øvre Nørjordet" />
		<tag k="place" v="farm" />
		<tag k="ssr:stedsnr" v="555201" />
	</node>
	<node lat="61.64831666888186" lon="8.105238881429152" id="-23351">
		<tag k="name" v="Hansbue" />
		<tag k="place" v="isolated_dwelling" />
		<tag k="ssr:stedsnr" v="555150" />
	</node>
	<node lat="61.840621409224205" lon="8.587640882863207" id="-23352">
		<tag k="fixme" v="consider place=hamlet" />
		<tag k="name" v="Helstad" />
		<tag k="place" v="farm" />
		<tag k="ssr:stedsnr" v="556010" />
	</node>
	<node lat="61.624461107611744" lon="8.404772214559268" id="-23356">
		<tag k="fixme" v="consider tourism=alpine_hut or tourism=chalet" />
		<tag k="name" v="Spiterstulen" />
		<tag k="ssr:stedsnr" v="556036" />
		<tag k="tourism" v="wilderness_hut" />
	</node>
	<node lat="61.87184722617917" lon="8.820349990790323" id="-23360">
		<tag k="alt_name" v="Grønsætren" />
		<tag k="historic" v="shieling" />
		<tag k="name" v="Grønsætri" />
		<tag k="place" v="isolated_dwelling" />
		<tag k="ssr:stedsnr" v="556130" />
	</node>
	<node lat="61.87631551492541" lon="8.703644050194525" id="-23361">
		<tag k="fixme" v="consider place=hamlet" />
		<tag k="name" v="Brenna" />
		<tag k="place" v="farm" />
		<tag k="ssr:stedsnr" v="556141" />
	</node>
	<node lat="61.87559722095433" lon="8.704852770595373" id="-23362">
		<tag k="fixme" v="consider place=hamlet" />
		<tag k="name" v="Flatmogrendi" />
		<tag k="place" v="village" />
		<tag k="ssr:stedsnr" v="556143" />
	</node>
	<node lat="61.86480555735515" lon="8.670219441897517" id="-23370">
		<tag k="name" v="Rust" />
		<tag k="place" v="farm" />
		<tag k="ssr:stedsnr" v="556080" />
	</node>
	<node lat="61.82202740171481" lon="8.504076380257649" id="-23374">
		<tag k="alt_name" v="Kvåle, øvre" />
		<tag k="fixme" v="consider place=hamlet" />
		<tag k="name" v="Kvåle" />
		<tag k="place" v="farm" />
		<tag k="ssr:stedsnr" v="556253" />
	</node>
	<node lat="61.82026761364929" lon="8.533951168510487" id="-23377">
		<tag k="fixme" v="consider place=hamlet" />
		<tag k="name" v="Juland" />
		<tag k="place" v="farm" />
		<tag k="ssr:stedsnr" v="556265" />
	</node>
	<node lat="61.81669999643872" lon="8.518922223867513" id="-23378">
		<tag k="name" v="Ofigsbø" />
		<tag k="place" v="farm" />
		<tag k="ssr:stedsnr" v="556267" />
	</node>
	<node lat="61.68776666878766" lon="8.1534305639571" id="-23380">
		<tag k="historic" v="shieling" />
		<tag k="name" v="Prestsætre" />
		<tag k="place" v="isolated_dwelling" />
		<tag k="ssr:stedsnr" v="556291" />
	</node>
	<node lat="61.85513611002836" lon="8.871399994487556" id="-23382">
		<tag k="alt_name" v="Konglehaugen" />
		<tag k="name" v="Haugen" />
		<tag k="place" v="farm" />
		<tag k="ssr:stedsnr" v="556362" />
	</node>
	<node lat="61.971191594123624" lon="8.566450554346572" id="-23385">
		<tag k="name" v="Rygghøbui" />
		<tag k="place" v="locality" />
		<tag k="ssr:stedsnr" v="556891" />
	</node>
	<node lat="61.78314074184495" lon="8.440995075494437" id="-23390">
		<tag k="alt_name" v="Brekkøyi" />
		<tag k="fixme" v="consider place=hamlet" />
		<tag k="name" v="Brekkøye" />
		<tag k="place" v="farm" />
		<tag k="ssr:stedsnr" v="556990" />
	</node>
	<node lat="61.834169444989136" lon="8.561402773555134" id="-23394">
		<tag k="name" v="Sør-Øy" />
		<tag k="place" v="isolated_dwelling" />
		<tag k="ssr:stedsnr" v="572178" />
	</node>
	<node lat="61.845388888914044" lon="8.609297229138342" id="-23398">
		<tag k="name" v="Mork" />
		<tag k="place" v="farm" />
		<tag k="ssr:stedsnr" v="574043" />
	</node>
	<node lat="61.840232106281704" lon="8.575205429215979" id="-23402">
		<tag k="name" v="Gjeisarhaugen" />
		<tag k="place" v="quarter" />
		<tag k="ssr:stedsnr" v="574488" />
	</node>
	<node lat="61.84651111319437" lon="8.829297225443957" id="-23403">
		<tag k="name" v="Utsikten" />
		<tag k="place" v="isolated_dwelling" />
		<tag k="ssr:stedsnr" v="574578" />
	</node>
	<node lat="61.850772223772665" lon="8.801155563652697" id="-23405">
		<tag k="name" v="Nørdre Nedre Frisvoll" />
		<tag k="place" v="farm" />
		<tag k="ssr:stedsnr" v="574683" />
	</node>
	<node lat="61.68469068513634" lon="8.233270886835953" id="-23413">
		<tag k="alt_name" v="Storlie nedre" />
		<tag k="fixme" v="consider place=hamlet" />
		<tag k="name" v="Nedre Storlie" />
		<tag k="place" v="farm" />
		<tag k="ssr:stedsnr" v="598713" />
	</node>
	<node lat="61.685994445270666" lon="8.247858325141392" id="-23414">
		<tag k="name" v="Vesllihaugen" />
		<tag k="place" v="farm" />
		<tag k="ssr:stedsnr" v="598718" />
	</node>
	<node lat="61.71157777911046" lon="8.439280546116054" id="-23419">
		<tag k="building" v="industrial" />
		<tag k="name" v="Visdalssagje" />
		<tag k="ssr:stedsnr" v="599426" />
	</node>
	<node lat="61.861686115567075" lon="8.826094437596595" id="-23422">
		<tag k="name" v="Nørdre Veslsætre" />
		<tag k="place" v="farm" />
		<tag k="ssr:stedsnr" v="599286" />
	</node>
	<node lat="61.93926388580202" lon="8.870747231197944" id="-23423">
		<tag k="historic" v="shieling" />
		<tag k="name" v="Gupphågåsætre" />
		<tag k="place" v="isolated_dwelling" />
		<tag k="ssr:stedsnr" v="599735" />
	</node>
	<node lat="61.84777689359047" lon="8.536089965603008" id="-23425">
		<tag k="fixme" v="consider place=hamlet" />
		<tag k="name" v="Vike" />
		<tag k="place" v="farm" />
		<tag k="ssr:stedsnr" v="616030" />
	</node>
	<node lat="61.68887778208028" lon="8.834644444150895" id="-23429">
		<tag k="name" v="Heranosbue" />
		<tag k="place" v="isolated_dwelling" />
		<tag k="ssr:stedsnr" v="616063" />
	</node>
	<node lat="61.859863889043936" lon="8.497124991329862" id="-23430">
		<tag k="name" v="Bjørke" />
		<tag k="place" v="farm" />
		<tag k="ssr:stedsnr" v="616082" />
	</node>
	<node lat="61.659472222517834" lon="8.145175008313984" id="-23436">
		<tag k="name" v="Jotunheimen Fjellstue" />
		<tag k="ssr:stedsnr" v="616178" />
		<tag k="tourism" v="hotel" />
	</node>
	<node lat="61.809083337442196" lon="8.471113891131719" id="-23449">
		<tag k="name" v="Løkøye" />
		<tag k="place" v="farm" />
		<tag k="ssr:stedsnr" v="616220" />
	</node>
	<node lat="61.690783336304484" lon="8.26944722047144" id="-23451">
		<tag k="name" v="Juvstulen" />
		<tag k="place" v="farm" />
		<tag k="ssr:stedsnr" v="616222" />
	</node>
	<node lat="61.629249997812394" lon="8.046575009143849" id="-23456">
		<tag k="historic" v="shieling" />
		<tag k="name" v="Dumstulen" />
		<tag k="place" v="isolated_dwelling" />
		<tag k="ssr:stedsnr" v="616428" />
	</node>
	<node lat="61.8466388921821" lon="8.856169442518068" id="-23457">
		<tag k="alt_name" v="Søre Byre" />
		<tag k="name" v="Byre" />
		<tag k="place" v="farm" />
		<tag k="ssr:stedsnr" v="616265" />
	</node>
	<node lat="61.871563866274094" lon="8.777014748627954" id="-23473">
		<tag k="alt_name" v="Botn;Nørdre Botten" />
		<tag k="name" v="Nørdre Botn" />
		<tag k="place" v="farm" />
		<tag k="ssr:stedsnr" v="617144" />
	</node>
	<node lat="61.87425760370963" lon="8.74567490944436" id="-23474">
		<tag k="fixme" v="consider place=hamlet" />
		<tag k="name" v="Vamsæter" />
		<tag k="place" v="farm" />
		<tag k="ssr:stedsnr" v="617153" />
	</node>
	<node lat="61.67527500270814" lon="8.43912222851801" id="-23478">
		<tag k="name" v="Bleikstulen" />
		<tag k="place" v="isolated_dwelling" />
		<tag k="ssr:stedsnr" v="617243" />
	</node>
	<node lat="61.82422500117161" lon="8.531686118327569" id="-23479">
		<tag k="alt_name" v="Søre Marstein;Marstein, s" />
		<tag k="name" v="Sygard Marstein" />
		<tag k="place" v="farm" />
		<tag k="ssr:stedsnr" v="617254" />
	</node>
	<node lat="61.81796354825778" lon="8.527036198430435" id="-23480">
		<tag k="alt_name" v="Strindi" />
		<tag k="fixme" v="consider place=hamlet" />
		<tag k="name" v="Strinde" />
		<tag k="place" v="farm" />
		<tag k="ssr:stedsnr" v="617256" />
	</node>
	<node lat="61.75512747218629" lon="8.391270853483771" id="-23487">
		<tag k="alt_name" v="Nørdre Gaupar" />
		<tag k="name" v="Gaupar" />
		<tag k="place" v="farm" />
		<tag k="ssr:stedsnr" v="617970" />
	</node>
	<node lat="61.75195277759963" lon="8.42755276925581" id="-23488">
		<tag k="alt_name" v="Bakkesætre" />
		<tag k="historic" v="shieling" />
		<tag k="name" v="Bakkesætri" />
		<tag k="place" v="isolated_dwelling" />
		<tag k="ssr:stedsnr" v="617974" />
	</node>
	<node lat="61.82099722640267" lon="8.512716670448851" id="-23489">
		<tag k="name" v="Klepp" />
		<tag k="place" v="isolated_dwelling" />
		<tag k="ssr:stedsnr" v="632166" />
	</node>
	<node lat="61.81611666444452" lon="8.492933338507319" id="-23492">
		<tag k="name" v="Nørdre Aukrust" />
		<tag k="place" v="farm" />
		<tag k="ssr:stedsnr" v="632935" />
	</node>
	<node lat="61.84819167034872" lon="8.534627777044816" id="-23493">
		<tag k="name" v="Vike" />
		<tag k="place" v="farm" />
		<tag k="ssr:stedsnr" v="634465" />
	</node>
	<node lat="61.84145555243683" lon="8.562713892084851" id="-23494">
		<tag k="leisure" v="pitch" />
		<tag k="name" v="Grov" />
		<tag k="ssr:stedsnr" v="634469" />
	</node>
	<node lat="61.84064754995024" lon="8.563056318090682" id="-23495">
		<tag k="alt_name" v="Lom vidaregåande skule" />
		<tag k="amenity" v="school" />
		<tag k="name" v="Nord-Gudbrandsdal vidaregåande skule" />
		<tag k="ssr:stedsnr" v="634517" />
	</node>
	<node lat="61.84678711851023" lon="8.85048945759958" id="-23496">
		<tag k="fixme" v="consider place=hamlet" />
		<tag k="name" v="Byre" />
		<tag k="place" v="farm" />
		<tag k="ssr:stedsnr" v="635534" />
	</node>
	<node lat="61.76565833286433" lon="8.404047216569172" id="-23507">
		<tag k="name" v="Uppigard Sulheim" />
		<tag k="place" v="farm" />
		<tag k="ssr:stedsnr" v="660422" />
	</node>
	<node lat="61.813488893065646" lon="8.474333342618014" id="-23510">
		<tag k="name" v="Nordgard Krøkje" />
		<tag k="place" v="farm" />
		<tag k="ssr:stedsnr" v="660027" />
	</node>
	<node lat="61.87156666717979" lon="8.820041676144463" id="-23512">
		<tag k="historic" v="shieling" />
		<tag k="name" v="Nyrnessætre" />
		<tag k="place" v="isolated_dwelling" />
		<tag k="ssr:stedsnr" v="660256" />
	</node>
	<node lat="61.9127055574229" lon="8.646797220915813" id="-23517">
		<tag k="historic" v="shieling" />
		<tag k="name" v="Bakken uppi-sætre" />
		<tag k="place" v="isolated_dwelling" />
		<tag k="ssr:stedsnr" v="660535" />
	</node>
	<node lat="61.71319722413549" lon="8.311886116568036" id="-23519">
		<tag k="amenity" v="school" />
		<tag k="name" v="Odda skule" />
		<tag k="ssr:stedsnr" v="660364" />
	</node>
	<node lat="61.716752598682625" lon="8.31240321666403" id="-23520">
		<tag k="fixme" v="consider place=hamlet" />
		<tag k="name" v="Slålien" />
		<tag k="place" v="farm" />
		<tag k="ssr:stedsnr" v="660369" />
	</node>
	<node lat="61.940047222289216" lon="8.867519441863124" id="-23521">
		<tag k="historic" v="shieling" />
		<tag k="name" v="Kolstad sætre" />
		<tag k="place" v="isolated_dwelling" />
		<tag k="ssr:stedsnr" v="660723" />
	</node>
	<node lat="61.701180552950156" lon="8.234180560640683" id="-23528">
		<tag k="historic" v="shieling" />
		<tag k="name" v="Leiråsen" />
		<tag k="place" v="isolated_dwelling" />
		<tag k="ssr:stedsnr" v="720764" />
	</node>
	<node lat="61.7014527770951" lon="8.237544445932922" id="-23529">
		<tag k="historic" v="shieling" />
		<tag k="name" v="Lundsætre" />
		<tag k="place" v="isolated_dwelling" />
		<tag k="ssr:stedsnr" v="720776" />
	</node>
	<node lat="61.71610000353664" lon="8.31987778707212" id="-23531">
		<tag k="name" v="Kristenstugun" />
		<tag k="place" v="isolated_dwelling" />
		<tag k="ssr:stedsnr" v="721295" />
	</node>
	<node lat="61.75304444657848" lon="8.399063894914088" id="-23532">
		<tag k="name" v="Søre Øyjordet" />
		<tag k="place" v="farm" />
		<tag k="ssr:stedsnr" v="721385" />
	</node>
	<node lat="61.71908055896255" lon="8.43320277520642" id="-23540">
		<tag k="name" v="Persøygarden" />
		<tag k="place" v="locality" />
		<tag k="ssr:stedsnr" v="721422" />
	</node>
	<node lat="61.71735832903169" lon="8.211486117070361" id="-23548">
		<tag k="historic" v="shieling" />
		<tag k="name" v="Soglosætre" />
		<tag k="place" v="isolated_dwelling" />
		<tag k="ssr:stedsnr" v="721549" />
	</node>
	<node lat="61.71583333171029" lon="8.219436116997066" id="-23549">
		<tag k="historic" v="shieling" />
		<tag k="name" v="Prestjordsætre" />
		<tag k="place" v="isolated_dwelling" />
		<tag k="ssr:stedsnr" v="721551" />
	</node>
	<node lat="61.84749692853723" lon="8.60409745416917" id="-23564">
		<tag k="fixme" v="consider place=hamlet" />
		<tag k="name" v="Haugom" />
		<tag k="place" v="farm" />
		<tag k="ssr:stedsnr" v="738034" />
	</node>
	<node lat="61.847905555726356" lon="8.618772224150977" id="-23565">
		<tag k="name" v="Randen" />
		<tag k="place" v="farm" />
		<tag k="ssr:stedsnr" v="738038" />
	</node>
	<node lat="61.85592499567193" lon="8.795816667773774" id="-23566">
		<tag k="name" v="Frisvollskogen" />
		<tag k="place" v="quarter" />
		<tag k="ssr:stedsnr" v="738044" />
	</node>
	<node lat="61.85648055336694" lon="8.832272225637485" id="-23569">
		<tag k="alt_name" v="Garmosøygarden" />
		<tag k="name" v="Øygarden" />
		<tag k="place" v="farm" />
		<tag k="ssr:stedsnr" v="738049" />
	</node>
	<node lat="61.85327777948704" lon="8.724322220775287" id="-23570">
		<tag k="name" v="Bjørkli" />
		<tag k="place" v="farm" />
		<tag k="ssr:stedsnr" v="738052" />
	</node>
	<node lat="61.84949444881062" lon="8.801822218223185" id="-23571">
		<tag k="alt_name" v="Frisvoll" />
		<tag k="name" v="Systugun Frisvoll" />
		<tag k="place" v="farm" />
		<tag k="ssr:stedsnr" v="738053" />
	</node>
	<node lat="61.84232777986876" lon="8.772997231362051" id="-23572">
		<tag k="alt_name" v="Uppheim" />
		<tag k="name" v="Oppheim" />
		<tag k="place" v="farm" />
		<tag k="ssr:stedsnr" v="738001" />
	</node>
	<node lat="61.86104544502212" lon="8.611471517997693" id="-23573">
		<tag k="fixme" v="consider place=hamlet" />
		<tag k="name" v="Grjotheim" />
		<tag k="place" v="farm" />
		<tag k="ssr:stedsnr" v="738088" />
	</node>
	<node lat="61.85389722361864" lon="8.629911103338234" id="-23575">
		<tag k="name" v="Frøysestugu" />
		<tag k="place" v="farm" />
		<tag k="ssr:stedsnr" v="738095" />
	</node>
	<node lat="61.81870594044838" lon="8.529857719918361" id="-23578">
		<tag k="fixme" v="consider place=hamlet" />
		<tag k="name" v="Husom" />
		<tag k="place" v="farm" />
		<tag k="ssr:stedsnr" v="738235" />
	</node>
	<node lat="61.68659444801878" lon="8.238250001528991" id="-23579">
		<tag k="name" v="Øverlie" />
		<tag k="place" v="locality" />
		<tag k="ssr:stedsnr" v="738236" />
	</node>
	<node lat="61.81132499945673" lon="8.472544437661728" id="-23581">
		<tag k="fixme" v="multiple name tags, choose one and add the other to alt_name" />
		<tag k="name" v="Vålvål;Krøkjehaugen" />
		<tag k="place" v="farm" />
		<tag k="ssr:stedsnr" v="738246" />
	</node>
	<node lat="61.87278611267916" lon="8.768952770095023" id="-23588">
		<tag k="alt_name" v="Sæterdalen" />
		<tag k="name" v="Søre Sæterdalen" />
		<tag k="place" v="farm" />
		<tag k="ssr:stedsnr" v="738124" />
	</node>
	<node lat="61.86048333114514" lon="8.49418332903086" id="-23590">
		<tag k="name" v="Nørstneshågån" />
		<tag k="place" v="farm" />
		<tag k="ssr:stedsnr" v="738132" />
	</node>
	<node lat="61.87303888802482" lon="8.697149995521011" id="-23591">
		<tag k="name" v="Moen" />
		<tag k="place" v="farm" />
		<tag k="ssr:stedsnr" v="738136" />
	</node>
	<node lat="61.705099997734976" lon="8.240969435825825" id="-23592">
		<tag k="historic" v="shieling" />
		<tag k="name" v="Leiråssætre" />
		<tag k="place" v="isolated_dwelling" />
		<tag k="ssr:stedsnr" v="738139" />
	</node>
	<node lat="61.74906794565656" lon="8.384942668520704" id="-23594">
		<tag k="fixme" v="consider place=hamlet" />
		<tag k="name" v="Røysheim" />
		<tag k="place" v="farm" />
		<tag k="ssr:stedsnr" v="738188" />
	</node>
	<node lat="61.74720277735365" lon="8.392266667122318" id="-23595">
		<tag k="alt_name" v="Hoftakroken" />
		<tag k="name" v="Kroken" />
		<tag k="place" v="farm" />
		<tag k="ssr:stedsnr" v="738191" />
	</node>
	<node lat="61.76548611250118" lon="8.420808337057927" id="-23614">
		<tag k="alt_name" v="Kleivslette" />
		<tag k="name" v="Kleivsletti" />
		<tag k="place" v="isolated_dwelling" />
		<tag k="ssr:stedsnr" v="738998" />
	</node>
	<node lat="61.74950833678003" lon="8.384505553690525" id="-23627">
		<tag k="alt_name" v="Røisheim" />
		<tag k="name" v="Røisheim Hotell AS" />
		<tag k="ssr:stedsnr" v="751491" />
		<tag k="tourism" v="hotel" />
	</node>
	<node lat="61.822219447515934" lon="8.518394452313391" id="-23629">
		<tag k="building" v="industrial" />
		<tag k="name" v="Husom landbruksverksted" />
		<tag k="ssr:stedsnr" v="754189" />
	</node>
	<node lat="61.84140077647687" lon="8.570380281756426" id="-23633">
		<tag k="name" v="Prestøye" />
		<tag k="place" v="quarter" />
		<tag k="ssr:stedsnr" v="756253" />
	</node>
	<node lat="61.84020277633634" lon="8.551733339987328" id="-23635">
		<tag k="name" v="Trondsonstugu" />
		<tag k="place" v="farm" />
		<tag k="ssr:stedsnr" v="756426" />
	</node>
	<node lat="61.84746932283391" lon="8.813528396087914" id="-23636">
		<tag k="fixme" v="consider place=hamlet" />
		<tag k="name" v="Garmostrædet" />
		<tag k="place" v="farm" />
		<tag k="ssr:stedsnr" v="756528" />
	</node>
	<node lat="61.84584722665547" lon="8.843397216583517" id="-23637">
		<tag k="name" v="Nørdre Byrkveen" />
		<tag k="place" v="farm" />
		<tag k="ssr:stedsnr" v="756538" />
	</node>
	<node lat="61.853608333106514" lon="8.803777771375284" id="-23639">
		<tag k="name" v="Kvehaugen" />
		<tag k="place" v="farm" />
		<tag k="ssr:stedsnr" v="756683" />
	</node>
	<node lat="61.87325833253129" lon="8.766752785572795" id="-23641">
		<tag k="name" v="Nørdre Sæterdalen" />
		<tag k="place" v="farm" />
		<tag k="ssr:stedsnr" v="757438" />
	</node>
	<node lat="61.858536108075675" lon="8.496077776399426" id="-23643">
		<tag k="name" v="Felup" />
		<tag k="place" v="farm" />
		<tag k="ssr:stedsnr" v="778788" />
	</node>
	<node lat="61.7203249970912" lon="8.3365305506814" id="-23644">
		<tag k="name" v="Nordgard Galde" />
		<tag k="place" v="farm" />
		<tag k="ssr:stedsnr" v="781329" />
	</node>
	<node lat="61.713641668173715" lon="8.338413886474486" id="-23649">
		<tag k="name" v="Juvstad" />
		<tag k="place" v="farm" />
		<tag k="ssr:stedsnr" v="781287" />
	</node>
	<node lat="61.716772225346446" lon="8.22232222649992" id="-23650">
		<tag k="historic" v="shieling" />
		<tag k="name" v="Maurstadsætre" />
		<tag k="place" v="isolated_dwelling" />
		<tag k="ssr:stedsnr" v="781576" />
	</node>
	<node lat="61.86765555624296" lon="8.814172216608599" id="-23661">
		<tag k="name" v="Jotvesløygarden" />
		<tag k="place" v="locality" />
		<tag k="ssr:stedsnr" v="782235" />
	</node>
	<node lat="61.777252773839386" lon="8.47614444615301" id="-23662">
		<tag k="historic" v="shieling" />
		<tag k="name" v="Gutubøsætre" />
		<tag k="place" v="isolated_dwelling" />
		<tag k="ssr:stedsnr" v="782084" />
	</node>
	<node lat="61.749766665907764" lon="8.405175000787839" id="-23664">
		<tag k="name" v="Sletten" />
		<tag k="place" v="farm" />
		<tag k="ssr:stedsnr" v="782369" />
	</node>
	<node lat="61.87302777660249" lon="8.763191663872208" id="-23676">
		<tag k="alt_name" v="Lii, s;Søre Lie" />
		<tag k="fixme" v="consider place=hamlet" />
		<tag k="name" v="Søre Lii" />
		<tag k="place" v="village" />
		<tag k="ssr:stedsnr" v="799120" />
	</node>
	<node lat="61.87537499755853" lon="8.706791657552397" id="-23680">
		<tag k="name" v="Teigen" />
		<tag k="place" v="farm" />
		<tag k="ssr:stedsnr" v="799133" />
	</node>
	<node lat="61.8730281256402" lon="8.75158754455149" id="-23681">
		<tag k="alt_name" v="Viki" />
		<tag k="name" v="Vikje" />
		<tag k="place" v="hamlet" />
		<tag k="ssr:stedsnr" v="799134" />
	</node>
	<node lat="61.84953611149175" lon="8.625108327957077" id="-23685">
		<tag k="alt_name" v="Blakarsmoen" />
		<tag k="name" v="Moen" />
		<tag k="place" v="farm" />
		<tag k="ssr:stedsnr" v="799046" />
	</node>
	<node lat="61.72342613905898" lon="8.333290597671358" id="-23691">
		<tag k="fixme" v="consider place=hamlet" />
		<tag k="name" v="Bakkeberg" />
		<tag k="place" v="farm" />
		<tag k="ssr:stedsnr" v="799167" />
	</node>
	<node lat="61.67435000003077" lon="8.138100006057511" id="-23697">
		<tag k="alt_name" v="Ulvåt" />
		<tag k="historic" v="shieling" />
		<tag k="name" v="Ulvot" />
		<tag k="place" v="isolated_dwelling" />
		<tag k="ssr:stedsnr" v="799229" />
	</node>
	<node lat="61.821844448103995" lon="8.507483335603789" id="-23698">
		<tag k="alt_name" v="Kvåle, nedre" />
		<tag k="name" v="Nedre Kvåle" />
		<tag k="place" v="farm" />
		<tag k="ssr:stedsnr" v="799231" />
	</node>
	<node lat="61.82331511728332" lon="8.516479784969727" id="-23700">
		<tag k="fixme" v="consider place=hamlet" />
		<tag k="name" v="Øverbø" />
		<tag k="place" v="farm" />
		<tag k="ssr:stedsnr" v="799233" />
	</node>
	<node lat="61.81206291378526" lon="8.46455599512997" id="-23713">
		<tag k="fixme" v="consider place=hamlet" />
		<tag k="name" v="Kvamme" />
		<tag k="place" v="farm" />
		<tag k="ssr:stedsnr" v="800944" />
	</node>
	<node lat="61.85531111039707" lon="8.512077786880017" id="-23717">
		<tag k="name" v="Sygard Synstnes" />
		<tag k="place" v="farm" />
		<tag k="ssr:stedsnr" v="816433" />
	</node>
	<node lat="61.81494444079948" lon="8.508291670256895" id="-23718">
		<tag k="name" v="Kvemillom" />
		<tag k="place" v="farm" />
		<tag k="ssr:stedsnr" v="815156" />
	</node>
	<node lat="61.844841667640466" lon="8.603766659335934" id="-23721">
		<tag k="name" v="Torkjellstugu" />
		<tag k="place" v="farm" />
		<tag k="ssr:stedsnr" v="817241" />
	</node>
	<node lat="61.84975833423415" lon="8.753338888705077" id="-23722">
		<tag k="name" v="Nordistugun Lyngve" />
		<tag k="place" v="farm" />
		<tag k="ssr:stedsnr" v="817633" />
	</node>
	<node lat="61.84930555276371" lon="8.70067222686706" id="-23724">
		<tag k="name" v="Langbakkjen" />
		<tag k="place" v="farm" />
		<tag k="ssr:stedsnr" v="818782" />
	</node>
	<node lat="61.852788886400795" lon="8.714666664071277" id="-23725">
		<tag k="name" v="Grindstugu" />
		<tag k="place" v="farm" />
		<tag k="ssr:stedsnr" v="818783" />
	</node>
	<node lat="61.7151222263191" lon="8.320030549411173" id="-23730">
		<tag k="name" v="Systugun Slålien" />
		<tag k="place" v="farm" />
		<tag k="ssr:stedsnr" v="842345" />
	</node>
	<node lat="61.79606944810025" lon="8.443855551164864" id="-23736">
		<tag k="name" v="Vangen" />
		<tag k="place" v="farm" />
		<tag k="ssr:stedsnr" v="843041" />
	</node>
	<node lat="61.726333333393" lon="8.280550004053367" id="-23739">
		<tag k="name" v="Åkerjordet" />
		<tag k="place" v="farm" />
		<tag k="ssr:stedsnr" v="843300" />
	</node>
	<node lat="61.87838622811223" lon="8.703013833703512" id="-23742">
		<tag k="fixme" v="consider place=hamlet" />
		<tag k="name" v="Høgbrenna" />
		<tag k="place" v="farm" />
		<tag k="ssr:stedsnr" v="843599" />
	</node>
	<node lat="61.75923610883004" lon="8.397094435253468" id="-23744">
		<tag k="alt_name" v="Skjærve" />
		<tag k="name" v="Skjerve" />
		<tag k="place" v="isolated_dwelling" />
		<tag k="ssr:stedsnr" v="843413" />
	</node>
	<node lat="61.853139812957245" lon="8.632860288254012" id="-23752">
		<tag k="fixme" v="consider place=hamlet" />
		<tag k="name" v="Frøyse" />
		<tag k="place" v="farm" />
		<tag k="ssr:stedsnr" v="859049" />
	</node>
	<node lat="61.66668610743397" lon="8.135816660597039" id="-23757">
		<tag k="historic" v="shieling" />
		<tag k="name" v="Måfå" />
		<tag k="place" v="isolated_dwelling" />
		<tag k="ssr:stedsnr" v="859182" />
	</node>
	<node lat="61.83348333057553" lon="8.550552774115845" id="-23782">
		<tag k="name" v="Andvordsjordet" />
		<tag k="place" v="quarter" />
		<tag k="ssr:stedsnr" v="875160" />
	</node>
	<node lat="61.8468305558907" lon="8.538572219276439" id="-23786">
		<tag k="name" v="Sør-Vike" />
		<tag k="place" v="farm" />
		<tag k="ssr:stedsnr" v="877437" />
	</node>
	<node lat="61.848383329063" lon="8.798255548745475" id="-23789">
		<tag k="name" v="Nørdre Uppistugun Frisvoll" />
		<tag k="place" v="farm" />
		<tag k="ssr:stedsnr" v="878677" />
	</node>
	<node lat="61.84781944109302" lon="8.610605552782701" id="-23791">
		<tag k="name" v="Nørdre Slette" />
		<tag k="place" v="farm" />
		<tag k="ssr:stedsnr" v="878143" />
	</node>
	<node lat="61.87024167083649" lon="8.804458329841612" id="-23792">
		<tag k="name" v="Søre Jota" />
		<tag k="place" v="farm" />
		<tag k="ssr:stedsnr" v="878384" />
	</node>
	<node lat="61.85233888679577" lon="8.628833328240127" id="-23797">
		<tag k="name" v="Svajordet" />
		<tag k="place" v="farm" />
		<tag k="ssr:stedsnr" v="878826" />
	</node>
	<node lat="61.831513885002444" lon="8.643097214783122" id="-23798">
		<tag k="historic" v="shieling" />
		<tag k="name" v="Frøysesætre" />
		<tag k="place" v="isolated_dwelling" />
		<tag k="ssr:stedsnr" v="878845" />
	</node>
	<node lat="61.81959444657898" lon="8.532025006154118" id="-23801">
		<tag k="name" v="Teigen" />
		<tag k="place" v="farm" />
		<tag k="ssr:stedsnr" v="936136" />
	</node>
	<node lat="61.82784999940523" lon="8.541250003937238" id="-23803">
		<tag k="name" v="Nedre Haugen" />
		<tag k="place" v="farm" />
		<tag k="ssr:stedsnr" v="936126" />
	</node>
	<node lat="61.83843794224385" lon="8.56089578023527" id="-23808">
		<tag k="alt_name" v="Loar skule" />
		<tag k="amenity" v="school" />
		<tag k="name" v="Loar barneskule" />
		<tag k="ssr:stedsnr" v="938483" />
	</node>
	<node lat="61.83832777685606" lon="8.550547226812213" id="-23809">
		<tag k="name" v="Eggjastugu" />
		<tag k="place" v="isolated_dwelling" />
		<tag k="ssr:stedsnr" v="938493" />
	</node>
	<node lat="61.852405559416134" lon="8.626555564333588" id="-23810">
		<tag k="name" v="Svaet" />
		<tag k="place" v="farm" />
		<tag k="ssr:stedsnr" v="939049" />
	</node>
	<node lat="61.8480500001404" lon="8.79912500569767" id="-23817">
		<tag k="name" v="Søre Uppistugun Frisvoll" />
		<tag k="place" v="farm" />
		<tag k="ssr:stedsnr" v="939651" />
	</node>
	<node lat="61.850116670083686" lon="8.703205546436509" id="-23818">
		<tag k="name" v="Graffershaugen" />
		<tag k="place" v="farm" />
		<tag k="ssr:stedsnr" v="939781" />
	</node>
	<node lat="61.86273610874155" lon="8.48288611541698" id="-23820">
		<tag k="name" v="Nørstnesstugu" />
		<tag k="place" v="isolated_dwelling" />
		<tag k="ssr:stedsnr" v="960760" />
	</node>
	<node lat="61.71671944448376" lon="8.316530561626056" id="-23827">
		<tag k="name" v="Uppistugun Slålien" />
		<tag k="place" v="farm" />
		<tag k="ssr:stedsnr" v="963397" />
	</node>
	<node lat="61.940308333739814" lon="8.861866672590324" id="-23837">
		<tag k="historic" v="shieling" />
		<tag k="name" v="Nigard Bøje sætre" />
		<tag k="place" v="isolated_dwelling" />
		<tag k="ssr:stedsnr" v="963758" />
	</node>
	<node lat="61.7762250008032" lon="8.469663894532129" id="-23843">
		<tag k="historic" v="shieling" />
		<tag k="name" v="Bøsætre" />
		<tag k="place" v="isolated_dwelling" />
		<tag k="ssr:stedsnr" v="964135" />
	</node>
	<node lat="61.772861107207" lon="8.446411108016829" id="-23846">
		<tag k="historic" v="shieling" />
		<tag k="name" v="Glømsdalssætre" />
		<tag k="place" v="isolated_dwelling" />
		<tag k="ssr:stedsnr" v="964122" />
	</node>
	<node lat="61.86948611411076" lon="8.67083333945203" id="-23850">
		<tag k="name" v="Nørdre Øverli" />
		<tag k="place" v="farm" />
		<tag k="ssr:stedsnr" v="964774" />
	</node>
	<node lat="61.868488889393525" lon="8.688477777754986" id="-23851">
		<tag k="name" v="Stolpein" />
		<tag k="place" v="isolated_dwelling" />
		<tag k="ssr:stedsnr" v="964775" />
	</node>
	<node lat="61.87169166875106" lon="8.724372217577162" id="-23853">
		<tag k="building" v="industrial" />
		<tag k="name" v="Turtumsagje" />
		<tag k="ssr:stedsnr" v="964943" />
	</node>
	<node lat="61.87340450677497" lon="8.703936540501708" id="-23855">
		<tag k="fixme" v="consider place=hamlet" />
		<tag k="name" v="Haukdalen" />
		<tag k="place" v="farm" />
		<tag k="ssr:stedsnr" v="964917" />
	</node>
	<node lat="61.85076610686003" lon="8.814296925769272" id="-23860">
		<tag k="name" v="Garmo" />
		<tag k="place" v="hamlet" />
		<tag k="ssr:stedsnr" v="984340" />
	</node>
	<node lat="61.81829936686925" lon="8.493555213742132" id="-23861">
		<tag k="fixme" v="consider place=hamlet" />
		<tag k="name" v="Aukrust" />
		<tag k="place" v="farm" />
		<tag k="ssr:stedsnr" v="984381" />
	</node>
	<node lat="61.82376774497671" lon="8.527057445113053" id="-23862">
		<tag k="name" v="Marstein" />
		<tag k="place" v="hamlet" />
		<tag k="ssr:stedsnr" v="984386" />
	</node>
	<node lat="61.83559216256798" lon="8.548764007758198" id="-23863">
		<tag k="name" v="Andvord" />
		<tag k="place" v="hamlet" />
		<tag k="ssr:stedsnr" v="984387" />
	</node>
	<node lat="61.85547558713119" lon="8.509609384945387" id="-23864">
		<tag k="fixme" v="consider place=hamlet" />
		<tag k="name" v="Synstnes" />
		<tag k="place" v="farm" />
		<tag k="ssr:stedsnr" v="984388" />
	</node>
	<node lat="61.87387306627205" lon="8.723677415778436" id="-23865">
		<tag k="name" v="Marstein" />
		<tag k="place" v="hamlet" />
		<tag k="ssr:stedsnr" v="984392" />
	</node>
	<node lat="61.87234626861051" lon="8.768248501635469" id="-23866">
		<tag k="fixme" v="consider place=hamlet" />
		<tag k="name" v="Sæterdalen" />
		<tag k="place" v="farm" />
		<tag k="ssr:stedsnr" v="984393" />
	</node>
	<node lat="61.87080964850762" lon="8.777926869146" id="-23867">
		<tag k="fixme" v="consider place=hamlet" />
		<tag k="name" v="Botn" />
		<tag k="place" v="farm" />
		<tag k="ssr:stedsnr" v="984395" />
	</node>
	<node lat="61.704281544258144" lon="8.285397497496175" id="-23868">
		<tag k="fixme" v="consider place=hamlet" />
		<tag k="name" v="Elvesæter" />
		<tag k="place" v="farm" />
		<tag k="ssr:stedsnr" v="984397" />
	</node>
	<node lat="61.721688939758984" lon="8.342250460414029" id="-23869">
		<tag k="name" v="Galde" />
		<tag k="place" v="hamlet" />
		<tag k="ssr:stedsnr" v="984398" />
	</node>
	<node lat="61.75566849673661" lon="8.391189177007305" id="-23870">
		<tag k="fixme" v="consider place=hamlet" />
		<tag k="name" v="Gaupar" />
		<tag k="place" v="farm" />
		<tag k="ssr:stedsnr" v="984399" />
	</node>
	<node lat="61.76509549527525" lon="8.403227708247003" id="-23871">
		<tag k="name" v="Sulheim" />
		<tag k="place" v="hamlet" />
		<tag k="ssr:stedsnr" v="984400" />
	</node>
	<node lat="61.870317516352394" lon="8.803519892632808" id="-23872">
		<tag k="loc_name" v="Gjota" />
		<tag k="name" v="Jota" />
		<tag k="place" v="locality" />
		<tag k="ssr:stedsnr" v="987033" />
	</node>
	<node lat="61.837871364552214" lon="8.567272596481669" id="-23875">
		<tag k="building" v="commercial" />
		<tag k="name" v="Bakeriet i Lom" />
		<tag k="ssr:stedsnr" v="1071975" />
	</node>
</osm>
