<?xml version="1.0" encoding="UTF-8"?>
<<<<<<< HEAD
<osm version="0.6" generator="osmapis">
	<node lat="58.6421388853063" lon="7.546727780458186" id="-26233">
		<tag k="fixme" v="multiple name tags, choose one and add the other to alt_name" />
		<tag k="historic" v="boundary_stone" />
		<tag k="man_made" v="cairn" />
		<tag k="name" v="Kross-stein;Krosstein" />
		<tag k="place" v="locality" />
		<tag k="ssr:stedsnr" v="164535" />
	</node>
	<node lat="58.53330255919309" lon="7.519818935340806" id="-26978">
		<tag k="historic" v="boundary_stone" />
		<tag k="man_made" v="cairn" />
		<tag k="name" v="Kroksteinen" />
		<tag k="place" v="locality" />
		<tag k="ssr:stedsnr" v="710855" />
	</node>
	<node lat="58.56750832970046" lon="8.091525002663944" id="-27167">
=======
<osm generator="osmapis" version="0.6">
	<node id="-546164" lat="58.5675083297" lon="8.09152500266">
>>>>>>> e1d4bc35ff8a6074a6f2e91616a996b547c36f15
		<tag k="historic" v="boundary_stone" />
		<tag k="man_made" v="cairn" />
		<tag k="name" v="LillejÃ¥ren" />
		<tag k="place" v="locality" />
		<tag k="ssr:stedsnr" v="717081" />
	</node>
	<node id="-548661" lat="58.5333025592" lon="7.51981893534">
		<tag k="historic" v="boundary_stone" />
		<tag k="man_made" v="cairn" />
		<tag k="name" v="Kroksteinen" />
		<tag k="place" v="locality" />
		<tag k="ssr:stedsnr" v="710855" />
	</node>
	<node id="-548660" lat="58.6421388853" lon="7.54672778046">
		<tag k="fixme" v="multiple name tags, choose one and add the other to alt_name" />
		<tag k="historic" v="boundary_stone" />
		<tag k="man_made" v="cairn" />
		<tag k="name" v="Kross-stein;Krosstein" />
		<tag k="place" v="locality" />
		<tag k="ssr:stedsnr" v="164535" />
	</node>
</osm>
