<?xml version="1.0" encoding="UTF-8"?>
<<<<<<< HEAD
<osm version="0.6" generator="osmapis">
	<node lat="58.66327499884536" lon="7.9245555630003315" id="-24227">
		<tag k="alt_name" v="Åsbu" />
		<tag k="name" v="Åsebu" />
		<tag k="place" v="isolated_dwelling" />
		<tag k="ssr:stedsnr" v="523" />
	</node>
	<node lat="58.5044894483524" lon="7.822841699694192" id="-24229">
		<tag k="name" v="Stien" />
		<tag k="place" v="farm" />
		<tag k="ssr:stedsnr" v="401" />
	</node>
	<node lat="58.585694446129246" lon="7.8036250066464" id="-24253">
		<tag k="name" v="Evje" />
		<tag k="place" v="village" />
		<tag k="ssr:stedsnr" v="1744" />
	</node>
	<node lat="58.46467500164925" lon="7.769972221016506" id="-24268">
		<tag k="name" v="Hodneøygard" />
		<tag k="place" v="locality" />
		<tag k="ssr:stedsnr" v="32084" />
	</node>
	<node lat="58.46231388493354" lon="7.80074166998584" id="-24320">
		<tag k="name" v="Hodneøya" />
		<tag k="place" v="farm" />
		<tag k="ssr:stedsnr" v="55171" />
	</node>
	<node lat="58.51678610859649" lon="7.730277785778642" id="-24323">
		<tag k="name" v="Hagen" />
		<tag k="place" v="farm" />
		<tag k="ssr:stedsnr" v="61410" />
	</node>
	<node lat="58.579636107107625" lon="7.8949916684237165" id="-24326">
		<tag k="name" v="Bjorland" />
		<tag k="place" v="isolated_dwelling" />
		<tag k="ssr:stedsnr" v="61725" />
	</node>
	<node lat="58.59786389093198" lon="7.827341674252597" id="-24330">
		<tag k="fixme" v="consider place=hamlet" />
		<tag k="name" v="Kyrkjebygda" />
		<tag k="place" v="village" />
		<tag k="ssr:stedsnr" v="61696" />
	</node>
	<node lat="58.503747220112366" lon="7.530702783009743" id="-24332">
		<tag k="fixme" v="consider place=hamlet" />
		<tag k="name" v="Steinsland" />
		<tag k="place" v="farm" />
		<tag k="ssr:stedsnr" v="61891" />
	</node>
	<node lat="58.64475277494397" lon="7.611672224449759" id="-24341">
		<tag k="alt_name" v="Dåsvatn, øvre" />
		<tag k="fixme" v="consider place=hamlet" />
		<tag k="name" v="Øvre Dåsvatn" />
=======
<osm generator="osmapis" version="0.6">
	<node id="-547327" lat="58.563736115" lon="7.86452500642">
		<tag k="fixme" v="consider place=hamlet" />
		<tag k="name" v="Skjeggestad" />
		<tag k="place" v="farm" />
		<tag k="ssr:stedsnr" v="153618" />
	</node>
	<node id="-547838" lat="58.6376916692" lon="7.84925833762">
		<tag k="name" v="Kråkestølane" />
		<tag k="place" v="locality" />
		<tag k="ssr:stedsnr" v="396563" />
	</node>
	<node id="-545789" lat="58.680077775" lon="7.72868055572">
		<tag k="historic" v="shieling" />
		<tag k="name" v="Mjåvasstøl" />
		<tag k="place" v="locality" />
		<tag k="ssr:stedsnr" v="517272" />
	</node>
	<node id="-546299" lat="58.5824999968" lon="7.89088332639">
		<tag k="name" v="Rønningen" />
		<tag k="place" v="locality" />
		<tag k="ssr:stedsnr" v="882366" />
	</node>
	<node id="-545783" lat="58.6152916674" lon="7.80649722452">
		<tag k="name" v="Myrane" />
		<tag k="place" v="isolated_dwelling" />
		<tag k="ssr:stedsnr" v="517226" />
	</node>
	<node id="-548342" lat="58.6050166677" lon="7.8228527786">
		<tag k="name" v="Evjetun" />
		<tag k="ssr:stedsnr" v="759239" />
		<tag k="tourism" v="camp_site" />
	</node>
	<node id="-546805" lat="58.5063861125" lon="7.57106666383">
		<tag k="name" v="Trudvang" />
		<tag k="place" v="farm" />
		<tag k="ssr:stedsnr" v="943624" />
	</node>
	<node id="-547826" lat="58.5829861935" lon="7.88197473569">
		<tag k="historic" v="shieling" />
		<tag k="name" v="Folefallet" />
		<tag k="place" v="locality" />
		<tag k="ssr:stedsnr" v="365761" />
	</node>
	<node id="-547825" lat="58.5822527806" lon="8.07413333987">
		<tag k="fixme" v="consider place=hamlet" />
		<tag k="name" v="Tveit" />
		<tag k="place" v="farm" />
		<tag k="ssr:stedsnr" v="365739" />
	</node>
	<node id="-547496" lat="58.5531194438" lon="7.7716888862">
		<tag k="fixme" v="consider place=hamlet" />
		<tag k="name" v="Hornnes" />
		<tag k="place" v="village" />
		<tag k="ssr:stedsnr" v="183648" />
	</node>
	<node id="-545774" lat="58.6740611152" lon="7.65659721904">
		<tag k="name" v="Lauvåsøygard" />
		<tag k="place" v="locality" />
		<tag k="ssr:stedsnr" v="517069" />
	</node>
	<node id="-547821" lat="58.5637249999" lon="7.78369999949">
		<tag k="landuse" v="military" />
		<tag k="name" v="Evjemoen" />
		<tag k="ssr:stedsnr" v="365655" />
	</node>
	<node id="-546794" lat="58.5769944441" lon="7.81693333832">
		<tag k="name" v="Steinsfjellplassen" />
		<tag k="place" v="locality" />
		<tag k="ssr:stedsnr" v="943342" />
	</node>
	<node id="-546280" lat="58.5416666685" lon="7.81386111058">
		<tag k="name" v="Lisleøygard" />
		<tag k="place" v="locality" />
		<tag k="ssr:stedsnr" v="882208" />
	</node>
	<node id="-546024" lat="58.4744666689" lon="7.7853750062">
		<tag k="name" v="Vestre Hodne" />
>>>>>>> e1d4bc35ff8a6074a6f2e91616a996b547c36f15
		<tag k="place" v="farm" />
		<tag k="ssr:stedsnr" v="243144" />
	</node>
<<<<<<< HEAD
	<node lat="58.652108337000165" lon="7.905150000479039" id="-24343">
		<tag k="name" v="Selland" />
		<tag k="place" v="isolated_dwelling" />
		<tag k="ssr:stedsnr" v="243519" />
	</node>
	<node lat="58.58232777831576" lon="7.953680559033772" id="-24346">
		<tag k="alt_name" v="Sletten" />
		<tag k="fixme" v="consider place=hamlet" />
		<tag k="name" v="Slettin" />
		<tag k="place" v="farm" />
		<tag k="ssr:stedsnr" v="243759" />
	</node>
	<node lat="58.55473055410967" lon="7.837991670698106" id="-24366">
		<tag k="fixme" v="consider place=hamlet" />
		<tag k="name" v="Lauvland" />
		<tag k="place" v="farm" />
		<tag k="ssr:stedsnr" v="244669" />
	</node>
	<node lat="58.47188055684124" lon="7.784675005170999" id="-24370">
		<tag k="name" v="Horne sag" />
		<tag k="place" v="quarter" />
		<tag k="ssr:stedsnr" v="93006" />
	</node>
	<node lat="58.60468055864797" lon="7.749024993629366" id="-24377">
		<tag k="name" v="Løa" />
		<tag k="place" v="locality" />
		<tag k="ssr:stedsnr" v="93206" />
	</node>
	<node lat="58.55606944431513" lon="7.843708341295826" id="-24388">
		<tag k="name" v="Plassen" />
		<tag k="place" v="locality" />
		<tag k="ssr:stedsnr" v="93368" />
	</node>
	<node lat="58.63137500346569" lon="7.946113892192901" id="-24391">
		<tag k="historic" v="shieling" />
		<tag k="name" v="Håstøl" />
		<tag k="place" v="isolated_dwelling" />
		<tag k="ssr:stedsnr" v="93562" />
	</node>
	<node lat="58.578186108471606" lon="7.990497215942324" id="-24397">
		<tag k="name" v="Øygarden" />
		<tag k="place" v="locality" />
		<tag k="ssr:stedsnr" v="93580" />
	</node>
	<node lat="58.639999997405155" lon="7.581013885066949" id="-24421">
		<tag k="name" v="Myrbu" />
		<tag k="place" v="locality" />
		<tag k="ssr:stedsnr" v="93610" />
	</node>
	<node lat="58.56373611496552" lon="7.864525006415058" id="-24491">
		<tag k="fixme" v="consider place=hamlet" />
		<tag k="name" v="Skjeggestad" />
		<tag k="place" v="farm" />
		<tag k="ssr:stedsnr" v="153618" />
	</node>
	<node lat="58.63098055945635" lon="8.017036115091408" id="-24498">
		<tag k="name" v="Godfarsøygard" />
		<tag k="place" v="locality" />
		<tag k="ssr:stedsnr" v="153660" />
	</node>
	<node lat="58.59855277980787" lon="7.734519450141397" id="-24519">
		<tag k="name" v="Fennefossøygard" />
		<tag k="place" v="locality" />
		<tag k="ssr:stedsnr" v="154219" />
	</node>
	<node lat="58.55768888491362" lon="7.7668027812017515" id="-24523">
		<tag k="name" v="Gullslett" />
		<tag k="place" v="quarter" />
		<tag k="ssr:stedsnr" v="154263" />
	</node>
	<node lat="58.59124166646181" lon="7.648361115304755" id="-24535">
		<tag k="name" v="Godfars øygard" />
		<tag k="place" v="locality" />
		<tag k="ssr:stedsnr" v="154910" />
	</node>
	<node lat="58.65068888442109" lon="7.6152638829792565" id="-24545">
		<tag k="name" v="Kleven" />
		<tag k="place" v="farm" />
		<tag k="ssr:stedsnr" v="182155" />
	</node>
	<node lat="58.60083889314123" lon="7.643305562506965" id="-24553">
		<tag k="alt_name" v="Engen" />
		<tag k="name" v="Engin" />
		<tag k="place" v="farm" />
		<tag k="ssr:stedsnr" v="182850" />
	</node>
	<node lat="58.553119443808924" lon="7.77168888619653" id="-24559">
		<tag k="fixme" v="consider place=hamlet" />
		<tag k="name" v="Hornnes" />
		<tag k="place" v="village" />
		<tag k="ssr:stedsnr" v="183648" />
	</node>
	<node lat="58.59599999911108" lon="7.934844444225763" id="-24561">
		<tag k="name" v="Ånestøl" />
		<tag k="place" v="isolated_dwelling" />
		<tag k="ssr:stedsnr" v="183708" />
	</node>
	<node lat="58.513436113853956" lon="7.831744448334217" id="-24568">
		<tag k="name" v="Landsverk sag" />
		<tag k="place" v="locality" />
		<tag k="ssr:stedsnr" v="214032" />
	</node>
	<node lat="58.488480551797466" lon="7.7194944388408775" id="-24632">
		<tag k="name" v="Bakkane" />
		<tag k="place" v="farm" />
		<tag k="ssr:stedsnr" v="215872" />
	</node>
	<node lat="58.581525003090704" lon="8.055683330741662" id="-24645">
		<tag k="name" v="Øygarden" />
		<tag k="place" v="locality" />
		<tag k="ssr:stedsnr" v="231093" />
	</node>
	<node lat="58.60987500041862" lon="7.876427773444543" id="-24648">
		<tag k="fixme" v="consider place=hamlet" />
		<tag k="name" v="Nordbø" />
		<tag k="place" v="farm" />
		<tag k="ssr:stedsnr" v="243541" />
	</node>
	<node lat="58.59453055973394" lon="7.968427769571196" id="-24652">
		<tag k="fixme" v="consider place=hamlet" />
		<tag k="name" v="Vikstøl" />
		<tag k="place" v="farm" />
		<tag k="ssr:stedsnr" v="243708" />
	</node>
	<node lat="58.60482777669934" lon="7.831513883556565" id="-24653">
		<tag k="name" v="Evjeplassen" />
		<tag k="place" v="farm" />
		<tag k="ssr:stedsnr" v="243711" />
	</node>
	<node lat="58.565941663386965" lon="7.86035000345406" id="-24655">
		<tag k="fixme" v="consider place=hamlet" />
		<tag k="name" v="Kleggetveit" />
		<tag k="place" v="farm" />
		<tag k="ssr:stedsnr" v="244678" />
	</node>
	<node lat="58.64074999765362" lon="7.967013888016457" id="-24659">
		<tag k="fixme" v="consider place=hamlet" />
		<tag k="name" v="Lauvås" />
		<tag k="place" v="farm" />
		<tag k="ssr:stedsnr" v="244594" />
	</node>
	<node lat="58.6394388912785" lon="7.776150002343503" id="-24677">
		<tag k="name" v="Ospelunden" />
		<tag k="place" v="farm" />
		<tag k="ssr:stedsnr" v="457289" />
	</node>
	<node lat="58.63770555691328" lon="7.776513892863835" id="-24681">
		<tag k="name" v="Lunderekra" />
		<tag k="place" v="farm" />
		<tag k="ssr:stedsnr" v="457290" />
	</node>
	<node lat="58.6382527800819" lon="7.821086118692248" id="-24688">
		<tag k="name" v="Dalebakk" />
		<tag k="place" v="farm" />
		<tag k="ssr:stedsnr" v="457344" />
	</node>
	<node lat="58.65249721951364" lon="7.9046277856351574" id="-24805">
		<tag k="historic" v="shieling" />
		<tag k="name" v="Indreøygard" />
		<tag k="place" v="isolated_dwelling" />
		<tag k="ssr:stedsnr" v="275717" />
	</node>
	<node lat="58.46826944137279" lon="7.793825007394927" id="-24839">
		<tag k="name" v="Kilefjorden camping" />
		<tag k="ssr:stedsnr" v="335001" />
		<tag k="tourism" v="camp_site" />
	</node>
	<node lat="58.604938887605414" lon="7.830597219886029" id="-24842">
		<tag k="name" v="Monen" />
		<tag k="place" v="farm" />
		<tag k="ssr:stedsnr" v="335298" />
	</node>
	<node lat="58.61396110742132" lon="7.887497225100008" id="-24847">
		<tag k="name" v="Persplass" />
		<tag k="place" v="locality" />
		<tag k="ssr:stedsnr" v="335551" />
	</node>
	<node lat="58.725944442480476" lon="7.65432222113259" id="-24867">
		<tag k="name" v="Sindrebu" />
		<tag k="place" v="isolated_dwelling" />
		<tag k="ssr:stedsnr" v="336109" />
	</node>
	<node lat="58.49128888475388" lon="7.713325008236712" id="-24880">
		<tag k="name" v="Trolldalen" />
		<tag k="place" v="farm" />
		<tag k="ssr:stedsnr" v="336845" />
	</node>
	<node lat="58.53763611515972" lon="7.687355551561748" id="-24890">
		<tag k="name" v="Tveit sag" />
		<tag k="place" v="quarter" />
		<tag k="ssr:stedsnr" v="336908" />
	</node>
	<node lat="58.58334444169612" lon="7.804222227973961" id="-24910">
		<tag k="leisure" v="pitch" />
		<tag k="name" v="Evje aktivitetspark" />
		<tag k="ssr:stedsnr" v="363406" />
	</node>
	<node lat="58.503383337101816" lon="7.781836108479499" id="-24914">
		<tag k="fixme" v="consider place=hamlet" />
		<tag k="name" v="Klepp" />
		<tag k="place" v="farm" />
		<tag k="ssr:stedsnr" v="364408" />
	</node>
	<node lat="58.63328888702069" lon="7.942338893355669" id="-24923">
		<tag k="name" v="Austerhusøygarden" />
		<tag k="place" v="isolated_dwelling" />
		<tag k="ssr:stedsnr" v="365550" />
	</node>
	<node lat="58.5822527805544" lon="8.074133339872038" id="-24926">
		<tag k="fixme" v="consider place=hamlet" />
		<tag k="name" v="Tveit" />
		<tag k="place" v="farm" />
		<tag k="ssr:stedsnr" v="365739" />
	</node>
	<node lat="58.64586666531955" lon="7.817113888966065" id="-24946">
		<tag k="name" v="Fossberg" />
		<tag k="place" v="farm" />
		<tag k="ssr:stedsnr" v="396328" />
	</node>
	<node lat="58.584388892657536" lon="7.919094440797716" id="-24948">
		<tag k="name" v="Rønningen" />
		<tag k="place" v="locality" />
		<tag k="ssr:stedsnr" v="396385" />
	</node>
	<node lat="58.57691388577307" lon="7.769969448705519" id="-24992">
		<tag k="name" v="Ærdalen" />
		<tag k="place" v="isolated_dwelling" />
		<tag k="ssr:stedsnr" v="396804" />
	</node>
	<node lat="58.651080557246985" lon="7.637772226325533" id="-25005">
		<tag k="alt_name" v="Øksenskår" />
		<tag k="fixme" v="consider place=hamlet" />
		<tag k="name" v="Yksenskår" />
		<tag k="place" v="farm" />
		<tag k="ssr:stedsnr" v="485134" />
	</node>
	<node lat="58.62806666788756" lon="7.639177770413499" id="-25008">
		<tag k="name" v="Krossen" />
		<tag k="place" v="isolated_dwelling" />
		<tag k="ssr:stedsnr" v="485799" />
	</node>
	<node lat="58.50681666267464" lon="7.7688805631353866" id="-25017">
		<tag k="fixme" v="consider place=hamlet" />
		<tag k="name" v="Moi" />
		<tag k="place" v="village" />
		<tag k="ssr:stedsnr" v="486449" />
	</node>
	<node lat="58.59707499643472" lon="7.842355554523217" id="-25018">
		<tag k="fixme" v="consider place=hamlet" />
		<tag k="name" v="Odde" />
		<tag k="place" v="farm" />
		<tag k="ssr:stedsnr" v="486710" />
	</node>
	<node lat="58.594802777242606" lon="7.8001194359228405" id="-25019">
		<tag k="fixme" v="consider place=hamlet" />
		<tag k="name" v="Birkeland" />
		<tag k="place" v="farm" />
		<tag k="ssr:stedsnr" v="486713" />
	</node>
	<node lat="58.57103888898811" lon="7.835749999695004" id="-25023">
		<tag k="fixme" v="consider place=hamlet" />
		<tag k="name" v="Rosseland" />
		<tag k="place" v="farm" />
		<tag k="ssr:stedsnr" v="486734" />
	</node>
	<node lat="58.58436944510529" lon="8.083266662584835" id="-25024">
		<tag k="alt_name" v="Lisletveit" />
		<tag k="name" v="Lilletveit" />
		<tag k="place" v="farm" />
		<tag k="ssr:stedsnr" v="486741" />
	</node>
	<node lat="58.488160843064634" lon="7.719610677902435" id="-25035">
		<tag k="name" v="Bakkane" />
		<tag k="place" v="locality" />
		<tag k="ssr:stedsnr" v="425196" />
	</node>
	<node lat="58.61311110859235" lon="7.8082555505787425" id="-25040">
		<tag k="name" v="Sole" />
		<tag k="place" v="farm" />
		<tag k="ssr:stedsnr" v="425523" />
	</node>
	<node lat="58.638813886688204" lon="7.778863888810224" id="-25051">
		<tag k="fixme" v="consider place=hamlet" />
		<tag k="name" v="Moseid" />
		<tag k="place" v="farm" />
		<tag k="ssr:stedsnr" v="426483" />
	</node>
	<node lat="58.645700000289786" lon="7.86807777967284" id="-25053">
		<tag k="alt_name" v="Nedreøygard" />
		<tag k="name" v="Nedre Øygarden" />
		<tag k="place" v="isolated_dwelling" />
		<tag k="ssr:stedsnr" v="426496" />
	</node>
	<node lat="58.621375000147474" lon="7.916716658700266" id="-25055">
		<tag k="name" v="Nordbøøygarden" />
		<tag k="place" v="isolated_dwelling" />
		<tag k="ssr:stedsnr" v="426527" />
	</node>
	<node lat="58.61757777791587" lon="7.927563891090332" id="-25056">
		<tag k="alt_name" v="Flåtøygard" />
		<tag k="name" v="Flotøygarden" />
		<tag k="place" v="isolated_dwelling" />
		<tag k="ssr:stedsnr" v="426529" />
	</node>
	<node lat="58.53838055402696" lon="7.673066667643969" id="-25060">
		<tag k="alt_name" v="Nygård" />
		<tag k="name" v="Nygard" />
		<tag k="place" v="farm" />
		<tag k="ssr:stedsnr" v="426974" />
	</node>
	<node lat="58.59157222539109" lon="7.799922215142628" id="-25094">
		<tag k="name" v="Bakken" />
		<tag k="place" v="farm" />
		<tag k="ssr:stedsnr" v="457315" />
	</node>
	<node lat="58.59136111083786" lon="7.8616583314664945" id="-25101">
		<tag k="name" v="Landsverkplassen" />
		<tag k="place" v="farm" />
		<tag k="ssr:stedsnr" v="457382" />
	</node>
	<node lat="58.49059444707094" lon="7.688352770771652" id="-25110">
		<tag k="name" v="Mossebu" />
		<tag k="place" v="isolated_dwelling" />
		<tag k="ssr:stedsnr" v="457815" />
	</node>
	<node lat="58.58877222598778" lon="7.707736108414875" id="-25137">
		<tag k="name" v="Støylen" />
		<tag k="place" v="farm" />
		<tag k="ssr:stedsnr" v="485705" />
	</node>
	<node lat="58.65173055622806" lon="7.9532638877499595" id="-25145">
		<tag k="fixme" v="consider place=hamlet" />
		<tag k="name" v="Gautestad" />
		<tag k="place" v="village" />
		<tag k="ssr:stedsnr" v="486524" />
	</node>
	<node lat="58.67406111517262" lon="7.65659721904362" id="-25152">
		<tag k="name" v="Lauvåsøygard" />
		<tag k="place" v="locality" />
		<tag k="ssr:stedsnr" v="517069" />
	</node>
	<node lat="58.68007777495411" lon="7.728680555718242" id="-25160">
		<tag k="historic" v="shieling" />
		<tag k="name" v="Mjåvasstøl" />
		<tag k="place" v="isolated_dwelling" />
		<tag k="ssr:stedsnr" v="517272" />
	</node>
	<node lat="58.65358055308689" lon="7.803372223621105" id="-25164">
		<tag k="name" v="Langemyr" />
		<tag k="place" v="farm" />
		<tag k="ssr:stedsnr" v="517467" />
	</node>
	<node lat="58.544536113656264" lon="7.760122225152445" id="-25191">
		<tag k="name" v="Neregarden" />
		<tag k="place" v="farm" />
		<tag k="ssr:stedsnr" v="518214" />
	</node>
	<node lat="58.641294442229444" lon="7.77746388730074" id="-25192">
		<tag k="fixme" v="consider place=hamlet" />
		<tag k="name" v="Holtet" />
		<tag k="place" v="farm" />
		<tag k="ssr:stedsnr" v="518320" />
	</node>
	<node lat="58.48283611071144" lon="7.569650003100974" id="-25202">
		<tag k="historic" v="shieling" />
		<tag k="name" v="Strånda" />
		<tag k="place" v="isolated_dwelling" />
		<tag k="ssr:stedsnr" v="518624" />
	</node>
	<node lat="58.47928055401268" lon="7.570975000459673" id="-25203">
		<tag k="historic" v="shieling" />
		<tag k="name" v="Ytre Strånda" />
		<tag k="place" v="isolated_dwelling" />
		<tag k="ssr:stedsnr" v="518625" />
	</node>
	<node lat="58.47446666893982" lon="7.785375006200135" id="-25220">
		<tag k="name" v="Vestre Hodne" />
		<tag k="place" v="farm" />
		<tag k="ssr:stedsnr" v="540184" />
	</node>
	<node lat="58.60769166308664" lon="7.965624991790967" id="-25222">
		<tag k="name" v="Åsen" />
		<tag k="place" v="farm" />
		<tag k="ssr:stedsnr" v="546495" />
	</node>
	<node lat="58.6264055518259" lon="7.622733329524638" id="-25226">
		<tag k="alt_name" v="Dåsvatn, yt" />
		<tag k="fixme" v="consider place=hamlet" />
		<tag k="name" v="Ytre Dåsvatn" />
		<tag k="place" v="farm" />
		<tag k="ssr:stedsnr" v="546805" />
	</node>
	<node lat="58.53855555667559" lon="7.675216671227636" id="-25236">
		<tag k="name" v="Tveit" />
		<tag k="place" v="farm" />
		<tag k="ssr:stedsnr" v="547977" />
	</node>
	<node lat="58.58580555969467" lon="7.8089194501063925" id="-25250">
		<tag k="name" v="Grenjå" />
		<tag k="place" v="quarter" />
		<tag k="ssr:stedsnr" v="578153" />
	</node>
	<node lat="58.59102222659436" lon="7.824724996512048" id="-25251">
		<tag k="name" v="Sindremoen" />
		<tag k="place" v="farm" />
		<tag k="ssr:stedsnr" v="578155" />
	</node>
	<node lat="58.571933337463435" lon="7.82751110353721" id="-25253">
		<tag k="historic" v="shieling" />
		<tag k="name" v="Skaret" />
		<tag k="place" v="isolated_dwelling" />
		<tag k="ssr:stedsnr" v="578304" />
	</node>
	<node lat="58.60600000063212" lon="7.89726945259007" id="-25328">
		<tag k="name" v="Åsen" />
		<tag k="place" v="farm" />
		<tag k="ssr:stedsnr" v="699701" />
	</node>
	<node lat="58.60271389144215" lon="7.667452783196113" id="-25349">
		<tag k="name" v="Teigan" />
		<tag k="place" v="farm" />
		<tag k="ssr:stedsnr" v="699952" />
	</node>
	<node lat="58.58728333590946" lon="8.072744437715325" id="-25351">
		<tag k="fixme" v="consider place=hamlet" />
		<tag k="name" v="Hovland" />
		<tag k="place" v="farm" />
		<tag k="ssr:stedsnr" v="607719" />
	</node>
	<node lat="58.582433333489526" lon="7.778024994520111" id="-25352">
		<tag k="fixme" v="consider place=hamlet" />
		<tag k="name" v="Fennefoss" />
		<tag k="place" v="farm" />
		<tag k="ssr:stedsnr" v="607744" />
	</node>
	<node lat="58.63656110980573" lon="7.776899998039498" id="-25369">
		<tag k="name" v="Trosevollen" />
		<tag k="place" v="farm" />
		<tag k="ssr:stedsnr" v="700390" />
	</node>
	<node lat="58.549152778367315" lon="7.740244436919278" id="-25407">
		<tag k="name" v="Ommundsplass" />
		<tag k="place" v="locality" />
		<tag k="ssr:stedsnr" v="638178" />
	</node>
	<node lat="58.55073055456993" lon="7.737497223086551" id="-25427">
		<tag k="name" v="Bærkjåsen" />
		<tag k="place" v="farm" />
		<tag k="ssr:stedsnr" v="639224" />
	</node>
	<node lat="58.49064721806093" lon="7.7257833408293095" id="-25460">
		<tag k="fixme" v="consider place=hamlet" />
		<tag k="name" v="Sutestad" />
		<tag k="place" v="farm" />
		<tag k="ssr:stedsnr" v="667216" />
	</node>
	<node lat="58.694152774034464" lon="7.676938885465589" id="-25467">
		<tag k="name" v="Kleiveslåtti" />
		<tag k="place" v="locality" />
		<tag k="ssr:stedsnr" v="668236" />
	</node>
	<node lat="58.60913610759487" lon="7.955633329819181" id="-25471">
		<tag k="alt_name" v="Prestøygard" />
		<tag k="name" v="Prestøygarden" />
		<tag k="place" v="farm" />
		<tag k="ssr:stedsnr" v="668546" />
	</node>
	<node lat="58.55947500435204" lon="7.757680555471142" id="-25473">
		<tag k="name" v="Valhall" />
		<tag k="place" v="farm" />
		<tag k="ssr:stedsnr" v="668685" />
	</node>
	<node lat="58.6060583344264" lon="7.878677778439294" id="-25475">
		<tag k="fixme" v="consider place=hamlet" />
		<tag k="name" v="Flatebygd" />
		<tag k="place" v="village" />
		<tag k="ssr:stedsnr" v="668738" />
	</node>
	<node lat="58.59768333082021" lon="7.83305278419366" id="-25504">
		<tag k="name" v="Kjørkåsen" />
		<tag k="place" v="farm" />
		<tag k="ssr:stedsnr" v="700208" />
	</node>
	<node lat="58.51719444212071" lon="7.76558055622267" id="-25545">
		<tag k="alt_name" v="Hannås, nedre" />
		<tag k="name" v="Hannås nedre" />
		<tag k="place" v="farm" />
		<tag k="ssr:stedsnr" v="729426" />
	</node>
	<node lat="58.609113885216736" lon="7.884388896789707" id="-25550">
		<tag k="name" v="Gåvoll" />
		<tag k="place" v="farm" />
		<tag k="ssr:stedsnr" v="729527" />
	</node>
	<node lat="58.58548333035493" lon="8.058174997361089" id="-25555">
		<tag k="alt_name" v="Nygard" />
		<tag k="name" v="Nygård" />
		<tag k="place" v="farm" />
		<tag k="ssr:stedsnr" v="729769" />
	</node>
	<node lat="58.6696472198918" lon="7.630169449772628" id="-25638">
		<tag k="name" v="Øygarden" />
		<tag k="place" v="locality" />
		<tag k="ssr:stedsnr" v="911177" />
	</node>
	<node lat="58.600530560024524" lon="8.102925006677557" id="-25643">
		<tag k="name" v="Kjetevannsøygarden" />
		<tag k="place" v="locality" />
		<tag k="ssr:stedsnr" v="789352" />
	</node>
	<node lat="58.65345000269461" lon="7.803519446701559" id="-25645">
		<tag k="alt_name" v="Steane" />
		<tag k="name" v="Stean" />
		<tag k="place" v="farm" />
		<tag k="ssr:stedsnr" v="911520" />
	</node>
	<node lat="58.51592778131416" lon="7.760955550639295" id="-25649">
		<tag k="alt_name" v="Hannås, øvre" />
		<tag k="name" v="Hannås øvre" />
		<tag k="place" v="farm" />
		<tag k="ssr:stedsnr" v="789428" />
	</node>
	<node lat="58.61120448718086" lon="7.728676083524509" id="-25650">
		<tag k="name" v="Brenne" />
		<tag k="place" v="locality" />
		<tag k="ssr:stedsnr" v="911551" />
	</node>
	<node lat="58.59023390136533" lon="7.797582687880203" id="-25652">
		<tag k="name" v="Bakkemoen" />
		<tag k="place" v="farm" />
		<tag k="ssr:stedsnr" v="789697" />
	</node>
	<node lat="58.50222499955075" lon="7.7361583253768185" id="-25666">
		<tag k="fixme" v="consider place=hamlet" />
		<tag k="name" v="Tønnesland" />
		<tag k="place" v="farm" />
		<tag k="ssr:stedsnr" v="911433" />
	</node>
	<node lat="58.522186112228724" lon="7.784305557170119" id="-25667">
		<tag k="fixme" v="consider place=hamlet" />
		<tag k="name" v="Strauman" />
		<tag k="place" v="farm" />
		<tag k="ssr:stedsnr" v="911437" />
	</node>
	<node lat="58.519608329013614" lon="7.854913885892892" id="-25668">
		<tag k="alt_name" v="Li Øvre" />
		<tag k="name" v="Li" />
		<tag k="place" v="farm" />
		<tag k="ssr:stedsnr" v="911438" />
	</node>
	<node lat="58.51354444429529" lon="7.837566673516897" id="-25670">
		<tag k="name" v="Landsverk" />
		<tag k="place" v="farm" />
		<tag k="ssr:stedsnr" v="790406" />
	</node>
	<node lat="58.50931110836269" lon="7.765941672858125" id="-25671">
		<tag k="name" v="Hannåsmoen" />
		<tag k="place" v="farm" />
		<tag k="ssr:stedsnr" v="790444" />
	</node>
	<node lat="58.55817777707082" lon="7.7719250047709485" id="-25672">
		<tag k="fixme" v="consider place=hamlet" />
		<tag k="name" v="Faret" />
		<tag k="place" v="farm" />
		<tag k="ssr:stedsnr" v="911669" />
	</node>
	<node lat="58.594248446700504" lon="7.86163407832901" id="-25674">
		<tag k="name" v="Landsverk" />
		<tag k="place" v="locality" />
		<tag k="ssr:stedsnr" v="911697" />
	</node>
	<node lat="58.58845555620094" lon="7.789066668191385" id="-25675">
		<tag k="name" v="Lia" />
		<tag k="place" v="farm" />
		<tag k="ssr:stedsnr" v="911702" />
	</node>
	<node lat="58.573402780173424" lon="7.9365444427775875" id="-25676">
		<tag k="name" v="Håland" />
		<tag k="place" v="locality" />
		<tag k="ssr:stedsnr" v="790759" />
	</node>
	<node lat="58.58977777749703" lon="7.87671667169812" id="-25695">
		<tag k="name" v="Øygarden" />
		<tag k="place" v="locality" />
		<tag k="ssr:stedsnr" v="821405" />
	</node>
	<node lat="58.604716662856426" lon="7.87941389745246" id="-25706">
		<tag k="name" v="Grenneshaugen" />
		<tag k="place" v="quarter" />
		<tag k="ssr:stedsnr" v="821504" />
	</node>
	<node lat="58.569708332404424" lon="7.831677782166768" id="-25733">
		<tag k="name" v="Bjørkevollen" />
		<tag k="place" v="farm" />
		<tag k="ssr:stedsnr" v="822368" />
	</node>
	<node lat="58.659641668728575" lon="7.754455558774072" id="-25754">
		<tag k="name" v="Otrahytta" />
		<tag k="place" v="isolated_dwelling" />
		<tag k="ssr:stedsnr" v="850586" />
	</node>
	<node lat="58.5883916684774" lon="7.796447228379675" id="-25757">
		<tag k="fixme" v="consider place=suburb, village or hamlet" />
		<tag k="name" v="Krossen" />
		<tag k="place" v="quarter" />
		<tag k="ssr:stedsnr" v="850728" />
	</node>
	<node lat="58.68903055471775" lon="7.677494450561743" id="-25766">
		<tag k="name" v="Nilsslåtti" />
		<tag k="place" v="locality" />
		<tag k="ssr:stedsnr" v="851203" />
	</node>
	<node lat="58.53257499890517" lon="7.752938889487112" id="-25781">
		<tag k="name" v="Svansehytta" />
		<tag k="place" v="isolated_dwelling" />
		<tag k="ssr:stedsnr" v="882110" />
	</node>
	<node lat="58.64351110761289" lon="7.7844333313218605" id="-25794">
		<tag k="name" v="Bakken" />
		<tag k="place" v="farm" />
		<tag k="ssr:stedsnr" v="882318" />
	</node>
	<node lat="58.63830277879091" lon="7.779705554976817" id="-25795">
		<tag k="name" v="Haugen" />
		<tag k="place" v="farm" />
		<tag k="ssr:stedsnr" v="882323" />
	</node>
	<node lat="58.541666668539065" lon="7.813861110575915" id="-25798">
		<tag k="name" v="Lisleøygard" />
		<tag k="place" v="locality" />
		<tag k="ssr:stedsnr" v="882208" />
	</node>
	<node lat="58.53815833518781" lon="7.680750003760457" id="-25848">
		<tag k="name" v="Lislevand" />
		<tag k="place" v="farm" />
		<tag k="ssr:stedsnr" v="882902" />
	</node>
	<node lat="58.658238887008416" lon="7.710525003331325" id="-25852">
		<tag k="alt_name" v="Skjerkestøl" />
		<tag k="name" v="Skjerkestøylen" />
		<tag k="place" v="locality" />
		<tag k="ssr:stedsnr" v="910150" />
	</node>
	<node lat="58.488402773849415" lon="7.775577776210817" id="-25854">
		<tag k="alt_name" v="Slettefet" />
		<tag k="name" v="Slettefit" />
		<tag k="place" v="farm" />
		<tag k="ssr:stedsnr" v="910210" />
	</node>
	<node lat="58.49277777539526" lon="7.7158833407617164" id="-25858">
		<tag k="fixme" v="consider place=hamlet" />
		<tag k="name" v="Haugland" />
		<tag k="place" v="farm" />
		<tag k="ssr:stedsnr" v="910591" />
	</node>
	<node lat="58.60575000007013" lon="7.860399991887768" id="-25865">
		<tag k="fixme" v="consider place=hamlet" />
		<tag k="name" v="Tveit" />
		<tag k="place" v="farm" />
		<tag k="ssr:stedsnr" v="911723" />
	</node>
	<node lat="58.601974998378644" lon="7.778291675010175" id="-25866">
		<tag k="fixme" v="consider place=hamlet" />
		<tag k="name" v="Ås" />
		<tag k="place" v="farm" />
		<tag k="ssr:stedsnr" v="911726" />
	</node>
	<node lat="58.604044446372875" lon="7.87624721518062" id="-25869">
		<tag k="alt_name" v="Flåt" />
		<tag k="fixme" v="consider place=hamlet" />
		<tag k="name" v="Flot" />
		<tag k="place" v="farm" />
		<tag k="ssr:stedsnr" v="911737" />
	</node>
	<node lat="58.603536992327314" lon="7.904529857675315" id="-25870">
		<tag k="fixme" v="consider place=hamlet" />
		<tag k="name" v="Åvesland" />
		<tag k="place" v="farm" />
		<tag k="ssr:stedsnr" v="911739" />
	</node>
	<node lat="58.58270833565106" lon="7.843580554170857" id="-25873">
		<tag k="fixme" v="consider place=hamlet" />
		<tag k="name" v="Åsland" />
		<tag k="place" v="farm" />
		<tag k="ssr:stedsnr" v="911755" />
	</node>
	<node lat="58.600591666836856" lon="8.095219446499536" id="-25879">
		<tag k="name" v="Hovlandssetra" />
=======
	<node id="-548324" lat="58.5950250041" lon="7.68800555902">
		<tag k="name" v="Soltonplassen" />
		<tag k="place" v="locality" />
		<tag k="ssr:stedsnr" v="639897" />
	</node>
	<node id="-545958" lat="58.6170611078" lon="7.72080832653">
		<tag k="name" v="Birkelandsøygard" />
		<tag k="place" v="isolated_dwelling" />
		<tag k="ssr:stedsnr" v="668568" />
	</node>
	<node id="-546786" lat="58.5881638899" lon="7.81412777952">
		<tag k="fixme" v="consider place=suburb, village or hamlet" />
		<tag k="name" v="Tingberget" />
		<tag k="place" v="quarter" />
		<tag k="ssr:stedsnr" v="943201" />
	</node>
	<node id="-548320" lat="58.4746222192" lon="7.71295000329">
		<tag k="name" v="Vetterhushytta" />
		<tag k="place" v="isolated_dwelling" />
		<tag k="ssr:stedsnr" v="639856" />
	</node>
	<node id="-547807" lat="58.6021972179" lon="7.92479445228">
		<tag k="name" v="Møygjelet" />
		<tag k="place" v="locality" />
		<tag k="ssr:stedsnr" v="364733" />
	</node>
	<node id="-547800" lat="58.5342333315" lon="7.78536943977">
		<tag k="name" v="Hestvåg" />
		<tag k="place" v="farm" />
		<tag k="ssr:stedsnr" v="364696" />
	</node>
	<node id="-545188" lat="58.6347499977" lon="7.98937222693">
		<tag k="fixme" v="consider place=hamlet" />
		<tag k="name" v="Raudstøl" />
		<tag k="place" v="farm" />
		<tag k="ssr:stedsnr" v="1561" />
	</node>
	<node id="-546262" lat="58.5325749989" lon="7.75293888949">
		<tag k="name" v="Svansehytta" />
		<tag k="place" v="isolated_dwelling" />
		<tag k="ssr:stedsnr" v="882110" />
	</node>
	<node id="-547795" lat="58.4867833301" lon="7.61389722927">
		<tag k="name" v="Abusdal" />
		<tag k="place" v="farm" />
		<tag k="ssr:stedsnr" v="364596" />
	</node>
	<node id="-547794" lat="58.4725444449" lon="7.609466674">
		<tag k="name" v="Abusland" />
		<tag k="place" v="farm" />
		<tag k="ssr:stedsnr" v="364593" />
	</node>
	<node id="-547791" lat="58.5033833371" lon="7.78183610848">
		<tag k="fixme" v="consider place=hamlet" />
		<tag k="name" v="Klepp" />
		<tag k="place" v="farm" />
		<tag k="ssr:stedsnr" v="364408" />
	</node>
	<node id="-545229" lat="58.5659416634" lon="7.86035000345">
		<tag k="fixme" v="consider place=hamlet" />
		<tag k="name" v="Kleggetveit" />
		<tag k="place" v="farm" />
		<tag k="ssr:stedsnr" v="244678" />
	</node>
	<node id="-545228" lat="58.5547305541" lon="7.8379916707">
		<tag k="fixme" v="consider place=hamlet" />
		<tag k="name" v="Lauvland" />
		<tag k="place" v="farm" />
		<tag k="ssr:stedsnr" v="244669" />
	</node>
	<node id="-545410" lat="58.652108337" lon="7.90515000048">
		<tag k="name" v="Selland" />
		<tag k="place" v="isolated_dwelling" />
		<tag k="ssr:stedsnr" v="243519" />
	</node>
	<node id="-546762" lat="58.6047222195" lon="7.90355554777">
		<tag k="name" v="Torsplass" />
		<tag k="place" v="locality" />
		<tag k="ssr:stedsnr" v="942735" />
	</node>
	<node id="-547785" lat="58.481830554" lon="7.78426388567">
		<tag k="name" v="Hodnemoen" />
		<tag k="place" v="farm" />
		<tag k="ssr:stedsnr" v="364233" />
	</node>
	<node id="-547784" lat="58.6497694408" lon="7.62020278344">
		<tag k="name" v="Rota" />
		<tag k="place" v="farm" />
		<tag k="ssr:stedsnr" v="364191" />
	</node>
	<node id="-547269" lat="58.578883337" lon="7.73062777658">
		<tag k="fixme" v="consider place=hamlet" />
		<tag k="name" v="Kallhovd" />
		<tag k="place" v="farm" />
		<tag k="ssr:stedsnr" v="122735" />
	</node>
	<node id="-546294" lat="58.6383027788" lon="7.77970555498">
		<tag k="name" v="Haugen" />
		<tag k="place" v="farm" />
		<tag k="ssr:stedsnr" v="882323" />
	</node>
	<node id="-547265" lat="58.5242777793" lon="7.78016667015">
		<tag k="name" v="Strømstad" />
		<tag k="place" v="farm" />
		<tag k="ssr:stedsnr" v="122651" />
	</node>
	<node id="-545215" lat="58.6048277767" lon="7.83151388356">
		<tag k="name" v="Evjeplassen" />
		<tag k="place" v="farm" />
		<tag k="ssr:stedsnr" v="243711" />
	</node>
	<node id="-545726" lat="58.5009638905" lon="7.76950278155">
		<tag k="fixme" v="consider place=hamlet" />
		<tag k="name" v="Moi" />
		<tag k="place" v="farm" />
		<tag k="ssr:stedsnr" v="396021" />
	</node>
	<node id="-546293" lat="58.6435111076" lon="7.78443333132">
		<tag k="name" v="Bakken" />
		<tag k="place" v="farm" />
		<tag k="ssr:stedsnr" v="882318" />
	</node>
	<node id="-548283" lat="58.5935916679" lon="7.80651111136">
		<tag k="name" v="Jåmyr" />
		<tag k="place" v="farm" />
		<tag k="ssr:stedsnr" v="639364" />
	</node>
	<node id="-546234" lat="58.6487194473" lon="7.86930556303">
		<tag k="name" v="Røynås" />
		<tag k="place" v="isolated_dwelling" />
		<tag k="ssr:stedsnr" v="668523" />
	</node>
	<node id="-545209" lat="58.6447527749" lon="7.61167222445">
		<tag k="alt_name" v="Dåsvatn, øvre" />
		<tag k="fixme" v="consider place=hamlet" />
		<tag k="name" v="Øvre Dåsvatn" />
		<tag k="place" v="farm" />
		<tag k="ssr:stedsnr" v="243144" />
	</node>
	<node id="-548280" lat="58.5782750028" lon="7.78616111538">
		<tag k="name" v="Grenaderen" />
		<tag k="ssr:stedsnr" v="639354" />
		<tag k="tourism" v="hotel" />
	</node>
	<node id="-546231" lat="58.4906472181" lon="7.72578334083">
		<tag k="fixme" v="consider place=hamlet" />
		<tag k="name" v="Sutestad" />
		<tag k="place" v="farm" />
		<tag k="ssr:stedsnr" v="667216" />
	</node>
	<node id="-545717" lat="58.5068166627" lon="7.76888056314">
		<tag k="fixme" v="consider place=hamlet" />
		<tag k="name" v="Moi" />
		<tag k="place" v="village" />
		<tag k="ssr:stedsnr" v="486449" />
	</node>
	<node id="-545204" lat="58.4623138849" lon="7.80074166999">
		<tag k="name" v="Hodneøya" />
		<tag k="place" v="farm" />
		<tag k="ssr:stedsnr" v="55171" />
	</node>
	<node id="-545715" lat="58.6517305562" lon="7.95326388775">
		<tag k="fixme" v="consider place=hamlet" />
		<tag k="name" v="Gautestad" />
		<tag k="place" v="village" />
		<tag k="ssr:stedsnr" v="486524" />
	</node>
	<node id="-548272" lat="58.5507305546" lon="7.73749722309">
		<tag k="name" v="Bærkjåsen" />
		<tag k="place" v="farm" />
		<tag k="ssr:stedsnr" v="639224" />
	</node>
	<node id="-547759" lat="58.5376361152" lon="7.68735555156">
		<tag k="name" v="Tveit sag" />
		<tag k="place" v="quarter" />
		<tag k="ssr:stedsnr" v="336908" />
	</node>
	<node id="-546222" lat="58.5642472191" lon="7.77155834015">
		<tag k="name" v="Dåsnes" />
		<tag k="place" v="village" />
		<tag k="ssr:stedsnr" v="729741" />
	</node>
	<node id="-546205" lat="58.5829555568" lon="7.86422778466">
		<tag k="fixme" v="consider place=hamlet" />
		<tag k="name" v="Haugen" />
		<tag k="place" v="farm" />
		<tag k="ssr:stedsnr" v="729759" />
	</node>
	<node id="-545707" lat="58.6510805572" lon="7.63777222633">
		<tag k="alt_name" v="Øksenskår" />
		<tag k="fixme" v="consider place=hamlet" />
		<tag k="name" v="Yksenskår" />
		<tag k="place" v="farm" />
		<tag k="ssr:stedsnr" v="485134" />
	</node>
	<node id="-546217" lat="58.5719527763" lon="7.76192222237">
		<tag k="name" v="Solheim" />
		<tag k="place" v="farm" />
		<tag k="ssr:stedsnr" v="638812" />
	</node>
	<node id="-546545" lat="58.6035388845" lon="7.90453055573">
		<tag k="fixme" v="consider place=hamlet" />
		<tag k="name" v="Åvesland" />
		<tag k="place" v="farm" />
		<tag k="ssr:stedsnr" v="911739" />
	</node>
	<node id="-546724" lat="58.6207666645" lon="7.92447499935">
		<tag k="historic" v="shieling" />
		<tag k="name" v="Døløygard" />
		<tag k="place" v="locality" />
		<tag k="ssr:stedsnr" v="942475" />
	</node>
	<node id="-547747" lat="58.4912888848" lon="7.71332500824">
		<tag k="name" v="Trolldalen" />
		<tag k="place" v="farm" />
		<tag k="ssr:stedsnr" v="336845" />
	</node>
	<node id="-548255" lat="58.6156444454" lon="7.95928055038">
		<tag k="historic" v="shieling" />
		<tag k="name" v="Hova" />
		<tag k="place" v="locality" />
		<tag k="ssr:stedsnr" v="638842" />
	</node>
	<node id="-546206" lat="58.5854833304" lon="8.05817499736">
		<tag k="alt_name" v="Nygard" />
		<tag k="name" v="Nygård" />
		<tag k="place" v="farm" />
		<tag k="ssr:stedsnr" v="729769" />
	</node>
	<node id="-545693" lat="58.7259444425" lon="7.65432222113">
		<tag k="name" v="Sindrebu" />
		<tag k="place" v="isolated_dwelling" />
		<tag k="ssr:stedsnr" v="336109" />
	</node>
	<node id="-546204" lat="58.579127777" lon="7.94340556052">
		<tag k="fixme" v="consider place=hamlet" />
		<tag k="name" v="Mykjåland" />
		<tag k="place" v="farm" />
		<tag k="ssr:stedsnr" v="729755" />
	</node>
	<node id="-546200" lat="58.6091138852" lon="7.88438889679">
		<tag k="name" v="Gåvoll" />
		<tag k="place" v="farm" />
		<tag k="ssr:stedsnr" v="729527" />
	</node>
	<node id="-547223" lat="58.5939444409" lon="7.67758889024">
		<tag k="name" v="Ytre Ås" />
		<tag k="place" v="locality" />
		<tag k="ssr:stedsnr" v="93841" />
	</node>
	<node id="-546192" lat="58.5171944421" lon="7.76558055622">
		<tag k="alt_name" v="Hannås, nedre" />
		<tag k="name" v="Hannås nedre" />
		<tag k="place" v="farm" />
		<tag k="ssr:stedsnr" v="729426" />
	</node>
	<node id="-548236" lat="58.6332416657" lon="7.9427111081">
		<tag k="historic" v="shieling" />
		<tag k="name" v="Reidal" />
		<tag k="place" v="locality" />
		<tag k="ssr:stedsnr" v="638512" />
	</node>
	<node id="-546695" lat="58.4715277755" lon="7.78946111334">
		<tag k="name" v="Reiet" />
		<tag k="place" v="farm" />
		<tag k="ssr:stedsnr" v="942004" />
	</node>
	<node id="-546635" lat="58.5897777775" lon="7.8767166717">
		<tag k="name" v="Øygarden" />
		<tag k="place" v="locality" />
		<tag k="ssr:stedsnr" v="821405" />
	</node>
	<node id="-546173" lat="58.5140777775" lon="7.85720555066">
		<tag k="alt_name" v="Li nedre" />
		<tag k="name" v="Li" />
		<tag k="place" v="farm" />
		<tag k="ssr:stedsnr" v="607417" />
	</node>
	<node id="-547818" lat="58.633288887" lon="7.94233889336">
		<tag k="name" v="Austerhusøygarden" />
		<tag k="place" v="isolated_dwelling" />
		<tag k="ssr:stedsnr" v="365550" />
	</node>
	<node id="-548216" lat="58.5491527784" lon="7.74024443692">
		<tag k="name" v="Ommundsplass" />
		<tag k="place" v="locality" />
		<tag k="ssr:stedsnr" v="638178" />
	</node>
	<node id="-546537" lat="58.5884555562" lon="7.78906666819">
		<tag k="name" v="Lia" />
		<tag k="place" v="farm" />
		<tag k="ssr:stedsnr" v="911702" />
	</node>
	<node id="-545650" lat="58.5426527805" lon="7.70089445205">
		<tag k="name" v="Krohei" />
		<tag k="place" v="farm" />
		<tag k="ssr:stedsnr" v="303972" />
	</node>
	<node id="-546673" lat="58.5697083324" lon="7.83167778217">
		<tag k="name" v="Bjørkevollen" />
		<tag k="place" v="farm" />
		<tag k="ssr:stedsnr" v="822368" />
	</node>
	<node id="-545647" lat="58.5981805545" lon="7.67001388886">
		<tag k="fixme" v="consider place=hamlet" />
		<tag k="name" v="Uleberg" />
		<tag k="place" v="farm" />
		<tag k="ssr:stedsnr" v="303856" />
	</node>
	<node id="-546154" lat="58.5956694454" lon="7.67376388918">
		<tag k="name" v="Heimre Ås" />
		<tag k="place" v="locality" />
		<tag k="ssr:stedsnr" v="578866" />
	</node>
	<node id="-547175" lat="58.6399999974" lon="7.58101388507">
		<tag k="name" v="Myrbu" />
		<tag k="place" v="locality" />
		<tag k="ssr:stedsnr" v="93610" />
	</node>
	<node id="-548198" lat="58.5266416701" lon="7.56793333879">
		<tag k="alt_name" v="Matkrona" />
		<tag k="name" v="Matkroni" />
		<tag k="place" v="farm" />
		<tag k="ssr:stedsnr" v="607987" />
	</node>
	<node id="-548196" lat="58.5824333335" lon="7.77802499452">
		<tag k="fixme" v="consider place=hamlet" />
		<tag k="name" v="Fennefoss" />
		<tag k="place" v="farm" />
		<tag k="ssr:stedsnr" v="607744" />
	</node>
	<node id="-548195" lat="58.5791694429" lon="7.84284166188">
		<tag k="name" v="Knapen" />
		<tag k="place" v="farm" />
		<tag k="ssr:stedsnr" v="607734" />
	</node>
	<node id="-548194" lat="58.5872833359" lon="8.07274443772">
		<tag k="fixme" v="consider place=hamlet" />
		<tag k="name" v="Hovland" />
		<tag k="place" v="farm" />
		<tag k="ssr:stedsnr" v="607719" />
	</node>
	<node id="-547166" lat="58.5781861085" lon="7.99049721594">
		<tag k="name" v="Øygarden" />
		<tag k="place" v="locality" />
		<tag k="ssr:stedsnr" v="93580" />
	</node>
	<node id="-547675" lat="58.5674861067" lon="7.76351110476">
		<tag k="amenity" v="school" />
		<tag k="name" v="Hornnes skule" />
		<tag k="ssr:stedsnr" v="335831" />
	</node>
	<node id="-546649" lat="58.6047166629" lon="7.87941389745">
		<tag k="name" v="Grenneshaugen" />
		<tag k="place" v="quarter" />
		<tag k="ssr:stedsnr" v="821504" />
	</node>
	<node id="-547160" lat="58.6313750035" lon="7.94611389219">
		<tag k="historic" v="shieling" />
		<tag k="name" v="Håstøl" />
		<tag k="place" v="locality" />
		<tag k="ssr:stedsnr" v="93562" />
	</node>
	<node id="-545622" lat="58.5673555568" lon="7.7690750085">
		<tag k="amenity" v="school" />
		<tag k="name" v="Hornnes gymnas" />
		<tag k="ssr:stedsnr" v="275805" />
	</node>
	<node id="-547668" lat="58.5791638854" lon="8.00159722391">
		<tag k="name" v="Gunnheim" />
		<tag k="place" v="isolated_dwelling" />
		<tag k="ssr:stedsnr" v="335681" />
	</node>
	<node id="-545762" lat="58.6039916634" lon="7.88603332804">
		<tag k="alt_name" v="Østerhus;Møkjåland" />
		<tag k="fixme" v="consider place=hamlet" />
		<tag k="name" v="Austerhus" />
		<tag k="place" v="farm" />
		<tag k="ssr:stedsnr" v="425732" />
	</node>
	<node id="-547658" lat="58.6139611074" lon="7.8874972251">
		<tag k="name" v="Persplass" />
		<tag k="place" v="locality" />
		<tag k="ssr:stedsnr" v="335551" />
	</node>
	<node id="-546121" lat="58.5719333375" lon="7.82751110354">
		<tag k="historic" v="shieling" />
		<tag k="name" v="Skaret" />
		<tag k="place" v="locality" />
		<tag k="ssr:stedsnr" v="578304" />
	</node>
	<node id="-547656" lat="58.5934916684" lon="7.84264166807">
		<tag k="name" v="Oddehagen" />
		<tag k="place" v="farm" />
		<tag k="ssr:stedsnr" v="335387" />
	</node>
	<node id="-547655" lat="58.6008833305" lon="7.90805833712">
		<tag k="name" v="Hagen" />
		<tag k="place" v="farm" />
		<tag k="ssr:stedsnr" v="335372" />
	</node>
	<node id="-545334" lat="58.4897083368" lon="7.7029694418">
		<tag k="fixme" v="consider place=hamlet" />
		<tag k="name" v="Espetveit" />
		<tag k="place" v="farm" />
		<tag k="ssr:stedsnr" v="182588" />
	</node>
	<node id="-547138" lat="58.5560694443" lon="7.8437083413">
		<tag k="name" v="Plassen" />
		<tag k="place" v="locality" />
		<tag k="ssr:stedsnr" v="93368" />
	</node>
	<node id="-548082" lat="58.5910222266" lon="7.82472499651">
		<tag k="name" v="Sindremoen" />
		<tag k="place" v="farm" />
		<tag k="ssr:stedsnr" v="578155" />
	</node>
	<node id="-547644" lat="58.6049388876" lon="7.83059721989">
		<tag k="name" v="Monen" />
		<tag k="place" v="farm" />
		<tag k="ssr:stedsnr" v="335298" />
	</node>
	<node id="-546616" lat="58.5734027802" lon="7.93654444278">
		<tag k="name" v="Håland" />
		<tag k="place" v="locality" />
		<tag k="ssr:stedsnr" v="790759" />
	</node>
	<node id="-546615" lat="58.5135444443" lon="7.83756667352">
		<tag k="name" v="Landsverk" />
		<tag k="place" v="farm" />
		<tag k="ssr:stedsnr" v="790406" />
	</node>
	<node id="-547485" lat="58.6008388931" lon="7.64330556251">
		<tag k="alt_name" v="Engen" />
		<tag k="name" v="Engin" />
		<tag k="place" v="farm" />
		<tag k="ssr:stedsnr" v="182850" />
	</node>
	<node id="-547636" lat="58.4682694414" lon="7.79382500739">
		<tag k="name" v="Kilefjorden camping" />
		<tag k="ssr:stedsnr" v="335001" />
		<tag k="tourism" v="camp_site" />
	</node>
	<node id="-547121" lat="58.6046805586" lon="7.74902499363">
		<tag k="name" v="Løa" />
		<tag k="place" v="locality" />
		<tag k="ssr:stedsnr" v="93206" />
	</node>
	<node id="-547631" lat="58.634577777" lon="7.67019166586">
		<tag k="name" v="Øygarden" />
		<tag k="place" v="locality" />
		<tag k="ssr:stedsnr" v="334958" />
	</node>
	<node id="-548652" lat="58.5206040197" lon="7.78139017517">
		<tag k="name" v="Strømland" />
		<tag k="place" v="farm" />
		<tag k="ssr:stedsnr" v="972966" />
	</node>
	<node id="-548651" lat="58.5248403652" lon="7.78149131055">
		<tag k="name" v="Straumsland" />
		<tag k="place" v="farm" />
		<tag k="ssr:stedsnr" v="972965" />
	</node>
	<node id="-548650" lat="58.523428142" lon="7.78868076482">
		<tag k="name" v="Nordstrøm" />
		<tag k="place" v="farm" />
		<tag k="ssr:stedsnr" v="972961" />
	</node>
	<node id="-548649" lat="58.6523707783" lon="7.95217742027">
		<tag k="fixme" v="consider place=hamlet" />
		<tag k="name" v="Gautestad" />
		<tag k="place" v="farm" />
		<tag k="ssr:stedsnr" v="971575" />
	</node>
	<node id="-548648" lat="58.5948817132" lon="7.86140357902">
		<tag k="fixme" v="consider place=hamlet" />
		<tag k="name" v="Nordre Landsverk" />
		<tag k="place" v="farm" />
		<tag k="ssr:stedsnr" v="971563" />
	</node>
	<node id="-548647" lat="58.51832369" lon="7.8542286526">
		<tag k="name" v="Li" />
		<tag k="place" v="hamlet" />
		<tag k="ssr:stedsnr" v="971549" />
	</node>
	<node id="-548646" lat="58.5138424901" lon="7.85558907628">
		<tag k="fixme" v="consider place=hamlet" />
		<tag k="name" v="Nedre Li" />
		<tag k="place" v="farm" />
		<tag k="ssr:stedsnr" v="971548" />
	</node>
	<node id="-548645" lat="58.5199086762" lon="7.85382994228">
		<tag k="fixme" v="consider place=hamlet" />
		<tag k="name" v="Øvre Li" />
		<tag k="place" v="farm" />
		<tag k="ssr:stedsnr" v="971547" />
	</node>
	<node id="-548644" lat="58.5126176299" lon="7.83922472302">
		<tag k="fixme" v="consider place=hamlet" />
		<tag k="name" v="Søndre Landsverk" />
		<tag k="place" v="farm" />
		<tag k="ssr:stedsnr" v="971543" />
	</node>
	<node id="-548643" lat="58.5317529659" lon="7.56819679816">
		<tag k="fixme" v="consider place=hamlet" />
		<tag k="name" v="Øvre Bjørnestøl" />
		<tag k="place" v="farm" />
		<tag k="ssr:stedsnr" v="971542" />
	</node>
	<node id="-548642" lat="58.5090378565" lon="7.55121162736">
		<tag k="fixme" v="consider place=hamlet" />
		<tag k="name" v="Monen" />
		<tag k="place" v="farm" />
		<tag k="ssr:stedsnr" v="971541" />
	</node>
	<node id="-548641" lat="58.5082885772" lon="7.56990058462">
		<tag k="fixme" v="consider place=hamlet" />
		<tag k="name" v="Bjørndal" />
		<tag k="place" v="farm" />
		<tag k="ssr:stedsnr" v="971539" />
	</node>
	<node id="-548640" lat="58.4857395631" lon="7.6075510676">
		<tag k="fixme" v="consider place=hamlet" />
		<tag k="name" v="Åpålsdal" />
		<tag k="place" v="farm" />
		<tag k="ssr:stedsnr" v="971537" />
	</node>
	<node id="-548639" lat="58.4730857829" lon="7.60451429064">
		<tag k="fixme" v="consider place=hamlet" />
		<tag k="name" v="Åpålsland" />
		<tag k="place" v="farm" />
		<tag k="ssr:stedsnr" v="971536" />
	</node>
	<node id="-548638" lat="58.5376923807" lon="7.68097625708">
		<tag k="name" v="Tveit" />
		<tag k="place" v="hamlet" />
		<tag k="ssr:stedsnr" v="971532" />
	</node>
	<node id="-548637" lat="58.5395655517" lon="7.67199816976">
		<tag k="fixme" v="consider place=hamlet" />
		<tag k="name" v="Vestre Tveit" />
		<tag k="place" v="farm" />
		<tag k="ssr:stedsnr" v="971530" />
	</node>
	<node id="-548636" lat="58.5363564113" lon="7.68500102836">
		<tag k="fixme" v="consider place=hamlet" />
		<tag k="name" v="Østre Tveit" />
		<tag k="place" v="farm" />
		<tag k="ssr:stedsnr" v="971529" />
	</node>
	<node id="-548635" lat="58.5435800574" lon="7.75984355529">
		<tag k="name" v="Ketilså" />
		<tag k="place" v="hamlet" />
		<tag k="ssr:stedsnr" v="971528" />
	</node>
	<node id="-548634" lat="58.5430592108" lon="7.76556145115">
		<tag k="fixme" v="consider place=hamlet" />
		<tag k="name" v="Øvre Ketilså" />
		<tag k="place" v="farm" />
		<tag k="ssr:stedsnr" v="971527" />
	</node>
	<node id="-548633" lat="58.544526899" lon="7.75806186642">
		<tag k="fixme" v="consider place=hamlet" />
		<tag k="name" v="Nedre Ketilså" />
		<tag k="place" v="farm" />
		<tag k="ssr:stedsnr" v="971525" />
	</node>
	<node id="-548632" lat="58.5555044506" lon="7.77474204579">
		<tag k="fixme" v="consider place=hamlet" />
		<tag k="name" v="Hornnes" />
		<tag k="place" v="farm" />
		<tag k="ssr:stedsnr" v="971524" />
	</node>
	<node id="-547607" lat="58.5488638904" lon="7.80756388096">
		<tag k="fixme" v="consider place=hamlet" />
		<tag k="name" v="Bjorå" />
		<tag k="place" v="farm" />
		<tag k="ssr:stedsnr" v="304641" />
	</node>
	<node id="-546070" lat="58.6365611098" lon="7.77689999804">
		<tag k="name" v="Trosevollen" />
		<tag k="place" v="farm" />
		<tag k="ssr:stedsnr" v="700390" />
	</node>
	<node id="-548629" lat="58.6005916668" lon="8.0952194465">
		<tag k="name" v="Hovlandssetra" />
		<tag k="place" v="locality" />
		<tag k="ssr:stedsnr" v="960494" />
	</node>
	<node id="-545555" lat="58.4905944471" lon="7.68835277077">
		<tag k="name" v="Mossebu" />
		<tag k="place" v="isolated_dwelling" />
		<tag k="ssr:stedsnr" v="457815" />
	</node>
	<node id="-547132" lat="58.6017250044" lon="7.83881944929">
		<tag k="name" v="Bakken" />
		<tag k="place" v="farm" />
		<tag k="ssr:stedsnr" v="93333" />
	</node>
	<node id="-547088" lat="58.5788805526" lon="7.95341110406">
		<tag k="fixme" v="consider place=hamlet" />
		<tag k="name" v="Kleveland" />
		<tag k="place" v="farm" />
		<tag k="ssr:stedsnr" v="62736" />
	</node>
	<node id="-547087" lat="58.5685805564" lon="7.86210555571">
		<tag k="fixme" v="consider place=hamlet" />
		<tag k="name" v="Kjebekk" />
		<tag k="place" v="farm" />
		<tag k="ssr:stedsnr" v="62657" />
	</node>
	<node id="-547597" lat="58.5208361117" lon="7.78490554975">
		<tag k="name" v="Strauman" />
		<tag k="place" v="farm" />
		<tag k="ssr:stedsnr" v="302494" />
	</node>
	<node id="-545182" lat="58.5044666626" lon="7.8231583367">
		<tag k="name" v="Stien" />
		<tag k="place" v="isolated_dwelling" />
		<tag k="ssr:stedsnr" v="401" />
	</node>
	<node id="-547594" lat="58.4884805518" lon="7.71949443884">
		<tag k="name" v="Bakkane" />
		<tag k="place" v="farm" />
		<tag k="ssr:stedsnr" v="215872" />
	</node>
	<node id="-546519" lat="58.5022249996" lon="7.73615832538">
		<tag k="fixme" v="consider place=hamlet" />
		<tag k="name" v="Tønnesland" />
		<tag k="place" v="farm" />
		<tag k="ssr:stedsnr" v="911433" />
	</node>
	<node id="-546567" lat="58.6020555526" lon="7.8923333299">
		<tag k="name" v="Sandane" />
		<tag k="place" v="locality" />
		<tag k="ssr:stedsnr" v="760430" />
	</node>
	<node id="-545591" lat="58.5591055528" lon="7.76349167172">
		<tag k="name" v="Birketveit" />
		<tag k="place" v="farm" />
		<tag k="ssr:stedsnr" v="275168" />
	</node>
	<node id="-546565" lat="58.5928555565" lon="7.93915555921">
		<tag k="name" v="Sukkestøl" />
		<tag k="place" v="locality" />
		<tag k="ssr:stedsnr" v="760425" />
	</node>
	<node id="-545843" lat="58.6212166701" lon="7.68436666131">
		<tag k="historic" v="shieling" />
		<tag k="name" v="Liestøl" />
		<tag k="place" v="locality" />
		<tag k="ssr:stedsnr" v="517947" />
	</node>
	<node id="-547074" lat="58.5037472201" lon="7.53070278301">
		<tag k="fixme" v="consider place=hamlet" />
		<tag k="name" v="Steinsland" />
		<tag k="place" v="farm" />
		<tag k="ssr:stedsnr" v="61891" />
	</node>
	<node id="-548609" lat="58.6890305547" lon="7.67749445056">
		<tag k="name" v="Nilsslåtti" />
>>>>>>> e1d4bc35ff8a6074a6f2e91616a996b547c36f15
		<tag k="place" v="locality" />
		<tag k="ssr:stedsnr" v="851203" />
	</node>
<<<<<<< HEAD
	<node lat="58.508288577249836" lon="7.5699005846171525" id="-25881">
		<tag k="fixme" v="consider place=hamlet" />
		<tag k="name" v="Bjørndal" />
		<tag k="place" v="farm" />
		<tag k="ssr:stedsnr" v="971539" />
	</node>
	<node lat="58.50903785649145" lon="7.551211627361281" id="-25882">
		<tag k="fixme" v="consider place=hamlet" />
		<tag k="name" v="Monen" />
		<tag k="place" v="farm" />
		<tag k="ssr:stedsnr" v="971541" />
	</node>
	<node lat="58.53175296585574" lon="7.568196798160244" id="-25883">
		<tag k="fixme" v="consider place=hamlet" />
		<tag k="name" v="Øvre Bjørnestøl" />
		<tag k="place" v="farm" />
		<tag k="ssr:stedsnr" v="971542" />
	</node>
	<node lat="58.51261762987122" lon="7.839224723023667" id="-25884">
		<tag k="fixme" v="consider place=hamlet" />
		<tag k="name" v="Søndre Landsverk" />
		<tag k="place" v="farm" />
		<tag k="ssr:stedsnr" v="971543" />
	</node>
	<node lat="58.51990867617765" lon="7.853829942281572" id="-25885">
		<tag k="fixme" v="consider place=hamlet" />
		<tag k="name" v="Øvre Li" />
		<tag k="place" v="farm" />
		<tag k="ssr:stedsnr" v="971547" />
	</node>
	<node lat="58.513842490132625" lon="7.855589076280133" id="-25886">
		<tag k="fixme" v="consider place=hamlet" />
		<tag k="name" v="Nedre Li" />
		<tag k="place" v="farm" />
		<tag k="ssr:stedsnr" v="971548" />
	</node>
	<node lat="58.51832368999938" lon="7.854228652604519" id="-25887">
		<tag k="name" v="Li" />
		<tag k="place" v="hamlet" />
		<tag k="ssr:stedsnr" v="971549" />
	</node>
	<node lat="58.59488171321022" lon="7.861403579015206" id="-25888">
		<tag k="fixme" v="consider place=hamlet" />
		<tag k="name" v="Nordre Landsverk" />
		<tag k="place" v="farm" />
		<tag k="ssr:stedsnr" v="971563" />
	</node>
	<node lat="58.65237077826256" lon="7.952177420269261" id="-25889">
		<tag k="fixme" v="consider place=hamlet" />
		<tag k="name" v="Gautestad" />
		<tag k="place" v="farm" />
		<tag k="ssr:stedsnr" v="971575" />
	</node>
	<node lat="58.62105278110708" lon="7.67747778560012" id="-25896">
		<tag k="alt_name" v="Krona" />
		<tag k="name" v="Kroni" />
		<tag k="place" v="isolated_dwelling" />
		<tag k="ssr:stedsnr" v="833" />
	</node>
	<node lat="58.63474999768899" lon="7.989372226932181" id="-25903">
		<tag k="fixme" v="consider place=hamlet" />
		<tag k="name" v="Raudstøl" />
		<tag k="place" v="farm" />
		<tag k="ssr:stedsnr" v="1561" />
	</node>
	<node lat="58.58234166442436" lon="7.973355553184024" id="-25905">
		<tag k="fixme" v="consider place=hamlet" />
		<tag k="name" v="Håtveit" />
		<tag k="place" v="farm" />
		<tag k="ssr:stedsnr" v="1747" />
	</node>
	<node lat="58.575986109734735" lon="7.838441661989797" id="-26017">
		<tag k="fixme" v="consider place=hamlet" />
		<tag k="name" v="Galteland" />
		<tag k="place" v="farm" />
		<tag k="ssr:stedsnr" v="61711" />
	</node>
	<node lat="58.572236108885214" lon="7.863716670092557" id="-26018">
		<tag k="fixme" v="consider place=hamlet" />
		<tag k="name" v="Åmland" />
		<tag k="place" v="farm" />
		<tag k="ssr:stedsnr" v="61712" />
	</node>
	<node lat="58.58642222125897" lon="8.068102777941071" id="-26019">
		<tag k="fixme" v="consider place=hamlet" />
		<tag k="name" v="Ljosland" />
		<tag k="place" v="farm" />
		<tag k="ssr:stedsnr" v="61714" />
	</node>
	<node lat="58.56858055644447" lon="7.862105555709503" id="-26028">
		<tag k="fixme" v="consider place=hamlet" />
		<tag k="name" v="Kjebekk" />
		<tag k="place" v="farm" />
		<tag k="ssr:stedsnr" v="62657" />
	</node>
	<node lat="58.578880552558125" lon="7.953411104062193" id="-26029">
		<tag k="fixme" v="consider place=hamlet" />
		<tag k="name" v="Kleveland" />
		<tag k="place" v="farm" />
		<tag k="ssr:stedsnr" v="62736" />
	</node>
	<node lat="58.60172500438537" lon="7.838819449290583" id="-26058">
		<tag k="name" v="Bakken" />
		<tag k="place" v="farm" />
		<tag k="ssr:stedsnr" v="93333" />
	</node>
	<node lat="58.59394444090162" lon="7.6775888902431655" id="-26097">
		<tag k="name" v="Ytre Ås" />
		<tag k="place" v="locality" />
		<tag k="ssr:stedsnr" v="93841" />
	</node>
	<node lat="58.578883337003745" lon="7.73062777658454" id="-26114">
		<tag k="fixme" v="consider place=hamlet" />
		<tag k="name" v="Kallhovd" />
		<tag k="place" v="farm" />
		<tag k="ssr:stedsnr" v="122735" />
	</node>
	<node lat="58.68018888502106" lon="7.659036109510776" id="-26117">
		<tag k="fixme" v="consider place=hamlet" />
		<tag k="name" v="Vetrhus" />
		<tag k="place" v="farm" />
		<tag k="ssr:stedsnr" v="122192" />
	</node>
	<node lat="58.61596388554111" lon="8.09926111325194" id="-26118">
		<tag k="name" v="Kvittjørnøygarden" />
		<tag k="place" v="locality" />
		<tag k="ssr:stedsnr" v="122367" />
	</node>
	<node lat="58.524277779317956" lon="7.780166670147377" id="-26121">
		<tag k="name" v="Strømstad" />
		<tag k="place" v="farm" />
		<tag k="ssr:stedsnr" v="122651" />
	</node>
	<node lat="58.604761111317075" lon="7.979683329554844" id="-26161">
		<tag k="historic" v="shieling" />
		<tag k="name" v="Styggedalen" />
		<tag k="place" v="isolated_dwelling" />
		<tag k="ssr:stedsnr" v="153883" />
	</node>
	<node lat="58.551222221971514" lon="7.751263897322735" id="-26188">
		<tag k="name" v="Hasseldalen" />
		<tag k="place" v="farm" />
		<tag k="ssr:stedsnr" v="154295" />
	</node>
	<node lat="58.61588888720038" lon="7.7378916724938795" id="-26192">
		<tag k="name" v="Bakkeøygard" />
		<tag k="place" v="locality" />
		<tag k="ssr:stedsnr" v="154368" />
	</node>
	<node lat="58.60036389258614" lon="7.83369443834182" id="-26199">
		<tag k="fixme" v="consider place=hamlet" />
		<tag k="name" v="Evje prestegard" />
		<tag k="place" v="farm" />
		<tag k="ssr:stedsnr" v="154422" />
	</node>
	<node lat="58.54114444146098" lon="7.674444445021964" id="-26228">
		<tag k="name" v="Huset" />
		<tag k="place" v="farm" />
		<tag k="ssr:stedsnr" v="154933" />
	</node>
	<node lat="58.51652222593347" lon="7.763905558048801" id="-26246">
		<tag k="fixme" v="consider place=hamlet" />
		<tag k="name" v="Hannås" />
		<tag k="place" v="farm" />
		<tag k="ssr:stedsnr" v="173294" />
	</node>
	<node lat="58.47446666893982" lon="7.785375006200135" id="-26247">
		<tag k="name" v="Vestre Hodne" />
		<tag k="place" v="farm" />
		<tag k="ssr:stedsnr" v="176187" />
	</node>
	<node lat="58.59398142663065" lon="7.630957104532016" id="-26253">
		<tag k="name" v="Hova" />
		<tag k="place" v="locality" />
		<tag k="ssr:stedsnr" v="182731" />
	</node>
	<node lat="58.472794446316726" lon="7.631850000954949" id="-26254">
		<tag k="fixme" v="consider place=hamlet" />
		<tag k="name" v="Kalland" />
		<tag k="place" v="farm" />
		<tag k="ssr:stedsnr" v="182576" />
	</node>
	<node lat="58.48970833675419" lon="7.702969441800627" id="-26256">
		<tag k="fixme" v="consider place=hamlet" />
		<tag k="name" v="Espetveit" />
		<tag k="place" v="farm" />
		<tag k="ssr:stedsnr" v="182588" />
	</node>
	<node lat="58.51992500414073" lon="7.560930562715651" id="-26258">
		<tag k="name" v="Gåseflå" />
		<tag k="place" v="farm" />
		<tag k="ssr:stedsnr" v="182872" />
	</node>
	<node lat="58.63963055679544" lon="7.84915000028167" id="-26266">
		<tag k="alt_name" v="Heimstøl" />
		<tag k="name" v="Heimstølen" />
		<tag k="place" v="isolated_dwelling" />
		<tag k="ssr:stedsnr" v="183465" />
	</node>
	<node lat="58.661158513246086" lon="7.797061625674413" id="-26268">
		<tag k="name" v="Sennummoen" />
		<tag k="place" v="farm" />
		<tag k="ssr:stedsnr" v="183577" />
	</node>
	<node lat="58.665061112326306" lon="7.787830562833872" id="-26269">
		<tag k="name" v="Gullsmedmoen" />
		<tag k="place" v="farm" />
		<tag k="ssr:stedsnr" v="183579" />
	</node>
	<node lat="58.539166668261466" lon="7.672658339371402" id="-26272">
		<tag k="name" v="Øygarden" />
		<tag k="place" v="farm" />
		<tag k="ssr:stedsnr" v="183964" />
	</node>
	<node lat="58.58202222274796" lon="7.984652782470755" id="-26273">
		<tag k="fixme" v="consider place=hamlet" />
		<tag k="name" v="Lislevann" />
		<tag k="place" v="farm" />
		<tag k="ssr:stedsnr" v="183751" />
	</node>
	<node lat="58.58006944722705" lon="7.84326388036108" id="-26284">
		<tag k="name" v="Plassen" />
		<tag k="place" v="locality" />
		<tag k="ssr:stedsnr" v="214401" />
	</node>
	<node lat="58.602613889969724" lon="7.71211945082165" id="-26309">
		<tag k="name" v="Toddelunden" />
		<tag k="place" v="isolated_dwelling" />
		<tag k="ssr:stedsnr" v="214953" />
	</node>
	<node lat="58.559105552835724" lon="7.763491671719443" id="-26365">
		<tag k="name" v="Birketveit" />
		<tag k="place" v="farm" />
		<tag k="ssr:stedsnr" v="275168" />
	</node>
	<node lat="58.581361115112884" lon="7.9913583277640505" id="-26394">
		<tag k="name" v="Glopstad" />
		<tag k="place" v="locality" />
		<tag k="ssr:stedsnr" v="275638" />
	</node>
	<node lat="58.56735555682214" lon="7.769075008495267" id="-26417">
		<tag k="amenity" v="school" />
		<tag k="name" v="Hornnes gymnas" />
		<tag k="ssr:stedsnr" v="275805" />
	</node>
	<node lat="58.5208361117105" lon="7.784905549749922" id="-26444">
		<tag k="name" v="Strauman" />
		<tag k="place" v="farm" />
		<tag k="ssr:stedsnr" v="302494" />
	</node>
	<node lat="58.54265278049897" lon="7.700894452052307" id="-26448">
		<tag k="name" v="Krohei" />
		<tag k="place" v="farm" />
		<tag k="ssr:stedsnr" v="303972" />
	</node>
	<node lat="58.59818055448803" lon="7.670013888862334" id="-26449">
		<tag k="fixme" v="consider place=hamlet" />
		<tag k="name" v="Uleberg" />
		<tag k="place" v="farm" />
		<tag k="ssr:stedsnr" v="303856" />
	</node>
	<node lat="58.634716663399054" lon="7.82018056264957" id="-26453">
		<tag k="fixme" v="consider place=hamlet" />
		<tag k="name" v="Syrtveit" />
=======
	<node id="-546560" lat="58.6522305569" lon="7.7020027809">
		<tag k="landuse" v="aquaculture" />
		<tag k="name" v="Teinelaget" />
		<tag k="ssr:stedsnr" v="760084" />
	</node>
	<node id="-547070" lat="58.5796361071" lon="7.89499166842">
		<tag k="name" v="Bjorland" />
		<tag k="place" v="isolated_dwelling" />
		<tag k="ssr:stedsnr" v="61725" />
	</node>
	<node id="-547069" lat="58.5864222213" lon="8.06810277794">
		<tag k="fixme" v="consider place=hamlet" />
		<tag k="name" v="Ljosland" />
		<tag k="place" v="farm" />
		<tag k="ssr:stedsnr" v="61714" />
	</node>
	<node id="-547068" lat="58.5722361089" lon="7.86371667009">
		<tag k="fixme" v="consider place=hamlet" />
		<tag k="name" v="Åmland" />
		<tag k="place" v="farm" />
		<tag k="ssr:stedsnr" v="61712" />
	</node>
	<node id="-547067" lat="58.5759861097" lon="7.83844166199">
		<tag k="fixme" v="consider place=hamlet" />
		<tag k="name" v="Galteland" />
		<tag k="place" v="farm" />
		<tag k="ssr:stedsnr" v="61711" />
	</node>
	<node id="-547065" lat="58.5978638909" lon="7.82734167425">
		<tag k="fixme" v="consider place=hamlet" />
		<tag k="name" v="Kyrkjebygda" />
		<tag k="place" v="village" />
		<tag k="ssr:stedsnr" v="61696" />
	</node>
	<node id="-546119" lat="58.6672777734" lon="7.71398332673">
		<tag k="name" v="Holtøygard" />
		<tag k="place" v="locality" />
		<tag k="ssr:stedsnr" v="578096" />
	</node>
	<node id="-546548" lat="58.5827083357" lon="7.84358055417">
		<tag k="fixme" v="consider place=hamlet" />
		<tag k="name" v="Åsland" />
		<tag k="place" v="farm" />
		<tag k="ssr:stedsnr" v="911755" />
	</node>
	<node id="-548594" lat="58.5883916685" lon="7.79644722838">
		<tag k="fixme" v="consider place=suburb, village or hamlet" />
		<tag k="name" v="Krossen" />
		<tag k="place" v="quarter" />
		<tag k="ssr:stedsnr" v="850728" />
	</node>
	<node id="-548081" lat="58.5858055597" lon="7.80891945011">
		<tag k="name" v="Grenjå" />
		<tag k="place" v="quarter" />
		<tag k="ssr:stedsnr" v="578153" />
	</node>
	<node id="-548592" lat="58.5814916661" lon="7.85843610922">
		<tag k="name" v="Lund" />
		<tag k="place" v="farm" />
		<tag k="ssr:stedsnr" v="850722" />
	</node>
	<node id="-546541" lat="58.6019749984" lon="7.77829167501">
		<tag k="fixme" v="consider place=hamlet" />
		<tag k="name" v="Ås" />
		<tag k="place" v="farm" />
		<tag k="ssr:stedsnr" v="911726" />
	</node>
	<node id="-548076" lat="58.5023277762" lon="7.76486665866">
		<tag k="name" v="Stakkegården" />
		<tag k="place" v="locality" />
		<tag k="ssr:stedsnr" v="578033" />
	</node>
	<node id="-548586" lat="58.6596416687" lon="7.75445555877">
		<tag k="name" v="Otrahytta" />
		<tag k="place" v="isolated_dwelling" />
		<tag k="ssr:stedsnr" v="850586" />
	</node>
	<node id="-548585" lat="58.6144083374" lon="7.95542500079">
		<tag k="fixme" v="consider place=hamlet" />
		<tag k="name" v="Kleppsland" />
		<tag k="place" v="farm" />
		<tag k="ssr:stedsnr" v="850539" />
	</node>
	<node id="-546536" lat="58.5942555538" lon="7.86163333128">
		<tag k="name" v="Landsverk" />
		<tag k="place" v="locality" />
		<tag k="ssr:stedsnr" v="911697" />
	</node>
	<node id="-546544" lat="58.6040444464" lon="7.87624721518">
		<tag k="alt_name" v="Flåt" />
		<tag k="fixme" v="consider place=hamlet" />
		<tag k="name" v="Flot" />
		<tag k="place" v="farm" />
		<tag k="ssr:stedsnr" v="911737" />
	</node>
	<node id="-546534" lat="58.5581777771" lon="7.77192500477">
		<tag k="fixme" v="consider place=hamlet" />
		<tag k="name" v="Faret" />
		<tag k="place" v="farm" />
		<tag k="ssr:stedsnr" v="911669" />
	</node>
	<node id="-546528" lat="58.6112277778" lon="7.72868332853">
		<tag k="name" v="Brenne" />
		<tag k="place" v="locality" />
		<tag k="ssr:stedsnr" v="911551" />
	</node>
	<node id="-546050" lat="58.6060000006" lon="7.89726945259">
		<tag k="name" v="Åsen" />
		<tag k="place" v="farm" />
		<tag k="ssr:stedsnr" v="699701" />
	</node>
	<node id="-545709" lat="58.588772226" lon="7.70773610841">
		<tag k="name" v="Støylen" />
		<tag k="place" v="farm" />
		<tag k="ssr:stedsnr" v="485705" />
	</node>
	<node id="-546525" lat="58.6534500027" lon="7.8035194467">
		<tag k="alt_name" v="Steane" />
		<tag k="name" v="Stean" />
		<tag k="place" v="farm" />
		<tag k="ssr:stedsnr" v="911520" />
	</node>
	<node id="-548060" lat="58.5385555567" lon="7.67521667123">
		<tag k="name" v="Tveit" />
		<tag k="place" v="farm" />
		<tag k="ssr:stedsnr" v="547977" />
	</node>
	<node id="-546521" lat="58.519608329" lon="7.85491388589">
		<tag k="alt_name" v="Li Øvre" />
		<tag k="name" v="Li" />
		<tag k="place" v="farm" />
		<tag k="ssr:stedsnr" v="911438" />
	</node>
	<node id="-547544" lat="58.60261389" lon="7.71211945082">
		<tag k="name" v="Toddelunden" />
		<tag k="place" v="isolated_dwelling" />
		<tag k="ssr:stedsnr" v="214953" />
	</node>
	<node id="-547620" lat="58.5820611118" lon="8.04785556318">
		<tag k="fixme" v="consider place=hamlet" />
		<tag k="name" v="Myklebostad" />
		<tag k="place" v="farm" />
		<tag k="ssr:stedsnr" v="304764" />
	</node>
	<node id="-546517" lat="58.6696472199" lon="7.63016944977">
		<tag k="name" v="Øygarden" />
		<tag k="place" v="locality" />
		<tag k="ssr:stedsnr" v="911177" />
	</node>
	<node id="-546003" lat="58.5843694451" lon="8.08326666258">
		<tag k="alt_name" v="Lisletveit" />
		<tag k="name" v="Lilletveit" />
		<tag k="place" v="farm" />
		<tag k="ssr:stedsnr" v="486741" />
	</node>
	<node id="-546002" lat="58.571038889" lon="7.8357499997">
		<tag k="fixme" v="consider place=hamlet" />
		<tag k="name" v="Rosseland" />
		<tag k="place" v="farm" />
		<tag k="ssr:stedsnr" v="486734" />
	</node>
	<node id="-546000" lat="58.5948027772" lon="7.80011943592">
		<tag k="fixme" v="consider place=hamlet" />
		<tag k="name" v="Birkeland" />
		<tag k="place" v="farm" />
		<tag k="ssr:stedsnr" v="486713" />
	</node>
	<node id="-545999" lat="58.5970749964" lon="7.84235555452">
		<tag k="fixme" v="consider place=hamlet" />
		<tag k="name" v="Odde" />
		<tag k="place" v="farm" />
		<tag k="ssr:stedsnr" v="486710" />
	</node>
	<node id="-546237" lat="58.6091361076" lon="7.95563332982">
		<tag k="alt_name" v="Prestøygard" />
		<tag k="name" v="Prestøygarden" />
		<tag k="place" v="farm" />
		<tag k="ssr:stedsnr" v="668546" />
	</node>
	<node id="-548044" lat="58.6264055518" lon="7.62273332952">
		<tag k="alt_name" v="Dåsvatn, yt" />
		<tag k="fixme" v="consider place=hamlet" />
		<tag k="name" v="Ytre Dåsvatn" />
		<tag k="place" v="farm" />
		<tag k="ssr:stedsnr" v="546805" />
	</node>
	<node id="-545481" lat="58.5913611108" lon="7.86165833147">
		<tag k="name" v="Landsverkplassen" />
		<tag k="place" v="farm" />
		<tag k="ssr:stedsnr" v="457382" />
	</node>
	<node id="-548040" lat="58.6008388847" lon="7.95478054775">
		<tag k="alt_name" v="Storøygard" />
		<tag k="name" v="Storøygarden" />
		<tag k="place" v="isolated_dwelling" />
		<tag k="ssr:stedsnr" v="546683" />
	</node>
	<node id="-546503" lat="58.4927777754" lon="7.71588334076">
		<tag k="fixme" v="consider place=hamlet" />
		<tag k="name" v="Haugland" />
		<tag k="place" v="farm" />
		<tag k="ssr:stedsnr" v="910591" />
	</node>
	<node id="-547617" lat="58.5757499993" lon="7.7509000034">
		<tag k="alt_name" v="Jordtveit" />
		<tag k="fixme" v="consider place=hamlet" />
		<tag k="name" v="Jortveit" />
		<tag k="place" v="farm" />
		<tag k="ssr:stedsnr" v="304745" />
	</node>
	<node id="-545988" lat="58.6280666679" lon="7.63917777041">
		<tag k="name" v="Krossen" />
		<tag k="place" v="isolated_dwelling" />
		<tag k="ssr:stedsnr" v="485799" />
	</node>
	<node id="-547523" lat="58.5800694472" lon="7.84326388036">
		<tag k="name" v="Plassen" />
		<tag k="place" v="locality" />
		<tag k="ssr:stedsnr" v="214401" />
	</node>
	<node id="-548034" lat="58.6076916631" lon="7.96562499179">
		<tag k="name" v="Åsen" />
		<tag k="place" v="farm" />
		<tag k="ssr:stedsnr" v="546495" />
	</node>
	<node id="-546497" lat="58.658238887" lon="7.71052500333">
		<tag k="alt_name" v="Skjerkestøl" />
		<tag k="name" v="Skjerkestøylen" />
		<tag k="place" v="locality" />
		<tag k="ssr:stedsnr" v="910150" />
	</node>
	<node id="-545470" lat="58.5915722254" lon="7.79992221514">
		<tag k="name" v="Bakken" />
		<tag k="place" v="farm" />
		<tag k="ssr:stedsnr" v="457315" />
	</node>
	<node id="-546490" lat="58.6973972251" lon="7.6700694522">
		<tag k="name" v="Kjåkedal" />
		<tag k="place" v="isolated_dwelling" />
		<tag k="ssr:stedsnr" v="729209" />
	</node>
	<node id="-545465" lat="58.6394388913" lon="7.77615000234">
		<tag k="name" v="Ospelunden" />
		<tag k="place" v="farm" />
		<tag k="ssr:stedsnr" v="457289" />
	</node>
	<node id="-545976" lat="58.5153472241" lon="7.71450277478">
		<tag k="fixme" v="consider place=hamlet" />
		<tag k="name" v="Li" />
		<tag k="place" v="farm" />
		<tag k="ssr:stedsnr" v="668877" />
	</node>
	<node id="-545225" lat="58.6407499977" lon="7.96701388802">
		<tag k="fixme" v="consider place=hamlet" />
		<tag k="name" v="Lauvås" />
		<tag k="place" v="farm" />
		<tag k="ssr:stedsnr" v="244594" />
	</node>
	<node id="-545972" lat="58.5729416644" lon="7.76325833241">
		<tag k="name" v="Varmedokka" />
		<tag k="place" v="farm" />
		<tag k="ssr:stedsnr" v="668750" />
	</node>
	<node id="-548019" lat="58.538380554" lon="7.67306666764">
		<tag k="alt_name" v="Nygård" />
		<tag k="name" v="Nygard" />
		<tag k="place" v="farm" />
		<tag k="ssr:stedsnr" v="426974" />
	</node>
	<node id="-545970" lat="58.5803999956" lon="7.86175000523">
		<tag k="fixme" v="consider place=hamlet" />
		<tag k="name" v="Åneland" />
		<tag k="place" v="farm" />
		<tag k="ssr:stedsnr" v="668743" />
	</node>
	<node id="-547505" lat="58.5391666683" lon="7.67265833937">
		<tag k="name" v="Øygarden" />
>>>>>>> e1d4bc35ff8a6074a6f2e91616a996b547c36f15
		<tag k="place" v="farm" />
		<tag k="ssr:stedsnr" v="304493" />
	</node>
<<<<<<< HEAD
	<node lat="58.54886389039288" lon="7.807563880959034" id="-26455">
		<tag k="fixme" v="consider place=hamlet" />
		<tag k="name" v="Bjorå" />
		<tag k="place" v="farm" />
		<tag k="ssr:stedsnr" v="304641" />
	</node>
	<node lat="58.575749999327485" lon="7.750900003398164" id="-26461">
		<tag k="alt_name" v="Jordtveit" />
		<tag k="fixme" v="consider place=hamlet" />
		<tag k="name" v="Jortveit" />
		<tag k="place" v="farm" />
		<tag k="ssr:stedsnr" v="304745" />
	</node>
	<node lat="58.582061111812656" lon="8.047855563175919" id="-26464">
		<tag k="fixme" v="consider place=hamlet" />
		<tag k="name" v="Myklebostad" />
		<tag k="place" v="farm" />
		<tag k="ssr:stedsnr" v="304764" />
	</node>
	<node lat="58.579325891058" lon="8.001482735026082" id="-26484">
		<tag k="name" v="Gunnheim" />
		<tag k="place" v="isolated_dwelling" />
		<tag k="ssr:stedsnr" v="335681" />
	</node>
	<node lat="58.63457777697242" lon="7.67019166585683" id="-26488">
		<tag k="name" v="Øygarden" />
		<tag k="place" v="locality" />
		<tag k="ssr:stedsnr" v="334958" />
	</node>
	<node lat="58.60088333046543" lon="7.908058337123536" id="-26501">
		<tag k="name" v="Hagen" />
		<tag k="place" v="farm" />
		<tag k="ssr:stedsnr" v="335372" />
	</node>
	<node lat="58.593491668436336" lon="7.8426416680691435" id="-26502">
		<tag k="name" v="Oddehagen" />
		<tag k="place" v="farm" />
		<tag k="ssr:stedsnr" v="335387" />
	</node>
	<node lat="58.56748610667045" lon="7.763511104759513" id="-26522">
		<tag k="amenity" v="school" />
		<tag k="name" v="Hornnes skule" />
		<tag k="ssr:stedsnr" v="335831" />
	</node>
	<node lat="58.47186111416983" lon="7.788088885675229" id="-26597">
		<tag k="name" v="Hodnesund" />
		<tag k="place" v="farm" />
		<tag k="ssr:stedsnr" v="358167" />
	</node>
	<node lat="58.64976944079528" lon="7.62020278343873" id="-26602">
		<tag k="name" v="Rota" />
		<tag k="place" v="farm" />
		<tag k="ssr:stedsnr" v="364191" />
	</node>
	<node lat="58.481830553959774" lon="7.784263885669066" id="-26605">
		<tag k="name" v="Hodnemoen" />
		<tag k="place" v="farm" />
		<tag k="ssr:stedsnr" v="364233" />
	</node>
	<node lat="58.53423333147595" lon="7.785369439770749" id="-26609">
		<tag k="name" v="Hestvåg" />
		<tag k="place" v="farm" />
		<tag k="ssr:stedsnr" v="364696" />
	</node>
	<node lat="58.602197217895814" lon="7.924794452279614" id="-26615">
		<tag k="name" v="Møygjelet" />
		<tag k="place" v="locality" />
		<tag k="ssr:stedsnr" v="364733" />
	</node>
	<node lat="58.47254444494707" lon="7.6094666740027455" id="-26616">
		<tag k="name" v="Abusland" />
		<tag k="place" v="farm" />
		<tag k="ssr:stedsnr" v="364593" />
	</node>
	<node lat="58.48678333008187" lon="7.613897229266499" id="-26617">
		<tag k="name" v="Abusdal" />
		<tag k="place" v="farm" />
		<tag k="ssr:stedsnr" v="364596" />
	</node>
	<node lat="58.5637249998924" lon="7.783699999489014" id="-26627">
		<tag k="landuse" v="military" />
		<tag k="name" v="Evjemoen" />
		<tag k="ssr:stedsnr" v="365655" />
	</node>
	<node lat="58.58298619348312" lon="7.881974735685401" id="-26631">
		<tag k="name" v="Folefallet" />
		<tag k="place" v="locality" />
		<tag k="ssr:stedsnr" v="365761" />
	</node>
	<node lat="58.65470833258639" lon="7.71414722626205" id="-26650">
		<tag k="historic" v="shieling" />
		<tag k="name" v="Furestøl" />
		<tag k="place" v="isolated_dwelling" />
		<tag k="ssr:stedsnr" v="396076" />
	</node>
	<node lat="58.557122224485525" lon="7.7728444486089" id="-26655">
		<tag k="name" v="Haugen" />
		<tag k="place" v="farm" />
		<tag k="ssr:stedsnr" v="396159" />
	</node>
	<node lat="58.54815833215435" lon="7.755144447998331" id="-26658">
		<tag k="name" v="Breistøl" />
		<tag k="place" v="farm" />
		<tag k="ssr:stedsnr" v="396174" />
	</node>
	<node lat="58.500963890517006" lon="7.769502781550169" id="-26659">
		<tag k="fixme" v="consider place=hamlet" />
		<tag k="name" v="Moi" />
		<tag k="place" v="farm" />
		<tag k="ssr:stedsnr" v="396021" />
	</node>
	<node lat="58.640519447544435" lon="7.778272228796228" id="-26666">
		<tag k="name" v="Lunden" />
		<tag k="place" v="farm" />
		<tag k="ssr:stedsnr" v="396275" />
	</node>
	<node lat="58.637691669171765" lon="7.849258337622988" id="-26702">
		<tag k="name" v="Kråkestølane" />
		<tag k="place" v="locality" />
		<tag k="ssr:stedsnr" v="396563" />
	</node>
	<node lat="58.606894445750704" lon="7.695833331196342" id="-26729">
		<tag k="name" v="Rysebu" />
		<tag k="place" v="isolated_dwelling" />
		<tag k="ssr:stedsnr" v="396931" />
	</node>
	<node lat="58.66915833349978" lon="7.7858444359232815" id="-26736">
		<tag k="fixme" v="consider place=hamlet" />
		<tag k="name" v="Senum" />
		<tag k="place" v="farm" />
		<tag k="ssr:stedsnr" v="425586" />
	</node>
	<node lat="58.60399166341316" lon="7.8860333280379" id="-26742">
		<tag k="alt_name" v="Østerhus;Møkjåland" />
		<tag k="fixme" v="consider place=hamlet" />
		<tag k="name" v="Austerhus" />
		<tag k="place" v="farm" />
		<tag k="ssr:stedsnr" v="425732" />
	</node>
	<node lat="58.598258329931255" lon="7.666361112533457" id="-26747">
		<tag k="name" v="Kvasshommen" />
		<tag k="place" v="farm" />
		<tag k="ssr:stedsnr" v="425866" />
	</node>
	<node lat="58.58311944053326" lon="7.917491663028659" id="-26754">
		<tag k="fixme" v="consider place=hamlet" />
		<tag k="name" v="Undeland" />
		<tag k="place" v="farm" />
		<tag k="ssr:stedsnr" v="426755" />
	</node>
	<node lat="58.61524389507851" lon="7.807340016972618" id="-26773">
		<tag k="name" v="Myrane" />
		<tag k="place" v="farm" />
		<tag k="ssr:stedsnr" v="517226" />
	</node>
	<node lat="58.57923055678274" lon="7.842738881747033" id="-26781">
		<tag k="name" v="Solli" />
		<tag k="place" v="farm" />
		<tag k="ssr:stedsnr" v="517395" />
	</node>
	<node lat="58.63487222181514" lon="7.9893138863977455" id="-26799">
		<tag k="name" v="Stuverød" />
		<tag k="place" v="farm" />
		<tag k="ssr:stedsnr" v="517680" />
	</node>
	<node lat="58.62121667014024" lon="7.684366661314239" id="-26817">
		<tag k="historic" v="shieling" />
		<tag k="name" v="Liestøl" />
		<tag k="place" v="isolated_dwelling" />
		<tag k="ssr:stedsnr" v="517947" />
	</node>
	<node lat="58.53215555514308" lon="7.813727778863227" id="-26823">
		<tag k="name" v="Bjorøygard" />
		<tag k="place" v="locality" />
		<tag k="ssr:stedsnr" v="518149" />
	</node>
	<node lat="58.55811388951583" lon="7.772886116963761" id="-26828">
		<tag k="name" v="Futegarden" />
		<tag k="place" v="farm" />
		<tag k="ssr:stedsnr" v="518200" />
	</node>
	<node lat="58.600838884728276" lon="7.954780547751836" id="-26870">
		<tag k="alt_name" v="Storøygard" />
		<tag k="name" v="Storøygarden" />
		<tag k="place" v="isolated_dwelling" />
		<tag k="ssr:stedsnr" v="546683" />
	</node>
	<node lat="58.50232777623567" lon="7.764866658657243" id="-26881">
		<tag k="name" v="Stakkegården" />
		<tag k="place" v="locality" />
		<tag k="ssr:stedsnr" v="578033" />
	</node>
	<node lat="58.667277773407136" lon="7.713983326725215" id="-26885">
		<tag k="name" v="Holtøygard" />
		<tag k="place" v="locality" />
		<tag k="ssr:stedsnr" v="578096" />
	</node>
	<node lat="58.63213333275811" lon="7.552005555952073" id="-26908">
		<tag k="name" v="Olav Hansons øygard" />
		<tag k="place" v="locality" />
		<tag k="ssr:stedsnr" v="578662" />
	</node>
	<node lat="58.57171389097891" lon="7.774480552078104" id="-26957">
		<tag k="amenity" v="nursing_home" />
		<tag k="name" v="Hornnes gamleheim" />
		<tag k="ssr:stedsnr" v="578733" />
	</node>
	<node lat="58.59566944541862" lon="7.673763889184827" id="-26964">
		<tag k="name" v="Heimre Ås" />
		<tag k="place" v="locality" />
		<tag k="ssr:stedsnr" v="578866" />
	</node>
	<node lat="58.514077777499516" lon="7.857205550660472" id="-26996">
		<tag k="alt_name" v="Li nedre" />
		<tag k="name" v="Li" />
		<tag k="place" v="farm" />
		<tag k="ssr:stedsnr" v="607417" />
	</node>
	<node lat="58.57916944293251" lon="7.842841661877038" id="-27010">
		<tag k="name" v="Knapen" />
		<tag k="place" v="farm" />
		<tag k="ssr:stedsnr" v="607734" />
	</node>
	<node lat="58.526641670074234" lon="7.567933338787126" id="-27018">
		<tag k="alt_name" v="Matkrona" />
		<tag k="name" v="Matkroni" />
		<tag k="place" v="farm" />
		<tag k="ssr:stedsnr" v="607987" />
	</node>
	<node lat="58.47462221921216" lon="7.712950003291505" id="-27022">
		<tag k="name" v="Vetterhushytta" />
		<tag k="place" v="isolated_dwelling" />
		<tag k="ssr:stedsnr" v="639856" />
	</node>
	<node lat="58.5719527763158" lon="7.761922222371213" id="-27033">
		<tag k="name" v="Solheim" />
		<tag k="place" v="farm" />
		<tag k="ssr:stedsnr" v="638812" />
	</node>
	<node lat="58.61564444536933" lon="7.959280550383737" id="-27036">
		<tag k="historic" v="shieling" />
		<tag k="name" v="Hova" />
		<tag k="place" v="isolated_dwelling" />
		<tag k="ssr:stedsnr" v="638842" />
	</node>
	<node lat="58.6332416657023" lon="7.942711108095139" id="-27056">
		<tag k="historic" v="shieling" />
		<tag k="name" v="Reidal" />
		<tag k="place" v="isolated_dwelling" />
		<tag k="ssr:stedsnr" v="638512" />
	</node>
	<node lat="58.57827500277054" lon="7.786161115376246" id="-27084">
		<tag k="name" v="Grenaderen" />
		<tag k="ssr:stedsnr" v="639354" />
		<tag k="tourism" v="hotel" />
	</node>
	<node lat="58.59359166785213" lon="7.806511111364803" id="-27087">
		<tag k="name" v="Jåmyr" />
		<tag k="place" v="farm" />
		<tag k="ssr:stedsnr" v="639364" />
	</node>
	<node lat="58.59502500410922" lon="7.688005559018259" id="-27108">
		<tag k="name" v="Soltonplassen" />
		<tag k="place" v="locality" />
		<tag k="ssr:stedsnr" v="639897" />
	</node>
	<node lat="58.51270555970573" lon="7.705363886897077" id="-27136">
		<tag k="alt_name" v="Fjælestad" />
		<tag k="fixme" v="consider place=hamlet" />
		<tag k="name" v="Fjelestad" />
		<tag k="place" v="farm" />
		<tag k="ssr:stedsnr" v="668891" />
	</node>
	<node lat="58.64871944731986" lon="7.869305563026093" id="-27139">
		<tag k="name" v="Røynås" />
		<tag k="place" v="isolated_dwelling" />
		<tag k="ssr:stedsnr" v="668523" />
	</node>
	<node lat="58.617061107840435" lon="7.720808326531295" id="-27145">
		<tag k="name" v="Birkelandsøygard" />
		<tag k="place" v="isolated_dwelling" />
		<tag k="ssr:stedsnr" v="668568" />
	</node>
	<node lat="58.58039999560661" lon="7.861750005225385" id="-27147">
		<tag k="fixme" v="consider place=hamlet" />
		<tag k="name" v="Åneland" />
		<tag k="place" v="farm" />
		<tag k="ssr:stedsnr" v="668743" />
	</node>
	<node lat="58.572941664409164" lon="7.7632583324126845" id="-27149">
		<tag k="name" v="Varmedokka" />
		<tag k="place" v="farm" />
		<tag k="ssr:stedsnr" v="668750" />
	</node>
	<node lat="58.51534722409221" lon="7.714502774784838" id="-27160">
		<tag k="fixme" v="consider place=hamlet" />
		<tag k="name" v="Li" />
		<tag k="place" v="farm" />
		<tag k="ssr:stedsnr" v="668877" />
	</node>
	<node lat="58.47446666893982" lon="7.785375006200135" id="-27171">
		<tag k="fixme" v="consider place=hamlet" />
		<tag k="name" v="Vestre Hodne" />
		<tag k="place" v="farm" />
		<tag k="ssr:stedsnr" v="728161" />
	</node>
	<node lat="58.69739722507004" lon="7.6700694522028625" id="-27183">
		<tag k="name" v="Kjåkedal" />
		<tag k="place" v="isolated_dwelling" />
		<tag k="ssr:stedsnr" v="729209" />
	</node>
	<node lat="58.598358566471575" lon="7.852561655290271" id="-27186">
		<tag k="alt_name" v="Jokelid" />
		<tag k="name" v="Jokeli" />
		<tag k="place" v="farm" />
		<tag k="ssr:stedsnr" v="729731" />
	</node>
	<node lat="58.56424721913355" lon="7.77155834014757" id="-27187">
		<tag k="name" v="Dåsnes" />
		<tag k="place" v="village" />
		<tag k="ssr:stedsnr" v="729741" />
	</node>
	<node lat="58.579127776955495" lon="7.9434055605162275" id="-27192">
		<tag k="fixme" v="consider place=hamlet" />
		<tag k="name" v="Mykjåland" />
		<tag k="place" v="farm" />
		<tag k="ssr:stedsnr" v="729755" />
	</node>
	<node lat="58.58295555678714" lon="7.86422778465604" id="-27193">
		<tag k="fixme" v="consider place=hamlet" />
		<tag k="name" v="Haugen" />
		<tag k="place" v="farm" />
		<tag k="ssr:stedsnr" v="729759" />
	</node>
	<node lat="58.60501666767129" lon="7.822852778603965" id="-27197">
		<tag k="name" v="Evjetun" />
		<tag k="ssr:stedsnr" v="759239" />
		<tag k="tourism" v="camp_site" />
	</node>
	<node lat="58.49733333431922" lon="7.728502772617015" id="-27206">
		<tag k="name" v="Tønnesland søndre" />
		<tag k="place" v="farm" />
		<tag k="ssr:stedsnr" v="760020" />
	</node>
	<node lat="58.65223055685753" lon="7.702002780900862" id="-27212">
		<tag k="landuse" v="aquaculture" />
		<tag k="name" v="Teinelaget" />
		<tag k="ssr:stedsnr" v="760084" />
	</node>
	<node lat="58.592855556507224" lon="7.939155559213217" id="-27220">
		<tag k="name" v="Sukkestøl" />
		<tag k="place" v="locality" />
		<tag k="ssr:stedsnr" v="760425" />
	</node>
	<node lat="58.60205555261527" lon="7.8923333298951945" id="-27222">
		<tag k="name" v="Sandane" />
		<tag k="place" v="locality" />
		<tag k="ssr:stedsnr" v="760430" />
	</node>
	<node lat="58.496675000278664" lon="7.71566388976062" id="-27275">
		<tag k="name" v="Nordheim" />
		<tag k="place" v="farm" />
		<tag k="ssr:stedsnr" v="761784" />
	</node>
	<node lat="58.54214166794538" lon="7.759427783407801" id="-27308">
		<tag k="name" v="Kjetså" />
		<tag k="place" v="farm" />
		<tag k="ssr:stedsnr" v="789684" />
	</node>
	<node lat="58.521561109136165" lon="7.835977777663753" id="-27314">
		<tag k="alt_name" v="Vådne" />
		<tag k="fixme" v="consider place=hamlet" />
		<tag k="name" v="Vånne" />
		<tag k="place" v="farm" />
		<tag k="ssr:stedsnr" v="790430" />
	</node>
	<node lat="58.56440833107674" lon="7.844308341741956" id="-27319">
		<tag k="fixme" v="consider place=hamlet" />
		<tag k="name" v="Høgetveit" />
		<tag k="place" v="farm" />
		<tag k="ssr:stedsnr" v="790686" />
	</node>
	<node lat="58.57027777966844" lon="7.771002784768324" id="-27321">
		<tag k="alt_name" v="Dåsnesmonen" />
		<tag k="name" v="Dåsnesmoen" />
		<tag k="place" v="quarter" />
		<tag k="ssr:stedsnr" v="813017" />
	</node>
	<node lat="58.60864444014747" lon="7.887283337330428" id="-27339">
		<tag k="name" v="Plassen" />
		<tag k="place" v="locality" />
		<tag k="ssr:stedsnr" v="821501" />
	</node>
	<node lat="58.50258055365582" lon="7.773163892830498" id="-27409">
		<tag k="name" v="Moisund" />
		<tag k="place" v="farm" />
		<tag k="ssr:stedsnr" v="850444" />
	</node>
	<node lat="58.61440833743533" lon="7.955425000785192" id="-27410">
		<tag k="fixme" v="consider place=hamlet" />
		<tag k="name" v="Kleppsland" />
		<tag k="place" v="farm" />
		<tag k="ssr:stedsnr" v="850539" />
	</node>
	<node lat="58.58149166609277" lon="7.858436109216052" id="-27414">
		<tag k="name" v="Lund" />
=======
	<node id="-548016" lat="58.6175777779" lon="7.92756389109">
		<tag k="alt_name" v="Flåtøygard" />
		<tag k="name" v="Flotøygarden" />
		<tag k="place" v="isolated_dwelling" />
		<tag k="ssr:stedsnr" v="426529" />
	</node>
	<node id="-548015" lat="58.6213750001" lon="7.9167166587">
		<tag k="name" v="Nordbøøygarden" />
		<tag k="place" v="isolated_dwelling" />
		<tag k="ssr:stedsnr" v="426527" />
	</node>
	<node id="-548014" lat="58.5831194405" lon="7.91749166303">
		<tag k="fixme" v="consider place=hamlet" />
		<tag k="name" v="Undeland" />
		<tag k="place" v="farm" />
		<tag k="ssr:stedsnr" v="426755" />
	</node>
	<node id="-546476" lat="58.4744666689" lon="7.7853750062">
		<tag k="fixme" v="consider place=hamlet" />
		<tag k="name" v="Vestre Hodne" />
		<tag k="place" v="farm" />
		<tag k="ssr:stedsnr" v="728161" />
	</node>
	<node id="-547498" lat="58.5959999991" lon="7.93484444423">
		<tag k="name" v="Ånestøl" />
		<tag k="place" v="isolated_dwelling" />
		<tag k="ssr:stedsnr" v="183708" />
	</node>
	<node id="-548008" lat="58.6388138867" lon="7.77886388881">
		<tag k="fixme" v="consider place=hamlet" />
		<tag k="name" v="Moseid" />
		<tag k="place" v="farm" />
		<tag k="ssr:stedsnr" v="426483" />
	</node>
	<node id="-547612" lat="58.6347166634" lon="7.82018056265">
		<tag k="fixme" v="consider place=hamlet" />
		<tag k="name" v="Syrtveit" />
		<tag k="place" v="farm" />
		<tag k="ssr:stedsnr" v="304493" />
	</node>
	<node id="-547494" lat="58.6650611123" lon="7.78783056283">
		<tag k="name" v="Gullsmedmoen" />
		<tag k="place" v="farm" />
		<tag k="ssr:stedsnr" v="183579" />
	</node>
	<node id="-547493" lat="58.6611527756" lon="7.79734444737">
		<tag k="name" v="Sennummoen" />
		<tag k="place" v="isolated_dwelling" />
		<tag k="ssr:stedsnr" v="183577" />
	</node>
	<node id="-548486" lat="58.5702777797" lon="7.77100278477">
		<tag k="alt_name" v="Dåsnesmonen" />
		<tag k="name" v="Dåsnesmoen" />
		<tag k="place" v="quarter" />
		<tag k="ssr:stedsnr" v="813017" />
	</node>
	<node id="-545954" lat="58.694152774" lon="7.67693888547">
		<tag k="name" v="Kleiveslåtti" />
		<tag k="place" v="locality" />
		<tag k="ssr:stedsnr" v="668236" />
	</node>
	<node id="-547489" lat="58.6396305568" lon="7.84915000028">
		<tag k="alt_name" v="Heimstøl" />
		<tag k="name" v="Heimstølen" />
		<tag k="place" v="isolated_dwelling" />
		<tag k="ssr:stedsnr" v="183465" />
	</node>
	<node id="-547486" lat="58.5199250041" lon="7.56093056272">
		<tag k="name" v="Gåseflå" />
		<tag k="place" v="farm" />
		<tag k="ssr:stedsnr" v="182872" />
	</node>
	<node id="-547997" lat="58.5982583299" lon="7.66636111253">
		<tag k="name" v="Kvasshommen" />
		<tag k="place" v="farm" />
		<tag k="ssr:stedsnr" v="425866" />
	</node>
	<node id="-547995" lat="58.6691583335" lon="7.78584443592">
		<tag k="fixme" v="consider place=hamlet" />
		<tag k="name" v="Senum" />
		<tag k="place" v="farm" />
		<tag k="ssr:stedsnr" v="425586" />
	</node>
	<node id="-547993" lat="58.6131111086" lon="7.80825555058">
		<tag k="name" v="Sole" />
		<tag k="place" v="farm" />
		<tag k="ssr:stedsnr" v="425523" />
	</node>
	<node id="-548503" lat="58.6086444401" lon="7.88728333733">
		<tag k="name" v="Plassen" />
		<tag k="place" v="locality" />
		<tag k="ssr:stedsnr" v="821501" />
	</node>
	<node id="-547990" lat="58.4881694442" lon="7.71961388145">
		<tag k="name" v="Bakkane" />
		<tag k="place" v="isolated_dwelling" />
		<tag k="ssr:stedsnr" v="425196" />
	</node>
	<node id="-547476" lat="58.5928333353" lon="7.64141110404">
		<tag k="name" v="Hova" />
		<tag k="place" v="locality" />
		<tag k="ssr:stedsnr" v="182731" />
	</node>
	<node id="-545195" lat="58.5815250031" lon="8.05568333074">
		<tag k="name" v="Øygarden" />
		<tag k="place" v="locality" />
		<tag k="ssr:stedsnr" v="231093" />
	</node>
	<node id="-546499" lat="58.4884027738" lon="7.77557777621">
		<tag k="alt_name" v="Slettefet" />
		<tag k="name" v="Slettefit" />
		<tag k="place" v="farm" />
		<tag k="ssr:stedsnr" v="910210" />
	</node>
	<node id="-547096" lat="58.4718805568" lon="7.78467500517">
		<tag k="name" v="Horne sag" />
		<tag k="place" v="quarter" />
		<tag k="ssr:stedsnr" v="93006" />
	</node>
	<node id="-547437" lat="58.5912416665" lon="7.6483611153">
		<tag k="name" v="Godfars øygard" />
		<tag k="place" v="locality" />
		<tag k="ssr:stedsnr" v="154910" />
	</node>
	<node id="-548631" lat="58.5811250095" lon="8.05601370216">
		<tag k="fixme" v="consider place=hamlet" />
		<tag k="name" v="Ødegården" />
		<tag k="place" v="farm" />
		<tag k="ssr:stedsnr" v="971406" />
	</node>
	<node id="-547463" lat="58.4744666689" lon="7.7853750062">
		<tag k="name" v="Vestre Hodne" />
		<tag k="place" v="farm" />
		<tag k="ssr:stedsnr" v="176187" />
	</node>
	<node id="-547974" lat="58.6068944458" lon="7.6958333312">
		<tag k="name" v="Rysebu" />
		<tag k="place" v="isolated_dwelling" />
		<tag k="ssr:stedsnr" v="396931" />
	</node>
	<node id="-545473" lat="58.6382527801" lon="7.82108611869">
		<tag k="name" v="Dalebakk" />
		<tag k="place" v="farm" />
		<tag k="ssr:stedsnr" v="457344" />
	</node>
	<node id="-548484" lat="58.5644083311" lon="7.84430834174">
		<tag k="fixme" v="consider place=hamlet" />
		<tag k="name" v="Høgetveit" />
		<tag k="place" v="farm" />
		<tag k="ssr:stedsnr" v="790686" />
	</node>
	<node id="-547462" lat="58.5165222259" lon="7.76390555805">
		<tag k="fixme" v="consider place=hamlet" />
		<tag k="name" v="Hannås" />
		<tag k="place" v="farm" />
		<tag k="ssr:stedsnr" v="173294" />
	</node>
	<node id="-546447" lat="58.5976833308" lon="7.83305278419">
		<tag k="name" v="Kjørkåsen" />
		<tag k="place" v="farm" />
		<tag k="ssr:stedsnr" v="700208" />
	</node>
	<node id="-548480" lat="58.5093111084" lon="7.76594167286">
		<tag k="name" v="Hannåsmoen" />
		<tag k="place" v="farm" />
		<tag k="ssr:stedsnr" v="790444" />
	</node>
	<node id="-548479" lat="58.5215611091" lon="7.83597777766">
		<tag k="alt_name" v="Vådne" />
		<tag k="fixme" v="consider place=hamlet" />
		<tag k="name" v="Vånne" />
		<tag k="place" v="farm" />
		<tag k="ssr:stedsnr" v="790430" />
	</node>
	<node id="-547257" lat="58.6159638855" lon="8.09926111325">
		<tag k="name" v="Kvittjørnøygarden" />
		<tag k="place" v="locality" />
		<tag k="ssr:stedsnr" v="122367" />
	</node>
	<node id="-548468" lat="58.5159277813" lon="7.76095555064">
		<tag k="alt_name" v="Hannås, øvre" />
		<tag k="name" v="Hannås øvre" />
		<tag k="place" v="farm" />
		<tag k="ssr:stedsnr" v="789428" />
	</node>
	<node id="-545214" lat="58.5945305597" lon="7.96842776957">
		<tag k="fixme" v="consider place=hamlet" />
		<tag k="name" v="Vikstøl" />
		<tag k="place" v="farm" />
		<tag k="ssr:stedsnr" v="243708" />
	</node>
	<node id="-547954" lat="58.5769138858" lon="7.76996944871">
		<tag k="name" v="Ærdalen" />
		<tag k="place" v="isolated_dwelling" />
		<tag k="ssr:stedsnr" v="396804" />
	</node>
	<node id="-548465" lat="58.5899805517" lon="7.79734167266">
		<tag k="name" v="Bakkemoen" />
		<tag k="place" v="isolated_dwelling" />
		<tag k="ssr:stedsnr" v="789697" />
	</node>
	<node id="-548464" lat="58.5421416679" lon="7.75942778341">
		<tag k="name" v="Kjetså" />
		<tag k="place" v="farm" />
		<tag k="ssr:stedsnr" v="789684" />
	</node>
	<node id="-548010" lat="58.6457000003" lon="7.86807777967">
		<tag k="alt_name" v="Nedreøygard" />
		<tag k="name" v="Nedre Øygarden" />
		<tag k="place" v="isolated_dwelling" />
		<tag k="ssr:stedsnr" v="426496" />
	</node>
	<node id="-548462" lat="58.60053056" lon="8.10292500668">
		<tag k="name" v="Kjetevannsøygarden" />
		<tag k="place" v="locality" />
		<tag k="ssr:stedsnr" v="789352" />
	</node>
	<node id="-545213" lat="58.6098750004" lon="7.87642777344">
		<tag k="fixme" v="consider place=hamlet" />
		<tag k="name" v="Nordbø" />
		<tag k="place" v="farm" />
		<tag k="ssr:stedsnr" v="243541" />
	</node>
	<node id="-545412" lat="58.5823277783" lon="7.95368055903">
		<tag k="alt_name" v="Sletten" />
		<tag k="fixme" v="consider place=hamlet" />
		<tag k="name" v="Slettin" />
		<tag k="place" v="farm" />
		<tag k="ssr:stedsnr" v="243759" />
	</node>
	<node id="-547465" lat="58.6506888844" lon="7.61526388298">
		<tag k="name" v="Kleven" />
		<tag k="place" v="farm" />
		<tag k="ssr:stedsnr" v="182155" />
	</node>
	<node id="-545723" lat="58.5833444417" lon="7.80422222797">
		<tag k="leisure" v="pitch" />
		<tag k="name" v="Evje aktivitetspark" />
		<tag k="ssr:stedsnr" v="363406" />
	</node>
	<node id="-545466" lat="58.6377055569" lon="7.77651389286">
		<tag k="name" v="Lunderekra" />
		<tag k="place" v="farm" />
		<tag k="ssr:stedsnr" v="457290" />
	</node>
	<node id="-545978" lat="58.5127055597" lon="7.7053638869">
		<tag k="alt_name" v="Fjælestad" />
		<tag k="fixme" v="consider place=hamlet" />
		<tag k="name" v="Fjelestad" />
		<tag k="place" v="farm" />
		<tag k="ssr:stedsnr" v="668891" />
	</node>
	<node id="-546540" lat="58.6057500001" lon="7.86039999189">
		<tag k="fixme" v="consider place=hamlet" />
		<tag k="name" v="Tveit" />
		<tag k="place" v="farm" />
		<tag k="ssr:stedsnr" v="911723" />
	</node>
	<node id="-548123" lat="58.6321333328" lon="7.55200555595">
		<tag k="name" v="Olav Hansons øygard" />
		<tag k="place" v="locality" />
		<tag k="ssr:stedsnr" v="578662" />
	</node>
	<node id="-545877" lat="58.479280554" lon="7.57097500046">
		<tag k="historic" v="shieling" />
		<tag k="name" v="Ytre Strånda" />
		<tag k="place" v="locality" />
		<tag k="ssr:stedsnr" v="518625" />
	</node>
	<node id="-545876" lat="58.4828361107" lon="7.5696500031">
		<tag k="historic" v="shieling" />
		<tag k="name" v="Strånda" />
		<tag k="place" v="locality" />
		<tag k="ssr:stedsnr" v="518624" />
	</node>
	<node id="-546401" lat="58.5381583352" lon="7.68075000376">
		<tag k="name" v="Lislevand" />
		<tag k="place" v="farm" />
		<tag k="ssr:stedsnr" v="882902" />
	</node>
	<node id="-547256" lat="58.680188885" lon="7.65903610951">
		<tag k="fixme" v="consider place=hamlet" />
		<tag k="name" v="Vetrhus" />
		<tag k="place" v="farm" />
		<tag k="ssr:stedsnr" v="122192" />
	</node>
	<node id="-548430" lat="58.4966750003" lon="7.71566388976">
		<tag k="name" v="Nordheim" />
		<tag k="place" v="farm" />
		<tag k="ssr:stedsnr" v="761784" />
	</node>
	<node id="-546893" lat="58.5823416644" lon="7.97335555318">
		<tag k="fixme" v="consider place=hamlet" />
		<tag k="name" v="Håtveit" />
		<tag k="place" v="farm" />
		<tag k="ssr:stedsnr" v="1747" />
	</node>
	<node id="-546892" lat="58.5856944461" lon="7.80362500665">
		<tag k="name" v="Evje" />
		<tag k="place" v="village" />
		<tag k="ssr:stedsnr" v="1744" />
	</node>
	<node id="-545355" lat="58.5134361139" lon="7.83174444833">
		<tag k="name" v="Landsverk sag" />
		<tag k="place" v="locality" />
		<tag k="ssr:stedsnr" v="214032" />
	</node>
	<node id="-545864" lat="58.6412944422" lon="7.7774638873">
		<tag k="fixme" v="consider place=hamlet" />
		<tag k="name" v="Holtet" />
		<tag k="place" v="farm" />
		<tag k="ssr:stedsnr" v="518320" />
	</node>
	<node id="-545721" lat="58.4718611142" lon="7.78808888568">
		<tag k="name" v="Hodnesund" />
		<tag k="place" v="farm" />
		<tag k="ssr:stedsnr" v="358167" />
	</node>
	<node id="-547397" lat="58.6003638926" lon="7.83369443834">
		<tag k="fixme" v="consider place=hamlet" />
		<tag k="name" v="Evje prestegard" />
		<tag k="place" v="farm" />
		<tag k="ssr:stedsnr" v="154422" />
	</node>
	<node id="-545858" lat="58.5445361137" lon="7.76012222515">
		<tag k="name" v="Neregarden" />
		<tag k="place" v="farm" />
		<tag k="ssr:stedsnr" v="518214" />
	</node>
	<node id="-545857" lat="58.5581138895" lon="7.77288611696">
		<tag k="name" v="Futegarden" />
		<tag k="place" v="farm" />
		<tag k="ssr:stedsnr" v="518200" />
	</node>
	<node id="-547392" lat="58.6158888872" lon="7.73789167249">
		<tag k="name" v="Bakkeøygard" />
		<tag k="place" v="locality" />
		<tag k="ssr:stedsnr" v="154368" />
	</node>
	<node id="-545205" lat="58.5167861086" lon="7.73027778578">
		<tag k="name" v="Hagen" />
		<tag k="place" v="farm" />
		<tag k="ssr:stedsnr" v="61410" />
	</node>
	<node id="-545852" lat="58.5321555551" lon="7.81372777886">
		<tag k="name" v="Bjorøygard" />
		<tag k="place" v="locality" />
		<tag k="ssr:stedsnr" v="518149" />
	</node>
	<node id="-546058" lat="58.6027138914" lon="7.6674527832">
		<tag k="name" v="Teigan" />
		<tag k="place" v="farm" />
		<tag k="ssr:stedsnr" v="699952" />
	</node>
	<node id="-546873" lat="58.6210527811" lon="7.6774777856">
		<tag k="alt_name" v="Krona" />
		<tag k="name" v="Kroni" />
		<tag k="place" v="isolated_dwelling" />
		<tag k="ssr:stedsnr" v="833" />
	</node>
	<node id="-547383" lat="58.551222222" lon="7.75126389732">
		<tag k="name" v="Hasseldalen" />
		<tag k="place" v="farm" />
		<tag k="ssr:stedsnr" v="154295" />
	</node>
	<node id="-547894" lat="58.5843888927" lon="7.9190944408">
		<tag k="name" v="Rønningen" />
		<tag k="place" v="locality" />
		<tag k="ssr:stedsnr" v="396385" />
	</node>
	<node id="-547381" lat="58.5576888849" lon="7.7668027812">
		<tag k="name" v="Gullslett" />
		<tag k="place" v="quarter" />
		<tag k="ssr:stedsnr" v="154263" />
	</node>
	<node id="-545332" lat="58.4727944463" lon="7.63185000095">
		<tag k="fixme" v="consider place=hamlet" />
		<tag k="name" v="Kalland" />
		<tag k="place" v="farm" />
		<tag k="ssr:stedsnr" v="182576" />
	</node>
	<node id="-546142" lat="58.571713891" lon="7.77448055208">
		<tag k="amenity" v="nursing_home" />
		<tag k="name" v="Hornnes gamleheim" />
		<tag k="ssr:stedsnr" v="578733" />
	</node>
	<node id="-546865" lat="58.6632749988" lon="7.924555563">
		<tag k="alt_name" v="Åsbu" />
		<tag k="name" v="Åsebu" />
		<tag k="place" v="isolated_dwelling" />
		<tag k="ssr:stedsnr" v="523" />
	</node>
	<node id="-547867" lat="58.5571222245" lon="7.77284444861">
		<tag k="name" v="Haugen" />
		<tag k="place" v="farm" />
		<tag k="ssr:stedsnr" v="396159" />
	</node>
	<node id="-547887" lat="58.6458666653" lon="7.81711388897">
		<tag k="name" v="Fossberg" />
		<tag k="place" v="farm" />
		<tag k="ssr:stedsnr" v="396328" />
	</node>
	<node id="-547371" lat="58.5985527798" lon="7.73451945014">
		<tag k="name" v="Fennefossøygard" />
		<tag k="place" v="locality" />
		<tag k="ssr:stedsnr" v="154219" />
	</node>
	<node id="-546858" lat="58.6274485074" lon="7.62676099551">
		<tag k="name" v="Dåsvatn" />
		<tag k="place" v="hamlet" />
		<tag k="ssr:stedsnr" v="971512" />
	</node>
	<node id="-546857" lat="58.6251204219" lon="7.62231502365">
		<tag k="fixme" v="consider place=hamlet" />
		<tag k="name" v="Nedre Dåsvatn" />
		<tag k="place" v="farm" />
		<tag k="ssr:stedsnr" v="971511" />
	</node>
	<node id="-547880" lat="58.6405194475" lon="7.7782722288">
		<tag k="name" v="Lunden" />
		<tag k="place" v="farm" />
		<tag k="ssr:stedsnr" v="396275" />
	</node>
	<node id="-545830" lat="58.6348722218" lon="7.9893138864">
		<tag k="name" v="Stuverød" />
		<tag k="place" v="farm" />
		<tag k="ssr:stedsnr" v="517680" />
	</node>
	<node id="-545969" lat="58.6060583344" lon="7.87867777844">
		<tag k="fixme" v="consider place=hamlet" />
		<tag k="name" v="Flatebygd" />
		<tag k="place" v="village" />
		<tag k="ssr:stedsnr" v="668738" />
	</node>
	<node id="-548584" lat="58.5025805537" lon="7.77316389283">
		<tag k="name" v="Moisund" />
		<tag k="place" v="farm" />
		<tag k="ssr:stedsnr" v="850444" />
	</node>
	<node id="-547361" lat="58.6047611113" lon="7.97968332955">
		<tag k="historic" v="shieling" />
		<tag k="name" v="Styggedalen" />
		<tag k="place" v="locality" />
		<tag k="ssr:stedsnr" v="153883" />
	</node>
	<node id="-545312" lat="58.6524972195" lon="7.90462778564">
		<tag k="historic" v="shieling" />
		<tag k="name" v="Indreøygard" />
		<tag k="place" v="locality" />
		<tag k="ssr:stedsnr" v="275717" />
	</node>
	<node id="-547870" lat="58.5481583322" lon="7.755144448">
		<tag k="name" v="Breistøl" />
		<tag k="place" v="farm" />
		<tag k="ssr:stedsnr" v="396174" />
	</node>
	<node id="-546913" lat="58.4646750016" lon="7.76997222102">
		<tag k="name" v="Hodneøygard" />
		<tag k="place" v="locality" />
		<tag k="ssr:stedsnr" v="32084" />
	</node>
	<node id="-546843" lat="58.5320305594" lon="7.70051388156">
		<tag k="historic" v="shieling" />
		<tag k="name" v="Breistøl" />
		<tag k="place" v="locality" />
		<tag k="ssr:stedsnr" v="943895" />
	</node>
	<node id="-546520" lat="58.5221861122" lon="7.78430555717">
		<tag k="fixme" v="consider place=hamlet" />
		<tag k="name" v="Strauman" />
		<tag k="place" v="farm" />
		<tag k="ssr:stedsnr" v="911437" />
	</node>
	<node id="-547502" lat="58.5820222227" lon="7.98465278247">
		<tag k="fixme" v="consider place=hamlet" />
		<tag k="name" v="Lislevann" />
		<tag k="place" v="farm" />
		<tag k="ssr:stedsnr" v="183751" />
	</node>
	<node id="-546221" lat="58.5985555597" lon="7.85208055265">
		<tag k="alt_name" v="Jokelid" />
		<tag k="name" v="Jokeli" />
		<tag k="place" v="isolated_dwelling" />
		<tag k="ssr:stedsnr" v="729731" />
	</node>
	<node id="-547441" lat="58.5411444415" lon="7.67444444502">
		<tag k="name" v="Huset" />
>>>>>>> e1d4bc35ff8a6074a6f2e91616a996b547c36f15
		<tag k="place" v="farm" />
		<tag k="ssr:stedsnr" v="154933" />
	</node>
<<<<<<< HEAD
	<node lat="58.582499996792166" lon="7.890883326392023" id="-27429">
		<tag k="name" v="Rønningen" />
		<tag k="place" v="locality" />
		<tag k="ssr:stedsnr" v="882366" />
	</node>
	<node lat="58.47152777545934" lon="7.789461113338682" id="-27531">
		<tag k="name" v="Reiet" />
		<tag k="place" v="farm" />
		<tag k="ssr:stedsnr" v="942004" />
	</node>
	<node lat="58.62076666446922" lon="7.924474999351283" id="-27569">
		<tag k="historic" v="shieling" />
		<tag k="name" v="Døløygard" />
		<tag k="place" v="isolated_dwelling" />
		<tag k="ssr:stedsnr" v="942475" />
	</node>
	<node lat="58.60472221954574" lon="7.90355554776651" id="-27590">
		<tag k="name" v="Torsplass" />
		<tag k="place" v="locality" />
		<tag k="ssr:stedsnr" v="942735" />
	</node>
	<node lat="58.5769944440987" lon="7.816933338319702" id="-27620">
		<tag k="name" v="Steinsfjellplassen" />
		<tag k="place" v="locality" />
		<tag k="ssr:stedsnr" v="943342" />
	</node>
	<node lat="58.588163889859004" lon="7.8141277795248385" id="-27626">
		<tag k="fixme" v="consider place=suburb, village or hamlet" />
		<tag k="name" v="Tingberget" />
		<tag k="place" v="quarter" />
		<tag k="ssr:stedsnr" v="943201" />
=======
	<node id="-547851" lat="58.6547083326" lon="7.71414722626">
		<tag k="historic" v="shieling" />
		<tag k="name" v="Furestøl" />
		<tag k="place" v="locality" />
		<tag k="ssr:stedsnr" v="396076" />
	</node>
	<node id="-545800" lat="58.6535805531" lon="7.80337222362">
		<tag k="name" v="Langemyr" />
		<tag k="place" v="farm" />
		<tag k="ssr:stedsnr" v="517467" />
	</node>
	<node id="-545964" lat="58.5594750044" lon="7.75768055547">
		<tag k="name" v="Valhall" />
		<tag k="place" v="farm" />
		<tag k="ssr:stedsnr" v="668685" />
	</node>
	<node id="-548353" lat="58.4973333343" lon="7.72850277262">
		<tag k="name" v="Tønnesland søndre" />
		<tag k="place" v="farm" />
		<tag k="ssr:stedsnr" v="760020" />
	</node>
	<node id="-545283" lat="58.5813611151" lon="7.99135832776">
		<tag k="name" v="Glopstad" />
		<tag k="place" v="locality" />
		<tag k="ssr:stedsnr" v="275638" />
	</node>
	<node id="-547330" lat="58.6309805595" lon="8.01703611509">
		<tag k="name" v="Godfarsøygard" />
		<tag k="place" v="locality" />
		<tag k="ssr:stedsnr" v="153660" />
	</node>
	<node id="-545793" lat="58.5792305568" lon="7.84273888175">
		<tag k="name" v="Solli" />
		<tag k="place" v="farm" />
		<tag k="ssr:stedsnr" v="517395" />
>>>>>>> e1d4bc35ff8a6074a6f2e91616a996b547c36f15
	</node>
</osm>
