<?xml version="1.0" encoding="UTF-8"?>
<osm version="0.6" generator="osmapis">
	<node lat="58.66884999618197" lon="7.7193777841589055" id="-21503">
		<tag k="name" v="Skinnfillane" />
		<tag k="place" v="locality" />
		<tag k="ssr:stedsnr" v="214076" />
	</node>
	<node lat="58.61754444048898" lon="7.767672214861261" id="-21613">
		<tag k="name" v="Molistøa" />
		<tag k="place" v="locality" />
		<tag k="ssr:stedsnr" v="457253" />
	</node>
	<node lat="58.48075000084231" lon="7.545788891104687" id="-21660">
		<tag k="name" v="Pusten" />
		<tag k="place" v="locality" />
		<tag k="ssr:stedsnr" v="457627" />
	</node>
	<node lat="58.52382499649235" lon="7.766288891671762" id="-21697">
		<tag k="name" v="Dølestø" />
		<tag k="place" v="locality" />
		<tag k="ssr:stedsnr" v="275117" />
	</node>
	<node lat="58.622377777133146" lon="7.650874998933324" id="-21774">
		<tag k="name" v="Bjørnehiet" />
		<tag k="place" v="locality" />
		<tag k="ssr:stedsnr" v="334946" />
	</node>
	<node lat="58.60148055686633" lon="7.773322214106408" id="-21865">
		<tag k="name" v="Laurdagstø" />
		<tag k="place" v="locality" />
		<tag k="ssr:stedsnr" v="396135" />
	</node>
	<node lat="58.61450555716604" lon="7.769269440761279" id="-21875">
		<tag k="name" v="St. Olavstø" />
		<tag k="place" v="locality" />
		<tag k="ssr:stedsnr" v="396238" />
	</node>
	<node lat="58.56656666713534" lon="7.761388889242119" id="-21922">
		<tag k="name" v="Teinlaget" />
		<tag k="place" v="locality" />
		<tag k="ssr:stedsnr" v="396790" />
	</node>
	<node lat="58.56738055137881" lon="7.760680550444035" id="-21923">
		<tag k="name" v="Tingberget" />
		<tag k="place" v="locality" />
		<tag k="ssr:stedsnr" v="396791" />
	</node>
	<node lat="58.67079999633679" lon="7.723794437440319" id="-22017">
		<tag k="name" v="Bukkespranget" />
		<tag k="place" v="locality" />
		<tag k="ssr:stedsnr" v="457263" />
	</node>
	<node lat="58.58536150907177" lon="7.788259694161183" id="-22082">
		<tag k="alt_name" v="Mylla" />
		<tag k="name" v="Mølla" />
		<tag k="place" v="locality" />
		<tag k="ssr:stedsnr" v="486755" />
	</node>
	<node lat="58.67887500084373" lon="7.725530554577882" id="-22171">
		<tag k="name" v="Bjørnehiet" />
		<tag k="place" v="locality" />
		<tag k="ssr:stedsnr" v="577290" />
	</node>
	<node lat="58.4709277808025" lon="7.596905556390959" id="-22213">
		<tag k="name" v="Velteleisten" />
		<tag k="place" v="locality" />
		<tag k="ssr:stedsnr" v="578649" />
	</node>
	<node lat="58.54137777536764" lon="7.737749998466133" id="-22295">
		<tag k="name" v="Nåvårskapet" />
		<tag k="place" v="locality" />
		<tag k="ssr:stedsnr" v="700243" />
	</node>
	<node lat="58.496775003468706" lon="7.67287778369969" id="-22317">
		<tag k="name" v="Hannås eldhuset" />
		<tag k="place" v="locality" />
		<tag k="ssr:stedsnr" v="700751" />
	</node>
	<node lat="58.59957500270247" lon="7.664861117964272" id="-22328">
		<tag k="name" v="Haugeberg" />
		<tag k="place" v="locality" />
		<tag k="ssr:stedsnr" v="700910" />
	</node>
	<node lat="58.636744447364535" lon="7.922619440202123" id="-22345">
		<tag k="name" v="Borholekrolesete" />
		<tag k="place" v="locality" />
		<tag k="ssr:stedsnr" v="638499" />
	</node>
	<node lat="58.523869444009264" lon="7.721077774616431" id="-22378">
		<tag k="name" v="Hannåsleiren" />
		<tag k="place" v="locality" />
		<tag k="ssr:stedsnr" v="639922" />
	</node>
	<node lat="58.63536110724103" lon="7.836222219129583" id="-22422">
		<tag k="name" v="Lyngstø" />
		<tag k="place" v="locality" />
		<tag k="ssr:stedsnr" v="699565" />
	</node>
	<node lat="58.59738055480681" lon="7.662905560777126" id="-22456">
		<tag k="name" v="Målet" />
		<tag k="place" v="locality" />
		<tag k="ssr:stedsnr" v="700912" />
	</node>
	<node lat="58.62326666945701" lon="7.6516916716076775" id="-22499">
		<tag k="name" v="Skatebu" />
		<tag k="place" v="locality" />
		<tag k="ssr:stedsnr" v="759951" />
	</node>
	<node lat="58.62164722204494" lon="7.813408337708127" id="-22663">
		<tag k="name" v="Brannen" />
		<tag k="place" v="locality" />
		<tag k="ssr:stedsnr" v="822313" />
	</node>
	<node lat="58.55925833654205" lon="7.7734888886495295" id="-22718">
		<tag k="amenity" v="place_of_worship" />
		<tag k="denomination" v="lutheran" />
		<tag k="name" v="Hornnes kyrkje" />
		<tag k="religion" v="christian" />
		<tag k="ssr:stedsnr" v="882167" />
	</node>
	<node lat="58.46996111067528" lon="7.540588888138298" id="-22744">
		<tag k="name" v="Skorka" />
		<tag k="place" v="locality" />
		<tag k="ssr:stedsnr" v="882520" />
	</node>
	<node lat="58.48506111249958" lon="7.627522214122705" id="-22773">
		<tag k="name" v="Revebåsen" />
		<tag k="place" v="locality" />
		<tag k="ssr:stedsnr" v="882817" />
	</node>
</osm>
