<?xml version="1.0" encoding="UTF-8"?>
<osm version="0.6" generator="osmapis">
	<node lat="58.650202780550536" lon="7.704072218055859" id="-26345">
		<tag k="ford" v="yes" />
		<tag k="name" v="Teinelivadet" />
		<tag k="place" v="locality" />
		<tag k="ssr:stedsnr" v="166" />
	</node>
	<node lat="58.51758055843631" lon="7.8345472188446506" id="-26436">
		<tag k="bridge" v="yes" />
		<tag k="layer" v="1" />
		<tag k="name" v="Vånne nedre" />
		<tag k="ssr:stedsnr" v="46203" />
	</node>
	<node lat="58.57707222455312" lon="7.780897218550687" id="-26437">
		<tag k="bridge" v="yes" />
		<tag k="layer" v="1" />
		<tag k="name" v="Evjemoen" />
		<tag k="ssr:stedsnr" v="46220" />
	</node>
	<node lat="58.66496111005621" lon="7.804394446245065" id="-26488">
		<tag k="alt_name" v="Senumsund" />
		<tag k="bridge" v="yes" />
		<tag k="layer" v="1" />
		<tag k="name" v="Senumstad bru" />
		<tag k="ssr:stedsnr" v="84510" />
	</node>
	<node lat="58.50555277752104" lon="7.817155558796821" id="-26562">
		<tag k="bridge" v="yes" />
		<tag k="layer" v="1" />
		<tag k="name" v="Stien" />
		<tag k="ssr:stedsnr" v="107214" />
	</node>
	<node lat="58.46323055998768" lon="7.7962027702425045" id="-26585">
		<tag k="ford" v="yes" />
		<tag k="name" v="Hodnevaet" />
		<tag k="place" v="locality" />
		<tag k="ssr:stedsnr" v="153013" />
	</node>
	<node lat="58.66187777657066" lon="7.656166667803841" id="-26663">
		<tag k="alt_name" v="Bergeva" />
		<tag k="ford" v="yes" />
		<tag k="name" v="Bergevad" />
		<tag k="place" v="locality" />
		<tag k="ssr:stedsnr" v="182148" />
	</node>
	<node lat="58.57105555521224" lon="7.820761108469244" id="-26741">
		<tag k="bridge" v="yes" />
		<tag k="layer" v="1" />
		<tag k="name" v="Rosseland bru" />
		<tag k="ssr:stedsnr" v="215376" />
	</node>
	<node lat="58.6083500002541" lon="7.947675006918737" id="-26763">
		<tag k="bridge" v="yes" />
		<tag k="layer" v="1" />
		<tag k="name" v="Suva" />
		<tag k="ssr:stedsnr" v="228232" />
	</node>
	<node lat="58.55118333305721" lon="7.804391674454335" id="-26764">
		<tag k="bridge" v="yes" />
		<tag k="layer" v="1" />
		<tag k="name" v="Bjorå" />
		<tag k="ssr:stedsnr" v="229232" />
	</node>
	<node lat="58.64992500314837" lon="7.6053472290619055" id="-26854">
		<tag k="junction" v="yes" />
		<tag k="name" v="Samkom" />
		<tag k="place" v="locality" />
		<tag k="ssr:stedsnr" v="457787" />
	</node>
	<node lat="58.61682777370026" lon="7.791663889233038" id="-26936">
		<tag k="bridge" v="yes" />
		<tag k="layer" v="1" />
		<tag k="name" v="Fjå" />
		<tag k="ssr:stedsnr" v="289203" />
	</node>
	<node lat="58.602616669740705" lon="7.6537000008770955" id="-26937">
		<tag k="bridge" v="yes" />
		<tag k="layer" v="1" />
		<tag k="name" v="Grytevass" />
		<tag k="ssr:stedsnr" v="289200" />
	</node>
	<node lat="58.58868333141561" lon="7.820444451855367" id="-26950">
		<tag k="bridge" v="yes" />
		<tag k="layer" v="1" />
		<tag k="name" v="Tingbergheia" />
		<tag k="ssr:stedsnr" v="471200" />
	</node>
	<node lat="58.510427774717314" lon="7.5626083355377425" id="-26951">
		<tag k="bridge" v="yes" />
		<tag k="layer" v="1" />
		<tag k="name" v="Koså østre" />
		<tag k="ssr:stedsnr" v="471231" />
	</node>
	<node lat="58.614333330880164" lon="7.9587472274149205" id="-26952">
		<tag k="bridge" v="yes" />
		<tag k="layer" v="1" />
		<tag k="name" v="Klepsland" />
		<tag k="ssr:stedsnr" v="471236" />
	</node>
	<node lat="58.53238889087919" lon="7.778644449603808" id="-26991">
		<tag k="bridge" v="yes" />
		<tag k="layer" v="1" />
		<tag k="name" v="Fennefoss bru" />
		<tag k="ssr:stedsnr" v="336345" />
	</node>
	<node lat="58.59185832972473" lon="7.694902772068201" id="-27016">
		<tag k="bridge" v="yes" />
		<tag k="layer" v="1" />
		<tag k="name" v="Støylen" />
		<tag k="ssr:stedsnr" v="350212" />
	</node>
	<node lat="58.56543610846992" lon="7.837786109201005" id="-27017">
		<tag k="bridge" v="yes" />
		<tag k="layer" v="1" />
		<tag k="name" v="Nøgetveit" />
		<tag k="ssr:stedsnr" v="350215" />
	</node>
	<node lat="58.65829444836122" lon="7.607161112864542" id="-27018">
		<tag k="bridge" v="yes" />
		<tag k="layer" v="1" />
		<tag k="name" v="Lindals" />
		<tag k="ssr:stedsnr" v="350222" />
	</node>
	<node lat="58.59022777871313" lon="8.078661104227212" id="-27025">
		<tag k="highway" v="path" />
		<tag k="name" v="Kleivane" />
		<tag k="ssr:stedsnr" v="474484" />
	</node>
	<node lat="58.64466944772959" lon="7.774688892937478" id="-27076">
		<tag k="highway" v="path" />
		<tag k="name" v="Nordkleiveveg" />
		<tag k="ssr:stedsnr" v="396277" />
	</node>
	<node lat="58.650841666591205" lon="7.61331110471437" id="-27146">
		<tag k="bridge" v="yes" />
		<tag k="layer" v="1" />
		<tag k="name" v="Kleve" />
		<tag k="ssr:stedsnr" v="411243" />
	</node>
	<node lat="58.508480551257996" lon="7.755355555750453" id="-27412">
		<tag k="bridge" v="yes" />
		<tag k="layer" v="1" />
		<tag k="name" v="Homs" />
		<tag k="ssr:stedsnr" v="592259" />
	</node>
	<node lat="58.491294443330894" lon="7.716269438632957" id="-27413">
		<tag k="bridge" v="yes" />
		<tag k="layer" v="1" />
		<tag k="name" v="Haugland" />
		<tag k="ssr:stedsnr" v="592262" />
	</node>
	<node lat="58.63754166611528" lon="7.835413888692574" id="-27536">
		<tag k="highway" v="path" />
		<tag k="name" v="Sommerveien" />
		<tag k="ssr:stedsnr" v="638581" />
	</node>
	<node lat="58.58706111382638" lon="7.802652772215222" id="-27568">
		<tag k="bridge" v="yes" />
		<tag k="layer" v="1" />
		<tag k="name" v="Birkeland sideløp" />
		<tag k="ssr:stedsnr" v="653203" />
	</node>
	<node lat="58.593491669767296" lon="7.685911117570076" id="-27569">
		<tag k="bridge" v="yes" />
		<tag k="layer" v="1" />
		<tag k="name" v="Skjerka" />
		<tag k="ssr:stedsnr" v="653214" />
	</node>
	<node lat="58.60060833295028" lon="7.844269450974371" id="-27570">
		<tag k="bridge" v="yes" />
		<tag k="layer" v="1" />
		<tag k="name" v="Odde" />
		<tag k="ssr:stedsnr" v="653218" />
	</node>
	<node lat="58.54749166406518" lon="7.754800001187715" id="-27571">
		<tag k="bridge" v="yes" />
		<tag k="layer" v="1" />
		<tag k="name" v="Kjetså" />
		<tag k="ssr:stedsnr" v="653223" />
	</node>
	<node lat="58.48059444662503" lon="7.785205548151838" id="-27572">
		<tag k="bridge" v="yes" />
		<tag k="layer" v="1" />
		<tag k="name" v="Hodnekilen bru" />
		<tag k="ssr:stedsnr" v="653230" />
	</node>
	<node lat="58.58470277393942" lon="8.016300008411356" id="-27578">
		<tag k="man_made" v="cairn" />
		<tag k="name" v="Varden" />
		<tag k="place" v="locality" />
		<tag k="ssr:stedsnr" v="656732" />
	</node>
	<node lat="58.542866663574486" lon="7.848275000210605" id="-27648">
		<tag k="bridge" v="yes" />
		<tag k="layer" v="1" />
		<tag k="name" v="Sagmyr" />
		<tag k="ssr:stedsnr" v="896233" />
	</node>
	<node lat="58.575752776209555" lon="7.734019435957586" id="-27649">
		<tag k="bridge" v="yes" />
		<tag k="layer" v="1" />
		<tag k="name" v="Kallhovd" />
		<tag k="ssr:stedsnr" v="896242" />
	</node>
	<node lat="58.6185972226341" lon="7.632941666276869" id="-27650">
		<tag k="bridge" v="yes" />
		<tag k="layer" v="1" />
		<tag k="name" v="Storos" />
		<tag k="ssr:stedsnr" v="714190" />
	</node>
	<node lat="58.58043055546035" lon="7.880838889551822" id="-27651">
		<tag k="bridge" v="yes" />
		<tag k="layer" v="1" />
		<tag k="name" v="Kloppe" />
		<tag k="ssr:stedsnr" v="714196" />
	</node>
	<node lat="58.59381111422322" lon="7.822530563911245" id="-27739">
		<tag k="bridge" v="yes" />
		<tag k="layer" v="1" />
		<tag k="name" v="Beintsbekken" />
		<tag k="ssr:stedsnr" v="775205" />
	</node>
	<node lat="58.54457222211453" lon="7.804825003340043" id="-27846">
		<tag k="highway" v="path" />
		<tag k="name" v="Simons vei" />
		<tag k="ssr:stedsnr" v="822270" />
	</node>
	<node lat="58.58035555950465" lon="7.87605555273799" id="-27868">
		<tag k="bridge" v="yes" />
		<tag k="layer" v="1" />
		<tag k="name" v="Bjorvatn" />
		<tag k="ssr:stedsnr" v="836185" />
	</node>
	<node lat="58.53288333601509" lon="7.660283326061708" id="-27869">
		<tag k="bridge" v="yes" />
		<tag k="layer" v="1" />
		<tag k="name" v="Murutjenn" />
		<tag k="ssr:stedsnr" v="836197" />
	</node>
	<node lat="58.50979166390876" lon="7.572013883812414" id="-27969">
		<tag k="bridge" v="yes" />
		<tag k="layer" v="1" />
		<tag k="name" v="Bjørndalsbekk" />
		<tag k="ssr:stedsnr" v="896216" />
	</node>
	<node lat="58.59488333057735" lon="7.827472223435382" id="-27970">
		<tag k="bridge" v="yes" />
		<tag k="layer" v="1" />
		<tag k="name" v="Beins" />
		<tag k="ssr:stedsnr" v="896223" />
	</node>
	<node lat="58.5476583290401" lon="7.775424999669191" id="-27996">
		<tag k="bridge" v="yes" />
		<tag k="layer" v="1" />
		<tag k="name" v="Voiland" />
		<tag k="ssr:stedsnr" v="957193" />
	</node>
	<node lat="58.589816663462884" lon="7.814961109907387" id="-28122">
		<tag k="bridge" v="yes" />
		<tag k="layer" v="1" />
		<tag k="name" v="Vinjebekken" />
		<tag k="ssr:stedsnr" v="46199" />
	</node>
	<node lat="58.50481666254484" lon="7.770547217960822" id="-28123">
		<tag k="bridge" v="yes" />
		<tag k="layer" v="1" />
		<tag k="name" v="Moi" />
		<tag k="ssr:stedsnr" v="46248" />
	</node>
	<node lat="58.59333888989447" lon="7.686483334825836" id="-28216">
		<tag k="highway" v="path" />
		<tag k="name" v="Kjerkeveien" />
		<tag k="ssr:stedsnr" v="93839" />
	</node>
	<node lat="58.4971166622829" lon="7.70860276961083" id="-28327">
		<tag k="highway" v="path" />
		<tag k="name" v="Stien" />
		<tag k="ssr:stedsnr" v="154786" />
	</node>
	<node lat="58.58672778235391" lon="7.804913896197636" id="-28354">
		<tag k="bridge" v="yes" />
		<tag k="layer" v="1" />
		<tag k="name" v="Evje" />
		<tag k="ssr:stedsnr" v="168221" />
	</node>
	<node lat="58.56157499680797" lon="7.771750005379266" id="-28355">
		<tag k="bridge" v="yes" />
		<tag k="layer" v="1" />
		<tag k="name" v="Dåsnes" />
		<tag k="ssr:stedsnr" v="168224" />
	</node>
	<node lat="58.629819444936665" lon="7.803388895740068" id="-28356">
		<tag k="bridge" v="yes" />
		<tag k="layer" v="1" />
		<tag k="name" v="Syrtveit" />
		<tag k="ssr:stedsnr" v="168232" />
	</node>
	<node lat="58.50880277327351" lon="7.552997217137547" id="-28357">
		<tag k="bridge" v="yes" />
		<tag k="layer" v="1" />
		<tag k="name" v="Koså vestre" />
		<tag k="ssr:stedsnr" v="168236" />
	</node>
	<node lat="58.472772226045464" lon="7.625163890292894" id="-28358">
		<tag k="bridge" v="yes" />
		<tag k="layer" v="1" />
		<tag k="name" v="Kalland øvre" />
		<tag k="ssr:stedsnr" v="168238" />
	</node>
	<node lat="58.55334166327035" lon="7.7713694494606855" id="-28359">
		<tag k="bridge" v="yes" />
		<tag k="layer" v="1" />
		<tag k="name" v="Hornnes" />
		<tag k="ssr:stedsnr" v="168240" />
	</node>
	<node lat="58.564886112618076" lon="7.8134249992994596" id="-28443">
		<tag k="bridge" v="yes" />
		<tag k="layer" v="1" />
		<tag k="name" v="Nybrua" />
		<tag k="ssr:stedsnr" v="215368" />
	</node>
	<node lat="58.46774167107181" lon="7.792311109638289" id="-28466">
		<tag k="junction" v="yes" />
		<tag k="name" v="Hodnesund" />
		<tag k="place" v="locality" />
		<tag k="ssr:stedsnr" v="274596" />
	</node>
	<node lat="58.59988611021311" lon="7.89013333854446" id="-28471">
		<tag k="highway" v="path" />
		<tag k="name" v="Timmerbakken" />
		<tag k="ssr:stedsnr" v="275401" />
	</node>
	<node lat="58.634813890407834" lon="7.776174997583878" id="-28493">
		<tag k="highway" v="path" />
		<tag k="name" v="Sørkleivveg" />
		<tag k="ssr:stedsnr" v="275351" />
	</node>
	<node lat="58.638888889826504" lon="7.9808833272732445" id="-28550">
		<tag k="bridge" v="yes" />
		<tag k="layer" v="1" />
		<tag k="name" v="Raudstøl bru" />
		<tag k="ssr:stedsnr" v="289220" />
	</node>
	<node lat="58.670013884776615" lon="7.7883361056561276" id="-28551">
		<tag k="bridge" v="yes" />
		<tag k="layer" v="1" />
		<tag k="name" v="Kvennå" />
		<tag k="ssr:stedsnr" v="289222" />
	</node>
	<node lat="58.58568332950593" lon="8.054708339158909" id="-28552">
		<tag k="bridge" v="yes" />
		<tag k="layer" v="1" />
		<tag k="name" v="Nygård" />
		<tag k="ssr:stedsnr" v="289163" />
	</node>
	<node lat="58.60085833411637" lon="8.078119451933311" id="-28560">
		<tag k="man_made" v="cairn" />
		<tag k="name" v="Storemyrvarden" />
		<tag k="place" v="locality" />
		<tag k="ssr:stedsnr" v="292466" />
	</node>
	<node lat="58.59642221811766" lon="8.081322228327315" id="-28714">
		<tag k="man_made" v="cairn" />
		<tag k="name" v="Vardane" />
		<tag k="place" v="locality" />
		<tag k="ssr:stedsnr" v="352465" />
	</node>
	<node lat="58.53671944340544" lon="7.761097220327229" id="-28941">
		<tag k="highway" v="path" />
		<tag k="name" v="Byttingsveien" />
		<tag k="ssr:stedsnr" v="518135" />
	</node>
</osm>
