<?xml version="1.0" encoding="UTF-8"?>
<osm version="0.6" generator="osmapis">
	<node lat="58.57080000016148" lon="8.042897221706987" id="-21194">
		<tag k="name" v="Lindrapsmyr" />
		<tag k="natural" v="wetland" />
		<tag k="ssr:stedsnr" v="231765" />
	</node>
	<node lat="58.579174999321424" lon="8.049277781824255" id="-21195">
		<tag k="name" v="Kråkemyr" />
		<tag k="natural" v="wetland" />
		<tag k="ssr:stedsnr" v="231768" />
	</node>
	<node lat="58.62789166407222" lon="7.62993055504101" id="-21197">
		<tag k="name" v="Deildemyr" />
		<tag k="natural" v="wetland" />
		<tag k="ssr:stedsnr" v="31978" />
	</node>
	<node lat="58.667624998414404" lon="7.703488885794089" id="-21200">
		<tag k="name" v="Netrekkane" />
		<tag k="natural" v="wetland" />
		<tag k="ssr:stedsnr" v="32067" />
	</node>
	<node lat="58.631897224513345" lon="7.74639445139378" id="-21209">
		<tag k="name" v="Gunhildshommen" />
		<tag k="place" v="locality" />
		<tag k="ssr:stedsnr" v="32347" />
	</node>
	<node lat="58.619272218749344" lon="7.897852770453531" id="-21216">
		<tag k="name" v="Haugebråtslåttane" />
		<tag k="natural" v="wetland" />
		<tag k="ssr:stedsnr" v="32479" />
	</node>
	<node lat="58.62005000033116" lon="7.904058339796707" id="-21217">
		<tag k="name" v="Åflaumyrane" />
		<tag k="natural" v="wetland" />
		<tag k="ssr:stedsnr" v="32480" />
	</node>
	<node lat="58.63152777488745" lon="7.95023054769667" id="-21222">
		<tag k="name" v="Karten" />
		<tag k="natural" v="wetland" />
		<tag k="ssr:stedsnr" v="32601" />
	</node>
	<node lat="58.560869447675344" lon="7.962541660357905" id="-21228">
		<tag k="name" v="Haukomholane" />
		<tag k="natural" v="wetland" />
		<tag k="ssr:stedsnr" v="32673" />
	</node>
	<node lat="58.623986113665495" lon="7.596366664144552" id="-21229">
		<tag k="name" v="Stormyr" />
		<tag k="natural" v="wetland" />
		<tag k="ssr:stedsnr" v="32676" />
	</node>
	<node lat="58.5656916711789" lon="7.957369448298977" id="-21230">
		<tag k="name" v="Orreleiken" />
		<tag k="natural" v="wetland" />
		<tag k="ssr:stedsnr" v="32677" />
	</node>
	<node lat="58.54933610877573" lon="7.668961115453562" id="-21235">
		<tag k="name" v="Rafossteane" />
		<tag k="place" v="locality" />
		<tag k="ssr:stedsnr" v="32813" />
	</node>
	<node lat="58.612238886184684" lon="7.974869452332815" id="-21237">
		<tag k="name" v="Lisleslått" />
		<tag k="natural" v="wetland" />
		<tag k="ssr:stedsnr" v="32865" />
	</node>
	<node lat="58.58275832949133" lon="7.674566672668122" id="-21238">
		<tag k="name" v="Svartebergstø" />
		<tag k="place" v="locality" />
		<tag k="ssr:stedsnr" v="32886" />
	</node>
	<node lat="58.6007777796354" lon="7.995075006304853" id="-21239">
		<tag k="name" v="Mikkelsslått" />
		<tag k="natural" v="wetland" />
		<tag k="ssr:stedsnr" v="32716" />
	</node>
	<node lat="58.46735277841368" lon="7.670797219879797" id="-21242">
		<tag k="name" v="Tellaugsmyr" />
		<tag k="natural" v="wetland" />
		<tag k="ssr:stedsnr" v="32787" />
	</node>
	<node lat="58.519027775002556" lon="7.715016668825716" id="-21243">
		<tag k="name" v="Listykket" />
		<tag k="place" v="locality" />
		<tag k="ssr:stedsnr" v="32912" />
	</node>
	<node lat="58.4814000009838" lon="7.774186116126595" id="-21248">
		<tag k="name" v="Orreleiksmyr" />
		<tag k="natural" v="wetland" />
		<tag k="ssr:stedsnr" v="33216" />
	</node>
	<node lat="58.57566111235994" lon="8.102886105943302" id="-21252">
		<tag k="name" v="Austre Storemyr" />
		<tag k="natural" v="wetland" />
		<tag k="ssr:stedsnr" v="49107" />
	</node>
	<node lat="58.639625003529076" lon="7.56478610409402" id="-21256">
		<tag k="name" v="Dyplestean" />
		<tag k="natural" v="wetland" />
		<tag k="ssr:stedsnr" v="61132" />
	</node>
	<node lat="58.49606388546126" lon="7.665569449122262" id="-21259">
		<tag k="name" v="Storslåtta" />
		<tag k="natural" v="wetland" />
		<tag k="ssr:stedsnr" v="61574" />
	</node>
	<node lat="58.51106666693909" lon="7.6346666752120935" id="-21265">
		<tag k="name" v="Stedjan" />
		<tag k="natural" v="wetland" />
		<tag k="ssr:stedsnr" v="61884" />
	</node>
	<node lat="58.53852222132218" lon="7.6343222292893795" id="-21272">
		<tag k="alt_name" v="Andersmyrane" />
		<tag k="name" v="Andersmyran" />
		<tag k="natural" v="wetland" />
		<tag k="ssr:stedsnr" v="62969" />
	</node>
	<node lat="58.558522220609206" lon="7.67549999371847" id="-21294">
		<tag k="alt_name" v="Farsteane" />
		<tag k="name" v="Forstean" />
		<tag k="natural" v="wetland" />
		<tag k="ssr:stedsnr" v="243949" />
	</node>
	<node lat="58.504133330915096" lon="7.732433327122408" id="-21306">
		<tag k="name" v="Halevoll" />
		<tag k="place" v="locality" />
		<tag k="ssr:stedsnr" v="93017" />
	</node>
	<node lat="58.495913889827484" lon="7.730833329349187" id="-21307">
		<tag k="name" v="Storemyr" />
		<tag k="natural" v="wetland" />
		<tag k="ssr:stedsnr" v="93018" />
	</node>
	<node lat="58.555247219794104" lon="7.859855548299239" id="-21323">
		<tag k="name" v="Rundmyr" />
		<tag k="natural" v="wetland" />
		<tag k="ssr:stedsnr" v="93371" />
	</node>
	<node lat="58.50810555339694" lon="7.846361105493837" id="-21324">
		<tag k="name" v="Storemyr" />
		<tag k="natural" v="wetland" />
		<tag k="ssr:stedsnr" v="93372" />
	</node>
	<node lat="58.619636106969985" lon="7.9901583314765885" id="-21327">
		<tag k="name" v="Dyplemyr" />
		<tag k="natural" v="wetland" />
		<tag k="ssr:stedsnr" v="93565" />
	</node>
	<node lat="58.46558888670231" lon="7.588072220948254" id="-21333">
		<tag k="name" v="Duldetjønnholtane" />
		<tag k="place" v="locality" />
		<tag k="ssr:stedsnr" v="93590" />
	</node>
	<node lat="58.51045000259496" lon="7.717561114042235" id="-21334">
		<tag k="name" v="Hallvfarstø" />
		<tag k="place" v="locality" />
		<tag k="ssr:stedsnr" v="93702" />
	</node>
	<node lat="58.6185138913056" lon="8.000624994239923" id="-21336">
		<tag k="name" v="Lyngbømyr" />
		<tag k="natural" v="wetland" />
		<tag k="ssr:stedsnr" v="93707" />
	</node>
	<node lat="58.6036666643848" lon="7.9378305633781165" id="-21337">
		<tag k="name" v="Heståsmyrane" />
		<tag k="natural" v="wetland" />
		<tag k="ssr:stedsnr" v="93709" />
	</node>
	<node lat="58.56231666234786" lon="7.887247226898275" id="-21339">
		<tag k="name" v="Sveinungsmyr" />
		<tag k="natural" v="wetland" />
		<tag k="ssr:stedsnr" v="93722" />
	</node>
	<node lat="58.52101944062054" lon="7.779872220011124" id="-21340">
		<tag k="name" v="Grønemyr" />
		<tag k="natural" v="wetland" />
		<tag k="ssr:stedsnr" v="93728" />
	</node>
	<node lat="58.59934722255778" lon="7.607252784357037" id="-21357">
		<tag k="name" v="Gunhildskleiv" />
		<tag k="place" v="locality" />
		<tag k="ssr:stedsnr" v="93617" />
	</node>
	<node lat="58.523347219800755" lon="7.609894437768932" id="-21358">
		<tag k="name" v="Sandblokksteane" />
		<tag k="natural" v="wetland" />
		<tag k="ssr:stedsnr" v="93624" />
	</node>
	<node lat="58.666222226471334" lon="7.929611117612093" id="-21361">
		<tag k="name" v="Hellernes" />
		<tag k="natural" v="wetland" />
		<tag k="ssr:stedsnr" v="93666" />
	</node>
	<node lat="58.48724166529354" lon="7.581108340015822" id="-21362">
		<tag k="name" v="Sindrestø" />
		<tag k="place" v="locality" />
		<tag k="ssr:stedsnr" v="93667" />
	</node>
	<node lat="58.65599444735466" lon="7.932555562504099" id="-21363">
		<tag k="name" v="Grasbrok" />
		<tag k="natural" v="wetland" />
		<tag k="ssr:stedsnr" v="93669" />
	</node>
	<node lat="58.602880557500214" lon="7.997069447433991" id="-21365">
		<tag k="name" v="Hovasslåttane" />
		<tag k="natural" v="wetland" />
		<tag k="ssr:stedsnr" v="93681" />
	</node>
	<node lat="58.48709722385017" lon="7.723588894271166" id="-21367">
		<tag k="name" v="Kjusfetholtane" />
		<tag k="place" v="locality" />
		<tag k="ssr:stedsnr" v="93790" />
	</node>
	<node lat="58.65078333092895" lon="7.986127775324288" id="-21368">
		<tag k="name" v="Bjørnehola" />
		<tag k="natural" v="wetland" />
		<tag k="ssr:stedsnr" v="93795" />
	</node>
	<node lat="58.61613055274803" lon="8.0068083410805" id="-21369">
		<tag k="name" v="Rosenblomslåttane" />
		<tag k="natural" v="wetland" />
		<tag k="ssr:stedsnr" v="93812" />
	</node>
	<node lat="58.59791111462172" lon="8.062494451731496" id="-21377">
		<tag k="name" v="Blåmyr" />
		<tag k="natural" v="wetland" />
		<tag k="ssr:stedsnr" v="110482" />
	</node>
	<node lat="58.6173722231792" lon="7.58141944148921" id="-21386">
		<tag k="alt_name" v="Storemyrane" />
		<tag k="name" v="Storemyran" />
		<tag k="natural" v="wetland" />
		<tag k="ssr:stedsnr" v="121832" />
	</node>
	<node lat="58.6126416669689" lon="7.826427771138561" id="-21394">
		<tag k="name" v="Tollestø" />
		<tag k="natural" v="wetland" />
		<tag k="ssr:stedsnr" v="152263" />
	</node>
	<node lat="58.60926388500483" lon="7.815249995814665" id="-21396">
		<tag k="name" v="Dyblemyr" />
		<tag k="natural" v="wetland" />
		<tag k="ssr:stedsnr" v="152269" />
	</node>
	<node lat="58.60291110689304" lon="7.711283336843042" id="-21400">
		<tag k="name" v="Ånundsmyr" />
		<tag k="natural" v="wetland" />
		<tag k="ssr:stedsnr" v="153071" />
	</node>
	<node lat="58.4721249967689" lon="7.757269452270151" id="-21405">
		<tag k="name" v="Eikåsmyra" />
		<tag k="natural" v="wetland" />
		<tag k="ssr:stedsnr" v="153121" />
	</node>
	<node lat="58.589086113818254" lon="7.849494436112403" id="-21407">
		<tag k="name" v="Byttingrøysa" />
		<tag k="natural" v="stone" />
		<tag k="ssr:stedsnr" v="153400" />
	</node>
	<node lat="58.62599167077052" lon="7.90145833642758" id="-21414">
		<tag k="name" v="Åflaumyrane" />
		<tag k="natural" v="wetland" />
		<tag k="ssr:stedsnr" v="153569" />
	</node>
	<node lat="58.55480833158059" lon="7.86735555652612" id="-21418">
		<tag k="name" v="Drivreimyra" />
		<tag k="natural" v="wetland" />
		<tag k="ssr:stedsnr" v="153452" />
	</node>
	<node lat="58.5610805590911" lon="7.870891668887078" id="-21424">
		<tag k="name" v="Bjørneråshola" />
		<tag k="natural" v="wetland" />
		<tag k="ssr:stedsnr" v="153616" />
	</node>
	<node lat="58.6266583337847" lon="7.959766668017399" id="-21433">
		<tag k="name" v="Møssmørmyr" />
		<tag k="natural" v="wetland" />
		<tag k="ssr:stedsnr" v="153700" />
	</node>
	<node lat="58.45348055149236" lon="7.6619805502762235" id="-21434">
		<tag k="name" v="Lange Kirsti" />
		<tag k="natural" v="wetland" />
		<tag k="ssr:stedsnr" v="153804" />
	</node>
	<node lat="58.52924166660179" lon="7.761811105454918" id="-21443">
		<tag k="name" v="Breidalsmyra" />
		<tag k="natural" v="wetland" />
		<tag k="ssr:stedsnr" v="154165" />
	</node>
	<node lat="58.531613886474254" lon="7.780547218648971" id="-21448">
		<tag k="name" v="Øytjønn" />
		<tag k="natural" v="wetland" />
		<tag k="ssr:stedsnr" v="154328" />
	</node>
	<node lat="58.585138890993" lon="7.775830560827628" id="-21454">
		<tag k="name" v="Svinehagen" />
		<tag k="place" v="locality" />
		<tag k="ssr:stedsnr" v="154225" />
	</node>
	<node lat="58.64066111311612" lon="7.746324995154497" id="-21459">
		<tag k="alt_name" v="Vasslottane" />
		<tag k="name" v="Vasslåttane" />
		<tag k="natural" v="wetland" />
		<tag k="ssr:stedsnr" v="154400" />
	</node>
	<node lat="58.49006666684369" lon="7.546330559769904" id="-21463">
		<tag k="name" v="Den store steinen" />
		<tag k="natural" v="stone" />
		<tag k="ssr:stedsnr" v="154700" />
	</node>
	<node lat="58.472138889519094" lon="7.72335833604546" id="-21467">
		<tag k="name" v="Vetrhusmyr" />
		<tag k="natural" v="wetland" />
		<tag k="ssr:stedsnr" v="154798" />
	</node>
	<node lat="58.59292499918375" lon="7.659816661159118" id="-21471">
		<tag k="name" v="Grunnøyna" />
		<tag k="place" v="locality" />
		<tag k="ssr:stedsnr" v="154914" />
	</node>
	<node lat="58.59874444847041" lon="7.735280549762155" id="-21483">
		<tag k="alt_name" v="Fuglemyr" />
		<tag k="name" v="Fuglemyra" />
		<tag k="natural" v="wetland" />
		<tag k="ssr:stedsnr" v="182699" />
	</node>
	<node lat="58.65197499806387" lon="7.962924998669803" id="-21491">
		<tag k="alt_name" v="Botnan" />
		<tag k="name" v="Botnmyra" />
		<tag k="natural" v="wetland" />
		<tag k="ssr:stedsnr" v="183489" />
	</node>
	<node lat="58.67777500100525" lon="7.727250005078583" id="-21498">
		<tag k="name" v="Snøhola" />
		<tag k="natural" v="wetland" />
		<tag k="ssr:stedsnr" v="213312" />
	</node>
	<node lat="58.51149721880027" lon="7.7757222271570745" id="-21500">
		<tag k="name" v="Voremyr" />
		<tag k="natural" v="wetland" />
		<tag k="ssr:stedsnr" v="214010" />
	</node>
	<node lat="58.59324999567692" lon="7.908438883893085" id="-21514">
		<tag k="name" v="Høgåsmyra" />
		<tag k="natural" v="wetland" />
		<tag k="ssr:stedsnr" v="214409" />
	</node>
	<node lat="58.557988885191044" lon="7.8718861045156086" id="-21518">
		<tag k="name" v="Døla" />
		<tag k="natural" v="wetland" />
		<tag k="ssr:stedsnr" v="214432" />
	</node>
	<node lat="58.553119447798714" lon="7.901122224982686" id="-21521">
		<tag k="name" v="Samloga" />
		<tag k="natural" v="wetland" />
		<tag k="ssr:stedsnr" v="214489" />
	</node>
	<node lat="58.61795277365434" lon="7.942108334508304" id="-21522">
		<tag k="name" v="Revhommane" />
		<tag k="place" v="locality" />
		<tag k="ssr:stedsnr" v="214493" />
	</node>
	<node lat="58.63143055149196" lon="7.841863893761575" id="-21523">
		<tag k="name" v="Skareslått" />
		<tag k="place" v="locality" />
		<tag k="ssr:stedsnr" v="214603" />
	</node>
	<node lat="58.57252222405732" lon="7.878338889024665" id="-21524">
		<tag k="name" v="Grånåsmyra" />
		<tag k="natural" v="wetland" />
		<tag k="ssr:stedsnr" v="214613" />
	</node>
	<node lat="58.5675888860835" lon="7.900999996660097" id="-21526">
		<tag k="name" v="Slævehølane" />
		<tag k="natural" v="wetland" />
		<tag k="ssr:stedsnr" v="214628" />
	</node>
	<node lat="58.56186944006697" lon="7.9507611082199015" id="-21529">
		<tag k="name" v="Djupemyr" />
		<tag k="natural" v="wetland" />
		<tag k="ssr:stedsnr" v="214733" />
	</node>
	<node lat="58.62047499594026" lon="7.957336113510681" id="-21530">
		<tag k="name" v="Storemyr" />
		<tag k="natural" v="wetland" />
		<tag k="ssr:stedsnr" v="214679" />
	</node>
	<node lat="58.48080277667833" lon="7.738941666526144" id="-21547">
		<tag k="name" v="Langemyr" />
		<tag k="natural" v="wetland" />
		<tag k="ssr:stedsnr" v="215210" />
	</node>
	<node lat="58.48307500354307" lon="7.74283888321099" id="-21548">
		<tag k="name" v="Bergtorsmyr" />
		<tag k="natural" v="wetland" />
		<tag k="ssr:stedsnr" v="215212" />
	</node>
	<node lat="58.47657500175188" lon="7.741186119506445" id="-21549">
		<tag k="name" v="Rørkjerr" />
		<tag k="natural" v="wetland" />
		<tag k="ssr:stedsnr" v="215214" />
	</node>
	<node lat="58.534513885490426" lon="7.755094437859975" id="-21552">
		<tag k="name" v="Sponskarkarten" />
		<tag k="natural" v="wetland" />
		<tag k="ssr:stedsnr" v="215279" />
	</node>
	<node lat="58.54231666316028" lon="7.815061114923451" id="-21554">
		<tag k="name" v="Tikemyr" />
		<tag k="natural" v="wetland" />
		<tag k="ssr:stedsnr" v="215296" />
	</node>
	<node lat="58.57143888966198" lon="7.817652772210952" id="-21556">
		<tag k="name" v="Steane" />
		<tag k="natural" v="wetland" />
		<tag k="ssr:stedsnr" v="215378" />
	</node>
	<node lat="58.61162222394645" lon="7.936088883389778" id="-21558">
		<tag k="name" v="Dalemyr" />
		<tag k="natural" v="wetland" />
		<tag k="ssr:stedsnr" v="215578" />
	</node>
	<node lat="58.48553610840638" lon="7.568230550877425" id="-21564">
		<tag k="name" v="Hisdalsmyra" />
		<tag k="natural" v="wetland" />
		<tag k="ssr:stedsnr" v="215679" />
	</node>
	<node lat="58.45377778014375" lon="7.673880554989186" id="-21565">
		<tag k="name" v="Laurdalsslåtta" />
		<tag k="natural" v="wetland" />
		<tag k="ssr:stedsnr" v="215823" />
	</node>
	<node lat="58.568519444445755" lon="7.712719440436586" id="-21574">
		<tag k="name" v="Orremyrane" />
		<tag k="natural" v="wetland" />
		<tag k="ssr:stedsnr" v="215985" />
	</node>
	<node lat="58.56108333463973" lon="7.691677770993585" id="-21576">
		<tag k="name" v="Øvre kufallet" />
		<tag k="place" v="locality" />
		<tag k="ssr:stedsnr" v="215991" />
	</node>
	<node lat="58.622127781551654" lon="7.780786105336789" id="-21597">
		<tag k="name" v="Krosstean" />
		<tag k="place" v="locality" />
		<tag k="ssr:stedsnr" v="456298" />
	</node>
	<node lat="58.465811109797265" lon="7.766966665766992" id="-21604">
		<tag k="name" v="Jensemyr" />
		<tag k="natural" v="wetland" />
		<tag k="ssr:stedsnr" v="457099" />
	</node>
	<node lat="58.546636114223936" lon="7.828980553077135" id="-21609">
		<tag k="name" v="Orreleiksmyrane" />
		<tag k="natural" v="wetland" />
		<tag k="ssr:stedsnr" v="457197" />
	</node>
	<node lat="58.588622223804705" lon="7.8755833325999465" id="-21617">
		<tag k="name" v="Spasoppmyra" />
		<tag k="natural" v="wetland" />
		<tag k="ssr:stedsnr" v="457386" />
	</node>
	<node lat="58.58508333746323" lon="7.924244443364727" id="-21619">
		<tag k="name" v="Fænemyr" />
		<tag k="natural" v="wetland" />
		<tag k="ssr:stedsnr" v="457390" />
	</node>
	<node lat="58.546866671131156" lon="7.902269438812238" id="-21629">
		<tag k="name" v="Torbjørnsmyrane" />
		<tag k="natural" v="wetland" />
		<tag k="ssr:stedsnr" v="457456" />
	</node>
	<node lat="58.55281666854959" lon="7.903247217885346" id="-21630">
		<tag k="name" v="Skorvane" />
		<tag k="natural" v="wetland" />
		<tag k="ssr:stedsnr" v="457475" />
	</node>
	<node lat="58.639472218788235" lon="7.845280548138688" id="-21635">
		<tag k="name" v="Heieslåtta" />
		<tag k="natural" v="wetland" />
		<tag k="ssr:stedsnr" v="457542" />
	</node>
	<node lat="58.63846944049768" lon="7.88013333933049" id="-21636">
		<tag k="name" v="Galtebekkmyra" />
		<tag k="natural" v="wetland" />
		<tag k="ssr:stedsnr" v="457549" />
	</node>
	<node lat="58.56291389276114" lon="7.897494439870266" id="-21638">
		<tag k="name" v="Rappslåttane" />
		<tag k="natural" v="wetland" />
		<tag k="ssr:stedsnr" v="457553" />
	</node>
	<node lat="58.62043611436196" lon="7.566647217193276" id="-21646">
		<tag k="name" v="Høgemyr" />
		<tag k="natural" v="wetland" />
		<tag k="ssr:stedsnr" v="457691" />
	</node>
	<node lat="58.569161110092914" lon="7.962786110516187" id="-21647">
		<tag k="name" v="Rundemyr" />
		<tag k="natural" v="wetland" />
		<tag k="ssr:stedsnr" v="457692" />
	</node>
	<node lat="58.56905833653492" lon="7.961227776475107" id="-21649">
		<tag k="name" v="Nedre Nipeslått" />
		<tag k="natural" v="wetland" />
		<tag k="ssr:stedsnr" v="457695" />
	</node>
	<node lat="58.62519999588584" lon="7.949961103800465" id="-21654">
		<tag k="name" v="Tjønnslåtta" />
		<tag k="natural" v="wetland" />
		<tag k="ssr:stedsnr" v="457610" />
	</node>
	<node lat="58.621383334720996" lon="7.99323332870604" id="-21656">
		<tag k="name" v="Østeråsmyra" />
		<tag k="natural" v="wetland" />
		<tag k="ssr:stedsnr" v="457613" />
	</node>
	<node lat="58.573819442436374" lon="7.998652774122612" id="-21665">
		<tag k="name" v="Moltekarten" />
		<tag k="natural" v="wetland" />
		<tag k="ssr:stedsnr" v="457651" />
	</node>
	<node lat="58.510602779251" lon="7.556552781798927" id="-21667">
		<tag k="name" v="Helgoland" />
		<tag k="place" v="locality" />
		<tag k="ssr:stedsnr" v="457653" />
	</node>
	<node lat="58.50173333094228" lon="7.699274993406922" id="-21669">
		<tag k="name" v="Øvre Steane" />
		<tag k="natural" v="wetland" />
		<tag k="ssr:stedsnr" v="457730" />
	</node>
	<node lat="58.49642778007894" lon="7.703766661707283" id="-21670">
		<tag k="name" v="Fjellmyr" />
		<tag k="natural" v="wetland" />
		<tag k="ssr:stedsnr" v="457737" />
	</node>
	<node lat="58.54625555317353" lon="7.6690388974150485" id="-21676">
		<tag k="name" v="Fjellslåtta" />
		<tag k="natural" v="wetland" />
		<tag k="ssr:stedsnr" v="457800" />
	</node>
	<node lat="58.59256944560253" lon="7.6181055529040735" id="-21678">
		<tag k="name" v="Øvste hovda" />
		<tag k="place" v="locality" />
		<tag k="ssr:stedsnr" v="457882" />
	</node>
	<node lat="58.56172777478889" lon="7.672913891626783" id="-21687">
		<tag k="name" v="Krossmyr" />
		<tag k="natural" v="wetland" />
		<tag k="ssr:stedsnr" v="457985" />
	</node>
	<node lat="58.51306388481821" lon="7.754041667885306" id="-21688">
		<tag k="name" v="Kleivane" />
		<tag k="natural" v="wetland" />
		<tag k="ssr:stedsnr" v="275005" />
	</node>
	<node lat="58.46199722253765" lon="7.745019451743464" id="-21695">
		<tag k="name" v="Holtane" />
		<tag k="place" v="locality" />
		<tag k="ssr:stedsnr" v="275107" />
	</node>
	<node lat="58.5342666629065" lon="7.7728222139206915" id="-21696">
		<tag k="name" v="Kringlemyr" />
		<tag k="natural" v="wetland" />
		<tag k="ssr:stedsnr" v="275114" />
	</node>
	<node lat="58.52727777407801" lon="7.807827770239446" id="-21698">
		<tag k="name" v="Hylesteane" />
		<tag k="natural" v="wetland" />
		<tag k="ssr:stedsnr" v="275122" />
	</node>
	<node lat="58.59025277420169" lon="7.938411104443949" id="-21703">
		<tag k="name" v="Kattefossmyra" />
		<tag k="natural" v="wetland" />
		<tag k="ssr:stedsnr" v="275408" />
	</node>
	<node lat="58.510194442079545" lon="7.847302777845462" id="-21705">
		<tag k="name" v="Djupemyr" />
		<tag k="natural" v="wetland" />
		<tag k="ssr:stedsnr" v="275413" />
	</node>
	<node lat="58.552777778467245" lon="7.768908326212374" id="-21706">
		<tag k="name" v="Nedre Skrubbemyr" />
		<tag k="natural" v="wetland" />
		<tag k="ssr:stedsnr" v="275169" />
	</node>
	<node lat="58.47537778209669" lon="7.753636117297986" id="-21707">
		<tag k="name" v="Skranekroken" />
		<tag k="natural" v="wetland" />
		<tag k="ssr:stedsnr" v="275170" />
	</node>
	<node lat="58.58667778119202" lon="7.8846249936792745" id="-21713">
		<tag k="name" v="Hagansmyrane" />
		<tag k="natural" v="wetland" />
		<tag k="ssr:stedsnr" v="275374" />
	</node>
	<node lat="58.584836112241106" lon="7.928911105297786" id="-21714">
		<tag k="name" v="Storemyr" />
		<tag k="natural" v="wetland" />
		<tag k="ssr:stedsnr" v="275379" />
	</node>
	<node lat="58.61744166511307" lon="7.600413891394217" id="-21729">
		<tag k="name" v="Djupemyr" />
		<tag k="natural" v="wetland" />
		<tag k="ssr:stedsnr" v="275682" />
	</node>
	<node lat="58.627355558919426" lon="7.581194443676938" id="-21731">
		<tag k="name" v="Kvernhusmyran" />
		<tag k="natural" v="wetland" />
		<tag k="ssr:stedsnr" v="275684" />
	</node>
	<node lat="58.48242777964816" lon="7.606186109084708" id="-21735">
		<tag k="name" v="Leitingsmyr" />
		<tag k="natural" v="wetland" />
		<tag k="ssr:stedsnr" v="275706" />
	</node>
	<node lat="58.55600000213953" lon="7.599697218141889" id="-21740">
		<tag k="name" v="Skoteslåtta" />
		<tag k="natural" v="wetland" />
		<tag k="ssr:stedsnr" v="275721" />
	</node>
	<node lat="58.638358331772146" lon="7.646124999899275" id="-21745">
		<tag k="name" v="Vareknodda" />
		<tag k="place" v="locality" />
		<tag k="ssr:stedsnr" v="275980" />
	</node>
	<node lat="58.56790555491702" lon="7.709536107136086" id="-21746">
		<tag k="name" v="Beinmyr" />
		<tag k="natural" v="wetland" />
		<tag k="ssr:stedsnr" v="275983" />
	</node>
	<node lat="58.56408333128185" lon="7.663152776801472" id="-21747">
		<tag k="name" v="Sprengsmyr" />
		<tag k="natural" v="wetland" />
		<tag k="ssr:stedsnr" v="275994" />
	</node>
	<node lat="58.56430277565735" lon="7.658888896576618" id="-21749">
		<tag k="name" v="Snutobakksmyr" />
		<tag k="natural" v="wetland" />
		<tag k="ssr:stedsnr" v="275997" />
	</node>
	<node lat="58.512477774644076" lon="7.814852782595457" id="-21771">
		<tag k="name" v="Orreleiksmyr" />
		<tag k="natural" v="wetland" />
		<tag k="ssr:stedsnr" v="335045" />
	</node>
	<node lat="58.620250004035505" lon="7.61601944041411" id="-21775">
		<tag k="name" v="Svintoksmyr" />
		<tag k="natural" v="wetland" />
		<tag k="ssr:stedsnr" v="334952" />
	</node>
	<node lat="58.58766111481536" lon="7.879244452210046" id="-21779">
		<tag k="name" v="Kronemyr" />
		<tag k="natural" v="wetland" />
		<tag k="ssr:stedsnr" v="335366" />
	</node>
	<node lat="58.558969441099734" lon="7.8787638939954086" id="-21780">
		<tag k="name" v="Ytre Saltvass-steer" />
		<tag k="natural" v="wetland" />
		<tag k="ssr:stedsnr" v="335503" />
	</node>
	<node lat="58.62794444175391" lon="7.967177774537641" id="-21783">
		<tag k="name" v="Lauvåsmyrane" />
		<tag k="natural" v="wetland" />
		<tag k="ssr:stedsnr" v="335706" />
	</node>
	<node lat="58.65333333680278" lon="7.896644444836792" id="-21787">
		<tag k="name" v="Lønekron" />
		<tag k="place" v="locality" />
		<tag k="ssr:stedsnr" v="335755" />
	</node>
	<node lat="58.57382499665797" lon="7.866197230391383" id="-21789">
		<tag k="name" v="Kåvollmyra" />
		<tag k="natural" v="wetland" />
		<tag k="ssr:stedsnr" v="335614" />
	</node>
	<node lat="58.615669444413754" lon="7.983111115310289" id="-21795">
		<tag k="name" v="Kjeråsmyrane" />
		<tag k="natural" v="wetland" />
		<tag k="ssr:stedsnr" v="335658" />
	</node>
	<node lat="58.46792222470763" lon="7.6040805589766824" id="-21808">
		<tag k="name" v="Steane" />
		<tag k="natural" v="wetland" />
		<tag k="ssr:stedsnr" v="336647" />
	</node>
	<node lat="58.47445000134834" lon="7.580338890077324" id="-21809">
		<tag k="name" v="Nedre Hattefossmyr" />
		<tag k="natural" v="wetland" />
		<tag k="ssr:stedsnr" v="336693" />
	</node>
	<node lat="58.4910833293581" lon="7.625677785128369" id="-21817">
		<tag k="name" v="Haugeslåttane" />
		<tag k="natural" v="wetland" />
		<tag k="ssr:stedsnr" v="336853" />
	</node>
	<node lat="58.4811249965099" lon="7.586299994998956" id="-21818">
		<tag k="name" v="Skripel" />
		<tag k="place" v="locality" />
		<tag k="ssr:stedsnr" v="336702" />
	</node>
	<node lat="58.54764166362097" lon="7.664600007759939" id="-21823">
		<tag k="name" v="Toroldskoran" />
		<tag k="place" v="locality" />
		<tag k="ssr:stedsnr" v="336795" />
	</node>
	<node lat="58.602005558653765" lon="8.08536667465376" id="-21834">
		<tag k="name" v="Storemyr" />
		<tag k="natural" v="wetland" />
		<tag k="ssr:stedsnr" v="352478" />
	</node>
	<node lat="58.59128055741939" lon="8.021286112193474" id="-21835">
		<tag k="name" v="Tobakkslåtta" />
		<tag k="natural" v="wetland" />
		<tag k="ssr:stedsnr" v="352703" />
	</node>
	<node lat="58.574061110527914" lon="8.050666664394969" id="-21836">
		<tag k="name" v="Risåsmyrane" />
		<tag k="natural" v="wetland" />
		<tag k="ssr:stedsnr" v="352709" />
	</node>
	<node lat="58.59371666915576" lon="8.095311108144847" id="-21838">
		<tag k="name" v="Rundemyr" />
		<tag k="natural" v="wetland" />
		<tag k="ssr:stedsnr" v="474481" />
	</node>
	<node lat="58.599899996206965" lon="8.040338889623602" id="-21842">
		<tag k="name" v="Knutsmyr" />
		<tag k="natural" v="wetland" />
		<tag k="ssr:stedsnr" v="474693" />
	</node>
	<node lat="58.54882777925185" lon="7.877144445457593" id="-21850">
		<tag k="alt_name" v="Frigstadmyra" />
		<tag k="name" v="Frikstadmyra" />
		<tag k="natural" v="wetland" />
		<tag k="ssr:stedsnr" v="364649" />
	</node>
	<node lat="58.67428055334198" lon="7.742050006246599" id="-21861">
		<tag k="name" v="Rypetolla" />
		<tag k="place" v="locality" />
		<tag k="ssr:stedsnr" v="395301" />
	</node>
	<node lat="58.67529444776984" lon="7.775936105547926" id="-21862">
		<tag k="name" v="Bjørndalsstøa" />
		<tag k="place" v="locality" />
		<tag k="ssr:stedsnr" v="395303" />
	</node>
	<node lat="58.59267500262931" lon="7.727908333433864" id="-21866">
		<tag k="name" v="Langemyr" />
		<tag k="natural" v="wetland" />
		<tag k="ssr:stedsnr" v="396137" />
	</node>
	<node lat="58.47190555130698" lon="7.729805557138679" id="-21870">
		<tag k="name" v="Vetrhuskroken" />
		<tag k="natural" v="wetland" />
		<tag k="ssr:stedsnr" v="396092" />
	</node>
	<node lat="58.62376667003889" lon="7.807241659915706" id="-21873">
		<tag k="name" v="Myra" />
		<tag k="natural" v="wetland" />
		<tag k="ssr:stedsnr" v="396205" />
	</node>
	<node lat="58.629136109316136" lon="7.764333335266483" id="-21881">
		<tag k="name" v="Runsemyr" />
		<tag k="natural" v="wetland" />
		<tag k="ssr:stedsnr" v="396334" />
	</node>
	<node lat="58.624997218949886" lon="7.892766669089848" id="-21887">
		<tag k="name" v="Høydalsmyra" />
		<tag k="natural" v="wetland" />
		<tag k="ssr:stedsnr" v="396530" />
	</node>
	<node lat="58.6208666709378" lon="7.873761107387764" id="-21888">
		<tag k="name" v="Landåsstø" />
		<tag k="place" v="locality" />
		<tag k="ssr:stedsnr" v="396531" />
	</node>
	<node lat="58.62283055982037" lon="7.919186117071854" id="-21896">
		<tag k="name" v="Gunhildsmyr" />
		<tag k="natural" v="wetland" />
		<tag k="ssr:stedsnr" v="396483" />
	</node>
	<node lat="58.61974444510606" lon="7.978374997903566" id="-21903">
		<tag k="name" v="Dyblemyr" />
		<tag k="natural" v="wetland" />
		<tag k="ssr:stedsnr" v="396614" />
	</node>
	<node lat="58.49621111532548" lon="7.606947224109468" id="-21905">
		<tag k="name" v="Kjæddemyr" />
		<tag k="natural" v="wetland" />
		<tag k="ssr:stedsnr" v="396616" />
	</node>
	<node lat="58.57483610948504" lon="7.9695027729388315" id="-21907">
		<tag k="name" v="Storemyr" />
		<tag k="natural" v="wetland" />
		<tag k="ssr:stedsnr" v="396630" />
	</node>
	<node lat="58.53004999819547" lon="7.549983328924103" id="-21913">
		<tag k="name" v="Kvernhusholane" />
		<tag k="natural" v="wetland" />
		<tag k="ssr:stedsnr" v="396706" />
	</node>
	<node lat="58.584799998168016" lon="7.9990722272573525" id="-21918">
		<tag k="name" v="Kolebunnskjerret" />
		<tag k="natural" v="wetland" />
		<tag k="ssr:stedsnr" v="396713" />
	</node>
	<node lat="58.5685444474018" lon="7.739722224609741" id="-21921">
		<tag k="name" v="Nordre Bufallsmyr" />
		<tag k="natural" v="wetland" />
		<tag k="ssr:stedsnr" v="396787" />
	</node>
	<node lat="58.55144722570719" lon="7.672119447795333" id="-21925">
		<tag k="name" v="Bjørkeholtane" />
		<tag k="place" v="locality" />
		<tag k="ssr:stedsnr" v="396914" />
	</node>
	<node lat="58.61741388681121" lon="8.016277776861916" id="-21930">
		<tag k="name" v="Kalleskvar" />
		<tag k="natural" v="wetland" />
		<tag k="ssr:stedsnr" v="396836" />
	</node>
	<node lat="58.59265277496311" lon="7.719097215048657" id="-21935">
		<tag k="name" v="Elekrukk" />
		<tag k="place" v="locality" />
		<tag k="ssr:stedsnr" v="396881" />
	</node>
	<node lat="58.57064999989359" lon="7.657638894712028" id="-21938">
		<tag k="name" v="Djupemyr" />
		<tag k="natural" v="wetland" />
		<tag k="ssr:stedsnr" v="396999" />
	</node>
	<node lat="58.59964444099838" lon="8.08578333912261" id="-21961">
		<tag k="name" v="Hjortelislåttane" />
		<tag k="natural" v="wetland" />
		<tag k="ssr:stedsnr" v="413505" />
	</node>
	<node lat="58.56941111428385" lon="8.034250003869118" id="-21962">
		<tag k="name" v="Høgemyr" />
		<tag k="natural" v="wetland" />
		<tag k="ssr:stedsnr" v="413739" />
	</node>
	<node lat="58.572477778067125" lon="7.666036107889895" id="-21980">
		<tag k="name" v="Persmyr" />
		<tag k="natural" v="wetland" />
		<tag k="ssr:stedsnr" v="425798" />
	</node>
	<node lat="58.676763889772666" lon="7.586236116331366" id="-21982">
		<tag k="alt_name" v="Deknehommane" />
		<tag k="name" v="Deknehomman" />
		<tag k="place" v="locality" />
		<tag k="ssr:stedsnr" v="426191" />
	</node>
	<node lat="58.60914722420514" lon="7.797269437422264" id="-21997">
		<tag k="name" v="Ytrestean" />
		<tag k="natural" v="wetland" />
		<tag k="ssr:stedsnr" v="456305" />
	</node>
	<node lat="58.46382222243721" lon="7.751797223305854" id="-21998">
		<tag k="name" v="Laurdagsslåttene" />
		<tag k="natural" v="wetland" />
		<tag k="ssr:stedsnr" v="457103" />
	</node>
	<node lat="58.5181805558353" lon="7.7696583380449535" id="-22001">
		<tag k="name" v="Kleven" />
		<tag k="natural" v="wetland" />
		<tag k="ssr:stedsnr" v="457118" />
	</node>
	<node lat="58.5530888853236" lon="7.751275005809216" id="-22006">
		<tag k="name" v="Klåmremyr" />
		<tag k="natural" v="wetland" />
		<tag k="ssr:stedsnr" v="457169" />
	</node>
	<node lat="58.45851110783647" lon="7.7906638850092165" id="-22007">
		<tag k="name" v="Kvernhusmyra" />
		<tag k="natural" v="wetland" />
		<tag k="ssr:stedsnr" v="457007" />
	</node>
	<node lat="58.49875833259104" lon="7.731474993151601" id="-22008">
		<tag k="name" v="Grånemyr" />
		<tag k="natural" v="wetland" />
		<tag k="ssr:stedsnr" v="457012" />
	</node>
	<node lat="58.50721389141935" lon="7.804388882485441" id="-22010">
		<tag k="name" v="Videmyr" />
		<tag k="natural" v="wetland" />
		<tag k="ssr:stedsnr" v="457025" />
	</node>
	<node lat="58.67261944580405" lon="7.785499999341197" id="-22018">
		<tag k="name" v="Fjellteigen" />
		<tag k="place" v="locality" />
		<tag k="ssr:stedsnr" v="457266" />
	</node>
	<node lat="58.590527775108875" lon="7.9331777861025525" id="-22022">
		<tag k="name" v="Mattiskjerr" />
		<tag k="natural" v="wetland" />
		<tag k="ssr:stedsnr" v="457418" />
	</node>
	<node lat="58.589127781520034" lon="7.928261104874623" id="-22023">
		<tag k="name" v="Fodalsmyr" />
		<tag k="natural" v="wetland" />
		<tag k="ssr:stedsnr" v="457422" />
	</node>
	<node lat="58.517777778950745" lon="7.8443722236433295" id="-22024">
		<tag k="name" v="Lislemyr" />
		<tag k="natural" v="wetland" />
		<tag k="ssr:stedsnr" v="457462" />
	</node>
	<node lat="58.57258055186097" lon="7.791677786111751" id="-22027">
		<tag k="name" v="Listeinsmyra" />
		<tag k="natural" v="wetland" />
		<tag k="ssr:stedsnr" v="457309" />
	</node>
	<node lat="58.58527222200189" lon="7.873405552643658" id="-22030">
		<tag k="name" v="Raunemyr" />
		<tag k="natural" v="wetland" />
		<tag k="ssr:stedsnr" v="457363" />
	</node>
	<node lat="58.59120832996939" lon="7.871958336627569" id="-22034">
		<tag k="name" v="Bakmedmyra" />
		<tag k="natural" v="wetland" />
		<tag k="ssr:stedsnr" v="457379" />
	</node>
	<node lat="58.63776666722553" lon="7.9079583300101834" id="-22036">
		<tag k="name" v="Øygardsmyra" />
		<tag k="natural" v="wetland" />
		<tag k="ssr:stedsnr" v="457511" />
	</node>
	<node lat="58.640194441109536" lon="7.931608327013157" id="-22037">
		<tag k="name" v="Øvre Glenna" />
		<tag k="natural" v="wetland" />
		<tag k="ssr:stedsnr" v="457519" />
	</node>
	<node lat="58.64923611389296" lon="7.94939445193175" id="-22045">
		<tag k="name" v="Kalvehagen" />
		<tag k="place" v="locality" />
		<tag k="ssr:stedsnr" v="457823" />
	</node>
	<node lat="58.48901944722484" lon="7.716147227413653" id="-22048">
		<tag k="name" v="Holtane" />
		<tag k="place" v="locality" />
		<tag k="ssr:stedsnr" v="457842" />
	</node>
	<node lat="58.47146111227595" lon="7.692586118047513" id="-22059">
		<tag k="name" v="Kjerstismyr" />
		<tag k="natural" v="wetland" />
		<tag k="ssr:stedsnr" v="457780" />
	</node>
	<node lat="58.53840000031451" lon="7.692630554215548" id="-22061">
		<tag k="name" v="Katthølholtane" />
		<tag k="place" v="locality" />
		<tag k="ssr:stedsnr" v="457925" />
	</node>
	<node lat="58.60781111189582" lon="8.087399992670392" id="-22063">
		<tag k="name" v="Røyrmyr" />
		<tag k="natural" v="wetland" />
		<tag k="ssr:stedsnr" v="474670" />
	</node>
	<node lat="58.47970277836222" lon="7.695633325442274" id="-22068">
		<tag k="alt_name" v="Krossmyrane" />
		<tag k="name" v="Krossmyran" />
		<tag k="natural" v="wetland" />
		<tag k="ssr:stedsnr" v="485511" />
	</node>
	<node lat="58.61118610771995" lon="7.71333055536754" id="-22073">
		<tag k="alt_name" v="Bjørnskjeggmyr" />
		<tag k="name" v="Bjørnskjeggmyri" />
		<tag k="natural" v="wetland" />
		<tag k="ssr:stedsnr" v="485825" />
	</node>
	<node lat="58.69192500226287" lon="7.629486118628329" id="-22074">
		<tag k="name" v="Hestehommen" />
		<tag k="place" v="locality" />
		<tag k="ssr:stedsnr" v="486205" />
	</node>
	<node lat="58.470433333976594" lon="7.7897749969867505" id="-22083">
		<tag k="name" v="Reieneset" />
		<tag k="place" v="locality" />
		<tag k="ssr:stedsnr" v="517002" />
	</node>
	<node lat="58.5125138917584" lon="7.768988888453767" id="-22084">
		<tag k="name" v="Myglemyr" />
		<tag k="natural" v="wetland" />
		<tag k="ssr:stedsnr" v="517004" />
	</node>
	<node lat="58.661350001288234" lon="7.744772216494101" id="-22093">
		<tag k="name" v="Stolphuset" />
		<tag k="natural" v="stone" />
		<tag k="ssr:stedsnr" v="517269" />
	</node>
	<node lat="58.59764166851661" lon="7.886625002102755" id="-22099">
		<tag k="name" v="Langemyr" />
		<tag k="natural" v="wetland" />
		<tag k="ssr:stedsnr" v="517475" />
	</node>
	<node lat="58.59580555321112" lon="7.8819638862331125" id="-22100">
		<tag k="name" v="Storemyr" />
		<tag k="natural" v="wetland" />
		<tag k="ssr:stedsnr" v="517477" />
	</node>
	<node lat="58.621549995727754" lon="7.894602780407819" id="-22101">
		<tag k="name" v="Skjevledalane" />
		<tag k="natural" v="wetland" />
		<tag k="ssr:stedsnr" v="517513" />
	</node>
	<node lat="58.60958333481709" lon="7.937802776351591" id="-22102">
		<tag k="name" v="Striklingsmyr" />
		<tag k="natural" v="wetland" />
		<tag k="ssr:stedsnr" v="517523" />
	</node>
	<node lat="58.61506111187973" lon="7.897649994044953" id="-22104">
		<tag k="name" v="Stemmyrane" />
		<tag k="natural" v="wetland" />
		<tag k="ssr:stedsnr" v="517530" />
	</node>
	<node lat="58.56873888488845" lon="7.923788896766316" id="-22112">
		<tag k="name" v="Torgeirsmyrane" />
		<tag k="natural" v="wetland" />
		<tag k="ssr:stedsnr" v="517607" />
	</node>
	<node lat="58.51169722117392" lon="7.666883338216443" id="-22114">
		<tag k="name" v="Gautemyr" />
		<tag k="natural" v="wetland" />
		<tag k="ssr:stedsnr" v="517812" />
	</node>
	<node lat="58.54885555900982" lon="7.838197220572303" id="-22115">
		<tag k="alt_name" v="Middagsmyr" />
		<tag k="name" v="Middagsmyra" />
		<tag k="natural" v="wetland" />
		<tag k="ssr:stedsnr" v="517804" />
	</node>
	<node lat="58.574302777624" lon="7.733691668027205" id="-22120">
		<tag k="name" v="Steane" />
		<tag k="place" v="locality" />
		<tag k="ssr:stedsnr" v="517837" />
	</node>
	<node lat="58.68552499896608" lon="7.700163894588672" id="-22123">
		<tag k="name" v="Sålvesteinane" />
		<tag k="natural" v="stone" />
		<tag k="ssr:stedsnr" v="518074" />
	</node>
	<node lat="58.52545555413428" lon="7.74051666640354" id="-22129">
		<tag k="name" v="Nordre Bufallsmyr" />
		<tag k="natural" v="wetland" />
		<tag k="ssr:stedsnr" v="518342" />
	</node>
	<node lat="58.4796111136765" lon="7.5425583326157914" id="-22133">
		<tag k="name" v="Vardemyra" />
		<tag k="natural" v="wetland" />
		<tag k="ssr:stedsnr" v="518606" />
	</node>
	<node lat="58.483791664658746" lon="7.52351666346961" id="-22134">
		<tag k="name" v="Hundshovet" />
		<tag k="place" v="locality" />
		<tag k="ssr:stedsnr" v="518609" />
	</node>
	<node lat="58.57353055750982" lon="7.976455555540771" id="-22138">
		<tag k="name" v="Skorva" />
		<tag k="natural" v="wetland" />
		<tag k="ssr:stedsnr" v="518632" />
	</node>
	<node lat="58.47583889270358" lon="7.569775007896302" id="-22140">
		<tag k="name" v="Lusegrøvane" />
		<tag k="place" v="locality" />
		<tag k="ssr:stedsnr" v="518734" />
	</node>
	<node lat="58.463711110682" lon="7.7193138899316995" id="-22142">
		<tag k="name" v="Kleivmyr" />
		<tag k="natural" v="wetland" />
		<tag k="ssr:stedsnr" v="518754" />
	</node>
	<node lat="58.51103610708837" lon="7.654155560219886" id="-22143">
		<tag k="name" v="Fjælestadsjøen" />
		<tag k="natural" v="wetland" />
		<tag k="ssr:stedsnr" v="518762" />
	</node>
	<node lat="58.494544441146765" lon="7.627572230023145" id="-22145">
		<tag k="landuse" v="quarry" />
		<tag k="name" v="Gruva" />
		<tag k="ssr:stedsnr" v="518765" />
	</node>
	<node lat="58.462444443027934" lon="7.613116673043561" id="-22146">
		<tag k="name" v="Liansslåtta" />
		<tag k="natural" v="wetland" />
		<tag k="ssr:stedsnr" v="518660" />
	</node>
	<node lat="58.54370555225161" lon="7.7228833419293945" id="-22147">
		<tag k="name" v="Magnhildsteane" />
		<tag k="place" v="locality" />
		<tag k="ssr:stedsnr" v="518812" />
	</node>
	<node lat="58.5542611075931" lon="7.6581611139653125" id="-22149">
		<tag k="name" v="Farskoran" />
		<tag k="place" v="locality" />
		<tag k="ssr:stedsnr" v="518822" />
	</node>
	<node lat="58.54512500407974" lon="7.682047225579207" id="-22152">
		<tag k="name" v="Tvørrdalsmyra" />
		<tag k="natural" v="wetland" />
		<tag k="ssr:stedsnr" v="518915" />
	</node>
	<node lat="58.54241944188397" lon="7.692705559745673" id="-22153">
		<tag k="name" v="Bjørndalsmyr" />
		<tag k="natural" v="wetland" />
		<tag k="ssr:stedsnr" v="518920" />
	</node>
	<node lat="58.51496388929785" lon="7.663666672496295" id="-22162">
		<tag k="alt_name" v="Bjørkholtsteane" />
		<tag k="name" v="Bjørkholstean" />
		<tag k="natural" v="wetland" />
		<tag k="ssr:stedsnr" v="546868" />
	</node>
	<node lat="58.51888888917402" lon="7.679227776435065" id="-22163">
		<tag k="alt_name" v="Lislåttane" />
		<tag k="name" v="Lislåttan" />
		<tag k="natural" v="wetland" />
		<tag k="ssr:stedsnr" v="546869" />
	</node>
	<node lat="58.67534722275013" lon="7.764744446623953" id="-22172">
		<tag k="name" v="Kvilarsteinen" />
		<tag k="natural" v="stone" />
		<tag k="ssr:stedsnr" v="577294" />
	</node>
	<node lat="58.513238892230625" lon="7.795419451431992" id="-22176">
		<tag k="name" v="Kleppemyrane" />
		<tag k="natural" v="wetland" />
		<tag k="ssr:stedsnr" v="578048" />
	</node>
	<node lat="58.551772223219714" lon="7.830030561026623" id="-22178">
		<tag k="name" v="Gausemyra" />
		<tag k="natural" v="wetland" />
		<tag k="ssr:stedsnr" v="578212" />
	</node>
	<node lat="58.46958611445878" lon="7.772494451465592" id="-22179">
		<tag k="name" v="Kringlemyr" />
		<tag k="natural" v="wetland" />
		<tag k="ssr:stedsnr" v="578107" />
	</node>
	<node lat="58.63810833611006" lon="7.938880555942582" id="-22189">
		<tag k="name" v="Dyplemyr" />
		<tag k="natural" v="wetland" />
		<tag k="ssr:stedsnr" v="578510" />
	</node>
	<node lat="58.56287500415326" lon="7.9192055562379045" id="-22192">
		<tag k="name" v="Bjørnekjerr" />
		<tag k="natural" v="wetland" />
		<tag k="ssr:stedsnr" v="578555" />
	</node>
	<node lat="58.55720277804884" lon="7.876119437721622" id="-22193">
		<tag k="name" v="Kvitkjerr" />
		<tag k="natural" v="wetland" />
		<tag k="ssr:stedsnr" v="578402" />
	</node>
	<node lat="58.55301388527517" lon="7.8754611026756285" id="-22194">
		<tag k="name" v="Ørnehola" />
		<tag k="natural" v="wetland" />
		<tag k="ssr:stedsnr" v="578403" />
	</node>
	<node lat="58.51631110843331" lon="7.848255547374916" id="-22197">
		<tag k="name" v="Trettekjerr" />
		<tag k="natural" v="wetland" />
		<tag k="ssr:stedsnr" v="578417" />
	</node>
	<node lat="58.4528694478258" lon="7.697161115713172" id="-22207">
		<tag k="name" v="Skrubbsursteinen" />
		<tag k="natural" v="stone" />
		<tag k="ssr:stedsnr" v="578751" />
	</node>
	<node lat="58.52686944168729" lon="7.649477772026645" id="-22210">
		<tag k="name" v="Kjellerslåtta" />
		<tag k="natural" v="wetland" />
		<tag k="ssr:stedsnr" v="578910" />
	</node>
	<node lat="58.47124166229961" lon="7.591247218586289" id="-22212">
		<tag k="name" v="Langesteane" />
		<tag k="natural" v="wetland" />
		<tag k="ssr:stedsnr" v="578641" />
	</node>
	<node lat="58.56762221956947" lon="7.975749999546255" id="-22214">
		<tag k="name" v="Klevelandsslåtta" />
		<tag k="natural" v="wetland" />
		<tag k="ssr:stedsnr" v="578650" />
	</node>
	<node lat="58.60418333506648" lon="7.928786106582677" id="-22215">
		<tag k="name" v="Møybergmyrane" />
		<tag k="natural" v="wetland" />
		<tag k="ssr:stedsnr" v="578692" />
	</node>
	<node lat="58.4799388850738" lon="7.717061113370873" id="-22219">
		<tag k="name" v="Skarmyr" />
		<tag k="natural" v="wetland" />
		<tag k="ssr:stedsnr" v="578812" />
	</node>
	<node lat="58.49194444175563" lon="7.670405562117655" id="-22222">
		<tag k="name" v="Slarpemyr" />
		<tag k="natural" v="wetland" />
		<tag k="ssr:stedsnr" v="578831" />
	</node>
	<node lat="58.572727774443436" lon="7.616819445434162" id="-22225">
		<tag k="name" v="Bjørkeholtane" />
		<tag k="place" v="locality" />
		<tag k="ssr:stedsnr" v="578998" />
	</node>
	<node lat="58.571419443929095" lon="8.056105560290543" id="-22228">
		<tag k="name" v="Risåsmyrane" />
		<tag k="natural" v="wetland" />
		<tag k="ssr:stedsnr" v="595058" />
	</node>
	<node lat="58.5140527774567" lon="7.827502781613454" id="-22233">
		<tag k="name" v="Lortemyr" />
		<tag k="natural" v="wetland" />
		<tag k="ssr:stedsnr" v="699037" />
	</node>
	<node lat="58.56885555528189" lon="7.910033338560481" id="-22234">
		<tag k="name" v="Krokevasslåttane" />
		<tag k="natural" v="wetland" />
		<tag k="ssr:stedsnr" v="699588" />
	</node>
	<node lat="58.5733000013359" lon="7.912424994961881" id="-22235">
		<tag k="name" v="Midtslått" />
		<tag k="natural" v="wetland" />
		<tag k="ssr:stedsnr" v="699592" />
	</node>
	<node lat="58.53167499870219" lon="7.745041665234197" id="-22242">
		<tag k="name" v="Lislåttane" />
		<tag k="natural" v="wetland" />
		<tag k="ssr:stedsnr" v="699117" />
	</node>
	<node lat="58.55760555387163" lon="7.845797230526069" id="-22245">
		<tag k="name" v="Smørste" />
		<tag k="natural" v="wetland" />
		<tag k="ssr:stedsnr" v="699418" />
	</node>
	<node lat="58.633983329606785" lon="7.8860083381057215" id="-22251">
		<tag k="name" v="Skorva" />
		<tag k="place" v="locality" />
		<tag k="ssr:stedsnr" v="699541" />
	</node>
	<node lat="58.616830553729" lon="7.982072228092671" id="-22254">
		<tag k="name" v="Smålimyrane" />
		<tag k="natural" v="wetland" />
		<tag k="ssr:stedsnr" v="699618" />
	</node>
	<node lat="58.55883333232917" lon="7.8640916735510284" id="-22258">
		<tag k="name" v="Skarmyrjota" />
		<tag k="natural" v="wetland" />
		<tag k="ssr:stedsnr" v="699436" />
	</node>
	<node lat="58.648780554848365" lon="7.772763891629971" id="-22259">
		<tag k="name" v="Geitemyr" />
		<tag k="natural" v="wetland" />
		<tag k="ssr:stedsnr" v="699444" />
	</node>
	<node lat="58.5363611143193" lon="7.853027778905593" id="-22260">
		<tag k="name" v="Trettemyr" />
		<tag k="natural" v="wetland" />
		<tag k="ssr:stedsnr" v="699453" />
	</node>
	<node lat="58.650074998889764" lon="7.880413888855361" id="-22263">
		<tag k="name" v="Kremmerhylen" />
		<tag k="natural" v="wetland" />
		<tag k="ssr:stedsnr" v="699709" />
	</node>
	<node lat="58.56358332970317" lon="7.988741659539654" id="-22266">
		<tag k="name" v="Bjørnskjeggmyra" />
		<tag k="natural" v="wetland" />
		<tag k="ssr:stedsnr" v="699640" />
	</node>
	<node lat="58.59603889301606" lon="7.99067777579112" id="-22268">
		<tag k="name" v="Dyplemyr" />
		<tag k="natural" v="wetland" />
		<tag k="ssr:stedsnr" v="699659" />
	</node>
	<node lat="58.553575002913256" lon="7.766263880722033" id="-22269">
		<tag k="name" v="Øvre Skrubbemyr" />
		<tag k="natural" v="wetland" />
		<tag k="ssr:stedsnr" v="699744" />
	</node>
	<node lat="58.61071388582981" lon="7.96221389538595" id="-22273">
		<tag k="name" v="Blautemyr" />
		<tag k="natural" v="wetland" />
		<tag k="ssr:stedsnr" v="699858" />
	</node>
	<node lat="58.54411110909271" lon="7.660819447332791" id="-22281">
		<tag k="alt_name" v="Lunnehommen" />
		<tag k="name" v="Lunnerhommen" />
		<tag k="place" v="locality" />
		<tag k="ssr:stedsnr" v="606958" />
	</node>
	<node lat="58.537713892696296" lon="7.747966667241378" id="-22297">
		<tag k="name" v="Somreimyrane" />
		<tag k="natural" v="wetland" />
		<tag k="ssr:stedsnr" v="700260" />
	</node>
	<node lat="58.456688886421425" lon="7.591166663701101" id="-22306">
		<tag k="name" v="Store Eikebrokkmyr" />
		<tag k="natural" v="wetland" />
		<tag k="ssr:stedsnr" v="700671" />
	</node>
	<node lat="58.458872218165524" lon="7.6500527808738585" id="-22309">
		<tag k="name" v="Storemyr" />
		<tag k="natural" v="wetland" />
		<tag k="ssr:stedsnr" v="700778" />
	</node>
	<node lat="58.64381944136098" lon="7.611552773863291" id="-22310">
		<tag k="name" v="Skarpevoll" />
		<tag k="place" v="locality" />
		<tag k="ssr:stedsnr" v="700688" />
	</node>
	<node lat="58.481719440338296" lon="7.725591667911438" id="-22319">
		<tag k="name" v="Torsteinsmyr" />
		<tag k="natural" v="wetland" />
		<tag k="ssr:stedsnr" v="700835" />
	</node>
	<node lat="58.59353888706118" lon="7.672188892573912" id="-22321">
		<tag k="name" v="Skjeresteinen" />
		<tag k="natural" v="stone" />
		<tag k="ssr:stedsnr" v="700888" />
	</node>
	<node lat="58.59221944715902" lon="7.616377772283207" id="-22323">
		<tag k="name" v="Matkron" />
		<tag k="place" v="locality" />
		<tag k="ssr:stedsnr" v="700897" />
	</node>
	<node lat="58.54054444050806" lon="7.687402769620997" id="-22326">
		<tag k="name" v="Storemyr" />
		<tag k="place" v="locality" />
		<tag k="ssr:stedsnr" v="700935" />
	</node>
	<node lat="58.4609111132964" lon="7.784658330065756" id="-22332">
		<tag k="name" v="Bjormyr" />
		<tag k="natural" v="wetland" />
		<tag k="ssr:stedsnr" v="638015" />
	</node>
	<node lat="58.55704166773891" lon="7.868627777035402" id="-22338">
		<tag k="name" v="Saltvamyr" />
		<tag k="natural" v="wetland" />
		<tag k="ssr:stedsnr" v="638406" />
	</node>
	<node lat="58.55736944216268" lon="7.861686114143758" id="-22339">
		<tag k="name" v="Skarmyra" />
		<tag k="natural" v="wetland" />
		<tag k="ssr:stedsnr" v="638407" />
	</node>
	<node lat="58.54853333093797" lon="7.743611113541773" id="-22342">
		<tag k="historic" v="shieling" />
		<tag k="name" v="Hagen" />
		<tag k="place" v="locality" />
		<tag k="ssr:stedsnr" v="638182" />
	</node>
	<node lat="58.56835833342423" lon="7.891305552578251" id="-22346">
		<tag k="name" v="Lykreismyr" />
		<tag k="natural" v="wetland" />
		<tag k="ssr:stedsnr" v="638606" />
	</node>
	<node lat="58.62117221939751" lon="7.977958331474236" id="-22347">
		<tag k="name" v="Blautemyr" />
		<tag k="natural" v="wetland" />
		<tag k="ssr:stedsnr" v="638629" />
	</node>
	<node lat="58.56957222220946" lon="7.877213888372287" id="-22352">
		<tag k="name" v="Lisledalsmyr" />
		<tag k="natural" v="wetland" />
		<tag k="ssr:stedsnr" v="638596" />
	</node>
	<node lat="58.50671944399899" lon="7.760474992799726" id="-22356">
		<tag k="name" v="Kroksteane" />
		<tag k="place" v="locality" />
		<tag k="ssr:stedsnr" v="639028" />
	</node>
	<node lat="58.508808335163664" lon="7.745311103729488" id="-22357">
		<tag k="name" v="Kringlemyr" />
		<tag k="natural" v="wetland" />
		<tag k="ssr:stedsnr" v="639031" />
	</node>
	<node lat="58.58302500078011" lon="7.83056945285557" id="-22360">
		<tag k="name" v="Ørnefjellstø" />
		<tag k="place" v="locality" />
		<tag k="ssr:stedsnr" v="639209" />
	</node>
	<node lat="58.63194721918376" lon="7.755061108981471" id="-22366">
		<tag k="name" v="Drittpyttmyr" />
		<tag k="natural" v="wetland" />
		<tag k="ssr:stedsnr" v="639398" />
	</node>
	<node lat="58.46412222586872" lon="7.626852779827755" id="-22370">
		<tag k="name" v="Sikkem" />
		<tag k="place" v="locality" />
		<tag k="ssr:stedsnr" v="639812" />
	</node>
	<node lat="58.54176389114923" lon="7.663472223484523" id="-22371">
		<tag k="name" v="Hommen" />
		<tag k="place" v="locality" />
		<tag k="ssr:stedsnr" v="639815" />
	</node>
	<node lat="58.640563886495194" lon="7.585402775891459" id="-22373">
		<tag k="name" v="Trondslåtta" />
		<tag k="natural" v="wetland" />
		<tag k="ssr:stedsnr" v="639705" />
	</node>
	<node lat="58.59790555583575" lon="7.631911118428202" id="-22377">
		<tag k="name" v="Midtfall" />
		<tag k="place" v="locality" />
		<tag k="ssr:stedsnr" v="639916" />
	</node>
	<node lat="58.54239999652933" lon="7.682047223441761" id="-22379">
		<tag k="name" v="Venemyr" />
		<tag k="natural" v="wetland" />
		<tag k="ssr:stedsnr" v="639938" />
	</node>
	<node lat="58.6839027752259" lon="7.65405554752371" id="-22399">
		<tag k="name" v="Hommen" />
		<tag k="place" v="locality" />
		<tag k="ssr:stedsnr" v="668210" />
	</node>
	<node lat="58.6757888915275" lon="7.741327785843461" id="-22416">
		<tag k="name" v="Langemyrane" />
		<tag k="natural" v="wetland" />
		<tag k="ssr:stedsnr" v="699276" />
	</node>
	<node lat="58.59081111020404" lon="7.899880552286323" id="-22418">
		<tag k="name" v="Duestein" />
		<tag k="natural" v="stone" />
		<tag k="ssr:stedsnr" v="699403" />
	</node>
	<node lat="58.594061113228214" lon="7.837508327644997" id="-22420">
		<tag k="name" v="Revemyr" />
		<tag k="natural" v="wetland" />
		<tag k="ssr:stedsnr" v="699372" />
	</node>
	<node lat="58.618847222900705" lon="7.917177775414908" id="-22421">
		<tag k="name" v="Bytingsmyr" />
		<tag k="natural" v="wetland" />
		<tag k="ssr:stedsnr" v="699509" />
	</node>
	<node lat="58.57218888597288" lon="7.953744449776871" id="-22427">
		<tag k="name" v="Heimre Vareslått" />
		<tag k="natural" v="wetland" />
		<tag k="ssr:stedsnr" v="699676" />
	</node>
	<node lat="58.57084166603295" lon="7.957511109736004" id="-22428">
		<tag k="name" v="Berjeslåtta" />
		<tag k="natural" v="wetland" />
		<tag k="ssr:stedsnr" v="699682" />
	</node>
	<node lat="58.638524996521824" lon="7.679761118882605" id="-22436">
		<tag k="name" v="Mykestølmyran" />
		<tag k="natural" v="wetland" />
		<tag k="ssr:stedsnr" v="699965" />
	</node>
	<node lat="58.46628611098917" lon="7.547802770337606" id="-22447">
		<tag k="name" v="Hareholtane" />
		<tag k="place" v="locality" />
		<tag k="ssr:stedsnr" v="700611" />
	</node>
	<node lat="58.61206944785081" lon="7.587291668003962" id="-22448">
		<tag k="name" v="Revemyrane" />
		<tag k="natural" v="wetland" />
		<tag k="ssr:stedsnr" v="700708" />
	</node>
	<node lat="58.5435611110797" lon="7.6670833377903636" id="-22449">
		<tag k="name" v="Haugehommen" />
		<tag k="place" v="locality" />
		<tag k="ssr:stedsnr" v="700803" />
	</node>
	<node lat="58.55040833308884" lon="7.668794441793775" id="-22450">
		<tag k="name" v="Laurdagsslåtta" />
		<tag k="natural" v="wetland" />
		<tag k="ssr:stedsnr" v="700811" />
	</node>
	<node lat="58.47604444553052" lon="7.724280558992136" id="-22452">
		<tag k="name" v="Blautjota" />
		<tag k="natural" v="wetland" />
		<tag k="ssr:stedsnr" v="700862" />
	</node>
	<node lat="58.679527778346056" lon="7.581663894018372" id="-22477">
		<tag k="alt_name" v="Presthommen" />
		<tag k="name" v="Presthomman" />
		<tag k="place" v="locality" />
		<tag k="ssr:stedsnr" v="729193" />
	</node>
	<node lat="58.5154833314581" lon="7.818244440083368" id="-22492">
		<tag k="name" v="Surtemyr" />
		<tag k="natural" v="wetland" />
		<tag k="ssr:stedsnr" v="760044" />
	</node>
	<node lat="58.65620555902023" lon="7.6433111079439255" id="-22495">
		<tag k="name" v="Såtelimyr" />
		<tag k="natural" v="wetland" />
		<tag k="ssr:stedsnr" v="760094" />
	</node>
	<node lat="58.695263890085016" lon="7.663049998741384" id="-22497">
		<tag k="name" v="Sveivane" />
		<tag k="place" v="locality" />
		<tag k="ssr:stedsnr" v="760101" />
	</node>
	<node lat="58.55335833562123" lon="7.806424996882267" id="-22498">
		<tag k="name" v="Persste" />
		<tag k="place" v="locality" />
		<tag k="ssr:stedsnr" v="760220" />
	</node>
	<node lat="58.468033336390114" lon="7.763416669454029" id="-22503">
		<tag k="name" v="Vreistemyr" />
		<tag k="natural" v="wetland" />
		<tag k="ssr:stedsnr" v="760122" />
	</node>
	<node lat="58.58824722645389" lon="7.886502775710478" id="-22504">
		<tag k="name" v="Skorpemålsmyra" />
		<tag k="natural" v="wetland" />
		<tag k="ssr:stedsnr" v="760410" />
	</node>
	<node lat="58.64645277737033" lon="7.784338897433543" id="-22505">
		<tag k="name" v="Limyra" />
		<tag k="natural" v="wetland" />
		<tag k="ssr:stedsnr" v="760458" />
	</node>
	<node lat="58.632872226744325" lon="8.020138893382375" id="-22512">
		<tag k="name" v="Stiksmyr" />
		<tag k="natural" v="wetland" />
		<tag k="ssr:stedsnr" v="760648" />
	</node>
	<node lat="58.61718333461944" lon="7.970716668658744" id="-22513">
		<tag k="name" v="Roteslåttane" />
		<tag k="natural" v="wetland" />
		<tag k="ssr:stedsnr" v="760651" />
	</node>
	<node lat="58.61696944801795" lon="7.9885416610775" id="-22514">
		<tag k="name" v="Slettemyr" />
		<tag k="natural" v="wetland" />
		<tag k="ssr:stedsnr" v="760655" />
	</node>
	<node lat="58.614208329375025" lon="7.939327777721106" id="-22517">
		<tag k="name" v="Saurtjønnkrona" />
		<tag k="natural" v="wetland" />
		<tag k="ssr:stedsnr" v="760512" />
	</node>
	<node lat="58.5668250045029" lon="7.739644452583653" id="-22526">
		<tag k="name" v="Bufallsmyr" />
		<tag k="natural" v="wetland" />
		<tag k="ssr:stedsnr" v="760807" />
	</node>
	<node lat="58.50621666310835" lon="7.830530555333046" id="-22532">
		<tag k="name" v="Elgsmyr" />
		<tag k="natural" v="wetland" />
		<tag k="ssr:stedsnr" v="761049" />
	</node>
	<node lat="58.58376111492145" lon="7.832355550887284" id="-22536">
		<tag k="name" v="Lauvholane" />
		<tag k="place" v="locality" />
		<tag k="ssr:stedsnr" v="761213" />
	</node>
	<node lat="58.4545277759342" lon="7.570394436329279" id="-22545">
		<tag k="name" v="Jordet" />
		<tag k="place" v="locality" />
		<tag k="ssr:stedsnr" v="761693" />
	</node>
	<node lat="58.58033888515334" lon="7.9779805635852865" id="-22547">
		<tag k="name" v="Dyplemyr" />
		<tag k="natural" v="wetland" />
		<tag k="ssr:stedsnr" v="761695" />
	</node>
	<node lat="58.58552500178916" lon="8.01801110456105" id="-22554">
		<tag k="name" v="Bumyr" />
		<tag k="natural" v="wetland" />
		<tag k="ssr:stedsnr" v="777713" />
	</node>
	<node lat="58.59885000318571" lon="7.624980560657456" id="-22568">
		<tag k="alt_name" v="Trettemyrane" />
		<tag k="name" v="Trettemyran" />
		<tag k="natural" v="wetland" />
		<tag k="ssr:stedsnr" v="910875" />
	</node>
	<node lat="58.66537778068725" lon="7.630672224399221" id="-22597">
		<tag k="alt_name" v="Slåttet" />
		<tag k="name" v="Slottet" />
		<tag k="natural" v="wetland" />
		<tag k="ssr:stedsnr" v="790145" />
	</node>
	<node lat="58.68446944578773" lon="7.710280550009984" id="-22599">
		<tag k="name" v="Hommen" />
		<tag k="place" v="locality" />
		<tag k="ssr:stedsnr" v="790164" />
	</node>
	<node lat="58.655333330141836" lon="7.654100000115579" id="-22620">
		<tag k="name" v="Langelisteane" />
		<tag k="natural" v="wetland" />
		<tag k="ssr:stedsnr" v="821076" />
	</node>
	<node lat="58.591633331433556" lon="7.8782388804917955" id="-22628">
		<tag k="name" v="Tyngslekjerrane" />
		<tag k="natural" v="wetland" />
		<tag k="ssr:stedsnr" v="821403" />
	</node>
	<node lat="58.593611114607064" lon="7.920997224101033" id="-22634">
		<tag k="name" v="Gamleslått" />
		<tag k="natural" v="wetland" />
		<tag k="ssr:stedsnr" v="821421" />
	</node>
	<node lat="58.60167500388806" lon="7.897072214062985" id="-22636">
		<tag k="name" v="Åveslandsmyra" />
		<tag k="natural" v="wetland" />
		<tag k="ssr:stedsnr" v="821426" />
	</node>
	<node lat="58.63684999604894" lon="7.891922227709248" id="-22641">
		<tag k="name" v="Myhola" />
		<tag k="natural" v="wetland" />
		<tag k="ssr:stedsnr" v="821525" />
	</node>
	<node lat="58.62670833513291" lon="7.8868249966728365" id="-22642">
		<tag k="name" v="Bjørnsmyr" />
		<tag k="natural" v="wetland" />
		<tag k="ssr:stedsnr" v="821575" />
	</node>
	<node lat="58.56877222564532" lon="7.950455553532038" id="-22644">
		<tag k="name" v="Ytre Bjørnskjeggmyr" />
		<tag k="natural" v="wetland" />
		<tag k="ssr:stedsnr" v="821713" />
	</node>
	<node lat="58.61830000304696" lon="7.95696389333115" id="-22655">
		<tag k="name" v="Hanses Fossemyr" />
		<tag k="natural" v="wetland" />
		<tag k="ssr:stedsnr" v="821873" />
	</node>
	<node lat="58.502025004350976" lon="7.6634805564702" id="-22675">
		<tag k="name" v="Karismyr" />
		<tag k="natural" v="wetland" />
		<tag k="ssr:stedsnr" v="822785" />
	</node>
	<node lat="58.46500000167235" lon="7.621833329986716" id="-22677">
		<tag k="name" v="Rismyr" />
		<tag k="natural" v="wetland" />
		<tag k="ssr:stedsnr" v="822821" />
	</node>
	<node lat="58.480483333056355" lon="7.621169436183409" id="-22679">
		<tag k="name" v="Gråsteinsmyr" />
		<tag k="natural" v="wetland" />
		<tag k="ssr:stedsnr" v="822898" />
	</node>
	<node lat="58.51554166728124" lon="7.637497216771757" id="-22699">
		<tag k="name" v="Moland" />
		<tag k="natural" v="wetland" />
		<tag k="ssr:stedsnr" v="850875" />
	</node>
	<node lat="58.495674996858575" lon="7.760066672312841" id="-22711">
		<tag k="name" v="Holfokjerr" />
		<tag k="natural" v="wetland" />
		<tag k="ssr:stedsnr" v="882031" />
	</node>
	<node lat="58.47364166635606" lon="7.7354611098217605" id="-22717">
		<tag k="name" v="Bjørnskjeggmyr" />
		<tag k="natural" v="wetland" />
		<tag k="ssr:stedsnr" v="882154" />
	</node>
	<node lat="58.552266667353706" lon="7.742997220038754" id="-22721">
		<tag k="name" v="Bronåsmyrane" />
		<tag k="natural" v="wetland" />
		<tag k="ssr:stedsnr" v="882171" />
	</node>
	<node lat="58.628505555259665" lon="7.800575003401102" id="-22724">
		<tag k="name" v="Storeslått" />
		<tag k="natural" v="wetland" />
		<tag k="ssr:stedsnr" v="882311" />
	</node>
	<node lat="58.53698610960287" lon="7.840336115494701" id="-22736">
		<tag k="name" v="Steinklovmyra" />
		<tag k="natural" v="wetland" />
		<tag k="ssr:stedsnr" v="882411" />
	</node>
	<node lat="58.592694445150485" lon="7.887466668240812" id="-22737">
		<tag k="name" v="Hasseldalsmyr" />
		<tag k="natural" v="wetland" />
		<tag k="ssr:stedsnr" v="882414" />
	</node>
	<node lat="58.520391667984946" lon="7.844086111205495" id="-22738">
		<tag k="name" v="Lieste" />
		<tag k="natural" v="wetland" />
		<tag k="ssr:stedsnr" v="882418" />
	</node>
	<node lat="58.517202779385286" lon="7.836844435905054" id="-22739">
		<tag k="name" v="Leite" />
		<tag k="place" v="locality" />
		<tag k="ssr:stedsnr" v="882419" />
	</node>
	<node lat="58.56163888526288" lon="7.931183331645094" id="-22742">
		<tag k="name" v="Djupmyr" />
		<tag k="natural" v="wetland" />
		<tag k="ssr:stedsnr" v="882511" />
	</node>
	<node lat="58.62007778057675" lon="7.99839444423843" id="-22747">
		<tag k="name" v="Krossen" />
		<tag k="natural" v="wetland" />
		<tag k="ssr:stedsnr" v="882559" />
	</node>
	<node lat="58.615944445836476" lon="7.963688896551639" id="-22748">
		<tag k="name" v="Brotemyr" />
		<tag k="natural" v="wetland" />
		<tag k="ssr:stedsnr" v="882564" />
	</node>
	<node lat="58.5949666671045" lon="7.974649994609872" id="-22759">
		<tag k="name" v="Steane" />
		<tag k="natural" v="wetland" />
		<tag k="ssr:stedsnr" v="882611" />
	</node>
	<node lat="58.59285555812144" lon="7.9585444377460295" id="-22761">
		<tag k="name" v="Kartmyrane" />
		<tag k="natural" v="wetland" />
		<tag k="ssr:stedsnr" v="882615" />
	</node>
	<node lat="58.59571110957857" lon="7.954583339726461" id="-22762">
		<tag k="name" v="Voylemyrane" />
		<tag k="natural" v="wetland" />
		<tag k="ssr:stedsnr" v="882616" />
	</node>
	<node lat="58.606758335911266" lon="7.951055563645465" id="-22769">
		<tag k="name" v="Galtelandsmyrane" />
		<tag k="natural" v="wetland" />
		<tag k="ssr:stedsnr" v="882809" />
	</node>
	<node lat="58.61463055497381" lon="8.000647230597663" id="-22771">
		<tag k="name" v="Telleiskjerr" />
		<tag k="natural" v="wetland" />
		<tag k="ssr:stedsnr" v="882812" />
	</node>
</osm>
