<?xml version="1.0" encoding="UTF-8"?>
<osm version="0.6" generator="osmapis">
	<node lat="58.64242222390927" lon="7.565963882705267" id="-21158">
		<tag k="name" v="Holebekkdalen" />
		<tag k="natural" v="valley" />
		<tag k="place" v="locality" />
		<tag k="ssr:stedsnr" v="159" />
	</node>
	<node lat="58.65283333569088" lon="7.627863880737158" id="-21160">
		<tag k="alt_name" v="Trimannsfjell" />
		<tag k="fixme" v="consider natural=peak for the most distinct mountains in the district" />
		<tag k="name" v="Trimannsfjellet" />
		<tag k="natural" v="hill" />
		<tag k="place" v="locality" />
		<tag k="ssr:stedsnr" v="173" />
	</node>
	<node lat="58.60821110968953" lon="7.686697220981226" id="-21165">
		<tag k="fixme" v="consider natural=peak for the most distinct mountains in the district" />
		<tag k="name" v="Frubæråsen" />
		<tag k="natural" v="hill" />
		<tag k="place" v="locality" />
		<tag k="ssr:stedsnr" v="843" />
	</node>
	<node lat="58.56776111187036" lon="7.67131944638646" id="-21167">
		<tag k="alt_name" v="Ormesporen" />
		<tag k="name" v="Ormesporden" />
		<tag k="natural" v="valley" />
		<tag k="place" v="locality" />
		<tag k="ssr:stedsnr" v="802" />
	</node>
	<node lat="58.510936115468304" lon="7.620241673310784" id="-21172">
		<tag k="fixme" v="consider natural=peak for the most distinct mountains in the district" />
		<tag k="name" v="Kjebergfjellet" />
		<tag k="natural" v="hill" />
		<tag k="place" v="locality" />
		<tag k="ssr:stedsnr" v="894" />
	</node>
	<node lat="58.514177781053455" lon="7.61150555786469" id="-21173">
		<tag k="fixme" v="consider natural=peak for the most distinct mountains in the district" />
		<tag k="name" v="Tarveshei" />
		<tag k="natural" v="hill" />
		<tag k="place" v="locality" />
		<tag k="ssr:stedsnr" v="895" />
	</node>
	<node lat="58.50374721779592" lon="7.597363887392558" id="-21174">
		<tag k="alt_name" v="Tritjønnheia;Tritjørnheii" />
		<tag k="fixme" v="consider natural=peak for the most distinct mountains in the district" />
		<tag k="name" v="Tritjørnheia" />
		<tag k="natural" v="hill" />
		<tag k="place" v="locality" />
		<tag k="ssr:stedsnr" v="897" />
	</node>
	<node lat="58.52606944214779" lon="7.701763892603153" id="-21179">
		<tag k="alt_name" v="Breili" />
		<tag k="name" v="Breidli" />
		<tag k="natural" v="slope" />
		<tag k="place" v="locality" />
		<tag k="ssr:stedsnr" v="997" />
	</node>
	<node lat="58.53023889017738" lon="7.672833336948202" id="-21180">
		<tag k="fixme" v="consider natural=peak for the most distinct mountains in the district" />
		<tag k="name" v="Høgåsen" />
		<tag k="natural" v="hill" />
		<tag k="place" v="locality" />
		<tag k="ssr:stedsnr" v="1000" />
	</node>
	<node lat="58.57308332936053" lon="8.090533325182909" id="-21181">
		<tag k="fixme" v="consider natural=peak for the most distinct mountains in the district" />
		<tag k="name" v="Tveitheia" />
		<tag k="natural" v="hill" />
		<tag k="place" v="locality" />
		<tag k="ssr:stedsnr" v="1141" />
	</node>
	<node lat="58.622824996998844" lon="7.961269436045069" id="-21183">
		<tag k="alt_name" v="Store Bjørnås" />
		<tag k="fixme" v="consider natural=peak for the most distinct mountains in the district" />
		<tag k="name" v="Bjørnåsen" />
		<tag k="natural" v="hill" />
		<tag k="place" v="locality" />
		<tag k="ssr:stedsnr" v="1146" />
	</node>
	<node lat="58.645088885717215" lon="7.72291943954017" id="-21184">
		<tag k="alt_name" v="Knutsdalen" />
		<tag k="name" v="Knutsdal" />
		<tag k="natural" v="valley" />
		<tag k="place" v="locality" />
		<tag k="ssr:stedsnr" v="1516" />
	</node>
	<node lat="58.584402781561224" lon="7.8226638849857295" id="-21186">
		<tag k="fixme" v="consider natural=peak for the most distinct mountains in the district" />
		<tag k="name" v="Lian" />
		<tag k="natural" v="hill" />
		<tag k="place" v="locality" />
		<tag k="ssr:stedsnr" v="1734" />
	</node>
	<node lat="58.53493889249238" lon="7.592702785134899" id="-21188">
		<tag k="name" v="Øyvassdalen" />
		<tag k="natural" v="valley" />
		<tag k="place" v="locality" />
		<tag k="ssr:stedsnr" v="1978" />
	</node>
	<node lat="58.579297224219516" lon="8.0795138953091" id="-21189">
		<tag k="name" v="Tveitliane" />
		<tag k="natural" v="slope" />
		<tag k="place" v="locality" />
		<tag k="ssr:stedsnr" v="231101" />
	</node>
	<node lat="58.59532221990492" lon="8.07992221750526" id="-21190">
		<tag k="name" v="Gråtjønndalen" />
		<tag k="natural" v="valley" />
		<tag k="place" v="locality" />
		<tag k="ssr:stedsnr" v="231526" />
	</node>
	<node lat="58.5888222239008" lon="8.107661104807548" id="-21192">
		<tag k="name" v="Engedal" />
		<tag k="natural" v="valley" />
		<tag k="place" v="locality" />
		<tag k="ssr:stedsnr" v="231550" />
	</node>
	<node lat="58.586702776360404" lon="8.051200005654525" id="-21193">
		<tag k="name" v="Holta" />
		<tag k="natural" v="slope" />
		<tag k="place" v="locality" />
		<tag k="ssr:stedsnr" v="231759" />
	</node>
	<node lat="58.632694448284646" lon="7.625391666254955" id="-21196">
		<tag k="name" v="Braunesmoen" />
		<tag k="place" v="locality" />
		<tag k="ssr:stedsnr" v="31975" />
	</node>
	<node lat="58.50861389214925" lon="7.735808332855851" id="-21198">
		<tag k="name" v="Eikeli" />
		<tag k="natural" v="slope" />
		<tag k="place" v="locality" />
		<tag k="ssr:stedsnr" v="32019" />
	</node>
	<node lat="58.69840833498508" lon="7.6533944387824056" id="-21201">
		<tag k="name" v="Klauvdalen" />
		<tag k="natural" v="valley" />
		<tag k="place" v="locality" />
		<tag k="ssr:stedsnr" v="32071" />
	</node>
	<node lat="58.459897226231256" lon="7.757702771666743" id="-21203">
		<tag k="name" v="Brennehei" />
		<tag k="natural" v="hill" />
		<tag k="place" v="locality" />
		<tag k="ssr:stedsnr" v="32085" />
	</node>
	<node lat="58.62883055465104" lon="7.820219442276621" id="-21204">
		<tag k="name" v="Bjørnåsskotet" />
		<tag k="natural" v="slope" />
		<tag k="place" v="locality" />
		<tag k="ssr:stedsnr" v="32311" />
	</node>
	<node lat="58.63313889011931" lon="7.821286103262327" id="-21205">
		<tag k="name" v="Kvernhuslia" />
		<tag k="natural" v="slope" />
		<tag k="place" v="locality" />
		<tag k="ssr:stedsnr" v="32316" />
	</node>
	<node lat="58.63085000005886" lon="7.766608329173743" id="-21206">
		<tag k="name" v="Hagedalhei" />
		<tag k="natural" v="hill" />
		<tag k="place" v="locality" />
		<tag k="ssr:stedsnr" v="32336" />
	</node>
	<node lat="58.64399722121074" lon="7.8236527780868155" id="-21207">
		<tag k="name" v="Stigane" />
		<tag k="natural" v="slope" />
		<tag k="place" v="locality" />
		<tag k="ssr:stedsnr" v="32342" />
	</node>
	<node lat="58.63195833563708" lon="7.760341660357881" id="-21208">
		<tag k="name" v="Glovedalen" />
		<tag k="natural" v="valley" />
		<tag k="place" v="locality" />
		<tag k="ssr:stedsnr" v="32345" />
	</node>
	<node lat="58.59104166535615" lon="7.868119441395345" id="-21210">
		<tag k="name" v="Bratteli" />
		<tag k="natural" v="slope" />
		<tag k="place" v="locality" />
		<tag k="ssr:stedsnr" v="32369" />
	</node>
	<node lat="58.569519446497225" lon="7.800366660390303" id="-21212">
		<tag k="name" v="Grutebakken" />
		<tag k="natural" v="slope" />
		<tag k="place" v="locality" />
		<tag k="ssr:stedsnr" v="32295" />
	</node>
	<node lat="58.51111666311519" lon="7.843666672414761" id="-21213">
		<tag k="name" v="Kvasshammer" />
		<tag k="natural" v="hill" />
		<tag k="place" v="locality" />
		<tag k="ssr:stedsnr" v="32411" />
	</node>
	<node lat="58.64983055385193" lon="7.758113892053604" id="-21214">
		<tag k="name" v="Sauedalen" />
		<tag k="natural" v="valley" />
		<tag k="place" v="locality" />
		<tag k="ssr:stedsnr" v="32427" />
	</node>
	<node lat="58.65011944550642" lon="7.765766673897363" id="-21215">
		<tag k="name" v="Dauråsknapen" />
		<tag k="natural" v="hill" />
		<tag k="place" v="locality" />
		<tag k="ssr:stedsnr" v="32429" />
	</node>
	<node lat="58.604869447904676" lon="7.841766663981558" id="-21218">
		<tag k="name" v="Byttingsdalen" />
		<tag k="natural" v="valley" />
		<tag k="place" v="locality" />
		<tag k="ssr:stedsnr" v="32483" />
	</node>
	<node lat="58.579005554921416" lon="7.922133330036891" id="-21219">
		<tag k="name" v="Bakkeli" />
		<tag k="natural" v="slope" />
		<tag k="place" v="locality" />
		<tag k="ssr:stedsnr" v="32594" />
	</node>
	<node lat="58.488599996352704" lon="7.54113055879332" id="-21221">
		<tag k="name" v="Tjovhelleren" />
		<tag k="place" v="locality" />
		<tag k="ssr:stedsnr" v="32598" />
	</node>
	<node lat="58.47634166883218" lon="7.542886110522155" id="-21223">
		<tag k="name" v="Vardedalane" />
		<tag k="natural" v="valley" />
		<tag k="place" v="locality" />
		<tag k="ssr:stedsnr" v="32603" />
	</node>
	<node lat="58.5240249992446" lon="7.516263890476284" id="-21226">
		<tag k="name" v="Bjørnsknipen" />
		<tag k="natural" v="hill" />
		<tag k="place" v="locality" />
		<tag k="ssr:stedsnr" v="32666" />
	</node>
	<node lat="58.61804166260345" lon="7.611066660016936" id="-21227">
		<tag k="name" v="Espelidalen" />
		<tag k="natural" v="valley" />
		<tag k="place" v="locality" />
		<tag k="ssr:stedsnr" v="32669" />
	</node>
	<node lat="58.47547777721995" lon="7.55917499457738" id="-21233">
		<tag k="name" v="Skarpinord" />
		<tag k="natural" v="hill" />
		<tag k="place" v="locality" />
		<tag k="ssr:stedsnr" v="32626" />
	</node>
	<node lat="58.56708055583954" lon="7.7352749965696335" id="-21234">
		<tag k="name" v="Langedalen" />
		<tag k="natural" v="valley" />
		<tag k="place" v="locality" />
		<tag k="ssr:stedsnr" v="32807" />
	</node>
	<node lat="58.45686944183664" lon="7.6481916596402595" id="-21240">
		<tag k="name" v="Slettehei" />
		<tag k="natural" v="hill" />
		<tag k="place" v="locality" />
		<tag k="ssr:stedsnr" v="32767" />
	</node>
	<node lat="58.482577774410295" lon="7.616155554521333" id="-21241">
		<tag k="name" v="Smådalane" />
		<tag k="natural" v="valley" />
		<tag k="place" v="locality" />
		<tag k="ssr:stedsnr" v="32781" />
	</node>
	<node lat="58.53409167047902" lon="7.652325003609659" id="-21246">
		<tag k="name" v="Sollia" />
		<tag k="natural" v="slope" />
		<tag k="place" v="locality" />
		<tag k="ssr:stedsnr" v="32921" />
	</node>
	<node lat="58.54842499818915" lon="7.681822219415731" id="-21247">
		<tag k="name" v="Tvørrdalslia" />
		<tag k="natural" v="slope" />
		<tag k="place" v="locality" />
		<tag k="ssr:stedsnr" v="32923" />
	</node>
	<node lat="58.55581389275995" lon="7.74411943836729" id="-21249">
		<tag k="fixme" v="consider natural=peak for the most distinct mountains in the district" />
		<tag k="name" v="Bronåsen" />
		<tag k="natural" v="hill" />
		<tag k="place" v="locality" />
		<tag k="ssr:stedsnr" v="33223" />
	</node>
	<node lat="58.58046111188759" lon="8.017463893477135" id="-21253">
		<tag k="name" v="Hellerslia" />
		<tag k="natural" v="slope" />
		<tag k="place" v="locality" />
		<tag k="ssr:stedsnr" v="49026" />
	</node>
	<node lat="58.62186944573575" lon="7.553633328469608" id="-21255">
		<tag k="name" v="Hovassdalen" />
		<tag k="natural" v="valley" />
		<tag k="place" v="locality" />
		<tag k="ssr:stedsnr" v="61125" />
	</node>
	<node lat="58.607311112623435" lon="8.059652782386143" id="-21262">
		<tag k="alt_name" v="Øyvassheia" />
		<tag k="fixme" v="consider natural=peak for the most distinct mountains in the district" />
		<tag k="name" v="Øyevassheia" />
		<tag k="natural" v="hill" />
		<tag k="place" v="locality" />
		<tag k="ssr:stedsnr" v="61686" />
	</node>
	<node lat="58.6788388914219" lon="7.595380559149698" id="-21268">
		<tag k="fixme" v="consider natural=peak for the most distinct mountains in the district" />
		<tag k="name" v="Staveknuten" />
		<tag k="natural" v="hill" />
		<tag k="place" v="locality" />
		<tag k="ssr:stedsnr" v="62185" />
	</node>
	<node lat="58.68763055521444" lon="7.707649996621183" id="-21270">
		<tag k="fixme" v="consider natural=peak for the most distinct mountains in the district" />
		<tag k="name" v="Hommeknuten" />
		<tag k="natural" v="hill" />
		<tag k="place" v="locality" />
		<tag k="ssr:stedsnr" v="62207" />
	</node>
	<node lat="58.63726944150957" lon="7.755508332901513" id="-21271">
		<tag k="alt_name" v="Linderapen" />
		<tag k="fixme" v="consider natural=peak for the most distinct mountains in the district" />
		<tag k="name" v="Linnerapen" />
		<tag k="natural" v="hill" />
		<tag k="place" v="locality" />
		<tag k="ssr:stedsnr" v="62504" />
	</node>
	<node lat="58.64925278036746" lon="7.682238881750566" id="-21274">
		<tag k="name" v="Høgehei" />
		<tag k="natural" v="hill" />
		<tag k="place" v="locality" />
		<tag k="ssr:stedsnr" v="243141" />
	</node>
	<node lat="58.639138892748235" lon="7.601230559514037" id="-21276">
		<tag k="alt_name" v="Geitåshei" />
		<tag k="fixme" v="consider natural=peak for the most distinct mountains in the district" />
		<tag k="name" v="Geitåsen" />
		<tag k="natural" v="hill" />
		<tag k="place" v="locality" />
		<tag k="ssr:stedsnr" v="243125" />
	</node>
	<node lat="58.58390277476946" lon="7.663483328759834" id="-21282">
		<tag k="name" v="Svartebergli" />
		<tag k="natural" v="slope" />
		<tag k="place" v="locality" />
		<tag k="ssr:stedsnr" v="243770" />
	</node>
	<node lat="58.58212777350707" lon="7.716961105764779" id="-21283">
		<tag k="alt_name" v="Spjåkkasmonen" />
		<tag k="name" v="Spjåkasmoen" />
		<tag k="place" v="locality" />
		<tag k="ssr:stedsnr" v="243773" />
	</node>
	<node lat="58.60706667008087" lon="7.9967638866423805" id="-21284">
		<tag k="alt_name" v="Skarvehei" />
		<tag k="fixme" v="consider natural=peak for the most distinct mountains in the district" />
		<tag k="name" v="Skarveheia" />
		<tag k="natural" v="hill" />
		<tag k="place" v="locality" />
		<tag k="ssr:stedsnr" v="243717" />
	</node>
	<node lat="58.60393611138634" lon="8.00428889344627" id="-21285">
		<tag k="alt_name" v="Hovassdalen" />
		<tag k="name" v="Lislehovvassdalen" />
		<tag k="natural" v="valley" />
		<tag k="place" v="locality" />
		<tag k="ssr:stedsnr" v="243719" />
	</node>
	<node lat="58.566888886276615" lon="7.703158336438268" id="-21286">
		<tag k="fixme" v="consider natural=peak for the most distinct mountains in the district" />
		<tag k="name" v="Øvrehei" />
		<tag k="natural" v="hill" />
		<tag k="place" v="locality" />
		<tag k="ssr:stedsnr" v="243795" />
	</node>
	<node lat="58.628777774551004" lon="7.676480552527323" id="-21287">
		<tag k="fixme" v="consider natural=peak for the most distinct mountains in the district" />
		<tag k="name" v="Kronefjell" />
		<tag k="natural" v="hill" />
		<tag k="place" v="locality" />
		<tag k="ssr:stedsnr" v="243816" />
	</node>
	<node lat="58.62677777541284" lon="7.703236108797113" id="-21289">
		<tag k="name" v="Floskhei" />
		<tag k="natural" v="hill" />
		<tag k="place" v="locality" />
		<tag k="ssr:stedsnr" v="243819" />
	</node>
	<node lat="58.51902222361523" lon="7.704719450806447" id="-21293">
		<tag k="alt_name" v="Rebbåshei" />
		<tag k="fixme" v="consider natural=peak for the most distinct mountains in the district" />
		<tag k="name" v="Rebbåsheia" />
		<tag k="natural" v="hill" />
		<tag k="place" v="locality" />
		<tag k="ssr:stedsnr" v="243868" />
	</node>
	<node lat="58.56114444390852" lon="7.87124999898821" id="-21299">
		<tag k="fixme" v="consider natural=peak for the most distinct mountains in the district" />
		<tag k="name" v="Trekongen" />
		<tag k="natural" v="hill" />
		<tag k="place" v="locality" />
		<tag k="ssr:stedsnr" v="244664" />
	</node>
	<node lat="58.57760833435527" lon="8.037413895123274" id="-21301">
		<tag k="alt_name" v="Nonfjellet" />
		<tag k="fixme" v="consider natural=peak for the most distinct mountains in the district" />
		<tag k="name" v="Nonfjell" />
		<tag k="natural" v="hill" />
		<tag k="place" v="locality" />
		<tag k="ssr:stedsnr" v="244740" />
	</node>
	<node lat="58.4686694473731" lon="7.786622226382914" id="-21303">
		<tag k="name" v="Tjønnbakkane" />
		<tag k="natural" v="slope" />
		<tag k="place" v="locality" />
		<tag k="ssr:stedsnr" v="93005" />
	</node>
	<node lat="58.500580555589615" lon="7.729677769328466" id="-21305">
		<tag k="name" v="Grånelia" />
		<tag k="natural" v="slope" />
		<tag k="place" v="locality" />
		<tag k="ssr:stedsnr" v="93016" />
	</node>
	<node lat="58.63314722253163" lon="7.634527770691417" id="-21308">
		<tag k="fixme" v="consider natural=peak for the most distinct mountains in the district" />
		<tag k="name" v="Åsen" />
		<tag k="natural" v="hill" />
		<tag k="place" v="locality" />
		<tag k="ssr:stedsnr" v="92970" />
	</node>
	<node lat="58.63933888954716" lon="7.635655561785755" id="-21309">
		<tag k="name" v="Kjorrefjella" />
		<tag k="natural" v="hill" />
		<tag k="place" v="locality" />
		<tag k="ssr:stedsnr" v="92971" />
	</node>
	<node lat="58.52913888957112" lon="7.7525416730371" id="-21310">
		<tag k="fixme" v="consider natural=peak for the most distinct mountains in the district" />
		<tag k="name" v="Håssåsen" />
		<tag k="natural" v="hill" />
		<tag k="place" v="locality" />
		<tag k="ssr:stedsnr" v="93108" />
	</node>
	<node lat="58.67089444758943" lon="7.774263885939035" id="-21313">
		<tag k="name" v="Svaen" />
		<tag k="natural" v="slope" />
		<tag k="place" v="locality" />
		<tag k="ssr:stedsnr" v="93264" />
	</node>
	<node lat="58.66591666775666" lon="7.781022220557434" id="-21314">
		<tag k="name" v="Svaen" />
		<tag k="natural" v="slope" />
		<tag k="place" v="locality" />
		<tag k="ssr:stedsnr" v="93403" />
	</node>
	<node lat="58.5510305547854" lon="7.884774993949897" id="-21316">
		<tag k="name" v="Storeli" />
		<tag k="natural" v="slope" />
		<tag k="place" v="locality" />
		<tag k="ssr:stedsnr" v="93421" />
	</node>
	<node lat="58.553916664144715" lon="7.762158326468785" id="-21317">
		<tag k="fixme" v="consider natural=peak for the most distinct mountains in the district" />
		<tag k="name" v="Slettåsen" />
		<tag k="natural" v="hill" />
		<tag k="place" v="locality" />
		<tag k="ssr:stedsnr" v="93172" />
	</node>
	<node lat="58.554886109078154" lon="7.737852769894333" id="-21318">
		<tag k="name" v="Lindalen" />
		<tag k="natural" v="valley" />
		<tag k="place" v="locality" />
		<tag k="ssr:stedsnr" v="93173" />
	</node>
	<node lat="58.597491665515214" lon="7.849561106942642" id="-21320">
		<tag k="name" v="Badstovdalen" />
		<tag k="natural" v="valley" />
		<tag k="place" v="locality" />
		<tag k="ssr:stedsnr" v="93332" />
	</node>
	<node lat="58.58987500144327" lon="7.92385833409405" id="-21321">
		<tag k="name" v="Fodalen" />
		<tag k="natural" v="valley" />
		<tag k="place" v="locality" />
		<tag k="ssr:stedsnr" v="93361" />
	</node>
	<node lat="58.484416666477266" lon="7.5357222145228" id="-21326">
		<tag k="name" v="Moltedalen" />
		<tag k="natural" v="valley" />
		<tag k="place" v="locality" />
		<tag k="ssr:stedsnr" v="93563" />
	</node>
	<node lat="58.61453333460844" lon="7.985683337755418" id="-21328">
		<tag k="fixme" v="consider natural=peak for the most distinct mountains in the district" />
		<tag k="name" v="Kjeråsen" />
		<tag k="natural" v="hill" />
		<tag k="place" v="locality" />
		<tag k="ssr:stedsnr" v="93569" />
	</node>
	<node lat="58.56518610950202" lon="7.977966671588947" id="-21329">
		<tag k="name" v="Finndalen" />
		<tag k="natural" v="valley" />
		<tag k="place" v="locality" />
		<tag k="ssr:stedsnr" v="93576" />
	</node>
	<node lat="58.470380558915416" lon="7.60597499557574" id="-21330">
		<tag k="name" v="Rugdeholane" />
		<tag k="natural" v="valley" />
		<tag k="place" v="locality" />
		<tag k="ssr:stedsnr" v="93579" />
	</node>
	<node lat="58.47010833197235" lon="7.612222217357185" id="-21332">
		<tag k="name" v="Rindebakkane" />
		<tag k="natural" v="slope" />
		<tag k="place" v="locality" />
		<tag k="ssr:stedsnr" v="93581" />
	</node>
	<node lat="58.465855554497466" lon="7.723563885753863" id="-21335">
		<tag k="name" v="Vålevassdalen" />
		<tag k="natural" v="valley" />
		<tag k="place" v="locality" />
		<tag k="ssr:stedsnr" v="93703" />
	</node>
	<node lat="58.58567221849018" lon="7.831705552638393" id="-21338">
		<tag k="fixme" v="consider natural=peak for the most distinct mountains in the district" />
		<tag k="name" v="Ørnefjell" />
		<tag k="natural" v="hill" />
		<tag k="place" v="locality" />
		<tag k="ssr:stedsnr" v="93719" />
	</node>
	<node lat="58.55863888858637" lon="7.70860277540874" id="-21341">
		<tag k="name" v="Fitestøliane" />
		<tag k="natural" v="slope" />
		<tag k="place" v="locality" />
		<tag k="ssr:stedsnr" v="93764" />
	</node>
	<node lat="58.54002499587512" lon="7.718730560845318" id="-21343">
		<tag k="name" v="Snømoen" />
		<tag k="place" v="locality" />
		<tag k="ssr:stedsnr" v="93767" />
	</node>
	<node lat="58.5752777736323" lon="7.764636113497943" id="-21344">
		<tag k="name" v="Bullsknutten" />
		<tag k="natural" v="hill" />
		<tag k="place" v="locality" />
		<tag k="ssr:stedsnr" v="93768" />
	</node>
	<node lat="58.48335278019448" lon="7.702205552343855" id="-21345">
		<tag k="name" v="Krossmyrbrotet" />
		<tag k="natural" v="slope" />
		<tag k="place" v="locality" />
		<tag k="ssr:stedsnr" v="93771" />
	</node>
	<node lat="58.57853055486117" lon="7.761674997323477" id="-21347">
		<tag k="fixme" v="consider natural=peak for the most distinct mountains in the district" />
		<tag k="name" v="Laugefjell" />
		<tag k="natural" v="hill" />
		<tag k="place" v="locality" />
		<tag k="ssr:stedsnr" v="93774" />
	</node>
	<node lat="58.48056944858618" lon="7.684422214069095" id="-21348">
		<tag k="name" v="Veibotn" />
		<tag k="natural" v="valley" />
		<tag k="place" v="locality" />
		<tag k="ssr:stedsnr" v="93776" />
	</node>
	<node lat="58.61493889045227" lon="7.891008333037372" id="-21349">
		<tag k="name" v="Store Langupsane" />
		<tag k="natural" v="hill" />
		<tag k="place" v="locality" />
		<tag k="ssr:stedsnr" v="93462" />
	</node>
	<node lat="58.61491666663896" lon="7.9068694507241375" id="-21350">
		<tag k="name" v="Gamasvollen" />
		<tag k="natural" v="hill" />
		<tag k="place" v="locality" />
		<tag k="ssr:stedsnr" v="93463" />
	</node>
	<node lat="58.629944445565506" lon="7.956263896535657" id="-21351">
		<tag k="fixme" v="consider natural=peak for the most distinct mountains in the district" />
		<tag k="name" v="Tjønnstølåsen" />
		<tag k="natural" v="hill" />
		<tag k="place" v="locality" />
		<tag k="ssr:stedsnr" v="93602" />
	</node>
	<node lat="58.645477775145636" lon="7.965380549905709" id="-21352">
		<tag k="name" v="Lauvåsbakkane" />
		<tag k="natural" v="slope" />
		<tag k="place" v="locality" />
		<tag k="ssr:stedsnr" v="93603" />
	</node>
	<node lat="58.64152222487523" lon="7.971777774739923" id="-21353">
		<tag k="fixme" v="consider natural=peak for the most distinct mountains in the district" />
		<tag k="name" v="Åsefjell" />
		<tag k="natural" v="hill" />
		<tag k="place" v="locality" />
		<tag k="ssr:stedsnr" v="93604" />
	</node>
	<node lat="58.63824722570326" lon="7.564849994580031" id="-21354">
		<tag k="name" v="Brurleddalen" />
		<tag k="natural" v="valley" />
		<tag k="place" v="locality" />
		<tag k="ssr:stedsnr" v="93609" />
	</node>
	<node lat="58.56502222625057" lon="7.603291669503544" id="-21356">
		<tag k="name" v="Øyvassdalen" />
		<tag k="natural" v="valley" />
		<tag k="place" v="locality" />
		<tag k="ssr:stedsnr" v="93615" />
	</node>
	<node lat="58.48601944601071" lon="7.614922217782288" id="-21360">
		<tag k="name" v="Haugelia" />
		<tag k="natural" v="slope" />
		<tag k="place" v="locality" />
		<tag k="ssr:stedsnr" v="93663" />
	</node>
	<node lat="58.52673610728287" lon="7.5363222230297815" id="-21364">
		<tag k="name" v="Beistadbakk" />
		<tag k="natural" v="slope" />
		<tag k="place" v="locality" />
		<tag k="ssr:stedsnr" v="93670" />
	</node>
	<node lat="58.48218055674067" lon="7.706719450755979" id="-21370">
		<tag k="fixme" v="consider natural=peak for the most distinct mountains in the district" />
		<tag k="name" v="Espetveit-Kattås" />
		<tag k="natural" v="hill" />
		<tag k="place" v="locality" />
		<tag k="ssr:stedsnr" v="93813" />
	</node>
	<node lat="58.53265000080223" lon="7.643197221379408" id="-21371">
		<tag k="name" v="Nordlia" />
		<tag k="natural" v="slope" />
		<tag k="place" v="locality" />
		<tag k="ssr:stedsnr" v="93881" />
	</node>
	<node lat="58.64007499816788" lon="7.645847225145371" id="-21373">
		<tag k="name" v="Skarehei" />
		<tag k="natural" v="hill" />
		<tag k="place" v="locality" />
		<tag k="ssr:stedsnr" v="93962" />
	</node>
	<node lat="58.56050555681475" lon="7.718513883228519" id="-21375">
		<tag k="name" v="Sandkleiv" />
		<tag k="natural" v="slope" />
		<tag k="place" v="locality" />
		<tag k="ssr:stedsnr" v="93972" />
	</node>
	<node lat="58.62904999713418" lon="7.601116661496675" id="-21385">
		<tag k="fixme" v="consider natural=peak for the most distinct mountains in the district" />
		<tag k="name" v="Vardehei" />
		<tag k="natural" v="hill" />
		<tag k="place" v="locality" />
		<tag k="ssr:stedsnr" v="121822" />
	</node>
	<node lat="58.61247777797952" lon="7.824680564103322" id="-21395">
		<tag k="name" v="Kåmårdalen" />
		<tag k="natural" v="valley" />
		<tag k="place" v="locality" />
		<tag k="ssr:stedsnr" v="152264" />
	</node>
	<node lat="58.623491663371695" lon="7.782188891961127" id="-21397">
		<tag k="name" v="Krossdalen" />
		<tag k="natural" v="valley" />
		<tag k="place" v="locality" />
		<tag k="ssr:stedsnr" v="152318" />
	</node>
	<node lat="58.61232499851724" lon="7.784136104791288" id="-21398">
		<tag k="name" v="Øvre Røydalen" />
		<tag k="natural" v="valley" />
		<tag k="place" v="locality" />
		<tag k="ssr:stedsnr" v="152322" />
	</node>
	<node lat="58.660374999573996" lon="7.71893889725272" id="-21401">
		<tag k="name" v="Bukkekleivane" />
		<tag k="natural" v="slope" />
		<tag k="place" v="locality" />
		<tag k="ssr:stedsnr" v="153075" />
	</node>
	<node lat="58.63106944146363" lon="7.694261115260408" id="-21404">
		<tag k="name" v="Bakli" />
		<tag k="natural" v="slope" />
		<tag k="place" v="locality" />
		<tag k="ssr:stedsnr" v="152959" />
	</node>
	<node lat="58.5849083295914" lon="7.847669449624988" id="-21406">
		<tag k="name" v="Einerdalen" />
		<tag k="natural" v="valley" />
		<tag k="place" v="locality" />
		<tag k="ssr:stedsnr" v="153383" />
	</node>
	<node lat="58.59369444014953" lon="7.857444440229658" id="-21408">
		<tag k="name" v="Rumpetrollsynken" />
		<tag k="natural" v="valley" />
		<tag k="place" v="locality" />
		<tag k="ssr:stedsnr" v="153401" />
	</node>
	<node lat="58.609044443892486" lon="7.860597228409867" id="-21409">
		<tag k="name" v="Lunnebakken" />
		<tag k="natural" v="slope" />
		<tag k="place" v="locality" />
		<tag k="ssr:stedsnr" v="153524" />
	</node>
	<node lat="58.61900555316403" lon="7.879544444885137" id="-21411">
		<tag k="name" v="Vinsli" />
		<tag k="natural" v="slope" />
		<tag k="place" v="locality" />
		<tag k="ssr:stedsnr" v="153559" />
	</node>
	<node lat="58.61238888589915" lon="7.853236106298518" id="-21413">
		<tag k="name" v="Storbergnuten" />
		<tag k="natural" v="hill" />
		<tag k="place" v="locality" />
		<tag k="ssr:stedsnr" v="153561" />
	</node>
	<node lat="58.57976666323066" lon="7.848536108886382" id="-21415">
		<tag k="name" v="Kjåberg" />
		<tag k="natural" v="hill" />
		<tag k="place" v="locality" />
		<tag k="ssr:stedsnr" v="153420" />
	</node>
	<node lat="58.58115555254841" lon="7.843847224791641" id="-21416">
		<tag k="name" v="Åslandsbråtane" />
		<tag k="natural" v="slope" />
		<tag k="place" v="locality" />
		<tag k="ssr:stedsnr" v="153421" />
	</node>
	<node lat="58.55443888517979" lon="7.877866666274811" id="-21417">
		<tag k="name" v="Rypehei" />
		<tag k="natural" v="hill" />
		<tag k="place" v="locality" />
		<tag k="ssr:stedsnr" v="153449" />
	</node>
	<node lat="58.64636666801643" lon="7.81615278042269" id="-21421">
		<tag k="name" v="Fossberg" />
		<tag k="natural" v="hill" />
		<tag k="place" v="locality" />
		<tag k="ssr:stedsnr" v="153469" />
	</node>
	<node lat="58.65769166815445" lon="7.792624997288533" id="-21422">
		<tag k="name" v="Bergbodalen" />
		<tag k="natural" v="valley" />
		<tag k="place" v="locality" />
		<tag k="ssr:stedsnr" v="153471" />
	</node>
	<node lat="58.65125833026274" lon="7.783136118668726" id="-21423">
		<tag k="fixme" v="consider natural=peak for the most distinct mountains in the district" />
		<tag k="name" v="Ørteknapfjellet" />
		<tag k="natural" v="hill" />
		<tag k="place" v="locality" />
		<tag k="ssr:stedsnr" v="153472" />
	</node>
	<node lat="58.636230555153944" lon="7.859894443298792" id="-21427">
		<tag k="name" v="Oterdalshei" />
		<tag k="natural" v="hill" />
		<tag k="place" v="locality" />
		<tag k="ssr:stedsnr" v="153601" />
	</node>
	<node lat="58.649888890914376" lon="7.897736106789678" id="-21430">
		<tag k="name" v="Nævertjønnheia" />
		<tag k="natural" v="hill" />
		<tag k="place" v="locality" />
		<tag k="ssr:stedsnr" v="153764" />
	</node>
	<node lat="58.58633055950946" lon="7.940894445364932" id="-21435">
		<tag k="name" v="Røyneli" />
		<tag k="natural" v="slope" />
		<tag k="place" v="locality" />
		<tag k="ssr:stedsnr" v="153806" />
	</node>
	<node lat="58.57041944583989" lon="7.764344450647089" id="-21436">
		<tag k="name" v="Dåsnesmoen" />
		<tag k="place" v="locality" />
		<tag k="ssr:stedsnr" v="153850" />
	</node>
	<node lat="58.57180277481096" lon="7.755561111044946" id="-21437">
		<tag k="fixme" v="consider natural=peak for the most distinct mountains in the district" />
		<tag k="name" v="Vrålsås" />
		<tag k="natural" v="hill" />
		<tag k="place" v="locality" />
		<tag k="ssr:stedsnr" v="153852" />
	</node>
	<node lat="58.58064722427554" lon="7.768958330600325" id="-21438">
		<tag k="fixme" v="consider natural=peak for the most distinct mountains in the district" />
		<tag k="name" v="Åsen" />
		<tag k="natural" v="hill" />
		<tag k="place" v="locality" />
		<tag k="ssr:stedsnr" v="153856" />
	</node>
	<node lat="58.578863888655654" lon="7.771044450169106" id="-21439">
		<tag k="name" v="Svartoppsli" />
		<tag k="natural" v="slope" />
		<tag k="place" v="locality" />
		<tag k="ssr:stedsnr" v="153857" />
	</node>
	<node lat="58.66116944461669" lon="7.953333327292937" id="-21440">
		<tag k="name" v="Trengslemyrlia" />
		<tag k="natural" v="slope" />
		<tag k="place" v="locality" />
		<tag k="ssr:stedsnr" v="153863" />
	</node>
	<node lat="58.53234999817405" lon="7.759844442155719" id="-21441">
		<tag k="name" v="Grasskjerrdalen" />
		<tag k="natural" v="valley" />
		<tag k="place" v="locality" />
		<tag k="ssr:stedsnr" v="154155" />
	</node>
	<node lat="58.528011109878605" lon="7.759802781466274" id="-21442">
		<tag k="name" v="Bridalsmyra" />
		<tag k="natural" v="slope" />
		<tag k="place" v="locality" />
		<tag k="ssr:stedsnr" v="154162" />
	</node>
	<node lat="58.544374999438105" lon="7.72920832812843" id="-21444">
		<tag k="name" v="Slettholmane" />
		<tag k="place" v="locality" />
		<tag k="ssr:stedsnr" v="154304" />
	</node>
	<node lat="58.55296389257016" lon="7.828300005063953" id="-21445">
		<tag k="name" v="Gausefjellane" />
		<tag k="natural" v="hill" />
		<tag k="place" v="locality" />
		<tag k="ssr:stedsnr" v="154321" />
	</node>
	<node lat="58.54741389291663" lon="7.833180563621253" id="-21446">
		<tag k="name" v="Middagsmyrbakkane" />
		<tag k="natural" v="slope" />
		<tag k="place" v="locality" />
		<tag k="ssr:stedsnr" v="154322" />
	</node>
	<node lat="58.535363891381856" lon="7.74863888628858" id="-21447">
		<tag k="name" v="Beindalen" />
		<tag k="natural" v="valley" />
		<tag k="place" v="locality" />
		<tag k="ssr:stedsnr" v="154325" />
	</node>
	<node lat="58.59872500103084" lon="7.770594437171943" id="-21451">
		<tag k="fixme" v="consider natural=peak for the most distinct mountains in the district" />
		<tag k="name" v="Granåsen" />
		<tag k="natural" v="hill" />
		<tag k="place" v="locality" />
		<tag k="ssr:stedsnr" v="154217" />
	</node>
	<node lat="58.59339444390611" lon="7.7420444443212855" id="-21452">
		<tag k="name" v="Hombroklia" />
		<tag k="natural" v="slope" />
		<tag k="place" v="locality" />
		<tag k="ssr:stedsnr" v="154218" />
	</node>
	<node lat="58.5829805511998" lon="7.766530561690181" id="-21455">
		<tag k="name" v="Kyredalen" />
		<tag k="natural" v="valley" />
		<tag k="place" v="locality" />
		<tag k="ssr:stedsnr" v="154236" />
	</node>
	<node lat="58.58914444311794" lon="7.833363893675324" id="-21456">
		<tag k="name" v="Almedalen" />
		<tag k="natural" v="valley" />
		<tag k="place" v="locality" />
		<tag k="ssr:stedsnr" v="154253" />
	</node>
	<node lat="58.553908333643484" lon="7.747850008085613" id="-21458">
		<tag k="name" v="Tjovhellardalen" />
		<tag k="natural" v="valley" />
		<tag k="place" v="locality" />
		<tag k="ssr:stedsnr" v="154268" />
	</node>
	<node lat="58.47668888667386" lon="7.553361104609471" id="-21462">
		<tag k="name" v="Lyglebrotane" />
		<tag k="natural" v="hill" />
		<tag k="place" v="locality" />
		<tag k="ssr:stedsnr" v="154719" />
	</node>
	<node lat="58.50180833373261" lon="7.629011112675996" id="-21464">
		<tag k="name" v="Padane" />
		<tag k="place" v="locality" />
		<tag k="ssr:stedsnr" v="154805" />
	</node>
	<node lat="58.479880559420124" lon="7.713180557535554" id="-21465">
		<tag k="name" v="Lammetjønnlia" />
		<tag k="natural" v="slope" />
		<tag k="place" v="locality" />
		<tag k="ssr:stedsnr" v="154862" />
	</node>
	<node lat="58.59130278207169" lon="7.682313883032458" id="-21466">
		<tag k="fixme" v="consider natural=peak for the most distinct mountains in the district" />
		<tag k="name" v="Såtåsen" />
		<tag k="natural" v="hill" />
		<tag k="place" v="locality" />
		<tag k="ssr:stedsnr" v="154900" />
	</node>
	<node lat="58.59827500104036" lon="7.700405551083253" id="-21468">
		<tag k="name" v="Slækjedalen" />
		<tag k="natural" v="valley" />
		<tag k="place" v="locality" />
		<tag k="ssr:stedsnr" v="154909" />
	</node>
	<node lat="58.55970555882821" lon="8.06776110849251" id="-21472">
		<tag k="name" v="Skråbækdalen" />
		<tag k="natural" v="valley" />
		<tag k="place" v="locality" />
		<tag k="ssr:stedsnr" v="170062" />
	</node>
	<node lat="58.61276666607085" lon="8.055319438741817" id="-21473">
		<tag k="name" v="Trøngsle" />
		<tag k="place" v="locality" />
		<tag k="ssr:stedsnr" v="170672" />
	</node>
	<node lat="58.59580278100969" lon="8.029716668476093" id="-21474">
		<tag k="name" v="Skomakerdalen" />
		<tag k="natural" v="valley" />
		<tag k="place" v="locality" />
		<tag k="ssr:stedsnr" v="170706" />
	</node>
	<node lat="58.59387222085901" lon="8.033313882311008" id="-21475">
		<tag k="name" v="Hermannsplass" />
		<tag k="place" v="locality" />
		<tag k="ssr:stedsnr" v="170711" />
	</node>
	<node lat="58.65016944618635" lon="7.661402785259159" id="-21478">
		<tag k="name" v="Høna" />
		<tag k="natural" v="hill" />
		<tag k="place" v="locality" />
		<tag k="ssr:stedsnr" v="182153" />
	</node>
	<node lat="58.65489999750477" lon="7.584655560427999" id="-21480">
		<tag k="alt_name" v="Svalandsfjell" />
		<tag k="fixme" v="consider natural=peak for the most distinct mountains in the district" />
		<tag k="name" v="Svalandsfjellet" />
		<tag k="natural" v="hill" />
		<tag k="place" v="locality" />
		<tag k="ssr:stedsnr" v="182159" />
	</node>
	<node lat="58.62829999968902" lon="7.6565361100738" id="-21484">
		<tag k="alt_name" v="Myrtetjønnknuten" />
		<tag k="name" v="Murtetjørnknuten" />
		<tag k="natural" v="hill" />
		<tag k="place" v="locality" />
		<tag k="ssr:stedsnr" v="182807" />
	</node>
	<node lat="58.59969722270079" lon="7.636500004644896" id="-21488">
		<tag k="alt_name" v="Engelia" />
		<tag k="name" v="Engelii" />
		<tag k="natural" v="slope" />
		<tag k="place" v="locality" />
		<tag k="ssr:stedsnr" v="182853" />
	</node>
	<node lat="58.561430558924044" lon="7.624872227941259" id="-21489">
		<tag k="fixme" v="consider natural=peak for the most distinct mountains in the district" />
		<tag k="name" v="Lauvåsen" />
		<tag k="natural" v="hill" />
		<tag k="place" v="locality" />
		<tag k="ssr:stedsnr" v="182793" />
	</node>
	<node lat="58.55783888554489" lon="7.680330558322961" id="-21490">
		<tag k="alt_name" v="Bokkedalen" />
		<tag k="name" v="Bukkedalen" />
		<tag k="natural" v="valley" />
		<tag k="place" v="locality" />
		<tag k="ssr:stedsnr" v="182940" />
	</node>
	<node lat="58.59958055166637" lon="7.998599995623202" id="-21496">
		<tag k="fixme" v="consider natural=peak for the most distinct mountains in the district" />
		<tag k="name" v="Botneknuten" />
		<tag k="natural" v="hill" />
		<tag k="place" v="locality" />
		<tag k="ssr:stedsnr" v="183720" />
	</node>
	<node lat="58.600244447403234" lon="7.917488881996093" id="-21497">
		<tag k="fixme" v="consider natural=peak for the most distinct mountains in the district" />
		<tag k="name" v="Diltedalsheia" />
		<tag k="natural" v="hill" />
		<tag k="place" v="locality" />
		<tag k="ssr:stedsnr" v="183727" />
	</node>
	<node lat="58.69164722009322" lon="7.640738886738053" id="-21504">
		<tag k="name" v="Sauedalen" />
		<tag k="natural" v="valley" />
		<tag k="place" v="locality" />
		<tag k="ssr:stedsnr" v="214082" />
	</node>
	<node lat="58.68973610681595" lon="7.677561110282832" id="-21505">
		<tag k="name" v="Kjåkedalsnuten" />
		<tag k="natural" v="hill" />
		<tag k="place" v="locality" />
		<tag k="ssr:stedsnr" v="214104" />
	</node>
	<node lat="58.59430555579692" lon="7.928686105517285" id="-21507">
		<tag k="name" v="Folespranget" />
		<tag k="natural" v="valley" />
		<tag k="place" v="locality" />
		<tag k="ssr:stedsnr" v="214375" />
	</node>
	<node lat="58.58906666369674" lon="7.862458330832286" id="-21508">
		<tag k="fixme" v="consider natural=peak for the most distinct mountains in the district" />
		<tag k="name" v="Haugefjellet" />
		<tag k="natural" v="hill" />
		<tag k="place" v="locality" />
		<tag k="ssr:stedsnr" v="214386" />
	</node>
	<node lat="58.59086111056349" lon="7.883561107107435" id="-21509">
		<tag k="name" v="Hasseldalen" />
		<tag k="natural" v="valley" />
		<tag k="place" v="locality" />
		<tag k="ssr:stedsnr" v="214391" />
	</node>
	<node lat="58.637266669414366" lon="7.942813884159673" id="-21510">
		<tag k="fixme" v="consider natural=peak for the most distinct mountains in the district" />
		<tag k="name" v="Buåsen" />
		<tag k="natural" v="hill" />
		<tag k="place" v="locality" />
		<tag k="ssr:stedsnr" v="214531" />
	</node>
	<node lat="58.5682916672207" lon="7.84334722436762" id="-21512">
		<tag k="fixme" v="consider natural=peak for the most distinct mountains in the district" />
		<tag k="name" v="Åsen" />
		<tag k="natural" v="hill" />
		<tag k="place" v="locality" />
		<tag k="ssr:stedsnr" v="214405" />
	</node>
	<node lat="58.56580833346968" lon="7.858674994749524" id="-21513">
		<tag k="name" v="Kvernhusdalen" />
		<tag k="natural" v="valley" />
		<tag k="place" v="locality" />
		<tag k="ssr:stedsnr" v="214407" />
	</node>
	<node lat="58.59466944280342" lon="7.898111104817507" id="-21515">
		<tag k="name" v="Kråkesylvbakken" />
		<tag k="natural" v="slope" />
		<tag k="place" v="locality" />
		<tag k="ssr:stedsnr" v="214413" />
	</node>
	<node lat="58.591050002950844" lon="7.940433335262948" id="-21516">
		<tag k="fixme" v="consider natural=peak for the most distinct mountains in the district" />
		<tag k="name" v="Høgåsen" />
		<tag k="natural" v="hill" />
		<tag k="place" v="locality" />
		<tag k="ssr:stedsnr" v="214424" />
	</node>
	<node lat="58.51440555709679" lon="7.838297221519573" id="-21517">
		<tag k="name" v="Skilstad" />
		<tag k="natural" v="hill" />
		<tag k="place" v="locality" />
		<tag k="ssr:stedsnr" v="214429" />
	</node>
	<node lat="58.55147499829695" lon="7.879736114668876" id="-21519">
		<tag k="name" v="Fænmyrdalen" />
		<tag k="natural" v="valley" />
		<tag k="place" v="locality" />
		<tag k="ssr:stedsnr" v="214480" />
	</node>
	<node lat="58.5563305564737" lon="7.906424996493489" id="-21520">
		<tag k="fixme" v="consider natural=peak for the most distinct mountains in the district" />
		<tag k="name" v="Patentslåttfjellet" />
		<tag k="natural" v="hill" />
		<tag k="place" v="locality" />
		<tag k="ssr:stedsnr" v="214487" />
	</node>
	<node lat="58.56905278026455" lon="7.91897222510716" id="-21525">
		<tag k="name" v="Dalane" />
		<tag k="natural" v="valley" />
		<tag k="place" v="locality" />
		<tag k="ssr:stedsnr" v="214626" />
	</node>
	<node lat="58.59610555740198" lon="7.9619111125515385" id="-21527">
		<tag k="name" v="Solli" />
		<tag k="natural" v="slope" />
		<tag k="place" v="locality" />
		<tag k="ssr:stedsnr" v="214729" />
	</node>
	<node lat="58.582616669593484" lon="7.957980551980037" id="-21528">
		<tag k="name" v="Sletteheia" />
		<tag k="natural" v="hill" />
		<tag k="place" v="locality" />
		<tag k="ssr:stedsnr" v="214731" />
	</node>
	<node lat="58.61941666398594" lon="7.967969443265642" id="-21531">
		<tag k="fixme" v="consider natural=peak for the most distinct mountains in the district" />
		<tag k="name" v="Bufjell" />
		<tag k="natural" v="hill" />
		<tag k="place" v="locality" />
		<tag k="ssr:stedsnr" v="214681" />
	</node>
	<node lat="58.51805833206192" lon="7.842250005187923" id="-21533">
		<tag k="fixme" v="consider natural=peak for the most distinct mountains in the district" />
		<tag k="name" v="Åsen" />
		<tag k="natural" v="hill" />
		<tag k="place" v="locality" />
		<tag k="ssr:stedsnr" v="214809" />
	</node>
	<node lat="58.58863333586747" lon="7.778322216321546" id="-21535">
		<tag k="name" v="Svodalen" />
		<tag k="natural" v="valley" />
		<tag k="place" v="locality" />
		<tag k="ssr:stedsnr" v="214814" />
	</node>
	<node lat="58.582008336371985" lon="7.761630548465812" id="-21536">
		<tag k="fixme" v="consider natural=peak for the most distinct mountains in the district" />
		<tag k="name" v="Goddalsfjell" />
		<tag k="natural" v="hill" />
		<tag k="place" v="locality" />
		<tag k="ssr:stedsnr" v="214815" />
	</node>
	<node lat="58.56423888701406" lon="7.747394452668128" id="-21538">
		<tag k="fixme" v="consider natural=peak for the most distinct mountains in the district" />
		<tag k="name" v="Vestre Bjøllås" />
		<tag k="natural" v="hill" />
		<tag k="place" v="locality" />
		<tag k="ssr:stedsnr" v="214834" />
	</node>
	<node lat="58.52268055130315" lon="7.835175001109744" id="-21541">
		<tag k="name" v="Tøreknutten" />
		<tag k="natural" v="hill" />
		<tag k="place" v="locality" />
		<tag k="ssr:stedsnr" v="215173" />
	</node>
	<node lat="58.61903888685596" lon="7.747308340337976" id="-21544">
		<tag k="name" v="Stråkdalen" />
		<tag k="natural" v="valley" />
		<tag k="place" v="locality" />
		<tag k="ssr:stedsnr" v="215327" />
	</node>
	<node lat="58.588144440927074" lon="7.825186102757631" id="-21545">
		<tag k="name" v="Åvollskleiv" />
		<tag k="natural" v="slope" />
		<tag k="place" v="locality" />
		<tag k="ssr:stedsnr" v="215204" />
	</node>
	<node lat="58.59308610954975" lon="7.821424995608448" id="-21546">
		<tag k="name" v="Sandbakken" />
		<tag k="natural" v="slope" />
		<tag k="place" v="locality" />
		<tag k="ssr:stedsnr" v="215207" />
	</node>
	<node lat="58.47533333240332" lon="7.728383331571219" id="-21550">
		<tag k="name" v="Sandtjønnlia" />
		<tag k="natural" v="slope" />
		<tag k="place" v="locality" />
		<tag k="ssr:stedsnr" v="215216" />
	</node>
	<node lat="58.557530558902606" lon="7.750105559548704" id="-21551">
		<tag k="name" v="Marefodalen" />
		<tag k="natural" v="valley" />
		<tag k="place" v="locality" />
		<tag k="ssr:stedsnr" v="215224" />
	</node>
	<node lat="58.54250832999198" lon="7.831113891533712" id="-21553">
		<tag k="name" v="Kjosbråtane" />
		<tag k="natural" v="slope" />
		<tag k="place" v="locality" />
		<tag k="ssr:stedsnr" v="215291" />
	</node>
	<node lat="58.51955555352069" lon="7.743988892760324" id="-21557">
		<tag k="name" v="Vestre Bjørndalen" />
		<tag k="natural" v="valley" />
		<tag k="place" v="locality" />
		<tag k="ssr:stedsnr" v="215382" />
	</node>
	<node lat="58.47106666692891" lon="7.609941665003569" id="-21559">
		<tag k="name" v="Rindane" />
		<tag k="natural" v="ridge" />
		<tag k="place" v="locality" />
		<tag k="ssr:stedsnr" v="215703" />
	</node>
	<node lat="58.465372220571474" lon="7.604144437829188" id="-21560">
		<tag k="fixme" v="consider natural=peak for the most distinct mountains in the district" />
		<tag k="name" v="Rolandsåsen" />
		<tag k="natural" v="hill" />
		<tag k="place" v="locality" />
		<tag k="ssr:stedsnr" v="215704" />
	</node>
	<node lat="58.46991389015903" lon="7.600166673731475" id="-21561">
		<tag k="fixme" v="consider natural=peak for the most distinct mountains in the district" />
		<tag k="name" v="Snoråsen" />
		<tag k="natural" v="hill" />
		<tag k="place" v="locality" />
		<tag k="ssr:stedsnr" v="215706" />
	</node>
	<node lat="58.46058333652792" lon="7.590316661140696" id="-21562">
		<tag k="fixme" v="consider natural=peak for the most distinct mountains in the district" />
		<tag k="name" v="Løarknutten" />
		<tag k="natural" v="hill" />
		<tag k="place" v="locality" />
		<tag k="ssr:stedsnr" v="215724" />
	</node>
	<node lat="58.47901666358625" lon="7.720205555110117" id="-21567">
		<tag k="name" v="Nosleknutten" />
		<tag k="natural" v="hill" />
		<tag k="place" v="locality" />
		<tag k="ssr:stedsnr" v="215875" />
	</node>
	<node lat="58.477772223654384" lon="7.565002770102682" id="-21568">
		<tag k="name" v="Den ydste heia" />
		<tag k="natural" v="hill" />
		<tag k="place" v="locality" />
		<tag k="ssr:stedsnr" v="215778" />
	</node>
	<node lat="58.58374999991971" lon="7.717686111388557" id="-21569">
		<tag k="name" v="Bjørndalsfjellet" />
		<tag k="natural" v="hill" />
		<tag k="place" v="locality" />
		<tag k="ssr:stedsnr" v="215903" />
	</node>
	<node lat="58.593475004524954" lon="7.640466671156436" id="-21570">
		<tag k="name" v="Juva" />
		<tag k="natural" v="valley" />
		<tag k="place" v="locality" />
		<tag k="ssr:stedsnr" v="215916" />
	</node>
	<node lat="58.519075000044964" lon="7.639741662089189" id="-21571">
		<tag k="name" v="Molandsbrotane" />
		<tag k="natural" v="slope" />
		<tag k="place" v="locality" />
		<tag k="ssr:stedsnr" v="215928" />
	</node>
	<node lat="58.644397221169676" lon="7.6635833276478555" id="-21573">
		<tag k="name" v="Hønekleiv" />
		<tag k="natural" v="slope" />
		<tag k="place" v="locality" />
		<tag k="ssr:stedsnr" v="215983" />
	</node>
	<node lat="58.56747222311507" lon="7.710766674520272" id="-21575">
		<tag k="name" v="Slettheistø" />
		<tag k="natural" v="hill" />
		<tag k="place" v="locality" />
		<tag k="ssr:stedsnr" v="215986" />
	</node>
	<node lat="58.72262500441767" lon="7.649094442785312" id="-21581">
		<tag k="alt_name" v="Midtstrandknuten" />
		<tag k="fixme" v="consider natural=peak for the most distinct mountains in the district" />
		<tag k="name" v="Midtstrandnuten" />
		<tag k="natural" v="hill" />
		<tag k="place" v="locality" />
		<tag k="ssr:stedsnr" v="242008" />
	</node>
	<node lat="58.624491665464404" lon="7.823849993860928" id="-21588">
		<tag k="fixme" v="consider natural=peak for the most distinct mountains in the district" />
		<tag k="name" v="Bjørnåsen" />
		<tag k="natural" v="hill" />
		<tag k="place" v="locality" />
		<tag k="ssr:stedsnr" v="244605" />
	</node>
	<node lat="58.63824444560989" lon="8.029877783353921" id="-21594">
		<tag k="fixme" v="consider natural=peak for the most distinct mountains in the district" />
		<tag k="name" v="Krofjellknuten" />
		<tag k="natural" v="hill" />
		<tag k="place" v="locality" />
		<tag k="ssr:stedsnr" v="244597" />
	</node>
	<node lat="58.45950833190465" lon="7.561572223133561" id="-21598">
		<tag k="name" v="Mårdalen" />
		<tag k="natural" v="valley" />
		<tag k="place" v="locality" />
		<tag k="ssr:stedsnr" v="457568" />
	</node>
	<node lat="58.63613055389246" lon="7.676147229958984" id="-21599">
		<tag k="name" v="Øygardslia" />
		<tag k="natural" v="slope" />
		<tag k="place" v="locality" />
		<tag k="ssr:stedsnr" v="456970" />
	</node>
	<node lat="58.71907777430679" lon="7.645961116776278" id="-21602">
		<tag k="name" v="Buheia" />
		<tag k="natural" v="hill" />
		<tag k="place" v="locality" />
		<tag k="ssr:stedsnr" v="457089" />
	</node>
	<node lat="58.72262222191839" lon="7.6492694366397815" id="-21603">
		<tag k="name" v="Midtstrandnuten" />
		<tag k="natural" v="hill" />
		<tag k="place" v="locality" />
		<tag k="ssr:stedsnr" v="457092" />
	</node>
	<node lat="58.55028055378264" lon="7.7680222141162645" id="-21605">
		<tag k="name" v="Bustømoen" />
		<tag k="place" v="locality" />
		<tag k="ssr:stedsnr" v="457182" />
	</node>
	<node lat="58.54669722399186" lon="7.753872224672998" id="-21607">
		<tag k="name" v="Kvernbakken" />
		<tag k="natural" v="slope" />
		<tag k="place" v="locality" />
		<tag k="ssr:stedsnr" v="457190" />
	</node>
	<node lat="58.55504722644948" lon="7.823999997205027" id="-21608">
		<tag k="name" v="Urdalen" />
		<tag k="natural" v="valley" />
		<tag k="place" v="locality" />
		<tag k="ssr:stedsnr" v="457195" />
	</node>
	<node lat="58.54680277424448" lon="7.832452781946775" id="-21610">
		<tag k="name" v="Bjørnejotane" />
		<tag k="natural" v="valley" />
		<tag k="place" v="locality" />
		<tag k="ssr:stedsnr" v="457200" />
	</node>
	<node lat="58.60894444052237" lon="7.7719222207173955" id="-21612">
		<tag k="name" v="Sandbakken" />
		<tag k="natural" v="slope" />
		<tag k="place" v="locality" />
		<tag k="ssr:stedsnr" v="457225" />
	</node>
	<node lat="58.63395278164761" lon="7.832597228589332" id="-21614">
		<tag k="name" v="Bjørnslidalen" />
		<tag k="natural" v="valley" />
		<tag k="place" v="locality" />
		<tag k="ssr:stedsnr" v="457324" />
	</node>
	<node lat="58.5629500003323" lon="7.789800006091152" id="-21616">
		<tag k="name" v="Brent høyde" />
		<tag k="natural" v="hill" />
		<tag k="place" v="locality" />
		<tag k="ssr:stedsnr" v="457296" />
	</node>
	<node lat="58.58585555384495" lon="7.9127194462963555" id="-21618">
		<tag k="fixme" v="consider natural=peak for the most distinct mountains in the district" />
		<tag k="name" v="Nordheifjellet" />
		<tag k="natural" v="hill" />
		<tag k="place" v="locality" />
		<tag k="ssr:stedsnr" v="457389" />
	</node>
	<node lat="58.57684999553673" lon="7.8516833272448645" id="-21620">
		<tag k="name" v="Bytingsdalen" />
		<tag k="natural" v="valley" />
		<tag k="place" v="locality" />
		<tag k="ssr:stedsnr" v="457395" />
	</node>
	<node lat="58.626866668811466" lon="7.781097220530696" id="-21621">
		<tag k="name" v="Stordalsbakkane" />
		<tag k="natural" v="slope" />
		<tag k="place" v="locality" />
		<tag k="ssr:stedsnr" v="457339" />
	</node>
	<node lat="58.64863055937848" lon="7.742825000806795" id="-21624">
		<tag k="name" v="Skarkedalen" />
		<tag k="natural" v="valley" />
		<tag k="place" v="locality" />
		<tag k="ssr:stedsnr" v="457438" />
	</node>
	<node lat="58.6463750038661" lon="7.749913892436955" id="-21625">
		<tag k="name" v="Hjulet" />
		<tag k="natural" v="hill" />
		<tag k="place" v="locality" />
		<tag k="ssr:stedsnr" v="457439" />
	</node>
	<node lat="58.65943055608687" lon="7.781913889197435" id="-21626">
		<tag k="fixme" v="consider natural=peak for the most distinct mountains in the district" />
		<tag k="name" v="Nonåsen" />
		<tag k="natural" v="hill" />
		<tag k="place" v="locality" />
		<tag k="ssr:stedsnr" v="457443" />
	</node>
	<node lat="58.655086112237385" lon="7.785908326944869" id="-21627">
		<tag k="name" v="Kleveheia" />
		<tag k="natural" v="hill" />
		<tag k="place" v="locality" />
		<tag k="ssr:stedsnr" v="457446" />
	</node>
	<node lat="58.549141670004985" lon="7.891444448311634" id="-21628">
		<tag k="name" v="Goeli" />
		<tag k="natural" v="slope" />
		<tag k="place" v="locality" />
		<tag k="ssr:stedsnr" v="457455" />
	</node>
	<node lat="58.62088056000843" lon="7.915252772714954" id="-21631">
		<tag k="name" v="Kjellingdalen" />
		<tag k="natural" v="valley" />
		<tag k="place" v="locality" />
		<tag k="ssr:stedsnr" v="457483" />
	</node>
	<node lat="58.60910833339303" lon="7.846388894027532" id="-21632">
		<tag k="name" v="Røyndalen" />
		<tag k="natural" v="valley" />
		<tag k="place" v="locality" />
		<tag k="ssr:stedsnr" v="457488" />
	</node>
	<node lat="58.613750000281236" lon="7.934319441229327" id="-21633">
		<tag k="name" v="Kleppslandsdalen" />
		<tag k="natural" v="valley" />
		<tag k="place" v="locality" />
		<tag k="ssr:stedsnr" v="457496" />
	</node>
	<node lat="58.623872217906055" lon="7.874602774706426" id="-21634">
		<tag k="fixme" v="consider natural=peak for the most distinct mountains in the district" />
		<tag k="name" v="Landåsen" />
		<tag k="natural" v="hill" />
		<tag k="place" v="locality" />
		<tag k="ssr:stedsnr" v="457533" />
	</node>
	<node lat="58.63967777632915" lon="7.877591669117211" id="-21637">
		<tag k="fixme" v="consider natural=peak for the most distinct mountains in the district" />
		<tag k="name" v="Neksåsen" />
		<tag k="natural" v="hill" />
		<tag k="place" v="locality" />
		<tag k="ssr:stedsnr" v="457552" />
	</node>
	<node lat="58.56223611093783" lon="7.856602772796684" id="-21639">
		<tag k="name" v="Kongshaugane" />
		<tag k="natural" v="hill" />
		<tag k="place" v="locality" />
		<tag k="ssr:stedsnr" v="457577" />
	</node>
	<node lat="58.53456666860585" lon="7.57175277459238" id="-21640">
		<tag k="name" v="Bråttebakk" />
		<tag k="natural" v="slope" />
		<tag k="place" v="locality" />
		<tag k="ssr:stedsnr" v="457673" />
	</node>
	<node lat="58.598469448339394" lon="7.975933328297333" id="-21641">
		<tag k="name" v="Kjuklinghei" />
		<tag k="natural" v="hill" />
		<tag k="place" v="locality" />
		<tag k="ssr:stedsnr" v="457675" />
	</node>
	<node lat="58.59922499930764" lon="7.979088896138219" id="-21642">
		<tag k="name" v="Stangevassdalen" />
		<tag k="natural" v="valley" />
		<tag k="place" v="locality" />
		<tag k="ssr:stedsnr" v="457676" />
	</node>
	<node lat="58.60827222231038" lon="7.605216669312606" id="-21644">
		<tag k="name" v="Fjalebekkhei" />
		<tag k="natural" v="hill" />
		<tag k="place" v="locality" />
		<tag k="ssr:stedsnr" v="457686" />
	</node>
	<node lat="58.628652781551864" lon="7.604927774057517" id="-21648">
		<tag k="name" v="Haredalen" />
		<tag k="natural" v="valley" />
		<tag k="place" v="locality" />
		<tag k="ssr:stedsnr" v="457693" />
	</node>
	<node lat="58.47881944602132" lon="7.616555556636792" id="-21650">
		<tag k="fixme" v="consider natural=peak for the most distinct mountains in the district" />
		<tag k="name" v="Kjørkefjella" />
		<tag k="natural" v="hill" />
		<tag k="place" v="locality" />
		<tag k="ssr:stedsnr" v="457696" />
	</node>
	<node lat="58.48135277995197" lon="7.6108416643464" id="-21651">
		<tag k="name" v="Grasliknutten" />
		<tag k="natural" v="hill" />
		<tag k="place" v="locality" />
		<tag k="ssr:stedsnr" v="457698" />
	</node>
	<node lat="58.47992499972717" lon="7.5994083254178415" id="-21652">
		<tag k="name" v="Hedreshei" />
		<tag k="natural" v="hill" />
		<tag k="place" v="locality" />
		<tag k="ssr:stedsnr" v="457700" />
	</node>
	<node lat="58.538111108565815" lon="7.551163891995093" id="-21653">
		<tag k="name" v="Lislehei" />
		<tag k="natural" v="hill" />
		<tag k="place" v="locality" />
		<tag k="ssr:stedsnr" v="457727" />
	</node>
	<node lat="58.62170833255651" lon="7.996125003055609" id="-21655">
		<tag k="name" v="Takdalen" />
		<tag k="natural" v="valley" />
		<tag k="place" v="locality" />
		<tag k="ssr:stedsnr" v="457612" />
	</node>
	<node lat="58.500349999202285" lon="7.608941665033506" id="-21657">
		<tag k="name" v="Halvkarsheia" />
		<tag k="natural" v="hill" />
		<tag k="place" v="locality" />
		<tag k="ssr:stedsnr" v="457616" />
	</node>
	<node lat="58.62253611001268" lon="7.977763881594045" id="-21658">
		<tag k="fixme" v="consider natural=peak for the most distinct mountains in the district" />
		<tag k="name" v="Bjørnåsen" />
		<tag k="natural" v="hill" />
		<tag k="place" v="locality" />
		<tag k="ssr:stedsnr" v="457619" />
	</node>
	<node lat="58.481600001335394" lon="7.563380550655547" id="-21659">
		<tag k="name" v="Den indste heia" />
		<tag k="natural" v="hill" />
		<tag k="place" v="locality" />
		<tag k="ssr:stedsnr" v="457624" />
	</node>
	<node lat="58.58071666225631" lon="8.001716665840656" id="-21662">
		<tag k="name" v="Svintoksdalen" />
		<tag k="natural" v="valley" />
		<tag k="place" v="locality" />
		<tag k="ssr:stedsnr" v="457646" />
	</node>
	<node lat="58.46514999722144" lon="7.597111109414107" id="-21663">
		<tag k="name" v="Rapane" />
		<tag k="natural" v="slope" />
		<tag k="place" v="locality" />
		<tag k="ssr:stedsnr" v="457649" />
	</node>
	<node lat="58.578697219037494" lon="7.944958328683329" id="-21671">
		<tag k="fixme" v="consider natural=peak for the most distinct mountains in the district" />
		<tag k="name" v="Ramsefjell" />
		<tag k="natural" v="hill" />
		<tag k="place" v="locality" />
		<tag k="ssr:stedsnr" v="457754" />
	</node>
	<node lat="58.56079166632494" lon="7.744502770800859" id="-21674">
		<tag k="name" v="Bjørnstiholtane" />
		<tag k="natural" v="slope" />
		<tag k="place" v="locality" />
		<tag k="ssr:stedsnr" v="457794" />
	</node>
	<node lat="58.57050000084037" lon="7.729688885540754" id="-21675">
		<tag k="fixme" v="consider natural=peak for the most distinct mountains in the district" />
		<tag k="name" v="Bronåsen" />
		<tag k="natural" v="hill" />
		<tag k="place" v="locality" />
		<tag k="ssr:stedsnr" v="457796" />
	</node>
	<node lat="58.59928888610424" lon="7.670286105285276" id="-21677">
		<tag k="name" v="Rompedalsknutten" />
		<tag k="natural" v="hill" />
		<tag k="place" v="locality" />
		<tag k="ssr:stedsnr" v="457873" />
	</node>
	<node lat="58.592586112586396" lon="7.697938895504098" id="-21679">
		<tag k="name" v="Anskjærmonen" />
		<tag k="place" v="locality" />
		<tag k="ssr:stedsnr" v="457887" />
	</node>
	<node lat="58.54753056001368" lon="7.691436118028626" id="-21681">
		<tag k="name" v="Skreon" />
		<tag k="natural" v="slope" />
		<tag k="place" v="locality" />
		<tag k="ssr:stedsnr" v="457941" />
	</node>
	<node lat="58.615413892646636" lon="7.620336103259887" id="-21683">
		<tag k="fixme" v="consider natural=peak for the most distinct mountains in the district" />
		<tag k="name" v="Skorefjellane" />
		<tag k="natural" v="hill" />
		<tag k="old_name" v="Skorefjewllane" />
		<tag k="place" v="locality" />
		<tag k="ssr:stedsnr" v="457949" />
	</node>
	<node lat="58.61026666547055" lon="7.629249994503209" id="-21684">
		<tag k="name" v="Bøykarholon" />
		<tag k="natural" v="valley" />
		<tag k="place" v="locality" />
		<tag k="ssr:stedsnr" v="457950" />
	</node>
	<node lat="58.46039166588838" lon="7.770300001901081" id="-21689">
		<tag k="name" v="Ormeskarane" />
		<tag k="natural" v="slope" />
		<tag k="place" v="locality" />
		<tag k="ssr:stedsnr" v="275011" />
	</node>
	<node lat="58.50181389322799" lon="7.7460444447167305" id="-21692">
		<tag k="name" v="Daleknotten" />
		<tag k="natural" v="hill" />
		<tag k="place" v="locality" />
		<tag k="ssr:stedsnr" v="275026" />
	</node>
	<node lat="58.630922219409534" lon="7.624116662109213" id="-21693">
		<tag k="name" v="Skotedalen" />
		<tag k="natural" v="valley" />
		<tag k="place" v="locality" />
		<tag k="ssr:stedsnr" v="274969" />
	</node>
	<node lat="58.46407222551179" lon="7.760158331365441" id="-21694">
		<tag k="name" v="Lauvåsdalen" />
		<tag k="natural" v="valley" />
		<tag k="place" v="locality" />
		<tag k="ssr:stedsnr" v="275104" />
	</node>
	<node lat="58.526083334388716" lon="7.8320472142676305" id="-21699">
		<tag k="name" v="Grasdalsknutten" />
		<tag k="natural" v="hill" />
		<tag k="place" v="locality" />
		<tag k="ssr:stedsnr" v="275126" />
	</node>
	<node lat="58.64582222458487" lon="7.6376972247783135" id="-21700">
		<tag k="name" v="Ragnhildskveven" />
		<tag k="natural" v="valley" />
		<tag k="place" v="locality" />
		<tag k="ssr:stedsnr" v="275071" />
	</node>
	<node lat="58.646966668135676" lon="7.617238886950174" id="-21701">
		<tag k="name" v="Lislebekkmoen" />
		<tag k="place" v="locality" />
		<tag k="ssr:stedsnr" v="275073" />
	</node>
	<node lat="58.5450694410965" lon="7.799086108210329" id="-21702">
		<tag k="name" v="Skarkedalen" />
		<tag k="natural" v="valley" />
		<tag k="place" v="locality" />
		<tag k="ssr:stedsnr" v="275203" />
	</node>
	<node lat="58.50658888986645" lon="7.852894443632721" id="-21704">
		<tag k="name" v="Bjørnskjeggheia" />
		<tag k="natural" v="hill" />
		<tag k="place" v="locality" />
		<tag k="ssr:stedsnr" v="275411" />
	</node>
	<node lat="58.478711112948986" lon="7.7745999987861065" id="-21708">
		<tag k="name" v="Stedalen" />
		<tag k="natural" v="valley" />
		<tag k="place" v="locality" />
		<tag k="ssr:stedsnr" v="275171" />
	</node>
	<node lat="58.571566662857485" lon="7.823463890961912" id="-21709">
		<tag k="fixme" v="consider natural=peak for the most distinct mountains in the district" />
		<tag k="name" v="Knuten" />
		<tag k="natural" v="hill" />
		<tag k="place" v="locality" />
		<tag k="ssr:stedsnr" v="275309" />
	</node>
	<node lat="58.5210166652863" lon="7.755250006737619" id="-21710">
		<tag k="name" v="Heimre Bjørndalen" />
		<tag k="natural" v="valley" />
		<tag k="place" v="locality" />
		<tag k="ssr:stedsnr" v="275318" />
	</node>
	<node lat="58.59110833497042" lon="7.838683341566077" id="-21711">
		<tag k="name" v="Bjørkeli" />
		<tag k="natural" v="slope" />
		<tag k="place" v="locality" />
		<tag k="ssr:stedsnr" v="275369" />
	</node>
	<node lat="58.592038887806154" lon="7.85101388970563" id="-21712">
		<tag k="name" v="Ørtenapen" />
		<tag k="natural" v="ridge" />
		<tag k="place" v="locality" />
		<tag k="ssr:stedsnr" v="275370" />
	</node>
	<node lat="58.613875000309505" lon="7.8599444364806565" id="-21716">
		<tag k="name" v="Syrtveitsdalen" />
		<tag k="natural" v="valley" />
		<tag k="place" v="locality" />
		<tag k="ssr:stedsnr" v="275518" />
	</node>
	<node lat="58.610183333634225" lon="7.837858330456942" id="-21717">
		<tag k="name" v="Urdalen" />
		<tag k="natural" v="valley" />
		<tag k="place" v="locality" />
		<tag k="ssr:stedsnr" v="275476" />
	</node>
	<node lat="58.57200277826473" lon="7.9735055626749665" id="-21725">
		<tag k="name" v="Djupedal" />
		<tag k="natural" v="valley" />
		<tag k="place" v="locality" />
		<tag k="ssr:stedsnr" v="275626" />
	</node>
	<node lat="58.53005555641434" lon="7.597708339361212" id="-21726">
		<tag k="name" v="Lille Areneve" />
		<tag k="natural" v="hill" />
		<tag k="place" v="locality" />
		<tag k="ssr:stedsnr" v="275669" />
	</node>
	<node lat="58.67279999603018" lon="7.60200277682338" id="-21727">
		<tag k="name" v="Romebringen" />
		<tag k="natural" v="slope" />
		<tag k="place" v="locality" />
		<tag k="ssr:stedsnr" v="275674" />
	</node>
	<node lat="58.622294446801746" lon="7.594647217005989" id="-21730">
		<tag k="name" v="Lantarfjellet" />
		<tag k="natural" v="hill" />
		<tag k="place" v="locality" />
		<tag k="ssr:stedsnr" v="275683" />
	</node>
	<node lat="58.56176666247376" lon="7.959583334414783" id="-21732">
		<tag k="name" v="Salåsen" />
		<tag k="natural" v="hill" />
		<tag k="place" v="locality" />
		<tag k="ssr:stedsnr" v="275691" />
	</node>
	<node lat="58.56750555556399" lon="7.880922216571279" id="-21733">
		<tag k="name" v="Skrubbeholtane" />
		<tag k="natural" v="hill" />
		<tag k="place" v="locality" />
		<tag k="ssr:stedsnr" v="275586" />
	</node>
	<node lat="58.48394444565927" lon="7.5969555568964875" id="-21734">
		<tag k="name" v="Vasslandsheia" />
		<tag k="natural" v="hill" />
		<tag k="place" v="locality" />
		<tag k="ssr:stedsnr" v="275705" />
	</node>
	<node lat="58.66371944659269" lon="7.9158111113124034" id="-21736">
		<tag k="name" v="Nygårdsheia" />
		<tag k="natural" v="hill" />
		<tag k="place" v="locality" />
		<tag k="ssr:stedsnr" v="275708" />
	</node>
	<node lat="58.486183330066496" lon="7.584583340568141" id="-21738">
		<tag k="name" v="Gaupelia" />
		<tag k="natural" v="slope" />
		<tag k="place" v="locality" />
		<tag k="ssr:stedsnr" v="275713" />
	</node>
	<node lat="58.54893055358364" lon="7.606049997016632" id="-21741">
		<tag k="name" v="Bjordalen" />
		<tag k="natural" v="valley" />
		<tag k="place" v="locality" />
		<tag k="ssr:stedsnr" v="275723" />
	</node>
	<node lat="58.602552776014065" lon="7.990741661379595" id="-21742">
		<tag k="name" v="Skarveheidalen" />
		<tag k="natural" v="valley" />
		<tag k="place" v="locality" />
		<tag k="ssr:stedsnr" v="275727" />
	</node>
	<node lat="58.58955555151662" lon="7.616666666702207" id="-21743">
		<tag k="name" v="Jordtveitskvæven" />
		<tag k="natural" v="valley" />
		<tag k="place" v="locality" />
		<tag k="ssr:stedsnr" v="275869" />
	</node>
	<node lat="58.59785277805731" lon="7.711183333213825" id="-21744">
		<tag k="name" v="Sletthei" />
		<tag k="natural" v="hill" />
		<tag k="place" v="locality" />
		<tag k="ssr:stedsnr" v="275876" />
	</node>
	<node lat="58.562880558632344" lon="7.663669441351394" id="-21748">
		<tag k="name" v="Sprengsmyrbrotet" />
		<tag k="natural" v="slope" />
		<tag k="place" v="locality" />
		<tag k="ssr:stedsnr" v="275996" />
	</node>
	<node lat="58.454349999052155" lon="7.566169441713043" id="-21755">
		<tag k="fixme" v="consider natural=peak for the most distinct mountains in the district" />
		<tag k="name" v="Linderapen" />
		<tag k="natural" v="hill" />
		<tag k="place" v="locality" />
		<tag k="ssr:stedsnr" v="303906" />
	</node>
	<node lat="58.46157499768945" lon="7.598586119069148" id="-21756">
		<tag k="alt_name" v="Mannevigheia" />
		<tag k="name" v="Mannevigheii" />
		<tag k="natural" v="hill" />
		<tag k="place" v="locality" />
		<tag k="ssr:stedsnr" v="303922" />
	</node>
	<node lat="58.5227500032285" lon="7.819405550668883" id="-21758">
		<tag k="alt_name" v="Åsane" />
		<tag k="fixme" v="consider natural=peak for the most distinct mountains in the district" />
		<tag k="name" v="Åsan" />
		<tag k="natural" v="hill" />
		<tag k="place" v="locality" />
		<tag k="ssr:stedsnr" v="304425" />
	</node>
	<node lat="58.698480558055756" lon="7.642155554475705" id="-21759">
		<tag k="fixme" v="consider natural=peak for the most distinct mountains in the district" />
		<tag k="name" v="Skuta" />
		<tag k="natural" v="hill" />
		<tag k="place" v="locality" />
		<tag k="ssr:stedsnr" v="304183" />
	</node>
	<node lat="58.683808337265376" lon="7.546238885367583" id="-21760">
		<tag k="alt_name" v="Jøtnefoten" />
		<tag k="fixme" v="consider natural=peak for the most distinct mountains in the district" />
		<tag k="name" v="Jøtnefot" />
		<tag k="natural" v="hill" />
		<tag k="place" v="locality" />
		<tag k="ssr:stedsnr" v="304193" />
	</node>
	<node lat="58.60092499998887" lon="7.805330560335074" id="-21762">
		<tag k="alt_name" v="Skarefjellet" />
		<tag k="fixme" v="consider natural=peak for the most distinct mountains in the district" />
		<tag k="name" v="Skardefjellet" />
		<tag k="natural" v="hill" />
		<tag k="place" v="locality" />
		<tag k="ssr:stedsnr" v="304718" />
	</node>
	<node lat="59.24859999703415" lon="6.806783328633947" id="-21763">
		<tag k="name" v="Heiane" />
		<tag k="natural" v="mountain_range" />
		<tag k="ssr:stedsnr" v="326179" />
	</node>
	<node lat="58.46258888463796" lon="7.7745361065764" id="-21767">
		<tag k="name" v="Svartops" />
		<tag k="natural" v="cliff" />
		<tag k="ssr:stedsnr" v="335007" />
	</node>
	<node lat="58.45756944854134" lon="7.77843889416978" id="-21768">
		<tag k="name" v="Krossdalen" />
		<tag k="natural" v="valley" />
		<tag k="place" v="locality" />
		<tag k="ssr:stedsnr" v="335010" />
	</node>
	<node lat="58.45855833757644" lon="7.783275006491481" id="-21770">
		<tag k="name" v="Pelekleiv" />
		<tag k="natural" v="slope" />
		<tag k="place" v="locality" />
		<tag k="ssr:stedsnr" v="335013" />
	</node>
	<node lat="58.489805552121055" lon="7.743175001067741" id="-21772">
		<tag k="name" v="Voreli" />
		<tag k="natural" v="slope" />
		<tag k="place" v="locality" />
		<tag k="ssr:stedsnr" v="335049" />
	</node>
	<node lat="58.56571388720211" lon="7.836074992214451" id="-21778">
		<tag k="name" v="Bjordalen" />
		<tag k="natural" v="valley" />
		<tag k="place" v="locality" />
		<tag k="ssr:stedsnr" v="335415" />
	</node>
	<node lat="58.62275832954415" lon="7.838483330865387" id="-21782">
		<tag k="name" v="Grossidalen" />
		<tag k="natural" v="valley" />
		<tag k="place" v="locality" />
		<tag k="ssr:stedsnr" v="335553" />
	</node>
	<node lat="58.605408334738776" lon="7.921772222144766" id="-21784">
		<tag k="name" v="Møybergane" />
		<tag k="natural" v="slope" />
		<tag k="place" v="locality" />
		<tag k="ssr:stedsnr" v="335745" />
	</node>
	<node lat="58.67160555924232" lon="7.928374994618852" id="-21785">
		<tag k="name" v="Riskleivheia" />
		<tag k="natural" v="hill" />
		<tag k="place" v="locality" />
		<tag k="ssr:stedsnr" v="335748" />
	</node>
	<node lat="58.65017221931738" lon="7.866838886757528" id="-21786">
		<tag k="name" v="Råtedalen" />
		<tag k="natural" v="valley" />
		<tag k="place" v="locality" />
		<tag k="ssr:stedsnr" v="335751" />
	</node>
	<node lat="58.56288333621562" lon="7.881230552170183" id="-21788">
		<tag k="name" v="Valfjellheia" />
		<tag k="natural" v="hill" />
		<tag k="place" v="locality" />
		<tag k="ssr:stedsnr" v="335609" />
	</node>
	<node lat="58.566922221008504" lon="7.877766673064657" id="-21790">
		<tag k="fixme" v="consider natural=peak for the most distinct mountains in the district" />
		<tag k="name" v="Buråsen" />
		<tag k="natural" v="hill" />
		<tag k="place" v="locality" />
		<tag k="ssr:stedsnr" v="335619" />
	</node>
	<node lat="58.56586388539543" lon="7.881686103026977" id="-21791">
		<tag k="name" v="Bjørnsidalane" />
		<tag k="natural" v="valley" />
		<tag k="place" v="locality" />
		<tag k="ssr:stedsnr" v="335621" />
	</node>
	<node lat="58.569736111026494" lon="7.884830547349995" id="-21792">
		<tag k="fixme" v="consider natural=peak for the most distinct mountains in the district" />
		<tag k="name" v="Solåsen" />
		<tag k="natural" v="hill" />
		<tag k="place" v="locality" />
		<tag k="ssr:stedsnr" v="335622" />
	</node>
	<node lat="58.620302779908855" lon="7.985358333809263" id="-21794">
		<tag k="name" v="Risdalsliane" />
		<tag k="natural" v="slope" />
		<tag k="place" v="locality" />
		<tag k="ssr:stedsnr" v="335652" />
	</node>
	<node lat="58.62060277900212" lon="7.947008333504727" id="-21796">
		<tag k="fixme" v="consider natural=peak for the most distinct mountains in the district" />
		<tag k="name" v="Glopstadtoppen" />
		<tag k="natural" v="hill" />
		<tag k="place" v="locality" />
		<tag k="ssr:stedsnr" v="335662" />
	</node>
	<node lat="58.57770555529516" lon="7.996247222628131" id="-21798">
		<tag k="name" v="Langeliane" />
		<tag k="natural" v="slope" />
		<tag k="place" v="locality" />
		<tag k="ssr:stedsnr" v="335806" />
	</node>
	<node lat="58.61808889216737" lon="7.6712916674921" id="-21799">
		<tag k="name" v="Hjerteflaten" />
		<tag k="place" v="locality" />
		<tag k="ssr:stedsnr" v="335952" />
	</node>
	<node lat="58.7259500006374" lon="7.646372215487655" id="-21802">
		<tag k="name" v="Sindrebuknuten" />
		<tag k="natural" v="hill" />
		<tag k="place" v="locality" />
		<tag k="ssr:stedsnr" v="336111" />
	</node>
	<node lat="58.65060555593436" lon="7.7178916670562945" id="-21803">
		<tag k="name" v="Høydalen" />
		<tag k="natural" v="valley" />
		<tag k="place" v="locality" />
		<tag k="ssr:stedsnr" v="336112" />
	</node>
	<node lat="58.52452222307468" lon="7.831441670615136" id="-21804">
		<tag k="name" v="Grasdalen" />
		<tag k="natural" v="valley" />
		<tag k="place" v="locality" />
		<tag k="ssr:stedsnr" v="336156" />
	</node>
	<node lat="58.63058888837329" lon="7.826216662127874" id="-21806">
		<tag k="fixme" v="consider natural=peak for the most distinct mountains in the district" />
		<tag k="name" v="Tereåsen" />
		<tag k="natural" v="hill" />
		<tag k="place" v="locality" />
		<tag k="ssr:stedsnr" v="336357" />
	</node>
	<node lat="58.576002775801015" lon="7.9656000023413815" id="-21807">
		<tag k="name" v="Vaslåttlia" />
		<tag k="natural" v="slope" />
		<tag k="place" v="locality" />
		<tag k="ssr:stedsnr" v="336644" />
	</node>
	<node lat="58.493430555119396" lon="7.710491664051124" id="-21815">
		<tag k="name" v="Fjellane" />
		<tag k="natural" v="hill" />
		<tag k="place" v="locality" />
		<tag k="ssr:stedsnr" v="336846" />
	</node>
	<node lat="58.49258611547724" lon="7.652488886359685" id="-21816">
		<tag k="name" v="Kvæven" />
		<tag k="natural" v="valley" />
		<tag k="place" v="locality" />
		<tag k="ssr:stedsnr" v="336850" />
	</node>
	<node lat="58.47957221900784" lon="7.5855055638597575" id="-21819">
		<tag k="name" v="Sloggdalen" />
		<tag k="natural" v="valley" />
		<tag k="place" v="locality" />
		<tag k="ssr:stedsnr" v="336704" />
	</node>
	<node lat="58.52277499665806" lon="7.526308338986534" id="-21820">
		<tag k="name" v="Bjørnskvæven" />
		<tag k="natural" v="valley" />
		<tag k="place" v="locality" />
		<tag k="ssr:stedsnr" v="336711" />
	</node>
	<node lat="58.462891667546565" lon="7.703241674220605" id="-21822">
		<tag k="name" v="Davesheller" />
		<tag k="place" v="locality" />
		<tag k="ssr:stedsnr" v="336744" />
	</node>
	<node lat="58.52676111516972" lon="7.672402770799578" id="-21825">
		<tag k="name" v="Hestehei" />
		<tag k="natural" v="hill" />
		<tag k="place" v="locality" />
		<tag k="ssr:stedsnr" v="336912" />
	</node>
	<node lat="58.528472220463954" lon="7.688402785306082" id="-21826">
		<tag k="name" v="Djupedal" />
		<tag k="natural" v="valley" />
		<tag k="place" v="locality" />
		<tag k="ssr:stedsnr" v="336913" />
	</node>
	<node lat="58.53620278046843" lon="7.620513891503985" id="-21827">
		<tag k="name" v="Mikkelshellerdalen" />
		<tag k="natural" v="valley" />
		<tag k="place" v="locality" />
		<tag k="ssr:stedsnr" v="336916" />
	</node>
	<node lat="58.5847361138276" lon="8.020924997217351" id="-21828">
		<tag k="name" v="Bumyrlia" />
		<tag k="natural" v="slope" />
		<tag k="place" v="locality" />
		<tag k="ssr:stedsnr" v="474723" />
	</node>
	<node lat="58.5736305525976" lon="8.07593611316183" id="-21833">
		<tag k="name" v="Bjønndalen" />
		<tag k="natural" v="valley" />
		<tag k="place" v="locality" />
		<tag k="ssr:stedsnr" v="474084" />
	</node>
	<node lat="58.59262778065533" lon="8.102972216847801" id="-21840">
		<tag k="name" v="Sandtjønnlia" />
		<tag k="natural" v="slope" />
		<tag k="place" v="locality" />
		<tag k="ssr:stedsnr" v="474495" />
	</node>
	<node lat="58.61651110881202" lon="8.08443333456657" id="-21841">
		<tag k="name" v="Frua" />
		<tag k="natural" v="ridge" />
		<tag k="place" v="locality" />
		<tag k="ssr:stedsnr" v="474645" />
	</node>
	<node lat="58.59892221783097" lon="8.03491388623793" id="-21843">
		<tag k="name" v="Ljosehei" />
		<tag k="natural" v="hill" />
		<tag k="place" v="locality" />
		<tag k="ssr:stedsnr" v="474694" />
	</node>
	<node lat="58.65343888807346" lon="7.674377784046705" id="-21845">
		<tag k="alt_name" v="Svinevarden" />
		<tag k="fixme" v="consider natural=peak for the most distinct mountains in the district" />
		<tag k="name" v="Svinelivarden" />
		<tag k="natural" v="hill" />
		<tag k="place" v="locality" />
		<tag k="ssr:stedsnr" v="364164" />
	</node>
	<node lat="58.50322777491479" lon="7.836055562183821" id="-21847">
		<tag k="alt_name" v="Lønefjell" />
		<tag k="fixme" v="consider natural=peak for the most distinct mountains in the district" />
		<tag k="name" v="Lønefjellet" />
		<tag k="natural" v="hill" />
		<tag k="place" v="locality" />
		<tag k="ssr:stedsnr" v="364404" />
	</node>
	<node lat="58.68199166930806" lon="7.651225004921817" id="-21854">
		<tag k="alt_name" v="Hommeheia" />
		<tag k="fixme" v="consider natural=peak for the most distinct mountains in the district" />
		<tag k="name" v="Hommeknuten" />
		<tag k="natural" v="hill" />
		<tag k="place" v="locality" />
		<tag k="ssr:stedsnr" v="365144" />
	</node>
	<node lat="58.67559444621187" lon="7.515105554414218" id="-21855">
		<tag k="alt_name" v="Holehei" />
		<tag k="fixme" v="consider natural=peak for the most distinct mountains in the district" />
		<tag k="name" v="Holeheii" />
		<tag k="natural" v="hill" />
		<tag k="place" v="locality" />
		<tag k="ssr:stedsnr" v="365199" />
	</node>
	<node lat="58.6505499985466" lon="8.00025833284794" id="-21856">
		<tag k="alt_name" v="Løneknutane" />
		<tag k="fixme" v="consider natural=peak for the most distinct mountains in the district" />
		<tag k="name" v="Lønknutan" />
		<tag k="natural" v="hill" />
		<tag k="place" v="locality" />
		<tag k="ssr:stedsnr" v="365507" />
	</node>
	<node lat="58.52366666318036" lon="7.738911106008436" id="-21863">
		<tag k="name" v="Raunedalen" />
		<tag k="natural" v="valley" />
		<tag k="place" v="locality" />
		<tag k="ssr:stedsnr" v="396106" />
	</node>
	<node lat="58.50653611498807" lon="7.820163880815024" id="-21867">
		<tag k="name" v="Juva" />
		<tag k="natural" v="gorge" />
		<tag k="ssr:stedsnr" v="396027" />
	</node>
	<node lat="58.51296111031474" lon="7.8035750024778" id="-21868">
		<tag k="fixme" v="consider natural=peak for the most distinct mountains in the district" />
		<tag k="name" v="Kleppåsen" />
		<tag k="natural" v="hill" />
		<tag k="place" v="locality" />
		<tag k="ssr:stedsnr" v="396035" />
	</node>
	<node lat="58.66482499641083" lon="7.693827785446531" id="-21869">
		<tag k="name" v="Røyrtjønndalen" />
		<tag k="natural" v="valley" />
		<tag k="place" v="locality" />
		<tag k="ssr:stedsnr" v="396083" />
	</node>
	<node lat="58.468172224735575" lon="7.768830549393279" id="-21871">
		<tag k="name" v="Løehei" />
		<tag k="natural" v="hill" />
		<tag k="place" v="locality" />
		<tag k="ssr:stedsnr" v="396094" />
	</node>
	<node lat="58.534830553381795" lon="7.728244437549035" id="-21872">
		<tag k="name" v="Ryssemonane" />
		<tag k="place" v="locality" />
		<tag k="ssr:stedsnr" v="396101" />
	</node>
	<node lat="58.5412388858677" lon="7.7427500039429535" id="-21876">
		<tag k="name" v="Undeli" />
		<tag k="natural" v="slope" />
		<tag k="place" v="locality" />
		<tag k="ssr:stedsnr" v="396177" />
	</node>
	<node lat="58.556738889394076" lon="7.829422222906735" id="-21877">
		<tag k="name" v="Djupedal" />
		<tag k="natural" v="valley" />
		<tag k="place" v="locality" />
		<tag k="ssr:stedsnr" v="396184" />
	</node>
	<node lat="58.62982222386442" lon="7.825519447899006" id="-21878">
		<tag k="name" v="Maurdalen" />
		<tag k="natural" v="valley" />
		<tag k="place" v="locality" />
		<tag k="ssr:stedsnr" v="396306" />
	</node>
	<node lat="58.64233333114601" lon="7.818399994394525" id="-21879">
		<tag k="name" v="Flatane" />
		<tag k="natural" v="slope" />
		<tag k="place" v="locality" />
		<tag k="ssr:stedsnr" v="396327" />
	</node>
	<node lat="58.631688887906186" lon="7.892797222638703" id="-21884">
		<tag k="name" v="Øytjønnheia" />
		<tag k="natural" v="hill" />
		<tag k="place" v="locality" />
		<tag k="ssr:stedsnr" v="396506" />
	</node>
	<node lat="58.63730277439235" lon="7.912161111090671" id="-21885">
		<tag k="name" v="Sømmenoksla" />
		<tag k="natural" v="ridge" />
		<tag k="place" v="locality" />
		<tag k="ssr:stedsnr" v="396509" />
	</node>
	<node lat="58.62439722294688" lon="7.860991666802929" id="-21886">
		<tag k="fixme" v="consider natural=peak for the most distinct mountains in the district" />
		<tag k="name" v="Kjørkåsen" />
		<tag k="natural" v="hill" />
		<tag k="place" v="locality" />
		<tag k="ssr:stedsnr" v="396527" />
	</node>
	<node lat="58.591286108561825" lon="7.906594446129376" id="-21893">
		<tag k="name" v="Tolleivsmyrhei" />
		<tag k="natural" v="hill" />
		<tag k="place" v="locality" />
		<tag k="ssr:stedsnr" v="396404" />
	</node>
	<node lat="58.55081944627643" lon="7.847566659171948" id="-21895">
		<tag k="name" v="Tiurdalsheia" />
		<tag k="natural" v="hill" />
		<tag k="place" v="locality" />
		<tag k="ssr:stedsnr" v="396479" />
	</node>
	<node lat="58.61129999781368" lon="7.932469444603964" id="-21898">
		<tag k="name" v="Beltedalen" />
		<tag k="natural" v="valley" />
		<tag k="place" v="locality" />
		<tag k="ssr:stedsnr" v="396498" />
	</node>
	<node lat="58.61444721897027" lon="7.926325008068711" id="-21899">
		<tag k="name" v="Brokseli" />
		<tag k="natural" v="slope" />
		<tag k="place" v="locality" />
		<tag k="ssr:stedsnr" v="396501" />
	</node>
	<node lat="58.49121388755771" lon="7.554002780806573" id="-21900">
		<tag k="name" v="Skrivedalsheia" />
		<tag k="natural" v="hill" />
		<tag k="place" v="locality" />
		<tag k="ssr:stedsnr" v="396606" />
	</node>
	<node lat="58.477761115166906" lon="7.52748889500525" id="-21901">
		<tag k="name" v="Den hole jorda" />
		<tag k="natural" v="valley" />
		<tag k="place" v="locality" />
		<tag k="ssr:stedsnr" v="396607" />
	</node>
	<node lat="58.49949721828793" lon="7.6089611185518935" id="-21904">
		<tag k="name" v="Bestefarshola" />
		<tag k="natural" v="valley" />
		<tag k="place" v="locality" />
		<tag k="ssr:stedsnr" v="396615" />
	</node>
	<node lat="58.5756999961859" lon="7.977941673730324" id="-21906">
		<tag k="name" v="Bjordalen" />
		<tag k="natural" v="valley" />
		<tag k="place" v="locality" />
		<tag k="ssr:stedsnr" v="396628" />
	</node>
	<node lat="58.56886667055102" lon="7.901550000240023" id="-21909">
		<tag k="fixme" v="consider natural=peak for the most distinct mountains in the district" />
		<tag k="name" v="Krokevassåsen" />
		<tag k="natural" v="hill" />
		<tag k="place" v="locality" />
		<tag k="ssr:stedsnr" v="396594" />
	</node>
	<node lat="58.52922222263424" lon="7.527044450062128" id="-21912">
		<tag k="name" v="Uslebrokka" />
		<tag k="natural" v="slope" />
		<tag k="place" v="locality" />
		<tag k="ssr:stedsnr" v="396704" />
	</node>
	<node lat="58.54168611453551" lon="7.580419441911865" id="-21914">
		<tag k="name" v="Borkedalen" />
		<tag k="natural" v="valley" />
		<tag k="place" v="locality" />
		<tag k="ssr:stedsnr" v="396708" />
	</node>
	<node lat="58.56017499584972" lon="7.751033326417262" id="-21919">
		<tag k="fixme" v="consider natural=peak for the most distinct mountains in the district" />
		<tag k="name" v="Kjørkåsen" />
		<tag k="natural" v="hill" />
		<tag k="place" v="locality" />
		<tag k="ssr:stedsnr" v="396779" />
	</node>
	<node lat="58.55149722180079" lon="7.618330555117588" id="-21920">
		<tag k="name" v="Kvæven" />
		<tag k="natural" v="valley" />
		<tag k="place" v="locality" />
		<tag k="ssr:stedsnr" v="396785" />
	</node>
	<node lat="58.543269447300545" lon="7.679372219837343" id="-21924">
		<tag k="name" v="Urdalen" />
		<tag k="natural" v="valley" />
		<tag k="place" v="locality" />
		<tag k="ssr:stedsnr" v="396910" />
	</node>
	<node lat="58.58063889216673" lon="7.742236114028555" id="-21927">
		<tag k="name" v="Ureskotet" />
		<tag k="natural" v="cliff" />
		<tag k="ssr:stedsnr" v="396808" />
	</node>
	<node lat="58.47583889091" lon="7.664169438345512" id="-21931">
		<tag k="name" v="Fossådalen" />
		<tag k="natural" v="valley" />
		<tag k="place" v="locality" />
		<tag k="ssr:stedsnr" v="396838" />
	</node>
	<node lat="58.60940555606547" lon="7.962738885146533" id="-21933">
		<tag k="name" v="Blåbærlia" />
		<tag k="natural" v="slope" />
		<tag k="place" v="locality" />
		<tag k="ssr:stedsnr" v="396843" />
	</node>
	<node lat="58.60701666497958" lon="7.959930556093837" id="-21934">
		<tag k="name" v="Rinnane" />
		<tag k="natural" v="hill" />
		<tag k="place" v="locality" />
		<tag k="ssr:stedsnr" v="396846" />
	</node>
	<node lat="58.580302776841634" lon="7.706694441226363" id="-21937">
		<tag k="name" v="Nesdalane" />
		<tag k="natural" v="valley" />
		<tag k="place" v="locality" />
		<tag k="ssr:stedsnr" v="396991" />
	</node>
	<node lat="58.531158330836284" lon="7.8008388834227" id="-21940">
		<tag k="fixme" v="consider natural=peak for the most distinct mountains in the district" />
		<tag k="name" v="Bjoråheia" />
		<tag k="natural" v="hill" />
		<tag k="place" v="locality" />
		<tag k="ssr:stedsnr" v="485585" />
	</node>
	<node lat="58.554916666842644" lon="7.653141658723001" id="-21943">
		<tag k="alt_name" v="Rafosshei" />
		<tag k="name" v="Rafossheia" />
		<tag k="natural" v="hill" />
		<tag k="place" v="locality" />
		<tag k="ssr:stedsnr" v="485951" />
	</node>
	<node lat="58.53144444365932" lon="7.627249992758621" id="-21944">
		<tag k="alt_name" v="Svindalsheia" />
		<tag k="name" v="Svindalshei" />
		<tag k="natural" v="hill" />
		<tag k="place" v="locality" />
		<tag k="ssr:stedsnr" v="485992" />
	</node>
	<node lat="58.67778333620258" lon="7.572699996463947" id="-21946">
		<tag k="alt_name" v="Tverrfjell" />
		<tag k="fixme" v="consider natural=peak for the most distinct mountains in the district" />
		<tag k="name" v="Tverrfjellet" />
		<tag k="natural" v="hill" />
		<tag k="place" v="locality" />
		<tag k="ssr:stedsnr" v="486161" />
	</node>
	<node lat="58.67835278045807" lon="7.630983332342447" id="-21948">
		<tag k="alt_name" v="Kroskåplia" />
		<tag k="name" v="Kroskåplii" />
		<tag k="natural" v="slope" />
		<tag k="place" v="locality" />
		<tag k="ssr:stedsnr" v="486155" />
	</node>
	<node lat="58.66753888738439" lon="7.645649999890377" id="-21949">
		<tag k="name" v="Fuballane" />
		<tag k="natural" v="hill" />
		<tag k="place" v="locality" />
		<tag k="ssr:stedsnr" v="486156" />
	</node>
	<node lat="58.509663884436" lon="7.818041663972548" id="-21950">
		<tag k="fixme" v="consider natural=peak for the most distinct mountains in the district" />
		<tag k="name" v="Stifjellet" />
		<tag k="natural" v="hill" />
		<tag k="place" v="locality" />
		<tag k="ssr:stedsnr" v="486436" />
	</node>
	<node lat="58.591524995767756" lon="7.7537611116092995" id="-21954">
		<tag k="alt_name" v="Furestovhei" />
		<tag k="fixme" v="consider natural=peak for the most distinct mountains in the district" />
		<tag k="name" v="Furustovheia" />
		<tag k="natural" v="hill" />
		<tag k="place" v="locality" />
		<tag k="ssr:stedsnr" v="486715" />
	</node>
	<node lat="58.575352780087776" lon="8.060900000065669" id="-21955">
		<tag k="fixme" v="multiple name tags, choose one and add the other to alt_name; consider natural=peak for the most distinct mountains in the district" />
		<tag k="name" v="Nipe;Risåsen" />
		<tag k="natural" v="hill" />
		<tag k="place" v="locality" />
		<tag k="ssr:stedsnr" v="486662" />
	</node>
	<node lat="58.56650000156365" lon="8.010163892234647" id="-21956">
		<tag k="alt_name" v="Bjørkeholtheia;Bjørkholtheia" />
		<tag k="fixme" v="consider natural=peak for the most distinct mountains in the district" />
		<tag k="name" v="Bjørkåsheia" />
		<tag k="natural" v="hill" />
		<tag k="place" v="locality" />
		<tag k="ssr:stedsnr" v="486673" />
	</node>
	<node lat="58.57382499586821" lon="7.788800004687161" id="-21959">
		<tag k="alt_name" v="Listeinsfjell" />
		<tag k="fixme" v="consider natural=peak for the most distinct mountains in the district" />
		<tag k="name" v="Listeinsfjellet" />
		<tag k="natural" v="hill" />
		<tag k="place" v="locality" />
		<tag k="ssr:stedsnr" v="486744" />
	</node>
	<node lat="58.5815916701423" lon="8.046933324703053" id="-21963">
		<tag k="name" v="Børshaug" />
		<tag k="natural" v="hill" />
		<tag k="place" v="locality" />
		<tag k="ssr:stedsnr" v="413742" />
	</node>
	<node lat="58.619088887509854" lon="8.055688888506989" id="-21964">
		<tag k="name" v="Svoefjell" />
		<tag k="natural" v="hill" />
		<tag k="place" v="locality" />
		<tag k="ssr:stedsnr" v="413838" />
	</node>
	<node lat="58.66641667067138" lon="7.671763881853446" id="-21966">
		<tag k="fixme" v="consider natural=peak for the most distinct mountains in the district" />
		<tag k="name" v="Lauvåsheii" />
		<tag k="natural" v="hill" />
		<tag k="place" v="locality" />
		<tag k="ssr:stedsnr" v="425162" />
	</node>
	<node lat="58.660391668497695" lon="7.630619447712796" id="-21967">
		<tag k="name" v="Sydalen" />
		<tag k="natural" v="valley" />
		<tag k="place" v="locality" />
		<tag k="ssr:stedsnr" v="425164" />
	</node>
	<node lat="58.616225002410026" lon="7.854238889768415" id="-21971">
		<tag k="fixme" v="consider natural=peak for the most distinct mountains in the district" />
		<tag k="name" v="Tveitheia" />
		<tag k="natural" v="hill" />
		<tag k="place" v="locality" />
		<tag k="ssr:stedsnr" v="425510" />
	</node>
	<node lat="58.48194721874435" lon="7.5556000039839795" id="-21975">
		<tag k="name" v="Hisdalen" />
		<tag k="natural" v="valley" />
		<tag k="place" v="locality" />
		<tag k="ssr:stedsnr" v="425562" />
	</node>
	<node lat="58.594830559333815" lon="7.726386114257538" id="-21977">
		<tag k="fixme" v="consider natural=peak for the most distinct mountains in the district" />
		<tag k="name" v="Fuglemyråsen" />
		<tag k="natural" v="hill" />
		<tag k="place" v="locality" />
		<tag k="ssr:stedsnr" v="425700" />
	</node>
	<node lat="58.56650278128596" lon="7.712844440473163" id="-21978">
		<tag k="fixme" v="consider natural=peak for the most distinct mountains in the district" />
		<tag k="name" v="Sletthei" />
		<tag k="natural" v="hill" />
		<tag k="place" v="locality" />
		<tag k="ssr:stedsnr" v="425812" />
	</node>
	<node lat="58.517499997445476" lon="7.825900001419292" id="-21983">
		<tag k="fixme" v="consider natural=peak for the most distinct mountains in the district" />
		<tag k="name" v="Solåsheia" />
		<tag k="natural" v="hill" />
		<tag k="place" v="locality" />
		<tag k="ssr:stedsnr" v="426407" />
	</node>
	<node lat="58.64731110841214" lon="8.018477777851203" id="-21984">
		<tag k="fixme" v="consider natural=peak for the most distinct mountains in the district" />
		<tag k="name" v="Stavdalsknuten" />
		<tag k="natural" v="hill" />
		<tag k="place" v="locality" />
		<tag k="ssr:stedsnr" v="426480" />
	</node>
	<node lat="58.63704167062939" lon="7.917366660187708" id="-21986">
		<tag k="alt_name" v="Gullringfjell" />
		<tag k="fixme" v="consider natural=peak for the most distinct mountains in the district" />
		<tag k="name" v="Gullringfjellet" />
		<tag k="natural" v="hill" />
		<tag k="place" v="locality" />
		<tag k="ssr:stedsnr" v="426486" />
	</node>
	<node lat="58.515586110703865" lon="7.81828889739509" id="-21988">
		<tag k="name" v="Solåsdalen" />
		<tag k="natural" v="valley" />
		<tag k="place" v="locality" />
		<tag k="ssr:stedsnr" v="426379" />
	</node>
	<node lat="58.62712778116842" lon="7.988405553924173" id="-21991">
		<tag k="name" v="Taggdalen" />
		<tag k="natural" v="valley" />
		<tag k="place" v="locality" />
		<tag k="ssr:stedsnr" v="426535" />
	</node>
	<node lat="58.579327775423955" lon="7.81494167435841" id="-21992">
		<tag k="fixme" v="consider natural=peak for the most distinct mountains in the district" />
		<tag k="name" v="Steinsfjellet" />
		<tag k="natural" v="hill" />
		<tag k="place" v="locality" />
		<tag k="ssr:stedsnr" v="426738" />
	</node>
	<node lat="58.5225583289601" lon="7.527669439121062" id="-21995">
		<tag k="alt_name" v="Sollidalen" />
		<tag k="name" v="Sålidalen" />
		<tag k="natural" v="valley" />
		<tag k="place" v="locality" />
		<tag k="ssr:stedsnr" v="426996" />
	</node>
	<node lat="58.611683334400425" lon="7.7877500058928" id="-21996">
		<tag k="name" v="Nedre Røydalen" />
		<tag k="natural" v="valley" />
		<tag k="place" v="locality" />
		<tag k="ssr:stedsnr" v="456303" />
	</node>
	<node lat="58.523680552609896" lon="7.735622218908209" id="-22000">
		<tag k="name" v="Åpåldalen" />
		<tag k="natural" v="valley" />
		<tag k="place" v="locality" />
		<tag k="ssr:stedsnr" v="457116" />
	</node>
	<node lat="58.527238891886135" lon="7.815102783471487" id="-22002">
		<tag k="name" v="Reveknuttane" />
		<tag k="natural" v="hill" />
		<tag k="place" v="locality" />
		<tag k="ssr:stedsnr" v="457122" />
	</node>
	<node lat="58.52285833347865" lon="7.8318111030653075" id="-22003">
		<tag k="name" v="Hovan" />
		<tag k="natural" v="hill" />
		<tag k="place" v="locality" />
		<tag k="ssr:stedsnr" v="457127" />
	</node>
	<node lat="58.59571111192392" lon="7.743630548075501" id="-22004">
		<tag k="name" v="Hombrokdalen" />
		<tag k="natural" v="valley" />
		<tag k="place" v="locality" />
		<tag k="ssr:stedsnr" v="457144" />
	</node>
	<node lat="58.5475555578156" lon="7.745905556840937" id="-22005">
		<tag k="name" v="Smådalane" />
		<tag k="natural" v="valley" />
		<tag k="place" v="locality" />
		<tag k="ssr:stedsnr" v="457167" />
	</node>
	<node lat="58.511188885496935" lon="7.819774996371141" id="-22011">
		<tag k="fixme" v="consider natural=peak for the most distinct mountains in the district" />
		<tag k="name" v="Knapen" />
		<tag k="natural" v="hill" />
		<tag k="place" v="locality" />
		<tag k="ssr:stedsnr" v="457047" />
	</node>
	<node lat="58.67412222495233" lon="7.699330550506897" id="-22012">
		<tag k="name" v="Krokhola" />
		<tag k="natural" v="valley" />
		<tag k="place" v="locality" />
		<tag k="ssr:stedsnr" v="457060" />
	</node>
	<node lat="58.68253333253566" lon="7.718488892407944" id="-22013">
		<tag k="name" v="Svinups" />
		<tag k="natural" v="cliff" />
		<tag k="ssr:stedsnr" v="457061" />
	</node>
	<node lat="58.66166944530946" lon="7.696022220158707" id="-22014">
		<tag k="name" v="Skarhei" />
		<tag k="natural" v="hill" />
		<tag k="place" v="locality" />
		<tag k="ssr:stedsnr" v="457071" />
	</node>
	<node lat="58.66221944307672" lon="7.648950007252282" id="-22015">
		<tag k="name" v="Veheia" />
		<tag k="natural" v="hill" />
		<tag k="place" v="locality" />
		<tag k="ssr:stedsnr" v="457076" />
	</node>
	<node lat="58.6689166646272" lon="7.737599998184444" id="-22016">
		<tag k="name" v="Kvæven" />
		<tag k="natural" v="valley" />
		<tag k="place" v="locality" />
		<tag k="ssr:stedsnr" v="457261" />
	</node>
	<node lat="58.669525003872984" lon="7.791913897372707" id="-22019">
		<tag k="name" v="Kringlemoen" />
		<tag k="place" v="locality" />
		<tag k="ssr:stedsnr" v="457271" />
	</node>
	<node lat="58.57188888491109" lon="7.837805558181154" id="-22020">
		<tag k="name" v="Tømmerhommen" />
		<tag k="natural" v="hill" />
		<tag k="place" v="locality" />
		<tag k="ssr:stedsnr" v="457403" />
	</node>
	<node lat="58.57162222369056" lon="7.860058335912917" id="-22021">
		<tag k="name" v="Bakkarholtane" />
		<tag k="natural" v="hill" />
		<tag k="place" v="locality" />
		<tag k="ssr:stedsnr" v="457407" />
	</node>
	<node lat="58.549100001066556" lon="7.881063890872981" id="-22025">
		<tag k="fixme" v="consider natural=peak for the most distinct mountains in the district" />
		<tag k="name" v="Smølåsen" />
		<tag k="natural" v="hill" />
		<tag k="place" v="locality" />
		<tag k="ssr:stedsnr" v="457464" />
	</node>
	<node lat="58.5842944450947" lon="7.8572861146475" id="-22029">
		<tag k="fixme" v="consider natural=peak for the most distinct mountains in the district" />
		<tag k="name" v="Sveivefjell" />
		<tag k="natural" v="hill" />
		<tag k="place" v="locality" />
		<tag k="ssr:stedsnr" v="457360" />
	</node>
	<node lat="58.60126944158825" lon="7.8499833387693325" id="-22032">
		<tag k="name" v="Oddelia" />
		<tag k="natural" v="slope" />
		<tag k="place" v="locality" />
		<tag k="ssr:stedsnr" v="457374" />
	</node>
	<node lat="58.58921666347646" lon="7.8740861090932395" id="-22033">
		<tag k="name" v="Spasopplia" />
		<tag k="natural" v="slope" />
		<tag k="place" v="locality" />
		<tag k="ssr:stedsnr" v="457377" />
	</node>
	<node lat="58.562758331749166" lon="7.904283325527192" id="-22038">
		<tag k="name" v="Rypehei" />
		<tag k="natural" v="hill" />
		<tag k="place" v="locality" />
		<tag k="ssr:stedsnr" v="457559" />
	</node>
	<node lat="58.639811112348966" lon="7.968888881156041" id="-22039">
		<tag k="name" v="Kvæven" />
		<tag k="natural" v="valley" />
		<tag k="place" v="locality" />
		<tag k="ssr:stedsnr" v="457661" />
	</node>
	<node lat="58.594422224579446" lon="7.992408340935063" id="-22040">
		<tag k="name" v="Langeliane" />
		<tag k="natural" v="slope" />
		<tag k="place" v="locality" />
		<tag k="ssr:stedsnr" v="457664" />
	</node>
	<node lat="58.63454722102279" lon="7.549450007501662" id="-22041">
		<tag k="name" v="Bjørndalen" />
		<tag k="natural" v="valley" />
		<tag k="place" v="locality" />
		<tag k="ssr:stedsnr" v="457668" />
	</node>
	<node lat="58.481280553776195" lon="7.703522221978561" id="-22042">
		<tag k="name" v="Branden" />
		<tag k="natural" v="slope" />
		<tag k="place" v="locality" />
		<tag k="ssr:stedsnr" v="457811" />
	</node>
	<node lat="58.579772220426484" lon="7.751983338217779" id="-22043">
		<tag k="name" v="Tykkeli" />
		<tag k="natural" v="slope" />
		<tag k="place" v="locality" />
		<tag k="ssr:stedsnr" v="457813" />
	</node>
	<node lat="58.477277775451824" lon="7.715374997184179" id="-22046">
		<tag k="name" v="Sandtjønnskaren" />
		<tag k="natural" v="slope" />
		<tag k="place" v="locality" />
		<tag k="ssr:stedsnr" v="457836" />
	</node>
	<node lat="58.48209444646876" lon="7.596100004559842" id="-22050">
		<tag k="name" v="Svorteberg" />
		<tag k="natural" v="hill" />
		<tag k="place" v="locality" />
		<tag k="ssr:stedsnr" v="457702" />
	</node>
	<node lat="58.52757777788447" lon="7.557355563794218" id="-22052">
		<tag k="name" v="Stuthomdalen" />
		<tag k="natural" v="valley" />
		<tag k="place" v="locality" />
		<tag k="ssr:stedsnr" v="457711" />
	</node>
	<node lat="58.53743610940064" lon="7.542527769919302" id="-22053">
		<tag k="name" v="Furebakken" />
		<tag k="natural" v="slope" />
		<tag k="place" v="locality" />
		<tag k="ssr:stedsnr" v="457718" />
	</node>
	<node lat="58.471530554412915" lon="7.670491671046961" id="-22054">
		<tag k="name" v="Tellaugsknutten" />
		<tag k="natural" v="hill" />
		<tag k="place" v="locality" />
		<tag k="ssr:stedsnr" v="457765" />
	</node>
	<node lat="58.46250000444829" lon="7.641563895982408" id="-22055">
		<tag k="name" v="Ydsteli" />
		<tag k="natural" v="slope" />
		<tag k="place" v="locality" />
		<tag k="ssr:stedsnr" v="457766" />
	</node>
	<node lat="58.45243611434999" lon="7.6753055580441725" id="-22057">
		<tag k="name" v="Tvørrtjønndalen" />
		<tag k="natural" v="valley" />
		<tag k="place" v="locality" />
		<tag k="ssr:stedsnr" v="457777" />
	</node>
	<node lat="58.54883611109449" lon="7.610594436435361" id="-22058">
		<tag k="name" v="Moihellerdalen" />
		<tag k="natural" v="valley" />
		<tag k="place" v="locality" />
		<tag k="ssr:stedsnr" v="457779" />
	</node>
	<node lat="58.54715555908991" lon="7.683824994193362" id="-22060">
		<tag k="name" v="Tvørrdalen" />
		<tag k="natural" v="valley" />
		<tag k="place" v="locality" />
		<tag k="ssr:stedsnr" v="457924" />
	</node>
	<node lat="58.58714722120781" lon="8.085375002173256" id="-22062">
		<tag k="name" v="Brota" />
		<tag k="natural" v="slope" />
		<tag k="place" v="locality" />
		<tag k="ssr:stedsnr" v="474408" />
	</node>
	<node lat="58.62681389011834" lon="7.551019445329849" id="-22065">
		<tag k="alt_name" v="Tvørrfjellet" />
		<tag k="fixme" v="consider natural=peak for the most distinct mountains in the district" />
		<tag k="name" v="Tverrfjellet" />
		<tag k="natural" v="hill" />
		<tag k="place" v="locality" />
		<tag k="ssr:stedsnr" v="485111" />
	</node>
	<node lat="58.64629166431726" lon="7.560791671244127" id="-22066">
		<tag k="alt_name" v="Bergehei, nordre" />
		<tag k="name" v="Nordre Bergehei" />
		<tag k="natural" v="hill" />
		<tag k="place" v="locality" />
		<tag k="ssr:stedsnr" v="485122" />
	</node>
	<node lat="58.658025001399515" lon="7.639536119571962" id="-22067">
		<tag k="alt_name" v="Såtelia" />
		<tag k="name" v="Såtelii" />
		<tag k="natural" v="slope" />
		<tag k="place" v="locality" />
		<tag k="ssr:stedsnr" v="485130" />
	</node>
	<node lat="58.68902500164903" lon="7.646525007093745" id="-22075">
		<tag k="alt_name" v="Sauelia" />
		<tag k="name" v="Sauelii" />
		<tag k="natural" v="slope" />
		<tag k="place" v="locality" />
		<tag k="ssr:stedsnr" v="486208" />
	</node>
	<node lat="58.71363889115115" lon="7.641755547303836" id="-22076">
		<tag k="fixme" v="consider natural=peak for the most distinct mountains in the district" />
		<tag k="name" v="Austebekkheii" />
		<tag k="natural" v="hill" />
		<tag k="place" v="locality" />
		<tag k="ssr:stedsnr" v="486221" />
	</node>
	<node lat="58.715852777212994" lon="7.664633332910412" id="-22077">
		<tag k="name" v="Krolia" />
		<tag k="natural" v="slope" />
		<tag k="place" v="locality" />
		<tag k="ssr:stedsnr" v="486242" />
	</node>
	<node lat="58.696002780949065" lon="7.683030560306932" id="-22078">
		<tag k="name" v="Smådalan" />
		<tag k="natural" v="valley" />
		<tag k="place" v="locality" />
		<tag k="ssr:stedsnr" v="486195" />
	</node>
	<node lat="58.6588472261742" lon="8.014719449535766" id="-22080">
		<tag k="name" v="Stavdalen" />
		<tag k="natural" v="valley" />
		<tag k="place" v="locality" />
		<tag k="ssr:stedsnr" v="486536" />
	</node>
	<node lat="58.54123055972031" lon="7.84197777178938" id="-22081">
		<tag k="name" v="Brattekleiv" />
		<tag k="natural" v="slope" />
		<tag k="place" v="locality" />
		<tag k="ssr:stedsnr" v="486702" />
	</node>
	<node lat="58.667477776878435" lon="7.645152781056521" id="-22087">
		<tag k="name" v="Nautevaknuttane" />
		<tag k="natural" v="hill" />
		<tag k="place" v="locality" />
		<tag k="ssr:stedsnr" v="517070" />
	</node>
	<node lat="58.64610833489176" lon="7.635602770544221" id="-22088">
		<tag k="name" v="Lindknollen" />
		<tag k="natural" v="hill" />
		<tag k="place" v="locality" />
		<tag k="ssr:stedsnr" v="517079" />
	</node>
	<node lat="58.62972777456943" lon="7.616594453105817" id="-22090">
		<tag k="name" v="Hesteskoren" />
		<tag k="natural" v="valley" />
		<tag k="place" v="locality" />
		<tag k="ssr:stedsnr" v="516967" />
	</node>
	<node lat="58.53035000238258" lon="7.732419451393675" id="-22091">
		<tag k="name" v="Biskopdalen" />
		<tag k="natural" v="valley" />
		<tag k="place" v="locality" />
		<tag k="ssr:stedsnr" v="517115" />
	</node>
	<node lat="58.55932499780943" lon="7.732077770590462" id="-22092">
		<tag k="name" v="Bjørnefjellkroken" />
		<tag k="natural" v="valley" />
		<tag k="place" v="locality" />
		<tag k="ssr:stedsnr" v="517180" />
	</node>
	<node lat="58.59858055230668" lon="7.894002770311699" id="-22096">
		<tag k="name" v="Kongvaheia" />
		<tag k="natural" v="hill" />
		<tag k="place" v="locality" />
		<tag k="ssr:stedsnr" v="517410" />
	</node>
	<node lat="58.58859722536973" lon="7.932047228533015" id="-22097">
		<tag k="fixme" v="consider natural=peak for the most distinct mountains in the district" />
		<tag k="name" v="Vreistelifjellet" />
		<tag k="natural" v="hill" />
		<tag k="place" v="locality" />
		<tag k="ssr:stedsnr" v="517424" />
	</node>
	<node lat="58.61522499694587" lon="7.9234611040226355" id="-22105">
		<tag k="name" v="Nonåsdalen" />
		<tag k="natural" v="valley" />
		<tag k="place" v="locality" />
		<tag k="ssr:stedsnr" v="517536" />
	</node>
	<node lat="58.645836108260966" lon="7.869855561081786" id="-22107">
		<tag k="fixme" v="consider natural=peak for the most distinct mountains in the district" />
		<tag k="name" v="Kageråsen" />
		<tag k="natural" v="hill" />
		<tag k="place" v="locality" />
		<tag k="ssr:stedsnr" v="517574" />
	</node>
	<node lat="58.62863611172303" lon="7.866750002928417" id="-22108">
		<tag k="name" v="Ospedalen" />
		<tag k="natural" v="valley" />
		<tag k="place" v="locality" />
		<tag k="ssr:stedsnr" v="517579" />
	</node>
	<node lat="58.598922220732234" lon="7.957336102754301" id="-22109">
		<tag k="name" v="Kvitsandlia" />
		<tag k="natural" v="slope" />
		<tag k="place" v="locality" />
		<tag k="ssr:stedsnr" v="517704" />
	</node>
	<node lat="58.57668611082061" lon="7.949913887156266" id="-22110">
		<tag k="name" v="Hestebakken" />
		<tag k="natural" v="hill" />
		<tag k="place" v="locality" />
		<tag k="ssr:stedsnr" v="517712" />
	</node>
	<node lat="58.58468332922287" lon="8.014230556338832" id="-22111">
		<tag k="name" v="Varden" />
		<tag k="natural" v="hill" />
		<tag k="place" v="locality" />
		<tag k="ssr:stedsnr" v="517715" />
	</node>
	<node lat="58.47978055116333" lon="7.672799993661521" id="-22113">
		<tag k="name" v="Leiteskaret" />
		<tag k="natural" v="valley" />
		<tag k="place" v="locality" />
		<tag k="ssr:stedsnr" v="517810" />
	</node>
	<node lat="58.687219442060254" lon="7.62965277306305" id="-22116">
		<tag k="name" v="Samlogheia" />
		<tag k="natural" v="hill" />
		<tag k="place" v="locality" />
		<tag k="ssr:stedsnr" v="517805" />
	</node>
	<node lat="58.562994440088545" lon="7.729672227974142" id="-22117">
		<tag k="name" v="Søtebærli" />
		<tag k="natural" v="slope" />
		<tag k="place" v="locality" />
		<tag k="ssr:stedsnr" v="517820" />
	</node>
	<node lat="58.56543888966319" lon="7.757802784665001" id="-22118">
		<tag k="name" v="Timberdalsmonen" />
		<tag k="place" v="locality" />
		<tag k="ssr:stedsnr" v="517831" />
	</node>
	<node lat="58.57763888468992" lon="7.741833326488017" id="-22119">
		<tag k="name" v="Vadderen" />
		<tag k="natural" v="hill" />
		<tag k="place" v="locality" />
		<tag k="ssr:stedsnr" v="517834" />
	</node>
	<node lat="58.56063888665238" lon="7.765122219848209" id="-22121">
		<tag k="name" v="Farmonen" />
		<tag k="place" v="locality" />
		<tag k="ssr:stedsnr" v="517846" />
	</node>
	<node lat="58.68739166432174" lon="7.715808330198147" id="-22124">
		<tag k="name" v="Skorva" />
		<tag k="natural" v="hill" />
		<tag k="place" v="locality" />
		<tag k="ssr:stedsnr" v="518076" />
	</node>
	<node lat="58.64278889178155" lon="7.769694436665116" id="-22127">
		<tag k="fixme" v="consider natural=peak for the most distinct mountains in the district" />
		<tag k="name" v="Hovåsen" />
		<tag k="natural" v="hill" />
		<tag k="place" v="locality" />
		<tag k="ssr:stedsnr" v="518322" />
	</node>
	<node lat="58.517127781149206" lon="7.733455552380534" id="-22128">
		<tag k="name" v="Heimre Bjørnefellkrok" />
		<tag k="natural" v="valley" />
		<tag k="place" v="locality" />
		<tag k="ssr:stedsnr" v="518339" />
	</node>
	<node lat="58.62672499665123" lon="7.785452774881382" id="-22130">
		<tag k="name" v="Balsmoen" />
		<tag k="place" v="locality" />
		<tag k="ssr:stedsnr" v="518361" />
	</node>
	<node lat="58.634761115582975" lon="7.755661108131283" id="-22131">
		<tag k="name" v="Haukereirknuttane" />
		<tag k="natural" v="hill" />
		<tag k="place" v="locality" />
		<tag k="ssr:stedsnr" v="518375" />
	</node>
	<node lat="58.61992777427621" lon="7.825016658528132" id="-22132">
		<tag k="name" v="Bjørnefjelldalen" />
		<tag k="natural" v="valley" />
		<tag k="place" v="locality" />
		<tag k="ssr:stedsnr" v="518260" />
	</node>
	<node lat="58.49778888657025" lon="7.581677776900553" id="-22135">
		<tag k="name" v="Bjørndalsheia" />
		<tag k="natural" v="hill" />
		<tag k="place" v="locality" />
		<tag k="ssr:stedsnr" v="518612" />
	</node>
	<node lat="58.53885278111881" lon="7.540052770666429" id="-22139">
		<tag k="name" v="Lislevassdalen" />
		<tag k="natural" v="valley" />
		<tag k="place" v="locality" />
		<tag k="ssr:stedsnr" v="518727" />
	</node>
	<node lat="58.51321110928986" lon="7.696436107731426" id="-22141">
		<tag k="name" v="Skaren" />
		<tag k="natural" v="hill" />
		<tag k="place" v="locality" />
		<tag k="ssr:stedsnr" v="518745" />
	</node>
	<node lat="58.48631388633945" lon="7.702488890532746" id="-22148">
		<tag k="fixme" v="consider natural=peak for the most distinct mountains in the district" />
		<tag k="name" v="Stordalsfjell" />
		<tag k="natural" v="hill" />
		<tag k="place" v="locality" />
		<tag k="ssr:stedsnr" v="518815" />
	</node>
	<node lat="58.58215278113845" lon="7.7199694513521475" id="-22150">
		<tag k="name" v="Bjørndalen" />
		<tag k="natural" v="valley" />
		<tag k="place" v="locality" />
		<tag k="ssr:stedsnr" v="518865" />
	</node>
	<node lat="58.52624722429435" lon="7.7135749972839065" id="-22151">
		<tag k="fixme" v="consider natural=peak for the most distinct mountains in the district" />
		<tag k="name" v="Meråsen" />
		<tag k="natural" v="hill" />
		<tag k="place" v="locality" />
		<tag k="ssr:stedsnr" v="518902" />
	</node>
	<node lat="58.615361107738515" lon="8.011249996401348" id="-22157">
		<tag k="alt_name" v="Store Hovassdal" />
		<tag k="name" v="Storhovvassdalen" />
		<tag k="natural" v="valley" />
		<tag k="place" v="locality" />
		<tag k="ssr:stedsnr" v="546497" />
	</node>
	<node lat="58.52739444197876" lon="7.853600008645085" id="-22158">
		<tag k="fixme" v="consider natural=peak for the most distinct mountains in the district" />
		<tag k="name" v="Vardeheia" />
		<tag k="natural" v="hill" />
		<tag k="place" v="locality" />
		<tag k="ssr:stedsnr" v="546626" />
	</node>
	<node lat="58.518669447293966" lon="7.62279444195381" id="-22161">
		<tag k="alt_name" v="Stålevassliane" />
		<tag k="name" v="Stålevasslian" />
		<tag k="natural" v="slope" />
		<tag k="place" v="locality" />
		<tag k="ssr:stedsnr" v="546867" />
	</node>
	<node lat="58.469069441184345" lon="7.697727777830415" id="-22164">
		<tag k="alt_name" v="Ydstelihei" />
		<tag k="name" v="Ysteliheii" />
		<tag k="natural" v="hill" />
		<tag k="place" v="locality" />
		<tag k="ssr:stedsnr" v="546904" />
	</node>
	<node lat="58.616011114316535" lon="7.910708340129087" id="-22169">
		<tag k="alt_name" v="Karpusfjell" />
		<tag k="fixme" v="consider natural=peak for the most distinct mountains in the district" />
		<tag k="name" v="Trombogheia" />
		<tag k="natural" v="hill" />
		<tag k="place" v="locality" />
		<tag k="ssr:stedsnr" v="547579" />
	</node>
	<node lat="58.501233337371694" lon="7.761402776388222" id="-22174">
		<tag k="name" v="Stakkegardsknotten" />
		<tag k="natural" v="hill" />
		<tag k="place" v="locality" />
		<tag k="ssr:stedsnr" v="578018" />
	</node>
	<node lat="58.5421777753293" lon="7.767788895388307" id="-22177">
		<tag k="name" v="Bertesbakken" />
		<tag k="natural" v="slope" />
		<tag k="place" v="locality" />
		<tag k="ssr:stedsnr" v="578210" />
	</node>
	<node lat="58.47254166776056" lon="7.743749994360905" id="-22180">
		<tag k="fixme" v="consider natural=peak for the most distinct mountains in the district" />
		<tag k="name" v="Eikåsen" />
		<tag k="natural" v="hill" />
		<tag k="place" v="locality" />
		<tag k="ssr:stedsnr" v="578109" />
	</node>
	<node lat="58.527427776880785" lon="7.741452777630579" id="-22181">
		<tag k="name" v="Basteliknotten" />
		<tag k="natural" v="hill" />
		<tag k="place" v="locality" />
		<tag k="ssr:stedsnr" v="578115" />
	</node>
	<node lat="58.52771666694279" lon="7.7373499974586535" id="-22182">
		<tag k="name" v="Ytre Basteli" />
		<tag k="natural" v="slope" />
		<tag k="place" v="locality" />
		<tag k="ssr:stedsnr" v="578117" />
	</node>
	<node lat="58.58577777411187" lon="7.7505555557835" id="-22183">
		<tag k="name" v="Klevestøknutten" />
		<tag k="natural" v="hill" />
		<tag k="place" v="locality" />
		<tag k="ssr:stedsnr" v="578147" />
	</node>
	<node lat="58.6396638845095" lon="7.919855552520757" id="-22188">
		<tag k="fixme" v="consider natural=peak for the most distinct mountains in the district" />
		<tag k="name" v="Seteknuten" />
		<tag k="natural" v="hill" />
		<tag k="place" v="locality" />
		<tag k="ssr:stedsnr" v="578506" />
	</node>
	<node lat="58.619163890614814" lon="7.885455557076218" id="-22190">
		<tag k="name" v="Haukelibakken" />
		<tag k="natural" v="hill" />
		<tag k="place" v="locality" />
		<tag k="ssr:stedsnr" v="578513" />
	</node>
	<node lat="58.61714722564304" lon="7.860572219198279" id="-22191">
		<tag k="name" v="Klevdalen" />
		<tag k="natural" v="valley" />
		<tag k="place" v="locality" />
		<tag k="ssr:stedsnr" v="578524" />
	</node>
	<node lat="58.66400555253635" lon="7.797180547963185" id="-22195">
		<tag k="name" v="Gullsmedmoen" />
		<tag k="place" v="locality" />
		<tag k="ssr:stedsnr" v="578411" />
	</node>
	<node lat="58.554961109266955" lon="7.898416668258406" id="-22199">
		<tag k="name" v="Holmane" />
		<tag k="natural" v="hill" />
		<tag k="place" v="locality" />
		<tag k="ssr:stedsnr" v="578433" />
	</node>
	<node lat="58.549902776427956" lon="7.862652770278247" id="-22200">
		<tag k="name" v="Skarkedalen" />
		<tag k="natural" v="valley" />
		<tag k="place" v="locality" />
		<tag k="ssr:stedsnr" v="578453" />
	</node>
	<node lat="58.64011666686455" lon="7.907036115494545" id="-22201">
		<tag k="name" v="Simtebudalen" />
		<tag k="natural" v="valley" />
		<tag k="place" v="locality" />
		<tag k="ssr:stedsnr" v="578497" />
	</node>
	<node lat="58.548972225225626" lon="7.857949997965138" id="-22202">
		<tag k="fixme" v="consider natural=peak for the most distinct mountains in the district" />
		<tag k="name" v="Bueknutten" />
		<tag k="natural" v="hill" />
		<tag k="place" v="locality" />
		<tag k="ssr:stedsnr" v="578454" />
	</node>
	<node lat="58.64710277914223" lon="7.907025006692405" id="-22204">
		<tag k="name" v="Svineklomra" />
		<tag k="natural" v="valley" />
		<tag k="place" v="locality" />
		<tag k="ssr:stedsnr" v="578711" />
	</node>
	<node lat="58.630236114726344" lon="7.780041662235848" id="-22205">
		<tag k="name" v="Hagedalen" />
		<tag k="natural" v="valley" />
		<tag k="place" v="locality" />
		<tag k="ssr:stedsnr" v="578745" />
	</node>
	<node lat="58.53705278101161" lon="7.623111108940827" id="-22209">
		<tag k="name" v="Høgehei" />
		<tag k="natural" v="hill" />
		<tag k="place" v="locality" />
		<tag k="ssr:stedsnr" v="578904" />
	</node>
	<node lat="58.609436113607345" lon="7.670072225318076" id="-22211">
		<tag k="name" v="Hommen" />
		<tag k="place" v="locality" />
		<tag k="ssr:stedsnr" v="578932" />
	</node>
	<node lat="58.65857777950173" lon="7.952616666736162" id="-22217">
		<tag k="name" v="Koltran" />
		<tag k="natural" v="hill" />
		<tag k="place" v="locality" />
		<tag k="ssr:stedsnr" v="578804" />
	</node>
	<node lat="58.662544447767885" lon="7.984666668754577" id="-22220">
		<tag k="name" v="Fisbuheia" />
		<tag k="natural" v="hill" />
		<tag k="place" v="locality" />
		<tag k="ssr:stedsnr" v="578814" />
	</node>
	<node lat="58.61129166884178" lon="8.017158333647354" id="-22221">
		<tag k="name" v="Fleskomheia" />
		<tag k="natural" v="hill" />
		<tag k="place" v="locality" />
		<tag k="ssr:stedsnr" v="578824" />
	</node>
	<node lat="58.47934722174181" lon="7.636011114764085" id="-22223">
		<tag k="name" v="Svartups" />
		<tag k="natural" v="cliff" />
		<tag k="ssr:stedsnr" v="578840" />
	</node>
	<node lat="58.56814166739506" lon="8.056411102858508" id="-22229">
		<tag k="name" v="Tverrdalen" />
		<tag k="natural" v="valley" />
		<tag k="place" v="locality" />
		<tag k="ssr:stedsnr" v="595059" />
	</node>
	<node lat="58.574733329959145" lon="8.039677783916803" id="-22230">
		<tag k="name" v="Nonfjelldalen" />
		<tag k="natural" v="valley" />
		<tag k="place" v="locality" />
		<tag k="ssr:stedsnr" v="595702" />
	</node>
	<node lat="58.49984999983735" lon="7.764661108414589" id="-22232">
		<tag k="name" v="Eplebakken" />
		<tag k="natural" v="slope" />
		<tag k="place" v="locality" />
		<tag k="ssr:stedsnr" v="699023" />
	</node>
	<node lat="58.4914722182852" lon="7.759602780668627" id="-22237">
		<tag k="name" v="Steinkjelldalen" />
		<tag k="natural" v="valley" />
		<tag k="place" v="locality" />
		<tag k="ssr:stedsnr" v="699044" />
	</node>
	<node lat="58.54963888478274" lon="7.823241666290968" id="-22239">
		<tag k="name" v="Nordhei" />
		<tag k="natural" v="hill" />
		<tag k="place" v="locality" />
		<tag k="ssr:stedsnr" v="699189" />
	</node>
	<node lat="58.542341670879495" lon="7.790180553239456" id="-22240">
		<tag k="name" v="Hestvågheia" />
		<tag k="natural" v="hill" />
		<tag k="place" v="locality" />
		<tag k="ssr:stedsnr" v="699194" />
	</node>
	<node lat="58.59001110866366" lon="7.917938889088858" id="-22244">
		<tag k="fixme" v="consider natural=peak for the most distinct mountains in the district" />
		<tag k="name" v="Stemtjønnåsen" />
		<tag k="natural" v="hill" />
		<tag k="place" v="locality" />
		<tag k="ssr:stedsnr" v="699412" />
	</node>
	<node lat="58.60181111352664" lon="7.912755552914425" id="-22246">
		<tag k="name" v="Knuteli" />
		<tag k="natural" v="slope" />
		<tag k="place" v="locality" />
		<tag k="ssr:stedsnr" v="699357" />
	</node>
	<node lat="58.58722499627656" lon="7.854983330273808" id="-22247">
		<tag k="name" v="Smænelia" />
		<tag k="natural" v="slope" />
		<tag k="place" v="locality" />
		<tag k="ssr:stedsnr" v="699359" />
	</node>
	<node lat="58.58501666480051" lon="7.895525002121621" id="-22248">
		<tag k="name" v="Rusåsdalen" />
		<tag k="natural" v="slope" />
		<tag k="place" v="locality" />
		<tag k="ssr:stedsnr" v="699390" />
	</node>
	<node lat="58.62298610760627" lon="7.835344436246914" id="-22250">
		<tag k="name" v="Skorskarane" />
		<tag k="natural" v="slope" />
		<tag k="place" v="locality" />
		<tag k="ssr:stedsnr" v="699529" />
	</node>
	<node lat="58.63743610914043" lon="7.839752778155879" id="-22252">
		<tag k="name" v="Kråkedalen" />
		<tag k="natural" v="valley" />
		<tag k="place" v="locality" />
		<tag k="ssr:stedsnr" v="699557" />
	</node>
	<node lat="58.63534722042038" lon="7.846047230457373" id="-22253">
		<tag k="name" v="Langedalen" />
		<tag k="natural" v="valley" />
		<tag k="place" v="locality" />
		<tag k="ssr:stedsnr" v="699558" />
	</node>
	<node lat="58.62200555611961" lon="7.955169450821921" id="-22256">
		<tag k="name" v="Indre Stemtjønndal" />
		<tag k="natural" v="valley" />
		<tag k="place" v="locality" />
		<tag k="ssr:stedsnr" v="699624" />
	</node>
	<node lat="58.62310555229189" lon="7.9628555611325975" id="-22257">
		<tag k="fixme" v="consider natural=peak for the most distinct mountains in the district" />
		<tag k="name" v="Lisle Bjørnås" />
		<tag k="natural" v="hill" />
		<tag k="place" v="locality" />
		<tag k="ssr:stedsnr" v="699626" />
	</node>
	<node lat="58.607397224659415" lon="7.904325004114255" id="-22261">
		<tag k="name" v="Grønefjelldalen" />
		<tag k="natural" v="valley" />
		<tag k="place" v="locality" />
		<tag k="ssr:stedsnr" v="699697" />
	</node>
	<node lat="58.62157499814507" lon="7.981508329029468" id="-22264">
		<tag k="name" v="Heggholtane" />
		<tag k="natural" v="slope" />
		<tag k="place" v="locality" />
		<tag k="ssr:stedsnr" v="699609" />
	</node>
	<node lat="58.62233055755717" lon="7.9682666676991145" id="-22265">
		<tag k="fixme" v="consider natural=peak for the most distinct mountains in the district" />
		<tag k="name" v="Åmdalsfjell" />
		<tag k="natural" v="hill" />
		<tag k="place" v="locality" />
		<tag k="ssr:stedsnr" v="699632" />
	</node>
	<node lat="58.67055277633829" lon="7.9485027827575365" id="-22271">
		<tag k="name" v="Grasdalen" />
		<tag k="natural" v="valley" />
		<tag k="place" v="locality" />
		<tag k="ssr:stedsnr" v="699835" />
	</node>
	<node lat="58.603977776966005" lon="7.953869452294271" id="-22272">
		<tag k="name" v="Hagane" />
		<tag k="natural" v="slope" />
		<tag k="place" v="locality" />
		<tag k="ssr:stedsnr" v="699845" />
	</node>
	<node lat="58.61152499671488" lon="7.968299995524765" id="-22274">
		<tag k="fixme" v="consider natural=peak for the most distinct mountains in the district" />
		<tag k="name" v="Den freda åsen" />
		<tag k="natural" v="hill" />
		<tag k="place" v="locality" />
		<tag k="ssr:stedsnr" v="699865" />
	</node>
	<node lat="58.56421388629518" lon="7.7394194398758" id="-22276">
		<tag k="name" v="Heptedalen" />
		<tag k="natural" v="valley" />
		<tag k="place" v="locality" />
		<tag k="ssr:stedsnr" v="699790" />
	</node>
	<node lat="58.54242777649838" lon="7.5629361190862525" id="-22280">
		<tag k="fixme" v="consider natural=peak for the most distinct mountains in the district" />
		<tag k="name" v="Hornnesheia" />
		<tag k="natural" v="hill" />
		<tag k="place" v="locality" />
		<tag k="ssr:stedsnr" v="606956" />
	</node>
	<node lat="58.58481944493243" lon="7.905580561230788" id="-22287">
		<tag k="fixme" v="consider natural=peak for the most distinct mountains in the district" />
		<tag k="name" v="Undelandsheia" />
		<tag k="natural" v="hill" />
		<tag k="place" v="locality" />
		<tag k="ssr:stedsnr" v="607754" />
	</node>
	<node lat="58.58155277779378" lon="7.9185638906315825" id="-22288">
		<tag k="fixme" v="consider natural=peak for the most distinct mountains in the district" />
		<tag k="name" v="Vardeheia" />
		<tag k="natural" v="hill" />
		<tag k="place" v="locality" />
		<tag k="ssr:stedsnr" v="607756" />
	</node>
	<node lat="58.59680833272286" lon="7.741272225241561" id="-22291">
		<tag k="name" v="Hestebakkane" />
		<tag k="natural" v="slope" />
		<tag k="place" v="locality" />
		<tag k="ssr:stedsnr" v="700191" />
	</node>
	<node lat="58.54504999991941" lon="7.775752775026961" id="-22292">
		<tag k="fixme" v="consider natural=peak for the most distinct mountains in the district" />
		<tag k="name" v="Nedberg" />
		<tag k="natural" v="hill" />
		<tag k="place" v="locality" />
		<tag k="ssr:stedsnr" v="700234" />
	</node>
	<node lat="58.538680557736235" lon="7.744697230472346" id="-22294">
		<tag k="fixme" v="consider natural=peak for the most distinct mountains in the district" />
		<tag k="name" v="Knappåsen" />
		<tag k="natural" v="hill" />
		<tag k="place" v="locality" />
		<tag k="ssr:stedsnr" v="700241" />
	</node>
	<node lat="58.53385833683748" lon="7.7351444494856665" id="-22296">
		<tag k="name" v="Grassli" />
		<tag k="natural" v="slope" />
		<tag k="place" v="locality" />
		<tag k="ssr:stedsnr" v="700259" />
	</node>
	<node lat="58.61067222636755" lon="7.749052786195488" id="-22299">
		<tag k="name" v="Grasdalen" />
		<tag k="natural" v="valley" />
		<tag k="place" v="locality" />
		<tag k="ssr:stedsnr" v="700285" />
	</node>
	<node lat="58.596194441295175" lon="7.799941662792668" id="-22300">
		<tag k="name" v="Husebakken" />
		<tag k="natural" v="slope" />
		<tag k="place" v="locality" />
		<tag k="ssr:stedsnr" v="700360" />
	</node>
	<node lat="58.64481666271854" lon="7.808952778189294" id="-22302">
		<tag k="name" v="Standarmoen" />
		<tag k="place" v="locality" />
		<tag k="ssr:stedsnr" v="700384" />
	</node>
	<node lat="58.635325004334454" lon="7.7370138853359816" id="-22304">
		<tag k="name" v="Bjørnsdalen" />
		<tag k="natural" v="valley" />
		<tag k="place" v="locality" />
		<tag k="ssr:stedsnr" v="700393" />
	</node>
	<node lat="58.61209721854905" lon="7.933080557496369" id="-22305">
		<tag k="name" v="Løpsedalen" />
		<tag k="natural" v="valley" />
		<tag k="place" v="locality" />
		<tag k="ssr:stedsnr" v="700547" />
	</node>
	<node lat="58.46143333700615" lon="7.598574991422548" id="-22307">
		<tag k="name" v="Fuglesætet" />
		<tag k="natural" v="hill" />
		<tag k="place" v="locality" />
		<tag k="ssr:stedsnr" v="700681" />
	</node>
	<node lat="58.48949444695243" lon="7.602733326472962" id="-22308">
		<tag k="fixme" v="consider natural=peak for the most distinct mountains in the district" />
		<tag k="name" v="Vasslandsfjellet" />
		<tag k="natural" v="hill" />
		<tag k="place" v="locality" />
		<tag k="ssr:stedsnr" v="700653" />
	</node>
	<node lat="58.59711111296402" lon="7.970486117571549" id="-22311">
		<tag k="name" v="Groveknatten" />
		<tag k="natural" v="hill" />
		<tag k="place" v="locality" />
		<tag k="ssr:stedsnr" v="700692" />
	</node>
	<node lat="58.500663892312325" lon="7.6792333250610225" id="-22316">
		<tag k="name" v="Fjælestadvarden" />
		<tag k="natural" v="hill" />
		<tag k="place" v="locality" />
		<tag k="ssr:stedsnr" v="700749" />
	</node>
	<node lat="58.513938888441515" lon="7.710416672571919" id="-22318">
		<tag k="name" v="Huarknatten" />
		<tag k="natural" v="ridge" />
		<tag k="place" v="locality" />
		<tag k="ssr:stedsnr" v="700758" />
	</node>
	<node lat="58.491727780627336" lon="7.6979083305676355" id="-22320">
		<tag k="name" v="Gråhommer" />
		<tag k="natural" v="hill" />
		<tag k="place" v="locality" />
		<tag k="ssr:stedsnr" v="700845" />
	</node>
	<node lat="58.58850000431649" lon="7.674527777827477" id="-22322">
		<tag k="fixme" v="consider natural=peak for the most distinct mountains in the district" />
		<tag k="name" v="Godtholsknuten" />
		<tag k="natural" v="hill" />
		<tag k="place" v="locality" />
		<tag k="ssr:stedsnr" v="700892" />
	</node>
	<node lat="58.54055833563357" lon="7.691036112782835" id="-22325">
		<tag k="name" v="Slettebakkane" />
		<tag k="natural" v="slope" />
		<tag k="place" v="locality" />
		<tag k="ssr:stedsnr" v="700933" />
	</node>
	<node lat="58.58995277766909" lon="7.628522221057578" id="-22327">
		<tag k="name" v="Olav Nilsens li" />
		<tag k="natural" v="slope" />
		<tag k="place" v="locality" />
		<tag k="ssr:stedsnr" v="700902" />
	</node>
	<node lat="58.612844444411415" lon="7.814841673448832" id="-22330">
		<tag k="fixme" v="consider natural=peak for the most distinct mountains in the district" />
		<tag k="name" v="Brannfjella" />
		<tag k="natural" v="hill" />
		<tag k="place" v="locality" />
		<tag k="ssr:stedsnr" v="637277" />
	</node>
	<node lat="58.463033334989035" lon="7.779622219962923" id="-22331">
		<tag k="name" v="Bjelkeberget" />
		<tag k="natural" v="hill" />
		<tag k="place" v="locality" />
		<tag k="ssr:stedsnr" v="638010" />
	</node>
	<node lat="58.628475003973854" lon="7.621761109374308" id="-22333">
		<tag k="name" v="Skaret" />
		<tag k="natural" v="valley" />
		<tag k="place" v="locality" />
		<tag k="ssr:stedsnr" v="637976" />
	</node>
	<node lat="58.6911416689677" lon="7.717086105779352" id="-22334">
		<tag k="name" v="Måvassbroti" />
		<tag k="natural" v="hill" />
		<tag k="place" v="locality" />
		<tag k="ssr:stedsnr" v="638105" />
	</node>
	<node lat="58.651247219889704" lon="7.634313889619026" id="-22335">
		<tag k="name" v="Skotet" />
		<tag k="natural" v="slope" />
		<tag k="place" v="locality" />
		<tag k="ssr:stedsnr" v="638077" />
	</node>
	<node lat="58.65905277427732" lon="7.6494055623323876" id="-22336">
		<tag k="name" v="Velia" />
		<tag k="natural" v="slope" />
		<tag k="place" v="locality" />
		<tag k="ssr:stedsnr" v="638081" />
	</node>
	<node lat="58.55608055924986" lon="7.872797223426391" id="-22337">
		<tag k="name" v="Skarkedalen" />
		<tag k="natural" v="valley" />
		<tag k="place" v="locality" />
		<tag k="ssr:stedsnr" v="638404" />
	</node>
	<node lat="58.58264444637565" lon="7.906999999285883" id="-22343">
		<tag k="name" v="Laurdagslia" />
		<tag k="natural" v="slope" />
		<tag k="place" v="locality" />
		<tag k="ssr:stedsnr" v="638375" />
	</node>
	<node lat="58.60757222402323" lon="7.931997221223756" id="-22344">
		<tag k="name" v="Linddalen" />
		<tag k="natural" v="valley" />
		<tag k="place" v="locality" />
		<tag k="ssr:stedsnr" v="638474" />
	</node>
	<node lat="58.588586114546466" lon="7.9736583398403695" id="-22348">
		<tag k="name" v="Fosselia" />
		<tag k="natural" v="slope" />
		<tag k="place" v="locality" />
		<tag k="ssr:stedsnr" v="638687" />
	</node>
	<node lat="58.617102775552" lon="7.840844451958661" id="-22349">
		<tag k="name" v="Klokkebakken" />
		<tag k="natural" v="slope" />
		<tag k="place" v="locality" />
		<tag k="ssr:stedsnr" v="638531" />
	</node>
	<node lat="58.503238891504495" lon="7.770158338402073" id="-22358">
		<tag k="name" v="Hestebakken" />
		<tag k="natural" v="slope" />
		<tag k="place" v="locality" />
		<tag k="ssr:stedsnr" v="639033" />
	</node>
	<node lat="58.582555552475256" lon="7.729805553752882" id="-22359">
		<tag k="fixme" v="consider natural=peak for the most distinct mountains in the district" />
		<tag k="name" v="Kaldbekkåsane" />
		<tag k="natural" v="hill" />
		<tag k="place" v="locality" />
		<tag k="ssr:stedsnr" v="639206" />
	</node>
	<node lat="58.629458331174874" lon="7.811355556471168" id="-22363">
		<tag k="name" v="Tjoredalen" />
		<tag k="natural" v="valley" />
		<tag k="place" v="locality" />
		<tag k="ssr:stedsnr" v="639378" />
	</node>
	<node lat="58.636841665721604" lon="7.812002769572641" id="-22364">
		<tag k="name" v="Bakkane" />
		<tag k="natural" v="hill" />
		<tag k="place" v="locality" />
		<tag k="ssr:stedsnr" v="639382" />
	</node>
	<node lat="58.4609444484244" lon="7.602666669621916" id="-22369">
		<tag k="name" v="Raunedalen" />
		<tag k="natural" v="valley" />
		<tag k="place" v="locality" />
		<tag k="ssr:stedsnr" v="639702" />
	</node>
	<node lat="58.48544999803769" lon="7.695080559226044" id="-22372">
		<tag k="name" v="Stordalen" />
		<tag k="natural" v="valley" />
		<tag k="place" v="locality" />
		<tag k="ssr:stedsnr" v="639831" />
	</node>
	<node lat="58.536277779973894" lon="7.614322215678485" id="-22374">
		<tag k="name" v="Mikkelshelleren" />
		<tag k="place" v="locality" />
		<tag k="ssr:stedsnr" v="639712" />
	</node>
	<node lat="58.61318889023221" lon="7.606599996807596" id="-22375">
		<tag k="name" v="Bjørneholone" />
		<tag k="natural" v="valley" />
		<tag k="place" v="locality" />
		<tag k="ssr:stedsnr" v="639717" />
	</node>
	<node lat="58.55480833507023" lon="7.6936722303636715" id="-22380">
		<tag k="name" v="Varden" />
		<tag k="natural" v="hill" />
		<tag k="place" v="locality" />
		<tag k="ssr:stedsnr" v="639945" />
	</node>
	<node lat="58.54896667039785" lon="7.687288890861176" id="-22381">
		<tag k="name" v="Olasholon" />
		<tag k="natural" v="valley" />
		<tag k="place" v="locality" />
		<tag k="ssr:stedsnr" v="639946" />
	</node>
	<node lat="58.58816666958082" lon="8.079727781199958" id="-22389">
		<tag k="name" v="Palen" />
		<tag k="place" v="locality" />
		<tag k="ssr:stedsnr" v="656490" />
	</node>
	<node lat="58.58123888470466" lon="8.041608339850777" id="-22393">
		<tag k="name" v="Kollbakk" />
		<tag k="natural" v="hill" />
		<tag k="place" v="locality" />
		<tag k="ssr:stedsnr" v="656742" />
	</node>
	<node lat="58.585211111314706" lon="7.612344442356094" id="-22395">
		<tag k="fixme" v="consider natural=peak for the most distinct mountains in the district" />
		<tag k="name" v="Elgsnut" />
		<tag k="natural" v="hill" />
		<tag k="place" v="locality" />
		<tag k="ssr:stedsnr" v="667695" />
	</node>
	<node lat="58.55652499581272" lon="7.584230554262889" id="-22397">
		<tag k="fixme" v="consider natural=peak for the most distinct mountains in the district" />
		<tag k="name" v="Hudåsen" />
		<tag k="natural" v="hill" />
		<tag k="place" v="locality" />
		<tag k="ssr:stedsnr" v="667935" />
	</node>
	<node lat="58.66007500336067" lon="7.975869446125169" id="-22404">
		<tag k="alt_name" v="Nipelivarden" />
		<tag k="fixme" v="consider natural=peak for the most distinct mountains in the district" />
		<tag k="name" v="Myklivarden" />
		<tag k="natural" v="hill" />
		<tag k="place" v="locality" />
		<tag k="ssr:stedsnr" v="668542" />
	</node>
	<node lat="58.5123861084974" lon="7.7798222277259" id="-22411">
		<tag k="name" v="Stemhei" />
		<tag k="natural" v="hill" />
		<tag k="place" v="locality" />
		<tag k="ssr:stedsnr" v="699007" />
	</node>
	<node lat="58.67205832909554" lon="7.645430547506996" id="-22412">
		<tag k="name" v="Nautedalen" />
		<tag k="natural" v="valley" />
		<tag k="place" v="locality" />
		<tag k="ssr:stedsnr" v="699067" />
	</node>
	<node lat="58.66958333691647" lon="7.74050555860363" id="-22414">
		<tag k="name" v="Bjørnetveitheia" />
		<tag k="natural" v="hill" />
		<tag k="place" v="locality" />
		<tag k="ssr:stedsnr" v="699265" />
	</node>
	<node lat="58.68177499621268" lon="7.729091658293064" id="-22415">
		<tag k="name" v="Mjåvassbrotet" />
		<tag k="natural" v="slope" />
		<tag k="place" v="locality" />
		<tag k="ssr:stedsnr" v="699273" />
	</node>
	<node lat="58.59887222652886" lon="7.939261107973184" id="-22419">
		<tag k="name" v="Sundkjerrknuten" />
		<tag k="natural" v="hill" />
		<tag k="place" v="locality" />
		<tag k="ssr:stedsnr" v="699369" />
	</node>
	<node lat="58.568177775237636" lon="7.927683335383127" id="-22423">
		<tag k="fixme" v="consider natural=peak for the most distinct mountains in the district" />
		<tag k="name" v="Espåsen" />
		<tag k="natural" v="hill" />
		<tag k="place" v="locality" />
		<tag k="ssr:stedsnr" v="699581" />
	</node>
	<node lat="58.61591666705536" lon="7.976486110453477" id="-22424">
		<tag k="fixme" v="consider natural=peak for the most distinct mountains in the district" />
		<tag k="name" v="Høgåsen" />
		<tag k="natural" v="hill" />
		<tag k="place" v="locality" />
		<tag k="ssr:stedsnr" v="699613" />
	</node>
	<node lat="58.58277499968988" lon="7.9921444398204535" id="-22425">
		<tag k="name" v="Storedal" />
		<tag k="natural" v="valley" />
		<tag k="place" v="locality" />
		<tag k="ssr:stedsnr" v="699662" />
	</node>
	<node lat="58.585000000007554" lon="7.9680888912080725" id="-22426">
		<tag k="name" v="Klevelandsheia" />
		<tag k="natural" v="hill" />
		<tag k="place" v="locality" />
		<tag k="ssr:stedsnr" v="699672" />
	</node>
	<node lat="58.578569440662555" lon="7.94838889528068" id="-22429">
		<tag k="name" v="Kjørkelia" />
		<tag k="natural" v="slope" />
		<tag k="place" v="locality" />
		<tag k="ssr:stedsnr" v="699684" />
	</node>
	<node lat="58.58147777805364" lon="7.758675006470176" id="-22431">
		<tag k="name" v="Goddalen" />
		<tag k="natural" v="valley" />
		<tag k="place" v="locality" />
		<tag k="ssr:stedsnr" v="699762" />
	</node>
	<node lat="58.53830833598191" lon="7.758375006234517" id="-22432">
		<tag k="fixme" v="consider natural=peak for the most distinct mountains in the district" />
		<tag k="name" v="Åsen" />
		<tag k="natural" v="hill" />
		<tag k="place" v="locality" />
		<tag k="ssr:stedsnr" v="699765" />
	</node>
	<node lat="58.50121944439051" lon="7.674713897242152" id="-22433">
		<tag k="name" v="Karisdalen" />
		<tag k="natural" v="valley" />
		<tag k="place" v="locality" />
		<tag k="ssr:stedsnr" v="699772" />
	</node>
	<node lat="58.47173611519619" lon="7.617111117174522" id="-22434">
		<tag k="fixme" v="consider natural=peak for the most distinct mountains in the district" />
		<tag k="name" v="Mauråsen" />
		<tag k="natural" v="hill" />
		<tag k="place" v="locality" />
		<tag k="ssr:stedsnr" v="699774" />
	</node>
	<node lat="58.47287777524357" lon="7.587797230465445" id="-22435">
		<tag k="fixme" v="consider natural=peak for the most distinct mountains in the district" />
		<tag k="name" v="Hatteråsen" />
		<tag k="natural" v="hill" />
		<tag k="place" v="locality" />
		<tag k="ssr:stedsnr" v="699777" />
	</node>
	<node lat="58.4885444447661" lon="7.7801277747920015" id="-22439">
		<tag k="name" v="Grinddalen" />
		<tag k="natural" v="valley" />
		<tag k="place" v="locality" />
		<tag k="ssr:stedsnr" v="700217" />
	</node>
	<node lat="58.55664721811299" lon="7.768366672548445" id="-22440">
		<tag k="name" v="Trollebakka" />
		<tag k="natural" v="slope" />
		<tag k="place" v="locality" />
		<tag k="ssr:stedsnr" v="700222" />
	</node>
	<node lat="58.533836113888626" lon="7.743474992681709" id="-22441">
		<tag k="name" v="Heimåre Bastelia" />
		<tag k="natural" v="slope" />
		<tag k="place" v="locality" />
		<tag k="ssr:stedsnr" v="700261" />
	</node>
	<node lat="58.54255555200178" lon="7.810536106089544" id="-22442">
		<tag k="name" v="Grashei" />
		<tag k="natural" v="hill" />
		<tag k="place" v="locality" />
		<tag k="ssr:stedsnr" v="700263" />
	</node>
	<node lat="58.52367222347414" lon="7.8163527828864625" id="-22443">
		<tag k="name" v="Lindeli" />
		<tag k="natural" v="slope" />
		<tag k="place" v="locality" />
		<tag k="ssr:stedsnr" v="700165" />
	</node>
	<node lat="58.63548055765938" lon="7.83040833272356" id="-22444">
		<tag k="fixme" v="consider natural=peak for the most distinct mountains in the district" />
		<tag k="name" v="Mofjella" />
		<tag k="natural" v="hill" />
		<tag k="place" v="locality" />
		<tag k="ssr:stedsnr" v="700364" />
	</node>
	<node lat="58.46702777582272" lon="7.609747217448101" id="-22446">
		<tag k="name" v="Liane" />
		<tag k="natural" v="slope" />
		<tag k="place" v="locality" />
		<tag k="ssr:stedsnr" v="700607" />
	</node>
	<node lat="58.54605555236207" lon="7.712922224868462" id="-22451">
		<tag k="name" v="Revedalen" />
		<tag k="natural" v="valley" />
		<tag k="place" v="locality" />
		<tag k="ssr:stedsnr" v="700815" />
	</node>
	<node lat="58.57841111086102" lon="7.652961111503298" id="-22455">
		<tag k="fixme" v="consider natural=peak for the most distinct mountains in the district" />
		<tag k="name" v="Skorefjell" />
		<tag k="natural" v="hill" />
		<tag k="place" v="locality" />
		<tag k="ssr:stedsnr" v="700883" />
	</node>
	<node lat="58.52288611532545" lon="7.625152772161719" id="-22457">
		<tag k="fixme" v="consider natural=peak for the most distinct mountains in the district" />
		<tag k="name" v="Teddåsen" />
		<tag k="natural" v="hill" />
		<tag k="place" v="locality" />
		<tag k="ssr:stedsnr" v="700925" />
	</node>
	<node lat="58.52377500283855" lon="7.644194441592869" id="-22458">
		<tag k="name" v="Maureli" />
		<tag k="natural" v="slope" />
		<tag k="place" v="locality" />
		<tag k="ssr:stedsnr" v="700926" />
	</node>
	<node lat="58.57194722257804" lon="8.066327774180394" id="-22466">
		<tag k="name" v="Ytre Liane" />
		<tag k="natural" v="slope" />
		<tag k="place" v="locality" />
		<tag k="ssr:stedsnr" v="899076" />
	</node>
	<node lat="58.579449999705766" lon="8.103988896636888" id="-22467">
		<tag k="name" v="Heptingdalen" />
		<tag k="natural" v="valley" />
		<tag k="place" v="locality" />
		<tag k="ssr:stedsnr" v="899095" />
	</node>
	<node lat="58.59746111547776" lon="8.055361115295733" id="-22468">
		<tag k="name" v="Korvups" />
		<tag k="natural" v="cliff" />
		<tag k="ssr:stedsnr" v="899474" />
	</node>
	<node lat="58.57188610815092" lon="8.049863882189813" id="-22469">
		<tag k="name" v="Bertesknotten" />
		<tag k="natural" v="ridge" />
		<tag k="place" v="locality" />
		<tag k="ssr:stedsnr" v="899732" />
	</node>
	<node lat="58.619338892544704" lon="8.034777779011984" id="-22470">
		<tag k="name" v="Svartefjell" />
		<tag k="natural" v="cliff" />
		<tag k="ssr:stedsnr" v="899838" />
	</node>
	<node lat="58.47983333275712" lon="7.738488884973391" id="-22472">
		<tag k="name" v="Våråheia" />
		<tag k="natural" v="hill" />
		<tag k="place" v="locality" />
		<tag k="ssr:stedsnr" v="728172" />
	</node>
	<node lat="58.671430557245436" lon="7.616080552990925" id="-22475">
		<tag k="alt_name" v="Dalane" />
		<tag k="name" v="Dalan" />
		<tag k="natural" v="valley" />
		<tag k="place" v="locality" />
		<tag k="ssr:stedsnr" v="729173" />
	</node>
	<node lat="58.664827779871985" lon="7.6084527782176" id="-22476">
		<tag k="alt_name" v="Lindalsfjella;Lindalsfjell" />
		<tag k="fixme" v="consider natural=peak for the most distinct mountains in the district" />
		<tag k="name" v="Linddalsfjellet" />
		<tag k="natural" v="hill" />
		<tag k="place" v="locality" />
		<tag k="ssr:stedsnr" v="729174" />
	</node>
	<node lat="58.647088888431036" lon="7.849475005545042" id="-22480">
		<tag k="fixme" v="consider natural=peak for the most distinct mountains in the district" />
		<tag k="name" v="Bytingdalsknipa" />
		<tag k="natural" v="hill" />
		<tag k="place" v="locality" />
		<tag k="ssr:stedsnr" v="729503" />
	</node>
	<node lat="58.610069440777615" lon="7.930216675013692" id="-22485">
		<tag k="fixme" v="consider natural=peak for the most distinct mountains in the district" />
		<tag k="name" v="Tolleknuten" />
		<tag k="natural" v="hill" />
		<tag k="place" v="locality" />
		<tag k="ssr:stedsnr" v="729529" />
	</node>
	<node lat="58.6206749973359" lon="7.7895749927293805" id="-22487">
		<tag k="name" v="Fjåbrumoen" />
		<tag k="place" v="locality" />
		<tag k="ssr:stedsnr" v="729550" />
	</node>
	<node lat="58.464702776502875" lon="7.7902888974043485" id="-22490">
		<tag k="name" v="Lislemoen" />
		<tag k="place" v="locality" />
		<tag k="ssr:stedsnr" v="760003" />
	</node>
	<node lat="58.46628888914935" lon="7.786605556263324" id="-22491">
		<tag k="name" v="Snåremoen" />
		<tag k="place" v="locality" />
		<tag k="ssr:stedsnr" v="760004" />
	</node>
	<node lat="58.492841668053195" lon="7.758199995980202" id="-22493">
		<tag k="name" v="Bastedalen" />
		<tag k="natural" v="valley" />
		<tag k="place" v="locality" />
		<tag k="ssr:stedsnr" v="760060" />
	</node>
	<node lat="58.502886114167076" lon="7.794977781363503" id="-22494">
		<tag k="name" v="Brendabråtan" />
		<tag k="natural" v="slope" />
		<tag k="place" v="locality" />
		<tag k="ssr:stedsnr" v="760063" />
	</node>
	<node lat="58.65896388931787" lon="7.637869440610733" id="-22496">
		<tag k="name" v="Bjørnholheia" />
		<tag k="natural" v="hill" />
		<tag k="place" v="locality" />
		<tag k="ssr:stedsnr" v="760100" />
	</node>
	<node lat="58.70397222296231" lon="7.66643054840923" id="-22500">
		<tag k="name" v="Vardeskoren" />
		<tag k="natural" v="valley" />
		<tag k="place" v="locality" />
		<tag k="ssr:stedsnr" v="760105" />
	</node>
	<node lat="58.525361111388904" lon="7.858797225032529" id="-22506">
		<tag k="name" v="Hestehålane" />
		<tag k="natural" v="valley" />
		<tag k="place" v="locality" />
		<tag k="ssr:stedsnr" v="760460" />
	</node>
	<node lat="58.617469442771274" lon="7.930824996369472" id="-22507">
		<tag k="name" v="Åsmundsås" />
		<tag k="natural" v="hill" />
		<tag k="place" v="locality" />
		<tag k="ssr:stedsnr" v="760495" />
	</node>
	<node lat="58.61923333536215" lon="7.911594449202714" id="-22508">
		<tag k="fixme" v="consider natural=peak for the most distinct mountains in the district" />
		<tag k="name" v="Vardefjell" />
		<tag k="natural" v="hill" />
		<tag k="place" v="locality" />
		<tag k="ssr:stedsnr" v="760499" />
	</node>
	<node lat="58.56211944814735" lon="7.870480546951581" id="-22509">
		<tag k="fixme" v="consider natural=peak for the most distinct mountains in the district" />
		<tag k="name" v="Bjørneråsen" />
		<tag k="natural" v="hill" />
		<tag k="place" v="locality" />
		<tag k="ssr:stedsnr" v="760603" />
	</node>
	<node lat="58.57236388517435" lon="7.8681250030479575" id="-22510">
		<tag k="fixme" v="consider natural=peak for the most distinct mountains in the district" />
		<tag k="name" v="Smiefjell" />
		<tag k="natural" v="hill" />
		<tag k="place" v="locality" />
		<tag k="ssr:stedsnr" v="760611" />
	</node>
	<node lat="58.57264444900618" lon="7.93989167266375" id="-22511">
		<tag k="name" v="Hålandslia" />
		<tag k="natural" v="slope" />
		<tag k="place" v="locality" />
		<tag k="ssr:stedsnr" v="760620" />
	</node>
	<node lat="58.58940833753537" lon="7.857766660600467" id="-22515">
		<tag k="fixme" v="consider natural=peak for the most distinct mountains in the district" />
		<tag k="name" v="Kyrkjeåsen" />
		<tag k="natural" v="hill" />
		<tag k="place" v="locality" />
		<tag k="ssr:stedsnr" v="760399" />
	</node>
	<node lat="58.60880000182559" lon="7.941519445216234" id="-22516">
		<tag k="name" v="Suvalia" />
		<tag k="natural" v="slope" />
		<tag k="place" v="locality" />
		<tag k="ssr:stedsnr" v="760511" />
	</node>
	<node lat="58.61433888920741" lon="7.920847217229578" id="-22518">
		<tag k="name" v="Undelandsdalen" />
		<tag k="natural" v="valley" />
		<tag k="place" v="locality" />
		<tag k="ssr:stedsnr" v="760515" />
	</node>
	<node lat="58.564052775013415" lon="7.764063882456669" id="-22520">
		<tag k="name" v="Søndagstømonen" />
		<tag k="place" v="locality" />
		<tag k="ssr:stedsnr" v="760798" />
	</node>
	<node lat="58.61273055861044" lon="7.660644439311185" id="-22521">
		<tag k="name" v="Stigane" />
		<tag k="natural" v="slope" />
		<tag k="place" v="locality" />
		<tag k="ssr:stedsnr" v="760941" />
	</node>
	<node lat="58.610786111791484" lon="7.664316670326656" id="-22522">
		<tag k="name" v="Stiganslia" />
		<tag k="natural" v="slope" />
		<tag k="place" v="locality" />
		<tag k="ssr:stedsnr" v="760943" />
	</node>
	<node lat="58.582466665778526" lon="7.947236113687125" id="-22524">
		<tag k="name" v="Fodalen" />
		<tag k="natural" v="valley" />
		<tag k="place" v="locality" />
		<tag k="ssr:stedsnr" v="760700" />
	</node>
	<node lat="58.573980559717306" lon="7.753063880423426" id="-22527">
		<tag k="fixme" v="consider natural=peak for the most distinct mountains in the district" />
		<tag k="name" v="Åsen" />
		<tag k="natural" v="hill" />
		<tag k="place" v="locality" />
		<tag k="ssr:stedsnr" v="760809" />
	</node>
	<node lat="58.656436111694106" lon="7.978655562166198" id="-22528">
		<tag k="name" v="Nipeli" />
		<tag k="natural" v="slope" />
		<tag k="place" v="locality" />
		<tag k="ssr:stedsnr" v="760845" />
	</node>
	<node lat="58.61127777925642" lon="8.00155278407155" id="-22529">
		<tag k="name" v="Slåtteli" />
		<tag k="natural" v="slope" />
		<tag k="place" v="locality" />
		<tag k="ssr:stedsnr" v="760848" />
	</node>
	<node lat="58.60670277589554" lon="7.976944443976937" id="-22530">
		<tag k="name" v="Storeli" />
		<tag k="natural" v="slope" />
		<tag k="place" v="locality" />
		<tag k="ssr:stedsnr" v="760853" />
	</node>
	<node lat="58.6089277732646" lon="7.97655554756116" id="-22531">
		<tag k="fixme" v="consider natural=peak for the most distinct mountains in the district" />
		<tag k="name" v="Fjellan" />
		<tag k="natural" v="hill" />
		<tag k="place" v="locality" />
		<tag k="ssr:stedsnr" v="760857" />
	</node>
	<node lat="58.52973055976462" lon="7.769719445362296" id="-22533">
		<tag k="name" v="Klevelia" />
		<tag k="natural" v="slope" />
		<tag k="place" v="locality" />
		<tag k="ssr:stedsnr" v="761152" />
	</node>
	<node lat="58.58862500376983" lon="7.741880559258315" id="-22534">
		<tag k="fixme" v="consider natural=peak for the most distinct mountains in the district" />
		<tag k="name" v="Ternasfjell" />
		<tag k="natural" v="hill" />
		<tag k="place" v="locality" />
		<tag k="ssr:stedsnr" v="761201" />
	</node>
	<node lat="58.60485555846804" lon="7.736213882178187" id="-22535">
		<tag k="fixme" v="consider natural=peak for the most distinct mountains in the district" />
		<tag k="name" v="Fuglemyråsen" />
		<tag k="natural" v="hill" />
		<tag k="place" v="locality" />
		<tag k="ssr:stedsnr" v="761320" />
	</node>
	<node lat="58.62845555822945" lon="7.827313891984628" id="-22537">
		<tag k="fixme" v="consider natural=peak for the most distinct mountains in the district" />
		<tag k="name" v="Espåsen" />
		<tag k="natural" v="hill" />
		<tag k="place" v="locality" />
		<tag k="ssr:stedsnr" v="761406" />
	</node>
	<node lat="58.64282500091547" lon="7.792627769688824" id="-22540">
		<tag k="name" v="Robakkane" />
		<tag k="natural" v="slope" />
		<tag k="place" v="locality" />
		<tag k="ssr:stedsnr" v="761413" />
	</node>
	<node lat="58.469249999442745" lon="7.591169444008083" id="-22541">
		<tag k="name" v="Langsteheia" />
		<tag k="natural" v="hill" />
		<tag k="place" v="locality" />
		<tag k="ssr:stedsnr" v="761708" />
	</node>
	<node lat="58.45540278037777" lon="7.584241661059384" id="-22542">
		<tag k="name" v="Lauvdalen" />
		<tag k="natural" v="valley" />
		<tag k="place" v="locality" />
		<tag k="ssr:stedsnr" v="761710" />
	</node>
	<node lat="58.498294447884014" lon="7.54457499378525" id="-22543">
		<tag k="name" v="Stemdalen" />
		<tag k="natural" v="valley" />
		<tag k="place" v="locality" />
		<tag k="ssr:stedsnr" v="761712" />
	</node>
	<node lat="58.57093889264893" lon="7.966797216437152" id="-22546">
		<tag k="name" v="Vottehei" />
		<tag k="natural" v="hill" />
		<tag k="place" v="locality" />
		<tag k="ssr:stedsnr" v="761694" />
	</node>
	<node lat="58.47206666652352" lon="7.673686103482312" id="-22549">
		<tag k="name" v="Piken" />
		<tag k="natural" v="hill" />
		<tag k="place" v="locality" />
		<tag k="ssr:stedsnr" v="761811" />
	</node>
	<node lat="58.555975001859196" lon="7.718625003998417" id="-22551">
		<tag k="name" v="Den bratte støyten" />
		<tag k="natural" v="slope" />
		<tag k="place" v="locality" />
		<tag k="ssr:stedsnr" v="761844" />
	</node>
	<node lat="58.620927778233494" lon="8.031561119569114" id="-22555">
		<tag k="name" v="Hellersdal" />
		<tag k="natural" v="valley" />
		<tag k="place" v="locality" />
		<tag k="ssr:stedsnr" v="777802" />
	</node>
	<node lat="58.632377779155064" lon="7.683441668060899" id="-22557">
		<tag k="name" v="Mathei" />
		<tag k="natural" v="hill" />
		<tag k="place" v="locality" />
		<tag k="ssr:stedsnr" v="910130" />
	</node>
	<node lat="58.62925277447173" lon="7.700972221779128" id="-22559">
		<tag k="name" v="Tjovhelleren" />
		<tag k="place" v="locality" />
		<tag k="ssr:stedsnr" v="910144" />
	</node>
	<node lat="58.62828610906161" lon="7.6234166666396215" id="-22561">
		<tag k="name" v="Knipen" />
		<tag k="natural" v="hill" />
		<tag k="place" v="locality" />
		<tag k="ssr:stedsnr" v="910815" />
	</node>
	<node lat="58.61641389146403" lon="7.664000001557029" id="-22562">
		<tag k="fixme" v="consider natural=peak for the most distinct mountains in the district" />
		<tag k="name" v="Svaba" />
		<tag k="natural" v="hill" />
		<tag k="place" v="locality" />
		<tag k="ssr:stedsnr" v="910816" />
	</node>
	<node lat="58.61147500218448" lon="7.609205558713822" id="-22564">
		<tag k="name" v="Hotten" />
		<tag k="natural" v="hill" />
		<tag k="place" v="locality" />
		<tag k="ssr:stedsnr" v="910829" />
	</node>
	<node lat="58.60936389096051" lon="7.659372230403082" id="-22565">
		<tag k="alt_name" v="Blenksfjell" />
		<tag k="fixme" v="consider natural=peak for the most distinct mountains in the district" />
		<tag k="name" v="Blengsfjell" />
		<tag k="natural" v="hill" />
		<tag k="place" v="locality" />
		<tag k="ssr:stedsnr" v="910840" />
	</node>
	<node lat="58.60281388557188" lon="7.698888886777374" id="-22567">
		<tag k="alt_name" v="Anskjerrheia;Anskjærheia" />
		<tag k="fixme" v="consider natural=peak for the most distinct mountains in the district" />
		<tag k="name" v="Anskjerheia" />
		<tag k="natural" v="hill" />
		<tag k="place" v="locality" />
		<tag k="ssr:stedsnr" v="910867" />
	</node>
	<node lat="58.669655559307586" lon="7.590163888634586" id="-22573">
		<tag k="alt_name" v="Lindalen" />
		<tag k="name" v="Linddalen" />
		<tag k="natural" v="valley" />
		<tag k="place" v="locality" />
		<tag k="ssr:stedsnr" v="911188" />
	</node>
	<node lat="58.649297220472405" lon="7.689147215558786" id="-22574">
		<tag k="alt_name" v="Solliane" />
		<tag k="name" v="Sollian" />
		<tag k="natural" v="slope" />
		<tag k="place" v="locality" />
		<tag k="ssr:stedsnr" v="788147" />
	</node>
	<node lat="58.67833888498072" lon="7.614224997980544" id="-22575">
		<tag k="alt_name" v="Hellagrå" />
		<tag k="fixme" v="consider natural=peak for the most distinct mountains in the district" />
		<tag k="name" v="Hella grå" />
		<tag k="natural" v="hill" />
		<tag k="place" v="locality" />
		<tag k="ssr:stedsnr" v="911206" />
	</node>
	<node lat="58.64882777605319" lon="7.64180277063625" id="-22576">
		<tag k="alt_name" v="Husefjell" />
		<tag k="fixme" v="consider natural=peak for the most distinct mountains in the district" />
		<tag k="name" v="Husefjellet" />
		<tag k="natural" v="hill" />
		<tag k="place" v="locality" />
		<tag k="ssr:stedsnr" v="789157" />
	</node>
	<node lat="58.62999166829617" lon="7.711161116716483" id="-22587">
		<tag k="name" v="Røynelidalen" />
		<tag k="natural" v="valley" />
		<tag k="place" v="locality" />
		<tag k="ssr:stedsnr" v="789823" />
	</node>
	<node lat="58.625536109343436" lon="7.592722228921067" id="-22588">
		<tag k="alt_name" v="Kvernhuslian" />
		<tag k="name" v="Kvernhuslia" />
		<tag k="natural" v="slope" />
		<tag k="place" v="locality" />
		<tag k="ssr:stedsnr" v="789829" />
	</node>
	<node lat="58.6027833357487" lon="7.659411110190142" id="-22589">
		<tag k="fixme" v="consider natural=peak for the most distinct mountains in the district" />
		<tag k="name" v="Husefjell" />
		<tag k="natural" v="hill" />
		<tag k="place" v="locality" />
		<tag k="ssr:stedsnr" v="789864" />
	</node>
	<node lat="58.58359444890091" lon="8.033177772094978" id="-22592">
		<tag k="alt_name" v="Gråndalen" />
		<tag k="name" v="Grandalen" />
		<tag k="natural" v="valley" />
		<tag k="place" v="locality" />
		<tag k="ssr:stedsnr" v="789704" />
	</node>
	<node lat="58.50253333389127" lon="7.682844447214142" id="-22594">
		<tag k="fixme" v="consider natural=peak for the most distinct mountains in the district" />
		<tag k="name" v="Nordheia" />
		<tag k="natural" v="hill" />
		<tag k="place" v="locality" />
		<tag k="ssr:stedsnr" v="789906" />
	</node>
	<node lat="58.55436666959366" lon="7.693913896606517" id="-22595">
		<tag k="fixme" v="consider natural=peak for the most distinct mountains in the district" />
		<tag k="name" v="Vardehei" />
		<tag k="natural" v="hill" />
		<tag k="place" v="locality" />
		<tag k="ssr:stedsnr" v="789949" />
	</node>
	<node lat="58.558377780929355" lon="7.704266661607854" id="-22596">
		<tag k="alt_name" v="Auenstødalen" />
		<tag k="name" v="Aunestødalen" />
		<tag k="natural" v="valley" />
		<tag k="place" v="locality" />
		<tag k="ssr:stedsnr" v="789951" />
	</node>
	<node lat="58.670855555470716" lon="7.716516668870798" id="-22598">
		<tag k="alt_name" v="Botnane" />
		<tag k="name" v="Botnan" />
		<tag k="natural" v="valley" />
		<tag k="place" v="locality" />
		<tag k="ssr:stedsnr" v="790153" />
	</node>
	<node lat="58.6693083343193" lon="7.726141669448397" id="-22611">
		<tag k="alt_name" v="Bukkefjell" />
		<tag k="fixme" v="consider natural=peak for the most distinct mountains in the district" />
		<tag k="name" v="Bukkefjellet" />
		<tag k="natural" v="hill" />
		<tag k="place" v="locality" />
		<tag k="ssr:stedsnr" v="911621" />
	</node>
	<node lat="58.67324444545226" lon="7.740552776544892" id="-22614">
		<tag k="name" v="Smådalane" />
		<tag k="natural" v="valley" />
		<tag k="place" v="locality" />
		<tag k="ssr:stedsnr" v="820287" />
	</node>
	<node lat="58.49818055473835" lon="7.7376722148827" id="-22618">
		<tag k="name" v="Torsbakken" />
		<tag k="natural" v="slope" />
		<tag k="place" v="locality" />
		<tag k="ssr:stedsnr" v="821016" />
	</node>
	<node lat="58.70610833714599" lon="7.6620583270240346" id="-22621">
		<tag k="name" v="Varden" />
		<tag k="natural" v="hill" />
		<tag k="place" v="locality" />
		<tag k="ssr:stedsnr" v="821089" />
	</node>
	<node lat="58.70338055598623" lon="7.640422226474218" id="-22622">
		<tag k="name" v="Klauvdalsheia" />
		<tag k="natural" v="hill" />
		<tag k="place" v="locality" />
		<tag k="ssr:stedsnr" v="821090" />
	</node>
	<node lat="58.47298333420016" lon="7.730419436768747" id="-22623">
		<tag k="name" v="Vetrhusskaren" />
		<tag k="natural" v="slope" />
		<tag k="place" v="locality" />
		<tag k="ssr:stedsnr" v="821105" />
	</node>
	<node lat="58.6986305548717" lon="7.699036117067457" id="-22626">
		<tag k="name" v="Måvassheia" />
		<tag k="natural" v="hill" />
		<tag k="place" v="locality" />
		<tag k="ssr:stedsnr" v="821114" />
	</node>
	<node lat="58.55919999685049" lon="7.739691670543092" id="-22627">
		<tag k="fixme" v="consider natural=peak for the most distinct mountains in the district" />
		<tag k="name" v="Breiskårfjellet" />
		<tag k="natural" v="hill" />
		<tag k="place" v="locality" />
		<tag k="ssr:stedsnr" v="821184" />
	</node>
	<node lat="58.57754444641239" lon="7.848099997807359" id="-22630">
		<tag k="name" v="Knupen" />
		<tag k="natural" v="hill" />
		<tag k="place" v="locality" />
		<tag k="ssr:stedsnr" v="821410" />
	</node>
	<node lat="58.57525555733436" lon="7.863258334838898" id="-22631">
		<tag k="name" v="Grånelia" />
		<tag k="natural" v="slope" />
		<tag k="place" v="locality" />
		<tag k="ssr:stedsnr" v="821411" />
	</node>
	<node lat="58.57619722374675" lon="7.844458336589633" id="-22632">
		<tag k="fixme" v="consider natural=peak for the most distinct mountains in the district" />
		<tag k="name" v="Hudefjell" />
		<tag k="natural" v="hill" />
		<tag k="place" v="locality" />
		<tag k="ssr:stedsnr" v="821414" />
	</node>
	<node lat="58.57317222019229" lon="7.859788889659402" id="-22633">
		<tag k="name" v="Kattedalen" />
		<tag k="natural" v="valley" />
		<tag k="place" v="locality" />
		<tag k="ssr:stedsnr" v="821420" />
	</node>
	<node lat="58.594302778879964" lon="7.907113889951358" id="-22635">
		<tag k="fixme" v="consider natural=peak for the most distinct mountains in the district" />
		<tag k="name" v="Høgåsen" />
		<tag k="natural" v="hill" />
		<tag k="place" v="locality" />
		<tag k="ssr:stedsnr" v="821425" />
	</node>
	<node lat="58.527247225752646" lon="7.836555563351913" id="-22637">
		<tag k="name" v="Austebråtane" />
		<tag k="natural" v="slope" />
		<tag k="place" v="locality" />
		<tag k="ssr:stedsnr" v="821468" />
	</node>
	<node lat="58.551669447627" lon="7.88674167344302" id="-22638">
		<tag k="name" v="Stavdalen" />
		<tag k="natural" v="valley" />
		<tag k="place" v="locality" />
		<tag k="ssr:stedsnr" v="821476" />
	</node>
	<node lat="58.560216666816736" lon="7.772652771257603" id="-22645">
		<tag k="fixme" v="consider natural=peak for the most distinct mountains in the district" />
		<tag k="name" v="Farhaugen" />
		<tag k="natural" v="hill" />
		<tag k="place" v="locality" />
		<tag k="ssr:stedsnr" v="821803" />
	</node>
	<node lat="58.56021666328234" lon="7.732652784785059" id="-22646">
		<tag k="name" v="Heimre Bjørnefellkrok" />
		<tag k="natural" v="valley" />
		<tag k="place" v="locality" />
		<tag k="ssr:stedsnr" v="821806" />
	</node>
	<node lat="58.57199166385791" lon="7.7284861057621015" id="-22647">
		<tag k="name" v="Bronåsbrotane" />
		<tag k="natural" v="slope" />
		<tag k="place" v="locality" />
		<tag k="ssr:stedsnr" v="821817" />
	</node>
	<node lat="58.56779721916958" lon="7.739763892503184" id="-22648">
		<tag k="fixme" v="consider natural=peak for the most distinct mountains in the district" />
		<tag k="name" v="Bufallsknollen" />
		<tag k="natural" v="hill" />
		<tag k="place" v="locality" />
		<tag k="ssr:stedsnr" v="821821" />
	</node>
	<node lat="58.57027500309612" lon="7.743486115622578" id="-22649">
		<tag k="name" v="Bytingsdalen" />
		<tag k="natural" v="valley" />
		<tag k="place" v="locality" />
		<tag k="ssr:stedsnr" v="821827" />
	</node>
	<node lat="58.57614167095758" lon="7.747491667792073" id="-22650">
		<tag k="fixme" v="consider natural=peak for the most distinct mountains in the district" />
		<tag k="name" v="Gaushåmmeren" />
		<tag k="natural" v="hill" />
		<tag k="place" v="locality" />
		<tag k="ssr:stedsnr" v="821830" />
	</node>
	<node lat="58.65438055762952" lon="7.968722223130501" id="-22651">
		<tag k="name" v="Botneheia" />
		<tag k="natural" v="hill" />
		<tag k="place" v="locality" />
		<tag k="ssr:stedsnr" v="821835" />
	</node>
	<node lat="58.67355832972387" lon="7.948191674913171" id="-22652">
		<tag k="name" v="Ospedalen" />
		<tag k="natural" v="valley" />
		<tag k="place" v="locality" />
		<tag k="ssr:stedsnr" v="821841" />
	</node>
	<node lat="58.60881666714102" lon="7.972194436136241" id="-22656">
		<tag k="fixme" v="consider natural=peak for the most distinct mountains in the district" />
		<tag k="name" v="Dyplemyråsen" />
		<tag k="natural" v="hill" />
		<tag k="place" v="locality" />
		<tag k="ssr:stedsnr" v="821878" />
	</node>
	<node lat="58.62808611143295" lon="7.918133332109331" id="-22657">
		<tag k="name" v="Støylrodalen" />
		<tag k="natural" v="valley" />
		<tag k="place" v="locality" />
		<tag k="ssr:stedsnr" v="821782" />
	</node>
	<node lat="58.48524444454464" lon="7.780708333742291" id="-22659">
		<tag k="name" v="Skorva" />
		<tag k="natural" v="slope" />
		<tag k="place" v="locality" />
		<tag k="ssr:stedsnr" v="822215" />
	</node>
	<node lat="58.606722222824864" lon="7.743566671949308" id="-22661">
		<tag k="name" v="Øvre Snjodalen" />
		<tag k="natural" v="valley" />
		<tag k="place" v="locality" />
		<tag k="ssr:stedsnr" v="822306" />
	</node>
	<node lat="58.62342499820424" lon="7.748975007356996" id="-22664">
		<tag k="name" v="Rypedalen" />
		<tag k="natural" v="valley" />
		<tag k="place" v="locality" />
		<tag k="ssr:stedsnr" v="822324" />
	</node>
	<node lat="58.6235749971601" lon="7.767663892585202" id="-22665">
		<tag k="name" v="Stigelia" />
		<tag k="natural" v="slope" />
		<tag k="place" v="locality" />
		<tag k="ssr:stedsnr" v="822329" />
	</node>
	<node lat="58.529852775404" lon="7.565108340735284" id="-22669">
		<tag k="fixme" v="consider natural=peak for the most distinct mountains in the district" />
		<tag k="name" v="Åsen" />
		<tag k="natural" v="hill" />
		<tag k="place" v="locality" />
		<tag k="ssr:stedsnr" v="822714" />
	</node>
	<node lat="58.522800001976336" lon="7.585749994131055" id="-22670">
		<tag k="name" v="Orrenebbane" />
		<tag k="natural" v="hill" />
		<tag k="place" v="locality" />
		<tag k="ssr:stedsnr" v="822715" />
	</node>
	<node lat="58.597330553054974" lon="7.975236111928218" id="-22671">
		<tag k="name" v="Heimreli" />
		<tag k="natural" v="slope" />
		<tag k="place" v="locality" />
		<tag k="ssr:stedsnr" v="822716" />
	</node>
	<node lat="58.58389999932449" lon="7.987491664764916" id="-22672">
		<tag k="name" v="Ørnefjell" />
		<tag k="natural" v="hill" />
		<tag k="place" v="locality" />
		<tag k="ssr:stedsnr" v="822717" />
	</node>
	<node lat="58.47115555847017" lon="7.713255554621864" id="-22673">
		<tag k="name" v="Vetrhuslia" />
		<tag k="natural" v="slope" />
		<tag k="place" v="locality" />
		<tag k="ssr:stedsnr" v="822779" />
	</node>
	<node lat="58.47915833087484" lon="7.537219448676502" id="-22676">
		<tag k="name" v="Vardane" />
		<tag k="natural" v="hill" />
		<tag k="place" v="locality" />
		<tag k="ssr:stedsnr" v="822666" />
	</node>
	<node lat="58.4950527758543" lon="7.720580561585308" id="-22678">
		<tag k="name" v="Småmyrbakkane" />
		<tag k="natural" v="slope" />
		<tag k="place" v="locality" />
		<tag k="ssr:stedsnr" v="822892" />
	</node>
	<node lat="58.582988884959676" lon="7.6922194384223825" id="-22680">
		<tag k="name" v="Bjortjønnbakkane" />
		<tag k="natural" v="slope" />
		<tag k="place" v="locality" />
		<tag k="ssr:stedsnr" v="822903" />
	</node>
	<node lat="58.59194166624716" lon="8.081122224398118" id="-22685">
		<tag k="name" v="Kvileplassen" />
		<tag k="place" v="locality" />
		<tag k="ssr:stedsnr" v="838510" />
	</node>
	<node lat="58.48679721774292" lon="7.553805553920425" id="-22689">
		<tag k="alt_name" v="Hisdalsheia" />
		<tag k="name" v="Hisdalsheii" />
		<tag k="natural" v="hill" />
		<tag k="place" v="locality" />
		<tag k="ssr:stedsnr" v="850592" />
	</node>
	<node lat="58.49626388457232" lon="7.683269452843279" id="-22690">
		<tag k="alt_name" v="Ørnlihei" />
		<tag k="name" v="Ørneliheii" />
		<tag k="natural" v="hill" />
		<tag k="place" v="locality" />
		<tag k="ssr:stedsnr" v="850598" />
	</node>
	<node lat="58.58543611199701" lon="7.6042444415091115" id="-22693">
		<tag k="alt_name" v="Eksåheia" />
		<tag k="fixme" v="consider natural=peak for the most distinct mountains in the district" />
		<tag k="name" v="Egsåheia" />
		<tag k="natural" v="hill" />
		<tag k="place" v="locality" />
		<tag k="ssr:stedsnr" v="850776" />
	</node>
	<node lat="58.520605554349444" lon="7.546913888411088" id="-22698">
		<tag k="fixme" v="consider natural=peak for the most distinct mountains in the district" />
		<tag k="name" v="Mohei" />
		<tag k="natural" v="hill" />
		<tag k="place" v="locality" />
		<tag k="ssr:stedsnr" v="850993" />
	</node>
	<node lat="58.51037777960079" lon="7.86635554771303" id="-22701">
		<tag k="fixme" v="consider natural=peak for the most distinct mountains in the district" />
		<tag k="name" v="Kloppeheia" />
		<tag k="natural" v="hill" />
		<tag k="place" v="locality" />
		<tag k="ssr:stedsnr" v="851380" />
	</node>
	<node lat="58.55406666231874" lon="7.883594437448933" id="-22702">
		<tag k="alt_name" v="Gjegninghei" />
		<tag k="fixme" v="consider natural=peak for the most distinct mountains in the district" />
		<tag k="name" v="Gjegningheia" />
		<tag k="natural" v="hill" />
		<tag k="place" v="locality" />
		<tag k="ssr:stedsnr" v="851623" />
	</node>
	<node lat="58.5732611117923" lon="7.951113881917265" id="-22703">
		<tag k="alt_name" v="Grånelia" />
		<tag k="name" v="Granlia" />
		<tag k="natural" v="slope" />
		<tag k="place" v="locality" />
		<tag k="ssr:stedsnr" v="851717" />
	</node>
	<node lat="58.578936108694045" lon="8.049024992037607" id="-22704">
		<tag k="name" v="Hovlandsdalen" />
		<tag k="natural" v="valley" />
		<tag k="place" v="locality" />
		<tag k="ssr:stedsnr" v="851720" />
	</node>
	<node lat="59.05457500046624" lon="7.574550001354348" id="-22705">
		<tag k="alt_name" v="Setesdalen" />
		<tag k="name" v="Setesdal" />
		<tag k="natural" v="valley" />
		<tag k="place" v="locality" />
		<tag k="ssr:stedsnr" v="851969" />
	</node>
	<node lat="58.536263889978834" lon="7.644991658450519" id="-22706">
		<tag k="name" v="Svarteberg" />
		<tag k="natural" v="hill" />
		<tag k="place" v="locality" />
		<tag k="ssr:stedsnr" v="851976" />
	</node>
	<node lat="58.51303055859397" lon="7.833475005086403" id="-22710">
		<tag k="name" v="Steindalen" />
		<tag k="natural" v="valley" />
		<tag k="place" v="locality" />
		<tag k="ssr:stedsnr" v="882028" />
	</node>
	<node lat="58.68547778016592" lon="7.64201388419014" id="-22713">
		<tag k="name" v="Sauelidalen" />
		<tag k="natural" v="valley" />
		<tag k="place" v="locality" />
		<tag k="ssr:stedsnr" v="882065" />
	</node>
	<node lat="58.5487194487428" lon="7.727419438111467" id="-22720">
		<tag k="name" v="Ola drikkars kolle" />
		<tag k="natural" v="hill" />
		<tag k="place" v="locality" />
		<tag k="ssr:stedsnr" v="882170" />
	</node>
	<node lat="58.635613886384164" lon="7.831402779513759" id="-22723">
		<tag k="name" v="Grevlingdalen" />
		<tag k="natural" v="valley" />
		<tag k="place" v="locality" />
		<tag k="ssr:stedsnr" v="882310" />
	</node>
	<node lat="58.63168888734935" lon="7.812436105503565" id="-22725">
		<tag k="name" v="Engedalen" />
		<tag k="natural" v="valley" />
		<tag k="place" v="locality" />
		<tag k="ssr:stedsnr" v="882313" />
	</node>
	<node lat="58.638291667884765" lon="7.824575000638577" id="-22730">
		<tag k="name" v="Syrålia" />
		<tag k="natural" v="slope" />
		<tag k="place" v="locality" />
		<tag k="ssr:stedsnr" v="882326" />
	</node>
	<node lat="58.59083333484356" lon="7.87385833237279" id="-22731">
		<tag k="fixme" v="consider natural=peak for the most distinct mountains in the district" />
		<tag k="name" v="Bakmedfjell" />
		<tag k="natural" v="hill" />
		<tag k="place" v="locality" />
		<tag k="ssr:stedsnr" v="882354" />
	</node>
	<node lat="58.53899721866738" lon="7.822833336311162" id="-22733">
		<tag k="fixme" v="consider natural=peak for the most distinct mountains in the district" />
		<tag k="name" v="Knøpelifjellane" />
		<tag k="natural" v="hill" />
		<tag k="place" v="locality" />
		<tag k="ssr:stedsnr" v="882212" />
	</node>
	<node lat="58.60738611395392" lon="7.849802771215083" id="-22735">
		<tag k="name" v="Tveitheia" />
		<tag k="natural" v="hill" />
		<tag k="place" v="locality" />
		<tag k="ssr:stedsnr" v="882453" />
	</node>
	<node lat="58.55150277345993" lon="7.88182222919319" id="-22740">
		<tag k="name" v="Gjegningdalen" />
		<tag k="natural" v="valley" />
		<tag k="place" v="locality" />
		<tag k="ssr:stedsnr" v="882421" />
	</node>
	<node lat="58.64223888687043" lon="7.87736110406667" id="-22741">
		<tag k="fixme" v="consider natural=peak for the most distinct mountains in the district" />
		<tag k="name" v="Neksåsen" />
		<tag k="natural" v="hill" />
		<tag k="place" v="locality" />
		<tag k="ssr:stedsnr" v="882504" />
	</node>
	<node lat="58.63013888943266" lon="7.870088882293718" id="-22743">
		<tag k="name" v="Eikebudalen" />
		<tag k="natural" v="valley" />
		<tag k="place" v="locality" />
		<tag k="ssr:stedsnr" v="882519" />
	</node>
	<node lat="58.4877638862832" lon="7.541836110751491" id="-22746">
		<tag k="name" v="Tjovedalen" />
		<tag k="natural" v="valley" />
		<tag k="place" v="locality" />
		<tag k="ssr:stedsnr" v="882558" />
	</node>
	<node lat="58.6186250029083" lon="7.975744435905151" id="-22749">
		<tag k="fixme" v="consider natural=peak for the most distinct mountains in the district" />
		<tag k="name" v="Belteråsen" />
		<tag k="natural" v="hill" />
		<tag k="place" v="locality" />
		<tag k="ssr:stedsnr" v="882566" />
	</node>
	<node lat="58.49386388555363" lon="7.602319436948731" id="-22750">
		<tag k="name" v="Glova" />
		<tag k="natural" v="valley" />
		<tag k="place" v="locality" />
		<tag k="ssr:stedsnr" v="882573" />
	</node>
	<node lat="58.635149997807886" lon="7.563188897473705" id="-22753">
		<tag k="name" v="Jammerdal" />
		<tag k="natural" v="valley" />
		<tag k="place" v="locality" />
		<tag k="ssr:stedsnr" v="882602" />
	</node>
	<node lat="58.649597220241795" lon="7.555308337088951" id="-22757">
		<tag k="name" v="Nordre Dyplehei" />
		<tag k="natural" v="hill" />
		<tag k="place" v="locality" />
		<tag k="ssr:stedsnr" v="882723" />
	</node>
	<node lat="58.60154722205188" lon="7.968355557567451" id="-22758">
		<tag k="fixme" v="consider natural=peak for the most distinct mountains in the district" />
		<tag k="name" v="Holebekkåsane" />
		<tag k="natural" v="hill" />
		<tag k="place" v="locality" />
		<tag k="ssr:stedsnr" v="882609" />
	</node>
	<node lat="58.5261555568665" lon="7.586088887941244" id="-22760">
		<tag k="name" v="Arenevedalen" />
		<tag k="natural" v="valley" />
		<tag k="place" v="locality" />
		<tag k="ssr:stedsnr" v="882613" />
	</node>
	<node lat="58.4612527811979" lon="7.666955556772358" id="-22765">
		<tag k="name" v="Uppsane" />
		<tag k="natural" v="cliff" />
		<tag k="ssr:stedsnr" v="882699" />
	</node>
	<node lat="58.62148055826384" lon="8.02412777254775" id="-22767">
		<tag k="name" v="Skoredalen" />
		<tag k="natural" v="valley" />
		<tag k="place" v="locality" />
		<tag k="ssr:stedsnr" v="882806" />
	</node>
	<node lat="58.494322221195254" lon="7.699500005195102" id="-22768">
		<tag k="name" v="Valebrokhei" />
		<tag k="natural" v="hill" />
		<tag k="place" v="locality" />
		<tag k="ssr:stedsnr" v="882808" />
	</node>
	<node lat="58.60488055510464" lon="7.958216660691604" id="-22770">
		<tag k="fixme" v="consider natural=peak for the most distinct mountains in the district" />
		<tag k="name" v="Finnsteåsen" />
		<tag k="natural" v="hill" />
		<tag k="place" v="locality" />
		<tag k="ssr:stedsnr" v="882811" />
	</node>
	<node lat="58.619430552224316" lon="8.001050006374099" id="-22772">
		<tag k="fixme" v="consider natural=peak for the most distinct mountains in the district" />
		<tag k="name" v="Lyngbøåsen" />
		<tag k="natural" v="hill" />
		<tag k="place" v="locality" />
		<tag k="ssr:stedsnr" v="882814" />
	</node>
	<node lat="58.485580555520826" lon="7.6241111070833485" id="-22774">
		<tag k="fixme" v="consider natural=peak for the most distinct mountains in the district" />
		<tag k="name" v="Lundeknapen" />
		<tag k="natural" v="hill" />
		<tag k="place" v="locality" />
		<tag k="ssr:stedsnr" v="882818" />
	</node>
	<node lat="58.48310000339369" lon="7.626724992230673" id="-22775">
		<tag k="name" v="Larsheiknutten" />
		<tag k="natural" v="hill" />
		<tag k="place" v="locality" />
		<tag k="ssr:stedsnr" v="882820" />
	</node>
</osm>
