<?xml version="1.0" encoding="UTF-8"?>
<osm version="0.6" generator="osmapis">
	<node lat="58.46617777490231" lon="7.739100005793389" id="-21162">
		<tag k="name" v="Lindåna" />
		<tag k="ssr:stedsnr" v="256" />
		<tag k="waterway" v="stream" />
	</node>
	<node lat="58.52472279505324" lon="7.750954811689283" id="-21164">
		<tag k="name" v="Dølestøtjørna" />
		<tag k="natural" v="water" />
		<tag k="ssr:stedsnr" v="653" />
	</node>
	<node lat="58.605836111030115" lon="7.644436116967819" id="-21166">
		<tag k="alt_name" v="Igletjønn" />
		<tag k="name" v="Igletjørni" />
		<tag k="natural" v="water" />
		<tag k="ssr:stedsnr" v="847" />
	</node>
	<node lat="58.56646666827855" lon="7.69171945123212" id="-21168">
		<tag k="alt_name" v="Langetjønn" />
		<tag k="name" v="Langetjørn" />
		<tag k="natural" v="water" />
		<tag k="ssr:stedsnr" v="803" />
	</node>
	<node lat="58.58844166224461" lon="8.006638881186563" id="-21169">
		<tag k="alt_name" v="Skuteåna" />
		<tag k="name" v="Skutåna" />
		<tag k="ssr:stedsnr" v="705" />
		<tag k="waterway" v="stream" />
	</node>
	<node lat="58.58986110796887" lon="7.671327775096555" id="-21170">
		<tag k="alt_name" v="Dåsåni;Dåsåna" />
		<tag k="name" v="Dåselva" />
		<tag k="ssr:stedsnr" v="755" />
		<tag k="waterway" v="river" />
	</node>
	<node lat="58.46549166682075" lon="7.674855561726969" id="-21171">
		<tag k="alt_name" v="Tellaugstjønn" />
		<tag k="name" v="Tillaugtjørni" />
		<tag k="natural" v="water" />
		<tag k="ssr:stedsnr" v="919" />
	</node>
	<node lat="58.68087500428764" lon="7.562541664270701" id="-21175">
		<tag k="alt_name" v="Nordre Jønfotvatn;Nordre Jøtnefotvatn;Jøtnefotvatni, nordre" />
		<tag k="name" v="Nordre Jøtnefotvatni" />
		<tag k="natural" v="water" />
		<tag k="ssr:stedsnr" v="1205" />
		<tag k="water" v="lake" />
	</node>
	<node lat="58.67587222440685" lon="7.560952786142153" id="-21176">
		<tag k="alt_name" v="Søre Jønfotvatn;Søre Jøtnefotvatn;Jøtnefotvatni, s" />
		<tag k="name" v="Søre Jøtnefotvatni" />
		<tag k="natural" v="water" />
		<tag k="ssr:stedsnr" v="1208" />
		<tag k="water" v="lake" />
	</node>
	<node lat="58.683088885676604" lon="7.713377775139097" id="-21177">
		<tag k="alt_name" v="Hommetjønn" />
		<tag k="name" v="Hommetjørni" />
		<tag k="natural" v="water" />
		<tag k="ssr:stedsnr" v="1211" />
	</node>
	<node lat="58.695352774102346" lon="7.655719438647065" id="-21178">
		<tag k="name" v="Klauvdalsbekken" />
		<tag k="ssr:stedsnr" v="1218" />
		<tag k="waterway" v="stream" />
	</node>
	<node lat="58.58777500104564" lon="7.91568888597356" id="-21182">
		<tag k="alt_name" v="Undelandsstemtjønn" />
		<tag k="name" v="Stemtjørna" />
		<tag k="natural" v="water" />
		<tag k="ssr:stedsnr" v="1143" />
	</node>
	<node lat="58.63296388540885" lon="7.850024995615493" id="-21185">
		<tag k="alt_name" v="Igletjønn" />
		<tag k="name" v="Igletjørna" />
		<tag k="natural" v="water" />
		<tag k="ssr:stedsnr" v="1569" />
	</node>
	<node lat="58.597664993080194" lon="8.095740601033306" id="-21191">
		<tag k="name" v="Lauvviktjønnane" />
		<tag k="natural" v="water" />
		<tag k="ssr:stedsnr" v="231547" />
		<tag k="water" v="lake" />
	</node>
	<node lat="58.66701388794345" lon="7.709580555418287" id="-21199">
		<tag k="name" v="Buodden" />
		<tag k="natural" v="cape" />
		<tag k="ssr:stedsnr" v="32062" />
	</node>
	<node lat="58.57659722606841" lon="7.880333338530653" id="-21211">
		<tag k="name" v="Sandvikskilen" />
		<tag k="natural" v="bay" />
		<tag k="ssr:stedsnr" v="32379" />
	</node>
	<node lat="58.578952774057726" lon="7.910638890514967" id="-21220">
		<tag k="name" v="Skjebbetjønn" />
		<tag k="natural" v="water" />
		<tag k="ssr:stedsnr" v="32595" />
	</node>
	<node lat="58.635802776317504" lon="7.9474083352078235" id="-21224">
		<tag k="name" v="Bjorhuskilen" />
		<tag k="natural" v="bay" />
		<tag k="ssr:stedsnr" v="32604" />
	</node>
	<node lat="58.498688617264484" lon="7.596730662348134" id="-21225">
		<tag k="name" v="Tritjønnane" />
		<tag k="natural" v="water" />
		<tag k="ssr:stedsnr" v="32609" />
		<tag k="water" v="lake" />
	</node>
	<node lat="58.50469722276251" lon="7.562458339088118" id="-21231">
		<tag k="name" v="Kjeøya" />
		<tag k="place" v="island" />
		<tag k="ssr:stedsnr" v="32612" />
	</node>
	<node lat="58.498194447310496" lon="7.594191662929147" id="-21232">
		<tag k="name" v="Hotjønn" />
		<tag k="natural" v="water" />
		<tag k="ssr:stedsnr" v="32617" />
	</node>
	<node lat="58.47756944216802" lon="7.6473944430581025" id="-21236">
		<tag k="name" v="Brønnetrona" />
		<tag k="natural" v="water" />
		<tag k="ssr:stedsnr" v="32863" />
	</node>
	<node lat="58.52019721938183" lon="7.628766665267535" id="-21244">
		<tag k="name" v="Stålevassosen" />
		<tag k="natural" v="bay" />
		<tag k="ssr:stedsnr" v="32918" />
	</node>
	<node lat="58.51932777962167" lon="7.6326555495611395" id="-21245">
		<tag k="name" v="Stålevassbekken" />
		<tag k="ssr:stedsnr" v="32919" />
		<tag k="waterway" v="stream" />
	</node>
	<node lat="58.621841666255094" lon="7.951880552750066" id="-21258">
		<tag k="alt_name" v="Stemtjønn" />
		<tag k="name" v="Stemtjørna" />
		<tag k="natural" v="water" />
		<tag k="ssr:stedsnr" v="61510" />
	</node>
	<node lat="58.59880832983905" lon="8.059294448349702" id="-21261">
		<tag k="fixme" v="multiple name tags, choose one and add the other to alt_name" />
		<tag k="name" v="Bjonetjørna;Mjonetjønn" />
		<tag k="natural" v="water" />
		<tag k="ssr:stedsnr" v="61685" />
	</node>
	<node lat="58.592805551620906" lon="8.046325007704139" id="-21263">
		<tag k="alt_name" v="Holmetjørna" />
		<tag k="name" v="Holmetjønn" />
		<tag k="natural" v="water" />
		<tag k="ssr:stedsnr" v="61687" />
	</node>
	<node lat="58.55186388493308" lon="7.724150000294523" id="-21267">
		<tag k="name" v="Stebekken" />
		<tag k="ssr:stedsnr" v="62125" />
		<tag k="waterway" v="stream" />
	</node>
	<node lat="58.68023610982896" lon="7.72109722919084" id="-21269">
		<tag k="alt_name" v="Lange Mjåvatn;Lisle Mjåvatn" />
		<tag k="name" v="Mjåvatn" />
		<tag k="natural" v="water" />
		<tag k="ssr:stedsnr" v="62188" />
	</node>
	<node lat="58.47590000069043" lon="7.589494442362631" id="-21273">
		<tag k="alt_name" v="Smørtjønn" />
		<tag k="name" v="Smørtjørn" />
		<tag k="natural" v="water" />
		<tag k="ssr:stedsnr" v="242543" />
	</node>
	<node lat="58.65451111205631" lon="7.888700004119221" id="-21278">
		<tag k="alt_name" v="Mørkevatn" />
		<tag k="name" v="Mørkevatnet" />
		<tag k="natural" v="water" />
		<tag k="ssr:stedsnr" v="243521" />
		<tag k="water" v="lake" />
	</node>
	<node lat="58.66340555335347" lon="7.960152779390166" id="-21279">
		<tag k="alt_name" v="Ytre Tvitjønn" />
		<tag k="name" v="Tvitjørna" />
		<tag k="natural" v="water" />
		<tag k="ssr:stedsnr" v="243532" />
	</node>
	<node lat="58.586916663721574" lon="7.618194446630677" id="-21281">
		<tag k="name" v="Langevatn" />
		<tag k="natural" v="water" />
		<tag k="ssr:stedsnr" v="243762" />
	</node>
	<node lat="58.605930553728534" lon="7.657180562445667" id="-21288">
		<tag k="alt_name" v="Fjelltjønn" />
		<tag k="name" v="Fjelltjørn" />
		<tag k="natural" v="water" />
		<tag k="ssr:stedsnr" v="243841" />
	</node>
	<node lat="58.61696667033492" lon="7.6960222245122205" id="-21290">
		<tag k="alt_name" v="Tvitjønnane" />
		<tag k="name" v="Tvitjørnan" />
		<tag k="natural" v="water" />
		<tag k="ssr:stedsnr" v="243828" />
		<tag k="water" v="lake" />
	</node>
	<node lat="58.51875555359564" lon="7.563422222717115" id="-21291">
		<tag k="name" v="Gåseflåkilen" />
		<tag k="place" v="locality" />
		<tag k="ssr:stedsnr" v="243865" />
	</node>
	<node lat="58.51379166890933" lon="7.6906916720153164" id="-21292">
		<tag k="alt_name" v="Grastjørn, l;Lille Grastjørn" />
		<tag k="name" v="Lille Grastjønn" />
		<tag k="natural" v="water" />
		<tag k="ssr:stedsnr" v="243867" />
	</node>
	<node lat="58.55370833113726" lon="7.640888895268691" id="-21295">
		<tag k="alt_name" v="Skjebbetjønn" />
		<tag k="name" v="Skjebbetjørn" />
		<tag k="natural" v="water" />
		<tag k="ssr:stedsnr" v="243950" />
	</node>
	<node lat="58.6713277814079" lon="7.6609027736042465" id="-21296">
		<tag k="alt_name" v="Lauvåstjønn" />
		<tag k="name" v="Lauvåstjørni" />
		<tag k="natural" v="water" />
		<tag k="ssr:stedsnr" v="244178" />
	</node>
	<node lat="58.69202777735363" lon="7.639938881284497" id="-21297">
		<tag k="name" v="Sauelibekken" />
		<tag k="ssr:stedsnr" v="244221" />
		<tag k="waterway" v="stream" />
	</node>
	<node lat="58.62311666980654" lon="8.106049998432422" id="-21298">
		<tag k="name" v="Storøya" />
		<tag k="place" v="islet" />
		<tag k="ssr:stedsnr" v="244370" />
	</node>
	<node lat="58.6063361071661" lon="7.749702774605442" id="-21312">
		<tag k="name" v="Pontetjønn" />
		<tag k="natural" v="water" />
		<tag k="ssr:stedsnr" v="93207" />
	</node>
	<node lat="58.5383194446588" lon="7.858861106611946" id="-21315">
		<tag k="name" v="Dyplan" />
		<tag k="natural" v="water" />
		<tag k="ssr:stedsnr" v="93411" />
		<tag k="water" v="pond" />
	</node>
	<node lat="58.548150003733255" lon="7.771249997118039" id="-21319">
		<tag k="name" v="Voilan" />
		<tag k="natural" v="bay" />
		<tag k="ssr:stedsnr" v="93176" />
	</node>
	<node lat="58.55741944042705" lon="7.721755553487109" id="-21342">
		<tag k="name" v="Høybrombekken" />
		<tag k="ssr:stedsnr" v="93765" />
		<tag k="waterway" v="stream" />
	</node>
	<node lat="58.490447221642306" lon="7.683030553602763" id="-21346">
		<tag k="name" v="Grasmyrtjønn" />
		<tag k="natural" v="water" />
		<tag k="ssr:stedsnr" v="93773" />
	</node>
	<node lat="58.59094721854511" lon="7.952627778839235" id="-21359">
		<tag k="name" v="Krosskilen" />
		<tag k="natural" v="bay" />
		<tag k="ssr:stedsnr" v="93626" />
	</node>
	<node lat="58.507930556504775" lon="7.679049999754503" id="-21366">
		<tag k="name" v="Torvtjønn" />
		<tag k="natural" v="water" />
		<tag k="ssr:stedsnr" v="93684" />
	</node>
	<node lat="58.60928055887382" lon="7.684336115797637" id="-21372">
		<tag k="name" v="Frubærtjønn" />
		<tag k="natural" v="water" />
		<tag k="ssr:stedsnr" v="93911" />
	</node>
	<node lat="58.624811107424414" lon="7.667208333647871" id="-21374">
		<tag k="name" v="Kotetjønn" />
		<tag k="natural" v="water" />
		<tag k="ssr:stedsnr" v="93969" />
	</node>
	<node lat="58.61237777541449" lon="8.050727780130812" id="-21378">
		<tag k="name" v="Rona" />
		<tag k="natural" v="strait" />
		<tag k="ssr:stedsnr" v="110681" />
	</node>
	<node lat="58.7266055577488" lon="7.659455563397832" id="-21380">
		<tag k="name" v="Gyvatn" />
		<tag k="natural" v="water" />
		<tag k="ssr:stedsnr" v="121018" />
		<tag k="water" v="lake" />
	</node>
	<node lat="58.47880277574245" lon="7.780336112793173" id="-21381">
		<tag k="name" v="Hodnekilen" />
		<tag k="natural" v="bay" />
		<tag k="ssr:stedsnr" v="121195" />
	</node>
	<node lat="58.46968610712293" lon="7.61844444484843" id="-21382">
		<tag k="name" v="Kallandsbekken" />
		<tag k="ssr:stedsnr" v="121583" />
		<tag k="waterway" v="stream" />
	</node>
	<node lat="58.49157500442926" lon="7.612575007951782" id="-21383">
		<tag k="alt_name" v="Trondeidtjønn" />
		<tag k="name" v="Trondeitjørni" />
		<tag k="natural" v="water" />
		<tag k="ssr:stedsnr" v="121605" />
	</node>
	<node lat="58.49062500406166" lon="7.598613896112615" id="-21384">
		<tag k="alt_name" v="Nykktjønn" />
		<tag k="name" v="Nykktjørn" />
		<tag k="natural" v="water" />
		<tag k="ssr:stedsnr" v="121606" />
	</node>
	<node lat="58.44860277699742" lon="7.566752781619723" id="-21387">
		<tag k="name" v="Lystjørn" />
		<tag k="natural" v="water" />
		<tag k="ssr:stedsnr" v="121923" />
	</node>
	<node lat="58.670355551778904" lon="7.7004111028979585" id="-21388">
		<tag k="name" v="Vassendvatnet" />
		<tag k="natural" v="water" />
		<tag k="ssr:stedsnr" v="122175" />
		<tag k="water" v="lake" />
	</node>
	<node lat="58.61327778027492" lon="7.990699992948825" id="-21389">
		<tag k="alt_name" v="Stangevatnet, store" />
		<tag k="name" v="Store Stangevatn" />
		<tag k="natural" v="water" />
		<tag k="ssr:stedsnr" v="122513" />
		<tag k="water" v="lake" />
	</node>
	<node lat="58.62908333575369" lon="8.016925005997098" id="-21390">
		<tag k="alt_name" v="Bjortjønn" />
		<tag k="name" v="Bjortjørna" />
		<tag k="natural" v="water" />
		<tag k="ssr:stedsnr" v="122527" />
	</node>
	<node lat="58.517363889947916" lon="7.776991671220091" id="-21391">
		<tag k="alt_name" v="Gullringstjønn" />
		<tag k="name" v="Gullringstjørna" />
		<tag k="natural" v="water" />
		<tag k="ssr:stedsnr" v="122407" />
	</node>
	<node lat="58.50231111457928" lon="7.751858330616465" id="-21392">
		<tag k="alt_name" v="Hesttjønn" />
		<tag k="name" v="Hesttjørna" />
		<tag k="natural" v="water" />
		<tag k="ssr:stedsnr" v="122419" />
	</node>
	<node lat="58.64675000381759" lon="8.008569449006123" id="-21393">
		<tag k="name" v="Kløvåstjørna" />
		<tag k="natural" v="water" />
		<tag k="ssr:stedsnr" v="122483" />
	</node>
	<node lat="58.54892777587708" lon="7.801044440935458" id="-21402">
		<tag k="name" v="Neset" />
		<tag k="natural" v="cape" />
		<tag k="ssr:stedsnr" v="153215" />
	</node>
	<node lat="58.63703611515799" lon="7.684516673870856" id="-21403">
		<tag k="name" v="Sindreodden" />
		<tag k="natural" v="cape" />
		<tag k="ssr:stedsnr" v="152956" />
	</node>
	<node lat="58.63621666988533" lon="7.935411113678213" id="-21410">
		<tag k="name" v="Tostritjønn" />
		<tag k="natural" v="water" />
		<tag k="ssr:stedsnr" v="153551" />
	</node>
	<node lat="58.61840277991538" lon="7.864255553908925" id="-21412">
		<tag k="name" v="Jetnansfossen" />
		<tag k="natural" v="waterfall" />
		<tag k="ssr:stedsnr" v="153560" />
	</node>
	<node lat="58.65131110973959" lon="7.808830562449949" id="-21419">
		<tag k="name" v="Bergenesstø" />
		<tag k="natural" v="cape" />
		<tag k="ssr:stedsnr" v="153456" />
	</node>
	<node lat="58.65975555558017" lon="7.810861106437761" id="-21420">
		<tag k="fixme" v="multiple name tags, choose one and add the other to alt_name" />
		<tag k="name" v="Langekast;Langekost" />
		<tag k="natural" v="bay" />
		<tag k="ssr:stedsnr" v="153459" />
	</node>
	<node lat="58.644733337775875" lon="7.906249998374286" id="-21426">
		<tag k="name" v="Svinetjønn" />
		<tag k="natural" v="water" />
		<tag k="ssr:stedsnr" v="153599" />
	</node>
	<node lat="58.587833337307465" lon="7.971844441899275" id="-21428">
		<tag k="name" v="Håtveitfossen" />
		<tag k="natural" v="waterfall" />
		<tag k="ssr:stedsnr" v="153708" />
	</node>
	<node lat="58.64977499563028" lon="7.93151111643861" id="-21429">
		<tag k="name" v="Skarkøy" />
		<tag k="place" v="island" />
		<tag k="ssr:stedsnr" v="153759" />
	</node>
	<node lat="58.62634166332721" lon="7.983222226703661" id="-21431">
		<tag k="name" v="Hallmyrbekken" />
		<tag k="ssr:stedsnr" v="153800" />
		<tag k="waterway" v="river" />
	</node>
	<node lat="58.4987444475688" lon="7.782461112803689" id="-21449">
		<tag k="name" v="Kleppneset" />
		<tag k="natural" v="cape" />
		<tag k="ssr:stedsnr" v="154053" />
	</node>
	<node lat="58.531316666285655" lon="7.788044438936566" id="-21450">
		<tag k="name" v="Straumodden" />
		<tag k="natural" v="cape" />
		<tag k="ssr:stedsnr" v="154209" />
	</node>
	<node lat="58.49788888814815" lon="7.597841662946025" id="-21460">
		<tag k="name" v="Inkjetjønn" />
		<tag k="natural" v="water" />
		<tag k="ssr:stedsnr" v="154709" />
	</node>
	<node lat="58.47878333263069" lon="7.574288896102408" id="-21461">
		<tag k="name" v="Stråndekilen" />
		<tag k="natural" v="bay" />
		<tag k="ssr:stedsnr" v="154714" />
	</node>
	<node lat="58.597391669417206" lon="7.660674997488303" id="-21470">
		<tag k="name" v="Kjøytebekken" />
		<tag k="ssr:stedsnr" v="154911" />
		<tag k="waterway" v="stream" />
	</node>
	<node lat="58.635305554940004" lon="7.592391663916405" id="-21476">
		<tag k="alt_name" v="Vasslandstjønn" />
		<tag k="name" v="Vasslandstjørnin" />
		<tag k="natural" v="water" />
		<tag k="ssr:stedsnr" v="182121" />
	</node>
	<node lat="58.615002777000186" lon="7.903758330506732" id="-21481">
		<tag k="alt_name" v="Husetjønn" />
		<tag k="name" v="Huslitjørna" />
		<tag k="natural" v="water" />
		<tag k="ssr:stedsnr" v="182522" />
	</node>
	<node lat="58.49741111413065" lon="7.617355561232262" id="-21482">
		<tag k="alt_name" v="Fosstjønn" />
		<tag k="name" v="Fosstjørn" />
		<tag k="natural" v="water" />
		<tag k="ssr:stedsnr" v="182606" />
	</node>
	<node lat="58.606727782034" lon="7.604313881367728" id="-21485">
		<tag k="alt_name" v="Langetjønn" />
		<tag k="name" v="Langtjørn" />
		<tag k="natural" v="water" />
		<tag k="ssr:stedsnr" v="182836" />
	</node>
	<node lat="58.59701666320462" lon="7.70739999221963" id="-21486">
		<tag k="alt_name" v="Anskjerrbekken;Anskjærbekken" />
		<tag k="name" v="Anskjerbekken" />
		<tag k="ssr:stedsnr" v="182848" />
		<tag k="waterway" v="stream" />
	</node>
	<node lat="58.62891944154352" lon="8.023730549203211" id="-21492">
		<tag k="alt_name" v="Surretjønn" />
		<tag k="name" v="Surtetjørna" />
		<tag k="natural" v="water" />
		<tag k="ssr:stedsnr" v="183514" />
	</node>
	<node lat="58.59462500444545" lon="8.0350777811531" id="-21494">
		<tag k="name" v="Mosbekken" />
		<tag k="ssr:stedsnr" v="183700" />
		<tag k="waterway" v="stream" />
	</node>
	<node lat="58.469308331639226" lon="7.783908327221263" id="-21499">
		<tag k="name" v="Tjønnbakktjønn" />
		<tag k="natural" v="water" />
		<tag k="ssr:stedsnr" v="214005" />
	</node>
	<node lat="58.46396388835005" lon="7.771572224351894" id="-21501">
		<tag k="name" v="Lauvåskilen" />
		<tag k="natural" v="bay" />
		<tag k="ssr:stedsnr" v="214011" />
	</node>
	<node lat="58.59478611306839" lon="7.935355559069916" id="-21506">
		<tag k="name" v="Ånestølkilen" />
		<tag k="natural" v="bay" />
		<tag k="ssr:stedsnr" v="214374" />
	</node>
	<node lat="58.56390277452148" lon="7.924713892847208" id="-21511">
		<tag k="name" v="Speråstjønn" />
		<tag k="natural" v="water" />
		<tag k="ssr:stedsnr" v="214581" />
	</node>
	<node lat="58.59513611506024" lon="7.829991666005533" id="-21532">
		<tag k="name" v="Oddebekken" />
		<tag k="ssr:stedsnr" v="214805" />
		<tag k="waterway" v="stream" />
	</node>
	<node lat="58.64194722098757" lon="7.682980555345051" id="-21537">
		<tag k="name" v="Torvtjønn" />
		<tag k="natural" v="water" />
		<tag k="ssr:stedsnr" v="214832" />
	</node>
	<node lat="58.614022222951824" lon="7.977208335569431" id="-21539">
		<tag k="name" v="Høgåspytten" />
		<tag k="natural" v="water" />
		<tag k="ssr:stedsnr" v="214889" />
		<tag k="water" v="pond" />
	</node>
	<node lat="58.66255277345589" lon="7.684916668987198" id="-21540">
		<tag k="name" v="Svinetjønn" />
		<tag k="natural" v="water" />
		<tag k="ssr:stedsnr" v="215114" />
	</node>
	<node lat="58.5191999986672" lon="7.791772216393279" id="-21542">
		<tag k="name" v="Landsverkkilen" />
		<tag k="natural" v="bay" />
		<tag k="ssr:stedsnr" v="215175" />
	</node>
	<node lat="58.606308337281895" lon="7.754075004897667" id="-21543">
		<tag k="name" v="Hurpetjønnane" />
		<tag k="natural" v="water" />
		<tag k="ssr:stedsnr" v="215308" />
		<tag k="water" v="lake" />
	</node>
	<node lat="58.46575833311946" lon="7.555530552371825" id="-21563">
		<tag k="name" v="Orrleikstjønn" />
		<tag k="natural" v="water" />
		<tag k="ssr:stedsnr" v="215632" />
	</node>
	<node lat="58.64290000313315" lon="7.626055563921403" id="-21572">
		<tag k="name" v="Sandvik" />
		<tag k="natural" v="bay" />
		<tag k="ssr:stedsnr" v="215982" />
	</node>
	<node lat="58.590794440050175" lon="8.08278055830592" id="-21580">
		<tag k="name" v="Kleivtjønn" />
		<tag k="natural" v="water" />
		<tag k="ssr:stedsnr" v="231529" />
	</node>
	<node lat="58.49160277480344" lon="7.526588881967805" id="-21583">
		<tag k="alt_name" v="Vakseringen" />
		<tag k="name" v="Vakseringstjørn" />
		<tag k="natural" v="water" />
		<tag k="ssr:stedsnr" v="243599" />
	</node>
	<node lat="58.492172223481596" lon="7.567858325107997" id="-21584">
		<tag k="alt_name" v="Kosvatn" />
		<tag k="name" v="Kosvatnet" />
		<tag k="natural" v="water" />
		<tag k="ssr:stedsnr" v="243600" />
		<tag k="water" v="lake" />
	</node>
	<node lat="58.57535000186796" lon="7.924077777956244" id="-21585">
		<tag k="name" v="Tåketjønn" />
		<tag k="natural" v="water" />
		<tag k="ssr:stedsnr" v="243737" />
	</node>
	<node lat="58.57000555305256" lon="7.986475004677151" id="-21590">
		<tag k="alt_name" v="Andetjønn" />
		<tag k="name" v="Annetjørna" />
		<tag k="natural" v="water" />
		<tag k="ssr:stedsnr" v="244681" />
	</node>
	<node lat="58.552038886163615" lon="7.776180558578916" id="-21591">
		<tag k="alt_name" v="Hornnesvika" />
		<tag k="name" v="Hornneskilen" />
		<tag k="natural" v="bay" />
		<tag k="ssr:stedsnr" v="244683" />
	</node>
	<node lat="58.55714444244445" lon="7.803313883263322" id="-21592">
		<tag k="name" v="Bjoråna" />
		<tag k="ssr:stedsnr" v="244684" />
		<tag k="waterway" v="river" />
	</node>
	<node lat="58.68018332916681" lon="7.743269447795785" id="-21595">
		<tag k="name" v="Ulstjønn" />
		<tag k="natural" v="water" />
		<tag k="ssr:stedsnr" v="456290" />
	</node>
	<node lat="58.61404722448229" lon="7.798541658488589" id="-21596">
		<tag k="name" v="Varpestraumstøa" />
		<tag k="natural" v="cape" />
		<tag k="ssr:stedsnr" v="456257" />
	</node>
	<node lat="58.64144999906239" lon="7.627038893305764" id="-21600">
		<tag k="name" v="Fiskodden" />
		<tag k="natural" v="cape" />
		<tag k="ssr:stedsnr" v="456978" />
	</node>
	<node lat="58.471252773510166" lon="7.792294446373686" id="-21601">
		<tag k="name" v="Reiodden" />
		<tag k="natural" v="cape" />
		<tag k="ssr:stedsnr" v="457001" />
	</node>
	<node lat="58.54104444714905" lon="7.727499992826559" id="-21606">
		<tag k="name" v="Våkåsbekken" />
		<tag k="ssr:stedsnr" v="457186" />
		<tag k="waterway" v="stream" />
	</node>
	<node lat="58.63678611080408" lon="7.749586102861014" id="-21623">
		<tag k="name" v="Stemtjønn østre" />
		<tag k="natural" v="water" />
		<tag k="old_name" v="Stemtjønn ostre" />
		<tag k="ssr:stedsnr" v="457354" />
	</node>
	<node lat="58.58838333392742" lon="7.956736110924803" id="-21643">
		<tag k="name" v="Sauekilen" />
		<tag k="natural" v="bay" />
		<tag k="ssr:stedsnr" v="457681" />
	</node>
	<node lat="58.58508611198142" lon="7.956855554417337" id="-21645">
		<tag k="name" v="Slettekilen" />
		<tag k="natural" v="bay" />
		<tag k="ssr:stedsnr" v="457687" />
	</node>
	<node lat="58.46950833246033" lon="7.586580562379035" id="-21661">
		<tag k="name" v="Flekefossen" />
		<tag k="natural" v="waterfall" />
		<tag k="ssr:stedsnr" v="457634" />
	</node>
	<node lat="58.46693888655578" lon="7.586477780573739" id="-21664">
		<tag k="name" v="Duldetjønnbekken" />
		<tag k="ssr:stedsnr" v="457650" />
		<tag k="waterway" v="stream" />
	</node>
	<node lat="58.63812222036142" lon="7.974991666639733" id="-21666">
		<tag k="name" v="Hylane" />
		<tag k="natural" v="water" />
		<tag k="ssr:stedsnr" v="457652" />
		<tag k="water" v="lake" />
	</node>
	<node lat="58.513716662909154" lon="7.636411105017432" id="-21672">
		<tag k="name" v="Molandsfossen" />
		<tag k="natural" v="waterfall" />
		<tag k="ssr:stedsnr" v="457757" />
	</node>
	<node lat="58.47039166836373" lon="7.623355550059959" id="-21673">
		<tag k="name" v="Tvørrbekk" />
		<tag k="ssr:stedsnr" v="457792" />
		<tag k="waterway" v="stream" />
	</node>
	<node lat="58.550919444594655" lon="7.676949995365637" id="-21680">
		<tag k="name" v="Stiefossen" />
		<tag k="natural" v="waterfall" />
		<tag k="ssr:stedsnr" v="457936" />
	</node>
	<node lat="58.61991944418259" lon="7.678538890031131" id="-21682">
		<tag k="name" v="Kronevatn" />
		<tag k="natural" v="water" />
		<tag k="ssr:stedsnr" v="457947" />
		<tag k="water" v="lake" />
	</node>
	<node lat="58.613002778266534" lon="7.632130547776874" id="-21685">
		<tag k="name" v="Dapen" />
		<tag k="natural" v="water" />
		<tag k="ssr:stedsnr" v="457951" />
		<tag k="water" v="pond" />
	</node>
	<node lat="58.61178055667014" lon="7.64385278116516" id="-21686">
		<tag k="name" v="Blikelaget" />
		<tag k="natural" v="strait" />
		<tag k="ssr:stedsnr" v="457952" />
	</node>
	<node lat="58.461972222067445" lon="7.794722229059675" id="-21690">
		<tag k="name" v="Danskeodden" />
		<tag k="natural" v="cape" />
		<tag k="ssr:stedsnr" v="275015" />
	</node>
	<node lat="58.49686944238629" lon="7.760577773839614" id="-21691">
		<tag k="name" v="Voretjønn" />
		<tag k="natural" v="water" />
		<tag k="ssr:stedsnr" v="275021" />
	</node>
	<node lat="58.623619442162344" lon="7.8794638856339345" id="-21715">
		<tag k="name" v="Stafossen" />
		<tag k="natural" v="waterfall" />
		<tag k="ssr:stedsnr" v="275516" />
	</node>
	<node lat="58.617025002609424" lon="7.909897218810411" id="-21718">
		<tag k="name" v="Øyetjønn" />
		<tag k="natural" v="water" />
		<tag k="ssr:stedsnr" v="275493" />
	</node>
	<node lat="58.49240833034552" lon="7.575180558670602" id="-21719">
		<tag k="name" v="Sandnesodden" />
		<tag k="natural" v="cape" />
		<tag k="ssr:stedsnr" v="275611" />
	</node>
	<node lat="58.490180556112925" lon="7.566458331927498" id="-21720">
		<tag k="name" v="Skrivedalsodden" />
		<tag k="natural" v="cape" />
		<tag k="ssr:stedsnr" v="275612" />
	</node>
	<node lat="58.61541666603639" lon="7.997008341114711" id="-21721">
		<tag k="name" v="Vikstølneset" />
		<tag k="natural" v="cape" />
		<tag k="ssr:stedsnr" v="275614" />
	</node>
	<node lat="58.615522219803154" lon="7.990705549777903" id="-21722">
		<tag k="name" v="Neset" />
		<tag k="natural" v="cape" />
		<tag k="ssr:stedsnr" v="275615" />
	</node>
	<node lat="58.62408332934158" lon="7.949947216115234" id="-21723">
		<tag k="name" v="Tjønnslåttjønn" />
		<tag k="natural" v="water" />
		<tag k="ssr:stedsnr" v="275618" />
	</node>
	<node lat="58.47924166965811" lon="7.55766111148183" id="-21724">
		<tag k="name" v="Loppstjønn" />
		<tag k="natural" v="water" />
		<tag k="ssr:stedsnr" v="275623" />
	</node>
	<node lat="58.610722221780634" lon="7.581919447290337" id="-21728">
		<tag k="name" v="Glyvrelona" />
		<tag k="natural" v="bay" />
		<tag k="ssr:stedsnr" v="275677" />
	</node>
	<node lat="58.480502778923494" lon="7.5823361182225675" id="-21737">
		<tag k="name" v="Kjostekil" />
		<tag k="natural" v="bay" />
		<tag k="ssr:stedsnr" v="275711" />
	</node>
	<node lat="58.46491944684171" lon="7.548791675104736" id="-21752">
		<tag k="name" v="Hareholttjørni" />
		<tag k="natural" v="water" />
		<tag k="ssr:stedsnr" v="303573" />
	</node>
	<node lat="58.489605013637764" lon="7.533569724930754" id="-21753">
		<tag k="alt_name" v="Kroktjønn" />
		<tag k="name" v="Kroktjørn" />
		<tag k="natural" v="water" />
		<tag k="ssr:stedsnr" v="303597" />
	</node>
	<node lat="58.622874999234035" lon="7.70135834156388" id="-21754">
		<tag k="alt_name" v="Floskheitjønn" />
		<tag k="name" v="Floskheitjørn" />
		<tag k="natural" v="water" />
		<tag k="ssr:stedsnr" v="303808" />
	</node>
	<node lat="58.71393817433023" lon="7.645915374064747" id="-21757">
		<tag k="name" v="Tjovhellertjørni" />
		<tag k="natural" v="water" />
		<tag k="ssr:stedsnr" v="304222" />
	</node>
	<node lat="58.59081944359602" lon="7.729577780636193" id="-21761">
		<tag k="name" v="Kaldbekk" />
		<tag k="ssr:stedsnr" v="304707" />
		<tag k="waterway" v="stream" />
	</node>
	<node lat="58.458405554641594" lon="7.794341673366572" id="-21769">
		<tag k="name" v="Kvernhuslona" />
		<tag k="natural" v="water" />
		<tag k="ssr:stedsnr" v="335012" />
		<tag k="water" v="lake" />
	</node>
	<node lat="58.624219446984604" lon="7.788861119148549" id="-21777">
		<tag k="name" v="Krosstø" />
		<tag k="natural" v="cape" />
		<tag k="ssr:stedsnr" v="335300" />
	</node>
	<node lat="58.57770833679091" lon="7.8956249992771825" id="-21793">
		<tag k="name" v="Undelandstangen" />
		<tag k="natural" v="cape" />
		<tag k="ssr:stedsnr" v="335630" />
	</node>
	<node lat="58.57003055528378" lon="8.010294441639497" id="-21797">
		<tag k="name" v="Døleblæra" />
		<tag k="natural" v="water" />
		<tag k="ssr:stedsnr" v="335697" />
	</node>
	<node lat="58.61338332941736" lon="7.637733327452636" id="-21800">
		<tag k="name" v="Paddetjønn" />
		<tag k="natural" v="water" />
		<tag k="ssr:stedsnr" v="335960" />
	</node>
	<node lat="58.480255555105295" lon="7.602616658911789" id="-21810">
		<tag k="name" v="Bergva" />
		<tag k="natural" v="shoal" />
		<tag k="place" v="locality" />
		<tag k="ssr:stedsnr" v="336700" />
	</node>
	<node lat="58.54936388574383" lon="7.662847216707219" id="-21811">
		<tag k="name" v="Rafossbekken" />
		<tag k="ssr:stedsnr" v="336803" />
		<tag k="waterway" v="stream" />
	</node>
	<node lat="58.54059722297766" lon="7.722758341483677" id="-21812">
		<tag k="name" v="Svartetjønn" />
		<tag k="natural" v="water" />
		<tag k="ssr:stedsnr" v="336810" />
	</node>
	<node lat="58.49288888840938" lon="7.688330547767129" id="-21813">
		<tag k="name" v="Grastjønn" />
		<tag k="natural" v="water" />
		<tag k="ssr:stedsnr" v="336816" />
	</node>
	<node lat="58.525155555761145" lon="7.527266672983698" id="-21821">
		<tag k="name" v="Sollidalsbekken" />
		<tag k="ssr:stedsnr" v="336713" />
		<tag k="waterway" v="stream" />
	</node>
	<node lat="58.57178055582124" lon="8.015147218531123" id="-21829">
		<tag k="name" v="Ulsgrendtjønn" />
		<tag k="natural" v="water" />
		<tag k="ssr:stedsnr" v="474728" />
	</node>
	<node lat="58.60239166673097" lon="8.063397214557838" id="-21837">
		<tag k="name" v="Lietjønn" />
		<tag k="natural" v="water" />
		<tag k="ssr:stedsnr" v="474470" />
	</node>
	<node lat="58.64547778077554" lon="7.6482277838044626" id="-21846">
		<tag k="alt_name" v="Husetjønn" />
		<tag k="name" v="Husetjørn" />
		<tag k="natural" v="water" />
		<tag k="ssr:stedsnr" v="364173" />
	</node>
	<node lat="58.62211388870513" lon="8.007508340730492" id="-21849">
		<tag k="alt_name" v="Lisleøygardsvatn" />
		<tag k="name" v="Lisleøygardsvatnet" />
		<tag k="natural" v="water" />
		<tag k="ssr:stedsnr" v="364551" />
	</node>
	<node lat="58.494374997823954" lon="7.6745166634648045" id="-21851">
		<tag k="alt_name" v="Ørnlivatn" />
		<tag k="name" v="Ørnelivatnet" />
		<tag k="natural" v="water" />
		<tag k="ssr:stedsnr" v="364608" />
	</node>
	<node lat="58.48514166353233" lon="7.603136117857284" id="-21852">
		<tag k="alt_name" v="Vasslandstjønn" />
		<tag k="name" v="Vasslandstjørn" />
		<tag k="natural" v="water" />
		<tag k="ssr:stedsnr" v="364598" />
	</node>
	<node lat="58.58790278041695" lon="8.055663884387917" id="-21853">
		<tag k="name" v="Nygardsbekken" />
		<tag k="ssr:stedsnr" v="364710" />
		<tag k="waterway" v="stream" />
	</node>
	<node lat="58.63446667031348" lon="8.003438897292211" id="-21858">
		<tag k="name" v="Kolbjørtjørna" />
		<tag k="natural" v="water" />
		<tag k="ssr:stedsnr" v="365551" />
	</node>
	<node lat="58.62728690254352" lon="8.099722674067195" id="-21859">
		<tag k="alt_name" v="Førevatnet" />
		<tag k="name" v="Førevatn" />
		<tag k="natural" v="water" />
		<tag k="ssr:stedsnr" v="365554" />
		<tag k="water" v="lake" />
	</node>
	<node lat="58.533658334570035" lon="7.78809445124199" id="-21864">
		<tag k="name" v="Hestvågkilen" />
		<tag k="natural" v="bay" />
		<tag k="ssr:stedsnr" v="396131" />
	</node>
	<node lat="58.608944447825905" lon="7.756297225517811" id="-21874">
		<tag k="name" v="Tommetjønn" />
		<tag k="natural" v="water" />
		<tag k="ssr:stedsnr" v="396212" />
	</node>
	<node lat="58.59275833354283" lon="7.9426138834606865" id="-21883">
		<tag k="name" v="Sukkestølkilen" />
		<tag k="natural" v="bay" />
		<tag k="ssr:stedsnr" v="396398" />
	</node>
	<node lat="58.64063333709492" lon="7.86471110478375" id="-21889">
		<tag k="name" v="Krobekk" />
		<tag k="ssr:stedsnr" v="396540" />
		<tag k="waterway" v="stream" />
	</node>
	<node lat="58.64494166401634" lon="7.748499996908652" id="-21891">
		<tag k="name" v="Skjebbetjønn" />
		<tag k="natural" v="water" />
		<tag k="ssr:stedsnr" v="396280" />
	</node>
	<node lat="58.56400497060098" lon="7.805802424159058" id="-21892">
		<tag k="name" v="Sauetjønn" />
		<tag k="natural" v="water" />
		<tag k="ssr:stedsnr" v="396283" />
	</node>
	<node lat="58.65680278151399" lon="7.816324998332384" id="-21894">
		<tag k="name" v="Ropåsnes" />
		<tag k="natural" v="cape" />
		<tag k="ssr:stedsnr" v="396431" />
	</node>
	<node lat="58.61252777728221" lon="7.938811117319281" id="-21897">
		<tag k="name" v="Sauebekken" />
		<tag k="ssr:stedsnr" v="396493" />
		<tag k="waterway" v="stream" />
	</node>
	<node lat="58.49815833622204" lon="7.563063891284213" id="-21902">
		<tag k="name" v="Rona" />
		<tag k="natural" v="water" />
		<tag k="ssr:stedsnr" v="396613" />
		<tag k="water" v="lake" />
	</node>
	<node lat="58.464602778814616" lon="7.579633329368954" id="-21908">
		<tag k="name" v="Nedre Snikehøl" />
		<tag k="place" v="locality" />
		<tag k="ssr:stedsnr" v="396631" />
	</node>
	<node lat="58.57735000372711" lon="7.890438884966725" id="-21910">
		<tag k="name" v="Storøy" />
		<tag k="place" v="island" />
		<tag k="ssr:stedsnr" v="396597" />
	</node>
	<node lat="58.66074444369252" lon="7.937677777443986" id="-21911">
		<tag k="name" v="Geiruvstjønn" />
		<tag k="natural" v="water" />
		<tag k="ssr:stedsnr" v="396703" />
	</node>
	<node lat="58.53650000448165" lon="7.5586277794230226" id="-21915">
		<tag k="name" v="Bekkekrokane" />
		<tag k="ssr:stedsnr" v="396709" />
		<tag k="waterway" v="stream" />
	</node>
	<node lat="58.64745555785749" lon="7.933916661327726" id="-21916">
		<tag k="name" v="Stompen" />
		<tag k="place" v="islet" />
		<tag k="ssr:stedsnr" v="396711" />
	</node>
	<node lat="58.64764166741817" lon="7.928161106680021" id="-21917">
		<tag k="name" v="Terenesodden" />
		<tag k="natural" v="cape" />
		<tag k="ssr:stedsnr" v="396712" />
	</node>
	<node lat="58.48613333054729" lon="7.725299997725539" id="-21928">
		<tag k="name" v="Vinbekk" />
		<tag k="ssr:stedsnr" v="396816" />
		<tag k="waterway" v="stream" />
	</node>
	<node lat="58.65005833597255" lon="7.994841674690063" id="-21929">
		<tag k="name" v="Karistjønn" />
		<tag k="natural" v="water" />
		<tag k="ssr:stedsnr" v="396823" />
	</node>
	<node lat="58.490883336086206" lon="7.668202778357392" id="-21932">
		<tag k="name" v="Slarpemyrpytten" />
		<tag k="natural" v="water" />
		<tag k="ssr:stedsnr" v="396842" />
		<tag k="water" v="pond" />
	</node>
	<node lat="58.53712500297019" lon="7.689469441779178" id="-21936">
		<tag k="name" v="Katthøl" />
		<tag k="place" v="locality" />
		<tag k="ssr:stedsnr" v="396892" />
	</node>
	<node lat="58.57062222105014" lon="7.611561107871878" id="-21941">
		<tag k="alt_name" v="Øyvatn, nedre" />
		<tag k="name" v="Nedre Øyvatn" />
		<tag k="natural" v="water" />
		<tag k="ssr:stedsnr" v="485745" />
	</node>
	<node lat="58.52100000203936" lon="7.599483341153732" id="-21945">
		<tag k="alt_name" v="Nedre Orretjønn;Orretjørn, nedre" />
		<tag k="name" v="Nedre Orretjørn" />
		<tag k="natural" v="water" />
		<tag k="ssr:stedsnr" v="485994" />
	</node>
	<node lat="58.6738583369503" lon="7.68520833600256" id="-21947">
		<tag k="alt_name" v="Krokebekken" />
		<tag k="name" v="Krokbekken" />
		<tag k="ssr:stedsnr" v="486154" />
		<tag k="waterway" v="stream" />
	</node>
	<node lat="58.642652107194166" lon="7.59177894568023" id="-21965">
		<tag k="alt_name" v="Geitåsheitjønn" />
		<tag k="name" v="Geitåsheitjørnin" />
		<tag k="natural" v="water" />
		<tag k="ssr:stedsnr" v="425151" />
		<tag k="water" v="lake" />
	</node>
	<node lat="58.660813885301884" lon="7.605516665812304" id="-21968">
		<tag k="name" v="Lislebekk" />
		<tag k="ssr:stedsnr" v="425165" />
		<tag k="waterway" v="stream" />
	</node>
	<node lat="58.46942777856467" lon="7.737369443817933" id="-21970">
		<tag k="name" v="Skranevatn" />
		<tag k="natural" v="water" />
		<tag k="ssr:stedsnr" v="425248" />
	</node>
	<node lat="58.614736111478344" lon="7.940591669897307" id="-21972">
		<tag k="alt_name" v="Tobakktjønn" />
		<tag k="name" v="Tobakkstjørna" />
		<tag k="natural" v="water" />
		<tag k="ssr:stedsnr" v="425512" />
	</node>
	<node lat="58.61174999635811" lon="7.979055556457097" id="-21973">
		<tag k="alt_name" v="Stangevatnet, l" />
		<tag k="name" v="Lisle Stangevatn" />
		<tag k="natural" v="water" />
		<tag k="ssr:stedsnr" v="425514" />
	</node>
	<node lat="58.52924999831467" lon="7.746263880562131" id="-21976">
		<tag k="alt_name" v="Breidalstjønn" />
		<tag k="name" v="Breidalstjørna" />
		<tag k="natural" v="water" />
		<tag k="ssr:stedsnr" v="425656" />
	</node>
	<node lat="58.56140555967444" lon="7.599050002058965" id="-21979">
		<tag k="name" v="Øyvassbekken" />
		<tag k="ssr:stedsnr" v="425824" />
		<tag k="waterway" v="stream" />
	</node>
	<node lat="58.68666111247732" lon="7.688988889157787" id="-21981">
		<tag k="name" v="Skjerka" />
		<tag k="ssr:stedsnr" v="426146" />
		<tag k="waterway" v="river" />
	</node>
	<node lat="58.50428055979296" lon="7.673941658213949" id="-21993">
		<tag k="name" v="Storestem" />
		<tag k="natural" v="water" />
		<tag k="ssr:stedsnr" v="426906" />
	</node>
	<node lat="58.46917499576818" lon="7.731094436416256" id="-21999">
		<tag k="name" v="Kolbrandslona" />
		<tag k="natural" v="water" />
		<tag k="ssr:stedsnr" v="457105" />
		<tag k="water" v="lake" />
	</node>
	<node lat="58.4970527744625" lon="7.745033329698036" id="-22009">
		<tag k="name" v="Kvernetjønn" />
		<tag k="natural" v="water" />
		<tag k="ssr:stedsnr" v="457016" />
	</node>
	<node lat="58.570952777285896" lon="7.819019440485707" id="-22026">
		<tag k="name" v="Teinelagshyl" />
		<tag k="place" v="locality" />
		<tag k="ssr:stedsnr" v="457307" />
	</node>
	<node lat="58.59823333373746" lon="7.942105560704587" id="-22031">
		<tag k="name" v="Sundkjerrkilen" />
		<tag k="natural" v="bay" />
		<tag k="ssr:stedsnr" v="457369" />
	</node>
	<node lat="58.60830000389739" lon="7.947197223635133" id="-22047">
		<tag k="name" v="Suvafossen" />
		<tag k="natural" v="waterfall" />
		<tag k="ssr:stedsnr" v="457840" />
	</node>
	<node lat="58.608799997313085" lon="7.987444445358626" id="-22049">
		<tag k="name" v="Vikstølkilen" />
		<tag k="natural" v="bay" />
		<tag k="ssr:stedsnr" v="457849" />
	</node>
	<node lat="58.65590277555061" lon="7.937138895768627" id="-22051">
		<tag k="name" v="Breierkilen" />
		<tag k="natural" v="bay" />
		<tag k="ssr:stedsnr" v="457708" />
	</node>
	<node lat="58.547688889499995" lon="7.780733330586935" id="-22056">
		<tag k="name" v="Helgeholmen" />
		<tag k="place" v="islet" />
		<tag k="ssr:stedsnr" v="457774" />
	</node>
	<node lat="58.63341944203713" lon="7.585924992639984" id="-22064">
		<tag k="alt_name" v="Stemtjønn" />
		<tag k="name" v="Stemtjørn" />
		<tag k="natural" v="water" />
		<tag k="ssr:stedsnr" v="485108" />
	</node>
	<node lat="58.46115555982832" lon="7.574416667947401" id="-22069">
		<tag k="name" v="Øyvatnet" />
		<tag k="natural" v="water" />
		<tag k="ssr:stedsnr" v="485517" />
	</node>
	<node lat="58.474297221719794" lon="7.578497217292636" id="-22070">
		<tag k="alt_name" v="Hattefoss" />
		<tag k="name" v="Hattfoss" />
		<tag k="natural" v="waterfall" />
		<tag k="ssr:stedsnr" v="485524" />
	</node>
	<node lat="58.46191110937154" lon="7.651008341809932" id="-22072">
		<tag k="alt_name" v="Ydstevatn" />
		<tag k="name" v="Ystevatnet" />
		<tag k="natural" v="water" />
		<tag k="ssr:stedsnr" v="485908" />
		<tag k="water" v="lake" />
	</node>
	<node lat="58.46233333683451" lon="7.800650006066546" id="-22085">
		<tag k="name" v="Hodneøya" />
		<tag k="place" v="island" />
		<tag k="ssr:stedsnr" v="517015" />
	</node>
	<node lat="58.64053055598037" lon="7.685313884276076" id="-22089">
		<tag k="name" v="Trogetjønn" />
		<tag k="natural" v="water" />
		<tag k="ssr:stedsnr" v="516963" />
	</node>
	<node lat="58.68720555799855" lon="7.726999997925932" id="-22095">
		<tag k="name" v="Øytjønn" />
		<tag k="natural" v="water" />
		<tag k="ssr:stedsnr" v="517288" />
	</node>
	<node lat="58.61369444232141" lon="7.927036111487987" id="-22103">
		<tag k="name" v="Grindalsbekken" />
		<tag k="ssr:stedsnr" v="517526" />
		<tag k="waterway" v="stream" />
	</node>
	<node lat="58.633611110952835" lon="7.9061694474637" id="-22106">
		<tag k="name" v="Djupetjønn" />
		<tag k="natural" v="water" />
		<tag k="ssr:stedsnr" v="517539" />
	</node>
	<node lat="58.614488888985825" lon="7.642230549689388" id="-22122">
		<tag k="name" v="Sundet" />
		<tag k="natural" v="strait" />
		<tag k="ssr:stedsnr" v="517963" />
	</node>
	<node lat="58.509061111040594" lon="7.630586117677078" id="-22144">
		<tag k="name" v="Svarthøl" />
		<tag k="place" v="locality" />
		<tag k="ssr:stedsnr" v="518764" />
	</node>
	<node lat="58.46921067468928" lon="7.567189679280612" id="-22159">
		<tag k="alt_name" v="Supptjønn;Øvre Supptjønn" />
		<tag k="name" v="Supptjørnane" />
		<tag k="natural" v="water" />
		<tag k="ssr:stedsnr" v="546528" />
		<tag k="water" v="lake" />
	</node>
	<node lat="58.45870555120547" lon="7.6857722150938805" id="-22165">
		<tag k="alt_name" v="Store Mjåvatn;Mjavatnet, store" />
		<tag k="name" v="Store Mjåvatnet" />
		<tag k="natural" v="water" />
		<tag k="ssr:stedsnr" v="546910" />
		<tag k="water" v="lake" />
	</node>
	<node lat="58.45843927401673" lon="7.687617801792275" id="-22166">
		<tag k="alt_name" v="Lille Mjåvatn;Mjavatnet, l" />
		<tag k="name" v="Lille Mjåvatnet" />
		<tag k="natural" v="water" />
		<tag k="ssr:stedsnr" v="546911" />
		<tag k="water" v="lake" />
	</node>
	<node lat="58.53019444714383" lon="7.654722228659453" id="-22167">
		<tag k="alt_name" v="Murtetjørn" />
		<tag k="name" v="Murtetjønn" />
		<tag k="natural" v="water" />
		<tag k="ssr:stedsnr" v="546980" />
	</node>
	<node lat="58.64670555841201" lon="7.728599993809537" id="-22168">
		<tag k="alt_name" v="Knutsdalstjønn" />
		<tag k="name" v="Knutsdaltjørna" />
		<tag k="natural" v="water" />
		<tag k="ssr:stedsnr" v="547549" />
	</node>
	<node lat="58.46407222570077" lon="7.773730558050903" id="-22173">
		<tag k="name" v="Kreklingøya" />
		<tag k="place" v="island" />
		<tag k="ssr:stedsnr" v="578011" />
	</node>
	<node lat="58.498830557891125" lon="7.754913880745228" id="-22175">
		<tag k="name" v="Kallefoss" />
		<tag k="natural" v="waterfall" />
		<tag k="ssr:stedsnr" v="578021" />
	</node>
	<node lat="58.47772499975548" lon="7.735583332779226" id="-22186">
		<tag k="name" v="Vestre Voretjønn" />
		<tag k="natural" v="water" />
		<tag k="ssr:stedsnr" v="578157" />
	</node>
	<node lat="58.64824444751082" lon="7.738599993370349" id="-22196">
		<tag k="name" v="Skarkedalstjønn" />
		<tag k="natural" v="water" />
		<tag k="ssr:stedsnr" v="578412" />
	</node>
	<node lat="58.55614444633509" lon="7.895802779061519" id="-22198">
		<tag k="name" v="Holmetjønn" />
		<tag k="natural" v="water" />
		<tag k="ssr:stedsnr" v="578432" />
	</node>
	<node lat="58.65410555185169" lon="7.922961118952936" id="-22203">
		<tag k="name" v="Nesane" />
		<tag k="natural" v="cape" />
		<tag k="ssr:stedsnr" v="578703" />
	</node>
	<node lat="58.60449444869447" lon="7.810780547408049" id="-22206">
		<tag k="name" v="Evjeneset" />
		<tag k="natural" v="cape" />
		<tag k="ssr:stedsnr" v="578746" />
	</node>
	<node lat="58.52589444801648" lon="7.697583337306082" id="-22208">
		<tag k="name" v="Tveitåna" />
		<tag k="ssr:stedsnr" v="578902" />
		<tag k="waterway" v="stream" />
	</node>
	<node lat="58.51136389009803" lon="7.547244449592261" id="-22216">
		<tag k="name" v="Sollidalsbekken" />
		<tag k="ssr:stedsnr" v="578652" />
		<tag k="waterway" v="stream" />
	</node>
	<node lat="58.65648333444393" lon="7.960008338461032" id="-22218">
		<tag k="name" v="Tjønnhomtjønn" />
		<tag k="natural" v="water" />
		<tag k="ssr:stedsnr" v="578806" />
	</node>
	<node lat="58.58424166272672" lon="7.704019436716877" id="-22224">
		<tag k="name" v="Hestneset" />
		<tag k="natural" v="cape" />
		<tag k="ssr:stedsnr" v="578853" />
	</node>
	<node lat="58.61742777349217" lon="8.070177773853754" id="-22231">
		<tag k="name" v="Brokevatn" />
		<tag k="natural" v="water" />
		<tag k="ssr:stedsnr" v="595603" />
		<tag k="water" v="lake" />
	</node>
	<node lat="58.715016668234725" lon="7.669177781038522" id="-22236">
		<tag k="name" v="Krolandet" />
		<tag k="natural" v="beach" />
		<tag k="ssr:stedsnr" v="699090" />
	</node>
	<node lat="58.49278611328251" lon="7.780077783495255" id="-22238">
		<tag k="name" v="Sandbekk" />
		<tag k="ssr:stedsnr" v="699053" />
		<tag k="waterway" v="stream" />
	</node>
	<node lat="58.614838892805" lon="7.813177778510062" id="-22241">
		<tag k="name" v="Svarttjønn" />
		<tag k="natural" v="water" />
		<tag k="ssr:stedsnr" v="699219" />
	</node>
	<node lat="58.65924999954792" lon="7.757550000574547" id="-22243">
		<tag k="name" v="Sauefoss" />
		<tag k="natural" v="waterfall" />
		<tag k="ssr:stedsnr" v="699256" />
	</node>
	<node lat="58.62470000419332" lon="7.941852774625624" id="-22249">
		<tag k="name" v="Orregardstjønn" />
		<tag k="natural" v="water" />
		<tag k="ssr:stedsnr" v="699485" />
	</node>
	<node lat="58.622227776160486" lon="7.96123610511106" id="-22255">
		<tag k="name" v="Igletjønn" />
		<tag k="natural" v="water" />
		<tag k="ssr:stedsnr" v="699623" />
	</node>
	<node lat="58.63526667039645" lon="7.969516669229506" id="-22267">
		<tag k="name" v="Nesane" />
		<tag k="natural" v="cape" />
		<tag k="ssr:stedsnr" v="699655" />
	</node>
	<node lat="58.65055278089754" lon="8.00108056196019" id="-22270">
		<tag k="name" v="Orretjønn" />
		<tag k="natural" v="water" />
		<tag k="ssr:stedsnr" v="699833" />
	</node>
	<node lat="58.57664999828934" lon="7.67454443812654" id="-22275">
		<tag k="name" v="Heddestøbekken" />
		<tag k="ssr:stedsnr" v="606756" />
		<tag k="waterway" v="stream" />
	</node>
	<node lat="58.63118610896066" lon="7.688877778230644" id="-22277">
		<tag k="alt_name" v="Lonane" />
		<tag k="name" v="Lonan" />
		<tag k="place" v="locality" />
		<tag k="ssr:stedsnr" v="606816" />
	</node>
	<node lat="58.608866666703584" lon="7.61608888999598" id="-22278">
		<tag k="alt_name" v="Fjalebekk" />
		<tag k="name" v="Fjelebekk" />
		<tag k="ssr:stedsnr" v="606846" />
		<tag k="waterway" v="stream" />
	</node>
	<node lat="58.57446666969774" lon="7.73233333658219" id="-22279">
		<tag k="name" v="Bjåneset" />
		<tag k="natural" v="cape" />
		<tag k="ssr:stedsnr" v="699808" />
	</node>
	<node lat="58.64126666643933" lon="7.951361109964143" id="-22282">
		<tag k="alt_name" v="Høvringsvatn" />
		<tag k="name" v="Høvringsvatnet" />
		<tag k="natural" v="water" />
		<tag k="ssr:stedsnr" v="607505" />
		<tag k="water" v="lake" />
	</node>
	<node lat="58.60466666413615" lon="8.03729999893033" id="-22284">
		<tag k="alt_name" v="Hovvatnet, l" />
		<tag k="name" v="Lille Hovvatn" />
		<tag k="natural" v="water" />
		<tag k="ssr:stedsnr" v="607709" />
	</node>
	<node lat="58.50265833249076" lon="7.759369452964783" id="-22289">
		<tag k="name" v="Tvitjønn" />
		<tag k="natural" v="water" />
		<tag k="ssr:stedsnr" v="700049" />
	</node>
	<node lat="58.50799721787605" lon="7.83145555421635" id="-22290">
		<tag k="name" v="Kovebekken" />
		<tag k="ssr:stedsnr" v="700055" />
		<tag k="waterway" v="stream" />
	</node>
	<node lat="58.550027780009486" lon="7.772097227619274" id="-22293">
		<tag k="name" v="Sotevika" />
		<tag k="natural" v="bay" />
		<tag k="ssr:stedsnr" v="700237" />
	</node>
	<node lat="58.622213887954736" lon="7.7933444365244595" id="-22298">
		<tag k="name" v="Lensmannsneset" />
		<tag k="natural" v="cape" />
		<tag k="ssr:stedsnr" v="700282" />
	</node>
	<node lat="58.641405556569346" lon="7.809352784082086" id="-22301">
		<tag k="name" v="Syrtveitfossane" />
		<tag k="natural" v="waterfall" />
		<tag k="ssr:stedsnr" v="700381" />
	</node>
	<node lat="58.59287777500648" lon="7.970894446246389" id="-22312">
		<tag k="name" v="Grovekilen" />
		<tag k="natural" v="bay" />
		<tag k="ssr:stedsnr" v="700695" />
	</node>
	<node lat="58.6589361137285" lon="7.9165472212987025" id="-22313">
		<tag k="name" v="Guddalsvatn" />
		<tag k="natural" v="water" />
		<tag k="ssr:stedsnr" v="700739" />
		<tag k="water" v="lake" />
	</node>
	<node lat="58.5333611144378" lon="7.5440083344121485" id="-22314">
		<tag k="name" v="Heietjønn" />
		<tag k="natural" v="water" />
		<tag k="ssr:stedsnr" v="700742" />
	</node>
	<node lat="58.534136113919814" lon="7.542774993891841" id="-22315">
		<tag k="name" v="Migmaurneset" />
		<tag k="natural" v="cape" />
		<tag k="old_name" v="Migmaurnest" />
		<tag k="ssr:stedsnr" v="700744" />
	</node>
	<node lat="58.48694722494126" lon="7.713616673113586" id="-22324">
		<tag k="name" v="Kattepytt" />
		<tag k="natural" v="water" />
		<tag k="ssr:stedsnr" v="700852" />
		<tag k="water" v="pond" />
	</node>
	<node lat="58.57549928087386" lon="7.647237511850508" id="-22329">
		<tag k="name" v="Hurraheitjønnane" />
		<tag k="natural" v="water" />
		<tag k="ssr:stedsnr" v="701000" />
		<tag k="water" v="lake" />
	</node>
	<node lat="58.658077775446436" lon="7.780925006096076" id="-22340">
		<tag k="name" v="Nordtjønn" />
		<tag k="natural" v="water" />
		<tag k="ssr:stedsnr" v="638418" />
	</node>
	<node lat="58.56490277340182" lon="7.885497220682398" id="-22351">
		<tag k="name" v="Svartetjønn" />
		<tag k="natural" v="water" />
		<tag k="ssr:stedsnr" v="638586" />
		<tag k="water" v="pond" />
	</node>
	<node lat="58.646686115259975" lon="7.918238895624652" id="-22353">
		<tag k="name" v="Streitekilen" />
		<tag k="natural" v="bay" />
		<tag k="ssr:stedsnr" v="638731" />
	</node>
	<node lat="58.650355552492826" lon="7.891708338782973" id="-22354">
		<tag k="name" v="Sundreistjønn" />
		<tag k="natural" v="water" />
		<tag k="ssr:stedsnr" v="638733" />
	</node>
	<node lat="58.51045277892336" lon="7.747366667170496" id="-22355">
		<tag k="name" v="Stemmen" />
		<tag k="ssr:stedsnr" v="639027" />
		<tag k="waterway" v="dam" />
	</node>
	<node lat="58.624566662293866" lon="7.801083333459492" id="-22362">
		<tag k="name" v="Bukketjønn" />
		<tag k="natural" v="water" />
		<tag k="ssr:stedsnr" v="639375" />
	</node>
	<node lat="58.63627777489482" lon="7.800961110761685" id="-22365">
		<tag k="name" v="Lislefoss" />
		<tag k="natural" v="waterfall" />
		<tag k="ssr:stedsnr" v="639386" />
	</node>
	<node lat="58.49586388985797" lon="7.537716661955702" id="-22367">
		<tag k="name" v="Stemdalstjønn" />
		<tag k="natural" v="water" />
		<tag k="ssr:stedsnr" v="639691" />
	</node>
	<node lat="58.512866664016315" lon="7.560358341461807" id="-22368">
		<tag k="name" v="Mathøl" />
		<tag k="place" v="locality" />
		<tag k="ssr:stedsnr" v="639697" />
	</node>
	<node lat="58.508791663721475" lon="7.634552782250174" id="-22376">
		<tag k="name" v="Steinbrubekken" />
		<tag k="ssr:stedsnr" v="639774" />
		<tag k="waterway" v="stream" />
	</node>
	<node lat="58.57864721915313" lon="8.02380833822389" id="-22388">
		<tag k="alt_name" v="Hovlandsdalsåna" />
		<tag k="name" v="Hovlandsdalselva" />
		<tag k="ssr:stedsnr" v="656403" />
		<tag k="waterway" v="river" />
	</node>
	<node lat="58.59705832991961" lon="8.10522222516334" id="-22390">
		<tag k="name" v="Lauvvika" />
		<tag k="natural" v="bay" />
		<tag k="ssr:stedsnr" v="656503" />
	</node>
	<node lat="58.60001944832786" lon="8.044672218497666" id="-22391">
		<tag k="name" v="Stemmetjønn" />
		<tag k="natural" v="water" />
		<tag k="ssr:stedsnr" v="656709" />
	</node>
	<node lat="58.61476110777384" lon="7.585794445812741" id="-22396">
		<tag k="name" v="Krokevatn" />
		<tag k="natural" v="water" />
		<tag k="ssr:stedsnr" v="667801" />
	</node>
	<node lat="58.46897222400537" lon="7.653686105033427" id="-22398">
		<tag k="alt_name" v="Midtvatn" />
		<tag k="name" v="Midtvatnet" />
		<tag k="natural" v="water" />
		<tag k="ssr:stedsnr" v="667900" />
		<tag k="water" v="lake" />
	</node>
	<node lat="58.65865555758208" lon="7.646527776777223" id="-22400">
		<tag k="name" v="Såtelitjørni" />
		<tag k="natural" v="water" />
		<tag k="ssr:stedsnr" v="668157" />
	</node>
	<node lat="58.64367499751612" lon="8.007208328070405" id="-22402">
		<tag k="alt_name" v="Store Brennestjønn" />
		<tag k="name" v="Storebrenntjørna" />
		<tag k="natural" v="water" />
		<tag k="ssr:stedsnr" v="668511" />
	</node>
	<node lat="58.645413885942105" lon="7.97118056388334" id="-22403">
		<tag k="alt_name" v="Botnatjønn" />
		<tag k="name" v="Botntjørna" />
		<tag k="natural" v="water" />
		<tag k="ssr:stedsnr" v="668520" />
	</node>
	<node lat="58.67661111066025" lon="7.736258337303209" id="-22406">
		<tag k="alt_name" v="Rakketjønn" />
		<tag k="name" v="Rakketjørn" />
		<tag k="natural" v="water" />
		<tag k="ssr:stedsnr" v="668631" />
	</node>
	<node lat="58.538041662964254" lon="7.73438888353937" id="-22408">
		<tag k="alt_name" v="Grasstjønn" />
		<tag k="name" v="Grostjørna" />
		<tag k="natural" v="water" />
		<tag k="ssr:stedsnr" v="668705" />
	</node>
	<node lat="58.471005556871596" lon="7.729208341227203" id="-22413">
		<tag k="name" v="Vetrhuslona" />
		<tag k="natural" v="water" />
		<tag k="ssr:stedsnr" v="699105" />
		<tag k="water" v="lake" />
	</node>
	<node lat="58.67484444774108" lon="7.753394447556204" id="-22417">
		<tag k="name" v="Bjørnevassbekken" />
		<tag k="ssr:stedsnr" v="699281" />
		<tag k="waterway" v="stream" />
	</node>
	<node lat="58.561644445820484" lon="7.776361103628231" id="-22430">
		<tag k="name" v="Nykksholmen" />
		<tag k="place" v="islet" />
		<tag k="ssr:stedsnr" v="699818" />
	</node>
	<node lat="58.5858444458584" lon="7.800380559339473" id="-22437">
		<tag k="name" v="Kolleskvær" />
		<tag k="natural" v="cape" />
		<tag k="ssr:stedsnr" v="700205" />
	</node>
	<node lat="58.63113611114535" lon="7.798372230182308" id="-22445">
		<tag k="name" v="Knutstjønn" />
		<tag k="natural" v="water" />
		<tag k="ssr:stedsnr" v="700369" />
	</node>
	<node lat="58.587061110065804" lon="7.704783333068782" id="-22453">
		<tag k="name" v="Våneset" />
		<tag k="natural" v="cape" />
		<tag k="ssr:stedsnr" v="700872" />
	</node>
	<node lat="58.58485000310187" lon="7.704511105087105" id="-22454">
		<tag k="name" v="Sandstøneset" />
		<tag k="natural" v="cape" />
		<tag k="ssr:stedsnr" v="700876" />
	</node>
	<node lat="58.52740277779007" lon="7.659383339328414" id="-22459">
		<tag k="name" v="Stangeråsbekken" />
		<tag k="ssr:stedsnr" v="700927" />
		<tag k="waterway" v="stream" />
	</node>
	<node lat="58.54123055931067" lon="7.671908327706213" id="-22460">
		<tag k="name" v="Husebekken" />
		<tag k="ssr:stedsnr" v="700931" />
		<tag k="waterway" v="stream" />
	</node>
	<node lat="58.56347221876042" lon="7.696922223510985" id="-22461">
		<tag k="name" v="Svartetjønn" />
		<tag k="natural" v="water" />
		<tag k="ssr:stedsnr" v="700985" />
	</node>
	<node lat="58.638222220126735" lon="7.691877775244839" id="-22471">
		<tag k="name" v="Ågapet" />
		<tag k="place" v="locality" />
		<tag k="ssr:stedsnr" v="728113" />
	</node>
	<node lat="58.63069722313001" lon="7.659577773331183" id="-22473">
		<tag k="alt_name" v="Svabatjørn, l;Lille Svabatjønn" />
		<tag k="name" v="Lille Svabatjørn" />
		<tag k="natural" v="water" />
		<tag k="ssr:stedsnr" v="728803" />
	</node>
	<node lat="58.628074996027465" lon="7.583536113906168" id="-22474">
		<tag k="name" v="Kvernhusbekken" />
		<tag k="ssr:stedsnr" v="728808" />
		<tag k="waterway" v="stream" />
	</node>
	<node lat="58.508586107092434" lon="7.793705548608823" id="-22478">
		<tag k="alt_name" v="Klepptjønn" />
		<tag k="name" v="Kleppetjørna" />
		<tag k="natural" v="water" />
		<tag k="ssr:stedsnr" v="729407" />
	</node>
	<node lat="58.659132778490495" lon="7.751277486303099" id="-22481">
		<tag k="alt_name" v="Storetjønn" />
		<tag k="name" v="Stortjørn" />
		<tag k="natural" v="water" />
		<tag k="ssr:stedsnr" v="729516" />
	</node>
	<node lat="58.667336106800704" lon="7.915022226185242" id="-22482">
		<tag k="alt_name" v="Bekkerhusvatn" />
		<tag k="name" v="Bekkerhusvatnet" />
		<tag k="natural" v="water" />
		<tag k="ssr:stedsnr" v="729521" />
		<tag k="water" v="lake" />
	</node>
	<node lat="58.6056583360864" lon="7.854458330983458" id="-22483">
		<tag k="name" v="Nordåna" />
		<tag k="ssr:stedsnr" v="729526" />
		<tag k="waterway" v="river" />
	</node>
	<node lat="58.623827777710005" lon="7.906669450791337" id="-22486">
		<tag k="alt_name" v="Åflau, store" />
		<tag k="name" v="Store Åflauvatn" />
		<tag k="natural" v="water" />
		<tag k="ssr:stedsnr" v="729536" />
		<tag k="water" v="lake" />
	</node>
	<node lat="58.571228662521385" lon="7.880680005950152" id="-22488">
		<tag k="alt_name" v="Åmlandstjønn" />
		<tag k="name" v="Åmlandstjørna" />
		<tag k="natural" v="water" />
		<tag k="ssr:stedsnr" v="729665" />
	</node>
	<node lat="58.70855833143785" lon="7.6424555629066075" id="-22501">
		<tag k="name" v="Lauvtjønn" />
		<tag k="natural" v="water" />
		<tag k="ssr:stedsnr" v="760106" />
	</node>
	<node lat="58.71439166347023" lon="7.644427770417528" id="-22502">
		<tag k="name" v="Tjovhellertjønn" />
		<tag k="natural" v="water" />
		<tag k="ssr:stedsnr" v="760107" />
	</node>
	<node lat="58.618097224762316" lon="7.901599997362768" id="-22519">
		<tag k="name" v="Lisle Åflauvatn" />
		<tag k="natural" v="water" />
		<tag k="ssr:stedsnr" v="760520" />
		<tag k="water" v="lake" />
	</node>
	<node lat="58.60280000391744" lon="7.653636109151572" id="-22523">
		<tag k="name" v="Grytevadet" />
		<tag k="natural" v="shoal" />
		<tag k="place" v="locality" />
		<tag k="ssr:stedsnr" v="760944" />
	</node>
	<node lat="58.58499166442574" lon="7.963663891514345" id="-22525">
		<tag k="name" v="Dyrekilen" />
		<tag k="natural" v="bay" />
		<tag k="ssr:stedsnr" v="760702" />
	</node>
	<node lat="58.63392499825928" lon="7.785086114069349" id="-22538">
		<tag k="name" v="Tjørekilen" />
		<tag k="natural" v="bay" />
		<tag k="ssr:stedsnr" v="761410" />
	</node>
	<node lat="58.62872221823933" lon="7.78804722263782" id="-22539">
		<tag k="name" v="Volefossøya" />
		<tag k="place" v="island" />
		<tag k="ssr:stedsnr" v="761412" />
	</node>
	<node lat="58.51510277430662" lon="7.5706777763506174" id="-22544">
		<tag k="name" v="Smørtjønn" />
		<tag k="natural" v="water" />
		<tag k="ssr:stedsnr" v="761719" />
	</node>
	<node lat="58.46171944497816" lon="7.670363887761156" id="-22548">
		<tag k="name" v="Igletjønn" />
		<tag k="natural" v="water" />
		<tag k="ssr:stedsnr" v="761807" />
	</node>
	<node lat="58.46493776117908" lon="7.703165444516714" id="-22550">
		<tag k="name" v="Ydstelitjønnene" />
		<tag k="natural" v="water" />
		<tag k="ssr:stedsnr" v="761794" />
		<tag k="water" v="lake" />
	</node>
	<node lat="58.58312500046854" lon="7.703099995794585" id="-22552">
		<tag k="name" v="Brokenesane" />
		<tag k="natural" v="cape" />
		<tag k="ssr:stedsnr" v="761902" />
	</node>
	<node lat="58.63607222619406" lon="7.582669448088469" id="-22558">
		<tag k="alt_name" v="Strandetjønn" />
		<tag k="name" v="Strondtjørn" />
		<tag k="natural" v="water" />
		<tag k="ssr:stedsnr" v="910132" />
	</node>
	<node lat="58.63529166602843" lon="7.690705555444333" id="-22560">
		<tag k="name" v="Mykestølvatn" />
		<tag k="natural" v="water" />
		<tag k="ssr:stedsnr" v="910146" />
	</node>
	<node lat="58.61880588993692" lon="7.60709763000586" id="-22563">
		<tag k="alt_name" v="Kleivtjønnane" />
		<tag k="name" v="Kleivtjørni" />
		<tag k="natural" v="water" />
		<tag k="ssr:stedsnr" v="910827" />
		<tag k="water" v="lake" />
	</node>
	<node lat="58.605441668072466" lon="7.629305555338439" id="-22566">
		<tag k="alt_name" v="Hesstjønnbekken" />
		<tag k="name" v="Hesttjørnbekken" />
		<tag k="ssr:stedsnr" v="910846" />
		<tag k="waterway" v="stream" />
	</node>
	<node lat="58.66290555722896" lon="7.706069445368674" id="-22569">
		<tag k="name" v="Røyrvatn" />
		<tag k="natural" v="water" />
		<tag k="ssr:stedsnr" v="911155" />
	</node>
	<node lat="58.662541662743486" lon="7.590155560155828" id="-22570">
		<tag k="name" v="Grodbekk" />
		<tag k="ssr:stedsnr" v="911164" />
		<tag k="waterway" v="stream" />
	</node>
	<node lat="58.6685944470052" lon="7.682961114905562" id="-22571">
		<tag k="alt_name" v="Øyetjønn;Øyetjenn" />
		<tag k="name" v="Øytjørn" />
		<tag k="natural" v="water" />
		<tag k="ssr:stedsnr" v="911173" />
	</node>
	<node lat="58.646580558543015" lon="7.894175000053359" id="-22578">
		<tag k="alt_name" v="Nævertjønn" />
		<tag k="name" v="Nævertjørn" />
		<tag k="natural" v="water" />
		<tag k="ssr:stedsnr" v="911516" />
	</node>
	<node lat="58.669263891116664" lon="7.96375556147451" id="-22580">
		<tag k="alt_name" v="Falketjønn" />
		<tag k="name" v="Falketjørna" />
		<tag k="natural" v="water" />
		<tag k="ssr:stedsnr" v="911526" />
	</node>
	<node lat="58.61170000100533" lon="7.946880556123571" id="-22581">
		<tag k="alt_name" v="Kleppslandstjønn" />
		<tag k="name" v="Kleppslandstjørna" />
		<tag k="natural" v="water" />
		<tag k="ssr:stedsnr" v="911541" />
	</node>
	<node lat="58.502011106953795" lon="7.7927999969664095" id="-22582">
		<tag k="name" v="Kleppåna" />
		<tag k="ssr:stedsnr" v="789411" />
		<tag k="waterway" v="river" />
	</node>
	<node lat="58.61304999771408" lon="7.721077769616121" id="-22585">
		<tag k="alt_name" v="Lindalstjønn" />
		<tag k="name" v="Lindalstjørna" />
		<tag k="natural" v="water" />
		<tag k="ssr:stedsnr" v="911552" />
	</node>
	<node lat="58.60996944738471" lon="7.798808324886987" id="-22590">
		<tag k="alt_name" v="Varpestraum" />
		<tag k="name" v="Varpestraumen" />
		<tag k="place" v="locality" />
		<tag k="ssr:stedsnr" v="789549" />
	</node>
	<node lat="58.674077774834814" lon="7.7781194519775365" id="-22591">
		<tag k="name" v="Bjørndalsbekken" />
		<tag k="ssr:stedsnr" v="789601" />
		<tag k="waterway" v="stream" />
	</node>
	<node lat="58.600680552816684" lon="7.9236194517775935" id="-22593">
		<tag k="alt_name" v="Stemtjønn" />
		<tag k="name" v="Stemtjørna" />
		<tag k="natural" v="water" />
		<tag k="ssr:stedsnr" v="789721" />
	</node>
	<node lat="58.56536944292648" lon="8.074324997586272" id="-22603">
		<tag k="alt_name" v="Høydalstjørna" />
		<tag k="name" v="Høydalstjønn" />
		<tag k="natural" v="water" />
		<tag k="ssr:stedsnr" v="911664" />
	</node>
	<node lat="58.541552773741365" lon="7.773983325577399" id="-22607">
		<tag k="alt_name" v="Skartjønn" />
		<tag k="name" v="Skardtjørna" />
		<tag k="natural" v="water" />
		<tag k="ssr:stedsnr" v="911693" />
	</node>
	<node lat="58.56286666957782" lon="8.07613888345809" id="-22612">
		<tag k="name" v="Høydalsbekken" />
		<tag k="ssr:stedsnr" v="911643" />
		<tag k="waterway" v="stream" />
	</node>
	<node lat="58.528488884600726" lon="7.574083334905675" id="-22613">
		<tag k="name" v="Viland" />
		<tag k="place" v="locality" />
		<tag k="ssr:stedsnr" v="911989" />
	</node>
	<node lat="58.46665277367707" lon="7.783005555698329" id="-22615">
		<tag k="name" v="Lindångapet" />
		<tag k="natural" v="strait" />
		<tag k="ssr:stedsnr" v="821006" />
	</node>
	<node lat="58.462477778151204" lon="7.789652777554432" id="-22616">
		<tag k="name" v="Bjorkil" />
		<tag k="natural" v="bay" />
		<tag k="ssr:stedsnr" v="821012" />
	</node>
	<node lat="58.464005554605635" lon="7.797455559517835" id="-22617">
		<tag k="name" v="Skarketangen" />
		<tag k="natural" v="cape" />
		<tag k="ssr:stedsnr" v="821014" />
	</node>
	<node lat="58.64644166560905" lon="7.6235611040525475" id="-22619">
		<tag k="name" v="Øynen" />
		<tag k="place" v="island" />
		<tag k="ssr:stedsnr" v="821074" />
	</node>
	<node lat="58.470866670218406" lon="7.7738638971543015" id="-22624">
		<tag k="name" v="Lona" />
		<tag k="natural" v="water" />
		<tag k="ssr:stedsnr" v="821110" />
		<tag k="water" v="lake" />
	</node>
	<node lat="58.47095000246033" lon="7.771705558702653" id="-22625">
		<tag k="name" v="Lonetangen" />
		<tag k="natural" v="cape" />
		<tag k="ssr:stedsnr" v="821112" />
	</node>
	<node lat="58.55961111326296" lon="7.908655559232595" id="-22639">
		<tag k="name" v="Ryssheitjønn" />
		<tag k="natural" v="water" />
		<tag k="ssr:stedsnr" v="821477" />
	</node>
	<node lat="58.62601389044275" lon="7.866191661639619" id="-22643">
		<tag k="name" v="Holebekk" />
		<tag k="ssr:stedsnr" v="821579" />
		<tag k="waterway" v="stream" />
	</node>
	<node lat="58.67796944369931" lon="7.961416674183153" id="-22653">
		<tag k="name" v="Brahjelmstjønn" />
		<tag k="natural" v="water" />
		<tag k="ssr:stedsnr" v="821846" />
	</node>
	<node lat="58.64838333460921" lon="7.989747218571255" id="-22654">
		<tag k="name" v="Laksetjønn" />
		<tag k="natural" v="water" />
		<tag k="ssr:stedsnr" v="821851" />
	</node>
	<node lat="58.66363055545172" lon="7.699511108324789" id="-22658">
		<tag k="name" v="Røyrtjønn" />
		<tag k="natural" v="water" />
		<tag k="ssr:stedsnr" v="822116" />
	</node>
	<node lat="58.622930551311825" lon="7.8011527741910145" id="-22662">
		<tag k="name" v="Fisketjønn" />
		<tag k="natural" v="water" />
		<tag k="ssr:stedsnr" v="822311" />
	</node>
	<node lat="58.56638332933942" lon="7.814655555924559" id="-22666">
		<tag k="name" v="Hestehyl" />
		<tag k="place" v="locality" />
		<tag k="ssr:stedsnr" v="822366" />
	</node>
	<node lat="58.62918611520575" lon="7.555799995951638" id="-22668">
		<tag k="name" v="Hovassåna" />
		<tag k="ssr:stedsnr" v="822712" />
		<tag k="waterway" v="river" />
	</node>
	<node lat="58.46110278191531" lon="7.719261112144282" id="-22674">
		<tag k="name" v="Bjørnstangen" />
		<tag k="natural" v="cape" />
		<tag k="ssr:stedsnr" v="822782" />
	</node>
	<node lat="58.58769166883155" lon="7.7040777770064945" id="-22681">
		<tag k="name" v="Raskvadhylen" />
		<tag k="place" v="locality" />
		<tag k="ssr:stedsnr" v="822905" />
	</node>
	<node lat="58.592675002138705" lon="8.088422217852525" id="-22684">
		<tag k="name" v="Bjørndalstjønn" />
		<tag k="natural" v="water" />
		<tag k="ssr:stedsnr" v="838506" />
	</node>
	<node lat="58.72541389082074" lon="7.66219445234343" id="-22686">
		<tag k="name" v="Midtstrandodden" />
		<tag k="natural" v="cape" />
		<tag k="ssr:stedsnr" v="849022" />
	</node>
	<node lat="58.635544442714696" lon="7.624413881049813" id="-22687">
		<tag k="alt_name" v="Braunes" />
		<tag k="name" v="Brauneset" />
		<tag k="natural" v="cape" />
		<tag k="ssr:stedsnr" v="850132" />
	</node>
	<node lat="58.58080555520444" lon="7.9688277768648215" id="-22692">
		<tag k="name" v="Håtveitåna" />
		<tag k="ssr:stedsnr" v="850729" />
		<tag k="waterway" v="stream" />
	</node>
	<node lat="58.593400001856786" lon="8.0179249949578" id="-22694">
		<tag k="alt_name" v="Mørketjønn" />
		<tag k="name" v="Myrketjørna" />
		<tag k="natural" v="water" />
		<tag k="ssr:stedsnr" v="850684" />
	</node>
	<node lat="58.60719444213063" lon="8.070700004149055" id="-22695">
		<tag k="alt_name" v="Øyetjørna" />
		<tag k="name" v="Øyetjønn" />
		<tag k="natural" v="water" />
		<tag k="ssr:stedsnr" v="850693" />
	</node>
	<node lat="58.606236109423314" lon="8.085641671877033" id="-22696">
		<tag k="alt_name" v="Øyevatna" />
		<tag k="name" v="Øyevatn" />
		<tag k="natural" v="water" />
		<tag k="ssr:stedsnr" v="850694" />
		<tag k="water" v="lake" />
	</node>
	<node lat="58.62616944229236" lon="7.5816444409011785" id="-22697">
		<tag k="name" v="Mathyl" />
		<tag k="place" v="locality" />
		<tag k="ssr:stedsnr" v="850826" />
	</node>
	<node lat="58.61844722390825" lon="7.627208327104776" id="-22707">
		<tag k="name" v="Botnen" />
		<tag k="natural" v="bay" />
		<tag k="ssr:stedsnr" v="881951" />
	</node>
	<node lat="58.6233944454047" lon="7.636327785281592" id="-22708">
		<tag k="name" v="Hestsundet" />
		<tag k="natural" v="strait" />
		<tag k="ssr:stedsnr" v="881955" />
	</node>
	<node lat="58.508180553592354" lon="7.779633325250646" id="-22709">
		<tag k="name" v="Straumøya" />
		<tag k="place" v="island" />
		<tag k="ssr:stedsnr" v="882016" />
	</node>
	<node lat="58.68104999821573" lon="7.6934749972393695" id="-22712">
		<tag k="name" v="Grytefoss" />
		<tag k="natural" v="waterfall" />
		<tag k="ssr:stedsnr" v="882055" />
	</node>
	<node lat="58.47163333697531" lon="7.772638891636477" id="-22714">
		<tag k="name" v="Karelskeneset" />
		<tag k="natural" v="cape" />
		<tag k="ssr:stedsnr" v="882104" />
	</node>
	<node lat="58.52935833676596" lon="7.727513887633447" id="-22716">
		<tag k="name" v="Biskoptjønn" />
		<tag k="natural" v="water" />
		<tag k="ssr:stedsnr" v="882115" />
	</node>
	<node lat="58.55397222549128" lon="7.731211114774373" id="-22719">
		<tag k="name" v="Stustjønn" />
		<tag k="natural" v="water" />
		<tag k="ssr:stedsnr" v="882168" />
	</node>
	<node lat="58.59680277547474" lon="7.819122228063197" id="-22722">
		<tag k="name" v="Birkelandsfossen" />
		<tag k="natural" v="waterfall" />
		<tag k="ssr:stedsnr" v="882306" />
	</node>
	<node lat="58.63174444538976" lon="7.791502784392059" id="-22726">
		<tag k="name" v="Neset" />
		<tag k="natural" v="cape" />
		<tag k="ssr:stedsnr" v="882316" />
	</node>
	<node lat="58.630680553983424" lon="7.78737221389239" id="-22727">
		<tag k="name" v="Storøy" />
		<tag k="place" v="island" />
		<tag k="ssr:stedsnr" v="882317" />
	</node>
	<node lat="58.66810277658705" lon="7.797472216093996" id="-22734">
		<tag k="name" v="Fagersand" />
		<tag k="natural" v="beach" />
		<tag k="ssr:stedsnr" v="882249" />
	</node>
	<node lat="58.57389166527449" lon="7.9289194387495" id="-22745">
		<tag k="name" v="Hålandslonane" />
		<tag k="natural" v="water" />
		<tag k="ssr:stedsnr" v="882554" />
		<tag k="water" v="lake" />
	</node>
	<node lat="58.64311111176108" lon="7.960672227033702" id="-22751">
		<tag k="name" v="Klaveneset" />
		<tag k="natural" v="cape" />
		<tag k="ssr:stedsnr" v="882599" />
	</node>
	<node lat="58.46381667053271" lon="7.603691666881604" id="-22752">
		<tag k="name" v="Einstabbåstjønn" />
		<tag k="natural" v="water" />
		<tag k="ssr:stedsnr" v="882601" />
	</node>
	<node lat="58.469913819992684" lon="7.679293979370898" id="-22754">
		<tag k="name" v="Bispetjønnene" />
		<tag k="natural" v="water" />
		<tag k="ssr:stedsnr" v="882706" />
		<tag k="water" v="lake" />
	</node>
	<node lat="58.52670555583512" lon="7.726136113213298" id="-22755">
		<tag k="name" v="Hangetjønn" />
		<tag k="natural" v="water" />
		<tag k="ssr:stedsnr" v="882713" />
	</node>
	<node lat="58.658836113273296" lon="7.563147222941658" id="-22756">
		<tag k="name" v="Røydalslonane" />
		<tag k="ssr:stedsnr" v="882720" />
		<tag k="waterway" v="stream" />
	</node>
	<node lat="58.52220833611966" lon="7.515477772389233" id="-22763">
		<tag k="name" v="Raunelitjønn" />
		<tag k="natural" v="water" />
		<tag k="ssr:stedsnr" v="882617" />
	</node>
	<node lat="58.67058333613886" lon="7.5517805564622975" id="-22764">
		<tag k="name" v="Øyvassbekken" />
		<tag k="ssr:stedsnr" v="882621" />
		<tag k="waterway" v="stream" />
	</node>
	<node lat="58.66582499918062" lon="7.965936103300545" id="-22766">
		<tag k="name" v="Indre Tvitjønn" />
		<tag k="natural" v="water" />
		<tag k="ssr:stedsnr" v="882804" />
	</node>
</osm>
