<?xml version="1.0" encoding="UTF-8"?>
<osm generator="osmapis" version="0.6">
	<node id="-712192" lat="68.7041138915" lon="14.5102999997">
		<tag k="name" v="Hesthagen" />
		<tag k="place" v="locality" />
		<tag k="ssr:stedsnr" v="423224" />
	</node>
	<node id="-711662" lat="68.6486111071" lon="14.4540666643">
		<tag k="name" v="Litleleitet" />
		<tag k="place" v="locality" />
		<tag k="ssr:stedsnr" v="36233" />
	</node>
	<node id="-711660" lat="68.640577778" lon="14.433030562">
		<tag k="name" v="Gimstadraen" />
		<tag k="place" v="locality" />
		<tag k="ssr:stedsnr" v="36227" />
	</node>
	<node id="-711659" lat="68.6401861096" lon="14.4470138992">
		<tag k="name" v="Stampmyra" />
		<tag k="natural" v="wetland" />
		<tag k="ssr:stedsnr" v="36223" />
	</node>
	<node id="-711658" lat="68.642744447" lon="14.4292361232">
		<tag k="name" v="Fjærvollraen" />
		<tag k="place" v="locality" />
		<tag k="ssr:stedsnr" v="36221" />
	</node>
	<node id="-711648" lat="68.6974444418" lon="14.4470111141">
		<tag k="name" v="Svintanna" />
		<tag k="natural" v="stone" />
		<tag k="ssr:stedsnr" v="21074" />
	</node>
	<node id="-713176" lat="68.6648749958" lon="14.492438894">
		<tag k="name" v="Tretnemyra" />
		<tag k="natural" v="wetland" />
		<tag k="ssr:stedsnr" v="909202" />
	</node>
	<node id="-712150" lat="68.6824888867" lon="14.4078972226">
		<tag k="landuse" v="meadow" />
		<tag k="name" v="Sandekra" />
		<tag k="ssr:stedsnr" v="264038" />
	</node>
	<node id="-712141" lat="68.7576694441" lon="14.7696749979">
		<tag k="name" v="Storura" />
		<tag k="natural" v="scree" />
		<tag k="ssr:stedsnr" v="479545" />
	</node>
	<node id="-713161" lat="68.7081305559" lon="14.7181166717">
		<tag k="name" v="Kvernfjordmyran" />
		<tag k="natural" v="wetland" />
		<tag k="ssr:stedsnr" v="905397" />
	</node>
	<node id="-713155" lat="68.7085972236" lon="14.4286249975">
		<tag k="name" v="Sprangsteinen" />
		<tag k="natural" v="stone" />
		<tag k="ssr:stedsnr" v="871232" />
	</node>
	<node id="-712641" lat="68.6853611092" lon="14.5399972325">
		<tag k="name" v="Børgemarka" />
		<tag k="place" v="locality" />
		<tag k="ssr:stedsnr" v="642350" />
	</node>
	<node id="-711616" lat="68.762291669" lon="14.5904361116">
		<tag k="name" v="Survikøra" />
		<tag k="place" v="locality" />
		<tag k="ssr:stedsnr" v="18467" />
	</node>
	<node id="-712634" lat="68.653366662" lon="14.4435138961">
		<tag k="name" v="Gullberget" />
		<tag k="place" v="locality" />
		<tag k="ssr:stedsnr" v="642268" />
	</node>
	<node id="-712632" lat="68.6610111078" lon="14.4584194324">
		<tag k="name" v="Martaplassen" />
		<tag k="place" v="locality" />
		<tag k="ssr:stedsnr" v="642242" />
	</node>
	<node id="-712630" lat="68.6274638931" lon="14.4487555451">
		<tag k="name" v="Laugmyra" />
		<tag k="natural" v="wetland" />
		<tag k="ssr:stedsnr" v="642166" />
	</node>
	<node id="-712616" lat="68.6966444486" lon="14.4259833428">
		<tag k="name" v="Blåuran" />
		<tag k="natural" v="scree" />
		<tag k="ssr:stedsnr" v="627213" />
	</node>
	<node id="-713122" lat="68.6545583335" lon="14.5708500054">
		<tag k="name" v="Jokkumskogen" />
		<tag k="place" v="locality" />
		<tag k="ssr:stedsnr" v="868675" />
	</node>
	<node id="-711582" lat="68.7488999991" lon="14.6497888774">
		<tag k="name" v="Sundsmyran" />
		<tag k="natural" v="wetland" />
		<tag k="ssr:stedsnr" v="17389" />
	</node>
	<node id="-711560" lat="68.6534694446" lon="14.4727583375">
		<tag k="name" v="Brekka" />
		<tag k="place" v="locality" />
		<tag k="ssr:stedsnr" v="886269" />
	</node>
	<node id="-712066" lat="68.6915861087" lon="14.6394916615">
		<tag k="name" v="Korsnesmyran" />
		<tag k="natural" v="wetland" />
		<tag k="ssr:stedsnr" v="237388" />
	</node>
	<node id="-712570" lat="68.7496777819" lon="14.6763055554">
		<tag k="name" v="Halsan" />
		<tag k="natural" v="wetland" />
		<tag k="ssr:stedsnr" v="624371" />
	</node>
	<node id="-711537" lat="68.8114249981" lon="14.5526611105">
		<tag k="name" v="Sand" />
		<tag k="place" v="locality" />
		<tag k="ssr:stedsnr" v="479331" />
	</node>
	<node id="-712554" lat="68.6692222245" lon="14.5189944506">
		<tag k="name" v="Brødkisturan" />
		<tag k="natural" v="scree" />
		<tag k="ssr:stedsnr" v="605204" />
	</node>
	<node id="-712038" lat="68.605366668" lon="14.5296222225">
		<tag k="landuse" v="meadow" />
		<tag k="name" v="Gjerdet" />
		<tag k="ssr:stedsnr" v="218242" />
	</node>
	<node id="-713061" lat="68.7805833296" lon="14.5142638976">
		<tag k="name" v="Gauklisteinen" />
		<tag k="natural" v="stone" />
		<tag k="ssr:stedsnr" v="846328" />
	</node>
	<node id="-711517" lat="68.6053333309" lon="14.5117416542">
		<tag k="name" v="Sponesmyra" />
		<tag k="natural" v="wetland" />
		<tag k="ssr:stedsnr" v="400470" />
	</node>
	<node id="-711482" lat="68.6900194466" lon="14.4726861118">
		<tag k="name" v="Svinmyra" />
		<tag k="natural" v="wetland" />
		<tag k="ssr:stedsnr" v="385073" />
	</node>
	<node id="-712761" lat="68.616883337" lon="14.4610833423">
		<tag k="name" v="Strandmyra" />
		<tag k="natural" v="wetland" />
		<tag k="ssr:stedsnr" v="703211" />
	</node>
	<node id="-713040" lat="68.6195527801" lon="14.534980566">
		<tag k="name" v="Eliasskogen" />
		<tag k="place" v="locality" />
		<tag k="ssr:stedsnr" v="825673" />
	</node>
	<node id="-713035" lat="68.6401527774" lon="14.4706333261">
		<tag k="name" v="Stormyra" />
		<tag k="natural" v="wetland" />
		<tag k="ssr:stedsnr" v="825445" />
	</node>
	<node id="-711493" lat="68.7078666654" lon="14.4289555503">
		<tag k="fixme" v="multiple name tags, choose one and add the other to alt_name" />
		<tag k="name" v="Hellen;Kjerringhella" />
		<tag k="place" v="locality" />
		<tag k="ssr:stedsnr" v="385265" />
	</node>
	<node id="-712515" lat="68.6474888907" lon="14.4700194438">
		<tag k="name" v="Tingsteinen" />
		<tag k="natural" v="stone" />
		<tag k="ssr:stedsnr" v="582297" />
	</node>
	<node id="-711490" lat="68.7033583331" lon="14.4399861013">
		<tag k="name" v="Katturan" />
		<tag k="natural" v="scree" />
		<tag k="ssr:stedsnr" v="385239" />
	</node>
	<node id="-711392" lat="68.6597000042" lon="14.7244638883">
		<tag k="name" v="Gåsuran" />
		<tag k="natural" v="scree" />
		<tag k="ssr:stedsnr" v="358400" />
	</node>
	<node id="-713022" lat="68.6236833356" lon="14.5882916561">
		<tag k="name" v="Sprengermyra" />
		<tag k="natural" v="wetland" />
		<tag k="ssr:stedsnr" v="825247" />
	</node>
	<node id="-712507" lat="68.7772805554" lon="14.4805694389">
		<tag k="name" v="Fugltaen" />
		<tag k="place" v="locality" />
		<tag k="ssr:stedsnr" v="581336" />
	</node>
	<node id="-712506" lat="68.7193944467" lon="14.6182527691">
		<tag k="name" v="Asterset" />
		<tag k="place" v="locality" />
		<tag k="ssr:stedsnr" v="581331" />
	</node>
	<node id="-713009" lat="68.6207222206" lon="14.4663972201">
		<tag k="name" v="Skagamyran" />
		<tag k="natural" v="wetland" />
		<tag k="ssr:stedsnr" v="825129" />
	</node>
	<node id="-712997" lat="68.6885194486" lon="14.4768666602">
		<tag k="name" v="Tøa" />
		<tag k="place" v="locality" />
		<tag k="ssr:stedsnr" v="810074" />
	</node>
	<node id="-712790" lat="68.7421777775" lon="14.5885277712">
		<tag k="name" v="Leitet" />
		<tag k="natural" v="wetland" />
		<tag k="ssr:stedsnr" v="722259" />
	</node>
	<node id="-712966" lat="68.7111611145" lon="14.6429527744">
		<tag k="name" v="Gåslandsmyran" />
		<tag k="natural" v="wetland" />
		<tag k="ssr:stedsnr" v="807267" />
	</node>
	<node id="-711939" lat="68.7955694464" lon="14.5305333435">
		<tag k="name" v="Tussmyra" />
		<tag k="natural" v="wetland" />
		<tag k="ssr:stedsnr" v="176318" />
	</node>
	<node id="-711414" lat="68.666419448" lon="14.4868611217">
		<tag k="name" v="Kjerkmyra" />
		<tag k="natural" v="wetland" />
		<tag k="ssr:stedsnr" v="362189" />
	</node>
	<node id="-711413" lat="68.6662638921" lon="14.4975805655">
		<tag k="name" v="Geirsmyra" />
		<tag k="natural" v="wetland" />
		<tag k="ssr:stedsnr" v="362187" />
	</node>
	<node id="-712424" lat="68.6638277775" lon="14.4990138919">
		<tag k="name" v="Korsjorda" />
		<tag k="natural" v="wetland" />
		<tag k="ssr:stedsnr" v="544183" />
	</node>
	<node id="-712932" lat="68.6629194485" lon="14.4922861048">
		<tag k="name" v="Jomyra" />
		<tag k="natural" v="wetland" />
		<tag k="ssr:stedsnr" v="787175" />
	</node>
	<node id="-712417" lat="68.7621583329" lon="14.7538472148">
		<tag k="name" v="Innerpolljorda" />
		<tag k="place" v="locality" />
		<tag k="ssr:stedsnr" v="540574" />
	</node>
	<node id="-711904" lat="68.7034027793" lon="14.4100916705">
		<tag k="name" v="Kremmarholmøyra" />
		<tag k="place" v="locality" />
		<tag k="ssr:stedsnr" v="142251" />
	</node>
	<node id="-711546" lat="68.6191916692" lon="14.5148305536">
		<tag k="name" v="Mælskogen" />
		<tag k="place" v="locality" />
		<tag k="ssr:stedsnr" v="885670" />
	</node>
	<node id="-711895" lat="68.692569446" lon="14.4652111235">
		<tag k="name" v="Sjømyra" />
		<tag k="natural" v="wetland" />
		<tag k="ssr:stedsnr" v="142060" />
	</node>
	<node id="-712404" lat="68.6324861144" lon="14.4941055604">
		<tag k="name" v="Heståsmyran" />
		<tag k="natural" v="wetland" />
		<tag k="ssr:stedsnr" v="521764" />
	</node>
	<node id="-712396" lat="68.6698111092" lon="14.4668777728">
		<tag k="name" v="Holsjøleitet" />
		<tag k="place" v="locality" />
		<tag k="ssr:stedsnr" v="521529" />
	</node>
	<node id="-712905" lat="68.6247499959" lon="14.4958305557">
		<tag k="name" v="Strutmyra" />
		<tag k="natural" v="wetland" />
		<tag k="ssr:stedsnr" v="764720" />
	</node>
	<node id="-712902" lat="68.6728750004" lon="14.4301916687">
		<tag k="landuse" v="peat_cutting" />
		<tag k="name" v="Purkhøljan" />
		<tag k="ssr:stedsnr" v="764508" />
	</node>
	<node id="-712889" lat="68.6222472188" lon="14.5559916739">
		<tag k="name" v="Klokkarjorda" />
		<tag k="place" v="locality" />
		<tag k="ssr:stedsnr" v="764252" />
	</node>
	<node id="-712373" lat="68.7120527774" lon="14.4292805457">
		<tag k="name" v="Jurhalsura" />
		<tag k="natural" v="scree" />
		<tag k="ssr:stedsnr" v="506256" />
	</node>
	<node id="-711342" lat="68.6869305523" lon="14.4512194408">
		<tag k="name" v="Brannen" />
		<tag k="place" v="locality" />
		<tag k="ssr:stedsnr" v="324044" />
	</node>
	<node id="-711846" lat="68.7376499986" lon="14.7583277835">
		<tag k="name" v="Revuran" />
		<tag k="natural" v="scree" />
		<tag k="ssr:stedsnr" v="138384" />
	</node>
	<node id="-713073" lat="68.7090750007" lon="14.5234666609">
		<tag k="name" v="Høgmyran" />
		<tag k="natural" v="wetland" />
		<tag k="ssr:stedsnr" v="867329" />
	</node>
	<node id="-711840" lat="68.6719972243" lon="14.5464055593">
		<tag k="name" v="Øyjorda" />
		<tag k="place" v="locality" />
		<tag k="ssr:stedsnr" v="120180" />
	</node>
	<node id="-712303" lat="68.6732055563" lon="14.4856722296">
		<tag k="name" v="Skjettenmyra" />
		<tag k="natural" v="wetland" />
		<tag k="ssr:stedsnr" v="484067" />
	</node>
	<node id="-712344" lat="68.6438138879" lon="14.4457361168">
		<tag k="name" v="Gimstadmyran" />
		<tag k="natural" v="wetland" />
		<tag k="ssr:stedsnr" v="503643" />
	</node>
	<node id="-711318" lat="68.7744277772" lon="14.4964333361">
		<tag k="name" v="Mellommyra" />
		<tag k="natural" v="wetland" />
		<tag k="ssr:stedsnr" v="321489" />
	</node>
	<node id="-712131" lat="68.8210638898" lon="14.6994833285">
		<tag k="name" v="Sølvbergura" />
		<tag k="natural" v="scree" />
		<tag k="ssr:stedsnr" v="260931" />
	</node>
	<node id="-712846" lat="68.6850277811" lon="14.3970805458">
		<tag k="name" v="Skårvågshagan" />
		<tag k="place" v="locality" />
		<tag k="ssr:stedsnr" v="746373" />
	</node>
	<node id="-711812" lat="68.6876305576" lon="14.5995888992">
		<tag k="name" v="Langmoskogen" />
		<tag k="place" v="locality" />
		<tag k="ssr:stedsnr" v="116173" />
	</node>
	<node id="-711811" lat="68.6817999961" lon="14.5879111056">
		<tag k="name" v="Veamyran" />
		<tag k="natural" v="wetland" />
		<tag k="ssr:stedsnr" v="116166" />
	</node>
	<node id="-711808" lat="68.7584249995" lon="14.4761138983">
		<tag k="name" v="Nordjorda" />
		<tag k="place" v="locality" />
		<tag k="ssr:stedsnr" v="113296" />
	</node>
	<node id="-713152" lat="68.6847194472" lon="14.3979611205">
		<tag k="name" v="Kattnesjorda" />
		<tag k="place" v="locality" />
		<tag k="ssr:stedsnr" v="871194" />
	</node>
	<node id="-711804" lat="68.6221527801" lon="14.4767611178">
		<tag k="name" v="Skagamyran" />
		<tag k="natural" v="wetland" />
		<tag k="ssr:stedsnr" v="97738" />
	</node>
	<node id="-711802" lat="68.6675555569" lon="14.4301555627">
		<tag k="name" v="Svingjerdan" />
		<tag k="place" v="locality" />
		<tag k="ssr:stedsnr" v="97551" />
	</node>
	<node id="-711791" lat="68.6580138878" lon="14.4410361196">
		<tag k="name" v="Vikran" />
		<tag k="place" v="locality" />
		<tag k="ssr:stedsnr" v="97276" />
	</node>
	<node id="-712301" lat="68.7791805577" lon="14.5158527687">
		<tag k="landuse" v="meadow" />
		<tag k="name" v="Toften" />
		<tag k="ssr:stedsnr" v="481354" />
	</node>
	<node id="-711776" lat="68.6782638929" lon="14.4320666696">
		<tag k="name" v="Hansmyra" />
		<tag k="natural" v="wetland" />
		<tag k="ssr:stedsnr" v="82055" />
	</node>
	<node id="-713311" lat="68.6417333329" lon="14.506422216">
		<tag k="name" v="Hansslåtta" />
		<tag k="place" v="locality" />
		<tag k="ssr:stedsnr" v="969155" />
	</node>
	<node id="-713310" lat="68.645263888" lon="14.4938666607">
		<tag k="name" v="Gregusskogen" />
		<tag k="place" v="locality" />
		<tag k="ssr:stedsnr" v="969143" />
	</node>
	<node id="-712282" lat="68.6255249983" lon="14.5582611119">
		<tag k="name" v="Strandmyran" />
		<tag k="natural" v="wetland" />
		<tag k="ssr:stedsnr" v="461289" />
	</node>
	<node id="-713302" lat="68.6936083369" lon="14.7175611127">
		<tag k="name" v="Vedmyran" />
		<tag k="natural" v="wetland" />
		<tag k="ssr:stedsnr" v="966519" />
	</node>
	<node id="-711248" lat="68.6704944486" lon="14.4293916779">
		<tag k="name" v="Stampmyra" />
		<tag k="natural" v="wetland" />
		<tag k="ssr:stedsnr" v="279553" />
	</node>
	<node id="-711243" lat="68.60474167" lon="14.5022472164">
		<tag k="name" v="Kleivmyra" />
		<tag k="natural" v="wetland" />
		<tag k="ssr:stedsnr" v="279474" />
	</node>
	<node id="-712262" lat="68.7261972221" lon="14.4695777847">
		<tag k="name" v="Sausteinen" />
		<tag k="natural" v="stone" />
		<tag k="ssr:stedsnr" v="446035" />
	</node>
	<node id="-712773" lat="68.649952781" lon="14.457997226">
		<tag k="name" v="Litleleitmyra" />
		<tag k="natural" v="wetland" />
		<tag k="ssr:stedsnr" v="704250" />
	</node>
	<node id="-711748" lat="68.7808972257" lon="14.537508328">
		<tag k="name" v="Kvanntomyra" />
		<tag k="natural" v="wetland" />
		<tag k="ssr:stedsnr" v="78982" />
	</node>
	<node id="-711349" lat="68.709988891" lon="14.4318833268">
		<tag k="name" v="Slettbergan" />
		<tag k="place" v="locality" />
		<tag k="ssr:stedsnr" v="324256" />
	</node>
	<node id="-713273" lat="68.6065944401" lon="14.5291055581">
		<tag k="name" v="Stormyra" />
		<tag k="natural" v="wetland" />
		<tag k="ssr:stedsnr" v="947254" />
	</node>
	<node id="-711734" lat="68.6266138906" lon="14.4546750024">
		<tag k="name" v="Vinjemyran" />
		<tag k="natural" v="wetland" />
		<tag k="ssr:stedsnr" v="78518" />
	</node>
	<node id="-713269" lat="68.6664055559" lon="14.4112666789">
		<tag k="name" v="Hårdvollen" />
		<tag k="place" v="locality" />
		<tag k="ssr:stedsnr" v="946518" />
	</node>
	<node id="-712750" lat="68.6839361148" lon="14.3945944511">
		<tag k="name" v="Gamla" />
		<tag k="natural" v="stone" />
		<tag k="ssr:stedsnr" v="688238" />
	</node>
	<node id="-713254" lat="68.645802781" lon="14.4288638993">
		<tag k="name" v="Sjursleitet" />
		<tag k="place" v="locality" />
		<tag k="ssr:stedsnr" v="946228" />
	</node>
	<node id="-711714" lat="68.6510249998" lon="14.6138555529">
		<tag k="name" v="Rambergmyran" />
		<tag k="natural" v="wetland" />
		<tag k="ssr:stedsnr" v="59223" />
	</node>
	<node id="-713051" lat="68.7871694487" lon="14.6823472207">
		<tag k="name" v="Risdalssteinen" />
		<tag k="natural" v="stone" />
		<tag k="ssr:stedsnr" v="844605" />
	</node>
	<node id="-711710" lat="68.664708334" lon="14.4818277764">
		<tag k="name" v="Mølnemyra" />
		<tag k="natural" v="wetland" />
		<tag k="ssr:stedsnr" v="59166" />
	</node>
	<node id="-711709" lat="68.6738916707" lon="14.5407999955">
		<tag k="name" v="Langmyra" />
		<tag k="natural" v="wetland" />
		<tag k="ssr:stedsnr" v="59154" />
	</node>
	<node id="-711703" lat="68.6625861095" lon="14.722925008">
		<tag k="name" v="Høljemyra" />
		<tag k="natural" v="wetland" />
		<tag k="ssr:stedsnr" v="55394" />
	</node>
	<node id="-712725" lat="68.6365388899" lon="14.4618888925">
		<tag k="name" v="Kleppelvmoan" />
		<tag k="natural" v="wetland" />
		<tag k="ssr:stedsnr" v="685670" />
	</node>
	<node id="-711698" lat="68.763961113" lon="14.7661472315">
		<tag k="name" v="Stormyra" />
		<tag k="natural" v="wetland" />
		<tag k="ssr:stedsnr" v="55544" />
	</node>
	<node id="-711695" lat="68.7664861151" lon="14.7576083352">
		<tag k="name" v="Ytterpolljorda" />
		<tag k="place" v="locality" />
		<tag k="ssr:stedsnr" v="55536" />
	</node>
	<node id="-711687" lat="68.6263027802" lon="14.5473305514">
		<tag k="name" v="Bømyran" />
		<tag k="natural" v="wetland" />
		<tag k="ssr:stedsnr" v="36650" />
	</node>
	<node id="-711683" lat="68.6169333297" lon="14.4975527826">
		<tag k="name" v="Brekkmyra" />
		<tag k="natural" v="wetland" />
		<tag k="ssr:stedsnr" v="36518" />
	</node>
</osm>
