<?xml version="1.0" encoding="UTF-8"?>
<<<<<<< HEAD
<osm version="0.6" generator="osmapis">
	<node lat="68.73555278077887" lon="14.671838881932675" id="-11309">
		<tag k="name" v="Oksbølvatnet" />
		<tag k="natural" v="water" />
		<tag k="ssr:stedsnr" v="17400" />
	</node>
	<node lat="68.65857777631958" lon="14.594741664947266" id="-11327">
		<tag k="alt_name" v="Pollvatnet" />
		<tag k="name" v="Pollåsvatnet" />
		<tag k="natural" v="water" />
		<tag k="ssr:stedsnr" v="18654" />
	</node>
	<node lat="68.77722777595926" lon="14.477327774945245" id="-11335">
		<tag k="name" v="Nykelva" />
		<tag k="ssr:stedsnr" v="36273" />
		<tag k="waterway" v="river" />
	</node>
	<node lat="68.75355277728687" lon="14.649938897076982" id="-11342">
		<tag k="name" v="Småelven" />
		<tag k="ssr:stedsnr" v="237522" />
		<tag k="waterway" v="stream" />
	</node>
	<node lat="68.74962778212989" lon="14.794083337219757" id="-11344">
		<tag k="name" v="Tverrdalselva" />
		<tag k="ssr:stedsnr" v="237557" />
		<tag k="waterway" v="stream" />
	</node>
	<node lat="68.77776388587183" lon="14.485808321359197" id="-11349">
		<tag k="name" v="Våka" />
		<tag k="natural" v="cape" />
		<tag k="ssr:stedsnr" v="239322" />
	</node>
	<node lat="68.7520694424499" lon="14.787016672008226" id="-11351">
		<tag k="name" v="Storhaugbukta" />
		<tag k="natural" v="bay" />
		<tag k="ssr:stedsnr" v="55518" />
	</node>
	<node lat="68.77916666881701" lon="14.508475005003822" id="-11355">
		<tag k="name" v="Seveleitelva" />
		<tag k="ssr:stedsnr" v="57314" />
		<tag k="waterway" v="stream" />
	</node>
	<node lat="68.64360555347639" lon="14.502936115608664" id="-11356">
		<tag k="name" v="Heståstjønna" />
		<tag k="natural" v="water" />
		<tag k="ssr:stedsnr" v="59121" />
	</node>
	<node lat="68.66518055337234" lon="14.487038878216325" id="-11357">
		<tag k="name" v="Holelva" />
		<tag k="ssr:stedsnr" v="59172" />
		<tag k="waterway" v="stream" />
	</node>
	<node lat="68.64833333386953" lon="14.620769436183986" id="-11361">
		<tag k="name" v="Oterbekken" />
		<tag k="ssr:stedsnr" v="59228" />
		<tag k="waterway" v="stream" />
	</node>
	<node lat="68.65847777643974" lon="14.503222233527786" id="-11363">
		<tag k="name" v="Lomstjønna" />
		<tag k="natural" v="water" />
		<tag k="ssr:stedsnr" v="241161" />
		<tag k="water" v="pond" />
	</node>
	<node lat="68.71261666483325" lon="14.536252783007768" id="-11366">
		<tag k="name" v="Skjellelva" />
		<tag k="ssr:stedsnr" v="241209" />
		<tag k="waterway" v="stream" />
	</node>
	<node lat="68.63726388567314" lon="14.57488055160714" id="-11367">
		<tag k="name" v="Bøvassodden" />
		<tag k="natural" v="cape" />
		<tag k="ssr:stedsnr" v="241215" />
	</node>
	<node lat="68.62682778183128" lon="14.566511113165324" id="-11375">
		<tag k="alt_name" v="Kringelvatnet" />
		<tag k="name" v="Kringeltjønna" />
		<tag k="natural" v="water" />
		<tag k="ssr:stedsnr" v="78522" />
	</node>
	<node lat="68.67039444059705" lon="14.619705559128413" id="-11377">
		<tag k="name" v="Aurtjønna" />
		<tag k="natural" v="water" />
		<tag k="ssr:stedsnr" v="78751" />
	</node>
	<node lat="68.6685111127934" lon="14.644541671088014" id="-11378">
		<tag k="name" v="Langfjordtjønna" />
		<tag k="natural" v="water" />
		<tag k="ssr:stedsnr" v="78753" />
	</node>
	<node lat="68.83256388892742" lon="14.695544436933435" id="-11386">
		<tag k="name" v="Kvalvikvatnet" />
		<tag k="natural" v="water" />
		<tag k="ssr:stedsnr" v="79847" />
	</node>
	<node lat="68.67821388584808" lon="14.487233323300691" id="-11405">
		<tag k="name" v="Fiskumyran" />
		<tag k="ssr:stedsnr" v="97369" />
		<tag k="waterway" v="river" />
	</node>
	<node lat="68.67829444728578" lon="14.666024999036303" id="-11414">
		<tag k="name" v="Lomstjønna" />
		<tag k="natural" v="water" />
		<tag k="ssr:stedsnr" v="116484" />
	</node>
	<node lat="68.705313892108" lon="14.72903332343432" id="-11418">
		<tag k="name" v="Nervatnet" />
		<tag k="natural" v="water" />
		<tag k="ssr:stedsnr" v="116368" />
	</node>
	<node lat="68.65986388632774" lon="14.490311118152274" id="-11423">
		<tag k="name" v="Bruelva" />
		<tag k="ssr:stedsnr" v="120171" />
		<tag k="waterway" v="stream" />
	</node>
	<node lat="68.63146944871941" lon="14.589702776493814" id="-11437">
		<tag k="name" v="Jonsåsvatnet" />
		<tag k="natural" v="water" />
		<tag k="ssr:stedsnr" v="139553" />
	</node>
	<node lat="68.65822778035867" lon="14.572463901426943" id="-11439">
		<tag k="name" v="Daltjønna" />
		<tag k="natural" v="water" />
		<tag k="ssr:stedsnr" v="139686" />
	</node>
	<node lat="68.65496944225903" lon="14.56450000259314" id="-11440">
		<tag k="name" v="Nøkkedalsvatnet" />
		<tag k="natural" v="water" />
		<tag k="ssr:stedsnr" v="139687" />
	</node>
	<node lat="68.65041388828408" lon="14.440166658006527" id="-11447">
		<tag k="name" v="Sjøelva" />
		<tag k="ssr:stedsnr" v="157252" />
		<tag k="waterway" v="stream" />
	</node>
	<node lat="68.71935277997802" lon="14.6220444405207" id="-11462">
		<tag k="name" v="Astersetelva" />
		<tag k="ssr:stedsnr" v="260326" />
		<tag k="waterway" v="stream" />
	</node>
	<node lat="68.72374722217451" lon="14.51088054892278" id="-11463">
		<tag k="name" v="Trolldalsvatnet" />
=======
<osm generator="osmapis" version="0.6">
	<node id="-199680" lat="68.6915055597" lon="14.4754555504">
		<tag k="name" v="Mjåsundneset" />
		<tag k="natural" v="cape" />
		<tag k="ssr:stedsnr" v="21057" />
	</node>
	<node id="-200701" lat="68.7663611131" lon="14.5374083404">
		<tag k="name" v="Trolldalsvatnet" />
		<tag k="natural" v="water" />
		<tag k="ssr:stedsnr" v="867514" />
	</node>
	<node id="-199162" lat="68.6671972186" lon="14.5013777749">
		<tag k="name" v="Olinatjønna" />
		<tag k="natural" v="water" />
		<tag k="ssr:stedsnr" v="666196" />
	</node>
	<node id="-199156" lat="68.7201944416" lon="14.6938916659">
		<tag k="name" v="Jørlandselva" />
		<tag k="ssr:stedsnr" v="662604" />
		<tag k="waterway" v="stream" />
	</node>
	<node id="-199666" lat="68.6585777763" lon="14.5947416649">
		<tag k="alt_name" v="Pollvatnet" />
		<tag k="name" v="Pollåsvatnet" />
		<tag k="natural" v="water" />
		<tag k="ssr:stedsnr" v="18654" />
	</node>
	<node id="-200689" lat="68.7436138853" lon="14.7551638772">
		<tag k="name" v="Tofttjønna" />
		<tag k="natural" v="water" />
		<tag k="ssr:stedsnr" v="867383" />
	</node>
	<node id="-200688" lat="68.7448944457" lon="14.8356277717">
		<tag k="name" v="Kuskarvatnet" />
		<tag k="natural" v="water" />
		<tag k="ssr:stedsnr" v="867372" />
	</node>
	<node id="-200684" lat="68.7144000019" lon="14.6118499884">
		<tag k="name" v="Astersetvatnet" />
		<tag k="natural" v="water" />
		<tag k="ssr:stedsnr" v="867323" />
	</node>
	<node id="-199079" lat="68.6816388933" lon="14.4737472136">
		<tag k="name" v="Grevneset" />
		<tag k="natural" v="cape" />
		<tag k="ssr:stedsnr" v="385215" />
	</node>
	<node id="-199656" lat="68.7752583362" lon="14.6732833332">
		<tag k="name" v="Møklandsvatnet" />
		<tag k="natural" v="water" />
		<tag k="ssr:stedsnr" v="18482" />
	</node>
	<node id="-199653" lat="68.7704999962" lon="14.5260888976">
		<tag k="name" v="Dalvatnet" />
		<tag k="natural" v="water" />
		<tag k="ssr:stedsnr" v="18463" />
		<tag k="water" v="lake" />
	</node>
	<node id="-200675" lat="68.636519441" lon="14.5858416759">
		<tag k="name" v="Jonsåstjønna" />
		<tag k="natural" v="water" />
		<tag k="ssr:stedsnr" v="848246" />
	</node>
	<node id="-199649" lat="68.7200500014" lon="14.4754500041">
		<tag k="name" v="Burnesvatnet" />
		<tag k="natural" v="water" />
		<tag k="ssr:stedsnr" v="18251" />
	</node>
	<node id="-200671" lat="68.7701444468" lon="14.547180566">
		<tag k="name" v="Auselva" />
		<tag k="ssr:stedsnr" v="846323" />
		<tag k="waterway" v="stream" />
	</node>
	<node id="-200767" lat="68.7249805598" lon="14.6552999977">
		<tag k="name" v="Slåttåselva" />
		<tag k="ssr:stedsnr" v="965596" />
		<tag k="waterway" v="stream" />
	</node>
	<node id="-200156" lat="68.6484027814" lon="14.5577139018">
		<tag k="name" v="Heggedalsvatnet" />
		<tag k="natural" v="water" />
		<tag k="ssr:stedsnr" v="381732" />
	</node>
	<node id="-200155" lat="68.6416777758" lon="14.5184527724">
		<tag k="name" v="Trolldalsvatnet" />
		<tag k="natural" v="water" />
		<tag k="ssr:stedsnr" v="381711" />
	</node>
	<node id="-200153" lat="68.6963861121" lon="14.4849416689">
		<tag k="name" v="Langvatnet" />
		<tag k="natural" v="water" />
		<tag k="ssr:stedsnr" v="381696" />
	</node>
	<node id="-200664" lat="68.7866194417" lon="14.6857222117">
		<tag k="name" v="Risdalselva" />
		<tag k="ssr:stedsnr" v="844608" />
		<tag k="waterway" v="stream" />
	</node>
	<node id="-200151" lat="68.68498889" lon="14.5851555589">
		<tag k="fixme" v="multiple name tags, choose one and add the other to alt_name" />
		<tag k="name" v="Langmovatnet;Langvatnet" />
		<tag k="natural" v="water" />
		<tag k="ssr:stedsnr" v="381683" />
	</node>
	<node id="-199631" lat="68.7355527808" lon="14.6718388819">
		<tag k="name" v="Oksbølvatnet" />
		<tag k="natural" v="water" />
		<tag k="ssr:stedsnr" v="17400" />
	</node>
	<node id="-199114" lat="68.779730553" lon="14.4990305542">
		<tag k="name" v="Ravatnet" />
		<tag k="natural" v="water" />
		<tag k="ssr:stedsnr" v="503974" />
		<tag k="water" v="lake" />
	</node>
	<node id="-200135" lat="68.7472194424" lon="14.7373000059">
		<tag k="name" v="Kråkhaugvatnet" />
		<tag k="natural" v="water" />
		<tag k="ssr:stedsnr" v="381356" />
	</node>
	<node id="-200645" lat="68.6769055581" lon="14.4871388854">
		<tag k="name" v="Fiskuelva" />
		<tag k="ssr:stedsnr" v="825319" />
		<tag k="waterway" v="stream" />
	</node>
	<node id="-199108" lat="68.822411112" lon="14.6552944459">
		<tag k="name" v="Trolldalsvatnet" />
		<tag k="natural" v="water" />
		<tag k="ssr:stedsnr" v="503843" />
	</node>
	<node id="-200130" lat="68.7254249969" lon="14.8142611206">
		<tag k="name" v="Storelva" />
		<tag k="ssr:stedsnr" v="381280" />
		<tag k="waterway" v="stream" />
	</node>
	<node id="-200638" lat="68.7317166637" lon="14.5901277714">
		<tag k="name" v="Skjettentjønna" />
		<tag k="natural" v="water" />
		<tag k="ssr:stedsnr" v="825262" />
	</node>
	<node id="-200634" lat="68.606480556" lon="14.5330888939">
		<tag k="name" v="Stortjønna" />
		<tag k="natural" v="water" />
		<tag k="ssr:stedsnr" v="825187" />
	</node>
	<node id="-199071" lat="68.7018333296" lon="14.7577416596">
		<tag k="name" v="Sirihola" />
		<tag k="natural" v="water" />
		<tag k="ssr:stedsnr" v="503281" />
	</node>
	<node id="-199828" lat="68.6782944473" lon="14.666024999">
		<tag k="name" v="Lomstjønna" />
		<tag k="natural" v="water" />
		<tag k="ssr:stedsnr" v="116484" />
	</node>
	<node id="-199599" lat="68.6713416681" lon="14.5952000051">
		<tag k="name" v="Oterbekken" />
		<tag k="ssr:stedsnr" v="928719" />
		<tag k="waterway" v="stream" />
	</node>
	<node id="-199085" lat="68.7776805534" lon="14.4846222123">
		<tag k="name" v="Husvatnet" />
		<tag k="natural" v="water" />
		<tag k="ssr:stedsnr" v="503493" />
	</node>
	<node id="-199084" lat="68.7165361147" lon="14.4499138794">
		<tag k="name" v="Kjerringstrandvatnet" />
		<tag k="natural" v="water" />
		<tag k="ssr:stedsnr" v="503249" />
	</node>
	<node id="-200103" lat="68.7080138931" lon="14.7356388869">
		<tag k="name" v="Øvervatnet" />
		<tag k="natural" v="water" />
		<tag k="ssr:stedsnr" v="358364" />
	</node>
	<node id="-198726" lat="68.7777638859" lon="14.4858083214">
		<tag k="name" v="Våka" />
		<tag k="natural" v="cape" />
		<tag k="ssr:stedsnr" v="239322" />
	</node>
	<node id="-199152" lat="68.7322249966" lon="14.6714694373">
		<tag k="name" v="Oksbølelva" />
		<tag k="ssr:stedsnr" v="662557" />
		<tag k="waterway" v="stream" />
	</node>
	<node id="-199128" lat="68.6875472204" lon="14.4650805509">
		<tag k="name" v="Straumelva" />
		<tag k="ssr:stedsnr" v="506214" />
		<tag k="waterway" v="river" />
	</node>
	<node id="-198809" lat="68.7979361111" lon="14.6565499953">
		<tag k="name" v="Dalvatnet" />
>>>>>>> e1d4bc35ff8a6074a6f2e91616a996b547c36f15
		<tag k="natural" v="water" />
		<tag k="ssr:stedsnr" v="261914" />
	</node>
<<<<<<< HEAD
	<node lat="68.71453610755673" lon="14.670666674016758" id="-11464">
		<tag k="fixme" v="multiple name tags, choose one and add the other to alt_name" />
		<tag k="name" v="Oppsåtevatnet;Prestvatnet" />
		<tag k="natural" v="water" />
		<tag k="ssr:stedsnr" v="260334" />
	</node>
	<node lat="68.67450555872819" lon="14.513066661121679" id="-11482">
		<tag k="name" v="Fagerhaugvatnet" />
		<tag k="natural" v="water" />
		<tag k="ssr:stedsnr" v="260665" />
	</node>
	<node lat="68.75795555941177" lon="14.574386105899766" id="-11497">
		<tag k="alt_name" v="Grubbkollvatnet" />
		<tag k="name" v="Grubbvatnet" />
=======
	<node id="-199060" lat="68.7794833318" lon="14.5316916627">
		<tag k="name" v="Svehaugelva" />
		<tag k="ssr:stedsnr" v="360309" />
		<tag k="waterway" v="stream" />
	</node>
	<node id="-200594" lat="68.7202888845" lon="14.7572944535">
		<tag k="fixme" v="multiple name tags, choose one and add the other to alt_name" />
		<tag k="name" v="Jørlandsdalsvatnet;Sommardalsvatnet" />
		<tag k="natural" v="water" />
		<tag k="ssr:stedsnr" v="807248" />
	</node>
	<node id="-200079" lat="68.6304666677" lon="14.5719861168">
		<tag k="name" v="Lomstjønna" />
		<tag k="natural" v="water" />
		<tag k="ssr:stedsnr" v="339275" />
	</node>
	<node id="-199564" lat="68.6823111069" lon="14.4153805599">
		<tag k="name" v="Buelva" />
		<tag k="ssr:stedsnr" v="871028" />
		<tag k="waterway" v="stream" />
	</node>
	<node id="-199051" lat="68.6681388856" lon="14.5910444555">
		<tag k="name" v="Oterbekktjønna" />
>>>>>>> e1d4bc35ff8a6074a6f2e91616a996b547c36f15
		<tag k="natural" v="water" />
		<tag k="ssr:stedsnr" v="484134" />
	</node>
	<node id="-199403" lat="68.7619972254" lon="14.7809333439">
		<tag k="name" v="Storråna" />
		<tag k="ssr:stedsnr" v="905584" />
		<tag k="waterway" v="stream" />
	</node>
<<<<<<< HEAD
	<node lat="68.75229722545842" lon="14.624588900836608" id="-11499">
=======
	<node id="-198805" lat="68.7522972255" lon="14.6245889008">
>>>>>>> e1d4bc35ff8a6074a6f2e91616a996b547c36f15
		<tag k="name" v="Skatvatnet" />
		<tag k="natural" v="water" />
		<tag k="ssr:stedsnr" v="261542" />
	</node>
<<<<<<< HEAD
	<node lat="68.7822944485013" lon="14.504891669226918" id="-11500">
		<tag k="name" v="Finnsundvadet" />
		<tag k="natural" v="bay" />
		<tag k="ssr:stedsnr" v="178312" />
	</node>
	<node lat="68.79793611110944" lon="14.656549995310515" id="-11502">
		<tag k="name" v="Dalvatnet" />
		<tag k="natural" v="water" />
		<tag k="ssr:stedsnr" v="261914" />
	</node>
	<node lat="68.64619166388816" lon="14.488777771257025" id="-11524">
		<tag k="name" v="Soppåselva" />
		<tag k="ssr:stedsnr" v="199727" />
		<tag k="waterway" v="stream" />
	</node>
	<node lat="68.71861111039817" lon="14.448691674880372" id="-11530">
		<tag k="name" v="Kjerringstrandelva" />
		<tag k="ssr:stedsnr" v="203030" />
		<tag k="waterway" v="stream" />
	</node>
	<node lat="68.79943333038041" lon="14.652388899830566" id="-11553">
		<tag k="name" v="Utskorelva" />
		<tag k="ssr:stedsnr" v="237614" />
		<tag k="waterway" v="stream" />
	</node>
	<node lat="68.63409444848114" lon="14.602388879218683" id="-11569">
		<tag k="name" v="Rambergvatnet" />
		<tag k="natural" v="water" />
		<tag k="ssr:stedsnr" v="260556" />
	</node>
	<node lat="68.69781666944029" lon="14.58076944994011" id="-11572">
		<tag k="name" v="Veggtjønna" />
		<tag k="natural" v="water" />
		<tag k="ssr:stedsnr" v="260702" />
	</node>
	<node lat="68.71433888811308" lon="14.78706109909721" id="-11575">
		<tag k="name" v="Keipvatnet" />
		<tag k="natural" v="water" />
		<tag k="ssr:stedsnr" v="261289" />
	</node>
	<node lat="68.65537777312873" lon="14.449497230106681" id="-11589">
		<tag k="name" v="Stortveita" />
		<tag k="ssr:stedsnr" v="279281" />
		<tag k="waterway" v="stream" />
	</node>
	<node lat="68.69294444313678" lon="14.601566658366547" id="-11612">
		<tag k="name" v="Mjåsundet" />
		<tag k="natural" v="strait" />
		<tag k="ssr:stedsnr" v="298178" />
	</node>
	<node lat="68.75635833571812" lon="14.577852773731347" id="-11615">
		<tag k="name" v="Grubbelva" />
		<tag k="ssr:stedsnr" v="298273" />
		<tag k="waterway" v="stream" />
	</node>
	<node lat="68.6429027817436" lon="14.595541677496954" id="-11622">
		<tag k="name" v="Litl Knutåstjønna" />
		<tag k="natural" v="water" />
		<tag k="ssr:stedsnr" v="301215" />
	</node>
	<node lat="68.72671944119716" lon="14.66258332808697" id="-11635">
		<tag k="name" v="Slåttåsvatnet" />
		<tag k="natural" v="water" />
		<tag k="ssr:stedsnr" v="321242" />
	</node>
	<node lat="68.70296388772161" lon="14.613452765697389" id="-11636">
		<tag k="name" v="Kringelvatnet" />
		<tag k="natural" v="water" />
		<tag k="ssr:stedsnr" v="321284" />
	</node>
	<node lat="68.67805833140123" lon="14.480236107736737" id="-11641">
		<tag k="name" v="Saltvatnet" />
		<tag k="natural" v="water" />
		<tag k="ssr:stedsnr" v="321608" />
	</node>
	<node lat="68.70801389310708" lon="14.735638886897895" id="-11672">
		<tag k="name" v="Øvervatnet" />
		<tag k="natural" v="water" />
		<tag k="ssr:stedsnr" v="358364" />
	</node>
	<node lat="68.77948333182492" lon="14.531691662653406" id="-11678">
		<tag k="name" v="Svehaugelva" />
		<tag k="ssr:stedsnr" v="360309" />
		<tag k="waterway" v="stream" />
	</node>
	<node lat="68.64167777579067" lon="14.51845277236729" id="-11697">
		<tag k="name" v="Trolldalsvatnet" />
		<tag k="natural" v="water" />
		<tag k="ssr:stedsnr" v="381711" />
	</node>
	<node lat="68.6484027813636" lon="14.557713901800836" id="-11698">
		<tag k="name" v="Heggedalsvatnet" />
		<tag k="natural" v="water" />
		<tag k="ssr:stedsnr" v="381732" />
	</node>
	<node lat="68.68163889327604" lon="14.47374721359822" id="-11718">
		<tag k="name" v="Grevneset" />
		<tag k="natural" v="cape" />
		<tag k="ssr:stedsnr" v="385215" />
	</node>
	<node lat="68.66813888560286" lon="14.591044455479016" id="-11723">
		<tag k="name" v="Oterbekktjønna" />
		<tag k="natural" v="water" />
		<tag k="ssr:stedsnr" v="484134" />
	</node>
	<node lat="68.69723055146834" lon="14.65042499935462" id="-11738">
		<tag k="name" v="Sneisvatnet" />
		<tag k="natural" v="water" />
		<tag k="ssr:stedsnr" v="419384" />
	</node>
	<node lat="68.67896110957146" lon="14.524552780392506" id="-11758">
		<tag k="alt_name" v="Børgevatnet, l;Litl Børgevatnet" />
		<tag k="name" v="Litlbørgevatnet" />
		<tag k="natural" v="water" />
		<tag k="ssr:stedsnr" v="442645" />
	</node>
	<node lat="68.75214167146105" lon="14.76659165557336" id="-11800">
		<tag k="name" v="Sandbukta" />
		<tag k="natural" v="bay" />
		<tag k="ssr:stedsnr" v="503505" />
	</node>
	<node lat="68.7797305529948" lon="14.499030554160864" id="-11810">
		<tag k="name" v="Ravatnet" />
		<tag k="natural" v="water" />
		<tag k="ssr:stedsnr" v="503974" />
		<tag k="water" v="lake" />
	</node>
	<node lat="68.68754722038283" lon="14.465080550864817" id="-11815">
		<tag k="name" v="Straumelva" />
		<tag k="ssr:stedsnr" v="506214" />
		<tag k="waterway" v="river" />
	</node>
	<node lat="68.65566666836966" lon="14.436686106333683" id="-11821">
		<tag k="name" v="Jarsbergelva" />
		<tag k="ssr:stedsnr" v="521259" />
		<tag k="waterway" v="stream" />
	</node>
	<node lat="68.73166110996362" lon="14.688475006003749" id="-11835">
		<tag k="name" v="Nordverhalsløykan" />
		<tag k="natural" v="water" />
		<tag k="ssr:stedsnr" v="685261" />
	</node>
	<node lat="68.72802777921662" lon="14.653475007134396" id="-11836">
		<tag k="name" v="Haugvatnet" />
		<tag k="natural" v="water" />
		<tag k="ssr:stedsnr" v="685262" />
	</node>
	<node lat="68.7513972218565" lon="14.666166664429424" id="-11848">
		<tag k="alt_name" v="Skitenbakktjørna" />
		<tag k="name" v="Skjettenbakktjønna" />
		<tag k="natural" v="water" />
		<tag k="ssr:stedsnr" v="685579" />
	</node>
	<node lat="68.77796111244368" lon="14.510311122745591" id="-11852">
		<tag k="name" v="Toftvatnet" />
		<tag k="natural" v="water" />
		<tag k="ssr:stedsnr" v="685517" />
	</node>
	<node lat="68.75970277824088" lon="14.533491662820445" id="-11856">
		<tag k="name" v="Mannvatnet" />
		<tag k="natural" v="water" />
		<tag k="ssr:stedsnr" v="685537" />
	</node>
	<node lat="68.66657222166722" lon="14.730880551584807" id="-11858">
		<tag k="alt_name" v="Røssnesvatnet" />
		<tag k="name" v="Røsnesvatnet" />
		<tag k="natural" v="water" />
		<tag k="ssr:stedsnr" v="685712" />
	</node>
	<node lat="68.66650000188234" lon="14.607677767895273" id="-11860">
		<tag k="name" v="Høgåsvatnet" />
		<tag k="natural" v="water" />
		<tag k="ssr:stedsnr" v="685721" />
	</node>
	<node lat="68.68498611383126" lon="14.404555550955758" id="-11881">
		<tag k="name" v="Hestelva" />
		<tag k="ssr:stedsnr" v="688044" />
		<tag k="waterway" v="stream" />
	</node>
	<node lat="68.71397500422746" lon="14.745097215092276" id="-11915">
		<tag k="name" v="Rundsteinheivatnet" />
		<tag k="natural" v="water" />
		<tag k="ssr:stedsnr" v="601367" />
	</node>
	<node lat="68.73674444236431" lon="14.749605550833571" id="-11918">
		<tag k="name" v="Norddalselva" />
		<tag k="ssr:stedsnr" v="601565" />
		<tag k="waterway" v="stream" />
	</node>
	<node lat="68.78040833440843" lon="14.525258345572405" id="-11922">
		<tag k="name" v="Gauklielva" />
		<tag k="ssr:stedsnr" v="602350" />
		<tag k="waterway" v="stream" />
	</node>
	<node lat="68.69616388717077" lon="14.619980565395219" id="-11933">
		<tag k="name" v="Løypåstjønna" />
		<tag k="natural" v="water" />
		<tag k="ssr:stedsnr" v="624671" />
	</node>
	<node lat="68.65538055527625" lon="14.478572232208283" id="-11936">
		<tag k="name" v="Nøkktjønna" />
		<tag k="natural" v="water" />
		<tag k="ssr:stedsnr" v="624722" />
	</node>
	<node lat="68.73409722617954" lon="14.599422233096192" id="-11944">
		<tag k="name" v="Risåstjønna" />
		<tag k="natural" v="water" />
		<tag k="ssr:stedsnr" v="703360" />
	</node>
	<node lat="68.64717222668806" lon="14.43598887815046" id="-11958">
		<tag k="name" v="Mølnelva" />
		<tag k="ssr:stedsnr" v="704249" />
		<tag k="waterway" v="stream" />
	</node>
	<node lat="68.72019444164485" lon="14.693891665902232" id="-11986">
		<tag k="name" v="Jørlandselva" />
		<tag k="ssr:stedsnr" v="662604" />
		<tag k="waterway" v="stream" />
	</node>
	<node lat="68.6971055595563" lon="14.751011114566571" id="-12025">
		<tag k="fixme" v="multiple name tags, choose one and add the other to alt_name" />
		<tag k="name" v="Haugsnesdalsvatnet;Kvanntovatnet" />
		<tag k="natural" v="water" />
		<tag k="ssr:stedsnr" v="722384" />
	</node>
	<node lat="68.78220278161903" lon="14.503383340792254" id="-12029">
		<tag k="name" v="Finnsundet" />
		<tag k="natural" v="strait" />
		<tag k="ssr:stedsnr" v="724313" />
	</node>
	<node lat="68.67225277509385" lon="14.515652774346979" id="-12032">
		<tag k="name" v="Lomstjønna" />
		<tag k="natural" v="water" />
		<tag k="ssr:stedsnr" v="727082" />
	</node>
	<node lat="68.67137499730495" lon="14.529125010104858" id="-12035">
		<tag k="name" v="Skjellelva" />
		<tag k="ssr:stedsnr" v="727179" />
		<tag k="waterway" v="stream" />
	</node>
	<node lat="68.6694416642087" lon="14.546950005545424" id="-12037">
		<tag k="name" v="Storrona" />
		<tag k="ssr:stedsnr" v="727186" />
		<tag k="waterway" v="stream" />
	</node>
	<node lat="68.76101666971297" lon="14.757741676415138" id="-12059">
		<tag k="name" v="Pollvatnet" />
		<tag k="natural" v="water" />
		<tag k="ssr:stedsnr" v="746540" />
	</node>
	<node lat="68.68285555799028" lon="14.469033322313095" id="-12062">
		<tag k="name" v="Teinvalan" />
		<tag k="natural" v="bay" />
		<tag k="ssr:stedsnr" v="749217" />
	</node>
	<node lat="68.76199722537983" lon="14.780933343873725" id="-12071">
		<tag k="name" v="Storråna" />
		<tag k="ssr:stedsnr" v="905584" />
		<tag k="waterway" v="stream" />
	</node>
	<node lat="68.62309999935013" lon="14.56398887972762" id="-12080">
		<tag k="name" v="Bøelva" />
		<tag k="ssr:stedsnr" v="764254" />
		<tag k="waterway" v="river" />
	</node>
	<node lat="68.62089444383022" lon="14.521038890708507" id="-12084">
		<tag k="name" v="Ådalselva" />
		<tag k="ssr:stedsnr" v="764698" />
		<tag k="waterway" v="river" />
	</node>
	<node lat="68.66366944837299" lon="14.628291669260806" id="-12087">
		<tag k="name" v="Ringstadelva" />
		<tag k="ssr:stedsnr" v="909174" />
		<tag k="waterway" v="stream" />
	</node>
	<node lat="68.66186388623295" lon="14.514694432812943" id="-12088">
		<tag k="name" v="Korselva" />
		<tag k="ssr:stedsnr" v="909182" />
		<tag k="waterway" v="stream" />
	</node>
	<node lat="68.78661944169438" lon="14.685722211650413" id="-12121">
		<tag k="name" v="Risdalselva" />
		<tag k="ssr:stedsnr" v="844608" />
		<tag k="waterway" v="stream" />
	</node>
	<node lat="68.7701444468288" lon="14.547180565954868" id="-12128">
		<tag k="name" v="Auselva" />
		<tag k="ssr:stedsnr" v="846323" />
		<tag k="waterway" v="stream" />
	</node>
	<node lat="68.72055833200146" lon="14.669080565483807" id="-12136">
=======
	<node id="-200426" lat="68.6801055559" lon="14.5496777678">
		<tag k="name" v="Børgevatnet" />
		<tag k="natural" v="water" />
		<tag k="ssr:stedsnr" v="624655" />
	</node>
	<node id="-199545" lat="68.7085027784" lon="14.5821138987">
		<tag k="name" v="Halselva" />
		<tag k="ssr:stedsnr" v="946462" />
		<tag k="waterway" v="stream" />
	</node>
	<node id="-199402" lat="68.6653361126" lon="14.6447916597">
		<tag k="name" v="Oksskartjønna" />
		<tag k="natural" v="water" />
		<tag k="ssr:stedsnr" v="905319" />
	</node>
	<node id="-199031" lat="68.6429027817" lon="14.5955416775">
		<tag k="name" v="Litl Knutåstjønna" />
		<tag k="natural" v="water" />
		<tag k="ssr:stedsnr" v="301215" />
	</node>
	<node id="-200563" lat="68.7287750043" lon="14.7288472305">
		<tag k="name" v="Jørlandsdalselva" />
		<tag k="ssr:stedsnr" v="783588" />
		<tag k="waterway" v="stream" />
	</node>
	<node id="-200049" lat="68.6780583314" lon="14.4802361077">
		<tag k="name" v="Saltvatnet" />
		<tag k="natural" v="water" />
		<tag k="ssr:stedsnr" v="321608" />
	</node>
	<node id="-200560" lat="68.7461861081" lon="14.7249277827">
		<tag k="name" v="Lubberten" />
		<tag k="natural" v="bay" />
		<tag k="ssr:stedsnr" v="783543" />
	</node>
	<node id="-199485" lat="68.6368388917" lon="14.5703888843">
		<tag k="name" v="Bøvatnet" />
		<tag k="natural" v="water" />
		<tag k="ssr:stedsnr" v="928498" />
		<tag k="water" v="lake" />
	</node>
	<node id="-200556" lat="68.749263887" lon="14.6575472213">
		<tag k="name" v="Ravnåselva" />
		<tag k="ssr:stedsnr" v="783493" />
		<tag k="waterway" v="stream" />
	</node>
	<node id="-198716" lat="68.7535527773" lon="14.6499388971">
		<tag k="name" v="Småelven" />
		<tag k="ssr:stedsnr" v="237522" />
		<tag k="waterway" v="stream" />
	</node>
	<node id="-199743" lat="68.6651805534" lon="14.4870388782">
		<tag k="name" v="Holelva" />
		<tag k="ssr:stedsnr" v="59172" />
		<tag k="waterway" v="stream" />
	</node>
	<node id="-198717" lat="68.7496277821" lon="14.7940833372">
		<tag k="name" v="Tverrdalselva" />
		<tag k="ssr:stedsnr" v="237557" />
		<tag k="waterway" v="stream" />
	</node>
	<node id="-200545" lat="68.6208944438" lon="14.5210388907">
		<tag k="name" v="Ådalselva" />
		<tag k="ssr:stedsnr" v="764698" />
		<tag k="waterway" v="river" />
	</node>
	<node id="-200543" lat="68.6773194442" lon="14.5032222189">
		<tag k="name" v="Fagerhaugelva" />
		<tag k="ssr:stedsnr" v="764357" />
		<tag k="waterway" v="stream" />
	</node>
	<node id="-200542" lat="68.6800138914" lon="14.5422749947">
		<tag k="name" v="Litlholmen" />
		<tag k="place" v="islet" />
		<tag k="ssr:stedsnr" v="764354" />
	</node>
	<node id="-199226" lat="68.7597027782" lon="14.5334916628">
		<tag k="name" v="Mannvatnet" />
		<tag k="natural" v="water" />
		<tag k="ssr:stedsnr" v="685537" />
	</node>
	<node id="-199002" lat="68.6978166694" lon="14.5807694499">
		<tag k="name" v="Veggtjønna" />
		<tag k="natural" v="water" />
		<tag k="ssr:stedsnr" v="260702" />
	</node>
	<node id="-200023" lat="68.7029638877" lon="14.6134527657">
		<tag k="name" v="Kringelvatnet" />
		<tag k="natural" v="water" />
		<tag k="ssr:stedsnr" v="321284" />
	</node>
	<node id="-200022" lat="68.7167000046" lon="14.5441666601">
		<tag k="name" v="Skålbrekkvatnet" />
		<tag k="natural" v="water" />
		<tag k="ssr:stedsnr" v="321279" />
	</node>
	<node id="-198997" lat="68.6584777764" lon="14.5032222335">
		<tag k="name" v="Lomstjønna" />
		<tag k="natural" v="water" />
		<tag k="ssr:stedsnr" v="241161" />
		<tag k="water" v="pond" />
	</node>
	<node id="-198996" lat="68.6372638857" lon="14.5748805516">
		<tag k="name" v="Bøvassodden" />
		<tag k="natural" v="cape" />
		<tag k="ssr:stedsnr" v="241215" />
	</node>
	<node id="-198995" lat="68.7126166648" lon="14.536252783">
		<tag k="name" v="Skjellelva" />
		<tag k="ssr:stedsnr" v="241209" />
		<tag k="waterway" v="stream" />
	</node>
	<node id="-200017" lat="68.7197444461" lon="14.5825999987">
		<tag k="name" v="Olsetvatnet" />
		<tag k="natural" v="water" />
		<tag k="ssr:stedsnr" v="321258" />
	</node>
	<node id="-199504" lat="68.6806777753" lon="14.4420777802">
		<tag k="name" v="Sevtjønna" />
		<tag k="natural" v="water" />
		<tag k="ssr:stedsnr" v="931063" />
	</node>
	<node id="-200015" lat="68.7267194412" lon="14.6625833281">
		<tag k="name" v="Slåttåsvatnet" />
		<tag k="natural" v="water" />
		<tag k="ssr:stedsnr" v="321242" />
	</node>
	<node id="-199394" lat="68.6971055596" lon="14.7510111146">
		<tag k="name" v="Haugsnesdalsvatnet" />
		<tag k="natural" v="water" />
		<tag k="ssr:stedsnr" v="722384" />
	</node>
	<node id="-200521" lat="68.6816638885" lon="14.4444472314">
		<tag k="name" v="Bjørnvasselva" />
		<tag k="ssr:stedsnr" v="749052" />
		<tag k="waterway" v="stream" />
	</node>
	<node id="-199222" lat="68.7779611124" lon="14.5103111227">
		<tag k="name" v="Toftvatnet" />
		<tag k="natural" v="water" />
		<tag k="ssr:stedsnr" v="685517" />
	</node>
	<node id="-199490" lat="68.6781499962" lon="14.6000305601">
		<tag k="name" v="Storskogåsvatnet" />
		<tag k="natural" v="water" />
		<tag k="ssr:stedsnr" v="928599" />
	</node>
	<node id="-200509" lat="68.7610166697" lon="14.7577416764">
		<tag k="name" v="Pollvatnet" />
		<tag k="natural" v="water" />
		<tag k="ssr:stedsnr" v="746540" />
	</node>
	<node id="-198970" lat="68.754500002" lon="14.8107805552">
		<tag k="fixme" v="multiple name tags, choose one and add the other to alt_name" />
		<tag k="name" v="Likkjdalsvatnet;Litlvatnet" />
		<tag k="natural" v="water" />
		<tag k="ssr:stedsnr" v="443530" />
	</node>
	<node id="-199480" lat="68.7679027743" lon="14.5505416757">
		<tag k="name" v="Ausa" />
		<tag k="natural" v="water" />
		<tag k="ssr:stedsnr" v="928458" />
	</node>
	<node id="-200501" lat="68.7157249985" lon="14.6877083372">
		<tag k="alt_name" v="Salttjønna" />
		<tag k="name" v="Saltvatnet" />
		<tag k="natural" v="water" />
		<tag k="ssr:stedsnr" v="746276" />
	</node>
	<node id="-199278" lat="68.6471722267" lon="14.4359888782">
		<tag k="name" v="Mølnelva" />
		<tag k="ssr:stedsnr" v="704249" />
		<tag k="waterway" v="stream" />
	</node>
	<node id="-200497" lat="68.6395166689" lon="14.6249527807">
		<tag k="fixme" v="multiple name tags, choose one and add the other to alt_name" />
		<tag k="name" v="Steinvalen;Tjønnen" />
		<tag k="natural" v="water" />
		<tag k="ssr:stedsnr" v="745534" />
	</node>
	<node id="-198957" lat="68.6968444422" lon="14.7508305497">
		<tag k="name" v="Kvanntovatnet" />
		<tag k="natural" v="water" />
		<tag k="ssr:stedsnr" v="442675" />
	</node>
	<node id="-199980" lat="68.6738611125" lon="14.5491777778">
		<tag k="name" v="Veavatnet" />
		<tag k="natural" v="water" />
		<tag k="ssr:stedsnr" v="200647" />
	</node>
	<node id="-199466" lat="68.7034555517" lon="14.5159138939">
		<tag k="name" v="Kringelvatnet" />
		<tag k="natural" v="water" />
		<tag k="ssr:stedsnr" v="928274" />
	</node>
	<node id="-198953" lat="68.6789611096" lon="14.5245527804">
		<tag k="alt_name" v="Børgevatnet, l;Litl Børgevatnet" />
		<tag k="name" v="Litlbørgevatnet" />
		<tag k="natural" v="water" />
		<tag k="ssr:stedsnr" v="442645" />
	</node>
	<node id="-199461" lat="68.720558332" lon="14.6690805655">
>>>>>>> e1d4bc35ff8a6074a6f2e91616a996b547c36f15
		<tag k="name" v="Siverttjønna" />
		<tag k="natural" v="water" />
		<tag k="ssr:stedsnr" v="928232" />
	</node>
<<<<<<< HEAD
	<node lat="68.63683889168536" lon="14.570388884253354" id="-12152">
		<tag k="name" v="Bøvatnet" />
		<tag k="natural" v="water" />
		<tag k="ssr:stedsnr" v="928498" />
		<tag k="water" v="lake" />
	</node>
	<node lat="68.6713416680849" lon="14.595200005058976" id="-12161">
		<tag k="name" v="Oterbekken" />
		<tag k="ssr:stedsnr" v="928719" />
		<tag k="waterway" v="stream" />
	</node>
	<node lat="68.78835833629311" lon="14.517041670502877" id="-12170">
		<tag k="alt_name" v="Draugtjørna" />
		<tag k="name" v="Drågtjønna" />
		<tag k="natural" v="water" />
		<tag k="ssr:stedsnr" v="867982" />
	</node>
	<node lat="68.70766666877438" lon="14.709780562251739" id="-12171">
		<tag k="name" v="Kvernfjordvatnet" />
		<tag k="natural" v="water" />
		<tag k="ssr:stedsnr" v="868284" />
	</node>
	<node lat="68.68067777526102" lon="14.442077780156705" id="-12188">
		<tag k="name" v="Sevtjønna" />
		<tag k="natural" v="water" />
		<tag k="ssr:stedsnr" v="931063" />
	</node>
	<node lat="68.66533611257319" lon="14.644791659659708" id="-12207">
		<tag k="name" v="Oksskartjønna" />
		<tag k="natural" v="water" />
		<tag k="ssr:stedsnr" v="905319" />
	</node>
	<node lat="68.70345555174133" lon="14.515913893921637" id="-12220">
		<tag k="name" v="Kringelvatnet" />
		<tag k="natural" v="water" />
		<tag k="ssr:stedsnr" v="928274" />
	</node>
	<node lat="68.76790277430761" lon="14.55054167568413" id="-12225">
		<tag k="name" v="Ausa" />
		<tag k="natural" v="water" />
		<tag k="ssr:stedsnr" v="928458" />
	</node>
	<node lat="68.67814999622038" lon="14.600030560071735" id="-12229">
		<tag k="name" v="Storskogåsvatnet" />
		<tag k="natural" v="water" />
		<tag k="ssr:stedsnr" v="928599" />
	</node>
	<node lat="68.70010555988736" lon="14.463361106683136" id="-12238">
		<tag k="name" v="Handkleppelva" />
		<tag k="ssr:stedsnr" v="931157" />
		<tag k="waterway" v="stream" />
	</node>
	<node lat="68.68045277424183" lon="14.545100003019096" id="-12240">
		<tag k="name" v="Storholmen" />
		<tag k="place" v="islet" />
		<tag k="ssr:stedsnr" v="946312" />
	</node>
	<node lat="68.72889166288257" lon="14.64597777018414" id="-12255">
		<tag k="name" v="Haugelva" />
		<tag k="ssr:stedsnr" v="965535" />
		<tag k="waterway" v="stream" />
	</node>
	<node lat="68.68231666968232" lon="14.617358335593579" id="-12257">
		<tag k="name" v="Vassbukta" />
		<tag k="natural" v="bay" />
		<tag k="ssr:stedsnr" v="965296" />
	</node>
	<node lat="68.77823333701811" lon="14.490102772039094" id="-12258">
		<tag k="name" v="Fiskelva" />
		<tag k="ssr:stedsnr" v="967298" />
		<tag k="waterway" v="stream" />
	</node>
	<node lat="68.72005000139856" lon="14.475450004078368" id="-12279">
		<tag k="name" v="Burnesvatnet" />
		<tag k="natural" v="water" />
		<tag k="ssr:stedsnr" v="18251" />
	</node>
	<node lat="68.77049999621227" lon="14.526088897605776" id="-12290">
		<tag k="name" v="Dalvatnet" />
		<tag k="natural" v="water" />
		<tag k="ssr:stedsnr" v="18463" />
		<tag k="water" v="lake" />
	</node>
	<node lat="68.77525833620152" lon="14.673283333165795" id="-12291">
		<tag k="name" v="Møklandsvatnet" />
		<tag k="natural" v="water" />
		<tag k="ssr:stedsnr" v="18482" />
	</node>
	<node lat="68.6915055596787" lon="14.475455550395173" id="-12310">
		<tag k="name" v="Mjåsundneset" />
=======
	<node id="-199971" lat="68.7148277782" lon="14.5188027797">
		<tag k="alt_name" v="Jødalsvatnet" />
		<tag k="name" v="Gjødalsvatnet" />
		<tag k="natural" v="water" />
		<tag k="ssr:stedsnr" v="200297" />
	</node>
	<node id="-199131" lat="68.7036777753" lon="14.4419749897">
		<tag k="name" v="Elva" />
		<tag k="ssr:stedsnr" v="506242" />
		<tag k="waterway" v="stream" />
	</node>
	<node id="-198907" lat="68.6881444431" lon="14.7211805448">
		<tag k="name" v="Kobbåstjønna" />
		<tag k="natural" v="water" />
		<tag k="ssr:stedsnr" v="298463" />
	</node>
	<node id="-200477" lat="68.639269443" lon="14.4578638902">
		<tag k="name" v="Eliashøla" />
		<tag k="place" v="locality" />
		<tag k="ssr:stedsnr" v="643264" />
	</node>
	<node id="-199961" lat="68.7744888883" lon="14.5122916675">
		<tag k="alt_name" v="Lunnvatnet" />
		<tag k="name" v="Lundvatnet" />
		<tag k="natural" v="water" />
		<tag k="ssr:stedsnr" v="199527" />
	</node>
	<node id="-199952" lat="68.6424249995" lon="14.5132222268">
		<tag k="name" v="Litl-Trolldalsvatnet" />
		<tag k="natural" v="water" />
		<tag k="ssr:stedsnr" v="181140" />
	</node>
	<node id="-200152" lat="68.6862222237" lon="14.6226889004">
		<tag k="name" v="Gåslandsvatnet" />
		<tag k="natural" v="water" />
		<tag k="ssr:stedsnr" v="381685" />
		<tag k="water" v="lake" />
	</node>
	<node id="-198926" lat="68.7339611083" lon="14.7601111181">
		<tag k="name" v="Norddalsvatnet" />
		<tag k="natural" v="water" />
		<tag k="ssr:stedsnr" v="442295" />
	</node>
	<node id="-199436" lat="68.6230999994" lon="14.5639888797">
		<tag k="name" v="Bøelva" />
		<tag k="ssr:stedsnr" v="764254" />
		<tag k="waterway" v="river" />
	</node>
	<node id="-198921" lat="68.7439499963" lon="14.5445472298">
		<tag k="name" v="Kobbvågvatnet" />
		<tag k="natural" v="water" />
		<tag k="ssr:stedsnr" v="441328" />
	</node>
	<node id="-199432" lat="68.6618638862" lon="14.5146944328">
		<tag k="name" v="Korselva" />
		<tag k="ssr:stedsnr" v="909182" />
		<tag k="waterway" v="stream" />
	</node>
	<node id="-198956" lat="68.6835305558" lon="14.4449444329">
		<tag k="name" v="Bjørnvatnet" />
		<tag k="natural" v="water" />
		<tag k="ssr:stedsnr" v="442672" />
	</node>
	<node id="-199424" lat="68.682855558" lon="14.4690333223">
		<tag k="name" v="Teinvalan" />
		<tag k="natural" v="bay" />
		<tag k="ssr:stedsnr" v="749217" />
	</node>
	<node id="-199934" lat="68.7786861103" lon="14.6830861144">
		<tag k="name" v="Møklandselva" />
		<tag k="ssr:stedsnr" v="173690" />
		<tag k="waterway" v="stream" />
	</node>
	<node id="-198954" lat="68.6897333351" lon="14.6252694412">
		<tag k="alt_name" v="Korsnesan" />
		<tag k="name" v="Korsneset" />
>>>>>>> e1d4bc35ff8a6074a6f2e91616a996b547c36f15
		<tag k="natural" v="cape" />
		<tag k="ssr:stedsnr" v="442653" />
	</node>
<<<<<<< HEAD
	<node lat="68.69611388469548" lon="14.51994445501787" id="-12320">
		<tag k="name" v="Hundsdalselva" />
		<tag k="ssr:stedsnr" v="36299" />
		<tag k="waterway" v="stream" />
	</node>
	<node lat="68.67767777991739" lon="14.537911115952125" id="-12329">
		<tag k="name" v="Veaelva" />
		<tag k="ssr:stedsnr" v="36332" />
		<tag k="waterway" v="stream" />
	</node>
	<node lat="68.8066472232797" lon="14.56772777028568" id="-12343">
		<tag k="name" v="Malneselva" />
		<tag k="ssr:stedsnr" v="55313" />
		<tag k="waterway" v="stream" />
	</node>
	<node lat="68.6630361158606" lon="14.548852769145524" id="-12355">
		<tag k="name" v="Gjurvatnet" />
		<tag k="natural" v="water" />
		<tag k="ssr:stedsnr" v="59149" />
	</node>
	<node lat="68.72426111400934" lon="14.686033325994396" id="-12362">
		<tag k="alt_name" v="Krestenkallvatnet" />
		<tag k="name" v="Kristenkallvatnet" />
		<tag k="natural" v="water" />
		<tag k="ssr:stedsnr" v="78293" />
	</node>
	<node lat="68.69463055944374" lon="14.652661117856814" id="-12373">
		<tag k="name" v="Sneistjønna" />
		<tag k="natural" v="water" />
		<tag k="ssr:stedsnr" v="78678" />
	</node>
	<node lat="68.68339444048709" lon="14.621555555147987" id="-12375">
		<tag k="alt_name" v="Engenes" />
		<tag k="name" v="Engeneset" />
		<tag k="natural" v="cape" />
		<tag k="ssr:stedsnr" v="78638" />
	</node>
	<node lat="68.62939444710942" lon="14.446813899248404" id="-12399">
		<tag k="name" v="Strandelva" />
		<tag k="ssr:stedsnr" v="97155" />
		<tag k="waterway" v="stream" />
	</node>
	<node lat="68.75418889347456" lon="14.80563888341698" id="-12410">
		<tag k="name" v="Likkjdalselva" />
		<tag k="ssr:stedsnr" v="113251" />
		<tag k="waterway" v="stream" />
	</node>
	<node lat="68.67878333639506" lon="14.625133326074392" id="-12415">
		<tag k="name" v="Nøkkeneset" />
		<tag k="natural" v="cape" />
		<tag k="ssr:stedsnr" v="116264" />
	</node>
	<node lat="68.7500111152026" lon="14.727452778559009" id="-12422">
		<tag k="name" v="Lakselva" />
		<tag k="ssr:stedsnr" v="116562" />
		<tag k="waterway" v="stream" />
	</node>
	<node lat="68.64638610753592" lon="14.609161106428568" id="-12438">
		<tag k="name" v="Ørnåsvatnet" />
		<tag k="natural" v="water" />
		<tag k="ssr:stedsnr" v="138725" />
	</node>
	<node lat="68.76844444486395" lon="14.485377773053752" id="-12451">
		<tag k="alt_name" v="Mærstjørna" />
		<tag k="name" v="Merstjønna" />
		<tag k="natural" v="water" />
		<tag k="ssr:stedsnr" v="139522" />
	</node>
	<node lat="68.77868611028352" lon="14.68308611439984" id="-12489">
		<tag k="name" v="Møklandselva" />
		<tag k="ssr:stedsnr" v="173690" />
		<tag k="waterway" v="stream" />
	</node>
	<node lat="68.73050833153499" lon="14.679669444325793" id="-12492">
		<tag k="name" v="Nordverhalsvatnet" />
		<tag k="natural" v="water" />
		<tag k="ssr:stedsnr" v="176500" />
	</node>
	<node lat="68.76800277509109" lon="14.537325000747678" id="-12497">
		<tag k="name" v="Trolldalselva" />
		<tag k="ssr:stedsnr" v="179353" />
		<tag k="waterway" v="stream" />
	</node>
	<node lat="68.64242499945136" lon="14.513222226811052" id="-12504">
		<tag k="name" v="Litl-Trolldalsvatnet" />
		<tag k="natural" v="water" />
		<tag k="ssr:stedsnr" v="181140" />
	</node>
	<node lat="68.77448888826518" lon="14.512291667541357" id="-12514">
		<tag k="alt_name" v="Lunnvatnet" />
		<tag k="name" v="Lundvatnet" />
		<tag k="natural" v="water" />
		<tag k="ssr:stedsnr" v="199527" />
	</node>
	<node lat="68.71482777815805" lon="14.518802779710569" id="-12524">
		<tag k="alt_name" v="Jødalsvatnet" />
		<tag k="name" v="Gjødalsvatnet" />
		<tag k="natural" v="water" />
		<tag k="ssr:stedsnr" v="200297" />
	</node>
	<node lat="68.76096110955066" lon="14.492947232134528" id="-12527">
		<tag k="alt_name" v="Trehynnvatnet" />
		<tag k="name" v="Trehyrnvatnet" />
		<tag k="natural" v="water" />
		<tag k="ssr:stedsnr" v="200528" />
		<tag k="water" v="lake" />
	</node>
	<node lat="68.66056944156063" lon="14.637972227642676" id="-12533">
		<tag k="name" v="Lomstjønna" />
		<tag k="natural" v="water" />
		<tag k="ssr:stedsnr" v="200703" />
	</node>
	<node lat="68.67386111254872" lon="14.549177777843445" id="-12536">
		<tag k="name" v="Veavatnet" />
		<tag k="natural" v="water" />
		<tag k="ssr:stedsnr" v="200647" />
	</node>
	<node lat="68.77568888492604" lon="14.481772211561598" id="-12560">
		<tag k="name" v="Klubben" />
		<tag k="natural" v="cape" />
		<tag k="ssr:stedsnr" v="218296" />
	</node>
	<node lat="68.6101777762802" lon="14.496722214360695" id="-12585">
		<tag k="name" v="Steinsvikelva" />
		<tag k="ssr:stedsnr" v="279427" />
		<tag k="waterway" v="stream" />
	</node>
	<node lat="68.68814444311958" lon="14.721180544848206" id="-12600">
		<tag k="name" v="Kobbåstjønna" />
		<tag k="natural" v="water" />
		<tag k="ssr:stedsnr" v="298463" />
	</node>
	<node lat="68.66871389127368" lon="14.626088900422795" id="-12614">
		<tag k="name" v="Ringstadvatnet" />
		<tag k="natural" v="water" />
		<tag k="ssr:stedsnr" v="321716" />
	</node>
	<node lat="68.71974444611186" lon="14.582599998705613" id="-12617">
		<tag k="name" v="Olsetvatnet" />
		<tag k="natural" v="water" />
		<tag k="ssr:stedsnr" v="321258" />
	</node>
	<node lat="68.71670000456875" lon="14.544166660111653" id="-12622">
		<tag k="name" v="Skålbrekkvatnet" />
		<tag k="natural" v="water" />
		<tag k="ssr:stedsnr" v="321279" />
	</node>
	<node lat="68.63046666765165" lon="14.571986116817362" id="-12657">
		<tag k="name" v="Lomstjønna" />
		<tag k="natural" v="water" />
		<tag k="ssr:stedsnr" v="339275" />
	</node>
	<node lat="68.68498889001935" lon="14.585155558888953" id="-12693">
		<tag k="fixme" v="multiple name tags, choose one and add the other to alt_name" />
		<tag k="name" v="Langmovatnet;Langvatnet" />
		<tag k="natural" v="water" />
		<tag k="ssr:stedsnr" v="381683" />
	</node>
	<node lat="68.68622222373814" lon="14.622688900401165" id="-12694">
		<tag k="name" v="Gåslandsvatnet" />
		<tag k="natural" v="water" />
		<tag k="ssr:stedsnr" v="381685" />
		<tag k="water" v="lake" />
	</node>
	<node lat="68.696386112114" lon="14.484941668854447" id="-12695">
		<tag k="name" v="Langvatnet" />
		<tag k="natural" v="water" />
		<tag k="ssr:stedsnr" v="381696" />
	</node>
	<node lat="68.74721944240085" lon="14.737300005864215" id="-12703">
		<tag k="name" v="Kråkhaugvatnet" />
		<tag k="natural" v="water" />
		<tag k="ssr:stedsnr" v="381356" />
	</node>
	<node lat="68.72542499687457" lon="14.814261120602417" id="-12704">
		<tag k="name" v="Storelva" />
		<tag k="ssr:stedsnr" v="381280" />
		<tag k="waterway" v="stream" />
	</node>
	<node lat="68.75362222007195" lon="14.755127780261564" id="-12758">
		<tag k="name" v="Borkelva" />
		<tag k="ssr:stedsnr" v="419543" />
		<tag k="waterway" v="stream" />
	</node>
	<node lat="68.74392500266198" lon="14.746855568065424" id="-12759">
		<tag k="name" v="Toftelva" />
		<tag k="ssr:stedsnr" v="419561" />
		<tag k="waterway" v="stream" />
	</node>
	<node lat="68.67415555244608" lon="14.482519448031738" id="-12769">
		<tag k="name" v="Saltvassneset" />
		<tag k="natural" v="cape" />
		<tag k="ssr:stedsnr" v="423073" />
	</node>
	<node lat="68.67310833551055" lon="14.500975012468706" id="-12770">
		<tag k="name" v="Lynghaugtjønna" />
		<tag k="natural" v="water" />
		<tag k="ssr:stedsnr" v="423074" />
	</node>
	<node lat="68.74394999627455" lon="14.544547229837242" id="-12776">
		<tag k="name" v="Kobbvågvatnet" />
		<tag k="natural" v="water" />
		<tag k="ssr:stedsnr" v="441328" />
	</node>
	<node lat="68.68973333514474" lon="14.625269441164093" id="-12777">
		<tag k="alt_name" v="Korsnesan" />
		<tag k="name" v="Korsneset" />
		<tag k="natural" v="cape" />
		<tag k="ssr:stedsnr" v="442653" />
	</node>
	<node lat="68.68353055579689" lon="14.444944432862881" id="-12779">
		<tag k="name" v="Bjørnvatnet" />
		<tag k="natural" v="water" />
		<tag k="ssr:stedsnr" v="442672" />
	</node>
	<node lat="68.73396110831467" lon="14.760111118131931" id="-12782">
		<tag k="name" v="Norddalsvatnet" />
		<tag k="natural" v="water" />
		<tag k="ssr:stedsnr" v="442295" />
	</node>
	<node lat="68.71930555211551" lon="14.793383335386357" id="-12783">
		<tag k="name" v="Telthaugvatnet" />
		<tag k="natural" v="water" />
		<tag k="ssr:stedsnr" v="442317" />
	</node>
	<node lat="68.75450000202707" lon="14.81078055520655" id="-12808">
		<tag k="fixme" v="multiple name tags, choose one and add the other to alt_name" />
		<tag k="name" v="Likkjdalsvatnet;Litlvatnet" />
		<tag k="natural" v="water" />
		<tag k="ssr:stedsnr" v="443530" />
	</node>
	<node lat="68.67017499935027" lon="14.582461106647168" id="-12825">
		<tag k="name" v="Kvannbekken" />
		<tag k="ssr:stedsnr" v="503695" />
		<tag k="waterway" v="stream" />
	</node>
	<node lat="68.7018333296441" lon="14.757741659649799" id="-12826">
		<tag k="name" v="Sirihola" />
		<tag k="natural" v="water" />
		<tag k="ssr:stedsnr" v="503281" />
	</node>
	<node lat="68.71653611469671" lon="14.449913879425289" id="-12828">
		<tag k="name" v="Kjerringstrandvatnet" />
		<tag k="natural" v="water" />
		<tag k="ssr:stedsnr" v="503249" />
	</node>
	<node lat="68.7776805534398" lon="14.484622212349876" id="-12836">
		<tag k="name" v="Husvatnet" />
		<tag k="natural" v="water" />
		<tag k="ssr:stedsnr" v="503493" />
	</node>
	<node lat="68.82241111196264" lon="14.655294445895105" id="-12851">
		<tag k="name" v="Trolldalsvatnet" />
		<tag k="natural" v="water" />
		<tag k="ssr:stedsnr" v="503843" />
	</node>
	<node lat="68.77593611174062" lon="14.510997223813018" id="-12893">
		<tag k="name" v="Groveleitelva" />
		<tag k="ssr:stedsnr" v="542347" />
		<tag k="waterway" v="stream" />
	</node>
	<node lat="68.65586110902787" lon="14.580338887584022" id="-12895">
		<tag k="name" v="Sørørnåselva" />
		<tag k="ssr:stedsnr" v="544164" />
		<tag k="waterway" v="stream" />
	</node>
	<node lat="68.72140277560769" lon="14.702097211215648" id="-12909">
		<tag k="name" v="Jørlandsvatnet" />
		<tag k="natural" v="water" />
		<tag k="ssr:stedsnr" v="563264" />
	</node>
	<node lat="68.71780833254637" lon="14.639688900380644" id="-12910">
		<tag k="name" v="Tverrbekken" />
		<tag k="ssr:stedsnr" v="563265" />
		<tag k="waterway" v="stream" />
	</node>
	<node lat="68.6267499990646" lon="14.535452782136616" id="-12922">
		<tag k="name" v="Ramnflogvatnet" />
		<tag k="natural" v="water" />
		<tag k="ssr:stedsnr" v="563500" />
	</node>
	<node lat="68.62980833789032" lon="14.577641656607682" id="-12924">
		<tag k="name" v="Litlvatnet" />
		<tag k="natural" v="water" />
		<tag k="ssr:stedsnr" v="563507" />
	</node>
	<node lat="68.75509166392186" lon="14.486316676852908" id="-12926">
		<tag k="name" v="Kamtjønna" />
		<tag k="natural" v="water" />
		<tag k="ssr:stedsnr" v="563512" />
	</node>
	<node lat="68.66728055316565" lon="14.47298610016604" id="-12932">
		<tag k="alt_name" v="Førevatnet" />
		<tag k="name" v="Førvatnet" />
		<tag k="natural" v="water" />
		<tag k="ssr:stedsnr" v="563633" />
	</node>
	<node lat="68.64965277374169" lon="14.574666669518013" id="-12936">
		<tag k="name" v="Heggedalselva" />
		<tag k="ssr:stedsnr" v="563736" />
		<tag k="waterway" v="stream" />
	</node>
	<node lat="68.70285277519284" lon="14.662919455316514" id="-12950">
		<tag k="name" v="Kalvskinnvatnet" />
		<tag k="natural" v="water" />
		<tag k="ssr:stedsnr" v="564283" />
	</node>
	<node lat="68.75607500198583" lon="14.784208343360465" id="-12952">
		<tag k="name" v="Ryggedalsvatnet" />
		<tag k="natural" v="water" />
		<tag k="ssr:stedsnr" v="564551" />
		<tag k="water" v="lake" />
	</node>
	<node lat="68.66669444551027" lon="14.638044433112356" id="-12979">
		<tag k="name" v="Barkåstjønna" />
		<tag k="natural" v="water" />
		<tag k="ssr:stedsnr" v="601290" />
	</node>
	<node lat="68.6653944483564" lon="14.659591672604853" id="-12985">
		<tag k="name" v="Hestsprengtjønna" />
		<tag k="natural" v="water" />
		<tag k="ssr:stedsnr" v="601396" />
	</node>
	<node lat="68.64291666984826" lon="14.58725001082007" id="-13012">
		<tag k="fixme" v="multiple name tags, choose one and add the other to alt_name" />
		<tag k="name" v="Store Knutåstjønna;Knutåstjønna" />
=======
	<node id="-199414" lat="68.7626611131" lon="14.5565694448">
		<tag k="name" v="Keipvatnet" />
		<tag k="natural" v="water" />
		<tag k="ssr:stedsnr" v="746509" />
	</node>
	<node id="-198901" lat="68.7563583357" lon="14.5778527737">
		<tag k="name" v="Grubbelva" />
		<tag k="ssr:stedsnr" v="298273" />
		<tag k="waterway" v="stream" />
	</node>
	<node id="-200433" lat="68.6553805553" lon="14.4785722322">
		<tag k="name" v="Nøkktjønna" />
		<tag k="natural" v="water" />
		<tag k="ssr:stedsnr" v="624722" />
	</node>
	<node id="-198896" lat="68.6929444431" lon="14.6015666584">
		<tag k="name" v="Mjåsundet" />
		<tag k="natural" v="strait" />
		<tag k="ssr:stedsnr" v="298178" />
	</node>
	<node id="-200429" lat="68.6386361106" lon="14.4872999973">
		<tag k="name" v="Einåselva" />
		<tag k="ssr:stedsnr" v="624681" />
		<tag k="waterway" v="stream" />
	</node>
	<node id="-200427" lat="68.6961638872" lon="14.6199805654">
		<tag k="name" v="Løypåstjønna" />
		<tag k="natural" v="water" />
		<tag k="ssr:stedsnr" v="624671" />
	</node>
	<node id="-198890" lat="68.6605694416" lon="14.6379722276">
		<tag k="name" v="Lomstjønna" />
		<tag k="natural" v="water" />
		<tag k="ssr:stedsnr" v="200703" />
	</node>
	<node id="-198889" lat="68.7609611096" lon="14.4929472321">
		<tag k="alt_name" v="Trehynnvatnet" />
		<tag k="name" v="Trehyrnvatnet" />
		<tag k="natural" v="water" />
		<tag k="ssr:stedsnr" v="200528" />
		<tag k="water" v="lake" />
	</node>
	<node id="-200423" lat="68.6681583347" lon="14.5074888861">
		<tag k="name" v="Svarttjønna" />
		<tag k="natural" v="water" />
		<tag k="ssr:stedsnr" v="624621" />
	</node>
	<node id="-198885" lat="68.6461916639" lon="14.4887777713">
		<tag k="name" v="Soppåselva" />
		<tag k="ssr:stedsnr" v="199727" />
		<tag k="waterway" v="stream" />
	</node>
	<node id="-200418" lat="68.6429166698" lon="14.5872500108">
		<tag k="fixme" v="multiple name tags, choose one and add the other to alt_name" />
		<tag k="name" v="Store Knutåstjønna;Knutåstjønna" />
		<tag k="natural" v="water" />
		<tag k="ssr:stedsnr" v="624546" />
	</node>
	<node id="-198874" lat="68.7680027751" lon="14.5373250007">
		<tag k="name" v="Trolldalselva" />
		<tag k="ssr:stedsnr" v="179353" />
		<tag k="waterway" v="stream" />
	</node>
	<node id="-198871" lat="68.7822944485" lon="14.5048916692">
		<tag k="name" v="Finnsundvadet" />
		<tag k="natural" v="bay" />
		<tag k="ssr:stedsnr" v="178312" />
	</node>
	<node id="-199888" lat="68.6549694423" lon="14.5645000026">
		<tag k="name" v="Nøkkedalsvatnet" />
		<tag k="natural" v="water" />
		<tag k="ssr:stedsnr" v="139687" />
	</node>
	<node id="-199887" lat="68.6582277804" lon="14.5724639014">
		<tag k="name" v="Daltjønna" />
		<tag k="natural" v="water" />
		<tag k="ssr:stedsnr" v="139686" />
	</node>
	<node id="-198857" lat="68.6101777763" lon="14.4967222144">
		<tag k="name" v="Steinsvikelva" />
		<tag k="ssr:stedsnr" v="279427" />
		<tag k="waterway" v="stream" />
	</node>
	<node id="-199878" lat="68.7684444449" lon="14.4853777731">
		<tag k="alt_name" v="Mærstjørna" />
		<tag k="name" v="Merstjønna" />
		<tag k="natural" v="water" />
		<tag k="ssr:stedsnr" v="139522" />
	</node>
	<node id="-200389" lat="68.7804083344" lon="14.5252583456">
		<tag k="name" v="Gauklielva" />
		<tag k="ssr:stedsnr" v="602350" />
		<tag k="waterway" v="stream" />
	</node>
	<node id="-198852" lat="68.6601805511" lon="14.4703333342">
		<tag k="name" v="Kasperdammen" />
		<tag k="natural" v="water" />
		<tag k="ssr:stedsnr" v="279299" />
		<tag k="water" v="pond" />
	</node>
	<node id="-198849" lat="68.6553777731" lon="14.4494972301">
		<tag k="name" v="Stortveita" />
		<tag k="ssr:stedsnr" v="279281" />
		<tag k="waterway" v="stream" />
	</node>
	<node id="-200384" lat="68.6666944455" lon="14.6380444331">
		<tag k="name" v="Barkåstjønna" />
		<tag k="natural" v="water" />
		<tag k="ssr:stedsnr" v="601290" />
	</node>
	<node id="-199359" lat="68.6665000019" lon="14.6076777679">
		<tag k="name" v="Høgåsvatnet" />
		<tag k="natural" v="water" />
		<tag k="ssr:stedsnr" v="685721" />
	</node>
	<node id="-199357" lat="68.6665722217" lon="14.7308805516">
		<tag k="alt_name" v="Røssnesvatnet" />
		<tag k="name" v="Røsnesvatnet" />
		<tag k="natural" v="water" />
		<tag k="ssr:stedsnr" v="685712" />
	</node>
	<node id="-198841" lat="68.6504138883" lon="14.440166658">
		<tag k="name" v="Sjøelva" />
		<tag k="ssr:stedsnr" v="157252" />
		<tag k="waterway" v="stream" />
	</node>
	<node id="-199863" lat="68.6463861075" lon="14.6091611064">
		<tag k="name" v="Ørnåsvatnet" />
		<tag k="natural" v="water" />
		<tag k="ssr:stedsnr" v="138725" />
	</node>
	<node id="-199881" lat="68.6314694487" lon="14.5897027765">
		<tag k="name" v="Jonsåsvatnet" />
		<tag k="natural" v="water" />
		<tag k="ssr:stedsnr" v="139553" />
	</node>
	<node id="-199944" lat="68.7305083315" lon="14.6796694443">
		<tag k="name" v="Nordverhalsvatnet" />
		<tag k="natural" v="water" />
		<tag k="ssr:stedsnr" v="176500" />
	</node>
	<node id="-199340" lat="68.6722527751" lon="14.5156527743">
		<tag k="name" v="Lomstjønna" />
		<tag k="natural" v="water" />
		<tag k="ssr:stedsnr" v="727082" />
	</node>
	<node id="-199623" lat="68.6591805527" lon="14.6027583346">
		<tag k="name" v="Pollelva" />
		<tag k="ssr:stedsnr" v="969176" />
		<tag k="waterway" v="stream" />
	</node>
	<node id="-199336" lat="68.6694416642" lon="14.5469500055">
		<tag k="name" v="Storrona" />
		<tag k="ssr:stedsnr" v="727186" />
		<tag k="waterway" v="stream" />
	</node>
	<node id="-199334" lat="68.6713749973" lon="14.5291250101">
		<tag k="name" v="Skjellelva" />
		<tag k="ssr:stedsnr" v="727179" />
		<tag k="waterway" v="stream" />
	</node>
	<node id="-200561" lat="68.7518833302" lon="14.7902805553">
		<tag k="name" v="Melkarneset" />
		<tag k="natural" v="cape" />
		<tag k="ssr:stedsnr" v="783544" />
	</node>
	<node id="-199332" lat="68.6382861125" lon="14.6002749941">
		<tag k="name" v="Langåstjønna" />
		<tag k="natural" v="water" />
		<tag k="ssr:stedsnr" v="726234" />
	</node>
	<node id="-199842" lat="68.6598638863" lon="14.4903111182">
		<tag k="name" v="Bruelva" />
		<tag k="ssr:stedsnr" v="120171" />
		<tag k="waterway" v="stream" />
	</node>
	<node id="-199328" lat="68.7822027816" lon="14.5033833408">
		<tag k="name" v="Finnsundet" />
		<tag k="natural" v="strait" />
		<tag k="ssr:stedsnr" v="724313" />
	</node>
	<node id="-199835" lat="68.7500111152" lon="14.7274527786">
		<tag k="name" v="Lakselva" />
		<tag k="ssr:stedsnr" v="116562" />
		<tag k="waterway" v="stream" />
	</node>
	<node id="-199989" lat="68.7186111104" lon="14.4486916749">
		<tag k="name" v="Kjerringstrandelva" />
		<tag k="ssr:stedsnr" v="203030" />
		<tag k="waterway" v="stream" />
	</node>
	<node id="-199321" lat="68.6775861075" lon="14.6269277818">
		<tag k="name" v="Flatholmen" />
		<tag k="place" v="islet" />
		<tag k="ssr:stedsnr" v="722284" />
	</node>
	<node id="-199320" lat="68.6773111138" lon="14.6291249946">
		<tag k="name" v="Høgholmen" />
		<tag k="place" v="islet" />
		<tag k="ssr:stedsnr" v="722283" />
	</node>
	<node id="-199831" lat="68.7053138921" lon="14.7290333234">
		<tag k="name" v="Nervatnet" />
		<tag k="natural" v="water" />
		<tag k="ssr:stedsnr" v="116368" />
	</node>
	<node id="-198806" lat="68.7579555594" lon="14.5743861059">
		<tag k="alt_name" v="Grubbkollvatnet" />
		<tag k="name" v="Grubbvatnet" />
		<tag k="natural" v="water" />
		<tag k="ssr:stedsnr" v="261554" />
	</node>
	<node id="-200341" lat="68.756075002" lon="14.7842083434">
		<tag k="name" v="Ryggedalsvatnet" />
		<tag k="natural" v="water" />
		<tag k="ssr:stedsnr" v="564551" />
		<tag k="water" v="lake" />
	</node>
	<node id="-200340" lat="68.7028527752" lon="14.6629194553">
		<tag k="name" v="Kalvskinnvatnet" />
		<tag k="natural" v="water" />
		<tag k="ssr:stedsnr" v="564283" />
	</node>
	<node id="-198803" lat="68.7143388881" lon="14.7870610991">
		<tag k="name" v="Keipvatnet" />
		<tag k="natural" v="water" />
		<tag k="ssr:stedsnr" v="261289" />
	</node>
	<node id="-199312" lat="68.7367444424" lon="14.7496055508">
		<tag k="name" v="Norddalselva" />
		<tag k="ssr:stedsnr" v="601565" />
		<tag k="waterway" v="stream" />
	</node>
	<node id="-199311" lat="68.6653944484" lon="14.6595916726">
		<tag k="name" v="Hestsprengtjønna" />
		<tag k="natural" v="water" />
		<tag k="ssr:stedsnr" v="601396" />
	</node>
	<node id="-199822" lat="68.6787833364" lon="14.6251333261">
		<tag k="name" v="Nøkkeneset" />
		<tag k="natural" v="cape" />
		<tag k="ssr:stedsnr" v="116264" />
	</node>
	<node id="-198744" lat="68.6293944471" lon="14.4468138992">
		<tag k="name" v="Strandelva" />
		<tag k="ssr:stedsnr" v="97155" />
		<tag k="waterway" v="stream" />
	</node>
	<node id="-198761" lat="68.6745055587" lon="14.5130666611">
		<tag k="name" v="Fagerhaugvatnet" />
		<tag k="natural" v="water" />
		<tag k="ssr:stedsnr" v="260665" />
	</node>
	<node id="-199106" lat="68.6701749994" lon="14.5824611066">
		<tag k="name" v="Kvannbekken" />
		<tag k="ssr:stedsnr" v="503695" />
		<tag k="waterway" v="stream" />
	</node>
	<node id="-199305" lat="68.7139750042" lon="14.7450972151">
		<tag k="name" v="Rundsteinheivatnet" />
		<tag k="natural" v="water" />
		<tag k="ssr:stedsnr" v="601367" />
	</node>
	<node id="-199815" lat="68.7541888935" lon="14.8056388834">
		<tag k="name" v="Likkjdalselva" />
		<tag k="ssr:stedsnr" v="113251" />
		<tag k="waterway" v="stream" />
	</node>
	<node id="-198787" lat="68.6340944485" lon="14.6023888792">
		<tag k="name" v="Rambergvatnet" />
		<tag k="natural" v="water" />
		<tag k="ssr:stedsnr" v="260556" />
	</node>
	<node id="-200321" lat="68.6672805532" lon="14.4729861002">
		<tag k="alt_name" v="Førevatnet" />
		<tag k="name" v="Førvatnet" />
		<tag k="natural" v="water" />
		<tag k="ssr:stedsnr" v="563633" />
	</node>
	<node id="-200233" lat="68.6741555524" lon="14.482519448">
		<tag k="name" v="Saltvassneset" />
		<tag k="natural" v="cape" />
		<tag k="ssr:stedsnr" v="423073" />
	</node>
	<node id="-199806" lat="68.6782138858" lon="14.4872333233">
		<tag k="name" v="Fiskumyran" />
		<tag k="ssr:stedsnr" v="97369" />
		<tag k="waterway" v="river" />
	</node>
	<node id="-199701" lat="68.6961138847" lon="14.519944455">
		<tag k="name" v="Hundsdalselva" />
		<tag k="ssr:stedsnr" v="36299" />
		<tag k="waterway" v="stream" />
	</node>
	<node id="-200316" lat="68.7550916639" lon="14.4863166769">
		<tag k="name" v="Kamtjønna" />
		<tag k="natural" v="water" />
		<tag k="ssr:stedsnr" v="563512" />
	</node>
	<node id="-199431" lat="68.6636694484" lon="14.6282916693">
		<tag k="name" v="Ringstadelva" />
		<tag k="ssr:stedsnr" v="909174" />
		<tag k="waterway" v="stream" />
	</node>
	<node id="-200314" lat="68.6298083379" lon="14.5776416566">
		<tag k="name" v="Litlvatnet" />
		<tag k="natural" v="water" />
		<tag k="ssr:stedsnr" v="563507" />
	</node>
	<node id="-200312" lat="68.6267499991" lon="14.5354527821">
		<tag k="name" v="Ramnflogvatnet" />
		<tag k="natural" v="water" />
		<tag k="ssr:stedsnr" v="563500" />
	</node>
	<node id="-199273" lat="68.7340972262" lon="14.5994222331">
		<tag k="name" v="Risåstjønna" />
		<tag k="natural" v="water" />
		<tag k="ssr:stedsnr" v="703360" />
	</node>
	<node id="-198769" lat="68.7145361076" lon="14.670666674">
		<tag k="fixme" v="multiple name tags, choose one and add the other to alt_name" />
		<tag k="name" v="Oppsåtevatnet;Prestvatnet" />
		<tag k="natural" v="water" />
		<tag k="ssr:stedsnr" v="260334" />
	</node>
	<node id="-198768" lat="68.7237472222" lon="14.5108805489">
		<tag k="name" v="Trolldalsvatnet" />
		<tag k="natural" v="water" />
		<tag k="ssr:stedsnr" v="260328" />
	</node>
	<node id="-198767" lat="68.71935278" lon="14.6220444405">
		<tag k="name" v="Astersetelva" />
		<tag k="ssr:stedsnr" v="260326" />
		<tag k="waterway" v="stream" />
	</node>
	<node id="-199790" lat="68.8325638889" lon="14.6955444369">
		<tag k="name" v="Kvalvikvatnet" />
		<tag k="natural" v="water" />
		<tag k="ssr:stedsnr" v="79847" />
	</node>
	<node id="-200298" lat="68.7178083325" lon="14.6396889004">
		<tag k="name" v="Tverrbekken" />
		<tag k="ssr:stedsnr" v="563265" />
		<tag k="waterway" v="stream" />
	</node>
	<node id="-200297" lat="68.7214027756" lon="14.7020972112">
		<tag k="name" v="Jørlandsvatnet" />
		<tag k="natural" v="water" />
		<tag k="ssr:stedsnr" v="563264" />
	</node>
	<node id="-199776" lat="68.6685111128" lon="14.6445416711">
		<tag k="name" v="Langfjordtjønna" />
		<tag k="natural" v="water" />
		<tag k="ssr:stedsnr" v="78753" />
	</node>
	<node id="-199775" lat="68.6703944406" lon="14.6197055591">
		<tag k="name" v="Aurtjønna" />
		<tag k="natural" v="water" />
		<tag k="ssr:stedsnr" v="78751" />
	</node>
	<node id="-200283" lat="68.655861109" lon="14.5803388876">
		<tag k="name" v="Sørørnåselva" />
		<tag k="ssr:stedsnr" v="544164" />
		<tag k="waterway" v="stream" />
	</node>
	<node id="-199770" lat="68.6946305594" lon="14.6526611179">
		<tag k="name" v="Sneistjønna" />
		<tag k="natural" v="water" />
		<tag k="ssr:stedsnr" v="78678" />
	</node>
	<node id="-200281" lat="68.7759361117" lon="14.5109972238">
		<tag k="name" v="Groveleitelva" />
		<tag k="ssr:stedsnr" v="542347" />
		<tag k="waterway" v="stream" />
	</node>
	<node id="-200055" lat="68.6687138913" lon="14.6260889004">
		<tag k="name" v="Ringstadvatnet" />
		<tag k="natural" v="water" />
		<tag k="ssr:stedsnr" v="321716" />
	</node>
	<node id="-199765" lat="68.6268277818" lon="14.5665111132">
		<tag k="alt_name" v="Kringelvatnet" />
		<tag k="name" v="Kringeltjønna" />
>>>>>>> e1d4bc35ff8a6074a6f2e91616a996b547c36f15
		<tag k="natural" v="water" />
		<tag k="ssr:stedsnr" v="624546" />
	</node>
<<<<<<< HEAD
	<node lat="68.63863611064893" lon="14.487299997302355" id="-13015">
		<tag k="name" v="Einåselva" />
		<tag k="ssr:stedsnr" v="624681" />
		<tag k="waterway" v="stream" />
	</node>
	<node lat="68.66815833471036" lon="14.507488886088442" id="-13018">
		<tag k="name" v="Svarttjønna" />
		<tag k="natural" v="water" />
		<tag k="ssr:stedsnr" v="624621" />
	</node>
	<node lat="68.68010555587334" lon="14.54967776780839" id="-13021">
		<tag k="name" v="Børgevatnet" />
		<tag k="natural" v="water" />
		<tag k="ssr:stedsnr" v="624655" />
	</node>
	<node lat="68.63926944297614" lon="14.457863890159167" id="-13057">
		<tag k="name" v="Eliashøla" />
		<tag k="place" v="locality" />
		<tag k="ssr:stedsnr" v="643264" />
	</node>
	<node lat="68.73222499664806" lon="14.6714694373493" id="-13068">
		<tag k="name" v="Oksbølelva" />
		<tag k="ssr:stedsnr" v="662557" />
		<tag k="waterway" v="stream" />
	</node>
	<node lat="68.66719721855517" lon="14.501377774948857" id="-13074">
		<tag k="name" v="Olinatjønna" />
		<tag k="natural" v="water" />
		<tag k="ssr:stedsnr" v="666196" />
	</node>
	<node lat="68.67731111376841" lon="14.629124994615124" id="-13076">
		<tag k="name" v="Høgholmen" />
		<tag k="place" v="islet" />
		<tag k="ssr:stedsnr" v="722283" />
	</node>
	<node lat="68.67758610750325" lon="14.626927781848519" id="-13077">
		<tag k="name" v="Flatholmen" />
		<tag k="place" v="islet" />
		<tag k="ssr:stedsnr" v="722284" />
	</node>
	<node lat="68.63828611251158" lon="14.600274994126172" id="-13084">
		<tag k="name" v="Langåstjønna" />
		<tag k="natural" v="water" />
		<tag k="ssr:stedsnr" v="726234" />
	</node>
	<node lat="68.63951666885119" lon="14.624952780696285" id="-13099">
		<tag k="fixme" v="multiple name tags, choose one and add the other to alt_name" />
		<tag k="name" v="Steinvalen;Tjønnen" />
=======
	<node id="-199509" lat="68.7001055599" lon="14.4633611067">
		<tag k="name" v="Handkleppelva" />
		<tag k="ssr:stedsnr" v="931157" />
		<tag k="waterway" v="stream" />
	</node>
	<node id="-199543" lat="68.6804527742" lon="14.545100003">
		<tag k="name" v="Storholmen" />
		<tag k="place" v="islet" />
		<tag k="ssr:stedsnr" v="946312" />
	</node>
	<node id="-199750" lat="68.724261114" lon="14.686033326">
		<tag k="alt_name" v="Krestenkallvatnet" />
		<tag k="name" v="Kristenkallvatnet" />
		<tag k="natural" v="water" />
		<tag k="ssr:stedsnr" v="78293" />
	</node>
	<node id="-199747" lat="68.6483333339" lon="14.6207694362">
		<tag k="name" v="Oterbekken" />
		<tag k="ssr:stedsnr" v="59228" />
		<tag k="waterway" v="stream" />
	</node>
	<node id="-198722" lat="68.7994333304" lon="14.6523888998">
		<tag k="name" v="Utskorelva" />
		<tag k="ssr:stedsnr" v="237614" />
		<tag k="waterway" v="stream" />
	</node>
	<node id="-200769" lat="68.778233337" lon="14.490102772">
		<tag k="name" v="Fiskelva" />
		<tag k="ssr:stedsnr" v="967298" />
		<tag k="waterway" v="stream" />
	</node>
	<node id="-199231" lat="68.7513972219" lon="14.6661666644">
		<tag k="alt_name" v="Skitenbakktjørna" />
		<tag k="name" v="Skjettenbakktjønna" />
		<tag k="natural" v="water" />
		<tag k="ssr:stedsnr" v="685579" />
	</node>
	<node id="-200765" lat="68.7288916629" lon="14.6459777702">
		<tag k="name" v="Haugelva" />
		<tag k="ssr:stedsnr" v="965535" />
		<tag k="waterway" v="stream" />
	</node>
	<node id="-199740" lat="68.6630361159" lon="14.5488527691">
		<tag k="name" v="Gjurvatnet" />
>>>>>>> e1d4bc35ff8a6074a6f2e91616a996b547c36f15
		<tag k="natural" v="water" />
		<tag k="ssr:stedsnr" v="59149" />
	</node>
<<<<<<< HEAD
	<node lat="68.76266111306106" lon="14.556569444759658" id="-13102">
		<tag k="name" v="Keipvatnet" />
		<tag k="natural" v="water" />
		<tag k="ssr:stedsnr" v="746509" />
	</node>
	<node lat="68.71572499851065" lon="14.687708337224676" id="-13103">
		<tag k="alt_name" v="Salttjønna" />
		<tag k="name" v="Saltvatnet" />
		<tag k="natural" v="water" />
		<tag k="ssr:stedsnr" v="746276" />
	</node>
	<node lat="68.681663888526" lon="14.444447231371267" id="-13119">
		<tag k="name" v="Bjørnvasselva" />
		<tag k="ssr:stedsnr" v="749052" />
		<tag k="waterway" v="stream" />
	</node>
	<node lat="68.68001389143181" lon="14.542274994704293" id="-13130">
		<tag k="name" v="Litlholmen" />
		<tag k="place" v="islet" />
		<tag k="ssr:stedsnr" v="764354" />
	</node>
	<node lat="68.6773194441523" lon="14.503222218894487" id="-13131">
		<tag k="name" v="Fagerhaugelva" />
		<tag k="ssr:stedsnr" v="764357" />
		<tag k="waterway" v="stream" />
	</node>
	<node lat="68.7461861081371" lon="14.72492778274261" id="-13145">
		<tag k="name" v="Lubberten" />
		<tag k="natural" v="bay" />
		<tag k="ssr:stedsnr" v="783543" />
	</node>
	<node lat="68.75188333016418" lon="14.79028055526401" id="-13146">
		<tag k="name" v="Melkarneset" />
		<tag k="natural" v="cape" />
		<tag k="ssr:stedsnr" v="783544" />
	</node>
	<node lat="68.72877500426033" lon="14.728847230466954" id="-13148">
		<tag k="name" v="Jørlandsdalselva" />
		<tag k="ssr:stedsnr" v="783588" />
		<tag k="waterway" v="stream" />
	</node>
	<node lat="68.74926388701351" lon="14.657547221292079" id="-13149">
		<tag k="name" v="Ravnåselva" />
		<tag k="ssr:stedsnr" v="783493" />
		<tag k="waterway" v="stream" />
	</node>
	<node lat="68.72028888448988" lon="14.75729445354541" id="-13190">
		<tag k="fixme" v="multiple name tags, choose one and add the other to alt_name" />
		<tag k="name" v="Sommardalsvatnet;Jørlandsdalsvatnet" />
		<tag k="natural" v="water" />
		<tag k="ssr:stedsnr" v="807248" />
	</node>
	<node lat="68.60648055600696" lon="14.533088893947388" id="-13240">
		<tag k="name" v="Stortjønna" />
		<tag k="natural" v="water" />
		<tag k="ssr:stedsnr" v="825187" />
	</node>
	<node lat="68.73171666370354" lon="14.590127771396567" id="-13249">
		<tag k="name" v="Skjettentjønna" />
		<tag k="natural" v="water" />
		<tag k="ssr:stedsnr" v="825262" />
	</node>
	<node lat="68.67690555811053" lon="14.487138885433131" id="-13250">
		<tag k="name" v="Fiskuelva" />
		<tag k="ssr:stedsnr" v="825319" />
		<tag k="waterway" v="stream" />
	</node>
	<node lat="68.63651944098969" lon="14.585841675896058" id="-13256">
		<tag k="name" v="Jonsåstjønna" />
		<tag k="natural" v="water" />
		<tag k="ssr:stedsnr" v="848246" />
	</node>
	<node lat="68.71440000191176" lon="14.611849988432489" id="-13267">
		<tag k="name" v="Astersetvatnet" />
		<tag k="natural" v="water" />
		<tag k="ssr:stedsnr" v="867323" />
	</node>
	<node lat="68.74361388533181" lon="14.755163877225604" id="-13269">
		<tag k="name" v="Tofttjønna" />
		<tag k="natural" v="water" />
		<tag k="ssr:stedsnr" v="867383" />
	</node>
	<node lat="68.76636111308532" lon="14.53740834043838" id="-13282">
		<tag k="name" v="Trolldalsvatnet" />
		<tag k="natural" v="water" />
		<tag k="ssr:stedsnr" v="867514" />
	</node>
	<node lat="68.74489444569298" lon="14.835627771674195" id="-13285">
		<tag k="name" v="Kuskarvatnet" />
		<tag k="natural" v="water" />
		<tag k="ssr:stedsnr" v="867372" />
	</node>
	<node lat="68.68071667030523" lon="14.49947777194989" id="-13296">
		<tag k="name" v="Haversvatnet" />
		<tag k="natural" v="water" />
		<tag k="ssr:stedsnr" v="867674" />
	</node>
	<node lat="68.63939721989223" lon="14.464377773447678" id="-13299">
		<tag k="name" v="Kleppelva" />
		<tag k="ssr:stedsnr" v="867704" />
		<tag k="waterway" v="river" />
	</node>
	<node lat="68.79256389011024" lon="14.579397221128536" id="-13319">
		<tag k="name" v="Røsshagvatnet" />
		<tag k="natural" v="water" />
		<tag k="ssr:stedsnr" v="868943" />
	</node>
	<node lat="68.67846388637408" lon="14.456691675099574" id="-13323">
		<tag k="name" v="Spengran" />
		<tag k="place" v="locality" />
		<tag k="ssr:stedsnr" v="871183" />
	</node>
	<node lat="68.67840277660545" lon="14.462649995240904" id="-13324">
		<tag k="name" v="Svingjerdet" />
		<tag k="place" v="locality" />
		<tag k="ssr:stedsnr" v="871184" />
	</node>
	<node lat="68.67796666256298" lon="14.442299996250984" id="-13325">
		<tag k="name" v="Grunntjønnen" />
		<tag k="natural" v="water" />
		<tag k="ssr:stedsnr" v="871186" />
	</node>
	<node lat="68.68231110690603" lon="14.415380559893386" id="-13331">
		<tag k="name" v="Buelva" />
		<tag k="ssr:stedsnr" v="871028" />
		<tag k="waterway" v="stream" />
	</node>
	<node lat="68.69139166665333" lon="14.476511116300737" id="-13333">
		<tag k="name" v="Mjåsundet" />
		<tag k="natural" v="strait" />
		<tag k="ssr:stedsnr" v="871052" />
	</node>
	<node lat="68.70850277841888" lon="14.58211389874051" id="-13377">
		<tag k="name" v="Halselva" />
		<tag k="ssr:stedsnr" v="946462" />
		<tag k="waterway" v="stream" />
	</node>
	<node lat="68.72498055983242" lon="14.655299997730342" id="-13395">
		<tag k="name" v="Slåttåselva" />
		<tag k="ssr:stedsnr" v="965596" />
		<tag k="waterway" v="stream" />
	</node>
	<node lat="68.65918055266293" lon="14.602758334592806" id="-13402">
		<tag k="name" v="Pollelva" />
		<tag k="ssr:stedsnr" v="969176" />
		<tag k="waterway" v="stream" />
=======
	<node id="-199739" lat="68.6436055535" lon="14.5029361156">
		<tag k="name" v="Heståstjønna" />
		<tag k="natural" v="water" />
		<tag k="ssr:stedsnr" v="59121" />
	</node>
	<node id="-199738" lat="68.7791666688" lon="14.508475005">
		<tag k="name" v="Seveleitelva" />
		<tag k="ssr:stedsnr" v="57314" />
		<tag k="waterway" v="stream" />
	</node>
	<node id="-198712" lat="68.8066472233" lon="14.5677277703">
		<tag k="name" v="Malneselva" />
		<tag k="ssr:stedsnr" v="55313" />
		<tag k="waterway" v="stream" />
	</node>
	<node id="-200246" lat="68.6556666684" lon="14.4366861063">
		<tag k="name" v="Jarsbergelva" />
		<tag k="ssr:stedsnr" v="521259" />
		<tag k="waterway" v="stream" />
	</node>
	<node id="-200753" lat="68.6779666626" lon="14.4422999963">
		<tag k="name" v="Grunntjønnen" />
		<tag k="natural" v="water" />
		<tag k="ssr:stedsnr" v="871186" />
	</node>
	<node id="-200752" lat="68.6784027766" lon="14.4626499952">
		<tag k="name" v="Svingjerdet" />
		<tag k="place" v="locality" />
		<tag k="ssr:stedsnr" v="871184" />
	</node>
	<node id="-200751" lat="68.6784638864" lon="14.4566916751">
		<tag k="name" v="Spengran" />
		<tag k="place" v="locality" />
		<tag k="ssr:stedsnr" v="871183" />
	</node>
	<node id="-200749" lat="68.6913916667" lon="14.4765111163">
		<tag k="name" v="Mjåsundet" />
		<tag k="natural" v="strait" />
		<tag k="ssr:stedsnr" v="871052" />
	</node>
	<node id="-200234" lat="68.6731083355" lon="14.5009750125">
		<tag k="name" v="Lynghaugtjønna" />
		<tag k="natural" v="water" />
		<tag k="ssr:stedsnr" v="423074" />
	</node>
	<node id="-200745" lat="68.7925638901" lon="14.5793972211">
		<tag k="name" v="Røsshagvatnet" />
		<tag k="natural" v="water" />
		<tag k="ssr:stedsnr" v="868943" />
	</node>
	<node id="-200228" lat="68.7439250027" lon="14.7468555681">
		<tag k="name" v="Toftelva" />
		<tag k="ssr:stedsnr" v="419561" />
		<tag k="waterway" v="stream" />
	</node>
	<node id="-200227" lat="68.7536222201" lon="14.7551277803">
		<tag k="name" v="Borkelva" />
		<tag k="ssr:stedsnr" v="419543" />
		<tag k="waterway" v="stream" />
	</node>
	<node id="-200224" lat="68.6972305515" lon="14.6504249994">
		<tag k="name" v="Sneisvatnet" />
		<tag k="natural" v="water" />
		<tag k="ssr:stedsnr" v="419384" />
	</node>
	<node id="-199199" lat="68.7280277792" lon="14.6534750071">
		<tag k="name" v="Haugvatnet" />
		<tag k="natural" v="water" />
		<tag k="ssr:stedsnr" v="685262" />
	</node>
	<node id="-199198" lat="68.73166111" lon="14.688475006">
		<tag k="name" v="Nordverhalsløykan" />
		<tag k="natural" v="water" />
		<tag k="ssr:stedsnr" v="685261" />
	</node>
	<node id="-198683" lat="68.7756888849" lon="14.4817722116">
		<tag k="name" v="Klubben" />
		<tag k="natural" v="cape" />
		<tag k="ssr:stedsnr" v="218296" />
	</node>
	<node id="-199729" lat="68.7520694424" lon="14.787016672">
		<tag k="name" v="Storhaugbukta" />
		<tag k="natural" v="bay" />
		<tag k="ssr:stedsnr" v="55518" />
	</node>
	<node id="-199704" lat="68.6776777799" lon="14.537911116">
		<tag k="name" v="Veaelva" />
		<tag k="ssr:stedsnr" v="36332" />
		<tag k="waterway" v="stream" />
	</node>
	<node id="-200727" lat="68.7076666688" lon="14.7097805623">
		<tag k="name" v="Kvernfjordvatnet" />
		<tag k="natural" v="water" />
		<tag k="ssr:stedsnr" v="868284" />
	</node>
	<node id="-200725" lat="68.7883583363" lon="14.5170416705">
		<tag k="alt_name" v="Draugtjørna" />
		<tag k="name" v="Drågtjønna" />
		<tag k="natural" v="water" />
		<tag k="ssr:stedsnr" v="867982" />
	</node>
	<node id="-199700" lat="68.777227776" lon="14.4773277749">
		<tag k="name" v="Nykelva" />
		<tag k="ssr:stedsnr" v="36273" />
		<tag k="waterway" v="river" />
	</node>
	<node id="-199253" lat="68.6849861138" lon="14.404555551">
		<tag k="name" v="Hestelva" />
		<tag k="ssr:stedsnr" v="688044" />
		<tag k="waterway" v="stream" />
	</node>
	<node id="-199184" lat="68.7521416715" lon="14.7665916556">
		<tag k="name" v="Sandbukta" />
		<tag k="natural" v="bay" />
		<tag k="ssr:stedsnr" v="503505" />
	</node>
	<node id="-199768" lat="68.6833944405" lon="14.6215555551">
		<tag k="alt_name" v="Engenes" />
		<tag k="name" v="Engeneset" />
		<tag k="natural" v="cape" />
		<tag k="ssr:stedsnr" v="78638" />
	</node>
	<node id="-200716" lat="68.6393972199" lon="14.4643777734">
		<tag k="name" v="Kleppelva" />
		<tag k="ssr:stedsnr" v="867704" />
		<tag k="waterway" v="river" />
	</node>
	<node id="-200713" lat="68.6807166703" lon="14.4994777719">
		<tag k="name" v="Haversvatnet" />
		<tag k="natural" v="water" />
		<tag k="ssr:stedsnr" v="867674" />
	</node>
	<node id="-200327" lat="68.6496527737" lon="14.5746666695">
		<tag k="name" v="Heggedalselva" />
		<tag k="ssr:stedsnr" v="563736" />
		<tag k="waterway" v="stream" />
	</node>
	<node id="-200760" lat="68.6823166697" lon="14.6173583356">
		<tag k="name" v="Vassbukta" />
		<tag k="natural" v="bay" />
		<tag k="ssr:stedsnr" v="965296" />
	</node>
	<node id="-198927" lat="68.7193055521" lon="14.7933833354">
		<tag k="name" v="Telthaugvatnet" />
		<tag k="natural" v="water" />
		<tag k="ssr:stedsnr" v="442317" />
>>>>>>> e1d4bc35ff8a6074a6f2e91616a996b547c36f15
	</node>
</osm>
