<?xml version="1.0" encoding="UTF-8"?>
<osm generator="osmapis" version="0.6">
	<node id="-187391" lat="68.7018916706" lon="14.5083000065">
		<tag k="name" v="Hesthagan" />
		<tag k="place" v="farm" />
		<tag k="ssr:stedsnr" v="79299" />
	</node>
	<node id="-187390" lat="68.6987388865" lon="14.4604611005">
		<tag k="name" v="Handkleppan" />
		<tag k="place" v="farm" />
		<tag k="ssr:stedsnr" v="79298" />
	</node>
	<node id="-187389" lat="68.7113527795" lon="14.6744666746">
		<tag k="name" v="Oppsåta" />
		<tag k="place" v="farm" />
		<tag k="ssr:stedsnr" v="79264" />
	</node>
	<node id="-188404" lat="68.726628314" lon="14.5971221148">
		<tag k="fixme" v="consider place=hamlet" />
		<tag k="name" v="Rise" />
		<tag k="place" v="farm" />
		<tag k="ssr:stedsnr" v="1076751" />
	</node>
	<node id="-188403" lat="68.7275018118" lon="14.625170898">
		<tag k="fixme" v="consider place=hamlet" />
		<tag k="name" v="Rottesnes" />
		<tag k="place" v="farm" />
		<tag k="ssr:stedsnr" v="1076749" />
	</node>
	<node id="-188402" lat="68.733351745" lon="14.6568035829">
		<tag k="alt_name" v="Oksebøl" />
		<tag k="fixme" v="consider place=hamlet" />
		<tag k="name" v="Oksbøl" />
		<tag k="place" v="farm" />
		<tag k="ssr:stedsnr" v="1076748" />
	</node>
	<node id="-188401" lat="68.7736464725" lon="14.5836949447">
		<tag k="name" v="Selvåg" />
		<tag k="place" v="locality" />
		<tag k="ssr:stedsnr" v="1076747" />
	</node>
	<node id="-188400" lat="68.7779416299" lon="14.4602162063">
		<tag k="fixme" v="consider place=hamlet" />
		<tag k="name" v="Nykvåg" />
		<tag k="place" v="farm" />
		<tag k="ssr:stedsnr" v="1076741" />
	</node>
	<node id="-188399" lat="68.6838524507" lon="14.4075887337">
		<tag k="fixme" v="consider place=hamlet" />
		<tag k="name" v="Skårvågen" />
		<tag k="place" v="farm" />
		<tag k="ssr:stedsnr" v="1076740" />
	</node>
	<node id="-188398" lat="68.6869321962" lon="14.4703054644">
		<tag k="fixme" v="consider place=hamlet" />
		<tag k="name" v="Straume" />
		<tag k="place" v="farm" />
		<tag k="ssr:stedsnr" v="1076739" />
	</node>
	<node id="-188397" lat="68.6334047589" lon="14.4459919415">
		<tag k="fixme" v="consider place=hamlet" />
		<tag k="name" v="Kleppelva" />
		<tag k="place" v="farm" />
		<tag k="ssr:stedsnr" v="1076738" />
	</node>
	<node id="-188396" lat="68.625451455" lon="14.4089067608">
		<tag k="fixme" v="consider place=hamlet" />
		<tag k="name" v="Svinøya" />
		<tag k="place" v="farm" />
		<tag k="ssr:stedsnr" v="1076737" />
	</node>
	<node id="-188395" lat="68.5937624424" lon="14.3101457498">
		<tag k="name" v="Litløya" />
		<tag k="place" v="locality" />
		<tag k="ssr:stedsnr" v="1076735" />
	</node>
	<node id="-188394" lat="68.6150596841" lon="14.4724804626">
		<tag k="fixme" v="consider place=hamlet" />
		<tag k="name" v="Steine" />
		<tag k="place" v="farm" />
		<tag k="ssr:stedsnr" v="1076734" />
	</node>
	<node id="-188393" lat="68.6147621454" lon="14.5462377261">
		<tag k="fixme" v="consider place=hamlet" />
		<tag k="name" v="Bø" />
		<tag k="place" v="farm" />
		<tag k="ssr:stedsnr" v="1076733" />
	</node>
	<node id="-188392" lat="68.6174775246" lon="14.57699084">
		<tag k="fixme" v="consider place=hamlet" />
		<tag k="name" v="Lokkøya" />
		<tag k="place" v="farm" />
		<tag k="ssr:stedsnr" v="1076732" />
	</node>
	<node id="-188391" lat="68.6711239208" lon="14.7292922886">
		<tag k="fixme" v="consider place=hamlet" />
		<tag k="name" v="Røsnes" />
		<tag k="place" v="farm" />
		<tag k="ssr:stedsnr" v="1076731" />
	</node>
	<node id="-188390" lat="68.6647667262" lon="14.754280718">
		<tag k="fixme" v="consider place=hamlet" />
		<tag k="name" v="Guvåg" />
		<tag k="place" v="farm" />
		<tag k="ssr:stedsnr" v="1076730" />
	</node>
	<node id="-188386" lat="68.8081333509" lon="14.6240237671">
		<tag k="name" v="Sørgård" />
		<tag k="place" v="farm" />
		<tag k="ssr:stedsnr" v="978834" />
	</node>
	<node id="-186337" lat="68.7637194428" lon="14.6107416753">
		<tag k="name" v="Skatjorda" />
		<tag k="place" v="locality" />
		<tag k="ssr:stedsnr" v="239332" />
	</node>
	<node id="-186846" lat="68.7514579288" lon="14.5775281378">
		<tag k="fixme" v="consider place=hamlet" />
		<tag k="name" v="Grimstad" />
		<tag k="place" v="farm" />
		<tag k="ssr:stedsnr" v="685676" />
	</node>
	<node id="-188380" lat="68.777794444" lon="14.4897166691">
		<tag k="name" v="Moen" />
		<tag k="place" v="isolated_dwelling" />
		<tag k="ssr:stedsnr" v="967299" />
	</node>
	<node id="-186843" lat="68.6855897256" lon="14.5062035675">
		<tag k="fixme" v="consider place=hamlet" />
		<tag k="name" v="Øyjorda" />
		<tag k="place" v="farm" />
		<tag k="ssr:stedsnr" v="685645" />
	</node>
	<node id="-186324" lat="68.6725388874" lon="14.7441388974">
		<tag k="name" v="Vassbotn" />
		<tag k="place" v="farm" />
		<tag k="ssr:stedsnr" v="55375" />
	</node>
	<node id="-186313" lat="68.6851305512" lon="14.7161138966">
		<tag k="name" v="Haugsnes" />
		<tag k="place" v="farm" />
		<tag k="ssr:stedsnr" v="18603" />
	</node>
	<node id="-187724" lat="68.6627611153" lon="14.6315583224">
		<tag k="amenity" v="school" />
		<tag k="name" v="Ringstad skole" />
		<tag k="ssr:stedsnr" v="362149" />
	</node>
	<node id="-186614" lat="68.7033549747" lon="14.4390925151">
		<tag k="fixme" v="consider place=hamlet" />
		<tag k="name" v="Vikan" />
		<tag k="place" v="farm" />
		<tag k="ssr:stedsnr" v="261319" />
	</node>
	<node id="-188352" lat="68.7982982734" lon="14.6368108463">
		<tag k="alt_name" v="Utskår" />
		<tag k="fixme" v="consider place=hamlet" />
		<tag k="name" v="Utskor" />
		<tag k="place" v="farm" />
		<tag k="ssr:stedsnr" v="868912" />
	</node>
	<node id="-188348" lat="68.6643083341" lon="14.7584916576">
		<tag k="fixme" v="consider place=hamlet" />
		<tag k="name" v="Guvåg" />
		<tag k="place" v="village" />
		<tag k="ssr:stedsnr" v="868697" />
	</node>
	<node id="-186811" lat="68.7242717157" lon="14.5401672384">
		<tag k="fixme" v="consider place=hamlet" />
		<tag k="name" v="Husvågen" />
		<tag k="place" v="farm" />
		<tag k="ssr:stedsnr" v="685281" />
	</node>
	<node id="-188346" lat="68.6556880318" lon="14.6358704987">
		<tag k="fixme" v="consider place=hamlet" />
		<tag k="name" v="Ringstad" />
		<tag k="place" v="farm" />
		<tag k="ssr:stedsnr" v="868677" />
	</node>
	<node id="-186807" lat="68.7257416623" lon="14.6007861158">
		<tag k="fixme" v="consider place=hamlet" />
		<tag k="name" v="Rise" />
		<tag k="place" v="village" />
		<tag k="ssr:stedsnr" v="685254" />
	</node>
	<node id="-187829" lat="68.7253777821" lon="14.5261083328">
		<tag k="name" v="Spjelkvågen" />
		<tag k="place" v="locality" />
		<tag k="ssr:stedsnr" v="419252" />
	</node>
	<node id="-187379" lat="68.695324996" lon="14.4897999991">
		<tag k="name" v="Småskogan" />
		<tag k="place" v="farm" />
		<tag k="ssr:stedsnr" v="78674" />
	</node>
	<node id="-188331" lat="68.6742754494" lon="14.7362186871">
		<tag k="fixme" v="consider place=hamlet" />
		<tag k="name" v="Røsnes" />
		<tag k="place" v="village" />
		<tag k="ssr:stedsnr" v="867764" />
	</node>
	<node id="-188327" lat="68.6377558471" lon="14.442736564">
		<tag k="fixme" v="consider place=hamlet" />
		<tag k="name" v="Gimstad" />
		<tag k="place" v="farm" />
		<tag k="ssr:stedsnr" v="867705" />
	</node>
	<node id="-187302" lat="68.6187750012" lon="14.441372222">
		<tag k="name" v="Borgstubakken" />
		<tag k="place" v="isolated_dwelling" />
		<tag k="ssr:stedsnr" v="36101" />
	</node>
	<node id="-186865" lat="68.694427777" lon="14.4732527675">
		<tag k="name" v="Høyfjell" />
		<tag k="place" v="quarter" />
		<tag k="ssr:stedsnr" v="688213" />
	</node>
	<node id="-188324" lat="68.6979134933" lon="14.6917744574">
		<tag k="fixme" v="consider place=hamlet" />
		<tag k="name" v="Skorpa" />
		<tag k="place" v="farm" />
		<tag k="ssr:stedsnr" v="867677" />
	</node>
	<node id="-186785" lat="68.7673035484" lon="14.6181565009">
		<tag k="alt_name" v="Gjenden" />
		<tag k="name" v="Jenn" />
		<tag k="place" v="farm" />
		<tag k="ssr:stedsnr" v="482406" />
	</node>
	<node id="-188320" lat="68.667377776" lon="14.4876888995">
		<tag k="name" v="Hole" />
		<tag k="place" v="farm" />
		<tag k="ssr:stedsnr" v="867638" />
	</node>
	<node id="-188318" lat="68.6091443539" lon="14.5265906394">
		<tag k="fixme" v="consider place=hamlet" />
		<tag k="name" v="Mårsund" />
		<tag k="place" v="farm" />
		<tag k="ssr:stedsnr" v="867608" />
	</node>
	<node id="-187285" lat="68.7949083358" lon="14.6972861078">
		<tag k="alt_name" v="Andsletten" />
		<tag k="fixme" v="consider place=hamlet" />
		<tag k="name" v="Andsletta" />
		<tag k="place" v="farm" />
		<tag k="ssr:stedsnr" v="18965" />
	</node>
	<node id="-187795" lat="68.6207888927" lon="14.4466472343">
		<tag k="fixme" v="consider place=suburb, village or hamlet" />
		<tag k="loc_name:se" v="Bievvá" />
		<tag k="name" v="Bø" />
		<tag k="name:no" v="Bø" />
		<tag k="place" v="quarter" />
		<tag k="ssr:stedsnr" v="389734" />
	</node>
	<node id="-188301" lat="68.7422131019" lon="14.6270576639">
		<tag k="fixme" v="consider place=hamlet" />
		<tag k="name" v="Sund" />
		<tag k="place" v="farm" />
		<tag k="ssr:stedsnr" v="867387" />
	</node>
	<node id="-187275" lat="68.6703665755" lon="14.4969520537">
		<tag k="fixme" v="consider place=hamlet" />
		<tag k="name" v="Lynghaugen" />
		<tag k="place" v="farm" />
		<tag k="ssr:stedsnr" v="18587" />
	</node>
	<node id="-188295" lat="68.7177083321" lon="14.6794055511">
		<tag k="alt_name" v="Verhalsen, nedre" />
		<tag k="name" v="Nedre Verhalsen" />
		<tag k="place" v="farm" />
		<tag k="ssr:stedsnr" v="867325" />
	</node>
	<node id="-187780" lat="68.6635420618" lon="14.6692258257">
		<tag k="fixme" v="consider place=hamlet" />
		<tag k="name" v="Auvåg" />
		<tag k="place" v="farm" />
		<tag k="ssr:stedsnr" v="382709" />
	</node>
	<node id="-187777" lat="68.7548194416" lon="14.5814833224">
		<tag k="name" v="Grubbelva" />
		<tag k="place" v="farm" />
		<tag k="ssr:stedsnr" v="382538" />
	</node>
	<node id="-187776" lat="68.7524259455" lon="14.4675154483">
		<tag k="fixme" v="consider place=hamlet" />
		<tag k="name" v="Sandvika" />
		<tag k="place" v="farm" />
		<tag k="ssr:stedsnr" v="382532" />
	</node>
	<node id="-186751" lat="68.6779928512" lon="14.5561668292">
		<tag k="name" v="Vea" />
		<tag k="place" v="farm" />
		<tag k="ssr:stedsnr" v="661176" />
	</node>
	<node id="-188286" lat="68.6104609327" lon="14.4427229118">
		<tag k="fixme" v="consider place=hamlet" />
		<tag k="name" v="Skagan" />
		<tag k="place" v="farm" />
		<tag k="ssr:stedsnr" v="848440" />
	</node>
	<node id="-186773" lat="68.7728388932" lon="14.6881444354">
		<tag k="name" v="Møkland nordre" />
		<tag k="place" v="farm" />
		<tag k="ssr:stedsnr" v="464022" />
	</node>
	<node id="-186746" lat="68.6704805025" lon="14.4890012468">
		<tag k="fixme" v="consider place=hamlet" />
		<tag k="name" v="Hole" />
		<tag k="place" v="farm" />
		<tag k="ssr:stedsnr" v="423203" />
	</node>
	<node id="-188279" lat="68.7957555553" lon="14.635102784">
		<tag k="name" v="Buvika" />
		<tag k="place" v="farm" />
		<tag k="ssr:stedsnr" v="846314" />
	</node>
	<node id="-187254" lat="68.6670069851" lon="14.4238525015">
		<tag k="name" v="Søberg" />
		<tag k="place" v="farm" />
		<tag k="ssr:stedsnr" v="18354" />
	</node>
	<node id="-186737" lat="68.6812194437" lon="14.4488833232">
		<tag k="name" v="Storhaugen" />
		<tag k="place" v="locality" />
		<tag k="ssr:stedsnr" v="506212" />
	</node>
	<node id="-187760" lat="68.6825700672" lon="14.5217395346">
		<tag k="fixme" v="consider place=hamlet" />
		<tag k="name" v="Børge" />
		<tag k="place" v="farm" />
		<tag k="ssr:stedsnr" v="381682" />
	</node>
	<node id="-187880" lat="68.6252739857" lon="14.4415244871">
		<tag k="fixme" v="consider place=hamlet" />
		<tag k="name" v="Vinje" />
		<tag k="place" v="farm" />
		<tag k="ssr:stedsnr" v="526090" />
	</node>
	<node id="-187245" lat="68.6013861105" lon="14.4961083359">
		<tag k="alt_name" v="Sandjord" />
		<tag k="name" v="Sandjorda" />
		<tag k="place" v="farm" />
		<tag k="ssr:stedsnr" v="17620" />
	</node>
	<node id="-187244" lat="68.6185578609" lon="14.3423664797">
		<tag k="name" v="Været" />
		<tag k="place" v="locality" />
		<tag k="ssr:stedsnr" v="17451" />
	</node>
	<node id="-187238" lat="68.7485953926" lon="14.6971073355">
		<tag k="fixme" v="consider place=hamlet" />
		<tag k="name" v="Sommarland" />
		<tag k="place" v="farm" />
		<tag k="ssr:stedsnr" v="17384" />
	</node>
	<node id="-188259" lat="68.6631194438" lon="14.4699944387">
		<tag k="name" v="Hundskilda" />
		<tag k="place" v="farm" />
		<tag k="ssr:stedsnr" v="825527" />
	</node>
	<node id="-187746" lat="68.7437333343" lon="14.726016669">
		<tag k="name" v="Kråkhaugen" />
		<tag k="place" v="farm" />
		<tag k="ssr:stedsnr" v="381370" />
	</node>
	<node id="-187230" lat="68.6747277786" lon="14.5064583344">
		<tag k="name" v="Gammelgården" />
		<tag k="place" v="farm" />
		<tag k="ssr:stedsnr" v="969066" />
	</node>
	<node id="-187741" lat="68.7247611138" lon="14.6808833329">
		<tag k="alt_name" v="Verhalsen, øvre" />
		<tag k="name" v="Øvre Verhalsen" />
		<tag k="place" v="farm" />
		<tag k="ssr:stedsnr" v="381293" />
	</node>
	<node id="-186714" lat="68.6627222255" lon="14.729894443">
		<tag k="name" v="Vasvik" />
		<tag k="place" v="farm" />
		<tag k="ssr:stedsnr" v="503684" />
	</node>
	<node id="-186711" lat="68.6757623432" lon="14.5069902683">
		<tag k="fixme" v="consider place=hamlet" />
		<tag k="name" v="Fagerhaugen" />
		<tag k="place" v="farm" />
		<tag k="ssr:stedsnr" v="503603" />
	</node>
	<node id="-186710" lat="68.678554712" lon="14.5653626577">
		<tag k="fixme" v="consider place=hamlet" />
		<tag k="name" v="Vea" />
		<tag k="place" v="farm" />
		<tag k="ssr:stedsnr" v="503594" />
	</node>
	<node id="-187221" lat="68.6227666621" lon="14.5627416747">
		<tag k="amenity" v="school" />
		<tag k="name" v="Bøstrand skole" />
		<tag k="ssr:stedsnr" v="963317" />
	</node>
	<node id="-187729" lat="68.6714386176" lon="14.5044866926">
		<tag k="name" v="Sjurtofta" />
		<tag k="place" v="farm" />
		<tag k="ssr:stedsnr" v="362197" />
	</node>
	<node id="-187214" lat="68.6775861124" lon="14.467433323">
		<tag k="name" v="Gården" />
		<tag k="place" v="farm" />
		<tag k="ssr:stedsnr" v="931205" />
	</node>
	<node id="-188236" lat="68.6802361118" lon="14.4679499991">
		<tag k="amenity" v="nursing_home" />
		<tag k="name" v="Bøheimen" />
		<tag k="ssr:stedsnr" v="810220" />
	</node>
	<node id="-186699" lat="68.7383361133" lon="14.5857305544">
		<tag k="alt_name" v="Eide" />
		<tag k="fixme" v="consider place=suburb, village or hamlet" />
		<tag k="name" v="Eidet" />
		<tag k="place" v="quarter" />
		<tag k="ssr:stedsnr" v="503351" />
	</node>
	<node id="-186475" lat="68.7663604103" lon="14.7575887813">
		<tag k="name" v="Pollen" />
		<tag k="place" v="locality" />
		<tag k="ssr:stedsnr" v="279547" />
	</node>
	<node id="-187718" lat="68.7347972263" lon="14.5962472231">
		<tag k="amenity" v="school" />
		<tag k="name" v="Eidet skole" />
		<tag k="ssr:stedsnr" v="358242" />
	</node>
	<node id="-187205" lat="68.6275734691" lon="14.6071169334">
		<tag k="fixme" v="consider place=hamlet" />
		<tag k="name" v="Snarset" />
		<tag k="place" v="farm" />
		<tag k="ssr:stedsnr" v="928503" />
	</node>
	<node id="-186683" lat="68.6942777787" lon="14.4692249931">
		<tag k="name" v="Mellajorda" />
		<tag k="place" v="farm" />
		<tag k="ssr:stedsnr" v="385053" />
	</node>
	<node id="-187192" lat="68.6649000012" lon="14.474188897">
		<tag k="name" v="Førraen" />
		<tag k="place" v="isolated_dwelling" />
		<tag k="ssr:stedsnr" v="886562" />
	</node>
	<node id="-187694" lat="68.6899861075" lon="14.4833388793">
		<tag k="name" v="Rabben" />
		<tag k="place" v="farm" />
		<tag k="ssr:stedsnr" v="339324" />
	</node>
	<node id="-186669" lat="68.7821861149" lon="14.6836805492">
		<tag k="name" v="Solbakken" />
		<tag k="place" v="farm" />
		<tag k="ssr:stedsnr" v="358606" />
	</node>
	<node id="-187177" lat="68.6934722198" lon="14.4727083257">
		<tag k="name" v="Utsikten" />
		<tag k="place" v="quarter" />
		<tag k="ssr:stedsnr" v="871175" />
	</node>
	<node id="-186844" lat="68.6924694442" lon="14.6090722297">
		<tag k="name" v="Langmoa" />
		<tag k="place" v="farm" />
		<tag k="ssr:stedsnr" v="685662" />
	</node>
	<node id="-187682" lat="68.7160207078" lon="14.6805868034">
		<tag k="fixme" v="consider place=hamlet" />
		<tag k="name" v="Verhalsen" />
		<tag k="place" v="farm" />
		<tag k="ssr:stedsnr" v="329758" />
	</node>
	<node id="-187355" lat="68.670808334" lon="14.4997694372">
		<tag k="name" v="Remman" />
		<tag k="place" v="farm" />
		<tag k="ssr:stedsnr" v="59186" />
	</node>
	<node id="-186655" lat="68.7996309394" lon="14.6361116726">
		<tag k="name" v="Utskår" />
		<tag k="place" v="farm" />
		<tag k="ssr:stedsnr" v="481348" />
	</node>
	<node id="-188185" lat="68.6081164465" lon="14.3184640432">
		<tag k="name" v="Skjerdingstad" />
		<tag k="place" v="locality" />
		<tag k="ssr:stedsnr" v="806324" />
	</node>
	<node id="-186648" lat="68.619144445" lon="14.5921833276">
		<tag k="name" v="Storhaugen" />
		<tag k="place" v="farm" />
		<tag k="ssr:stedsnr" v="302712" />
	</node>
	<node id="-188292" lat="68.7278888844" lon="14.6218694461">
		<tag k="name" v="Rottåsen" />
		<tag k="place" v="farm" />
		<tag k="ssr:stedsnr" v="867307" />
	</node>
	<node id="-187156" lat="68.7648555589" lon="14.6864722281">
		<tag k="name" v="Oshaug" />
		<tag k="place" v="farm" />
		<tag k="ssr:stedsnr" v="946507" />
	</node>
	<node id="-187182" lat="68.7497988648" lon="14.513956145">
		<tag k="fixme" v="consider place=hamlet" />
		<tag k="name" v="Kvalvika" />
		<tag k="place" v="farm" />
		<tag k="ssr:stedsnr" v="885607" />
	</node>
	<node id="-187660" lat="68.6490249999" lon="14.6372972197">
		<tag k="name" v="Straumsnes" />
		<tag k="place" v="hamlet" />
		<tag k="ssr:stedsnr" v="321671" />
	</node>
	<node id="-187658" lat="68.7511850084" lon="14.7131329471">
		<tag k="alt_name" v="Sør-Rygge" />
		<tag k="fixme" v="consider place=hamlet" />
		<tag k="name" v="Sørrygge" />
		<tag k="place" v="farm" />
		<tag k="ssr:stedsnr" v="321554" />
	</node>
	<node id="-188167" lat="68.7595166669" lon="14.6627305516">
		<tag k="fixme" v="consider place=hamlet" />
		<tag k="name" v="Møkland" />
		<tag k="place" v="farm" />
		<tag k="ssr:stedsnr" v="783495" />
	</node>
	<node id="-186753" lat="68.6944249962" lon="14.6100472237">
		<tag k="fixme" v="consider place=hamlet" />
		<tag k="name" v="Langmoa" />
		<tag k="place" v="farm" />
		<tag k="ssr:stedsnr" v="661180" />
	</node>
	<node id="-186627" lat="68.7775694433" lon="14.4658666551">
		<tag k="name" v="Vågen" />
		<tag k="place" v="hamlet" />
		<tag k="ssr:stedsnr" v="461290" />
	</node>
	<node id="-188162" lat="68.6622583295" lon="14.7756777835">
		<tag k="fixme" v="consider tourism=alpine_hut or tourism=chalet" />
		<tag k="name" v="Guvåghytta" />
		<tag k="ssr:stedsnr" v="782806" />
		<tag k="tourism" v="wilderness_hut" />
	</node>
	<node id="-186624" lat="68.656444446" lon="14.444127787">
		<tag k="name" v="Gaza" />
		<tag k="place" v="isolated_dwelling" />
		<tag k="ssr:stedsnr" v="461284" />
	</node>
	<node id="-188158" lat="68.7678638881" lon="14.6185611116">
		<tag k="alt_name" v="Gjenden" />
		<tag k="fixme" v="consider place=hamlet" />
		<tag k="name" v="Jenn" />
		<tag k="place" v="farm" />
		<tag k="ssr:stedsnr" v="764733" />
	</node>
	<node id="-186621" lat="68.8109694484" lon="14.5539833311">
		<tag k="name" v="Grindvik" />
		<tag k="place" v="farm" />
		<tag k="ssr:stedsnr" v="461269" />
	</node>
	<node id="-187132" lat="68.6877333334" lon="14.4796666734">
		<tag k="amenity" v="school" />
		<tag k="name" v="Straume skole" />
		<tag k="ssr:stedsnr" v="825239" />
	</node>
	<node id="-187638" lat="68.7414861156" lon="14.5956833221">
		<tag k="name" v="Øra" />
		<tag k="place" v="farm" />
		<tag k="ssr:stedsnr" v="321351" />
	</node>
	<node id="-186613" lat="68.7062638875" lon="14.676611105">
		<tag k="name" v="Hundnes" />
		<tag k="place" v="farm" />
		<tag k="ssr:stedsnr" v="261303" />
	</node>
	<node id="-187774" lat="68.6095083312" lon="14.4612333445">
		<tag k="name" v="Steinesjøen" />
		<tag k="place" v="hamlet" />
		<tag k="ssr:stedsnr" v="382510" />
	</node>
	<node id="-187629" lat="68.7203715121" lon="14.5653686722">
		<tag k="fixme" v="consider place=hamlet" />
		<tag k="name" v="Skålbrekka" />
		<tag k="place" v="farm" />
		<tag k="ssr:stedsnr" v="321265" />
	</node>
	<node id="-187626" lat="68.7208083315" lon="14.5784305656">
		<tag k="name" v="Olset" />
		<tag k="place" v="farm" />
		<tag k="ssr:stedsnr" v="321257" />
	</node>
	<node id="-187619" lat="68.6830388908" lon="14.5744555628">
		<tag k="name" v="Geitneset" />
		<tag k="place" v="farm" />
		<tag k="ssr:stedsnr" v="321208" />
	</node>
	<node id="-187324" lat="68.6122527739" lon="14.4946861219">
		<tag k="name" v="Litljorda" />
		<tag k="place" v="farm" />
		<tag k="ssr:stedsnr" v="36516" />
	</node>
	<node id="-188122" lat="68.6716527798" lon="14.5869166547">
		<tag k="name" v="Solevang" />
		<tag k="place" v="farm" />
		<tag k="ssr:stedsnr" v="746681" />
	</node>
	<node id="-187608" lat="68.6882861069" lon="14.4705944553">
		<tag k="name" v="Gammelgården" />
		<tag k="place" v="farm" />
		<tag k="ssr:stedsnr" v="203080" />
	</node>
	<node id="-188112" lat="68.7008194453" lon="14.7071583253">
		<tag k="fixme" v="consider place=hamlet" />
		<tag k="name" v="Kvernfjorden" />
		<tag k="place" v="village" />
		<tag k="ssr:stedsnr" v="746292" />
	</node>
	<node id="-187597" lat="68.8061179187" lon="14.5569175672">
		<tag k="fixme" v="consider place=hamlet" />
		<tag k="name" v="Malnes" />
		<tag k="place" v="farm" />
		<tag k="ssr:stedsnr" v="200925" />
	</node>
	<node id="-187596" lat="68.7972694466" lon="14.6410749969">
		<tag k="loc_name" v="Restoften" />
		<tag k="name" v="Restofta" />
		<tag k="place" v="farm" />
		<tag k="ssr:stedsnr" v="200922" />
	</node>
	<node id="-188106" lat="68.6103821612" lon="14.4948496982">
		<tag k="fixme" v="consider place=hamlet" />
		<tag k="name" v="Steinsvik" />
		<tag k="place" v="farm" />
		<tag k="ssr:stedsnr" v="745499" />
	</node>
	<node id="-188104" lat="68.6957222203" lon="14.6715861191">
		<tag k="alt_name" v="Klakkjorda" />
		<tag k="name" v="Klakksjorda" />
		<tag k="old_name" v="Klaksjord" />
		<tag k="place" v="village" />
		<tag k="ssr:stedsnr" v="745699" />
	</node>
	<node id="-187586" lat="68.6326567744" lon="14.6261407353">
		<tag k="fixme" v="consider place=hamlet" />
		<tag k="name" v="Ramberg" />
		<tag k="place" v="farm" />
		<tag k="ssr:stedsnr" v="200558" />
	</node>
	<node id="-187584" lat="68.6160083363" lon="14.4757638816">
		<tag k="fixme" v="consider place=suburb, village or hamlet" />
		<tag k="name" v="Steine" />
		<tag k="place" v="quarter" />
		<tag k="ssr:stedsnr" v="200539" />
	</node>
	<node id="-187070" lat="68.7241193115" lon="14.6344256823">
		<tag k="fixme" v="consider place=hamlet" />
		<tag k="name" v="Reinshaugen" />
		<tag k="place" v="farm" />
		<tag k="ssr:stedsnr" v="928228" />
	</node>
	<node id="-186557" lat="68.6196111118" lon="14.449686105">
		<tag k="fixme" v="consider place=suburb, village or hamlet" />
		<tag k="name" v="Vinje" />
		<tag k="place" v="quarter" />
		<tag k="ssr:stedsnr" v="442526" />
	</node>
	<node id="-187594" lat="68.8134658873" lon="14.5514148666">
		<tag k="fixme" v="consider place=hamlet" />
		<tag k="name" v="Hovden" />
		<tag k="place" v="farm" />
		<tag k="ssr:stedsnr" v="200872" />
	</node>
	<node id="-187578" lat="68.7306138897" lon="14.6828305566">
		<tag k="name" v="Nordverhalsen" />
		<tag k="place" v="locality" />
		<tag k="ssr:stedsnr" v="200248" />
	</node>
	<node id="-187575" lat="68.6947944416" lon="14.4654388937">
		<tag k="name" v="Straumsjøen" />
		<tag k="place" v="hamlet" />
		<tag k="ssr:stedsnr" v="199691" />
	</node>
	<node id="-187574" lat="68.6889861147" lon="14.4714611145">
		<tag k="name" v="Straume" />
		<tag k="place" v="village" />
		<tag k="ssr:stedsnr" v="199690" />
	</node>
	<node id="-187569" lat="68.7726388882" lon="14.6860444325">
		<tag k="name" v="Møkland" />
		<tag k="place" v="hamlet" />
		<tag k="ssr:stedsnr" v="199519" />
	</node>
	<node id="-188080" lat="68.6636638907" lon="14.4636249903">
		<tag k="name" v="Sarabakken" />
		<tag k="place" v="farm" />
		<tag k="ssr:stedsnr" v="642562" />
	</node>
	<node id="-188079" lat="68.6176277784" lon="14.4806777735">
		<tag k="name" v="Langekra" />
		<tag k="place" v="farm" />
		<tag k="ssr:stedsnr" v="642560" />
	</node>
	<node id="-186542" lat="68.7378888874" lon="14.6469388792">
		<tag k="fixme" v="multiple name tags, choose one and add the other to alt_name" />
		<tag k="name" v="Kjerringtofta;Tofta" />
		<tag k="place" v="farm" />
		<tag k="ssr:stedsnr" v="442378" />
	</node>
	<node id="-187050" lat="68.7608111103" lon="14.7348888992">
		<tag k="name" v="Solbakken" />
		<tag k="place" v="locality" />
		<tag k="ssr:stedsnr" v="764536" />
	</node>
	<node id="-187553" lat="68.7360055531" lon="14.6432944348">
		<tag k="name" v="Nordbakken" />
		<tag k="place" v="farm" />
		<tag k="ssr:stedsnr" v="176493" />
	</node>
	<node id="-187551" lat="68.682967617" lon="14.7105399322">
		<tag k="fixme" v="consider place=hamlet" />
		<tag k="name" v="Haugsnes" />
		<tag k="place" v="farm" />
		<tag k="ssr:stedsnr" v="176432" />
	</node>
	<node id="-187247" lat="68.6824249996" lon="14.4835499894">
		<tag k="name" v="Langåsen" />
		<tag k="place" v="farm" />
		<tag k="ssr:stedsnr" v="17693" />
	</node>
	<node id="-187539" lat="68.6752527748" lon="14.4636194395">
		<tag k="name" v="Tofta" />
		<tag k="place" v="farm" />
		<tag k="ssr:stedsnr" v="157495" />
	</node>
	<node id="-188050" lat="68.7940444097" lon="14.585333344">
		<tag k="name" v="Røsshagan" />
		<tag k="place" v="locality" />
		<tag k="ssr:stedsnr" v="624953" />
	</node>
	<node id="-186861" lat="68.6815777823" lon="14.4099194384">
		<tag k="name" v="Høgtofta" />
		<tag k="place" v="farm" />
		<tag k="ssr:stedsnr" v="688035" />
	</node>
	<node id="-187022" lat="68.6886611125" lon="14.4983111193">
		<tag k="name" v="Nilsåsen" />
		<tag k="place" v="farm" />
		<tag k="ssr:stedsnr" v="745671" />
	</node>
	<node id="-187159" lat="68.741472222" lon="14.5677305506">
		<tag k="name" v="Solheim" />
		<tag k="place" v="locality" />
		<tag k="ssr:stedsnr" v="946598" />
	</node>
	<node id="-187015" lat="68.7408138899" lon="14.6473444554">
		<tag k="amenity" v="school" />
		<tag k="name" v="Haugen skole" />
		<tag k="ssr:stedsnr" v="905539" />
	</node>
	<node id="-186502" lat="68.6667770844" lon="14.4201780883">
		<tag k="name" v="Søberg" />
		<tag k="place" v="hamlet" />
		<tag k="ssr:stedsnr" v="200627" />
	</node>
	<node id="-187521" lat="68.6139250018" lon="14.4555500003">
		<tag k="name" v="Rabben" />
		<tag k="place" v="farm" />
		<tag k="ssr:stedsnr" v="157156" />
	</node>
	<node id="-186492" lat="68.7476511831" lon="14.5282205376">
		<tag k="fixme" v="consider place=hamlet" />
		<tag k="name" v="Gustad" />
		<tag k="place" v="farm" />
		<tag k="ssr:stedsnr" v="199334" />
	</node>
	<node id="-187002" lat="68.7378527741" lon="14.5837138853">
		<tag k="name" v="Eidsvoll" />
		<tag k="place" v="farm" />
		<tag k="ssr:stedsnr" v="709306" />
	</node>
	<node id="-188024" lat="68.6259833354" lon="14.6053611017">
		<tag k="fixme" v="consider place=hamlet" />
		<tag k="name" v="Snarset" />
		<tag k="place" v="village" />
		<tag k="ssr:stedsnr" v="624525" />
	</node>
	<node id="-188009" lat="68.7292111118" lon="14.6558666569">
		<tag k="name" v="Haugen" />
		<tag k="place" v="farm" />
		<tag k="ssr:stedsnr" v="624271" />
	</node>
	<node id="-186995" lat="68.6600556495" lon="14.6032918948">
		<tag k="fixme" v="consider place=hamlet" />
		<tag k="name" v="Pollen" />
		<tag k="place" v="farm" />
		<tag k="ssr:stedsnr" v="886494" />
	</node>
	<node id="-187505" lat="68.779636072" lon="14.4835488346">
		<tag k="fixme" v="consider place=hamlet" />
		<tag k="name" v="Nyke" />
		<tag k="place" v="farm" />
		<tag k="ssr:stedsnr" v="139972" />
	</node>
	<node id="-186992" lat="68.668247225" lon="14.4228722121">
		<tag k="name" v="Monstoften" />
		<tag k="place" v="isolated_dwelling" />
		<tag k="ssr:stedsnr" v="886533" />
	</node>
	<node id="-186991" lat="68.6850805593" lon="14.7296722274">
		<tag k="name" v="Bogen" />
		<tag k="place" v="farm" />
		<tag k="ssr:stedsnr" v="886512" />
	</node>
	<node id="-186987" lat="68.6389138924" lon="14.4478583317">
		<tag k="name" v="Presteidet" />
		<tag k="place" v="farm" />
		<tag k="ssr:stedsnr" v="886245" />
	</node>
	<node id="-188010" lat="68.7218833373" lon="14.6957861213">
		<tag k="alt_name" v="Jørland, nedre" />
		<tag k="name" v="Nedre Jørland" />
		<tag k="place" v="farm" />
		<tag k="ssr:stedsnr" v="624274" />
	</node>
	<node id="-188007" lat="68.7495172989" lon="14.579003119">
		<tag k="name" v="Grimstad" />
		<tag k="place" v="farm" />
		<tag k="ssr:stedsnr" v="623365" />
	</node>
	<node id="-188008" lat="68.7020499994" lon="14.5917083247">
		<tag k="name" v="Veggemoa" />
		<tag k="place" v="farm" />
		<tag k="ssr:stedsnr" v="624306" />
	</node>
	<node id="-186812" lat="68.7018883863" lon="14.6316384233">
		<tag k="fixme" v="consider place=hamlet" />
		<tag k="name" v="Gåsland" />
		<tag k="place" v="farm" />
		<tag k="ssr:stedsnr" v="685294" />
	</node>
	<node id="-188006" lat="68.7470581862" lon="14.5813791278">
		<tag k="alt_name" v="Bøen" />
		<tag k="fixme" v="consider place=hamlet" />
		<tag k="name" v="Bøna" />
		<tag k="place" v="farm" />
		<tag k="ssr:stedsnr" v="623364" />
	</node>
	<node id="-187490" lat="68.7586583373" lon="14.6641583453">
		<tag k="name" v="Skoglund" />
		<tag k="place" v="farm" />
		<tag k="ssr:stedsnr" v="139550" />
	</node>
	<node id="-186709" lat="68.6626900687" lon="14.4623703633">
		<tag k="fixme" v="consider place=hamlet" />
		<tag k="name" v="Føre" />
		<tag k="place" v="farm" />
		<tag k="ssr:stedsnr" v="503586" />
	</node>
	<node id="-186460" lat="68.7798305579" lon="14.4873444332">
		<tag k="name" v="Storhaugen" />
		<tag k="place" v="farm" />
		<tag k="ssr:stedsnr" v="279284" />
	</node>
	<node id="-186971" lat="68.6762416869" lon="14.4645917411">
		<tag k="fixme" v="consider place=hamlet" />
		<tag k="name" v="Forøya" />
		<tag k="place" v="farm" />
		<tag k="ssr:stedsnr" v="685634" />
	</node>
	<node id="-186791" lat="68.6818194464" lon="14.4107972264">
		<tag k="fixme" v="consider place=hamlet" />
		<tag k="name" v="Skårvågen" />
		<tag k="place" v="village" />
		<tag k="ssr:stedsnr" v="745639" />
	</node>
	<node id="-187477" lat="68.7848361106" lon="14.687208335">
		<tag k="name" v="Sletten" />
		<tag k="place" v="farm" />
		<tag k="ssr:stedsnr" v="138972" />
	</node>
	<node id="-186859" lat="68.7767666645" lon="14.4728722159">
		<tag k="fixme" v="consider place=hamlet" />
		<tag k="name" v="Nykvåg" />
		<tag k="place" v="village" />
		<tag k="ssr:stedsnr" v="685995" />
	</node>
	<node id="-187475" lat="68.6515697709" lon="14.4467703914">
		<tag k="fixme" v="consider place=hamlet" />
		<tag k="name" v="Fjærvoll" />
		<tag k="place" v="farm" />
		<tag k="ssr:stedsnr" v="138731" />
	</node>
	<node id="-186958" lat="68.6843944433" lon="14.469736103">
		<tag k="name" v="Notvollan" />
		<tag k="place" v="farm" />
		<tag k="ssr:stedsnr" v="627210" />
	</node>
	<node id="-187980" lat="68.6039833313" lon="14.5287666733">
		<tag k="name" v="Gjerdesjøen" />
		<tag k="place" v="farm" />
		<tag k="ssr:stedsnr" v="582268" />
	</node>
	<node id="-186978" lat="68.6592972201" lon="14.4437610989">
		<tag k="name" v="Gammelgården" />
		<tag k="place" v="farm" />
		<tag k="ssr:stedsnr" v="886263" />
	</node>
	<node id="-186295" lat="68.7531805518" lon="14.6887638888">
		<tag k="name" v="Kobbhaugen" />
		<tag k="place" v="farm" />
		<tag k="ssr:stedsnr" v="218519" />
	</node>
	<node id="-187973" lat="68.7188676711" lon="14.6046664035">
		<tag k="fixme" v="consider place=hamlet" />
		<tag k="name" v="Asterset" />
		<tag k="place" v="farm" />
		<tag k="ssr:stedsnr" v="581331" />
	</node>
	<node id="-186434" lat="68.6921555549" lon="14.4666416661">
		<tag k="name" v="Nygård" />
		<tag k="place" v="farm" />
		<tag k="ssr:stedsnr" v="264194" />
	</node>
	<node id="-186430" lat="68.6833583315" lon="14.4156833391">
		<tag k="name" v="Gunnarstø" />
		<tag k="place" v="farm" />
		<tag k="ssr:stedsnr" v="264042" />
	</node>
	<node id="-188341" lat="68.6099166646" lon="14.4479444539">
		<tag k="alt_name" v="Skagen" />
		<tag k="name" v="Skagan" />
		<tag k="place" v="hamlet" />
		<tag k="ssr:stedsnr" v="868508" />
	</node>
	<node id="-187962" lat="68.693247218" lon="14.4750861084">
		<tag k="name" v="Risvika" />
		<tag k="place" v="farm" />
		<tag k="ssr:stedsnr" v="567202" />
	</node>
	<node id="-187960" lat="68.7028036212" lon="14.4397928365">
		<tag k="fixme" v="multiple name tags, choose one and add the other to alt_name" />
		<tag k="name" v="Gammelgården;Stua" />
		<tag k="place" v="farm" />
		<tag k="ssr:stedsnr" v="567142" />
	</node>
	<node id="-187447" lat="68.7249096622" lon="14.7022304944">
		<tag k="fixme" v="consider place=hamlet" />
		<tag k="name" v="Jørland" />
		<tag k="place" v="farm" />
		<tag k="ssr:stedsnr" v="116582" />
	</node>
	<node id="-187229" lat="68.7975247151" lon="14.6398692884">
		<tag k="name" v="Elvebakken" />
		<tag k="place" v="farm" />
		<tag k="ssr:stedsnr" v="967307" />
	</node>
	<node id="-187948" lat="68.7872916691" lon="14.6402944348">
		<tag k="name" v="Hysjorda" />
		<tag k="place" v="farm" />
		<tag k="ssr:stedsnr" v="563982" />
	</node>
	<node id="-186923" lat="68.7374944404" lon="14.718833329">
		<tag k="name" v="Solheim" />
		<tag k="place" v="isolated_dwelling" />
		<tag k="ssr:stedsnr" v="601570" />
	</node>
	<node id="-186408" lat="68.8287582837" lon="14.6969521194">
		<tag k="name" v="Sundan" />
		<tag k="place" v="locality" />
		<tag k="ssr:stedsnr" v="260905" />
	</node>
	<node id="-187943" lat="68.8086490805" lon="14.6248043053">
		<tag k="name" v="Godvika" />
		<tag k="place" v="locality" />
		<tag k="ssr:stedsnr" v="563932" />
	</node>
	<node id="-186914" lat="68.6340638904" lon="14.6419638921">
		<tag k="name" v="Nesan" />
		<tag k="place" v="farm" />
		<tag k="ssr:stedsnr" v="601408" />
	</node>
	<node id="-186401" lat="68.7660955398" lon="14.7449319228">
		<tag k="fixme" v="consider place=hamlet" />
		<tag k="name" v="Nordrygge" />
		<tag k="place" v="farm" />
		<tag k="ssr:stedsnr" v="260576" />
	</node>
	<node id="-186400" lat="68.7603566298" lon="14.6975949049">
		<tag k="fixme" v="consider place=hamlet" />
		<tag k="name" v="Kråkberget" />
		<tag k="place" v="farm" />
		<tag k="ssr:stedsnr" v="260575" />
	</node>
	<node id="-186911" lat="68.742613887" lon="14.5755944495">
		<tag k="fixme" v="consider place=hamlet" />
		<tag k="name" v="Eidet" />
		<tag k="place" v="farm" />
		<tag k="ssr:stedsnr" v="587310" />
	</node>
	<node id="-187415" lat="68.6193845335" lon="14.3369911266">
		<tag k="name" v="Nakling" />
		<tag k="place" v="locality" />
		<tag k="ssr:stedsnr" v="97364" />
	</node>
	<node id="-186480" lat="68.6265611125" lon="14.4413027771">
		<tag k="name" v="Toften" />
		<tag k="place" v="farm" />
		<tag k="ssr:stedsnr" v="284097" />
	</node>
	<node id="-186374" lat="68.7282027765" lon="14.7089750071">
		<tag k="alt_name" v="Jørland, øvre" />
		<tag k="name" v="Øvre Jørland" />
		<tag k="place" v="farm" />
		<tag k="ssr:stedsnr" v="260316" />
	</node>
	<node id="-186373" lat="68.7295166682" lon="14.4851638871">
		<tag k="name" v="Åsand" />
		<tag k="place" v="locality" />
		<tag k="ssr:stedsnr" v="260314" />
	</node>
	<node id="-187396" lat="68.6603438459" lon="14.6056399977">
		<tag k="name" v="Pollåsen" />
		<tag k="place" v="hamlet" />
		<tag k="ssr:stedsnr" v="79674" />
	</node>
	<node id="-186924" lat="68.6342444444" lon="14.6300333427">
		<tag k="name" v="Remman" />
		<tag k="place" v="farm" />
		<tag k="ssr:stedsnr" v="604227" />
	</node>
</osm>
