<?xml version="1.0" encoding="UTF-8"?>
<osm version="0.6" generator="osmapis">
	<node lat="68.61061944058505" lon="14.329527764845743" id="-25428">
		<tag k="fixme" v="consider natural=peak for the most distinct mountains in the district" />
		<tag k="name" v="Skjerdingstadtinden" />
		<tag k="natural" v="hill" />
		<tag k="place" v="locality" />
		<tag k="ssr:stedsnr" v="17364" />
	</node>
	<node lat="68.69660555900748" lon="14.768888896869013" id="-25432">
		<tag k="fixme" v="consider natural=peak for the most distinct mountains in the district" />
		<tag k="name" v="Steinheia" />
		<tag k="natural" v="hill" />
		<tag k="place" v="locality" />
		<tag k="ssr:stedsnr" v="17701" />
	</node>
	<node lat="68.69226111246475" lon="14.451058330763182" id="-25433">
		<tag k="fixme" v="consider natural=peak for the most distinct mountains in the district" />
		<tag k="name" v="Straumberget" />
		<tag k="natural" v="hill" />
		<tag k="place" v="locality" />
		<tag k="ssr:stedsnr" v="17706" />
	</node>
	<node lat="68.694502779897" lon="14.530594435162035" id="-25434">
		<tag k="name" v="Hundsdalen" />
		<tag k="natural" v="valley" />
		<tag k="place" v="locality" />
		<tag k="ssr:stedsnr" v="17712" />
	</node>
	<node lat="68.64803889160514" lon="14.46385276852237" id="-25436">
		<tag k="fixme" v="consider natural=peak for the most distinct mountains in the district" />
		<tag k="name" v="Fjærvollfjellet" />
		<tag k="natural" v="hill" />
		<tag k="place" v="locality" />
		<tag k="ssr:stedsnr" v="17742" />
	</node>
	<node lat="68.75980278254056" lon="14.636361102667516" id="-25443">
		<tag k="fixme" v="consider natural=peak for the most distinct mountains in the district" />
		<tag k="name" v="Storskata" />
		<tag k="natural" v="hill" />
		<tag k="place" v="locality" />
		<tag k="ssr:stedsnr" v="18506" />
	</node>
	<node lat="68.62677499963537" lon="14.508324999879928" id="-25447">
		<tag k="fixme" v="consider natural=peak for the most distinct mountains in the district" />
		<tag k="name" v="Breitinden" />
		<tag k="natural" v="hill" />
		<tag k="place" v="locality" />
		<tag k="ssr:stedsnr" v="18499" />
	</node>
	<node lat="68.68878610875421" lon="14.41247221554257" id="-25450">
		<tag k="name" v="Ryphammaren" />
		<tag k="natural" v="hill" />
		<tag k="place" v="locality" />
		<tag k="ssr:stedsnr" v="21050" />
	</node>
	<node lat="68.68549444563774" lon="14.376758335476334" id="-25451">
		<tag k="name" v="Rørlia" />
		<tag k="natural" v="slope" />
		<tag k="place" v="locality" />
		<tag k="ssr:stedsnr" v="21248" />
	</node>
	<node lat="68.80798889255014" lon="14.559794435949563" id="-25453">
		<tag k="name" v="Jarberget" />
		<tag k="natural" v="hill" />
		<tag k="place" v="locality" />
		<tag k="ssr:stedsnr" v="36304" />
	</node>
	<node lat="68.62909166331677" lon="14.478566673776216" id="-25461">
		<tag k="name" v="Grottan" />
		<tag k="natural" v="valley" />
		<tag k="place" v="locality" />
		<tag k="ssr:stedsnr" v="36714" />
	</node>
	<node lat="68.72496944601052" lon="14.533994455363825" id="-25463">
		<tag k="fixme" v="consider natural=peak for the most distinct mountains in the district" />
		<tag k="name" v="Åsen" />
		<tag k="natural" v="hill" />
		<tag k="place" v="locality" />
		<tag k="ssr:stedsnr" v="237247" />
	</node>
	<node lat="68.76393055255136" lon="14.746405550054002" id="-25465">
		<tag k="name" v="Tjønnrabben" />
		<tag k="natural" v="hill" />
		<tag k="place" v="locality" />
		<tag k="ssr:stedsnr" v="237579" />
	</node>
	<node lat="68.68171110858515" lon="14.74319721310782" id="-25468">
		<tag k="name" v="Mattishaugen" />
		<tag k="natural" v="hill" />
		<tag k="place" v="locality" />
		<tag k="ssr:stedsnr" v="238541" />
	</node>
	<node lat="68.67424722480703" lon="14.740891673927946" id="-25469">
		<tag k="name" v="Kjørarbakkan" />
		<tag k="natural" v="slope" />
		<tag k="place" v="locality" />
		<tag k="ssr:stedsnr" v="238543" />
	</node>
	<node lat="68.69353889064753" lon="14.735391679323797" id="-25470">
		<tag k="name" v="Haugsneslemman" />
		<tag k="place" v="locality" />
		<tag k="ssr:stedsnr" v="238499" />
	</node>
	<node lat="68.7281249961612" lon="14.661599995871804" id="-25472">
		<tag k="name" v="Vasshaugen" />
		<tag k="natural" v="hill" />
		<tag k="place" v="locality" />
		<tag k="ssr:stedsnr" v="55516" />
	</node>
	<node lat="68.76658888837807" lon="14.741969453827322" id="-25474">
		<tag k="name" v="Vesterhaugen" />
		<tag k="natural" v="hill" />
		<tag k="place" v="locality" />
		<tag k="ssr:stedsnr" v="55535" />
	</node>
	<node lat="68.68975555760038" lon="14.761250009971947" id="-25475">
		<tag k="name" v="Breitindlian" />
		<tag k="natural" v="slope" />
		<tag k="place" v="locality" />
		<tag k="ssr:stedsnr" v="56502" />
	</node>
	<node lat="68.77221944553803" lon="14.532116662022329" id="-25476">
		<tag k="name" v="Vågsberget" />
		<tag k="natural" v="hill" />
		<tag k="place" v="locality" />
		<tag k="ssr:stedsnr" v="57308" />
	</node>
	<node lat="68.6695249963219" lon="14.478980543965855" id="-25480">
		<tag k="name" v="Gangskaret" />
		<tag k="natural" v="valley" />
		<tag k="place" v="locality" />
		<tag k="ssr:stedsnr" v="59181" />
	</node>
	<node lat="68.6703305561303" lon="14.487116665747704" id="-25487">
		<tag k="name" v="Bjønnberget" />
		<tag k="natural" v="hill" />
		<tag k="place" v="locality" />
		<tag k="ssr:stedsnr" v="241188" />
	</node>
	<node lat="68.6542555575149" lon="14.480666666280262" id="-25490">
		<tag k="fixme" v="consider natural=peak for the most distinct mountains in the district" />
		<tag k="name" v="Røssåsen" />
		<tag k="natural" v="hill" />
		<tag k="place" v="locality" />
		<tag k="ssr:stedsnr" v="241121" />
	</node>
	<node lat="68.62744999967487" lon="14.51796110733693" id="-25496">
		<tag k="fixme" v="consider natural=peak for the most distinct mountains in the district" />
		<tag k="name" v="Geitbergknultran" />
		<tag k="natural" v="hill" />
		<tag k="place" v="locality" />
		<tag k="ssr:stedsnr" v="78519" />
	</node>
	<node lat="68.64043333239997" lon="14.550544444883963" id="-25498">
		<tag k="name" v="Nåldalen" />
		<tag k="natural" v="valley" />
		<tag k="place" v="locality" />
		<tag k="ssr:stedsnr" v="78692" />
	</node>
	<node lat="68.62144999929171" lon="14.528074996490455" id="-25503">
		<tag k="fixme" v="consider natural=peak for the most distinct mountains in the district" />
		<tag k="name" v="Høyberget" />
		<tag k="natural" v="hill" />
		<tag k="place" v="locality" />
		<tag k="ssr:stedsnr" v="79503" />
	</node>
	<node lat="68.75180555138091" lon="14.776805557661804" id="-25504">
		<tag k="name" v="Storhaugen" />
		<tag k="natural" v="hill" />
		<tag k="place" v="locality" />
		<tag k="ssr:stedsnr" v="79560" />
	</node>
	<node lat="68.70152499569755" lon="14.464180563257557" id="-25509">
		<tag k="name" v="Handkleppdalen" />
		<tag k="natural" v="valley" />
		<tag k="place" v="locality" />
		<tag k="ssr:stedsnr" v="82142" />
	</node>
	<node lat="68.69363610870111" lon="14.460069446290866" id="-25510">
		<tag k="name" v="Veltarhaugen" />
		<tag k="natural" v="hill" />
		<tag k="place" v="locality" />
		<tag k="ssr:stedsnr" v="82198" />
	</node>
	<node lat="68.70392221875817" lon="14.4401638915025" id="-25514">
		<tag k="name" v="Finnryggen" />
		<tag k="natural" v="ridge" />
		<tag k="place" v="locality" />
		<tag k="ssr:stedsnr" v="82219" />
	</node>
	<node lat="68.77701110718498" lon="14.471294440161401" id="-25518">
		<tag k="name" v="Stonga" />
		<tag k="place" v="locality" />
		<tag k="ssr:stedsnr" v="96323" />
	</node>
	<node lat="68.60822500129888" lon="14.519441655331791" id="-25519">
		<tag k="name" v="Andersplassen" />
		<tag k="place" v="locality" />
		<tag k="ssr:stedsnr" v="97265" />
	</node>
	<node lat="68.64853888917699" lon="14.445333339352015" id="-25521">
		<tag k="fixme" v="consider natural=peak for the most distinct mountains in the district" />
		<tag k="name" v="Fjærvollåsen" />
		<tag k="natural" v="hill" />
		<tag k="place" v="locality" />
		<tag k="ssr:stedsnr" v="97269" />
	</node>
	<node lat="68.68608888659375" lon="14.487052770913746" id="-25528">
		<tag k="fixme" v="consider natural=peak for the most distinct mountains in the district" />
		<tag k="name" v="Smååsen" />
		<tag k="natural" v="hill" />
		<tag k="place" v="locality" />
		<tag k="ssr:stedsnr" v="97394" />
	</node>
	<node lat="68.67873611287465" lon="14.744830551270608" id="-25530">
		<tag k="name" v="Nordstihumpen" />
		<tag k="natural" v="hill" />
		<tag k="place" v="locality" />
		<tag k="ssr:stedsnr" v="100469" />
	</node>
	<node lat="68.68634166712135" lon="14.73917499722037" id="-25533">
		<tag k="fixme" v="consider natural=peak for the most distinct mountains in the district" />
		<tag k="name" v="Brennfjellet" />
		<tag k="natural" v="hill" />
		<tag k="place" v="locality" />
		<tag k="ssr:stedsnr" v="116467" />
	</node>
	<node lat="68.68900555574918" lon="14.750533335091799" id="-25534">
		<tag k="name" v="Vedhøggan" />
		<tag k="natural" v="slope" />
		<tag k="place" v="locality" />
		<tag k="ssr:stedsnr" v="116470" />
	</node>
	<node lat="68.69127499857916" lon="14.744541661521371" id="-25535">
		<tag k="name" v="Ørnliheia" />
		<tag k="natural" v="hill" />
		<tag k="place" v="locality" />
		<tag k="ssr:stedsnr" v="116473" />
	</node>
	<node lat="68.67595000121665" lon="14.642625004032508" id="-25538">
		<tag k="fixme" v="consider natural=peak for the most distinct mountains in the district" />
		<tag k="name" v="Buskaråsen" />
		<tag k="natural" v="hill" />
		<tag k="place" v="locality" />
		<tag k="ssr:stedsnr" v="116492" />
	</node>
	<node lat="68.77427500012494" lon="14.684288892462629" id="-25539">
		<tag k="name" v="Grindhaugen" />
		<tag k="natural" v="hill" />
		<tag k="place" v="locality" />
		<tag k="ssr:stedsnr" v="116607" />
	</node>
	<node lat="68.71408611200506" lon="14.723841663869523" id="-25541">
		<tag k="name" v="Elveronna" />
		<tag k="natural" v="valley" />
		<tag k="place" v="locality" />
		<tag k="ssr:stedsnr" v="116390" />
	</node>
	<node lat="68.68343055567678" lon="14.740588900074147" id="-25542">
		<tag k="fixme" v="consider natural=peak for the most distinct mountains in the district" />
		<tag k="name" v="Tverråsen" />
		<tag k="natural" v="hill" />
		<tag k="place" v="locality" />
		<tag k="ssr:stedsnr" v="116513" />
	</node>
	<node lat="68.6638138935798" lon="14.613291661599273" id="-25544">
		<tag k="fixme" v="consider natural=peak for the most distinct mountains in the district" />
		<tag k="name" v="Åsen" />
		<tag k="natural" v="hill" />
		<tag k="place" v="locality" />
		<tag k="ssr:stedsnr" v="120168" />
	</node>
	<node lat="68.66778888657159" lon="14.49791666645688" id="-25547">
		<tag k="name" v="Elvhaugen" />
		<tag k="natural" v="hill" />
		<tag k="place" v="locality" />
		<tag k="ssr:stedsnr" v="120185" />
	</node>
	<node lat="68.67515277415836" lon="14.510119442985339" id="-25548">
		<tag k="name" v="Fagerhaugen" />
		<tag k="natural" v="hill" />
		<tag k="place" v="locality" />
		<tag k="ssr:stedsnr" v="120073" />
	</node>
	<node lat="68.70906666563081" lon="14.450197229062749" id="-25554">
		<tag k="name" v="Vikanfjellet" />
		<tag k="natural" v="slope" />
		<tag k="place" v="locality" />
		<tag k="ssr:stedsnr" v="139295" />
	</node>
	<node lat="68.71625833029033" lon="14.49272778421956" id="-25555">
		<tag k="fixme" v="consider natural=peak for the most distinct mountains in the district" />
		<tag k="name" v="Vardetinden" />
		<tag k="natural" v="hill" />
		<tag k="place" v="locality" />
		<tag k="ssr:stedsnr" v="139299" />
	</node>
	<node lat="68.69693055572867" lon="14.401966662332267" id="-25557">
		<tag k="name" v="Nord-Bøle" />
		<tag k="natural" v="slope" />
		<tag k="place" v="locality" />
		<tag k="ssr:stedsnr" v="139511" />
	</node>
	<node lat="68.80706667005518" lon="14.64498610837999" id="-25565">
		<tag k="name" v="Spikarheia" />
		<tag k="natural" v="hill" />
		<tag k="place" v="locality" />
		<tag k="ssr:stedsnr" v="139895" />
	</node>
	<node lat="68.64102777974009" lon="14.444533323560462" id="-25566">
		<tag k="name" v="Tyttebærhaugen" />
		<tag k="natural" v="hill" />
		<tag k="place" v="locality" />
		<tag k="ssr:stedsnr" v="157214" />
	</node>
	<node lat="68.64862221893327" lon="14.438044440944143" id="-25568">
		<tag k="name" v="Fjærvolleitet" />
		<tag k="place" v="locality" />
		<tag k="ssr:stedsnr" v="157223" />
	</node>
	<node lat="68.72628056000386" lon="14.613072220011604" id="-25572">
		<tag k="name" v="Kleiva" />
		<tag k="place" v="locality" />
		<tag k="ssr:stedsnr" v="157261" />
	</node>
	<node lat="68.71552500427774" lon="14.571383324332803" id="-25587">
		<tag k="fixme" v="consider natural=peak for the most distinct mountains in the district" />
		<tag k="name" v="Valberget" />
		<tag k="natural" v="hill" />
		<tag k="place" v="locality" />
		<tag k="ssr:stedsnr" v="260345" />
	</node>
	<node lat="68.74673888487875" lon="14.755725003447958" id="-25590">
		<tag k="name" v="Teisthaugan" />
		<tag k="natural" v="hill" />
		<tag k="place" v="locality" />
		<tag k="ssr:stedsnr" v="260383" />
	</node>
	<node lat="68.74067500004418" lon="14.822488901072369" id="-25591">
		<tag k="fixme" v="consider natural=peak for the most distinct mountains in the district" />
		<tag k="name" v="Ryggedalstinden" />
		<tag k="natural" v="hill" />
		<tag k="place" v="locality" />
		<tag k="ssr:stedsnr" v="260390" />
	</node>
	<node lat="68.73501388515972" lon="14.778205565695263" id="-25592">
		<tag k="fixme" v="consider natural=peak for the most distinct mountains in the district" />
		<tag k="name" v="Norddalsheia" />
		<tag k="natural" v="hill" />
		<tag k="place" v="locality" />
		<tag k="ssr:stedsnr" v="260399" />
	</node>
	<node lat="68.68935278213414" lon="14.386774999303599" id="-25597">
		<tag k="name" v="Sør-Bøle" />
		<tag k="natural" v="slope" />
		<tag k="place" v="locality" />
		<tag k="ssr:stedsnr" v="260521" />
	</node>
	<node lat="68.63936666675478" lon="14.54234166404552" id="-25603">
		<tag k="alt_name" v="Vetten" />
		<tag k="fixme" v="consider natural=peak for the most distinct mountains in the district" />
		<tag k="name" v="Bøvetten" />
		<tag k="natural" v="hill" />
		<tag k="place" v="locality" />
		<tag k="ssr:stedsnr" v="260718" />
	</node>
	<node lat="68.78678333686986" lon="14.669324994431516" id="-25611">
		<tag k="fixme" v="consider natural=peak for the most distinct mountains in the district" />
		<tag k="name" v="Trollet" />
		<tag k="natural" v="hill" />
		<tag k="place" v="locality" />
		<tag k="ssr:stedsnr" v="260984" />
	</node>
	<node lat="68.61466110752383" lon="14.499716657175012" id="-25612">
		<tag k="alt_name" v="Hankamen" />
		<tag k="fixme" v="consider natural=peak for the most distinct mountains in the district" />
		<tag k="name" v="Hankammen" />
		<tag k="natural" v="hill" />
		<tag k="place" v="locality" />
		<tag k="ssr:stedsnr" v="261212" />
	</node>
	<node lat="68.73276111346354" lon="14.679416670814309" id="-25616">
		<tag k="name" v="Nordverhalshaugen" />
		<tag k="natural" v="hill" />
		<tag k="place" v="locality" />
		<tag k="ssr:stedsnr" v="176505" />
	</node>
	<node lat="68.75211944510251" lon="14.733905561133051" id="-25617">
		<tag k="name" v="Båtskaret" />
		<tag k="natural" v="valley" />
		<tag k="place" v="locality" />
		<tag k="ssr:stedsnr" v="176508" />
	</node>
	<node lat="68.67496666578583" lon="14.49307223223358" id="-25623">
		<tag k="name" v="Bukkeskaret" />
		<tag k="natural" v="valley" />
		<tag k="place" v="locality" />
		<tag k="ssr:stedsnr" v="180061" />
	</node>
	<node lat="68.72846111288513" lon="14.47977778301982" id="-25627">
		<tag k="name" v="Meraften" />
		<tag k="natural" v="hill" />
		<tag k="place" v="locality" />
		<tag k="ssr:stedsnr" v="264021" />
	</node>
	<node lat="68.68835555345304" lon="14.40611387623124" id="-25628">
		<tag k="name" v="Ørnnils" />
		<tag k="natural" v="hill" />
		<tag k="place" v="locality" />
		<tag k="ssr:stedsnr" v="264031" />
	</node>
	<node lat="68.68848888952164" lon="14.457836119849054" id="-25629">
		<tag k="name" v="Mella Platen" />
		<tag k="natural" v="valley" />
		<tag k="place" v="locality" />
		<tag k="ssr:stedsnr" v="264036" />
	</node>
	<node lat="68.68081944150823" lon="14.40320277163919" id="-25634">
		<tag k="name" v="Litl-Nonberget" />
		<tag k="natural" v="hill" />
		<tag k="place" v="locality" />
		<tag k="ssr:stedsnr" v="264206" />
	</node>
	<node lat="68.70370555580766" lon="14.450338891308375" id="-25636">
		<tag k="name" v="Danderihaugen" />
		<tag k="natural" v="ridge" />
		<tag k="place" v="locality" />
		<tag k="ssr:stedsnr" v="264224" />
	</node>
	<node lat="68.71602778247099" lon="14.432777770692612" id="-25638">
		<tag k="name" v="Grønnåshaugan" />
		<tag k="natural" v="hill" />
		<tag k="place" v="locality" />
		<tag k="ssr:stedsnr" v="264230" />
	</node>
	<node lat="68.64911944078646" lon="14.555125009368373" id="-25645">
		<tag k="name" v="Heggedalen" />
		<tag k="natural" v="valley" />
		<tag k="place" v="locality" />
		<tag k="ssr:stedsnr" v="199725" />
	</node>
	<node lat="68.68781110759937" lon="14.433888889716014" id="-25647">
		<tag k="name" v="Tronlien" />
		<tag k="natural" v="slope" />
		<tag k="place" v="locality" />
		<tag k="ssr:stedsnr" v="199674" />
	</node>
	<node lat="68.70738888664009" lon="14.670722218780963" id="-25651">
		<tag k="fixme" v="consider natural=peak for the most distinct mountains in the district" />
		<tag k="name" v="Hundnesfjellet" />
		<tag k="natural" v="hill" />
		<tag k="place" v="locality" />
		<tag k="ssr:stedsnr" v="200303" />
	</node>
	<node lat="68.67933888523808" lon="14.417341668670833" id="-25653">
		<tag k="name" v="Salombergan" />
		<tag k="natural" v="hill" />
		<tag k="place" v="locality" />
		<tag k="ssr:stedsnr" v="203055" />
	</node>
	<node lat="68.70060832944274" lon="14.449749993635654" id="-25654">
		<tag k="name" v="Torvhaugbakken" />
		<tag k="natural" v="slope" />
		<tag k="place" v="locality" />
		<tag k="ssr:stedsnr" v="203269" />
	</node>
	<node lat="68.7116805565797" lon="14.427411112076689" id="-25655">
		<tag k="name" v="Jurhalsen" />
		<tag k="natural" v="valley" />
		<tag k="place" v="locality" />
		<tag k="ssr:stedsnr" v="203277" />
	</node>
	<node lat="68.77666110701018" lon="14.45991666336934" id="-25656">
		<tag k="name" v="Badstuhaugen" />
		<tag k="natural" v="hill" />
		<tag k="place" v="locality" />
		<tag k="ssr:stedsnr" v="218273" />
	</node>
	<node lat="68.77490277418707" lon="14.459736119341686" id="-25657">
		<tag k="fixme" v="consider natural=peak for the most distinct mountains in the district" />
		<tag k="name" v="Storvollen" />
		<tag k="natural" v="hill" />
		<tag k="place" v="locality" />
		<tag k="ssr:stedsnr" v="218278" />
	</node>
	<node lat="68.63215555184284" lon="14.4682888760868" id="-25659">
		<tag k="fixme" v="consider natural=peak for the most distinct mountains in the district" />
		<tag k="name" v="Langåsen" />
		<tag k="natural" v="hill" />
		<tag k="place" v="locality" />
		<tag k="ssr:stedsnr" v="218176" />
	</node>
	<node lat="68.6066166703516" lon="14.467494446292932" id="-25663">
		<tag k="name" v="Vårhaugen" />
		<tag k="natural" v="hill" />
		<tag k="place" v="locality" />
		<tag k="ssr:stedsnr" v="218317" />
	</node>
	<node lat="68.67070833260618" lon="14.636872215291133" id="-25669">
		<tag k="fixme" v="consider natural=peak for the most distinct mountains in the district" />
		<tag k="name" v="Barkåsen" />
		<tag k="natural" v="hill" />
		<tag k="place" v="locality" />
		<tag k="ssr:stedsnr" v="237329" />
	</node>
	<node lat="68.6636916643467" lon="14.638930544273112" id="-25670">
		<tag k="name" v="Storoksskaret" />
		<tag k="natural" v="valley" />
		<tag k="place" v="locality" />
		<tag k="ssr:stedsnr" v="237330" />
	</node>
	<node lat="68.70559722271501" lon="14.711511101510041" id="-25672">
		<tag k="name" v="Storhaugen" />
		<tag k="natural" v="hill" />
		<tag k="place" v="locality" />
		<tag k="ssr:stedsnr" v="237391" />
	</node>
	<node lat="68.72831944535194" lon="14.753330558508624" id="-25674">
		<tag k="fixme" v="consider natural=peak for the most distinct mountains in the district" />
		<tag k="name" v="Lofthusan" />
		<tag k="natural" v="hill" />
		<tag k="place" v="locality" />
		<tag k="ssr:stedsnr" v="237613" />
	</node>
	<node lat="68.72228611521047" lon="14.68030555781855" id="-25676">
		<tag k="name" v="Verhalsen" />
		<tag k="natural" v="valley" />
		<tag k="place" v="locality" />
		<tag k="ssr:stedsnr" v="237601" />
	</node>
	<node lat="68.64293333112353" lon="14.52477500480594" id="-25678">
		<tag k="fixme" v="consider natural=peak for the most distinct mountains in the district" />
		<tag k="name" v="Miga" />
		<tag k="natural" v="hill" />
		<tag k="place" v="locality" />
		<tag k="ssr:stedsnr" v="241129" />
	</node>
	<node lat="68.71591944722701" lon="14.451027788045" id="-25684">
		<tag k="name" v="Kjerringstranddalen" />
		<tag k="natural" v="valley" />
		<tag k="place" v="locality" />
		<tag k="ssr:stedsnr" v="260323" />
	</node>
	<node lat="68.74155277434829" lon="14.658552768153722" id="-25685">
		<tag k="fixme" v="consider natural=peak for the most distinct mountains in the district" />
		<tag k="name" v="Ramnåsen" />
		<tag k="natural" v="hill" />
		<tag k="place" v="locality" />
		<tag k="ssr:stedsnr" v="260409" />
	</node>
	<node lat="68.64454999807008" lon="14.614041675635429" id="-25692">
		<tag k="fixme" v="consider natural=peak for the most distinct mountains in the district" />
		<tag k="name" v="Slettåsen" />
		<tag k="natural" v="hill" />
		<tag k="place" v="locality" />
		<tag k="ssr:stedsnr" v="260566" />
	</node>
	<node lat="68.64340277997124" lon="14.59166944458214" id="-25693">
		<tag k="fixme" v="consider natural=peak for the most distinct mountains in the district" />
		<tag k="name" v="Knutåsen" />
		<tag k="natural" v="hill" />
		<tag k="place" v="locality" />
		<tag k="ssr:stedsnr" v="260567" />
	</node>
	<node lat="68.79890278145817" lon="14.535816664073012" id="-25701">
		<tag k="fixme" v="consider natural=peak for the most distinct mountains in the district" />
		<tag k="name" v="Tussen" />
		<tag k="natural" v="hill" />
		<tag k="place" v="locality" />
		<tag k="ssr:stedsnr" v="261902" />
	</node>
	<node lat="68.70345277712318" lon="14.435549989731804" id="-25702">
		<tag k="name" v="Mathaugen" />
		<tag k="natural" v="hill" />
		<tag k="place" v="locality" />
		<tag k="ssr:stedsnr" v="264236" />
	</node>
	<node lat="68.70515000361635" lon="14.432805566187762" id="-25703">
		<tag k="name" v="Tiphaugen" />
		<tag k="natural" v="hill" />
		<tag k="place" v="locality" />
		<tag k="ssr:stedsnr" v="264241" />
	</node>
	<node lat="68.68617778174892" lon="14.421402766723808" id="-25704">
		<tag k="name" v="Flekkan" />
		<tag k="natural" v="slope" />
		<tag k="place" v="locality" />
		<tag k="ssr:stedsnr" v="264190" />
	</node>
	<node lat="68.6952333287464" lon="14.46368334398871" id="-25706">
		<tag k="name" v="Skjåberget" />
		<tag k="place" v="locality" />
		<tag k="ssr:stedsnr" v="264195" />
	</node>
	<node lat="68.67680277389987" lon="14.459383324094336" id="-25707">
		<tag k="name" v="Spengerhaugen" />
		<tag k="natural" v="hill" />
		<tag k="place" v="locality" />
		<tag k="ssr:stedsnr" v="264201" />
	</node>
	<node lat="68.65366666410615" lon="14.441808324827646" id="-25708">
		<tag k="name" v="Vårrakhola" />
		<tag k="natural" v="hill" />
		<tag k="place" v="locality" />
		<tag k="ssr:stedsnr" v="278322" />
	</node>
	<node lat="68.61535555373099" lon="14.476577773373643" id="-25709">
		<tag k="name" v="Festhaugen" />
		<tag k="natural" v="hill" />
		<tag k="place" v="locality" />
		<tag k="ssr:stedsnr" v="278619" />
	</node>
	<node lat="68.61453888992482" lon="14.51618612036263" id="-25710">
		<tag k="name" v="Ådalen" />
		<tag k="natural" v="valley" />
		<tag k="place" v="locality" />
		<tag k="ssr:stedsnr" v="278710" />
	</node>
	<node lat="68.62561944589572" lon="14.574216677893792" id="-25713">
		<tag k="fixme" v="consider natural=peak for the most distinct mountains in the district" />
		<tag k="name" v="Toftåsen" />
		<tag k="natural" v="hill" />
		<tag k="place" v="locality" />
		<tag k="ssr:stedsnr" v="279288" />
	</node>
	<node lat="68.62976944365471" lon="14.617933344894155" id="-25716">
		<tag k="name" v="Ekkerbakken" />
		<tag k="natural" v="slope" />
		<tag k="place" v="locality" />
		<tag k="ssr:stedsnr" v="279310" />
	</node>
	<node lat="68.71403610712834" lon="14.567744435866723" id="-25717">
		<tag k="name" v="Valberghalsen" />
		<tag k="natural" v="valley" />
		<tag k="place" v="locality" />
		<tag k="ssr:stedsnr" v="279508" />
	</node>
	<node lat="68.60830555760788" lon="14.512438886519826" id="-25718">
		<tag k="name" v="Øksdalen" />
		<tag k="natural" v="valley" />
		<tag k="place" v="locality" />
		<tag k="ssr:stedsnr" v="279472" />
	</node>
	<node lat="68.62968611240194" lon="14.476758341005475" id="-25720">
		<tag k="name" v="Storgrotthola" />
		<tag k="place" v="locality" />
		<tag k="ssr:stedsnr" v="279726" />
	</node>
	<node lat="68.64643611576928" lon="14.469574992314802" id="-25725">
		<tag k="fixme" v="consider natural=peak for the most distinct mountains in the district" />
		<tag k="name" v="Tjukkåsen" />
		<tag k="natural" v="hill" />
		<tag k="place" v="locality" />
		<tag k="ssr:stedsnr" v="461283" />
	</node>
	<node lat="68.61002500388821" lon="14.518247227537021" id="-25731">
		<tag k="name" v="Breigata" />
		<tag k="natural" v="slope" />
		<tag k="place" v="locality" />
		<tag k="ssr:stedsnr" v="461493" />
	</node>
	<node lat="68.7271666682733" lon="14.83921666489301" id="-25733">
		<tag k="name" v="Barndalen" />
		<tag k="natural" v="valley" />
		<tag k="place" v="locality" />
		<tag k="ssr:stedsnr" v="295273" />
	</node>
	<node lat="68.71925555917709" lon="14.553691663222798" id="-25736">
		<tag k="name" v="Vasshaugen" />
		<tag k="natural" v="hill" />
		<tag k="place" v="locality" />
		<tag k="ssr:stedsnr" v="298228" />
	</node>
	<node lat="68.7402416649941" lon="14.588811104184817" id="-25741">
		<tag k="name" v="Eidshaugan" />
		<tag k="natural" v="hill" />
		<tag k="place" v="locality" />
		<tag k="ssr:stedsnr" v="464311" />
	</node>
	<node lat="68.64208333361998" lon="14.59811389102841" id="-25743">
		<tag k="fixme" v="consider natural=peak for the most distinct mountains in the district" />
		<tag k="name" v="Langåsen" />
		<tag k="natural" v="hill" />
		<tag k="place" v="locality" />
		<tag k="ssr:stedsnr" v="301214" />
	</node>
	<node lat="68.65058610962144" lon="14.506547218516108" id="-25746">
		<tag k="name" v="Svehaugan" />
		<tag k="natural" v="hill" />
		<tag k="place" v="locality" />
		<tag k="ssr:stedsnr" v="302171" />
	</node>
	<node lat="68.67279167055652" lon="14.531558325212034" id="-25747">
		<tag k="name" v="Rasmushaugen" />
		<tag k="natural" v="hill" />
		<tag k="place" v="locality" />
		<tag k="ssr:stedsnr" v="302208" />
	</node>
	<node lat="68.67018888819659" lon="14.514761120510794" id="-25749">
		<tag k="name" v="Kråkbergan" />
		<tag k="natural" v="hill" />
		<tag k="place" v="locality" />
		<tag k="ssr:stedsnr" v="302222" />
	</node>
	<node lat="68.67431944661757" lon="14.754097226689202" id="-25751">
		<tag k="name" v="Sørstien" />
		<tag k="natural" v="valley" />
		<tag k="place" v="locality" />
		<tag k="ssr:stedsnr" v="464490" />
	</node>
	<node lat="68.6791222261162" lon="14.751580553660396" id="-25752">
		<tag k="fixme" v="consider natural=peak for the most distinct mountains in the district" />
		<tag k="name" v="Resmålstuva" />
		<tag k="natural" v="hill" />
		<tag k="place" v="locality" />
		<tag k="ssr:stedsnr" v="464492" />
	</node>
	<node lat="68.70820833740083" lon="14.779177782722929" id="-25759">
		<tag k="fixme" v="consider natural=peak for the most distinct mountains in the district" />
		<tag k="name" v="Keipen" />
		<tag k="natural" v="hill" />
		<tag k="place" v="locality" />
		<tag k="ssr:stedsnr" v="321291" />
	</node>
	<node lat="68.6335361145237" lon="14.548213890921787" id="-25764">
		<tag k="fixme" v="consider natural=peak for the most distinct mountains in the district" />
		<tag k="name" v="Bjørnberget" />
		<tag k="natural" v="hill" />
		<tag k="place" v="locality" />
		<tag k="ssr:stedsnr" v="321503" />
	</node>
	<node lat="68.75643055645527" lon="14.813311114685499" id="-25765">
		<tag k="name" v="Ryggedalen" />
		<tag k="natural" v="valley" />
		<tag k="place" v="locality" />
		<tag k="ssr:stedsnr" v="321505" />
	</node>
	<node lat="68.7591805593674" lon="14.519674989703466" id="-25766">
		<tag k="alt_name" v="Trehynna" />
		<tag k="fixme" v="consider natural=peak for the most distinct mountains in the district" />
		<tag k="name" v="Trehyrna" />
		<tag k="natural" v="hill" />
		<tag k="place" v="locality" />
		<tag k="ssr:stedsnr" v="321511" />
	</node>
	<node lat="68.68653385171018" lon="14.381275553403778" id="-25770">
		<tag k="name" v="Maglihammaren" />
		<tag k="natural" v="hill" />
		<tag k="place" v="locality" />
		<tag k="ssr:stedsnr" v="324216" />
	</node>
	<node lat="68.68744722294059" lon="14.38336667007371" id="-25771">
		<tag k="name" v="Røhoggan" />
		<tag k="natural" v="ridge" />
		<tag k="place" v="locality" />
		<tag k="ssr:stedsnr" v="324221" />
	</node>
	<node lat="68.69656111347386" lon="14.409902765982936" id="-25772">
		<tag k="name" v="Sendingsaksla" />
		<tag k="natural" v="ridge" />
		<tag k="place" v="locality" />
		<tag k="ssr:stedsnr" v="324223" />
	</node>
	<node lat="68.65709999942439" lon="14.447088891103286" id="-25775">
		<tag k="name" v="Krøykjebærhaugen" />
		<tag k="natural" v="hill" />
		<tag k="place" v="locality" />
		<tag k="ssr:stedsnr" v="339258" />
	</node>
	<node lat="68.64972778026048" lon="14.471836101869231" id="-25776">
		<tag k="name" v="Baklien" />
		<tag k="natural" v="slope" />
		<tag k="place" v="locality" />
		<tag k="ssr:stedsnr" v="339260" />
	</node>
	<node lat="68.59931110756823" lon="14.488663888479742" id="-25781">
		<tag k="name" v="Farvelshaugen" />
		<tag k="natural" v="hill" />
		<tag k="place" v="locality" />
		<tag k="ssr:stedsnr" v="339454" />
	</node>
	<node lat="68.80563611213596" lon="14.54786944374263" id="-25783">
		<tag k="name" v="Karsteinhaugen" />
		<tag k="natural" v="hill" />
		<tag k="place" v="locality" />
		<tag k="ssr:stedsnr" v="339307" />
	</node>
	<node lat="68.65592222095502" lon="14.430105557657734" id="-25786">
		<tag k="name" v="Jære" />
		<tag k="place" v="locality" />
		<tag k="ssr:stedsnr" v="339542" />
	</node>
	<node lat="68.6661222217303" lon="14.466177769493344" id="-25788">
		<tag k="name" v="Sjøhaugen" />
		<tag k="natural" v="hill" />
		<tag k="place" v="locality" />
		<tag k="ssr:stedsnr" v="339547" />
	</node>
	<node lat="68.67618333246674" lon="14.609405567329217" id="-25791">
		<tag k="fixme" v="consider natural=peak for the most distinct mountains in the district" />
		<tag k="name" v="Mellomåsen" />
		<tag k="natural" v="hill" />
		<tag k="place" v="locality" />
		<tag k="ssr:stedsnr" v="358262" />
	</node>
	<node lat="68.66515278132492" lon="14.655802772140882" id="-25792">
		<tag k="name" v="Hestsprengan" />
		<tag k="natural" v="valley" />
		<tag k="place" v="locality" />
		<tag k="ssr:stedsnr" v="358316" />
	</node>
	<node lat="68.71526111004344" lon="14.647550002681786" id="-25793">
		<tag k="name" v="Reinshaugen" />
		<tag k="natural" v="hill" />
		<tag k="place" v="locality" />
		<tag k="ssr:stedsnr" v="358359" />
	</node>
	<node lat="68.70370833462809" lon="14.723872231235488" id="-25795">
		<tag k="fixme" v="consider natural=peak for the most distinct mountains in the district" />
		<tag k="name" v="Søre Kvernfjordås" />
		<tag k="natural" v="hill" />
		<tag k="place" v="locality" />
		<tag k="ssr:stedsnr" v="358365" />
	</node>
	<node lat="68.74795833382272" lon="14.706861120876058" id="-25797">
		<tag k="name" v="Tussberget" />
		<tag k="natural" v="hill" />
		<tag k="place" v="locality" />
		<tag k="ssr:stedsnr" v="358521" />
	</node>
	<node lat="68.73008055271848" lon="14.700055542469386" id="-25798">
		<tag k="name" v="Hestkråa" />
		<tag k="natural" v="slope" />
		<tag k="place" v="locality" />
		<tag k="ssr:stedsnr" v="358557" />
	</node>
	<node lat="68.77765000259008" lon="14.533238892636346" id="-25801">
		<tag k="name" v="Monslia" />
		<tag k="natural" v="slope" />
		<tag k="place" v="locality" />
		<tag k="ssr:stedsnr" v="360311" />
	</node>
	<node lat="68.69623370925774" lon="14.40949043301087" id="-25802">
		<tag k="fixme" v="consider natural=peak for the most distinct mountains in the district" />
		<tag k="name" v="Storfjellet" />
		<tag k="natural" v="hill" />
		<tag k="place" v="locality" />
		<tag k="ssr:stedsnr" v="477654" />
	</node>
	<node lat="68.67251666434576" lon="14.748450006911433" id="-25805">
		<tag k="name" v="Ådalen" />
		<tag k="natural" v="valley" />
		<tag k="place" v="locality" />
		<tag k="ssr:stedsnr" v="479386" />
	</node>
	<node lat="68.66933610723163" lon="14.667022232093844" id="-25806">
		<tag k="name" v="Langneshaugen" />
		<tag k="natural" v="hill" />
		<tag k="place" v="locality" />
		<tag k="ssr:stedsnr" v="479395" />
	</node>
	<node lat="68.70366666636498" lon="14.487266673435935" id="-25823">
		<tag k="name" v="Bukkedalen" />
		<tag k="natural" v="valley" />
		<tag k="place" v="locality" />
		<tag k="ssr:stedsnr" v="382311" />
	</node>
	<node lat="68.79090833763493" lon="14.52820554433155" id="-25835">
		<tag k="name" v="Langryggen" />
		<tag k="natural" v="ridge" />
		<tag k="place" v="locality" />
		<tag k="ssr:stedsnr" v="382962" />
	</node>
	<node lat="68.68577499914059" lon="14.410980556447546" id="-25837">
		<tag k="name" v="Jæverslia" />
		<tag k="natural" v="slope" />
		<tag k="place" v="locality" />
		<tag k="ssr:stedsnr" v="385059" />
	</node>
	<node lat="68.69594166548475" lon="14.473536115675234" id="-25838">
		<tag k="name" v="Storhaugen" />
		<tag k="natural" v="hill" />
		<tag k="place" v="locality" />
		<tag k="ssr:stedsnr" v="385212" />
	</node>
	<node lat="68.69437500055652" lon="14.431286122844234" id="-25839">
		<tag k="name" v="Klefterskaraksla" />
		<tag k="natural" v="ridge" />
		<tag k="place" v="locality" />
		<tag k="ssr:stedsnr" v="385213" />
	</node>
	<node lat="68.68126388499061" lon="14.468499991073278" id="-25841">
		<tag k="name" v="Valhaugen" />
		<tag k="natural" v="hill" />
		<tag k="place" v="locality" />
		<tag k="ssr:stedsnr" v="385218" />
	</node>
	<node lat="68.68805555482946" lon="14.38763610468304" id="-25842">
		<tag k="fixme" v="consider natural=peak for the most distinct mountains in the district" />
		<tag k="name" v="Skårvågsberget" />
		<tag k="natural" v="hill" />
		<tag k="place" v="locality" />
		<tag k="ssr:stedsnr" v="385245" />
	</node>
	<node lat="68.6684361085435" lon="14.580547212004944" id="-25844">
		<tag k="fixme" v="consider natural=peak for the most distinct mountains in the district" />
		<tag k="name" v="Bufjellet" />
		<tag k="natural" v="hill" />
		<tag k="place" v="locality" />
		<tag k="ssr:stedsnr" v="484132" />
	</node>
	<node lat="68.66428889076381" lon="14.51257500497111" id="-25846">
		<tag k="name" v="Ranglifoten" />
		<tag k="place" v="locality" />
		<tag k="ssr:stedsnr" v="484157" />
	</node>
	<node lat="68.80712777938152" lon="14.552127765974026" id="-25851">
		<tag k="name" v="Varden" />
		<tag k="natural" v="hill" />
		<tag k="place" v="locality" />
		<tag k="ssr:stedsnr" v="400307" />
	</node>
	<node lat="68.74802777444398" lon="14.667033326221585" id="-25860">
		<tag k="name" v="Blomhola" />
		<tag k="natural" v="valley" />
		<tag k="place" v="locality" />
		<tag k="ssr:stedsnr" v="419500" />
	</node>
	<node lat="68.77054166989952" lon="14.682733344396334" id="-25862">
		<tag k="name" v="Meafteshaugen" />
		<tag k="natural" v="hill" />
		<tag k="place" v="locality" />
		<tag k="ssr:stedsnr" v="419596" />
	</node>
	<node lat="68.77467777648405" lon="14.688711103474853" id="-25863">
		<tag k="name" v="Delpen" />
		<tag k="natural" v="hill" />
		<tag k="place" v="locality" />
		<tag k="ssr:stedsnr" v="419597" />
	</node>
	<node lat="68.64207499756101" lon="14.621783335962" id="-25866">
		<tag k="name" v="Hulderhammaren" />
		<tag k="natural" v="hill" />
		<tag k="place" v="locality" />
		<tag k="ssr:stedsnr" v="423240" />
	</node>
	<node lat="68.67208611096926" lon="14.519869435761885" id="-25867">
		<tag k="name" v="Fagerhaugnesan" />
		<tag k="natural" v="hill" />
		<tag k="place" v="locality" />
		<tag k="ssr:stedsnr" v="423200" />
	</node>
	<node lat="68.63420555452065" lon="14.492949995487649" id="-25882">
		<tag k="name" v="Bleiklian" />
		<tag k="natural" v="slope" />
		<tag k="place" v="locality" />
		<tag k="ssr:stedsnr" v="442537" />
	</node>
	<node lat="68.67192221785172" lon="14.407877780137246" id="-25884">
		<tag k="fixme" v="consider natural=peak for the most distinct mountains in the district" />
		<tag k="name" v="Søbergsfjellet" />
		<tag k="natural" v="hill" />
		<tag k="place" v="locality" />
		<tag k="ssr:stedsnr" v="443410" />
	</node>
	<node lat="68.80957777375544" lon="14.70192778723478" id="-25888">
		<tag k="fixme" v="consider natural=peak for the most distinct mountains in the district" />
		<tag k="name" v="Bonhammaren" />
		<tag k="natural" v="hill" />
		<tag k="place" v="locality" />
		<tag k="ssr:stedsnr" v="443902" />
	</node>
	<node lat="68.81015833193551" lon="14.660452771475866" id="-25889">
		<tag k="fixme" v="consider natural=peak for the most distinct mountains in the district" />
		<tag k="name" v="Kvanntotinden" />
		<tag k="natural" v="hill" />
		<tag k="place" v="locality" />
		<tag k="ssr:stedsnr" v="443906" />
	</node>
	<node lat="68.80736944543483" lon="14.664166662522934" id="-25890">
		<tag k="name" v="Grovskaret" />
		<tag k="natural" v="valley" />
		<tag k="place" v="locality" />
		<tag k="ssr:stedsnr" v="443907" />
	</node>
	<node lat="68.80452222113186" lon="14.656774988609715" id="-25892">
		<tag k="name" v="Grova" />
		<tag k="natural" v="valley" />
		<tag k="place" v="locality" />
		<tag k="ssr:stedsnr" v="443924" />
	</node>
	<node lat="68.69420832910019" lon="14.448116663477698" id="-25894">
		<tag k="name" v="Trollsalen" />
		<tag k="natural" v="ridge" />
		<tag k="place" v="locality" />
		<tag k="ssr:stedsnr" v="446075" />
	</node>
	<node lat="68.73089721957227" lon="14.600988885743892" id="-25897">
		<tag k="fixme" v="consider natural=peak for the most distinct mountains in the district" />
		<tag k="name" v="Risåsen" />
		<tag k="natural" v="hill" />
		<tag k="place" v="locality" />
		<tag k="ssr:stedsnr" v="460370" />
	</node>
	<node lat="68.61145833152953" lon="14.444699987474554" id="-25899">
		<tag k="name" v="Sankthanshaugen" />
		<tag k="natural" v="hill" />
		<tag k="place" v="locality" />
		<tag k="ssr:stedsnr" v="461308" />
	</node>
	<node lat="68.67482222693334" lon="14.417083326950241" id="-25901">
		<tag k="name" v="Søberghalsen" />
		<tag k="natural" v="valley" />
		<tag k="place" v="locality" />
		<tag k="ssr:stedsnr" v="461506" />
	</node>
	<node lat="68.67288611002215" lon="14.423441662331648" id="-25902">
		<tag k="name" v="Melksletta" />
		<tag k="place" v="locality" />
		<tag k="ssr:stedsnr" v="461541" />
	</node>
	<node lat="68.6686777771545" lon="14.419730554502658" id="-25903">
		<tag k="name" v="Storgropa" />
		<tag k="natural" v="valley" />
		<tag k="place" v="locality" />
		<tag k="ssr:stedsnr" v="461570" />
	</node>
	<node lat="68.66279999673006" lon="14.67684721802886" id="-25905">
		<tag k="name" v="Svartberget" />
		<tag k="natural" v="hill" />
		<tag k="place" v="locality" />
		<tag k="ssr:stedsnr" v="479402" />
	</node>
	<node lat="68.73703611509555" lon="14.703322217659178" id="-25910">
		<tag k="fixme" v="consider natural=peak for the most distinct mountains in the district" />
		<tag k="name" v="Ryggefjellet" />
		<tag k="natural" v="hill" />
		<tag k="place" v="locality" />
		<tag k="ssr:stedsnr" v="480556" />
	</node>
	<node lat="68.76297499939156" lon="14.736891678293535" id="-25911">
		<tag k="name" v="Revhøtten" />
		<tag k="natural" v="slope" />
		<tag k="place" v="locality" />
		<tag k="ssr:stedsnr" v="480576" />
	</node>
	<node lat="68.77321944448722" lon="14.6802694440833" id="-25912">
		<tag k="fixme" v="consider natural=peak for the most distinct mountains in the district" />
		<tag k="name" v="Vedåsen" />
		<tag k="natural" v="hill" />
		<tag k="place" v="locality" />
		<tag k="ssr:stedsnr" v="480609" />
	</node>
	<node lat="68.67019166397495" lon="14.521980546077542" id="-25914">
		<tag k="name" v="Brattbakken" />
		<tag k="natural" v="slope" />
		<tag k="place" v="locality" />
		<tag k="ssr:stedsnr" v="484162" />
	</node>
	<node lat="68.6695638936411" lon="14.510216656100807" id="-25915">
		<tag k="name" v="Geitberget" />
		<tag k="natural" v="hill" />
		<tag k="place" v="locality" />
		<tag k="ssr:stedsnr" v="484180" />
	</node>
	<node lat="68.74836110790001" lon="14.541144438613204" id="-25917">
		<tag k="alt_name" v="Gustadfjellet" />
		<tag k="fixme" v="consider natural=peak for the most distinct mountains in the district" />
		<tag k="name" v="Gustadtuva" />
		<tag k="natural" v="hill" />
		<tag k="place" v="locality" />
		<tag k="ssr:stedsnr" v="502315" />
	</node>
	<node lat="68.75861110759297" lon="14.48465278558922" id="-25924">
		<tag k="name" v="Sandvikhalsen" />
		<tag k="natural" v="valley" />
		<tag k="place" v="locality" />
		<tag k="ssr:stedsnr" v="503513" />
	</node>
	<node lat="68.76005278132898" lon="14.552702769712685" id="-25925">
		<tag k="fixme" v="multiple name tags, choose one and add the other to alt_name; consider natural=peak for the most distinct mountains in the district" />
		<tag k="name" v="Spikerheia;Urtinden" />
		<tag k="natural" v="hill" />
		<tag k="place" v="locality" />
		<tag k="ssr:stedsnr" v="503516" />
	</node>
	<node lat="68.69288610945706" lon="14.767430560457239" id="-25929">
		<tag k="fixme" v="consider natural=peak for the most distinct mountains in the district" />
		<tag k="name" v="Breitinden" />
		<tag k="natural" v="hill" />
		<tag k="place" v="locality" />
		<tag k="ssr:stedsnr" v="503621" />
	</node>
	<node lat="68.80546666993445" lon="14.681741674841936" id="-25931">
		<tag k="name" v="Kremmardalen" />
		<tag k="natural" v="valley" />
		<tag k="place" v="locality" />
		<tag k="ssr:stedsnr" v="503906" />
	</node>
	<node lat="68.72271388519206" lon="14.473702769763172" id="-25935">
		<tag k="name" v="Burnesdalen" />
		<tag k="natural" v="valley" />
		<tag k="place" v="locality" />
		<tag k="ssr:stedsnr" v="506021" />
	</node>
	<node lat="68.69497499778595" lon="14.449786101311714" id="-25936">
		<tag k="name" v="Trollan" />
		<tag k="natural" v="hill" />
		<tag k="place" v="locality" />
		<tag k="ssr:stedsnr" v="506204" />
	</node>
	<node lat="68.70618611411068" lon="14.448330549591176" id="-25939">
		<tag k="name" v="Gullgruba" />
		<tag k="natural" v="valley" />
		<tag k="place" v="locality" />
		<tag k="ssr:stedsnr" v="506263" />
	</node>
	<node lat="68.67935555893915" lon="14.530902773888478" id="-25943">
		<tag k="name" v="Mørkhaugen" />
		<tag k="natural" v="hill" />
		<tag k="place" v="locality" />
		<tag k="ssr:stedsnr" v="521360" />
	</node>
	<node lat="68.67408333472935" lon="14.408452787394785" id="-25949">
		<tag k="name" v="Storsteinlia" />
		<tag k="natural" v="slope" />
		<tag k="place" v="locality" />
		<tag k="ssr:stedsnr" v="521477" />
	</node>
	<node lat="68.67121388455632" lon="14.401261115527472" id="-25950">
		<tag k="name" v="Kalvdalshola" />
		<tag k="natural" v="valley" />
		<tag k="place" v="locality" />
		<tag k="ssr:stedsnr" v="521478" />
	</node>
	<node lat="68.6717444474071" lon="14.427808342592744" id="-25952">
		<tag k="name" v="Purkhaugen" />
		<tag k="natural" v="hill" />
		<tag k="place" v="locality" />
		<tag k="ssr:stedsnr" v="521512" />
	</node>
	<node lat="68.65643055861017" lon="14.434180557112434" id="-25953">
		<tag k="name" v="Rophaugen" />
		<tag k="natural" v="hill" />
		<tag k="place" v="locality" />
		<tag k="ssr:stedsnr" v="521565" />
	</node>
	<node lat="68.61181666510184" lon="14.475480560430984" id="-25954">
		<tag k="name" v="Storhaugen" />
		<tag k="natural" v="hill" />
		<tag k="place" v="locality" />
		<tag k="ssr:stedsnr" v="521572" />
	</node>
	<node lat="68.72091111314478" lon="14.801186100408124" id="-25960">
		<tag k="fixme" v="consider natural=peak for the most distinct mountains in the district" />
		<tag k="name" v="Telthaugen" />
		<tag k="natural" v="hill" />
		<tag k="place" v="locality" />
		<tag k="ssr:stedsnr" v="685270" />
	</node>
	<node lat="68.76142777626174" lon="14.83093889441838" id="-25970">
		<tag k="fixme" v="consider natural=peak for the most distinct mountains in the district" />
		<tag k="name" v="Teistpolltinden" />
		<tag k="natural" v="hill" />
		<tag k="place" v="locality" />
		<tag k="ssr:stedsnr" v="685557" />
	</node>
	<node lat="68.77220555342875" lon="14.536794449146036" id="-25973">
		<tag k="name" v="Nykdalen" />
		<tag k="natural" v="valley" />
		<tag k="place" v="locality" />
		<tag k="ssr:stedsnr" v="685515" />
	</node>
	<node lat="68.63012499645494" lon="14.541105549888762" id="-25977">
		<tag k="name" v="Bødalen" />
		<tag k="natural" v="valley" />
		<tag k="place" v="locality" />
		<tag k="ssr:stedsnr" v="685522" />
	</node>
	<node lat="68.66923333123974" lon="14.603022225649742" id="-25982">
		<tag k="fixme" v="consider natural=peak for the most distinct mountains in the district" />
		<tag k="name" v="Langåsen" />
		<tag k="natural" v="hill" />
		<tag k="place" v="locality" />
		<tag k="ssr:stedsnr" v="685718" />
	</node>
	<node lat="68.79849444892346" lon="14.547347220823482" id="-25992">
		<tag k="name" v="Kalvdalen" />
		<tag k="natural" v="valley" />
		<tag k="place" v="locality" />
		<tag k="ssr:stedsnr" v="685922" />
	</node>
	<node lat="68.65701111518013" lon="14.517436116270462" id="-26000">
		<tag k="fixme" v="consider natural=peak for the most distinct mountains in the district" />
		<tag k="name" v="Høgrevelen" />
		<tag k="natural" v="hill" />
		<tag k="place" v="locality" />
		<tag k="ssr:stedsnr" v="544167" />
	</node>
	<node lat="68.67406944821641" lon="14.52995276793982" id="-26001">
		<tag k="name" v="Tortnebakken" />
		<tag k="natural" v="hill" />
		<tag k="place" v="locality" />
		<tag k="ssr:stedsnr" v="544169" />
	</node>
	<node lat="68.67037777416645" lon="14.48199166600849" id="-26003">
		<tag k="name" v="Småholsnakkan" />
		<tag k="natural" v="ridge" />
		<tag k="place" v="locality" />
		<tag k="ssr:stedsnr" v="544186" />
	</node>
	<node lat="68.70367777965926" lon="14.45786110177006" id="-26005">
		<tag k="fixme" v="consider natural=peak for the most distinct mountains in the district" />
		<tag k="name" v="Handklepptinden" />
		<tag k="natural" v="hill" />
		<tag k="place" v="locality" />
		<tag k="ssr:stedsnr" v="688156" />
	</node>
	<node lat="68.68600277941327" lon="14.428491667201754" id="-26008">
		<tag k="name" v="Egga" />
		<tag k="natural" v="ridge" />
		<tag k="place" v="locality" />
		<tag k="ssr:stedsnr" v="688221" />
	</node>
	<node lat="68.68604999763106" lon="14.381863895538244" id="-26009">
		<tag k="name" v="Maglia" />
		<tag k="natural" v="slope" />
		<tag k="place" v="locality" />
		<tag k="ssr:stedsnr" v="688230" />
	</node>
	<node lat="68.6871583362073" lon="14.381008342677795" id="-26010">
		<tag k="name" v="Nipa" />
		<tag k="natural" v="hill" />
		<tag k="place" v="locality" />
		<tag k="ssr:stedsnr" v="688254" />
	</node>
	<node lat="68.70840278105614" lon="14.429233341259957" id="-26011">
		<tag k="name" v="Jurspranget" />
		<tag k="natural" v="valley" />
		<tag k="place" v="locality" />
		<tag k="ssr:stedsnr" v="688272" />
	</node>
	<node lat="68.70615555593103" lon="14.435180550882272" id="-26013">
		<tag k="name" v="Kjerringheiryggen" />
		<tag k="natural" v="ridge" />
		<tag k="place" v="locality" />
		<tag k="ssr:stedsnr" v="688276" />
	</node>
	<node lat="68.69138055214792" lon="14.432577773737838" id="-26014">
		<tag k="name" v="Bulikråa" />
		<tag k="natural" v="valley" />
		<tag k="place" v="locality" />
		<tag k="ssr:stedsnr" v="567026" />
	</node>
	<node lat="68.68989722101371" lon="14.427888888252713" id="-26016">
		<tag k="name" v="Dalheia" />
		<tag k="natural" v="hill" />
		<tag k="place" v="locality" />
		<tag k="ssr:stedsnr" v="567206" />
	</node>
	<node lat="68.6867888907513" lon="14.382566655878875" id="-26017">
		<tag k="name" v="Magliomnan" />
		<tag k="natural" v="valley" />
		<tag k="place" v="locality" />
		<tag k="ssr:stedsnr" v="567210" />
	</node>
	<node lat="68.68389444155748" lon="14.39035278142829" id="-26019">
		<tag k="name" v="Demliholen" />
		<tag k="natural" v="hill" />
		<tag k="place" v="locality" />
		<tag k="ssr:stedsnr" v="567224" />
	</node>
	<node lat="68.68718888740139" lon="14.3947138819603" id="-26020">
		<tag k="name" v="Breilihammaren" />
		<tag k="natural" v="hill" />
		<tag k="place" v="locality" />
		<tag k="ssr:stedsnr" v="567225" />
	</node>
	<node lat="68.69614444237234" lon="14.39915276775995" id="-26021">
		<tag k="name" v="Bølnakken" />
		<tag k="natural" v="hill" />
		<tag k="place" v="locality" />
		<tag k="ssr:stedsnr" v="567227" />
	</node>
	<node lat="68.6151833351076" lon="14.54440833064657" id="-26024">
		<tag k="name" v="Lombusbakken" />
		<tag k="natural" v="slope" />
		<tag k="place" v="locality" />
		<tag k="ssr:stedsnr" v="581690" />
	</node>
	<node lat="68.62266944728373" lon="14.47235001116641" id="-26026">
		<tag k="name" v="Rishaugen" />
		<tag k="natural" v="hill" />
		<tag k="place" v="locality" />
		<tag k="ssr:stedsnr" v="582190" />
	</node>
	<node lat="68.62821944499885" lon="14.569422215697621" id="-26027">
		<tag k="name" v="Vadmoa" />
		<tag k="place" v="locality" />
		<tag k="ssr:stedsnr" v="582303" />
	</node>
	<node lat="68.6085694414124" lon="14.464155560395529" id="-26029">
		<tag k="name" v="Dampskipshaugen" />
		<tag k="natural" v="hill" />
		<tag k="place" v="locality" />
		<tag k="ssr:stedsnr" v="582342" />
	</node>
	<node lat="68.6548694415462" lon="14.442147233016478" id="-26031">
		<tag k="name" v="Tomskjelbakken" />
		<tag k="natural" v="slope" />
		<tag k="place" v="locality" />
		<tag k="ssr:stedsnr" v="582291" />
	</node>
	<node lat="68.64506388661768" lon="14.461241664002735" id="-26033">
		<tag k="name" v="Geitbrekka" />
		<tag k="natural" v="slope" />
		<tag k="place" v="locality" />
		<tag k="ssr:stedsnr" v="582300" />
	</node>
	<node lat="68.70841388645476" lon="14.739386116368205" id="-26039">
		<tag k="name" v="Blomlian" />
		<tag k="natural" v="slope" />
		<tag k="place" v="locality" />
		<tag k="ssr:stedsnr" v="601368" />
	</node>
	<node lat="68.75666666251382" lon="14.645783340199298" id="-26040">
		<tag k="name" v="Svartbergan" />
		<tag k="natural" v="hill" />
		<tag k="place" v="locality" />
		<tag k="ssr:stedsnr" v="601505" />
	</node>
	<node lat="68.78268055261476" lon="14.498666676880454" id="-26043">
		<tag k="name" v="Raen" />
		<tag k="natural" v="ridge" />
		<tag k="place" v="locality" />
		<tag k="ssr:stedsnr" v="602336" />
	</node>
	<node lat="68.63348611409678" lon="14.478538886073121" id="-26046">
		<tag k="name" v="Tortenbakken" />
		<tag k="natural" v="slope" />
		<tag k="place" v="locality" />
		<tag k="ssr:stedsnr" v="605161" />
	</node>
	<node lat="68.65352221836314" lon="14.498777776498448" id="-26047">
		<tag k="name" v="Revelsrumpa" />
		<tag k="natural" v="slope" />
		<tag k="place" v="locality" />
		<tag k="ssr:stedsnr" v="605167" />
	</node>
	<node lat="68.70239166624431" lon="14.774699990218167" id="-26052">
		<tag k="fixme" v="consider natural=peak for the most distinct mountains in the district" />
		<tag k="name" v="Slettheia" />
		<tag k="natural" v="hill" />
		<tag k="place" v="locality" />
		<tag k="ssr:stedsnr" v="624310" />
	</node>
	<node lat="68.74665000399095" lon="14.792430552564491" id="-26053">
		<tag k="name" v="Tverrdalen" />
		<tag k="natural" v="valley" />
		<tag k="place" v="locality" />
		<tag k="ssr:stedsnr" v="624368" />
	</node>
	<node lat="68.60316666933132" lon="14.489019455652704" id="-26065">
		<tag k="name" v="Spikarheia" />
		<tag k="natural" v="hill" />
		<tag k="place" v="locality" />
		<tag k="ssr:stedsnr" v="703490" />
	</node>
	<node lat="68.61201666742393" lon="14.49080833460377" id="-26066">
		<tag k="fixme" v="multiple name tags, choose one and add the other to alt_name; consider natural=peak for the most distinct mountains in the district" />
		<tag k="name" v="Steineklubben;Klubben" />
		<tag k="natural" v="hill" />
		<tag k="place" v="locality" />
		<tag k="ssr:stedsnr" v="703497" />
	</node>
	<node lat="68.703697224325" lon="14.444222219389898" id="-26069">
		<tag k="name" v="Loftbakkan" />
		<tag k="natural" v="slope" />
		<tag k="place" v="locality" />
		<tag k="ssr:stedsnr" v="627152" />
	</node>
	<node lat="68.68730555734018" lon="14.403913886710926" id="-26071">
		<tag k="name" v="Ryggen" />
		<tag k="natural" v="ridge" />
		<tag k="place" v="locality" />
		<tag k="ssr:stedsnr" v="627046" />
	</node>
	<node lat="68.68820555631655" lon="14.389000003987675" id="-26075">
		<tag k="name" v="Kamsmauan" />
		<tag k="natural" v="ridge" />
		<tag k="place" v="locality" />
		<tag k="ssr:stedsnr" v="627224" />
	</node>
	<node lat="68.68599722122637" lon="14.373727774047307" id="-26076">
		<tag k="name" v="Skarvberget" />
		<tag k="natural" v="hill" />
		<tag k="place" v="locality" />
		<tag k="ssr:stedsnr" v="627252" />
	</node>
	<node lat="68.699950002471" lon="14.453686106710856" id="-26077">
		<tag k="name" v="Munnhaugbergan" />
		<tag k="natural" v="hill" />
		<tag k="place" v="locality" />
		<tag k="ssr:stedsnr" v="627259" />
	</node>
	<node lat="68.60424166806006" lon="14.524905549680701" id="-26079">
		<tag k="name" v="Ørntuva" />
		<tag k="natural" v="hill" />
		<tag k="place" v="locality" />
		<tag k="ssr:stedsnr" v="704239" />
	</node>
	<node lat="68.65125277819655" lon="14.45811387676055" id="-26083">
		<tag k="name" v="Breigota" />
		<tag k="place" v="locality" />
		<tag k="ssr:stedsnr" v="704252" />
	</node>
	<node lat="68.65535833350961" lon="14.44644443570635" id="-26084">
		<tag k="name" v="Melvollen" />
		<tag k="natural" v="hill" />
		<tag k="place" v="locality" />
		<tag k="ssr:stedsnr" v="704253" />
	</node>
	<node lat="68.62318055994588" lon="14.618588888482146" id="-26086">
		<tag k="name" v="Lendingen" />
		<tag k="place" v="locality" />
		<tag k="ssr:stedsnr" v="704284" />
	</node>
	<node lat="68.62993055789792" lon="14.587241666772261" id="-26087">
		<tag k="fixme" v="consider natural=peak for the most distinct mountains in the district" />
		<tag k="name" v="Langåsen" />
		<tag k="natural" v="hill" />
		<tag k="place" v="locality" />
		<tag k="ssr:stedsnr" v="704292" />
	</node>
	<node lat="68.67115555294413" lon="14.430777764974298" id="-26088">
		<tag k="name" v="Steinhaugen" />
		<tag k="natural" v="hill" />
		<tag k="place" v="locality" />
		<tag k="ssr:stedsnr" v="704486" />
	</node>
	<node lat="68.66502500287963" lon="14.403544438982594" id="-26092">
		<tag k="name" v="Hesthaugen" />
		<tag k="natural" v="hill" />
		<tag k="place" v="locality" />
		<tag k="ssr:stedsnr" v="704551" />
	</node>
	<node lat="68.6752972223297" lon="14.457458340238047" id="-26094">
		<tag k="name" v="Sjøhaugen" />
		<tag k="natural" v="hill" />
		<tag k="place" v="locality" />
		<tag k="ssr:stedsnr" v="642517" />
	</node>
	<node lat="68.66937222259995" lon="14.421363887139758" id="-26095">
		<tag k="name" v="Skjåberget" />
		<tag k="natural" v="hill" />
		<tag k="place" v="locality" />
		<tag k="ssr:stedsnr" v="642539" />
	</node>
	<node lat="68.61443611520635" lon="14.486944444264024" id="-26097">
		<tag k="name" v="Mølnhaugen" />
		<tag k="natural" v="hill" />
		<tag k="place" v="locality" />
		<tag k="ssr:stedsnr" v="642574" />
	</node>
	<node lat="68.62274722424715" lon="14.510058333228573" id="-26098">
		<tag k="fixme" v="consider natural=peak for the most distinct mountains in the district" />
		<tag k="name" v="Mæltuva" />
		<tag k="natural" v="hill" />
		<tag k="place" v="locality" />
		<tag k="ssr:stedsnr" v="642712" />
	</node>
	<node lat="68.631105557273" lon="14.513344442007636" id="-26099">
		<tag k="name" v="Bleiklian" />
		<tag k="natural" v="slope" />
		<tag k="place" v="locality" />
		<tag k="ssr:stedsnr" v="642713" />
	</node>
	<node lat="68.63776944738477" lon="14.634108336811444" id="-26103">
		<tag k="name" v="Falkhaugen" />
		<tag k="natural" v="hill" />
		<tag k="place" v="locality" />
		<tag k="ssr:stedsnr" v="661389" />
	</node>
	<node lat="68.67033888721458" lon="14.774316655574804" id="-26104">
		<tag k="fixme" v="consider natural=peak for the most distinct mountains in the district" />
		<tag k="name" v="Nerfjellet" />
		<tag k="natural" v="hill" />
		<tag k="place" v="locality" />
		<tag k="ssr:stedsnr" v="661392" />
	</node>
	<node lat="68.73019722326462" lon="14.521066662384746" id="-26105">
		<tag k="name" v="Mathaugen" />
		<tag k="natural" v="hill" />
		<tag k="place" v="locality" />
		<tag k="ssr:stedsnr" v="661233" />
	</node>
	<node lat="68.68037222364676" lon="14.707374992557474" id="-26106">
		<tag k="fixme" v="consider natural=peak for the most distinct mountains in the district" />
		<tag k="name" v="Nestuva" />
		<tag k="natural" v="hill" />
		<tag k="place" v="locality" />
		<tag k="ssr:stedsnr" v="661438" />
	</node>
	<node lat="68.67739444153146" lon="14.669611101531478" id="-26107">
		<tag k="fixme" v="consider natural=peak for the most distinct mountains in the district" />
		<tag k="name" v="Humpen" />
		<tag k="natural" v="hill" />
		<tag k="place" v="locality" />
		<tag k="ssr:stedsnr" v="661439" />
	</node>
	<node lat="68.79742500112367" lon="14.662058344703182" id="-26110">
		<tag k="name" v="Tverrdalen" />
		<tag k="natural" v="valley" />
		<tag k="place" v="locality" />
		<tag k="ssr:stedsnr" v="662616" />
	</node>
	<node lat="68.76637222588342" lon="14.747538898924823" id="-26111">
		<tag k="name" v="Østerhaugen" />
		<tag k="natural" v="hill" />
		<tag k="place" v="locality" />
		<tag k="ssr:stedsnr" v="662582" />
	</node>
	<node lat="68.70397500256063" lon="14.746305565822905" id="-26116">
		<tag k="name" v="Kvanntorabban" />
		<tag k="place" v="locality" />
		<tag k="ssr:stedsnr" v="685297" />
	</node>
	<node lat="68.76123888773759" lon="14.648308330378626" id="-26125">
		<tag k="name" v="Skatskaran" />
		<tag k="natural" v="valley" />
		<tag k="place" v="locality" />
		<tag k="ssr:stedsnr" v="685547" />
	</node>
	<node lat="68.68498611013568" lon="14.401991659691268" id="-26134">
		<tag k="name" v="Prestberget" />
		<tag k="natural" v="hill" />
		<tag k="place" v="locality" />
		<tag k="ssr:stedsnr" v="688042" />
	</node>
	<node lat="68.72079721914832" lon="14.59956387838843" id="-26139">
		<tag k="name" v="Middagstuva" />
		<tag k="natural" v="hill" />
		<tag k="place" v="locality" />
		<tag k="ssr:stedsnr" v="703338" />
	</node>
	<node lat="68.61310555436167" lon="14.492283337919574" id="-26141">
		<tag k="name" v="Oksskaret" />
		<tag k="natural" v="valley" />
		<tag k="place" v="locality" />
		<tag k="ssr:stedsnr" v="703603" />
	</node>
	<node lat="68.60849999915182" lon="14.496244452057892" id="-26142">
		<tag k="name" v="Middagshaugen" />
		<tag k="natural" v="hill" />
		<tag k="place" v="locality" />
		<tag k="ssr:stedsnr" v="703507" />
	</node>
	<node lat="68.67365555601395" lon="14.411888880185632" id="-26145">
		<tag k="name" v="Nordaksla" />
		<tag k="natural" v="ridge" />
		<tag k="place" v="locality" />
		<tag k="ssr:stedsnr" v="704466" />
	</node>
	<node lat="68.70410833281626" lon="14.658436120697571" id="-26149">
		<tag k="fixme" v="consider natural=peak for the most distinct mountains in the district" />
		<tag k="name" v="Gangfjellet" />
		<tag k="natural" v="hill" />
		<tag k="place" v="locality" />
		<tag k="ssr:stedsnr" v="722387" />
	</node>
	<node lat="68.73782222279904" lon="14.722486099754416" id="-26150">
		<tag k="name" v="Middagshaugen" />
		<tag k="natural" v="hill" />
		<tag k="place" v="locality" />
		<tag k="ssr:stedsnr" v="722607" />
	</node>
	<node lat="68.77399444409868" lon="14.518713880514118" id="-26153">
		<tag k="name" v="Brekka" />
		<tag k="natural" v="slope" />
		<tag k="place" v="locality" />
		<tag k="ssr:stedsnr" v="724317" />
	</node>
	<node lat="68.66922499940821" lon="14.50433611237087" id="-26156">
		<tag k="name" v="Svarttjønnhaugen" />
		<tag k="natural" v="hill" />
		<tag k="place" v="locality" />
		<tag k="ssr:stedsnr" v="727204" />
	</node>
	<node lat="68.66596666966926" lon="14.565544448318837" id="-26157">
		<tag k="name" v="Dalliheia" />
		<tag k="natural" v="hill" />
		<tag k="place" v="locality" />
		<tag k="ssr:stedsnr" v="727175" />
	</node>
	<node lat="68.66779722115814" lon="14.532399998299722" id="-26159">
		<tag k="name" v="Lynghaugdalsrabben" />
		<tag k="natural" v="ridge" />
		<tag k="place" v="locality" />
		<tag k="ssr:stedsnr" v="727181" />
	</node>
	<node lat="68.6900583352408" lon="14.41204998916716" id="-26162">
		<tag k="fixme" v="consider natural=peak for the most distinct mountains in the district" />
		<tag k="name" v="Storfjellet" />
		<tag k="natural" v="hill" />
		<tag k="place" v="locality" />
		<tag k="ssr:stedsnr" v="902649" />
	</node>
	<node lat="68.72888055336004" lon="14.856150004710914" id="-26164">
		<tag k="alt_name" v="Bånna" />
		<tag k="fixme" v="consider natural=peak for the most distinct mountains in the district" />
		<tag k="name" v="Bornan" />
		<tag k="natural" v="hill" />
		<tag k="place" v="locality" />
		<tag k="ssr:stedsnr" v="745278" />
	</node>
	<node lat="68.73142777602243" lon="14.764877784348958" id="-26165">
		<tag k="name" v="Norddalen" />
		<tag k="natural" v="valley" />
		<tag k="place" v="locality" />
		<tag k="ssr:stedsnr" v="745280" />
	</node>
	<node lat="68.7738292426355" lon="14.639973681300091" id="-26170">
		<tag k="fixme" v="multiple name tags, choose one and add the other to alt_name; consider natural=peak for the most distinct mountains in the district" />
		<tag k="name" v="Jennen;Høgjennen" />
		<tag k="natural" v="hill" />
		<tag k="place" v="locality" />
		<tag k="ssr:stedsnr" v="745517" />
	</node>
	<node lat="68.69346944772438" lon="14.739711107704597" id="-26173">
		<tag k="name" v="Haugsnesdalen" />
		<tag k="natural" v="valley" />
		<tag k="place" v="locality" />
		<tag k="ssr:stedsnr" v="745680" />
	</node>
	<node lat="68.68770833719645" lon="14.467724997687803" id="-26184">
		<tag k="name" v="Tofta" />
		<tag k="natural" v="hill" />
		<tag k="place" v="locality" />
		<tag k="ssr:stedsnr" v="749213" />
	</node>
	<node lat="68.6835166707424" lon="14.377322229977517" id="-26186">
		<tag k="name" v="Kollstøhaugen" />
		<tag k="natural" v="hill" />
		<tag k="place" v="locality" />
		<tag k="ssr:stedsnr" v="749230" />
	</node>
	<node lat="68.70365833017482" lon="14.434452778678954" id="-26187">
		<tag k="name" v="Jektberget" />
		<tag k="natural" v="hill" />
		<tag k="place" v="locality" />
		<tag k="ssr:stedsnr" v="749268" />
	</node>
	<node lat="68.74861388450272" lon="14.565441672587077" id="-26189">
		<tag k="name" v="Grimstaddalen" />
		<tag k="natural" v="valley" />
		<tag k="place" v="locality" />
		<tag k="ssr:stedsnr" v="905295" />
	</node>
	<node lat="68.67275833409875" lon="14.741302783718762" id="-26190">
		<tag k="name" v="Nisbakkan" />
		<tag k="natural" v="hill" />
		<tag k="place" v="locality" />
		<tag k="ssr:stedsnr" v="905411" />
	</node>
	<node lat="68.6645027816173" lon="14.666797222388528" id="-26191">
		<tag k="name" v="Storhaugen" />
		<tag k="natural" v="hill" />
		<tag k="place" v="locality" />
		<tag k="ssr:stedsnr" v="905414" />
	</node>
	<node lat="68.7612361130058" lon="14.782152786506925" id="-26195">
		<tag k="name" v="Brennaksla" />
		<tag k="place" v="locality" />
		<tag k="ssr:stedsnr" v="905585" />
	</node>
	<node lat="68.77311944516195" lon="14.497966664537465" id="-26196">
		<tag k="fixme" v="consider natural=peak for the most distinct mountains in the district" />
		<tag k="name" v="Skoltan" />
		<tag k="natural" v="hill" />
		<tag k="place" v="locality" />
		<tag k="ssr:stedsnr" v="906337" />
	</node>
	<node lat="68.62275000301544" lon="14.44415001135567" id="-26197">
		<tag k="name" v="Kattberget" />
		<tag k="natural" v="hill" />
		<tag k="place" v="locality" />
		<tag k="ssr:stedsnr" v="764152" />
	</node>
	<node lat="68.60932777510503" lon="14.522022215684965" id="-26199">
		<tag k="name" v="Melkhaugen" />
		<tag k="natural" v="hill" />
		<tag k="place" v="locality" />
		<tag k="ssr:stedsnr" v="764229" />
	</node>
	<node lat="68.63541666323181" lon="14.44814165464281" id="-26200">
		<tag k="name" v="Storhola" />
		<tag k="place" v="locality" />
		<tag k="ssr:stedsnr" v="764231" />
	</node>
	<node lat="68.64552778084828" lon="14.598397217796006" id="-26208">
		<tag k="name" v="Karikråa" />
		<tag k="natural" v="slope" />
		<tag k="place" v="locality" />
		<tag k="ssr:stedsnr" v="908235" />
	</node>
	<node lat="68.6607055587351" lon="14.591894443255715" id="-26209">
		<tag k="name" v="Olaihaugen" />
		<tag k="natural" v="hill" />
		<tag k="place" v="locality" />
		<tag k="ssr:stedsnr" v="909172" />
	</node>
	<node lat="68.75309166256189" lon="14.643244436478913" id="-26215">
		<tag k="name" v="Sundshammaren" />
		<tag k="natural" v="hill" />
		<tag k="place" v="locality" />
		<tag k="ssr:stedsnr" v="783503" />
	</node>
	<node lat="68.73035278253394" lon="14.645558326192019" id="-26216">
		<tag k="name" v="Varden" />
		<tag k="natural" v="hill" />
		<tag k="place" v="locality" />
		<tag k="ssr:stedsnr" v="783522" />
	</node>
	<node lat="68.7378444460955" lon="14.655619433684702" id="-26218">
		<tag k="fixme" v="consider natural=peak for the most distinct mountains in the district" />
		<tag k="name" v="Ravnåsfjellet" />
		<tag k="natural" v="hill" />
		<tag k="place" v="locality" />
		<tag k="ssr:stedsnr" v="783498" />
	</node>
	<node lat="68.77586666801491" lon="14.496419434295953" id="-26219">
		<tag k="name" v="Hulderhaugen" />
		<tag k="natural" v="hill" />
		<tag k="place" v="locality" />
		<tag k="ssr:stedsnr" v="785317" />
	</node>
	<node lat="68.64233055935198" lon="14.508500008625386" id="-26220">
		<tag k="name" v="Trolldalsbakken" />
		<tag k="natural" v="slope" />
		<tag k="place" v="locality" />
		<tag k="ssr:stedsnr" v="787123" />
	</node>
	<node lat="68.67193055466653" lon="14.49425000974636" id="-26221">
		<tag k="name" v="Brunshaugen" />
		<tag k="natural" v="hill" />
		<tag k="place" v="locality" />
		<tag k="ssr:stedsnr" v="787188" />
	</node>
	<node lat="68.6046666649315" lon="14.510427785156114" id="-26230">
		<tag k="name" v="Oterhaugen" />
		<tag k="natural" v="hill" />
		<tag k="place" v="locality" />
		<tag k="ssr:stedsnr" v="825423" />
	</node>
	<node lat="68.60612499912473" lon="14.503250004572386" id="-26231">
		<tag k="name" v="Mehaugen" />
		<tag k="natural" v="hill" />
		<tag k="place" v="locality" />
		<tag k="ssr:stedsnr" v="825425" />
	</node>
	<node lat="68.63133333230313" lon="14.549538878047986" id="-26233">
		<tag k="name" v="Bjønnberget" />
		<tag k="natural" v="hill" />
		<tag k="place" v="locality" />
		<tag k="ssr:stedsnr" v="825667" />
	</node>
	<node lat="68.62789444390313" lon="14.528586117301892" id="-26234">
		<tag k="name" v="Ramnfloget" />
		<tag k="natural" v="hill" />
		<tag k="place" v="locality" />
		<tag k="ssr:stedsnr" v="825669" />
	</node>
	<node lat="68.69690555196745" lon="14.657066659339197" id="-26237">
		<tag k="fixme" v="consider natural=peak for the most distinct mountains in the district" />
		<tag k="name" v="Lituva" />
		<tag k="natural" v="hill" />
		<tag k="place" v="locality" />
		<tag k="ssr:stedsnr" v="844378" />
	</node>
	<node lat="68.67152777333115" lon="14.734813891240277" id="-26238">
		<tag k="name" v="Kleivan" />
		<tag k="natural" v="slope" />
		<tag k="place" v="locality" />
		<tag k="ssr:stedsnr" v="844386" />
	</node>
	<node lat="68.68433610821178" lon="14.752805548136646" id="-26246">
		<tag k="name" v="Trolldalen" />
		<tag k="natural" v="valley" />
		<tag k="place" v="locality" />
		<tag k="ssr:stedsnr" v="845507" />
	</node>
	<node lat="68.68561667107929" lon="14.739058337142605" id="-26247">
		<tag k="name" v="Brattbakkan" />
		<tag k="natural" v="slope" />
		<tag k="place" v="locality" />
		<tag k="ssr:stedsnr" v="845510" />
	</node>
	<node lat="68.78122777640867" lon="14.504716654939156" id="-26248">
		<tag k="name" v="Finnsundhaugen" />
		<tag k="natural" v="hill" />
		<tag k="place" v="locality" />
		<tag k="ssr:stedsnr" v="846312" />
	</node>
	<node lat="68.77276111230626" lon="14.53970278929506" id="-26250">
		<tag k="name" v="Kålhagan" />
		<tag k="natural" v="slope" />
		<tag k="place" v="locality" />
		<tag k="ssr:stedsnr" v="846322" />
	</node>
	<node lat="68.76533333749389" lon="14.501036113678165" id="-26252">
		<tag k="name" v="Trehynna" />
		<tag k="natural" v="slope" />
		<tag k="place" v="locality" />
		<tag k="ssr:stedsnr" v="846325" />
	</node>
	<node lat="68.72373611179097" lon="14.74794723418859" id="-26260">
		<tag k="name" v="Jørlandsdalen" />
		<tag k="natural" v="valley" />
		<tag k="place" v="locality" />
		<tag k="ssr:stedsnr" v="928243" />
	</node>
	<node lat="68.74603610978217" lon="14.77417499585176" id="-26261">
		<tag k="fixme" v="consider natural=peak for the most distinct mountains in the district" />
		<tag k="name" v="Ørntuvene" />
		<tag k="natural" v="hill" />
		<tag k="place" v="locality" />
		<tag k="ssr:stedsnr" v="928324" />
	</node>
	<node lat="68.6168527774889" lon="14.334166661735514" id="-26263">
		<tag k="fixme" v="consider natural=peak for the most distinct mountains in the district" />
		<tag k="name" v="Naklingstinden" />
		<tag k="natural" v="hill" />
		<tag k="place" v="locality" />
		<tag k="ssr:stedsnr" v="928289" />
	</node>
	<node lat="68.62025833014977" lon="14.508933344587703" id="-26267">
		<tag k="alt_name" v="Steinmælen" />
		<tag k="fixme" v="multiple name tags, choose one and add the other to alt_name; consider natural=peak for the most distinct mountains in the district" />
		<tag k="name" v="Mælen;Steinmelen" />
		<tag k="natural" v="hill" />
		<tag k="place" v="locality" />
		<tag k="ssr:stedsnr" v="928477" />
	</node>
	<node lat="68.62285555368462" lon="14.49053333093752" id="-26268">
		<tag k="fixme" v="multiple name tags, choose one and add the other to alt_name; consider natural=peak for the most distinct mountains in the district" />
		<tag k="name" v="Litl-Struten;Strutan" />
		<tag k="natural" v="hill" />
		<tag k="place" v="locality" />
		<tag k="ssr:stedsnr" v="928478" />
	</node>
	<node lat="68.7691611071296" lon="14.655016677915153" id="-26272">
		<tag k="name" v="Bjønndalen" />
		<tag k="natural" v="valley" />
		<tag k="place" v="locality" />
		<tag k="ssr:stedsnr" v="928519" />
	</node>
	<node lat="68.75478055561413" lon="14.83763334168429" id="-26276">
		<tag k="alt_name" v="Teistpollskardet" />
		<tag k="name" v="Teistpollskaret" />
		<tag k="natural" v="valley" />
		<tag k="place" v="locality" />
		<tag k="ssr:stedsnr" v="928499" />
	</node>
	<node lat="68.76631362359012" lon="14.77927693292944" id="-26277">
		<tag k="fixme" v="consider natural=peak for the most distinct mountains in the district" />
		<tag k="name" v="Skalltuva" />
		<tag k="natural" v="hill" />
		<tag k="place" v="locality" />
		<tag k="ssr:stedsnr" v="928523" />
	</node>
	<node lat="68.6889583304084" lon="14.661763876547585" id="-26278">
		<tag k="name" v="Andbergskaret" />
		<tag k="natural" v="valley" />
		<tag k="place" v="locality" />
		<tag k="ssr:stedsnr" v="928634" />
	</node>
	<node lat="68.6725888911671" lon="14.626444445032858" id="-26280">
		<tag k="fixme" v="consider natural=peak for the most distinct mountains in the district" />
		<tag k="name" v="Ringstadåsen" />
		<tag k="natural" v="hill" />
		<tag k="place" v="locality" />
		<tag k="ssr:stedsnr" v="928598" />
	</node>
	<node lat="68.64788888832447" lon="14.603622212570786" id="-26281">
		<tag k="fixme" v="consider natural=peak for the most distinct mountains in the district" />
		<tag k="name" v="Ørnåsen" />
		<tag k="natural" v="hill" />
		<tag k="place" v="locality" />
		<tag k="ssr:stedsnr" v="928667" />
	</node>
	<node lat="68.82260833311786" lon="14.636399994006322" id="-26285">
		<tag k="fixme" v="consider natural=peak for the most distinct mountains in the district" />
		<tag k="name" v="Staven" />
		<tag k="natural" v="hill" />
		<tag k="place" v="locality" />
		<tag k="ssr:stedsnr" v="928882" />
	</node>
	<node lat="68.8160194417511" lon="14.642041677576579" id="-26286">
		<tag k="name" v="Steinskaret" />
		<tag k="natural" v="valley" />
		<tag k="place" v="locality" />
		<tag k="ssr:stedsnr" v="928885" />
	</node>
	<node lat="68.79929722330665" lon="14.56624722277233" id="-26289">
		<tag k="fixme" v="consider natural=peak for the most distinct mountains in the district" />
		<tag k="name" v="Malnesberget" />
		<tag k="natural" v="hill" />
		<tag k="place" v="locality" />
		<tag k="ssr:stedsnr" v="928932" />
	</node>
	<node lat="68.79847222255549" lon="14.68176389004047" id="-26290">
		<tag k="name" v="Dalskaret" />
		<tag k="natural" v="valley" />
		<tag k="place" v="locality" />
		<tag k="ssr:stedsnr" v="928938" />
	</node>
	<node lat="68.75872777950426" lon="14.804858325250203" id="-26295">
		<tag k="fixme" v="consider natural=peak for the most distinct mountains in the district" />
		<tag k="name" v="Nupen" />
		<tag k="natural" v="hill" />
		<tag k="place" v="locality" />
		<tag k="ssr:stedsnr" v="868530" />
	</node>
	<node lat="68.75526111181823" lon="14.614672233468545" id="-26296">
		<tag k="fixme" v="multiple name tags, choose one and add the other to alt_name; consider natural=peak for the most distinct mountains in the district" />
		<tag k="name" v="Skata;Litlskata" />
		<tag k="natural" v="hill" />
		<tag k="place" v="locality" />
		<tag k="ssr:stedsnr" v="868535" />
	</node>
	<node lat="68.65918055519481" lon="14.643633338095642" id="-26298">
		<tag k="name" v="Kråkberget" />
		<tag k="natural" v="hill" />
		<tag k="place" v="locality" />
		<tag k="ssr:stedsnr" v="868676" />
	</node>
	<node lat="68.81189722209943" lon="14.684883344796189" id="-26301">
		<tag k="name" v="Stavdalen" />
		<tag k="natural" v="valley" />
		<tag k="place" v="locality" />
		<tag k="ssr:stedsnr" v="868886" />
	</node>
	<node lat="68.72890833592001" lon="14.47866666923866" id="-26302">
		<tag k="name" v="Bergan" />
		<tag k="natural" v="hill" />
		<tag k="place" v="locality" />
		<tag k="ssr:stedsnr" v="871020" />
	</node>
	<node lat="68.72599166674605" lon="14.476850001641855" id="-26303">
		<tag k="name" v="Gårdsheia" />
		<tag k="natural" v="slope" />
		<tag k="place" v="locality" />
		<tag k="ssr:stedsnr" v="871023" />
	</node>
	<node lat="68.70655555868203" lon="14.453186119154514" id="-26305">
		<tag k="name" v="Piktinden" />
		<tag k="natural" v="hill" />
		<tag k="place" v="locality" />
		<tag k="ssr:stedsnr" v="871120" />
	</node>
	<node lat="68.68740833662814" lon="14.396994435374767" id="-26306">
		<tag k="name" v="Breilia" />
		<tag k="natural" v="slope" />
		<tag k="place" v="locality" />
		<tag k="ssr:stedsnr" v="871204" />
	</node>
	<node lat="68.6904416675759" lon="14.39762221143901" id="-26307">
		<tag k="name" v="Smalheia" />
		<tag k="natural" v="slope" />
		<tag k="place" v="locality" />
		<tag k="ssr:stedsnr" v="871216" />
	</node>
	<node lat="68.68170000343295" lon="14.405516671910394" id="-26309">
		<tag k="name" v="Jentbergan" />
		<tag k="natural" v="hill" />
		<tag k="place" v="locality" />
		<tag k="ssr:stedsnr" v="931038" />
	</node>
	<node lat="68.69550833407898" lon="14.4332222195311" id="-26310">
		<tag k="name" v="Ramnhamran" />
		<tag k="natural" v="hill" />
		<tag k="place" v="locality" />
		<tag k="ssr:stedsnr" v="931061" />
	</node>
	<node lat="68.70938333582318" lon="14.436488890064902" id="-26312">
		<tag k="name" v="Kjerringheia" />
		<tag k="natural" v="slope" />
		<tag k="place" v="locality" />
		<tag k="ssr:stedsnr" v="931254" />
	</node>
	<node lat="68.68431388668216" lon="14.381183328705701" id="-26314">
		<tag k="name" v="Storstua" />
		<tag k="natural" v="slope" />
		<tag k="place" v="locality" />
		<tag k="ssr:stedsnr" v="931219" />
	</node>
	<node lat="68.62333611330517" lon="14.585888895498645" id="-26320">
		<tag k="name" v="Kattuglhaugen" />
		<tag k="natural" v="hill" />
		<tag k="place" v="locality" />
		<tag k="ssr:stedsnr" v="886303" />
	</node>
	<node lat="68.61598333226658" lon="14.503252778906331" id="-26327">
		<tag k="name" v="Steinbrekka" />
		<tag k="natural" v="slope" />
		<tag k="place" v="locality" />
		<tag k="ssr:stedsnr" v="886547" />
	</node>
	<node lat="68.70073055359647" lon="14.735133335564784" id="-26331">
		<tag k="name" v="Storheia" />
		<tag k="natural" v="hill" />
		<tag k="place" v="locality" />
		<tag k="ssr:stedsnr" v="905380" />
	</node>
	<node lat="68.79894444179699" lon="14.659358331586187" id="-26333">
		<tag k="name" v="Krumhaugen" />
		<tag k="natural" v="hill" />
		<tag k="place" v="locality" />
		<tag k="ssr:stedsnr" v="905603" />
	</node>
	<node lat="68.64514722429533" lon="14.478983331814653" id="-26334">
		<tag k="fixme" v="consider natural=peak for the most distinct mountains in the district" />
		<tag k="name" v="Lysåsen" />
		<tag k="natural" v="hill" />
		<tag k="place" v="locality" />
		<tag k="ssr:stedsnr" v="909150" />
	</node>
	<node lat="68.6378972198531" lon="14.477872222801663" id="-26335">
		<tag k="name" v="Rundhaugan" />
		<tag k="natural" v="hill" />
		<tag k="place" v="locality" />
		<tag k="ssr:stedsnr" v="909153" />
	</node>
	<node lat="68.67005833520757" lon="14.489241674209888" id="-26336">
		<tag k="name" v="Gammelgården" />
		<tag k="natural" v="hill" />
		<tag k="place" v="locality" />
		<tag k="ssr:stedsnr" v="909206" />
	</node>
	<node lat="68.6873277817564" lon="14.409288899268441" id="-26339">
		<tag k="fixme" v="consider natural=peak for the most distinct mountains in the district" />
		<tag k="name" v="Skumlihammaren" />
		<tag k="natural" v="hill" />
		<tag k="place" v="locality" />
		<tag k="ssr:stedsnr" v="928356" />
	</node>
	<node lat="68.76072777776469" lon="14.578933330120478" id="-26350">
		<tag k="fixme" v="multiple name tags, choose one and add the other to alt_name; consider natural=peak for the most distinct mountains in the district" />
		<tag k="name" v="Grubbkollen;Røllikfjellet" />
		<tag k="natural" v="hill" />
		<tag k="place" v="locality" />
		<tag k="ssr:stedsnr" v="928511" />
	</node>
	<node lat="68.6344166647653" lon="14.588069441620345" id="-26353">
		<tag k="fixme" v="consider natural=peak for the most distinct mountains in the district" />
		<tag k="name" v="Jonsåsen" />
		<tag k="natural" v="hill" />
		<tag k="place" v="locality" />
		<tag k="ssr:stedsnr" v="928500" />
	</node>
	<node lat="68.72636944008963" lon="14.479044453429665" id="-26355">
		<tag k="name" v="Humpen" />
		<tag k="natural" v="hill" />
		<tag k="place" v="locality" />
		<tag k="ssr:stedsnr" v="931019" />
	</node>
	<node lat="68.6834666710931" lon="14.413027771850667" id="-26356">
		<tag k="name" v="Bekkeskaret" />
		<tag k="natural" v="valley" />
		<tag k="place" v="locality" />
		<tag k="ssr:stedsnr" v="931052" />
	</node>
	<node lat="68.71006666856931" lon="14.442324989092787" id="-26357">
		<tag k="name" v="Klaven" />
		<tag k="natural" v="valley" />
		<tag k="place" v="locality" />
		<tag k="ssr:stedsnr" v="931145" />
	</node>
	<node lat="68.71451944386808" lon="14.456461121139487" id="-26358">
		<tag k="name" v="Sengern" />
		<tag k="natural" v="slope" />
		<tag k="place" v="locality" />
		<tag k="ssr:stedsnr" v="931146" />
	</node>
	<node lat="68.70611666769553" lon="14.43944444117649" id="-26359">
		<tag k="name" v="Flotryggen" />
		<tag k="natural" v="ridge" />
		<tag k="place" v="locality" />
		<tag k="ssr:stedsnr" v="931152" />
	</node>
	<node lat="68.6857805520664" lon="14.392174991254958" id="-26362">
		<tag k="name" v="Broklia" />
		<tag k="natural" v="slope" />
		<tag k="place" v="locality" />
		<tag k="ssr:stedsnr" v="931247" />
	</node>
	<node lat="68.6242999971077" lon="14.602316671391241" id="-26371">
		<tag k="name" v="Tjønnbogen" />
		<tag k="place" v="locality" />
		<tag k="ssr:stedsnr" v="947313" />
	</node>
	<node lat="68.71301666398891" lon="14.702208325167533" id="-26375">
		<tag k="fixme" v="consider natural=peak for the most distinct mountains in the district" />
		<tag k="name" v="Nordfjellet" />
		<tag k="natural" v="hill" />
		<tag k="place" v="locality" />
		<tag k="ssr:stedsnr" v="965393" />
	</node>
	<node lat="68.71480833592756" lon="14.711911106041537" id="-26376">
		<tag k="name" v="Skaran" />
		<tag k="natural" v="valley" />
		<tag k="place" v="locality" />
		<tag k="ssr:stedsnr" v="965394" />
	</node>
	<node lat="68.71261110985593" lon="14.732697219384898" id="-26377">
		<tag k="fixme" v="consider natural=peak for the most distinct mountains in the district" />
		<tag k="name" v="Øvervassåsan" />
		<tag k="natural" v="hill" />
		<tag k="place" v="locality" />
		<tag k="ssr:stedsnr" v="965399" />
	</node>
	<node lat="68.73299721792102" lon="14.64937222880965" id="-26379">
		<tag k="name" v="Haugen" />
		<tag k="natural" v="hill" />
		<tag k="place" v="locality" />
		<tag k="ssr:stedsnr" v="965539" />
	</node>
	<node lat="68.66834722287533" lon="14.514283341147138" id="-26386">
		<tag k="name" v="Kalvdalen" />
		<tag k="natural" v="valley" />
		<tag k="place" v="locality" />
		<tag k="ssr:stedsnr" v="969194" />
	</node>
	<node lat="68.6664250036531" lon="14.480013887317261" id="-26387">
		<tag k="name" v="Førraen" />
		<tag k="natural" v="hill" />
		<tag k="place" v="locality" />
		<tag k="ssr:stedsnr" v="969197" />
	</node>
	<node lat="68.67160833520775" lon="14.497336101001435" id="-26388">
		<tag k="name" v="Lynghaugen" />
		<tag k="natural" v="hill" />
		<tag k="place" v="locality" />
		<tag k="ssr:stedsnr" v="969202" />
	</node>
	<node lat="68.78285833505812" lon="14.669638888335312" id="-26399">
		<tag k="fixme" v="consider natural=peak for the most distinct mountains in the district" />
		<tag k="name" v="Øyrfjellet" />
		<tag k="natural" v="hill" />
		<tag k="place" v="locality" />
		<tag k="ssr:stedsnr" v="17980" />
	</node>
	<node lat="68.78436666650745" lon="14.652008340285322" id="-26400">
		<tag k="name" v="Svadet" />
		<tag k="natural" v="slope" />
		<tag k="place" v="locality" />
		<tag k="ssr:stedsnr" v="17982" />
	</node>
	<node lat="68.73233888756185" lon="14.789016677482874" id="-26401">
		<tag k="fixme" v="multiple name tags, choose one and add the other to alt_name; consider natural=peak for the most distinct mountains in the district" />
		<tag k="loc_name" v="Nordalstinden" />
		<tag k="name" v="Norddalstinden;Kråkhaugtinden" />
		<tag k="natural" v="hill" />
		<tag k="place" v="locality" />
		<tag k="ssr:stedsnr" v="18225" />
	</node>
	<node lat="68.71678333755088" lon="14.59096943308607" id="-26403">
		<tag k="alt_name" v="Kopphaugan" />
		<tag k="fixme" v="consider natural=peak for the most distinct mountains in the district" />
		<tag k="name" v="Kopphaugen" />
		<tag k="natural" v="hill" />
		<tag k="place" v="locality" />
		<tag k="ssr:stedsnr" v="18256" />
	</node>
	<node lat="68.71376111455979" lon="14.507783325657522" id="-26404">
		<tag k="fixme" v="consider natural=peak for the most distinct mountains in the district" />
		<tag k="name" v="Gjødalstinden" />
		<tag k="natural" v="hill" />
		<tag k="place" v="locality" />
		<tag k="ssr:stedsnr" v="18269" />
	</node>
	<node lat="68.66290277638026" lon="14.61121387729412" id="-26412">
		<tag k="fixme" v="consider natural=peak for the most distinct mountains in the district" />
		<tag k="name" v="Anderstuva" />
		<tag k="natural" v="hill" />
		<tag k="place" v="locality" />
		<tag k="ssr:stedsnr" v="18672" />
	</node>
	<node lat="68.77311666736813" lon="14.519052771324864" id="-26416">
		<tag k="name" v="Brekkhaugen" />
		<tag k="natural" v="hill" />
		<tag k="place" v="locality" />
		<tag k="ssr:stedsnr" v="18491" />
	</node>
	<node lat="68.82007777549522" lon="14.659352765483444" id="-26421">
		<tag k="fixme" v="consider natural=peak for the most distinct mountains in the district" />
		<tag k="name" v="Maritinden" />
		<tag k="natural" v="hill" />
		<tag k="place" v="locality" />
		<tag k="ssr:stedsnr" v="18857" />
	</node>
	<node lat="68.82287222099237" lon="14.6675611007517" id="-26422">
		<tag k="name" v="Trolldalen" />
		<tag k="natural" v="valley" />
		<tag k="place" v="locality" />
		<tag k="ssr:stedsnr" v="18859" />
	</node>
	<node lat="68.80637777992794" lon="14.669611107267382" id="-26425">
		<tag k="fixme" v="consider natural=peak for the most distinct mountains in the district" />
		<tag k="name" v="Reinstiklan" />
		<tag k="natural" v="hill" />
		<tag k="old_name" v="Reinstikollan" />
		<tag k="place" v="locality" />
		<tag k="ssr:stedsnr" v="18889" />
	</node>
	<node lat="68.67677777934465" lon="14.422008344260256" id="-26430">
		<tag k="name" v="Tipnadden" />
		<tag k="natural" v="hill" />
		<tag k="place" v="locality" />
		<tag k="ssr:stedsnr" v="21032" />
	</node>
	<node lat="68.68111111098898" lon="14.416302770137957" id="-26431">
		<tag k="name" v="Tiphaugen" />
		<tag k="natural" v="hill" />
		<tag k="place" v="locality" />
		<tag k="ssr:stedsnr" v="21053" />
	</node>
	<node lat="68.68626110801733" lon="14.41071110958327" id="-26432">
		<tag k="name" v="Jæverslihammaren" />
		<tag k="natural" v="hill" />
		<tag k="place" v="locality" />
		<tag k="ssr:stedsnr" v="21055" />
	</node>
	<node lat="68.689252781833" lon="14.458938900295063" id="-26434">
		<tag k="name" v="Litlplata" />
		<tag k="natural" v="hill" />
		<tag k="place" v="locality" />
		<tag k="ssr:stedsnr" v="21064" />
	</node>
	<node lat="68.6856749971778" lon="14.389386103945805" id="-26437">
		<tag k="name" v="Pølshammaren" />
		<tag k="natural" v="ridge" />
		<tag k="place" v="locality" />
		<tag k="ssr:stedsnr" v="21251" />
	</node>
	<node lat="68.70215833348074" lon="14.4398472279831" id="-26439">
		<tag k="name" v="Hågen" />
		<tag k="natural" v="hill" />
		<tag k="place" v="locality" />
		<tag k="ssr:stedsnr" v="21263" />
	</node>
	<node lat="68.69821388553976" lon="14.418299999123594" id="-26440">
		<tag k="name" v="Sendingsnakken" />
		<tag k="natural" v="ridge" />
		<tag k="place" v="locality" />
		<tag k="ssr:stedsnr" v="21276" />
	</node>
	<node lat="68.71577499679746" lon="14.438047211401084" id="-26442">
		<tag k="fixme" v="consider natural=peak for the most distinct mountains in the district" />
		<tag k="name" v="Grønnåsen" />
		<tag k="natural" v="hill" />
		<tag k="place" v="locality" />
		<tag k="ssr:stedsnr" v="21281" />
	</node>
	<node lat="68.64876944130178" lon="14.46107777143698" id="-26447">
		<tag k="name" v="Burlshaugen" />
		<tag k="natural" v="hill" />
		<tag k="place" v="locality" />
		<tag k="ssr:stedsnr" v="36234" />
	</node>
	<node lat="68.65726944173942" lon="14.440880549169739" id="-26448">
		<tag k="name" v="Jarberget" />
		<tag k="natural" v="hill" />
		<tag k="place" v="locality" />
		<tag k="ssr:stedsnr" v="36235" />
	</node>
	<node lat="68.64478333634321" lon="14.422269452980286" id="-26450">
		<tag k="name" v="Ørnbergan" />
		<tag k="natural" v="hill" />
		<tag k="place" v="locality" />
		<tag k="ssr:stedsnr" v="36257" />
	</node>
	<node lat="68.67778333359321" lon="14.543455560683817" id="-26451">
		<tag k="name" v="Varhaugen" />
		<tag k="natural" v="hill" />
		<tag k="place" v="locality" />
		<tag k="ssr:stedsnr" v="36329" />
	</node>
	<node lat="68.60659721854277" lon="14.502133327048442" id="-26456">
		<tag k="name" v="Varghaugen" />
		<tag k="natural" v="hill" />
		<tag k="place" v="locality" />
		<tag k="ssr:stedsnr" v="36432" />
	</node>
	<node lat="68.6094472233173" lon="14.504183343232976" id="-26457">
		<tag k="name" v="Fagerbakken" />
		<tag k="natural" v="slope" />
		<tag k="place" v="locality" />
		<tag k="ssr:stedsnr" v="36434" />
	</node>
	<node lat="68.6106972182121" lon="14.530297211853545" id="-26458">
		<tag k="name" v="Tøhaugen" />
		<tag k="natural" v="hill" />
		<tag k="place" v="locality" />
		<tag k="ssr:stedsnr" v="36439" />
	</node>
	<node lat="68.6128388855749" lon="14.533202772633146" id="-26464">
		<tag k="name" v="Kjerkhaugen" />
		<tag k="natural" v="hill" />
		<tag k="place" v="locality" />
		<tag k="ssr:stedsnr" v="36658" />
	</node>
	<node lat="68.66508333174164" lon="14.652455552170037" id="-26467">
		<tag k="name" v="Litlåsskaret" />
		<tag k="natural" v="valley" />
		<tag k="place" v="locality" />
		<tag k="ssr:stedsnr" v="55315" />
	</node>
	<node lat="68.6677305556607" lon="14.65812777868754" id="-26469">
		<tag k="fixme" v="consider natural=peak for the most distinct mountains in the district" />
		<tag k="name" v="Kvitåsen" />
		<tag k="natural" v="hill" />
		<tag k="place" v="locality" />
		<tag k="ssr:stedsnr" v="55383" />
	</node>
	<node lat="68.7602361074013" lon="14.746049987633924" id="-26474">
		<tag k="name" v="Ramnfloget" />
		<tag k="natural" v="hill" />
		<tag k="place" v="locality" />
		<tag k="ssr:stedsnr" v="55538" />
	</node>
	<node lat="68.77163332989112" lon="14.775519453575962" id="-26475">
		<tag k="fixme" v="consider natural=peak for the most distinct mountains in the district" />
		<tag k="name" v="Tridalstindan" />
		<tag k="natural" v="hill" />
		<tag k="place" v="locality" />
		<tag k="ssr:stedsnr" v="55540" />
	</node>
	<node lat="68.77452500054883" lon="14.758683323834507" id="-26476">
		<tag k="name" v="Brattberget" />
		<tag k="natural" v="hill" />
		<tag k="place" v="locality" />
		<tag k="ssr:stedsnr" v="55542" />
	</node>
	<node lat="68.64795833212551" lon="14.580263879736309" id="-26481">
		<tag k="name" v="Skavåsmoa" />
		<tag k="place" v="locality" />
		<tag k="ssr:stedsnr" v="59230" />
	</node>
	<node lat="68.73249167103069" lon="14.55661388530874" id="-26484">
		<tag k="fixme" v="consider natural=peak for the most distinct mountains in the district" />
		<tag k="name" v="Vågsberget" />
		<tag k="natural" v="hill" />
		<tag k="place" v="locality" />
		<tag k="ssr:stedsnr" v="78287" />
	</node>
	<node lat="68.69265555179055" lon="14.435777785328929" id="-26501">
		<tag k="fixme" v="consider natural=peak for the most distinct mountains in the district" />
		<tag k="name" v="Tverrfjellet" />
		<tag k="natural" v="hill" />
		<tag k="place" v="locality" />
		<tag k="ssr:stedsnr" v="78691" />
	</node>
	<node lat="68.77943333471762" lon="14.678991669538002" id="-26502">
		<tag k="name" v="Hesthaugen" />
		<tag k="natural" v="hill" />
		<tag k="place" v="locality" />
		<tag k="ssr:stedsnr" v="78979" />
	</node>
	<node lat="68.64230555248325" lon="14.526194434598727" id="-26504">
		<tag k="name" v="Trolldalen" />
		<tag k="natural" v="valley" />
		<tag k="place" v="locality" />
		<tag k="ssr:stedsnr" v="79212" />
	</node>
	<node lat="68.62096388788055" lon="14.614016670103197" id="-26506">
		<tag k="fixme" v="consider natural=peak for the most distinct mountains in the district" />
		<tag k="name" v="Varden" />
		<tag k="natural" v="hill" />
		<tag k="place" v="locality" />
		<tag k="ssr:stedsnr" v="79512" />
	</node>
	<node lat="68.65522222485288" lon="14.509988898737204" id="-26508">
		<tag k="alt_name" v="Revelen" />
		<tag k="name" v="Revelten" />
		<tag k="natural" v="slope" />
		<tag k="place" v="locality" />
		<tag k="ssr:stedsnr" v="79677" />
	</node>
	<node lat="68.79040833386638" lon="14.563941677045468" id="-26510">
		<tag k="name" v="Røsshagdalen" />
		<tag k="natural" v="valley" />
		<tag k="place" v="locality" />
		<tag k="ssr:stedsnr" v="79958" />
	</node>
	<node lat="68.80258333084024" lon="14.679161116725249" id="-26512">
		<tag k="fixme" v="consider natural=peak for the most distinct mountains in the district" />
		<tag k="name" v="Rismålstinden" />
		<tag k="natural" v="hill" />
		<tag k="place" v="locality" />
		<tag k="ssr:stedsnr" v="79924" />
	</node>
	<node lat="68.6877805591555" lon="14.402436105034319" id="-26513">
		<tag k="name" v="Slåttlia" />
		<tag k="natural" v="slope" />
		<tag k="place" v="locality" />
		<tag k="ssr:stedsnr" v="82037" />
	</node>
	<node lat="68.69471111501497" lon="14.457761101262538" id="-26514">
		<tag k="name" v="Skjellhammaren" />
		<tag k="natural" v="hill" />
		<tag k="place" v="locality" />
		<tag k="ssr:stedsnr" v="82044" />
	</node>
	<node lat="68.67953056004735" lon="14.43822221111203" id="-26516">
		<tag k="name" v="Reidarhaugen" />
		<tag k="natural" v="hill" />
		<tag k="place" v="locality" />
		<tag k="ssr:stedsnr" v="82059" />
	</node>
	<node lat="68.69953055732397" lon="14.458372230676163" id="-26518">
		<tag k="name" v="Kleivhaugen" />
		<tag k="natural" v="hill" />
		<tag k="place" v="locality" />
		<tag k="ssr:stedsnr" v="82230" />
	</node>
	<node lat="68.61193333106118" lon="14.469286112440926" id="-26524">
		<tag k="name" v="Mehaugen" />
		<tag k="natural" v="hill" />
		<tag k="place" v="locality" />
		<tag k="ssr:stedsnr" v="97166" />
	</node>
	<node lat="68.61593888982956" lon="14.44861944894448" id="-26525">
		<tag k="name" v="Storhaugen" />
		<tag k="natural" v="hill" />
		<tag k="place" v="locality" />
		<tag k="ssr:stedsnr" v="97173" />
	</node>
	<node lat="68.67006666630157" lon="14.474608341260286" id="-26529">
		<tag k="fixme" v="consider natural=peak for the most distinct mountains in the district" />
		<tag k="name" v="Småholsnakkan" />
		<tag k="natural" v="hill" />
		<tag k="place" v="locality" />
		<tag k="ssr:stedsnr" v="97537" />
	</node>
	<node lat="68.67756944260861" lon="14.585772218158636" id="-26534">
		<tag k="name" v="Veanova" />
		<tag k="natural" v="slope" />
		<tag k="place" v="locality" />
		<tag k="ssr:stedsnr" v="116164" />
	</node>
	<node lat="68.6901777733416" lon="14.492630557548457" id="-26537">
		<tag k="fixme" v="consider natural=peak for the most distinct mountains in the district" />
		<tag k="name" v="Nilsåsen" />
		<tag k="natural" v="hill" />
		<tag k="place" v="locality" />
		<tag k="ssr:stedsnr" v="116196" />
	</node>
	<node lat="68.7487833336799" lon="14.496783335103403" id="-26539">
		<tag k="name" v="Lysberhaugen" />
		<tag k="natural" v="hill" />
		<tag k="place" v="locality" />
		<tag k="ssr:stedsnr" v="116266" />
	</node>
	<node lat="68.66854167054747" lon="14.758891655896313" id="-26540">
		<tag k="name" v="Hamran" />
		<tag k="natural" v="hill" />
		<tag k="place" v="locality" />
		<tag k="ssr:stedsnr" v="116429" />
	</node>
	<node lat="68.68521111203528" lon="14.76221110952859" id="-26541">
		<tag k="name" v="Breitindhalsen" />
		<tag k="natural" v="valley" />
		<tag k="place" v="locality" />
		<tag k="ssr:stedsnr" v="116464" />
	</node>
	<node lat="68.75412777614793" lon="14.751436109510527" id="-26543">
		<tag k="name" v="Borken" />
		<tag k="natural" v="slope" />
		<tag k="place" v="locality" />
		<tag k="ssr:stedsnr" v="116560" />
	</node>
	<node lat="68.75252222020828" lon="14.727125007376118" id="-26544">
		<tag k="name" v="Elvdalen" />
		<tag k="natural" v="valley" />
		<tag k="place" v="locality" />
		<tag k="ssr:stedsnr" v="116561" />
	</node>
	<node lat="68.78159166638575" lon="14.525455559261825" id="-26547">
		<tag k="name" v="Gauklia" />
		<tag k="natural" v="slope" />
		<tag k="place" v="locality" />
		<tag k="ssr:stedsnr" v="117366" />
	</node>
	<node lat="68.65291944168193" lon="14.4774722237435" id="-26548">
		<tag k="name" v="Brekka" />
		<tag k="natural" v="slope" />
		<tag k="place" v="locality" />
		<tag k="ssr:stedsnr" v="120136" />
	</node>
	<node lat="68.74346944546346" lon="14.709883324200819" id="-26553">
		<tag k="fixme" v="consider natural=peak for the most distinct mountains in the district" />
		<tag k="name" v="Ryggefjellet" />
		<tag k="natural" v="hill" />
		<tag k="place" v="locality" />
		<tag k="ssr:stedsnr" v="138389" />
	</node>
	<node lat="68.63708055749731" lon="14.614833329474164" id="-26557">
		<tag k="fixme" v="consider natural=peak for the most distinct mountains in the district" />
		<tag k="loc_name" v="Ramnbergåsen" />
		<tag k="name" v="Rambergåsen" />
		<tag k="natural" v="hill" />
		<tag k="place" v="locality" />
		<tag k="ssr:stedsnr" v="138552" />
	</node>
	<node lat="68.64095833036176" lon="14.487444439906875" id="-26558">
		<tag k="fixme" v="consider natural=peak for the most distinct mountains in the district" />
		<tag k="name" v="Einåsen" />
		<tag k="natural" v="hill" />
		<tag k="place" v="locality" />
		<tag k="ssr:stedsnr" v="138708" />
	</node>
	<node lat="68.64991944511728" lon="14.524872216149733" id="-26562">
		<tag k="name" v="Olsbergkråa" />
		<tag k="place" v="locality" />
		<tag k="ssr:stedsnr" v="138729" />
	</node>
	<node lat="68.71199722107585" lon="14.603472221410135" id="-26567">
		<tag k="alt_name" v="Kirkehaugan" />
		<tag k="fixme" v="consider natural=peak for the most distinct mountains in the district" />
		<tag k="name" v="Kjerkhaugen" />
		<tag k="natural" v="hill" />
		<tag k="place" v="locality" />
		<tag k="ssr:stedsnr" v="139287" />
	</node>
	<node lat="68.68704166524236" lon="14.383075009044866" id="-26573">
		<tag k="fixme" v="consider natural=peak for the most distinct mountains in the district" />
		<tag k="name" v="Storhammaren" />
		<tag k="natural" v="hill" />
		<tag k="place" v="locality" />
		<tag k="ssr:stedsnr" v="139386" />
	</node>
	<node lat="68.76287221786248" lon="14.56382222396489" id="-26575">
		<tag k="fixme" v="consider natural=peak for the most distinct mountains in the district" />
		<tag k="name" v="Keipen" />
		<tag k="natural" v="hill" />
		<tag k="place" v="locality" />
		<tag k="ssr:stedsnr" v="139525" />
	</node>
	<node lat="68.65347777988883" lon="14.540569434572948" id="-26579">
		<tag k="fixme" v="consider natural=peak for the most distinct mountains in the district" />
		<tag k="name" v="Spikarheia" />
		<tag k="natural" v="hill" />
		<tag k="place" v="locality" />
		<tag k="ssr:stedsnr" v="139685" />
	</node>
	<node lat="68.6852805598644" lon="14.408908327318208" id="-26590">
		<tag k="name" v="Huslia" />
		<tag k="natural" v="slope" />
		<tag k="place" v="locality" />
		<tag k="ssr:stedsnr" v="142063" />
	</node>
	<node lat="68.68909722173134" lon="14.38204721543653" id="-26591">
		<tag k="name" v="Jurskrevet" />
		<tag k="natural" v="valley" />
		<tag k="place" v="locality" />
		<tag k="ssr:stedsnr" v="142233" />
	</node>
	<node lat="68.69765555764097" lon="14.409336112450307" id="-26595">
		<tag k="name" v="Brattberget" />
		<tag k="natural" v="hill" />
		<tag k="place" v="locality" />
		<tag k="ssr:stedsnr" v="142225" />
	</node>
	<node lat="68.67055277952619" lon="14.40738889754611" id="-26597">
		<tag k="fixme" v="consider natural=peak for the most distinct mountains in the district" />
		<tag k="name" v="Helkjølen" />
		<tag k="natural" v="hill" />
		<tag k="place" v="locality" />
		<tag k="ssr:stedsnr" v="157461" />
	</node>
	<node lat="68.66443611000454" lon="14.425408339619601" id="-26599">
		<tag k="name" v="Middagshaugen" />
		<tag k="natural" v="hill" />
		<tag k="place" v="locality" />
		<tag k="ssr:stedsnr" v="157537" />
	</node>
	<node lat="68.65773611018861" lon="14.438455559892034" id="-26600">
		<tag k="name" v="Tiphaugen" />
		<tag k="natural" v="hill" />
		<tag k="place" v="locality" />
		<tag k="ssr:stedsnr" v="157229" />
	</node>
	<node lat="68.64545277658159" lon="14.46795001120726" id="-26601">
		<tag k="name" v="Høgsetet" />
		<tag k="natural" v="hill" />
		<tag k="place" v="locality" />
		<tag k="ssr:stedsnr" v="157233" />
	</node>
	<node lat="68.64387222153884" lon="14.470102776207176" id="-26602">
		<tag k="name" v="Fagerbakkhola" />
		<tag k="natural" v="hill" />
		<tag k="place" v="locality" />
		<tag k="ssr:stedsnr" v="157236" />
	</node>
	<node lat="68.77436944760284" lon="14.455663887254536" id="-26603">
		<tag k="name" v="Kvalhovdhaugen" />
		<tag k="natural" v="hill" />
		<tag k="place" v="locality" />
		<tag k="ssr:stedsnr" v="157244" />
	</node>
	<node lat="68.60374166569527" lon="14.497405550076998" id="-26605">
		<tag k="name" v="Storhaugen" />
		<tag k="natural" v="hill" />
		<tag k="place" v="locality" />
		<tag k="ssr:stedsnr" v="157427" />
	</node>
	<node lat="68.60715833622191" lon="14.495044449125759" id="-26606">
		<tag k="name" v="Vikahaugen" />
		<tag k="natural" v="hill" />
		<tag k="place" v="locality" />
		<tag k="ssr:stedsnr" v="157431" />
	</node>
	<node lat="68.73659444270746" lon="14.590211111111921" id="-26609">
		<tag k="name" v="Grindbakken" />
		<tag k="natural" v="slope" />
		<tag k="place" v="locality" />
		<tag k="ssr:stedsnr" v="157293" />
	</node>
	<node lat="68.62535278109661" lon="14.533727772617691" id="-26611">
		<tag k="name" v="Vassbakken" />
		<tag k="natural" v="slope" />
		<tag k="place" v="locality" />
		<tag k="ssr:stedsnr" v="157664" />
	</node>
	<node lat="68.68937499590399" lon="14.672788880962933" id="-26616">
		<tag k="fixme" v="consider natural=peak for the most distinct mountains in the district" />
		<tag k="name" v="Tituva" />
		<tag k="natural" v="hill" />
		<tag k="place" v="locality" />
		<tag k="ssr:stedsnr" v="176363" />
	</node>
	<node lat="68.69154444368628" lon="14.677169445786294" id="-26617">
		<tag k="name" v="Andberget" />
		<tag k="natural" v="hill" />
		<tag k="place" v="locality" />
		<tag k="ssr:stedsnr" v="176364" />
	</node>
	<node lat="68.67057778188497" lon="14.757783334908316" id="-26618">
		<tag k="fixme" v="consider natural=peak for the most distinct mountains in the district" />
		<tag k="name" v="Kollen" />
		<tag k="natural" v="hill" />
		<tag k="place" v="locality" />
		<tag k="ssr:stedsnr" v="176387" />
	</node>
	<node lat="68.74151388929873" lon="14.748363892496261" id="-26621">
		<tag k="name" v="Holkishaugen" />
		<tag k="natural" v="hill" />
		<tag k="place" v="locality" />
		<tag k="ssr:stedsnr" v="176522" />
	</node>
	<node lat="68.76909166925006" lon="14.748202788165939" id="-26622">
		<tag k="name" v="Stakkbukthågen" />
		<tag k="natural" v="hill" />
		<tag k="place" v="locality" />
		<tag k="ssr:stedsnr" v="176526" />
	</node>
	<node lat="68.72540833761306" lon="14.645266658451808" id="-26623">
		<tag k="name" v="Reinshaugen" />
		<tag k="natural" v="hill" />
		<tag k="place" v="locality" />
		<tag k="ssr:stedsnr" v="176551" />
	</node>
	<node lat="68.69252499748798" lon="14.723416663150077" id="-26624">
		<tag k="fixme" v="consider natural=peak for the most distinct mountains in the district" />
		<tag k="name" v="Kobbåsen" />
		<tag k="natural" v="hill" />
		<tag k="place" v="locality" />
		<tag k="ssr:stedsnr" v="177498" />
	</node>
	<node lat="68.77021666961015" lon="14.487763885606153" id="-26625">
		<tag k="name" v="Mershalsen" />
		<tag k="natural" v="valley" />
		<tag k="place" v="locality" />
		<tag k="ssr:stedsnr" v="178321" />
	</node>
	<node lat="68.78246666467926" lon="14.50850278689266" id="-26626">
		<tag k="name" v="Steinhaugen" />
		<tag k="natural" v="hill" />
		<tag k="place" v="locality" />
		<tag k="ssr:stedsnr" v="178322" />
	</node>
	<node lat="68.61313889183297" lon="14.332347233530731" id="-26629">
		<tag k="fixme" v="consider natural=peak for the most distinct mountains in the district" />
		<tag k="name" v="Lågfjellet" />
		<tag k="natural" v="hill" />
		<tag k="place" v="locality" />
		<tag k="ssr:stedsnr" v="199331" />
	</node>
	<node lat="68.778319444286" lon="14.522408329988606" id="-26636">
		<tag k="name" v="Svehaugen" />
		<tag k="natural" v="hill" />
		<tag k="place" v="locality" />
		<tag k="ssr:stedsnr" v="199526" />
	</node>
	<node lat="68.67558055768441" lon="14.7561083233135" id="-26643">
		<tag k="name" v="Røssnesskaret" />
		<tag k="natural" v="valley" />
		<tag k="place" v="locality" />
		<tag k="ssr:stedsnr" v="200634" />
	</node>
	<node lat="68.72359999826749" lon="14.609063889579028" id="-26644">
		<tag k="fixme" v="multiple name tags, choose one and add the other to alt_name; consider natural=peak for the most distinct mountains in the district" />
		<tag k="name" v="Kolaheia;Lian" />
		<tag k="natural" v="hill" />
		<tag k="place" v="locality" />
		<tag k="ssr:stedsnr" v="200279" />
	</node>
	<node lat="68.72457778073944" lon="14.696819435855033" id="-26645">
		<tag k="fixme" v="consider natural=peak for the most distinct mountains in the district" />
		<tag k="name" v="Jørlandsfjellet" />
		<tag k="natural" v="hill" />
		<tag k="place" v="locality" />
		<tag k="ssr:stedsnr" v="200242" />
	</node>
	<node lat="68.76072222478963" lon="14.693038899467638" id="-26652">
		<tag k="fixme" v="consider natural=peak for the most distinct mountains in the district" />
		<tag k="name" v="Kråkbergfjellet" />
		<tag k="natural" v="hill" />
		<tag k="place" v="locality" />
		<tag k="ssr:stedsnr" v="200552" />
	</node>
	<node lat="68.75146944634356" lon="14.483941674573098" id="-26654">
		<tag k="fixme" v="consider natural=peak for the most distinct mountains in the district" />
		<tag k="name" v="Sandvikkammen" />
		<tag k="natural" v="hill" />
		<tag k="place" v="locality" />
		<tag k="ssr:stedsnr" v="200559" />
	</node>
	<node lat="68.767219444246" lon="14.757877771955929" id="-26655">
		<tag k="name" v="Øra" />
		<tag k="natural" v="slope" />
		<tag k="place" v="locality" />
		<tag k="ssr:stedsnr" v="200571" />
	</node>
	<node lat="68.65517500090839" lon="14.469277781818908" id="-26657">
		<tag k="name" v="Svartknausen" />
		<tag k="natural" v="hill" />
		<tag k="place" v="locality" />
		<tag k="ssr:stedsnr" v="200712" />
	</node>
	<node lat="68.79298055558624" lon="14.551611123004328" id="-26662">
		<tag k="fixme" v="consider natural=peak for the most distinct mountains in the district" />
		<tag k="name" v="Trollan" />
		<tag k="natural" v="hill" />
		<tag k="place" v="locality" />
		<tag k="ssr:stedsnr" v="200960" />
	</node>
	<node lat="68.68997777923771" lon="14.459100004264295" id="-26668">
		<tag k="name" v="Nordronda" />
		<tag k="natural" v="valley" />
		<tag k="place" v="locality" />
		<tag k="ssr:stedsnr" v="203072" />
	</node>
	<node lat="68.68527777624055" lon="14.44920555574502" id="-26669">
		<tag k="name" v="Nilshaugan" />
		<tag k="natural" v="hill" />
		<tag k="place" v="locality" />
		<tag k="ssr:stedsnr" v="203068" />
	</node>
	<node lat="68.69136110924707" lon="14.39296109824494" id="-26672">
		<tag k="name" v="Bøle" />
		<tag k="natural" v="slope" />
		<tag k="place" v="locality" />
		<tag k="ssr:stedsnr" v="203246" />
	</node>
	<node lat="68.68439722480804" lon="14.386386103408089" id="-26673">
		<tag k="name" v="Haglihalsen" />
		<tag k="natural" v="hill" />
		<tag k="place" v="locality" />
		<tag k="ssr:stedsnr" v="203248" />
	</node>
	<node lat="68.68638611177695" lon="14.385258338123204" id="-26674">
		<tag k="name" v="Ørnhammaren" />
		<tag k="natural" v="hill" />
		<tag k="place" v="locality" />
		<tag k="ssr:stedsnr" v="203249" />
	</node>
	<node lat="68.70116111432598" lon="14.447783345785043" id="-26675">
		<tag k="name" v="Torvhaugen" />
		<tag k="natural" v="hill" />
		<tag k="place" v="locality" />
		<tag k="ssr:stedsnr" v="203257" />
	</node>
	<node lat="68.68771389021087" lon="14.457299994458909" id="-26677">
		<tag k="name" v="Storplata" />
		<tag k="natural" v="hill" />
		<tag k="place" v="locality" />
		<tag k="ssr:stedsnr" v="203074" />
	</node>
	<node lat="68.69465833619755" lon="14.466188878576709" id="-26678">
		<tag k="name" v="Elvberget" />
		<tag k="natural" v="ridge" />
		<tag k="place" v="locality" />
		<tag k="ssr:stedsnr" v="203078" />
	</node>
	<node lat="68.69273333074767" lon="14.473305543795666" id="-26679">
		<tag k="name" v="Fjøshaugen" />
		<tag k="natural" v="hill" />
		<tag k="place" v="locality" />
		<tag k="ssr:stedsnr" v="203079" />
	</node>
	<node lat="68.6087583340422" lon="14.536480553285339" id="-26688">
		<tag k="name" v="Risnakken" />
		<tag k="natural" v="hill" />
		<tag k="place" v="locality" />
		<tag k="ssr:stedsnr" v="218247" />
	</node>
	<node lat="68.64110000246735" lon="14.463377767495889" id="-26689">
		<tag k="name" v="Gimstadbakken" />
		<tag k="natural" v="slope" />
		<tag k="place" v="locality" />
		<tag k="ssr:stedsnr" v="218248" />
	</node>
	<node lat="68.66000277758043" lon="14.4571638781167" id="-26690">
		<tag k="name" v="Førleitet" />
		<tag k="place" v="locality" />
		<tag k="ssr:stedsnr" v="218250" />
	</node>
	<node lat="68.77846388782291" lon="14.465838887816032" id="-26691">
		<tag k="name" v="Styrmannshaugen" />
		<tag k="natural" v="hill" />
		<tag k="place" v="locality" />
		<tag k="ssr:stedsnr" v="218266" />
	</node>
	<node lat="68.68219166789721" lon="14.531830560394084" id="-26692">
		<tag k="name" v="Kålhaugan" />
		<tag k="natural" v="hill" />
		<tag k="place" v="locality" />
		<tag k="ssr:stedsnr" v="218356" />
	</node>
	<node lat="68.61283055789247" lon="14.489708324802711" id="-26695">
		<tag k="fixme" v="consider natural=peak for the most distinct mountains in the district" />
		<tag k="name" v="Litlfjellet" />
		<tag k="natural" v="hill" />
		<tag k="place" v="locality" />
		<tag k="ssr:stedsnr" v="218536" />
	</node>
	<node lat="68.61468055408251" lon="14.484480551007167" id="-26696">
		<tag k="name" v="Mølndalen" />
		<tag k="natural" v="valley" />
		<tag k="place" v="locality" />
		<tag k="ssr:stedsnr" v="218547" />
	</node>
	<node lat="68.62309722621865" lon="14.53547221819846" id="-26697">
		<tag k="name" v="Vedhøggan" />
		<tag k="natural" v="slope" />
		<tag k="place" v="locality" />
		<tag k="ssr:stedsnr" v="218684" />
	</node>
	<node lat="68.77734722147926" lon="14.47259722009451" id="-26700">
		<tag k="name" v="Skjåberget" />
		<tag k="natural" v="hill" />
		<tag k="place" v="locality" />
		<tag k="ssr:stedsnr" v="278336" />
	</node>
	<node lat="68.63954444139068" lon="14.442799987109328" id="-26705">
		<tag k="name" v="Demma" />
		<tag k="place" v="locality" />
		<tag k="ssr:stedsnr" v="279261" />
	</node>
	<node lat="68.66913333226054" lon="14.430066656002369" id="-26712">
		<tag k="name" v="Sommarfjøshaugen" />
		<tag k="natural" v="hill" />
		<tag k="place" v="locality" />
		<tag k="ssr:stedsnr" v="279555" />
	</node>
	<node lat="68.60815000402354" lon="14.505244455399572" id="-26713">
		<tag k="name" v="Mehøgda" />
		<tag k="natural" v="hill" />
		<tag k="place" v="locality" />
		<tag k="ssr:stedsnr" v="279489" />
	</node>
	<node lat="68.61001944742033" lon="14.516308336482126" id="-26714">
		<tag k="name" v="Nattmålskaret" />
		<tag k="natural" v="valley" />
		<tag k="place" v="locality" />
		<tag k="ssr:stedsnr" v="279492" />
	</node>
	<node lat="68.67631944456087" lon="14.595505563967176" id="-26719">
		<tag k="fixme" v="consider natural=peak for the most distinct mountains in the district" />
		<tag k="name" v="Bjørkåsen" />
		<tag k="natural" v="hill" />
		<tag k="place" v="locality" />
		<tag k="ssr:stedsnr" v="298254" />
	</node>
	<node lat="68.7453055531971" lon="14.529269440290829" id="-26720">
		<tag k="name" v="Gustadkleiva" />
		<tag k="natural" v="slope" />
		<tag k="place" v="locality" />
		<tag k="ssr:stedsnr" v="298267" />
	</node>
	<node lat="68.76252777508596" lon="14.742463888491343" id="-26725">
		<tag k="name" v="Fjellbakkan" />
		<tag k="natural" v="slope" />
		<tag k="place" v="locality" />
		<tag k="ssr:stedsnr" v="298549" />
	</node>
	<node lat="68.76016111328991" lon="14.775436113601424" id="-26726">
		<tag k="name" v="Stakkan" />
		<tag k="natural" v="hill" />
		<tag k="place" v="locality" />
		<tag k="ssr:stedsnr" v="298562" />
	</node>
	<node lat="68.78457777395666" lon="14.512072217045453" id="-26727">
		<tag k="name" v="Skjåbrekkhaugen" />
		<tag k="natural" v="hill" />
		<tag k="place" v="locality" />
		<tag k="ssr:stedsnr" v="299354" />
	</node>
	<node lat="68.66931388629675" lon="14.621941672210562" id="-26728">
		<tag k="name" v="Grønnhaugen" />
		<tag k="natural" v="hill" />
		<tag k="place" v="locality" />
		<tag k="ssr:stedsnr" v="302181" />
	</node>
	<node lat="68.65656389182132" lon="14.478444447273404" id="-26729">
		<tag k="name" v="Nøkkhammaren" />
		<tag k="natural" v="hill" />
		<tag k="place" v="locality" />
		<tag k="ssr:stedsnr" v="302191" />
	</node>
	<node lat="68.60231944483102" lon="14.527305561868182" id="-26730">
		<tag k="name" v="Varden" />
		<tag k="natural" v="hill" />
		<tag k="place" v="locality" />
		<tag k="ssr:stedsnr" v="302101" />
	</node>
	<node lat="68.65202499799682" lon="14.489727780709632" id="-26731">
		<tag k="fixme" v="consider natural=peak for the most distinct mountains in the district" />
		<tag k="name" v="Einåsen" />
		<tag k="natural" v="hill" />
		<tag k="place" v="locality" />
		<tag k="ssr:stedsnr" v="302160" />
	</node>
	<node lat="68.65633610981146" lon="14.50070834310069" id="-26735">
		<tag k="alt_name" v="Domsletta" />
		<tag k="name" v="Dumsletta" />
		<tag k="place" v="locality" />
		<tag k="ssr:stedsnr" v="321698" />
	</node>
	<node lat="68.70550000243325" lon="14.473702776363083" id="-26738">
		<tag k="fixme" v="consider natural=peak for the most distinct mountains in the district" />
		<tag k="name" v="Nattmålstinden" />
		<tag k="natural" v="hill" />
		<tag k="place" v="locality" />
		<tag k="ssr:stedsnr" v="321299" />
	</node>
	<node lat="68.7266444482115" lon="14.536011108679844" id="-26741">
		<tag k="fixme" v="consider natural=peak for the most distinct mountains in the district" />
		<tag k="name" v="Husvågåsen" />
		<tag k="natural" v="hill" />
		<tag k="place" v="locality" />
		<tag k="ssr:stedsnr" v="321262" />
	</node>
	<node lat="68.7118305571616" lon="14.493241673977758" id="-26744">
		<tag k="fixme" v="consider natural=peak for the most distinct mountains in the district" />
		<tag k="name" v="Hesthagtinden" />
		<tag k="natural" v="hill" />
		<tag k="place" v="locality" />
		<tag k="ssr:stedsnr" v="321276" />
	</node>
	<node lat="68.74024722089405" lon="14.752727769195326" id="-26746">
		<tag k="fixme" v="consider natural=peak for the most distinct mountains in the district" />
		<tag k="name" v="Holkis" />
		<tag k="natural" v="hill" />
		<tag k="place" v="locality" />
		<tag k="ssr:stedsnr" v="321341" />
	</node>
	<node lat="68.74097777736328" lon="14.786255557395423" id="-26747">
		<tag k="name" v="Reindalen" />
		<tag k="natural" v="valley" />
		<tag k="place" v="locality" />
		<tag k="ssr:stedsnr" v="321342" />
	</node>
	<node lat="68.76058610810107" lon="14.735013883289447" id="-26754">
		<tag k="fixme" v="multiple name tags, choose one and add the other to alt_name" />
		<tag k="name" v="Røddet;Hanserødde" />
		<tag k="natural" v="slope" />
		<tag k="place" v="locality" />
		<tag k="ssr:stedsnr" v="321501" />
	</node>
	<node lat="68.7687722179462" lon="14.559313899144696" id="-26760">
		<tag k="name" v="Brakanskaret" />
		<tag k="natural" v="valley" />
		<tag k="place" v="locality" />
		<tag k="ssr:stedsnr" v="321467" />
	</node>
	<node lat="68.82776388732646" lon="14.662063882495245" id="-26763">
		<tag k="fixme" v="consider natural=peak for the most distinct mountains in the district" />
		<tag k="name" v="Tåa" />
		<tag k="natural" v="hill" />
		<tag k="place" v="locality" />
		<tag k="ssr:stedsnr" v="321847" />
	</node>
	<node lat="68.8051500028491" lon="14.641736109675342" id="-26764">
		<tag k="fixme" v="consider natural=peak for the most distinct mountains in the district" />
		<tag k="name" v="Stabben" />
		<tag k="natural" v="hill" />
		<tag k="place" v="locality" />
		<tag k="ssr:stedsnr" v="321917" />
	</node>
	<node lat="68.8003638842631" lon="14.651752787681703" id="-26765">
		<tag k="name" v="Utskordalen" />
		<tag k="natural" v="valley" />
		<tag k="place" v="locality" />
		<tag k="ssr:stedsnr" v="321923" />
	</node>
	<node lat="68.72380277427273" lon="14.4792444364015" id="-26766">
		<tag k="name" v="Rødbergan" />
		<tag k="natural" v="hill" />
		<tag k="place" v="locality" />
		<tag k="ssr:stedsnr" v="324019" />
	</node>
	<node lat="68.68407222690581" lon="14.404533328785496" id="-26769">
		<tag k="name" v="Laukhaugen" />
		<tag k="natural" v="hill" />
		<tag k="place" v="locality" />
		<tag k="ssr:stedsnr" v="324033" />
	</node>
	<node lat="68.68593611517234" lon="14.453774994109178" id="-26770">
		<tag k="name" v="Nilsskaret" />
		<tag k="natural" v="valley" />
		<tag k="place" v="locality" />
		<tag k="ssr:stedsnr" v="324042" />
	</node>
	<node lat="68.69277222354461" lon="14.420919447132363" id="-26772">
		<tag k="name" v="Sendingsdalen" />
		<tag k="natural" v="valley" />
		<tag k="place" v="locality" />
		<tag k="ssr:stedsnr" v="324049" />
	</node>
	<node lat="68.688188885391" lon="14.378622213342192" id="-26774">
		<tag k="name" v="Bjørnøyra" />
		<tag k="natural" v="ridge" />
		<tag k="place" v="locality" />
		<tag k="ssr:stedsnr" v="324248" />
	</node>
	<node lat="68.61212221960186" lon="14.542849990376238" id="-26776">
		<tag k="name" v="Risnakken" />
		<tag k="natural" v="hill" />
		<tag k="place" v="locality" />
		<tag k="ssr:stedsnr" v="339663" />
	</node>
	<node lat="68.6275111075731" lon="14.417402784044372" id="-26777">
		<tag k="name" v="Nordhaugen" />
		<tag k="natural" v="hill" />
		<tag k="place" v="locality" />
		<tag k="ssr:stedsnr" v="339151" />
	</node>
	<node lat="68.62719444795026" lon="14.404205557544874" id="-26778">
		<tag k="name" v="Purkhaugen" />
		<tag k="natural" v="hill" />
		<tag k="place" v="locality" />
		<tag k="ssr:stedsnr" v="339158" />
	</node>
	<node lat="68.63340000389097" lon="14.474088889320452" id="-26782">
		<tag k="fixme" v="consider natural=peak for the most distinct mountains in the district" />
		<tag k="name" v="Langåsen" />
		<tag k="natural" v="hill" />
		<tag k="place" v="locality" />
		<tag k="ssr:stedsnr" v="339478" />
	</node>
	<node lat="68.63742777985121" lon="14.474313889145119" id="-26783">
		<tag k="name" v="Elvkrokan" />
		<tag k="natural" v="valley" />
		<tag k="place" v="locality" />
		<tag k="ssr:stedsnr" v="339482" />
	</node>
	<node lat="68.80786388913481" lon="14.563291662363476" id="-26786">
		<tag k="name" v="Kjerkhaugen" />
		<tag k="natural" v="hill" />
		<tag k="place" v="locality" />
		<tag k="ssr:stedsnr" v="339329" />
	</node>
	<node lat="68.81426666716489" lon="14.548861112015842" id="-26787">
		<tag k="name" v="Storvarden" />
		<tag k="natural" v="hill" />
		<tag k="place" v="locality" />
		<tag k="ssr:stedsnr" v="339331" />
	</node>
	<node lat="68.7442111124199" lon="14.853058329020524" id="-26790">
		<tag k="name" v="Toftdalsskaret" />
		<tag k="natural" v="valley" />
		<tag k="place" v="locality" />
		<tag k="ssr:stedsnr" v="356263" />
	</node>
	<node lat="68.66842221880688" lon="14.745000010588639" id="-26794">
		<tag k="fixme" v="consider natural=peak for the most distinct mountains in the district" />
		<tag k="name" v="Åsen" />
		<tag k="natural" v="hill" />
		<tag k="place" v="locality" />
		<tag k="ssr:stedsnr" v="358383" />
	</node>
	<node lat="68.66431666392188" lon="14.654905563323629" id="-26795">
		<tag k="name" v="Gullvikerberget" />
		<tag k="natural" v="hill" />
		<tag k="place" v="locality" />
		<tag k="ssr:stedsnr" v="358389" />
	</node>
	<node lat="68.68066944648902" lon="14.660566675720219" id="-26796">
		<tag k="name" v="Hamran" />
		<tag k="natural" v="hill" />
		<tag k="place" v="locality" />
		<tag k="ssr:stedsnr" v="358473" />
	</node>
	<node lat="68.67780555431412" lon="14.650530567423402" id="-26797">
		<tag k="fixme" v="consider natural=peak for the most distinct mountains in the district" />
		<tag k="name" v="Steinkollan" />
		<tag k="natural" v="hill" />
		<tag k="place" v="locality" />
		<tag k="ssr:stedsnr" v="358478" />
	</node>
	<node lat="68.74824166544518" lon="14.721294441575843" id="-26798">
		<tag k="name" v="Rødde" />
		<tag k="natural" v="hill" />
		<tag k="place" v="locality" />
		<tag k="ssr:stedsnr" v="358570" />
	</node>
	<node lat="68.76791389193944" lon="14.765213877501237" id="-26799">
		<tag k="fixme" v="consider natural=peak for the most distinct mountains in the district" />
		<tag k="name" v="Ørntuva" />
		<tag k="natural" v="hill" />
		<tag k="place" v="locality" />
		<tag k="ssr:stedsnr" v="358585" />
	</node>
	<node lat="68.67541666899919" lon="14.523938889276662" id="-26802">
		<tag k="name" v="Magdalenhaugen" />
		<tag k="natural" v="hill" />
		<tag k="place" v="locality" />
		<tag k="ssr:stedsnr" v="362070" />
	</node>
	<node lat="68.66559722193615" lon="14.620722218237256" id="-26803">
		<tag k="fixme" v="consider natural=peak for the most distinct mountains in the district" />
		<tag k="name" v="Futåsen" />
		<tag k="natural" v="hill" />
		<tag k="place" v="locality" />
		<tag k="ssr:stedsnr" v="362159" />
	</node>
	<node lat="68.65959722529179" lon="14.485369436486247" id="-26804">
		<tag k="name" v="Blåbærhola" />
		<tag k="natural" v="valley" />
		<tag k="place" v="locality" />
		<tag k="ssr:stedsnr" v="362170" />
	</node>
	<node lat="68.6586277738683" lon="14.511958322953785" id="-26805">
		<tag k="fixme" v="consider natural=peak for the most distinct mountains in the district" />
		<tag k="name" v="Tverrfjellet" />
		<tag k="natural" v="hill" />
		<tag k="place" v="locality" />
		<tag k="ssr:stedsnr" v="362171" />
	</node>
	<node lat="68.67060555250686" lon="14.54608889396567" id="-26806">
		<tag k="name" v="Moshaugen" />
		<tag k="natural" v="hill" />
		<tag k="place" v="locality" />
		<tag k="ssr:stedsnr" v="362177" />
	</node>
	<node lat="68.66930555222902" lon="14.538897229479632" id="-26807">
		<tag k="name" v="Lynghaugdalen" />
		<tag k="natural" v="valley" />
		<tag k="place" v="locality" />
		<tag k="ssr:stedsnr" v="362180" />
	</node>
	<node lat="68.67073611265884" lon="14.524702776519813" id="-26808">
		<tag k="name" v="Mundsletta" />
		<tag k="place" v="locality" />
		<tag k="ssr:stedsnr" v="362185" />
	</node>
	<node lat="68.67005277429695" lon="14.502274986827576" id="-26812">
		<tag k="name" v="Bjønnhaugen" />
		<tag k="natural" v="hill" />
		<tag k="place" v="locality" />
		<tag k="ssr:stedsnr" v="362198" />
	</node>
	<node lat="68.66889722565682" lon="14.49991111642182" id="-26813">
		<tag k="name" v="Johaugen" />
		<tag k="natural" v="hill" />
		<tag k="place" v="locality" />
		<tag k="ssr:stedsnr" v="362199" />
	</node>
	<node lat="68.6932999992551" lon="14.615344436157939" id="-26819">
		<tag k="alt_name" v="Gresåsen" />
		<tag k="fixme" v="consider natural=peak for the most distinct mountains in the district" />
		<tag k="name" v="Gressåsen" />
		<tag k="natural" v="hill" />
		<tag k="place" v="locality" />
		<tag k="ssr:stedsnr" v="381699" />
	</node>
	<node lat="68.59820277364012" lon="14.317336113794928" id="-26821">
		<tag k="fixme" v="consider natural=peak for the most distinct mountains in the district" />
		<tag k="name" v="Litløytinden" />
		<tag k="natural" v="hill" />
		<tag k="place" v="locality" />
		<tag k="ssr:stedsnr" v="380349" />
	</node>
	<node lat="68.63037777959423" lon="14.490580562409178" id="-26835">
		<tag k="name" v="Sikan" />
		<tag k="natural" v="valley" />
		<tag k="place" v="locality" />
		<tag k="ssr:stedsnr" v="381528" />
	</node>
	<node lat="68.71029166944673" lon="14.545605560272435" id="-26841">
		<tag k="name" v="Trolldalen" />
		<tag k="natural" v="valley" />
		<tag k="place" v="locality" />
		<tag k="ssr:stedsnr" v="382293" />
	</node>
	<node lat="68.66004166245398" lon="14.577108328345703" id="-26844">
		<tag k="fixme" v="multiple name tags, choose one and add the other to alt_name; consider natural=peak for the most distinct mountains in the district" />
		<tag k="name" v="Pollåsen;Storørnåsen" />
		<tag k="natural" v="hill" />
		<tag k="place" v="locality" />
		<tag k="ssr:stedsnr" v="382687" />
	</node>
	<node lat="68.65787499914494" lon="14.550900000020722" id="-26845">
		<tag k="fixme" v="consider natural=peak for the most distinct mountains in the district" />
		<tag k="name" v="Lassan" />
		<tag k="natural" v="hill" />
		<tag k="place" v="locality" />
		<tag k="ssr:stedsnr" v="382692" />
	</node>
	<node lat="68.69431111118132" lon="14.420211101912582" id="-26851">
		<tag k="name" v="Sendingsstrupen" />
		<tag k="natural" v="valley" />
		<tag k="place" v="locality" />
		<tag k="ssr:stedsnr" v="385076" />
	</node>
	<node lat="68.70263055995305" lon="14.438936104803796" id="-26856">
		<tag k="name" v="Lyshaugen" />
		<tag k="natural" v="hill" />
		<tag k="place" v="locality" />
		<tag k="ssr:stedsnr" v="385242" />
	</node>
	<node lat="68.65650555321886" lon="14.474038876409619" id="-26859">
		<tag k="name" v="Hundsskaret" />
		<tag k="natural" v="valley" />
		<tag k="place" v="locality" />
		<tag k="ssr:stedsnr" v="400285" />
	</node>
	<node lat="68.62131111376814" lon="14.45972222988591" id="-26862">
		<tag k="name" v="Sommarfjøshaugen" />
		<tag k="natural" v="hill" />
		<tag k="place" v="locality" />
		<tag k="ssr:stedsnr" v="400166" />
	</node>
	<node lat="68.62079999641158" lon="14.46280833807948" id="-26863">
		<tag k="name" v="Rundhaugen" />
		<tag k="natural" v="hill" />
		<tag k="place" v="locality" />
		<tag k="ssr:stedsnr" v="400168" />
	</node>
	<node lat="68.77951666476791" lon="14.478438878202619" id="-26868">
		<tag k="name" v="Tinghaugen" />
		<tag k="natural" v="hill" />
		<tag k="place" v="locality" />
		<tag k="ssr:stedsnr" v="400295" />
	</node>
	<node lat="68.62544166219598" lon="14.596175010431924" id="-26869">
		<tag k="name" v="Merket" />
		<tag k="place" v="locality" />
		<tag k="ssr:stedsnr" v="400300" />
	</node>
	<node lat="68.60656666716932" lon="14.50969999393551" id="-26872">
		<tag k="name" v="Øksa" />
		<tag k="place" v="locality" />
		<tag k="ssr:stedsnr" v="400422" />
	</node>
	<node lat="68.61871666383925" lon="14.476597212029471" id="-26873">
		<tag k="name" v="Skyttarhaugen" />
		<tag k="natural" v="hill" />
		<tag k="place" v="locality" />
		<tag k="ssr:stedsnr" v="400590" />
	</node>
	<node lat="68.66524444775216" lon="14.407602777178447" id="-26874">
		<tag k="name" v="Harvollhaugen" />
		<tag k="natural" v="hill" />
		<tag k="place" v="locality" />
		<tag k="ssr:stedsnr" v="400591" />
	</node>
	<node lat="68.72891388795998" lon="14.560069435879877" id="-26876">
		<tag k="fixme" v="consider natural=peak for the most distinct mountains in the district" />
		<tag k="name" v="Kjeipa" />
		<tag k="natural" v="hill" />
		<tag k="place" v="locality" />
		<tag k="ssr:stedsnr" v="400747" />
	</node>
	<node lat="68.61764722078914" lon="14.526686099615707" id="-26877">
		<tag k="name" v="Mårsundbrekke" />
		<tag k="natural" v="hill" />
		<tag k="place" v="locality" />
		<tag k="ssr:stedsnr" v="400699" />
	</node>
	<node lat="68.68539999749125" lon="14.657980563462797" id="-26885">
		<tag k="fixme" v="consider natural=peak for the most distinct mountains in the district" />
		<tag k="name" v="Storfjellet" />
		<tag k="natural" v="hill" />
		<tag k="place" v="locality" />
		<tag k="ssr:stedsnr" v="419377" />
	</node>
	<node lat="68.69359444530518" lon="14.656794435057959" id="-26886">
		<tag k="fixme" v="consider natural=peak for the most distinct mountains in the district" />
		<tag k="name" v="Kjupptuva" />
		<tag k="natural" v="hill" />
		<tag k="place" v="locality" />
		<tag k="ssr:stedsnr" v="419378" />
	</node>
	<node lat="68.77927222429595" lon="14.489708328999257" id="-26888">
		<tag k="name" v="Tøa" />
		<tag k="place" v="locality" />
		<tag k="ssr:stedsnr" v="421328" />
	</node>
	<node lat="68.63539999935276" lon="14.593388886300259" id="-26890">
		<tag k="name" v="Steinbakken" />
		<tag k="natural" v="slope" />
		<tag k="place" v="locality" />
		<tag k="ssr:stedsnr" v="423232" />
	</node>
	<node lat="68.76485555273875" lon="14.534447209819842" id="-26891">
		<tag k="name" v="Trolldalen" />
		<tag k="natural" v="valley" />
		<tag k="place" v="locality" />
		<tag k="ssr:stedsnr" v="422347" />
	</node>
	<node lat="68.66758333086621" lon="14.614505554796471" id="-26895">
		<tag k="fixme" v="consider natural=peak for the most distinct mountains in the district" />
		<tag k="name" v="Høgåsen" />
		<tag k="natural" v="hill" />
		<tag k="place" v="locality" />
		<tag k="ssr:stedsnr" v="423166" />
	</node>
	<node lat="68.66596111099561" lon="14.596011103947653" id="-26896">
		<tag k="name" v="Moan" />
		<tag k="place" v="locality" />
		<tag k="ssr:stedsnr" v="423171" />
	</node>
	<node lat="68.6574972247112" lon="14.478966671627884" id="-26897">
		<tag k="fixme" v="consider natural=peak for the most distinct mountains in the district" />
		<tag k="name" v="Føråsen" />
		<tag k="natural" v="hill" />
		<tag k="place" v="locality" />
		<tag k="ssr:stedsnr" v="423175" />
	</node>
	<node lat="68.67345277988956" lon="14.616252779736334" id="-26898">
		<tag k="fixme" v="consider natural=peak for the most distinct mountains in the district" />
		<tag k="name" v="Størringstadåsen" />
		<tag k="natural" v="hill" />
		<tag k="place" v="locality" />
		<tag k="ssr:stedsnr" v="423179" />
	</node>
	<node lat="68.68048611132454" lon="14.763247214451164" id="-26901">
		<tag k="alt_name" v="Vindhamran" />
		<tag k="fixme" v="consider natural=peak for the most distinct mountains in the district" />
		<tag k="name" v="Vindhammaren" />
		<tag k="natural" v="hill" />
		<tag k="place" v="locality" />
		<tag k="ssr:stedsnr" v="442659" />
	</node>
	<node lat="68.72859999572312" lon="14.781819453468628" id="-26904">
		<tag k="fixme" v="consider natural=peak for the most distinct mountains in the district" />
		<tag k="name" v="Tverrtinden" />
		<tag k="natural" v="hill" />
		<tag k="place" v="locality" />
		<tag k="ssr:stedsnr" v="442294" />
	</node>
	<node lat="68.7414138903144" lon="14.547936118558656" id="-26913">
		<tag k="fixme" v="consider natural=peak for the most distinct mountains in the district" />
		<tag k="name" v="Kobbvågfjellet" />
		<tag k="natural" v="hill" />
		<tag k="place" v="locality" />
		<tag k="ssr:stedsnr" v="442380" />
	</node>
	<node lat="68.64727499880206" lon="14.524536098477874" id="-26920">
		<tag k="fixme" v="consider natural=peak for the most distinct mountains in the district" />
		<tag k="name" v="Olsberget" />
		<tag k="natural" v="hill" />
		<tag k="place" v="locality" />
		<tag k="ssr:stedsnr" v="442731" />
	</node>
	<node lat="68.78484167109387" lon="14.566224995263312" id="-26925">
		<tag k="fixme" v="consider natural=peak for the most distinct mountains in the district" />
		<tag k="name" v="Vindhamran" />
		<tag k="natural" v="hill" />
		<tag k="place" v="locality" />
		<tag k="ssr:stedsnr" v="442978" />
	</node>
	<node lat="68.6607805522931" lon="14.571530542907094" id="-26932">
		<tag k="name" v="Polldalen" />
		<tag k="natural" v="valley" />
		<tag k="place" v="locality" />
		<tag k="ssr:stedsnr" v="443688" />
	</node>
	<node lat="68.79405000428758" lon="14.671680559778373" id="-26936">
		<tag k="fixme" v="consider natural=peak for the most distinct mountains in the district" />
		<tag k="name" v="Hesthausen" />
		<tag k="natural" v="hill" />
		<tag k="place" v="locality" />
		<tag k="ssr:stedsnr" v="443957" />
	</node>
	<node lat="68.79012222684247" lon="14.65966388160427" id="-26937">
		<tag k="fixme" v="consider natural=peak for the most distinct mountains in the district" />
		<tag k="name" v="Lassan" />
		<tag k="natural" v="hill" />
		<tag k="place" v="locality" />
		<tag k="ssr:stedsnr" v="443959" />
	</node>
	<node lat="68.69639721862764" lon="14.467716666986002" id="-26940">
		<tag k="name" v="Kleiva" />
		<tag k="natural" v="slope" />
		<tag k="place" v="locality" />
		<tag k="ssr:stedsnr" v="446043" />
	</node>
	<node lat="68.69070833106665" lon="14.450833343975882" id="-26943">
		<tag k="name" v="Ramnhamran" />
		<tag k="natural" v="hill" />
		<tag k="place" v="locality" />
		<tag k="ssr:stedsnr" v="446065" />
	</node>
	<node lat="68.69835555878906" lon="14.470811107372445" id="-26944">
		<tag k="name" v="Smedberget" />
		<tag k="natural" v="hill" />
		<tag k="place" v="locality" />
		<tag k="ssr:stedsnr" v="446167" />
	</node>
	<node lat="68.69369721912608" lon="14.467763894046387" id="-26945">
		<tag k="name" v="Langhaugen" />
		<tag k="natural" v="hill" />
		<tag k="place" v="locality" />
		<tag k="ssr:stedsnr" v="446235" />
	</node>
	<node lat="68.74834999682966" lon="14.619636120297324" id="-26954">
		<tag k="fixme" v="consider natural=peak for the most distinct mountains in the district" />
		<tag k="name" v="Sundsåsen" />
		<tag k="natural" v="hill" />
		<tag k="place" v="locality" />
		<tag k="ssr:stedsnr" v="503337" />
	</node>
	<node lat="68.74256666811866" lon="14.739183329681738" id="-26955">
		<tag k="fixme" v="consider natural=peak for the most distinct mountains in the district" />
		<tag k="name" v="Melkarberget" />
		<tag k="natural" v="hill" />
		<tag k="place" v="locality" />
		<tag k="ssr:stedsnr" v="503344" />
	</node>
	<node lat="68.69202221936578" lon="14.411505549980298" id="-26958">
		<tag k="fixme" v="consider natural=peak for the most distinct mountains in the district" />
		<tag k="name" v="Skårvågfjellet" />
		<tag k="natural" v="hill" />
		<tag k="place" v="locality" />
		<tag k="ssr:stedsnr" v="503364" />
	</node>
	<node lat="68.78633333382483" lon="14.549875006445763" id="-26971">
		<tag k="fixme" v="consider natural=peak for the most distinct mountains in the district" />
		<tag k="name" v="Røsshagheia" />
		<tag k="natural" v="hill" />
		<tag k="place" v="locality" />
		<tag k="ssr:stedsnr" v="503977" />
	</node>
	<node lat="68.79232499636733" lon="14.648119438591223" id="-26976">
		<tag k="fixme" v="consider natural=peak for the most distinct mountains in the district" />
		<tag k="name" v="Høgtinden" />
		<tag k="natural" v="hill" />
		<tag k="place" v="locality" />
		<tag k="ssr:stedsnr" v="503937" />
	</node>
	<node lat="68.68811944525915" lon="14.400283342325203" id="-26982">
		<tag k="name" v="Bjørnlia" />
		<tag k="natural" v="slope" />
		<tag k="place" v="locality" />
		<tag k="ssr:stedsnr" v="506043" />
	</node>
	<node lat="68.68635000409208" lon="14.404552767035675" id="-26983">
		<tag k="name" v="Skumlia" />
		<tag k="natural" v="slope" />
		<tag k="place" v="locality" />
		<tag k="ssr:stedsnr" v="506045" />
	</node>
	<node lat="68.68248333350812" lon="14.409944453524117" id="-26984">
		<tag k="name" v="Årberget" />
		<tag k="natural" v="hill" />
		<tag k="place" v="locality" />
		<tag k="ssr:stedsnr" v="506050" />
	</node>
	<node lat="68.69440277697487" lon="14.462083322366581" id="-26985">
		<tag k="name" v="Sjøaksla" />
		<tag k="natural" v="ridge" />
		<tag k="place" v="locality" />
		<tag k="ssr:stedsnr" v="506056" />
	</node>
	<node lat="68.68524999672883" lon="14.387341671372223" id="-26986">
		<tag k="name" v="Haglia" />
		<tag k="natural" v="slope" />
		<tag k="place" v="locality" />
		<tag k="ssr:stedsnr" v="506218" />
	</node>
	<node lat="68.64178055241928" lon="14.446630542660731" id="-26993">
		<tag k="name" v="Ekkerveita" />
		<tag k="natural" v="valley" />
		<tag k="place" v="locality" />
		<tag k="ssr:stedsnr" v="521241" />
	</node>
	<node lat="68.65976944472014" lon="14.454213886266128" id="-26994">
		<tag k="name" v="Leithaugen" />
		<tag k="natural" v="hill" />
		<tag k="place" v="locality" />
		<tag k="ssr:stedsnr" v="521251" />
	</node>
	<node lat="68.65334976711951" lon="14.469330726105794" id="-26995">
		<tag k="name" v="Litlsvartknausen" />
		<tag k="natural" v="hill" />
		<tag k="place" v="locality" />
		<tag k="ssr:stedsnr" v="521253" />
	</node>
	<node lat="68.72768055374263" lon="14.590277774142143" id="-26997">
		<tag k="name" v="Nepptuva" />
		<tag k="natural" v="hill" />
		<tag k="place" v="locality" />
		<tag k="ssr:stedsnr" v="521294" />
	</node>
	<node lat="68.72508888960832" lon="14.591038877494652" id="-26998">
		<tag k="name" v="Olsetrabben" />
		<tag k="natural" v="hill" />
		<tag k="place" v="locality" />
		<tag k="ssr:stedsnr" v="521295" />
	</node>
	<node lat="68.72381388701189" lon="14.597805560842247" id="-26999">
		<tag k="name" v="Grindbakken" />
		<tag k="natural" v="slope" />
		<tag k="place" v="locality" />
		<tag k="ssr:stedsnr" v="521299" />
	</node>
	<node lat="68.62869722239745" lon="14.543052772010277" id="-27000">
		<tag k="name" v="Svehaugen" />
		<tag k="natural" v="hill" />
		<tag k="place" v="locality" />
		<tag k="ssr:stedsnr" v="521689" />
	</node>
	<node lat="68.6006527787017" lon="14.50000556012161" id="-27001">
		<tag k="name" v="Nakken" />
		<tag k="natural" v="ridge" />
		<tag k="place" v="locality" />
		<tag k="ssr:stedsnr" v="521457" />
	</node>
	<node lat="68.70638888935346" lon="14.667727767886799" id="-27007">
		<tag k="fixme" v="consider natural=peak for the most distinct mountains in the district" />
		<tag k="name" v="Elvbakkfjellet" />
		<tag k="natural" v="hill" />
		<tag k="place" v="locality" />
		<tag k="ssr:stedsnr" v="540377" />
	</node>
	<node lat="68.66434166773723" lon="14.738591658104802" id="-27009">
		<tag k="fixme" v="consider natural=peak for the most distinct mountains in the district" />
		<tag k="name" v="Knollan" />
		<tag k="natural" v="hill" />
		<tag k="place" v="locality" />
		<tag k="ssr:stedsnr" v="540391" />
	</node>
	<node lat="68.75076388871865" lon="14.829799992164816" id="-27012">
		<tag k="name" v="Kuskardalen" />
		<tag k="natural" v="valley" />
		<tag k="place" v="locality" />
		<tag k="ssr:stedsnr" v="538255" />
	</node>
	<node lat="68.68086667027373" lon="14.422383335042541" id="-27013">
		<tag k="fixme" v="consider natural=peak for the most distinct mountains in the district" />
		<tag k="name" v="Ramnbergfjellet" />
		<tag k="natural" v="hill" />
		<tag k="place" v="locality" />
		<tag k="ssr:stedsnr" v="563677" />
	</node>
	<node lat="68.70955833228388" lon="14.67046944487072" id="-27015">
		<tag k="name" v="Nordhumpen" />
		<tag k="natural" v="hill" />
		<tag k="place" v="locality" />
		<tag k="ssr:stedsnr" v="540362" />
	</node>
	<node lat="68.78893055858605" lon="14.519875003469853" id="-27016">
		<tag k="name" v="Grushola" />
		<tag k="natural" v="valley" />
		<tag k="place" v="locality" />
		<tag k="ssr:stedsnr" v="542333" />
	</node>
	<node lat="68.6734972220936" lon="14.608072220778105" id="-27018">
		<tag k="fixme" v="consider natural=peak for the most distinct mountains in the district" />
		<tag k="name" v="Tverråsen" />
		<tag k="natural" v="hill" />
		<tag k="place" v="locality" />
		<tag k="ssr:stedsnr" v="544155" />
	</node>
	<node lat="68.65585277412075" lon="14.60712499954707" id="-27022">
		<tag k="name" v="Gangskaret" />
		<tag k="natural" v="valley" />
		<tag k="place" v="locality" />
		<tag k="ssr:stedsnr" v="545139" />
	</node>
	<node lat="68.70746667055586" lon="14.75213612008743" id="-27036">
		<tag k="fixme" v="consider natural=peak for the most distinct mountains in the district" />
		<tag k="name" v="Haugsnestinden" />
		<tag k="natural" v="hill" />
		<tag k="place" v="locality" />
		<tag k="ssr:stedsnr" v="563280" />
	</node>
	<node lat="68.71120833489331" lon="14.46946943572222" id="-27037">
		<tag k="fixme" v="consider natural=peak for the most distinct mountains in the district" />
		<tag k="name" v="Spikarheia" />
		<tag k="natural" v="hill" />
		<tag k="place" v="locality" />
		<tag k="ssr:stedsnr" v="563284" />
	</node>
	<node lat="68.68783055237559" lon="14.387716664756974" id="-27041">
		<tag k="fixme" v="consider natural=peak for the most distinct mountains in the district" />
		<tag k="name" v="Egga" />
		<tag k="natural" v="hill" />
		<tag k="place" v="locality" />
		<tag k="ssr:stedsnr" v="563363" />
	</node>
	<node lat="68.77628611451914" lon="14.661561122217927" id="-27047">
		<tag k="fixme" v="multiple name tags, choose one and add the other to alt_name" />
		<tag k="name" v="Jennskaret;Skaret" />
		<tag k="natural" v="valley" />
		<tag k="place" v="locality" />
		<tag k="ssr:stedsnr" v="563501" />
	</node>
	<node lat="68.66374167012627" lon="14.537311104157881" id="-27055">
		<tag k="fixme" v="multiple name tags, choose one and add the other to alt_name; consider natural=peak for the most distinct mountains in the district" />
		<tag k="name" v="Lynghaugtinden;Nåla" />
		<tag k="natural" v="hill" />
		<tag k="place" v="locality" />
		<tag k="ssr:stedsnr" v="563627" />
	</node>
	<node lat="68.67182777510352" lon="14.76814445218297" id="-27057">
		<tag k="fixme" v="consider natural=peak for the most distinct mountains in the district" />
		<tag k="name" v="Ørntuva" />
		<tag k="natural" v="hill" />
		<tag k="place" v="locality" />
		<tag k="ssr:stedsnr" v="563646" />
	</node>
	<node lat="68.69301666354076" lon="14.439588887783328" id="-27062">
		<tag k="name" v="Klefterskaret" />
		<tag k="natural" v="valley" />
		<tag k="place" v="locality" />
		<tag k="ssr:stedsnr" v="563713" />
	</node>
	<node lat="68.81714166951599" lon="14.674455559099703" id="-27068">
		<tag k="name" v="Melkardalen" />
		<tag k="natural" v="valley" />
		<tag k="place" v="locality" />
		<tag k="ssr:stedsnr" v="563916" />
	</node>
	<node lat="68.78892222521401" lon="14.674966672580219" id="-27072">
		<tag k="name" v="Risdalen" />
		<tag k="natural" v="valley" />
		<tag k="place" v="locality" />
		<tag k="ssr:stedsnr" v="563966" />
	</node>
	<node lat="68.79537755365676" lon="14.537745498959472" id="-27073">
		<tag k="name" v="Trolljorda" />
		<tag k="place" v="locality" />
		<tag k="ssr:stedsnr" v="563968" />
	</node>
	<node lat="68.68171389247416" lon="14.429838886442152" id="-27077">
		<tag k="fixme" v="consider natural=peak for the most distinct mountains in the district" />
		<tag k="name" v="Hestsprenga" />
		<tag k="natural" v="hill" />
		<tag k="place" v="locality" />
		<tag k="ssr:stedsnr" v="567028" />
	</node>
	<node lat="68.72671666802711" lon="14.473186106129692" id="-27078">
		<tag k="name" v="Lian" />
		<tag k="natural" v="slope" />
		<tag k="place" v="locality" />
		<tag k="ssr:stedsnr" v="567032" />
	</node>
	<node lat="68.6839972184915" lon="14.423036114893096" id="-27079">
		<tag k="name" v="Kjellarkraå" />
		<tag k="natural" v="valley" />
		<tag k="place" v="locality" />
		<tag k="ssr:stedsnr" v="567038" />
	</node>
	<node lat="68.7081611148721" lon="14.45278056841031" id="-27081">
		<tag k="fixme" v="consider natural=peak for the most distinct mountains in the district" />
		<tag k="name" v="Vikantinden" />
		<tag k="natural" v="hill" />
		<tag k="place" v="locality" />
		<tag k="ssr:stedsnr" v="567134" />
	</node>
	<node lat="68.69848888766381" lon="14.459991655752127" id="-27084">
		<tag k="name" v="Handklepphaugen" />
		<tag k="natural" v="hill" />
		<tag k="place" v="locality" />
		<tag k="ssr:stedsnr" v="567233" />
	</node>
	<node lat="68.70422778170224" lon="14.457497227610702" id="-27085">
		<tag k="name" v="Durmålsskaret" />
		<tag k="natural" v="valley" />
		<tag k="place" v="locality" />
		<tag k="ssr:stedsnr" v="567235" />
	</node>
	<node lat="68.69025000399188" lon="14.379936100637543" id="-27086">
		<tag k="name" v="Festelen" />
		<tag k="natural" v="hill" />
		<tag k="place" v="locality" />
		<tag k="ssr:stedsnr" v="567237" />
	</node>
	<node lat="68.69163332958624" lon="14.45436110862069" id="-27087">
		<tag k="name" v="Sletten" />
		<tag k="natural" v="slope" />
		<tag k="place" v="locality" />
		<tag k="ssr:stedsnr" v="567048" />
	</node>
	<node lat="68.77866666326996" lon="14.453602770059362" id="-27088">
		<tag k="name" v="Natthagan" />
		<tag k="natural" v="hill" />
		<tag k="place" v="locality" />
		<tag k="ssr:stedsnr" v="581310" />
	</node>
	<node lat="68.68296666661003" lon="14.483525011542506" id="-27092">
		<tag k="name" v="Svarthaugen" />
		<tag k="natural" v="hill" />
		<tag k="place" v="locality" />
		<tag k="ssr:stedsnr" v="582380" />
	</node>
	<node lat="68.61032777546312" lon="14.474950011549973" id="-27095">
		<tag k="name" v="Vindhamran" />
		<tag k="natural" v="hill" />
		<tag k="place" v="locality" />
		<tag k="ssr:stedsnr" v="582429" />
	</node>
	<node lat="68.6693388899496" lon="14.413827776036888" id="-27096">
		<tag k="name" v="Pølshammaren" />
		<tag k="natural" v="hill" />
		<tag k="place" v="locality" />
		<tag k="ssr:stedsnr" v="582533" />
	</node>
	<node lat="68.66486388813557" lon="14.406405545183063" id="-27098">
		<tag k="name" v="Tjuvsmoget" />
		<tag k="natural" v="valley" />
		<tag k="place" v="locality" />
		<tag k="ssr:stedsnr" v="582583" />
	</node>
	<node lat="68.67633055373379" lon="14.762133337523405" id="-27099">
		<tag k="fixme" v="consider natural=peak for the most distinct mountains in the district" />
		<tag k="name" v="Bjørnåsen" />
		<tag k="natural" v="hill" />
		<tag k="place" v="locality" />
		<tag k="ssr:stedsnr" v="585436" />
	</node>
	<node lat="68.73239722442192" lon="14.544586115772256" id="-27102">
		<tag k="name" v="Dagfinnhaugen" />
		<tag k="natural" v="hill" />
		<tag k="place" v="locality" />
		<tag k="ssr:stedsnr" v="601228" />
	</node>
	<node lat="68.67287777749964" lon="14.64809445291306" id="-27104">
		<tag k="name" v="Langfjordhaugen" />
		<tag k="natural" v="hill" />
		<tag k="place" v="locality" />
		<tag k="ssr:stedsnr" v="601293" />
	</node>
	<node lat="68.64288888768223" lon="14.561611101504566" id="-27111">
		<tag k="name" v="Skjellrana" />
		<tag k="natural" v="slope" />
		<tag k="place" v="locality" />
		<tag k="ssr:stedsnr" v="604248" />
	</node>
	<node lat="68.65897777456463" lon="14.600816669071877" id="-27112">
		<tag k="name" v="Elvhaugen" />
		<tag k="natural" v="hill" />
		<tag k="place" v="locality" />
		<tag k="ssr:stedsnr" v="605189" />
	</node>
	<node lat="68.66425277492952" lon="14.509694441743944" id="-27114">
		<tag k="name" v="Tortnebakken" />
		<tag k="natural" v="slope" />
		<tag k="place" v="locality" />
		<tag k="ssr:stedsnr" v="605215" />
	</node>
	<node lat="68.7436277817962" lon="14.5730027803902" id="-27119">
		<tag k="fixme" v="consider natural=peak for the most distinct mountains in the district" />
		<tag k="name" v="Klubben" />
		<tag k="natural" v="hill" />
		<tag k="place" v="locality" />
		<tag k="ssr:stedsnr" v="623363" />
	</node>
	<node lat="68.72370833051248" lon="14.772641663745778" id="-27124">
		<tag k="fixme" v="consider natural=peak for the most distinct mountains in the district" />
		<tag k="name" v="Jørlandstinden" />
		<tag k="natural" v="hill" />
		<tag k="place" v="locality" />
		<tag k="ssr:stedsnr" v="624278" />
	</node>
	<node lat="68.62208333266415" lon="14.500880549566416" id="-27131">
		<tag k="name" v="Steinedalen" />
		<tag k="natural" v="valley" />
		<tag k="place" v="locality" />
		<tag k="ssr:stedsnr" v="624521" />
	</node>
	<node lat="68.77940833444534" lon="14.557433343670052" id="-27132">
		<tag k="fixme" v="consider natural=peak for the most distinct mountains in the district" />
		<tag k="name" v="Selvågtinden" />
		<tag k="natural" v="hill" />
		<tag k="place" v="locality" />
		<tag k="ssr:stedsnr" v="624524" />
	</node>
	<node lat="68.75833333196644" lon="14.54056943379286" id="-27135">
		<tag k="fixme" v="consider natural=peak for the most distinct mountains in the district" />
		<tag k="name" v="Mannen" />
		<tag k="natural" v="hill" />
		<tag k="place" v="locality" />
		<tag k="ssr:stedsnr" v="624540" />
	</node>
	<node lat="68.64268333642958" lon="14.545324989318923" id="-27138">
		<tag k="fixme" v="consider natural=peak for the most distinct mountains in the district" />
		<tag k="name" v="Nåla" />
		<tag k="natural" v="hill" />
		<tag k="place" v="locality" />
		<tag k="ssr:stedsnr" v="624679" />
	</node>
	<node lat="68.80883055636077" lon="14.686883321916769" id="-27140">
		<tag k="fixme" v="consider natural=peak for the most distinct mountains in the district" />
		<tag k="name" v="Staven" />
		<tag k="natural" v="hill" />
		<tag k="place" v="locality" />
		<tag k="ssr:stedsnr" v="624692" />
	</node>
	<node lat="68.67465000382602" lon="14.569613890971471" id="-27143">
		<tag k="fixme" v="consider natural=peak for the most distinct mountains in the district" />
		<tag k="name" v="Heståsen" />
		<tag k="natural" v="hill" />
		<tag k="place" v="locality" />
		<tag k="ssr:stedsnr" v="624633" />
	</node>
	<node lat="68.67570833141133" lon="14.42439445368621" id="-27144">
		<tag k="name" v="Naddan" />
		<tag k="natural" v="hill" />
		<tag k="place" v="locality" />
		<tag k="ssr:stedsnr" v="624642" />
	</node>
	<node lat="68.82984999685395" lon="14.662449996925906" id="-27147">
		<tag k="name" v="Kassurdalen" />
		<tag k="natural" v="valley" />
		<tag k="place" v="locality" />
		<tag k="ssr:stedsnr" v="624854" />
	</node>
	<node lat="68.79586944169786" lon="14.571402772299836" id="-27148">
		<tag k="fixme" v="consider natural=peak for the most distinct mountains in the district" />
		<tag k="name" v="Mannfalltinden" />
		<tag k="natural" v="hill" />
		<tag k="place" v="locality" />
		<tag k="ssr:stedsnr" v="624961" />
	</node>
	<node lat="68.68677221974774" lon="14.381136100876859" id="-27150">
		<tag k="name" v="Geitstien" />
		<tag k="natural" v="slope" />
		<tag k="place" v="locality" />
		<tag k="ssr:stedsnr" v="627239" />
	</node>
	<node lat="68.69133611140305" lon="14.414605554236182" id="-27151">
		<tag k="name" v="Dørholet" />
		<tag k="natural" v="valley" />
		<tag k="place" v="locality" />
		<tag k="ssr:stedsnr" v="627064" />
	</node>
	<node lat="68.67951667070196" lon="14.446349992034115" id="-27152">
		<tag k="name" v="Ørntuva" />
		<tag k="natural" v="hill" />
		<tag k="place" v="locality" />
		<tag k="ssr:stedsnr" v="627069" />
	</node>
	<node lat="68.67911666798068" lon="14.423438894036053" id="-27154">
		<tag k="name" v="Krumsvåghaugen" />
		<tag k="natural" v="hill" />
		<tag k="place" v="locality" />
		<tag k="ssr:stedsnr" v="627037" />
	</node>
	<node lat="68.68266666868942" lon="14.413083334047695" id="-27155">
		<tag k="name" v="Grindhågen" />
		<tag k="natural" v="hill" />
		<tag k="place" v="locality" />
		<tag k="ssr:stedsnr" v="627043" />
	</node>
	<node lat="68.70731666539459" lon="14.444691676810603" id="-27160">
		<tag k="name" v="Flotan" />
		<tag k="natural" v="hill" />
		<tag k="place" v="locality" />
		<tag k="ssr:stedsnr" v="627276" />
	</node>
	<node lat="68.61105740806313" lon="14.47162271209193" id="-27161">
		<tag k="fixme" v="consider natural=peak for the most distinct mountains in the district" />
		<tag k="name" v="Vindhamran" />
		<tag k="natural" v="hill" />
		<tag k="place" v="locality" />
		<tag k="ssr:stedsnr" v="642273" />
	</node>
	<node lat="68.81500833295354" lon="14.547505561814406" id="-27165">
		<tag k="name" v="Sankthanshaugen" />
		<tag k="natural" v="hill" />
		<tag k="place" v="locality" />
		<tag k="ssr:stedsnr" v="642319" />
	</node>
	<node lat="68.63422777759523" lon="14.471536111602338" id="-27166">
		<tag k="name" v="Bertelslåghaugen" />
		<tag k="natural" v="hill" />
		<tag k="place" v="locality" />
		<tag k="ssr:stedsnr" v="643505" />
	</node>
	<node lat="68.62840833229524" lon="14.41801943427507" id="-27167">
		<tag k="name" v="Otergrenna" />
		<tag k="place" v="locality" />
		<tag k="ssr:stedsnr" v="642134" />
	</node>
	<node lat="68.6293444422084" lon="14.47295555429435" id="-27168">
		<tag k="name" v="Grottan" />
		<tag k="place" v="locality" />
		<tag k="ssr:stedsnr" v="642163" />
	</node>
	<node lat="68.61244722568611" lon="14.46494722865804" id="-27170">
		<tag k="name" v="Moshaugen" />
		<tag k="natural" v="hill" />
		<tag k="place" v="locality" />
		<tag k="ssr:stedsnr" v="642170" />
	</node>
	<node lat="68.66161666584027" lon="14.456483328351887" id="-27172">
		<tag k="name" v="Sandbakken" />
		<tag k="natural" v="slope" />
		<tag k="place" v="locality" />
		<tag k="ssr:stedsnr" v="642244" />
	</node>
	<node lat="68.66105555365984" lon="14.463516675275425" id="-27174">
		<tag k="name" v="Tøa" />
		<tag k="place" v="locality" />
		<tag k="ssr:stedsnr" v="642269" />
	</node>
	<node lat="68.61737499814654" lon="14.485697219192348" id="-27179">
		<tag k="name" v="Brennahaugen" />
		<tag k="natural" v="hill" />
		<tag k="place" v="locality" />
		<tag k="ssr:stedsnr" v="642571" />
	</node>
	<node lat="68.74074722190251" lon="14.57884165713542" id="-27183">
		<tag k="alt_name" v="Eidslian" />
		<tag k="name" v="Lian" />
		<tag k="natural" v="slope" />
		<tag k="place" v="locality" />
		<tag k="ssr:stedsnr" v="646250" />
	</node>
	<node lat="68.67658611171933" lon="14.579975012413021" id="-27186">
		<tag k="fixme" v="consider natural=peak for the most distinct mountains in the district" />
		<tag k="name" v="Lågfjellet" />
		<tag k="natural" v="hill" />
		<tag k="place" v="locality" />
		<tag k="ssr:stedsnr" v="661177" />
	</node>
	<node lat="68.68172500100934" lon="14.60230832261625" id="-27187">
		<tag k="fixme" v="consider natural=peak for the most distinct mountains in the district" />
		<tag k="name" v="Storskogåsen" />
		<tag k="natural" v="hill" />
		<tag k="place" v="locality" />
		<tag k="ssr:stedsnr" v="661261" />
	</node>
	<node lat="68.75062221764422" lon="14.500277781734722" id="-27188">
		<tag k="name" v="Kvalvik" />
		<tag k="natural" v="slope" />
		<tag k="place" v="locality" />
		<tag k="ssr:stedsnr" v="661265" />
	</node>
	<node lat="68.65973333519702" lon="14.650616660604548" id="-27189">
		<tag k="name" v="Lynghaugen" />
		<tag k="natural" v="hill" />
		<tag k="place" v="locality" />
		<tag k="ssr:stedsnr" v="661378" />
	</node>
	<node lat="68.65632222633018" lon="14.635652784418026" id="-27190">
		<tag k="name" v="Sankthanshaugen" />
		<tag k="natural" v="hill" />
		<tag k="place" v="locality" />
		<tag k="ssr:stedsnr" v="661379" />
	</node>
	<node lat="68.76464166288422" lon="14.735883320143543" id="-27191">
		<tag k="name" v="Klubbvalhågen" />
		<tag k="natural" v="hill" />
		<tag k="place" v="locality" />
		<tag k="ssr:stedsnr" v="662585" />
	</node>
	<node lat="68.6850777754845" lon="14.722302773968243" id="-27192">
		<tag k="name" v="Stien" />
		<tag k="natural" v="slope" />
		<tag k="place" v="locality" />
		<tag k="ssr:stedsnr" v="662479" />
	</node>
	<node lat="68.78006944195387" lon="14.669600000637471" id="-27194">
		<tag k="fixme" v="consider natural=peak for the most distinct mountains in the district" />
		<tag k="name" v="Hesthaugfjellet" />
		<tag k="natural" v="hill" />
		<tag k="place" v="locality" />
		<tag k="ssr:stedsnr" v="662620" />
	</node>
	<node lat="68.74183889238584" lon="14.72206388611592" id="-27195">
		<tag k="name" v="Kråkhaugen" />
		<tag k="natural" v="hill" />
		<tag k="place" v="locality" />
		<tag k="ssr:stedsnr" v="662579" />
	</node>
	<node lat="68.63818333559274" lon="14.566549997684579" id="-27196">
		<tag k="name" v="Lakomhaugen" />
		<tag k="natural" v="hill" />
		<tag k="place" v="locality" />
		<tag k="ssr:stedsnr" v="665252" />
	</node>
	<node lat="68.67427222000661" lon="14.495058339177712" id="-27198">
		<tag k="name" v="Julskoka" />
		<tag k="natural" v="valley" />
		<tag k="place" v="locality" />
		<tag k="ssr:stedsnr" v="666078" />
	</node>
	<node lat="68.65942499697763" lon="14.671205550219252" id="-27203">
		<tag k="name" v="Bratthaugen" />
		<tag k="natural" v="hill" />
		<tag k="place" v="locality" />
		<tag k="ssr:stedsnr" v="722394" />
	</node>
	<node lat="68.68100278033397" lon="14.65284721984233" id="-27205">
		<tag k="fixme" v="consider natural=peak for the most distinct mountains in the district" />
		<tag k="name" v="Grønnkollen" />
		<tag k="natural" v="hill" />
		<tag k="place" v="locality" />
		<tag k="ssr:stedsnr" v="722483" />
	</node>
	<node lat="68.75575278101239" lon="14.654699989512308" id="-27206">
		<tag k="name" v="Karilarsdotterhaugen" />
		<tag k="natural" v="hill" />
		<tag k="place" v="locality" />
		<tag k="ssr:stedsnr" v="722528" />
	</node>
	<node lat="68.76496111309626" lon="14.764083342081019" id="-27207">
		<tag k="name" v="Svartbergan" />
		<tag k="natural" v="hill" />
		<tag k="place" v="locality" />
		<tag k="ssr:stedsnr" v="722593" />
	</node>
	<node lat="68.63599166795862" lon="14.62409999090304" id="-27208">
		<tag k="name" v="Mølnhaugen" />
		<tag k="natural" v="hill" />
		<tag k="place" v="locality" />
		<tag k="ssr:stedsnr" v="726228" />
	</node>
	<node lat="68.7268472223512" lon="14.759719441729143" id="-27214">
		<tag k="fixme" v="consider natural=peak for the most distinct mountains in the district" />
		<tag k="name" v="Salen" />
		<tag k="natural" v="hill" />
		<tag k="place" v="locality" />
		<tag k="ssr:stedsnr" v="745282" />
	</node>
	<node lat="68.74584722537354" lon="14.820322225685477" id="-27219">
		<tag k="fixme" v="multiple name tags, choose one and add the other to alt_name; consider natural=peak for the most distinct mountains in the district" />
		<tag k="name" v="Skjelltinden;Kuskartinden" />
		<tag k="natural" v="hill" />
		<tag k="place" v="locality" />
		<tag k="ssr:stedsnr" v="745384" />
	</node>
	<node lat="68.77097221909409" lon="14.5577805469783" id="-27221">
		<tag k="fixme" v="consider natural=peak for the most distinct mountains in the district" />
		<tag k="name" v="Sandfjellet" />
		<tag k="natural" v="hill" />
		<tag k="place" v="locality" />
		<tag k="ssr:stedsnr" v="745518" />
	</node>
	<node lat="68.69439999924697" lon="14.552075008802898" id="-27222">
		<tag k="fixme" v="consider natural=peak for the most distinct mountains in the district" />
		<tag k="name" v="Veggfjellet" />
		<tag k="natural" v="hill" />
		<tag k="place" v="locality" />
		<tag k="ssr:stedsnr" v="745696" />
	</node>
	<node lat="68.70439999822644" lon="14.463558326262742" id="-27230">
		<tag k="name" v="Vete" />
		<tag k="natural" v="valley" />
		<tag k="place" v="locality" />
		<tag k="ssr:stedsnr" v="746299" />
	</node>
	<node lat="68.65311388592977" lon="14.56226389603989" id="-27233">
		<tag k="fixme" v="consider natural=peak for the most distinct mountains in the district" />
		<tag k="name" v="Rambergtinden" />
		<tag k="natural" v="hill" />
		<tag k="place" v="locality" />
		<tag k="ssr:stedsnr" v="746687" />
	</node>
	<node lat="68.76636944351701" lon="14.66307222221983" id="-27237">
		<tag k="name" v="Høgdene" />
		<tag k="natural" v="hill" />
		<tag k="place" v="locality" />
		<tag k="ssr:stedsnr" v="746557" />
	</node>
	<node lat="68.75074721922404" lon="14.863177782373546" id="-27239">
		<tag k="fixme" v="multiple name tags, choose one and add the other to alt_name; consider natural=peak for the most distinct mountains in the district" />
		<tag k="name" v="Blåtinden;Blåfjellet" />
		<tag k="natural" v="hill" />
		<tag k="place" v="locality" />
		<tag k="ssr:stedsnr" v="746846" />
	</node>
	<node lat="68.795930555599" lon="14.67733333097841" id="-27242">
		<tag k="fixme" v="consider natural=peak for the most distinct mountains in the district" />
		<tag k="name" v="Hesthauskneet" />
		<tag k="natural" v="hill" />
		<tag k="place" v="locality" />
		<tag k="ssr:stedsnr" v="746955" />
	</node>
	<node lat="68.68933055915517" lon="14.453100002261513" id="-27243">
		<tag k="name" v="Geithamran" />
		<tag k="natural" v="hill" />
		<tag k="place" v="locality" />
		<tag k="ssr:stedsnr" v="749044" />
	</node>
	<node lat="68.6981638933149" lon="14.473486105546925" id="-27245">
		<tag k="name" v="Oppsåtskaret" />
		<tag k="natural" v="valley" />
		<tag k="place" v="locality" />
		<tag k="ssr:stedsnr" v="749151" />
	</node>
	<node lat="68.70225079560824" lon="14.440947864397039" id="-27246">
		<tag k="name" v="Bratthaugen" />
		<tag k="natural" v="hill" />
		<tag k="place" v="locality" />
		<tag k="ssr:stedsnr" v="749243" />
	</node>
	<node lat="68.69989722082659" lon="14.451263880901948" id="-27247">
		<tag k="name" v="Munnhaugen" />
		<tag k="natural" v="hill" />
		<tag k="place" v="locality" />
		<tag k="ssr:stedsnr" v="749245" />
	</node>
	<node lat="68.71446389091516" lon="14.432002786071223" id="-27249">
		<tag k="name" v="Grønnåslian" />
		<tag k="natural" v="slope" />
		<tag k="place" v="locality" />
		<tag k="ssr:stedsnr" v="749256" />
	</node>
	<node lat="68.62906666614906" lon="14.62072499405505" id="-27253">
		<tag k="name" v="Nonshaugbergan" />
		<tag k="natural" v="hill" />
		<tag k="place" v="locality" />
		<tag k="ssr:stedsnr" v="764286" />
	</node>
	<node lat="68.65011389117717" lon="14.444530551789471" id="-27258">
		<tag k="name" v="Middagshaugen" />
		<tag k="natural" v="hill" />
		<tag k="place" v="locality" />
		<tag k="ssr:stedsnr" v="764237" />
	</node>
	<node lat="68.6177694470273" lon="14.488958322994906" id="-27263">
		<tag k="name" v="Brenna" />
		<tag k="natural" v="hill" />
		<tag k="place" v="locality" />
		<tag k="ssr:stedsnr" v="764566" />
	</node>
	<node lat="68.6249583352189" lon="14.490366660117804" id="-27265">
		<tag k="fixme" v="consider natural=peak for the most distinct mountains in the district" />
		<tag k="name" v="Storstruten" />
		<tag k="natural" v="hill" />
		<tag k="place" v="locality" />
		<tag k="ssr:stedsnr" v="764729" />
	</node>
	<node lat="68.7503194484389" lon="14.471211099823396" id="-27268">
		<tag k="name" v="Sandvikkleiva" />
		<tag k="natural" v="slope" />
		<tag k="place" v="locality" />
		<tag k="ssr:stedsnr" v="781297" />
	</node>
	<node lat="68.76112222137998" lon="14.739041667627255" id="-27272">
		<tag k="name" v="Nonshågen" />
		<tag k="natural" v="hill" />
		<tag k="place" v="locality" />
		<tag k="ssr:stedsnr" v="783569" />
	</node>
	<node lat="68.69167777518487" lon="14.72786666713159" id="-27276">
		<tag k="fixme" v="consider natural=peak for the most distinct mountains in the district" />
		<tag k="name" v="Langåsen" />
		<tag k="natural" v="hill" />
		<tag k="place" v="locality" />
		<tag k="ssr:stedsnr" v="784513" />
	</node>
	<node lat="68.77673055286576" lon="14.512219451201597" id="-27277">
		<tag k="name" v="Groveleithaugen" />
		<tag k="natural" v="hill" />
		<tag k="place" v="locality" />
		<tag k="ssr:stedsnr" v="785326" />
	</node>
	<node lat="68.66005833444498" lon="14.507150004977012" id="-27278">
		<tag k="fixme" v="consider natural=peak for the most distinct mountains in the district" />
		<tag k="name" v="Einåsen" />
		<tag k="natural" v="hill" />
		<tag k="place" v="locality" />
		<tag k="ssr:stedsnr" v="787164" />
	</node>
	<node lat="68.6744861071285" lon="14.538347221025335" id="-27279">
		<tag k="name" v="Billehaugen" />
		<tag k="natural" v="hill" />
		<tag k="place" v="locality" />
		<tag k="ssr:stedsnr" v="787168" />
	</node>
	<node lat="68.67279999668746" lon="14.537594439941145" id="-27280">
		<tag k="name" v="Langhaugen" />
		<tag k="natural" v="hill" />
		<tag k="place" v="locality" />
		<tag k="ssr:stedsnr" v="787172" />
	</node>
	<node lat="68.66824444148104" lon="14.525272224721833" id="-27282">
		<tag k="name" v="Buskarkråa" />
		<tag k="natural" v="slope" />
		<tag k="place" v="locality" />
		<tag k="ssr:stedsnr" v="787178" />
	</node>
	<node lat="68.6536055534212" lon="14.604702765591195" id="-27283">
		<tag k="name" v="Storklubben" />
		<tag k="natural" v="hill" />
		<tag k="place" v="locality" />
		<tag k="ssr:stedsnr" v="787141" />
	</node>
	<node lat="68.63619444375068" lon="14.627638876421106" id="-27284">
		<tag k="name" v="Grindberget" />
		<tag k="natural" v="hill" />
		<tag k="place" v="locality" />
		<tag k="ssr:stedsnr" v="787222" />
	</node>
	<node lat="68.71698888564485" lon="14.531666668826258" id="-27285">
		<tag k="name" v="Presthaugen" />
		<tag k="natural" v="hill" />
		<tag k="place" v="locality" />
		<tag k="ssr:stedsnr" v="787223" />
	</node>
	<node lat="68.63446111259391" lon="14.5556749979915" id="-27287">
		<tag k="name" v="Svartbergan" />
		<tag k="natural" v="hill" />
		<tag k="place" v="locality" />
		<tag k="ssr:stedsnr" v="787232" />
	</node>
	<node lat="68.69278333145914" lon="14.519305550263523" id="-27292">
		<tag k="fixme" v="consider natural=peak for the most distinct mountains in the district" />
		<tag k="name" v="Rundtuva" />
		<tag k="natural" v="hill" />
		<tag k="place" v="locality" />
		<tag k="ssr:stedsnr" v="806687" />
	</node>
	<node lat="68.72190000178479" lon="14.487474997863337" id="-27293">
		<tag k="fixme" v="consider natural=peak for the most distinct mountains in the district" />
		<tag k="name" v="Åsandtinden" />
		<tag k="natural" v="hill" />
		<tag k="place" v="locality" />
		<tag k="ssr:stedsnr" v="806289" />
	</node>
	<node lat="68.76546110794553" lon="14.467427787585773" id="-27306">
		<tag k="fixme" v="consider natural=peak for the most distinct mountains in the district" />
		<tag k="name" v="Bufjellet" />
		<tag k="natural" v="hill" />
		<tag k="place" v="locality" />
		<tag k="ssr:stedsnr" v="806489" />
	</node>
	<node lat="68.77614444151905" lon="14.640275006281257" id="-27308">
		<tag k="fixme" v="consider natural=peak for the most distinct mountains in the district" />
		<tag k="loc_name" v="Dypttinden" />
		<tag k="name" v="Dyptinden" />
		<tag k="natural" v="hill" />
		<tag k="place" v="locality" />
		<tag k="ssr:stedsnr" v="806517" />
	</node>
	<node lat="68.64489999755297" lon="14.536219445875629" id="-27311">
		<tag k="fixme" v="consider natural=peak for the most distinct mountains in the district" />
		<tag k="name" v="Heggedalsbruna" />
		<tag k="natural" v="hill" />
		<tag k="place" v="locality" />
		<tag k="ssr:stedsnr" v="806732" />
	</node>
	<node lat="68.65012221862017" lon="14.498680552321918" id="-27312">
		<tag k="fixme" v="consider natural=peak for the most distinct mountains in the district" />
		<tag k="name" v="Soppåsen" />
		<tag k="natural" v="hill" />
		<tag k="place" v="locality" />
		<tag k="ssr:stedsnr" v="806736" />
	</node>
	<node lat="68.70891389275731" lon="14.701063890606328" id="-27317">
		<tag k="fixme" v="consider natural=peak for the most distinct mountains in the district" />
		<tag k="name" v="Skorpheia" />
		<tag k="natural" v="hill" />
		<tag k="place" v="locality" />
		<tag k="ssr:stedsnr" v="807268" />
	</node>
	<node lat="68.70208610696443" lon="14.544630560995921" id="-27318">
		<tag k="fixme" v="consider natural=peak for the most distinct mountains in the district" />
		<tag k="name" v="Skredtinden" />
		<tag k="natural" v="hill" />
		<tag k="place" v="locality" />
		<tag k="ssr:stedsnr" v="807284" />
	</node>
	<node lat="68.6682333329037" lon="14.403402779203441" id="-27324">
		<tag k="fixme" v="consider natural=peak for the most distinct mountains in the district" />
		<tag k="name" v="Gullstabben" />
		<tag k="natural" v="hill" />
		<tag k="place" v="locality" />
		<tag k="ssr:stedsnr" v="807387" />
	</node>
	<node lat="68.75716110717882" lon="14.746433339349082" id="-27327">
		<tag k="alt_name" v="Ravnfloget" />
		<tag k="fixme" v="consider natural=peak for the most distinct mountains in the district" />
		<tag k="name" v="Ramnfloget" />
		<tag k="natural" v="hill" />
		<tag k="place" v="locality" />
		<tag k="ssr:stedsnr" v="807526" />
	</node>
	<node lat="68.76499444542142" lon="14.789166658779516" id="-27329">
		<tag k="name" v="Skallskaret" />
		<tag k="natural" v="valley" />
		<tag k="place" v="locality" />
		<tag k="ssr:stedsnr" v="807552" />
	</node>
	<node lat="68.66603333201455" lon="14.554236110014914" id="-27332">
		<tag k="fixme" v="consider natural=peak for the most distinct mountains in the district" />
		<tag k="name" v="Veatinden" />
		<tag k="natural" v="hill" />
		<tag k="place" v="locality" />
		<tag k="ssr:stedsnr" v="807714" />
	</node>
	<node lat="68.66571666858634" lon="14.572419454052238" id="-27333">
		<tag k="fixme" v="consider natural=peak for the most distinct mountains in the district" />
		<tag k="name" v="Bjørntinden" />
		<tag k="natural" v="hill" />
		<tag k="place" v="locality" />
		<tag k="ssr:stedsnr" v="807716" />
	</node>
	<node lat="68.7900972181815" lon="14.659855563256038" id="-27341">
		<tag k="alt_name" v="Storriva" />
		<tag k="fixme" v="consider natural=peak for the most distinct mountains in the district" />
		<tag k="name" v="Høgriven" />
		<tag k="natural" v="hill" />
		<tag k="place" v="locality" />
		<tag k="ssr:stedsnr" v="807961" />
	</node>
	<node lat="68.79003055362243" lon="14.535936120188405" id="-27342">
		<tag k="fixme" v="consider natural=peak for the most distinct mountains in the district" />
		<tag k="name" v="Siktartinden" />
		<tag k="natural" v="hill" />
		<tag k="place" v="locality" />
		<tag k="ssr:stedsnr" v="807963" />
	</node>
	<node lat="68.6836166686733" lon="14.428413898899086" id="-27345">
		<tag k="name" v="Mundsletta" />
		<tag k="place" v="locality" />
		<tag k="ssr:stedsnr" v="810054" />
	</node>
	<node lat="68.69486110857643" lon="14.46938332385471" id="-27346">
		<tag k="name" v="Fjørkamhaugen" />
		<tag k="natural" v="hill" />
		<tag k="place" v="locality" />
		<tag k="ssr:stedsnr" v="810071" />
	</node>
	<node lat="68.71177499726008" lon="14.434399987423427" id="-27349">
		<tag k="name" v="Kjerringheistien" />
		<tag k="natural" v="hill" />
		<tag k="place" v="locality" />
		<tag k="ssr:stedsnr" v="810153" />
	</node>
	<node lat="68.70421879930221" lon="14.435610395817735" id="-27350">
		<tag k="name" v="Grindbakken" />
		<tag k="natural" v="slope" />
		<tag k="place" v="locality" />
		<tag k="ssr:stedsnr" v="810162" />
	</node>
	<node lat="68.70245000189279" lon="14.442822232024605" id="-27352">
		<tag k="name" v="Svingjerdet" />
		<tag k="natural" v="valley" />
		<tag k="place" v="locality" />
		<tag k="ssr:stedsnr" v="810231" />
	</node>
	<node lat="68.70432890338537" lon="14.437512094993405" id="-27353">
		<tag k="name" v="Karihaugen" />
		<tag k="natural" v="hill" />
		<tag k="place" v="locality" />
		<tag k="ssr:stedsnr" v="810235" />
	</node>
	<node lat="68.70560000322295" lon="14.445091663107235" id="-27354">
		<tag k="name" v="Tverrfjellet" />
		<tag k="natural" v="hill" />
		<tag k="place" v="locality" />
		<tag k="ssr:stedsnr" v="810236" />
	</node>
	<node lat="68.69922222031343" lon="14.407849998183208" id="-27355">
		<tag k="name" v="Små-Sendingsnakken" />
		<tag k="natural" v="ridge" />
		<tag k="place" v="locality" />
		<tag k="ssr:stedsnr" v="810254" />
	</node>
	<node lat="68.70699166752084" lon="14.43628611058826" id="-27356">
		<tag k="name" v="Kjerringheiresen" />
		<tag k="place" v="locality" />
		<tag k="ssr:stedsnr" v="810261" />
	</node>
	<node lat="68.6444416638546" lon="14.456899994294282" id="-27358">
		<tag k="name" v="Søndagshola" />
		<tag k="natural" v="hill" />
		<tag k="place" v="locality" />
		<tag k="ssr:stedsnr" v="825218" />
	</node>
	<node lat="68.77681666504829" lon="14.469416672685202" id="-27363">
		<tag k="name" v="Buan" />
		<tag k="place" v="locality" />
		<tag k="ssr:stedsnr" v="825248" />
	</node>
	<node lat="68.64876944130178" lon="14.46107777143698" id="-27370">
		<tag k="fixme" v="consider natural=peak for the most distinct mountains in the district" />
		<tag k="name" v="Durmålsstokkan" />
		<tag k="natural" v="hill" />
		<tag k="place" v="locality" />
		<tag k="ssr:stedsnr" v="825206" />
	</node>
	<node lat="68.67634444137359" lon="14.52542221328574" id="-27376">
		<tag k="name" v="Maglinhaugen" />
		<tag k="natural" v="hill" />
		<tag k="place" v="locality" />
		<tag k="ssr:stedsnr" v="825331" />
	</node>
	<node lat="68.628713888136" lon="14.536855560372315" id="-27377">
		<tag k="name" v="Øverbrekka" />
		<tag k="natural" v="slope" />
		<tag k="place" v="locality" />
		<tag k="ssr:stedsnr" v="825732" />
	</node>
	<node lat="68.73304166477543" lon="14.821858338752365" id="-27378">
		<tag k="name" v="Storhaugen" />
		<tag k="natural" v="hill" />
		<tag k="place" v="locality" />
		<tag k="ssr:stedsnr" v="842242" />
	</node>
	<node lat="68.65908611017475" lon="14.616080546804682" id="-27380">
		<tag k="name" v="Storhaugen" />
		<tag k="natural" v="hill" />
		<tag k="place" v="locality" />
		<tag k="ssr:stedsnr" v="848164" />
	</node>
	<node lat="68.71581388875182" lon="14.641488899840516" id="-27391">
		<tag k="name" v="Hansnilsahaugen" />
		<tag k="natural" v="hill" />
		<tag k="place" v="locality" />
		<tag k="ssr:stedsnr" v="867321" />
	</node>
	<node lat="68.73719999670234" lon="14.803277785325573" id="-27395">
		<tag k="fixme" v="consider natural=peak for the most distinct mountains in the district" />
		<tag k="name" v="Reindalshumpan" />
		<tag k="natural" v="hill" />
		<tag k="place" v="locality" />
		<tag k="ssr:stedsnr" v="867384" />
	</node>
	<node lat="68.76555833266782" lon="14.510697233254644" id="-27406">
		<tag k="fixme" v="consider natural=peak for the most distinct mountains in the district" />
		<tag k="name" v="Sleipsteinsfjellet" />
		<tag k="natural" v="hill" />
		<tag k="place" v="locality" />
		<tag k="ssr:stedsnr" v="867513" />
	</node>
	<node lat="68.61099722194096" lon="14.515844454903522" id="-27411">
		<tag k="fixme" v="consider natural=peak for the most distinct mountains in the district" />
		<tag k="name" v="Mårsundfjellet" />
		<tag k="natural" v="hill" />
		<tag k="place" v="locality" />
		<tag k="ssr:stedsnr" v="867527" />
	</node>
	<node lat="68.63149722160506" lon="14.484880565264318" id="-27414">
		<tag k="fixme" v="consider natural=peak for the most distinct mountains in the district" />
		<tag k="name" v="Heståsen" />
		<tag k="natural" v="hill" />
		<tag k="place" v="locality" />
		<tag k="ssr:stedsnr" v="867546" />
	</node>
	<node lat="68.67494999621668" lon="14.496127783727266" id="-27419">
		<tag k="fixme" v="consider natural=peak for the most distinct mountains in the district" />
		<tag k="name" v="Holsnakken" />
		<tag k="natural" v="hill" />
		<tag k="place" v="locality" />
		<tag k="ssr:stedsnr" v="867660" />
	</node>
	<node lat="68.68644166910744" lon="14.663661113183778" id="-27420">
		<tag k="fixme" v="consider natural=peak for the most distinct mountains in the district" />
		<tag k="name" v="Andberget" />
		<tag k="natural" v="hill" />
		<tag k="place" v="locality" />
		<tag k="ssr:stedsnr" v="867663" />
	</node>
	<node lat="68.68968055754878" lon="14.650444445062922" id="-27423">
		<tag k="fixme" v="consider natural=peak for the most distinct mountains in the district" />
		<tag k="name" v="Hornfjellet" />
		<tag k="natural" v="hill" />
		<tag k="place" v="locality" />
		<tag k="ssr:stedsnr" v="867687" />
	</node>
	<node lat="68.71668333735693" lon="14.745583323395227" id="-27431">
		<tag k="name" v="Rundsteinheia" />
		<tag k="natural" v="hill" />
		<tag k="place" v="locality" />
		<tag k="ssr:stedsnr" v="868265" />
	</node>
	<node lat="68.65880555758918" lon="14.464480561310697" id="-27438">
		<tag k="name" v="Blåbærhaugen" />
		<tag k="natural" v="hill" />
		<tag k="place" v="locality" />
		<tag k="ssr:stedsnr" v="868684" />
	</node>
	<node lat="68.81057222062144" lon="14.644833341147454" id="-27441">
		<tag k="alt_name" v="Spikertinden" />
		<tag k="fixme" v="consider natural=peak for the most distinct mountains in the district" />
		<tag k="name" v="Spikartinden" />
		<tag k="natural" v="hill" />
		<tag k="place" v="locality" />
		<tag k="ssr:stedsnr" v="868889" />
	</node>
	<node lat="68.68286389049565" lon="14.4042722168041" id="-27446">
		<tag k="name" v="Gutebergan" />
		<tag k="natural" v="hill" />
		<tag k="place" v="locality" />
		<tag k="ssr:stedsnr" v="871043" />
	</node>
	<node lat="68.68030277854628" lon="14.406452767351348" id="-27451">
		<tag k="name" v="Nonberget" />
		<tag k="natural" v="hill" />
		<tag k="place" v="locality" />
		<tag k="ssr:stedsnr" v="871187" />
	</node>
	<node lat="68.68377777825988" lon="14.38509722924953" id="-27452">
		<tag k="name" v="Haglibakkan" />
		<tag k="natural" v="slope" />
		<tag k="place" v="locality" />
		<tag k="ssr:stedsnr" v="871188" />
	</node>
	<node lat="68.68383889156152" lon="14.421277775360904" id="-27457">
		<tag k="name" v="Dalhaugen" />
		<tag k="natural" v="hill" />
		<tag k="place" v="locality" />
		<tag k="ssr:stedsnr" v="871037" />
	</node>
	<node lat="68.69725277827038" lon="14.44510278367509" id="-27459">
		<tag k="name" v="Ørntuva" />
		<tag k="natural" v="hill" />
		<tag k="place" v="locality" />
		<tag k="ssr:stedsnr" v="871056" />
	</node>
	<node lat="68.62452499529348" lon="14.5363527855967" id="-27462">
		<tag k="name" v="Steinbrekka" />
		<tag k="natural" v="slope" />
		<tag k="place" v="locality" />
		<tag k="ssr:stedsnr" v="885664" />
	</node>
	<node lat="68.6312805527488" lon="14.52770276592066" id="-27463">
		<tag k="name" v="Hestgrova" />
		<tag k="natural" v="slope" />
		<tag k="place" v="locality" />
		<tag k="ssr:stedsnr" v="885728" />
	</node>
	<node lat="68.61578888545971" lon="14.52655276814156" id="-27464">
		<tag k="name" v="Åsenden" />
		<tag k="natural" v="hill" />
		<tag k="place" v="locality" />
		<tag k="ssr:stedsnr" v="885667" />
	</node>
	<node lat="68.61666111474102" lon="14.508644436798006" id="-27466">
		<tag k="name" v="Mikkelbakken" />
		<tag k="natural" v="slope" />
		<tag k="place" v="locality" />
		<tag k="ssr:stedsnr" v="885671" />
	</node>
	<node lat="68.65876666655694" lon="14.446358340313797" id="-27471">
		<tag k="name" v="Melkarhaugen" />
		<tag k="natural" v="hill" />
		<tag k="place" v="locality" />
		<tag k="ssr:stedsnr" v="886272" />
	</node>
	<node lat="68.6489638850905" lon="14.477663899076836" id="-27472">
		<tag k="name" v="Baklimoa" />
		<tag k="place" v="locality" />
		<tag k="ssr:stedsnr" v="886274" />
	</node>
	<node lat="68.62352222224521" lon="14.456152780358014" id="-27474">
		<tag k="name" v="Hannahaugen" />
		<tag k="natural" v="hill" />
		<tag k="place" v="locality" />
		<tag k="ssr:stedsnr" v="886158" />
	</node>
	<node lat="68.64328055284436" lon="14.4584555445344" id="-27477">
		<tag k="name" v="Brekkhaugan" />
		<tag k="natural" v="hill" />
		<tag k="place" v="locality" />
		<tag k="ssr:stedsnr" v="886242" />
	</node>
	<node lat="68.66408610896539" lon="14.417411115414446" id="-27483">
		<tag k="name" v="Nausthaugen" />
		<tag k="natural" v="hill" />
		<tag k="place" v="locality" />
		<tag k="ssr:stedsnr" v="886581" />
	</node>
	<node lat="68.62311944266514" lon="14.4529916540358" id="-27487">
		<tag k="name" v="Digerhaugen" />
		<tag k="natural" v="hill" />
		<tag k="place" v="locality" />
		<tag k="ssr:stedsnr" v="946147" />
	</node>
	<node lat="68.73439444208216" lon="14.582050005200287" id="-27491">
		<tag k="name" v="Risesjøhaugen" />
		<tag k="natural" v="hill" />
		<tag k="place" v="locality" />
		<tag k="ssr:stedsnr" v="946287" />
	</node>
	<node lat="68.68851944570972" lon="14.511480558596539" id="-27493">
		<tag k="name" v="Øyjordlia" />
		<tag k="natural" v="slope" />
		<tag k="place" v="locality" />
		<tag k="ssr:stedsnr" v="946292" />
	</node>
	<node lat="68.80651111086388" lon="14.55625556675922" id="-27494">
		<tag k="name" v="Steinhaugen" />
		<tag k="natural" v="hill" />
		<tag k="place" v="locality" />
		<tag k="ssr:stedsnr" v="946294" />
	</node>
	<node lat="68.81062222584585" lon="14.561355561491668" id="-27495">
		<tag k="name" v="Hammarberget" />
		<tag k="natural" v="hill" />
		<tag k="place" v="locality" />
		<tag k="ssr:stedsnr" v="946298" />
	</node>
	<node lat="68.61701666483862" lon="14.45471389815429" id="-27497">
		<tag k="name" v="Likhaugen" />
		<tag k="natural" v="hill" />
		<tag k="place" v="locality" />
		<tag k="ssr:stedsnr" v="946158" />
	</node>
	<node lat="68.77633333788549" lon="14.470197215791822" id="-27501">
		<tag k="fixme" v="consider natural=peak for the most distinct mountains in the district" />
		<tag k="name" v="Klakken" />
		<tag k="natural" v="hill" />
		<tag k="place" v="locality" />
		<tag k="ssr:stedsnr" v="946271" />
	</node>
	<node lat="68.62109444427591" lon="14.53175277739597" id="-27503">
		<tag k="name" v="Bukkhamran" />
		<tag k="natural" v="hill" />
		<tag k="place" v="locality" />
		<tag k="ssr:stedsnr" v="946663" />
	</node>
	<node lat="68.64378055258086" lon="14.463461116161936" id="-27507">
		<tag k="name" v="Bjønnhaugen" />
		<tag k="natural" v="hill" />
		<tag k="place" v="locality" />
		<tag k="ssr:stedsnr" v="947251" />
	</node>
	<node lat="68.65122778194232" lon="14.450852776662526" id="-27509">
		<tag k="name" v="Brunakken" />
		<tag k="natural" v="ridge" />
		<tag k="place" v="locality" />
		<tag k="ssr:stedsnr" v="947261" />
	</node>
	<node lat="68.63642500351322" lon="14.471780551391" id="-27510">
		<tag k="name" v="Johaugen" />
		<tag k="natural" v="hill" />
		<tag k="place" v="locality" />
		<tag k="ssr:stedsnr" v="947514" />
	</node>
	<node lat="68.75318610789394" lon="14.823599986847457" id="-27513">
		<tag k="alt_name" v="Likkjdalen" />
		<tag k="name" v="Litldalen" />
		<tag k="natural" v="valley" />
		<tag k="place" v="locality" />
		<tag k="ssr:stedsnr" v="963278" />
	</node>
	<node lat="68.80707222275969" lon="14.56586110296124" id="-27514">
		<tag k="name" v="Labakken" />
		<tag k="natural" v="slope" />
		<tag k="place" v="locality" />
		<tag k="ssr:stedsnr" v="965356" />
	</node>
	<node lat="68.79508175645589" lon="14.53923124875413" id="-27515">
		<tag k="name" v="Trolldalen" />
		<tag k="natural" v="valley" />
		<tag k="place" v="locality" />
		<tag k="ssr:stedsnr" v="965363" />
	</node>
	<node lat="68.70944722327056" lon="14.723086113787312" id="-27517">
		<tag k="fixme" v="consider natural=peak for the most distinct mountains in the district" />
		<tag k="name" v="Kvernfjordåsen" />
		<tag k="natural" v="hill" />
		<tag k="place" v="locality" />
		<tag k="ssr:stedsnr" v="965411" />
	</node>
	<node lat="68.6633694467743" lon="14.661372217625757" id="-27518">
		<tag k="fixme" v="consider natural=peak for the most distinct mountains in the district" />
		<tag k="name" v="Aspan" />
		<tag k="natural" v="hill" />
		<tag k="place" v="locality" />
		<tag k="ssr:stedsnr" v="965417" />
	</node>
	<node lat="68.77047777613875" lon="14.758183333650525" id="-27519">
		<tag k="name" v="Hesjebakkan" />
		<tag k="natural" v="slope" />
		<tag k="place" v="locality" />
		<tag k="ssr:stedsnr" v="965582" />
	</node>
	<node lat="68.68866388846855" lon="14.738233336505195" id="-27521">
		<tag k="name" v="Røsneslemman" />
		<tag k="place" v="locality" />
		<tag k="ssr:stedsnr" v="966518" />
	</node>
	<node lat="68.65022499654849" lon="14.593736107006777" id="-27524">
		<tag k="fixme" v="consider natural=peak for the most distinct mountains in the district" />
		<tag k="name" v="Skavåsen" />
		<tag k="natural" v="hill" />
		<tag k="place" v="locality" />
		<tag k="ssr:stedsnr" v="968245" />
	</node>
	<node lat="68.60490277538008" lon="14.464563899891278" id="-27526">
		<tag k="name" v="Varden" />
		<tag k="natural" v="hill" />
		<tag k="place" v="locality" />
		<tag k="ssr:stedsnr" v="969079" />
	</node>
	<node lat="68.65716666944333" lon="14.575808334414127" id="-27528">
		<tag k="fixme" v="consider natural=peak for the most distinct mountains in the district" />
		<tag k="name" v="Sørørnåsen" />
		<tag k="natural" v="hill" />
		<tag k="place" v="locality" />
		<tag k="ssr:stedsnr" v="969178" />
	</node>
	<node lat="68.71766945975868" lon="14.48445115833562" id="-27659">
		<tag k="fixme" v="consider natural=peak for the most distinct mountains in the district" />
		<tag k="name" v="Burnestinden" />
		<tag k="natural" v="hill" />
		<tag k="place" v="locality" />
		<tag k="ssr:stedsnr" v="1072699" />
	</node>
	<node lat="68.66571175078741" lon="14.572250948447616" id="-27675">
		<tag k="fixme" v="consider natural=peak for the most distinct mountains in the district" />
		<tag k="name" v="Svarthatten" />
		<tag k="natural" v="hill" />
		<tag k="place" v="locality" />
		<tag k="ssr:stedsnr" v="1082562" />
	</node>
</osm>
