<?xml version="1.0" encoding="UTF-8"?>
<<<<<<< HEAD
<osm version="0.6" generator="osmapis">
	<node lat="68.7019500026532" lon="14.443977771896463" id="-11391">
		<tag k="landuse" v="harbour" />
		<tag k="name" v="Hamn" />
		<tag k="seamark:type" v="harbour" />
		<tag k="ssr:stedsnr" v="82218" />
	</node>
	<node lat="68.6726361093167" lon="14.41536666847984" id="-11458">
		<tag k="highway" v="path" />
		<tag k="name" v="Hamnvegen" />
		<tag k="ssr:stedsnr" v="157518" />
	</node>
	<node lat="68.75510277564166" lon="14.732286122798627" id="-11493">
		<tag k="fixme" v="consider highway=path" />
		<tag k="highway" v="track" />
		<tag k="name" v="Nord-Ryggevegen" />
		<tag k="ssr:stedsnr" v="176471" />
	</node>
	<node lat="68.82832222365853" lon="14.516966655192313" id="-11962">
		<tag k="name" v="Jennleia" />
		<tag k="place" v="locality" />
		<tag k="ssr:stedsnr" v="704255" />
	</node>
	<node lat="68.66294721927231" lon="14.634855564135796" id="-12117">
		<tag k="junction" v="yes" />
		<tag k="name" v="Vegskiftet" />
		<tag k="place" v="locality" />
		<tag k="ssr:stedsnr" v="844396" />
	</node>
	<node lat="68.63843055831269" lon="14.434241659179277" id="-12199">
		<tag k="highway" v="path" />
		<tag k="name" v="Gollstien" />
		<tag k="ssr:stedsnr" v="886249" />
	</node>
	<node lat="68.69964722230529" lon="14.4561083436805" id="-12237">
		<tag k="fixme" v="consider highway=path" />
		<tag k="highway" v="track" />
		<tag k="name" v="Vikanveien" />
		<tag k="ssr:stedsnr" v="931156" />
	</node>
	<node lat="68.69510555951469" lon="14.460372228971305" id="-12547">
=======
<osm generator="osmapis" version="0.6">
	<node id="-200288" lat="68.6432611091" lon="14.4924360983">
		<tag k="fixme" v="consider highway=path" />
		<tag k="highway" v="track" />
		<tag k="name" v="Vegan" />
		<tag k="ssr:stedsnr" v="545129" />
	</node>
	<node id="-199552" lat="68.6258138936" lon="14.5802361048">
		<tag k="fixme" v="consider highway=path" />
		<tag k="highway" v="track" />
		<tag k="name" v="Breivegen" />
		<tag k="ssr:stedsnr" v="947318" />
	</node>
	<node id="-199518" lat="68.6511333371" lon="14.4600611126">
		<tag k="highway" v="path" />
		<tag k="name" v="Korsvegen" />
		<tag k="ssr:stedsnr" v="825208" />
	</node>
	<node id="-199930" lat="68.6726361093" lon="14.4153666685">
		<tag k="highway" v="path" />
		<tag k="name" v="Hamnvegen" />
		<tag k="ssr:stedsnr" v="157518" />
	</node>
	<node id="-200730" lat="68.6152833345" lon="14.435861118">
		<tag k="man_made" v="quay" />
		<tag k="name" v="Vinjesjøen" />
		<tag k="place" v="locality" />
		<tag k="ssr:stedsnr" v="868505" />
	</node>
	<node id="-199993" lat="68.6951055595" lon="14.460372229">
>>>>>>> e1d4bc35ff8a6074a6f2e91616a996b547c36f15
		<tag k="man_made" v="quay" />
		<tag k="name" v="Sørsjøen" />
		<tag k="place" v="locality" />
		<tag k="ssr:stedsnr" v="203070" />
	</node>
<<<<<<< HEAD
	<node lat="68.7292638882302" lon="14.477897221796377" id="-12548">
		<tag k="highway" v="path" />
		<tag k="name" v="Svingjerdet" />
		<tag k="ssr:stedsnr" v="203037" />
	</node>
	<node lat="68.61892222613294" lon="14.496944449478157" id="-12661">
		<tag k="highway" v="path" />
		<tag k="name" v="Buvegen" />
		<tag k="ssr:stedsnr" v="339552" />
	</node>
	<node lat="68.77119722196967" lon="14.759066671924447" id="-12879">
		<tag k="highway" v="path" />
		<tag k="name" v="Stien" />
		<tag k="ssr:stedsnr" v="521538" />
	</node>
	<node lat="68.643261109064" lon="14.492436098342267" id="-12896">
		<tag k="fixme" v="consider highway=path" />
		<tag k="highway" v="track" />
		<tag k="name" v="Vegan" />
		<tag k="ssr:stedsnr" v="545129" />
	</node>
	<node lat="68.64373611117273" lon="14.483738889954806" id="-13072">
		<tag k="ford" v="yes" />
		<tag k="name" v="Vadet" />
=======
	<node id="-199508" lat="68.6996472223" lon="14.4561083437">
		<tag k="fixme" v="consider highway=path" />
		<tag k="highway" v="track" />
		<tag k="name" v="Vikanveien" />
		<tag k="ssr:stedsnr" v="931156" />
	</node>
	<node id="-199990" lat="68.7292638882" lon="14.4778972218">
		<tag k="highway" v="path" />
		<tag k="name" v="Svingjerdet" />
		<tag k="ssr:stedsnr" v="203037" />
	</node>
	<node id="-199161" lat="68.6437361112" lon="14.48373889">
		<tag k="ford" v="yes" />
		<tag k="name" v="Vadet" />
		<tag k="place" v="locality" />
		<tag k="ssr:stedsnr" v="666145" />
	</node>
	<node id="-200660" lat="68.6629472193" lon="14.6348555641">
		<tag k="junction" v="yes" />
		<tag k="name" v="Vegskiftet" />
		<tag k="place" v="locality" />
		<tag k="ssr:stedsnr" v="844396" />
	</node>
	<node id="-199378" lat="68.6384305583" lon="14.4342416592">
		<tag k="highway" v="path" />
		<tag k="name" v="Gollstien" />
		<tag k="ssr:stedsnr" v="886249" />
	</node>
	<node id="-198742" lat="68.7019500027" lon="14.4439777719">
		<tag k="landuse" v="harbour" />
		<tag k="name" v="Hamn" />
		<tag k="seamark:type" v="harbour" />
		<tag k="ssr:stedsnr" v="82218" />
	</node>
	<node id="-199341" lat="68.6401277789" lon="14.4769333264">
		<tag k="ford" v="yes" />
		<tag k="name" v="Hestvadet" />
		<tag k="place" v="locality" />
		<tag k="ssr:stedsnr" v="727140" />
	</node>
	<node id="-199282" lat="68.8283222237" lon="14.5169666552">
		<tag k="name" v="Jennleia" />
>>>>>>> e1d4bc35ff8a6074a6f2e91616a996b547c36f15
		<tag k="place" v="locality" />
		<tag k="ssr:stedsnr" v="666145" />
	</node>
	<node lat="68.64012777892508" lon="14.476933326438733" id="-13085">
		<tag k="ford" v="yes" />
		<tag k="name" v="Hestvadet" />
		<tag k="place" v="locality" />
		<tag k="ssr:stedsnr" v="727140" />
	</node>
	<node lat="68.65113333712259" lon="14.46006111257031" id="-13246">
		<tag k="highway" v="path" />
		<tag k="name" v="Korsvegen" />
		<tag k="ssr:stedsnr" v="825208" />
	</node>
	<node lat="68.61528333451452" lon="14.435861117959865" id="-13307">
		<tag k="man_made" v="quay" />
		<tag k="name" v="Vinjesjøen" />
		<tag k="place" v="locality" />
		<tag k="ssr:stedsnr" v="868505" />
	</node>
	<node lat="68.62581389355934" lon="14.580236104822474" id="-13380">
		<tag k="fixme" v="consider highway=path" />
		<tag k="highway" v="track" />
		<tag k="name" v="Breivegen" />
		<tag k="ssr:stedsnr" v="947318" />
	</node>
	<node id="-199047" lat="68.6189222261" lon="14.4969444495">
		<tag k="highway" v="path" />
		<tag k="name" v="Buvegen" />
		<tag k="ssr:stedsnr" v="339552" />
	</node>
	<node id="-200262" lat="68.771197222" lon="14.7590666719">
		<tag k="highway" v="path" />
		<tag k="name" v="Stien" />
		<tag k="ssr:stedsnr" v="521538" />
	</node>
	<node id="-199942" lat="68.7551027756" lon="14.7322861228">
		<tag k="fixme" v="consider highway=path" />
		<tag k="highway" v="track" />
		<tag k="name" v="Nord-Ryggevegen" />
		<tag k="ssr:stedsnr" v="176471" />
	</node>
</osm>
