<?xml version="1.0" encoding="UTF-8"?>
<osm generator="osmapis" version="0.6">
	<node id="-712704" lat="68.6896166669" lon="14.7070583317">
		<tag k="name" v="Hestøya" />
		<tag k="place" v="island" />
		<tag k="ssr:stedsnr" v="381663" />
	</node>
	<node id="-712703" lat="68.6136027737" lon="14.6223805563">
		<tag k="name" v="Hellfallan" />
		<tag k="natural" v="shoal" />
		<tag k="place" v="locality" />
		<tag k="ssr:stedsnr" v="381627" />
	</node>
	<node id="-712702" lat="68.5927611066" lon="14.445850011">
		<tag k="name" v="Kvalbaken" />
		<tag k="natural" v="shoal" />
		<tag k="place" v="locality" />
		<tag k="ssr:stedsnr" v="381585" />
	</node>
	<node id="-712701" lat="68.7675472187" lon="14.75269723">
		<tag k="name" v="Ryggepollen" />
		<tag k="natural" v="bay" />
		<tag k="ssr:stedsnr" v="381554" />
	</node>
	<node id="-712700" lat="68.6439249988" lon="14.6781861158">
		<tag k="loc_name" v="Vardholmfluen" />
		<tag k="name" v="Varholmfuan" />
		<tag k="natural" v="shoal" />
		<tag k="place" v="locality" />
		<tag k="ssr:stedsnr" v="381544" />
	</node>
	<node id="-712698" lat="68.7659500021" lon="14.5865805534">
		<tag k="name" v="Heststranda" />
		<tag k="natural" v="beach" />
		<tag k="place" v="locality" />
		<tag k="ssr:stedsnr" v="381504" />
	</node>
	<node id="-712697" lat="68.7233333327" lon="14.3721833316">
		<tag k="name" v="Nittingleia" />
		<tag k="natural" v="strait" />
		<tag k="ssr:stedsnr" v="381479" />
	</node>
	<node id="-712696" lat="68.7157055515" lon="14.2624916566">
		<tag k="alt_name" v="Bånskallen" />
		<tag k="name" v="Bornskallen" />
		<tag k="natural" v="shoal" />
		<tag k="place" v="locality" />
		<tag k="ssr:stedsnr" v="381476" />
	</node>
	<node id="-712695" lat="68.7304194474" lon="14.2857194559">
		<tag k="name" v="Jonsskallen" />
		<tag k="natural" v="shoal" />
		<tag k="place" v="locality" />
		<tag k="ssr:stedsnr" v="381475" />
	</node>
	<node id="-712694" lat="68.6194694433" lon="14.3847000105">
		<tag k="name" v="Steinbitflua" />
		<tag k="natural" v="shoal" />
		<tag k="place" v="locality" />
		<tag k="ssr:stedsnr" v="381436" />
	</node>
	<node id="-712693" lat="68.6206777766" lon="14.329283321">
		<tag k="name" v="Krusholmen" />
		<tag k="place" v="islet" />
		<tag k="ssr:stedsnr" v="381434" />
	</node>
	<node id="-712692" lat="68.6618305543" lon="14.2678555593">
		<tag k="name" v="Seieggskallen" />
		<tag k="natural" v="shoal" />
		<tag k="place" v="locality" />
		<tag k="ssr:stedsnr" v="381400" />
	</node>
	<node id="-712691" lat="68.6882638849" lon="14.3724611187">
		<tag k="fixme" v="consider seamark:type=rock or natural=shoal" />
		<tag k="name" v="Reiarsteinan" />
		<tag k="place" v="islet" />
		<tag k="ssr:stedsnr" v="381389" />
	</node>
	<node id="-712690" lat="68.7343416641" lon="14.6122416538">
		<tag k="name" v="Risnesan" />
		<tag k="natural" v="cape" />
		<tag k="ssr:stedsnr" v="381375" />
	</node>
	<node id="-712687" lat="68.7367388904" lon="14.438227771">
		<tag k="name" v="Tippskallen" />
		<tag k="natural" v="shoal" />
		<tag k="place" v="locality" />
		<tag k="ssr:stedsnr" v="381353" />
	</node>
	<node id="-712686" lat="68.73241389" lon="14.5089388916">
		<tag k="name" v="Haversandøya" />
		<tag k="place" v="islet" />
		<tag k="ssr:stedsnr" v="381347" />
	</node>
	<node id="-712685" lat="68.6150888893" lon="14.3225305479">
		<tag k="alt_name" v="Vågen" />
		<tag k="name" v="Nordvika" />
		<tag k="natural" v="bay" />
		<tag k="ssr:stedsnr" v="381331" />
	</node>
	<node id="-712682" lat="68.5959805569" lon="14.320727782">
		<tag k="name" v="Litløya" />
		<tag k="place" v="island" />
		<tag k="ssr:stedsnr" v="380350" />
	</node>
	<node id="-712680" lat="68.5987916668" lon="14.4099444327">
		<tag k="fixme" v="multiple name tags, choose one and add the other to alt_name" />
		<tag k="name" v="Rundholmen;Store Kjerkholmen" />
		<tag k="place" v="islet" />
		<tag k="ssr:stedsnr" v="380345" />
	</node>
	<node id="-712679" lat="68.6088361144" lon="14.410119444">
		<tag k="alt_name" v="Børringsfluene" />
		<tag k="name" v="Børringsfluan" />
		<tag k="natural" v="shoal" />
		<tag k="place" v="locality" />
		<tag k="ssr:stedsnr" v="380322" />
	</node>
	<node id="-712678" lat="68.5995222192" lon="14.321124996">
		<tag k="name" v="Tarvågen" />
		<tag k="natural" v="bay" />
		<tag k="ssr:stedsnr" v="380315" />
	</node>
	<node id="-712677" lat="68.6005138876" lon="14.3296111075">
		<tag k="name" v="Tårneset" />
		<tag k="natural" v="cape" />
		<tag k="ssr:stedsnr" v="380314" />
	</node>
	<node id="-712676" lat="68.5906166703" lon="14.2777638788">
		<tag k="name" v="Hanefallet" />
		<tag k="natural" v="shoal" />
		<tag k="place" v="locality" />
		<tag k="ssr:stedsnr" v="380306" />
	</node>
	<node id="-712674" lat="68.6460055595" lon="14.6225305653">
		<tag k="name" v="Geitvikpollen" />
		<tag k="natural" v="bay" />
		<tag k="ssr:stedsnr" v="362242" />
	</node>
	<node id="-712641" lat="68.7595749962" lon="14.5987416637">
		<tag k="name" v="Survikstraumen" />
		<tag k="natural" v="strait" />
		<tag k="ssr:stedsnr" v="358287" />
	</node>
	<node id="-712638" lat="68.725966665" lon="14.5474583324">
		<tag k="name" v="Skålbrekksjøen" />
		<tag k="natural" v="beach" />
		<tag k="place" v="locality" />
		<tag k="ssr:stedsnr" v="358237" />
	</node>
	<node id="-712636" lat="68.8010944415" lon="14.5851333227">
		<tag k="name" v="Ørntuva" />
		<tag k="natural" v="cape" />
		<tag k="ssr:stedsnr" v="339626" />
	</node>
	<node id="-712635" lat="68.7387888918" lon="14.5404777727">
		<tag k="name" v="Gjøhammeren" />
		<tag k="natural" v="cape" />
		<tag k="ssr:stedsnr" v="339598" />
	</node>
	<node id="-712633" lat="68.6582611155" lon="14.4107194384">
		<tag k="fixme" v="consider seamark:type=rock or natural=shoal" />
		<tag k="name" v="Stor-Reinskjæret" />
		<tag k="place" v="islet" />
		<tag k="ssr:stedsnr" v="339549" />
	</node>
	<node id="-712631" lat="68.6675888876" lon="14.4620777807">
		<tag k="name" v="Holsjøleira" />
		<tag k="natural" v="beach" />
		<tag k="place" v="locality" />
		<tag k="ssr:stedsnr" v="339548" />
	</node>
	<node id="-712630" lat="68.664694445" lon="14.4548833419">
		<tag k="fixme" v="consider seamark:type=rock or natural=shoal" />
		<tag k="name" v="Førskjæret" />
		<tag k="place" v="islet" />
		<tag k="ssr:stedsnr" v="339546" />
	</node>
	<node id="-712628" lat="68.6726138892" lon="14.4406694331">
		<tag k="name" v="Breistrandneset" />
		<tag k="natural" v="cape" />
		<tag k="ssr:stedsnr" v="339497" />
	</node>
	<node id="-712625" lat="68.6755555545" lon="14.4067388885">
		<tag k="name" v="Sjurvika" />
		<tag k="natural" v="bay" />
		<tag k="ssr:stedsnr" v="339466" />
	</node>
	<node id="-712623" lat="68.7573666692" lon="14.3954611042">
		<tag k="name" v="Stikskallan" />
		<tag k="natural" v="shoal" />
		<tag k="place" v="locality" />
		<tag k="ssr:stedsnr" v="339442" />
	</node>
	<node id="-712622" lat="68.6085944487" lon="14.486316672">
		<tag k="name" v="Steinsvikvågen" />
		<tag k="natural" v="bay" />
		<tag k="ssr:stedsnr" v="339413" />
	</node>
	<node id="-712621" lat="68.71989167" lon="14.4311916569">
		<tag k="fixme" v="consider seamark:type=rock or natural=shoal" />
		<tag k="name" v="Seiskjæran" />
		<tag k="place" v="islet" />
		<tag k="ssr:stedsnr" v="339398" />
	</node>
	<node id="-712616" lat="68.6057361097" lon="14.439586105">
		<tag k="name" v="Strandholmen" />
		<tag k="place" v="islet" />
		<tag k="ssr:stedsnr" v="339305" />
	</node>
	<node id="-712615" lat="68.6020888858" lon="14.4466833227">
		<tag k="fixme" v="consider seamark:type=rock or natural=shoal" />
		<tag k="name" v="Gauken" />
		<tag k="place" v="islet" />
		<tag k="ssr:stedsnr" v="339300" />
	</node>
	<node id="-712614" lat="68.7870333328" lon="14.4391833311">
		<tag k="name" v="Inner Nykfallan" />
		<tag k="natural" v="shoal" />
		<tag k="place" v="locality" />
		<tag k="ssr:stedsnr" v="339292" />
	</node>
	<node id="-712612" lat="68.7629833339" lon="14.4163361042">
		<tag k="name" v="Slottskallen" />
		<tag k="natural" v="shoal" />
		<tag k="place" v="locality" />
		<tag k="ssr:stedsnr" v="339272" />
	</node>
	<node id="-712609" lat="68.6470305557" lon="14.4286361">
		<tag k="name" v="Fjærvollstranda" />
		<tag k="natural" v="beach" />
		<tag k="place" v="locality" />
		<tag k="ssr:stedsnr" v="339254" />
	</node>
	<node id="-712603" lat="68.6838277796" lon="14.3726055583">
		<tag k="name" v="Berghola" />
		<tag k="natural" v="bay" />
		<tag k="ssr:stedsnr" v="324245" />
	</node>
	<node id="-712595" lat="68.679041668" lon="14.4187777836">
		<tag k="name" v="Brattvika" />
		<tag k="natural" v="bay" />
		<tag k="ssr:stedsnr" v="324023" />
	</node>
	<node id="-712593" lat="68.7826805575" lon="14.4465527903">
		<tag k="name" v="Saltværingan" />
		<tag k="place" v="islet" />
		<tag k="ssr:stedsnr" v="321962" />
	</node>
	<node id="-712588" lat="68.6666138881" lon="14.668416662">
		<tag k="name" v="Nordvågen" />
		<tag k="natural" v="bay" />
		<tag k="ssr:stedsnr" v="321712" />
	</node>
	<node id="-712586" lat="68.6551777772" lon="14.4247083216">
		<tag k="name" v="Fjærvollklubben" />
		<tag k="natural" v="cape" />
		<tag k="ssr:stedsnr" v="321696" />
	</node>
	<node id="-712585" lat="68.6588638871" lon="14.7626999888">
		<tag k="name" v="Kiøya" />
		<tag k="place" v="islet" />
		<tag k="ssr:stedsnr" v="321684" />
	</node>
	<node id="-712580" lat="68.6420194467" lon="14.6961888943">
		<tag k="alt_name" v="Jørgenfjordflesa" />
		<tag k="fixme" v="multiple name tags, choose one and add the other to alt_name" />
		<tag k="name" v="Flesa;Jørnfjordflesa" />
		<tag k="place" v="islet" />
		<tag k="ssr:stedsnr" v="321521" />
	</node>
	<node id="-712579" lat="68.751841668" lon="14.5861722191">
		<tag k="name" v="Grimstadbukta" />
		<tag k="natural" v="bay" />
		<tag k="ssr:stedsnr" v="321514" />
	</node>
	<node id="-712571" lat="68.7002111134" lon="14.3461138803">
		<tag k="name" v="Skorsteinskallen" />
		<tag k="natural" v="shoal" />
		<tag k="place" v="locality" />
		<tag k="ssr:stedsnr" v="321455" />
	</node>
	<node id="-712570" lat="68.73802778" lon="14.3321444352">
		<tag k="name" v="Vittingskallen" />
		<tag k="natural" v="shoal" />
		<tag k="place" v="locality" />
		<tag k="ssr:stedsnr" v="321452" />
	</node>
	<node id="-712569" lat="68.7477055584" lon="14.347386123">
		<tag k="name" v="Brakanskankan" />
		<tag k="natural" v="shoal" />
		<tag k="place" v="locality" />
		<tag k="ssr:stedsnr" v="321450" />
	</node>
	<node id="-712568" lat="68.7295083288" lon="14.4032055651">
		<tag k="alt_name" v="Boldskjeret" />
		<tag k="fixme" v="consider seamark:type=rock or natural=shoal" />
		<tag k="name" v="Bollskjæret" />
		<tag k="place" v="islet" />
		<tag k="ssr:stedsnr" v="321448" />
	</node>
	<node id="-712567" lat="68.6197388896" lon="14.4034222224">
		<tag k="name" v="Kalvholmen" />
		<tag k="place" v="islet" />
		<tag k="ssr:stedsnr" v="321412" />
	</node>
	<node id="-712566" lat="68.6193249964" lon="14.3743333442">
		<tag k="name" v="Perskallen" />
		<tag k="natural" v="shoal" />
		<tag k="place" v="locality" />
		<tag k="ssr:stedsnr" v="321409" />
	</node>
	<node id="-712565" lat="68.6484527741" lon="14.4149888764">
		<tag k="alt_name" v="Fjærvolløra" />
		<tag k="name" v="Fjærvolløyra" />
		<tag k="natural" v="shoal" />
		<tag k="place" v="locality" />
		<tag k="ssr:stedsnr" v="321386" />
	</node>
	<node id="-712564" lat="68.6519388881" lon="14.3549861219">
		<tag k="name" v="Høgholmsteinan" />
		<tag k="natural" v="shoal" />
		<tag k="place" v="locality" />
		<tag k="ssr:stedsnr" v="321374" />
	</node>
	<node id="-712563" lat="68.6780333349" lon="14.4025083292">
		<tag k="name" v="Skårvågen" />
		<tag k="natural" v="bay" />
		<tag k="ssr:stedsnr" v="321365" />
	</node>
	<node id="-712561" lat="68.684391667" lon="14.3705722235">
		<tag k="name" v="Bergodden" />
		<tag k="natural" v="cape" />
		<tag k="ssr:stedsnr" v="321358" />
	</node>
	<node id="-712546" lat="68.7276722225" lon="14.5259361086">
		<tag k="alt_name" v="Spjelkvågpollen" />
		<tag k="name" v="Spjelkvågen" />
		<tag k="natural" v="bay" />
		<tag k="ssr:stedsnr" v="321239" />
	</node>
	<node id="-712545" lat="68.6402694414" lon="14.3109749957">
		<tag k="name" v="Langskallen" />
		<tag k="natural" v="shoal" />
		<tag k="place" v="locality" />
		<tag k="ssr:stedsnr" v="321210" />
	</node>
	<node id="-712543" lat="68.6272194407" lon="14.3462833305">
		<tag k="fixme" v="consider seamark:type=rock or natural=shoal" />
		<tag k="name" v="Leiskjæret" />
		<tag k="place" v="islet" />
		<tag k="ssr:stedsnr" v="321209" />
	</node>
	<node id="-712542" lat="68.5999222248" lon="14.2255388909">
		<tag k="fixme" v="consider seamark:type=rock or natural=shoal" />
		<tag k="name" v="Krasen" />
		<tag k="place" v="islet" />
		<tag k="ssr:stedsnr" v="320320" />
	</node>
	<node id="-712541" lat="68.6047750046" lon="14.4105416571">
		<tag k="alt_name" v="Børringen, l" />
		<tag k="name" v="Litl Børringen" />
		<tag k="place" v="islet" />
		<tag k="ssr:stedsnr" v="320317" />
	</node>
	<node id="-712533" lat="68.6082777742" lon="14.4405527674">
		<tag k="name" v="Futen" />
		<tag k="natural" v="cape" />
		<tag k="ssr:stedsnr" v="302114" />
	</node>
	<node id="-712527" lat="68.7667138919" lon="14.5879749999">
		<tag k="name" v="Heststrandbukta" />
		<tag k="natural" v="bay" />
		<tag k="ssr:stedsnr" v="300374" />
	</node>
	<node id="-712523" lat="68.7660194486" lon="14.7004361121">
		<tag k="name" v="Kråkbergholmen" />
		<tag k="natural" v="cape" />
		<tag k="ssr:stedsnr" v="298544" />
	</node>
	<node id="-712521" lat="68.6630916648" lon="14.7475972332">
		<tag k="name" v="Guvågen" />
		<tag k="natural" v="bay" />
		<tag k="ssr:stedsnr" v="298388" />
	</node>
	<node id="-712520" lat="68.6725305563" lon="14.6724194462">
		<tag k="name" v="Langneset" />
		<tag k="natural" v="cape" />
		<tag k="ssr:stedsnr" v="298372" />
	</node>
	<node id="-712519" lat="68.6667472204" lon="14.7181194416">
		<tag k="name" v="Jektneset" />
		<tag k="natural" v="cape" />
		<tag k="ssr:stedsnr" v="298370" />
	</node>
	<node id="-712518" lat="68.6537444435" lon="14.6649888895">
		<tag k="name" v="Geitholmen" />
		<tag k="place" v="islet" />
		<tag k="ssr:stedsnr" v="298367" />
	</node>
	<node id="-712517" lat="68.7278472207" lon="14.5240055489">
		<tag k="name" v="Naustvika" />
		<tag k="natural" v="bay" />
		<tag k="ssr:stedsnr" v="298282" />
	</node>
	<node id="-714563" lat="68.9114777735" lon="14.3231194388">
		<tag k="name" v="Hola" />
		<tag k="place" v="locality" />
		<tag k="ssr:stedsnr" v="966799" />
	</node>
	<node id="-712507" lat="68.8350944403" lon="14.6444083258">
		<tag k="name" v="Kassurbåen" />
		<tag k="natural" v="shoal" />
		<tag k="place" v="locality" />
		<tag k="ssr:stedsnr" v="280129" />
	</node>
	<node id="-714551" lat="68.7929861128" lon="14.5207805533">
		<tag k="name" v="Leininga" />
		<tag k="natural" v="beach" />
		<tag k="place" v="locality" />
		<tag k="ssr:stedsnr" v="965365" />
	</node>
	<node id="-712500" lat="68.7694999986" lon="14.3926083336">
		<tag k="name" v="Kjeipleia" />
		<tag k="natural" v="strait" />
		<tag k="ssr:stedsnr" v="279480" />
	</node>
	<node id="-712497" lat="68.7596999981" lon="14.3543138803">
		<tag k="name" v="Borgundskallen" />
		<tag k="natural" v="shoal" />
		<tag k="place" v="locality" />
		<tag k="ssr:stedsnr" v="279456" />
	</node>
	<node id="-714543" lat="68.7840777751" lon="14.5913694437">
		<tag k="fixme" v="consider seamark:type=rock or natural=shoal" />
		<tag k="name" v="Finnkristskjæret" />
		<tag k="place" v="islet" />
		<tag k="ssr:stedsnr" v="947645" />
	</node>
	<node id="-714541" lat="68.7611027792" lon="14.3722055605">
		<tag k="name" v="Tåskallen" />
		<tag k="natural" v="shoal" />
		<tag k="place" v="locality" />
		<tag k="ssr:stedsnr" v="947478" />
	</node>
	<node id="-712492" lat="68.6070861125" lon="14.4538722121">
		<tag k="name" v="Jektøya" />
		<tag k="place" v="island" />
		<tag k="ssr:stedsnr" v="279304" />
	</node>
	<node id="-714536" lat="68.650166671" lon="14.4337249932">
		<tag k="fixme" v="consider seamark:type=rock or natural=shoal" />
		<tag k="name" v="Gryta" />
		<tag k="place" v="islet" />
		<tag k="ssr:stedsnr" v="947302" />
	</node>
	<node id="-712487" lat="68.6396666664" lon="14.4313805626">
		<tag k="name" v="Gimstadøyra" />
		<tag k="natural" v="cape" />
		<tag k="ssr:stedsnr" v="279263" />
	</node>
	<node id="-712485" lat="68.6136722217" lon="14.4633944352">
		<tag k="name" v="Tverrstranda" />
		<tag k="natural" v="beach" />
		<tag k="place" v="locality" />
		<tag k="ssr:stedsnr" v="279183" />
	</node>
	<node id="-712484" lat="68.6184361091" lon="14.4156472139">
		<tag k="name" v="Svinøy-Rørskaga" />
		<tag k="place" v="island" />
		<tag k="ssr:stedsnr" v="279144" />
	</node>
	<node id="-712480" lat="68.7791361108" lon="14.4299250071">
		<tag k="fixme" v="consider seamark:type=rock or natural=shoal" />
		<tag k="name" v="Avløysa" />
		<tag k="place" v="islet" />
		<tag k="ssr:stedsnr" v="278330" />
	</node>
	<node id="-714525" lat="68.5996999977" lon="14.484088893">
		<tag k="fixme" v="consider seamark:type=rock or natural=shoal" />
		<tag k="name" v="Avløysa" />
		<tag k="place" v="islet" />
		<tag k="ssr:stedsnr" v="946434" />
	</node>
	<node id="-714520" lat="68.7362972232" lon="14.568005544">
		<tag k="name" v="Kråknesan" />
		<tag k="natural" v="cape" />
		<tag k="ssr:stedsnr" v="946289" />
	</node>
	<node id="-714517" lat="68.7800833368" lon="14.4078416759">
		<tag k="name" v="Reinsbåen" />
		<tag k="natural" v="shoal" />
		<tag k="place" v="locality" />
		<tag k="ssr:stedsnr" v="946264" />
	</node>
	<node id="-714516" lat="68.771627781" lon="14.3955694558">
		<tag k="name" v="Breigrunnen" />
		<tag k="natural" v="shoal" />
		<tag k="place" v="locality" />
		<tag k="ssr:stedsnr" v="946262" />
	</node>
	<node id="-714515" lat="68.7859694401" lon="14.4295777796">
		<tag k="name" v="Engenykskallen" />
		<tag k="natural" v="shoal" />
		<tag k="place" v="locality" />
		<tag k="ssr:stedsnr" v="946259" />
	</node>
	<node id="-714513" lat="68.66114167" lon="14.454058333">
		<tag k="name" v="Leitsjøen" />
		<tag k="natural" v="beach" />
		<tag k="place" v="locality" />
		<tag k="ssr:stedsnr" v="946227" />
	</node>
	<node id="-714512" lat="68.8280194481" lon="14.5335694356">
		<tag k="name" v="Plyten" />
		<tag k="natural" v="shoal" />
		<tag k="place" v="locality" />
		<tag k="ssr:stedsnr" v="946222" />
	</node>
	<node id="-714510" lat="68.6329833369" lon="14.4286000115">
		<tag k="name" v="Svinøyskallen" />
		<tag k="natural" v="shoal" />
		<tag k="place" v="locality" />
		<tag k="ssr:stedsnr" v="946154" />
	</node>
	<node id="-714496" lat="68.6810999966" lon="14.3834055527">
		<tag k="name" v="Gunnarleia" />
		<tag k="natural" v="strait" />
		<tag k="ssr:stedsnr" v="931230" />
	</node>
	<node id="-714495" lat="68.678026706" lon="14.4190659207">
		<tag k="name" v="Krumsvågen" />
		<tag k="natural" v="bay" />
		<tag k="ssr:stedsnr" v="931223" />
	</node>
	<node id="-714492" lat="68.7732944467" lon="14.4491666605">
		<tag k="name" v="Kjerringholman" />
		<tag k="place" v="islet" />
		<tag k="ssr:stedsnr" v="928994" />
	</node>
	<node id="-714491" lat="68.7927444423" lon="14.6948500114">
		<tag k="name" v="Andslettbukta" />
		<tag k="natural" v="bay" />
		<tag k="ssr:stedsnr" v="928972" />
	</node>
	<node id="-714488" lat="68.8042611102" lon="14.4961194471">
		<tag k="name" v="Peterskallen" />
		<tag k="natural" v="shoal" />
		<tag k="place" v="locality" />
		<tag k="ssr:stedsnr" v="928924" />
	</node>
	<node id="-714487" lat="68.8161888903" lon="14.6991250041">
		<tag k="name" v="Dalbukta" />
		<tag k="natural" v="bay" />
		<tag k="ssr:stedsnr" v="928887" />
	</node>
	<node id="-714484" lat="68.8298805577" lon="14.552697218">
		<tag k="name" v="Bøbarden" />
		<tag k="place" v="islet" />
		<tag k="ssr:stedsnr" v="928858" />
	</node>
	<node id="-714482" lat="68.6584583322" lon="14.754833335">
		<tag k="name" v="Seglholmen" />
		<tag k="place" v="islet" />
		<tag k="ssr:stedsnr" v="928684" />
	</node>
	<node id="-714481" lat="68.6600666701" lon="14.7727944471">
		<tag k="name" v="Skjelvaløya" />
		<tag k="place" v="islet" />
		<tag k="ssr:stedsnr" v="928678" />
	</node>
	<node id="-714476" lat="68.6722055578" lon="14.661902778">
		<tag k="bay" v="fjord" />
		<tag k="name" v="Langfjorden" />
		<tag k="natural" v="bay" />
		<tag k="ssr:stedsnr" v="928597" />
	</node>
	<node id="-714475" lat="68.6009500002" lon="14.4412055459">
		<tag k="name" v="Kjuklingan" />
		<tag k="place" v="islet" />
		<tag k="ssr:stedsnr" v="928564" />
	</node>
	<node id="-714468" lat="68.6195666682" lon="14.5583666685">
		<tag k="name" v="Bøvågen" />
		<tag k="natural" v="bay" />
		<tag k="ssr:stedsnr" v="928485" />
	</node>
	<node id="-714467" lat="68.6241305558" lon="14.4243500029">
		<tag k="name" v="Svinøyvalen" />
		<tag k="natural" v="strait" />
		<tag k="ssr:stedsnr" v="928481" />
	</node>
	<node id="-714463" lat="68.6939055554" lon="14.3811694371">
		<tag k="name" v="Bølflesa" />
		<tag k="natural" v="shoal" />
		<tag k="place" v="locality" />
		<tag k="ssr:stedsnr" v="928453" />
	</node>
	<node id="-714462" lat="68.7016444412" lon="14.3963777657">
		<tag k="name" v="Kvalbaken" />
		<tag k="natural" v="shoal" />
		<tag k="place" v="locality" />
		<tag k="ssr:stedsnr" v="928449" />
	</node>
	<node id="-714461" lat="68.7027767147" lon="14.4059564779">
		<tag k="name" v="Skjerdingen" />
		<tag k="place" v="islet" />
		<tag k="ssr:stedsnr" v="928448" />
	</node>
	<node id="-714460" lat="68.7427972199" lon="14.3029888896">
		<tag k="name" v="Tverskallen" />
		<tag k="natural" v="shoal" />
		<tag k="place" v="locality" />
		<tag k="ssr:stedsnr" v="928441" />
	</node>
	<node id="-714459" lat="68.7401111083" lon="14.4591694357">
		<tag k="alt_name" v="Åsanfjorden" />
		<tag k="bay" v="fjord" />
		<tag k="name" v="Åsandfjorden" />
		<tag k="natural" v="bay" />
		<tag k="ssr:stedsnr" v="928437" />
	</node>
	<node id="-714458" lat="68.6163750024" lon="14.3174111145">
		<tag k="name" v="Skarvsteinen" />
		<tag k="place" v="islet" />
		<tag k="ssr:stedsnr" v="928410" />
	</node>
	<node id="-714457" lat="68.6175083313" lon="14.3874833393">
		<tag k="fixme" v="consider seamark:type=rock or natural=shoal" />
		<tag k="name" v="Litl Parisskjæret" />
		<tag k="place" v="islet" />
		<tag k="ssr:stedsnr" v="928405" />
	</node>
	<node id="-714456" lat="68.6117361152" lon="14.3093583341">
		<tag k="name" v="Bukken" />
		<tag k="natural" v="shoal" />
		<tag k="place" v="locality" />
		<tag k="ssr:stedsnr" v="928407" />
	</node>
	<node id="-714455" lat="68.6197999991" lon="14.3345722263">
		<tag k="name" v="Naklingvågen" />
		<tag k="natural" v="bay" />
		<tag k="ssr:stedsnr" v="928397" />
	</node>
	<node id="-714454" lat="68.6289944404" lon="14.2795111167">
		<tag k="name" v="Stabben" />
		<tag k="natural" v="shoal" />
		<tag k="place" v="locality" />
		<tag k="ssr:stedsnr" v="928383" />
	</node>
	<node id="-714453" lat="68.6684055586" lon="14.3143055684">
		<tag k="name" v="Eidsgrunnen" />
		<tag k="natural" v="shoal" />
		<tag k="place" v="locality" />
		<tag k="ssr:stedsnr" v="928367" />
	</node>
	<node id="-714452" lat="68.6800138875" lon="14.3814805632">
		<tag k="name" v="Gunnarholmen" />
		<tag k="place" v="islet" />
		<tag k="ssr:stedsnr" v="928362" />
	</node>
	<node id="-714451" lat="68.6764222191" lon="14.2773777842">
		<tag k="name" v="Småfiskskallen" />
		<tag k="natural" v="shoal" />
		<tag k="place" v="locality" />
		<tag k="ssr:stedsnr" v="928359" />
	</node>
	<node id="-714449" lat="68.6854611137" lon="14.2777111052">
		<tag k="name" v="Holmskallan" />
		<tag k="natural" v="shoal" />
		<tag k="place" v="locality" />
		<tag k="ssr:stedsnr" v="928353" />
	</node>
	<node id="-714448" lat="68.7379499977" lon="14.5769749972">
		<tag k="name" v="Eidspollen" />
		<tag k="natural" v="bay" />
		<tag k="ssr:stedsnr" v="928348" />
	</node>
	<node id="-714444" lat="68.7072999993" lon="14.8043194537">
		<tag k="name" v="Vestpollen" />
		<tag k="natural" v="bay" />
		<tag k="ssr:stedsnr" v="928254" />
	</node>
	<node id="-714440" lat="68.6245305535" lon="14.3264277679">
		<tag k="name" v="Eggholmen" />
		<tag k="place" v="islet" />
		<tag k="ssr:stedsnr" v="927434" />
	</node>
	<node id="-714439" lat="68.6256750033" lon="14.2614638982">
		<tag k="name" v="Fyllingskaftet" />
		<tag k="place" v="islet" />
		<tag k="ssr:stedsnr" v="927435" />
	</node>
	<node id="-714438" lat="68.6004444443" lon="14.2773444411">
		<tag k="name" v="Fulltruskallen" />
		<tag k="natural" v="shoal" />
		<tag k="place" v="locality" />
		<tag k="ssr:stedsnr" v="927337" />
	</node>
	<node id="-714422" lat="68.6553111091" lon="14.6725222321">
		<tag k="name" v="Flaskholmen" />
		<tag k="place" v="islet" />
		<tag k="ssr:stedsnr" v="905404" />
	</node>
	<node id="-714416" lat="68.6303527733" lon="14.663886121">
		<tag k="name" v="Steinholmen" />
		<tag k="place" v="islet" />
		<tag k="ssr:stedsnr" v="902321" />
	</node>
	<node id="-714411" lat="68.6827749972" lon="14.406952767">
		<tag k="name" v="Heimersanden" />
		<tag k="natural" v="beach" />
		<tag k="place" v="locality" />
		<tag k="ssr:stedsnr" v="871192" />
	</node>
	<node id="-714403" lat="68.7125583356" lon="14.4261249897">
		<tag k="name" v="Grønnåsfjæra" />
		<tag k="natural" v="beach" />
		<tag k="place" v="locality" />
		<tag k="ssr:stedsnr" v="871116" />
	</node>
	<node id="-714397" lat="68.6801555524" lon="14.4145027806">
		<tag k="name" v="Johannesvika" />
		<tag k="natural" v="bay" />
		<tag k="ssr:stedsnr" v="871027" />
	</node>
	<node id="-714394" lat="68.7783499972" lon="14.4480500103">
		<tag k="fixme" v="consider seamark:type=rock or natural=shoal" />
		<tag k="name" v="Natthagskjæret" />
		<tag k="place" v="islet" />
		<tag k="ssr:stedsnr" v="868962" />
	</node>
	<node id="-714392" lat="68.7866416673" lon="14.456594433">
		<tag k="alt_name" v="Oria" />
		<tag k="name" v="Urgja" />
		<tag k="natural" v="shoal" />
		<tag k="place" v="locality" />
		<tag k="ssr:stedsnr" v="868928" />
	</node>
	<node id="-714391" lat="68.8017861153" lon="14.7161611081">
		<tag k="name" v="Slåtterøya" />
		<tag k="place" v="islet" />
		<tag k="ssr:stedsnr" v="868926" />
	</node>
	<node id="-714387" lat="68.6675166682" lon="14.7878749979">
		<tag k="name" v="Ramnøya" />
		<tag k="place" v="islet" />
		<tag k="ssr:stedsnr" v="868700" />
	</node>
	<node id="-714377" lat="68.6408416663" lon="14.3581277685">
		<tag k="name" v="Kruken" />
		<tag k="place" v="islet" />
		<tag k="ssr:stedsnr" v="868408" />
	</node>
	<node id="-714376" lat="68.6353472179" lon="14.3280166682">
		<tag k="fixme" v="consider seamark:type=rock or natural=shoal" />
		<tag k="name" v="Leiskjæret" />
		<tag k="place" v="islet" />
		<tag k="ssr:stedsnr" v="868406" />
	</node>
	<node id="-714375" lat="68.6462055542" lon="14.3708194349">
		<tag k="name" v="Ofsskallen" />
		<tag k="natural" v="shoal" />
		<tag k="place" v="locality" />
		<tag k="ssr:stedsnr" v="868400" />
	</node>
	<node id="-714374" lat="68.6476000041" lon="14.2938305497">
		<tag k="alt_name" v="Gåttingskjeret, store" />
		<tag k="fixme" v="consider seamark:type=rock or natural=shoal" />
		<tag k="name" v="Store Gåttingskjæran" />
		<tag k="place" v="islet" />
		<tag k="ssr:stedsnr" v="868387" />
	</node>
	<node id="-714370" lat="68.8294944458" lon="14.5576527831">
		<tag k="name" v="Båtbarden" />
		<tag k="place" v="islet" />
		<tag k="ssr:stedsnr" v="867889" />
	</node>
	<node id="-714367" lat="68.6481416661" lon="14.6576888817">
		<tag k="name" v="Trettholmen" />
		<tag k="place" v="islet" />
		<tag k="ssr:stedsnr" v="867725" />
	</node>
	<node id="-714366" lat="68.6469722221" lon="14.6387083271">
		<tag k="alt_name" v="Storsortøyan" />
		<tag k="name" v="Storsortøya" />
		<tag k="place" v="island" />
		<tag k="ssr:stedsnr" v="867726" />
	</node>
	<node id="-714365" lat="68.6528805584" lon="14.7272805454">
		<tag k="name" v="Sneisa" />
		<tag k="place" v="islet" />
		<tag k="ssr:stedsnr" v="867719" />
	</node>
	<node id="-712495" lat="68.6953055556" lon="14.3601444365">
		<tag k="name" v="Ytterleia" />
		<tag k="natural" v="strait" />
		<tag k="ssr:stedsnr" v="279398" />
	</node>
	<node id="-714356" lat="68.614369442" lon="14.5761138802">
		<tag k="name" v="Kalvgjerdet" />
		<tag k="place" v="islet" />
		<tag k="ssr:stedsnr" v="867622" />
	</node>
	<node id="-714354" lat="68.7654083303" lon="14.7320388782">
		<tag k="name" v="Nordryggeøya" />
		<tag k="place" v="island" />
		<tag k="ssr:stedsnr" v="867565" />
	</node>
	<node id="-714352" lat="68.7709944468" lon="14.5845305628">
		<tag k="fixme" v="multiple name tags, choose one and add the other to alt_name" />
		<tag k="name" v="Litlselvågen;Selvågen" />
		<tag k="natural" v="bay" />
		<tag k="ssr:stedsnr" v="867543" />
	</node>
	<node id="-714350" lat="68.7620999982" lon="14.6161611035">
		<tag k="name" v="Skatvågen" />
		<tag k="natural" v="bay" />
		<tag k="ssr:stedsnr" v="867519" />
	</node>
	<node id="-714347" lat="68.7035055536" lon="14.3400972252">
		<tag k="name" v="Trollskallen" />
		<tag k="natural" v="shoal" />
		<tag k="place" v="locality" />
		<tag k="ssr:stedsnr" v="867501" />
	</node>
	<node id="-714346" lat="68.6086638884" lon="14.283197218">
		<tag k="name" v="Skjerdingbåen" />
		<tag k="natural" v="shoal" />
		<tag k="place" v="locality" />
		<tag k="ssr:stedsnr" v="867449" />
	</node>
	<node id="-714345" lat="68.6175222195" lon="14.3422666746">
		<tag k="name" v="Skippersnakken" />
		<tag k="place" v="locality" />
		<tag k="ssr:stedsnr" v="867445" />
	</node>
	<node id="-714344" lat="68.6190666651" lon="14.3182249937">
		<tag k="fixme" v="consider seamark:type=rock or natural=shoal" />
		<tag k="name" v="Erlandsskjæret" />
		<tag k="place" v="islet" />
		<tag k="ssr:stedsnr" v="867440" />
	</node>
	<node id="-714343" lat="68.6273638877" lon="14.3776194414">
		<tag k="alt_name" v="Jenskallflua" />
		<tag k="name" v="Jensskallflua" />
		<tag k="natural" v="shoal" />
		<tag k="place" v="locality" />
		<tag k="ssr:stedsnr" v="867434" />
	</node>
	<node id="-714342" lat="68.6575083292" lon="14.3496027864">
		<tag k="name" v="Nykskallan" />
		<tag k="natural" v="shoal" />
		<tag k="place" v="locality" />
		<tag k="ssr:stedsnr" v="867416" />
	</node>
	<node id="-714341" lat="68.6521277794" lon="14.2383083404">
		<tag k="name" v="Utflesøyan" />
		<tag k="place" v="island" />
		<tag k="ssr:stedsnr" v="867412" />
	</node>
	<node id="-714340" lat="68.6757194432" lon="14.3202722145">
		<tag k="name" v="Vittingskallen" />
		<tag k="natural" v="shoal" />
		<tag k="place" v="locality" />
		<tag k="ssr:stedsnr" v="867401" />
	</node>
	<node id="-714339" lat="68.6712472193" lon="14.3157722153">
		<tag k="name" v="Eidsgrunnflua" />
		<tag k="place" v="locality" />
		<tag k="seamark:type" v="rock" />
		<tag k="ssr:stedsnr" v="867399" />
	</node>
	<node id="-714334" lat="68.732102775" lon="14.479941664">
		<tag k="name" v="Husøya" />
		<tag k="place" v="island" />
		<tag k="ssr:stedsnr" v="867362" />
	</node>
	<node id="-714328" lat="68.7281138932" lon="14.5460333271">
		<tag k="alt_name" v="Husvågpollen" />
		<tag k="name" v="Husvågen" />
		<tag k="natural" v="bay" />
		<tag k="ssr:stedsnr" v="867303" />
	</node>
	<node id="-714327" lat="68.5854722267" lon="14.2820166613">
		<tag k="name" v="Trælhausen" />
		<tag k="place" v="islet" />
		<tag k="ssr:stedsnr" v="866310" />
	</node>
	<node id="-714326" lat="68.6027749959" lon="14.4149250111">
		<tag k="alt_name" v="Litl Kjerkholmen" />
		<tag k="name" v="Kjerkholmen" />
		<tag k="place" v="islet" />
		<tag k="ssr:stedsnr" v="866284" />
	</node>
	<node id="-714325" lat="68.5929222251" lon="14.2278972129">
		<tag k="alt_name" v="Sørbrakskjæran" />
		<tag k="fixme" v="consider seamark:type=rock or natural=shoal" />
		<tag k="name" v="Synnbrakskjeran" />
		<tag k="place" v="islet" />
		<tag k="ssr:stedsnr" v="866282" />
	</node>
	<node id="-714313" lat="68.7847833366" lon="14.6464499997">
		<tag k="name" v="Holmen" />
		<tag k="natural" v="cape" />
		<tag k="ssr:stedsnr" v="844610" />
	</node>
	<node id="-714310" lat="68.6520888897" lon="14.6577027729">
		<tag k="name" v="Sørnesodden" />
		<tag k="natural" v="cape" />
		<tag k="ssr:stedsnr" v="844411" />
	</node>
	<node id="-714309" lat="68.634394445" lon="14.6539388941">
		<tag k="fixme" v="consider seamark:type=rock or natural=shoal" />
		<tag k="name" v="Stridshammaren" />
		<tag k="place" v="islet" />
		<tag k="ssr:stedsnr" v="844405" />
	</node>
	<node id="-714307" lat="68.6589305575" lon="14.6475750002">
		<tag k="name" v="Kråkbergbukta" />
		<tag k="natural" v="bay" />
		<tag k="ssr:stedsnr" v="844393" />
	</node>
	<node id="-714304" lat="68.7458666675" lon="14.5215194348">
		<tag k="name" v="Vardholmen" />
		<tag k="place" v="islet" />
		<tag k="ssr:stedsnr" v="844270" />
	</node>
	<node id="-714296" lat="68.6715722194" lon="14.4625750021">
		<tag k="name" v="Leirosen" />
		<tag k="natural" v="shoal" />
		<tag k="place" v="locality" />
		<tag k="ssr:stedsnr" v="825475" />
	</node>
	<node id="-714294" lat="68.6759694455" lon="14.4173499945">
		<tag k="name" v="Nordhamn" />
		<tag k="natural" v="bay" />
		<tag k="ssr:stedsnr" v="825441" />
	</node>
	<node id="-714292" lat="68.5989583355" lon="14.4965305502">
		<tag k="fixme" v="consider seamark:type=rock or natural=shoal" />
		<tag k="name" v="Sandjordskjæret" />
		<tag k="place" v="islet" />
		<tag k="ssr:stedsnr" v="825422" />
	</node>
	<node id="-714290" lat="68.6009444476" lon="14.4866138947">
		<tag k="name" v="Nilsbukta" />
		<tag k="natural" v="bay" />
		<tag k="ssr:stedsnr" v="825414" />
	</node>
	<node id="-714289" lat="68.759616668" lon="14.37818612">
		<tag k="name" v="Tåskank" />
		<tag k="natural" v="shoal" />
		<tag k="place" v="locality" />
		<tag k="ssr:stedsnr" v="825412" />
	</node>
	<node id="-714288" lat="68.6062083294" lon="14.486050009">
		<tag k="name" v="Nesan" />
		<tag k="natural" v="cape" />
		<tag k="ssr:stedsnr" v="825410" />
	</node>
	<node id="-714287" lat="68.6727861074" lon="14.3917333237">
		<tag k="name" v="Skaga" />
		<tag k="natural" v="cape" />
		<tag k="ssr:stedsnr" v="825367" />
	</node>
	<node id="-714285" lat="68.8187888923" lon="14.5465361011">
		<tag k="name" v="Pannskjærbukta" />
		<tag k="natural" v="bay" />
		<tag k="ssr:stedsnr" v="825311" />
	</node>
	<node id="-714280" lat="68.7747166693" lon="14.446450013">
		<tag k="alt_name" v="Styrmannstægan" />
		<tag k="fixme" v="consider seamark:type=rock or natural=shoal" />
		<tag k="name" v="Styrmannstægern" />
		<tag k="place" v="islet" />
		<tag k="ssr:stedsnr" v="825225" />
	</node>
	<node id="-714279" lat="68.6057555586" lon="14.4083139001">
		<tag k="name" v="Børringsholman" />
		<tag k="place" v="islet" />
		<tag k="ssr:stedsnr" v="825226" />
	</node>
	<node id="-714275" lat="68.6592611099" lon="14.4387138828">
		<tag k="name" v="Langskaga" />
		<tag k="place" v="islet" />
		<tag k="ssr:stedsnr" v="825203" />
	</node>
	<node id="-714274" lat="68.8264277769" lon="14.5254166662">
		<tag k="name" v="Skreenghammaren" />
		<tag k="natural" v="shoal" />
		<tag k="place" v="locality" />
		<tag k="ssr:stedsnr" v="825195" />
	</node>
	<node id="-714273" lat="68.6096777736" lon="14.5411305625">
		<tag k="name" v="Risnakkjosen" />
		<tag k="natural" v="strait" />
		<tag k="ssr:stedsnr" v="825194" />
	</node>
	<node id="-714272" lat="68.6357611113" lon="14.4278638989">
		<tag k="fixme" v="consider seamark:type=rock or natural=shoal" />
		<tag k="name" v="Skarvsteinen" />
		<tag k="place" v="islet" />
		<tag k="ssr:stedsnr" v="825193" />
	</node>
	<node id="-714270" lat="68.6020194411" lon="14.5226944423">
		<tag k="name" v="Strangan" />
		<tag k="natural" v="cape" />
		<tag k="ssr:stedsnr" v="825183" />
	</node>
	<node id="-714268" lat="68.6264666658" lon="14.4348388839">
		<tag k="name" v="Støttsjøen" />
		<tag k="natural" v="beach" />
		<tag k="place" v="locality" />
		<tag k="ssr:stedsnr" v="825121" />
	</node>
	<node id="-714260" lat="68.7029083313" lon="14.4011388942">
		<tag k="fixme" v="consider seamark:type=rock or natural=shoal" />
		<tag k="name" v="Leirskjæret" />
		<tag k="place" v="islet" />
		<tag k="ssr:stedsnr" v="810169" />
	</node>
	<node id="-714254" lat="68.6780833314" lon="14.4043138789">
		<tag k="fixme" v="consider seamark:type=rock or natural=shoal" />
		<tag k="name" v="Skarvskjæret" />
		<tag k="place" v="islet" />
		<tag k="ssr:stedsnr" v="810049" />
	</node>
	<node id="-714253" lat="68.7258500018" lon="14.4644222347">
		<tag k="name" v="Litl-Burneset" />
		<tag k="natural" v="cape" />
		<tag k="ssr:stedsnr" v="810026" />
	</node>
	<node id="-714250" lat="68.8073111123" lon="14.6235305454">
		<tag k="name" v="Godvikvågen" />
		<tag k="natural" v="bay" />
		<tag k="ssr:stedsnr" v="807904" />
	</node>
	<node id="-714249" lat="68.8082388897" lon="14.4813361026">
		<tag k="name" v="Inngrunnen" />
		<tag k="natural" v="shoal" />
		<tag k="place" v="locality" />
		<tag k="ssr:stedsnr" v="807898" />
	</node>
	<node id="-714248" lat="68.8146527765" lon="14.7171694555">
		<tag k="name" v="Stavsundet" />
		<tag k="natural" v="strait" />
		<tag k="ssr:stedsnr" v="807883" />
	</node>
	<node id="-714247" lat="68.8206027779" lon="14.6244166611">
		<tag k="name" v="Stavneset" />
		<tag k="natural" v="cape" />
		<tag k="ssr:stedsnr" v="807880" />
	</node>
	<node id="-714246" lat="68.820072218" lon="14.5438805593">
		<tag k="fixme" v="multiple name tags, choose one and add the other to alt_name" />
		<tag k="name" v="Gressholmen;Tarholmen" />
		<tag k="place" v="islet" />
		<tag k="ssr:stedsnr" v="807876" />
	</node>
	<node id="-714245" lat="68.8269555514" lon="14.5381222273">
		<tag k="name" v="Plytbarden" />
		<tag k="place" v="islet" />
		<tag k="ssr:stedsnr" v="807859" />
	</node>
	<node id="-714244" lat="68.8312555565" lon="14.613724996">
		<tag k="name" v="Tindskallen" />
		<tag k="natural" v="shoal" />
		<tag k="place" v="locality" />
		<tag k="ssr:stedsnr" v="807850" />
	</node>
	<node id="-714241" lat="68.6568472182" lon="14.6225944485">
		<tag k="bay" v="fjord" />
		<tag k="name" v="Pollen" />
		<tag k="natural" v="bay" />
		<tag k="ssr:stedsnr" v="807698" />
	</node>
	<node id="-714240" lat="68.660997221" lon="14.6638944517">
		<tag k="name" v="Sørvågen" />
		<tag k="natural" v="bay" />
		<tag k="ssr:stedsnr" v="807691" />
	</node>
	<node id="-714238" lat="68.6271861153" lon="14.6528888918">
		<tag k="name" v="Breigrunnen" />
		<tag k="natural" v="shoal" />
		<tag k="place" v="locality" />
		<tag k="ssr:stedsnr" v="807532" />
	</node>
	<node id="-714236" lat="68.7588333306" lon="14.726699994">
		<tag k="alt_name" v="Sør-Ryggeøya" />
		<tag k="name" v="Sørryggeøya" />
		<tag k="place" v="islet" />
		<tag k="ssr:stedsnr" v="807525" />
	</node>
	<node id="-714235" lat="68.6192916646" lon="14.4349111123">
		<tag k="name" v="Fruneset" />
		<tag k="natural" v="cape" />
		<tag k="ssr:stedsnr" v="807513" />
	</node>
	<node id="-714234" lat="68.7610527802" lon="14.5993333263">
		<tag k="name" v="Survikstraumen" />
		<tag k="natural" v="strait" />
		<tag k="ssr:stedsnr" v="807496" />
	</node>
	<node id="-714233" lat="68.7613305587" lon="14.6017527771">
		<tag k="name" v="Survika" />
		<tag k="natural" v="bay" />
		<tag k="ssr:stedsnr" v="807495" />
	</node>
	<node id="-714232" lat="68.6322111152" lon="14.2624833415">
		<tag k="name" v="Fyllingsteinan" />
		<tag k="natural" v="shoal" />
		<tag k="place" v="locality" />
		<tag k="ssr:stedsnr" v="807409" />
	</node>
	<node id="-714231" lat="68.6528222222" lon="14.4030583272">
		<tag k="name" v="Lamholmen" />
		<tag k="place" v="islet" />
		<tag k="ssr:stedsnr" v="807399" />
	</node>
	<node id="-714230" lat="68.6480527734" lon="14.3577083446">
		<tag k="alt_name" v="Litl Kruken" />
		<tag k="fixme" v="consider seamark:type=rock or natural=shoal" />
		<tag k="name" v="Kruken, l" />
		<tag k="place" v="islet" />
		<tag k="ssr:stedsnr" v="807396" />
	</node>
	<node id="-714229" lat="68.6540583298" lon="14.4135583238">
		<tag k="alt_name" v="Pepperskallen" />
		<tag k="name" v="Pepparskallen" />
		<tag k="natural" v="shoal" />
		<tag k="place" v="locality" />
		<tag k="ssr:stedsnr" v="807395" />
	</node>
	<node id="-714223" lat="68.7711888921" lon="14.4433944505">
		<tag k="fixme" v="consider seamark:type=rock or natural=shoal" />
		<tag k="name" v="Flatskjæret" />
		<tag k="place" v="islet" />
		<tag k="ssr:stedsnr" v="806994" />
	</node>
	<node id="-714222" lat="68.7781027805" lon="14.4707972294">
		<tag k="name" v="Nykvåg" />
		<tag k="natural" v="bay" />
		<tag k="ssr:stedsnr" v="806989" />
	</node>
	<node id="-714218" lat="68.6932444487" lon="14.6745305454">
		<tag k="name" v="Storbukta" />
		<tag k="natural" v="bay" />
		<tag k="ssr:stedsnr" v="806675" />
	</node>
	<node id="-714217" lat="68.6865555525" lon="14.7862833292">
		<tag k="name" v="Trollurneset" />
		<tag k="natural" v="cape" />
		<tag k="ssr:stedsnr" v="806660" />
	</node>
	<node id="-714216" lat="68.6199722268" lon="14.6087861016">
		<tag k="name" v="Snarsetnesan" />
		<tag k="natural" v="cape" />
		<tag k="ssr:stedsnr" v="806608" />
	</node>
	<node id="-714215" lat="68.6407944488" lon="14.6392750044">
		<tag k="name" v="Småsortøyan" />
		<tag k="place" v="island" />
		<tag k="ssr:stedsnr" v="806534" />
	</node>
	<node id="-714211" lat="68.6941972196" lon="14.3181249883">
		<tag k="name" v="Breifallet" />
		<tag k="natural" v="shoal" />
		<tag k="place" v="locality" />
		<tag k="ssr:stedsnr" v="806485" />
	</node>
	<node id="-714209" lat="68.6935611104" lon="14.2687194483">
		<tag k="name" v="Svissarleia" />
		<tag k="natural" v="strait" />
		<tag k="ssr:stedsnr" v="806481" />
	</node>
	<node id="-714208" lat="68.7109333307" lon="14.4083083419">
		<tag k="name" v="Nittingskallen" />
		<tag k="natural" v="shoal" />
		<tag k="place" v="locality" />
		<tag k="ssr:stedsnr" v="806476" />
	</node>
	<node id="-714207" lat="68.6990555569" lon="14.3198027897">
		<tag k="name" v="Klakken" />
		<tag k="place" v="islet" />
		<tag k="ssr:stedsnr" v="806470" />
	</node>
	<node id="-714206" lat="68.7239749955" lon="14.3218416699">
		<tag k="name" v="Tussen" />
		<tag k="natural" v="shoal" />
		<tag k="place" v="locality" />
		<tag k="ssr:stedsnr" v="806465" />
	</node>
	<node id="-714205" lat="68.6230611094" lon="14.321047221">
		<tag k="name" v="Draugholman" />
		<tag k="place" v="islet" />
		<tag k="ssr:stedsnr" v="806413" />
	</node>
	<node id="-714204" lat="68.665663893" lon="14.3383611232">
		<tag k="name" v="Breigrunnen" />
		<tag k="natural" v="shoal" />
		<tag k="place" v="locality" />
		<tag k="ssr:stedsnr" v="806381" />
	</node>
	<node id="-714203" lat="68.6869694424" lon="14.2901611103">
		<tag k="name" v="Svissaren" />
		<tag k="natural" v="shoal" />
		<tag k="place" v="locality" />
		<tag k="ssr:stedsnr" v="806370" />
	</node>
	<node id="-714201" lat="68.6063388847" lon="14.3232361039">
		<tag k="fixme" v="consider seamark:type=rock or natural=shoal" />
		<tag k="name" v="Skjerdingstad" />
		<tag k="place" v="islet" />
		<tag k="ssr:stedsnr" v="806324" />
	</node>
	<node id="-714200" lat="68.590838886" lon="14.2826916655">
		<tag k="name" v="Hanen" />
		<tag k="place" v="islet" />
		<tag k="ssr:stedsnr" v="806316" />
	</node>
	<node id="-714197" lat="68.6521222181" lon="14.6191777771">
		<tag k="name" v="Geitvågpollen" />
		<tag k="natural" v="bay" />
		<tag k="ssr:stedsnr" v="787230" />
	</node>
	<node id="-714174" lat="68.6375611144" lon="14.6459694438">
		<tag k="name" v="Gråholmen" />
		<tag k="place" v="islet" />
		<tag k="ssr:stedsnr" v="783410" />
	</node>
	<node id="-714173" lat="68.6577888913" lon="14.6926027904">
		<tag k="name" v="Avløysa" />
		<tag k="place" v="islet" />
		<tag k="ssr:stedsnr" v="783391" />
	</node>
	<node id="-714172" lat="68.6320916672" lon="14.6376194422">
		<tag k="name" v="Kattskjæret" />
		<tag k="natural" v="cape" />
		<tag k="ssr:stedsnr" v="783364" />
	</node>
	<node id="-714168" lat="68.8383861087" lon="14.676724994">
		<tag k="name" v="Litle Dypingen" />
		<tag k="place" v="islet" />
		<tag k="ssr:stedsnr" v="765173" />
	</node>
	<node id="-714161" lat="68.7586777788" lon="14.4214694353">
		<tag k="name" v="Kaldbosteinan" />
		<tag k="natural" v="shoal" />
		<tag k="place" v="locality" />
		<tag k="ssr:stedsnr" v="764461" />
	</node>
	<node id="-714160" lat="68.7407527815" lon="14.425741672">
		<tag k="alt_name" v="Åsangrunnen" />
		<tag k="name" v="Åsandgrunnen" />
		<tag k="natural" v="shoal" />
		<tag k="place" v="locality" />
		<tag k="ssr:stedsnr" v="764458" />
	</node>
	<node id="-714159" lat="68.7092944468" lon="14.4189472287">
		<tag k="fixme" v="consider seamark:type=rock or natural=shoal" />
		<tag k="name" v="Rundskjæret" />
		<tag k="place" v="islet" />
		<tag k="ssr:stedsnr" v="764401" />
	</node>
	<node id="-714156" lat="68.8165250026" lon="14.5551138775">
		<tag k="name" v="Litlhovden" />
		<tag k="natural" v="cape" />
		<tag k="ssr:stedsnr" v="764348" />
	</node>
	<node id="-714155" lat="68.6220583357" lon="14.6184583283">
		<tag k="name" v="Slåttneset" />
		<tag k="natural" v="cape" />
		<tag k="ssr:stedsnr" v="764305" />
	</node>
	<node id="-714153" lat="68.7828361129" lon="14.4153944463">
		<tag k="name" v="Reinsboskanken" />
		<tag k="natural" v="shoal" />
		<tag k="place" v="locality" />
		<tag k="ssr:stedsnr" v="764280" />
	</node>
	<node id="-714152" lat="68.7869194425" lon="14.3984972226">
		<tag k="name" v="Spikertindleia" />
		<tag k="natural" v="strait" />
		<tag k="ssr:stedsnr" v="764279" />
	</node>
	<node id="-714151" lat="68.621380559" lon="14.6246166709">
		<tag k="name" v="Noraholman" />
		<tag k="place" v="islet" />
		<tag k="ssr:stedsnr" v="764277" />
	</node>
	<node id="-714148" lat="68.8306027751" lon="14.5753027728">
		<tag k="name" v="Skinnstakken" />
		<tag k="natural" v="shoal" />
		<tag k="place" v="locality" />
		<tag k="ssr:stedsnr" v="764247" />
	</node>
	<node id="-714146" lat="68.6086666661" lon="14.545374992">
		<tag k="name" v="Strandskjærodden" />
		<tag k="natural" v="cape" />
		<tag k="ssr:stedsnr" v="764234" />
	</node>
	<node id="-714142" lat="68.6156222242" lon="14.4288944498">
		<tag k="fixme" v="consider seamark:type=rock or natural=shoal" />
		<tag k="name" v="Ringskjæret" />
		<tag k="place" v="islet" />
		<tag k="ssr:stedsnr" v="764133" />
	</node>
	<node id="-714141" lat="68.6265694435" lon="14.404666668">
		<tag k="name" v="Nølvika" />
		<tag k="natural" v="bay" />
		<tag k="ssr:stedsnr" v="764122" />
	</node>
	<node id="-714137" lat="68.6832499997" lon="14.3824083439">
		<tag k="name" v="Hagabukta" />
		<tag k="natural" v="bay" />
		<tag k="ssr:stedsnr" v="749251" />
	</node>
	<node id="-714127" lat="68.7928861095" lon="14.510947226">
		<tag k="alt_name" v="Indreflesa" />
		<tag k="name" v="Innerflesa" />
		<tag k="place" v="islet" />
		<tag k="ssr:stedsnr" v="746943" />
	</node>
	<node id="-714126" lat="68.800255555" lon="14.698463882">
		<tag k="name" v="Kremmarbukta" />
		<tag k="natural" v="bay" />
		<tag k="ssr:stedsnr" v="746923" />
	</node>
	<node id="-714125" lat="68.8099583289" lon="14.570963899">
		<tag k="name" v="Malnessjøen" />
		<tag k="natural" v="beach" />
		<tag k="place" v="locality" />
		<tag k="ssr:stedsnr" v="746883" />
	</node>
	<node id="-714124" lat="68.8106361096" lon="14.5497888899">
		<tag k="loc_name" v="Finnbogsanden" />
		<tag k="name" v="Finnbugsanden" />
		<tag k="natural" v="beach" />
		<tag k="place" v="locality" />
		<tag k="ssr:stedsnr" v="746877" />
	</node>
	<node id="-714123" lat="68.8391277768" lon="14.6740166576">
		<tag k="alt_name" v="Store Dypingen" />
		<tag k="name" v="Dypingen" />
		<tag k="place" v="islet" />
		<tag k="ssr:stedsnr" v="746815" />
	</node>
	<node id="-714120" lat="68.6685194441" lon="14.459744436">
		<tag k="name" v="Holsjøen" />
		<tag k="natural" v="cape" />
		<tag k="ssr:stedsnr" v="746609" />
	</node>
	<node id="-714119" lat="68.6659499961" lon="14.4626111164">
		<tag k="name" v="Tjønnbogen" />
		<tag k="natural" v="cape" />
		<tag k="ssr:stedsnr" v="746610" />
	</node>
	<node id="-714118" lat="68.6653277813" lon="14.4451138846">
		<tag k="alt_name" v="Førepollen" />
		<tag k="name" v="Førpollen" />
		<tag k="natural" v="bay" />
		<tag k="ssr:stedsnr" v="746600" />
	</node>
	<node id="-714117" lat="68.7508527798" lon="14.4610583425">
		<tag k="name" v="Nausthaugen" />
		<tag k="place" v="islet" />
		<tag k="ssr:stedsnr" v="746584" />
	</node>
	<node id="-714116" lat="68.7696527823" lon="14.6921444434">
		<tag k="name" v="Kapperneshaugen" />
		<tag k="natural" v="cape" />
		<tag k="ssr:stedsnr" v="746560" />
	</node>
	<node id="-714114" lat="68.6332777737" lon="14.6690305492">
		<tag k="alt_name" v="Hongværet" />
		<tag k="name" v="Hongværan" />
		<tag k="place" v="island" />
		<tag k="ssr:stedsnr" v="746547" />
	</node>
	<node id="-714112" lat="68.6123500006" lon="14.4807833255">
		<tag k="name" v="Leira" />
		<tag k="natural" v="bay" />
		<tag k="ssr:stedsnr" v="746519" />
	</node>
	<node id="-714110" lat="68.6432444436" lon="14.2949972297">
		<tag k="alt_name" v="Einsteinen" />
		<tag k="name" v="Endsteinen" />
		<tag k="natural" v="shoal" />
		<tag k="place" v="locality" />
		<tag k="ssr:stedsnr" v="746401" />
	</node>
	<node id="-714109" lat="68.6528583317" lon="14.2534944351">
		<tag k="fixme" v="consider seamark:type=rock or natural=shoal" />
		<tag k="name" v="Vettmålsskjæret" />
		<tag k="place" v="islet" />
		<tag k="ssr:stedsnr" v="746392" />
	</node>
	<node id="-714108" lat="68.6599805513" lon="14.2858222278">
		<tag k="name" v="Dypingen" />
		<tag k="place" v="islet" />
		<tag k="ssr:stedsnr" v="746391" />
	</node>
	<node id="-714107" lat="68.6561555521" lon="14.2128055505">
		<tag k="fixme" v="multiple name tags, choose one and add the other to alt_name" />
		<tag k="name" v="Utflesa;Utflesskjæret" />
		<tag k="place" v="islet" />
		<tag k="ssr:stedsnr" v="746385" />
	</node>
	<node id="-714102" lat="68.780222218" lon="14.6223111044">
		<tag k="alt_name" v="Jenneset;Gjenneset" />
		<tag k="name" v="Gjendneset" />
		<tag k="natural" v="cape" />
		<tag k="ssr:stedsnr" v="745980" />
	</node>
	<node id="-714101" lat="68.653461111" lon="14.7173749898">
		<tag k="name" v="Tuvskallen" />
		<tag k="natural" v="shoal" />
		<tag k="place" v="locality" />
		<tag k="ssr:stedsnr" v="745730" />
	</node>
	<node id="-714094" lat="68.6068000043" lon="14.5413444362">
		<tag k="fixme" v="consider seamark:type=rock or natural=shoal" />
		<tag k="name" v="Strandskjæran" />
		<tag k="place" v="islet" />
		<tag k="ssr:stedsnr" v="745588" />
	</node>
	<node id="-714088" lat="68.7422611143" lon="14.5201750088">
		<tag k="name" v="Buøya" />
		<tag k="place" v="island" />
		<tag k="ssr:stedsnr" v="745379" />
	</node>
	<node id="-714087" lat="68.5943638845" lon="14.4102083362">
		<tag k="alt_name" v="Keiseren" />
		<tag k="name" v="Keisaren" />
		<tag k="natural" v="shoal" />
		<tag k="place" v="locality" />
		<tag k="ssr:stedsnr" v="745369" />
	</node>
	<node id="-714086" lat="68.7468194452" lon="14.5246889002">
		<tag k="fixme" v="multiple name tags, choose one and add the other to alt_name" />
		<tag k="name" v="Gangarhaugen;Hjellholmen" />
		<tag k="place" v="islet" />
		<tag k="ssr:stedsnr" v="745364" />
	</node>
	<node id="-714085" lat="68.7463055598" lon="14.4525666601">
		<tag k="alt_name" v="Leifallan" />
		<tag k="fixme" v="consider seamark:type=rock or natural=shoal" />
		<tag k="name" v="Leirfallan" />
		<tag k="place" v="islet" />
		<tag k="ssr:stedsnr" v="745362" />
	</node>
	<node id="-714084" lat="68.5916666694" lon="14.2280722182">
		<tag k="alt_name" v="Skjerskallen" />
		<tag k="name" v="Skjærskallen" />
		<tag k="natural" v="shoal" />
		<tag k="place" v="locality" />
		<tag k="ssr:stedsnr" v="745344" />
	</node>
	<node id="-714083" lat="68.7075444446" lon="14.8135972293">
		<tag k="name" v="Vestpolløya" />
		<tag k="place" v="islet" />
		<tag k="ssr:stedsnr" v="745328" />
	</node>
	<node id="-714079" lat="68.7056583356" lon="14.2526694572">
		<tag k="name" v="Ofsgrunnen" />
		<tag k="natural" v="shoal" />
		<tag k="place" v="locality" />
		<tag k="ssr:stedsnr" v="745481" />
	</node>
	<node id="-714078" lat="68.7389277755" lon="14.3082138912">
		<tag k="name" v="Innerskallen" />
		<tag k="natural" v="shoal" />
		<tag k="place" v="locality" />
		<tag k="ssr:stedsnr" v="745472" />
	</node>
	<node id="-714077" lat="68.6224972207" lon="14.3030833216">
		<tag k="name" v="Knota" />
		<tag k="natural" v="shoal" />
		<tag k="place" v="locality" />
		<tag k="ssr:stedsnr" v="745427" />
	</node>
	<node id="-714068" lat="68.6724500029" lon="14.4674805648">
		<tag k="name" v="Tjønnbogen" />
		<tag k="place" v="locality" />
		<tag k="ssr:stedsnr" v="727078" />
	</node>
	<node id="-714057" lat="68.6611777731" lon="14.6551000105">
		<tag k="name" v="Vikervågen" />
		<tag k="natural" v="bay" />
		<tag k="ssr:stedsnr" v="722400" />
	</node>
	<node id="-714053" lat="68.7126916662" lon="14.6861444357">
		<tag k="name" v="Jørlandssjøen" />
		<tag k="natural" v="bay" />
		<tag k="ssr:stedsnr" v="722376" />
	</node>
	<node id="-714048" lat="68.7763916637" lon="14.6101722102">
		<tag k="name" v="Vedvikskallen" />
		<tag k="natural" v="shoal" />
		<tag k="place" v="locality" />
		<tag k="ssr:stedsnr" v="704632" />
	</node>
	<node id="-714046" lat="68.6626333321" lon="14.4253305632">
		<tag k="fixme" v="consider seamark:type=rock or natural=shoal" />
		<tag k="name" v="Søbergskjæret" />
		<tag k="place" v="islet" />
		<tag k="ssr:stedsnr" v="704545" />
	</node>
	<node id="-714045" lat="68.6755111149" lon="14.4521055621">
		<tag k="name" v="Varpa" />
		<tag k="natural" v="strait" />
		<tag k="ssr:stedsnr" v="704491" />
	</node>
	<node id="-714044" lat="68.6756805602" lon="14.4461888856">
		<tag k="name" v="Sprengran" />
		<tag k="place" v="locality" />
		<tag k="ssr:stedsnr" v="704490" />
	</node>
	<node id="-714041" lat="68.5898305563" lon="14.4144999973">
		<tag k="name" v="Odden" />
		<tag k="place" v="islet" />
		<tag k="ssr:stedsnr" v="704328" />
	</node>
	<node id="-714040" lat="68.6157694491" lon="14.5869611032">
		<tag k="alt_name" v="Iverneset" />
		<tag k="name" v="Ivarneset" />
		<tag k="natural" v="cape" />
		<tag k="ssr:stedsnr" v="704314" />
	</node>
	<node id="-714037" lat="68.6497305546" lon="14.4343000015">
		<tag k="name" v="Fjærvollsjøen" />
		<tag k="natural" v="beach" />
		<tag k="place" v="locality" />
		<tag k="ssr:stedsnr" v="704276" />
	</node>
	<node id="-714031" lat="68.6050222252" lon="14.5186999966">
		<tag k="fixme" v="consider seamark:type=rock or natural=shoal" />
		<tag k="name" v="Mårsundskjæret" />
		<tag k="place" v="islet" />
		<tag k="ssr:stedsnr" v="704240" />
	</node>
	<node id="-714025" lat="68.7374611107" lon="14.6032166713">
		<tag k="name" v="Fjølvika" />
		<tag k="natural" v="bay" />
		<tag k="ssr:stedsnr" v="703348" />
	</node>
	<node id="-714023" lat="68.6534833291" lon="14.4329250082">
		<tag k="fixme" v="consider seamark:type=rock or natural=shoal" />
		<tag k="name" v="Kobbskjæret" />
		<tag k="place" v="islet" />
		<tag k="ssr:stedsnr" v="703329" />
	</node>
	<node id="-714022" lat="68.765902778" lon="14.4204166773">
		<tag k="alt_name" v="Draget" />
		<tag k="name" v="Mosnykdraget" />
		<tag k="place" v="islet" />
		<tag k="ssr:stedsnr" v="703322" />
	</node>
	<node id="-714020" lat="68.6132972184" lon="14.4610194507">
		<tag k="name" v="Leira" />
		<tag k="natural" v="bay" />
		<tag k="ssr:stedsnr" v="703203" />
	</node>
	<node id="-714019" lat="68.6132083362" lon="14.4424944505">
		<tag k="name" v="Sprengran" />
		<tag k="place" v="islet" />
		<tag k="ssr:stedsnr" v="703150" />
	</node>
	<node id="-714018" lat="68.619911109" lon="14.4219027703">
		<tag k="name" v="Strandodden" />
		<tag k="place" v="locality" />
		<tag k="ssr:stedsnr" v="703128" />
	</node>
	<node id="-714017" lat="68.6725916624" lon="14.7050638857">
		<tag k="name" v="Gressholmen" />
		<tag k="place" v="islet" />
		<tag k="ssr:stedsnr" v="703538" />
	</node>
	<node id="-714016" lat="68.6454638866" lon="14.7023916556">
		<tag k="name" v="Sørflua" />
		<tag k="natural" v="shoal" />
		<tag k="place" v="locality" />
		<tag k="ssr:stedsnr" v="703534" />
	</node>
	<node id="-714013" lat="68.7052666637" lon="14.4303444375">
		<tag k="name" v="Stokkvika" />
		<tag k="natural" v="bay" />
		<tag k="ssr:stedsnr" v="688274" />
	</node>
	<node id="-714001" lat="68.7756972252" lon="14.4600138957">
		<tag k="name" v="Gangstø" />
		<tag k="natural" v="bay" />
		<tag k="ssr:stedsnr" v="685992" />
	</node>
	<node id="-714000" lat="68.7790500026" lon="14.4355277714">
		<tag k="name" v="Fuglnyken" />
		<tag k="place" v="island" />
		<tag k="ssr:stedsnr" v="685972" />
	</node>
	<node id="-713999" lat="68.7933027792" lon="14.5896638844">
		<tag k="alt_name" v="Hjellholmen" />
		<tag k="name" v="Røsshagholmen" />
		<tag k="place" v="islet" />
		<tag k="ssr:stedsnr" v="685953" />
	</node>
	<node id="-713998" lat="68.8042305574" lon="14.7248555586">
		<tag k="alt_name" v="Nonøyen" />
		<tag k="name" v="Nonøyan" />
		<tag k="place" v="island" />
		<tag k="ssr:stedsnr" v="685937" />
	</node>
	<node id="-713996" lat="68.806422226" lon="14.5888250078">
		<tag k="fixme" v="consider seamark:type=rock or natural=shoal" />
		<tag k="name" v="Skatleiskjæran" />
		<tag k="place" v="islet" />
		<tag k="ssr:stedsnr" v="685904" />
	</node>
	<node id="-713995" lat="68.8170583296" lon="14.540550011">
		<tag k="alt_name" v="Ramkleivskjeret" />
		<tag k="fixme" v="consider seamark:type=rock or natural=shoal" />
		<tag k="name" v="Ramnkleivskjeret" />
		<tag k="place" v="islet" />
		<tag k="ssr:stedsnr" v="685884" />
	</node>
	<node id="-713994" lat="68.8211194436" lon="14.540444443">
		<tag k="fixme" v="consider seamark:type=rock or natural=shoal" />
		<tag k="name" v="Seiskjæran" />
		<tag k="place" v="islet" />
		<tag k="ssr:stedsnr" v="685883" />
	</node>
	<node id="-713989" lat="68.6566750026" lon="14.7458222331">
		<tag k="name" v="Hammaren" />
		<tag k="place" v="island" />
		<tag k="ssr:stedsnr" v="685697" />
	</node>
	<node id="-713988" lat="68.6576083332" lon="14.6874833239">
		<tag k="name" v="Finnøya" />
		<tag k="place" v="island" />
		<tag k="ssr:stedsnr" v="685694" />
	</node>
	<node id="-713981" lat="68.6074500038" lon="14.4276499969">
		<tag k="name" v="Nautklauva" />
		<tag k="place" v="islet" />
		<tag k="ssr:stedsnr" v="685604" />
	</node>
	<node id="-713980" lat="68.6187138852" lon="14.5815750046">
		<tag k="name" v="Lokkøya" />
		<tag k="place" v="island" />
		<tag k="ssr:stedsnr" v="685600" />
	</node>
	<node id="-713977" lat="68.7634666661" lon="14.7088583213">
		<tag k="name" v="Kråkbergneset" />
		<tag k="natural" v="cape" />
		<tag k="ssr:stedsnr" v="685550" />
	</node>
	<node id="-713975" lat="68.6447638918" lon="14.6540972167">
		<tag k="alt_name" v="Store Buøya;Buøya, store" />
		<tag k="name" v="Storbuøya" />
		<tag k="place" v="islet" />
		<tag k="ssr:stedsnr" v="685543" />
	</node>
	<node id="-713973" lat="68.7565166676" lon="14.4403472221">
		<tag k="name" v="Teisten" />
		<tag k="place" v="islet" />
		<tag k="ssr:stedsnr" v="685529" />
	</node>
	<node id="-713971" lat="68.7740166663" lon="14.587838895">
		<tag k="name" v="Selvågen" />
		<tag k="natural" v="bay" />
		<tag k="ssr:stedsnr" v="685520" />
	</node>
	<node id="-713970" lat="68.6208583329" lon="14.5739305669">
		<tag k="name" v="Lokkøyvågen" />
		<tag k="natural" v="bay" />
		<tag k="ssr:stedsnr" v="685516" />
	</node>
	<node id="-713967" lat="68.6258805559" lon="14.6236638984">
		<tag k="name" v="Innervågen" />
		<tag k="natural" v="bay" />
		<tag k="ssr:stedsnr" v="685513" />
	</node>
	<node id="-713966" lat="68.7442499999" lon="14.3160555523">
		<tag k="name" v="Floholman" />
		<tag k="place" v="islet" />
		<tag k="ssr:stedsnr" v="685457" />
	</node>
	<node id="-713965" lat="68.7482388901" lon="14.3144555651">
		<tag k="name" v="Holmfallan" />
		<tag k="natural" v="shoal" />
		<tag k="place" v="locality" />
		<tag k="ssr:stedsnr" v="685442" />
	</node>
	<node id="-713964" lat="68.6159555587" lon="14.3223916581">
		<tag k="name" v="Øya" />
		<tag k="natural" v="cape" />
		<tag k="ssr:stedsnr" v="685413" />
	</node>
	<node id="-713963" lat="68.6217194489" lon="14.2015055455">
		<tag k="name" v="Braken" />
		<tag k="natural" v="shoal" />
		<tag k="place" v="locality" />
		<tag k="ssr:stedsnr" v="685398" />
	</node>
	<node id="-713962" lat="68.6217638934" lon="14.2561583285">
		<tag k="name" v="Kugrunnen" />
		<tag k="natural" v="shoal" />
		<tag k="place" v="locality" />
		<tag k="ssr:stedsnr" v="685396" />
	</node>
	<node id="-713961" lat="68.6304388927" lon="14.3469027745">
		<tag k="name" v="Rundholmen" />
		<tag k="place" v="islet" />
		<tag k="ssr:stedsnr" v="685392" />
	</node>
	<node id="-713960" lat="68.6398638848" lon="14.2304999931">
		<tag k="name" v="Siribåen" />
		<tag k="natural" v="shoal" />
		<tag k="place" v="locality" />
		<tag k="ssr:stedsnr" v="685382" />
	</node>
	<node id="-713959" lat="68.6583249977" lon="14.3826277876">
		<tag k="alt_name" v="Nordre Husfallan" />
		<tag k="name" v="Husfallan" />
		<tag k="natural" v="shoal" />
		<tag k="place" v="locality" />
		<tag k="ssr:stedsnr" v="685377" />
	</node>
	<node id="-713958" lat="68.6555249973" lon="14.3984805602">
		<tag k="fixme" v="consider seamark:type=rock or natural=shoal" />
		<tag k="name" v="Nattmålsskjæret" />
		<tag k="place" v="islet" />
		<tag k="ssr:stedsnr" v="685375" />
	</node>
	<node id="-713957" lat="68.6601777814" lon="14.3612361088">
		<tag k="name" v="Skoakselsaskallen" />
		<tag k="natural" v="shoal" />
		<tag k="place" v="locality" />
		<tag k="ssr:stedsnr" v="685368" />
	</node>
	<node id="-713956" lat="68.6617444465" lon="14.255361113">
		<tag k="name" v="Brølingan" />
		<tag k="natural" v="shoal" />
		<tag k="place" v="locality" />
		<tag k="ssr:stedsnr" v="685357" />
	</node>
	<node id="-713955" lat="68.6786666671" lon="14.269455562">
		<tag k="name" v="Nordbåen" />
		<tag k="natural" v="shoal" />
		<tag k="place" v="locality" />
		<tag k="ssr:stedsnr" v="685355" />
	</node>
	<node id="-713953" lat="68.7416638871" lon="14.502344445">
		<tag k="name" v="Gustadskallen" />
		<tag k="natural" v="shoal" />
		<tag k="place" v="locality" />
		<tag k="ssr:stedsnr" v="685331" />
	</node>
	<node id="-713945" lat="68.6988138845" lon="14.447119447">
		<tag k="bay" v="fjord" />
		<tag k="name" v="Straumfjorden" />
		<tag k="natural" v="bay" />
		<tag k="ssr:stedsnr" v="685215" />
	</node>
	<node id="-713944" lat="68.6502555516" lon="14.659722211">
		<tag k="name" v="Hestøya" />
		<tag k="place" v="islet" />
		<tag k="ssr:stedsnr" v="685212" />
	</node>
	<node id="-713943" lat="68.6026694422" lon="14.3280555456">
		<tag k="fixme" v="consider seamark:type=rock or natural=shoal" />
		<tag k="name" v="Pusskjæran" />
		<tag k="place" v="islet" />
		<tag k="ssr:stedsnr" v="684320" />
	</node>
	<node id="-713915" lat="68.8352083333" lon="14.6704416578">
		<tag k="name" v="Kjønnbåen" />
		<tag k="natural" v="shoal" />
		<tag k="place" v="locality" />
		<tag k="ssr:stedsnr" v="644177" />
	</node>
	<node id="-713913" lat="68.6982722245" lon="14.3987861105">
		<tag k="name" v="Sørleia" />
		<tag k="natural" v="strait" />
		<tag k="ssr:stedsnr" v="643397" />
	</node>
	<node id="-713912" lat="68.628675003" lon="14.6249861168">
		<tag k="name" v="Holmen" />
		<tag k="place" v="islet" />
		<tag k="ssr:stedsnr" v="643289" />
	</node>
	<node id="-713910" lat="68.6058416624" lon="14.5234472207">
		<tag k="name" v="Mårsundkjosen" />
		<tag k="natural" v="strait" />
		<tag k="ssr:stedsnr" v="643256" />
	</node>
	<node id="-713907" lat="68.6601055516" lon="14.4182305508">
		<tag k="fixme" v="consider seamark:type=rock or natural=shoal" />
		<tag k="name" v="Litl-Reinskjæret" />
		<tag k="place" v="islet" />
		<tag k="ssr:stedsnr" v="642568" />
	</node>
	<node id="-713902" lat="68.6549138886" lon="14.7204361025">
		<tag k="name" v="Bollskjæran" />
		<tag k="place" v="island" />
		<tag k="ssr:stedsnr" v="642475" />
	</node>
	<node id="-713899" lat="68.6065138878" lon="14.4468361015">
		<tag k="name" v="Skagavågen" />
		<tag k="natural" v="bay" />
		<tag k="ssr:stedsnr" v="642283" />
	</node>
	<node id="-713898" lat="68.7779444485" lon="14.4746138824">
		<tag k="name" v="Molla" />
		<tag k="natural" v="bay" />
		<tag k="ssr:stedsnr" v="642280" />
	</node>
	<node id="-713897" lat="68.7809611134" lon="14.4758305676">
		<tag k="name" v="Krigsneset" />
		<tag k="natural" v="cape" />
		<tag k="ssr:stedsnr" v="642278" />
	</node>
	<node id="-713884" lat="68.7178250003" lon="14.4370972102">
		<tag k="name" v="Kjerringstranda" />
		<tag k="natural" v="beach" />
		<tag k="place" v="locality" />
		<tag k="ssr:stedsnr" v="627272" />
	</node>
	<node id="-713883" lat="68.7034916642" lon="14.4061277836">
		<tag k="name" v="Gras-Kremmarholmen" />
		<tag k="place" v="islet" />
		<tag k="ssr:stedsnr" v="627270" />
	</node>
	<node id="-713882" lat="68.7048388918" lon="14.412291676">
		<tag k="fixme" v="consider seamark:type=rock or natural=shoal" />
		<tag k="name" v="Skarvsteinen" />
		<tag k="place" v="islet" />
		<tag k="ssr:stedsnr" v="627269" />
	</node>
	<node id="-713877" lat="68.6788166669" lon="14.4624750121">
		<tag k="name" v="Båtneset" />
		<tag k="natural" v="cape" />
		<tag k="ssr:stedsnr" v="627218" />
	</node>
	<node id="-713874" lat="68.7083444428" lon="14.4048055437">
		<tag k="name" v="Seitåga" />
		<tag k="natural" v="shoal" />
		<tag k="place" v="locality" />
		<tag k="ssr:stedsnr" v="627156" />
	</node>
	<node id="-713872" lat="68.7140861094" lon="14.4259610991">
		<tag k="name" v="Flaskforet" />
		<tag k="natural" v="cape" />
		<tag k="ssr:stedsnr" v="627142" />
	</node>
	<node id="-713866" lat="68.7300333309" lon="14.4771000104">
		<tag k="fixme" v="consider seamark:type=rock or natural=shoal" />
		<tag k="name" v="Sjøburdskjæret" />
		<tag k="place" v="islet" />
		<tag k="ssr:stedsnr" v="627018" />
	</node>
	<node id="-713863" lat="68.8157527766" lon="14.5220833381">
		<tag k="fixme" v="consider seamark:type=rock or natural=shoal" />
		<tag k="name" v="Rivskjæret" />
		<tag k="place" v="islet" />
		<tag k="ssr:stedsnr" v="624873" />
	</node>
	<node id="-713862" lat="68.8188805554" lon="14.5180861097">
		<tag k="name" v="Tindbåen" />
		<tag k="natural" v="shoal" />
		<tag k="place" v="locality" />
		<tag k="ssr:stedsnr" v="624872" />
	</node>
	<node id="-713860" lat="68.8349722246" lon="14.5752916557">
		<tag k="alt_name" v="Skårgrunnskanken" />
		<tag k="name" v="Skorgrunnskanken" />
		<tag k="natural" v="shoal" />
		<tag k="place" v="locality" />
		<tag k="ssr:stedsnr" v="624842" />
	</node>
	<node id="-713859" lat="68.6713000039" lon="14.6798277909">
		<tag k="name" v="Risholmen" />
		<tag k="place" v="islet" />
		<tag k="ssr:stedsnr" v="624736" />
	</node>
	<node id="-713857" lat="68.6611527744" lon="14.4429749927">
		<tag k="name" v="Førholmen" />
		<tag k="place" v="islet" />
		<tag k="ssr:stedsnr" v="624721" />
	</node>
	<node id="-713856" lat="68.6518833345" lon="14.6812861052">
		<tag k="alt_name" v="Varholmen, nordre;Nordre Varholmen" />
		<tag k="name" v="Nordvardholmen" />
		<tag k="place" v="islet" />
		<tag k="ssr:stedsnr" v="624696" />
	</node>
	<node id="-713847" lat="68.6181861137" lon="14.6222749958">
		<tag k="name" v="Nisa" />
		<tag k="place" v="islet" />
		<tag k="ssr:stedsnr" v="624606" />
	</node>
	<node id="-713846" lat="68.6050277809" lon="14.4773166671">
		<tag k="fixme" v="consider seamark:type=rock or natural=shoal" />
		<tag k="name" v="Småskjæran" />
		<tag k="place" v="islet" />
		<tag k="ssr:stedsnr" v="624592" />
	</node>
	<node id="-713845" lat="68.6036083354" lon="14.462650011">
		<tag k="name" v="Steineneset" />
		<tag k="natural" v="cape" />
		<tag k="ssr:stedsnr" v="624590" />
	</node>
	<node id="-713844" lat="68.7570166691" lon="14.4340027851">
		<tag k="name" v="Spjøten" />
		<tag k="place" v="island" />
		<tag k="ssr:stedsnr" v="624553" />
	</node>
	<node id="-713841" lat="68.630505557" lon="14.4404499888">
		<tag k="name" v="Gimstadbukta" />
		<tag k="natural" v="bay" />
		<tag k="ssr:stedsnr" v="624527" />
	</node>
	<node id="-713836" lat="68.767925001" lon="14.444002776">
		<tag k="fixme" v="consider seamark:type=rock or natural=shoal" />
		<tag k="name" v="Kråkskjæret" />
		<tag k="place" v="islet" />
		<tag k="ssr:stedsnr" v="624515" />
	</node>
	<node id="-713835" lat="68.6943111133" lon="14.3276277754">
		<tag k="name" v="Grunnskallen" />
		<tag k="natural" v="shoal" />
		<tag k="place" v="locality" />
		<tag k="ssr:stedsnr" v="624501" />
	</node>
	<node id="-713834" lat="68.7087138871" lon="14.3970000031">
		<tag k="name" v="Seitågskallen" />
		<tag k="natural" v="shoal" />
		<tag k="place" v="locality" />
		<tag k="ssr:stedsnr" v="624489" />
	</node>
	<node id="-713833" lat="68.74306944" lon="14.391325011">
		<tag k="name" v="Skogsøyskallen" />
		<tag k="natural" v="shoal" />
		<tag k="place" v="locality" />
		<tag k="ssr:stedsnr" v="624485" />
	</node>
	<node id="-713832" lat="68.6379888903" lon="14.3598111051">
		<tag k="alt_name" v="Rassmusstøa" />
		<tag k="name" v="Rasmusstøa" />
		<tag k="natural" v="shoal" />
		<tag k="place" v="locality" />
		<tag k="ssr:stedsnr" v="624424" />
	</node>
	<node id="-713831" lat="68.6772583301" lon="14.3114194499">
		<tag k="name" v="Kopen" />
		<tag k="natural" v="shoal" />
		<tag k="place" v="locality" />
		<tag k="ssr:stedsnr" v="624397" />
	</node>
	<node id="-713828" lat="68.615919443" lon="14.4007944514">
		<tag k="alt_name" v="Svinøya, s" />
		<tag k="name" v="Sør-Svinøya" />
		<tag k="place" v="island" />
		<tag k="ssr:stedsnr" v="624334" />
	</node>
	<node id="-713819" lat="68.5953222239" lon="14.2892166747">
		<tag k="name" v="Styrmannståga" />
		<tag k="natural" v="shoal" />
		<tag k="place" v="locality" />
		<tag k="ssr:stedsnr" v="623349" />
	</node>
	<node id="-713818" lat="68.5759833323" lon="14.409038891">
		<tag k="name" v="Grunnskallen" />
		<tag k="natural" v="shoal" />
		<tag k="place" v="locality" />
		<tag k="ssr:stedsnr" v="623339" />
	</node>
	<node id="-713817" lat="68.7467694413" lon="14.4803416768">
		<tag k="name" v="Kallarneset" />
		<tag k="natural" v="cape" />
		<tag k="ssr:stedsnr" v="623334" />
	</node>
	<node id="-713816" lat="68.7437777765" lon="14.522236118">
		<tag k="name" v="Hitterøya" />
		<tag k="place" v="islet" />
		<tag k="ssr:stedsnr" v="623331" />
	</node>
	<node id="-713807" lat="68.7902972228" lon="14.5147444454">
		<tag k="name" v="Stranda" />
		<tag k="natural" v="beach" />
		<tag k="place" v="locality" />
		<tag k="ssr:stedsnr" v="602340" />
	</node>
	<node id="-713801" lat="68.6553333316" lon="14.6434722198">
		<tag k="name" v="Innerneset" />
		<tag k="natural" v="cape" />
		<tag k="ssr:stedsnr" v="601405" />
	</node>
	<node id="-713799" lat="68.6541694481" lon="14.6807111133">
		<tag k="name" v="Sandholmen" />
		<tag k="place" v="islet" />
		<tag k="ssr:stedsnr" v="601391" />
	</node>
	<node id="-713798" lat="68.6793805539" lon="14.7262166681">
		<tag k="name" v="Bogen" />
		<tag k="natural" v="strait" />
		<tag k="ssr:stedsnr" v="601387" />
	</node>
	<node id="-713797" lat="68.6615333325" lon="14.6910000063">
		<tag k="name" v="Lisbetholmen" />
		<tag k="place" v="islet" />
		<tag k="ssr:stedsnr" v="601386" />
	</node>
	<node id="-713796" lat="68.694258332" lon="14.6889694384">
		<tag k="name" v="Skorpnesan" />
		<tag k="natural" v="cape" />
		<tag k="ssr:stedsnr" v="601376" />
	</node>
	<node id="-713790" lat="68.6151527746" lon="14.3020361126">
		<tag k="name" v="Kviga" />
		<tag k="natural" v="shoal" />
		<tag k="place" v="locality" />
		<tag k="ssr:stedsnr" v="597143" />
	</node>
	<node id="-713788" lat="68.8250000003" lon="13.9166666674">
		<tag k="name" v="Eggagrunnen" />
		<tag k="natural" v="shoal" />
		<tag k="place" v="locality" />
		<tag k="ssr:stedsnr" v="586780" />
	</node>
	<node id="-713786" lat="68.8316861121" lon="14.6366972319">
		<tag k="name" v="Bjoren" />
		<tag k="natural" v="shoal" />
		<tag k="place" v="locality" />
		<tag k="ssr:stedsnr" v="583173" />
	</node>
	<node id="-713783" lat="68.7547388908" lon="14.4187277712">
		<tag k="name" v="Spjøthella" />
		<tag k="natural" v="shoal" />
		<tag k="place" v="locality" />
		<tag k="ssr:stedsnr" v="582455" />
	</node>
	<node id="-713779" lat="68.6040194483" lon="14.4571166615">
		<tag k="name" v="Langneset" />
		<tag k="natural" v="cape" />
		<tag k="ssr:stedsnr" v="582344" />
	</node>
	<node id="-713778" lat="68.782938887" lon="14.4745694562">
		<tag k="name" v="Gropskallen" />
		<tag k="natural" v="shoal" />
		<tag k="place" v="locality" />
		<tag k="ssr:stedsnr" v="582308" />
	</node>
	<node id="-713771" lat="68.6264916669" lon="14.4239944451">
		<tag k="fixme" v="consider seamark:type=rock or natural=shoal" />
		<tag k="name" v="Valskjæret" />
		<tag k="place" v="islet" />
		<tag k="ssr:stedsnr" v="582181" />
	</node>
	<node id="-713770" lat="68.7340388919" lon="14.6374222239">
		<tag k="name" v="Haugsjøen" />
		<tag k="natural" v="beach" />
		<tag k="place" v="locality" />
		<tag k="ssr:stedsnr" v="581739" />
	</node>
	<node id="-713768" lat="68.7311388848" lon="14.5308527869">
		<tag k="fixme" v="consider seamark:type=rock or natural=shoal" />
		<tag k="name" v="Grubbskjæret" />
		<tag k="place" v="islet" />
		<tag k="ssr:stedsnr" v="581646" />
	</node>
	<node id="-713765" lat="68.777249999" lon="14.4397999916">
		<tag k="name" v="Lofotbåen" />
		<tag k="natural" v="shoal" />
		<tag k="place" v="locality" />
		<tag k="ssr:stedsnr" v="581315" />
	</node>
	<node id="-713763" lat="68.812425" lon="14.5347888899">
		<tag k="name" v="Nautneset" />
		<tag k="natural" v="cape" />
		<tag k="ssr:stedsnr" v="581297" />
	</node>
	<node id="-713756" lat="68.6775387406" lon="14.4157472577">
		<tag k="name" v="Lensmannsholmen" />
		<tag k="place" v="islet" />
		<tag k="ssr:stedsnr" v="567221" />
	</node>
	<node id="-713752" lat="68.704761107" lon="14.4066638987">
		<tag k="name" v="Høg-Kremmarholmen" />
		<tag k="place" v="islet" />
		<tag k="ssr:stedsnr" v="567146" />
	</node>
	<node id="-713749" lat="68.7101111131" lon="14.4275222266">
		<tag k="name" v="Jurhalsfjæra" />
		<tag k="natural" v="beach" />
		<tag k="place" v="locality" />
		<tag k="ssr:stedsnr" v="567131" />
	</node>
	<node id="-713743" lat="68.7501194466" lon="14.7456055553">
		<tag k="name" v="Teistholman" />
		<tag k="place" v="islet" />
		<tag k="ssr:stedsnr" v="564584" />
	</node>
	<node id="-713740" lat="68.78586389" lon="14.6392277712">
		<tag k="name" v="Hysjordneset" />
		<tag k="natural" v="cape" />
		<tag k="ssr:stedsnr" v="563985" />
	</node>
	<node id="-713738" lat="68.7791305564" lon="14.6906305634">
		<tag k="name" v="Møklandsnesan" />
		<tag k="natural" v="cape" />
		<tag k="ssr:stedsnr" v="563980" />
	</node>
	<node id="-713734" lat="68.8109083328" lon="14.5716611196">
		<tag k="name" v="Laupen" />
		<tag k="natural" v="cape" />
		<tag k="ssr:stedsnr" v="563933" />
	</node>
	<node id="-713732" lat="68.8196944449" lon="14.55818055">
		<tag k="name" v="Brakanskjæret" />
		<tag k="natural" v="shoal" />
		<tag k="place" v="locality" />
		<tag k="ssr:stedsnr" v="563907" />
	</node>
	<node id="-713731" lat="68.8302305596" lon="14.5653583434">
		<tag k="name" v="Frugga" />
		<tag k="place" v="island" />
		<tag k="ssr:stedsnr" v="563887" />
	</node>
	<node id="-713730" lat="68.8333777762" lon="14.6273388957">
		<tag k="name" v="Varpa" />
		<tag k="natural" v="shoal" />
		<tag k="place" v="locality" />
		<tag k="ssr:stedsnr" v="563869" />
	</node>
	<node id="-713729" lat="68.6569749967" lon="14.7246944354">
		<tag k="alt_name" v="Mikkeløya" />
		<tag k="name" v="Mikkelsøya" />
		<tag k="place" v="island" />
		<tag k="ssr:stedsnr" v="563749" />
	</node>
	<node id="-713727" lat="68.6370527813" lon="14.4296999998">
		<tag k="name" v="Gimstadneset" />
		<tag k="natural" v="cape" />
		<tag k="ssr:stedsnr" v="563722" />
	</node>
	<node id="-713724" lat="68.6784166663" lon="14.7855722122">
		<tag k="bay" v="fjord" />
		<tag k="name" v="Hellfjorden" />
		<tag k="natural" v="bay" />
		<tag k="ssr:stedsnr" v="563669" />
	</node>
	<node id="-713720" lat="68.7652138865" lon="14.6863222238">
		<tag k="name" v="Kjosen" />
		<tag k="natural" v="bay" />
		<tag k="ssr:stedsnr" v="563536" />
	</node>
	<node id="-713719" lat="68.7606444461" lon="14.4463527711">
		<tag k="name" v="Engenyken" />
		<tag k="place" v="islet" />
		<tag k="ssr:stedsnr" v="563532" />
	</node>
	<node id="-713718" lat="68.6356166651" lon="14.6509666719">
		<tag k="fixme" v="multiple name tags, choose one and add the other to alt_name" />
		<tag k="name" v="Gjerde;Gjerneset" />
		<tag k="natural" v="cape" />
		<tag k="ssr:stedsnr" v="563529" />
	</node>
	<node id="-713716" lat="68.6301277797" lon="14.6330277698">
		<tag k="name" v="Sjøneset" />
		<tag k="natural" v="cape" />
		<tag k="ssr:stedsnr" v="563511" />
	</node>
	<node id="-713712" lat="68.6207305574" lon="14.556633329">
		<tag k="name" v="Bøstranda" />
		<tag k="natural" v="beach" />
		<tag k="place" v="locality" />
		<tag k="ssr:stedsnr" v="563499" />
	</node>
	<node id="-713711" lat="68.7692166689" lon="14.433247213">
		<tag k="name" v="Votten" />
		<tag k="place" v="islet" />
		<tag k="ssr:stedsnr" v="563491" />
	</node>
	<node id="-713710" lat="68.7449166646" lon="14.3028499923">
		<tag k="name" v="Tåskallen" />
		<tag k="natural" v="shoal" />
		<tag k="place" v="locality" />
		<tag k="ssr:stedsnr" v="563455" />
	</node>
	<node id="-713709" lat="68.6097472226" lon="14.2483333436">
		<tag k="alt_name" v="Sølvbeinskallen" />
		<tag k="name" v="Sørbeinskallen" />
		<tag k="natural" v="shoal" />
		<tag k="place" v="locality" />
		<tag k="ssr:stedsnr" v="563417" />
	</node>
	<node id="-713708" lat="68.6182638923" lon="14.2912333345">
		<tag k="name" v="Vågsleia" />
		<tag k="natural" v="strait" />
		<tag k="ssr:stedsnr" v="563406" />
	</node>
	<node id="-713707" lat="68.6296833363" lon="14.3863444573">
		<tag k="name" v="Forragrunnen" />
		<tag k="natural" v="shoal" />
		<tag k="place" v="locality" />
		<tag k="ssr:stedsnr" v="563400" />
	</node>
	<node id="-713706" lat="68.6831999985" lon="14.3970944346">
		<tag k="name" v="Kattneset" />
		<tag k="natural" v="cape" />
		<tag k="ssr:stedsnr" v="563371" />
	</node>
	<node id="-713705" lat="68.679563889" lon="14.3517500018">
		<tag k="name" v="Vikfjellskallen" />
		<tag k="natural" v="shoal" />
		<tag k="place" v="locality" />
		<tag k="ssr:stedsnr" v="563365" />
	</node>
	<node id="-713703" lat="68.6854999982" lon="14.2890722267">
		<tag k="name" v="Skarvholmen" />
		<tag k="place" v="islet" />
		<tag k="ssr:stedsnr" v="563357" />
	</node>
	<node id="-713702" lat="68.696080494" lon="14.4088011142">
		<tag k="name" v="Sendingan" />
		<tag k="natural" v="beach" />
		<tag k="place" v="locality" />
		<tag k="ssr:stedsnr" v="563358" />
	</node>
	<node id="-713701" lat="68.7385777755" lon="14.6133138909">
		<tag k="alt_name" v="Ternholmen" />
		<tag k="name" v="Tennholmen" />
		<tag k="place" v="islet" />
		<tag k="ssr:stedsnr" v="563356" />
	</node>
	<node id="-713698" lat="68.7092777745" lon="14.6831333408">
		<tag k="name" v="Verhalsholmen" />
		<tag k="place" v="islet" />
		<tag k="ssr:stedsnr" v="563279" />
	</node>
	<node id="-713695" lat="68.5938638911" lon="14.4667527827">
		<tag k="alt_name" v="Gjersøygrunna" />
		<tag k="name" v="Gjersøygrunnen" />
		<tag k="natural" v="shoal" />
		<tag k="place" v="locality" />
		<tag k="ssr:stedsnr" v="562584" />
	</node>
	<node id="-713694" lat="68.7438472192" lon="14.6035249987">
		<tag k="name" v="Sundsstraumen" />
		<tag k="natural" v="strait" />
		<tag k="ssr:stedsnr" v="562342" />
	</node>
	<node id="-713693" lat="68.5923111077" lon="14.3110888766">
		<tag k="name" v="Vikrvågen" />
		<tag k="natural" v="bay" />
		<tag k="ssr:stedsnr" v="562329" />
	</node>
	<node id="-713692" lat="68.5980694427" lon="14.3238083393">
		<tag k="name" v="Litløyvågen" />
		<tag k="natural" v="bay" />
		<tag k="ssr:stedsnr" v="562320" />
	</node>
	<node id="-713691" lat="68.5941083309" lon="14.4159722323">
		<tag k="name" v="Kjeholmen" />
		<tag k="place" v="islet" />
		<tag k="ssr:stedsnr" v="562316" />
	</node>
	<node id="-713690" lat="68.6015055537" lon="14.2269916783">
		<tag k="name" v="Krasskallen" />
		<tag k="natural" v="shoal" />
		<tag k="place" v="locality" />
		<tag k="ssr:stedsnr" v="562304" />
	</node>
	<node id="-713689" lat="68.6570222179" lon="14.6316527751">
		<tag k="name" v="Leirbukta" />
		<tag k="natural" v="bay" />
		<tag k="ssr:stedsnr" v="545144" />
	</node>
	<node id="-713686" lat="68.6550500011" lon="14.6289277896">
		<tag k="name" v="Ytterneset" />
		<tag k="natural" v="cape" />
		<tag k="ssr:stedsnr" v="545130" />
	</node>
	<node id="-713676" lat="68.6780638847" lon="14.6767500081">
		<tag k="name" v="Skogholmen" />
		<tag k="place" v="islet" />
		<tag k="ssr:stedsnr" v="540479" />
	</node>
	<node id="-713675" lat="68.6675333295" lon="14.6759388818">
		<tag k="name" v="Nordneset" />
		<tag k="natural" v="cape" />
		<tag k="ssr:stedsnr" v="540397" />
	</node>
	<node id="-713674" lat="68.6638305533" lon="14.717294454">
		<tag k="name" v="Langnesan" />
		<tag k="natural" v="cape" />
		<tag k="ssr:stedsnr" v="540394" />
	</node>
	<node id="-713672" lat="68.652919445" lon="14.6876972285">
		<tag k="name" v="Litlrødholmen" />
		<tag k="place" v="islet" />
		<tag k="ssr:stedsnr" v="540384" />
	</node>
	<node id="-713669" lat="68.6319611124" lon="14.6695444335">
		<tag k="name" v="Storøya" />
		<tag k="place" v="islet" />
		<tag k="ssr:stedsnr" v="540359" />
	</node>
	<node id="-713668" lat="68.7546749999" lon="14.4337666672">
		<tag k="fixme" v="consider seamark:type=rock or natural=shoal" />
		<tag k="name" v="Nattmålskjæret" />
		<tag k="place" v="islet" />
		<tag k="ssr:stedsnr" v="538323" />
	</node>
	<node id="-713663" lat="68.8001722202" lon="14.6249444343">
		<tag k="name" v="Vardneset" />
		<tag k="natural" v="cape" />
		<tag k="ssr:stedsnr" v="521725" />
	</node>
	<node id="-713661" lat="68.6635583326" lon="14.4558472265">
		<tag k="name" v="Førsjøen" />
		<tag k="natural" v="bay" />
		<tag k="ssr:stedsnr" v="521577" />
	</node>
	<node id="-713660" lat="68.6649388878" lon="14.4203444423">
		<tag k="name" v="Søbergssanden" />
		<tag k="natural" v="beach" />
		<tag k="place" v="locality" />
		<tag k="ssr:stedsnr" v="521575" />
	</node>
	<node id="-713652" lat="68.5972972243" lon="14.4844388917">
		<tag k="fixme" v="consider seamark:type=rock or natural=shoal" />
		<tag k="name" v="Farvelsodden" />
		<tag k="place" v="islet" />
		<tag k="ssr:stedsnr" v="521463" />
	</node>
	<node id="-713650" lat="68.6108944413" lon="14.4790888935">
		<tag k="name" v="Steinevågen" />
		<tag k="natural" v="bay" />
		<tag k="ssr:stedsnr" v="521418" />
	</node>
	<node id="-713648" lat="68.8176694433" lon="14.5439555459">
		<tag k="fixme" v="consider seamark:type=rock or natural=shoal" />
		<tag k="name" v="Innerkviga" />
		<tag k="place" v="islet" />
		<tag k="ssr:stedsnr" v="521353" />
	</node>
	<node id="-713647" lat="68.7341111098" lon="14.5723694435">
		<tag k="name" v="Kråknesbukta" />
		<tag k="natural" v="bay" />
		<tag k="ssr:stedsnr" v="521318" />
	</node>
	<node id="-713643" lat="68.7823277783" lon="14.4594305654">
		<tag k="name" v="Tinneset" />
		<tag k="natural" v="cape" />
		<tag k="ssr:stedsnr" v="521264" />
	</node>
	<node id="-713642" lat="68.8320361091" lon="14.574505554">
		<tag k="name" v="Nordfallet" />
		<tag k="natural" v="shoal" />
		<tag k="place" v="locality" />
		<tag k="ssr:stedsnr" v="521263" />
	</node>
	<node id="-713638" lat="68.6231861076" lon="14.414761111">
		<tag k="name" v="Kalvrumpa" />
		<tag k="place" v="locality" />
		<tag k="ssr:stedsnr" v="521169" />
	</node>
	<node id="-713637" lat="68.6153611113" lon="14.4392222219">
		<tag k="name" v="Vinjevågen" />
		<tag k="natural" v="bay" />
		<tag k="ssr:stedsnr" v="521117" />
	</node>
	<node id="-713635" lat="68.6262750043" lon="14.411844445">
		<tag k="name" v="Svinøyan" />
		<tag k="place" v="island" />
		<tag k="ssr:stedsnr" v="511781" />
	</node>
	<node id="-713631" lat="68.6963861119" lon="14.400202786">
		<tag k="name" v="Lendingan" />
		<tag k="natural" v="bay" />
		<tag k="ssr:stedsnr" v="506228" />
	</node>
	<node id="-713622" lat="68.6813638878" lon="14.4059666579">
		<tag k="name" v="Askvika" />
		<tag k="natural" v="bay" />
		<tag k="ssr:stedsnr" v="506038" />
	</node>
	<node id="-713621" lat="68.7333777796" lon="14.4564194511">
		<tag k="name" v="Sørøya" />
		<tag k="place" v="island" />
		<tag k="ssr:stedsnr" v="506032" />
	</node>
	<node id="-713620" lat="68.7363111068" lon="14.4513444477">
		<tag k="name" v="Nordøya" />
		<tag k="place" v="island" />
		<tag k="ssr:stedsnr" v="506033" />
	</node>
	<node id="-713618" lat="68.7875750033" lon="14.6982388974">
		<tag k="name" v="Gullholmen" />
		<tag k="place" v="islet" />
		<tag k="ssr:stedsnr" v="503991" />
	</node>
	<node id="-713615" lat="68.779683338" lon="14.4577916588">
		<tag k="name" v="Gårdsnyken" />
		<tag k="natural" v="cape" />
		<tag k="ssr:stedsnr" v="503962" />
	</node>
	<node id="-713614" lat="68.7913611129" lon="14.7153277901">
		<tag k="bay" v="fjord" />
		<tag k="name" v="Møklandsfjorden" />
		<tag k="natural" v="bay" />
		<tag k="ssr:stedsnr" v="503954" />
	</node>
	<node id="-713612" lat="68.7890361075" lon="14.4400638806">
		<tag k="alt_name" v="Sjefsgrunnen" />
		<tag k="name" v="Skjeftgrunnen" />
		<tag k="natural" v="shoal" />
		<tag k="place" v="locality" />
		<tag k="ssr:stedsnr" v="503920" />
	</node>
	<node id="-713610" lat="68.8113083362" lon="14.5884638955">
		<tag k="name" v="Skarvsteinen" />
		<tag k="place" v="islet" />
		<tag k="ssr:stedsnr" v="503864" />
	</node>
	<node id="-713606" lat="68.669669445" lon="14.712919453">
		<tag k="name" v="Mellomøya" />
		<tag k="place" v="islet" />
		<tag k="ssr:stedsnr" v="503691" />
	</node>
	<node id="-713599" lat="68.6147138934" lon="14.5657416595">
		<tag k="name" v="Bøholmen" />
		<tag k="place" v="islet" />
		<tag k="ssr:stedsnr" v="503577" />
	</node>
	<node id="-713598" lat="68.6066916683" lon="14.5191555503">
		<tag k="name" v="Mårsundvågen" />
		<tag k="natural" v="bay" />
		<tag k="ssr:stedsnr" v="503565" />
	</node>
	<node id="-713594" lat="68.7534249994" lon="14.7049333218">
		<tag k="alt_name" v="Straumsnes" />
		<tag k="name" v="Strømneset" />
		<tag k="natural" v="cape" />
		<tag k="ssr:stedsnr" v="503501" />
	</node>
	<node id="-713593" lat="68.6249027765" lon="14.6614833374">
		<tag k="alt_name" v="Kleningen" />
		<tag k="name" v="Klænningen" />
		<tag k="natural" v="shoal" />
		<tag k="place" v="locality" />
		<tag k="ssr:stedsnr" v="503496" />
	</node>
	<node id="-713591" lat="68.6106861081" lon="14.4332916689">
		<tag k="name" v="Flatholmen" />
		<tag k="place" v="islet" />
		<tag k="ssr:stedsnr" v="503478" />
	</node>
	<node id="-713590" lat="68.6888805522" lon="14.3057527657">
		<tag k="alt_name" v="Inner Stein;Stein, in" />
		<tag k="name" v="Indre Stein" />
		<tag k="natural" v="shoal" />
		<tag k="place" v="locality" />
		<tag k="ssr:stedsnr" v="503467" />
	</node>
	<node id="-713589" lat="68.7096555568" lon="14.2698750051">
		<tag k="alt_name" v="Ånskallen" />
		<tag k="name" v="Ongskallen" />
		<tag k="natural" v="shoal" />
		<tag k="place" v="locality" />
		<tag k="ssr:stedsnr" v="503459" />
	</node>
	<node id="-713588" lat="68.7085138899" lon="14.3674416679">
		<tag k="name" v="Flesskallen" />
		<tag k="natural" v="shoal" />
		<tag k="place" v="locality" />
		<tag k="ssr:stedsnr" v="503458" />
	</node>
	<node id="-713587" lat="68.7253638901" lon="14.3380555617">
		<tag k="alt_name" v="Nord Hausan" />
		<tag k="name" v="Hausan" />
		<tag k="natural" v="shoal" />
		<tag k="place" v="locality" />
		<tag k="ssr:stedsnr" v="503454" />
	</node>
	<node id="-713586" lat="68.6213916653" lon="14.4094250083">
		<tag k="name" v="Svinøykalven" />
		<tag k="place" v="island" />
		<tag k="ssr:stedsnr" v="503417" />
	</node>
	<node id="-713584" lat="68.6654888854" lon="14.2940916716">
		<tag k="name" v="Leiskallen" />
		<tag k="natural" v="shoal" />
		<tag k="place" v="locality" />
		<tag k="ssr:stedsnr" v="503371" />
	</node>
	<node id="-713583" lat="68.6638888853" lon="14.3792222259">
		<tag k="name" v="Hella" />
		<tag k="natural" v="shoal" />
		<tag k="place" v="locality" />
		<tag k="ssr:stedsnr" v="503368" />
	</node>
	<node id="-713581" lat="68.6830666626" lon="14.243788893">
		<tag k="name" v="Vittingleia" />
		<tag k="natural" v="strait" />
		<tag k="ssr:stedsnr" v="503358" />
	</node>
	<node id="-713577" lat="68.7017611089" lon="14.4269388861">
		<tag k="name" v="Vikanøya" />
		<tag k="place" v="islet" />
		<tag k="ssr:stedsnr" v="503289" />
	</node>
	<node id="-713574" lat="68.7254527735" lon="14.4622833382">
		<tag k="name" v="Burneset" />
		<tag k="natural" v="cape" />
		<tag k="ssr:stedsnr" v="503228" />
	</node>
	<node id="-713573" lat="68.5966000045" lon="14.4451999895">
		<tag k="alt_name" v="Ytregjersøya" />
		<tag k="name" v="Yttergjersøya" />
		<tag k="place" v="island" />
		<tag k="ssr:stedsnr" v="502577" />
	</node>
	<node id="-713572" lat="68.5964361094" lon="14.4612250033">
		<tag k="name" v="Seisteinen" />
		<tag k="natural" v="shoal" />
		<tag k="place" v="locality" />
		<tag k="ssr:stedsnr" v="502575" />
	</node>
	<node id="-713571" lat="68.748577775" lon="14.4534027823">
		<tag k="name" v="Meraftesodden" />
		<tag k="place" v="islet" />
		<tag k="ssr:stedsnr" v="502325" />
	</node>
	<node id="-713556" lat="68.6816749956" lon="14.7304777787">
		<tag k="name" v="Hertviknesan" />
		<tag k="natural" v="cape" />
		<tag k="ssr:stedsnr" v="480519" />
	</node>
	<node id="-713551" lat="68.6557916647" lon="14.4259749986">
		<tag k="name" v="Oterklubben" />
		<tag k="natural" v="cape" />
		<tag k="ssr:stedsnr" v="461584" />
	</node>
	<node id="-713546" lat="68.5985555598" lon="14.4939611057">
		<tag k="fixme" v="consider seamark:type=rock or natural=shoal" />
		<tag k="name" v="Klefterskjæret" />
		<tag k="place" v="islet" />
		<tag k="ssr:stedsnr" v="461474" />
	</node>
	<node id="-713545" lat="68.6167250032" lon="14.6200972342">
		<tag k="fixme" v="consider seamark:type=rock or natural=shoal" />
		<tag k="name" v="Leiskjæret" />
		<tag k="place" v="islet" />
		<tag k="ssr:stedsnr" v="461295" />
	</node>
	<node id="-713543" lat="68.8328611142" lon="14.5779888838">
		<tag k="name" v="Skårgrunntåga" />
		<tag k="natural" v="shoal" />
		<tag k="place" v="locality" />
		<tag k="ssr:stedsnr" v="461288" />
	</node>
	<node id="-713539" lat="68.607077781" lon="14.5415999913">
		<tag k="name" v="Risnakkholmen" />
		<tag k="place" v="islet" />
		<tag k="ssr:stedsnr" v="461271" />
	</node>
	<node id="-713537" lat="68.6138444421" lon="14.4617194528">
		<tag k="name" v="Langstranda" />
		<tag k="natural" v="beach" />
		<tag k="place" v="locality" />
		<tag k="ssr:stedsnr" v="461185" />
	</node>
	<node id="-713536" lat="68.620730551" lon="14.4198166717">
		<tag k="name" v="Hestholmen" />
		<tag k="place" v="islet" />
		<tag k="ssr:stedsnr" v="461178" />
	</node>
	<node id="-713534" lat="68.8192805577" lon="14.5392583289">
		<tag k="fixme" v="consider seamark:type=rock or natural=shoal" />
		<tag k="name" v="Faksen" />
		<tag k="place" v="islet" />
		<tag k="ssr:stedsnr" v="461338" />
	</node>
	<node id="-713532" lat="68.7039055549" lon="14.4337999943">
		<tag k="name" v="Skjellvika" />
		<tag k="natural" v="bay" />
		<tag k="ssr:stedsnr" v="446279" />
	</node>
	<node id="-713531" lat="68.7030388863" lon="14.4334555529">
		<tag k="fixme" v="consider seamark:type=rock or natural=shoal" />
		<tag k="name" v="Olbogskjæret" />
		<tag k="place" v="islet" />
		<tag k="ssr:stedsnr" v="446276" />
	</node>
	<node id="-713530" lat="68.7020138883" lon="14.4373722276">
		<tag k="name" v="Nesan" />
		<tag k="natural" v="cape" />
		<tag k="ssr:stedsnr" v="446265" />
	</node>
	<node id="-713525" lat="68.6803249998" lon="14.4096083224">
		<tag k="name" v="Oppsåta" />
		<tag k="natural" v="bay" />
		<tag k="ssr:stedsnr" v="446048" />
	</node>
	<node id="-713524" lat="68.6798138918" lon="14.4085194381">
		<tag k="name" v="Vårfallsenget" />
		<tag k="natural" v="cape" />
		<tag k="ssr:stedsnr" v="446045" />
	</node>
	<node id="-713521" lat="68.7857055584" lon="14.4608111083">
		<tag k="fixme" v="consider seamark:type=rock or natural=shoal" />
		<tag k="name" v="Nordskjæret" />
		<tag k="place" v="islet" />
		<tag k="ssr:stedsnr" v="443978" />
	</node>
	<node id="-713518" lat="68.7994277743" lon="14.7047138808">
		<tag k="name" v="Andslettnesan" />
		<tag k="natural" v="cape" />
		<tag k="ssr:stedsnr" v="443943" />
	</node>
	<node id="-713516" lat="68.8033499997" lon="14.5351277728">
		<tag k="name" v="Tussneset" />
		<tag k="natural" v="cape" />
		<tag k="ssr:stedsnr" v="443921" />
	</node>
	<node id="-713512" lat="68.8143277767" lon="14.6152583399">
		<tag k="name" v="Godvikholman" />
		<tag k="place" v="islet" />
		<tag k="ssr:stedsnr" v="443894" />
	</node>
	<node id="-713511" lat="68.821211108" lon="14.5296416767">
		<tag k="alt_name" v="Fakstægan;Fakstægerne" />
		<tag k="name" v="Fakstægern" />
		<tag k="natural" v="shoal" />
		<tag k="place" v="locality" />
		<tag k="ssr:stedsnr" v="443863" />
	</node>
	<node id="-713510" lat="68.825611114" lon="14.5993000128">
		<tag k="fixme" v="consider seamark:type=rock or natural=shoal" />
		<tag k="name" v="Lyngøyoksen" />
		<tag k="place" v="islet" />
		<tag k="ssr:stedsnr" v="443843" />
	</node>
	<node id="-714545" lat="68.7571333324" lon="14.4734722162">
		<tag k="name" v="Nordjordsanden" />
		<tag k="natural" v="beach" />
		<tag k="place" v="locality" />
		<tag k="ssr:stedsnr" v="963314" />
	</node>
	<node id="-713508" lat="68.7567722187" lon="14.467199989">
		<tag k="alt_name" v="Sandvikbugen" />
		<tag k="name" v="Sandvikbukta" />
		<tag k="natural" v="bay" />
		<tag k="ssr:stedsnr" v="443532" />
	</node>
	<node id="-713506" lat="68.6268583302" lon="14.3327277648">
		<tag k="name" v="Andholmen" />
		<tag k="place" v="island" />
		<tag k="ssr:stedsnr" v="443433" />
	</node>
	<node id="-713505" lat="68.6320666643" lon="14.3023166571">
		<tag k="name" v="Svartoksskallen" />
		<tag k="natural" v="shoal" />
		<tag k="place" v="locality" />
		<tag k="ssr:stedsnr" v="443431" />
	</node>
	<node id="-713504" lat="68.6462916643" lon="14.3889388877">
		<tag k="name" v="Bonbåen" />
		<tag k="natural" v="shoal" />
		<tag k="place" v="locality" />
		<tag k="ssr:stedsnr" v="443426" />
	</node>
	<node id="-713503" lat="68.6490833357" lon="14.352499997">
		<tag k="fixme" v="consider seamark:type=rock or natural=shoal" />
		<tag k="name" v="Flatskjæret" />
		<tag k="place" v="islet" />
		<tag k="ssr:stedsnr" v="443423" />
	</node>
	<node id="-713502" lat="68.647041668" lon="14.3056222184">
		<tag k="alt_name" v="Gåttingskjeret, l" />
		<tag k="fixme" v="consider seamark:type=rock or natural=shoal" />
		<tag k="name" v="Litl Gåttingskjæran" />
		<tag k="place" v="islet" />
		<tag k="ssr:stedsnr" v="443422" />
	</node>
	<node id="-713501" lat="68.6451583365" lon="14.3305027768">
		<tag k="name" v="Gimstadnykskallen" />
		<tag k="natural" v="shoal" />
		<tag k="place" v="locality" />
		<tag k="ssr:stedsnr" v="443419" />
	</node>
	<node id="-713500" lat="68.6642916643" lon="14.3986194468">
		<tag k="alt_name" v="Søbergshagan" />
		<tag k="name" v="Søbergshagen" />
		<tag k="natural" v="cape" />
		<tag k="ssr:stedsnr" v="443412" />
	</node>
	<node id="-713497" lat="68.8497027776" lon="14.6920583261">
		<tag k="name" v="Malnesgrunnen" />
		<tag k="natural" v="shoal" />
		<tag k="place" v="locality" />
		<tag k="ssr:stedsnr" v="442868" />
	</node>
	<node id="-713496" lat="68.84590556" lon="14.6519805453">
		<tag k="name" v="Stavsgrunnen" />
		<tag k="natural" v="shoal" />
		<tag k="old_name" v="Statsgrunnen" />
		<tag k="place" v="locality" />
		<tag k="ssr:stedsnr" v="442866" />
	</node>
	<node id="-713489" lat="68.6001722235" lon="14.5260000034">
		<tag k="name" v="Mårsundneset" />
		<tag k="natural" v="cape" />
		<tag k="ssr:stedsnr" v="442591" />
	</node>
	<node id="-713488" lat="68.5989027761" lon="14.4395500003">
		<tag k="fixme" v="consider seamark:type=rock or natural=shoal" />
		<tag k="name" v="Låtet" />
		<tag k="place" v="islet" />
		<tag k="ssr:stedsnr" v="442579" />
	</node>
	<node id="-713487" lat="68.5932027774" lon="14.451369441">
		<tag k="name" v="Kvalbakflua" />
		<tag k="natural" v="shoal" />
		<tag k="place" v="locality" />
		<tag k="ssr:stedsnr" v="442576" />
	</node>
	<node id="-713486" lat="68.6436027812" lon="14.6479388946">
		<tag k="alt_name" v="Litl Buøya;Buøya, l" />
		<tag k="name" v="Litlbuøya" />
		<tag k="place" v="islet" />
		<tag k="ssr:stedsnr" v="442550" />
	</node>
	<node id="-713483" lat="68.7648305568" lon="14.4274333345">
		<tag k="name" v="Måsnyken" />
		<tag k="place" v="island" />
		<tag k="ssr:stedsnr" v="442519" />
	</node>
	<node id="-713482" lat="68.6902722222" lon="14.2984638842">
		<tag k="alt_name" v="Ytter Stein;Stein, yt" />
		<tag k="name" v="Ytre Stein" />
		<tag k="natural" v="shoal" />
		<tag k="place" v="locality" />
		<tag k="ssr:stedsnr" v="442511" />
	</node>
	<node id="-713481" lat="68.693572221" lon="14.3910694361">
		<tag k="name" v="Bølklubben" />
		<tag k="natural" v="cape" />
		<tag k="ssr:stedsnr" v="442504" />
	</node>
	<node id="-713480" lat="68.6898861116" lon="14.335822213">
		<tag k="name" v="Langskallen" />
		<tag k="natural" v="shoal" />
		<tag k="place" v="locality" />
		<tag k="ssr:stedsnr" v="442500" />
	</node>
	<node id="-714540" lat="68.595730554" lon="14.4767638913">
		<tag k="name" v="Gaukleia" />
		<tag k="natural" v="strait" />
		<tag k="ssr:stedsnr" v="947351" />
	</node>
	<node id="-713478" lat="68.7052388911" lon="14.3541277673">
		<tag k="name" v="Stabbskallen" />
		<tag k="natural" v="shoal" />
		<tag k="place" v="locality" />
		<tag k="ssr:stedsnr" v="442493" />
	</node>
	<node id="-713477" lat="68.7343555526" lon="14.3956333354">
		<tag k="fixme" v="consider seamark:type=rock or natural=shoal" />
		<tag k="name" v="Hildringskjæran" />
		<tag k="place" v="islet" />
		<tag k="ssr:stedsnr" v="442484" />
	</node>
	<node id="-713476" lat="68.6111305588" lon="14.2621888784">
		<tag k="name" v="Seiskallen" />
		<tag k="natural" v="shoal" />
		<tag k="place" v="locality" />
		<tag k="ssr:stedsnr" v="442429" />
	</node>
	<node id="-713475" lat="68.6250722256" lon="14.3713472317">
		<tag k="name" v="Jensskallen" />
		<tag k="natural" v="shoal" />
		<tag k="place" v="locality" />
		<tag k="ssr:stedsnr" v="442427" />
	</node>
	<node id="-713474" lat="68.6156388885" lon="14.2354166589">
		<tag k="name" v="Gotråsa" />
		<tag k="natural" v="shoal" />
		<tag k="place" v="locality" />
		<tag k="ssr:stedsnr" v="442422" />
	</node>
	<node id="-713473" lat="68.6772999977" lon="14.4000638773">
		<tag k="name" v="Røyrskaga" />
		<tag k="place" v="islet" />
		<tag k="ssr:stedsnr" v="442392" />
	</node>
	<node id="-713472" lat="68.6823388905" lon="14.3858472254">
		<tag k="name" v="Haganeset" />
		<tag k="natural" v="cape" />
		<tag k="ssr:stedsnr" v="442386" />
	</node>
	<node id="-713471" lat="68.7409777733" lon="14.5678638926">
		<tag k="name" v="Bulistranda" />
		<tag k="natural" v="beach" />
		<tag k="place" v="locality" />
		<tag k="ssr:stedsnr" v="442381" />
	</node>
	<node id="-713468" lat="68.7377499999" lon="14.472738887">
		<tag k="name" v="Husøyskallen" />
		<tag k="natural" v="shoal" />
		<tag k="place" v="locality" />
		<tag k="ssr:stedsnr" v="442363" />
	</node>
	<node id="-713465" lat="68.7210194414" lon="14.4409888819">
		<tag k="name" v="Digerneset" />
		<tag k="natural" v="cape" />
		<tag k="ssr:stedsnr" v="442318" />
	</node>
	<node id="-713461" lat="68.7460027823" lon="14.5870222201">
		<tag k="name" v="Bønsbukta" />
		<tag k="natural" v="bay" />
		<tag k="ssr:stedsnr" v="441358" />
	</node>
	<node id="-713460" lat="68.5975638851" lon="14.3005833425">
		<tag k="name" v="Verholmen" />
		<tag k="place" v="islet" />
		<tag k="ssr:stedsnr" v="441345" />
	</node>
	<node id="-713459" lat="68.5841277784" lon="14.2689749929">
		<tag k="alt_name" v="Søre Trælen" />
		<tag k="name" v="Trælen" />
		<tag k="natural" v="shoal" />
		<tag k="place" v="locality" />
		<tag k="ssr:stedsnr" v="441341" />
	</node>
	<node id="-713457" lat="68.6046111153" lon="14.2586611132">
		<tag k="name" v="Inngrunnen" />
		<tag k="natural" v="shoal" />
		<tag k="place" v="locality" />
		<tag k="ssr:stedsnr" v="441317" />
	</node>
	<node id="-713456" lat="68.6078972251" lon="14.3356583458">
		<tag k="name" v="Skarvhella" />
		<tag k="place" v="locality" />
		<tag k="ssr:stedsnr" v="441310" />
	</node>
	<node id="-713455" lat="68.5994416662" lon="14.3964194555">
		<tag k="name" v="Kjerkholmsundet" />
		<tag k="natural" v="strait" />
		<tag k="ssr:stedsnr" v="441307" />
	</node>
	<node id="-713445" lat="68.6615083365" lon="14.6288444388">
		<tag k="name" v="Elvbukta" />
		<tag k="natural" v="bay" />
		<tag k="ssr:stedsnr" v="423162" />
	</node>
	<node id="-713434" lat="68.6613805537" lon="14.7319527846">
		<tag k="name" v="Vassvika" />
		<tag k="natural" v="bay" />
		<tag k="ssr:stedsnr" v="419414" />
	</node>
	<node id="-713433" lat="68.6618666642" lon="14.7760527838">
		<tag k="name" v="Pålvika" />
		<tag k="natural" v="bay" />
		<tag k="ssr:stedsnr" v="419409" />
	</node>
	<node id="-713431" lat="68.6944694465" lon="14.6966111227">
		<tag k="name" v="Melkbukta" />
		<tag k="natural" v="bay" />
		<tag k="ssr:stedsnr" v="419379" />
	</node>
	<node id="-713428" lat="68.7479499969" lon="14.4850111111">
		<tag k="name" v="Kallarneset" />
		<tag k="natural" v="cape" />
		<tag k="ssr:stedsnr" v="419281" />
	</node>
	<node id="-713421" lat="68.6862305545" lon="14.3725305509">
		<tag k="name" v="Rørlibukta" />
		<tag k="natural" v="bay" />
		<tag k="ssr:stedsnr" v="264228" />
	</node>
	<node id="-713419" lat="68.6838694486" lon="14.3768472135">
		<tag k="name" v="Kollstøen" />
		<tag k="natural" v="bay" />
		<tag k="ssr:stedsnr" v="264214" />
	</node>
	<node id="-713413" lat="68.7049083352" lon="14.414933323">
		<tag k="fixme" v="consider seamark:type=rock or natural=shoal" />
		<tag k="name" v="Slottet" />
		<tag k="place" v="islet" />
		<tag k="ssr:stedsnr" v="264139" />
	</node>
	<node id="-713412" lat="68.6960111089" lon="14.4642194537">
		<tag k="fixme" v="consider seamark:type=rock or natural=shoal" />
		<tag k="name" v="Åburdskjæret" />
		<tag k="place" v="islet" />
		<tag k="ssr:stedsnr" v="264056" />
	</node>
	<node id="-714528" lat="68.7505833318" lon="14.7048472246">
		<tag k="name" v="Sommarlandskjosen" />
		<tag k="natural" v="bay" />
		<tag k="ssr:stedsnr" v="946509" />
	</node>
	<node id="-713406" lat="68.783908332" lon="14.4587305634">
		<tag k="fixme" v="consider seamark:type=rock or natural=shoal" />
		<tag k="name" v="Sørskjæret" />
		<tag k="place" v="islet" />
		<tag k="ssr:stedsnr" v="261972" />
	</node>
	<node id="-713405" lat="68.795169446" lon="14.5061888825">
		<tag k="name" v="Storflesa" />
		<tag k="place" v="islet" />
		<tag k="ssr:stedsnr" v="261932" />
	</node>
	<node id="-713402" lat="68.654111115" lon="14.6151805465">
		<tag k="name" v="Skogneset" />
		<tag k="natural" v="cape" />
		<tag k="ssr:stedsnr" v="261696" />
	</node>
	<node id="-713400" lat="68.7503583319" lon="14.6042000103">
		<tag k="alt_name" v="Hellarbogen" />
		<tag k="name" v="Hellarbugen" />
		<tag k="natural" v="bay" />
		<tag k="ssr:stedsnr" v="261590" />
	</node>
	<node id="-713390" lat="68.8270361101" lon="14.5129972164">
		<tag k="name" v="Bældjuphammaren" />
		<tag k="natural" v="shoal" />
		<tag k="place" v="locality" />
		<tag k="ssr:stedsnr" v="260914" />
	</node>
	<node id="-713388" lat="68.8343472254" lon="14.7040749986">
		<tag k="name" v="Galtsundholmen" />
		<tag k="place" v="islet" />
		<tag k="ssr:stedsnr" v="260887" />
	</node>
	<node id="-713387" lat="68.6519999983" lon="14.4371472208">
		<tag k="name" v="Fjærvollsanden" />
		<tag k="natural" v="beach" />
		<tag k="place" v="locality" />
		<tag k="ssr:stedsnr" v="260751" />
	</node>
	<node id="-713386" lat="68.754083332" lon="14.5861805593">
		<tag k="name" v="Skjåneset" />
		<tag k="natural" v="cape" />
		<tag k="ssr:stedsnr" v="260730" />
	</node>
	<node id="-713383" lat="68.6966277772" lon="14.8091499918">
		<tag k="name" v="Teistøya" />
		<tag k="place" v="islet" />
		<tag k="ssr:stedsnr" v="260687" />
	</node>
	<node id="-713381" lat="68.6802416682" lon="14.7840777776">
		<tag k="name" v="Liholman" />
		<tag k="place" v="islet" />
		<tag k="ssr:stedsnr" v="260658" />
	</node>
	<node id="-713380" lat="68.6054361118" lon="14.491341677">
		<tag k="name" v="Dingelvika" />
		<tag k="natural" v="bay" />
		<tag k="ssr:stedsnr" v="260620" />
	</node>
	<node id="-713379" lat="68.6032999959" lon="14.4494166619">
		<tag k="name" v="Galgeøya" />
		<tag k="place" v="island" />
		<tag k="ssr:stedsnr" v="260615" />
	</node>
	<node id="-713378" lat="68.615494441" lon="14.3031250044">
		<tag k="name" v="Nisa" />
		<tag k="natural" v="shoal" />
		<tag k="place" v="locality" />
		<tag k="ssr:stedsnr" v="260462" />
	</node>
	<node id="-713377" lat="68.6230944457" lon="14.2035999898">
		<tag k="name" v="Kulen" />
		<tag k="natural" v="shoal" />
		<tag k="place" v="locality" />
		<tag k="ssr:stedsnr" v="260449" />
	</node>
	<node id="-713376" lat="68.6500277801" lon="14.2418916715">
		<tag k="name" v="Vinterskallen" />
		<tag k="natural" v="shoal" />
		<tag k="place" v="locality" />
		<tag k="ssr:stedsnr" v="260435" />
	</node>
	<node id="-713375" lat="68.6622333375" lon="14.3023361233">
		<tag k="name" v="Dypingskallen" />
		<tag k="natural" v="shoal" />
		<tag k="place" v="locality" />
		<tag k="ssr:stedsnr" v="260429" />
	</node>
	<node id="-713374" lat="68.6762277809" lon="14.3779944373">
		<tag k="name" v="Flatholmen" />
		<tag k="place" v="islet" />
		<tag k="ssr:stedsnr" v="260420" />
	</node>
	<node id="-713366" lat="68.6255750042" lon="14.6351666671">
		<tag k="name" v="Galtholmen" />
		<tag k="place" v="islet" />
		<tag k="ssr:stedsnr" v="260539" />
	</node>
	<node id="-713365" lat="68.6936694405" lon="14.2942750037">
		<tag k="name" v="Breifallryggen" />
		<tag k="natural" v="shoal" />
		<tag k="place" v="locality" />
		<tag k="ssr:stedsnr" v="260524" />
	</node>
	<node id="-713363" lat="68.7047222266" lon="14.4065833229">
		<tag k="name" v="Kremmarholman" />
		<tag k="place" v="islet" />
		<tag k="ssr:stedsnr" v="260511" />
	</node>
	<node id="-713362" lat="68.7066583325" lon="14.3688999884">
		<tag k="name" v="Vikanflesa" />
		<tag k="place" v="islet" />
		<tag k="ssr:stedsnr" v="260512" />
	</node>
	<node id="-713359" lat="68.6152972262" lon="14.3369277693">
		<tag k="name" v="Gaukværøya" />
		<tag k="place" v="island" />
		<tag k="ssr:stedsnr" v="260370" />
	</node>
	<node id="-713358" lat="68.6109111087" lon="14.4012777759">
		<tag k="name" v="Galten" />
		<tag k="natural" v="shoal" />
		<tag k="place" v="locality" />
		<tag k="ssr:stedsnr" v="260369" />
	</node>
	<node id="-713353" lat="68.7169138894" lon="14.4296750124">
		<tag k="fixme" v="consider seamark:type=rock or natural=shoal" />
		<tag k="name" v="Strandskjæran" />
		<tag k="place" v="islet" />
		<tag k="ssr:stedsnr" v="260322" />
	</node>
	<node id="-713350" lat="68.7295166682" lon="14.4851638871">
		<tag k="name" v="Åsand" />
		<tag k="natural" v="beach" />
		<tag k="place" v="locality" />
		<tag k="ssr:stedsnr" v="260314" />
	</node>
	<node id="-713349" lat="68.7289749976" lon="14.4721916747">
		<tag k="fixme" v="consider seamark:type=rock or natural=shoal" />
		<tag k="name" v="Liskjæret" />
		<tag k="place" v="islet" />
		<tag k="ssr:stedsnr" v="260312" />
	</node>
	<node id="-713347" lat="68.5920861093" lon="14.3646000004">
		<tag k="bay" v="fjord" />
		<tag k="name" v="Værøyflaget" />
		<tag k="natural" v="bay" />
		<tag k="ssr:stedsnr" v="259330" />
	</node>
	<node id="-713346" lat="68.6026972243" lon="14.3149055511">
		<tag k="name" v="Skjerdingstadvika" />
		<tag k="natural" v="strait" />
		<tag k="ssr:stedsnr" v="259301" />
	</node>
	<node id="-713345" lat="68.5856277798" lon="14.2924694494">
		<tag k="name" v="Kjørva" />
		<tag k="natural" v="shoal" />
		<tag k="place" v="locality" />
		<tag k="ssr:stedsnr" v="259325" />
	</node>
	<node id="-713344" lat="68.6519361086" lon="14.6527805639">
		<tag k="name" v="Sandholmen" />
		<tag k="place" v="islet" />
		<tag k="ssr:stedsnr" v="479417" />
	</node>
	<node id="-713343" lat="68.6482277805" lon="14.6638389001">
		<tag k="name" v="Løktholmen" />
		<tag k="place" v="islet" />
		<tag k="ssr:stedsnr" v="479414" />
	</node>
	<node id="-713342" lat="68.6342472258" lon="14.6700999913">
		<tag k="name" v="Rørøya" />
		<tag k="place" v="islet" />
		<tag k="ssr:stedsnr" v="479409" />
	</node>
	<node id="-713330" lat="68.7676944455" lon="14.7322833422">
		<tag k="name" v="Nordryggeholmen" />
		<tag k="place" v="islet" />
		<tag k="ssr:stedsnr" v="237573" />
	</node>
	<node id="-713323" lat="68.7597638875" lon="14.5955250062">
		<tag k="name" v="Heststrandøra" />
		<tag k="natural" v="cape" />
		<tag k="ssr:stedsnr" v="237299" />
	</node>
	<node id="-713321" lat="68.6837305542" lon="14.7047194334">
		<tag k="fixme" v="consider seamark:type=rock or natural=shoal" />
		<tag k="name" v="Nikolaiskjæret" />
		<tag k="place" v="islet" />
		<tag k="ssr:stedsnr" v="237493" />
	</node>
	<node id="-713320" lat="68.7937388854" lon="14.626688884">
		<tag k="name" v="Utskårskallen" />
		<tag k="natural" v="shoal" />
		<tag k="place" v="locality" />
		<tag k="ssr:stedsnr" v="218716" />
	</node>
	<node id="-713318" lat="68.747847218" lon="14.436511121">
		<tag k="name" v="Flatskallen" />
		<tag k="natural" v="shoal" />
		<tag k="place" v="locality" />
		<tag k="ssr:stedsnr" v="218627" />
	</node>
	<node id="-713317" lat="68.744419444" lon="14.4545916545">
		<tag k="name" v="Skanken" />
		<tag k="natural" v="shoal" />
		<tag k="place" v="locality" />
		<tag k="ssr:stedsnr" v="218605" />
	</node>
	<node id="-713314" lat="68.6653611091" lon="14.415211121">
		<tag k="name" v="Langholmen" />
		<tag k="place" v="islet" />
		<tag k="ssr:stedsnr" v="218524" />
	</node>
	<node id="-713312" lat="68.6019833376" lon="14.4768638822">
		<tag k="name" v="Gjersøygrunnen" />
		<tag k="place" v="locality" />
		<tag k="ssr:stedsnr" v="218458" />
	</node>
	<node id="-713311" lat="68.723055554" lon="14.3345305584">
		<tag k="name" v="Sør Hausan" />
		<tag k="natural" v="shoal" />
		<tag k="place" v="locality" />
		<tag k="ssr:stedsnr" v="218433" />
	</node>
	<node id="-713309" lat="68.7805805582" lon="14.3913638951">
		<tag k="name" v="Reinen" />
		<tag k="natural" v="shoal" />
		<tag k="place" v="locality" />
		<tag k="ssr:stedsnr" v="218293" />
	</node>
	<node id="-713308" lat="68.7887361121" lon="14.4667555551">
		<tag k="name" v="Balserskallen" />
		<tag k="natural" v="shoal" />
		<tag k="place" v="locality" />
		<tag k="ssr:stedsnr" v="218289" />
	</node>
	<node id="-713307" lat="68.6519888856" lon="14.4029083377">
		<tag k="fixme" v="consider seamark:type=rock or natural=shoal" />
		<tag k="name" v="Flatskjæret" />
		<tag k="place" v="islet" />
		<tag k="ssr:stedsnr" v="218283" />
	</node>
	<node id="-713300" lat="68.831402778" lon="14.5381638955">
		<tag k="name" v="Litl Havsundet" />
		<tag k="natural" v="strait" />
		<tag k="ssr:stedsnr" v="218245" />
	</node>
	<node id="-713299" lat="68.5853499991" lon="14.2706472131">
		<tag k="name" v="Nordre Trælen" />
		<tag k="natural" v="shoal" />
		<tag k="place" v="locality" />
		<tag k="ssr:stedsnr" v="218241" />
	</node>
	<node id="-713295" lat="68.6053694411" lon="14.4589999965">
		<tag k="name" v="Finnhamn" />
		<tag k="natural" v="bay" />
		<tag k="ssr:stedsnr" v="218314" />
	</node>
	<node id="-713294" lat="68.6094416664" lon="14.4338666765">
		<tag k="name" v="Altersvågen" />
		<tag k="natural" v="bay" />
		<tag k="ssr:stedsnr" v="218304" />
	</node>
	<node id="-713293" lat="68.6080444437" lon="14.4509277811">
		<tag k="name" v="Kavlholmen" />
		<tag k="place" v="islet" />
		<tag k="ssr:stedsnr" v="218302" />
	</node>
	<node id="-713289" lat="68.7007805582" lon="14.44573889">
		<tag k="name" v="Torvhaugodden" />
		<tag k="natural" v="cape" />
		<tag k="ssr:stedsnr" v="203259" />
	</node>
	<node id="-713272" lat="68.8323194412" lon="14.5485527862">
		<tag k="name" v="Skarvbarden" />
		<tag k="place" v="islet" />
		<tag k="ssr:stedsnr" v="200859" />
	</node>
	<node id="-713271" lat="68.7873611153" lon="14.4333916568">
		<tag k="alt_name" v="Ytter Nykfallan" />
		<tag k="name" v="Nykfallan" />
		<tag k="natural" v="shoal" />
		<tag k="place" v="locality" />
		<tag k="ssr:stedsnr" v="200940" />
	</node>
	<node id="-713270" lat="68.8069194487" lon="14.5629361197">
		<tag k="name" v="Malnes" />
		<tag k="natural" v="cape" />
		<tag k="ssr:stedsnr" v="200925" />
	</node>
	<node id="-713268" lat="68.800477774" lon="14.4995333316">
		<tag k="name" v="Blåflesskallen" />
		<tag k="natural" v="shoal" />
		<tag k="place" v="locality" />
		<tag k="ssr:stedsnr" v="200920" />
	</node>
	<node id="-713267" lat="68.8317861141" lon="14.6763666691">
		<tag k="name" v="Dypingvika" />
		<tag k="natural" v="bay" />
		<tag k="ssr:stedsnr" v="200835" />
	</node>
	<node id="-713266" lat="68.845222224" lon="14.6984805468">
		<tag k="name" v="Stabban" />
		<tag k="natural" v="shoal" />
		<tag k="place" v="locality" />
		<tag k="ssr:stedsnr" v="200821" />
	</node>
	<node id="-713479" lat="68.7116972212" lon="14.413430549">
		<tag k="name" v="Nittingen" />
		<tag k="place" v="islet" />
		<tag k="ssr:stedsnr" v="442499" />
	</node>
	<node id="-713253" lat="68.6683611139" lon="14.388455557">
		<tag k="name" v="Lyngøya" />
		<tag k="place" v="islet" />
		<tag k="ssr:stedsnr" v="200391" />
	</node>
	<node id="-713252" lat="68.6832138888" lon="14.3085583455">
		<tag k="name" v="Flua" />
		<tag k="natural" v="shoal" />
		<tag k="place" v="locality" />
		<tag k="ssr:stedsnr" v="200381" />
	</node>
	<node id="-713248" lat="68.7287055533" lon="14.6135999875">
		<tag k="name" v="Riskjosen" />
		<tag k="natural" v="bay" />
		<tag k="ssr:stedsnr" v="200254" />
	</node>
	<node id="-713245" lat="68.647952777" lon="14.2840638768">
		<tag k="name" v="Gåttingskjærskallen" />
		<tag k="natural" v="shoal" />
		<tag k="place" v="locality" />
		<tag k="ssr:stedsnr" v="200403" />
	</node>
	<node id="-713244" lat="68.6454749968" lon="14.2821944344">
		<tag k="name" v="Brotan" />
		<tag k="natural" v="shoal" />
		<tag k="place" v="locality" />
		<tag k="ssr:stedsnr" v="200404" />
	</node>
	<node id="-713243" lat="68.7865444467" lon="14.5918750109">
		<tag k="name" v="Hesten" />
		<tag k="place" v="islet" />
		<tag k="ssr:stedsnr" v="199986" />
	</node>
	<node id="-713240" lat="68.6020416664" lon="14.4934416726">
		<tag k="name" v="Farveisa" />
		<tag k="natural" v="cape" />
		<tag k="ssr:stedsnr" v="199588" />
	</node>
	<node id="-713236" lat="68.7464638849" lon="14.3499638986">
		<tag k="fixme" v="consider seamark:type=rock or natural=shoal" />
		<tag k="name" v="Brakanskjæret" />
		<tag k="place" v="islet" />
		<tag k="ssr:stedsnr" v="199472" />
	</node>
	<node id="-713235" lat="68.6229444418" lon="14.3835388969">
		<tag k="name" v="Kristofferstaven" />
		<tag k="natural" v="shoal" />
		<tag k="place" v="locality" />
		<tag k="ssr:stedsnr" v="199423" />
	</node>
	<node id="-713234" lat="68.6340444413" lon="14.4046666724">
		<tag k="alt_name" v="Bengstokkflua" />
		<tag k="name" v="Benkstokkflua" />
		<tag k="natural" v="shoal" />
		<tag k="place" v="locality" />
		<tag k="ssr:stedsnr" v="199419" />
	</node>
	<node id="-713233" lat="68.7401055581" lon="14.6398694354">
		<tag k="alt_name" v="Ravnåsbogen" />
		<tag k="name" v="Ramnåsbugen" />
		<tag k="natural" v="bay" />
		<tag k="ssr:stedsnr" v="199374" />
	</node>
	<node id="-713232" lat="68.7383499992" lon="14.521755563">
		<tag k="name" v="Småholman" />
		<tag k="place" v="islet" />
		<tag k="ssr:stedsnr" v="199348" />
	</node>
	<node id="-713231" lat="68.5938416672" lon="14.3021666573">
		<tag k="name" v="Kyllholmen" />
		<tag k="place" v="islet" />
		<tag k="ssr:stedsnr" v="199344" />
	</node>
	<node id="-713228" lat="68.6142138887" lon="14.3174666743">
		<tag k="name" v="Feen" />
		<tag k="place" v="islet" />
		<tag k="ssr:stedsnr" v="199332" />
	</node>
	<node id="-713227" lat="68.6069249993" lon="14.308169454">
		<tag k="alt_name" v="Store Skjæringen" />
		<tag k="name" v="Skjerdingen, store" />
		<tag k="place" v="islet" />
		<tag k="ssr:stedsnr" v="199324" />
	</node>
	<node id="-713226" lat="68.6022944447" lon="14.3031805482">
		<tag k="alt_name" v="Fulltruskjeran" />
		<tag k="fixme" v="consider seamark:type=rock or natural=shoal" />
		<tag k="loc_name" v="Fulltruskjæran" />
		<tag k="name" v="Fulltrudskjæran" />
		<tag k="place" v="islet" />
		<tag k="ssr:stedsnr" v="199322" />
	</node>
	<node id="-713225" lat="68.6061750022" lon="14.32556389">
		<tag k="name" v="Geitneset" />
		<tag k="natural" v="cape" />
		<tag k="ssr:stedsnr" v="199319" />
	</node>
	<node id="-713221" lat="68.6163861103" lon="14.6324749957">
		<tag k="alt_name" v="Skateskallen" />
		<tag k="name" v="Skatskallen" />
		<tag k="natural" v="shoal" />
		<tag k="place" v="locality" />
		<tag k="ssr:stedsnr" v="199632" />
	</node>
	<node id="-713210" lat="68.7540305543" lon="14.7287388863">
		<tag k="name" v="Lakselvbukta" />
		<tag k="natural" v="bay" />
		<tag k="ssr:stedsnr" v="176513" />
	</node>
	<node id="-713203" lat="68.6625972256" lon="14.753636107">
		<tag k="name" v="Ramnneset" />
		<tag k="natural" v="cape" />
		<tag k="ssr:stedsnr" v="176390" />
	</node>
	<node id="-713195" lat="68.7970027817" lon="14.5881833407">
		<tag k="name" v="Røsshaghammeren" />
		<tag k="natural" v="cape" />
		<tag k="ssr:stedsnr" v="157624" />
	</node>
	<node id="-713193" lat="68.683994442" lon="14.6924138801">
		<tag k="fixme" v="consider seamark:type=rock or natural=shoal" />
		<tag k="name" v="Seingskjæret" />
		<tag k="place" v="islet" />
		<tag k="ssr:stedsnr" v="157467" />
	</node>
	<node id="-713189" lat="68.7149555563" lon="14.4165055514">
		<tag k="fixme" v="consider seamark:type=rock or natural=shoal" />
		<tag k="name" v="Nordskjæret" />
		<tag k="place" v="islet" />
		<tag k="ssr:stedsnr" v="157361" />
	</node>
	<node id="-713188" lat="68.6076249983" lon="14.3166027682">
		<tag k="loc_name" v="Skjerdingstad" />
		<tag k="name" v="Skjæringstad" />
		<tag k="natural" v="cape" />
		<tag k="ssr:stedsnr" v="157325" />
	</node>
	<node id="-713187" lat="68.5909111107" lon="14.4186222209">
		<tag k="name" v="Fjærholman" />
		<tag k="place" v="islet" />
		<tag k="ssr:stedsnr" v="157300" />
	</node>
	<node id="-713185" lat="68.6029638886" lon="14.4585166761">
		<tag k="name" v="Karviholmen" />
		<tag k="place" v="islet" />
		<tag k="ssr:stedsnr" v="157291" />
	</node>
	<node id="-713183" lat="68.7848999959" lon="14.4077138919">
		<tag k="name" v="Einmea" />
		<tag k="natural" v="shoal" />
		<tag k="place" v="locality" />
		<tag k="ssr:stedsnr" v="157259" />
	</node>
	<node id="-713182" lat="68.7837166644" lon="14.4260444466">
		<tag k="name" v="Gjøten" />
		<tag k="natural" v="shoal" />
		<tag k="place" v="locality" />
		<tag k="ssr:stedsnr" v="157257" />
	</node>
	<node id="-713175" lat="68.8172194428" lon="14.4891361023">
		<tag k="name" v="Rivskjærleia" />
		<tag k="natural" v="strait" />
		<tag k="ssr:stedsnr" v="157221" />
	</node>
	<node id="-713172" lat="68.615933333" lon="14.4232083442">
		<tag k="name" v="Gressholmen" />
		<tag k="place" v="islet" />
		<tag k="ssr:stedsnr" v="157124" />
	</node>
	<node id="-713171" lat="68.6128916684" lon="14.4199944428">
		<tag k="name" v="Vinje-Rørskaga" />
		<tag k="place" v="islet" />
		<tag k="ssr:stedsnr" v="157120" />
	</node>
	<node id="-713170" lat="68.6217500012" lon="14.4325472111">
		<tag k="name" v="Kjosen" />
		<tag k="natural" v="bay" />
		<tag k="ssr:stedsnr" v="157114" />
	</node>
	<node id="-713167" lat="68.6110777737" lon="14.4623999932">
		<tag k="name" v="Torplassen" />
		<tag k="natural" v="cape" />
		<tag k="ssr:stedsnr" v="157288" />
	</node>
	<node id="-713165" lat="68.7027277753" lon="14.4353888977">
		<tag k="name" v="Geitholmen" />
		<tag k="place" v="islet" />
		<tag k="ssr:stedsnr" v="142262" />
	</node>
	<node id="-713161" lat="68.7215833305" lon="14.4529027745">
		<tag k="name" v="Kjerringstranda" />
		<tag k="natural" v="beach" />
		<tag k="place" v="locality" />
		<tag k="ssr:stedsnr" v="142044" />
	</node>
	<node id="-713160" lat="68.6804722209" lon="14.416588884">
		<tag k="name" v="Slagbåtvika" />
		<tag k="natural" v="bay" />
		<tag k="ssr:stedsnr" v="142041" />
	</node>
	<node id="-713159" lat="68.7305111113" lon="14.4779527672">
		<tag k="name" v="Keila" />
		<tag k="natural" v="bay" />
		<tag k="ssr:stedsnr" v="142033" />
	</node>
	<node id="-713158" lat="68.7328444409" lon="14.479877769">
		<tag k="fixme" v="consider seamark:type=rock or natural=shoal" />
		<tag k="name" v="Kariungan" />
		<tag k="place" v="islet" />
		<tag k="ssr:stedsnr" v="142029" />
	</node>
	<node id="-713157" lat="68.6996499968" lon="14.4142083398">
		<tag k="name" v="Små-Sendingan" />
		<tag k="natural" v="beach" />
		<tag k="place" v="locality" />
		<tag k="ssr:stedsnr" v="142154" />
	</node>
	<node id="-713154" lat="68.805791662" lon="14.699361119">
		<tag k="name" v="Melkarneset" />
		<tag k="natural" v="cape" />
		<tag k="ssr:stedsnr" v="139922" />
	</node>
	<node id="-713153" lat="68.8032916712" lon="14.7054611099">
		<tag k="alt_name" v="Berntfårøya;Bernforsøya" />
		<tag k="name" v="Bernforøya" />
		<tag k="place" v="island" />
		<tag k="ssr:stedsnr" v="139920" />
	</node>
	<node id="-713152" lat="68.8063833298" lon="14.581158332">
		<tag k="name" v="Småsundan" />
		<tag k="place" v="islet" />
		<tag k="ssr:stedsnr" v="139918" />
	</node>
	<node id="-713149" lat="68.8292722195" lon="14.6238055618">
		<tag k="name" v="Hysskallen" />
		<tag k="natural" v="shoal" />
		<tag k="place" v="locality" />
		<tag k="ssr:stedsnr" v="139846" />
	</node>
	<node id="-713148" lat="68.8336777782" lon="14.5634111035">
		<tag k="fixme" v="consider seamark:type=rock or natural=shoal" />
		<tag k="name" v="Svartoksen" />
		<tag k="place" v="islet" />
		<tag k="ssr:stedsnr" v="139834" />
	</node>
	<node id="-713147" lat="68.8417416621" lon="14.6972611159">
		<tag k="name" v="Rivskjærbåen" />
		<tag k="natural" v="shoal" />
		<tag k="place" v="locality" />
		<tag k="ssr:stedsnr" v="139830" />
	</node>
	<node id="-713143" lat="68.6771249964" lon="14.78198334">
		<tag k="name" v="Lineset" />
		<tag k="natural" v="cape" />
		<tag k="ssr:stedsnr" v="139634" />
	</node>
	<node id="-713142" lat="68.6801333295" lon="14.6800694338">
		<tag k="alt_name" v="Lønnsøya" />
		<tag k="name" v="Lønsøya" />
		<tag k="place" v="islet" />
		<tag k="ssr:stedsnr" v="139629" />
	</node>
	<node id="-713141" lat="68.6769361102" lon="14.7079861155">
		<tag k="name" v="Kalvøya" />
		<tag k="place" v="island" />
		<tag k="ssr:stedsnr" v="139627" />
	</node>
	<node id="-713136" lat="68.6294444451" lon="14.3138333453">
		<tag k="name" v="Svartoksen" />
		<tag k="place" v="islet" />
		<tag k="ssr:stedsnr" v="139435" />
	</node>
	<node id="-713135" lat="68.6350861069" lon="14.2987138874">
		<tag k="name" v="Breigrunnsteinan" />
		<tag k="natural" v="shoal" />
		<tag k="place" v="locality" />
		<tag k="ssr:stedsnr" v="139425" />
	</node>
	<node id="-713134" lat="68.6542083365" lon="14.2332416716">
		<tag k="name" v="Øyskallen" />
		<tag k="natural" v="shoal" />
		<tag k="place" v="locality" />
		<tag k="ssr:stedsnr" v="139416" />
	</node>
	<node id="-713133" lat="68.6520944436" lon="14.2923027854">
		<tag k="name" v="Siribåeleia" />
		<tag k="natural" v="strait" />
		<tag k="ssr:stedsnr" v="139413" />
	</node>
	<node id="-713132" lat="68.6648944482" lon="14.2475027877">
		<tag k="name" v="Langskallen" />
		<tag k="natural" v="shoal" />
		<tag k="place" v="locality" />
		<tag k="ssr:stedsnr" v="139404" />
	</node>
	<node id="-713131" lat="68.6312666642" lon="14.637555567">
		<tag k="name" v="Stongneset" />
		<tag k="natural" v="cape" />
		<tag k="ssr:stedsnr" v="139555" />
	</node>
	<node id="-713129" lat="68.6636333355" lon="14.3882805491">
		<tag k="name" v="Riven" />
		<tag k="place" v="islet" />
		<tag k="ssr:stedsnr" v="139399" />
	</node>
	<node id="-713124" lat="68.6074916621" lon="14.2778194528">
		<tag k="alt_name" v="Skjæringbåen" />
		<tag k="name" v="Skjerdingbåen" />
		<tag k="natural" v="shoal" />
		<tag k="place" v="locality" />
		<tag k="ssr:stedsnr" v="139230" />
	</node>
	<node id="-713122" lat="68.6889416651" lon="14.7959861185">
		<tag k="name" v="Reinøyan" />
		<tag k="place" v="islet" />
		<tag k="ssr:stedsnr" v="138684" />
	</node>
	<node id="-713121" lat="68.6713361126" lon="14.4558611222">
		<tag k="name" v="Langneset" />
		<tag k="natural" v="cape" />
		<tag k="ssr:stedsnr" v="138656" />
	</node>
	<node id="-713120" lat="68.6556111126" lon="14.7660472199">
		<tag k="name" v="Nakkan" />
		<tag k="place" v="islet" />
		<tag k="ssr:stedsnr" v="138736" />
	</node>
	<node id="-713116" lat="68.650080551" lon="14.6856694551">
		<tag k="name" v="Rødholmen" />
		<tag k="place" v="islet" />
		<tag k="ssr:stedsnr" v="138718" />
	</node>
	<node id="-713115" lat="68.6355083339" lon="14.4384583305">
		<tag k="name" v="Gimstadsjøen" />
		<tag k="natural" v="beach" />
		<tag k="place" v="locality" />
		<tag k="ssr:stedsnr" v="138710" />
	</node>
	<node id="-713113" lat="68.6115638876" lon="14.6007111038">
		<tag k="name" v="Snarsetflesa" />
		<tag k="place" v="islet" />
		<tag k="ssr:stedsnr" v="138616" />
	</node>
	<node id="-713112" lat="68.6048555597" lon="14.4278416696">
		<tag k="name" v="Alteret" />
		<tag k="place" v="islet" />
		<tag k="ssr:stedsnr" v="138601" />
	</node>
	<node id="-713110" lat="68.7635416694" lon="14.421408325">
		<tag k="name" v="Slottet" />
		<tag k="place" v="islet" />
		<tag k="ssr:stedsnr" v="138512" />
	</node>
	<node id="-713109" lat="68.6960111071" lon="14.2278583304">
		<tag k="name" v="Klakkgrunnen" />
		<tag k="natural" v="shoal" />
		<tag k="place" v="locality" />
		<tag k="ssr:stedsnr" v="138492" />
	</node>
	<node id="-713108" lat="68.6137222257" lon="14.2939805533">
		<tag k="name" v="Geita" />
		<tag k="natural" v="shoal" />
		<tag k="place" v="locality" />
		<tag k="ssr:stedsnr" v="138435" />
	</node>
	<node id="-713105" lat="68.7334111117" lon="14.4543249931">
		<tag k="name" v="Åsandøyan" />
		<tag k="place" v="island" />
		<tag k="ssr:stedsnr" v="138381" />
	</node>
	<node id="-713104" lat="68.5906805526" lon="14.311736101">
		<tag k="name" v="Purkholmen" />
		<tag k="place" v="islet" />
		<tag k="ssr:stedsnr" v="138364" />
	</node>
	<node id="-713103" lat="68.5876555533" lon="14.2858055476">
		<tag k="alt_name" v="Kløvningan" />
		<tag k="name" v="Klemningen" />
		<tag k="place" v="islet" />
		<tag k="ssr:stedsnr" v="138362" />
	</node>
	<node id="-713102" lat="68.7307277808" lon="14.4656083224">
		<tag k="name" v="Åsandsundet" />
		<tag k="natural" v="strait" />
		<tag k="ssr:stedsnr" v="138295" />
	</node>
	<node id="-713092" lat="68.7537277808" lon="14.7246611223">
		<tag k="name" v="Jektvika" />
		<tag k="natural" v="bay" />
		<tag k="ssr:stedsnr" v="116563" />
	</node>
	<node id="-713086" lat="68.6943861121" lon="14.7104722272">
		<tag k="name" v="Kvernfjorden" />
		<tag k="natural" v="bay" />
		<tag k="ssr:stedsnr" v="116489" />
	</node>
	<node id="-713079" lat="68.6333277773" lon="14.663102767">
		<tag k="name" v="Lyngøya" />
		<tag k="place" v="islet" />
		<tag k="ssr:stedsnr" v="116414" />
	</node>
	<node id="-713074" lat="68.7338888914" lon="14.545741673">
		<tag k="name" v="Dagfinnbukta" />
		<tag k="natural" v="bay" />
		<tag k="ssr:stedsnr" v="116235" />
	</node>
	<node id="-713069" lat="68.7581138889" lon="14.4493083429">
		<tag k="fixme" v="consider seamark:type=rock or natural=shoal" />
		<tag k="name" v="Gamflua" />
		<tag k="place" v="islet" />
		<tag k="ssr:stedsnr" v="113303" />
	</node>
	<node id="-713065" lat="68.8015555524" lon="14.5901805433">
		<tag k="name" v="Skatleia" />
		<tag k="natural" v="strait" />
		<tag k="ssr:stedsnr" v="97675" />
	</node>
	<node id="-713063" lat="68.6618916635" lon="14.4101305476">
		<tag k="name" v="Korsholmen" />
		<tag k="place" v="islet" />
		<tag k="ssr:stedsnr" v="97585" />
	</node>
	<node id="-713060" lat="68.6742722252" lon="14.4542055647">
		<tag k="name" v="Forøysjøen" />
		<tag k="natural" v="beach" />
		<tag k="place" v="locality" />
		<tag k="ssr:stedsnr" v="97531" />
	</node>
	<node id="-713059" lat="68.7526694447" lon="14.3548388992">
		<tag k="name" v="Brakanskallen" />
		<tag k="natural" v="shoal" />
		<tag k="place" v="locality" />
		<tag k="ssr:stedsnr" v="97434" />
	</node>
	<node id="-713056" lat="68.6187694475" lon="14.3316249943">
		<tag k="name" v="Nakling" />
		<tag k="natural" v="cape" />
		<tag k="ssr:stedsnr" v="97364" />
	</node>
	<node id="-713055" lat="68.8176416625" lon="14.5471555614">
		<tag k="name" v="Pannskjærholmen" />
		<tag k="natural" v="cape" />
		<tag k="ssr:stedsnr" v="97362" />
	</node>
	<node id="-713054" lat="68.649188887" lon="14.4309166557">
		<tag k="name" v="Perstadholmen" />
		<tag k="place" v="islet" />
		<tag k="ssr:stedsnr" v="97304" />
	</node>
	<node id="-713053" lat="68.6203666661" lon="14.5644111194">
		<tag k="name" v="Toftholmen" />
		<tag k="place" v="islet" />
		<tag k="ssr:stedsnr" v="97290" />
	</node>
	<node id="-713052" lat="68.6005972227" lon="14.526824994">
		<tag k="name" v="Kusundet" />
		<tag k="natural" v="strait" />
		<tag k="ssr:stedsnr" v="97282" />
	</node>
	<node id="-713049" lat="68.6353444417" lon="14.4398777884">
		<tag k="name" v="Arntstranda" />
		<tag k="natural" v="beach" />
		<tag k="place" v="locality" />
		<tag k="ssr:stedsnr" v="97266" />
	</node>
	<node id="-713047" lat="68.6064944421" lon="14.5223027842">
		<tag k="name" v="Sjøneset" />
		<tag k="natural" v="cape" />
		<tag k="ssr:stedsnr" v="97259" />
	</node>
	<node id="-713043" lat="68.6153833289" lon="14.4171777806">
		<tag k="name" v="Ingeneig" />
		<tag k="place" v="islet" />
		<tag k="ssr:stedsnr" v="97138" />
	</node>
	<node id="-713042" lat="68.769422227" lon="14.61430277">
		<tag k="name" v="Jennøya" />
		<tag k="natural" v="cape" />
		<tag k="ssr:stedsnr" v="96729" />
	</node>
	<node id="-713040" lat="68.7734083331" lon="14.4557388832">
		<tag k="name" v="Kvalhovden" />
		<tag k="natural" v="bay" />
		<tag k="ssr:stedsnr" v="96299" />
	</node>
	<node id="-713039" lat="68.815836111" lon="14.5319416713">
		<tag k="name" v="Kjørva" />
		<tag k="natural" v="shoal" />
		<tag k="place" v="locality" />
		<tag k="ssr:stedsnr" v="96282" />
	</node>
	<node id="-713034" lat="68.7153722191" lon="14.4291638987">
		<tag k="fixme" v="consider seamark:type=rock or natural=shoal" />
		<tag k="name" v="Grønnåsskjæran" />
		<tag k="place" v="islet" />
		<tag k="ssr:stedsnr" v="82235" />
	</node>
	<node id="-713030" lat="68.6826527799" lon="14.375008326">
		<tag k="name" v="Bergskjæret" />
		<tag k="place" v="locality" />
		<tag k="seamark:type" v="rock" />
		<tag k="ssr:stedsnr" v="82208" />
	</node>
	<node id="-713027" lat="68.6832388883" lon="14.4033555606">
		<tag k="name" v="Skjellvika" />
		<tag k="natural" v="bay" />
		<tag k="ssr:stedsnr" v="82032" />
	</node>
	<node id="-713024" lat="68.7915138916" lon="14.5162777794">
		<tag k="alt_name" v="Sildbogneset" />
		<tag k="name" v="Sildbugneset" />
		<tag k="natural" v="cape" />
		<tag k="ssr:stedsnr" v="79956" />
	</node>
	<node id="-713022" lat="68.7934333288" lon="14.6110638993">
		<tag k="bay" v="fjord" />
		<tag k="name" v="Malnesfjorden" />
		<tag k="natural" v="bay" />
		<tag k="ssr:stedsnr" v="79921" />
	</node>
	<node id="-713021" lat="68.8103527813" lon="14.506933344">
		<tag k="name" v="Tussbåen" />
		<tag k="natural" v="shoal" />
		<tag k="place" v="locality" />
		<tag k="ssr:stedsnr" v="79897" />
	</node>
	<node id="-713019" lat="68.664727779" lon="14.7896694377">
		<tag k="name" v="Storøya" />
		<tag k="place" v="islet" />
		<tag k="ssr:stedsnr" v="79699" />
	</node>
	<node id="-713018" lat="68.6696333335" lon="14.7945833431">
		<tag k="name" v="Torskøya" />
		<tag k="place" v="islet" />
		<tag k="ssr:stedsnr" v="79698" />
	</node>
	<node id="-713004" lat="68.6587333324" lon="14.7691638979">
		<tag k="name" v="Ungsmaløya" />
		<tag k="place" v="islet" />
		<tag k="ssr:stedsnr" v="78720" />
	</node>
	<node id="-713003" lat="68.6526416698" lon="14.6431194521">
		<tag k="name" v="Storøya" />
		<tag k="place" v="islet" />
		<tag k="ssr:stedsnr" v="78710" />
	</node>
	<node id="-712997" lat="68.6850333313" lon="14.6962222204">
		<tag k="bay" v="fjord" />
		<tag k="name" v="Jørnfjorden" />
		<tag k="natural" v="bay" />
		<tag k="ssr:stedsnr" v="78636" />
	</node>
	<node id="-712996" lat="68.5970888912" lon="14.4552499915">
		<tag k="alt_name" v="Indregjersøya" />
		<tag k="name" v="Innergjersøya" />
		<tag k="place" v="islet" />
		<tag k="ssr:stedsnr" v="78570" />
	</node>
	<node id="-712992" lat="68.6979111119" lon="14.2705888806">
		<tag k="name" v="Breifalleia" />
		<tag k="natural" v="strait" />
		<tag k="ssr:stedsnr" v="78489" />
	</node>
	<node id="-712991" lat="68.7081944408" lon="14.230988883">
		<tag k="name" v="Steinbitskallen" />
		<tag k="natural" v="shoal" />
		<tag k="place" v="locality" />
		<tag k="ssr:stedsnr" v="78487" />
	</node>
	<node id="-712990" lat="68.7382305571" lon="14.4132083412">
		<tag k="name" v="Gregusskallen" />
		<tag k="natural" v="shoal" />
		<tag k="place" v="locality" />
		<tag k="ssr:stedsnr" v="78482" />
	</node>
	<node id="-712989" lat="68.610052782" lon="14.2739638901">
		<tag k="name" v="Kvetten" />
		<tag k="natural" v="shoal" />
		<tag k="place" v="locality" />
		<tag k="ssr:stedsnr" v="78430" />
	</node>
	<node id="-712988" lat="68.6233333364" lon="14.410038897">
		<tag k="name" v="Svinøyvågen" />
		<tag k="natural" v="strait" />
		<tag k="ssr:stedsnr" v="78428" />
	</node>
	<node id="-712987" lat="68.6214916703" lon="14.4007472142">
		<tag k="name" v="Teistholmen" />
		<tag k="place" v="islet" />
		<tag k="ssr:stedsnr" v="78424" />
	</node>
	<node id="-712986" lat="68.6236944423" lon="14.3925222293">
		<tag k="fixme" v="consider seamark:type=rock or natural=shoal" />
		<tag k="name" v="Store Parisskjæret" />
		<tag k="place" v="islet" />
		<tag k="ssr:stedsnr" v="78416" />
	</node>
	<node id="-712985" lat="68.6852583305" lon="14.2965555487">
		<tag k="alt_name" v="Gomskallen" />
		<tag k="name" v="Gormskallen" />
		<tag k="natural" v="shoal" />
		<tag k="place" v="locality" />
		<tag k="ssr:stedsnr" v="78373" />
	</node>
	<node id="-712984" lat="68.7415027763" lon="14.5322166776">
		<tag k="name" v="Kobbvågen" />
		<tag k="natural" v="bay" />
		<tag k="ssr:stedsnr" v="78344" />
	</node>
	<node id="-712982" lat="68.5967750008" lon="14.4111000108">
		<tag k="name" v="Brattholmen" />
		<tag k="place" v="islet" />
		<tag k="ssr:stedsnr" v="78334" />
	</node>
	<node id="-712981" lat="68.5867888881" lon="14.3087444518">
		<tag k="name" v="Flesa" />
		<tag k="place" v="islet" />
		<tag k="ssr:stedsnr" v="78330" />
	</node>
	<node id="-712978" lat="68.6074527786" lon="14.2984861105">
		<tag k="alt_name" v="Litl Skjæringen" />
		<tag k="name" v="Skjerdingen, l" />
		<tag k="place" v="islet" />
		<tag k="ssr:stedsnr" v="77341" />
	</node>
	<node id="-712977" lat="68.6042166682" lon="14.280400012">
		<tag k="name" v="Husleia" />
		<tag k="natural" v="strait" />
		<tag k="ssr:stedsnr" v="77337" />
	</node>
	<node id="-712965" lat="68.666161107" lon="14.7751972278">
		<tag k="name" v="Hamn" />
		<tag k="natural" v="bay" />
		<tag k="ssr:stedsnr" v="55396" />
	</node>
	<node id="-712964" lat="68.6630361136" lon="14.7788250045">
		<tag k="name" v="Oksneset" />
		<tag k="natural" v="cape" />
		<tag k="ssr:stedsnr" v="55395" />
	</node>
	<node id="-712951" lat="68.8274527806" lon="14.6276861227">
		<tag k="name" v="Brurbåen" />
		<tag k="natural" v="shoal" />
		<tag k="place" v="locality" />
		<tag k="ssr:stedsnr" v="37193" />
	</node>
	<node id="-712949" lat="68.7836277743" lon="14.6881416672">
		<tag k="name" v="Risdalsstranda" />
		<tag k="natural" v="beach" />
		<tag k="place" v="locality" />
		<tag k="ssr:stedsnr" v="36687" />
	</node>
	<node id="-712946" lat="68.7391166696" lon="14.5125722323">
		<tag k="name" v="Torvøya" />
		<tag k="place" v="islet" />
		<tag k="ssr:stedsnr" v="36597" />
	</node>
	<node id="-712945" lat="68.7351222258" lon="14.5090027864">
		<tag k="fixme" v="consider seamark:type=rock or natural=shoal" />
		<tag k="name" v="Haversandskjæret" />
		<tag k="place" v="islet" />
		<tag k="ssr:stedsnr" v="36593" />
	</node>
	<node id="-712944" lat="68.6644777782" lon="14.4115166775">
		<tag k="name" v="Makkleirholmen" />
		<tag k="place" v="islet" />
		<tag k="ssr:stedsnr" v="36531" />
	</node>
	<node id="-712941" lat="68.6736388912" lon="14.4551333263">
		<tag k="name" v="Rubertsjøen" />
		<tag k="natural" v="beach" />
		<tag k="place" v="locality" />
		<tag k="ssr:stedsnr" v="36475" />
	</node>
	<node id="-712936" lat="68.5995166642" lon="14.4861555533">
		<tag k="name" v="Valen" />
		<tag k="place" v="locality" />
		<tag k="ssr:stedsnr" v="36429" />
	</node>
	<node id="-712935" lat="68.6014055517" lon="14.4842694458">
		<tag k="name" v="Steinsneset" />
		<tag k="natural" v="cape" />
		<tag k="ssr:stedsnr" v="36425" />
	</node>
	<node id="-712934" lat="68.7673055589" lon="14.3688388877">
		<tag k="name" v="Torvbergskallen" />
		<tag k="natural" v="shoal" />
		<tag k="place" v="locality" />
		<tag k="ssr:stedsnr" v="36422" />
	</node>
	<node id="-712933" lat="68.6891055565" lon="14.3665111146">
		<tag k="name" v="Innerleia" />
		<tag k="natural" v="strait" />
		<tag k="ssr:stedsnr" v="36368" />
	</node>
	<node id="-712932" lat="68.6282500034" lon="14.3474000131">
		<tag k="name" v="Leiskjærflua" />
		<tag k="natural" v="shoal" />
		<tag k="place" v="locality" />
		<tag k="ssr:stedsnr" v="36335" />
	</node>
	<node id="-712926" lat="68.7629472191" lon="14.4326638847">
		<tag k="name" v="Finnkona" />
		<tag k="natural" v="shoal" />
		<tag k="place" v="locality" />
		<tag k="ssr:stedsnr" v="36259" />
	</node>
	<node id="-712924" lat="68.6169999998" lon="14.6024972296">
		<tag k="name" v="Nisa" />
		<tag k="natural" v="cape" />
		<tag k="ssr:stedsnr" v="36256" />
	</node>
	<node id="-712915" lat="68.7124666646" lon="14.4239249958">
		<tag k="fixme" v="consider seamark:type=rock or natural=shoal" />
		<tag k="name" v="Svartoksen" />
		<tag k="place" v="islet" />
		<tag k="ssr:stedsnr" v="21278" />
	</node>
	<node id="-712912" lat="68.6819611095" lon="14.3831305611">
		<tag k="fixme" v="consider seamark:type=rock or natural=shoal" />
		<tag k="name" v="Hagaskjæret" />
		<tag k="place" v="islet" />
		<tag k="ssr:stedsnr" v="21253" />
	</node>
	<node id="-712909" lat="68.7041583331" lon="14.4083333244">
		<tag k="name" v="Flat-Kremmarholmen" />
		<tag k="place" v="islet" />
		<tag k="ssr:stedsnr" v="21172" />
	</node>
	<node id="-712900" lat="68.7888222229" lon="14.4525583251">
		<tag k="name" v="Malnesskallen" />
		<tag k="natural" v="shoal" />
		<tag k="place" v="locality" />
		<tag k="ssr:stedsnr" v="18942" />
	</node>
	<node id="-712899" lat="68.8064055574" lon="14.7158888868">
		<tag k="name" v="Kariholmen" />
		<tag k="place" v="islet" />
		<tag k="ssr:stedsnr" v="18930" />
	</node>
	<node id="-712898" lat="68.7992138911" lon="14.5033250078">
		<tag k="name" v="Blåflesa" />
		<tag k="place" v="islet" />
		<tag k="ssr:stedsnr" v="18910" />
	</node>
	<node id="-712896" lat="68.8078694476" lon="14.5350194562">
		<tag k="alt_name" v="Brurøy" />
		<tag k="name" v="Brurøya" />
		<tag k="place" v="island" />
		<tag k="ssr:stedsnr" v="18882" />
	</node>
	<node id="-712893" lat="68.824805557" lon="14.6092027751">
		<tag k="name" v="Lyngøya" />
		<tag k="place" v="island" />
		<tag k="ssr:stedsnr" v="18834" />
	</node>
	<node id="-712892" lat="68.8513138845" lon="14.6799861214">
		<tag k="name" v="Skipmannsgrunnen" />
		<tag k="natural" v="shoal" />
		<tag k="place" v="locality" />
		<tag k="ssr:stedsnr" v="18768" />
	</node>
	<node id="-712890" lat="68.6701638916" lon="14.7857666701">
		<tag k="name" v="Slåttøya" />
		<tag k="place" v="islet" />
		<tag k="ssr:stedsnr" v="18668" />
	</node>
	<node id="-712886" lat="68.6407500023" lon="14.6799999946">
		<tag k="name" v="Flagskallen" />
		<tag k="natural" v="shoal" />
		<tag k="place" v="locality" />
		<tag k="ssr:stedsnr" v="18511" />
	</node>
	<node id="-712884" lat="68.6327444466" lon="14.6457249985">
		<tag k="name" v="Avløysa" />
		<tag k="place" v="islet" />
		<tag k="ssr:stedsnr" v="18502" />
	</node>
	<node id="-712882" lat="68.7744861123" lon="14.6192388884">
		<tag k="name" v="Vedvika" />
		<tag k="natural" v="bay" />
		<tag k="ssr:stedsnr" v="18495" />
	</node>
	<node id="-712881" lat="68.6225305551" lon="14.6489749919">
		<tag k="alt_name" v="Meskallen" />
		<tag k="name" v="Medskallen" />
		<tag k="natural" v="shoal" />
		<tag k="place" v="locality" />
		<tag k="ssr:stedsnr" v="18494" />
	</node>
	<node id="-712879" lat="68.6225805566" lon="14.6017416644">
		<tag k="fixme" v="multiple name tags, choose one and add the other to alt_name" />
		<tag k="name" v="Snarsetvågen;Yttervågen" />
		<tag k="natural" v="bay" />
		<tag k="ssr:stedsnr" v="18490" />
	</node>
	<node id="-712877" lat="68.7647777775" lon="14.4569138911">
		<tag k="alt_name" v="Glimmervalbukta" />
		<tag k="name" v="Glimmerbukta" />
		<tag k="natural" v="bay" />
		<tag k="ssr:stedsnr" v="18473" />
	</node>
	<node id="-712874" lat="68.6898916621" lon="14.3549194496">
		<tag k="name" v="Røyrfallan" />
		<tag k="natural" v="shoal" />
		<tag k="place" v="locality" />
		<tag k="ssr:stedsnr" v="18454" />
	</node>
	<node id="-712873" lat="68.6274444436" lon="14.2641499949">
		<tag k="name" v="Fyllingan" />
		<tag k="place" v="islet" />
		<tag k="ssr:stedsnr" v="18372" />
	</node>
	<node id="-712872" lat="68.6419027791" lon="14.3959277857">
		<tag k="alt_name" v="Triflesa, store" />
		<tag k="name" v="Store Triflesa" />
		<tag k="place" v="islet" />
		<tag k="ssr:stedsnr" v="18371" />
	</node>
	<node id="-712871" lat="68.6351472232" lon="14.3184694492">
		<tag k="name" v="Leibåen" />
		<tag k="natural" v="shoal" />
		<tag k="place" v="locality" />
		<tag k="ssr:stedsnr" v="18369" />
	</node>
	<node id="-712870" lat="68.644797222" lon="14.3611000003">
		<tag k="name" v="Krukskallen" />
		<tag k="natural" v="shoal" />
		<tag k="place" v="locality" />
		<tag k="ssr:stedsnr" v="18363" />
	</node>
	<node id="-712868" lat="68.6609527798" lon="14.402061109">
		<tag k="name" v="Galtholmen" />
		<tag k="place" v="islet" />
		<tag k="ssr:stedsnr" v="18353" />
	</node>
	<node id="-712867" lat="68.6682805566" lon="14.2335222125">
		<tag k="name" v="Sørbåen" />
		<tag k="natural" v="shoal" />
		<tag k="place" v="locality" />
		<tag k="ssr:stedsnr" v="18343" />
	</node>
	<node id="-712866" lat="68.6717333357" lon="14.2419694435">
		<tag k="name" v="Novskallen" />
		<tag k="natural" v="shoal" />
		<tag k="place" v="locality" />
		<tag k="ssr:stedsnr" v="18342" />
	</node>
	<node id="-712865" lat="68.6843777765" lon="14.3205083344">
		<tag k="name" v="Ramnbergfallet" />
		<tag k="natural" v="shoal" />
		<tag k="place" v="locality" />
		<tag k="ssr:stedsnr" v="18334" />
	</node>
	<node id="-712860" lat="68.6767222208" lon="14.7179694429">
		<tag k="name" v="Storøya" />
		<tag k="place" v="island" />
		<tag k="ssr:stedsnr" v="18202" />
	</node>
	<node id="-712857" lat="68.6576611141" lon="14.7396805442">
		<tag k="name" v="Dragan" />
		<tag k="place" v="island" />
		<tag k="ssr:stedsnr" v="17755" />
	</node>
	<node id="-712855" lat="68.6490611084" lon="14.6783250092">
		<tag k="alt_name" v="Varholmen, sø;Søre Varholmen" />
		<tag k="fixme" v="multiple name tags, choose one and add the other to alt_name" />
		<tag k="name" v="Varholmen;Sørvardholmen" />
		<tag k="place" v="islet" />
		<tag k="ssr:stedsnr" v="17738" />
	</node>
	<node id="-712850" lat="68.682377776" lon="14.4621666593">
		<tag k="name" v="Skjørisen" />
		<tag k="natural" v="bay" />
		<tag k="ssr:stedsnr" v="17690" />
	</node>
	<node id="-712848" lat="68.6185611153" lon="14.3418472147">
		<tag k="name" v="Været" />
		<tag k="natural" v="cape" />
		<tag k="ssr:stedsnr" v="17451" />
	</node>
	<node id="-712847" lat="68.6251611137" lon="14.30102779">
		<tag k="name" v="Dragholmskallen" />
		<tag k="natural" v="shoal" />
		<tag k="place" v="locality" />
		<tag k="ssr:stedsnr" v="17447" />
	</node>
	<node id="-712846" lat="68.6264222205" lon="14.4111611073">
		<tag k="alt_name" v="Svinøya, nordre" />
		<tag k="name" v="Nord-Svinøya" />
		<tag k="place" v="island" />
		<tag k="ssr:stedsnr" v="17446" />
	</node>
	<node id="-712845" lat="68.7340749971" lon="14.5439500006">
		<tag k="fixme" v="consider seamark:type=rock or natural=shoal" />
		<tag k="name" v="Dagfinnskjæret" />
		<tag k="place" v="islet" />
		<tag k="ssr:stedsnr" v="17401" />
	</node>
	<node id="-712843" lat="68.7333638882" lon="14.6342611081">
		<tag k="name" v="Elvneset" />
		<tag k="natural" v="cape" />
		<tag k="ssr:stedsnr" v="17397" />
	</node>
	<node id="-712840" lat="68.7440833304" lon="14.4985027843">
		<tag k="fixme" v="consider seamark:type=rock or natural=shoal" />
		<tag k="name" v="Koddskjæret" />
		<tag k="place" v="islet" />
		<tag k="ssr:stedsnr" v="17367" />
	</node>
	<node id="-712838" lat="68.6071694456" lon="14.408286106">
		<tag k="alt_name" v="Børringen, store" />
		<tag k="name" v="Store Børringen" />
		<tag k="place" v="islet" />
		<tag k="ssr:stedsnr" v="17356" />
	</node>
	<node id="-712836" lat="68.8499999968" lon="14.1166666715">
		<tag k="name" v="Finnbruane" />
		<tag k="natural" v="shoal" />
		<tag k="place" v="locality" />
		<tag k="ssr:stedsnr" v="788185" />
	</node>
	<node id="-712835" lat="68.6750000041" lon="13.7499999989">
		<tag k="name" v="Innhavsgrunnen" />
		<tag k="natural" v="shoal" />
		<tag k="place" v="locality" />
		<tag k="ssr:stedsnr" v="727195" />
	</node>
	<node id="-712834" lat="68.6833333333" lon="14.1166666724">
		<tag k="name" v="Djuphola" />
		<tag k="place" v="locality" />
		<tag k="ssr:stedsnr" v="302213" />
	</node>
	<node id="-712833" lat="68.7565083365" lon="14.4516750124">
		<tag k="name" v="Gammelflua" />
		<tag k="natural" v="shoal" />
		<tag k="place" v="locality" />
		<tag k="ssr:stedsnr" v="886652" />
	</node>
	<node id="-712832" lat="68.7272611151" lon="14.4689416569">
		<tag k="fixme" v="consider seamark:type=rock or natural=shoal" />
		<tag k="name" v="Peterhella" />
		<tag k="place" v="islet" />
		<tag k="ssr:stedsnr" v="886631" />
	</node>
	<node id="-712825" lat="68.6761194446" lon="14.4112583287">
		<tag k="name" v="Sørhamn" />
		<tag k="natural" v="bay" />
		<tag k="ssr:stedsnr" v="886486" />
	</node>
	<node id="-712824" lat="68.7519583378" lon="14.4343527702">
		<tag k="name" v="Glimmingen" />
		<tag k="natural" v="shoal" />
		<tag k="place" v="locality" />
		<tag k="ssr:stedsnr" v="886448" />
	</node>
	<node id="-712823" lat="68.6557055568" lon="14.3784583335">
		<tag k="name" v="Søre Husfallan" />
		<tag k="natural" v="shoal" />
		<tag k="place" v="locality" />
		<tag k="ssr:stedsnr" v="886404" />
	</node>
	<node id="-712822" lat="68.8185083378" lon="14.5423999945">
		<tag k="fixme" v="consider seamark:type=rock or natural=shoal" />
		<tag k="name" v="Pannskjæret" />
		<tag k="place" v="islet" />
		<tag k="ssr:stedsnr" v="886350" />
	</node>
	<node id="-712820" lat="68.6188555591" lon="14.5726750109">
		<tag k="name" v="Kjerringa" />
		<tag k="place" v="islet" />
		<tag k="ssr:stedsnr" v="886290" />
	</node>
	<node id="-712819" lat="68.830933336" lon="14.6281472239">
		<tag k="name" v="Hellbåen" />
		<tag k="natural" v="shoal" />
		<tag k="place" v="locality" />
		<tag k="ssr:stedsnr" v="886283" />
	</node>
	<node id="-712815" lat="68.6609833341" lon="14.4468472286">
		<tag k="name" v="Førvalen" />
		<tag k="natural" v="strait" />
		<tag k="ssr:stedsnr" v="886267" />
	</node>
	<node id="-712810" lat="68.6129027758" lon="14.4588444445">
		<tag k="name" v="Steinestranda" />
		<tag k="natural" v="beach" />
		<tag k="place" v="locality" />
		<tag k="ssr:stedsnr" v="886164" />
	</node>
	<node id="-712809" lat="68.6253750032" lon="14.4193277683">
		<tag k="name" v="Svinøyodden" />
		<tag k="natural" v="cape" />
		<tag k="ssr:stedsnr" v="886162" />
	</node>
	<node id="-712807" lat="68.6171333332" lon="14.4435277843">
		<tag k="name" v="Osen" />
		<tag k="natural" v="bay" />
		<tag k="ssr:stedsnr" v="886134" />
	</node>
	<node id="-712806" lat="68.6180222231" lon="14.4205749991">
		<tag k="name" v="Eggholmen" />
		<tag k="place" v="islet" />
		<tag k="ssr:stedsnr" v="886135" />
	</node>
	<node id="-712805" lat="68.6190361083" lon="14.4284861062">
		<tag k="fixme" v="multiple name tags, choose one and add the other to alt_name" />
		<tag k="name" v="Stranda;Strandsjøen" />
		<tag k="natural" v="beach" />
		<tag k="place" v="locality" />
		<tag k="ssr:stedsnr" v="886118" />
	</node>
	<node id="-712798" lat="68.6124638863" lon="14.4789055598">
		<tag k="name" v="Jochumstranda" />
		<tag k="natural" v="beach" />
		<tag k="place" v="locality" />
		<tag k="ssr:stedsnr" v="885570" />
	</node>
	<node id="-712797" lat="68.7356166667" lon="14.5823472322">
		<tag k="name" v="Risesjøen" />
		<tag k="natural" v="bay" />
		<tag k="ssr:stedsnr" v="885330" />
	</node>
	<node id="-712796" lat="68.7683055584" lon="14.4338138911">
		<tag k="name" v="Tommelen" />
		<tag k="natural" v="shoal" />
		<tag k="place" v="locality" />
		<tag k="ssr:stedsnr" v="885296" />
	</node>
	<node id="-712795" lat="68.8118083347" lon="14.4919111124">
		<tag k="name" v="Tussbåtåga" />
		<tag k="natural" v="shoal" />
		<tag k="place" v="locality" />
		<tag k="ssr:stedsnr" v="885265" />
	</node>
	<node id="-712794" lat="68.8082027751" lon="14.569333342">
		<tag k="name" v="Malnessanden" />
		<tag k="natural" v="cape" />
		<tag k="ssr:stedsnr" v="479333" />
	</node>
	<node id="-712790" lat="68.6731111142" lon="14.543772217">
		<tag k="name" v="Landfastholmen" />
		<tag k="natural" v="cape" />
		<tag k="ssr:stedsnr" v="241165" />
	</node>
	<node id="-712788" lat="68.6541499969" lon="14.6192416624">
		<tag k="name" v="Langstranda" />
		<tag k="natural" v="beach" />
		<tag k="place" v="locality" />
		<tag k="ssr:stedsnr" v="241142" />
	</node>
	<node id="-712783" lat="68.6562027774" lon="14.661061121">
		<tag k="name" v="Sørnesan" />
		<tag k="natural" v="cape" />
		<tag k="ssr:stedsnr" v="237414" />
	</node>
	<node id="-712780" lat="68.8309388884" lon="14.6312249923">
		<tag k="name" v="Komagen" />
		<tag k="natural" v="shoal" />
		<tag k="place" v="locality" />
		<tag k="ssr:stedsnr" v="401187" />
	</node>
	<node id="-712778" lat="68.7814722232" lon="14.6540305636">
		<tag k="name" v="Svavika" />
		<tag k="natural" v="bay" />
		<tag k="ssr:stedsnr" v="400722" />
	</node>
	<node id="-712777" lat="68.6128416706" lon="14.550524992">
		<tag k="name" v="Korsneset" />
		<tag k="natural" v="cape" />
		<tag k="ssr:stedsnr" v="400704" />
	</node>
	<node id="-712771" lat="68.6068416698" lon="14.3341166686">
		<tag k="name" v="Skarvhellflua" />
		<tag k="natural" v="shoal" />
		<tag k="place" v="locality" />
		<tag k="ssr:stedsnr" v="400350" />
	</node>
	<node id="-712770" lat="68.6005027749" lon="14.4244388978">
		<tag k="name" v="Baiet" />
		<tag k="natural" v="strait" />
		<tag k="ssr:stedsnr" v="400344" />
	</node>
	<node id="-712769" lat="68.8208472259" lon="14.540963882">
		<tag k="name" v="Seisundet" />
		<tag k="natural" v="strait" />
		<tag k="ssr:stedsnr" v="400336" />
	</node>
	<node id="-712767" lat="68.6191749964" lon="14.5975916693">
		<tag k="name" v="Lokkøynesan" />
		<tag k="natural" v="cape" />
		<tag k="ssr:stedsnr" v="400320" />
	</node>
	<node id="-712766" lat="68.6052888843" lon="14.4618277883">
		<tag k="name" v="Storvika" />
		<tag k="natural" v="bay" />
		<tag k="ssr:stedsnr" v="400311" />
	</node>
	<node id="-712761" lat="68.6504972217" lon="14.4359805492">
		<tag k="name" v="Skjåbergan" />
		<tag k="natural" v="cape" />
		<tag k="ssr:stedsnr" v="400283" />
	</node>
	<node id="-712760" lat="68.6183555533" lon="14.5708888968">
		<tag k="name" v="Kallen" />
		<tag k="place" v="islet" />
		<tag k="ssr:stedsnr" v="400282" />
	</node>
	<node id="-712759" lat="68.7971555552" lon="14.5078555612">
		<tag k="name" v="Finnkona" />
		<tag k="place" v="islet" />
		<tag k="ssr:stedsnr" v="400266" />
	</node>
	<node id="-712758" lat="68.8249444486" lon="14.518377781">
		<tag k="name" v="Store Havsundet" />
		<tag k="natural" v="strait" />
		<tag k="ssr:stedsnr" v="400251" />
	</node>
	<node id="-712755" lat="68.6279750036" lon="14.4322916701">
		<tag k="fixme" v="consider seamark:type=rock or natural=shoal" />
		<tag k="name" v="Småskjæran" />
		<tag k="place" v="islet" />
		<tag k="ssr:stedsnr" v="400161" />
	</node>
	<node id="-712754" lat="68.6138861117" lon="14.4382750017">
		<tag k="name" v="Tømmerholmen" />
		<tag k="place" v="islet" />
		<tag k="ssr:stedsnr" v="400138" />
	</node>
	<node id="-712753" lat="68.6283194483" lon="14.4047916694">
		<tag k="fixme" v="consider seamark:type=rock or natural=shoal" />
		<tag k="name" v="Tjeldskjæret" />
		<tag k="place" v="islet" />
		<tag k="ssr:stedsnr" v="400135" />
	</node>
	<node id="-712752" lat="68.6237194413" lon="14.4079861062">
		<tag k="name" v="Sjøgrunnan" />
		<tag k="natural" v="shoal" />
		<tag k="place" v="locality" />
		<tag k="ssr:stedsnr" v="400131" />
	</node>
	<node id="-712751" lat="68.6194638851" lon="14.4063305642">
		<tag k="name" v="Korsvalen" />
		<tag k="place" v="locality" />
		<tag k="ssr:stedsnr" v="400130" />
	</node>
	<node id="-712745" lat="68.6965333362" lon="14.397325006">
		<tag k="name" v="Bølflua" />
		<tag k="place" v="locality" />
		<tag k="seamark:type" v="rock" />
		<tag k="ssr:stedsnr" v="385230" />
	</node>
	<node id="-712744" lat="68.6822333344" lon="14.3969694465">
		<tag k="name" v="Teisten" />
		<tag k="place" v="locality" />
		<tag k="seamark:type" v="rock" />
		<tag k="ssr:stedsnr" v="385229" />
	</node>
	<node id="-712735" lat="68.7848527784" lon="14.5055027702">
		<tag k="name" v="Skjåbrekkbukta" />
		<tag k="natural" v="bay" />
		<tag k="ssr:stedsnr" v="382972" />
	</node>
	<node id="-712733" lat="68.8041083348" lon="14.5235638996">
		<tag k="name" v="Vargen" />
		<tag k="place" v="islet" />
		<tag k="ssr:stedsnr" v="382938" />
	</node>
	<node id="-712732" lat="68.8130750029" lon="14.5547055676">
		<tag k="name" v="Skiftesanden" />
		<tag k="natural" v="beach" />
		<tag k="place" v="locality" />
		<tag k="ssr:stedsnr" v="382911" />
	</node>
	<node id="-712731" lat="68.8067750005" lon="14.490449999">
		<tag k="name" v="Smågjeddskallen" />
		<tag k="natural" v="shoal" />
		<tag k="place" v="locality" />
		<tag k="ssr:stedsnr" v="382900" />
	</node>
	<node id="-712730" lat="68.8183611125" lon="14.5516249982">
		<tag k="name" v="Buholmen" />
		<tag k="place" v="islet" />
		<tag k="ssr:stedsnr" v="382884" />
	</node>
	<node id="-712729" lat="68.8300444483" lon="14.5345111077">
		<tag k="name" v="Seiskallen" />
		<tag k="natural" v="shoal" />
		<tag k="place" v="locality" />
		<tag k="ssr:stedsnr" v="382865" />
	</node>
	<node id="-712728" lat="68.8291972197" lon="14.6052111073">
		<tag k="fixme" v="consider seamark:type=rock or natural=shoal" />
		<tag k="name" v="Nordskjæret" />
		<tag k="place" v="islet" />
		<tag k="ssr:stedsnr" v="382862" />
	</node>
	<node id="-712727" lat="68.6678583298" lon="14.7117500042">
		<tag k="name" v="Hestøya" />
		<tag k="place" v="islet" />
		<tag k="ssr:stedsnr" v="382712" />
	</node>
	<node id="-712726" lat="68.6638805579" lon="14.693825009">
		<tag k="name" v="Lyngholmen" />
		<tag k="place" v="islet" />
		<tag k="ssr:stedsnr" v="382711" />
	</node>
	<node id="-712720" lat="68.6185194424" lon="14.6317305494">
		<tag k="fixme" v="multiple name tags, choose one and add the other to alt_name" />
		<tag k="name" v="Vardeskallen;Varskallen" />
		<tag k="natural" v="shoal" />
		<tag k="place" v="locality" />
		<tag k="ssr:stedsnr" v="382524" />
	</node>
	<node id="-712718" lat="68.6112027769" lon="14.4265388934">
		<tag k="alt_name" v="Purkøya" />
		<tag k="name" v="Purkeøya" />
		<tag k="place" v="islet" />
		<tag k="ssr:stedsnr" v="382507" />
	</node>
	<node id="-712717" lat="68.6296666661" lon="14.2750833448">
		<tag k="name" v="Seistein" />
		<tag k="natural" v="shoal" />
		<tag k="place" v="locality" />
		<tag k="ssr:stedsnr" v="382418" />
	</node>
	<node id="-712716" lat="68.6506861151" lon="14.3563888811">
		<tag k="name" v="Høgholmen" />
		<tag k="place" v="islet" />
		<tag k="ssr:stedsnr" v="382407" />
	</node>
	<node id="-712715" lat="68.6583666674" lon="14.2404638894">
		<tag k="name" v="Nils Gregussaskallen" />
		<tag k="natural" v="shoal" />
		<tag k="place" v="locality" />
		<tag k="ssr:stedsnr" v="382386" />
	</node>
	<node id="-712712" lat="68.7827694432" lon="14.649388892">
		<tag k="alt_name" v="Jennskardbotnen" />
		<tag k="name" v="Gjendskardbotnen" />
		<tag k="natural" v="bay" />
		<tag k="ssr:stedsnr" v="381980" />
	</node>
</osm>
