<?xml version="1.0" encoding="UTF-8"?>
<osm generator="osmapis" version="0.6">
	<node id="-209920" lat="59.3766027801" lon="10.1941416653">
		<tag k="name" v="Bakke øvre" />
		<tag k="natural" v="slope" />
		<tag k="place" v="locality" />
		<tag k="ssr:stedsnr" v="937366" />
	</node>
	<node id="-209919" lat="59.421274996" lon="10.2092750062">
		<tag k="name" v="Brekka" />
		<tag k="natural" v="slope" />
		<tag k="place" v="locality" />
		<tag k="ssr:stedsnr" v="937346" />
	</node>
	<node id="-209918" lat="59.4184805575" lon="10.2110222266">
		<tag k="name" v="Haga-berget" />
		<tag k="natural" v="hill" />
		<tag k="place" v="locality" />
		<tag k="ssr:stedsnr" v="937345" />
	</node>
	<node id="-209917" lat="59.3903249984" lon="10.2075611112">
		<tag k="name" v="Pers-rønningen" />
		<tag k="natural" v="slope" />
		<tag k="place" v="locality" />
		<tag k="ssr:stedsnr" v="937340" />
	</node>
	<node id="-208888" lat="59.4632083309" lon="10.3280611045">
		<tag k="name" v="Kornstadbakken" />
		<tag k="natural" v="slope" />
		<tag k="place" v="locality" />
		<tag k="ssr:stedsnr" v="391830" />
	</node>
	<node id="-208887" lat="59.4616777742" lon="10.345249993">
		<tag k="alt_name" v="Brekkekleiv" />
		<tag k="name" v="Brekkekleiva" />
		<tag k="natural" v="valley" />
		<tag k="place" v="locality" />
		<tag k="ssr:stedsnr" v="391823" />
	</node>
	<node id="-209910" lat="59.4077222197" lon="10.1238277808">
		<tag k="fixme" v="consider natural=peak for the most distinct mountains in the district" />
		<tag k="name" v="Byglandåsen" />
		<tag k="natural" v="hill" />
		<tag k="place" v="locality" />
		<tag k="ssr:stedsnr" v="937230" />
	</node>
	<node id="-209397" lat="59.313838892" lon="10.3061527732">
		<tag k="fixme" v="consider natural=peak for the most distinct mountains in the district" />
		<tag k="name" v="Klepperås" />
		<tag k="natural" v="hill" />
		<tag k="place" v="locality" />
		<tag k="ssr:stedsnr" v="512772" />
	</node>
	<node id="-208884" lat="59.3058694482" lon="10.2747916615">
		<tag k="name" v="Skillelegda" />
		<tag k="natural" v="valley" />
		<tag k="place" v="locality" />
		<tag k="ssr:stedsnr" v="391768" />
	</node>
	<node id="-209292" lat="59.4125277799" lon="10.2114166715">
		<tag k="fixme" v="consider natural=peak for the most distinct mountains in the district" />
		<tag k="name" v="Høgtopp" />
		<tag k="natural" v="hill" />
		<tag k="place" v="locality" />
		<tag k="ssr:stedsnr" v="452305" />
	</node>
	<node id="-209389" lat="59.4573694488" lon="10.1895583393">
		<tag k="fixme" v="consider natural=peak for the most distinct mountains in the district" />
		<tag k="name" v="Brattsjuve" />
		<tag k="natural" v="hill" />
		<tag k="place" v="locality" />
		<tag k="ssr:stedsnr" v="512572" />
	</node>
	<node id="-209384" lat="59.347838887" lon="10.2288527766">
		<tag k="name" v="Tinghaugbakken" />
		<tag k="natural" v="slope" />
		<tag k="place" v="locality" />
		<tag k="ssr:stedsnr" v="512375" />
	</node>
	<node id="-209383" lat="59.3488472199" lon="10.2068916692">
		<tag k="name" v="Heddeleet" />
		<tag k="natural" v="hill" />
		<tag k="place" v="locality" />
		<tag k="ssr:stedsnr" v="512363" />
	</node>
	<node id="-208870" lat="59.4383638864" lon="10.1657361113">
		<tag k="name" v="Tøllerønningen" />
		<tag k="natural" v="slope" />
		<tag k="place" v="locality" />
		<tag k="ssr:stedsnr" v="391548" />
	</node>
	<node id="-208869" lat="59.4235194431" lon="10.1708750073">
		<tag k="fixme" v="consider natural=peak for the most distinct mountains in the district" />
		<tag k="name" v="Gærnås" />
		<tag k="natural" v="hill" />
		<tag k="place" v="locality" />
		<tag k="ssr:stedsnr" v="391544" />
	</node>
	<node id="-209380" lat="59.4087916644" lon="10.219600006">
		<tag k="name" v="Kjellerhaugen" />
		<tag k="natural" v="hill" />
		<tag k="place" v="locality" />
		<tag k="ssr:stedsnr" v="512303" />
	</node>
	<node id="-208867" lat="59.3319111083" lon="10.2158555635">
		<tag k="fixme" v="consider natural=peak for the most distinct mountains in the district" />
		<tag k="name" v="Brattås" />
		<tag k="natural" v="hill" />
		<tag k="place" v="locality" />
		<tag k="ssr:stedsnr" v="391462" />
	</node>
	<node id="-208866" lat="59.3637527748" lon="10.2475000037">
		<tag k="fixme" v="consider natural=peak for the most distinct mountains in the district" />
		<tag k="name" v="Bergåsen" />
		<tag k="natural" v="hill" />
		<tag k="place" v="locality" />
		<tag k="ssr:stedsnr" v="391399" />
	</node>
	<node id="-209376" lat="59.3406527819" lon="10.2304194443">
		<tag k="name" v="Breidablikk" />
		<tag k="place" v="locality" />
		<tag k="ssr:stedsnr" v="512278" />
	</node>
	<node id="-208859" lat="59.3849888914" lon="10.1835027804">
		<tag k="name" v="Sagbakken" />
		<tag k="natural" v="slope" />
		<tag k="place" v="locality" />
		<tag k="ssr:stedsnr" v="391318" />
	</node>
	<node id="-208858" lat="59.3842444428" lon="10.1798277806">
		<tag k="name" v="Rønningensvingen" />
		<tag k="natural" v="slope" />
		<tag k="place" v="locality" />
		<tag k="ssr:stedsnr" v="391316" />
	</node>
	<node id="-208856" lat="59.4120138867" lon="10.0996944477">
		<tag k="name" v="Bånnhølet" />
		<tag k="natural" v="valley" />
		<tag k="place" v="locality" />
		<tag k="ssr:stedsnr" v="391190" />
	</node>
	<node id="-209367" lat="59.4308694455" lon="10.063869444">
		<tag k="name" v="Snipedalen" />
		<tag k="natural" v="valley" />
		<tag k="place" v="locality" />
		<tag k="ssr:stedsnr" v="512132" />
	</node>
	<node id="-208854" lat="59.4078444409" lon="10.0621333341">
		<tag k="fixme" v="consider natural=peak for the most distinct mountains in the district" />
		<tag k="name" v="Ulaåsen" />
		<tag k="natural" v="hill" />
		<tag k="place" v="locality" />
		<tag k="ssr:stedsnr" v="391176" />
	</node>
	<node id="-209912" lat="59.4215527754" lon="10.1579861182">
		<tag k="fixme" v="consider natural=peak for the most distinct mountains in the district" />
		<tag k="name" v="Hytteåsen" />
		<tag k="natural" v="hill" />
		<tag k="place" v="locality" />
		<tag k="ssr:stedsnr" v="937292" />
	</node>
	<node id="-209826" lat="59.411641666" lon="10.0910166614">
		<tag k="name" v="Geiteryggen" />
		<tag k="natural" v="ridge" />
		<tag k="place" v="locality" />
		<tag k="ssr:stedsnr" v="877159" />
	</node>
	<node id="-209851" lat="59.4546694418" lon="10.1655972291">
		<tag k="name" v="Hagasetra" />
		<tag k="place" v="locality" />
		<tag k="ssr:stedsnr" v="877593" />
	</node>
	<node id="-209850" lat="59.4467944426" lon="10.1653638909">
		<tag k="name" v="Grinnaløkka" />
		<tag k="place" v="locality" />
		<tag k="ssr:stedsnr" v="877572" />
	</node>
	<node id="-209849" lat="59.4399916656" lon="10.1555861096">
		<tag k="name" v="Nordamerika" />
		<tag k="natural" v="valley" />
		<tag k="place" v="locality" />
		<tag k="ssr:stedsnr" v="877567" />
	</node>
	<node id="-209848" lat="59.43402222" lon="10.1575555567">
		<tag k="fixme" v="consider natural=peak for the most distinct mountains in the district" />
		<tag k="name" v="Varden" />
		<tag k="natural" v="hill" />
		<tag k="place" v="locality" />
		<tag k="ssr:stedsnr" v="877565" />
	</node>
	<node id="-209847" lat="59.440908333" lon="10.1908833397">
		<tag k="fixme" v="consider natural=peak for the most distinct mountains in the district" />
		<tag k="name" v="Herkjefthøgda" />
		<tag k="natural" v="hill" />
		<tag k="place" v="locality" />
		<tag k="ssr:stedsnr" v="877549" />
	</node>
	<node id="-208822" lat="59.4279388874" lon="10.098936103">
		<tag k="fixme" v="consider natural=peak for the most distinct mountains in the district" />
		<tag k="name" v="Bjønnehytteåsen" />
		<tag k="natural" v="hill" />
		<tag k="place" v="locality" />
		<tag k="ssr:stedsnr" v="148020" />
	</node>
	<node id="-209333" lat="59.4668777802" lon="10.3359055512">
		<tag k="name" v="Mulvik-klova" />
		<tag k="natural" v="valley" />
		<tag k="place" v="locality" />
		<tag k="ssr:stedsnr" v="452938" />
	</node>
	<node id="-209844" lat="59.4349749984" lon="10.162566675">
		<tag k="name" v="Malineløkka" />
		<tag k="place" v="locality" />
		<tag k="ssr:stedsnr" v="877533" />
	</node>
	<node id="-208819" lat="59.4662361121" lon="10.3366888905">
		<tag k="name" v="Kikutfjellet" />
		<tag k="natural" v="hill" />
		<tag k="place" v="locality" />
		<tag k="ssr:stedsnr" v="331944" />
	</node>
	<node id="-209841" lat="59.3569444426" lon="10.2492916752">
		<tag k="name" v="Bergshaugen" />
		<tag k="natural" v="hill" />
		<tag k="place" v="locality" />
		<tag k="ssr:stedsnr" v="877381" />
	</node>
	<node id="-209839" lat="59.3536305598" lon="10.2094305562">
		<tag k="name" v="Åttedalen" />
		<tag k="natural" v="valley" />
		<tag k="place" v="locality" />
		<tag k="ssr:stedsnr" v="877376" />
	</node>
	<node id="-208814" lat="59.3217333307" lon="10.3210805474">
		<tag k="fixme" v="consider natural=peak for the most distinct mountains in the district" />
		<tag k="name" v="Toenåsen" />
		<tag k="natural" v="hill" />
		<tag k="place" v="locality" />
		<tag k="ssr:stedsnr" v="331656" />
	</node>
	<node id="-208813" lat="59.3227444423" lon="10.2754222151">
		<tag k="name" v="Grinnbakken" />
		<tag k="natural" v="slope" />
		<tag k="place" v="locality" />
		<tag k="ssr:stedsnr" v="331655" />
	</node>
	<node id="-208812" lat="59.3151583366" lon="10.2867277715">
		<tag k="fixme" v="consider natural=peak for the most distinct mountains in the district" />
		<tag k="name" v="Byåsen" />
		<tag k="natural" v="hill" />
		<tag k="place" v="locality" />
		<tag k="ssr:stedsnr" v="331652" />
	</node>
	<node id="-208811" lat="59.3178972236" lon="10.2854694517">
		<tag k="fixme" v="consider natural=peak for the most distinct mountains in the district" />
		<tag k="name" v="Oserødåsen" />
		<tag k="natural" v="hill" />
		<tag k="place" v="locality" />
		<tag k="ssr:stedsnr" v="331649" />
	</node>
	<node id="-209834" lat="59.4060222226" lon="10.2205999997">
		<tag k="name" v="Myrehagen" />
		<tag k="place" v="locality" />
		<tag k="ssr:stedsnr" v="877336" />
	</node>
	<node id="-209833" lat="59.400544442" lon="10.1661916614">
		<tag k="fixme" v="consider natural=peak for the most distinct mountains in the district" />
		<tag k="name" v="Krøsstjønnåsen" />
		<tag k="natural" v="hill" />
		<tag k="place" v="locality" />
		<tag k="ssr:stedsnr" v="877308" />
	</node>
	<node id="-209832" lat="59.4054166656" lon="10.1907305561">
		<tag k="name" v="Askedalen" />
		<tag k="natural" v="valley" />
		<tag k="place" v="locality" />
		<tag k="ssr:stedsnr" v="877304" />
	</node>
	<node id="-208806" lat="59.3807194419" lon="10.2169861095">
		<tag k="fixme" v="consider natural=peak for the most distinct mountains in the district" />
		<tag k="name" v="Holtåsen" />
		<tag k="natural" v="hill" />
		<tag k="place" v="locality" />
		<tag k="ssr:stedsnr" v="331569" />
	</node>
	<node id="-208805" lat="59.4559638852" lon="10.2631361145">
		<tag k="name" v="Lærumteigen" />
		<tag k="place" v="locality" />
		<tag k="ssr:stedsnr" v="331548" />
	</node>
	<node id="-209827" lat="59.4060611124" lon="10.0816666642">
		<tag k="fixme" v="consider natural=peak for the most distinct mountains in the district" />
		<tag k="name" v="Rokkemyråsen" />
		<tag k="natural" v="hill" />
		<tag k="place" v="locality" />
		<tag k="ssr:stedsnr" v="877165" />
	</node>
	<node id="-208802" lat="59.4317749974" lon="10.15775278">
		<tag k="name" v="Raukleiv" />
		<tag k="natural" v="slope" />
		<tag k="place" v="locality" />
		<tag k="ssr:stedsnr" v="331513" />
	</node>
	<node id="-208798" lat="59.4486611115" lon="10.0908999917">
		<tag k="fixme" v="consider natural=peak for the most distinct mountains in the district" />
		<tag k="name" v="Lilåsen" />
		<tag k="natural" v="hill" />
		<tag k="place" v="locality" />
		<tag k="ssr:stedsnr" v="331098" />
	</node>
	<node id="-209307" lat="59.4583388915" lon="10.2052222163">
		<tag k="name" v="Nepebråten" />
		<tag k="natural" v="hill" />
		<tag k="place" v="locality" />
		<tag k="ssr:stedsnr" v="452555" />
	</node>
	<node id="-208792" lat="59.3441444435" lon="10.3352500025">
		<tag k="fixme" v="consider natural=peak for the most distinct mountains in the district" />
		<tag k="name" v="Hornsåsen" />
		<tag k="natural" v="hill" />
		<tag k="place" v="locality" />
		<tag k="ssr:stedsnr" v="330845" />
	</node>
	<node id="-208964" lat="59.3640916702" lon="10.273088883">
		<tag k="fixme" v="consider natural=peak for the most distinct mountains in the district" />
		<tag k="name" v="Valleåsen" />
		<tag k="natural" v="hill" />
		<tag k="place" v="locality" />
		<tag k="ssr:stedsnr" v="27754" />
	</node>
	<node id="-209302" lat="59.3264472246" lon="10.2448333393">
		<tag k="fixme" v="consider natural=peak for the most distinct mountains in the district" />
		<tag k="name" v="Høgåsen" />
		<tag k="natural" v="hill" />
		<tag k="place" v="locality" />
		<tag k="ssr:stedsnr" v="452453" />
	</node>
	<node id="-208789" lat="59.4605666645" lon="10.3542333251">
		<tag k="fixme" v="consider natural=peak for the most distinct mountains in the district" />
		<tag k="name" v="Vekteren" />
		<tag k="natural" v="hill" />
		<tag k="place" v="locality" />
		<tag k="ssr:stedsnr" v="330830" />
	</node>
	<node id="-209300" lat="59.3444111087" lon="10.210330549">
		<tag k="fixme" v="consider natural=peak for the most distinct mountains in the district" />
		<tag k="name" v="Nordre Brattåsen" />
		<tag k="natural" v="hill" />
		<tag k="place" v="locality" />
		<tag k="ssr:stedsnr" v="452370" />
	</node>
	<node id="-209298" lat="59.3494472249" lon="10.2004388854">
		<tag k="fixme" v="consider natural=peak for the most distinct mountains in the district" />
		<tag k="name" v="Langevannsåsen" />
		<tag k="natural" v="hill" />
		<tag k="place" v="locality" />
		<tag k="ssr:stedsnr" v="452363" />
	</node>
	<node id="-209297" lat="59.3596888917" lon="10.2130888952">
		<tag k="fixme" v="consider natural=peak for the most distinct mountains in the district" />
		<tag k="name" v="Fjelebua" />
		<tag k="natural" v="hill" />
		<tag k="place" v="locality" />
		<tag k="ssr:stedsnr" v="452345" />
	</node>
	<node id="-209295" lat="59.3725333355" lon="10.1794722262">
		<tag k="name" v="Hanedalen" />
		<tag k="natural" v="cliff" />
		<tag k="ssr:stedsnr" v="452330" />
	</node>
	<node id="-208780" lat="59.3509083339" lon="10.3016000066">
		<tag k="fixme" v="consider natural=peak for the most distinct mountains in the district" />
		<tag k="name" v="Skjeggestadåsen" />
		<tag k="natural" v="hill" />
		<tag k="place" v="locality" />
		<tag k="ssr:stedsnr" v="330755" />
	</node>
	<node id="-209801" lat="59.4301055554" lon="10.0846111139">
		<tag k="fixme" v="consider natural=peak for the most distinct mountains in the district" />
		<tag k="name" v="Storås" />
		<tag k="natural" v="hill" />
		<tag k="place" v="locality" />
		<tag k="ssr:stedsnr" v="852160" />
	</node>
	<node id="-208775" lat="59.3756861069" lon="10.2333694471">
		<tag k="fixme" v="consider natural=peak for the most distinct mountains in the district" />
		<tag k="name" v="Bingenåsen" />
		<tag k="natural" v="hill" />
		<tag k="place" v="locality" />
		<tag k="ssr:stedsnr" v="330386" />
	</node>
	<node id="-208774" lat="59.3458416677" lon="10.2016499983">
		<tag k="fixme" v="consider natural=peak for the most distinct mountains in the district" />
		<tag k="name" v="Rullebruene" />
		<tag k="natural" v="hill" />
		<tag k="place" v="locality" />
		<tag k="ssr:stedsnr" v="330380" />
	</node>
	<node id="-208773" lat="59.3578583336" lon="10.196141661">
		<tag k="fixme" v="consider natural=peak for the most distinct mountains in the district" />
		<tag k="name" v="Jareåsen" />
		<tag k="natural" v="hill" />
		<tag k="place" v="locality" />
		<tag k="ssr:stedsnr" v="330349" />
	</node>
	<node id="-208663" lat="59.4237722234" lon="10.0901027719">
		<tag k="fixme" v="consider natural=peak for the most distinct mountains in the district" />
		<tag k="name" v="Brattås" />
		<tag k="natural" v="hill" />
		<tag k="place" v="locality" />
		<tag k="ssr:stedsnr" v="270002" />
	</node>
	<node id="-208771" lat="59.4050583347" lon="10.225894439">
		<tag k="name" v="Skrikestad-hagen" />
		<tag k="place" v="locality" />
		<tag k="ssr:stedsnr" v="330335" />
	</node>
	<node id="-209282" lat="59.3937388914" lon="10.1071222168">
		<tag k="name" v="Sagbråten" />
		<tag k="natural" v="hill" />
		<tag k="place" v="locality" />
		<tag k="ssr:stedsnr" v="452073" />
	</node>
	<node id="-209281" lat="59.3959694436" lon="10.0847111094">
		<tag k="name" v="Hvamsdalen" />
		<tag k="natural" v="valley" />
		<tag k="place" v="locality" />
		<tag k="ssr:stedsnr" v="452068" />
	</node>
	<node id="-208768" lat="59.34283611" lon="10.2238777713">
		<tag k="fixme" v="consider natural=peak for the most distinct mountains in the district" />
		<tag k="name" v="Skytøyåsen" />
		<tag k="natural" v="hill" />
		<tag k="place" v="locality" />
		<tag k="ssr:stedsnr" v="330289" />
	</node>
	<node id="-208767" lat="59.412355554" lon="10.1862500058">
		<tag k="fixme" v="consider natural=peak for the most distinct mountains in the district" />
		<tag k="name" v="Furuåsen" />
		<tag k="natural" v="hill" />
		<tag k="place" v="locality" />
		<tag k="ssr:stedsnr" v="330281" />
	</node>
	<node id="-208766" lat="59.4176000008" lon="10.165900002">
		<tag k="name" v="Myrekreppa" />
		<tag k="natural" v="hill" />
		<tag k="place" v="locality" />
		<tag k="ssr:stedsnr" v="330274" />
	</node>
	<node id="-208765" lat="59.4142916698" lon="10.1593694427">
		<tag k="fixme" v="consider natural=peak for the most distinct mountains in the district" />
		<tag k="name" v="Brakallåsen" />
		<tag k="natural" v="hill" />
		<tag k="place" v="locality" />
		<tag k="ssr:stedsnr" v="330273" />
	</node>
	<node id="-208763" lat="59.4076833321" lon="10.0873194527">
		<tag k="fixme" v="consider natural=peak for the most distinct mountains in the district" />
		<tag k="name" v="Andersmyråsen" />
		<tag k="natural" v="hill" />
		<tag k="place" v="locality" />
		<tag k="ssr:stedsnr" v="330190" />
	</node>
	<node id="-208762" lat="59.4447222207" lon="10.1339833304">
		<tag k="fixme" v="consider natural=peak for the most distinct mountains in the district" />
		<tag k="name" v="Krøkliåsen" />
		<tag k="natural" v="hill" />
		<tag k="place" v="locality" />
		<tag k="ssr:stedsnr" v="330155" />
	</node>
	<node id="-209273" lat="59.4729805577" lon="10.3528750058">
		<tag k="fixme" v="consider natural=peak for the most distinct mountains in the district" />
		<tag k="name" v="Mulåsen" />
		<tag k="natural" v="hill" />
		<tag k="place" v="locality" />
		<tag k="ssr:stedsnr" v="427900" />
	</node>
	<node id="-208760" lat="59.4344055552" lon="10.0944500052">
		<tag k="fixme" v="consider natural=peak for the most distinct mountains in the district" />
		<tag k="name" v="Kringleås" />
		<tag k="natural" v="hill" />
		<tag k="place" v="locality" />
		<tag k="ssr:stedsnr" v="330026" />
	</node>
	<node id="-208788" lat="59.460802779" lon="10.3489361089">
		<tag k="name" v="Pollebakken" />
		<tag k="natural" v="slope" />
		<tag k="place" v="locality" />
		<tag k="ssr:stedsnr" v="330829" />
	</node>
	<node id="-208758" lat="59.4338694432" lon="10.0873083259">
		<tag k="fixme" v="consider natural=peak for the most distinct mountains in the district" />
		<tag k="name" v="Trettestykkeåsen" />
		<tag k="natural" v="hill" />
		<tag k="place" v="locality" />
		<tag k="ssr:stedsnr" v="330019" />
	</node>
	<node id="-208757" lat="59.3286777739" lon="10.2883694419">
		<tag k="fixme" v="consider natural=peak for the most distinct mountains in the district" />
		<tag k="name" v="Holeåsen" />
		<tag k="natural" v="hill" />
		<tag k="place" v="locality" />
		<tag k="ssr:stedsnr" v="88602" />
	</node>
	<node id="-209773" lat="59.4598972201" lon="10.3466611033">
		<tag k="name" v="Bakkeland" />
		<tag k="natural" v="slope" />
		<tag k="place" v="locality" />
		<tag k="ssr:stedsnr" v="816816" />
	</node>
	<node id="-208747" lat="59.3894638915" lon="10.152155555">
		<tag k="fixme" v="consider natural=peak for the most distinct mountains in the district" />
		<tag k="name" v="Nabberen" />
		<tag k="natural" v="hill" />
		<tag k="place" v="locality" />
		<tag k="ssr:stedsnr" v="305243" />
	</node>
	<node id="-208745" lat="59.3919249985" lon="10.1813611069">
		<tag k="fixme" v="consider natural=peak for the most distinct mountains in the district" />
		<tag k="name" v="Geitryggen" />
		<tag k="natural" v="hill" />
		<tag k="place" v="locality" />
		<tag k="ssr:stedsnr" v="305222" />
	</node>
	<node id="-209212" lat="59.3489111133" lon="10.3038555569">
		<tag k="name" v="Stordal" />
		<tag k="natural" v="valley" />
		<tag k="place" v="locality" />
		<tag k="ssr:stedsnr" v="209716" />
	</node>
	<node id="-209126" lat="59.3196499992" lon="10.2523083249">
		<tag k="fixme" v="consider natural=peak for the most distinct mountains in the district" />
		<tag k="name" v="Rånerødkollen" />
		<tag k="natural" v="hill" />
		<tag k="place" v="locality" />
		<tag k="ssr:stedsnr" v="148438" />
	</node>
	<node id="-209761" lat="59.3785361125" lon="10.2348250054">
		<tag k="name" v="Jonasløkka" />
		<tag k="natural" v="slope" />
		<tag k="place" v="locality" />
		<tag k="ssr:stedsnr" v="816369" />
	</node>
	<node id="-209247" lat="59.3875555598" lon="10.1311944468">
		<tag k="fixme" v="consider natural=peak for the most distinct mountains in the district" />
		<tag k="name" v="Skjoldåsen" />
		<tag k="natural" v="hill" />
		<tag k="place" v="locality" />
		<tag k="ssr:stedsnr" v="414783" />
	</node>
	<node id="-209381" lat="59.4049527797" lon="10.1928472218">
		<tag k="fixme" v="consider natural=peak for the most distinct mountains in the district" />
		<tag k="name" v="Fonshøgås" />
		<tag k="natural" v="hill" />
		<tag k="place" v="locality" />
		<tag k="ssr:stedsnr" v="512318" />
	</node>
	<node id="-209756" lat="59.4193666708" lon="10.1653861125">
		<tag k="fixme" v="consider natural=peak for the most distinct mountains in the district" />
		<tag k="name" v="St. Hansåsen" />
		<tag k="natural" v="hill" />
		<tag k="place" v="locality" />
		<tag k="ssr:stedsnr" v="816281" />
	</node>
	<node id="-209753" lat="59.4056805548" lon="10.1524249958">
		<tag k="fixme" v="consider natural=peak for the most distinct mountains in the district" />
		<tag k="name" v="Sikan" />
		<tag k="natural" v="hill" />
		<tag k="place" v="locality" />
		<tag k="ssr:stedsnr" v="816186" />
	</node>
	<node id="-209748" lat="59.3955138912" lon="10.0992305581">
		<tag k="name" v="Osplundbotn" />
		<tag k="natural" v="valley" />
		<tag k="place" v="locality" />
		<tag k="ssr:stedsnr" v="816091" />
	</node>
	<node id="-208722" lat="59.4165305522" lon="10.2962722289">
		<tag k="fixme" v="consider natural=peak for the most distinct mountains in the district" />
		<tag k="name" v="Sørbyåsen" />
		<tag k="natural" v="hill" />
		<tag k="place" v="locality" />
		<tag k="ssr:stedsnr" v="270797" />
	</node>
	<node id="-208724" lat="59.4025416673" lon="10.2828166655">
		<tag k="name" v="Skogsholmen" />
		<tag k="natural" v="slope" />
		<tag k="place" v="locality" />
		<tag k="ssr:stedsnr" v="270814" />
	</node>
	<node id="-208713" lat="59.3289277736" lon="10.3443833378">
		<tag k="name" v="Rønningen" />
		<tag k="natural" v="slope" />
		<tag k="place" v="locality" />
		<tag k="ssr:stedsnr" v="270749" />
	</node>
	<node id="-208711" lat="59.4398499973" lon="10.2075055631">
		<tag k="name" v="Våle" />
		<tag k="place" v="locality" />
		<tag k="ssr:stedsnr" v="270642" />
	</node>
	<node id="-208809" lat="59.4423305512" lon="10.225436104">
		<tag k="name" v="Helgerød" />
		<tag k="place" v="locality" />
		<tag k="ssr:stedsnr" v="331635" />
	</node>
	<node id="-209220" lat="59.4563472209" lon="10.355711107">
		<tag k="fixme" v="consider natural=peak for the most distinct mountains in the district" />
		<tag k="name" v="Brannåsen" />
		<tag k="natural" v="hill" />
		<tag k="place" v="locality" />
		<tag k="ssr:stedsnr" v="209861" />
	</node>
	<node id="-208705" lat="59.4444361094" lon="10.1643805477">
		<tag k="fixme" v="consider natural=peak for the most distinct mountains in the district" />
		<tag k="name" v="Lianhøgås" />
		<tag k="natural" v="hill" />
		<tag k="place" v="locality" />
		<tag k="ssr:stedsnr" v="270560" />
	</node>
	<node id="-209214" lat="59.3664472183" lon="10.2799555616">
		<tag k="fixme" v="consider natural=peak for the most distinct mountains in the district" />
		<tag k="name" v="Lefsrødåsen" />
		<tag k="natural" v="hill" />
		<tag k="place" v="locality" />
		<tag k="ssr:stedsnr" v="209733" />
	</node>
	<node id="-208700" lat="59.3321638886" lon="10.2404750067">
		<tag k="fixme" v="consider natural=peak for the most distinct mountains in the district" />
		<tag k="name" v="Vardås" />
		<tag k="natural" v="hill" />
		<tag k="place" v="locality" />
		<tag k="ssr:stedsnr" v="270437" />
	</node>
	<node id="-208699" lat="59.3165333339" lon="10.2665305473">
		<tag k="name" v="Kleivbakken" />
		<tag k="natural" v="slope" />
		<tag k="place" v="locality" />
		<tag k="ssr:stedsnr" v="270434" />
	</node>
	<node id="-209209" lat="59.3299694421" lon="10.2992694528">
		<tag k="fixme" v="consider natural=peak for the most distinct mountains in the district" />
		<tag k="name" v="Kloppåsen" />
		<tag k="natural" v="hill" />
		<tag k="place" v="locality" />
		<tag k="ssr:stedsnr" v="209670" />
	</node>
	<node id="-209208" lat="59.3180666666" lon="10.2911388874">
		<tag k="fixme" v="consider natural=peak for the most distinct mountains in the district" />
		<tag k="name" v="Ellefsrønningsåsen" />
		<tag k="natural" v="hill" />
		<tag k="place" v="locality" />
		<tag k="ssr:stedsnr" v="209657" />
	</node>
	<node id="-209207" lat="59.318552776" lon="10.275027786">
		<tag k="name" v="Larsrønningen" />
		<tag k="natural" v="slope" />
		<tag k="place" v="locality" />
		<tag k="ssr:stedsnr" v="209655" />
	</node>
	<node id="-209289" lat="59.3910083364" lon="10.1814222138">
		<tag k="fixme" v="consider natural=peak for the most distinct mountains in the district" />
		<tag k="name" v="Østreåsen" />
		<tag k="natural" v="hill" />
		<tag k="place" v="locality" />
		<tag k="ssr:stedsnr" v="452290" />
	</node>
	<node id="-208947" lat="59.4127805588" lon="10.1113805479">
		<tag k="fixme" v="consider natural=peak for the most distinct mountains in the district" />
		<tag k="name" v="Hagaåsen" />
		<tag k="natural" v="hill" />
		<tag k="place" v="locality" />
		<tag k="ssr:stedsnr" v="27164" />
	</node>
	<node id="-208687" lat="59.3413916658" lon="10.2187444498">
		<tag k="name" v="Bjørnehovdhedde" />
		<tag k="natural" v="hill" />
		<tag k="place" v="locality" />
		<tag k="ssr:stedsnr" v="270291" />
	</node>
	<node id="-208685" lat="59.4128444417" lon="10.1817583375">
		<tag k="name" v="Røssedal" />
		<tag k="natural" v="valley" />
		<tag k="place" v="locality" />
		<tag k="ssr:stedsnr" v="270273" />
	</node>
	<node id="-209708" lat="59.4672166672" lon="10.1577388866">
		<tag k="fixme" v="consider natural=peak for the most distinct mountains in the district" />
		<tag k="name" v="Kastet" />
		<tag k="natural" v="hill" />
		<tag k="place" v="locality" />
		<tag k="ssr:stedsnr" v="755696" />
	</node>
	<node id="-208682" lat="59.4013972184" lon="10.1124722292">
		<tag k="name" v="Hesjejota" />
		<tag k="natural" v="valley" />
		<tag k="place" v="locality" />
		<tag k="ssr:stedsnr" v="270204" />
	</node>
	<node id="-209189" lat="59.3751694451" lon="10.2172416699">
		<tag k="fixme" v="consider natural=peak for the most distinct mountains in the district" />
		<tag k="name" v="Skarsåsen" />
		<tag k="natural" v="hill" />
		<tag k="place" v="locality" />
		<tag k="ssr:stedsnr" v="209344" />
	</node>
	<node id="-209699" lat="59.4500555539" lon="10.1963249931">
		<tag k="fixme" v="consider natural=peak for the most distinct mountains in the district" />
		<tag k="name" v="Karihøgda" />
		<tag k="natural" v="hill" />
		<tag k="place" v="locality" />
		<tag k="ssr:stedsnr" v="755564" />
	</node>
	<node id="-208674" lat="59.3260333331" lon="10.3001027692">
		<tag k="name" v="Himbergrønningen" />
		<tag k="natural" v="slope" />
		<tag k="place" v="locality" />
		<tag k="ssr:stedsnr" v="270661" />
	</node>
	<node id="-209185" lat="59.4100027753" lon="10.2647111121">
		<tag k="name" v="Rambergkollen" />
		<tag k="natural" v="hill" />
		<tag k="place" v="locality" />
		<tag k="ssr:stedsnr" v="209325" />
	</node>
	<node id="-209695" lat="59.4593944432" lon="10.2256277734">
		<tag k="fixme" v="consider natural=peak for the most distinct mountains in the district" />
		<tag k="name" v="Karlsrudåsen" />
		<tag k="natural" v="hill" />
		<tag k="place" v="locality" />
		<tag k="ssr:stedsnr" v="755544" />
	</node>
	<node id="-208670" lat="59.3865833345" lon="10.0667388929">
		<tag k="name" v="Kølavedhogstet" />
		<tag k="natural" v="hill" />
		<tag k="place" v="locality" />
		<tag k="ssr:stedsnr" v="270060" />
	</node>
	<node id="-208669" lat="59.3863694424" lon="10.0613249963">
		<tag k="fixme" v="consider natural=peak for the most distinct mountains in the district" />
		<tag k="name" v="Kotås" />
		<tag k="natural" v="hill" />
		<tag k="place" v="locality" />
		<tag k="ssr:stedsnr" v="270061" />
	</node>
	<node id="-208668" lat="59.4209305598" lon="10.0990666723">
		<tag k="fixme" v="consider natural=peak for the most distinct mountains in the district" />
		<tag k="name" v="Høgås" />
		<tag k="natural" v="hill" />
		<tag k="place" v="locality" />
		<tag k="ssr:stedsnr" v="270025" />
	</node>
	<node id="-209691" lat="59.3766472212" lon="10.2326083348">
		<tag k="name" v="Bingenløkka" />
		<tag k="natural" v="valley" />
		<tag k="place" v="locality" />
		<tag k="ssr:stedsnr" v="755377" />
	</node>
	<node id="-209690" lat="59.3488666668" lon="10.2103194483">
		<tag k="name" v="Nyhusåsen" />
		<tag k="natural" v="hill" />
		<tag k="place" v="locality" />
		<tag k="ssr:stedsnr" v="755370" />
	</node>
	<node id="-209177" lat="59.4073722214" lon="10.0589638968">
		<tag k="name" v="Øktedalen" />
		<tag k="natural" v="valley" />
		<tag k="place" v="locality" />
		<tag k="ssr:stedsnr" v="209180" />
	</node>
	<node id="-208664" lat="59.4278777744" lon="10.0926027704">
		<tag k="fixme" v="consider natural=peak for the most distinct mountains in the district" />
		<tag k="name" v="Knutehogst" />
		<tag k="natural" v="hill" />
		<tag k="place" v="locality" />
		<tag k="ssr:stedsnr" v="270011" />
	</node>
	<node id="-209175" lat="59.405516664" lon="10.08835833">
		<tag k="name" v="Skrubbedal" />
		<tag k="natural" v="valley" />
		<tag k="place" v="locality" />
		<tag k="ssr:stedsnr" v="209163" />
	</node>
	<node id="-209174" lat="59.4444833317" lon="10.1409472221">
		<tag k="fixme" v="consider natural=peak for the most distinct mountains in the district" />
		<tag k="name" v="Vestre Kjærsåsen" />
		<tag k="natural" v="hill" />
		<tag k="place" v="locality" />
		<tag k="ssr:stedsnr" v="209124" />
	</node>
	<node id="-209171" lat="59.4443833314" lon="10.1497000058">
		<tag k="fixme" v="consider natural=peak for the most distinct mountains in the district" />
		<tag k="name" v="Østre Kjærsåsen" />
		<tag k="natural" v="hill" />
		<tag k="place" v="locality" />
		<tag k="ssr:stedsnr" v="209023" />
	</node>
	<node id="-209170" lat="59.4263388873" lon="10.0659638916">
		<tag k="name" v="Kastet" />
		<tag k="natural" v="slope" />
		<tag k="place" v="locality" />
		<tag k="ssr:stedsnr" v="209006" />
	</node>
	<node id="-209681" lat="59.4116666666" lon="10.0957694513">
		<tag k="fixme" v="consider natural=peak for the most distinct mountains in the district" />
		<tag k="name" v="Vardås" />
		<tag k="natural" v="hill" />
		<tag k="place" v="locality" />
		<tag k="ssr:stedsnr" v="755162" />
	</node>
	<node id="-209680" lat="59.4173361149" lon="10.0843277696">
		<tag k="fixme" v="consider natural=peak for the most distinct mountains in the district" />
		<tag k="name" v="Lånekollen" />
		<tag k="natural" v="hill" />
		<tag k="place" v="locality" />
		<tag k="ssr:stedsnr" v="755160" />
	</node>
	<node id="-209368" lat="59.4007527748" lon="10.0676166744">
		<tag k="fixme" v="consider natural=peak for the most distinct mountains in the district" />
		<tag k="name" v="Merkedamsåsen" />
		<tag k="natural" v="hill" />
		<tag k="place" v="locality" />
		<tag k="ssr:stedsnr" v="512174" />
	</node>
	<node id="-209676" lat="59.4444027808" lon="10.0786222202">
		<tag k="name" v="Kjellemoa" />
		<tag k="place" v="locality" />
		<tag k="ssr:stedsnr" v="755106" />
	</node>
	<node id="-209675" lat="59.4519944401" lon="10.0746694365">
		<tag k="fixme" v="consider natural=peak for the most distinct mountains in the district" />
		<tag k="name" v="Berganåsen" />
		<tag k="natural" v="hill" />
		<tag k="place" v="locality" />
		<tag k="ssr:stedsnr" v="755104" />
	</node>
	<node id="-209673" lat="59.3939083293" lon="10.0959333352">
		<tag k="name" v="Sletterønningen" />
		<tag k="place" v="locality" />
		<tag k="ssr:stedsnr" v="755086" />
	</node>
	<node id="-209671" lat="59.4311638878" lon="10.1029305581">
		<tag k="name" v="Stueløkka" />
		<tag k="place" v="locality" />
		<tag k="ssr:stedsnr" v="755024" />
	</node>
	<node id="-209670" lat="59.4357222188" lon="10.1052472269">
		<tag k="fixme" v="consider natural=peak for the most distinct mountains in the district" />
		<tag k="name" v="Okollen" />
		<tag k="natural" v="hill" />
		<tag k="place" v="locality" />
		<tag k="ssr:stedsnr" v="755009" />
	</node>
	<node id="-209044" lat="59.452602778" lon="10.1659166587">
		<tag k="name" v="Kakebakken (Island)" />
		<tag k="natural" v="slope" />
		<tag k="place" v="locality" />
		<tag k="ssr:stedsnr" v="88478" />
	</node>
	<node id="-208943" lat="59.3997138915" lon="10.1507333323">
		<tag k="fixme" v="consider natural=peak for the most distinct mountains in the district" />
		<tag k="name" v="Steinkleivåsen" />
		<tag k="natural" v="hill" />
		<tag k="place" v="locality" />
		<tag k="ssr:stedsnr" v="27080" />
	</node>
	<node id="-209147" lat="59.4740305521" lon="10.3530916636">
		<tag k="fixme" v="consider natural=peak for the most distinct mountains in the district" />
		<tag k="name" v="Vardåsen" />
		<tag k="natural" v="hill" />
		<tag k="place" v="locality" />
		<tag k="ssr:stedsnr" v="148932" />
	</node>
	<node id="-209657" lat="59.376572225" lon="10.2207638891">
		<tag k="fixme" v="consider natural=peak for the most distinct mountains in the district" />
		<tag k="name" v="Brattås" />
		<tag k="natural" v="hill" />
		<tag k="place" v="locality" />
		<tag k="ssr:stedsnr" v="730193" />
	</node>
	<node id="-209141" lat="59.4040861121" lon="10.3102555574">
		<tag k="fixme" v="consider natural=peak for the most distinct mountains in the district" />
		<tag k="name" v="Kollsås" />
		<tag k="natural" v="hill" />
		<tag k="place" v="locality" />
		<tag k="ssr:stedsnr" v="148828" />
	</node>
	<node id="-209286" lat="59.3458444404" lon="10.2254444449">
		<tag k="name" v="Sandgravene" />
		<tag k="place" v="locality" />
		<tag k="ssr:stedsnr" v="452266" />
	</node>
	<node id="-209137" lat="59.3583222204" lon="10.3055555477">
		<tag k="fixme" v="consider natural=peak for the most distinct mountains in the district" />
		<tag k="name" v="Stamnås" />
		<tag k="natural" v="hill" />
		<tag k="place" v="locality" />
		<tag k="ssr:stedsnr" v="148726" />
	</node>
	<node id="-209565" lat="59.4641499966" lon="10.3399111173">
		<tag k="name" v="Engaklova" />
		<tag k="natural" v="valley" />
		<tag k="place" v="locality" />
		<tag k="ssr:stedsnr" v="633814" />
	</node>
	<node id="-209277" lat="59.4399666659" lon="10.0758305522">
		<tag k="name" v="Orehølet" />
		<tag k="natural" v="valley" />
		<tag k="place" v="locality" />
		<tag k="ssr:stedsnr" v="452004" />
	</node>
	<node id="-209132" lat="59.4227916683" lon="10.184736113">
		<tag k="fixme" v="consider natural=peak for the most distinct mountains in the district" />
		<tag k="name" v="Rundmyråsen" />
		<tag k="natural" v="hill" />
		<tag k="place" v="locality" />
		<tag k="ssr:stedsnr" v="148654" />
	</node>
	<node id="-209643" lat="59.3464527777" lon="10.348147224">
		<tag k="fixme" v="consider natural=peak for the most distinct mountains in the district" />
		<tag k="name" v="Vestre Holtås" />
		<tag k="natural" v="hill" />
		<tag k="place" v="locality" />
		<tag k="ssr:stedsnr" v="695811" />
	</node>
	<node id="-209959" lat="59.4669694484" lon="10.1859361048">
		<tag k="name" v="Dulpen" />
		<tag k="natural" v="hill" />
		<tag k="place" v="locality" />
		<tag k="ssr:stedsnr" v="938693" />
	</node>
	<node id="-209128" lat="59.436224999" lon="10.164575005">
		<tag k="name" v="Marenstua" />
		<tag k="natural" v="slope" />
		<tag k="place" v="locality" />
		<tag k="ssr:stedsnr" v="148553" />
	</node>
	<node id="-209638" lat="59.3097833371" lon="10.274027777">
		<tag k="fixme" v="consider natural=peak for the most distinct mountains in the district" />
		<tag k="name" v="Bjørnåsen" />
		<tag k="natural" v="hill" />
		<tag k="place" v="locality" />
		<tag k="ssr:stedsnr" v="695754" />
	</node>
	<node id="-209637" lat="59.3228444471" lon="10.3060583342">
		<tag k="fixme" v="consider natural=peak for the most distinct mountains in the district" />
		<tag k="name" v="Kloppåsen" />
		<tag k="natural" v="hill" />
		<tag k="place" v="locality" />
		<tag k="ssr:stedsnr" v="695662" />
	</node>
	<node id="-209123" lat="59.4108722241" lon="10.2121055574">
		<tag k="name" v="Klokkerhølet" />
		<tag k="place" v="locality" />
		<tag k="ssr:stedsnr" v="148334" />
	</node>
	<node id="-209112" lat="59.4100638878" lon="10.1056000045">
		<tag k="fixme" v="consider natural=peak for the most distinct mountains in the district" />
		<tag k="name" v="Ytre Vardås" />
		<tag k="natural" v="hill" />
		<tag k="place" v="locality" />
		<tag k="ssr:stedsnr" v="148194" />
	</node>
	<node id="-209119" lat="59.3981333365" lon="10.1926250015">
		<tag k="fixme" v="consider natural=peak for the most distinct mountains in the district" />
		<tag k="name" v="Høgås" />
		<tag k="natural" v="hill" />
		<tag k="place" v="locality" />
		<tag k="ssr:stedsnr" v="148317" />
	</node>
	<node id="-208959" lat="59.4746999966" lon="10.211422224">
		<tag k="fixme" v="consider natural=peak for the most distinct mountains in the district" />
		<tag k="name" v="Tjennåsen" />
		<tag k="natural" v="hill" />
		<tag k="place" v="locality" />
		<tag k="ssr:stedsnr" v="27709" />
	</node>
	<node id="-209117" lat="59.3462027768" lon="10.2267722189">
		<tag k="fixme" v="consider natural=peak for the most distinct mountains in the district" />
		<tag k="name" v="Glomsås" />
		<tag k="natural" v="hill" />
		<tag k="place" v="locality" />
		<tag k="ssr:stedsnr" v="148299" />
	</node>
	<node id="-209115" lat="59.4211972233" lon="10.1647388957">
		<tag k="name" v="Holtungkreppa" />
		<tag k="natural" v="hill" />
		<tag k="place" v="locality" />
		<tag k="ssr:stedsnr" v="148295" />
	</node>
	<node id="-209625" lat="59.3681500017" lon="10.2409027852">
		<tag k="fixme" v="consider natural=peak for the most distinct mountains in the district" />
		<tag k="name" v="Sjøssfjell" />
		<tag k="natural" v="hill" />
		<tag k="place" v="locality" />
		<tag k="ssr:stedsnr" v="695391" />
	</node>
	<node id="-209624" lat="59.3545805514" lon="10.1775611071">
		<tag k="name" v="Kongeroa" />
		<tag k="place" v="locality" />
		<tag k="ssr:stedsnr" v="695375" />
	</node>
	<node id="-209623" lat="59.3631944483" lon="10.2185222286">
		<tag k="name" v="Djupedal" />
		<tag k="natural" v="valley" />
		<tag k="place" v="locality" />
		<tag k="ssr:stedsnr" v="695351" />
	</node>
	<node id="-209017" lat="59.4055972186" lon="10.0941138933">
		<tag k="name" v="Gampedalen" />
		<tag k="natural" v="valley" />
		<tag k="place" v="locality" />
		<tag k="ssr:stedsnr" v="88148" />
	</node>
	<node id="-209620" lat="59.4161749972" lon="10.2621833288">
		<tag k="name" v="Skinnene" />
		<tag k="natural" v="slope" />
		<tag k="place" v="locality" />
		<tag k="ssr:stedsnr" v="695328" />
	</node>
	<node id="-209106" lat="59.4447805516" lon="10.0838833314">
		<tag k="fixme" v="consider natural=peak for the most distinct mountains in the district" />
		<tag k="name" v="Furuåsen" />
		<tag k="natural" v="hill" />
		<tag k="place" v="locality" />
		<tag k="ssr:stedsnr" v="148094" />
	</node>
	<node id="-209187" lat="59.3136222265" lon="10.2335833369">
		<tag k="fixme" v="consider natural=peak for the most distinct mountains in the district" />
		<tag k="name" v="Grorudåsen" />
		<tag k="natural" v="hill" />
		<tag k="place" v="locality" />
		<tag k="ssr:stedsnr" v="209338" />
	</node>
	<node id="-209104" lat="59.4463694403" lon="10.0723527834">
		<tag k="fixme" v="consider natural=peak for the most distinct mountains in the district" />
		<tag k="name" v="Steråsen" />
		<tag k="natural" v="hill" />
		<tag k="place" v="locality" />
		<tag k="ssr:stedsnr" v="148091" />
	</node>
	<node id="-209614" lat="59.3393277758" lon="10.2315138808">
		<tag k="name" v="Hestesletta" />
		<tag k="place" v="locality" />
		<tag k="ssr:stedsnr" v="695303" />
	</node>
	<node id="-209101" lat="59.3675361121" lon="10.2420305564">
		<tag k="fixme" v="consider natural=peak for the most distinct mountains in the district" />
		<tag k="name" v="Sjøssfjell" />
		<tag k="natural" v="hill" />
		<tag k="place" v="locality" />
		<tag k="ssr:stedsnr" v="147369" />
	</node>
	<node id="-209610" lat="59.4450333348" lon="10.0761444454">
		<tag k="name" v="Svarvarlia" />
		<tag k="natural" v="slope" />
		<tag k="place" v="locality" />
		<tag k="ssr:stedsnr" v="695097" />
	</node>
	<node id="-209608" lat="59.3921638856" lon="10.1339888924">
		<tag k="fixme" v="consider natural=peak for the most distinct mountains in the district" />
		<tag k="name" v="Busteåsen" />
		<tag k="natural" v="hill" />
		<tag k="place" v="locality" />
		<tag k="ssr:stedsnr" v="695084" />
	</node>
	<node id="-209105" lat="59.450969445" lon="10.0776722213">
		<tag k="name" v="Berganlia" />
		<tag k="natural" v="slope" />
		<tag k="place" v="locality" />
		<tag k="ssr:stedsnr" v="148093" />
	</node>
	<node id="-208673" lat="59.3896444421" lon="10.1298027713">
		<tag k="fixme" v="consider natural=peak for the most distinct mountains in the district" />
		<tag k="name" v="Ektvedtåsen" />
		<tag k="natural" v="hill" />
		<tag k="place" v="locality" />
		<tag k="ssr:stedsnr" v="270088" />
	</node>
	<node id="-209604" lat="59.3909944419" lon="10.0657166734">
		<tag k="fixme" v="consider natural=peak for the most distinct mountains in the district" />
		<tag k="name" v="Damås" />
		<tag k="natural" v="hill" />
		<tag k="place" v="locality" />
		<tag k="ssr:stedsnr" v="695057" />
	</node>
	<node id="-209602" lat="59.4445583375" lon="10.1301250043">
		<tag k="name" v="Kølabonn" />
		<tag k="natural" v="valley" />
		<tag k="place" v="locality" />
		<tag k="ssr:stedsnr" v="695121" />
	</node>
	<node id="-209601" lat="59.44649722" lon="10.1242166639">
		<tag k="name" v="Krøklidalen" />
		<tag k="natural" v="valley" />
		<tag k="place" v="locality" />
		<tag k="ssr:stedsnr" v="695122" />
	</node>
	<node id="-209600" lat="59.4437694442" lon="10.1519333348">
		<tag k="name" v="Spellemannsløkka" />
		<tag k="place" v="locality" />
		<tag k="ssr:stedsnr" v="695120" />
	</node>
	<node id="-209183" lat="59.4216194404" lon="10.2079472136">
		<tag k="name" v="Mandalstua" />
		<tag k="natural" v="slope" />
		<tag k="place" v="locality" />
		<tag k="ssr:stedsnr" v="209320" />
	</node>
	<node id="-209588" lat="59.4167249979" lon="10.1686249984">
		<tag k="fixme" v="consider natural=peak for the most distinct mountains in the district" />
		<tag k="name" v="Avhogget" />
		<tag k="natural" v="hill" />
		<tag k="place" v="locality" />
		<tag k="ssr:stedsnr" v="670133" />
	</node>
	<node id="-209694" lat="59.4399416652" lon="10.1633416705">
		<tag k="name" v="Svenskestua" />
		<tag k="natural" v="slope" />
		<tag k="place" v="locality" />
		<tag k="ssr:stedsnr" v="755535" />
	</node>
	<node id="-209181" lat="59.3859777736" lon="10.17640277">
		<tag k="name" v="Kastet" />
		<tag k="natural" v="hill" />
		<tag k="place" v="locality" />
		<tag k="ssr:stedsnr" v="209310" />
	</node>
	<node id="-209068" lat="59.3480888912" lon="10.3403166642">
		<tag k="fixme" v="consider natural=peak for the most distinct mountains in the district" />
		<tag k="name" v="Sameieåsen" />
		<tag k="natural" v="hill" />
		<tag k="place" v="locality" />
		<tag k="ssr:stedsnr" v="88784" />
	</node>
	<node id="-209067" lat="59.3441305563" lon="10.3411416632">
		<tag k="fixme" v="consider natural=peak for the most distinct mountains in the district" />
		<tag k="name" v="Løkkeåsen" />
		<tag k="natural" v="hill" />
		<tag k="place" v="locality" />
		<tag k="ssr:stedsnr" v="88775" />
	</node>
	<node id="-209607" lat="59.3974444464" lon="10.1177361112">
		<tag k="name" v="Moen" />
		<tag k="place" v="locality" />
		<tag k="ssr:stedsnr" v="695078" />
	</node>
	<node id="-209692" lat="59.3771138875" lon="10.2377972172">
		<tag k="name" v="Farbakk" />
		<tag k="natural" v="slope" />
		<tag k="place" v="locality" />
		<tag k="ssr:stedsnr" v="755381" />
	</node>
	<node id="-209061" lat="59.3831166682" lon="10.2904583297">
		<tag k="name" v="Haug-Berg" />
		<tag k="natural" v="hill" />
		<tag k="place" v="locality" />
		<tag k="ssr:stedsnr" v="88744" />
	</node>
	<node id="-208940" lat="59.4342055536" lon="10.1466222308">
		<tag k="name" v="Håkonsvingen" />
		<tag k="place" v="locality" />
		<tag k="ssr:stedsnr" v="27021" />
	</node>
	<node id="-209179" lat="59.4053944416" lon="10.1578361193">
		<tag k="fixme" v="consider natural=peak for the most distinct mountains in the district" />
		<tag k="name" v="Kjyrrudalsåsen" />
		<tag k="natural" v="hill" />
		<tag k="place" v="locality" />
		<tag k="ssr:stedsnr" v="209275" />
	</node>
	<node id="-209054" lat="59.3450250033" lon="10.3071527746">
		<tag k="fixme" v="consider natural=peak for the most distinct mountains in the district" />
		<tag k="name" v="Dresleåsen" />
		<tag k="natural" v="hill" />
		<tag k="place" v="locality" />
		<tag k="ssr:stedsnr" v="88665" />
	</node>
	<node id="-209605" lat="59.3940055541" lon="10.0746638948">
		<tag k="fixme" v="consider natural=peak for the most distinct mountains in the district" />
		<tag k="name" v="Oksefjell" />
		<tag k="natural" v="hill" />
		<tag k="place" v="locality" />
		<tag k="ssr:stedsnr" v="695066" />
	</node>
	<node id="-209561" lat="59.4694444438" lon="10.1811583408">
		<tag k="fixme" v="consider natural=peak for the most distinct mountains in the district" />
		<tag k="name" v="Endeåsen" />
		<tag k="natural" v="hill" />
		<tag k="place" v="locality" />
		<tag k="ssr:stedsnr" v="633720" />
	</node>
	<node id="-209558" lat="59.433327778" lon="10.2348388821">
		<tag k="name" v="Brannsrud" />
		<tag k="natural" v="slope" />
		<tag k="place" v="locality" />
		<tag k="ssr:stedsnr" v="633648" />
	</node>
	<node id="-209045" lat="59.4459944481" lon="10.1579305609">
		<tag k="name" v="Trettelia" />
		<tag k="natural" v="slope" />
		<tag k="place" v="locality" />
		<tag k="ssr:stedsnr" v="88481" />
	</node>
	<node id="-209556" lat="59.3930861125" lon="10.2289388841">
		<tag k="name" v="Brånalia" />
		<tag k="natural" v="slope" />
		<tag k="place" v="locality" />
		<tag k="ssr:stedsnr" v="633577" />
	</node>
	<node id="-209554" lat="59.450494448" lon="10.1625027843">
		<tag k="name" v="Tubbil-løkka" />
		<tag k="place" v="locality" />
		<tag k="ssr:stedsnr" v="633563" />
	</node>
	<node id="-209176" lat="59.4060361103" lon="10.0695333262">
		<tag k="fixme" v="consider natural=peak for the most distinct mountains in the district" />
		<tag k="name" v="Høymyråsen" />
		<tag k="natural" v="hill" />
		<tag k="place" v="locality" />
		<tag k="ssr:stedsnr" v="209167" />
	</node>
	<node id="-209037" lat="59.3157055567" lon="10.2670166707">
		<tag k="fixme" v="consider natural=peak for the most distinct mountains in the district" />
		<tag k="name" v="Lunnskollen" />
		<tag k="natural" v="hill" />
		<tag k="place" v="locality" />
		<tag k="ssr:stedsnr" v="88370" />
	</node>
	<node id="-209035" lat="59.3369305547" lon="10.2088833299">
		<tag k="name" v="Ulehølet" />
		<tag k="natural" v="valley" />
		<tag k="place" v="locality" />
		<tag k="ssr:stedsnr" v="88312" />
	</node>
	<node id="-209033" lat="59.3541638902" lon="10.1889972168">
		<tag k="fixme" v="consider natural=peak for the most distinct mountains in the district" />
		<tag k="name" v="Bjønnåsen" />
		<tag k="natural" v="hill" />
		<tag k="place" v="locality" />
		<tag k="ssr:stedsnr" v="88309" />
	</node>
	<node id="-209543" lat="59.4148666656" lon="10.211713883">
		<tag k="fixme" v="consider natural=peak for the most distinct mountains in the district" />
		<tag k="name" v="Kjeldås" />
		<tag k="natural" v="hill" />
		<tag k="place" v="locality" />
		<tag k="ssr:stedsnr" v="633329" />
	</node>
	<node id="-209541" lat="59.3805916624" lon="10.1863861079">
		<tag k="name" v="Busterønningen" />
		<tag k="natural" v="hill" />
		<tag k="place" v="locality" />
		<tag k="ssr:stedsnr" v="633317" />
	</node>
	<node id="-209539" lat="59.337916668" lon="10.2171000032">
		<tag k="fixme" v="consider natural=peak for the most distinct mountains in the district" />
		<tag k="name" v="Sølvskjemyråsen" />
		<tag k="natural" v="hill" />
		<tag k="place" v="locality" />
		<tag k="ssr:stedsnr" v="633303" />
	</node>
	<node id="-209538" lat="59.4206194417" lon="10.1942805592">
		<tag k="name" v="Støytan" />
		<tag k="natural" v="slope" />
		<tag k="place" v="locality" />
		<tag k="ssr:stedsnr" v="633294" />
	</node>
	<node id="-209537" lat="59.4128499984" lon="10.1077444415">
		<tag k="name" v="Plassjordet" />
		<tag k="place" v="locality" />
		<tag k="ssr:stedsnr" v="633232" />
	</node>
	<node id="-209533" lat="59.4052250003" lon="10.0851222162">
		<tag k="fixme" v="consider natural=peak for the most distinct mountains in the district" />
		<tag k="name" v="Seteråsen" />
		<tag k="natural" v="hill" />
		<tag k="place" v="locality" />
		<tag k="ssr:stedsnr" v="633188" />
	</node>
	<node id="-209532" lat="59.4357083355" lon="10.0624500049">
		<tag k="fixme" v="consider natural=peak for the most distinct mountains in the district" />
		<tag k="name" v="Loftåsene" />
		<tag k="natural" v="hill" />
		<tag k="place" v="locality" />
		<tag k="ssr:stedsnr" v="633149" />
	</node>
	<node id="-209529" lat="59.3846694422" lon="10.0750194389">
		<tag k="name" v="Hyttedalen" />
		<tag k="natural" v="valley" />
		<tag k="place" v="locality" />
		<tag k="ssr:stedsnr" v="633091" />
	</node>
	<node id="-209528" lat="59.3964277793" lon="10.0864250061">
		<tag k="fixme" v="consider natural=peak for the most distinct mountains in the district" />
		<tag k="name" v="Kaståsen" />
		<tag k="natural" v="hill" />
		<tag k="place" v="locality" />
		<tag k="ssr:stedsnr" v="633086" />
	</node>
	<node id="-209526" lat="59.3877305514" lon="10.049747224">
		<tag k="fixme" v="consider natural=peak for the most distinct mountains in the district" />
		<tag k="name" v="Lauvåsen" />
		<tag k="natural" v="hill" />
		<tag k="place" v="locality" />
		<tag k="ssr:stedsnr" v="633079" />
	</node>
	<node id="-209013" lat="59.3933666658" lon="10.111941658">
		<tag k="name" v="Spellemannsløkka" />
		<tag k="place" v="locality" />
		<tag k="ssr:stedsnr" v="88059" />
	</node>
	<node id="-209008" lat="59.4186444487" lon="10.1256611095">
		<tag k="fixme" v="consider natural=peak for the most distinct mountains in the district" />
		<tag k="name" v="Kirkeåsen" />
		<tag k="natural" v="hill" />
		<tag k="place" v="locality" />
		<tag k="ssr:stedsnr" v="87351" />
	</node>
	<node id="-209682" lat="59.413350002" lon="10.0693388835">
		<tag k="fixme" v="consider natural=peak for the most distinct mountains in the district" />
		<tag k="name" v="Seteråsen" />
		<tag k="natural" v="hill" />
		<tag k="place" v="locality" />
		<tag k="ssr:stedsnr" v="755168" />
	</node>
	<node id="-209871" lat="59.4332722179" lon="10.3147777836">
		<tag k="name" v="Rostadbakken" />
		<tag k="natural" v="slope" />
		<tag k="place" v="locality" />
		<tag k="ssr:stedsnr" v="877897" />
	</node>
	<node id="-208989" lat="59.4458888857" lon="10.1161916672">
		<tag k="fixme" v="consider natural=peak for the most distinct mountains in the district" />
		<tag k="name" v="Lønskollen" />
		<tag k="natural" v="hill" />
		<tag k="place" v="locality" />
		<tag k="ssr:stedsnr" v="63086" />
	</node>
	<node id="-208986" lat="59.4738805543" lon="10.3465444413">
		<tag k="name" v="Garnbakken" />
		<tag k="natural" v="slope" />
		<tag k="place" v="locality" />
		<tag k="ssr:stedsnr" v="27924" />
	</node>
	<node id="-209679" lat="59.3745083333" lon="10.1540805498">
		<tag k="fixme" v="consider natural=peak for the most distinct mountains in the district" />
		<tag k="name" v="Kørpefjellet" />
		<tag k="natural" v="hill" />
		<tag k="place" v="locality" />
		<tag k="ssr:stedsnr" v="755126" />
	</node>
	<node id="-208983" lat="59.3450999992" lon="10.3515916722">
		<tag k="fixme" v="consider natural=peak for the most distinct mountains in the district" />
		<tag k="name" v="Østre Holtås" />
		<tag k="natural" v="hill" />
		<tag k="place" v="locality" />
		<tag k="ssr:stedsnr" v="27830" />
	</node>
	<node id="-208980" lat="59.4286999988" lon="10.2897611156">
		<tag k="fixme" v="consider natural=peak for the most distinct mountains in the district" />
		<tag k="name" v="Rånerudåsen" />
		<tag k="natural" v="hill" />
		<tag k="place" v="locality" />
		<tag k="ssr:stedsnr" v="27880" />
	</node>
	<node id="-209693" lat="59.3185055572" lon="10.2658222225">
		<tag k="fixme" v="consider natural=peak for the most distinct mountains in the district" />
		<tag k="name" v="Laukåsen" />
		<tag k="natural" v="hill" />
		<tag k="place" v="locality" />
		<tag k="ssr:stedsnr" v="755441" />
	</node>
	<node id="-208974" lat="59.316741663" lon="10.2847027737">
		<tag k="name" v="Ellefsrønningen" />
		<tag k="natural" v="slope" />
		<tag k="place" v="locality" />
		<tag k="ssr:stedsnr" v="27664" />
	</node>
	<node id="-209421" lat="59.5006611134" lon="10.3711000008">
		<tag k="name" v="Engelskmannskollen" />
		<tag k="natural" v="hill" />
		<tag k="place" v="locality" />
		<tag k="ssr:stedsnr" v="513874" />
	</node>
	<node id="-209484" lat="59.3602027759" lon="10.2815916744">
		<tag k="fixme" v="consider natural=peak for the most distinct mountains in the district" />
		<tag k="name" v="Bøåsen" />
		<tag k="natural" v="hill" />
		<tag k="place" v="locality" />
		<tag k="ssr:stedsnr" v="573711" />
	</node>
	<node id="-208970" lat="59.4561916706" lon="10.158941665">
		<tag k="fixme" v="consider natural=peak for the most distinct mountains in the district" />
		<tag k="name" v="Hagaåsen" />
		<tag k="natural" v="hill" />
		<tag k="place" v="locality" />
		<tag k="ssr:stedsnr" v="27565" />
	</node>
	<node id="-208969" lat="59.3980805528" lon="10.313736103">
		<tag k="name" v="Verpdalen" />
		<tag k="natural" v="valley" />
		<tag k="place" v="locality" />
		<tag k="ssr:stedsnr" v="27779" />
	</node>
	<node id="-208967" lat="59.3081638912" lon="10.276791659">
		<tag k="name" v="Gulpen" />
		<tag k="natural" v="slope" />
		<tag k="place" v="locality" />
		<tag k="ssr:stedsnr" v="27767" />
	</node>
	<node id="-209687" lat="59.3966805519" lon="10.1595583292">
		<tag k="fixme" v="consider natural=peak for the most distinct mountains in the district" />
		<tag k="name" v="Kjøkkenåsen" />
		<tag k="natural" v="hill" />
		<tag k="place" v="locality" />
		<tag k="ssr:stedsnr" v="755303" />
	</node>
	<node id="-209476" lat="59.4672583289" lon="10.2168250017">
		<tag k="fixme" v="consider natural=peak for the most distinct mountains in the district" />
		<tag k="name" v="Ulåsen" />
		<tag k="natural" v="hill" />
		<tag k="place" v="locality" />
		<tag k="ssr:stedsnr" v="573671" />
	</node>
	<node id="-209039" lat="59.3314888919" lon="10.2205416753">
		<tag k="fixme" v="consider natural=peak for the most distinct mountains in the district" />
		<tag k="name" v="Gordalåsen" />
		<tag k="natural" v="hill" />
		<tag k="place" v="locality" />
		<tag k="ssr:stedsnr" v="88377" />
	</node>
	<node id="-209472" lat="59.3854722258" lon="10.2354249984">
		<tag k="fixme" v="consider natural=peak for the most distinct mountains in the district" />
		<tag k="name" v="Kileåsen" />
		<tag k="natural" v="hill" />
		<tag k="place" v="locality" />
		<tag k="ssr:stedsnr" v="573536" />
	</node>
	<node id="-209471" lat="59.4591694472" lon="10.2043888932">
		<tag k="name" v="Bøllene" />
		<tag k="natural" v="hill" />
		<tag k="place" v="locality" />
		<tag k="ssr:stedsnr" v="573511" />
	</node>
	<node id="-208958" lat="59.4701472201" lon="10.2171944477">
		<tag k="fixme" v="consider natural=peak for the most distinct mountains in the district" />
		<tag k="name" v="Elgåsen" />
		<tag k="natural" v="hill" />
		<tag k="place" v="locality" />
		<tag k="ssr:stedsnr" v="27708" />
	</node>
	<node id="-209469" lat="59.3319777748" lon="10.2277444442">
		<tag k="fixme" v="consider natural=peak for the most distinct mountains in the district" />
		<tag k="name" v="Rolighetåsen" />
		<tag k="natural" v="hill" />
		<tag k="place" v="locality" />
		<tag k="ssr:stedsnr" v="573424" />
	</node>
	<node id="-209463" lat="59.3926527794" lon="10.1971555615">
		<tag k="fixme" v="consider natural=peak for the most distinct mountains in the district" />
		<tag k="name" v="Tjuveberget" />
		<tag k="natural" v="hill" />
		<tag k="place" v="locality" />
		<tag k="ssr:stedsnr" v="573288" />
	</node>
	<node id="-209461" lat="59.337874996" lon="10.21311666">
		<tag k="fixme" v="consider natural=peak for the most distinct mountains in the district" />
		<tag k="name" v="Søndre Brattås" />
		<tag k="natural" v="hill" />
		<tag k="place" v="locality" />
		<tag k="ssr:stedsnr" v="573285" />
	</node>
	<node id="-209459" lat="59.3447305601" lon="10.2136027762">
		<tag k="name" v="Steintorvet" />
		<tag k="natural" v="valley" />
		<tag k="place" v="locality" />
		<tag k="ssr:stedsnr" v="573271" />
	</node>
	<node id="-209908" lat="59.428008336" lon="10.0663666731">
		<tag k="fixme" v="consider natural=peak for the most distinct mountains in the district" />
		<tag k="name" v="Kirjulen" />
		<tag k="natural" v="hill" />
		<tag k="place" v="locality" />
		<tag k="ssr:stedsnr" v="937161" />
	</node>
	<node id="-209843" lat="59.3284944476" lon="10.2484388862">
		<tag k="fixme" v="consider natural=peak for the most distinct mountains in the district" />
		<tag k="name" v="Brånan" />
		<tag k="natural" v="hill" />
		<tag k="place" v="locality" />
		<tag k="ssr:stedsnr" v="877439" />
	</node>
	<node id="-209456" lat="59.4091916635" lon="10.100986113">
		<tag k="fixme" v="consider natural=peak for the most distinct mountains in the district" />
		<tag k="name" v="Lyåsen" />
		<tag k="natural" v="hill" />
		<tag k="place" v="locality" />
		<tag k="ssr:stedsnr" v="573188" />
	</node>
	<node id="-209455" lat="59.4187472191" lon="10.1001527812">
		<tag k="name" v="Åtebakkene" />
		<tag k="natural" v="slope" />
		<tag k="place" v="locality" />
		<tag k="ssr:stedsnr" v="573185" />
	</node>
	<node id="-209278" lat="59.4359472226" lon="10.0701277781">
		<tag k="name" v="Tronka" />
		<tag k="natural" v="slope" />
		<tag k="place" v="locality" />
		<tag k="ssr:stedsnr" v="452007" />
	</node>
	<node id="-208939" lat="59.4323111136" lon="10.1493999957">
		<tag k="name" v="Furugrind" />
		<tag k="place" v="locality" />
		<tag k="ssr:stedsnr" v="27020" />
	</node>
	<node id="-209450" lat="59.4222305551" lon="10.1106500077">
		<tag k="name" v="Bjørndalen" />
		<tag k="natural" v="valley" />
		<tag k="place" v="locality" />
		<tag k="ssr:stedsnr" v="573013" />
	</node>
	<node id="-209449" lat="59.4268916683" lon="10.1158083403">
		<tag k="fixme" v="consider natural=peak for the most distinct mountains in the district" />
		<tag k="name" v="Lønnsåsen" />
		<tag k="natural" v="hill" />
		<tag k="place" v="locality" />
		<tag k="ssr:stedsnr" v="573012" />
	</node>
	<node id="-208936" lat="59.4242694418" lon="10.0688972173">
		<tag k="fixme" v="consider natural=peak for the most distinct mountains in the district" />
		<tag k="name" v="Seterås" />
		<tag k="natural" v="hill" />
		<tag k="place" v="locality" />
		<tag k="ssr:stedsnr" v="27007" />
	</node>
	<node id="-208935" lat="59.422786112" lon="10.0847361044">
		<tag k="name" v="Stutaue" />
		<tag k="place" v="locality" />
		<tag k="ssr:stedsnr" v="27003" />
	</node>
	<node id="-209957" lat="59.3151749979" lon="10.2702472276">
		<tag k="fixme" v="consider natural=peak for the most distinct mountains in the district" />
		<tag k="name" v="Langgrindåsen" />
		<tag k="natural" v="hill" />
		<tag k="place" v="locality" />
		<tag k="ssr:stedsnr" v="938634" />
	</node>
	<node id="-208932" lat="59.4451583324" lon="10.1027361136">
		<tag k="name" v="Lønsløken" />
		<tag k="place" v="locality" />
		<tag k="ssr:stedsnr" v="27111" />
	</node>
	<node id="-209954" lat="59.4242527734" lon="10.1643666668">
		<tag k="fixme" v="consider natural=peak for the most distinct mountains in the district" />
		<tag k="name" v="Avhøgget" />
		<tag k="natural" v="hill" />
		<tag k="place" v="locality" />
		<tag k="ssr:stedsnr" v="938621" />
	</node>
	<node id="-208928" lat="59.3284166669" lon="10.2397583393">
		<tag k="fixme" v="consider natural=peak for the most distinct mountains in the district" />
		<tag k="name" v="Gullås" />
		<tag k="natural" v="hill" />
		<tag k="place" v="locality" />
		<tag k="ssr:stedsnr" v="2793" />
	</node>
	<node id="-209950" lat="59.4638611118" lon="10.1599083378">
		<tag k="name" v="Budalen" />
		<tag k="natural" v="valley" />
		<tag k="place" v="locality" />
		<tag k="ssr:stedsnr" v="938550" />
	</node>
	<node id="-209515" lat="59.4033527758" lon="10.1058250044">
		<tag k="fixme" v="consider natural=peak for the most distinct mountains in the district" />
		<tag k="name" v="Vardås" />
		<tag k="natural" v="hill" />
		<tag k="place" v="locality" />
		<tag k="ssr:stedsnr" v="609141" />
	</node>
	<node id="-208900" lat="59.4693611091" lon="10.3496138809">
		<tag k="fixme" v="consider natural=peak for the most distinct mountains in the district" />
		<tag k="name" v="Pollåsen" />
		<tag k="natural" v="hill" />
		<tag k="place" v="locality" />
		<tag k="ssr:stedsnr" v="391943" />
	</node>
	<node id="-209225" lat="59.4706388927" lon="10.3573277753">
		<tag k="name" v="Røysa" />
		<tag k="natural" v="slope" />
		<tag k="place" v="locality" />
		<tag k="ssr:stedsnr" v="209906" />
	</node>
	<node id="-209837" lat="59.3714916624" lon="10.1903333248">
		<tag k="fixme" v="consider natural=peak for the most distinct mountains in the district" />
		<tag k="name" v="Brannåsen" />
		<tag k="natural" v="hill" />
		<tag k="place" v="locality" />
		<tag k="ssr:stedsnr" v="877355" />
	</node>
	<node id="-209931" lat="59.3448055553" lon="10.3119222247">
		<tag k="fixme" v="consider natural=peak for the most distinct mountains in the district" />
		<tag k="name" v="Kløvsåsen" />
		<tag k="natural" v="hill" />
		<tag k="place" v="locality" />
		<tag k="ssr:stedsnr" v="937738" />
	</node>
	<node id="-209930" lat="59.3402611072" lon="10.300363881">
		<tag k="name" v="Vaskersberget" />
		<tag k="natural" v="hill" />
		<tag k="place" v="locality" />
		<tag k="ssr:stedsnr" v="937733" />
	</node>
	<node id="-209928" lat="59.3903027791" lon="10.2283305509">
		<tag k="name" v="Rønningen" />
		<tag k="natural" v="slope" />
		<tag k="place" v="locality" />
		<tag k="ssr:stedsnr" v="937591" />
	</node>
	<node id="-209926" lat="59.4484916706" lon="10.1988194519">
		<tag k="name" v="Karlsberg" />
		<tag k="place" v="locality" />
		<tag k="ssr:stedsnr" v="937581" />
	</node>
	<node id="-209925" lat="59.4444194447" lon="10.2005944488">
		<tag k="name" v="Holmenstua" />
		<tag k="natural" v="slope" />
		<tag k="place" v="locality" />
		<tag k="ssr:stedsnr" v="937562" />
	</node>
	<node id="-209412" lat="59.4273833325" lon="10.2914888969">
		<tag k="fixme" v="consider natural=peak for the most distinct mountains in the district" />
		<tag k="name" v="Søbyåsen" />
		<tag k="natural" v="hill" />
		<tag k="place" v="locality" />
		<tag k="ssr:stedsnr" v="512889" />
	</node>
	<node id="-209921" lat="59.3372972255" lon="10.2107861028">
		<tag k="name" v="Vardeplassen" />
		<tag k="natural" v="hill" />
		<tag k="place" v="locality" />
		<tag k="ssr:stedsnr" v="937388" />
	</node>
</osm>
