<?xml version="1.0" encoding="UTF-8"?>
<osm generator="osmapis" version="0.6">
	<node id="-208896" lat="59.4547333293" lon="10.366222228">
		<tag k="name" v="Sandsfloa" />
		<tag k="place" v="sea" />
		<tag k="ssr:stedsnr" v="391892" />
	</node>
	<node id="-209146" lat="59.466591663" lon="10.3571166588">
		<tag k="alt_name" v="Ruseberggrunnen" />
		<tag k="name" v="Ruseberggrunna" />
		<tag k="natural" v="shoal" />
		<tag k="place" v="locality" />
		<tag k="ssr:stedsnr" v="148927" />
	</node>
	<node id="-209145" lat="59.4983444422" lon="10.375944452">
		<tag k="name" v="Rusebukt" />
		<tag k="natural" v="bay" />
		<tag k="ssr:stedsnr" v="148852" />
	</node>
	<node id="-209780" lat="59.4581555571" lon="10.3792888802">
		<tag k="name" v="Hellandskrakken" />
		<tag k="natural" v="shoal" />
		<tag k="place" v="locality" />
		<tag k="ssr:stedsnr" v="817814" />
	</node>
	<node id="-208755" lat="59.4962499982" lon="10.3485250086">
		<tag k="name" v="Langøygrunnen" />
		<tag k="natural" v="shoal" />
		<tag k="place" v="locality" />
		<tag k="ssr:stedsnr" v="306923" />
	</node>
	<node id="-209007" lat="59.4878249965" lon="10.3572805631">
		<tag k="alt_name" v="Holmestrandsfjorden" />
		<tag k="bay" v="fjord" />
		<tag k="name" v="Holmestrandfjorden" />
		<tag k="natural" v="bay" />
		<tag k="ssr:stedsnr" v="63914" />
	</node>
	<node id="-209503" lat="59.4772416641" lon="10.4019749923">
		<tag k="alt_name" v="Skatengrunnen" />
		<tag k="name" v="Skaten" />
		<tag k="natural" v="shoal" />
		<tag k="place" v="locality" />
		<tag k="ssr:stedsnr" v="574829" />
	</node>
	<node id="-208734" lat="59.4957861112" lon="10.3831305627">
		<tag k="name" v="Hortensbukt" />
		<tag k="natural" v="bay" />
		<tag k="ssr:stedsnr" v="271394" />
	</node>
	<node id="-208733" lat="59.4830944442" lon="10.4039888811">
		<tag k="alt_name" v="Tuene" />
		<tag k="fixme" v="consider seamark:type=rock or natural=shoal" />
		<tag k="name" v="Langøytua" />
		<tag k="place" v="islet" />
		<tag k="ssr:stedsnr" v="271116" />
	</node>
	<node id="-208732" lat="59.4732305526" lon="10.3388500024">
		<tag k="name" v="Mulvika" />
		<tag k="natural" v="bay" />
		<tag k="ssr:stedsnr" v="270914" />
	</node>
	<node id="-209494" lat="59.4993499975" lon="10.3736694469">
		<tag k="name" v="Dambukt" />
		<tag k="natural" v="bay" />
		<tag k="ssr:stedsnr" v="573834" />
	</node>
	<node id="-208725" lat="59.5001138898" lon="10.37401945">
		<tag k="name" v="Fiskeplass" />
		<tag k="place" v="locality" />
		<tag k="ssr:stedsnr" v="270834" />
	</node>
	<node id="-209876" lat="59.5005250029" lon="10.4071722145">
		<tag k="name" v="Ellefsgrunnen" />
		<tag k="natural" v="shoal" />
		<tag k="place" v="locality" />
		<tag k="ssr:stedsnr" v="878375" />
	</node>
	<node id="-209875" lat="59.483725001" lon="10.399361108">
		<tag k="name" v="Kaffebukt" />
		<tag k="natural" v="bay" />
		<tag k="ssr:stedsnr" v="878374" />
	</node>
	<node id="-208978" lat="59.4537305599" lon="10.3680138904">
		<tag k="alt_name" v="Hellanskjær" />
		<tag k="fixme" v="consider seamark:type=rock or natural=shoal" />
		<tag k="name" v="Hellandskjær" />
		<tag k="place" v="islet" />
		<tag k="ssr:stedsnr" v="27875" />
	</node>
	<node id="-209599" lat="59.4805444402" lon="10.3489250028">
		<tag k="name" v="Mulodden" />
		<tag k="natural" v="cape" />
		<tag k="ssr:stedsnr" v="670913" />
	</node>
	<node id="-209722" lat="59.487438887" lon="10.3888638883">
		<tag k="name" v="Munkestein" />
		<tag k="natural" v="cape" />
		<tag k="ssr:stedsnr" v="767944" />
	</node>
	<node id="-209502" lat="59.4774944432" lon="10.3540416738">
		<tag k="name" v="Munken" />
		<tag k="natural" v="bay" />
		<tag k="ssr:stedsnr" v="573926" />
	</node>
	<node id="-209779" lat="59.4920083332" lon="10.3884972201">
		<tag k="name" v="Kalkovnsbukt" />
		<tag k="natural" v="bay" />
		<tag k="ssr:stedsnr" v="817337" />
	</node>
	<node id="-209963" lat="59.4704638883" lon="10.3390388927">
		<tag k="name" v="Mulvikgarnet" />
		<tag k="natural" v="shoal" />
		<tag k="place" v="locality" />
		<tag k="ssr:stedsnr" v="938947" />
	</node>
	<node id="-209962" lat="59.4731472208" lon="10.343416658">
		<tag k="name" v="Vervegarnet" />
		<tag k="natural" v="shoal" />
		<tag k="place" v="locality" />
		<tag k="ssr:stedsnr" v="938945" />
	</node>
	<node id="-209961" lat="59.4672111126" lon="10.3576305513">
		<tag k="name" v="Ruseberget" />
		<tag k="natural" v="cape" />
		<tag k="ssr:stedsnr" v="938940" />
	</node>
	<node id="-209329" lat="59.4556916655" lon="10.3616416742">
		<tag k="name" v="Sandsletta" />
		<tag k="natural" v="beach" />
		<tag k="place" v="locality" />
		<tag k="ssr:stedsnr" v="452880" />
	</node>
	<node id="-209571" lat="59.4856249965" lon="10.3915666592">
		<tag k="name" v="Rødstenflaket" />
		<tag k="place" v="sea" />
		<tag k="ssr:stedsnr" v="634356" />
	</node>
	<node id="-208929" lat="59.4935861138" lon="10.3824555574">
		<tag k="name" v="Langøya" />
		<tag k="place" v="island" />
		<tag k="ssr:stedsnr" v="2914" />
	</node>
	<node id="-208796" lat="59.4565888859" lon="10.3642749931">
		<tag k="name" v="Hellandkrakken" />
		<tag k="natural" v="bay" />
		<tag k="ssr:stedsnr" v="330893" />
	</node>
	<node id="-209420" lat="59.5011166627" lon="10.3706694401">
		<tag k="name" v="Engelskmannsbukt" />
		<tag k="natural" v="bay" />
		<tag k="ssr:stedsnr" v="513871" />
	</node>
	<node id="-209419" lat="59.5022499962" lon="10.3662222224">
		<tag k="name" v="Tømmermannsbukt" />
		<tag k="natural" v="bay" />
		<tag k="old_name" v="Tømmenmannsbukt" />
		<tag k="ssr:stedsnr" v="513870" />
	</node>
	<node id="-208902" lat="59.497277778" lon="10.3798166716">
		<tag k="name" v="Rusebergodden" />
		<tag k="natural" v="cape" />
		<tag k="ssr:stedsnr" v="403938" />
	</node>
</osm>
