<?xml version="1.0" encoding="UTF-8"?>
<osm generator="osmapis" version="0.6">
	<node id="-208895" lat="59.4489583343" lon="10.3384833315">
		<tag k="name" v="Hagalund" />
		<tag k="place" v="farm" />
		<tag k="ssr:stedsnr" v="391887" />
	</node>
	<node id="-208894" lat="59.4456194428" lon="10.342013897">
		<tag k="name" v="Fegstad" />
		<tag k="place" v="farm" />
		<tag k="ssr:stedsnr" v="391885" />
	</node>
	<node id="-208893" lat="59.4489222234" lon="10.3239555513">
		<tag k="name" v="Åsenden" />
		<tag k="place" v="farm" />
		<tag k="ssr:stedsnr" v="391880" />
	</node>
	<node id="-208891" lat="59.4179222239" lon="10.2823249999">
		<tag k="name" v="Lien" />
		<tag k="place" v="farm" />
		<tag k="ssr:stedsnr" v="391840" />
	</node>
	<node id="-208890" lat="59.3529250038" lon="10.3744055579">
		<tag k="name" v="Hem søndre" />
		<tag k="place" v="farm" />
		<tag k="ssr:stedsnr" v="391837" />
	</node>
	<node id="-208889" lat="59.3541527745" lon="10.3754527731">
		<tag k="name" v="Hem mellem" />
		<tag k="place" v="farm" />
		<tag k="ssr:stedsnr" v="391838" />
	</node>
	<node id="-208886" lat="59.3976055595" lon="10.3265194483">
		<tag k="name" v="Grytnes østre" />
		<tag k="place" v="farm" />
		<tag k="ssr:stedsnr" v="391790" />
	</node>
	<node id="-208885" lat="59.3293472189" lon="10.3256250009">
		<tag k="name" v="Forum" />
		<tag k="place" v="farm" />
		<tag k="ssr:stedsnr" v="391787" />
	</node>
	<node id="-208883" lat="59.3727111137" lon="10.2849666666">
		<tag k="name" v="Bergstangen" />
		<tag k="place" v="farm" />
		<tag k="ssr:stedsnr" v="391765" />
	</node>
	<node id="-208881" lat="59.3629416688" lon="10.3429611187">
		<tag k="name" v="Heum" />
		<tag k="place" v="farm" />
		<tag k="ssr:stedsnr" v="391745" />
	</node>
	<node id="-208878" lat="59.4667444466" lon="10.1966361052">
		<tag k="name" v="Sag" />
		<tag k="place" v="farm" />
		<tag k="ssr:stedsnr" v="391719" />
	</node>
	<node id="-208876" lat="59.3979138895" lon="10.2539361117">
		<tag k="name" v="Bakke" />
		<tag k="place" v="farm" />
		<tag k="ssr:stedsnr" v="391600" />
	</node>
	<node id="-208875" lat="59.3875305551" lon="10.2555111164">
		<tag k="name" v="Åmot" />
		<tag k="place" v="farm" />
		<tag k="ssr:stedsnr" v="391597" />
	</node>
	<node id="-208874" lat="59.453283335" lon="10.189591671">
		<tag k="name" v="Revå" />
		<tag k="place" v="farm" />
		<tag k="ssr:stedsnr" v="391588" />
	</node>
	<node id="-208872" lat="59.3933750014" lon="10.238480556">
		<tag k="name" v="Åsknatten" />
		<tag k="place" v="isolated_dwelling" />
		<tag k="ssr:stedsnr" v="391579" />
	</node>
	<node id="-208871" lat="59.4436888933" lon="10.1757611191">
		<tag k="name" v="Skotvedt nordre" />
		<tag k="place" v="farm" />
		<tag k="ssr:stedsnr" v="391575" />
	</node>
	<node id="-208865" lat="59.3570277802" lon="10.2429500029">
		<tag k="name" v="Tuftekroken" />
		<tag k="place" v="quarter" />
		<tag k="ssr:stedsnr" v="391397" />
	</node>
	<node id="-208864" lat="59.3523722243" lon="10.238358334">
		<tag k="name" v="Bakken" />
		<tag k="place" v="farm" />
		<tag k="ssr:stedsnr" v="391393" />
	</node>
	<node id="-208863" lat="59.3478972206" lon="10.2269166593">
		<tag k="name" v="Tinghaug" />
		<tag k="place" v="isolated_dwelling" />
		<tag k="ssr:stedsnr" v="391391" />
	</node>
	<node id="-208862" lat="59.3621944463" lon="10.1923222291">
		<tag k="name" v="Indlagen" />
		<tag k="place" v="isolated_dwelling" />
		<tag k="ssr:stedsnr" v="391357" />
	</node>
	<node id="-208861" lat="59.3770555543" lon="10.1800000063">
		<tag k="name" v="Jerpetjønn" />
		<tag k="place" v="farm" />
		<tag k="ssr:stedsnr" v="391348" />
	</node>
	<node id="-208860" lat="59.3641749991" lon="10.1810194412">
		<tag k="name" v="Skjeggerød" />
		<tag k="place" v="farm" />
		<tag k="ssr:stedsnr" v="391345" />
	</node>
	<node id="-208857" lat="59.3434972209" lon="10.2655500044">
		<tag k="name" v="Kirkevold" />
		<tag k="place" v="farm" />
		<tag k="ssr:stedsnr" v="391304" />
	</node>
	<node id="-208855" lat="59.4185833307" lon="10.1082805595">
		<tag k="name" v="Låne n." />
		<tag k="place" v="farm" />
		<tag k="ssr:stedsnr" v="391186" />
	</node>
	<node id="-208852" lat="59.447058329" lon="10.0925555475">
		<tag k="name" v="Kvotoa" />
		<tag k="place" v="locality" />
		<tag k="ssr:stedsnr" v="391102" />
	</node>
	<node id="-208850" lat="59.3932500023" lon="10.1408972236">
		<tag k="name" v="Hauen" />
		<tag k="place" v="farm" />
		<tag k="ssr:stedsnr" v="391091" />
	</node>
	<node id="-208848" lat="59.4406333334" lon="10.0874166711">
		<tag k="name" v="Øvre Orrevål" />
		<tag k="place" v="farm" />
		<tag k="ssr:stedsnr" v="391013" />
	</node>
	<node id="-208846" lat="59.326833337" lon="10.2717194462">
		<tag k="name" v="Haug" />
		<tag k="place" v="farm" />
		<tag k="ssr:stedsnr" v="390729" />
	</node>
	<node id="-208845" lat="59.3636194484" lon="10.2497694494">
		<tag k="name" v="Bergsåsen" />
		<tag k="place" v="quarter" />
		<tag k="ssr:stedsnr" v="390348" />
	</node>
	<node id="-208844" lat="59.319411111" lon="10.3027361028">
		<tag k="name" v="Himberg" />
		<tag k="place" v="farm" />
		<tag k="ssr:stedsnr" v="367767" />
	</node>
	<node id="-208843" lat="59.454874997" lon="10.3447055554">
		<tag k="name" v="Valtersborg" />
		<tag k="place" v="farm" />
		<tag k="ssr:stedsnr" v="366949" />
	</node>
	<node id="-208842" lat="59.3242138916" lon="10.2665944358">
		<tag k="name" v="Ås" />
		<tag k="place" v="farm" />
		<tag k="ssr:stedsnr" v="366796" />
	</node>
	<node id="-208841" lat="59.325633332" lon="10.2939416716">
		<tag k="name" v="Himberg" />
		<tag k="place" v="farm" />
		<tag k="ssr:stedsnr" v="366795" />
	</node>
	<node id="-208840" lat="59.3394611143" lon="10.2390194467">
		<tag k="name" v="Re" />
		<tag k="place" v="farm" />
		<tag k="ssr:stedsnr" v="366785" />
	</node>
	<node id="-208839" lat="59.3585638855" lon="10.1787083342">
		<tag k="name" v="Mørken" />
		<tag k="place" v="farm" />
		<tag k="ssr:stedsnr" v="366761" />
	</node>
	<node id="-208838" lat="59.3476000027" lon="10.3776888865">
		<tag k="alt_name" v="Hem søndre" />
		<tag k="name" v="Hem" />
		<tag k="place" v="farm" />
		<tag k="ssr:stedsnr" v="366590" />
	</node>
	<node id="-208837" lat="59.3803277784" lon="10.362488889">
		<tag k="name" v="Knutstad" />
		<tag k="place" v="farm" />
		<tag k="ssr:stedsnr" v="366560" />
	</node>
	<node id="-208836" lat="59.38552778" lon="10.3627333371">
		<tag k="alt_name" v="Døvik søndre" />
		<tag k="name" v="Døvik" />
		<tag k="place" v="farm" />
		<tag k="ssr:stedsnr" v="366544" />
	</node>
	<node id="-208835" lat="59.3967499976" lon="10.3638527789">
		<tag k="name" v="Flår" />
		<tag k="place" v="farm" />
		<tag k="ssr:stedsnr" v="366537" />
	</node>
	<node id="-208834" lat="59.3957972213" lon="10.2384694513">
		<tag k="alt_name" v="Ås n." />
		<tag k="name" v="Ås" />
		<tag k="place" v="farm" />
		<tag k="ssr:stedsnr" v="366239" />
	</node>
	<node id="-208833" lat="59.3791611099" lon="10.1911083322">
		<tag k="alt_name" v="Horntvedt" />
		<tag k="name" v="Horntvet" />
		<tag k="place" v="farm" />
		<tag k="ssr:stedsnr" v="366232" />
	</node>
	<node id="-208832" lat="59.3759083313" lon="10.3048305596">
		<tag k="name" v="Gorte" />
		<tag k="place" v="farm" />
		<tag k="ssr:stedsnr" v="366196" />
	</node>
	<node id="-208831" lat="59.3709999964" lon="10.2685000023">
		<tag k="name" v="Revetal" />
		<tag k="place" v="farm" />
		<tag k="ssr:stedsnr" v="366194" />
	</node>
	<node id="-208830" lat="59.3708055527" lon="10.2168944393">
		<tag k="alt_name" v="Dal v" />
		<tag k="name" v="Dal" />
		<tag k="place" v="farm" />
		<tag k="ssr:stedsnr" v="366191" />
	</node>
	<node id="-208829" lat="59.3750805586" lon="10.1994305644">
		<tag k="name" v="Bakke" />
		<tag k="place" v="farm" />
		<tag k="ssr:stedsnr" v="366188" />
	</node>
	<node id="-208828" lat="59.4265416662" lon="10.261186108">
		<tag k="alt_name" v="Siltvedt" />
		<tag k="name" v="Siltvet" />
		<tag k="place" v="farm" />
		<tag k="ssr:stedsnr" v="366182" />
	</node>
	<node id="-208827" lat="59.4372277795" lon="10.3153194362">
		<tag k="alt_name" v="Rostad nordre" />
		<tag k="name" v="Rostad" />
		<tag k="place" v="farm" />
		<tag k="ssr:stedsnr" v="366162" />
	</node>
	<node id="-208826" lat="59.4323916667" lon="10.14298334">
		<tag k="name" v="Dalen" />
		<tag k="place" v="isolated_dwelling" />
		<tag k="ssr:stedsnr" v="366151" />
	</node>
	<node id="-208825" lat="59.4377527796" lon="10.1121361154">
		<tag k="alt_name" v="Løn, nordre;Løn nedre;Nordre Løn" />
		<tag k="fixme" v="consider place=hamlet" />
		<tag k="name" v="Nedre Løn" />
		<tag k="place" v="farm" />
		<tag k="ssr:stedsnr" v="366082" />
	</node>
	<node id="-208824" lat="59.4453083303" lon="10.2795361138">
		<tag k="alt_name" v="Holm vestre" />
		<tag k="name" v="Holm" />
		<tag k="place" v="farm" />
		<tag k="ssr:stedsnr" v="366073" />
	</node>
	<node id="-208821" lat="59.4393055512" lon="10.0947305576">
		<tag k="name" v="Nedre O" />
		<tag k="place" v="farm" />
		<tag k="ssr:stedsnr" v="148015" />
	</node>
	<node id="-208817" lat="59.4225138856" lon="10.304888896">
		<tag k="name" v="Sørby nordre" />
		<tag k="place" v="farm" />
		<tag k="ssr:stedsnr" v="331907" />
	</node>
	<node id="-208816" lat="59.4398305571" lon="10.2982222268">
		<tag k="name" v="Haslestad søndre" />
		<tag k="place" v="farm" />
		<tag k="ssr:stedsnr" v="331901" />
	</node>
	<node id="-208815" lat="59.3298583334" lon="10.3115888909">
		<tag k="name" v="Reine" />
		<tag k="place" v="farm" />
		<tag k="ssr:stedsnr" v="331659" />
	</node>
	<node id="-208810" lat="59.4359277779" lon="10.2550694532">
		<tag k="name" v="Robak" />
		<tag k="place" v="farm" />
		<tag k="ssr:stedsnr" v="331646" />
	</node>
	<node id="-208808" lat="59.3992333371" lon="10.257819446">
		<tag k="name" v="Bakke søndre" />
		<tag k="place" v="farm" />
		<tag k="ssr:stedsnr" v="331576" />
	</node>
	<node id="-208807" lat="59.3818388907" lon="10.2343638877">
		<tag k="alt_name" v="Kile v." />
		<tag k="name" v="Kile" />
		<tag k="place" v="farm" />
		<tag k="ssr:stedsnr" v="427261" />
	</node>
	<node id="-208804" lat="59.4473638889" lon="10.2475750026">
		<tag k="name" v="Lærum nordre" />
		<tag k="place" v="farm" />
		<tag k="ssr:stedsnr" v="331546" />
	</node>
	<node id="-208803" lat="59.4446472191" lon="10.2091777844">
		<tag k="name" v="Kleven søndre" />
		<tag k="place" v="farm" />
		<tag k="ssr:stedsnr" v="331535" />
	</node>
	<node id="-208801" lat="59.3761444422" lon="10.3888638907">
		<tag k="name" v="Råen" />
		<tag k="place" v="farm" />
		<tag k="ssr:stedsnr" v="331383" />
	</node>
	<node id="-208800" lat="59.3864722225" lon="10.1993500028">
		<tag k="name" v="Gruva" />
		<tag k="place" v="quarter" />
		<tag k="ssr:stedsnr" v="331316" />
	</node>
	<node id="-208799" lat="59.3823138868" lon="10.1792777755">
		<tag k="name" v="Kalshus" />
		<tag k="place" v="farm" />
		<tag k="ssr:stedsnr" v="331307" />
	</node>
	<node id="-208797" lat="59.4361888906" lon="10.2704472228">
		<tag k="name" v="Gjelstad" />
		<tag k="place" v="farm" />
		<tag k="ssr:stedsnr" v="330896" />
	</node>
	<node id="-208795" lat="59.4543305568" lon="10.3562555518">
		<tag k="name" v="Snekkestad nedre" />
		<tag k="place" v="farm" />
		<tag k="ssr:stedsnr" v="330892" />
	</node>
	<node id="-208794" lat="59.445822223" lon="10.3353583277">
		<tag k="name" v="Fegstad" />
		<tag k="place" v="farm" />
		<tag k="ssr:stedsnr" v="330890" />
	</node>
	<node id="-208793" lat="59.4213638875" lon="10.306041662">
		<tag k="name" v="Østeng" />
		<tag k="place" v="farm" />
		<tag k="ssr:stedsnr" v="330849" />
	</node>
	<node id="-208791" lat="59.3532833309" lon="10.3751555473">
		<tag k="name" v="Hem mellom" />
		<tag k="place" v="farm" />
		<tag k="ssr:stedsnr" v="330842" />
	</node>
	<node id="-208790" lat="59.4456611117" lon="10.3037694396">
		<tag k="name" v="Vissestad" />
		<tag k="place" v="farm" />
		<tag k="ssr:stedsnr" v="330839" />
	</node>
	<node id="-208787" lat="59.3306055553" lon="10.2828499964">
		<tag k="name" v="Skalberg" />
		<tag k="place" v="farm" />
		<tag k="ssr:stedsnr" v="330792" />
	</node>
	<node id="-208786" lat="59.3771722211" lon="10.2925611101">
		<tag k="name" v="Berg søndre" />
		<tag k="place" v="farm" />
		<tag k="ssr:stedsnr" v="330786" />
	</node>
	<node id="-208783" lat="59.3698361076" lon="10.3700222164">
		<tag k="name" v="Solerød" />
		<tag k="place" v="farm" />
		<tag k="ssr:stedsnr" v="330766" />
	</node>
	<node id="-208782" lat="59.3708166662" lon="10.3697083396">
		<tag k="name" v="Solerød nordre" />
		<tag k="place" v="farm" />
		<tag k="ssr:stedsnr" v="330764" />
	</node>
	<node id="-208781" lat="59.3533888845" lon="10.2922749988">
		<tag k="name" v="Skjeggestadfeltet" />
		<tag k="place" v="quarter" />
		<tag k="ssr:stedsnr" v="330756" />
	</node>
	<node id="-208778" lat="59.3400055599" lon="10.3117833343">
		<tag k="name" v="Skovly" />
		<tag k="place" v="farm" />
		<tag k="ssr:stedsnr" v="330739" />
	</node>
	<node id="-208777" lat="59.3241749977" lon="10.2360472277">
		<tag k="name" v="Rolighet søndre" />
		<tag k="place" v="farm" />
		<tag k="ssr:stedsnr" v="330462" />
	</node>
	<node id="-208776" lat="59.3247722253" lon="10.2656194406">
		<tag k="name" v="Bjørgum" />
		<tag k="place" v="farm" />
		<tag k="ssr:stedsnr" v="330459" />
	</node>
	<node id="-208772" lat="59.3736138852" lon="10.1695833274">
		<tag k="name" v="Plassen" />
		<tag k="place" v="farm" />
		<tag k="ssr:stedsnr" v="330341" />
	</node>
	<node id="-208769" lat="59.3507555534" lon="10.2475388973">
		<tag k="name" v="Herredshus" />
		<tag k="place" v="farm" />
		<tag k="ssr:stedsnr" v="330290" />
	</node>
	<node id="-208759" lat="59.4380444402" lon="10.0878138846">
		<tag k="name" v="Skåtan" />
		<tag k="place" v="locality" />
		<tag k="ssr:stedsnr" v="330021" />
	</node>
	<node id="-208754" lat="59.326052782" lon="10.3442222269">
		<tag k="name" v="Freste, nordre" />
		<tag k="place" v="farm" />
		<tag k="ssr:stedsnr" v="306565" />
	</node>
	<node id="-208753" lat="59.4306944423" lon="10.2893999925">
		<tag k="name" v="Rånarud" />
		<tag k="place" v="farm" />
		<tag k="ssr:stedsnr" v="306177" />
	</node>
	<node id="-208752" lat="59.4195666679" lon="10.1106888862">
		<tag k="name" v="Bjørndalen" />
		<tag k="place" v="farm" />
		<tag k="ssr:stedsnr" v="306165" />
	</node>
	<node id="-208751" lat="59.4083277739" lon="10.3294750025">
		<tag k="name" v="Sando" />
		<tag k="place" v="farm" />
		<tag k="ssr:stedsnr" v="306139" />
	</node>
	<node id="-208750" lat="59.4140250027" lon="10.3070194384">
		<tag k="alt_name" v="Sørby søndre" />
		<tag k="name" v="Sørby" />
		<tag k="place" v="farm" />
		<tag k="ssr:stedsnr" v="306128" />
	</node>
	<node id="-208748" lat="59.3941166695" lon="10.2056861198">
		<tag k="name" v="Fostre" />
		<tag k="place" v="farm" />
		<tag k="ssr:stedsnr" v="305249" />
	</node>
	<node id="-208744" lat="59.3783027775" lon="10.2697027771">
		<tag k="name" v="Sunneklepp" />
		<tag k="place" v="farm" />
		<tag k="ssr:stedsnr" v="305192" />
	</node>
	<node id="-208743" lat="59.3769833304" lon="10.2556972302">
		<tag k="name" v="Rustan" />
		<tag k="place" v="farm" />
		<tag k="ssr:stedsnr" v="305190" />
	</node>
	<node id="-208742" lat="59.3745250005" lon="10.2394861113">
		<tag k="name" v="Lunnteigen" />
		<tag k="place" v="farm" />
		<tag k="ssr:stedsnr" v="305186" />
	</node>
	<node id="-208741" lat="59.434300002" lon="10.2023361125">
		<tag k="alt_name" v="Kranstad øvre" />
		<tag k="name" v="Kranstad" />
		<tag k="place" v="farm" />
		<tag k="ssr:stedsnr" v="305164" />
	</node>
	<node id="-208740" lat="59.4390999985" lon="10.1279583306">
		<tag k="name" v="Krøkli" />
		<tag k="place" v="farm" />
		<tag k="ssr:stedsnr" v="305090" />
	</node>
	<node id="-208739" lat="59.4410861085" lon="10.3182916628">
		<tag k="name" v="Nordby" />
		<tag k="place" v="farm" />
		<tag k="ssr:stedsnr" v="305079" />
	</node>
	<node id="-208738" lat="59.4417999963" lon="10.1780027778">
		<tag k="alt_name" v="Skotvedt nordre" />
		<tag k="name" v="Skotvet" />
		<tag k="place" v="farm" />
		<tag k="ssr:stedsnr" v="305065" />
	</node>
	<node id="-208731" lat="59.4748972243" lon="10.3466638921">
		<tag k="name" v="Gamle-Verven" />
		<tag k="place" v="locality" />
		<tag k="ssr:stedsnr" v="270915" />
	</node>
	<node id="-208730" lat="59.3185583309" lon="10.294733325">
		<tag k="name" v="Himbergåsen" />
		<tag k="place" v="farm" />
		<tag k="ssr:stedsnr" v="270892" />
	</node>
	<node id="-208729" lat="59.4357027783" lon="10.3148972207">
		<tag k="name" v="Rostad søndre" />
		<tag k="place" v="farm" />
		<tag k="ssr:stedsnr" v="270866" />
	</node>
	<node id="-208728" lat="59.4237083334" lon="10.3016138874">
		<tag k="name" v="Sørby" />
		<tag k="place" v="farm" />
		<tag k="ssr:stedsnr" v="270864" />
	</node>
	<node id="-208727" lat="59.4267694463" lon="10.2894083421">
		<tag k="name" v="Søby nordre" />
		<tag k="place" v="farm" />
		<tag k="ssr:stedsnr" v="270863" />
	</node>
	<node id="-208721" lat="59.4504805562" lon="10.3177000037">
		<tag k="name" v="Rostadteigen" />
		<tag k="place" v="farm" />
		<tag k="ssr:stedsnr" v="270783" />
	</node>
	<node id="-208719" lat="59.3983111108" lon="10.3363055479">
		<tag k="name" v="Grøtås" />
		<tag k="place" v="farm" />
		<tag k="ssr:stedsnr" v="270769" />
	</node>
	<node id="-208718" lat="59.3891555586" lon="10.3324611097">
		<tag k="name" v="Knapstad søndre" />
		<tag k="place" v="farm" />
		<tag k="ssr:stedsnr" v="270767" />
	</node>
	<node id="-208717" lat="59.387177774" lon="10.3511305545">
		<tag k="name" v="Nyerrød søndre" />
		<tag k="place" v="farm" />
		<tag k="ssr:stedsnr" v="270765" />
	</node>
	<node id="-208716" lat="59.3891805583" lon="10.3495833352">
		<tag k="name" v="Nyerrød nordre" />
		<tag k="place" v="farm" />
		<tag k="ssr:stedsnr" v="270764" />
	</node>
	<node id="-208715" lat="59.3914777775" lon="10.289758326">
		<tag k="name" v="Berg" />
		<tag k="place" v="farm" />
		<tag k="ssr:stedsnr" v="270760" />
	</node>
	<node id="-208709" lat="59.4305694432" lon="10.2657416633">
		<tag k="name" v="Veierud" />
		<tag k="place" v="farm" />
		<tag k="ssr:stedsnr" v="270628" />
	</node>
	<node id="-208708" lat="59.3808583325" lon="10.2095777846">
		<tag k="name" v="Holt nedre" />
		<tag k="place" v="farm" />
		<tag k="ssr:stedsnr" v="270586" />
	</node>
	<node id="-208707" lat="59.3935250028" lon="10.2371777824">
		<tag k="name" v="Tollistua" />
		<tag k="place" v="farm" />
		<tag k="ssr:stedsnr" v="270578" />
	</node>
	<node id="-208706" lat="59.3849361155" lon="10.2346555573">
		<tag k="name" v="Kile ø." />
		<tag k="place" v="farm" />
		<tag k="ssr:stedsnr" v="270576" />
	</node>
	<node id="-208704" lat="59.4438250028" lon="10.2402638943">
		<tag k="name" v="Rygg nordre" />
		<tag k="place" v="farm" />
		<tag k="ssr:stedsnr" v="270548" />
	</node>
	<node id="-208703" lat="59.4438083307" lon="10.2530111173">
		<tag k="name" v="Lærum søndre" />
		<tag k="place" v="farm" />
		<tag k="ssr:stedsnr" v="270546" />
	</node>
	<node id="-208701" lat="59.4346805527" lon="10.1948222164">
		<tag k="name" v="Holtung" />
		<tag k="place" v="farm" />
		<tag k="ssr:stedsnr" v="270530" />
	</node>
	<node id="-208698" lat="59.3701083343" lon="10.2633055516">
		<tag k="name" v="Revetal s" />
		<tag k="place" v="farm" />
		<tag k="ssr:stedsnr" v="270392" />
	</node>
	<node id="-208697" lat="59.3731166651" lon="10.2645805513">
		<tag k="name" v="Revetal n" />
		<tag k="place" v="farm" />
		<tag k="ssr:stedsnr" v="270390" />
	</node>
	<node id="-208696" lat="59.360697225" lon="10.2497444431">
		<tag k="leisure" v="pitch" />
		<tag k="name" v="Bergan" />
		<tag k="ssr:stedsnr" v="270387" />
	</node>
	<node id="-208695" lat="59.3570861108" lon="10.2284722192">
		<tag k="name" v="Studsrud søndre" />
		<tag k="place" v="farm" />
		<tag k="ssr:stedsnr" v="270377" />
	</node>
	<node id="-208694" lat="59.3617277818" lon="10.1887555516">
		<tag k="name" v="Nyhus" />
		<tag k="place" v="farm" />
		<tag k="ssr:stedsnr" v="270345" />
	</node>
	<node id="-208690" lat="59.4049750031" lon="10.2618249938">
		<tag k="name" v="Bakke" />
		<tag k="place" v="farm" />
		<tag k="ssr:stedsnr" v="270310" />
	</node>
	<node id="-208689" lat="59.3905138931" lon="10.1981944413">
		<tag k="name" v="Solbergstua" />
		<tag k="place" v="isolated_dwelling" />
		<tag k="ssr:stedsnr" v="270298" />
	</node>
	<node id="-208684" lat="59.3392749976" lon="10.2398138853">
		<tag k="name" v="Ramnes prestegård" />
		<tag k="place" v="isolated_dwelling" />
		<tag k="ssr:stedsnr" v="270269" />
	</node>
	<node id="-208683" lat="59.4191416653" lon="10.1044805535">
		<tag k="name" v="Synnøvetomta" />
		<tag k="place" v="locality" />
		<tag k="ssr:stedsnr" v="270203" />
	</node>
	<node id="-208680" lat="59.3732999984" lon="10.2952472192">
		<tag k="name" v="Solhaug" />
		<tag k="place" v="farm" />
		<tag k="ssr:stedsnr" v="270724" />
	</node>
	<node id="-208679" lat="59.3693972251" lon="10.2940388971">
		<tag k="name" v="Gunhildstad" />
		<tag k="place" v="farm" />
		<tag k="ssr:stedsnr" v="270723" />
	</node>
	<node id="-208676" lat="59.3361444417" lon="10.3111666592">
		<tag k="name" v="Linnestad" />
		<tag k="place" v="farm" />
		<tag k="ssr:stedsnr" v="270665" />
	</node>
	<node id="-208675" lat="59.3331444436" lon="10.3063944363">
		<tag k="name" v="Reine" />
		<tag k="place" v="farm" />
		<tag k="ssr:stedsnr" v="270663" />
	</node>
	<node id="-208672" lat="59.3844194438" lon="10.1324166736">
		<tag k="name" v="Elverheim" />
		<tag k="place" v="farm" />
		<tag k="ssr:stedsnr" v="270082" />
	</node>
	<node id="-208671" lat="59.3958527793" lon="10.1343694399">
		<tag k="name" v="Ektvedt n." />
		<tag k="place" v="farm" />
		<tag k="ssr:stedsnr" v="270078" />
	</node>
	<node id="-208666" lat="59.4324777817" lon="10.1257416684">
		<tag k="name" v="Kjær" />
		<tag k="place" v="isolated_dwelling" />
		<tag k="ssr:stedsnr" v="270016" />
	</node>
	<node id="-208665" lat="59.4265416624" lon="10.1284083348">
		<tag k="name" v="Skau" />
		<tag k="place" v="farm" />
		<tag k="ssr:stedsnr" v="270013" />
	</node>
	<node id="-208662" lat="59.4389222186" lon="10.1108583363">
		<tag k="name" v="Løn" />
		<tag k="place" v="farm" />
		<tag k="ssr:stedsnr" v="269372" />
	</node>
	<node id="-209960" lat="59.4424944456" lon="10.340338881">
		<tag k="name" v="Fegstad" />
		<tag k="place" v="farm" />
		<tag k="ssr:stedsnr" v="938897" />
	</node>
	<node id="-209958" lat="59.3354222204" lon="10.2885833397">
		<tag k="name" v="Hole østre" />
		<tag k="place" v="farm" />
		<tag k="ssr:stedsnr" v="938642" />
	</node>
	<node id="-209956" lat="59.4411972247" lon="10.2645111054">
		<tag k="name" v="Jonsrud" />
		<tag k="place" v="farm" />
		<tag k="ssr:stedsnr" v="938630" />
	</node>
	<node id="-209955" lat="59.4234944408" lon="10.2033944523">
		<tag k="name" v="Sulutvedt øvre" />
		<tag k="place" v="farm" />
		<tag k="ssr:stedsnr" v="938623" />
	</node>
	<node id="-209952" lat="59.3927444484" lon="10.2652777747">
		<tag k="name" v="Bjerkeskaug søndre" />
		<tag k="place" v="farm" />
		<tag k="ssr:stedsnr" v="938574" />
	</node>
	<node id="-209951" lat="59.3868249976" lon="10.2548527756">
		<tag k="name" v="Fossan" />
		<tag k="place" v="farm" />
		<tag k="ssr:stedsnr" v="938571" />
	</node>
	<node id="-209947" lat="59.4281222201" lon="10.3006250034">
		<tag k="name" v="Sørby nordre" />
		<tag k="place" v="farm" />
		<tag k="ssr:stedsnr" v="937894" />
	</node>
	<node id="-209946" lat="59.4329916651" lon="10.2703194444">
		<tag k="name" v="Gjelstad" />
		<tag k="place" v="farm" />
		<tag k="ssr:stedsnr" v="937889" />
	</node>
	<node id="-209944" lat="59.4139916632" lon="10.3073388886">
		<tag k="name" v="Fjell" />
		<tag k="place" v="farm" />
		<tag k="ssr:stedsnr" v="937844" />
	</node>
	<node id="-209943" lat="59.4107999967" lon="10.2814444515">
		<tag k="name" v="Brekkeåsen" />
		<tag k="place" v="farm" />
		<tag k="ssr:stedsnr" v="937835" />
	</node>
	<node id="-209942" lat="59.4454388881" lon="10.3069361163">
		<tag k="name" v="Håkestad" />
		<tag k="place" v="farm" />
		<tag k="ssr:stedsnr" v="937826" />
	</node>
	<node id="-209941" lat="59.4525694447" lon="10.2999694438">
		<tag k="name" v="Åsen" />
		<tag k="place" v="farm" />
		<tag k="ssr:stedsnr" v="937825" />
	</node>
	<node id="-209940" lat="59.4631944402" lon="10.3450500082">
		<tag k="name" v="Bakkeland" />
		<tag k="place" v="farm" />
		<tag k="ssr:stedsnr" v="937822" />
	</node>
	<node id="-209939" lat="59.3867694446" lon="10.3427916626">
		<tag k="name" v="Fossås nordre" />
		<tag k="place" v="farm" />
		<tag k="ssr:stedsnr" v="937802" />
	</node>
	<node id="-209935" lat="59.3676250007" lon="10.3104527703">
		<tag k="name" v="Venås n." />
		<tag k="place" v="farm" />
		<tag k="ssr:stedsnr" v="937764" />
	</node>
	<node id="-209934" lat="59.3672472258" lon="10.3670222306">
		<tag k="alt_name" v="Rød" />
		<tag k="name" v="Vedvik" />
		<tag k="place" v="farm" />
		<tag k="ssr:stedsnr" v="937752" />
	</node>
	<node id="-209933" lat="59.3377444426" lon="10.2980083333">
		<tag k="name" v="Klopp ø" />
		<tag k="place" v="farm" />
		<tag k="ssr:stedsnr" v="937742" />
	</node>
	<node id="-209932" lat="59.3399722199" lon="10.3224083327">
		<tag k="name" v="Solli" />
		<tag k="place" v="farm" />
		<tag k="ssr:stedsnr" v="937737" />
	</node>
	<node id="-209927" lat="59.3894333321" lon="10.2322833253">
		<tag k="name" v="Gjevlingen" />
		<tag k="place" v="farm" />
		<tag k="ssr:stedsnr" v="937589" />
	</node>
	<node id="-209924" lat="59.4433466882" lon="10.1926321126">
		<tag k="name" v="Hestehagen" />
		<tag k="place" v="farm" />
		<tag k="ssr:stedsnr" v="937555" />
	</node>
	<node id="-209916" lat="59.3797277814" lon="10.1850583349">
		<tag k="name" v="Solheim" />
		<tag k="place" v="farm" />
		<tag k="ssr:stedsnr" v="937336" />
	</node>
	<node id="-209915" lat="59.3424805511" lon="10.2592916715">
		<tag k="name" v="Hagen" />
		<tag k="place" v="farm" />
		<tag k="ssr:stedsnr" v="937322" />
	</node>
	<node id="-209913" lat="59.3475083316" lon="10.2381861145">
		<tag k="name" v="Lerstang" />
		<tag k="place" v="farm" />
		<tag k="ssr:stedsnr" v="937309" />
	</node>
	<node id="-209909" lat="59.4005027798" lon="10.128833326">
		<tag k="name" v="Bjerkelund" />
		<tag k="place" v="farm" />
		<tag k="ssr:stedsnr" v="937214" />
	</node>
	<node id="-209906" lat="59.3866666658" lon="10.125991668">
		<tag k="name" v="Holmene" />
		<tag k="place" v="locality" />
		<tag k="ssr:stedsnr" v="937099" />
	</node>
	<node id="-209904" lat="59.4418916633" lon="10.1005444454">
		<tag k="name" v="Østli" />
		<tag k="place" v="farm" />
		<tag k="ssr:stedsnr" v="937020" />
	</node>
	<node id="-209901" lat="59.4130333324" lon="10.2803111157">
		<tag k="name" v="Brekkeåsen" />
		<tag k="place" v="quarter" />
		<tag k="ssr:stedsnr" v="936344" />
	</node>
	<node id="-209900" lat="59.4406777794" lon="10.09673333">
		<tag k="name" v="O" />
		<tag k="place" v="farm" />
		<tag k="ssr:stedsnr" v="936339" />
	</node>
	<node id="-209899" lat="59.3397111137" lon="10.3327166609">
		<tag k="name" v="Horn" />
		<tag k="place" v="farm" />
		<tag k="ssr:stedsnr" v="913782" />
	</node>
	<node id="-209898" lat="59.3172833365" lon="10.2324999952">
		<tag k="alt_name" v="Grorud" />
		<tag k="name" v="Grorød" />
		<tag k="place" v="farm" />
		<tag k="ssr:stedsnr" v="913774" />
	</node>
	<node id="-209897" lat="59.356280559" lon="10.2844305625">
		<tag k="alt_name" v="Bø n" />
		<tag k="name" v="Bø" />
		<tag k="place" v="farm" />
		<tag k="ssr:stedsnr" v="913756" />
	</node>
	<node id="-209896" lat="59.4023888915" lon="10.1867805604">
		<tag k="alt_name" v="Røssedal" />
		<tag k="name" v="Røssdalen" />
		<tag k="place" v="isolated_dwelling" />
		<tag k="ssr:stedsnr" v="913211" />
	</node>
	<node id="-209895" lat="59.3613388923" lon="10.3198333416">
		<tag k="name" v="Ødegården" />
		<tag k="place" v="locality" />
		<tag k="ssr:stedsnr" v="913194" />
	</node>
	<node id="-209894" lat="59.4236777818" lon="10.2760027797">
		<tag k="name" v="Tomt" />
		<tag k="place" v="farm" />
		<tag k="ssr:stedsnr" v="913175" />
	</node>
	<node id="-209893" lat="59.4112111072" lon="10.2641861025">
		<tag k="alt_name" v="Skinnene" />
		<tag k="name" v="Skinnane" />
		<tag k="place" v="farm" />
		<tag k="ssr:stedsnr" v="913155" />
	</node>
	<node id="-209892" lat="59.4198055587" lon="10.2861666749">
		<tag k="name" v="Bakken" />
		<tag k="place" v="farm" />
		<tag k="ssr:stedsnr" v="913133" />
	</node>
	<node id="-209891" lat="59.4063916676" lon="10.1824833285">
		<tag k="fixme" v="multiple name tags, choose one and add the other to alt_name" />
		<tag k="name" v="Setra;Røssdalsetra" />
		<tag k="place" v="isolated_dwelling" />
		<tag k="ssr:stedsnr" v="913128" />
	</node>
	<node id="-209890" lat="59.4606388869" lon="10.3314388914">
		<tag k="name" v="Syrstad" />
		<tag k="place" v="farm" />
		<tag k="ssr:stedsnr" v="913117" />
	</node>
	<node id="-209889" lat="59.4589749971" lon="10.2725694384">
		<tag k="name" v="Torgerud" />
		<tag k="place" v="farm" />
		<tag k="ssr:stedsnr" v="913115" />
	</node>
	<node id="-209888" lat="59.4578805545" lon="10.3540000075">
		<tag k="alt_name" v="Snekkestad øvre" />
		<tag k="name" v="Snekkestad" />
		<tag k="place" v="farm" />
		<tag k="ssr:stedsnr" v="912962" />
	</node>
	<node id="-209887" lat="59.3644972192" lon="10.366922223">
		<tag k="alt_name" v="Rød nedre" />
		<tag k="name" v="Rød" />
		<tag k="place" v="farm" />
		<tag k="ssr:stedsnr" v="912597" />
	</node>
	<node id="-209886" lat="59.3833083368" lon="10.2098777837">
		<tag k="name" v="Holt" />
		<tag k="place" v="farm" />
		<tag k="ssr:stedsnr" v="912248" />
	</node>
	<node id="-209885" lat="59.3704361127" lon="10.3363833348">
		<tag k="name" v="Grøum" />
		<tag k="place" v="farm" />
		<tag k="ssr:stedsnr" v="912218" />
	</node>
	<node id="-209884" lat="59.3788416705" lon="10.2914444508">
		<tag k="alt_name" v="Berg, s;Berg søndre" />
		<tag k="name" v="Søndre Berg" />
		<tag k="place" v="farm" />
		<tag k="ssr:stedsnr" v="912195" />
	</node>
	<node id="-209883" lat="59.3839444484" lon="10.2490888827">
		<tag k="alt_name" v="Firing s." />
		<tag k="name" v="Firing" />
		<tag k="place" v="farm" />
		<tag k="ssr:stedsnr" v="912190" />
	</node>
	<node id="-209882" lat="59.3721500024" lon="10.2734333351">
		<tag k="name" v="Rørås" />
		<tag k="place" v="farm" />
		<tag k="ssr:stedsnr" v="912189" />
	</node>
	<node id="-209881" lat="59.375802775" lon="10.2048083381">
		<tag k="name" v="Holt" />
		<tag k="place" v="farm" />
		<tag k="ssr:stedsnr" v="912184" />
	</node>
	<node id="-209880" lat="59.4322527789" lon="10.1955305581">
		<tag k="alt_name" v="Holtung nordre" />
		<tag k="name" v="Holtung" />
		<tag k="place" v="farm" />
		<tag k="ssr:stedsnr" v="912182" />
	</node>
	<node id="-209879" lat="59.4525416704" lon="10.2853611123">
		<tag k="name" v="Olumstad" />
		<tag k="place" v="farm" />
		<tag k="ssr:stedsnr" v="912069" />
	</node>
	<node id="-209878" lat="59.4672666648" lon="10.3452500061">
		<tag k="name" v="Almedalen" />
		<tag k="place" v="farm" />
		<tag k="ssr:stedsnr" v="913908" />
	</node>
	<node id="-209877" lat="59.4287916623" lon="10.1381583379">
		<tag k="fixme" v="consider place=hamlet" />
		<tag k="name" v="Nedre Vivestad" />
		<tag k="place" v="farm" />
		<tag k="ssr:stedsnr" v="909029" />
	</node>
	<node id="-209873" lat="59.4280249966" lon="10.3149444405">
		<tag k="name" v="Haugestad nordre" />
		<tag k="place" v="farm" />
		<tag k="ssr:stedsnr" v="877902" />
	</node>
	<node id="-209872" lat="59.4267694426" lon="10.3174777859">
		<tag k="name" v="Haugestad søndre" />
		<tag k="place" v="farm" />
		<tag k="ssr:stedsnr" v="877900" />
	</node>
	<node id="-209870" lat="59.4258250035" lon="10.3023888932">
		<tag k="name" v="Sørby" />
		<tag k="place" v="farm" />
		<tag k="ssr:stedsnr" v="877895" />
	</node>
	<node id="-209868" lat="59.4137416681" lon="10.3353555554">
		<tag k="name" v="Bakke" />
		<tag k="place" v="farm" />
		<tag k="ssr:stedsnr" v="877845" />
	</node>
	<node id="-209867" lat="59.4171333325" lon="10.3340749975">
		<tag k="name" v="Haugan nordre" />
		<tag k="place" v="farm" />
		<tag k="ssr:stedsnr" v="877842" />
	</node>
	<node id="-209866" lat="59.3995611073" lon="10.3431500075">
		<tag k="name" v="Linneflåtten" />
		<tag k="place" v="farm" />
		<tag k="ssr:stedsnr" v="877803" />
	</node>
	<node id="-209864" lat="59.3879083368" lon="10.3544055622">
		<tag k="name" v="Nyerrød-Bergan" />
		<tag k="place" v="farm" />
		<tag k="ssr:stedsnr" v="877799" />
	</node>
	<node id="-209863" lat="59.3249499977" lon="10.3340888945">
		<tag k="name" v="Freste" />
		<tag k="place" v="farm" />
		<tag k="ssr:stedsnr" v="877789" />
	</node>
	<node id="-209862" lat="59.3648000044" lon="10.3112027802">
		<tag k="name" v="Venås s." />
		<tag k="place" v="farm" />
		<tag k="ssr:stedsnr" v="877756" />
	</node>
	<node id="-209861" lat="59.3587111124" lon="10.3586527847">
		<tag k="name" v="Lefsaker" />
		<tag k="place" v="farm" />
		<tag k="ssr:stedsnr" v="877743" />
	</node>
	<node id="-209860" lat="59.363358331" lon="10.3386444531">
		<tag k="name" v="Heum søndre" />
		<tag k="place" v="farm" />
		<tag k="ssr:stedsnr" v="877742" />
	</node>
	<node id="-209859" lat="59.3385388918" lon="10.2870694522">
		<tag k="name" v="Klopp v" />
		<tag k="place" v="farm" />
		<tag k="ssr:stedsnr" v="877737" />
	</node>
	<node id="-209858" lat="59.3485055513" lon="10.2790166698">
		<tag k="name" v="Heian n" />
		<tag k="place" v="farm" />
		<tag k="ssr:stedsnr" v="877736" />
	</node>
	<node id="-209855" lat="59.3275694406" lon="10.2978111083">
		<tag k="name" v="Klopp" />
		<tag k="place" v="farm" />
		<tag k="ssr:stedsnr" v="877675" />
	</node>
	<node id="-209852" lat="59.3842138876" lon="10.226933329">
		<tag k="name" v="Svingen" />
		<tag k="place" v="isolated_dwelling" />
		<tag k="ssr:stedsnr" v="877602" />
	</node>
	<node id="-209846" lat="59.4296555571" lon="10.1832833332">
		<tag k="name" v="Ødefjell søndre" />
		<tag k="place" v="farm" />
		<tag k="ssr:stedsnr" v="877548" />
	</node>
	<node id="-209845" lat="59.4326111104" lon="10.2025972307">
		<tag k="name" v="Kranstad nedre" />
		<tag k="place" v="farm" />
		<tag k="ssr:stedsnr" v="877545" />
	</node>
	<node id="-209842" lat="59.3661888913" lon="10.2466833256">
		<tag k="name" v="Bergan" />
		<tag k="place" v="isolated_dwelling" />
		<tag k="ssr:stedsnr" v="877387" />
	</node>
	<node id="-209836" lat="59.4133666706" lon="10.2383722158">
		<tag k="name" v="Hegg bruk" />
		<tag k="place" v="farm" />
		<tag k="ssr:stedsnr" v="877345" />
	</node>
	<node id="-209835" lat="59.4125416656" lon="10.2049027855">
		<tag k="name" v="Fon" />
		<tag k="place" v="farm" />
		<tag k="ssr:stedsnr" v="877341" />
	</node>
	<node id="-209831" lat="59.3370500015" lon="10.2623083312">
		<tag k="name" v="Jare nordre" />
		<tag k="place" v="farm" />
		<tag k="ssr:stedsnr" v="877301" />
	</node>
	<node id="-209829" lat="59.416716668" lon="10.1370416672">
		<tag k="name" v="Lusserin" />
		<tag k="place" v="locality" />
		<tag k="ssr:stedsnr" v="877190" />
	</node>
	<node id="-209823" lat="59.4222222226" lon="10.1155666736">
		<tag k="name" v="Nordre Teien" />
		<tag k="place" v="locality" />
		<tag k="ssr:stedsnr" v="877024" />
	</node>
	<node id="-209821" lat="59.4404388898" lon="10.0964444399">
		<tag k="name" v="Øvre O" />
		<tag k="place" v="farm" />
		<tag k="ssr:stedsnr" v="877012" />
	</node>
	<node id="-209820" lat="59.42307222" lon="10.0743000065">
		<tag k="historic" v="shieling" />
		<tag k="name" v="Bjørndalsseter" />
		<tag k="place" v="locality" />
		<tag k="ssr:stedsnr" v="877009" />
	</node>
	<node id="-209817" lat="59.3126638925" lon="10.2765833309">
		<tag k="alt_name" v="Aslaksrød" />
		<tag k="name" v="Aslakrød" />
		<tag k="place" v="isolated_dwelling" />
		<tag k="ssr:stedsnr" v="853844" />
	</node>
	<node id="-209815" lat="59.4713361068" lon="10.34521667">
		<tag k="name" v="Verven" />
		<tag k="place" v="farm" />
		<tag k="ssr:stedsnr" v="852899" />
	</node>
	<node id="-209814" lat="59.3526333343" lon="10.2484138971">
		<tag k="name" v="Tufte" />
		<tag k="place" v="farm" />
		<tag k="ssr:stedsnr" v="852744" />
	</node>
	<node id="-209813" lat="59.3477861093" lon="10.3252555526">
		<tag k="alt_name" v="Dal, østre;Dal ø.;Dal ø" />
		<tag k="name" v="Østre Dal" />
		<tag k="place" v="farm" />
		<tag k="ssr:stedsnr" v="852723" />
	</node>
	<node id="-209812" lat="59.3422444403" lon="10.2824416659">
		<tag k="alt_name" v="Heian s" />
		<tag k="name" v="Heian" />
		<tag k="place" v="farm" />
		<tag k="ssr:stedsnr" v="852722" />
	</node>
	<node id="-209811" lat="59.3468916666" lon="10.2204166706">
		<tag k="name" v="Skytøya" />
		<tag k="place" v="farm" />
		<tag k="ssr:stedsnr" v="852716" />
	</node>
	<node id="-209810" lat="59.3737888907" lon="10.3642861166">
		<tag k="name" v="Nordby" />
		<tag k="place" v="farm" />
		<tag k="ssr:stedsnr" v="852546" />
	</node>
	<node id="-209809" lat="59.3938999966" lon="10.2786694509">
		<tag k="name" v="Tangen" />
		<tag k="place" v="farm" />
		<tag k="ssr:stedsnr" v="852255" />
	</node>
	<node id="-209808" lat="59.3957833356" lon="10.3095583256">
		<tag k="name" v="Verp" />
		<tag k="place" v="farm" />
		<tag k="ssr:stedsnr" v="852244" />
	</node>
	<node id="-209807" lat="59.3816749981" lon="10.2824333287">
		<tag k="name" v="Ormestad" />
		<tag k="place" v="farm" />
		<tag k="ssr:stedsnr" v="852205" />
	</node>
	<node id="-209806" lat="59.3697916639" lon="10.2482000029">
		<tag k="name" v="Gullbrår" />
		<tag k="place" v="farm" />
		<tag k="ssr:stedsnr" v="852200" />
	</node>
	<node id="-209805" lat="59.4313416659" lon="10.219244448">
		<tag k="alt_name" v="Bakstevold mellom" />
		<tag k="name" v="Bakstvål" />
		<tag k="place" v="farm" />
		<tag k="ssr:stedsnr" v="852193" />
	</node>
	<node id="-209804" lat="59.4174138863" lon="10.1082583273">
		<tag k="name" v="Låne" />
		<tag k="place" v="farm" />
		<tag k="ssr:stedsnr" v="852176" />
	</node>
	<node id="-209803" lat="59.4377027795" lon="10.2007305565">
		<tag k="name" v="Herkjeft" />
		<tag k="place" v="farm" />
		<tag k="ssr:stedsnr" v="852172" />
	</node>
	<node id="-209802" lat="59.434149996" lon="10.1866416702">
		<tag k="alt_name" v="Hvam søndre" />
		<tag k="name" v="Hvam" />
		<tag k="place" v="farm" />
		<tag k="ssr:stedsnr" v="852171" />
	</node>
	<node id="-209800" lat="59.4159499965" lon="10.2591638854">
		<tag k="alt_name" v="Hotvedt" />
		<tag k="name" v="Hotvet" />
		<tag k="place" v="farm" />
		<tag k="ssr:stedsnr" v="852144" />
	</node>
	<node id="-209799" lat="59.4197083289" lon="10.2529416747">
		<tag k="name" v="Svinevoll" />
		<tag k="place" v="farm" />
		<tag k="ssr:stedsnr" v="852142" />
	</node>
	<node id="-209798" lat="59.4193055574" lon="10.3068749955">
		<tag k="alt_name" v="Sørby mellom" />
		<tag k="name" v="Sørby" />
		<tag k="place" v="isolated_dwelling" />
		<tag k="ssr:stedsnr" v="852135" />
	</node>
	<node id="-209797" lat="59.4151888881" lon="10.0685249935">
		<tag k="alt_name" v="Låneseter" />
		<tag k="name" v="Lånesetra" />
		<tag k="place" v="isolated_dwelling" />
		<tag k="ssr:stedsnr" v="852130" />
	</node>
	<node id="-209796" lat="59.4520444477" lon="10.0837250074">
		<tag k="name" v="Bergan" />
		<tag k="place" v="farm" />
		<tag k="ssr:stedsnr" v="852122" />
	</node>
	<node id="-209795" lat="59.4618833328" lon="10.1854777766">
		<tag k="name" v="Haga" />
		<tag k="place" v="farm" />
		<tag k="ssr:stedsnr" v="852112" />
	</node>
	<node id="-209794" lat="59.4627944453" lon="10.1900805584">
		<tag k="alt_name" v="Sjuve" />
		<tag k="name" v="Sjue" />
		<tag k="place" v="farm" />
		<tag k="ssr:stedsnr" v="852113" />
	</node>
	<node id="-209791" lat="59.4389444418" lon="10.080149998">
		<tag k="name" v="Engeroa" />
		<tag k="place" v="farm" />
		<tag k="ssr:stedsnr" v="852089" />
	</node>
	<node id="-209790" lat="59.4345472225" lon="10.1167527823">
		<tag k="alt_name" v="Løn øvre;Østre Løn;Løn, østre" />
		<tag k="fixme" v="consider place=hamlet" />
		<tag k="name" v="Øvre Løn" />
		<tag k="place" v="farm" />
		<tag k="ssr:stedsnr" v="852090" />
	</node>
	<node id="-209789" lat="59.4489138907" lon="10.1666111195">
		<tag k="name" v="Sameieplassen" />
		<tag k="place" v="isolated_dwelling" />
		<tag k="ssr:stedsnr" v="852079" />
	</node>
	<node id="-209788" lat="59.4414999959" lon="10.2430277851">
		<tag k="alt_name" v="Rygg søndre" />
		<tag k="name" v="Ryk" />
		<tag k="place" v="farm" />
		<tag k="ssr:stedsnr" v="852080" />
	</node>
	<node id="-209786" lat="59.4377527796" lon="10.1121361154">
		<tag k="name" v="Løn" />
		<tag k="place" v="hamlet" />
		<tag k="ssr:stedsnr" v="849049" />
	</node>
	<node id="-209777" lat="59.4296027813" lon="10.3210777835">
		<tag k="name" v="Torp søndre" />
		<tag k="place" v="farm" />
		<tag k="ssr:stedsnr" v="816894" />
	</node>
	<node id="-209776" lat="59.441369445" lon="10.2876777812">
		<tag k="name" v="Holm søndre" />
		<tag k="place" v="farm" />
		<tag k="ssr:stedsnr" v="816890" />
	</node>
	<node id="-209775" lat="59.4230749996" lon="10.2726111185">
		<tag k="amenity" v="nursing_home" />
		<tag k="name" v="Våle hvilehjem" />
		<tag k="ssr:stedsnr" v="816888" />
	</node>
	<node id="-209774" lat="59.4080388852" lon="10.307347219">
		<tag k="name" v="Hals n." />
		<tag k="place" v="farm" />
		<tag k="ssr:stedsnr" v="816848" />
	</node>
	<node id="-209772" lat="59.3824000043" lon="10.3378138851">
		<tag k="name" v="Gjerpen" />
		<tag k="place" v="farm" />
		<tag k="ssr:stedsnr" v="816801" />
	</node>
	<node id="-209771" lat="59.3950888917" lon="10.2897527839">
		<tag k="name" v="Langås" />
		<tag k="place" v="farm" />
		<tag k="ssr:stedsnr" v="816797" />
	</node>
	<node id="-209770" lat="59.3987222227" lon="10.3253333328">
		<tag k="name" v="Grytnes" />
		<tag k="place" v="farm" />
		<tag k="ssr:stedsnr" v="816796" />
	</node>
	<node id="-209769" lat="59.3583777777" lon="10.2804611158">
		<tag k="name" v="Bø n." />
		<tag k="place" v="farm" />
		<tag k="ssr:stedsnr" v="816757" />
	</node>
	<node id="-209768" lat="59.3694416644" lon="10.3547583402">
		<tag k="name" v="Grette" />
		<tag k="place" v="farm" />
		<tag k="ssr:stedsnr" v="816754" />
	</node>
	<node id="-209766" lat="59.4694361133" lon="10.1954194493">
		<tag k="name" v="Ruteig" />
		<tag k="place" v="farm" />
		<tag k="ssr:stedsnr" v="816732" />
	</node>
	<node id="-209765" lat="59.4348055516" lon="10.2450833259">
		<tag k="name" v="Hjelmtvedt" />
		<tag k="place" v="farm" />
		<tag k="ssr:stedsnr" v="816690" />
	</node>
	<node id="-209764" lat="59.441683332" lon="10.2375222234">
		<tag k="name" v="Rygg vestre" />
		<tag k="place" v="farm" />
		<tag k="ssr:stedsnr" v="816685" />
	</node>
	<node id="-209763" lat="59.3878750031" lon="10.2536472292">
		<tag k="name" v="Nordre Fossan mølle" />
		<tag k="ssr:stedsnr" v="816622" />
		<tag k="tourism" v="hotel" />
	</node>
	<node id="-209760" lat="59.3501222228" lon="10.1985472156">
		<tag k="name" v="Fredli" />
		<tag k="place" v="isolated_dwelling" />
		<tag k="ssr:stedsnr" v="816358" />
	</node>
	<node id="-209759" lat="59.3761944407" lon="10.1620222276">
		<tag k="name" v="Gunnerød" />
		<tag k="place" v="farm" />
		<tag k="ssr:stedsnr" v="816330" />
	</node>
	<node id="-209758" lat="59.3843694448" lon="10.1748416591">
		<tag k="name" v="Bråten" />
		<tag k="place" v="farm" />
		<tag k="ssr:stedsnr" v="816311" />
	</node>
	<node id="-209755" lat="59.4201083366" lon="10.1354555506">
		<tag k="name" v="Kirkevivestad" />
		<tag k="place" v="farm" />
		<tag k="ssr:stedsnr" v="816197" />
	</node>
	<node id="-209750" lat="59.4491055554" lon="10.0892583395">
		<tag k="name" v="Orrevål" />
		<tag k="place" v="farm" />
		<tag k="ssr:stedsnr" v="816114" />
	</node>
	<node id="-209749" lat="59.3912361092" lon="10.1085833329">
		<tag k="name" v="Dulpen" />
		<tag k="place" v="locality" />
		<tag k="ssr:stedsnr" v="816092" />
	</node>
	<node id="-209747" lat="59.4323861087" lon="10.1320666737">
		<tag k="name" v="Haldorstuen" />
		<tag k="place" v="farm" />
		<tag k="ssr:stedsnr" v="816038" />
	</node>
	<node id="-209746" lat="59.4208222239" lon="10.1333638955">
		<tag k="fixme" v="consider place=hamlet" />
		<tag k="name" v="Vivestad mellom" />
		<tag k="place" v="farm" />
		<tag k="ssr:stedsnr" v="816022" />
	</node>
	<node id="-209744" lat="59.364802774" lon="10.2702416731">
		<tag k="name" v="Valleåsen" />
		<tag k="place" v="quarter" />
		<tag k="ssr:stedsnr" v="815359" />
	</node>
	<node id="-209743" lat="59.449225004" lon="10.3604250087">
		<tag k="name" v="Helland" />
		<tag k="place" v="farm" />
		<tag k="ssr:stedsnr" v="791957" />
	</node>
	<node id="-209742" lat="59.3269305529" lon="10.2332333413">
		<tag k="alt_name" v="Rolighet nedre" />
		<tag k="name" v="Rolighet" />
		<tag k="place" v="farm" />
		<tag k="ssr:stedsnr" v="791817" />
	</node>
	<node id="-209741" lat="59.3225000027" lon="10.3269638976">
		<tag k="name" v="Innlaget" />
		<tag k="place" v="farm" />
		<tag k="ssr:stedsnr" v="791798" />
	</node>
	<node id="-209740" lat="59.3573916639" lon="10.3422249969">
		<tag k="name" v="Amundrød" />
		<tag k="place" v="isolated_dwelling" />
		<tag k="ssr:stedsnr" v="791775" />
	</node>
	<node id="-209739" lat="59.3555305565" lon="10.3245944414">
		<tag k="alt_name" v="Bøteigen" />
		<tag k="name" v="Teigen" />
		<tag k="place" v="isolated_dwelling" />
		<tag k="ssr:stedsnr" v="791774" />
	</node>
	<node id="-209738" lat="59.3408138923" lon="10.317866668">
		<tag k="name" v="Kløv" />
		<tag k="place" v="farm" />
		<tag k="ssr:stedsnr" v="791753" />
	</node>
	<node id="-209737" lat="59.3417666658" lon="10.23903056">
		<tag k="name" v="Solberg" />
		<tag k="place" v="farm" />
		<tag k="ssr:stedsnr" v="791749" />
	</node>
	<node id="-209736" lat="59.3832333307" lon="10.3447361094">
		<tag k="alt_name" v="Fossås søndre" />
		<tag k="name" v="Fossås" />
		<tag k="place" v="farm" />
		<tag k="ssr:stedsnr" v="791523" />
	</node>
	<node id="-209735" lat="59.3880499959" lon="10.3497166642">
		<tag k="name" v="Nyerrød" />
		<tag k="place" v="farm" />
		<tag k="ssr:stedsnr" v="791512" />
	</node>
	<node id="-209734" lat="59.3989972252" lon="10.3723500076">
		<tag k="alt_name" v="Brekke nedre" />
		<tag k="name" v="Brekke" />
		<tag k="place" v="farm" />
		<tag k="ssr:stedsnr" v="791502" />
	</node>
	<node id="-209733" lat="59.3904527735" lon="10.2230388944">
		<tag k="name" v="Horn" />
		<tag k="place" v="farm" />
		<tag k="ssr:stedsnr" v="791246" />
	</node>
	<node id="-209732" lat="59.3826999992" lon="10.1988916718">
		<tag k="name" v="Askjer" />
		<tag k="place" v="farm" />
		<tag k="ssr:stedsnr" v="791237" />
	</node>
	<node id="-209731" lat="59.3888916656" lon="10.1649361082">
		<tag k="name" v="Botn" />
		<tag k="place" v="isolated_dwelling" />
		<tag k="ssr:stedsnr" v="791221" />
	</node>
	<node id="-209730" lat="59.3657777763" lon="10.2583444441">
		<tag k="name" v="Brår" />
		<tag k="place" v="farm" />
		<tag k="ssr:stedsnr" v="791203" />
	</node>
	<node id="-209729" lat="59.3738000015" lon="10.2125138909">
		<tag k="alt_name" v="Skar" />
		<tag k="name" v="Skår" />
		<tag k="place" v="farm" />
		<tag k="ssr:stedsnr" v="791190" />
	</node>
	<node id="-209727" lat="59.4323111127" lon="10.2479083247">
		<tag k="name" v="Huseby" />
		<tag k="place" v="farm" />
		<tag k="ssr:stedsnr" v="791167" />
	</node>
	<node id="-209726" lat="59.4087472181" lon="10.2056388952">
		<tag k="alt_name" v="Fon lille;Fon, l" />
		<tag k="name" v="Lille Fon" />
		<tag k="place" v="farm" />
		<tag k="ssr:stedsnr" v="791129" />
	</node>
	<node id="-209725" lat="59.4418111077" lon="10.3230277823">
		<tag k="alt_name" v="Hunsal" />
		<tag k="name" v="Hundsal" />
		<tag k="place" v="farm" />
		<tag k="ssr:stedsnr" v="791088" />
	</node>
	<node id="-209721" lat="59.3228638862" lon="10.3375361098">
		<tag k="name" v="Freste" />
		<tag k="place" v="farm" />
		<tag k="ssr:stedsnr" v="755900" />
	</node>
	<node id="-209719" lat="59.4108499958" lon="10.3205555586">
		<tag k="name" v="Sanderud" />
		<tag k="place" v="farm" />
		<tag k="ssr:stedsnr" v="755830" />
	</node>
	<node id="-209718" lat="59.419444446" lon="10.3058055556">
		<tag k="name" v="Våle el.verk" />
		<tag k="place" v="quarter" />
		<tag k="ssr:stedsnr" v="755826" />
	</node>
	<node id="-209717" lat="59.4105055582" lon="10.2699194524">
		<tag k="name" v="Kjær" />
		<tag k="place" v="farm" />
		<tag k="ssr:stedsnr" v="755823" />
	</node>
	<node id="-209716" lat="59.4182250021" lon="10.2760194373">
		<tag k="amenity" v="school" />
		<tag k="name" v="Kirkevoll skole" />
		<tag k="ssr:stedsnr" v="755819" />
	</node>
	<node id="-209715" lat="59.3820305576" lon="10.3014527797">
		<tag k="name" v="Tei-Berg" />
		<tag k="place" v="farm" />
		<tag k="ssr:stedsnr" v="755779" />
	</node>
	<node id="-209711" lat="59.3710944482" lon="10.3643472143">
		<tag k="amenity" v="school" />
		<tag k="name" v="Solerød skole" />
		<tag k="ssr:stedsnr" v="755728" />
	</node>
	<node id="-209710" lat="59.3500611088" lon="10.272547223">
		<tag k="name" v="Solheim" />
		<tag k="place" v="farm" />
		<tag k="ssr:stedsnr" v="755712" />
	</node>
	<node id="-209709" lat="59.3429666703" lon="10.3014361192">
		<tag k="name" v="Linnestad n" />
		<tag k="place" v="farm" />
		<tag k="ssr:stedsnr" v="755699" />
	</node>
	<node id="-209706" lat="59.333769447" lon="10.2691861128">
		<tag k="alt_name" v="Jare n" />
		<tag k="name" v="Jare" />
		<tag k="place" v="farm" />
		<tag k="ssr:stedsnr" v="755648" />
	</node>
	<node id="-209705" lat="59.3260388902" lon="10.2774694373">
		<tag k="name" v="Gulsrød" />
		<tag k="place" v="farm" />
		<tag k="ssr:stedsnr" v="755639" />
	</node>
	<node id="-209704" lat="59.4220527766" lon="10.203161112">
		<tag k="name" v="Fonstraene" />
		<tag k="place" v="locality" />
		<tag k="ssr:stedsnr" v="755627" />
	</node>
	<node id="-209702" lat="59.3901027823" lon="10.2495694436">
		<tag k="name" v="Fjeld" />
		<tag k="place" v="farm" />
		<tag k="ssr:stedsnr" v="755585" />
	</node>
	<node id="-209701" lat="59.3788944402" lon="10.1801111109">
		<tag k="name" v="Solbakken" />
		<tag k="place" v="farm" />
		<tag k="ssr:stedsnr" v="755578" />
	</node>
	<node id="-209700" lat="59.4498527818" lon="10.1876499916">
		<tag k="name" v="Revå" />
		<tag k="place" v="farm" />
		<tag k="ssr:stedsnr" v="755567" />
	</node>
	<node id="-209697" lat="59.4494388856" lon="10.2645166696">
		<tag k="name" v="Kornto vestre" />
		<tag k="place" v="farm" />
		<tag k="ssr:stedsnr" v="755553" />
	</node>
	<node id="-209688" lat="59.4163138846" lon="10.2572972233">
		<tag k="amenity" v="nursing_home" />
		<tag k="name" v="Solvoll pleiehjem" />
		<tag k="ssr:stedsnr" v="755320" />
	</node>
	<node id="-209686" lat="59.3438805599" lon="10.2427527808">
		<tag k="name" v="Krekan" />
		<tag k="place" v="farm" />
		<tag k="ssr:stedsnr" v="755294" />
	</node>
	<node id="-209685" lat="59.3505666667" lon="10.2461416595">
		<tag k="building" v="commercial" />
		<tag k="name" v="Ramnes samvirkelag" />
		<tag k="ssr:stedsnr" v="755290" />
	</node>
	<node id="-209678" lat="59.4474527788" lon="10.1500111123">
		<tag k="name" v="Kjellegrind" />
		<tag k="place" v="locality" />
		<tag k="ssr:stedsnr" v="755120" />
	</node>
	<node id="-209674" lat="59.3855333299" lon="10.1306999975">
		<tag k="name" v="Smidtsrød" />
		<tag k="place" v="farm" />
		<tag k="ssr:stedsnr" v="755090" />
	</node>
	<node id="-209669" lat="59.3149916644" lon="10.2515833253">
		<tag k="name" v="Rånerød" />
		<tag k="place" v="farm" />
		<tag k="ssr:stedsnr" v="731778" />
	</node>
	<node id="-209668" lat="59.3942611073" lon="10.3562861041">
		<tag k="name" v="Hasle" />
		<tag k="place" v="farm" />
		<tag k="ssr:stedsnr" v="731487" />
	</node>
	<node id="-209667" lat="59.4098555583" lon="10.271463882">
		<tag k="alt_name" v="Kjær søndre" />
		<tag k="name" v="Kjær" />
		<tag k="place" v="farm" />
		<tag k="ssr:stedsnr" v="731127" />
	</node>
	<node id="-209666" lat="59.4050027759" lon="10.2881416741">
		<tag k="alt_name" v="Skaug" />
		<tag k="name" v="Skog" />
		<tag k="place" v="farm" />
		<tag k="ssr:stedsnr" v="731123" />
	</node>
	<node id="-209665" lat="59.3591055559" lon="10.2263833296">
		<tag k="fixme" v="multiple name tags, choose one and add the other to alt_name" />
		<tag k="name" v="Stusrød;Studsrød n" />
		<tag k="place" v="farm" />
		<tag k="ssr:stedsnr" v="730803" />
	</node>
	<node id="-209664" lat="59.3387972264" lon="10.3456333393">
		<tag k="name" v="Holt" />
		<tag k="place" v="farm" />
		<tag k="ssr:stedsnr" v="730642" />
	</node>
	<node id="-209663" lat="59.354866671" lon="10.3736249978">
		<tag k="alt_name" v="Hem nordre" />
		<tag k="name" v="Hem" />
		<tag k="place" v="farm" />
		<tag k="ssr:stedsnr" v="730621" />
	</node>
	<node id="-209662" lat="59.370222223" lon="10.3940750024">
		<tag k="name" v="Råen" />
		<tag k="place" v="farm" />
		<tag k="ssr:stedsnr" v="730602" />
	</node>
	<node id="-209661" lat="59.3830249989" lon="10.3665388865">
		<tag k="name" v="Krokeborg" />
		<tag k="place" v="farm" />
		<tag k="ssr:stedsnr" v="730586" />
	</node>
	<node id="-209660" lat="59.3916416628" lon="10.3059805624">
		<tag k="name" v="Hengsrud" />
		<tag k="place" v="farm" />
		<tag k="ssr:stedsnr" v="730244" />
	</node>
	<node id="-209659" lat="59.3759629541" lon="10.3384927823">
		<tag k="name" v="Ollerød" />
		<tag k="place" v="farm" />
		<tag k="ssr:stedsnr" v="730211" />
	</node>
	<node id="-209658" lat="59.3606250006" lon="10.2756583416">
		<tag k="name" v="Hegna" />
		<tag k="place" v="farm" />
		<tag k="ssr:stedsnr" v="730209" />
	</node>
	<node id="-209656" lat="59.4251000022" lon="10.2506388937">
		<tag k="name" v="Bettum" />
		<tag k="place" v="farm" />
		<tag k="ssr:stedsnr" v="730187" />
	</node>
	<node id="-209655" lat="59.4207166662" lon="10.2619333263">
		<tag k="alt_name" v="Siltvedt" />
		<tag k="name" v="Siltvet" />
		<tag k="place" v="farm" />
		<tag k="ssr:stedsnr" v="730136" />
	</node>
	<node id="-209654" lat="59.4139083315" lon="10.209930557">
		<tag k="name" v="Krakken" />
		<tag k="place" v="farm" />
		<tag k="ssr:stedsnr" v="730133" />
	</node>
	<node id="-209652" lat="59.4486305547" lon="10.3287805545">
		<tag k="alt_name" v="Åsenden" />
		<tag k="name" v="Åsen" />
		<tag k="place" v="farm" />
		<tag k="ssr:stedsnr" v="730076" />
	</node>
	<node id="-209651" lat="59.4462499963" lon="10.2078416691">
		<tag k="alt_name" v="Kleven søndre" />
		<tag k="name" v="Kleiva" />
		<tag k="place" v="farm" />
		<tag k="ssr:stedsnr" v="730065" />
	</node>
	<node id="-209650" lat="59.4352277782" lon="10.3229638977">
		<tag k="alt_name" v="Kaldager" />
		<tag k="name" v="Kaldåker" />
		<tag k="place" v="farm" />
		<tag k="ssr:stedsnr" v="730167" />
	</node>
	<node id="-209645" lat="59.4547777796" lon="10.3611555498">
		<tag k="name" v="Sand" />
		<tag k="place" v="isolated_dwelling" />
		<tag k="ssr:stedsnr" v="695873" />
	</node>
	<node id="-209644" lat="59.4501583358" lon="10.324436108">
		<tag k="name" v="Åsenden" />
		<tag k="place" v="farm" />
		<tag k="ssr:stedsnr" v="695867" />
	</node>
	<node id="-209641" lat="59.3801583362" lon="10.3296416731">
		<tag k="name" v="Lofstad" />
		<tag k="place" v="farm" />
		<tag k="ssr:stedsnr" v="695784" />
	</node>
	<node id="-209640" lat="59.4460833331" lon="10.2833333364">
		<tag k="name" v="Holm østre" />
		<tag k="place" v="farm" />
		<tag k="ssr:stedsnr" v="695775" />
	</node>
	<node id="-209639" lat="59.4544305519" lon="10.2864805499">
		<tag k="name" v="Olumstad" />
		<tag k="place" v="farm" />
		<tag k="ssr:stedsnr" v="695773" />
	</node>
	<node id="-209636" lat="59.4340694411" lon="10.2215055529">
		<tag k="name" v="Bakstevold mellom" />
		<tag k="place" v="farm" />
		<tag k="ssr:stedsnr" v="695643" />
	</node>
	<node id="-209635" lat="59.4373027785" lon="10.218497226">
		<tag k="name" v="Bakstevold nordre" />
		<tag k="place" v="farm" />
		<tag k="ssr:stedsnr" v="695644" />
	</node>
	<node id="-209634" lat="59.4301305596" lon="10.2225833295">
		<tag k="name" v="Bakstevold lille" />
		<tag k="place" v="farm" />
		<tag k="ssr:stedsnr" v="695642" />
	</node>
	<node id="-209630" lat="59.4378472256" lon="10.1995277803">
		<tag k="name" v="Herkjeft øvre" />
		<tag k="place" v="farm" />
		<tag k="ssr:stedsnr" v="695536" />
	</node>
	<node id="-209628" lat="59.4360833374" lon="10.1776527726">
		<tag k="name" v="Skotvedt østre" />
		<tag k="place" v="farm" />
		<tag k="ssr:stedsnr" v="695528" />
	</node>
	<node id="-209626" lat="59.36035833" lon="10.2506166621">
		<tag k="amenity" v="sports_centre" />
		<tag k="name" v="Ramneshallen" />
		<tag k="ssr:stedsnr" v="695398" />
	</node>
	<node id="-209616" lat="59.3463944402" lon="10.2578611183">
		<tag k="name" v="Ramnes søndre" />
		<tag k="place" v="farm" />
		<tag k="ssr:stedsnr" v="695308" />
	</node>
	<node id="-209615" lat="59.3463638876" lon="10.2488694415">
		<tag k="name" v="Stange" />
		<tag k="place" v="farm" />
		<tag k="ssr:stedsnr" v="695305" />
	</node>
	<node id="-209613" lat="59.418994447" lon="10.1744249949">
		<tag k="historic" v="shieling" />
		<tag k="name" v="Myrseter" />
		<tag k="place" v="locality" />
		<tag k="ssr:stedsnr" v="695284" />
	</node>
	<node id="-209612" lat="59.4074638858" lon="10.1357444434">
		<tag k="name" v="Langved s." />
		<tag k="place" v="farm" />
		<tag k="ssr:stedsnr" v="695189" />
	</node>
	<node id="-209598" lat="59.3339194459" lon="10.334299998">
		<tag k="alt_name" v="Bjune søndre" />
		<tag k="name" v="Bjune" />
		<tag k="place" v="farm" />
		<tag k="ssr:stedsnr" v="670787" />
	</node>
	<node id="-209597" lat="59.3163305588" lon="10.3064138862">
		<tag k="name" v="Klepperås" />
		<tag k="place" v="farm" />
		<tag k="ssr:stedsnr" v="670777" />
	</node>
	<node id="-209596" lat="59.3293305583" lon="10.3236083383">
		<tag k="name" v="Førum" />
		<tag k="place" v="farm" />
		<tag k="ssr:stedsnr" v="670766" />
	</node>
	<node id="-209595" lat="59.3472666662" lon="10.3635750083">
		<tag k="alt_name" v="Vold" />
		<tag k="name" v="Voll" />
		<tag k="place" v="farm" />
		<tag k="ssr:stedsnr" v="670552" />
	</node>
	<node id="-209594" lat="59.3669555561" lon="10.2629083342">
		<tag k="alt_name" v="Teien" />
		<tag k="name" v="Teigen" />
		<tag k="place" v="farm" />
		<tag k="ssr:stedsnr" v="670210" />
	</node>
	<node id="-209593" lat="59.3627583297" lon="10.1963583418">
		<tag k="name" v="Gislerød" />
		<tag k="place" v="farm" />
		<tag k="ssr:stedsnr" v="670209" />
	</node>
	<node id="-209591" lat="59.4068777795" lon="10.2089249963">
		<tag k="name" v="Lislebø" />
		<tag k="place" v="farm" />
		<tag k="ssr:stedsnr" v="670155" />
	</node>
	<node id="-209590" lat="59.4103250038" lon="10.2348555636">
		<tag k="name" v="Vika" />
		<tag k="place" v="farm" />
		<tag k="ssr:stedsnr" v="670153" />
	</node>
	<node id="-209589" lat="59.4037444427" lon="10.1354305515">
		<tag k="name" v="Lunde" />
		<tag k="place" v="farm" />
		<tag k="ssr:stedsnr" v="670144" />
	</node>
	<node id="-209587" lat="59.410191664" lon="10.1429249988">
		<tag k="name" v="Orerød" />
		<tag k="place" v="farm" />
		<tag k="ssr:stedsnr" v="670127" />
	</node>
	<node id="-209584" lat="59.3704416661" lon="10.3784916727">
		<tag k="alt_name" v="Solerød nordre" />
		<tag k="name" v="Solerød" />
		<tag k="place" v="farm" />
		<tag k="ssr:stedsnr" v="669572" />
	</node>
	<node id="-209583" lat="59.3784749965" lon="10.3475999988">
		<tag k="alt_name" v="Gjerpen nedre" />
		<tag k="name" v="Gjerpen" />
		<tag k="place" v="farm" />
		<tag k="ssr:stedsnr" v="669555" />
	</node>
	<node id="-209582" lat="59.4234055553" lon="10.1995194367">
		<tag k="alt_name" v="Sulutvedt vestre" />
		<tag k="name" v="Sulutvet" />
		<tag k="place" v="farm" />
		<tag k="ssr:stedsnr" v="669159" />
	</node>
	<node id="-209581" lat="59.4362333353" lon="10.1706527712">
		<tag k="alt_name" v="Skotvedt vestre" />
		<tag k="name" v="Skotvet" />
		<tag k="place" v="farm" />
		<tag k="ssr:stedsnr" v="669148" />
	</node>
	<node id="-209580" lat="59.4429361141" lon="10.2193611025">
		<tag k="name" v="Kongsteigen" />
		<tag k="place" v="farm" />
		<tag k="ssr:stedsnr" v="669059" />
	</node>
	<node id="-209579" lat="59.4501638922" lon="10.2105527729">
		<tag k="fixme" v="consider place=hamlet" />
		<tag k="name" v="Kalsrud" />
		<tag k="place" v="farm" />
		<tag k="ssr:stedsnr" v="669048" />
	</node>
	<node id="-209578" lat="59.3888333298" lon="10.3331916698">
		<tag k="name" v="Knapstad" />
		<tag k="place" v="farm" />
		<tag k="ssr:stedsnr" v="669231" />
	</node>
	<node id="-209577" lat="59.3892749988" lon="10.2326499982">
		<tag k="alt_name" v="Firing v." />
		<tag k="name" v="Firing" />
		<tag k="place" v="farm" />
		<tag k="ssr:stedsnr" v="669227" />
	</node>
	<node id="-209576" lat="59.3941444471" lon="10.3063416624">
		<tag k="name" v="Tufte" />
		<tag k="place" v="farm" />
		<tag k="ssr:stedsnr" v="669226" />
	</node>
	<node id="-209575" lat="59.4010666627" lon="10.3100444473">
		<tag k="name" v="Klevjer" />
		<tag k="place" v="farm" />
		<tag k="ssr:stedsnr" v="669218" />
	</node>
	<node id="-209570" lat="59.4257944432" lon="10.2706361055">
		<tag k="name" v="Våle prestegård" />
		<tag k="place" v="farm" />
		<tag k="ssr:stedsnr" v="633894" />
	</node>
	<node id="-209568" lat="59.3869472244" lon="10.2809250001">
		<tag k="name" v="Ormestad" />
		<tag k="place" v="farm" />
		<tag k="ssr:stedsnr" v="633850" />
	</node>
	<node id="-209567" lat="59.3909583377" lon="10.2779277867">
		<tag k="name" v="Rønningen" />
		<tag k="place" v="isolated_dwelling" />
		<tag k="ssr:stedsnr" v="633849" />
	</node>
	<node id="-209566" lat="59.3407972247" lon="10.3368861069">
		<tag k="name" v="Horn" />
		<tag k="place" v="farm" />
		<tag k="ssr:stedsnr" v="633825" />
	</node>
	<node id="-209562" lat="59.3710555551" lon="10.334797226">
		<tag k="name" v="Grøum" />
		<tag k="place" v="farm" />
		<tag k="ssr:stedsnr" v="633743" />
	</node>
	<node id="-209560" lat="59.424133332" lon="10.2276916608">
		<tag k="name" v="Borge" />
		<tag k="place" v="farm" />
		<tag k="ssr:stedsnr" v="633653" />
	</node>
	<node id="-209559" lat="59.4271444441" lon="10.2357944516">
		<tag k="name" v="Borge nordre" />
		<tag k="place" v="farm" />
		<tag k="ssr:stedsnr" v="633647" />
	</node>
	<node id="-209553" lat="59.4445444403" lon="10.2091972185">
		<tag k="name" v="Kleven søndre" />
		<tag k="place" v="farm" />
		<tag k="ssr:stedsnr" v="633556" />
	</node>
	<node id="-209551" lat="59.4432555514" lon="10.1656833302">
		<tag k="name" v="Fjellstua" />
		<tag k="place" v="isolated_dwelling" />
		<tag k="ssr:stedsnr" v="633533" />
	</node>
	<node id="-209550" lat="59.3603222178" lon="10.2540472284">
		<tag k="name" v="Berg østre" />
		<tag k="place" v="farm" />
		<tag k="ssr:stedsnr" v="633408" />
	</node>
	<node id="-209548" lat="59.3565749986" lon="10.2476277768">
		<tag k="name" v="Berg mellom" />
		<tag k="place" v="farm" />
		<tag k="ssr:stedsnr" v="633401" />
	</node>
	<node id="-209546" lat="59.3141277762" lon="10.2495527757">
		<tag k="name" v="Rånerød" />
		<tag k="place" v="locality" />
		<tag k="ssr:stedsnr" v="633345" />
	</node>
	<node id="-209545" lat="59.4199416672" lon="10.2409749957">
		<tag k="name" v="Borge øvre" />
		<tag k="place" v="farm" />
		<tag k="ssr:stedsnr" v="633341" />
	</node>
	<node id="-209544" lat="59.4138083329" lon="10.267663884">
		<tag k="name" v="Nåla" />
		<tag k="place" v="farm" />
		<tag k="ssr:stedsnr" v="633337" />
	</node>
	<node id="-209542" lat="59.384605553" lon="10.1623250022">
		<tag k="name" v="Kjønnerød" />
		<tag k="place" v="farm" />
		<tag k="ssr:stedsnr" v="633322" />
	</node>
	<node id="-209540" lat="59.395036111" lon="10.1781194411">
		<tag k="historic" v="shieling" />
		<tag k="name" v="Bjørnseter" />
		<tag k="place" v="locality" />
		<tag k="ssr:stedsnr" v="633313" />
	</node>
	<node id="-209530" lat="59.3839472225" lon="10.1332083413">
		<tag k="name" v="Eikenes" />
		<tag k="place" v="farm" />
		<tag k="ssr:stedsnr" v="633097" />
	</node>
	<node id="-209527" lat="59.393319445" lon="10.0573888969">
		<tag k="name" v="Rundby" />
		<tag k="place" v="locality" />
		<tag k="ssr:stedsnr" v="633083" />
	</node>
	<node id="-209525" lat="59.4326805573" lon="10.1350972299">
		<tag k="name" v="Engen" />
		<tag k="place" v="farm" />
		<tag k="ssr:stedsnr" v="633033" />
	</node>
	<node id="-209523" lat="59.4393027756" lon="10.123258336">
		<tag k="name" v="Stubben" />
		<tag k="place" v="farm" />
		<tag k="ssr:stedsnr" v="633022" />
	</node>
	<node id="-209521" lat="59.3339083339" lon="10.2680500059">
		<tag k="name" v="Jare" />
		<tag k="place" v="farm" />
		<tag k="ssr:stedsnr" v="609768" />
	</node>
	<node id="-209520" lat="59.3197194443" lon="10.323902782">
		<tag k="name" v="Toen" />
		<tag k="place" v="farm" />
		<tag k="ssr:stedsnr" v="609764" />
	</node>
	<node id="-209519" lat="59.4066277814" lon="10.2255611119">
		<tag k="alt_name" v="Skrikestad, østre;Skrikestad nedre" />
		<tag k="name" v="Østre Skrikestad" />
		<tag k="place" v="farm" />
		<tag k="ssr:stedsnr" v="609211" />
	</node>
	<node id="-209518" lat="59.4248166642" lon="10.235241672">
		<tag k="alt_name" v="Borge søndre" />
		<tag k="name" v="Borge" />
		<tag k="place" v="farm" />
		<tag k="ssr:stedsnr" v="609182" />
	</node>
	<node id="-209517" lat="59.4204083336" lon="10.1411166645">
		<tag k="alt_name" v="Vallemrød" />
		<tag k="name" v="Vallumrød" />
		<tag k="place" v="farm" />
		<tag k="ssr:stedsnr" v="609168" />
	</node>
	<node id="-209516" lat="59.4114583377" lon="10.2885444359">
		<tag k="name" v="Brekke" />
		<tag k="place" v="farm" />
		<tag k="ssr:stedsnr" v="609158" />
	</node>
	<node id="-209514" lat="59.4197166694" lon="10.2194444374">
		<tag k="alt_name" v="Myre, nordre" />
		<tag k="name" v="Nordre Myre" />
		<tag k="place" v="farm" />
		<tag k="ssr:stedsnr" v="609136" />
	</node>
	<node id="-209513" lat="59.3719638853" lon="10.3462611153">
		<tag k="name" v="Liverød" />
		<tag k="place" v="farm" />
		<tag k="ssr:stedsnr" v="608595" />
	</node>
	<node id="-209512" lat="59.398088889" lon="10.3337583316">
		<tag k="name" v="Grøtås" />
		<tag k="place" v="farm" />
		<tag k="ssr:stedsnr" v="608219" />
	</node>
	<node id="-209511" lat="59.3783805518" lon="10.3269444429">
		<tag k="name" v="Lofstad" />
		<tag k="place" v="farm" />
		<tag k="ssr:stedsnr" v="608189" />
	</node>
	<node id="-209510" lat="59.434900003" lon="10.2701138899">
		<tag k="name" v="Gjelstad" />
		<tag k="place" v="farm" />
		<tag k="ssr:stedsnr" v="608157" />
	</node>
	<node id="-209509" lat="59.4469500033" lon="10.3032277831">
		<tag k="alt_name" v="Håkestad søndre" />
		<tag k="name" v="Håkastad" />
		<tag k="place" v="farm" />
		<tag k="ssr:stedsnr" v="608080" />
	</node>
	<node id="-209508" lat="59.443125" lon="10.1662694386">
		<tag k="alt_name" v="Lian nordre" />
		<tag k="name" v="Lian" />
		<tag k="place" v="locality" />
		<tag k="ssr:stedsnr" v="608070" />
	</node>
	<node id="-209507" lat="59.4539999988" lon="10.3311249943">
		<tag k="name" v="Gunnestad" />
		<tag k="place" v="farm" />
		<tag k="ssr:stedsnr" v="608058" />
	</node>
	<node id="-209506" lat="59.456324999" lon="10.2624500005">
		<tag k="name" v="Solheim" />
		<tag k="place" v="farm" />
		<tag k="ssr:stedsnr" v="608056" />
	</node>
	<node id="-209501" lat="59.4357166647" lon="10.3024444416">
		<tag k="name" v="Haraldstad søndre" />
		<tag k="place" v="farm" />
		<tag k="ssr:stedsnr" v="573869" />
	</node>
	<node id="-209500" lat="59.4409416657" lon="10.2790055538">
		<tag k="name" v="Sørum nordre" />
		<tag k="place" v="farm" />
		<tag k="ssr:stedsnr" v="573862" />
	</node>
	<node id="-209499" lat="59.456350003" lon="10.3611999963">
		<tag k="name" v="Sand camping" />
		<tag k="ssr:stedsnr" v="573856" />
		<tag k="tourism" v="camp_site" />
	</node>
	<node id="-209497" lat="59.4526000004" lon="10.3501666734">
		<tag k="name" v="Snekkestad vestre" />
		<tag k="place" v="farm" />
		<tag k="ssr:stedsnr" v="573855" />
	</node>
	<node id="-209493" lat="59.421305555" lon="10.3302944464">
		<tag k="name" v="Haugan nordre" />
		<tag k="place" v="farm" />
		<tag k="ssr:stedsnr" v="573811" />
	</node>
	<node id="-209492" lat="59.4168805587" lon="10.2811416745">
		<tag k="name" v="Fjellborg" />
		<tag k="place" v="farm" />
		<tag k="ssr:stedsnr" v="573788" />
	</node>
	<node id="-209491" lat="59.3487249988" lon="10.3660916726">
		<tag k="name" v="Vold" />
		<tag k="place" v="farm" />
		<tag k="ssr:stedsnr" v="573786" />
	</node>
	<node id="-209489" lat="59.4470666696" lon="10.2825638905">
		<tag k="name" v="Holm" />
		<tag k="place" v="farm" />
		<tag k="ssr:stedsnr" v="573769" />
	</node>
	<node id="-209488" lat="59.3842388892" lon="10.2860000069">
		<tag k="name" v="Solvang" />
		<tag k="place" v="farm" />
		<tag k="ssr:stedsnr" v="573759" />
	</node>
	<node id="-209487" lat="59.3261972186" lon="10.3438444368">
		<tag k="name" v="Smaleng" />
		<tag k="place" v="farm" />
		<tag k="ssr:stedsnr" v="573756" />
	</node>
	<node id="-209486" lat="59.3752583304" lon="10.3168194526">
		<tag k="name" v="Dal søndre" />
		<tag k="place" v="farm" />
		<tag k="ssr:stedsnr" v="573729" />
	</node>
	<node id="-209482" lat="59.356733336" lon="10.2975972221">
		<tag k="name" v="Sand" />
		<tag k="place" v="farm" />
		<tag k="ssr:stedsnr" v="573705" />
	</node>
	<node id="-209481" lat="59.344919443" lon="10.2792527853">
		<tag k="name" v="Heian m" />
		<tag k="place" v="farm" />
		<tag k="ssr:stedsnr" v="573699" />
	</node>
	<node id="-209479" lat="59.4701416669" lon="10.1768416742">
		<tag k="name" v="Ende" />
		<tag k="place" v="farm" />
		<tag k="ssr:stedsnr" v="573688" />
	</node>
	<node id="-209475" lat="59.4268222179" lon="10.2508833247">
		<tag k="name" v="Bettum" />
		<tag k="place" v="farm" />
		<tag k="ssr:stedsnr" v="573617" />
	</node>
	<node id="-209474" lat="59.4342805557" lon="10.2140138956">
		<tag k="name" v="Bakstevold mellom" />
		<tag k="place" v="farm" />
		<tag k="ssr:stedsnr" v="573611" />
	</node>
	<node id="-209473" lat="59.3889777772" lon="10.2456694411">
		<tag k="name" v="Skogly" />
		<tag k="place" v="farm" />
		<tag k="ssr:stedsnr" v="573549" />
	</node>
	<node id="-209470" lat="59.426994441" lon="10.1977694433">
		<tag k="name" v="Holtung søndre" />
		<tag k="place" v="farm" />
		<tag k="ssr:stedsnr" v="573499" />
	</node>
	<node id="-209465" lat="59.3774388862" lon="10.1646166713">
		<tag k="name" v="Gunnerød" />
		<tag k="place" v="farm" />
		<tag k="ssr:stedsnr" v="573320" />
	</node>
	<node id="-209464" lat="59.4219472198" lon="10.2386777797">
		<tag k="name" v="Borge" />
		<tag k="place" v="farm" />
		<tag k="ssr:stedsnr" v="573319" />
	</node>
	<node id="-209462" lat="59.3902611071" lon="10.2013277766">
		<tag k="name" v="Tomta" />
		<tag k="place" v="locality" />
		<tag k="ssr:stedsnr" v="573286" />
	</node>
	<node id="-209460" lat="59.347163887" lon="10.2520833332">
		<tag k="name" v="Ramnes" />
		<tag k="place" v="farm" />
		<tag k="ssr:stedsnr" v="573273" />
	</node>
	<node id="-209454" lat="59.4104250032" lon="10.1139888933">
		<tag k="name" v="Låne s." />
		<tag k="place" v="farm" />
		<tag k="ssr:stedsnr" v="573183" />
	</node>
	<node id="-209452" lat="59.3962500022" lon="10.1249694517">
		<tag k="name" v="Lunderønningen" />
		<tag k="place" v="farm" />
		<tag k="ssr:stedsnr" v="573068" />
	</node>
	<node id="-209451" lat="59.3913111074" lon="10.1169861149">
		<tag k="name" v="Kjonevollen" />
		<tag k="place" v="farm" />
		<tag k="ssr:stedsnr" v="573058" />
	</node>
	<node id="-209447" lat="59.3268777751" lon="10.2793694438">
		<tag k="name" v="Jarberg" />
		<tag k="place" v="quarter" />
		<tag k="ssr:stedsnr" v="572387" />
	</node>
	<node id="-209446" lat="59.3202333321" lon="10.2709861177">
		<tag k="name" v="Kamfjord" />
		<tag k="place" v="farm" />
		<tag k="ssr:stedsnr" v="549773" />
	</node>
	<node id="-209445" lat="59.3314027749" lon="10.3079944483">
		<tag k="name" v="Reine" />
		<tag k="place" v="farm" />
		<tag k="ssr:stedsnr" v="548802" />
	</node>
	<node id="-209444" lat="59.3590555596" lon="10.3009305598">
		<tag k="name" v="Langemyr" />
		<tag k="place" v="farm" />
		<tag k="ssr:stedsnr" v="548769" />
	</node>
	<node id="-209442" lat="59.3568916687" lon="10.211330559">
		<tag k="alt_name" v="Fjelebua" />
		<tag k="name" v="Fjælebua" />
		<tag k="place" v="farm" />
		<tag k="ssr:stedsnr" v="548762" />
	</node>
	<node id="-209441" lat="59.3602444412" lon="10.2186805485">
		<tag k="alt_name" v="Grøtterød" />
		<tag k="name" v="Grøterud" />
		<tag k="place" v="farm" />
		<tag k="ssr:stedsnr" v="548760" />
	</node>
	<node id="-209440" lat="59.3826249973" lon="10.355947219">
		<tag k="alt_name" v="Langklep søndre" />
		<tag k="name" v="Langklepp" />
		<tag k="place" v="farm" />
		<tag k="ssr:stedsnr" v="548553" />
	</node>
	<node id="-209439" lat="59.3862777816" lon="10.1070305519">
		<tag k="name" v="Eikeberg" />
		<tag k="place" v="farm" />
		<tag k="ssr:stedsnr" v="548240" />
	</node>
	<node id="-209438" lat="59.4025555538" lon="10.2073083272">
		<tag k="name" v="Heierstad" />
		<tag k="place" v="farm" />
		<tag k="ssr:stedsnr" v="548238" />
	</node>
	<node id="-209437" lat="59.40206389" lon="10.2597055631">
		<tag k="alt_name" v="Bakke, vestre" />
		<tag k="name" v="Vestre Bakke" />
		<tag k="place" v="farm" />
		<tag k="ssr:stedsnr" v="548234" />
	</node>
	<node id="-209436" lat="59.3696166647" lon="10.3321111166">
		<tag k="alt_name" v="Bjerkesti" />
		<tag k="name" v="Bjørkesti" />
		<tag k="place" v="farm" />
		<tag k="ssr:stedsnr" v="548220" />
	</node>
	<node id="-209435" lat="59.3759472237" lon="10.1636138829">
		<tag k="name" v="Gunnerød" />
		<tag k="place" v="farm" />
		<tag k="ssr:stedsnr" v="548193" />
	</node>
	<node id="-209433" lat="59.4070833303" lon="10.3075444491">
		<tag k="alt_name" v="Hals s." />
		<tag k="name" v="Hals" />
		<tag k="place" v="farm" />
		<tag k="ssr:stedsnr" v="548149" />
	</node>
	<node id="-209432" lat="59.4010555576" lon="10.0857277814">
		<tag k="alt_name" v="Tuftenseter" />
		<tag k="name" v="Tuftensetra" />
		<tag k="place" v="isolated_dwelling" />
		<tag k="ssr:stedsnr" v="548136" />
	</node>
	<node id="-209431" lat="59.4150472238" lon="10.2032916617">
		<tag k="alt_name" v="Fon, store" />
		<tag k="name" v="Store Fon" />
		<tag k="place" v="farm" />
		<tag k="ssr:stedsnr" v="548134" />
	</node>
	<node id="-209430" lat="59.4167555596" lon="10.3166055498">
		<tag k="alt_name" v="Oppsahl mellom" />
		<tag k="name" v="Oppsal" />
		<tag k="place" v="farm" />
		<tag k="ssr:stedsnr" v="548131" />
	</node>
	<node id="-209429" lat="59.4148055576" lon="10.1189250034">
		<tag k="alt_name" v="Teigen, s;Teien s." />
		<tag k="name" v="Søndre Teigen" />
		<tag k="place" v="farm" />
		<tag k="ssr:stedsnr" v="548126" />
	</node>
	<node id="-209428" lat="59.4689277768" lon="10.2191694398">
		<tag k="name" v="Borgeteigen" />
		<tag k="place" v="isolated_dwelling" />
		<tag k="ssr:stedsnr" v="548082" />
	</node>
	<node id="-209427" lat="59.4543694459" lon="10.1721083332">
		<tag k="name" v="Ørvika" />
		<tag k="place" v="farm" />
		<tag k="ssr:stedsnr" v="548066" />
	</node>
	<node id="-209426" lat="59.4591611091" lon="10.147361106">
		<tag k="alt_name" v="Langeli M." />
		<tag k="name" v="Langeli" />
		<tag k="place" v="farm" />
		<tag k="ssr:stedsnr" v="548063" />
	</node>
	<node id="-209422" lat="59.4339722217" lon="10.3398999973">
		<tag k="name" v="Klavenes" />
		<tag k="place" v="farm" />
		<tag k="ssr:stedsnr" v="513914" />
	</node>
	<node id="-209417" lat="59.4727055521" lon="10.1910416696">
		<tag k="name" v="Barkost" />
		<tag k="place" v="farm" />
		<tag k="ssr:stedsnr" v="513717" />
	</node>
	<node id="-209415" lat="59.3332500038" lon="10.2913166744">
		<tag k="name" v="Hole østre" />
		<tag k="place" v="farm" />
		<tag k="ssr:stedsnr" v="513673" />
	</node>
	<node id="-209414" lat="59.3847166631" lon="10.2645527831">
		<tag k="name" v="Bjerkely" />
		<tag k="place" v="farm" />
		<tag k="ssr:stedsnr" v="513593" />
	</node>
	<node id="-209411" lat="59.4337722226" lon="10.2685083345">
		<tag k="name" v="Gjelstad søndre" />
		<tag k="place" v="farm" />
		<tag k="ssr:stedsnr" v="512886" />
	</node>
	<node id="-209409" lat="59.4477555568" lon="10.3425999986">
		<tag k="name" v="Grette" />
		<tag k="place" v="farm" />
		<tag k="ssr:stedsnr" v="512876" />
	</node>
	<node id="-209408" lat="59.4632861122" lon="10.3530638948">
		<tag k="name" v="Snekkestad nordre" />
		<tag k="place" v="farm" />
		<tag k="ssr:stedsnr" v="512872" />
	</node>
	<node id="-209407" lat="59.4161388871" lon="10.3062666687">
		<tag k="name" v="Sørby østre" />
		<tag k="place" v="farm" />
		<tag k="ssr:stedsnr" v="512840" />
	</node>
	<node id="-209405" lat="59.4168111142" lon="10.2745111136">
		<tag k="leisure" v="pitch" />
		<tag k="name" v="Bibomyra idrettsplass" />
		<tag k="ssr:stedsnr" v="512831" />
	</node>
	<node id="-209404" lat="59.351172223" lon="10.3736750013">
		<tag k="name" v="Hem søndre" />
		<tag k="place" v="farm" />
		<tag k="ssr:stedsnr" v="512826" />
	</node>
	<node id="-209401" lat="59.4533500006" lon="10.300797226">
		<tag k="name" v="Åsen" />
		<tag k="place" v="isolated_dwelling" />
		<tag k="ssr:stedsnr" v="512804" />
	</node>
	<node id="-209400" lat="59.3913111142" lon="10.3331666643">
		<tag k="name" v="Knapstad nordre" />
		<tag k="place" v="farm" />
		<tag k="ssr:stedsnr" v="512800" />
	</node>
	<node id="-209399" lat="59.3890916709" lon="10.3251916654">
		<tag k="name" v="Grøstad" />
		<tag k="place" v="farm" />
		<tag k="ssr:stedsnr" v="512799" />
	</node>
	<node id="-209398" lat="59.394694442" lon="10.3094805515">
		<tag k="name" v="Ekeberg" />
		<tag k="place" v="farm" />
		<tag k="ssr:stedsnr" v="512792" />
	</node>
	<node id="-209396" lat="59.3758722205" lon="10.2984194459">
		<tag k="name" v="Kongslund" />
		<tag k="place" v="farm" />
		<tag k="ssr:stedsnr" v="512753" />
	</node>
	<node id="-209395" lat="59.376272218" lon="10.3674083362">
		<tag k="name" v="Bakskjul øvre" />
		<tag k="place" v="farm" />
		<tag k="ssr:stedsnr" v="512750" />
	</node>
	<node id="-209394" lat="59.356324999" lon="10.3628555491">
		<tag k="name" v="Lefsaker" />
		<tag k="place" v="farm" />
		<tag k="ssr:stedsnr" v="512731" />
	</node>
	<node id="-209393" lat="59.4294722217" lon="10.219472225">
		<tag k="name" v="Bakstevold nedre" />
		<tag k="place" v="farm" />
		<tag k="ssr:stedsnr" v="512658" />
	</node>
	<node id="-209392" lat="59.3977611135" lon="10.2531055547">
		<tag k="name" v="Bakke mølle" />
		<tag k="place" v="locality" />
		<tag k="ssr:stedsnr" v="512586" />
	</node>
	<node id="-209390" lat="59.4629277796" lon="10.1841444484">
		<tag k="name" v="Sjuve" />
		<tag k="place" v="farm" />
		<tag k="ssr:stedsnr" v="512573" />
	</node>
	<node id="-209387" lat="59.4353694454" lon="10.1868388818">
		<tag k="name" v="Hvam nordre" />
		<tag k="place" v="farm" />
		<tag k="ssr:stedsnr" v="512540" />
	</node>
	<node id="-209386" lat="59.4354777792" lon="10.201344436">
		<tag k="name" v="Haugenstua" />
		<tag k="place" v="isolated_dwelling" />
		<tag k="ssr:stedsnr" v="512535" />
	</node>
	<node id="-209372" lat="59.35053889" lon="10.2648833319">
		<tag k="alt_name" v="Ramnes" />
		<tag k="name" v="Ramnes nordre" />
		<tag k="place" v="farm" />
		<tag k="ssr:stedsnr" v="512258" />
	</node>
	<node id="-209366" lat="59.3813361137" lon="10.1540555644">
		<tag k="name" v="Tronka" />
		<tag k="place" v="farm" />
		<tag k="ssr:stedsnr" v="512090" />
	</node>
	<node id="-209365" lat="59.3922222215" lon="10.1090083313">
		<tag k="name" v="Kleikås" />
		<tag k="place" v="farm" />
		<tag k="ssr:stedsnr" v="512083" />
	</node>
	<node id="-209363" lat="59.4275916669" lon="10.1230111117">
		<tag k="name" v="Bårnes" />
		<tag k="place" v="farm" />
		<tag k="ssr:stedsnr" v="512021" />
	</node>
	<node id="-209361" lat="59.4279749968" lon="10.1272277864">
		<tag k="name" v="Sagatun" />
		<tag k="place" v="farm" />
		<tag k="ssr:stedsnr" v="512019" />
	</node>
	<node id="-209360" lat="59.4315250039" lon="10.0754111025">
		<tag k="historic" v="shieling" />
		<tag k="name" v="Ouffsetra" />
		<tag k="place" v="locality" />
		<tag k="ssr:stedsnr" v="512003" />
	</node>
	<node id="-209359" lat="59.3729805538" lon="10.2979805604">
		<tag k="name" v="Hette" />
		<tag k="place" v="farm" />
		<tag k="ssr:stedsnr" v="511335" />
	</node>
	<node id="-209358" lat="59.3397999994" lon="10.3224166703">
		<tag k="name" v="Bjune" />
		<tag k="place" v="farm" />
		<tag k="ssr:stedsnr" v="488794" />
	</node>
	<node id="-209357" lat="59.3422527778" lon="10.3060888826">
		<tag k="alt_name" v="Linnestad m" />
		<tag k="name" v="Linnestad" />
		<tag k="place" v="farm" />
		<tag k="ssr:stedsnr" v="488756" />
	</node>
	<node id="-209356" lat="59.3464277819" lon="10.2323777837">
		<tag k="name" v="Jonstang" />
		<tag k="place" v="farm" />
		<tag k="ssr:stedsnr" v="488750" />
	</node>
	<node id="-209355" lat="59.3496083319" lon="10.2322638927">
		<tag k="alt_name" v="Svinnigen" />
		<tag k="name" v="Svinningen" />
		<tag k="place" v="farm" />
		<tag k="ssr:stedsnr" v="488749" />
	</node>
	<node id="-209354" lat="59.398858334" lon="10.2793500009">
		<tag k="name" v="Haugtuft" />
		<tag k="place" v="farm" />
		<tag k="ssr:stedsnr" v="488197" />
	</node>
	<node id="-209353" lat="59.4019750003" lon="10.2401527799">
		<tag k="name" v="Holmane" />
		<tag k="place" v="farm" />
		<tag k="ssr:stedsnr" v="488191" />
	</node>
	<node id="-209352" lat="59.4075361075" lon="10.2579194389">
		<tag k="alt_name" v="Frellumstad nedre" />
		<tag k="name" v="Frellumstad" />
		<tag k="place" v="farm" />
		<tag k="ssr:stedsnr" v="488142" />
	</node>
	<node id="-209351" lat="59.4124055538" lon="10.3247527694">
		<tag k="name" v="Sande" />
		<tag k="place" v="farm" />
		<tag k="ssr:stedsnr" v="488139" />
	</node>
	<node id="-209349" lat="59.4203305535" lon="10.3315305531">
		<tag k="alt_name" v="Haugan nordre" />
		<tag k="name" v="Haugan" />
		<tag k="place" v="farm" />
		<tag k="ssr:stedsnr" v="488119" />
	</node>
	<node id="-209348" lat="59.4099111126" lon="10.1357944462">
		<tag k="alt_name" v="Langved m." />
		<tag k="name" v="Langved" />
		<tag k="place" v="farm" />
		<tag k="ssr:stedsnr" v="488116" />
	</node>
	<node id="-209347" lat="59.3902583302" lon="10.2903277708">
		<tag k="alt_name" v="Berg, nordre" />
		<tag k="name" v="Nordre Berg" />
		<tag k="place" v="farm" />
		<tag k="ssr:stedsnr" v="487246" />
	</node>
	<node id="-209346" lat="59.3915583312" lon="10.3009250081">
		<tag k="alt_name" v="Ulsrud" />
		<tag k="name" v="Ulfsrud" />
		<tag k="place" v="farm" />
		<tag k="ssr:stedsnr" v="487243" />
	</node>
	<node id="-209345" lat="59.3916833313" lon="10.1324750015">
		<tag k="alt_name" v="Ektvedt s." />
		<tag k="name" v="Ektvet" />
		<tag k="place" v="farm" />
		<tag k="ssr:stedsnr" v="487225" />
	</node>
	<node id="-209343" lat="59.3824305587" lon="10.271427775">
		<tag k="name" v="Bjerke" />
		<tag k="place" v="farm" />
		<tag k="ssr:stedsnr" v="487195" />
	</node>
	<node id="-209342" lat="59.3738111154" lon="10.2937000069">
		<tag k="name" v="Lefsrød" />
		<tag k="place" v="farm" />
		<tag k="ssr:stedsnr" v="487189" />
	</node>
	<node id="-209341" lat="59.4386777756" lon="10.2386388873">
		<tag k="alt_name" v="Hjelmtvedt" />
		<tag k="name" v="Hjelmtvet" />
		<tag k="place" v="farm" />
		<tag k="ssr:stedsnr" v="487166" />
	</node>
	<node id="-209340" lat="59.4385944447" lon="10.3060805643">
		<tag k="alt_name" v="Haraldstad nordre" />
		<tag k="name" v="Haraldstad" />
		<tag k="place" v="farm" />
		<tag k="ssr:stedsnr" v="487162" />
	</node>
	<node id="-209339" lat="59.4265555556" lon="10.1703750073">
		<tag k="name" v="Myresetra" />
		<tag k="place" v="isolated_dwelling" />
		<tag k="ssr:stedsnr" v="487159" />
	</node>
	<node id="-209337" lat="59.4444416665" lon="10.1247138896">
		<tag k="name" v="Lie" />
		<tag k="place" v="farm" />
		<tag k="ssr:stedsnr" v="487061" />
	</node>
	<node id="-209331" lat="59.4310555591" lon="10.2710249952">
		<tag k="name" v="Veierud" />
		<tag k="place" v="farm" />
		<tag k="ssr:stedsnr" v="452887" />
	</node>
	<node id="-209330" lat="59.4312944477" lon="10.2733805541">
		<tag k="name" v="Hornet" />
		<tag k="place" v="farm" />
		<tag k="ssr:stedsnr" v="452885" />
	</node>
	<node id="-209327" lat="59.3806972249" lon="10.2786027831">
		<tag k="name" v="Ormestad" />
		<tag k="place" v="farm" />
		<tag k="ssr:stedsnr" v="452834" />
	</node>
	<node id="-209326" lat="59.4196055548" lon="10.3225055533">
		<tag k="name" v="Malmø nedre" />
		<tag k="place" v="farm" />
		<tag k="ssr:stedsnr" v="452832" />
	</node>
	<node id="-209325" lat="59.4181611126" lon="10.3158444432">
		<tag k="name" v="Opsahl nordre" />
		<tag k="place" v="farm" />
		<tag k="ssr:stedsnr" v="452829" />
	</node>
	<node id="-209324" lat="59.3555277747" lon="10.374363885">
		<tag k="name" v="Hem nordre" />
		<tag k="place" v="farm" />
		<tag k="ssr:stedsnr" v="452816" />
	</node>
	<node id="-209323" lat="59.3878555523" lon="10.3601138961">
		<tag k="name" v="Døvik" />
		<tag k="place" v="farm" />
		<tag k="ssr:stedsnr" v="452785" />
	</node>
	<node id="-209322" lat="59.3860194469" lon="10.2912527843">
		<tag k="name" v="Berg mellom" />
		<tag k="place" v="farm" />
		<tag k="ssr:stedsnr" v="452780" />
	</node>
	<node id="-209321" lat="59.3880944444" lon="10.2906138812">
		<tag k="name" v="Berg mellom" />
		<tag k="place" v="farm" />
		<tag k="ssr:stedsnr" v="452779" />
	</node>
	<node id="-209320" lat="59.3800722223" lon="10.3013083347">
		<tag k="name" v="Slette-Berg" />
		<tag k="place" v="farm" />
		<tag k="ssr:stedsnr" v="452772" />
	</node>
	<node id="-209319" lat="59.3298972193" lon="10.3325916708">
		<tag k="name" v="Bjune østre" />
		<tag k="place" v="farm" />
		<tag k="ssr:stedsnr" v="452762" />
	</node>
	<node id="-209317" lat="59.3753750039" lon="10.2690611152">
		<tag k="name" v="Revetal nordre" />
		<tag k="place" v="farm" />
		<tag k="ssr:stedsnr" v="452734" />
	</node>
	<node id="-209316" lat="59.3412555597" lon="10.2880944371">
		<tag k="name" v="Klopp m" />
		<tag k="place" v="farm" />
		<tag k="ssr:stedsnr" v="452716" />
	</node>
	<node id="-209314" lat="59.4232861112" lon="10.2388583287">
		<tag k="name" v="Borge" />
		<tag k="place" v="farm" />
		<tag k="ssr:stedsnr" v="452649" />
	</node>
	<node id="-209313" lat="59.3893472247" lon="10.2523305545">
		<tag k="name" v="Fossan n." />
		<tag k="place" v="farm" />
		<tag k="ssr:stedsnr" v="452597" />
	</node>
	<node id="-209311" lat="59.3998833336" lon="10.2309277799">
		<tag k="name" v="Skrikestad ø." />
		<tag k="place" v="farm" />
		<tag k="ssr:stedsnr" v="452588" />
	</node>
	<node id="-209308" lat="59.4602083377" lon="10.1891888852">
		<tag k="name" v="Sjuve" />
		<tag k="place" v="farm" />
		<tag k="ssr:stedsnr" v="452576" />
	</node>
	<node id="-209306" lat="59.4467555568" lon="10.2098000047">
		<tag k="name" v="Kleven nordre" />
		<tag k="place" v="farm" />
		<tag k="ssr:stedsnr" v="452553" />
	</node>
	<node id="-209305" lat="59.4621749956" lon="10.2021888856">
		<tag k="name" v="Tørklep nedre" />
		<tag k="place" v="farm" />
		<tag k="ssr:stedsnr" v="452549" />
	</node>
	<node id="-209304" lat="59.4482527768" lon="10.2116277828">
		<tag k="name" v="Kleven" />
		<tag k="place" v="isolated_dwelling" />
		<tag k="ssr:stedsnr" v="452543" />
	</node>
	<node id="-209303" lat="59.4573888848" lon="10.2116333271">
		<tag k="name" v="Grytemark" />
		<tag k="place" v="farm" />
		<tag k="ssr:stedsnr" v="452541" />
	</node>
	<node id="-209301" lat="59.3650361148" lon="10.2673638962">
		<tag k="name" v="Tykkemark" />
		<tag k="place" v="locality" />
		<tag k="ssr:stedsnr" v="452386" />
	</node>
	<node id="-209291" lat="59.3910166692" lon="10.2051611051">
		<tag k="name" v="Solberg" />
		<tag k="place" v="farm" />
		<tag k="ssr:stedsnr" v="452302" />
	</node>
	<node id="-209288" lat="59.3892388864" lon="10.2021027846">
		<tag k="name" v="Guldaker" />
		<tag k="place" v="farm" />
		<tag k="ssr:stedsnr" v="452286" />
	</node>
	<node id="-209287" lat="59.3429888881" lon="10.2321333298">
		<tag k="name" v="Lerstang" />
		<tag k="place" v="locality" />
		<tag k="ssr:stedsnr" v="452272" />
	</node>
	<node id="-209284" lat="59.3384944449" lon="10.252269441">
		<tag k="name" v="Re" />
		<tag k="place" v="farm" />
		<tag k="ssr:stedsnr" v="452251" />
	</node>
	<node id="-209280" lat="59.3968000013" lon="10.0753638811">
		<tag k="historic" v="shieling" />
		<tag k="name" v="Søndre Tuftenseter" />
		<tag k="place" v="locality" />
		<tag k="ssr:stedsnr" v="452065" />
	</node>
	<node id="-209274" lat="59.4477666641" lon="10.3678638884">
		<tag k="name" v="Helland" />
		<tag k="place" v="farm" />
		<tag k="ssr:stedsnr" v="434648" />
	</node>
	<node id="-209272" lat="59.3439750011" lon="10.2601055492">
		<tag k="alt_name" v="Kirkevold" />
		<tag k="name" v="Kirkevoll" />
		<tag k="place" v="farm" />
		<tag k="ssr:stedsnr" v="427720" />
	</node>
	<node id="-209271" lat="59.354075003" lon="10.3598222234">
		<tag k="name" v="Lefsaker" />
		<tag k="place" v="farm" />
		<tag k="ssr:stedsnr" v="427583" />
	</node>
	<node id="-209270" lat="59.3855555572" lon="10.3478388887">
		<tag k="name" v="Østli" />
		<tag k="place" v="farm" />
		<tag k="ssr:stedsnr" v="427550" />
	</node>
	<node id="-209268" lat="59.3874361119" lon="10.1966444513">
		<tag k="name" v="Sukke" />
		<tag k="place" v="farm" />
		<tag k="ssr:stedsnr" v="427236" />
	</node>
	<node id="-209267" lat="59.3606666622" lon="10.2638555591">
		<tag k="alt_name" v="Valle nordre" />
		<tag k="name" v="Valle" />
		<tag k="place" v="farm" />
		<tag k="ssr:stedsnr" v="427225" />
	</node>
	<node id="-209266" lat="59.3649027773" lon="10.2284361025">
		<tag k="name" v="Lyngås" />
		<tag k="place" v="farm" />
		<tag k="ssr:stedsnr" v="427224" />
	</node>
	<node id="-209265" lat="59.3691166675" lon="10.1677944486">
		<tag k="name" v="Svinsholt" />
		<tag k="place" v="farm" />
		<tag k="ssr:stedsnr" v="427222" />
	</node>
	<node id="-209264" lat="59.3671555527" lon="10.1771055471">
		<tag k="name" v="Skjeggerød" />
		<tag k="place" v="farm" />
		<tag k="ssr:stedsnr" v="427221" />
	</node>
	<node id="-209263" lat="59.3773583293" lon="10.2829027712">
		<tag k="name" v="Kjølsrud" />
		<tag k="place" v="farm" />
		<tag k="ssr:stedsnr" v="427214" />
	</node>
	<node id="-209262" lat="59.42644167" lon="10.2927638935">
		<tag k="alt_name" v="Søby søndre" />
		<tag k="name" v="Søby" />
		<tag k="place" v="isolated_dwelling" />
		<tag k="ssr:stedsnr" v="427201" />
	</node>
	<node id="-209261" lat="59.4311833375" lon="10.3026250064">
		<tag k="name" v="Kurstad" />
		<tag k="place" v="farm" />
		<tag k="ssr:stedsnr" v="427200" />
	</node>
	<node id="-209260" lat="59.4149916665" lon="10.1455166591">
		<tag k="name" v="Gjøtterød" />
		<tag k="place" v="farm" />
		<tag k="ssr:stedsnr" v="427188" />
	</node>
	<node id="-209259" lat="59.4327138899" lon="10.1044027719">
		<tag k="name" v="Stokkenga" />
		<tag k="place" v="farm" />
		<tag k="ssr:stedsnr" v="427167" />
	</node>
	<node id="-209258" lat="59.4113972211" lon="10.218752776">
		<tag k="alt_name" v="Myre, s;Myre søndre" />
		<tag k="name" v="Søndre Myre" />
		<tag k="place" v="farm" />
		<tag k="ssr:stedsnr" v="427158" />
	</node>
	<node id="-209257" lat="59.4015166646" lon="10.1158222266">
		<tag k="name" v="Bakerød" />
		<tag k="place" v="farm" />
		<tag k="ssr:stedsnr" v="427147" />
	</node>
	<node id="-209256" lat="59.4167083325" lon="10.2225944516">
		<tag k="alt_name" v="Hvidsten" />
		<tag k="name" v="Hvitstein" />
		<tag k="place" v="farm" />
		<tag k="ssr:stedsnr" v="427142" />
	</node>
	<node id="-209254" lat="59.4475749971" lon="10.3164277733">
		<tag k="name" v="Smørdal" />
		<tag k="place" v="farm" />
		<tag k="ssr:stedsnr" v="427091" />
	</node>
	<node id="-209253" lat="59.4488888865" lon="10.265838893">
		<tag k="alt_name" v="Kornto østre" />
		<tag k="name" v="Kornto" />
		<tag k="place" v="farm" />
		<tag k="ssr:stedsnr" v="427089" />
	</node>
	<node id="-209252" lat="59.4451749993" lon="10.2517499934">
		<tag k="alt_name" v="Lærum mellom" />
		<tag k="name" v="Lærum" />
		<tag k="place" v="farm" />
		<tag k="ssr:stedsnr" v="427088" />
	</node>
	<node id="-209251" lat="59.4433170288" lon="10.1983811537">
		<tag k="name" v="Hestehagen" />
		<tag k="place" v="farm" />
		<tag k="ssr:stedsnr" v="427087" />
	</node>
	<node id="-209250" lat="59.4503749973" lon="10.3406166707">
		<tag k="fixme" v="consider place=hamlet" />
		<tag k="name" v="Grettebygd" />
		<tag k="place" v="village" />
		<tag k="ssr:stedsnr" v="427075" />
	</node>
	<node id="-209249" lat="59.4539749967" lon="10.1460916727">
		<tag k="alt_name" v="Langeli S" />
		<tag k="name" v="Langeli" />
		<tag k="place" v="farm" />
		<tag k="ssr:stedsnr" v="427068" />
	</node>
	<node id="-209248" lat="59.4332861135" lon="10.1334083414">
		<tag k="fixme" v="consider place=hamlet" />
		<tag k="name" v="Øvre Vivestad" />
		<tag k="place" v="farm" />
		<tag k="ssr:stedsnr" v="424034" />
	</node>
	<node id="-209245" lat="59.4517666643" lon="10.3451111157">
		<tag k="name" v="Grette" />
		<tag k="place" v="farm" />
		<tag k="ssr:stedsnr" v="245956" />
	</node>
	<node id="-209244" lat="59.3262388905" lon="10.2898694364">
		<tag k="name" v="Oserød" />
		<tag k="place" v="farm" />
		<tag k="ssr:stedsnr" v="245794" />
	</node>
	<node id="-209243" lat="59.3540444475" lon="10.2398277854">
		<tag k="alt_name" v="Berg vestre" />
		<tag k="name" v="Berg" />
		<tag k="place" v="farm" />
		<tag k="ssr:stedsnr" v="245745" />
	</node>
	<node id="-209242" lat="59.3616277736" lon="10.3905972206">
		<tag k="name" v="Lillerød" />
		<tag k="place" v="farm" />
		<tag k="ssr:stedsnr" v="245547" />
	</node>
	<node id="-209241" lat="59.3750638879" lon="10.36790834">
		<tag k="name" v="Kleppan" />
		<tag k="place" v="farm" />
		<tag k="ssr:stedsnr" v="245530" />
	</node>
	<node id="-209240" lat="59.3643083343" lon="10.3100694514">
		<tag k="name" v="Venås" />
		<tag k="place" v="farm" />
		<tag k="ssr:stedsnr" v="245198" />
	</node>
	<node id="-209239" lat="59.3800805524" lon="10.3016499972">
		<tag k="alt_name" v="Rustan østre" />
		<tag k="name" v="Rustan" />
		<tag k="place" v="farm" />
		<tag k="ssr:stedsnr" v="245188" />
	</node>
	<node id="-209238" lat="59.3708527765" lon="10.2034388822">
		<tag k="name" v="Fjærklepp" />
		<tag k="place" v="farm" />
		<tag k="ssr:stedsnr" v="245177" />
	</node>
	<node id="-209237" lat="59.4369277738" lon="10.2144194473">
		<tag k="alt_name" v="Bakstevold nordre" />
		<tag k="name" v="Bakstvål" />
		<tag k="place" v="farm" />
		<tag k="ssr:stedsnr" v="245161" />
	</node>
	<node id="-209236" lat="59.4389694444" lon="10.2689777828">
		<tag k="name" v="Jonstang" />
		<tag k="place" v="farm" />
		<tag k="ssr:stedsnr" v="245157" />
	</node>
	<node id="-209234" lat="59.4181277796" lon="10.2703305572">
		<tag k="name" v="Bibo" />
		<tag k="place" v="farm" />
		<tag k="ssr:stedsnr" v="245124" />
	</node>
	<node id="-209233" lat="59.46856111" lon="10.1779111166">
		<tag k="name" v="Ende" />
		<tag k="place" v="farm" />
		<tag k="ssr:stedsnr" v="245085" />
	</node>
	<node id="-209232" lat="59.4340388848" lon="10.1017138923">
		<tag k="name" v="Stokke" />
		<tag k="place" v="farm" />
		<tag k="ssr:stedsnr" v="245078" />
	</node>
	<node id="-209231" lat="59.4442305514" lon="10.0986194509">
		<tag k="name" v="Orrevål" />
		<tag k="place" v="farm" />
		<tag k="ssr:stedsnr" v="245067" />
	</node>
	<node id="-209230" lat="59.4518500028" lon="10.1850555547">
		<tag k="alt_name" v="Revå" />
		<tag k="name" v="Revo" />
		<tag k="place" v="farm" />
		<tag k="ssr:stedsnr" v="245064" />
	</node>
	<node id="-209223" lat="59.4239138892" lon="10.2759694359">
		<tag k="name" v="Østerud" />
		<tag k="place" v="farm" />
		<tag k="ssr:stedsnr" v="209870" />
	</node>
	<node id="-209222" lat="59.4395388893" lon="10.2792750076">
		<tag k="name" v="Sørum søndre" />
		<tag k="place" v="farm" />
		<tag k="ssr:stedsnr" v="209871" />
	</node>
	<node id="-209221" lat="59.4423472248" lon="10.2695388949">
		<tag k="name" v="Sørum sag" />
		<tag k="place" v="farm" />
		<tag k="ssr:stedsnr" v="209866" />
	</node>
	<node id="-209219" lat="59.4172638872" lon="10.3065361197">
		<tag k="name" v="Sørby mellom" />
		<tag k="place" v="farm" />
		<tag k="ssr:stedsnr" v="209817" />
	</node>
	<node id="-209217" lat="59.4552472241" lon="10.3016805471">
		<tag k="name" v="Lunde" />
		<tag k="place" v="farm" />
		<tag k="ssr:stedsnr" v="209787" />
	</node>
	<node id="-209216" lat="59.3987861085" lon="10.3745111036">
		<tag k="name" v="Brekke øvre" />
		<tag k="place" v="farm" />
		<tag k="ssr:stedsnr" v="209784" />
	</node>
	<node id="-209215" lat="59.3762833374" lon="10.3148861154">
		<tag k="name" v="Dal nordre" />
		<tag k="place" v="farm" />
		<tag k="ssr:stedsnr" v="209746" />
	</node>
	<node id="-209211" lat="59.4718027749" lon="10.1860083345">
		<tag k="name" v="Mo" />
		<tag k="place" v="farm" />
		<tag k="ssr:stedsnr" v="209707" />
	</node>
	<node id="-209210" lat="59.4665027736" lon="10.1989305484">
		<tag k="name" v="Ruteig søndre" />
		<tag k="place" v="farm" />
		<tag k="ssr:stedsnr" v="209704" />
	</node>
	<node id="-209206" lat="59.4302583304" lon="10.2438750042">
		<tag k="name" v="Huseby" />
		<tag k="place" v="farm" />
		<tag k="ssr:stedsnr" v="209652" />
	</node>
	<node id="-209205" lat="59.4272750039" lon="10.2471861056">
		<tag k="name" v="Huseby" />
		<tag k="place" v="farm" />
		<tag k="ssr:stedsnr" v="209651" />
	</node>
	<node id="-209204" lat="59.4251555567" lon="10.24634166">
		<tag k="name" v="Bettum vestre" />
		<tag k="place" v="farm" />
		<tag k="ssr:stedsnr" v="209649" />
	</node>
	<node id="-209203" lat="59.4376861144" lon="10.238802781">
		<tag k="name" v="Hjelmtvedt" />
		<tag k="place" v="farm" />
		<tag k="ssr:stedsnr" v="209646" />
	</node>
	<node id="-209202" lat="59.4370361147" lon="10.2436222247">
		<tag k="name" v="Hjelmtvedt" />
		<tag k="place" v="farm" />
		<tag k="ssr:stedsnr" v="209643" />
	</node>
	<node id="-209201" lat="59.4314111137" lon="10.2624833287">
		<tag k="name" v="Rønningen" />
		<tag k="place" v="farm" />
		<tag k="ssr:stedsnr" v="209615" />
	</node>
	<node id="-209200" lat="59.3864361111" lon="10.2300999949">
		<tag k="name" v="Bjerkevold" />
		<tag k="place" v="farm" />
		<tag k="ssr:stedsnr" v="209569" />
	</node>
	<node id="-209199" lat="59.461002782" lon="10.1857833262">
		<tag k="name" v="Store Sjuve" />
		<tag k="place" v="farm" />
		<tag k="ssr:stedsnr" v="209563" />
	</node>
	<node id="-209197" lat="59.4502166633" lon="10.1668333255">
		<tag k="name" v="Plassen" />
		<tag k="place" v="isolated_dwelling" />
		<tag k="ssr:stedsnr" v="209553" />
	</node>
	<node id="-209196" lat="59.4265083365" lon="10.1997416686">
		<tag k="name" v="Holm" />
		<tag k="place" v="isolated_dwelling" />
		<tag k="ssr:stedsnr" v="209537" />
	</node>
	<node id="-209195" lat="59.4416194425" lon="10.1661833356">
		<tag k="name" v="Lian søndre" />
		<tag k="place" v="farm" />
		<tag k="ssr:stedsnr" v="209532" />
	</node>
	<node id="-209193" lat="59.3741638883" lon="10.2670500016">
		<tag k="name" v="Revetal" />
		<tag k="place" v="farm" />
		<tag k="ssr:stedsnr" v="209394" />
	</node>
	<node id="-209192" lat="59.3583138881" lon="10.2497138889">
		<tag k="amenity" v="school" />
		<tag k="name" v="Re videregående skole" />
		<tag k="ssr:stedsnr" v="209393" />
	</node>
	<node id="-209191" lat="59.3755833344" lon="10.252713884">
		<tag k="name" v="Ramski" />
		<tag k="place" v="farm" />
		<tag k="ssr:stedsnr" v="209389" />
	</node>
	<node id="-209190" lat="59.3555999991" lon="10.2505638899">
		<tag k="name" v="Berg østre" />
		<tag k="place" v="farm" />
		<tag k="ssr:stedsnr" v="209379" />
	</node>
	<node id="-209186" lat="59.4102388902" lon="10.2581361102">
		<tag k="name" v="Frellumstad øvre" />
		<tag k="place" v="farm" />
		<tag k="ssr:stedsnr" v="209330" />
	</node>
	<node id="-209184" lat="59.419841666" lon="10.2534194373">
		<tag k="name" v="Bettum" />
		<tag k="place" v="farm" />
		<tag k="ssr:stedsnr" v="209326" />
	</node>
	<node id="-209178" lat="59.4157972256" lon="10.1480722231">
		<tag k="name" v="Enga" />
		<tag k="place" v="locality" />
		<tag k="ssr:stedsnr" v="209187" />
	</node>
	<node id="-209169" lat="59.3224361154" lon="10.3331277757">
		<tag k="name" v="Freste" />
		<tag k="place" v="farm" />
		<tag k="ssr:stedsnr" v="185778" />
	</node>
	<node id="-209168" lat="59.3977333311" lon="10.2895555498">
		<tag k="name" v="Langås" />
		<tag k="place" v="farm" />
		<tag k="ssr:stedsnr" v="185218" />
	</node>
	<node id="-209167" lat="59.4007777782" lon="10.2220555584">
		<tag k="alt_name" v="Skrikestad, vestre;Skrikestad v." />
		<tag k="name" v="Vestre Skrikestad" />
		<tag k="place" v="farm" />
		<tag k="ssr:stedsnr" v="185209" />
	</node>
	<node id="-209164" lat="59.3288388904" lon="10.2251138892">
		<tag k="name" v="Gordal" />
		<tag k="place" v="isolated_dwelling" />
		<tag k="ssr:stedsnr" v="184793" />
	</node>
	<node id="-209163" lat="59.3544666711" lon="10.329374992">
		<tag k="name" v="Sperre" />
		<tag k="place" v="farm" />
		<tag k="ssr:stedsnr" v="184760" />
	</node>
	<node id="-209162" lat="59.3937333343" lon="10.3221388897">
		<tag k="name" v="Grøstad" />
		<tag k="place" v="farm" />
		<tag k="ssr:stedsnr" v="184240" />
	</node>
	<node id="-209161" lat="59.3856361147" lon="10.2252083264">
		<tag k="name" v="Hasle" />
		<tag k="place" v="farm" />
		<tag k="ssr:stedsnr" v="184231" />
	</node>
	<node id="-209160" lat="59.390533337" lon="10.1178750059">
		<tag k="name" v="Valmestad" />
		<tag k="place" v="farm" />
		<tag k="ssr:stedsnr" v="184220" />
	</node>
	<node id="-209159" lat="59.3945666671" lon="10.1157888843">
		<tag k="name" v="Tuften" />
		<tag k="place" v="farm" />
		<tag k="ssr:stedsnr" v="184215" />
	</node>
	<node id="-209158" lat="59.3637749991" lon="10.1855555609">
		<tag k="name" v="Nyhus" />
		<tag k="place" v="farm" />
		<tag k="ssr:stedsnr" v="184205" />
	</node>
	<node id="-209157" lat="59.4316527801" lon="10.1806666736">
		<tag k="alt_name" v="Ødefjell nordre" />
		<tag k="name" v="Ødefjell" />
		<tag k="place" v="farm" />
		<tag k="ssr:stedsnr" v="184193" />
	</node>
	<node id="-209156" lat="59.4313277755" lon="10.2633138887">
		<tag k="name" v="Veierud" />
		<tag k="place" v="farm" />
		<tag k="ssr:stedsnr" v="184187" />
	</node>
	<node id="-209155" lat="59.4273694426" lon="10.3059472239">
		<tag k="name" v="Haga" />
		<tag k="place" v="farm" />
		<tag k="ssr:stedsnr" v="184183" />
	</node>
	<node id="-209153" lat="59.434463888" lon="10.2556750059">
		<tag k="alt_name" v="Robak" />
		<tag k="name" v="Robakk" />
		<tag k="place" v="farm" />
		<tag k="ssr:stedsnr" v="184170" />
	</node>
	<node id="-209152" lat="59.4201611127" lon="10.3235055517">
		<tag k="alt_name" v="Malmø øvre" />
		<tag k="name" v="Malme" />
		<tag k="place" v="farm" />
		<tag k="ssr:stedsnr" v="184130" />
	</node>
	<node id="-209151" lat="59.4162916674" lon="10.2873527745">
		<tag k="name" v="Lefsaker" />
		<tag k="place" v="farm" />
		<tag k="ssr:stedsnr" v="184129" />
	</node>
	<node id="-209149" lat="59.4714277781" lon="10.1974083296">
		<tag k="alt_name" v="Ruteig nedre" />
		<tag k="name" v="Ruteig" />
		<tag k="place" v="farm" />
		<tag k="ssr:stedsnr" v="184073" />
	</node>
	<node id="-209144" lat="59.4224861152" lon="10.3302472308">
		<tag k="name" v="Haugan nordre" />
		<tag k="place" v="farm" />
		<tag k="ssr:stedsnr" v="148841" />
	</node>
	<node id="-209143" lat="59.4184861113" lon="10.333836106">
		<tag k="name" v="Haugan søndre" />
		<tag k="place" v="farm" />
		<tag k="ssr:stedsnr" v="148838" />
	</node>
	<node id="-209142" lat="59.3979055594" lon="10.2783361062">
		<tag k="name" v="Haug" />
		<tag k="place" v="farm" />
		<tag k="ssr:stedsnr" v="148831" />
	</node>
	<node id="-209140" lat="59.3804166685" lon="10.3371083366">
		<tag k="name" v="Gjerpen" />
		<tag k="place" v="farm" />
		<tag k="ssr:stedsnr" v="148790" />
	</node>
	<node id="-209139" lat="59.3885749991" lon="10.3037583408">
		<tag k="name" v="Rønningen" />
		<tag k="place" v="farm" />
		<tag k="ssr:stedsnr" v="148786" />
	</node>
	<node id="-209138" lat="59.3595972268" lon="10.2706249961">
		<tag k="name" v="Solheim" />
		<tag k="place" v="farm" />
		<tag k="ssr:stedsnr" v="148755" />
	</node>
	<node id="-209136" lat="59.3572777748" lon="10.361572228">
		<tag k="name" v="Lefsaker" />
		<tag k="place" v="farm" />
		<tag k="ssr:stedsnr" v="148725" />
	</node>
	<node id="-209135" lat="59.3556249961" lon="10.3620444419">
		<tag k="name" v="Lefsaker" />
		<tag k="place" v="farm" />
		<tag k="ssr:stedsnr" v="148723" />
	</node>
	<node id="-209134" lat="59.4261833302" lon="10.2055694489">
		<tag k="name" v="Sulutvedt nedre" />
		<tag k="place" v="farm" />
		<tag k="ssr:stedsnr" v="148658" />
	</node>
	<node id="-209131" lat="59.3844861112" lon="10.2556638923">
		<tag k="name" v="Fossan søndre" />
		<tag k="place" v="farm" />
		<tag k="ssr:stedsnr" v="148576" />
	</node>
	<node id="-209130" lat="59.4282916692" lon="10.1973527801">
		<tag k="name" v="Holtung søndre" />
		<tag k="place" v="farm" />
		<tag k="ssr:stedsnr" v="148559" />
	</node>
	<node id="-209127" lat="59.4265666627" lon="10.1694499911">
		<tag k="name" v="Hytta" />
		<tag k="place" v="isolated_dwelling" />
		<tag k="ssr:stedsnr" v="148544" />
	</node>
	<node id="-209125" lat="59.377144448" lon="10.2415638812">
		<tag k="name" v="Lundteigen" />
		<tag k="place" v="farm" />
		<tag k="ssr:stedsnr" v="148382" />
	</node>
	<node id="-209124" lat="59.4154777794" lon="10.2386583254">
		<tag k="name" v="Svinevoll" />
		<tag k="place" v="farm" />
		<tag k="ssr:stedsnr" v="148343" />
	</node>
	<node id="-209122" lat="59.413427782" lon="10.2113388867">
		<tag k="name" v="Krakken" />
		<tag k="place" v="farm" />
		<tag k="ssr:stedsnr" v="148333" />
	</node>
	<node id="-209121" lat="59.4122472212" lon="10.2153166606">
		<tag k="name" v="Myre" />
		<tag k="place" v="locality" />
		<tag k="ssr:stedsnr" v="148331" />
	</node>
	<node id="-209120" lat="59.3835361142" lon="10.1951916613">
		<tag k="name" v="Østre Jerpetjønn" />
		<tag k="place" v="farm" />
		<tag k="ssr:stedsnr" v="148324" />
	</node>
	<node id="-209118" lat="59.3455194411" lon="10.2310805528">
		<tag k="name" v="Vesle Jonstang" />
		<tag k="place" v="locality" />
		<tag k="ssr:stedsnr" v="148300" />
	</node>
	<node id="-209113" lat="59.3398611085" lon="10.2335055558">
		<tag k="name" v="Nabben" />
		<tag k="place" v="isolated_dwelling" />
		<tag k="ssr:stedsnr" v="148279" />
	</node>
	<node id="-209111" lat="59.405911112" lon="10.1320055474">
		<tag k="name" v="Lunde" />
		<tag k="place" v="farm" />
		<tag k="ssr:stedsnr" v="148181" />
	</node>
	<node id="-209107" lat="59.4520027757" lon="10.1518444464">
		<tag k="name" v="Langeli S." />
		<tag k="place" v="farm" />
		<tag k="ssr:stedsnr" v="148115" />
	</node>
	<node id="-209100" lat="59.4283527745" lon="10.2879916621">
		<tag k="fixme" v="consider place=suburb, village or hamlet" />
		<tag k="name" v="Rånerudåsen" />
		<tag k="place" v="quarter" />
		<tag k="ssr:stedsnr" v="146081" />
	</node>
	<node id="-209099" lat="59.3327027757" lon="10.2811500007">
		<tag k="name" v="Hole" />
		<tag k="place" v="farm" />
		<tag k="ssr:stedsnr" v="124765" />
	</node>
	<node id="-209097" lat="59.4637250012" lon="10.3426416723">
		<tag k="alt_name" v="Reggestad nordre" />
		<tag k="name" v="Reggestad" />
		<tag k="place" v="farm" />
		<tag k="ssr:stedsnr" v="124107" />
	</node>
	<node id="-209096" lat="59.3505388906" lon="10.2738194522">
		<tag k="alt_name" v="Heian n" />
		<tag k="name" v="Heian" />
		<tag k="place" v="farm" />
		<tag k="ssr:stedsnr" v="123784" />
	</node>
	<node id="-209095" lat="59.3529916694" lon="10.3503111133">
		<tag k="name" v="Holt" />
		<tag k="place" v="farm" />
		<tag k="ssr:stedsnr" v="123622" />
	</node>
	<node id="-209094" lat="59.3773972204" lon="10.3681999991">
		<tag k="alt_name" v="Bakskjul nedre" />
		<tag k="name" v="Bakskjul" />
		<tag k="place" v="farm" />
		<tag k="ssr:stedsnr" v="123587" />
	</node>
	<node id="-209093" lat="59.3795777803" lon="10.17016389">
		<tag k="name" v="Jerpetjønn" />
		<tag k="place" v="farm" />
		<tag k="ssr:stedsnr" v="123270" />
	</node>
	<node id="-209092" lat="59.4041944465" lon="10.3027999947">
		<tag k="alt_name" v="Serkeland nedre" />
		<tag k="name" v="Serkland" />
		<tag k="place" v="farm" />
		<tag k="ssr:stedsnr" v="123260" />
	</node>
	<node id="-209091" lat="59.4020000045" lon="10.3350249915">
		<tag k="alt_name" v="Krokeberg" />
		<tag k="name" v="Krokeborg" />
		<tag k="place" v="farm" />
		<tag k="ssr:stedsnr" v="123257" />
	</node>
	<node id="-209090" lat="59.4020749999" lon="10.3179194394">
		<tag k="alt_name" v="Grytnes vestre" />
		<tag k="name" v="Grytnes" />
		<tag k="place" v="farm" />
		<tag k="ssr:stedsnr" v="123256" />
	</node>
	<node id="-209089" lat="59.3887388896" lon="10.2034361135">
		<tag k="name" v="Solberg" />
		<tag k="place" v="farm" />
		<tag k="ssr:stedsnr" v="123248" />
	</node>
	<node id="-209088" lat="59.3662250015" lon="10.2114527823">
		<tag k="name" v="Bleika" />
		<tag k="place" v="farm" />
		<tag k="ssr:stedsnr" v="123234" />
	</node>
	<node id="-209087" lat="59.370261109" lon="10.2912749926">
		<tag k="name" v="Gunhildstad" />
		<tag k="place" v="farm" />
		<tag k="ssr:stedsnr" v="123214" />
	</node>
	<node id="-209086" lat="59.4208527799" lon="10.1174805628">
		<tag k="alt_name" v="Teigen, nordre;Teien n." />
		<tag k="name" v="Nordre Teigen" />
		<tag k="place" v="farm" />
		<tag k="ssr:stedsnr" v="123189" />
	</node>
	<node id="-209085" lat="59.4400277801" lon="10.2783444392">
		<tag k="alt_name" v="Sørum mellom" />
		<tag k="name" v="Sørum" />
		<tag k="place" v="farm" />
		<tag k="ssr:stedsnr" v="123182" />
	</node>
	<node id="-209084" lat="59.4262861116" lon="10.1148055499">
		<tag k="alt_name" v="Håvet" />
		<tag k="name" v="Hovet" />
		<tag k="place" v="farm" />
		<tag k="ssr:stedsnr" v="123169" />
	</node>
	<node id="-209083" lat="59.4062138905" lon="10.2383694435">
		<tag k="name" v="Tangen" />
		<tag k="place" v="farm" />
		<tag k="ssr:stedsnr" v="123162" />
	</node>
	<node id="-209082" lat="59.4433250037" lon="10.3067555481">
		<tag k="alt_name" v="Vissestad" />
		<tag k="name" v="Visestad" />
		<tag k="place" v="farm" />
		<tag k="ssr:stedsnr" v="123097" />
	</node>
	<node id="-209081" lat="59.4483972227" lon="10.2892972198">
		<tag k="alt_name" v="Bakke, østre;Bakke østre" />
		<tag k="name" v="Østre Bakke" />
		<tag k="place" v="farm" />
		<tag k="ssr:stedsnr" v="123095" />
	</node>
	<node id="-209080" lat="59.4449666668" lon="10.1908472234">
		<tag k="name" v="Rød" />
		<tag k="place" v="farm" />
		<tag k="ssr:stedsnr" v="123086" />
	</node>
	<node id="-209079" lat="59.4677262385" lon="10.3399832483">
		<tag k="name" v="Mulvika" />
		<tag k="place" v="farm" />
		<tag k="ssr:stedsnr" v="123029" />
	</node>
	<node id="-209072" lat="59.3696944402" lon="10.3914472185">
		<tag k="name" v="Råen" />
		<tag k="place" v="farm" />
		<tag k="ssr:stedsnr" v="89427" />
	</node>
	<node id="-209070" lat="59.4224361076" lon="10.3027555514">
		<tag k="building" v="civic" />
		<tag k="name" v="Våle telefonsentral" />
		<tag k="ssr:stedsnr" v="88882" />
	</node>
	<node id="-209069" lat="59.4015000023" lon="10.3425111094">
		<tag k="name" v="Linneflåtten" />
		<tag k="place" v="farm" />
		<tag k="ssr:stedsnr" v="88811" />
	</node>
	<node id="-209066" lat="59.4626472231" lon="10.3373638928">
		<tag k="name" v="Reggestad søndre" />
		<tag k="place" v="farm" />
		<tag k="ssr:stedsnr" v="88773" />
	</node>
	<node id="-209065" lat="59.4496527739" lon="10.3049027773">
		<tag k="name" v="Håkestad nordre" />
		<tag k="place" v="farm" />
		<tag k="ssr:stedsnr" v="88767" />
	</node>
	<node id="-209063" lat="59.3799444453" lon="10.3435055526">
		<tag k="name" v="Gjerpen" />
		<tag k="place" v="farm" />
		<tag k="ssr:stedsnr" v="88750" />
	</node>
	<node id="-209062" lat="59.3829166637" lon="10.3549333296">
		<tag k="name" v="Langklep nordre" />
		<tag k="place" v="farm" />
		<tag k="ssr:stedsnr" v="88747" />
	</node>
	<node id="-209059" lat="59.3775972222" lon="10.3277027755">
		<tag k="name" v="Lofstad" />
		<tag k="place" v="farm" />
		<tag k="ssr:stedsnr" v="88705" />
	</node>
	<node id="-209058" lat="59.3644611151" lon="10.3379972249">
		<tag k="name" v="Heum nordre" />
		<tag k="place" v="farm" />
		<tag k="ssr:stedsnr" v="88689" />
	</node>
	<node id="-209055" lat="59.3560638854" lon="10.2634611122">
		<tag k="name" v="Valle søndre" />
		<tag k="place" v="farm" />
		<tag k="ssr:stedsnr" v="88668" />
	</node>
	<node id="-209052" lat="59.3198111067" lon="10.2706111167">
		<tag k="name" v="Kamfjord øvre" />
		<tag k="place" v="farm" />
		<tag k="ssr:stedsnr" v="88594" />
	</node>
	<node id="-209048" lat="59.3866749957" lon="10.2141500056">
		<tag k="name" v="Holt n." />
		<tag k="place" v="farm" />
		<tag k="ssr:stedsnr" v="88503" />
	</node>
	<node id="-209046" lat="59.390277781" lon="10.2442833332">
		<tag k="name" v="Firing m." />
		<tag k="place" v="farm" />
		<tag k="ssr:stedsnr" v="88493" />
	</node>
	<node id="-209042" lat="59.4640555591" lon="10.2030305587">
		<tag k="name" v="Tørklep" />
		<tag k="place" v="isolated_dwelling" />
		<tag k="ssr:stedsnr" v="88468" />
	</node>
	<node id="-209038" lat="59.3216111095" lon="10.2621694454">
		<tag k="name" v="Kamfjord" />
		<tag k="place" v="locality" />
		<tag k="ssr:stedsnr" v="88372" />
	</node>
	<node id="-209032" lat="59.3678527747" lon="10.1759250012">
		<tag k="name" v="Skjeggerød" />
		<tag k="place" v="farm" />
		<tag k="ssr:stedsnr" v="88285" />
	</node>
	<node id="-209031" lat="59.3662083336" lon="10.2127805605">
		<tag k="name" v="Bleika" />
		<tag k="place" v="locality" />
		<tag k="ssr:stedsnr" v="88281" />
	</node>
	<node id="-209029" lat="59.3738361081" lon="10.1637722247">
		<tag k="name" v="Gunnerød" />
		<tag k="place" v="farm" />
		<tag k="ssr:stedsnr" v="88274" />
	</node>
	<node id="-209028" lat="59.4014361131" lon="10.2223361166">
		<tag k="name" v="Skrikestad" />
		<tag k="place" v="farm" />
		<tag k="ssr:stedsnr" v="88262" />
	</node>
	<node id="-209027" lat="59.4143694406" lon="10.2205472294">
		<tag k="name" v="Hvidsten" />
		<tag k="place" v="farm" />
		<tag k="ssr:stedsnr" v="88261" />
	</node>
	<node id="-209025" lat="59.3789999989" lon="10.1870138875">
		<tag k="name" v="Jerpetjønn" />
		<tag k="place" v="farm" />
		<tag k="ssr:stedsnr" v="88252" />
	</node>
	<node id="-209024" lat="59.4001888899" lon="10.1997694452">
		<tag k="name" v="Øvre Rønningen" />
		<tag k="place" v="farm" />
		<tag k="ssr:stedsnr" v="88247" />
	</node>
	<node id="-209022" lat="59.3416805544" lon="10.2314444378">
		<tag k="name" v="Sagfossen" />
		<tag k="place" v="isolated_dwelling" />
		<tag k="ssr:stedsnr" v="88240" />
	</node>
	<node id="-209021" lat="59.3497166647" lon="10.2487388842">
		<tag k="name" v="Ramnes nordre" />
		<tag k="place" v="farm" />
		<tag k="ssr:stedsnr" v="88236" />
	</node>
	<node id="-209020" lat="59.3509555558" lon="10.2394555604">
		<tag k="name" v="Berg vestre" />
		<tag k="place" v="farm" />
		<tag k="ssr:stedsnr" v="88232" />
	</node>
	<node id="-209016" lat="59.4010138916" lon="10.1350305533">
		<tag k="name" v="Lundberg" />
		<tag k="place" v="farm" />
		<tag k="ssr:stedsnr" v="88146" />
	</node>
	<node id="-209015" lat="59.4211666648" lon="10.1322111039">
		<tag k="amenity" v="school" />
		<tag k="name" v="Vivestad skole" />
		<tag k="ssr:stedsnr" v="88141" />
	</node>
	<node id="-209014" lat="59.3832555535" lon="10.1528277791">
		<tag k="name" v="Kjønnerød" />
		<tag k="place" v="locality" />
		<tag k="ssr:stedsnr" v="88060" />
	</node>
	<node id="-209012" lat="59.3913361155" lon="10.112719453">
		<tag k="name" v="Valmestad" />
		<tag k="place" v="locality" />
		<tag k="ssr:stedsnr" v="88056" />
	</node>
	<node id="-209009" lat="59.4251888901" lon="10.0777333416">
		<tag k="historic" v="shieling" />
		<tag k="name" v="Stokkeseter" />
		<tag k="place" v="locality" />
		<tag k="ssr:stedsnr" v="88007" />
	</node>
	<node id="-209006" lat="59.3516583311" lon="10.2969527826">
		<tag k="name" v="Skjeggestad" />
		<tag k="place" v="farm" />
		<tag k="ssr:stedsnr" v="63772" />
	</node>
	<node id="-209005" lat="59.3878583299" lon="10.0653777705">
		<tag k="alt_name" v="Valmestadseter" />
		<tag k="name" v="Valmestadsetra" />
		<tag k="place" v="isolated_dwelling" />
		<tag k="ssr:stedsnr" v="63252" />
	</node>
	<node id="-209004" lat="59.3975583344" lon="10.2033944459">
		<tag k="name" v="Rønningen" />
		<tag k="place" v="farm" />
		<tag k="ssr:stedsnr" v="63237" />
	</node>
	<node id="-209002" lat="59.3786583372" lon="10.2392833419">
		<tag k="name" v="Flåteteigen" />
		<tag k="place" v="farm" />
		<tag k="ssr:stedsnr" v="63201" />
	</node>
	<node id="-209001" lat="59.370888892" lon="10.2337749985">
		<tag k="name" v="Opprann" />
		<tag k="place" v="farm" />
		<tag k="ssr:stedsnr" v="63195" />
	</node>
	<node id="-209000" lat="59.4378999991" lon="10.3358166604">
		<tag k="name" v="Klavenes" />
		<tag k="place" v="farm" />
		<tag k="ssr:stedsnr" v="63172" />
	</node>
	<node id="-208999" lat="59.434705552" lon="10.2879111143">
		<tag k="alt_name" v="Lur øvre" />
		<tag k="name" v="Lur" />
		<tag k="place" v="farm" />
		<tag k="ssr:stedsnr" v="63170" />
	</node>
	<node id="-208998" lat="59.4314916623" lon="10.3220611142">
		<tag k="alt_name" v="Torp nordre" />
		<tag k="name" v="Torp" />
		<tag k="place" v="farm" />
		<tag k="ssr:stedsnr" v="63169" />
	</node>
	<node id="-208997" lat="59.4077499959" lon="10.3358999999">
		<tag k="name" v="Grøterud" />
		<tag k="place" v="farm" />
		<tag k="ssr:stedsnr" v="63156" />
	</node>
	<node id="-208996" lat="59.4053250036" lon="10.1202277827">
		<tag k="alt_name" v="Bygland" />
		<tag k="name" v="Byggland" />
		<tag k="place" v="farm" />
		<tag k="ssr:stedsnr" v="63151" />
	</node>
	<node id="-208995" lat="59.4008111137" lon="10.0696055488">
		<tag k="name" v="Elgseter" />
		<tag k="place" v="isolated_dwelling" />
		<tag k="ssr:stedsnr" v="63148" />
	</node>
	<node id="-208993" lat="59.4144916708" lon="10.2676916605">
		<tag k="name" v="Nåla" />
		<tag k="place" v="farm" />
		<tag k="ssr:stedsnr" v="63140" />
	</node>
	<node id="-208992" lat="59.4329277758" lon="10.1595916629">
		<tag k="name" v="Sameia" />
		<tag k="place" v="isolated_dwelling" />
		<tag k="ssr:stedsnr" v="63103" />
	</node>
	<node id="-208991" lat="59.4420749977" lon="10.2951055611">
		<tag k="alt_name" v="Haslestad nordre" />
		<tag k="name" v="Haslestad" />
		<tag k="place" v="farm" />
		<tag k="ssr:stedsnr" v="63096" />
	</node>
	<node id="-208990" lat="59.4425750015" lon="10.2648638852">
		<tag k="name" v="Jonsrud" />
		<tag k="place" v="farm" />
		<tag k="ssr:stedsnr" v="63091" />
	</node>
	<node id="-208987" lat="59.3751222201" lon="10.3885749938">
		<tag k="name" v="Råen" />
		<tag k="place" v="farm" />
		<tag k="ssr:stedsnr" v="28409" />
	</node>
	<node id="-208985" lat="59.4153694421" lon="10.3223694472">
		<tag k="name" v="Opsahl" />
		<tag k="place" v="farm" />
		<tag k="ssr:stedsnr" v="27837" />
	</node>
	<node id="-208984" lat="59.4078305524" lon="10.2787944459">
		<tag k="name" v="Kjær (Luke)" />
		<tag k="place" v="farm" />
		<tag k="ssr:stedsnr" v="27832" />
	</node>
	<node id="-208982" lat="59.4465388887" lon="10.2988111087">
		<tag k="name" v="Bakke" />
		<tag k="place" v="farm" />
		<tag k="ssr:stedsnr" v="27812" />
	</node>
	<node id="-208979" lat="59.4306972219" lon="10.2874833322">
		<tag k="name" v="Rånerud vestre" />
		<tag k="place" v="farm" />
		<tag k="ssr:stedsnr" v="27878" />
	</node>
	<node id="-208976" lat="59.3313444455" lon="10.2947833268">
		<tag k="name" v="Hole østre" />
		<tag k="place" v="farm" />
		<tag k="ssr:stedsnr" v="27674" />
	</node>
	<node id="-208975" lat="59.3296555557" lon="10.2766194499">
		<tag k="name" v="Jare søndre" />
		<tag k="place" v="farm" />
		<tag k="ssr:stedsnr" v="27667" />
	</node>
	<node id="-208973" lat="59.3892166638" lon="10.2442972137">
		<tag k="name" v="Firing m." />
		<tag k="place" v="farm" />
		<tag k="ssr:stedsnr" v="27601" />
	</node>
	<node id="-208972" lat="59.3983277807" lon="10.2351250037">
		<tag k="name" v="Ås n." />
		<tag k="place" v="farm" />
		<tag k="ssr:stedsnr" v="27588" />
	</node>
	<node id="-208968" lat="59.3283083336" lon="10.3391666598">
		<tag k="name" v="Traet" />
		<tag k="place" v="locality" />
		<tag k="ssr:stedsnr" v="27772" />
	</node>
	<node id="-208963" lat="59.3722500006" lon="10.31468611">
		<tag k="name" v="Lefsrødødegården" />
		<tag k="place" v="locality" />
		<tag k="ssr:stedsnr" v="27752" />
	</node>
	<node id="-208961" lat="59.3541194439" lon="10.2911972215">
		<tag k="name" v="Bø s" />
		<tag k="place" v="farm" />
		<tag k="ssr:stedsnr" v="27735" />
	</node>
	<node id="-208960" lat="59.3367583378" lon="10.3061444513">
		<tag k="name" v="Linnestad" />
		<tag k="place" v="farm" />
		<tag k="ssr:stedsnr" v="27728" />
	</node>
	<node id="-208956" lat="59.4385055556" lon="10.2039305586">
		<tag k="name" v="Herkjeft nedre" />
		<tag k="place" v="farm" />
		<tag k="ssr:stedsnr" v="27537" />
	</node>
	<node id="-208954" lat="59.3579833377" lon="10.2249277708">
		<tag k="name" v="Studsrød" />
		<tag k="place" v="locality" />
		<tag k="ssr:stedsnr" v="27382" />
	</node>
	<node id="-208951" lat="59.415833334" lon="10.233022229">
		<tag k="name" v="Vika" />
		<tag k="place" v="farm" />
		<tag k="ssr:stedsnr" v="27336" />
	</node>
	<node id="-208949" lat="59.4196916633" lon="10.2507250079">
		<tag k="name" v="Bettum" />
		<tag k="place" v="farm" />
		<tag k="ssr:stedsnr" v="27332" />
	</node>
	<node id="-208948" lat="59.4128166695" lon="10.2477694425">
		<tag k="name" v="Hotvedt" />
		<tag k="place" v="farm" />
		<tag k="ssr:stedsnr" v="27329" />
	</node>
	<node id="-208945" lat="59.4189999997" lon="10.1432305589">
		<tag k="name" v="Teie" />
		<tag k="place" v="locality" />
		<tag k="ssr:stedsnr" v="27161" />
	</node>
	<node id="-208944" lat="59.4130499965" lon="10.1360166735">
		<tag k="name" v="Langved n." />
		<tag k="place" v="farm" />
		<tag k="ssr:stedsnr" v="27157" />
	</node>
	<node id="-208942" lat="59.3996805591" lon="10.1267055487">
		<tag k="name" v="Russland" />
		<tag k="place" v="locality" />
		<tag k="ssr:stedsnr" v="27069" />
	</node>
	<node id="-208937" lat="59.4376861113" lon="10.1009694485">
		<tag k="name" v="O søndre" />
		<tag k="place" v="farm" />
		<tag k="ssr:stedsnr" v="27009" />
	</node>
	<node id="-208934" lat="59.3880249994" lon="10.2568138804">
		<tag k="name" v="Fossan" />
		<tag k="place" v="farm" />
		<tag k="ssr:stedsnr" v="26708" />
	</node>
	<node id="-208933" lat="59.3481861149" lon="10.2264472254">
		<tag k="name" v="Tinghaug" />
		<tag k="place" v="farm" />
		<tag k="ssr:stedsnr" v="26359" />
	</node>
	<node id="-208930" lat="59.3723916695" lon="10.2630805472">
		<tag k="fixme" v="consider place=suburb, village or hamlet" />
		<tag k="name" v="Revetal" />
		<tag k="place" v="quarter" />
		<tag k="ssr:stedsnr" v="24263" />
	</node>
	<node id="-208927" lat="59.3372388877" lon="10.2909888855">
		<tag k="name" v="Klopp" />
		<tag k="place" v="farm" />
		<tag k="ssr:stedsnr" v="2779" />
	</node>
	<node id="-208926" lat="59.3441611118" lon="10.2318555622">
		<tag k="name" v="Lerstang" />
		<tag k="place" v="farm" />
		<tag k="ssr:stedsnr" v="2747" />
	</node>
	<node id="-208925" lat="59.3490750018" lon="10.2440611055">
		<tag k="name" v="Stange" />
		<tag k="place" v="farm" />
		<tag k="ssr:stedsnr" v="2744" />
	</node>
	<node id="-208924" lat="59.3389277813" lon="10.3484527857">
		<tag k="alt_name" v="Hundstuen" />
		<tag k="name" v="Hundstua" />
		<tag k="place" v="farm" />
		<tag k="ssr:stedsnr" v="2602" />
	</node>
	<node id="-208922" lat="59.3721611108" lon="10.3537888947">
		<tag k="name" v="Grette" />
		<tag k="place" v="farm" />
		<tag k="ssr:stedsnr" v="2572" />
	</node>
	<node id="-208921" lat="59.3942694467" lon="10.2666222237">
		<tag k="name" v="Bjerkeskau" />
		<tag k="place" v="farm" />
		<tag k="ssr:stedsnr" v="2247" />
	</node>
	<node id="-208920" lat="59.3843583334" lon="10.1717166727">
		<tag k="name" v="Kjønnerød" />
		<tag k="place" v="isolated_dwelling" />
		<tag k="ssr:stedsnr" v="2246" />
	</node>
	<node id="-208919" lat="59.3947166705" lon="10.2010055573">
		<tag k="name" v="Rove" />
		<tag k="place" v="farm" />
		<tag k="ssr:stedsnr" v="2226" />
	</node>
	<node id="-208918" lat="59.3756694438" lon="10.3126027735">
		<tag k="alt_name" v="Dal vestre" />
		<tag k="name" v="Dal" />
		<tag k="place" v="farm" />
		<tag k="ssr:stedsnr" v="2205" />
	</node>
	<node id="-208917" lat="59.371874997" lon="10.3037833325">
		<tag k="name" v="Kåpe" />
		<tag k="place" v="farm" />
		<tag k="ssr:stedsnr" v="2203" />
	</node>
	<node id="-208916" lat="59.3651250041" lon="10.3364388936">
		<tag k="alt_name" v="Heum" />
		<tag k="name" v="Hem" />
		<tag k="place" v="farm" />
		<tag k="ssr:stedsnr" v="2201" />
	</node>
	<node id="-208915" lat="59.4222249982" lon="10.0713166729">
		<tag k="name" v="Bjørndalshytta" />
		<tag k="place" v="isolated_dwelling" />
		<tag k="ssr:stedsnr" v="2179" />
	</node>
	<node id="-208914" lat="59.4351499994" lon="10.232038884">
		<tag k="alt_name" v="Kringlås" />
		<tag k="name" v="Kringelås" />
		<tag k="place" v="farm" />
		<tag k="ssr:stedsnr" v="2171" />
	</node>
	<node id="-208913" lat="59.4291499973" lon="10.129674998">
		<tag k="name" v="Kjær" />
		<tag k="place" v="farm" />
		<tag k="ssr:stedsnr" v="2156" />
	</node>
	<node id="-208912" lat="59.4600888933" lon="10.3386000013">
		<tag k="name" v="Granheim" />
		<tag k="place" v="isolated_dwelling" />
		<tag k="ssr:stedsnr" v="2122" />
	</node>
	<node id="-208911" lat="59.4589388852" lon="10.2097916626">
		<tag k="name" v="Grytemørk" />
		<tag k="place" v="farm" />
		<tag k="ssr:stedsnr" v="2116" />
	</node>
	<node id="-208910" lat="59.4635305589" lon="10.204558339">
		<tag k="alt_name" v="Tørklep øvre" />
		<tag k="name" v="Tørklepp" />
		<tag k="place" v="farm" />
		<tag k="ssr:stedsnr" v="2115" />
	</node>
	<node id="-208909" lat="59.4286805589" lon="10.134291671">
		<tag k="name" v="Vivestad" />
		<tag k="place" v="hamlet" />
		<tag k="ssr:stedsnr" v="2096" />
	</node>
	<node id="-208908" lat="59.4443249995" lon="10.3397555535">
		<tag k="alt_name" v="Fegstad" />
		<tag k="name" v="Ofegstad" />
		<tag k="place" v="farm" />
		<tag k="ssr:stedsnr" v="2081" />
	</node>
	<node id="-208907" lat="59.4482888909" lon="10.2710027729">
		<tag k="name" v="Strange" />
		<tag k="place" v="farm" />
		<tag k="ssr:stedsnr" v="2076" />
	</node>
	<node id="-208906" lat="59.4544000014" lon="10.265391669">
		<tag k="alt_name" v="Badski" />
		<tag k="name" v="Baski" />
		<tag k="place" v="farm" />
		<tag k="ssr:stedsnr" v="2066" />
	</node>
	<node id="-208899" lat="59.4347805559" lon="10.2868111154">
		<tag k="name" v="Lur nedre" />
		<tag k="place" v="farm" />
		<tag k="ssr:stedsnr" v="391903" />
	</node>
	<node id="-208897" lat="59.4485555543" lon="10.3719916639">
		<tag k="name" v="Valstad" />
		<tag k="place" v="farm" />
		<tag k="ssr:stedsnr" v="391895" />
	</node>
</osm>
