<?xml version="1.0" encoding="UTF-8"?>
<osm generator="osmapis" version="0.6">
	<node id="-209533" lat="59.4176888865" lon="10.2788361154">
		<tag k="junction" v="yes" />
		<tag k="name" v="Kirkevoll" />
		<tag k="place" v="locality" />
		<tag k="ssr:stedsnr" v="209805" />
	</node>
	<node id="-209194" lat="59.3374555561" lon="10.3027777765">
		<tag k="alt_name" v="Klopp" />
		<tag k="bridge" v="yes" />
		<tag k="layer" v="1" />
		<tag k="name" v="Kloppe bru" />
		<tag k="ssr:stedsnr" v="391730" />
	</node>
	<node id="-210038" lat="59.3783944488" lon="10.3729777732">
		<tag k="bridge" v="yes" />
		<tag k="layer" v="1" />
		<tag k="name" v="Baksjuldalen" />
		<tag k="ssr:stedsnr" v="775702" />
	</node>
	<node id="-209651" lat="59.3674222196" lon="10.3770305517">
		<tag k="bridge" v="yes" />
		<tag k="layer" v="1" />
		<tag k="name" v="Solerød" />
		<tag k="ssr:stedsnr" v="471734" />
	</node>
	<node id="-209650" lat="59.3858666709" lon="10.2539861184">
		<tag k="bridge" v="yes" />
		<tag k="layer" v="1" />
		<tag k="name" v="Fossan" />
		<tag k="ssr:stedsnr" v="471711" />
	</node>
	<node id="-209649" lat="59.4193388933" lon="10.2547277755">
		<tag k="bridge" v="yes" />
		<tag k="layer" v="1" />
		<tag k="name" v="Bettum" />
		<tag k="ssr:stedsnr" v="471712" />
	</node>
	<node id="-209392" lat="59.3989472199" lon="10.3141361053">
		<tag k="bridge" v="yes" />
		<tag k="layer" v="1" />
		<tag k="name" v="Verp" />
		<tag k="ssr:stedsnr" v="107758" />
	</node>
	<node id="-209391" lat="59.3291277738" lon="10.3305833272">
		<tag k="bridge" v="yes" />
		<tag k="layer" v="1" />
		<tag k="name" v="Bjune bru" />
		<tag k="ssr:stedsnr" v="107732" />
	</node>
	<node id="-209390" lat="59.4377527813" lon="10.2095138863">
		<tag k="bridge" v="yes" />
		<tag k="layer" v="1" />
		<tag k="name" v="Bakstvåll" />
		<tag k="ssr:stedsnr" v="107733" />
	</node>
	<node id="-209389" lat="59.3700000038" lon="10.2139611192">
		<tag k="bridge" v="yes" />
		<tag k="layer" v="1" />
		<tag k="name" v="Dal" />
		<tag k="ssr:stedsnr" v="107731" />
	</node>
	<node id="-209772" lat="59.4175305569" lon="10.1880555538">
		<tag k="highway" v="path" />
		<tag k="name" v="Prestestien" />
		<tag k="ssr:stedsnr" v="573264" />
	</node>
	<node id="-209050" lat="59.4637444421" lon="10.3455138923">
		<tag k="bridge" v="yes" />
		<tag k="layer" v="1" />
		<tag k="name" v="Nøklegård øst" />
		<tag k="ssr:stedsnr" v="289795" />
	</node>
	<node id="-210280" lat="59.42048611" lon="10.2918611151">
		<tag k="bridge" v="yes" />
		<tag k="layer" v="1" />
		<tag k="name" v="Søbyholmen" />
		<tag k="ssr:stedsnr" v="957740" />
	</node>
	<node id="-210279" lat="59.3447416673" lon="10.2573944421">
		<tag k="bridge" v="yes" />
		<tag k="layer" v="1" />
		<tag k="name" v="Kirkevold" />
		<tag k="ssr:stedsnr" v="957709" />
	</node>
	<node id="-209889" lat="59.4460250012" lon="10.2452944486">
		<tag k="bridge" v="yes" />
		<tag k="layer" v="1" />
		<tag k="name" v="Ryk II" />
		<tag k="ssr:stedsnr" v="653756" />
	</node>
	<node id="-209888" lat="59.4157888874" lon="10.2346472224">
		<tag k="bridge" v="yes" />
		<tag k="layer" v="1" />
		<tag k="name" v="Svinevold" />
		<tag k="ssr:stedsnr" v="653748" />
	</node>
	<node id="-209887" lat="59.3716222239" lon="10.3211722157">
		<tag k="bridge" v="yes" />
		<tag k="layer" v="1" />
		<tag k="name" v="Dal" />
		<tag k="ssr:stedsnr" v="653726" />
	</node>
	<node id="-209627" lat="59.3855083343" lon="10.2581944453">
		<tag k="junction" v="yes" />
		<tag k="name" v="Fossan" />
		<tag k="place" v="locality" />
		<tag k="ssr:stedsnr" v="452591" />
	</node>
	<node id="-209366" lat="59.442944444" lon="10.239299999">
		<tag k="junction" v="yes" />
		<tag k="name" v="Ryk" />
		<tag k="place" v="locality" />
		<tag k="ssr:stedsnr" v="88586" />
	</node>
	<node id="-209872" lat="59.4386555532" lon="10.2303083334">
		<tag k="junction" v="yes" />
		<tag k="name" v="Skjerpe" />
		<tag k="place" v="locality" />
		<tag k="ssr:stedsnr" v="633642" />
	</node>
	<node id="-210253" lat="59.3179250021" lon="10.3004249954">
		<tag k="junction" v="yes" />
		<tag k="name" v="Verningen" />
		<tag k="place" v="locality" />
		<tag k="ssr:stedsnr" v="937791" />
	</node>
	<node id="-209739" lat="59.3689638883" lon="10.3687666615">
		<tag k="bridge" v="yes" />
		<tag k="layer" v="1" />
		<tag k="name" v="Solerød" />
		<tag k="ssr:stedsnr" v="532728" />
	</node>
	<node id="-209738" lat="59.4172500002" lon="10.2782111137">
		<tag k="bridge" v="yes" />
		<tag k="layer" v="1" />
		<tag k="name" v="Kirkevoll" />
		<tag k="ssr:stedsnr" v="532705" />
	</node>
	<node id="-209608" lat="59.4183333311" lon="10.2601972304">
		<tag k="junction" v="yes" />
		<tag k="name" v="Siltvedt" />
		<tag k="place" v="locality" />
		<tag k="ssr:stedsnr" v="452313" />
	</node>
	<node id="-209388" lat="59.4586388845" lon="10.3438833364">
		<tag k="layer" v="-1" />
		<tag k="name" v="Brekketunnelen SL" />
		<tag k="ssr:stedsnr" v="105127" />
		<tag k="tunnel" v="yes" />
	</node>
	<node id="-209220" lat="59.3872777786" lon="10.2573861076">
		<tag k="bridge" v="yes" />
		<tag k="layer" v="1" />
		<tag k="name" v="Fossan bru" />
		<tag k="ssr:stedsnr" v="896754" />
	</node>
	<node id="-209219" lat="59.3967777749" lon="10.3623361134">
		<tag k="bridge" v="yes" />
		<tag k="layer" v="1" />
		<tag k="name" v="Flår" />
		<tag k="ssr:stedsnr" v="410720" />
	</node>
	<node id="-209218" lat="59.3540638925" lon="10.3724388809">
		<tag k="bridge" v="yes" />
		<tag k="layer" v="1" />
		<tag k="name" v="Hem II" />
		<tag k="ssr:stedsnr" v="410719" />
	</node>
	<node id="-209355" lat="59.4376805553" lon="10.210108342">
		<tag k="junction" v="yes" />
		<tag k="name" v="Bakstevoll" />
		<tag k="place" v="locality" />
		<tag k="ssr:stedsnr" v="88455" />
	</node>
	<node id="-208992" lat="59.3547277762" lon="10.2765500024">
		<tag k="alt_name" v="Bøe bru" />
		<tag k="bridge" v="yes" />
		<tag k="layer" v="1" />
		<tag k="name" v="Bø bru" />
		<tag k="ssr:stedsnr" v="270714" />
	</node>
	<node id="-209341" lat="59.3821361098" lon="10.2041916634">
		<tag k="bridge" v="yes" />
		<tag k="layer" v="1" />
		<tag k="name" v="Askjer bru" />
		<tag k="ssr:stedsnr" v="88256" />
	</node>
	<node id="-209375" lat="59.3924472262" lon="10.3045805634">
		<tag k="junction" v="yes" />
		<tag k="name" v="Hengsrud" />
		<tag k="place" v="locality" />
		<tag k="ssr:stedsnr" v="88738" />
	</node>
	<node id="-209463" lat="59.386211113" lon="10.3638527698">
		<tag k="bridge" v="yes" />
		<tag k="layer" v="1" />
		<tag k="name" v="Døvik" />
		<tag k="ssr:stedsnr" v="168712" />
	</node>
	<node id="-209718" lat="59.4594638883" lon="10.3321861185">
		<tag k="junction" v="yes" />
		<tag k="name" v="Syrstad" />
		<tag k="place" v="locality" />
		<tag k="ssr:stedsnr" v="512814" />
	</node>
	<node id="-209717" lat="59.4476833313" lon="10.2713138899">
		<tag k="junction" v="yes" />
		<tag k="name" v="Strange" />
		<tag k="place" v="locality" />
		<tag k="ssr:stedsnr" v="512809" />
	</node>
	<node id="-210100" lat="59.382833332" lon="10.3751472307">
		<tag k="layer" v="-1" />
		<tag k="name" v="Døviktunnelen" />
		<tag k="ssr:stedsnr" v="842539" />
		<tag k="tunnel" v="yes" />
	</node>
	<node id="-210099" lat="59.4524416637" lon="10.3544527853">
		<tag k="bridge" v="yes" />
		<tag k="layer" v="1" />
		<tag k="name" v="Snekkestad II" />
		<tag k="ssr:stedsnr" v="836729" />
	</node>
	<node id="-210098" lat="59.3407805585" lon="10.3759916655">
		<tag k="bridge" v="yes" />
		<tag k="layer" v="1" />
		<tag k="name" v="Tveiten nordre" />
		<tag k="ssr:stedsnr" v="836723" />
	</node>
	<node id="-210097" lat="59.3820444473" lon="10.2041500037">
		<tag k="bridge" v="yes" />
		<tag k="layer" v="1" />
		<tag k="name" v="Askjer" />
		<tag k="ssr:stedsnr" v="836701" />
	</node>
	<node id="-210096" lat="59.3552277782" lon="10.3725083266">
		<tag k="bridge" v="yes" />
		<tag k="layer" v="1" />
		<tag k="name" v="Hem I" />
		<tag k="ssr:stedsnr" v="836697" />
	</node>
	<node id="-209964" lat="59.4442027772" lon="10.1039944451">
		<tag k="bridge" v="yes" />
		<tag k="layer" v="1" />
		<tag k="name" v="Lønskoll" />
		<tag k="ssr:stedsnr" v="714716" />
	</node>
	<node id="-209963" lat="59.3701444423" lon="10.2611388908">
		<tag k="bridge" v="yes" />
		<tag k="layer" v="1" />
		<tag k="name" v="Revetal" />
		<tag k="ssr:stedsnr" v="714717" />
	</node>
	<node id="-209962" lat="59.4542638885" lon="10.3483194413">
		<tag k="layer" v="-1" />
		<tag k="name" v="Brekketunnelen NL" />
		<tag k="ssr:stedsnr" v="711136" />
		<tag k="tunnel" v="yes" />
	</node>
	<node id="-209052" lat="59.3125444413" lon="10.3675833373">
		<tag k="junction" v="yes" />
		<tag k="name" v="Gullikrysset" />
		<tag k="place" v="locality" />
		<tag k="ssr:stedsnr" v="296865" />
	</node>
	<node id="-209393" lat="59.3813472233" lon="10.3637250045">
		<tag k="bridge" v="yes" />
		<tag k="layer" v="1" />
		<tag k="name" v="Knutstad" />
		<tag k="ssr:stedsnr" v="107759" />
	</node>
	<node id="-209051" lat="59.3747861112" lon="10.3768638902">
		<tag k="junction" v="yes" />
		<tag k="name" v="Undrumsdalskrysset" />
		<tag k="place" v="locality" />
		<tag k="ssr:stedsnr" v="295653" />
	</node>
	<node id="-209820" lat="59.3450166697" lon="10.3799666656">
		<tag k="layer" v="-1" />
		<tag k="name" v="Hemtunnelen" />
		<tag k="ssr:stedsnr" v="598529" />
		<tag k="tunnel" v="yes" />
	</node>
	<node id="-209819" lat="59.3853472187" lon="10.1315111061">
		<tag k="bridge" v="yes" />
		<tag k="layer" v="1" />
		<tag k="name" v="Ektvedt bru" />
		<tag k="ssr:stedsnr" v="592758" />
	</node>
	<node id="-209946" lat="59.4348166706" lon="10.1975666673">
		<tag k="junction" v="yes" />
		<tag k="name" v="Hegna" />
		<tag k="place" v="locality" />
		<tag k="ssr:stedsnr" v="695537" />
	</node>
	<node id="-209135" lat="59.3713777799" lon="10.3676083246">
		<tag k="bridge" v="yes" />
		<tag k="layer" v="1" />
		<tag k="name" v="Undrumsdal" />
		<tag k="ssr:stedsnr" v="350717" />
	</node>
	<node id="-209303" lat="59.3930111095" lon="10.3713361194">
		<tag k="layer" v="-1" />
		<tag k="name" v="Flårtunnelen" />
		<tag k="ssr:stedsnr" v="53560" />
		<tag k="tunnel" v="yes" />
	</node>
	<node id="-209813" lat="59.4527888901" lon="10.3541111157">
		<tag k="junction" v="yes" />
		<tag k="name" v="Snekkestad" />
		<tag k="place" v="locality" />
		<tag k="ssr:stedsnr" v="573857" />
	</node>
	<node id="-210189" lat="59.4274166678" lon="10.3036027843">
		<tag k="junction" v="yes" />
		<tag k="name" v="Haga" />
		<tag k="place" v="locality" />
		<tag k="ssr:stedsnr" v="877903" />
	</node>
	<node id="-209292" lat="59.4552861106" lon="10.3303166581">
		<tag k="landuse" v="industrial" />
		<tag k="name" v="Gunnestad transf.st." />
		<tag k="power" v="plant" />
		<tag k="ssr:stedsnr" v="27868" />
	</node>
	<node id="-209035" lat="59.448066666" lon="10.267288886">
		<tag k="junction" v="yes" />
		<tag k="name" v="Kornto" />
		<tag k="place" v="locality" />
		<tag k="ssr:stedsnr" v="270773" />
	</node>
	<node id="-209544" lat="59.4114749989" lon="10.2426305468">
		<tag k="bridge" v="yes" />
		<tag k="layer" v="1" />
		<tag k="name" v="Svinevold bru" />
		<tag k="ssr:stedsnr" v="229735" />
	</node>
	<node id="-209543" lat="59.4662000013" lon="10.3326611059">
		<tag k="bridge" v="yes" />
		<tag k="layer" v="1" />
		<tag k="name" v="Reggestad" />
		<tag k="ssr:stedsnr" v="228780" />
	</node>
	<node id="-209542" lat="59.4315361145" lon="10.3109249932">
		<tag k="bridge" v="yes" />
		<tag k="layer" v="1" />
		<tag k="name" v="Meskumski" />
		<tag k="ssr:stedsnr" v="228778" />
	</node>
	<node id="-209541" lat="59.3512888876" lon="10.3722722302">
		<tag k="bridge" v="yes" />
		<tag k="layer" v="1" />
		<tag k="name" v="Hem III" />
		<tag k="ssr:stedsnr" v="228750" />
	</node>
	<node id="-210180" lat="59.3879944426" lon="10.3340027861">
		<tag k="junction" v="yes" />
		<tag k="name" v="Knapstad" />
		<tag k="place" v="locality" />
		<tag k="ssr:stedsnr" v="877801" />
	</node>
	<node id="-209539" lat="59.4326611076" lon="10.3142472261">
		<tag k="junction" v="yes" />
		<tag k="name" v="Meskumski" />
		<tag k="place" v="locality" />
		<tag k="ssr:stedsnr" v="209878" />
	</node>
	<node id="-209195" lat="59.3722194483" lon="10.3353055589">
		<tag k="junction" v="yes" />
		<tag k="name" v="Grøum" />
		<tag k="place" v="locality" />
		<tag k="ssr:stedsnr" v="391742" />
	</node>
</osm>
