<?xml version="1.0" encoding="UTF-8"?>
<osm version="0.6" generator="osmapis">
	<node lat="58.90064166629644" lon="6.234794436514286" id="-55">
		<tag k="fixme" v="verify maritime location" />
		<tag k="mooring" v="yes" />
		<tag k="name" v="Likstø" />
		<tag k="place" v="locality" />
		<tag k="ssr:stedsnr" v="42176" />
	</node>
	<node lat="59.05660833666739" lon="6.65675277442191" id="-57">
		<tag k="bridge" v="yes" />
		<tag k="layer" v="1" />
		<tag k="name" v="Lysebotn" />
		<tag k="ssr:stedsnr" v="46719" />
	</node>
	<node lat="58.91700277967356" lon="6.2718999965250175" id="-58">
		<tag k="bridge" v="yes" />
		<tag k="layer" v="1" />
		<tag k="name" v="Espedal (Øvre)" />
		<tag k="ssr:stedsnr" v="46722" />
	</node>
	<node lat="58.89094166748219" lon="6.145149996819547" id="-59">
		<tag k="bridge" v="yes" />
		<tag k="layer" v="1" />
		<tag k="name" v="Forsand" />
		<tag k="ssr:stedsnr" v="46723" />
	</node>
	<node lat="58.87155277526113" lon="6.180277777107824" id="-194">
		<tag k="bridge" v="yes" />
		<tag k="layer" v="1" />
		<tag k="name" v="Kleppa" />
		<tag k="ssr:stedsnr" v="107693" />
	</node>
	<node lat="58.932922222293136" lon="5.874638897352654" id="-256">
		<tag k="bridge" v="yes" />
		<tag k="layer" v="1" />
		<tag k="loc_name" v="Hetland bru" />
		<tag k="name" v="Hetland Nedre" />
		<tag k="ssr:stedsnr" v="168357" />
	</node>
	<node lat="58.92390000145853" lon="6.2845944373712035" id="-269">
		<tag k="ford" v="yes" />
		<tag k="name" v="Antusvadet" />
		<tag k="place" v="locality" />
		<tag k="ssr:stedsnr" v="181062" />
	</node>
	<node lat="58.851791662460535" lon="5.783433334460699" id="-326">
		<tag k="name" v="Auestadkanalen" />
		<tag k="ssr:stedsnr" v="266651" />
		<tag k="waterway" v="canal" />
	</node>
	<node lat="58.81153888932135" lon="5.66967777633809" id="-339">
		<tag k="man_made" v="tower" />
		<tag k="name" v="Rogaland Radio" />
		<tag k="ssr:stedsnr" v="267921" />
		<tag k="tower:type" v="communications" />
	</node>
	<node lat="58.83383610816852" lon="5.6267833292775835" id="-361">
		<tag k="junction" v="yes" />
		<tag k="name" v="Vippene" />
		<tag k="place" v="locality" />
		<tag k="ssr:stedsnr" v="206233" />
	</node>
	<node lat="58.87268055440976" lon="5.813858333783625" id="-384">
		<tag k="bridge" v="yes" />
		<tag k="layer" v="1" />
		<tag k="name" v="Lutsi" />
		<tag k="ssr:stedsnr" v="229338" />
	</node>
	<node lat="59.080138891692705" lon="6.347924997837266" id="-445">
		<tag k="fixme" v="verify maritime location" />
		<tag k="mooring" v="yes" />
		<tag k="name" v="Pramstød" />
		<tag k="place" v="locality" />
		<tag k="ssr:stedsnr" v="245094" />
	</node>
	<node lat="58.89423889112051" lon="6.055208333626483" id="-482">
		<tag k="amenity" v="ferry_terminal" />
		<tag k="name" v="Lauvvik ferjekai" />
		<tag k="ssr:stedsnr" v="290325" />
	</node>
	<node lat="58.819258337166666" lon="5.763063881146649" id="-483">
		<tag k="bridge" v="yes" />
		<tag k="layer" v="1" />
		<tag k="name" v="Bråsteinkanal" />
		<tag k="ssr:stedsnr" v="290331" />
	</node>
	<node lat="58.83611111230609" lon="5.739313881665413" id="-484">
		<tag k="bridge" v="yes" />
		<tag k="layer" v="1" />
		<tag k="name" v="Hovemarka" />
		<tag k="ssr:stedsnr" v="290335" />
	</node>
	<node lat="58.85966944513937" lon="5.667641665183461" id="-550">
		<tag k="name" v="Skas/Heigre-kanalen" />
		<tag k="ssr:stedsnr" v="327278" />
		<tag k="waterway" v="canal" />
	</node>
	<node lat="58.8798888871359" lon="5.742888885370499" id="-558">
		<tag k="bridge" v="yes" />
		<tag k="layer" v="1" />
		<tag k="name" v="Askeladdveien" />
		<tag k="ssr:stedsnr" v="472330" />
	</node>
	<node lat="58.8580416642709" lon="5.709338894532547" id="-559">
		<tag k="bridge" v="yes" />
		<tag k="layer" v="1" />
		<tag k="name" v="Austvollkrysset" />
		<tag k="ssr:stedsnr" v="472334" />
	</node>
	<node lat="58.8812722219705" lon="6.006855557790604" id="-560">
		<tag k="bridge" v="yes" />
		<tag k="layer" v="1" />
		<tag k="name" v="Øvre Gjesteland" />
		<tag k="ssr:stedsnr" v="472336" />
	</node>
	<node lat="58.78138610939062" lon="5.825413885198057" id="-561">
		<tag k="bridge" v="yes" />
		<tag k="layer" v="1" />
		<tag k="name" v="Figgjoelven" />
		<tag k="ssr:stedsnr" v="472338" />
	</node>
	<node lat="58.83685833386905" lon="5.732402771364253" id="-566">
		<tag k="bridge" v="yes" />
		<tag k="layer" v="1" />
		<tag k="name" v="Skei" />
		<tag k="ssr:stedsnr" v="350303" />
	</node>
	<node lat="58.984894446281686" lon="6.359311102392419" id="-570">
		<tag k="highway" v="path" />
		<tag k="name" v="Svenskaveien" />
		<tag k="ssr:stedsnr" v="363213" />
	</node>
	<node lat="58.841208330341416" lon="5.738936105306511" id="-715">
		<tag k="bridge" v="yes" />
		<tag k="layer" v="1" />
		<tag k="name" v="Austrått" />
		<tag k="ssr:stedsnr" v="411339" />
	</node>
	<node lat="59.05670555484634" lon="6.6673305509549445" id="-716">
		<tag k="bridge" v="yes" />
		<tag k="layer" v="1" />
		<tag k="name" v="Lyseelva" />
		<tag k="ssr:stedsnr" v="411651" />
	</node>
	<node lat="58.89098055765661" lon="6.145119445274306" id="-720">
		<tag k="bridge" v="yes" />
		<tag k="layer" v="1" />
		<tag k="name" v="Rossavik" />
		<tag k="ssr:stedsnr" v="423211" />
	</node>
	<node lat="58.864186111766415" lon="6.153311104716964" id="-785">
		<tag k="bridge" v="yes" />
		<tag k="layer" v="1" />
		<tag k="name" v="Mæle" />
		<tag k="ssr:stedsnr" v="471680" />
	</node>
	<node lat="58.83635555325387" lon="5.740416668396468" id="-786">
		<tag k="bridge" v="yes" />
		<tag k="layer" v="1" />
		<tag k="name" v="Ålgårdsveien" />
		<tag k="ssr:stedsnr" v="472308" />
	</node>
	<node lat="58.817402774615196" lon="5.704747223413297" id="-787">
		<tag k="bridge" v="yes" />
		<tag k="layer" v="1" />
		<tag k="name" v="Lunde" />
		<tag k="ssr:stedsnr" v="472315" />
	</node>
	<node lat="58.83757499789346" lon="5.733447214034076" id="-788">
		<tag k="bridge" v="yes" />
		<tag k="layer" v="1" />
		<tag k="name" v="Kvelluren" />
		<tag k="ssr:stedsnr" v="472322" />
	</node>
	<node lat="58.834708333667365" lon="5.975669438318622" id="-789">
		<tag k="bridge" v="yes" />
		<tag k="layer" v="1" />
		<tag k="name" v="Nordland" />
		<tag k="ssr:stedsnr" v="472323" />
	</node>
	<node lat="58.86280833768748" lon="5.928674998264113" id="-790">
		<tag k="bridge" v="yes" />
		<tag k="layer" v="1" />
		<tag k="name" v="Osaland" />
		<tag k="ssr:stedsnr" v="472325" />
	</node>
	<node lat="58.873472226093654" lon="5.692627771482271" id="-854">
		<tag k="name" v="Soma/Bæreim-kanalen" />
		<tag k="ssr:stedsnr" v="509313" />
		<tag k="waterway" v="canal" />
	</node>
	<node lat="58.82771110884989" lon="5.67690555527978" id="-864">
		<tag k="alt_name" v="Todneim Raugstad-kanalen" />
		<tag k="name" v="Todnheim Raugstad-kanalen" />
		<tag k="ssr:stedsnr" v="510806" />
		<tag k="waterway" v="canal" />
	</node>
	<node lat="58.83371666974574" lon="5.741422213495599" id="-870">
		<tag k="bridge" v="yes" />
		<tag k="layer" v="1" />
		<tag k="name" v="Høyland" />
		<tag k="ssr:stedsnr" v="532323" />
	</node>
	<node lat="59.04185833687684" lon="6.396094452197916" id="-871">
		<tag k="bridge" v="yes" />
		<tag k="layer" v="1" />
		<tag k="name" v="Furestølen" />
		<tag k="ssr:stedsnr" v="532671" />
	</node>
	<node lat="58.885597223332404" lon="6.204097217781322" id="-986">
		<tag k="bridge" v="yes" />
		<tag k="layer" v="1" />
		<tag k="name" v="Eikeland" />
		<tag k="ssr:stedsnr" v="592714" />
	</node>
	<node lat="58.88579166859173" lon="6.20837500015805" id="-987">
		<tag k="bridge" v="yes" />
		<tag k="layer" v="1" />
		<tag k="name" v="Espedal Nedre" />
		<tag k="ssr:stedsnr" v="592715" />
	</node>
	<node lat="58.787802781685706" lon="5.805830556490256" id="-988">
		<tag k="bridge" v="yes" />
		<tag k="layer" v="1" />
		<tag k="name" v="Figgjo Kanal" />
		<tag k="ssr:stedsnr" v="593316" />
	</node>
	<node lat="58.84695277407057" lon="5.7344916728625" id="-1074">
		<tag k="name" v="Skeiane stasjon" />
		<tag k="railway" v="station" />
		<tag k="ssr:stedsnr" v="632043" />
		<tag k="train" v="yes" />
	</node>
	<node lat="58.82139722430238" lon="5.911472214410615" id="-1089">
		<tag k="bridge" v="yes" />
		<tag k="layer" v="1" />
		<tag k="name" v="Svihus" />
		<tag k="ssr:stedsnr" v="654333" />
	</node>
	<node lat="58.85240402968342" lon="5.736568752245573" id="-1132">
		<tag k="name" v="Sandnes sentrum stasjon" />
		<tag k="railway" v="halt" />
		<tag k="ssr:stedsnr" v="891158" />
		<tag k="train" v="yes" />
	</node>
	<node lat="58.90152281178597" lon="6.088177197158406" id="-1161">
		<tag k="amenity" v="ferry_terminal" />
		<tag k="name" v="Forsand ferjekai" />
		<tag k="ssr:stedsnr" v="896729" />
	</node>
	<node lat="59.03332777857702" lon="6.3938111133693125" id="-1162">
		<tag k="bridge" v="yes" />
		<tag k="layer" v="1" />
		<tag k="name" v="Helmikstølen" />
		<tag k="ssr:stedsnr" v="896730" />
	</node>
	<node lat="58.78210833102446" lon="5.829830561222561" id="-1163">
		<tag k="bridge" v="yes" />
		<tag k="layer" v="1" />
		<tag k="name" v="Figgjo Øvre" />
		<tag k="ssr:stedsnr" v="897349" />
	</node>
	<node lat="58.82263055380193" lon="5.711386106358717" id="-1164">
		<tag k="bridge" v="yes" />
		<tag k="layer" v="1" />
		<tag k="name" v="Ganddal" />
		<tag k="ssr:stedsnr" v="897351" />
	</node>
	<node lat="58.85858889253155" lon="5.711527777303553" id="-1166">
		<tag k="bridge" v="yes" />
		<tag k="layer" v="1" />
		<tag k="name" v="Stangeland" />
		<tag k="ssr:stedsnr" v="715372" />
	</node>
	<node lat="58.98141666958603" lon="6.229086105327342" id="-1175">
		<tag k="man_made" v="quay" />
		<tag k="name" v="Fossmork" />
		<tag k="place" v="locality" />
		<tag k="ssr:stedsnr" v="727041" />
	</node>
	<node lat="58.82768055216634" lon="5.738794451442971" id="-1242">
		<tag k="bridge" v="yes" />
		<tag k="layer" v="1" />
		<tag k="name" v="Høylandsåna" />
		<tag k="ssr:stedsnr" v="775309" />
	</node>
	<node lat="58.86253055205897" lon="5.711438895505661" id="-1243">
		<tag k="bridge" v="yes" />
		<tag k="layer" v="1" />
		<tag k="name" v="Smeaheia Vest" />
		<tag k="ssr:stedsnr" v="775314" />
	</node>
	<node lat="58.88699774079588" lon="5.85810452917837" id="-1244">
		<tag k="bridge" v="yes" />
		<tag k="layer" v="1" />
		<tag k="loc_name" v="Hogstad bru;Hogstadbrua" />
		<tag k="name" v="Bergura" />
		<tag k="ssr:stedsnr" v="775323" />
	</node>
	<node lat="58.87559722180342" lon="6.137033341181581" id="-1245">
		<tag k="bridge" v="yes" />
		<tag k="layer" v="1" />
		<tag k="name" v="Rossavik" />
		<tag k="ssr:stedsnr" v="775654" />
	</node>
	<node lat="58.80279444849023" lon="5.7288083356326895" id="-1327">
		<tag k="name" v="Fosseikeland" />
		<tag k="old_name" v="Foss Eikjeland" />
		<tag k="railway" v="station" />
		<tag k="ssr:stedsnr" v="911896" />
		<tag k="train" v="yes" />
	</node>
	<node lat="58.83563888952557" lon="5.742263882887184" id="-1387">
		<tag k="bridge" v="yes" />
		<tag k="layer" v="1" />
		<tag k="name" v="Myrland" />
		<tag k="ssr:stedsnr" v="836290" />
	</node>
	<node lat="58.862202778844924" lon="5.846219444491866" id="-1388">
		<tag k="bridge" v="yes" />
		<tag k="layer" v="1" />
		<tag k="name" v="Naudaneset" />
		<tag k="ssr:stedsnr" v="836292" />
	</node>
	<node lat="58.83712499710269" lon="5.722480562587414" id="-1389">
		<tag k="bridge" v="yes" />
		<tag k="layer" v="1" />
		<tag k="name" v="Sandvedlunden" />
		<tag k="ssr:stedsnr" v="836294" />
	</node>
	<node lat="58.958438890067185" lon="6.196908328214124" id="-1404">
		<tag k="highway" v="path" />
		<tag k="name" v="Grøstien" />
		<tag k="ssr:stedsnr" v="849005" />
	</node>
	<node lat="58.82968055726665" lon="5.828855551898875" id="-1566">
		<tag k="bridge" v="yes" />
		<tag k="layer" v="1" />
		<tag k="name" v="Sviland" />
		<tag k="ssr:stedsnr" v="957314" />
	</node>
	<node lat="58.87983055584103" lon="5.774163887162611" id="-1567">
		<tag k="bridge" v="yes" />
		<tag k="layer" v="1" />
		<tag k="name" v="Strondavika" />
		<tag k="ssr:stedsnr" v="957316" />
	</node>
	<node lat="58.87344444098851" lon="5.734350002427499" id="-1568">
		<tag k="bridge" v="yes" />
		<tag k="layer" v="1" />
		<tag k="name" v="Lura" />
		<tag k="ssr:stedsnr" v="957326" />
	</node>
	<node lat="58.86192221986961" lon="5.711411115290598" id="-1569">
		<tag k="bridge" v="yes" />
		<tag k="layer" v="1" />
		<tag k="name" v="Soma" />
		<tag k="ssr:stedsnr" v="957338" />
	</node>
	<node lat="58.88661666967148" lon="6.106386112904532" id="-1576">
		<tag k="highway" v="path" />
		<tag k="name" v="Stien" />
		<tag k="ssr:stedsnr" v="969035" />
	</node>
	<node lat="59.119096962728726" lon="6.893258044716317" id="-1592">
		<tag k="landuse" v="industrial" />
		<tag k="name" v="Duge kraftverk" />
		<tag k="power" v="plant" />
		<tag k="ssr:stedsnr" v="981299" />
	</node>
	<node lat="58.84158888895424" lon="5.691711112642091" id="-1672">
		<tag k="junction" v="yes" />
		<tag k="name" v="Vadet" />
		<tag k="place" v="locality" />
		<tag k="ssr:stedsnr" v="24260" />
	</node>
	<node lat="58.8474444471273" lon="5.736716662109329" id="-1695">
		<tag k="bridge" v="yes" />
		<tag k="layer" v="1" />
		<tag k="name" v="Storåna" />
		<tag k="ssr:stedsnr" v="47332" />
	</node>
	<node lat="58.829047220089784" lon="5.724988884032299" id="-1696">
		<tag k="bridge" v="yes" />
		<tag k="layer" v="1" />
		<tag k="name" v="Lundehaugen" />
		<tag k="ssr:stedsnr" v="47340" />
	</node>
	<node lat="58.784447222513194" lon="5.823275003616768" id="-1697">
		<tag k="bridge" v="yes" />
		<tag k="layer" v="1" />
		<tag k="name" v="Håland (Søndre)" />
		<tag k="ssr:stedsnr" v="47343" />
	</node>
	<node lat="58.84741110907358" lon="5.716638882546586" id="-1698">
		<tag k="bridge" v="yes" />
		<tag k="layer" v="1" />
		<tag k="name" v="Skeiane" />
		<tag k="ssr:stedsnr" v="47346" />
	</node>
	<node lat="58.84162222470291" lon="5.725819435786046" id="-1699">
		<tag k="bridge" v="yes" />
		<tag k="layer" v="1" />
		<tag k="name" v="Sandskaret" />
		<tag k="ssr:stedsnr" v="47352" />
	</node>
	<node lat="58.82161111376946" lon="5.755741657842736" id="-1700">
		<tag k="bridge" v="yes" />
		<tag k="layer" v="1" />
		<tag k="name" v="Bogafjell" />
		<tag k="ssr:stedsnr" v="47353" />
	</node>
	<node lat="58.90385555977858" lon="6.322916659887512" id="-1716">
		<tag k="ford" v="yes" />
		<tag k="name" v="Hedlesdalvadet" />
		<tag k="place" v="locality" />
		<tag k="ssr:stedsnr" v="58995" />
	</node>
	<node lat="58.82277777474486" lon="5.747466671163047" id="-1795">
		<tag k="bridge" v="yes" />
		<tag k="layer" v="1" />
		<tag k="name" v="Presthei" />
		<tag k="ssr:stedsnr" v="229350" />
	</node>
	<node lat="58.840611113045235" lon="5.724941660487407" id="-1796">
		<tag k="bridge" v="yes" />
		<tag k="layer" v="1" />
		<tag k="name" v="Sandved" />
		<tag k="ssr:stedsnr" v="229353" />
	</node>
	<node lat="58.78825000067757" lon="5.806894436570936" id="-1797">
		<tag k="bridge" v="yes" />
		<tag k="layer" v="1" />
		<tag k="name" v="Figgjo" />
		<tag k="ssr:stedsnr" v="229357" />
	</node>
	<node lat="58.88229444467132" lon="5.7431666586803525" id="-1798">
		<tag k="bridge" v="yes" />
		<tag k="layer" v="1" />
		<tag k="name" v="Eventyrveien" />
		<tag k="ssr:stedsnr" v="229358" />
	</node>
	<node lat="58.85179722283325" lon="5.770088883625952" id="-1845">
		<tag k="bridge" v="yes" />
		<tag k="layer" v="1" />
		<tag k="name" v="Myrå" />
		<tag k="ssr:stedsnr" v="108341" />
	</node>
	<node lat="58.87060277982915" lon="5.742791660222641" id="-1846">
		<tag k="bridge" v="yes" />
		<tag k="layer" v="1" />
		<tag k="name" v="Somanes" />
		<tag k="ssr:stedsnr" v="108345" />
	</node>
	<node lat="58.896436114175074" lon="5.99960277160982" id="-1847">
		<tag k="bridge" v="yes" />
		<tag k="layer" v="1" />
		<tag k="name" v="Høleåna" />
		<tag k="ssr:stedsnr" v="108362" />
	</node>
	<node lat="58.836800002576105" lon="5.8376749948378475" id="-1848">
		<tag k="bridge" v="yes" />
		<tag k="layer" v="1" />
		<tag k="name" v="Foss Vatne" />
		<tag k="ssr:stedsnr" v="108366" />
	</node>
	<node lat="59.01189166949544" lon="6.263116662960924" id="-1859">
		<tag k="man_made" v="quay" />
		<tag k="name" v="Brattlikaien" />
		<tag k="place" v="locality" />
		<tag k="ssr:stedsnr" v="120194" />
	</node>
	<node lat="58.920263886853995" lon="6.441699996318108" id="-1893">
		<tag k="highway" v="path" />
		<tag k="name" v="Indra Klemma" />
		<tag k="ssr:stedsnr" v="122700" />
	</node>
	<node lat="58.85550833252123" lon="5.714538888324957" id="-1984">
		<tag k="bridge" v="yes" />
		<tag k="layer" v="1" />
		<tag k="name" v="Stangeland Skole" />
		<tag k="ssr:stedsnr" v="168330" />
	</node>
	<node lat="58.873874996154" lon="5.7223305631686925" id="-1985">
		<tag k="bridge" v="yes" />
		<tag k="layer" v="1" />
		<tag k="name" v="Lurasvingen" />
		<tag k="ssr:stedsnr" v="168338" />
	</node>
	<node lat="58.8398777742958" lon="5.740669448348946" id="-1986">
		<tag k="bridge" v="yes" />
		<tag k="layer" v="1" />
		<tag k="name" v="Prestegårdsvegen" />
		<tag k="ssr:stedsnr" v="168346" />
	</node>
	<node lat="58.79057777731709" lon="5.804936114650747" id="-1987">
		<tag k="bridge" v="yes" />
		<tag k="layer" v="1" />
		<tag k="name" v="Figgjo Nedre" />
		<tag k="ssr:stedsnr" v="168350" />
	</node>
	<node lat="58.78874444679191" lon="5.81139444707412" id="-2091">
		<tag k="bridge" v="yes" />
		<tag k="layer" v="1" />
		<tag k="name" v="Håland (Nordre)" />
		<tag k="ssr:stedsnr" v="290323" />
	</node>
	<node lat="58.93973333590564" lon="6.371055555787551" id="-2108">
		<tag k="highway" v="path" />
		<tag k="name" v="Driftaveien" />
		<tag k="ssr:stedsnr" v="302092" />
	</node>
	<node lat="58.919619443088536" lon="6.101033324990517" id="-2218">
		<tag k="highway" v="path" />
		<tag k="name" v="Nesastigen" />
		<tag k="ssr:stedsnr" v="329561" />
	</node>
	<node lat="58.8972888860787" lon="6.001477780552899" id="-2221">
		<tag k="man_made" v="quay" />
		<tag k="name" v="Prestabrygga" />
		<tag k="place" v="locality" />
		<tag k="ssr:stedsnr" v="343140" />
	</node>
	<node lat="58.85049721801889" lon="5.720444444725601" id="-2228">
		<tag k="bridge" v="yes" />
		<tag k="layer" v="1" />
		<tag k="name" v="Bjørnstj. Bjørnsonsgate" />
		<tag k="ssr:stedsnr" v="350321" />
	</node>
	<node lat="58.850094444562494" lon="5.714658334393529" id="-2229">
		<tag k="bridge" v="yes" />
		<tag k="layer" v="1" />
		<tag k="name" v="Gåshaugen" />
		<tag k="ssr:stedsnr" v="350322" />
	</node>
	<node lat="58.914313890801495" lon="6.2996444398839895" id="-2271">
		<tag k="ford" v="yes" />
		<tag k="name" v="Spranget" />
		<tag k="place" v="locality" />
		<tag k="ssr:stedsnr" v="363080" />
	</node>
	<node lat="58.833716662410794" lon="5.7194611111765425" id="-2359">
		<tag k="bridge" v="yes" />
		<tag k="layer" v="1" />
		<tag k="name" v="Åsedalen" />
		<tag k="ssr:stedsnr" v="411310" />
	</node>
	<node lat="58.82974167027871" lon="5.717099992799437" id="-2360">
		<tag k="bridge" v="yes" />
		<tag k="layer" v="1" />
		<tag k="name" v="Torger Carlsen" />
		<tag k="ssr:stedsnr" v="411313" />
	</node>
	<node lat="58.78784166785344" lon="5.815777770420644" id="-2361">
		<tag k="bridge" v="yes" />
		<tag k="layer" v="1" />
		<tag k="name" v="Tjessem" />
		<tag k="ssr:stedsnr" v="411315" />
	</node>
	<node lat="58.90382500067654" lon="5.96335833739902" id="-2362">
		<tag k="bridge" v="yes" />
		<tag k="layer" v="1" />
		<tag k="name" v="Ims" />
		<tag k="ssr:stedsnr" v="411327" />
	</node>
	<node lat="58.83954444572103" lon="5.753677778230031" id="-2363">
		<tag k="bridge" v="yes" />
		<tag k="layer" v="1" />
		<tag k="name" v="Riaren" />
		<tag k="ssr:stedsnr" v="411330" />
	</node>
	<node lat="58.85941944614068" lon="5.918322224324697" id="-2364">
		<tag k="bridge" v="yes" />
		<tag k="layer" v="1" />
		<tag k="name" v="Risdal" />
		<tag k="ssr:stedsnr" v="411332" />
	</node>
	<node lat="58.852163888940616" lon="5.737183338200472" id="-2377">
		<tag k="highway" v="bus_stop" />
		<tag k="name" v="Sandnes rutebilstasjon" />
		<tag k="ssr:stedsnr" v="422672" />
	</node>
	<node lat="58.87579166820355" lon="5.956672223248288" id="-2457">
		<tag k="highway" v="path" />
		<tag k="name" v="Renkestien" />
		<tag k="ssr:stedsnr" v="508077" />
	</node>
	<node lat="58.82363889234141" lon="5.881247229744112" id="-2490">
		<tag k="bridge" v="yes" />
		<tag k="layer" v="1" />
		<tag k="name" v="Hetland (Øvre)" />
		<tag k="ssr:stedsnr" v="532339" />
	</node>
	<node lat="58.930336107944825" lon="5.848116660599257" id="-2491">
		<tag k="man_made" v="quay" />
		<tag k="name" v="Hommersåk kai" />
		<tag k="place" v="locality" />
		<tag k="ssr:stedsnr" v="532346" />
	</node>
	<node lat="59.01628889078993" lon="6.323091669030267" id="-2492">
		<tag k="amenity" v="ferry_terminal" />
		<tag k="name" v="Songesand ferjekai" />
		<tag k="ssr:stedsnr" v="532656" />
	</node>
	<node lat="58.888513891384356" lon="5.729444442329713" id="-2586">
		<tag k="bridge" v="yes" />
		<tag k="layer" v="1" />
		<tag k="name" v="Forus" />
		<tag k="ssr:stedsnr" v="593325" />
	</node>
	<node lat="58.883591663318775" lon="6.295138893143341" id="-2616">
		<tag k="highway" v="path" />
		<tag k="name" v="Sigmundstien" />
		<tag k="ssr:stedsnr" v="605979" />
	</node>
	<node lat="58.89421666750355" lon="6.223086115478494" id="-2716">
		<tag k="ford" v="yes" />
		<tag k="name" v="Gangsteinane" />
		<tag k="place" v="locality" />
		<tag k="ssr:stedsnr" v="648177" />
	</node>
	<node lat="58.84530833638275" lon="5.7183222258805" id="-2717">
		<tag k="bridge" v="yes" />
		<tag k="layer" v="1" />
		<tag k="name" v="Skeianemarka" />
		<tag k="ssr:stedsnr" v="654352" />
	</node>
	<node lat="58.8022500002226" lon="5.781308325190903" id="-2718">
		<tag k="bridge" v="yes" />
		<tag k="layer" v="1" />
		<tag k="name" v="Bråstein" />
		<tag k="ssr:stedsnr" v="654357" />
	</node>
	<node lat="58.83015555330085" lon="5.737291670074819" id="-2719">
		<tag k="bridge" v="yes" />
		<tag k="layer" v="1" />
		<tag k="name" v="Hove III" />
		<tag k="ssr:stedsnr" v="654363" />
	</node>
	<node lat="58.84665555310329" lon="5.7159694503260345" id="-2720">
		<tag k="bridge" v="yes" />
		<tag k="layer" v="1" />
		<tag k="name" v="Foren" />
		<tag k="ssr:stedsnr" v="654364" />
	</node>
	<node lat="58.8486805575714" lon="5.719469443521872" id="-2786">
		<tag k="bridge" v="yes" />
		<tag k="layer" v="1" />
		<tag k="name" v="Vårveien" />
		<tag k="ssr:stedsnr" v="715353" />
	</node>
	<node lat="58.81176110923083" lon="5.770911119104512" id="-2890">
		<tag k="name" v="Bråsteinkanalen" />
		<tag k="ssr:stedsnr" v="752593" />
		<tag k="waterway" v="canal" />
	</node>
	<node lat="58.82207778210113" lon="5.71709443878727" id="-2910">
		<tag k="bridge" v="yes" />
		<tag k="layer" v="1" />
		<tag k="name" v="Ganddal" />
		<tag k="ssr:stedsnr" v="775328" />
	</node>
	<node lat="58.991602775118764" lon="6.256336102694171" id="-2923">
		<tag k="fixme" v="verify maritime location" />
		<tag k="mooring" v="yes" />
		<tag k="name" v="Sjurshamn" />
		<tag k="place" v="locality" />
		<tag k="ssr:stedsnr" v="787045" />
	</node>
	<node lat="58.9456583340824" lon="6.317433332457031" id="-3031">
		<tag k="ford" v="yes" />
		<tag k="name" v="Sauavadet" />
		<tag k="place" v="locality" />
		<tag k="ssr:stedsnr" v="829492" />
	</node>
	<node lat="58.88394999793153" lon="6.012174999741099" id="-3038">
		<tag k="bridge" v="yes" />
		<tag k="layer" v="1" />
		<tag k="name" v="Nedre Gjesteland" />
		<tag k="ssr:stedsnr" v="836315" />
	</node>
	<node lat="59.04993055337764" lon="6.405136116893664" id="-3039">
		<tag k="bridge" v="yes" />
		<tag k="layer" v="1" />
		<tag k="name" v="Mørkebudalen" />
		<tag k="ssr:stedsnr" v="836654" />
	</node>
	<node lat="58.91966944303968" lon="6.41168611824688" id="-3103">
		<tag k="highway" v="path" />
		<tag k="name" v="Heimra Klemma" />
		<tag k="ssr:stedsnr" v="851700" />
	</node>
	<node lat="58.79483332924385" lon="5.7777583407089494" id="-3104">
		<tag k="name" v="Bråstein" />
		<tag k="railway" v="station" />
		<tag k="ssr:stedsnr" v="851901" />
		<tag k="train" v="yes" />
	</node>
	<node lat="58.87185833696475" lon="5.959816674188632" id="-3108">
		<tag k="highway" v="path" />
		<tag k="name" v="Revastien" />
		<tag k="ssr:stedsnr" v="872071" />
	</node>
	<node lat="58.8550374220181" lon="5.743657587271961" id="-3202">
		<tag k="man_made" v="quay" />
		<tag k="name" v="Honnørbryggen" />
		<tag k="place" v="locality" />
		<tag k="ssr:stedsnr" v="973831" />
	</node>
	<node lat="59.05469024527894" lon="6.645276184888703" id="-3204">
		<tag k="amenity" v="ferry_terminal" />
		<tag k="name" v="Lysebotn ferjekai" />
		<tag k="ssr:stedsnr" v="978637" />
	</node>
	<node lat="58.82327407372257" lon="5.717170915428872" id="-3209">
		<tag k="name" v="Ganddal stasjon" />
		<tag k="railway" v="station" />
		<tag k="ssr:stedsnr" v="989988" />
		<tag k="train" v="yes" />
	</node>
	<node lat="59.013254021270214" lon="6.290606652509001" id="-3244">
		<tag k="man_made" v="quay" />
		<tag k="name" v="Bakken kai" />
		<tag k="place" v="locality" />
		<tag k="ssr:stedsnr" v="1081964" />
	</node>
	<node lat="59.01529090225882" lon="6.4314490273968135" id="-3245">
		<tag k="man_made" v="quay" />
		<tag k="name" v="Flørli ferjekai" />
		<tag k="place" v="locality" />
		<tag k="ssr:stedsnr" v="1081966" />
	</node>
</osm>
