<?xml version="1.0" encoding="UTF-8"?>
<osm generator="osmapis" version="0.6">
	<node id="-11768" lat="58.8848555589" lon="6.04218610545">
		<tag k="name" v="Torvmyra" />
		<tag k="natural" v="wetland" />
		<tag k="ssr:stedsnr" v="950113" />
	</node>
	<node id="-11255" lat="58.910055559" lon="6.13074167032">
		<tag k="historic" v="shieling" />
		<tag k="name" v="Heimre Stølen" />
		<tag k="place" v="locality" />
		<tag k="ssr:stedsnr" v="605638" />
	</node>
	<node id="-12276" lat="58.8679138917" lon="6.21216666552">
		<tag k="name" v="Ljødemyr" />
		<tag k="natural" v="wetland" />
		<tag k="ssr:stedsnr" v="161933" />
	</node>
	<node id="-10867" lat="58.8636194477" lon="6.14796389501">
		<tag k="name" v="Vettaseet" />
		<tag k="place" v="locality" />
		<tag k="ssr:stedsnr" v="358173" />
	</node>
	<node id="-10732" lat="58.8885250038" lon="6.19620277065">
		<tag k="historic" v="shieling" />
		<tag k="name" v="Byrkjelandsstølen" />
		<tag k="place" v="locality" />
		<tag k="ssr:stedsnr" v="302157" />
	</node>
	<node id="-10731" lat="58.9212277741" lon="6.32791389659">
		<tag k="name" v="Indre Kjilen" />
		<tag k="natural" v="wetland" />
		<tag k="ssr:stedsnr" v="302116" />
	</node>
	<node id="-12264" lat="58.8448194473" lon="5.80597500066">
		<tag k="name" v="Stompamyra" />
		<tag k="natural" v="wetland" />
		<tag k="ssr:stedsnr" v="145647" />
	</node>
	<node id="-12773" lat="58.812780559" lon="5.85183055615">
		<tag k="name" v="Voremyra" />
		<tag k="natural" v="wetland" />
		<tag k="ssr:stedsnr" v="426491" />
	</node>
	<node id="-10723" lat="58.9621361119" lon="6.25786111811">
		<tag k="name" v="Viermyr" />
		<tag k="natural" v="wetland" />
		<tag k="ssr:stedsnr" v="302018" />
	</node>
	<node id="-11743" lat="58.8073777818" lon="5.92701388253">
		<tag k="name" v="Liamyra" />
		<tag k="natural" v="wetland" />
		<tag k="ssr:stedsnr" v="933009" />
	</node>
	<node id="-12254" lat="58.8863944438" lon="5.71583055216">
		<tag k="name" v="Vadlamyra" />
		<tag k="natural" v="wetland" />
		<tag k="ssr:stedsnr" v="145239" />
	</node>
	<node id="-12252" lat="58.8987166699" lon="5.81142500089">
		<tag k="name" v="Resasteinen" />
		<tag k="natural" v="stone" />
		<tag k="ssr:stedsnr" v="145194" />
	</node>
	<node id="-12251" lat="58.8799777802" lon="5.81206944333">
		<tag k="name" v="Bjønndalsmyra" />
		<tag k="natural" v="wetland" />
		<tag k="ssr:stedsnr" v="145186" />
	</node>
	<node id="-11738" lat="58.9010416661" lon="6.24889999881">
		<tag k="name" v="Åssteinane" />
		<tag k="natural" v="stone" />
		<tag k="ssr:stedsnr" v="908834" />
	</node>
	<node id="-10713" lat="58.9112722216" lon="6.17618888745">
		<tag k="name" v="Kjeringtjønnmyra" />
		<tag k="natural" v="wetland" />
		<tag k="ssr:stedsnr" v="300357" />
	</node>
	<node id="-10712" lat="58.9199916652" lon="6.24928611023">
		<tag k="historic" v="shieling" />
		<tag k="name" v="Halfarsteinen" />
		<tag k="place" v="locality" />
		<tag k="ssr:stedsnr" v="300304" />
	</node>
	<node id="-11734" lat="58.9241944419" lon="6.16633889614">
		<tag k="name" v="Fiskesteinen" />
		<tag k="natural" v="stone" />
		<tag k="ssr:stedsnr" v="907322" />
	</node>
	<node id="-12756" lat="58.9755388901" lon="6.26344999811">
		<tag k="name" v="Endrane" />
		<tag k="natural" v="wetland" />
		<tag k="ssr:stedsnr" v="425499" />
	</node>
	<node id="-12242" lat="58.852402781" lon="5.98720556255">
		<tag k="name" v="Undeknutsmyra" />
		<tag k="natural" v="wetland" />
		<tag k="ssr:stedsnr" v="144892" />
	</node>
	<node id="-11728" lat="58.8315638845" lon="5.91852222455">
		<tag k="name" v="Flatahei" />
		<tag k="place" v="locality" />
		<tag k="ssr:stedsnr" v="873978" />
	</node>
	<node id="-12239" lat="58.8886888865" lon="5.83451388542">
		<tag k="name" v="Hatleskog" />
		<tag k="place" v="locality" />
		<tag k="ssr:stedsnr" v="144254" />
	</node>
	<node id="-11213" lat="58.9624750022" lon="6.21270833225">
		<tag k="name" v="Gullura" />
		<tag k="natural" v="scree" />
		<tag k="ssr:stedsnr" v="545012" />
	</node>
	<node id="-12235" lat="58.8991333356" lon="5.85604721794">
		<tag k="name" v="Merlandsmyra" />
		<tag k="natural" v="wetland" />
		<tag k="ssr:stedsnr" v="144215" />
	</node>
	<node id="-12225" lat="58.9461080824" lon="5.88687679111">
		<tag k="name" v="Hagen" />
		<tag k="place" v="locality" />
		<tag k="ssr:stedsnr" v="144151" />
	</node>
	<node id="-10687" lat="58.881827776" lon="5.72971945175">
		<tag k="name" v="Porsholmyra" />
		<tag k="natural" v="wetland" />
		<tag k="ssr:stedsnr" v="449667" />
	</node>
	<node id="-10685" lat="58.8485777763" lon="5.81406667355">
		<tag k="name" v="Breidmyra" />
		<tag k="natural" v="wetland" />
		<tag k="ssr:stedsnr" v="449642" />
	</node>
	<node id="-12731" lat="58.9289527755" lon="6.25020555159">
		<tag k="name" v="Skitlandsbeitet" />
		<tag k="place" v="locality" />
		<tag k="ssr:stedsnr" v="422381" />
	</node>
	<node id="-11706" lat="58.8956416664" lon="5.95378332835">
		<tag k="name" v="Øygardslandet" />
		<tag k="place" v="locality" />
		<tag k="ssr:stedsnr" v="872065" />
	</node>
	<node id="-12729" lat="58.9424583289" lon="6.27108888896">
		<tag k="name" v="Myrane" />
		<tag k="natural" v="wetland" />
		<tag k="ssr:stedsnr" v="422353" />
	</node>
	<node id="-10679" lat="58.8725722203" lon="5.81651945048">
		<tag k="name" v="Loen" />
		<tag k="place" v="locality" />
		<tag k="ssr:stedsnr" v="449188" />
	</node>
	<node id="-12214" lat="58.857694448" lon="5.91128889668">
		<tag k="name" v="Rompeskogen" />
		<tag k="place" v="locality" />
		<tag k="ssr:stedsnr" v="144062" />
	</node>
	<node id="-12725" lat="58.9467888873" lon="6.30008055836">
		<tag k="historic" v="shieling" />
		<tag k="name" v="Tydlebakka" />
		<tag k="place" v="locality" />
		<tag k="ssr:stedsnr" v="421230" />
	</node>
	<node id="-10675" lat="58.8460055553" lon="5.9786777733">
		<tag k="name" v="Myra" />
		<tag k="natural" v="wetland" />
		<tag k="ssr:stedsnr" v="448935" />
	</node>
	<node id="-11168" lat="58.9121166703" lon="5.92693610539">
		<tag k="name" v="Kattura" />
		<tag k="natural" v="scree" />
		<tag k="ssr:stedsnr" v="690141" />
	</node>
	<node id="-11676" lat="58.895311111" lon="5.98874722785">
		<tag k="name" v="Kjørra" />
		<tag k="place" v="locality" />
		<tag k="ssr:stedsnr" v="936165" />
	</node>
	<node id="-11163" lat="58.8037666663" lon="5.8483027821">
		<tag k="name" v="Goemyr" />
		<tag k="natural" v="wetland" />
		<tag k="ssr:stedsnr" v="690100" />
	</node>
	<node id="-11673" lat="58.8485333311" lon="5.94659722371">
		<tag k="name" v="Stora Myra" />
		<tag k="natural" v="wetland" />
		<tag k="ssr:stedsnr" v="934902" />
	</node>
	<node id="-12695" lat="58.8066666665" lon="5.7657722188">
		<tag k="loc_name" v="Helgelandsmyra" />
		<tag k="name" v="Helgalandsmyra" />
		<tag k="natural" v="wetland" />
		<tag k="ssr:stedsnr" v="388604" />
	</node>
	<node id="-11156" lat="58.80466944" lon="5.89569166089">
		<tag k="name" v="Storemyr" />
		<tag k="natural" v="wetland" />
		<tag k="ssr:stedsnr" v="690009" />
	</node>
	<node id="-12691" lat="58.8269694402" lon="5.91486388641">
		<tag k="name" v="Raulemyra" />
		<tag k="natural" v="wetland" />
		<tag k="ssr:stedsnr" v="387991" />
	</node>
	<node id="-11331" lat="59.0542777741" lon="6.6302500015">
		<tag k="alt_name" v="Måkasteinen" />
		<tag k="name" v="Måkastein" />
		<tag k="natural" v="stone" />
		<tag k="ssr:stedsnr" v="630965" />
	</node>
	<node id="-12683" lat="58.8545388908" lon="5.69494721935">
		<tag k="name" v="Koppholsmyra" />
		<tag k="natural" v="wetland" />
		<tag k="ssr:stedsnr" v="387317" />
	</node>
	<node id="-10627" lat="58.9531187084" lon="5.85137123942">
		<tag k="name" v="Kubåsen" />
		<tag k="place" v="locality" />
		<tag k="ssr:stedsnr" v="447096" />
	</node>
	<node id="-10623" lat="58.8792500005" lon="5.94871944768">
		<tag k="name" v="Slåttemyra" />
		<tag k="natural" v="wetland" />
		<tag k="ssr:stedsnr" v="447070" />
	</node>
	<node id="-12670" lat="58.9028666694" lon="5.86080000131">
		<tag k="name" v="Vassholen" />
		<tag k="natural" v="wetland" />
		<tag k="ssr:stedsnr" v="386204" />
	</node>
	<node id="-11643" lat="58.8905472268" lon="5.85435556184">
		<tag k="name" v="Storamyr" />
		<tag k="natural" v="wetland" />
		<tag k="ssr:stedsnr" v="933232" />
	</node>
	<node id="-12147" lat="58.9364694447" lon="6.22081388142">
		<tag k="historic" v="shieling" />
		<tag k="name" v="Hagastølen" />
		<tag k="place" v="locality" />
		<tag k="ssr:stedsnr" v="122542" />
	</node>
	<node id="-10387" lat="58.8871527741" lon="6.24818055722">
		<tag k="name" v="Hagjen" />
		<tag k="place" v="locality" />
		<tag k="ssr:stedsnr" v="241783" />
	</node>
	<node id="-11240" lat="58.8660972179" lon="6.22962499952">
		<tag k="historic" v="shieling" />
		<tag k="name" v="Mælstølen" />
		<tag k="place" v="locality" />
		<tag k="ssr:stedsnr" v="586943" />
	</node>
	<node id="-13163" lat="58.8070249988" lon="5.80061388206">
		<tag k="name" v="Vassvikmyra" />
		<tag k="natural" v="wetland" />
		<tag k="ssr:stedsnr" v="752191" />
	</node>
	<node id="-13157" lat="58.8235583377" lon="5.91039443887">
		<tag k="name" v="Nesjene" />
		<tag k="natural" v="wetland" />
		<tag k="ssr:stedsnr" v="752000" />
	</node>
	<node id="-13156" lat="58.8402138856" lon="5.91652778568">
		<tag k="name" v="Bronehei" />
		<tag k="place" v="locality" />
		<tag k="ssr:stedsnr" v="751982" />
	</node>
	<node id="-11105" lat="58.9322722209" lon="6.1985444359">
		<tag k="name" v="Skitmyrane" />
		<tag k="natural" v="wetland" />
		<tag k="ssr:stedsnr" v="484671" />
	</node>
	<node id="-13149" lat="58.8634750007" lon="5.86800555841">
		<tag k="name" v="Stemmemyr" />
		<tag k="natural" v="wetland" />
		<tag k="ssr:stedsnr" v="751230" />
	</node>
	<node id="-11096" lat="58.9032722241" lon="6.12317500265">
		<tag k="name" v="Viemyr" />
		<tag k="natural" v="wetland" />
		<tag k="ssr:stedsnr" v="483252" />
	</node>
	<node id="-12119" lat="58.906136107" lon="6.13313332601">
		<tag k="name" v="Eiketødne" />
		<tag k="place" v="locality" />
		<tag k="ssr:stedsnr" v="120628" />
	</node>
	<node id="-11094" lat="58.8753805553" lon="6.05937776951">
		<tag k="name" v="Svartopsmyra" />
		<tag k="place" v="locality" />
		<tag k="ssr:stedsnr" v="483203" />
	</node>
	<node id="-12942" lat="58.8453388928" lon="5.63320832603">
		<tag k="name" v="Heigremyrane" />
		<tag k="natural" v="wetland" />
		<tag k="ssr:stedsnr" v="569287" />
	</node>
	<node id="-11090" lat="58.9539972237" lon="6.15890277192">
		<tag k="name" v="Gullura" />
		<tag k="natural" v="scree" />
		<tag k="ssr:stedsnr" v="478985" />
	</node>
	<node id="-11601" lat="58.8507000001" lon="6.02349165997">
		<tag k="name" v="Moltemyra" />
		<tag k="natural" v="wetland" />
		<tag k="ssr:stedsnr" v="787837" />
	</node>
	<node id="-12110" lat="58.902602776" lon="6.1845722285">
		<tag k="name" v="Torvmyra" />
		<tag k="natural" v="wetland" />
		<tag k="ssr:stedsnr" v="120130" />
	</node>
	<node id="-13128" lat="58.9764025601" lon="6.21903477831">
		<tag k="name" v="Galtasteinen" />
		<tag k="natural" v="stone" />
		<tag k="ssr:stedsnr" v="749544" />
	</node>
	<node id="-10445" lat="58.8052694408" lon="5.8509722159">
		<tag k="name" v="Nøkkamyra" />
		<tag k="natural" v="wetland" />
		<tag k="ssr:stedsnr" v="83106" />
	</node>
	<node id="-10554" lat="58.8954666661" lon="6.02917499864">
		<tag k="name" v="Kalvaskogen" />
		<tag k="place" v="locality" />
		<tag k="ssr:stedsnr" v="161157" />
	</node>
	<node id="-13102" lat="58.8450527751" lon="5.97279999605">
		<tag k="name" v="Stølsfjellmyra" />
		<tag k="natural" v="wetland" />
		<tag k="ssr:stedsnr" v="630901" />
	</node>
	<node id="-13100" lat="58.8312527773" lon="5.9911499949">
		<tag k="name" v="Vassheia" />
		<tag k="place" v="locality" />
		<tag k="ssr:stedsnr" v="630839" />
	</node>
	<node id="-12075" lat="58.8128305561" lon="5.73931944857">
		<tag k="name" v="Goemyr" />
		<tag k="natural" v="wetland" />
		<tag k="ssr:stedsnr" v="85547" />
	</node>
	<node id="-10538" lat="58.8386500035" lon="5.9204805498">
		<tag k="name" v="Djupemyr" />
		<tag k="natural" v="wetland" />
		<tag k="ssr:stedsnr" v="266982" />
	</node>
	<node id="-12071" lat="58.8229888865" lon="5.90511666979">
		<tag k="name" v="Gangsteinmyra" />
		<tag k="natural" v="wetland" />
		<tag k="ssr:stedsnr" v="84999" />
	</node>
	<node id="-12069" lat="58.8802472209" lon="5.72241388765">
		<tag k="name" v="Stokkamyra" />
		<tag k="natural" v="wetland" />
		<tag k="ssr:stedsnr" v="84701" />
	</node>
	<node id="-12577" lat="58.9437138852" lon="6.17381388711">
		<tag k="historic" v="shieling" />
		<tag k="name" v="Eiastølen" />
		<tag k="place" v="locality" />
		<tag k="ssr:stedsnr" v="362677" />
	</node>
	<node id="-10528" lat="58.8442555599" lon="5.8195416706">
		<tag k="name" v="Klokkemyra" />
		<tag k="natural" v="wetland" />
		<tag k="ssr:stedsnr" v="266653" />
	</node>
	<node id="-13086" lat="58.9226416695" lon="5.85349999602">
		<tag k="name" v="Ørnamyra" />
		<tag k="natural" v="wetland" />
		<tag k="ssr:stedsnr" v="629147" />
	</node>
	<node id="-10525" lat="58.8723305513" lon="5.6937888894">
		<tag k="name" v="Somamyr" />
		<tag k="natural" v="wetland" />
		<tag k="ssr:stedsnr" v="266334" />
	</node>
	<node id="-13084" lat="58.9174972238" lon="5.89396944468">
		<tag k="loc_name" v="Torsmyra" />
		<tag k="name" v="Torsmyr" />
		<tag k="natural" v="wetland" />
		<tag k="ssr:stedsnr" v="629139" />
	</node>
	<node id="-13082" lat="58.9523055553" lon="5.87473055806">
		<tag k="name" v="Djubemyra" />
		<tag k="natural" v="wetland" />
		<tag k="ssr:stedsnr" v="629101" />
	</node>
	<node id="-11033" lat="58.9307694448" lon="6.15931665989">
		<tag k="name" v="Krogamyra" />
		<tag k="natural" v="wetland" />
		<tag k="ssr:stedsnr" v="466518" />
	</node>
	<node id="-12053" lat="58.880836109" lon="5.86998333426">
		<tag k="name" v="Pyttamyr" />
		<tag k="natural" v="wetland" />
		<tag k="ssr:stedsnr" v="83143" />
	</node>
	<node id="-10883" lat="58.9587500005" lon="6.2647555529">
		<tag k="name" v="Stilkamyra" />
		<tag k="natural" v="wetland" />
		<tag k="ssr:stedsnr" v="363018" />
	</node>
	<node id="-10512" lat="58.8793361152" lon="5.86081943734">
		<tag k="name" v="Bergursmyra" />
		<tag k="natural" v="wetland" />
		<tag k="ssr:stedsnr" v="265207" />
	</node>
	<node id="-12553" lat="58.8925222247" lon="6.0422416646">
		<tag k="name" v="Mågsteinen" />
		<tag k="natural" v="stone" />
		<tag k="ssr:stedsnr" v="343138" />
	</node>
	<node id="-10504" lat="58.912180554" lon="5.85292221732">
		<tag k="name" v="Bastemyra" />
		<tag k="natural" v="wetland" />
		<tag k="ssr:stedsnr" v="265140" />
	</node>
	<node id="-10869" lat="58.9362583338" lon="6.29839999878">
		<tag k="name" v="Vida Myrå" />
		<tag k="natural" v="wetland" />
		<tag k="ssr:stedsnr" v="360213" />
	</node>
	<node id="-12547" lat="58.8251194438" lon="5.89756945043">
		<tag k="name" v="Kodleholen" />
		<tag k="place" v="locality" />
		<tag k="ssr:stedsnr" v="327998" />
	</node>
	<node id="-11522" lat="58.9759638928" lon="6.42909721907">
		<tag k="name" v="Uraleitet" />
		<tag k="natural" v="scree" />
		<tag k="ssr:stedsnr" v="911535" />
	</node>
	<node id="-12545" lat="58.8351749966" lon="5.92456110739">
		<tag k="name" v="Langholen" />
		<tag k="place" v="locality" />
		<tag k="ssr:stedsnr" v="327966" />
	</node>
	<node id="-10493" lat="58.8904472182" lon="5.96098888085">
		<tag k="name" v="Ragsmyr" />
		<tag k="natural" v="wetland" />
		<tag k="ssr:stedsnr" v="265056" />
	</node>
	<node id="-10486" lat="58.9427638886" lon="6.27918332982">
		<tag k="historic" v="shieling" />
		<tag k="name" v="Fossanstølen" />
		<tag k="place" v="locality" />
		<tag k="ssr:stedsnr" v="118230" />
	</node>
	<node id="-12533" lat="58.8889499994" lon="5.78733333055">
		<tag k="name" v="Lundamyra" />
		<tag k="natural" v="wetland" />
		<tag k="ssr:stedsnr" v="327199" />
	</node>
	<node id="-12529" lat="58.8750499997" lon="5.82338055163">
		<tag k="name" v="Ulvaleitet" />
		<tag k="place" v="locality" />
		<tag k="ssr:stedsnr" v="327191" />
	</node>
	<node id="-10986" lat="58.8035444487" lon="5.85625278347">
		<tag k="alt_name" v="Tjødnamyra" />
		<tag k="name" v="Tjørnamyra" />
		<tag k="natural" v="wetland" />
		<tag k="ssr:stedsnr" v="447103" />
	</node>
	<node id="-10467" lat="58.833563891" lon="5.74810000165">
		<tag k="name" v="Høylandsmyra" />
		<tag k="natural" v="wetland" />
		<tag k="ssr:stedsnr" v="84668" />
	</node>
	<node id="-11486" lat="59.0287777746" lon="6.3889888933">
		<tag k="name" v="Hestamyra" />
		<tag k="natural" v="wetland" />
		<tag k="ssr:stedsnr" v="909189" />
	</node>
	<node id="-10814" lat="59.0698500039" lon="6.42778333093">
		<tag k="name" v="Vadlalimyrane" />
		<tag k="natural" v="wetland" />
		<tag k="ssr:stedsnr" v="484801" />
	</node>
	<node id="-10453" lat="58.9320083297" lon="5.87666389551">
		<tag k="name" v="Sprengsmyra" />
		<tag k="natural" v="wetland" />
		<tag k="ssr:stedsnr" v="83154" />
	</node>
	<node id="-10390" lat="58.8470472226" lon="6.02174444159">
		<tag k="name" v="Breianutsmyra" />
		<tag k="natural" v="wetland" />
		<tag k="ssr:stedsnr" v="241840" />
	</node>
	<node id="-11123" lat="58.8997972222" lon="6.33753055292">
		<tag k="name" v="Jonssteinen" />
		<tag k="natural" v="stone" />
		<tag k="ssr:stedsnr" v="486742" />
	</node>
	<node id="-12749" lat="59.0616805599" lon="6.68149722157">
		<tag k="name" v="Jonsoksteinen" />
		<tag k="natural" v="stone" />
		<tag k="ssr:stedsnr" v="424830" />
	</node>
	<node id="-11465" lat="58.9066638898" lon="6.25890833273">
		<tag k="name" v="Kyrkjå" />
		<tag k="natural" v="stone" />
		<tag k="ssr:stedsnr" v="907235" />
	</node>
	<node id="-13000" lat="58.9294166695" lon="6.21316666471">
		<tag k="historic" v="shieling" />
		<tag k="name" v="Nibestøl" />
		<tag k="place" v="locality" />
		<tag k="ssr:stedsnr" v="605683" />
	</node>
	<node id="-13089" lat="58.9163694448" lon="5.99039167041">
		<tag k="name" v="Askane" />
		<tag k="place" v="locality" />
		<tag k="ssr:stedsnr" v="629043" />
	</node>
	<node id="-11211" lat="58.85976667" lon="6.16564166803">
		<tag k="name" v="Gilura" />
		<tag k="natural" v="scree" />
		<tag k="ssr:stedsnr" v="542987" />
	</node>
	<node id="-10942" lat="58.7871055524" lon="5.79687500008">
		<tag k="landuse" v="meadow" />
		<tag k="name" v="Figvedheia" />
		<tag k="ssr:stedsnr" v="509630" />
	</node>
	<node id="-10957" lat="58.9318666641" lon="6.17824167505">
		<tag k="landuse" v="meadow" />
		<tag k="name" v="Slåttå" />
		<tag k="ssr:stedsnr" v="423716" />
	</node>
	<node id="-10426" lat="58.8871249975" lon="6.31461388159">
		<tag k="name" v="Tausamyrane" />
		<tag k="natural" v="wetland" />
		<tag k="ssr:stedsnr" v="244676" />
	</node>
	<node id="-11960" lat="58.9132527754" lon="6.27519999511">
		<tag k="landuse" v="meadow" />
		<tag k="name" v="Bojahagen" />
		<tag k="ssr:stedsnr" v="60110" />
	</node>
	<node id="-10934" lat="58.818672221" lon="5.7877027855">
		<tag k="name" v="Teinemyra" />
		<tag k="natural" v="wetland" />
		<tag k="ssr:stedsnr" v="509207" />
	</node>
	<node id="-11954" lat="58.8469416681" lon="5.7197250061">
		<tag k="name" v="Skeiaskogen" />
		<tag k="place" v="locality" />
		<tag k="ssr:stedsnr" v="59997" />
	</node>
	<node id="-13171" lat="58.8432277737" lon="5.75365832659">
		<tag k="name" v="Iglemyr" />
		<tag k="natural" v="wetland" />
		<tag k="ssr:stedsnr" v="752633" />
	</node>
	<node id="-12975" lat="58.9118444479" lon="6.24225555797">
		<tag k="name" v="Halfarsteinen" />
		<tag k="natural" v="stone" />
		<tag k="ssr:stedsnr" v="603289" />
	</node>
	<node id="-10924" lat="58.9123305575" lon="6.00258889079">
		<tag k="name" v="Gunnarsmyr" />
		<tag k="natural" v="wetland" />
		<tag k="ssr:stedsnr" v="404919" />
	</node>
	<node id="-12402" lat="58.9504611112" lon="5.81760000275">
		<tag k="name" v="Krossmyra" />
		<tag k="natural" v="wetland" />
		<tag k="ssr:stedsnr" v="206005" />
	</node>
	<node id="-12963" lat="58.9497543536" lon="5.83971284602">
		<tag k="loc_name" v="Biskopsura" />
		<tag k="name" v="Biskopsurda" />
		<tag k="natural" v="scree" />
		<tag k="ssr:stedsnr" v="585934" />
	</node>
	<node id="-10397" lat="59.02022778" lon="6.34668611017">
		<tag k="name" v="Hamramyra" />
		<tag k="natural" v="wetland" />
		<tag k="ssr:stedsnr" v="242198" />
	</node>
	<node id="-11420" lat="58.8511777746" lon="6.01651667199">
		<tag k="name" v="Ålamyra" />
		<tag k="natural" v="wetland" />
		<tag k="ssr:stedsnr" v="666833" />
	</node>
	<node id="-10522" lat="58.8133055579" lon="5.79129721589">
		<tag k="name" v="Follamyr" />
		<tag k="natural" v="wetland" />
		<tag k="ssr:stedsnr" v="266238" />
	</node>
	<node id="-12951" lat="58.831391667" lon="5.93046944711">
		<tag k="name" v="Kregane" />
		<tag k="place" v="locality" />
		<tag k="ssr:stedsnr" v="569970" />
	</node>
	<node id="-12438" lat="58.9642472223" lon="6.32695000619">
		<tag k="name" v="Tjuahedler" />
		<tag k="natural" v="stone" />
		<tag k="ssr:stedsnr" v="302289" />
	</node>
	<node id="-10900" lat="58.8223888924" lon="5.98034444112">
		<tag k="name" v="Røynliheia" />
		<tag k="place" v="locality" />
		<tag k="ssr:stedsnr" v="387877" />
	</node>
	<node id="-11923" lat="58.9231472183" lon="6.21073611391">
		<tag k="historic" v="shieling" />
		<tag k="name" v="Haukalistølen" />
		<tag k="place" v="locality" />
		<tag k="ssr:stedsnr" v="57286" />
	</node>
	<node id="-10897" lat="58.8200166637" lon="5.6559333363">
		<tag k="name" v="Lende" />
		<tag k="natural" v="wetland" />
		<tag k="ssr:stedsnr" v="387263" />
	</node>
	<node id="-10896" lat="58.8931305545" lon="5.79482500813">
		<tag k="name" v="Kvitemyra" />
		<tag k="natural" v="wetland" />
		<tag k="ssr:stedsnr" v="387230" />
	</node>
	<node id="-11918" lat="58.9492472216" lon="6.15047500724">
		<tag k="name" v="Dørvikmyrane" />
		<tag k="natural" v="wetland" />
		<tag k="ssr:stedsnr" v="54983" />
	</node>
	<node id="-12428" lat="58.8468444444" lon="6.00828888146">
		<tag k="name" v="Flakkå" />
		<tag k="place" v="locality" />
		<tag k="ssr:stedsnr" v="301841" />
	</node>
	<node id="-12931" lat="58.7945944484" lon="5.86220833292">
		<tag k="name" v="Flassamyra" />
		<tag k="natural" v="wetland" />
		<tag k="ssr:stedsnr" v="569030" />
	</node>
	<node id="-11904" lat="58.9152527738" lon="6.01074444769">
		<tag k="name" v="Bjønndalsmyra" />
		<tag k="natural" v="wetland" />
		<tag k="ssr:stedsnr" v="40928" />
	</node>
	<node id="-10876" lat="58.9045527778" lon="6.25466389302">
		<tag k="name" v="Busteinane" />
		<tag k="natural" v="stone" />
		<tag k="ssr:stedsnr" v="362811" />
	</node>
	<node id="-12411" lat="58.8582444489" lon="5.69676666782">
		<tag k="name" v="Vølstadskogen" />
		<tag k="place" v="locality" />
		<tag k="ssr:stedsnr" v="206282" />
	</node>
	<node id="-10872" lat="58.8876527781" lon="6.14289166484">
		<tag k="name" v="Trodlamyrane" />
		<tag k="natural" v="wetland" />
		<tag k="ssr:stedsnr" v="362207" />
	</node>
	<node id="-11284" lat="58.974358334" lon="6.25840278062">
		<tag k="name" v="Storemyr" />
		<tag k="natural" v="wetland" />
		<tag k="ssr:stedsnr" v="727050" />
	</node>
	<node id="-11893" lat="58.8328611083" lon="5.68118333612">
		<tag k="name" v="Egerheisteinen" />
		<tag k="natural" v="stone" />
		<tag k="ssr:stedsnr" v="24789" />
	</node>
	<node id="-12915" lat="58.9436444456" lon="5.8655777735">
		<tag k="name" v="Brunsmyra" />
		<tag k="natural" v="wetland" />
		<tag k="ssr:stedsnr" v="568134" />
	</node>
	<node id="-12914" lat="58.9475863112" lon="5.8529617134">
		<tag k="name" v="Liamyra" />
		<tag k="natural" v="wetland" />
		<tag k="ssr:stedsnr" v="568129" />
	</node>
	<node id="-11888" lat="58.8277527756" lon="5.89079443965">
		<tag k="name" v="Gompen" />
		<tag k="place" v="locality" />
		<tag k="ssr:stedsnr" v="23998" />
	</node>
	<node id="-11887" lat="58.8829722192" lon="5.80374444575">
		<tag k="name" v="Djupemyr" />
		<tag k="natural" v="wetland" />
		<tag k="ssr:stedsnr" v="24160" />
	</node>
	<node id="-12396" lat="58.8439805592" lon="5.94449444152">
		<tag k="name" v="Litle Skaramyra" />
		<tag k="natural" v="wetland" />
		<tag k="ssr:stedsnr" v="205926" />
	</node>
	<node id="-12905" lat="58.9141611104" lon="5.99180555639">
		<tag k="name" v="Fedå" />
		<tag k="place" v="locality" />
		<tag k="ssr:stedsnr" v="568033" />
	</node>
	<node id="-12392" lat="58.856327777" lon="5.96175833032">
		<tag k="name" v="Storamyr" />
		<tag k="natural" v="wetland" />
		<tag k="ssr:stedsnr" v="205909" />
	</node>
	<node id="-12388" lat="58.8882222256" lon="5.85288333292">
		<tag k="name" v="Vassholen" />
		<tag k="place" v="locality" />
		<tag k="ssr:stedsnr" v="205244" />
	</node>
	<node id="-10339" lat="58.8832016593" lon="5.86698922589">
		<tag k="loc_name" v="Bergurda;Berguren" />
		<tag k="name" v="Bergura" />
		<tag k="natural" v="scree" />
		<tag k="ssr:stedsnr" v="23247" />
	</node>
	<node id="-10338" lat="58.8791638928" lon="5.86911944861">
		<tag k="name" v="Longemyr" />
		<tag k="natural" v="wetland" />
		<tag k="ssr:stedsnr" v="23246" />
	</node>
	<node id="-11357" lat="58.8893749983" lon="6.26990000232">
		<tag k="alt_name" v="Stølsmyra" />
		<tag k="name" v="Stølsmyrane" />
		<tag k="natural" v="wetland" />
		<tag k="ssr:stedsnr" v="729772" />
	</node>
	<node id="-10839" lat="58.8942840002" lon="5.84108315088">
		<tag k="name" v="Heiå" />
		<tag k="place" v="locality" />
		<tag k="ssr:stedsnr" v="486674" />
	</node>
	<node id="-11335" lat="58.8059555568" lon="5.70818054831">
		<tag k="name" v="Vagleskogen" />
		<tag k="place" v="locality" />
		<tag k="ssr:stedsnr" v="631770" />
	</node>
	<node id="-11843" lat="58.8945388856" lon="6.35001110616">
		<tag k="historic" v="shieling" />
		<tag k="name" v="Indrestølen" />
		<tag k="place" v="locality" />
		<tag k="ssr:stedsnr" v="1735" />
	</node>
	<node id="-11330" lat="58.8225888853" lon="5.9304361065">
		<tag k="name" v="Jespaheia" />
		<tag k="place" v="locality" />
		<tag k="ssr:stedsnr" v="630960" />
	</node>
	<node id="-11328" lat="58.831430557" lon="5.79787778119">
		<tag k="name" v="Gråbeinsmyra" />
		<tag k="natural" v="wetland" />
		<tag k="ssr:stedsnr" v="630653" />
	</node>
	<node id="-11326" lat="58.8121000009" lon="5.7646861168">
		<tag k="name" v="Prestamyra" />
		<tag k="natural" v="wetland" />
		<tag k="ssr:stedsnr" v="630574" />
	</node>
	<node id="-11323" lat="59.065149998" lon="6.66807221808">
		<tag k="name" v="Kongesteinen" />
		<tag k="natural" v="stone" />
		<tag k="ssr:stedsnr" v="727836" />
	</node>
	<node id="-10802" lat="58.9025555567" lon="6.12804722034">
		<tag k="name" v="Myrane" />
		<tag k="natural" v="wetland" />
		<tag k="ssr:stedsnr" v="483235" />
	</node>
	<node id="-11310" lat="58.9024694457" lon="5.95105555011">
		<tag k="name" v="Longemyr" />
		<tag k="natural" v="wetland" />
		<tag k="ssr:stedsnr" v="629081" />
	</node>
	<node id="-11304" lat="58.8694444399" lon="5.91927221889">
		<tag k="name" v="Sorpå" />
		<tag k="place" v="locality" />
		<tag k="ssr:stedsnr" v="629160" />
	</node>
	<node id="-11815" lat="59.0702388927" lon="6.42829999636">
		<tag k="name" v="Moltemyra" />
		<tag k="natural" v="wetland" />
		<tag k="ssr:stedsnr" v="1028" />
	</node>
	<node id="-11953" lat="58.9220166679" lon="6.00060277653">
		<tag k="name" v="Skarmyra" />
		<tag k="natural" v="wetland" />
		<tag k="ssr:stedsnr" v="59870" />
	</node>
	<node id="-12324" lat="59.1244583333" lon="6.62962222551">
		<tag k="name" v="Stormyra" />
		<tag k="natural" v="wetland" />
		<tag k="ssr:stedsnr" v="183119" />
	</node>
	<node id="-11295" lat="58.9066888912" lon="6.31144444478">
		<tag k="name" v="Piggete Steinen" />
		<tag k="natural" v="stone" />
		<tag k="ssr:stedsnr" v="727095" />
	</node>
	<node id="-10927" lat="58.8548166706" lon="5.86746389504">
		<tag k="name" v="Hillarto" />
		<tag k="natural" v="wetland" />
		<tag k="ssr:stedsnr" v="509030" />
	</node>
	<node id="-10774" lat="58.7999333292" lon="5.83139721671">
		<tag k="name" v="Kattamyra" />
		<tag k="natural" v="wetland" />
		<tag k="ssr:stedsnr" v="326106" />
	</node>
	<node id="-10773" lat="58.7983305543" lon="5.85148332486">
		<tag k="name" v="Fengjamyr" />
		<tag k="natural" v="wetland" />
		<tag k="ssr:stedsnr" v="326104" />
	</node>
	<node id="-12820" lat="58.8848361078" lon="6.13140832652">
		<tag k="name" v="Holmyr" />
		<tag k="natural" v="wetland" />
		<tag k="ssr:stedsnr" v="544193" />
	</node>
	<node id="-10771" lat="58.9161055599" lon="5.95299723033">
		<tag k="name" v="Myrå" />
		<tag k="natural" v="wetland" />
		<tag k="ssr:stedsnr" v="326042" />
	</node>
	<node id="-11282" lat="58.9455722209" lon="6.21351666635">
		<tag k="name" v="Resagarden" />
		<tag k="place" v="locality" />
		<tag k="ssr:stedsnr" v="726417" />
	</node>
	<node id="-12814" lat="58.8582388934" lon="6.15625278078">
		<tag k="name" v="Geitasteinen" />
		<tag k="natural" v="stone" />
		<tag k="ssr:stedsnr" v="542931" />
	</node>
	<node id="-12297" lat="58.9376222201" lon="6.20202221485">
		<tag k="historic" v="shieling" />
		<tag k="name" v="Vassbottstølen" />
		<tag k="place" v="locality" />
		<tag k="ssr:stedsnr" v="180687" />
	</node>
	<node id="-12296" lat="58.9322388879" lon="6.18081943615">
		<tag k="name" v="Vassbottura" />
		<tag k="natural" v="scree" />
		<tag k="ssr:stedsnr" v="180684" />
	</node>
	<node id="-12294" lat="58.8871694443" lon="6.30263055603">
		<tag k="name" v="Daursbeitet" />
		<tag k="place" v="locality" />
		<tag k="ssr:stedsnr" v="179997" />
	</node>
	<node id="-12804" lat="58.8671250037" lon="6.20801389595">
		<tag k="historic" v="shieling" />
		<tag k="name" v="Litlabrekka" />
		<tag k="place" v="locality" />
		<tag k="ssr:stedsnr" v="525940" />
	</node>
	<node id="-11777" lat="58.9426944433" lon="6.25119721936">
		<tag k="historic" v="shieling" />
		<tag k="name" v="Eiastølen" />
		<tag k="place" v="locality" />
		<tag k="ssr:stedsnr" v="968421" />
	</node>
</osm>
