<?xml version="1.0" encoding="UTF-8"?>
<<<<<<< HEAD
<osm version="0.6" generator="osmapis">
	<node lat="58.94993888643823" lon="5.937652785689517" id="-3">
		<tag k="name" v="Ramsviga" />
		<tag k="natural" v="bay" />
		<tag k="ssr:stedsnr" v="798" />
	</node>
	<node lat="58.968524996229775" lon="6.1883833260346455" id="-15">
		<tag k="alt_name" v="Dyne" />
		<tag k="name" v="Dyna" />
		<tag k="natural" v="cape" />
		<tag k="ssr:stedsnr" v="1795" />
	</node>
	<node lat="59.04403055835913" lon="6.560313884174932" id="-27">
		<tag k="fixme" v="consider seamark:type=rock or natural=shoal" />
		<tag k="name" v="Galtaskjeret" />
		<tag k="place" v="islet" />
		<tag k="ssr:stedsnr" v="2202" />
	</node>
	<node lat="59.02983611460192" lon="6.517361114824888" id="-28">
		<tag k="name" v="Kjetona" />
		<tag k="natural" v="cape" />
		<tag k="ssr:stedsnr" v="2215" />
	</node>
	<node lat="59.0439499980285" lon="6.54942499873634" id="-29">
		<tag k="alt_name" v="Linhamn" />
		<tag k="name" v="Linhamnen" />
		<tag k="natural" v="bay" />
		<tag k="ssr:stedsnr" v="2217" />
	</node>
	<node lat="58.95032777891874" lon="5.934727784605609" id="-30">
		<tag k="name" v="Torskaviga" />
		<tag k="natural" v="bay" />
		<tag k="ssr:stedsnr" v="23135" />
	</node>
	<node lat="58.918075455006424" lon="6.001348261633681" id="-49">
		<tag k="name" v="Grunnevågen" />
		<tag k="natural" v="bay" />
		<tag k="ssr:stedsnr" v="26615" />
	</node>
	<node lat="58.848491664140724" lon="6.178822220993019" id="-60">
		<tag k="alt_name" v="Pelaviga" />
		<tag k="name" v="Pelavika" />
		<tag k="natural" v="bay" />
		<tag k="ssr:stedsnr" v="239773" />
	</node>
	<node lat="59.01674166659917" lon="6.3323361076078335" id="-61">
		<tag k="alt_name" v="Sandviga" />
		<tag k="name" v="Sandvika" />
		<tag k="natural" v="bay" />
		<tag k="ssr:stedsnr" v="55915" />
	</node>
	<node lat="59.01573362489745" lon="6.433322091060508" id="-62">
		<tag k="alt_name" v="Heimraneset" />
		<tag k="name" v="Heimra Neset" />
		<tag k="natural" v="cape" />
		<tag k="ssr:stedsnr" v="239961" />
	</node>
	<node lat="58.89845000228437" lon="5.77472499627473" id="-64">
		<tag k="alt_name" v="Daleviki;Dalsvågen" />
		<tag k="name" v="Dalevika" />
		<tag k="natural" v="bay" />
		<tag k="ssr:stedsnr" v="240139" />
	</node>
	<node lat="58.85372500267617" lon="6.164608333605283" id="-87">
		<tag k="alt_name" v="Grimsneset" />
		<tag k="name" v="Grimsnes" />
		<tag k="natural" v="cape" />
		<tag k="ssr:stedsnr" v="61572" />
	</node>
	<node lat="58.94989166683878" lon="6.144088885778037" id="-91">
		<tag k="alt_name" v="Dørvig" />
		<tag k="name" v="Dørviga" />
		<tag k="natural" v="bay" />
		<tag k="ssr:stedsnr" v="61689" />
	</node>
	<node lat="59.020933330026715" lon="6.365324992638754" id="-104">
		<tag k="name" v="Piggstein" />
		<tag k="natural" v="cape" />
		<tag k="ssr:stedsnr" v="63204" />
	</node>
	<node lat="59.01235833063261" lon="6.278811109162008" id="-105">
		<tag k="name" v="Sjoklampen" />
		<tag k="natural" v="cape" />
		<tag k="ssr:stedsnr" v="63208" />
	</node>
	<node lat="58.93144862810842" lon="5.786775078837785" id="-121">
		<tag k="name" v="Sandviga" />
		<tag k="natural" v="bay" />
		<tag k="ssr:stedsnr" v="243006" />
	</node>
	<node lat="58.95551944178487" lon="5.91728056128947" id="-134">
		<tag k="name" v="Kobbholmen" />
=======
<osm generator="osmapis" version="0.6">
	<node id="-12800" lat="58.8539976182" lon="5.74604611725">
		<tag k="name" v="Vågen" />
		<tag k="natural" v="bay" />
		<tag k="ssr:stedsnr" v="524744" />
	</node>
	<node id="-12799" lat="58.9835333309" lon="6.23258889609">
		<tag k="name" v="Fossåneset" />
		<tag k="natural" v="cape" />
		<tag k="ssr:stedsnr" v="431573" />
	</node>
	<node id="-12285" lat="59.0181083324" lon="6.34761667135">
		<tag k="name" v="Apalen" />
		<tag k="natural" v="cape" />
		<tag k="ssr:stedsnr" v="176903" />
	</node>
	<node id="-12795" lat="59.0384166641" lon="6.49165834197">
		<tag k="name" v="Krossnes" />
		<tag k="natural" v="cape" />
		<tag k="ssr:stedsnr" v="427230" />
	</node>
	<node id="-12794" lat="59.0418083337" lon="6.58233888069">
		<tag k="name" v="Geitaneset" />
		<tag k="natural" v="cape" />
		<tag k="ssr:stedsnr" v="427229" />
	</node>
	<node id="-10751" lat="58.9607769305" lon="5.90572993171">
		<tag k="name" v="Store Nausterholmen" />
>>>>>>> e1d4bc35ff8a6074a6f2e91616a996b547c36f15
		<tag k="place" v="islet" />
		<tag k="ssr:stedsnr" v="243807" />
	</node>
<<<<<<< HEAD
	<node lat="59.046627781171175" lon="6.576136116620713" id="-140">
		<tag k="name" v="Dyrablod" />
		<tag k="natural" v="cape" />
		<tag k="ssr:stedsnr" v="244217" />
	</node>
	<node lat="59.03878611480399" lon="6.524424994586499" id="-141">
		<tag k="name" v="Håhellerneset" />
		<tag k="natural" v="cape" />
		<tag k="ssr:stedsnr" v="244222" />
	</node>
	<node lat="58.97512499997617" lon="6.208086115951289" id="-143">
		<tag k="name" v="Vedaneset" />
		<tag k="natural" v="cape" />
		<tag k="ssr:stedsnr" v="244818" />
	</node>
	<node lat="58.91834166395072" lon="5.969636103917631" id="-144">
		<tag k="name" v="Eskelandsholmane" />
		<tag k="place" v="islet" />
		<tag k="ssr:stedsnr" v="244738" />
	</node>
	<node lat="58.95173055301759" lon="5.918947216854081" id="-151">
		<tag k="alt_name" v="Loddervik;Lådervik" />
		<tag k="loc_name" v="Lodderviga" />
		<tag k="name" v="Lådervig" />
		<tag k="natural" v="bay" />
		<tag k="ssr:stedsnr" v="83105" />
	</node>
	<node lat="58.93794867087547" lon="5.8260548575140065" id="-169">
		<tag k="name" v="Nova" />
		<tag k="natural" v="cape" />
		<tag k="ssr:stedsnr" v="84204" />
	</node>
	<node lat="58.948561108681886" lon="5.810900000121527" id="-187">
		<tag k="name" v="Storaviga" />
		<tag k="natural" v="bay" />
		<tag k="ssr:stedsnr" v="86625" />
	</node>
	<node lat="58.927391029316574" lon="5.780481004833717" id="-211">
		<tag k="name" v="Einerneset" />
		<tag k="natural" v="cape" />
		<tag k="ssr:stedsnr" v="121020" />
	</node>
	<node lat="59.0062638870088" lon="6.381549993217054" id="-227">
		<tag k="name" v="Kvernaneset" />
		<tag k="natural" v="cape" />
		<tag k="ssr:stedsnr" v="123206" />
	</node>
	<node lat="58.88158611251243" lon="5.769580557808664" id="-248">
		<tag k="name" v="Dyrnesodden" />
		<tag k="natural" v="cape" />
		<tag k="ssr:stedsnr" v="145681" />
	</node>
	<node lat="58.90590555262081" lon="6.01660555263095" id="-254">
		<tag k="name" v="Kvitaneset" />
		<tag k="natural" v="cape" />
		<tag k="ssr:stedsnr" v="161910" />
	</node>
	<node lat="58.88363889182112" lon="6.1091000004061895" id="-257">
		<tag k="name" v="Aksnes" />
		<tag k="natural" v="cape" />
		<tag k="ssr:stedsnr" v="176171" />
	</node>
	<node lat="59.01810833242181" lon="6.347616671353253" id="-259">
		<tag k="name" v="Apalen" />
		<tag k="natural" v="cape" />
		<tag k="ssr:stedsnr" v="176903" />
	</node>
	<node lat="58.870436112972016" lon="6.129799996912855" id="-277">
		<tag k="alt_name" v="Gråttnes" />
		<tag k="name" v="Grottnes" />
		<tag k="natural" v="cape" />
		<tag k="ssr:stedsnr" v="182557" />
	</node>
	<node lat="58.9535735557892" lon="5.803503609389125" id="-283">
		<tag k="alt_name" v="Uskjaklubben" />
		<tag k="name" v="Uskaklubben" />
		<tag k="natural" v="cape" />
		<tag k="ssr:stedsnr" v="183043" />
	</node>
	<node lat="58.95269166918816" lon="5.9253555620587255" id="-286">
		<tag k="name" v="Breivig" />
		<tag k="natural" v="bay" />
		<tag k="ssr:stedsnr" v="183214" />
	</node>
	<node lat="58.924488890195576" lon="5.997844440060572" id="-299">
		<tag k="name" v="Skjølsviga" />
		<tag k="natural" v="bay" />
		<tag k="ssr:stedsnr" v="183711" />
	</node>
	<node lat="59.01550555384013" lon="6.420708332728185" id="-305">
		<tag k="name" v="Flørneset" />
		<tag k="natural" v="cape" />
		<tag k="ssr:stedsnr" v="184204" />
	</node>
	<node lat="58.90225059744164" lon="5.97332889860932" id="-312">
		<tag k="name" v="Kleivabukta" />
		<tag k="natural" v="bay" />
		<tag k="ssr:stedsnr" v="265065" />
	</node>
	<node lat="58.92574999653195" lon="5.99040277025104" id="-317">
		<tag k="name" v="Goviknes" />
		<tag k="natural" v="cape" />
		<tag k="ssr:stedsnr" v="265032" />
	</node>
	<node lat="58.94775833318629" lon="5.932855547039143" id="-319">
		<tag k="name" v="Asalvik" />
		<tag k="natural" v="bay" />
		<tag k="ssr:stedsnr" v="265130" />
	</node>
	<node lat="58.91736388689888" lon="5.990083333529944" id="-340">
		<tag k="name" v="Skjerpesundet" />
		<tag k="natural" v="strait" />
		<tag k="ssr:stedsnr" v="205039" />
	</node>
	<node lat="58.92407221960339" lon="5.975211112930389" id="-341">
		<tag k="name" v="Ersholmen" />
		<tag k="place" v="islet" />
		<tag k="ssr:stedsnr" v="205041" />
	</node>
	<node lat="58.857083329728084" lon="5.75156943979102" id="-362">
		<tag k="name" v="Rovika" />
		<tag k="natural" v="bay" />
		<tag k="ssr:stedsnr" v="206639" />
	</node>
	<node lat="58.952766662795746" lon="5.835733331747431" id="-367">
		<tag k="name" v="Søre Kasteviga" />
		<tag k="natural" v="bay" />
		<tag k="ssr:stedsnr" v="268638" />
	</node>
	<node lat="58.89878888704948" lon="6.003049995028343" id="-368">
		<tag k="name" v="Selesviga" />
=======
	<node id="-12277" lat="58.9422027786" lon="5.83696388463">
		<tag k="loc_name" v="Uskaviga" />
		<tag k="name" v="Uskavika" />
		<tag k="natural" v="bay" />
		<tag k="ssr:stedsnr" v="161934" />
	</node>
	<node id="-11006" lat="58.8894944458" lon="6.06590277242">
		<tag k="alt_name" v="Grasvik" />
		<tag k="name" v="Grasvig" />
		<tag k="natural" v="bay" />
		<tag k="ssr:stedsnr" v="663724" />
	</node>
	<node id="-12786" lat="58.8552388855" lon="6.16096111071">
		<tag k="name" v="Hamravika" />
		<tag k="natural" v="bay" />
		<tag k="ssr:stedsnr" v="426580" />
	</node>
	<node id="-12273" lat="58.9339222208" lon="5.84347500625">
		<tag k="loc_name" v="Holsundet" />
		<tag k="name" v="Holmsundet" />
		<tag k="natural" v="strait" />
		<tag k="ssr:stedsnr" v="160766" />
	</node>
	<node id="-11247" lat="58.9211861095" lon="6.00972777762">
		<tag k="name" v="Austra Vigå" />
		<tag k="natural" v="bay" />
		<tag k="ssr:stedsnr" v="602730" />
	</node>
	<node id="-10734" lat="58.9316629986" lon="5.7994183876">
		<tag k="name" v="Grødvig" />
		<tag k="natural" v="bay" />
		<tag k="ssr:stedsnr" v="304007" />
	</node>
	<node id="-11245" lat="58.949052777" lon="6.144022227">
		<tag k="name" v="Ytra Dørvika" />
		<tag k="natural" v="bay" />
		<tag k="ssr:stedsnr" v="600973" />
	</node>
	<node id="-12779" lat="58.9620448561" lon="5.8984531235">
		<tag k="alt_name" v="Viervika" />
		<tag k="name" v="Viervågen" />
		<tag k="natural" v="bay" />
		<tag k="ssr:stedsnr" v="426770" />
	</node>
	<node id="-11754" lat="58.9616472248" lon="5.84383332936">
		<tag k="name" v="Nordre Kastevika" />
		<tag k="natural" v="bay" />
		<tag k="ssr:stedsnr" v="933117" />
	</node>
	<node id="-12265" lat="58.9321980448" lon="5.84218326655">
		<tag k="name" v="Ulsneset" />
		<tag k="natural" v="cape" />
		<tag k="ssr:stedsnr" v="146596" />
	</node>
	<node id="-10492" lat="58.9151055537" lon="5.96756944588">
		<tag k="name" v="Urnes" />
		<tag k="natural" v="cape" />
		<tag k="ssr:stedsnr" v="265037" />
	</node>
	<node id="-11238" lat="58.947758333" lon="5.84586389503">
		<tag k="name" v="Djubevikodden" />
		<tag k="natural" v="cape" />
		<tag k="ssr:stedsnr" v="585930" />
	</node>
	<node id="-13137" lat="58.938163892" lon="5.96461666979">
		<tag k="name" v="Erevik" />
		<tag k="natural" v="bay" />
		<tag k="ssr:stedsnr" v="751094" />
	</node>
	<node id="-11748" lat="58.9072790698" lon="5.97103998495">
		<tag k="name" v="Habn" />
>>>>>>> e1d4bc35ff8a6074a6f2e91616a996b547c36f15
		<tag k="natural" v="bay" />
		<tag k="ssr:stedsnr" v="933046" />
	</node>
<<<<<<< HEAD
	<node lat="58.95818888835862" lon="5.836977785400194" id="-369">
		<tag k="name" v="Nordre Kasteviga" />
		<tag k="natural" v="bay" />
		<tag k="ssr:stedsnr" v="207615" />
	</node>
	<node lat="58.96312222107044" lon="5.865702778471385" id="-379">
		<tag k="alt_name" v="Store Vargavika" />
		<tag k="loc_name" v="Store Vargaviga" />
		<tag k="name" v="Stora Vargavika" />
		<tag k="natural" v="bay" />
		<tag k="ssr:stedsnr" v="221911" />
	</node>
	<node lat="59.050144442921834" lon="6.604344445733498" id="-392">
		<tag k="name" v="Skarpanes" />
		<tag k="natural" v="cape" />
		<tag k="ssr:stedsnr" v="449950" />
	</node>
	<node lat="58.891708335105214" lon="6.103947225749064" id="-394">
		<tag k="name" v="Åneset" />
=======
	<node id="-11747" lat="58.9252222256" lon="5.9756388957">
		<tag k="name" v="Ersvik" />
		<tag k="natural" v="bay" />
		<tag k="ssr:stedsnr" v="933043" />
	</node>
	<node id="-12258" lat="58.8815861125" lon="5.76958055781">
		<tag k="name" v="Dyrnesodden" />
		<tag k="natural" v="cape" />
		<tag k="ssr:stedsnr" v="145681" />
	</node>
	<node id="-12283" lat="58.8836388918" lon="6.10910000041">
		<tag k="name" v="Aksnes" />
		<tag k="natural" v="cape" />
		<tag k="ssr:stedsnr" v="176171" />
	</node>
	<node id="-11231" lat="58.9523722247" lon="5.84937222189">
		<tag k="loc_name" v="Hanaviga" />
		<tag k="name" v="Hanavika" />
		<tag k="natural" v="bay" />
		<tag k="ssr:stedsnr" v="707935" />
	</node>
	<node id="-11229" lat="58.8606666641" lon="5.74753611676">
		<tag k="name" v="Rappaneset" />
>>>>>>> e1d4bc35ff8a6074a6f2e91616a996b547c36f15
		<tag k="natural" v="cape" />
		<tag k="ssr:stedsnr" v="707454" />
	</node>
<<<<<<< HEAD
	<node lat="58.90091388501306" lon="6.005472226985023" id="-395">
		<tag k="name" v="Høleneset" />
		<tag k="natural" v="cape" />
		<tag k="ssr:stedsnr" v="450649" />
	</node>
	<node lat="58.957430556298455" lon="6.166724998699523" id="-414">
		<tag k="name" v="Pannevikodden" />
=======
	<node id="-11740" lat="59.0289138884" lon="6.53196666409">
		<tag k="name" v="Låtervik" />
		<tag k="natural" v="bay" />
		<tag k="ssr:stedsnr" v="912224" />
	</node>
	<node id="-10490" lat="58.9582583327" lon="5.90293333315">
		<tag k="name" v="Nausterviga" />
		<tag k="natural" v="bay" />
		<tag k="ssr:stedsnr" v="265004" />
	</node>
	<node id="-11855" lat="58.9685249962" lon="6.18838332603">
		<tag k="alt_name" v="Dyne" />
		<tag k="name" v="Dyna" />
>>>>>>> e1d4bc35ff8a6074a6f2e91616a996b547c36f15
		<tag k="natural" v="cape" />
		<tag k="ssr:stedsnr" v="242055" />
	</node>
<<<<<<< HEAD
	<node lat="58.92129721885908" lon="5.985458326826273" id="-420">
		<tag k="name" v="Klungvigflua" />
		<tag k="place" v="locality" />
		<tag k="seamark:type" v="rock" />
		<tag k="ssr:stedsnr" v="451642" />
	</node>
	<node lat="58.9497138875405" lon="5.823002780577816" id="-429">
		<tag k="name" v="Uskjo" />
		<tag k="place" v="island" />
		<tag k="ssr:stedsnr" v="244050" />
	</node>
	<node lat="58.95825833270775" lon="5.902933333154305" id="-450">
		<tag k="name" v="Nausterviga" />
		<tag k="natural" v="bay" />
		<tag k="ssr:stedsnr" v="265004" />
	</node>
	<node lat="58.91510555371908" lon="5.9675694458808115" id="-451">
		<tag k="name" v="Urnes" />
		<tag k="natural" v="cape" />
		<tag k="ssr:stedsnr" v="265037" />
	</node>
	<node lat="58.96627777504873" lon="5.870111116666133" id="-453">
		<tag k="name" v="Brattholmsundet" />
		<tag k="natural" v="strait" />
		<tag k="ssr:stedsnr" v="265105" />
	</node>
	<node lat="58.90048888612699" lon="5.773902781923335" id="-466">
		<tag k="name" v="Nidle" />
		<tag k="natural" v="cape" />
		<tag k="ssr:stedsnr" v="266236" />
	</node>
	<node lat="58.86779722368804" lon="5.759447218733555" id="-471">
		<tag k="alt_name" v="Asparvika" />
		<tag k="name" v="Aspervika" />
		<tag k="natural" v="bay" />
		<tag k="ssr:stedsnr" v="266683" />
	</node>
	<node lat="58.865444443558516" lon="5.746602777358249" id="-476">
		<tag k="name" v="Smedagrunnen" />
		<tag k="natural" v="shoal" />
		<tag k="place" v="locality" />
		<tag k="ssr:stedsnr" v="282471" />
	</node>
	<node lat="58.90809999937919" lon="6.012300005091624" id="-478">
		<tag k="name" v="Nausterneset" />
		<tag k="natural" v="cape" />
		<tag k="ssr:stedsnr" v="282916" />
	</node>
	<node lat="58.94496944635042" lon="5.839177777417151" id="-531">
		<tag k="loc_name" v="Nodavikneset" />
		<tag k="name" v="Notaneset" />
		<tag k="natural" v="cape" />
		<tag k="ssr:stedsnr" v="464943" />
	</node>
	<node lat="58.9203277738707" lon="5.987288885729741" id="-537">
		<tag k="name" v="Sleggeberget" />
		<tag k="natural" v="cape" />
		<tag k="ssr:stedsnr" v="326033" />
	</node>
	<node lat="58.923386109619564" lon="5.983711114952105" id="-538">
		<tag k="name" v="Prestasetet" />
		<tag k="natural" v="cape" />
		<tag k="ssr:stedsnr" v="326034" />
	</node>
	<node lat="58.954055559334755" lon="5.939058341549806" id="-540">
		<tag k="name" v="Slettnesvik" />
		<tag k="natural" v="bay" />
		<tag k="ssr:stedsnr" v="326102" />
	</node>
	<node lat="58.86647441199813" lon="5.753205170936449" id="-562">
		<tag k="alt_name" v="Asparmyrbåen" />
		<tag k="name" v="Aspermyrbåen" />
		<tag k="place" v="locality" />
		<tag k="seamark:type" v="rock" />
		<tag k="ssr:stedsnr" v="342417" />
	</node>
	<node lat="58.94048888716197" lon="6.120224992599225" id="-581">
		<tag k="bay" v="fjord" />
		<tag k="name" v="Lysefjorden" />
		<tag k="natural" v="bay" />
		<tag k="ssr:stedsnr" v="364713" />
	</node>
	<node lat="59.03766388878924" lon="6.576350007228215" id="-601">
		<tag k="name" v="Molen" />
		<tag k="natural" v="shoal" />
		<tag k="place" v="locality" />
		<tag k="ssr:stedsnr" v="366210" />
	</node>
	<node lat="59.02585555194856" lon="6.379555554365049" id="-605">
		<tag k="name" v="Løypeklubben" />
		<tag k="natural" v="cape" />
		<tag k="ssr:stedsnr" v="366200" />
	</node>
	<node lat="58.95474444289462" lon="5.915858335625012" id="-616">
		<tag k="name" v="Store Langholmen" />
		<tag k="place" v="islet" />
		<tag k="ssr:stedsnr" v="386116" />
	</node>
	<node lat="58.887052781992544" lon="5.773433326682098" id="-628">
		<tag k="name" v="Store Holmen" />
		<tag k="place" v="islet" />
		<tag k="ssr:stedsnr" v="387243" />
	</node>
	<node lat="58.905113890421575" lon="5.966027783011046" id="-644">
		<tag k="name" v="Hølen" />
		<tag k="natural" v="bay" />
		<tag k="ssr:stedsnr" v="388598" />
	</node>
	<node lat="58.936688887754855" lon="5.850019451317778" id="-645">
		<tag k="name" v="Hestvigflua" />
		<tag k="place" v="locality" />
		<tag k="seamark:type" v="rock" />
		<tag k="ssr:stedsnr" v="388601" />
	</node>
	<node lat="58.92383611485104" lon="6.006180548106709" id="-653">
		<tag k="name" v="Sandvika" />
		<tag k="natural" v="bay" />
		<tag k="ssr:stedsnr" v="484869" />
	</node>
	<node lat="58.910327773576235" lon="5.99683889045633" id="-656">
		<tag k="name" v="Kobbholmen" />
		<tag k="place" v="islet" />
		<tag k="ssr:stedsnr" v="390618" />
	</node>
	<node lat="58.937424998248666" lon="5.976741673613175" id="-694">
		<tag k="name" v="Horpevigneset" />
=======
	<node id="-11224" lat="59.0255888877" lon="6.48779999413">
		<tag k="name" v="Sovekroneset" />
		<tag k="natural" v="cape" />
		<tag k="ssr:stedsnr" v="570944" />
	</node>
	<node id="-10711" lat="58.9444111072" lon="6.12797500675">
		<tag k="alt_name" v="Viganeset;Neset" />
		<tag k="name" v="Vikaneset" />
		<tag k="natural" v="cape" />
		<tag k="ssr:stedsnr" v="466639" />
	</node>
	<node id="-11221" lat="58.8948166691" lon="6.10051666334">
		<tag k="name" v="Hagaviga" />
		<tag k="natural" v="bay" />
		<tag k="ssr:stedsnr" v="570077" />
	</node>
	<node id="-11732" lat="59.0143416623" lon="6.29928054792">
		<tag k="name" v="Lindelineset" />
		<tag k="natural" v="cape" />
		<tag k="ssr:stedsnr" v="904856" />
	</node>
	<node id="-11731" lat="58.9245277819" lon="6.10519444911">
		<tag k="name" v="Bergenden" />
		<tag k="natural" v="cape" />
		<tag k="ssr:stedsnr" v="904512" />
	</node>
	<node id="-10706" lat="58.9347999996" lon="6.10563611774">
		<tag k="name" v="Litle Bergsholmen" />
		<tag k="place" v="islet" />
		<tag k="ssr:stedsnr" v="464608" />
	</node>
	<node id="-11217" lat="58.9894777787" lon="6.25018332641">
		<tag k="name" v="Marvik" />
		<tag k="natural" v="bay" />
		<tag k="ssr:stedsnr" v="545044" />
	</node>
	<node id="-11216" lat="58.9889166673" lon="6.24702499802">
		<tag k="name" v="Klubben" />
		<tag k="natural" v="cape" />
		<tag k="ssr:stedsnr" v="545042" />
	</node>
	<node id="-12365" lat="59.0155055538" lon="6.42070833273">
		<tag k="name" v="Flørneset" />
		<tag k="natural" v="cape" />
		<tag k="ssr:stedsnr" v="184204" />
	</node>
	<node id="-12748" lat="59.0173233984" lon="6.43924655454">
		<tag k="name" v="Indra Neset" />
		<tag k="natural" v="cape" />
		<tag k="ssr:stedsnr" v="424183" />
	</node>
	<node id="-11723" lat="58.8695111093" lon="5.76078056053">
		<tag k="name" v="Søre Bogsteinen" />
		<tag k="natural" v="cape" />
		<tag k="ssr:stedsnr" v="873656" />
	</node>
	<node id="-11370" lat="58.8964527739" lon="6.04408611791">
		<tag k="name" v="Vedholmen" />
		<tag k="place" v="islet" />
		<tag k="ssr:stedsnr" v="729657" />
	</node>
	<node id="-10697" lat="58.9212972189" lon="5.98545832683">
		<tag k="name" v="Klungvigflua" />
		<tag k="place" v="locality" />
		<tag k="seamark:type" v="rock" />
		<tag k="ssr:stedsnr" v="451642" />
	</node>
	<node id="-10694" lat="59.0501444429" lon="6.60434444573">
		<tag k="name" v="Skarpanes" />
		<tag k="natural" v="cape" />
		<tag k="ssr:stedsnr" v="449950" />
	</node>
	<node id="-11717" lat="58.9568138907" lon="5.81129166995">
		<tag k="alt_name" v="Leirvågtangen" />
		<tag k="name" v="Leirvågstangen" />
>>>>>>> e1d4bc35ff8a6074a6f2e91616a996b547c36f15
		<tag k="natural" v="cape" />
		<tag k="ssr:stedsnr" v="873005" />
	</node>
<<<<<<< HEAD
	<node lat="58.95653610760401" lon="6.159213889647384" id="-697">
		<tag k="alt_name" v="Holmengrå" />
		<tag k="name" v="Holmen grå" />
		<tag k="place" v="islet" />
		<tag k="ssr:stedsnr" v="486719" />
	</node>
	<node lat="58.90082500369225" lon="6.086477782981559" id="-717">
		<tag k="name" v="Øyren" />
		<tag k="natural" v="cape" />
		<tag k="ssr:stedsnr" v="419591" />
	</node>
	<node lat="58.93058973265657" lon="5.839014558749636" id="-727">
		<tag k="alt_name" v="Breidvika;Breivik" />
		<tag k="loc_name" v="Breiviga" />
		<tag k="name" v="Breivika" />
		<tag k="natural" v="bay" />
		<tag k="ssr:stedsnr" v="425012" />
	</node>
	<node lat="58.85523888548284" lon="6.160961110711823" id="-740">
		<tag k="name" v="Hamravika" />
		<tag k="natural" v="bay" />
		<tag k="ssr:stedsnr" v="426580" />
	</node>
	<node lat="59.00288888804532" lon="6.236699991884952" id="-750">
		<tag k="name" v="Hengjandeviga" />
		<tag k="natural" v="bay" />
		<tag k="ssr:stedsnr" v="427211" />
	</node>
	<node lat="59.041808333691854" lon="6.582338880688426" id="-754">
		<tag k="name" v="Geitaneset" />
=======
	<node id="-12224" lat="58.9463555556" lon="5.83902222297">
		<tag k="loc_name" v="Nodaviga" />
		<tag k="name" v="Nodavika" />
		<tag k="natural" v="bay" />
		<tag k="ssr:stedsnr" v="144147" />
	</node>
	<node id="-11711" lat="58.9653111092" lon="5.89317500718">
		<tag k="alt_name" v="Litla Viervågen;Litlevågen" />
		<tag k="name" v="Litle Viervågen" />
		<tag k="natural" v="bay" />
		<tag k="ssr:stedsnr" v="872122" />
	</node>
	<node id="-12221" lat="58.9547500028" lon="5.93243889582">
		<tag k="name" v="Slettnes" />
		<tag k="natural" v="cape" />
		<tag k="ssr:stedsnr" v="144127" />
	</node>
	<node id="-11193" lat="58.8785694475" lon="5.7708638942">
		<tag k="name" v="Strondavika" />
		<tag k="natural" v="bay" />
		<tag k="ssr:stedsnr" v="691683" />
	</node>
	<node id="-11704" lat="58.9031194411" lon="5.97794444812">
		<tag k="name" v="Storekleiv" />
		<tag k="natural" v="cape" />
		<tag k="ssr:stedsnr" v="872060" />
	</node>
	<node id="-11191" lat="58.8737527747" lon="5.74176111232">
		<tag k="name" v="Luravika" />
		<tag k="natural" v="bay" />
		<tag k="ssr:stedsnr" v="691678" />
	</node>
	<node id="-10569" lat="58.9617916648" lon="5.83685555595">
		<tag k="loc_name" v="Kuneset" />
		<tag k="name" v="Kunesodden" />
>>>>>>> e1d4bc35ff8a6074a6f2e91616a996b547c36f15
		<tag k="natural" v="cape" />
		<tag k="ssr:stedsnr" v="427229" />
	</node>
<<<<<<< HEAD
	<node lat="59.038416664072926" lon="6.491658341969034" id="-755">
		<tag k="name" v="Krossnes" />
		<tag k="natural" v="cape" />
		<tag k="ssr:stedsnr" v="427230" />
	</node>
	<node lat="58.959433336873545" lon="5.846274995230481" id="-762">
		<tag k="name" v="Søre Kastevika" />
		<tag k="natural" v="bay" />
		<tag k="ssr:stedsnr" v="447109" />
	</node>
	<node lat="58.934799999631714" lon="6.105636117736235" id="-782">
		<tag k="name" v="Litle Bergsholmen" />
		<tag k="place" v="islet" />
		<tag k="ssr:stedsnr" v="464608" />
	</node>
	<node lat="58.94441110719918" lon="6.127975006749971" id="-784">
		<tag k="alt_name" v="Viganeset;Neset" />
		<tag k="name" v="Vikaneset" />
		<tag k="natural" v="cape" />
		<tag k="ssr:stedsnr" v="466639" />
	</node>
	<node lat="58.91063889094617" lon="6.102186112182228" id="-791">
		<tag k="alt_name" v="Haborsviga" />
		<tag k="name" v="Haborsvika" />
		<tag k="natural" v="bay" />
		<tag k="ssr:stedsnr" v="677606" />
	</node>
	<node lat="58.950427781856575" lon="6.147352770939012" id="-792">
		<tag k="name" v="Indra Dørvika" />
		<tag k="natural" v="bay" />
		<tag k="ssr:stedsnr" v="478972" />
	</node>
	<node lat="59.02434784455107" lon="6.390372553674369" id="-794">
		<tag k="name" v="Kallasteinneset" />
		<tag k="natural" v="cape" />
		<tag k="ssr:stedsnr" v="479922" />
	</node>
	<node lat="58.881575003093936" lon="6.073344450814981" id="-796">
		<tag k="name" v="Borghammar" />
		<tag k="natural" v="cape" />
		<tag k="ssr:stedsnr" v="481711" />
	</node>
	<node lat="58.9628652472697" lon="5.866010233099182" id="-825">
		<tag k="name" v="Vargaviga" />
		<tag k="natural" v="bay" />
		<tag k="ssr:stedsnr" v="486768" />
	</node>
	<node lat="58.906316665158" lon="5.778838890192431" id="-829">
		<tag k="name" v="Dalsvågen" />
		<tag k="natural" v="bay" />
		<tag k="ssr:stedsnr" v="486973" />
	</node>
	<node lat="58.94001666725499" lon="6.120691670850831" id="-837">
		<tag k="alt_name" v="Trossviga" />
		<tag k="name" v="Trossvika" />
		<tag k="natural" v="bay" />
		<tag k="ssr:stedsnr" v="495608" />
	</node>
	<node lat="58.959705551848" lon="5.836966661053868" id="-840">
		<tag k="name" v="Grunnasundet" />
		<tag k="natural" v="strait" />
		<tag k="ssr:stedsnr" v="508111" />
	</node>
	<node lat="58.896988884649424" lon="6.022308328546989" id="-863">
		<tag k="name" v="Abalstø" />
		<tag k="natural" v="bay" />
		<tag k="ssr:stedsnr" v="510655" />
	</node>
	<node lat="58.94121389132041" lon="5.8517138972954665" id="-952">
		<tag k="name" v="Skjølvikneset" />
		<tag k="natural" v="cape" />
		<tag k="ssr:stedsnr" v="568126" />
	</node>
	<node lat="58.94933333759744" lon="6.133147225655013" id="-1022">
		<tag k="alt_name" v="Dørvikneset, ytre;Dørvikneset, yttre" />
		<tag k="name" v="Ytre Dørvikneset" />
		<tag k="natural" v="cape" />
		<tag k="ssr:stedsnr" v="607711" />
	</node>
	<node lat="58.94454444293654" lon="6.1324500075140636" id="-1044">
		<tag k="alt_name" v="Vigavågen" />
		<tag k="name" v="Vikavågen" />
		<tag k="natural" v="bay" />
		<tag k="ssr:stedsnr" v="616608" />
	</node>
	<node lat="58.9272388849711" lon="5.986302770653159" id="-1048">
		<tag k="name" v="Stora Sundtangen" />
		<tag k="natural" v="cape" />
		<tag k="ssr:stedsnr" v="629048" />
	</node>
	<node lat="58.9539166704961" lon="5.919419437232386" id="-1051">
		<tag k="name" v="Loddervikneset" />
		<tag k="natural" v="cape" />
		<tag k="ssr:stedsnr" v="629102" />
	</node>
	<node lat="58.93508888633359" lon="5.843497220417981" id="-1055">
		<tag k="name" v="Hommersåkholmen" />
		<tag k="place" v="islet" />
		<tag k="ssr:stedsnr" v="629123" />
	</node>
	<node lat="58.86974444613598" lon="6.13356110458612" id="-1061">
		<tag k="alt_name" v="Rossavik" />
		<tag k="loc_name" v="Rossaviga" />
		<tag k="name" v="Rossavika" />
		<tag k="natural" v="bay" />
		<tag k="ssr:stedsnr" v="630094" />
	</node>
	<node lat="58.96538118366589" lon="5.8769874083745774" id="-1080">
		<tag k="loc_name" v="Urviga" />
		<tag k="name" v="Urdvika" />
		<tag k="natural" v="bay" />
		<tag k="ssr:stedsnr" v="646927" />
	</node>
	<node lat="58.86066666409775" lon="5.747536116764404" id="-1083">
		<tag k="name" v="Rappaneset" />
		<tag k="natural" v="cape" />
		<tag k="ssr:stedsnr" v="707454" />
	</node>
	<node lat="58.952372224694244" lon="5.849372221888571" id="-1085">
		<tag k="loc_name" v="Hanaviga" />
		<tag k="name" v="Hanavika" />
		<tag k="natural" v="bay" />
		<tag k="ssr:stedsnr" v="707935" />
	</node>
	<node lat="58.93857778011604" lon="5.841624993685495" id="-1087">
		<tag k="name" v="Djupaflua" />
		<tag k="natural" v="shoal" />
		<tag k="place" v="locality" />
		<tag k="ssr:stedsnr" v="707945" />
	</node>
	<node lat="58.88949444575731" lon="6.065902772417175" id="-1091">
		<tag k="alt_name" v="Grasvik" />
		<tag k="name" v="Grasvig" />
		<tag k="natural" v="bay" />
		<tag k="ssr:stedsnr" v="663724" />
	</node>
	<node lat="58.95611666365988" lon="5.909627775827908" id="-1114">
		<tag k="name" v="Grunnasundsholmen" />
		<tag k="place" v="islet" />
		<tag k="ssr:stedsnr" v="668819" />
	</node>
	<node lat="58.967883332576285" lon="5.870905560608224" id="-1119">
		<tag k="name" v="Brattholmen" />
		<tag k="place" v="islet" />
		<tag k="ssr:stedsnr" v="668783" />
	</node>
	<node lat="58.967802780412356" lon="5.888141673345295" id="-1121">
		<tag k="name" v="Strålaus" />
		<tag k="place" v="islet" />
		<tag k="ssr:stedsnr" v="668787" />
	</node>
	<node lat="59.016899997903174" lon="6.34015832585859" id="-1129">
		<tag k="name" v="Kroknes" />
		<tag k="natural" v="cape" />
		<tag k="ssr:stedsnr" v="669182" />
	</node>
	<node lat="58.94343611053215" lon="6.126177769914057" id="-1133">
		<tag k="alt_name" v="Dalaviga" />
		<tag k="name" v="Dalavika" />
		<tag k="natural" v="bay" />
		<tag k="ssr:stedsnr" v="678597" />
	</node>
	<node lat="58.95302778104978" lon="5.840094437632812" id="-1135">
		<tag k="name" v="Mannholmen" />
=======
	<node id="-11700" lat="59.0000749963" lon="6.31858888359">
		<tag k="alt_name" v="Giskasætet" />
		<tag k="name" v="Giskasetet" />
		<tag k="natural" v="cape" />
		<tag k="ssr:stedsnr" v="852203" />
	</node>
	<node id="-12723" lat="58.9008250037" lon="6.08647778298">
		<tag k="name" v="Øyren" />
		<tag k="natural" v="cape" />
		<tag k="ssr:stedsnr" v="419591" />
	</node>
	<node id="-10653" lat="58.9555194418" lon="5.91728056129">
		<tag k="name" v="Kobbholmen" />
		<tag k="place" v="islet" />
		<tag k="ssr:stedsnr" v="243807" />
	</node>
	<node id="-12274" lat="58.9495472203" lon="5.84634166997">
		<tag k="name" v="Håbekk" />
		<tag k="natural" v="cape" />
		<tag k="ssr:stedsnr" v="161928" />
	</node>
	<node id="-10666" lat="58.975125" lon="6.20808611595">
		<tag k="name" v="Vedaneset" />
		<tag k="natural" v="cape" />
		<tag k="ssr:stedsnr" v="244818" />
	</node>
	<node id="-13127" lat="58.9066472223" lon="6.10040277363">
		<tag k="alt_name" v="Bergevig;Bergevika" />
		<tag k="name" v="Bergevik" />
		<tag k="natural" v="bay" />
		<tag k="ssr:stedsnr" v="738596" />
	</node>
	<node id="-11164" lat="58.953027781" lon="5.84009443763">
		<tag k="name" v="Mannholmen" />
		<tag k="place" v="islet" />
		<tag k="ssr:stedsnr" v="690103" />
	</node>
	<node id="-11685" lat="58.8864805548" lon="6.10643056047">
		<tag k="alt_name" v="Eriksviga" />
		<tag k="name" v="Eriksvika" />
		<tag k="natural" v="bay" />
		<tag k="ssr:stedsnr" v="844707" />
	</node>
	<node id="-12707" lat="59.0270870094" lon="6.40921211792">
		<tag k="name" v="Kåsastøa" />
		<tag k="natural" v="bay" />
		<tag k="ssr:stedsnr" v="395760" />
	</node>
	<node id="-10658" lat="59.0466277812" lon="6.57613611662">
		<tag k="name" v="Dyrablod" />
		<tag k="natural" v="cape" />
		<tag k="ssr:stedsnr" v="244217" />
	</node>
	<node id="-11680" lat="58.9132861152" lon="5.98876389046">
		<tag k="name" v="Kattaflua" />
		<tag k="place" v="locality" />
		<tag k="seamark:type" v="rock" />
		<tag k="ssr:stedsnr" v="936622" />
	</node>
	<node id="-10482" lat="58.9485611087" lon="5.81090000012">
		<tag k="name" v="Storaviga" />
		<tag k="natural" v="bay" />
		<tag k="ssr:stedsnr" v="86625" />
	</node>
	<node id="-12701" lat="58.905338889" lon="6.02593056085">
		<tag k="name" v="Kjerringa" />
		<tag k="natural" v="cape" />
		<tag k="ssr:stedsnr" v="389646" />
	</node>
	<node id="-12700" lat="58.9758866226" lon="6.20866318824">
		<tag k="alt_name" v="Katthamn" />
		<tag k="name" v="Katthavn" />
		<tag k="natural" v="bay" />
		<tag k="ssr:stedsnr" v="389587" />
	</node>
	<node id="-10735" lat="58.9342170571" lon="5.81983480821">
		<tag k="name" v="Riskaholmane" />
		<tag k="place" v="islet" />
		<tag k="ssr:stedsnr" v="304008" />
	</node>
	<node id="-10648" lat="58.9314486281" lon="5.78677507884">
		<tag k="name" v="Sandviga" />
		<tag k="natural" v="bay" />
		<tag k="ssr:stedsnr" v="243006" />
	</node>
	<node id="-11159" lat="58.9176861102" lon="5.99303889472">
		<tag k="name" v="Suggeneset" />
		<tag k="natural" v="cape" />
		<tag k="ssr:stedsnr" v="690039" />
	</node>
	<node id="-12694" lat="58.9366888878" lon="5.85001945132">
		<tag k="name" v="Hestvigflua" />
		<tag k="place" v="locality" />
		<tag k="seamark:type" v="rock" />
		<tag k="ssr:stedsnr" v="388601" />
	</node>
	<node id="-12693" lat="58.9051138904" lon="5.96602778301">
		<tag k="name" v="Hølen" />
		<tag k="natural" v="bay" />
		<tag k="ssr:stedsnr" v="388598" />
	</node>
	<node id="-11668" lat="58.8756666688" lon="6.11587221627">
		<tag k="name" v="Uburboen" />
		<tag k="place" v="locality" />
		<tag k="seamark:type" v="rock" />
		<tag k="ssr:stedsnr" v="934972" />
	</node>
	<node id="-12179" lat="58.9575638921" lon="5.90844444729">
		<tag k="alt_name" v="Tedneholmen" />
		<tag k="name" v="Ternaholmen" />
>>>>>>> e1d4bc35ff8a6074a6f2e91616a996b547c36f15
		<tag k="place" v="islet" />
		<tag k="ssr:stedsnr" v="122806" />
	</node>
<<<<<<< HEAD
	<node lat="58.91911944852279" lon="5.988511109303952" id="-1136">
		<tag k="name" v="Nordra Sundvik" />
		<tag k="natural" v="bay" />
		<tag k="ssr:stedsnr" v="690035" />
	</node>
	<node lat="58.91768611019299" lon="5.993038894724738" id="-1137">
		<tag k="name" v="Suggeneset" />
		<tag k="natural" v="cape" />
		<tag k="ssr:stedsnr" v="690039" />
	</node>
	<node lat="58.87375277472338" lon="5.741761112315077" id="-1152">
		<tag k="name" v="Luravika" />
		<tag k="natural" v="bay" />
		<tag k="ssr:stedsnr" v="691678" />
	</node>
	<node lat="58.87856944746129" lon="5.770863894199646" id="-1154">
		<tag k="name" v="Strondavika" />
		<tag k="natural" v="bay" />
		<tag k="ssr:stedsnr" v="691683" />
	</node>
	<node lat="58.930963887626966" lon="6.118541674949294" id="-1165">
		<tag k="name" v="Skansen" />
		<tag k="natural" v="cape" />
		<tag k="ssr:stedsnr" v="709626" />
	</node>
	<node lat="58.950198794940654" lon="5.842678682650773" id="-1195">
		<tag k="name" v="Uskasundet" />
		<tag k="natural" v="strait" />
		<tag k="ssr:stedsnr" v="729805" />
	</node>
	<node lat="58.95808055704089" lon="5.816958334342533" id="-1217">
		<tag k="name" v="Leirvågen" />
		<tag k="natural" v="bay" />
		<tag k="ssr:stedsnr" v="752009" />
	</node>
	<node lat="58.881891665280044" lon="5.74779166454175" id="-1222">
		<tag k="loc_name" v="Rissebærstraen;Ripsebærstranden" />
		<tag k="name" v="Ripsbærstraen" />
		<tag k="natural" v="beach" />
		<tag k="ssr:stedsnr" v="752654" />
	</node>
	<node lat="59.032333330691166" lon="6.548936105246612" id="-1227">
		<tag k="name" v="Skarvasætet" />
		<tag k="natural" v="cape" />
		<tag k="ssr:stedsnr" v="752959" />
	</node>
	<node lat="59.01434166229896" lon="6.299280547924904" id="-1228">
		<tag k="name" v="Lindelineset" />
		<tag k="natural" v="cape" />
		<tag k="ssr:stedsnr" v="904856" />
	</node>
	<node lat="58.94719166553366" lon="5.8466805580703065" id="-1231">
		<tag k="loc_name" v="Djubeviga" />
		<tag k="name" v="Djubevik" />
		<tag k="natural" v="bay" />
		<tag k="ssr:stedsnr" v="754657" />
	</node>
	<node lat="58.916232961413115" lon="5.99432805986214" id="-1261">
		<tag k="name" v="Husabøvågen" />
		<tag k="natural" v="bay" />
		<tag k="ssr:stedsnr" v="909890" />
	</node>
	<node lat="58.87597499845208" lon="6.118200002889495" id="-1296">
		<tag k="name" v="Sandnes" />
		<tag k="natural" v="cape" />
		<tag k="ssr:stedsnr" v="911577" />
	</node>
	<node lat="58.930083331655354" lon="5.994749999898526" id="-1299">
		<tag k="name" v="Aspøy" />
		<tag k="place" v="island" />
		<tag k="ssr:stedsnr" v="789714" />
	</node>
	<node lat="58.884216669454055" lon="6.109825006922011" id="-1317">
		<tag k="name" v="Aksnes" />
		<tag k="natural" v="cape" />
		<tag k="ssr:stedsnr" v="911684" />
	</node>
	<node lat="59.01876110842607" lon="6.355400001126471" id="-1355">
		<tag k="name" v="Skipahamnen" />
		<tag k="natural" v="bay" />
		<tag k="ssr:stedsnr" v="912198" />
	</node>
	<node lat="58.95924667079424" lon="5.863697465862323" id="-1358">
		<tag k="name" v="Stølsviga" />
		<tag k="natural" v="bay" />
		<tag k="ssr:stedsnr" v="811109" />
	</node>
	<node lat="58.92566666519446" lon="5.983616673823951" id="-1363">
		<tag k="name" v="Litla Sundtangen" />
		<tag k="natural" v="cape" />
		<tag k="ssr:stedsnr" v="811047" />
	</node>
	<node lat="58.91271389192064" lon="5.967655546649027" id="-1365">
		<tag k="loc_name" v="Holaviga" />
		<tag k="name" v="Holevik" />
		<tag k="natural" v="bay" />
		<tag k="ssr:stedsnr" v="811052" />
	</node>
	<node lat="58.93736666638107" lon="5.973619452723176" id="-1366">
		<tag k="name" v="Horpevika" />
		<tag k="natural" v="bay" />
		<tag k="ssr:stedsnr" v="811086" />
	</node>
	<node lat="58.87415833725429" lon="5.763347226684731" id="-1374">
		<tag k="name" v="Nordre Bogsteinen" />
		<tag k="natural" v="cape" />
		<tag k="ssr:stedsnr" v="813684" />
	</node>
	<node lat="58.91316389137503" lon="5.983561112665984" id="-1379">
		<tag k="name" v="Imsaflua" />
		<tag k="place" v="locality" />
		<tag k="seamark:type" v="rock" />
		<tag k="ssr:stedsnr" v="815605" />
	</node>
	<node lat="58.95352222025189" lon="5.836133325369174" id="-1380">
		<tag k="loc_name" v="Jekteviga" />
		<tag k="name" v="Jektavika" />
		<tag k="natural" v="bay" />
		<tag k="ssr:stedsnr" v="828929" />
	</node>
	<node lat="58.914574999575876" lon="6.023433329087663" id="-1382">
		<tag k="name" v="Stronnå" />
		<tag k="natural" v="beach" />
		<tag k="ssr:stedsnr" v="829916" />
	</node>
	<node lat="58.908991663403256" lon="6.008524997787114" id="-1383">
		<tag k="name" v="Stokkurvik" />
		<tag k="natural" v="bay" />
		<tag k="ssr:stedsnr" v="829919" />
	</node>
	<node lat="58.88648055476947" lon="6.106430560469313" id="-1394">
		<tag k="alt_name" v="Eriksviga" />
		<tag k="name" v="Eriksvika" />
		<tag k="natural" v="bay" />
		<tag k="ssr:stedsnr" v="844707" />
	</node>
	<node lat="59.00007499627268" lon="6.318588883594753" id="-1439">
		<tag k="alt_name" v="Giskasætet" />
		<tag k="name" v="Giskasetet" />
		<tag k="natural" v="cape" />
		<tag k="ssr:stedsnr" v="852203" />
	</node>
	<node lat="58.87566666875072" lon="6.11587221626725" id="-1469">
		<tag k="name" v="Uburboen" />
		<tag k="place" v="locality" />
		<tag k="seamark:type" v="rock" />
		<tag k="ssr:stedsnr" v="934972" />
	</node>
	<node lat="58.935049998091735" lon="6.113230552793465" id="-1475">
		<tag k="name" v="Kyrkjeneset" />
		<tag k="natural" v="cape" />
		<tag k="ssr:stedsnr" v="891656" />
	</node>
	<node lat="58.93232777650786" lon="5.848588880460982" id="-1476">
		<tag k="alt_name" v="Hommarsåkvågen" />
		<tag k="name" v="Hommersåkvågen" />
		<tag k="natural" v="bay" />
		<tag k="ssr:stedsnr" v="902720" />
	</node>
	<node lat="58.924527781887996" lon="6.105194449114457" id="-1477">
		<tag k="name" v="Bergenden" />
		<tag k="natural" v="cape" />
		<tag k="ssr:stedsnr" v="904512" />
	</node>
	<node lat="58.86028610883688" lon="6.150074997379842" id="-1481">
		<tag k="name" v="Granen" />
		<tag k="natural" v="cape" />
		<tag k="ssr:stedsnr" v="907911" />
	</node>
	<node lat="58.93860035230629" lon="5.78636395040485" id="-1499">
		<tag k="name" v="Håtangen" />
		<tag k="natural" v="cape" />
		<tag k="ssr:stedsnr" v="911009" />
	</node>
	<node lat="58.95459009584152" lon="5.838539330658394" id="-1505">
		<tag k="name" v="Sluppen" />
		<tag k="natural" v="bay" />
		<tag k="ssr:stedsnr" v="911059" />
	</node>
	<node lat="58.89426553534404" lon="6.042256108424719" id="-1516">
		<tag k="name" v="Trodalsvågen" />
		<tag k="natural" v="bay" />
		<tag k="ssr:stedsnr" v="911656" />
	</node>
	<node lat="58.96475327659452" lon="6.18444438871594" id="-1519">
		<tag k="name" v="Aslakskårvika" />
		<tag k="natural" v="bay" />
		<tag k="old_name" v="Akslaskorvika" />
		<tag k="ssr:stedsnr" v="911797" />
	</node>
	<node lat="59.02891388844706" lon="6.531966664092421" id="-1524">
		<tag k="name" v="Låtervik" />
=======
	<node id="-12177" lat="58.9551718769" lon="5.86135973497">
		<tag k="name" v="Lauvåsvågen" />
		<tag k="natural" v="bay" />
		<tag k="ssr:stedsnr" v="122794" />
	</node>
	<node id="-13090" lat="58.927238885" lon="5.98630277065">
		<tag k="name" v="Stora Sundtangen" />
		<tag k="natural" v="cape" />
		<tag k="ssr:stedsnr" v="629048" />
	</node>
	<node id="-12175" lat="58.9356555577" lon="5.97017777242">
		<tag k="name" v="Dreggjaviga" />
		<tag k="natural" v="bay" />
		<tag k="ssr:stedsnr" v="122790" />
	</node>
	<node id="-11149" lat="58.8969888846" lon="6.02230832855">
		<tag k="name" v="Abalstø" />
		<tag k="natural" v="bay" />
		<tag k="ssr:stedsnr" v="510655" />
	</node>
	<node id="-12172" lat="58.9740708536" lon="5.85505400389">
		<tag k="name" v="Store Teistholmen" />
		<tag k="place" v="islet" />
		<tag k="ssr:stedsnr" v="122773" />
	</node>
	<node id="-12169" lat="58.9221361141" lon="6.10161944076">
		<tag k="alt_name" v="Giskelines" />
		<tag k="name" v="Giskalineset" />
		<tag k="natural" v="cape" />
		<tag k="ssr:stedsnr" v="122745" />
	</node>
	<node id="-12680" lat="58.887052782" lon="5.77343332668">
		<tag k="name" v="Store Holmen" />
		<tag k="place" v="islet" />
		<tag k="ssr:stedsnr" v="387243" />
	</node>
	<node id="-12167" lat="58.9095111078" lon="5.99258611587">
		<tag k="name" v="Skjeggreiholmen" />
		<tag k="place" v="islet" />
		<tag k="ssr:stedsnr" v="122733" />
	</node>
	<node id="-11158" lat="58.9191194485" lon="5.9885111093">
		<tag k="name" v="Nordra Sundvik" />
		<tag k="natural" v="bay" />
		<tag k="ssr:stedsnr" v="690035" />
	</node>
	<node id="-12673" lat="58.9309833371" lon="5.98375276945">
		<tag k="name" v="Lauvvigholmen" />
		<tag k="place" v="islet" />
		<tag k="ssr:stedsnr" v="386091" />
	</node>
	<node id="-12672" lat="58.9294999975" lon="5.98207221606">
		<tag k="name" v="Lauvik" />
		<tag k="natural" v="bay" />
		<tag k="ssr:stedsnr" v="386089" />
	</node>
	<node id="-11135" lat="58.9434361105" lon="6.12617776991">
		<tag k="alt_name" v="Dalaviga" />
		<tag k="name" v="Dalavika" />
		<tag k="natural" v="bay" />
		<tag k="ssr:stedsnr" v="678597" />
	</node>
	<node id="-12668" lat="58.9229777787" lon="5.97051943593">
		<tag k="name" v="Notaberget" />
		<tag k="natural" v="cape" />
		<tag k="ssr:stedsnr" v="386042" />
	</node>
	<node id="-12667" lat="58.9257027788" lon="5.98944721851">
		<tag k="name" v="Govik" />
		<tag k="natural" v="bay" />
		<tag k="ssr:stedsnr" v="386038" />
	</node>
	<node id="-12664" lat="59.0376638888" lon="6.57635000723">
		<tag k="name" v="Molen" />
		<tag k="natural" v="shoal" />
		<tag k="place" v="locality" />
		<tag k="ssr:stedsnr" v="366210" />
	</node>
	<node id="-10615" lat="58.9631222211" lon="5.86570277847">
		<tag k="alt_name" v="Store Vargavika" />
		<tag k="loc_name" v="Store Vargaviga" />
		<tag k="name" v="Stora Vargavika" />
		<tag k="natural" v="bay" />
		<tag k="ssr:stedsnr" v="221911" />
	</node>
	<node id="-12662" lat="59.0258555519" lon="6.37955555437">
		<tag k="name" v="Løypeklubben" />
		<tag k="natural" v="cape" />
		<tag k="ssr:stedsnr" v="366200" />
	</node>
	<node id="-13172" lat="58.8818916653" lon="5.74779166454">
		<tag k="loc_name" v="Rissebærstraen;Ripsebærstranden" />
		<tag k="name" v="Ripsbærstraen" />
		<tag k="natural" v="beach" />
		<tag k="place" v="locality" />
		<tag k="ssr:stedsnr" v="752654" />
	</node>
	<node id="-11634" lat="58.9127138919" lon="5.96765554665">
		<tag k="loc_name" v="Holaviga" />
		<tag k="name" v="Holevik" />
		<tag k="natural" v="bay" />
		<tag k="ssr:stedsnr" v="811052" />
	</node>
	<node id="-12656" lat="59.0300388849" lon="6.43222499666">
		<tag k="name" v="Hollklubben" />
		<tag k="natural" v="cape" />
		<tag k="ssr:stedsnr" v="366038" />
	</node>
	<node id="-11119" lat="58.9565361076" lon="6.15921388965">
		<tag k="alt_name" v="Holmengrå" />
		<tag k="name" v="Holmen grå" />
		<tag k="place" v="islet" />
		<tag k="ssr:stedsnr" v="486719" />
	</node>
	<node id="-11630" lat="58.915855559" lon="6.10277500128">
		<tag k="alt_name" v="Kvednavika" />
		<tag k="name" v="Kvernaviga" />
		<tag k="natural" v="bay" />
		<tag k="ssr:stedsnr" v="798565" />
	</node>
	<node id="-11776" lat="58.9779361146" lon="6.22223055084">
		<tag k="name" v="Ingemundsviga" />
		<tag k="natural" v="bay" />
		<tag k="ssr:stedsnr" v="967516" />
	</node>
	<node id="-13158" lat="58.958080557" lon="5.81695833434">
		<tag k="name" v="Leirvågen" />
		<tag k="natural" v="bay" />
		<tag k="ssr:stedsnr" v="752009" />
	</node>
	<node id="-12133" lat="58.9373888915" lon="5.80415833111">
		<tag k="bay" v="fjord" />
		<tag k="name" v="Riskafjorden" />
		<tag k="natural" v="bay" />
		<tag k="ssr:stedsnr" v="122048" />
	</node>
	<node id="-11107" lat="58.9238361149" lon="6.00618054811">
		<tag k="name" v="Sandvika" />
		<tag k="natural" v="bay" />
		<tag k="ssr:stedsnr" v="484869" />
	</node>
	<node id="-10594" lat="58.870436113" lon="6.12979999691">
		<tag k="alt_name" v="Gråttnes" />
		<tag k="name" v="Grottnes" />
		<tag k="natural" v="cape" />
		<tag k="ssr:stedsnr" v="182557" />
	</node>
	<node id="-12128" lat="58.9273910293" lon="5.78048100483">
		<tag k="name" v="Einerneset" />
		<tag k="natural" v="cape" />
		<tag k="ssr:stedsnr" v="121020" />
	</node>
	<node id="-10548" lat="58.9218666701" lon="5.98699444013">
		<tag k="name" v="Klungvik" />
>>>>>>> e1d4bc35ff8a6074a6f2e91616a996b547c36f15
		<tag k="natural" v="bay" />
		<tag k="ssr:stedsnr" v="144042" />
	</node>
<<<<<<< HEAD
	<node lat="59.08678055417287" lon="6.533886113296965" id="-1527">
		<tag k="name" v="Sandvika" />
		<tag k="natural" v="bay" />
		<tag k="ssr:stedsnr" v="912099" />
	</node>
	<node lat="58.94614722352791" lon="6.127325004303213" id="-1528">
		<tag k="name" v="Storaneset" />
		<tag k="place" v="islet" />
		<tag k="ssr:stedsnr" v="917584" />
	</node>
	<node lat="58.96164722475331" lon="5.843833329361715" id="-1533">
		<tag k="name" v="Nordre Kastevika" />
		<tag k="natural" v="bay" />
		<tag k="ssr:stedsnr" v="933117" />
	</node>
	<node lat="58.92522222556336" lon="5.9756388957037165" id="-1540">
		<tag k="name" v="Ersvik" />
		<tag k="natural" v="bay" />
		<tag k="ssr:stedsnr" v="933043" />
	</node>
	<node lat="58.90727906982172" lon="5.971039984953342" id="-1541">
		<tag k="name" v="Habn" />
		<tag k="natural" v="bay" />
		<tag k="ssr:stedsnr" v="933046" />
	</node>
	<node lat="58.98670833710454" lon="6.239524994854266" id="-1577">
		<tag k="name" v="Kåsaneset" />
		<tag k="natural" v="cape" />
		<tag k="ssr:stedsnr" v="969040" />
	</node>
	<node lat="58.86656909069102" lon="5.75389721608257" id="-1590">
		<tag k="name" v="Aspernesgrunnen" />
		<tag k="natural" v="shoal" />
		<tag k="place" v="locality" />
		<tag k="ssr:stedsnr" v="973853" />
	</node>
	<node lat="59.01196916052766" lon="6.405802125728366" id="-1627">
		<tag k="name" v="Urneset" />
		<tag k="natural" v="cape" />
		<tag k="ssr:stedsnr" v="1279" />
	</node>
	<node lat="58.962594782993506" lon="5.862941274669476" id="-1641">
		<tag k="name" v="Vargavigneset" />
		<tag k="natural" v="cape" />
		<tag k="ssr:stedsnr" v="1758" />
	</node>
	<node lat="58.9697388882559" lon="5.8796833362392675" id="-1645">
		<tag k="name" v="Tingholmen" />
		<tag k="place" v="islet" />
		<tag k="ssr:stedsnr" v="1775" />
	</node>
	<node lat="59.03159999620126" lon="6.446436109051518" id="-1649">
		<tag k="name" v="Skipastyret" />
		<tag k="natural" v="cape" />
		<tag k="ssr:stedsnr" v="2047" />
	</node>
	<node lat="58.956497223491894" lon="5.836719438054359" id="-1665">
		<tag k="loc_name" v="Varholmen" />
		<tag k="name" v="Vadholmen" />
		<tag k="place" v="islet" />
		<tag k="ssr:stedsnr" v="23125" />
	</node>
	<node lat="58.96442222537339" lon="5.836788895204316" id="-1667">
		<tag k="fixme" v="consider seamark:type=rock or natural=shoal" />
		<tag k="name" v="Vestra Torva" />
		<tag k="place" v="islet" />
		<tag k="ssr:stedsnr" v="23128" />
	</node>
	<node lat="58.959783335548394" lon="6.1707249971564515" id="-1675">
		<tag k="alt_name" v="Oksaskjeret" />
		<tag k="fixme" v="consider seamark:type=rock or natural=shoal" />
		<tag k="name" v="Uksen" />
		<tag k="place" v="islet" />
		<tag k="ssr:stedsnr" v="24956" />
	</node>
	<node lat="58.907161108556565" lon="6.015350004301706" id="-1683">
		<tag k="name" v="Kalaviga" />
		<tag k="natural" v="bay" />
		<tag k="ssr:stedsnr" v="26619" />
	</node>
	<node lat="58.96165278133598" lon="5.86258333710971" id="-1688">
		<tag k="name" v="Litla Vargavika" />
		<tag k="natural" v="bay" />
		<tag k="ssr:stedsnr" v="39928" />
	</node>
	<node lat="58.864255559257764" lon="6.145880547289464" id="-1702">
		<tag k="alt_name" v="Dalbuviga" />
		<tag k="name" v="Dalbuvika" />
		<tag k="natural" v="bay" />
		<tag k="ssr:stedsnr" v="55534" />
	</node>
	<node lat="58.96766110757164" lon="5.892130562228481" id="-1785">
		<tag k="loc_name" v="Store Vierneset" />
		<tag k="name" v="Stora Vierneset" />
		<tag k="natural" v="cape" />
		<tag k="ssr:stedsnr" v="62764" />
	</node>
	<node lat="58.919386112930965" lon="6.101141663838805" id="-1793">
		<tag k="name" v="Nauanes" />
		<tag k="natural" v="cape" />
		<tag k="ssr:stedsnr" v="71656" />
	</node>
	<node lat="58.9575416674205" lon="5.863283335421958" id="-1799">
		<tag k="loc_name" v="Mortaviga" />
		<tag k="name" v="Mortavika" />
		<tag k="natural" v="bay" />
		<tag k="ssr:stedsnr" v="83095" />
	</node>
	<node lat="58.934031304959845" lon="5.841740546507895" id="-1805">
		<tag k="name" v="Nodaberget" />
		<tag k="natural" v="cape" />
		<tag k="ssr:stedsnr" v="83157" />
	</node>
	<node lat="58.88647500239428" lon="5.77584167464342" id="-1816">
		<tag k="name" v="Holmavika" />
		<tag k="natural" v="bay" />
		<tag k="ssr:stedsnr" v="84224" />
	</node>
	<node lat="58.88258611143811" lon="5.771736107357505" id="-1825">
		<tag k="name" v="Dyrnesvika" />
		<tag k="natural" v="bay" />
		<tag k="ssr:stedsnr" v="84704" />
	</node>
	<node lat="58.99899444601843" lon="6.29851388343763" id="-1831">
		<tag k="name" v="Mulavig" />
		<tag k="natural" v="bay" />
		<tag k="ssr:stedsnr" v="85954" />
	</node>
	<node lat="58.97235555265921" lon="6.195047217133175" id="-1854">
		<tag k="name" v="Kvassnes" />
		<tag k="natural" v="cape" />
		<tag k="ssr:stedsnr" v="120050" />
	</node>
	<node lat="58.961633335821645" lon="5.820530547240484" id="-1866">
		<tag k="alt_name" v="Langaneset" />
		<tag k="name" v="Langanes" />
		<tag k="natural" v="cape" />
		<tag k="ssr:stedsnr" v="122094" />
	</node>
	<node lat="58.9095111078141" lon="5.992586115868648" id="-1871">
		<tag k="name" v="Skjeggreiholmen" />
		<tag k="place" v="islet" />
		<tag k="ssr:stedsnr" v="122733" />
	</node>
	<node lat="58.93738889152098" lon="5.80415833111437" id="-1875">
		<tag k="bay" v="fjord" />
		<tag k="name" v="Riskafjorden" />
		<tag k="natural" v="bay" />
		<tag k="ssr:stedsnr" v="122048" />
	</node>
	<node lat="58.97407085357124" lon="5.855054003892739" id="-1894">
		<tag k="name" v="Store Teistholmen" />
		<tag k="place" v="islet" />
		<tag k="ssr:stedsnr" v="122773" />
	</node>
	<node lat="58.935655557678054" lon="5.970177772416137" id="-1897">
		<tag k="name" v="Dreggjaviga" />
		<tag k="natural" v="bay" />
		<tag k="ssr:stedsnr" v="122790" />
	</node>
	<node lat="58.955171876947844" lon="5.861359734972767" id="-1899">
		<tag k="name" v="Lauvåsvågen" />
		<tag k="natural" v="bay" />
		<tag k="ssr:stedsnr" v="122794" />
	</node>
	<node lat="58.92213611409595" lon="6.101619440761387" id="-1901">
		<tag k="alt_name" v="Giskelines" />
		<tag k="name" v="Giskalineset" />
		<tag k="natural" v="cape" />
		<tag k="ssr:stedsnr" v="122745" />
	</node>
	<node lat="58.95756389214249" lon="5.908444447293938" id="-1906">
		<tag k="alt_name" v="Tedneholmen" />
		<tag k="name" v="Ternaholmen" />
		<tag k="place" v="islet" />
		<tag k="ssr:stedsnr" v="122806" />
	</node>
	<node lat="58.921866670073264" lon="5.986994440130061" id="-1929">
		<tag k="name" v="Klungvik" />
		<tag k="natural" v="bay" />
		<tag k="ssr:stedsnr" v="144042" />
	</node>
	<node lat="58.95475000280512" lon="5.932438895820142" id="-1937">
		<tag k="name" v="Slettnes" />
		<tag k="natural" v="cape" />
		<tag k="ssr:stedsnr" v="144127" />
	</node>
	<node lat="58.946355555625495" lon="5.8390222229688415" id="-1940">
		<tag k="loc_name" v="Nodaviga" />
		<tag k="name" v="Nodavika" />
		<tag k="natural" v="bay" />
		<tag k="ssr:stedsnr" v="144147" />
	</node>
	<node lat="58.95569285352915" lon="5.847224510298437" id="-1971">
		<tag k="loc_name" v="Tøkjet;Tøket" />
		<tag k="name" v="Tøget" />
		<tag k="natural" v="cape" />
		<tag k="ssr:stedsnr" v="146621" />
	</node>
	<node lat="58.932198044773294" lon="5.842183266553211" id="-1972">
		<tag k="name" v="Ulsneset" />
		<tag k="natural" v="cape" />
		<tag k="ssr:stedsnr" v="146596" />
	</node>
	<node lat="58.93392222076545" lon="5.84347500624838" id="-1978">
		<tag k="loc_name" v="Holsundet" />
		<tag k="name" v="Holmsundet" />
		<tag k="natural" v="strait" />
		<tag k="ssr:stedsnr" v="160766" />
	</node>
	<node lat="58.94954722031154" lon="5.846341669972518" id="-1979">
		<tag k="name" v="Håbekk" />
		<tag k="natural" v="cape" />
		<tag k="ssr:stedsnr" v="161928" />
	</node>
	<node lat="58.942202778583464" lon="5.836963884626936" id="-1982">
		<tag k="loc_name" v="Uskaviga" />
		<tag k="name" v="Uskavika" />
		<tag k="natural" v="bay" />
		<tag k="ssr:stedsnr" v="161934" />
	</node>
	<node lat="58.91550833548843" lon="5.979072220407176" id="-2013">
		<tag k="alt_name" v="Hølefjorden" />
		<tag k="bay" v="fjord" />
		<tag k="name" v="Hølen" />
		<tag k="natural" v="bay" />
		<tag k="ssr:stedsnr" v="182627" />
	</node>
	<node lat="58.96257499688521" lon="6.1760111125654475" id="-2016">
		<tag k="name" v="Høynes" />
		<tag k="natural" v="cape" />
		<tag k="ssr:stedsnr" v="182774" />
	</node>
	<node lat="58.94228309291088" lon="5.853697424359571" id="-2017">
		<tag k="name" v="Skjølviga" />
		<tag k="natural" v="bay" />
		<tag k="ssr:stedsnr" v="182780" />
	</node>
	<node lat="58.9046683838679" lon="5.972248657126183" id="-2026">
		<tag k="alt_name" v="Imsabukta" />
		<tag k="name" v="Imsavika" />
		<tag k="natural" v="bay" />
		<tag k="ssr:stedsnr" v="183617" />
	</node>
	<node lat="58.9500555557369" lon="5.953111116799223" id="-2046">
		<tag k="name" v="Kistines" />
		<tag k="natural" v="cape" />
		<tag k="ssr:stedsnr" v="205009" />
	</node>
	<node lat="58.95595833758023" lon="5.908527776504186" id="-2047">
		<tag k="name" v="Grunnasundet" />
		<tag k="natural" v="strait" />
		<tag k="ssr:stedsnr" v="205123" />
	</node>
	<node lat="58.933955557551684" lon="6.106019439724875" id="-2080">
		<tag k="name" v="Holmsund" />
		<tag k="natural" v="strait" />
		<tag k="ssr:stedsnr" v="282587" />
	</node>
	<node lat="58.961791664842416" lon="5.836855555949748" id="-2087">
		<tag k="loc_name" v="Kuneset" />
		<tag k="name" v="Kunesodden" />
		<tag k="natural" v="cape" />
		<tag k="ssr:stedsnr" v="282959" />
	</node>
	<node lat="58.874005554830305" lon="6.124047220587947" id="-2093">
		<tag k="name" v="Strondå" />
		<tag k="natural" v="beach" />
		<tag k="ssr:stedsnr" v="297551" />
	</node>
	<node lat="58.96077693049951" lon="5.905729931711559" id="-2117">
		<tag k="name" v="Store Nausterholmen" />
		<tag k="place" v="islet" />
		<tag k="ssr:stedsnr" v="304825" />
	</node>
	<node lat="58.93166299861288" lon="5.799418387604903" id="-2120">
		<tag k="name" v="Grødvig" />
		<tag k="natural" v="bay" />
		<tag k="ssr:stedsnr" v="304007" />
	</node>
	<node lat="58.93421705707561" lon="5.819834808205257" id="-2121">
		<tag k="name" v="Riskaholmane" />
		<tag k="place" v="islet" />
		<tag k="ssr:stedsnr" v="304008" />
	</node>
	<node lat="58.92490555562289" lon="6.00069165934614" id="-2143">
		<tag k="name" v="Måganeset" />
		<tag k="natural" v="cape" />
		<tag k="ssr:stedsnr" v="304740" />
	</node>
	<node lat="58.960992251479524" lon="5.899630044670946" id="-2151">
		<tag k="alt_name" v="Djubevika" />
		<tag k="loc_name" v="Djubeviga" />
		<tag k="name" v="Djupevika" />
		<tag k="natural" v="bay" />
		<tag k="ssr:stedsnr" v="304773" />
	</node>
	<node lat="58.97093059166237" lon="5.858533265547566" id="-2157">
		<tag k="name" v="Litle Teistholmen" />
		<tag k="place" v="islet" />
		<tag k="ssr:stedsnr" v="304788" />
	</node>
	<node lat="58.993144442507564" lon="6.262027786003897" id="-2238">
		<tag k="name" v="Sjurshamnen" />
		<tag k="natural" v="bay" />
		<tag k="ssr:stedsnr" v="360531" />
	</node>
	<node lat="58.84899721905248" lon="6.186377779599625" id="-2240">
		<tag k="name" v="Urnes" />
		<tag k="natural" v="cape" />
		<tag k="ssr:stedsnr" v="360743" />
	</node>
	<node lat="58.86180277539701" lon="6.147469449211774" id="-2243">
		<tag k="name" v="Hedleodden" />
		<tag k="natural" v="cape" />
		<tag k="ssr:stedsnr" v="360935" />
	</node>
	<node lat="58.99383611231074" lon="5.816247213448663" id="-2282">
		<tag k="bay" v="fjord" />
		<tag k="name" v="Høgsfjorden" />
		<tag k="natural" v="bay" />
		<tag k="ssr:stedsnr" v="364128" />
	</node>
	<node lat="58.9595051925805" lon="5.8120373637759775" id="-2304">
		<tag k="name" v="Snekka" />
		<tag k="place" v="islet" />
		<tag k="ssr:stedsnr" v="365106" />
	</node>
	<node lat="59.03003888486716" lon="6.432224996659487" id="-2312">
		<tag k="name" v="Hollklubben" />
		<tag k="natural" v="cape" />
		<tag k="ssr:stedsnr" v="366038" />
	</node>
	<node lat="58.90188332921217" lon="6.080083338446444" id="-2317">
		<tag k="name" v="Forsandsundet" />
		<tag k="natural" v="strait" />
		<tag k="ssr:stedsnr" v="374562" />
	</node>
	<node lat="58.925702778832715" lon="5.9894472185091665" id="-2319">
		<tag k="name" v="Govik" />
		<tag k="natural" v="bay" />
		<tag k="ssr:stedsnr" v="386038" />
	</node>
	<node lat="58.92949999753459" lon="5.982072216063176" id="-2321">
		<tag k="name" v="Lauvik" />
=======
	<node id="-11341" lat="58.8711142428" lon="5.76352611153">
		<tag k="name" v="Sandvika" />
		<tag k="natural" v="bay" />
		<tag k="ssr:stedsnr" v="729258" />
	</node>
	<node id="-11236" lat="58.9309638876" lon="6.11854167495">
		<tag k="name" v="Skansen" />
		<tag k="natural" v="cape" />
		<tag k="ssr:stedsnr" v="709626" />
	</node>
	<node id="-11093" lat="58.8815750031" lon="6.07334445081">
		<tag k="name" v="Borghammar" />
		<tag k="natural" v="cape" />
		<tag k="ssr:stedsnr" v="481711" />
	</node>
	<node id="-13140" lat="58.9411277762" lon="5.85307221528">
		<tag k="name" v="Søylevågen" />
		<tag k="natural" v="bay" />
		<tag k="ssr:stedsnr" v="751141" />
	</node>
	<node id="-10454" lat="58.934031305" lon="5.84174054651">
		<tag k="name" v="Nodaberget" />
		<tag k="natural" v="cape" />
		<tag k="ssr:stedsnr" v="83157" />
	</node>
	<node id="-13138" lat="58.928222222" lon="5.98348889272">
		<tag k="name" v="Pigepallen" />
		<tag k="natural" v="cape" />
		<tag k="ssr:stedsnr" v="751095" />
	</node>
	<node id="-12625" lat="58.9595051926" lon="5.81203736378">
		<tag k="name" v="Snekka" />
		<tag k="place" v="islet" />
		<tag k="ssr:stedsnr" v="365106" />
	</node>
	<node id="-11085" lat="59.0168999979" lon="6.34015832586">
		<tag k="name" v="Kroknes" />
		<tag k="natural" v="cape" />
		<tag k="ssr:stedsnr" v="669182" />
	</node>
	<node id="-12108" lat="58.9723555527" lon="6.19504721713">
		<tag k="name" v="Kvassnes" />
		<tag k="natural" v="cape" />
		<tag k="ssr:stedsnr" v="120050" />
	</node>
	<node id="-11593" lat="58.9461472235" lon="6.1273250043">
		<tag k="name" v="Storaneset" />
		<tag k="place" v="islet" />
		<tag k="ssr:stedsnr" v="917584" />
	</node>
	<node id="-10567" lat="58.9080999994" lon="6.01230000509">
		<tag k="name" v="Nausterneset" />
		<tag k="natural" v="cape" />
		<tag k="ssr:stedsnr" v="282916" />
	</node>
	<node id="-10565" lat="58.9339555576" lon="6.10601943972">
		<tag k="name" v="Holmsund" />
		<tag k="natural" v="strait" />
		<tag k="ssr:stedsnr" v="282587" />
	</node>
	<node id="-12612" lat="58.9404888872" lon="6.1202249926">
		<tag k="bay" v="fjord" />
		<tag k="name" v="Lysefjorden" />
		<tag k="natural" v="bay" />
		<tag k="ssr:stedsnr" v="364713" />
	</node>
	<node id="-11583" lat="59.0187611084" lon="6.35540000113">
		<tag k="name" v="Skipahamnen" />
		<tag k="natural" v="bay" />
		<tag k="ssr:stedsnr" v="912198" />
	</node>
	<node id="-13118" lat="58.9488535219" lon="5.79169298756">
		<tag k="name" v="Ligrunnen" />
		<tag k="natural" v="shoal" />
		<tag k="place" v="locality" />
		<tag k="ssr:stedsnr" v="647346" />
	</node>
	<node id="-10557" lat="58.9059055526" lon="6.01660555263">
		<tag k="name" v="Kvitaneset" />
		<tag k="natural" v="cape" />
		<tag k="ssr:stedsnr" v="161910" />
	</node>
	<node id="-13116" lat="58.9653811837" lon="5.87698740837">
		<tag k="loc_name" v="Urviga" />
		<tag k="name" v="Urdvika" />
		<tag k="natural" v="bay" />
		<tag k="ssr:stedsnr" v="646927" />
	</node>
	<node id="-12601" lat="58.9938361123" lon="5.81624721345">
		<tag k="bay" v="fjord" />
		<tag k="name" v="Høgsfjorden" />
		<tag k="natural" v="bay" />
		<tag k="ssr:stedsnr" v="364128" />
	</node>
	<node id="-10552" lat="58.9556928535" lon="5.8472245103">
		<tag k="loc_name" v="Tøkjet;Tøket" />
		<tag k="name" v="Tøget" />
		<tag k="natural" v="cape" />
		<tag k="ssr:stedsnr" v="146621" />
	</node>
	<node id="-11063" lat="58.9561166637" lon="5.90962777583">
		<tag k="name" v="Grunnasundsholmen" />
		<tag k="place" v="islet" />
		<tag k="ssr:stedsnr" v="668819" />
	</node>
	<node id="-11062" lat="58.9678027804" lon="5.88814167335">
		<tag k="name" v="Strålaus" />
		<tag k="place" v="islet" />
		<tag k="ssr:stedsnr" v="668787" />
	</node>
	<node id="-11573" lat="59.0867805542" lon="6.5338861133">
		<tag k="name" v="Sandvika" />
		<tag k="natural" v="bay" />
		<tag k="ssr:stedsnr" v="912099" />
	</node>
	<node id="-11060" lat="58.9678833326" lon="5.87090556061">
		<tag k="name" v="Brattholmen" />
		<tag k="place" v="islet" />
		<tag k="ssr:stedsnr" v="668783" />
	</node>
	<node id="-11058" lat="58.915422219" lon="5.99171943737">
		<tag k="name" v="Foreholmen" />
		<tag k="place" v="islet" />
		<tag k="ssr:stedsnr" v="668762" />
	</node>
	<node id="-10544" lat="58.9527666628" lon="5.83573333175">
		<tag k="name" v="Søre Kasteviga" />
		<tag k="natural" v="bay" />
		<tag k="ssr:stedsnr" v="268638" />
	</node>
	<node id="-13097" lat="58.8697444461" lon="6.13356110459">
		<tag k="alt_name" v="Rossavik" />
		<tag k="loc_name" v="Rossaviga" />
		<tag k="name" v="Rossavika" />
		<tag k="natural" v="bay" />
		<tag k="ssr:stedsnr" v="630094" />
	</node>
	<node id="-10564" lat="58.8654444436" lon="5.74660277736">
		<tag k="name" v="Smedagrunnen" />
		<tag k="natural" v="shoal" />
		<tag k="place" v="locality" />
		<tag k="ssr:stedsnr" v="282471" />
	</node>
	<node id="-10374" lat="58.8984500023" lon="5.77472499627">
		<tag k="alt_name" v="Daleviki;Dalsvågen" />
		<tag k="name" v="Dalevika" />
		<tag k="natural" v="bay" />
		<tag k="ssr:stedsnr" v="240139" />
	</node>
	<node id="-12066" lat="58.8864750024" lon="5.77584167464">
		<tag k="name" v="Holmavika" />
		<tag k="natural" v="bay" />
		<tag k="ssr:stedsnr" v="84224" />
	</node>
	<node id="-10887" lat="58.9018833292" lon="6.08008333845">
		<tag k="name" v="Forsandsundet" />
		<tag k="natural" v="strait" />
		<tag k="ssr:stedsnr" v="374562" />
	</node>
	<node id="-11549" lat="58.9647532766" lon="6.18444438872">
		<tag k="name" v="Aslakskårvika" />
		<tag k="natural" v="bay" />
		<tag k="old_name" v="Akslaskorvika" />
		<tag k="ssr:stedsnr" v="911797" />
	</node>
	<node id="-13083" lat="58.9539166705" lon="5.91941943723">
		<tag k="name" v="Loddervikneset" />
		<tag k="natural" v="cape" />
		<tag k="ssr:stedsnr" v="629102" />
	</node>
	<node id="-12570" lat="58.8618027754" lon="6.14746944921">
		<tag k="name" v="Hedleodden" />
		<tag k="natural" v="cape" />
		<tag k="ssr:stedsnr" v="360935" />
	</node>
	<node id="-12057" lat="58.9575416674" lon="5.86328333542">
		<tag k="loc_name" v="Mortaviga" />
		<tag k="name" v="Mortavika" />
		<tag k="natural" v="bay" />
		<tag k="ssr:stedsnr" v="83095" />
	</node>
	<node id="-12568" lat="58.8489972191" lon="6.1863777796">
		<tag k="name" v="Urnes" />
		<tag k="natural" v="cape" />
		<tag k="ssr:stedsnr" v="360743" />
	</node>
	<node id="-12566" lat="58.9931444425" lon="6.262027786">
		<tag k="name" v="Sjurshamnen" />
		<tag k="natural" v="bay" />
		<tag k="ssr:stedsnr" v="360531" />
	</node>
	<node id="-11538" lat="58.8842166695" lon="6.10982500692">
		<tag k="name" v="Aksnes" />
		<tag k="natural" v="cape" />
		<tag k="ssr:stedsnr" v="911684" />
	</node>
	<node id="-10371" lat="59.0157336249" lon="6.43332209106">
		<tag k="alt_name" v="Heimra Neset" />
		<tag k="name" v="Heimraneset" />
		<tag k="natural" v="cape" />
		<tag k="ssr:stedsnr" v="239961" />
	</node>
	<node id="-12048" lat="58.9193861129" lon="6.10114166384">
		<tag k="name" v="Nauanes" />
		<tag k="natural" v="cape" />
		<tag k="ssr:stedsnr" v="71656" />
	</node>
	<node id="-12047" lat="59.0123583306" lon="6.27881110916">
		<tag k="name" v="Sjoklampen" />
		<tag k="natural" v="cape" />
		<tag k="ssr:stedsnr" v="63208" />
	</node>
	<node id="-12046" lat="59.02093333" lon="6.36532499264">
		<tag k="name" v="Piggstein" />
		<tag k="natural" v="cape" />
		<tag k="ssr:stedsnr" v="63204" />
	</node>
	<node id="-12552" lat="58.866474412" lon="5.75320517094">
		<tag k="alt_name" v="Asparmyrbåen" />
		<tag k="name" v="Aspermyrbåen" />
		<tag k="place" v="locality" />
		<tag k="seamark:type" v="rock" />
		<tag k="ssr:stedsnr" v="342417" />
	</node>
	<node id="-11527" lat="58.8759749985" lon="6.11820000289">
		<tag k="name" v="Sandnes" />
		<tag k="natural" v="cape" />
		<tag k="ssr:stedsnr" v="911577" />
	</node>
	<node id="-10500" lat="58.966277775" lon="5.87011111667">
		<tag k="name" v="Brattholmsundet" />
		<tag k="natural" v="strait" />
		<tag k="ssr:stedsnr" v="265105" />
	</node>
	<node id="-12035" lat="58.9676611076" lon="5.89213056223">
		<tag k="loc_name" v="Store Vierneset" />
		<tag k="name" v="Stora Vierneset" />
		<tag k="natural" v="cape" />
		<tag k="ssr:stedsnr" v="62764" />
	</node>
	<node id="-10495" lat="58.9022505974" lon="5.97332889861">
		<tag k="name" v="Kleivabukta" />
		<tag k="natural" v="bay" />
		<tag k="ssr:stedsnr" v="265065" />
	</node>
	<node id="-13054" lat="58.9127027797" lon="6.02209445158">
		<tag k="name" v="Ådnøy" />
		<tag k="place" v="island" />
		<tag k="ssr:stedsnr" v="607736" />
	</node>
	<node id="-11004" lat="58.8704527762" lon="6.13478611147">
		<tag k="name" v="Kroppevik" />
		<tag k="natural" v="bay" />
		<tag k="ssr:stedsnr" v="661174" />
	</node>
	<node id="-11003" lat="58.8654166643" lon="6.14151666999">
		<tag k="name" v="Radlavika" />
		<tag k="natural" v="bay" />
		<tag k="ssr:stedsnr" v="661173" />
	</node>
	<node id="-11514" lat="58.9545900958" lon="5.83853933066">
		<tag k="name" v="Sluppen" />
		<tag k="natural" v="bay" />
		<tag k="ssr:stedsnr" v="911059" />
	</node>
	<node id="-13049" lat="58.9493333376" lon="6.13314722566">
		<tag k="alt_name" v="Dørvikneset, ytre;Dørvikneset, yttre" />
		<tag k="name" v="Ytre Dørvikneset" />
		<tag k="natural" v="cape" />
		<tag k="ssr:stedsnr" v="607711" />
	</node>
	<node id="-10464" lat="58.9379486709" lon="5.82605485751">
		<tag k="name" v="Nova" />
		<tag k="natural" v="cape" />
		<tag k="ssr:stedsnr" v="84204" />
	</node>
	<node id="-11508" lat="58.9386003523" lon="5.7863639504">
		<tag k="name" v="Håtangen" />
		<tag k="natural" v="cape" />
		<tag k="ssr:stedsnr" v="911009" />
	</node>
	<node id="-11506" lat="58.9162329614" lon="5.99432805986">
		<tag k="name" v="Husabøvågen" />
		<tag k="natural" v="bay" />
		<tag k="ssr:stedsnr" v="909890" />
	</node>
	<node id="-10707" lat="58.9449694464" lon="5.83917777742">
		<tag k="loc_name" v="Nodavikneset" />
		<tag k="name" v="Notaneset" />
		<tag k="natural" v="cape" />
		<tag k="ssr:stedsnr" v="464943" />
	</node>
	<node id="-10480" lat="58.998994446" lon="6.29851388344">
		<tag k="name" v="Mulavig" />
		<tag k="natural" v="bay" />
		<tag k="ssr:stedsnr" v="85954" />
	</node>
	<node id="-10988" lat="58.9594333369" lon="5.84627499523">
		<tag k="name" v="Søre Kastevika" />
		<tag k="natural" v="bay" />
		<tag k="ssr:stedsnr" v="447109" />
	</node>
	<node id="-10620" lat="58.9247805555" lon="5.9717361178">
		<tag k="name" v="Engjaviga" />
		<tag k="natural" v="bay" />
		<tag k="ssr:stedsnr" v="447035" />
	</node>
	<node id="-10981" lat="59.002888888" lon="6.23669999188">
		<tag k="name" v="Hengjandeviga" />
		<tag k="natural" v="bay" />
		<tag k="ssr:stedsnr" v="427211" />
	</node>
	<node id="-10466" lat="58.8825861114" lon="5.77173610736">
		<tag k="name" v="Dyrnesvika" />
		<tag k="natural" v="bay" />
		<tag k="ssr:stedsnr" v="84704" />
	</node>
	<node id="-13024" lat="58.8832776697" lon="6.06796353251">
		<tag k="loc_name" v="Selvigsvågen" />
		<tag k="name" v="Selvigvågen" />
		<tag k="natural" v="bay" />
		<tag k="ssr:stedsnr" v="607660" />
	</node>
	<node id="-10972" lat="58.9456444414" lon="6.12729722173">
		<tag k="name" v="Helleren" />
		<tag k="place" v="islet" />
		<tag k="ssr:stedsnr" v="426718" />
	</node>
	<node id="-10646" lat="58.9574305563" lon="6.1667249987">
		<tag k="name" v="Pannevikodden" />
		<tag k="natural" v="cape" />
		<tag k="ssr:stedsnr" v="242055" />
	</node>
	<node id="-11990" lat="58.9498916668" lon="6.14408888578">
		<tag k="alt_name" v="Dørvig" />
		<tag k="name" v="Dørviga" />
>>>>>>> e1d4bc35ff8a6074a6f2e91616a996b547c36f15
		<tag k="natural" v="bay" />
		<tag k="ssr:stedsnr" v="61689" />
	</node>
<<<<<<< HEAD
	<node lat="58.93098333705749" lon="5.983752769449071" id="-2322">
		<tag k="name" v="Lauvvigholmen" />
		<tag k="place" v="islet" />
		<tag k="ssr:stedsnr" v="386091" />
	</node>
	<node lat="58.92297777867486" lon="5.970519435930711" id="-2323">
		<tag k="name" v="Notaberget" />
=======
	<node id="-11089" lat="58.9504277819" lon="6.14735277094">
		<tag k="name" v="Indra Dørvika" />
		<tag k="natural" v="bay" />
		<tag k="ssr:stedsnr" v="478972" />
	</node>
	<node id="-10961" lat="58.9305897327" lon="5.83901455875">
		<tag k="alt_name" v="Breidvika;Breivik" />
		<tag k="loc_name" v="Breiviga" />
		<tag k="name" v="Breivika" />
		<tag k="natural" v="bay" />
		<tag k="ssr:stedsnr" v="425012" />
	</node>
	<node id="-11983" lat="58.8537250027" lon="6.16460833361">
		<tag k="alt_name" v="Grimsneset" />
		<tag k="name" v="Grimsnes" />
		<tag k="natural" v="cape" />
		<tag k="ssr:stedsnr" v="61572" />
	</node>
	<node id="-11469" lat="58.8602861088" lon="6.15007499738">
		<tag k="name" v="Granen" />
>>>>>>> e1d4bc35ff8a6074a6f2e91616a996b547c36f15
		<tag k="natural" v="cape" />
		<tag k="ssr:stedsnr" v="907911" />
	</node>
<<<<<<< HEAD
	<node lat="58.97588662256016" lon="6.208663188239403" id="-2341">
		<tag k="alt_name" v="Katthamn" />
		<tag k="name" v="Katthavn" />
		<tag k="natural" v="bay" />
		<tag k="ssr:stedsnr" v="389587" />
	</node>
	<node lat="58.90533888898269" lon="6.0259305608453575" id="-2342">
		<tag k="name" v="Kjerringa" />
		<tag k="natural" v="cape" />
		<tag k="ssr:stedsnr" v="389646" />
	</node>
	<node lat="59.02708700942499" lon="6.4092121179160815" id="-2346">
		<tag k="name" v="Kåsastøa" />
		<tag k="natural" v="bay" />
		<tag k="ssr:stedsnr" v="395760" />
	</node>
	<node lat="59.01732339844537" lon="6.439246554539828" id="-2387">
		<tag k="name" v="Indra Neset" />
		<tag k="natural" v="cape" />
		<tag k="ssr:stedsnr" v="424183" />
	</node>
	<node lat="58.94564444137566" lon="6.127297221726278" id="-2407">
		<tag k="name" v="Helleren" />
		<tag k="place" v="islet" />
		<tag k="ssr:stedsnr" v="426718" />
	</node>
	<node lat="58.96204485605712" lon="5.898453123495627" id="-2429">
		<tag k="alt_name" v="Viervika" />
		<tag k="name" v="Viervågen" />
		<tag k="natural" v="bay" />
		<tag k="ssr:stedsnr" v="426770" />
	</node>
	<node lat="58.983533330898126" lon="6.232588896087211" id="-2435">
		<tag k="name" v="Fossåneset" />
		<tag k="natural" v="cape" />
		<tag k="ssr:stedsnr" v="431573" />
	</node>
	<node lat="58.92478055546514" lon="5.971736117801505" id="-2443">
		<tag k="name" v="Engjaviga" />
		<tag k="natural" v="bay" />
		<tag k="ssr:stedsnr" v="447035" />
	</node>
	<node lat="58.937169440395785" lon="5.851022216022793" id="-2466">
		<tag k="name" v="Hestviga" />
		<tag k="natural" v="bay" />
		<tag k="ssr:stedsnr" v="508130" />
	</node>
	<node lat="58.85399761816917" lon="5.746046117248116" id="-2482">
		<tag k="name" v="Vågen" />
		<tag k="natural" v="bay" />
		<tag k="ssr:stedsnr" v="524744" />
	</node>
	<node lat="58.965158331247565" lon="5.868911106824658" id="-2483">
		<tag k="loc_name" v="Dueviga" />
		<tag k="name" v="Duevika" />
		<tag k="natural" v="bay" />
		<tag k="ssr:stedsnr" v="525927" />
	</node>
	<node lat="58.96325232886534" lon="5.83971001801519" id="-2487">
		<tag k="name" v="Nordviga" />
		<tag k="natural" v="bay" />
		<tag k="ssr:stedsnr" v="526254" />
	</node>
	<node lat="58.92713055499049" lon="6.108661108445654" id="-2494">
		<tag k="name" v="Svartavik" />
		<tag k="natural" v="bay" />
		<tag k="ssr:stedsnr" v="540542" />
	</node>
	<node lat="58.988916667271134" lon="6.247024998017952" id="-2508">
		<tag k="name" v="Klubben" />
		<tag k="natural" v="cape" />
		<tag k="ssr:stedsnr" v="545042" />
	</node>
	<node lat="58.98947777872936" lon="6.25018332640515" id="-2509">
		<tag k="name" v="Marvik" />
		<tag k="natural" v="bay" />
		<tag k="ssr:stedsnr" v="545044" />
	</node>
	<node lat="58.881352781028525" lon="6.114025003048173" id="-2542">
		<tag k="alt_name" v="Breivika" />
		<tag k="name" v="Breidvika" />
		<tag k="natural" v="bay" />
		<tag k="ssr:stedsnr" v="547699" />
	</node>
	<node lat="58.90747500172441" lon="5.973569445433553" id="-2551">
		<tag k="name" v="Godfarneset" />
		<tag k="natural" v="cape" />
		<tag k="ssr:stedsnr" v="568042" />
	</node>
	<node lat="58.953861109045555" lon="5.917266671220068" id="-2556">
		<tag k="name" v="Litle Langholmen" />
		<tag k="place" v="islet" />
		<tag k="ssr:stedsnr" v="568100" />
	</node>
	<node lat="58.89481666911041" lon="6.100516663343317" id="-2577">
		<tag k="name" v="Hagaviga" />
		<tag k="natural" v="bay" />
		<tag k="ssr:stedsnr" v="570077" />
	</node>
	<node lat="59.02558888766626" lon="6.487799994133932" id="-2579">
		<tag k="name" v="Sovekroneset" />
		<tag k="natural" v="cape" />
		<tag k="ssr:stedsnr" v="570944" />
	</node>
	<node lat="58.916953752248176" lon="6.021378665342579" id="-2582">
		<tag k="name" v="Jektarauå" />
		<tag k="natural" v="cape" />
		<tag k="ssr:stedsnr" v="585901" />
	</node>
	<node lat="58.94775833296129" lon="5.8458638950281046" id="-2583">
		<tag k="name" v="Djubevikodden" />
		<tag k="natural" v="cape" />
		<tag k="ssr:stedsnr" v="585930" />
	</node>
	<node lat="58.95469444499889" lon="6.148199996369456" id="-2588">
		<tag k="alt_name" v="Dørvikneset, indre;Dørvikneset" />
		<tag k="name" v="Indre Dørvikneset" />
		<tag k="natural" v="cape" />
		<tag k="ssr:stedsnr" v="600340" />
	</node>
	<node lat="58.86081944223059" lon="6.1424694372368736" id="-2589">
		<tag k="alt_name" v="Hedlegrunnen" />
		<tag k="name" v="Hellegrunnen" />
		<tag k="natural" v="shoal" />
		<tag k="place" v="locality" />
		<tag k="ssr:stedsnr" v="600530" />
	</node>
	<node lat="58.949052776988" lon="6.144022227001845" id="-2590">
		<tag k="name" v="Ytra Dørvika" />
		<tag k="natural" v="bay" />
		<tag k="ssr:stedsnr" v="600973" />
	</node>
	<node lat="58.92118610945326" lon="6.009727777619505" id="-2592">
		<tag k="name" v="Austra Vigå" />
		<tag k="natural" v="bay" />
		<tag k="ssr:stedsnr" v="602730" />
	</node>
	<node lat="58.90539166815508" lon="6.096930562585711" id="-2601">
		<tag k="name" v="Farmanes" />
		<tag k="natural" v="cape" />
		<tag k="ssr:stedsnr" v="605040" />
	</node>
	<node lat="58.95647499688787" lon="6.165272220466917" id="-2603">
		<tag k="name" v="Pannevik" />
		<tag k="natural" v="bay" />
		<tag k="ssr:stedsnr" v="605063" />
	</node>
	<node lat="58.88327766974956" lon="6.067963532507088" id="-2636">
		<tag k="loc_name" v="Selvigsvågen" />
		<tag k="name" v="Selvigvågen" />
		<tag k="natural" v="bay" />
		<tag k="ssr:stedsnr" v="607660" />
	</node>
	<node lat="58.91270277973691" lon="6.022094451579429" id="-2662">
		<tag k="name" v="Ådnøy" />
		<tag k="place" v="island" />
		<tag k="ssr:stedsnr" v="607736" />
	</node>
	<node lat="58.86328055315155" lon="5.75418055879521" id="-2700">
		<tag k="name" v="Lauvvik" />
		<tag k="natural" v="bay" />
		<tag k="ssr:stedsnr" v="631756" />
	</node>
	<node lat="58.948853521936456" lon="5.791692987555416" id="-2714">
		<tag k="name" v="Ligrunnen" />
		<tag k="natural" v="shoal" />
		<tag k="place" v="locality" />
		<tag k="ssr:stedsnr" v="647346" />
	</node>
	<node lat="58.86541666429772" lon="6.141516669991271" id="-2722">
		<tag k="name" v="Radlavika" />
		<tag k="natural" v="bay" />
		<tag k="ssr:stedsnr" v="661173" />
	</node>
	<node lat="58.870452776204836" lon="6.134786111471985" id="-2723">
		<tag k="name" v="Kroppevik" />
		<tag k="natural" v="bay" />
		<tag k="ssr:stedsnr" v="661174" />
	</node>
	<node lat="58.91542221898287" lon="5.991719437366799" id="-2770">
		<tag k="name" v="Foreholmen" />
		<tag k="place" v="islet" />
		<tag k="ssr:stedsnr" v="668762" />
	</node>
	<node lat="58.86147939872171" lon="5.750133001819881" id="-2785">
		<tag k="name" v="Lundegrunnen" />
		<tag k="natural" v="shoal" />
		<tag k="place" v="locality" />
		<tag k="ssr:stedsnr" v="889439" />
	</node>
	<node lat="58.885780552043286" lon="6.069725008952857" id="-2789">
		<tag k="name" v="Kleivik" />
		<tag k="natural" v="bay" />
		<tag k="ssr:stedsnr" v="726034" />
	</node>
	<node lat="58.87111424282824" lon="5.7635261115346035" id="-2812">
		<tag k="name" v="Sandvika" />
		<tag k="natural" v="bay" />
		<tag k="ssr:stedsnr" v="729258" />
	</node>
	<node lat="58.925122226584904" lon="5.981552781713734" id="-2828">
		<tag k="name" v="Storasundet" />
		<tag k="natural" v="strait" />
		<tag k="ssr:stedsnr" v="729732" />
	</node>
	<node lat="58.93238610812912" lon="6.1079750034624745" id="-2833">
		<tag k="alt_name" v="Stora Bergsholmen" />
		<tag k="name" v="Bergsholmen" />
		<tag k="place" v="islet" />
		<tag k="ssr:stedsnr" v="729744" />
	</node>
	<node lat="58.896452773933945" lon="6.044086117905484" id="-2837">
		<tag k="name" v="Vedholmen" />
		<tag k="place" v="islet" />
		<tag k="ssr:stedsnr" v="729657" />
	</node>
	<node lat="59.02697924628968" lon="6.408709158601812" id="-2847">
		<tag k="name" v="Kåsaklubben" />
		<tag k="natural" v="cape" />
		<tag k="ssr:stedsnr" v="730031" />
	</node>
	<node lat="58.90664722234266" lon="6.100402773629291" id="-2857">
		<tag k="alt_name" v="Bergevig;Bergevika" />
		<tag k="name" v="Bergevik" />
		<tag k="natural" v="bay" />
		<tag k="ssr:stedsnr" v="738596" />
	</node>
	<node lat="58.94112777623253" lon="5.853072215278686" id="-2864">
		<tag k="name" v="Søylevågen" />
		<tag k="natural" v="bay" />
		<tag k="ssr:stedsnr" v="751141" />
	</node>
	<node lat="58.93816389201237" lon="5.964616669794343" id="-2872">
		<tag k="name" v="Erevik" />
		<tag k="natural" v="bay" />
		<tag k="ssr:stedsnr" v="751094" />
	</node>
	<node lat="58.92822222201948" lon="5.983488892721991" id="-2873">
		<tag k="name" v="Pigepallen" />
		<tag k="natural" v="cape" />
		<tag k="ssr:stedsnr" v="751095" />
	</node>
	<node lat="58.97675254250907" lon="5.8505584722716835" id="-2897">
		<tag k="name" v="Djupaflua" />
		<tag k="place" v="locality" />
		<tag k="seamark:type" v="rock" />
		<tag k="ssr:stedsnr" v="753236" />
	</node>
	<node lat="58.9646361084529" lon="5.843344447035039" id="-2898">
		<tag k="fixme" v="consider seamark:type=rock or natural=shoal" />
		<tag k="name" v="Austra Torva" />
		<tag k="place" v="islet" />
		<tag k="ssr:stedsnr" v="753591" />
	</node>
	<node lat="58.91870705980782" lon="5.996289942321664" id="-2901">
		<tag k="name" v="Vågen" />
		<tag k="natural" v="bay" />
		<tag k="ssr:stedsnr" v="754634" />
	</node>
	<node lat="58.955225001893886" lon="5.836969446056158" id="-2905">
		<tag k="fixme" v="consider seamark:type=rock or natural=shoal" />
		<tag k="name" v="Terneskjeret" />
		<tag k="place" v="islet" />
		<tag k="ssr:stedsnr" v="767959" />
	</node>
	<node lat="58.93115277484415" lon="6.112511116860332" id="-2907">
		<tag k="name" v="Jektaholet" />
		<tag k="natural" v="bay" />
		<tag k="ssr:stedsnr" v="770602" />
	</node>
	<node lat="58.96146111544886" lon="5.903816663643747" id="-2909">
		<tag k="name" v="Litle Nausterholmen" />
		<tag k="place" v="islet" />
		<tag k="ssr:stedsnr" v="773984" />
	</node>
	<node lat="59.02528610768228" lon="6.3945694496982455" id="-2911">
		<tag k="alt_name" v="Austra Vika" />
		<tag k="name" v="Austra Viga" />
		<tag k="natural" v="bay" />
		<tag k="ssr:stedsnr" v="782895" />
	</node>
	<node lat="58.965363892673615" lon="5.888680562980343" id="-2914">
		<tag k="alt_name" v="Storevågen" />
		<tag k="name" v="Store Viervågen" />
		<tag k="natural" v="bay" />
		<tag k="ssr:stedsnr" v="783480" />
	</node>
	<node lat="58.943933336077755" lon="5.851625002632398" id="-2915">
		<tag k="alt_name" v="Muntevika" />
		<tag k="name" v="Mynteviga" />
		<tag k="natural" v="bay" />
		<tag k="ssr:stedsnr" v="783483" />
	</node>
	<node lat="58.904258336939506" lon="6.09369167017952" id="-2919">
		<tag k="name" v="Gjøysavik" />
		<tag k="natural" v="bay" />
		<tag k="ssr:stedsnr" v="786797" />
	</node>
	<node lat="58.95861111036528" lon="5.843100000809841" id="-2972">
		<tag k="name" v="Uskakalven" />
		<tag k="place" v="island" />
		<tag k="ssr:stedsnr" v="790773" />
	</node>
	<node lat="58.91585555897483" lon="6.102775001278739" id="-2981">
		<tag k="alt_name" v="Kvednavika" />
		<tag k="name" v="Kvernaviga" />
		<tag k="natural" v="bay" />
		<tag k="ssr:stedsnr" v="798565" />
	</node>
	<node lat="58.92028055239334" lon="5.778205562370907" id="-3003">
		<tag k="name" v="Bjorhamn" />
		<tag k="natural" v="bay" />
		<tag k="ssr:stedsnr" v="813048" />
	</node>
	<node lat="58.87066389298858" lon="5.745538884465729" id="-3017">
		<tag k="name" v="Somaneset" />
		<tag k="natural" v="cape" />
		<tag k="ssr:stedsnr" v="813671" />
	</node>
	<node lat="58.9025416649578" lon="6.000119437924589" id="-3019">
		<tag k="name" v="Kyrkjeflua" />
		<tag k="place" v="locality" />
		<tag k="seamark:type" v="rock" />
		<tag k="ssr:stedsnr" v="814646" />
	</node>
	<node lat="58.955922218856884" lon="5.8545805570861145" id="-3021">
		<tag k="name" v="Bikkjeneset" />
		<tag k="natural" v="cape" />
		<tag k="ssr:stedsnr" v="814652" />
	</node>
	<node lat="58.96664722170575" lon="5.889274996362443" id="-3022">
		<tag k="name" v="Litla Vierneset" />
		<tag k="natural" v="cape" />
		<tag k="ssr:stedsnr" v="814668" />
	</node>
	<node lat="58.89022221918757" lon="5.763002772323684" id="-3034">
		<tag k="alt_name" v="Gandafjorden" />
		<tag k="bay" v="fjord" />
		<tag k="name" v="Gandsfjorden" />
		<tag k="natural" v="bay" />
		<tag k="old_name" v="Gansfjorden" />
		<tag k="ssr:stedsnr" v="830968" />
	</node>
	<node lat="58.88831111215075" lon="5.774697214436861" id="-3044">
		<tag k="name" v="Litle Holmen" />
		<tag k="place" v="islet" />
		<tag k="ssr:stedsnr" v="847177" />
	</node>
	<node lat="58.904505555681276" lon="6.009441663345977" id="-3073">
		<tag k="name" v="Skreddarsundet" />
		<tag k="natural" v="strait" />
		<tag k="ssr:stedsnr" v="850613" />
	</node>
	<node lat="58.90866666402916" lon="5.775894446829954" id="-3086">
		<tag k="alt_name" v="Breidvika" />
		<tag k="name" v="Breivika" />
		<tag k="natural" v="bay" />
		<tag k="old_name" v="Breidvik" />
		<tag k="ssr:stedsnr" v="850966" />
	</node>
	<node lat="58.84868333089716" lon="6.1763944496621015" id="-3094">
		<tag k="alt_name" v="Kverven" />
		<tag k="name" v="Kvarven" />
		<tag k="natural" v="cape" />
		<tag k="ssr:stedsnr" v="851589" />
	</node>
	<node lat="58.92825832878746" lon="6.112841661401361" id="-3115">
		<tag k="name" v="Skiftesneset" />
		<tag k="natural" v="cape" />
		<tag k="ssr:stedsnr" v="860645" />
	</node>
	<node lat="58.903119441115535" lon="5.9779444481182775" id="-3119">
		<tag k="name" v="Storekleiv" />
		<tag k="natural" v="cape" />
		<tag k="ssr:stedsnr" v="872060" />
	</node>
	<node lat="58.965311109213815" lon="5.893175007184347" id="-3120">
		<tag k="alt_name" v="Litla Viervågen;Litlevågen" />
		<tag k="name" v="Litle Viervågen" />
		<tag k="natural" v="bay" />
		<tag k="ssr:stedsnr" v="872122" />
	</node>
	<node lat="58.956813890747775" lon="5.811291669948903" id="-3130">
		<tag k="alt_name" v="Leirvågtangen" />
		<tag k="name" v="Leirvågstangen" />
		<tag k="natural" v="cape" />
		<tag k="ssr:stedsnr" v="873005" />
	</node>
	<node lat="58.86951110928913" lon="5.7607805605308275" id="-3146">
		<tag k="name" v="Søre Bogsteinen" />
		<tag k="natural" v="cape" />
		<tag k="ssr:stedsnr" v="873656" />
	</node>
	<node lat="58.913027773411855" lon="6.100475004062102" id="-3157">
		<tag k="alt_name" v="Bosskjer" />
		<tag k="fixme" v="consider seamark:type=rock or natural=shoal" />
		<tag k="name" v="Båtskjer" />
		<tag k="place" v="islet" />
		<tag k="ssr:stedsnr" v="874521" />
	</node>
	<node lat="58.93137727929941" lon="5.838126620040699" id="-3161">
		<tag k="fixme" v="consider seamark:type=rock or natural=shoal" />
		<tag k="loc_name" v="Breiviksholmen" />
		<tag k="name" v="Breivigsholmen" />
		<tag k="place" v="islet" />
		<tag k="ssr:stedsnr" v="875598" />
	</node>
	<node lat="58.91328611522561" lon="5.988763890457761" id="-3167">
		<tag k="name" v="Kattaflua" />
		<tag k="place" v="locality" />
		<tag k="seamark:type" v="rock" />
		<tag k="ssr:stedsnr" v="936622" />
	</node>
	<node lat="58.97793611455016" lon="6.222230550843917" id="-3175">
		<tag k="name" v="Ingemundsviga" />
		<tag k="natural" v="bay" />
		<tag k="ssr:stedsnr" v="967516" />
=======
	<node id="-10444" lat="58.951730553" lon="5.91894721685">
		<tag k="alt_name" v="Loddervik;Lådervik" />
		<tag k="loc_name" v="Lodderviga" />
		<tag k="name" v="Lådervig" />
		<tag k="natural" v="bay" />
		<tag k="ssr:stedsnr" v="83105" />
	</node>
	<node id="-10530" lat="58.8677972237" lon="5.75944721873">
		<tag k="alt_name" v="Asparvika" />
		<tag k="name" v="Aspervika" />
		<tag k="natural" v="bay" />
		<tag k="ssr:stedsnr" v="266683" />
	</node>
	<node id="-12487" lat="58.9709305917" lon="5.85853326555">
		<tag k="name" v="Litle Teistholmen" />
		<tag k="place" v="islet" />
		<tag k="ssr:stedsnr" v="304788" />
	</node>
	<node id="-12486" lat="58.9609922515" lon="5.89963004467">
		<tag k="alt_name" v="Djubevika" />
		<tag k="loc_name" v="Djubeviga" />
		<tag k="name" v="Djupevika" />
		<tag k="natural" v="bay" />
		<tag k="ssr:stedsnr" v="304773" />
	</node>
	<node id="-10614" lat="58.8740055548" lon="6.12404722059">
		<tag k="name" v="Strondå" />
		<tag k="natural" v="beach" />
		<tag k="place" v="locality" />
		<tag k="ssr:stedsnr" v="297551" />
	</node>
	<node id="-12993" lat="58.9564749969" lon="6.16527222047">
		<tag k="name" v="Pannevik" />
		<tag k="natural" v="bay" />
		<tag k="ssr:stedsnr" v="605063" />
	</node>
	<node id="-12991" lat="58.9053916682" lon="6.09693056259">
		<tag k="name" v="Farmanes" />
		<tag k="natural" v="cape" />
		<tag k="ssr:stedsnr" v="605040" />
	</node>
	<node id="-12478" lat="58.9249055556" lon="6.00069165935">
		<tag k="name" v="Måganeset" />
		<tag k="natural" v="cape" />
		<tag k="ssr:stedsnr" v="304740" />
	</node>
	<node id="-10427" lat="58.918341664" lon="5.96963610392">
		<tag k="name" v="Eskelandsholmane" />
		<tag k="place" v="islet" />
		<tag k="ssr:stedsnr" v="244738" />
	</node>
	<node id="-11449" lat="58.885780552" lon="6.06972500895">
		<tag k="name" v="Kleivik" />
		<tag k="natural" v="bay" />
		<tag k="ssr:stedsnr" v="726034" />
	</node>
	<node id="-11636" lat="58.9666472217" lon="5.88927499636">
		<tag k="name" v="Litla Vierneset" />
		<tag k="natural" v="cape" />
		<tag k="ssr:stedsnr" v="814668" />
	</node>
	<node id="-10421" lat="58.9497138875" lon="5.82300278058">
		<tag k="name" v="Uskjo" />
		<tag k="place" v="island" />
		<tag k="ssr:stedsnr" v="244050" />
	</node>
	<node id="-11440" lat="58.9350499981" lon="6.11323055279">
		<tag k="name" v="Kyrkjeneset" />
		<tag k="natural" v="cape" />
		<tag k="ssr:stedsnr" v="891656" />
	</node>
	<node id="-10491" lat="58.9257499965" lon="5.99040277025">
		<tag k="name" v="Goviknes" />
		<tag k="natural" v="cape" />
		<tag k="ssr:stedsnr" v="265032" />
	</node>
	<node id="-12970" lat="58.954694445" lon="6.14819999637">
		<tag k="alt_name" v="Dørvikneset, indre;Dørvikneset" />
		<tag k="name" v="Indre Dørvikneset" />
		<tag k="natural" v="cape" />
		<tag k="ssr:stedsnr" v="600340" />
	</node>
	<node id="-11432" lat="58.8614793987" lon="5.75013300182">
		<tag k="name" v="Lundegrunnen" />
		<tag k="natural" v="shoal" />
		<tag k="place" v="locality" />
		<tag k="ssr:stedsnr" v="889439" />
	</node>
	<node id="-11431" lat="58.9106388909" lon="6.10218611218">
		<tag k="alt_name" v="Haborsviga" />
		<tag k="name" v="Haborsvika" />
		<tag k="natural" v="bay" />
		<tag k="ssr:stedsnr" v="677606" />
	</node>
	<node id="-11462" lat="58.9323277765" lon="5.84858888046">
		<tag k="alt_name" v="Hommarsåkvågen" />
		<tag k="name" v="Hommersåkvågen" />
		<tag k="natural" v="bay" />
		<tag k="ssr:stedsnr" v="902720" />
	</node>
	<node id="-11233" lat="58.9385777801" lon="5.84162499369">
		<tag k="name" v="Djupaflua" />
		<tag k="natural" v="shoal" />
		<tag k="place" v="locality" />
		<tag k="ssr:stedsnr" v="707945" />
	</node>
	<node id="-11632" lat="58.9256666652" lon="5.98361667382">
		<tag k="name" v="Litla Sundtangen" />
		<tag k="natural" v="cape" />
		<tag k="ssr:stedsnr" v="811047" />
	</node>
	<node id="-10905" lat="58.9597055518" lon="5.83696666105">
		<tag k="name" v="Grunnasundet" />
		<tag k="natural" v="strait" />
		<tag k="ssr:stedsnr" v="508111" />
	</node>
	<node id="-10904" lat="58.9103277736" lon="5.99683889046">
		<tag k="name" v="Kobbholmen" />
		<tag k="place" v="islet" />
		<tag k="ssr:stedsnr" v="390618" />
	</node>
	<node id="-10521" lat="58.9004888861" lon="5.77390278192">
		<tag k="name" v="Nidle" />
		<tag k="natural" v="cape" />
		<tag k="ssr:stedsnr" v="266236" />
	</node>
	<node id="-11922" lat="59.0167416666" lon="6.33233610761">
		<tag k="alt_name" v="Sandviga" />
		<tag k="name" v="Sandvika" />
		<tag k="natural" v="bay" />
		<tag k="ssr:stedsnr" v="55915" />
	</node>
	<node id="-11920" lat="58.8642555593" lon="6.14588054729">
		<tag k="alt_name" v="Dalbuviga" />
		<tag k="name" v="Dalbuvika" />
		<tag k="natural" v="bay" />
		<tag k="ssr:stedsnr" v="55534" />
	</node>
	<node id="-12962" lat="58.9169537522" lon="6.02137866534">
		<tag k="name" v="Jektarauå" />
		<tag k="natural" v="cape" />
		<tag k="ssr:stedsnr" v="585901" />
	</node>
	<node id="-10889" lat="58.9547444429" lon="5.91585833563">
		<tag k="name" v="Store Langholmen" />
		<tag k="place" v="islet" />
		<tag k="ssr:stedsnr" v="386116" />
	</node>
	<node id="-11399" lat="59.0269792463" lon="6.4087091586">
		<tag k="name" v="Kåsaklubben" />
		<tag k="natural" v="cape" />
		<tag k="ssr:stedsnr" v="730031" />
	</node>
	<node id="-10886" lat="58.9400166673" lon="6.12069167085">
		<tag k="alt_name" v="Trossviga" />
		<tag k="name" v="Trossvika" />
		<tag k="natural" v="bay" />
		<tag k="ssr:stedsnr" v="495608" />
	</node>
	<node id="-12420" lat="58.9581888884" lon="5.8369777854">
		<tag k="name" v="Nordre Kasteviga" />
		<tag k="natural" v="bay" />
		<tag k="ssr:stedsnr" v="207615" />
	</node>
	<node id="-12419" lat="58.898788887" lon="6.00304999503">
		<tag k="name" v="Selesviga" />
		<tag k="natural" v="bay" />
		<tag k="ssr:stedsnr" v="207610" />
	</node>
	<node id="-10370" lat="58.8484916641" lon="6.17882222099">
		<tag k="alt_name" v="Pelaviga" />
		<tag k="name" v="Pelavika" />
		<tag k="natural" v="bay" />
		<tag k="ssr:stedsnr" v="239773" />
	</node>
	<node id="-11001" lat="58.900913885" lon="6.00547222699">
		<tag k="name" v="Høleneset" />
		<tag k="natural" v="cape" />
		<tag k="ssr:stedsnr" v="450649" />
	</node>
	<node id="-11903" lat="58.9616527813" lon="5.86258333711">
		<tag k="name" v="Litla Vargavika" />
		<tag k="natural" v="bay" />
		<tag k="ssr:stedsnr" v="39928" />
	</node>
	<node id="-10366" lat="58.8917083351" lon="6.10394722575">
		<tag k="name" v="Åneset" />
		<tag k="natural" v="cape" />
		<tag k="ssr:stedsnr" v="237588" />
	</node>
	<node id="-11626" lat="58.9586111104" lon="5.84310000081">
		<tag k="name" v="Uskakalven" />
		<tag k="place" v="island" />
		<tag k="ssr:stedsnr" v="790773" />
	</node>
	<node id="-11386" lat="58.9323861081" lon="6.10797500346">
		<tag k="alt_name" v="Stora Bergsholmen" />
		<tag k="name" v="Bergsholmen" />
		<tag k="place" v="islet" />
		<tag k="ssr:stedsnr" v="729744" />
	</node>
	<node id="-11895" lat="58.9597833355" lon="6.17072499716">
		<tag k="alt_name" v="Oksaskjeret" />
		<tag k="fixme" v="consider seamark:type=rock or natural=shoal" />
		<tag k="name" v="Uksen" />
		<tag k="place" v="islet" />
		<tag k="ssr:stedsnr" v="24956" />
	</node>
	<node id="-11381" lat="58.9251222266" lon="5.98155278171">
		<tag k="name" v="Storasundet" />
		<tag k="natural" v="strait" />
		<tag k="ssr:stedsnr" v="729732" />
	</node>
	<node id="-11853" lat="58.9697388883" lon="5.87968333624">
		<tag k="name" v="Tingholmen" />
		<tag k="place" v="islet" />
		<tag k="ssr:stedsnr" v="1775" />
	</node>
	<node id="-12913" lat="58.9412138913" lon="5.8517138973">
		<tag k="name" v="Skjølvikneset" />
		<tag k="natural" v="cape" />
		<tag k="ssr:stedsnr" v="568126" />
	</node>
	<node id="-10351" lat="58.9071611086" lon="6.0153500043">
		<tag k="name" v="Kalaviga" />
		<tag k="natural" v="bay" />
		<tag k="ssr:stedsnr" v="26619" />
	</node>
	<node id="-10350" lat="58.918075455" lon="6.00134826163">
		<tag k="name" v="Grunnevågen" />
		<tag k="natural" v="bay" />
		<tag k="ssr:stedsnr" v="26615" />
	</node>
	<node id="-12908" lat="58.953861109" lon="5.91726667122">
		<tag k="name" v="Litle Langholmen" />
		<tag k="place" v="islet" />
		<tag k="ssr:stedsnr" v="568100" />
	</node>
	<node id="-12906" lat="58.9074750017" lon="5.97356944543">
		<tag k="name" v="Godfarneset" />
		<tag k="natural" v="cape" />
		<tag k="ssr:stedsnr" v="568042" />
	</node>
	<node id="-11880" lat="58.9503277789" lon="5.93472778461">
		<tag k="name" v="Torskaviga" />
		<tag k="natural" v="bay" />
		<tag k="ssr:stedsnr" v="23135" />
	</node>
	<node id="-11879" lat="58.9644222254" lon="5.8367888952">
		<tag k="fixme" v="consider seamark:type=rock or natural=shoal" />
		<tag k="name" v="Vestra Torva" />
		<tag k="place" v="islet" />
		<tag k="ssr:stedsnr" v="23128" />
	</node>
	<node id="-11877" lat="58.9564972235" lon="5.83671943805">
		<tag k="loc_name" v="Varholmen" />
		<tag k="name" v="Vadholmen" />
		<tag k="place" v="islet" />
		<tag k="ssr:stedsnr" v="23125" />
	</node>
	<node id="-12134" lat="58.9616333358" lon="5.82053054724">
		<tag k="alt_name" v="Langaneset" />
		<tag k="name" v="Langanes" />
		<tag k="natural" v="cape" />
		<tag k="ssr:stedsnr" v="122094" />
	</node>
	<node id="-10659" lat="59.0387861148" lon="6.52442499459">
		<tag k="name" v="Håhellerneset" />
		<tag k="natural" v="cape" />
		<tag k="ssr:stedsnr" v="244222" />
	</node>
	<node id="-12415" lat="58.8570833297" lon="5.75156943979">
		<tag k="name" v="Rovika" />
		<tag k="natural" v="bay" />
		<tag k="ssr:stedsnr" v="206639" />
	</node>
	<node id="-10853" lat="58.9063166652" lon="5.77883889019">
		<tag k="name" v="Dalsvågen" />
		<tag k="natural" v="bay" />
		<tag k="ssr:stedsnr" v="486973" />
	</node>
	<node id="-11864" lat="59.0315999962" lon="6.44643610905">
		<tag k="name" v="Skipastyret" />
		<tag k="natural" v="cape" />
		<tag k="ssr:stedsnr" v="2047" />
	</node>
	<node id="-12375" lat="58.9559583376" lon="5.9085277765">
		<tag k="name" v="Grunnasundet" />
		<tag k="natural" v="strait" />
		<tag k="ssr:stedsnr" v="205123" />
	</node>
	<node id="-10326" lat="59.043949998" lon="6.54942499874">
		<tag k="alt_name" v="Linhamn" />
		<tag k="name" v="Linhamnen" />
		<tag k="natural" v="bay" />
		<tag k="ssr:stedsnr" v="2217" />
	</node>
	<node id="-10325" lat="59.0298361146" lon="6.51736111482">
		<tag k="name" v="Kjetona" />
		<tag k="natural" v="cape" />
		<tag k="ssr:stedsnr" v="2215" />
	</node>
	<node id="-10324" lat="59.0440305584" lon="6.56031388417">
		<tag k="fixme" v="consider seamark:type=rock or natural=shoal" />
		<tag k="name" v="Galtaskjeret" />
		<tag k="place" v="islet" />
		<tag k="ssr:stedsnr" v="2202" />
	</node>
	<node id="-11534" lat="58.8942655353" lon="6.04225610842">
		<tag k="name" v="Trodalsvågen" />
		<tag k="natural" v="bay" />
		<tag k="ssr:stedsnr" v="911656" />
	</node>
	<node id="-12369" lat="58.9240722196" lon="5.97521111293">
		<tag k="name" v="Ersholmen" />
		<tag k="place" v="islet" />
		<tag k="ssr:stedsnr" v="205041" />
	</node>
	<node id="-12368" lat="58.9173638869" lon="5.99008333353">
		<tag k="name" v="Skjerpesundet" />
		<tag k="natural" v="strait" />
		<tag k="ssr:stedsnr" v="205039" />
	</node>
	<node id="-12367" lat="58.9500555557" lon="5.9531111168">
		<tag k="name" v="Kistines" />
		<tag k="natural" v="cape" />
		<tag k="ssr:stedsnr" v="205009" />
	</node>
	<node id="-10829" lat="58.9374249982" lon="5.97674167361">
		<tag k="name" v="Horpevigneset" />
		<tag k="natural" v="cape" />
		<tag k="ssr:stedsnr" v="486791" />
	</node>
	<node id="-10827" lat="58.9628652473" lon="5.8660102331">
		<tag k="name" v="Vargaviga" />
		<tag k="natural" v="bay" />
		<tag k="ssr:stedsnr" v="486768" />
	</node>
	<node id="-11849" lat="58.962594783" lon="5.86294127467">
		<tag k="name" v="Vargavigneset" />
		<tag k="natural" v="cape" />
		<tag k="ssr:stedsnr" v="1758" />
	</node>
	<node id="-11334" lat="58.8632805532" lon="5.7541805588">
		<tag k="name" v="Lauvvik" />
		<tag k="natural" v="bay" />
		<tag k="ssr:stedsnr" v="631756" />
	</node>
	<node id="-10911" lat="58.9371694404" lon="5.85102221602">
		<tag k="name" v="Hestviga" />
		<tag k="natural" v="bay" />
		<tag k="ssr:stedsnr" v="508130" />
	</node>
	<node id="-11360" lat="58.9501987949" lon="5.84267868265">
		<tag k="name" v="Uskasundet" />
		<tag k="natural" v="strait" />
		<tag k="ssr:stedsnr" v="729805" />
	</node>
	<node id="-12347" lat="58.9244888902" lon="5.99784444006">
		<tag k="name" v="Skjølsviga" />
		<tag k="natural" v="bay" />
		<tag k="ssr:stedsnr" v="183711" />
	</node>
	<node id="-12338" lat="58.9046683839" lon="5.97224865713">
		<tag k="alt_name" v="Imsabukta" />
		<tag k="name" v="Imsavika" />
		<tag k="natural" v="bay" />
		<tag k="ssr:stedsnr" v="183617" />
	</node>
	<node id="-11823" lat="59.0119691605" lon="6.40580212573">
		<tag k="name" v="Urneset" />
		<tag k="natural" v="cape" />
		<tag k="ssr:stedsnr" v="1279" />
	</node>
	<node id="-10503" lat="58.9477583332" lon="5.93285554704">
		<tag k="name" v="Asalvik" />
		<tag k="natural" v="bay" />
		<tag k="ssr:stedsnr" v="265130" />
	</node>
	<node id="-12327" lat="58.9526916692" lon="5.92535556206">
		<tag k="name" v="Breivig" />
		<tag k="natural" v="bay" />
		<tag k="ssr:stedsnr" v="183214" />
	</node>
	<node id="-11302" lat="58.9350888863" lon="5.84349722042">
		<tag k="name" v="Hommersåkholmen" />
		<tag k="place" v="islet" />
		<tag k="ssr:stedsnr" v="629123" />
	</node>
	<node id="-10787" lat="59.0243478446" lon="6.39037255367">
		<tag k="name" v="Kallasteinneset" />
		<tag k="natural" v="cape" />
		<tag k="ssr:stedsnr" v="479922" />
	</node>
	<node id="-11810" lat="58.9499388864" lon="5.93765278569">
		<tag k="name" v="Ramsviga" />
		<tag k="natural" v="bay" />
		<tag k="ssr:stedsnr" v="798" />
	</node>
	<node id="-12320" lat="58.9535735558" lon="5.80350360939">
		<tag k="alt_name" v="Uskjaklubben" />
		<tag k="name" v="Uskaklubben" />
		<tag k="natural" v="cape" />
		<tag k="ssr:stedsnr" v="183043" />
	</node>
	<node id="-12315" lat="58.9422830929" lon="5.85369742436">
		<tag k="name" v="Skjølviga" />
		<tag k="natural" v="bay" />
		<tag k="ssr:stedsnr" v="182780" />
	</node>
	<node id="-12314" lat="58.9625749969" lon="6.17601111257">
		<tag k="name" v="Høynes" />
		<tag k="natural" v="cape" />
		<tag k="ssr:stedsnr" v="182774" />
	</node>
	<node id="-12309" lat="58.9155083355" lon="5.97907222041">
		<tag k="alt_name" v="Hølefjorden" />
		<tag k="bay" v="fjord" />
		<tag k="name" v="Hølen" />
		<tag k="natural" v="bay" />
		<tag k="ssr:stedsnr" v="182627" />
	</node>
	<node id="-10772" lat="58.9540555593" lon="5.93905834155">
		<tag k="name" v="Slettnesvik" />
		<tag k="natural" v="bay" />
		<tag k="ssr:stedsnr" v="326102" />
	</node>
	<node id="-10768" lat="58.9233861096" lon="5.98371111495">
		<tag k="name" v="Prestasetet" />
		<tag k="natural" v="cape" />
		<tag k="ssr:stedsnr" v="326034" />
	</node>
	<node id="-10767" lat="58.9203277739" lon="5.98728888573">
		<tag k="name" v="Sleggeberget" />
		<tag k="natural" v="cape" />
		<tag k="ssr:stedsnr" v="326033" />
	</node>
	<node id="-11277" lat="58.9445444429" lon="6.13245000751">
		<tag k="alt_name" v="Vigavågen" />
		<tag k="name" v="Vikavågen" />
		<tag k="natural" v="bay" />
		<tag k="ssr:stedsnr" v="616608" />
	</node>
	<node id="-12812" lat="58.927130555" lon="6.10866110845">
		<tag k="name" v="Svartavik" />
		<tag k="natural" v="bay" />
		<tag k="ssr:stedsnr" v="540542" />
	</node>
	<node id="-12972" lat="58.8608194422" lon="6.14246943724">
		<tag k="alt_name" v="Hedlegrunnen" />
		<tag k="name" v="Hellegrunnen" />
		<tag k="natural" v="shoal" />
		<tag k="place" v="locality" />
		<tag k="ssr:stedsnr" v="600530" />
	</node>
	<node id="-12806" lat="58.9632523289" lon="5.83971001802">
		<tag k="name" v="Nordviga" />
		<tag k="natural" v="bay" />
		<tag k="ssr:stedsnr" v="526254" />
	</node>
	<node id="-12886" lat="58.881352781" lon="6.11402500305">
		<tag k="alt_name" v="Breivika" />
		<tag k="name" v="Breidvika" />
		<tag k="natural" v="bay" />
		<tag k="ssr:stedsnr" v="547699" />
	</node>
	<node id="-12802" lat="58.9651583312" lon="5.86891110682">
		<tag k="loc_name" v="Dueviga" />
		<tag k="name" v="Duevika" />
		<tag k="natural" v="bay" />
		<tag k="ssr:stedsnr" v="525927" />
	</node>
	<node id="-12203" lat="59.006263887" lon="6.38154999322">
		<tag k="name" v="Kvernaneset" />
		<tag k="natural" v="cape" />
		<tag k="ssr:stedsnr" v="123206" />
>>>>>>> e1d4bc35ff8a6074a6f2e91616a996b547c36f15
	</node>
</osm>
