<?xml version="1.0" encoding="UTF-8"?>
<osm generator="osmapis" version="0.6">
	<node id="-2044" lat="59.0686027766" lon="6.66318332632">
		<tag k="name" v="Tangen" />
		<tag k="place" v="farm" />
		<tag k="ssr:stedsnr" v="730165" />
	</node>
	<node id="-2039" lat="58.9406991535" lon="5.82828345718">
		<tag k="fixme" v="consider place=hamlet" />
		<tag k="name" v="Uskjo" />
		<tag k="old_name" v="Uskjå" />
		<tag k="place" v="farm" />
		<tag k="ssr:stedsnr" v="728011" />
	</node>
	<node id="-4083" lat="58.8808305561" lon="6.07298888443">
		<tag k="name" v="Selia" />
		<tag k="place" v="farm" />
		<tag k="ssr:stedsnr" v="969183" />
	</node>
	<node id="-1704" lat="58.9152250528" lon="6.27233657348">
		<tag k="alt_name" v="Espedal, øvre" />
		<tag k="fixme" v="consider place=hamlet" />
		<tag k="name" v="Øvre Espedal" />
		<tag k="place" v="farm" />
		<tag k="ssr:stedsnr" v="486725" />
	</node>
	<node id="-4070" lat="58.9177444431" lon="6.27123333263">
		<tag k="name" v="Garden" />
		<tag k="place" v="farm" />
		<tag k="ssr:stedsnr" v="967231" />
	</node>
	<node id="-4068" lat="58.933133333" lon="6.14589444288">
		<tag k="historic" v="shieling" />
		<tag k="name" v="Vigastølen" />
		<tag k="place" v="locality" />
		<tag k="ssr:stedsnr" v="952597" />
	</node>
	<node id="-2019" lat="58.8836694436" lon="6.04813611662">
		<tag k="name" v="Ytre Vodl" />
		<tag k="place" v="farm" />
		<tag k="ssr:stedsnr" v="890168" />
	</node>
	<node id="-4062" lat="58.8472333337" lon="5.72513611876">
		<tag k="name" v="Skeiane" />
		<tag k="place" v="farm" />
		<tag k="ssr:stedsnr" v="875082" />
	</node>
	<node id="-2013" lat="58.9013290046" lon="5.96428057989">
		<tag k="fixme" v="consider place=hamlet" />
		<tag k="name" v="Ims" />
		<tag k="place" v="farm" />
		<tag k="ssr:stedsnr" v="668650" />
	</node>
	<node id="-4056" lat="58.8203499985" lon="5.91915832527">
		<tag k="name" v="Brådland" />
		<tag k="place" v="farm" />
		<tag k="ssr:stedsnr" v="873986" />
	</node>
	<node id="-4053" lat="58.8091944485" lon="5.72633888306">
		<tag k="name" v="Bekkjene" />
		<tag k="place" v="farm" />
		<tag k="ssr:stedsnr" v="873600" />
	</node>
	<node id="-4051" lat="58.8748305543" lon="5.71676666558">
		<tag k="name" v="Tobiasholen" />
		<tag k="place" v="farm" />
		<tag k="ssr:stedsnr" v="873347" />
	</node>
	<node id="-4050" lat="58.8494194473" lon="5.64558333374">
		<tag k="name" v="Stokkholen" />
		<tag k="place" v="farm" />
		<tag k="ssr:stedsnr" v="873289" />
	</node>
	<node id="-4042" lat="58.9209361127" lon="5.96681389706">
		<tag k="name" v="Nothagen" />
		<tag k="place" v="isolated_dwelling" />
		<tag k="ssr:stedsnr" v="872043" />
	</node>
	<node id="-1993" lat="58.9004138916" lon="6.106222219">
		<tag k="name" v="Langheim" />
		<tag k="place" v="farm" />
		<tag k="ssr:stedsnr" v="734639" />
	</node>
	<node id="-4030" lat="58.817574996" lon="5.68088888082">
		<tag k="alt_name" v="Skjeveland" />
		<tag k="name" v="Skjæveland" />
		<tag k="place" v="farm" />
		<tag k="ssr:stedsnr" v="851876" />
	</node>
	<node id="-4029" lat="58.8147833304" lon="5.69968889567">
		<tag k="name" v="Brotet" />
		<tag k="place" v="farm" />
		<tag k="ssr:stedsnr" v="851875" />
	</node>
	<node id="-1980" lat="58.858758332" lon="5.75595555507">
		<tag k="name" v="Rovik" />
		<tag k="old_name" v="Rotvik" />
		<tag k="place" v="suburb" />
		<tag k="ssr:stedsnr" v="729990" />
	</node>
	<node id="-1979" lat="58.8147943284" lon="5.80156404578">
		<tag k="alt_name" v="Myklebost" />
		<tag k="fixme" v="consider place=hamlet" />
		<tag k="name" v="Myklabost" />
		<tag k="old_name" v="Myklebostad" />
		<tag k="place" v="farm" />
		<tag k="ssr:stedsnr" v="729934" />
	</node>
	<node id="-1976" lat="58.837655847" lon="5.71374156641">
		<tag k="fixme" v="consider place=hamlet" />
		<tag k="name" v="Sandve" />
		<tag k="place" v="farm" />
		<tag k="ssr:stedsnr" v="729898" />
	</node>
	<node id="-1974" lat="58.8234972201" lon="5.70466667197">
		<tag k="alt_name" v="Åse, øvre" />
		<tag k="name" v="Øvre Åse" />
		<tag k="place" v="farm" />
		<tag k="ssr:stedsnr" v="729886" />
	</node>
	<node id="-1973" lat="58.8260500021" lon="5.79176388287">
		<tag k="alt_name" v="Grønestad" />
		<tag k="name" v="Grønnestad" />
		<tag k="place" v="farm" />
		<tag k="ssr:stedsnr" v="729873" />
	</node>
	<node id="-4020" lat="59.0177361082" lon="6.26178889198">
		<tag k="alt_name" v="Brattlia, øvre;Bratteli" />
		<tag k="name" v="Øvre Brattlia" />
		<tag k="place" v="farm" />
		<tag k="ssr:stedsnr" v="851192" />
	</node>
	<node id="-4016" lat="59.0437750019" lon="6.39897499713">
		<tag k="historic" v="shieling" />
		<tag k="name" v="Furestølen" />
		<tag k="place" v="locality" />
		<tag k="ssr:stedsnr" v="851050" />
	</node>
	<node id="-4014" lat="59.0300259462" lon="6.40586676465">
		<tag k="fixme" v="consider place=hamlet" />
		<tag k="name" v="Kåsen" />
		<tag k="place" v="farm" />
		<tag k="ssr:stedsnr" v="851043" />
	</node>
	<node id="-1962" lat="58.9347027773" lon="6.47021111143">
		<tag k="name" v="Mikkelshytta" />
		<tag k="place" v="isolated_dwelling" />
		<tag k="ssr:stedsnr" v="729714" />
	</node>
	<node id="-4009" lat="59.0654333309" lon="6.56039999643">
		<tag k="name" v="Fyljesdalen" />
		<tag k="place" v="farm" />
		<tag k="ssr:stedsnr" v="851007" />
	</node>
	<node id="-952" lat="58.9266555536" lon="6.20805555285">
		<tag k="barrier" v="fence" />
		<tag k="name" v="Braudagarden" />
		<tag k="ssr:stedsnr" v="239310" />
	</node>
	<node id="-4007" lat="58.8419027754" lon="5.73986110523">
		<tag k="fixme" v="consider place=suburb, village or hamlet" />
		<tag k="name" v="Austrått" />
		<tag k="place" v="quarter" />
		<tag k="ssr:stedsnr" v="850969" />
	</node>
	<node id="-1958" lat="58.8844611086" lon="6.13702499503">
		<tag k="name" v="Rossabø" />
		<tag k="place" v="farm" />
		<tag k="ssr:stedsnr" v="729697" />
	</node>
	<node id="-4004" lat="58.8408916686" lon="5.80336666813">
		<tag k="alt_name" v="Øygard;Ødegård" />
		<tag k="name" v="Øydgard" />
		<tag k="place" v="farm" />
		<tag k="ssr:stedsnr" v="850894" />
	</node>
	<node id="-1955" lat="58.8966638933" lon="5.84470000791">
		<tag k="name" v="Hogstad" />
		<tag k="place" v="farm" />
		<tag k="ssr:stedsnr" v="729672" />
	</node>
	<node id="-1954" lat="58.888416667" lon="5.89311665879">
		<tag k="name" v="Sørbø" />
		<tag k="place" v="farm" />
		<tag k="ssr:stedsnr" v="729667" />
	</node>
	<node id="-1951" lat="58.9021361081" lon="5.93931944449">
		<tag k="name" v="Vatne" />
		<tag k="place" v="isolated_dwelling" />
		<tag k="ssr:stedsnr" v="729639" />
	</node>
	<node id="-1950" lat="58.8188236404" lon="5.86168567475">
		<tag k="alt_name" v="Ur-Eikeland;Ur-Eigeland" />
		<tag k="fixme" v="consider place=hamlet" />
		<tag k="name" v="Ur-Eikjeland" />
		<tag k="place" v="farm" />
		<tag k="ssr:stedsnr" v="729629" />
	</node>
	<node id="-3997" lat="58.8778527807" lon="6.25098610233">
		<tag k="historic" v="shieling" />
		<tag k="name" v="Perastølen" />
		<tag k="place" v="locality" />
		<tag k="ssr:stedsnr" v="850619" />
	</node>
	<node id="-3990" lat="58.9769728499" lon="6.24757267767">
		<tag k="alt_name" v="Fossmork, in;Fossmork" />
		<tag k="name" v="Indre Fossmork" />
		<tag k="place" v="farm" />
		<tag k="ssr:stedsnr" v="850525" />
	</node>
	<node id="-1939" lat="58.8929749965" lon="6.22169445251">
		<tag k="alt_name" v="Kjærholen" />
		<tag k="name" v="Kjerholen" />
		<tag k="place" v="farm" />
		<tag k="ssr:stedsnr" v="729768" />
	</node>
	<node id="-1938" lat="58.9467750029" lon="6.29747777817">
		<tag k="historic" v="shieling" />
		<tag k="name" v="Mikkelstølen" />
		<tag k="place" v="locality" />
		<tag k="ssr:stedsnr" v="729551" />
	</node>
	<node id="-1927" lat="58.8694140276" lon="6.00600361843">
		<tag k="fixme" v="consider place=hamlet" />
		<tag k="name" v="Hommeland" />
		<tag k="place" v="farm" />
		<tag k="ssr:stedsnr" v="729566" />
	</node>
	<node id="-1923" lat="58.9038555515" lon="5.85117778228">
		<tag k="alt_name" v="Bjødland" />
		<tag k="name" v="Bjelland" />
		<tag k="place" v="farm" />
		<tag k="ssr:stedsnr" v="729250" />
	</node>
	<node id="-1919" lat="58.8095888894" lon="5.70492777904">
		<tag k="name" v="Brunnholen" />
		<tag k="place" v="farm" />
		<tag k="ssr:stedsnr" v="631773" />
	</node>
	<node id="-3965" lat="58.9581111135" lon="6.18926389204">
		<tag k="name" v="Sundvor" />
		<tag k="place" v="locality" />
		<tag k="ssr:stedsnr" v="849002" />
	</node>
	<node id="-3952" lat="58.8883083311" lon="6.2140111192">
		<tag k="name" v="Eikeland" />
		<tag k="place" v="farm" />
		<tag k="ssr:stedsnr" v="848172" />
	</node>
	<node id="-1902" lat="58.900755556" lon="5.79523611127">
		<tag k="name" v="Daleholen" />
		<tag k="place" v="locality" />
		<tag k="ssr:stedsnr" v="630217" />
	</node>
	<node id="-1901" lat="58.8655055557" lon="5.79800554724">
		<tag k="name" v="Einartangen" />
		<tag k="place" v="farm" />
		<tag k="ssr:stedsnr" v="630213" />
	</node>
	<node id="-1897" lat="58.829136107" lon="5.83506110651">
		<tag k="name" v="Holane" />
		<tag k="place" v="farm" />
		<tag k="ssr:stedsnr" v="630054" />
	</node>
	<node id="-1896" lat="58.8773972258" lon="5.716505555">
		<tag k="alt_name" v="Kjørkjeholen" />
		<tag k="name" v="Kyrkjeholen" />
		<tag k="place" v="farm" />
		<tag k="ssr:stedsnr" v="630315" />
	</node>
	<node id="-998" lat="58.8368305571" lon="5.83166388293">
		<tag k="name" v="Foren" />
		<tag k="place" v="farm" />
		<tag k="ssr:stedsnr" v="243884" />
	</node>
	<node id="-1888" lat="58.8693000037" lon="5.91224166767">
		<tag k="name" v="Mjelkeholen" />
		<tag k="place" v="farm" />
		<tag k="ssr:stedsnr" v="629167" />
	</node>
	<node id="-1886" lat="58.9117277746" lon="5.84225277776">
		<tag k="name" v="Heiane" />
		<tag k="place" v="farm" />
		<tag k="ssr:stedsnr" v="629129" />
	</node>
	<node id="-3927" lat="58.9133333367" lon="5.99770555115">
		<tag k="name" v="Malenaland" />
		<tag k="place" v="locality" />
		<tag k="ssr:stedsnr" v="829929" />
	</node>
	<node id="-3919" lat="58.8936694481" lon="6.01201943906">
		<tag k="name" v="Grobå" />
		<tag k="place" v="farm" />
		<tag k="ssr:stedsnr" v="829109" />
	</node>
	<node id="-3915" lat="58.8418166668" lon="5.70916667046">
		<tag k="name" v="Skeiane" />
		<tag k="place" v="farm" />
		<tag k="ssr:stedsnr" v="815047" />
	</node>
	<node id="-3914" lat="58.8483527795" lon="5.73827222344">
		<tag k="name" v="Skeiane" />
		<tag k="place" v="farm" />
		<tag k="ssr:stedsnr" v="815040" />
	</node>
	<node id="-3913" lat="58.8430194412" lon="5.76840834178">
		<tag k="name" v="Skaret" />
		<tag k="place" v="farm" />
		<tag k="ssr:stedsnr" v="815073" />
	</node>
	<node id="-3909" lat="58.8188388858" lon="5.67632499791">
		<tag k="name" v="Leitet" />
		<tag k="place" v="hamlet" />
		<tag k="ssr:stedsnr" v="813765" />
	</node>
	<node id="-3906" lat="58.8685333334" lon="5.72028055166">
		<tag k="name" v="Firkanten" />
		<tag k="place" v="farm" />
		<tag k="ssr:stedsnr" v="813688" />
	</node>
	<node id="-1855" lat="59.0871833299" lon="6.83102778527">
		<tag k="historic" v="shieling" />
		<tag k="name" v="Raunane" />
		<tag k="place" v="locality" />
		<tag k="ssr:stedsnr" v="608166" />
	</node>
	<node id="-1853" lat="58.856174999" lon="5.78703888033">
		<tag k="fixme" v="consider place=hamlet" />
		<tag k="name" v="Vatne" />
		<tag k="place" v="village" />
		<tag k="ssr:stedsnr" v="607969" />
	</node>
	<node id="-3900" lat="58.854077778" lon="5.77879721647">
		<tag k="name" v="Revholen" />
		<tag k="place" v="farm" />
		<tag k="ssr:stedsnr" v="813643" />
	</node>
	<node id="-3897" lat="58.8280694464" lon="5.74859999693">
		<tag k="fixme" v="consider place=suburb, village or hamlet" />
		<tag k="name" v="Håbet" />
		<tag k="place" v="quarter" />
		<tag k="ssr:stedsnr" v="813626" />
	</node>
	<node id="-3896" lat="58.8664833374" lon="5.69598055364">
		<tag k="name" v="Tjengaren" />
		<tag k="place" v="locality" />
		<tag k="ssr:stedsnr" v="813291" />
	</node>
	<node id="-3893" lat="58.843152781" lon="5.65061944178">
		<tag k="name" v="Nullsrudla" />
		<tag k="place" v="farm" />
		<tag k="ssr:stedsnr" v="813238" />
	</node>
	<node id="-1844" lat="58.8655663762" lon="5.94935341717">
		<tag k="fixme" v="consider place=hamlet" />
		<tag k="name" v="Tengesdal" />
		<tag k="place" v="farm" />
		<tag k="ssr:stedsnr" v="607572" />
	</node>
	<node id="-3891" lat="58.8255527739" lon="5.62858332805">
		<tag k="name" v="Trekanten" />
		<tag k="place" v="farm" />
		<tag k="ssr:stedsnr" v="813199" />
	</node>
	<node id="-1831" lat="58.8562638917" lon="5.73408889196">
		<tag k="name" v="Trones" />
		<tag k="place" v="farm" />
		<tag k="ssr:stedsnr" v="603618" />
	</node>
	<node id="-1829" lat="58.9235194437" lon="6.17779444838">
		<tag k="name" v="Kvednaveien" />
		<tag k="place" v="locality" />
		<tag k="ssr:stedsnr" v="602354" />
	</node>
	<node id="-1825" lat="58.8821250025" lon="6.19658054793">
		<tag k="name" v="Golhaug" />
		<tag k="place" v="farm" />
		<tag k="ssr:stedsnr" v="586948" />
	</node>
	<node id="-3870" lat="58.9462999958" lon="5.89689167468">
		<tag k="alt_name" v="Ekreholmen" />
		<tag k="loc_name" v="Ægreholen" />
		<tag k="name" v="Hodel" />
		<tag k="place" v="farm" />
		<tag k="ssr:stedsnr" v="811149" />
	</node>
	<node id="-1818" lat="58.8962472252" lon="6.22978056244">
		<tag k="name" v="Der auste" />
		<tag k="place" v="farm" />
		<tag k="ssr:stedsnr" v="709159" />
	</node>
	<node id="-1817" lat="58.8774972259" lon="6.18328055007">
		<tag k="name" v="Bakkane" />
		<tag k="place" v="farm" />
		<tag k="ssr:stedsnr" v="707946" />
	</node>
	<node id="-1813" lat="58.9400361114" lon="5.85249721676">
		<tag k="name" v="Skjølvik" />
		<tag k="place" v="neighbourhood" />
		<tag k="ssr:stedsnr" v="707799" />
	</node>
	<node id="-1326" lat="58.9704055534" lon="6.22158611038">
		<tag k="name" v="Holte" />
		<tag k="place" v="farm" />
		<tag k="ssr:stedsnr" v="304515" />
	</node>
	<node id="-1810" lat="58.8421138913" lon="5.70994166857">
		<tag k="name" v="Skeiane" />
		<tag k="place" v="farm" />
		<tag k="ssr:stedsnr" v="572125" />
	</node>
	<node id="-1809" lat="58.8468611067" lon="5.72610833037">
		<tag k="name" v="Skeiane" />
		<tag k="place" v="farm" />
		<tag k="ssr:stedsnr" v="572109" />
	</node>
	<node id="-1808" lat="58.8464833313" lon="5.72569721836">
		<tag k="name" v="Skeiane" />
		<tag k="place" v="farm" />
		<tag k="ssr:stedsnr" v="572106" />
	</node>
	<node id="-3855" lat="58.8012055593" lon="5.71048610826">
		<tag k="name" v="Vaglemoen" />
		<tag k="place" v="farm" />
		<tag k="ssr:stedsnr" v="790936" />
	</node>
	<node id="-3854" lat="59.0232666674" lon="6.35162499343">
		<tag k="name" v="Sørvoll" />
		<tag k="place" v="farm" />
		<tag k="ssr:stedsnr" v="791200" />
	</node>
	<node id="-3847" lat="58.8217773767" lon="5.94055639826">
		<tag k="fixme" v="consider place=hamlet" />
		<tag k="name" v="Svihus" />
		<tag k="place" v="farm" />
		<tag k="ssr:stedsnr" v="790524" />
	</node>
	<node id="-3846" lat="58.8355610648" lon="5.99282410745">
		<tag k="fixme" v="consider place=hamlet" />
		<tag k="name" v="Seldal" />
		<tag k="place" v="farm" />
		<tag k="ssr:stedsnr" v="790652" />
	</node>
	<node id="-1793" lat="58.8339444451" lon="5.76884445071">
		<tag k="name" v="Kleivane" />
		<tag k="place" v="farm" />
		<tag k="ssr:stedsnr" v="693143" />
	</node>
	<node id="-3840" lat="58.8344931441" lon="5.67221528518">
		<tag k="alt_name" v="Raudstad" />
		<tag k="fixme" v="consider place=hamlet" />
		<tag k="name" v="Raugstad" />
		<tag k="place" v="farm" />
		<tag k="ssr:stedsnr" v="789909" />
	</node>
	<node id="-1791" lat="58.8473249966" lon="5.72581110706">
		<tag k="name" v="Skeiane" />
		<tag k="place" v="farm" />
		<tag k="ssr:stedsnr" v="693092" />
	</node>
	<node id="-3838" lat="58.8325749964" lon="5.81676389476">
		<tag k="name" v="Sviland" />
		<tag k="place" v="farm" />
		<tag k="ssr:stedsnr" v="789896" />
	</node>
	<node id="-1789" lat="58.8480916652" lon="5.73760000818">
		<tag k="name" v="Skeiane" />
		<tag k="place" v="farm" />
		<tag k="ssr:stedsnr" v="693039" />
	</node>
	<node id="-3831" lat="58.8536194485" lon="5.8006083289">
		<tag k="name" v="Svartemyr" />
		<tag k="place" v="farm" />
		<tag k="ssr:stedsnr" v="789978" />
	</node>
	<node id="-3829" lat="58.9383210904" lon="6.18143628678">
		<tag k="alt_name" v="Vassbotn" />
		<tag k="fixme" v="consider place=hamlet" />
		<tag k="name" v="Vassbotnen" />
		<tag k="place" v="farm" />
		<tag k="ssr:stedsnr" v="789736" />
	</node>
	<node id="-3827" lat="58.9412730885" lon="6.12799980034">
		<tag k="alt_name" v="Vigadalen" />
		<tag k="name" v="Vikadalen" />
		<tag k="place" v="farm" />
		<tag k="ssr:stedsnr" v="789722" />
	</node>
	<node id="-3826" lat="58.9286098401" lon="5.87174868774">
		<tag k="fixme" v="consider place=hamlet" />
		<tag k="name" v="Hetland" />
		<tag k="place" v="farm" />
		<tag k="ssr:stedsnr" v="789718" />
	</node>
	<node id="-3824" lat="58.8229419796" lon="5.78581980696">
		<tag k="name" v="Melshei" />
		<tag k="place" v="farm" />
		<tag k="ssr:stedsnr" v="789879" />
	</node>
	<node id="-1775" lat="58.877966668" lon="5.74645833677">
		<tag k="name" v="Midle" />
		<tag k="place" v="farm" />
		<tag k="ssr:stedsnr" v="691679" />
	</node>
	<node id="-1773" lat="58.7869833357" lon="5.81915555116">
		<tag k="name" v="Håland" />
		<tag k="place" v="farm" />
		<tag k="ssr:stedsnr" v="691661" />
	</node>
	<node id="-1772" lat="58.8629489095" lon="5.73119986198">
		<tag k="fixme" v="consider place=hamlet" />
		<tag k="name" v="Trones" />
		<tag k="place" v="farm" />
		<tag k="ssr:stedsnr" v="691652" />
	</node>
	<node id="-3819" lat="58.9525944412" lon="6.24613888848">
		<tag k="historic" v="shieling" />
		<tag k="name" v="Holtastølen" />
		<tag k="place" v="locality" />
		<tag k="ssr:stedsnr" v="789533" />
	</node>
	<node id="-3816" lat="58.9209710374" lon="5.82505116916">
		<tag k="fixme" v="consider place=hamlet" />
		<tag k="name" v="Riska" />
		<tag k="place" v="village" />
		<tag k="ssr:stedsnr" v="789021" />
	</node>
	<node id="-3813" lat="59.0585527805" lon="6.6619277727">
		<tag k="amenity" v="school" />
		<tag k="name" v="Lyse" />
		<tag k="ssr:stedsnr" v="788860" />
	</node>
	<node id="-1758" lat="58.8954999999" lon="5.84338889367">
		<tag k="name" v="Litlaheia" />
		<tag k="place" v="farm" />
		<tag k="ssr:stedsnr" v="690227" />
	</node>
	<node id="-1750" lat="58.9215333345" lon="5.83275833001">
		<tag k="name" v="Vodl" />
		<tag k="place" v="farm" />
		<tag k="ssr:stedsnr" v="690139" />
	</node>
	<node id="-1749" lat="58.9150444412" lon="5.83319721527">
		<tag k="amenity" v="nursing_home" />
		<tag k="name" v="Fjordsyn" />
		<tag k="ssr:stedsnr" v="690137" />
	</node>
	<node id="-1735" lat="58.8919166646" lon="6.21967776949">
		<tag k="name" v="Garden" />
		<tag k="place" v="farm" />
		<tag k="ssr:stedsnr" v="527166" />
	</node>
	<node id="-1654" lat="58.8648482393" lon="5.82256259481">
		<tag k="fixme" v="consider place=hamlet" />
		<tag k="name" v="Haga" />
		<tag k="place" v="farm" />
		<tag k="ssr:stedsnr" v="668981" />
	</node>
	<node id="-1728" lat="58.8666694456" lon="5.76423888638">
		<tag k="alt_name" v="Asparmyra" />
		<tag k="fixme" v="consider place=suburb, village or hamlet" />
		<tag k="name" v="Aspermyra" />
		<tag k="place" v="quarter" />
		<tag k="ssr:stedsnr" v="509670" />
	</node>
	<node id="-3775" lat="58.8685333352" lon="6.18067778331">
		<tag k="name" v="Kistiplasset" />
		<tag k="place" v="locality" />
		<tag k="ssr:stedsnr" v="768962" />
	</node>
	<node id="-3773" lat="58.8504972245" lon="5.73838055165">
		<tag k="name" v="Gravaren" />
		<tag k="place" v="quarter" />
		<tag k="ssr:stedsnr" v="767436" />
	</node>
	<node id="-1724" lat="58.8526722214" lon="5.89692778421">
		<tag k="name" v="Ratlamyra" />
		<tag k="place" v="farm" />
		<tag k="ssr:stedsnr" v="509054" />
	</node>
	<node id="-3769" lat="58.8429472188" lon="5.76764444481">
		<tag k="name" v="Skaret" />
		<tag k="place" v="farm" />
		<tag k="ssr:stedsnr" v="754152" />
	</node>
	<node id="-3768" lat="58.8452583321" lon="5.72503332643">
		<tag k="name" v="Skeiane" />
		<tag k="place" v="farm" />
		<tag k="ssr:stedsnr" v="754108" />
	</node>
	<node id="-3767" lat="58.8411888873" lon="5.709502773">
		<tag k="name" v="Skeiane" />
		<tag k="place" v="farm" />
		<tag k="ssr:stedsnr" v="754053" />
	</node>
	<node id="-3766" lat="58.8419777756" lon="5.70899166056">
		<tag k="name" v="Skeiane" />
		<tag k="place" v="farm" />
		<tag k="ssr:stedsnr" v="754045" />
	</node>
	<node id="-3762" lat="58.8281083315" lon="5.66653055148">
		<tag k="name" v="Knolten" />
		<tag k="place" v="farm" />
		<tag k="ssr:stedsnr" v="752771" />
	</node>
	<node id="-3761" lat="58.8072250019" lon="5.69870833478">
		<tag k="name" v="Rudlene" />
		<tag k="place" v="quarter" />
		<tag k="ssr:stedsnr" v="752747" />
	</node>
	<node id="-1712" lat="59.0296055522" lon="6.42536944995">
		<tag k="name" v="Tuftene" />
		<tag k="place" v="isolated_dwelling" />
		<tag k="ssr:stedsnr" v="487033" />
	</node>
	<node id="-3757" lat="58.8835944404" lon="5.72082499272">
		<tag k="name" v="Stokka" />
		<tag k="place" v="farm" />
		<tag k="ssr:stedsnr" v="752663" />
	</node>
	<node id="-3756" lat="58.9207139206" lon="5.8259598657">
		<tag k="fixme" v="consider place=hamlet" />
		<tag k="name" v="Riska" />
		<tag k="place" v="farm" />
		<tag k="ssr:stedsnr" v="752656" />
	</node>
	<node id="-3753" lat="58.8520701507" lon="5.75626675678">
		<tag k="fixme" v="consider place=hamlet" />
		<tag k="name" v="Hana" />
		<tag k="place" v="farm" />
		<tag k="ssr:stedsnr" v="752616" />
	</node>
	<node id="-3752" lat="58.8570631553" lon="5.78693893021">
		<tag k="fixme" v="consider place=hamlet" />
		<tag k="name" v="Vatne" />
		<tag k="place" v="farm" />
		<tag k="ssr:stedsnr" v="752614" />
	</node>
	<node id="-3749" lat="58.8630802788" lon="5.70223790597">
		<tag k="amenity" v="school" />
		<tag k="name" v="Soma barneskole" />
		<tag k="ssr:stedsnr" v="752300" />
	</node>
	<node id="-1698" lat="58.8201750025" lon="5.91824999443">
		<tag k="name" v="Svihus" />
		<tag k="place" v="farm" />
		<tag k="ssr:stedsnr" v="486629" />
	</node>
	<node id="-1697" lat="58.828858332" lon="5.92016111367">
		<tag k="alt_name" v="Sletthei" />
		<tag k="name" v="Slettheia" />
		<tag k="place" v="farm" />
		<tag k="ssr:stedsnr" v="486628" />
	</node>
	<node id="-3744" lat="58.8909972239" lon="5.79699167304">
		<tag k="name" v="Revholen" />
		<tag k="place" v="locality" />
		<tag k="ssr:stedsnr" v="752182" />
	</node>
	<node id="-943" lat="58.8711888902" lon="6.17839721561">
		<tag k="name" v="Nygård" />
		<tag k="place" v="farm" />
		<tag k="ssr:stedsnr" v="40960" />
	</node>
	<node id="-1647" lat="58.7932777394" lon="5.78383629525">
		<tag k="alt_name" v="Gilje" />
		<tag k="fixme" v="consider place=hamlet" />
		<tag k="name" v="Gilja" />
		<tag k="place" v="farm" />
		<tag k="ssr:stedsnr" v="668832" />
	</node>
	<node id="-3730" lat="58.8788555583" lon="5.8764138861">
		<tag k="name" v="Fløysvik" />
		<tag k="place" v="farm" />
		<tag k="ssr:stedsnr" v="751217" />
	</node>
	<node id="-3728" lat="58.8801722243" lon="5.88089166627">
		<tag k="name" v="Vaudl" />
		<tag k="place" v="farm" />
		<tag k="ssr:stedsnr" v="751173" />
	</node>
	<node id="-3727" lat="58.8646277765" lon="5.92220278233">
		<tag k="name" v="Gjetlefoten" />
		<tag k="place" v="farm" />
		<tag k="ssr:stedsnr" v="751169" />
	</node>
	<node id="-1675" lat="58.9208972225" lon="5.96695000295">
		<tag k="fixme" v="consider tourism=alpine_hut or tourism=chalet" />
		<tag k="name" v="Nodhagen" />
		<tag k="ssr:stedsnr" v="480017" />
		<tag k="tourism" v="wilderness_hut" />
	</node>
	<node id="-1644" lat="58.9636750033" lon="5.89375277112">
		<tag k="name" v="Vier" />
		<tag k="place" v="farm" />
		<tag k="ssr:stedsnr" v="668785" />
	</node>
	<node id="-1662" lat="59.0330872862" lon="6.39785105683">
		<tag k="fixme" v="consider place=hamlet" />
		<tag k="name" v="Helmikstølen" />
		<tag k="place" v="farm" />
		<tag k="ssr:stedsnr" v="669028" />
	</node>
	<node id="-1661" lat="59.0677305518" lon="6.50506389084">
		<tag k="historic" v="shieling" />
		<tag k="name" v="Håhellerstølen" />
		<tag k="place" v="locality" />
		<tag k="ssr:stedsnr" v="669022" />
	</node>
	<node id="-3702" lat="59.1163806544" lon="6.87521208907">
		<tag k="fixme" v="consider tourism=alpine_hut or tourism=chalet" />
		<tag k="name" v="Heiberghytta Grautheller" />
		<tag k="ssr:stedsnr" v="647210" />
		<tag k="tourism" v="wilderness_hut" />
	</node>
	<node id="-1652" lat="58.8748000033" lon="5.68041943706">
		<tag k="alt_name" v="Bæreim" />
		<tag k="name" v="Bærheim" />
		<tag k="place" v="farm" />
		<tag k="ssr:stedsnr" v="668935" />
	</node>
	<node id="-1651" lat="58.802286107" lon="5.77991110323">
		<tag k="name" v="Bråstein" />
		<tag k="place" v="farm" />
		<tag k="ssr:stedsnr" v="668901" />
	</node>
	<node id="-1650" lat="58.8456734044" lon="5.7983303231">
		<tag k="fixme" v="consider place=hamlet" />
		<tag k="name" v="Skjørestad" />
		<tag k="place" v="farm" />
		<tag k="ssr:stedsnr" v="668895" />
	</node>
	<node id="-1649" lat="58.8399972246" lon="5.757977772">
		<tag k="name" v="Svebastad" />
		<tag k="place" v="farm" />
		<tag k="ssr:stedsnr" v="668889" />
	</node>
	<node id="-1648" lat="58.827102776" lon="5.62468332511">
		<tag k="name" v="Heigre" />
		<tag k="old_name" v="Hegre" />
		<tag k="place" v="farm" />
		<tag k="ssr:stedsnr" v="668880" />
	</node>
	<node id="-3695" lat="58.8672305552" lon="5.86456389231">
		<tag k="name" v="Furenes" />
		<tag k="place" v="farm" />
		<tag k="ssr:stedsnr" v="634222" />
	</node>
	<node id="-3694" lat="58.8425611098" lon="5.70983333199">
		<tag k="name" v="Skeiane" />
		<tag k="place" v="farm" />
		<tag k="ssr:stedsnr" v="632114" />
	</node>
	<node id="-3693" lat="58.8472722235" lon="5.72626111129">
		<tag k="name" v="Skeiane" />
		<tag k="place" v="farm" />
		<tag k="ssr:stedsnr" v="632105" />
	</node>
	<node id="-3692" lat="58.8411694453" lon="5.70884444147">
		<tag k="name" v="Skeiane" />
		<tag k="place" v="farm" />
		<tag k="ssr:stedsnr" v="632048" />
	</node>
	<node id="-3690" lat="58.8332194481" lon="5.68875278577">
		<tag k="name" v="Håbakken" />
		<tag k="place" v="farm" />
		<tag k="ssr:stedsnr" v="631787" />
	</node>
	<node id="-3687" lat="58.8914000014" lon="6.04421388268">
		<tag k="name" v="Likstø" />
		<tag k="place" v="farm" />
		<tag k="ssr:stedsnr" v="631180" />
	</node>
	<node id="-1638" lat="58.9173801367" lon="5.88794631956">
		<tag k="fixme" v="consider place=hamlet" />
		<tag k="name" v="Maudland" />
		<tag k="place" v="farm" />
		<tag k="ssr:stedsnr" v="668746" />
	</node>
	<node id="-1636" lat="58.9182250022" lon="6.26817500452">
		<tag k="name" v="Hellesvollen" />
		<tag k="place" v="farm" />
		<tag k="ssr:stedsnr" v="668733" />
	</node>
	<node id="-1634" lat="58.9313896269" lon="5.96806655362">
		<tag k="fixme" v="consider place=hamlet" />
		<tag k="name" v="Bersagel" />
		<tag k="place" v="farm" />
		<tag k="ssr:stedsnr" v="668727" />
	</node>
	<node id="-3681" lat="58.8356499974" lon="5.75900554842">
		<tag k="name" v="Prestbakken" />
		<tag k="place" v="farm" />
		<tag k="ssr:stedsnr" v="630589" />
	</node>
	<node id="-1631" lat="58.9360999986" lon="5.96794999202">
		<tag k="name" v="Dreggjavik" />
		<tag k="place" v="farm" />
		<tag k="ssr:stedsnr" v="668715" />
	</node>
	<node id="-941" lat="58.8815055537" lon="6.00944167272">
		<tag k="name" v="Stemmen" />
		<tag k="place" v="farm" />
		<tag k="ssr:stedsnr" v="40174" />
	</node>
	<node id="-1628" lat="58.8911904879" lon="6.22032523606">
		<tag k="alt_name" v="Espedal, nedre" />
		<tag k="fixme" v="consider place=hamlet" />
		<tag k="name" v="Nedre Espedal" />
		<tag k="place" v="farm" />
		<tag k="ssr:stedsnr" v="668709" />
	</node>
	<node id="-1625" lat="58.8838138855" lon="5.92855277411">
		<tag k="name" v="Dansen" />
		<tag k="place" v="farm" />
		<tag k="ssr:stedsnr" v="668687" />
	</node>
	<node id="-4024" lat="58.9177093961" lon="5.85504216217">
		<tag k="fixme" v="consider place=hamlet" />
		<tag k="name" v="Frøyland" />
		<tag k="place" v="farm" />
		<tag k="ssr:stedsnr" v="851721" />
	</node>
	<node id="-1614" lat="59.0158025487" lon="6.28768478334">
		<tag k="fixme" v="consider tourism=alpine_hut or tourism=chalet" />
		<tag k="name" v="Bakken gard" />
		<tag k="old_name" v="Bakken Gård" />
		<tag k="ssr:stedsnr" v="465354" />
		<tag k="tourism" v="wilderness_hut" />
	</node>
	<node id="-3653" lat="59.0243087404" lon="6.34260230904">
		<tag k="fixme" v="consider place=hamlet" />
		<tag k="name" v="Hatleskog" />
		<tag k="place" v="farm" />
		<tag k="ssr:stedsnr" v="608031" />
	</node>
	<node id="-3646" lat="58.8090583341" lon="5.76159999299">
		<tag k="loc_name" v="Helgeland" />
		<tag k="name" v="Helgaland" />
		<tag k="place" v="farm" />
		<tag k="ssr:stedsnr" v="607916" />
	</node>
	<node id="-3645" lat="58.8705296384" lon="5.81401548766">
		<tag k="fixme" v="consider place=hamlet" />
		<tag k="name" v="Lutsi" />
		<tag k="place" v="farm" />
		<tag k="ssr:stedsnr" v="607993" />
	</node>
	<node id="-3644" lat="58.8673474413" lon="5.69200118303">
		<tag k="fixme" v="consider place=hamlet" />
		<tag k="name" v="Soma" />
		<tag k="place" v="farm" />
		<tag k="ssr:stedsnr" v="607984" />
	</node>
	<node id="-3643" lat="58.8536075567" lon="5.66399736008">
		<tag k="fixme" v="consider place=hamlet" />
		<tag k="name" v="Årsvoll" />
		<tag k="place" v="farm" />
		<tag k="ssr:stedsnr" v="607979" />
	</node>
	<node id="-3641" lat="58.9096111107" lon="5.88613611637">
		<tag k="name" v="Sanddal" />
		<tag k="place" v="farm" />
		<tag k="ssr:stedsnr" v="607748" />
	</node>
	<node id="-3640" lat="58.9066085821" lon="5.84601887139">
		<tag k="alt_name" v="Bjødland" />
		<tag k="fixme" v="consider place=hamlet" />
		<tag k="name" v="Bjelland" />
		<tag k="place" v="farm" />
		<tag k="ssr:stedsnr" v="607747" />
	</node>
	<node id="-1972" lat="58.9589249973" lon="5.89963055626">
		<tag k="loc_name" v="Naustervik" />
		<tag k="name" v="Naustervika" />
		<tag k="place" v="farm" />
		<tag k="ssr:stedsnr" v="729820" />
	</node>
	<node id="-3635" lat="58.9229941815" lon="5.96068464054">
		<tag k="fixme" v="consider place=hamlet" />
		<tag k="name" v="Eskeland" />
		<tag k="place" v="farm" />
		<tag k="ssr:stedsnr" v="607717" />
	</node>
	<node id="-3633" lat="58.9203749989" lon="6.27593055162">
		<tag k="name" v="Hestevollen" />
		<tag k="place" v="farm" />
		<tag k="ssr:stedsnr" v="607712" />
	</node>
	<node id="-1574" lat="58.8650027781" lon="5.90891388028">
		<tag k="name" v="Hodl" />
		<tag k="place" v="farm" />
		<tag k="ssr:stedsnr" v="447141" />
	</node>
	<node id="-3618" lat="58.8213361097" lon="5.75783333663">
		<tag k="alt_name" v="Brattabø" />
		<tag k="name" v="Brattebø" />
		<tag k="place" v="farm" />
		<tag k="ssr:stedsnr" v="607876" />
	</node>
	<node id="-3617" lat="58.821463885" lon="5.67048055858">
		<tag k="name" v="Følhusholen" />
		<tag k="place" v="farm" />
		<tag k="ssr:stedsnr" v="607871" />
	</node>
	<node id="-3616" lat="58.8296083377" lon="5.63897777708">
		<tag k="name" v="Heigre" />
		<tag k="old_name" v="Hegre" />
		<tag k="place" v="farm" />
		<tag k="ssr:stedsnr" v="607868" />
	</node>
	<node id="-3615" lat="58.8255111071" lon="5.79525554859">
		<tag k="alt_name" v="Kydles" />
		<tag k="name" v="Netland" />
		<tag k="place" v="farm" />
		<tag k="ssr:stedsnr" v="607861" />
	</node>
	<node id="-3613" lat="58.789997226" lon="5.84384722267">
		<tag k="alt_name" v="Bleget" />
		<tag k="name" v="Bliket" />
		<tag k="place" v="farm" />
		<tag k="ssr:stedsnr" v="607538" />
	</node>
	<node id="-3609" lat="58.8973313865" lon="6.14601156821">
		<tag k="fixme" v="consider place=hamlet" />
		<tag k="name" v="Grøndal" />
		<tag k="place" v="farm" />
		<tag k="ssr:stedsnr" v="607668" />
	</node>
	<node id="-3608" lat="58.8843738555" lon="6.05224859328">
		<tag k="fixme" v="consider place=hamlet" />
		<tag k="name" v="Selvik" />
		<tag k="place" v="farm" />
		<tag k="ssr:stedsnr" v="607661" />
	</node>
	<node id="-1559" lat="58.8399388908" lon="5.77519166588">
		<tag k="alt_name" v="Øygard;Ødegård" />
		<tag k="name" v="Øydgard" />
		<tag k="place" v="farm" />
		<tag k="ssr:stedsnr" v="426903" />
	</node>
	<node id="-3606" lat="58.8848842317" lon="6.01089980847">
		<tag k="alt_name" v="Gjesteland" />
		<tag k="fixme" v="consider place=hamlet" />
		<tag k="name" v="Gjestaland" />
		<tag k="place" v="farm" />
		<tag k="ssr:stedsnr" v="607659" />
	</node>
	<node id="-3604" lat="58.8851416698" lon="5.93208610993">
		<tag k="name" v="Vomma" />
		<tag k="place" v="isolated_dwelling" />
		<tag k="ssr:stedsnr" v="607657" />
	</node>
	<node id="-3603" lat="58.89228611" lon="5.89181111202">
		<tag k="name" v="Fløysvikbakken" />
		<tag k="place" v="farm" />
		<tag k="ssr:stedsnr" v="607654" />
	</node>
	<node id="-3601" lat="58.8863944473" lon="5.84886944743">
		<tag k="name" v="Steinane" />
		<tag k="place" v="farm" />
		<tag k="ssr:stedsnr" v="607650" />
	</node>
	<node id="-3600" lat="58.8999164211" lon="5.89315331149">
		<tag k="alt_name" v="Litle Auglend" />
		<tag k="fixme" v="consider place=hamlet" />
		<tag k="name" v="Litlauglend" />
		<tag k="place" v="farm" />
		<tag k="ssr:stedsnr" v="607640" />
	</node>
	<node id="-3599" lat="58.904149704" lon="5.9041602116">
		<tag k="name" v="Tjørnabakken" />
		<tag k="place" v="farm" />
		<tag k="ssr:stedsnr" v="607639" />
	</node>
	<node id="-3597" lat="58.9073722185" lon="6.02132777638">
		<tag k="name" v="Karlavika" />
		<tag k="place" v="farm" />
		<tag k="ssr:stedsnr" v="607632" />
	</node>
	<node id="-3596" lat="58.9033000044" lon="6.10477499383">
		<tag k="fixme" v="consider place=hamlet" />
		<tag k="name" v="Forsand" />
		<tag k="place" v="village" />
		<tag k="ssr:stedsnr" v="607630" />
	</node>
	<node id="-3595" lat="58.9070112618" lon="6.18299288496">
		<tag k="fixme" v="consider place=hamlet" />
		<tag k="name" v="Oaland" />
		<tag k="place" v="farm" />
		<tag k="ssr:stedsnr" v="607629" />
	</node>
	<node id="-3594" lat="58.8276194426" lon="5.90389443738">
		<tag k="alt_name" v="Hetland" />
		<tag k="name" v="Store-Hetland" />
		<tag k="place" v="farm" />
		<tag k="ssr:stedsnr" v="607613" />
	</node>
	<node id="-3593" lat="58.824730553" lon="5.87728889624">
		<tag k="alt_name" v="Hetland" />
		<tag k="name" v="Litle-Hetland" />
		<tag k="place" v="farm" />
		<tag k="ssr:stedsnr" v="607609" />
	</node>
	<node id="-3592" lat="58.8418660941" lon="5.87720623037">
		<tag k="alt_name" v="Levang;Leigvom" />
		<tag k="fixme" v="consider place=hamlet" />
		<tag k="name" v="Leikvam" />
		<tag k="place" v="farm" />
		<tag k="ssr:stedsnr" v="607596" />
	</node>
	<node id="-1534" lat="58.8231583333" lon="5.67927777527">
		<tag k="name" v="Stavholen" />
		<tag k="place" v="farm" />
		<tag k="ssr:stedsnr" v="510827" />
	</node>
	<node id="-1533" lat="58.8153833302" lon="5.70358055575">
		<tag k="name" v="Storholen" />
		<tag k="place" v="farm" />
		<tag k="ssr:stedsnr" v="510818" />
	</node>
	<node id="-1532" lat="58.8401527799" lon="5.69011389707">
		<tag k="name" v="Øgard" />
		<tag k="place" v="farm" />
		<tag k="ssr:stedsnr" v="510812" />
	</node>
	<node id="-1530" lat="58.8099555548" lon="5.71652499868">
		<tag k="name" v="Skjeldebakken" />
		<tag k="place" v="farm" />
		<tag k="ssr:stedsnr" v="510793" />
	</node>
	<node id="-1524" lat="58.8435206736" lon="5.73045206666">
		<tag k="fixme" v="consider place=hamlet" />
		<tag k="name" v="Brualand" />
		<tag k="place" v="farm" />
		<tag k="ssr:stedsnr" v="509626" />
	</node>
	<node id="-1523" lat="58.8559916641" lon="5.78829444452">
		<tag k="name" v="Gamletun" />
		<tag k="place" v="farm" />
		<tag k="ssr:stedsnr" v="509614" />
	</node>
	<node id="-1520" lat="58.8367722221" lon="5.65625555927">
		<tag k="name" v="Storhaug" />
		<tag k="place" v="farm" />
		<tag k="ssr:stedsnr" v="509226" />
	</node>
	<node id="-1514" lat="58.860794446" lon="5.92351111046">
		<tag k="name" v="Småriset" />
		<tag k="place" v="farm" />
		<tag k="ssr:stedsnr" v="509051" />
	</node>
	<node id="-3556" lat="58.8315166659" lon="5.66330277281">
		<tag k="fixme" v="consider place=hamlet" />
		<tag k="name" v="Julebygda" />
		<tag k="place" v="village" />
		<tag k="ssr:stedsnr" v="601197" />
	</node>
	<node id="-3548" lat="59.0421000025" lon="6.43012778277">
		<tag k="fixme" v="consider tourism=alpine_hut or tourism=chalet" />
		<tag k="name" v="Songedalen fjellgard" />
		<tag k="ssr:stedsnr" v="586961" />
		<tag k="tourism" v="wilderness_hut" />
	</node>
	<node id="-3540" lat="58.8994416636" lon="5.78496943785">
		<tag k="name" v="Dale" />
		<tag k="place" v="farm" />
		<tag k="ssr:stedsnr" v="570605" />
	</node>
	<node id="-3539" lat="58.8328113384" lon="5.75587405899">
		<tag k="fixme" v="consider place=hamlet" />
		<tag k="name" v="Høyland" />
		<tag k="place" v="farm" />
		<tag k="ssr:stedsnr" v="570589" />
	</node>
	<node id="-3535" lat="58.8196194434" lon="5.93301111904">
		<tag k="name" v="Buktahagen" />
		<tag k="place" v="farm" />
		<tag k="ssr:stedsnr" v="569986" />
	</node>
	<node id="-1486" lat="58.841394445" lon="5.70981111593">
		<tag k="name" v="Skeiane" />
		<tag k="place" v="farm" />
		<tag k="ssr:stedsnr" v="390103" />
	</node>
	<node id="-1485" lat="58.834352781" lon="5.7011861137">
		<tag k="name" v="Molgjerda" />
		<tag k="place" v="farm" />
		<tag k="ssr:stedsnr" v="388764" />
	</node>
	<node id="-3528" lat="58.8584611085" lon="5.78836665905">
		<tag k="name" v="Fidjane" />
		<tag k="place" v="farm" />
		<tag k="ssr:stedsnr" v="569656" />
	</node>
	<node id="-3526" lat="58.8831833339" lon="5.71712500603">
		<tag k="alt_name" v="Lunden" />
		<tag k="name" v="Lunde" />
		<tag k="place" v="farm" />
		<tag k="ssr:stedsnr" v="569334" />
	</node>
	<node id="-3524" lat="58.8302444459" lon="5.65112222953">
		<tag k="name" v="Torvholen" />
		<tag k="place" v="farm" />
		<tag k="ssr:stedsnr" v="569246" />
	</node>
	<node id="-3520" lat="58.915452777" lon="5.81809722221">
		<tag k="name" v="Øvrabø" />
		<tag k="place" v="farm" />
		<tag k="ssr:stedsnr" v="569073" />
	</node>
	<node id="-3515" lat="58.846552775" lon="5.88760833451">
		<tag k="name" v="Kregene" />
		<tag k="place" v="farm" />
		<tag k="ssr:stedsnr" v="569034" />
	</node>
	<node id="-3511" lat="58.889647223" lon="5.84699166383">
		<tag k="name" v="Lunden" />
		<tag k="place" v="farm" />
		<tag k="ssr:stedsnr" v="568234" />
	</node>
	<node id="-3504" lat="58.8678861114" lon="5.91670000375">
		<tag k="name" v="Loen" />
		<tag k="place" v="farm" />
		<tag k="ssr:stedsnr" v="568174" />
	</node>
	<node id="-1949" lat="58.8440909159" lon="5.92741389868">
		<tag k="alt_name" v="Krogedal" />
		<tag k="fixme" v="consider place=hamlet" />
		<tag k="name" v="Kråkedal" />
		<tag k="place" v="farm" />
		<tag k="ssr:stedsnr" v="729607" />
	</node>
	<node id="-1449" lat="58.8635305532" lon="6.15529166318">
		<tag k="name" v="Torehagen" />
		<tag k="place" v="farm" />
		<tag k="ssr:stedsnr" v="358172" />
	</node>
	<node id="-1442" lat="58.9423861079" lon="6.12384722072">
		<tag k="name" v="Skreddaren" />
		<tag k="place" v="locality" />
		<tag k="ssr:stedsnr" v="345604" />
	</node>
	<node id="-1439" lat="59.0231776969" lon="6.34632931741">
		<tag k="name" v="Moen" />
		<tag k="place" v="farm" />
		<tag k="ssr:stedsnr" v="487205" />
	</node>
	<node id="-1438" lat="59.0083214061" lon="6.39433672772">
		<tag k="alt_name" v="Kallalia" />
		<tag k="fixme" v="consider place=hamlet" />
		<tag k="name" v="Kallali" />
		<tag k="place" v="farm" />
		<tag k="ssr:stedsnr" v="487202" />
	</node>
	<node id="-1437" lat="58.8523250023" lon="5.76032222375">
		<tag k="fixme" v="consider place=suburb, village or hamlet" />
		<tag k="name" v="Hana" />
		<tag k="place" v="quarter" />
		<tag k="ssr:stedsnr" v="486982" />
	</node>
	<node id="-3484" lat="59.0160083377" lon="6.26077500797">
		<tag k="alt_name" v="Brattlia, midtre;Bratteli;Brattelia" />
		<tag k="name" v="Midtre Brattlia" />
		<tag k="place" v="farm" />
		<tag k="ssr:stedsnr" v="548215" />
	</node>
	<node id="-3483" lat="59.0096388887" lon="6.40008610399">
		<tag k="name" v="Hamnen" />
		<tag k="place" v="isolated_dwelling" />
		<tag k="ssr:stedsnr" v="548211" />
	</node>
	<node id="-1434" lat="58.8224720557" lon="5.82216730984">
		<tag k="fixme" v="consider place=hamlet" />
		<tag k="name" v="Sviland" />
		<tag k="place" v="farm" />
		<tag k="ssr:stedsnr" v="486937" />
	</node>
	<node id="-1433" lat="58.8159015058" lon="5.72438504824">
		<tag k="fixme" v="consider place=hamlet" />
		<tag k="name" v="Stokkaland" />
		<tag k="place" v="farm" />
		<tag k="ssr:stedsnr" v="486933" />
	</node>
	<node id="-3480" lat="58.8191011959" lon="5.70255870272">
		<tag k="fixme" v="consider place=hamlet" />
		<tag k="name" v="Lunde" />
		<tag k="place" v="farm" />
		<tag k="ssr:stedsnr" v="547899" />
	</node>
	<node id="-1431" lat="58.8280527739" lon="5.81221110528">
		<tag k="name" v="Skårland" />
		<tag k="place" v="farm" />
		<tag k="ssr:stedsnr" v="486882" />
	</node>
	<node id="-3475" lat="58.9273916661" lon="6.43456111944">
		<tag k="name" v="Korvabu" />
		<tag k="place" v="isolated_dwelling" />
		<tag k="ssr:stedsnr" v="547740" />
	</node>
	<node id="-3474" lat="58.9243361153" lon="6.45564166907">
		<tag k="name" v="Ernstlega" />
		<tag k="place" v="isolated_dwelling" />
		<tag k="ssr:stedsnr" v="547736" />
	</node>
	<node id="-1424" lat="58.8917044857" lon="6.04758420475">
		<tag k="name" v="Åna" />
		<tag k="place" v="farm" />
		<tag k="ssr:stedsnr" v="486682" />
	</node>
	<node id="-1423" lat="58.895153525" lon="5.91105817645">
		<tag k="fixme" v="consider place=hamlet" />
		<tag k="name" v="Fløysvik" />
		<tag k="place" v="farm" />
		<tag k="ssr:stedsnr" v="486679" />
	</node>
	<node id="-1421" lat="58.8942932922" lon="5.99786916787">
		<tag k="name" v="Lia" />
		<tag k="place" v="isolated_dwelling" />
		<tag k="ssr:stedsnr" v="486663" />
	</node>
	<node id="-1420" lat="58.8630680265" lon="6.14910752188">
		<tag k="fixme" v="consider place=hamlet" />
		<tag k="name" v="Helle" />
		<tag k="place" v="farm" />
		<tag k="ssr:stedsnr" v="486593" />
	</node>
	<node id="-3465" lat="58.9205766195" lon="6.17615594801">
		<tag k="fixme" v="consider place=hamlet" />
		<tag k="name" v="Haukali" />
		<tag k="place" v="farm" />
		<tag k="ssr:stedsnr" v="547682" />
	</node>
	<node id="-3464" lat="58.822791671" lon="5.89010277623">
		<tag k="name" v="Stakksheia" />
		<tag k="place" v="farm" />
		<tag k="ssr:stedsnr" v="547674" />
	</node>
	<node id="-3463" lat="58.8471083768" lon="5.8901115784">
		<tag k="fixme" v="consider place=hamlet" />
		<tag k="name" v="Sporaland" />
		<tag k="place" v="farm" />
		<tag k="ssr:stedsnr" v="547629" />
	</node>
	<node id="-1413" lat="58.9472138933" lon="5.92685000547">
		<tag k="alt_name" v="Breidvik" />
		<tag k="name" v="Breivik" />
		<tag k="place" v="farm" />
		<tag k="ssr:stedsnr" v="486795" />
	</node>
	<node id="-3460" lat="58.9429888901" lon="6.25109445215">
		<tag k="historic" v="shieling" />
		<tag k="name" v="Hellesstølen" />
		<tag k="place" v="locality" />
		<tag k="ssr:stedsnr" v="547582" />
	</node>
	<node id="-3455" lat="59.0058833297" lon="6.42216111714">
		<tag k="fixme" v="consider tourism=alpine_hut or tourism=chalet" />
		<tag k="name" v="Flørlistølen" />
		<tag k="ssr:stedsnr" v="547202" />
		<tag k="tourism" v="wilderness_hut" />
	</node>
	<node id="-1405" lat="58.8309662945" lon="5.65844214699">
		<tag k="alt_name" v="Malmeim" />
		<tag k="fixme" v="consider place=hamlet" />
		<tag k="name" v="Malmheim" />
		<tag k="place" v="farm" />
		<tag k="ssr:stedsnr" v="486235" />
	</node>
	<node id="-3452" lat="59.104774998" lon="6.6145249997">
		<tag k="historic" v="shieling" />
		<tag k="name" v="Lysestølen" />
		<tag k="place" v="locality" />
		<tag k="ssr:stedsnr" v="547143" />
	</node>
	<node id="-3451" lat="59.0475410551" lon="6.54776265852">
		<tag k="fixme" v="consider place=hamlet" />
		<tag k="name" v="Sagbakken" />
		<tag k="place" v="farm" />
		<tag k="ssr:stedsnr" v="547070" />
	</node>
	<node id="-3443" lat="58.8420440984" lon="5.64597431469">
		<tag k="alt_name" v="Kjedlingland" />
		<tag k="fixme" v="consider place=hamlet" />
		<tag k="name" v="Kjellingland" />
		<tag k="place" v="farm" />
		<tag k="ssr:stedsnr" v="546960" />
	</node>
	<node id="-3442" lat="58.8390063066" lon="5.63457087056">
		<tag k="fixme" v="consider place=hamlet" />
		<tag k="name" v="Jutland" />
		<tag k="place" v="farm" />
		<tag k="ssr:stedsnr" v="546957" />
	</node>
	<node id="-1392" lat="58.8958833353" lon="6.04462778622">
		<tag k="name" v="Veholmen" />
		<tag k="place" v="farm" />
		<tag k="ssr:stedsnr" v="484050" />
	</node>
	<node id="-3439" lat="58.8358249957" lon="5.77438888089">
		<tag k="name" v="Kleivane" />
		<tag k="place" v="farm" />
		<tag k="ssr:stedsnr" v="546881" />
	</node>
	<node id="-3435" lat="58.9090083312" lon="6.30287777983">
		<tag k="alt_name" v="Espedalsstølen, øvre;Espedalsstølen" />
		<tag k="historic" v="shieling" />
		<tag k="loc_name" v="Øvre Espedalstølen" />
		<tag k="name" v="Øvre Espedalsstølen" />
		<tag k="place" v="locality" />
		<tag k="ssr:stedsnr" v="546675" />
	</node>
	<node id="-3429" lat="58.8978555512" lon="6.12874443637">
		<tag k="alt_name" v="Landdal" />
		<tag k="name" v="Landal" />
		<tag k="place" v="farm" />
		<tag k="ssr:stedsnr" v="546606" />
	</node>
	<node id="-3427" lat="58.8560311636" lon="5.91186570291">
		<tag k="fixme" v="consider place=hamlet" />
		<tag k="name" v="Auglend" />
		<tag k="place" v="farm" />
		<tag k="ssr:stedsnr" v="546530" />
	</node>
	<node id="-1369" lat="58.8763583329" lon="6.13481944165">
		<tag k="alt_name" v="Øvre Rossavig" />
		<tag k="name" v="Øvre Rossavik" />
		<tag k="place" v="farm" />
		<tag k="ssr:stedsnr" v="479572" />
	</node>
	<node id="-1363" lat="58.8388758845" lon="5.74377898739">
		<tag k="fixme" v="consider place=hamlet" />
		<tag k="name" v="Austrått" />
		<tag k="place" v="farm" />
		<tag k="ssr:stedsnr" v="327615" />
	</node>
	<node id="-1592" lat="58.8852916668" lon="6.20712222584">
		<tag k="name" v="Tjelmen" />
		<tag k="place" v="farm" />
		<tag k="ssr:stedsnr" v="665161" />
	</node>
	<node id="-3396" lat="58.9262055566" lon="6.17609722805">
		<tag k="name" v="Gryde" />
		<tag k="place" v="locality" />
		<tag k="ssr:stedsnr" v="542350" />
	</node>
	<node id="-1347" lat="58.892358336" lon="5.89086666342">
		<tag k="name" v="Sandbakken" />
		<tag k="place" v="locality" />
		<tag k="ssr:stedsnr" v="326006" />
	</node>
	<node id="-3388" lat="58.960640435" lon="5.84342634561">
		<tag k="loc_name" v="Kastevik" />
		<tag k="name" v="Kastevika" />
		<tag k="place" v="locality" />
		<tag k="ssr:stedsnr" v="525941" />
	</node>
	<node id="-1335" lat="58.8346228013" lon="5.7232427058">
		<tag k="fixme" v="consider place=hamlet" />
		<tag k="name" v="Skei" />
		<tag k="place" v="farm" />
		<tag k="ssr:stedsnr" v="304904" />
	</node>
	<node id="-3380" lat="59.070841673" lon="6.66540315899">
		<tag k="fixme" v="consider place=hamlet" />
		<tag k="name" v="Auklend" />
		<tag k="place" v="farm" />
		<tag k="ssr:stedsnr" v="427179" />
	</node>
	<node id="-1329" lat="58.9447311231" lon="5.87492117496">
		<tag k="alt_name" v="Lauvåsen" />
		<tag k="fixme" v="consider place=hamlet" />
		<tag k="name" v="Lauvås" />
		<tag k="place" v="farm" />
		<tag k="ssr:stedsnr" v="304805" />
	</node>
	<node id="-3376" lat="59.0155766887" lon="6.28798145671">
		<tag k="name" v="Bakken" />
		<tag k="place" v="farm" />
		<tag k="ssr:stedsnr" v="427226" />
	</node>
	<node id="-3375" lat="58.8824638867" lon="5.79778962634">
		<tag k="fixme" v="consider place=hamlet" />
		<tag k="name" v="Gramstad" />
		<tag k="place" v="farm" />
		<tag k="ssr:stedsnr" v="426949" />
	</node>
	<node id="-3374" lat="58.8847312277" lon="5.71184777969">
		<tag k="fixme" v="consider place=hamlet" />
		<tag k="name" v="Stokka" />
		<tag k="place" v="farm" />
		<tag k="ssr:stedsnr" v="426945" />
	</node>
	<node id="-1325" lat="58.9736391662" lon="6.24095473916">
		<tag k="alt_name" v="Fossmork, yt" />
		<tag k="name" v="Ytre Fossmork" />
		<tag k="place" v="farm" />
		<tag k="ssr:stedsnr" v="304514" />
	</node>
	<node id="-3371" lat="58.83106655" lon="5.78212731677">
		<tag k="name" v="Helland" />
		<tag k="place" v="farm" />
		<tag k="ssr:stedsnr" v="426889" />
	</node>
	<node id="-1322" lat="58.8252916682" lon="5.8558472275">
		<tag k="alt_name" v="Orreberg" />
		<tag k="name" v="Orraberget" />
		<tag k="place" v="farm" />
		<tag k="ssr:stedsnr" v="304616" />
	</node>
	<node id="-1320" lat="58.8185369205" lon="5.65308021231">
		<tag k="fixme" v="consider place=hamlet" />
		<tag k="name" v="Lea" />
		<tag k="place" v="farm" />
		<tag k="ssr:stedsnr" v="304226" />
	</node>
	<node id="-1067" lat="58.8561333363" lon="5.75776388">
		<tag k="leisure" v="pitch" />
		<tag k="name" v="Hana stadion" />
		<tag k="ssr:stedsnr" v="100414" />
	</node>
	<node id="-3363" lat="58.9065630442" lon="6.10731581582">
		<tag k="fixme" v="consider place=hamlet" />
		<tag k="name" v="Berge" />
		<tag k="place" v="farm" />
		<tag k="ssr:stedsnr" v="426777" />
	</node>
	<node id="-3354" lat="59.1602222186" lon="6.89978889303">
		<tag k="name" v="Lysebu" />
		<tag k="ssr:stedsnr" v="426151" />
		<tag k="tourism" v="hotel" />
	</node>
	<node id="-3351" lat="59.0609944461" lon="6.41262778008">
		<tag k="historic" v="shieling" />
		<tag k="name" v="Kåsastølen" />
		<tag k="place" v="locality" />
		<tag k="ssr:stedsnr" v="426049" />
	</node>
	<node id="-3348" lat="58.8674324515" lon="5.86152804253">
		<tag k="fixme" v="consider place=hamlet" />
		<tag k="name" v="Furenes" />
		<tag k="place" v="farm" />
		<tag k="ssr:stedsnr" v="425683" />
	</node>
	<node id="-3346" lat="58.8990166687" lon="6.11746388618">
		<tag k="name" v="Åsheim" />
		<tag k="place" v="farm" />
		<tag k="ssr:stedsnr" v="425638" />
	</node>
	<node id="-3344" lat="58.8933499996" lon="6.03506110432">
		<tag k="name" v="Trodal" />
		<tag k="place" v="farm" />
		<tag k="ssr:stedsnr" v="425632" />
	</node>
	<node id="-3336" lat="58.9023977416" lon="6.09708783431">
		<tag k="alt_name" v="Gjøyse" />
		<tag k="fixme" v="consider place=hamlet" />
		<tag k="name" v="Gjøysa" />
		<tag k="place" v="farm" />
		<tag k="ssr:stedsnr" v="425621" />
	</node>
	<node id="-1284" lat="58.8414222226" lon="5.71033055249">
		<tag k="name" v="Skeiane" />
		<tag k="place" v="farm" />
		<tag k="ssr:stedsnr" v="269106" />
	</node>
	<node id="-1283" lat="58.8417916703" lon="5.71022221697">
		<tag k="name" v="Skeiane" />
		<tag k="place" v="farm" />
		<tag k="ssr:stedsnr" v="269104" />
	</node>
	<node id="-1279" lat="58.8426527793" lon="5.7684277828">
		<tag k="name" v="Skaret" />
		<tag k="place" v="farm" />
		<tag k="ssr:stedsnr" v="451146" />
	</node>
	<node id="-1278" lat="58.8474916643" lon="5.73138610938">
		<tag k="name" v="Skeiane" />
		<tag k="place" v="farm" />
		<tag k="ssr:stedsnr" v="451053" />
	</node>
	<node id="-1276" lat="58.8378944417" lon="5.69412499551">
		<tag k="name" v="Orsholen" />
		<tag k="place" v="farm" />
		<tag k="ssr:stedsnr" v="449767" />
	</node>
	<node id="-1275" lat="58.8069027761" lon="5.67233055569">
		<tag k="name" v="Brunes" />
		<tag k="place" v="farm" />
		<tag k="ssr:stedsnr" v="449747" />
	</node>
	<node id="-1272" lat="58.9149750043" lon="5.83397500685">
		<tag k="amenity" v="nursing_home" />
		<tag k="name" v="Riskatun" />
		<tag k="ssr:stedsnr" v="449675" />
	</node>
	<node id="-1271" lat="58.8804361089" lon="5.74385832919">
		<tag k="fixme" v="consider place=suburb, village or hamlet" />
		<tag k="name" v="Nadaberget" />
		<tag k="place" v="quarter" />
		<tag k="ssr:stedsnr" v="449668" />
	</node>
	<node id="-1267" lat="58.8320166627" lon="5.74231666711">
		<tag k="name" v="Tronsholen" />
		<tag k="place" v="farm" />
		<tag k="ssr:stedsnr" v="449631" />
	</node>
	<node id="-1266" lat="58.8403916675" lon="5.74571389578">
		<tag k="name" v="Buddegarden" />
		<tag k="place" v="farm" />
		<tag k="ssr:stedsnr" v="449626" />
	</node>
	<node id="-1264" lat="58.8686972262" lon="5.81673888542">
		<tag k="name" v="Moen" />
		<tag k="place" v="farm" />
		<tag k="ssr:stedsnr" v="449196" />
	</node>
	<node id="-3307" lat="58.9615722238" lon="6.32691388271">
		<tag k="fixme" v="consider tourism=alpine_hut or tourism=chalet" />
		<tag k="name" v="Vinddalen" />
		<tag k="ssr:stedsnr" v="420785" />
		<tag k="tourism" v="wilderness_hut" />
	</node>
	<node id="-3305" lat="58.8717111132" lon="6.13684999971">
		<tag k="alt_name" v="Nedre Rossavig" />
		<tag k="name" v="Nedre Rossavik" />
		<tag k="place" v="farm" />
		<tag k="ssr:stedsnr" v="419570" />
	</node>
	<node id="-3289" lat="58.8427055521" lon="5.76882500347">
		<tag k="name" v="Skaret" />
		<tag k="place" v="farm" />
		<tag k="ssr:stedsnr" v="390131" />
	</node>
	<node id="-3288" lat="58.842716663" lon="5.76931110668">
		<tag k="name" v="Skaret" />
		<tag k="place" v="farm" />
		<tag k="ssr:stedsnr" v="390130" />
	</node>
	<node id="-3287" lat="58.8410249977" lon="5.70893056315">
		<tag k="name" v="Skeiane" />
		<tag k="place" v="farm" />
		<tag k="ssr:stedsnr" v="390043" />
	</node>
	<node id="-3286" lat="58.8450555587" lon="5.72560556255">
		<tag k="name" v="Skeiane" />
		<tag k="place" v="farm" />
		<tag k="ssr:stedsnr" v="390031" />
	</node>
	<node id="-3285" lat="58.8481777738" lon="5.72929999626">
		<tag k="name" v="Skeiane" />
		<tag k="place" v="farm" />
		<tag k="ssr:stedsnr" v="390095" />
	</node>
	<node id="-1235" lat="58.8706426515" lon="5.95823511687">
		<tag k="fixme" v="consider place=hamlet" />
		<tag k="name" v="Veraland" />
		<tag k="place" v="farm" />
		<tag k="ssr:stedsnr" v="243580" />
	</node>
	<node id="-3279" lat="59.0164999473" lon="6.26307601193">
		<tag k="alt_name" v="Bratteli" />
		<tag k="fixme" v="consider place=hamlet" />
		<tag k="name" v="Brattlia" />
		<tag k="place" v="farm" />
		<tag k="ssr:stedsnr" v="388649" />
	</node>
	<node id="-3267" lat="58.80291111" lon="5.75306667354">
		<tag k="alt_name" v="Slettebø" />
		<tag k="name" v="Eikelandsmyra" />
		<tag k="place" v="farm" />
		<tag k="ssr:stedsnr" v="387685" />
	</node>
	<node id="-1213" lat="58.8910166658" lon="5.84050277038">
		<tag k="name" v="Vestergård" />
		<tag k="place" v="farm" />
		<tag k="ssr:stedsnr" v="447173" />
	</node>
	<node id="-1204" lat="58.9177444428" lon="5.96529721597">
		<tag k="alt_name" v="Eigeskog" />
		<tag k="name" v="Eikeskog" />
		<tag k="place" v="isolated_dwelling" />
		<tag k="ssr:stedsnr" v="447039" />
	</node>
	<node id="-3246" lat="59.0141666687" lon="6.26210556286">
		<tag k="alt_name" v="Brattlia, nedre;Bratteli" />
		<tag k="name" v="Nedre Brattlia" />
		<tag k="place" v="farm" />
		<tag k="ssr:stedsnr" v="366208" />
	</node>
	<node id="-1192" lat="58.8905722187" lon="5.78308055998">
		<tag k="name" v="Lundane" />
		<tag k="place" v="locality" />
		<tag k="ssr:stedsnr" v="206205" />
	</node>
	<node id="-1190" lat="58.9255583359" lon="5.85103611134">
		<tag k="alt_name" v="Hommarsåk" />
		<tag k="fixme" v="consider place=suburb, village or hamlet" />
		<tag k="name" v="Hommersåk" />
		<tag k="place" v="quarter" />
		<tag k="ssr:stedsnr" v="295719" />
	</node>
	<node id="-3231" lat="58.9215277758" lon="5.92347777329">
		<tag k="name" v="Myrland" />
		<tag k="place" v="farm" />
		<tag k="ssr:stedsnr" v="365740" />
	</node>
	<node id="-1182" lat="59.0541995656" lon="6.65037257702">
		<tag k="alt_name" v="Nerabø" />
		<tag k="fixme" v="consider place=hamlet" />
		<tag k="name" v="Nedrabø" />
		<tag k="place" v="farm" />
		<tag k="ssr:stedsnr" v="183810" />
	</node>
	<node id="-3227" lat="58.927612821" lon="5.88914061742">
		<tag k="alt_name" v="Hetland" />
		<tag k="name" v="Hetli" />
		<tag k="place" v="farm" />
		<tag k="ssr:stedsnr" v="365723" />
	</node>
	<node id="-3224" lat="58.8198205179" lon="5.90954095906">
		<tag k="fixme" v="consider place=hamlet" />
		<tag k="name" v="Tveit" />
		<tag k="place" v="farm" />
		<tag k="ssr:stedsnr" v="365639" />
	</node>
	<node id="-2244" lat="58.8645472228" lon="5.68995277518">
		<tag k="name" v="Stavholen" />
		<tag k="place" v="farm" />
		<tag k="ssr:stedsnr" v="934297" />
	</node>
	<node id="-1561" lat="59.0426823903" lon="6.4368735818">
		<tag k="fixme" v="consider place=hamlet" />
		<tag k="name" v="Songedal" />
		<tag k="place" v="farm" />
		<tag k="ssr:stedsnr" v="427046" />
	</node>
	<node id="-3220" lat="58.8459561195" lon="5.88103557755">
		<tag k="name" v="Sletthei" />
		<tag k="place" v="locality" />
		<tag k="ssr:stedsnr" v="365591" />
	</node>
	<node id="-3216" lat="58.7982111125" lon="5.86106111738">
		<tag k="name" v="Flassamyra" />
		<tag k="place" v="farm" />
		<tag k="ssr:stedsnr" v="365523" />
	</node>
	<node id="-1165" lat="58.8883083311" lon="6.2140111192">
		<tag k="name" v="Moen" />
		<tag k="place" v="farm" />
		<tag k="ssr:stedsnr" v="180164" />
	</node>
	<node id="-1164" lat="58.8958833353" lon="6.04462778622">
		<tag k="name" v="Haugen" />
		<tag k="place" v="farm" />
		<tag k="ssr:stedsnr" v="180056" />
	</node>
	<node id="-3211" lat="58.8668944411" lon="5.91979166093">
		<tag k="name" v="Osaland" />
		<tag k="place" v="farm" />
		<tag k="ssr:stedsnr" v="365243" />
	</node>
	<node id="-1160" lat="59.146991667" lon="6.84454444022">
		<tag k="fixme" v="consider tourism=alpine_hut or tourism=chalet" />
		<tag k="name" v="Tverrå" />
		<tag k="ssr:stedsnr" v="178052" />
		<tag k="tourism" v="wilderness_hut" />
	</node>
	<node id="-1159" lat="58.8382674983" lon="5.86393226674">
		<tag k="alt_name" v="Skjelbreid" />
		<tag k="fixme" v="consider place=hamlet" />
		<tag k="name" v="Skjelbrei" />
		<tag k="place" v="farm" />
		<tag k="ssr:stedsnr" v="284615" />
	</node>
	<node id="-1157" lat="58.8800444424" lon="6.19091944501">
		<tag k="name" v="Moen" />
		<tag k="place" v="farm" />
		<tag k="ssr:stedsnr" v="283961" />
	</node>
	<node id="-1558" lat="58.9196144839" lon="6.00465770968">
		<tag k="alt_name" v="Ådnøy" />
		<tag k="fixme" v="consider place=hamlet" />
		<tag k="name" v="Storådnøyna" />
		<tag k="place" v="farm" />
		<tag k="ssr:stedsnr" v="426754" />
	</node>
	<node id="-1154" lat="58.8519222258" lon="5.73437778005">
		<tag k="name" v="Aaslaug Aaslands plass" />
		<tag k="place" v="square" />
		<tag k="ssr:stedsnr" v="283131" />
	</node>
	<node id="-3198" lat="58.8485527748" lon="5.76186110307">
		<tag k="alt_name" v="Hana, øvre" />
		<tag k="name" v="Øvre Hana" />
		<tag k="place" v="farm" />
		<tag k="ssr:stedsnr" v="364973" />
	</node>
	<node id="-1144" lat="58.8557012817" lon="5.75001562824">
		<tag k="name" v="Giljarhaugen" />
		<tag k="place" v="isolated_dwelling" />
		<tag k="ssr:stedsnr" v="282436" />
	</node>
	<node id="-1143" lat="58.8704833348" lon="5.8653444512">
		<tag k="name" v="Soma" />
		<tag k="place" v="farm" />
		<tag k="ssr:stedsnr" v="281312" />
	</node>
	<node id="-1138" lat="58.90913611" lon="6.01403611639">
		<tag k="name" v="Klampen" />
		<tag k="place" v="locality" />
		<tag k="ssr:stedsnr" v="161906" />
	</node>
	<node id="-1136" lat="58.8814009138" lon="5.77122840561">
		<tag k="name" v="Sjølyst" />
		<tag k="place" v="isolated_dwelling" />
		<tag k="ssr:stedsnr" v="160413" />
	</node>
	<node id="-1128" lat="58.8450444463" lon="5.70858055094">
		<tag k="name" v="Skeiane" />
		<tag k="place" v="farm" />
		<tag k="ssr:stedsnr" v="269098" />
	</node>
	<node id="-1552" lat="58.8296626807" lon="5.97284475229">
		<tag k="fixme" v="consider place=hamlet" />
		<tag k="name" v="Røynli" />
		<tag k="place" v="farm" />
		<tag k="ssr:stedsnr" v="426610" />
	</node>
	<node id="-1114" lat="58.8632750001" lon="5.72629721523">
		<tag k="fixme" v="consider place=suburb, village or hamlet" />
		<tag k="name" v="Smeaheia" />
		<tag k="place" v="quarter" />
		<tag k="ssr:stedsnr" v="266685" />
	</node>
	<node id="-3157" lat="58.8865661931" lon="6.21127732007">
		<tag k="fixme" v="consider place=hamlet" />
		<tag k="name" v="Brunnabakka" />
		<tag k="place" v="farm" />
		<tag k="ssr:stedsnr" v="362131" />
	</node>
	<node id="-1107" lat="58.8194583343" lon="5.64816111566">
		<tag k="name" v="Auglend" />
		<tag k="place" v="farm" />
		<tag k="ssr:stedsnr" v="266298" />
	</node>
	<node id="-1106" lat="58.8855777811" lon="5.71148888328">
		<tag k="name" v="Erdal" />
		<tag k="place" v="farm" />
		<tag k="ssr:stedsnr" v="266276" />
	</node>
	<node id="-1100" lat="58.8247444414" lon="5.83484722959">
		<tag k="loc_name" v="Sygnaheia" />
		<tag k="name" v="Syngaheia" />
		<tag k="place" v="farm" />
		<tag k="ssr:stedsnr" v="266057" />
	</node>
	<node id="-3143" lat="58.8842222253" lon="5.79914722721">
		<tag k="fixme" v="consider tourism=alpine_hut or tourism=chalet" />
		<tag k="name" v="Gramstad" />
		<tag k="ssr:stedsnr" v="344189" />
		<tag k="tourism" v="wilderness_hut" />
	</node>
	<node id="-3142" lat="59.0123527815" lon="6.42581943999">
		<tag k="alt_name" v="Fløyrli turiststasjon" />
		<tag k="fixme" v="consider tourism=alpine_hut or tourism=chalet" />
		<tag k="name" v="Flørli turiststasjon" />
		<tag k="old_name" v="Fløyrli" />
		<tag k="ssr:stedsnr" v="344130" />
		<tag k="tourism" v="wilderness_hut" />
	</node>
	<node id="-1088" lat="58.9077249989" lon="5.85140278201">
		<tag k="name" v="Holå" />
		<tag k="place" v="farm" />
		<tag k="ssr:stedsnr" v="265152" />
	</node>
	<node id="-3132" lat="58.8426583322" lon="5.76721389309">
		<tag k="name" v="Skaret" />
		<tag k="place" v="farm" />
		<tag k="ssr:stedsnr" v="329135" />
	</node>
	<node id="-3131" lat="58.8413500001" lon="5.70941389238">
		<tag k="name" v="Skeiane" />
		<tag k="place" v="farm" />
		<tag k="ssr:stedsnr" v="329041" />
	</node>
	<node id="-3129" lat="58.8218416637" lon="5.90309721978">
		<tag k="name" v="Holane" />
		<tag k="place" v="farm" />
		<tag k="ssr:stedsnr" v="327983" />
	</node>
	<node id="-3118" lat="58.8278638902" lon="5.65511945018">
		<tag k="name" v="Heiå" />
		<tag k="place" v="farm" />
		<tag k="ssr:stedsnr" v="327231" />
	</node>
	<node id="-1068" lat="58.8653284822" lon="5.75958063542">
		<tag k="name" v="Granlund" />
		<tag k="place" v="isolated_dwelling" />
		<tag k="ssr:stedsnr" v="100418" />
	</node>
	<node id="-3115" lat="58.8630944463" lon="5.79104721636">
		<tag k="fixme" v="consider place=suburb, village or hamlet" />
		<tag k="name" v="Sandbakk" />
		<tag k="place" v="quarter" />
		<tag k="ssr:stedsnr" v="327196" />
	</node>
	<node id="-1066" lat="58.8427755099" lon="5.76755142342">
		<tag k="name" v="Skaret" />
		<tag k="place" v="farm" />
		<tag k="ssr:stedsnr" v="87116" />
	</node>
	<node id="-1064" lat="58.894705556" lon="6.10211666443">
		<tag k="name" v="Hagavik" />
		<tag k="place" v="farm" />
		<tag k="ssr:stedsnr" v="85965" />
	</node>
	<node id="-3108" lat="58.855016667" lon="5.90766110297">
		<tag k="name" v="Rikkaleitet" />
		<tag k="place" v="farm" />
		<tag k="ssr:stedsnr" v="327056" />
	</node>
	<node id="-1058" lat="58.8893972226" lon="5.70241944936">
		<tag k="name" v="Svanholm" />
		<tag k="place" v="farm" />
		<tag k="ssr:stedsnr" v="85204" />
	</node>
	<node id="-3101" lat="58.8658972236" lon="5.91376666162">
		<tag k="name" v="Risholen" />
		<tag k="place" v="farm" />
		<tag k="ssr:stedsnr" v="326157" />
	</node>
	<node id="-3100" lat="58.8644527816" lon="5.91235556216">
		<tag k="name" v="Egrå" />
		<tag k="place" v="farm" />
		<tag k="ssr:stedsnr" v="326155" />
	</node>
	<node id="-1051" lat="58.8542606623" lon="5.80507098042">
		<tag k="fixme" v="consider place=hamlet" />
		<tag k="name" v="Kyllevik" />
		<tag k="place" v="farm" />
		<tag k="ssr:stedsnr" v="84676" />
	</node>
	<node id="-3095" lat="58.954055559" lon="5.90925278235">
		<tag k="alt_name" v="Sletta" />
		<tag k="name" v="Sletten" />
		<tag k="place" v="farm" />
		<tag k="ssr:stedsnr" v="326095" />
	</node>
	<node id="-1046" lat="58.8443388849" lon="5.83410555752">
		<tag k="name" v="Neset" />
		<tag k="place" v="farm" />
		<tag k="ssr:stedsnr" v="84061" />
	</node>
	<node id="-3075" lat="58.8429792816" lon="5.6895118981">
		<tag k="fixme" v="consider place=hamlet" />
		<tag k="name" v="Folkvord" />
		<tag k="old_name" v="Folkvår" />
		<tag k="place" v="farm" />
		<tag k="ssr:stedsnr" v="304961" />
	</node>
	<node id="-1026" lat="59.0251327844" lon="6.38874677829">
		<tag k="fixme" v="consider place=hamlet" />
		<tag k="name" v="Kallastein" />
		<tag k="place" v="farm" />
		<tag k="ssr:stedsnr" v="245191" />
	</node>
	<node id="-3073" lat="58.8910975016" lon="5.84789912033">
		<tag k="fixme" v="consider place=hamlet" />
		<tag k="name" v="Hogstad" />
		<tag k="place" v="farm" />
		<tag k="ssr:stedsnr" v="304932" />
	</node>
	<node id="-3072" lat="58.8235654957" lon="5.80680478004">
		<tag k="name" v="Steinfjell" />
		<tag k="place" v="locality" />
		<tag k="ssr:stedsnr" v="304927" />
	</node>
	<node id="-3071" lat="58.9988148671" lon="6.28376254896">
		<tag k="fixme" v="consider place=hamlet" />
		<tag k="name" v="Mulen" />
		<tag k="place" v="farm" />
		<tag k="ssr:stedsnr" v="305275" />
	</node>
	<node id="-1020" lat="58.8725722181" lon="5.73989445167">
		<tag k="fixme" v="consider place=suburb, village or hamlet" />
		<tag k="name" v="Lura" />
		<tag k="place" v="quarter" />
		<tag k="ssr:stedsnr" v="244997" />
	</node>
	<node id="-1018" lat="58.8799166677" lon="5.77436943783">
		<tag k="fixme" v="consider place=hamlet" />
		<tag k="name" v="Stronda" />
		<tag k="place" v="village" />
		<tag k="ssr:stedsnr" v="244949" />
	</node>
	<node id="-1017" lat="58.879958337" lon="5.70670833512">
		<tag k="alt_name" v="Stokka" />
		<tag k="name" v="Stokkaheia" />
		<tag k="place" v="farm" />
		<tag k="ssr:stedsnr" v="244947" />
	</node>
	<node id="-3058" lat="58.915652779" lon="6.27430000722">
		<tag k="name" v="Plasset" />
		<tag k="place" v="farm" />
		<tag k="ssr:stedsnr" v="304724" />
	</node>
	<node id="-3056" lat="58.931783107" lon="5.96087738504">
		<tag k="alt_name" v="Hammar" />
		<tag k="fixme" v="consider place=hamlet" />
		<tag k="name" v="Hamar" />
		<tag k="place" v="farm" />
		<tag k="ssr:stedsnr" v="304719" />
	</node>
	<node id="-3051" lat="58.8633827153" lon="5.91492210561">
		<tag k="fixme" v="consider place=hamlet" />
		<tag k="name" v="Kjosavik" />
		<tag k="place" v="farm" />
		<tag k="ssr:stedsnr" v="304694" />
	</node>
	<node id="-3049" lat="58.8174732464" lon="5.89387200244">
		<tag k="fixme" v="consider place=hamlet" />
		<tag k="name" v="Åreskjold" />
		<tag k="place" v="farm" />
		<tag k="ssr:stedsnr" v="304501" />
	</node>
	<node id="-999" lat="58.850409135" lon="5.82561780682">
		<tag k="fixme" v="consider place=hamlet" />
		<tag k="name" v="Kylles" />
		<tag k="place" v="farm" />
		<tag k="ssr:stedsnr" v="243894" />
	</node>
	<node id="-3046" lat="58.8987166663" lon="6.09359445268">
		<tag k="name" v="Forsand" />
		<tag k="place" v="farm" />
		<tag k="ssr:stedsnr" v="304658" />
	</node>
	<node id="-997" lat="58.9475261968" lon="5.8957847238">
		<tag k="fixme" v="consider place=hamlet" />
		<tag k="name" v="Eltarvåg" />
		<tag k="place" v="farm" />
		<tag k="ssr:stedsnr" v="243786" />
	</node>
	<node id="-3044" lat="58.8964611072" lon="6.10347500762">
		<tag k="name" v="Myrbakken" />
		<tag k="place" v="farm" />
		<tag k="ssr:stedsnr" v="304655" />
	</node>
	<node id="-3043" lat="58.8967194471" lon="5.98645555633">
		<tag k="name" v="Hølelia" />
		<tag k="place" v="farm" />
		<tag k="ssr:stedsnr" v="304651" />
	</node>
	<node id="-3042" lat="58.9035470249" lon="5.89746149326">
		<tag k="fixme" v="consider place=hamlet" />
		<tag k="name" v="Bratthetland" />
		<tag k="place" v="farm" />
		<tag k="ssr:stedsnr" v="304648" />
	</node>
	<node id="-993" lat="58.9424688478" lon="6.1330087272">
		<tag k="alt_name" v="Viga" />
		<tag k="fixme" v="consider place=hamlet" />
		<tag k="name" v="Vika" />
		<tag k="place" v="farm" />
		<tag k="ssr:stedsnr" v="243721" />
	</node>
	<node id="-988" lat="58.9082750032" lon="6.1843138968">
		<tag k="name" v="Jonskardet" />
		<tag k="place" v="farm" />
		<tag k="ssr:stedsnr" v="243632" />
	</node>
	<node id="-985" lat="58.8659555572" lon="6.22800833646">
		<tag k="historic" v="shieling" />
		<tag k="name" v="Eikelandsstølen" />
		<tag k="place" v="locality" />
		<tag k="ssr:stedsnr" v="243665" />
	</node>
	<node id="-977" lat="58.9559638918" lon="6.17762777865">
		<tag k="name" v="Pålaplasset" />
		<tag k="place" v="locality" />
		<tag k="ssr:stedsnr" v="242001" />
	</node>
	<node id="-3018" lat="59.0276555587" lon="6.36988610939">
		<tag k="name" v="Solheim" />
		<tag k="place" v="farm" />
		<tag k="ssr:stedsnr" v="302250" />
	</node>
	<node id="-963" lat="59.0258861109" lon="6.34992500475">
		<tag k="name" v="Solbakk" />
		<tag k="place" v="farm" />
		<tag k="ssr:stedsnr" v="62039" />
	</node>
	<node id="-3010" lat="58.8847222189" lon="6.13759723093">
		<tag k="name" v="Brodane" />
		<tag k="place" v="farm" />
		<tag k="ssr:stedsnr" v="301182" />
	</node>
	<node id="-3008" lat="58.9164212708" lon="5.9991279206">
		<tag k="fixme" v="consider place=hamlet" />
		<tag k="name" v="Husabø" />
		<tag k="place" v="farm" />
		<tag k="ssr:stedsnr" v="208191" />
	</node>
	<node id="-3007" lat="58.8467027779" lon="5.7244472208">
		<tag k="name" v="Skeiane" />
		<tag k="place" v="farm" />
		<tag k="ssr:stedsnr" v="208086" />
	</node>
	<node id="-3006" lat="58.8468305596" lon="5.7324138814">
		<tag k="name" v="Skeiane" />
		<tag k="place" v="farm" />
		<tag k="ssr:stedsnr" v="208083" />
	</node>
	<node id="-3005" lat="58.8443805592" lon="5.70881110342">
		<tag k="name" v="Skeiane" />
		<tag k="place" v="farm" />
		<tag k="ssr:stedsnr" v="208038" />
	</node>
	<node id="-3004" lat="58.8483000034" lon="5.73806666786">
		<tag k="name" v="Skeiane" />
		<tag k="place" v="farm" />
		<tag k="ssr:stedsnr" v="208037" />
	</node>
	<node id="-1183" lat="58.8899096252" lon="6.27399538055">
		<tag k="alt_name" v="Nerespedalstølen;Espedalsstølen" />
		<tag k="historic" v="shieling" />
		<tag k="name" v="Nedre Espedalsstølen" />
		<tag k="place" v="locality" />
		<tag k="ssr:stedsnr" v="183755" />
	</node>
	<node id="-3000" lat="58.8767305563" lon="5.73160000799">
		<tag k="fixme" v="consider place=suburb, village or hamlet" />
		<tag k="name" v="Svingholen" />
		<tag k="place" v="quarter" />
		<tag k="ssr:stedsnr" v="206664" />
	</node>
	<node id="-2997" lat="58.8554388863" lon="5.78298888686">
		<tag k="name" v="Trødnes" />
		<tag k="place" v="farm" />
		<tag k="ssr:stedsnr" v="206627" />
	</node>
	<node id="-2996" lat="58.8196166631" lon="5.73629166368">
		<tag k="name" v="Holane" />
		<tag k="place" v="farm" />
		<tag k="ssr:stedsnr" v="206616" />
	</node>
	<node id="-2995" lat="58.8619837972" lon="5.69946202067">
		<tag k="alt_name" v="Soma kom. gard" />
		<tag k="name" v="Soma kommunegard" />
		<tag k="place" v="farm" />
		<tag k="ssr:stedsnr" v="206284" />
	</node>
	<node id="-2993" lat="58.8476694479" lon="5.68895833094">
		<tag k="name" v="Danseholen" />
		<tag k="place" v="farm" />
		<tag k="ssr:stedsnr" v="206281" />
	</node>
	<node id="-2992" lat="58.8474555546" lon="5.64798055151">
		<tag k="name" v="Auglend" />
		<tag k="place" v="farm" />
		<tag k="ssr:stedsnr" v="206269" />
	</node>
	<node id="-2991" lat="58.8495499999" lon="5.65263610341">
		<tag k="name" v="Melkeholen" />
		<tag k="place" v="farm" />
		<tag k="ssr:stedsnr" v="206267" />
	</node>
	<node id="-2989" lat="58.8275750041" lon="5.64638333576">
		<tag k="name" v="Håland" />
		<tag k="place" v="farm" />
		<tag k="ssr:stedsnr" v="206232" />
	</node>
	<node id="-940" lat="58.8935416679" lon="6.00963334066">
		<tag k="name" v="Voll" />
		<tag k="place" v="farm" />
		<tag k="ssr:stedsnr" v="40109" />
	</node>
	<node id="-2987" lat="58.8218805592" lon="5.6544194483">
		<tag k="name" v="Lunden" />
		<tag k="place" v="farm" />
		<tag k="ssr:stedsnr" v="206227" />
	</node>
	<node id="-935" lat="58.867302781" lon="5.86089722582">
		<tag k="name" v="Furenes" />
		<tag k="place" v="farm" />
		<tag k="ssr:stedsnr" v="27211" />
	</node>
	<node id="-2982" lat="58.8399388867" lon="5.866011109">
		<tag k="name" v="Heiå" />
		<tag k="place" v="farm" />
		<tag k="ssr:stedsnr" v="205992" />
	</node>
	<node id="-932" lat="58.8477416622" lon="5.73069165843">
		<tag k="name" v="Skeiane" />
		<tag k="place" v="farm" />
		<tag k="ssr:stedsnr" v="26045" />
	</node>
	<node id="-931" lat="58.8415027745" lon="5.70934166801">
		<tag k="name" v="Skeiane" />
		<tag k="place" v="farm" />
		<tag k="ssr:stedsnr" v="26042" />
	</node>
	<node id="-930" lat="58.848172219" lon="5.73784167333">
		<tag k="name" v="Skeiane" />
		<tag k="place" v="farm" />
		<tag k="ssr:stedsnr" v="26038" />
	</node>
	<node id="-929" lat="58.8403694412" lon="5.73952499529">
		<tag k="name" v="Tranegarden" />
		<tag k="place" v="farm" />
		<tag k="ssr:stedsnr" v="24637" />
	</node>
	<node id="-928" lat="58.8190027769" lon="5.75991111885">
		<tag k="name" v="Bjønnbåsen" />
		<tag k="place" v="farm" />
		<tag k="ssr:stedsnr" v="24624" />
	</node>
	<node id="-927" lat="58.8359777774" lon="5.6495833316">
		<tag k="name" v="Slåttå" />
		<tag k="place" v="farm" />
		<tag k="ssr:stedsnr" v="24223" />
	</node>
	<node id="-920" lat="58.8930472192" lon="5.83947500889">
		<tag k="name" v="Langaland" />
		<tag k="place" v="farm" />
		<tag k="ssr:stedsnr" v="23243" />
	</node>
	<node id="-910" lat="58.8612027743" lon="5.72571388277">
		<tag k="leisure" v="pitch" />
		<tag k="name" v="Idrettsplass" />
		<tag k="ssr:stedsnr" v="221320" />
	</node>
	<node id="-899" lat="58.8962203346" lon="6.22794909345">
		<tag k="fixme" v="consider place=hamlet" />
		<tag k="name" v="Løland" />
		<tag k="place" v="farm" />
		<tag k="ssr:stedsnr" v="724" />
	</node>
	<node id="-2942" lat="58.8704194466" lon="5.67147500227">
		<tag k="landuse" v="military" />
		<tag k="name" v="Somaleiren" />
		<tag k="ssr:stedsnr" v="183994" />
	</node>
	<node id="-2941" lat="58.8703055563" lon="5.76821666944">
		<tag k="name" v="Sandvika" />
		<tag k="old_name" v="Sandvik" />
		<tag k="place" v="farm" />
		<tag k="ssr:stedsnr" v="183991" />
	</node>
	<node id="-2940" lat="58.8113595567" lon="5.72226606062">
		<tag k="fixme" v="consider place=hamlet" />
		<tag k="name" v="Vagle" />
		<tag k="place" v="farm" />
		<tag k="ssr:stedsnr" v="183927" />
	</node>
	<node id="-2939" lat="58.8071792644" lon="5.68812652248">
		<tag k="alt_name" v="Skjeveland" />
		<tag k="fixme" v="consider place=hamlet" />
		<tag k="name" v="Skjæveland" />
		<tag k="place" v="farm" />
		<tag k="ssr:stedsnr" v="183920" />
	</node>
	<node id="-2938" lat="58.8360083301" lon="5.68724999485">
		<tag k="alt_name" v="Todneim" />
		<tag k="name" v="Todnheim" />
		<tag k="place" v="farm" />
		<tag k="ssr:stedsnr" v="183903" />
	</node>
	<node id="-2937" lat="58.83227384" lon="5.73155013192">
		<tag k="fixme" v="consider place=hamlet" />
		<tag k="name" v="Hove" />
		<tag k="place" v="farm" />
		<tag k="ssr:stedsnr" v="183889" />
	</node>
	<node id="-2936" lat="58.8281046947" lon="5.71106281013">
		<tag k="fixme" v="consider place=hamlet" />
		<tag k="name" v="Åse" />
		<tag k="place" v="farm" />
		<tag k="ssr:stedsnr" v="183885" />
	</node>
	<node id="-2935" lat="58.8206611074" lon="5.64549166459">
		<tag k="name" v="Lea" />
		<tag k="place" v="farm" />
		<tag k="ssr:stedsnr" v="183883" />
	</node>
	<node id="-2934" lat="58.9094805894" lon="5.92061655762">
		<tag k="alt_name" v="Stora Auglend;Store Augeland;store Auglend" />
		<tag k="fixme" v="consider place=hamlet" />
		<tag k="name" v="Storauglend" />
		<tag k="place" v="farm" />
		<tag k="ssr:stedsnr" v="183747" />
	</node>
	<node id="-1852" lat="58.8399694434" lon="5.66085277582">
		<tag k="alt_name" v="Malmeim" />
		<tag k="name" v="Malmheim" />
		<tag k="place" v="farm" />
		<tag k="ssr:stedsnr" v="607962" />
	</node>
	<node id="-2918" lat="58.8382649534" lon="5.84831251762">
		<tag k="alt_name" v="Foss-Vatne" />
		<tag k="fixme" v="consider place=hamlet" />
		<tag k="name" v="Fossvatne" />
		<tag k="place" v="farm" />
		<tag k="ssr:stedsnr" v="183581" />
	</node>
	<node id="-2901" lat="58.8554995106" lon="5.68566283851">
		<tag k="fixme" v="consider place=hamlet" />
		<tag k="name" v="Austvoll" />
		<tag k="place" v="farm" />
		<tag k="ssr:stedsnr" v="182981" />
	</node>
	<node id="-2900" lat="58.9095787836" lon="5.82552496791">
		<tag k="fixme" v="consider place=hamlet" />
		<tag k="name" v="Jødestad" />
		<tag k="place" v="farm" />
		<tag k="ssr:stedsnr" v="182953" />
	</node>
	<node id="-2895" lat="58.8958587143" lon="6.1628127428">
		<tag k="fixme" v="consider place=hamlet" />
		<tag k="name" v="Rettedal" />
		<tag k="place" v="farm" />
		<tag k="ssr:stedsnr" v="182661" />
	</node>
	<node id="-2893" lat="58.892499998" lon="6.05610832704">
		<tag k="alt_name" v="Lauvviga;Lauvvik" />
		<tag k="name" v="Lauvvika" />
		<tag k="place" v="farm" />
		<tag k="ssr:stedsnr" v="182645" />
	</node>
	<node id="-1845" lat="58.8688072524" lon="5.91669184839">
		<tag k="fixme" v="consider place=hamlet" />
		<tag k="name" v="Osaland" />
		<tag k="place" v="farm" />
		<tag k="ssr:stedsnr" v="607573" />
	</node>
	<node id="-1843" lat="58.8733724507" lon="6.13619293951">
		<tag k="alt_name" v="Rossavik" />
		<tag k="name" v="Rossavika" />
		<tag k="place" v="hamlet" />
		<tag k="ssr:stedsnr" v="607569" />
	</node>
	<node id="-2858" lat="58.8806694456" lon="6.20195832651">
		<tag k="name" v="Skallen" />
		<tag k="place" v="farm" />
		<tag k="ssr:stedsnr" v="161929" />
	</node>
	<node id="-2855" lat="58.8178472256" lon="5.72642777259">
		<tag k="name" v="Stokkaland" />
		<tag k="place" v="farm" />
		<tag k="ssr:stedsnr" v="155269" />
	</node>
	<node id="-2851" lat="58.8444472239" lon="5.70927778288">
		<tag k="name" v="Skeiane" />
		<tag k="place" v="farm" />
		<tag k="ssr:stedsnr" v="147091" />
	</node>
	<node id="-2850" lat="58.8429111143" lon="5.76795833079">
		<tag k="name" v="Skaret" />
		<tag k="place" v="farm" />
		<tag k="ssr:stedsnr" v="147067" />
	</node>
	<node id="-2849" lat="58.8420944476" lon="5.70905833599">
		<tag k="name" v="Skeiane" />
		<tag k="place" v="farm" />
		<tag k="ssr:stedsnr" v="147037" />
	</node>
	<node id="-2845" lat="58.8499055525" lon="5.79985833124">
		<tag k="name" v="Ognavik" />
		<tag k="place" v="farm" />
		<tag k="ssr:stedsnr" v="145643" />
	</node>
	<node id="-2844" lat="58.8191361145" lon="5.66738333845">
		<tag k="name" v="Småberg" />
		<tag k="place" v="farm" />
		<tag k="ssr:stedsnr" v="145801" />
	</node>
	<node id="-2843" lat="58.8394111106" lon="5.68507222581">
		<tag k="name" v="Trollsholen" />
		<tag k="place" v="farm" />
		<tag k="ssr:stedsnr" v="145788" />
	</node>
	<node id="-2840" lat="58.8724305563" lon="5.73395278553">
		<tag k="fixme" v="consider place=suburb, village or hamlet" />
		<tag k="name" v="Vodlageilen" />
		<tag k="old_name" v="Vollageilen" />
		<tag k="place" v="quarter" />
		<tag k="ssr:stedsnr" v="145672" />
	</node>
	<node id="-1155" lat="59.0549368191" lon="6.64860239317">
		<tag k="fixme" v="consider tourism=alpine_hut or tourism=chalet" />
		<tag k="name" v="Lysefjorden turisthytte" />
		<tag k="ssr:stedsnr" v="283153" />
		<tag k="tourism" v="wilderness_hut" />
	</node>
	<node id="-2832" lat="58.9171555545" lon="5.81687777917">
		<tag k="name" v="Slettebø" />
		<tag k="place" v="farm" />
		<tag k="ssr:stedsnr" v="145048" />
	</node>
	<node id="-2819" lat="58.8997361124" lon="5.83958611639">
		<tag k="name" v="Nygård" />
		<tag k="place" v="farm" />
		<tag k="ssr:stedsnr" v="144218" />
	</node>
	<node id="-2799" lat="58.8629305537" lon="5.98009999934">
		<tag k="name" v="Stølen" />
		<tag k="place" v="farm" />
		<tag k="ssr:stedsnr" v="144082" />
	</node>
	<node id="-2792" lat="59.1124564866" lon="6.8765808184">
		<tag k="fixme" v="consider tourism=alpine_hut or tourism=chalet" />
		<tag k="name" v="Grautheller" />
		<tag k="old_name" v="Grautheller turisthytte" />
		<tag k="ssr:stedsnr" v="141430" />
		<tag k="tourism" v="wilderness_hut" />
	</node>
	<node id="-2788" lat="59.0130399223" lon="6.42617083791">
		<tag k="fixme" v="consider place=hamlet" />
		<tag k="name" v="Flørli" />
		<tag k="place" v="farm" />
		<tag k="ssr:stedsnr" v="123219" />
	</node>
	<node id="-2768" lat="58.8493301478" lon="5.70660208291">
		<tag k="name" v="Stangaland" />
		<tag k="place" v="village" />
		<tag k="ssr:stedsnr" v="122978" />
	</node>
	<node id="-2766" lat="58.8670060612" lon="5.72080330755">
		<tag k="fixme" v="consider place=hamlet" />
		<tag k="name" v="Lura" />
		<tag k="place" v="farm" />
		<tag k="ssr:stedsnr" v="122925" />
	</node>
	<node id="-2765" lat="58.818930552" lon="5.7612222286">
		<tag k="name" v="Myra" />
		<tag k="place" v="farm" />
		<tag k="ssr:stedsnr" v="122911" />
	</node>
	<node id="-2764" lat="58.8302037882" lon="5.62227761297">
		<tag k="fixme" v="consider place=hamlet" />
		<tag k="name" v="Heigre" />
		<tag k="old_name" v="Hegre" />
		<tag k="place" v="farm" />
		<tag k="ssr:stedsnr" v="122882" />
	</node>
	<node id="-2763" lat="58.7866305582" lon="5.81547222191">
		<tag k="name" v="Figgjo" />
		<tag k="place" v="village" />
		<tag k="ssr:stedsnr" v="122813" />
	</node>
	<node id="-2759" lat="58.950387968" lon="5.92292646982">
		<tag k="alt_name" v="Skrubbatona" />
		<tag k="name" v="Ladervik" />
		<tag k="place" v="farm" />
		<tag k="ssr:stedsnr" v="122791" />
	</node>
	<node id="-2747" lat="58.9214571659" lon="5.90737321705">
		<tag k="alt_name" v="Lundekvammen" />
		<tag k="loc_name" v="Marahålå" />
		<tag k="name" v="Lundekvam" />
		<tag k="place" v="locality" />
		<tag k="ssr:stedsnr" v="122722" />
	</node>
	<node id="-2746" lat="58.9184305578" lon="5.92275554712">
		<tag k="name" v="Svea" />
		<tag k="place" v="farm" />
		<tag k="ssr:stedsnr" v="122717" />
	</node>
	<node id="-2745" lat="58.9210249975" lon="5.92915277107">
		<tag k="name" v="Kvelvane" />
		<tag k="place" v="farm" />
		<tag k="ssr:stedsnr" v="122716" />
	</node>
	<node id="-2744" lat="58.9267083294" lon="5.92732221587">
		<tag k="name" v="Vårli" />
		<tag k="place" v="farm" />
		<tag k="ssr:stedsnr" v="122702" />
	</node>
	<node id="-2742" lat="58.9554161226" lon="6.17376812748">
		<tag k="alt_name" v="Nedre Eiane;Ytra Eidane" />
		<tag k="fixme" v="consider place=hamlet" />
		<tag k="name" v="Nedreidane" />
		<tag k="place" v="farm" />
		<tag k="ssr:stedsnr" v="122684" />
	</node>
	<node id="-2739" lat="58.8931000032" lon="5.85050000285">
		<tag k="name" v="Voll" />
		<tag k="place" v="farm" />
		<tag k="ssr:stedsnr" v="122644" />
	</node>
	<node id="-2737" lat="58.8364791882" lon="5.97358273959">
		<tag k="fixme" v="consider place=hamlet" />
		<tag k="name" v="Nordland" />
		<tag k="place" v="farm" />
		<tag k="ssr:stedsnr" v="122588" />
	</node>
	<node id="-2731" lat="58.8720777796" lon="6.00965555329">
		<tag k="name" v="Hølestøl" />
		<tag k="place" v="farm" />
		<tag k="ssr:stedsnr" v="122553" />
	</node>
	<node id="-2720" lat="58.9262194409" lon="5.81266667493">
		<tag k="name" v="Li" />
		<tag k="place" v="farm" />
		<tag k="ssr:stedsnr" v="122240" />
	</node>
	<node id="-2714" lat="59.0640722802" lon="6.33935072594">
		<tag k="fixme" v="consider place=hamlet" />
		<tag k="name" v="Sundmork" />
		<tag k="place" v="farm" />
		<tag k="ssr:stedsnr" v="122022" />
	</node>
	<node id="-2684" lat="58.863172219" lon="6.06584165975">
		<tag k="historic" v="shieling" />
		<tag k="name" v="Selvikstølen" />
		<tag k="place" v="locality" />
		<tag k="ssr:stedsnr" v="119176" />
	</node>
	<node id="-2671" lat="58.8953055511" lon="6.22233888761">
		<tag k="name" v="Der ute" />
		<tag k="place" v="farm" />
		<tag k="ssr:stedsnr" v="102171" />
	</node>
	<node id="-2668" lat="58.8761479455" lon="6.19198799292">
		<tag k="fixme" v="consider place=hamlet" />
		<tag k="name" v="Drivflåt" />
		<tag k="place" v="farm" />
		<tag k="ssr:stedsnr" v="101958" />
	</node>
	<node id="-2664" lat="58.8507835683" lon="5.75175382964">
		<tag k="name" v="Høgevoll" />
		<tag k="place" v="isolated_dwelling" />
		<tag k="ssr:stedsnr" v="100438" />
	</node>
	<node id="-2660" lat="58.8430666623" lon="5.76885555446">
		<tag k="name" v="Skaret" />
		<tag k="place" v="farm" />
		<tag k="ssr:stedsnr" v="87068" />
	</node>
	<node id="-1467" lat="58.9490722261" lon="5.87007500377">
		<tag k="name" v="Lauvåsvågen" />
		<tag k="place" v="farm" />
		<tag k="ssr:stedsnr" v="364805" />
	</node>
	<node id="-2651" lat="58.8764722212" lon="5.73351944834">
		<tag k="fixme" v="consider place=suburb, village or hamlet" />
		<tag k="name" v="Staraberget" />
		<tag k="place" v="quarter" />
		<tag k="ssr:stedsnr" v="84699" />
	</node>
	<node id="-1806" lat="58.869372219" lon="5.73346111914">
		<tag k="fixme" v="consider place=suburb, village or hamlet" />
		<tag k="name" v="Vibemyr" />
		<tag k="place" v="quarter" />
		<tag k="ssr:stedsnr" v="570664" />
	</node>
	<node id="-1179" lat="58.8648277738" lon="6.00967499953">
		<tag k="alt_name" v="Kvervå" />
		<tag k="name" v="Kvervo" />
		<tag k="place" v="farm" />
		<tag k="ssr:stedsnr" v="182559" />
	</node>
	<node id="-2626" lat="58.8666027798" lon="5.73063333428">
		<tag k="alt_name" v="Varatun" />
		<tag k="name" v="Vardatun" />
		<tag k="place" v="farm" />
		<tag k="ssr:stedsnr" v="62995" />
	</node>
	<node id="-2625" lat="58.8880760976" lon="5.81344978713">
		<tag k="fixme" v="consider place=hamlet" />
		<tag k="name" v="Fjogstad" />
		<tag k="place" v="farm" />
		<tag k="ssr:stedsnr" v="62946" />
	</node>
	<node id="-2624" lat="58.7996753571" lon="5.83184851686">
		<tag k="alt_name" v="Tjesseim" />
		<tag k="fixme" v="consider place=hamlet" />
		<tag k="name" v="Tjessheim" />
		<tag k="place" v="farm" />
		<tag k="ssr:stedsnr" v="62918" />
	</node>
	<node id="-2621" lat="59.055402866" lon="6.64853378308">
		<tag k="fixme" v="consider place=hamlet" />
		<tag k="name" v="Lysebotn" />
		<tag k="place" v="village" />
		<tag k="ssr:stedsnr" v="62797" />
	</node>
	<node id="-2615" lat="58.9098555512" lon="5.92693333657">
		<tag k="name" v="Dalen" />
		<tag k="place" v="farm" />
		<tag k="ssr:stedsnr" v="62746" />
	</node>
	<node id="-2587" lat="58.8656694429" lon="5.7601722154">
		<tag k="alt_name" v="Asparholen" />
		<tag k="name" v="Asperholen" />
		<tag k="place" v="farm" />
		<tag k="ssr:stedsnr" v="61979" />
	</node>
	<node id="-2586" lat="58.8230138921" lon="5.71723889549">
		<tag k="name" v="Ganddal" />
		<tag k="place" v="village" />
		<tag k="ssr:stedsnr" v="61930" />
	</node>
	<node id="-2585" lat="58.8118166684" lon="5.76848334124">
		<tag k="name" v="Osli" />
		<tag k="place" v="farm" />
		<tag k="ssr:stedsnr" v="61929" />
	</node>
	<node id="-2584" lat="58.8331178492" lon="5.69654938206">
		<tag k="alt_name" v="Åsheim;Asseim" />
		<tag k="fixme" v="consider place=hamlet" />
		<tag k="name" v="Assheim" />
		<tag k="place" v="farm" />
		<tag k="ssr:stedsnr" v="61903" />
	</node>
	<node id="-2583" lat="58.8410269829" lon="5.76574029408">
		<tag k="fixme" v="consider place=hamlet" />
		<tag k="name" v="Skaret" />
		<tag k="place" v="farm" />
		<tag k="ssr:stedsnr" v="61892" />
	</node>
	<node id="-2581" lat="58.8298833366" lon="5.75862778377">
		<tag k="name" v="Vollen" />
		<tag k="place" v="farm" />
		<tag k="ssr:stedsnr" v="61879" />
	</node>
	<node id="-2580" lat="58.8277433686" lon="5.72524286917">
		<tag k="fixme" v="consider place=hamlet" />
		<tag k="name" v="Sørbø" />
		<tag k="place" v="farm" />
		<tag k="ssr:stedsnr" v="61878" />
	</node>
	<node id="-2579" lat="58.8296550692" lon="5.68409059296">
		<tag k="alt_name" v="Todneim" />
		<tag k="fixme" v="consider place=hamlet" />
		<tag k="name" v="Todnheim" />
		<tag k="place" v="farm" />
		<tag k="ssr:stedsnr" v="61876" />
	</node>
	<node id="-2578" lat="58.9488005712" lon="5.878367435">
		<tag k="name" v="Slåttebakk" />
		<tag k="place" v="farm" />
		<tag k="ssr:stedsnr" v="61779" />
	</node>
	<node id="-2572" lat="58.896002777" lon="6.13636389672">
		<tag k="name" v="Heimdal" />
		<tag k="place" v="farm" />
		<tag k="ssr:stedsnr" v="61646" />
	</node>
	<node id="-2570" lat="58.892191669" lon="5.94204443985">
		<tag k="alt_name" v="Imsalia" />
		<tag k="name" v="Lia" />
		<tag k="place" v="farm" />
		<tag k="ssr:stedsnr" v="61635" />
	</node>
	<node id="-2569" lat="58.8955722255" lon="6.00926666622">
		<tag k="fixme" v="consider place=hamlet" />
		<tag k="name" v="Høle" />
		<tag k="place" v="village" />
		<tag k="ssr:stedsnr" v="61621" />
	</node>
	<node id="-1792" lat="58.8423083295" lon="5.71208889477">
		<tag k="name" v="Skeiane" />
		<tag k="place" v="farm" />
		<tag k="ssr:stedsnr" v="693101" />
	</node>
	<node id="-1109" lat="58.8638722219" lon="5.71793055424">
		<tag k="name" v="Maurholen" />
		<tag k="place" v="farm" />
		<tag k="ssr:stedsnr" v="266336" />
	</node>
	<node id="-2556" lat="58.9018402713" lon="5.84382911852">
		<tag k="fixme" v="consider place=hamlet" />
		<tag k="name" v="Haugaland" />
		<tag k="place" v="farm" />
		<tag k="ssr:stedsnr" v="61222" />
	</node>
	<node id="-2548" lat="59.030754271" lon="6.38256652408">
		<tag k="name" v="Skoglund" />
		<tag k="place" v="farm" />
		<tag k="ssr:stedsnr" v="60213" />
	</node>
	<node id="-1790" lat="58.8416527771" lon="5.70925555702">
		<tag k="name" v="Skeiane" />
		<tag k="place" v="farm" />
		<tag k="ssr:stedsnr" v="693041" />
	</node>
	<node id="-2535" lat="58.850572225" lon="6.00945832884">
		<tag k="name" v="Nordheim" />
		<tag k="place" v="farm" />
		<tag k="ssr:stedsnr" v="59838" />
	</node>
	<node id="-2525" lat="58.8847694441" lon="6.21249167395">
		<tag k="name" v="Kvednabakken" />
		<tag k="place" v="farm" />
		<tag k="ssr:stedsnr" v="59143" />
	</node>
	<node id="-2521" lat="58.8900944403" lon="6.21777500769">
		<tag k="name" v="Aunå" />
		<tag k="place" v="farm" />
		<tag k="ssr:stedsnr" v="59106" />
	</node>
	<node id="-2512" lat="58.8610666693" lon="6.15604722888">
		<tag k="name" v="Hagjen" />
		<tag k="place" v="farm" />
		<tag k="ssr:stedsnr" v="57916" />
	</node>
	<node id="-2063" lat="58.8999661649" lon="6.09380805807">
		<tag k="fixme" v="consider place=hamlet" />
		<tag k="name" v="Fossan" />
		<tag k="place" v="farm" />
		<tag k="ssr:stedsnr" v="908564" />
	</node>
	<node id="-2483" lat="58.8387111079" lon="5.78493055394">
		<tag k="name" v="Skaret" />
		<tag k="place" v="farm" />
		<tag k="ssr:stedsnr" v="26153" />
	</node>
	<node id="-2482" lat="58.8449166687" lon="5.72119166347">
		<tag k="name" v="Skeiane" />
		<tag k="place" v="farm" />
		<tag k="ssr:stedsnr" v="26099" />
	</node>
	<node id="-2481" lat="58.8427000022" lon="5.77033333692">
		<tag k="name" v="Skaret" />
		<tag k="place" v="farm" />
		<tag k="ssr:stedsnr" v="26144" />
	</node>
	<node id="-2480" lat="58.84271667" lon="5.76981111073">
		<tag k="name" v="Skaret" />
		<tag k="place" v="farm" />
		<tag k="ssr:stedsnr" v="26143" />
	</node>
	<node id="-2479" lat="58.8428888915" lon="5.77026111935">
		<tag k="name" v="Skaret" />
		<tag k="place" v="farm" />
		<tag k="ssr:stedsnr" v="26142" />
	</node>
	<node id="-2477" lat="58.8243583319" lon="5.66586110607">
		<tag k="name" v="Hedleholen" />
		<tag k="place" v="farm" />
		<tag k="ssr:stedsnr" v="24804" />
	</node>
	<node id="-2474" lat="58.8789833337" lon="5.73339999382">
		<tag k="name" v="Porsholen" />
		<tag k="place" v="farm" />
		<tag k="ssr:stedsnr" v="24686" />
	</node>
	<node id="-2473" lat="58.7852574294" lon="5.8063078838">
		<tag k="fixme" v="consider place=hamlet" />
		<tag k="name" v="Figved" />
		<tag k="place" v="farm" />
		<tag k="ssr:stedsnr" v="24665" />
	</node>
	<node id="-1435" lat="58.904438735" lon="5.83030337697">
		<tag k="fixme" v="consider place=hamlet" />
		<tag k="name" v="Skjørestad" />
		<tag k="place" v="farm" />
		<tag k="ssr:stedsnr" v="486966" />
	</node>
	<node id="-2450" lat="58.9852978656" lon="6.35051714802">
		<tag k="fixme" v="consider tourism=alpine_hut or tourism=chalet" />
		<tag k="name" v="Gamle Skåpet" />
		<tag k="old_name" v="Skåpet" />
		<tag k="ssr:stedsnr" v="21079" />
		<tag k="tourism" v="wilderness_hut" />
	</node>
	<node id="-2444" lat="58.8134833309" lon="5.75708055696">
		<tag k="alt_name" v="Boggeland" />
		<tag k="name" v="Buggeland" />
		<tag k="place" v="farm" />
		<tag k="ssr:stedsnr" v="1933" />
	</node>
	<node id="-2443" lat="58.7966588243" lon="5.81307082729">
		<tag k="alt_name" v="Sauaheia" />
		<tag k="name" v="Fjellheim" />
		<tag k="place" v="farm" />
		<tag k="ssr:stedsnr" v="1908" />
	</node>
	<node id="-2442" lat="58.8254333327" lon="5.72108332837">
		<tag k="name" v="Lunde" />
		<tag k="place" v="farm" />
		<tag k="ssr:stedsnr" v="1886" />
	</node>
	<node id="-3479" lat="58.7908472202" lon="5.83594444541">
		<tag k="name" v="Myra" />
		<tag k="place" v="farm" />
		<tag k="ssr:stedsnr" v="547850" />
	</node>
	<node id="-2437" lat="59.0456499993" lon="6.6536722213">
		<tag k="building" v="commercial" />
		<tag k="name" v="Øygardsstølen" />
		<tag k="ssr:stedsnr" v="1778" />
	</node>
	<node id="-2433" lat="58.9634402949" lon="5.88584468118">
		<tag k="name" v="Galtavik" />
		<tag k="place" v="farm" />
		<tag k="ssr:stedsnr" v="1760" />
	</node>
	<node id="-2429" lat="58.9116361086" lon="5.84401666458">
		<tag k="name" v="Storhaug" />
		<tag k="place" v="farm" />
		<tag k="ssr:stedsnr" v="1746" />
	</node>
	<node id="-2428" lat="58.9071884003" lon="6.02356187844">
		<tag k="alt_name" v="Litle-Ådnøy;Litle Ådnøy" />
		<tag k="fixme" v="consider place=hamlet" />
		<tag k="name" v="Litlådnøyna" />
		<tag k="place" v="farm" />
		<tag k="ssr:stedsnr" v="1738" />
	</node>
	<node id="-2425" lat="58.9166916674" lon="6.27493333903">
		<tag k="name" v="Gjerdet" />
		<tag k="place" v="farm" />
		<tag k="ssr:stedsnr" v="1711" />
	</node>
	<node id="-1427" lat="58.88173749" lon="6.20702524579">
		<tag k="fixme" v="consider place=hamlet" />
		<tag k="name" v="Eikjeland" />
		<tag k="place" v="farm" />
		<tag k="ssr:stedsnr" v="486694" />
	</node>
	<node id="-1768" lat="58.8452847308" lon="5.72024870209">
		<tag k="fixme" v="consider place=hamlet" />
		<tag k="name" v="Skeiane" />
		<tag k="place" v="farm" />
		<tag k="ssr:stedsnr" v="691323" />
	</node>
	<node id="-2414" lat="58.8474361111" lon="6.00418332855">
		<tag k="alt_name" v="Hamrabø" />
		<tag k="name" v="Hammarbø" />
		<tag k="place" v="farm" />
		<tag k="ssr:stedsnr" v="1598" />
	</node>
	<node id="-2413" lat="58.850896326" lon="5.88764474185">
		<tag k="fixme" v="consider place=hamlet" />
		<tag k="name" v="Nordland" />
		<tag k="place" v="farm" />
		<tag k="ssr:stedsnr" v="1588" />
	</node>
	<node id="-1426" lat="58.8957171095" lon="6.1458619696">
		<tag k="name" v="Slettabø" />
		<tag k="place" v="farm" />
		<tag k="ssr:stedsnr" v="486684" />
	</node>
	<node id="-2387" lat="58.861484334" lon="6.15712629018">
		<tag k="alt_name" v="Mele" />
		<tag k="fixme" v="consider place=hamlet" />
		<tag k="name" v="Mæle" />
		<tag k="place" v="farm" />
		<tag k="ssr:stedsnr" v="578" />
	</node>
	<node id="-2382" lat="58.8804523856" lon="6.19415988146">
		<tag k="fixme" v="consider place=hamlet" />
		<tag k="name" v="Byrkjeland" />
		<tag k="place" v="farm" />
		<tag k="ssr:stedsnr" v="678" />
	</node>
	<node id="-2376" lat="58.8474677599" lon="5.720317143">
		<tag k="amenity" v="school" />
		<tag k="name" v="Skeiane ungdomsskole" />
		<tag k="ssr:stedsnr" v="985188" />
	</node>
	<node id="-2375" lat="59.1156715716" lon="6.87539067265">
		<tag k="fixme" v="consider tourism=alpine_hut or tourism=chalet" />
		<tag k="name" v="Grautheller" />
		<tag k="ssr:stedsnr" v="979824" />
		<tag k="tourism" v="wilderness_hut" />
	</node>
	<node id="-2374" lat="58.9867541397" lon="6.34233300485">
		<tag k="fixme" v="consider tourism=alpine_hut or tourism=chalet" />
		<tag k="name" v="Skåpet" />
		<tag k="old_name" v="Nye Skåpet" />
		<tag k="ssr:stedsnr" v="971463" />
		<tag k="tourism" v="wilderness_hut" />
	</node>
	<node id="-2364" lat="58.8970750006" lon="6.13824167401">
		<tag k="name" v="Odda" />
		<tag k="place" v="farm" />
		<tag k="ssr:stedsnr" v="969213" />
	</node>
	<node id="-2441" lat="58.7875362973" lon="5.82139767973">
		<tag k="alt_name" v="Håland, øvre;Håland øvre" />
		<tag k="fixme" v="consider place=hamlet" />
		<tag k="name" v="Øvre Håland" />
		<tag k="place" v="farm" />
		<tag k="ssr:stedsnr" v="1838" />
	</node>
	<node id="-2352" lat="58.8937666652" lon="6.00614167522">
		<tag k="name" v="Runnane" />
		<tag k="place" v="farm" />
		<tag k="ssr:stedsnr" v="950116" />
	</node>
	<node id="-2346" lat="58.8597722192" lon="5.72392778324">
		<tag k="leisure" v="pitch" />
		<tag k="name" v="Sandnes stadion" />
		<tag k="ssr:stedsnr" v="934624" />
	</node>
	<node id="-2345" lat="58.8519246688" lon="5.71232122793">
		<tag k="fixme" v="consider place=hamlet" />
		<tag k="name" v="Stangaland" />
		<tag k="place" v="farm" />
		<tag k="ssr:stedsnr" v="934615" />
	</node>
	<node id="-2344" lat="58.8676888876" lon="5.6907166715">
		<tag k="name" v="Skjekkjå" />
		<tag k="place" v="farm" />
		<tag k="ssr:stedsnr" v="934305" />
	</node>
	<node id="-2343" lat="58.8395999975" lon="5.65778888689">
		<tag k="name" v="Ægrå" />
		<tag k="place" v="farm" />
		<tag k="ssr:stedsnr" v="934221" />
	</node>
	<node id="-2342" lat="58.8227361128" lon="5.66098610283">
		<tag k="name" v="Stuttland" />
		<tag k="place" v="farm" />
		<tag k="ssr:stedsnr" v="934220" />
	</node>
	<node id="-2340" lat="58.9340075637" lon="5.8388990214">
		<tag k="name" v="Ulsnes" />
		<tag k="place" v="locality" />
		<tag k="ssr:stedsnr" v="933133" />
	</node>
	<node id="-2325" lat="58.9269793762" lon="5.85441860877">
		<tag k="fixme" v="consider place=hamlet" />
		<tag k="name" v="Hommersåk" />
		<tag k="place" v="farm" />
		<tag k="ssr:stedsnr" v="933005" />
	</node>
	<node id="-2305" lat="58.8577194404" lon="5.77847777926">
		<tag k="name" v="Voll" />
		<tag k="place" v="farm" />
		<tag k="ssr:stedsnr" v="873622" />
	</node>
	<node id="-2303" lat="58.991691663" lon="6.61459999875">
		<tag k="fixme" v="consider tourism=alpine_hut or tourism=chalet" />
		<tag k="name" v="Langavatn" />
		<tag k="ssr:stedsnr" v="873507" />
		<tag k="tourism" v="wilderness_hut" />
	</node>
	<node id="-2293" lat="58.9576805536" lon="5.84422499855">
		<tag k="name" v="Sørvik" />
		<tag k="place" v="farm" />
		<tag k="ssr:stedsnr" v="872108" />
	</node>
	<node id="-2281" lat="58.8055916657" lon="5.79526943726">
		<tag k="name" v="Vassvik" />
		<tag k="place" v="farm" />
		<tag k="ssr:stedsnr" v="851919" />
	</node>
	<node id="-2280" lat="58.8024212482" lon="5.73231727041">
		<tag k="alt_name" v="Foss Eikjeland;Foss-Eikeland" />
		<tag k="fixme" v="consider place=hamlet" />
		<tag k="name" v="Foss-Eikjeland" />
		<tag k="place" v="farm" />
		<tag k="ssr:stedsnr" v="851906" />
	</node>
	<node id="-2279" lat="58.7989439338" lon="5.78781230901">
		<tag k="fixme" v="consider place=hamlet" />
		<tag k="name" v="Bråstein" />
		<tag k="place" v="farm" />
		<tag k="ssr:stedsnr" v="851903" />
	</node>
	<node id="-2276" lat="58.9604424475" lon="5.86601970531">
		<tag k="name" v="Stølsvik" />
		<tag k="place" v="farm" />
		<tag k="ssr:stedsnr" v="851803" />
	</node>
	<node id="-2275" lat="58.8776750014" lon="6.07821110804">
		<tag k="alt_name" v="Krånå" />
		<tag k="name" v="Kråno" />
		<tag k="place" v="farm" />
		<tag k="ssr:stedsnr" v="851663" />
	</node>
	<node id="-2262" lat="58.8470527792" lon="5.73106111246">
		<tag k="name" v="Skeiane" />
		<tag k="place" v="farm" />
		<tag k="ssr:stedsnr" v="936087" />
	</node>
	<node id="-2261" lat="58.8402888927" lon="5.70613333552">
		<tag k="name" v="Skeiane" />
		<tag k="place" v="farm" />
		<tag k="ssr:stedsnr" v="936086" />
	</node>
	<node id="-2260" lat="58.8428694403" lon="5.76929166702">
		<tag k="name" v="Skaret" />
		<tag k="place" v="farm" />
		<tag k="ssr:stedsnr" v="936068" />
	</node>
	<node id="-2258" lat="58.8449722216" lon="5.70814721963">
		<tag k="name" v="Skeiane" />
		<tag k="place" v="farm" />
		<tag k="ssr:stedsnr" v="936037" />
	</node>
	<node id="-2257" lat="58.8358138891" lon="5.66687222205">
		<tag k="name" v="Varholen" />
		<tag k="place" v="farm" />
		<tag k="ssr:stedsnr" v="935782" />
	</node>
	<node id="-2245" lat="58.8748916705" lon="5.71328333763">
		<tag k="name" v="Holen" />
		<tag k="place" v="farm" />
		<tag k="ssr:stedsnr" v="934301" />
	</node>
	<node id="-1848" lat="58.8409361138" lon="5.99125555319">
		<tag k="name" v="Hagen" />
		<tag k="place" v="farm" />
		<tag k="ssr:stedsnr" v="607594" />
	</node>
	<node id="-2243" lat="58.8462277798" lon="5.70255555639">
		<tag k="name" v="Kvernhusholen" />
		<tag k="place" v="farm" />
		<tag k="ssr:stedsnr" v="934263" />
	</node>
	<node id="-2242" lat="58.8423638879" lon="5.68027222678">
		<tag k="name" v="Helhei" />
		<tag k="place" v="farm" />
		<tag k="ssr:stedsnr" v="934259" />
	</node>
	<node id="-2238" lat="58.9174583318" lon="5.81873888517">
		<tag k="name" v="Bø" />
		<tag k="place" v="farm" />
		<tag k="ssr:stedsnr" v="934055" />
	</node>
	<node id="-2221" lat="58.8427138932" lon="5.76792499398">
		<tag k="name" v="Skaret" />
		<tag k="place" v="farm" />
		<tag k="ssr:stedsnr" v="815125" />
	</node>
	<node id="-2220" lat="58.8423305516" lon="5.76872500284">
		<tag k="name" v="Skaret" />
		<tag k="place" v="farm" />
		<tag k="ssr:stedsnr" v="815121" />
	</node>
	<node id="-2216" lat="58.9159805568" lon="5.96609999742">
		<tag k="name" v="Kattaberget" />
		<tag k="place" v="isolated_dwelling" />
		<tag k="ssr:stedsnr" v="811050" />
	</node>
	<node id="-2210" lat="59.0694805542" lon="6.74333333805">
		<tag k="name" v="Dalabu" />
		<tag k="place" v="isolated_dwelling" />
		<tag k="ssr:stedsnr" v="791154" />
	</node>
	<node id="-2206" lat="59.0406733515" lon="6.51415453556">
		<tag k="fixme" v="consider place=hamlet" />
		<tag k="name" v="Håheller" />
		<tag k="place" v="farm" />
		<tag k="ssr:stedsnr" v="790186" />
	</node>
	<node id="-2204" lat="59.0202611121" lon="6.28666111677">
		<tag k="name" v="Myra" />
		<tag k="place" v="isolated_dwelling" />
		<tag k="ssr:stedsnr" v="790175" />
	</node>
	<node id="-2202" lat="58.89913778" lon="5.77840920953">
		<tag k="fixme" v="consider place=hamlet" />
		<tag k="name" v="Dale" />
		<tag k="place" v="farm" />
		<tag k="ssr:stedsnr" v="789954" />
	</node>
	<node id="-2198" lat="58.8567833359" lon="5.85779167448">
		<tag k="name" v="Alsvik" />
		<tag k="place" v="farm" />
		<tag k="ssr:stedsnr" v="789574" />
	</node>
	<node id="-2195" lat="58.8937240119" lon="6.10511887768">
		<tag k="alt_name" v="Fossanhagen" />
		<tag k="name" v="Forsandhagen" />
		<tag k="place" v="isolated_dwelling" />
		<tag k="ssr:stedsnr" v="789644" />
	</node>
	<node id="-2194" lat="58.898213892" lon="6.11334999927">
		<tag k="name" v="Åslund" />
		<tag k="place" v="farm" />
		<tag k="ssr:stedsnr" v="789640" />
	</node>
	<node id="-2193" lat="58.822138503" lon="5.93987701037">
		<tag k="name" v="Svihus" />
		<tag k="place" v="farm" />
		<tag k="ssr:stedsnr" v="789239" />
	</node>
	<node id="-2192" lat="58.9235272702" lon="5.80808714781">
		<tag k="fixme" v="consider place=hamlet" />
		<tag k="name" v="Li" />
		<tag k="place" v="farm" />
		<tag k="ssr:stedsnr" v="789010" />
	</node>
	<node id="-2185" lat="58.953047223" lon="6.17950278448">
		<tag k="name" v="Holte" />
		<tag k="place" v="locality" />
		<tag k="ssr:stedsnr" v="788005" />
	</node>
	<node id="-2171" lat="58.8950432978" lon="6.01467476155">
		<tag k="fixme" v="consider place=hamlet" />
		<tag k="name" v="Høle" />
		<tag k="place" v="farm" />
		<tag k="ssr:stedsnr" v="768150" />
	</node>
	<node id="-2167" lat="59.0173763581" lon="6.32325959133">
		<tag k="fixme" v="consider place=hamlet" />
		<tag k="name" v="Songesand" />
		<tag k="place" v="farm" />
		<tag k="ssr:stedsnr" v="912201" />
	</node>
	<node id="-2165" lat="59.0934722209" lon="6.61900833105">
		<tag k="historic" v="shieling" />
		<tag k="name" v="Krokstøl" />
		<tag k="place" v="locality" />
		<tag k="ssr:stedsnr" v="912181" />
	</node>
	<node id="-2164" lat="59.0908833318" lon="6.64675832728">
		<tag k="historic" v="shieling" />
		<tag k="name" v="Tangastølen" />
		<tag k="place" v="locality" />
		<tag k="ssr:stedsnr" v="912175" />
	</node>
	<node id="-1725" lat="58.8572611119" lon="5.67675555036">
		<tag k="name" v="Haugen" />
		<tag k="place" v="farm" />
		<tag k="ssr:stedsnr" v="509282" />
	</node>
	<node id="-2153" lat="59.0602712808" lon="6.4183370722">
		<tag k="historic" v="shieling" />
		<tag k="name" v="Helmikstølen" />
		<tag k="place" v="locality" />
		<tag k="ssr:stedsnr" v="912044" />
	</node>
	<node id="-2148" lat="58.8509083329" lon="5.74080554881">
		<tag k="name" v="Sandnes" />
		<tag k="place" v="town" />
		<tag k="ssr:stedsnr" v="911983" />
	</node>
	<node id="-2146" lat="58.8588277742" lon="5.78918333909">
		<tag k="landuse" v="military" />
		<tag k="name" v="Vatneleiren" />
		<tag k="ssr:stedsnr" v="911977" />
	</node>
	<node id="-2145" lat="58.8594565034" lon="5.8407568897">
		<tag k="fixme" v="consider place=hamlet" />
		<tag k="name" v="Alsnes" />
		<tag k="place" v="farm" />
		<tag k="ssr:stedsnr" v="911965" />
	</node>
	<node id="-1981" lat="59.0394361149" lon="6.33125000178">
		<tag k="historic" v="shieling" />
		<tag k="name" v="Songesandstølen" />
		<tag k="place" v="locality" />
		<tag k="ssr:stedsnr" v="730028" />
	</node>
	<node id="-2141" lat="58.8085678497" lon="5.82513242182">
		<tag k="fixme" v="consider place=hamlet" />
		<tag k="name" v="Espeland" />
		<tag k="place" v="farm" />
		<tag k="ssr:stedsnr" v="911907" />
	</node>
	<node id="-2138" lat="58.8473081888" lon="5.78023415326">
		<tag k="fixme" v="consider place=hamlet" />
		<tag k="name" v="Auestad" />
		<tag k="place" v="farm" />
		<tag k="ssr:stedsnr" v="911886" />
	</node>
	<node id="-2137" lat="58.8382083328" lon="5.73245556158">
		<tag k="name" v="Kvelluren" />
		<tag k="old_name" v="Kjellurda" />
		<tag k="place" v="farm" />
		<tag k="ssr:stedsnr" v="911882" />
	</node>
	<node id="-2136" lat="58.8153577934" lon="5.7194579686">
		<tag k="fixme" v="consider place=hamlet" />
		<tag k="name" v="Kvål" />
		<tag k="place" v="farm" />
		<tag k="ssr:stedsnr" v="911867" />
	</node>
	<node id="-2135" lat="58.7933796887" lon="5.77521745238">
		<tag k="fixme" v="consider place=hamlet" />
		<tag k="name" v="Møgedal" />
		<tag k="place" v="farm" />
		<tag k="ssr:stedsnr" v="911830" />
	</node>
	<node id="-2134" lat="58.9526023969" lon="5.86037131538">
		<tag k="name" v="Holland" />
		<tag k="place" v="farm" />
		<tag k="ssr:stedsnr" v="911806" />
	</node>
	<node id="-2133" lat="59.0612383079" lon="6.67766556632">
		<tag k="fixme" v="consider place=hamlet" />
		<tag k="name" v="Lyse" />
		<tag k="place" v="farm" />
		<tag k="ssr:stedsnr" v="911798" />
	</node>
	<node id="-2126" lat="58.9154000033" lon="6.27027500493">
		<tag k="name" v="Almavollen" />
		<tag k="place" v="farm" />
		<tag k="ssr:stedsnr" v="911733" />
	</node>
	<node id="-2125" lat="58.9560270356" lon="6.19560045016">
		<tag k="alt_name" v="Indra Eidane;Øvre Eiane" />
		<tag k="fixme" v="consider place=hamlet" />
		<tag k="name" v="Øvreidane" />
		<tag k="place" v="farm" />
		<tag k="ssr:stedsnr" v="911709" />
	</node>
	<node id="-2120" lat="58.8813583294" lon="6.07146389639">
		<tag k="name" v="Selvikvågen" />
		<tag k="place" v="farm" />
		<tag k="ssr:stedsnr" v="911680" />
	</node>
	<node id="-2119" lat="58.8910861095" lon="6.04487500397">
		<tag k="name" v="Bjørklund" />
		<tag k="place" v="farm" />
		<tag k="ssr:stedsnr" v="911673" />
	</node>
	<node id="-2115" lat="58.9012174895" lon="5.85299998783">
		<tag k="fixme" v="consider place=hamlet" />
		<tag k="name" v="Merland" />
		<tag k="place" v="farm" />
		<tag k="ssr:stedsnr" v="911645" />
	</node>
	<node id="-2114" lat="58.9044099676" lon="5.92494513696">
		<tag k="fixme" v="consider place=hamlet" />
		<tag k="name" v="Horve" />
		<tag k="place" v="farm" />
		<tag k="ssr:stedsnr" v="911641" />
	</node>
	<node id="-2112" lat="58.8427389241" lon="5.86403390658">
		<tag k="alt_name" v="Skruss-Eikeland" />
		<tag k="fixme" v="consider place=hamlet" />
		<tag k="name" v="Skrusseikjeland" />
		<tag k="place" v="farm" />
		<tag k="ssr:stedsnr" v="911593" />
	</node>
	<node id="-2111" lat="58.8720198" lon="6.18268225093">
		<tag k="fixme" v="consider place=hamlet" />
		<tag k="name" v="Kleppa" />
		<tag k="place" v="farm" />
		<tag k="ssr:stedsnr" v="911586" />
	</node>
	<node id="-2102" lat="58.9740123713" lon="6.23433335179">
		<tag k="name" v="Myrane" />
		<tag k="place" v="farm" />
		<tag k="ssr:stedsnr" v="911525" />
	</node>
	<node id="-2101" lat="58.816952779" lon="5.91664444877">
		<tag k="name" v="Tveit" />
		<tag k="place" v="farm" />
		<tag k="ssr:stedsnr" v="911508" />
	</node>
	<node id="-2098" lat="59.0037527801" lon="6.40671111274">
		<tag k="historic" v="shieling" />
		<tag k="name" v="Kallalistølen" />
		<tag k="place" v="locality" />
		<tag k="ssr:stedsnr" v="911198" />
	</node>
	<node id="-2074" lat="58.9627666653" lon="6.27659721987">
		<tag k="historic" v="shieling" />
		<tag k="name" v="Kringlevasstølen" />
		<tag k="place" v="locality" />
		<tag k="ssr:stedsnr" v="909264" />
	</node>
	<node id="-4114" lat="59.0413769534" lon="6.63120181579">
		<tag k="name" v="Kjerag nødbu" />
		<tag k="place" v="locality" />
		<tag k="ssr:stedsnr" v="991021" />
	</node>
	<node id="-4113" lat="58.9150762765" lon="5.99225469348">
		<tag k="fixme" v="consider place=hamlet" />
		<tag k="name" v="Foreholmen" />
		<tag k="place" v="farm" />
		<tag k="ssr:stedsnr" v="990876" />
	</node>
	<node id="-4112" lat="58.931682466" lon="5.99271092431">
		<tag k="fixme" v="consider place=hamlet" />
		<tag k="name" v="Aspøy" />
		<tag k="place" v="farm" />
		<tag k="ssr:stedsnr" v="990875" />
	</node>
	<node id="-4111" lat="58.8274748195" lon="5.90108766994">
		<tag k="fixme" v="consider place=hamlet" />
		<tag k="name" v="Hetland" />
		<tag k="place" v="farm" />
		<tag k="ssr:stedsnr" v="990832" />
	</node>
	<node id="-2062" lat="58.8458999988" lon="5.71282499574">
		<tag k="name" v="Foren" />
		<tag k="place" v="farm" />
		<tag k="ssr:stedsnr" v="752255" />
	</node>
	<node id="-4106" lat="58.8466120094" lon="5.87752703091">
		<tag k="name" v="Juldal" />
		<tag k="place" v="farm" />
		<tag k="ssr:stedsnr" v="985218" />
	</node>
	<node id="-4102" lat="58.9529176518" lon="5.85143812681">
		<tag k="fixme" v="consider place=hamlet" />
		<tag k="name" v="Rosenvik" />
		<tag k="place" v="village" />
		<tag k="ssr:stedsnr" v="973874" />
	</node>
</osm>
