<?xml version="1.0" encoding="UTF-8"?>
<osm generator="osmapis" version="0.6">
	<node id="-4096" lat="58.9587083314" lon="6.36924443828">
		<tag k="name" v="Øykjadalsosen" />
		<tag k="natural" v="bay" />
		<tag k="ssr:stedsnr" v="970299" />
	</node>
	<node id="-4095" lat="58.9539333338" lon="6.35054722326">
		<tag k="name" v="Tverråfossen" />
		<tag k="natural" v="waterfall" />
		<tag k="ssr:stedsnr" v="970356" />
	</node>
	<node id="-2042" lat="59.0359166711" lon="6.24247499934">
		<tag k="alt_name" v="Kvernavatnet" />
		<tag k="name" v="Kvernavatn" />
		<tag k="natural" v="water" />
		<tag k="ssr:stedsnr" v="730051" />
	</node>
	<node id="-2047" lat="59.020725" lon="6.69863055865">
		<tag k="alt_name" v="Tjodanvatnet, litla" />
		<tag k="loc_name" v="Litle Tjodanvatnet" />
		<tag k="name" v="Litla Tjodavatnet" />
		<tag k="natural" v="water" />
		<tag k="ssr:stedsnr" v="748406" />
		<tag k="water" v="lake" />
	</node>
	<node id="-4086" lat="58.9490472259" lon="6.29764445066">
		<tag k="name" v="Tjødnå" />
		<tag k="natural" v="water" />
		<tag k="ssr:stedsnr" v="969267" />
	</node>
	<node id="-2035" lat="58.9030805568" lon="6.365677771">
		<tag k="name" v="Jonsvatnet" />
		<tag k="natural" v="water" />
		<tag k="ssr:stedsnr" v="726993" />
		<tag k="water" v="lake" />
	</node>
	<node id="-4075" lat="58.9157472178" lon="6.22015833009">
		<tag k="name" v="Kjeringtjørna" />
		<tag k="natural" v="water" />
		<tag k="ssr:stedsnr" v="967297" />
	</node>
	<node id="-4069" lat="58.928188893" lon="6.14616389457">
		<tag k="name" v="Stemtjørna" />
		<tag k="natural" v="water" />
		<tag k="ssr:stedsnr" v="952599" />
	</node>
	<node id="-2020" lat="58.8685277789" lon="6.16480555998">
		<tag k="name" v="Åkroken" />
		<tag k="place" v="locality" />
		<tag k="ssr:stedsnr" v="890960" />
	</node>
	<node id="-4065" lat="58.9122444426" lon="6.0081388958">
		<tag k="name" v="Stiatjørn" />
		<tag k="natural" v="water" />
		<tag k="ssr:stedsnr" v="950904" />
	</node>
	<node id="-4061" lat="59.0540750006" lon="6.65218610736">
		<tag k="alt_name" v="Lyseelvi" />
		<tag k="name" v="Lyseåna" />
		<tag k="ssr:stedsnr" v="874947" />
		<tag k="waterway" v="river" />
	</node>
	<node id="-2012" lat="58.8330333366" lon="5.89362778484">
		<tag k="alt_name" v="Hagatjørna" />
		<tag k="name" v="Stemtjørna" />
		<tag k="natural" v="water" />
		<tag k="ssr:stedsnr" v="668637" />
	</node>
	<node id="-2011" lat="58.8322749984" lon="5.98276389533">
		<tag k="name" v="Holmen" />
		<tag k="place" v="islet" />
		<tag k="ssr:stedsnr" v="668634" />
	</node>
	<node id="-2010" lat="58.9645805581" lon="6.25949999842">
		<tag k="name" v="Salabekken" />
		<tag k="ssr:stedsnr" v="668536" />
		<tag k="waterway" v="stream" />
	</node>
	<node id="-2009" lat="58.9727416657" lon="6.28978888635">
		<tag k="name" v="Rundavatnet" />
		<tag k="natural" v="water" />
		<tag k="ssr:stedsnr" v="668530" />
		<tag k="water" v="lake" />
	</node>
	<node id="-2008" lat="58.9948500015" lon="6.44316111394">
		<tag k="name" v="Flørliåa" />
		<tag k="ssr:stedsnr" v="668509" />
		<tag k="waterway" v="river" />
	</node>
	<node id="-2006" lat="59.0365250021" lon="6.39037222162">
		<tag k="name" v="Tverråna" />
		<tag k="ssr:stedsnr" v="666848" />
		<tag k="waterway" v="river" />
	</node>
	<node id="-4052" lat="58.7964805514" lon="5.76682500569">
		<tag k="name" v="Møgedalshølen" />
		<tag k="place" v="locality" />
		<tag k="ssr:stedsnr" v="873586" />
	</node>
	<node id="-2001" lat="58.9223444422" lon="6.37668611108">
		<tag k="name" v="Indravasstronda" />
		<tag k="natural" v="beach" />
		<tag k="ssr:stedsnr" v="666039" />
	</node>
	<node id="-4047" lat="58.8509499965" lon="5.8982888963">
		<tag k="name" v="Stølsholen" />
		<tag k="place" v="locality" />
		<tag k="ssr:stedsnr" v="873064" />
	</node>
	<node id="-4046" lat="58.9228166666" lon="5.81934445144">
		<tag k="name" v="Liaåna" />
		<tag k="ssr:stedsnr" v="873061" />
		<tag k="waterway" v="stream" />
	</node>
	<node id="-4044" lat="58.8912805598" lon="5.83245556">
		<tag k="name" v="Kvednhusbekken" />
		<tag k="ssr:stedsnr" v="872245" />
		<tag k="waterway" v="stream" />
	</node>
	<node id="-4043" lat="58.9126917491" lon="5.86306616609">
		<tag k="name" v="Lyngnes" />
		<tag k="natural" v="cape" />
		<tag k="ssr:stedsnr" v="872152" />
	</node>
	<node id="-4040" lat="58.8926138857" lon="5.92197221555">
		<tag k="name" v="Sorteneset" />
		<tag k="natural" v="cape" />
		<tag k="ssr:stedsnr" v="872201" />
	</node>
	<node id="-1991" lat="59.159047226" lon="6.74368332745">
		<tag k="name" v="Gråfolåna" />
		<tag k="ssr:stedsnr" v="730140" />
		<tag k="waterway" v="river" />
	</node>
	<node id="-1990" lat="59.1244972231" lon="6.8664333324">
		<tag k="name" v="Bergetjørna" />
		<tag k="natural" v="water" />
		<tag k="ssr:stedsnr" v="730137" />
	</node>
	<node id="-1989" lat="59.1082091583" lon="6.75133066859">
		<tag k="loc_name" v="Kamsvatn" />
		<tag k="name" v="Kamsvatnet" />
		<tag k="natural" v="water" />
		<tag k="ssr:stedsnr" v="730129" />
		<tag k="water" v="lake" />
	</node>
	<node id="-1988" lat="59.0998750036" lon="6.76018055471">
		<tag k="alt_name" v="Vaulatjørna, heimra" />
		<tag k="name" v="Heimra Vaulatjørna" />
		<tag k="natural" v="water" />
		<tag k="ssr:stedsnr" v="730127" />
		<tag k="water" v="lake" />
	</node>
	<node id="-4035" lat="59.0829250006" lon="6.36350277958">
		<tag k="name" v="Maratangen" />
		<tag k="natural" v="cape" />
		<tag k="ssr:stedsnr" v="852098" />
	</node>
	<node id="-1986" lat="59.0866805522" lon="6.42851667102">
		<tag k="alt_name" v="Sandvatnet, litla;Litla Sanvatnet" />
		<tag k="name" v="Litla Sandvatnet" />
		<tag k="natural" v="water" />
		<tag k="ssr:stedsnr" v="730091" />
		<tag k="water" v="lake" />
	</node>
	<node id="-4026" lat="58.8819499988" lon="6.26653888291">
		<tag k="alt_name" v="Lauvatnet" />
		<tag k="name" v="Lauvvatnet" />
		<tag k="natural" v="water" />
		<tag k="ssr:stedsnr" v="851731" />
		<tag k="water" v="lake" />
	</node>
	<node id="-4023" lat="58.9233800804" lon="5.88758598406">
		<tag k="alt_name" v="Iglatjørn" />
		<tag k="name" v="Iglatjørna" />
		<tag k="natural" v="water" />
		<tag k="ssr:stedsnr" v="851712" />
	</node>
	<node id="-4021" lat="58.9465638916" lon="6.51767777164">
		<tag k="name" v="Nordåna" />
		<tag k="ssr:stedsnr" v="851685" />
		<tag k="waterway" v="stream" />
	</node>
	<node id="-4018" lat="59.1611750035" lon="6.68224721917">
		<tag k="name" v="Kleggjadalsvatnet" />
		<tag k="natural" v="water" />
		<tag k="ssr:stedsnr" v="851146" />
	</node>
	<node id="-1968" lat="58.9187166983" lon="5.87386492823">
		<tag k="name" v="Kvitlåna" />
		<tag k="ssr:stedsnr" v="729740" />
		<tag k="waterway" v="stream" />
	</node>
	<node id="-4015" lat="58.952788625" lon="5.82326130988">
		<tag k="alt_name" v="Torvikvatnet" />
		<tag k="loc_name" v="Torvvikvatnet" />
		<tag k="name" v="Torvvikvatn" />
		<tag k="natural" v="water" />
		<tag k="ssr:stedsnr" v="851044" />
	</node>
	<node id="-1965" lat="58.9250831888" lon="6.45263652506">
		<tag k="name" v="Ernsttjørna" />
		<tag k="natural" v="water" />
		<tag k="ssr:stedsnr" v="729733" />
	</node>
	<node id="-1961" lat="58.9353806705" lon="6.4759923372">
		<tag k="name" v="Hellesvatnet" />
		<tag k="natural" v="water" />
		<tag k="ssr:stedsnr" v="729713" />
	</node>
	<node id="-1960" lat="58.9282082659" lon="6.49164969629">
		<tag k="name" v="Lunnarvatnet" />
		<tag k="natural" v="water" />
		<tag k="ssr:stedsnr" v="729711" />
	</node>
	<node id="-4003" lat="58.8317805546" lon="5.82651389502">
		<tag k="name" v="Svilandsåna" />
		<tag k="old_name" v="Svilandselva" />
		<tag k="ssr:stedsnr" v="850892" />
		<tag k="waterway" v="stream" />
	</node>
	<node id="-4001" lat="58.8959159882" lon="6.23867785422">
		<tag k="name" v="Gardbekktjørna" />
		<tag k="natural" v="water" />
		<tag k="ssr:stedsnr" v="850734" />
	</node>
	<node id="-1952" lat="58.8771611109" lon="6.28529999332">
		<tag k="name" v="Egmundsleitet" />
		<tag k="natural" v="strait" />
		<tag k="ssr:stedsnr" v="729645" />
	</node>
	<node id="-1948" lat="58.8526527784" lon="5.96741667185">
		<tag k="alt_name" v="nordra Tjørna" />
		<tag k="name" v="Stølstjørna" />
		<tag k="natural" v="water" />
		<tag k="ssr:stedsnr" v="729594" />
	</node>
	<node id="-3995" lat="58.8394111088" lon="5.93401389196">
		<tag k="name" v="Rikkatjørna" />
		<tag k="natural" v="water" />
		<tag k="ssr:stedsnr" v="850588" />
	</node>
	<node id="-3993" lat="58.8732333338" lon="6.17673610829">
		<tag k="name" v="Espedalsåna" />
		<tag k="ssr:stedsnr" v="850569" />
		<tag k="waterway" v="river" />
	</node>
	<node id="-1936" lat="58.951925004" lon="6.26915000055">
		<tag k="alt_name" v="Stilkalitjørn" />
		<tag k="name" v="Stilkatjørna" />
		<tag k="natural" v="water" />
		<tag k="ssr:stedsnr" v="729542" />
	</node>
	<node id="-1934" lat="58.9800301905" lon="6.45304095378">
		<tag k="name" v="Flåvatnet" />
		<tag k="natural" v="water" />
		<tag k="ssr:stedsnr" v="729523" />
		<tag k="water" v="lake" />
	</node>
	<node id="-3981" lat="58.9867194477" lon="6.32600834109">
		<tag k="name" v="Fiskatjørnene" />
		<tag k="natural" v="water" />
		<tag k="ssr:stedsnr" v="849262" />
		<tag k="water" v="lake" />
	</node>
	<node id="-3980" lat="58.9882094976" lon="6.30155071182">
		<tag k="name" v="Mulekåstjørna" />
		<tag k="natural" v="water" />
		<tag k="ssr:stedsnr" v="849261" />
	</node>
	<node id="-1687" lat="58.9840305514" lon="6.33554721988">
		<tag k="name" v="Soddabekken" />
		<tag k="ssr:stedsnr" v="484223" />
		<tag k="waterway" v="stream" />
	</node>
	<node id="-1928" lat="58.8592749998" lon="5.84690555743">
		<tag k="name" v="Floen" />
		<tag k="natural" v="water" />
		<tag k="ssr:stedsnr" v="729571" />
		<tag k="water" v="lake" />
	</node>
	<node id="-3973" lat="58.9770305571" lon="6.27303610602">
		<tag k="name" v="Bergheibekken" />
		<tag k="ssr:stedsnr" v="849081" />
		<tag k="waterway" v="stream" />
	</node>
	<node id="-3970" lat="58.9758777753" lon="6.22681667244">
		<tag k="name" v="Nedretjørn" />
		<tag k="natural" v="water" />
		<tag k="ssr:stedsnr" v="849061" />
	</node>
	<node id="-3964" lat="58.8952861109" lon="6.36727777605">
		<tag k="name" v="Sliratjørna" />
		<tag k="natural" v="water" />
		<tag k="ssr:stedsnr" v="848980" />
	</node>
	<node id="-3962" lat="58.9468472223" lon="6.19224999914">
		<tag k="name" v="Holsbekk" />
		<tag k="ssr:stedsnr" v="848670" />
		<tag k="waterway" v="stream" />
	</node>
	<node id="-3960" lat="58.9227805524" lon="6.14577777098">
		<tag k="name" v="Måkavatnet" />
		<tag k="natural" v="water" />
		<tag k="ssr:stedsnr" v="848651" />
		<tag k="water" v="lake" />
	</node>
	<node id="-3958" lat="58.8899416625" lon="6.14772223103">
		<tag k="name" v="Tverrbekken" />
		<tag k="ssr:stedsnr" v="848225" />
		<tag k="waterway" v="stream" />
	</node>
	<node id="-3949" lat="58.8843861131" lon="6.20302777208">
		<tag k="name" v="Bruhølen" />
		<tag k="place" v="locality" />
		<tag k="ssr:stedsnr" v="848128" />
	</node>
	<node id="-3947" lat="58.8474750009" lon="6.18369167208">
		<tag k="name" v="Osen" />
		<tag k="natural" v="bay" />
		<tag k="ssr:stedsnr" v="846746" />
	</node>
	<node id="-1898" lat="58.8748472208" lon="5.79398333415">
		<tag k="name" v="Kubbetjørn" />
		<tag k="natural" v="water" />
		<tag k="ssr:stedsnr" v="630206" />
	</node>
	<node id="-3943" lat="58.8939638899" lon="6.11894443821">
		<tag k="alt_name" v="Fossanåna" />
		<tag k="name" v="Forsandåna" />
		<tag k="ssr:stedsnr" v="851651" />
		<tag k="waterway" v="stream" />
	</node>
	<node id="-1894" lat="58.8694861114" lon="5.87523889024">
		<tag k="name" v="Kvednaneset" />
		<tag k="natural" v="cape" />
		<tag k="ssr:stedsnr" v="629203" />
	</node>
	<node id="-1681" lat="58.8810444416" lon="6.03475278144">
		<tag k="name" v="Komletjørna" />
		<tag k="natural" v="water" />
		<tag k="ssr:stedsnr" v="484114" />
	</node>
	<node id="-1892" lat="58.8892648299" lon="5.98039441493">
		<tag k="name" v="Ulvaskarstjørna" />
		<tag k="natural" v="water" />
		<tag k="ssr:stedsnr" v="629075" />
	</node>
	<node id="-1884" lat="58.9341885386" lon="5.85315327069">
		<tag k="loc_name" v="Heståvatnet" />
		<tag k="name" v="Heståvatn" />
		<tag k="natural" v="water" />
		<tag k="ssr:stedsnr" v="629119" />
	</node>
	<node id="-1883" lat="58.9719961406" lon="6.22661076787">
		<tag k="name" v="Holtatjørna" />
		<tag k="natural" v="water" />
		<tag k="ssr:stedsnr" v="627075" />
	</node>
	<node id="-1882" lat="58.9386861087" lon="6.24414999844">
		<tag k="name" v="Samlatjørna" />
		<tag k="natural" v="water" />
		<tag k="ssr:stedsnr" v="627071" />
		<tag k="water" v="lake" />
	</node>
	<node id="-3929" lat="58.8756333293" lon="6.18811666265">
		<tag k="name" v="Drivaren" />
		<tag k="place" v="locality" />
		<tag k="ssr:stedsnr" v="829958" />
	</node>
	<node id="-1874" lat="58.9549083369" lon="6.36845555677">
		<tag k="name" v="Fossen" />
		<tag k="natural" v="waterfall" />
		<tag k="ssr:stedsnr" v="727218" />
	</node>
	<node id="-1873" lat="59.0062666661" lon="6.57088056373">
		<tag k="name" v="Låtervik" />
		<tag k="natural" v="bay" />
		<tag k="ssr:stedsnr" v="727202" />
	</node>
	<node id="-1868" lat="58.9730305529" lon="6.26860000543">
		<tag k="name" v="Raudebekk" />
		<tag k="ssr:stedsnr" v="727066" />
		<tag k="waterway" v="stream" />
	</node>
	<node id="-992" lat="58.9086666701" lon="6.2441472189">
		<tag k="alt_name" v="Heimavatn" />
		<tag k="name" v="Espedalsvatnet" />
		<tag k="natural" v="water" />
		<tag k="ssr:stedsnr" v="243716" />
		<tag k="water" v="lake" />
	</node>
	<node id="-1846" lat="58.8589282143" lon="6.0688893932">
		<tag k="alt_name" v="Buløytjørna" />
		<tag k="name" v="Løypedalstjørna" />
		<tag k="natural" v="water" />
		<tag k="ssr:stedsnr" v="607581" />
	</node>
	<node id="-3892" lat="58.8327083333" lon="5.61489166734">
		<tag k="name" v="Gulltangen" />
		<tag k="natural" v="cape" />
		<tag k="ssr:stedsnr" v="813202" />
	</node>
	<node id="-990" lat="58.9330475049" lon="5.93162106746">
		<tag k="alt_name" v="Foretjørn" />
		<tag k="name" v="Furetjørna" />
		<tag k="natural" v="water" />
		<tag k="ssr:stedsnr" v="243714" />
	</node>
	<node id="-1842" lat="59.0724666627" lon="6.31603611625">
		<tag k="name" v="Svartatjørna" />
		<tag k="natural" v="water" />
		<tag k="ssr:stedsnr" v="607015" />
	</node>
	<node id="-3880" lat="58.821729198" lon="5.96597225409">
		<tag k="name" v="Nonsvaretjørn" />
		<tag k="natural" v="water" />
		<tag k="ssr:stedsnr" v="812888" />
	</node>
	<node id="-3877" lat="58.8680638871" lon="5.87510833918">
		<tag k="name" v="Kvednavika" />
		<tag k="natural" v="bay" />
		<tag k="ssr:stedsnr" v="811200" />
	</node>
	<node id="-3876" lat="58.8719999992" lon="5.85589166901">
		<tag k="name" v="Storevågen" />
		<tag k="natural" v="bay" />
		<tag k="ssr:stedsnr" v="811196" />
	</node>
	<node id="-3874" lat="58.8921472228" lon="5.91362777572">
		<tag k="name" v="Vika" />
		<tag k="natural" v="bay" />
		<tag k="ssr:stedsnr" v="811182" />
	</node>
	<node id="-3873" lat="58.882019442" lon="5.9159000081">
		<tag k="name" v="Joaskjera" />
		<tag k="place" v="islet" />
		<tag k="ssr:stedsnr" v="811177" />
	</node>
	<node id="-3867" lat="58.9298082128" lon="5.92266705304">
		<tag k="name" v="Kolatjørna" />
		<tag k="natural" v="water" />
		<tag k="ssr:stedsnr" v="811130" />
	</node>
	<node id="-1815" lat="58.8788166642" lon="6.19646667143">
		<tag k="name" v="Berghølen" />
		<tag k="place" v="locality" />
		<tag k="ssr:stedsnr" v="707944" />
	</node>
	<node id="-3857" lat="58.9681500016" lon="6.40882499416">
		<tag k="name" v="Øvra Svartavatnet" />
		<tag k="natural" v="water" />
		<tag k="ssr:stedsnr" v="809075" />
		<tag k="water" v="lake" />
	</node>
	<node id="-3852" lat="58.9200500002" lon="6.24754999449">
		<tag k="alt_name" v="Stiaren" />
		<tag k="name" v="Stigaren" />
		<tag k="ssr:stedsnr" v="790727" />
		<tag k="waterway" v="stream" />
	</node>
	<node id="-3851" lat="58.8858805569" lon="5.91406111719">
		<tag k="name" v="Lamholmen" />
		<tag k="place" v="islet" />
		<tag k="ssr:stedsnr" v="790707" />
	</node>
	<node id="-3850" lat="58.8805888909" lon="5.87785556063">
		<tag k="alt_name" v="Vaulatjørn" />
		<tag k="name" v="Vaulatjørna" />
		<tag k="natural" v="water" />
		<tag k="ssr:stedsnr" v="790704" />
	</node>
	<node id="-3845" lat="58.8332611099" lon="5.98094721588">
		<tag k="name" v="Seldalsvatnet" />
		<tag k="natural" v="water" />
		<tag k="ssr:stedsnr" v="790647" />
		<tag k="water" v="lake" />
	</node>
	<node id="-3844" lat="59.0840305565" lon="6.61447777866">
		<tag k="name" v="Krokatjørna" />
		<tag k="natural" v="water" />
		<tag k="ssr:stedsnr" v="790146" />
	</node>
	<node id="-3839" lat="58.851507734" lon="5.83842773963">
		<tag k="alt_name" v="Kydlesvatnet" />
		<tag k="name" v="Kyllesvatnet" />
		<tag k="natural" v="water" />
		<tag k="ssr:stedsnr" v="789907" />
		<tag k="water" v="lake" />
	</node>
	<node id="-3834" lat="58.9435745023" lon="5.82439665428">
		<tag k="alt_name" v="Kvernavatn;Kvednavatnet" />
		<tag k="name" v="Kvernavatnet" />
		<tag k="natural" v="water" />
		<tag k="ssr:stedsnr" v="790043" />
	</node>
	<node id="-3833" lat="59.0404277788" lon="6.42558611741">
		<tag k="name" v="Dalaåna" />
		<tag k="ssr:stedsnr" v="790039" />
		<tag k="waterway" v="river" />
	</node>
	<node id="-1782" lat="58.8434055521" lon="5.94873888594">
		<tag k="name" v="Bustetjørna" />
		<tag k="natural" v="water" />
		<tag k="ssr:stedsnr" v="691893" />
	</node>
	<node id="-979" lat="58.9761079143" lon="6.34265201781">
		<tag k="name" v="Sandvassbekken" />
		<tag k="ssr:stedsnr" v="242213" />
		<tag k="waterway" v="stream" />
	</node>
	<node id="-1014" lat="58.8039301258" lon="5.78577513533">
		<tag k="name" v="Bråsteinvatnet" />
		<tag k="natural" v="water" />
		<tag k="ssr:stedsnr" v="244915" />
		<tag k="water" v="lake" />
	</node>
	<node id="-3820" lat="58.9712500034" lon="6.41446110315">
		<tag k="name" v="Svartavatnet" />
		<tag k="natural" v="water" />
		<tag k="ssr:stedsnr" v="789538" />
		<tag k="water" v="lake" />
	</node>
	<node id="-3818" lat="58.9935500043" lon="6.35601665825">
		<tag k="name" v="Breibekktjørna" />
		<tag k="natural" v="water" />
		<tag k="ssr:stedsnr" v="789504" />
	</node>
	<node id="-1753" lat="58.8723166643" lon="5.89101389611">
		<tag k="name" v="Kutangen" />
		<tag k="natural" v="cape" />
		<tag k="ssr:stedsnr" v="690177" />
	</node>
	<node id="-1744" lat="58.872949996" lon="5.9585305577">
		<tag k="name" v="Revastitjørna" />
		<tag k="natural" v="water" />
		<tag k="ssr:stedsnr" v="690071" />
	</node>
	<node id="-1743" lat="58.8948583302" lon="5.96198888545">
		<tag k="name" v="Fossbekk" />
		<tag k="ssr:stedsnr" v="690061" />
		<tag k="waterway" v="stream" />
	</node>
	<node id="-1738" lat="58.8087302266" lon="5.93677868948">
		<tag k="name" v="Litla Ryggjavatn" />
		<tag k="natural" v="water" />
		<tag k="ssr:stedsnr" v="690007" />
	</node>
	<node id="-1996" lat="58.9471416692" lon="6.18645276948">
		<tag k="name" v="Mjåsund" />
		<tag k="natural" v="strait" />
		<tag k="ssr:stedsnr" v="665705" />
	</node>
	<node id="-1730" lat="58.8329361156" lon="5.95788333871">
		<tag k="name" v="Varmekråtjørna" />
		<tag k="natural" v="water" />
		<tag k="ssr:stedsnr" v="509876" />
	</node>
	<node id="-1729" lat="58.8481333341" lon="5.98600554723">
		<tag k="name" v="Podlane" />
		<tag k="natural" v="water" />
		<tag k="ssr:stedsnr" v="509855" />
		<tag k="water" v="pond" />
	</node>
	<node id="-1312" lat="59.0324638935" lon="6.32051945149">
		<tag k="name" v="Skurvedalstjørna" />
		<tag k="natural" v="water" />
		<tag k="ssr:stedsnr" v="302228" />
	</node>
	<node id="-1310" lat="58.9720250017" lon="6.26650556335">
		<tag k="name" v="Kringlevassbekken" />
		<tag k="ssr:stedsnr" v="302074" />
		<tag k="waterway" v="stream" />
	</node>
	<node id="-1713" lat="59.1235519919" lon="6.83833447454">
		<tag k="name" v="Finnsjø" />
		<tag k="natural" v="water" />
		<tag k="ssr:stedsnr" v="487120" />
	</node>
	<node id="-3760" lat="58.8021722231" lon="5.71200833306">
		<tag k="name" v="Lona" />
		<tag k="place" v="locality" />
		<tag k="ssr:stedsnr" v="752742" />
	</node>
	<node id="-1711" lat="59.0239250016" lon="6.31603610946">
		<tag k="name" v="Stemtjørna" />
		<tag k="natural" v="water" />
		<tag k="ssr:stedsnr" v="487024" />
	</node>
	<node id="-3758" lat="58.8356250011" lon="5.81117223028">
		<tag k="name" v="Gråbeinsbekken" />
		<tag k="ssr:stedsnr" v="752673" />
		<tag k="waterway" v="stream" />
	</node>
	<node id="-1708" lat="58.9134111102" lon="6.34664444868">
		<tag k="name" v="Tofrivatnet" />
		<tag k="natural" v="water" />
		<tag k="ssr:stedsnr" v="486747" />
	</node>
	<node id="-1707" lat="58.9344639308" lon="6.17810588154">
		<tag k="alt_name" v="Vassbottvatnet" />
		<tag k="name" v="Vassbottnvatnet" />
		<tag k="natural" v="water" />
		<tag k="ssr:stedsnr" v="486746" />
		<tag k="water" v="lake" />
	</node>
	<node id="-1705" lat="58.9228277742" lon="6.40347499251">
		<tag k="name" v="Juvavassbekken" />
		<tag k="ssr:stedsnr" v="486731" />
		<tag k="waterway" v="stream" />
	</node>
	<node id="-1700" lat="58.9022477843" lon="5.93466842765">
		<tag k="alt_name" v="Horvetjørn;Horvevatn" />
		<tag k="name" v="Horvetjørna" />
		<tag k="natural" v="water" />
		<tag k="ssr:stedsnr" v="486657" />
	</node>
	<node id="-3747" lat="58.8020916655" lon="5.80184721737">
		<tag k="name" v="Djupedalsbekken" />
		<tag k="ssr:stedsnr" v="752195" />
		<tag k="waterway" v="stream" />
	</node>
	<node id="-1696" lat="58.8368111148" lon="5.90514721918">
		<tag k="alt_name" v="Svanitjørn" />
		<tag k="name" v="Svanetjørna" />
		<tag k="natural" v="water" />
		<tag k="ssr:stedsnr" v="486612" />
	</node>
	<node id="-1694" lat="59.0105999979" lon="6.56799166582">
		<tag k="name" v="Låtervikvatnet" />
		<tag k="natural" v="water" />
		<tag k="ssr:stedsnr" v="486255" />
		<tag k="water" v="lake" />
	</node>
	<node id="-1693" lat="58.8797333511" lon="5.91075317408">
		<tag k="name" v="Storavatnet" />
		<tag k="natural" v="water" />
		<tag k="ssr:stedsnr" v="486229" />
		<tag k="water" v="lake" />
	</node>
	<node id="-1691" lat="59.0778695291" lon="6.52086756588">
		<tag k="name" v="Grønakråtjørna" />
		<tag k="natural" v="water" />
		<tag k="ssr:stedsnr" v="486001" />
	</node>
	<node id="-3737" lat="58.8414805518" lon="5.97084166795">
		<tag k="name" v="Leidebekken" />
		<tag k="ssr:stedsnr" v="751931" />
		<tag k="waterway" v="stream" />
	</node>
	<node id="-3735" lat="58.8203277753" lon="5.97169444641">
		<tag k="name" v="Stemtjørn" />
		<tag k="natural" v="water" />
		<tag k="ssr:stedsnr" v="751891" />
	</node>
	<node id="-1686" lat="58.9195083342" lon="6.30313055963">
		<tag k="name" v="Holmen" />
		<tag k="natural" v="cape" />
		<tag k="ssr:stedsnr" v="484076" />
	</node>
	<node id="-3731" lat="58.8729444457" lon="5.86910834004">
		<tag k="name" v="Hedleneset" />
		<tag k="natural" v="cape" />
		<tag k="ssr:stedsnr" v="751221" />
	</node>
	<node id="-3729" lat="58.8822749998" lon="5.89993056139">
		<tag k="name" v="Rennarsundet" />
		<tag k="natural" v="strait" />
		<tag k="ssr:stedsnr" v="751196" />
	</node>
	<node id="-3726" lat="58.8802555601" lon="5.90297778438">
		<tag k="name" v="Kjeringå" />
		<tag k="place" v="islet" />
		<tag k="ssr:stedsnr" v="751168" />
	</node>
	<node id="-3722" lat="58.9351999771" lon="5.86193276142">
		<tag k="name" v="Vassbakktjørnene" />
		<tag k="natural" v="water" />
		<tag k="ssr:stedsnr" v="751132" />
		<tag k="water" v="lake" />
	</node>
	<node id="-3719" lat="58.8785277785" lon="5.95585834192">
		<tag k="name" v="Rankebergtjørn" />
		<tag k="natural" v="water" />
		<tag k="ssr:stedsnr" v="751080" />
	</node>
	<node id="-1670" lat="59.0545222186" lon="6.73798332748">
		<tag k="name" v="Pollen" />
		<tag k="natural" v="water" />
		<tag k="ssr:stedsnr" v="669791" />
	</node>
	<node id="-1669" lat="59.0432722211" lon="6.76953055185">
		<tag k="name" v="Andersvatnet" />
		<tag k="natural" v="water" />
		<tag k="ssr:stedsnr" v="669779" />
		<tag k="water" v="lake" />
	</node>
	<node id="-1666" lat="59.0990333289" lon="6.72060833479">
		<tag k="name" v="Kjelkeskarstjørna" />
		<tag k="natural" v="water" />
		<tag k="ssr:stedsnr" v="669160" />
	</node>
	<node id="-3712" lat="58.8012472249" lon="5.86718055435">
		<tag k="name" v="Dyranesbekken" />
		<tag k="ssr:stedsnr" v="750085" />
		<tag k="waterway" v="stream" />
	</node>
	<node id="-1660" lat="59.0649321513" lon="6.46875960054">
		<tag k="name" v="Hefteholstjørna" />
		<tag k="natural" v="water" />
		<tag k="ssr:stedsnr" v="669021" />
	</node>
	<node id="-1657" lat="59.0585833295" lon="6.38809999632">
		<tag k="name" v="Kvernavatn" />
		<tag k="natural" v="water" />
		<tag k="ssr:stedsnr" v="669014" />
		<tag k="water" v="lake" />
	</node>
	<node id="-1653" lat="58.8908619343" lon="5.79415742864">
		<tag k="name" v="Revholstjørn" />
		<tag k="natural" v="water" />
		<tag k="ssr:stedsnr" v="668938" />
	</node>
	<node id="-3697" lat="58.9434416699" lon="6.32155277298">
		<tag k="name" v="Trolltjørna" />
		<tag k="natural" v="water" />
		<tag k="ssr:stedsnr" v="646480" />
	</node>
	<node id="-3689" lat="58.8321555518" lon="5.67463054931">
		<tag k="name" v="Raugstadbekken" />
		<tag k="ssr:stedsnr" v="631786" />
		<tag k="waterway" v="stream" />
	</node>
	<node id="-1632" lat="58.9437651674" lon="5.92483137554">
		<tag k="alt_name" v="Breidviksstemmen, nordre;nedre Breivikstemmen" />
		<tag k="name" v="Nordre Breidviksstemmen" />
		<tag k="natural" v="water" />
		<tag k="ssr:stedsnr" v="668717" />
	</node>
	<node id="-3671" lat="58.9124611082" lon="5.87254722229">
		<tag k="name" v="Sanddalsbekken" />
		<tag k="ssr:stedsnr" v="629149" />
		<tag k="waterway" v="stream" />
	</node>
	<node id="-1621" lat="58.9214639381" lon="6.20477475074">
		<tag k="alt_name" v="Brynetjørna" />
		<tag k="name" v="Tjørna" />
		<tag k="natural" v="water" />
		<tag k="ssr:stedsnr" v="668659" />
	</node>
	<node id="-1619" lat="58.9389791722" lon="6.35114998464">
		<tag k="name" v="Sletteskarvatnet" />
		<tag k="natural" v="water" />
		<tag k="ssr:stedsnr" v="668569" />
		<tag k="water" v="lake" />
	</node>
	<node id="-1077" lat="58.8869813765" lon="5.97032294415">
		<tag k="name" v="Svanelitjørna" />
		<tag k="natural" v="water" />
		<tag k="ssr:stedsnr" v="265057" />
	</node>
	<node id="-1617" lat="58.9196466684" lon="5.79925255923">
		<tag k="alt_name" v="Litjørna" />
		<tag k="name" v="Høgafjellstjørna" />
		<tag k="natural" v="water" />
		<tag k="ssr:stedsnr" v="668027" />
	</node>
	<node id="-1615" lat="58.9026944473" lon="6.23617777341">
		<tag k="name" v="Lyngnesodden" />
		<tag k="natural" v="cape" />
		<tag k="ssr:stedsnr" v="466166" />
	</node>
	<node id="-1613" lat="58.8922027748" lon="6.36188889259">
		<tag k="name" v="Slirånå" />
		<tag k="ssr:stedsnr" v="666990" />
		<tag k="waterway" v="river" />
	</node>
	<node id="-3659" lat="59.1707750019" lon="6.73043332898">
		<tag k="name" v="Gråfolvatnet" />
		<tag k="natural" v="water" />
		<tag k="ssr:stedsnr" v="608143" />
		<tag k="water" v="lake" />
	</node>
	<node id="-3657" lat="59.0415476323" lon="6.29568015246">
		<tag k="name" v="Holmatjørna" />
		<tag k="natural" v="water" />
		<tag k="ssr:stedsnr" v="608046" />
	</node>
	<node id="-1602" lat="58.9751444412" lon="6.27254166461">
		<tag k="name" v="Rundavassbekken" />
		<tag k="ssr:stedsnr" v="666060" />
		<tag k="waterway" v="stream" />
	</node>
	<node id="-1601" lat="58.9714000021" lon="6.26296944176">
		<tag k="name" v="Viermyrbekken" />
		<tag k="ssr:stedsnr" v="666059" />
		<tag k="waterway" v="stream" />
	</node>
	<node id="-3648" lat="58.8206243953" lon="5.73044224158">
		<tag k="name" v="Stokkalandsvatnet" />
		<tag k="natural" v="water" />
		<tag k="ssr:stedsnr" v="607926" />
	</node>
	<node id="-3647" lat="58.8094132471" lon="5.73848095131">
		<tag k="alt_name" v="Vagletjørna" />
		<tag k="name" v="Vagletjørn" />
		<tag k="natural" v="water" />
		<tag k="ssr:stedsnr" v="607919" />
	</node>
	<node id="-1591" lat="58.9399722241" lon="6.25930554819">
		<tag k="name" v="Litla Hedlesvatnet" />
		<tag k="natural" v="water" />
		<tag k="ssr:stedsnr" v="664360" />
		<tag k="water" v="lake" />
	</node>
	<node id="-1590" lat="58.9125305574" lon="6.2716444465">
		<tag k="name" v="Espenesvika" />
		<tag k="natural" v="bay" />
		<tag k="ssr:stedsnr" v="664251" />
	</node>
	<node id="-3636" lat="58.9410500041" lon="6.21553332936">
		<tag k="name" v="Nordtjørna" />
		<tag k="natural" v="water" />
		<tag k="ssr:stedsnr" v="607726" />
	</node>
	<node id="-3630" lat="58.9132027733" lon="6.28297499762">
		<tag k="alt_name" v="Tungebekk" />
		<tag k="name" v="Tungebekken" />
		<tag k="ssr:stedsnr" v="607703" />
		<tag k="waterway" v="stream" />
	</node>
	<node id="-1970" lat="58.9133037064" lon="6.39432275319">
		<tag k="name" v="Følvatnet" />
		<tag k="natural" v="water" />
		<tag k="ssr:stedsnr" v="729751" />
	</node>
	<node id="-1577" lat="58.7922527782" lon="5.86750000326">
		<tag k="name" v="Tangane" />
		<tag k="natural" v="cape" />
		<tag k="ssr:stedsnr" v="448043" />
	</node>
	<node id="-3623" lat="58.8773194421" lon="5.86950833541">
		<tag k="alt_name" v="Magnlitjørn" />
		<tag k="name" v="Mangelitjørna" />
		<tag k="natural" v="water" />
		<tag k="ssr:stedsnr" v="607680" />
	</node>
	<node id="-1572" lat="58.880402782" lon="5.89984166018">
		<tag k="name" v="Ytra Longaneset" />
		<tag k="natural" v="cape" />
		<tag k="ssr:stedsnr" v="447137" />
	</node>
	<node id="-3611" lat="58.9762500041" lon="6.5391249956">
		<tag k="name" v="Tangen" />
		<tag k="natural" v="cape" />
		<tag k="ssr:stedsnr" v="607524" />
	</node>
	<node id="-1562" lat="59.1146250016" lon="6.89162778148">
		<tag k="name" v="Grauthellervatnet" />
		<tag k="natural" v="water" />
		<tag k="ssr:stedsnr" v="427202" />
		<tag k="water" v="lake" />
	</node>
	<node id="-1557" lat="58.89518333" lon="6.39596388314">
		<tag k="name" v="Helleren" />
		<tag k="natural" v="cape" />
		<tag k="ssr:stedsnr" v="426739" />
	</node>
	<node id="-3602" lat="58.8963555578" lon="5.87852777123">
		<tag k="alt_name" v="Grindavatnet" />
		<tag k="name" v="Grinavatnet" />
		<tag k="natural" v="water" />
		<tag k="ssr:stedsnr" v="607652" />
		<tag k="water" v="lake" />
	</node>
	<node id="-3598" lat="58.9187527753" lon="6.12813610905">
		<tag k="alt_name" v="Stemvatnet" />
		<tag k="name" v="Stemmavatn" />
		<tag k="natural" v="water" />
		<tag k="ssr:stedsnr" v="607636" />
		<tag k="water" v="lake" />
	</node>
	<node id="-3590" lat="58.9851305535" lon="6.42874444064">
		<tag k="name" v="Rindakòstjørna" />
		<tag k="natural" v="water" />
		<tag k="ssr:stedsnr" v="607503" />
	</node>
	<node id="-3589" lat="58.811230936" lon="5.88910150692">
		<tag k="name" v="Toskatjørna" />
		<tag k="natural" v="water" />
		<tag k="ssr:stedsnr" v="607502" />
	</node>
	<node id="-1535" lat="58.9038388887" lon="6.21790278577">
		<tag k="name" v="Raudafjellsvatnet" />
		<tag k="natural" v="water" />
		<tag k="ssr:stedsnr" v="423120" />
		<tag k="water" v="lake" />
	</node>
	<node id="-3573" lat="58.9227249987" lon="6.33914443745">
		<tag k="name" v="Gangsteinhølen" />
		<tag k="place" v="locality" />
		<tag k="ssr:stedsnr" v="605036" />
	</node>
	<node id="-3572" lat="58.9119077018" lon="6.33779652468">
		<tag k="name" v="Litla Tofrivatnet" />
		<tag k="natural" v="water" />
		<tag k="ssr:stedsnr" v="605034" />
	</node>
	<node id="-3569" lat="58.9635722205" lon="6.31771110828">
		<tag k="name" v="Ytra Stakklitjørna" />
		<tag k="natural" v="water" />
		<tag k="ssr:stedsnr" v="605291" />
	</node>
	<node id="-3568" lat="58.9686805592" lon="6.32232500508">
		<tag k="name" v="Indra Stakklitjørna" />
		<tag k="natural" v="water" />
		<tag k="ssr:stedsnr" v="605288" />
	</node>
	<node id="-3563" lat="58.8682194436" lon="6.07402222276">
		<tag k="name" v="Selitjørna" />
		<tag k="natural" v="water" />
		<tag k="ssr:stedsnr" v="604185" />
	</node>
	<node id="-3562" lat="58.874505552" lon="6.07385556221">
		<tag k="alt_name" v="Selvigå" />
		<tag k="name" v="Seliåna" />
		<tag k="ssr:stedsnr" v="604178" />
		<tag k="waterway" v="river" />
	</node>
	<node id="-3561" lat="58.9192416645" lon="6.17244444585">
		<tag k="name" v="Vassvik" />
		<tag k="natural" v="water" />
		<tag k="ssr:stedsnr" v="603340" />
		<tag k="water" v="lake" />
	</node>
	<node id="-3559" lat="58.9236388901" lon="6.19069444334">
		<tag k="name" v="Haukaliåna" />
		<tag k="ssr:stedsnr" v="603315" />
		<tag k="waterway" v="river" />
	</node>
	<node id="-3557" lat="58.9148222184" lon="6.2542833378">
		<tag k="name" v="Ragsnebben" />
		<tag k="natural" v="cape" />
		<tag k="ssr:stedsnr" v="603288" />
	</node>
	<node id="-3554" lat="58.926333331" lon="6.13901945048">
		<tag k="name" v="Johansen" />
		<tag k="natural" v="water" />
		<tag k="ssr:stedsnr" v="600508" />
	</node>
	<node id="-1504" lat="58.8756444402" lon="5.88405277275">
		<tag k="name" v="Fatliholmen" />
		<tag k="place" v="islet" />
		<tag k="ssr:stedsnr" v="508200" />
	</node>
	<node id="-1502" lat="58.8923833356" lon="5.92506389244">
		<tag k="name" v="Ytra Sundet" />
		<tag k="natural" v="strait" />
		<tag k="ssr:stedsnr" v="508188" />
	</node>
	<node id="-1498" lat="58.8724083301" lon="5.91293055987">
		<tag k="name" v="Farmestangen" />
		<tag k="natural" v="cape" />
		<tag k="ssr:stedsnr" v="508150" />
	</node>
	<node id="-3543" lat="58.9271543609" lon="6.28111121066">
		<tag k="name" v="Kvednabekken" />
		<tag k="ssr:stedsnr" v="585427" />
		<tag k="waterway" v="stream" />
	</node>
	<node id="-1493" lat="58.9275253435" lon="5.9134171646">
		<tag k="loc_name" v="Mørkvetjørna" />
		<tag k="name" v="Mørkvetjørn" />
		<tag k="natural" v="water" />
		<tag k="ssr:stedsnr" v="508125" />
	</node>
	<node id="-3532" lat="58.8535638854" lon="5.95614166933">
		<tag k="name" v="Paddetjørna" />
		<tag k="natural" v="water" />
		<tag k="ssr:stedsnr" v="569859" />
	</node>
	<node id="-3527" lat="58.8268388932" lon="5.7615583392">
		<tag k="name" v="Melsheibekken" />
		<tag k="ssr:stedsnr" v="569652" />
		<tag k="waterway" v="stream" />
	</node>
	<node id="-1476" lat="58.856833333" lon="5.90224443747">
		<tag k="name" v="Holbekken" />
		<tag k="ssr:stedsnr" v="387068" />
		<tag k="waterway" v="stream" />
	</node>
	<node id="-1475" lat="58.8543472244" lon="5.89863888874">
		<tag k="name" v="Arnaholen" />
		<tag k="place" v="locality" />
		<tag k="ssr:stedsnr" v="387067" />
	</node>
	<node id="-1473" lat="58.8534499998" lon="5.93589999166">
		<tag k="name" v="Blommatjørn" />
		<tag k="natural" v="water" />
		<tag k="ssr:stedsnr" v="387063" />
	</node>
	<node id="-1461" lat="58.9566611117" lon="6.19190555588">
		<tag k="name" v="Sølå" />
		<tag k="natural" v="bay" />
		<tag k="ssr:stedsnr" v="363005" />
	</node>
	<node id="-3507" lat="58.8959500014" lon="5.91558055134">
		<tag k="name" v="Stora Sandvika" />
		<tag k="natural" v="bay" />
		<tag k="ssr:stedsnr" v="568194" />
	</node>
	<node id="-3506" lat="58.8718587258" lon="5.91651774052">
		<tag k="name" v="Vigjå" />
		<tag k="natural" v="bay" />
		<tag k="ssr:stedsnr" v="568180" />
	</node>
	<node id="-1457" lat="58.9305222228" lon="6.17464999716">
		<tag k="name" v="Haukaliosen" />
		<tag k="natural" v="strait" />
		<tag k="ssr:stedsnr" v="362704" />
	</node>
	<node id="-1454" lat="58.941611108" lon="6.26713888663">
		<tag k="name" v="Hedlesfossen" />
		<tag k="natural" v="waterfall" />
		<tag k="ssr:stedsnr" v="361424" />
	</node>
	<node id="-1447" lat="58.8662027774" lon="6.16119443705">
		<tag k="alt_name" v="Mælsåna" />
		<tag k="name" v="Mælsånå" />
		<tag k="ssr:stedsnr" v="358169" />
		<tag k="waterway" v="river" />
	</node>
	<node id="-1945" lat="58.9564791239" lon="5.87086416292">
		<tag k="alt_name" v="Rodatjørn" />
		<tag k="name" v="Rotatjørna" />
		<tag k="natural" v="water" />
		<tag k="ssr:stedsnr" v="729814" />
	</node>
	<node id="-3476" lat="58.918686621" lon="6.29939979731">
		<tag k="alt_name" v="Lonå" />
		<tag k="name" v="Lona" />
		<tag k="natural" v="water" />
		<tag k="ssr:stedsnr" v="547746" />
	</node>
	<node id="-1425" lat="58.8854555596" lon="6.17601945198">
		<tag k="name" v="Byrkjelandsvatnet" />
		<tag k="natural" v="water" />
		<tag k="ssr:stedsnr" v="486683" />
		<tag k="water" v="lake" />
	</node>
	<node id="-3471" lat="58.8782029772" lon="6.01140960407">
		<tag k="alt_name" v="Stemmatjørna" />
		<tag k="name" v="Stemmetjørna" />
		<tag k="natural" v="water" />
		<tag k="ssr:stedsnr" v="547715" />
	</node>
	<node id="-3470" lat="58.8721451864" lon="5.88280329926">
		<tag k="name" v="Storavatnet" />
		<tag k="natural" v="water" />
		<tag k="ssr:stedsnr" v="547711" />
		<tag k="water" v="lake" />
	</node>
	<node id="-3467" lat="58.9021423449" lon="5.90131810011">
		<tag k="alt_name" v="Bratthetlandsvatnet" />
		<tag k="name" v="Bratthetlandstjørna" />
		<tag k="natural" v="water" />
		<tag k="ssr:stedsnr" v="547686" />
	</node>
	<node id="-3466" lat="58.9130916689" lon="6.15555833177">
		<tag k="name" v="Haukalivatnet" />
		<tag k="natural" v="water" />
		<tag k="ssr:stedsnr" v="547684" />
		<tag k="water" v="lake" />
	</node>
	<node id="-1417" lat="58.9422722213" lon="6.25633333469">
		<tag k="name" v="Litla Hellesvatnet" />
		<tag k="natural" v="water" />
		<tag k="ssr:stedsnr" v="486557" />
		<tag k="water" v="lake" />
	</node>
	<node id="-1415" lat="58.9605027784" lon="6.27189444788">
		<tag k="name" v="Kringlevatnet" />
		<tag k="natural" v="water" />
		<tag k="ssr:stedsnr" v="486546" />
	</node>
	<node id="-3462" lat="58.9457861074" lon="6.40258334117">
		<tag k="name" v="Ratekvævvatnet" />
		<tag k="natural" v="water" />
		<tag k="ssr:stedsnr" v="547596" />
		<tag k="water" v="lake" />
	</node>
	<node id="-3649" lat="59.0578343854" lon="6.34281937417">
		<tag k="name" v="Sundmorkvatnet" />
		<tag k="natural" v="water" />
		<tag k="ssr:stedsnr" v="608015" />
		<tag k="water" v="lake" />
	</node>
	<node id="-3458" lat="58.9776252081" lon="6.50146501066">
		<tag k="name" v="Øvra Flørvatnet" />
		<tag k="natural" v="water" />
		<tag k="ssr:stedsnr" v="547568" />
		<tag k="water" v="lake" />
	</node>
	<node id="-1409" lat="58.9926999984" lon="6.67937500713">
		<tag k="name" v="Øyni" />
		<tag k="place" v="islet" />
		<tag k="ssr:stedsnr" v="486766" />
	</node>
	<node id="-3456" lat="58.9034749963" lon="6.18436110615">
		<tag k="name" v="Tjørna" />
		<tag k="natural" v="water" />
		<tag k="ssr:stedsnr" v="547251" />
	</node>
	<node id="-1407" lat="58.8140511151" lon="5.94160980387">
		<tag k="name" v="Fossvatnet" />
		<tag k="natural" v="water" />
		<tag k="ssr:stedsnr" v="486527" />
	</node>
	<node id="-3454" lat="59.146122225" lon="6.65277222945">
		<tag k="name" v="Kleggjalitjørna" />
		<tag k="natural" v="water" />
		<tag k="ssr:stedsnr" v="547156" />
	</node>
	<node id="-3453" lat="59.1056222214" lon="6.78007221905">
		<tag k="alt_name" v="Vaulatjørna, indra" />
		<tag k="name" v="Indra Vaulatjørna" />
		<tag k="natural" v="water" />
		<tag k="ssr:stedsnr" v="547144" />
		<tag k="water" v="lake" />
	</node>
	<node id="-1402" lat="59.0571249988" lon="6.30826389244">
		<tag k="name" v="Fisketjørnhommen" />
		<tag k="natural" v="water" />
		<tag k="ssr:stedsnr" v="486008" />
	</node>
	<node id="-1401" lat="58.87649167" lon="6.2336000031">
		<tag k="name" v="Neverdalstjørna" />
		<tag k="natural" v="water" />
		<tag k="ssr:stedsnr" v="485586" />
	</node>
	<node id="-3448" lat="59.0461495827" lon="6.37098580469">
		<tag k="alt_name" v="Stølatjørna" />
		<tag k="name" v="Storlitjørna" />
		<tag k="natural" v="water" />
		<tag k="ssr:stedsnr" v="547020" />
	</node>
	<node id="-1398" lat="59.0824083326" lon="6.48579167121">
		<tag k="name" v="Håhellerdammen" />
		<tag k="ssr:stedsnr" v="484818" />
		<tag k="waterway" v="dam" />
	</node>
	<node id="-3444" lat="58.8531634845" lon="5.79332499844">
		<tag k="name" v="Grunningen" />
		<tag k="natural" v="water" />
		<tag k="ssr:stedsnr" v="546966" />
	</node>
	<node id="-1395" lat="58.9061750031" lon="6.15433889645">
		<tag k="name" v="Syrevik" />
		<tag k="natural" v="bay" />
		<tag k="ssr:stedsnr" v="484635" />
	</node>
	<node id="-3436" lat="58.9020957896" lon="6.28490971222">
		<tag k="alt_name" v="Tungevatn" />
		<tag k="name" v="Tungevatnet" />
		<tag k="natural" v="water" />
		<tag k="ssr:stedsnr" v="546693" />
		<tag k="water" v="lake" />
	</node>
	<node id="-1387" lat="59.0449944421" lon="6.33549999233">
		<tag k="name" v="Blommatjørna" />
		<tag k="natural" v="water" />
		<tag k="ssr:stedsnr" v="484121" />
	</node>
	<node id="-3433" lat="58.939283335" lon="5.9120955697">
		<tag k="alt_name" v="nordre Grimstjørn" />
		<tag k="name" v="Grimstjørna" />
		<tag k="natural" v="water" />
		<tag k="ssr:stedsnr" v="546660" />
	</node>
	<node id="-3432" lat="58.9364335088" lon="5.91087489609">
		<tag k="name" v="Ommålstjørna" />
		<tag k="natural" v="water" />
		<tag k="ssr:stedsnr" v="546658" />
	</node>
	<node id="-3430" lat="58.8924611157" lon="5.92320556289">
		<tag k="name" v="Klubben" />
		<tag k="natural" v="cape" />
		<tag k="ssr:stedsnr" v="546614" />
	</node>
	<node id="-1381" lat="58.8906944476" lon="6.21099167285">
		<tag k="name" v="Trettholmen" />
		<tag k="place" v="islet" />
		<tag k="ssr:stedsnr" v="483144" />
	</node>
	<node id="-1380" lat="58.8621611078" lon="6.15148332894">
		<tag k="name" v="Toreholmen" />
		<tag k="place" v="islet" />
		<tag k="ssr:stedsnr" v="482925" />
	</node>
	<node id="-1379" lat="58.8928750016" lon="6.29368055615">
		<tag k="name" v="Grønastranda" />
		<tag k="natural" v="beach" />
		<tag k="ssr:stedsnr" v="482999" />
	</node>
	<node id="-3426" lat="58.8648249967" lon="5.97221943617">
		<tag k="name" v="Tengesdalsvatnet" />
		<tag k="natural" v="water" />
		<tag k="ssr:stedsnr" v="546525" />
		<tag k="water" v="lake" />
	</node>
	<node id="-3423" lat="58.9893666639" lon="6.26564999258">
		<tag k="alt_name" v="Griggelibekken" />
		<tag k="name" v="Griggelva" />
		<tag k="ssr:stedsnr" v="546470" />
		<tag k="waterway" v="stream" />
	</node>
	<node id="-3422" lat="58.9908442812" lon="6.3739118512">
		<tag k="name" v="Jektatjørna" />
		<tag k="natural" v="water" />
		<tag k="ssr:stedsnr" v="546467" />
	</node>
	<node id="-1373" lat="58.9099722195" lon="6.23875554798">
		<tag k="name" v="Graslinebben" />
		<tag k="natural" v="cape" />
		<tag k="ssr:stedsnr" v="482300" />
	</node>
	<node id="-3415" lat="59.0246583306" lon="6.32056389218">
		<tag k="name" v="Lomstjørna" />
		<tag k="natural" v="water" />
		<tag k="ssr:stedsnr" v="545187" />
	</node>
	<node id="-1362" lat="58.8372305532" lon="5.72702777524">
		<tag k="name" v="Storåna" />
		<tag k="ssr:stedsnr" v="327607" />
		<tag k="waterway" v="river" />
	</node>
	<node id="-3406" lat="58.9431888918" lon="6.18726110663">
		<tag k="name" v="Strondå" />
		<tag k="natural" v="beach" />
		<tag k="ssr:stedsnr" v="544667" />
	</node>
	<node id="-3405" lat="58.9054798552" lon="6.35349366942">
		<tag k="name" v="Fannatjørna" />
		<tag k="natural" v="water" />
		<tag k="ssr:stedsnr" v="544993" />
	</node>
	<node id="-3399" lat="58.8991472197" lon="6.2842111029">
		<tag k="name" v="Tungestranda" />
		<tag k="natural" v="beach" />
		<tag k="ssr:stedsnr" v="543946" />
	</node>
	<node id="-1348" lat="58.8069583303" lon="5.94074722768">
		<tag k="name" v="Stora Ryggjavatn" />
		<tag k="natural" v="water" />
		<tag k="ssr:stedsnr" v="326009" />
		<tag k="water" v="lake" />
	</node>
	<node id="-3379" lat="59.0851222251" lon="6.73040277567">
		<tag k="alt_name" v="Brudlitjørna, indra" />
		<tag k="name" v="Indra Brudlitjørna" />
		<tag k="natural" v="water" />
		<tag k="ssr:stedsnr" v="427176" />
		<tag k="water" v="lake" />
	</node>
	<node id="-1328" lat="58.8066111102" lon="5.94233333399">
		<tag k="alt_name" v="stora Ryggjavatnet" />
		<tag k="name" v="Ryggjavatnet" />
		<tag k="natural" v="water" />
		<tag k="ssr:stedsnr" v="304521" />
		<tag k="water" v="lake" />
	</node>
	<node id="-1327" lat="58.9608333361" lon="6.30351111922">
		<tag k="name" v="Nordbekktjørna" />
		<tag k="natural" v="water" />
		<tag k="ssr:stedsnr" v="304519" />
	</node>
	<node id="-1324" lat="58.9891833331" lon="6.45171388606">
		<tag k="name" v="Åkroken" />
		<tag k="place" v="locality" />
		<tag k="ssr:stedsnr" v="304502" />
	</node>
	<node id="-1321" lat="58.8530750046" lon="6.0443138939">
		<tag k="alt_name" v="Trodlabergtjørna" />
		<tag k="name" v="Trollabærtjørna" />
		<tag k="natural" v="water" />
		<tag k="ssr:stedsnr" v="304605" />
	</node>
	<node id="-1319" lat="58.8634972255" lon="6.21279721907">
		<tag k="name" v="Stølsvatnet" />
		<tag k="natural" v="water" />
		<tag k="ssr:stedsnr" v="304206" />
		<tag k="water" v="lake" />
	</node>
	<node id="-3366" lat="58.9605517793" lon="6.39532249614">
		<tag k="name" v="Langavatnet" />
		<tag k="natural" v="water" />
		<tag k="ssr:stedsnr" v="426526" />
		<tag k="water" v="lake" />
	</node>
	<node id="-3365" lat="58.9706555582" lon="6.43571943775">
		<tag k="name" v="Krokavatnet" />
		<tag k="natural" v="water" />
		<tag k="ssr:stedsnr" v="426523" />
	</node>
	<node id="-3364" lat="58.9656805589" lon="6.37493610573">
		<tag k="name" v="Øykjavatnet" />
		<tag k="natural" v="water" />
		<tag k="ssr:stedsnr" v="426522" />
		<tag k="water" v="lake" />
	</node>
	<node id="-3361" lat="58.9323299437" lon="5.86730186655">
		<tag k="name" v="Hetlandsvatnet" />
		<tag k="natural" v="water" />
		<tag k="ssr:stedsnr" v="426700" />
		<tag k="water" v="lake" />
	</node>
	<node id="-3360" lat="58.8736047766" lon="5.88305605749">
		<tag k="name" v="Forenesvatnet" />
		<tag k="natural" v="water" />
		<tag k="ssr:stedsnr" v="426672" />
		<tag k="water" v="lake" />
	</node>
	<node id="-3359" lat="58.8886500037" lon="5.87601667045">
		<tag k="alt_name" v="Lomstjørn" />
		<tag k="name" v="Lomstjørna" />
		<tag k="natural" v="water" />
		<tag k="ssr:stedsnr" v="426670" />
	</node>
	<node id="-3358" lat="58.8825749979" lon="5.87673056157">
		<tag k="alt_name" v="Sloglongstjørna" />
		<tag k="name" v="Sloklongstjørna" />
		<tag k="natural" v="water" />
		<tag k="ssr:stedsnr" v="426668" />
	</node>
	<node id="-3357" lat="58.882884871" lon="5.85600218517">
		<tag k="name" v="Hogstadholmen" />
		<tag k="place" v="islet" />
		<tag k="ssr:stedsnr" v="426666" />
	</node>
	<node id="-1308" lat="58.9800027798" lon="6.25713610944">
		<tag k="name" v="Sollitjørn" />
		<tag k="natural" v="water" />
		<tag k="ssr:stedsnr" v="302061" />
	</node>
	<node id="-3355" lat="59.007655555" lon="6.46597499343">
		<tag k="name" v="Klubbatjørna" />
		<tag k="natural" v="water" />
		<tag k="ssr:stedsnr" v="426189" />
	</node>
	<node id="-3353" lat="59.0614416658" lon="6.56216943721">
		<tag k="name" v="Fyljesdalsvatnet" />
		<tag k="natural" v="water" />
		<tag k="ssr:stedsnr" v="426058" />
		<tag k="water" v="lake" />
	</node>
	<node id="-3350" lat="58.953871574" lon="5.82570310205">
		<tag k="alt_name" v="Ålkjervatn" />
		<tag k="name" v="Ålkjervatnet" />
		<tag k="natural" v="water" />
		<tag k="ssr:stedsnr" v="426041" />
	</node>
	<node id="-3349" lat="59.064014536" lon="6.50088269733">
		<tag k="name" v="Håhellervatnet" />
		<tag k="natural" v="water" />
		<tag k="ssr:stedsnr" v="426033" />
		<tag k="water" v="lake" />
	</node>
	<node id="-1300" lat="58.8713888899" lon="6.07271110985">
		<tag k="name" v="Fossen" />
		<tag k="natural" v="waterfall" />
		<tag k="ssr:stedsnr" v="301161" />
	</node>
	<node id="-3347" lat="58.8644166658" lon="5.84966667351">
		<tag k="alt_name" v="Naudaneset" />
		<tag k="name" v="Nautaneset" />
		<tag k="natural" v="cape" />
		<tag k="ssr:stedsnr" v="425679" />
	</node>
	<node id="-3343" lat="58.9103861624" lon="5.80210256886">
		<tag k="alt_name" v="Dalevatn" />
		<tag k="name" v="Dalevatnet" />
		<tag k="natural" v="water" />
		<tag k="ssr:stedsnr" v="425964" />
		<tag k="water" v="lake" />
	</node>
	<node id="-1293" lat="58.8679194484" lon="6.18910832921">
		<tag k="name" v="Kleppåna" />
		<tag k="ssr:stedsnr" v="465949" />
		<tag k="waterway" v="river" />
	</node>
	<node id="-3338" lat="58.9985936914" lon="6.53947911109">
		<tag k="name" v="Krokavatnet" />
		<tag k="natural" v="water" />
		<tag k="ssr:stedsnr" v="425495" />
		<tag k="water" v="lake" />
	</node>
	<node id="-3337" lat="58.9927750015" lon="6.42323056313">
		<tag k="name" v="Rindakòsbekken" />
		<tag k="ssr:stedsnr" v="425483" />
		<tag k="waterway" v="stream" />
	</node>
	<node id="-3330" lat="59.0346947183" lon="6.36942047139">
		<tag k="name" v="Storlibekken" />
		<tag k="ssr:stedsnr" v="424163" />
		<tag k="waterway" v="stream" />
	</node>
	<node id="-3329" lat="58.9065055568" lon="6.2859083396">
		<tag k="name" v="Litla Tungevatnet" />
		<tag k="natural" v="water" />
		<tag k="ssr:stedsnr" v="424088" />
		<tag k="water" v="lake" />
	</node>
	<node id="-3328" lat="58.9092777735" lon="6.27504445303">
		<tag k="name" v="Hesbreibekken" />
		<tag k="ssr:stedsnr" v="424087" />
		<tag k="waterway" v="stream" />
	</node>
	<node id="-3324" lat="58.983480555" lon="6.28833055837">
		<tag k="name" v="Klovsteintjørnene" />
		<tag k="natural" v="water" />
		<tag k="ssr:stedsnr" v="424030" />
		<tag k="water" v="lake" />
	</node>
	<node id="-1273" lat="58.8250361074" lon="5.80975278418">
		<tag k="name" v="Grasmyrbekken" />
		<tag k="ssr:stedsnr" v="449684" />
		<tag k="waterway" v="stream" />
	</node>
	<node id="-3317" lat="58.8722141504" lon="6.06766538338">
		<tag k="name" v="Svartopstjørna" />
		<tag k="natural" v="water" />
		<tag k="ssr:stedsnr" v="423181" />
	</node>
	<node id="-3313" lat="58.9408333325" lon="6.24858055452">
		<tag k="name" v="Stråtjørn" />
		<tag k="natural" v="water" />
		<tag k="ssr:stedsnr" v="422380" />
	</node>
	<node id="-1259" lat="58.8203722183" lon="5.91397499172">
		<tag k="name" v="Svia" />
		<tag k="ssr:stedsnr" v="448978" />
		<tag k="waterway" v="river" />
	</node>
	<node id="-1251" lat="58.8588500034" lon="5.92110555464">
		<tag k="name" v="Tjørrå" />
		<tag k="ssr:stedsnr" v="448066" />
		<tag k="waterway" v="stream" />
	</node>
	<node id="-1247" lat="58.8246166698" lon="5.84743333262">
		<tag k="name" v="Svilandsfossen" />
		<tag k="natural" v="waterfall" />
		<tag k="ssr:stedsnr" v="448058" />
	</node>
	<node id="-1246" lat="58.9146998847" lon="5.86065399076">
		<tag k="alt_name" v="Frøylandsvatn" />
		<tag k="name" v="Frøylandsvatnet" />
		<tag k="natural" v="water" />
		<tag k="ssr:stedsnr" v="244755" />
		<tag k="water" v="lake" />
	</node>
	<node id="-3293" lat="58.8933333371" lon="6.2291805466">
		<tag k="name" v="Erikreghølen" />
		<tag k="place" v="locality" />
		<tag k="ssr:stedsnr" v="406165" />
	</node>
	<node id="-1238" lat="59.0692000028" lon="6.58025278507">
		<tag k="alt_name" v="Nordre Stølstjørna" />
		<tag k="name" v="Nordrestølstjørna" />
		<tag k="natural" v="water" />
		<tag k="ssr:stedsnr" v="244008" />
	</node>
	<node id="-1225" lat="58.9561249989" lon="6.18544167415">
		<tag k="name" v="Holmen" />
		<tag k="place" v="islet" />
		<tag k="ssr:stedsnr" v="242004" />
	</node>
	<node id="-1223" lat="59.0421416665" lon="6.2794722292">
		<tag k="name" v="Stortjørn" />
		<tag k="natural" v="water" />
		<tag k="ssr:stedsnr" v="242115" />
	</node>
	<node id="-1221" lat="59.0575723928" lon="6.34921095668">
		<tag k="name" v="Teinebekktjørnane" />
		<tag k="natural" v="water" />
		<tag k="ssr:stedsnr" v="241172" />
		<tag k="water" v="lake" />
	</node>
	<node id="-1220" lat="59.0005583306" lon="6.3454138968">
		<tag k="name" v="Skredbekken" />
		<tag k="ssr:stedsnr" v="241164" />
		<tag k="waterway" v="stream" />
	</node>
	<node id="-1215" lat="58.8658472228" lon="5.84131389183">
		<tag k="name" v="Lammaneset" />
		<tag k="natural" v="cape" />
		<tag k="ssr:stedsnr" v="447191" />
	</node>
	<node id="-1211" lat="58.8737972245" lon="5.91795833726">
		<tag k="name" v="Litleholmen" />
		<tag k="place" v="islet" />
		<tag k="ssr:stedsnr" v="447151" />
	</node>
	<node id="-3257" lat="58.9256166697" lon="5.94033055203">
		<tag k="name" v="Botnalaustjørn" />
		<tag k="natural" v="water" />
		<tag k="ssr:stedsnr" v="386099" />
	</node>
	<node id="-3254" lat="58.8712916683" lon="5.86798889003">
		<tag k="name" v="Apalstø" />
		<tag k="natural" v="bay" />
		<tag k="ssr:stedsnr" v="386214" />
	</node>
	<node id="-1205" lat="58.8933489331" lon="5.94710973643">
		<tag k="name" v="Liaholmen" />
		<tag k="place" v="islet" />
		<tag k="ssr:stedsnr" v="447068" />
	</node>
	<node id="-3243" lat="59.1002749995" lon="6.83493333836">
		<tag k="alt_name" v="Ramsdalstjørna, nedra" />
		<tag k="name" v="Nedra Ramsdalstjørna" />
		<tag k="natural" v="water" />
		<tag k="ssr:stedsnr" v="366186" />
	</node>
	<node id="-3242" lat="59.0993304337" lon="6.77553738137">
		<tag k="alt_name" v="Vaulatjørna, midtra" />
		<tag k="name" v="Midtra Vaulatjørna" />
		<tag k="natural" v="water" />
		<tag k="ssr:stedsnr" v="366177" />
		<tag k="water" v="lake" />
	</node>
	<node id="-3236" lat="59.0383222246" lon="6.68720277019">
		<tag k="name" v="Venekvævtjørna" />
		<tag k="natural" v="water" />
		<tag k="ssr:stedsnr" v="365831" />
	</node>
	<node id="-3234" lat="58.9232861111" lon="6.18988888587">
		<tag k="name" v="Grytåna" />
		<tag k="ssr:stedsnr" v="365767" />
		<tag k="waterway" v="stream" />
	</node>
	<node id="-3228" lat="58.950909746" lon="6.18924776099">
		<tag k="alt_name" v="Eidavatn;Eiavatnet" />
		<tag k="name" v="Eidavatnet" />
		<tag k="natural" v="water" />
		<tag k="ssr:stedsnr" v="365725" />
		<tag k="water" v="lake" />
	</node>
	<node id="-1178" lat="58.8757777812" lon="6.15308332615">
		<tag k="alt_name" v="Sollitjørna" />
		<tag k="name" v="Sollivatnet" />
		<tag k="natural" v="water" />
		<tag k="ssr:stedsnr" v="182558" />
	</node>
	<node id="-3225" lat="58.900532834" lon="5.93973942419">
		<tag k="name" v="Iglatjørna" />
		<tag k="natural" v="water" />
		<tag k="ssr:stedsnr" v="365647" />
	</node>
	<node id="-1176" lat="59.0402610394" lon="6.33774990235">
		<tag k="name" v="Beinatjørnane" />
		<tag k="natural" v="water" />
		<tag k="ssr:stedsnr" v="181155" />
		<tag k="water" v="lake" />
	</node>
	<node id="-3219" lat="58.9530444442" lon="6.51314444406">
		<tag k="alt_name" v="Jomfruvatnet" />
		<tag k="name" v="Nordåvatnet" />
		<tag k="natural" v="water" />
		<tag k="ssr:stedsnr" v="365564" />
		<tag k="water" v="lake" />
	</node>
	<node id="-1170" lat="58.9532638875" lon="6.18948610443">
		<tag k="name" v="Neset" />
		<tag k="natural" v="cape" />
		<tag k="ssr:stedsnr" v="181005" />
	</node>
	<node id="-3217" lat="58.9496118304" lon="6.3836550029">
		<tag k="name" v="Fossvatnet" />
		<tag k="natural" v="water" />
		<tag k="ssr:stedsnr" v="365552" />
		<tag k="water" v="lake" />
	</node>
	<node id="-3215" lat="58.9776855097" lon="6.31410639891">
		<tag k="alt_name" v="Skjørtjørna" />
		<tag k="name" v="Legetjørna" />
		<tag k="natural" v="water" />
		<tag k="ssr:stedsnr" v="365520" />
	</node>
	<node id="-3214" lat="58.9772777753" lon="6.35710000434">
		<tag k="name" v="Sandvatnet" />
		<tag k="natural" v="water" />
		<tag k="ssr:stedsnr" v="365518" />
	</node>
	<node id="-3212" lat="58.9968251259" lon="6.48139343513">
		<tag k="alt_name" v="Flørlivatnet, stora" />
		<tag k="name" v="Stora Flørlivatnet" />
		<tag k="natural" v="water" />
		<tag k="ssr:stedsnr" v="365260" />
		<tag k="water" v="lake" />
	</node>
	<node id="-3210" lat="59.1265551362" lon="6.6780243949">
		<tag k="name" v="Såtetjørna" />
		<tag k="natural" v="water" />
		<tag k="ssr:stedsnr" v="365146" />
	</node>
	<node id="-1156" lat="58.8769611082" lon="6.27134166356">
		<tag k="name" v="Lauvasstronda" />
		<tag k="natural" v="beach" />
		<tag k="ssr:stedsnr" v="283945" />
	</node>
	<node id="-3200" lat="59.054391663" lon="6.29626943687">
		<tag k="name" v="Høgavatnet" />
		<tag k="natural" v="water" />
		<tag k="ssr:stedsnr" v="365006" />
		<tag k="water" v="lake" />
	</node>
	<node id="-1146" lat="58.9308361897" lon="6.28791829289">
		<tag k="name" v="Kaldbekk" />
		<tag k="ssr:stedsnr" v="282460" />
		<tag k="waterway" v="stream" />
	</node>
	<node id="-3185" lat="58.9887320303" lon="6.34242476016">
		<tag k="name" v="Soddatjørna" />
		<tag k="natural" v="water" />
		<tag k="ssr:stedsnr" v="364511" />
	</node>
	<node id="-3182" lat="59.0586555544" lon="6.65953055125">
		<tag k="name" v="Stølsåna" />
		<tag k="ssr:stedsnr" v="363845" />
		<tag k="waterway" v="river" />
	</node>
	<node id="-1133" lat="58.8127722225" lon="5.73639721473">
		<tag k="name" v="Lonabekken" />
		<tag k="ssr:stedsnr" v="145617" />
		<tag k="waterway" v="stream" />
	</node>
	<node id="-1895" lat="58.8709000025" lon="5.83499166004">
		<tag k="name" v="Risholmen" />
		<tag k="place" v="islet" />
		<tag k="ssr:stedsnr" v="629209" />
	</node>
	<node id="-3173" lat="59.0379878712" lon="6.35724786687">
		<tag k="name" v="Bustetjørna" />
		<tag k="natural" v="water" />
		<tag k="ssr:stedsnr" v="363135" />
	</node>
	<node id="-1120" lat="58.8475722266" lon="5.96737778239">
		<tag k="name" v="Heimra Tjørna" />
		<tag k="natural" v="water" />
		<tag k="ssr:stedsnr" v="266921" />
	</node>
	<node id="-1118" lat="58.8584194439" lon="5.96453888284">
		<tag k="name" v="Liabekken" />
		<tag k="ssr:stedsnr" v="266898" />
		<tag k="waterway" v="stream" />
	</node>
	<node id="-3163" lat="58.925825001" lon="6.38307778111">
		<tag k="name" v="Habn" />
		<tag k="natural" v="bay" />
		<tag k="ssr:stedsnr" v="363039" />
	</node>
	<node id="-3162" lat="58.9076833351" lon="6.14380832498">
		<tag k="name" v="Vasstrand" />
		<tag k="natural" v="beach" />
		<tag k="ssr:stedsnr" v="362651" />
	</node>
	<node id="-3154" lat="58.8845777816" lon="6.30713889485">
		<tag k="name" v="Tausabekken" />
		<tag k="ssr:stedsnr" v="362000" />
		<tag k="waterway" v="stream" />
	</node>
	<node id="-1099" lat="58.8582305597" lon="5.89377222213">
		<tag k="name" v="Toskatjørna" />
		<tag k="natural" v="water" />
		<tag k="ssr:stedsnr" v="266054" />
	</node>
	<node id="-3145" lat="58.9366166631" lon="6.15956667103">
		<tag k="name" v="Ulvsgråvatnet" />
		<tag k="natural" v="water" />
		<tag k="ssr:stedsnr" v="345476" />
	</node>
	<node id="-1092" lat="58.8846611141" lon="5.90838056171">
		<tag k="name" v="Risnestangen" />
		<tag k="natural" v="cape" />
		<tag k="ssr:stedsnr" v="265192" />
	</node>
	<node id="-3138" lat="58.8951166671" lon="6.00428889261">
		<tag k="name" v="Høleåna" />
		<tag k="ssr:stedsnr" v="343145" />
		<tag k="waterway" v="river" />
	</node>
	<node id="-1089" lat="58.9092500028" lon="5.85290555048">
		<tag k="name" v="Teinebekken" />
		<tag k="ssr:stedsnr" v="265153" />
		<tag k="waterway" v="stream" />
	</node>
	<node id="-1084" lat="58.9488649608" lon="5.89037563407">
		<tag k="loc_name" v="Hamratjørna" />
		<tag k="name" v="Hamratjørn" />
		<tag k="natural" v="water" />
		<tag k="ssr:stedsnr" v="265120" />
	</node>
	<node id="-1081" lat="58.9568388867" lon="5.87069166253">
		<tag k="name" v="Johannesvatnet" />
		<tag k="natural" v="water" />
		<tag k="ssr:stedsnr" v="265101" />
		<tag k="water" v="lake" />
	</node>
	<node id="-3126" lat="58.8432916708" lon="5.97012777313">
		<tag k="name" v="Tverrbekken" />
		<tag k="ssr:stedsnr" v="327883" />
		<tag k="waterway" v="stream" />
	</node>
	<node id="-3125" lat="58.8316607853" lon="5.94923530508">
		<tag k="name" v="Teinetjørna" />
		<tag k="natural" v="water" />
		<tag k="ssr:stedsnr" v="327861" />
	</node>
	<node id="-3124" lat="58.8036722229" lon="5.7232361138">
		<tag k="name" v="Røyrvikhølen" />
		<tag k="place" v="locality" />
		<tag k="ssr:stedsnr" v="327595" />
	</node>
	<node id="-1072" lat="59.0664166689" lon="6.56578611634">
		<tag k="name" v="Smalebekken" />
		<tag k="ssr:stedsnr" v="120855" />
		<tag k="waterway" v="stream" />
	</node>
	<node id="-3111" lat="58.8815472227" lon="5.78538333954">
		<tag k="name" v="Gramstadbekken" />
		<tag k="ssr:stedsnr" v="327188" />
		<tag k="waterway" v="stream" />
	</node>
	<node id="-1061" lat="58.8580194464" lon="5.72813056169">
		<tag k="name" v="Gisketjørn" />
		<tag k="natural" v="water" />
		<tag k="ssr:stedsnr" v="85605" />
	</node>
	<node id="-3105" lat="58.880880556" lon="5.85375277952">
		<tag k="name" v="Bergursneset" />
		<tag k="natural" v="cape" />
		<tag k="ssr:stedsnr" v="326200" />
	</node>
	<node id="-1054" lat="58.8367472217" lon="5.96090277393">
		<tag k="name" v="Djupatjørna" />
		<tag k="natural" v="water" />
		<tag k="ssr:stedsnr" v="84906" />
	</node>
	<node id="-3098" lat="58.8709638852" lon="5.87718333577">
		<tag k="name" v="Kvednaholmane" />
		<tag k="place" v="islet" />
		<tag k="ssr:stedsnr" v="326208" />
	</node>
	<node id="-3094" lat="58.8059249997" lon="5.84469443764">
		<tag k="name" v="Krossbekken" />
		<tag k="ssr:stedsnr" v="326094" />
		<tag k="waterway" v="stream" />
	</node>
	<node id="-1045" lat="58.8441611124" lon="5.88943889739">
		<tag k="name" v="Fossen" />
		<tag k="ssr:stedsnr" v="84056" />
		<tag k="waterway" v="stream" />
	</node>
	<node id="-1043" lat="58.8134615638" lon="5.92515925638">
		<tag k="name" v="Pyttatjørn" />
		<tag k="natural" v="water" />
		<tag k="ssr:stedsnr" v="84002" />
	</node>
	<node id="-3088" lat="59.002963887" lon="6.38446110984">
		<tag k="name" v="Kvernåna" />
		<tag k="ssr:stedsnr" v="305185" />
		<tag k="waterway" v="stream" />
	</node>
	<node id="-3087" lat="59.1004000009" lon="6.86224999382">
		<tag k="name" v="Raudbergtjørna" />
		<tag k="natural" v="water" />
		<tag k="ssr:stedsnr" v="305184" />
	</node>
	<node id="-3086" lat="59.0786333291" lon="6.72317222113">
		<tag k="alt_name" v="Brudlitjørna, heimra" />
		<tag k="name" v="Heimra Brudlitjørna" />
		<tag k="natural" v="water" />
		<tag k="ssr:stedsnr" v="305158" />
	</node>
	<node id="-3085" lat="59.059427781" lon="6.60205556161">
		<tag k="name" v="Storatjørna" />
		<tag k="natural" v="water" />
		<tag k="ssr:stedsnr" v="305152" />
	</node>
	<node id="-3084" lat="59.1651055531" lon="6.89602777787">
		<tag k="name" v="Svodhellervatnet" />
		<tag k="natural" v="water" />
		<tag k="ssr:stedsnr" v="305138" />
		<tag k="water" v="lake" />
	</node>
	<node id="-1035" lat="58.8811113428" lon="5.89573594609">
		<tag k="name" v="Skjelet" />
		<tag k="natural" v="water" />
		<tag k="ssr:stedsnr" v="83153" />
	</node>
	<node id="-3082" lat="59.1036750025" lon="6.6741249952">
		<tag k="name" v="Langatjørna" />
		<tag k="natural" v="water" />
		<tag k="ssr:stedsnr" v="305130" />
	</node>
	<node id="-3080" lat="59.026666666" lon="6.254575003">
		<tag k="name" v="Stemvatnet" />
		<tag k="natural" v="water" />
		<tag k="ssr:stedsnr" v="305052" />
	</node>
	<node id="-3076" lat="58.8702833312" lon="5.8236249975">
		<tag k="name" v="Lutsivatnet" />
		<tag k="natural" v="water" />
		<tag k="ssr:stedsnr" v="304989" />
		<tag k="water" v="lake" />
	</node>
	<node id="-3074" lat="58.8884915925" lon="5.81827300672">
		<tag k="name" v="Fjogstadvatnet" />
		<tag k="natural" v="water" />
		<tag k="ssr:stedsnr" v="304946" />
		<tag k="water" v="lake" />
	</node>
	<node id="-1022" lat="59.0884138929" lon="6.41741944231">
		<tag k="name" v="Storaeidet" />
		<tag k="natural" v="strait" />
		<tag k="ssr:stedsnr" v="245090" />
	</node>
	<node id="-3066" lat="58.9104206152" lon="6.44828990077">
		<tag k="name" v="Småvatna" />
		<tag k="natural" v="water" />
		<tag k="ssr:stedsnr" v="304751" />
		<tag k="water" v="lake" />
	</node>
	<node id="-3064" lat="58.9172000009" lon="6.44157499999">
		<tag k="name" v="Sorpene" />
		<tag k="natural" v="water" />
		<tag k="ssr:stedsnr" v="304748" />
		<tag k="water" v="lake" />
	</node>
	<node id="-1015" lat="58.810347187" lon="5.82035298135">
		<tag k="alt_name" v="Espelandstjørna" />
		<tag k="name" v="Espelandstjørn" />
		<tag k="natural" v="water" />
		<tag k="ssr:stedsnr" v="244923" />
	</node>
	<node id="-3062" lat="58.9045027815" lon="6.42734999971">
		<tag k="name" v="Løyningstjørna" />
		<tag k="natural" v="water" />
		<tag k="ssr:stedsnr" v="304743" />
	</node>
	<node id="-1012" lat="59.012226907" lon="6.71849917151">
		<tag k="name" v="Vasstjørna" />
		<tag k="natural" v="water" />
		<tag k="ssr:stedsnr" v="244777" />
	</node>
	<node id="-3057" lat="58.929413888" lon="5.90996111937">
		<tag k="name" v="Kleivadalsvatnet" />
		<tag k="natural" v="water" />
		<tag k="old_name" v="Kletvadalsvatnet" />
		<tag k="ssr:stedsnr" v="304722" />
		<tag k="water" v="lake" />
	</node>
	<node id="-3055" lat="58.9438527786" lon="6.49162500793">
		<tag k="name" v="Nordåtjørna" />
		<tag k="natural" v="water" />
		<tag k="ssr:stedsnr" v="304716" />
	</node>
	<node id="-1006" lat="59.1038555314" lon="6.57864656966">
		<tag k="name" v="Falkadalsvatnet" />
		<tag k="natural" v="water" />
		<tag k="ssr:stedsnr" v="244120" />
		<tag k="water" v="lake" />
	</node>
	<node id="-3053" lat="58.9419805543" lon="5.92536944086">
		<tag k="alt_name" v="Breidviksstemmen, søre;Øvre Breivikstemmen" />
		<tag k="name" v="Søre Breidviksstemmen" />
		<tag k="natural" v="water" />
		<tag k="ssr:stedsnr" v="304702" />
	</node>
	<node id="-1001" lat="59.0729388915" lon="6.5217833408">
		<tag k="name" v="Tjørna" />
		<tag k="natural" v="water" />
		<tag k="ssr:stedsnr" v="244001" />
	</node>
	<node id="-3047" lat="58.9922583364" lon="6.32933611556">
		<tag k="name" v="Fiskahellervatnet" />
		<tag k="natural" v="water" />
		<tag k="ssr:stedsnr" v="304494" />
	</node>
	<node id="-3045" lat="58.8581861137" lon="6.24290000239">
		<tag k="name" v="Fjorderòsa" />
		<tag k="ssr:stedsnr" v="304656" />
		<tag k="waterway" v="stream" />
	</node>
	<node id="-995" lat="58.9421366089" lon="5.94063599405">
		<tag k="alt_name" v="Asbjørntjørn" />
		<tag k="name" v="Asbjørnstjørna" />
		<tag k="natural" v="water" />
		<tag k="ssr:stedsnr" v="243700" />
	</node>
	<node id="-994" lat="58.8986172409" lon="6.19620044883">
		<tag k="name" v="Stavtjørn" />
		<tag k="natural" v="water" />
		<tag k="ssr:stedsnr" v="243680" />
	</node>
	<node id="-3040" lat="58.8554944489" lon="5.88072500481">
		<tag k="name" v="Nordlandstjørna" />
		<tag k="natural" v="water" />
		<tag k="ssr:stedsnr" v="304580" />
	</node>
	<node id="-3039" lat="58.9411861109" lon="6.30671110375">
		<tag k="name" v="Vinddøla" />
		<tag k="ssr:stedsnr" v="304568" />
		<tag k="waterway" v="river" />
	</node>
	<node id="-3038" lat="58.9478416641" lon="6.47433055316">
		<tag k="name" v="Bergvatnet" />
		<tag k="natural" v="water" />
		<tag k="ssr:stedsnr" v="304554" />
	</node>
	<node id="-987" lat="58.979954369" lon="6.4714684905">
		<tag k="name" v="Tverrvatnet" />
		<tag k="natural" v="water" />
		<tag k="ssr:stedsnr" v="243540" />
		<tag k="water" v="lake" />
	</node>
	<node id="-982" lat="59.0578472259" lon="6.68465000599">
		<tag k="name" v="Tjodåna" />
		<tag k="ssr:stedsnr" v="242829" />
		<tag k="waterway" v="river" />
	</node>
	<node id="-3027" lat="58.8543694413" lon="6.01977777418">
		<tag k="name" v="Tjelmatjørna" />
		<tag k="natural" v="water" />
		<tag k="ssr:stedsnr" v="302827" />
	</node>
	<node id="-978" lat="59.0289116649" lon="6.331519282">
		<tag k="name" v="Lidvarstjørna" />
		<tag k="natural" v="water" />
		<tag k="ssr:stedsnr" v="242205" />
	</node>
	<node id="-976" lat="59.0393241197" lon="6.35323223977">
		<tag k="name" v="Stigatjørna" />
		<tag k="natural" v="water" />
		<tag k="ssr:stedsnr" v="242128" />
	</node>
	<node id="-975" lat="58.9234250023" lon="6.38489166624">
		<tag k="name" v="Følvassbekken" />
		<tag k="ssr:stedsnr" v="242036" />
		<tag k="waterway" v="stream" />
	</node>
	<node id="-3022" lat="58.9604388885" lon="6.30452778523">
		<tag k="name" v="Vinddalsvatn" />
		<tag k="natural" v="water" />
		<tag k="ssr:stedsnr" v="302291" />
		<tag k="water" v="lake" />
	</node>
	<node id="-967" lat="58.9043027763" lon="6.1829055519">
		<tag k="name" v="Oalandstjørna" />
		<tag k="natural" v="water" />
		<tag k="ssr:stedsnr" v="241130" />
	</node>
	<node id="-964" lat="58.9835694459" lon="6.26393611596">
		<tag k="name" v="Griggelitjørn" />
		<tag k="natural" v="water" />
		<tag k="ssr:stedsnr" v="241044" />
	</node>
	<node id="-961" lat="59.0638000035" lon="6.42012499421">
		<tag k="name" v="Mørkebuvatnet" />
		<tag k="natural" v="water" />
		<tag k="ssr:stedsnr" v="62029" />
		<tag k="water" v="lake" />
	</node>
	<node id="-948" lat="58.912411107" lon="6.10589444633">
		<tag k="name" v="Skrebekk" />
		<tag k="ssr:stedsnr" v="237541" />
		<tag k="waterway" v="stream" />
	</node>
	<node id="-942" lat="58.8649861085" lon="6.2130416689">
		<tag k="name" v="Mælstølsvatnet" />
		<tag k="natural" v="water" />
		<tag k="ssr:stedsnr" v="40954" />
		<tag k="water" v="lake" />
	</node>
	<node id="-2986" lat="58.9190694445" lon="5.7910749922">
		<tag k="name" v="Nordafjellstjørna" />
		<tag k="natural" v="water" />
		<tag k="ssr:stedsnr" v="206056" />
	</node>
	<node id="-1521" lat="58.8324055534" lon="5.74064443796">
		<tag k="name" v="Høylandsåna" />
		<tag k="ssr:stedsnr" v="509608" />
		<tag k="waterway" v="river" />
	</node>
	<node id="-2974" lat="58.8321111072" lon="5.97059166778">
		<tag k="name" v="Vaudl" />
		<tag k="natural" v="strait" />
		<tag k="ssr:stedsnr" v="205898" />
	</node>
	<node id="-2969" lat="58.8908888894" lon="5.91651945029">
		<tag k="name" v="Lammaneset" />
		<tag k="natural" v="cape" />
		<tag k="ssr:stedsnr" v="205196" />
	</node>
	<node id="-2967" lat="58.8705444464" lon="5.91382222896">
		<tag k="name" v="Osen" />
		<tag k="natural" v="bay" />
		<tag k="ssr:stedsnr" v="205184" />
	</node>
	<node id="-916" lat="58.8094373095" lon="5.90832510674">
		<tag k="name" v="Midtjørna" />
		<tag k="natural" v="water" />
		<tag k="ssr:stedsnr" v="23009" />
	</node>
	<node id="-913" lat="58.8800638914" lon="6.25122499178">
		<tag k="name" v="Kuholmen" />
		<tag k="place" v="islet" />
		<tag k="ssr:stedsnr" v="222927" />
	</node>
	<node id="-2960" lat="58.9459033457" lon="5.89955831795">
		<tag k="loc_name" v="Hodlatjørna" />
		<tag k="name" v="Hodlatjørn" />
		<tag k="natural" v="water" />
		<tag k="ssr:stedsnr" v="205160" />
	</node>
	<node id="-905" lat="58.9512687281" lon="6.32988372993">
		<tag k="name" v="Tverråna" />
		<tag k="ssr:stedsnr" v="1554" />
		<tag k="waterway" v="stream" />
	</node>
	<node id="-902" lat="58.913047222" lon="6.41225278271">
		<tag k="name" v="Juvavatnet" />
		<tag k="natural" v="water" />
		<tag k="ssr:stedsnr" v="732" />
	</node>
	<node id="-900" lat="58.8983500009" lon="6.27337500448">
		<tag k="name" v="Svartatjørna" />
		<tag k="natural" v="water" />
		<tag k="ssr:stedsnr" v="725" />
	</node>
	<node id="-898" lat="58.8988305541" lon="6.23737500784">
		<tag k="name" v="Lomatjørna" />
		<tag k="natural" v="water" />
		<tag k="ssr:stedsnr" v="722" />
	</node>
	<node id="-2945" lat="59.1101277741" lon="6.69124721592">
		<tag k="alt_name" v="Dyrgrovtjørnene, heimre" />
		<tag k="name" v="Heimre Dyrgrovtjørnene" />
		<tag k="natural" v="water" />
		<tag k="ssr:stedsnr" v="184125" />
		<tag k="water" v="lake" />
	</node>
	<node id="-2944" lat="59.0924426743" lon="6.5976432699">
		<tag k="name" v="Strandvatnet" />
		<tag k="natural" v="water" />
		<tag k="old_name" v="Strandavatnet" />
		<tag k="ssr:stedsnr" v="184088" />
		<tag k="water" v="lake" />
	</node>
	<node id="-2943" lat="59.0928361137" lon="6.54003611509">
		<tag k="name" v="Storaneset" />
		<tag k="natural" v="cape" />
		<tag k="ssr:stedsnr" v="184074" />
	</node>
	<node id="-2931" lat="58.9240666708" lon="6.37695000707">
		<tag k="alt_name" v="Indra Vatnet" />
		<tag k="name" v="Indravatnet" />
		<tag k="natural" v="water" />
		<tag k="ssr:stedsnr" v="183728" />
		<tag k="water" v="lake" />
	</node>
	<node id="-2927" lat="58.9306500009" lon="6.24948332637">
		<tag k="name" v="Migartjørna" />
		<tag k="natural" v="water" />
		<tag k="ssr:stedsnr" v="183698" />
	</node>
	<node id="-2924" lat="58.8803916641" lon="5.92054999628">
		<tag k="alt_name" v="Storeholmen" />
		<tag k="name" v="Storholmen" />
		<tag k="place" v="islet" />
		<tag k="ssr:stedsnr" v="183665" />
	</node>
	<node id="-2923" lat="58.8866314895" lon="5.93360340504">
		<tag k="name" v="Vommavatnet" />
		<tag k="natural" v="water" />
		<tag k="ssr:stedsnr" v="183651" />
		<tag k="water" v="lake" />
	</node>
	<node id="-2922" lat="58.9147833362" lon="6.13296110536">
		<tag k="alt_name" v="Svartlivatnet" />
		<tag k="name" v="Svartalivatn" />
		<tag k="natural" v="water" />
		<tag k="ssr:stedsnr" v="183631" />
		<tag k="water" v="lake" />
	</node>
	<node id="-1511" lat="58.861219443" lon="5.84884722138">
		<tag k="name" v="Naudaneset" />
		<tag k="natural" v="cape" />
		<tag k="ssr:stedsnr" v="509034" />
	</node>
	<node id="-2917" lat="58.9441749966" lon="6.4475944521">
		<tag k="name" v="Molteknuttjørna" />
		<tag k="natural" v="water" />
		<tag k="ssr:stedsnr" v="183519" />
	</node>
	<node id="-2915" lat="58.9453305564" lon="6.27975000113">
		<tag k="name" v="Tyllebakkvatnet" />
		<tag k="natural" v="water" />
		<tag k="ssr:stedsnr" v="183513" />
	</node>
	<node id="-2912" lat="58.8023583353" lon="5.88303888723">
		<tag k="alt_name" v="Rodatjørn" />
		<tag k="name" v="Rotatjørna" />
		<tag k="natural" v="water" />
		<tag k="ssr:stedsnr" v="183493" />
	</node>
	<node id="-2902" lat="59.0742638903" lon="6.33517777364">
		<tag k="name" v="Stemvatnet" />
		<tag k="natural" v="water" />
		<tag k="ssr:stedsnr" v="183009" />
	</node>
	<node id="-2899" lat="58.9521944402" lon="5.90079445251">
		<tag k="name" v="Nordavatnet" />
		<tag k="natural" v="water" />
		<tag k="ssr:stedsnr" v="182789" />
		<tag k="water" v="lake" />
	</node>
	<node id="-2896" lat="58.9825916695" lon="6.41603332493">
		<tag k="name" v="Sauatjørna" />
		<tag k="natural" v="water" />
		<tag k="ssr:stedsnr" v="182502" />
	</node>
	<node id="-2888" lat="59.0596722264" lon="6.4455694454">
		<tag k="name" v="Longatjørna" />
		<tag k="natural" v="water" />
		<tag k="ssr:stedsnr" v="181821" />
	</node>
	<node id="-2885" lat="58.9247055588" lon="6.2907888839">
		<tag k="name" v="Kvitlå" />
		<tag k="ssr:stedsnr" v="181097" />
		<tag k="waterway" v="stream" />
	</node>
	<node id="-2883" lat="59.0407000013" lon="6.32941666236">
		<tag k="name" v="Svartehølen" />
		<tag k="place" v="locality" />
		<tag k="ssr:stedsnr" v="181141" />
	</node>
	<node id="-2870" lat="58.9173277753" lon="6.26600278609">
		<tag k="name" v="Naustrevika" />
		<tag k="natural" v="bay" />
		<tag k="ssr:stedsnr" v="178270" />
	</node>
	<node id="-2869" lat="58.9141972207" lon="6.2696888936">
		<tag k="name" v="Storågneset" />
		<tag k="natural" v="cape" />
		<tag k="ssr:stedsnr" v="178262" />
	</node>
	<node id="-2861" lat="58.8315343494" lon="5.86930280224">
		<tag k="alt_name" v="Skjelbreidtjørna" />
		<tag k="name" v="Skjelbreitjørna" />
		<tag k="natural" v="water" />
		<tag k="ssr:stedsnr" v="162651" />
		<tag k="water" v="lake" />
	</node>
	<node id="-2836" lat="58.8122916621" lon="5.81185554873">
		<tag k="name" v="Skittjørn" />
		<tag k="natural" v="water" />
		<tag k="ssr:stedsnr" v="145210" />
	</node>
	<node id="-1495" lat="58.9248888849" lon="5.85243610327">
		<tag k="name" v="Stemmen" />
		<tag k="ssr:stedsnr" v="508138" />
		<tag k="waterway" v="dam" />
	</node>
	<node id="-2821" lat="58.8678916704" lon="5.83687221857">
		<tag k="name" v="Hanes" />
		<tag k="natural" v="cape" />
		<tag k="ssr:stedsnr" v="144238" />
	</node>
	<node id="-2820" lat="58.8742666651" lon="5.83405833419">
		<tag k="name" v="Sandalsholmane" />
		<tag k="place" v="islet" />
		<tag k="ssr:stedsnr" v="144226" />
	</node>
	<node id="-2813" lat="58.936236109" lon="5.86941388121">
		<tag k="name" v="Krambuneset" />
		<tag k="natural" v="cape" />
		<tag k="ssr:stedsnr" v="144193" />
	</node>
	<node id="-2811" lat="58.8785055539" lon="5.8935694464">
		<tag k="name" v="Heimra Longaneset" />
		<tag k="natural" v="cape" />
		<tag k="ssr:stedsnr" v="144170" />
	</node>
	<node id="-2806" lat="58.9317527758" lon="5.92105555085">
		<tag k="name" v="Blommatjørna" />
		<tag k="natural" v="water" />
		<tag k="ssr:stedsnr" v="144139" />
	</node>
	<node id="-2795" lat="58.8093833309" lon="5.89963333658">
		<tag k="name" v="Gulltjørna" />
		<tag k="natural" v="water" />
		<tag k="ssr:stedsnr" v="143006" />
	</node>
	<node id="-2794" lat="58.9533305579" lon="6.25689443909">
		<tag k="name" v="Trodalstjørnane" />
		<tag k="natural" v="water" />
		<tag k="ssr:stedsnr" v="142080" />
		<tag k="water" v="lake" />
	</node>
	<node id="-2783" lat="59.1702277754" lon="6.92175000447">
		<tag k="name" v="Lonevatnet" />
		<tag k="natural" v="water" />
		<tag k="ssr:stedsnr" v="123163" />
		<tag k="water" v="lake" />
	</node>
	<node id="-2781" lat="59.1698416291" lon="6.65997517329">
		<tag k="name" v="Heiavatnet" />
		<tag k="natural" v="water" />
		<tag k="ssr:stedsnr" v="123159" />
		<tag k="water" v="lake" />
	</node>
	<node id="-2779" lat="59.1493527787" lon="6.61262499399">
		<tag k="name" v="Breiavatnet" />
		<tag k="natural" v="water" />
		<tag k="ssr:stedsnr" v="123153" />
		<tag k="water" v="lake" />
	</node>
	<node id="-2777" lat="59.1358760267" lon="6.68111535971">
		<tag k="name" v="Ådalstjørnene" />
		<tag k="natural" v="water" />
		<tag k="ssr:stedsnr" v="123144" />
		<tag k="water" v="lake" />
	</node>
	<node id="-2774" lat="59.0401323757" lon="6.30846581315">
		<tag k="name" v="Tvaravatnet" />
		<tag k="natural" v="water" />
		<tag k="ssr:stedsnr" v="123071" />
	</node>
	<node id="-2771" lat="59.0382083371" lon="6.33221944766">
		<tag k="name" v="Stølatjørna" />
		<tag k="natural" v="water" />
		<tag k="ssr:stedsnr" v="123037" />
	</node>
	<node id="-2769" lat="58.8661738378" lon="5.8068117512">
		<tag k="name" v="Dybingen" />
		<tag k="natural" v="water" />
		<tag k="old_name" v="Dybningen" />
		<tag k="ssr:stedsnr" v="122987" />
		<tag k="water" v="lake" />
	</node>
	<node id="-2767" lat="58.8853727865" lon="5.79683798053">
		<tag k="alt_name" v="Gramstadtjørn" />
		<tag k="name" v="Gramstadtjørna" />
		<tag k="natural" v="water" />
		<tag k="ssr:stedsnr" v="122928" />
	</node>
	<node id="-2756" lat="58.9996770658" lon="6.67473936148">
		<tag k="name" v="Tjodavatnet" />
		<tag k="natural" v="water" />
		<tag k="ssr:stedsnr" v="122776" />
		<tag k="water" v="lake" />
	</node>
	<node id="-2751" lat="58.9114392445" lon="5.95913966061">
		<tag k="fixme" v="multiple name tags, choose one and add the other to alt_name" />
		<tag k="name" v="Rundatjørn;Slevatjørna" />
		<tag k="natural" v="water" />
		<tag k="ssr:stedsnr" v="122736" />
	</node>
	<node id="-1933" lat="58.9680361122" lon="6.32241944911">
		<tag k="name" v="Stakklitjørna" />
		<tag k="natural" v="water" />
		<tag k="ssr:stedsnr" v="729519" />
	</node>
	<node id="-2748" lat="58.931391667" lon="6.15351111226">
		<tag k="alt_name" v="Holmavatnet" />
		<tag k="name" v="Holmavatn" />
		<tag k="natural" v="water" />
		<tag k="ssr:stedsnr" v="122723" />
		<tag k="water" v="lake" />
	</node>
	<node id="-2740" lat="58.9408370692" lon="5.89439564162">
		<tag k="alt_name" v="Eltarvågvatnet" />
		<tag k="name" v="Søravatnet" />
		<tag k="natural" v="water" />
		<tag k="ssr:stedsnr" v="122676" />
		<tag k="water" v="lake" />
	</node>
	<node id="-2738" lat="58.8433027766" lon="5.9173361135">
		<tag k="alt_name" v="Krogedalstjørna" />
		<tag k="name" v="Kråkedalstjørna" />
		<tag k="natural" v="water" />
		<tag k="ssr:stedsnr" v="122597" />
	</node>
	<node id="-2727" lat="58.9512469324" lon="6.42643626855">
		<tag k="name" v="Molteknutvatnet" />
		<tag k="natural" v="water" />
		<tag k="ssr:stedsnr" v="122531" />
		<tag k="water" v="lake" />
	</node>
	<node id="-2725" lat="58.9676555546" lon="6.3089861118">
		<tag k="name" v="Uravatnet" />
		<tag k="natural" v="water" />
		<tag k="ssr:stedsnr" v="122502" />
	</node>
	<node id="-2724" lat="58.9874249969" lon="6.52233333938">
		<tag k="name" v="Krokavasstjørna" />
		<tag k="natural" v="water" />
		<tag k="ssr:stedsnr" v="122500" />
	</node>
	<node id="-2721" lat="58.9948999976" lon="6.27657500811">
		<tag k="alt_name" v="Bådabekken;Båtbekken" />
		<tag k="name" v="Båtabekken" />
		<tag k="ssr:stedsnr" v="122485" />
		<tag k="waterway" v="stream" />
	</node>
	<node id="-2718" lat="59.063855554" lon="6.62352221878">
		<tag k="name" v="Tjørnastølstjørna" />
		<tag k="natural" v="water" />
		<tag k="ssr:stedsnr" v="122147" />
	</node>
	<node id="-1134" lat="58.8043694463" lon="5.68709721907">
		<tag k="name" v="Skjævelandshølen" />
		<tag k="place" v="locality" />
		<tag k="ssr:stedsnr" v="145761" />
	</node>
	<node id="-2706" lat="58.8605972219" lon="6.04276388736">
		<tag k="name" v="Steintjørna" />
		<tag k="natural" v="water" />
		<tag k="ssr:stedsnr" v="120844" />
	</node>
	<node id="-2704" lat="59.085352587" lon="6.43028229479">
		<tag k="name" v="Litla Sandvatnet" />
		<tag k="natural" v="water" />
		<tag k="ssr:stedsnr" v="120805" />
		<tag k="water" v="lake" />
	</node>
	<node id="-2700" lat="58.8774750017" lon="6.29401944152">
		<tag k="name" v="Valevatnet" />
		<tag k="natural" v="water" />
		<tag k="ssr:stedsnr" v="121634" />
		<tag k="water" v="lake" />
	</node>
	<node id="-2692" lat="58.9064027776" lon="6.30163611247">
		<tag k="name" v="Kløstrebekk" />
		<tag k="ssr:stedsnr" v="120079" />
		<tag k="waterway" v="stream" />
	</node>
	<node id="-2683" lat="58.8565206769" lon="6.17533100579">
		<tag k="name" v="Longatjørn" />
		<tag k="natural" v="water" />
		<tag k="ssr:stedsnr" v="118985" />
	</node>
	<node id="-2682" lat="58.9096085733" lon="6.22905712684">
		<tag k="name" v="Lølandsstølen" />
		<tag k="natural" v="water" />
		<tag k="ssr:stedsnr" v="118287" />
	</node>
	<node id="-2749" lat="58.907420188" lon="6.31889671994">
		<tag k="alt_name" v="Tofribekken" />
		<tag k="name" v="Torfridbekken" />
		<tag k="ssr:stedsnr" v="122724" />
		<tag k="waterway" v="stream" />
	</node>
	<node id="-3177" lat="59.0281725762" lon="6.32483722428">
		<tag k="name" v="Langatjørna" />
		<tag k="natural" v="water" />
		<tag k="ssr:stedsnr" v="363181" />
	</node>
	<node id="-2670" lat="58.8877833328" lon="6.22893055691">
		<tag k="name" v="Storebekk" />
		<tag k="ssr:stedsnr" v="102160" />
		<tag k="waterway" v="stream" />
	</node>
	<node id="-2666" lat="58.8930222188" lon="6.04725278084">
		<tag k="name" v="Nodaberget" />
		<tag k="natural" v="cape" />
		<tag k="ssr:stedsnr" v="101131" />
	</node>
	<node id="-2662" lat="59.0308166703" lon="6.3939166675">
		<tag k="name" v="Helmikstøltjørnane" />
		<tag k="natural" v="water" />
		<tag k="ssr:stedsnr" v="92735" />
		<tag k="water" v="lake" />
	</node>
	<node id="-2659" lat="58.8020944476" lon="5.76653888404">
		<tag k="name" v="Skrudstjørna" />
		<tag k="natural" v="water" />
		<tag k="ssr:stedsnr" v="85551" />
	</node>
	<node id="-2656" lat="58.8196682337" lon="5.96342636779">
		<tag k="name" v="Stokkomtjørna" />
		<tag k="natural" v="water" />
		<tag k="ssr:stedsnr" v="84940" />
	</node>
	<node id="-2645" lat="58.8703888872" lon="5.84155000438">
		<tag k="name" v="Breiholmen" />
		<tag k="place" v="islet" />
		<tag k="ssr:stedsnr" v="83201" />
	</node>
	<node id="-2644" lat="58.871913889" lon="5.85179722622">
		<tag k="name" v="Litle klubben" />
		<tag k="natural" v="cape" />
		<tag k="ssr:stedsnr" v="83200" />
	</node>
	<node id="-2643" lat="58.8730944482" lon="5.83949166409">
		<tag k="name" v="Langholmen" />
		<tag k="place" v="islet" />
		<tag k="ssr:stedsnr" v="83195" />
	</node>
	<node id="-2632" lat="58.8991622968" lon="6.3056137511">
		<tag k="name" v="Krekebakktjørna" />
		<tag k="natural" v="water" />
		<tag k="ssr:stedsnr" v="81068" />
		<tag k="water" v="lake" />
	</node>
	<node id="-2622" lat="58.953817039" lon="5.88959180773">
		<tag k="alt_name" v="Holmatjørn" />
		<tag k="name" v="Holmatjørna" />
		<tag k="natural" v="water" />
		<tag k="ssr:stedsnr" v="62808" />
	</node>
	<node id="-1802" lat="58.9288250283" lon="6.35525621154">
		<tag k="name" v="Bastalibekken" />
		<tag k="ssr:stedsnr" v="545057" />
		<tag k="waterway" v="stream" />
	</node>
	<node id="-2616" lat="58.9151559955" lon="5.94499435437">
		<tag k="name" v="Fløysviktjørna" />
		<tag k="natural" v="water" />
		<tag k="ssr:stedsnr" v="62747" />
	</node>
	<node id="-2614" lat="58.9190069053" lon="5.94924625831">
		<tag k="name" v="Eskelandsstemmen" />
		<tag k="natural" v="water" />
		<tag k="ssr:stedsnr" v="62731" />
	</node>
	<node id="-2613" lat="58.9219557812" lon="6.32309225842">
		<tag k="alt_name" v="Ryssdalsvatnet" />
		<tag k="name" v="Røssdalsvatnet" />
		<tag k="natural" v="water" />
		<tag k="ssr:stedsnr" v="62717" />
		<tag k="water" v="lake" />
	</node>
	<node id="-2611" lat="58.9210777744" lon="6.25922499739">
		<tag k="alt_name" v="Miaren" />
		<tag k="name" v="Migaren" />
		<tag k="ssr:stedsnr" v="62694" />
		<tag k="waterway" v="stream" />
	</node>
	<node id="-2606" lat="58.8982729851" lon="5.8553749752">
		<tag k="name" v="Merlandstjørna" />
		<tag k="natural" v="water" />
		<tag k="ssr:stedsnr" v="62653" />
	</node>
	<node id="-2604" lat="58.9072082792" lon="5.94941701532">
		<tag k="alt_name" v="Eigelivatnet" />
		<tag k="name" v="Eikelivatnet" />
		<tag k="natural" v="water" />
		<tag k="ssr:stedsnr" v="62640" />
		<tag k="water" v="lake" />
	</node>
	<node id="-2600" lat="58.9464333367" lon="6.36118333947">
		<tag k="name" v="Steinvatnet" />
		<tag k="natural" v="water" />
		<tag k="ssr:stedsnr" v="62541" />
		<tag k="water" v="lake" />
	</node>
	<node id="-2599" lat="58.9439045095" lon="6.24011793415">
		<tag k="name" v="Stora Hellesvatnet" />
		<tag k="natural" v="water" />
		<tag k="ssr:stedsnr" v="62535" />
		<tag k="water" v="lake" />
	</node>
	<node id="-2597" lat="58.8117772695" lon="5.91538455899">
		<tag k="alt_name" v="Lomstjørna" />
		<tag k="name" v="Lomtjørna" />
		<tag k="natural" v="water" />
		<tag k="ssr:stedsnr" v="62513" />
	</node>
	<node id="-2595" lat="59.0157805586" lon="6.2769444483">
		<tag k="alt_name" v="Bratteliåna" />
		<tag k="name" v="Brattliåna" />
		<tag k="ssr:stedsnr" v="62199" />
		<tag k="waterway" v="stream" />
	</node>
	<node id="-2594" lat="59.0918583331" lon="6.6352472185">
		<tag k="name" v="Stølsåna" />
		<tag k="ssr:stedsnr" v="62160" />
		<tag k="waterway" v="river" />
	</node>
	<node id="-2592" lat="59.1310307274" lon="6.8510537883">
		<tag k="name" v="Reinstjørna" />
		<tag k="natural" v="water" />
		<tag k="ssr:stedsnr" v="62132" />
	</node>
	<node id="-1797" lat="58.9203693587" lon="6.33466717103">
		<tag k="name" v="Middagsbekken" />
		<tag k="ssr:stedsnr" v="545032" />
		<tag k="waterway" v="stream" />
	</node>
	<node id="-2577" lat="58.9008416708" lon="6.24270000235">
		<tag k="alt_name" v="Stiatjørna" />
		<tag k="name" v="Stigatjørna" />
		<tag k="natural" v="water" />
		<tag k="ssr:stedsnr" v="61710" />
	</node>
	<node id="-2575" lat="58.9309417467" lon="5.94074652287">
		<tag k="alt_name" v="Bersagelstemmen" />
		<tag k="name" v="Storestemmen" />
		<tag k="natural" v="water" />
		<tag k="ssr:stedsnr" v="61698" />
	</node>
	<node id="-2563" lat="58.9569464686" lon="6.31007695341">
		<tag k="alt_name" v="Nordbekk" />
		<tag k="name" v="Nordbekken" />
		<tag k="ssr:stedsnr" v="61514" />
		<tag k="waterway" v="stream" />
	</node>
	<node id="-2559" lat="58.983480557" lon="6.38424999479">
		<tag k="alt_name" v="Kvednavatnet" />
		<tag k="name" v="Kvernavatnet" />
		<tag k="natural" v="water" />
		<tag k="ssr:stedsnr" v="61484" />
	</node>
	<node id="-2557" lat="58.8634305557" lon="6.21288610654">
		<tag k="name" v="Stølsvatnet" />
		<tag k="natural" v="water" />
		<tag k="ssr:stedsnr" v="61226" />
		<tag k="water" v="lake" />
	</node>
	<node id="-2554" lat="59.0463861105" lon="6.41039167331">
		<tag k="name" v="Skaratjørna" />
		<tag k="natural" v="water" />
		<tag k="ssr:stedsnr" v="60875" />
	</node>
	<node id="-2552" lat="59.0565416676" lon="6.67690555371">
		<tag k="name" v="Middagsbekken" />
		<tag k="ssr:stedsnr" v="60859" />
		<tag k="waterway" v="stream" />
	</node>
	<node id="-2544" lat="58.9410767406" lon="6.33881579201">
		<tag k="name" v="Venetjørn" />
		<tag k="natural" v="water" />
		<tag k="ssr:stedsnr" v="60133" />
	</node>
	<node id="-2539" lat="58.9854472188" lon="6.27071666803">
		<tag k="name" v="Soffertjørn" />
		<tag k="natural" v="water" />
		<tag k="ssr:stedsnr" v="60066" />
	</node>
	<node id="-2533" lat="58.9167000032" lon="6.15079445257">
		<tag k="name" v="Strondå" />
		<tag k="natural" v="beach" />
		<tag k="ssr:stedsnr" v="59630" />
	</node>
	<node id="-2529" lat="59.0669277776" lon="6.3333111112">
		<tag k="name" v="Sundmorkåna" />
		<tag k="ssr:stedsnr" v="59176" />
		<tag k="waterway" v="river" />
	</node>
	<node id="-2528" lat="59.0571662669" lon="6.30879988208">
		<tag k="name" v="Fisketjørna" />
		<tag k="natural" v="water" />
		<tag k="ssr:stedsnr" v="59162" />
	</node>
	<node id="-2526" lat="58.8664472206" lon="6.06053332711">
		<tag k="name" v="Steintjørna" />
		<tag k="natural" v="water" />
		<tag k="ssr:stedsnr" v="59157" />
	</node>
	<node id="-2524" lat="58.8727305557" lon="6.04950278238">
		<tag k="name" v="Hatlebergtjørna" />
		<tag k="natural" v="water" />
		<tag k="ssr:stedsnr" v="59119" />
	</node>
	<node id="-2513" lat="58.861177774" lon="6.21558610795">
		<tag k="name" v="Stølsvatnet" />
		<tag k="natural" v="water" />
		<tag k="ssr:stedsnr" v="57958" />
		<tag k="water" v="lake" />
	</node>
	<node id="-2488" lat="58.8676959856" lon="6.25282095791">
		<tag k="name" v="Longavatnet" />
		<tag k="natural" v="water" />
		<tag k="ssr:stedsnr" v="40949" />
		<tag k="water" v="lake" />
	</node>
	<node id="-2467" lat="58.8688055589" lon="5.85438333278">
		<tag k="name" v="Litlevågen" />
		<tag k="natural" v="bay" />
		<tag k="ssr:stedsnr" v="23255" />
	</node>
	<node id="-2465" lat="58.938980392" lon="5.85670061452">
		<tag k="name" v="Sorpetjørna" />
		<tag k="natural" v="water" />
		<tag k="ssr:stedsnr" v="23158" />
	</node>
	<node id="-2457" lat="58.899497222" lon="5.95204723028">
		<tag k="name" v="Imsa" />
		<tag k="ssr:stedsnr" v="23085" />
		<tag k="waterway" v="river" />
	</node>
	<node id="-2454" lat="58.8514777814" lon="5.94053610469">
		<tag k="name" v="Steintjørna" />
		<tag k="natural" v="water" />
		<tag k="ssr:stedsnr" v="23063" />
	</node>
	<node id="-2449" lat="59.0833361123" lon="6.57032500023">
		<tag k="name" v="Strandvasstjørna" />
		<tag k="natural" v="water" />
		<tag k="ssr:stedsnr" v="2110" />
	</node>
	<node id="-2448" lat="59.0864750022" lon="6.50693610569">
		<tag k="name" v="Håhellersandvika" />
		<tag k="natural" v="bay" />
		<tag k="ssr:stedsnr" v="2099" />
	</node>
	<node id="-2435" lat="58.9955918985" lon="6.61907584121">
		<tag k="name" v="Langavatnet" />
		<tag k="natural" v="water" />
		<tag k="ssr:stedsnr" v="1773" />
		<tag k="water" v="lake" />
	</node>
	<node id="-2434" lat="59.0063512473" lon="6.6434470728">
		<tag k="name" v="Akslaråtjørna" />
		<tag k="natural" v="water" />
		<tag k="ssr:stedsnr" v="1761" />
	</node>
	<node id="-2431" lat="58.8915916667" lon="6.29526110888">
		<tag k="alt_name" v="Sauatjørn" />
		<tag k="name" v="Sauatjørna" />
		<tag k="natural" v="water" />
		<tag k="ssr:stedsnr" v="1751" />
	</node>
	<node id="-2430" lat="58.9152102176" lon="5.90518176799">
		<tag k="alt_name" v="Mågatjørn" />
		<tag k="name" v="Måkatjørna" />
		<tag k="natural" v="water" />
		<tag k="ssr:stedsnr" v="1750" />
	</node>
	<node id="-1770" lat="58.8037333349" lon="5.74425000212">
		<tag k="name" v="Plassatjørn" />
		<tag k="natural" v="water" />
		<tag k="ssr:stedsnr" v="691628" />
	</node>
	<node id="-2420" lat="58.8826032348" lon="5.98010534965">
		<tag k="alt_name" v="Krosstjørnene" />
		<tag k="name" v="Krosstjørna" />
		<tag k="natural" v="water" />
		<tag k="ssr:stedsnr" v="1686" />
	</node>
	<node id="-2418" lat="58.8814406051" lon="6.04852796912">
		<tag k="alt_name" v="Selvigtjørna" />
		<tag k="name" v="Selvikvatnet" />
		<tag k="natural" v="water" />
		<tag k="ssr:stedsnr" v="1675" />
		<tag k="water" v="lake" />
	</node>
	<node id="-2417" lat="58.8845500005" lon="5.91271667382">
		<tag k="name" v="Kupholmen" />
		<tag k="place" v="islet" />
		<tag k="ssr:stedsnr" v="1672" />
	</node>
	<node id="-2415" lat="58.9200803716" lon="6.13694421531">
		<tag k="name" v="Stølsvatnet" />
		<tag k="natural" v="water" />
		<tag k="ssr:stedsnr" v="1648" />
		<tag k="water" v="lake" />
	</node>
	<node id="-2412" lat="58.9630499696" lon="6.45203681474">
		<tag k="name" v="Vassleia" />
		<tag k="natural" v="water" />
		<tag k="ssr:stedsnr" v="1545" />
		<tag k="water" v="lake" />
	</node>
	<node id="-2410" lat="58.8042361123" lon="5.85935278419">
		<tag k="alt_name" v="Dyranestjørn" />
		<tag k="name" v="Dyranuttjørna" />
		<tag k="natural" v="water" />
		<tag k="ssr:stedsnr" v="1530" />
	</node>
	<node id="-2408" lat="58.8058286229" lon="5.88647296165">
		<tag k="alt_name" v="Øksnatjørn" />
		<tag k="name" v="Øksnatjørna" />
		<tag k="natural" v="water" />
		<tag k="ssr:stedsnr" v="1518" />
	</node>
	<node id="-2402" lat="59.1134472241" lon="6.83377500524">
		<tag k="alt_name" v="Ramsdalstjørna, øvra" />
		<tag k="name" v="Øvra Ramsdalstjørna" />
		<tag k="natural" v="water" />
		<tag k="ssr:stedsnr" v="2185" />
	</node>
	<node id="-2400" lat="59.0662583311" lon="6.39678610744">
		<tag k="name" v="Lokråna" />
		<tag k="natural" v="water" />
		<tag k="ssr:stedsnr" v="1036" />
	</node>
	<node id="-2399" lat="59.0738250034" lon="6.40256389697">
		<tag k="name" v="Vongsatjørnane" />
		<tag k="natural" v="water" />
		<tag k="ssr:stedsnr" v="1029" />
		<tag k="water" v="lake" />
	</node>
	<node id="-2396" lat="59.0572583316" lon="6.35382500007">
		<tag k="name" v="Teinebekken" />
		<tag k="ssr:stedsnr" v="1017" />
		<tag k="waterway" v="stream" />
	</node>
	<node id="-2395" lat="59.0417305599" lon="6.25773611036">
		<tag k="name" v="Skivatnet" />
		<tag k="natural" v="water" />
		<tag k="ssr:stedsnr" v="1011" />
		<tag k="water" v="lake" />
	</node>
	<node id="-2390" lat="58.8940209768" lon="5.94318456358">
		<tag k="alt_name" v="Imsvatnet;Imsvatn" />
		<tag k="name" v="Liavatnet" />
		<tag k="natural" v="water" />
		<tag k="ssr:stedsnr" v="641" />
		<tag k="water" v="lake" />
	</node>
	<node id="-2389" lat="58.9103865891" lon="6.20514468452">
		<tag k="alt_name" v="Sjylevatnet" />
		<tag k="name" v="Skylevatnet" />
		<tag k="natural" v="water" />
		<tag k="ssr:stedsnr" v="638" />
		<tag k="water" v="lake" />
	</node>
	<node id="-2383" lat="58.9985166628" lon="6.47617499254">
		<tag k="name" v="Eidstangen" />
		<tag k="natural" v="cape" />
		<tag k="ssr:stedsnr" v="507" />
	</node>
	<node id="-2373" lat="59.0343888862" lon="6.33494443991">
		<tag k="name" v="Leitebakktjørna" />
		<tag k="natural" v="water" />
		<tag k="ssr:stedsnr" v="970322" />
	</node>
	<node id="-2372" lat="59.0403361081" lon="6.33448333139">
		<tag k="name" v="Syrehaugtjørna" />
		<tag k="natural" v="water" />
		<tag k="ssr:stedsnr" v="970216" />
	</node>
	<node id="-2369" lat="59.0715111148" lon="6.67348610884">
		<tag k="name" v="Godåna" />
		<tag k="ssr:stedsnr" v="969875" />
		<tag k="waterway" v="river" />
	</node>
	<node id="-2367" lat="59.042703566" lon="6.39943248615">
		<tag k="name" v="Furestøltjørna" />
		<tag k="natural" v="water" />
		<tag k="ssr:stedsnr" v="969817" />
	</node>
	<node id="-2365" lat="58.9864957905" lon="6.30929633297">
		<tag k="name" v="Tangatjørna" />
		<tag k="natural" v="water" />
		<tag k="ssr:stedsnr" v="969253" />
	</node>
	<node id="-1418" lat="58.9776694417" lon="6.23365278005">
		<tag k="alt_name" v="Fossånå" />
		<tag k="name" v="Fossåna" />
		<tag k="ssr:stedsnr" v="486563" />
		<tag k="waterway" v="stream" />
	</node>
	<node id="-2341" lat="58.8757638924" lon="5.86094722279">
		<tag k="name" v="Forenessunda" />
		<tag k="natural" v="strait" />
		<tag k="ssr:stedsnr" v="933205" />
	</node>
	<node id="-1414" lat="58.9743388849" lon="6.52866388351">
		<tag k="name" v="Stora Hoggarvatnet" />
		<tag k="natural" v="water" />
		<tag k="ssr:stedsnr" v="486544" />
		<tag k="water" v="lake" />
	</node>
	<node id="-2324" lat="59.1796355127" lon="6.6458687897">
		<tag k="loc_name" v="Nilsebuvatn" />
		<tag k="name" v="Nilsebuvatnet" />
		<tag k="natural" v="water" />
		<tag k="ssr:stedsnr" v="912233" />
		<tag k="water" v="lake" />
	</node>
	<node id="-2322" lat="59.0018500036" lon="6.50204999691">
		<tag k="name" v="Flørvasstjørna" />
		<tag k="natural" v="water" />
		<tag k="ssr:stedsnr" v="911266" />
	</node>
	<node id="-2296" lat="58.8786527758" lon="5.89836388116">
		<tag k="name" v="Sikabukta" />
		<tag k="natural" v="bay" />
		<tag k="ssr:stedsnr" v="872157" />
	</node>
	<node id="-1406" lat="59.0014055521" lon="6.47508054865">
		<tag k="name" v="Stora Flørvatnet" />
		<tag k="natural" v="water" />
		<tag k="ssr:stedsnr" v="486251" />
		<tag k="water" v="lake" />
	</node>
	<node id="-2288" lat="58.9001972232" lon="5.98128611552">
		<tag k="name" v="Skiftebekken" />
		<tag k="ssr:stedsnr" v="872063" />
		<tag k="waterway" v="stream" />
	</node>
	<node id="-2285" lat="59.0761749958" lon="6.6223722192">
		<tag k="name" v="Guritjørna" />
		<tag k="natural" v="water" />
		<tag k="ssr:stedsnr" v="852166" />
	</node>
	<node id="-2282" lat="58.7968666629" lon="5.58357777596">
		<tag k="name" v="Figgjo" />
		<tag k="ssr:stedsnr" v="851922" />
		<tag k="waterway" v="river" />
	</node>
	<node id="-2278" lat="59.0427472263" lon="6.71335555937">
		<tag k="name" v="Tjodanpollen" />
		<tag k="natural" v="water" />
		<tag k="ssr:stedsnr" v="851775" />
	</node>
	<node id="-2274" lat="58.8803694449" lon="5.86301110568">
		<tag k="alt_name" v="Bergurstjørna" />
		<tag k="loc_name" v="Bergurtjørna" />
		<tag k="name" v="Bergurdtjørna" />
		<tag k="natural" v="water" />
		<tag k="ssr:stedsnr" v="851658" />
	</node>
	<node id="-2427" lat="58.8900305579" lon="6.33833056284">
		<tag k="alt_name" v="Gotjørn" />
		<tag k="name" v="Godtjørn" />
		<tag k="natural" v="water" />
		<tag k="ssr:stedsnr" v="1736" />
	</node>
	<node id="-2271" lat="58.8584861131" lon="6.03928611532">
		<tag k="name" v="Blommetjørna" />
		<tag k="natural" v="water" />
		<tag k="ssr:stedsnr" v="848837" />
	</node>
	<node id="-2233" lat="58.8902194447" lon="5.9275833312">
		<tag k="name" v="Sundatjørna" />
		<tag k="natural" v="water" />
		<tag k="ssr:stedsnr" v="933192" />
	</node>
	<node id="-2225" lat="58.8900444434" lon="5.85804999174">
		<tag k="name" v="Kvednabekken" />
		<tag k="ssr:stedsnr" v="933231" />
		<tag k="waterway" v="stream" />
	</node>
	<node id="-2224" lat="58.881211112" lon="5.96773332564">
		<tag k="name" v="Rankestitjørn" />
		<tag k="natural" v="water" />
		<tag k="ssr:stedsnr" v="933095" />
	</node>
	<node id="-2208" lat="59.0509305561" lon="6.71864999545">
		<tag k="name" v="Langatjørna" />
		<tag k="natural" v="water" />
		<tag k="ssr:stedsnr" v="790819" />
	</node>
	<node id="-2203" lat="59.0633083293" lon="6.37296388429">
		<tag k="name" v="Rundatjørna" />
		<tag k="natural" v="water" />
		<tag k="ssr:stedsnr" v="790015" />
	</node>
	<node id="-2197" lat="58.8673083367" lon="6.06418611786">
		<tag k="name" v="Ragsheitjørna" />
		<tag k="natural" v="water" />
		<tag k="ssr:stedsnr" v="789571" />
	</node>
	<node id="-2196" lat="58.8595604458" lon="6.04993507886">
		<tag k="alt_name" v="Aurelitjørn" />
		<tag k="name" v="Auratjørna" />
		<tag k="natural" v="water" />
		<tag k="ssr:stedsnr" v="789570" />
	</node>
	<node id="-2186" lat="58.9763388852" lon="6.29788889693">
		<tag k="name" v="Rumpetrolltjørna" />
		<tag k="natural" v="water" />
		<tag k="ssr:stedsnr" v="788232" />
	</node>
	<node id="-1388" lat="59.0445583332" lon="6.35938611739">
		<tag k="name" v="Bytjørna" />
		<tag k="natural" v="water" />
		<tag k="ssr:stedsnr" v="484128" />
	</node>
	<node id="-2182" lat="59.0006138859" lon="6.35556388683">
		<tag k="name" v="Breibekken" />
		<tag k="ssr:stedsnr" v="787170" />
		<tag k="waterway" v="stream" />
	</node>
	<node id="-2157" lat="59.1170297555" lon="6.68295571471">
		<tag k="alt_name" v="Dyrgrovtjørnene, nordre" />
		<tag k="name" v="Nordre Dyrgrovtjørnene" />
		<tag k="natural" v="water" />
		<tag k="ssr:stedsnr" v="912131" />
		<tag k="water" v="lake" />
	</node>
	<node id="-2149" lat="59.0514527781" lon="6.27558889333">
		<tag k="alt_name" v="Gamlestølstjørna, stora" />
		<tag k="name" v="Stora Gamlestølstjørna" />
		<tag k="natural" v="water" />
		<tag k="ssr:stedsnr" v="912011" />
		<tag k="water" v="lake" />
	</node>
	<node id="-2143" lat="58.8034151069" lon="5.6981665295">
		<tag k="name" v="Lonavatnet" />
		<tag k="natural" v="water" />
		<tag k="old_name" v="Lonavatn" />
		<tag k="ssr:stedsnr" v="911918" />
	</node>
	<node id="-2129" lat="58.8843000019" lon="6.24290833127">
		<tag k="name" v="Brekkevatnet" />
		<tag k="natural" v="water" />
		<tag k="ssr:stedsnr" v="911759" />
	</node>
	<node id="-2118" lat="58.895409248" lon="5.92973302693">
		<tag k="alt_name" v="Straumtjørna" />
		<tag k="name" v="Straumstjørna" />
		<tag k="natural" v="water" />
		<tag k="ssr:stedsnr" v="911666" />
	</node>
	<node id="-2113" lat="58.8268083326" lon="5.95408610578">
		<tag k="name" v="Svihusvatnet" />
		<tag k="natural" v="water" />
		<tag k="ssr:stedsnr" v="911617" />
		<tag k="water" v="lake" />
	</node>
	<node id="-2109" lat="58.9446531461" lon="6.32795061139">
		<tag k="alt_name" v="Rangvarstjørna" />
		<tag k="name" v="Rongvadtjørna" />
		<tag k="natural" v="water" />
		<tag k="ssr:stedsnr" v="911558" />
	</node>
	<node id="-1034" lat="58.866505558" lon="5.88191111728">
		<tag k="name" v="Håvarsbekk" />
		<tag k="ssr:stedsnr" v="83203" />
		<tag k="waterway" v="stream" />
	</node>
	<node id="-2104" lat="58.8065277801" lon="5.89922222327">
		<tag k="alt_name" v="Langavatn" />
		<tag k="name" v="Langavatnet" />
		<tag k="natural" v="water" />
		<tag k="ssr:stedsnr" v="911530" />
		<tag k="water" v="lake" />
	</node>
	<node id="-2103" lat="58.803272224" lon="5.92629722514">
		<tag k="name" v="Grimslitjørna" />
		<tag k="natural" v="water" />
		<tag k="ssr:stedsnr" v="911528" />
	</node>
	<node id="-1419" lat="58.940774997" lon="6.31952500374">
		<tag k="alt_name" v="Nestjørn" />
		<tag k="name" v="Nestjørna" />
		<tag k="natural" v="water" />
		<tag k="ssr:stedsnr" v="486570" />
	</node>
	<node id="-2100" lat="58.8157666697" lon="5.87793056305">
		<tag k="name" v="Skiftesbekken" />
		<tag k="ssr:stedsnr" v="911507" />
		<tag k="waterway" v="stream" />
	</node>
	<node id="-2099" lat="59.0076555584" lon="6.45120278579">
		<tag k="name" v="Ternevatnet" />
		<tag k="natural" v="water" />
		<tag k="ssr:stedsnr" v="911200" />
	</node>
	<node id="-2094" lat="59.0743250033" lon="6.36636110557">
		<tag k="name" v="Maratjørna" />
		<tag k="natural" v="water" />
		<tag k="ssr:stedsnr" v="911026" />
	</node>
	<node id="-2086" lat="59.066022222" lon="6.56446943995">
		<tag k="name" v="Breibekken" />
		<tag k="ssr:stedsnr" v="909868" />
		<tag k="waterway" v="stream" />
	</node>
	<node id="-2066" lat="58.9848750011" lon="6.28447778381">
		<tag k="name" v="Pottå" />
		<tag k="natural" v="water" />
		<tag k="ssr:stedsnr" v="909028" />
	</node>
	<node id="-2065" lat="58.956927778" lon="6.24780277488">
		<tag k="name" v="Sadlatjørn" />
		<tag k="natural" v="water" />
		<tag k="ssr:stedsnr" v="909012" />
	</node>
	<node id="-2054" lat="58.862075001" lon="6.19319166685">
		<tag k="name" v="Kleppatjørna" />
		<tag k="natural" v="water" />
		<tag k="ssr:stedsnr" v="907994" />
	</node>
	<node id="-2049" lat="58.9094027805" lon="6.26223332598">
		<tag k="name" v="Kvide Nebben" />
		<tag k="natural" v="cape" />
		<tag k="ssr:stedsnr" v="907237" />
	</node>
	<node id="-4097" lat="59.0652222238" lon="6.39076944716">
		<tag k="name" v="Hommabekken" />
		<tag k="ssr:stedsnr" v="970526" />
		<tag k="waterway" v="stream" />
	</node>
</osm>
