<?xml version="1.0" encoding="UTF-8"?>
<osm generator="osmapis" version="0.6">
	<node changeset="58620907" id="2354936931" lat="64.932944" lon="12.011228" timestamp="2018-05-02T17:04:06Z" uid="3497659" user="NKA" version="2">
		<tag k="name" v="Neset" />
		<tag k="place" v="farm" />
		<tag k="source" v="Kartverket" />
		<tag k="ssr:stedsnr" v="743560" />
	</node>
	<node changeset="16646366" id="2354953095" lat="64.7702046" lon="11.7184904" timestamp="2013-06-21T16:43:20Z" uid="1556391" user="relet" version="1" />
	<node changeset="58620907" id="2354936924" lat="64.950033" lon="11.4525" timestamp="2018-05-02T17:04:06Z" uid="3497659" user="NKA" version="2">
		<tag k="name" v="Moen" />
		<tag k="place" v="farm" />
		<tag k="source" v="Kartverket" />
		<tag k="ssr:stedsnr" v="803173" />
	</node>
	<node changeset="16646366" id="2354952731" lat="64.7681275" lon="11.7011415" timestamp="2013-06-21T16:43:20Z" uid="1556391" user="relet" version="2" />
	<node changeset="58620907" id="2354939644" lat="64.771572" lon="11.365775" timestamp="2018-05-02T17:04:08Z" uid="3497659" user="NKA" version="2">
		<tag k="name" v="Haugen" />
		<tag k="place" v="farm" />
		<tag k="source" v="Kartverket" />
		<tag k="ssr:stedsnr" v="893151" />
	</node>
	<node changeset="16646366" id="2354952732" lat="64.7722108" lon="11.7280232" timestamp="2013-06-21T16:43:20Z" uid="1556391" user="relet" version="2" />
	<way changeset="58620907" id="226741052" timestamp="2018-05-02T17:09:23Z" uid="3497659" user="NKA" version="3">
		<tag k="name" v="Tronga" />
		<tag k="natural" v="valley" />
		<tag k="source" v="Kartverket" />
		<tag k="ssr:stedsnr" v="717026" />
		<nd ref="2354952731" />
		<nd ref="2354953095" />
		<nd ref="2354952732" />
	</way>
</osm>
