<?xml version="1.0" encoding="UTF-8"?>
<osm generator="osmapis" version="0.6">
	<node id="-513277" lat="61.1627166626" lon="6.21983889329">
		<tag k="bridge" v="yes" />
		<tag k="layer" v="1" />
		<tag k="name" v="Kvist" />
		<tag k="ssr:stedsnr" v="956527" />
	</node>
	<node id="-513276" lat="61.1318138905" lon="6.49254999692">
		<tag k="bridge" v="yes" />
		<tag k="layer" v="1" />
		<tag k="name" v="Kvanune" />
		<tag k="ssr:stedsnr" v="956518" />
	</node>
	<node id="-512506" lat="61.1148583374" lon="6.4535166589">
		<tag k="bridge" v="yes" />
		<tag k="layer" v="1" />
		<tag k="name" v="Sagelva" />
		<tag k="ssr:stedsnr" v="470476" />
	</node>
	<node id="-512505" lat="61.1621694431" lon="6.54268055959">
		<tag k="bridge" v="yes" />
		<tag k="layer" v="1" />
		<tag k="name" v="Hestviki" />
		<tag k="ssr:stedsnr" v="470472" />
	</node>
	<node id="-512504" lat="61.2101499954" lon="6.53790596326">
		<tag k="amenity" v="ferry_terminal" />
		<tag k="name" v="Balestrand ferjekai" />
		<tag k="ssr:stedsnr" v="470469" />
	</node>
	<node id="-512501" lat="61.1160888871" lon="6.35537500681">
		<tag k="highway" v="path" />
		<tag k="name" v="Gamle Bergvegen" />
		<tag k="ssr:stedsnr" v="470283" />
	</node>
	<node id="-512755" lat="61.3022583333" lon="6.55641111127">
		<tag k="bridge" v="yes" />
		<tag k="layer" v="1" />
		<tag k="name" v="Eiken" />
		<tag k="ssr:stedsnr" v="592521" />
	</node>
	<node id="-513264" lat="61.2262583303" lon="6.1007527732">
		<tag k="layer" v="-1" />
		<tag k="name" v="Høyanger" />
		<tag k="ssr:stedsnr" v="955998" />
		<tag k="tunnel" v="yes" />
	</node>
	<node id="-512234" lat="61.1275611116" lon="6.47164721988">
		<tag k="bridge" v="yes" />
		<tag k="layer" v="1" />
		<tag k="name" v="Kvernhuselvi" />
		<tag k="ssr:stedsnr" v="107508" />
	</node>
	<node id="-513000" lat="61.1743111077" lon="6.21309443823">
		<tag k="man_made" v="quay" />
		<tag k="name" v="Kongsnes ferjekai" />
		<tag k="place" v="locality" />
		<tag k="ssr:stedsnr" v="770822" />
	</node>
	<node id="-513118" lat="61.2833972227" lon="6.54738332764">
		<tag k="layer" v="-1" />
		<tag k="name" v="Nautskreda" />
		<tag k="ssr:stedsnr" v="833356" />
		<tag k="tunnel" v="yes" />
	</node>
	<node id="-512825" lat="61.2292277791" lon="6.48186111204">
		<tag k="bridge" v="yes" />
		<tag k="layer" v="1" />
		<tag k="name" v="Esebotn" />
		<tag k="ssr:stedsnr" v="652475" />
	</node>
	<node id="-512824" lat="61.2279027799" lon="6.54694444372">
		<tag k="bridge" v="yes" />
		<tag k="layer" v="1" />
		<tag k="name" v="Sandskreda" />
		<tag k="ssr:stedsnr" v="652440" />
	</node>
	<node id="-511799" lat="61.3426527802" lon="6.45439167408">
		<tag k="bridge" v="yes" />
		<tag k="layer" v="1" />
		<tag k="name" v="Skarvedalselv" />
		<tag k="ssr:stedsnr" v="289477" />
	</node>
	<node id="-512313" lat="61.1857583345" lon="6.22554444067">
		<tag k="bridge" v="yes" />
		<tag k="layer" v="1" />
		<tag k="name" v="Låne" />
		<tag k="ssr:stedsnr" v="167542" />
	</node>
	<node id="-512312" lat="61.2731777739" lon="6.50595000797">
		<tag k="bridge" v="yes" />
		<tag k="layer" v="1" />
		<tag k="name" v="Komlenes" />
		<tag k="ssr:stedsnr" v="167532" />
	</node>
	<node id="-512311" lat="61.215466668" lon="6.49491388138">
		<tag k="bridge" v="yes" />
		<tag k="layer" v="1" />
		<tag k="name" v="Ese" />
		<tag k="ssr:stedsnr" v="167529" />
	</node>
	<node id="-512822" lat="61.1909416686" lon="6.52890833664">
		<tag k="bridge" v="yes" />
		<tag k="layer" v="1" />
		<tag k="name" v="Skåsheim" />
		<tag k="ssr:stedsnr" v="652435" />
	</node>
	<node id="-512933" lat="61.3513555523" lon="6.55591943964">
		<tag k="bridge" v="yes" />
		<tag k="layer" v="1" />
		<tag k="name" v="Langehaug" />
		<tag k="ssr:stedsnr" v="713502" />
	</node>
	<node id="-512420" lat="61.1996388919" lon="6.52573332397">
		<tag k="bridge" v="yes" />
		<tag k="layer" v="1" />
		<tag k="name" v="Fjærestad undergang" />
		<tag k="ssr:stedsnr" v="228542" />
	</node>
	<node id="-512419" lat="61.197222226" lon="6.52550833451">
		<tag k="bridge" v="yes" />
		<tag k="layer" v="1" />
		<tag k="name" v="Sande undergang" />
		<tag k="ssr:stedsnr" v="228498" />
	</node>
	<node id="-512929" lat="61.3037194462" lon="6.56155556443">
		<tag k="bridge" v="yes" />
		<tag k="layer" v="1" />
		<tag k="name" v="Ulvestad" />
		<tag k="ssr:stedsnr" v="713469" />
	</node>
	<node id="-512928" lat="61.2329499999" lon="6.54766111355">
		<tag k="bridge" v="yes" />
		<tag k="layer" v="1" />
		<tag k="name" v="Skåpargjelet" />
		<tag k="ssr:stedsnr" v="713467" />
	</node>
	<node id="-512799" lat="61.1857305592" lon="6.2110305512">
		<tag k="layer" v="-1" />
		<tag k="name" v="Høyanger" />
		<tag k="ssr:stedsnr" v="651517" />
		<tag k="tunnel" v="yes" />
	</node>
	<node id="-513054" lat="61.1351472255" lon="6.27118333158">
		<tag k="bridge" v="yes" />
		<tag k="layer" v="1" />
		<tag k="name" v="Nesseelva" />
		<tag k="ssr:stedsnr" v="774539" />
	</node>
	<node id="-513053" lat="61.3340277787" lon="6.56620000055">
		<tag k="bridge" v="yes" />
		<tag k="layer" v="1" />
		<tag k="name" v="Langeteig" />
		<tag k="ssr:stedsnr" v="774534" />
	</node>
	<node id="-513052" lat="61.1312750043" lon="6.48320832948">
		<tag k="bridge" v="yes" />
		<tag k="layer" v="1" />
		<tag k="name" v="Engum" />
		<tag k="ssr:stedsnr" v="774525" />
	</node>
	<node id="-512280" lat="61.1650861098" lon="6.20771111698">
		<tag k="layer" v="-1" />
		<tag k="name" v="Kongsnes" />
		<tag k="ssr:stedsnr" v="165283" />
		<tag k="tunnel" v="yes" />
	</node>
	<node id="-512791" lat="61.2976222225" lon="6.55030555717">
		<tag k="layer" v="-1" />
		<tag k="name" v="Breiskreda" />
		<tag k="ssr:stedsnr" v="650105" />
		<tag k="tunnel" v="yes" />
	</node>
	<node id="-512152" lat="61.2145500014" lon="6.56679999683">
		<tag k="amenity" v="ferry_terminal" />
		<tag k="loc_name" v="Dragsvik ferjekai" />
		<tag k="name" v="Dragsviki ferjekai" />
		<tag k="ssr:stedsnr" v="59221" />
	</node>
	<node id="-512013" lat="61.2033472231" lon="6.52555278084">
		<tag k="bridge" v="yes" />
		<tag k="layer" v="1" />
		<tag k="name" v="Bale undergang" />
		<tag k="ssr:stedsnr" v="410485" />
	</node>
	<node id="-511883" lat="61.1870333339" lon="6.2176638979">
		<tag k="bridge" v="yes" />
		<tag k="layer" v="1" />
		<tag k="name" v="Raundalsåni" />
		<tag k="ssr:stedsnr" v="349550" />
	</node>
	<node id="-511882" lat="61.1695361142" lon="6.54176110658">
		<tag k="bridge" v="yes" />
		<tag k="layer" v="1" />
		<tag k="name" v="Flesje" />
		<tag k="ssr:stedsnr" v="349541" />
	</node>
	<node id="-511881" lat="61.1773027788" lon="6.53229722986">
		<tag k="bridge" v="yes" />
		<tag k="layer" v="1" />
		<tag k="name" v="Thue" />
		<tag k="ssr:stedsnr" v="349516" />
	</node>
	<node id="-512823" lat="61.1270361108" lon="6.33576943933">
		<tag k="bridge" v="yes" />
		<tag k="layer" v="1" />
		<tag k="name" v="Sagen" />
		<tag k="ssr:stedsnr" v="652437" />
	</node>
</osm>
