<?xml version="1.0" encoding="UTF-8"?>
<osm generator="osmapis" version="0.6">
	<node id="-512509" lat="61.1452361088" lon="6.27692777676">
		<tag k="name" v="Velleflåten" />
		<tag k="place" v="locality" />
		<tag k="ssr:stedsnr" v="470605" />
	</node>
	<node id="-512170" lat="61.2238927226" lon="6.49359508474">
		<tag k="alt_name" v="Kvalheim" />
		<tag k="fixme" v="consider place=hamlet" />
		<tag k="name" v="Kvaleim" />
		<tag k="place" v="farm" />
		<tag k="ssr:stedsnr" v="70702" />
	</node>
	<node id="-511826" lat="61.2153055586" lon="6.25550555177">
		<tag k="historic" v="shieling" />
		<tag k="name" v="Lånestølen" />
		<tag k="place" v="locality" />
		<tag k="ssr:stedsnr" v="312696" />
	</node>
	<node id="-512679" lat="61.1618555569" lon="6.23728054996">
		<tag k="historic" v="shieling" />
		<tag k="name" v="Kleivi" />
		<tag k="place" v="locality" />
		<tag k="ssr:stedsnr" v="555712" />
	</node>
	<node id="-512337" lat="61.2760603511" lon="6.54365318658">
		<tag k="fixme" v="consider place=hamlet" />
		<tag k="name" v="Torsnes" />
		<tag k="place" v="farm" />
		<tag k="ssr:stedsnr" v="189835" />
	</node>
	<node id="-512996" lat="61.2790673776" lon="6.49934171699">
		<tag k="fixme" v="consider place=hamlet" />
		<tag k="name" v="Sværen" />
		<tag k="old_name" v="Sværafjorden" />
		<tag k="place" v="farm" />
		<tag k="ssr:stedsnr" v="753348" />
	</node>
	<node id="-513190" lat="61.2691297221" lon="6.51086400085">
		<tag k="fixme" v="consider place=hamlet" />
		<tag k="name" v="Dale" />
		<tag k="place" v="farm" />
		<tag k="ssr:stedsnr" v="857839" />
	</node>
	<node id="-512251" lat="61.3154686088" lon="6.57365021729">
		<tag k="fixme" v="consider place=hamlet" />
		<tag k="name" v="Meland" />
		<tag k="place" v="farm" />
		<tag k="ssr:stedsnr" v="129807" />
	</node>
	<node id="-512990" lat="61.2096194443" lon="6.53608332471">
		<tag k="name" v="Balestrand" />
		<tag k="place" v="village" />
		<tag k="ssr:stedsnr" v="737706" />
	</node>
	<node id="-513189" lat="61.2695194421" lon="6.58946666511">
		<tag k="name" v="Menesstølen" />
		<tag k="place" v="locality" />
		<tag k="ssr:stedsnr" v="857836" />
	</node>
	<node id="-512988" lat="61.1946333334" lon="6.52561944272">
		<tag k="name" v="Brattland" />
		<tag k="place" v="farm" />
		<tag k="ssr:stedsnr" v="737694" />
	</node>
	<node id="-512987" lat="61.2253711846" lon="6.49033446927">
		<tag k="alt_name" v="Hjelseng" />
		<tag k="fixme" v="consider place=hamlet" />
		<tag k="name" v="Hjellsengi" />
		<tag k="place" v="farm" />
		<tag k="ssr:stedsnr" v="737682" />
	</node>
	<node id="-512985" lat="61.224891516" lon="6.58683022183">
		<tag k="alt_name" v="Tenningen" />
		<tag k="fixme" v="consider place=hamlet" />
		<tag k="name" v="Tenningane" />
		<tag k="place" v="farm" />
		<tag k="ssr:stedsnr" v="737671" />
	</node>
	<node id="-512984" lat="61.2277583333" lon="6.60693611799">
		<tag k="historic" v="shieling" />
		<tag k="name" v="Tenningastølen" />
		<tag k="place" v="locality" />
		<tag k="ssr:stedsnr" v="737554" />
	</node>
	<node id="-512471" lat="61.276458334" lon="6.50078333046">
		<tag k="name" v="Sværen" />
		<tag k="place" v="hamlet" />
		<tag k="ssr:stedsnr" v="432748" />
	</node>
	<node id="-512469" lat="61.200961115" lon="6.50578056455">
		<tag k="historic" v="shieling" />
		<tag k="name" v="Fjerestadstølen" />
		<tag k="place" v="locality" />
		<tag k="ssr:stedsnr" v="434673" />
	</node>
	<node id="-512468" lat="61.2203583356" lon="6.31611388349">
		<tag k="historic" v="shieling" />
		<tag k="name" v="Balestrandstølen" />
		<tag k="place" v="locality" />
		<tag k="ssr:stedsnr" v="434666" />
	</node>
	<node id="-512979" lat="61.1557990909" lon="6.53750702867">
		<tag k="alt_name" v="Hanevik" />
		<tag k="fixme" v="consider place=hamlet" />
		<tag k="name" v="Hanaviki" />
		<tag k="place" v="farm" />
		<tag k="ssr:stedsnr" v="737645" />
	</node>
	<node id="-512978" lat="61.1402527805" lon="6.46447500715">
		<tag k="alt_name" v="Nyanstøl" />
		<tag k="historic" v="shieling" />
		<tag k="name" v="Nyanstølen" />
		<tag k="place" v="locality" />
		<tag k="ssr:stedsnr" v="737640" />
	</node>
	<node id="-512465" lat="61.1202166653" lon="6.3830750043">
		<tag k="historic" v="shieling" />
		<tag k="name" v="Lindestølen" />
		<tag k="place" v="locality" />
		<tag k="ssr:stedsnr" v="434645" />
	</node>
	<node id="-512976" lat="61.1641555598" lon="6.5099138804">
		<tag k="historic" v="shieling" />
		<tag k="name" v="Glisebikkja" />
		<tag k="place" v="locality" />
		<tag k="ssr:stedsnr" v="737623" />
	</node>
	<node id="-512462" lat="61.2658888855" lon="6.6061416578">
		<tag k="historic" v="shieling" />
		<tag k="name" v="Kulestad" />
		<tag k="place" v="locality" />
		<tag k="ssr:stedsnr" v="432145" />
	</node>
	<node id="-511821" lat="61.1275361123" lon="6.4478861085">
		<tag k="historic" v="shieling" />
		<tag k="name" v="Supphella" />
		<tag k="place" v="locality" />
		<tag k="ssr:stedsnr" v="312644" />
	</node>
	<node id="-512971" lat="61.2714000022" lon="6.53577499708">
		<tag k="name" v="Grønlund" />
		<tag k="place" v="farm" />
		<tag k="ssr:stedsnr" v="736860" />
	</node>
	<node id="-512968" lat="61.3675333321" lon="6.5566027794">
		<tag k="name" v="Hovden" />
		<tag k="place" v="isolated_dwelling" />
		<tag k="ssr:stedsnr" v="735713" />
	</node>
	<node id="-512455" lat="61.254130641" lon="6.54153210927">
		<tag k="fixme" v="consider place=hamlet" />
		<tag k="name" v="Ytre Farnes" />
		<tag k="place" v="farm" />
		<tag k="ssr:stedsnr" v="263568" />
	</node>
	<node id="-512450" lat="61.2099138899" lon="6.5296888855">
		<tag k="name" v="Haugen" />
		<tag k="place" v="farm" />
		<tag k="ssr:stedsnr" v="252695" />
	</node>
	<node id="-512449" lat="61.1988194469" lon="6.45211388168">
		<tag k="fixme" v="multiple name tags, choose one and add the other to alt_name" />
		<tag k="historic" v="shieling" />
		<tag k="name" v="Esedalen;Selbøen" />
		<tag k="place" v="locality" />
		<tag k="ssr:stedsnr" v="252674" />
	</node>
	<node id="-512448" lat="61.2186305558" lon="6.51664166481">
		<tag k="name" v="Nesheim" />
		<tag k="place" v="farm" />
		<tag k="ssr:stedsnr" v="252673" />
	</node>
	<node id="-512447" lat="61.2127944476" lon="6.51145277402">
		<tag k="name" v="Øygarden" />
		<tag k="place" v="farm" />
		<tag k="ssr:stedsnr" v="252662" />
	</node>
	<node id="-511818" lat="61.1430388899" lon="6.50078333204">
		<tag k="alt_name" v="Hongsete" />
		<tag k="name" v="Hangsete" />
		<tag k="place" v="locality" />
		<tag k="ssr:stedsnr" v="312624" />
	</node>
	<node id="-512159" lat="61.1502388865" lon="6.38975000631">
		<tag k="historic" v="shieling" />
		<tag k="name" v="Tenndalen" />
		<tag k="place" v="locality" />
		<tag k="ssr:stedsnr" v="69695" />
	</node>
	<node id="-511927" lat="61.220602068" lon="6.50372478841">
		<tag k="fixme" v="consider place=hamlet" />
		<tag k="name" v="Skrednes" />
		<tag k="place" v="farm" />
		<tag k="ssr:stedsnr" v="373714" />
	</node>
	<node id="-511923" lat="61.1290111114" lon="6.47371388562">
		<tag k="name" v="Livdi" />
		<tag k="place" v="farm" />
		<tag k="ssr:stedsnr" v="373668" />
	</node>
	<node id="-512434" lat="61.3169972201" lon="6.57433055039">
		<tag k="name" v="Flatheim" />
		<tag k="place" v="farm" />
		<tag k="ssr:stedsnr" v="250782" />
	</node>
	<node id="-511921" lat="61.1586111076" lon="6.2785444497">
		<tag k="alt_name" v="Brennset" />
		<tag k="name" v="Brennsete" />
		<tag k="place" v="farm" />
		<tag k="ssr:stedsnr" v="373652" />
	</node>
	<node id="-512157" lat="61.3191840929" lon="6.57434293043">
		<tag k="name" v="Meland" />
		<tag k="place" v="farm" />
		<tag k="ssr:stedsnr" v="69547" />
	</node>
	<node id="-511915" lat="61.2304900613" lon="6.59211446815">
		<tag k="fixme" v="consider place=hamlet" />
		<tag k="name" v="Tenningåsen" />
		<tag k="place" v="farm" />
		<tag k="ssr:stedsnr" v="373296" />
	</node>
	<node id="-511912" lat="61.3326283212" lon="6.56497032648">
		<tag k="fixme" v="consider place=hamlet" />
		<tag k="name" v="Langateig" />
		<tag k="place" v="farm" />
		<tag k="ssr:stedsnr" v="372805" />
	</node>
	<node id="-512241" lat="61.277127774" lon="6.50119444554">
		<tag k="name" v="Bakketun" />
		<tag k="place" v="farm" />
		<tag k="ssr:stedsnr" v="128761" />
	</node>
	<node id="-511904" lat="61.3557694442" lon="6.54419999067">
		<tag k="alt_name" v="Furhaugstølen" />
		<tag k="name" v="Furehaugen" />
		<tag k="place" v="isolated_dwelling" />
		<tag k="ssr:stedsnr" v="371718" />
	</node>
	<node id="-511901" lat="61.2906972224" lon="6.7192861112">
		<tag k="alt_name" v="Romedal, nedre" />
		<tag k="historic" v="shieling" />
		<tag k="name" v="Nedre Romedal" />
		<tag k="place" v="locality" />
		<tag k="ssr:stedsnr" v="371234" />
	</node>
	<node id="-511900" lat="61.2650527744" lon="6.59538610584">
		<tag k="historic" v="shieling" />
		<tag k="name" v="Ospeskori" />
		<tag k="place" v="locality" />
		<tag k="ssr:stedsnr" v="371121" />
	</node>
	<node id="-512068" lat="61.2054915915" lon="6.5109222893">
		<tag k="fixme" v="consider tourism=alpine_hut or tourism=chalet" />
		<tag k="name" v="Balabu" />
		<tag k="ssr:stedsnr" v="1073235" />
		<tag k="tourism" v="wilderness_hut" />
	</node>
	<node id="-512579" lat="61.1632249993" lon="6.28138332739">
		<tag k="alt_name" v="Maurvollen" />
		<tag k="name" v="Maurvoll" />
		<tag k="place" v="farm" />
		<tag k="ssr:stedsnr" v="495739" />
	</node>
	<node id="-511885" lat="61.13608333" lon="6.27576943888">
		<tag k="name" v="Tennefoss" />
		<tag k="place" v="farm" />
		<tag k="ssr:stedsnr" v="349675" />
	</node>
	<node id="-512908" lat="61.201761115" lon="6.47221666282">
		<tag k="name" v="Vårstølen" />
		<tag k="place" v="locality" />
		<tag k="ssr:stedsnr" v="713044" />
	</node>
	<node id="-512861" lat="61.3079878237" lon="6.57062453077">
		<tag k="fixme" v="consider place=hamlet" />
		<tag k="name" v="Feten" />
		<tag k="place" v="farm" />
		<tag k="ssr:stedsnr" v="675783" />
	</node>
	<node id="-512079" lat="61.145563888" lon="6.34975278162">
		<tag k="historic" v="shieling" />
		<tag k="name" v="Gubben" />
		<tag k="place" v="locality" />
		<tag k="ssr:stedsnr" v="9655" />
	</node>
	<node id="-511865" lat="61.2209111087" lon="6.5459861042">
		<tag k="historic" v="shieling" />
		<tag k="name" v="Gamlestølen" />
		<tag k="place" v="locality" />
		<tag k="ssr:stedsnr" v="348850" />
	</node>
	<node id="-511862" lat="61.2873750033" lon="6.56647500503">
		<tag k="name" v="Stølen" />
		<tag k="place" v="locality" />
		<tag k="ssr:stedsnr" v="348819" />
	</node>
	<node id="-512882" lat="61.1802388902" lon="6.31748055953">
		<tag k="alt_name" v="Norddalen, nedre" />
		<tag k="fixme" v="multiple name tags, choose one and add the other to alt_name" />
		<tag k="historic" v="shieling" />
		<tag k="name" v="Norddalssete;Nedre Norddalen" />
		<tag k="place" v="locality" />
		<tag k="ssr:stedsnr" v="677751" />
	</node>
	<node id="-512880" lat="61.1616861074" lon="6.17978333785">
		<tag k="name" v="Skori" />
		<tag k="place" v="locality" />
		<tag k="ssr:stedsnr" v="677315" />
	</node>
	<node id="-512366" lat="61.1854000021" lon="6.33047777747">
		<tag k="alt_name" v="Norddalen, øvre" />
		<tag k="historic" v="shieling" />
		<tag k="name" v="Øvre Norddalen" />
		<tag k="place" v="locality" />
		<tag k="ssr:stedsnr" v="191696" />
	</node>
	<node id="-512877" lat="61.1565499976" lon="6.47266389447">
		<tag k="name" v="Målsnesstølen" />
		<tag k="place" v="locality" />
		<tag k="ssr:stedsnr" v="677627" />
	</node>
	<node id="-512875" lat="61.1886128297" lon="6.52407265635">
		<tag k="fixme" v="consider place=hamlet" />
		<tag k="name" v="Bruhjell" />
		<tag k="place" v="farm" />
		<tag k="ssr:stedsnr" v="676723" />
	</node>
	<node id="-512874" lat="61.2171194462" lon="6.55840833918">
		<tag k="alt_name" v="Dragsvik" />
		<tag k="name" v="Dragsviki" />
		<tag k="place" v="hamlet" />
		<tag k="ssr:stedsnr" v="676704" />
	</node>
	<node id="-512873" lat="61.199279644" lon="6.52932325296">
		<tag k="fixme" v="consider place=hamlet" />
		<tag k="name" v="Askelund" />
		<tag k="place" v="farm" />
		<tag k="ssr:stedsnr" v="676702" />
	</node>
	<node id="-512872" lat="61.1357346442" lon="6.36496144374">
		<tag k="fixme" v="multiple name tags, choose one and add the other to alt_name" />
		<tag k="name" v="Tennefossen;Vetlefossen" />
		<tag k="place" v="farm" />
		<tag k="ssr:stedsnr" v="676650" />
	</node>
	<node id="-512871" lat="61.1115485943" lon="6.38059308819">
		<tag k="fixme" v="consider place=hamlet" />
		<tag k="name" v="Sæle" />
		<tag k="place" v="farm" />
		<tag k="ssr:stedsnr" v="676646" />
	</node>
	<node id="-512357" lat="61.2054888902" lon="6.50985277308">
		<tag k="historic" v="shieling" />
		<tag k="name" v="Balastølen" />
		<tag k="place" v="locality" />
		<tag k="ssr:stedsnr" v="191654" />
	</node>
	<node id="-512866" lat="61.263463885" lon="6.46471389256">
		<tag k="alt_name" v="Påfunn fjellstøl" />
		<tag k="name" v="Påfunn" />
		<tag k="place" v="isolated_dwelling" />
		<tag k="ssr:stedsnr" v="675869" />
	</node>
	<node id="-512351" lat="61.1221249964" lon="6.37013888145">
		<tag k="historic" v="shieling" />
		<tag k="name" v="Tussvikstølen" />
		<tag k="place" v="locality" />
		<tag k="ssr:stedsnr" v="191616" />
	</node>
	<node id="-512862" lat="61.3049795549" lon="6.55869895866">
		<tag k="fixme" v="consider place=hamlet" />
		<tag k="name" v="Eiki" />
		<tag k="place" v="farm" />
		<tag k="ssr:stedsnr" v="675784" />
	</node>
	<node id="-512349" lat="61.1506388885" lon="6.53806111629">
		<tag k="name" v="Eikelund" />
		<tag k="place" v="farm" />
		<tag k="ssr:stedsnr" v="191607" />
	</node>
	<node id="-512860" lat="61.367677778" lon="6.57875000134">
		<tag k="name" v="Grøndalen" />
		<tag k="place" v="isolated_dwelling" />
		<tag k="ssr:stedsnr" v="675748" />
	</node>
	<node id="-512347" lat="61.1327333352" lon="6.32859167367">
		<tag k="historic" v="shieling" />
		<tag k="name" v="Fjelleflet" />
		<tag k="place" v="locality" />
		<tag k="ssr:stedsnr" v="191598" />
	</node>
	<node id="-512346" lat="61.1670805529" lon="6.36557778359">
		<tag k="alt_name" v="Hesjedalen" />
		<tag k="historic" v="shieling" />
		<tag k="name" v="Hesjadalen" />
		<tag k="place" v="locality" />
		<tag k="ssr:stedsnr" v="191595" />
	</node>
	<node id="-511832" lat="61.1654640922" lon="6.54055281681">
		<tag k="fixme" v="consider place=hamlet" />
		<tag k="name" v="Stokkabø" />
		<tag k="place" v="farm" />
		<tag k="ssr:stedsnr" v="313637" />
	</node>
	<node id="-512081" lat="61.2138716218" lon="6.49398046714">
		<tag k="alt_name" v="Ese, ytre;Ese" />
		<tag k="fixme" v="consider place=hamlet" />
		<tag k="name" v="Ytre Ese" />
		<tag k="place" v="farm" />
		<tag k="ssr:stedsnr" v="9686" />
	</node>
	<node id="-512341" lat="61.3055861152" lon="6.38588610439">
		<tag k="historic" v="shieling" />
		<tag k="name" v="Risbotnstølen" />
		<tag k="place" v="locality" />
		<tag k="ssr:stedsnr" v="190783" />
	</node>
	<node id="-511827" lat="61.1921565114" lon="6.52053176467">
		<tag k="alt_name" v="Skaasheim" />
		<tag k="fixme" v="consider place=hamlet" />
		<tag k="name" v="Skåseim" />
		<tag k="place" v="farm" />
		<tag k="ssr:stedsnr" v="312705" />
	</node>
	<node id="-512338" lat="61.2726666644" lon="6.50472221722">
		<tag k="alt_name" v="Teigen" />
		<tag k="name" v="Nybø" />
		<tag k="place" v="farm" />
		<tag k="ssr:stedsnr" v="189842" />
	</node>
	<node id="-511825" lat="61.2014999212" lon="6.53019177233">
		<tag k="fixme" v="consider place=hamlet" />
		<tag k="name" v="Sjøtun" />
		<tag k="place" v="farm" />
		<tag k="ssr:stedsnr" v="312687" />
	</node>
	<node id="-511822" lat="61.1213638902" lon="6.46830833025">
		<tag k="name" v="Midtbøen" />
		<tag k="place" v="farm" />
		<tag k="ssr:stedsnr" v="312663" />
	</node>
	<node id="-512333" lat="61.1102666689" lon="6.38115556027">
		<tag k="name" v="Sæle sag" />
		<tag k="place" v="quarter" />
		<tag k="ssr:stedsnr" v="177574" />
	</node>
	<node id="-512332" lat="61.2172583317" lon="6.55463332597">
		<tag k="name" v="Lunde" />
		<tag k="place" v="quarter" />
		<tag k="ssr:stedsnr" v="177567" />
	</node>
	<node id="-512330" lat="61.2742166706" lon="6.54430833009">
		<tag k="name" v="Ytre Torsnes" />
		<tag k="place" v="farm" />
		<tag k="ssr:stedsnr" v="175588" />
	</node>
	<node id="-512567" lat="61.1354304676" lon="6.28020517654">
		<tag k="alt_name" v="Indre Nesse" />
		<tag k="fixme" v="consider place=hamlet" />
		<tag k="name" v="Nesse" />
		<tag k="place" v="farm" />
		<tag k="ssr:stedsnr" v="494625" />
	</node>
	<node id="-511815" lat="61.1631444442" lon="6.14865278665">
		<tag k="historic" v="shieling" />
		<tag k="name" v="Ståstølen" />
		<tag k="place" v="locality" />
		<tag k="ssr:stedsnr" v="312329" />
	</node>
	<node id="-512326" lat="61.1704805524" lon="6.53370000639">
		<tag k="name" v="Stuene" />
		<tag k="place" v="isolated_dwelling" />
		<tag k="ssr:stedsnr" v="167967" />
	</node>
	<node id="-511812" lat="61.2610888867" lon="6.53820556384">
		<tag k="fixme" v="consider place=hamlet" />
		<tag k="name" v="Sværafjorden" />
		<tag k="place" v="village" />
		<tag k="ssr:stedsnr" v="311888" />
	</node>
	<node id="-511807" lat="61.3384058267" lon="6.5555707863">
		<tag k="fixme" v="consider place=hamlet" />
		<tag k="name" v="Mel" />
		<tag k="place" v="farm" />
		<tag k="ssr:stedsnr" v="311750" />
	</node>
	<node id="-511806" lat="61.1812249976" lon="6.17813055449">
		<tag k="historic" v="shieling" />
		<tag k="name" v="Brekkestølen" />
		<tag k="place" v="locality" />
		<tag k="ssr:stedsnr" v="70317" />
	</node>
	<node id="-511836" lat="61.2564332822" lon="6.5392521152">
		<tag k="fixme" v="consider place=hamlet" />
		<tag k="name" v="Indre Farnes" />
		<tag k="place" v="farm" />
		<tag k="ssr:stedsnr" v="324539" />
	</node>
	<node id="-512827" lat="61.1413111129" lon="6.2735972166">
		<tag k="name" v="Hylmedalen" />
		<tag k="place" v="isolated_dwelling" />
		<tag k="ssr:stedsnr" v="652576" />
	</node>
	<node id="-512478" lat="61.1625611103" lon="6.18469167361">
		<tag k="alt_name" v="Koldingsnes" />
		<tag k="fixme" v="consider place=hamlet" />
		<tag k="name" v="Kollangsneset" />
		<tag k="place" v="farm" />
		<tag k="ssr:stedsnr" v="434300" />
	</node>
	<node id="-512301" lat="61.1965222195" lon="6.52399722139">
		<tag k="name" v="Sandshagen" />
		<tag k="place" v="farm" />
		<tag k="ssr:stedsnr" v="167004" />
	</node>
	<node id="-512810" lat="61.1903083352" lon="6.51481111181">
		<tag k="name" v="Heimastølen" />
		<tag k="place" v="locality" />
		<tag k="ssr:stedsnr" v="652040" />
	</node>
	<node id="-511783" lat="61.2372833327" lon="6.45687778663">
		<tag k="name" v="Elvastølen" />
		<tag k="place" v="locality" />
		<tag k="ssr:stedsnr" v="288765" />
	</node>
	<node id="-512282" lat="61.1893583328" lon="6.50884722833">
		<tag k="name" v="Gamlestølen" />
		<tag k="place" v="locality" />
		<tag k="ssr:stedsnr" v="166062" />
	</node>
	<node id="-513303" lat="61.1277014139" lon="6.48304647681">
		<tag k="fixme" v="consider place=hamlet" />
		<tag k="name" v="Kvamsøy" />
		<tag k="place" v="farm" />
		<tag k="ssr:stedsnr" v="979652" />
	</node>
	<node id="-513302" lat="61.136101283" lon="6.36312361341">
		<tag k="name" v="Tennefossen" />
		<tag k="place" v="hamlet" />
		<tag k="ssr:stedsnr" v="979651" />
	</node>
	<node id="-512787" lat="61.1581546717" lon="6.22680173668">
		<tag k="fixme" v="consider place=hamlet" />
		<tag k="name" v="Kvist" />
		<tag k="place" v="farm" />
		<tag k="ssr:stedsnr" v="616642" />
	</node>
	<node id="-512785" lat="61.1610499975" lon="6.54238055548">
		<tag k="name" v="Hestviki" />
		<tag k="place" v="farm" />
		<tag k="ssr:stedsnr" v="616633" />
	</node>
	<node id="-513296" lat="61.2156432527" lon="6.49066942833">
		<tag k="alt_name" v="Ese, indre;Ese" />
		<tag k="fixme" v="consider place=hamlet" />
		<tag k="name" v="Indre Ese" />
		<tag k="place" v="farm" />
		<tag k="ssr:stedsnr" v="959679" />
	</node>
	<node id="-512472" lat="61.2859748828" lon="6.54755081245">
		<tag k="alt_name" v="Bjørkatun;Hjetland" />
		<tag k="name" v="Bjørketun" />
		<tag k="place" v="farm" />
		<tag k="ssr:stedsnr" v="432753" />
	</node>
	<node id="-513294" lat="61.1231499996" lon="6.41848611383">
		<tag k="name" v="Haukedalsløa" />
		<tag k="place" v="locality" />
		<tag k="ssr:stedsnr" v="956970" />
	</node>
	<node id="-512781" lat="61.1805333342" lon="6.5086583246">
		<tag k="alt_name" v="Bruhjellstølen" />
		<tag k="historic" v="shieling" />
		<tag k="name" v="Bruhjellsstølen" />
		<tag k="place" v="locality" />
		<tag k="ssr:stedsnr" v="615726" />
	</node>
	<node id="-512780" lat="61.2090416636" lon="6.53852778272">
		<tag k="name" v="Kviknes Hotel" />
		<tag k="old_name" v="Kvikne hotell" />
		<tag k="ssr:stedsnr" v="615691" />
		<tag k="tourism" v="hotel" />
	</node>
	<node id="-512779" lat="61.195917396" lon="6.52607683696">
		<tag k="fixme" v="consider place=hamlet" />
		<tag k="name" v="Sande" />
		<tag k="place" v="farm" />
		<tag k="ssr:stedsnr" v="615686" />
	</node>
	<node id="-512266" lat="61.1974138867" lon="6.52832500315">
		<tag k="name" v="Grønlii" />
		<tag k="place" v="farm" />
		<tag k="ssr:stedsnr" v="130672" />
	</node>
	<node id="-512776" lat="61.1139729884" lon="6.45260957312">
		<tag k="name" v="Haugen" />
		<tag k="place" v="farm" />
		<tag k="ssr:stedsnr" v="615658" />
	</node>
	<node id="-512775" lat="61.1325072023" lon="6.48980709682">
		<tag k="alt_name" v="Engum" />
		<tag k="fixme" v="consider place=hamlet" />
		<tag k="name" v="Engjane" />
		<tag k="place" v="farm" />
		<tag k="ssr:stedsnr" v="615644" />
	</node>
	<node id="-512262" lat="61.1130999976" lon="6.44860555918">
		<tag k="name" v="Hasleviki" />
		<tag k="place" v="farm" />
		<tag k="ssr:stedsnr" v="130651" />
	</node>
	<node id="-512772" lat="61.2359000001" lon="6.62357499198">
		<tag k="historic" v="shieling" />
		<tag k="name" v="Åsastølen" />
		<tag k="place" v="locality" />
		<tag k="ssr:stedsnr" v="615544" />
	</node>
	<node id="-512158" lat="61.1473916657" lon="6.28300556448">
		<tag k="alt_name" v="Stuane" />
		<tag k="historic" v="shieling" />
		<tag k="name" v="Stuvane" />
		<tag k="place" v="locality" />
		<tag k="ssr:stedsnr" v="69692" />
	</node>
	<node id="-512258" lat="61.114705328" lon="6.39661099975">
		<tag k="fixme" v="consider place=hamlet" />
		<tag k="name" v="Linde" />
		<tag k="place" v="farm" />
		<tag k="ssr:stedsnr" v="130625" />
	</node>
	<node id="-513281" lat="61.1685861126" lon="6.30386666621">
		<tag k="name" v="Hjelsengi" />
		<tag k="place" v="farm" />
		<tag k="ssr:stedsnr" v="956693" />
	</node>
	<node id="-512255" lat="61.1678250029" lon="6.30960832914">
		<tag k="alt_name" v="Tråna" />
		<tag k="historic" v="shieling" />
		<tag k="name" v="Trona" />
		<tag k="place" v="locality" />
		<tag k="ssr:stedsnr" v="130610" />
	</node>
	<node id="-512763" lat="61.2805944488" lon="6.50119999264">
		<tag k="name" v="Hellebø" />
		<tag k="place" v="farm" />
		<tag k="ssr:stedsnr" v="614794" />
	</node>
	<node id="-512247" lat="61.360324999" lon="6.54390000781">
		<tag k="name" v="Gottopp" />
		<tag k="place" v="locality" />
		<tag k="ssr:stedsnr" v="129726" />
	</node>
	<node id="-512245" lat="61.3509055591" lon="6.55795555575">
		<tag k="alt_name" v="Langhaugen" />
		<tag k="name" v="Langehaugen" />
		<tag k="place" v="isolated_dwelling" />
		<tag k="ssr:stedsnr" v="129706" />
	</node>
	<node id="-512467" lat="61.2181467692" lon="6.524193963">
		<tag k="fixme" v="consider place=hamlet" />
		<tag k="name" v="Grøneng" />
		<tag k="place" v="farm" />
		<tag k="ssr:stedsnr" v="434665" />
	</node>
	<node id="-512240" lat="61.2707364078" lon="6.6096722408">
		<tag k="fixme" v="consider place=hamlet" />
		<tag k="name" v="Nauteskreda" />
		<tag k="place" v="farm" />
		<tag k="ssr:stedsnr" v="128092" />
	</node>
	<node id="-512746" lat="61.1830055512" lon="6.52717777076">
		<tag k="historic" v="shieling" />
		<tag k="name" v="Persstølen" />
		<tag k="place" v="locality" />
		<tag k="ssr:stedsnr" v="591888" />
	</node>
	<node id="-512744" lat="61.2149344877" lon="6.54608810509">
		<tag k="fixme" v="consider place=hamlet" />
		<tag k="name" v="Tjugum" />
		<tag k="place" v="farm" />
		<tag k="ssr:stedsnr" v="591884" />
	</node>
	<node id="-512464" lat="61.1162194457" lon="6.4209666696">
		<tag k="name" v="Lindehagen" />
		<tag k="place" v="farm" />
		<tag k="ssr:stedsnr" v="434641" />
	</node>
	<node id="-512220" lat="61.2336138906" lon="6.47708888064">
		<tag k="name" v="Bysete" />
		<tag k="place" v="isolated_dwelling" />
		<tag k="ssr:stedsnr" v="106793" />
	</node>
	<node id="-513243" lat="61.2016777785" lon="6.53313056061">
		<tag k="name" v="Sagatun" />
		<tag k="place" v="farm" />
		<tag k="ssr:stedsnr" v="955060" />
	</node>
	<node id="-512726" lat="61.2678527819" lon="6.50932777195">
		<tag k="name" v="Nyheim" />
		<tag k="place" v="farm" />
		<tag k="ssr:stedsnr" v="591732" />
	</node>
	<node id="-512212" lat="61.2727638846" lon="6.5425444481">
		<tag k="name" v="Nygard" />
		<tag k="place" v="farm" />
		<tag k="ssr:stedsnr" v="106744" />
	</node>
	<node id="-513234" lat="61.1576666693" lon="6.47965833538">
		<tag k="historic" v="shieling" />
		<tag k="name" v="Hanavikstølen" />
		<tag k="place" v="locality" />
		<tag k="ssr:stedsnr" v="920629" />
	</node>
	<node id="-512774" lat="61.1363916685" lon="6.27958611768">
		<tag k="alt_name" v="Gjerde" />
		<tag k="name" v="Gjerdet" />
		<tag k="place" v="farm" />
		<tag k="ssr:stedsnr" v="615631" />
	</node>
	<node id="-513225" lat="61.249794442" lon="6.52063333156">
		<tag k="historic" v="shieling" />
		<tag k="name" v="Farnesstølen" />
		<tag k="place" v="locality" />
		<tag k="ssr:stedsnr" v="918896" />
	</node>
	<node id="-513220" lat="61.3296305537" lon="6.44190555418">
		<tag k="name" v="Torsnesstølen" />
		<tag k="place" v="isolated_dwelling" />
		<tag k="ssr:stedsnr" v="918844" />
	</node>
	<node id="-513219" lat="61.3557416681" lon="6.52289444019">
		<tag k="name" v="Bårddalen" />
		<tag k="place" v="isolated_dwelling" />
		<tag k="ssr:stedsnr" v="918772" />
	</node>
	<node id="-513218" lat="61.3440000024" lon="6.4667083417">
		<tag k="name" v="Nystølen" />
		<tag k="place" v="isolated_dwelling" />
		<tag k="ssr:stedsnr" v="918755" />
	</node>
	<node id="-512704" lat="61.1266444429" lon="6.37085834052">
		<tag k="name" v="Gamlestølen" />
		<tag k="place" v="locality" />
		<tag k="ssr:stedsnr" v="591261" />
	</node>
	<node id="-513214" lat="61.1962444475" lon="6.52313333569">
		<tag k="name" v="Øvre Sande" />
		<tag k="place" v="quarter" />
		<tag k="ssr:stedsnr" v="905553" />
	</node>
	<node id="-513213" lat="61.1256361075" lon="6.4674694469">
		<tag k="name" v="Skardet" />
		<tag k="place" v="farm" />
		<tag k="ssr:stedsnr" v="904548" />
	</node>
	<node id="-513212" lat="61.2185095078" lon="6.51627245464">
		<tag k="name" v="Teigen" />
		<tag k="place" v="isolated_dwelling" />
		<tag k="ssr:stedsnr" v="904506" />
	</node>
	<node id="-513207" lat="61.1171916671" lon="6.46665555307">
		<tag k="alt_name" v="Skaret" />
		<tag k="name" v="Skardet" />
		<tag k="place" v="farm" />
		<tag k="ssr:stedsnr" v="859659" />
	</node>
	<node id="-513205" lat="61.1373316187" lon="6.52691591106">
		<tag k="fixme" v="consider place=hamlet" />
		<tag k="name" v="Målsnes" />
		<tag k="place" v="farm" />
		<tag k="ssr:stedsnr" v="859635" />
	</node>
	<node id="-513199" lat="61.1749472198" lon="6.19374166124">
		<tag k="name" v="Teigen" />
		<tag k="place" v="locality" />
		<tag k="ssr:stedsnr" v="859309" />
	</node>
	<node id="-513198" lat="61.3275336767" lon="6.57015778646">
		<tag k="fixme" v="consider place=hamlet" />
		<tag k="name" v="Renndalen" />
		<tag k="place" v="farm" />
		<tag k="ssr:stedsnr" v="858821" />
	</node>
	<node id="-513196" lat="61.3077083315" lon="6.53839722312">
		<tag k="historic" v="shieling" />
		<tag k="name" v="Eikjadalen" />
		<tag k="place" v="locality" />
		<tag k="ssr:stedsnr" v="858789" />
	</node>
	<node id="-512171" lat="61.2200833309" lon="6.50948889052">
		<tag k="name" v="Bakken" />
		<tag k="place" v="farm" />
		<tag k="ssr:stedsnr" v="70701" />
	</node>
	<node id="-513194" lat="61.1397888903" lon="6.28109444622">
		<tag k="name" v="Nessali" />
		<tag k="place" v="farm" />
		<tag k="ssr:stedsnr" v="858673" />
	</node>
	<node id="-513193" lat="61.2518999996" lon="6.53180277816">
		<tag k="fixme" v="multiple name tags, choose one and add the other to alt_name" />
		<tag k="name" v="Botnen;Brunene" />
		<tag k="place" v="locality" />
		<tag k="ssr:stedsnr" v="857869" />
	</node>
	<node id="-512168" lat="61.1314527795" lon="6.47953889488">
		<tag k="name" v="Nystad" />
		<tag k="place" v="farm" />
		<tag k="ssr:stedsnr" v="70665" />
	</node>
	<node id="-513191" lat="61.2620555598" lon="6.49185555401">
		<tag k="alt_name" v="Dalsdalen støl" />
		<tag k="historic" v="shieling" />
		<tag k="name" v="Dalsdalen" />
		<tag k="place" v="locality" />
		<tag k="ssr:stedsnr" v="857850" />
	</node>
	<node id="-512166" lat="61.1211593648" lon="6.35199370698">
		<tag k="fixme" v="consider place=hamlet" />
		<tag k="name" v="Tussviki" />
		<tag k="place" v="farm" />
		<tag k="ssr:stedsnr" v="70661" />
	</node>
	<node id="-512677" lat="61.1717000023" lon="6.505488895">
		<tag k="historic" v="shieling" />
		<tag k="name" v="Brekka" />
		<tag k="place" v="locality" />
		<tag k="ssr:stedsnr" v="555702" />
	</node>
	<node id="-513188" lat="61.331636112" lon="6.5677944377">
		<tag k="alt_name" v="Midtun" />
		<tag k="name" v="Midttun" />
		<tag k="place" v="farm" />
		<tag k="ssr:stedsnr" v="857788" />
	</node>
	<node id="-512163" lat="61.2402083315" lon="6.54348889429">
		<tag k="historic" v="shieling" />
		<tag k="name" v="Galdane" />
		<tag k="place" v="locality" />
		<tag k="ssr:stedsnr" v="70286" />
	</node>
	<node id="-513186" lat="61.3055222193" lon="6.56662500868">
		<tag k="name" v="Nedrebø" />
		<tag k="place" v="farm" />
		<tag k="ssr:stedsnr" v="857772" />
	</node>
	<node id="-512672" lat="61.2173873102" lon="6.5323360611">
		<tag k="fixme" v="consider place=hamlet" />
		<tag k="name" v="Gjerde" />
		<tag k="place" v="farm" />
		<tag k="ssr:stedsnr" v="555660" />
	</node>
	<node id="-512671" lat="61.1287695501" lon="6.32753591689">
		<tag k="fixme" v="consider place=hamlet" />
		<tag k="name" v="Nokken" />
		<tag k="place" v="farm" />
		<tag k="ssr:stedsnr" v="555608" />
	</node>
	<node id="-512670" lat="61.1332888911" lon="6.30768056113">
		<tag k="alt_name" v="Nessestrondi" />
		<tag k="name" v="Nessastrondi" />
		<tag k="place" v="locality" />
		<tag k="ssr:stedsnr" v="555605" />
	</node>
	<node id="-512669" lat="61.1707444486" lon="6.30794999472">
		<tag k="historic" v="shieling" />
		<tag k="name" v="Hjellsengi" />
		<tag k="place" v="locality" />
		<tag k="ssr:stedsnr" v="555600" />
	</node>
	<node id="-512667" lat="61.1832780723" lon="6.2070145615">
		<tag k="fixme" v="consider place=hamlet" />
		<tag k="name" v="Bolstad" />
		<tag k="place" v="farm" />
		<tag k="ssr:stedsnr" v="555300" />
	</node>
	<node id="-512154" lat="61.3001594128" lon="6.5647408261">
		<tag k="fixme" v="consider place=hamlet" />
		<tag k="name" v="Ulvastad" />
		<tag k="place" v="farm" />
		<tag k="ssr:stedsnr" v="68783" />
	</node>
	<node id="-512151" lat="61.1939194413" lon="6.52526943656">
		<tag k="name" v="Brattland" />
		<tag k="place" v="quarter" />
		<tag k="ssr:stedsnr" v="55508" />
	</node>
	<node id="-512365" lat="61.1608166687" lon="6.22210555022">
		<tag k="name" v="Sørebø" />
		<tag k="place" v="farm" />
		<tag k="ssr:stedsnr" v="191688" />
	</node>
	<node id="-512138" lat="61.1348999985" lon="6.35508888926">
		<tag k="name" v="Jogarden" />
		<tag k="place" v="farm" />
		<tag k="ssr:stedsnr" v="46297" />
	</node>
	<node id="-513159" lat="61.136561108" lon="6.35482776999">
		<tag k="name" v="Storfossen" />
		<tag k="place" v="farm" />
		<tag k="ssr:stedsnr" v="835298" />
	</node>
	<node id="-513236" lat="61.1701750012" lon="6.29971943847">
		<tag k="name" v="Dalheim" />
		<tag k="place" v="farm" />
		<tag k="ssr:stedsnr" v="920734" />
	</node>
	<node id="-513139" lat="61.2597611118" lon="6.57826943996">
		<tag k="name" v="Liane" />
		<tag k="place" v="locality" />
		<tag k="ssr:stedsnr" v="834736" />
	</node>
	<node id="-512626" lat="61.1348583306" lon="6.28387221363">
		<tag k="name" v="Kleivi" />
		<tag k="place" v="farm" />
		<tag k="ssr:stedsnr" v="531654" />
	</node>
	<node id="-512103" lat="61.2039416652" lon="6.52219167295">
		<tag k="name" v="Kreklingen" />
		<tag k="place" v="quarter" />
		<tag k="ssr:stedsnr" v="45086" />
	</node>
	<node id="-512100" lat="61.1953027791" lon="6.52072500553">
		<tag k="amenity" v="school" />
		<tag k="name" v="Granlia off. skule" />
		<tag k="ssr:stedsnr" v="45067" />
	</node>
	<node id="-512363" lat="61.1894666641" lon="6.48844999446">
		<tag k="historic" v="shieling" />
		<tag k="name" v="Kallbakk" />
		<tag k="place" v="locality" />
		<tag k="ssr:stedsnr" v="191681" />
	</node>
	<node id="-512090" lat="61.2547322262" lon="6.57674785045">
		<tag k="fixme" v="consider place=hamlet" />
		<tag k="name" v="Menes" />
		<tag k="place" v="farm" />
		<tag k="ssr:stedsnr" v="26234" />
	</node>
	<node id="-512271" lat="61.1567305575" lon="6.51836389519">
		<tag k="alt_name" v="Sauesete" />
		<tag k="historic" v="shieling" />
		<tag k="name" v="Savesete" />
		<tag k="place" v="locality" />
		<tag k="ssr:stedsnr" v="131632" />
	</node>
	<node id="-513112" lat="61.1374233654" lon="6.26705672172">
		<tag k="fixme" v="consider place=hamlet" />
		<tag k="name" v="Ytre Nesse" />
		<tag k="place" v="farm" />
		<tag k="ssr:stedsnr" v="811287" />
	</node>
	<node id="-512087" lat="61.1687816673" lon="6.52943621624">
		<tag k="alt_name" v="Tuftedal" />
		<tag k="fixme" v="consider place=hamlet" />
		<tag k="name" v="Tuftadalen" />
		<tag k="place" v="farm" />
		<tag k="ssr:stedsnr" v="9738" />
	</node>
	<node id="-512086" lat="61.1857666624" lon="6.49533333714">
		<tag k="historic" v="shieling" />
		<tag k="name" v="Kisane" />
		<tag k="place" v="locality" />
		<tag k="ssr:stedsnr" v="9735" />
	</node>
	<node id="-511929" lat="61.2158000016" lon="6.55809443617">
		<tag k="name" v="Lundsviki" />
		<tag k="place" v="farm" />
		<tag k="ssr:stedsnr" v="373725" />
	</node>
	<node id="-512084" lat="61.2003465682" lon="6.52327211129">
		<tag k="alt_name" v="Fjerestad" />
		<tag k="fixme" v="consider place=hamlet" />
		<tag k="name" v="Fjærestad" />
		<tag k="place" v="farm" />
		<tag k="ssr:stedsnr" v="9711" />
	</node>
	<node id="-513106" lat="61.180618687" lon="6.53405112564">
		<tag k="alt_name" v="Thue" />
		<tag k="fixme" v="consider place=hamlet" />
		<tag k="name" v="Tue" />
		<tag k="place" v="farm" />
		<tag k="ssr:stedsnr" v="798691" />
	</node>
	<node id="-512611" lat="61.1974583313" lon="6.51493333887">
		<tag k="name" v="Sandsstølen" />
		<tag k="place" v="locality" />
		<tag k="ssr:stedsnr" v="531007" />
	</node>
	<node id="-513104" lat="61.1901583318" lon="6.52803611466">
		<tag k="name" v="Hagen" />
		<tag k="place" v="farm" />
		<tag k="ssr:stedsnr" v="798683" />
	</node>
	<node id="-513103" lat="61.1713660897" lon="6.54104901643">
		<tag k="alt_name" v="Flesje" />
		<tag k="fixme" v="consider place=hamlet" />
		<tag k="name" v="Flesjane" />
		<tag k="place" v="farm" />
		<tag k="ssr:stedsnr" v="798680" />
	</node>
	<node id="-512078" lat="61.143505552" lon="6.29839167191">
		<tag k="alt_name" v="Hestabotn" />
		<tag k="historic" v="shieling" />
		<tag k="name" v="Hestabotnen" />
		<tag k="place" v="locality" />
		<tag k="ssr:stedsnr" v="9654" />
	</node>
	<node id="-512077" lat="61.1764888867" lon="6.15527777263">
		<tag k="name" v="Eitredalen" />
		<tag k="place" v="isolated_dwelling" />
		<tag k="ssr:stedsnr" v="9329" />
	</node>
	<node id="-513100" lat="61.2155546101" lon="6.55359820607">
		<tag k="fixme" v="consider place=hamlet" />
		<tag k="name" v="Lunde" />
		<tag k="place" v="farm" />
		<tag k="ssr:stedsnr" v="798674" />
	</node>
	<node id="-512354" lat="61.2116083335" lon="6.46005555709">
		<tag k="historic" v="shieling" />
		<tag k="name" v="Esestølen" />
		<tag k="place" v="locality" />
		<tag k="ssr:stedsnr" v="191633" />
	</node>
	<node id="-512183" lat="61.1892276946" lon="6.22903959984">
		<tag k="fixme" v="consider place=hamlet" />
		<tag k="name" v="Låne" />
		<tag k="place" v="farm" />
		<tag k="ssr:stedsnr" v="70747" />
	</node>
	<node id="-513094" lat="61.124044333" lon="6.46778548294">
		<tag k="fixme" v="consider place=hamlet" />
		<tag k="name" v="Kvamme" />
		<tag k="place" v="farm" />
		<tag k="ssr:stedsnr" v="798634" />
	</node>
	<node id="-513092" lat="61.1490527778" lon="6.53918610952">
		<tag k="name" v="Kallestad" />
		<tag k="place" v="farm" />
		<tag k="ssr:stedsnr" v="798619" />
	</node>
	<node id="-513091" lat="61.1389305578" lon="6.43473889412">
		<tag k="alt_name" v="Grysete" />
		<tag k="historic" v="shieling" />
		<tag k="name" v="Gryssete" />
		<tag k="place" v="locality" />
		<tag k="ssr:stedsnr" v="798617" />
	</node>
	<node id="-512578" lat="61.1760194432" lon="6.41593056286">
		<tag k="name" v="Igdedalen" />
		<tag k="place" v="locality" />
		<tag k="ssr:stedsnr" v="495734" />
	</node>
	<node id="-512576" lat="61.1572499957" lon="6.24502778676">
		<tag k="name" v="Raundalen" />
		<tag k="place" v="locality" />
		<tag k="ssr:stedsnr" v="495639" />
	</node>
	<node id="-513086" lat="61.1766341115" lon="6.19591245838">
		<tag k="fixme" v="consider place=hamlet" />
		<tag k="name" v="Brekka" />
		<tag k="place" v="farm" />
		<tag k="ssr:stedsnr" v="798316" />
	</node>
	<node id="-512061" lat="61.247097224" lon="6.54741944236">
		<tag k="name" v="Hankateigane" />
		<tag k="place" v="locality" />
		<tag k="ssr:stedsnr" v="895844" />
	</node>
	<node id="-512572" lat="61.1853527767" lon="6.25355276912">
		<tag k="historic" v="shieling" />
		<tag k="name" v="Kråkeskardet" />
		<tag k="place" v="locality" />
		<tag k="ssr:stedsnr" v="494718" />
	</node>
	<node id="-512568" lat="61.1386638916" lon="6.2836083407">
		<tag k="alt_name" v="Sætane" />
		<tag k="name" v="Setane" />
		<tag k="place" v="farm" />
		<tag k="ssr:stedsnr" v="494626" />
	</node>
	<node id="-513079" lat="61.3027552509" lon="6.55443083552">
		<tag k="name" v="Eiki" />
		<tag k="place" v="farm" />
		<tag k="ssr:stedsnr" v="797767" />
	</node>
	<node id="-513075" lat="61.284133337" lon="6.49584166633">
		<tag k="name" v="Vetlestølen" />
		<tag k="place" v="locality" />
		<tag k="ssr:stedsnr" v="796789" />
	</node>
	<node id="-512561" lat="61.1737194407" lon="6.21509444729">
		<tag k="name" v="Gota" />
		<tag k="place" v="locality" />
		<tag k="ssr:stedsnr" v="494312" />
	</node>
	<node id="-512264" lat="61.2137055564" lon="6.50486388056">
		<tag k="name" v="Risheim" />
		<tag k="place" v="farm" />
		<tag k="ssr:stedsnr" v="130659" />
	</node>
	<node id="-512557" lat="61.298022219" lon="6.56444444756">
		<tag k="fixme" v="consider place=hamlet" />
		<tag k="name" v="Vetlefjorden" />
		<tag k="place" v="village" />
		<tag k="ssr:stedsnr" v="493798" />
	</node>
	<node id="-511922" lat="61.1641861092" lon="6.33788888433">
		<tag k="alt_name" v="Breistølen" />
		<tag k="historic" v="shieling" />
		<tag k="name" v="Breidstølen" />
		<tag k="place" v="locality" />
		<tag k="ssr:stedsnr" v="373659" />
	</node>
	<node id="-513065" lat="61.2770777802" lon="6.54466112001">
		<tag k="name" v="Indre Torsnes" />
		<tag k="place" v="farm" />
		<tag k="ssr:stedsnr" v="782533" />
	</node>
	<node id="-512348" lat="61.1348416658" lon="6.27511389094">
		<tag k="name" v="Nessane" />
		<tag k="place" v="hamlet" />
		<tag k="ssr:stedsnr" v="191603" />
	</node>
	<node id="-513062" lat="61.2143472225" lon="6.55013055302">
		<tag k="name" v="Eikedal" />
		<tag k="place" v="isolated_dwelling" />
		<tag k="ssr:stedsnr" v="782260" />
	</node>
	<node id="-512548" lat="61.2506055515" lon="6.540591663">
		<tag k="name" v="Vetlestølen" />
		<tag k="place" v="locality" />
		<tag k="ssr:stedsnr" v="493882" />
	</node>
	<node id="-512547" lat="61.2567138921" lon="6.54151665827">
		<tag k="name" v="Farnes" />
		<tag k="place" v="hamlet" />
		<tag k="ssr:stedsnr" v="493880" />
	</node>
	<node id="-512545" lat="61.2782169684" lon="6.61914296832">
		<tag k="historic" v="shieling" />
		<tag k="name" v="Kvilesteinshola" />
		<tag k="place" v="locality" />
		<tag k="ssr:stedsnr" v="493147" />
	</node>
	<node id="-512542" lat="61.2004666639" lon="6.52376943676">
		<tag k="name" v="Fjærestad" />
		<tag k="place" v="quarter" />
		<tag k="ssr:stedsnr" v="480549" />
	</node>
	<node id="-512025" lat="61.2152000008" lon="6.54711944211">
		<tag k="name" v="Tjugane" />
		<tag k="place" v="isolated_dwelling" />
		<tag k="ssr:stedsnr" v="479266" />
	</node>
	<node id="-512260" lat="61.1264530084" lon="6.33613942877">
		<tag k="fixme" v="consider place=hamlet" />
		<tag k="name" v="Sagi" />
		<tag k="place" v="farm" />
		<tag k="ssr:stedsnr" v="130636" />
	</node>
	<node id="-512174" lat="61.2046070807" lon="6.53018274852">
		<tag k="alt_name" v="Bale" />
		<tag k="fixme" v="consider place=hamlet" />
		<tag k="name" v="Bala" />
		<tag k="place" v="farm" />
		<tag k="ssr:stedsnr" v="70714" />
	</node>
	<node id="-512600" lat="61.3049166693" lon="6.5647472209">
		<tag k="name" v="Haugen" />
		<tag k="place" v="farm" />
		<tag k="ssr:stedsnr" v="530776" />
	</node>
	<node id="-512172" lat="61.2191222213" lon="6.51144166773">
		<tag k="name" v="Instebø" />
		<tag k="place" v="farm" />
		<tag k="ssr:stedsnr" v="70705" />
	</node>
	<node id="-512678" lat="61.1622777771" lon="6.25981944456">
		<tag k="alt_name" v="Kråkestølen" />
		<tag k="historic" v="shieling" />
		<tag k="name" v="Kråkestøl" />
		<tag k="place" v="locality" />
		<tag k="ssr:stedsnr" v="555713" />
	</node>
</osm>
