<?xml version="1.0" encoding="UTF-8"?>
<osm generator="osmapis" version="0.6">
	<node id="-511999" lat="61.2763972209" lon="6.57207776964">
		<tag k="name" v="Brukaskreda" />
		<tag k="ssr:stedsnr" v="409821" />
		<tag k="waterway" v="stream" />
	</node>
	<node id="-511996" lat="61.2325472204" lon="6.48206389404">
		<tag k="name" v="Skorsteinskreda" />
		<tag k="ssr:stedsnr" v="409768" />
		<tag k="waterway" v="stream" />
	</node>
	<node id="-513015" lat="61.1827555573" lon="6.32713888942">
		<tag k="name" v="Illefoss" />
		<tag k="natural" v="waterfall" />
		<tag k="ssr:stedsnr" v="773586" />
	</node>
	<node id="-513012" lat="61.1649777775" lon="6.29800556031">
		<tag k="name" v="Stakkstø" />
		<tag k="natural" v="beach" />
		<tag k="ssr:stedsnr" v="773419" />
	</node>
	<node id="-512499" lat="61.1348416648" lon="6.3312750027">
		<tag k="name" v="Dyrdalsgrovi" />
		<tag k="ssr:stedsnr" v="470240" />
		<tag k="waterway" v="stream" />
	</node>
	<node id="-511985" lat="61.2691740408" lon="6.60007259435">
		<tag k="name" v="Lassegjerda" />
		<tag k="ssr:stedsnr" v="409652" />
		<tag k="waterway" v="stream" />
	</node>
	<node id="-511983" lat="61.1526583347" lon="6.24043332856">
		<tag k="name" v="Hatthornelvi" />
		<tag k="ssr:stedsnr" v="409648" />
		<tag k="waterway" v="stream" />
	</node>
	<node id="-513005" lat="61.2752944467" lon="6.49530278692">
		<tag k="name" v="Langskreda" />
		<tag k="ssr:stedsnr" v="773033" />
		<tag k="waterway" v="stream" />
	</node>
	<node id="-512742" lat="61.1665805588" lon="6.22446110865">
		<tag k="name" v="Øyna" />
		<tag k="ssr:stedsnr" v="591865" />
		<tag k="waterway" v="river" />
	</node>
	<node id="-512487" lat="61.3028861126" lon="6.46200832537">
		<tag k="name" v="Øvstefossen" />
		<tag k="natural" v="waterfall" />
		<tag k="ssr:stedsnr" v="469053" />
	</node>
	<node id="-512994" lat="61.1648805588" lon="6.29013056295">
		<tag k="fixme" v="multiple name tags, choose one and add the other to alt_name" />
		<tag k="name" v="Dalavatnet;Nessadalsvatnet" />
		<tag k="natural" v="water" />
		<tag k="ssr:stedsnr" v="737730" />
		<tag k="water" v="lake" />
	</node>
	<node id="-512993" lat="61.1803861109" lon="6.37023333948">
		<tag k="name" v="Øvrebotnvatni" />
		<tag k="natural" v="water" />
		<tag k="ssr:stedsnr" v="737728" />
	</node>
	<node id="-512479" lat="61.1935194466" lon="6.28426111789">
		<tag k="name" v="Frambotnvatnet" />
		<tag k="natural" v="water" />
		<tag k="ssr:stedsnr" v="434707" />
	</node>
	<node id="-512986" lat="61.2166866885" lon="6.35189517957">
		<tag k="name" v="Hardbakkavatnet" />
		<tag k="natural" v="water" />
		<tag k="ssr:stedsnr" v="737678" />
		<tag k="water" v="lake" />
	</node>
	<node id="-512335" lat="61.2944972184" lon="6.48844167386">
		<tag k="name" v="Lægdaskreda" />
		<tag k="ssr:stedsnr" v="189724" />
		<tag k="waterway" v="stream" />
	</node>
	<node id="-512164" lat="61.1884750009" lon="6.19760000171">
		<tag k="name" v="Bolstadelvi" />
		<tag k="ssr:stedsnr" v="70331" />
		<tag k="waterway" v="stream" />
	</node>
	<node id="-512980" lat="61.153583334" lon="6.3791194383">
		<tag k="name" v="Leiredru" />
		<tag k="natural" v="water" />
		<tag k="ssr:stedsnr" v="737651" />
	</node>
	<node id="-512334" lat="61.3744638856" lon="6.54939999245">
		<tag k="name" v="Storagrovi" />
		<tag k="ssr:stedsnr" v="189695" />
		<tag k="waterway" v="stream" />
	</node>
	<node id="-512466" lat="61.1344611087" lon="6.40164443825">
		<tag k="name" v="Husavatnet" />
		<tag k="natural" v="water" />
		<tag k="ssr:stedsnr" v="434650" />
	</node>
	<node id="-512969" lat="61.2813916661" lon="6.51074722921">
		<tag k="name" v="Øyreskreda" />
		<tag k="ssr:stedsnr" v="735848" />
		<tag k="waterway" v="stream" />
	</node>
	<node id="-512456" lat="61.2670888885" lon="6.56596389658">
		<tag k="name" v="Allgøya" />
		<tag k="ssr:stedsnr" v="418549" />
		<tag k="waterway" v="stream" />
	</node>
	<node id="-512076" lat="61.180016671" lon="6.17274999869">
		<tag k="name" v="Brekkevatnet" />
		<tag k="natural" v="water" />
		<tag k="ssr:stedsnr" v="9328" />
	</node>
	<node id="-512966" lat="61.2356027789" lon="6.54226944456">
		<tag k="name" v="Skåpargjelet" />
		<tag k="ssr:stedsnr" v="722567" />
		<tag k="waterway" v="stream" />
	</node>
	<node id="-512453" lat="61.1746888914" lon="6.31118333487">
		<tag k="alt_name" v="Norddala" />
		<tag k="name" v="Norddøla" />
		<tag k="ssr:stedsnr" v="252724" />
		<tag k="waterway" v="stream" />
	</node>
	<node id="-512452" lat="61.1675555516" lon="6.51606111123">
		<tag k="name" v="Flesjaelvi" />
		<tag k="ssr:stedsnr" v="252705" />
		<tag k="waterway" v="river" />
	</node>
	<node id="-512961" lat="61.1821833351" lon="6.52854165881">
		<tag k="name" v="Sandvikagrovi" />
		<tag k="ssr:stedsnr" v="713974" />
		<tag k="waterway" v="stream" />
	</node>
	<node id="-512960" lat="61.1573666704" lon="6.53708610263">
		<tag k="name" v="Nygjerdsgrovi" />
		<tag k="ssr:stedsnr" v="713964" />
		<tag k="waterway" v="stream" />
	</node>
	<node id="-512445" lat="61.2151694416" lon="6.39506388701">
		<tag k="name" v="Ågåtastølvatnet" />
		<tag k="natural" v="water" />
		<tag k="ssr:stedsnr" v="252655" />
	</node>
	<node id="-512956" lat="61.1198972261" lon="6.42295833623">
		<tag k="name" v="Merkesgrovi" />
		<tag k="ssr:stedsnr" v="713942" />
		<tag k="waterway" v="stream" />
	</node>
	<node id="-512586" lat="61.2075861134" lon="6.47540000837">
		<tag k="name" v="Torkjellskreda" />
		<tag k="ssr:stedsnr" v="530057" />
		<tag k="waterway" v="stream" />
	</node>
	<node id="-512442" lat="61.1286472215" lon="6.34530556157">
		<tag k="name" v="Tennefossen" />
		<tag k="ssr:stedsnr" v="252593" />
		<tag k="waterway" v="stream" />
	</node>
	<node id="-512441" lat="61.1614083342" lon="6.45686110797">
		<tag k="alt_name" v="Eistrebotnvatn" />
		<tag k="name" v="Eistrebotnvatnet" />
		<tag k="natural" v="water" />
		<tag k="ssr:stedsnr" v="252587" />
	</node>
	<node id="-512952" lat="61.1774694471" lon="6.52906666812">
		<tag k="alt_name" v="Tusselvi" />
		<tag k="name" v="Tusseelvi" />
		<tag k="ssr:stedsnr" v="713905" />
		<tag k="waterway" v="stream" />
	</node>
	<node id="-512500" lat="61.1385361105" lon="6.37789999306">
		<tag k="name" v="Sjurfossen" />
		<tag k="natural" v="waterfall" />
		<tag k="ssr:stedsnr" v="470259" />
	</node>
	<node id="-511926" lat="61.2227694451" lon="6.40540833591">
		<tag k="alt_name" v="Skaravatnet" />
		<tag k="name" v="Skardavatnet" />
		<tag k="natural" v="water" />
		<tag k="ssr:stedsnr" v="373713" />
	</node>
	<node id="-512949" lat="61.1881944412" lon="6.22725555292">
		<tag k="name" v="Vassgrovi" />
		<tag k="ssr:stedsnr" v="713861" />
		<tag k="waterway" v="stream" />
	</node>
	<node id="-512945" lat="61.3322222222" lon="6.55346111236">
		<tag k="name" v="Raudbakkgrovi" />
		<tag k="ssr:stedsnr" v="713807" />
		<tag k="waterway" v="stream" />
	</node>
	<node id="-512944" lat="61.1520833342" lon="6.28245554777">
		<tag k="name" v="Rapplåna" />
		<tag k="ssr:stedsnr" v="713769" />
		<tag k="waterway" v="stream" />
	</node>
	<node id="-512431" lat="61.2971111121" lon="6.36851388604">
		<tag k="alt_name" v="Blankavatn, nordre;Blankevatn" />
		<tag k="name" v="Blåvatn" />
		<tag k="natural" v="water" />
		<tag k="ssr:stedsnr" v="250752" />
	</node>
	<node id="-512430" lat="61.3491083302" lon="6.44699444686">
		<tag k="name" v="Skarvedalselvi" />
		<tag k="ssr:stedsnr" v="250690" />
		<tag k="waterway" v="stream" />
	</node>
	<node id="-512939" lat="61.3388305545" lon="6.57452500918">
		<tag k="name" v="Rustadfossen" />
		<tag k="natural" v="waterfall" />
		<tag k="ssr:stedsnr" v="713743" />
	</node>
	<node id="-511914" lat="61.2177777815" lon="6.3034250057">
		<tag k="name" v="Langavatnet" />
		<tag k="natural" v="water" />
		<tag k="ssr:stedsnr" v="373295" />
	</node>
	<node id="-512156" lat="61.3836555524" lon="6.60648054852">
		<tag k="name" v="Grøndalsvatnet" />
		<tag k="natural" v="water" />
		<tag k="ssr:stedsnr" v="68966" />
	</node>
	<node id="-511907" lat="61.3618305544" lon="6.45379721527">
		<tag k="name" v="Skarvedalsvatnet" />
		<tag k="natural" v="water" />
		<tag k="ssr:stedsnr" v="371737" />
		<tag k="water" v="lake" />
	</node>
	<node id="-512777" lat="61.1967694455" lon="6.40648889553">
		<tag k="name" v="Styggavatnet" />
		<tag k="natural" v="water" />
		<tag k="ssr:stedsnr" v="615675" />
	</node>
	<node id="-512927" lat="61.1614194461" lon="6.36615278457">
		<tag k="name" v="Kaffiholmen" />
		<tag k="place" v="islet" />
		<tag k="ssr:stedsnr" v="713442" />
	</node>
	<node id="-512581" lat="61.3943742272" lon="6.58479433549">
		<tag k="name" v="Nedre Svartevassvatnet" />
		<tag k="natural" v="water" />
		<tag k="ssr:stedsnr" v="506543" />
		<tag k="water" v="lake" />
	</node>
	<node id="-512412" lat="61.216336109" lon="6.49524165973">
		<tag k="name" v="Eseøyrane" />
		<tag k="natural" v="cape" />
		<tag k="ssr:stedsnr" v="227997" />
	</node>
	<node id="-512411" lat="61.223283337" lon="6.48035555909">
		<tag k="name" v="Kjenesskreda" />
		<tag k="ssr:stedsnr" v="227932" />
		<tag k="waterway" v="stream" />
	</node>
	<node id="-512402" lat="61.311119445" lon="6.53236944604">
		<tag k="name" v="Dyreskreda" />
		<tag k="ssr:stedsnr" v="227830" />
		<tag k="waterway" v="stream" />
	</node>
	<node id="-511889" lat="61.3185472213" lon="6.58414167288">
		<tag k="name" v="Steinskreda" />
		<tag k="ssr:stedsnr" v="349747" />
		<tag k="waterway" v="stream" />
	</node>
	<node id="-511888" lat="61.3192388884" lon="6.56305554783">
		<tag k="name" v="Vatnaskreda" />
		<tag k="ssr:stedsnr" v="349745" />
		<tag k="waterway" v="stream" />
	</node>
	<node id="-512910" lat="61.2032055578" lon="6.48711666608">
		<tag k="name" v="Almegardskreda" />
		<tag k="ssr:stedsnr" v="713047" />
		<tag k="waterway" v="stream" />
	</node>
	<node id="-512397" lat="61.1937694407" lon="6.24593611531">
		<tag k="name" v="Fremste Gloppa" />
		<tag k="ssr:stedsnr" v="227756" />
		<tag k="waterway" v="stream" />
	</node>
	<node id="-512906" lat="61.2008027807" lon="6.48005277227">
		<tag k="name" v="Bruaskreda" />
		<tag k="ssr:stedsnr" v="713042" />
		<tag k="waterway" v="stream" />
	</node>
	<node id="-512904" lat="61.1275805546" lon="6.41647778394">
		<tag k="name" v="Blåglenna" />
		<tag k="ssr:stedsnr" v="713035" />
		<tag k="waterway" v="stream" />
	</node>
	<node id="-512390" lat="61.2628111129" lon="6.46693055137">
		<tag k="name" v="Hansinagrovi" />
		<tag k="ssr:stedsnr" v="227730" />
		<tag k="waterway" v="stream" />
	</node>
	<node id="-512285" lat="61.1516777791" lon="6.39504443848">
		<tag k="name" v="Russdalselvi" />
		<tag k="ssr:stedsnr" v="166466" />
		<tag k="waterway" v="river" />
	</node>
	<node id="-512382" lat="61.1807138876" lon="6.31152777029">
		<tag k="name" v="Fagredala" />
		<tag k="ssr:stedsnr" v="227600" />
		<tag k="waterway" v="stream" />
	</node>
	<node id="-512149" lat="61.2784159414" lon="6.62493647231">
		<tag k="name" v="Inste Nåbera" />
		<tag k="ssr:stedsnr" v="54425" />
		<tag k="waterway" v="stream" />
	</node>
	<node id="-512380" lat="61.2582055592" lon="6.49592222307">
		<tag k="name" v="Lauvteigskreda" />
		<tag k="ssr:stedsnr" v="227579" />
		<tag k="waterway" v="stream" />
	</node>
	<node id="-512377" lat="61.1621750018" lon="6.3326277697">
		<tag k="name" v="Geitøyna" />
		<tag k="place" v="island" />
		<tag k="ssr:stedsnr" v="227412" />
	</node>
	<node id="-512888" lat="61.1793055568" lon="6.22568333696">
		<tag k="name" v="Renninganesfossen" />
		<tag k="natural" v="waterfall" />
		<tag k="ssr:stedsnr" v="710845" />
	</node>
	<node id="-511860" lat="61.2771277764" lon="6.53925555754">
		<tag k="name" v="Kvernhusgrovi" />
		<tag k="ssr:stedsnr" v="348812" />
		<tag k="waterway" v="stream" />
	</node>
	<node id="-512371" lat="61.2800777753" lon="6.48962777745">
		<tag k="name" v="Kvannskreda" />
		<tag k="ssr:stedsnr" v="227037" />
		<tag k="waterway" v="stream" />
	</node>
	<node id="-512369" lat="61.1741999957" lon="6.21634444765">
		<tag k="name" v="Habnaskreda" />
		<tag k="ssr:stedsnr" v="225831" />
		<tag k="waterway" v="stream" />
	</node>
	<node id="-511856" lat="61.248949999" lon="6.52408888698">
		<tag k="name" v="Tverrligrovi" />
		<tag k="ssr:stedsnr" v="348769" />
		<tag k="waterway" v="stream" />
	</node>
	<node id="-512878" lat="61.1696361073" lon="6.45015556255">
		<tag k="name" v="Oddmundsvatnet" />
		<tag k="natural" v="water" />
		<tag k="ssr:stedsnr" v="677634" />
	</node>
	<node id="-512364" lat="61.1704000033" lon="6.23326111497">
		<tag k="name" v="Skjorfossen" />
		<tag k="natural" v="waterfall" />
		<tag k="ssr:stedsnr" v="191684" />
	</node>
	<node id="-511890" lat="61.3222555528" lon="6.58356944006">
		<tag k="name" v="Nauteskreda" />
		<tag k="ssr:stedsnr" v="349748" />
		<tag k="waterway" v="stream" />
	</node>
	<node id="-512362" lat="61.1875194416" lon="6.50758611233">
		<tag k="alt_name" v="Skåsheimselvi;Skåsheimelvi" />
		<tag k="name" v="Skåseimselvi" />
		<tag k="ssr:stedsnr" v="191680" />
		<tag k="waterway" v="stream" />
	</node>
	<node id="-512360" lat="61.1971750008" lon="6.34264167469">
		<tag k="name" v="Kupa" />
		<tag k="natural" v="water" />
		<tag k="ssr:stedsnr" v="191668" />
	</node>
	<node id="-511844" lat="61.2786222246" lon="6.4900361016">
		<tag k="name" v="Kalvagrovi" />
		<tag k="ssr:stedsnr" v="348027" />
		<tag k="waterway" v="stream" />
	</node>
	<node id="-512867" lat="61.1568305523" lon="6.13518333967">
		<tag k="alt_name" v="Eitrenesfossen" />
		<tag k="name" v="Eitrefossen" />
		<tag k="natural" v="waterfall" />
		<tag k="ssr:stedsnr" v="676339" />
	</node>
	<node id="-512865" lat="61.3123166649" lon="6.57930555191">
		<tag k="name" v="Melandsgjela" />
		<tag k="ssr:stedsnr" v="675822" />
		<tag k="waterway" v="stream" />
	</node>
	<node id="-512863" lat="61.2858027747" lon="6.5401722172">
		<tag k="alt_name" v="Nauteskreda" />
		<tag k="name" v="Nautskreda" />
		<tag k="ssr:stedsnr" v="675799" />
		<tag k="waterway" v="stream" />
	</node>
	<node id="-511837" lat="61.3409777816" lon="6.54711667">
		<tag k="name" v="Slåkedalsfossen" />
		<tag k="natural" v="waterfall" />
		<tag k="ssr:stedsnr" v="324625" />
	</node>
	<node id="-511834" lat="61.160049997" lon="6.27044445104">
		<tag k="alt_name" v="Kråkeelvi" />
		<tag k="name" v="Kråka" />
		<tag k="ssr:stedsnr" v="313749" />
		<tag k="waterway" v="stream" />
	</node>
	<node id="-512344" lat="61.1944805575" lon="6.20251945099">
		<tag k="name" v="Raundala" />
		<tag k="ssr:stedsnr" v="191322" />
		<tag k="waterway" v="stream" />
	</node>
	<node id="-512342" lat="61.3241749957" lon="6.58147500669">
		<tag k="name" v="Renndalsgjeli" />
		<tag k="ssr:stedsnr" v="190835" />
		<tag k="waterway" v="stream" />
	</node>
	<node id="-512569" lat="61.1204111099" lon="6.40292776903">
		<tag k="alt_name" v="Gyllingselvi" />
		<tag k="name" v="Gjyllingselvi" />
		<tag k="ssr:stedsnr" v="494630" />
		<tag k="waterway" v="stream" />
	</node>
	<node id="-512850" lat="61.3012305523" lon="6.55737222293">
		<tag k="name" v="Notahustangen" />
		<tag k="natural" v="cape" />
		<tag k="ssr:stedsnr" v="652868" />
	</node>
	<node id="-512336" lat="61.2952750033" lon="6.53670277332">
		<tag k="alt_name" v="Ramsteina" />
		<tag k="name" v="Ramsteinskreda" />
		<tag k="ssr:stedsnr" v="189750" />
		<tag k="waterway" v="stream" />
	</node>
	<node id="-512847" lat="61.3308888857" lon="6.55269167226">
		<tag k="name" v="Hellerskreda" />
		<tag k="ssr:stedsnr" v="652781" />
		<tag k="waterway" v="stream" />
	</node>
	<node id="-512846" lat="61.2111055538" lon="6.45993333875">
		<tag k="name" v="Kvanngrøgrovi" />
		<tag k="ssr:stedsnr" v="652776" />
		<tag k="waterway" v="stream" />
	</node>
	<node id="-511820" lat="61.1532583375" lon="6.52006667068">
		<tag k="alt_name" v="Hanevikelvi" />
		<tag k="name" v="Hanavikelvi" />
		<tag k="ssr:stedsnr" v="312628" />
		<tag k="waterway" v="river" />
	</node>
	<node id="-511817" lat="61.2340361099" lon="6.59786665998">
		<tag k="alt_name" v="Kjerringelvi;Kjerringaelvi" />
		<tag k="name" v="Kjeringelvi" />
		<tag k="ssr:stedsnr" v="312557" />
		<tag k="waterway" v="stream" />
	</node>
	<node id="-511813" lat="61.410433335" lon="6.59813332893">
		<tag k="name" v="Svartevassvatni" />
		<tag k="natural" v="water" />
		<tag k="ssr:stedsnr" v="311898" />
		<tag k="water" v="lake" />
	</node>
	<node id="-512323" lat="61.3017611134" lon="6.54736111694">
		<tag k="name" v="Breiskreda" />
		<tag k="ssr:stedsnr" v="167888" />
		<tag k="waterway" v="stream" />
	</node>
	<node id="-511808" lat="61.3431222231" lon="6.43334166103">
		<tag k="name" v="Remavatnet" />
		<tag k="natural" v="water" />
		<tag k="ssr:stedsnr" v="311768" />
	</node>
	<node id="-512831" lat="61.3453083311" lon="6.54303610571">
		<tag k="name" v="Såfossa" />
		<tag k="ssr:stedsnr" v="652640" />
		<tag k="waterway" v="stream" />
	</node>
	<node id="-512829" lat="61.1434666634" lon="6.27801110997">
		<tag k="name" v="Vellene" />
		<tag k="ssr:stedsnr" v="652610" />
		<tag k="waterway" v="river" />
	</node>
	<node id="-512316" lat="61.1912861134" lon="6.24495555374">
		<tag k="name" v="Heimste Gloppa" />
		<tag k="ssr:stedsnr" v="167772" />
		<tag k="waterway" v="stream" />
	</node>
	<node id="-511802" lat="61.3324083375" lon="6.5755777864">
		<tag k="name" v="Breiskredgrovi" />
		<tag k="ssr:stedsnr" v="289769" />
		<tag k="waterway" v="stream" />
	</node>
	<node id="-511797" lat="61.277849998" lon="6.51761944145">
		<tag k="name" v="Sjurskreda" />
		<tag k="ssr:stedsnr" v="288950" />
		<tag k="waterway" v="stream" />
	</node>
	<node id="-512300" lat="61.2133388876" lon="6.48636110954">
		<tag k="name" v="Rutlegrovi" />
		<tag k="ssr:stedsnr" v="166999" />
		<tag k="waterway" v="stream" />
	</node>
	<node id="-512803" lat="61.2807305538" lon="6.54078333365">
		<tag k="name" v="Djupagjela" />
		<tag k="ssr:stedsnr" v="651915" />
		<tag k="waterway" v="stream" />
	</node>
	<node id="-512801" lat="61.2620888859" lon="6.52098610418">
		<tag k="name" v="Langskreda" />
		<tag k="ssr:stedsnr" v="651747" />
		<tag k="waterway" v="stream" />
	</node>
	<node id="-512287" lat="61.2614888911" lon="6.52308054654">
		<tag k="name" v="Teigskreda" />
		<tag k="ssr:stedsnr" v="166736" />
		<tag k="waterway" v="stream" />
	</node>
	<node id="-512286" lat="61.2570055601" lon="6.49005278585">
		<tag k="name" v="Sandsskreda" />
		<tag k="ssr:stedsnr" v="166571" />
		<tag k="waterway" v="stream" />
	</node>
	<node id="-511773" lat="61.3381972197" lon="6.57092777546">
		<tag k="name" v="Rustadgrovi" />
		<tag k="ssr:stedsnr" v="288680" />
		<tag k="waterway" v="stream" />
	</node>
	<node id="-512032" lat="61.2843500001" lon="6.50337500787">
		<tag k="name" v="Bjødnaskreda" />
		<tag k="ssr:stedsnr" v="894960" />
		<tag k="waterway" v="stream" />
	</node>
	<node id="-512793" lat="61.2049416658" lon="6.52356389258">
		<tag k="name" v="Hittungsgrovi" />
		<tag k="ssr:stedsnr" v="651008" />
		<tag k="waterway" v="stream" />
	</node>
	<node id="-511919" lat="61.1804444438" lon="6.19014444398">
		<tag k="name" v="Brekkelvi" />
		<tag k="ssr:stedsnr" v="373331" />
		<tag k="waterway" v="stream" />
	</node>
	<node id="-511767" lat="61.3826805568" lon="6.57383055896">
		<tag k="name" v="Svartesvaelvi" />
		<tag k="ssr:stedsnr" v="288528" />
		<tag k="waterway" v="river" />
	</node>
	<node id="-512790" lat="61.1896638848" lon="6.20842777703">
		<tag k="name" v="Raundalsfossen" />
		<tag k="natural" v="waterfall" />
		<tag k="ssr:stedsnr" v="643230" />
	</node>
	<node id="-511765" lat="61.1566944464" lon="6.33105833685">
		<tag k="name" v="Skinnbuksa" />
		<tag k="ssr:stedsnr" v="288389" />
		<tag k="waterway" v="stream" />
	</node>
	<node id="-512558" lat="61.3315749991" lon="6.42655000705">
		<tag k="name" v="Lonevatnet" />
		<tag k="natural" v="water" />
		<tag k="ssr:stedsnr" v="493809" />
	</node>
	<node id="-512786" lat="61.1550916667" lon="6.30823888756">
		<tag k="name" v="Monstjørni" />
		<tag k="natural" v="water" />
		<tag k="ssr:stedsnr" v="616637" />
	</node>
	<node id="-512273" lat="61.1550611101" lon="6.37795832972">
		<tag k="alt_name" v="Tenndalselvi" />
		<tag k="name" v="Tennefosselvi" />
		<tag k="ssr:stedsnr" v="131639" />
		<tag k="waterway" v="stream" />
	</node>
	<node id="-511759" lat="61.135091665" lon="6.35397777296">
		<tag k="name" v="Brattligrovi" />
		<tag k="ssr:stedsnr" v="288278" />
		<tag k="waterway" v="stream" />
	</node>
	<node id="-512270" lat="61.1478861123" lon="6.27770277084">
		<tag k="name" v="Nesselvi" />
		<tag k="ssr:stedsnr" v="131629" />
		<tag k="waterway" v="river" />
	</node>
	<node id="-512268" lat="61.2006055538" lon="6.23099999887">
		<tag k="name" v="Snøskavla" />
		<tag k="ssr:stedsnr" v="130685" />
		<tag k="waterway" v="stream" />
	</node>
	<node id="-512267" lat="61.2014194427" lon="6.29841944401">
		<tag k="name" v="Isvotni" />
		<tag k="natural" v="water" />
		<tag k="ssr:stedsnr" v="130682" />
		<tag k="water" v="lake" />
	</node>
	<node id="-512265" lat="61.2305416655" lon="6.53151667247">
		<tag k="name" v="Sandskreda" />
		<tag k="ssr:stedsnr" v="130668" />
		<tag k="waterway" v="stream" />
	</node>
	<node id="-512263" lat="61.2104527796" lon="6.48584999311">
		<tag k="alt_name" v="Eseelvi" />
		<tag k="name" v="Eselvi" />
		<tag k="ssr:stedsnr" v="130655" />
		<tag k="waterway" v="river" />
	</node>
	<node id="-512259" lat="61.1245138863" lon="6.44376388972">
		<tag k="name" v="Sagelvi" />
		<tag k="ssr:stedsnr" v="130629" />
		<tag k="waterway" v="stream" />
	</node>
	<node id="-512770" lat="61.1746499989" lon="6.1841694365">
		<tag k="name" v="Teigelvi" />
		<tag k="ssr:stedsnr" v="615322" />
		<tag k="waterway" v="stream" />
	</node>
	<node id="-512555" lat="61.2853694464" lon="6.39174999488">
		<tag k="name" v="Trollabotsvotni" />
		<tag k="natural" v="water" />
		<tag k="old_name" v="Trolabotsvotni" />
		<tag k="ssr:stedsnr" v="493792" />
		<tag k="water" v="lake" />
	</node>
	<node id="-512256" lat="61.1438611079" lon="6.39145278036">
		<tag k="name" v="Grisagrovi" />
		<tag k="ssr:stedsnr" v="130617" />
		<tag k="waterway" v="river" />
	</node>
	<node id="-512767" lat="61.3339638874" lon="6.59505833261">
		<tag k="name" v="Renndalsgjeli" />
		<tag k="ssr:stedsnr" v="614963" />
		<tag k="waterway" v="stream" />
	</node>
	<node id="-513266" lat="61.1377722255" lon="6.51761111269">
		<tag k="name" v="Kvernhusgrovi" />
		<tag k="ssr:stedsnr" v="956047" />
		<tag k="waterway" v="stream" />
	</node>
	<node id="-512252" lat="61.2613777768" lon="6.46314722413">
		<tag k="name" v="Remelvi" />
		<tag k="ssr:stedsnr" v="129846" />
		<tag k="waterway" v="stream" />
	</node>
	<node id="-512250" lat="61.3081027739" lon="6.37162777909">
		<tag k="name" v="Risbotnvatnet" />
		<tag k="natural" v="water" />
		<tag k="ssr:stedsnr" v="129805" />
		<tag k="water" v="lake" />
	</node>
	<node id="-512249" lat="61.3364416659" lon="6.57789166672">
		<tag k="name" v="Oreskredgrovi" />
		<tag k="ssr:stedsnr" v="129791" />
		<tag k="waterway" v="stream" />
	</node>
	<node id="-512760" lat="61.3377722215" lon="6.43651111115">
		<tag k="name" v="Remaelvi" />
		<tag k="ssr:stedsnr" v="614726" />
		<tag k="waterway" v="stream" />
	</node>
	<node id="-512759" lat="61.2498472193" lon="6.6301277752">
		<tag k="name" v="Svartefoss" />
		<tag k="natural" v="waterfall" />
		<tag k="ssr:stedsnr" v="614146" />
	</node>
	<node id="-512243" lat="61.3297194448" lon="6.56702777375">
		<tag k="alt_name" v="Storelvi" />
		<tag k="name" v="Vetlefjordelvi" />
		<tag k="ssr:stedsnr" v="128722" />
		<tag k="waterway" v="river" />
	</node>
	<node id="-512242" lat="61.280536107" lon="6.48250276881">
		<tag k="name" v="Kvernhusskreda" />
		<tag k="ssr:stedsnr" v="128770" />
		<tag k="waterway" v="stream" />
	</node>
	<node id="-512750" lat="61.2290472246" lon="6.48495832841">
		<tag k="name" v="Kaldebekken" />
		<tag k="ssr:stedsnr" v="591951" />
		<tag k="waterway" v="stream" />
	</node>
	<node id="-513260" lat="61.2326500013" lon="6.48981111534">
		<tag k="name" v="Geiteskreda" />
		<tag k="ssr:stedsnr" v="955775" />
		<tag k="waterway" v="stream" />
	</node>
	<node id="-512233" lat="61.139852782" lon="6.30256388783">
		<tag k="name" v="Svartefossen" />
		<tag k="natural" v="waterfall" />
		<tag k="ssr:stedsnr" v="107234" />
	</node>
	<node id="-513255" lat="61.2719583311" lon="6.57105277986">
		<tag k="name" v="Alstokka" />
		<tag k="ssr:stedsnr" v="955688" />
		<tag k="waterway" v="stream" />
	</node>
	<node id="-513254" lat="61.2654722242" lon="6.59812222834">
		<tag k="name" v="Bjørnagrovi" />
		<tag k="ssr:stedsnr" v="955671" />
		<tag k="waterway" v="stream" />
	</node>
	<node id="-513252" lat="61.2624916647" lon="6.49732221453">
		<tag k="alt_name" v="Dalselvi" />
		<tag k="name" v="Daleelvi" />
		<tag k="ssr:stedsnr" v="955588" />
		<tag k="waterway" v="river" />
	</node>
	<node id="-513251" lat="61.2542666646" lon="6.4819861192">
		<tag k="name" v="Vetlebotnelvi" />
		<tag k="ssr:stedsnr" v="955585" />
		<tag k="waterway" v="river" />
	</node>
	<node id="-512738" lat="61.2812500043" lon="6.57763888775">
		<tag k="name" v="Målskreda" />
		<tag k="ssr:stedsnr" v="591837" />
		<tag k="waterway" v="river" />
	</node>
	<node id="-512223" lat="61.1876916708" lon="6.21440555525">
		<tag k="name" v="Raundala" />
		<tag k="ssr:stedsnr" v="106853" />
		<tag k="waterway" v="river" />
	</node>
	<node id="-512222" lat="61.3100000039" lon="6.53966943685">
		<tag k="name" v="Koppaskreda" />
		<tag k="ssr:stedsnr" v="106836" />
		<tag k="waterway" v="stream" />
	</node>
	<node id="-512221" lat="61.3336638888" lon="6.55193332416">
		<tag k="name" v="Langeskreda" />
		<tag k="ssr:stedsnr" v="106813" />
		<tag k="waterway" v="stream" />
	</node>
	<node id="-512730" lat="61.1876027751" lon="6.23457778371">
		<tag k="name" v="Kråkelvi" />
		<tag k="ssr:stedsnr" v="591750" />
		<tag k="waterway" v="river" />
	</node>
	<node id="-513241" lat="61.3000583345" lon="6.46585277404">
		<tag k="name" v="Nestefossen" />
		<tag k="natural" v="waterfall" />
		<tag k="ssr:stedsnr" v="955040" />
	</node>
	<node id="-512215" lat="61.186869448" lon="6.23888610916">
		<tag k="name" v="Kråkefossen" />
		<tag k="natural" v="waterfall" />
		<tag k="ssr:stedsnr" v="106781" />
	</node>
	<node id="-512213" lat="61.2631333292" lon="6.46727221521">
		<tag k="name" v="Kvanngrøelvi" />
		<tag k="ssr:stedsnr" v="106749" />
		<tag k="waterway" v="stream" />
	</node>
	<node id="-513233" lat="61.225327779" lon="6.2415749961">
		<tag k="name" v="Blankavatnet" />
		<tag k="natural" v="water" />
		<tag k="ssr:stedsnr" v="919699" />
	</node>
	<node id="-513232" lat="61.1323055593" lon="6.44398887959">
		<tag k="name" v="Skorga" />
		<tag k="ssr:stedsnr" v="919641" />
		<tag k="waterway" v="stream" />
	</node>
	<node id="-512207" lat="61.1557749974" lon="6.23825834048">
		<tag k="name" v="Epleåna" />
		<tag k="ssr:stedsnr" v="106665" />
		<tag k="waterway" v="stream" />
	</node>
	<node id="-512205" lat="61.1402361147" lon="6.27865833966">
		<tag k="name" v="Blekafossen" />
		<tag k="natural" v="waterfall" />
		<tag k="ssr:stedsnr" v="106596" />
	</node>
	<node id="-513227" lat="61.1759777758" lon="6.17541667554">
		<tag k="alt_name" v="Teigavatnet" />
		<tag k="name" v="Teigevatnet" />
		<tag k="natural" v="water" />
		<tag k="ssr:stedsnr" v="919343" />
	</node>
	<node id="-512201" lat="61.1225472181" lon="6.38053889662">
		<tag k="name" v="Stølselvi" />
		<tag k="ssr:stedsnr" v="106319" />
		<tag k="waterway" v="stream" />
	</node>
	<node id="-512712" lat="61.1491111129" lon="6.39087777049">
		<tag k="name" v="Russdalsøyna" />
		<tag k="place" v="island" />
		<tag k="ssr:stedsnr" v="591434" />
	</node>
	<node id="-512710" lat="61.1189055543" lon="6.39719723087">
		<tag k="name" v="Huselvi" />
		<tag k="ssr:stedsnr" v="591311" />
		<tag k="waterway" v="stream" />
	</node>
	<node id="-513221" lat="61.3156111068" lon="6.47899722206">
		<tag k="name" v="Vassdalsvatnet" />
		<tag k="natural" v="water" />
		<tag k="ssr:stedsnr" v="918853" />
	</node>
	<node id="-513215" lat="61.3077361094" lon="6.58440277218">
		<tag k="name" v="Storskreda" />
		<tag k="ssr:stedsnr" v="917745" />
		<tag k="waterway" v="stream" />
	</node>
	<node id="-512190" lat="61.188019446" lon="6.49570278312">
		<tag k="name" v="Futevadgrovi" />
		<tag k="ssr:stedsnr" v="105891" />
		<tag k="waterway" v="stream" />
	</node>
	<node id="-513210" lat="61.1889444456" lon="6.33250556402">
		<tag k="name" v="Norddalsvatnet" />
		<tag k="natural" v="water" />
		<tag k="ssr:stedsnr" v="859705" />
	</node>
	<node id="-513209" lat="61.2040916646" lon="6.43781666841">
		<tag k="name" v="Ljotåna" />
		<tag k="ssr:stedsnr" v="859699" />
		<tag k="waterway" v="river" />
	</node>
	<node id="-512184" lat="61.190008334" lon="6.26746110215">
		<tag k="name" v="Midtbotnvatnet" />
		<tag k="natural" v="water" />
		<tag k="ssr:stedsnr" v="70748" />
	</node>
	<node id="-513204" lat="61.1460527778" lon="6.45519999264">
		<tag k="name" v="Erlingavatnet" />
		<tag k="natural" v="water" />
		<tag k="ssr:stedsnr" v="859615" />
	</node>
	<node id="-513203" lat="61.1686166626" lon="6.40266388403">
		<tag k="name" v="Fessene" />
		<tag k="natural" v="water" />
		<tag k="ssr:stedsnr" v="859611" />
	</node>
	<node id="-513200" lat="61.1647166697" lon="6.14399166474">
		<tag k="alt_name" v="Eitredalselvi" />
		<tag k="name" v="Eitra" />
		<tag k="ssr:stedsnr" v="859295" />
		<tag k="waterway" v="stream" />
	</node>
	<node id="-512173" lat="61.1999805554" lon="6.50922500284">
		<tag k="alt_name" v="Fjærestadgrovi" />
		<tag k="name" v="Fjerestadgrovi" />
		<tag k="ssr:stedsnr" v="70712" />
		<tag k="waterway" v="stream" />
	</node>
	<node id="-512676" lat="61.1998055525" lon="6.24905555381">
		<tag k="name" v="Dalelvi" />
		<tag k="ssr:stedsnr" v="555695" />
		<tag k="waterway" v="river" />
	</node>
	<node id="-512674" lat="61.2070000015" lon="6.38685834185">
		<tag k="name" v="Veslavatnet" />
		<tag k="natural" v="water" />
		<tag k="ssr:stedsnr" v="555687" />
	</node>
	<node id="-513185" lat="61.2916916696" lon="6.5019027857">
		<tag k="name" v="Kluftaskreda" />
		<tag k="ssr:stedsnr" v="857769" />
		<tag k="waterway" v="stream" />
	</node>
	<node id="-513184" lat="61.37144722" lon="6.58415000817">
		<tag k="name" v="Grøndalselvi" />
		<tag k="ssr:stedsnr" v="857751" />
		<tag k="waterway" v="stream" />
	</node>
	<node id="-513183" lat="61.3893861095" lon="6.560102787">
		<tag k="name" v="Breelvi" />
		<tag k="ssr:stedsnr" v="857737" />
		<tag k="waterway" v="stream" />
	</node>
	<node id="-513182" lat="61.3577638892" lon="6.57178889719">
		<tag k="name" v="Hårdaskreda" />
		<tag k="ssr:stedsnr" v="857720" />
		<tag k="waterway" v="stream" />
	</node>
	<node id="-513180" lat="61.3568527797" lon="6.50071111895">
		<tag k="name" v="Djupegjelsgrovi" />
		<tag k="ssr:stedsnr" v="857715" />
		<tag k="waterway" v="stream" />
	</node>
	<node id="-513179" lat="61.3461053193" lon="6.48559333573">
		<tag k="name" v="Nystølsvatnet" />
		<tag k="natural" v="water" />
		<tag k="ssr:stedsnr" v="857688" />
		<tag k="water" v="lake" />
	</node>
	<node id="-512665" lat="61.324524996" lon="6.5444416615">
		<tag k="name" v="Vatnaskredgrovi" />
		<tag k="ssr:stedsnr" v="554847" />
		<tag k="waterway" v="stream" />
	</node>
	<node id="-512664" lat="61.3155972237" lon="6.45424167277">
		<tag k="name" v="Skarvatn" />
		<tag k="natural" v="water" />
		<tag k="ssr:stedsnr" v="554844" />
		<tag k="water" v="lake" />
	</node>
	<node id="-513173" lat="61.2992638869" lon="6.56013888331">
		<tag k="name" v="Elvosen" />
		<tag k="natural" v="bay" />
		<tag k="ssr:stedsnr" v="835900" />
	</node>
	<node id="-512659" lat="61.2789417366" lon="6.43756863323">
		<tag k="name" v="Dalsdalsvotni" />
		<tag k="natural" v="water" />
		<tag k="ssr:stedsnr" v="553775" />
		<tag k="water" v="lake" />
	</node>
	<node id="-513169" lat="61.3062694406" lon="6.5799416675">
		<tag k="name" v="Bråtaskreda" />
		<tag k="ssr:stedsnr" v="835781" />
		<tag k="waterway" v="stream" />
	</node>
	<node id="-512141" lat="61.1304527815" lon="6.46615555398">
		<tag k="name" v="Kvamselvi" />
		<tag k="ssr:stedsnr" v="46380" />
		<tag k="waterway" v="stream" />
	</node>
	<node id="-513164" lat="61.3220055526" lon="6.56194167305">
		<tag k="name" v="Grovi" />
		<tag k="ssr:stedsnr" v="835732" />
		<tag k="waterway" v="stream" />
	</node>
	<node id="-512135" lat="61.1758666665" lon="6.15439167407">
		<tag k="name" v="Grøbotnelvi" />
		<tag k="ssr:stedsnr" v="46136" />
		<tag k="waterway" v="river" />
	</node>
	<node id="-511823" lat="61.2134250041" lon="6.36835277005">
		<tag k="alt_name" v="Urdavatnet" />
		<tag k="name" v="Uravatnet" />
		<tag k="natural" v="water" />
		<tag k="ssr:stedsnr" v="312668" />
	</node>
	<node id="-512645" lat="61.3085722212" lon="6.54244722533">
		<tag k="name" v="Stølsskreda" />
		<tag k="ssr:stedsnr" v="531847" />
		<tag k="waterway" v="stream" />
	</node>
	<node id="-512644" lat="61.3108583337" lon="6.53520278706">
		<tag k="name" v="Bråtaskreda" />
		<tag k="ssr:stedsnr" v="531845" />
		<tag k="waterway" v="stream" />
	</node>
	<node id="-512278" lat="61.3329055595" lon="6.41291111538">
		<tag k="name" v="Kviteforklefossen" />
		<tag k="natural" v="waterfall" />
		<tag k="ssr:stedsnr" v="142523" />
	</node>
	<node id="-512636" lat="61.2363916655" lon="6.4817611163">
		<tag k="name" v="Breidskreda" />
		<tag k="ssr:stedsnr" v="531794" />
		<tag k="waterway" v="stream" />
	</node>
	<node id="-513147" lat="61.1211777804" lon="6.41389999068">
		<tag k="name" v="Haukedalselvi" />
		<tag k="ssr:stedsnr" v="834921" />
		<tag k="waterway" v="stream" />
	</node>
	<node id="-513146" lat="61.1854388852" lon="6.49754443659">
		<tag k="name" v="Kisagrovi" />
		<tag k="ssr:stedsnr" v="834875" />
		<tag k="waterway" v="stream" />
	</node>
	<node id="-512630" lat="61.3383222248" lon="6.56670833399">
		<tag k="name" v="Vasstaket" />
		<tag k="ssr:stedsnr" v="531732" />
		<tag k="waterway" v="stream" />
	</node>
	<node id="-512629" lat="61.1513027823" lon="6.28246667349">
		<tag k="name" v="Nyløbøskreda" />
		<tag k="ssr:stedsnr" v="531725" />
		<tag k="waterway" v="stream" />
	</node>
	<node id="-512116" lat="61.1930361089" lon="6.23086943813">
		<tag k="name" v="Kusegrovi" />
		<tag k="ssr:stedsnr" v="45758" />
		<tag k="waterway" v="stream" />
	</node>
	<node id="-513137" lat="61.1493777812" lon="6.2854055582">
		<tag k="name" v="Stuåna" />
		<tag k="ssr:stedsnr" v="834703" />
		<tag k="waterway" v="stream" />
	</node>
	<node id="-512112" lat="61.162550003" lon="6.28678333269">
		<tag k="name" v="Vass-strondi" />
		<tag k="natural" v="beach" />
		<tag k="ssr:stedsnr" v="45728" />
	</node>
	<node id="-512621" lat="61.1371750026" lon="6.35251110289">
		<tag k="name" v="Bjødnahølen" />
		<tag k="place" v="locality" />
		<tag k="ssr:stedsnr" v="531287" />
	</node>
	<node id="-512620" lat="61.1392722233" lon="6.35047222277">
		<tag k="name" v="Huselvi" />
		<tag k="ssr:stedsnr" v="531285" />
		<tag k="waterway" v="stream" />
	</node>
	<node id="-512274" lat="61.1712527779" lon="6.42874999659">
		<tag k="name" v="Buforvatnet" />
		<tag k="natural" v="water" />
		<tag k="ssr:stedsnr" v="131642" />
	</node>
	<node id="-513128" lat="61.126625" lon="6.33489723082">
		<tag k="name" v="Sagosen" />
		<tag k="natural" v="bay" />
		<tag k="ssr:stedsnr" v="834475" />
	</node>
	<node id="-512101" lat="61.1341999993" lon="6.47047222506">
		<tag k="name" v="Slåttefossen" />
		<tag k="natural" v="waterfall" />
		<tag k="ssr:stedsnr" v="45072" />
	</node>
	<node id="-512099" lat="61.1337888907" lon="6.50901666524">
		<tag k="name" v="Inste Gytta" />
		<tag k="ssr:stedsnr" v="45066" />
		<tag k="waterway" v="stream" />
	</node>
	<node id="-512607" lat="61.2215194464" lon="6.47925278557">
		<tag k="name" v="Hølsskreda" />
		<tag k="ssr:stedsnr" v="530917" />
		<tag k="waterway" v="stream" />
	</node>
	<node id="-512606" lat="61.2841722186" lon="6.54238611431">
		<tag k="name" v="Appelskreda" />
		<tag k="ssr:stedsnr" v="530900" />
		<tag k="waterway" v="stream" />
	</node>
	<node id="-512698" lat="61.208538888" lon="6.47721667421">
		<tag k="name" v="Breidskreda" />
		<tag k="ssr:stedsnr" v="591043" />
		<tag k="waterway" v="stream" />
	</node>
	<node id="-512601" lat="61.3295250035" lon="6.55259444033">
		<tag k="name" v="Torsteinsskreda" />
		<tag k="ssr:stedsnr" v="530798" />
		<tag k="waterway" v="stream" />
	</node>
	<node id="-513158" lat="61.1396444417" lon="6.38342500822">
		<tag k="name" v="Klevøyna" />
		<tag k="place" v="island" />
		<tag k="ssr:stedsnr" v="835294" />
	</node>
	<node id="-512355" lat="61.2182671061" lon="6.32382439629">
		<tag k="name" v="Stølsvatnet" />
		<tag k="natural" v="water" />
		<tag k="ssr:stedsnr" v="191640" />
		<tag k="water" v="lake" />
	</node>
	<node id="-512493" lat="61.1301416701" lon="6.43467499507">
		<tag k="name" v="Tverra" />
		<tag k="ssr:stedsnr" v="470041" />
		<tag k="waterway" v="stream" />
	</node>
	<node id="-511928" lat="61.1961027734" lon="6.51074166311">
		<tag k="fixme" v="multiple name tags, choose one and add the other to alt_name" />
		<tag k="name" v="Blåhellegrovi;Sandegrovi" />
		<tag k="ssr:stedsnr" v="373723" />
		<tag k="waterway" v="stream" />
	</node>
	<node id="-513101" lat="61.2045749993" lon="6.39933055673">
		<tag k="name" v="Sauadalsvatnet" />
		<tag k="natural" v="water" />
		<tag k="ssr:stedsnr" v="798676" />
	</node>
	<node id="-512588" lat="61.1666222226" lon="6.29744167583">
		<tag k="name" v="Breiavad" />
		<tag k="natural" v="cape" />
		<tag k="ssr:stedsnr" v="530447" />
	</node>
	<node id="-512587" lat="61.1658444462" lon="6.32509999472">
		<tag k="name" v="Demma" />
		<tag k="ssr:stedsnr" v="530440" />
		<tag k="waterway" v="stream" />
	</node>
	<node id="-513098" lat="61.1281666682" lon="6.37758610801">
		<tag k="name" v="Gunnarvatnet" />
		<tag k="natural" v="water" />
		<tag k="ssr:stedsnr" v="798644" />
	</node>
	<node id="-512073" lat="61.3403722183" lon="6.58269166142">
		<tag k="name" v="Rustadgjeli" />
		<tag k="ssr:stedsnr" v="8753" />
		<tag k="waterway" v="stream" />
	</node>
	<node id="-512072" lat="61.3981308661" lon="6.52743752286">
		<tag k="name" v="Skaddalsvatnet" />
		<tag k="natural" v="water" />
		<tag k="ssr:stedsnr" v="7726" />
		<tag k="water" v="lake" />
	</node>
	<node id="-513093" lat="61.1466361125" lon="6.42381666293">
		<tag k="name" v="Vardavatnet" />
		<tag k="natural" v="water" />
		<tag k="ssr:stedsnr" v="798629" />
	</node>
	<node id="-511864" lat="61.1665861136" lon="6.21916666816">
		<tag k="name" v="Almeskreda" />
		<tag k="ssr:stedsnr" v="348844" />
		<tag k="waterway" v="stream" />
	</node>
	<node id="-512575" lat="61.1590426957" lon="6.36219552941">
		<tag k="alt_name" v="Hesjedalsvatnet" />
		<tag k="name" v="Hesjadalsvatnet" />
		<tag k="natural" v="water" />
		<tag k="ssr:stedsnr" v="495634" />
		<tag k="water" v="lake" />
	</node>
	<node id="-512573" lat="61.1796166627" lon="6.29115277855">
		<tag k="name" v="Fagerdalsvatnet" />
		<tag k="natural" v="water" />
		<tag k="ssr:stedsnr" v="494717" />
	</node>
	<node id="-511903" lat="61.3542000003" lon="6.57189722629">
		<tag k="name" v="Stølsskreda" />
		<tag k="ssr:stedsnr" v="371696" />
		<tag k="waterway" v="stream" />
	</node>
	<node id="-512058" lat="61.2967749995" lon="6.58207778476">
		<tag k="name" v="Fossegrovi" />
		<tag k="ssr:stedsnr" v="895753" />
		<tag k="waterway" v="stream" />
	</node>
	<node id="-513119" lat="61.2774694402" lon="6.48860278452">
		<tag k="name" v="Synnvaskreda" />
		<tag k="ssr:stedsnr" v="834035" />
		<tag k="waterway" v="stream" />
	</node>
	<node id="-513080" lat="61.3342611117" lon="6.51674166748">
		<tag k="name" v="Slåkadalsgrovi" />
		<tag k="ssr:stedsnr" v="797801" />
		<tag k="waterway" v="stream" />
	</node>
	<node id="-512180" lat="61.176116668" lon="6.46099999983">
		<tag k="name" v="Fagravatnet" />
		<tag k="natural" v="water" />
		<tag k="ssr:stedsnr" v="70734" />
	</node>
	<node id="-512566" lat="61.1462333342" lon="6.4456499945">
		<tag k="name" v="Saurlevatnet" />
		<tag k="natural" v="water" />
		<tag k="ssr:stedsnr" v="494620" />
	</node>
	<node id="-513077" lat="61.257630558" lon="6.46835276884">
		<tag k="name" v="Skaelvi" />
		<tag k="ssr:stedsnr" v="796867" />
		<tag k="waterway" v="stream" />
	</node>
	<node id="-513076" lat="61.2817421038" lon="6.36497033996">
		<tag k="alt_name" v="Blankavatn, s;Blankevatn" />
		<tag k="name" v="Styggevatn" />
		<tag k="natural" v="water" />
		<tag k="ssr:stedsnr" v="796790" />
		<tag k="water" v="lake" />
	</node>
	<node id="-512179" lat="61.218500487" lon="6.26264842446">
		<tag k="name" v="Kaldosvatnet" />
		<tag k="natural" v="water" />
		<tag k="ssr:stedsnr" v="70730" />
		<tag k="water" v="lake" />
	</node>
	<node id="-513072" lat="61.3646666709" lon="6.51588332936">
		<tag k="name" v="Gottoppvotni" />
		<tag k="natural" v="water" />
		<tag k="ssr:stedsnr" v="796736" />
	</node>
	<node id="-513070" lat="61.3533222268" lon="6.54749722618">
		<tag k="name" v="Bårddalselvi" />
		<tag k="ssr:stedsnr" v="796718" />
		<tag k="waterway" v="stream" />
	</node>
	<node id="-513069" lat="61.3478666663" lon="6.5773083415">
		<tag k="name" v="Upsagjelet" />
		<tag k="ssr:stedsnr" v="796698" />
		<tag k="waterway" v="stream" />
	</node>
	<node id="-512560" lat="61.2316500036" lon="6.45241944623">
		<tag k="name" v="Yglelvi" />
		<tag k="ssr:stedsnr" v="494292" />
		<tag k="waterway" v="stream" />
	</node>
	<node id="-513067" lat="61.1618999973" lon="6.33750555359">
		<tag k="alt_name" v="Breistøla" />
		<tag k="name" v="Breidstøla" />
		<tag k="ssr:stedsnr" v="798601" />
		<tag k="waterway" v="stream" />
	</node>
	<node id="-512554" lat="61.2889611076" lon="6.57261110851">
		<tag k="name" v="Stølsskreda" />
		<tag k="ssr:stedsnr" v="493788" />
		<tag k="waterway" v="stream" />
	</node>
	<node id="-512553" lat="61.3002861094" lon="6.47516667249">
		<tag k="name" v="Kvitskreda" />
		<tag k="ssr:stedsnr" v="493776" />
		<tag k="waterway" v="stream" />
	</node>
	<node id="-513063" lat="61.307002781" lon="6.54497500364">
		<tag k="name" v="Eikjaelvi" />
		<tag k="ssr:stedsnr" v="782362" />
		<tag k="waterway" v="stream" />
	</node>
	<node id="-512433" lat="61.2851305586" lon="6.47731944659">
		<tag k="name" v="Blåbærskreda" />
		<tag k="ssr:stedsnr" v="250765" />
		<tag k="waterway" v="stream" />
	</node>
	<node id="-512035" lat="61.324786109" lon="6.57879445377">
		<tag k="name" v="Rendedalsgrovi" />
		<tag k="ssr:stedsnr" v="895082" />
		<tag k="waterway" v="river" />
	</node>
	<node id="-512546" lat="61.2705111129" lon="6.49690833389">
		<tag k="name" v="Teigagrovi" />
		<tag k="ssr:stedsnr" v="493872" />
		<tag k="waterway" v="stream" />
	</node>
	<node id="-512544" lat="61.3962888916" lon="6.58655833384">
		<tag k="name" v="Svartevassvatn" />
		<tag k="natural" v="water" />
		<tag k="ssr:stedsnr" v="492732" />
		<tag k="water" v="lake" />
	</node>
	<node id="-512029" lat="61.2669583378" lon="6.49207499972">
		<tag k="name" v="Breiskreda" />
		<tag k="ssr:stedsnr" v="894610" />
		<tag k="waterway" v="stream" />
	</node>
	<node id="-513049" lat="61.1212138922" lon="6.3703583354">
		<tag k="name" v="Ytste Stølselvi" />
		<tag k="ssr:stedsnr" v="774365" />
		<tag k="waterway" v="stream" />
	</node>
	<node id="-513048" lat="61.1917722184" lon="6.21643333451">
		<tag k="name" v="Frøsa" />
		<tag k="ssr:stedsnr" v="774174" />
		<tag k="waterway" v="stream" />
	</node>
	<node id="-511758" lat="61.1757694454" lon="6.15091666654">
		<tag k="name" v="Vassbotnelva" />
		<tag k="ssr:stedsnr" v="288145" />
		<tag k="waterway" v="stream" />
	</node>
	<node id="-512021" lat="61.288300003" lon="6.53965276884">
		<tag k="name" v="Skorskreda" />
		<tag k="ssr:stedsnr" v="410935" />
		<tag k="waterway" v="stream" />
	</node>
	<node id="-512020" lat="61.3083361125" lon="6.55565555635">
		<tag k="name" v="Vetleskreda" />
		<tag k="ssr:stedsnr" v="410852" />
		<tag k="waterway" v="stream" />
	</node>
	<node id="-513042" lat="61.2290555575" lon="6.49432222653">
		<tag k="name" v="Båtskreda" />
		<tag k="ssr:stedsnr" v="773986" />
		<tag k="waterway" v="stream" />
	</node>
	<node id="-512515" lat="61.190558334" lon="6.33836389771">
		<tag k="name" v="Sauadaua" />
		<tag k="ssr:stedsnr" v="470688" />
		<tag k="waterway" v="river" />
	</node>
	<node id="-513040" lat="61.1535972193" lon="6.52969166111">
		<tag k="name" v="Fossen" />
		<tag k="natural" v="waterfall" />
		<tag k="ssr:stedsnr" v="773940" />
	</node>
	<node id="-513197" lat="61.3039972236" lon="6.35762777981">
		<tag k="name" v="Guletjønna" />
		<tag k="natural" v="water" />
		<tag k="ssr:stedsnr" v="858794" />
	</node>
	<node id="-512528" lat="61.311083329" lon="6.56021666242">
		<tag k="name" v="Storskreda" />
		<tag k="ssr:stedsnr" v="470850" />
		<tag k="waterway" v="stream" />
	</node>
	<node id="-513033" lat="61.2490777739" lon="6.53865554922">
		<tag k="alt_name" v="Stølselvi" />
		<tag k="name" v="Stølaelvi" />
		<tag k="ssr:stedsnr" v="773822" />
		<tag k="waterway" v="stream" />
	</node>
	<node id="-512007" lat="61.19301667" lon="6.22596111001">
		<tag k="name" v="Mekrskreda" />
		<tag k="ssr:stedsnr" v="410159" />
		<tag k="waterway" v="stream" />
	</node>
	<node id="-513027" lat="61.297641669" lon="6.56933055472">
		<tag k="name" v="Kvernhusgrovi" />
		<tag k="ssr:stedsnr" v="773743" />
		<tag k="waterway" v="stream" />
	</node>
	<node id="-512002" lat="61.2825305564" lon="6.53911666482">
		<tag k="name" v="Nyskreda" />
		<tag k="ssr:stedsnr" v="409888" />
		<tag k="waterway" v="stream" />
	</node>
	<node id="-512427" lat="61.2786912595" lon="6.6222753746">
		<tag k="name" v="Ytste Nåbera" />
		<tag k="ssr:stedsnr" v="236375" />
		<tag k="waterway" v="stream" />
	</node>
</osm>
