<?xml version="1.0" encoding="UTF-8"?>
<osm generator="osmapis" version="0.6">
	<node id="-511485" lat="61.2605500018" lon="6.56980555738">
		<tag k="name" v="Slåtteneset" />
		<tag k="natural" v="cape" />
		<tag k="ssr:stedsnr" v="106739" />
	</node>
	<node id="-512498" lat="61.2813444439" lon="6.55606944118">
		<tag k="bay" v="fjord" />
		<tag k="name" v="Vetlefjorden" />
		<tag k="natural" v="bay" />
		<tag k="ssr:stedsnr" v="918883" />
	</node>
	<node id="-511984" lat="61.1156416632" lon="6.40682777854">
		<tag k="name" v="Sjurstoi" />
		<tag k="natural" v="beach" />
		<tag k="place" v="locality" />
		<tag k="ssr:stedsnr" v="591309" />
	</node>
	<node id="-511468" lat="61.1350277798" lon="6.51905554651">
		<tag k="name" v="Kvernhusviki" />
		<tag k="natural" v="bay" />
		<tag k="ssr:stedsnr" v="106037" />
	</node>
	<node id="-511976" lat="61.1125527796" lon="6.44346110486">
		<tag k="name" v="Hatlevik" />
		<tag k="natural" v="bay" />
		<tag k="ssr:stedsnr" v="591104" />
	</node>
	<node id="-511968" lat="61.2255555558" lon="6.48574722746">
		<tag k="name" v="Kjenes" />
		<tag k="natural" v="cape" />
		<tag k="ssr:stedsnr" v="590946" />
	</node>
	<node id="-511396" lat="61.1867249986" lon="6.21821110257">
		<tag k="name" v="Heggeneset" />
		<tag k="natural" v="cape" />
		<tag k="ssr:stedsnr" v="45836" />
	</node>
	<node id="-512467" lat="61.2696416668" lon="6.51766666808">
		<tag k="bay" v="fjord" />
		<tag k="name" v="Sværafjorden" />
		<tag k="natural" v="bay" />
		<tag k="ssr:stedsnr" v="857857" />
	</node>
	<node id="-511441" lat="61.1329388854" lon="6.5138111129">
		<tag k="name" v="Sandviki" />
		<tag k="natural" v="bay" />
		<tag k="ssr:stedsnr" v="70663" />
	</node>
	<node id="-511941" lat="61.2426666661" lon="6.55418333061">
		<tag k="name" v="Kolven" />
		<tag k="natural" v="cape" />
		<tag k="ssr:stedsnr" v="555261" />
	</node>
	<node id="-512452" lat="61.1743055518" lon="6.53571667223">
		<tag k="name" v="Ytre Tussviki" />
		<tag k="natural" v="bay" />
		<tag k="ssr:stedsnr" v="844593" />
	</node>
	<node id="-512451" lat="61.2063194586" lon="6.53463480135">
		<tag k="alt_name" v="Balevika" />
		<tag k="name" v="Balaviki" />
		<tag k="natural" v="bay" />
		<tag k="ssr:stedsnr" v="844539" />
	</node>
	<node id="-512449" lat="61.2253305539" lon="6.55128610292">
		<tag k="name" v="Kvernhusviki" />
		<tag k="natural" v="bay" />
		<tag k="ssr:stedsnr" v="835950" />
	</node>
	<node id="-511422" lat="61.1744361131" lon="6.53416943618">
		<tag k="name" v="Jektastoi" />
		<tag k="natural" v="beach" />
		<tag k="place" v="locality" />
		<tag k="ssr:stedsnr" v="46960" />
	</node>
	<node id="-511418" lat="61.1340833344" lon="6.26936944564">
		<tag k="name" v="Osneset" />
		<tag k="natural" v="cape" />
		<tag k="ssr:stedsnr" v="46688" />
	</node>
	<node id="-511929" lat="61.2153916633" lon="6.49903610249">
		<tag k="name" v="Ytre Eseviki" />
		<tag k="natural" v="bay" />
		<tag k="ssr:stedsnr" v="540516" />
	</node>
	<node id="-511927" lat="61.2767388887" lon="6.50923332448">
		<tag k="name" v="Lasteviki" />
		<tag k="natural" v="bay" />
		<tag k="ssr:stedsnr" v="539543" />
	</node>
	<node id="-512430" lat="61.1128055562" lon="6.44973333043">
		<tag k="name" v="Bruatåna" />
		<tag k="natural" v="cape" />
		<tag k="ssr:stedsnr" v="835110" />
	</node>
	<node id="-511917" lat="61.1650861071" lon="6.54374443782">
		<tag k="name" v="Stokkabøklubben" />
		<tag k="natural" v="cape" />
		<tag k="ssr:stedsnr" v="531837" />
	</node>
	<node id="-512426" lat="61.2172305578" lon="6.49307777418">
		<tag k="name" v="Indre Ese" />
		<tag k="natural" v="bay" />
		<tag k="ssr:stedsnr" v="834989" />
	</node>
	<node id="-512420" lat="61.2172305559" lon="6.52525277108">
		<tag k="name" v="Presthola" />
		<tag k="natural" v="beach" />
		<tag k="place" v="locality" />
		<tag k="ssr:stedsnr" v="834873" />
	</node>
	<node id="-511302" lat="61.1126527781" lon="6.39295554798">
		<tag k="name" v="Klubben" />
		<tag k="natural" v="cape" />
		<tag k="ssr:stedsnr" v="895306" />
	</node>
	<node id="-512419" lat="61.2466055532" lon="6.61253055679">
		<tag k="name" v="Anglataska" />
		<tag k="natural" v="beach" />
		<tag k="place" v="locality" />
		<tag k="ssr:stedsnr" v="834843" />
	</node>
	<node id="-512240" lat="61.2067527799" lon="6.53401944144">
		<tag k="name" v="Balastrondi" />
		<tag k="natural" v="beach" />
		<tag k="place" v="locality" />
		<tag k="ssr:stedsnr" v="722559" />
	</node>
	<node id="-512404" lat="61.1250833304" lon="6.33757221919">
		<tag k="name" v="Kleivi" />
		<tag k="natural" v="beach" />
		<tag k="place" v="locality" />
		<tag k="ssr:stedsnr" v="834480" />
	</node>
	<node id="-512400" lat="61.1292277744" lon="6.31602778715">
		<tag k="name" v="Nesfjøra" />
		<tag k="natural" v="bay" />
		<tag k="ssr:stedsnr" v="834275" />
	</node>
	<node id="-511887" lat="61.1889472256" lon="6.52940555717">
		<tag k="name" v="Bruhjellsnoi" />
		<tag k="natural" v="beach" />
		<tag k="place" v="locality" />
		<tag k="ssr:stedsnr" v="531023" />
	</node>
	<node id="-511883" lat="61.1827694455" lon="6.53566945311">
		<tag k="name" v="Sandvikiviki" />
		<tag k="natural" v="bay" />
		<tag k="ssr:stedsnr" v="530958" />
	</node>
	<node id="-511668" lat="61.2369972223" lon="6.55124444844">
		<tag k="name" v="Kolvaneset" />
		<tag k="natural" v="cape" />
		<tag k="ssr:stedsnr" v="227753" />
	</node>
	<node id="-511879" lat="61.2915305587" lon="6.56417500009">
		<tag k="name" v="Grytnes" />
		<tag k="natural" v="cape" />
		<tag k="ssr:stedsnr" v="530838" />
	</node>
	<node id="-511872" lat="61.2649916711" lon="6.52503610988">
		<tag k="name" v="Strandi" />
		<tag k="natural" v="beach" />
		<tag k="place" v="locality" />
		<tag k="ssr:stedsnr" v="530736" />
	</node>
	<node id="-511871" lat="61.2733416707" lon="6.51882222313">
		<tag k="name" v="Uraneset" />
		<tag k="natural" v="cape" />
		<tag k="ssr:stedsnr" v="530735" />
	</node>
	<node id="-511860" lat="61.1561416639" lon="6.23094444747">
		<tag k="name" v="Kvistbukta" />
		<tag k="natural" v="bay" />
		<tag k="ssr:stedsnr" v="526769" />
	</node>
	<node id="-511849" lat="61.1772250006" lon="6.19997499268">
		<tag k="fixme" v="multiple name tags, choose one and add the other to alt_name" />
		<tag k="name" v="Brekkeneset;Elvarabben" />
		<tag k="natural" v="cape" />
		<tag k="ssr:stedsnr" v="495342" />
	</node>
	<node id="-511845" lat="61.2168805544" lon="6.50846666185">
		<tag k="bay" v="fjord" />
		<tag k="name" v="Esefjorden" />
		<tag k="natural" v="bay" />
		<tag k="ssr:stedsnr" v="494661" />
	</node>
	<node id="-511840" lat="61.1292083368" lon="6.31124166211">
		<tag k="name" v="Nokkaneset" />
		<tag k="natural" v="cape" />
		<tag k="ssr:stedsnr" v="494615" />
	</node>
	<node id="-511322" lat="61.1570055591" lon="6.23171110525">
		<tag k="name" v="Gjeltebergviki" />
		<tag k="natural" v="bay" />
		<tag k="ssr:stedsnr" v="895642" />
	</node>
	<node id="-511320" lat="61.1396083361" lon="6.26005278342">
		<tag k="name" v="Hestviki" />
		<tag k="natural" v="bay" />
		<tag k="ssr:stedsnr" v="895548" />
	</node>
	<node id="-512341" lat="61.2119527745" lon="6.56716944023">
		<tag k="name" v="Klaui" />
		<tag k="natural" v="bay" />
		<tag k="ssr:stedsnr" v="783502" />
	</node>
	<node id="-511315" lat="61.1125194422" lon="6.36298332738">
		<tag k="name" v="Krossaneset" />
		<tag k="natural" v="cape" />
		<tag k="ssr:stedsnr" v="895301" />
	</node>
	<node id="-512336" lat="61.2208833315" lon="6.55839444743">
		<tag k="name" v="Gardselbukti" />
		<tag k="natural" v="bay" />
		<tag k="ssr:stedsnr" v="782256" />
	</node>
	<node id="-512335" lat="61.1569722232" lon="6.54198332805">
		<tag k="name" v="Tommasstoi" />
		<tag k="natural" v="beach" />
		<tag k="place" v="locality" />
		<tag k="ssr:stedsnr" v="774965" />
	</node>
	<node id="-512334" lat="61.1615861082" lon="6.54376389218">
		<tag k="name" v="Rosenborgneset" />
		<tag k="natural" v="cape" />
		<tag k="ssr:stedsnr" v="774828" />
	</node>
	<node id="-512333" lat="61.1399472233" lon="6.54441389648">
		<tag k="name" v="Målsneset" />
		<tag k="natural" v="cape" />
		<tag k="ssr:stedsnr" v="774819" />
	</node>
	<node id="-511543" lat="61.1605222226" lon="6.18388611675">
		<tag k="name" v="Kollangsneset" />
		<tag k="natural" v="cape" />
		<tag k="ssr:stedsnr" v="131329" />
	</node>
	<node id="-511814" lat="61.1716555543" lon="6.54176388664">
		<tag k="name" v="Flesjaneset" />
		<tag k="natural" v="cape" />
		<tag k="ssr:stedsnr" v="470947" />
	</node>
	<node id="-511627" lat="61.1127027786" lon="6.42867777602">
		<tag k="alt_name" v="Furuneset" />
		<tag k="name" v="Fureneset" />
		<tag k="natural" v="cape" />
		<tag k="ssr:stedsnr" v="191627" />
	</node>
	<node id="-511804" lat="61.1878166635" lon="6.22115555763">
		<tag k="name" v="Hellevik" />
		<tag k="natural" v="bay" />
		<tag k="ssr:stedsnr" v="470851" />
	</node>
	<node id="-511290" lat="61.1327805594" lon="6.2768972244">
		<tag k="name" v="Storåkerfjøra" />
		<tag k="natural" v="bay" />
		<tag k="ssr:stedsnr" v="410640" />
	</node>
	<node id="-511801" lat="61.1361472199" lon="6.52761110757">
		<tag k="name" v="Gaupestoi" />
		<tag k="natural" v="beach" />
		<tag k="place" v="locality" />
		<tag k="ssr:stedsnr" v="470809" />
	</node>
	<node id="-512311" lat="61.2138416711" lon="6.54178056127">
		<tag k="name" v="Tressneset" />
		<tag k="natural" v="cape" />
		<tag k="ssr:stedsnr" v="773863" />
	</node>
	<node id="-511281" lat="61.1836138862" lon="6.53503333914">
		<tag k="name" v="Thueneset" />
		<tag k="natural" v="cape" />
		<tag k="ssr:stedsnr" v="409959" />
	</node>
	<node id="-511791" lat="61.270427774" lon="6.5652305466">
		<tag k="name" v="Alstokkenes" />
		<tag k="natural" v="cape" />
		<tag k="ssr:stedsnr" v="470691" />
	</node>
	<node id="-511277" lat="61.2484777735" lon="6.55077500201">
		<tag k="name" v="Hankaneset" />
		<tag k="natural" v="cape" />
		<tag k="ssr:stedsnr" v="409840" />
	</node>
	<node id="-511268" lat="61.2679027778" lon="6.51607500154">
		<tag k="name" v="Dalsøren" />
		<tag k="natural" v="cape" />
		<tag k="ssr:stedsnr" v="409744" />
	</node>
	<node id="-511777" lat="61.1203166702" lon="6.35151945182">
		<tag k="name" v="Tussvik" />
		<tag k="natural" v="bay" />
		<tag k="ssr:stedsnr" v="470331" />
	</node>
	<node id="-511769" lat="61.1302694419" lon="6.47886389317">
		<tag k="name" v="Fjørene" />
		<tag k="natural" v="beach" />
		<tag k="place" v="locality" />
		<tag k="ssr:stedsnr" v="470055" />
	</node>
	<node id="-511767" lat="61.2095027788" lon="6.53784444514">
		<tag k="name" v="Holmen" />
		<tag k="natural" v="cape" />
		<tag k="ssr:stedsnr" v="470035" />
	</node>
	<node id="-511254" lat="61.1274083324" lon="6.47273888969">
		<tag k="name" v="Skitviki" />
		<tag k="natural" v="bay" />
		<tag k="ssr:stedsnr" v="409092" />
	</node>
	<node id="-511765" lat="61.2701833326" lon="6.51074167602">
		<tag k="name" v="Viki" />
		<tag k="natural" v="bay" />
		<tag k="ssr:stedsnr" v="469775" />
	</node>
	<node id="-511250" lat="61.1479694415" lon="6.24606388667">
		<tag k="name" v="Bergsenden" />
		<tag k="natural" v="cape" />
		<tag k="ssr:stedsnr" v="405772" />
	</node>
	<node id="-511758" lat="61.1344111073" lon="6.30290833546">
		<tag k="name" v="Nessabukta" />
		<tag k="natural" v="bay" />
		<tag k="ssr:stedsnr" v="466771" />
	</node>
	<node id="-512256" lat="61.1383333292" lon="6.54336667573">
		<tag k="alt_name" v="Målhaugneset" />
		<tag k="name" v="Målhaugen" />
		<tag k="natural" v="cape" />
		<tag k="ssr:stedsnr" v="737656" />
	</node>
	<node id="-511359" lat="61.207925002" lon="6.53831665973">
		<tag k="name" v="Balholmen" />
		<tag k="place" v="islet" />
		<tag k="ssr:stedsnr" v="9722" />
	</node>
	<node id="-511734" lat="61.2124722193" lon="6.51466943867">
		<tag k="name" v="Strondi" />
		<tag k="natural" v="beach" />
		<tag k="place" v="locality" />
		<tag k="ssr:stedsnr" v="420160" />
	</node>
	<node id="-511732" lat="61.217486109" lon="6.49328056153">
		<tag k="name" v="Indre Eseviki" />
		<tag k="natural" v="bay" />
		<tag k="ssr:stedsnr" v="419526" />
	</node>
	<node id="-511731" lat="61.1602527794" lon="6.54434444154">
		<tag k="name" v="Hestvikneset" />
		<tag k="natural" v="cape" />
		<tag k="ssr:stedsnr" v="418559" />
	</node>
	<node id="-512242" lat="61.2463611118" lon="6.55220555388">
		<tag k="name" v="Snaughaugnes" />
		<tag k="natural" v="cape" />
		<tag k="ssr:stedsnr" v="722569" />
	</node>
	<node id="-511728" lat="61.2141055572" lon="6.50675556368">
		<tag k="name" v="Rissva" />
		<tag k="natural" v="cape" />
		<tag k="ssr:stedsnr" v="479531" />
	</node>
	<node id="-512239" lat="61.2218888901" lon="6.48665277376">
		<tag k="name" v="Hølen" />
		<tag k="natural" v="bay" />
		<tag k="ssr:stedsnr" v="722550" />
	</node>
	<node id="-511725" lat="61.21050833" lon="6.53770555052">
		<tag k="name" v="Munken" />
		<tag k="natural" v="cape" />
		<tag k="ssr:stedsnr" v="252698" />
	</node>
	<node id="-512232" lat="61.1725749996" lon="6.54042221317">
		<tag k="name" v="Posthabn" />
		<tag k="natural" v="bay" />
		<tag k="ssr:stedsnr" v="713952" />
	</node>
	<node id="-512230" lat="61.1133361119" lon="6.43308333557">
		<tag k="name" v="Furenesviki" />
		<tag k="natural" v="bay" />
		<tag k="ssr:stedsnr" v="713939" />
	</node>
	<node id="-511702" lat="61.2525222243" lon="6.5451444499">
		<tag k="name" v="Klorviki" />
		<tag k="natural" v="bay" />
		<tag k="ssr:stedsnr" v="236563" />
	</node>
	<node id="-511692" lat="61.113124997" lon="6.39848888886">
		<tag k="name" v="Krokaneset" />
		<tag k="natural" v="cape" />
		<tag k="ssr:stedsnr" v="228363" />
	</node>
	<node id="-511175" lat="61.2170638867" lon="6.56627222111">
		<tag k="name" v="Dragsviki" />
		<tag k="natural" v="bay" />
		<tag k="ssr:stedsnr" v="358536" />
	</node>
	<node id="-511173" lat="61.1702500044" lon="6.5426722307">
		<tag k="name" v="Tuftaneset" />
		<tag k="natural" v="cape" />
		<tag k="ssr:stedsnr" v="349969" />
	</node>
	<node id="-511684" lat="61.2215861076" lon="6.48681111457">
		<tag k="name" v="Hølen" />
		<tag k="natural" v="cape" />
		<tag k="ssr:stedsnr" v="227925" />
	</node>
	<node id="-511683" lat="61.1225611097" lon="6.47056111077">
		<tag k="name" v="Verpeneset" />
		<tag k="natural" v="cape" />
		<tag k="ssr:stedsnr" v="227916" />
	</node>
	<node id="-511682" lat="61.2125416628" lon="6.51366666135">
		<tag k="name" v="Støvelstolviki" />
		<tag k="natural" v="bay" />
		<tag k="ssr:stedsnr" v="227882" />
	</node>
	<node id="-512190" lat="61.1299444452" lon="6.48815833599">
		<tag k="name" v="Nepeholmen" />
		<tag k="place" v="islet" />
		<tag k="ssr:stedsnr" v="713065" />
	</node>
	<node id="-512189" lat="61.1297694485" lon="6.48947222532">
		<tag k="name" v="Vetleholmen" />
		<tag k="place" v="islet" />
		<tag k="ssr:stedsnr" v="713064" />
	</node>
	<node id="-511162" lat="61.1338305582" lon="6.28247222368">
		<tag k="name" v="Leirteigneset" />
		<tag k="natural" v="cape" />
		<tag k="ssr:stedsnr" v="349681" />
	</node>
	<node id="-511156" lat="61.1206888919" lon="6.34964721742">
		<tag k="name" v="Eikjeneset" />
		<tag k="natural" v="cape" />
		<tag k="ssr:stedsnr" v="349427" />
	</node>
	<node id="-511666" lat="61.2664749961" lon="6.51940833339">
		<tag k="name" v="Øyraneset" />
		<tag k="natural" v="cape" />
		<tag k="ssr:stedsnr" v="227738" />
	</node>
	<node id="-511665" lat="61.2711166694" lon="6.52660000089">
		<tag k="name" v="Langesva" />
		<tag k="natural" v="cape" />
		<tag k="ssr:stedsnr" v="227736" />
	</node>
	<node id="-512174" lat="61.2193861154" lon="6.50887222382">
		<tag k="name" v="Bakkeviki" />
		<tag k="natural" v="bay" />
		<tag k="ssr:stedsnr" v="712901" />
	</node>
	<node id="-511144" lat="61.2206972216" lon="6.59219445281">
		<tag k="alt_name" v="Tenningsbukti" />
		<tag k="name" v="Tenningaviki" />
		<tag k="natural" v="bay" />
		<tag k="ssr:stedsnr" v="348868" />
	</node>
	<node id="-512162" lat="61.1102472258" lon="6.37790833386">
		<tag k="name" v="Seleneset" />
		<tag k="natural" v="cape" />
		<tag k="ssr:stedsnr" v="708973" />
	</node>
	<node id="-512160" lat="61.1550722229" lon="6.14383333067">
		<tag k="name" v="Eitreneshola" />
		<tag k="natural" v="bay" />
		<tag k="ssr:stedsnr" v="704165" />
	</node>
	<node id="-512156" lat="61.1589750009" lon="6.17002221963">
		<tag k="alt_name" v="Streteneset" />
		<tag k="name" v="Striteneset" />
		<tag k="natural" v="cape" />
		<tag k="ssr:stedsnr" v="677317" />
	</node>
	<node id="-511129" lat="61.1466833299" lon="6.24633888624">
		<tag k="name" v="Askeviki" />
		<tag k="natural" v="bay" />
		<tag k="ssr:stedsnr" v="348648" />
	</node>
	<node id="-511172" lat="61.2299444416" lon="6.54625554803">
		<tag k="name" v="Strondi" />
		<tag k="natural" v="beach" />
		<tag k="place" v="locality" />
		<tag k="ssr:stedsnr" v="349928" />
	</node>
	<node id="-511121" lat="61.1981972222" lon="6.53017777652">
		<tag k="name" v="Fjærestadstoi" />
		<tag k="natural" v="beach" />
		<tag k="place" v="locality" />
		<tag k="ssr:stedsnr" v="348042" />
	</node>
	<node id="-512143" lat="61.1706388855" lon="6.19739723128">
		<tag k="bay" v="fjord" />
		<tag k="name" v="Lånefjorden" />
		<tag k="natural" v="bay" />
		<tag k="ssr:stedsnr" v="676345" />
	</node>
	<node id="-512194" lat="61.1130527792" lon="6.45335277514">
		<tag k="name" v="Saganeset" />
		<tag k="natural" v="cape" />
		<tag k="ssr:stedsnr" v="713121" />
	</node>
	<node id="-511255" lat="61.1318666684" lon="6.5069472214">
		<tag k="name" v="Fiskesteinneset" />
		<tag k="natural" v="cape" />
		<tag k="ssr:stedsnr" v="409150" />
	</node>
	<node id="-511624" lat="61.1274879086" lon="6.4820168368">
		<tag k="name" v="Kvamsøy" />
		<tag k="place" v="islet" />
		<tag k="ssr:stedsnr" v="191614" />
	</node>
	<node id="-512134" lat="61.2846111091" lon="6.54849721395">
		<tag k="name" v="Nauteskredneset" />
		<tag k="natural" v="cape" />
		<tag k="ssr:stedsnr" v="661381" />
	</node>
	<node id="-511107" lat="61.1569361135" lon="6.1519833391">
		<tag k="name" v="Ståbøen" />
		<tag k="natural" v="cape" />
		<tag k="ssr:stedsnr" v="313337" />
	</node>
	<node id="-511106" lat="61.1655472183" lon="6.20519721909">
		<tag k="alt_name" v="Kongsnes" />
		<tag k="name" v="Kongsneset" />
		<tag k="natural" v="cape" />
		<tag k="ssr:stedsnr" v="313334" />
	</node>
	<node id="-511105" lat="61.1535444435" lon="6.14079999914">
		<tag k="alt_name" v="Eitrenes" />
		<tag k="name" v="Eitreneset" />
		<tag k="natural" v="cape" />
		<tag k="ssr:stedsnr" v="313335" />
	</node>
	<node id="-512128" lat="61.2135972222" lon="6.56455277412">
		<tag k="name" v="Veganeset" />
		<tag k="natural" v="cape" />
		<tag k="ssr:stedsnr" v="652936" />
	</node>
	<node id="-512123" lat="61.1848138847" lon="6.21247776932">
		<tag k="name" v="Gjersviki" />
		<tag k="natural" v="bay" />
		<tag k="ssr:stedsnr" v="652796" />
	</node>
	<node id="-511605" lat="61.1265527741" lon="6.47317221683">
		<tag k="name" v="Kvamsbukti" />
		<tag k="natural" v="bay" />
		<tag k="ssr:stedsnr" v="176556" />
	</node>
	<node id="-511678" lat="61.2898611132" lon="6.56455833185">
		<tag k="name" v="Budeieviki" />
		<tag k="natural" v="bay" />
		<tag k="ssr:stedsnr" v="227840" />
	</node>
	<node id="-511601" lat="61.2756861091" lon="6.51512777263">
		<tag k="name" v="Marneset" />
		<tag k="natural" v="cape" />
		<tag k="ssr:stedsnr" v="167969" />
	</node>
	<node id="-511599" lat="61.1158666654" lon="6.42005555874">
		<tag k="name" v="Sanden" />
		<tag k="natural" v="beach" />
		<tag k="place" v="locality" />
		<tag k="ssr:stedsnr" v="167957" />
	</node>
	<node id="-511081" lat="61.177402777" lon="6.53458333285">
		<tag k="name" v="Indre Tussviki" />
		<tag k="natural" v="bay" />
		<tag k="ssr:stedsnr" v="297560" />
	</node>
	<node id="-511076" lat="61.1364583339" lon="6.26560000196">
		<tag k="name" v="Naustviki" />
		<tag k="natural" v="bay" />
		<tag k="ssr:stedsnr" v="289626" />
	</node>
	<node id="-511579" lat="61.1307944434" lon="6.49404722476">
		<tag k="alt_name" v="Narneset" />
		<tag k="name" v="Nareneset" />
		<tag k="natural" v="cape" />
		<tag k="ssr:stedsnr" v="167056" />
	</node>
	<node id="-512087" lat="61.1276972246" lon="6.47536110783">
		<tag k="name" v="Naustneset" />
		<tag k="natural" v="cape" />
		<tag k="ssr:stedsnr" v="652055" />
	</node>
	<node id="-511054" lat="61.2718722233" lon="6.52312500009">
		<tag k="name" v="Svaneset" />
		<tag k="natural" v="cape" />
		<tag k="ssr:stedsnr" v="288712" />
	</node>
	<node id="-511564" lat="61.1726916637" lon="6.19312777926">
		<tag k="name" v="Teiganeset" />
		<tag k="natural" v="cape" />
		<tag k="ssr:stedsnr" v="166772" />
	</node>
	<node id="-511563" lat="61.2729499981" lon="6.50731388951">
		<tag k="name" v="Tumleneset" />
		<tag k="natural" v="cape" />
		<tag k="ssr:stedsnr" v="166739" />
	</node>
	<node id="-511046" lat="61.2616916682" lon="6.59872778481">
		<tag k="name" v="Leirviki" />
		<tag k="natural" v="bay" />
		<tag k="ssr:stedsnr" v="288624" />
	</node>
	<node id="-512574" lat="61.2378194454" lon="6.55223610908">
		<tag k="name" v="Kolvabukti" />
		<tag k="natural" v="bay" />
		<tag k="ssr:stedsnr" v="965560" />
	</node>
	<node id="-512572" lat="61.2169722217" lon="6.52990277715">
		<tag k="name" v="Gjerdsviki" />
		<tag k="natural" v="bay" />
		<tag k="ssr:stedsnr" v="964509" />
	</node>
	<node id="-512057" lat="61.1806861139" lon="6.21825554937">
		<tag k="name" v="Renninganeset" />
		<tag k="natural" v="cape" />
		<tag k="ssr:stedsnr" v="616323" />
	</node>
	<node id="-512567" lat="61.2851888931" lon="6.54863055615">
		<tag k="name" v="Nauteskredviki" />
		<tag k="natural" v="bay" />
		<tag k="ssr:stedsnr" v="956962" />
	</node>
	<node id="-511535" lat="61.1158861085" lon="6.47515278543">
		<tag k="alt_name" v="Daneneset" />
		<tag k="name" v="Danneneset" />
		<tag k="natural" v="cape" />
		<tag k="ssr:stedsnr" v="130646" />
	</node>
	<node id="-511154" lat="61.1358416674" lon="6.29752221587">
		<tag k="name" v="Kjerringahella" />
		<tag k="natural" v="cape" />
		<tag k="ssr:stedsnr" v="349292" />
	</node>
	<node id="-512553" lat="61.1370083303" lon="6.26456388282">
		<tag k="name" v="Vetlaviki" />
		<tag k="natural" v="bay" />
		<tag k="ssr:stedsnr" v="956629" />
	</node>
	<node id="-512040" lat="61.2533833292" lon="6.57408888442">
		<tag k="name" v="Menes" />
		<tag k="natural" v="cape" />
		<tag k="ssr:stedsnr" v="614868" />
	</node>
	<node id="-512033" lat="61.2113305589" lon="6.52933889369">
		<tag k="name" v="Hamnen" />
		<tag k="natural" v="cape" />
		<tag k="ssr:stedsnr" v="600510" />
	</node>
	<node id="-512031" lat="61.295533336" lon="6.56390277547">
		<tag k="name" v="Lasseviki" />
		<tag k="natural" v="bay" />
		<tag k="ssr:stedsnr" v="592884" />
	</node>
	<node id="-512538" lat="61.2281055595" lon="6.48217222234">
		<tag k="name" v="Botnaståene" />
		<tag k="natural" v="shoal" />
		<tag k="place" v="locality" />
		<tag k="ssr:stedsnr" v="955936" />
	</node>
	<node id="-511513" lat="61.1823694434" lon="6.53506944463">
		<tag k="name" v="Sandvikaneset" />
		<tag k="natural" v="cape" />
		<tag k="ssr:stedsnr" v="115549" />
	</node>
	<node id="-511511" lat="61.2266944411" lon="6.54860832914">
		<tag k="name" v="Vikane" />
		<tag k="natural" v="cape" />
		<tag k="ssr:stedsnr" v="107910" />
	</node>
	<node id="-512022" lat="61.1160583353" lon="6.41261944566">
		<tag k="name" v="Haukedalsneset" />
		<tag k="natural" v="cape" />
		<tag k="ssr:stedsnr" v="591925" />
	</node>
	<node id="-512533" lat="61.2716361126" lon="6.53928332699">
		<tag k="name" v="Røysaneset" />
		<tag k="natural" v="cape" />
		<tag k="ssr:stedsnr" v="955735" />
	</node>
	<node id="-511506" lat="61.1871222189" lon="6.53043889812">
		<tag k="name" v="Bruhjellsverpet" />
		<tag k="natural" v="cape" />
		<tag k="ssr:stedsnr" v="106967" />
	</node>
	<node id="-511504" lat="61.119333329" lon="6.47207778474">
		<tag k="name" v="Berrteigfjøra" />
		<tag k="natural" v="bay" />
		<tag k="ssr:stedsnr" v="106932" />
	</node>
	<node id="-512525" lat="61.1210694469" lon="6.34291667421">
		<tag k="name" v="Flatneset" />
		<tag k="natural" v="cape" />
		<tag k="ssr:stedsnr" v="955488" />
	</node>
	<node id="-512008" lat="61.1369277751" lon="6.53077778416">
		<tag k="name" v="Labergshella" />
		<tag k="natural" v="beach" />
		<tag k="place" v="locality" />
		<tag k="ssr:stedsnr" v="591799" />
	</node>
	<node id="-512514" lat="61.1790916631" lon="6.21701944268">
		<tag k="name" v="Sandvika" />
		<tag k="natural" v="bay" />
		<tag k="ssr:stedsnr" v="953858" />
	</node>
</osm>
