<?xml version="1.0" encoding="UTF-8"?>
<osm generator="osmapis" version="0.6">
	<node id="-513024" lat="61.271744447" lon="6.53177222876">
		<tag k="name" v="Grønlundsmyri" />
		<tag k="natural" v="wetland" />
		<tag k="ssr:stedsnr" v="773718" />
	</node>
	<node id="-512511" lat="61.3717333302" lon="6.55154444981">
		<tag k="alt_name" v="Meelsteigane" />
		<tag k="name" v="Melsteigane" />
		<tag k="place" v="locality" />
		<tag k="ssr:stedsnr" v="470666" />
	</node>
	<node id="-511998" lat="61.1818249975" lon="6.20474721515">
		<tag k="name" v="Steinteigen" />
		<tag k="place" v="locality" />
		<tag k="ssr:stedsnr" v="409818" />
	</node>
	<node id="-513016" lat="61.1687277811" lon="6.33599444218">
		<tag k="name" v="Kvistenskog" />
		<tag k="place" v="locality" />
		<tag k="ssr:stedsnr" v="773633" />
	</node>
	<node id="-512503" lat="61.166808334" lon="6.32254444098">
		<tag k="name" v="Gråsteinmyri" />
		<tag k="natural" v="wetland" />
		<tag k="ssr:stedsnr" v="470380" />
	</node>
	<node id="-513011" lat="61.1246111093" lon="6.38352776992">
		<tag k="name" v="Myrleite" />
		<tag k="place" v="locality" />
		<tag k="ssr:stedsnr" v="773307" />
	</node>
	<node id="-513008" lat="61.1917472199" lon="6.5164888846">
		<tag k="name" v="Kalvagjerdet" />
		<tag k="place" v="locality" />
		<tag k="ssr:stedsnr" v="773070" />
	</node>
	<node id="-512998" lat="61.1678111142" lon="6.18662223027">
		<tag k="name" v="Nesuran" />
		<tag k="natural" v="scree" />
		<tag k="ssr:stedsnr" v="768748" />
	</node>
	<node id="-512477" lat="61.2415277764" lon="6.40032499136">
		<tag k="name" v="Langedalsbreen" />
		<tag k="natural" v="glacier" />
		<tag k="ssr:stedsnr" v="434267" />
	</node>
	<node id="-512982" lat="61.2488388925" lon="6.42696110542">
		<tag k="name" v="Bjørnabreen" />
		<tag k="natural" v="glacier" />
		<tag k="ssr:stedsnr" v="737299" />
	</node>
	<node id="-512459" lat="61.2383527805" lon="6.54980833682">
		<tag k="name" v="Jøtulsvaet" />
		<tag k="place" v="locality" />
		<tag k="ssr:stedsnr" v="419538" />
	</node>
	<node id="-512443" lat="61.1174805521" lon="6.41057500398">
		<tag k="alt_name" v="Sjurhagen" />
		<tag k="name" v="Sjurdhagen" />
		<tag k="place" v="locality" />
		<tag k="ssr:stedsnr" v="252607" />
	</node>
	<node id="-512951" lat="61.1654944407" lon="6.22533055912">
		<tag k="name" v="Teigen" />
		<tag k="place" v="locality" />
		<tag k="ssr:stedsnr" v="713881" />
	</node>
	<node id="-512935" lat="61.1560944454" lon="6.2357555583">
		<tag k="name" v="Hesjevollen" />
		<tag k="place" v="locality" />
		<tag k="ssr:stedsnr" v="713706" />
	</node>
	<node id="-513084" lat="61.1812305596" lon="6.15985833214">
		<tag k="name" v="Skukken" />
		<tag k="natural" v="stone" />
		<tag k="ssr:stedsnr" v="798312" />
	</node>
	<node id="-511898" lat="61.1675777748" lon="6.5397861024">
		<tag k="name" v="Øygarden" />
		<tag k="place" v="locality" />
		<tag k="ssr:stedsnr" v="349971" />
	</node>
	<node id="-512922" lat="61.1373888925" lon="6.30020556102">
		<tag k="name" v="Langetjuvuri" />
		<tag k="natural" v="scree" />
		<tag k="ssr:stedsnr" v="713252" />
	</node>
	<node id="-512403" lat="61.2829527765" lon="6.56840000831">
		<tag k="name" v="Kyrkjeteigen" />
		<tag k="place" v="locality" />
		<tag k="ssr:stedsnr" v="227841" />
	</node>
	<node id="-512913" lat="61.1312361091" lon="6.47993610788">
		<tag k="name" v="Hagane" />
		<tag k="place" v="locality" />
		<tag k="ssr:stedsnr" v="713059" />
	</node>
	<node id="-511887" lat="61.3375222246" lon="6.57160832699">
		<tag k="name" v="Storesteinane" />
		<tag k="natural" v="stone" />
		<tag k="ssr:stedsnr" v="349744" />
	</node>
	<node id="-512903" lat="61.2087972179" lon="6.53208610289">
		<tag k="name" v="Holmamyrane" />
		<tag k="natural" v="wetland" />
		<tag k="ssr:stedsnr" v="713031" />
	</node>
	<node id="-512901" lat="61.2113916696" lon="6.47506111181">
		<tag k="name" v="Kvanngrøteigen" />
		<tag k="place" v="locality" />
		<tag k="ssr:stedsnr" v="712998" />
	</node>
	<node id="-512388" lat="61.1462388902" lon="6.2791444443">
		<tag k="name" v="Galden" />
		<tag k="place" v="locality" />
		<tag k="ssr:stedsnr" v="227687" />
	</node>
	<node id="-512898" lat="61.2213722212" lon="6.51617776945">
		<tag k="name" v="Skitteigen" />
		<tag k="place" v="locality" />
		<tag k="ssr:stedsnr" v="712895" />
	</node>
	<node id="-511872" lat="61.2811277751" lon="6.49583334198">
		<tag k="name" v="Storamyri" />
		<tag k="natural" v="wetland" />
		<tag k="ssr:stedsnr" v="348955" />
	</node>
	<node id="-512891" lat="61.1362166683" lon="6.32584999093">
		<tag k="name" v="Skredhaugmyri" />
		<tag k="natural" v="wetland" />
		<tag k="ssr:stedsnr" v="712233" />
	</node>
	<node id="-512368" lat="61.1596444415" lon="6.16180832697">
		<tag k="name" v="Hegguri" />
		<tag k="natural" v="scree" />
		<tag k="ssr:stedsnr" v="219162" />
	</node>
	<node id="-511852" lat="61.1685250013" lon="6.30174722503">
		<tag k="name" v="Skåravoll" />
		<tag k="place" v="locality" />
		<tag k="ssr:stedsnr" v="348623" />
	</node>
	<node id="-511847" lat="61.2572333343" lon="6.47485277723">
		<tag k="name" v="Syndasteinurane" />
		<tag k="natural" v="scree" />
		<tag k="ssr:stedsnr" v="348556" />
	</node>
	<node id="-511842" lat="61.126533332" lon="6.45060833641">
		<tag k="name" v="Legehaugmyri" />
		<tag k="natural" v="wetland" />
		<tag k="ssr:stedsnr" v="348010" />
	</node>
	<node id="-512858" lat="61.2527111076" lon="6.57414167092">
		<tag k="name" v="Hella" />
		<tag k="place" v="locality" />
		<tag k="ssr:stedsnr" v="660578" />
	</node>
	<node id="-512856" lat="61.2754333315" lon="6.52103333416">
		<tag k="alt_name" v="Sværauri" />
		<tag k="name" v="Sværuri" />
		<tag k="natural" v="scree" />
		<tag k="ssr:stedsnr" v="652958" />
	</node>
	<node id="-512852" lat="61.2225694451" lon="6.55526111457">
		<tag k="name" v="Kattavollen" />
		<tag k="place" v="locality" />
		<tag k="ssr:stedsnr" v="652932" />
	</node>
	<node id="-512840" lat="61.3499527755" lon="6.55675000742">
		<tag k="name" v="Langehaugsmyri" />
		<tag k="natural" v="wetland" />
		<tag k="ssr:stedsnr" v="652725" />
	</node>
	<node id="-512324" lat="61.1856250026" lon="6.5091111183">
		<tag k="name" v="Kringlemyri" />
		<tag k="natural" v="wetland" />
		<tag k="ssr:stedsnr" v="167917" />
	</node>
	<node id="-511804" lat="61.2454277769" lon="6.60605833698">
		<tag k="name" v="Svateigane" />
		<tag k="place" v="locality" />
		<tag k="ssr:stedsnr" v="297342" />
	</node>
	<node id="-512309" lat="61.1360138878" lon="6.38520555817">
		<tag k="name" v="Fledna" />
		<tag k="place" v="locality" />
		<tag k="ssr:stedsnr" v="167296" />
	</node>
	<node id="-512819" lat="61.1148805513" lon="6.40316388048">
		<tag k="name" v="Gyllingshola" />
		<tag k="place" v="locality" />
		<tag k="ssr:stedsnr" v="652294" />
	</node>
	<node id="-512307" lat="61.1897694446" lon="6.22421388413">
		<tag k="name" v="Raudskredsteinen" />
		<tag k="natural" v="stone" />
		<tag k="ssr:stedsnr" v="167170" />
	</node>
	<node id="-511791" lat="61.1691027779" lon="6.20955554912">
		<tag k="name" v="Persteinuri" />
		<tag k="natural" v="scree" />
		<tag k="ssr:stedsnr" v="288834" />
	</node>
	<node id="-511789" lat="61.2015055596" lon="6.4676194508">
		<tag k="name" v="Øykjagarden" />
		<tag k="place" v="locality" />
		<tag k="ssr:stedsnr" v="288790" />
	</node>
	<node id="-512811" lat="61.1254611135" lon="6.46939166544">
		<tag k="name" v="Holene" />
		<tag k="place" v="locality" />
		<tag k="ssr:stedsnr" v="652046" />
	</node>
	<node id="-512298" lat="61.1748583346" lon="6.52885832806">
		<tag k="name" v="Skorflaten" />
		<tag k="place" v="locality" />
		<tag k="ssr:stedsnr" v="166933" />
	</node>
	<node id="-512807" lat="61.1259250028" lon="6.44059999297">
		<tag k="name" v="Juklehamarmyri" />
		<tag k="natural" v="wetland" />
		<tag k="ssr:stedsnr" v="652027" />
	</node>
	<node id="-512806" lat="61.1990472246" lon="6.5176166695">
		<tag k="name" v="Bjødnamyr" />
		<tag k="natural" v="wetland" />
		<tag k="ssr:stedsnr" v="652006" />
	</node>
	<node id="-511793" lat="61.2984805533" lon="6.55081665777">
		<tag k="name" v="Ramsteinane" />
		<tag k="natural" v="stone" />
		<tag k="ssr:stedsnr" v="288872" />
	</node>
	<node id="-511776" lat="61.2622833314" lon="6.53503888496">
		<tag k="name" v="Øygarden" />
		<tag k="place" v="locality" />
		<tag k="ssr:stedsnr" v="288704" />
	</node>
	<node id="-511774" lat="61.2586805582" lon="6.57260554622">
		<tag k="name" v="Steguri" />
		<tag k="natural" v="scree" />
		<tag k="ssr:stedsnr" v="288694" />
	</node>
	<node id="-512389" lat="61.1487416705" lon="6.27895833176">
		<tag k="name" v="Urane" />
		<tag k="natural" v="scree" />
		<tag k="ssr:stedsnr" v="227690" />
	</node>
	<node id="-511769" lat="61.1684055581" lon="6.3229111052">
		<tag k="name" v="Urateigen" />
		<tag k="place" v="locality" />
		<tag k="ssr:stedsnr" v="288618" />
	</node>
	<node id="-513298" lat="61.2317277802" lon="6.54803333869">
		<tag k="name" v="Ivasteinen" />
		<tag k="natural" v="stone" />
		<tag k="ssr:stedsnr" v="965558" />
	</node>
	<node id="-513283" lat="61.3233499965" lon="6.58354999764">
		<tag k="name" v="Gleuri" />
		<tag k="natural" v="scree" />
		<tag k="ssr:stedsnr" v="956744" />
	</node>
	<node id="-513275" lat="61.1156472218" lon="6.40495278349">
		<tag k="name" v="Rudgjerdet" />
		<tag k="place" v="locality" />
		<tag k="ssr:stedsnr" v="956369" />
	</node>
	<node id="-513265" lat="61.1411527769" lon="6.51563888178">
		<tag k="name" v="Halvfarmyri" />
		<tag k="natural" v="wetland" />
		<tag k="ssr:stedsnr" v="956039" />
	</node>
	<node id="-513261" lat="61.2344111116" lon="6.48296389326">
		<tag k="name" v="Storesteinane" />
		<tag k="natural" v="stone" />
		<tag k="ssr:stedsnr" v="955778" />
	</node>
	<node id="-513256" lat="61.3279083297" lon="6.55326111575">
		<tag k="name" v="Storuri" />
		<tag k="natural" v="scree" />
		<tag k="ssr:stedsnr" v="955706" />
	</node>
	<node id="-512231" lat="61.1534472267" lon="6.5360611099">
		<tag k="name" v="Ytstebøen" />
		<tag k="place" v="locality" />
		<tag k="ssr:stedsnr" v="106951" />
	</node>
	<node id="-512740" lat="61.2438027814" lon="6.5431027854">
		<tag k="name" v="Galdamyri" />
		<tag k="natural" v="wetland" />
		<tag k="ssr:stedsnr" v="591847" />
	</node>
	<node id="-512226" lat="61.1623666629" lon="6.22128055537">
		<tag k="name" v="Kalvahagen" />
		<tag k="place" v="locality" />
		<tag k="ssr:stedsnr" v="106875" />
	</node>
	<node id="-512736" lat="61.2967277779" lon="6.53931666152">
		<tag k="name" v="Blåurane" />
		<tag k="natural" v="scree" />
		<tag k="ssr:stedsnr" v="591814" />
	</node>
	<node id="-512121" lat="61.233016667" lon="6.58825277349">
		<tag k="name" v="Blåuri" />
		<tag k="natural" v="scree" />
		<tag k="ssr:stedsnr" v="45820" />
	</node>
	<node id="-512199" lat="61.1276972238" lon="6.3319194429">
		<tag k="name" v="Tuftene" />
		<tag k="place" v="locality" />
		<tag k="ssr:stedsnr" v="106273" />
	</node>
	<node id="-512195" lat="61.2094944442" lon="6.4847111168">
		<tag k="name" v="Orteteigen" />
		<tag k="place" v="locality" />
		<tag k="ssr:stedsnr" v="106051" />
	</node>
	<node id="-513217" lat="61.4302861072" lon="6.56791667379">
		<tag k="name" v="Jostefonni" />
		<tag k="natural" v="glacier" />
		<tag k="ssr:stedsnr" v="918694" />
	</node>
	<node id="-512702" lat="61.1643083306" lon="6.13893610498">
		<tag k="name" v="Storamyri" />
		<tag k="natural" v="wetland" />
		<tag k="ssr:stedsnr" v="591162" />
	</node>
	<node id="-512188" lat="61.2602361152" lon="6.48107777545">
		<tag k="name" v="Altersteinen" />
		<tag k="natural" v="stone" />
		<tag k="ssr:stedsnr" v="105597" />
	</node>
	<node id="-512694" lat="61.2868972181" lon="6.4902444499">
		<tag k="name" v="Uraneset" />
		<tag k="natural" v="scree" />
		<tag k="ssr:stedsnr" v="590956" />
	</node>
	<node id="-512688" lat="61.1815138889" lon="6.32460277009">
		<tag k="name" v="Legeskog" />
		<tag k="place" v="locality" />
		<tag k="ssr:stedsnr" v="590606" />
	</node>
	<node id="-512687" lat="61.2576555575" lon="6.48041110571">
		<tag k="name" v="Ospemyrane" />
		<tag k="natural" v="wetland" />
		<tag k="ssr:stedsnr" v="590579" />
	</node>
	<node id="-512680" lat="61.3393611155" lon="6.57195555301">
		<tag k="name" v="Rustauri" />
		<tag k="natural" v="scree" />
		<tag k="ssr:stedsnr" v="566637" />
	</node>
	<node id="-512625" lat="61.2648638852" lon="6.47372500512">
		<tag k="name" v="Trolluri" />
		<tag k="natural" v="scree" />
		<tag k="ssr:stedsnr" v="531621" />
	</node>
	<node id="-512150" lat="61.2753527788" lon="6.50027500737">
		<tag k="name" v="Vossasteinane" />
		<tag k="natural" v="stone" />
		<tag k="ssr:stedsnr" v="54571" />
	</node>
	<node id="-512147" lat="61.2916222267" lon="6.54658611486">
		<tag k="name" v="Otteruri" />
		<tag k="natural" v="scree" />
		<tag k="ssr:stedsnr" v="46933" />
	</node>
	<node id="-512145" lat="61.1586472231" lon="6.54289999434">
		<tag k="name" v="Nygjerdet" />
		<tag k="place" v="locality" />
		<tag k="ssr:stedsnr" v="46824" />
	</node>
	<node id="-512140" lat="61.1149861139" lon="6.40041945293">
		<tag k="name" v="Gyllinga" />
		<tag k="place" v="locality" />
		<tag k="ssr:stedsnr" v="46347" />
	</node>
	<node id="-512643" lat="61.18564167" lon="6.20909722718">
		<tag k="name" v="Tuftene" />
		<tag k="place" v="locality" />
		<tag k="ssr:stedsnr" v="531838" />
	</node>
	<node id="-512130" lat="61.1794611118" lon="6.53409721829">
		<tag k="name" v="Øygarden" />
		<tag k="place" v="locality" />
		<tag k="ssr:stedsnr" v="45958" />
	</node>
	<node id="-513152" lat="61.1729833294" lon="6.51061944326">
		<tag k="name" v="Faganastadmyrane" />
		<tag k="natural" v="wetland" />
		<tag k="ssr:stedsnr" v="834992" />
	</node>
	<node id="-512126" lat="61.1168833322" lon="6.41605833935">
		<tag k="name" v="Hagagjerdet" />
		<tag k="place" v="locality" />
		<tag k="ssr:stedsnr" v="45907" />
	</node>
	<node id="-512633" lat="61.3524416669" lon="6.55138889122">
		<tag k="name" v="Trolløymyrane" />
		<tag k="natural" v="wetland" />
		<tag k="ssr:stedsnr" v="531766" />
	</node>
	<node id="-512113" lat="61.2588222244" lon="6.53621666235">
		<tag k="name" v="Breithogsteren" />
		<tag k="place" v="locality" />
		<tag k="ssr:stedsnr" v="45734" />
	</node>
	<node id="-512110" lat="61.1506583364" lon="6.28140554898">
		<tag k="name" v="Nyløbøen" />
		<tag k="place" v="locality" />
		<tag k="ssr:stedsnr" v="45695" />
	</node>
	<node id="-512617" lat="61.127416667" lon="6.46989999914">
		<tag k="name" v="Rugjerdet" />
		<tag k="place" v="locality" />
		<tag k="ssr:stedsnr" v="531048" />
	</node>
	<node id="-513127" lat="61.146461113" lon="6.39218611232">
		<tag k="name" v="Grisagrovteigen" />
		<tag k="place" v="locality" />
		<tag k="ssr:stedsnr" v="834461" />
	</node>
	<node id="-512609" lat="61.2136388886" lon="6.50156943945">
		<tag k="name" v="Hilleren" />
		<tag k="place" v="locality" />
		<tag k="ssr:stedsnr" v="530971" />
	</node>
	<node id="-513117" lat="61.2928166683" lon="6.47657777965">
		<tag k="name" v="Nøturi" />
		<tag k="natural" v="scree" />
		<tag k="ssr:stedsnr" v="833027" />
	</node>
	<node id="-513111" lat="61.4044694487" lon="6.55220554733">
		<tag k="name" v="Vetlefjordbreen" />
		<tag k="natural" v="glacier" />
		<tag k="ssr:stedsnr" v="810544" />
	</node>
	<node id="-512593" lat="61.2602111085" lon="6.47785556467">
		<tag k="name" v="Grautasteinen" />
		<tag k="natural" v="stone" />
		<tag k="ssr:stedsnr" v="530604" />
	</node>
	<node id="-513206" lat="61.1371222219" lon="6.36426111857">
		<tag k="name" v="Storamyri" />
		<tag k="natural" v="wetland" />
		<tag k="ssr:stedsnr" v="859643" />
	</node>
	<node id="-512064" lat="61.1147944478" lon="6.42520000494">
		<tag k="name" v="Furenesgjerdet" />
		<tag k="place" v="locality" />
		<tag k="ssr:stedsnr" v="895924" />
	</node>
	<node id="-512060" lat="61.2519527752" lon="6.62747222576">
		<tag k="alt_name" v="Vetletroøyri" />
		<tag k="name" v="Vetlatroøyri" />
		<tag k="place" v="locality" />
		<tag k="ssr:stedsnr" v="895838" />
	</node>
	<node id="-512522" lat="61.3080277766" lon="6.56322777214">
		<tag k="name" v="Øygarden" />
		<tag k="place" v="locality" />
		<tag k="ssr:stedsnr" v="470780" />
	</node>
	<node id="-513064" lat="61.2871000025" lon="6.5653833351">
		<tag k="name" v="Karistykket" />
		<tag k="place" v="locality" />
		<tag k="ssr:stedsnr" v="782379" />
	</node>
	<node id="-512036" lat="61.1219055513" lon="6.44264722643">
		<tag k="name" v="Bleinksdalsmyri" />
		<tag k="natural" v="wetland" />
		<tag k="ssr:stedsnr" v="895110" />
	</node>
	<node id="-513056" lat="61.1989583311" lon="6.25249722465">
		<tag k="name" v="Stølsmarki" />
		<tag k="place" v="locality" />
		<tag k="ssr:stedsnr" v="774772" />
	</node>
	<node id="-513038" lat="61.2761555546" lon="6.53748889445">
		<tag k="name" v="Fletene" />
		<tag k="place" v="locality" />
		<tag k="ssr:stedsnr" v="773889" />
	</node>
	<node id="-512010" lat="61.1148166676" lon="6.35795833757">
		<tag k="name" v="Saltråg" />
		<tag k="place" v="locality" />
		<tag k="ssr:stedsnr" v="410330" />
	</node>
	<node id="-512521" lat="61.1933888929" lon="6.23044443604">
		<tag k="name" v="Storestein" />
		<tag k="natural" v="stone" />
		<tag k="ssr:stedsnr" v="470766" />
	</node>
	<node id="-513029" lat="61.2380027764" lon="6.47658889316">
		<tag k="name" v="Vikjaslåtten" />
		<tag k="place" v="locality" />
		<tag k="ssr:stedsnr" v="773757" />
	</node>
</osm>
