<?xml version="1.0" encoding="UTF-8"?>
<osm generator="osmapis" version="0.6">
	<node id="-512000" lat="61.254697226" lon="6.5255694378">
		<tag k="name" v="Ytstegjelet" />
		<tag k="natural" v="valley" />
		<tag k="place" v="locality" />
		<tag k="ssr:stedsnr" v="591729" />
	</node>
	<node id="-511999" lat="61.1569055582" lon="6.27578332908">
		<tag k="name" v="Nestele" />
		<tag k="place" v="locality" />
		<tag k="ssr:stedsnr" v="591727" />
	</node>
	<node id="-511998" lat="61.3497416676" lon="6.53845278593">
		<tag k="name" v="Okslahola" />
		<tag k="natural" v="gorge" />
		<tag k="ssr:stedsnr" v="591726" />
	</node>
	<node id="-511997" lat="61.2738222219" lon="6.5326055467">
		<tag k="name" v="Skorane" />
		<tag k="natural" v="valley" />
		<tag k="place" v="locality" />
		<tag k="ssr:stedsnr" v="591720" />
	</node>
	<node id="-511996" lat="61.1669305568" lon="6.28503334046">
		<tag k="name" v="Slettebakkhaugen" />
		<tag k="natural" v="hill" />
		<tag k="place" v="locality" />
		<tag k="ssr:stedsnr" v="591712" />
	</node>
	<node id="-511995" lat="61.2711472258" lon="6.5745083378">
		<tag k="name" v="Tungene" />
		<tag k="natural" v="valley" />
		<tag k="place" v="locality" />
		<tag k="ssr:stedsnr" v="591672" />
	</node>
	<node id="-511994" lat="61.260158331" lon="6.58483611622">
		<tag k="name" v="Leigene" />
		<tag k="natural" v="slope" />
		<tag k="place" v="locality" />
		<tag k="ssr:stedsnr" v="591627" />
	</node>
	<node id="-511993" lat="61.26274167" lon="6.58033333878">
		<tag k="name" v="Foss- sethaugen" />
		<tag k="natural" v="hill" />
		<tag k="place" v="locality" />
		<tag k="ssr:stedsnr" v="591619" />
	</node>
	<node id="-511992" lat="61.2614583377" lon="6.58042223064">
		<tag k="name" v="Halvfaret" />
		<tag k="natural" v="valley" />
		<tag k="place" v="locality" />
		<tag k="ssr:stedsnr" v="591614" />
	</node>
	<node id="-511991" lat="61.1367277769" lon="6.28351389087">
		<tag k="name" v="Haugaholene" />
		<tag k="natural" v="gorge" />
		<tag k="ssr:stedsnr" v="591599" />
	</node>
	<node id="-511990" lat="61.1381000035" lon="6.28827500466">
		<tag k="name" v="Kleivegjelet" />
		<tag k="natural" v="gorge" />
		<tag k="ssr:stedsnr" v="591586" />
	</node>
	<node id="-511989" lat="61.1233916692" lon="6.34444167316">
		<tag k="name" v="Vetlebotnkusen" />
		<tag k="natural" v="valley" />
		<tag k="place" v="locality" />
		<tag k="ssr:stedsnr" v="591467" />
	</node>
	<node id="-511988" lat="61.1334944409" lon="6.34123056039">
		<tag k="name" v="Kyrkjehaugen" />
		<tag k="natural" v="hill" />
		<tag k="place" v="locality" />
		<tag k="ssr:stedsnr" v="591460" />
	</node>
	<node id="-511986" lat="61.151930554" lon="6.29229723131">
		<tag k="name" v="Storehaug" />
		<tag k="natural" v="hill" />
		<tag k="place" v="locality" />
		<tag k="ssr:stedsnr" v="591404" />
	</node>
	<node id="-511983" lat="61.1129611085" lon="6.36897778552">
		<tag k="name" v="Krekedalen" />
		<tag k="natural" v="valley" />
		<tag k="place" v="locality" />
		<tag k="ssr:stedsnr" v="591289" />
	</node>
	<node id="-511982" lat="61.1263222196" lon="6.4029555503">
		<tag k="name" v="Branden" />
		<tag k="natural" v="ridge" />
		<tag k="place" v="locality" />
		<tag k="ssr:stedsnr" v="591278" />
	</node>
	<node id="-511981" lat="61.1220166651" lon="6.35296388967">
		<tag k="name" v="Hansbakken" />
		<tag k="natural" v="slope" />
		<tag k="place" v="locality" />
		<tag k="ssr:stedsnr" v="591279" />
	</node>
	<node id="-511980" lat="61.1254305583" lon="6.37095554844">
		<tag k="name" v="Solrenning" />
		<tag k="natural" v="slope" />
		<tag k="place" v="locality" />
		<tag k="ssr:stedsnr" v="591264" />
	</node>
	<node id="-511978" lat="61.1337805542" lon="6.31547221637">
		<tag k="name" v="Merkesgjelet" />
		<tag k="natural" v="valley" />
		<tag k="place" v="locality" />
		<tag k="ssr:stedsnr" v="591240" />
	</node>
	<node id="-511975" lat="61.1927138859" lon="6.50898889089">
		<tag k="name" v="Lyngsva" />
		<tag k="natural" v="slope" />
		<tag k="place" v="locality" />
		<tag k="ssr:stedsnr" v="591052" />
	</node>
	<node id="-511974" lat="61.2036694435" lon="6.49322499344">
		<tag k="fixme" v="consider natural=peak for the most distinct mountains in the district" />
		<tag k="name" v="Hylmefjellet" />
		<tag k="natural" v="hill" />
		<tag k="place" v="locality" />
		<tag k="ssr:stedsnr" v="591046" />
	</node>
	<node id="-511972" lat="61.2131333331" lon="6.49188611587">
		<tag k="name" v="Kvednhusdalen" />
		<tag k="natural" v="valley" />
		<tag k="place" v="locality" />
		<tag k="ssr:stedsnr" v="591000" />
	</node>
	<node id="-511971" lat="61.2130583299" lon="6.47608889489">
		<tag k="name" v="Lesseplassen" />
		<tag k="place" v="locality" />
		<tag k="ssr:stedsnr" v="590997" />
	</node>
	<node id="-511970" lat="61.1530694431" lon="6.50231110396">
		<tag k="name" v="Kvitesvoi" />
		<tag k="place" v="locality" />
		<tag k="ssr:stedsnr" v="590989" />
	</node>
	<node id="-511967" lat="61.221088892" lon="6.47301111859">
		<tag k="name" v="Lellakvanngrø" />
		<tag k="natural" v="slope" />
		<tag k="place" v="locality" />
		<tag k="ssr:stedsnr" v="590940" />
	</node>
	<node id="-511966" lat="61.2189472186" lon="6.48662499472">
		<tag k="name" v="Slåttene" />
		<tag k="natural" v="slope" />
		<tag k="place" v="locality" />
		<tag k="ssr:stedsnr" v="590939" />
	</node>
	<node id="-511965" lat="61.1878805562" lon="6.20639444977">
		<tag k="name" v="Kvitafjellhamaren" />
		<tag k="natural" v="hill" />
		<tag k="place" v="locality" />
		<tag k="ssr:stedsnr" v="590826" />
	</node>
	<node id="-511964" lat="61.1839722263" lon="6.19384721368">
		<tag k="name" v="Bråtgjelet" />
		<tag k="natural" v="gorge" />
		<tag k="ssr:stedsnr" v="590807" />
	</node>
	<node id="-511961" lat="61.3110416706" lon="6.52895278525">
		<tag k="name" v="Grunnbotnskorane" />
		<tag k="natural" v="valley" />
		<tag k="place" v="locality" />
		<tag k="ssr:stedsnr" v="590036" />
	</node>
	<node id="-511960" lat="61.3285000009" lon="6.61080832429">
		<tag k="fixme" v="consider natural=peak for the most distinct mountains in the district" />
		<tag k="name" v="Hardbakk" />
		<tag k="natural" v="hill" />
		<tag k="place" v="locality" />
		<tag k="ssr:stedsnr" v="590014" />
	</node>
	<node id="-511958" lat="61.1606166694" lon="6.15668611769">
		<tag k="fixme" v="consider natural=peak for the most distinct mountains in the district" />
		<tag k="name" v="Åsen" />
		<tag k="natural" v="hill" />
		<tag k="place" v="locality" />
		<tag k="ssr:stedsnr" v="582172" />
	</node>
	<node id="-511957" lat="61.1522083355" lon="6.51345833363">
		<tag k="name" v="Ospedotten" />
		<tag k="natural" v="hill" />
		<tag k="place" v="locality" />
		<tag k="ssr:stedsnr" v="566970" />
	</node>
	<node id="-511956" lat="61.3464916701" lon="6.56779443912">
		<tag k="name" v="Holtasva" />
		<tag k="natural" v="hill" />
		<tag k="place" v="locality" />
		<tag k="ssr:stedsnr" v="566639" />
	</node>
	<node id="-511950" lat="61.2066305541" lon="6.44522500255">
		<tag k="name" v="Geithalsnipa" />
		<tag k="natural" v="hill" />
		<tag k="place" v="locality" />
		<tag k="ssr:stedsnr" v="555690" />
	</node>
	<node id="-511948" lat="61.2294916643" lon="6.48317499184">
		<tag k="name" v="Esebotn" />
		<tag k="natural" v="valley" />
		<tag k="place" v="locality" />
		<tag k="ssr:stedsnr" v="555663" />
	</node>
	<node id="-511943" lat="61.1996277807" lon="6.19078055457">
		<tag k="fixme" v="consider natural=peak for the most distinct mountains in the district" />
		<tag k="name" v="Breidåsen" />
		<tag k="natural" v="hill" />
		<tag k="place" v="locality" />
		<tag k="ssr:stedsnr" v="555305" />
	</node>
	<node id="-511938" lat="61.3044833361" lon="6.49701944613">
		<tag k="fixme" v="consider natural=peak for the most distinct mountains in the district" />
		<tag k="name" v="Vassdalsnipa" />
		<tag k="natural" v="hill" />
		<tag k="place" v="locality" />
		<tag k="ssr:stedsnr" v="554789" />
	</node>
	<node id="-511937" lat="61.3063055592" lon="6.61068055655">
		<tag k="fixme" v="consider natural=peak for the most distinct mountains in the district" />
		<tag k="name" v="Harevollnipa" />
		<tag k="natural" v="hill" />
		<tag k="place" v="locality" />
		<tag k="ssr:stedsnr" v="554243" />
	</node>
	<node id="-511936" lat="61.2844194442" lon="6.46283611321">
		<tag k="name" v="Kvannskredbotn" />
		<tag k="natural" v="valley" />
		<tag k="place" v="locality" />
		<tag k="ssr:stedsnr" v="553778" />
	</node>
	<node id="-511935" lat="61.2973222195" lon="6.58513055037">
		<tag k="name" v="Ulvastaddalen" />
		<tag k="natural" v="valley" />
		<tag k="place" v="locality" />
		<tag k="ssr:stedsnr" v="553779" />
	</node>
	<node id="-511933" lat="61.275075002" lon="6.46271389488">
		<tag k="name" v="Teigaholten" />
		<tag k="natural" v="hill" />
		<tag k="place" v="locality" />
		<tag k="ssr:stedsnr" v="553772" />
	</node>
	<node id="-511932" lat="61.3699194441" lon="6.57749166451">
		<tag k="name" v="Grøndalen" />
		<tag k="natural" v="valley" />
		<tag k="place" v="locality" />
		<tag k="ssr:stedsnr" v="553751" />
	</node>
	<node id="-511931" lat="61.3144444453" lon="6.75653055732">
		<tag k="fixme" v="consider natural=peak for the most distinct mountains in the district" />
		<tag k="name" v="Røyseteholten" />
		<tag k="natural" v="hill" />
		<tag k="place" v="locality" />
		<tag k="ssr:stedsnr" v="553199" />
	</node>
	<node id="-511930" lat="61.2713416685" lon="6.59949445326">
		<tag k="name" v="Nauteskreda" />
		<tag k="natural" v="slope" />
		<tag k="place" v="locality" />
		<tag k="ssr:stedsnr" v="553117" />
	</node>
	<node id="-511928" lat="61.2834000015" lon="6.4969472304">
		<tag k="name" v="Sværaskaret" />
		<tag k="natural" v="valley" />
		<tag k="place" v="locality" />
		<tag k="ssr:stedsnr" v="539544" />
	</node>
	<node id="-511926" lat="61.1712583374" lon="6.53209444401">
		<tag k="name" v="Einehaug" />
		<tag k="natural" v="hill" />
		<tag k="place" v="locality" />
		<tag k="ssr:stedsnr" v="531968" />
	</node>
	<node id="-511925" lat="61.1207249969" lon="6.43556389101">
		<tag k="name" v="Fuglaleikane" />
		<tag k="natural" v="slope" />
		<tag k="place" v="locality" />
		<tag k="ssr:stedsnr" v="531951" />
	</node>
	<node id="-511924" lat="61.1149833335" lon="6.43139722324">
		<tag k="fixme" v="consider natural=peak for the most distinct mountains in the district" />
		<tag k="name" v="Kamben" />
		<tag k="natural" v="hill" />
		<tag k="place" v="locality" />
		<tag k="ssr:stedsnr" v="531950" />
	</node>
	<node id="-511923" lat="61.1804472258" lon="6.52178610785">
		<tag k="name" v="Løyningane" />
		<tag k="natural" v="hill" />
		<tag k="place" v="locality" />
		<tag k="ssr:stedsnr" v="531922" />
	</node>
	<node id="-511922" lat="61.1664194441" lon="6.21030277336">
		<tag k="name" v="Leigdi" />
		<tag k="natural" v="valley" />
		<tag k="place" v="locality" />
		<tag k="ssr:stedsnr" v="531893" />
	</node>
	<node id="-511921" lat="61.3091111091" lon="6.55204723062">
		<tag k="name" v="Småhamrane" />
		<tag k="natural" v="hill" />
		<tag k="place" v="locality" />
		<tag k="ssr:stedsnr" v="531875" />
	</node>
	<node id="-511916" lat="61.1596249993" lon="6.52993056369">
		<tag k="name" v="Rauneflåten" />
		<tag k="place" v="locality" />
		<tag k="ssr:stedsnr" v="531834" />
	</node>
	<node id="-511915" lat="61.1611166629" lon="6.52731666434">
		<tag k="name" v="Bjørnestighaug" />
		<tag k="natural" v="ridge" />
		<tag k="place" v="locality" />
		<tag k="ssr:stedsnr" v="531832" />
	</node>
	<node id="-511914" lat="61.1938666636" lon="6.4475305598">
		<tag k="name" v="Nonsskard" />
		<tag k="natural" v="valley" />
		<tag k="place" v="locality" />
		<tag k="ssr:stedsnr" v="531828" />
	</node>
	<node id="-511913" lat="61.2310611127" lon="6.45177221474">
		<tag k="name" v="Soleiebakkane" />
		<tag k="natural" v="slope" />
		<tag k="place" v="locality" />
		<tag k="ssr:stedsnr" v="531811" />
	</node>
	<node id="-511912" lat="61.2017111152" lon="6.24741665852">
		<tag k="name" v="Geiteset" />
		<tag k="natural" v="valley" />
		<tag k="place" v="locality" />
		<tag k="ssr:stedsnr" v="531802" />
	</node>
	<node id="-511910" lat="61.303355558" lon="6.58138333747">
		<tag k="name" v="Øvstelegdi" />
		<tag k="natural" v="hill" />
		<tag k="place" v="locality" />
		<tag k="ssr:stedsnr" v="531786" />
	</node>
	<node id="-511909" lat="61.1963722266" lon="6.24582222148">
		<tag k="name" v="Oppkomeflaten" />
		<tag k="place" v="locality" />
		<tag k="ssr:stedsnr" v="531779" />
	</node>
	<node id="-511907" lat="61.1825638903" lon="6.2437861128">
		<tag k="name" v="Kaldagjelet" />
		<tag k="natural" v="valley" />
		<tag k="place" v="locality" />
		<tag k="ssr:stedsnr" v="531750" />
	</node>
	<node id="-511906" lat="61.1587194466" lon="6.26218334121">
		<tag k="name" v="Skitnavikreset" />
		<tag k="natural" v="hill" />
		<tag k="place" v="locality" />
		<tag k="ssr:stedsnr" v="531737" />
	</node>
	<node id="-511903" lat="61.1713000041" lon="6.31524166409">
		<tag k="name" v="Skålehalsen" />
		<tag k="natural" v="hill" />
		<tag k="place" v="locality" />
		<tag k="ssr:stedsnr" v="531691" />
	</node>
	<node id="-511902" lat="61.3462611086" lon="6.55239444294">
		<tag k="name" v="Killingøya" />
		<tag k="place" v="locality" />
		<tag k="ssr:stedsnr" v="531682" />
	</node>
	<node id="-511899" lat="61.2625972263" lon="6.47796110306">
		<tag k="name" v="Alterskori" />
		<tag k="natural" v="valley" />
		<tag k="place" v="locality" />
		<tag k="ssr:stedsnr" v="531622" />
	</node>
	<node id="-511898" lat="61.1398333354" lon="6.27165555702">
		<tag k="name" v="Stekkhamaren" />
		<tag k="natural" v="hill" />
		<tag k="place" v="locality" />
		<tag k="ssr:stedsnr" v="531620" />
	</node>
	<node id="-511897" lat="61.1412138852" lon="6.39053333167">
		<tag k="name" v="Heggebotn" />
		<tag k="natural" v="valley" />
		<tag k="place" v="locality" />
		<tag k="ssr:stedsnr" v="531302" />
	</node>
	<node id="-511894" lat="61.1363611148" lon="6.47118611462">
		<tag k="name" v="Skoganstøl" />
		<tag k="natural" v="slope" />
		<tag k="place" v="locality" />
		<tag k="ssr:stedsnr" v="531083" />
	</node>
	<node id="-511893" lat="61.1439722262" lon="6.49319444155">
		<tag k="name" v="Svarthamaren" />
		<tag k="natural" v="hill" />
		<tag k="place" v="locality" />
		<tag k="ssr:stedsnr" v="531068" />
	</node>
	<node id="-511891" lat="61.1887722192" lon="6.52304445195">
		<tag k="name" v="Rabbane" />
		<tag k="natural" v="hill" />
		<tag k="place" v="locality" />
		<tag k="ssr:stedsnr" v="531042" />
	</node>
	<node id="-511890" lat="61.1363138878" lon="6.43528889758">
		<tag k="name" v="Gryseteleite" />
		<tag k="natural" v="slope" />
		<tag k="place" v="locality" />
		<tag k="ssr:stedsnr" v="531037" />
	</node>
	<node id="-511889" lat="61.1260194483" lon="6.43509165802">
		<tag k="name" v="Ospedotten" />
		<tag k="natural" v="slope" />
		<tag k="place" v="locality" />
		<tag k="ssr:stedsnr" v="531035" />
	</node>
	<node id="-511888" lat="61.134330555" lon="6.44176110306">
		<tag k="name" v="Salsbrigd" />
		<tag k="natural" v="slope" />
		<tag k="place" v="locality" />
		<tag k="ssr:stedsnr" v="531030" />
	</node>
	<node id="-511885" lat="61.221647224" lon="6.50661389427">
		<tag k="name" v="Skreda" />
		<tag k="natural" v="valley" />
		<tag k="place" v="locality" />
		<tag k="ssr:stedsnr" v="530978" />
	</node>
	<node id="-511880" lat="61.2472083299" lon="6.53914999973">
		<tag k="name" v="Svartli" />
		<tag k="natural" v="slope" />
		<tag k="place" v="locality" />
		<tag k="ssr:stedsnr" v="530842" />
	</node>
	<node id="-511878" lat="61.1814583291" lon="6.19286943652">
		<tag k="name" v="Svarthammaren" />
		<tag k="natural" v="ridge" />
		<tag k="place" v="locality" />
		<tag k="ssr:stedsnr" v="530814" />
	</node>
	<node id="-511877" lat="61.1838944449" lon="6.18910556367">
		<tag k="name" v="Glennene" />
		<tag k="natural" v="hill" />
		<tag k="place" v="locality" />
		<tag k="ssr:stedsnr" v="530808" />
	</node>
	<node id="-511874" lat="61.1678722187" lon="6.18481944008">
		<tag k="name" v="Partvoll" />
		<tag k="natural" v="hill" />
		<tag k="place" v="locality" />
		<tag k="ssr:stedsnr" v="530775" />
	</node>
	<node id="-511873" lat="61.3012277814" lon="6.58422221506">
		<tag k="fixme" v="consider natural=peak for the most distinct mountains in the district" />
		<tag k="name" v="Killingholten" />
		<tag k="natural" v="hill" />
		<tag k="place" v="locality" />
		<tag k="ssr:stedsnr" v="530763" />
	</node>
	<node id="-511870" lat="61.2681555593" lon="6.5729472194">
		<tag k="name" v="Bjørnestigen" />
		<tag k="natural" v="slope" />
		<tag k="place" v="locality" />
		<tag k="ssr:stedsnr" v="530693" />
	</node>
	<node id="-511869" lat="61.3652472195" lon="6.55351667531">
		<tag k="name" v="Hovdareina" />
		<tag k="natural" v="slope" />
		<tag k="place" v="locality" />
		<tag k="ssr:stedsnr" v="530673" />
	</node>
	<node id="-511867" lat="61.1622888919" lon="6.35157778666">
		<tag k="fixme" v="consider natural=peak for the most distinct mountains in the district" />
		<tag k="name" v="Vareggi" />
		<tag k="natural" v="hill" />
		<tag k="place" v="locality" />
		<tag k="ssr:stedsnr" v="530482" />
	</node>
	<node id="-511866" lat="61.1558694464" lon="6.36089722457">
		<tag k="name" v="Vassbakkane" />
		<tag k="natural" v="slope" />
		<tag k="place" v="locality" />
		<tag k="ssr:stedsnr" v="530474" />
	</node>
	<node id="-511865" lat="61.1581861148" lon="6.33901944384">
		<tag k="fixme" v="consider natural=peak for the most distinct mountains in the district" />
		<tag k="name" v="Vetlehest" />
		<tag k="natural" v="hill" />
		<tag k="place" v="locality" />
		<tag k="ssr:stedsnr" v="530469" />
	</node>
	<node id="-511864" lat="61.1593166661" lon="6.29757222824">
		<tag k="fixme" v="consider natural=peak for the most distinct mountains in the district" />
		<tag k="name" v="Middagshaugen" />
		<tag k="natural" v="hill" />
		<tag k="place" v="locality" />
		<tag k="ssr:stedsnr" v="530448" />
	</node>
	<node id="-511859" lat="61.1571277793" lon="6.14363610537">
		<tag k="name" v="Storeskori" />
		<tag k="natural" v="hill" />
		<tag k="place" v="locality" />
		<tag k="ssr:stedsnr" v="522180" />
	</node>
	<node id="-511858" lat="61.1566833322" lon="6.14790555808">
		<tag k="name" v="Ormahaugen" />
		<tag k="natural" v="hill" />
		<tag k="place" v="locality" />
		<tag k="ssr:stedsnr" v="522177" />
	</node>
	<node id="-511857" lat="61.4135250038" lon="6.52900555069">
		<tag k="fixme" v="consider natural=peak for the most distinct mountains in the district" />
		<tag k="name" v="Sunnfjordbjørnen" />
		<tag k="natural" v="hill" />
		<tag k="ssr:stedsnr" v="506545" />
	</node>
	<node id="-511855" lat="61.4223444486" lon="6.57236667341">
		<tag k="fixme" v="consider natural=peak for the most distinct mountains in the district" />
		<tag k="name" v="Pendlebakknipa" />
		<tag k="natural" v="hill" />
		<tag k="ssr:stedsnr" v="506540" />
	</node>
	<node id="-511852" lat="61.1637666679" lon="6.32075832682">
		<tag k="alt_name" v="Breistøldalen" />
		<tag k="name" v="Breidstøldalen" />
		<tag k="natural" v="valley" />
		<tag k="place" v="locality" />
		<tag k="ssr:stedsnr" v="495641" />
	</node>
	<node id="-511846" lat="61.2024027762" lon="6.36525000807">
		<tag k="fixme" v="consider natural=peak for the most distinct mountains in the district" />
		<tag k="name" v="Geitabotneggi" />
		<tag k="natural" v="hill" />
		<tag k="place" v="locality" />
		<tag k="ssr:stedsnr" v="494684" />
	</node>
	<node id="-511839" lat="61.2431638899" lon="6.60253888384">
		<tag k="alt_name" v="Frykjelen" />
		<tag k="name" v="Frykkjelen" />
		<tag k="natural" v="slope" />
		<tag k="place" v="locality" />
		<tag k="ssr:stedsnr" v="494501" />
	</node>
	<node id="-511838" lat="61.1915833335" lon="6.18319721998">
		<tag k="name" v="Tjørndalen" />
		<tag k="natural" v="valley" />
		<tag k="place" v="locality" />
		<tag k="ssr:stedsnr" v="494326" />
	</node>
	<node id="-511837" lat="61.1683888931" lon="6.18071110455">
		<tag k="fixme" v="consider natural=peak for the most distinct mountains in the district" />
		<tag k="name" v="Kvitafjellet" />
		<tag k="natural" v="hill" />
		<tag k="place" v="locality" />
		<tag k="ssr:stedsnr" v="494321" />
	</node>
	<node id="-511834" lat="61.3112722225" lon="6.52298610266">
		<tag k="name" v="Eikjadalen" />
		<tag k="natural" v="valley" />
		<tag k="place" v="locality" />
		<tag k="ssr:stedsnr" v="493824" />
	</node>
	<node id="-511831" lat="61.2852944413" lon="6.44396667195">
		<tag k="fixme" v="consider natural=peak for the most distinct mountains in the district" />
		<tag k="name" v="Johannesberg" />
		<tag k="natural" v="hill" />
		<tag k="place" v="locality" />
		<tag k="ssr:stedsnr" v="493793" />
	</node>
	<node id="-511827" lat="61.2994638852" lon="6.52854999356">
		<tag k="alt_name" v="Vetlafjellet" />
		<tag k="fixme" v="consider natural=peak for the most distinct mountains in the district" />
		<tag k="name" v="Vetlefjell" />
		<tag k="natural" v="hill" />
		<tag k="place" v="locality" />
		<tag k="ssr:stedsnr" v="493775" />
	</node>
	<node id="-511826" lat="61.341022219" lon="6.53834444745">
		<tag k="alt_name" v="Slåkedalen" />
		<tag k="name" v="Slåkadalen" />
		<tag k="natural" v="valley" />
		<tag k="place" v="locality" />
		<tag k="ssr:stedsnr" v="493717" />
	</node>
	<node id="-511825" lat="61.4422250031" lon="6.61482221275">
		<tag k="fixme" v="consider natural=peak for the most distinct mountains in the district" />
		<tag k="name" v="Bjørnalægskarven" />
		<tag k="natural" v="hill" />
		<tag k="place" v="locality" />
		<tag k="ssr:stedsnr" v="493924" />
	</node>
	<node id="-511824" lat="61.4054722188" lon="6.6353694477">
		<tag k="fixme" v="consider natural=peak for the most distinct mountains in the district" />
		<tag k="name" v="Midtgretta" />
		<tag k="natural" v="hill" />
		<tag k="place" v="locality" />
		<tag k="ssr:stedsnr" v="493892" />
	</node>
	<node id="-511818" lat="61.3917361143" lon="6.54242778082">
		<tag k="name" v="Skaddalen" />
		<tag k="natural" v="valley" />
		<tag k="place" v="locality" />
		<tag k="ssr:stedsnr" v="492725" />
	</node>
	<node id="-511816" lat="61.2112000021" lon="6.50402777816">
		<tag k="name" v="Storahøgdi" />
		<tag k="natural" v="hill" />
		<tag k="place" v="locality" />
		<tag k="ssr:stedsnr" v="470983" />
	</node>
	<node id="-511815" lat="61.286561112" lon="6.50803055892">
		<tag k="fixme" v="consider natural=peak for the most distinct mountains in the district" />
		<tag k="name" v="Flåghamaren" />
		<tag k="natural" v="hill" />
		<tag k="place" v="locality" />
		<tag k="ssr:stedsnr" v="470954" />
	</node>
	<node id="-511813" lat="61.2266694437" lon="6.51247500471">
		<tag k="name" v="Skrenesgjelet" />
		<tag k="natural" v="gorge" />
		<tag k="ssr:stedsnr" v="470901" />
	</node>
	<node id="-511812" lat="61.222627779" lon="6.52419722014">
		<tag k="name" v="Leigdene" />
		<tag k="natural" v="valley" />
		<tag k="place" v="locality" />
		<tag k="ssr:stedsnr" v="470894" />
	</node>
	<node id="-511811" lat="61.2206916705" lon="6.54123611041">
		<tag k="name" v="Storehaug" />
		<tag k="natural" v="hill" />
		<tag k="place" v="locality" />
		<tag k="ssr:stedsnr" v="470889" />
	</node>
	<node id="-511810" lat="61.2285805512" lon="6.52864444322">
		<tag k="fixme" v="consider natural=peak for the most distinct mountains in the district" />
		<tag k="name" v="Gjedlaholten" />
		<tag k="natural" v="hill" />
		<tag k="place" v="locality" />
		<tag k="ssr:stedsnr" v="470887" />
	</node>
	<node id="-511809" lat="61.22118611" lon="6.53619999165">
		<tag k="name" v="Orraleiken" />
		<tag k="natural" v="slope" />
		<tag k="place" v="locality" />
		<tag k="ssr:stedsnr" v="470885" />
	</node>
	<node id="-511808" lat="61.305036109" lon="6.55233888035">
		<tag k="name" v="Tråna" />
		<tag k="natural" v="slope" />
		<tag k="place" v="locality" />
		<tag k="ssr:stedsnr" v="470877" />
	</node>
	<node id="-511807" lat="61.16441944" lon="6.20878888738">
		<tag k="name" v="Fiskhola" />
		<tag k="natural" v="hill" />
		<tag k="place" v="locality" />
		<tag k="ssr:stedsnr" v="470870" />
	</node>
	<node id="-511806" lat="61.1821527737" lon="6.22287221386">
		<tag k="name" v="Klovsteinane" />
		<tag k="natural" v="hill" />
		<tag k="place" v="locality" />
		<tag k="ssr:stedsnr" v="470858" />
	</node>
	<node id="-511805" lat="61.2447249963" lon="6.5482555537">
		<tag k="name" v="Snauhaug" />
		<tag k="natural" v="hill" />
		<tag k="place" v="locality" />
		<tag k="ssr:stedsnr" v="470853" />
	</node>
	<node id="-511802" lat="61.2913777807" lon="6.58323610281">
		<tag k="fixme" v="consider natural=peak for the most distinct mountains in the district" />
		<tag k="name" v="Daurmålsholten" />
		<tag k="natural" v="hill" />
		<tag k="place" v="locality" />
		<tag k="ssr:stedsnr" v="470843" />
	</node>
	<node id="-511800" lat="61.1596777788" lon="6.5277583242">
		<tag k="name" v="Hestvikagjelet" />
		<tag k="natural" v="valley" />
		<tag k="place" v="locality" />
		<tag k="ssr:stedsnr" v="470810" />
	</node>
	<node id="-511799" lat="61.3167305537" lon="6.58735833147">
		<tag k="name" v="Storeskori" />
		<tag k="natural" v="valley" />
		<tag k="place" v="locality" />
		<tag k="ssr:stedsnr" v="470805" />
	</node>
	<node id="-511798" lat="61.3350833342" lon="6.55643889338">
		<tag k="name" v="Hatlhaugane" />
		<tag k="natural" v="hill" />
		<tag k="place" v="locality" />
		<tag k="ssr:stedsnr" v="470796" />
	</node>
	<node id="-511795" lat="61.1973555512" lon="6.24212777197">
		<tag k="name" v="Heimste Svartebakken" />
		<tag k="natural" v="slope" />
		<tag k="place" v="locality" />
		<tag k="ssr:stedsnr" v="470762" />
	</node>
	<node id="-511794" lat="61.2641194456" lon="6.51810833153">
		<tag k="name" v="Strandagjelet" />
		<tag k="natural" v="valley" />
		<tag k="place" v="locality" />
		<tag k="ssr:stedsnr" v="470749" />
	</node>
	<node id="-511793" lat="61.2641111131" lon="6.46746944165">
		<tag k="name" v="Kvanngrøli" />
		<tag k="natural" v="slope" />
		<tag k="place" v="locality" />
		<tag k="ssr:stedsnr" v="470746" />
	</node>
	<node id="-511792" lat="61.2572750045" lon="6.52963333466">
		<tag k="name" v="Knulteren" />
		<tag k="natural" v="hill" />
		<tag k="place" v="locality" />
		<tag k="ssr:stedsnr" v="470743" />
	</node>
	<node id="-511789" lat="61.2739166695" lon="6.57528055573">
		<tag k="name" v="Furekamben" />
		<tag k="natural" v="ridge" />
		<tag k="place" v="locality" />
		<tag k="ssr:stedsnr" v="470681" />
	</node>
	<node id="-511788" lat="61.1849722193" lon="6.33645556491">
		<tag k="name" v="Skångdalen" />
		<tag k="natural" v="valley" />
		<tag k="place" v="locality" />
		<tag k="ssr:stedsnr" v="470680" />
	</node>
	<node id="-511787" lat="61.1557333326" lon="6.24241943953">
		<tag k="name" v="Dalsberget" />
		<tag k="natural" v="hill" />
		<tag k="place" v="locality" />
		<tag k="ssr:stedsnr" v="470675" />
	</node>
	<node id="-511785" lat="61.3481999973" lon="6.57202778644">
		<tag k="fixme" v="consider natural=peak for the most distinct mountains in the district" />
		<tag k="name" v="Holten" />
		<tag k="natural" v="hill" />
		<tag k="place" v="locality" />
		<tag k="ssr:stedsnr" v="470621" />
	</node>
	<node id="-511783" lat="61.1419527819" lon="6.25891667137">
		<tag k="name" v="Rauden" />
		<tag k="natural" v="hill" />
		<tag k="place" v="locality" />
		<tag k="ssr:stedsnr" v="470579" />
	</node>
	<node id="-511782" lat="61.1437333324" lon="6.25634722966">
		<tag k="name" v="Rørvikakastet" />
		<tag k="natural" v="hill" />
		<tag k="place" v="locality" />
		<tag k="ssr:stedsnr" v="470578" />
	</node>
	<node id="-511773" lat="61.1389333365" lon="6.31380554729">
		<tag k="fixme" v="consider natural=peak for the most distinct mountains in the district" />
		<tag k="name" v="Blåfjellet" />
		<tag k="natural" v="hill" />
		<tag k="place" v="locality" />
		<tag k="ssr:stedsnr" v="470225" />
	</node>
	<node id="-511772" lat="61.1922750032" lon="6.209261109">
		<tag k="fixme" v="consider natural=peak for the most distinct mountains in the district" />
		<tag k="name" v="Geitafjellet" />
		<tag k="natural" v="hill" />
		<tag k="place" v="locality" />
		<tag k="ssr:stedsnr" v="470149" />
	</node>
	<node id="-511771" lat="61.1339694444" lon="6.47534999524">
		<tag k="name" v="Midthamaren" />
		<tag k="natural" v="hill" />
		<tag k="place" v="locality" />
		<tag k="ssr:stedsnr" v="470076" />
	</node>
	<node id="-511770" lat="61.1395527795" lon="6.49426667436">
		<tag k="name" v="Brandtgjelet" />
		<tag k="natural" v="valley" />
		<tag k="place" v="locality" />
		<tag k="ssr:stedsnr" v="470070" />
	</node>
	<node id="-511766" lat="61.1756972182" lon="6.51231389089">
		<tag k="name" v="Plomesvavegen" />
		<tag k="natural" v="slope" />
		<tag k="place" v="locality" />
		<tag k="ssr:stedsnr" v="469991" />
	</node>
	<node id="-511763" lat="61.1673333334" lon="6.28130000664">
		<tag k="name" v="Blomstalhaugen" />
		<tag k="natural" v="hill" />
		<tag k="place" v="locality" />
		<tag k="ssr:stedsnr" v="470734" />
	</node>
	<node id="-511762" lat="61.156491666" lon="6.28640555606">
		<tag k="name" v="Bjødnastegen" />
		<tag k="natural" v="hill" />
		<tag k="place" v="locality" />
		<tag k="ssr:stedsnr" v="470725" />
	</node>
	<node id="-511760" lat="61.1332361144" lon="6.45063610239">
		<tag k="name" v="Skaret" />
		<tag k="natural" v="valley" />
		<tag k="place" v="locality" />
		<tag k="ssr:stedsnr" v="469017" />
	</node>
	<node id="-511759" lat="61.1723944478" lon="6.21804444836">
		<tag k="fixme" v="consider natural=peak for the most distinct mountains in the district" />
		<tag k="name" v="Raudgytta" />
		<tag k="natural" v="hill" />
		<tag k="place" v="locality" />
		<tag k="ssr:stedsnr" v="467854" />
	</node>
	<node id="-511757" lat="61.1924888934" lon="6.20260278108">
		<tag k="name" v="Raundalen" />
		<tag k="natural" v="valley" />
		<tag k="place" v="locality" />
		<tag k="ssr:stedsnr" v="461223" />
	</node>
	<node id="-511756" lat="61.1600694483" lon="6.1695361074">
		<tag k="name" v="Stølsgjelet" />
		<tag k="natural" v="gorge" />
		<tag k="ssr:stedsnr" v="461173" />
	</node>
	<node id="-511755" lat="61.3414805552" lon="6.56883333311">
		<tag k="alt_name" v="Meelsskredene" />
		<tag k="name" v="Melsskredene" />
		<tag k="natural" v="valley" />
		<tag k="place" v="locality" />
		<tag k="ssr:stedsnr" v="445664" />
	</node>
	<node id="-511754" lat="61.3453726069" lon="6.56151520735">
		<tag k="alt_name" v="Opsagjeili" />
		<tag k="name" v="Upsageili" />
		<tag k="natural" v="slope" />
		<tag k="place" v="locality" />
		<tag k="ssr:stedsnr" v="445665" />
	</node>
	<node id="-511750" lat="61.3305111153" lon="6.52386110401">
		<tag k="fixme" v="consider natural=peak for the most distinct mountains in the district" />
		<tag k="name" v="Bakkanipa" />
		<tag k="natural" v="hill" />
		<tag k="place" v="locality" />
		<tag k="ssr:stedsnr" v="433808" />
	</node>
	<node id="-511749" lat="61.3039916625" lon="6.45990832787">
		<tag k="name" v="Sværaskaret" />
		<tag k="natural" v="valley" />
		<tag k="place" v="locality" />
		<tag k="ssr:stedsnr" v="433776" />
	</node>
	<node id="-511748" lat="61.3396916632" lon="6.44637776944">
		<tag k="name" v="Nystølshaugane" />
		<tag k="natural" v="hill" />
		<tag k="place" v="locality" />
		<tag k="ssr:stedsnr" v="433714" />
	</node>
	<node id="-511747" lat="61.2934277778" lon="6.51565556167">
		<tag k="fixme" v="consider natural=peak for the most distinct mountains in the district" />
		<tag k="name" v="Blånipa" />
		<tag k="natural" v="hill" />
		<tag k="place" v="locality" />
		<tag k="ssr:stedsnr" v="432764" />
	</node>
	<node id="-511744" lat="61.2109111123" lon="6.26866388827">
		<tag k="name" v="Dyreskardet" />
		<tag k="natural" v="valley" />
		<tag k="place" v="locality" />
		<tag k="ssr:stedsnr" v="434684" />
	</node>
	<node id="-511735" lat="61.2800138913" lon="6.61973611247">
		<tag k="name" v="Nåberene" />
		<tag k="natural" v="slope" />
		<tag k="place" v="locality" />
		<tag k="ssr:stedsnr" v="432123" />
	</node>
	<node id="-511720" lat="61.2299583337" lon="6.48289722555">
		<tag k="name" v="Esebotn" />
		<tag k="natural" v="valley" />
		<tag k="place" v="locality" />
		<tag k="ssr:stedsnr" v="252654" />
	</node>
	<node id="-511718" lat="61.1394055569" lon="6.47356665783">
		<tag k="alt_name" v="Storagjelet" />
		<tag k="name" v="Storagilet" />
		<tag k="natural" v="valley" />
		<tag k="place" v="locality" />
		<tag k="ssr:stedsnr" v="252622" />
	</node>
	<node id="-511714" lat="61.2381017179" lon="6.61095066363">
		<tag k="fixme" v="consider natural=peak for the most distinct mountains in the district" />
		<tag k="name" v="Slettafjellet" />
		<tag k="natural" v="hill" />
		<tag k="place" v="locality" />
		<tag k="ssr:stedsnr" v="252498" />
	</node>
	<node id="-511713" lat="61.2465083307" lon="6.65711111064">
		<tag k="name" v="Perdalen" />
		<tag k="natural" v="valley" />
		<tag k="place" v="locality" />
		<tag k="ssr:stedsnr" v="252472" />
	</node>
	<node id="-511712" lat="61.1551944483" lon="6.47720000472">
		<tag k="name" v="Saurdalen" />
		<tag k="natural" v="valley" />
		<tag k="place" v="locality" />
		<tag k="ssr:stedsnr" v="251685" />
	</node>
	<node id="-511711" lat="61.2131750019" lon="6.20734165975">
		<tag k="fixme" v="consider natural=peak for the most distinct mountains in the district" />
		<tag k="name" v="Omnane" />
		<tag k="natural" v="hill" />
		<tag k="place" v="locality" />
		<tag k="ssr:stedsnr" v="251376" />
	</node>
	<node id="-511710" lat="61.4933666646" lon="6.69677499991">
		<tag k="fixme" v="consider natural=peak for the most distinct mountains in the district" />
		<tag k="name" v="Kvitevardane" />
		<tag k="natural" v="hill" />
		<tag k="place" v="locality" />
		<tag k="ssr:stedsnr" v="250856" />
	</node>
	<node id="-511709" lat="61.3107416694" lon="6.4697500019">
		<tag k="name" v="Vassdalen" />
		<tag k="natural" v="valley" />
		<tag k="place" v="locality" />
		<tag k="ssr:stedsnr" v="250787" />
	</node>
	<node id="-511706" lat="61.3005111082" lon="6.34477221323">
		<tag k="fixme" v="consider natural=peak for the most distinct mountains in the district" />
		<tag k="name" v="Strupsnova" />
		<tag k="natural" v="hill" />
		<tag k="place" v="locality" />
		<tag k="ssr:stedsnr" v="250753" />
	</node>
	<node id="-511703" lat="61.1643027754" lon="6.17648054831">
		<tag k="fixme" v="consider natural=peak for the most distinct mountains in the district" />
		<tag k="name" v="Åsen" />
		<tag k="natural" v="hill" />
		<tag k="place" v="locality" />
		<tag k="ssr:stedsnr" v="250442" />
	</node>
	<node id="-511700" lat="61.2193722217" lon="6.55636388169">
		<tag k="fixme" v="consider natural=peak for the most distinct mountains in the district" />
		<tag k="name" v="Klibberg" />
		<tag k="natural" v="hill" />
		<tag k="place" v="locality" />
		<tag k="ssr:stedsnr" v="228950" />
	</node>
	<node id="-511699" lat="61.2309388862" lon="6.52929166511">
		<tag k="name" v="Tunga" />
		<tag k="natural" v="slope" />
		<tag k="place" v="locality" />
		<tag k="ssr:stedsnr" v="228914" />
	</node>
	<node id="-511698" lat="61.2242861109" lon="6.537402782">
		<tag k="name" v="Liane" />
		<tag k="natural" v="slope" />
		<tag k="place" v="locality" />
		<tag k="ssr:stedsnr" v="228904" />
	</node>
	<node id="-511697" lat="61.3027527823" lon="6.53817778434">
		<tag k="fixme" v="consider natural=peak for the most distinct mountains in the district" />
		<tag k="name" v="Holten" />
		<tag k="natural" v="hill" />
		<tag k="place" v="locality" />
		<tag k="ssr:stedsnr" v="228894" />
	</node>
	<node id="-511696" lat="61.3478722247" lon="6.54141389612">
		<tag k="name" v="Småskredene" />
		<tag k="natural" v="gorge" />
		<tag k="ssr:stedsnr" v="228785" />
	</node>
	<node id="-511695" lat="61.3223166703" lon="6.57729722062">
		<tag k="name" v="Lerka" />
		<tag k="natural" v="slope" />
		<tag k="place" v="locality" />
		<tag k="ssr:stedsnr" v="228764" />
	</node>
	<node id="-511691" lat="61.1189166707" lon="6.38626944271">
		<tag k="name" v="Heingjebrekka" />
		<tag k="natural" v="slope" />
		<tag k="place" v="locality" />
		<tag k="ssr:stedsnr" v="228360" />
	</node>
	<node id="-511690" lat="61.1165444437" lon="6.36053611668">
		<tag k="name" v="Leiken" />
		<tag k="natural" v="slope" />
		<tag k="place" v="locality" />
		<tag k="ssr:stedsnr" v="228341" />
	</node>
	<node id="-511689" lat="61.1351694412" lon="6.29165000711">
		<tag k="name" v="Hagahola" />
		<tag k="natural" v="gorge" />
		<tag k="ssr:stedsnr" v="228250" />
	</node>
	<node id="-511688" lat="61.1354222211" lon="6.31025000387">
		<tag k="name" v="Strandahaugane" />
		<tag k="natural" v="hill" />
		<tag k="place" v="locality" />
		<tag k="ssr:stedsnr" v="228245" />
	</node>
	<node id="-511687" lat="61.1927805559" lon="6.22147778143">
		<tag k="name" v="Raudskreda" />
		<tag k="natural" v="valley" />
		<tag k="place" v="locality" />
		<tag k="ssr:stedsnr" v="228159" />
	</node>
	<node id="-511681" lat="61.1836805586" lon="6.51570000554">
		<tag k="name" v="Rausjedalen" />
		<tag k="natural" v="valley" />
		<tag k="place" v="locality" />
		<tag k="ssr:stedsnr" v="227876" />
	</node>
	<node id="-511680" lat="61.1863027761" lon="6.22598055459">
		<tag k="name" v="Grandane" />
		<tag k="place" v="locality" />
		<tag k="ssr:stedsnr" v="227850" />
	</node>
	<node id="-511679" lat="61.3100555522" lon="6.54862777744">
		<tag k="name" v="Steinbotn" />
		<tag k="natural" v="valley" />
		<tag k="place" v="locality" />
		<tag k="ssr:stedsnr" v="227842" />
	</node>
	<node id="-511675" lat="61.2442749987" lon="6.51619444571">
		<tag k="name" v="Farnesdalen" />
		<tag k="natural" v="valley" />
		<tag k="place" v="locality" />
		<tag k="ssr:stedsnr" v="227779" />
	</node>
	<node id="-511674" lat="61.3067333321" lon="6.56380555298">
		<tag k="name" v="Kyrkjeøyna" />
		<tag k="place" v="locality" />
		<tag k="ssr:stedsnr" v="227772" />
	</node>
	<node id="-511673" lat="61.1721361146" lon="6.18331388469">
		<tag k="name" v="Kornslåtten" />
		<tag k="natural" v="valley" />
		<tag k="place" v="locality" />
		<tag k="ssr:stedsnr" v="227770" />
	</node>
	<node id="-511672" lat="61.2987166639" lon="6.58121389372">
		<tag k="name" v="Fureholten" />
		<tag k="natural" v="hill" />
		<tag k="place" v="locality" />
		<tag k="ssr:stedsnr" v="227760" />
	</node>
	<node id="-511670" lat="61.2329277766" lon="6.53771944488">
		<tag k="name" v="Torsteinskreda" />
		<tag k="natural" v="valley" />
		<tag k="place" v="locality" />
		<tag k="ssr:stedsnr" v="227754" />
	</node>
	<node id="-511669" lat="61.3002138916" lon="6.56778611107">
		<tag k="name" v="Kolmila" />
		<tag k="natural" v="slope" />
		<tag k="place" v="locality" />
		<tag k="ssr:stedsnr" v="227752" />
	</node>
	<node id="-511667" lat="61.2637305572" lon="6.50760833168">
		<tag k="name" v="Langhamrane" />
		<tag k="natural" v="hill" />
		<tag k="place" v="locality" />
		<tag k="ssr:stedsnr" v="227742" />
	</node>
	<node id="-511661" lat="61.1481750002" lon="6.2628555493">
		<tag k="name" v="Seltuftakrokane" />
		<tag k="natural" v="slope" />
		<tag k="place" v="locality" />
		<tag k="ssr:stedsnr" v="227686" />
	</node>
	<node id="-511660" lat="61.1462944415" lon="6.26520278489">
		<tag k="fixme" v="consider natural=peak for the most distinct mountains in the district" />
		<tag k="name" v="Sunndalshaugen" />
		<tag k="natural" v="hill" />
		<tag k="place" v="locality" />
		<tag k="ssr:stedsnr" v="227685" />
	</node>
	<node id="-511659" lat="61.1896277753" lon="6.32764443553">
		<tag k="name" v="Snøbotnen" />
		<tag k="natural" v="valley" />
		<tag k="place" v="locality" />
		<tag k="ssr:stedsnr" v="227671" />
	</node>
	<node id="-511658" lat="61.3700555589" lon="6.56107500202">
		<tag k="name" v="Gjetlegjelet" />
		<tag k="natural" v="valley" />
		<tag k="place" v="locality" />
		<tag k="ssr:stedsnr" v="227642" />
	</node>
	<node id="-511657" lat="61.2620416652" lon="6.57363055894">
		<tag k="name" v="Slåttehamrane" />
		<tag k="natural" v="hill" />
		<tag k="place" v="locality" />
		<tag k="ssr:stedsnr" v="227623" />
	</node>
	<node id="-511655" lat="61.2638250038" lon="6.48986944705">
		<tag k="name" v="Oksli" />
		<tag k="natural" v="ridge" />
		<tag k="place" v="locality" />
		<tag k="ssr:stedsnr" v="227582" />
	</node>
	<node id="-511653" lat="61.1292166698" lon="6.34334444422">
		<tag k="name" v="Hellegalden" />
		<tag k="natural" v="hill" />
		<tag k="place" v="locality" />
		<tag k="ssr:stedsnr" v="227484" />
	</node>
	<node id="-511652" lat="61.160522226" lon="6.37023055339">
		<tag k="fixme" v="consider natural=peak for the most distinct mountains in the district" />
		<tag k="name" v="Lindehesten" />
		<tag k="natural" v="hill" />
		<tag k="place" v="locality" />
		<tag k="ssr:stedsnr" v="227448" />
	</node>
	<node id="-511650" lat="61.1310611101" lon="6.32804999228">
		<tag k="name" v="Stegen" />
		<tag k="natural" v="valley" />
		<tag k="place" v="locality" />
		<tag k="ssr:stedsnr" v="227273" />
	</node>
	<node id="-511649" lat="61.1447611114" lon="6.48214166493">
		<tag k="name" v="Branden" />
		<tag k="natural" v="hill" />
		<tag k="place" v="locality" />
		<tag k="ssr:stedsnr" v="227105" />
	</node>
	<node id="-511648" lat="61.1398805532" lon="6.49629444694">
		<tag k="name" v="Sprengsbakkane" />
		<tag k="natural" v="slope" />
		<tag k="place" v="locality" />
		<tag k="ssr:stedsnr" v="227106" />
	</node>
	<node id="-511647" lat="61.137441671" lon="6.50336944085">
		<tag k="name" v="Dalen" />
		<tag k="natural" v="valley" />
		<tag k="place" v="locality" />
		<tag k="ssr:stedsnr" v="227067" />
	</node>
	<node id="-511646" lat="61.2890361088" lon="6.48645000485">
		<tag k="name" v="Timravollen" />
		<tag k="natural" v="hill" />
		<tag k="place" v="locality" />
		<tag k="ssr:stedsnr" v="227048" />
	</node>
	<node id="-511644" lat="61.3053888853" lon="6.58923888584">
		<tag k="name" v="Storskreddalen" />
		<tag k="natural" v="valley" />
		<tag k="place" v="locality" />
		<tag k="ssr:stedsnr" v="226018" />
	</node>
	<node id="-511641" lat="61.1544805561" lon="6.5075500084">
		<tag k="name" v="Sauakleivi" />
		<tag k="natural" v="slope" />
		<tag k="place" v="locality" />
		<tag k="ssr:stedsnr" v="203977" />
	</node>
	<node id="-511635" lat="61.2080611112" lon="6.28606388511">
		<tag k="name" v="Geitabotnen" />
		<tag k="natural" v="valley" />
		<tag k="place" v="locality" />
		<tag k="ssr:stedsnr" v="191674" />
	</node>
	<node id="-511633" lat="61.213730559" lon="6.23362778016">
		<tag k="name" v="Steinskredbotnen" />
		<tag k="natural" v="valley" />
		<tag k="place" v="locality" />
		<tag k="ssr:stedsnr" v="191665" />
	</node>
	<node id="-511632" lat="61.2048999988" lon="6.26201667041">
		<tag k="name" v="Brudalen" />
		<tag k="natural" v="valley" />
		<tag k="place" v="locality" />
		<tag k="ssr:stedsnr" v="191662" />
	</node>
	<node id="-511626" lat="61.1353500022" lon="6.41303889365">
		<tag k="name" v="Haukedalsnipi" />
		<tag k="natural" v="hill" />
		<tag k="place" v="locality" />
		<tag k="ssr:stedsnr" v="191619" />
	</node>
	<node id="-511619" lat="61.1948027786" lon="6.18033889373">
		<tag k="name" v="Botnen" />
		<tag k="natural" v="valley" />
		<tag k="place" v="locality" />
		<tag k="ssr:stedsnr" v="191365" />
	</node>
	<node id="-511617" lat="61.2578666637" lon="6.50888056001">
		<tag k="name" v="Farnesholten" />
		<tag k="natural" v="hill" />
		<tag k="place" v="locality" />
		<tag k="ssr:stedsnr" v="190873" />
	</node>
	<node id="-511613" lat="61.3529055583" lon="6.50102778152">
		<tag k="name" v="Djupegjelsrabben" />
		<tag k="natural" v="hill" />
		<tag k="place" v="locality" />
		<tag k="ssr:stedsnr" v="190710" />
	</node>
	<node id="-511603" lat="61.2801111075" lon="6.51211389791">
		<tag k="name" v="Øyreskredteigen" />
		<tag k="natural" v="slope" />
		<tag k="place" v="locality" />
		<tag k="ssr:stedsnr" v="167973" />
	</node>
	<node id="-511602" lat="61.2792305512" lon="6.52558333065">
		<tag k="fixme" v="consider natural=peak for the most distinct mountains in the district" />
		<tag k="name" v="Fureholten" />
		<tag k="natural" v="hill" />
		<tag k="place" v="locality" />
		<tag k="ssr:stedsnr" v="167971" />
	</node>
	<node id="-511596" lat="61.1810444435" lon="6.22638056277">
		<tag k="name" v="Omnbakken" />
		<tag k="natural" v="slope" />
		<tag k="place" v="locality" />
		<tag k="ssr:stedsnr" v="167872" />
	</node>
	<node id="-511595" lat="61.3172666658" lon="6.56492776933">
		<tag k="name" v="Høgaloftet" />
		<tag k="natural" v="hill" />
		<tag k="place" v="locality" />
		<tag k="ssr:stedsnr" v="167869" />
	</node>
	<node id="-511594" lat="61.3037777765" lon="6.53507500466">
		<tag k="name" v="Vetlebotn" />
		<tag k="natural" v="valley" />
		<tag k="place" v="locality" />
		<tag k="ssr:stedsnr" v="167836" />
	</node>
	<node id="-511593" lat="61.1625472214" lon="6.53861388043">
		<tag k="name" v="Volladalen" />
		<tag k="natural" v="valley" />
		<tag k="place" v="locality" />
		<tag k="ssr:stedsnr" v="167823" />
	</node>
	<node id="-511592" lat="61.1842500027" lon="6.2444305592">
		<tag k="name" v="Øystehesi" />
		<tag k="natural" v="hill" />
		<tag k="place" v="locality" />
		<tag k="ssr:stedsnr" v="167783" />
	</node>
	<node id="-511591" lat="61.1958972206" lon="6.23324723143">
		<tag k="name" v="Kleiveskori" />
		<tag k="natural" v="valley" />
		<tag k="place" v="locality" />
		<tag k="ssr:stedsnr" v="167777" />
	</node>
	<node id="-511589" lat="61.1502805522" lon="6.24734443976">
		<tag k="name" v="Vetlehelvete" />
		<tag k="natural" v="hill" />
		<tag k="place" v="locality" />
		<tag k="ssr:stedsnr" v="167741" />
	</node>
	<node id="-511588" lat="61.3243027777" lon="6.55938333269">
		<tag k="name" v="Rabbane" />
		<tag k="natural" v="hill" />
		<tag k="place" v="locality" />
		<tag k="ssr:stedsnr" v="167727" />
	</node>
	<node id="-511584" lat="61.1420833326" lon="6.38447222571">
		<tag k="name" v="Kleven" />
		<tag k="natural" v="slope" />
		<tag k="place" v="locality" />
		<tag k="ssr:stedsnr" v="167298" />
	</node>
	<node id="-511582" lat="61.194441664" lon="6.22057778699">
		<tag k="name" v="Storli" />
		<tag k="natural" v="slope" />
		<tag k="place" v="locality" />
		<tag k="ssr:stedsnr" v="167182" />
	</node>
	<node id="-511580" lat="61.1766166645" lon="6.16030555899">
		<tag k="name" v="Bykset" />
		<tag k="natural" v="hill" />
		<tag k="place" v="locality" />
		<tag k="ssr:stedsnr" v="167144" />
	</node>
	<node id="-511578" lat="61.2031666673" lon="6.5071499936">
		<tag k="name" v="Grønelii" />
		<tag k="natural" v="slope" />
		<tag k="place" v="locality" />
		<tag k="ssr:stedsnr" v="167041" />
	</node>
	<node id="-511577" lat="61.1256749972" lon="6.42001944596">
		<tag k="name" v="Haukedalsbakkane" />
		<tag k="natural" v="slope" />
		<tag k="place" v="locality" />
		<tag k="ssr:stedsnr" v="167037" />
	</node>
	<node id="-511576" lat="61.142855558" lon="6.52418332604">
		<tag k="name" v="Halvfarhilleren" />
		<tag k="place" v="locality" />
		<tag k="ssr:stedsnr" v="167031" />
	</node>
	<node id="-511573" lat="61.2264777754" lon="6.49726388662">
		<tag k="name" v="Vetlagjelet" />
		<tag k="natural" v="gorge" />
		<tag k="ssr:stedsnr" v="166991" />
	</node>
	<node id="-511571" lat="61.2209000023" lon="6.48185000756">
		<tag k="name" v="Merkesgjelet" />
		<tag k="natural" v="gorge" />
		<tag k="ssr:stedsnr" v="166930" />
	</node>
	<node id="-511570" lat="61.2816611141" lon="6.53628611869">
		<tag k="fixme" v="consider natural=peak for the most distinct mountains in the district" />
		<tag k="name" v="Kvitebergholten" />
		<tag k="natural" v="hill" />
		<tag k="place" v="locality" />
		<tag k="ssr:stedsnr" v="166900" />
	</node>
	<node id="-511569" lat="61.2277499982" lon="6.5086000055">
		<tag k="fixme" v="consider natural=peak for the most distinct mountains in the district" />
		<tag k="name" v="Skrenesholten" />
		<tag k="natural" v="hill" />
		<tag k="place" v="locality" />
		<tag k="ssr:stedsnr" v="166890" />
	</node>
	<node id="-511568" lat="61.2847444467" lon="6.56738334172">
		<tag k="name" v="Svartaberg" />
		<tag k="natural" v="hill" />
		<tag k="place" v="locality" />
		<tag k="ssr:stedsnr" v="166841" />
	</node>
	<node id="-511567" lat="61.3337277765" lon="6.54651666429">
		<tag k="fixme" v="consider natural=peak for the most distinct mountains in the district" />
		<tag k="name" v="Hatlhaugfjellet" />
		<tag k="natural" v="hill" />
		<tag k="place" v="locality" />
		<tag k="ssr:stedsnr" v="166797" />
	</node>
	<node id="-511566" lat="61.232822218" lon="6.45981944613">
		<tag k="name" v="Bjødnafura" />
		<tag k="natural" v="valley" />
		<tag k="place" v="locality" />
		<tag k="ssr:stedsnr" v="166785" />
	</node>
	<node id="-511565" lat="61.2345611077" lon="6.45498054775">
		<tag k="name" v="Gulleple" />
		<tag k="natural" v="hill" />
		<tag k="place" v="locality" />
		<tag k="ssr:stedsnr" v="166784" />
	</node>
	<node id="-511562" lat="61.2653222202" lon="6.5100750047">
		<tag k="name" v="Geishamrane" />
		<tag k="natural" v="hill" />
		<tag k="place" v="locality" />
		<tag k="ssr:stedsnr" v="166737" />
	</node>
	<node id="-511558" lat="61.1653499971" lon="6.34207499428">
		<tag k="name" v="Grønebotna" />
		<tag k="natural" v="valley" />
		<tag k="place" v="locality" />
		<tag k="ssr:stedsnr" v="166445" />
	</node>
	<node id="-511557" lat="61.1638222222" lon="6.30780554819">
		<tag k="name" v="Rusti" />
		<tag k="natural" v="ridge" />
		<tag k="place" v="locality" />
		<tag k="ssr:stedsnr" v="166431" />
	</node>
	<node id="-511555" lat="61.2990361073" lon="6.46813332616">
		<tag k="name" v="Blomhola" />
		<tag k="natural" v="valley" />
		<tag k="place" v="locality" />
		<tag k="ssr:stedsnr" v="166036" />
	</node>
	<node id="-511551" lat="61.1599277775" lon="6.52332222931">
		<tag k="name" v="Tunga" />
		<tag k="natural" v="slope" />
		<tag k="place" v="locality" />
		<tag k="ssr:stedsnr" v="141993" />
	</node>
	<node id="-511550" lat="61.1458333367" lon="6.51695000565">
		<tag k="name" v="Honndalsskaret" />
		<tag k="natural" v="valley" />
		<tag k="place" v="locality" />
		<tag k="ssr:stedsnr" v="141973" />
	</node>
	<node id="-511549" lat="61.1498166623" lon="6.52239444387">
		<tag k="name" v="Svarthamrane" />
		<tag k="natural" v="hill" />
		<tag k="place" v="locality" />
		<tag k="ssr:stedsnr" v="141963" />
	</node>
	<node id="-511546" lat="61.1575055587" lon="6.39333333669">
		<tag k="name" v="Geitafjellet" />
		<tag k="natural" v="hill" />
		<tag k="place" v="locality" />
		<tag k="ssr:stedsnr" v="131638" />
	</node>
	<node id="-511531" lat="61.1389805516" lon="6.2993750055">
		<tag k="name" v="Ulvedalen" />
		<tag k="natural" v="valley" />
		<tag k="place" v="locality" />
		<tag k="ssr:stedsnr" v="130620" />
	</node>
	<node id="-511528" lat="61.3500083377" lon="6.59526666336">
		<tag k="fixme" v="multiple name tags, choose one and add the other to alt_name; consider natural=peak for the most distinct mountains in the district" />
		<tag k="name" v="Melsnipa;Trollakyrkja" />
		<tag k="natural" v="hill" />
		<tag k="place" v="locality" />
		<tag k="ssr:stedsnr" v="129939" />
	</node>
	<node id="-511527" lat="61.2776361106" lon="6.5898694492">
		<tag k="fixme" v="consider natural=peak for the most distinct mountains in the district" />
		<tag k="name" v="Meneseggi" />
		<tag k="natural" v="hill" />
		<tag k="place" v="locality" />
		<tag k="ssr:stedsnr" v="129849" />
	</node>
	<node id="-511522" lat="61.3003138897" lon="6.37245555704">
		<tag k="alt_name" v="Stolen" />
		<tag k="fixme" v="consider natural=peak for the most distinct mountains in the district" />
		<tag k="name" v="Kvanngrøfjellet" />
		<tag k="natural" v="hill" />
		<tag k="place" v="locality" />
		<tag k="ssr:stedsnr" v="129767" />
	</node>
	<node id="-511520" lat="61.3403000009" lon="6.42190556103">
		<tag k="name" v="Tverrlihamrane" />
		<tag k="natural" v="hill" />
		<tag k="place" v="locality" />
		<tag k="ssr:stedsnr" v="129714" />
	</node>
	<node id="-511518" lat="61.3112472185" lon="6.79327777599">
		<tag k="fixme" v="consider natural=peak for the most distinct mountains in the district" />
		<tag k="name" v="Ryssebotnrana" />
		<tag k="natural" v="hill" />
		<tag k="place" v="locality" />
		<tag k="ssr:stedsnr" v="129246" />
	</node>
	<node id="-511512" lat="61.2886083371" lon="6.53646666282">
		<tag k="fixme" v="consider natural=peak for the most distinct mountains in the district" />
		<tag k="name" v="Skorfjellet" />
		<tag k="natural" v="hill" />
		<tag k="place" v="locality" />
		<tag k="ssr:stedsnr" v="107946" />
	</node>
	<node id="-511510" lat="61.2281027767" lon="6.54133333865">
		<tag k="name" v="Brennene" />
		<tag k="natural" v="hill" />
		<tag k="place" v="locality" />
		<tag k="ssr:stedsnr" v="107909" />
	</node>
	<node id="-511509" lat="61.320866665" lon="6.5689250064">
		<tag k="name" v="Vatnaskredhaugen" />
		<tag k="natural" v="hill" />
		<tag k="place" v="locality" />
		<tag k="ssr:stedsnr" v="107739" />
	</node>
	<node id="-511503" lat="61.1164555585" lon="6.4282416589">
		<tag k="name" v="Hatlefletene" />
		<tag k="natural" v="slope" />
		<tag k="place" v="locality" />
		<tag k="ssr:stedsnr" v="106929" />
	</node>
	<node id="-511502" lat="61.2114527773" lon="6.5221166732">
		<tag k="name" v="Storesva" />
		<tag k="natural" v="hill" />
		<tag k="place" v="locality" />
		<tag k="ssr:stedsnr" v="106898" />
	</node>
	<node id="-511501" lat="61.2197138933" lon="6.5977972204">
		<tag k="name" v="Uragjelet" />
		<tag k="natural" v="gorge" />
		<tag k="ssr:stedsnr" v="106891" />
	</node>
	<node id="-511499" lat="61.2988361139" lon="6.53931110186">
		<tag k="name" v="Ramsteindalen" />
		<tag k="natural" v="valley" />
		<tag k="place" v="locality" />
		<tag k="ssr:stedsnr" v="106874" />
	</node>
	<node id="-511498" lat="61.2446611154" lon="6.53363332767">
		<tag k="name" v="Nonhaugane" />
		<tag k="natural" v="hill" />
		<tag k="place" v="locality" />
		<tag k="ssr:stedsnr" v="106859" />
	</node>
	<node id="-511493" lat="61.1739472249" lon="6.17599999408">
		<tag k="name" v="Teigali" />
		<tag k="natural" v="slope" />
		<tag k="place" v="locality" />
		<tag k="ssr:stedsnr" v="106792" />
	</node>
	<node id="-511492" lat="61.2341611071" lon="6.46892222882">
		<tag k="name" v="Plitten" />
		<tag k="natural" v="hill" />
		<tag k="place" v="locality" />
		<tag k="ssr:stedsnr" v="106791" />
	</node>
	<node id="-511491" lat="61.1707749974" lon="6.18897500276">
		<tag k="name" v="Åregjelet" />
		<tag k="natural" v="valley" />
		<tag k="place" v="locality" />
		<tag k="ssr:stedsnr" v="106789" />
	</node>
	<node id="-511490" lat="61.1982805518" lon="6.23623610452">
		<tag k="name" v="Lurvenstova" />
		<tag k="natural" v="hill" />
		<tag k="place" v="locality" />
		<tag k="ssr:stedsnr" v="106782" />
	</node>
	<node id="-511488" lat="61.2982027795" lon="6.57693332736">
		<tag k="name" v="Bergi" />
		<tag k="natural" v="hill" />
		<tag k="place" v="locality" />
		<tag k="ssr:stedsnr" v="106768" />
	</node>
	<node id="-511484" lat="61.1611972245" lon="6.28398888115">
		<tag k="name" v="Brennesetreset" />
		<tag k="natural" v="slope" />
		<tag k="place" v="locality" />
		<tag k="ssr:stedsnr" v="106733" />
	</node>
	<node id="-511483" lat="61.1524055587" lon="6.24748888256">
		<tag k="name" v="Almbotnen" />
		<tag k="natural" v="valley" />
		<tag k="place" v="locality" />
		<tag k="ssr:stedsnr" v="106710" />
	</node>
	<node id="-511482" lat="61.3628805515" lon="6.54581388489">
		<tag k="name" v="Hovdali" />
		<tag k="natural" v="slope" />
		<tag k="place" v="locality" />
		<tag k="ssr:stedsnr" v="106669" />
	</node>
	<node id="-511480" lat="61.2651972216" lon="6.57681388926">
		<tag k="name" v="Hatlagjelet" />
		<tag k="natural" v="gorge" />
		<tag k="ssr:stedsnr" v="106619" />
	</node>
	<node id="-511478" lat="61.2590833327" lon="6.47443055882">
		<tag k="name" v="Kvitlene" />
		<tag k="place" v="locality" />
		<tag k="ssr:stedsnr" v="106564" />
	</node>
	<node id="-511477" lat="61.1320749956" lon="6.34544999588">
		<tag k="name" v="Rabnahaug" />
		<tag k="natural" v="hill" />
		<tag k="place" v="locality" />
		<tag k="ssr:stedsnr" v="106464" />
	</node>
	<node id="-511476" lat="61.1222722225" lon="6.39367222532">
		<tag k="name" v="Sjuskedalen" />
		<tag k="natural" v="valley" />
		<tag k="place" v="locality" />
		<tag k="ssr:stedsnr" v="106333" />
	</node>
	<node id="-511474" lat="61.1286222232" lon="6.36840832871">
		<tag k="fixme" v="consider natural=peak for the most distinct mountains in the district" />
		<tag k="name" v="Øykjafjellet" />
		<tag k="natural" v="hill" />
		<tag k="place" v="locality" />
		<tag k="ssr:stedsnr" v="106292" />
	</node>
	<node id="-511472" lat="61.1235472245" lon="6.45255832502">
		<tag k="name" v="Skitnaklypa" />
		<tag k="natural" v="hill" />
		<tag k="place" v="locality" />
		<tag k="ssr:stedsnr" v="106129" />
	</node>
	<node id="-511471" lat="61.133230556" lon="6.49284165816">
		<tag k="name" v="Stabburhaugen" />
		<tag k="natural" v="hill" />
		<tag k="place" v="locality" />
		<tag k="ssr:stedsnr" v="106090" />
	</node>
	<node id="-511470" lat="61.3451583326" lon="6.56923056018">
		<tag k="name" v="Opsegjelet" />
		<tag k="natural" v="gorge" />
		<tag k="ssr:stedsnr" v="106087" />
	</node>
	<node id="-511467" lat="61.1522111132" lon="6.49858333561">
		<tag k="name" v="Halvfaret" />
		<tag k="natural" v="hill" />
		<tag k="place" v="locality" />
		<tag k="ssr:stedsnr" v="105983" />
	</node>
	<node id="-511466" lat="61.2882111125" lon="6.49475556028">
		<tag k="name" v="Kluftahaugen" />
		<tag k="natural" v="hill" />
		<tag k="place" v="locality" />
		<tag k="ssr:stedsnr" v="105958" />
	</node>
	<node id="-511465" lat="61.2300361143" lon="6.47311111769">
		<tag k="name" v="Storebakken" />
		<tag k="natural" v="slope" />
		<tag k="place" v="locality" />
		<tag k="ssr:stedsnr" v="105943" />
	</node>
	<node id="-511463" lat="61.2671555536" lon="6.49830278566">
		<tag k="name" v="Dalsli" />
		<tag k="natural" v="slope" />
		<tag k="place" v="locality" />
		<tag k="ssr:stedsnr" v="105606" />
	</node>
	<node id="-511461" lat="61.2905361121" lon="6.47115555583">
		<tag k="name" v="Skorane" />
		<tag k="natural" v="valley" />
		<tag k="place" v="locality" />
		<tag k="ssr:stedsnr" v="105030" />
	</node>
	<node id="-511460" lat="61.1888944469" lon="6.36431388311">
		<tag k="name" v="Nip" />
		<tag k="natural" v="hill" />
		<tag k="place" v="locality" />
		<tag k="ssr:stedsnr" v="70752" />
	</node>
	<node id="-511459" lat="61.1768277739" lon="6.25796112024">
		<tag k="fixme" v="consider natural=peak for the most distinct mountains in the district" />
		<tag k="name" v="Skorfjellet" />
		<tag k="natural" v="hill" />
		<tag k="place" v="locality" />
		<tag k="ssr:stedsnr" v="70750" />
	</node>
	<node id="-511456" lat="61.1766611119" lon="6.39556389239">
		<tag k="fixme" v="consider natural=peak for the most distinct mountains in the district" />
		<tag k="name" v="Ljossalen" />
		<tag k="natural" v="hill" />
		<tag k="place" v="locality" />
		<tag k="ssr:stedsnr" v="70743" />
	</node>
	<node id="-511455" lat="61.1738000038" lon="6.34842499083">
		<tag k="name" v="Grønebotnen" />
		<tag k="natural" v="valley" />
		<tag k="place" v="locality" />
		<tag k="ssr:stedsnr" v="70742" />
	</node>
	<node id="-511452" lat="61.211011109" lon="6.28893888519">
		<tag k="name" v="Dyreskardeggi" />
		<tag k="natural" v="ridge" />
		<tag k="place" v="locality" />
		<tag k="ssr:stedsnr" v="70728" />
	</node>
	<node id="-511451" lat="61.168225002" lon="6.42691110561">
		<tag k="fixme" v="consider natural=peak for the most distinct mountains in the district" />
		<tag k="name" v="Flaug" />
		<tag k="natural" v="hill" />
		<tag k="place" v="locality" />
		<tag k="ssr:stedsnr" v="70636" />
	</node>
	<node id="-511450" lat="61.1579277765" lon="6.25313055369">
		<tag k="name" v="Høganhaug" />
		<tag k="natural" v="hill" />
		<tag k="place" v="locality" />
		<tag k="ssr:stedsnr" v="70632" />
	</node>
	<node id="-511449" lat="61.1644888911" lon="6.5266611105">
		<tag k="name" v="Brestesete" />
		<tag k="natural" v="slope" />
		<tag k="place" v="locality" />
		<tag k="ssr:stedsnr" v="70614" />
	</node>
	<node id="-511443" lat="61.2248666683" lon="6.34077499545">
		<tag k="fixme" v="consider natural=peak for the most distinct mountains in the district" />
		<tag k="name" v="Norddalsnovi" />
		<tag k="natural" v="hill" />
		<tag k="place" v="locality" />
		<tag k="ssr:stedsnr" v="70698" />
	</node>
	<node id="-511439" lat="61.2472027793" lon="6.64902500526">
		<tag k="fixme" v="consider natural=peak for the most distinct mountains in the district" />
		<tag k="name" v="Syringaholten" />
		<tag k="natural" v="hill" />
		<tag k="place" v="locality" />
		<tag k="ssr:stedsnr" v="70499" />
	</node>
	<node id="-511436" lat="61.3224500028" lon="6.51978611907">
		<tag k="fixme" v="consider natural=peak for the most distinct mountains in the district" />
		<tag k="name" v="Vatnaskredfjellet" />
		<tag k="natural" v="hill" />
		<tag k="place" v="locality" />
		<tag k="ssr:stedsnr" v="69839" />
	</node>
	<node id="-511435" lat="61.3212805584" lon="6.4250749971">
		<tag k="fixme" v="consider natural=peak for the most distinct mountains in the district" />
		<tag k="name" v="Flatfjell" />
		<tag k="natural" v="hill" />
		<tag k="place" v="locality" />
		<tag k="ssr:stedsnr" v="69837" />
	</node>
	<node id="-511434" lat="61.3013583376" lon="6.48150555772">
		<tag k="fixme" v="consider natural=peak for the most distinct mountains in the district" />
		<tag k="name" v="Raudnipa" />
		<tag k="natural" v="hill" />
		<tag k="place" v="locality" />
		<tag k="ssr:stedsnr" v="69779" />
	</node>
	<node id="-511429" lat="61.3310444448" lon="6.47243056106">
		<tag k="name" v="Vetle Eikjadalen" />
		<tag k="natural" v="valley" />
		<tag k="place" v="locality" />
		<tag k="ssr:stedsnr" v="68789" />
	</node>
	<node id="-511427" lat="61.2782166627" lon="6.72537777885">
		<tag k="fixme" v="consider natural=peak for the most distinct mountains in the district" />
		<tag k="name" v="Brikteggi" />
		<tag k="natural" v="hill" />
		<tag k="place" v="locality" />
		<tag k="ssr:stedsnr" v="68134" />
	</node>
	<node id="-511420" lat="61.2955638906" lon="6.58166388915">
		<tag k="name" v="Tungene" />
		<tag k="natural" v="ridge" />
		<tag k="place" v="locality" />
		<tag k="ssr:stedsnr" v="46840" />
	</node>
	<node id="-511417" lat="61.138580551" lon="6.27019999548">
		<tag k="name" v="Kyraskor" />
		<tag k="natural" v="valley" />
		<tag k="place" v="locality" />
		<tag k="ssr:stedsnr" v="46639" />
	</node>
	<node id="-511416" lat="61.1373777754" lon="6.27035833978">
		<tag k="name" v="Seberg" />
		<tag k="natural" v="slope" />
		<tag k="place" v="locality" />
		<tag k="ssr:stedsnr" v="46620" />
	</node>
	<node id="-511413" lat="61.1213222202" lon="6.38944999732">
		<tag k="name" v="Glehamaren" />
		<tag k="natural" v="hill" />
		<tag k="place" v="locality" />
		<tag k="ssr:stedsnr" v="46344" />
	</node>
	<node id="-511411" lat="61.1898166688" lon="6.21608888374">
		<tag k="name" v="Kariskreda" />
		<tag k="natural" v="valley" />
		<tag k="place" v="locality" />
		<tag k="ssr:stedsnr" v="46161" />
	</node>
	<node id="-511410" lat="61.1907777806" lon="6.22907223068">
		<tag k="name" v="Vetlehagen" />
		<tag k="natural" v="slope" />
		<tag k="place" v="locality" />
		<tag k="ssr:stedsnr" v="46155" />
	</node>
	<node id="-511408" lat="61.2243194402" lon="6.49563333912">
		<tag k="name" v="Tråna" />
		<tag k="natural" v="slope" />
		<tag k="place" v="locality" />
		<tag k="ssr:stedsnr" v="45990" />
	</node>
	<node id="-511407" lat="61.1748888909" lon="6.50432777392">
		<tag k="name" v="Tungene" />
		<tag k="natural" v="hill" />
		<tag k="place" v="locality" />
		<tag k="ssr:stedsnr" v="45984" />
	</node>
	<node id="-511406" lat="61.2281499976" lon="6.50188611838">
		<tag k="fixme" v="consider natural=peak for the most distinct mountains in the district" />
		<tag k="name" v="Kvalheimsholten" />
		<tag k="natural" v="hill" />
		<tag k="place" v="locality" />
		<tag k="ssr:stedsnr" v="45971" />
	</node>
	<node id="-511405" lat="61.2103972181" lon="6.50243332695">
		<tag k="name" v="Okshamaren" />
		<tag k="natural" v="hill" />
		<tag k="place" v="locality" />
		<tag k="ssr:stedsnr" v="45961" />
	</node>
	<node id="-511403" lat="61.1799916642" lon="6.53181667562">
		<tag k="name" v="Skinandehola" />
		<tag k="natural" v="valley" />
		<tag k="place" v="locality" />
		<tag k="ssr:stedsnr" v="45954" />
	</node>
	<node id="-511402" lat="61.2252472264" lon="6.47818611226">
		<tag k="fixme" v="consider natural=peak for the most distinct mountains in the district" />
		<tag k="name" v="Ramnaberg" />
		<tag k="natural" v="hill" />
		<tag k="place" v="locality" />
		<tag k="ssr:stedsnr" v="45930" />
	</node>
	<node id="-511401" lat="61.226213885" lon="6.48138333958">
		<tag k="name" v="Hermundhaug" />
		<tag k="natural" v="hill" />
		<tag k="place" v="locality" />
		<tag k="ssr:stedsnr" v="45929" />
	</node>
	<node id="-511399" lat="61.2757222228" lon="6.530938892">
		<tag k="name" v="Leiken" />
		<tag k="natural" v="hill" />
		<tag k="place" v="locality" />
		<tag k="ssr:stedsnr" v="45898" />
	</node>
	<node id="-511398" lat="61.2187055534" lon="6.54191389059">
		<tag k="name" v="Lydarhaug" />
		<tag k="natural" v="hill" />
		<tag k="place" v="locality" />
		<tag k="ssr:stedsnr" v="45873" />
	</node>
	<node id="-511397" lat="61.3161027763" lon="6.56121387968">
		<tag k="fixme" v="consider natural=peak for the most distinct mountains in the district" />
		<tag k="name" v="Korfjellet" />
		<tag k="natural" v="hill" />
		<tag k="place" v="locality" />
		<tag k="ssr:stedsnr" v="45848" />
	</node>
	<node id="-511394" lat="61.2407472249" lon="6.60292778152">
		<tag k="name" v="Storospi" />
		<tag k="natural" v="hill" />
		<tag k="place" v="locality" />
		<tag k="ssr:stedsnr" v="45817" />
	</node>
	<node id="-511393" lat="61.1987833299" lon="6.43548333016">
		<tag k="name" v="Flatbotn" />
		<tag k="natural" v="valley" />
		<tag k="place" v="locality" />
		<tag k="ssr:stedsnr" v="45788" />
	</node>
	<node id="-511392" lat="61.2143361098" lon="6.46542500719">
		<tag k="name" v="Tunga" />
		<tag k="natural" v="valley" />
		<tag k="place" v="locality" />
		<tag k="ssr:stedsnr" v="45786" />
	</node>
	<node id="-511391" lat="61.1868388925" lon="6.24310555501">
		<tag k="name" v="Skorabakkane" />
		<tag k="natural" v="slope" />
		<tag k="place" v="locality" />
		<tag k="ssr:stedsnr" v="45766" />
	</node>
	<node id="-511389" lat="61.1962277751" lon="6.24074443697">
		<tag k="name" v="Hatlefleten" />
		<tag k="natural" v="hill" />
		<tag k="place" v="locality" />
		<tag k="ssr:stedsnr" v="45755" />
	</node>
	<node id="-511388" lat="61.1983055531" lon="6.24955278464">
		<tag k="name" v="Galdane" />
		<tag k="natural" v="gorge" />
		<tag k="ssr:stedsnr" v="45748" />
	</node>
	<node id="-511385" lat="61.154383329" lon="6.25121388077">
		<tag k="name" v="Augnemålshaugen" />
		<tag k="natural" v="hill" />
		<tag k="place" v="locality" />
		<tag k="ssr:stedsnr" v="45708" />
	</node>
	<node id="-511383" lat="61.3616833366" lon="6.57107222418">
		<tag k="name" v="Vegghamaren" />
		<tag k="natural" v="hill" />
		<tag k="place" v="locality" />
		<tag k="ssr:stedsnr" v="45633" />
	</node>
	<node id="-511382" lat="61.1236166677" lon="6.33928610752">
		<tag k="name" v="Merket" />
		<tag k="natural" v="slope" />
		<tag k="place" v="locality" />
		<tag k="ssr:stedsnr" v="45274" />
	</node>
	<node id="-511381" lat="61.1143213145" lon="6.45418585882">
		<tag k="alt_name" v="Brurahaugen" />
		<tag k="name" v="Bruahaug" />
		<tag k="natural" v="hill" />
		<tag k="place" v="locality" />
		<tag k="ssr:stedsnr" v="45131" />
	</node>
	<node id="-511380" lat="61.116058329" lon="6.4448388823">
		<tag k="name" v="Nestehaugsflaten" />
		<tag k="place" v="locality" />
		<tag k="ssr:stedsnr" v="45122" />
	</node>
	<node id="-511379" lat="61.1173750039" lon="6.44903055325">
		<tag k="name" v="Sagadalen" />
		<tag k="natural" v="valley" />
		<tag k="place" v="locality" />
		<tag k="ssr:stedsnr" v="45120" />
	</node>
	<node id="-511378" lat="61.1335194424" lon="6.48724167236">
		<tag k="name" v="Smiehamaren" />
		<tag k="natural" v="hill" />
		<tag k="place" v="locality" />
		<tag k="ssr:stedsnr" v="45088" />
	</node>
	<node id="-511376" lat="61.1362444449" lon="6.48839166221">
		<tag k="fixme" v="consider natural=peak for the most distinct mountains in the district" />
		<tag k="name" v="Husafjellet" />
		<tag k="natural" v="hill" />
		<tag k="place" v="locality" />
		<tag k="ssr:stedsnr" v="45084" />
	</node>
	<node id="-511372" lat="61.1837277803" lon="6.50192499915">
		<tag k="name" v="Rennesvoi" />
		<tag k="natural" v="slope" />
		<tag k="place" v="locality" />
		<tag k="ssr:stedsnr" v="44980" />
	</node>
	<node id="-511371" lat="61.2818305524" lon="6.49183333503">
		<tag k="name" v="Hatlehaugen" />
		<tag k="natural" v="hill" />
		<tag k="place" v="locality" />
		<tag k="ssr:stedsnr" v="44950" />
	</node>
	<node id="-511370" lat="61.1846333369" lon="6.20409166878">
		<tag k="name" v="Melkehaugen" />
		<tag k="natural" v="hill" />
		<tag k="place" v="locality" />
		<tag k="ssr:stedsnr" v="44832" />
	</node>
	<node id="-511369" lat="61.1830222234" lon="6.19211389121">
		<tag k="name" v="Storeli" />
		<tag k="natural" v="slope" />
		<tag k="place" v="locality" />
		<tag k="ssr:stedsnr" v="44812" />
	</node>
	<node id="-511368" lat="61.1870861153" lon="6.19280000555">
		<tag k="name" v="Bolstadli" />
		<tag k="natural" v="slope" />
		<tag k="place" v="locality" />
		<tag k="ssr:stedsnr" v="44809" />
	</node>
	<node id="-511367" lat="61.3018777806" lon="6.46343332911">
		<tag k="name" v="Illasva" />
		<tag k="natural" v="hill" />
		<tag k="place" v="locality" />
		<tag k="ssr:stedsnr" v="44033" />
	</node>
	<node id="-511366" lat="61.2847444477" lon="6.48422777959">
		<tag k="name" v="Li" />
		<tag k="natural" v="slope" />
		<tag k="place" v="locality" />
		<tag k="ssr:stedsnr" v="44025" />
	</node>
	<node id="-511365" lat="61.3118944466" lon="6.58985278165">
		<tag k="name" v="Gjilgjadalen" />
		<tag k="natural" v="valley" />
		<tag k="place" v="locality" />
		<tag k="ssr:stedsnr" v="44019" />
	</node>
	<node id="-511363" lat="61.3454527781" lon="6.55800555504">
		<tag k="name" v="Rinden" />
		<tag k="natural" v="slope" />
		<tag k="place" v="locality" />
		<tag k="ssr:stedsnr" v="20672" />
	</node>
	<node id="-511362" lat="61.1783500027" lon="6.2346638929">
		<tag k="fixme" v="consider natural=peak for the most distinct mountains in the district" />
		<tag k="name" v="Skinnarnipi" />
		<tag k="natural" v="hill" />
		<tag k="place" v="locality" />
		<tag k="ssr:stedsnr" v="9745" />
	</node>
	<node id="-511357" lat="61.1917777755" lon="6.39448333894">
		<tag k="fixme" v="consider natural=peak for the most distinct mountains in the district" />
		<tag k="name" v="Munkeggi" />
		<tag k="natural" v="hill" />
		<tag k="place" v="locality" />
		<tag k="ssr:stedsnr" v="9706" />
	</node>
	<node id="-511354" lat="61.1287916632" lon="6.37452499765">
		<tag k="fixme" v="consider natural=peak for the most distinct mountains in the district" />
		<tag k="name" v="Fjellsenden" />
		<tag k="natural" v="hill" />
		<tag k="place" v="locality" />
		<tag k="ssr:stedsnr" v="9668" />
	</node>
	<node id="-511349" lat="61.2302583309" lon="6.27971389014">
		<tag k="fixme" v="consider natural=peak for the most distinct mountains in the district" />
		<tag k="name" v="Langedalsfjellet" />
		<tag k="natural" v="hill" />
		<tag k="place" v="locality" />
		<tag k="ssr:stedsnr" v="9286" />
	</node>
	<node id="-511348" lat="61.2362333304" lon="6.44267500111">
		<tag k="name" v="Gulleplet" />
		<tag k="natural" v="ridge" />
		<tag k="place" v="locality" />
		<tag k="ssr:stedsnr" v="9281" />
	</node>
	<node id="-511345" lat="61.3678083377" lon="6.49377499795">
		<tag k="fixme" v="consider natural=peak for the most distinct mountains in the district" />
		<tag k="name" v="Vardeggi" />
		<tag k="natural" v="hill" />
		<tag k="place" v="locality" />
		<tag k="ssr:stedsnr" v="7702" />
	</node>
	<node id="-511344" lat="61.2108833303" lon="6.2473999934">
		<tag k="name" v="Tussnipi" />
		<tag k="natural" v="hill" />
		<tag k="place" v="locality" />
		<tag k="ssr:stedsnr" v="7434" />
	</node>
	<node id="-511343" lat="61.1666777752" lon="6.14320278572">
		<tag k="name" v="Oksli" />
		<tag k="natural" v="slope" />
		<tag k="place" v="locality" />
		<tag k="ssr:stedsnr" v="882949" />
	</node>
	<node id="-511342" lat="61.144508333" lon="6.29259444881">
		<tag k="fixme" v="consider natural=peak for the most distinct mountains in the district" />
		<tag k="name" v="Husafjellet" />
		<tag k="natural" v="hill" />
		<tag k="place" v="locality" />
		<tag k="ssr:stedsnr" v="896248" />
	</node>
	<node id="-511341" lat="61.1167083372" lon="6.42392221643">
		<tag k="name" v="Holene" />
		<tag k="natural" v="gorge" />
		<tag k="ssr:stedsnr" v="895923" />
	</node>
	<node id="-511339" lat="61.2101333379" lon="6.50892500838">
		<tag k="fixme" v="consider natural=peak for the most distinct mountains in the district" />
		<tag k="name" v="Sakrishamaren" />
		<tag k="natural" v="hill" />
		<tag k="place" v="locality" />
		<tag k="ssr:stedsnr" v="895896" />
	</node>
	<node id="-511338" lat="61.1652083357" lon="6.21706112005">
		<tag k="name" v="Svartasva" />
		<tag k="natural" v="hill" />
		<tag k="place" v="locality" />
		<tag k="ssr:stedsnr" v="895872" />
	</node>
	<node id="-511335" lat="61.1875055594" lon="6.24735000236">
		<tag k="fixme" v="consider natural=peak for the most distinct mountains in the district" />
		<tag k="name" v="Døri" />
		<tag k="natural" v="hill" />
		<tag k="place" v="locality" />
		<tag k="ssr:stedsnr" v="895758" />
	</node>
	<node id="-511333" lat="61.1932570484" lon="6.2374072368">
		<tag k="name" v="Kvednhushamaren" />
		<tag k="natural" v="hill" />
		<tag k="place" v="locality" />
		<tag k="ssr:stedsnr" v="895748" />
	</node>
	<node id="-511332" lat="61.2685111105" lon="6.50365277599">
		<tag k="name" v="Glennene" />
		<tag k="natural" v="slope" />
		<tag k="place" v="locality" />
		<tag k="ssr:stedsnr" v="895735" />
	</node>
	<node id="-511331" lat="61.3530444476" lon="6.54332500627">
		<tag k="name" v="Furehaugane" />
		<tag k="natural" v="hill" />
		<tag k="place" v="locality" />
		<tag k="ssr:stedsnr" v="895729" />
	</node>
	<node id="-511330" lat="61.3580777816" lon="6.55602222496">
		<tag k="name" v="Leitesneset" />
		<tag k="natural" v="slope" />
		<tag k="place" v="locality" />
		<tag k="ssr:stedsnr" v="895711" />
	</node>
	<node id="-511329" lat="61.3597888904" lon="6.54920555412">
		<tag k="name" v="Leigdene" />
		<tag k="place" v="locality" />
		<tag k="ssr:stedsnr" v="895709" />
	</node>
	<node id="-511328" lat="61.3337499989" lon="6.57246110235">
		<tag k="name" v="Sæten" />
		<tag k="natural" v="hill" />
		<tag k="place" v="locality" />
		<tag k="ssr:stedsnr" v="895700" />
	</node>
	<node id="-511327" lat="61.153486114" lon="6.25876665724">
		<tag k="name" v="Åreflatane" />
		<tag k="place" v="locality" />
		<tag k="ssr:stedsnr" v="895701" />
	</node>
	<node id="-511326" lat="61.1484638934" lon="6.25550556041">
		<tag k="name" v="Nerveflåthaugen" />
		<tag k="natural" v="hill" />
		<tag k="place" v="locality" />
		<tag k="ssr:stedsnr" v="895693" />
	</node>
	<node id="-511325" lat="61.1518749961" lon="6.27340832617">
		<tag k="name" v="Skonli" />
		<tag k="natural" v="slope" />
		<tag k="place" v="locality" />
		<tag k="ssr:stedsnr" v="895684" />
	</node>
	<node id="-511324" lat="61.3638916688" lon="6.56338611246">
		<tag k="name" v="Ospehaugen" />
		<tag k="natural" v="hill" />
		<tag k="place" v="locality" />
		<tag k="ssr:stedsnr" v="895646" />
	</node>
	<node id="-511323" lat="61.1635638916" lon="6.23291666057">
		<tag k="name" v="Tuftehaugen" />
		<tag k="natural" v="hill" />
		<tag k="place" v="locality" />
		<tag k="ssr:stedsnr" v="895645" />
	</node>
	<node id="-511321" lat="61.2644138912" lon="6.58192499673">
		<tag k="name" v="Ingrid" />
		<tag k="natural" v="valley" />
		<tag k="place" v="locality" />
		<tag k="ssr:stedsnr" v="895611" />
	</node>
	<node id="-511319" lat="61.1429694457" lon="6.26987776918">
		<tag k="name" v="Brunene" />
		<tag k="natural" v="slope" />
		<tag k="place" v="locality" />
		<tag k="ssr:stedsnr" v="895549" />
	</node>
	<node id="-511318" lat="61.1455388891" lon="6.24999166378">
		<tag k="name" v="Kaldeslette" />
		<tag k="place" v="locality" />
		<tag k="ssr:stedsnr" v="895547" />
	</node>
	<node id="-511317" lat="61.1283083337" lon="6.34010833271">
		<tag k="name" v="Sagadalen" />
		<tag k="natural" v="valley" />
		<tag k="place" v="locality" />
		<tag k="ssr:stedsnr" v="895456" />
	</node>
	<node id="-511316" lat="61.1470805548" lon="6.38441111801">
		<tag k="alt_name" v="Soleibakkane" />
		<tag k="name" v="Sollibakkane" />
		<tag k="natural" v="slope" />
		<tag k="place" v="locality" />
		<tag k="ssr:stedsnr" v="895454" />
	</node>
	<node id="-511314" lat="61.117722222" lon="6.3593777757">
		<tag k="name" v="Skaret" />
		<tag k="natural" v="valley" />
		<tag k="place" v="locality" />
		<tag k="ssr:stedsnr" v="895294" />
	</node>
	<node id="-511313" lat="61.118961109" lon="6.35898333812">
		<tag k="name" v="Kastet" />
		<tag k="natural" v="hill" />
		<tag k="place" v="locality" />
		<tag k="ssr:stedsnr" v="895293" />
	</node>
	<node id="-511310" lat="61.1247250024" lon="6.44212500381">
		<tag k="fixme" v="consider natural=peak for the most distinct mountains in the district" />
		<tag k="name" v="Juklehamaren" />
		<tag k="natural" v="hill" />
		<tag k="place" v="locality" />
		<tag k="ssr:stedsnr" v="895041" />
	</node>
	<node id="-511309" lat="61.2019277788" lon="6.51777222161">
		<tag k="name" v="Bjørkekoll" />
		<tag k="natural" v="hill" />
		<tag k="place" v="locality" />
		<tag k="ssr:stedsnr" v="895008" />
	</node>
	<node id="-511307" lat="61.2948361129" lon="6.4911555464">
		<tag k="fixme" v="consider natural=peak for the most distinct mountains in the district" />
		<tag k="name" v="Snauaholten" />
		<tag k="natural" v="hill" />
		<tag k="place" v="locality" />
		<tag k="ssr:stedsnr" v="894957" />
	</node>
	<node id="-511306" lat="61.2712972193" lon="6.49066111805">
		<tag k="name" v="Holtagjelet" />
		<tag k="natural" v="gorge" />
		<tag k="ssr:stedsnr" v="894616" />
	</node>
	<node id="-511304" lat="61.3081444425" lon="6.52846111796">
		<tag k="name" v="Rundehaug" />
		<tag k="natural" v="hill" />
		<tag k="place" v="locality" />
		<tag k="ssr:stedsnr" v="894044" />
	</node>
	<node id="-511303" lat="61.2805027803" lon="6.48362777079">
		<tag k="fixme" v="consider natural=peak for the most distinct mountains in the district" />
		<tag k="name" v="Hatlahaughamaren" />
		<tag k="natural" v="hill" />
		<tag k="place" v="locality" />
		<tag k="ssr:stedsnr" v="894033" />
	</node>
	<node id="-511299" lat="61.1573666686" lon="6.52919166169">
		<tag k="name" v="Stikkhamaren" />
		<tag k="natural" v="hill" />
		<tag k="place" v="locality" />
		<tag k="ssr:stedsnr" v="410956" />
	</node>
	<node id="-511298" lat="61.2290500014" lon="6.58569167061">
		<tag k="name" v="Slurpen" />
		<tag k="place" v="locality" />
		<tag k="ssr:stedsnr" v="410943" />
	</node>
	<node id="-511295" lat="61.162113888" lon="6.52896666364">
		<tag k="name" v="Majorsletti" />
		<tag k="natural" v="slope" />
		<tag k="place" v="locality" />
		<tag k="ssr:stedsnr" v="410814" />
	</node>
	<node id="-511294" lat="61.1998972257" lon="6.45091389571">
		<tag k="name" v="Geitskreda" />
		<tag k="natural" v="valley" />
		<tag k="place" v="locality" />
		<tag k="ssr:stedsnr" v="410790" />
	</node>
	<node id="-511293" lat="61.2025777781" lon="6.25566110897">
		<tag k="name" v="Brudalsholet" />
		<tag k="natural" v="gorge" />
		<tag k="ssr:stedsnr" v="410782" />
	</node>
	<node id="-511292" lat="61.1783666661" lon="6.18869166853">
		<tag k="name" v="Svarthamaren" />
		<tag k="natural" v="hill" />
		<tag k="place" v="locality" />
		<tag k="ssr:stedsnr" v="410778" />
	</node>
	<node id="-511291" lat="61.3059111073" lon="6.55836111364">
		<tag k="name" v="Grandane" />
		<tag k="place" v="locality" />
		<tag k="ssr:stedsnr" v="410767" />
	</node>
	<node id="-511288" lat="61.1278361098" lon="6.46485832733">
		<tag k="name" v="Kvasseggi" />
		<tag k="natural" v="ridge" />
		<tag k="place" v="locality" />
		<tag k="ssr:stedsnr" v="410377" />
	</node>
	<node id="-511287" lat="61.1144055519" lon="6.3988916733">
		<tag k="name" v="Skarpa" />
		<tag k="natural" v="slope" />
		<tag k="place" v="locality" />
		<tag k="ssr:stedsnr" v="410351" />
	</node>
	<node id="-511285" lat="61.1343166673" lon="6.3788416619">
		<tag k="name" v="Budeieskrevet" />
		<tag k="natural" v="slope" />
		<tag k="place" v="locality" />
		<tag k="ssr:stedsnr" v="410300" />
	</node>
	<node id="-511284" lat="61.1056194489" lon="7.05624166728">
		<tag k="name" v="Melkevikløypet" />
		<tag k="natural" v="slope" />
		<tag k="place" v="locality" />
		<tag k="ssr:stedsnr" v="410269" />
	</node>
	<node id="-511282" lat="61.17830556" lon="6.5187250084">
		<tag k="name" v="Galdavegen" />
		<tag k="natural" v="slope" />
		<tag k="place" v="locality" />
		<tag k="ssr:stedsnr" v="409991" />
	</node>
	<node id="-511280" lat="61.2175416691" lon="6.47387777524">
		<tag k="name" v="Almestøgjelet" />
		<tag k="natural" v="gorge" />
		<tag k="ssr:stedsnr" v="409927" />
	</node>
	<node id="-511279" lat="61.2772916659" lon="6.53359165852">
		<tag k="name" v="Stølsgjelet" />
		<tag k="natural" v="valley" />
		<tag k="place" v="locality" />
		<tag k="ssr:stedsnr" v="409892" />
	</node>
	<node id="-511276" lat="61.2391611083" lon="6.5385972152">
		<tag k="name" v="Bringebærhaugane" />
		<tag k="natural" v="hill" />
		<tag k="place" v="locality" />
		<tag k="ssr:stedsnr" v="409829" />
	</node>
	<node id="-511273" lat="61.2369555546" lon="6.48432222983">
		<tag k="name" v="Skorsteindalen" />
		<tag k="natural" v="valley" />
		<tag k="place" v="locality" />
		<tag k="ssr:stedsnr" v="409769" />
	</node>
	<node id="-511271" lat="61.2364638876" lon="6.46960277377">
		<tag k="name" v="Dalen" />
		<tag k="natural" v="valley" />
		<tag k="place" v="locality" />
		<tag k="ssr:stedsnr" v="409762" />
	</node>
	<node id="-511270" lat="61.3011499992" lon="6.57864166473">
		<tag k="fixme" v="consider natural=peak for the most distinct mountains in the district" />
		<tag k="name" v="Kvitehamaren" />
		<tag k="natural" v="hill" />
		<tag k="place" v="locality" />
		<tag k="ssr:stedsnr" v="409760" />
	</node>
	<node id="-511269" lat="61.1985722214" lon="6.23190555542">
		<tag k="name" v="Klantane" />
		<tag k="natural" v="hill" />
		<tag k="place" v="locality" />
		<tag k="ssr:stedsnr" v="409755" />
	</node>
	<node id="-511267" lat="61.2613166634" lon="6.5130916675">
		<tag k="name" v="Jenko" />
		<tag k="natural" v="valley" />
		<tag k="place" v="locality" />
		<tag k="ssr:stedsnr" v="409740" />
	</node>
	<node id="-511266" lat="61.1466611131" lon="6.2560305466">
		<tag k="name" v="Lauvhellaren" />
		<tag k="place" v="locality" />
		<tag k="ssr:stedsnr" v="409701" />
	</node>
	<node id="-511265" lat="61.147536109" lon="6.27590555505">
		<tag k="name" v="Skredfletene" />
		<tag k="natural" v="slope" />
		<tag k="place" v="locality" />
		<tag k="ssr:stedsnr" v="409698" />
	</node>
	<node id="-511264" lat="61.2637416645" lon="6.57006111394">
		<tag k="name" v="Klovstein" />
		<tag k="natural" v="hill" />
		<tag k="place" v="locality" />
		<tag k="ssr:stedsnr" v="409682" />
	</node>
	<node id="-511263" lat="61.3774555547" lon="6.55507777834">
		<tag k="name" v="Kvannsskredene" />
		<tag k="natural" v="valley" />
		<tag k="place" v="locality" />
		<tag k="ssr:stedsnr" v="409669" />
	</node>
	<node id="-511262" lat="61.2669027801" lon="6.60418612009">
		<tag k="name" v="Almehola" />
		<tag k="natural" v="gorge" />
		<tag k="ssr:stedsnr" v="409653" />
	</node>
	<node id="-511260" lat="61.2625416702" lon="6.59037499791">
		<tag k="name" v="Sæteskreda" />
		<tag k="natural" v="valley" />
		<tag k="place" v="locality" />
		<tag k="ssr:stedsnr" v="409649" />
	</node>
	<node id="-511258" lat="61.1574111102" lon="6.24319167019">
		<tag k="name" v="Snauka" />
		<tag k="natural" v="hill" />
		<tag k="place" v="locality" />
		<tag k="ssr:stedsnr" v="409647" />
	</node>
	<node id="-511257" lat="61.1613111133" lon="6.34655278381">
		<tag k="name" v="Svinndalen" />
		<tag k="natural" v="valley" />
		<tag k="place" v="locality" />
		<tag k="ssr:stedsnr" v="409436" />
	</node>
	<node id="-511256" lat="61.1254472203" lon="6.40140555912">
		<tag k="name" v="Skabakken" />
		<tag k="natural" v="slope" />
		<tag k="place" v="locality" />
		<tag k="ssr:stedsnr" v="409308" />
	</node>
	<node id="-511253" lat="61.2025305598" lon="6.4848000025">
		<tag k="name" v="Sjonarstein" />
		<tag k="natural" v="hill" />
		<tag k="place" v="locality" />
		<tag k="ssr:stedsnr" v="409074" />
	</node>
	<node id="-511252" lat="61.1265083358" lon="6.42429723106">
		<tag k="name" v="Storeskora" />
		<tag k="natural" v="valley" />
		<tag k="place" v="locality" />
		<tag k="ssr:stedsnr" v="409062" />
	</node>
	<node id="-511251" lat="61.2920916702" lon="6.47925277053">
		<tag k="name" v="Grandane" />
		<tag k="place" v="locality" />
		<tag k="ssr:stedsnr" v="409038" />
	</node>
	<node id="-511201" lat="61.2251083353" lon="6.45174167118">
		<tag k="fixme" v="consider natural=peak for the most distinct mountains in the district" />
		<tag k="name" v="Vindreken" />
		<tag k="natural" v="hill" />
		<tag k="place" v="locality" />
		<tag k="ssr:stedsnr" v="373712" />
	</node>
	<node id="-511200" lat="61.2091055553" lon="6.3244861024">
		<tag k="name" v="Storebotnen" />
		<tag k="natural" v="valley" />
		<tag k="place" v="locality" />
		<tag k="ssr:stedsnr" v="373704" />
	</node>
	<node id="-511196" lat="61.1541944473" lon="6.4075861092">
		<tag k="name" v="Russdalen" />
		<tag k="natural" v="valley" />
		<tag k="place" v="locality" />
		<tag k="ssr:stedsnr" v="373650" />
	</node>
	<node id="-511194" lat="61.1622388907" lon="6.16664165918">
		<tag k="alt_name" v="Illegjelet" />
		<tag k="name" v="Illegilet" />
		<tag k="natural" v="gorge" />
		<tag k="ssr:stedsnr" v="373321" />
	</node>
	<node id="-511193" lat="61.1623000029" lon="6.15969999111">
		<tag k="alt_name" v="Sauagjelet" />
		<tag k="name" v="Sauagilet" />
		<tag k="natural" v="gorge" />
		<tag k="ssr:stedsnr" v="373319" />
	</node>
	<node id="-511192" lat="61.2345527757" lon="6.51581389627">
		<tag k="fixme" v="consider natural=peak for the most distinct mountains in the district" />
		<tag k="name" v="Tjugatoten" />
		<tag k="natural" v="hill" />
		<tag k="place" v="locality" />
		<tag k="ssr:stedsnr" v="373298" />
	</node>
	<node id="-511189" lat="61.3291888922" lon="6.54005833629">
		<tag k="name" v="Haugaskreddalen" />
		<tag k="natural" v="valley" />
		<tag k="place" v="locality" />
		<tag k="ssr:stedsnr" v="372814" />
	</node>
	<node id="-511187" lat="61.2944055523" lon="6.42836388921">
		<tag k="fixme" v="consider natural=peak for the most distinct mountains in the district" />
		<tag k="name" v="Sværaeggi" />
		<tag k="natural" v="hill" />
		<tag k="place" v="locality" />
		<tag k="ssr:stedsnr" v="372779" />
	</node>
	<node id="-511186" lat="61.3028138933" lon="6.41616944224">
		<tag k="name" v="Gamlestølsbotn" />
		<tag k="natural" v="valley" />
		<tag k="place" v="locality" />
		<tag k="ssr:stedsnr" v="372778" />
	</node>
	<node id="-511185" lat="61.3373805529" lon="6.61317499442">
		<tag k="fixme" v="consider natural=peak for the most distinct mountains in the district" />
		<tag k="name" v="Saueggi" />
		<tag k="natural" v="hill" />
		<tag k="place" v="locality" />
		<tag k="ssr:stedsnr" v="371959" />
	</node>
	<node id="-511184" lat="61.294152775" lon="6.47273055095">
		<tag k="name" v="Sværadalen" />
		<tag k="natural" v="valley" />
		<tag k="place" v="locality" />
		<tag k="ssr:stedsnr" v="371760" />
	</node>
	<node id="-511182" lat="61.3833749978" lon="6.51529721957">
		<tag k="fixme" v="consider natural=peak for the most distinct mountains in the district" />
		<tag k="name" v="Gottopphesten" />
		<tag k="natural" v="hill" />
		<tag k="old_name" v="Gotopphesten" />
		<tag k="place" v="locality" />
		<tag k="ssr:stedsnr" v="371728" />
	</node>
	<node id="-511181" lat="61.381749996" lon="6.56549166228">
		<tag k="name" v="Tverrbotnen" />
		<tag k="natural" v="valley" />
		<tag k="place" v="locality" />
		<tag k="ssr:stedsnr" v="371726" />
	</node>
	<node id="-511178" lat="61.3528325378" lon="6.53255760923">
		<tag k="name" v="Bårddalen" />
		<tag k="natural" v="valley" />
		<tag k="place" v="locality" />
		<tag k="ssr:stedsnr" v="371693" />
	</node>
	<node id="-511171" lat="61.2235694411" lon="6.5290333307">
		<tag k="name" v="Djupeli" />
		<tag k="natural" v="slope" />
		<tag k="place" v="locality" />
		<tag k="ssr:stedsnr" v="349920" />
	</node>
	<node id="-511170" lat="61.3066249967" lon="6.54208056376">
		<tag k="name" v="Hadle" />
		<tag k="natural" v="slope" />
		<tag k="place" v="locality" />
		<tag k="ssr:stedsnr" v="349855" />
	</node>
	<node id="-511169" lat="61.1423333322" lon="6.54212777931">
		<tag k="name" v="Vellene" />
		<tag k="place" v="locality" />
		<tag k="ssr:stedsnr" v="349831" />
	</node>
	<node id="-511168" lat="61.2009638927" lon="6.2558194508">
		<tag k="fixme" v="consider natural=peak for the most distinct mountains in the district" />
		<tag k="name" v="Håvardhamaren" />
		<tag k="natural" v="hill" />
		<tag k="place" v="locality" />
		<tag k="ssr:stedsnr" v="349808" />
	</node>
	<node id="-511167" lat="61.353777781" lon="6.53414166786">
		<tag k="name" v="Langehaugane" />
		<tag k="natural" v="ridge" />
		<tag k="place" v="locality" />
		<tag k="ssr:stedsnr" v="349756" />
	</node>
	<node id="-511160" lat="61.2650305581" lon="6.48587777466">
		<tag k="name" v="Sauaholten" />
		<tag k="natural" v="hill" />
		<tag k="place" v="locality" />
		<tag k="ssr:stedsnr" v="349632" />
	</node>
	<node id="-511155" lat="61.1232638927" lon="6.40214166543">
		<tag k="name" v="Gyllingsgjelet" />
		<tag k="natural" v="valley" />
		<tag k="place" v="locality" />
		<tag k="ssr:stedsnr" v="349394" />
	</node>
	<node id="-511153" lat="61.1709111129" lon="6.14361666304">
		<tag k="name" v="Nonssvåi" />
		<tag k="natural" v="hill" />
		<tag k="place" v="locality" />
		<tag k="ssr:stedsnr" v="349137" />
	</node>
	<node id="-511152" lat="61.1421916655" lon="6.50828333205">
		<tag k="name" v="Budeieklypet" />
		<tag k="natural" v="valley" />
		<tag k="place" v="locality" />
		<tag k="ssr:stedsnr" v="349060" />
	</node>
	<node id="-511151" lat="61.1292000041" lon="6.45021667256">
		<tag k="name" v="Legehaugane" />
		<tag k="natural" v="hill" />
		<tag k="place" v="locality" />
		<tag k="ssr:stedsnr" v="349050" />
	</node>
	<node id="-511150" lat="61.1577805554" lon="6.46563610538">
		<tag k="name" v="Oksli" />
		<tag k="natural" v="slope" />
		<tag k="place" v="locality" />
		<tag k="ssr:stedsnr" v="348995" />
	</node>
	<node id="-511149" lat="61.1579833352" lon="6.48393612019">
		<tag k="name" v="Raudskreda" />
		<tag k="natural" v="valley" />
		<tag k="place" v="locality" />
		<tag k="ssr:stedsnr" v="348982" />
	</node>
	<node id="-511147" lat="61.2154416702" lon="6.4801194499">
		<tag k="name" v="Svartasvali" />
		<tag k="natural" v="slope" />
		<tag k="place" v="locality" />
		<tag k="ssr:stedsnr" v="348926" />
	</node>
	<node id="-511146" lat="61.1230361073" lon="6.41104723012">
		<tag k="name" v="Raudfletene" />
		<tag k="natural" v="slope" />
		<tag k="place" v="locality" />
		<tag k="ssr:stedsnr" v="348920" />
	</node>
	<node id="-511145" lat="61.1185694417" lon="6.43592777505">
		<tag k="name" v="Kambane" />
		<tag k="natural" v="ridge" />
		<tag k="place" v="locality" />
		<tag k="ssr:stedsnr" v="348916" />
	</node>
	<node id="-511143" lat="61.1854277743" lon="6.51444445066">
		<tag k="name" v="Rinden" />
		<tag k="natural" v="hill" />
		<tag k="place" v="locality" />
		<tag k="ssr:stedsnr" v="348866" />
	</node>
	<node id="-511142" lat="61.2223222245" lon="6.54982221955">
		<tag k="name" v="Godalen" />
		<tag k="natural" v="valley" />
		<tag k="place" v="locality" />
		<tag k="ssr:stedsnr" v="348853" />
	</node>
	<node id="-511139" lat="61.2495222253" lon="6.54738056371">
		<tag k="name" v="Butlaståi" />
		<tag k="natural" v="slope" />
		<tag k="place" v="locality" />
		<tag k="ssr:stedsnr" v="348824" />
	</node>
	<node id="-511137" lat="61.2923833359" lon="6.57385000337">
		<tag k="name" v="Hansagjerdhamaren" />
		<tag k="natural" v="hill" />
		<tag k="place" v="locality" />
		<tag k="ssr:stedsnr" v="348816" />
	</node>
	<node id="-511135" lat="61.1817666629" lon="6.18235000283">
		<tag k="name" v="Vetleli" />
		<tag k="natural" v="slope" />
		<tag k="place" v="locality" />
		<tag k="ssr:stedsnr" v="348796" />
	</node>
	<node id="-511134" lat="61.1437833316" lon="6.53105000823">
		<tag k="name" v="Blåbærhaugane" />
		<tag k="natural" v="hill" />
		<tag k="place" v="locality" />
		<tag k="ssr:stedsnr" v="348793" />
	</node>
	<node id="-511133" lat="61.3367805519" lon="6.54905000471">
		<tag k="alt_name" v="Meelsbakkane" />
		<tag k="name" v="Melsbakkane" />
		<tag k="natural" v="slope" />
		<tag k="place" v="locality" />
		<tag k="ssr:stedsnr" v="348779" />
	</node>
	<node id="-511131" lat="61.1883416679" lon="6.231588894">
		<tag k="name" v="Toøyna" />
		<tag k="place" v="locality" />
		<tag k="ssr:stedsnr" v="348759" />
	</node>
	<node id="-511130" lat="61.1899666688" lon="6.23793611118">
		<tag k="name" v="Tibbane" />
		<tag k="natural" v="hill" />
		<tag k="place" v="locality" />
		<tag k="ssr:stedsnr" v="348751" />
	</node>
	<node id="-511127" lat="61.1745499983" lon="6.30017776971">
		<tag k="name" v="Kjos" />
		<tag k="natural" v="hill" />
		<tag k="place" v="locality" />
		<tag k="ssr:stedsnr" v="348587" />
	</node>
	<node id="-511126" lat="61.1699861086" lon="6.37175556462">
		<tag k="name" v="Tverrgavlane" />
		<tag k="natural" v="hill" />
		<tag k="place" v="locality" />
		<tag k="ssr:stedsnr" v="348582" />
	</node>
	<node id="-511125" lat="61.2658499991" lon="6.50501111627">
		<tag k="name" v="Flåtane" />
		<tag k="natural" v="hill" />
		<tag k="place" v="locality" />
		<tag k="ssr:stedsnr" v="348573" />
	</node>
	<node id="-511124" lat="61.1446305519" lon="6.26333332744">
		<tag k="name" v="Seberg" />
		<tag k="natural" v="hill" />
		<tag k="place" v="locality" />
		<tag k="ssr:stedsnr" v="348560" />
	</node>
	<node id="-511122" lat="61.2032416654" lon="6.51388333974">
		<tag k="name" v="Balali" />
		<tag k="natural" v="slope" />
		<tag k="place" v="locality" />
		<tag k="ssr:stedsnr" v="348044" />
	</node>
	<node id="-511119" lat="61.3085888866" lon="6.59058056223">
		<tag k="fixme" v="consider natural=peak for the most distinct mountains in the district" />
		<tag k="name" v="Kringleholten" />
		<tag k="natural" v="hill" />
		<tag k="place" v="locality" />
		<tag k="ssr:stedsnr" v="348019" />
	</node>
	<node id="-511117" lat="61.1601583371" lon="6.14468333374">
		<tag k="name" v="Storskori" />
		<tag k="natural" v="hill" />
		<tag k="place" v="locality" />
		<tag k="ssr:stedsnr" v="340173" />
	</node>
	<node id="-511116" lat="61.1586194427" lon="6.15415278432">
		<tag k="name" v="Strunkegjelet" />
		<tag k="natural" v="gorge" />
		<tag k="ssr:stedsnr" v="340167" />
	</node>
	<node id="-511115" lat="61.3541416694" lon="6.47879444801">
		<tag k="fixme" v="consider natural=peak for the most distinct mountains in the district" />
		<tag k="name" v="Gaularfjellet" />
		<tag k="natural" v="hill" />
		<tag k="place" v="locality" />
		<tag k="ssr:stedsnr" v="329721" />
	</node>
	<node id="-511114" lat="61.1513500021" lon="6.50963889552">
		<tag k="name" v="Bjørkelia" />
		<tag k="natural" v="slope" />
		<tag k="place" v="locality" />
		<tag k="ssr:stedsnr" v="324974" />
	</node>
	<node id="-511111" lat="61.173736109" lon="6.32975277304">
		<tag k="alt_name" v="Flatnip, nedre" />
		<tag k="fixme" v="consider natural=peak for the most distinct mountains in the district" />
		<tag k="name" v="Nedre Flatnip" />
		<tag k="natural" v="hill" />
		<tag k="place" v="locality" />
		<tag k="ssr:stedsnr" v="313756" />
	</node>
	<node id="-511109" lat="61.1602583375" lon="6.3838277713">
		<tag k="name" v="Stordalen" />
		<tag k="natural" v="valley" />
		<tag k="place" v="locality" />
		<tag k="ssr:stedsnr" v="313638" />
	</node>
	<node id="-511104" lat="61.1718222182" lon="6.4620916586">
		<tag k="name" v="Bukkaberg" />
		<tag k="natural" v="hill" />
		<tag k="place" v="locality" />
		<tag k="ssr:stedsnr" v="312710" />
	</node>
	<node id="-511100" lat="61.1924388901" lon="6.45765276939">
		<tag k="name" v="Spenane" />
		<tag k="natural" v="hill" />
		<tag k="place" v="locality" />
		<tag k="ssr:stedsnr" v="312684" />
	</node>
	<node id="-511095" lat="61.1382888876" lon="6.31162500933">
		<tag k="alt_name" v="Jervegjelet" />
		<tag k="name" v="Jervagilet" />
		<tag k="natural" v="valley" />
		<tag k="place" v="locality" />
		<tag k="ssr:stedsnr" v="312625" />
	</node>
	<node id="-511092" lat="61.1713527812" lon="6.17121944782">
		<tag k="fixme" v="consider natural=peak for the most distinct mountains in the district" />
		<tag k="name" v="Nedstfjellet" />
		<tag k="natural" v="hill" />
		<tag k="place" v="locality" />
		<tag k="ssr:stedsnr" v="312336" />
	</node>
	<node id="-511090" lat="61.2382833298" lon="6.53679999369">
		<tag k="alt_name" v="Skåpargjeldalen" />
		<tag k="name" v="Skopargilet" />
		<tag k="natural" v="valley" />
		<tag k="place" v="locality" />
		<tag k="ssr:stedsnr" v="312306" />
	</node>
	<node id="-511087" lat="61.3359499964" lon="6.58142500184">
		<tag k="name" v="Trollakyrkja" />
		<tag k="natural" v="valley" />
		<tag k="place" v="locality" />
		<tag k="ssr:stedsnr" v="311810" />
	</node>
	<node id="-511086" lat="61.283083333" lon="6.57748888884">
		<tag k="name" v="Moldskreddalen" />
		<tag k="natural" v="valley" />
		<tag k="place" v="locality" />
		<tag k="ssr:stedsnr" v="311804" />
	</node>
	<node id="-511085" lat="61.3841027782" lon="6.5846888814">
		<tag k="fixme" v="consider natural=peak for the most distinct mountains in the district" />
		<tag k="name" v="Grøndalseggi" />
		<tag k="natural" v="hill" />
		<tag k="place" v="locality" />
		<tag k="ssr:stedsnr" v="311771" />
	</node>
	<node id="-511079" lat="61.1528444459" lon="6.5388555643">
		<tag k="name" v="Sagahaugane" />
		<tag k="natural" v="hill" />
		<tag k="place" v="locality" />
		<tag k="ssr:stedsnr" v="289976" />
	</node>
	<node id="-511077" lat="61.2606972229" lon="6.47117223098">
		<tag k="name" v="Almebakkane" />
		<tag k="natural" v="slope" />
		<tag k="place" v="locality" />
		<tag k="ssr:stedsnr" v="289635" />
	</node>
	<node id="-511074" lat="61.1842777752" lon="6.52978055231">
		<tag k="name" v="Hamrahaugen" />
		<tag k="natural" v="hill" />
		<tag k="place" v="locality" />
		<tag k="ssr:stedsnr" v="288967" />
	</node>
	<node id="-511072" lat="61.2233444451" lon="6.51171944712">
		<tag k="name" v="Ospelunden" />
		<tag k="natural" v="slope" />
		<tag k="place" v="locality" />
		<tag k="ssr:stedsnr" v="288899" />
	</node>
	<node id="-511071" lat="61.1870666712" lon="6.51543333943">
		<tag k="fixme" v="consider natural=peak for the most distinct mountains in the district" />
		<tag k="name" v="Omnen" />
		<tag k="natural" v="hill" />
		<tag k="place" v="locality" />
		<tag k="ssr:stedsnr" v="288896" />
	</node>
	<node id="-511070" lat="61.2200722254" lon="6.52328610543">
		<tag k="name" v="Gullmannshaugen" />
		<tag k="natural" v="hill" />
		<tag k="place" v="locality" />
		<tag k="ssr:stedsnr" v="288890" />
	</node>
	<node id="-511068" lat="61.3009833318" lon="6.54143333997">
		<tag k="name" v="Breiskredbotn" />
		<tag k="natural" v="valley" />
		<tag k="place" v="locality" />
		<tag k="ssr:stedsnr" v="288866" />
	</node>
	<node id="-511066" lat="61.162088891" lon="6.53611666995">
		<tag k="name" v="Vasstakahaug" />
		<tag k="natural" v="hill" />
		<tag k="place" v="locality" />
		<tag k="ssr:stedsnr" v="288798" />
	</node>
	<node id="-511064" lat="61.313161109" lon="6.58029723001">
		<tag k="name" v="Almehola" />
		<tag k="natural" v="valley" />
		<tag k="place" v="locality" />
		<tag k="ssr:stedsnr" v="288787" />
	</node>
	<node id="-511063" lat="61.1962999959" lon="6.43102777238">
		<tag k="name" v="Styggagjelet" />
		<tag k="natural" v="valley" />
		<tag k="place" v="locality" />
		<tag k="ssr:stedsnr" v="288786" />
	</node>
	<node id="-511062" lat="61.2165694477" lon="6.46638333866">
		<tag k="name" v="Rindane" />
		<tag k="natural" v="hill" />
		<tag k="place" v="locality" />
		<tag k="ssr:stedsnr" v="288777" />
	</node>
	<node id="-511061" lat="61.2323277773" lon="6.45404166082">
		<tag k="name" v="Yglebotn" />
		<tag k="natural" v="valley" />
		<tag k="place" v="locality" />
		<tag k="ssr:stedsnr" v="288772" />
	</node>
	<node id="-511060" lat="61.3024027764" lon="6.56798888003">
		<tag k="name" v="Brunnene" />
		<tag k="natural" v="slope" />
		<tag k="place" v="locality" />
		<tag k="ssr:stedsnr" v="288770" />
	</node>
	<node id="-511058" lat="61.244994441" lon="6.52360000005">
		<tag k="name" v="Totaskori" />
		<tag k="natural" v="valley" />
		<tag k="place" v="locality" />
		<tag k="ssr:stedsnr" v="288755" />
	</node>
	<node id="-511057" lat="61.2344611069" lon="6.54079722508">
		<tag k="name" v="Skåpargjelholten" />
		<tag k="natural" v="hill" />
		<tag k="place" v="locality" />
		<tag k="ssr:stedsnr" v="288732" />
	</node>
	<node id="-511056" lat="61.3515249979" lon="6.53674166461">
		<tag k="name" v="Oksli" />
		<tag k="natural" v="ridge" />
		<tag k="place" v="locality" />
		<tag k="ssr:stedsnr" v="288719" />
	</node>
	<node id="-511055" lat="61.2728277764" lon="6.52440555543">
		<tag k="name" v="Svai" />
		<tag k="natural" v="hill" />
		<tag k="place" v="locality" />
		<tag k="ssr:stedsnr" v="288715" />
	</node>
	<node id="-511053" lat="61.1538861092" lon="6.27793611043">
		<tag k="name" v="Raunevollen" />
		<tag k="natural" v="slope" />
		<tag k="place" v="locality" />
		<tag k="ssr:stedsnr" v="288707" />
	</node>
	<node id="-511051" lat="61.1831138902" lon="6.24994444028">
		<tag k="name" v="Almestubakkane" />
		<tag k="natural" v="slope" />
		<tag k="place" v="locality" />
		<tag k="ssr:stedsnr" v="288701" />
	</node>
	<node id="-511048" lat="61.1528944487" lon="6.26985000567">
		<tag k="name" v="Nedstelehaugen" />
		<tag k="natural" v="hill" />
		<tag k="place" v="locality" />
		<tag k="ssr:stedsnr" v="288667" />
	</node>
	<node id="-511047" lat="61.1591472242" lon="6.23337499201">
		<tag k="name" v="Blåbærgjelet" />
		<tag k="natural" v="valley" />
		<tag k="place" v="locality" />
		<tag k="ssr:stedsnr" v="288626" />
	</node>
	<node id="-511044" lat="61.1448111066" lon="6.28448332765">
		<tag k="name" v="Støypet" />
		<tag k="natural" v="slope" />
		<tag k="place" v="locality" />
		<tag k="ssr:stedsnr" v="288564" />
	</node>
	<node id="-511042" lat="61.1615388912" lon="6.34111388027">
		<tag k="name" v="Småbakkane" />
		<tag k="natural" v="slope" />
		<tag k="place" v="locality" />
		<tag k="ssr:stedsnr" v="288401" />
	</node>
	<node id="-511040" lat="61.1378888925" lon="6.46360833801">
		<tag k="name" v="Vetlagjelet" />
		<tag k="natural" v="valley" />
		<tag k="place" v="locality" />
		<tag k="ssr:stedsnr" v="288344" />
	</node>
	<node id="-511039" lat="61.1208555554" lon="6.38560554859">
		<tag k="name" v="Kabelgjelet" />
		<tag k="natural" v="valley" />
		<tag k="place" v="locality" />
		<tag k="ssr:stedsnr" v="288315" />
	</node>
	<node id="-511038" lat="61.1229444423" lon="6.35996666139">
		<tag k="name" v="Huarhaug" />
		<tag k="natural" v="hill" />
		<tag k="place" v="locality" />
		<tag k="ssr:stedsnr" v="288295" />
	</node>
	<node id="-511037" lat="61.1272638862" lon="6.3819972202">
		<tag k="name" v="Storebotn" />
		<tag k="natural" v="valley" />
		<tag k="place" v="locality" />
		<tag k="ssr:stedsnr" v="288280" />
	</node>
	<node id="-511036" lat="61.1247194466" lon="6.39442221717">
		<tag k="name" v="Neste Sjonarhaug" />
		<tag k="natural" v="hill" />
		<tag k="place" v="locality" />
		<tag k="ssr:stedsnr" v="288279" />
	</node>
	<node id="-511033" lat="61.1177166677" lon="6.45459999432">
		<tag k="name" v="Lyngfletene" />
		<tag k="place" v="locality" />
		<tag k="ssr:stedsnr" v="288129" />
	</node>
	<node id="-511032" lat="61.1178166697" lon="6.44502777405">
		<tag k="name" v="Øvstehaugsflaten" />
		<tag k="place" v="locality" />
		<tag k="ssr:stedsnr" v="288125" />
	</node>
	<node id="-511031" lat="61.1345083354" lon="6.48344999957">
		<tag k="name" v="Kleivane" />
		<tag k="natural" v="valley" />
		<tag k="place" v="locality" />
		<tag k="ssr:stedsnr" v="288098" />
	</node>
	<node id="-511030" lat="61.1964500007" lon="6.50002221738">
		<tag k="fixme" v="consider natural=peak for the most distinct mountains in the district" />
		<tag k="name" v="Fjærestadholten" />
		<tag k="natural" v="hill" />
		<tag k="place" v="locality" />
		<tag k="ssr:stedsnr" v="288078" />
	</node>
	<node id="-511028" lat="61.1286611137" lon="6.45937500565">
		<tag k="name" v="Setekrakken" />
		<tag k="natural" v="hill" />
		<tag k="place" v="locality" />
		<tag k="ssr:stedsnr" v="288024" />
	</node>
	<node id="-511027" lat="61.132741667" lon="6.45413888613">
		<tag k="name" v="Bjørkeli" />
		<tag k="natural" v="slope" />
		<tag k="place" v="locality" />
		<tag k="ssr:stedsnr" v="288025" />
	</node>
	<node id="-511026" lat="61.2103583371" lon="6.4981916714">
		<tag k="fixme" v="consider natural=peak for the most distinct mountains in the district" />
		<tag k="name" v="Hatlehamaren" />
		<tag k="natural" v="hill" />
		<tag k="place" v="locality" />
		<tag k="ssr:stedsnr" v="288000" />
	</node>
	<node id="-511025" lat="61.1711944428" lon="6.51172778212">
		<tag k="fixme" v="consider natural=peak for the most distinct mountains in the district" />
		<tag k="name" v="Hovden" />
		<tag k="natural" v="hill" />
		<tag k="place" v="locality" />
		<tag k="ssr:stedsnr" v="287992" />
	</node>
	<node id="-511024" lat="61.2820361075" lon="6.49752222961">
		<tag k="name" v="Elvaøyane" />
		<tag k="place" v="locality" />
		<tag k="ssr:stedsnr" v="287955" />
	</node>
	<node id="-511023" lat="61.2932305596" lon="6.50165554679">
		<tag k="fixme" v="consider natural=peak for the most distinct mountains in the district" />
		<tag k="name" v="Killingaholten" />
		<tag k="natural" v="hill" />
		<tag k="place" v="locality" />
		<tag k="ssr:stedsnr" v="287951" />
	</node>
	<node id="-511022" lat="61.2631305558" lon="6.50199166343">
		<tag k="name" v="Råki" />
		<tag k="natural" v="hill" />
		<tag k="place" v="locality" />
		<tag k="ssr:stedsnr" v="287622" />
	</node>
	<node id="-511021" lat="61.2889027744" lon="6.48286666706">
		<tag k="name" v="Stokkane" />
		<tag k="natural" v="slope" />
		<tag k="place" v="locality" />
		<tag k="ssr:stedsnr" v="287031" />
	</node>
	<node id="-511020" lat="61.2949611094" lon="6.47136389549">
		<tag k="fixme" v="consider natural=peak for the most distinct mountains in the district" />
		<tag k="name" v="Svartahamaren" />
		<tag k="natural" v="hill" />
		<tag k="place" v="locality" />
		<tag k="ssr:stedsnr" v="287016" />
	</node>
	<node id="-511019" lat="61.1755583352" lon="6.22053333568">
		<tag k="name" v="Hestbakkgjelet" />
		<tag k="natural" v="gorge" />
		<tag k="ssr:stedsnr" v="286853" />
	</node>
	<node id="-512570" lat="61.283891665" lon="6.50868333384">
		<tag k="fixme" v="consider natural=peak for the most distinct mountains in the district" />
		<tag k="name" v="Midtfjellet" />
		<tag k="natural" v="hill" />
		<tag k="place" v="locality" />
		<tag k="ssr:stedsnr" v="956977" />
	</node>
	<node id="-512568" lat="61.1154166675" lon="6.43648333059">
		<tag k="name" v="Grisagrovi" />
		<tag k="natural" v="valley" />
		<tag k="place" v="locality" />
		<tag k="ssr:stedsnr" v="956965" />
	</node>
	<node id="-512566" lat="61.2866194418" lon="6.52989166521">
		<tag k="name" v="Tungene" />
		<tag k="natural" v="valley" />
		<tag k="place" v="locality" />
		<tag k="ssr:stedsnr" v="956955" />
	</node>
	<node id="-512565" lat="61.1587805553" lon="6.22499722288">
		<tag k="name" v="Haugen" />
		<tag k="natural" v="hill" />
		<tag k="place" v="locality" />
		<tag k="ssr:stedsnr" v="956881" />
	</node>
	<node id="-512564" lat="61.184233333" lon="6.22476111339">
		<tag k="name" v="Bongahilleren" />
		<tag k="place" v="locality" />
		<tag k="ssr:stedsnr" v="956870" />
	</node>
	<node id="-512563" lat="61.1666083301" lon="6.53496110878">
		<tag k="name" v="Rundastubba" />
		<tag k="natural" v="slope" />
		<tag k="place" v="locality" />
		<tag k="ssr:stedsnr" v="956822" />
	</node>
	<node id="-512562" lat="61.1913777816" lon="6.25096110473">
		<tag k="fixme" v="consider natural=peak for the most distinct mountains in the district" />
		<tag k="name" v="Midtfjellet" />
		<tag k="natural" v="hill" />
		<tag k="place" v="locality" />
		<tag k="ssr:stedsnr" v="956773" />
	</node>
	<node id="-512561" lat="61.3471944437" lon="6.55732221766">
		<tag k="fixme" v="consider natural=peak for the most distinct mountains in the district" />
		<tag k="name" v="Storhovden" />
		<tag k="natural" v="hill" />
		<tag k="place" v="locality" />
		<tag k="ssr:stedsnr" v="956762" />
	</node>
	<node id="-512560" lat="61.1825083371" lon="6.23179722604">
		<tag k="fixme" v="consider natural=peak for the most distinct mountains in the district" />
		<tag k="name" v="Omnen" />
		<tag k="natural" v="hill" />
		<tag k="place" v="locality" />
		<tag k="ssr:stedsnr" v="956756" />
	</node>
	<node id="-512559" lat="61.1586194406" lon="6.27505278623">
		<tag k="name" v="Kråkevollen" />
		<tag k="place" v="locality" />
		<tag k="ssr:stedsnr" v="956745" />
	</node>
	<node id="-512557" lat="61.146591667" lon="6.27153611571">
		<tag k="name" v="Ospeli" />
		<tag k="natural" v="slope" />
		<tag k="place" v="locality" />
		<tag k="ssr:stedsnr" v="956735" />
	</node>
	<node id="-512555" lat="61.1685722181" lon="6.36685554692">
		<tag k="name" v="Hesjedalen" />
		<tag k="natural" v="valley" />
		<tag k="place" v="locality" />
		<tag k="ssr:stedsnr" v="956652" />
	</node>
	<node id="-512554" lat="61.1416499959" lon="6.26914444678">
		<tag k="name" v="Treskar" />
		<tag k="natural" v="hill" />
		<tag k="place" v="locality" />
		<tag k="ssr:stedsnr" v="956634" />
	</node>
	<node id="-512549" lat="61.1439472218" lon="6.38192778363">
		<tag k="name" v="Skaret" />
		<tag k="natural" v="valley" />
		<tag k="place" v="locality" />
		<tag k="ssr:stedsnr" v="956307" />
	</node>
	<node id="-512548" lat="61.1419305576" lon="6.30406665986">
		<tag k="name" v="Tungene" />
		<tag k="natural" v="slope" />
		<tag k="place" v="locality" />
		<tag k="ssr:stedsnr" v="956264" />
	</node>
	<node id="-512547" lat="61.1398805555" lon="6.30614721645">
		<tag k="fixme" v="consider natural=peak for the most distinct mountains in the district" />
		<tag k="name" v="Ormåsen" />
		<tag k="natural" v="hill" />
		<tag k="place" v="locality" />
		<tag k="ssr:stedsnr" v="956263" />
	</node>
	<node id="-512546" lat="61.193469444" lon="6.21441667461">
		<tag k="name" v="Frøserabben" />
		<tag k="natural" v="hill" />
		<tag k="place" v="locality" />
		<tag k="ssr:stedsnr" v="956169" />
	</node>
	<node id="-512545" lat="61.1204722228" lon="6.4550055597">
		<tag k="fixme" v="consider natural=peak for the most distinct mountains in the district" />
		<tag k="name" v="Åsen" />
		<tag k="natural" v="hill" />
		<tag k="place" v="locality" />
		<tag k="ssr:stedsnr" v="956125" />
	</node>
	<node id="-512544" lat="61.1188277754" lon="6.46383332826">
		<tag k="name" v="Berlehaugane" />
		<tag k="natural" v="hill" />
		<tag k="place" v="locality" />
		<tag k="ssr:stedsnr" v="956108" />
	</node>
	<node id="-512543" lat="61.1337166697" lon="6.50060832907">
		<tag k="name" v="Laugi" />
		<tag k="place" v="locality" />
		<tag k="ssr:stedsnr" v="956074" />
	</node>
	<node id="-512542" lat="61.1345972203" lon="6.51147776988">
		<tag k="name" v="Sandvikflaten" />
		<tag k="place" v="locality" />
		<tag k="ssr:stedsnr" v="956066" />
	</node>
	<node id="-512537" lat="61.2389666672" lon="6.46384444485">
		<tag k="name" v="Målarbakkane" />
		<tag k="natural" v="slope" />
		<tag k="place" v="locality" />
		<tag k="ssr:stedsnr" v="955796" />
	</node>
	<node id="-512534" lat="61.3032916676" lon="6.57442221624">
		<tag k="name" v="Nestelegdi" />
		<tag k="natural" v="hill" />
		<tag k="place" v="locality" />
		<tag k="ssr:stedsnr" v="955768" />
	</node>
	<node id="-512532" lat="61.1640777762" lon="6.27390278463">
		<tag k="name" v="Maurvoll- li" />
		<tag k="natural" v="slope" />
		<tag k="place" v="locality" />
		<tag k="ssr:stedsnr" v="955726" />
	</node>
	<node id="-512528" lat="61.1735166666" lon="6.29178888738">
		<tag k="name" v="Gytta" />
		<tag k="natural" v="hill" />
		<tag k="place" v="locality" />
		<tag k="ssr:stedsnr" v="955611" />
	</node>
	<node id="-512524" lat="61.1209166651" lon="6.34766665856">
		<tag k="name" v="Hanshola" />
		<tag k="natural" v="gorge" />
		<tag k="ssr:stedsnr" v="955487" />
	</node>
	<node id="-512523" lat="61.161283333" lon="6.3710361149">
		<tag k="name" v="Hesjedalsleite" />
		<tag k="place" v="locality" />
		<tag k="ssr:stedsnr" v="955459" />
	</node>
	<node id="-512522" lat="61.1614166667" lon="6.3122638977">
		<tag k="name" v="Mannsli" />
		<tag k="natural" v="slope" />
		<tag k="place" v="locality" />
		<tag k="ssr:stedsnr" v="955426" />
	</node>
	<node id="-512521" lat="61.1581944436" lon="6.33549166276">
		<tag k="name" v="Dalsbotnen" />
		<tag k="natural" v="valley" />
		<tag k="place" v="locality" />
		<tag k="ssr:stedsnr" v="955419" />
	</node>
	<node id="-512520" lat="61.1907222267" lon="6.52491389265">
		<tag k="name" v="Øyanehaugen" />
		<tag k="natural" v="hill" />
		<tag k="place" v="locality" />
		<tag k="ssr:stedsnr" v="955075" />
	</node>
	<node id="-512519" lat="61.2017277796" lon="6.49397776886">
		<tag k="fixme" v="consider natural=peak for the most distinct mountains in the district" />
		<tag k="name" v="Varahaug" />
		<tag k="natural" v="hill" />
		<tag k="place" v="locality" />
		<tag k="ssr:stedsnr" v="955063" />
	</node>
	<node id="-512517" lat="61.2041833325" lon="6.47805277052">
		<tag k="name" v="Geithalsen" />
		<tag k="natural" v="hill" />
		<tag k="place" v="locality" />
		<tag k="ssr:stedsnr" v="955055" />
	</node>
	<node id="-512515" lat="61.2851444487" lon="6.47943888269">
		<tag k="fixme" v="consider natural=peak for the most distinct mountains in the district" />
		<tag k="name" v="Liahamaren" />
		<tag k="natural" v="hill" />
		<tag k="place" v="locality" />
		<tag k="ssr:stedsnr" v="955037" />
	</node>
	<node id="-512513" lat="61.1477361088" lon="6.52219444381">
		<tag k="name" v="Hanarvikdalen" />
		<tag k="natural" v="valley" />
		<tag k="place" v="locality" />
		<tag k="ssr:stedsnr" v="931982" />
	</node>
	<node id="-512512" lat="61.1935839928" lon="6.2393048092">
		<tag k="name" v="Lånedalen" />
		<tag k="natural" v="valley" />
		<tag k="place" v="locality" />
		<tag k="ssr:stedsnr" v="920738" />
	</node>
	<node id="-512510" lat="61.1986444447" lon="6.27164444434">
		<tag k="fixme" v="consider natural=peak for the most distinct mountains in the district" />
		<tag k="name" v="Kvannfjellet" />
		<tag k="natural" v="hill" />
		<tag k="place" v="locality" />
		<tag k="ssr:stedsnr" v="920721" />
	</node>
	<node id="-512505" lat="61.2359750004" lon="6.63708056434">
		<tag k="fixme" v="consider natural=peak for the most distinct mountains in the district" />
		<tag k="name" v="Vassvarden" />
		<tag k="natural" v="hill" />
		<tag k="place" v="locality" />
		<tag k="ssr:stedsnr" v="919544" />
	</node>
	<node id="-512504" lat="61.2451944454" lon="6.62095278298">
		<tag k="alt_name" v="Svartefossgjelet" />
		<tag k="name" v="Svartefossgilet" />
		<tag k="natural" v="gorge" />
		<tag k="ssr:stedsnr" v="919527" />
	</node>
	<node id="-512503" lat="61.1864555568" lon="6.18728333174">
		<tag k="fixme" v="consider natural=peak for the most distinct mountains in the district" />
		<tag k="name" v="Bolstadnipi" />
		<tag k="natural" v="hill" />
		<tag k="place" v="locality" />
		<tag k="ssr:stedsnr" v="919347" />
	</node>
	<node id="-512501" lat="61.1793083332" lon="6.17701665891">
		<tag k="name" v="Hovden" />
		<tag k="natural" v="hill" />
		<tag k="place" v="locality" />
		<tag k="ssr:stedsnr" v="919331" />
	</node>
	<node id="-512499" lat="61.2515416697" lon="6.47669444382">
		<tag k="name" v="Vetlebotn" />
		<tag k="natural" v="valley" />
		<tag k="place" v="locality" />
		<tag k="ssr:stedsnr" v="918893" />
	</node>
	<node id="-512497" lat="61.2565305584" lon="6.48658887947">
		<tag k="name" v="Dalsdalen" />
		<tag k="natural" v="valley" />
		<tag k="place" v="locality" />
		<tag k="ssr:stedsnr" v="918882" />
	</node>
	<node id="-512491" lat="61.1731750029" lon="6.30450278577">
		<tag k="name" v="Norddalen" />
		<tag k="natural" v="valley" />
		<tag k="place" v="locality" />
		<tag k="ssr:stedsnr" v="918499" />
	</node>
	<node id="-512486" lat="61.1675833361" lon="6.22621667166">
		<tag k="name" v="Kvistdalen" />
		<tag k="natural" v="valley" />
		<tag k="place" v="locality" />
		<tag k="ssr:stedsnr" v="859715" />
	</node>
	<node id="-512483" lat="61.2152805534" lon="6.30524165859">
		<tag k="name" v="Langedalen" />
		<tag k="natural" v="valley" />
		<tag k="place" v="locality" />
		<tag k="ssr:stedsnr" v="859663" />
	</node>
	<node id="-512477" lat="61.1630083327" lon="6.37320556226">
		<tag k="alt_name" v="Dyreskar" />
		<tag k="name" v="Dyreskardet" />
		<tag k="natural" v="valley" />
		<tag k="place" v="locality" />
		<tag k="ssr:stedsnr" v="859605" />
	</node>
	<node id="-512476" lat="61.2430444458" lon="6.61298611102">
		<tag k="name" v="Veljaskreda" />
		<tag k="natural" v="gorge" />
		<tag k="ssr:stedsnr" v="859485" />
	</node>
	<node id="-512470" lat="61.1339111134" lon="6.34099444527">
		<tag k="alt_name" v="Steinskarhaugen" />
		<tag k="name" v="Steinskardhaug" />
		<tag k="natural" v="hill" />
		<tag k="place" v="locality" />
		<tag k="ssr:stedsnr" v="858675" />
	</node>
	<node id="-512462" lat="61.2762416663" lon="6.40381667573">
		<tag k="name" v="Trollabotn" />
		<tag k="natural" v="valley" />
		<tag k="place" v="locality" />
		<tag k="ssr:stedsnr" v="857776" />
	</node>
	<node id="-512456" lat="61.3617277742" lon="6.51963332715">
		<tag k="name" v="Vasshaugane" />
		<tag k="natural" v="hill" />
		<tag k="place" v="locality" />
		<tag k="ssr:stedsnr" v="857718" />
	</node>
	<node id="-512453" lat="61.2513527808" lon="6.62938610588">
		<tag k="name" v="Vetle Trodalen" />
		<tag k="natural" v="valley" />
		<tag k="place" v="locality" />
		<tag k="ssr:stedsnr" v="857165" />
	</node>
	<node id="-512450" lat="61.1170277748" lon="6.35521110257">
		<tag k="name" v="Tussvikberget" />
		<tag k="natural" v="hill" />
		<tag k="place" v="locality" />
		<tag k="ssr:stedsnr" v="843655" />
	</node>
	<node id="-512447" lat="61.1662611069" lon="6.20599167">
		<tag k="name" v="Kongsneshola" />
		<tag k="natural" v="slope" />
		<tag k="place" v="locality" />
		<tag k="ssr:stedsnr" v="835895" />
	</node>
	<node id="-512446" lat="61.3036999974" lon="6.54468611753">
		<tag k="name" v="Kaldegjelet" />
		<tag k="natural" v="gorge" />
		<tag k="ssr:stedsnr" v="835884" />
	</node>
	<node id="-512445" lat="61.2311333329" lon="6.45789722542">
		<tag k="name" v="Kvanngrøhaugen" />
		<tag k="natural" v="hill" />
		<tag k="place" v="locality" />
		<tag k="ssr:stedsnr" v="835804" />
	</node>
	<node id="-512443" lat="61.1978138869" lon="6.24928888006">
		<tag k="name" v="Stølshamrane" />
		<tag k="natural" v="hill" />
		<tag k="place" v="locality" />
		<tag k="ssr:stedsnr" v="835772" />
	</node>
	<node id="-512442" lat="61.3551361089" lon="6.55305832824">
		<tag k="name" v="Trolløyna" />
		<tag k="place" v="locality" />
		<tag k="ssr:stedsnr" v="835766" />
	</node>
	<node id="-512441" lat="61.3484777753" lon="6.55276667381">
		<tag k="name" v="Krekane" />
		<tag k="natural" v="slope" />
		<tag k="place" v="locality" />
		<tag k="ssr:stedsnr" v="835760" />
	</node>
	<node id="-512440" lat="61.3185333309" lon="6.58763334062">
		<tag k="name" v="Gyttebotn" />
		<tag k="natural" v="valley" />
		<tag k="place" v="locality" />
		<tag k="ssr:stedsnr" v="835750" />
	</node>
	<node id="-512438" lat="61.2644333304" lon="6.48255277419">
		<tag k="fixme" v="consider natural=peak for the most distinct mountains in the district" />
		<tag k="name" v="Røyrfjellet" />
		<tag k="natural" v="hill" />
		<tag k="place" v="locality" />
		<tag k="ssr:stedsnr" v="835609" />
	</node>
	<node id="-512437" lat="61.1153055575" lon="6.39398611377">
		<tag k="name" v="Brusvoi" />
		<tag k="natural" v="slope" />
		<tag k="place" v="locality" />
		<tag k="ssr:stedsnr" v="835343" />
	</node>
	<node id="-512436" lat="61.1169444414" lon="6.36938889602">
		<tag k="name" v="Fuglabotn" />
		<tag k="natural" v="valley" />
		<tag k="place" v="locality" />
		<tag k="ssr:stedsnr" v="835336" />
	</node>
	<node id="-512435" lat="61.111427774" lon="6.37675277165">
		<tag k="name" v="Vellene" />
		<tag k="natural" v="hill" />
		<tag k="place" v="locality" />
		<tag k="ssr:stedsnr" v="835334" />
	</node>
	<node id="-512432" lat="61.1413166626" lon="6.29585555937">
		<tag k="fixme" v="consider natural=peak for the most distinct mountains in the district" />
		<tag k="name" v="Novi" />
		<tag k="natural" v="hill" />
		<tag k="place" v="locality" />
		<tag k="ssr:stedsnr" v="835248" />
	</node>
	<node id="-512431" lat="61.1952722212" lon="6.21689999944">
		<tag k="name" v="Storlihaug" />
		<tag k="natural" v="hill" />
		<tag k="place" v="locality" />
		<tag k="ssr:stedsnr" v="835168" />
	</node>
	<node id="-512429" lat="61.1388083379" lon="6.48601389607">
		<tag k="name" v="Korkaberggjelet" />
		<tag k="natural" v="valley" />
		<tag k="place" v="locality" />
		<tag k="ssr:stedsnr" v="835070" />
	</node>
	<node id="-512428" lat="61.1409638917" lon="6.52595832981">
		<tag k="name" v="Varpe" />
		<tag k="natural" v="slope" />
		<tag k="place" v="locality" />
		<tag k="ssr:stedsnr" v="835031" />
	</node>
	<node id="-512425" lat="61.1576305597" lon="6.50153888234">
		<tag k="name" v="Sjyrli" />
		<tag k="natural" v="slope" />
		<tag k="place" v="locality" />
		<tag k="ssr:stedsnr" v="834980" />
	</node>
	<node id="-512424" lat="61.2816027802" lon="6.50376388394">
		<tag k="name" v="Kviene" />
		<tag k="natural" v="hill" />
		<tag k="place" v="locality" />
		<tag k="ssr:stedsnr" v="834958" />
	</node>
	<node id="-512423" lat="61.2844694423" lon="6.61642778129">
		<tag k="name" v="Nåberedalen" />
		<tag k="natural" v="valley" />
		<tag k="place" v="locality" />
		<tag k="ssr:stedsnr" v="834932" />
	</node>
	<node id="-512418" lat="61.1434944449" lon="6.53910278232">
		<tag k="name" v="Vellaløype" />
		<tag k="natural" v="slope" />
		<tag k="place" v="locality" />
		<tag k="ssr:stedsnr" v="834815" />
	</node>
	<node id="-512417" lat="61.2370555517" lon="6.46356111755">
		<tag k="name" v="Rindane" />
		<tag k="natural" v="hill" />
		<tag k="place" v="locality" />
		<tag k="ssr:stedsnr" v="834790" />
	</node>
	<node id="-512416" lat="61.1881888897" lon="6.23973056307">
		<tag k="name" v="Brattereina" />
		<tag k="natural" v="hill" />
		<tag k="place" v="locality" />
		<tag k="ssr:stedsnr" v="834771" />
	</node>
	<node id="-512415" lat="61.2740638867" lon="6.50115834255">
		<tag k="name" v="Skakka" />
		<tag k="natural" v="hill" />
		<tag k="place" v="locality" />
		<tag k="ssr:stedsnr" v="834751" />
	</node>
	<node id="-512413" lat="61.1650388931" lon="6.25620556144">
		<tag k="name" v="Kråkeskar" />
		<tag k="natural" v="valley" />
		<tag k="place" v="locality" />
		<tag k="ssr:stedsnr" v="834719" />
	</node>
	<node id="-512411" lat="61.1554055512" lon="6.26483610662">
		<tag k="name" v="Kinnhaug" />
		<tag k="natural" v="hill" />
		<tag k="place" v="locality" />
		<tag k="ssr:stedsnr" v="834699" />
	</node>
	<node id="-512410" lat="61.2685250013" lon="6.59083055879">
		<tag k="fixme" v="consider natural=peak for the most distinct mountains in the district" />
		<tag k="name" v="Raunehaugen" />
		<tag k="natural" v="hill" />
		<tag k="place" v="locality" />
		<tag k="ssr:stedsnr" v="834681" />
	</node>
	<node id="-512409" lat="61.1599138875" lon="6.23748611985">
		<tag k="name" v="Storagjelet" />
		<tag k="natural" v="valley" />
		<tag k="place" v="locality" />
		<tag k="ssr:stedsnr" v="834668" />
	</node>
	<node id="-512408" lat="61.1706361153" lon="6.32863333467">
		<tag k="fixme" v="consider natural=peak for the most distinct mountains in the district" />
		<tag k="name" v="Urateigfjellet" />
		<tag k="natural" v="hill" />
		<tag k="place" v="locality" />
		<tag k="ssr:stedsnr" v="834662" />
	</node>
	<node id="-512407" lat="61.1679555527" lon="6.2939222244">
		<tag k="name" v="Vassvollen" />
		<tag k="place" v="locality" />
		<tag k="ssr:stedsnr" v="834621" />
	</node>
	<node id="-512406" lat="61.2641083362" lon="6.49661943758">
		<tag k="name" v="Krosshaug" />
		<tag k="natural" v="hill" />
		<tag k="place" v="locality" />
		<tag k="ssr:stedsnr" v="834601" />
	</node>
	<node id="-512405" lat="61.3860083344" lon="6.55951667499">
		<tag k="name" v="Breaskaret" />
		<tag k="natural" v="valley" />
		<tag k="place" v="locality" />
		<tag k="ssr:stedsnr" v="834584" />
	</node>
	<node id="-512401" lat="61.1661027806" lon="6.30670833569">
		<tag k="name" v="Skotbakken" />
		<tag k="natural" v="slope" />
		<tag k="place" v="locality" />
		<tag k="ssr:stedsnr" v="834412" />
	</node>
	<node id="-512399" lat="61.1303277749" lon="6.3318861118">
		<tag k="name" v="Tuftagjelet" />
		<tag k="natural" v="valley" />
		<tag k="place" v="locality" />
		<tag k="ssr:stedsnr" v="834272" />
	</node>
	<node id="-512398" lat="61.1934277804" lon="6.50224999089">
		<tag k="fixme" v="consider natural=peak for the most distinct mountains in the district" />
		<tag k="name" v="Holtanipa" />
		<tag k="natural" v="hill" />
		<tag k="place" v="locality" />
		<tag k="ssr:stedsnr" v="834083" />
	</node>
	<node id="-512397" lat="61.203852774" lon="6.47492222531">
		<tag k="name" v="Gyren" />
		<tag k="natural" v="ridge" />
		<tag k="place" v="locality" />
		<tag k="ssr:stedsnr" v="834069" />
	</node>
	<node id="-512396" lat="61.2074416683" lon="6.4919944515">
		<tag k="name" v="Almeskor" />
		<tag k="natural" v="valley" />
		<tag k="place" v="locality" />
		<tag k="ssr:stedsnr" v="834059" />
	</node>
	<node id="-512395" lat="61.3022777781" lon="6.46698333598">
		<tag k="fixme" v="consider natural=peak for the most distinct mountains in the district" />
		<tag k="name" v="Kvitskredholten" />
		<tag k="natural" v="hill" />
		<tag k="place" v="locality" />
		<tag k="ssr:stedsnr" v="834042" />
	</node>
	<node id="-512391" lat="61.1764444406" lon="6.22442222334">
		<tag k="fixme" v="consider natural=peak for the most distinct mountains in the district" />
		<tag k="name" v="Sandvikafjellet" />
		<tag k="natural" v="hill" />
		<tag k="place" v="locality" />
		<tag k="ssr:stedsnr" v="832856" />
	</node>
	<node id="-512390" lat="61.1716638849" lon="6.21393611336">
		<tag k="name" v="Legene" />
		<tag k="natural" v="slope" />
		<tag k="place" v="locality" />
		<tag k="ssr:stedsnr" v="831783" />
	</node>
	<node id="-512389" lat="61.1970166689" lon="6.22103611425">
		<tag k="name" v="Røyrdalen" />
		<tag k="natural" v="valley" />
		<tag k="place" v="locality" />
		<tag k="ssr:stedsnr" v="825110" />
	</node>
	<node id="-512388" lat="61.1977805593" lon="6.22619167487">
		<tag k="name" v="Vetlalyngskori" />
		<tag k="natural" v="valley" />
		<tag k="place" v="locality" />
		<tag k="ssr:stedsnr" v="825109" />
	</node>
	<node id="-512385" lat="61.3438749963" lon="6.54486389809">
		<tag k="name" v="Rindane" />
		<tag k="natural" v="slope" />
		<tag k="place" v="locality" />
		<tag k="ssr:stedsnr" v="809660" />
	</node>
	<node id="-512384" lat="61.1840694433" lon="6.24250000829">
		<tag k="name" v="Kaldagilet" />
		<tag k="natural" v="valley" />
		<tag k="place" v="locality" />
		<tag k="ssr:stedsnr" v="798703" />
	</node>
	<node id="-512383" lat="61.1614083325" lon="6.27683333175">
		<tag k="fixme" v="consider natural=peak for the most distinct mountains in the district" />
		<tag k="name" v="Hovden" />
		<tag k="natural" v="hill" />
		<tag k="place" v="locality" />
		<tag k="ssr:stedsnr" v="798698" />
	</node>
	<node id="-512382" lat="61.1715833342" lon="6.35975278558">
		<tag k="name" v="Gullklantane" />
		<tag k="natural" v="hill" />
		<tag k="place" v="locality" />
		<tag k="ssr:stedsnr" v="798695" />
	</node>
	<node id="-512380" lat="61.1842555581" lon="6.45673333625">
		<tag k="name" v="Nonskardet" />
		<tag k="natural" v="valley" />
		<tag k="place" v="locality" />
		<tag k="ssr:stedsnr" v="798687" />
	</node>
	<node id="-512377" lat="61.1995388918" lon="6.40439999594">
		<tag k="fixme" v="consider natural=peak for the most distinct mountains in the district" />
		<tag k="name" v="Sauavassholten" />
		<tag k="natural" v="hill" />
		<tag k="place" v="locality" />
		<tag k="ssr:stedsnr" v="798675" />
	</node>
	<node id="-512374" lat="61.2334527791" lon="6.46559721281">
		<tag k="name" v="Furehaugen" />
		<tag k="natural" v="hill" />
		<tag k="place" v="locality" />
		<tag k="ssr:stedsnr" v="798660" />
	</node>
	<node id="-512372" lat="61.1334888921" lon="6.41558334026">
		<tag k="name" v="Grysseteklypet" />
		<tag k="natural" v="valley" />
		<tag k="place" v="locality" />
		<tag k="ssr:stedsnr" v="798642" />
	</node>
	<node id="-512371" lat="61.1251888909" lon="6.39211667393">
		<tag k="name" v="Geiskedalen" />
		<tag k="natural" v="valley" />
		<tag k="place" v="locality" />
		<tag k="ssr:stedsnr" v="798637" />
	</node>
	<node id="-512370" lat="61.1223277733" lon="6.41484166377">
		<tag k="name" v="Haukedalen" />
		<tag k="natural" v="valley" />
		<tag k="place" v="locality" />
		<tag k="ssr:stedsnr" v="798636" />
	</node>
	<node id="-512365" lat="61.5553249979" lon="6.76483333664">
		<tag k="fixme" v="consider natural=peak for the most distinct mountains in the district" />
		<tag k="name" v="Kaldekari" />
		<tag k="natural" v="hill" />
		<tag k="place" v="locality" />
		<tag k="ssr:stedsnr" v="798809" />
	</node>
	<node id="-512364" lat="61.1839111083" lon="6.16169999291">
		<tag k="name" v="Svalebotnen" />
		<tag k="natural" v="valley" />
		<tag k="place" v="locality" />
		<tag k="ssr:stedsnr" v="798354" />
	</node>
	<node id="-512363" lat="61.1899916644" lon="6.20055556485">
		<tag k="name" v="Kleneryggen" />
		<tag k="natural" v="slope" />
		<tag k="place" v="locality" />
		<tag k="ssr:stedsnr" v="798324" />
	</node>
	<node id="-512362" lat="61.1954472244" lon="6.20762777148">
		<tag k="fixme" v="consider natural=peak for the most distinct mountains in the district" />
		<tag k="name" v="Tussnipi" />
		<tag k="natural" v="hill" />
		<tag k="place" v="locality" />
		<tag k="ssr:stedsnr" v="798325" />
	</node>
	<node id="-512360" lat="61.1708694488" lon="6.15122777477">
		<tag k="name" v="Eitredalen" />
		<tag k="natural" v="valley" />
		<tag k="place" v="locality" />
		<tag k="ssr:stedsnr" v="798314" />
	</node>
	<node id="-512358" lat="61.1817361131" lon="6.16640000778">
		<tag k="fixme" v="consider natural=peak for the most distinct mountains in the district" />
		<tag k="name" v="Vardeggi" />
		<tag k="natural" v="hill" />
		<tag k="place" v="locality" />
		<tag k="ssr:stedsnr" v="798310" />
	</node>
	<node id="-512357" lat="61.3230361082" lon="6.47359721407">
		<tag k="fixme" v="consider natural=peak for the most distinct mountains in the district" />
		<tag k="name" v="Tuftanovi" />
		<tag k="natural" v="hill" />
		<tag k="place" v="locality" />
		<tag k="ssr:stedsnr" v="797825" />
	</node>
	<node id="-512356" lat="61.3092861098" lon="6.46644721865">
		<tag k="name" v="Kabusa" />
		<tag k="natural" v="hill" />
		<tag k="place" v="locality" />
		<tag k="ssr:stedsnr" v="797811" />
	</node>
	<node id="-512353" lat="61.3935916668" lon="6.6061333388">
		<tag k="fixme" v="consider natural=peak for the most distinct mountains in the district" />
		<tag k="name" v="Grøndalsnipa" />
		<tag k="natural" v="hill" />
		<tag k="place" v="locality" />
		<tag k="ssr:stedsnr" v="796912" />
	</node>
	<node id="-512349" lat="61.2935305594" lon="6.40036944231">
		<tag k="fixme" v="consider natural=peak for the most distinct mountains in the district" />
		<tag k="name" v="Trollabotseggi" />
		<tag k="natural" v="hill" />
		<tag k="place" v="locality" />
		<tag k="ssr:stedsnr" v="796769" />
	</node>
	<node id="-512348" lat="61.3008027752" lon="6.50594166766">
		<tag k="fixme" v="consider natural=peak for the most distinct mountains in the district" />
		<tag k="name" v="Blåhesten" />
		<tag k="natural" v="hill" />
		<tag k="place" v="locality" />
		<tag k="ssr:stedsnr" v="796767" />
	</node>
	<node id="-512346" lat="61.3538722229" lon="6.48035278611">
		<tag k="name" v="Gammalstølsbotn" />
		<tag k="natural" v="valley" />
		<tag k="place" v="locality" />
		<tag k="ssr:stedsnr" v="796717" />
	</node>
	<node id="-512343" lat="61.3500055597" lon="6.51910277352">
		<tag k="name" v="Nystølsskaret" />
		<tag k="natural" v="valley" />
		<tag k="place" v="locality" />
		<tag k="ssr:stedsnr" v="796696" />
	</node>
	<node id="-512332" lat="61.2028444426" lon="6.46114444494">
		<tag k="name" v="Halsali" />
		<tag k="natural" v="slope" />
		<tag k="place" v="locality" />
		<tag k="ssr:stedsnr" v="774815" />
	</node>
	<node id="-512330" lat="61.3185749959" lon="6.57215555341">
		<tag k="name" v="Kvernhusøyna" />
		<tag k="place" v="locality" />
		<tag k="ssr:stedsnr" v="774747" />
	</node>
	<node id="-512326" lat="61.1234166683" lon="6.38796944134">
		<tag k="name" v="Almehaugen" />
		<tag k="natural" v="hill" />
		<tag k="place" v="locality" />
		<tag k="ssr:stedsnr" v="774379" />
	</node>
	<node id="-512325" lat="61.1159361086" lon="6.38668610662">
		<tag k="name" v="Storkleivdalen" />
		<tag k="natural" v="valley" />
		<tag k="place" v="locality" />
		<tag k="ssr:stedsnr" v="774378" />
	</node>
	<node id="-512322" lat="61.1153500046" lon="6.46017222854">
		<tag k="name" v="Rallgytta" />
		<tag k="natural" v="valley" />
		<tag k="place" v="locality" />
		<tag k="ssr:stedsnr" v="774105" />
	</node>
	<node id="-512321" lat="61.1160333361" lon="6.46496666151">
		<tag k="name" v="Otregytta" />
		<tag k="natural" v="valley" />
		<tag k="place" v="locality" />
		<tag k="ssr:stedsnr" v="774102" />
	</node>
	<node id="-512320" lat="61.1361972196" lon="6.50275834061">
		<tag k="fixme" v="consider natural=peak for the most distinct mountains in the district" />
		<tag k="name" v="Åsen" />
		<tag k="natural" v="hill" />
		<tag k="place" v="locality" />
		<tag k="ssr:stedsnr" v="774044" />
	</node>
	<node id="-512319" lat="61.2117249972" lon="6.48888888347">
		<tag k="name" v="Vellene" />
		<tag k="place" v="locality" />
		<tag k="ssr:stedsnr" v="773999" />
	</node>
	<node id="-512318" lat="61.2127000008" lon="6.48090278329">
		<tag k="name" v="Legene" />
		<tag k="place" v="locality" />
		<tag k="ssr:stedsnr" v="773995" />
	</node>
	<node id="-512316" lat="61.2795388859" lon="6.50088055178">
		<tag k="name" v="Øyane" />
		<tag k="place" v="locality" />
		<tag k="ssr:stedsnr" v="773963" />
	</node>
	<node id="-512314" lat="61.2176500007" lon="6.47923889325">
		<tag k="fixme" v="consider natural=peak for the most distinct mountains in the district" />
		<tag k="name" v="Orraleiken" />
		<tag k="natural" v="hill" />
		<tag k="place" v="locality" />
		<tag k="ssr:stedsnr" v="773920" />
	</node>
	<node id="-512312" lat="61.223019441" lon="6.59703610993">
		<tag k="name" v="Algjelet" />
		<tag k="natural" v="gorge" />
		<tag k="ssr:stedsnr" v="773868" />
	</node>
	<node id="-512310" lat="61.2242194457" lon="6.51759444161">
		<tag k="name" v="Ospehaugen" />
		<tag k="natural" v="hill" />
		<tag k="place" v="locality" />
		<tag k="ssr:stedsnr" v="773862" />
	</node>
	<node id="-512309" lat="61.2252694487" lon="6.5207750033">
		<tag k="name" v="Storesteinane" />
		<tag k="natural" v="hill" />
		<tag k="place" v="locality" />
		<tag k="ssr:stedsnr" v="773859" />
	</node>
	<node id="-512307" lat="61.2777499987" lon="6.57487776865">
		<tag k="fixme" v="consider natural=peak for the most distinct mountains in the district" />
		<tag k="name" v="Brukaskredholten" />
		<tag k="natural" v="hill" />
		<tag k="place" v="locality" />
		<tag k="ssr:stedsnr" v="773805" />
	</node>
	<node id="-512306" lat="61.2369916628" lon="6.59031112051">
		<tag k="name" v="Frykjelenhamrane" />
		<tag k="natural" v="hill" />
		<tag k="place" v="locality" />
		<tag k="ssr:stedsnr" v="773798" />
	</node>
	<node id="-512305" lat="61.1711499994" lon="6.19051944901">
		<tag k="name" v="Styggegjelet" />
		<tag k="natural" v="valley" />
		<tag k="place" v="locality" />
		<tag k="ssr:stedsnr" v="773763" />
	</node>
	<node id="-512303" lat="61.2389611091" lon="6.47216944844">
		<tag k="name" v="Steinskredstupen" />
		<tag k="natural" v="gorge" />
		<tag k="ssr:stedsnr" v="773755" />
	</node>
	<node id="-512301" lat="61.1550638898" lon="6.27699722508">
		<tag k="alt_name" v="Hjellbrekke  Flåten" />
		<tag k="name" v="Hjellbrekkeflåten" />
		<tag k="natural" v="slope" />
		<tag k="place" v="locality" />
		<tag k="ssr:stedsnr" v="773731" />
	</node>
	<node id="-512300" lat="61.1527361091" lon="6.28888611645">
		<tag k="name" v="Grønemyrhaugen" />
		<tag k="natural" v="hill" />
		<tag k="place" v="locality" />
		<tag k="ssr:stedsnr" v="773722" />
	</node>
	<node id="-512298" lat="61.2590555512" lon="6.46568888999">
		<tag k="fixme" v="consider natural=peak for the most distinct mountains in the district" />
		<tag k="name" v="Selhamaren" />
		<tag k="natural" v="hill" />
		<tag k="place" v="locality" />
		<tag k="ssr:stedsnr" v="773719" />
	</node>
	<node id="-512297" lat="61.2544027794" lon="6.53547777468">
		<tag k="name" v="Botnahola" />
		<tag k="natural" v="valley" />
		<tag k="place" v="locality" />
		<tag k="ssr:stedsnr" v="773714" />
	</node>
	<node id="-512296" lat="61.3264944447" lon="6.54935556252">
		<tag k="fixme" v="consider natural=peak for the most distinct mountains in the district" />
		<tag k="name" v="Blåfjellet" />
		<tag k="natural" v="hill" />
		<tag k="place" v="locality" />
		<tag k="ssr:stedsnr" v="773678" />
	</node>
	<node id="-512295" lat="61.1576305574" lon="6.27051389132">
		<tag k="name" v="Lønningløa" />
		<tag k="natural" v="slope" />
		<tag k="place" v="locality" />
		<tag k="ssr:stedsnr" v="773669" />
	</node>
	<node id="-512294" lat="61.374855558" lon="6.55685000846">
		<tag k="name" v="Rundehaugen" />
		<tag k="natural" v="hill" />
		<tag k="place" v="locality" />
		<tag k="ssr:stedsnr" v="773659" />
	</node>
	<node id="-512293" lat="61.3603611138" lon="6.56181389209">
		<tag k="name" v="Måsehamaren" />
		<tag k="natural" v="hill" />
		<tag k="place" v="locality" />
		<tag k="ssr:stedsnr" v="773639" />
	</node>
	<node id="-512292" lat="61.3608222236" lon="6.56363610712">
		<tag k="name" v="Måshamrali" />
		<tag k="natural" v="slope" />
		<tag k="place" v="locality" />
		<tag k="ssr:stedsnr" v="773637" />
	</node>
	<node id="-512289" lat="61.1459416636" lon="6.26254444893">
		<tag k="name" v="Lyderhaug" />
		<tag k="natural" v="hill" />
		<tag k="place" v="locality" />
		<tag k="ssr:stedsnr" v="773566" />
	</node>
	<node id="-512288" lat="61.1519555547" lon="6.29404165768">
		<tag k="name" v="Skiveåsen" />
		<tag k="natural" v="ridge" />
		<tag k="place" v="locality" />
		<tag k="ssr:stedsnr" v="773453" />
	</node>
	<node id="-512285" lat="61.1273166653" lon="6.39621110639">
		<tag k="name" v="Øvste Sjonarhaug" />
		<tag k="natural" v="hill" />
		<tag k="place" v="locality" />
		<tag k="ssr:stedsnr" v="773302" />
	</node>
	<node id="-512284" lat="61.1311416674" lon="6.31563610858">
		<tag k="name" v="Flåten" />
		<tag k="natural" v="hill" />
		<tag k="place" v="locality" />
		<tag k="ssr:stedsnr" v="773283" />
	</node>
	<node id="-512282" lat="61.20715278" lon="6.50689167226">
		<tag k="name" v="Klukkshaug" />
		<tag k="natural" v="hill" />
		<tag k="place" v="locality" />
		<tag k="ssr:stedsnr" v="773064" />
	</node>
	<node id="-512281" lat="61.2087916695" lon="6.50244999128">
		<tag k="name" v="Saltruna" />
		<tag k="natural" v="hill" />
		<tag k="place" v="locality" />
		<tag k="ssr:stedsnr" v="773061" />
	</node>
	<node id="-512279" lat="61.209291671" lon="6.52444722342">
		<tag k="name" v="Raushjellane" />
		<tag k="place" v="locality" />
		<tag k="ssr:stedsnr" v="773003" />
	</node>
	<node id="-512278" lat="61.1887194432" lon="6.20210276927">
		<tag k="name" v="Raundalsåsen" />
		<tag k="natural" v="ridge" />
		<tag k="place" v="locality" />
		<tag k="ssr:stedsnr" v="772834" />
	</node>
	<node id="-512277" lat="61.17963056" lon="6.19951389004">
		<tag k="name" v="Liaflaten" />
		<tag k="natural" v="slope" />
		<tag k="place" v="locality" />
		<tag k="ssr:stedsnr" v="772821" />
	</node>
	<node id="-512276" lat="61.257136115" lon="6.57289721925">
		<tag k="name" v="Stegen" />
		<tag k="natural" v="hill" />
		<tag k="place" v="locality" />
		<tag k="ssr:stedsnr" v="773708" />
	</node>
	<node id="-512274" lat="61.1719944435" lon="6.22174166332">
		<tag k="name" v="Almebotnen" />
		<tag k="natural" v="valley" />
		<tag k="place" v="locality" />
		<tag k="ssr:stedsnr" v="770817" />
	</node>
	<node id="-512272" lat="61.1586666673" lon="6.13732499411">
		<tag k="fixme" v="consider natural=peak for the most distinct mountains in the district" />
		<tag k="name" v="Eitrenesåsen" />
		<tag k="natural" v="hill" />
		<tag k="place" v="locality" />
		<tag k="ssr:stedsnr" v="764155" />
	</node>
	<node id="-512270" lat="61.1833277743" lon="6.38306944722">
		<tag k="name" v="Øvrebotnen" />
		<tag k="natural" v="valley" />
		<tag k="place" v="locality" />
		<tag k="ssr:stedsnr" v="737740" />
	</node>
	<node id="-512267" lat="61.1754999964" lon="6.52265278726">
		<tag k="alt_name" v="Leitehaug" />
		<tag k="name" v="Leitehaugen" />
		<tag k="natural" v="hill" />
		<tag k="place" v="locality" />
		<tag k="ssr:stedsnr" v="737725" />
	</node>
	<node id="-512266" lat="61.199716665" lon="6.32351388766">
		<tag k="fixme" v="consider natural=peak for the most distinct mountains in the district" />
		<tag k="name" v="Norddalsnipi" />
		<tag k="natural" v="hill" />
		<tag k="place" v="locality" />
		<tag k="ssr:stedsnr" v="737717" />
	</node>
	<node id="-512264" lat="61.1859861109" lon="6.44124167584">
		<tag k="name" v="Igdedalseggi" />
		<tag k="natural" v="ridge" />
		<tag k="place" v="locality" />
		<tag k="ssr:stedsnr" v="737695" />
	</node>
	<node id="-512258" lat="61.1687083294" lon="6.21650555355">
		<tag k="fixme" v="consider natural=peak for the most distinct mountains in the district" />
		<tag k="name" v="Kongsnesåsen" />
		<tag k="natural" v="hill" />
		<tag k="place" v="locality" />
		<tag k="ssr:stedsnr" v="737323" />
	</node>
	<node id="-512252" lat="61.1636805576" lon="6.44063055869">
		<tag k="name" v="Saurdalseggi" />
		<tag k="natural" v="hill" />
		<tag k="place" v="locality" />
		<tag k="ssr:stedsnr" v="737633" />
	</node>
	<node id="-512250" lat="61.30222778" lon="6.39066667019">
		<tag k="name" v="Risbotndalen" />
		<tag k="natural" v="valley" />
		<tag k="place" v="locality" />
		<tag k="ssr:stedsnr" v="736787" />
	</node>
	<node id="-512249" lat="61.337805553" lon="6.51169167448">
		<tag k="fixme" v="consider natural=peak for the most distinct mountains in the district" />
		<tag k="name" v="Såfossenipa" />
		<tag k="natural" v="hill" />
		<tag k="place" v="locality" />
		<tag k="ssr:stedsnr" v="736726" />
	</node>
	<node id="-512248" lat="61.417238893" lon="6.62715277356">
		<tag k="fixme" v="consider natural=peak for the most distinct mountains in the district" />
		<tag k="name" v="Fremstagretta" />
		<tag k="natural" v="hill" />
		<tag k="place" v="locality" />
		<tag k="ssr:stedsnr" v="736879" />
	</node>
	<node id="-512247" lat="61.2716305533" lon="6.46493055884">
		<tag k="fixme" v="consider natural=peak for the most distinct mountains in the district" />
		<tag k="name" v="Fivelholten" />
		<tag k="natural" v="hill" />
		<tag k="place" v="locality" />
		<tag k="ssr:stedsnr" v="736867" />
	</node>
	<node id="-512245" lat="61.3206416697" lon="6.40425278653">
		<tag k="name" v="Mikkelbotnen" />
		<tag k="natural" v="valley" />
		<tag k="place" v="locality" />
		<tag k="ssr:stedsnr" v="736826" />
	</node>
	<node id="-512238" lat="61.2502249984" lon="6.43937777208">
		<tag k="fixme" v="consider natural=peak for the most distinct mountains in the district" />
		<tag k="name" v="Kjeipen" />
		<tag k="natural" v="hill" />
		<tag k="place" v="locality" />
		<tag k="ssr:stedsnr" v="721565" />
	</node>
	<node id="-512237" lat="61.3008722183" lon="6.54961945092">
		<tag k="name" v="Breiskreda" />
		<tag k="natural" v="valley" />
		<tag k="place" v="locality" />
		<tag k="ssr:stedsnr" v="721441" />
	</node>
	<node id="-512234" lat="61.2880999963" lon="6.5034833349">
		<tag k="name" v="Flåget" />
		<tag k="natural" v="hill" />
		<tag k="place" v="locality" />
		<tag k="ssr:stedsnr" v="713963" />
	</node>
	<node id="-512233" lat="61.1493750043" lon="6.52768055825">
		<tag k="name" v="Skutegjelet" />
		<tag k="natural" v="valley" />
		<tag k="place" v="locality" />
		<tag k="ssr:stedsnr" v="713957" />
	</node>
	<node id="-512229" lat="61.1137388876" lon="6.43993332497">
		<tag k="name" v="Raudløype" />
		<tag k="natural" v="hill" />
		<tag k="place" v="locality" />
		<tag k="ssr:stedsnr" v="713938" />
	</node>
	<node id="-512228" lat="61.1803055562" lon="6.52630276865">
		<tag k="name" v="Brattesvoi" />
		<tag k="natural" v="hill" />
		<tag k="place" v="locality" />
		<tag k="ssr:stedsnr" v="713918" />
	</node>
	<node id="-512225" lat="61.3104305521" lon="6.56918334112">
		<tag k="name" v="Degane" />
		<tag k="place" v="locality" />
		<tag k="ssr:stedsnr" v="713868" />
	</node>
	<node id="-512223" lat="61.2422833298" lon="6.54916945281">
		<tag k="name" v="Haug" />
		<tag k="natural" v="hill" />
		<tag k="place" v="locality" />
		<tag k="ssr:stedsnr" v="713850" />
	</node>
	<node id="-512222" lat="61.2404972248" lon="6.59156388355">
		<tag k="name" v="Kyrasva" />
		<tag k="natural" v="hill" />
		<tag k="place" v="locality" />
		<tag k="ssr:stedsnr" v="713834" />
	</node>
	<node id="-512221" lat="61.1601027793" lon="6.53502777018">
		<tag k="name" v="Lauvhjellene" />
		<tag k="place" v="locality" />
		<tag k="ssr:stedsnr" v="713821" />
	</node>
	<node id="-512218" lat="61.2577972207" lon="6.58071666126">
		<tag k="name" v="Vetleholten" />
		<tag k="natural" v="hill" />
		<tag k="place" v="locality" />
		<tag k="ssr:stedsnr" v="713759" />
	</node>
	<node id="-512217" lat="61.2535388887" lon="6.57218611629">
		<tag k="name" v="Hilleren" />
		<tag k="natural" v="hill" />
		<tag k="place" v="locality" />
		<tag k="ssr:stedsnr" v="713758" />
	</node>
	<node id="-512216" lat="61.1599861135" lon="6.28433334189">
		<tag k="fixme" v="consider natural=peak for the most distinct mountains in the district" />
		<tag k="name" v="Brennsethaugen" />
		<tag k="natural" v="hill" />
		<tag k="place" v="locality" />
		<tag k="ssr:stedsnr" v="713754" />
	</node>
	<node id="-512215" lat="61.3295222255" lon="6.57734165739">
		<tag k="name" v="Stegane" />
		<tag k="natural" v="hill" />
		<tag k="place" v="locality" />
		<tag k="ssr:stedsnr" v="713747" />
	</node>
	<node id="-512213" lat="61.3636638925" lon="6.55489445063">
		<tag k="name" v="Hovdagrandane" />
		<tag k="place" v="locality" />
		<tag k="ssr:stedsnr" v="713711" />
	</node>
	<node id="-512212" lat="61.1593611096" lon="6.23562500264">
		<tag k="fixme" v="consider natural=peak for the most distinct mountains in the district" />
		<tag k="name" v="Holten" />
		<tag k="natural" v="hill" />
		<tag k="place" v="locality" />
		<tag k="ssr:stedsnr" v="713712" />
	</node>
	<node id="-512211" lat="61.3553916637" lon="6.5687249909">
		<tag k="name" v="Stølsskredrinden" />
		<tag k="natural" v="ridge" />
		<tag k="place" v="locality" />
		<tag k="ssr:stedsnr" v="713705" />
	</node>
	<node id="-512209" lat="61.3487027779" lon="6.55998333492">
		<tag k="name" v="Opsene" />
		<tag k="natural" v="hill" />
		<tag k="place" v="locality" />
		<tag k="ssr:stedsnr" v="713661" />
	</node>
	<node id="-512207" lat="61.1542916706" lon="6.37930556366">
		<tag k="name" v="Leirane" />
		<tag k="place" v="locality" />
		<tag k="ssr:stedsnr" v="713487" />
	</node>
	<node id="-512206" lat="61.1492250033" lon="6.29556388098">
		<tag k="name" v="Styrebotnen" />
		<tag k="natural" v="valley" />
		<tag k="place" v="locality" />
		<tag k="ssr:stedsnr" v="713482" />
	</node>
	<node id="-512205" lat="61.1554222253" lon="6.40472499391">
		<tag k="fixme" v="consider natural=peak for the most distinct mountains in the district" />
		<tag k="name" v="Krårabben" />
		<tag k="natural" v="hill" />
		<tag k="place" v="locality" />
		<tag k="ssr:stedsnr" v="713471" />
	</node>
	<node id="-512201" lat="61.1664833344" lon="6.33658610443">
		<tag k="name" v="Kråna" />
		<tag k="natural" v="slope" />
		<tag k="place" v="locality" />
		<tag k="ssr:stedsnr" v="713436" />
	</node>
	<node id="-512200" lat="61.1601166648" lon="6.29644443579">
		<tag k="name" v="Bjødnaskori" />
		<tag k="natural" v="valley" />
		<tag k="place" v="locality" />
		<tag k="ssr:stedsnr" v="713416" />
	</node>
	<node id="-512199" lat="61.1387722201" lon="6.46583610489">
		<tag k="name" v="Galdane" />
		<tag k="natural" v="slope" />
		<tag k="place" v="locality" />
		<tag k="ssr:stedsnr" v="713352" />
	</node>
	<node id="-512198" lat="61.1336833317" lon="6.35311110652">
		<tag k="name" v="Heimstegarden" />
		<tag k="natural" v="slope" />
		<tag k="place" v="locality" />
		<tag k="ssr:stedsnr" v="713295" />
	</node>
	<node id="-512196" lat="61.1638194464" lon="6.15974167104">
		<tag k="name" v="Alteret" />
		<tag k="natural" v="ridge" />
		<tag k="place" v="locality" />
		<tag k="ssr:stedsnr" v="713176" />
	</node>
	<node id="-512195" lat="61.1722861119" lon="6.15518056121">
		<tag k="name" v="Middagsskori" />
		<tag k="natural" v="valley" />
		<tag k="place" v="locality" />
		<tag k="ssr:stedsnr" v="713127" />
	</node>
	<node id="-512193" lat="61.1184694468" lon="6.46067500748">
		<tag k="name" v="Hatlahola" />
		<tag k="natural" v="valley" />
		<tag k="place" v="locality" />
		<tag k="ssr:stedsnr" v="713098" />
	</node>
	<node id="-512192" lat="61.1347888921" lon="6.48028055474">
		<tag k="name" v="Hatlehola" />
		<tag k="natural" v="slope" />
		<tag k="place" v="locality" />
		<tag k="ssr:stedsnr" v="713080" />
	</node>
	<node id="-512191" lat="61.1370527742" lon="6.47945556024">
		<tag k="name" v="Tungereset" />
		<tag k="natural" v="ridge" />
		<tag k="place" v="locality" />
		<tag k="ssr:stedsnr" v="713075" />
	</node>
	<node id="-512187" lat="61.1351666635" lon="6.50721666109">
		<tag k="name" v="Merkeshaugen" />
		<tag k="natural" v="hill" />
		<tag k="place" v="locality" />
		<tag k="ssr:stedsnr" v="713051" />
	</node>
	<node id="-512186" lat="61.137541671" lon="6.51081389724">
		<tag k="name" v="Sandvikabakkane" />
		<tag k="natural" v="slope" />
		<tag k="place" v="locality" />
		<tag k="ssr:stedsnr" v="713048" />
	</node>
	<node id="-512184" lat="61.2071305536" lon="6.48302221358">
		<tag k="name" v="Dalehaugane" />
		<tag k="natural" v="hill" />
		<tag k="place" v="locality" />
		<tag k="ssr:stedsnr" v="713046" />
	</node>
	<node id="-512182" lat="61.2060388847" lon="6.48734167188">
		<tag k="name" v="Legene" />
		<tag k="natural" v="slope" />
		<tag k="place" v="locality" />
		<tag k="ssr:stedsnr" v="713045" />
	</node>
	<node id="-512180" lat="61.1332888935" lon="6.43254167503">
		<tag k="name" v="Kyrastein" />
		<tag k="natural" v="hill" />
		<tag k="place" v="locality" />
		<tag k="ssr:stedsnr" v="713039" />
	</node>
	<node id="-512177" lat="61.167877779" lon="6.51283054876">
		<tag k="name" v="Tuftadalen" />
		<tag k="natural" v="valley" />
		<tag k="place" v="locality" />
		<tag k="ssr:stedsnr" v="713000" />
	</node>
	<node id="-512175" lat="61.2156138847" lon="6.47072499515">
		<tag k="name" v="Sandskredgjelet" />
		<tag k="natural" v="gorge" />
		<tag k="ssr:stedsnr" v="712939" />
	</node>
	<node id="-512172" lat="61.226180559" lon="6.51399443754">
		<tag k="name" v="Einehamrane" />
		<tag k="natural" v="ridge" />
		<tag k="place" v="locality" />
		<tag k="ssr:stedsnr" v="712892" />
	</node>
	<node id="-512171" lat="61.187236109" lon="6.50487500038">
		<tag k="name" v="Sekken" />
		<tag k="natural" v="slope" />
		<tag k="place" v="locality" />
		<tag k="ssr:stedsnr" v="712882" />
	</node>
	<node id="-512170" lat="61.2860472177" lon="6.57600277589">
		<tag k="fixme" v="consider natural=peak for the most distinct mountains in the district" />
		<tag k="name" v="Fellehamrane" />
		<tag k="natural" v="hill" />
		<tag k="place" v="locality" />
		<tag k="ssr:stedsnr" v="712843" />
	</node>
	<node id="-512169" lat="61.2828916702" lon="6.57776110174">
		<tag k="name" v="Smeali" />
		<tag k="natural" v="slope" />
		<tag k="place" v="locality" />
		<tag k="ssr:stedsnr" v="712823" />
	</node>
	<node id="-512168" lat="61.1801666681" lon="6.18544721694">
		<tag k="name" v="Vårstølbakkane" />
		<tag k="natural" v="slope" />
		<tag k="place" v="locality" />
		<tag k="ssr:stedsnr" v="712788" />
	</node>
	<node id="-512167" lat="61.1279888873" lon="6.39000277411">
		<tag k="fixme" v="consider natural=peak for the most distinct mountains in the district" />
		<tag k="name" v="Myrnip" />
		<tag k="natural" v="hill" />
		<tag k="place" v="locality" />
		<tag k="ssr:stedsnr" v="712264" />
	</node>
	<node id="-512165" lat="61.124516663" lon="6.45529721761">
		<tag k="name" v="Fjellet" />
		<tag k="natural" v="ridge" />
		<tag k="place" v="locality" />
		<tag k="ssr:stedsnr" v="712016" />
	</node>
	<node id="-512164" lat="61.2072499997" lon="6.51783055437">
		<tag k="fixme" v="consider natural=peak for the most distinct mountains in the district" />
		<tag k="name" v="Furefjellet" />
		<tag k="natural" v="hill" />
		<tag k="place" v="locality" />
		<tag k="ssr:stedsnr" v="712011" />
	</node>
	<node id="-512161" lat="61.1714972262" lon="6.23285278403">
		<tag k="name" v="Kvistgjelet" />
		<tag k="natural" v="valley" />
		<tag k="place" v="locality" />
		<tag k="ssr:stedsnr" v="708763" />
	</node>
	<node id="-512159" lat="61.158747219" lon="6.1494361124">
		<tag k="name" v="Stågjelet" />
		<tag k="natural" v="gorge" />
		<tag k="ssr:stedsnr" v="704161" />
	</node>
	<node id="-512158" lat="61.1807944467" lon="6.35617499568">
		<tag k="name" v="Flatnip" />
		<tag k="natural" v="hill" />
		<tag k="place" v="locality" />
		<tag k="ssr:stedsnr" v="677753" />
	</node>
	<node id="-512154" lat="61.1580500028" lon="6.30144444806">
		<tag k="fixme" v="consider natural=peak for the most distinct mountains in the district" />
		<tag k="name" v="Brennsetnipi" />
		<tag k="natural" v="hill" />
		<tag k="place" v="locality" />
		<tag k="ssr:stedsnr" v="677637" />
	</node>
	<node id="-512151" lat="61.16853056" lon="6.48671389688">
		<tag k="name" v="Songdalen" />
		<tag k="natural" v="valley" />
		<tag k="place" v="locality" />
		<tag k="ssr:stedsnr" v="676727" />
	</node>
	<node id="-512145" lat="61.1465055579" lon="6.32772500676">
		<tag k="alt_name" v="Hesten" />
		<tag k="fixme" v="consider natural=peak for the most distinct mountains in the district" />
		<tag k="name" v="Hest" />
		<tag k="natural" v="hill" />
		<tag k="place" v="locality" />
		<tag k="ssr:stedsnr" v="676641" />
	</node>
	<node id="-512144" lat="61.2033805574" lon="6.18986944388">
		<tag k="fixme" v="consider natural=peak for the most distinct mountains in the district" />
		<tag k="name" v="Blånipi" />
		<tag k="natural" v="hill" />
		<tag k="place" v="locality" />
		<tag k="ssr:stedsnr" v="676354" />
	</node>
	<node id="-512139" lat="61.327758337" lon="6.55985277695">
		<tag k="name" v="Vetlefjorddalen" />
		<tag k="natural" v="valley" />
		<tag k="old_name" v="Vetlfjorddalen" />
		<tag k="place" v="locality" />
		<tag k="ssr:stedsnr" v="675819" />
	</node>
	<node id="-512132" lat="61.2296111081" lon="6.50000834129">
		<tag k="fixme" v="consider natural=peak for the most distinct mountains in the district" />
		<tag k="name" v="Hjelsengholten" />
		<tag k="natural" v="hill" />
		<tag k="place" v="locality" />
		<tag k="ssr:stedsnr" v="652983" />
	</node>
	<node id="-512130" lat="61.2933666651" lon="6.46740555823">
		<tag k="name" v="Svarthamardalen" />
		<tag k="natural" v="valley" />
		<tag k="place" v="locality" />
		<tag k="ssr:stedsnr" v="652956" />
	</node>
	<node id="-512129" lat="61.1199805524" lon="6.42919166086">
		<tag k="name" v="Fellegjelet" />
		<tag k="natural" v="valley" />
		<tag k="place" v="locality" />
		<tag k="ssr:stedsnr" v="652941" />
	</node>
	<node id="-512126" lat="61.2230916699" lon="6.54551666559">
		<tag k="name" v="Einereset" />
		<tag k="natural" v="hill" />
		<tag k="place" v="locality" />
		<tag k="ssr:stedsnr" v="652873" />
	</node>
	<node id="-512124" lat="61.313555551" lon="6.57054165965">
		<tag k="name" v="Haugøyane" />
		<tag k="place" v="locality" />
		<tag k="ssr:stedsnr" v="652842" />
	</node>
	<node id="-512120" lat="61.199819443" lon="6.24550833351">
		<tag k="name" v="Fremste Svartebakken" />
		<tag k="natural" v="slope" />
		<tag k="place" v="locality" />
		<tag k="ssr:stedsnr" v="652769" />
	</node>
	<node id="-512119" lat="61.1766055543" lon="6.18164166">
		<tag k="name" v="Ospeskansen" />
		<tag k="natural" v="hill" />
		<tag k="place" v="locality" />
		<tag k="ssr:stedsnr" v="652758" />
	</node>
	<node id="-512118" lat="61.1699277811" lon="6.18248611405">
		<tag k="name" v="Andersbakken" />
		<tag k="natural" v="slope" />
		<tag k="place" v="locality" />
		<tag k="ssr:stedsnr" v="652757" />
	</node>
	<node id="-512117" lat="61.3039388924" lon="6.56043888033">
		<tag k="name" v="Øyane" />
		<tag k="place" v="locality" />
		<tag k="ssr:stedsnr" v="652751" />
	</node>
	<node id="-512116" lat="61.3106138884" lon="6.57930277877">
		<tag k="name" v="Sprakahaugane" />
		<tag k="natural" v="hill" />
		<tag k="place" v="locality" />
		<tag k="ssr:stedsnr" v="652748" />
	</node>
	<node id="-512114" lat="61.2611194454" lon="6.53686667146">
		<tag k="name" v="Hatlehaugen" />
		<tag k="natural" v="hill" />
		<tag k="place" v="locality" />
		<tag k="ssr:stedsnr" v="652719" />
	</node>
	<node id="-512113" lat="61.2555305555" lon="6.5746611022">
		<tag k="name" v="Einehaug" />
		<tag k="natural" v="hill" />
		<tag k="place" v="locality" />
		<tag k="ssr:stedsnr" v="652718" />
	</node>
	<node id="-512112" lat="61.3541277803" lon="6.55855556138">
		<tag k="name" v="Langegrandane" />
		<tag k="place" v="locality" />
		<tag k="ssr:stedsnr" v="652715" />
	</node>
	<node id="-512111" lat="61.1505888881" lon="6.26922221934">
		<tag k="name" v="Øykjastall-li" />
		<tag k="natural" v="slope" />
		<tag k="place" v="locality" />
		<tag k="ssr:stedsnr" v="652696" />
	</node>
	<node id="-512110" lat="61.1614388862" lon="6.26866388669">
		<tag k="name" v="Seberg" />
		<tag k="natural" v="hill" />
		<tag k="place" v="locality" />
		<tag k="ssr:stedsnr" v="652688" />
	</node>
	<node id="-512109" lat="61.3773944409" lon="6.56676667284">
		<tag k="name" v="Storeskredene" />
		<tag k="natural" v="valley" />
		<tag k="place" v="locality" />
		<tag k="ssr:stedsnr" v="652676" />
	</node>
	<node id="-512108" lat="61.3780194479" lon="6.56000554811">
		<tag k="name" v="Kvanngrøhaugen" />
		<tag k="natural" v="hill" />
		<tag k="place" v="locality" />
		<tag k="ssr:stedsnr" v="652675" />
	</node>
	<node id="-512107" lat="61.1594472258" lon="6.24413333179">
		<tag k="name" v="Sjonarhaughola" />
		<tag k="natural" v="gorge" />
		<tag k="ssr:stedsnr" v="652662" />
	</node>
	<node id="-512105" lat="61.35151944" lon="6.56475554769">
		<tag k="name" v="Rindane" />
		<tag k="natural" v="slope" />
		<tag k="place" v="locality" />
		<tag k="ssr:stedsnr" v="652631" />
	</node>
	<node id="-512103" lat="61.169927776" lon="6.30127499619">
		<tag k="name" v="Kyrkjegarden" />
		<tag k="place" v="locality" />
		<tag k="ssr:stedsnr" v="652598" />
	</node>
	<node id="-512101" lat="61.1407833293" lon="6.26755832967">
		<tag k="name" v="Russedalshaugane" />
		<tag k="natural" v="hill" />
		<tag k="place" v="locality" />
		<tag k="ssr:stedsnr" v="652573" />
	</node>
	<node id="-512096" lat="61.1549500035" lon="6.29120555865">
		<tag k="name" v="Øvre Mjåskor" />
		<tag k="natural" v="valley" />
		<tag k="place" v="locality" />
		<tag k="ssr:stedsnr" v="652393" />
	</node>
	<node id="-512095" lat="61.1649555599" lon="6.32001944329">
		<tag k="name" v="Kringlehaugen" />
		<tag k="natural" v="hill" />
		<tag k="place" v="locality" />
		<tag k="ssr:stedsnr" v="652382" />
	</node>
	<node id="-512093" lat="61.1160638909" lon="6.38941389244">
		<tag k="name" v="Hestahoven" />
		<tag k="natural" v="hill" />
		<tag k="place" v="locality" />
		<tag k="ssr:stedsnr" v="652289" />
	</node>
	<node id="-512092" lat="61.1169333297" lon="6.36345276906">
		<tag k="name" v="Rennehola" />
		<tag k="natural" v="gorge" />
		<tag k="ssr:stedsnr" v="652277" />
	</node>
	<node id="-512091" lat="61.1628722248" lon="6.15496389592">
		<tag k="name" v="Solvorgjelet" />
		<tag k="natural" v="valley" />
		<tag k="place" v="locality" />
		<tag k="ssr:stedsnr" v="652152" />
	</node>
	<node id="-512090" lat="61.1949388884" lon="6.22466943675">
		<tag k="name" v="Løstein" />
		<tag k="natural" v="hill" />
		<tag k="place" v="locality" />
		<tag k="ssr:stedsnr" v="652145" />
	</node>
	<node id="-512089" lat="61.1958249961" lon="6.22688888223">
		<tag k="name" v="Svoi" />
		<tag k="natural" v="slope" />
		<tag k="place" v="locality" />
		<tag k="ssr:stedsnr" v="652138" />
	</node>
	<node id="-512088" lat="61.1210194473" lon="6.44890833017">
		<tag k="name" v="Grønebakken" />
		<tag k="natural" v="slope" />
		<tag k="place" v="locality" />
		<tag k="ssr:stedsnr" v="652089" />
	</node>
	<node id="-512084" lat="61.1398027797" lon="6.50331110349">
		<tag k="name" v="Slettebakkane" />
		<tag k="natural" v="slope" />
		<tag k="place" v="locality" />
		<tag k="ssr:stedsnr" v="652032" />
	</node>
	<node id="-512083" lat="61.1305638907" lon="6.44338611201">
		<tag k="name" v="Furehaugen" />
		<tag k="natural" v="hill" />
		<tag k="place" v="locality" />
		<tag k="ssr:stedsnr" v="652029" />
	</node>
	<node id="-512080" lat="61.155730558" lon="6.49033056463">
		<tag k="name" v="Killingakråna" />
		<tag k="natural" v="slope" />
		<tag k="place" v="locality" />
		<tag k="ssr:stedsnr" v="651980" />
	</node>
	<node id="-512079" lat="61.290816666" lon="6.49123056416">
		<tag k="name" v="Snauabakkane" />
		<tag k="natural" v="slope" />
		<tag k="place" v="locality" />
		<tag k="ssr:stedsnr" v="651966" />
	</node>
	<node id="-512077" lat="61.2578861135" lon="6.52407221965">
		<tag k="name" v="Instegjelet" />
		<tag k="natural" v="valley" />
		<tag k="place" v="locality" />
		<tag k="ssr:stedsnr" v="651751" />
	</node>
	<node id="-512075" lat="61.3568749994" lon="6.57005833834">
		<tag k="name" v="Håraskredrinden" />
		<tag k="natural" v="ridge" />
		<tag k="place" v="locality" />
		<tag k="ssr:stedsnr" v="651665" />
	</node>
	<node id="-512073" lat="61.1316722196" lon="6.3242694533">
		<tag k="name" v="Almegjelet" />
		<tag k="natural" v="valley" />
		<tag k="place" v="locality" />
		<tag k="ssr:stedsnr" v="651277" />
	</node>
	<node id="-512072" lat="61.1281583354" lon="6.32648611301">
		<tag k="name" v="Bjørkehaugen" />
		<tag k="natural" v="hill" />
		<tag k="place" v="locality" />
		<tag k="ssr:stedsnr" v="651276" />
	</node>
	<node id="-512071" lat="61.3108833321" lon="6.52305277697">
		<tag k="name" v="Svartabotn" />
		<tag k="natural" v="valley" />
		<tag k="place" v="locality" />
		<tag k="ssr:stedsnr" v="651055" />
	</node>
	<node id="-512070" lat="61.2823027813" lon="6.47873055539">
		<tag k="fixme" v="consider natural=peak for the most distinct mountains in the district" />
		<tag k="name" v="Storehamaren" />
		<tag k="natural" v="hill" />
		<tag k="place" v="locality" />
		<tag k="ssr:stedsnr" v="651044" />
	</node>
	<node id="-512069" lat="61.1356944442" lon="6.45111388856">
		<tag k="name" v="Hovdali" />
		<tag k="natural" v="slope" />
		<tag k="place" v="locality" />
		<tag k="ssr:stedsnr" v="651015" />
	</node>
	<node id="-512067" lat="61.2032611148" lon="6.51868334036">
		<tag k="name" v="Kinnungabakkane" />
		<tag k="natural" v="slope" />
		<tag k="place" v="locality" />
		<tag k="ssr:stedsnr" v="651007" />
	</node>
	<node id="-512064" lat="61.1540333348" lon="6.52026389106">
		<tag k="name" v="Angesteli" />
		<tag k="natural" v="slope" />
		<tag k="place" v="locality" />
		<tag k="ssr:stedsnr" v="627976" />
	</node>
	<node id="-512063" lat="61.172119446" lon="6.40451387995">
		<tag k="name" v="Igdedalen" />
		<tag k="natural" v="valley" />
		<tag k="place" v="locality" />
		<tag k="ssr:stedsnr" v="616735" />
	</node>
	<node id="-512059" lat="61.2256111121" lon="6.59675832854">
		<tag k="fixme" v="consider natural=peak for the most distinct mountains in the district" />
		<tag k="name" v="Kjelåsen" />
		<tag k="natural" v="hill" />
		<tag k="place" v="locality" />
		<tag k="ssr:stedsnr" v="616550" />
	</node>
	<node id="-512058" lat="61.2213055578" lon="6.59962222349">
		<tag k="alt_name" v="Ørnaberget" />
		<tag k="name" v="Ørnaberg" />
		<tag k="natural" v="hill" />
		<tag k="place" v="locality" />
		<tag k="ssr:stedsnr" v="616548" />
	</node>
	<node id="-512053" lat="61.1948805583" lon="6.47921666265">
		<tag k="name" v="Raudmelen" />
		<tag k="natural" v="hill" />
		<tag k="place" v="locality" />
		<tag k="ssr:stedsnr" v="615678" />
	</node>
	<node id="-512048" lat="61.1356249971" lon="6.40608055541">
		<tag k="fixme" v="consider natural=peak for the most distinct mountains in the district" />
		<tag k="name" v="Flærna" />
		<tag k="natural" v="hill" />
		<tag k="place" v="locality" />
		<tag k="ssr:stedsnr" v="615627" />
	</node>
	<node id="-512046" lat="61.239441669" lon="6.62785556411">
		<tag k="name" v="Grønhaugane" />
		<tag k="natural" v="hill" />
		<tag k="place" v="locality" />
		<tag k="ssr:stedsnr" v="615542" />
	</node>
	<node id="-512044" lat="61.1701444408" lon="6.14811111375">
		<tag k="name" v="Furehaugen" />
		<tag k="natural" v="hill" />
		<tag k="place" v="locality" />
		<tag k="ssr:stedsnr" v="615319" />
	</node>
	<node id="-512043" lat="61.2445361156" lon="6.47897222625">
		<tag k="name" v="Geitaryggen" />
		<tag k="natural" v="ridge" />
		<tag k="place" v="locality" />
		<tag k="ssr:stedsnr" v="615292" />
	</node>
	<node id="-512041" lat="61.2506972261" lon="6.4989305527">
		<tag k="name" v="Geithalsen" />
		<tag k="natural" v="valley" />
		<tag k="place" v="locality" />
		<tag k="ssr:stedsnr" v="614867" />
	</node>
	<node id="-512039" lat="61.3281055511" lon="6.44829166053">
		<tag k="name" v="Tuftabotn" />
		<tag k="natural" v="valley" />
		<tag k="place" v="locality" />
		<tag k="ssr:stedsnr" v="614815" />
	</node>
	<node id="-512037" lat="61.2998111142" lon="6.43686666168">
		<tag k="fixme" v="consider natural=peak for the most distinct mountains in the district" />
		<tag k="name" v="Svarthammarhesten" />
		<tag k="natural" v="hill" />
		<tag k="place" v="locality" />
		<tag k="ssr:stedsnr" v="614791" />
	</node>
	<node id="-512036" lat="61.3564805599" lon="6.46656111413">
		<tag k="fixme" v="consider natural=peak for the most distinct mountains in the district" />
		<tag k="name" v="Nystølseggi" />
		<tag k="natural" v="hill" />
		<tag k="place" v="locality" />
		<tag k="ssr:stedsnr" v="614734" />
	</node>
	<node id="-512032" lat="61.2268361148" lon="6.58526389221">
		<tag k="name" v="Høyberget" />
		<tag k="natural" v="hill" />
		<tag k="place" v="locality" />
		<tag k="ssr:stedsnr" v="592951" />
	</node>
	<node id="-512029" lat="61.137394446" lon="6.29627222465">
		<tag k="name" v="Løypegjelet" />
		<tag k="natural" v="valley" />
		<tag k="place" v="locality" />
		<tag k="ssr:stedsnr" v="592273" />
	</node>
	<node id="-512028" lat="61.1642999976" lon="6.16498333326">
		<tag k="fixme" v="consider natural=peak for the most distinct mountains in the district" />
		<tag k="name" v="Heggurfjellet" />
		<tag k="natural" v="hill" />
		<tag k="place" v="locality" />
		<tag k="ssr:stedsnr" v="592187" />
	</node>
	<node id="-512027" lat="61.1509388899" lon="6.52744167385">
		<tag k="name" v="Dalen" />
		<tag k="natural" v="valley" />
		<tag k="place" v="locality" />
		<tag k="ssr:stedsnr" v="591960" />
	</node>
	<node id="-512026" lat="61.1674944429" lon="6.53317222972">
		<tag k="name" v="Birtadalen" />
		<tag k="natural" v="valley" />
		<tag k="place" v="locality" />
		<tag k="ssr:stedsnr" v="591956" />
	</node>
	<node id="-512024" lat="61.1202944425" lon="6.41852777587">
		<tag k="name" v="Bårhola" />
		<tag k="natural" v="slope" />
		<tag k="place" v="locality" />
		<tag k="ssr:stedsnr" v="591939" />
	</node>
	<node id="-512023" lat="61.117650001" lon="6.46815833513">
		<tag k="fixme" v="consider natural=peak for the most distinct mountains in the district" />
		<tag k="name" v="Kamben" />
		<tag k="natural" v="hill" />
		<tag k="place" v="locality" />
		<tag k="ssr:stedsnr" v="591930" />
	</node>
	<node id="-512020" lat="61.1883277734" lon="6.50829444981">
		<tag k="name" v="Bruavoll" />
		<tag k="natural" v="valley" />
		<tag k="place" v="locality" />
		<tag k="ssr:stedsnr" v="591886" />
	</node>
	<node id="-512018" lat="61.1646388904" lon="6.2277777716">
		<tag k="name" v="Kisteinhaugen" />
		<tag k="natural" v="hill" />
		<tag k="place" v="locality" />
		<tag k="ssr:stedsnr" v="591864" />
	</node>
	<node id="-512016" lat="61.3134750004" lon="6.55618610372">
		<tag k="name" v="Eikjaskori" />
		<tag k="natural" v="valley" />
		<tag k="place" v="locality" />
		<tag k="ssr:stedsnr" v="591855" />
	</node>
	<node id="-512014" lat="61.249863887" lon="6.53418055036">
		<tag k="name" v="Tverrli" />
		<tag k="natural" v="slope" />
		<tag k="place" v="locality" />
		<tag k="ssr:stedsnr" v="591843" />
	</node>
	<node id="-512012" lat="61.2352221164" lon="6.54412038678">
		<tag k="name" v="Heggeflåten" />
		<tag k="natural" v="hill" />
		<tag k="place" v="locality" />
		<tag k="ssr:stedsnr" v="591834" />
	</node>
	<node id="-512010" lat="61.1659527772" lon="6.52969166452">
		<tag k="name" v="Salskarhaug" />
		<tag k="natural" v="hill" />
		<tag k="place" v="locality" />
		<tag k="ssr:stedsnr" v="591805" />
	</node>
	<node id="-512009" lat="61.140825003" lon="6.53258333006">
		<tag k="name" v="Hatladalen" />
		<tag k="natural" v="valley" />
		<tag k="place" v="locality" />
		<tag k="ssr:stedsnr" v="591800" />
	</node>
	<node id="-512007" lat="61.2123749973" lon="6.46411389209">
		<tag k="name" v="Grisagrø" />
		<tag k="natural" v="slope" />
		<tag k="place" v="locality" />
		<tag k="ssr:stedsnr" v="591778" />
	</node>
	<node id="-512006" lat="61.2326416707" lon="6.5874083276">
		<tag k="name" v="Tenningen" />
		<tag k="natural" v="hill" />
		<tag k="place" v="locality" />
		<tag k="ssr:stedsnr" v="591757" />
	</node>
	<node id="-512004" lat="61.2355694447" lon="6.53656943927">
		<tag k="name" v="Busthaug" />
		<tag k="natural" v="hill" />
		<tag k="place" v="locality" />
		<tag k="ssr:stedsnr" v="591746" />
	</node>
	<node id="-512003" lat="61.2338666696" lon="6.54816111211">
		<tag k="name" v="Galdaståi" />
		<tag k="natural" v="slope" />
		<tag k="place" v="locality" />
		<tag k="ssr:stedsnr" v="591743" />
	</node>
	<node id="-512002" lat="61.2657444469" lon="6.50105833219">
		<tag k="name" v="Skitmyrbakken" />
		<tag k="natural" v="slope" />
		<tag k="place" v="locality" />
		<tag k="ssr:stedsnr" v="591737" />
	</node>
</osm>
