<?xml version="1.0" encoding="UTF-8"?>
<osm generator="osmapis" version="0.6">
	<node id="-512024" lat="61.1123527748" lon="6.3891138902">
		<tag k="alt_name" v="Sæle" />
		<tag k="amenity" v="place_of_worship" />
		<tag k="denomination" v="lutheran" />
		<tag k="name" v="Sæle kyrkje" />
		<tag k="religion" v="christian" />
		<tag k="ssr:stedsnr" v="473965" />
	</node>
	<node id="-512463" lat="61.1287527771" lon="6.48452221619">
		<tag k="alt_name" v="Kvamsøy" />
		<tag k="amenity" v="place_of_worship" />
		<tag k="denomination" v="lutheran" />
		<tag k="name" v="Kvamsøy kyrkje" />
		<tag k="religion" v="christian" />
		<tag k="ssr:stedsnr" v="434642" />
	</node>
	<node id="-512340" lat="61.3521055598" lon="6.52299444712">
		<tag k="name" v="Utsikten" />
		<tag k="ssr:stedsnr" v="190718" />
		<tag k="tourism" v="viewpoint" />
	</node>
	<node id="-512082" lat="61.2150000041" lon="6.54314999983">
		<tag k="alt_name" v="Tjugum" />
		<tag k="amenity" v="place_of_worship" />
		<tag k="denomination" v="lutheran" />
		<tag k="name" v="Tjugum kyrkje" />
		<tag k="religion" v="christian" />
		<tag k="ssr:stedsnr" v="9694" />
	</node>
	<node id="-511753" lat="61.2036027797" lon="6.53403332428">
		<tag k="name" v="Balehaugen" />
		<tag k="ssr:stedsnr" v="288055" />
		<tag k="tourism" v="attraction" />
	</node>
</osm>
