<?xml version="1.0" encoding="UTF-8"?>
<osm generator="osmapis" version="0.6">
	<node id="-18942" lat="66.6171166713" lon="13.3567249907">
		<tag k="name" v="Bringgårdsmyra" />
		<tag k="natural" v="wetland" />
		<tag k="ssr:stedsnr" v="772332" />
	</node>
	<node id="-18426" lat="66.7586083329" lon="12.4794944461">
		<tag k="name" v="Sørmarka" />
		<tag k="natural" v="wetland" />
		<tag k="ssr:stedsnr" v="407258" />
	</node>
	<node id="-18933" lat="66.6558944457" lon="13.3651722262">
		<tag k="name" v="Engan" />
		<tag k="place" v="locality" />
		<tag k="ssr:stedsnr" v="768703" />
	</node>
	<node id="-18414" lat="66.609205558" lon="13.5580361215">
		<tag k="name" v="Nils-Jansaslåttan" />
		<tag k="place" v="locality" />
		<tag k="ssr:stedsnr" v="502349" />
	</node>
	<node id="-18413" lat="66.61601891" lon="13.5184011278">
		<tag k="alt_name" v="Strømdalsetra" />
		<tag k="historic" v="shieling" />
		<tag k="name" v="Straumdalssætra" />
		<tag k="place" v="locality" />
		<tag k="ssr:stedsnr" v="502342" />
	</node>
	<node id="-19430" lat="66.6649138931" lon="13.602197222">
		<tag k="name" v="Starmyra" />
		<tag k="natural" v="wetland" />
		<tag k="ssr:stedsnr" v="106553" />
	</node>
	<node id="-18901" lat="66.4847583373" lon="13.3078500084">
		<tag k="name" v="Strandmyra" />
		<tag k="natural" v="wetland" />
		<tag k="ssr:stedsnr" v="744616" />
	</node>
	<node id="-19412" lat="66.6648083297" lon="13.2449749919">
		<tag k="name" v="Sørmarka" />
		<tag k="place" v="locality" />
		<tag k="ssr:stedsnr" v="105817" />
	</node>
	<node id="-19410" lat="66.5852388907" lon="12.9297388838">
		<tag k="name" v="Skarsekkra" />
		<tag k="place" v="locality" />
		<tag k="ssr:stedsnr" v="105619" />
	</node>
	<node id="-18375" lat="66.6424527753" lon="13.6975055648">
		<tag k="name" v="Svartisen" />
		<tag k="natural" v="glacier" />
		<tag k="ssr:stedsnr" v="501234" />
	</node>
	<node id="-19395" lat="66.6092166641" lon="13.2502027836">
		<tag k="name" v="Vasstia" />
		<tag k="place" v="locality" />
		<tag k="ssr:stedsnr" v="105418" />
	</node>
	<node id="-19394" lat="66.5778361145" lon="13.2174000044">
		<tag k="name" v="Svartholet" />
		<tag k="natural" v="scree" />
		<tag k="ssr:stedsnr" v="105417" />
	</node>
	<node id="-18873" lat="66.6531277803" lon="13.3940805647">
		<tag k="name" v="Nattmålsmyra" />
		<tag k="natural" v="wetland" />
		<tag k="ssr:stedsnr" v="895950" />
	</node>
	<node id="-18868" lat="66.4981583303" lon="13.2058444465">
		<tag k="name" v="Langmyra" />
		<tag k="natural" v="wetland" />
		<tag k="ssr:stedsnr" v="895025" />
	</node>
	<node id="-17842" lat="66.5983333298" lon="13.3208944412">
		<tag k="name" v="Dyrstein" />
		<tag k="natural" v="stone" />
		<tag k="ssr:stedsnr" v="77361" />
	</node>
	<node id="-19376" lat="66.5438916692" lon="13.1029472128">
		<tag k="name" v="Osanmyran" />
		<tag k="natural" v="wetland" />
		<tag k="ssr:stedsnr" v="105079" />
	</node>
	<node id="-19371" lat="66.5532333339" lon="12.8134500054">
		<tag k="name" v="Brurknappen" />
		<tag k="natural" v="stone" />
		<tag k="ssr:stedsnr" v="105024" />
	</node>
	<node id="-18346" lat="66.6088972227" lon="13.3404555459">
		<tag k="name" v="Førrarabban" />
		<tag k="place" v="locality" />
		<tag k="ssr:stedsnr" v="348407" />
	</node>
	<node id="-18344" lat="66.4900694446" lon="13.2144972326">
		<tag k="name" v="Fjøsmyra" />
		<tag k="natural" v="wetland" />
		<tag k="ssr:stedsnr" v="348015" />
	</node>
	<node id="-18339" lat="66.5056055556" lon="13.7153972156">
		<tag k="name" v="Nebbloftet" />
		<tag k="place" v="locality" />
		<tag k="ssr:stedsnr" v="347560" />
	</node>
	<node id="-18338" lat="66.5047055576" lon="13.7076722251">
		<tag k="name" v="Storhåkanhågen" />
		<tag k="place" v="locality" />
		<tag k="ssr:stedsnr" v="347552" />
	</node>
	<node id="-18847" lat="66.6061444428" lon="13.4820583245">
		<tag k="name" v="Finnsteinen" />
		<tag k="natural" v="stone" />
		<tag k="ssr:stedsnr" v="894566" />
	</node>
	<node id="-18334" lat="66.6697666658" lon="13.2199861022">
		<tag k="name" v="Myran" />
		<tag k="natural" v="wetland" />
		<tag k="ssr:stedsnr" v="347168" />
	</node>
	<node id="-18331" lat="66.5814944485" lon="12.6126805464">
		<tag k="name" v="Hamnhagen" />
		<tag k="natural" v="wetland" />
		<tag k="ssr:stedsnr" v="347225" />
	</node>
	<node id="-18839" lat="66.5085972252" lon="13.2993916722">
		<tag k="name" v="Kråkstua" />
		<tag k="natural" v="stone" />
		<tag k="ssr:stedsnr" v="894516" />
	</node>
	<node id="-18325" lat="66.570308336" lon="13.1963611079">
		<tag k="name" v="Nordmarka" />
		<tag k="place" v="locality" />
		<tag k="ssr:stedsnr" v="347074" />
	</node>
	<node id="-17806" lat="66.4704749963" lon="13.2325861205">
		<tag k="name" v="Råna" />
		<tag k="natural" v="scree" />
		<tag k="ssr:stedsnr" v="227059" />
	</node>
	<node id="-18826" lat="66.6775833329" lon="13.0861722239">
		<tag k="name" v="Stormyra" />
		<tag k="natural" v="wetland" />
		<tag k="ssr:stedsnr" v="711155" />
	</node>
	<node id="-17815" lat="66.509225002" lon="13.3274638943">
		<tag k="name" v="Koppen" />
		<tag k="natural" v="wetland" />
		<tag k="ssr:stedsnr" v="227489" />
	</node>
	<node id="-18816" lat="66.5830499963" lon="12.6162027839">
		<tag k="name" v="Kjølvikmyra" />
		<tag k="natural" v="wetland" />
		<tag k="ssr:stedsnr" v="711241" />
	</node>
	<node id="-18811" lat="66.6568083329" lon="13.2373722119">
		<tag k="name" v="Innavass" />
		<tag k="natural" v="wetland" />
		<tag k="ssr:stedsnr" v="894368" />
	</node>
	<node id="-17783" lat="66.6719833345" lon="13.2279472222">
		<tag k="name" v="Lappvika" />
		<tag k="place" v="locality" />
		<tag k="ssr:stedsnr" v="226335" />
	</node>
	<node id="-17780" lat="66.5918500008" lon="12.6781777783">
		<tag k="name" v="Stormyra" />
		<tag k="natural" v="wetland" />
		<tag k="ssr:stedsnr" v="226271" />
	</node>
	<node id="-18785" lat="66.6491416694" lon="13.2099749996">
		<tag k="name" v="Kronvollen" />
		<tag k="natural" v="wetland" />
		<tag k="ssr:stedsnr" v="894099" />
	</node>
	<node id="-17760" lat="66.6110194484" lon="13.0212333394">
		<tag k="name" v="Sjellarmyra" />
		<tag k="natural" v="wetland" />
		<tag k="ssr:stedsnr" v="226103" />
	</node>
	<node id="-18783" lat="66.542863893" lon="12.8750333229">
		<tag k="name" v="Kvalnesmyra" />
		<tag k="natural" v="wetland" />
		<tag k="ssr:stedsnr" v="894063" />
	</node>
	<node id="-18777" lat="66.4263805533" lon="13.2545416662">
		<tag k="name" v="Neverdalsmyran" />
		<tag k="natural" v="wetland" />
		<tag k="ssr:stedsnr" v="894026" />
	</node>
	<node id="-18264" lat="66.6207416695" lon="13.0358055531">
		<tag k="name" v="Fjellmyra" />
		<tag k="natural" v="wetland" />
		<tag k="ssr:stedsnr" v="469217" />
	</node>
	<node id="-18257" lat="66.5123555562" lon="13.2102194506">
		<tag k="name" v="Skarmyra" />
		<tag k="natural" v="wetland" />
		<tag k="ssr:stedsnr" v="469116" />
	</node>
	<node id="-18254" lat="66.6398611099" lon="13.210791657">
		<tag k="name" v="Langmyra" />
		<tag k="natural" v="wetland" />
		<tag k="ssr:stedsnr" v="469098" />
	</node>
	<node id="-18252" lat="66.5871972232" lon="12.9128527862">
		<tag k="name" v="Staulen" />
		<tag k="place" v="locality" />
		<tag k="ssr:stedsnr" v="469072" />
	</node>
	<node id="-19273" lat="66.6512777773" lon="13.4046694547">
		<tag k="name" v="Nordfjellheia" />
		<tag k="place" v="locality" />
		<tag k="ssr:stedsnr" v="45939" />
	</node>
	<node id="-19265" lat="66.4710638896" lon="13.4093166643">
		<tag k="name" v="Hestura" />
		<tag k="natural" v="scree" />
		<tag k="ssr:stedsnr" v="45463" />
	</node>
	<node id="-18239" lat="66.4433333374" lon="13.2249333248">
		<tag k="name" v="Stormyra" />
		<tag k="natural" v="wetland" />
		<tag k="ssr:stedsnr" v="469021" />
	</node>
	<node id="-18731" lat="66.6152277735" lon="13.5027388958">
		<tag k="name" v="Stormyra" />
		<tag k="natural" v="wetland" />
		<tag k="ssr:stedsnr" v="651551" />
	</node>
	<node id="-18725" lat="66.5117722227" lon="13.2963222175">
		<tag k="name" v="Myran" />
		<tag k="natural" v="wetland" />
		<tag k="ssr:stedsnr" v="651494" />
	</node>
	<node id="-18722" lat="66.4726305558" lon="13.4961944557">
		<tag k="name" v="Larssteinen" />
		<tag k="natural" v="stone" />
		<tag k="ssr:stedsnr" v="651469" />
	</node>
	<node id="-18721" lat="66.4716111148" lon="13.3757972171">
		<tag k="name" v="Røytmyra" />
		<tag k="natural" v="wetland" />
		<tag k="ssr:stedsnr" v="651467" />
	</node>
	<node id="-19230" lat="66.5992888899" lon="12.6660611065">
		<tag k="name" v="Utskagvalen" />
		<tag k="natural" v="beach" />
		<tag k="ssr:stedsnr" v="44209" />
		<tag k="surface" v="sand" />
	</node>
	<node id="-18715" lat="66.5761222225" lon="13.2133888818">
		<tag k="name" v="Hestvikmyra" />
		<tag k="natural" v="wetland" />
		<tag k="ssr:stedsnr" v="650083" />
	</node>
	<node id="-18714" lat="66.5609499974" lon="13.2096999884">
		<tag k="name" v="Frydenlund" />
		<tag k="natural" v="wetland" />
		<tag k="ssr:stedsnr" v="650073" />
	</node>
	<node id="-18201" lat="66.6520749957" lon="13.2060638892">
		<tag k="name" v="Staulamyra" />
		<tag k="natural" v="wetland" />
		<tag k="ssr:stedsnr" v="287106" />
	</node>
	<node id="-19217" lat="66.5882694435" lon="12.9245638841">
		<tag k="name" v="Sirimyra" />
		<tag k="natural" v="wetland" />
		<tag k="ssr:stedsnr" v="44061" />
	</node>
	<node id="-18704" lat="66.6536027761" lon="13.4026972205">
		<tag k="name" v="Skogmyra" />
		<tag k="natural" v="wetland" />
		<tag k="ssr:stedsnr" v="712952" />
	</node>
	<node id="-18697" lat="66.6589166632" lon="13.5942361011">
		<tag k="name" v="Tortenlimyra" />
		<tag k="natural" v="wetland" />
		<tag k="ssr:stedsnr" v="712548" />
	</node>
	<node id="-18695" lat="66.6405694487" lon="13.5185916613">
		<tag k="name" v="Øvervassbotn" />
		<tag k="natural" v="wetland" />
		<tag k="ssr:stedsnr" v="712532" />
	</node>
	<node id="-18693" lat="66.6215000002" lon="13.4386499984">
		<tag k="name" v="Sørmyra" />
		<tag k="place" v="locality" />
		<tag k="ssr:stedsnr" v="712515" />
	</node>
	<node id="-17792" lat="66.5071611099" lon="13.69625834">
		<tag k="name" v="Tømmermyra" />
		<tag k="natural" v="wetland" />
		<tag k="ssr:stedsnr" v="226606" />
	</node>
	<node id="-18685" lat="66.475224998" lon="13.443191657">
		<tag k="name" v="Moen" />
		<tag k="natural" v="wetland" />
		<tag k="ssr:stedsnr" v="712434" />
	</node>
	<node id="-18676" lat="66.5195138877" lon="13.1800666683">
		<tag k="name" v="Litlbjørndalsmyra" />
		<tag k="natural" v="wetland" />
		<tag k="ssr:stedsnr" v="712106" />
	</node>
	<node id="-18675" lat="66.5224305539" lon="13.1847166619">
		<tag k="name" v="Breivikmyra" />
		<tag k="natural" v="wetland" />
		<tag k="ssr:stedsnr" v="712103" />
	</node>
	<node id="-18671" lat="66.6917944491" lon="13.3946666591">
		<tag k="name" v="Magvollen" />
		<tag k="place" v="locality" />
		<tag k="ssr:stedsnr" v="590945" />
	</node>
	<node id="-18146" lat="66.62653333" lon="13.4162722139">
		<tag k="name" v="Hestskarmyran" />
		<tag k="natural" v="wetland" />
		<tag k="ssr:stedsnr" v="227964" />
	</node>
	<node id="-18142" lat="66.4752916671" lon="13.4194694378">
		<tag k="name" v="Storura" />
		<tag k="natural" v="scree" />
		<tag k="ssr:stedsnr" v="227463" />
	</node>
	<node id="-18139" lat="66.6119500011" lon="13.4901305618">
		<tag k="name" v="Stormyra" />
		<tag k="natural" v="wetland" />
		<tag k="ssr:stedsnr" v="227529" />
	</node>
	<node id="-18648" lat="66.5585361102" lon="13.2051305641">
		<tag k="name" v="Breivika" />
		<tag k="place" v="locality" />
		<tag k="ssr:stedsnr" v="590083" />
	</node>
	<node id="-19151" lat="66.7042111102" lon="13.4229333219">
		<tag k="name" v="Kilamyran" />
		<tag k="natural" v="wetland" />
		<tag k="ssr:stedsnr" v="16179" />
	</node>
	<node id="-18620" lat="66.6609833367" lon="13.2652972272">
		<tag k="name" v="Hellardalsmyra" />
		<tag k="natural" v="wetland" />
		<tag k="ssr:stedsnr" v="704751" />
	</node>
	<node id="-18595" lat="66.6304111123" lon="13.3800583338">
		<tag k="name" v="Kvannvikmyra" />
		<tag k="natural" v="wetland" />
		<tag k="ssr:stedsnr" v="530973" />
	</node>
	<node id="-18589" lat="66.6090138882" lon="13.245147222">
		<tag k="name" v="Stormyra" />
		<tag k="natural" v="wetland" />
		<tag k="ssr:stedsnr" v="530425" />
	</node>
	<node id="-19094" lat="66.6003833317" lon="13.252649998">
		<tag k="name" v="Storurda" />
		<tag k="natural" v="scree" />
		<tag k="ssr:stedsnr" v="834405" />
	</node>
	<node id="-18581" lat="66.6460388848" lon="13.2817444365">
		<tag k="name" v="Havsteinen" />
		<tag k="natural" v="stone" />
		<tag k="ssr:stedsnr" v="529374" />
	</node>
	<node id="-18576" lat="66.5377750041" lon="12.8691666727">
		<tag k="name" v="Stormyra" />
		<tag k="natural" v="wetland" />
		<tag k="ssr:stedsnr" v="529045" />
	</node>
	<node id="-19075" lat="66.6156972212" lon="13.308733342">
		<tag k="name" v="Hulhalsmyra" />
		<tag k="natural" v="wetland" />
		<tag k="ssr:stedsnr" v="833330" />
	</node>
	<node id="-19070" lat="66.5327611129" lon="13.1118194525">
		<tag k="name" v="Hestvikholtan" />
		<tag k="place" v="locality" />
		<tag k="ssr:stedsnr" v="833121" />
	</node>
	<node id="-18023" lat="66.6598083326" lon="13.425194444">
		<tag k="name" v="Blokura" />
		<tag k="natural" v="scree" />
		<tag k="ssr:stedsnr" v="288941" />
	</node>
	<node id="-18013" lat="66.6280250023" lon="13.3623166608">
		<tag k="name" v="Middagshølan" />
		<tag k="place" v="locality" />
		<tag k="ssr:stedsnr" v="287985" />
	</node>
	<node id="-19032" lat="66.6277499975" lon="13.7609861043">
		<tag k="name" v="Nordfjordbreen" />
		<tag k="natural" v="glacier" />
		<tag k="ssr:stedsnr" v="927482" />
	</node>
	<node id="-19023" lat="66.6120277821" lon="13.5791861007">
		<tag k="name" v="Kvannlimarka" />
		<tag k="place" v="locality" />
		<tag k="ssr:stedsnr" v="927362" />
	</node>
	<node id="-18509" lat="66.6683916635" lon="13.6034249965">
		<tag k="name" v="Storsteinmyra" />
		<tag k="natural" v="wetland" />
		<tag k="ssr:stedsnr" v="683289" />
	</node>
	<node id="-19531" lat="66.659572224" lon="13.2225416716">
		<tag k="name" v="Kathusmyra" />
		<tag k="natural" v="wetland" />
		<tag k="ssr:stedsnr" v="165830" />
	</node>
	<node id="-17986" lat="66.5645527786" lon="13.1989555568">
		<tag k="name" v="Gjurvika" />
		<tag k="place" v="locality" />
		<tag k="ssr:stedsnr" v="287083" />
	</node>
	<node id="-19518" lat="66.5903277795" lon="12.6530055499">
		<tag k="name" v="Myra" />
		<tag k="natural" v="wetland" />
		<tag k="ssr:stedsnr" v="165243" />
	</node>
	<node id="-17976" lat="66.5849944463" lon="12.9242416574">
		<tag k="name" v="Fløtta" />
		<tag k="place" v="locality" />
		<tag k="ssr:stedsnr" v="287038" />
	</node>
	<node id="-19504" lat="66.570419443" lon="13.2091555503">
		<tag k="name" v="Sandvikmyra" />
		<tag k="natural" v="wetland" />
		<tag k="ssr:stedsnr" v="165079" />
	</node>
	<node id="-18468" lat="66.5373444488" lon="12.8531749967">
		<tag k="name" v="Lomsmyra" />
		<tag k="natural" v="wetland" />
		<tag k="ssr:stedsnr" v="501111" />
	</node>
	<node id="-18978" lat="66.6660027746" lon="13.6029805595">
		<tag k="name" v="Svartskogen" />
		<tag k="place" v="locality" />
		<tag k="ssr:stedsnr" v="926285" />
	</node>
	<node id="-18971" lat="66.7209277802" lon="13.3794444442">
		<tag k="alt_name" v="Tøløkmyren" />
		<tag k="name" v="Tølløkmyra" />
		<tag k="natural" v="wetland" />
		<tag k="ssr:stedsnr" v="926142" />
	</node>
	<node id="-18455" lat="66.6538583332" lon="13.2097916624">
		<tag k="name" v="Nordmyra" />
		<tag k="natural" v="wetland" />
		<tag k="ssr:stedsnr" v="469106" />
	</node>
	<node id="-17753" lat="66.5437527774" lon="12.8517749888">
		<tag k="name" v="Geitbergsmyra" />
		<tag k="natural" v="wetland" />
		<tag k="ssr:stedsnr" v="226013" />
	</node>
</osm>
