<?xml version="1.0" encoding="UTF-8"?>
<osm generator="osmapis" version="0.6">
	<node id="-18430" lat="66.6541638854" lon="13.2155111133">
		<tag k="fixme" v="consider natural=peak for the most distinct mountains in the district" />
		<tag k="name" v="Litlvassåsen" />
		<tag k="natural" v="hill" />
		<tag k="place" v="locality" />
		<tag k="ssr:stedsnr" v="408114" />
	</node>
	<node id="-18428" lat="66.5573333317" lon="12.8609166604">
		<tag k="name" v="Stortuva" />
		<tag k="natural" v="hill" />
		<tag k="place" v="locality" />
		<tag k="ssr:stedsnr" v="408071" />
	</node>
	<node id="-18427" lat="66.5413222203" lon="12.8629277714">
		<tag k="name" v="Hellarhågen" />
		<tag k="natural" v="hill" />
		<tag k="place" v="locality" />
		<tag k="ssr:stedsnr" v="408057" />
	</node>
	<node id="-18420" lat="66.5173750027" lon="13.3774916671">
		<tag k="fixme" v="consider natural=peak for the most distinct mountains in the district" />
		<tag k="name" v="Kvannlitinden" />
		<tag k="natural" v="hill" />
		<tag k="place" v="locality" />
		<tag k="ssr:stedsnr" v="502395" />
	</node>
	<node id="-18419" lat="66.5052861117" lon="13.4245138831">
		<tag k="alt_name" v="Stromptinden, indre" />
		<tag k="fixme" v="consider natural=peak for the most distinct mountains in the district" />
		<tag k="name" v="Indre Stromptinden" />
		<tag k="natural" v="hill" />
		<tag k="old_name" v="Stomptinden, indre" />
		<tag k="place" v="locality" />
		<tag k="ssr:stedsnr" v="502393" />
	</node>
	<node id="-18402" lat="66.6212138878" lon="13.0043666753">
		<tag k="fixme" v="consider natural=peak for the most distinct mountains in the district" />
		<tag k="name" v="Langvågkrona" />
		<tag k="natural" v="hill" />
		<tag k="place" v="locality" />
		<tag k="ssr:stedsnr" v="501990" />
	</node>
	<node id="-18399" lat="66.6109305538" lon="13.1100944438">
		<tag k="fixme" v="consider natural=peak for the most distinct mountains in the district" />
		<tag k="name" v="Rengfjellet" />
		<tag k="natural" v="hill" />
		<tag k="place" v="locality" />
		<tag k="ssr:stedsnr" v="501974" />
	</node>
	<node id="-18391" lat="66.489480557" lon="13.3623694483">
		<tag k="alt_name" v="Urdaskardet, inder" />
		<tag k="name" v="Inder Urdaskardet" />
		<tag k="natural" v="valley" />
		<tag k="place" v="locality" />
		<tag k="ssr:stedsnr" v="501626" />
	</node>
	<node id="-18382" lat="66.4852166655" lon="13.200219452">
		<tag k="fixme" v="consider natural=peak for the most distinct mountains in the district" />
		<tag k="name" v="Aksla" />
		<tag k="natural" v="hill" />
		<tag k="place" v="locality" />
		<tag k="ssr:stedsnr" v="501449" />
	</node>
	<node id="-18377" lat="66.6324999971" lon="13.5658361135">
		<tag k="fixme" v="consider natural=peak for the most distinct mountains in the district" />
		<tag k="name" v="Kringlefjellet" />
		<tag k="natural" v="hill" />
		<tag k="place" v="locality" />
		<tag k="ssr:stedsnr" v="501238" />
	</node>
	<node id="-18373" lat="66.7013805516" lon="13.3569277696">
		<tag k="fixme" v="consider natural=peak for the most distinct mountains in the district" />
		<tag k="name" v="Josopåsen" />
		<tag k="natural" v="hill" />
		<tag k="place" v="locality" />
		<tag k="ssr:stedsnr" v="501220" />
	</node>
	<node id="-18372" lat="66.7161500013" lon="13.298141657">
		<tag k="fixme" v="consider natural=peak for the most distinct mountains in the district" />
		<tag k="name" v="Husåsen" />
		<tag k="natural" v="hill" />
		<tag k="place" v="locality" />
		<tag k="ssr:stedsnr" v="501213" />
	</node>
	<node id="-18365" lat="66.6243194404" lon="13.4968055547">
		<tag k="fixme" v="consider natural=peak for the most distinct mountains in the district" />
		<tag k="name" v="Straumdalstinden" />
		<tag k="natural" v="hill" />
		<tag k="place" v="locality" />
		<tag k="ssr:stedsnr" v="501341" />
	</node>
	<node id="-18359" lat="66.5774055518" lon="13.2114083399">
		<tag k="name" v="Hestvikklubben" />
		<tag k="natural" v="hill" />
		<tag k="place" v="locality" />
		<tag k="ssr:stedsnr" v="501013" />
	</node>
	<node id="-18358" lat="66.5722277811" lon="13.0122416594">
		<tag k="name" v="Valikrona" />
		<tag k="natural" v="hill" />
		<tag k="place" v="locality" />
		<tag k="ssr:stedsnr" v="501011" />
	</node>
	<node id="-18356" lat="66.7511194423" lon="12.4602944416">
		<tag k="alt_name" v="Sjurdøynakken;Sjuløynakken" />
		<tag k="name" v="Sjursøynakken" />
		<tag k="natural" v="hill" />
		<tag k="place" v="locality" />
		<tag k="ssr:stedsnr" v="380716" />
	</node>
	<node id="-18350" lat="66.5100944472" lon="13.3426138991">
		<tag k="name" v="Birgerlia" />
		<tag k="natural" v="slope" />
		<tag k="place" v="locality" />
		<tag k="ssr:stedsnr" v="348458" />
	</node>
	<node id="-18345" lat="66.5283999989" lon="13.118158344">
		<tag k="name" v="Finnkåtan" />
		<tag k="natural" v="hill" />
		<tag k="place" v="locality" />
		<tag k="ssr:stedsnr" v="348104" />
	</node>
	<node id="-18343" lat="66.7207805588" lon="13.2371166768">
		<tag k="name" v="Svehågen" />
		<tag k="natural" v="hill" />
		<tag k="place" v="locality" />
		<tag k="ssr:stedsnr" v="347877" />
	</node>
	<node id="-18342" lat="66.7163027798" lon="13.2854055611">
		<tag k="fixme" v="consider natural=peak for the most distinct mountains in the district" />
		<tag k="name" v="Skjelliåsen" />
		<tag k="natural" v="hill" />
		<tag k="place" v="locality" />
		<tag k="ssr:stedsnr" v="347873" />
	</node>
	<node id="-18341" lat="66.5401611092" lon="13.668850008">
		<tag k="name" v="Øverloftet" />
		<tag k="natural" v="ridge" />
		<tag k="place" v="locality" />
		<tag k="ssr:stedsnr" v="347575" />
	</node>
	<node id="-18337" lat="66.632558338" lon="13.3563333238">
		<tag k="name" v="Sletthella" />
		<tag k="place" v="locality" />
		<tag k="ssr:stedsnr" v="347457" />
	</node>
	<node id="-18336" lat="66.6522972203" lon="13.2542749952">
		<tag k="name" v="Nordkrumen" />
		<tag k="natural" v="valley" />
		<tag k="place" v="locality" />
		<tag k="ssr:stedsnr" v="347352" />
	</node>
	<node id="-18335" lat="66.6617527802" lon="13.2722861223">
		<tag k="name" v="Breilia" />
		<tag k="natural" v="slope" />
		<tag k="place" v="locality" />
		<tag k="ssr:stedsnr" v="347313" />
	</node>
	<node id="-18332" lat="66.655272224" lon="13.1863249896">
		<tag k="name" v="Sjyhågen" />
		<tag k="natural" v="hill" />
		<tag k="place" v="locality" />
		<tag k="ssr:stedsnr" v="347102" />
	</node>
	<node id="-18330" lat="66.5795194418" lon="12.609686111">
		<tag k="name" v="Valen" />
		<tag k="place" v="locality" />
		<tag k="ssr:stedsnr" v="347224" />
	</node>
	<node id="-18328" lat="66.5735944468" lon="13.0036666639">
		<tag k="name" v="Skoglund" />
		<tag k="natural" v="slope" />
		<tag k="place" v="locality" />
		<tag k="ssr:stedsnr" v="347221" />
	</node>
	<node id="-18327" lat="66.7527500003" lon="12.462058333">
		<tag k="name" v="Tangvikhaugen" />
		<tag k="natural" v="hill" />
		<tag k="place" v="locality" />
		<tag k="ssr:stedsnr" v="347215" />
	</node>
	<node id="-18322" lat="66.5459611087" lon="12.8382833221">
		<tag k="name" v="Sletthaug" />
		<tag k="natural" v="hill" />
		<tag k="place" v="locality" />
		<tag k="ssr:stedsnr" v="347003" />
	</node>
	<node id="-18319" lat="66.7511000008" lon="12.4602750007">
		<tag k="name" v="Sjuløynakken" />
		<tag k="natural" v="hill" />
		<tag k="place" v="locality" />
		<tag k="ssr:stedsnr" v="328706" />
	</node>
	<node id="-18307" lat="66.6324305602" lon="13.3694777705">
		<tag k="name" v="Urdhågen" />
		<tag k="natural" v="ridge" />
		<tag k="place" v="locality" />
		<tag k="ssr:stedsnr" v="469978" />
	</node>
	<node id="-18306" lat="66.6635888858" lon="13.3733944497">
		<tag k="fixme" v="consider natural=peak for the most distinct mountains in the district" />
		<tag k="name" v="Røvarpallen" />
		<tag k="natural" v="hill" />
		<tag k="place" v="locality" />
		<tag k="ssr:stedsnr" v="469959" />
	</node>
	<node id="-18302" lat="66.7047083338" lon="13.3340527712">
		<tag k="fixme" v="consider natural=peak for the most distinct mountains in the district" />
		<tag k="name" v="Branden" />
		<tag k="natural" v="hill" />
		<tag k="place" v="locality" />
		<tag k="ssr:stedsnr" v="469878" />
	</node>
	<node id="-18301" lat="66.7284388845" lon="13.3172250086">
		<tag k="name" v="Bonhågen" />
		<tag k="natural" v="hill" />
		<tag k="place" v="locality" />
		<tag k="ssr:stedsnr" v="469868" />
	</node>
	<node id="-18295" lat="66.6975027788" lon="13.2966333232">
		<tag k="name" v="Mellahammaren" />
		<tag k="natural" v="ridge" />
		<tag k="place" v="locality" />
		<tag k="ssr:stedsnr" v="469820" />
	</node>
	<node id="-18294" lat="66.6625555581" lon="13.2412416726">
		<tag k="name" v="Gongskaret" />
		<tag k="natural" v="valley" />
		<tag k="place" v="locality" />
		<tag k="ssr:stedsnr" v="469796" />
	</node>
	<node id="-18291" lat="66.6445361099" lon="13.572644443">
		<tag k="name" v="Steila" />
		<tag k="natural" v="slope" />
		<tag k="place" v="locality" />
		<tag k="ssr:stedsnr" v="469573" />
	</node>
	<node id="-18290" lat="66.6266027762" lon="13.4442055448">
		<tag k="name" v="Skreen" />
		<tag k="natural" v="cliff" />
		<tag k="ssr:stedsnr" v="469565" />
	</node>
	<node id="-18289" lat="66.6172499964" lon="13.4388388865">
		<tag k="name" v="Sørdalen" />
		<tag k="natural" v="valley" />
		<tag k="place" v="locality" />
		<tag k="ssr:stedsnr" v="469563" />
	</node>
	<node id="-18288" lat="66.6134722201" lon="13.4860861201">
		<tag k="name" v="Nordhågan" />
		<tag k="natural" v="hill" />
		<tag k="place" v="locality" />
		<tag k="ssr:stedsnr" v="469558" />
	</node>
	<node id="-18287" lat="66.4751472247" lon="13.3818555467">
		<tag k="name" v="Råndalen" />
		<tag k="natural" v="valley" />
		<tag k="place" v="locality" />
		<tag k="ssr:stedsnr" v="469495" />
	</node>
	<node id="-18285" lat="66.4721416691" lon="13.3192500022">
		<tag k="name" v="Sløfslia" />
		<tag k="natural" v="slope" />
		<tag k="place" v="locality" />
		<tag k="ssr:stedsnr" v="469489" />
	</node>
	<node id="-18283" lat="66.6157305569" lon="13.2737277708">
		<tag k="name" v="Geitbergan" />
		<tag k="natural" v="cliff" />
		<tag k="ssr:stedsnr" v="469473" />
	</node>
	<node id="-18282" lat="66.6090861103" lon="13.3118916609">
		<tag k="name" v="Innerryphågen" />
		<tag k="natural" v="hill" />
		<tag k="place" v="locality" />
		<tag k="ssr:stedsnr" v="469460" />
	</node>
	<node id="-18281" lat="66.6145111076" lon="13.3125666582">
		<tag k="name" v="Nesan" />
		<tag k="place" v="locality" />
		<tag k="ssr:stedsnr" v="469446" />
	</node>
	<node id="-18280" lat="66.6143666673" lon="13.2996777752">
		<tag k="name" v="Mursteinkleiva" />
		<tag k="natural" v="hill" />
		<tag k="place" v="locality" />
		<tag k="ssr:stedsnr" v="469438" />
	</node>
	<node id="-18279" lat="66.6124638881" lon="13.2446333437">
		<tag k="name" v="Nordbergan" />
		<tag k="natural" v="slope" />
		<tag k="place" v="locality" />
		<tag k="ssr:stedsnr" v="469415" />
	</node>
	<node id="-18278" lat="66.6143444458" lon="13.2583333297">
		<tag k="name" v="Stuven" />
		<tag k="natural" v="ridge" />
		<tag k="place" v="locality" />
		<tag k="ssr:stedsnr" v="469414" />
	</node>
	<node id="-18277" lat="66.5908722191" lon="13.2209138891">
		<tag k="name" v="Lemman" />
		<tag k="natural" v="slope" />
		<tag k="place" v="locality" />
		<tag k="ssr:stedsnr" v="469408" />
	</node>
	<node id="-18274" lat="66.6432249967" lon="13.2694472236">
		<tag k="name" v="Blåtinden" />
		<tag k="natural" v="hill" />
		<tag k="place" v="locality" />
		<tag k="ssr:stedsnr" v="469378" />
	</node>
	<node id="-18272" lat="66.6527194425" lon="13.2411888938">
		<tag k="name" v="Sørdyrgrøva" />
		<tag k="natural" v="valley" />
		<tag k="place" v="locality" />
		<tag k="ssr:stedsnr" v="469369" />
	</node>
	<node id="-18271" lat="66.6254416685" lon="13.342386105">
		<tag k="name" v="Kvitnesviklia" />
		<tag k="natural" v="slope" />
		<tag k="place" v="locality" />
		<tag k="ssr:stedsnr" v="469331" />
	</node>
	<node id="-18270" lat="66.6200722211" lon="13.2931055475">
		<tag k="name" v="Starsliberget" />
		<tag k="natural" v="hill" />
		<tag k="place" v="locality" />
		<tag k="ssr:stedsnr" v="469323" />
	</node>
	<node id="-18268" lat="66.6710055574" lon="13.231905556">
		<tag k="name" v="Hesthågen" />
		<tag k="natural" v="hill" />
		<tag k="place" v="locality" />
		<tag k="ssr:stedsnr" v="469271" />
	</node>
	<node id="-18267" lat="66.6486222189" lon="13.297480562">
		<tag k="name" v="Væranglia" />
		<tag k="natural" v="slope" />
		<tag k="place" v="locality" />
		<tag k="ssr:stedsnr" v="469247" />
	</node>
	<node id="-18262" lat="66.5932083343" lon="12.6710694385">
		<tag k="fixme" v="consider natural=peak for the most distinct mountains in the district" />
		<tag k="name" v="Storhågen" />
		<tag k="natural" v="hill" />
		<tag k="place" v="locality" />
		<tag k="ssr:stedsnr" v="469197" />
	</node>
	<node id="-18261" lat="66.6713805531" lon="13.2084250046">
		<tag k="name" v="Vardhågen" />
		<tag k="natural" v="hill" />
		<tag k="place" v="locality" />
		<tag k="ssr:stedsnr" v="469193" />
	</node>
	<node id="-18259" lat="66.5347861135" lon="13.1363972233">
		<tag k="name" v="Mellavollen" />
		<tag k="place" v="locality" />
		<tag k="ssr:stedsnr" v="469129" />
	</node>
	<node id="-18258" lat="66.5239472252" lon="13.1653527866">
		<tag k="name" v="Punglihola" />
		<tag k="natural" v="valley" />
		<tag k="place" v="locality" />
		<tag k="ssr:stedsnr" v="469123" />
	</node>
	<node id="-18256" lat="66.5174194474" lon="13.1911083303">
		<tag k="name" v="Tuvdalen" />
		<tag k="natural" v="valley" />
		<tag k="place" v="locality" />
		<tag k="ssr:stedsnr" v="469113" />
	</node>
	<node id="-18255" lat="66.6133277812" lon="13.0244861127">
		<tag k="name" v="Stordalen" />
		<tag k="natural" v="valley" />
		<tag k="place" v="locality" />
		<tag k="ssr:stedsnr" v="469100" />
	</node>
	<node id="-18253" lat="66.5609944487" lon="13.2127416752">
		<tag k="name" v="Hatten" />
		<tag k="natural" v="hill" />
		<tag k="place" v="locality" />
		<tag k="ssr:stedsnr" v="469079" />
	</node>
	<node id="-18251" lat="66.4709222263" lon="13.2807194489">
		<tag k="name" v="Jektvikrabben" />
		<tag k="natural" v="ridge" />
		<tag k="place" v="locality" />
		<tag k="ssr:stedsnr" v="469057" />
	</node>
	<node id="-18250" lat="66.4901055585" lon="13.2099833374">
		<tag k="name" v="Skjåhågen" />
		<tag k="natural" v="hill" />
		<tag k="place" v="locality" />
		<tag k="ssr:stedsnr" v="469051" />
	</node>
	<node id="-18248" lat="66.5049555523" lon="13.2113222231">
		<tag k="name" v="Ågdalen" />
		<tag k="natural" v="valley" />
		<tag k="place" v="locality" />
		<tag k="ssr:stedsnr" v="469041" />
	</node>
	<node id="-18245" lat="66.4316305597" lon="13.2298138804">
		<tag k="name" v="Nyhågen" />
		<tag k="natural" v="hill" />
		<tag k="place" v="locality" />
		<tag k="ssr:stedsnr" v="469034" />
	</node>
	<node id="-18243" lat="66.452080558" lon="13.1932499929">
		<tag k="name" v="Reindalen" />
		<tag k="natural" v="valley" />
		<tag k="place" v="locality" />
		<tag k="ssr:stedsnr" v="469031" />
	</node>
	<node id="-18242" lat="66.4581722223" lon="13.2141472255">
		<tag k="name" v="Trongsmoget" />
		<tag k="natural" v="valley" />
		<tag k="place" v="locality" />
		<tag k="ssr:stedsnr" v="469028" />
	</node>
	<node id="-18240" lat="66.5435000021" lon="12.8439694504">
		<tag k="name" v="Tussberget" />
		<tag k="natural" v="hill" />
		<tag k="place" v="locality" />
		<tag k="ssr:stedsnr" v="469024" />
	</node>
	<node id="-18238" lat="66.4500027783" lon="13.2785833297">
		<tag k="name" v="Krokrånan" />
		<tag k="place" v="locality" />
		<tag k="ssr:stedsnr" v="469016" />
	</node>
	<node id="-18237" lat="66.6149861143" lon="13.481972223">
		<tag k="name" v="Nordhågen" />
		<tag k="natural" v="hill" />
		<tag k="place" v="locality" />
		<tag k="ssr:stedsnr" v="469552" />
	</node>
	<node id="-18236" lat="66.4971777741" lon="13.30385">
		<tag k="name" v="Sørrabben" />
		<tag k="natural" v="ridge" />
		<tag k="place" v="locality" />
		<tag k="ssr:stedsnr" v="469538" />
	</node>
	<node id="-18235" lat="66.4943083336" lon="13.3348333365">
		<tag k="name" v="Gravgård" />
		<tag k="place" v="locality" />
		<tag k="ssr:stedsnr" v="469531" />
	</node>
	<node id="-18234" lat="66.5035166647" lon="13.3237333321">
		<tag k="name" v="Rabbedalsfjellet" />
		<tag k="natural" v="cliff" />
		<tag k="ssr:stedsnr" v="469526" />
	</node>
	<node id="-18233" lat="66.6486166691" lon="13.4112694399">
		<tag k="name" v="Heststellråna" />
		<tag k="natural" v="slope" />
		<tag k="place" v="locality" />
		<tag k="ssr:stedsnr" v="288965" />
	</node>
	<node id="-18232" lat="66.6479777744" lon="13.4060222182">
		<tag k="name" v="Oldran" />
		<tag k="natural" v="slope" />
		<tag k="place" v="locality" />
		<tag k="ssr:stedsnr" v="288963" />
	</node>
	<node id="-18231" lat="66.6384499973" lon="13.3763361145">
		<tag k="name" v="Kråkdalen" />
		<tag k="natural" v="valley" />
		<tag k="place" v="locality" />
		<tag k="ssr:stedsnr" v="288956" />
	</node>
	<node id="-18230" lat="66.6156166712" lon="13.3870499956">
		<tag k="name" v="Øverlian" />
		<tag k="natural" v="slope" />
		<tag k="place" v="locality" />
		<tag k="ssr:stedsnr" v="287977" />
	</node>
	<node id="-18224" lat="66.7260194469" lon="13.3276444509">
		<tag k="name" v="Tømmeråsen" />
		<tag k="natural" v="ridge" />
		<tag k="place" v="locality" />
		<tag k="ssr:stedsnr" v="287863" />
	</node>
	<node id="-18223" lat="66.5372861076" lon="13.6549611195">
		<tag k="name" v="Brennbakkan" />
		<tag k="natural" v="slope" />
		<tag k="place" v="locality" />
		<tag k="ssr:stedsnr" v="287620" />
	</node>
	<node id="-18221" lat="66.5325499972" lon="13.6618527699">
		<tag k="name" v="Hellan" />
		<tag k="natural" v="slope" />
		<tag k="place" v="locality" />
		<tag k="ssr:stedsnr" v="287617" />
	</node>
	<node id="-18220" lat="66.5150027784" lon="13.2913194362">
		<tag k="name" v="Førrskaret" />
		<tag k="natural" v="valley" />
		<tag k="place" v="locality" />
		<tag k="ssr:stedsnr" v="287517" />
	</node>
	<node id="-18219" lat="66.5197416634" lon="13.2804305628">
		<tag k="name" v="Almlihola" />
		<tag k="natural" v="slope" />
		<tag k="place" v="locality" />
		<tag k="ssr:stedsnr" v="287508" />
	</node>
	<node id="-18218" lat="66.52029722" lon="13.2825666705">
		<tag k="name" v="Almlifloget" />
		<tag k="natural" v="cliff" />
		<tag k="ssr:stedsnr" v="287507" />
	</node>
	<node id="-18216" lat="66.6281111093" lon="13.3346083429">
		<tag k="name" v="Bulia" />
		<tag k="natural" v="slope" />
		<tag k="place" v="locality" />
		<tag k="ssr:stedsnr" v="287353" />
	</node>
	<node id="-18215" lat="66.602444444" lon="13.3098361041">
		<tag k="name" v="Bjørndalsrabben" />
		<tag k="natural" v="ridge" />
		<tag k="place" v="locality" />
		<tag k="ssr:stedsnr" v="287468" />
	</node>
	<node id="-18214" lat="66.6112250001" lon="13.3335166569">
		<tag k="name" v="Nordrabben" />
		<tag k="natural" v="ridge" />
		<tag k="place" v="locality" />
		<tag k="ssr:stedsnr" v="287455" />
	</node>
	<node id="-18213" lat="66.5875638877" lon="13.2235749919">
		<tag k="name" v="Raudhammaren" />
		<tag k="natural" v="cliff" />
		<tag k="ssr:stedsnr" v="287428" />
	</node>
	<node id="-18210" lat="66.6421944443" lon="13.2752527802">
		<tag k="name" v="Raudmannlia" />
		<tag k="natural" v="slope" />
		<tag k="place" v="locality" />
		<tag k="ssr:stedsnr" v="287405" />
	</node>
	<node id="-18209" lat="66.5919805556" lon="12.6488861008">
		<tag k="name" v="Bryggeberget" />
		<tag k="natural" v="cliff" />
		<tag k="ssr:stedsnr" v="287262" />
	</node>
	<node id="-18208" lat="66.5917916672" lon="12.6321805474">
		<tag k="fixme" v="consider natural=peak for the most distinct mountains in the district" />
		<tag k="name" v="Lauvåsen" />
		<tag k="natural" v="hill" />
		<tag k="place" v="locality" />
		<tag k="ssr:stedsnr" v="287259" />
	</node>
	<node id="-18205" lat="66.6665138856" lon="13.2685416744">
		<tag k="name" v="Brendslan" />
		<tag k="natural" v="slope" />
		<tag k="place" v="locality" />
		<tag k="ssr:stedsnr" v="287311" />
	</node>
	<node id="-18202" lat="66.5926888904" lon="12.9386722232">
		<tag k="name" v="Kvitneshågen" />
		<tag k="natural" v="ridge" />
		<tag k="place" v="locality" />
		<tag k="ssr:stedsnr" v="287117" />
	</node>
	<node id="-18199" lat="66.5944972183" lon="12.6480833437">
		<tag k="name" v="Kvalsletten" />
		<tag k="place" v="locality" />
		<tag k="ssr:stedsnr" v="287223" />
	</node>
	<node id="-18198" lat="66.5892527802" lon="12.9137305528">
		<tag k="name" v="Einmoa" />
		<tag k="place" v="locality" />
		<tag k="ssr:stedsnr" v="287064" />
	</node>
	<node id="-18197" lat="66.5543222219" lon="12.8361277701">
		<tag k="name" v="Båtshammaren" />
		<tag k="natural" v="hill" />
		<tag k="place" v="locality" />
		<tag k="ssr:stedsnr" v="287025" />
	</node>
	<node id="-18194" lat="66.5493750001" lon="12.8369250098">
		<tag k="name" v="Elstertorvhågan" />
		<tag k="natural" v="hill" />
		<tag k="place" v="locality" />
		<tag k="ssr:stedsnr" v="287003" />
	</node>
	<node id="-18185" lat="66.5867500024" lon="12.6323833402">
		<tag k="fixme" v="consider natural=peak for the most distinct mountains in the district" />
		<tag k="name" v="Nordfjellet" />
		<tag k="natural" v="hill" />
		<tag k="place" v="locality" />
		<tag k="ssr:stedsnr" v="259825" />
	</node>
	<node id="-18178" lat="66.5984694462" lon="13.2943555466">
		<tag k="name" v="Storrisdalen" />
		<tag k="natural" v="valley" />
		<tag k="place" v="locality" />
		<tag k="ssr:stedsnr" v="259323" />
	</node>
	<node id="-18171" lat="66.5550111107" lon="13.0213277679">
		<tag k="name" v="Slynga" />
		<tag k="natural" v="cliff" />
		<tag k="ssr:stedsnr" v="259079" />
	</node>
	<node id="-18160" lat="66.6579055554" lon="13.2882111038">
		<tag k="fixme" v="consider natural=peak for the most distinct mountains in the district" />
		<tag k="name" v="Småtindan" />
		<tag k="natural" v="hill" />
		<tag k="place" v="locality" />
		<tag k="ssr:stedsnr" v="258323" />
	</node>
	<node id="-18155" lat="66.5711500026" lon="13.0207222291">
		<tag k="alt_name" v="Breidviktinden" />
		<tag k="fixme" v="consider natural=peak for the most distinct mountains in the district" />
		<tag k="name" v="Breiviktinden" />
		<tag k="natural" v="hill" />
		<tag k="place" v="locality" />
		<tag k="ssr:stedsnr" v="258023" />
	</node>
	<node id="-18147" lat="66.6295138916" lon="13.4211277866">
		<tag k="name" v="Bjørnpallan" />
		<tag k="place" v="locality" />
		<tag k="ssr:stedsnr" v="227967" />
	</node>
	<node id="-18145" lat="66.6977027807" lon="13.4702527707">
		<tag k="name" v="Forrabben" />
		<tag k="place" v="locality" />
		<tag k="ssr:stedsnr" v="227869" />
	</node>
	<node id="-18144" lat="66.7279694407" lon="13.3469249913">
		<tag k="fixme" v="consider natural=peak for the most distinct mountains in the district" />
		<tag k="name" v="Sørrabben" />
		<tag k="natural" v="hill" />
		<tag k="place" v="locality" />
		<tag k="ssr:stedsnr" v="227859" />
	</node>
	<node id="-18143" lat="66.4721138877" lon="13.4996222238">
		<tag k="name" v="Heia" />
		<tag k="natural" v="slope" />
		<tag k="place" v="locality" />
		<tag k="ssr:stedsnr" v="227466" />
	</node>
	<node id="-18141" lat="66.469266668" lon="13.3896472257">
		<tag k="name" v="Skaklumpen" />
		<tag k="natural" v="ridge" />
		<tag k="place" v="locality" />
		<tag k="ssr:stedsnr" v="227461" />
	</node>
	<node id="-18134" lat="66.4843527822" lon="13.8190611034">
		<tag k="name" v="Storvassdalen" />
		<tag k="natural" v="valley" />
		<tag k="place" v="locality" />
		<tag k="ssr:stedsnr" v="441975" />
	</node>
	<node id="-18129" lat="66.6270444402" lon="13.0241361081">
		<tag k="name" v="Vestreskardet" />
		<tag k="natural" v="valley" />
		<tag k="place" v="locality" />
		<tag k="ssr:stedsnr" v="441943" />
	</node>
	<node id="-18103" lat="66.4813444489" lon="13.3763833258">
		<tag k="fixme" v="consider natural=peak for the most distinct mountains in the district" />
		<tag k="name" v="Kvalhovudet" />
		<tag k="natural" v="hill" />
		<tag k="place" v="locality" />
		<tag k="ssr:stedsnr" v="441669" />
	</node>
	<node id="-18097" lat="66.5651638905" lon="13.3294111051">
		<tag k="fixme" v="consider natural=peak for the most distinct mountains in the district" />
		<tag k="name" v="Åsen" />
		<tag k="natural" v="hill" />
		<tag k="place" v="locality" />
		<tag k="ssr:stedsnr" v="441650" />
	</node>
	<node id="-18092" lat="66.5330305535" lon="13.3472166627">
		<tag k="fixme" v="consider natural=peak for the most distinct mountains in the district" />
		<tag k="name" v="Skallen" />
		<tag k="natural" v="hill" />
		<tag k="place" v="locality" />
		<tag k="ssr:stedsnr" v="441401" />
	</node>
	<node id="-18091" lat="66.5160305539" lon="13.3955749921">
		<tag k="alt_name" v="Stromptinden, ytre" />
		<tag k="fixme" v="consider natural=peak for the most distinct mountains in the district" />
		<tag k="name" v="Ytre Stromptinden" />
		<tag k="natural" v="hill" />
		<tag k="old_name" v="Stomptinden, ytre" />
		<tag k="place" v="locality" />
		<tag k="ssr:stedsnr" v="441388" />
	</node>
	<node id="-18085" lat="66.5593999995" lon="13.2335638827">
		<tag k="name" v="Kvannlimarka" />
		<tag k="natural" v="slope" />
		<tag k="place" v="locality" />
		<tag k="ssr:stedsnr" v="441322" />
	</node>
	<node id="-18083" lat="66.6522500026" lon="13.4342499959">
		<tag k="fixme" v="consider natural=peak for the most distinct mountains in the district" />
		<tag k="name" v="Blokktinden" />
		<tag k="natural" v="hill" />
		<tag k="place" v="locality" />
		<tag k="ssr:stedsnr" v="441279" />
	</node>
	<node id="-18079" lat="66.6416416624" lon="13.6775944376">
		<tag k="fixme" v="consider natural=peak for the most distinct mountains in the district" />
		<tag k="name" v="Istinden" />
		<tag k="natural" v="hill" />
		<tag k="place" v="locality" />
		<tag k="ssr:stedsnr" v="441235" />
	</node>
	<node id="-18078" lat="66.7046888927" lon="13.3285888825">
		<tag k="name" v="Randhaugen" />
		<tag k="natural" v="hill" />
		<tag k="place" v="locality" />
		<tag k="ssr:stedsnr" v="441220" />
	</node>
	<node id="-18077" lat="66.7289166656" lon="13.2907111092">
		<tag k="fixme" v="consider natural=peak for the most distinct mountains in the district" />
		<tag k="name" v="Brattåsen" />
		<tag k="natural" v="hill" />
		<tag k="place" v="locality" />
		<tag k="ssr:stedsnr" v="441175" />
	</node>
	<node id="-18076" lat="66.7214416676" lon="13.2898861075">
		<tag k="name" v="Hesjeåsen" />
		<tag k="natural" v="hill" />
		<tag k="place" v="locality" />
		<tag k="ssr:stedsnr" v="441148" />
	</node>
	<node id="-18075" lat="66.5323888922" lon="13.0545666595">
		<tag k="name" v="Stordalen" />
		<tag k="natural" v="valley" />
		<tag k="place" v="locality" />
		<tag k="ssr:stedsnr" v="441120" />
	</node>
	<node id="-18050" lat="66.6520916644" lon="13.197088899">
		<tag k="fixme" v="consider natural=peak for the most distinct mountains in the district" />
		<tag k="name" v="Kvitheia" />
		<tag k="natural" v="hill" />
		<tag k="place" v="locality" />
		<tag k="ssr:stedsnr" v="198906" />
	</node>
	<node id="-18036" lat="66.6120499982" lon="13.4093583249">
		<tag k="fixme" v="consider natural=peak for the most distinct mountains in the district" />
		<tag k="name" v="Kisttinden" />
		<tag k="natural" v="hill" />
		<tag k="place" v="locality" />
		<tag k="ssr:stedsnr" v="198337" />
	</node>
	<node id="-18033" lat="66.537811113" lon="13.08972499">
		<tag k="alt_name" v="Grovtinden" />
		<tag k="fixme" v="consider natural=peak for the most distinct mountains in the district" />
		<tag k="name" v="Middagshågen" />
		<tag k="natural" v="hill" />
		<tag k="place" v="locality" />
		<tag k="ssr:stedsnr" v="198107" />
	</node>
	<node id="-18031" lat="66.7004583358" lon="13.3137250064">
		<tag k="name" v="St.Hanshaugen" />
		<tag k="natural" v="hill" />
		<tag k="place" v="locality" />
		<tag k="ssr:stedsnr" v="198203" />
	</node>
	<node id="-18021" lat="66.6212972253" lon="13.4616527807">
		<tag k="name" v="Anderslia" />
		<tag k="natural" v="slope" />
		<tag k="place" v="locality" />
		<tag k="ssr:stedsnr" v="288487" />
	</node>
	<node id="-18020" lat="66.671430557" lon="13.5686138924">
		<tag k="name" v="Akselkulen" />
		<tag k="natural" v="hill" />
		<tag k="place" v="locality" />
		<tag k="ssr:stedsnr" v="288482" />
	</node>
	<node id="-18018" lat="66.5290583351" lon="13.1429861044">
		<tag k="name" v="Middagsfjellet" />
		<tag k="natural" v="hill" />
		<tag k="place" v="locality" />
		<tag k="ssr:stedsnr" v="288120" />
	</node>
	<node id="-18017" lat="66.4504944476" lon="13.2473972126">
		<tag k="name" v="Vikkrona" />
		<tag k="natural" v="hill" />
		<tag k="place" v="locality" />
		<tag k="ssr:stedsnr" v="288027" />
	</node>
	<node id="-18016" lat="66.4634361141" lon="13.2359722237">
		<tag k="name" v="Vedneshågen" />
		<tag k="natural" v="ridge" />
		<tag k="place" v="locality" />
		<tag k="ssr:stedsnr" v="288017" />
	</node>
	<node id="-18015" lat="66.6933694424" lon="13.398299998">
		<tag k="fixme" v="consider natural=peak for the most distinct mountains in the district" />
		<tag k="name" v="Magvollhågen" />
		<tag k="natural" v="hill" />
		<tag k="place" v="locality" />
		<tag k="ssr:stedsnr" v="287941" />
	</node>
	<node id="-18012" lat="66.6852555577" lon="13.4702166582">
		<tag k="fixme" v="consider natural=peak for the most distinct mountains in the district" />
		<tag k="name" v="Gaupåsen" />
		<tag k="natural" v="hill" />
		<tag k="place" v="locality" />
		<tag k="ssr:stedsnr" v="287888" />
	</node>
	<node id="-18011" lat="66.4947777797" lon="13.3148916588">
		<tag k="name" v="Forrabben" />
		<tag k="natural" v="ridge" />
		<tag k="place" v="locality" />
		<tag k="ssr:stedsnr" v="287544" />
	</node>
	<node id="-18010" lat="66.4994388928" lon="13.3049138815">
		<tag k="name" v="Mellarabben" />
		<tag k="natural" v="ridge" />
		<tag k="place" v="locality" />
		<tag k="ssr:stedsnr" v="287543" />
	</node>
	<node id="-18009" lat="66.5941222259" lon="13.2611444508">
		<tag k="name" v="Yttersvaan" />
		<tag k="natural" v="slope" />
		<tag k="place" v="locality" />
		<tag k="ssr:stedsnr" v="287447" />
	</node>
	<node id="-18006" lat="66.604141669" lon="13.2468361071">
		<tag k="name" v="Brattbakken" />
		<tag k="natural" v="slope" />
		<tag k="place" v="locality" />
		<tag k="ssr:stedsnr" v="287439" />
	</node>
	<node id="-18005" lat="66.59000278" lon="13.223416676">
		<tag k="name" v="Kvitranda" />
		<tag k="natural" v="cliff" />
		<tag k="ssr:stedsnr" v="287429" />
	</node>
	<node id="-18004" lat="66.475130558" lon="13.433449996">
		<tag k="name" v="Hemnamoen" />
		<tag k="place" v="locality" />
		<tag k="ssr:stedsnr" v="287501" />
	</node>
	<node id="-18003" lat="66.4718083365" lon="13.4783250035">
		<tag k="name" v="Vasshågen" />
		<tag k="natural" v="ridge" />
		<tag k="place" v="locality" />
		<tag k="ssr:stedsnr" v="287500" />
	</node>
	<node id="-18001" lat="66.6465305572" lon="13.2806833255">
		<tag k="name" v="Havsteinlia" />
		<tag k="natural" v="slope" />
		<tag k="place" v="locality" />
		<tag k="ssr:stedsnr" v="287377" />
	</node>
	<node id="-18000" lat="66.6166583333" lon="13.2896638802">
		<tag k="name" v="Buskarhågen" />
		<tag k="natural" v="hill" />
		<tag k="place" v="locality" />
		<tag k="ssr:stedsnr" v="287372" />
	</node>
	<node id="-17994" lat="66.6677944407" lon="13.2117083309">
		<tag k="name" v="Daumannskaret" />
		<tag k="natural" v="valley" />
		<tag k="place" v="locality" />
		<tag k="ssr:stedsnr" v="287192" />
	</node>
	<node id="-17993" lat="66.6636083341" lon="13.0647222238">
		<tag k="name" v="Rishågen" />
		<tag k="natural" v="hill" />
		<tag k="place" v="locality" />
		<tag k="ssr:stedsnr" v="287188" />
	</node>
	<node id="-17991" lat="66.6501027797" lon="13.2132277809">
		<tag k="name" v="Håbrannen" />
		<tag k="natural" v="slope" />
		<tag k="place" v="locality" />
		<tag k="ssr:stedsnr" v="287100" />
	</node>
	<node id="-17990" lat="66.6119527822" lon="13.006761112">
		<tag k="name" v="Støttvågen" />
		<tag k="natural" v="valley" />
		<tag k="place" v="locality" />
		<tag k="ssr:stedsnr" v="287095" />
	</node>
	<node id="-17989" lat="66.6423999965" lon="13.2098861031">
		<tag k="name" v="Lappvika" />
		<tag k="natural" v="valley" />
		<tag k="place" v="locality" />
		<tag k="ssr:stedsnr" v="287091" />
	</node>
	<node id="-17988" lat="66.5698444408" lon="13.2153055543">
		<tag k="name" v="Jollia" />
		<tag k="natural" v="slope" />
		<tag k="place" v="locality" />
		<tag k="ssr:stedsnr" v="287087" />
	</node>
	<node id="-17987" lat="66.5635555542" lon="13.1960499962">
		<tag k="name" v="Nerkleiva" />
		<tag k="natural" v="hill" />
		<tag k="place" v="locality" />
		<tag k="ssr:stedsnr" v="287084" />
	</node>
	<node id="-17981" lat="66.5785611115" lon="12.9843555637">
		<tag k="name" v="Stihågen" />
		<tag k="natural" v="ridge" />
		<tag k="place" v="locality" />
		<tag k="ssr:stedsnr" v="287245" />
	</node>
	<node id="-17979" lat="66.530072224" lon="13.1283388861">
		<tag k="name" v="Dempelihågen" />
		<tag k="natural" v="ridge" />
		<tag k="place" v="locality" />
		<tag k="ssr:stedsnr" v="287146" />
	</node>
	<node id="-17977" lat="66.4861666711" lon="13.3030944401">
		<tag k="name" v="Tyttebærmoa" />
		<tag k="place" v="locality" />
		<tag k="ssr:stedsnr" v="287045" />
	</node>
	<node id="-17971" lat="66.6643999989" lon="13.2583166755">
		<tag k="name" v="Sørkleiva" />
		<tag k="natural" v="hill" />
		<tag k="place" v="locality" />
		<tag k="ssr:stedsnr" v="280778" />
	</node>
	<node id="-17970" lat="66.6568361133" lon="13.4985305565">
		<tag k="name" v="Budalsaksla" />
		<tag k="place" v="locality" />
		<tag k="ssr:stedsnr" v="166968" />
	</node>
	<node id="-17969" lat="66.728102777" lon="13.3772361167">
		<tag k="name" v="Bjørkskaret" />
		<tag k="natural" v="valley" />
		<tag k="place" v="locality" />
		<tag k="ssr:stedsnr" v="166877" />
	</node>
	<node id="-17967" lat="66.5077999985" lon="13.3256583254">
		<tag k="name" v="Kalvhågen" />
		<tag k="natural" v="hill" />
		<tag k="place" v="locality" />
		<tag k="ssr:stedsnr" v="166494" />
	</node>
	<node id="-17965" lat="66.5127999969" lon="13.1931583352">
		<tag k="name" v="Tuvfjellet" />
		<tag k="natural" v="slope" />
		<tag k="place" v="locality" />
		<tag k="ssr:stedsnr" v="166112" />
	</node>
	<node id="-17964" lat="66.6996555585" lon="13.420199991">
		<tag k="fixme" v="consider natural=peak for the most distinct mountains in the district" />
		<tag k="name" v="Troåsen" />
		<tag k="natural" v="hill" />
		<tag k="place" v="locality" />
		<tag k="ssr:stedsnr" v="165956" />
	</node>
	<node id="-17963" lat="66.454574996" lon="13.3318305464">
		<tag k="name" v="Geitfjellet" />
		<tag k="natural" v="hill" />
		<tag k="place" v="locality" />
		<tag k="ssr:stedsnr" v="166004" />
	</node>
	<node id="-17962" lat="66.4583305576" lon="13.346513887">
		<tag k="name" v="Loftan" />
		<tag k="natural" v="cliff" />
		<tag k="ssr:stedsnr" v="166003" />
	</node>
	<node id="-17958" lat="66.552727782" lon="12.8632361089">
		<tag k="name" v="Flatholman" />
		<tag k="natural" v="hill" />
		<tag k="place" v="locality" />
		<tag k="ssr:stedsnr" v="165062" />
	</node>
	<node id="-17952" lat="66.7576805546" lon="12.4727583275">
		<tag k="name" v="Øksenskarhaugen" />
		<tag k="natural" v="hill" />
		<tag k="place" v="locality" />
		<tag k="ssr:stedsnr" v="164260" />
	</node>
	<node id="-17946" lat="66.7305250015" lon="13.3063250072">
		<tag k="fixme" v="consider natural=peak for the most distinct mountains in the district" />
		<tag k="name" v="Middagshågen" />
		<tag k="natural" v="hill" />
		<tag k="place" v="locality" />
		<tag k="ssr:stedsnr" v="145860" />
	</node>
	<node id="-17943" lat="66.5880611118" lon="12.634130559">
		<tag k="fixme" v="consider natural=peak for the most distinct mountains in the district" />
		<tag k="name" v="Nordnesøyfjellet" />
		<tag k="natural" v="hill" />
		<tag k="place" v="locality" />
		<tag k="ssr:stedsnr" v="137783" />
	</node>
	<node id="-17937" lat="66.5730083316" lon="13.2821083302">
		<tag k="alt_name" v="Rundfjella, litle" />
		<tag k="fixme" v="consider natural=peak for the most distinct mountains in the district" />
		<tag k="name" v="Litle Rundfjella" />
		<tag k="natural" v="hill" />
		<tag k="place" v="locality" />
		<tag k="ssr:stedsnr" v="137315" />
	</node>
	<node id="-17936" lat="66.5874194444" lon="13.2190749901">
		<tag k="fixme" v="multiple name tags, choose one and add the other to alt_name" />
		<tag k="name" v="Høglia;Vesterlia" />
		<tag k="natural" v="slope" />
		<tag k="place" v="locality" />
		<tag k="ssr:stedsnr" v="137305" />
	</node>
	<node id="-17935" lat="66.5624999957" lon="13.7264861173">
		<tag k="fixme" v="consider natural=peak for the most distinct mountains in the district" />
		<tag k="name" v="Svartisheia" />
		<tag k="natural" v="hill" />
		<tag k="place" v="locality" />
		<tag k="ssr:stedsnr" v="137459" />
	</node>
	<node id="-17932" lat="66.712413892" lon="13.4381305637">
		<tag k="fixme" v="consider natural=peak for the most distinct mountains in the district" />
		<tag k="name" v="Mefjellet" />
		<tag k="natural" v="hill" />
		<tag k="place" v="locality" />
		<tag k="ssr:stedsnr" v="268449" />
	</node>
	<node id="-17927" lat="66.5902333375" lon="12.9011583422">
		<tag k="alt_name" v="Skarvbergan" />
		<tag k="name" v="Skarvberget" />
		<tag k="natural" v="hill" />
		<tag k="place" v="locality" />
		<tag k="ssr:stedsnr" v="137031" />
	</node>
	<node id="-17919" lat="66.7251999996" lon="13.3057194394">
		<tag k="fixme" v="consider natural=peak for the most distinct mountains in the district" />
		<tag k="name" v="Kiståsen" />
		<tag k="natural" v="hill" />
		<tag k="place" v="locality" />
		<tag k="ssr:stedsnr" v="137141" />
	</node>
	<node id="-17918" lat="66.7283527813" lon="13.307905548">
		<tag k="alt_name" v="Kolåsen" />
		<tag k="fixme" v="consider natural=peak for the most distinct mountains in the district" />
		<tag k="name" v="Kølåsen" />
		<tag k="natural" v="hill" />
		<tag k="place" v="locality" />
		<tag k="ssr:stedsnr" v="137139" />
	</node>
	<node id="-17917" lat="66.7253277823" lon="13.2246055528">
		<tag k="alt_name" v="Steinhaugen" />
		<tag k="name" v="Steinhågen" />
		<tag k="natural" v="hill" />
		<tag k="place" v="locality" />
		<tag k="ssr:stedsnr" v="137137" />
	</node>
	<node id="-17915" lat="66.7150305541" lon="13.2758249968">
		<tag k="fixme" v="multiple name tags, choose one and add the other to alt_name" />
		<tag k="name" v="Langmyråsen;Skjellighompan" />
		<tag k="natural" v="hill" />
		<tag k="place" v="locality" />
		<tag k="ssr:stedsnr" v="137116" />
	</node>
	<node id="-17909" lat="66.4965361131" lon="13.746908338">
		<tag k="fixme" v="consider natural=peak for the most distinct mountains in the district" />
		<tag k="name" v="Slettfjellet" />
		<tag k="natural" v="hill" />
		<tag k="place" v="locality" />
		<tag k="ssr:stedsnr" v="259994" />
	</node>
	<node id="-17891" lat="66.4678944478" lon="13.2957666612">
		<tag k="fixme" v="multiple name tags, choose one and add the other to alt_name; consider natural=peak for the most distinct mountains in the district" />
		<tag k="name" v="Høgaksla;Skivikaksla" />
		<tag k="natural" v="hill" />
		<tag k="place" v="locality" />
		<tag k="ssr:stedsnr" v="259659" />
	</node>
	<node id="-17885" lat="66.4947361109" lon="13.3555250062">
		<tag k="name" v="Urdaskardet" />
		<tag k="natural" v="valley" />
		<tag k="place" v="locality" />
		<tag k="ssr:stedsnr" v="259624" />
	</node>
	<node id="-17883" lat="66.4980666641" lon="13.6587944377">
		<tag k="name" v="Gjervaldalen" />
		<tag k="natural" v="valley" />
		<tag k="place" v="locality" />
		<tag k="ssr:stedsnr" v="259620" />
	</node>
	<node id="-17882" lat="66.5966944457" lon="13.6406805542">
		<tag k="fixme" v="consider natural=peak for the most distinct mountains in the district" />
		<tag k="name" v="Steet" />
		<tag k="natural" v="hill" />
		<tag k="place" v="locality" />
		<tag k="ssr:stedsnr" v="259618" />
	</node>
	<node id="-17879" lat="66.5308527798" lon="13.5349749929">
		<tag k="name" v="Sandvikdalen" />
		<tag k="natural" v="valley" />
		<tag k="place" v="locality" />
		<tag k="ssr:stedsnr" v="259399" />
	</node>
	<node id="-17865" lat="66.6537166686" lon="13.2773333308">
		<tag k="alt_name" v="Kardalen" />
		<tag k="name" v="Kalvdalen" />
		<tag k="natural" v="valley" />
		<tag k="place" v="locality" />
		<tag k="ssr:stedsnr" v="259267" />
	</node>
	<node id="-17863" lat="66.6238222208" lon="13.5845861131">
		<tag k="alt_name" v="Raudfjellan" />
		<tag k="fixme" v="consider natural=peak for the most distinct mountains in the district" />
		<tag k="name" v="Rundfjellet" />
		<tag k="natural" v="hill" />
		<tag k="place" v="locality" />
		<tag k="ssr:stedsnr" v="259239" />
	</node>
	<node id="-17853" lat="66.5808666706" lon="13.5141166748">
		<tag k="fixme" v="consider natural=peak for the most distinct mountains in the district" />
		<tag k="name" v="Bakvikhaugen" />
		<tag k="natural" v="hill" />
		<tag k="place" v="locality" />
		<tag k="ssr:stedsnr" v="258331" />
	</node>
	<node id="-17844" lat="66.6520638935" lon="13.6658555456">
		<tag k="fixme" v="consider natural=peak for the most distinct mountains in the district" />
		<tag k="name" v="Memortuva" />
		<tag k="natural" v="hill" />
		<tag k="place" v="locality" />
		<tag k="ssr:stedsnr" v="77269" />
	</node>
	<node id="-17841" lat="66.5818694484" lon="13.2228527807">
		<tag k="fixme" v="consider natural=peak for the most distinct mountains in the district" />
		<tag k="name" v="Falktinden" />
		<tag k="natural" v="hill" />
		<tag k="place" v="locality" />
		<tag k="ssr:stedsnr" v="77357" />
	</node>
	<node id="-17840" lat="66.5740694414" lon="13.4862694439">
		<tag k="fixme" v="consider natural=peak for the most distinct mountains in the district" />
		<tag k="name" v="Svarthammaren" />
		<tag k="natural" v="hill" />
		<tag k="place" v="locality" />
		<tag k="ssr:stedsnr" v="77351" />
	</node>
	<node id="-17839" lat="66.5705888889" lon="13.5356444509">
		<tag k="fixme" v="consider natural=peak for the most distinct mountains in the district" />
		<tag k="name" v="Hanvikfjellet" />
		<tag k="natural" v="hill" />
		<tag k="place" v="locality" />
		<tag k="ssr:stedsnr" v="77350" />
	</node>
	<node id="-17838" lat="66.5827361106" lon="13.5701750103">
		<tag k="fixme" v="consider natural=peak for the most distinct mountains in the district" />
		<tag k="name" v="Grønkvannlitinden" />
		<tag k="natural" v="hill" />
		<tag k="place" v="locality" />
		<tag k="ssr:stedsnr" v="77332" />
	</node>
	<node id="-17835" lat="66.4913305551" lon="13.7998500057">
		<tag k="name" v="Storvasslia" />
		<tag k="natural" v="slope" />
		<tag k="place" v="locality" />
		<tag k="ssr:stedsnr" v="240997" />
	</node>
	<node id="-17833" lat="66.6471555554" lon="13.5806361205">
		<tag k="name" v="Stelia" />
		<tag k="natural" v="slope" />
		<tag k="place" v="locality" />
		<tag k="ssr:stedsnr" v="45527" />
	</node>
	<node id="-17832" lat="66.6485638862" lon="13.6174027783">
		<tag k="name" v="Memaurakslia" />
		<tag k="natural" v="slope" />
		<tag k="place" v="locality" />
		<tag k="ssr:stedsnr" v="45525" />
	</node>
	<node id="-17826" lat="66.5369583299" lon="12.7963027707">
		<tag k="name" v="Jarberget" />
		<tag k="natural" v="cliff" />
		<tag k="ssr:stedsnr" v="44008" />
	</node>
	<node id="-17820" lat="66.6348277758" lon="13.4097194454">
		<tag k="name" v="Tverrlia" />
		<tag k="natural" v="slope" />
		<tag k="place" v="locality" />
		<tag k="ssr:stedsnr" v="227972" />
	</node>
	<node id="-17819" lat="66.6936916667" lon="13.4775916603">
		<tag k="name" v="Tjongsfjellet" />
		<tag k="natural" v="cliff" />
		<tag k="ssr:stedsnr" v="227878" />
	</node>
	<node id="-17817" lat="66.7147444409" lon="13.3333972274">
		<tag k="fixme" v="consider natural=peak for the most distinct mountains in the district" />
		<tag k="name" v="Skjååsen" />
		<tag k="natural" v="hill" />
		<tag k="place" v="locality" />
		<tag k="ssr:stedsnr" v="227844" />
	</node>
	<node id="-17816" lat="66.5026444452" lon="13.3132805467">
		<tag k="name" v="Tømmerbergan" />
		<tag k="natural" v="slope" />
		<tag k="place" v="locality" />
		<tag k="ssr:stedsnr" v="227495" />
	</node>
	<node id="-17813" lat="66.6079333299" lon="13.2570611159">
		<tag k="name" v="Vasslia" />
		<tag k="natural" v="slope" />
		<tag k="place" v="locality" />
		<tag k="ssr:stedsnr" v="227398" />
	</node>
	<node id="-17812" lat="66.6499111146" lon="13.5907555554">
		<tag k="name" v="Ytterstedalen" />
		<tag k="natural" v="valley" />
		<tag k="place" v="locality" />
		<tag k="ssr:stedsnr" v="227547" />
	</node>
	<node id="-17810" lat="66.4701666626" lon="13.3218000092">
		<tag k="name" v="Innerenga" />
		<tag k="natural" v="slope" />
		<tag k="place" v="locality" />
		<tag k="ssr:stedsnr" v="227445" />
	</node>
	<node id="-17808" lat="66.5193555539" lon="13.1909027865">
		<tag k="fixme" v="consider natural=peak for the most distinct mountains in the district" />
		<tag k="name" v="Lauvåsen" />
		<tag k="natural" v="hill" />
		<tag k="place" v="locality" />
		<tag k="ssr:stedsnr" v="227118" />
	</node>
	<node id="-17807" lat="66.5202416624" lon="13.1882944391">
		<tag k="name" v="Hatten" />
		<tag k="natural" v="hill" />
		<tag k="place" v="locality" />
		<tag k="ssr:stedsnr" v="227117" />
	</node>
	<node id="-17805" lat="66.4904888895" lon="13.1948694412">
		<tag k="name" v="Eikrona" />
		<tag k="natural" v="hill" />
		<tag k="place" v="locality" />
		<tag k="ssr:stedsnr" v="227044" />
	</node>
	<node id="-17804" lat="66.495952777" lon="13.2050388889">
		<tag k="fixme" v="consider natural=peak for the most distinct mountains in the district" />
		<tag k="name" v="Nilsåsen" />
		<tag k="natural" v="hill" />
		<tag k="place" v="locality" />
		<tag k="ssr:stedsnr" v="227042" />
	</node>
	<node id="-17801" lat="66.459797219" lon="13.226975004">
		<tag k="name" v="Båtneshågen" />
		<tag k="natural" v="hill" />
		<tag k="place" v="locality" />
		<tag k="ssr:stedsnr" v="227011" />
	</node>
	<node id="-17799" lat="66.6257722182" lon="13.3650111014">
		<tag k="name" v="Snaufjellet" />
		<tag k="place" v="locality" />
		<tag k="ssr:stedsnr" v="226988" />
	</node>
	<node id="-17798" lat="66.6175861081" lon="13.3827277787">
		<tag k="name" v="Mortenskaret" />
		<tag k="natural" v="valley" />
		<tag k="place" v="locality" />
		<tag k="ssr:stedsnr" v="226986" />
	</node>
	<node id="-17794" lat="66.6110972244" lon="13.5107472181">
		<tag k="name" v="Grønlia" />
		<tag k="natural" v="slope" />
		<tag k="place" v="locality" />
		<tag k="ssr:stedsnr" v="226620" />
	</node>
	<node id="-17793" lat="66.5509694418" lon="12.8050916605">
		<tag k="name" v="Vesterøyfjellet" />
		<tag k="natural" v="hill" />
		<tag k="place" v="locality" />
		<tag k="ssr:stedsnr" v="26601" />
	</node>
	<node id="-17790" lat="66.6537999987" lon="13.2632500097">
		<tag k="name" v="Flogan" />
		<tag k="natural" v="cliff" />
		<tag k="ssr:stedsnr" v="226406" />
	</node>
	<node id="-17788" lat="66.6273388843" lon="13.3458972279">
		<tag k="name" v="Smålian" />
		<tag k="natural" v="slope" />
		<tag k="place" v="locality" />
		<tag k="ssr:stedsnr" v="226374" />
	</node>
	<node id="-17787" lat="66.6294361084" lon="13.322216662">
		<tag k="name" v="Remman" />
		<tag k="natural" v="slope" />
		<tag k="place" v="locality" />
		<tag k="ssr:stedsnr" v="226372" />
	</node>
	<node id="-17785" lat="66.6229166682" lon="13.292933332">
		<tag k="name" v="Klempen" />
		<tag k="natural" v="hill" />
		<tag k="place" v="locality" />
		<tag k="ssr:stedsnr" v="226368" />
	</node>
	<node id="-17784" lat="66.6712555591" lon="13.2197138887">
		<tag k="name" v="Rundhågen" />
		<tag k="natural" v="hill" />
		<tag k="place" v="locality" />
		<tag k="ssr:stedsnr" v="226337" />
	</node>
	<node id="-17781" lat="66.5903583298" lon="12.6519888924">
		<tag k="name" v="Vedberghågen" />
		<tag k="natural" v="hill" />
		<tag k="place" v="locality" />
		<tag k="ssr:stedsnr" v="226277" />
	</node>
	<node id="-17777" lat="66.5884722256" lon="12.6684000044">
		<tag k="name" v="Karirørehågen" />
		<tag k="natural" v="hill" />
		<tag k="place" v="locality" />
		<tag k="ssr:stedsnr" v="226267" />
	</node>
	<node id="-17776" lat="66.5315722214" lon="12.9900888874">
		<tag k="name" v="Middagshågan" />
		<tag k="natural" v="ridge" />
		<tag k="place" v="locality" />
		<tag k="ssr:stedsnr" v="226263" />
	</node>
	<node id="-17775" lat="66.585550004" lon="12.6637083255">
		<tag k="name" v="Kjølen" />
		<tag k="natural" v="ridge" />
		<tag k="place" v="locality" />
		<tag k="ssr:stedsnr" v="226256" />
	</node>
	<node id="-17773" lat="66.6559138905" lon="13.0553444457">
		<tag k="name" v="Ellinghølla" />
		<tag k="natural" v="valley" />
		<tag k="place" v="locality" />
		<tag k="ssr:stedsnr" v="226249" />
	</node>
	<node id="-17767" lat="66.6705277798" lon="13.2040611137">
		<tag k="name" v="Kalvhaghågen" />
		<tag k="natural" v="hill" />
		<tag k="place" v="locality" />
		<tag k="ssr:stedsnr" v="226224" />
	</node>
	<node id="-17766" lat="66.6673722208" lon="13.0617361125">
		<tag k="fixme" v="consider natural=peak for the most distinct mountains in the district" />
		<tag k="name" v="Storhågen" />
		<tag k="natural" v="hill" />
		<tag k="place" v="locality" />
		<tag k="ssr:stedsnr" v="226190" />
	</node>
	<node id="-17765" lat="66.6688166707" lon="13.043994454">
		<tag k="name" v="Hestviktinden" />
		<tag k="natural" v="hill" />
		<tag k="place" v="locality" />
		<tag k="ssr:stedsnr" v="226187" />
	</node>
	<node id="-17763" lat="66.6632250014" lon="13.0752611141">
		<tag k="name" v="Haraldslia" />
		<tag k="natural" v="slope" />
		<tag k="place" v="locality" />
		<tag k="ssr:stedsnr" v="226160" />
	</node>
	<node id="-17762" lat="66.535727777" lon="13.1212555534">
		<tag k="name" v="Hestvikkrabben" />
		<tag k="natural" v="ridge" />
		<tag k="place" v="locality" />
		<tag k="ssr:stedsnr" v="226148" />
	</node>
	<node id="-17761" lat="66.6507999995" lon="13.2047749941">
		<tag k="name" v="Sulan" />
		<tag k="natural" v="slope" />
		<tag k="place" v="locality" />
		<tag k="ssr:stedsnr" v="226108" />
	</node>
	<node id="-17758" lat="66.561783329" lon="12.8660333415">
		<tag k="name" v="Tjuenberget" />
		<tag k="natural" v="cliff" />
		<tag k="ssr:stedsnr" v="226053" />
	</node>
	<node id="-17756" lat="66.6144666671" lon="12.9977555589">
		<tag k="name" v="Karvikhågen" />
		<tag k="natural" v="hill" />
		<tag k="place" v="locality" />
		<tag k="ssr:stedsnr" v="226044" />
	</node>
	<node id="-17754" lat="66.559472219" lon="12.8443583311">
		<tag k="name" v="Kleivklubben" />
		<tag k="natural" v="hill" />
		<tag k="place" v="locality" />
		<tag k="ssr:stedsnr" v="226016" />
	</node>
	<node id="-17741" lat="66.6625250011" lon="13.2138138813">
		<tag k="fixme" v="consider natural=peak for the most distinct mountains in the district" />
		<tag k="name" v="Ørnfjellet" />
		<tag k="natural" v="hill" />
		<tag k="place" v="locality" />
		<tag k="ssr:stedsnr" v="16906" />
	</node>
	<node id="-17732" lat="66.6214444438" lon="13.3746250101">
		<tag k="fixme" v="consider natural=peak for the most distinct mountains in the district" />
		<tag k="name" v="Meltinden" />
		<tag k="natural" v="hill" />
		<tag k="place" v="locality" />
		<tag k="ssr:stedsnr" v="16321" />
	</node>
	<node id="-17730" lat="66.6052249983" lon="13.4853416556">
		<tag k="alt_name" v="Finnkotahaugan" />
		<tag k="name" v="Finnkøttahågan" />
		<tag k="natural" v="hill" />
		<tag k="place" v="locality" />
		<tag k="ssr:stedsnr" v="16317" />
	</node>
	<node id="-17729" lat="66.5963999967" lon="13.2536499959">
		<tag k="fixme" v="consider natural=peak for the most distinct mountains in the district" />
		<tag k="name" v="Svartheia" />
		<tag k="natural" v="hill" />
		<tag k="place" v="locality" />
		<tag k="ssr:stedsnr" v="16313" />
	</node>
	<node id="-17726" lat="66.7143027742" lon="13.3093749988">
		<tag k="alt_name" v="Hallan" />
		<tag k="name" v="Halla" />
		<tag k="natural" v="hill" />
		<tag k="place" v="locality" />
		<tag k="ssr:stedsnr" v="16202" />
	</node>
	<node id="-17725" lat="66.7110361093" lon="13.3271250029">
		<tag k="alt_name" v="Risitoppen" />
		<tag k="name" v="Ristoppen" />
		<tag k="natural" v="hill" />
		<tag k="place" v="locality" />
		<tag k="ssr:stedsnr" v="16201" />
	</node>
	<node id="-17724" lat="66.6010944422" lon="13.2680000103">
		<tag k="fixme" v="consider natural=peak for the most distinct mountains in the district" />
		<tag k="name" v="Sperstadtinden" />
		<tag k="natural" v="hill" />
		<tag k="place" v="locality" />
		<tag k="ssr:stedsnr" v="16304" />
	</node>
	<node id="-17723" lat="66.718544445" lon="13.270141663">
		<tag k="fixme" v="multiple name tags, choose one and add the other to alt_name" />
		<tag k="name" v="Høglia;Salen" />
		<tag k="natural" v="hill" />
		<tag k="place" v="locality" />
		<tag k="ssr:stedsnr" v="16135" />
	</node>
	<node id="-17717" lat="66.5627750017" lon="13.0502249934">
		<tag k="alt_name" v="Bjørndalen" />
		<tag k="name" v="Bjynndalen" />
		<tag k="natural" v="valley" />
		<tag k="place" v="locality" />
		<tag k="ssr:stedsnr" v="16020" />
	</node>
	<node id="-17711" lat="66.611452777" lon="13.2410444508">
		<tag k="name" v="Storhågen" />
		<tag k="natural" v="hill" />
		<tag k="place" v="locality" />
		<tag k="ssr:stedsnr" v="227390" />
	</node>
	<node id="-19540" lat="66.6191277778" lon="13.4941583238">
		<tag k="name" v="Norlia" />
		<tag k="natural" v="slope" />
		<tag k="place" v="locality" />
		<tag k="ssr:stedsnr" v="166526" />
	</node>
	<node id="-19539" lat="66.5547166647" lon="13.2424861136">
		<tag k="name" v="Røvarpallan" />
		<tag k="place" v="locality" />
		<tag k="ssr:stedsnr" v="166396" />
	</node>
	<node id="-19537" lat="66.4483666702" lon="13.2647249927">
		<tag k="name" v="Sørfjordhammaren" />
		<tag k="natural" v="cliff" />
		<tag k="ssr:stedsnr" v="166001" />
	</node>
	<node id="-19536" lat="66.6241916707" lon="13.3841250042">
		<tag k="name" v="Gamalråna" />
		<tag k="natural" v="slope" />
		<tag k="place" v="locality" />
		<tag k="ssr:stedsnr" v="165997" />
	</node>
	<node id="-19535" lat="66.6268611139" lon="13.3703249924">
		<tag k="name" v="Juvikreva" />
		<tag k="natural" v="valley" />
		<tag k="place" v="locality" />
		<tag k="ssr:stedsnr" v="165996" />
	</node>
	<node id="-19534" lat="66.6214250013" lon="13.3619389003">
		<tag k="name" v="Seljerotlia" />
		<tag k="natural" v="slope" />
		<tag k="place" v="locality" />
		<tag k="ssr:stedsnr" v="165995" />
	</node>
	<node id="-19533" lat="66.615813885" lon="13.3778638911">
		<tag k="name" v="Djupgrøvskaret" />
		<tag k="natural" v="valley" />
		<tag k="place" v="locality" />
		<tag k="ssr:stedsnr" v="165994" />
	</node>
	<node id="-19532" lat="66.6283333373" lon="13.401833332">
		<tag k="name" v="Hagen" />
		<tag k="natural" v="slope" />
		<tag k="place" v="locality" />
		<tag k="ssr:stedsnr" v="165988" />
	</node>
	<node id="-19528" lat="66.6180666661" lon="13.5385916734">
		<tag k="name" v="Sørjehølle" />
		<tag k="natural" v="slope" />
		<tag k="place" v="locality" />
		<tag k="ssr:stedsnr" v="165578" />
	</node>
	<node id="-19527" lat="66.5345583305" lon="13.6588527684">
		<tag k="name" v="Stesteinsenget" />
		<tag k="natural" v="slope" />
		<tag k="place" v="locality" />
		<tag k="ssr:stedsnr" v="165573" />
	</node>
	<node id="-19526" lat="66.6252833335" lon="13.3502194499">
		<tag k="fixme" v="consider natural=peak for the most distinct mountains in the district" />
		<tag k="name" v="Huarfjellet" />
		<tag k="natural" v="hill" />
		<tag k="place" v="locality" />
		<tag k="ssr:stedsnr" v="165339" />
	</node>
	<node id="-19525" lat="66.6294194433" lon="13.3358111204">
		<tag k="fixme" v="consider natural=peak for the most distinct mountains in the district" />
		<tag k="name" v="Bulitårnet" />
		<tag k="natural" v="hill" />
		<tag k="ssr:stedsnr" v="165337" />
	</node>
	<node id="-19524" lat="66.6666361101" lon="13.2425333304">
		<tag k="name" v="Nattmorstuva" />
		<tag k="natural" v="hill" />
		<tag k="place" v="locality" />
		<tag k="ssr:stedsnr" v="165282" />
	</node>
	<node id="-19522" lat="66.6434944478" lon="13.2332500026">
		<tag k="name" v="Glaslia" />
		<tag k="natural" v="slope" />
		<tag k="place" v="locality" />
		<tag k="ssr:stedsnr" v="165382" />
	</node>
	<node id="-19521" lat="66.6417805602" lon="13.2365694357">
		<tag k="name" v="Hesthågen" />
		<tag k="natural" v="hill" />
		<tag k="place" v="locality" />
		<tag k="ssr:stedsnr" v="165378" />
	</node>
	<node id="-19520" lat="66.6464416634" lon="13.3186722113">
		<tag k="name" v="Hellan" />
		<tag k="natural" v="slope" />
		<tag k="place" v="locality" />
		<tag k="ssr:stedsnr" v="165251" />
	</node>
	<node id="-19519" lat="66.6481305523" lon="13.2935694471">
		<tag k="name" v="Brenslan" />
		<tag k="natural" v="slope" />
		<tag k="place" v="locality" />
		<tag k="ssr:stedsnr" v="165250" />
	</node>
	<node id="-19515" lat="66.5896166656" lon="12.642805566">
		<tag k="name" v="Korsdalen" />
		<tag k="natural" v="valley" />
		<tag k="place" v="locality" />
		<tag k="ssr:stedsnr" v="165232" />
	</node>
	<node id="-19513" lat="66.5357138882" lon="13.0612777713">
		<tag k="name" v="Nonsfjellet" />
		<tag k="natural" v="hill" />
		<tag k="place" v="locality" />
		<tag k="ssr:stedsnr" v="165227" />
	</node>
	<node id="-19512" lat="66.5561722251" lon="13.0245111218">
		<tag k="name" v="Smørdalen" />
		<tag k="natural" v="valley" />
		<tag k="place" v="locality" />
		<tag k="ssr:stedsnr" v="165200" />
	</node>
	<node id="-19506" lat="66.6458416654" lon="13.2129583387">
		<tag k="name" v="Middagsfjellet" />
		<tag k="natural" v="cliff" />
		<tag k="ssr:stedsnr" v="165090" />
	</node>
	<node id="-19505" lat="66.6083222186" lon="13.0226972328">
		<tag k="name" v="Svenntorvhaugen" />
		<tag k="natural" v="hill" />
		<tag k="place" v="locality" />
		<tag k="ssr:stedsnr" v="165087" />
	</node>
	<node id="-19502" lat="66.7646944401" lon="12.4769722188">
		<tag k="name" v="Jutøyhatten" />
		<tag k="natural" v="hill" />
		<tag k="place" v="locality" />
		<tag k="ssr:stedsnr" v="163151" />
	</node>
	<node id="-19498" lat="66.665952781" lon="13.2572555587">
		<tag k="name" v="Storbonhågen" />
		<tag k="natural" v="hill" />
		<tag k="place" v="locality" />
		<tag k="ssr:stedsnr" v="157774" />
	</node>
	<node id="-19490" lat="66.6224527769" lon="13.0176916673">
		<tag k="name" v="Rødkleiva" />
		<tag k="natural" v="slope" />
		<tag k="place" v="locality" />
		<tag k="ssr:stedsnr" v="137991" />
	</node>
	<node id="-19453" lat="66.5612083312" lon="13.4150666591">
		<tag k="name" v="Kvitnesmarka" />
		<tag k="natural" v="slope" />
		<tag k="place" v="locality" />
		<tag k="ssr:stedsnr" v="137415" />
	</node>
	<node id="-19450" lat="66.5246749993" lon="13.6706555444">
		<tag k="fixme" v="consider natural=peak for the most distinct mountains in the district" />
		<tag k="name" v="Storlikammen" />
		<tag k="natural" v="hill" />
		<tag k="place" v="locality" />
		<tag k="ssr:stedsnr" v="137378" />
	</node>
	<node id="-19446" lat="66.6530499987" lon="13.6167972171">
		<tag k="alt_name" v="Memordalen" />
		<tag k="name" v="Memaurdalen" />
		<tag k="natural" v="valley" />
		<tag k="place" v="locality" />
		<tag k="ssr:stedsnr" v="137233" />
	</node>
	<node id="-19432" lat="66.6396555528" lon="13.3825777737">
		<tag k="fixme" v="consider natural=peak for the most distinct mountains in the district" />
		<tag k="name" v="Høgkrona" />
		<tag k="natural" v="hill" />
		<tag k="place" v="locality" />
		<tag k="ssr:stedsnr" v="106954" />
	</node>
	<node id="-19431" lat="66.659797221" lon="13.5859055518">
		<tag k="name" v="Tortenlia" />
		<tag k="natural" v="slope" />
		<tag k="place" v="locality" />
		<tag k="ssr:stedsnr" v="106554" />
	</node>
	<node id="-19429" lat="66.6661222229" lon="13.5837138973">
		<tag k="name" v="Vasslia" />
		<tag k="natural" v="slope" />
		<tag k="place" v="locality" />
		<tag k="ssr:stedsnr" v="106551" />
	</node>
	<node id="-19428" lat="66.6564083296" lon="13.5480333356">
		<tag k="name" v="Storsteinhåla" />
		<tag k="natural" v="valley" />
		<tag k="place" v="locality" />
		<tag k="ssr:stedsnr" v="106550" />
	</node>
	<node id="-19427" lat="66.6084333303" lon="13.4962305498">
		<tag k="name" v="Mosterdalsaksla" />
		<tag k="natural" v="ridge" />
		<tag k="place" v="locality" />
		<tag k="ssr:stedsnr" v="106507" />
	</node>
	<node id="-19426" lat="66.4733916689" lon="13.3892277805">
		<tag k="name" v="Rismostad" />
		<tag k="natural" v="ridge" />
		<tag k="place" v="locality" />
		<tag k="ssr:stedsnr" v="106443" />
	</node>
	<node id="-19424" lat="66.5220194413" lon="13.1592638943">
		<tag k="name" v="Storlia" />
		<tag k="natural" v="slope" />
		<tag k="place" v="locality" />
		<tag k="ssr:stedsnr" v="106102" />
	</node>
	<node id="-19423" lat="66.4821083368" lon="13.218494444">
		<tag k="name" v="Middagsgrova" />
		<tag k="natural" v="valley" />
		<tag k="place" v="locality" />
		<tag k="ssr:stedsnr" v="106056" />
	</node>
	<node id="-19421" lat="66.6208111102" lon="13.3941944512">
		<tag k="name" v="Jensenget" />
		<tag k="natural" v="slope" />
		<tag k="place" v="locality" />
		<tag k="ssr:stedsnr" v="105992" />
	</node>
	<node id="-19420" lat="66.6221333352" lon="13.3897555489">
		<tag k="name" v="Albertenget" />
		<tag k="natural" v="slope" />
		<tag k="place" v="locality" />
		<tag k="ssr:stedsnr" v="105990" />
	</node>
	<node id="-19417" lat="66.7202138862" lon="13.3656499967">
		<tag k="fixme" v="consider natural=peak for the most distinct mountains in the district" />
		<tag k="name" v="Ørnefjærhågen" />
		<tag k="natural" v="hill" />
		<tag k="place" v="locality" />
		<tag k="ssr:stedsnr" v="105885" />
	</node>
	<node id="-19413" lat="66.717302776" lon="13.220752768">
		<tag k="name" v="Tranvollen" />
		<tag k="place" v="locality" />
		<tag k="ssr:stedsnr" v="105841" />
	</node>
	<node id="-19411" lat="66.6619833351" lon="13.2261583232">
		<tag k="name" v="Kathusfjellet" />
		<tag k="natural" v="hill" />
		<tag k="place" v="locality" />
		<tag k="ssr:stedsnr" v="105804" />
	</node>
	<node id="-19409" lat="66.5440527796" lon="13.6157194424">
		<tag k="name" v="Kobbergaksla" />
		<tag k="natural" v="cliff" />
		<tag k="ssr:stedsnr" v="105610" />
	</node>
	<node id="-19408" lat="66.5215222182" lon="13.7267305584">
		<tag k="name" v="Øverloftet" />
		<tag k="natural" v="hill" />
		<tag k="place" v="locality" />
		<tag k="ssr:stedsnr" v="105591" />
	</node>
	<node id="-19407" lat="66.4957861083" lon="13.3229805507">
		<tag k="name" v="Bjørkskogen" />
		<tag k="natural" v="slope" />
		<tag k="place" v="locality" />
		<tag k="ssr:stedsnr" v="105522" />
	</node>
	<node id="-19405" lat="66.5114749963" lon="13.3430472272">
		<tag k="name" v="Bulatthågen" />
		<tag k="natural" v="hill" />
		<tag k="place" v="locality" />
		<tag k="ssr:stedsnr" v="105492" />
	</node>
	<node id="-19403" lat="66.5157583341" lon="13.2853416631">
		<tag k="name" v="Sletteloftan" />
		<tag k="place" v="locality" />
		<tag k="ssr:stedsnr" v="105474" />
	</node>
	<node id="-19402" lat="66.4631583327" lon="13.3638999911">
		<tag k="name" v="Kvannlienget" />
		<tag k="natural" v="slope" />
		<tag k="place" v="locality" />
		<tag k="ssr:stedsnr" v="105472" />
	</node>
	<node id="-19401" lat="66.6291861101" lon="13.3588000088">
		<tag k="name" v="Koppflåget" />
		<tag k="natural" v="cliff" />
		<tag k="ssr:stedsnr" v="105457" />
	</node>
	<node id="-19400" lat="66.6319749985" lon="13.3196083438">
		<tag k="name" v="Manna" />
		<tag k="natural" v="hill" />
		<tag k="place" v="locality" />
		<tag k="ssr:stedsnr" v="105455" />
	</node>
	<node id="-19397" lat="66.6082027757" lon="13.3062694418">
		<tag k="name" v="Sørryphågen" />
		<tag k="natural" v="hill" />
		<tag k="place" v="locality" />
		<tag k="ssr:stedsnr" v="105439" />
	</node>
	<node id="-19396" lat="66.611852777" lon="13.2846861">
		<tag k="name" v="Floberget" />
		<tag k="natural" v="ridge" />
		<tag k="place" v="locality" />
		<tag k="ssr:stedsnr" v="105419" />
	</node>
	<node id="-19393" lat="66.4859194467" lon="13.2308416661">
		<tag k="name" v="Hamnstrupen" />
		<tag k="natural" v="valley" />
		<tag k="place" v="locality" />
		<tag k="ssr:stedsnr" v="105410" />
	</node>
	<node id="-19392" lat="66.6472500031" lon="13.2375222202">
		<tag k="name" v="Setra" />
		<tag k="natural" v="ridge" />
		<tag k="place" v="locality" />
		<tag k="ssr:stedsnr" v="105375" />
	</node>
	<node id="-19391" lat="66.6163472236" lon="13.302077774">
		<tag k="name" v="Durmålshågen" />
		<tag k="natural" v="hill" />
		<tag k="place" v="locality" />
		<tag k="ssr:stedsnr" v="105373" />
	</node>
	<node id="-19390" lat="66.61718611" lon="13.3070916557">
		<tag k="name" v="Aspåshågen" />
		<tag k="natural" v="hill" />
		<tag k="place" v="locality" />
		<tag k="ssr:stedsnr" v="105372" />
	</node>
	<node id="-19389" lat="66.6593111066" lon="13.27508612">
		<tag k="name" v="Hellardalen" />
		<tag k="natural" v="valley" />
		<tag k="place" v="locality" />
		<tag k="ssr:stedsnr" v="105326" />
	</node>
	<node id="-19388" lat="66.587652774" lon="12.6403944333">
		<tag k="name" v="Klaveslia" />
		<tag k="natural" v="slope" />
		<tag k="place" v="locality" />
		<tag k="ssr:stedsnr" v="105275" />
	</node>
	<node id="-19386" lat="66.5900249965" lon="12.6364388847">
		<tag k="name" v="Steinurdhola" />
		<tag k="natural" v="valley" />
		<tag k="place" v="locality" />
		<tag k="ssr:stedsnr" v="105258" />
	</node>
	<node id="-19381" lat="66.6602166625" lon="13.0712555503">
		<tag k="fixme" v="consider natural=peak for the most distinct mountains in the district" />
		<tag k="name" v="Brattfallan" />
		<tag k="natural" v="hill" />
		<tag k="place" v="locality" />
		<tag k="ssr:stedsnr" v="105150" />
	</node>
	<node id="-19379" lat="66.6501638855" lon="13.2031722284">
		<tag k="name" v="Gløsen" />
		<tag k="natural" v="hill" />
		<tag k="place" v="locality" />
		<tag k="ssr:stedsnr" v="105110" />
	</node>
	<node id="-19378" lat="66.6472583321" lon="13.2095000058">
		<tag k="name" v="Småskarhågan" />
		<tag k="natural" v="hill" />
		<tag k="place" v="locality" />
		<tag k="ssr:stedsnr" v="105104" />
	</node>
	<node id="-19377" lat="66.5618527767" lon="13.1994527711">
		<tag k="name" v="Stormåskleiva" />
		<tag k="natural" v="slope" />
		<tag k="place" v="locality" />
		<tag k="ssr:stedsnr" v="105087" />
	</node>
	<node id="-19372" lat="66.5834916693" lon="12.9250027687">
		<tag k="name" v="Gårdshågen" />
		<tag k="natural" v="hill" />
		<tag k="place" v="locality" />
		<tag k="ssr:stedsnr" v="105044" />
	</node>
	<node id="-19354" lat="66.6837138883" lon="13.0507027784">
		<tag k="name" v="Hådalen" />
		<tag k="natural" v="valley" />
		<tag k="place" v="locality" />
		<tag k="ssr:stedsnr" v="77881" />
	</node>
	<node id="-19345" lat="66.4284388903" lon="13.2921611025">
		<tag k="fixme" v="consider natural=peak for the most distinct mountains in the district" />
		<tag k="name" v="Nubben" />
		<tag k="natural" v="hill" />
		<tag k="place" v="locality" />
		<tag k="ssr:stedsnr" v="77832" />
	</node>
	<node id="-19327" lat="66.4740083354" lon="13.2446833297">
		<tag k="alt_name" v="Skarvberget" />
		<tag k="name" v="Skarvbergodden" />
		<tag k="natural" v="hill" />
		<tag k="place" v="locality" />
		<tag k="ssr:stedsnr" v="77669" />
	</node>
	<node id="-19316" lat="66.7275666626" lon="13.2849583316">
		<tag k="alt_name" v="Medåsen" />
		<tag k="fixme" v="consider natural=peak for the most distinct mountains in the district" />
		<tag k="name" v="Meåsen" />
		<tag k="natural" v="hill" />
		<tag k="place" v="locality" />
		<tag k="ssr:stedsnr" v="77179" />
	</node>
	<node id="-19315" lat="66.7321888871" lon="13.2722277832">
		<tag k="alt_name" v="Naustbakken" />
		<tag k="name" v="Naustbakkan" />
		<tag k="natural" v="hill" />
		<tag k="place" v="locality" />
		<tag k="ssr:stedsnr" v="77176" />
	</node>
	<node id="-19314" lat="66.5053111088" lon="13.182833337">
		<tag k="alt_name" v="Høydal" />
		<tag k="name" v="Høydalen" />
		<tag k="natural" v="valley" />
		<tag k="place" v="locality" />
		<tag k="ssr:stedsnr" v="77168" />
	</node>
	<node id="-19313" lat="66.7234166664" lon="13.3270861074">
		<tag k="name" v="Botnan" />
		<tag k="natural" v="valley" />
		<tag k="place" v="locality" />
		<tag k="ssr:stedsnr" v="77160" />
	</node>
	<node id="-19312" lat="66.7186194468" lon="13.3227444463">
		<tag k="fixme" v="consider natural=peak for the most distinct mountains in the district" />
		<tag k="name" v="Dyrbeinåsen" />
		<tag k="natural" v="hill" />
		<tag k="place" v="locality" />
		<tag k="ssr:stedsnr" v="77159" />
	</node>
	<node id="-19311" lat="66.7198361125" lon="13.3046583312">
		<tag k="alt_name" v="Medåsen" />
		<tag k="name" v="Meåsen" />
		<tag k="natural" v="hill" />
		<tag k="place" v="locality" />
		<tag k="ssr:stedsnr" v="77158" />
	</node>
	<node id="-19309" lat="66.5400111085" lon="13.1023555626">
		<tag k="alt_name" v="Forsbekken" />
		<tag k="name" v="Forsbakken" />
		<tag k="natural" v="slope" />
		<tag k="place" v="locality" />
		<tag k="ssr:stedsnr" v="77123" />
	</node>
	<node id="-19300" lat="66.5675916654" lon="13.0409499946">
		<tag k="fixme" v="consider natural=peak for the most distinct mountains in the district" />
		<tag k="name" v="Rangsundtuva" />
		<tag k="natural" v="hill" />
		<tag k="place" v="locality" />
		<tag k="ssr:stedsnr" v="77022" />
	</node>
	<node id="-19295" lat="66.6519249983" lon="12.9802805502">
		<tag k="name" v="Flatøylia" />
		<tag k="natural" v="hill" />
		<tag k="place" v="locality" />
		<tag k="ssr:stedsnr" v="76912" />
	</node>
	<node id="-19287" lat="66.5213555574" lon="13.6868500041">
		<tag k="fixme" v="consider natural=peak for the most distinct mountains in the district" />
		<tag k="name" v="Nerloftet" />
		<tag k="natural" v="hill" />
		<tag k="place" v="locality" />
		<tag k="ssr:stedsnr" v="77413" />
	</node>
	<node id="-19285" lat="66.6159888893" lon="13.2448249999">
		<tag k="name" v="Jektberga" />
		<tag k="natural" v="hill" />
		<tag k="place" v="locality" />
		<tag k="ssr:stedsnr" v="77385" />
	</node>
	<node id="-19283" lat="66.6152333352" lon="13.4765777749">
		<tag k="name" v="Østerdalen" />
		<tag k="natural" v="valley" />
		<tag k="place" v="locality" />
		<tag k="ssr:stedsnr" v="77382" />
	</node>
	<node id="-19280" lat="66.6022777743" lon="13.2628416569">
		<tag k="fixme" v="consider natural=peak for the most distinct mountains in the district" />
		<tag k="name" v="Sperstadtindaksla" />
		<tag k="natural" v="hill" />
		<tag k="place" v="locality" />
		<tag k="ssr:stedsnr" v="77367" />
	</node>
	<node id="-19278" lat="66.6516111147" lon="13.3308888934">
		<tag k="fixme" v="consider natural=peak for the most distinct mountains in the district" />
		<tag k="name" v="Værangstinden" />
		<tag k="natural" v="hill" />
		<tag k="place" v="locality" />
		<tag k="ssr:stedsnr" v="77295" />
	</node>
	<node id="-19276" lat="66.6583749993" lon="13.6181083241">
		<tag k="name" v="Rismålskardet" />
		<tag k="natural" v="valley" />
		<tag k="place" v="locality" />
		<tag k="ssr:stedsnr" v="77289" />
	</node>
	<node id="-19274" lat="66.6312638886" lon="13.4045444461">
		<tag k="name" v="Grønli" />
		<tag k="natural" v="slope" />
		<tag k="place" v="locality" />
		<tag k="ssr:stedsnr" v="45972" />
	</node>
	<node id="-19272" lat="66.6519527739" lon="13.4108444337">
		<tag k="name" v="Nordfjellet" />
		<tag k="natural" v="cliff" />
		<tag k="ssr:stedsnr" v="45936" />
	</node>
	<node id="-19270" lat="66.6878611078" lon="13.4088111114">
		<tag k="fixme" v="consider natural=peak for the most distinct mountains in the district" />
		<tag k="name" v="Hamnhågen" />
		<tag k="natural" v="hill" />
		<tag k="place" v="locality" />
		<tag k="ssr:stedsnr" v="45919" />
	</node>
	<node id="-19269" lat="66.7213027822" lon="13.3720944451">
		<tag k="fixme" v="consider natural=peak for the most distinct mountains in the district" />
		<tag k="name" v="Kråklihågen" />
		<tag k="natural" v="hill" />
		<tag k="place" v="locality" />
		<tag k="ssr:stedsnr" v="45868" />
	</node>
	<node id="-19268" lat="66.7260277822" lon="13.3154694468">
		<tag k="name" v="Trongskaret" />
		<tag k="natural" v="valley" />
		<tag k="place" v="locality" />
		<tag k="ssr:stedsnr" v="45852" />
	</node>
	<node id="-19266" lat="66.5153861122" lon="13.2953444489">
		<tag k="name" v="Råndalen" />
		<tag k="natural" v="valley" />
		<tag k="place" v="locality" />
		<tag k="ssr:stedsnr" v="45480" />
	</node>
	<node id="-19264" lat="66.4732361151" lon="13.3427722257">
		<tag k="name" v="Bjørnhammaren" />
		<tag k="natural" v="cliff" />
		<tag k="ssr:stedsnr" v="45457" />
	</node>
	<node id="-19263" lat="66.4738805516" lon="13.3024027856">
		<tag k="name" v="Tverrfjellet" />
		<tag k="natural" v="hill" />
		<tag k="place" v="locality" />
		<tag k="ssr:stedsnr" v="45455" />
	</node>
	<node id="-19258" lat="66.608047219" lon="13.3382638957">
		<tag k="name" v="Svartvasslia" />
		<tag k="natural" v="slope" />
		<tag k="place" v="locality" />
		<tag k="ssr:stedsnr" v="45422" />
	</node>
	<node id="-19257" lat="66.4890472177" lon="13.2324388984">
		<tag k="name" v="Skoghågen" />
		<tag k="natural" v="hill" />
		<tag k="place" v="locality" />
		<tag k="ssr:stedsnr" v="45388" />
	</node>
	<node id="-19255" lat="66.5311861101" lon="13.1459694361">
		<tag k="name" v="Kardalen" />
		<tag k="natural" v="valley" />
		<tag k="place" v="locality" />
		<tag k="ssr:stedsnr" v="45115" />
	</node>
	<node id="-19254" lat="66.5040027823" lon="13.1937083344">
		<tag k="name" v="Rabben" />
		<tag k="natural" v="hill" />
		<tag k="place" v="locality" />
		<tag k="ssr:stedsnr" v="45099" />
	</node>
	<node id="-19253" lat="66.4493527791" lon="13.3081083244">
		<tag k="name" v="Bukkpallen" />
		<tag k="place" v="locality" />
		<tag k="ssr:stedsnr" v="45069" />
	</node>
	<node id="-19252" lat="66.4499027816" lon="13.3166972142">
		<tag k="name" v="Finnlegran" />
		<tag k="natural" v="hill" />
		<tag k="place" v="locality" />
		<tag k="ssr:stedsnr" v="45068" />
	</node>
	<node id="-19251" lat="66.4387444408" lon="13.2652027799">
		<tag k="name" v="Tjuskafjellet" />
		<tag k="natural" v="hill" />
		<tag k="place" v="locality" />
		<tag k="ssr:stedsnr" v="45032" />
	</node>
	<node id="-19248" lat="66.6886972234" lon="13.4765000077">
		<tag k="name" v="Steinlihågan" />
		<tag k="natural" v="hill" />
		<tag k="place" v="locality" />
		<tag k="ssr:stedsnr" v="44882" />
	</node>
	<node id="-19247" lat="66.7306305548" lon="13.3373916764">
		<tag k="fixme" v="consider natural=peak for the most distinct mountains in the district" />
		<tag k="name" v="Nordrabben" />
		<tag k="natural" v="hill" />
		<tag k="place" v="locality" />
		<tag k="ssr:stedsnr" v="44859" />
	</node>
	<node id="-19246" lat="66.7192944427" lon="13.2220222289">
		<tag k="name" v="Lappkjellhågen" />
		<tag k="natural" v="hill" />
		<tag k="place" v="locality" />
		<tag k="ssr:stedsnr" v="44825" />
	</node>
	<node id="-19242" lat="66.5023416707" lon="13.7232416712">
		<tag k="name" v="Torfinnhågan" />
		<tag k="natural" v="ridge" />
		<tag k="place" v="locality" />
		<tag k="ssr:stedsnr" v="44567" />
	</node>
	<node id="-19240" lat="66.594780553" lon="13.2469166767">
		<tag k="name" v="Krokamoa" />
		<tag k="place" v="locality" />
		<tag k="ssr:stedsnr" v="44396" />
	</node>
	<node id="-19239" lat="66.609777776" lon="13.295986112">
		<tag k="name" v="Solskinlihågen" />
		<tag k="natural" v="hill" />
		<tag k="place" v="locality" />
		<tag k="ssr:stedsnr" v="44395" />
	</node>
	<node id="-19238" lat="66.6403138863" lon="13.2641999901">
		<tag k="name" v="Lauklia" />
		<tag k="natural" v="slope" />
		<tag k="place" v="locality" />
		<tag k="ssr:stedsnr" v="44358" />
	</node>
	<node id="-19237" lat="66.6495472179" lon="13.2228805617">
		<tag k="fixme" v="consider natural=peak for the most distinct mountains in the district" />
		<tag k="name" v="Memurhågen" />
		<tag k="natural" v="hill" />
		<tag k="place" v="locality" />
		<tag k="ssr:stedsnr" v="44347" />
	</node>
	<node id="-19236" lat="66.6484805515" lon="13.2193305567">
		<tag k="name" v="Svartbergdalen" />
		<tag k="natural" v="valley" />
		<tag k="place" v="locality" />
		<tag k="ssr:stedsnr" v="44346" />
	</node>
	<node id="-19234" lat="66.6669249957" lon="13.2373555645">
		<tag k="name" v="Middagsstaden" />
		<tag k="natural" v="hill" />
		<tag k="place" v="locality" />
		<tag k="ssr:stedsnr" v="44288" />
	</node>
	<node id="-19233" lat="66.6452805564" lon="13.3592055559">
		<tag k="name" v="Eidvikeidet" />
		<tag k="natural" v="valley" />
		<tag k="place" v="locality" />
		<tag k="ssr:stedsnr" v="44280" />
	</node>
	<node id="-19231" lat="66.5420416693" lon="13.0676277774">
		<tag k="name" v="Fløskjerholmen" />
		<tag k="natural" v="ridge" />
		<tag k="place" v="locality" />
		<tag k="ssr:stedsnr" v="44244" />
	</node>
	<node id="-19227" lat="66.6670333376" lon="13.2124305574">
		<tag k="name" v="Broklangdalen" />
		<tag k="natural" v="valley" />
		<tag k="place" v="locality" />
		<tag k="ssr:stedsnr" v="44178" />
	</node>
	<node id="-19226" lat="66.6701333349" lon="13.2081555561">
		<tag k="name" v="Rønvikkleiva" />
		<tag k="natural" v="slope" />
		<tag k="place" v="locality" />
		<tag k="ssr:stedsnr" v="44175" />
	</node>
	<node id="-19225" lat="66.6379472238" lon="13.0120694381">
		<tag k="name" v="Pisshammaren" />
		<tag k="natural" v="hill" />
		<tag k="place" v="locality" />
		<tag k="ssr:stedsnr" v="44161" />
	</node>
	<node id="-19224" lat="66.6582305524" lon="13.0670388886">
		<tag k="name" v="Buøyvalen" />
		<tag k="natural" v="valley" />
		<tag k="place" v="locality" />
		<tag k="ssr:stedsnr" v="44148" />
	</node>
	<node id="-19221" lat="66.6550166647" lon="13.2033944517">
		<tag k="fixme" v="consider natural=peak for the most distinct mountains in the district" />
		<tag k="name" v="Langåsen" />
		<tag k="natural" v="hill" />
		<tag k="place" v="locality" />
		<tag k="ssr:stedsnr" v="44102" />
	</node>
	<node id="-19220" lat="66.6095555586" lon="13.0048166687">
		<tag k="name" v="Sandviklia" />
		<tag k="natural" v="slope" />
		<tag k="place" v="locality" />
		<tag k="ssr:stedsnr" v="44093" />
	</node>
	<node id="-19219" lat="66.5751805551" lon="13.2137722237">
		<tag k="name" v="Sangkoran" />
		<tag k="natural" v="slope" />
		<tag k="place" v="locality" />
		<tag k="ssr:stedsnr" v="44083" />
	</node>
	<node id="-19199" lat="66.6122861114" lon="13.0357360999">
		<tag k="fixme" v="consider natural=peak for the most distinct mountains in the district" />
		<tag k="name" v="Fjellet" />
		<tag k="natural" v="hill" />
		<tag k="place" v="locality" />
		<tag k="ssr:stedsnr" v="16968" />
	</node>
	<node id="-19176" lat="66.4970111112" lon="13.3457694444">
		<tag k="fixme" v="consider natural=peak for the most distinct mountains in the district" />
		<tag k="name" v="Haugvikvassfjellet" />
		<tag k="natural" v="hill" />
		<tag k="place" v="locality" />
		<tag k="ssr:stedsnr" v="16611" />
	</node>
	<node id="-19170" lat="66.5716638905" lon="13.3846750031">
		<tag k="fixme" v="consider natural=peak for the most distinct mountains in the district" />
		<tag k="name" v="Tømmernesfjellet" />
		<tag k="natural" v="hill" />
		<tag k="place" v="locality" />
		<tag k="ssr:stedsnr" v="16277" />
	</node>
	<node id="-19168" lat="66.6691083366" lon="13.5723777763">
		<tag k="name" v="Hestsida" />
		<tag k="place" v="locality" />
		<tag k="ssr:stedsnr" v="16271" />
	</node>
	<node id="-19166" lat="66.6649388913" lon="13.3524972115">
		<tag k="alt_name" v="Vassdal, in" />
		<tag k="name" v="Indre Vassdal" />
		<tag k="natural" v="valley" />
		<tag k="place" v="locality" />
		<tag k="ssr:stedsnr" v="16268" />
	</node>
	<node id="-19164" lat="66.6390388914" lon="13.5893277835">
		<tag k="alt_name" v="Steet" />
		<tag k="fixme" v="consider natural=peak for the most distinct mountains in the district" />
		<tag k="name" v="Stetinden" />
		<tag k="natural" v="hill" />
		<tag k="place" v="locality" />
		<tag k="ssr:stedsnr" v="16244" />
	</node>
	<node id="-19163" lat="66.6847666634" lon="13.4829777781">
		<tag k="name" v="Bjørntinddalen" />
		<tag k="natural" v="valley" />
		<tag k="place" v="locality" />
		<tag k="ssr:stedsnr" v="16195" />
	</node>
	<node id="-19160" lat="66.5441500034" lon="13.6090861029">
		<tag k="name" v="Perstellet" />
		<tag k="place" v="locality" />
		<tag k="ssr:stedsnr" v="16382" />
	</node>
	<node id="-19159" lat="66.5317444462" lon="13.4295611082">
		<tag k="fixme" v="consider natural=peak for the most distinct mountains in the district" />
		<tag k="name" v="Åndrinesfjellet" />
		<tag k="natural" v="hill" />
		<tag k="place" v="locality" />
		<tag k="ssr:stedsnr" v="16379" />
	</node>
	<node id="-19156" lat="66.5334638868" lon="13.3436388883">
		<tag k="name" v="Bjørnehammaren" />
		<tag k="natural" v="hill" />
		<tag k="place" v="locality" />
		<tag k="ssr:stedsnr" v="16369" />
	</node>
	<node id="-19152" lat="66.5170777763" lon="13.1662916683">
		<tag k="name" v="Storbjørndalen" />
		<tag k="natural" v="valley" />
		<tag k="place" v="locality" />
		<tag k="ssr:stedsnr" v="16059" />
	</node>
	<node id="-19133" lat="66.6132388866" lon="13.2704944354">
		<tag k="name" v="Skutevika" />
		<tag k="natural" v="ridge" />
		<tag k="place" v="locality" />
		<tag k="ssr:stedsnr" v="955403" />
	</node>
	<node id="-19131" lat="66.6709916655" lon="13.5474805539">
		<tag k="name" v="Stormobakkan" />
		<tag k="natural" v="slope" />
		<tag k="place" v="locality" />
		<tag k="ssr:stedsnr" v="955522" />
	</node>
	<node id="-19130" lat="66.669688891" lon="13.5436194446">
		<tag k="name" v="Lismoen" />
		<tag k="natural" v="slope" />
		<tag k="place" v="locality" />
		<tag k="ssr:stedsnr" v="955521" />
	</node>
	<node id="-19127" lat="66.5391111089" lon="12.8208166755">
		<tag k="name" v="Ramnfloget" />
		<tag k="natural" v="cliff" />
		<tag k="ssr:stedsnr" v="954011" />
	</node>
	<node id="-19115" lat="66.5338055567" lon="13.1305527833">
		<tag k="name" v="Mjøndalen" />
		<tag k="natural" v="valley" />
		<tag k="place" v="locality" />
		<tag k="ssr:stedsnr" v="895113" />
	</node>
	<node id="-19113" lat="66.5240277786" lon="13.1617777822">
		<tag k="name" v="Hoverpiggen" />
		<tag k="natural" v="hill" />
		<tag k="place" v="locality" />
		<tag k="ssr:stedsnr" v="895103" />
	</node>
	<node id="-19107" lat="66.6815888913" lon="13.4912944491">
		<tag k="fixme" v="consider natural=peak for the most distinct mountains in the district" />
		<tag k="name" v="Bjørntinden" />
		<tag k="natural" v="hill" />
		<tag k="ssr:stedsnr" v="834878" />
	</node>
	<node id="-19104" lat="66.7061638872" lon="13.3536777782">
		<tag k="name" v="Langåsdalen" />
		<tag k="natural" v="valley" />
		<tag k="place" v="locality" />
		<tag k="ssr:stedsnr" v="834867" />
	</node>
	<node id="-19102" lat="66.6562750005" lon="13.5693750103">
		<tag k="name" v="Reppahesten" />
		<tag k="place" v="locality" />
		<tag k="ssr:stedsnr" v="834572" />
	</node>
	<node id="-19101" lat="66.6456666703" lon="13.5342666616">
		<tag k="name" v="Arhågen" />
		<tag k="natural" v="ridge" />
		<tag k="place" v="locality" />
		<tag k="ssr:stedsnr" v="834559" />
	</node>
	<node id="-19099" lat="66.6755638903" lon="13.5847805543">
		<tag k="name" v="Tortenbakkan" />
		<tag k="natural" v="slope" />
		<tag k="place" v="locality" />
		<tag k="ssr:stedsnr" v="834511" />
	</node>
	<node id="-19097" lat="66.5122166656" lon="13.3052027775">
		<tag k="name" v="Nerlemmen" />
		<tag k="place" v="locality" />
		<tag k="ssr:stedsnr" v="834476" />
	</node>
	<node id="-19096" lat="66.513777779" lon="13.3025555626">
		<tag k="name" v="Hesjedalen" />
		<tag k="natural" v="valley" />
		<tag k="place" v="locality" />
		<tag k="ssr:stedsnr" v="834467" />
	</node>
	<node id="-19093" lat="66.5152055549" lon="13.1693055633">
		<tag k="name" v="Storbjørndalsflogan" />
		<tag k="natural" v="cliff" />
		<tag k="ssr:stedsnr" v="834109" />
	</node>
	<node id="-19092" lat="66.4491861121" lon="13.3011138847">
		<tag k="name" v="Jorevna" />
		<tag k="natural" v="valley" />
		<tag k="place" v="locality" />
		<tag k="ssr:stedsnr" v="834072" />
	</node>
	<node id="-19089" lat="66.6993916623" lon="13.4019444461">
		<tag k="fixme" v="consider natural=peak for the most distinct mountains in the district" />
		<tag k="name" v="Langåsen" />
		<tag k="natural" v="hill" />
		<tag k="place" v="locality" />
		<tag k="ssr:stedsnr" v="833955" />
	</node>
	<node id="-19086" lat="66.5480055509" lon="13.6412833436">
		<tag k="name" v="Øverloftet" />
		<tag k="natural" v="ridge" />
		<tag k="place" v="locality" />
		<tag k="ssr:stedsnr" v="833598" />
	</node>
	<node id="-19083" lat="66.5123638922" lon="13.701686119">
		<tag k="name" v="Kvannskardalen" />
		<tag k="natural" v="valley" />
		<tag k="place" v="locality" />
		<tag k="ssr:stedsnr" v="833587" />
	</node>
	<node id="-19082" lat="66.505802776" lon="13.7238277822">
		<tag k="name" v="Lahågen" />
		<tag k="natural" v="hill" />
		<tag k="place" v="locality" />
		<tag k="ssr:stedsnr" v="833579" />
	</node>
	<node id="-19080" lat="66.6370916629" lon="13.2343777807">
		<tag k="name" v="Staulen" />
		<tag k="natural" v="slope" />
		<tag k="place" v="locality" />
		<tag k="ssr:stedsnr" v="833259" />
	</node>
	<node id="-19078" lat="66.7531444433" lon="12.4545555506">
		<tag k="name" v="Sørfinnøyhaugen" />
		<tag k="natural" v="hill" />
		<tag k="place" v="locality" />
		<tag k="ssr:stedsnr" v="833221" />
	</node>
	<node id="-19077" lat="66.5810444467" lon="12.9310277673">
		<tag k="name" v="Fløyhågen" />
		<tag k="natural" v="hill" />
		<tag k="place" v="locality" />
		<tag k="ssr:stedsnr" v="833216" />
	</node>
	<node id="-19076" lat="66.5951444433" lon="12.6289222324">
		<tag k="name" v="Kattevasshågen" />
		<tag k="natural" v="hill" />
		<tag k="place" v="locality" />
		<tag k="ssr:stedsnr" v="833204" />
	</node>
	<node id="-19074" lat="66.6681888867" lon="13.062658344">
		<tag k="name" v="Selvågdalen" />
		<tag k="natural" v="valley" />
		<tag k="place" v="locality" />
		<tag k="ssr:stedsnr" v="833161" />
	</node>
	<node id="-19073" lat="66.6365166679" lon="13.0304916588">
		<tag k="name" v="Sandvikhatten" />
		<tag k="natural" v="hill" />
		<tag k="place" v="locality" />
		<tag k="ssr:stedsnr" v="833160" />
	</node>
	<node id="-19066" lat="66.6359250024" lon="13.0177888905">
		<tag k="name" v="Kongsvollkrona" />
		<tag k="natural" v="hill" />
		<tag k="place" v="locality" />
		<tag k="ssr:stedsnr" v="936330" />
	</node>
	<node id="-19065" lat="66.7230305578" lon="13.2834750076">
		<tag k="name" v="Grønnbakkan" />
		<tag k="natural" v="slope" />
		<tag k="place" v="locality" />
		<tag k="ssr:stedsnr" v="935864" />
	</node>
	<node id="-19064" lat="66.7305055522" lon="13.3236055449">
		<tag k="fixme" v="consider natural=peak for the most distinct mountains in the district" />
		<tag k="name" v="Langåsen" />
		<tag k="natural" v="hill" />
		<tag k="place" v="locality" />
		<tag k="ssr:stedsnr" v="935863" />
	</node>
	<node id="-19046" lat="66.5231499977" lon="13.3975305518">
		<tag k="name" v="Djupådalen" />
		<tag k="natural" v="valley" />
		<tag k="place" v="locality" />
		<tag k="ssr:stedsnr" v="805412" />
	</node>
	<node id="-19043" lat="66.674447219" lon="13.5712138933">
		<tag k="name" v="Sommarset" />
		<tag k="place" v="locality" />
		<tag k="ssr:stedsnr" v="805169" />
	</node>
	<node id="-19041" lat="66.7047888879" lon="13.3613916711">
		<tag k="fixme" v="consider natural=peak for the most distinct mountains in the district" />
		<tag k="name" v="Langåsen" />
		<tag k="natural" v="hill" />
		<tag k="place" v="locality" />
		<tag k="ssr:stedsnr" v="805166" />
	</node>
	<node id="-19040" lat="66.7306777758" lon="13.2952694487">
		<tag k="name" v="Åsgarden" />
		<tag k="natural" v="hill" />
		<tag k="place" v="locality" />
		<tag k="ssr:stedsnr" v="805153" />
	</node>
	<node id="-19037" lat="66.6317666645" lon="13.4436416683">
		<tag k="fixme" v="consider natural=peak for the most distinct mountains in the district" />
		<tag k="name" v="Nordfjellet" />
		<tag k="natural" v="hill" />
		<tag k="place" v="locality" />
		<tag k="ssr:stedsnr" v="805223" />
	</node>
	<node id="-19036" lat="66.6301499997" lon="13.5044749928">
		<tag k="fixme" v="consider natural=peak for the most distinct mountains in the district" />
		<tag k="name" v="Kjettinden" />
		<tag k="natural" v="hill" />
		<tag k="place" v="locality" />
		<tag k="ssr:stedsnr" v="805216" />
	</node>
	<node id="-19034" lat="66.5650138864" lon="13.2153555631">
		<tag k="fixme" v="consider natural=peak for the most distinct mountains in the district" />
		<tag k="name" v="Brattåsen" />
		<tag k="natural" v="hill" />
		<tag k="place" v="locality" />
		<tag k="ssr:stedsnr" v="805018" />
	</node>
	<node id="-19033" lat="66.5636833326" lon="13.2047000095">
		<tag k="alt_name" v="Stormosen" />
		<tag k="fixme" v="consider natural=peak for the most distinct mountains in the district" />
		<tag k="name" v="Stormåsen" />
		<tag k="natural" v="hill" />
		<tag k="place" v="locality" />
		<tag k="ssr:stedsnr" v="805017" />
	</node>
	<node id="-19024" lat="66.6185194478" lon="13.65125001">
		<tag k="fixme" v="consider natural=peak for the most distinct mountains in the district" />
		<tag k="name" v="Oterstellia" />
		<tag k="natural" v="hill" />
		<tag k="place" v="locality" />
		<tag k="ssr:stedsnr" v="927365" />
	</node>
	<node id="-19022" lat="66.6180999986" lon="13.6151833362">
		<tag k="name" v="Bukkedalen" />
		<tag k="natural" v="valley" />
		<tag k="place" v="locality" />
		<tag k="ssr:stedsnr" v="927360" />
	</node>
	<node id="-19021" lat="66.5997999974" lon="13.274713891">
		<tag k="name" v="Kvannrevet" />
		<tag k="natural" v="valley" />
		<tag k="place" v="locality" />
		<tag k="ssr:stedsnr" v="927359" />
	</node>
	<node id="-19018" lat="66.526433337" lon="12.9903833245">
		<tag k="alt_name" v="Skagfjellet" />
		<tag k="fixme" v="consider natural=peak for the most distinct mountains in the district" />
		<tag k="name" v="Skagafjellet" />
		<tag k="natural" v="hill" />
		<tag k="place" v="locality" />
		<tag k="ssr:stedsnr" v="927070" />
	</node>
	<node id="-18991" lat="66.4705138928" lon="13.562463885">
		<tag k="fixme" v="consider natural=peak for the most distinct mountains in the district" />
		<tag k="name" v="Gjervalhatten" />
		<tag k="natural" v="hill" />
		<tag k="place" v="locality" />
		<tag k="ssr:stedsnr" v="926652" />
	</node>
	<node id="-18982" lat="66.5685083302" lon="13.4966694395">
		<tag k="fixme" v="consider natural=peak for the most distinct mountains in the district" />
		<tag k="name" v="Storlikrona" />
		<tag k="natural" v="hill" />
		<tag k="old_name" v="Litlklumpen" />
		<tag k="place" v="locality" />
		<tag k="ssr:stedsnr" v="926310" />
	</node>
	<node id="-18981" lat="66.5587527742" lon="13.3259666662">
		<tag k="name" v="Lia" />
		<tag k="natural" v="slope" />
		<tag k="place" v="locality" />
		<tag k="ssr:stedsnr" v="926307" />
	</node>
	<node id="-18979" lat="66.6634249958" lon="13.2895083399">
		<tag k="fixme" v="consider natural=peak for the most distinct mountains in the district" />
		<tag k="name" v="Værnestinden" />
		<tag k="natural" v="hill" />
		<tag k="place" v="locality" />
		<tag k="ssr:stedsnr" v="926293" />
	</node>
	<node id="-18976" lat="66.6509166626" lon="13.472422216">
		<tag k="fixme" v="consider natural=peak for the most distinct mountains in the district" />
		<tag k="name" v="Bjergatinden" />
		<tag k="natural" v="hill" />
		<tag k="place" v="locality" />
		<tag k="ssr:stedsnr" v="926264" />
	</node>
	<node id="-18973" lat="66.6991472225" lon="13.3366777855">
		<tag k="alt_name" v="Helleåsen" />
		<tag k="fixme" v="consider natural=peak for the most distinct mountains in the district" />
		<tag k="name" v="Hellåsen" />
		<tag k="natural" v="hill" />
		<tag k="place" v="locality" />
		<tag k="ssr:stedsnr" v="926239" />
	</node>
	<node id="-18965" lat="66.5605833377" lon="13.0363111022">
		<tag k="name" v="Kvitbergan" />
		<tag k="natural" v="hill" />
		<tag k="place" v="locality" />
		<tag k="ssr:stedsnr" v="926098" />
	</node>
	<node id="-18956" lat="66.5065666673" lon="13.3207999913">
		<tag k="name" v="Trolldalshågen" />
		<tag k="natural" v="hill" />
		<tag k="place" v="locality" />
		<tag k="ssr:stedsnr" v="773482" />
	</node>
	<node id="-18955" lat="66.5008638869" lon="13.3203055566">
		<tag k="name" v="Vedlegda" />
		<tag k="natural" v="slope" />
		<tag k="place" v="locality" />
		<tag k="ssr:stedsnr" v="773481" />
	</node>
	<node id="-18954" lat="66.51260833" lon="13.3239027821">
		<tag k="name" v="Melkarstadhågen" />
		<tag k="natural" v="hill" />
		<tag k="place" v="locality" />
		<tag k="ssr:stedsnr" v="773478" />
	</node>
	<node id="-18953" lat="66.4827194457" lon="13.5437638795">
		<tag k="name" v="Gjervaldalen" />
		<tag k="natural" v="valley" />
		<tag k="place" v="locality" />
		<tag k="ssr:stedsnr" v="773460" />
	</node>
	<node id="-18952" lat="66.5237888896" lon="13.2717583379">
		<tag k="name" v="Granpallen" />
		<tag k="place" v="locality" />
		<tag k="ssr:stedsnr" v="773457" />
	</node>
	<node id="-18951" lat="66.5142055602" lon="13.2864861044">
		<tag k="name" v="Skogsletta" />
		<tag k="place" v="locality" />
		<tag k="ssr:stedsnr" v="773454" />
	</node>
	<node id="-18950" lat="66.4490055531" lon="13.3035111049">
		<tag k="name" v="Møsspallen" />
		<tag k="place" v="locality" />
		<tag k="ssr:stedsnr" v="773080" />
	</node>
	<node id="-18949" lat="66.6646722187" lon="13.2473944526">
		<tag k="name" v="Fjøshågen" />
		<tag k="natural" v="hill" />
		<tag k="place" v="locality" />
		<tag k="ssr:stedsnr" v="772805" />
	</node>
	<node id="-18948" lat="66.6490861111" lon="13.30276945">
		<tag k="name" v="Raudlia" />
		<tag k="natural" v="slope" />
		<tag k="place" v="locality" />
		<tag k="ssr:stedsnr" v="772276" />
	</node>
	<node id="-18947" lat="66.588541668" lon="12.6649500071">
		<tag k="name" v="Steinskaret" />
		<tag k="natural" v="valley" />
		<tag k="place" v="locality" />
		<tag k="ssr:stedsnr" v="772261" />
	</node>
	<node id="-18946" lat="66.5851666626" lon="12.6542500067">
		<tag k="name" v="Storhågen" />
		<tag k="natural" v="ridge" />
		<tag k="place" v="locality" />
		<tag k="ssr:stedsnr" v="772258" />
	</node>
	<node id="-18941" lat="66.6644333365" lon="13.2740999957">
		<tag k="name" v="Hestdallia" />
		<tag k="natural" v="slope" />
		<tag k="place" v="locality" />
		<tag k="ssr:stedsnr" v="772322" />
	</node>
	<node id="-18939" lat="66.5705527777" lon="13.1993777848">
		<tag k="name" v="Grønland" />
		<tag k="place" v="locality" />
		<tag k="ssr:stedsnr" v="772088" />
	</node>
	<node id="-18937" lat="66.53652222" lon="12.8079666665">
		<tag k="fixme" v="consider natural=peak for the most distinct mountains in the district" />
		<tag k="name" v="Fjellvassåsen" />
		<tag k="natural" v="hill" />
		<tag k="place" v="locality" />
		<tag k="ssr:stedsnr" v="772059" />
	</node>
	<node id="-18935" lat="66.5404750001" lon="13.1010750071">
		<tag k="name" v="Rishågen" />
		<tag k="natural" v="ridge" />
		<tag k="place" v="locality" />
		<tag k="ssr:stedsnr" v="772142" />
	</node>
	<node id="-18931" lat="66.5820083294" lon="12.6556888783">
		<tag k="name" v="Torsdagslia" />
		<tag k="natural" v="slope" />
		<tag k="place" v="locality" />
		<tag k="ssr:stedsnr" v="765265" />
	</node>
	<node id="-18906" lat="66.4737500029" lon="13.6772666749">
		<tag k="fixme" v="consider natural=peak for the most distinct mountains in the district" />
		<tag k="name" v="Tjønnfjellet" />
		<tag k="natural" v="hill" />
		<tag k="place" v="locality" />
		<tag k="ssr:stedsnr" v="744627" />
	</node>
	<node id="-18893" lat="66.5163499964" lon="13.2983805549">
		<tag k="fixme" v="consider natural=peak for the most distinct mountains in the district" />
		<tag k="name" v="Lauklitinden" />
		<tag k="natural" v="hill" />
		<tag k="place" v="locality" />
		<tag k="ssr:stedsnr" v="744360" />
	</node>
	<node id="-18890" lat="66.5137666705" lon="13.3079805651">
		<tag k="fixme" v="consider natural=peak for the most distinct mountains in the district" />
		<tag k="name" v="Fatlitinden" />
		<tag k="natural" v="hill" />
		<tag k="place" v="locality" />
		<tag k="ssr:stedsnr" v="744355" />
	</node>
	<node id="-18889" lat="66.6126083315" lon="13.2547833421">
		<tag k="fixme" v="consider natural=peak for the most distinct mountains in the district" />
		<tag k="name" v="Åsen" />
		<tag k="natural" v="hill" />
		<tag k="place" v="locality" />
		<tag k="ssr:stedsnr" v="744330" />
	</node>
	<node id="-18888" lat="66.6081611153" lon="13.5512388993">
		<tag k="name" v="Glasshaugen" />
		<tag k="natural" v="hill" />
		<tag k="place" v="locality" />
		<tag k="ssr:stedsnr" v="744309" />
	</node>
	<node id="-18886" lat="66.5690805565" lon="13.3477055571">
		<tag k="name" v="Juvikdalen" />
		<tag k="natural" v="valley" />
		<tag k="place" v="locality" />
		<tag k="ssr:stedsnr" v="744260" />
	</node>
	<node id="-18884" lat="66.6535972257" lon="13.2442638903">
		<tag k="alt_name" v="Dyggrøna" />
		<tag k="name" v="Norddyrgrøva" />
		<tag k="natural" v="hill" />
		<tag k="place" v="locality" />
		<tag k="ssr:stedsnr" v="744254" />
	</node>
	<node id="-18882" lat="66.6554305567" lon="13.4438416739">
		<tag k="name" v="Rommeldalen" />
		<tag k="natural" v="valley" />
		<tag k="place" v="locality" />
		<tag k="ssr:stedsnr" v="744222" />
	</node>
	<node id="-18875" lat="66.6206111143" lon="13.4114416669">
		<tag k="name" v="Kvitberget" />
		<tag k="natural" v="cliff" />
		<tag k="ssr:stedsnr" v="895978" />
	</node>
	<node id="-18872" lat="66.6443750015" lon="13.5068861169">
		<tag k="name" v="Kjettskaret" />
		<tag k="natural" v="valley" />
		<tag k="place" v="locality" />
		<tag k="ssr:stedsnr" v="895519" />
	</node>
	<node id="-18871" lat="66.6244388872" lon="13.4533500003">
		<tag k="name" v="Mølnhuslia" />
		<tag k="natural" v="slope" />
		<tag k="place" v="locality" />
		<tag k="ssr:stedsnr" v="895502" />
	</node>
	<node id="-18870" lat="66.6187749972" lon="13.4619222151">
		<tag k="name" v="Høglia" />
		<tag k="natural" v="slope" />
		<tag k="place" v="locality" />
		<tag k="ssr:stedsnr" v="895498" />
	</node>
	<node id="-18869" lat="66.5094472222" lon="13.2019944339">
		<tag k="fixme" v="consider natural=peak for the most distinct mountains in the district" />
		<tag k="name" v="Høgbergan" />
		<tag k="natural" v="hill" />
		<tag k="place" v="locality" />
		<tag k="ssr:stedsnr" v="895100" />
	</node>
	<node id="-18865" lat="66.6994611086" lon="13.4260194552">
		<tag k="name" v="Heststeinhågen" />
		<tag k="natural" v="hill" />
		<tag k="place" v="locality" />
		<tag k="ssr:stedsnr" v="894943" />
	</node>
	<node id="-18862" lat="66.6382888856" lon="13.3922611189">
		<tag k="fixme" v="consider natural=peak for the most distinct mountains in the district" />
		<tag k="name" v="Litlkrona" />
		<tag k="natural" v="hill" />
		<tag k="ssr:stedsnr" v="712963" />
	</node>
	<node id="-18861" lat="66.6378416671" lon="13.3741638973">
		<tag k="name" v="Pallen" />
		<tag k="place" v="locality" />
		<tag k="ssr:stedsnr" v="712960" />
	</node>
	<node id="-18859" lat="66.6894305594" lon="13.4365305566">
		<tag k="name" v="Storhågen" />
		<tag k="natural" v="hill" />
		<tag k="place" v="locality" />
		<tag k="ssr:stedsnr" v="894897" />
	</node>
	<node id="-18858" lat="66.7231000003" lon="13.3198555585">
		<tag k="fixme" v="consider natural=peak for the most distinct mountains in the district" />
		<tag k="name" v="Sørbotnåsen" />
		<tag k="natural" v="hill" />
		<tag k="place" v="locality" />
		<tag k="ssr:stedsnr" v="894882" />
	</node>
	<node id="-18857" lat="66.6974861111" lon="13.3411305515">
		<tag k="fixme" v="consider natural=peak for the most distinct mountains in the district" />
		<tag k="name" v="Aspåsen" />
		<tag k="natural" v="hill" />
		<tag k="place" v="locality" />
		<tag k="ssr:stedsnr" v="712803" />
	</node>
	<node id="-18853" lat="66.6956472247" lon="13.3151500061">
		<tag k="name" v="Yttersjyhågen" />
		<tag k="natural" v="ridge" />
		<tag k="place" v="locality" />
		<tag k="ssr:stedsnr" v="894825" />
	</node>
	<node id="-18852" lat="66.4898194482" lon="13.2193916737">
		<tag k="name" v="Bertilhågen" />
		<tag k="natural" v="hill" />
		<tag k="place" v="locality" />
		<tag k="ssr:stedsnr" v="712355" />
	</node>
	<node id="-18851" lat="66.6062250012" lon="13.3134388826">
		<tag k="name" v="Tverrlian" />
		<tag k="natural" v="slope" />
		<tag k="place" v="locality" />
		<tag k="ssr:stedsnr" v="712407" />
	</node>
	<node id="-18850" lat="66.5200638863" lon="13.7577500082">
		<tag k="name" v="Kåtamoen" />
		<tag k="place" v="locality" />
		<tag k="ssr:stedsnr" v="894607" />
	</node>
	<node id="-18849" lat="66.5116999982" lon="13.7075611111">
		<tag k="name" v="Kvannskardalfjellet" />
		<tag k="natural" v="hill" />
		<tag k="place" v="locality" />
		<tag k="ssr:stedsnr" v="894605" />
	</node>
	<node id="-18848" lat="66.6730861119" lon="13.5970055503">
		<tag k="name" v="Nyråna" />
		<tag k="natural" v="cliff" />
		<tag k="ssr:stedsnr" v="894596" />
	</node>
	<node id="-18845" lat="66.4947305572" lon="13.3036833366">
		<tag k="name" v="Daumannskollen" />
		<tag k="natural" v="ridge" />
		<tag k="place" v="locality" />
		<tag k="ssr:stedsnr" v="894547" />
	</node>
	<node id="-18844" lat="66.4938611151" lon="13.3442194456">
		<tag k="name" v="Reinhagen" />
		<tag k="place" v="locality" />
		<tag k="ssr:stedsnr" v="894544" />
	</node>
	<node id="-18843" lat="66.5137638911" lon="13.3250111058">
		<tag k="name" v="Rødlia" />
		<tag k="natural" v="slope" />
		<tag k="place" v="locality" />
		<tag k="ssr:stedsnr" v="894534" />
	</node>
	<node id="-18842" lat="66.5110722251" lon="13.316099993">
		<tag k="name" v="Heia" />
		<tag k="natural" v="hill" />
		<tag k="place" v="locality" />
		<tag k="ssr:stedsnr" v="894530" />
	</node>
	<node id="-18841" lat="66.5120999984" lon="13.3182611162">
		<tag k="name" v="Bjørnbenken" />
		<tag k="place" v="locality" />
		<tag k="ssr:stedsnr" v="894529" />
	</node>
	<node id="-18837" lat="66.4739666626" lon="13.3263722304">
		<tag k="name" v="Trollreva" />
		<tag k="natural" v="valley" />
		<tag k="place" v="locality" />
		<tag k="ssr:stedsnr" v="894501" />
	</node>
	<node id="-18836" lat="66.6275861106" lon="13.3529194486">
		<tag k="name" v="Rishågen" />
		<tag k="natural" v="ridge" />
		<tag k="place" v="locality" />
		<tag k="ssr:stedsnr" v="894495" />
	</node>
	<node id="-18835" lat="66.5151750012" lon="13.6542416672">
		<tag k="name" v="Smørkattdalen" />
		<tag k="natural" v="valley" />
		<tag k="place" v="locality" />
		<tag k="ssr:stedsnr" v="711571" />
	</node>
	<node id="-18834" lat="66.4900083324" lon="13.7410472241">
		<tag k="name" v="Klovaksla" />
		<tag k="natural" v="hill" />
		<tag k="place" v="locality" />
		<tag k="ssr:stedsnr" v="711558" />
	</node>
	<node id="-18833" lat="66.621730555" lon="13.3119361106">
		<tag k="name" v="Engehågen" />
		<tag k="natural" v="ridge" />
		<tag k="place" v="locality" />
		<tag k="ssr:stedsnr" v="711357" />
	</node>
	<node id="-18832" lat="66.60748333" lon="13.3096527761">
		<tag k="name" v="Rundhågan" />
		<tag k="natural" v="hill" />
		<tag k="place" v="locality" />
		<tag k="ssr:stedsnr" v="894472" />
	</node>
	<node id="-18831" lat="66.6055277765" lon="13.3099388778">
		<tag k="name" v="Innerbjørndalen" />
		<tag k="natural" v="valley" />
		<tag k="place" v="locality" />
		<tag k="ssr:stedsnr" v="894471" />
	</node>
	<node id="-18830" lat="66.6087027772" lon="13.3230583363">
		<tag k="fixme" v="consider natural=peak for the most distinct mountains in the district" />
		<tag k="name" v="Svartvassåsen" />
		<tag k="natural" v="hill" />
		<tag k="place" v="locality" />
		<tag k="ssr:stedsnr" v="894463" />
	</node>
	<node id="-18829" lat="66.6670583366" lon="13.2046277824">
		<tag k="name" v="Karituva" />
		<tag k="natural" v="hill" />
		<tag k="place" v="locality" />
		<tag k="ssr:stedsnr" v="711182" />
	</node>
	<node id="-18825" lat="66.6102055547" lon="13.2768305488">
		<tag k="name" v="Bølvikhågan" />
		<tag k="natural" v="hill" />
		<tag k="place" v="locality" />
		<tag k="ssr:stedsnr" v="894445" />
	</node>
	<node id="-18824" lat="66.6121972237" lon="13.2287222128">
		<tag k="name" v="Kvalbåsen" />
		<tag k="natural" v="gorge" />
		<tag k="ssr:stedsnr" v="894443" />
	</node>
	<node id="-18823" lat="66.5884972191" lon="13.2316916689">
		<tag k="name" v="Breitinden" />
		<tag k="natural" v="ridge" />
		<tag k="place" v="locality" />
		<tag k="ssr:stedsnr" v="894439" />
	</node>
	<node id="-18822" lat="66.5856083318" lon="13.2252888911">
		<tag k="name" v="Falkreva" />
		<tag k="natural" v="valley" />
		<tag k="place" v="locality" />
		<tag k="ssr:stedsnr" v="894438" />
	</node>
	<node id="-18821" lat="66.5586972223" lon="13.245324996">
		<tag k="name" v="Veggen" />
		<tag k="natural" v="slope" />
		<tag k="place" v="locality" />
		<tag k="ssr:stedsnr" v="894436" />
	</node>
	<node id="-18820" lat="66.4863944445" lon="13.3121222236">
		<tag k="name" v="Innerlia" />
		<tag k="natural" v="slope" />
		<tag k="place" v="locality" />
		<tag k="ssr:stedsnr" v="894429" />
	</node>
	<node id="-18819" lat="66.6448749967" lon="13.2729305447">
		<tag k="name" v="Matmorskaret" />
		<tag k="natural" v="valley" />
		<tag k="place" v="locality" />
		<tag k="ssr:stedsnr" v="894416" />
	</node>
	<node id="-18814" lat="66.5959666688" lon="12.6400888863">
		<tag k="name" v="Elvhågen" />
		<tag k="natural" v="hill" />
		<tag k="place" v="locality" />
		<tag k="ssr:stedsnr" v="711216" />
	</node>
	<node id="-18813" lat="66.6006527768" lon="12.6513694529">
		<tag k="name" v="Myrberghågen" />
		<tag k="natural" v="ridge" />
		<tag k="place" v="locality" />
		<tag k="ssr:stedsnr" v="711215" />
	</node>
	<node id="-18812" lat="66.648036107" lon="13.2525055546">
		<tag k="name" v="Krumbringen" />
		<tag k="place" v="locality" />
		<tag k="ssr:stedsnr" v="894396" />
	</node>
	<node id="-18810" lat="66.6184555532" lon="13.3023333322">
		<tag k="name" v="Ørnhågen" />
		<tag k="natural" v="hill" />
		<tag k="place" v="locality" />
		<tag k="ssr:stedsnr" v="894356" />
	</node>
	<node id="-18806" lat="66.6475805524" lon="13.3543138898">
		<tag k="fixme" v="consider natural=peak for the most distinct mountains in the district" />
		<tag k="name" v="Tårnet" />
		<tag k="natural" v="hill" />
		<tag k="ssr:stedsnr" v="894291" />
	</node>
	<node id="-18805" lat="66.5319222212" lon="12.9967888932">
		<tag k="name" v="Storhågen" />
		<tag k="natural" v="ridge" />
		<tag k="place" v="locality" />
		<tag k="ssr:stedsnr" v="894278" />
	</node>
	<node id="-18804" lat="66.6150194468" lon="13.0203888916">
		<tag k="name" v="Spellmannshågen" />
		<tag k="natural" v="ridge" />
		<tag k="place" v="locality" />
		<tag k="ssr:stedsnr" v="894259" />
	</node>
	<node id="-18802" lat="66.754636109" lon="12.4604583386">
		<tag k="name" v="Gloskiten" />
		<tag k="natural" v="ridge" />
		<tag k="place" v="locality" />
		<tag k="ssr:stedsnr" v="894232" />
	</node>
	<node id="-18799" lat="66.6703944444" lon="13.2006666652">
		<tag k="name" v="Sjyhågen" />
		<tag k="natural" v="hill" />
		<tag k="place" v="locality" />
		<tag k="ssr:stedsnr" v="894215" />
	</node>
	<node id="-18796" lat="66.6581611143" lon="13.0787055517">
		<tag k="name" v="Losvikhågen" />
		<tag k="natural" v="hill" />
		<tag k="place" v="locality" />
		<tag k="ssr:stedsnr" v="894163" />
	</node>
	<node id="-18795" lat="66.5425583307" lon="13.0920388993">
		<tag k="name" v="Røbakkan" />
		<tag k="natural" v="slope" />
		<tag k="place" v="locality" />
		<tag k="ssr:stedsnr" v="894146" />
	</node>
	<node id="-18794" lat="66.6563138866" lon="13.1903250107">
		<tag k="name" v="Kovran" />
		<tag k="natural" v="slope" />
		<tag k="place" v="locality" />
		<tag k="ssr:stedsnr" v="894122" />
	</node>
	<node id="-18791" lat="66.6529444423" lon="13.2099055486">
		<tag k="name" v="Rundhågen" />
		<tag k="natural" v="hill" />
		<tag k="place" v="locality" />
		<tag k="ssr:stedsnr" v="894112" />
	</node>
	<node id="-18790" lat="66.6512388862" lon="13.2034416727">
		<tag k="name" v="Rishatten" />
		<tag k="natural" v="hill" />
		<tag k="place" v="locality" />
		<tag k="ssr:stedsnr" v="894111" />
	</node>
	<node id="-18788" lat="66.6463361073" lon="13.2060000098">
		<tag k="name" v="Kalvvika" />
		<tag k="natural" v="valley" />
		<tag k="place" v="locality" />
		<tag k="ssr:stedsnr" v="894104" />
	</node>
	<node id="-18786" lat="66.6500833318" lon="13.2099972178">
		<tag k="name" v="Krona" />
		<tag k="natural" v="hill" />
		<tag k="place" v="locality" />
		<tag k="ssr:stedsnr" v="894100" />
	</node>
	<node id="-18784" lat="66.6443361084" lon="13.2099555522">
		<tag k="name" v="Lihola" />
		<tag k="natural" v="valley" />
		<tag k="place" v="locality" />
		<tag k="ssr:stedsnr" v="894096" />
	</node>
	<node id="-18781" lat="66.6138583333" lon="13.0032444526">
		<tag k="name" v="Vågen" />
		<tag k="natural" v="valley" />
		<tag k="place" v="locality" />
		<tag k="ssr:stedsnr" v="894052" />
	</node>
	<node id="-18780" lat="66.6155333351" lon="12.9968222239">
		<tag k="name" v="Karvikberget" />
		<tag k="natural" v="hill" />
		<tag k="place" v="locality" />
		<tag k="ssr:stedsnr" v="894051" />
	</node>
	<node id="-18778" lat="66.4529527783" lon="13.2082944479">
		<tag k="name" v="Dalbotnan" />
		<tag k="natural" v="valley" />
		<tag k="place" v="locality" />
		<tag k="ssr:stedsnr" v="894027" />
	</node>
	<node id="-18776" lat="66.5554500009" lon="12.8281611042">
		<tag k="name" v="Langneset" />
		<tag k="natural" v="ridge" />
		<tag k="place" v="locality" />
		<tag k="ssr:stedsnr" v="894025" />
	</node>
	<node id="-18764" lat="66.5338111094" lon="13.0617861032">
		<tag k="fixme" v="consider natural=peak for the most distinct mountains in the district" />
		<tag k="name" v="Stordalstinden" />
		<tag k="natural" v="hill" />
		<tag k="place" v="locality" />
		<tag k="ssr:stedsnr" v="684121" />
	</node>
	<node id="-18760" lat="66.6802416628" lon="13.5814999982">
		<tag k="name" v="Breidvikskardet" />
		<tag k="natural" v="valley" />
		<tag k="place" v="locality" />
		<tag k="ssr:stedsnr" v="684209" />
	</node>
	<node id="-18750" lat="66.4767138911" lon="13.2253416576">
		<tag k="fixme" v="consider natural=peak for the most distinct mountains in the district" />
		<tag k="name" v="Brenneshaugen" />
		<tag k="natural" v="hill" />
		<tag k="place" v="locality" />
		<tag k="ssr:stedsnr" v="683630" />
	</node>
	<node id="-18748" lat="66.4267333294" lon="13.2013722113">
		<tag k="name" v="Stavsletta" />
		<tag k="place" v="locality" />
		<tag k="ssr:stedsnr" v="683375" />
	</node>
	<node id="-18745" lat="66.6448000015" lon="13.429788891">
		<tag k="name" v="Blokkøsterdalen" />
		<tag k="natural" v="valley" />
		<tag k="place" v="locality" />
		<tag k="ssr:stedsnr" v="683257" />
	</node>
	<node id="-18744" lat="66.7050194473" lon="13.2803527856">
		<tag k="fixme" v="multiple name tags, choose one and add the other to alt_name" />
		<tag k="name" v="Hammaren;Likhammaren" />
		<tag k="natural" v="hill" />
		<tag k="place" v="locality" />
		<tag k="ssr:stedsnr" v="683223" />
	</node>
	<node id="-18741" lat="66.6862777738" lon="13.4644777818">
		<tag k="name" v="Tullhågen" />
		<tag k="natural" v="hill" />
		<tag k="place" v="locality" />
		<tag k="ssr:stedsnr" v="651900" />
	</node>
	<node id="-18740" lat="66.6914833326" lon="13.4557222297">
		<tag k="name" v="Fjøshågen" />
		<tag k="natural" v="ridge" />
		<tag k="place" v="locality" />
		<tag k="ssr:stedsnr" v="651895" />
	</node>
	<node id="-18739" lat="66.6929666696" lon="13.4461138927">
		<tag k="fixme" v="consider natural=peak for the most distinct mountains in the district" />
		<tag k="name" v="Stor-Dyråsen" />
		<tag k="natural" v="hill" />
		<tag k="place" v="locality" />
		<tag k="ssr:stedsnr" v="651893" />
	</node>
	<node id="-18737" lat="66.7013527738" lon="13.3705472234">
		<tag k="fixme" v="consider natural=peak for the most distinct mountains in the district" />
		<tag k="name" v="Josefåsen" />
		<tag k="natural" v="hill" />
		<tag k="place" v="locality" />
		<tag k="ssr:stedsnr" v="651879" />
	</node>
	<node id="-18734" lat="66.7193972184" lon="13.3450888887">
		<tag k="fixme" v="consider natural=peak for the most distinct mountains in the district" />
		<tag k="name" v="Tømmeråsen" />
		<tag k="natural" v="hill" />
		<tag k="place" v="locality" />
		<tag k="ssr:stedsnr" v="651858" />
	</node>
	<node id="-18733" lat="66.7052305576" lon="13.3169527774">
		<tag k="name" v="Sletthågen" />
		<tag k="natural" v="ridge" />
		<tag k="place" v="locality" />
		<tag k="ssr:stedsnr" v="651854" />
	</node>
	<node id="-18732" lat="66.612744445" lon="13.4766666636">
		<tag k="name" v="Sørausterdalen" />
		<tag k="natural" v="valley" />
		<tag k="place" v="locality" />
		<tag k="ssr:stedsnr" v="651552" />
	</node>
	<node id="-18730" lat="66.6129916638" lon="13.5099111075">
		<tag k="name" v="Kvannbekklia" />
		<tag k="natural" v="slope" />
		<tag k="place" v="locality" />
		<tag k="ssr:stedsnr" v="651549" />
	</node>
	<node id="-18729" lat="66.6156805574" lon="13.4685500064">
		<tag k="name" v="Bergenden" />
		<tag k="natural" v="cliff" />
		<tag k="ssr:stedsnr" v="651545" />
	</node>
	<node id="-18728" lat="66.6084944431" lon="13.4923055624">
		<tag k="name" v="Mosterdalen" />
		<tag k="natural" v="valley" />
		<tag k="place" v="locality" />
		<tag k="ssr:stedsnr" v="651536" />
	</node>
	<node id="-18727" lat="66.5046805593" lon="13.3086833297">
		<tag k="name" v="Ågneshågen" />
		<tag k="natural" v="hill" />
		<tag k="place" v="locality" />
		<tag k="ssr:stedsnr" v="651510" />
	</node>
	<node id="-18726" lat="66.5028444466" lon="13.3060916655">
		<tag k="name" v="Kleivan" />
		<tag k="natural" v="slope" />
		<tag k="place" v="locality" />
		<tag k="ssr:stedsnr" v="651505" />
	</node>
	<node id="-18724" lat="66.5101722207" lon="13.3179166584">
		<tag k="name" v="Blåbærmoen" />
		<tag k="place" v="locality" />
		<tag k="ssr:stedsnr" v="651485" />
	</node>
	<node id="-18723" lat="66.5089888918" lon="13.3053277706">
		<tag k="name" v="Øverskaret" />
		<tag k="natural" v="valley" />
		<tag k="place" v="locality" />
		<tag k="ssr:stedsnr" v="651482" />
	</node>
	<node id="-18720" lat="66.5236999973" lon="13.1718305504">
		<tag k="name" v="Nordlia" />
		<tag k="natural" v="slope" />
		<tag k="place" v="locality" />
		<tag k="ssr:stedsnr" v="651129" />
	</node>
	<node id="-18717" lat="66.6083250013" lon="13.0099722311">
		<tag k="name" v="Dyskaret" />
		<tag k="natural" v="valley" />
		<tag k="place" v="locality" />
		<tag k="ssr:stedsnr" v="650091" />
	</node>
	<node id="-18716" lat="66.6124500004" lon="13.0033027676">
		<tag k="name" v="Lia" />
		<tag k="natural" v="slope" />
		<tag k="place" v="locality" />
		<tag k="ssr:stedsnr" v="650089" />
	</node>
	<node id="-18713" lat="66.5625999989" lon="13.2131249914">
		<tag k="name" v="Hattdalan" />
		<tag k="natural" v="valley" />
		<tag k="place" v="locality" />
		<tag k="ssr:stedsnr" v="650072" />
	</node>
	<node id="-18712" lat="66.5375694447" lon="12.8352166626">
		<tag k="name" v="Risaksla" />
		<tag k="natural" v="ridge" />
		<tag k="place" v="locality" />
		<tag k="ssr:stedsnr" v="650059" />
	</node>
	<node id="-18711" lat="66.5347916669" lon="12.8181638799">
		<tag k="fixme" v="consider natural=peak for the most distinct mountains in the district" />
		<tag k="name" v="Langhågen" />
		<tag k="natural" v="hill" />
		<tag k="place" v="locality" />
		<tag k="ssr:stedsnr" v="650058" />
	</node>
	<node id="-18702" lat="66.6981972203" lon="13.3772305482">
		<tag k="name" v="Haugbrandlia" />
		<tag k="natural" v="slope" />
		<tag k="place" v="locality" />
		<tag k="ssr:stedsnr" v="712896" />
	</node>
	<node id="-18700" lat="66.6894805583" lon="13.4697611159">
		<tag k="fixme" v="consider natural=peak for the most distinct mountains in the district" />
		<tag k="name" v="Lauvåsen" />
		<tag k="natural" v="hill" />
		<tag k="place" v="locality" />
		<tag k="ssr:stedsnr" v="712888" />
	</node>
	<node id="-18699" lat="66.730455553" lon="13.3299083245">
		<tag k="fixme" v="consider natural=peak for the most distinct mountains in the district" />
		<tag k="name" v="Isakhågen" />
		<tag k="natural" v="hill" />
		<tag k="place" v="locality" />
		<tag k="ssr:stedsnr" v="712868" />
	</node>
	<node id="-18698" lat="66.6627111148" lon="13.2196249961">
		<tag k="name" v="Ørnlifjellet" />
		<tag k="natural" v="hill" />
		<tag k="place" v="locality" />
		<tag k="ssr:stedsnr" v="712808" />
	</node>
	<node id="-18692" lat="66.621308336" lon="13.4535916751">
		<tag k="name" v="Greinan" />
		<tag k="natural" v="valley" />
		<tag k="place" v="locality" />
		<tag k="ssr:stedsnr" v="712500" />
	</node>
	<node id="-18691" lat="66.5127611075" lon="13.3065305593">
		<tag k="name" v="Mellalemmen" />
		<tag k="place" v="locality" />
		<tag k="ssr:stedsnr" v="712468" />
	</node>
	<node id="-18690" lat="66.5122999986" lon="13.3302416661">
		<tag k="name" v="Stellan" />
		<tag k="natural" v="slope" />
		<tag k="place" v="locality" />
		<tag k="ssr:stedsnr" v="712462" />
	</node>
	<node id="-18689" lat="66.5150555532" lon="13.2960861025">
		<tag k="name" v="Lauklia" />
		<tag k="natural" v="slope" />
		<tag k="place" v="locality" />
		<tag k="ssr:stedsnr" v="712455" />
	</node>
	<node id="-18688" lat="66.5090111147" lon="13.3104055557">
		<tag k="name" v="Skjurberget" />
		<tag k="natural" v="slope" />
		<tag k="place" v="locality" />
		<tag k="ssr:stedsnr" v="712450" />
	</node>
	<node id="-18687" lat="66.481330555" lon="13.5110611131">
		<tag k="name" v="Nerfjellet" />
		<tag k="natural" v="hill" />
		<tag k="place" v="locality" />
		<tag k="ssr:stedsnr" v="712448" />
	</node>
	<node id="-18684" lat="66.4687555527" lon="13.314458333">
		<tag k="name" v="Mellaenga" />
		<tag k="natural" v="slope" />
		<tag k="place" v="locality" />
		<tag k="ssr:stedsnr" v="712423" />
	</node>
	<node id="-18678" lat="66.4863305522" lon="13.2371527688">
		<tag k="name" v="Kovahågen" />
		<tag k="natural" v="hill" />
		<tag k="place" v="locality" />
		<tag k="ssr:stedsnr" v="712362" />
	</node>
	<node id="-18677" lat="66.4927083363" lon="13.2968722152">
		<tag k="name" v="Langbergan" />
		<tag k="natural" v="ridge" />
		<tag k="place" v="locality" />
		<tag k="ssr:stedsnr" v="712357" />
	</node>
	<node id="-18673" lat="66.480922226" lon="13.2337138901">
		<tag k="name" v="Svartovnan" />
		<tag k="place" v="locality" />
		<tag k="ssr:stedsnr" v="712062" />
	</node>
	<node id="-18670" lat="66.6907277793" lon="13.4168444376">
		<tag k="name" v="Jekthågen" />
		<tag k="natural" v="ridge" />
		<tag k="place" v="locality" />
		<tag k="ssr:stedsnr" v="590942" />
	</node>
	<node id="-18669" lat="66.6966805555" lon="13.4335361216">
		<tag k="fixme" v="consider natural=peak for the most distinct mountains in the district" />
		<tag k="name" v="Åsen" />
		<tag k="natural" v="hill" />
		<tag k="place" v="locality" />
		<tag k="ssr:stedsnr" v="590933" />
	</node>
	<node id="-18667" lat="66.4908333319" lon="13.212744454">
		<tag k="name" v="Torvskjåberget" />
		<tag k="natural" v="ridge" />
		<tag k="place" v="locality" />
		<tag k="ssr:stedsnr" v="712038" />
	</node>
	<node id="-18666" lat="66.459041671" lon="13.2066333419">
		<tag k="name" v="Eidhågen" />
		<tag k="natural" v="ridge" />
		<tag k="place" v="locality" />
		<tag k="ssr:stedsnr" v="712027" />
	</node>
	<node id="-18665" lat="66.6183083303" lon="13.394808342">
		<tag k="name" v="Heln" />
		<tag k="natural" v="cliff" />
		<tag k="ssr:stedsnr" v="711990" />
	</node>
	<node id="-18664" lat="66.6681722184" lon="13.2313388871">
		<tag k="name" v="Fjøshågen" />
		<tag k="natural" v="hill" />
		<tag k="place" v="locality" />
		<tag k="ssr:stedsnr" v="712246" />
	</node>
	<node id="-18659" lat="66.6395888889" lon="13.6066416605">
		<tag k="name" v="Stedalsfjellet" />
		<tag k="natural" v="cliff" />
		<tag k="ssr:stedsnr" v="590552" />
	</node>
	<node id="-18657" lat="66.6760722242" lon="13.5615972325">
		<tag k="fixme" v="consider natural=peak for the most distinct mountains in the district" />
		<tag k="name" v="Hågen" />
		<tag k="natural" v="hill" />
		<tag k="place" v="locality" />
		<tag k="ssr:stedsnr" v="590535" />
	</node>
	<node id="-18652" lat="66.5352833311" lon="13.1293111017">
		<tag k="name" v="Nessehågen" />
		<tag k="natural" v="hill" />
		<tag k="place" v="locality" />
		<tag k="ssr:stedsnr" v="590146" />
	</node>
	<node id="-18651" lat="66.53088333" lon="13.0949805444">
		<tag k="name" v="Svartevatnlia" />
		<tag k="natural" v="slope" />
		<tag k="place" v="locality" />
		<tag k="ssr:stedsnr" v="590142" />
	</node>
	<node id="-18649" lat="66.5775833355" lon="13.2160249991">
		<tag k="name" v="Tårnsteinen" />
		<tag k="natural" v="cliff" />
		<tag k="ssr:stedsnr" v="590098" />
	</node>
	<node id="-18646" lat="66.5392249962" lon="12.8713722161">
		<tag k="name" v="Langhågen" />
		<tag k="natural" v="ridge" />
		<tag k="place" v="locality" />
		<tag k="ssr:stedsnr" v="590060" />
	</node>
	<node id="-18645" lat="66.6122583292" lon="13.5274583401">
		<tag k="name" v="Øverbotnet" />
		<tag k="natural" v="valley" />
		<tag k="place" v="locality" />
		<tag k="ssr:stedsnr" v="711590" />
	</node>
	<node id="-18644" lat="66.6167777745" lon="13.3155527878">
		<tag k="name" v="Stavnskarhågen" />
		<tag k="natural" v="ridge" />
		<tag k="place" v="locality" />
		<tag k="ssr:stedsnr" v="711348" />
	</node>
	<node id="-18643" lat="66.6657777734" lon="13.2773166643">
		<tag k="name" v="Bjynnlia" />
		<tag k="natural" v="slope" />
		<tag k="place" v="locality" />
		<tag k="ssr:stedsnr" v="711307" />
	</node>
	<node id="-18641" lat="66.6400749999" lon="13.2422166619">
		<tag k="name" v="Rødalen" />
		<tag k="natural" v="valley" />
		<tag k="place" v="locality" />
		<tag k="ssr:stedsnr" v="711272" />
	</node>
	<node id="-18639" lat="66.6312027781" lon="13.0189000022">
		<tag k="name" v="Vengelhågen" />
		<tag k="natural" v="hill" />
		<tag k="place" v="locality" />
		<tag k="ssr:stedsnr" v="711262" />
	</node>
	<node id="-18637" lat="66.6522277743" lon="13.2261333288">
		<tag k="name" v="Hamran" />
		<tag k="natural" v="ridge" />
		<tag k="place" v="locality" />
		<tag k="ssr:stedsnr" v="711389" />
	</node>
	<node id="-18636" lat="66.5298083337" lon="13.1197277849">
		<tag k="name" v="Høydalen" />
		<tag k="natural" v="valley" />
		<tag k="place" v="locality" />
		<tag k="ssr:stedsnr" v="711143" />
	</node>
	<node id="-18634" lat="66.5871666702" lon="12.9287472165">
		<tag k="name" v="Sirihågen" />
		<tag k="natural" v="ridge" />
		<tag k="place" v="locality" />
		<tag k="ssr:stedsnr" v="711116" />
	</node>
	<node id="-18633" lat="66.5756638858" lon="13.2117888875">
		<tag k="name" v="Skavlibergan" />
		<tag k="natural" v="ridge" />
		<tag k="place" v="locality" />
		<tag k="ssr:stedsnr" v="711099" />
	</node>
	<node id="-18632" lat="66.5657555553" lon="13.2140222261">
		<tag k="fixme" v="consider natural=peak for the most distinct mountains in the district" />
		<tag k="name" v="Heian" />
		<tag k="natural" v="hill" />
		<tag k="place" v="locality" />
		<tag k="ssr:stedsnr" v="711095" />
	</node>
	<node id="-18631" lat="66.5444555521" lon="13.0795611021">
		<tag k="name" v="Vikahågen" />
		<tag k="natural" v="ridge" />
		<tag k="place" v="locality" />
		<tag k="ssr:stedsnr" v="711087" />
	</node>
	<node id="-18629" lat="66.5784361094" lon="12.9040388784">
		<tag k="fixme" v="consider natural=peak for the most distinct mountains in the district" />
		<tag k="name" v="Fagerlinhågen" />
		<tag k="natural" v="hill" />
		<tag k="place" v="locality" />
		<tag k="ssr:stedsnr" v="711043" />
	</node>
	<node id="-18628" lat="66.7613750044" lon="12.4881527828">
		<tag k="name" v="Daumannsrevva" />
		<tag k="natural" v="ridge" />
		<tag k="place" v="locality" />
		<tag k="ssr:stedsnr" v="710238" />
	</node>
	<node id="-18621" lat="66.6625444412" lon="13.2569805553">
		<tag k="name" v="Damhågen" />
		<tag k="natural" v="ridge" />
		<tag k="place" v="locality" />
		<tag k="ssr:stedsnr" v="704752" />
	</node>
	<node id="-18619" lat="66.5513833312" lon="12.8325499993">
		<tag k="name" v="Skåkhågen" />
		<tag k="natural" v="hill" />
		<tag k="place" v="locality" />
		<tag k="ssr:stedsnr" v="711031" />
	</node>
	<node id="-18618" lat="66.5493388842" lon="12.833594455">
		<tag k="name" v="Vågahågan" />
		<tag k="natural" v="hill" />
		<tag k="place" v="locality" />
		<tag k="ssr:stedsnr" v="711002" />
	</node>
	<node id="-18615" lat="66.4295916656" lon="13.2116666607">
		<tag k="name" v="Seljedalen" />
		<tag k="natural" v="valley" />
		<tag k="place" v="locality" />
		<tag k="ssr:stedsnr" v="562410" />
	</node>
	<node id="-18603" lat="66.4895055556" lon="13.3263611045">
		<tag k="fixme" v="consider natural=peak for the most distinct mountains in the district" />
		<tag k="name" v="Kammen" />
		<tag k="natural" v="hill" />
		<tag k="place" v="locality" />
		<tag k="ssr:stedsnr" v="561652" />
	</node>
	<node id="-18594" lat="66.6488194428" lon="13.643599993">
		<tag k="fixme" v="consider natural=peak for the most distinct mountains in the district" />
		<tag k="name" v="Memaurtinden" />
		<tag k="natural" v="hill" />
		<tag k="ssr:stedsnr" v="530561" />
	</node>
	<node id="-18593" lat="66.6509000006" lon="13.5973472282">
		<tag k="name" v="Innerstedalen" />
		<tag k="natural" v="valley" />
		<tag k="place" v="locality" />
		<tag k="ssr:stedsnr" v="530559" />
	</node>
	<node id="-18592" lat="66.6227166671" lon="13.4348222285">
		<tag k="name" v="Tempelskarhågen" />
		<tag k="natural" v="hill" />
		<tag k="place" v="locality" />
		<tag k="ssr:stedsnr" v="530557" />
	</node>
	<node id="-18591" lat="66.6204833325" lon="13.4474444508">
		<tag k="name" v="Kjerringfjellet" />
		<tag k="natural" v="cliff" />
		<tag k="ssr:stedsnr" v="530552" />
	</node>
	<node id="-18590" lat="66.6122472207" lon="13.3227583374">
		<tag k="name" v="Brenslan" />
		<tag k="natural" v="ridge" />
		<tag k="place" v="locality" />
		<tag k="ssr:stedsnr" v="530433" />
	</node>
	<node id="-18588" lat="66.6099527775" lon="13.2800777864">
		<tag k="name" v="Flobergdalen" />
		<tag k="natural" v="valley" />
		<tag k="place" v="locality" />
		<tag k="ssr:stedsnr" v="530414" />
	</node>
	<node id="-18587" lat="66.6120527812" lon="13.2316111138">
		<tag k="name" v="Skåka" />
		<tag k="natural" v="valley" />
		<tag k="place" v="locality" />
		<tag k="ssr:stedsnr" v="530409" />
	</node>
	<node id="-18586" lat="66.4821250003" lon="13.2050472291">
		<tag k="name" v="Tverrfjellet" />
		<tag k="natural" v="cliff" />
		<tag k="ssr:stedsnr" v="530027" />
	</node>
	<node id="-18583" lat="66.5155472204" lon="13.6625638905">
		<tag k="name" v="Forahågan" />
		<tag k="natural" v="ridge" />
		<tag k="place" v="locality" />
		<tag k="ssr:stedsnr" v="529568" />
	</node>
	<node id="-18582" lat="66.6419388865" lon="13.2522277717">
		<tag k="fixme" v="consider natural=peak for the most distinct mountains in the district" />
		<tag k="name" v="Krumaksla" />
		<tag k="natural" v="hill" />
		<tag k="place" v="locality" />
		<tag k="ssr:stedsnr" v="529377" />
	</node>
	<node id="-18578" lat="66.58691111" lon="12.922144451">
		<tag k="name" v="Tøsjehågen" />
		<tag k="natural" v="hill" />
		<tag k="place" v="locality" />
		<tag k="ssr:stedsnr" v="529049" />
	</node>
	<node id="-18577" lat="66.5440638851" lon="12.8704500022">
		<tag k="name" v="Kvalneshågen" />
		<tag k="natural" v="hill" />
		<tag k="place" v="locality" />
		<tag k="ssr:stedsnr" v="529047" />
	</node>
	<node id="-18573" lat="66.5650388894" lon="12.8546111102">
		<tag k="name" v="Ørnkulen" />
		<tag k="natural" v="hill" />
		<tag k="place" v="locality" />
		<tag k="ssr:stedsnr" v="529019" />
	</node>
	<node id="-18566" lat="66.4037777765" lon="13.238269455">
		<tag k="fixme" v="consider natural=peak for the most distinct mountains in the district" />
		<tag k="name" v="Strandtindan" />
		<tag k="natural" v="hill" />
		<tag k="place" v="locality" />
		<tag k="ssr:stedsnr" v="684841" />
	</node>
	<node id="-18562" lat="66.445411113" lon="13.4134694401">
		<tag k="fixme" v="consider natural=peak for the most distinct mountains in the district" />
		<tag k="name" v="Nordfjellet" />
		<tag k="natural" v="hill" />
		<tag k="place" v="locality" />
		<tag k="ssr:stedsnr" v="684660" />
	</node>
	<node id="-18558" lat="66.6074027777" lon="13.7383833415">
		<tag k="name" v="Nordfjordbotnen" />
		<tag k="natural" v="valley" />
		<tag k="place" v="locality" />
		<tag k="ssr:stedsnr" v="684457" />
	</node>
	<node id="-18556" lat="66.5097083292" lon="13.4125694498">
		<tag k="name" v="Langvassheia" />
		<tag k="natural" v="hill" />
		<tag k="place" v="locality" />
		<tag k="ssr:stedsnr" v="684389" />
	</node>
	<node id="-18553" lat="66.5085250015" lon="13.5971000045">
		<tag k="fixme" v="consider natural=peak for the most distinct mountains in the district" />
		<tag k="name" v="Sørfjellet" />
		<tag k="natural" v="hill" />
		<tag k="place" v="locality" />
		<tag k="ssr:stedsnr" v="684383" />
	</node>
	<node id="-18552" lat="66.5035694435" lon="13.4473833359">
		<tag k="name" v="Sleådalen" />
		<tag k="natural" v="valley" />
		<tag k="place" v="locality" />
		<tag k="ssr:stedsnr" v="684380" />
	</node>
	<node id="-18550" lat="66.6106861157" lon="13.4401999896">
		<tag k="name" v="Sørdalen" />
		<tag k="natural" v="valley" />
		<tag k="place" v="locality" />
		<tag k="ssr:stedsnr" v="684366" />
	</node>
	<node id="-18548" lat="66.6241861123" lon="13.6066305475">
		<tag k="fixme" v="consider natural=peak for the most distinct mountains in the district" />
		<tag k="name" v="Kvannlikrona" />
		<tag k="natural" v="hill" />
		<tag k="place" v="locality" />
		<tag k="ssr:stedsnr" v="684358" />
	</node>
	<node id="-18547" lat="66.6156749985" lon="13.6743138934">
		<tag k="name" v="Bjørnstigen" />
		<tag k="place" v="locality" />
		<tag k="ssr:stedsnr" v="684348" />
	</node>
	<node id="-18546" lat="66.7008027813" lon="13.4999694343">
		<tag k="fixme" v="consider natural=peak for the most distinct mountains in the district" />
		<tag k="name" v="Rismålstinden" />
		<tag k="natural" v="hill" />
		<tag k="place" v="locality" />
		<tag k="ssr:stedsnr" v="684197" />
	</node>
	<node id="-18545" lat="66.7299777751" lon="13.2648305563">
		<tag k="alt_name" v="Korshaugen" />
		<tag k="name" v="Korshågen" />
		<tag k="natural" v="hill" />
		<tag k="place" v="locality" />
		<tag k="ssr:stedsnr" v="684171" />
	</node>
	<node id="-18540" lat="66.6274861121" lon="13.0439833428">
		<tag k="name" v="Rismålshaugen" />
		<tag k="natural" v="hill" />
		<tag k="place" v="locality" />
		<tag k="ssr:stedsnr" v="683935" />
	</node>
	<node id="-18527" lat="66.7257027786" lon="12.5609027728">
		<tag k="alt_name" v="Håværrauva" />
		<tag k="name" v="Håværræva" />
		<tag k="natural" v="hill" />
		<tag k="place" v="locality" />
		<tag k="ssr:stedsnr" v="683714" />
	</node>
	<node id="-18507" lat="66.635858332" lon="13.4858833312">
		<tag k="name" v="Kjettskardet" />
		<tag k="natural" v="valley" />
		<tag k="place" v="locality" />
		<tag k="ssr:stedsnr" v="683264" />
	</node>
	<node id="-18505" lat="66.7197555531" lon="13.2575833279">
		<tag k="alt_name" v="Storgjedden" />
		<tag k="fixme" v="consider natural=peak for the most distinct mountains in the district" />
		<tag k="name" v="Storjedden" />
		<tag k="natural" v="hill" />
		<tag k="place" v="locality" />
		<tag k="ssr:stedsnr" v="683138" />
	</node>
	<node id="-18503" lat="66.7254749981" lon="13.341763885">
		<tag k="name" v="Verjedalen" />
		<tag k="natural" v="valley" />
		<tag k="place" v="locality" />
		<tag k="ssr:stedsnr" v="683116" />
	</node>
	<node id="-18497" lat="66.5825972187" lon="12.9042999928">
		<tag k="alt_name" v="Ramnfloget;Ravnfloget" />
		<tag k="name" v="Storramnflauget" />
		<tag k="natural" v="hill" />
		<tag k="place" v="locality" />
		<tag k="ssr:stedsnr" v="683045" />
	</node>
	<node id="-18492" lat="66.6602138849" lon="13.1823277879">
		<tag k="alt_name" v="Raudraphågen" />
		<tag k="fixme" v="consider natural=peak for the most distinct mountains in the district" />
		<tag k="name" v="Raudrapet" />
		<tag k="natural" v="hill" />
		<tag k="place" v="locality" />
		<tag k="ssr:stedsnr" v="501900" />
	</node>
	<node id="-18466" lat="66.5064249964" lon="13.330486101">
		<tag k="alt_name" v="Bjørklia" />
		<tag k="name" v="Bjørkli" />
		<tag k="natural" v="slope" />
		<tag k="place" v="locality" />
		<tag k="ssr:stedsnr" v="469515" />
	</node>
	<node id="-18465" lat="66.5108611071" lon="13.3209749966">
		<tag k="name" v="Hattahågen" />
		<tag k="natural" v="hill" />
		<tag k="place" v="locality" />
		<tag k="ssr:stedsnr" v="469510" />
	</node>
	<node id="-18464" lat="66.5099722189" lon="13.322094455">
		<tag k="name" v="Staulen" />
		<tag k="natural" v="slope" />
		<tag k="place" v="locality" />
		<tag k="ssr:stedsnr" v="469508" />
	</node>
	<node id="-18463" lat="66.6150222266" lon="13.5313083283">
		<tag k="name" v="Austerdalsbotnet" />
		<tag k="natural" v="valley" />
		<tag k="place" v="locality" />
		<tag k="ssr:stedsnr" v="469622" />
	</node>
	<node id="-18462" lat="66.5138277804" lon="13.7158055493">
		<tag k="name" v="Storvassaven" />
		<tag k="place" v="locality" />
		<tag k="ssr:stedsnr" v="469617" />
	</node>
	<node id="-18461" lat="66.5128972266" lon="13.6885916642">
		<tag k="name" v="Innermohågen" />
		<tag k="natural" v="hill" />
		<tag k="place" v="locality" />
		<tag k="ssr:stedsnr" v="469616" />
	</node>
	<node id="-18459" lat="66.5068055531" lon="13.6891749993">
		<tag k="name" v="Vasshauet" />
		<tag k="natural" v="hill" />
		<tag k="place" v="locality" />
		<tag k="ssr:stedsnr" v="469606" />
	</node>
	<node id="-18458" lat="66.5138611141" lon="13.7801388965">
		<tag k="name" v="Evendalen" />
		<tag k="natural" v="valley" />
		<tag k="place" v="locality" />
		<tag k="ssr:stedsnr" v="469603" />
	</node>
	<node id="-18457" lat="66.5407361109" lon="12.832041663">
		<tag k="name" v="Svindalshågan" />
		<tag k="natural" v="hill" />
		<tag k="place" v="locality" />
		<tag k="ssr:stedsnr" v="469010" />
	</node>
	<node id="-18453" lat="66.7627166702" lon="12.4850916689">
		<tag k="name" v="Ressmålhaugen" />
		<tag k="natural" v="hill" />
		<tag k="place" v="locality" />
		<tag k="ssr:stedsnr" v="467219" />
	</node>
	<node id="-18436" lat="66.7098805597" lon="13.4125111131">
		<tag k="name" v="Vesterlia" />
		<tag k="natural" v="slope" />
		<tag k="place" v="locality" />
		<tag k="ssr:stedsnr" v="409863" />
	</node>
	<node id="-18435" lat="66.6762472254" lon="13.5004444474">
		<tag k="name" v="Hestberget" />
		<tag k="natural" v="cliff" />
		<tag k="ssr:stedsnr" v="409945" />
	</node>
</osm>
