<?xml version="1.0" encoding="UTF-8"?>
<osm version="0.6" generator="osmapis">
	<node lat="66.59007932800758" lon="12.621553017560986" id="-16895">
		<tag k="aeroway" v="airstrip" />
		<tag k="alt_name" v="Hellstøen" />
		<tag k="name" v="Hellstøa" />
		<tag k="ssr:stedsnr" v="16801" />
	</node>
	<node lat="66.77060833356623" lon="12.469811102001424" id="-16904">
		<tag k="name" v="Sørkåsa" />
		<tag k="place" v="locality" />
		<tag k="ssr:stedsnr" v="25726" />
	</node>
	<node lat="66.76926944687759" lon="12.432483324322172" id="-16905">
		<tag k="name" v="Bremholmleia" />
		<tag k="place" v="locality" />
		<tag k="ssr:stedsnr" v="25727" />
	</node>
	<node lat="66.76283571418544" lon="12.435968387146362" id="-17051">
		<tag k="name" v="Aurflesleia" />
		<tag k="place" v="locality" />
		<tag k="ssr:stedsnr" v="146712" />
	</node>
	<node lat="66.7773444457412" lon="12.46395555969191" id="-17447">
		<tag k="name" v="Nordkåsa" />
		<tag k="place" v="locality" />
		<tag k="ssr:stedsnr" v="388697" />
	</node>
	<node lat="66.62391666812043" lon="13.315919438792301" id="-17475">
		<tag k="fixme" v="verify maritime location" />
		<tag k="mooring" v="yes" />
		<tag k="name" v="Kristofferstøa" />
		<tag k="place" v="locality" />
		<tag k="ssr:stedsnr" v="408346" />
	</node>
	<node lat="66.73065000058962" lon="12.44408889603173" id="-17619">
		<tag k="name" v="Nordinnmykøykåsa" />
		<tag k="place" v="locality" />
		<tag k="ssr:stedsnr" v="510758" />
	</node>
	<node lat="66.62933890782153" lon="13.015241104144959" id="-17659">
		<tag k="aeroway" v="airstrip" />
		<tag k="name" v="Gjerdøysjyen" />
		<tag k="ssr:stedsnr" v="683932" />
	</node>
	<node lat="66.51252499580421" lon="13.298483332387171" id="-17703">
		<tag k="highway" v="path" />
		<tag k="name" v="Steinvegen" />
		<tag k="ssr:stedsnr" v="530502" />
	</node>
	<node lat="66.62976593846714" lon="13.404927657840071" id="-17728">
		<tag k="layer" v="-1" />
		<tag k="name" v="Kistatunnelen" />
		<tag k="ssr:stedsnr" v="590265" />
		<tag k="tunnel" v="yes" />
	</node>
	<node lat="66.58678055094249" lon="12.632255565687784" id="-17800">
		<tag k="man_made" v="cairn" />
		<tag k="name" v="Varden" />
		<tag k="place" v="locality" />
		<tag k="ssr:stedsnr" v="650209" />
	</node>
	<node lat="66.58157500194216" lon="12.658094452685285" id="-17802">
		<tag k="highway" v="path" />
		<tag k="name" v="Borkvegen" />
		<tag k="ssr:stedsnr" v="650214" />
	</node>
	<node lat="66.72004166590631" lon="12.41916666425372" id="-17844">
		<tag k="name" v="Sørinnmykøykåsa" />
		<tag k="place" v="locality" />
		<tag k="ssr:stedsnr" v="683711" />
	</node>
	<node lat="66.50865555748238" lon="13.321797222444966" id="-17898">
		<tag k="highway" v="path" />
		<tag k="name" v="Stian" />
		<tag k="ssr:stedsnr" v="894517" />
	</node>
	<node lat="66.64597221798495" lon="13.560799995298437" id="-18234">
		<tag k="landuse" v="industrial" />
		<tag k="name" v="Reppa kraftstasjon" />
		<tag k="power" v="plant" />
		<tag k="ssr:stedsnr" v="955550" />
	</node>
	<node lat="66.61254920869722" lon="12.750569746395566" id="-18309">
		<tag k="name" v="Risøyhamn" />
		<tag k="old_name" v="Risøyhavn" />
		<tag k="place" v="locality" />
		<tag k="ssr:stedsnr" v="20619" />
	</node>
	<node lat="66.59180555675958" lon="12.654797231340138" id="-18330">
		<tag k="fixme" v="verify maritime location" />
		<tag k="mooring" v="yes" />
		<tag k="name" v="Grimslandsjyen" />
		<tag k="place" v="locality" />
		<tag k="ssr:stedsnr" v="44253" />
	</node>
	<node lat="66.80628333724657" lon="12.549627778192326" id="-18420">
		<tag k="name" v="Skjærvøybåkåsa" />
		<tag k="place" v="locality" />
		<tag k="ssr:stedsnr" v="86869" />
	</node>
	<node lat="66.59398610861231" lon="12.647755559999162" id="-18524">
		<tag k="fixme" v="verify maritime location" />
		<tag k="mooring" v="yes" />
		<tag k="name" v="Nordsjyen" />
		<tag k="place" v="locality" />
		<tag k="ssr:stedsnr" v="165199" />
	</node>
	<node lat="66.49610277415091" lon="13.730819451422336" id="-18537">
		<tag k="highway" v="path" />
		<tag k="name" v="Brattbakkan" />
		<tag k="ssr:stedsnr" v="165551" />
	</node>
	<node lat="66.4803499996726" lon="13.501958326353378" id="-18821">
		<tag k="highway" v="path" />
		<tag k="name" v="Brattstien" />
		<tag k="ssr:stedsnr" v="348441" />
	</node>
	<node lat="66.62221274798415" lon="13.459088222357359" id="-19027">
		<tag k="alt_name" v="Straumdal" />
		<tag k="layer" v="-1" />
		<tag k="name" v="Straumdalstunnelen" />
		<tag k="ssr:stedsnr" v="510140" />
		<tag k="tunnel" v="yes" />
	</node>
	<node lat="66.6721861102401" lon="13.55532223045033" id="-19191">
		<tag k="highway" v="path" />
		<tag k="name" v="Akselvegen" />
		<tag k="ssr:stedsnr" v="590532" />
	</node>
	<node lat="66.69011944449186" lon="13.473594446209754" id="-19203">
		<tag k="fixme" v="consider highway=path" />
		<tag k="highway" v="track" />
		<tag k="name" v="Smålivegen" />
		<tag k="ssr:stedsnr" v="590886" />
	</node>
	<node lat="66.5581388904238" lon="12.834199999513634" id="-19278">
		<tag k="fixme" v="verify maritime location" />
		<tag k="mooring" v="yes" />
		<tag k="name" v="Selsøysjyen" />
		<tag k="place" v="locality" />
		<tag k="ssr:stedsnr" v="650015" />
	</node>
	<node lat="66.75770555472182" lon="12.42750834084931" id="-19713">
		<tag k="name" v="Sørkåsa" />
		<tag k="place" v="locality" />
		<tag k="ssr:stedsnr" v="874741" />
	</node>
	<node lat="66.45830219816703" lon="13.207369056761628" id="-19916">
		<tag k="name" v="Eidhågen" />
		<tag k="railway" v="halt" />
		<tag k="ssr:stedsnr" v="1080679" />
		<tag k="train" v="yes" />
	</node>
</osm>
