<?xml version="1.0" encoding="UTF-8"?>
<osm generator="osmapis" version="0.6">
	<node id="-151551" lat="66.5454472259" lon="12.8445472293">
		<tag k="name" v="Nildeplassen" />
		<tag k="place" v="locality" />
		<tag k="ssr:stedsnr" v="287011" />
	</node>
	<node id="-151466" lat="66.4573722194" lon="13.3170361126">
		<tag k="alt_name" v="Vassvik" />
		<tag k="fixme" v="consider place=hamlet" />
		<tag k="name" v="Vassvika" />
		<tag k="place" v="village" />
		<tag k="ssr:stedsnr" v="441686" />
	</node>
	<node id="-151546" lat="66.7033722255" lon="13.2867555673">
		<tag k="name" v="Svenolsavika" />
		<tag k="place" v="isolated_dwelling" />
		<tag k="ssr:stedsnr" v="268405" />
	</node>
	<node id="-152567" lat="66.691708336" lon="13.3419416671">
		<tag k="name" v="Makkaurholmen" />
		<tag k="place" v="isolated_dwelling" />
		<tag k="ssr:stedsnr" v="25431" />
	</node>
	<node id="-152052" lat="66.6532194453" lon="13.5100416682">
		<tag k="name" v="Bakkeland" />
		<tag k="place" v="farm" />
		<tag k="ssr:stedsnr" v="712541" />
	</node>
	<node id="-151539" lat="66.5846944409" lon="12.6578416642">
		<tag k="name" v="Fjellstad" />
		<tag k="place" v="farm" />
		<tag k="ssr:stedsnr" v="259820" />
	</node>
	<node id="-152556" lat="66.6156583379" lon="13.0092999938">
		<tag k="alt_name" v="Midtigården" />
		<tag k="name" v="Midtgården" />
		<tag k="place" v="farm" />
		<tag k="ssr:stedsnr" v="16970" />
	</node>
	<node id="-151531" lat="66.7002583318" lon="13.4062888976">
		<tag k="name" v="Nyvoll" />
		<tag k="place" v="farm" />
		<tag k="ssr:stedsnr" v="259179" />
	</node>
	<node id="-152035" lat="66.4874611085" lon="13.2193250062">
		<tag k="name" v="Engseth" />
		<tag k="place" v="farm" />
		<tag k="ssr:stedsnr" v="712364" />
	</node>
	<node id="-152028" lat="66.4822694408" lon="13.2766361196">
		<tag k="name" v="Sør-Strand" />
		<tag k="place" v="farm" />
		<tag k="ssr:stedsnr" v="712053" />
	</node>
	<node id="-151290" lat="66.6499121978" lon="13.4005593588">
		<tag k="alt_name" v="Blok" />
		<tag k="fixme" v="consider place=hamlet" />
		<tag k="name" v="Blokk" />
		<tag k="place" v="farm" />
		<tag k="ssr:stedsnr" v="137264" />
	</node>
	<node id="-151801" lat="66.6105999963" lon="12.9902083386">
		<tag k="loc_name" v="Øya" />
		<tag k="name" v="Øyhammaren" />
		<tag k="place" v="farm" />
		<tag k="ssr:stedsnr" v="511899" />
	</node>
	<node id="-151508" lat="66.7325388872" lon="13.2942000044">
		<tag k="name" v="Gognstadvika" />
		<tag k="place" v="isolated_dwelling" />
		<tag k="ssr:stedsnr" v="450400" />
	</node>
	<node id="-152019" lat="66.7183583376" lon="13.2558361145">
		<tag k="name" v="Fagerheim" />
		<tag k="place" v="farm" />
		<tag k="ssr:stedsnr" v="711877" />
	</node>
	<node id="-152010" lat="66.5008111119" lon="13.3040416741">
		<tag k="name" v="Nordrabben" />
		<tag k="place" v="quarter" />
		<tag k="ssr:stedsnr" v="590505" />
	</node>
	<node id="-151543" lat="66.5616111086" lon="13.4793166551">
		<tag k="name" v="Tårnes" />
		<tag k="place" v="isolated_dwelling" />
		<tag k="ssr:stedsnr" v="458054" />
	</node>
	<node id="-152518" lat="66.6894111091" lon="13.4294249924">
		<tag k="name" v="Kleften" />
		<tag k="place" v="farm" />
		<tag k="ssr:stedsnr" v="16193" />
	</node>
	<node id="-152517" lat="66.5443611077" lon="13.6318833337">
		<tag k="alt_name" v="Ramnskardet;Ravnskardet" />
		<tag k="name" v="Ramnskaret" />
		<tag k="place" v="locality" />
		<tag k="ssr:stedsnr" v="16383" />
	</node>
	<node id="-152513" lat="66.530749996" lon="13.6066027685">
		<tag k="alt_name" v="Kilhavn" />
		<tag k="name" v="Kilhamn" />
		<tag k="place" v="locality" />
		<tag k="ssr:stedsnr" v="16373" />
	</node>
	<node id="-152509" lat="66.5497895403" lon="12.8440166808">
		<tag k="fixme" v="consider place=hamlet" />
		<tag k="name" v="Selsøya" />
		<tag k="place" v="farm" />
		<tag k="ssr:stedsnr" v="16087" />
	</node>
	<node id="-152506" lat="66.6968444399" lon="13.3028583424">
		<tag k="alt_name" v="Hammarvoll" />
		<tag k="name" v="Hammervoll" />
		<tag k="place" v="farm" />
		<tag k="ssr:stedsnr" v="16175" />
	</node>
	<node id="-152505" lat="66.6967167596" lon="13.3172479769">
		<tag k="alt_name" v="Segelfore" />
		<tag k="fixme" v="consider place=hamlet" />
		<tag k="name" v="Seglfor" />
		<tag k="place" v="farm" />
		<tag k="ssr:stedsnr" v="16174" />
	</node>
	<node id="-152504" lat="66.6948111071" lon="13.3920166692">
		<tag k="alt_name" v="Bruås" />
		<tag k="name" v="Bruåsen" />
		<tag k="place" v="farm" />
		<tag k="ssr:stedsnr" v="16171" />
	</node>
	<node id="-152503" lat="66.6903861122" lon="13.4092416756">
		<tag k="name" v="Staulen" />
		<tag k="place" v="farm" />
		<tag k="ssr:stedsnr" v="16168" />
	</node>
	<node id="-152501" lat="66.5072583365" lon="13.2160638905">
		<tag k="name" v="Hilstad" />
		<tag k="place" v="farm" />
		<tag k="ssr:stedsnr" v="16149" />
	</node>
	<node id="-152499" lat="66.579490681" lon="13.0474007507">
		<tag k="name" v="Håkaringen" />
		<tag k="place" v="farm" />
		<tag k="ssr:stedsnr" v="1072362" />
	</node>
	<node id="-152498" lat="66.5787645033" lon="13.0471561059">
		<tag k="name" v="Håkaringen" />
		<tag k="place" v="farm" />
		<tag k="ssr:stedsnr" v="1072359" />
	</node>
	<node id="-152497" lat="66.5796744986" lon="13.0478938175">
		<tag k="fixme" v="consider place=hamlet" />
		<tag k="name" v="Håkaringen" />
		<tag k="place" v="farm" />
		<tag k="ssr:stedsnr" v="1072358" />
	</node>
	<node id="-152495" lat="66.6144317" lon="13.0149958152">
		<tag k="fixme" v="consider place=hamlet" />
		<tag k="name" v="Sør-Gjerdøya" />
		<tag k="place" v="farm" />
		<tag k="ssr:stedsnr" v="1072311" />
	</node>
	<node id="-151978" lat="66.6131143728" lon="12.9927880356">
		<tag k="alt_name" v="Gjerdøy" />
		<tag k="name" v="Gjerøy" />
		<tag k="place" v="farm" />
		<tag k="ssr:stedsnr" v="571318" />
	</node>
	<node id="-151111" lat="66.558269449" lon="12.843880549">
		<tag k="name" v="Kleiva" />
		<tag k="place" v="farm" />
		<tag k="ssr:stedsnr" v="226028" />
	</node>
	<node id="-151462" lat="66.4717138223" lon="13.3819628298">
		<tag k="fixme" v="consider place=hamlet" />
		<tag k="name" v="Kvalvika" />
		<tag k="place" v="farm" />
		<tag k="ssr:stedsnr" v="441676" />
	</node>
	<node id="-152484" lat="66.4930138874" lon="13.2941111033">
		<tag k="name" v="Trudvang" />
		<tag k="place" v="farm" />
		<tag k="ssr:stedsnr" v="955503" />
	</node>
	<node id="-151622" lat="66.5859138916" lon="12.6500611155">
		<tag k="name" v="Fjellheim" />
		<tag k="place" v="farm" />
		<tag k="ssr:stedsnr" v="469232" />
	</node>
	<node id="-151970" lat="66.5461602758" lon="13.4662356535">
		<tag k="name" v="Hyttan" />
		<tag k="place" v="locality" />
		<tag k="ssr:stedsnr" v="562405" />
	</node>
	<node id="-151969" lat="66.6236416706" lon="13.257877773">
		<tag k="name" v="Oddvang" />
		<tag k="place" v="farm" />
		<tag k="ssr:stedsnr" v="562237" />
	</node>
	<node id="-151968" lat="66.6320194429" lon="13.3775138801">
		<tag k="alt_name" v="Straumshaugen" />
		<tag k="name" v="Straumshaug" />
		<tag k="place" v="farm" />
		<tag k="ssr:stedsnr" v="562234" />
	</node>
	<node id="-151449" lat="66.5609555594" lon="13.4768555646">
		<tag k="name" v="Laupbakken" />
		<tag k="place" v="isolated_dwelling" />
		<tag k="ssr:stedsnr" v="441430" />
	</node>
	<node id="-151446" lat="66.5128166669" lon="13.6756861181">
		<tag k="name" v="Åsen" />
		<tag k="place" v="farm" />
		<tag k="ssr:stedsnr" v="441383" />
	</node>
	<node id="-151443" lat="66.598905559" lon="13.2475749978">
		<tag k="alt_name" v="Buvika" />
		<tag k="name" v="Buvik" />
		<tag k="place" v="farm" />
		<tag k="ssr:stedsnr" v="441355" />
	</node>
	<node id="-152466" lat="66.6347749997" lon="13.3310694541">
		<tag k="alt_name" v="Rotnes" />
		<tag k="name" v="Rotneset" />
		<tag k="place" v="farm" />
		<tag k="ssr:stedsnr" v="866219" />
	</node>
	<node id="-152465" lat="66.705563888" lon="13.2940500047">
		<tag k="name" v="Vågengskardet" />
		<tag k="place" v="farm" />
		<tag k="ssr:stedsnr" v="866206" />
	</node>
	<node id="-152462" lat="66.6873583295" lon="13.4623388882">
		<tag k="name" v="Solheim" />
		<tag k="place" v="farm" />
		<tag k="ssr:stedsnr" v="834876" />
	</node>
	<node id="-152461" lat="66.7073277761" lon="13.3327750025">
		<tag k="name" v="Solvang" />
		<tag k="place" v="farm" />
		<tag k="ssr:stedsnr" v="834869" />
	</node>
	<node id="-152456" lat="66.6722833364" lon="13.5246722245">
		<tag k="name" v="Seljenes" />
		<tag k="place" v="farm" />
		<tag k="ssr:stedsnr" v="834516" />
	</node>
	<node id="-151430" lat="66.5417555601" lon="13.0751944405">
		<tag k="name" v="Langmo" />
		<tag k="place" v="farm" />
		<tag k="ssr:stedsnr" v="441118" />
	</node>
	<node id="-151940" lat="66.7016305598" lon="13.2996111075">
		<tag k="name" v="Svenolsavika" />
		<tag k="place" v="hamlet" />
		<tag k="ssr:stedsnr" v="529848" />
	</node>
	<node id="-152447" lat="66.4844638913" lon="13.2776972127">
		<tag k="name" v="Nord-Strand" />
		<tag k="place" v="farm" />
		<tag k="ssr:stedsnr" v="834066" />
	</node>
	<node id="-152446" lat="66.695955559" lon="13.4257416771">
		<tag k="name" v="Gjerde" />
		<tag k="place" v="farm" />
		<tag k="ssr:stedsnr" v="833959" />
	</node>
	<node id="-152444" lat="66.6949583339" lon="13.3955055542">
		<tag k="name" v="Graven" />
		<tag k="place" v="farm" />
		<tag k="ssr:stedsnr" v="833954" />
	</node>
	<node id="-151419" lat="66.5689640747" lon="13.1936347455">
		<tag k="fixme" v="consider place=hamlet" />
		<tag k="name" v="Telnes" />
		<tag k="place" v="farm" />
		<tag k="ssr:stedsnr" v="441016" />
	</node>
	<node id="-151928" lat="66.5460527761" lon="12.8169444458">
		<tag k="name" v="Farstad" />
		<tag k="place" v="isolated_dwelling" />
		<tag k="ssr:stedsnr" v="529006" />
	</node>
	<node id="-151927" lat="66.5916666656" lon="12.6583333255">
		<tag k="name" v="Fagerheim" />
		<tag k="place" v="farm" />
		<tag k="ssr:stedsnr" v="688585" />
	</node>
	<node id="-151926" lat="66.6323162896" lon="13.3405134885">
		<tag k="name" v="Birkelund" />
		<tag k="place" v="farm" />
		<tag k="ssr:stedsnr" v="688571" />
	</node>
	<node id="-151412" lat="66.5792901693" lon="13.0218744604">
		<tag k="alt_name" v="Breidvika;Breiviken" />
		<tag k="name" v="Breivika" />
		<tag k="place" v="farm" />
		<tag k="ssr:stedsnr" v="440086" />
	</node>
	<node id="-151411" lat="66.5834861089" lon="12.9345138992">
		<tag k="name" v="Sandåkeren" />
		<tag k="old_name" v="Sandåker;Sandaker" />
		<tag k="place" v="farm" />
		<tag k="ssr:stedsnr" v="440081" />
	</node>
	<node id="-151404" lat="66.7178500009" lon="13.2163000101">
		<tag k="name" v="Nordgården" />
		<tag k="place" v="farm" />
		<tag k="ssr:stedsnr" v="198843" />
	</node>
	<node id="-151442" lat="66.600469448" lon="13.5416805641">
		<tag k="name" v="Småslåttan" />
		<tag k="place" v="isolated_dwelling" />
		<tag k="ssr:stedsnr" v="441330" />
	</node>
	<node id="-151913" lat="66.5139805523" lon="13.2914083357">
		<tag k="alt_name" v="Fosslund" />
		<tag k="name" v="Forslund" />
		<tag k="place" v="farm" />
		<tag k="ssr:stedsnr" v="684402" />
	</node>
	<node id="-151270" lat="66.7178861142" lon="13.2258055655">
		<tag k="alt_name" v="Kokkvika" />
		<tag k="name" v="Kokkvik" />
		<tag k="place" v="farm" />
		<tag k="ssr:stedsnr" v="137110" />
	</node>
	<node id="-151394" lat="66.5393860217" lon="13.3513234432">
		<tag k="name" v="Lines" />
		<tag k="place" v="locality" />
		<tag k="ssr:stedsnr" v="198407" />
	</node>
	<node id="-151905" lat="66.6172638861" lon="13.2982194549">
		<tag k="alt_name" v="Tømmerbakken" />
		<tag k="name" v="Tømmerbakk" />
		<tag k="place" v="farm" />
		<tag k="ssr:stedsnr" v="684364" />
	</node>
	<node id="-151899" lat="66.6387027747" lon="13.0390277837">
		<tag k="name" v="Esvåg" />
		<tag k="place" v="farm" />
		<tag k="ssr:stedsnr" v="683951" />
	</node>
	<node id="-151386" lat="66.5856000038" lon="12.9353000007">
		<tag k="fixme" v="multiple name tags, choose one and add the other to alt_name" />
		<tag k="name" v="Nedre Sundøy;Nergården" />
		<tag k="place" v="farm" />
		<tag k="ssr:stedsnr" v="198033" />
	</node>
	<node id="-151423" lat="66.5992654582" lon="13.0134131953">
		<tag k="alt_name" v="Gjerdøyhavn;Gjerøyhavn" />
		<tag k="fixme" v="consider place=hamlet" />
		<tag k="name" v="Gjerdøyhamn" />
		<tag k="place" v="farm" />
		<tag k="ssr:stedsnr" v="441033" />
	</node>
	<node id="-151895" lat="66.6297703071" lon="13.0170929125">
		<tag k="alt_name" v="Gjærøysjyen" />
		<tag k="name" v="Gjerdøysjøen" />
		<tag k="place" v="locality" />
		<tag k="ssr:stedsnr" v="683932" />
	</node>
	<node id="-151894" lat="66.6590916626" lon="13.1867722171">
		<tag k="alt_name" v="Åkvika" />
		<tag k="name" v="Åkvik" />
		<tag k="place" v="farm" />
		<tag k="ssr:stedsnr" v="683898" />
	</node>
	<node id="-152403" lat="66.517652781" lon="13.2783000019">
		<tag k="alt_name" v="Almlia" />
		<tag k="name" v="Almli" />
		<tag k="place" v="isolated_dwelling" />
		<tag k="ssr:stedsnr" v="805417" />
	</node>
	<node id="-151378" lat="66.6934972188" lon="13.3865055644">
		<tag k="name" v="Elvegård" />
		<tag k="place" v="farm" />
		<tag k="ssr:stedsnr" v="288939" />
	</node>
	<node id="-151167" lat="66.6534027742" lon="13.5816749981">
		<tag k="name" v="Fjellmo" />
		<tag k="place" v="farm" />
		<tag k="ssr:stedsnr" v="227543" />
	</node>
	<node id="-151887" lat="66.6157472229" lon="13.0092305462">
		<tag k="alt_name" v="Sørgården" />
		<tag k="name" v="Midtgården" />
		<tag k="place" v="farm" />
		<tag k="ssr:stedsnr" v="683979" />
	</node>
	<node id="-152398" lat="66.6708719088" lon="13.5376867771">
		<tag k="fixme" v="consider place=hamlet" />
		<tag k="name" v="Breivika" />
		<tag k="place" v="farm" />
		<tag k="ssr:stedsnr" v="805168" />
	</node>
	<node id="-152395" lat="66.6375416645" lon="13.265211104">
		<tag k="alt_name" v="Lauknes" />
		<tag k="name" v="Laukneset" />
		<tag k="place" v="farm" />
		<tag k="ssr:stedsnr" v="805241" />
	</node>
	<node id="-152391" lat="66.5597083375" lon="12.8611083304">
		<tag k="alt_name" v="Vollen" />
		<tag k="name" v="Slettvoll" />
		<tag k="place" v="farm" />
		<tag k="ssr:stedsnr" v="805021" />
	</node>
	<node id="-151877" lat="66.4652611113" lon="13.2341027859">
		<tag k="fixme" v="multiple name tags, choose one and add the other to alt_name" />
		<tag k="name" v="Haugvik;Vikland" />
		<tag k="place" v="farm" />
		<tag k="ssr:stedsnr" v="683640" />
	</node>
	<node id="-152386" lat="66.5153611087" lon="13.6767305582">
		<tag k="fixme" v="multiple name tags, choose one and add the other to alt_name; consider place=hamlet" />
		<tag k="name" v="Melfjordbotn;Melfjorden" />
		<tag k="place" v="village" />
		<tag k="ssr:stedsnr" v="927416" />
	</node>
	<node id="-151179" lat="66.6925249988" lon="13.4055416706">
		<tag k="name" v="Nedre Kila" />
		<tag k="place" v="farm" />
		<tag k="ssr:stedsnr" v="40114" />
	</node>
	<node id="-151862" lat="66.6928711774" lon="13.3724443115">
		<tag k="alt_name" v="Esvika" />
		<tag k="name" v="Esvik" />
		<tag k="place" v="farm" />
		<tag k="ssr:stedsnr" v="683184" />
	</node>
	<node id="-151348" lat="66.6663333366" lon="13.0637777738">
		<tag k="name" v="Korsvollen" />
		<tag k="place" v="farm" />
		<tag k="ssr:stedsnr" v="287187" />
	</node>
	<node id="-151858" lat="66.7237027738" lon="13.218869433">
		<tag k="name" v="Nordvik" />
		<tag k="place" v="farm" />
		<tag k="ssr:stedsnr" v="683115" />
	</node>
	<node id="-152879" lat="66.6386333375" lon="13.0390805556">
		<tag k="name" v="Einmo" />
		<tag k="place" v="farm" />
		<tag k="ssr:stedsnr" v="165142" />
	</node>
	<node id="-152363" lat="66.5836055538" lon="12.6793750067">
		<tag k="name" v="Sandvika" />
		<tag k="place" v="farm" />
		<tag k="ssr:stedsnr" v="926801" />
	</node>
	<node id="-152362" lat="66.5942386523" lon="12.6424292126">
		<tag k="alt_name" v="Dyraker" />
		<tag k="name" v="Dyrekra" />
		<tag k="place" v="farm" />
		<tag k="ssr:stedsnr" v="926797" />
	</node>
	<node id="-151849" lat="66.6641333357" lon="13.253069435">
		<tag k="alt_name" v="Slettbakken" />
		<tag k="name" v="Slettbakkan" />
		<tag k="place" v="isolated_dwelling" />
		<tag k="ssr:stedsnr" v="502275" />
	</node>
	<node id="-152865" lat="66.6624638907" lon="13.1880555666">
		<tag k="name" v="Nord-Åkvik" />
		<tag k="place" v="locality" />
		<tag k="ssr:stedsnr" v="165169" />
	</node>
	<node id="-152863" lat="66.5499611134" lon="12.8458972301">
		<tag k="name" v="Selsøygården" />
		<tag k="place" v="farm" />
		<tag k="ssr:stedsnr" v="165031" />
	</node>
	<node id="-152348" lat="66.4743555562" lon="13.2855055545">
		<tag k="alt_name" v="Fjellenget" />
		<tag k="name" v="Fjelleng" />
		<tag k="place" v="farm" />
		<tag k="ssr:stedsnr" v="926657" />
	</node>
	<node id="-151834" lat="66.6647338895" lon="13.3660042526">
		<tag k="fixme" v="consider place=hamlet" />
		<tag k="name" v="Kvalvika" />
		<tag k="place" v="farm" />
		<tag k="ssr:stedsnr" v="501283" />
	</node>
	<node id="-152856" lat="66.5168611097" lon="13.6578833269">
		<tag k="name" v="Bjørkneset" />
		<tag k="place" v="neighbourhood" />
		<tag k="ssr:stedsnr" v="162091" />
	</node>
	<node id="-151428" lat="66.549611114" lon="12.8495055603">
		<tag k="alt_name" v="Grønvoll" />
		<tag k="name" v="Grønnvoll" />
		<tag k="place" v="farm" />
		<tag k="ssr:stedsnr" v="441101" />
	</node>
	<node id="-151830" lat="66.6480611073" lon="13.5687111215">
		<tag k="name" v="Elverum" />
		<tag k="place" v="farm" />
		<tag k="ssr:stedsnr" v="501258" />
	</node>
	<node id="-152853" lat="66.6423176558" lon="13.35595158">
		<tag k="fixme" v="consider place=hamlet" />
		<tag k="name" v="Eidvik" />
		<tag k="place" v="farm" />
		<tag k="ssr:stedsnr" v="146399" />
	</node>
	<node id="-152852" lat="66.6605638855" lon="13.4681138892">
		<tag k="name" v="Møllervoll" />
		<tag k="place" v="farm" />
		<tag k="ssr:stedsnr" v="146398" />
	</node>
	<node id="-151309" lat="66.5454277747" lon="12.8214555556">
		<tag k="name" v="Dalmo" />
		<tag k="place" v="isolated_dwelling" />
		<tag k="ssr:stedsnr" v="165002" />
	</node>
	<node id="-152341" lat="66.6257412933" lon="13.4089750924">
		<tag k="alt_name" v="Kisten" />
		<tag k="fixme" v="consider place=hamlet" />
		<tag k="name" v="Kista" />
		<tag k="place" v="farm" />
		<tag k="ssr:stedsnr" v="926350" />
	</node>
	<node id="-152328" lat="66.7137892059" lon="13.2933062999">
		<tag k="fixme" v="consider place=hamlet" />
		<tag k="name" v="Våga" />
		<tag k="place" v="farm" />
		<tag k="ssr:stedsnr" v="926151" />
	</node>
	<node id="-151300" lat="66.5930637849" lon="12.6378500273">
		<tag k="fixme" v="consider place=hamlet" />
		<tag k="name" v="Nordnesøya" />
		<tag k="place" v="farm" />
		<tag k="ssr:stedsnr" v="137786" />
	</node>
	<node id="-151808" lat="66.6908611143" lon="13.4033611127">
		<tag k="name" v="Kilavika" />
		<tag k="place" v="farm" />
		<tag k="ssr:stedsnr" v="465104" />
	</node>
	<node id="-152319" lat="66.5754500044" lon="13.0099833385">
		<tag k="name" v="Skjelstad" />
		<tag k="place" v="farm" />
		<tag k="ssr:stedsnr" v="926013" />
	</node>
	<node id="-152315" lat="66.6847608795" lon="13.4605958327">
		<tag k="alt_name" v="Nedre Tjong" />
		<tag k="fixme" v="consider place=hamlet" />
		<tag k="name" v="Ner-Tjong" />
		<tag k="place" v="farm" />
		<tag k="ssr:stedsnr" v="773872" />
	</node>
	<node id="-152314" lat="66.7026666668" lon="13.4085611051">
		<tag k="name" v="Elvebakken" />
		<tag k="place" v="farm" />
		<tag k="ssr:stedsnr" v="773857" />
	</node>
	<node id="-152313" lat="66.6506749965" lon="13.5645750033">
		<tag k="name" v="Reppasjøen" />
		<tag k="place" v="hamlet" />
		<tag k="ssr:stedsnr" v="773525" />
	</node>
	<node id="-151287" lat="66.731808334" lon="13.2592777709">
		<tag k="name" v="Sleipnessjøen" />
		<tag k="place" v="isolated_dwelling" />
		<tag k="ssr:stedsnr" v="268400" />
	</node>
	<node id="-151798" lat="66.6321833327" lon="13.3661111118">
		<tag k="name" v="Urskog" />
		<tag k="place" v="farm" />
		<tag k="ssr:stedsnr" v="511440" />
	</node>
	<node id="-151796" lat="66.7008083299" lon="13.303280558">
		<tag k="name" v="Tryggestad" />
		<tag k="place" v="isolated_dwelling" />
		<tag k="ssr:stedsnr" v="511411" />
	</node>
	<node id="-152819" lat="66.4679867316" lon="13.2864719195">
		<tag k="alt_name" v="Skivik" />
		<tag k="fixme" v="consider place=hamlet" />
		<tag k="name" v="Skivika" />
		<tag k="place" v="farm" />
		<tag k="ssr:stedsnr" v="137636" />
	</node>
	<node id="-151282" lat="66.5908444459" lon="12.9372388856">
		<tag k="name" v="Krabbvågen" />
		<tag k="place" v="farm" />
		<tag k="ssr:stedsnr" v="137028" />
	</node>
	<node id="-151793" lat="66.6879944481" lon="13.4726222117">
		<tag k="name" v="Fjellheim" />
		<tag k="place" v="farm" />
		<tag k="ssr:stedsnr" v="409872" />
	</node>
	<node id="-151280" lat="66.5631166653" lon="12.8529277802">
		<tag k="alt_name" v="Utneset" />
		<tag k="name" v="Utnes" />
		<tag k="place" v="farm" />
		<tag k="ssr:stedsnr" v="137018" />
	</node>
	<node id="-151279" lat="66.5746638917" lon="13.0627611194">
		<tag k="name" v="Valvikmoen" />
		<tag k="place" v="farm" />
		<tag k="ssr:stedsnr" v="137014" />
	</node>
	<node id="-151790" lat="66.6927555555" lon="13.3840777831">
		<tag k="name" v="Engstad" />
		<tag k="place" v="farm" />
		<tag k="ssr:stedsnr" v="409925" />
	</node>
	<node id="-152301" lat="66.5915083363" lon="12.6421527713">
		<tag k="name" v="Nergården" />
		<tag k="place" v="farm" />
		<tag k="ssr:stedsnr" v="772257" />
	</node>
	<node id="-151788" lat="66.6421472197" lon="13.2813055544">
		<tag k="name" v="Bratland" />
		<tag k="place" v="farm" />
		<tag k="ssr:stedsnr" v="408403" />
	</node>
	<node id="-152299" lat="66.5918000022" lon="12.6411111105">
		<tag k="name" v="Øvergården" />
		<tag k="place" v="farm" />
		<tag k="ssr:stedsnr" v="772255" />
	</node>
	<node id="-151785" lat="66.613925002" lon="13.0127694399">
		<tag k="name" v="Gammelgården" />
		<tag k="place" v="locality" />
		<tag k="ssr:stedsnr" v="408102" />
	</node>
	<node id="-152294" lat="66.5565805541" lon="12.8609055478">
		<tag k="name" v="Sandmoa" />
		<tag k="place" v="farm" />
		<tag k="ssr:stedsnr" v="772069" />
	</node>
	<node id="-151268" lat="66.6446694484" lon="13.2900722298">
		<tag k="name" v="Engabakken" />
		<tag k="place" v="isolated_dwelling" />
		<tag k="ssr:stedsnr" v="267351" />
	</node>
	<node id="-152803" lat="66.6355832075" lon="13.2271047662">
		<tag k="fixme" v="consider place=hamlet" />
		<tag k="name" v="Esjeholmen" />
		<tag k="place" v="farm" />
		<tag k="ssr:stedsnr" v="137238" />
	</node>
	<node id="-152290" lat="66.5913416634" lon="12.93755833">
		<tag k="name" v="Moen" />
		<tag k="place" v="farm" />
		<tag k="ssr:stedsnr" v="772106" />
	</node>
	<node id="-152288" lat="66.694327781" lon="13.4170250034">
		<tag k="alt_name" v="Kila indre" />
		<tag k="name" v="Indre Kila" />
		<tag k="place" v="farm" />
		<tag k="ssr:stedsnr" v="768106" />
	</node>
	<node id="-152799" lat="66.7313613894" lon="13.3092088921">
		<tag k="fixme" v="consider place=hamlet" />
		<tag k="name" v="Seines" />
		<tag k="place" v="farm" />
		<tag k="ssr:stedsnr" v="137100" />
	</node>
	<node id="-151773" lat="66.685633332" lon="13.4504194392">
		<tag k="fixme" v="consider place=hamlet" />
		<tag k="name" v="Tjong" />
		<tag k="place" v="village" />
		<tag k="ssr:stedsnr" v="502199" />
	</node>
	<node id="-151260" lat="66.6685768878" lon="13.2058722281">
		<tag k="alt_name" v="Rønvik" />
		<tag k="fixme" v="consider place=hamlet" />
		<tag k="name" v="Rønvika" />
		<tag k="place" v="farm" />
		<tag k="ssr:stedsnr" v="259921" />
	</node>
	<node id="-151771" lat="66.6127302758" lon="13.236205673">
		<tag k="fixme" v="consider place=hamlet" />
		<tag k="name" v="Sperstad" />
		<tag k="place" v="farm" />
		<tag k="ssr:stedsnr" v="502364" />
	</node>
	<node id="-152282" lat="66.6408333362" lon="13.0225083417">
		<tag k="name" v="Sandvika" />
		<tag k="place" v="farm" />
		<tag k="ssr:stedsnr" v="744954" />
	</node>
	<node id="-151249" lat="66.4581750002" lon="13.3213555469">
		<tag k="name" v="Forslund" />
		<tag k="place" v="farm" />
		<tag k="ssr:stedsnr" v="259666" />
	</node>
	<node id="-151245" lat="66.4614472228" lon="13.2312305525">
		<tag k="name" v="Halsan" />
		<tag k="place" v="farm" />
		<tag k="ssr:stedsnr" v="259655" />
	</node>
	<node id="-152778" lat="66.4429333369" lon="13.2531944432">
		<tag k="name" v="Stakmyra" />
		<tag k="place" v="locality" />
		<tag k="ssr:stedsnr" v="106001" />
	</node>
	<node id="-151240" lat="66.4960861127" lon="13.2991055526">
		<tag k="alt_name" v="Nygard" />
		<tag k="name" v="Nygård" />
		<tag k="place" v="farm" />
		<tag k="ssr:stedsnr" v="259622" />
	</node>
	<node id="-151751" lat="66.45045949" lon="13.2197895806">
		<tag k="alt_name" v="Tømmerdalen" />
		<tag k="fixme" v="consider place=hamlet" />
		<tag k="name" v="Tømmerdal" />
		<tag k="place" v="farm" />
		<tag k="ssr:stedsnr" v="501648" />
	</node>
	<node id="-152774" lat="66.6869777811" lon="13.4698277891">
		<tag k="name" v="Vollan" />
		<tag k="place" v="farm" />
		<tag k="ssr:stedsnr" v="105895" />
	</node>
	<node id="-152261" lat="66.4812249991" lon="13.2854805511">
		<tag k="alt_name" v="Hellvika" />
		<tag k="name" v="Hellvik" />
		<tag k="place" v="farm" />
		<tag k="ssr:stedsnr" v="744626" />
	</node>
	<node id="-151748" lat="66.4695861136" lon="13.2344861195">
		<tag k="alt_name" v="Slettvollen" />
		<tag k="name" v="Slettvoll" />
		<tag k="place" v="farm" />
		<tag k="ssr:stedsnr" v="501627" />
	</node>
	<node id="-152771" lat="66.7118638925" lon="13.2633027795">
		<tag k="name" v="Kleppan" />
		<tag k="place" v="locality" />
		<tag k="ssr:stedsnr" v="105871" />
	</node>
	<node id="-151234" lat="66.5122861079" lon="13.6880250003">
		<tag k="name" v="Kveldheim" />
		<tag k="place" v="farm" />
		<tag k="ssr:stedsnr" v="259379" />
	</node>
	<node id="-152255" lat="66.4878916657" lon="13.2257972138">
		<tag k="alt_name" v="Kilboghavn" />
		<tag k="fixme" v="consider place=hamlet" />
		<tag k="name" v="Kilboghamn" />
		<tag k="place" v="village" />
		<tag k="ssr:stedsnr" v="744606" />
	</node>
	<node id="-151742" lat="66.5775583293" lon="12.6142805644">
		<tag k="name" v="Kjølvika" />
		<tag k="place" v="farm" />
		<tag k="ssr:stedsnr" v="501767" />
	</node>
	<node id="-152251" lat="66.541300001" lon="13.4002944415">
		<tag k="name" v="Aspvika" />
		<tag k="place" v="farm" />
		<tag k="ssr:stedsnr" v="744371" />
	</node>
	<node id="-151736" lat="66.6540848554" lon="13.5154810043">
		<tag k="alt_name" v="Kjettvik" />
		<tag k="fixme" v="consider place=hamlet" />
		<tag k="name" v="Kjettvika" />
		<tag k="place" v="farm" />
		<tag k="ssr:stedsnr" v="501247" />
	</node>
	<node id="-152804" lat="66.6468583364" lon="13.5225444504">
		<tag k="alt_name" v="Skjelvika;Skjellvika" />
		<tag k="name" v="Skjellevik" />
		<tag k="place" v="locality" />
		<tag k="ssr:stedsnr" v="137243" />
	</node>
	<node id="-151732" lat="66.6357382764" lon="13.3884563047">
		<tag k="alt_name" v="Strømsvik" />
		<tag k="fixme" v="consider place=hamlet" />
		<tag k="name" v="Straumsvika" />
		<tag k="place" v="farm" />
		<tag k="ssr:stedsnr" v="501236" />
	</node>
	<node id="-151289" lat="66.6444361109" lon="13.3231305627">
		<tag k="name" v="Reiten" />
		<tag k="place" v="farm" />
		<tag k="ssr:stedsnr" v="137261" />
	</node>
	<node id="-151216" lat="66.5461627777" lon="13.0939778136">
		<tag k="alt_name" v="Langneset" />
		<tag k="fixme" v="consider place=hamlet" />
		<tag k="name" v="Langnes" />
		<tag k="place" v="farm" />
		<tag k="ssr:stedsnr" v="259088" />
	</node>
	<node id="-151727" lat="66.5141583344" lon="13.2141916774">
		<tag k="name" v="Sandvika" />
		<tag k="place" v="farm" />
		<tag k="ssr:stedsnr" v="501166" />
	</node>
	<node id="-151581" lat="66.7262083317" lon="13.2307055576">
		<tag k="name" v="Solvoll" />
		<tag k="place" v="farm" />
		<tag k="ssr:stedsnr" v="287868" />
	</node>
	<node id="-151716" lat="66.5615527793" lon="12.857383335">
		<tag k="name" v="Tendringsvika" />
		<tag k="place" v="farm" />
		<tag k="ssr:stedsnr" v="501015" />
	</node>
	<node id="-151494" lat="66.6722361131" lon="13.5209389003">
		<tag k="name" v="Årnesmyra" />
		<tag k="place" v="farm" />
		<tag k="ssr:stedsnr" v="227517" />
	</node>
	<node id="-152738" lat="66.6571944438" lon="13.07580833">
		<tag k="name" v="Losvika" />
		<tag k="place" v="hamlet" />
		<tag k="ssr:stedsnr" v="105159" />
	</node>
	<node id="-152222" lat="66.6966527797" lon="13.4271944543">
		<tag k="name" v="Forsmo" />
		<tag k="place" v="farm" />
		<tag k="ssr:stedsnr" v="894944" />
	</node>
	<node id="-151237" lat="66.6982777784" lon="13.4191027713">
		<tag k="amenity" v="school" />
		<tag k="name" v="Tjongsfjord skole" />
		<tag k="ssr:stedsnr" v="105929" />
	</node>
	<node id="-152216" lat="66.6605666696" lon="13.4717333232">
		<tag k="name" v="Bjerga" />
		<tag k="place" v="farm" />
		<tag k="ssr:stedsnr" v="712958" />
	</node>
	<node id="-152726" lat="66.5551166663" lon="12.8380305648">
		<tag k="name" v="Sandberget" />
		<tag k="place" v="farm" />
		<tag k="ssr:stedsnr" v="105023" />
	</node>
	<node id="-152724" lat="66.6320361066" lon="13.3782500103">
		<tag k="name" v="Straumhaug" />
		<tag k="place" v="farm" />
		<tag k="ssr:stedsnr" v="86437" />
	</node>
	<node id="-151187" lat="66.6724638933" lon="13.5279555466">
		<tag k="name" v="Bjerkeli" />
		<tag k="place" v="farm" />
		<tag k="ssr:stedsnr" v="45509" />
	</node>
	<node id="-152210" lat="66.6952250031" lon="13.3127722141">
		<tag k="name" v="Klipvollen" />
		<tag k="place" v="farm" />
		<tag k="ssr:stedsnr" v="894839" />
	</node>
	<node id="-151184" lat="66.5516500025" lon="12.8430805554">
		<tag k="name" v="Heimly" />
		<tag k="place" v="isolated_dwelling" />
		<tag k="ssr:stedsnr" v="44024" />
	</node>
	<node id="-151183" lat="66.5568916628" lon="12.8483138811">
		<tag k="name" v="Nyheim" />
		<tag k="place" v="farm" />
		<tag k="ssr:stedsnr" v="44014" />
	</node>
	<node id="-152173" lat="66.53229167" lon="13.0322583228">
		<tag k="name" v="Klubbvik" />
		<tag k="place" v="farm" />
		<tag k="ssr:stedsnr" v="711249" />
	</node>
	<node id="-151180" lat="66.6972138924" lon="13.3989638985">
		<tag k="name" v="Ytter Kila" />
		<tag k="place" v="farm" />
		<tag k="ssr:stedsnr" v="40117" />
	</node>
	<node id="-152770" lat="66.7200638853" lon="13.2967249925">
		<tag k="name" v="Åsmoa" />
		<tag k="place" v="farm" />
		<tag k="ssr:stedsnr" v="105865" />
	</node>
	<node id="-151680" lat="66.5427444479" lon="12.8618944435">
		<tag k="name" v="Vangen" />
		<tag k="place" v="isolated_dwelling" />
		<tag k="ssr:stedsnr" v="347053" />
	</node>
	<node id="-151679" lat="66.5462388909" lon="12.8202055502">
		<tag k="name" v="Fjellvik" />
		<tag k="place" v="farm" />
		<tag k="ssr:stedsnr" v="347008" />
	</node>
	<node id="-151317" lat="66.7178722234" lon="13.2626777823">
		<tag k="name" v="Fagermo" />
		<tag k="place" v="farm" />
		<tag k="ssr:stedsnr" v="165874" />
	</node>
	<node id="-151674" lat="66.5991923774" lon="13.2289791984">
		<tag k="fixme" v="consider place=hamlet" />
		<tag k="name" v="Einvika" />
		<tag k="place" v="farm" />
		<tag k="ssr:stedsnr" v="320354" />
	</node>
	<node id="-151231" lat="66.5624833336" lon="13.4747166741">
		<tag k="name" v="Volden" />
		<tag k="old_name" v="Årnes" />
		<tag k="place" v="farm" />
		<tag k="ssr:stedsnr" v="259429" />
	</node>
	<node id="-152184" lat="66.6651972219" lon="13.0669750075">
		<tag k="name" v="Abrahamsplassen" />
		<tag k="place" v="hamlet" />
		<tag k="ssr:stedsnr" v="711178" />
	</node>
	<node id="-152066" lat="66.6947436669" lon="13.4200962144">
		<tag k="fixme" v="consider place=hamlet" />
		<tag k="name" v="Kila" />
		<tag k="place" v="farm" />
		<tag k="ssr:stedsnr" v="647135" />
	</node>
	<node id="-151667" lat="66.5552305533" lon="12.8671166575">
		<tag k="name" v="Sandvika" />
		<tag k="place" v="farm" />
		<tag k="ssr:stedsnr" v="319104" />
	</node>
	<node id="-151666" lat="66.5203583311" lon="13.1848249899">
		<tag k="name" v="Fjellmo" />
		<tag k="place" v="farm" />
		<tag k="ssr:stedsnr" v="319079" />
	</node>
	<node id="-152686" lat="66.4575029609" lon="13.3157680153">
		<tag k="fixme" v="consider place=hamlet" />
		<tag k="name" v="Vassvika" />
		<tag k="place" v="farm" />
		<tag k="ssr:stedsnr" v="77685" />
	</node>
	<node id="-152685" lat="66.4448429542" lon="13.2594118125">
		<tag k="alt_name" v="Sørfjordgardan;Sørfjordgården" />
		<tag k="fixme" v="consider place=hamlet" />
		<tag k="name" v="Sørfjorden" />
		<tag k="place" v="farm" />
		<tag k="ssr:stedsnr" v="77681" />
	</node>
	<node id="-151660" lat="66.6872527761" lon="13.4420555533">
		<tag k="name" v="Melkvika" />
		<tag k="place" v="farm" />
		<tag k="ssr:stedsnr" v="469891" />
	</node>
	<node id="-152682" lat="66.47778226" lon="13.2424252404">
		<tag k="alt_name" v="Brenneset" />
		<tag k="fixme" v="consider place=hamlet" />
		<tag k="name" v="Brennesvik" />
		<tag k="place" v="farm" />
		<tag k="ssr:stedsnr" v="77664" />
	</node>
	<node id="-151655" lat="66.7135583328" lon="13.2898638937">
		<tag k="name" v="Heimly" />
		<tag k="place" v="farm" />
		<tag k="ssr:stedsnr" v="469856" />
	</node>
	<node id="-152679" lat="66.4979305595" lon="13.2995694449">
		<tag k="name" v="Birkely" />
		<tag k="place" v="farm" />
		<tag k="ssr:stedsnr" v="77648" />
	</node>
	<node id="-152677" lat="66.7055073714" lon="13.3004688575">
		<tag k="alt_name" v="Vågenget" />
		<tag k="fixme" v="consider place=hamlet" />
		<tag k="name" v="Vågenga" />
		<tag k="place" v="farm" />
		<tag k="ssr:stedsnr" v="77236" />
	</node>
	<node id="-152675" lat="66.6986444458" lon="13.4316749999">
		<tag k="name" v="Gullstad" />
		<tag k="place" v="farm" />
		<tag k="ssr:stedsnr" v="77195" />
	</node>
	<node id="-151649" lat="66.6183944449" lon="13.2867361008">
		<tag k="alt_name" v="Sjåvik" />
		<tag k="name" v="Skjåvika" />
		<tag k="place" v="farm" />
		<tag k="ssr:stedsnr" v="301523" />
	</node>
	<node id="-151135" lat="66.7164499972" lon="13.2173527704">
		<tag k="name" v="Oddvik" />
		<tag k="place" v="isolated_dwelling" />
		<tag k="ssr:stedsnr" v="25409" />
	</node>
	<node id="-152156" lat="66.5954916666" lon="12.6451722201">
		<tag k="amenity" v="school" />
		<tag k="name" v="Nordnesøy skole" />
		<tag k="ssr:stedsnr" v="894220" />
	</node>
	<node id="-151482" lat="66.683600001" lon="13.0891027758">
		<tag k="name" v="Risvika" />
		<tag k="place" v="farm" />
		<tag k="ssr:stedsnr" v="441897" />
	</node>
	<node id="-151227" lat="66.5323027785" lon="12.9897916681">
		<tag k="name" v="Buneset" />
		<tag k="place" v="farm" />
		<tag k="ssr:stedsnr" v="259048" />
	</node>
	<node id="-152662" lat="66.5457249991" lon="12.8420499968">
		<tag k="name" v="Solbakken" />
		<tag k="place" v="farm" />
		<tag k="ssr:stedsnr" v="77101" />
	</node>
	<node id="-152661" lat="66.5446583323" lon="13.0759833408">
		<tag k="alt_name" v="Langvika" />
		<tag k="name" v="Langvik" />
		<tag k="place" v="farm" />
		<tag k="ssr:stedsnr" v="77100" />
	</node>
	<node id="-152660" lat="66.5525333378" lon="12.8507944459">
		<tag k="name" v="Nordfalkhetta" />
		<tag k="place" v="farm" />
		<tag k="ssr:stedsnr" v="77096" />
	</node>
	<node id="-152659" lat="66.5529861082" lon="12.8388722107">
		<tag k="alt_name" v="Nerfalkhetta" />
		<tag k="name" v="Nedre Falkhetta" />
		<tag k="place" v="farm" />
		<tag k="ssr:stedsnr" v="77094" />
	</node>
	<node id="-152658" lat="66.530566669" lon="13.0305361118">
		<tag k="name" v="Gjerstad" />
		<tag k="place" v="farm" />
		<tag k="ssr:stedsnr" v="77059" />
	</node>
	<node id="-152145" lat="66.5987555583" lon="13.0100333339">
		<tag k="name" v="Nedre Hamn" />
		<tag k="place" v="farm" />
		<tag k="ssr:stedsnr" v="894107" />
	</node>
	<node id="-151113" lat="66.5578888847" lon="12.868994446">
		<tag k="name" v="Bakkevang" />
		<tag k="place" v="isolated_dwelling" />
		<tag k="ssr:stedsnr" v="226051" />
	</node>
	<node id="-152135" lat="66.5515555531" lon="12.8454222288">
		<tag k="name" v="Haugtun" />
		<tag k="place" v="isolated_dwelling" />
		<tag k="ssr:stedsnr" v="894037" />
	</node>
	<node id="-152646" lat="66.552738891" lon="13.2969166766">
		<tag k="name" v="Hammarheia" />
		<tag k="place" v="locality" />
		<tag k="ssr:stedsnr" v="77437" />
	</node>
	<node id="-152673" lat="66.7283194437" lon="13.2812666605">
		<tag k="name" v="Moan" />
		<tag k="place" v="farm" />
		<tag k="ssr:stedsnr" v="77180" />
	</node>
	<node id="-152644" lat="66.5149583303" lon="13.2813305465">
		<tag k="name" v="Klubben" />
		<tag k="place" v="farm" />
		<tag k="ssr:stedsnr" v="77419" />
	</node>
	<node id="-151278" lat="66.5732333357" lon="12.9800305521">
		<tag k="alt_name" v="Selsøyvik" />
		<tag k="fixme" v="consider place=hamlet" />
		<tag k="name" v="Selsøyvika" />
		<tag k="place" v="farm" />
		<tag k="ssr:stedsnr" v="137011" />
	</node>
	<node id="-152123" lat="66.641783331" lon="13.3561333261">
		<tag k="name" v="Eidvik" />
		<tag k="place" v="farm" />
		<tag k="ssr:stedsnr" v="693467" />
	</node>
	<node id="-151605" lat="66.551447225" lon="12.8372305557">
		<tag k="name" v="Vågen" />
		<tag k="place" v="farm" />
		<tag k="ssr:stedsnr" v="469050" />
	</node>
	<node id="-152635" lat="66.6688818702" lon="13.2329288001">
		<tag k="fixme" v="consider place=hamlet" />
		<tag k="name" v="Bø" />
		<tag k="place" v="farm" />
		<tag k="ssr:stedsnr" v="77299" />
	</node>
	<node id="-152114" lat="66.5866222248" lon="12.6527277782">
		<tag k="name" v="Grimsland" />
		<tag k="place" v="farm" />
		<tag k="ssr:stedsnr" v="683781" />
	</node>
	<node id="-151600" lat="66.5559944446" lon="12.8369361164">
		<tag k="name" v="Myrvoll" />
		<tag k="place" v="isolated_dwelling" />
		<tag k="ssr:stedsnr" v="469032" />
	</node>
	<node id="-152623" lat="66.4941333356" lon="13.2939111033">
		<tag k="amenity" v="school" />
		<tag k="name" v="Nygård skole" />
		<tag k="ssr:stedsnr" v="45493" />
	</node>
	<node id="-151597" lat="66.5573277811" lon="12.8322305466">
		<tag k="name" v="Solvika" />
		<tag k="place" v="isolated_dwelling" />
		<tag k="ssr:stedsnr" v="469026" />
	</node>
	<node id="-151986" lat="66.5806277819" lon="12.9864083434">
		<tag k="name" v="Nordset" />
		<tag k="place" v="farm" />
		<tag k="ssr:stedsnr" v="711084" />
	</node>
	<node id="-152103" lat="66.5236361081" lon="13.6638333316">
		<tag k="name" v="Ryneset" />
		<tag k="place" v="isolated_dwelling" />
		<tag k="ssr:stedsnr" v="683368" />
	</node>
	<node id="-151076" lat="66.5283249995" lon="13.0194888994">
		<tag k="name" v="Vollen" />
		<tag k="place" v="farm" />
		<tag k="ssr:stedsnr" v="16045" />
	</node>
	<node id="-151075" lat="66.5814805572" lon="12.9294055558">
		<tag k="fixme" v="multiple name tags, choose one and add the other to alt_name" />
		<tag k="name" v="Bakken;Korsvik" />
		<tag k="place" v="farm" />
		<tag k="ssr:stedsnr" v="16038" />
	</node>
	<node id="-151585" lat="66.7054305553" lon="13.4142666572">
		<tag k="name" v="Nyrud" />
		<tag k="place" v="farm" />
		<tag k="ssr:stedsnr" v="287874" />
	</node>
	<node id="-151584" lat="66.7041805598" lon="13.4021833301">
		<tag k="name" v="Øverkila" />
		<tag k="place" v="hamlet" />
		<tag k="ssr:stedsnr" v="287873" />
	</node>
	<node id="-151583" lat="66.7060250031" lon="13.4032833292">
		<tag k="name" v="Uteng" />
		<tag k="place" v="farm" />
		<tag k="ssr:stedsnr" v="287872" />
	</node>
	<node id="-151582" lat="66.7011055568" lon="13.3992611095">
		<tag k="name" v="Furustad" />
		<tag k="place" v="farm" />
		<tag k="ssr:stedsnr" v="287871" />
	</node>
	<node id="-152605" lat="66.6942222235" lon="13.4279333259">
		<tag k="alt_name" v="Kila østre" />
		<tag k="name" v="Østre Kila" />
		<tag k="place" v="hamlet" />
		<tag k="ssr:stedsnr" v="44939" />
	</node>
	<node id="-151068" lat="66.5776194472" lon="13.0461499896">
		<tag k="name" v="Øvergården" />
		<tag k="place" v="farm" />
		<tag k="ssr:stedsnr" v="16002" />
	</node>
	<node id="-151130" lat="66.6168722192" lon="13.0104194441">
		<tag k="name" v="Sjøvollen" />
		<tag k="place" v="farm" />
		<tag k="ssr:stedsnr" v="226254" />
	</node>
	<node id="-152601" lat="66.5848777777" lon="12.932830559">
		<tag k="name" v="Solstad" />
		<tag k="place" v="farm" />
		<tag k="ssr:stedsnr" v="44603" />
	</node>
	<node id="-151568" lat="66.4918083339" lon="13.2984194387">
		<tag k="name" v="Lomås" />
		<tag k="place" v="isolated_dwelling" />
		<tag k="ssr:stedsnr" v="287420" />
	</node>
	<node id="-152578" lat="66.5868611094" lon="12.9338916755">
		<tag k="name" v="Skreien" />
		<tag k="place" v="farm" />
		<tag k="ssr:stedsnr" v="44110" />
	</node>
	<node id="-151559" lat="66.5899194401" lon="12.9389972186">
		<tag k="name" v="Krabbevågen" />
		<tag k="place" v="farm" />
		<tag k="ssr:stedsnr" v="287120" />
	</node>
	<node id="-152247" lat="66.5005972204" lon="13.3004111152">
		<tag k="alt_name" v="Møssnesvika" />
		<tag k="name" v="Måsnesvika" />
		<tag k="place" v="farm" />
		<tag k="ssr:stedsnr" v="744357" />
	</node>
</osm>
