<?xml version="1.0" encoding="UTF-8"?>
<osm generator="osmapis" version="0.6">
	<node id="-18431" lat="66.6507444411" lon="13.1944916684">
		<tag k="name" v="Naustholmen" />
		<tag k="natural" v="cape" />
		<tag k="ssr:stedsnr" v="408119" />
	</node>
	<node id="-18425" lat="66.6549999993" lon="13.0833333307">
		<tag k="name" v="Losvika" />
		<tag k="natural" v="bay" />
		<tag k="ssr:stedsnr" v="506559" />
	</node>
	<node id="-18424" lat="66.7511638915" lon="12.4331444415">
		<tag k="name" v="Lønnfallan" />
		<tag k="place" v="locality" />
		<tag k="ssr:stedsnr" v="388709" />
	</node>
	<node id="-18423" lat="66.754005552" lon="12.4617249896">
		<tag k="name" v="Sjuløysundet" />
		<tag k="natural" v="strait" />
		<tag k="ssr:stedsnr" v="384569" />
	</node>
	<node id="-18422" lat="66.7583333324" lon="12.468333337">
		<tag k="name" v="Heggersundet" />
		<tag k="natural" v="strait" />
		<tag k="ssr:stedsnr" v="384566" />
	</node>
	<node id="-18421" lat="66.7808027763" lon="12.7746555658">
		<tag k="alt_name" v="Sandværflesa, nordre" />
		<tag k="name" v="Nordsandværflesa" />
		<tag k="natural" v="shoal" />
		<tag k="place" v="locality" />
		<tag k="ssr:stedsnr" v="502840" />
	</node>
	<node id="-18416" lat="66.6747083309" lon="13.3463027725">
		<tag k="name" v="Vassdalsholman" />
		<tag k="place" v="islet" />
		<tag k="ssr:stedsnr" v="502190" />
	</node>
	<node id="-18412" lat="66.6050194457" lon="13.0986666684">
		<tag k="name" v="Hansøyvika" />
		<tag k="natural" v="bay" />
		<tag k="ssr:stedsnr" v="502042" />
	</node>
	<node id="-18411" lat="66.5984388894" lon="13.0949805652">
		<tag k="name" v="Hansøya" />
		<tag k="place" v="island" />
		<tag k="ssr:stedsnr" v="502041" />
	</node>
	<node id="-18410" lat="66.6047999974" lon="13.1294694553">
		<tag k="name" v="Prestvika" />
		<tag k="natural" v="bay" />
		<tag k="ssr:stedsnr" v="502040" />
	</node>
	<node id="-18409" lat="66.7462638887" lon="13.0576527774">
		<tag k="name" v="Dyrkleppskallen" />
		<tag k="natural" v="shoal" />
		<tag k="place" v="locality" />
		<tag k="ssr:stedsnr" v="501850" />
	</node>
	<node id="-18408" lat="66.7381111086" lon="13.1313888778">
		<tag k="name" v="Hundholmen" />
		<tag k="place" v="islet" />
		<tag k="ssr:stedsnr" v="501819" />
	</node>
	<node id="-18407" lat="66.7368249991" lon="13.1030138804">
		<tag k="name" v="Storgrunnen" />
		<tag k="natural" v="shoal" />
		<tag k="place" v="locality" />
		<tag k="ssr:stedsnr" v="501818" />
	</node>
	<node id="-18406" lat="66.7543805577" lon="13.0022250023">
		<tag k="alt_name" v="Ivarsgrunnen" />
		<tag k="name" v="Ivargrunnen" />
		<tag k="natural" v="shoal" />
		<tag k="place" v="locality" />
		<tag k="ssr:stedsnr" v="501808" />
	</node>
	<node id="-18405" lat="66.7661583365" lon="12.8945361092">
		<tag k="name" v="Stabben" />
		<tag k="natural" v="shoal" />
		<tag k="place" v="locality" />
		<tag k="ssr:stedsnr" v="501803" />
	</node>
	<node id="-18404" lat="66.7566888924" lon="13.1702250116">
		<tag k="name" v="Sledholmen" />
		<tag k="place" v="islet" />
		<tag k="ssr:stedsnr" v="501791" />
	</node>
	<node id="-18403" lat="66.6182055515" lon="12.809311105">
		<tag k="fixme" v="multiple name tags, choose one and add the other to alt_name; consider seamark:type=rock or natural=shoal" />
		<tag k="name" v="Futøyskjeret;Vestre Futøyskjær" />
		<tag k="place" v="islet" />
		<tag k="ssr:stedsnr" v="501995" />
	</node>
	<node id="-18401" lat="66.6209000023" lon="13.0481111201">
		<tag k="name" v="Slørknesodden" />
		<tag k="natural" v="cape" />
		<tag k="ssr:stedsnr" v="501988" />
	</node>
	<node id="-18400" lat="66.603736107" lon="12.8044611103">
		<tag k="fixme" v="consider seamark:type=rock or natural=shoal" />
		<tag k="name" v="Skarvskutan" />
		<tag k="place" v="islet" />
		<tag k="ssr:stedsnr" v="501980" />
	</node>
	<node id="-18398" lat="66.6426416675" lon="13.0532416717">
		<tag k="name" v="Esvågneset" />
		<tag k="natural" v="cape" />
		<tag k="ssr:stedsnr" v="501971" />
	</node>
	<node id="-18397" lat="66.6509138934" lon="12.9282333272">
		<tag k="name" v="Skarvholmen" />
		<tag k="place" v="islet" />
		<tag k="ssr:stedsnr" v="501967" />
	</node>
	<node id="-18396" lat="66.6353999987" lon="12.9473611075">
		<tag k="name" v="Langøya" />
		<tag k="place" v="islet" />
		<tag k="ssr:stedsnr" v="501959" />
	</node>
	<node id="-18394" lat="66.4666527813" lon="13.3766166675">
		<tag k="alt_name" v="Mangåvika" />
		<tag k="name" v="Mannågbukta" />
		<tag k="natural" v="bay" />
		<tag k="ssr:stedsnr" v="501633" />
	</node>
	<node id="-18389" lat="66.629108329" lon="13.0035166738">
		<tag k="name" v="Buøya" />
		<tag k="place" v="island" />
		<tag k="ssr:stedsnr" v="501624" />
	</node>
	<node id="-18388" lat="66.5944777744" lon="13.0294166593">
		<tag k="name" v="Kalvøya" />
		<tag k="place" v="island" />
		<tag k="ssr:stedsnr" v="501621" />
	</node>
	<node id="-18385" lat="66.6168611131" lon="12.6351638973">
		<tag k="alt_name" v="Nordhavnholmen" />
		<tag k="name" v="Nordhamnholmen" />
		<tag k="place" v="islet" />
		<tag k="ssr:stedsnr" v="501759" />
	</node>
	<node id="-18384" lat="66.8202027747" lon="12.7747666759">
		<tag k="alt_name" v="Skarvholmskallen, in" />
		<tag k="name" v="Indre Skarvholmskallen" />
		<tag k="natural" v="shoal" />
		<tag k="place" v="locality" />
		<tag k="ssr:stedsnr" v="501695" />
	</node>
	<node id="-18383" lat="66.717600004" lon="12.4633611158">
		<tag k="name" v="Litlandersholmen" />
		<tag k="place" v="islet" />
		<tag k="ssr:stedsnr" v="501690" />
	</node>
	<node id="-18381" lat="66.6497083351" lon="13.546925007">
		<tag k="name" v="Reppa" />
		<tag k="natural" v="bay" />
		<tag k="ssr:stedsnr" v="501251" />
	</node>
	<node id="-18370" lat="66.7093027742" lon="13.2653388802">
		<tag k="name" v="Vågaholmen" />
		<tag k="place" v="islet" />
		<tag k="ssr:stedsnr" v="501143" />
	</node>
	<node id="-18369" lat="66.5529194406" lon="13.2531944438">
		<tag k="name" v="Bukkeskinnvika" />
		<tag k="natural" v="bay" />
		<tag k="ssr:stedsnr" v="501415" />
	</node>
	<node id="-18368" lat="66.5411833293" lon="13.3715611144">
		<tag k="name" v="Litlstrompan" />
		<tag k="natural" v="cape" />
		<tag k="ssr:stedsnr" v="501390" />
	</node>
	<node id="-18364" lat="66.595394444" lon="13.1534888844">
		<tag k="alt_name" v="Lyngholmen, store" />
		<tag k="name" v="Store Lyngholmen" />
		<tag k="place" v="islet" />
		<tag k="ssr:stedsnr" v="501043" />
	</node>
	<node id="-18363" lat="66.7335250032" lon="13.3735527781">
		<tag k="name" v="Tømmervika" />
		<tag k="natural" v="bay" />
		<tag k="ssr:stedsnr" v="501129" />
	</node>
	<node id="-18362" lat="66.5985388919" lon="12.9500611024">
		<tag k="alt_name" v="Netjeholman" />
		<tag k="name" v="Nekkjeholman" />
		<tag k="place" v="islet" />
		<tag k="ssr:stedsnr" v="501026" />
	</node>
	<node id="-18361" lat="66.564663892" lon="12.9329305459">
		<tag k="fixme" v="multiple name tags, choose one and add the other to alt_name" />
		<tag k="name" v="Langkvitingen;Ytre Kvitingen" />
		<tag k="place" v="islet" />
		<tag k="ssr:stedsnr" v="501018" />
	</node>
	<node id="-18357" lat="66.5746944428" lon="12.829430553">
		<tag k="fixme" v="multiple name tags, choose one and add the other to alt_name" />
		<tag k="name" v="Bleikøyan;Vestre Bleikøya" />
		<tag k="place" v="islet" />
		<tag k="ssr:stedsnr" v="501006" />
	</node>
	<node id="-18355" lat="66.726502775" lon="12.5188666593">
		<tag k="name" v="Torsholman" />
		<tag k="place" v="islet" />
		<tag k="ssr:stedsnr" v="380715" />
	</node>
	<node id="-18354" lat="66.7663388896" lon="12.4387472267">
		<tag k="fixme" v="multiple name tags, choose one and add the other to alt_name" />
		<tag k="name" v="Aurflesa;Storaurflesa" />
		<tag k="place" v="islet" />
		<tag k="ssr:stedsnr" v="380702" />
	</node>
	<node id="-18352" lat="66.6311305521" lon="13.385797219">
		<tag k="name" v="Kvernesodden" />
		<tag k="natural" v="cape" />
		<tag k="ssr:stedsnr" v="348965" />
	</node>
	<node id="-18351" lat="66.6327861121" lon="13.3804777711">
		<tag k="name" v="Kistastraumen" />
		<tag k="natural" v="strait" />
		<tag k="ssr:stedsnr" v="348962" />
	</node>
	<node id="-18349" lat="66.5078805511" lon="13.2957722258">
		<tag k="name" v="Hanskjellvika" />
		<tag k="natural" v="bay" />
		<tag k="ssr:stedsnr" v="348453" />
	</node>
	<node id="-18340" lat="66.5364638873" lon="13.6542500071">
		<tag k="name" v="Storvika" />
		<tag k="natural" v="bay" />
		<tag k="ssr:stedsnr" v="347572" />
	</node>
	<node id="-18333" lat="66.6631444435" lon="13.0491222282">
		<tag k="fixme" v="consider seamark:type=rock or natural=shoal" />
		<tag k="name" v="Buøyskjeret" />
		<tag k="place" v="islet" />
		<tag k="ssr:stedsnr" v="347163" />
	</node>
	<node id="-18329" lat="66.5672861153" lon="12.9394777753">
		<tag k="name" v="Bærholmen" />
		<tag k="place" v="islet" />
		<tag k="ssr:stedsnr" v="347222" />
	</node>
	<node id="-18326" lat="66.602313886" lon="12.6326749951">
		<tag k="name" v="Rotvika" />
		<tag k="natural" v="bay" />
		<tag k="ssr:stedsnr" v="347213" />
	</node>
	<node id="-18321" lat="66.5861527767" lon="12.996630545">
		<tag k="name" v="Ørnstolen" />
		<tag k="natural" v="cape" />
		<tag k="ssr:stedsnr" v="329334" />
	</node>
	<node id="-18320" lat="66.8344944447" lon="12.6259972247">
		<tag k="name" v="Vestre Flesskallen" />
		<tag k="natural" v="shoal" />
		<tag k="place" v="locality" />
		<tag k="ssr:stedsnr" v="328906" />
	</node>
	<node id="-18317" lat="66.6421694455" lon="12.5183166685">
		<tag k="name" v="Lyngværkastet" />
		<tag k="natural" v="shoal" />
		<tag k="place" v="locality" />
		<tag k="ssr:stedsnr" v="319723" />
	</node>
	<node id="-18316" lat="66.723291668" lon="12.4475194448">
		<tag k="name" v="Storandersholmen" />
		<tag k="place" v="islet" />
		<tag k="ssr:stedsnr" v="319718" />
	</node>
	<node id="-18315" lat="66.7201444445" lon="12.5132111182">
		<tag k="name" v="Flestaren" />
		<tag k="natural" v="shoal" />
		<tag k="place" v="locality" />
		<tag k="ssr:stedsnr" v="319709" />
	</node>
	<node id="-18314" lat="66.7193472187" lon="12.6109083228">
		<tag k="alt_name" v="Ramnholmtaren" />
		<tag k="name" v="Ravnholmtaran" />
		<tag k="natural" v="shoal" />
		<tag k="place" v="locality" />
		<tag k="ssr:stedsnr" v="319707" />
	</node>
	<node id="-18312" lat="66.5570333366" lon="12.8245277792">
		<tag k="fixme" v="multiple name tags, choose one and add the other to alt_name" />
		<tag k="name" v="Langnesholmen;Langnesskjeret" />
		<tag k="place" v="islet" />
		<tag k="ssr:stedsnr" v="319105" />
	</node>
	<node id="-18309" lat="66.5810777772" lon="13.008041666">
		<tag k="alt_name" v="Storhestøya" />
		<tag k="name" v="Hestøya" />
		<tag k="place" v="island" />
		<tag k="ssr:stedsnr" v="319057" />
	</node>
	<node id="-18308" lat="66.6347055588" lon="13.3816416715">
		<tag k="name" v="Dragvika" />
		<tag k="natural" v="bay" />
		<tag k="ssr:stedsnr" v="469981" />
	</node>
	<node id="-18305" lat="66.6643277812" lon="13.3698499999">
		<tag k="name" v="Stallvika" />
		<tag k="natural" v="bay" />
		<tag k="ssr:stedsnr" v="469946" />
	</node>
	<node id="-18300" lat="66.7108361077" lon="13.2469666649">
		<tag k="name" v="Kobbholmen" />
		<tag k="place" v="islet" />
		<tag k="ssr:stedsnr" v="469864" />
	</node>
	<node id="-18298" lat="66.715797221" lon="13.2261916675">
		<tag k="name" v="Kariholmen" />
		<tag k="place" v="islet" />
		<tag k="ssr:stedsnr" v="469851" />
	</node>
	<node id="-18297" lat="66.6995694407" lon="13.2910916617">
		<tag k="name" v="Sandvikodden" />
		<tag k="natural" v="cape" />
		<tag k="ssr:stedsnr" v="469825" />
	</node>
	<node id="-18296" lat="66.6806805534" lon="13.2292388791">
		<tag k="name" v="Skarv-halsen" />
		<tag k="natural" v="strait" />
		<tag k="ssr:stedsnr" v="469822" />
	</node>
	<node id="-18292" lat="66.6450111091" lon="13.5486527867">
		<tag k="name" v="Storvika" />
		<tag k="natural" v="bay" />
		<tag k="ssr:stedsnr" v="469575" />
	</node>
	<node id="-18286" lat="66.4707194424" lon="13.371166657">
		<tag k="name" v="Skjervika" />
		<tag k="natural" v="bay" />
		<tag k="ssr:stedsnr" v="469493" />
	</node>
	<node id="-18284" lat="66.4703055551" lon="13.3616972324">
		<tag k="name" v="Stjernesvåghaug" />
		<tag k="natural" v="cape" />
		<tag k="ssr:stedsnr" v="469486" />
	</node>
	<node id="-18276" lat="66.4893250006" lon="13.236413896">
		<tag k="name" v="Kilbognesodden" />
		<tag k="natural" v="cape" />
		<tag k="ssr:stedsnr" v="469399" />
	</node>
	<node id="-18275" lat="66.4936222252" lon="13.2183361155">
		<tag k="name" v="Jansvikodden" />
		<tag k="natural" v="cape" />
		<tag k="ssr:stedsnr" v="469394" />
	</node>
	<node id="-18273" lat="66.6388666635" lon="13.2724444547">
		<tag k="name" v="Nessatangen" />
		<tag k="natural" v="cape" />
		<tag k="ssr:stedsnr" v="469374" />
	</node>
	<node id="-18265" lat="66.5837666644" lon="12.6819166707">
		<tag k="name" v="Sandvika" />
		<tag k="natural" v="bay" />
		<tag k="ssr:stedsnr" v="469221" />
	</node>
	<node id="-18263" lat="66.7555888858" lon="12.493544436">
		<tag k="name" v="Nordsandøykyla" />
		<tag k="natural" v="bay" />
		<tag k="ssr:stedsnr" v="469202" />
	</node>
	<node id="-18260" lat="66.5484694419" lon="13.1088222157">
		<tag k="name" v="Seljevik" />
		<tag k="natural" v="bay" />
		<tag k="ssr:stedsnr" v="469145" />
	</node>
	<node id="-18247" lat="66.5534416623" lon="12.8273388903">
		<tag k="name" v="Langnesfjæra" />
		<tag k="natural" v="bay" />
		<tag k="ssr:stedsnr" v="469038" />
	</node>
	<node id="-18246" lat="66.5629500015" lon="12.8438777835">
		<tag k="fixme" v="consider seamark:type=rock or natural=shoal" />
		<tag k="name" v="Geitungan" />
		<tag k="place" v="islet" />
		<tag k="ssr:stedsnr" v="469037" />
	</node>
	<node id="-18207" lat="66.5914833348" lon="12.6194250053">
		<tag k="fixme" v="consider seamark:type=rock or natural=shoal" />
		<tag k="name" v="Hellstøskjeret" />
		<tag k="place" v="islet" />
		<tag k="ssr:stedsnr" v="287258" />
	</node>
	<node id="-18206" lat="66.6187055523" lon="13.0009444523">
		<tag k="name" v="Kalvika" />
		<tag k="natural" v="bay" />
		<tag k="ssr:stedsnr" v="287252" />
	</node>
	<node id="-18204" lat="66.6589277813" lon="13.0481333328">
		<tag k="name" v="Buøyvika" />
		<tag k="natural" v="bay" />
		<tag k="ssr:stedsnr" v="287165" />
	</node>
	<node id="-18200" lat="66.5960361131" lon="12.6648027759">
		<tag k="name" v="Risholmen" />
		<tag k="place" v="islet" />
		<tag k="ssr:stedsnr" v="287226" />
	</node>
	<node id="-18196" lat="66.5483555554" lon="12.8532361135">
		<tag k="name" v="Innerfjæra" />
		<tag k="natural" v="bay" />
		<tag k="ssr:stedsnr" v="287012" />
	</node>
	<node id="-18193" lat="66.6698388885" lon="12.5512055638">
		<tag k="name" v="Stiksøyflua" />
		<tag k="natural" v="shoal" />
		<tag k="place" v="locality" />
		<tag k="ssr:stedsnr" v="274425" />
	</node>
	<node id="-18192" lat="66.6512194412" lon="13.0903277817">
		<tag k="name" v="Storskallen" />
		<tag k="natural" v="shoal" />
		<tag k="place" v="locality" />
		<tag k="ssr:stedsnr" v="269590" />
	</node>
	<node id="-18191" lat="66.6013333297" lon="12.785152786">
		<tag k="fixme" v="consider seamark:type=rock or natural=shoal" />
		<tag k="name" v="Kvitingen" />
		<tag k="place" v="islet" />
		<tag k="ssr:stedsnr" v="269624" />
	</node>
	<node id="-18189" lat="66.6173194432" lon="12.7046750059">
		<tag k="name" v="Breisundgrunnen" />
		<tag k="natural" v="shoal" />
		<tag k="place" v="locality" />
		<tag k="ssr:stedsnr" v="268515" />
	</node>
	<node id="-18188" lat="66.5859476124" lon="12.9724254158">
		<tag k="name" v="Rørholmen" />
		<tag k="place" v="islet" />
		<tag k="ssr:stedsnr" v="268316" />
	</node>
	<node id="-18186" lat="66.7247972265" lon="12.4657555631">
		<tag k="name" v="Skåktarbråttan" />
		<tag k="natural" v="shoal" />
		<tag k="place" v="locality" />
		<tag k="ssr:stedsnr" v="267665" />
	</node>
	<node id="-18184" lat="66.5862277788" lon="12.6763694473">
		<tag k="name" v="Nesøya" />
		<tag k="place" v="island" />
		<tag k="ssr:stedsnr" v="259822" />
	</node>
	<node id="-18182" lat="66.6586000001" lon="12.5351944424">
		<tag k="name" v="Oterholman" />
		<tag k="place" v="islet" />
		<tag k="ssr:stedsnr" v="259719" />
	</node>
	<node id="-18181" lat="66.7972972225" lon="12.8288777818">
		<tag k="bay" v="fjord" />
		<tag k="name" v="Valværfjorden" />
		<tag k="natural" v="bay" />
		<tag k="ssr:stedsnr" v="259711" />
	</node>
	<node id="-18180" lat="66.7183555522" lon="12.4917361014">
		<tag k="name" v="Æmårsøya" />
		<tag k="place" v="islet" />
		<tag k="ssr:stedsnr" v="259706" />
	</node>
	<node id="-18177" lat="66.5593416709" lon="13.3335861141">
		<tag k="name" v="Libergodden" />
		<tag k="natural" v="cape" />
		<tag k="ssr:stedsnr" v="259311" />
	</node>
	<node id="-18176" lat="66.6922555524" lon="13.4140277858">
		<tag k="name" v="Kilaosen" />
		<tag k="natural" v="bay" />
		<tag k="ssr:stedsnr" v="259180" />
	</node>
	<node id="-18174" lat="66.6814916701" lon="13.3597416761">
		<tag k="bay" v="fjord" />
		<tag k="name" v="Tjongsfjorden" />
		<tag k="natural" v="bay" />
		<tag k="ssr:stedsnr" v="259177" />
	</node>
	<node id="-18172" lat="66.7013222252" lon="13.2778722338">
		<tag k="alt_name" v="Buldringsholmen" />
		<tag k="name" v="Bullingsholmen" />
		<tag k="place" v="islet" />
		<tag k="ssr:stedsnr" v="259217" />
	</node>
	<node id="-18170" lat="66.5382861124" lon="13.1314249909">
		<tag k="name" v="Hestvika" />
		<tag k="natural" v="bay" />
		<tag k="ssr:stedsnr" v="259109" />
	</node>
	<node id="-18169" lat="66.5498777817" lon="13.1246666593">
		<tag k="name" v="Langnesodden" />
		<tag k="natural" v="cape" />
		<tag k="ssr:stedsnr" v="259105" />
	</node>
	<node id="-18168" lat="66.6287055544" lon="12.7552249906">
		<tag k="name" v="Langøya" />
		<tag k="place" v="islet" />
		<tag k="ssr:stedsnr" v="258966" />
	</node>
	<node id="-18167" lat="66.6532277773" lon="13.0878666602">
		<tag k="alt_name" v="Storsandværholmen;Sandværholmen" />
		<tag k="name" v="Sandværholman" />
		<tag k="place" v="islet" />
		<tag k="ssr:stedsnr" v="258915" />
	</node>
	<node id="-18166" lat="66.648830553" lon="12.9274027764">
		<tag k="name" v="Skarvholmgrunnen" />
		<tag k="natural" v="shoal" />
		<tag k="place" v="locality" />
		<tag k="ssr:stedsnr" v="258910" />
	</node>
	<node id="-18165" lat="66.6412944433" lon="12.7582666739">
		<tag k="alt_name" v="Svartskjertaren" />
		<tag k="name" v="Svartskjærtaren" />
		<tag k="natural" v="shoal" />
		<tag k="place" v="locality" />
		<tag k="ssr:stedsnr" v="258904" />
	</node>
	<node id="-18164" lat="66.7932333332" lon="12.7675916616">
		<tag k="alt_name" v="Båsen, yt" />
		<tag k="fixme" v="consider seamark:type=rock or natural=shoal" />
		<tag k="name" v="Ytterbåsen" />
		<tag k="place" v="islet" />
		<tag k="ssr:stedsnr" v="258759" />
	</node>
	<node id="-18163" lat="66.7619249963" lon="12.5921166632">
		<tag k="alt_name" v="Kjølsøykalven, s" />
		<tag k="name" v="Sørkjølsøykalven" />
		<tag k="place" v="islet" />
		<tag k="ssr:stedsnr" v="258713" />
	</node>
	<node id="-18162" lat="66.759247223" lon="12.4569999939">
		<tag k="name" v="Grytøya" />
		<tag k="place" v="island" />
		<tag k="ssr:stedsnr" v="258709" />
	</node>
	<node id="-18159" lat="66.6689999996" lon="13.3545500082">
		<tag k="name" v="Husvika" />
		<tag k="natural" v="bay" />
		<tag k="ssr:stedsnr" v="258313" />
	</node>
	<node id="-18158" lat="66.5919305575" lon="13.0298416629">
		<tag k="alt_name" v="Kalvøyholmen" />
		<tag k="name" v="Kalvøyholman" />
		<tag k="place" v="islet" />
		<tag k="ssr:stedsnr" v="258055" />
	</node>
	<node id="-18157" lat="66.5912750015" lon="13.1324805505">
		<tag k="name" v="Slåttøya" />
		<tag k="place" v="island" />
		<tag k="ssr:stedsnr" v="258053" />
	</node>
	<node id="-18156" lat="66.5663083328" lon="13.1916000065">
		<tag k="name" v="Sørsjøvika" />
		<tag k="natural" v="bay" />
		<tag k="ssr:stedsnr" v="258027" />
	</node>
	<node id="-18154" lat="66.5745250006" lon="12.9449166777">
		<tag k="name" v="Lamøykalven" />
		<tag k="place" v="islet" />
		<tag k="ssr:stedsnr" v="258018" />
	</node>
	<node id="-18153" lat="66.581630556" lon="13.106774996">
		<tag k="name" v="Bukkøya" />
		<tag k="place" v="islet" />
		<tag k="ssr:stedsnr" v="258005" />
	</node>
	<node id="-18151" lat="66.708586109" lon="13.221002771">
		<tag k="alt_name" v="Flatskjær" />
		<tag k="fixme" v="consider seamark:type=rock or natural=shoal" />
		<tag k="name" v="Flatholmen" />
		<tag k="place" v="islet" />
		<tag k="ssr:stedsnr" v="450407" />
	</node>
	<node id="-18150" lat="66.631705558" lon="13.2375638815">
		<tag k="fixme" v="consider seamark:type=rock or natural=shoal" />
		<tag k="name" v="Gjestbuskjær" />
		<tag k="place" v="islet" />
		<tag k="ssr:stedsnr" v="449394" />
	</node>
	<node id="-18149" lat="66.5926416676" lon="12.6580472151">
		<tag k="name" v="Kjerringskjæret" />
		<tag k="place" v="islet" />
		<tag k="ssr:stedsnr" v="445589" />
	</node>
	<node id="-18148" lat="66.6291916697" lon="13.2703527754">
		<tag k="name" v="Ivarøya" />
		<tag k="place" v="island" />
		<tag k="ssr:stedsnr" v="233145" />
	</node>
	<node id="-18137" lat="66.4936249991" lon="13.2903166754">
		<tag k="name" v="Tangen" />
		<tag k="natural" v="cape" />
		<tag k="ssr:stedsnr" v="227504" />
	</node>
	<node id="-18136" lat="66.6115416691" lon="12.8114027677">
		<tag k="alt_name" v="Futøya, l" />
		<tag k="name" v="Litle Futøya" />
		<tag k="place" v="islet" />
		<tag k="ssr:stedsnr" v="441987" />
	</node>
	<node id="-18135" lat="66.6061194465" lon="12.9368944436">
		<tag k="alt_name" v="Stongholmen, in" />
		<tag k="name" v="Innerstangholmen" />
		<tag k="place" v="island" />
		<tag k="ssr:stedsnr" v="441984" />
	</node>
	<node id="-18133" lat="66.6366111095" lon="12.7836499988">
		<tag k="fixme" v="consider seamark:type=rock or natural=shoal" />
		<tag k="name" v="Flesa" />
		<tag k="place" v="islet" />
		<tag k="ssr:stedsnr" v="441973" />
	</node>
	<node id="-18132" lat="66.6305722241" lon="12.9091444483">
		<tag k="alt_name" v="Svartskjeret" />
		<tag k="fixme" v="consider seamark:type=rock or natural=shoal" />
		<tag k="name" v="Svartskjær" />
		<tag k="place" v="islet" />
		<tag k="ssr:stedsnr" v="441964" />
	</node>
	<node id="-18131" lat="66.6369277777" lon="12.9724611122">
		<tag k="alt_name" v="Risholmen, l" />
		<tag k="name" v="Litle Risholmen" />
		<tag k="place" v="islet" />
		<tag k="ssr:stedsnr" v="441961" />
	</node>
	<node id="-18130" lat="66.6244916711" lon="13.0476388851">
		<tag k="alt_name" v="Silsandskjeran" />
		<tag k="fixme" v="consider seamark:type=rock or natural=shoal" />
		<tag k="name" v="Silsandskjæran" />
		<tag k="place" v="islet" />
		<tag k="ssr:stedsnr" v="441946" />
	</node>
	<node id="-18128" lat="66.6548777775" lon="12.9065527698">
		<tag k="name" v="Flatøyfallet" />
		<tag k="natural" v="shoal" />
		<tag k="place" v="locality" />
		<tag k="ssr:stedsnr" v="441932" />
	</node>
	<node id="-18127" lat="66.6834194455" lon="12.953816677">
		<tag k="name" v="Nordvågen" />
		<tag k="natural" v="bay" />
		<tag k="ssr:stedsnr" v="441905" />
	</node>
	<node id="-18124" lat="66.6701611073" lon="12.9935138946">
		<tag k="name" v="Bukkøykalven" />
		<tag k="natural" v="cape" />
		<tag k="ssr:stedsnr" v="441889" />
	</node>
	<node id="-18123" lat="66.6773916646" lon="12.9918722191">
		<tag k="alt_name" v="Verholmen, l" />
		<tag k="name" v="Litle Verholmen" />
		<tag k="place" v="islet" />
		<tag k="ssr:stedsnr" v="441888" />
	</node>
	<node id="-18122" lat="66.6703638925" lon="12.9355416671">
		<tag k="loc_name" v="Grindværet" />
		<tag k="name" v="Grindvær" />
		<tag k="place" v="island" />
		<tag k="ssr:stedsnr" v="441887" />
	</node>
	<node id="-18121" lat="66.7073" lon="12.9154916585">
		<tag k="name" v="Nordflesa" />
		<tag k="place" v="islet" />
		<tag k="ssr:stedsnr" v="441875" />
	</node>
	<node id="-18120" lat="66.7515388907" lon="13.1426750077">
		<tag k="name" v="Ringøya" />
		<tag k="place" v="islet" />
		<tag k="ssr:stedsnr" v="441862" />
	</node>
	<node id="-18119" lat="66.761447218" lon="13.1955194533">
		<tag k="alt_name" v="Medfjordsholman, s" />
		<tag k="name" v="Sørmedfjordsholman" />
		<tag k="place" v="islet" />
		<tag k="ssr:stedsnr" v="441855" />
	</node>
	<node id="-18118" lat="66.7548194427" lon="13.1384944547">
		<tag k="fixme" v="consider seamark:type=rock or natural=shoal" />
		<tag k="name" v="Indrehumpen" />
		<tag k="place" v="islet" />
		<tag k="ssr:stedsnr" v="441832" />
	</node>
	<node id="-18117" lat="66.5869333305" lon="12.608827778">
		<tag k="name" v="Kjølsøya" />
		<tag k="place" v="island" />
		<tag k="ssr:stedsnr" v="441819" />
	</node>
	<node id="-18116" lat="66.6283166702" lon="12.6775444459">
		<tag k="name" v="Bessværgrunnen" />
		<tag k="natural" v="shoal" />
		<tag k="place" v="locality" />
		<tag k="ssr:stedsnr" v="441748" />
	</node>
	<node id="-18115" lat="66.7226249986" lon="12.5989888975">
		<tag k="bay" v="fjord" />
		<tag k="name" v="Håværkåsa" />
		<tag k="natural" v="bay" />
		<tag k="ssr:stedsnr" v="441726" />
	</node>
	<node id="-18114" lat="66.7243499968" lon="12.4688749946">
		<tag k="name" v="Innmyken" />
		<tag k="place" v="island" />
		<tag k="ssr:stedsnr" v="441716" />
	</node>
	<node id="-18113" lat="66.7336277815" lon="12.4719111146">
		<tag k="alt_name" v="Verjeholmen" />
		<tag k="name" v="Verjeholman" />
		<tag k="place" v="islet" />
		<tag k="ssr:stedsnr" v="441701" />
	</node>
	<node id="-18112" lat="66.7985250023" lon="12.7157333247">
		<tag k="name" v="Teistholmen" />
		<tag k="place" v="islet" />
		<tag k="ssr:stedsnr" v="441694" />
	</node>
	<node id="-18111" lat="66.7741083326" lon="12.4631722258">
		<tag k="name" v="Skarvholmen" />
		<tag k="place" v="islet" />
		<tag k="ssr:stedsnr" v="441688" />
	</node>
	<node id="-18109" lat="66.4603638929" lon="13.2657333261">
		<tag k="bay" v="fjord" />
		<tag k="name" v="Gjervalen" />
		<tag k="natural" v="bay" />
		<tag k="ssr:stedsnr" v="441684" />
	</node>
	<node id="-18108" lat="66.7609805541" lon="12.4392583277">
		<tag k="alt_name" v="Merra, store;Store Merra" />
		<tag k="name" v="Stormerra" />
		<tag k="place" v="islet" />
		<tag k="ssr:stedsnr" v="441683" />
	</node>
	<node id="-18107" lat="66.7648722241" lon="12.4485944543">
		<tag k="alt_name" v="Farskrovet, l" />
		<tag k="name" v="Litle Farskrovet" />
		<tag k="place" v="islet" />
		<tag k="ssr:stedsnr" v="441680" />
	</node>
	<node id="-18105" lat="66.4549638862" lon="13.2673166769">
		<tag k="name" v="Sørfjordholmen" />
		<tag k="place" v="islet" />
		<tag k="ssr:stedsnr" v="441674" />
	</node>
	<node id="-18104" lat="66.4611305537" lon="13.2396249912">
		<tag k="alt_name" v="Venes" />
		<tag k="name" v="Vedneset" />
		<tag k="natural" v="cape" />
		<tag k="ssr:stedsnr" v="441672" />
	</node>
	<node id="-18102" lat="66.813038887" lon="12.7012749905">
		<tag k="alt_name" v="Skårholmen, store" />
		<tag k="fixme" v="consider seamark:type=rock or natural=shoal" />
		<tag k="name" v="Store Skårholmen" />
		<tag k="place" v="islet" />
		<tag k="ssr:stedsnr" v="441668" />
	</node>
	<node id="-18101" lat="66.6399027754" lon="12.9451611037">
		<tag k="name" v="Skarvholmen" />
		<tag k="place" v="islet" />
		<tag k="ssr:stedsnr" v="441663" />
	</node>
	<node id="-18100" lat="66.6012527765" lon="13.0388888906">
		<tag k="name" v="Kjølsøya" />
		<tag k="place" v="island" />
		<tag k="ssr:stedsnr" v="441662" />
	</node>
	<node id="-18099" lat="66.5758499967" lon="12.9383805602">
		<tag k="name" v="Lamøya" />
		<tag k="place" v="island" />
		<tag k="ssr:stedsnr" v="441659" />
	</node>
	<node id="-18098" lat="66.541583338" lon="12.8840083266">
		<tag k="alt_name" v="Kvalneset" />
		<tag k="name" v="Kvalnesodden" />
		<tag k="natural" v="cape" />
		<tag k="ssr:stedsnr" v="441656" />
	</node>
	<node id="-18096" lat="66.5596388918" lon="13.3980583232">
		<tag k="name" v="Kvitneset" />
		<tag k="natural" v="cape" />
		<tag k="ssr:stedsnr" v="441648" />
	</node>
	<node id="-18095" lat="66.6853416679" lon="12.9240749921">
		<tag k="name" v="Lamøya" />
		<tag k="place" v="island" />
		<tag k="ssr:stedsnr" v="441629" />
	</node>
	<node id="-18094" lat="66.5636681445" lon="13.4688622551">
		<tag k="name" v="Nordsjøen" />
		<tag k="natural" v="bay" />
		<tag k="old_name" v="Holet" />
		<tag k="ssr:stedsnr" v="441432" />
	</node>
	<node id="-18088" lat="66.6168361136" lon="13.283402788">
		<tag k="name" v="Tømmerosen" />
		<tag k="natural" v="bay" />
		<tag k="ssr:stedsnr" v="441371" />
	</node>
	<node id="-18084" lat="66.6614638895" lon="13.3723638914">
		<tag k="alt_name" v="Rekvika" />
		<tag k="name" v="Rakvika" />
		<tag k="natural" v="bay" />
		<tag k="ssr:stedsnr" v="441300" />
	</node>
	<node id="-18073" lat="66.5455972233" lon="13.1171416737">
		<tag k="alt_name" v="Nord-Osan" />
		<tag k="name" v="Osan" />
		<tag k="natural" v="bay" />
		<tag k="ssr:stedsnr" v="441110" />
	</node>
	<node id="-18070" lat="66.5884166645" lon="12.836986102">
		<tag k="name" v="Skåla" />
		<tag k="place" v="islet" />
		<tag k="ssr:stedsnr" v="441044" />
	</node>
	<node id="-18069" lat="66.5858250016" lon="12.7240222184">
		<tag k="alt_name" v="Fløskjertaren" />
		<tag k="name" v="Fløskjærtaren" />
		<tag k="natural" v="shoal" />
		<tag k="place" v="locality" />
		<tag k="ssr:stedsnr" v="441041" />
	</node>
	<node id="-18068" lat="66.6025666625" lon="13.1096555498">
		<tag k="name" v="Renga" />
		<tag k="place" v="island" />
		<tag k="ssr:stedsnr" v="441039" />
	</node>
	<node id="-18066" lat="66.5614527762" lon="13.0555249926">
		<tag k="name" v="Navarskaftet" />
		<tag k="natural" v="cape" />
		<tag k="ssr:stedsnr" v="441032" />
	</node>
	<node id="-18065" lat="66.552280552" lon="12.7870000078">
		<tag k="alt_name" v="Vestrøyskjeret;Vesterøyskjær" />
		<tag k="fixme" v="consider seamark:type=rock or natural=shoal" />
		<tag k="name" v="Vesterøyskjeret" />
		<tag k="place" v="islet" />
		<tag k="ssr:stedsnr" v="441031" />
	</node>
	<node id="-18064" lat="66.5623055565" lon="12.8324444368">
		<tag k="alt_name" v="Hansskjeret;Hansskjær" />
		<tag k="fixme" v="consider seamark:type=rock or natural=shoal" />
		<tag k="name" v="Hanskjæret" />
		<tag k="place" v="islet" />
		<tag k="ssr:stedsnr" v="441021" />
	</node>
	<node id="-18062" lat="66.5723194418" lon="13.1815277692">
		<tag k="name" v="Brattholmen" />
		<tag k="place" v="islet" />
		<tag k="ssr:stedsnr" v="441013" />
	</node>
	<node id="-18061" lat="66.573566663" lon="13.1991499928">
		<tag k="name" v="Laksbuneset" />
		<tag k="natural" v="cape" />
		<tag k="ssr:stedsnr" v="441011" />
	</node>
	<node id="-18059" lat="66.5703888917" lon="12.9596749978">
		<tag k="alt_name" v="Torvøykalven" />
		<tag k="name" v="Litltorvøya" />
		<tag k="place" v="islet" />
		<tag k="ssr:stedsnr" v="441006" />
	</node>
	<node id="-18058" lat="66.6563888854" lon="13.0836027714">
		<tag k="alt_name" v="Havnøya" />
		<tag k="name" v="Hamnøya" />
		<tag k="place" v="islet" />
		<tag k="ssr:stedsnr" v="440920" />
	</node>
	<node id="-18057" lat="66.4799027813" lon="13.2801694493">
		<tag k="name" v="Mølnbukta" />
		<tag k="natural" v="bay" />
		<tag k="ssr:stedsnr" v="440592" />
	</node>
	<node id="-18054" lat="66.6353555512" lon="13.1338444504">
		<tag k="name" v="Skaftskallen" />
		<tag k="natural" v="shoal" />
		<tag k="place" v="locality" />
		<tag k="ssr:stedsnr" v="209528" />
	</node>
	<node id="-18053" lat="66.6479083331" lon="12.7879555523">
		<tag k="name" v="Tjuvholmskallen" />
		<tag k="natural" v="shoal" />
		<tag k="place" v="locality" />
		<tag k="ssr:stedsnr" v="198930" />
	</node>
	<node id="-18052" lat="66.6511861155" lon="13.0600527817">
		<tag k="alt_name" v="Belgøya" />
		<tag k="name" v="Belgen" />
		<tag k="place" v="island" />
		<tag k="ssr:stedsnr" v="198915" />
	</node>
	<node id="-18051" lat="66.6569749986" lon="13.055311106">
		<tag k="name" v="Buøya" />
		<tag k="place" v="island" />
		<tag k="ssr:stedsnr" v="198914" />
	</node>
	<node id="-18049" lat="66.6877638878" lon="12.9664416735">
		<tag k="name" v="Gjessøya" />
		<tag k="place" v="island" />
		<tag k="ssr:stedsnr" v="198903" />
	</node>
	<node id="-18047" lat="66.752049999" lon="13.1277055457">
		<tag k="alt_name" v="Margretøya, store" />
		<tag k="fixme" v="multiple name tags, choose one and add the other to alt_name" />
		<tag k="name" v="Nordmargretøya;Store Margretøya" />
		<tag k="place" v="islet" />
		<tag k="ssr:stedsnr" v="198841" />
	</node>
	<node id="-18046" lat="66.7543750038" lon="13.1307555509">
		<tag k="name" v="Olsøya" />
		<tag k="place" v="islet" />
		<tag k="ssr:stedsnr" v="198838" />
	</node>
	<node id="-18045" lat="66.7747666627" lon="12.7621888805">
		<tag k="alt_name" v="Sandværflesa, s" />
		<tag k="name" v="Sørsandværflesa" />
		<tag k="natural" v="shoal" />
		<tag k="place" v="locality" />
		<tag k="ssr:stedsnr" v="198829" />
	</node>
	<node id="-18044" lat="66.7754888873" lon="12.7724027866">
		<tag k="name" v="Storsandvær" />
		<tag k="place" v="islet" />
		<tag k="ssr:stedsnr" v="198828" />
	</node>
	<node id="-18043" lat="66.7771388904" lon="12.7638499894">
		<tag k="name" v="Æmårsøya" />
		<tag k="place" v="islet" />
		<tag k="ssr:stedsnr" v="198827" />
	</node>
	<node id="-18042" lat="66.6636888895" lon="12.5460277788">
		<tag k="name" v="Stiksøya" />
		<tag k="place" v="islet" />
		<tag k="ssr:stedsnr" v="198722" />
	</node>
	<node id="-18041" lat="66.6574138857" lon="12.5410944344">
		<tag k="name" v="Klavesøya" />
		<tag k="place" v="islet" />
		<tag k="ssr:stedsnr" v="198719" />
	</node>
	<node id="-18040" lat="66.8252583331" lon="12.7676999932">
		<tag k="alt_name" v="Skarvholmskallen, midtre" />
		<tag k="name" v="Midtre Skarvholmskallen" />
		<tag k="natural" v="shoal" />
		<tag k="place" v="locality" />
		<tag k="ssr:stedsnr" v="198713" />
	</node>
	<node id="-18037" lat="66.54323056" lon="13.3628888917">
		<tag k="name" v="Grindvika" />
		<tag k="natural" v="bay" />
		<tag k="ssr:stedsnr" v="198402" />
	</node>
	<node id="-18035" lat="66.6257666644" lon="13.2647611202">
		<tag k="name" v="Skjåvika" />
		<tag k="natural" v="bay" />
		<tag k="ssr:stedsnr" v="198330" />
	</node>
	<node id="-18032" lat="66.634383334" lon="13.3230027699">
		<tag k="alt_name" v="Kvitnesvik" />
		<tag k="name" v="Kvitnesvika" />
		<tag k="natural" v="bay" />
		<tag k="ssr:stedsnr" v="198213" />
	</node>
	<node id="-18029" lat="66.5932138927" lon="12.8240833333">
		<tag k="name" v="Ånøya" />
		<tag k="place" v="islet" />
		<tag k="ssr:stedsnr" v="198031" />
	</node>
	<node id="-18028" lat="66.6043333333" lon="13.0130777797">
		<tag k="name" v="Lyngvågen" />
		<tag k="natural" v="bay" />
		<tag k="ssr:stedsnr" v="198027" />
	</node>
	<node id="-18027" lat="66.5677611104" lon="13.1877805527">
		<tag k="alt_name" v="Høynesodden;Høynestangen" />
		<tag k="name" v="Høyneset" />
		<tag k="natural" v="cape" />
		<tag k="ssr:stedsnr" v="198018" />
	</node>
	<node id="-18026" lat="66.5678083302" lon="12.9748694516">
		<tag k="name" v="Selsøyviksundet" />
		<tag k="natural" v="strait" />
		<tag k="ssr:stedsnr" v="198013" />
	</node>
	<node id="-18024" lat="66.6906527755" lon="13.3801472266">
		<tag k="name" v="Eidsvikneset" />
		<tag k="natural" v="cape" />
		<tag k="ssr:stedsnr" v="288944" />
	</node>
	<node id="-18019" lat="66.4656277815" lon="13.3681305627">
		<tag k="name" v="Kvalvika" />
		<tag k="natural" v="bay" />
		<tag k="ssr:stedsnr" v="288424" />
	</node>
	<node id="-18014" lat="66.4610027803" lon="13.3337861018">
		<tag k="name" v="Naustneset" />
		<tag k="natural" v="cape" />
		<tag k="ssr:stedsnr" v="288001" />
	</node>
	<node id="-18007" lat="66.6095083357" lon="13.2341361168">
		<tag k="name" v="Postvika" />
		<tag k="natural" v="bay" />
		<tag k="ssr:stedsnr" v="287442" />
	</node>
	<node id="-18002" lat="66.63718056" lon="13.2416944384">
		<tag k="name" v="Storvika" />
		<tag k="natural" v="bay" />
		<tag k="ssr:stedsnr" v="287401" />
	</node>
	<node id="-17999" lat="66.6446861143" lon="13.3137833436">
		<tag k="name" v="Skivikneset" />
		<tag k="natural" v="cape" />
		<tag k="ssr:stedsnr" v="287301" />
	</node>
	<node id="-17997" lat="66.6406749998" lon="13.3552472255">
		<tag k="name" v="Skjåhågen" />
		<tag k="natural" v="cape" />
		<tag k="ssr:stedsnr" v="287291" />
	</node>
	<node id="-17995" lat="66.6260805546" lon="13.0467833411">
		<tag k="name" v="Sandvalen" />
		<tag k="natural" v="beach" />
		<tag k="place" v="locality" />
		<tag k="ssr:stedsnr" v="287270" />
	</node>
	<node id="-17984" lat="66.5664749999" lon="12.8225361076">
		<tag k="fixme" v="consider seamark:type=rock or natural=shoal" />
		<tag k="name" v="Emorskjeret" />
		<tag k="place" v="islet" />
		<tag k="ssr:stedsnr" v="287251" />
	</node>
	<node id="-17983" lat="66.64556111" lon="13.0431444535">
		<tag k="name" v="Breisundet" />
		<tag k="natural" v="strait" />
		<tag k="ssr:stedsnr" v="287250" />
	</node>
	<node id="-17982" lat="66.5802527761" lon="12.943591676">
		<tag k="fixme" v="consider seamark:type=rock or natural=shoal" />
		<tag k="name" v="Rundbuen" />
		<tag k="place" v="islet" />
		<tag k="ssr:stedsnr" v="287247" />
	</node>
	<node id="-17980" lat="66.7611611095" lon="12.4578722174">
		<tag k="name" v="Steikfesknakken" />
		<tag k="natural" v="cape" />
		<tag k="ssr:stedsnr" v="287244" />
	</node>
	<node id="-17978" lat="66.5854777814" lon="12.9005666744">
		<tag k="fixme" v="consider seamark:type=rock or natural=shoal" />
		<tag k="name" v="Sandvikskjeret" />
		<tag k="place" v="islet" />
		<tag k="ssr:stedsnr" v="287048" />
	</node>
	<node id="-17975" lat="66.574213889" lon="12.9275249899">
		<tag k="fixme" v="consider seamark:type=rock or natural=shoal" />
		<tag k="name" v="Kobbskjeret" />
		<tag k="place" v="islet" />
		<tag k="ssr:stedsnr" v="287037" />
	</node>
	<node id="-17974" lat="66.550522219" lon="12.8222305458">
		<tag k="name" v="Grønnvikfjæra" />
		<tag k="natural" v="bay" />
		<tag k="ssr:stedsnr" v="287028" />
	</node>
	<node id="-17968" lat="66.7337166626" lon="13.2656749906">
		<tag k="name" v="Tåvikneset" />
		<tag k="natural" v="cape" />
		<tag k="ssr:stedsnr" v="166868" />
	</node>
	<node id="-17960" lat="66.5653055549" lon="13.1918833413">
		<tag k="name" v="Bryggneset" />
		<tag k="natural" v="cape" />
		<tag k="ssr:stedsnr" v="165069" />
	</node>
	<node id="-17959" lat="66.5849444452" lon="12.9890277745">
		<tag k="name" v="Langfastøya" />
		<tag k="place" v="islet" />
		<tag k="ssr:stedsnr" v="165065" />
	</node>
	<node id="-17957" lat="66.6061777796" lon="12.9194083437">
		<tag k="fixme" v="consider seamark:type=rock or natural=shoal" />
		<tag k="name" v="Stangholmskjeret" />
		<tag k="place" v="islet" />
		<tag k="ssr:stedsnr" v="165061" />
	</node>
	<node id="-17956" lat="66.5434972264" lon="12.786919442">
		<tag k="name" v="Litlraudholmen" />
		<tag k="place" v="islet" />
		<tag k="ssr:stedsnr" v="165017" />
	</node>
	<node id="-17954" lat="66.5479944446" lon="12.8257583444">
		<tag k="name" v="Grønnvikfjæra" />
		<tag k="natural" v="bay" />
		<tag k="ssr:stedsnr" v="165005" />
	</node>
	<node id="-17950" lat="66.6488888865" lon="13.0442500028">
		<tag k="alt_name" v="Belgeskjær" />
		<tag k="fixme" v="consider seamark:type=rock or natural=shoal" />
		<tag k="name" v="Belgskjeret" />
		<tag k="place" v="islet" />
		<tag k="ssr:stedsnr" v="147555" />
	</node>
	<node id="-17949" lat="66.6542250042" lon="13.0566138869">
		<tag k="name" v="Belgesund" />
		<tag k="natural" v="strait" />
		<tag k="ssr:stedsnr" v="147554" />
	</node>
	<node id="-17945" lat="66.8393361129" lon="12.7479027781">
		<tag k="fixme" v="consider seamark:type=rock or natural=shoal" />
		<tag k="name" v="Store Langbrakskjær" />
		<tag k="place" v="islet" />
		<tag k="ssr:stedsnr" v="268842" />
	</node>
	<node id="-17942" lat="66.7033194458" lon="12.9037500023">
		<tag k="name" v="Ytterflesa" />
		<tag k="place" v="islet" />
		<tag k="ssr:stedsnr" v="137842" />
	</node>
	<node id="-17941" lat="66.7343194484" lon="13.0212999894">
		<tag k="name" v="Hausen" />
		<tag k="place" v="islet" />
		<tag k="ssr:stedsnr" v="137836" />
	</node>
	<node id="-17940" lat="66.7335277757" lon="13.0831444414">
		<tag k="name" v="Æværhausen" />
		<tag k="place" v="islet" />
		<tag k="ssr:stedsnr" v="137833" />
	</node>
	<node id="-17939" lat="66.7501944432" lon="13.1136333441">
		<tag k="fixme" v="consider seamark:type=rock or natural=shoal" />
		<tag k="name" v="Eggløysa" />
		<tag k="place" v="islet" />
		<tag k="ssr:stedsnr" v="137826" />
	</node>
	<node id="-17938" lat="66.7647972183" lon="12.8356916634">
		<tag k="name" v="Litltaren" />
		<tag k="natural" v="shoal" />
		<tag k="place" v="locality" />
		<tag k="ssr:stedsnr" v="137812" />
	</node>
	<node id="-17930" lat="66.5884444454" lon="13.0471611125">
		<tag k="alt_name" v="Øygardsneset" />
		<tag k="name" v="Ødegårdsneset" />
		<tag k="natural" v="cape" />
		<tag k="ssr:stedsnr" v="137045" />
	</node>
	<node id="-17929" lat="66.5832666624" lon="12.7895111068">
		<tag k="alt_name" v="Raudholmskjeret, yt" />
		<tag k="fixme" v="consider seamark:type=rock or natural=shoal" />
		<tag k="name" v="Ytre Raudholmskjær" />
		<tag k="place" v="islet" />
		<tag k="ssr:stedsnr" v="137038" />
	</node>
	<node id="-17928" lat="66.585775" lon="12.9133277789">
		<tag k="name" v="Sundøya" />
		<tag k="place" v="island" />
		<tag k="ssr:stedsnr" v="137037" />
	</node>
	<node id="-17925" lat="66.6014027819" lon="13.1525027833">
		<tag k="name" v="Kvitholmen" />
		<tag k="place" v="islet" />
		<tag k="ssr:stedsnr" v="137021" />
	</node>
	<node id="-17921" lat="66.5678055532" lon="12.9450944549">
		<tag k="name" v="Teistholmen" />
		<tag k="place" v="islet" />
		<tag k="ssr:stedsnr" v="137009" />
	</node>
	<node id="-17920" lat="66.5743527807" lon="12.7726611221">
		<tag k="name" v="Raudholmgrunnen" />
		<tag k="natural" v="shoal" />
		<tag k="place" v="locality" />
		<tag k="ssr:stedsnr" v="137002" />
	</node>
	<node id="-17916" lat="66.7420666639" lon="13.3616805576">
		<tag k="bay" v="fjord" />
		<tag k="name" v="Skarsfjorden" />
		<tag k="natural" v="bay" />
		<tag k="ssr:stedsnr" v="137124" />
	</node>
	<node id="-17913" lat="66.634655554" lon="13.2310027872">
		<tag k="name" v="Esjeholmbukta" />
		<tag k="natural" v="bay" />
		<tag k="ssr:stedsnr" v="267518" />
	</node>
	<node id="-17910" lat="66.6337861101" lon="13.2147333239">
		<tag k="name" v="Lamøya" />
		<tag k="place" v="island" />
		<tag k="ssr:stedsnr" v="259999" />
	</node>
	<node id="-17908" lat="66.6166000037" lon="13.0338194544">
		<tag k="name" v="Gjerdøya" />
		<tag k="place" v="island" />
		<tag k="ssr:stedsnr" v="259989" />
	</node>
	<node id="-17907" lat="66.6089777802" lon="12.7185499932">
		<tag k="name" v="Gammskjeret" />
		<tag k="place" v="islet" />
		<tag k="ssr:stedsnr" v="259980" />
	</node>
	<node id="-17906" lat="66.6624861124" lon="13.0044638973">
		<tag k="alt_name" v="Langøya, austre" />
		<tag k="name" v="Østre Langøya" />
		<tag k="place" v="islet" />
		<tag k="ssr:stedsnr" v="259933" />
	</node>
	<node id="-17905" lat="66.6638250019" lon="13.0940083447">
		<tag k="fixme" v="consider seamark:type=rock or natural=shoal" />
		<tag k="name" v="Galten" />
		<tag k="place" v="islet" />
		<tag k="ssr:stedsnr" v="259923" />
	</node>
	<node id="-17903" lat="66.6909916703" lon="12.9888555538">
		<tag k="alt_name" v="Kobbskjeret" />
		<tag k="fixme" v="consider seamark:type=rock or natural=shoal" />
		<tag k="name" v="Kobbskjær" />
		<tag k="place" v="islet" />
		<tag k="ssr:stedsnr" v="259909" />
	</node>
	<node id="-17902" lat="66.6931250011" lon="13.1473833294">
		<tag k="name" v="Stolen" />
		<tag k="natural" v="shoal" />
		<tag k="place" v="locality" />
		<tag k="ssr:stedsnr" v="259893" />
	</node>
	<node id="-17901" lat="66.6692333344" lon="12.9825750098">
		<tag k="name" v="Takøya" />
		<tag k="place" v="islet" />
		<tag k="ssr:stedsnr" v="259878" />
	</node>
	<node id="-17900" lat="66.7021611125" lon="13.0826027753">
		<tag k="name" v="Valøyskallen" />
		<tag k="natural" v="shoal" />
		<tag k="place" v="locality" />
		<tag k="ssr:stedsnr" v="259857" />
	</node>
	<node id="-17899" lat="66.8088805512" lon="12.7525138891">
		<tag k="name" v="Bønneholman" />
		<tag k="place" v="islet" />
		<tag k="ssr:stedsnr" v="259788" />
	</node>
	<node id="-17898" lat="66.8026249989" lon="12.7587111168">
		<tag k="name" v="Skjåholmen" />
		<tag k="place" v="islet" />
		<tag k="ssr:stedsnr" v="259783" />
	</node>
	<node id="-17897" lat="66.8170555545" lon="12.7518500074">
		<tag k="fixme" v="consider seamark:type=rock or natural=shoal" />
		<tag k="name" v="Seiskjeret" />
		<tag k="place" v="islet" />
		<tag k="ssr:stedsnr" v="259775" />
	</node>
	<node id="-17896" lat="66.6245472191" lon="12.6218444407">
		<tag k="alt_name" v="Svartskjeret" />
		<tag k="fixme" v="consider seamark:type=rock or natural=shoal" />
		<tag k="name" v="Svartskjæret" />
		<tag k="place" v="islet" />
		<tag k="ssr:stedsnr" v="259770" />
	</node>
	<node id="-17895" lat="66.6201666693" lon="12.6215833322">
		<tag k="fixme" v="consider seamark:type=rock or natural=shoal" />
		<tag k="name" v="Måsflesa" />
		<tag k="place" v="islet" />
		<tag k="ssr:stedsnr" v="259768" />
	</node>
	<node id="-17892" lat="66.4643555537" lon="13.290797232">
		<tag k="alt_name" v="Klubben" />
		<tag k="name" v="Skivikklubben" />
		<tag k="natural" v="cape" />
		<tag k="ssr:stedsnr" v="259665" />
	</node>
	<node id="-17890" lat="66.4734611133" lon="13.2800916712">
		<tag k="alt_name" v="Jektvika" />
		<tag k="name" v="Jektvik" />
		<tag k="natural" v="bay" />
		<tag k="ssr:stedsnr" v="259658" />
	</node>
	<node id="-17888" lat="66.8422000008" lon="12.7143694533">
		<tag k="fixme" v="consider seamark:type=rock or natural=shoal" />
		<tag k="name" v="Olsbraken" />
		<tag k="place" v="islet" />
		<tag k="ssr:stedsnr" v="259652" />
	</node>
	<node id="-17887" lat="66.811941668" lon="12.6320972146">
		<tag k="alt_name" v="Kjerringskjeret" />
		<tag k="fixme" v="consider seamark:type=rock or natural=shoal" />
		<tag k="name" v="Kjerringskjær" />
		<tag k="place" v="islet" />
		<tag k="ssr:stedsnr" v="259637" />
	</node>
	<node id="-17886" lat="66.473997222" lon="13.2413666769">
		<tag k="name" v="Brennesvika" />
		<tag k="natural" v="bay" />
		<tag k="ssr:stedsnr" v="259630" />
	</node>
	<node id="-17876" lat="66.5505749981" lon="13.2712249967">
		<tag k="name" v="Hammarheivika" />
		<tag k="natural" v="bay" />
		<tag k="ssr:stedsnr" v="259432" />
	</node>
	<node id="-17874" lat="66.6892694477" lon="13.4151055559">
		<tag k="alt_name" v="Hamn" />
		<tag k="name" v="Hamna" />
		<tag k="natural" v="bay" />
		<tag k="ssr:stedsnr" v="259197" />
	</node>
	<node id="-17873" lat="66.6749749995" lon="13.2276138981">
		<tag k="name" v="Bøkvalvika" />
		<tag k="natural" v="bay" />
		<tag k="ssr:stedsnr" v="259195" />
	</node>
	<node id="-17872" lat="66.6715166632" lon="13.2421305508">
		<tag k="name" v="Lamholmen" />
		<tag k="place" v="islet" />
		<tag k="ssr:stedsnr" v="259187" />
	</node>
	<node id="-17870" lat="66.5935527817" lon="12.8379194496">
		<tag k="alt_name" v="Ørnøya, l" />
		<tag k="name" v="Litle Ørnøya" />
		<tag k="place" v="islet" />
		<tag k="ssr:stedsnr" v="259030" />
	</node>
	<node id="-17869" lat="66.5876444455" lon="12.7215194351">
		<tag k="alt_name" v="Fløskjeran" />
		<tag k="fixme" v="consider seamark:type=rock or natural=shoal" />
		<tag k="name" v="Fløskjæran" />
		<tag k="place" v="islet" />
		<tag k="ssr:stedsnr" v="259027" />
	</node>
	<node id="-17868" lat="66.6001666661" lon="13.028719454">
		<tag k="name" v="Gjømma" />
		<tag k="natural" v="strait" />
		<tag k="ssr:stedsnr" v="259024" />
	</node>
	<node id="-17867" lat="66.5666333331" lon="12.9661555591">
		<tag k="fixme" v="consider seamark:type=rock or natural=shoal" />
		<tag k="name" v="Skåla" />
		<tag k="place" v="islet" />
		<tag k="ssr:stedsnr" v="259022" />
	</node>
	<node id="-17866" lat="66.5689944449" lon="12.9642694552">
		<tag k="name" v="Verholman" />
		<tag k="place" v="islet" />
		<tag k="ssr:stedsnr" v="259017" />
	</node>
	<node id="-17862" lat="66.6258499969" lon="13.3901138851">
		<tag k="name" v="Kista" />
		<tag k="natural" v="bay" />
		<tag k="ssr:stedsnr" v="259234" />
	</node>
	<node id="-17859" lat="66.5434777816" lon="13.0570749972">
		<tag k="name" v="Vedholmen" />
		<tag k="place" v="islet" />
		<tag k="ssr:stedsnr" v="259087" />
	</node>
	<node id="-17858" lat="66.7662555575" lon="13.1626083429">
		<tag k="name" v="Kjeøydrægen" />
		<tag k="place" v="islet" />
		<tag k="ssr:stedsnr" v="258836" />
	</node>
	<node id="-17857" lat="66.7531694418" lon="12.442980564">
		<tag k="alt_name" v="Torbeinholmen" />
		<tag k="name" v="Stortørrbeinholmen" />
		<tag k="place" v="islet" />
		<tag k="ssr:stedsnr" v="258698" />
	</node>
	<node id="-17856" lat="66.7318472195" lon="12.5042999933">
		<tag k="name" v="Hundholmen" />
		<tag k="place" v="islet" />
		<tag k="ssr:stedsnr" v="258696" />
	</node>
	<node id="-17854" lat="66.7701166656" lon="12.4480083422">
		<tag k="alt_name" v="Måøya, yt;Ytre Måøya" />
		<tag k="name" v="Ytter Måøya" />
		<tag k="place" v="island" />
		<tag k="ssr:stedsnr" v="258682" />
	</node>
	<node id="-17852" lat="66.6783944401" lon="12.9757083353">
		<tag k="name" v="Rørholman" />
		<tag k="place" v="islet" />
		<tag k="ssr:stedsnr" v="87746" />
	</node>
	<node id="-17851" lat="66.538763886" lon="12.7580249911">
		<tag k="name" v="Ytre Vikaskallen" />
		<tag k="natural" v="shoal" />
		<tag k="place" v="locality" />
		<tag k="ssr:stedsnr" v="87710" />
	</node>
	<node id="-17849" lat="66.704897219" lon="13.236919442">
		<tag k="name" v="Bryteran" />
		<tag k="natural" v="shoal" />
		<tag k="place" v="locality" />
		<tag k="ssr:stedsnr" v="86409" />
	</node>
	<node id="-17847" lat="66.6685722192" lon="13.0297027738">
		<tag k="name" v="Reinholman" />
		<tag k="place" v="islet" />
		<tag k="ssr:stedsnr" v="86354" />
	</node>
	<node id="-17846" lat="66.7583666669" lon="12.7083916565">
		<tag k="name" v="Østskåltaren" />
		<tag k="natural" v="shoal" />
		<tag k="place" v="locality" />
		<tag k="ssr:stedsnr" v="85654" />
	</node>
	<node id="-17845" lat="66.7579972232" lon="12.6917027681">
		<tag k="name" v="Vestskåltaren" />
		<tag k="natural" v="shoal" />
		<tag k="place" v="locality" />
		<tag k="ssr:stedsnr" v="85652" />
	</node>
	<node id="-17837" lat="66.6621333331" lon="13.4274111166">
		<tag k="name" v="Handvikneset" />
		<tag k="natural" v="cape" />
		<tag k="ssr:stedsnr" v="77319" />
	</node>
	<node id="-17836" lat="66.6574083371" lon="13.3881999937">
		<tag k="name" v="Hopsneset" />
		<tag k="natural" v="cape" />
		<tag k="ssr:stedsnr" v="77317" />
	</node>
	<node id="-17830" lat="66.5767388877" lon="12.9117222133">
		<tag k="name" v="Arvika" />
		<tag k="natural" v="bay" />
		<tag k="ssr:stedsnr" v="44037" />
	</node>
	<node id="-17829" lat="66.5770027755" lon="12.9177805619">
		<tag k="name" v="Homannsvika" />
		<tag k="natural" v="bay" />
		<tag k="ssr:stedsnr" v="44034" />
	</node>
	<node id="-17825" lat="66.5541805528" lon="12.8156638818">
		<tag k="name" v="Hella" />
		<tag k="natural" v="cape" />
		<tag k="ssr:stedsnr" v="44003" />
	</node>
	<node id="-17818" lat="66.6596694452" lon="13.3900805561">
		<tag k="name" v="Leirvika" />
		<tag k="natural" v="bay" />
		<tag k="ssr:stedsnr" v="227926" />
	</node>
	<node id="-17809" lat="66.5307777793" lon="13.152652772">
		<tag k="name" v="Tortendalsklubben" />
		<tag k="natural" v="cape" />
		<tag k="ssr:stedsnr" v="227126" />
	</node>
	<node id="-17803" lat="66.4980416626" lon="13.2131222262">
		<tag k="name" v="Pørsvika" />
		<tag k="natural" v="bay" />
		<tag k="ssr:stedsnr" v="227038" />
	</node>
	<node id="-17802" lat="66.4514472182" lon="13.2350222309">
		<tag k="name" v="Ørnvika" />
		<tag k="natural" v="bay" />
		<tag k="ssr:stedsnr" v="227018" />
	</node>
	<node id="-17796" lat="66.5842083287" lon="12.9444722318">
		<tag k="fixme" v="consider seamark:type=rock or natural=shoal" />
		<tag k="name" v="Krabbeskjeret" />
		<tag k="place" v="islet" />
		<tag k="ssr:stedsnr" v="226633" />
	</node>
	<node id="-17786" lat="66.6267499983" lon="13.3162222272">
		<tag k="name" v="Elvneset" />
		<tag k="natural" v="cape" />
		<tag k="ssr:stedsnr" v="226371" />
	</node>
	<node id="-17778" lat="66.6494222245" lon="13.2061083261">
		<tag k="name" v="Værnesosen" />
		<tag k="natural" v="bay" />
		<tag k="ssr:stedsnr" v="25408" />
	</node>
	<node id="-17772" lat="66.5764444416" lon="12.979305553">
		<tag k="name" v="Kleneset" />
		<tag k="natural" v="cape" />
		<tag k="ssr:stedsnr" v="226243" />
	</node>
	<node id="-17771" lat="66.7710888874" lon="12.4713277872">
		<tag k="name" v="Ytter-Råholmen" />
		<tag k="place" v="islet" />
		<tag k="ssr:stedsnr" v="226235" />
	</node>
	<node id="-17770" lat="66.5926333354" lon="12.666233339">
		<tag k="name" v="Olavika" />
		<tag k="natural" v="bay" />
		<tag k="ssr:stedsnr" v="226231" />
	</node>
	<node id="-17769" lat="66.6111694438" lon="12.6266638886">
		<tag k="name" v="Søshamnholmskjeret" />
		<tag k="place" v="islet" />
		<tag k="ssr:stedsnr" v="226230" />
	</node>
	<node id="-17768" lat="66.5638694479" lon="12.9553055641">
		<tag k="fixme" v="consider seamark:type=rock or natural=shoal" />
		<tag k="name" v="Skjerøyoddan" />
		<tag k="place" v="islet" />
		<tag k="ssr:stedsnr" v="226225" />
	</node>
	<node id="-17764" lat="66.6421166695" lon="13.0418805637">
		<tag k="name" v="Esvågodden" />
		<tag k="natural" v="cape" />
		<tag k="ssr:stedsnr" v="226173" />
	</node>
	<node id="-17759" lat="66.5782638906" lon="13.2122388849">
		<tag k="name" v="Hestvika" />
		<tag k="natural" v="bay" />
		<tag k="ssr:stedsnr" v="226100" />
	</node>
	<node id="-17752" lat="66.7452972204" lon="13.108077782">
		<tag k="name" v="Sørsmåmåsøya" />
		<tag k="place" v="islet" />
		<tag k="ssr:stedsnr" v="24602" />
	</node>
	<node id="-17751" lat="66.7645277745" lon="12.4868999922">
		<tag k="name" v="Dørgholmen" />
		<tag k="place" v="islet" />
		<tag k="ssr:stedsnr" v="225185" />
	</node>
	<node id="-17749" lat="66.6919944466" lon="12.7477749941">
		<tag k="name" v="Gammøya" />
		<tag k="place" v="islet" />
		<tag k="ssr:stedsnr" v="16849" />
	</node>
	<node id="-17748" lat="66.7411083342" lon="13.162449989">
		<tag k="alt_name" v="Naustholmen" />
		<tag k="name" v="Nordnaustholmen" />
		<tag k="place" v="islet" />
		<tag k="ssr:stedsnr" v="16841" />
	</node>
	<node id="-17747" lat="66.7350611127" lon="13.0916499936">
		<tag k="name" v="Ævær" />
		<tag k="place" v="island" />
		<tag k="ssr:stedsnr" v="16839" />
	</node>
	<node id="-17746" lat="66.7634805522" lon="12.8550916744">
		<tag k="name" v="Skogsholmen" />
		<tag k="place" v="islet" />
		<tag k="ssr:stedsnr" v="16830" />
	</node>
	<node id="-17745" lat="66.7784305537" lon="12.768577783">
		<tag k="alt_name" v="Leiskjeran" />
		<tag k="fixme" v="consider seamark:type=rock or natural=shoal" />
		<tag k="name" v="Leiskjæran" />
		<tag k="place" v="islet" />
		<tag k="ssr:stedsnr" v="16826" />
	</node>
	<node id="-17743" lat="66.6706333309" lon="13.1993944517">
		<tag k="name" v="Kalvhagen" />
		<tag k="natural" v="cape" />
		<tag k="ssr:stedsnr" v="16922" />
	</node>
	<node id="-17742" lat="66.6533777742" lon="12.9011277822">
		<tag k="name" v="Djupfallet" />
		<tag k="natural" v="shoal" />
		<tag k="place" v="locality" />
		<tag k="ssr:stedsnr" v="16912" />
	</node>
	<node id="-17740" lat="66.6587249955" lon="13.1693194503">
		<tag k="name" v="Setvikodden" />
		<tag k="natural" v="cape" />
		<tag k="ssr:stedsnr" v="16904" />
	</node>
	<node id="-17739" lat="66.8858250047" lon="12.8474499915">
		<tag k="name" v="Svebåskallen" />
		<tag k="natural" v="shoal" />
		<tag k="place" v="locality" />
		<tag k="ssr:stedsnr" v="16710" />
	</node>
	<node id="-17731" lat="66.6094611118" lon="13.6017000035">
		<tag k="name" v="Gandvika" />
		<tag k="natural" v="bay" />
		<tag k="ssr:stedsnr" v="16319" />
	</node>
	<node id="-17727" lat="66.6046027792" lon="13.6103833255">
		<tag k="name" v="Skavika" />
		<tag k="natural" v="bay" />
		<tag k="ssr:stedsnr" v="16309" />
	</node>
	<node id="-17722" lat="66.714666669" lon="13.254433337">
		<tag k="name" v="Gjeddvika" />
		<tag k="natural" v="bay" />
		<tag k="ssr:stedsnr" v="16125" />
	</node>
	<node id="-17721" lat="66.5418916652" lon="13.1303333315">
		<tag k="name" v="Rykkevikklubben" />
		<tag k="natural" v="cape" />
		<tag k="ssr:stedsnr" v="16103" />
	</node>
	<node id="-17718" lat="66.593958331" lon="12.7831694463">
		<tag k="alt_name" v="Ærøya, l" />
		<tag k="name" v="Litle Ærøya" />
		<tag k="place" v="island" />
		<tag k="ssr:stedsnr" v="16030" />
	</node>
	<node id="-17716" lat="66.5521444421" lon="12.8117916596">
		<tag k="alt_name" v="Vestrøya" />
		<tag k="name" v="Vesterøya" />
		<tag k="natural" v="cape" />
		<tag k="ssr:stedsnr" v="16017" />
	</node>
	<node id="-17715" lat="66.5608805594" lon="12.940455556">
		<tag k="alt_name" v="Kvitingen" />
		<tag k="name" v="Indre Kvitingen" />
		<tag k="place" v="islet" />
		<tag k="ssr:stedsnr" v="16016" />
	</node>
	<node id="-17713" lat="66.5882888918" lon="13.1047805467">
		<tag k="fixme" v="multiple name tags, choose one and add the other to alt_name" />
		<tag k="name" v="Djupvika;Juvvika" />
		<tag k="natural" v="bay" />
		<tag k="ssr:stedsnr" v="16004" />
	</node>
	<node id="-19538" lat="66.4485472185" lon="13.251499996">
		<tag k="name" v="Vika" />
		<tag k="natural" v="bay" />
		<tag k="ssr:stedsnr" v="166017" />
	</node>
	<node id="-19517" lat="66.5903166664" lon="12.6577166682">
		<tag k="name" v="Grimslandfjæra" />
		<tag k="natural" v="bay" />
		<tag k="ssr:stedsnr" v="165241" />
	</node>
	<node id="-19516" lat="66.6311833298" lon="13.0104111014">
		<tag k="name" v="Andvalen" />
		<tag k="natural" v="bay" />
		<tag k="ssr:stedsnr" v="165240" />
	</node>
	<node id="-19514" lat="66.5434944452" lon="13.0673944384">
		<tag k="fixme" v="consider seamark:type=rock or natural=shoal" />
		<tag k="name" v="Fløskjeret" />
		<tag k="place" v="islet" />
		<tag k="ssr:stedsnr" v="165229" />
	</node>
	<node id="-19510" lat="66.6546499988" lon="13.072691664">
		<tag k="name" v="Belgen" />
		<tag k="place" v="islet" />
		<tag k="ssr:stedsnr" v="165174" />
	</node>
	<node id="-19508" lat="66.6354916641" lon="12.9820944431">
		<tag k="name" v="Svenningssundet" />
		<tag k="natural" v="strait" />
		<tag k="ssr:stedsnr" v="165036" />
	</node>
	<node id="-19503" lat="66.573188891" lon="13.2066972324">
		<tag k="name" v="Sandvikberget" />
		<tag k="natural" v="cape" />
		<tag k="ssr:stedsnr" v="165077" />
	</node>
	<node id="-19501" lat="66.549822222" lon="12.8364694449">
		<tag k="fixme" v="multiple name tags, choose one and add the other to alt_name" />
		<tag k="name" v="Selsøya;Storselsøya" />
		<tag k="place" v="island" />
		<tag k="ssr:stedsnr" v="163015" />
	</node>
	<node id="-19495" lat="66.6979611099" lon="13.2890111054">
		<tag k="alt_name" v="Småskjeran" />
		<tag k="fixme" v="consider seamark:type=rock or natural=shoal" />
		<tag k="name" v="Småskjæran" />
		<tag k="place" v="islet" />
		<tag k="ssr:stedsnr" v="146381" />
	</node>
	<node id="-19494" lat="66.7344555516" lon="12.7127472161">
		<tag k="name" v="Gannflesflua" />
		<tag k="natural" v="shoal" />
		<tag k="place" v="locality" />
		<tag k="ssr:stedsnr" v="145684" />
	</node>
	<node id="-19493" lat="66.7884777736" lon="12.596019447">
		<tag k="name" v="Voksholmskallen" />
		<tag k="natural" v="shoal" />
		<tag k="place" v="locality" />
		<tag k="ssr:stedsnr" v="145673" />
	</node>
	<node id="-19492" lat="66.6269888896" lon="13.1283305655">
		<tag k="name" v="Valøya" />
		<tag k="place" v="island" />
		<tag k="ssr:stedsnr" v="137997" />
	</node>
	<node id="-19491" lat="66.6156388853" lon="12.8065166595">
		<tag k="alt_name" v="Futøygrunnen, vestre" />
		<tag k="name" v="Vestre Futøygrunnen" />
		<tag k="natural" v="shoal" />
		<tag k="place" v="locality" />
		<tag k="ssr:stedsnr" v="137994" />
	</node>
	<node id="-19489" lat="66.6161194427" lon="13.0883138802">
		<tag k="name" v="Småholman" />
		<tag k="place" v="islet" />
		<tag k="ssr:stedsnr" v="137987" />
	</node>
	<node id="-19488" lat="66.600886114" lon="12.8201138953">
		<tag k="name" v="Hellarøya" />
		<tag k="place" v="island" />
		<tag k="ssr:stedsnr" v="137979" />
	</node>
	<node id="-19486" lat="66.6246833359" lon="12.7753305572">
		<tag k="name" v="Sandværholmtaren" />
		<tag k="natural" v="shoal" />
		<tag k="place" v="locality" />
		<tag k="ssr:stedsnr" v="137946" />
	</node>
	<node id="-19485" lat="66.6628527768" lon="12.9634638816">
		<tag k="alt_name" v="Hestøyskjeran" />
		<tag k="fixme" v="consider seamark:type=rock or natural=shoal" />
		<tag k="name" v="Hestøyskjæran" />
		<tag k="place" v="islet" />
		<tag k="ssr:stedsnr" v="137916" />
	</node>
	<node id="-19484" lat="66.6699000006" lon="13.1415361069">
		<tag k="bay" v="fjord" />
		<tag k="name" v="Rødøyfjorden" />
		<tag k="natural" v="bay" />
		<tag k="ssr:stedsnr" v="137915" />
	</node>
	<node id="-19483" lat="66.6470111078" lon="12.911424995">
		<tag k="name" v="Skarvholmtaren" />
		<tag k="natural" v="shoal" />
		<tag k="place" v="locality" />
		<tag k="ssr:stedsnr" v="137897" />
	</node>
	<node id="-19482" lat="66.8010111104" lon="12.746480545">
		<tag k="name" v="Hummarøya" />
		<tag k="place" v="islet" />
		<tag k="ssr:stedsnr" v="137747" />
	</node>
	<node id="-19481" lat="66.8001083313" lon="12.7295527681">
		<tag k="name" v="Valøya" />
		<tag k="place" v="islet" />
		<tag k="ssr:stedsnr" v="137744" />
	</node>
	<node id="-19480" lat="66.7909277747" lon="12.7469694358">
		<tag k="fixme" v="consider seamark:type=rock or natural=shoal" />
		<tag k="name" v="Hatten" />
		<tag k="place" v="islet" />
		<tag k="ssr:stedsnr" v="137739" />
	</node>
	<node id="-19479" lat="66.7984166695" lon="12.7281777737">
		<tag k="name" v="Våndholmen" />
		<tag k="place" v="islet" />
		<tag k="ssr:stedsnr" v="137737" />
	</node>
	<node id="-19478" lat="66.8205555568" lon="12.7422166642">
		<tag k="alt_name" v="Skarvungen, vestre" />
		<tag k="name" v="Vestre Skarvungen" />
		<tag k="natural" v="shoal" />
		<tag k="place" v="locality" />
		<tag k="ssr:stedsnr" v="137732" />
	</node>
	<node id="-19477" lat="66.8600388868" lon="12.8723999899">
		<tag k="name" v="Ljosbåen" />
		<tag k="natural" v="shoal" />
		<tag k="place" v="locality" />
		<tag k="ssr:stedsnr" v="137701" />
	</node>
	<node id="-19476" lat="66.8589000019" lon="12.8641805658">
		<tag k="name" v="Vestretaren" />
		<tag k="natural" v="shoal" />
		<tag k="place" v="locality" />
		<tag k="ssr:stedsnr" v="137700" />
	</node>
	<node id="-19475" lat="66.6688388932" lon="12.5374527797">
		<tag k="alt_name" v="Bremholmen" />
		<tag k="name" v="Brimholmen" />
		<tag k="place" v="islet" />
		<tag k="ssr:stedsnr" v="137697" />
	</node>
	<node id="-19474" lat="66.6681750019" lon="12.5611027757">
		<tag k="name" v="Giskenøya" />
		<tag k="place" v="islet" />
		<tag k="ssr:stedsnr" v="137696" />
	</node>
	<node id="-19473" lat="66.8188555573" lon="12.8561861143">
		<tag k="alt_name" v="Ramngrunnen, l" />
		<tag k="name" v="Litlravngrunnen" />
		<tag k="natural" v="shoal" />
		<tag k="place" v="locality" />
		<tag k="ssr:stedsnr" v="137690" />
	</node>
	<node id="-19472" lat="66.8431750043" lon="12.7673166628">
		<tag k="fixme" v="multiple name tags, choose one and add the other to alt_name; consider seamark:type=rock or natural=shoal" />
		<tag k="name" v="Brakskjeret;Nordre Langbrakskjær" />
		<tag k="place" v="islet" />
		<tag k="ssr:stedsnr" v="137688" />
	</node>
	<node id="-19471" lat="66.718499996" lon="12.4473250091">
		<tag k="name" v="Andersholmknausen" />
		<tag k="natural" v="shoal" />
		<tag k="place" v="locality" />
		<tag k="ssr:stedsnr" v="137686" />
	</node>
	<node id="-19470" lat="66.7203416654" lon="12.4784361191">
		<tag k="name" v="Skåka" />
		<tag k="place" v="islet" />
		<tag k="ssr:stedsnr" v="137683" />
	</node>
	<node id="-19469" lat="66.7226805568" lon="12.4979666694">
		<tag k="alt_name" v="Båtliholmen" />
		<tag k="name" v="Nordbåtliholmen" />
		<tag k="place" v="islet" />
		<tag k="ssr:stedsnr" v="137680" />
	</node>
	<node id="-19468" lat="66.7136305577" lon="12.4805555467">
		<tag k="alt_name" v="Håøyskjeret" />
		<tag k="fixme" v="consider seamark:type=rock or natural=shoal" />
		<tag k="name" v="Håøyskjær" />
		<tag k="place" v="islet" />
		<tag k="ssr:stedsnr" v="137668" />
	</node>
	<node id="-19467" lat="66.7505888899" lon="12.5899611098">
		<tag k="name" v="Kråktaran" />
		<tag k="natural" v="shoal" />
		<tag k="place" v="locality" />
		<tag k="ssr:stedsnr" v="137656" />
	</node>
	<node id="-19466" lat="66.7331333329" lon="12.4961444493">
		<tag k="name" v="Innmykøya" />
		<tag k="place" v="island" />
		<tag k="ssr:stedsnr" v="137655" />
	</node>
	<node id="-19465" lat="66.7730138911" lon="12.4742666775">
		<tag k="alt_name" v="Råholmskjær" />
		<tag k="fixme" v="multiple name tags, choose one and add the other to alt_name; consider seamark:type=rock or natural=shoal" />
		<tag k="name" v="Nordråholmskjeret;Råholmskjeret" />
		<tag k="place" v="islet" />
		<tag k="ssr:stedsnr" v="137644" />
	</node>
	<node id="-19464" lat="66.770475003" lon="12.5982777705">
		<tag k="name" v="Spekkflesa" />
		<tag k="place" v="islet" />
		<tag k="ssr:stedsnr" v="137640" />
	</node>
	<node id="-19462" lat="66.8104500036" lon="12.5378027877">
		<tag k="name" v="Sørfallet" />
		<tag k="natural" v="shoal" />
		<tag k="place" v="locality" />
		<tag k="ssr:stedsnr" v="137629" />
	</node>
	<node id="-19461" lat="66.8072861146" lon="12.6157527863">
		<tag k="alt_name" v="Løynfallet, nordre" />
		<tag k="name" v="Nordre Løynfallet" />
		<tag k="natural" v="shoal" />
		<tag k="place" v="locality" />
		<tag k="ssr:stedsnr" v="137625" />
	</node>
	<node id="-19460" lat="66.5964305587" lon="12.7698999994">
		<tag k="bay" v="fjord" />
		<tag k="name" v="Risværfjorden" />
		<tag k="natural" v="bay" />
		<tag k="ssr:stedsnr" v="137622" />
	</node>
	<node id="-19459" lat="66.5632833333" lon="12.9976833362">
		<tag k="name" v="Osen" />
		<tag k="natural" v="bay" />
		<tag k="ssr:stedsnr" v="137617" />
	</node>
	<node id="-19457" lat="66.6917277787" lon="13.0043305577">
		<tag k="name" v="Hårværgrunnen" />
		<tag k="natural" v="shoal" />
		<tag k="place" v="locality" />
		<tag k="ssr:stedsnr" v="137889" />
	</node>
	<node id="-19456" lat="66.6867611149" lon="12.7623861128">
		<tag k="alt_name" v="Hausskjeran" />
		<tag k="fixme" v="consider seamark:type=rock or natural=shoal" />
		<tag k="name" v="Hausskjæran" />
		<tag k="place" v="islet" />
		<tag k="ssr:stedsnr" v="137882" />
	</node>
	<node id="-19455" lat="66.6961388909" lon="13.064974998">
		<tag k="name" v="Tjørnarøya" />
		<tag k="place" v="island" />
		<tag k="ssr:stedsnr" v="137877" />
	</node>
	<node id="-19454" lat="66.7482000032" lon="13.1810194444">
		<tag k="name" v="Gylta" />
		<tag k="place" v="islet" />
		<tag k="ssr:stedsnr" v="137859" />
	</node>
	<node id="-19452" lat="66.5382500037" lon="13.3356583409">
		<tag k="name" v="Skallodden" />
		<tag k="natural" v="cape" />
		<tag k="ssr:stedsnr" v="137410" />
	</node>
	<node id="-19449" lat="66.6555000032" lon="13.5294500057">
		<tag k="name" v="Kjettneset" />
		<tag k="natural" v="cape" />
		<tag k="ssr:stedsnr" v="137249" />
	</node>
	<node id="-19442" lat="66.53635833" lon="13.1353194339">
		<tag k="name" v="Kvitneset" />
		<tag k="natural" v="cape" />
		<tag k="ssr:stedsnr" v="137087" />
	</node>
	<node id="-19439" lat="66.5999305597" lon="13.5651888872">
		<tag k="name" v="Øksvikodden" />
		<tag k="natural" v="cape" />
		<tag k="ssr:stedsnr" v="137301" />
	</node>
	<node id="-19438" lat="66.5612500009" lon="13.3451166561">
		<tag k="name" v="Juvika" />
		<tag k="natural" v="bay" />
		<tag k="ssr:stedsnr" v="137292" />
	</node>
	<node id="-19437" lat="66.5756250044" lon="13.498277771">
		<tag k="alt_name" v="Handvika, yt" />
		<tag k="name" v="Ytre Handvika" />
		<tag k="natural" v="bay" />
		<tag k="ssr:stedsnr" v="137291" />
	</node>
	<node id="-19434" lat="66.6917277821" lon="12.7595277674">
		<tag k="name" v="Blikværhausen" />
		<tag k="place" v="islet" />
		<tag k="ssr:stedsnr" v="117845" />
	</node>
	<node id="-19425" lat="66.4701888933" lon="13.3817999914">
		<tag k="name" v="Kvalvikodden" />
		<tag k="natural" v="cape" />
		<tag k="ssr:stedsnr" v="106442" />
	</node>
	<node id="-19399" lat="66.6176416657" lon="13.2714750031">
		<tag k="name" v="Aspvika" />
		<tag k="natural" v="bay" />
		<tag k="ssr:stedsnr" v="105449" />
	</node>
	<node id="-19387" lat="66.5832027773" lon="12.6846805524">
		<tag k="name" v="Sandvikodden" />
		<tag k="natural" v="cape" />
		<tag k="ssr:stedsnr" v="105260" />
	</node>
	<node id="-19385" lat="66.6526388881" lon="13.0607000064">
		<tag k="name" v="Belgevågen" />
		<tag k="natural" v="bay" />
		<tag k="ssr:stedsnr" v="105246" />
	</node>
	<node id="-19383" lat="66.5975833289" lon="12.6222777773">
		<tag k="name" v="Garnviksundet" />
		<tag k="natural" v="strait" />
		<tag k="ssr:stedsnr" v="105215" />
	</node>
	<node id="-19380" lat="66.6606333325" lon="13.0667305634">
		<tag k="name" v="Øvervågen" />
		<tag k="natural" v="bay" />
		<tag k="ssr:stedsnr" v="105149" />
	</node>
	<node id="-19375" lat="66.4851999987" lon="13.2428083409">
		<tag k="name" v="Steinvik" />
		<tag k="natural" v="bay" />
		<tag k="ssr:stedsnr" v="105065" />
	</node>
	<node id="-19374" lat="66.6255333305" lon="12.9859361178">
		<tag k="fixme" v="consider seamark:type=rock or natural=shoal" />
		<tag k="name" v="Hestøykalven" />
		<tag k="place" v="islet" />
		<tag k="ssr:stedsnr" v="105060" />
	</node>
	<node id="-19369" lat="66.5653611148" lon="12.8182527779">
		<tag k="name" v="Innerseingsodden" />
		<tag k="place" v="islet" />
		<tag k="ssr:stedsnr" v="105021" />
	</node>
	<node id="-19367" lat="66.7671794608" lon="12.4354994782">
		<tag k="name" v="Steinen" />
		<tag k="natural" v="shoal" />
		<tag k="place" v="locality" />
		<tag k="ssr:stedsnr" v="85687" />
	</node>
	<node id="-19366" lat="66.7281083343" lon="12.4857944374">
		<tag k="name" v="Innmykøyskallen" />
		<tag k="natural" v="shoal" />
		<tag k="place" v="locality" />
		<tag k="ssr:stedsnr" v="85629" />
	</node>
	<node id="-19365" lat="66.6900000006" lon="12.7466666745">
		<tag k="name" v="Blekkværet" />
		<tag k="place" v="island" />
		<tag k="ssr:stedsnr" v="81599" />
	</node>
	<node id="-19364" lat="66.6139555531" lon="12.7514277718">
		<tag k="alt_name" v="Øyskjeran" />
		<tag k="fixme" v="consider seamark:type=rock or natural=shoal" />
		<tag k="name" v="Øyskjæran" />
		<tag k="place" v="islet" />
		<tag k="ssr:stedsnr" v="77998" />
	</node>
	<node id="-19363" lat="66.6208444471" lon="12.92848333">
		<tag k="name" v="Grasholmen" />
		<tag k="place" v="islet" />
		<tag k="ssr:stedsnr" v="77995" />
	</node>
	<node id="-19362" lat="66.6213249972" lon="13.0319833331">
		<tag k="name" v="Råa" />
		<tag k="place" v="locality" />
		<tag k="ssr:stedsnr" v="77989" />
	</node>
	<node id="-19361" lat="66.613833332" lon="13.0868305559">
		<tag k="alt_name" v="Storskjeret" />
		<tag k="fixme" v="consider seamark:type=rock or natural=shoal" />
		<tag k="name" v="Storskjær" />
		<tag k="place" v="islet" />
		<tag k="ssr:stedsnr" v="77975" />
	</node>
	<node id="-19360" lat="66.6334361144" lon="13.0536694537">
		<tag k="name" v="Storvika" />
		<tag k="natural" v="bay" />
		<tag k="ssr:stedsnr" v="77954" />
	</node>
	<node id="-19359" lat="66.6228111073" lon="12.7425444381">
		<tag k="alt_name" v="Skjerprisøya" />
		<tag k="name" v="Skjærprisøya" />
		<tag k="place" v="island" />
		<tag k="ssr:stedsnr" v="77948" />
	</node>
	<node id="-19358" lat="66.6660055512" lon="12.935119447">
		<tag k="name" v="Flatøygrindvær" />
		<tag k="place" v="islet" />
		<tag k="ssr:stedsnr" v="77935" />
	</node>
	<node id="-19357" lat="66.6469611107" lon="12.810338894">
		<tag k="name" v="Perolsaryggen" />
		<tag k="natural" v="shoal" />
		<tag k="place" v="locality" />
		<tag k="ssr:stedsnr" v="77927" />
	</node>
	<node id="-19356" lat="66.6536888897" lon="12.9334555587">
		<tag k="alt_name" v="Lyngøya, l" />
		<tag k="name" v="Litle Lyngøya" />
		<tag k="place" v="island" />
		<tag k="ssr:stedsnr" v="77904" />
	</node>
	<node id="-19355" lat="66.6987694479" lon="13.1072527885">
		<tag k="name" v="Verholmen" />
		<tag k="place" v="islet" />
		<tag k="ssr:stedsnr" v="77896" />
	</node>
	<node id="-19353" lat="66.686097226" lon="13.0426333338">
		<tag k="alt_name" v="Brønnskjeret" />
		<tag k="fixme" v="consider seamark:type=rock or natural=shoal" />
		<tag k="name" v="Brønnskjær" />
		<tag k="place" v="islet" />
		<tag k="ssr:stedsnr" v="77880" />
	</node>
	<node id="-19352" lat="66.6825305539" lon="12.9889583232">
		<tag k="name" v="Hestøya" />
		<tag k="place" v="islet" />
		<tag k="ssr:stedsnr" v="77875" />
	</node>
	<node id="-19351" lat="66.6723138874" lon="13.0235555617">
		<tag k="name" v="Prestøya" />
		<tag k="place" v="island" />
		<tag k="ssr:stedsnr" v="77871" />
	</node>
	<node id="-19350" lat="66.7496972265" lon="13.1228749926">
		<tag k="alt_name" v="Margretøya, l" />
		<tag k="fixme" v="multiple name tags, choose one and add the other to alt_name" />
		<tag k="name" v="Sørmargretøya;Litle Margretøya" />
		<tag k="place" v="islet" />
		<tag k="ssr:stedsnr" v="77865" />
	</node>
	<node id="-19349" lat="66.7385416708" lon="12.7247722124">
		<tag k="alt_name" v="Gandflesa, nordre" />
		<tag k="fixme" v="consider seamark:type=rock or natural=shoal" />
		<tag k="name" v="Nordre Gannflesa" />
		<tag k="place" v="islet" />
		<tag k="ssr:stedsnr" v="77855" />
	</node>
	<node id="-19348" lat="66.7043166634" lon="12.91438334">
		<tag k="name" v="Innerflesa" />
		<tag k="place" v="islet" />
		<tag k="ssr:stedsnr" v="77853" />
	</node>
	<node id="-19347" lat="66.7373472262" lon="13.0552583373">
		<tag k="name" v="Sendingsgrunnen" />
		<tag k="natural" v="shoal" />
		<tag k="place" v="locality" />
		<tag k="ssr:stedsnr" v="77843" />
	</node>
	<node id="-19346" lat="66.712444442" lon="12.9594499954">
		<tag k="bay" v="fjord" />
		<tag k="name" v="Oterværfjorden" />
		<tag k="natural" v="bay" />
		<tag k="ssr:stedsnr" v="77842" />
	</node>
	<node id="-19344" lat="66.7606444452" lon="12.8524444556">
		<tag k="name" v="Sørøya" />
		<tag k="place" v="islet" />
		<tag k="ssr:stedsnr" v="77831" />
	</node>
	<node id="-19343" lat="66.5907249967" lon="12.683986107">
		<tag k="alt_name" v="Stongneset;Stongeneset" />
		<tag k="name" v="Stangneset" />
		<tag k="natural" v="cape" />
		<tag k="ssr:stedsnr" v="77805" />
	</node>
	<node id="-19342" lat="66.7809833297" lon="12.7796888997">
		<tag k="name" v="Steinsholmen" />
		<tag k="place" v="islet" />
		<tag k="ssr:stedsnr" v="77791" />
	</node>
	<node id="-19341" lat="66.599227775" lon="12.6691388838">
		<tag k="name" v="Utskagen" />
		<tag k="natural" v="cape" />
		<tag k="ssr:stedsnr" v="77772" />
	</node>
	<node id="-19340" lat="66.5978" lon="12.7077000021">
		<tag k="alt_name" v="Leiskjerkåsa" />
		<tag k="bay" v="fjord" />
		<tag k="name" v="Leiskjærkåsa" />
		<tag k="natural" v="bay" />
		<tag k="ssr:stedsnr" v="77763" />
	</node>
	<node id="-19339" lat="66.6380638891" lon="12.522758343">
		<tag k="name" v="Lyngværgrunnen" />
		<tag k="natural" v="shoal" />
		<tag k="place" v="locality" />
		<tag k="ssr:stedsnr" v="77754" />
	</node>
	<node id="-19338" lat="66.8454361149" lon="12.7297194409">
		<tag k="name" v="Olsbrakskolten" />
		<tag k="natural" v="shoal" />
		<tag k="place" v="locality" />
		<tag k="ssr:stedsnr" v="77744" />
	</node>
	<node id="-19337" lat="66.8474333289" lon="12.8051916711">
		<tag k="alt_name" v="Breidgrunnan" />
		<tag k="name" v="Breigrunnan" />
		<tag k="natural" v="shoal" />
		<tag k="place" v="locality" />
		<tag k="ssr:stedsnr" v="77743" />
	</node>
	<node id="-19336" lat="66.8724194486" lon="12.8731944363">
		<tag k="name" v="Larsmannskallan" />
		<tag k="natural" v="shoal" />
		<tag k="place" v="locality" />
		<tag k="ssr:stedsnr" v="77742" />
	</node>
	<node id="-19335" lat="66.665136115" lon="12.5630194476">
		<tag k="name" v="Lyngværøya" />
		<tag k="place" v="island" />
		<tag k="ssr:stedsnr" v="77736" />
	</node>
	<node id="-19334" lat="66.6622694413" lon="12.5236500041">
		<tag k="name" v="Låtholman" />
		<tag k="place" v="islet" />
		<tag k="ssr:stedsnr" v="77731" />
	</node>
	<node id="-19333" lat="66.7248472239" lon="12.6075805562">
		<tag k="alt_name" v="Ramnholman" />
		<tag k="name" v="Ravnholman" />
		<tag k="place" v="islet" />
		<tag k="ssr:stedsnr" v="77716" />
	</node>
	<node id="-19332" lat="66.7218000001" lon="12.4758750054">
		<tag k="bay" v="fjord" />
		<tag k="name" v="Innmykøykåsa" />
		<tag k="natural" v="bay" />
		<tag k="ssr:stedsnr" v="77696" />
	</node>
	<node id="-19331" lat="66.783088892" lon="12.6111611099">
		<tag k="alt_name" v="Raudholmen, in" />
		<tag k="name" v="Indre Raudholmen" />
		<tag k="place" v="islet" />
		<tag k="ssr:stedsnr" v="77692" />
	</node>
	<node id="-19328" lat="66.4680500012" lon="13.2657916701">
		<tag k="alt_name" v="Skivikneset" />
		<tag k="name" v="Skivikodden" />
		<tag k="natural" v="cape" />
		<tag k="ssr:stedsnr" v="77677" />
	</node>
	<node id="-19324" lat="66.4973638914" lon="13.291050008">
		<tag k="name" v="Måsodden" />
		<tag k="natural" v="cape" />
		<tag k="ssr:stedsnr" v="77649" />
	</node>
	<node id="-19322" lat="66.4802777795" lon="12.9725388826">
		<tag k="bay" v="fjord" />
		<tag k="name" v="Kvarøyfjorden" />
		<tag k="natural" v="bay" />
		<tag k="ssr:stedsnr" v="77484" />
	</node>
	<node id="-19310" lat="66.7161694452" lon="13.2484444482">
		<tag k="alt_name" v="Litlrossholmen" />
		<tag k="name" v="Litlrosholmen" />
		<tag k="place" v="islet" />
		<tag k="ssr:stedsnr" v="77156" />
	</node>
	<node id="-19307" lat="66.5493027759" lon="12.8712027672">
		<tag k="fixme" v="multiple name tags, choose one and add the other to alt_name" />
		<tag k="name" v="Flatholmen;Flatskjær" />
		<tag k="place" v="islet" />
		<tag k="ssr:stedsnr" v="77103" />
	</node>
	<node id="-19301" lat="66.5846638897" lon="12.8248888801">
		<tag k="alt_name" v="Skarvøya, l" />
		<tag k="name" v="Litle Skarvøya" />
		<tag k="place" v="island" />
		<tag k="ssr:stedsnr" v="77032" />
	</node>
	<node id="-19299" lat="66.5609833377" lon="12.841883328">
		<tag k="fixme" v="consider seamark:type=rock or natural=shoal" />
		<tag k="name" v="Geitskjeret" />
		<tag k="place" v="islet" />
		<tag k="ssr:stedsnr" v="77016" />
	</node>
	<node id="-19298" lat="66.5732083322" lon="12.9564305593">
		<tag k="name" v="Torvøya" />
		<tag k="place" v="island" />
		<tag k="ssr:stedsnr" v="77005" />
	</node>
	<node id="-19297" lat="66.5696250029" lon="12.8547555454">
		<tag k="name" v="Nordøyskallen" />
		<tag k="natural" v="shoal" />
		<tag k="place" v="locality" />
		<tag k="ssr:stedsnr" v="77002" />
	</node>
	<node id="-19296" lat="66.6420472206" lon="12.9827916648">
		<tag k="alt_name" v="Breidsund" />
		<tag k="name" v="Breidsundet" />
		<tag k="natural" v="strait" />
		<tag k="ssr:stedsnr" v="76958" />
	</node>
	<node id="-19294" lat="66.6518250039" lon="12.9992499929">
		<tag k="name" v="Flatøya" />
		<tag k="place" v="island" />
		<tag k="ssr:stedsnr" v="76911" />
	</node>
	<node id="-19293" lat="66.6412500017" lon="12.7850361149">
		<tag k="name" v="Bleikholmen" />
		<tag k="place" v="islet" />
		<tag k="ssr:stedsnr" v="76907" />
	</node>
	<node id="-19292" lat="66.5820027803" lon="13.1375555523">
		<tag k="alt_name" v="Bjørnskjeret" />
		<tag k="fixme" v="consider seamark:type=rock or natural=shoal" />
		<tag k="name" v="Bjørnskjær" />
		<tag k="place" v="islet" />
		<tag k="ssr:stedsnr" v="76007" />
	</node>
	<node id="-19291" lat="66.5850944419" lon="13.1389083425">
		<tag k="alt_name" v="Verholmen" />
		<tag k="name" v="Værholmen" />
		<tag k="place" v="islet" />
		<tag k="ssr:stedsnr" v="76005" />
	</node>
	<node id="-19282" lat="66.6052000026" lon="13.6769999977">
		<tag k="name" v="Ytre Rognan" />
		<tag k="natural" v="cape" />
		<tag k="ssr:stedsnr" v="77371" />
	</node>
	<node id="-19281" lat="66.6004833334" lon="13.2375999988">
		<tag k="name" v="Buvika" />
		<tag k="natural" v="bay" />
		<tag k="ssr:stedsnr" v="77369" />
	</node>
	<node id="-19262" lat="66.4646694491" lon="13.3583444387">
		<tag k="name" v="Staulodden" />
		<tag k="natural" v="cape" />
		<tag k="ssr:stedsnr" v="45449" />
	</node>
	<node id="-19260" lat="66.6358777823" lon="13.2490361067">
		<tag k="name" v="Urdneset" />
		<tag k="natural" v="cape" />
		<tag k="ssr:stedsnr" v="45428" />
	</node>
	<node id="-19256" lat="66.7338838704" lon="13.3804626241">
		<tag k="name" v="Ånhammaren" />
		<tag k="natural" v="cape" />
		<tag k="ssr:stedsnr" v="45342" />
	</node>
	<node id="-19250" lat="66.4562638864" lon="13.229574998">
		<tag k="bay" v="fjord" />
		<tag k="name" v="Kvinfjorden" />
		<tag k="natural" v="bay" />
		<tag k="ssr:stedsnr" v="45018" />
	</node>
	<node id="-19243" lat="66.5163611107" lon="13.6631416703">
		<tag k="name" v="Øyra" />
		<tag k="natural" v="shoal" />
		<tag k="place" v="locality" />
		<tag k="ssr:stedsnr" v="44577" />
	</node>
	<node id="-19241" lat="66.636863893" lon="13.31646389">
		<tag k="name" v="Kvitneset" />
		<tag k="natural" v="cape" />
		<tag k="ssr:stedsnr" v="44428" />
	</node>
	<node id="-19235" lat="66.6279555533" lon="13.3086861044">
		<tag k="name" v="Litlfjordholmen" />
		<tag k="place" v="islet" />
		<tag k="ssr:stedsnr" v="44324" />
	</node>
	<node id="-19229" lat="66.6035611088" lon="12.6624694498">
		<tag k="name" v="Bonsakvika" />
		<tag k="natural" v="bay" />
		<tag k="ssr:stedsnr" v="44208" />
	</node>
	<node id="-19228" lat="66.6645277753" lon="13.1928472256">
		<tag k="name" v="Finnvika" />
		<tag k="natural" v="beach" />
		<tag k="place" v="locality" />
		<tag k="ssr:stedsnr" v="44188" />
	</node>
	<node id="-19218" lat="66.5856472186" lon="12.9848500056">
		<tag k="name" v="Rundholmen" />
		<tag k="place" v="islet" />
		<tag k="ssr:stedsnr" v="44068" />
	</node>
	<node id="-19216" lat="66.6256277815" lon="12.9762277841">
		<tag k="fixme" v="consider seamark:type=rock or natural=shoal" />
		<tag k="name" v="Hestøyskjeran" />
		<tag k="place" v="islet" />
		<tag k="ssr:stedsnr" v="44053" />
	</node>
	<node id="-19215" lat="66.5991694405" lon="12.6083499913">
		<tag k="fixme" v="consider seamark:type=rock or natural=shoal" />
		<tag k="name" v="Hjartøykråka" />
		<tag k="place" v="islet" />
		<tag k="ssr:stedsnr" v="32517" />
	</node>
	<node id="-19214" lat="66.6160194446" lon="12.7046611219">
		<tag k="name" v="Breidsundgrunnen" />
		<tag k="natural" v="shoal" />
		<tag k="place" v="locality" />
		<tag k="ssr:stedsnr" v="31693" />
	</node>
	<node id="-19213" lat="66.8420861095" lon="12.7019361079">
		<tag k="fixme" v="consider seamark:type=rock or natural=shoal" />
		<tag k="name" v="Olsbraksteinen" />
		<tag k="place" v="islet" />
		<tag k="ssr:stedsnr" v="25899" />
	</node>
	<node id="-19212" lat="66.7257333327" lon="12.5099111131">
		<tag k="fixme" v="consider seamark:type=rock or natural=shoal" />
		<tag k="name" v="Torsholmskjær" />
		<tag k="place" v="islet" />
		<tag k="ssr:stedsnr" v="25683" />
	</node>
	<node id="-19210" lat="66.7548694425" lon="12.4910388845">
		<tag k="name" v="Sandøyskallen" />
		<tag k="natural" v="shoal" />
		<tag k="place" v="locality" />
		<tag k="ssr:stedsnr" v="25736" />
	</node>
	<node id="-19207" lat="66.6929805564" lon="12.9891083234">
		<tag k="alt_name" v="Skarvskjeret" />
		<tag k="fixme" v="consider seamark:type=rock or natural=shoal" />
		<tag k="name" v="Skarvskjær" />
		<tag k="place" v="islet" />
		<tag k="ssr:stedsnr" v="16900" />
	</node>
	<node id="-19205" lat="66.6997805567" lon="13.0674583296">
		<tag k="alt_name" v="Tjørnarøyskjeret" />
		<tag k="fixme" v="consider seamark:type=rock or natural=shoal" />
		<tag k="name" v="Tjørnarøyskjær" />
		<tag k="place" v="islet" />
		<tag k="ssr:stedsnr" v="16895" />
	</node>
	<node id="-19204" lat="66.6706500039" lon="13.1802416671">
		<tag k="fixme" v="consider seamark:type=rock or natural=shoal" />
		<tag k="name" v="Galten" />
		<tag k="place" v="islet" />
		<tag k="ssr:stedsnr" v="16877" />
	</node>
	<node id="-19203" lat="66.7466250041" lon="13.1098111079">
		<tag k="alt_name" v="Småmåsøya" />
		<tag k="name" v="Nordsmåmåsøya" />
		<tag k="place" v="islet" />
		<tag k="ssr:stedsnr" v="16867" />
	</node>
	<node id="-19202" lat="66.6115583294" lon="12.7343999945">
		<tag k="name" v="Risøya" />
		<tag k="place" v="island" />
		<tag k="ssr:stedsnr" v="16996" />
	</node>
	<node id="-19201" lat="66.6100166708" lon="12.8405583406">
		<tag k="name" v="Kvitholmen" />
		<tag k="place" v="islet" />
		<tag k="ssr:stedsnr" v="16976" />
	</node>
	<node id="-19198" lat="66.5962555531" lon="12.8559611151">
		<tag k="fixme" v="multiple name tags, choose one and add the other to alt_name" />
		<tag k="name" v="Brøskjeholmen;Brøskjærholmen" />
		<tag k="place" v="islet" />
		<tag k="ssr:stedsnr" v="16961" />
	</node>
	<node id="-19197" lat="66.6339833329" lon="12.9991166672">
		<tag k="alt_name" v="Pisshammarsundet;Pishammersund" />
		<tag k="name" v="Pisshammarsund" />
		<tag k="natural" v="strait" />
		<tag k="ssr:stedsnr" v="16952" />
	</node>
	<node id="-19195" lat="66.6386138916" lon="12.9632916625">
		<tag k="alt_name" v="Risholmen, store" />
		<tag k="name" v="Store Risholmen" />
		<tag k="place" v="islet" />
		<tag k="ssr:stedsnr" v="16947" />
	</node>
	<node id="-19194" lat="66.6227499978" lon="12.761966657">
		<tag k="alt_name" v="Ramnholman" />
		<tag k="name" v="Ravnholmen" />
		<tag k="place" v="islet" />
		<tag k="ssr:stedsnr" v="16937" />
	</node>
	<node id="-19193" lat="66.6306055531" lon="13.054724998">
		<tag k="name" v="Storvikodden" />
		<tag k="natural" v="cape" />
		<tag k="ssr:stedsnr" v="16932" />
	</node>
	<node id="-19192" lat="66.767055556" lon="12.615452786">
		<tag k="name" v="Litlkjølsøya" />
		<tag k="place" v="island" />
		<tag k="ssr:stedsnr" v="16672" />
	</node>
	<node id="-19191" lat="66.7634027805" lon="12.4730833244">
		<tag k="name" v="Jutøya" />
		<tag k="place" v="island" />
		<tag k="ssr:stedsnr" v="16668" />
	</node>
	<node id="-19190" lat="66.7445583355" lon="12.58376389">
		<tag k="name" v="Kjølsøyfallan" />
		<tag k="natural" v="shoal" />
		<tag k="place" v="locality" />
		<tag k="ssr:stedsnr" v="16660" />
	</node>
	<node id="-19189" lat="66.7389916658" lon="12.4949999958">
		<tag k="alt_name" v="Ramnholmen" />
		<tag k="name" v="Ravnholmen" />
		<tag k="place" v="islet" />
		<tag k="ssr:stedsnr" v="16659" />
	</node>
	<node id="-19188" lat="66.7499277814" lon="12.6244888883">
		<tag k="name" v="Kallsholmen" />
		<tag k="place" v="islet" />
		<tag k="ssr:stedsnr" v="16658" />
	</node>
	<node id="-19187" lat="66.7565555559" lon="12.4494750083">
		<tag k="name" v="Hummarøya" />
		<tag k="place" v="islet" />
		<tag k="ssr:stedsnr" v="16657" />
	</node>
	<node id="-19186" lat="66.7252750005" lon="12.501455548">
		<tag k="name" v="Jarsteinholmen" />
		<tag k="place" v="islet" />
		<tag k="ssr:stedsnr" v="16654" />
	</node>
	<node id="-19185" lat="66.7261944462" lon="12.563674992">
		<tag k="name" v="Håværøya" />
		<tag k="place" v="islet" />
		<tag k="ssr:stedsnr" v="16652" />
	</node>
	<node id="-19184" lat="66.7843444407" lon="12.4802333404">
		<tag k="name" v="Nordknausen" />
		<tag k="natural" v="shoal" />
		<tag k="place" v="locality" />
		<tag k="ssr:stedsnr" v="16650" />
	</node>
	<node id="-19183" lat="66.8017583301" lon="12.5954861004">
		<tag k="alt_name" v="Løynfallet, s" />
		<tag k="name" v="Søndre Løynfallet" />
		<tag k="natural" v="shoal" />
		<tag k="place" v="locality" />
		<tag k="ssr:stedsnr" v="16648" />
	</node>
	<node id="-19181" lat="66.7722611079" lon="12.45550555">
		<tag k="alt_name" v="Måøya, in;Indre Måøya" />
		<tag k="name" v="Inner Måøya" />
		<tag k="place" v="island" />
		<tag k="ssr:stedsnr" v="16640" />
	</node>
	<node id="-19180" lat="66.8196444409" lon="12.7157666694">
		<tag k="alt_name" v="Nattmålskjeran" />
		<tag k="fixme" v="consider seamark:type=rock or natural=shoal" />
		<tag k="name" v="Nattmålskjær" />
		<tag k="place" v="islet" />
		<tag k="ssr:stedsnr" v="16628" />
	</node>
	<node id="-19179" lat="66.8194750002" lon="12.5622888988">
		<tag k="name" v="Nordfallet" />
		<tag k="natural" v="shoal" />
		<tag k="place" v="locality" />
		<tag k="ssr:stedsnr" v="16621" />
	</node>
	<node id="-19178" lat="66.8129138914" lon="12.7178694373">
		<tag k="alt_name" v="Ramnholman" />
		<tag k="name" v="Ravnholman" />
		<tag k="place" v="islet" />
		<tag k="ssr:stedsnr" v="16617" />
	</node>
	<node id="-19177" lat="66.5603583318" lon="13.1996916754">
		<tag k="name" v="Djupvika" />
		<tag k="natural" v="bay" />
		<tag k="ssr:stedsnr" v="16615" />
	</node>
	<node id="-19174" lat="66.7976555577" lon="12.7761527809">
		<tag k="alt_name" v="Båsgrunnen, nordre" />
		<tag k="name" v="Nordbåsgrunnen" />
		<tag k="natural" v="shoal" />
		<tag k="place" v="locality" />
		<tag k="ssr:stedsnr" v="16741" />
	</node>
	<node id="-19171" lat="66.5962666689" lon="13.560675008">
		<tag k="name" v="Øksvika" />
		<tag k="natural" v="bay" />
		<tag k="ssr:stedsnr" v="16292" />
	</node>
	<node id="-19167" lat="66.6871444424" lon="13.4284972282">
		<tag k="alt_name" v="Kvalviknova" />
		<tag k="name" v="Kvalviknøva" />
		<tag k="natural" v="cape" />
		<tag k="ssr:stedsnr" v="16270" />
	</node>
	<node id="-19155" lat="66.5520555573" lon="13.4608444351">
		<tag k="bay" v="fjord" />
		<tag k="name" v="Melfjorden" />
		<tag k="natural" v="bay" />
		<tag k="ssr:stedsnr" v="16098" />
	</node>
	<node id="-19154" lat="66.5346249975" lon="12.7956250057">
		<tag k="alt_name" v="Gongneset" />
		<tag k="name" v="Gognnesodden" />
		<tag k="natural" v="cape" />
		<tag k="ssr:stedsnr" v="16093" />
	</node>
	<node id="-19129" lat="66.6695277771" lon="13.5349750102">
		<tag k="name" v="Elvneset" />
		<tag k="natural" v="cape" />
		<tag k="ssr:stedsnr" v="955507" />
	</node>
	<node id="-19126" lat="66.620016664" lon="12.6688833352">
		<tag k="name" v="Jakobholmen" />
		<tag k="place" v="islet" />
		<tag k="ssr:stedsnr" v="936516" />
	</node>
	<node id="-19125" lat="66.6059583303" lon="12.746194438">
		<tag k="name" v="Litle Oksholmen" />
		<tag k="place" v="islet" />
		<tag k="ssr:stedsnr" v="936510" />
	</node>
	<node id="-19124" lat="66.7801638848" lon="12.772788899">
		<tag k="name" v="Steinsholmsflua" />
		<tag k="natural" v="shoal" />
		<tag k="place" v="locality" />
		<tag k="ssr:stedsnr" v="935707" />
	</node>
	<node id="-19123" lat="66.6392833349" lon="13.2941305671">
		<tag k="name" v="Værangskallen" />
		<tag k="natural" v="shoal" />
		<tag k="place" v="locality" />
		<tag k="ssr:stedsnr" v="935431" />
	</node>
	<node id="-19122" lat="66.630288885" lon="12.9188055629">
		<tag k="alt_name" v="Tjørnarøya" />
		<tag k="name" v="Kynnesøya" />
		<tag k="place" v="islet" />
		<tag k="ssr:stedsnr" v="926938" />
	</node>
	<node id="-19121" lat="66.6189527748" lon="12.8279444495">
		<tag k="name" v="Bergskallan" />
		<tag k="natural" v="shoal" />
		<tag k="place" v="locality" />
		<tag k="ssr:stedsnr" v="926934" />
	</node>
	<node id="-19119" lat="66.6931444469" lon="12.7304583312">
		<tag k="name" v="Gåskviga" />
		<tag k="place" v="island" />
		<tag k="ssr:stedsnr" v="926844" />
	</node>
	<node id="-19118" lat="66.7199138863" lon="13.2045916603">
		<tag k="name" v="Oddholmen" />
		<tag k="place" v="islet" />
		<tag k="ssr:stedsnr" v="926829" />
	</node>
	<node id="-19117" lat="66.7598833349" lon="13.151358337">
		<tag k="name" v="Kjeøya" />
		<tag k="place" v="islet" />
		<tag k="ssr:stedsnr" v="926827" />
	</node>
	<node id="-19116" lat="66.7607055589" lon="12.8620527808">
		<tag k="name" v="Skogsholmen" />
		<tag k="place" v="island" />
		<tag k="ssr:stedsnr" v="926824" />
	</node>
	<node id="-19114" lat="66.5264249998" lon="13.1713305529">
		<tag k="name" v="Svenskliodden" />
		<tag k="natural" v="cape" />
		<tag k="ssr:stedsnr" v="895104" />
	</node>
	<node id="-19111" lat="66.627241671" lon="13.2963166657">
		<tag k="bay" v="fjord" />
		<tag k="name" v="Litlfjorden" />
		<tag k="natural" v="bay" />
		<tag k="ssr:stedsnr" v="866221" />
	</node>
	<node id="-19108" lat="66.7142888873" lon="13.2327611171">
		<tag k="alt_name" v="Langrossholmen" />
		<tag k="name" v="Langrosholmen" />
		<tag k="place" v="islet" />
		<tag k="ssr:stedsnr" v="866114" />
	</node>
	<node id="-19098" lat="66.67116667" lon="13.5219222283">
		<tag k="name" v="Jektvika" />
		<tag k="natural" v="bay" />
		<tag k="ssr:stedsnr" v="834504" />
	</node>
	<node id="-19087" lat="66.715213892" lon="13.2237666647">
		<tag k="name" v="Tjyvholmen" />
		<tag k="place" v="islet" />
		<tag k="ssr:stedsnr" v="833877" />
	</node>
	<node id="-19081" lat="66.639227774" lon="13.3588555647">
		<tag k="name" v="Aspneset" />
		<tag k="natural" v="cape" />
		<tag k="ssr:stedsnr" v="833273" />
	</node>
	<node id="-19079" lat="66.5891944476" lon="12.6142055483">
		<tag k="name" v="Silsanden" />
		<tag k="natural" v="cape" />
		<tag k="ssr:stedsnr" v="833225" />
	</node>
	<node id="-19072" lat="66.6387444399" lon="13.0322583373">
		<tag k="name" v="Nordgjerøy" />
		<tag k="place" v="island" />
		<tag k="ssr:stedsnr" v="833154" />
	</node>
	<node id="-19071" lat="66.535244441" lon="13.1391416618">
		<tag k="name" v="Holmen" />
		<tag k="natural" v="cape" />
		<tag k="ssr:stedsnr" v="833127" />
	</node>
	<node id="-19069" lat="66.6779416642" lon="13.0960305556">
		<tag k="name" v="Kvernhusvika" />
		<tag k="natural" v="bay" />
		<tag k="ssr:stedsnr" v="936564" />
	</node>
	<node id="-19068" lat="66.5316694491" lon="12.9669083229">
		<tag k="name" v="Vikinggrunn" />
		<tag k="natural" v="shoal" />
		<tag k="place" v="locality" />
		<tag k="ssr:stedsnr" v="936258" />
	</node>
	<node id="-19067" lat="66.6746833366" lon="12.9571249922">
		<tag k="fixme" v="consider seamark:type=rock or natural=shoal" />
		<tag k="name" v="Skjærdrag" />
		<tag k="place" v="islet" />
		<tag k="ssr:stedsnr" v="936332" />
	</node>
	<node id="-19063" lat="66.7545388922" lon="13.104430563">
		<tag k="name" v="Stormadsøya" />
		<tag k="place" v="islet" />
		<tag k="ssr:stedsnr" v="934520" />
	</node>
	<node id="-19062" lat="66.6169944423" lon="12.8216388891">
		<tag k="fixme" v="consider seamark:type=rock or natural=shoal" />
		<tag k="name" v="Østre Futøyskjær" />
		<tag k="place" v="islet" />
		<tag k="ssr:stedsnr" v="815691" />
	</node>
	<node id="-19060" lat="66.6002999962" lon="12.8482277684">
		<tag k="name" v="Ausa" />
		<tag k="place" v="islet" />
		<tag k="ssr:stedsnr" v="927989" />
	</node>
	<node id="-19059" lat="66.6729777754" lon="12.9737916561">
		<tag k="name" v="Lyngøya" />
		<tag k="place" v="island" />
		<tag k="ssr:stedsnr" v="927888" />
	</node>
	<node id="-19058" lat="66.7862333375" lon="12.7788555491">
		<tag k="name" v="Steinsholmtaren" />
		<tag k="natural" v="shoal" />
		<tag k="place" v="locality" />
		<tag k="ssr:stedsnr" v="927793" />
	</node>
	<node id="-19057" lat="66.6255416696" lon="13.1039444352">
		<tag k="name" v="Galten" />
		<tag k="natural" v="shoal" />
		<tag k="place" v="locality" />
		<tag k="ssr:stedsnr" v="806000" />
	</node>
	<node id="-19056" lat="66.6165194421" lon="12.8253527755">
		<tag k="alt_name" v="Futøygrunnen, austre" />
		<tag k="name" v="Østre Futøygrunnen" />
		<tag k="natural" v="shoal" />
		<tag k="place" v="locality" />
		<tag k="ssr:stedsnr" v="805993" />
	</node>
	<node id="-19055" lat="66.6113138888" lon="12.8372083283">
		<tag k="name" v="Selsøyvær" />
		<tag k="place" v="island" />
		<tag k="ssr:stedsnr" v="805992" />
	</node>
	<node id="-19054" lat="66.6213972237" lon="12.9916388832">
		<tag k="alt_name" v="Reksterskjeran" />
		<tag k="fixme" v="consider seamark:type=rock or natural=shoal" />
		<tag k="name" v="Reksterskjæran" />
		<tag k="place" v="islet" />
		<tag k="ssr:stedsnr" v="805988" />
	</node>
	<node id="-19053" lat="66.6084499978" lon="12.8411944354">
		<tag k="name" v="Lyngøya" />
		<tag k="place" v="islet" />
		<tag k="ssr:stedsnr" v="805984" />
	</node>
	<node id="-19052" lat="66.8209111109" lon="12.7281999915">
		<tag k="fixme" v="consider seamark:type=rock or natural=shoal" />
		<tag k="name" v="Kråka" />
		<tag k="place" v="islet" />
		<tag k="ssr:stedsnr" v="805753" />
	</node>
	<node id="-19051" lat="66.7401111156" lon="13.1469111024">
		<tag k="name" v="Lyngholmen" />
		<tag k="place" v="islet" />
		<tag k="ssr:stedsnr" v="805843" />
	</node>
	<node id="-19050" lat="66.7795666655" lon="12.4697972227">
		<tag k="name" v="Kvalholmen" />
		<tag k="place" v="islet" />
		<tag k="ssr:stedsnr" v="927674" />
	</node>
	<node id="-19048" lat="66.5488527751" lon="13.2914833435">
		<tag k="name" v="Osvika" />
		<tag k="natural" v="bay" />
		<tag k="ssr:stedsnr" v="805433" />
	</node>
	<node id="-19045" lat="66.5153888866" lon="13.2187777744">
		<tag k="alt_name" v="Steinslandskjeret" />
		<tag k="fixme" v="multiple name tags, choose one and add the other to alt_name; consider seamark:type=rock or natural=shoal" />
		<tag k="name" v="Steinslandsholmen;Steinslandskjær" />
		<tag k="place" v="islet" />
		<tag k="ssr:stedsnr" v="805409" />
	</node>
	<node id="-19038" lat="66.6147333311" lon="13.2444749993">
		<tag k="fixme" v="multiple name tags, choose one and add the other to alt_name" />
		<tag k="name" v="Geitbergbukta;Staulvika" />
		<tag k="natural" v="bay" />
		<tag k="ssr:stedsnr" v="805226" />
	</node>
	<node id="-19029" lat="66.6174833367" lon="13.2758444453">
		<tag k="name" v="Skutvika" />
		<tag k="natural" v="bay" />
		<tag k="ssr:stedsnr" v="927391" />
	</node>
	<node id="-19027" lat="66.6020416674" lon="13.5815000036">
		<tag k="name" v="Hellarvika" />
		<tag k="natural" v="bay" />
		<tag k="ssr:stedsnr" v="927373" />
	</node>
	<node id="-19026" lat="66.6066750024" lon="13.6328500086">
		<tag k="name" v="Storodden" />
		<tag k="natural" v="cape" />
		<tag k="ssr:stedsnr" v="927367" />
	</node>
	<node id="-19025" lat="66.6135777783" lon="13.6298388848">
		<tag k="name" v="Storvika" />
		<tag k="natural" v="bay" />
		<tag k="ssr:stedsnr" v="927366" />
	</node>
	<node id="-19019" lat="66.5265249956" lon="13.1885194493">
		<tag k="name" v="Snertneset" />
		<tag k="natural" v="cape" />
		<tag k="ssr:stedsnr" v="927086" />
	</node>
	<node id="-19017" lat="66.5928888871" lon="12.7928805593">
		<tag k="alt_name" v="Ærøya, store" />
		<tag k="name" v="Store Ærøya" />
		<tag k="place" v="island" />
		<tag k="ssr:stedsnr" v="927050" />
	</node>
	<node id="-19016" lat="66.5903194468" lon="12.8316361064">
		<tag k="alt_name" v="Ørnøya, store" />
		<tag k="name" v="Store Ørnøya" />
		<tag k="place" v="islet" />
		<tag k="ssr:stedsnr" v="927046" />
	</node>
	<node id="-19015" lat="66.6150305529" lon="12.988530554">
		<tag k="name" v="Kattholmen" />
		<tag k="place" v="islet" />
		<tag k="ssr:stedsnr" v="926994" />
	</node>
	<node id="-19014" lat="66.6088444408" lon="12.9468361009">
		<tag k="name" v="Grimen" />
		<tag k="natural" v="strait" />
		<tag k="ssr:stedsnr" v="926974" />
	</node>
	<node id="-19013" lat="66.6409749999" lon="13.0266083431">
		<tag k="alt_name" v="Esvågen, yt" />
		<tag k="name" v="Ytre Esvågen" />
		<tag k="natural" v="bay" />
		<tag k="ssr:stedsnr" v="926958" />
	</node>
	<node id="-19012" lat="66.6999861105" lon="13.0878027802">
		<tag k="name" v="Valholmen" />
		<tag k="place" v="islet" />
		<tag k="ssr:stedsnr" v="926892" />
	</node>
	<node id="-19011" lat="66.6980888844" lon="13.0983361197">
		<tag k="alt_name" v="Rosøya, yt" />
		<tag k="name" v="Ytre Rosøya" />
		<tag k="place" v="island" />
		<tag k="ssr:stedsnr" v="926891" />
	</node>
	<node id="-19010" lat="66.6576083294" lon="12.7332250077">
		<tag k="bay" v="fjord" />
		<tag k="name" v="Blikværfjorden" />
		<tag k="natural" v="bay" />
		<tag k="ssr:stedsnr" v="926888" />
	</node>
	<node id="-19009" lat="66.6815694468" lon="13.2165416737">
		<tag k="name" v="Brattholmen" />
		<tag k="place" v="islet" />
		<tag k="ssr:stedsnr" v="926883" />
	</node>
	<node id="-19008" lat="66.7330055588" lon="13.0063611164">
		<tag k="alt_name" v="Ytrøya" />
		<tag k="name" v="Ytterøya" />
		<tag k="place" v="islet" />
		<tag k="ssr:stedsnr" v="926864" />
	</node>
	<node id="-19005" lat="66.6125833302" lon="12.7166944428">
		<tag k="alt_name" v="Trevholmen" />
		<tag k="name" v="Trænholmen" />
		<tag k="place" v="islet" />
		<tag k="ssr:stedsnr" v="926778" />
	</node>
	<node id="-19004" lat="66.6210166694" lon="12.6542277671">
		<tag k="name" v="Lamøya" />
		<tag k="place" v="island" />
		<tag k="ssr:stedsnr" v="926769" />
	</node>
	<node id="-19003" lat="66.7998444426" lon="12.8718555663">
		<tag k="name" v="Helløygrunnen" />
		<tag k="natural" v="shoal" />
		<tag k="place" v="locality" />
		<tag k="ssr:stedsnr" v="926758" />
	</node>
	<node id="-19002" lat="66.619416666" lon="12.5838500023">
		<tag k="fixme" v="consider seamark:type=rock or natural=shoal" />
		<tag k="name" v="Albrektflesa" />
		<tag k="place" v="islet" />
		<tag k="ssr:stedsnr" v="926731" />
	</node>
	<node id="-19001" lat="66.6567027783" lon="12.553427788">
		<tag k="alt_name" v="Hausøya" />
		<tag k="name" v="Hausen" />
		<tag k="place" v="islet" />
		<tag k="ssr:stedsnr" v="926720" />
	</node>
	<node id="-19000" lat="66.6572416701" lon="12.5823555482">
		<tag k="name" v="Langtaren" />
		<tag k="natural" v="shoal" />
		<tag k="place" v="locality" />
		<tag k="ssr:stedsnr" v="926716" />
	</node>
	<node id="-18999" lat="66.6572611089" lon="12.5629277842">
		<tag k="fixme" v="consider seamark:type=rock or natural=shoal" />
		<tag k="name" v="Langskjeret" />
		<tag k="place" v="islet" />
		<tag k="ssr:stedsnr" v="926715" />
	</node>
	<node id="-18998" lat="66.7632333302" lon="12.4637333299">
		<tag k="alt_name" v="Færøya, store;Store Færøya" />
		<tag k="name" v="Storfærøya" />
		<tag k="place" v="island" />
		<tag k="ssr:stedsnr" v="926692" />
	</node>
	<node id="-18997" lat="66.7579083308" lon="12.6483777683">
		<tag k="name" v="Æmårsøya" />
		<tag k="place" v="islet" />
		<tag k="ssr:stedsnr" v="926683" />
	</node>
	<node id="-18996" lat="66.7732138915" lon="12.4810916617">
		<tag k="fixme" v="consider seamark:type=rock or natural=shoal" />
		<tag k="name" v="Kråka" />
		<tag k="place" v="islet" />
		<tag k="ssr:stedsnr" v="926671" />
	</node>
	<node id="-18995" lat="66.7656722254" lon="12.4514749975">
		<tag k="alt_name" v="Farskrovet, store" />
		<tag k="name" v="Storfarskrøvet" />
		<tag k="place" v="islet" />
		<tag k="ssr:stedsnr" v="926665" />
	</node>
	<node id="-18994" lat="66.450749996" lon="13.2724944436">
		<tag k="name" v="Hammarodden" />
		<tag k="natural" v="cape" />
		<tag k="ssr:stedsnr" v="926663" />
	</node>
	<node id="-18993" lat="66.7708999975" lon="12.4770333375">
		<tag k="fixme" v="multiple name tags, choose one and add the other to alt_name" />
		<tag k="name" v="Inner-Råholmen;Råholman" />
		<tag k="place" v="islet" />
		<tag k="ssr:stedsnr" v="926662" />
	</node>
	<node id="-18990" lat="66.5853611075" lon="12.8131138789">
		<tag k="name" v="Valøya" />
		<tag k="place" v="island" />
		<tag k="ssr:stedsnr" v="926637" />
	</node>
	<node id="-18989" lat="66.563311115" lon="12.8256583318">
		<tag k="name" v="Lamøya" />
		<tag k="place" v="island" />
		<tag k="ssr:stedsnr" v="926634" />
	</node>
	<node id="-18988" lat="66.5351833379" lon="13.0327277685">
		<tag k="name" v="Klubben" />
		<tag k="natural" v="cape" />
		<tag k="ssr:stedsnr" v="926631" />
	</node>
	<node id="-18983" lat="66.5928750043" lon="13.50766667">
		<tag k="name" v="Nordfjordvika" />
		<tag k="natural" v="bay" />
		<tag k="ssr:stedsnr" v="926321" />
	</node>
	<node id="-18977" lat="66.6375499978" lon="13.2729305559">
		<tag k="name" v="Plassholmen" />
		<tag k="place" v="islet" />
		<tag k="ssr:stedsnr" v="926274" />
	</node>
	<node id="-18975" lat="66.6523888931" lon="13.5558916583">
		<tag k="name" v="Øyneset" />
		<tag k="natural" v="cape" />
		<tag k="ssr:stedsnr" v="926263" />
	</node>
	<node id="-18974" lat="66.7016583295" lon="13.285675008">
		<tag k="name" v="Tryggestadvika" />
		<tag k="natural" v="bay" />
		<tag k="ssr:stedsnr" v="926240" />
	</node>
	<node id="-18970" lat="67.6406666625" lon="12.9191972312">
		<tag k="name" v="Vestfjorden" />
		<tag k="place" v="sea" />
		<tag k="ssr:stedsnr" v="926139" />
	</node>
	<node id="-18969" lat="66.5393777823" lon="13.0321249963">
		<tag k="name" v="Klubbgrunnen" />
		<tag k="natural" v="shoal" />
		<tag k="place" v="locality" />
		<tag k="ssr:stedsnr" v="926121" />
	</node>
	<node id="-18968" lat="66.5402111142" lon="12.763794436">
		<tag k="fixme" v="multiple name tags, choose one and add the other to alt_name" />
		<tag k="name" v="Indre Vikaskallen;Vikaskallen" />
		<tag k="natural" v="shoal" />
		<tag k="place" v="locality" />
		<tag k="ssr:stedsnr" v="926113" />
	</node>
	<node id="-18967" lat="66.5345694481" lon="12.7664444506">
		<tag k="name" v="Raudskallen" />
		<tag k="natural" v="shoal" />
		<tag k="place" v="locality" />
		<tag k="ssr:stedsnr" v="926112" />
	</node>
	<node id="-18966" lat="66.5569833376" lon="12.9717722327">
		<tag k="alt_name" v="Storbjørnøya" />
		<tag k="name" v="Bjørnøya" />
		<tag k="place" v="island" />
		<tag k="ssr:stedsnr" v="926100" />
	</node>
	<node id="-18964" lat="66.5948500021" lon="13.0305027797">
		<tag k="alt_name" v="Smørklumpen" />
		<tag k="name" v="Smørholmen" />
		<tag k="place" v="islet" />
		<tag k="ssr:stedsnr" v="926046" />
	</node>
	<node id="-18962" lat="66.5694249974" lon="12.9315916649">
		<tag k="alt_name" v="Rognholmen;Store Rognholmen" />
		<tag k="name" v="Storrognholmen" />
		<tag k="place" v="islet" />
		<tag k="ssr:stedsnr" v="926009" />
	</node>
	<node id="-18961" lat="66.5720111093" lon="12.8270000073">
		<tag k="alt_name" v="Klesjeøya" />
		<tag k="name" v="Klesjersøya" />
		<tag k="place" v="islet" />
		<tag k="ssr:stedsnr" v="926002" />
	</node>
	<node id="-18960" lat="66.492824996" lon="13.2347833334">
		<tag k="bay" v="fjord" />
		<tag k="name" v="Sørfjorden" />
		<tag k="natural" v="bay" />
		<tag k="ssr:stedsnr" v="925638" />
	</node>
	<node id="-18944" lat="66.5363194413" lon="13.0402388781">
		<tag k="loc_name" v="Molvika" />
		<tag k="name" v="Molvik" />
		<tag k="natural" v="bay" />
		<tag k="ssr:stedsnr" v="772256" />
	</node>
	<node id="-18940" lat="66.594216664" lon="12.940255552">
		<tag k="name" v="Kvitneset" />
		<tag k="natural" v="cape" />
		<tag k="ssr:stedsnr" v="772098" />
	</node>
	<node id="-18930" lat="66.5979055563" lon="12.5549444393">
		<tag k="name" v="Svartskjærskallan" />
		<tag k="natural" v="shoal" />
		<tag k="place" v="locality" />
		<tag k="ssr:stedsnr" v="760549" />
	</node>
	<node id="-18928" lat="66.5953138917" lon="12.9174083425">
		<tag k="name" v="Geiterøya" />
		<tag k="place" v="islet" />
		<tag k="ssr:stedsnr" v="744970" />
	</node>
	<node id="-18927" lat="66.6342361108" lon="12.9238888809">
		<tag k="name" v="Måsøya" />
		<tag k="place" v="island" />
		<tag k="ssr:stedsnr" v="744956" />
	</node>
	<node id="-18925" lat="66.6767611147" lon="13.0399694453">
		<tag k="name" v="Storsanden" />
		<tag k="natural" v="bay" />
		<tag k="ssr:stedsnr" v="744868" />
	</node>
	<node id="-18924" lat="66.7168583294" lon="13.2081166647">
		<tag k="name" v="Sleipnesodden" />
		<tag k="natural" v="cape" />
		<tag k="ssr:stedsnr" v="744827" />
	</node>
	<node id="-18922" lat="66.7676333378" lon="13.1773638792">
		<tag k="name" v="Kvalen" />
		<tag k="natural" v="shoal" />
		<tag k="place" v="locality" />
		<tag k="ssr:stedsnr" v="744820" />
	</node>
	<node id="-18921" lat="66.7628388859" lon="12.8623000068">
		<tag k="alt_name" v="Kobbskjeret" />
		<tag k="fixme" v="consider seamark:type=rock or natural=shoal" />
		<tag k="name" v="Kobbskjær" />
		<tag k="place" v="islet" />
		<tag k="ssr:stedsnr" v="744819" />
	</node>
	<node id="-18920" lat="66.7640138873" lon="12.8631888974">
		<tag k="alt_name" v="Ternskjeret" />
		<tag k="name" v="Tennskjær" />
		<tag k="place" v="islet" />
		<tag k="ssr:stedsnr" v="744818" />
	</node>
	<node id="-18919" lat="66.7611333298" lon="12.817944451">
		<tag k="name" v="Øvskallen" />
		<tag k="natural" v="shoal" />
		<tag k="place" v="locality" />
		<tag k="ssr:stedsnr" v="744817" />
	</node>
	<node id="-18918" lat="66.6512888933" lon="13.0491805463">
		<tag k="alt_name" v="Risholmen" />
		<tag k="name" v="Belgholmen" />
		<tag k="place" v="islet" />
		<tag k="ssr:stedsnr" v="744910" />
	</node>
	<node id="-18917" lat="66.6447388867" lon="12.7993277676">
		<tag k="name" v="Langtaren" />
		<tag k="natural" v="shoal" />
		<tag k="place" v="locality" />
		<tag k="ssr:stedsnr" v="744903" />
	</node>
	<node id="-18916" lat="66.5938361098" lon="12.6787777757">
		<tag k="name" v="Nordnesøya" />
		<tag k="place" v="island" />
		<tag k="ssr:stedsnr" v="744776" />
	</node>
	<node id="-18915" lat="66.6093333354" lon="12.680580556">
		<tag k="name" v="Bessvær" />
		<tag k="place" v="island" />
		<tag k="ssr:stedsnr" v="744756" />
	</node>
	<node id="-18914" lat="66.6156500019" lon="12.678805546">
		<tag k="name" v="Langøya" />
		<tag k="place" v="islet" />
		<tag k="ssr:stedsnr" v="744755" />
	</node>
	<node id="-18913" lat="66.646605555" lon="12.6599111194">
		<tag k="name" v="Oterværøya" />
		<tag k="place" v="islet" />
		<tag k="ssr:stedsnr" v="744725" />
	</node>
	<node id="-18912" lat="66.8447416685" lon="12.7568416675">
		<tag k="name" v="Vipgrunnen" />
		<tag k="natural" v="shoal" />
		<tag k="place" v="locality" />
		<tag k="ssr:stedsnr" v="744713" />
	</node>
	<node id="-18911" lat="66.6667083365" lon="12.5199305487">
		<tag k="name" v="Låtholmskallan" />
		<tag k="natural" v="shoal" />
		<tag k="place" v="locality" />
		<tag k="ssr:stedsnr" v="744711" />
	</node>
	<node id="-18910" lat="66.6804249972" lon="12.7050749945">
		<tag k="alt_name" v="Bleikværflesa" />
		<tag k="fixme" v="consider seamark:type=rock or natural=shoal" />
		<tag k="name" v="Blikværflesa" />
		<tag k="place" v="islet" />
		<tag k="ssr:stedsnr" v="744710" />
	</node>
	<node id="-18909" lat="66.6639999963" lon="12.5254805615">
		<tag k="name" v="Lyngvær" />
		<tag k="place" v="island" />
		<tag k="ssr:stedsnr" v="744707" />
	</node>
	<node id="-18908" lat="66.6480194476" lon="12.6632666687">
		<tag k="name" v="Otervær" />
		<tag k="place" v="island" />
		<tag k="ssr:stedsnr" v="744703" />
	</node>
	<node id="-18907" lat="66.8271833354" lon="12.675949991">
		<tag k="name" v="Litlgrunnen" />
		<tag k="natural" v="shoal" />
		<tag k="place" v="locality" />
		<tag k="ssr:stedsnr" v="744631" />
	</node>
	<node id="-18904" lat="66.8112916691" lon="12.6145000057">
		<tag k="fixme" v="consider seamark:type=rock or natural=shoal" />
		<tag k="name" v="Knøken" />
		<tag k="place" v="islet" />
		<tag k="ssr:stedsnr" v="744622" />
	</node>
	<node id="-18903" lat="66.6253999992" lon="12.9385499909">
		<tag k="name" v="Buøya" />
		<tag k="place" v="island" />
		<tag k="ssr:stedsnr" v="744619" />
	</node>
	<node id="-18902" lat="66.6380166702" lon="12.9857166758">
		<tag k="name" v="Bukkøya" />
		<tag k="place" v="island" />
		<tag k="ssr:stedsnr" v="744617" />
	</node>
	<node id="-18900" lat="66.5755722236" lon="12.9714499998">
		<tag k="alt_name" v="Engøya" />
		<tag k="name" v="Engøy" />
		<tag k="place" v="island" />
		<tag k="ssr:stedsnr" v="744610" />
	</node>
	<node id="-18898" lat="66.5622277749" lon="13.431455554">
		<tag k="name" v="Storvika" />
		<tag k="natural" v="bay" />
		<tag k="ssr:stedsnr" v="744604" />
	</node>
	<node id="-18896" lat="66.5438138908" lon="13.55173334">
		<tag k="alt_name" v="Sandvika, yt" />
		<tag k="name" v="Ytre Sandvika" />
		<tag k="natural" v="cape" />
		<tag k="ssr:stedsnr" v="744378" />
	</node>
	<node id="-18892" lat="66.5210916651" lon="13.6321333301">
		<tag k="name" v="Strompan" />
		<tag k="natural" v="cape" />
		<tag k="ssr:stedsnr" v="744358" />
	</node>
	<node id="-18881" lat="66.5480055577" lon="12.8643138811">
		<tag k="alt_name" v="Selsøyvågen, in;Indre Selsøyvågen" />
		<tag k="name" v="Innerselsøyvågen" />
		<tag k="natural" v="bay" />
		<tag k="ssr:stedsnr" v="744072" />
	</node>
	<node id="-18880" lat="66.5564027764" lon="12.9827250054">
		<tag k="name" v="Litlbjørnøya" />
		<tag k="place" v="island" />
		<tag k="ssr:stedsnr" v="744067" />
	</node>
	<node id="-18879" lat="66.5534249964" lon="12.8751583217">
		<tag k="name" v="Sandvikodden" />
		<tag k="natural" v="cape" />
		<tag k="ssr:stedsnr" v="744066" />
	</node>
	<node id="-18878" lat="66.5730194466" lon="13.1941361153">
		<tag k="fixme" v="consider seamark:type=rock or natural=shoal" />
		<tag k="name" v="Ternskjeret" />
		<tag k="place" v="islet" />
		<tag k="ssr:stedsnr" v="744010" />
	</node>
	<node id="-18876" lat="66.5893027749" lon="13.0368333241">
		<tag k="fixme" v="consider seamark:type=rock or natural=shoal" />
		<tag k="name" v="Kjøpmannsskjeret" />
		<tag k="place" v="islet" />
		<tag k="ssr:stedsnr" v="724808" />
	</node>
	<node id="-18867" lat="66.5003750042" lon="13.212741657">
		<tag k="name" v="Langstranda" />
		<tag k="natural" v="beach" />
		<tag k="place" v="locality" />
		<tag k="ssr:stedsnr" v="895023" />
	</node>
	<node id="-18856" lat="66.7112111126" lon="13.2830583243">
		<tag k="name" v="Skjåneset" />
		<tag k="natural" v="cape" />
		<tag k="ssr:stedsnr" v="894875" />
	</node>
	<node id="-18855" lat="66.7081472212" lon="13.2260305664">
		<tag k="name" v="Greinholmen" />
		<tag k="place" v="islet" />
		<tag k="ssr:stedsnr" v="894874" />
	</node>
	<node id="-18846" lat="66.6660583374" lon="13.5214305617">
		<tag k="name" v="Breivika" />
		<tag k="natural" v="bay" />
		<tag k="ssr:stedsnr" v="894557" />
	</node>
	<node id="-18838" lat="66.4721888905" lon="13.4205666605">
		<tag k="name" v="Kobbvika" />
		<tag k="natural" v="bay" />
		<tag k="ssr:stedsnr" v="894504" />
	</node>
	<node id="-18818" lat="66.59155278" lon="12.6449499919">
		<tag k="name" v="Øvergårdfjæra" />
		<tag k="natural" v="bay" />
		<tag k="ssr:stedsnr" v="711253" />
	</node>
	<node id="-18815" lat="66.5721861103" lon="12.9309749908">
		<tag k="name" v="Rognholmen" />
		<tag k="place" v="islet" />
		<tag k="ssr:stedsnr" v="711233" />
	</node>
	<node id="-18808" lat="66.6429250024" lon="13.3315805599">
		<tag k="name" v="Øyjordvika" />
		<tag k="natural" v="bay" />
		<tag k="ssr:stedsnr" v="894318" />
	</node>
	<node id="-18807" lat="66.6415055566" lon="13.3469166718">
		<tag k="name" v="Klubban" />
		<tag k="natural" v="cape" />
		<tag k="ssr:stedsnr" v="894308" />
	</node>
	<node id="-18803" lat="66.5707944458" lon="12.8356027874">
		<tag k="fixme" v="consider seamark:type=rock or natural=shoal" />
		<tag k="name" v="Prestskjeret" />
		<tag k="place" v="islet" />
		<tag k="ssr:stedsnr" v="894255" />
	</node>
	<node id="-18801" lat="66.5687999963" lon="12.9812277688">
		<tag k="name" v="Klubben" />
		<tag k="natural" v="cape" />
		<tag k="ssr:stedsnr" v="894223" />
	</node>
	<node id="-18798" lat="66.6561916705" lon="13.0725694444">
		<tag k="name" v="Litlbelgen" />
		<tag k="place" v="islet" />
		<tag k="ssr:stedsnr" v="894205" />
	</node>
	<node id="-18797" lat="66.6608833365" lon="13.0389388871">
		<tag k="name" v="Kjerkholmen" />
		<tag k="place" v="islet" />
		<tag k="ssr:stedsnr" v="894180" />
	</node>
	<node id="-18793" lat="66.6523777743" lon="13.1891555485">
		<tag k="name" v="Ørnneset" />
		<tag k="natural" v="cape" />
		<tag k="ssr:stedsnr" v="894119" />
	</node>
	<node id="-18792" lat="66.5919972217" lon="12.9334250088">
		<tag k="name" v="Glassandvika" />
		<tag k="natural" v="bay" />
		<tag k="ssr:stedsnr" v="894115" />
	</node>
	<node id="-18787" lat="66.6476166677" lon="13.2010499959">
		<tag k="name" v="Innerneset" />
		<tag k="natural" v="cape" />
		<tag k="ssr:stedsnr" v="894102" />
	</node>
	<node id="-18782" lat="66.5605194475" lon="12.8660277785">
		<tag k="name" v="Karihola" />
		<tag k="natural" v="bay" />
		<tag k="ssr:stedsnr" v="894060" />
	</node>
	<node id="-18774" lat="66.5410138867" lon="12.7976083421">
		<tag k="name" v="Storvika" />
		<tag k="natural" v="bay" />
		<tag k="ssr:stedsnr" v="894013" />
	</node>
	<node id="-18773" lat="66.5488999963" lon="12.8056888793">
		<tag k="name" v="Silsandholmen" />
		<tag k="natural" v="cape" />
		<tag k="ssr:stedsnr" v="894006" />
	</node>
	<node id="-18772" lat="66.5465055513" lon="12.8333444462">
		<tag k="name" v="Daumannstranda" />
		<tag k="natural" v="beach" />
		<tag k="place" v="locality" />
		<tag k="ssr:stedsnr" v="894002" />
	</node>
	<node id="-18770" lat="66.7700833337" lon="12.4692916606">
		<tag k="name" v="Sørråholmskjeret" />
		<tag k="place" v="islet" />
		<tag k="ssr:stedsnr" v="892173" />
	</node>
	<node id="-18769" lat="66.7664888915" lon="12.4772583382">
		<tag k="name" v="Smettholet" />
		<tag k="natural" v="strait" />
		<tag k="ssr:stedsnr" v="892172" />
	</node>
	<node id="-18766" lat="66.7644722256" lon="12.4349833428">
		<tag k="name" v="Kammaren" />
		<tag k="natural" v="shoal" />
		<tag k="place" v="locality" />
		<tag k="ssr:stedsnr" v="692716" />
	</node>
	<node id="-18765" lat="66.634933333" lon="13.2900083383">
		<tag k="name" v="Klubbholmen" />
		<tag k="place" v="islet" />
		<tag k="ssr:stedsnr" v="692399" />
	</node>
	<node id="-18763" lat="66.5289749968" lon="12.7920750041">
		<tag k="name" v="Teistholmen" />
		<tag k="place" v="islet" />
		<tag k="ssr:stedsnr" v="684117" />
	</node>
	<node id="-18762" lat="66.640588891" lon="13.0468166743">
		<tag k="alt_name" v="Esvågen, in" />
		<tag k="fixme" v="multiple name tags, choose one and add the other to alt_name" />
		<tag k="name" v="Esvågen;Indre Esvågen" />
		<tag k="natural" v="bay" />
		<tag k="ssr:stedsnr" v="683964" />
	</node>
	<node id="-18761" lat="66.6328499981" lon="12.9520500104">
		<tag k="alt_name" v="Trettøya, nordre" />
		<tag k="name" v="Nordre Trettøya" />
		<tag k="place" v="islet" />
		<tag k="ssr:stedsnr" v="683959" />
	</node>
	<node id="-18759" lat="66.6562416674" lon="13.1734777848">
		<tag k="name" v="Gloskiten" />
		<tag k="natural" v="cape" />
		<tag k="ssr:stedsnr" v="683911" />
	</node>
	<node id="-18757" lat="66.6084500008" lon="12.636508327">
		<tag k="name" v="Rørholmen" />
		<tag k="place" v="islet" />
		<tag k="ssr:stedsnr" v="683759" />
	</node>
	<node id="-18756" lat="66.6087972238" lon="12.6252777839">
		<tag k="name" v="Sørhamnholmen" />
		<tag k="place" v="islet" />
		<tag k="ssr:stedsnr" v="683757" />
	</node>
	<node id="-18755" lat="66.6809055556" lon="13.0381527684">
		<tag k="name" v="Brønnen" />
		<tag k="natural" v="bay" />
		<tag k="ssr:stedsnr" v="683872" />
	</node>
	<node id="-18754" lat="66.6835611118" lon="13.0046833254">
		<tag k="name" v="Hårvær" />
		<tag k="place" v="islet" />
		<tag k="ssr:stedsnr" v="683871" />
	</node>
	<node id="-18753" lat="66.7546916683" lon="13.1439138892">
		<tag k="name" v="Svinvær" />
		<tag k="place" v="island" />
		<tag k="ssr:stedsnr" v="683853" />
	</node>
	<node id="-18752" lat="66.6903638894" lon="12.7242555646">
		<tag k="name" v="Blikvær" />
		<tag k="place" v="island" />
		<tag k="ssr:stedsnr" v="683828" />
	</node>
	<node id="-18751" lat="66.738669447" lon="13.0872499895">
		<tag k="name" v="Vakthusholmen" />
		<tag k="place" v="islet" />
		<tag k="ssr:stedsnr" v="683818" />
	</node>
	<node id="-18746" lat="66.5860222184" lon="13.5320972275">
		<tag k="alt_name" v="Handvika, in" />
		<tag k="name" v="Indre Handvika" />
		<tag k="natural" v="bay" />
		<tag k="ssr:stedsnr" v="683311" />
	</node>
	<node id="-18736" lat="66.7091666628" lon="13.2862944411">
		<tag k="name" v="Einvollneset" />
		<tag k="natural" v="cape" />
		<tag k="ssr:stedsnr" v="651863" />
	</node>
	<node id="-18735" lat="66.7092305572" lon="13.2364305517">
		<tag k="name" v="Skaftet" />
		<tag k="place" v="islet" />
		<tag k="ssr:stedsnr" v="651859" />
	</node>
	<node id="-18719" lat="66.5244555589" lon="13.1821277825">
		<tag k="name" v="Breivika" />
		<tag k="natural" v="bay" />
		<tag k="ssr:stedsnr" v="651126" />
	</node>
	<node id="-18718" lat="66.6058138882" lon="13.0106472115">
		<tag k="name" v="Staulvågen" />
		<tag k="natural" v="beach" />
		<tag k="place" v="locality" />
		<tag k="ssr:stedsnr" v="650093" />
	</node>
	<node id="-18709" lat="66.6744944429" lon="13.2314999959">
		<tag k="name" v="Kvalvikneset" />
		<tag k="natural" v="cape" />
		<tag k="ssr:stedsnr" v="631368" />
	</node>
	<node id="-18705" lat="66.6003861071" lon="12.7196305476">
		<tag k="fixme" v="consider seamark:type=rock or natural=shoal" />
		<tag k="name" v="Leiskjeran" />
		<tag k="place" v="islet" />
		<tag k="ssr:stedsnr" v="598964" />
	</node>
	<node id="-18703" lat="66.6584138881" lon="13.4033749961">
		<tag k="name" v="Laksbua" />
		<tag k="natural" v="cape" />
		<tag k="ssr:stedsnr" v="712943" />
	</node>
	<node id="-18701" lat="66.680216665" lon="13.4576083391">
		<tag k="name" v="Mollvika" />
		<tag k="natural" v="bay" />
		<tag k="ssr:stedsnr" v="712893" />
	</node>
	<node id="-18694" lat="66.6456638917" lon="13.5403222241">
		<tag k="name" v="Lislvika" />
		<tag k="natural" v="bay" />
		<tag k="ssr:stedsnr" v="712528" />
	</node>
	<node id="-18674" lat="66.553544444" lon="12.8672749911">
		<tag k="name" v="Sandvikleira" />
		<tag k="natural" v="bay" />
		<tag k="ssr:stedsnr" v="712077" />
	</node>
	<node id="-18660" lat="66.6224694457" lon="13.4019944525">
		<tag k="name" v="Lamvika" />
		<tag k="natural" v="bay" />
		<tag k="ssr:stedsnr" v="711978" />
	</node>
	<node id="-18655" lat="66.5034638926" lon="13.3060722294">
		<tag k="name" v="Ressen" />
		<tag k="natural" v="cape" />
		<tag k="ssr:stedsnr" v="590507" />
	</node>
	<node id="-18653" lat="66.5382944437" lon="13.124080565">
		<tag k="name" v="Ytterhestvika" />
		<tag k="natural" v="bay" />
		<tag k="ssr:stedsnr" v="590147" />
	</node>
	<node id="-18650" lat="66.6045083301" lon="13.0062166587">
		<tag k="name" v="Håmannsvika" />
		<tag k="natural" v="bay" />
		<tag k="ssr:stedsnr" v="590105" />
	</node>
	<node id="-18647" lat="66.5334833361" lon="12.7976916565">
		<tag k="name" v="Gognvika" />
		<tag k="natural" v="bay" />
		<tag k="ssr:stedsnr" v="590062" />
	</node>
	<node id="-18642" lat="66.6401638918" lon="13.3547472151">
		<tag k="fixme" v="consider seamark:type=rock or natural=shoal" />
		<tag k="name" v="Kobbskjeret" />
		<tag k="place" v="islet" />
		<tag k="ssr:stedsnr" v="711277" />
	</node>
	<node id="-18638" lat="66.6543611069" lon="13.0801972303">
		<tag k="name" v="Dampsundet" />
		<tag k="natural" v="strait" />
		<tag k="ssr:stedsnr" v="711197" />
	</node>
	<node id="-18635" lat="66.5922611079" lon="12.9448333313">
		<tag k="fixme" v="consider seamark:type=rock or natural=shoal" />
		<tag k="name" v="Tennskjeret" />
		<tag k="place" v="islet" />
		<tag k="ssr:stedsnr" v="711119" />
	</node>
	<node id="-18626" lat="66.8391944422" lon="12.7099583442">
		<tag k="name" v="Nesøygrunnen" />
		<tag k="natural" v="shoal" />
		<tag k="place" v="locality" />
		<tag k="ssr:stedsnr" v="571902" />
	</node>
	<node id="-18625" lat="66.4609333323" lon="13.3429833348">
		<tag k="name" v="Storvika" />
		<tag k="natural" v="bay" />
		<tag k="ssr:stedsnr" v="571473" />
	</node>
	<node id="-18624" lat="66.6299666631" lon="12.9010750087">
		<tag k="name" v="Langtaren" />
		<tag k="natural" v="shoal" />
		<tag k="place" v="locality" />
		<tag k="ssr:stedsnr" v="571334" />
	</node>
	<node id="-18623" lat="66.6020805514" lon="12.9327166689">
		<tag k="fixme" v="consider seamark:type=rock or natural=shoal" />
		<tag k="name" v="Lysbotnskjær" />
		<tag k="place" v="islet" />
		<tag k="ssr:stedsnr" v="571321" />
	</node>
	<node id="-18617" lat="66.6548305516" lon="12.9402055611">
		<tag k="alt_name" v="Lyngøya, store" />
		<tag k="name" v="Store Lyngøya" />
		<tag k="place" v="island" />
		<tag k="ssr:stedsnr" v="562911" />
	</node>
	<node id="-18616" lat="66.5869611073" lon="12.6952361124">
		<tag k="name" v="Sandvikryggen" />
		<tag k="natural" v="shoal" />
		<tag k="place" v="locality" />
		<tag k="ssr:stedsnr" v="562809" />
	</node>
	<node id="-18611" lat="66.7062416624" lon="13.2684861099">
		<tag k="name" v="Risholman" />
		<tag k="place" v="islet" />
		<tag k="ssr:stedsnr" v="562206" />
	</node>
	<node id="-18610" lat="66.6240777743" lon="12.9956666724">
		<tag k="alt_name" v="Nordgjerøyvågen" />
		<tag k="name" v="Nordgjerdøyvågen" />
		<tag k="natural" v="bay" />
		<tag k="ssr:stedsnr" v="561929" />
	</node>
	<node id="-18609" lat="66.6594166673" lon="12.9821888902">
		<tag k="name" v="Hestøya" />
		<tag k="place" v="island" />
		<tag k="ssr:stedsnr" v="561902" />
	</node>
	<node id="-18608" lat="66.7620250005" lon="12.6083499967">
		<tag k="name" v="Storkjølsøya" />
		<tag k="place" v="island" />
		<tag k="ssr:stedsnr" v="561711" />
	</node>
	<node id="-18607" lat="66.7564416644" lon="12.5640277743">
		<tag k="name" v="Jojensaskallen" />
		<tag k="natural" v="shoal" />
		<tag k="place" v="locality" />
		<tag k="ssr:stedsnr" v="561709" />
	</node>
	<node id="-18606" lat="66.7517777815" lon="12.483580566">
		<tag k="alt_name" v="Vassvikholman;Vassprikholman" />
		<tag k="name" v="Vassprikholmen" />
		<tag k="place" v="islet" />
		<tag k="ssr:stedsnr" v="561708" />
	</node>
	<node id="-18605" lat="66.7396750036" lon="12.5347888857">
		<tag k="bay" v="fjord" />
		<tag k="name" v="Gurafjorden" />
		<tag k="natural" v="bay" />
		<tag k="ssr:stedsnr" v="561707" />
	</node>
	<node id="-18604" lat="66.7555361108" lon="12.459497212">
		<tag k="name" v="Finnøya" />
		<tag k="place" v="islet" />
		<tag k="ssr:stedsnr" v="561705" />
	</node>
	<node id="-18602" lat="66.5492249998" lon="13.2802694514">
		<tag k="name" v="Båtvika" />
		<tag k="natural" v="bay" />
		<tag k="ssr:stedsnr" v="561421" />
	</node>
	<node id="-18601" lat="66.5773916649" lon="12.8124777744">
		<tag k="alt_name" v="Tverrskallen" />
		<tag k="name" v="Tværskallen" />
		<tag k="natural" v="shoal" />
		<tag k="place" v="locality" />
		<tag k="ssr:stedsnr" v="561054" />
	</node>
	<node id="-18600" lat="66.5722277745" lon="13.0308666722">
		<tag k="name" v="Rangsundøya" />
		<tag k="place" v="island" />
		<tag k="ssr:stedsnr" v="561022" />
	</node>
	<node id="-18599" lat="66.57469167" lon="12.9652611068">
		<tag k="name" v="Engøykalven" />
		<tag k="place" v="islet" />
		<tag k="ssr:stedsnr" v="561017" />
	</node>
	<node id="-18598" lat="66.6528527761" lon="13.0720138774">
		<tag k="name" v="Rødøysund" />
		<tag k="natural" v="strait" />
		<tag k="ssr:stedsnr" v="693591" />
	</node>
	<node id="-18597" lat="66.7669111081" lon="12.6935944483">
		<tag k="name" v="Hestmannryggen" />
		<tag k="place" v="locality" />
		<tag k="ssr:stedsnr" v="692686" />
	</node>
	<node id="-18596" lat="66.5325472199" lon="12.9712083242">
		<tag k="name" v="Vikingen" />
		<tag k="place" v="islet" />
		<tag k="ssr:stedsnr" v="533841" />
	</node>
	<node id="-18580" lat="66.7574444438" lon="12.4611194425">
		<tag k="name" v="Skjeia" />
		<tag k="natural" v="cape" />
		<tag k="ssr:stedsnr" v="529208" />
	</node>
	<node id="-18575" lat="66.5584222185" lon="12.8714166599">
		<tag k="name" v="Håmannsvikodden" />
		<tag k="natural" v="cape" />
		<tag k="ssr:stedsnr" v="529043" />
	</node>
	<node id="-18574" lat="66.6041194436" lon="12.9984138892">
		<tag k="name" v="Gjømma" />
		<tag k="natural" v="bay" />
		<tag k="ssr:stedsnr" v="529033" />
	</node>
	<node id="-18569" lat="66.6507333319" lon="12.9135777882">
		<tag k="alt_name" v="Skarvholmskjeran" />
		<tag k="fixme" v="consider seamark:type=rock or natural=shoal" />
		<tag k="name" v="Skarvholmskjæran" />
		<tag k="place" v="islet" />
		<tag k="ssr:stedsnr" v="684935" />
	</node>
	<node id="-18568" lat="66.6743638879" lon="13.1774944504">
		<tag k="alt_name" v="Rønvikskjeran" />
		<tag k="fixme" v="consider seamark:type=rock or natural=shoal" />
		<tag k="name" v="Rønvikskjæran" />
		<tag k="place" v="islet" />
		<tag k="ssr:stedsnr" v="684886" />
	</node>
	<node id="-18567" lat="66.6699944433" lon="13.0396416723">
		<tag k="alt_name" v="Hestvika" />
		<tag k="name" v="Hestviken" />
		<tag k="natural" v="bay" />
		<tag k="ssr:stedsnr" v="684881" />
	</node>
	<node id="-18565" lat="66.794355553" lon="12.6202472149">
		<tag k="name" v="Voksholmskaftet" />
		<tag k="natural" v="shoal" />
		<tag k="place" v="locality" />
		<tag k="ssr:stedsnr" v="510708" />
	</node>
	<node id="-18564" lat="66.7831055556" lon="12.8586305522">
		<tag k="name" v="Skolten" />
		<tag k="natural" v="shoal" />
		<tag k="place" v="locality" />
		<tag k="ssr:stedsnr" v="684790" />
	</node>
	<node id="-18563" lat="66.8235194468" lon="12.750441669">
		<tag k="name" v="Skarvholmen" />
		<tag k="place" v="islet" />
		<tag k="ssr:stedsnr" v="684766" />
	</node>
	<node id="-18561" lat="66.8239333363" lon="12.6487833262">
		<tag k="name" v="Flesa" />
		<tag k="place" v="islet" />
		<tag k="ssr:stedsnr" v="684645" />
	</node>
	<node id="-18560" lat="66.5983008377" lon="13.5500177378">
		<tag k="bay" v="fjord" />
		<tag k="name" v="Nordfjorden" />
		<tag k="natural" v="bay" />
		<tag k="ssr:stedsnr" v="684623" />
	</node>
	<node id="-18559" lat="66.5968305594" lon="13.2303499982">
		<tag k="name" v="Digermulen" />
		<tag k="natural" v="cape" />
		<tag k="ssr:stedsnr" v="684621" />
	</node>
	<node id="-18551" lat="66.7537416647" lon="13.0986166593">
		<tag k="name" v="Litlmadsøya" />
		<tag k="place" v="islet" />
		<tag k="ssr:stedsnr" v="509515" />
	</node>
	<node id="-18542" lat="66.6347249987" lon="13.1342638976">
		<tag k="name" v="Skaftskallen" />
		<tag k="natural" v="shoal" />
		<tag k="place" v="locality" />
		<tag k="ssr:stedsnr" v="683947" />
	</node>
	<node id="-18541" lat="66.6299833371" lon="12.890833333">
		<tag k="name" v="Gjerdøyrevet" />
		<tag k="natural" v="shoal" />
		<tag k="place" v="locality" />
		<tag k="ssr:stedsnr" v="683939" />
	</node>
	<node id="-18537" lat="66.6242500012" lon="12.7564444485">
		<tag k="name" v="Risøyvær" />
		<tag k="place" v="island" />
		<tag k="ssr:stedsnr" v="683897" />
	</node>
	<node id="-18536" lat="66.6773805551" lon="12.9125166632">
		<tag k="fixme" v="consider seamark:type=rock or natural=shoal" />
		<tag k="name" v="Ausa" />
		<tag k="place" v="islet" />
		<tag k="ssr:stedsnr" v="683882" />
	</node>
	<node id="-18535" lat="66.6925638863" lon="13.0521333379">
		<tag k="alt_name" v="Medøyskjeret" />
		<tag k="fixme" v="consider seamark:type=rock or natural=shoal" />
		<tag k="name" v="Meøyskjær" />
		<tag k="place" v="islet" />
		<tag k="ssr:stedsnr" v="683880" />
	</node>
	<node id="-18534" lat="66.6204777739" lon="12.9175916733">
		<tag k="alt_name" v="Raudskjeret" />
		<tag k="name" v="Raudskjær" />
		<tag k="place" v="islet" />
		<tag k="ssr:stedsnr" v="683997" />
	</node>
	<node id="-18533" lat="66.6095888851" lon="12.819649992">
		<tag k="alt_name" v="Futøya, store" />
		<tag k="name" v="Store Futøya" />
		<tag k="place" v="island" />
		<tag k="ssr:stedsnr" v="683983" />
	</node>
	<node id="-18532" lat="66.6069305574" lon="12.9293722317">
		<tag k="alt_name" v="Stongholmen, yt" />
		<tag k="name" v="Ytterstangholmen" />
		<tag k="place" v="island" />
		<tag k="ssr:stedsnr" v="683980" />
	</node>
	<node id="-18529" lat="66.5923833333" lon="12.5668194359">
		<tag k="alt_name" v="Svartskjeret" />
		<tag k="fixme" v="consider seamark:type=rock or natural=shoal" />
		<tag k="name" v="Svartskjæret" />
		<tag k="place" v="islet" />
		<tag k="ssr:stedsnr" v="683746" />
	</node>
	<node id="-18528" lat="66.6654777819" lon="12.5395777697">
		<tag k="name" v="Måsøya" />
		<tag k="place" v="islet" />
		<tag k="ssr:stedsnr" v="683724" />
	</node>
	<node id="-18525" lat="66.715791666" lon="12.4847638876">
		<tag k="name" v="Håøya" />
		<tag k="place" v="islet" />
		<tag k="ssr:stedsnr" v="683708" />
	</node>
	<node id="-18524" lat="66.7469500009" lon="13.0683388819">
		<tag k="name" v="Dyrkleppan" />
		<tag k="place" v="islet" />
		<tag k="ssr:stedsnr" v="683836" />
	</node>
	<node id="-18523" lat="66.470641668" lon="13.3594805499">
		<tag k="alt_name" v="Skjernesvågen" />
		<tag k="fixme" v="multiple name tags, choose one and add the other to alt_name" />
		<tag k="name" v="Stjernesvågen;Skjærnesvågen" />
		<tag k="natural" v="bay" />
		<tag k="ssr:stedsnr" v="683652" />
	</node>
	<node id="-18520" lat="66.4659944486" lon="13.2347888994">
		<tag k="name" v="Håksvika" />
		<tag k="natural" v="bay" />
		<tag k="ssr:stedsnr" v="683639" />
	</node>
	<node id="-18518" lat="66.7125861111" lon="12.4967499989">
		<tag k="name" v="Leiholmskallen" />
		<tag k="natural" v="shoal" />
		<tag k="place" v="locality" />
		<tag k="ssr:stedsnr" v="683699" />
	</node>
	<node id="-18517" lat="66.7617166638" lon="12.4873583217">
		<tag k="alt_name" v="Sjurdøya" />
		<tag k="name" v="Sjuløya" />
		<tag k="place" v="island" />
		<tag k="ssr:stedsnr" v="683685" />
	</node>
	<node id="-18516" lat="66.754633335" lon="12.4923694378">
		<tag k="name" v="Sandøya" />
		<tag k="place" v="island" />
		<tag k="ssr:stedsnr" v="683670" />
	</node>
	<node id="-18515" lat="66.7866083375" lon="12.7097666599">
		<tag k="alt_name" v="Teistholmflesa" />
		<tag k="name" v="Teistholmflesan" />
		<tag k="place" v="islet" />
		<tag k="ssr:stedsnr" v="683659" />
	</node>
	<node id="-18514" lat="66.7583027781" lon="12.4368250011">
		<tag k="alt_name" v="Merra, l;Litle Merra" />
		<tag k="name" v="Litlmerra" />
		<tag k="place" v="islet" />
		<tag k="ssr:stedsnr" v="683657" />
	</node>
	<node id="-18512" lat="66.5980583365" lon="13.5255500076">
		<tag k="fixme" v="multiple name tags, choose one and add the other to alt_name" />
		<tag k="name" v="Nordfjordvågen;Vågen" />
		<tag k="natural" v="bay" />
		<tag k="ssr:stedsnr" v="683302" />
	</node>
	<node id="-18511" lat="66.5800972224" lon="13.500308335">
		<tag k="alt_name" v="Skjervika" />
		<tag k="name" v="Skjærvika" />
		<tag k="natural" v="bay" />
		<tag k="ssr:stedsnr" v="683294" />
	</node>
	<node id="-18504" lat="66.7087138847" lon="13.2418277847">
		<tag k="name" v="Brattholmen" />
		<tag k="place" v="islet" />
		<tag k="ssr:stedsnr" v="683125" />
	</node>
	<node id="-18501" lat="66.5617111149" lon="13.1961500019">
		<tag k="fixme" v="consider seamark:type=rock or natural=shoal" />
		<tag k="name" v="Skata" />
		<tag k="place" v="islet" />
		<tag k="ssr:stedsnr" v="683093" />
	</node>
	<node id="-18500" lat="66.5408444441" lon="13.4147277673">
		<tag k="name" v="Storstrompan" />
		<tag k="natural" v="cape" />
		<tag k="ssr:stedsnr" v="683385" />
	</node>
	<node id="-18499" lat="66.5762444447" lon="12.9996583303">
		<tag k="name" v="Litlhestøya" />
		<tag k="place" v="island" />
		<tag k="ssr:stedsnr" v="683050" />
	</node>
	<node id="-18498" lat="66.5857916675" lon="12.9025333428">
		<tag k="name" v="Sandvika" />
		<tag k="natural" v="bay" />
		<tag k="ssr:stedsnr" v="683046" />
	</node>
	<node id="-18496" lat="66.5661000015" lon="12.9745861016">
		<tag k="alt_name" v="Glotitingen" />
		<tag k="name" v="Glotettingen" />
		<tag k="place" v="islet" />
		<tag k="ssr:stedsnr" v="683019" />
	</node>
	<node id="-18495" lat="66.8144111095" lon="12.6930250003">
		<tag k="alt_name" v="Skårholmen, l" />
		<tag k="fixme" v="consider seamark:type=rock or natural=shoal" />
		<tag k="name" v="Litle Skårholmen" />
		<tag k="place" v="islet" />
		<tag k="ssr:stedsnr" v="502668" />
	</node>
	<node id="-18494" lat="66.8088138868" lon="12.5892916746">
		<tag k="fixme" v="multiple name tags, choose one and add the other to alt_name" />
		<tag k="name" v="Skjeribåan;Skjærvøybåan" />
		<tag k="natural" v="shoal" />
		<tag k="place" v="locality" />
		<tag k="ssr:stedsnr" v="502666" />
	</node>
	<node id="-18491" lat="66.6776138868" lon="12.9513666589">
		<tag k="name" v="Dragan" />
		<tag k="place" v="islet" />
		<tag k="ssr:stedsnr" v="501882" />
	</node>
	<node id="-18490" lat="66.6947083323" lon="13.1115027674">
		<tag k="alt_name" v="Rosøya, in" />
		<tag k="name" v="Indre Rosøya" />
		<tag k="place" v="island" />
		<tag k="ssr:stedsnr" v="501877" />
	</node>
	<node id="-18489" lat="66.6702222211" lon="13.0056277825">
		<tag k="fixme" v="multiple name tags, choose one and add the other to alt_name" />
		<tag k="name" v="Brattholmen;Bukkøya" />
		<tag k="place" v="island" />
		<tag k="ssr:stedsnr" v="501862" />
	</node>
	<node id="-18486" lat="66.6426416644" lon="12.7869944463">
		<tag k="alt_name" v="Tjuvholmen, l" />
		<tag k="name" v="Litle Tjuvholmen" />
		<tag k="place" v="islet" />
		<tag k="ssr:stedsnr" v="501904" />
	</node>
	<node id="-18485" lat="66.643330553" lon="12.7789277802">
		<tag k="alt_name" v="Tjuvholmen, store" />
		<tag k="name" v="Store Tjuvholmen" />
		<tag k="place" v="islet" />
		<tag k="ssr:stedsnr" v="501903" />
	</node>
	<node id="-18484" lat="66.6446749984" lon="12.6453194457">
		<tag k="name" v="Måsholmen" />
		<tag k="place" v="islet" />
		<tag k="ssr:stedsnr" v="501719" />
	</node>
	<node id="-18483" lat="66.6492138903" lon="12.6061194552">
		<tag k="alt_name" v="Sørkråktaren" />
		<tag k="name" v="Kråktaren" />
		<tag k="natural" v="shoal" />
		<tag k="place" v="locality" />
		<tag k="ssr:stedsnr" v="501717" />
	</node>
	<node id="-18482" lat="66.6449388892" lon="12.6493416565">
		<tag k="name" v="Ranværingsholmen" />
		<tag k="place" v="islet" />
		<tag k="ssr:stedsnr" v="501713" />
	</node>
	<node id="-18481" lat="66.8990805556" lon="12.8604944346">
		<tag k="name" v="Nordfallet" />
		<tag k="natural" v="shoal" />
		<tag k="place" v="locality" />
		<tag k="ssr:stedsnr" v="501703" />
	</node>
	<node id="-18480" lat="66.6624805589" lon="12.5644277738">
		<tag k="alt_name" v="Gamskjæret" />
		<tag k="fixme" v="consider seamark:type=rock or natural=shoal" />
		<tag k="name" v="Gammskjeret" />
		<tag k="place" v="islet" />
		<tag k="ssr:stedsnr" v="501702" />
	</node>
	<node id="-18479" lat="66.7308999957" lon="12.475927783">
		<tag k="name" v="Skarvholmen" />
		<tag k="place" v="islet" />
		<tag k="ssr:stedsnr" v="501665" />
	</node>
	<node id="-18477" lat="66.6627222192" lon="13.5390722284">
		<tag k="alt_name" v="Tjuvsneset" />
		<tag k="name" v="Kyvsneset" />
		<tag k="natural" v="cape" />
		<tag k="ssr:stedsnr" v="501274" />
	</node>
	<node id="-18476" lat="66.6606111066" lon="13.5413750056">
		<tag k="alt_name" v="Oterneset" />
		<tag k="name" v="Oterågneset" />
		<tag k="natural" v="cape" />
		<tag k="ssr:stedsnr" v="501272" />
	</node>
	<node id="-18472" lat="66.5787138874" lon="12.8974250018">
		<tag k="name" v="Storvikholmen" />
		<tag k="place" v="islet" />
		<tag k="ssr:stedsnr" v="501065" />
	</node>
	<node id="-18471" lat="66.5820527797" lon="12.8070083317">
		<tag k="alt_name" v="Raudholmen, l" />
		<tag k="name" v="Litle Raudholmen" />
		<tag k="place" v="islet" />
		<tag k="ssr:stedsnr" v="501055" />
	</node>
	<node id="-18470" lat="66.5778916706" lon="12.8371638821">
		<tag k="name" v="Foløya" />
		<tag k="place" v="island" />
		<tag k="ssr:stedsnr" v="501053" />
	</node>
	<node id="-18469" lat="66.583875003" lon="13.5034333431">
		<tag k="name" v="Bakvikodden" />
		<tag k="natural" v="cape" />
		<tag k="ssr:stedsnr" v="501314" />
	</node>
	<node id="-18467" lat="66.5411888922" lon="12.7855277675">
		<tag k="name" v="Raudholmen" />
		<tag k="place" v="islet" />
		<tag k="ssr:stedsnr" v="501108" />
	</node>
	<node id="-18460" lat="66.5173138849" lon="13.6561000072">
		<tag k="name" v="Bjørkneset" />
		<tag k="natural" v="cape" />
		<tag k="ssr:stedsnr" v="469608" />
	</node>
	<node id="-18456" lat="66.5479555535" lon="12.8289333381">
		<tag k="name" v="Vågneset" />
		<tag k="natural" v="cape" />
		<tag k="ssr:stedsnr" v="469002" />
	</node>
	<node id="-18454" lat="66.7733500027" lon="12.4453861058">
		<tag k="name" v="Inner Bremholmen" />
		<tag k="place" v="islet" />
		<tag k="ssr:stedsnr" v="467173" />
	</node>
	<node id="-18451" lat="66.6192416657" lon="12.6856249904">
		<tag k="name" v="Bessværskallen" />
		<tag k="natural" v="shoal" />
		<tag k="place" v="locality" />
		<tag k="ssr:stedsnr" v="441786" />
	</node>
	<node id="-18450" lat="66.6189999984" lon="12.5926055621">
		<tag k="fixme" v="consider seamark:type=rock or natural=shoal" />
		<tag k="name" v="Rundflesa" />
		<tag k="place" v="islet" />
		<tag k="ssr:stedsnr" v="441777" />
	</node>
	<node id="-18449" lat="66.60282778" lon="12.7047666565">
		<tag k="name" v="Giryggen" />
		<tag k="natural" v="shoal" />
		<tag k="place" v="locality" />
		<tag k="ssr:stedsnr" v="441768" />
	</node>
	<node id="-18448" lat="66.6054472257" lon="12.6837694524">
		<tag k="name" v="Svinøya" />
		<tag k="place" v="islet" />
		<tag k="ssr:stedsnr" v="441764" />
	</node>
	<node id="-18447" lat="66.6476583324" lon="12.6644250012">
		<tag k="name" v="Oterværholmen" />
		<tag k="place" v="islet" />
		<tag k="ssr:stedsnr" v="512782" />
	</node>
	<node id="-18446" lat="66.6870833301" lon="12.7209861092">
		<tag k="name" v="Rauholmen" />
		<tag k="place" v="islet" />
		<tag k="ssr:stedsnr" v="512759" />
	</node>
	<node id="-18444" lat="66.5392777814" lon="12.8835888791">
		<tag k="name" v="Osan" />
		<tag k="natural" v="beach" />
		<tag k="place" v="locality" />
		<tag k="ssr:stedsnr" v="511508" />
	</node>
	<node id="-18443" lat="66.6194611086" lon="12.7191166715">
		<tag k="fixme" v="consider seamark:type=rock or natural=shoal" />
		<tag k="name" v="Innersaltskjær" />
		<tag k="place" v="islet" />
		<tag k="ssr:stedsnr" v="511499" />
	</node>
	<node id="-18438" lat="66.7167055556" lon="12.4561277808">
		<tag k="name" v="Litlandersholmknausen" />
		<tag k="natural" v="shoal" />
		<tag k="place" v="locality" />
		<tag k="ssr:stedsnr" v="510701" />
	</node>
</osm>
