<?xml version="1.0" encoding="UTF-8"?>
<osm generator="osmapis" version="0.6">
	<node id="-19451" lat="66.5485833314" lon="13.6127500059">
		<tag k="alt_name" v="Stelåga, indre" />
		<tag k="fixme" v="multiple name tags, choose one and add the other to alt_name" />
		<tag k="name" v="Stellåga;Indre Stelåga" />
		<tag k="ssr:stedsnr" v="137405" />
		<tag k="waterway" v="stream" />
	</node>
	<node id="-18936" lat="66.5461055531" lon="12.8574555467">
		<tag k="name" v="Steinbekken" />
		<tag k="ssr:stedsnr" v="772055" />
		<tag k="waterway" v="stream" />
	</node>
	<node id="-19445" lat="66.6355305536" lon="13.6247555459">
		<tag k="name" v="Reppavatnet" />
		<tag k="natural" v="water" />
		<tag k="ssr:stedsnr" v="137224" />
		<tag k="water" v="lake" />
	</node>
	<node id="-19444" lat="66.6341333338" lon="13.530100008">
		<tag k="alt_name" v="Øvervatnet" />
		<tag k="fixme" v="multiple name tags, choose one and add the other to alt_name" />
		<tag k="name" v="Øverkjettavatnet;Øvrevatnet" />
		<tag k="natural" v="water" />
		<tag k="ssr:stedsnr" v="137219" />
	</node>
	<node id="-18418" lat="66.5013694455" lon="13.6792416724">
		<tag k="name" v="Gjervalåga" />
		<tag k="ssr:stedsnr" v="502390" />
		<tag k="waterway" v="stream" />
	</node>
	<node id="-19441" lat="66.5036055587" lon="13.5134750093">
		<tag k="name" v="Sandvikvatnan" />
		<tag k="natural" v="water" />
		<tag k="ssr:stedsnr" v="137364" />
		<tag k="water" v="lake" />
	</node>
	<node id="-19440" lat="66.6101138853" lon="13.256611119">
		<tag k="alt_name" v="Møllevatnet" />
		<tag k="name" v="Møllvatnet" />
		<tag k="natural" v="water" />
		<tag k="ssr:stedsnr" v="137331" />
	</node>
	<node id="-19436" lat="66.5832694405" lon="13.6222333341">
		<tag k="name" v="Isvatnet" />
		<tag k="natural" v="water" />
		<tag k="ssr:stedsnr" v="137290" />
	</node>
	<node id="-18923" lat="66.4097833306" lon="13.2779444348">
		<tag k="name" v="Smibelgvatnet" />
		<tag k="natural" v="water" />
		<tag k="ssr:stedsnr" v="744826" />
		<tag k="water" v="lake" />
	</node>
	<node id="-19433" lat="66.6495444435" lon="13.4087472203">
		<tag k="name" v="Heststellbekken" />
		<tag k="ssr:stedsnr" v="106962" />
		<tag k="waterway" v="stream" />
	</node>
	<node id="-17894" lat="66.436288885" lon="13.237533332">
		<tag k="name" v="Tverråga" />
		<tag k="ssr:stedsnr" v="259672" />
		<tag k="waterway" v="stream" />
	</node>
	<node id="-19419" lat="66.6936361078" lon="13.3909666655">
		<tag k="name" v="Eidsvikelva" />
		<tag k="ssr:stedsnr" v="105939" />
		<tag k="waterway" v="river" />
	</node>
	<node id="-19416" lat="66.7250500039" lon="13.3399500093">
		<tag k="name" v="Lomtjønnan" />
		<tag k="natural" v="water" />
		<tag k="ssr:stedsnr" v="105882" />
	</node>
	<node id="-18390" lat="66.4923638914" lon="13.3425749996">
		<tag k="name" v="Haugvikvatnet" />
		<tag k="natural" v="water" />
		<tag k="ssr:stedsnr" v="501625" />
	</node>
	<node id="-17877" lat="66.6263888903" lon="13.3296000098">
		<tag k="name" v="Amundvatnet" />
		<tag k="natural" v="water" />
		<tag k="ssr:stedsnr" v="259357" />
	</node>
	<node id="-18387" lat="66.4982611113" lon="13.370213883">
		<tag k="name" v="Urdaskardtjørna" />
		<tag k="natural" v="water" />
		<tag k="ssr:stedsnr" v="501616" />
	</node>
	<node id="-18897" lat="66.4931111115" lon="13.2170777736">
		<tag k="name" v="Jansvikelva" />
		<tag k="ssr:stedsnr" v="744453" />
		<tag k="waterway" v="stream" />
	</node>
	<node id="-18894" lat="66.5210111149" lon="13.4806139008">
		<tag k="name" v="Sleåvatnan" />
		<tag k="natural" v="water" />
		<tag k="ssr:stedsnr" v="744369" />
		<tag k="water" v="lake" />
	</node>
	<node id="-19404" lat="66.4806027782" lon="13.5249944399">
		<tag k="name" v="Gjervaldalselva" />
		<tag k="ssr:stedsnr" v="105478" />
		<tag k="waterway" v="river" />
	</node>
	<node id="-18379" lat="66.6337750003" lon="13.5944444416">
		<tag k="alt_name" v="Sølvfastvatnet, øvre" />
		<tag k="name" v="Øvre Sølvfastvatnet" />
		<tag k="natural" v="water" />
		<tag k="ssr:stedsnr" v="501245" />
	</node>
	<node id="-18378" lat="66.6254194474" lon="13.4624138993">
		<tag k="alt_name" v="Møllevatnet, nedre" />
		<tag k="fixme" v="multiple name tags, choose one and add the other to alt_name" />
		<tag k="name" v="Mølnhusvatnet;Nedre Møllevatnet" />
		<tag k="natural" v="water" />
		<tag k="ssr:stedsnr" v="501240" />
	</node>
	<node id="-17864" lat="66.6398055522" lon="13.4981055629">
		<tag k="name" v="Jordembekken" />
		<tag k="ssr:stedsnr" v="259254" />
		<tag k="waterway" v="stream" />
	</node>
	<node id="-19020" lat="66.6716666658" lon="13.6023916708">
		<tag k="alt_name" v="Breidråna" />
		<tag k="name" v="Breiråna" />
		<tag k="ssr:stedsnr" v="927214" />
		<tag k="waterway" v="stream" />
	</node>
	<node id="-19398" lat="66.6034722264" lon="13.3002749928">
		<tag k="name" v="Krokbekken" />
		<tag k="ssr:stedsnr" v="105442" />
		<tag k="waterway" v="stream" />
	</node>
	<node id="-18885" lat="66.5628833377" lon="13.3720166711">
		<tag k="name" v="Tømmerneselva" />
		<tag k="ssr:stedsnr" v="744257" />
		<tag k="waterway" v="stream" />
	</node>
	<node id="-18883" lat="66.648586111" lon="13.2475194346">
		<tag k="name" v="Krumvatnet" />
		<tag k="natural" v="water" />
		<tag k="ssr:stedsnr" v="744230" />
		<tag k="water" v="lake" />
	</node>
	<node id="-18367" lat="66.5328416695" lon="13.5051194493">
		<tag k="name" v="Sleåga" />
		<tag k="ssr:stedsnr" v="501383" />
		<tag k="waterway" v="river" />
	</node>
	<node id="-18366" lat="66.5306944487" lon="13.3973777839">
		<tag k="name" v="Djupåga" />
		<tag k="ssr:stedsnr" v="501377" />
		<tag k="waterway" v="stream" />
	</node>
	<node id="-18874" lat="66.6451833347" lon="13.3943638785">
		<tag k="name" v="Storholmen" />
		<tag k="place" v="islet" />
		<tag k="ssr:stedsnr" v="895961" />
	</node>
	<node id="-17843" lat="66.6487555523" lon="13.4810194472">
		<tag k="name" v="Kvanndalsvatnet" />
		<tag k="natural" v="water" />
		<tag k="ssr:stedsnr" v="77266" />
	</node>
	<node id="-18353" lat="66.6850555536" lon="13.4830472264">
		<tag k="name" v="Bjørntindelva" />
		<tag k="ssr:stedsnr" v="348870" />
		<tag k="waterway" v="river" />
	</node>
	<node id="-18864" lat="66.6531249966" lon="13.4981055439">
		<tag k="name" v="Kvanndalselva" />
		<tag k="ssr:stedsnr" v="712974" />
		<tag k="waterway" v="stream" />
	</node>
	<node id="-18863" lat="66.646686108" lon="13.3908944519">
		<tag k="name" v="Blokelva" />
		<tag k="ssr:stedsnr" v="712969" />
		<tag k="waterway" v="river" />
	</node>
	<node id="-19373" lat="66.481069444" lon="13.2890472287">
		<tag k="name" v="Hellvikelva" />
		<tag k="ssr:stedsnr" v="105045" />
		<tag k="waterway" v="river" />
	</node>
	<node id="-18348" lat="66.4870833349" lon="13.2203333246">
		<tag k="name" v="Hamnbekken" />
		<tag k="ssr:stedsnr" v="348368" />
		<tag k="waterway" v="stream" />
	</node>
	<node id="-18347" lat="66.6080277788" lon="13.2990277739">
		<tag k="name" v="Storsjyvatnet" />
		<tag k="natural" v="water" />
		<tag k="ssr:stedsnr" v="348414" />
	</node>
	<node id="-19271" lat="66.652983329" lon="13.4049305545">
		<tag k="name" v="Nordfjellbekken" />
		<tag k="ssr:stedsnr" v="45933" />
		<tag k="waterway" v="stream" />
	</node>
	<node id="-18929" lat="66.5084999969" lon="13.8069194531">
		<tag k="name" v="Storvasstindvatnet" />
		<tag k="natural" v="water" />
		<tag k="ssr:stedsnr" v="749823" />
		<tag k="water" v="lake" />
	</node>
	<node id="-17821" lat="66.6409611085" lon="13.4088611074">
		<tag k="name" v="Aspskogholmen" />
		<tag k="place" v="islet" />
		<tag k="ssr:stedsnr" v="227948" />
	</node>
	<node id="-18887" lat="66.569799997" lon="13.5631000059">
		<tag k="name" v="Nattmoråga" />
		<tag k="ssr:stedsnr" v="744268" />
		<tag k="waterway" v="river" />
	</node>
	<node id="-17814" lat="66.4732555559" lon="13.508388891">
		<tag k="name" v="Kroktjønnelva" />
		<tag k="ssr:stedsnr" v="227482" />
		<tag k="waterway" v="river" />
	</node>
	<node id="-18827" lat="66.6682027764" lon="13.0579083313">
		<tag k="name" v="Selvågosen" />
		<tag k="natural" v="bay" />
		<tag k="ssr:stedsnr" v="711174" />
	</node>
	<node id="-18071" lat="66.5316277792" lon="13.0992777688">
		<tag k="name" v="Svartvatnet" />
		<tag k="natural" v="water" />
		<tag k="ssr:stedsnr" v="441063" />
	</node>
	<node id="-17800" lat="66.4620999967" lon="13.3518027761">
		<tag k="name" v="Staubekken" />
		<tag k="ssr:stedsnr" v="227003" />
		<tag k="waterway" v="stream" />
	</node>
	<node id="-17797" lat="66.6630499979" lon="13.2290750077">
		<tag k="name" v="Evertvatnet" />
		<tag k="natural" v="water" />
		<tag k="ssr:stedsnr" v="226838" />
	</node>
	<node id="-17795" lat="66.6152916634" lon="13.5080416551">
		<tag k="name" v="Huntertjønna" />
		<tag k="natural" v="water" />
		<tag k="ssr:stedsnr" v="226625" />
	</node>
	<node id="-18303" lat="66.6993555565" lon="13.4681388966">
		<tag k="name" v="Rismålselva" />
		<tag k="ssr:stedsnr" v="469885" />
		<tag k="waterway" v="stream" />
	</node>
	<node id="-19325" lat="66.4976499964" lon="13.5829305599">
		<tag k="name" v="Gjervaltjørnan" />
		<tag k="natural" v="water" />
		<tag k="ssr:stedsnr" v="77656" />
		<tag k="water" v="lake" />
	</node>
	<node id="-18809" lat="66.6200333377" lon="13.3436027782">
		<tag k="name" v="Bringgårdselva" />
		<tag k="ssr:stedsnr" v="894352" />
		<tag k="waterway" v="river" />
	</node>
	<node id="-19320" lat="66.7043888907" lon="13.4653388994">
		<tag k="name" v="Ågvatnet" />
		<tag k="natural" v="water" />
		<tag k="ssr:stedsnr" v="77201" />
	</node>
	<node id="-17782" lat="66.6386944409" lon="13.2330666721">
		<tag k="name" v="Staulbekken" />
		<tag k="ssr:stedsnr" v="226288" />
		<tag k="waterway" v="stream" />
	</node>
	<node id="-19308" lat="66.5348749965" lon="12.8092444442">
		<tag k="name" v="Fjellvatnet" />
		<tag k="natural" v="water" />
		<tag k="ssr:stedsnr" v="77114" />
	</node>
	<node id="-18661" lat="66.6080277804" lon="13.3416694369">
		<tag k="name" v="Seterbekken" />
		<tag k="ssr:stedsnr" v="590418" />
		<tag k="waterway" v="stream" />
	</node>
	<node id="-19289" lat="66.5329250044" lon="13.5592361048">
		<tag k="name" v="Komagåga" />
		<tag k="ssr:stedsnr" v="77423" />
		<tag k="waterway" v="stream" />
	</node>
	<node id="-18775" lat="66.4872111103" lon="13.2148333273">
		<tag k="name" v="Lillebekken" />
		<tag k="ssr:stedsnr" v="894022" />
		<tag k="waterway" v="stream" />
	</node>
	<node id="-19286" lat="66.5101194484" lon="13.3242444368">
		<tag k="name" v="Oldervikelva" />
		<tag k="ssr:stedsnr" v="77408" />
		<tag k="waterway" v="river" />
	</node>
	<node id="-19284" lat="66.6168194422" lon="13.4814361093">
		<tag k="name" v="Anderslivatnet" />
		<tag k="natural" v="water" />
		<tag k="ssr:stedsnr" v="77383" />
	</node>
	<node id="-17998" lat="66.6467666708" lon="13.2954194533">
		<tag k="name" v="Melkstibekken" />
		<tag k="ssr:stedsnr" v="287300" />
		<tag k="waterway" v="stream" />
	</node>
	<node id="-19277" lat="66.6505694467" lon="13.3790999991">
		<tag k="name" v="Hopen" />
		<tag k="natural" v="water" />
		<tag k="ssr:stedsnr" v="77294" />
		<tag k="water" v="lake" />
	</node>
	<node id="-17738" lat="66.515411111" lon="13.5440777832">
		<tag k="alt_name" v="Komagvatnet, øvre" />
		<tag k="name" v="Øvre Komagvatnet" />
		<tag k="natural" v="water" />
		<tag k="ssr:stedsnr" v="16351" />
		<tag k="water" v="lake" />
	</node>
	<node id="-17737" lat="66.5121388854" lon="13.6715694403">
		<tag k="name" v="Storelva" />
		<tag k="ssr:stedsnr" v="16349" />
		<tag k="waterway" v="stream" />
	</node>
	<node id="-17736" lat="66.5001083374" lon="13.6589500041">
		<tag k="name" v="Larsholtjørna" />
		<tag k="natural" v="water" />
		<tag k="ssr:stedsnr" v="16346" />
	</node>
	<node id="-17735" lat="66.5036833321" lon="13.6947638801">
		<tag k="name" v="Litlvatnet" />
		<tag k="natural" v="water" />
		<tag k="ssr:stedsnr" v="16345" />
	</node>
	<node id="-17734" lat="66.6245638873" lon="13.5956527833">
		<tag k="fixme" v="multiple name tags, choose one and add the other to alt_name" />
		<tag k="name" v="Grønkvannlitjørna;Sølvfasttjønnan" />
		<tag k="natural" v="water" />
		<tag k="ssr:stedsnr" v="16333" />
		<tag k="water" v="lake" />
	</node>
	<node id="-17733" lat="66.6187083303" lon="13.3515416731">
		<tag k="alt_name" v="Brenngårdsvatnet" />
		<tag k="name" v="Bringgårdsvatnet" />
		<tag k="natural" v="water" />
		<tag k="ssr:stedsnr" v="16328" />
	</node>
	<node id="-17728" lat="66.595941671" lon="13.2568694412">
		<tag k="name" v="Buvikelva" />
		<tag k="ssr:stedsnr" v="16311" />
		<tag k="waterway" v="stream" />
	</node>
	<node id="-19261" lat="66.6155638892" lon="13.2880805637">
		<tag k="name" v="Buskartjønna" />
		<tag k="natural" v="water" />
		<tag k="ssr:stedsnr" v="45438" />
	</node>
	<node id="-19259" lat="66.6006861088" lon="13.3072583339">
		<tag k="name" v="Geitdalsbekken" />
		<tag k="ssr:stedsnr" v="45426" />
		<tag k="waterway" v="stream" />
	</node>
	<node id="-17714" lat="66.5770682736" lon="13.040034334">
		<tag k="alt_name" v="Håkarengvatnet" />
		<tag k="name" v="Håkaringvatnet" />
		<tag k="natural" v="water" />
		<tag k="ssr:stedsnr" v="16010" />
	</node>
	<node id="-18222" lat="66.5385611096" lon="13.6549388906">
		<tag k="name" v="Brennbakkbekken" />
		<tag k="ssr:stedsnr" v="287619" />
		<tag k="waterway" v="stream" />
	</node>
	<node id="-19244" lat="66.6142277812" lon="13.5150027771">
		<tag k="name" v="Kvannbekken" />
		<tag k="ssr:stedsnr" v="44595" />
		<tag k="waterway" v="stream" />
	</node>
	<node id="-18738" lat="66.696508337" lon="13.453483332">
		<tag k="name" v="Hesthølan" />
		<tag k="place" v="locality" />
		<tag k="ssr:stedsnr" v="651890" />
	</node>
	<node id="-18217" lat="66.654602776" lon="13.2365777708">
		<tag k="name" v="Ævabekken" />
		<tag k="ssr:stedsnr" v="287355" />
		<tag k="waterway" v="stream" />
	</node>
	<node id="-18211" lat="66.6458305577" lon="13.2813833318">
		<tag k="name" v="Mølnelva" />
		<tag k="ssr:stedsnr" v="287410" />
		<tag k="waterway" v="stream" />
	</node>
	<node id="-19223" lat="66.5428416634" lon="13.114161112">
		<tag k="name" v="Osan" />
		<tag k="natural" v="bay" />
		<tag k="ssr:stedsnr" v="44142" />
	</node>
	<node id="-17996" lat="66.6467361105" lon="13.3054305504">
		<tag k="name" v="Naustbekken" />
		<tag k="ssr:stedsnr" v="287279" />
		<tag k="waterway" v="stream" />
	</node>
	<node id="-17880" lat="66.4918166664" lon="13.1866694408">
		<tag k="name" v="Kilbogvatnet" />
		<tag k="natural" v="water" />
		<tag k="ssr:stedsnr" v="259479" />
	</node>
	<node id="-17791" lat="66.5070722189" lon="13.7274027688">
		<tag k="name" v="Lahågbukta" />
		<tag k="natural" v="bay" />
		<tag k="ssr:stedsnr" v="226602" />
	</node>
	<node id="-18179" lat="66.5523388896" lon="13.6842583313">
		<tag k="name" v="Storvikåvatnet" />
		<tag k="natural" v="water" />
		<tag k="ssr:stedsnr" v="259417" />
		<tag k="water" v="lake" />
	</node>
	<node id="-18475" lat="66.6432250031" lon="13.6432583446">
		<tag k="alt_name" v="Memorvatnet" />
		<tag k="name" v="Memaurvatnet" />
		<tag k="natural" v="water" />
		<tag k="ssr:stedsnr" v="501265" />
		<tag k="water" v="lake" />
	</node>
	<node id="-18686" lat="66.4773000029" lon="13.4598861094">
		<tag k="name" v="Stranda" />
		<tag k="natural" v="beach" />
		<tag k="ssr:stedsnr" v="712440" />
	</node>
	<node id="-18683" lat="66.6454111069" lon="13.2282111128">
		<tag k="name" v="Svarttjønna" />
		<tag k="natural" v="water" />
		<tag k="ssr:stedsnr" v="712351" />
	</node>
	<node id="-18682" lat="66.6454555531" lon="13.2377472226">
		<tag k="name" v="Nord-Sidrovatnet" />
		<tag k="natural" v="water" />
		<tag k="ssr:stedsnr" v="712345" />
	</node>
	<node id="-18681" lat="66.590127777" lon="13.2434388857">
		<tag k="name" v="Einvikelva" />
		<tag k="ssr:stedsnr" v="712376" />
		<tag k="waterway" v="stream" />
	</node>
	<node id="-18680" lat="66.5600527739" lon="13.225194438">
		<tag k="name" v="Bogbekken" />
		<tag k="ssr:stedsnr" v="712370" />
		<tag k="waterway" v="stream" />
	</node>
	<node id="-18161" lat="66.659422223" lon="13.3103388969">
		<tag k="alt_name" v="Vassdalsvatnet, øvre" />
		<tag k="name" v="Øvre Vassdalsvatnet" />
		<tag k="natural" v="water" />
		<tag k="ssr:stedsnr" v="258324" />
	</node>
	<node id="-19182" lat="66.443666671" lon="13.3234027804">
		<tag k="name" v="Vakkerjordvatna" />
		<tag k="natural" v="water" />
		<tag k="ssr:stedsnr" v="16643" />
		<tag k="water" v="lake" />
	</node>
	<node id="-17789" lat="66.6502694473" lon="13.2478083432">
		<tag k="name" v="Krumholmen" />
		<tag k="place" v="islet" />
		<tag k="ssr:stedsnr" v="226395" />
	</node>
	<node id="-18668" lat="66.4918083317" lon="13.2057583334">
		<tag k="name" v="Kleivbekken" />
		<tag k="ssr:stedsnr" v="712040" />
		<tag k="waterway" v="stream" />
	</node>
	<node id="-19175" lat="66.4783611095" lon="13.4492416608">
		<tag k="name" v="Gjervalelva" />
		<tag k="ssr:stedsnr" v="16603" />
		<tag k="waterway" v="river" />
	</node>
	<node id="-18662" lat="66.6053527803" lon="13.3311222125">
		<tag k="name" v="Ståbidalselva" />
		<tag k="ssr:stedsnr" v="590424" />
		<tag k="waterway" v="stream" />
	</node>
	<node id="-19173" lat="66.5596055557" lon="13.3902249951">
		<tag k="name" v="Heiteråga" />
		<tag k="ssr:stedsnr" v="16402" />
		<tag k="waterway" v="stream" />
	</node>
	<node id="-19172" lat="66.5804888846" lon="13.4604777784">
		<tag k="name" v="Seiskallåga" />
		<tag k="ssr:stedsnr" v="16297" />
		<tag k="waterway" v="stream" />
	</node>
	<node id="-18658" lat="66.6557527785" lon="13.6047222256">
		<tag k="name" v="Memaurelva" />
		<tag k="ssr:stedsnr" v="590548" />
		<tag k="waterway" v="stream" />
	</node>
	<node id="-19169" lat="66.6562888874" lon="13.225772227">
		<tag k="alt_name" v="Storevatnet" />
		<tag k="name" v="Storvatnet" />
		<tag k="natural" v="water" />
		<tag k="ssr:stedsnr" v="16273" />
	</node>
	<node id="-19165" lat="66.6415555554" lon="13.4897944387">
		<tag k="name" v="Langtjørna" />
		<tag k="natural" v="water" />
		<tag k="ssr:stedsnr" v="16245" />
	</node>
	<node id="-18140" lat="66.6056166663" lon="13.3377777805">
		<tag k="name" v="Kjerringkrågbekken" />
		<tag k="ssr:stedsnr" v="227422" />
		<tag k="waterway" v="stream" />
	</node>
	<node id="-19158" lat="66.5204333345" lon="13.4375527797">
		<tag k="name" v="Hyttvatnet" />
		<tag k="natural" v="water" />
		<tag k="ssr:stedsnr" v="16376" />
		<tag k="water" v="lake" />
	</node>
	<node id="-19406" lat="66.4986416673" lon="13.3016972115">
		<tag k="name" v="Møssnesbekken" />
		<tag k="ssr:stedsnr" v="105518" />
		<tag k="waterway" v="stream" />
	</node>
	<node id="-18640" lat="66.6398527757" lon="13.2368861083">
		<tag k="name" v="Melkarvatnet" />
		<tag k="natural" v="water" />
		<tag k="ssr:stedsnr" v="711269" />
	</node>
	<node id="-19146" lat="66.5123861084" lon="13.1878527886">
		<tag k="name" v="Høydalselva" />
		<tag k="ssr:stedsnr" v="16152" />
		<tag k="waterway" v="stream" />
	</node>
	<node id="-18627" lat="66.6319527818" lon="13.5854750034">
		<tag k="name" v="Sølvfasttjønnan" />
		<tag k="natural" v="water" />
		<tag k="ssr:stedsnr" v="707618" />
		<tag k="water" v="lake" />
	</node>
	<node id="-19132" lat="66.6116583348" lon="13.4769944407">
		<tag k="name" v="Sørausterdalselva" />
		<tag k="ssr:stedsnr" v="955524" />
		<tag k="waterway" v="river" />
	</node>
	<node id="-18089" lat="66.5013500017" lon="13.422980547">
		<tag k="name" v="Rundvatnet" />
		<tag k="natural" v="water" />
		<tag k="ssr:stedsnr" v="441379" />
	</node>
	<node id="-19112" lat="66.6269499964" lon="13.4226305568">
		<tag k="alt_name" v="Strømdalselva" />
		<tag k="fixme" v="multiple name tags, choose one and add the other to alt_name" />
		<tag k="name" v="Østerdalselva;Straumdalselva" />
		<tag k="ssr:stedsnr" v="866222" />
		<tag k="waterway" v="river" />
	</node>
	<node id="-18082" lat="66.6576" lon="13.5940027695">
		<tag k="alt_name" v="Vasselva" />
		<tag k="fixme" v="multiple name tags, choose one and add the other to alt_name" />
		<tag k="name" v="Reppelva;Reppaelva" />
		<tag k="ssr:stedsnr" v="441273" />
		<tag k="waterway" v="river" />
	</node>
	<node id="-18081" lat="66.6420999969" lon="13.400422214">
		<tag k="alt_name" v="Blokvatnet" />
		<tag k="name" v="Blokkvatnet" />
		<tag k="natural" v="water" />
		<tag k="ssr:stedsnr" v="441258" />
		<tag k="water" v="lake" />
	</node>
	<node id="-18080" lat="66.6350694479" lon="13.4543111027">
		<tag k="name" v="Skredvatnet" />
		<tag k="natural" v="water" />
		<tag k="ssr:stedsnr" v="441241" />
	</node>
	<node id="-19103" lat="66.6646833316" lon="13.5969916751">
		<tag k="name" v="Vasshauet" />
		<tag k="natural" v="beach" />
		<tag k="ssr:stedsnr" v="834577" />
	</node>
	<node id="-17861" lat="66.6294666706" lon="13.3291833373">
		<tag k="name" v="Staklavatnet" />
		<tag k="natural" v="water" />
		<tag k="ssr:stedsnr" v="259230" />
	</node>
	<node id="-18585" lat="66.452411112" lon="13.3038805448">
		<tag k="name" v="Krokvatnet" />
		<tag k="natural" v="water" />
		<tag k="ssr:stedsnr" v="530009" />
		<tag k="water" v="lake" />
	</node>
	<node id="-19095" lat="66.5138000031" lon="13.293744448">
		<tag k="name" v="Gulbrandselva" />
		<tag k="ssr:stedsnr" v="834465" />
		<tag k="waterway" v="stream" />
	</node>
	<node id="-18579" lat="66.6633277764" lon="13.2063722131">
		<tag k="name" v="Rønvikvatnet" />
		<tag k="natural" v="water" />
		<tag k="ssr:stedsnr" v="529168" />
	</node>
	<node id="-19085" lat="66.5156722207" lon="13.6987583308">
		<tag k="name" v="Nøkktjønna" />
		<tag k="natural" v="water" />
		<tag k="ssr:stedsnr" v="833592" />
	</node>
	<node id="-19084" lat="66.5145166711" lon="13.6923972146">
		<tag k="name" v="Litlforsen" />
		<tag k="natural" v="waterfall" />
		<tag k="ssr:stedsnr" v="833591" />
	</node>
	<node id="-18555" lat="66.50965278" lon="13.4033694388">
		<tag k="name" v="Langvatnet" />
		<tag k="natural" v="water" />
		<tag k="ssr:stedsnr" v="684387" />
	</node>
	<node id="-18554" lat="66.5042249989" lon="13.366574991">
		<tag k="name" v="Heimervatnet" />
		<tag k="natural" v="water" />
		<tag k="ssr:stedsnr" v="684385" />
	</node>
	<node id="-18039" lat="66.4615249963" lon="13.2051500044">
		<tag k="name" v="Kvinvatnet" />
		<tag k="natural" v="water" />
		<tag k="ssr:stedsnr" v="198435" />
	</node>
	<node id="-18025" lat="66.6569861123" lon="13.4666555446">
		<tag k="name" v="Bjergaelva" />
		<tag k="ssr:stedsnr" v="288945" />
		<tag k="waterway" v="stream" />
	</node>
	<node id="-18034" lat="66.603325" lon="13.5284527862">
		<tag k="name" v="Gårdsvatnet" />
		<tag k="natural" v="water" />
		<tag k="ssr:stedsnr" v="198318" />
	</node>
	<node id="-18544" lat="66.5275250012" lon="13.1275611182">
		<tag k="name" v="Molvikvatnet" />
		<tag k="natural" v="water" />
		<tag k="ssr:stedsnr" v="684071" />
	</node>
	<node id="-19049" lat="66.444627775" lon="13.366302778">
		<tag k="alt_name" v="Storåvatnet, øvre" />
		<tag k="name" v="Øvre Storåvatnet" />
		<tag k="natural" v="water" />
		<tag k="ssr:stedsnr" v="927672" />
	</node>
	<node id="-19044" lat="66.5178333299" lon="13.6389416715">
		<tag k="name" v="Skavikbekken" />
		<tag k="ssr:stedsnr" v="805403" />
		<tag k="waterway" v="stream" />
	</node>
	<node id="-18530" lat="66.6855416627" lon="13.0844555654">
		<tag k="name" v="Risvikvatnet" />
		<tag k="natural" v="water" />
		<tag k="ssr:stedsnr" v="683875" />
	</node>
	<node id="-18522" lat="66.4741527781" lon="13.4277416557">
		<tag k="name" v="Kjerringvika" />
		<tag k="natural" v="bay" />
		<tag k="ssr:stedsnr" v="683647" />
	</node>
	<node id="-18008" lat="66.6101166646" lon="13.2995527795">
		<tag k="name" v="Litlsjyvatnet" />
		<tag k="natural" v="water" />
		<tag k="ssr:stedsnr" v="287445" />
	</node>
	<node id="-18519" lat="66.4941277785" lon="13.3996138909">
		<tag k="name" v="Storåvatnet" />
		<tag k="natural" v="water" />
		<tag k="ssr:stedsnr" v="683632" />
		<tag k="water" v="lake" />
	</node>
	<node id="-19028" lat="66.6124777771" lon="13.3100972133">
		<tag k="alt_name" v="Lomtjørna" />
		<tag k="name" v="Lomstjønna" />
		<tag k="natural" v="water" />
		<tag k="ssr:stedsnr" v="927382" />
	</node>
	<node id="-18513" lat="66.6227861069" lon="13.4576694537">
		<tag k="name" v="Møllhusbekken" />
		<tag k="ssr:stedsnr" v="683339" />
		<tag k="waterway" v="stream" />
	</node>
	<node id="-18510" lat="66.5817916648" lon="13.5917250009">
		<tag k="name" v="Nattmortjørnan" />
		<tag k="natural" v="water" />
		<tag k="ssr:stedsnr" v="683292" />
	</node>
	<node id="-18508" lat="66.6628972196" lon="13.2468277691">
		<tag k="alt_name" v="Litlevatnet" />
		<tag k="name" v="Litlvatnet" />
		<tag k="natural" v="water" />
		<tag k="ssr:stedsnr" v="683285" />
	</node>
	<node id="-19529" lat="66.4858749958" lon="13.7823861173">
		<tag k="name" v="Tjønnan" />
		<tag k="natural" v="water" />
		<tag k="ssr:stedsnr" v="165623" />
	</node>
	<node id="-18488" lat="66.53868333" lon="13.0686249884">
		<tag k="alt_name" v="Vikåga" />
		<tag k="name" v="Vikaåga" />
		<tag k="ssr:stedsnr" v="502112" />
		<tag k="waterway" v="stream" />
	</node>
	<node id="-18441" lat="66.6242027774" lon="13.318505554">
		<tag k="name" v="Forshauet" />
		<tag k="natural" v="bay" />
		<tag k="ssr:stedsnr" v="511413" />
	</node>
	<node id="-17966" lat="66.464858333" lon="13.3764944332">
		<tag k="name" v="Randholbekken" />
		<tag k="ssr:stedsnr" v="166473" />
		<tag k="waterway" v="stream" />
	</node>
	<node id="-18269" lat="66.6713555564" lon="13.2254138883">
		<tag k="name" v="Lappvikbekken" />
		<tag k="ssr:stedsnr" v="469292" />
		<tag k="waterway" v="stream" />
	</node>
	<node id="-18987" lat="66.5362083318" lon="13.6590694337">
		<tag k="name" v="Storvikåga" />
		<tag k="ssr:stedsnr" v="926402" />
		<tag k="waterway" v="river" />
	</node>
	<node id="-18986" lat="66.6201888895" lon="13.3288749952">
		<tag k="name" v="Gårdsvatnet" />
		<tag k="natural" v="water" />
		<tag k="ssr:stedsnr" v="926356" />
	</node>
	<node id="-18473" lat="66.6536555576" lon="13.482588892">
		<tag k="name" v="Bjergavatnet" />
		<tag k="natural" v="water" />
		<tag k="ssr:stedsnr" v="501253" />
	</node>
	<node id="-18984" lat="66.5859527781" lon="13.2675583339">
		<tag k="name" v="Hellvatnet" />
		<tag k="natural" v="water" />
		<tag k="ssr:stedsnr" v="926332" />
	</node>
	<node id="-18980" lat="66.5682111109" lon="13.3167777828">
		<tag k="name" v="Våtvikelva" />
		<tag k="ssr:stedsnr" v="926299" />
		<tag k="waterway" v="stream" />
	</node>
	<node id="-17955" lat="66.5407527808" lon="12.8391277793">
		<tag k="name" v="Mølnbekken" />
		<tag k="ssr:stedsnr" v="165015" />
		<tag k="waterway" v="stream" />
	</node>
	<node id="-17951" lat="66.6319527818" lon="13.5854750034">
		<tag k="alt_name" v="Sølvfastvatnet, nedre" />
		<tag k="name" v="Nedre Sølvfastvatnet" />
		<tag k="natural" v="water" />
		<tag k="ssr:stedsnr" v="163259" />
	</node>
	<node id="-17947" lat="66.723791664" lon="13.2608750016">
		<tag k="name" v="Sleipnesbekken" />
		<tag k="ssr:stedsnr" v="145863" />
		<tag k="waterway" v="stream" />
	</node>
	<node id="-19031" lat="66.5129083315" lon="13.6227666722">
		<tag k="name" v="Strompbekken" />
		<tag k="ssr:stedsnr" v="927418" />
		<tag k="waterway" v="stream" />
	</node>
	<node id="-19458" lat="66.4897166634" lon="13.2870277877">
		<tag k="name" v="Haugvikelva" />
		<tag k="ssr:stedsnr" v="137614" />
		<tag k="waterway" v="stream" />
	</node>
	<node id="-18433" lat="66.6440749995" lon="13.2363472279">
		<tag k="name" v="Sør-Sidrovatnet" />
		<tag k="natural" v="water" />
		<tag k="ssr:stedsnr" v="408406" />
	</node>
</osm>
